<?xml version="1.0" encoding="UTF-8" standalone="yes"?>
<!DOCTYPE earthquake SYSTEM "stationlist.dtd">
<stationlist created="" xmlns="ch.ethz.sed.shakemap.usgs.xml">
  <station code="KARP" name="KARP" netid="GE" insttype="STS-2/N" lat="35.5471" lon="27.1611">
    <comp name="--.HHN">
      <acc value="0.0902785765" flag="0"/>
      <vel value="0.0161227025" flag="0"/>
      <psa03 value="0.0509860222" flag="0"/>
      <psa10 value="0.0115409289" flag="0"/>
      <psa30 value="0.0005059750" flag="0"/>
    </comp>
    <comp name="--.HHE">
      <acc value="0.1262536021" flag="0"/>
      <vel value="0.0171264001" flag="0"/>
      <psa03 value="0.0586307493" flag="0"/>
      <psa10 value="0.0122441576" flag="0"/>
      <psa30 value="0.0006485334" flag="0"/>
    </comp>
    <comp name="--.HHZ">
      <acc value="0.0625951399" flag="0"/>
      <vel value="0.0147302775" flag="0"/>
      <psa03 value="0.0524691977" flag="0"/>
      <psa10 value="0.0055246093" flag="0"/>
      <psa30 value="0.0006017681" flag="0"/>
    </comp>
  </station>
  <station code="ZKR" name="ZKR" netid="GE" insttype="STS-2/N" lat="35.1147" lon="26.2169">
    <comp name="--.HHE">
      <acc value="0.0909427922" flag="0"/>
      <vel value="0.0254300076" flag="0"/>
      <psa03 value="0.0881692121" flag="0"/>
      <psa10 value="0.0181565452" flag="0"/>
      <psa30 value="0.0012413393" flag="0"/>
    </comp>
    <comp name="--.HHN">
      <acc value="0.0437947757" flag="0"/>
      <vel value="0.0127450089" flag="0"/>
      <psa03 value="0.0591114730" flag="0"/>
      <psa10 value="0.0040926492" flag="0"/>
      <psa30 value="0.0004437785" flag="0"/>
    </comp>
    <comp name="--.HHZ">
      <acc value="0.0540853482" flag="0"/>
      <vel value="0.0158638321" flag="0"/>
      <psa03 value="0.0444315968" flag="0"/>
      <psa10 value="0.0107619075" flag="0"/>
      <psa30 value="0.0005512253" flag="0"/>
    </comp>
  </station>
  <station code="STIA" name="STIA" netid="HC" insttype="120" lat="35.2021" lon="26.0909">
    <comp name="--.HHZ">
      <acc value="0.1089851236" flag="0"/>
      <vel value="0.0209359325" flag="0"/>
      <psa03 value="0.0648535875" flag="0"/>
      <psa10 value="0.0123336078" flag="0"/>
      <psa30 value="0.0005692723" flag="0"/>
    </comp>
    <comp name="--.HHN">
      <acc value="0.1070145089" flag="0"/>
      <vel value="0.0229328861" flag="0"/>
      <psa03 value="0.0891444833" flag="0"/>
      <psa10 value="0.0181337609" flag="0"/>
      <psa30 value="0.0014165325" flag="0"/>
    </comp>
    <comp name="--.HHE">
      <acc value="0.0683815058" flag="0"/>
      <vel value="0.0169735217" flag="0"/>
      <psa03 value="0.0713946729" flag="0"/>
      <psa10 value="0.0149171515" flag="0"/>
      <psa30 value="0.0013375260" flag="0"/>
    </comp>
  </station>
  <station code="SIT2" name="SIT2" netid="HI" insttype="CMG-5TD,ACCELEROMETER,GURALP" lat="35.2059" lon="26.107">
    <comp name="--.HNE">
      <acc value="0.0760441586" flag="0"/>
      <vel value="0.0440276818" flag="0"/>
      <psa03 value="0.2459364334" flag="0"/>
      <psa10 value="0.0277266296" flag="0"/>
      <psa30 value="0.0018908083" flag="0"/>
    </comp>
    <comp name="--.HNZ">
      <acc value="0.0858081206" flag="0"/>
      <vel value="0.0263509210" flag="0"/>
      <psa03 value="0.1449637238" flag="0"/>
      <psa10 value="0.0144959053" flag="0"/>
      <psa30 value="0.0007219206" flag="0"/>
    </comp>
    <comp name="--.HNN">
      <acc value="0.0754762746" flag="0"/>
      <vel value="0.0415538801" flag="0"/>
      <psa03 value="0.1887741375" flag="0"/>
      <psa10 value="0.0252334932" flag="0"/>
      <psa30 value="0.0014483149" flag="0"/>
    </comp>
  </station>
  <station code="IACM" name="IACM" netid="HL" insttype="120" lat="35.3058" lon="25.0709">
    <comp name="--.HHN">
      <acc value="0.0375199477" flag="0"/>
      <vel value="0.0158343239" flag="0"/>
      <psa03 value="0.0953609823" flag="0"/>
      <psa10 value="0.0160482034" flag="0"/>
      <psa30 value="0.0008196546" flag="0"/>
    </comp>
    <comp name="--.HHE">
      <acc value="0.0456826666" flag="0"/>
      <vel value="0.0263039027" flag="0"/>
      <psa03 value="0.1459956941" flag="0"/>
      <psa10 value="0.0347866340" flag="0"/>
      <psa30 value="0.0014535451" flag="0"/>
    </comp>
    <comp name="--.HHZ">
      <acc value="0.0374276851" flag="0"/>
      <vel value="0.0218238979" flag="0"/>
      <psa03 value="0.0786213925" flag="0"/>
      <psa10 value="0.0160323308" flag="0"/>
      <psa30 value="0.0009026239" flag="0"/>
    </comp>
  </station>
  <station code="KARP" name="KARP" netid="HL" insttype="120" lat="35.5471" lon="27.1611">
    <comp name="--.HHZ">
      <acc value="0.0588383069" flag="0"/>
      <vel value="0.0141986520" flag="0"/>
      <psa03 value="0.0511824791" flag="0"/>
      <psa10 value="0.0054485071" flag="0"/>
      <psa30 value="0.0006007199" flag="0"/>
    </comp>
    <comp name="--.HHE">
      <acc value="0.1106267322" flag="0"/>
      <vel value="0.0157197094" flag="0"/>
      <psa03 value="0.0566189133" flag="0"/>
      <psa10 value="0.0121867723" flag="0"/>
      <psa30 value="0.0006422511" flag="0"/>
    </comp>
    <comp name="--.HHN">
      <acc value="0.0849526154" flag="0"/>
      <vel value="0.0152085525" flag="0"/>
      <psa03 value="0.0491271434" flag="0"/>
      <psa10 value="0.0114439688" flag="0"/>
      <psa30 value="0.0005029279" flag="0"/>
    </comp>
  </station>
  <station code="NPS" name="NPS" netid="HL" insttype="CMG3ESPC-120s" lat="35.2613" lon="25.6104">
    <comp name="--.HHZ">
      <acc value="0.0629038642" flag="0"/>
      <vel value="0.0156792319" flag="0"/>
      <psa03 value="0.0938729503" flag="0"/>
      <psa10 value="0.0082789268" flag="0"/>
      <psa30 value="0.0004705875" flag="0"/>
    </comp>
    <comp name="--.HHN">
      <acc value="0.0803255140" flag="0"/>
      <vel value="0.0212765634" flag="0"/>
      <psa03 value="0.1528113068" flag="0"/>
      <psa10 value="0.0111437269" flag="0"/>
      <psa30 value="0.0006798428" flag="0"/>
    </comp>
    <comp name="--.HHE">
      <acc value="0.0350667018" flag="0"/>
      <vel value="0.0117873273" flag="0"/>
      <psa03 value="0.0581546059" flag="0"/>
      <psa10 value="0.0053392824" flag="0"/>
      <psa30 value="0.0002784905" flag="0"/>
    </comp>
  </station>
  <station code="ZKR" name="ZKR" netid="HL" insttype="120" lat="35.1147" lon="26.2169">
    <comp name="--.HHE">
      <acc value="0.0890694627" flag="0"/>
      <vel value="0.0250003588" flag="0"/>
      <psa03 value="0.0858650011" flag="0"/>
      <psa10 value="0.0179971330" flag="0"/>
      <psa30 value="0.0012342172" flag="0"/>
    </comp>
    <comp name="--.HHN">
      <acc value="0.0429552175" flag="0"/>
      <vel value="0.0124519891" flag="0"/>
      <psa03 value="0.0572376530" flag="0"/>
      <psa10 value="0.0039905387" flag="0"/>
      <psa30 value="0.0004362704" flag="0"/>
    </comp>
    <comp name="--.HHZ">
      <acc value="0.0524455651" flag="0"/>
      <vel value="0.0155176565" flag="0"/>
      <psa03 value="0.0429848013" flag="0"/>
      <psa10 value="0.0107033692" flag="0"/>
      <psa30 value="0.0005488975" flag="0"/>
    </comp>
  </station>
</stationlist>
