<stationlist created="1778136028">
	<station code="CH01" name="CH01" netid="HI" source="ITSAK Strong Motion Network" insttype="" lat="35.517" lon="24.0208">
		<comp name="--.HNE" depth="0.0">
			<acc value="0.00604125843860696" flag="0"/>
			<vel value="0.00311719758407808" flag="0"/>
			<psa03 value="0.00975380104278324" flag="0"/>
			<psa10 value="0.00665629807860029" flag="0"/>
			<psa30 value="0.000496191071396634" flag="0"/>
		</comp>
		<comp name="--.HNN" depth="0.0">
			<acc value="0.00533250630164751" flag="0"/>
			<vel value="0.00264366597490762" flag="0"/>
			<psa03 value="0.01087235620824" flag="0"/>
			<psa10 value="0.00576234879036722" flag="0"/>
			<psa30 value="0.000454133397175458" flag="0"/>
		</comp>
		<comp name="--.HNZ" depth="0.0">
			<acc value="0.00285170771073832" flag="0"/>
			<vel value="0.00195817475964096" flag="0"/>
			<psa03 value="0.00653236216626768" flag="0"/>
			<psa10 value="0.0030160721481377" flag="0"/>
			<psa30 value="0.000211183215238243" flag="0"/>
		</comp>
	</station>
	<station code="KSS1" name="KSS1" netid="HI" source="ITSAK Strong Motion Network" insttype="" lat="35.4189" lon="26.9207">
		<comp name="--.HNE" depth="0.0">
			<acc value="0.0996603110134545" flag="0"/>
			<vel value="0.0261840086394972" flag="0"/>
			<psa03 value="0.128633844027531" flag="0"/>
			<psa10 value="0.0110616157422353" flag="0"/>
			<psa30 value="0.000720796948620358" flag="0"/>
		</comp>
		<comp name="--.HNN" depth="0.0">
			<acc value="0.124162751970806" flag="0"/>
			<vel value="0.0398805229750309" flag="0"/>
			<psa03 value="0.413731184599159" flag="0"/>
			<psa10 value="0.0186319971020469" flag="0"/>
			<psa30 value="0.00170199353975906" flag="0"/>
		</comp>
		<comp name="--.HNZ" depth="0.0">
			<acc value="0.0887071528154552" flag="0"/>
			<vel value="0.0194392187492178" flag="0"/>
			<psa03 value="0.0687687715722837" flag="0"/>
			<psa10 value="0.00810594557303229" flag="0"/>
			<psa30 value="0.000901108041291993" flag="0"/>
		</comp>
	</station>
	<station code="SIT2" name="SIT2" netid="HI" source="ITSAK Strong Motion Network" insttype="" lat="35.2059" lon="26.107">
		<comp name="--.HNE" depth="0.0">
			<acc value="0.0760183966336974" flag="0"/>
			<vel value="0.0443126557847332" flag="0"/>
			<psa03 value="0.247558629218898" flag="0"/>
			<psa10 value="0.0277607495183729" flag="0"/>
			<psa30 value="0.00189170049582053" flag="0"/>
		</comp>
		<comp name="--.HNN" depth="0.0">
			<acc value="0.0755396456554117" flag="0"/>
			<vel value="0.0416662652232363" flag="0"/>
			<psa03 value="0.188454174276161" flag="0"/>
			<psa10 value="0.025268161187669" flag="0"/>
			<psa30 value="0.00149081032452081" flag="0"/>
		</comp>
		<comp name="--.HNZ" depth="0.0">
			<acc value="0.086110574805568" flag="0"/>
			<vel value="0.0270332776061656" flag="0"/>
			<psa03 value="0.148902063625608" flag="0"/>
			<psa10 value="0.0145367429302765" flag="0"/>
			<psa30 value="0.000742720629863311" flag="0"/>
		</comp>
	</station>
	<station code="IACM" name="IACM" netid="HL" source="National Observatory of Athens Seismic Network" insttype="" lat="35.3058" lon="25.0709">
		<comp name="--.HNE" depth="0.0">
			<acc value="0.0523555662146255" flag="0"/>
			<vel value="0.028971457902633" flag="0"/>
			<psa03 value="0.128768070647386" flag="0"/>
			<psa10 value="0.0333137047817666" flag="0"/>
			<psa30 value="0.00174942027877443" flag="0"/>
		</comp>
		<comp name="--.HNN" depth="0.0">
			<acc value="0.0485562630396632" flag="0"/>
			<vel value="0.0294163619135295" flag="0"/>
			<psa03 value="0.152034018088887" flag="0"/>
			<psa10 value="0.0276157847689297" flag="0"/>
			<psa30 value="0.00144562069583636" flag="0"/>
		</comp>
		<comp name="--.HNZ" depth="0.0">
			<acc value="0.0413597443847898" flag="0"/>
			<vel value="0.0185413835860431" flag="0"/>
			<psa03 value="0.0841153484423509" flag="0"/>
			<psa10 value="0.016501820644951" flag="0"/>
			<psa30 value="0.00063712902224419" flag="0"/>
		</comp>
	</station>
	<station code="IMMV" name="IMMV" netid="HL" source="National Observatory of Athens Seismic Network" insttype="" lat="35.4606" lon="23.9811">
		<comp name="--.HNE" depth="0.0">
			<acc value="0.00285284709317831" flag="0"/>
			<vel value="0.00199269670892637" flag="0"/>
			<psa03 value="0.0096643166295467" flag="0"/>
			<psa10 value="0.00436907647627424" flag="0"/>
			<psa30 value="0.000247871824665225" flag="0"/>
		</comp>
		<comp name="--.HNN" depth="0.0">
			<acc value="0.00350040110393721" flag="0"/>
			<vel value="0.00205568817634439" flag="0"/>
			<psa03 value="0.0129304977126805" flag="0"/>
			<psa10 value="0.00440934446223068" flag="0"/>
			<psa30 value="0.000280533635496564" flag="0"/>
		</comp>
		<comp name="--.HNZ" depth="0.0">
			<acc value="0.00336636290361187" flag="0"/>
			<vel value="0.00165265863087684" flag="0"/>
			<psa03 value="0.011364520481041" flag="0"/>
			<psa10 value="0.00156239785511005" flag="0"/>
			<psa30 value="0.000206261572510233" flag="0"/>
		</comp>
	</station>
	<station code="KARP" name="KARP" netid="HL" source="National Observatory of Athens Seismic Network" insttype="" lat="35.5471" lon="27.16106">
		<comp name="--.HNE" depth="0.0">
			<acc value="0.0922238156909874" flag="0"/>
			<vel value="0.0144189251199227" flag="0"/>
			<psa03 value="0.051364053197776" flag="0"/>
			<psa10 value="0.0109810797703224" flag="0"/>
			<psa30 value="0.000570463134382965" flag="0"/>
		</comp>
		<comp name="--.HNN" depth="0.0">
			<acc value="0.0797230490478317" flag="0"/>
			<vel value="0.0140297039755027" flag="0"/>
			<psa03 value="0.0473819968087498" flag="0"/>
			<psa10 value="0.00937036033206465" flag="0"/>
			<psa30 value="0.000433999404197236" flag="0"/>
		</comp>
		<comp name="--.HNZ" depth="0.0">
			<acc value="0.0514991424807888" flag="0"/>
			<vel value="0.0116029023403938" flag="0"/>
			<psa03 value="0.0414760255351379" flag="0"/>
			<psa10 value="0.00441739805942197" flag="0"/>
			<psa30 value="0.000540933278014905" flag="0"/>
		</comp>
	</station>
	<station code="SIVA" name="SIVA" netid="HL" source="National Observatory of Athens Seismic Network" insttype="" lat="35.01777" lon="24.81204">
		<comp name="00.HNE" depth="0.0">
			<acc value="0.0113129445045972" flag="0"/>
			<vel value="0.006775863068653" flag="0"/>
			<psa03 value="0.0363306717740367" flag="0"/>
			<psa10 value="0.00767105132470269" flag="0"/>
			<psa30 value="0.000387914931380416" flag="0"/>
		</comp>
		<comp name="00.HNN" depth="0.0">
			<acc value="0.00919542118897826" flag="0"/>
			<vel value="0.00635770354129844" flag="0"/>
			<psa03 value="0.0268900661775813" flag="0"/>
			<psa10 value="0.00764689053312883" flag="0"/>
			<psa30 value="0.00045771277370492" flag="0"/>
		</comp>
		<comp name="00.HNZ" depth="0.0">
			<acc value="0.00543063096133245" flag="0"/>
			<vel value="0.00271653328828981" flag="0"/>
			<psa03 value="0.0229974942017917" flag="0"/>
			<psa10 value="0.00182413976382694" flag="0"/>
			<psa30 value="0.000193733754657117" flag="0"/>
		</comp>
	</station>
	<station code="THRA" name="THRA" netid="HL" source="National Observatory of Athens Seismic Network" insttype="" lat="36.41502" lon="25.43244">
		<comp name="00.HNE" depth="0.0">
			<acc value="0.0376811317971374" flag="0"/>
			<vel value="0.0308434023219584" flag="0"/>
			<psa03 value="0.0708716552833425" flag="0"/>
			<psa10 value="0.0457685928380949" flag="0"/>
			<psa30 value="0.00276551579107538" flag="0"/>
		</comp>
		<comp name="00.HNN" depth="0.0">
			<acc value="0.0302109304522199" flag="0"/>
			<vel value="0.0223574336763092" flag="0"/>
			<psa03 value="0.06420506649722" flag="0"/>
			<psa10 value="0.0360036062436571" flag="0"/>
			<psa30 value="0.00225142783703143" flag="0"/>
		</comp>
		<comp name="00.HNZ" depth="0.0">
			<acc value="0.0234729517959214" flag="0"/>
			<vel value="0.0134439033355459" flag="0"/>
			<psa03 value="0.0451896286844545" flag="0"/>
			<psa10 value="0.01771388702224" flag="0"/>
			<psa30 value="0.000766881421437178" flag="0"/>
		</comp>
	</station>
</stationlist>
