<stationlist created="1775819698">
	<station code="KIS" name="KIS" netid="MD" source="Moldova Digital Seismic Network" insttype="" lat="46.9975" lon="28.8175">
		<comp name="--.HNE" depth="0.0">
			<acc value="0.0653610802543879" flag="0"/>
			<vel value="0.0224786059514769" flag="0"/>
			<psa03 value="0.117761487819291" flag="0"/>
			<psa10 value="0.0158937740570087" flag="0"/>
			<psa30 value="0.000761064934576802" flag="0"/>
		</comp>
		<comp name="--.HNN" depth="0.0">
			<acc value="0.0791698999446845" flag="0"/>
			<vel value="0.042985580411508" flag="0"/>
			<psa03 value="0.225187525909762" flag="0"/>
			<psa10 value="0.016014578014878" flag="0"/>
			<psa30 value="0.00107381295883852" flag="0"/>
		</comp>
		<comp name="--.HNZ" depth="0.0">
			<acc value="0.0474832486975648" flag="0"/>
			<vel value="0.0123604579505525" flag="0"/>
			<psa03 value="0.0698873267377405" flag="0"/>
			<psa10 value="0.00455430921167388" flag="0"/>
			<psa30 value="0.000299325362276238" flag="0"/>
		</comp>
	</station>
	<station code="PURM" name="PURM" netid="MD" source="Moldova Digital Seismic Network" insttype="" lat="46.5293" lon="29.8723">
		<comp name="--.HNE" depth="0.0">
			<acc value="0.0265577939610013" flag="0"/>
			<vel value="0.00807631652332562" flag="0"/>
			<psa03 value="0.0468003481227123" flag="0"/>
			<psa10 value="0.00399055740828366" flag="0"/>
			<psa30 value="0.000259952220452159" flag="0"/>
		</comp>
		<comp name="--.HNN" depth="0.0">
			<acc value="0.0245506271631993" flag="0"/>
			<vel value="0.00928858727477212" flag="0"/>
			<psa03 value="0.040178501543208" flag="0"/>
			<psa10 value="0.00943478910959496" flag="0"/>
			<psa30 value="0.000506481778918836" flag="0"/>
		</comp>
		<comp name="--.HNZ" depth="0.0">
			<acc value="0.0250535235875587" flag="0"/>
			<vel value="0.00735170451560369" flag="0"/>
			<psa03 value="0.0306931537401344" flag="0"/>
			<psa10 value="0.00217447124164801" flag="0"/>
			<psa30 value="0.000156150301097768" flag="0"/>
		</comp>
	</station>
	<station code="SORM" name="SORM" netid="MD" source="Moldova Digital Seismic Network" insttype="" lat="48.135" lon="28.3513">
		<comp name="--.HNE" depth="0.0">
			<acc value="0.0407838545993333" flag="0"/>
			<vel value="0.00608493300702889" flag="0"/>
			<psa03 value="0.0226842987554638" flag="0"/>
			<psa10 value="0.00440531766363504" flag="0"/>
			<psa30 value="0.000195076020855665" flag="0"/>
		</comp>
		<comp name="--.HNN" depth="0.0">
			<acc value="0.0351404361259688" flag="0"/>
			<vel value="0.00698637549661083" flag="0"/>
			<psa03 value="0.0238475961275388" flag="0"/>
			<psa10 value="0.00262144588576454" flag="0"/>
			<psa30 value="0.000126620444729709" flag="0"/>
		</comp>
		<comp name="--.HNZ" depth="0.0">
			<acc value="0.0368048165798803" flag="0"/>
			<vel value="0.00490461493775527" flag="0"/>
			<psa03 value="0.0244292448135764" flag="0"/>
			<psa10 value="0.000785225726150669" flag="0"/>
			<psa30 value="6.84555761259558e-05" flag="0"/>
		</comp>
	</station>
	<station code="BAC" name="BAC" netid="RO" source="Romanian Seismic Network (NIEP)" insttype="" lat="46.5669" lon="26.9124">
		<comp name="--.HNE" depth="0.0">
			<acc value="0.0510084706523522" flag="0"/>
			<vel value="0.0184429849323254" flag="0"/>
			<psa03 value="0.082817824450421" flag="0"/>
			<psa10 value="0.0211125050369639" flag="0"/>
			<psa30 value="0.00173286566232566" flag="0"/>
		</comp>
		<comp name="--.HNN" depth="0.0">
			<acc value="0.0667950345570576" flag="0"/>
			<vel value="0.0165068029819925" flag="0"/>
			<psa03 value="0.0625943470589622" flag="0"/>
			<psa10 value="0.0192400436899892" flag="0"/>
			<psa30 value="0.00194136434516681" flag="0"/>
		</comp>
		<comp name="--.HNZ" depth="0.0">
			<acc value="0.0699039932861" flag="0"/>
			<vel value="0.0227284330437903" flag="0"/>
			<psa03 value="0.071945468242181" flag="0"/>
			<psa10 value="0.0162803467221905" flag="0"/>
			<psa30 value="0.00117179839133254" flag="0"/>
		</comp>
	</station>
	<station code="GHRR" name="GHRR" netid="RO" source="Romanian Seismic Network (NIEP)" insttype="" lat="46.0605" lon="27.408">
		<comp name="--.HNE" depth="0.0">
			<acc value="0.0482149523953182" flag="0"/>
			<vel value="0.0222634829900844" flag="0"/>
			<psa03 value="0.108544593255927" flag="0"/>
			<psa10 value="0.0198843314652923" flag="0"/>
			<psa30 value="0.0035493992510275" flag="0"/>
		</comp>
		<comp name="--.HNN" depth="0.0">
			<acc value="0.059574859906535" flag="0"/>
			<vel value="0.0175814625089015" flag="0"/>
			<psa03 value="0.0850101925747163" flag="0"/>
			<psa10 value="0.018563541525921" flag="0"/>
			<psa30 value="0.00202234773914588" flag="0"/>
		</comp>
		<comp name="--.HNZ" depth="0.0">
			<acc value="0.0265884827810924" flag="0"/>
			<vel value="0.00767109865935263" flag="0"/>
			<psa03 value="0.0480978721146421" flag="0"/>
			<psa10 value="0.0101555860582153" flag="0"/>
			<psa30 value="0.0014550165592262" flag="0"/>
		</comp>
	</station>
	<station code="IASR" name="IASR" netid="RO" source="Romanian Seismic Network (NIEP)" insttype="" lat="47.1777" lon="27.5748">
		<comp name="--.HNE" depth="0.0">
			<acc value="0.238358890208512" flag="0"/>
			<vel value="0.0819862647059695" flag="0"/>
			<psa03 value="0.300085979788749" flag="0"/>
			<psa10 value="0.0352828092950367" flag="0"/>
			<psa30 value="0.00299728042135802" flag="0"/>
		</comp>
		<comp name="--.HNN" depth="0.0">
			<acc value="0.133029026307469" flag="0"/>
			<vel value="0.0689330570631429" flag="0"/>
			<psa03 value="0.358385075012357" flag="0"/>
			<psa10 value="0.0223970537889745" flag="0"/>
			<psa30 value="0.00190243862540891" flag="0"/>
		</comp>
		<comp name="--.HNZ" depth="0.0">
			<acc value="0.168421763817302" flag="0"/>
			<vel value="0.0366756489985658" flag="0"/>
			<psa03 value="0.235701944465056" flag="0"/>
			<psa10 value="0.00727239826373389" flag="0"/>
			<psa30 value="0.000651893950428219" flag="0"/>
		</comp>
	</station>
	<station code="LEOM" name="LEOM" netid="RO" source="Romanian Seismic Network (NIEP)" insttype="" lat="46.4733" lon="28.2467">
		<comp name="--.HNE" depth="0.0">
			<acc value="0.181157322525986" flag="0"/>
			<vel value="0.0475444570264568" flag="0"/>
			<psa03 value="0.38290380423917" flag="0"/>
			<psa10 value="0.0254695011174512" flag="0"/>
			<psa30 value="0.00196731482500541" flag="0"/>
		</comp>
		<comp name="--.HNN" depth="0.0">
			<acc value="0.209661643857554" flag="0"/>
			<vel value="0.051608192739007" flag="0"/>
			<psa03 value="0.315522041072052" flag="0"/>
			<psa10 value="0.0219138379574971" flag="0"/>
			<psa30 value="0.00290242694332729" flag="0"/>
		</comp>
		<comp name="--.HNZ" depth="0.0">
			<acc value="0.126584740433943" flag="0"/>
			<vel value="0.0230378560167643" flag="0"/>
			<psa03 value="0.131855282904047" flag="0"/>
			<psa10 value="0.00554087486760677" flag="0"/>
			<psa30 value="0.000824151445908566" flag="0"/>
		</comp>
	</station>
	<station code="PLOR" name="PLOR" netid="RO" source="Romanian Seismic Network (NIEP)" insttype="" lat="45.8512" lon="26.6498">
		<comp name="--.HNE" depth="0.0">
			<acc value="0.0278037668393092" flag="0"/>
			<vel value="0.0151000115476734" flag="0"/>
			<psa03 value="0.111542321099351" flag="0"/>
			<psa10 value="0.00676502164068269" flag="0"/>
			<psa30 value="0.000575384777110975" flag="0"/>
		</comp>
		<comp name="--.HNN" depth="0.0">
			<acc value="0.0276864631241339" flag="0"/>
			<vel value="0.012841667297639" flag="0"/>
			<psa03 value="0.110200054900803" flag="0"/>
			<psa10 value="0.00823077632949727" flag="0"/>
			<psa30 value="0.000456817929572554" flag="0"/>
		</comp>
		<comp name="--.HNZ" depth="0.0">
			<acc value="0.0096538846653799" flag="0"/>
			<vel value="0.00475659639646758" flag="0"/>
			<psa03 value="0.0412970567086648" flag="0"/>
			<psa10 value="0.00328586765404588" flag="0"/>
			<psa30 value="0.000245634714334312" flag="0"/>
		</comp>
	</station>
	<station code="PLOR4" name="PLOR4" netid="RO" source="Romanian Seismic Network (NIEP)" insttype="" lat="45.8512" lon="26.6498">
		<comp name="--.HNE" depth="0.0">
			<acc value="0.0278037668393092" flag="0"/>
			<vel value="0.0151000115476734" flag="0"/>
			<psa03 value="0.111542321099351" flag="0"/>
			<psa10 value="0.00676502164068269" flag="0"/>
			<psa30 value="0.000575384777110975" flag="0"/>
		</comp>
		<comp name="--.HNN" depth="0.0">
			<acc value="0.0276864631241339" flag="0"/>
			<vel value="0.012841667297639" flag="0"/>
			<psa03 value="0.110200054900803" flag="0"/>
			<psa10 value="0.00823077632949727" flag="0"/>
			<psa30 value="0.000456817929572554" flag="0"/>
		</comp>
		<comp name="--.HNZ" depth="0.0">
			<acc value="0.0096538846653799" flag="0"/>
			<vel value="0.00475659639646758" flag="0"/>
			<psa03 value="0.0412970567086648" flag="0"/>
			<psa10 value="0.00328586765404588" flag="0"/>
			<psa30 value="0.000245634714334312" flag="0"/>
		</comp>
	</station>
	<station code="TESR" name="TESR" netid="RO" source="Romanian Seismic Network (NIEP)" insttype="" lat="46.5118" lon="26.6489">
		<comp name="--.HNE" depth="0.0">
			<acc value="0.0213835903287268" flag="0"/>
			<vel value="0.00798524440077846" flag="0"/>
			<psa03 value="0.0578069309508071" flag="0"/>
			<psa10 value="0.00478383673162562" flag="0"/>
			<psa30 value="0.000515877642308673" flag="0"/>
		</comp>
		<comp name="--.HNN" depth="0.0">
			<acc value="0.0354459029467405" flag="0"/>
			<vel value="0.0124032596567172" flag="0"/>
			<psa03 value="0.0562856959257859" flag="0"/>
			<psa10 value="0.00430867449733957" flag="0"/>
			<psa30 value="0.000485452941808248" flag="0"/>
		</comp>
		<comp name="--.HNZ" depth="0.0">
			<acc value="0.0238413711015661" flag="0"/>
			<vel value="0.00578775575789002" flag="0"/>
			<psa03 value="0.0257715110121245" flag="0"/>
			<psa10 value="0.00429256730295699" flag="0"/>
			<psa30 value="0.00028813981062167" flag="0"/>
		</comp>
	</station>
</stationlist>
