<stationlist created="1631873523">
	<station code="BAC" name="BAC" netid="RO" source="Romanian Seismic Network (NIEP)" insttype="" lat="46.5669" lon="26.9124">
		<comp name="--.HNE" depth="0.0">
			<acc value="-0.050524068" flag="0"/>
			<vel value="-0.018399" flag="0"/>
			<psa03 value="0.0828178244504" flag="0"/>
			<psa10 value="0.021112505037" flag="0"/>
			<psa30 value="0.00173286566233" flag="0"/>
		</comp>
		<comp name="--.HNN" depth="0.0">
			<acc value="-0.066096408" flag="0"/>
			<vel value="-0.016436" flag="0"/>
			<psa03 value="0.062594347059" flag="0"/>
			<psa10 value="0.01924004369" flag="0"/>
			<psa30 value="0.00194136434517" flag="0"/>
		</comp>
		<comp name="--.HNZ" depth="0.0">
			<acc value="0.068080104" flag="0"/>
			<vel value="0.022469" flag="0"/>
			<psa03 value="0.0719454682422" flag="0"/>
			<psa10 value="0.0162803467222" flag="0"/>
			<psa30 value="0.00117179839133" flag="0"/>
		</comp>
	</station>
	<station code="GHRR" name="GHRR" netid="RO" source="Romanian Seismic Network (NIEP)" insttype="" lat="46.0605" lon="27.408">
		<comp name="--.HNE" depth="0.0">
			<acc value="-0.047970498" flag="0"/>
			<vel value="0.022161" flag="0"/>
			<psa03 value="0.108544593256" flag="0"/>
			<psa10 value="0.0198843314653" flag="0"/>
			<psa30 value="0.00354939925103" flag="0"/>
		</comp>
		<comp name="--.HNN" depth="0.0">
			<acc value="-0.058928664" flag="0"/>
			<vel value="0.017503" flag="0"/>
			<psa03 value="0.0850101925747" flag="0"/>
			<psa10 value="0.0185635415259" flag="0"/>
			<psa30 value="0.00202234773915" flag="0"/>
		</comp>
		<comp name="--.HNZ" depth="0.0">
			<acc value="0.026178198" flag="0"/>
			<vel value="0.007651" flag="0"/>
			<psa03 value="0.0480978721146" flag="0"/>
			<psa10 value="0.0101555860582" flag="0"/>
			<psa30 value="0.00145501655923" flag="0"/>
		</comp>
	</station>
	<station code="IASR" name="IASR" netid="RO" source="Romanian Seismic Network (NIEP)" insttype="" lat="47.1777" lon="27.5748">
		<comp name="--.HNE" depth="0.0">
			<acc value="0.23417313" flag="0"/>
			<vel value="0.081779" flag="0"/>
			<psa03 value="0.300085979789" flag="0"/>
			<psa10 value="0.035282809295" flag="0"/>
			<psa30 value="0.00299728042136" flag="0"/>
		</comp>
		<comp name="--.HNN" depth="0.0">
			<acc value="-0.132279822" flag="0"/>
			<vel value="-0.068822" flag="0"/>
			<psa03 value="0.358385075012" flag="0"/>
			<psa10 value="0.022397053789" flag="0"/>
			<psa30 value="0.00190243862541" flag="0"/>
		</comp>
		<comp name="--.HNZ" depth="0.0">
			<acc value="-0.159929982" flag="0"/>
			<vel value="-0.036339" flag="0"/>
			<psa03 value="0.235701944465" flag="0"/>
			<psa10 value="0.00727239826373" flag="0"/>
			<psa30 value="0.000651893950428" flag="0"/>
		</comp>
	</station>
	<station code="LEOM" name="LEOM" netid="RO" source="Romanian Seismic Network (NIEP)" insttype="" lat="46.4733" lon="28.2467">
		<comp name="--.HNE" depth="0.0">
			<acc value="0.174993342" flag="0"/>
			<vel value="-0.047132" flag="0"/>
			<psa03 value="0.382903804239" flag="0"/>
			<psa10 value="0.0254695011175" flag="0"/>
			<psa30 value="0.00196731482501" flag="0"/>
		</comp>
		<comp name="--.HNN" depth="0.0">
			<acc value="-0.203607504" flag="0"/>
			<vel value="-0.051252" flag="0"/>
			<psa03 value="0.315522041072" flag="0"/>
			<psa10 value="0.0219138379575" flag="0"/>
			<psa30 value="0.00290242694333" flag="0"/>
		</comp>
		<comp name="--.HNZ" depth="0.0">
			<acc value="0.12070629" flag="0"/>
			<vel value="0.022766" flag="0"/>
			<psa03 value="0.131855282904" flag="0"/>
			<psa10 value="0.00554087486761" flag="0"/>
			<psa30 value="0.000824151445909" flag="0"/>
		</comp>
	</station>
	<station code="PLOR" name="PLOR" netid="RO" source="Romanian Seismic Network (NIEP)" insttype="" lat="45.8512" lon="26.6498">
		<comp name="--.HNE" depth="0.0">
			<acc value="0.027721662" flag="0"/>
			<vel value="-0.015044" flag="0"/>
			<psa03 value="0.111542321099" flag="0"/>
			<psa10 value="0.00676502164068" flag="0"/>
			<psa30 value="0.000575384777111" flag="0"/>
		</comp>
		<comp name="--.HNN" depth="0.0">
			<acc value="0.027634146" flag="0"/>
			<vel value="0.0128" flag="0"/>
			<psa03 value="0.110200054901" flag="0"/>
			<psa10 value="0.0082307763295" flag="0"/>
			<psa30 value="0.000456817929573" flag="0"/>
		</comp>
		<comp name="--.HNZ" depth="0.0">
			<acc value="0.009608706" flag="0"/>
			<vel value="0.004735" flag="0"/>
			<psa03 value="0.0412970567087" flag="0"/>
			<psa10 value="0.00328586765405" flag="0"/>
			<psa30 value="0.000245634714334" flag="0"/>
		</comp>
	</station>
	<station code="PLOR4" name="PLOR4" netid="RO" source="Romanian Seismic Network (NIEP)" insttype="" lat="45.8512" lon="26.6498">
		<comp name="--.HNE" depth="0.0">
			<acc value="0.027721662" flag="0"/>
			<vel value="-0.015044" flag="0"/>
			<psa03 value="0.111542321099" flag="0"/>
			<psa10 value="0.00676502164068" flag="0"/>
			<psa30 value="0.000575384777111" flag="0"/>
		</comp>
		<comp name="--.HNN" depth="0.0">
			<acc value="0.027634146" flag="0"/>
			<vel value="0.0128" flag="0"/>
			<psa03 value="0.110200054901" flag="0"/>
			<psa10 value="0.0082307763295" flag="0"/>
			<psa30 value="0.000456817929573" flag="0"/>
		</comp>
		<comp name="--.HNZ" depth="0.0">
			<acc value="0.009608706" flag="0"/>
			<vel value="0.004735" flag="0"/>
			<psa03 value="0.0412970567087" flag="0"/>
			<psa10 value="0.00328586765405" flag="0"/>
			<psa30 value="0.000245634714334" flag="0"/>
		</comp>
	</station>
	<station code="TESR" name="TESR" netid="RO" source="Romanian Seismic Network (NIEP)" insttype="" lat="46.5118" lon="26.6489">
		<comp name="--.HNE" depth="0.0">
			<acc value="-0.021171018" flag="0"/>
			<vel value="-0.007937" flag="0"/>
			<psa03 value="0.0578069309508" flag="0"/>
			<psa10 value="0.00478383673163" flag="0"/>
			<psa30 value="0.000515877642309" flag="0"/>
		</comp>
		<comp name="--.HNN" depth="0.0">
			<acc value="0.035201628" flag="0"/>
			<vel value="-0.01235" flag="0"/>
			<psa03 value="0.0562856959258" flag="0"/>
			<psa10 value="0.00430867449734" flag="0"/>
			<psa30 value="0.000485452941808" flag="0"/>
		</comp>
		<comp name="--.HNZ" depth="0.0">
			<acc value="0.023534562" flag="0"/>
			<vel value="0.005756" flag="0"/>
			<psa03 value="0.0257715110121" flag="0"/>
			<psa10 value="0.00429256730296" flag="0"/>
			<psa30 value="0.000288139810622" flag="0"/>
		</comp>
	</station>
</stationlist>
