<stationlist created="1644239448">
	<station code="KIS" name="KIS" netid="MD" source="Moldova Digital Seismic Network" insttype="" lat="46.9975" lon="28.8175">
		<comp name=".HNE" depth="0.0">
			<acc value="0.067054698" flag="0"/>
			<vel value="0.022437" flag="0"/>
			<psa03 value="0.117761487819" flag="0"/>
			<psa10 value="0.015893774057" flag="0"/>
			<psa30 value="0.000761064934577" flag="0"/>
		</comp>
		<comp name=".HNN" depth="0.0">
			<acc value="0.080045418" flag="0"/>
			<vel value="0.042852" flag="0"/>
			<psa03 value="0.22518752591" flag="0"/>
			<psa10 value="0.0160145780149" flag="0"/>
			<psa30 value="0.00107381295884" flag="0"/>
		</comp>
		<comp name=".HNZ" depth="0.0">
			<acc value="0.04816899" flag="0"/>
			<vel value="0.012279" flag="0"/>
			<psa03 value="0.0698873267377" flag="0"/>
			<psa10 value="0.00455430921167" flag="0"/>
			<psa30 value="0.000299325362276" flag="0"/>
		</comp>
	</station>
	<station code="PURM" name="PURM" netid="MD" source="Moldova Digital Seismic Network" insttype="" lat="46.5293" lon="29.8723">
		<comp name=".HNE" depth="0.0">
			<acc value="0.026519898" flag="0"/>
			<vel value="0.008048" flag="0"/>
			<psa03 value="0.0468003481227" flag="0"/>
			<psa10 value="0.00399055740828" flag="0"/>
			<psa30 value="0.000259952220452" flag="0"/>
		</comp>
		<comp name=".HNN" depth="0.0">
			<acc value="0.02437953" flag="0"/>
			<vel value="0.009263" flag="0"/>
			<psa03 value="0.0401785015432" flag="0"/>
			<psa10 value="0.00943478910959" flag="0"/>
			<psa30 value="0.000506481778919" flag="0"/>
		</comp>
		<comp name=".HNZ" depth="0.0">
			<acc value="0.02509914" flag="0"/>
			<vel value="0.007302" flag="0"/>
			<psa03 value="0.0306931537401" flag="0"/>
			<psa10 value="0.00217447124165" flag="0"/>
			<psa30 value="0.000156150301098" flag="0"/>
		</comp>
	</station>
	<station code="SORM" name="SORM" netid="MD" source="Moldova Digital Seismic Network" insttype="" lat="48.135" lon="28.3513">
		<comp name=".HNE" depth="0.0">
			<acc value="0.041603148" flag="0"/>
			<vel value="0.006062" flag="0"/>
			<psa03 value="0.0226842987555" flag="0"/>
			<psa10 value="0.00440531766364" flag="0"/>
			<psa30 value="0.000195076020856" flag="0"/>
		</comp>
		<comp name=".HNN" depth="0.0">
			<acc value="0.036512226" flag="0"/>
			<vel value="0.006894" flag="0"/>
			<psa03 value="0.0238475961275" flag="0"/>
			<psa10 value="0.00262144588576" flag="0"/>
			<psa30 value="0.00012662044473" flag="0"/>
		</comp>
		<comp name=".HNZ" depth="0.0">
			<acc value="0.038057424" flag="0"/>
			<vel value="0.00489" flag="0"/>
			<psa03 value="0.0244292448136" flag="0"/>
			<psa10 value="0.000785225726151" flag="0"/>
			<psa30 value="6.8455576126e-05" flag="0"/>
		</comp>
	</station>
	<station code="BAC" name="BAC" netid="RO" source="Romanian Seismic Network (NIEP)" insttype="" lat="46.5669" lon="26.9124">
		<comp name=".HNE" depth="0.0">
			<acc value="0.050524068" flag="0"/>
			<vel value="0.018399" flag="0"/>
			<psa03 value="0.0828178244504" flag="0"/>
			<psa10 value="0.021112505037" flag="0"/>
			<psa30 value="0.00173286566233" flag="0"/>
		</comp>
		<comp name=".HNN" depth="0.0">
			<acc value="0.066096408" flag="0"/>
			<vel value="0.016436" flag="0"/>
			<psa03 value="0.062594347059" flag="0"/>
			<psa10 value="0.01924004369" flag="0"/>
			<psa30 value="0.00194136434517" flag="0"/>
		</comp>
		<comp name=".HNZ" depth="0.0">
			<acc value="0.068080104" flag="0"/>
			<vel value="0.022469" flag="0"/>
			<psa03 value="0.0719454682422" flag="0"/>
			<psa10 value="0.0162803467222" flag="0"/>
			<psa30 value="0.00117179839133" flag="0"/>
		</comp>
	</station>
	<station code="GHRR" name="GHRR" netid="RO" source="Romanian Seismic Network (NIEP)" insttype="" lat="46.0605" lon="27.408">
		<comp name=".HNE" depth="0.0">
			<acc value="0.047970498" flag="0"/>
			<vel value="0.022161" flag="0"/>
			<psa03 value="0.108544593256" flag="0"/>
			<psa10 value="0.0198843314653" flag="0"/>
			<psa30 value="0.00354939925103" flag="0"/>
		</comp>
		<comp name=".HNN" depth="0.0">
			<acc value="0.058928664" flag="0"/>
			<vel value="0.017503" flag="0"/>
			<psa03 value="0.0850101925747" flag="0"/>
			<psa10 value="0.0185635415259" flag="0"/>
			<psa30 value="0.00202234773915" flag="0"/>
		</comp>
		<comp name=".HNZ" depth="0.0">
			<acc value="0.026178198" flag="0"/>
			<vel value="0.007651" flag="0"/>
			<psa03 value="0.0480978721146" flag="0"/>
			<psa10 value="0.0101555860582" flag="0"/>
			<psa30 value="0.00145501655923" flag="0"/>
		</comp>
	</station>
	<station code="IASR" name="IASR" netid="RO" source="Romanian Seismic Network (NIEP)" insttype="" lat="47.1777" lon="27.5748">
		<comp name=".HNE" depth="0.0">
			<acc value="0.23417313" flag="0"/>
			<vel value="0.081779" flag="0"/>
			<psa03 value="0.300085979789" flag="0"/>
			<psa10 value="0.035282809295" flag="0"/>
			<psa30 value="0.00299728042136" flag="0"/>
		</comp>
		<comp name=".HNN" depth="0.0">
			<acc value="0.132279822" flag="0"/>
			<vel value="0.068822" flag="0"/>
			<psa03 value="0.358385075012" flag="0"/>
			<psa10 value="0.022397053789" flag="0"/>
			<psa30 value="0.00190243862541" flag="0"/>
		</comp>
		<comp name=".HNZ" depth="0.0">
			<acc value="0.159929982" flag="0"/>
			<vel value="0.036339" flag="0"/>
			<psa03 value="0.235701944465" flag="0"/>
			<psa10 value="0.00727239826373" flag="0"/>
			<psa30 value="0.000651893950428" flag="0"/>
		</comp>
	</station>
	<station code="LEOM" name="LEOM" netid="RO" source="Romanian Seismic Network (NIEP)" insttype="" lat="46.4733" lon="28.2467">
		<comp name=".HNE" depth="0.0">
			<acc value="0.174993342" flag="0"/>
			<vel value="0.047132" flag="0"/>
			<psa03 value="0.382903804239" flag="0"/>
			<psa10 value="0.0254695011175" flag="0"/>
			<psa30 value="0.00196731482501" flag="0"/>
		</comp>
		<comp name=".HNN" depth="0.0">
			<acc value="0.203607504" flag="0"/>
			<vel value="0.051252" flag="0"/>
			<psa03 value="0.315522041072" flag="0"/>
			<psa10 value="0.0219138379575" flag="0"/>
			<psa30 value="0.00290242694333" flag="0"/>
		</comp>
		<comp name=".HNZ" depth="0.0">
			<acc value="0.12070629" flag="0"/>
			<vel value="0.022766" flag="0"/>
			<psa03 value="0.131855282904" flag="0"/>
			<psa10 value="0.00554087486761" flag="0"/>
			<psa30 value="0.000824151445909" flag="0"/>
		</comp>
	</station>
	<station code="PLOR" name="PLOR" netid="RO" source="Romanian Seismic Network (NIEP)" insttype="" lat="45.8512" lon="26.6498">
		<comp name=".HNE" depth="0.0">
			<acc value="0.027721662" flag="0"/>
			<vel value="0.015044" flag="0"/>
			<psa03 value="0.111542321099" flag="0"/>
			<psa10 value="0.00676502164068" flag="0"/>
			<psa30 value="0.000575384777111" flag="0"/>
		</comp>
		<comp name=".HNN" depth="0.0">
			<acc value="0.027634146" flag="0"/>
			<vel value="0.0128" flag="0"/>
			<psa03 value="0.110200054901" flag="0"/>
			<psa10 value="0.0082307763295" flag="0"/>
			<psa30 value="0.000456817929573" flag="0"/>
		</comp>
		<comp name=".HNZ" depth="0.0">
			<acc value="0.009608706" flag="0"/>
			<vel value="0.004735" flag="0"/>
			<psa03 value="0.0412970567087" flag="0"/>
			<psa10 value="0.00328586765405" flag="0"/>
			<psa30 value="0.000245634714334" flag="0"/>
		</comp>
	</station>
	<station code="PLOR4" name="PLOR4" netid="RO" source="Romanian Seismic Network (NIEP)" insttype="" lat="45.8512" lon="26.6498">
		<comp name=".HNE" depth="0.0">
			<acc value="0.027721662" flag="0"/>
			<vel value="0.015044" flag="0"/>
			<psa03 value="0.111542321099" flag="0"/>
			<psa10 value="0.00676502164068" flag="0"/>
			<psa30 value="0.000575384777111" flag="0"/>
		</comp>
		<comp name=".HNN" depth="0.0">
			<acc value="0.027634146" flag="0"/>
			<vel value="0.0128" flag="0"/>
			<psa03 value="0.110200054901" flag="0"/>
			<psa10 value="0.0082307763295" flag="0"/>
			<psa30 value="0.000456817929573" flag="0"/>
		</comp>
		<comp name=".HNZ" depth="0.0">
			<acc value="0.009608706" flag="0"/>
			<vel value="0.004735" flag="0"/>
			<psa03 value="0.0412970567087" flag="0"/>
			<psa10 value="0.00328586765405" flag="0"/>
			<psa30 value="0.000245634714334" flag="0"/>
		</comp>
	</station>
	<station code="TESR" name="TESR" netid="RO" source="Romanian Seismic Network (NIEP)" insttype="" lat="46.5118" lon="26.6489">
		<comp name=".HNE" depth="0.0">
			<acc value="0.021171018" flag="0"/>
			<vel value="0.007937" flag="0"/>
			<psa03 value="0.0578069309508" flag="0"/>
			<psa10 value="0.00478383673163" flag="0"/>
			<psa30 value="0.000515877642309" flag="0"/>
		</comp>
		<comp name=".HNN" depth="0.0">
			<acc value="0.035201628" flag="0"/>
			<vel value="0.01235" flag="0"/>
			<psa03 value="0.0562856959258" flag="0"/>
			<psa10 value="0.00430867449734" flag="0"/>
			<psa30 value="0.000485452941808" flag="0"/>
		</comp>
		<comp name=".HNZ" depth="0.0">
			<acc value="0.023534562" flag="0"/>
			<vel value="0.005756" flag="0"/>
			<psa03 value="0.0257715110121" flag="0"/>
			<psa10 value="0.00429256730296" flag="0"/>
			<psa30 value="0.000288139810622" flag="0"/>
		</comp>
	</station>
</stationlist>
