<stationlist created="1675764104">
	<station code="ARPRA" name="ARPRA" netid="KO" source="Bogazici University Kandilli Observatory And Earthquake Research Institute (KOERI)" insttype="" lat="39.0929" lon="38.3356">
		<comp name=".HNE" depth="0.0">
			<acc value="0.015578818121" flag="0"/>
			<vel value="0.00648898378956" flag="0"/>
			<psa03 value="0.042659318158" flag="0"/>
			<psa10 value="0.00498316370389" flag="0"/>
			<psa30 value="0.00066334748518" flag="0"/>
		</comp>
		<comp name=".HNN" depth="0.0">
			<acc value="0.00965929817384" flag="0"/>
			<vel value="0.00665883376468" flag="0"/>
			<psa03 value="0.0357535039108" flag="0"/>
			<psa10 value="0.00784949358418" flag="0"/>
			<psa30 value="0.000639335113228" flag="0"/>
		</comp>
		<comp name=".HNZ" depth="0.0">
			<acc value="0.00497801252066" flag="0"/>
			<vel value="0.00332849381021" flag="0"/>
			<psa03 value="0.0117612244359" flag="0"/>
			<psa10 value="0.00302130655298" flag="0"/>
			<psa30 value="0.000361558118118" flag="0"/>
		</comp>
	</station>
	<station code="TUNC" name="TUNC" netid="KO" source="Bogazici University Kandilli Observatory And Earthquake Research Institute (KOERI)" insttype="" lat="39.6942" lon="37.5388">
		<comp name=".HNE" depth="0.0">
			<acc value="0.00486276150308" flag="0"/>
			<vel value="0.00353491569309" flag="0"/>
			<psa03 value="0.0123397979198" flag="0"/>
			<psa10 value="0.00411905771109" flag="0"/>
			<psa30 value="0.000377186445084" flag="0"/>
		</comp>
		<comp name=".HNN" depth="0.0">
			<acc value="0.00500963588317" flag="0"/>
			<vel value="0.0028444822085" flag="0"/>
			<psa03 value="0.00764748577508" flag="0"/>
			<psa10 value="0.00309450366756" flag="0"/>
			<psa30 value="0.000521161555646" flag="0"/>
		</comp>
		<comp name=".HNZ" depth="0.0">
			<acc value="0.00277375870824" flag="0"/>
			<vel value="0.00179784662955" flag="0"/>
			<psa03 value="0.00904899463376" flag="0"/>
			<psa10 value="0.0017775275181" flag="0"/>
			<psa30 value="0.000521951712155" flag="0"/>
		</comp>
	</station>
</stationlist>
