<?xml version="1.0" encoding="UTF-8" standalone="yes"?>
<!DOCTYPE earthquake SYSTEM "stationlist.dtd">
<stationlist created="" xmlns="ch.ethz.sed.shakemap.usgs.xml">
  <station code="HVAR" name="HVAR" netid="CR" insttype="120" lat="43.1776" lon="16.4488">
    <comp name="--.HHE">
      <acc value="0.3047832396" flag="0"/>
      <vel value="0.1499372389" flag="0"/>
      <psa03 value="0.5107104770" flag="0"/>
      <psa10 value="0.1001328109" flag="0"/>
      <psa30 value="0.0092836400" flag="0"/>
    </comp>
  </station>
  <station code="BLY" name="BLY" netid="MN" insttype="" lat="44.7488" lon="17.1839">
    <comp name="--.HHN">
      <acc value="0.0421015949" flag="0"/>
      <vel value="0.0292048887" flag="0"/>
      <psa03 value="0.1265808696" flag="0"/>
      <psa10 value="0.0496572194" flag="0"/>
      <psa30 value="0.0038752292" flag="0"/>
    </comp>
    <comp name="--.HHE">
      <acc value="0.0686065607" flag="0"/>
      <vel value="0.0661304996" flag="0"/>
      <psa03 value="0.1805048472" flag="0"/>
      <psa10 value="0.0973181442" flag="0"/>
      <psa30 value="0.0057079021" flag="0"/>
    </comp>
    <comp name="--.HHZ">
      <acc value="0.0353102992" flag="0"/>
      <vel value="0.0243280672" flag="0"/>
      <psa03 value="0.1303496492" flag="0"/>
      <psa10 value="0.0309951230" flag="0"/>
      <psa30 value="0.0029145373" flag="0"/>
    </comp>
  </station>
  <station code="GSNE" name="GSNE" netid="S5" insttype="200" lat="45.6829" lon="14.4692">
    <comp name="--.HN1">
      <acc value="0.0572340505" flag="0"/>
      <vel value="0.0503276479" flag="0"/>
      <psa03 value="0.1651055519" flag="0"/>
      <psa10 value="0.0304501831" flag="0"/>
      <psa30 value="0.0063505198" flag="0"/>
    </comp>
    <comp name="--.HNZ">
      <acc value="0.0239256683" flag="0"/>
      <vel value="0.0172811971" flag="0"/>
      <psa03 value="0.0596403076" flag="0"/>
      <psa10 value="0.0188381416" flag="0"/>
      <psa30 value="0.0025426080" flag="0"/>
    </comp>
    <comp name="--.HN2">
      <acc value="0.0408718738" flag="0"/>
      <vel value="0.0253676587" flag="0"/>
      <psa03 value="0.0759217521" flag="0"/>
      <psa10 value="0.0191866274" flag="0"/>
      <psa30 value="0.0039714065" flag="0"/>
    </comp>
  </station>
  <station code="MASE" name="MASE" netid="S5" insttype="200" lat="45.629" lon="14.3734">
    <comp name="--.HNZ">
      <acc value="0.0317868474" flag="0"/>
      <vel value="0.0166144177" flag="0"/>
      <psa03 value="0.0649185223" flag="0"/>
      <psa10 value="0.0165436525" flag="0"/>
      <psa30 value="0.0012182778" flag="0"/>
    </comp>
    <comp name="--.HN2">
      <acc value="0.0502996600" flag="0"/>
      <vel value="0.0237999439" flag="0"/>
      <psa03 value="0.1288629623" flag="0"/>
      <psa10 value="0.0194584160" flag="0"/>
      <psa30 value="0.0024633490" flag="0"/>
    </comp>
    <comp name="--.HN1">
      <acc value="0.0438888664" flag="0"/>
      <vel value="0.0217329648" flag="0"/>
      <psa03 value="0.1408168580" flag="0"/>
      <psa10 value="0.0216352985" flag="0"/>
      <psa30 value="0.0029654781" flag="0"/>
    </comp>
  </station>
  <station code="BOJS" name="BOJS" netid="SL" insttype="Trillium" lat="45.5043" lon="15.2518">
    <comp name="--.HHN">
      <acc value="0.0672201303" flag="0"/>
      <vel value="0.0253565759" flag="0"/>
      <psa03 value="0.1003259056" flag="0"/>
      <psa10 value="0.0168713904" flag="0"/>
      <psa30 value="0.0028854967" flag="0"/>
    </comp>
    <comp name="--.HHZ">
      <acc value="0.0250712440" flag="0"/>
      <vel value="0.0150866169" flag="0"/>
      <psa03 value="0.0403285769" flag="0"/>
      <psa10 value="0.0156976886" flag="0"/>
      <psa30 value="0.0038566841" flag="0"/>
    </comp>
    <comp name="--.HHE">
      <acc value="0.0468871026" flag="0"/>
      <vel value="0.0276069804" flag="0"/>
      <psa03 value="0.0855532819" flag="0"/>
      <psa10 value="0.0212572315" flag="0"/>
      <psa30 value="0.0033949354" flag="0"/>
    </comp>
  </station>
  <station code="CRES" name="CRES" netid="SL" insttype="STS-2" lat="45.826" lon="15.4569">
    <comp name="--.HHE">
      <acc value="0.0300882863" flag="0"/>
      <vel value="0.0198283490" flag="0"/>
      <psa03 value="0.0819982335" flag="0"/>
      <psa10 value="0.0289535113" flag="0"/>
      <psa30 value="0.0031246046" flag="0"/>
    </comp>
    <comp name="--.HHN">
      <acc value="0.0244350037" flag="0"/>
      <vel value="0.0145461534" flag="0"/>
      <psa03 value="0.0830521642" flag="0"/>
      <psa10 value="0.0209169919" flag="0"/>
      <psa30 value="0.0019945424" flag="0"/>
    </comp>
    <comp name="--.HHZ">
      <acc value="0.0165156248" flag="0"/>
      <vel value="0.0104449103" flag="0"/>
      <psa03 value="0.0451599987" flag="0"/>
      <psa10 value="0.0124902165" flag="0"/>
      <psa30 value="0.0027235192" flag="0"/>
    </comp>
  </station>
  <station code="GBRS" name="GBRS" netid="SL" insttype="STS-2.5/Quanterra" lat="45.5311" lon="14.8101">
    <comp name="--.HHZ">
      <acc value="0.0399161396" flag="0"/>
      <vel value="0.0177447380" flag="0"/>
      <psa03 value="0.0675458670" flag="0"/>
      <psa10 value="0.0172403634" flag="0"/>
      <psa30 value="0.0013415563" flag="0"/>
    </comp>
    <comp name="--.HHN">
      <acc value="0.0603321500" flag="0"/>
      <vel value="0.0224552127" flag="0"/>
      <psa03 value="0.0559891473" flag="0"/>
      <psa10 value="0.0166537410" flag="0"/>
      <psa30 value="0.0019871399" flag="0"/>
    </comp>
    <comp name="--.HHE">
      <acc value="0.0677430126" flag="0"/>
      <vel value="0.0267869926" flag="0"/>
      <psa03 value="0.1005940860" flag="0"/>
      <psa10 value="0.0283797075" flag="0"/>
      <psa30 value="0.0025415898" flag="0"/>
    </comp>
  </station>
  <station code="GCIS" name="GCIS" netid="SL" insttype="STS-2" lat="45.8672" lon="15.6275">
    <comp name="--.HHZ">
      <acc value="0.0122927517" flag="0"/>
      <vel value="0.0068279637" flag="0"/>
      <psa03 value="0.0258116994" flag="0"/>
      <psa10 value="0.0078718566" flag="0"/>
      <psa30 value="0.0015795244" flag="0"/>
    </comp>
    <comp name="--.HHE">
      <acc value="0.0189416599" flag="0"/>
      <vel value="0.0151225912" flag="0"/>
      <psa03 value="0.0467502091" flag="0"/>
      <psa10 value="0.0128350319" flag="0"/>
      <psa30 value="0.0032204898" flag="0"/>
    </comp>
    <comp name="--.HHN">
      <acc value="0.0148264830" flag="0"/>
      <vel value="0.0085797710" flag="0"/>
      <psa03 value="0.0361361919" flag="0"/>
      <psa10 value="0.0121531379" flag="0"/>
      <psa30 value="0.0021995773" flag="0"/>
    </comp>
  </station>
  <station code="KNDS" name="KNDS" netid="SL" insttype="STS-2" lat="45.5278" lon="14.3807">
    <comp name="--.HHZ">
      <acc value="0.0202328424" flag="0"/>
      <vel value="0.0139099559" flag="0"/>
      <psa03 value="0.0599158010" flag="0"/>
      <psa10 value="0.0136782911" flag="0"/>
      <psa30 value="0.0024711663" flag="0"/>
    </comp>
    <comp name="--.HHE">
      <acc value="0.0441816973" flag="0"/>
      <vel value="0.0306693859" flag="0"/>
      <psa03 value="0.1219481707" flag="0"/>
      <psa10 value="0.0402445694" flag="0"/>
      <psa30 value="0.0052879785" flag="0"/>
    </comp>
    <comp name="--.HHN">
      <acc value="0.0423400335" flag="0"/>
      <vel value="0.0274933831" flag="0"/>
      <psa03 value="0.1423623651" flag="0"/>
      <psa10 value="0.0262404818" flag="0"/>
      <psa30 value="0.0031800855" flag="0"/>
    </comp>
  </station>
  <station code="VISS" name="VISS" netid="SL" insttype="STS-2.5/Quanterra" lat="45.8033" lon="14.8393">
    <comp name="--.HHN">
      <acc value="0.0561736863" flag="0"/>
      <vel value="0.0225064337" flag="0"/>
      <psa03 value="0.1229505232" flag="0"/>
      <psa10 value="0.0136623463" flag="0"/>
      <psa30 value="0.0014148763" flag="0"/>
    </comp>
    <comp name="--.HHE">
      <acc value="0.0631750837" flag="0"/>
      <vel value="0.0322227408" flag="0"/>
      <psa03 value="0.1397211324" flag="0"/>
      <psa10 value="0.0282339244" flag="0"/>
      <psa30 value="0.0045092335" flag="0"/>
    </comp>
    <comp name="--.HHZ">
      <acc value="0.0164308309" flag="0"/>
      <vel value="0.0077177596" flag="0"/>
      <psa03 value="0.0255488847" flag="0"/>
      <psa10 value="0.0075376555" flag="0"/>
      <psa30 value="0.0005725410" flag="0"/>
    </comp>
  </station>
</stationlist>
