<?xml version="1.0" encoding="UTF-8" standalone="yes"?>
<!DOCTYPE earthquake SYSTEM "stationlist.dtd">
<stationlist created="" xmlns="ch.ethz.sed.shakemap.usgs.xml">
  <station code="BLY" name="BLY" netid="MN" insttype="" lat="44.7488" lon="17.1839">
    <comp name="--.HHE">
      <acc value="0.0685488634" flag="0"/>
      <vel value="0.0657838941" flag="0"/>
      <psa03 value="0.1804428278" flag="0"/>
      <psa10 value="0.0973742836" flag="0"/>
      <psa30 value="0.0054818050" flag="0"/>
    </comp>
    <comp name="--.HHZ">
      <acc value="0.0351591884" flag="0"/>
      <vel value="0.0238293801" flag="0"/>
      <psa03 value="0.1301971577" flag="0"/>
      <psa10 value="0.0308371217" flag="0"/>
      <psa30 value="0.0024744671" flag="0"/>
    </comp>
    <comp name="--.HHN">
      <acc value="0.0421244210" flag="0"/>
      <vel value="0.0300796165" flag="0"/>
      <psa03 value="0.1266265193" flag="0"/>
      <psa10 value="0.0495933409" flag="0"/>
      <psa30 value="0.0035310951" flag="0"/>
    </comp>
  </station>
  <station code="BOJS" name="BOJS" netid="SL" insttype="Trillium" lat="45.5043" lon="15.2518">
    <comp name="--.HHN">
      <acc value="0.0671654896" flag="0"/>
      <vel value="0.0251170542" flag="0"/>
      <psa03 value="0.1003934577" flag="0"/>
      <psa10 value="0.0168305086" flag="0"/>
      <psa30 value="0.0025380917" flag="0"/>
    </comp>
    <comp name="--.HHZ">
      <acc value="0.0251667782" flag="0"/>
      <vel value="0.0145848113" flag="0"/>
      <psa03 value="0.0403515139" flag="0"/>
      <psa10 value="0.0156002200" flag="0"/>
      <psa30 value="0.0034509560" flag="0"/>
    </comp>
    <comp name="--.HHE">
      <acc value="0.0467904790" flag="0"/>
      <vel value="0.0265926039" flag="0"/>
      <psa03 value="0.0856685077" flag="0"/>
      <psa10 value="0.0212621741" flag="0"/>
      <psa30 value="0.0029795702" flag="0"/>
    </comp>
  </station>
  <station code="GBRS" name="GBRS" netid="SL" insttype="STS-2.5/Quanterra" lat="45.5311" lon="14.8101">
    <comp name="--.HHE">
      <acc value="0.0677711373" flag="0"/>
      <vel value="0.0268835116" flag="0"/>
      <psa03 value="0.1006384306" flag="0"/>
      <psa10 value="0.0283445631" flag="0"/>
      <psa30 value="0.0023969654" flag="0"/>
    </comp>
    <comp name="--.HHN">
      <acc value="0.0603690727" flag="0"/>
      <vel value="0.0225376527" flag="0"/>
      <psa03 value="0.0559039428" flag="0"/>
      <psa10 value="0.0166486443" flag="0"/>
      <psa30 value="0.0017173925" flag="0"/>
    </comp>
    <comp name="--.HHZ">
      <acc value="0.0399226160" flag="0"/>
      <vel value="0.0176449400" flag="0"/>
      <psa03 value="0.0675489978" flag="0"/>
      <psa10 value="0.0172448932" flag="0"/>
      <psa30 value="0.0012465810" flag="0"/>
    </comp>
  </station>
</stationlist>
