<stationlist created="1779846991">
	<station code="CADA" name="CADA" netid="IV" source="Italian National Seismic Network (INSN)" insttype="" lat="43.1942" lon="13.7614">
		<comp name="--.HNE" depth="0.0">
			<acc value="0.220396046452285" flag="0"/>
			<vel value="0.166387485965643" flag="0"/>
			<psa03 value="0.597598587975756" flag="0"/>
			<psa10 value="0.174742855856652" flag="0"/>
			<psa30 value="0.00952220913294369" flag="0"/>
		</comp>
		<comp name="--.HNN" depth="0.0">
			<acc value="0.0943012733421568" flag="0"/>
			<vel value="0.0688880926656949" flag="0"/>
			<psa03 value="0.299543697466538" flag="0"/>
			<psa10 value="0.135272736155065" flag="0"/>
			<psa30 value="0.010837035400418" flag="0"/>
		</comp>
		<comp name="--.HNZ" depth="0.0">
			<acc value="0.0592723209215743" flag="0"/>
			<vel value="0.0323394917880975" flag="0"/>
			<psa03 value="0.161083941853847" flag="0"/>
			<psa10 value="0.0446367694670138" flag="0"/>
			<psa30 value="0.00276083976708426" flag="0"/>
		</comp>
	</station>
	<station code="CIMA" name="CIMA" netid="IV" source="Italian National Seismic Network (INSN)" insttype="" lat="43.305297" lon="13.670091">
		<comp name="--.HNE" depth="0.0">
			<acc value="0.306307052124607" flag="0"/>
			<vel value="0.163168934992924" flag="0"/>
			<psa03 value="0.670984741114611" flag="0"/>
			<psa10 value="0.176384174585899" flag="0"/>
			<psa30 value="0.0107531656777863" flag="0"/>
		</comp>
		<comp name="--.HNN" depth="0.0">
			<acc value="0.22502112645949" flag="0"/>
			<vel value="0.224367239084089" flag="0"/>
			<psa03 value="0.753454329320005" flag="0"/>
			<psa10 value="0.250647749183294" flag="0"/>
			<psa30 value="0.018398210457802" flag="0"/>
		</comp>
		<comp name="--.HNZ" depth="0.0">
			<acc value="0.0670684755625101" flag="0"/>
			<vel value="0.0361115144115427" flag="0"/>
			<psa03 value="0.17435022693014" flag="0"/>
			<psa10 value="0.0645068832644403" flag="0"/>
			<psa30 value="0.00340752093987237" flag="0"/>
		</comp>
	</station>
	<station code="MNTP" name="MNTP" netid="IV" source="Italian National Seismic Network (INSN)" insttype="" lat="43.137378" lon="13.469252">
		<comp name="--.HNE" depth="0.0">
			<acc value="0.373164104634925" flag="0"/>
			<vel value="0.140192771656834" flag="0"/>
			<psa03 value="1.06282299013849" flag="0"/>
			<psa10 value="0.0724503369792278" flag="0"/>
			<psa30 value="0.00643214526471913" flag="0"/>
		</comp>
		<comp name="--.HNN" depth="0.0">
			<acc value="0.498815162970002" flag="0"/>
			<vel value="0.178245773931574" flag="0"/>
			<psa03 value="1.12706357909768" flag="0"/>
			<psa10 value="0.0555895837870025" flag="0"/>
			<psa30 value="0.00517488197722002" flag="0"/>
		</comp>
		<comp name="--.HNZ" depth="0.0">
			<acc value="0.10415592377217" flag="0"/>
			<vel value="0.0384904184351946" flag="0"/>
			<psa03 value="0.34442573318105" flag="0"/>
			<psa10 value="0.0404694821546026" flag="0"/>
			<psa30 value="0.00262932084626865" flag="0"/>
		</comp>
	</station>
	<station code="PCRO" name="PCRO" netid="IV" source="Italian National Seismic Network (INSN)" insttype="" lat="43.60768" lon="13.53233">
		<comp name="--.HNE" depth="0.0">
			<acc value="0.177746160878093" flag="0"/>
			<vel value="0.114233882784728" flag="0"/>
			<psa03 value="0.565418747885295" flag="0"/>
			<psa10 value="0.107666654887542" flag="0"/>
			<psa30 value="0.00552581689157102" flag="0"/>
		</comp>
		<comp name="--.HNN" depth="0.0">
			<acc value="0.174498190926162" flag="0"/>
			<vel value="0.140609853388495" flag="0"/>
			<psa03 value="0.398238714693849" flag="0"/>
			<psa10 value="0.170824431280059" flag="0"/>
			<psa30 value="0.0109593760048549" flag="0"/>
		</comp>
		<comp name="--.HNZ" depth="0.0">
			<acc value="0.119268152728513" flag="0"/>
			<vel value="0.0729008757036659" flag="0"/>
			<psa03 value="0.392316530711651" flag="0"/>
			<psa10 value="0.0658797142079378" flag="0"/>
			<psa30 value="0.00303899402677095" flag="0"/>
		</comp>
	</station>
	<station code="PP3" name="PP3" netid="IV" source="Italian National Seismic Network (INSN)" insttype="" lat="43.379" lon="13.6095">
		<comp name="--.HNE" depth="0.0">
			<acc value="0.117660711111107" flag="0"/>
			<vel value="0.0636101320930287" flag="0"/>
			<psa03 value="0.2337100863129" flag="0"/>
			<psa10 value="0.0645650796196113" flag="0"/>
			<psa30 value="0.00681143164056911" flag="0"/>
		</comp>
		<comp name="--.HNN" depth="0.0">
			<acc value="0.128342072052471" flag="0"/>
			<vel value="0.0663614105770328" flag="0"/>
			<psa03 value="0.345027710559357" flag="0"/>
			<psa10 value="0.0867271202461414" flag="0"/>
			<psa30 value="0.00851651584404339" flag="0"/>
		</comp>
		<comp name="--.HNZ" depth="0.0">
			<acc value="0.0400516848607781" flag="0"/>
			<vel value="0.0240582644886298" flag="0"/>
			<psa03 value="0.145740675437724" flag="0"/>
			<psa10 value="0.050958593256774" flag="0"/>
			<psa30 value="0.00292383118946614" flag="0"/>
		</comp>
	</station>
	<station code="TRE1" name="TRE1" netid="IV" source="Italian National Seismic Network (INSN)" insttype="" lat="43.311198" lon="13.312848">
		<comp name="--.HNE" depth="0.0">
			<acc value="0.0653331418374372" flag="0"/>
			<vel value="0.038065232593746" flag="0"/>
			<psa03 value="0.168452273719907" flag="0"/>
			<psa10 value="0.060982081013761" flag="0"/>
			<psa30 value="0.00454541944505628" flag="0"/>
		</comp>
		<comp name="--.HNN" depth="0.0">
			<acc value="0.0780201379033442" flag="0"/>
			<vel value="0.0384418571298838" flag="0"/>
			<psa03 value="0.182257011132727" flag="0"/>
			<psa10 value="0.0566380932456031" flag="0"/>
			<psa30 value="0.00368675672954184" flag="0"/>
		</comp>
		<comp name="--.HNZ" depth="0.0">
			<acc value="0.0649143981132292" flag="0"/>
			<vel value="0.0275153418839402" flag="0"/>
			<psa03 value="0.155796872861493" flag="0"/>
			<psa10 value="0.0242726785708456" flag="0"/>
			<psa30 value="0.00202494768451325" flag="0"/>
		</comp>
	</station>
	<station code="BLY" name="BLY" netid="MN" source="Mediterranean Very Broadband Seismographic Network (MedNet)" insttype="" lat="44.7488" lon="17.1839">
		<comp name="--.HNE" depth="1.0">
			<acc value="0.0691471527752374" flag="0"/>
			<vel value="0.0653903699946236" flag="0"/>
			<psa03 value="0.183069335778544" flag="0"/>
			<psa10 value="0.0967676978849571" flag="0"/>
			<psa30 value="0.00576269175002959" flag="0"/>
		</comp>
		<comp name="--.HNN" depth="1.0">
			<acc value="0.0411972978153968" flag="0"/>
			<vel value="0.0302427961335157" flag="0"/>
			<psa03 value="0.129586042772642" flag="0"/>
			<psa10 value="0.0471160099545897" flag="0"/>
			<psa30 value="0.00387833358723075" flag="0"/>
		</comp>
		<comp name="--.HNZ" depth="1.0">
			<acc value="0.0353674121828692" flag="0"/>
			<vel value="0.0248824569894917" flag="0"/>
			<psa03 value="0.12781168564693" flag="0"/>
			<psa10 value="0.0315277385579478" flag="0"/>
			<psa30 value="0.00301107155204569" flag="0"/>
		</comp>
	</station>
	<station code="DST2" name="DST2" netid="NI" source="North-East Italy Broadband Network (NI)" insttype="" lat="45.6589" lon="13.8013">
		<comp name="--.HNE" depth="0.0">
			<acc value="0.0573637863548287" flag="0"/>
			<vel value="0.0264815356743289" flag="0"/>
			<psa03 value="0.160218749122291" flag="0"/>
			<psa10 value="0.0194579502437265" flag="0"/>
			<psa30 value="0.00305088460613106" flag="0"/>
		</comp>
		<comp name="--.HNN" depth="0.0">
			<acc value="0.0719607067792039" flag="0"/>
			<vel value="0.0248814072039294" flag="0"/>
			<psa03 value="0.148374964530051" flag="0"/>
			<psa10 value="0.0194739056756806" flag="0"/>
			<psa30 value="0.00140679027628506" flag="0"/>
		</comp>
		<comp name="--.HNZ" depth="0.0">
			<acc value="0.0327455008747136" flag="0"/>
			<vel value="0.0196745538940365" flag="0"/>
			<psa03 value="0.10569682481277" flag="0"/>
			<psa10 value="0.012565573032544" flag="0"/>
			<psa30 value="0.00230353322277238" flag="0"/>
		</comp>
	</station>
	<station code="BOJS" name="BOJS" netid="SL" source="Seismic Network of the Republic of Slovenia (SNRS)" insttype="" lat="45.5043" lon="15.2518">
		<comp name="--.HNE" depth="0.0">
			<acc value="0.0467712888636705" flag="0"/>
			<vel value="0.0267199071258079" flag="0"/>
			<psa03 value="0.0854622552050315" flag="0"/>
			<psa10 value="0.0213540214741068" flag="0"/>
			<psa30 value="0.00281573652872581" flag="0"/>
		</comp>
		<comp name="--.HNN" depth="0.0">
			<acc value="0.0662547465759072" flag="0"/>
			<vel value="0.0247853009270632" flag="0"/>
			<psa03 value="0.100276872017089" flag="0"/>
			<psa10 value="0.0167371675052152" flag="0"/>
			<psa30 value="0.00233329998634152" flag="0"/>
		</comp>
		<comp name="--.HNZ" depth="0.0">
			<acc value="0.0250897110705411" flag="0"/>
			<vel value="0.0146363930946051" flag="0"/>
			<psa03 value="0.0408110290511992" flag="0"/>
			<psa10 value="0.0158160671118049" flag="0"/>
			<psa30 value="0.00322032853929437" flag="0"/>
		</comp>
	</station>
	<station code="CEY" name="CEY" netid="SL" source="Seismic Network of the Republic of Slovenia (SNRS)" insttype="" lat="45.7381" lon="14.4221">
		<comp name="--.HNE" depth="0.0">
			<acc value="0.0430575359530341" flag="0"/>
			<vel value="0.0356171299009781" flag="0"/>
			<psa03 value="0.114989794592999" flag="0"/>
			<psa10 value="0.031037146058606" flag="0"/>
			<psa30 value="0.00764847334049942" flag="0"/>
		</comp>
		<comp name="--.HNN" depth="0.0">
			<acc value="0.0426502830016524" flag="0"/>
			<vel value="0.0251305194920911" flag="0"/>
			<psa03 value="0.107404312925477" flag="0"/>
			<psa10 value="0.0226872179168514" flag="0"/>
			<psa30 value="0.00338703249928097" flag="0"/>
		</comp>
		<comp name="--.HNZ" depth="0.0">
			<acc value="0.0330111098503056" flag="0"/>
			<vel value="0.0207791237146091" flag="0"/>
			<psa03 value="0.0946096111722594" flag="0"/>
			<psa10 value="0.0287658137189937" flag="0"/>
			<psa30 value="0.0033623021110145" flag="0"/>
		</comp>
	</station>
	<station code="CRES" name="CRES" netid="SL" source="Seismic Network of the Republic of Slovenia (SNRS)" insttype="" lat="45.826" lon="15.4569">
		<comp name="--.HNE" depth="0.0">
			<acc value="0.0305458002078074" flag="0"/>
			<vel value="0.0201749758658072" flag="0"/>
			<psa03 value="0.083277672987095" flag="0"/>
			<psa10 value="0.0292508558506526" flag="0"/>
			<psa30 value="0.00310857571955344" flag="0"/>
		</comp>
		<comp name="--.HNN" depth="0.0">
			<acc value="0.0247761620616066" flag="0"/>
			<vel value="0.014753594215228" flag="0"/>
			<psa03 value="0.083402795859163" flag="0"/>
			<psa10 value="0.0211652864713395" flag="0"/>
			<psa30 value="0.00197685574865588" flag="0"/>
		</comp>
		<comp name="--.HNZ" depth="0.0">
			<acc value="0.0167152734793492" flag="0"/>
			<vel value="0.0105947848808408" flag="0"/>
			<psa03 value="0.0455954371405796" flag="0"/>
			<psa10 value="0.0125816250334103" flag="0"/>
			<psa30 value="0.00270677035191617" flag="0"/>
		</comp>
	</station>
	<station code="CRNS" name="CRNS" netid="SL" source="Seismic Network of the Republic of Slovenia (SNRS)" insttype="" lat="46.0807" lon="14.2613">
		<comp name="--.HNE" depth="0.0">
			<acc value="0.06904393108462" flag="0"/>
			<vel value="0.0444272002634982" flag="0"/>
			<psa03 value="0.152897045345517" flag="0"/>
			<psa10 value="0.0375396193155503" flag="0"/>
			<psa30 value="0.00341110346886612" flag="0"/>
		</comp>
		<comp name="--.HNN" depth="0.0">
			<acc value="0.0574280907182804" flag="0"/>
			<vel value="0.0276273449702093" flag="0"/>
			<psa03 value="0.121620535930338" flag="0"/>
			<psa10 value="0.0385757304528297" flag="0"/>
			<psa30 value="0.00299465171431324" flag="0"/>
		</comp>
		<comp name="--.HNZ" depth="0.0">
			<acc value="0.0290010747693501" flag="0"/>
			<vel value="0.0187505633759092" flag="0"/>
			<psa03 value="0.0587746539490117" flag="0"/>
			<psa10 value="0.0364469919343449" flag="0"/>
			<psa30 value="0.00389366793639131" flag="0"/>
		</comp>
	</station>
	<station code="DOBS" name="DOBS" netid="SL" source="Seismic Network of the Republic of Slovenia (SNRS)" insttype="" lat="46.1495" lon="15.4695">
		<comp name="--.HNE" depth="0.0">
			<acc value="0.0305830909526481" flag="0"/>
			<vel value="0.0166698077128862" flag="0"/>
			<psa03 value="0.0519188560359113" flag="0"/>
			<psa10 value="0.0142052013373908" flag="0"/>
			<psa30 value="0.00397636758150197" flag="0"/>
		</comp>
		<comp name="--.HNN" depth="0.0">
			<acc value="0.0195303937723184" flag="0"/>
			<vel value="0.0116863289460001" flag="0"/>
			<psa03 value="0.0264629040791915" flag="0"/>
			<psa10 value="0.0131337712978957" flag="0"/>
			<psa30 value="0.00310309202294852" flag="0"/>
		</comp>
		<comp name="--.HNZ" depth="0.0">
			<acc value="0.00974152315264897" flag="0"/>
			<vel value="0.00719717022475913" flag="0"/>
			<psa03 value="0.0156536164023591" flag="0"/>
			<psa10 value="0.00973380544184377" flag="0"/>
			<psa30 value="0.00288193278890554" flag="0"/>
		</comp>
	</station>
	<station code="GBAS" name="GBAS" netid="SL" source="Seismic Network of the Republic of Slovenia (SNRS)" insttype="" lat="45.9348" lon="14.4434">
		<comp name="--.HNE" depth="0.0">
			<acc value="0.0268185348537547" flag="0"/>
			<vel value="0.0180840765557396" flag="0"/>
			<psa03 value="0.0473759509241219" flag="0"/>
			<psa10 value="0.0175570674445358" flag="0"/>
			<psa30 value="0.00382270031847064" flag="0"/>
		</comp>
		<comp name="--.HNN" depth="0.0">
			<acc value="0.0218354428775328" flag="0"/>
			<vel value="0.0118891401017248" flag="0"/>
			<psa03 value="0.0371549457078208" flag="0"/>
			<psa10 value="0.0209550137918311" flag="0"/>
			<psa30 value="0.00251096050547661" flag="0"/>
		</comp>
		<comp name="--.HNZ" depth="0.0">
			<acc value="0.0194956692877353" flag="0"/>
			<vel value="0.0118401755536265" flag="0"/>
			<psa03 value="0.0369092106790879" flag="0"/>
			<psa10 value="0.0154300765418631" flag="0"/>
			<psa30 value="0.00287254966731764" flag="0"/>
		</comp>
	</station>
	<station code="GBRS" name="GBRS" netid="SL" source="Seismic Network of the Republic of Slovenia (SNRS)" insttype="" lat="45.5311" lon="14.8101">
		<comp name="--.HNE" depth="0.0">
			<acc value="0.0646213123212823" flag="0"/>
			<vel value="0.026588621330099" flag="0"/>
			<psa03 value="0.100018761168861" flag="0"/>
			<psa10 value="0.0284080850212127" flag="0"/>
			<psa30 value="0.00214965490408584" flag="0"/>
		</comp>
		<comp name="--.HNN" depth="0.0">
			<acc value="0.0586654007456107" flag="0"/>
			<vel value="0.0222141804521707" flag="0"/>
			<psa03 value="0.0561826384907991" flag="0"/>
			<psa10 value="0.0166326593320488" flag="0"/>
			<psa30 value="0.00146073426647544" flag="0"/>
		</comp>
		<comp name="--.HNZ" depth="0.0">
			<acc value="0.0377234753242954" flag="0"/>
			<vel value="0.0165648286580039" flag="0"/>
			<psa03 value="0.0659163718445276" flag="0"/>
			<psa10 value="0.0168176928396148" flag="0"/>
			<psa30 value="0.00120219911895866" flag="0"/>
		</comp>
	</station>
	<station code="GCIS" name="GCIS" netid="SL" source="Seismic Network of the Republic of Slovenia (SNRS)" insttype="" lat="45.8672" lon="15.6275">
		<comp name="--.HNE" depth="0.0">
			<acc value="0.0193491880558452" flag="0"/>
			<vel value="0.0149766618304099" flag="0"/>
			<psa03 value="0.0482527121303758" flag="0"/>
			<psa10 value="0.013185272522113" flag="0"/>
			<psa30 value="0.00309676514549135" flag="0"/>
		</comp>
		<comp name="--.HNN" depth="0.0">
			<acc value="0.015118719515311" flag="0"/>
			<vel value="0.00862992966892444" flag="0"/>
			<psa03 value="0.0371885390790446" flag="0"/>
			<psa10 value="0.0124948358465623" flag="0"/>
			<psa30 value="0.00212036817231826" flag="0"/>
		</comp>
		<comp name="--.HNZ" depth="0.0">
			<acc value="0.0124320258945181" flag="0"/>
			<vel value="0.00687681438038434" flag="0"/>
			<psa03 value="0.0265785523652995" flag="0"/>
			<psa10 value="0.00805795630006955" flag="0"/>
			<psa30 value="0.00149079011169654" flag="0"/>
		</comp>
	</station>
	<station code="GOLS" name="GOLS" netid="SL" source="Seismic Network of the Republic of Slovenia (SNRS)" insttype="" lat="46.0108" lon="15.6245">
		<comp name="--.HNE" depth="0.0">
			<acc value="0.0232691537101006" flag="0"/>
			<vel value="0.0186151196247412" flag="0"/>
			<psa03 value="0.0581576912034849" flag="0"/>
			<psa10 value="0.0245811796325199" flag="0"/>
			<psa30 value="0.00534969772455927" flag="0"/>
		</comp>
		<comp name="--.HNN" depth="0.0">
			<acc value="0.0212108992088566" flag="0"/>
			<vel value="0.01444234988494" flag="0"/>
			<psa03 value="0.0608226906632212" flag="0"/>
			<psa10 value="0.0211797586800707" flag="0"/>
			<psa30 value="0.00254061913688168" flag="0"/>
		</comp>
		<comp name="--.HNZ" depth="0.0">
			<acc value="0.0106079040883993" flag="0"/>
			<vel value="0.0135198082935477" flag="0"/>
			<psa03 value="0.0372949758174619" flag="0"/>
			<psa10 value="0.0155229542570467" flag="0"/>
			<psa30 value="0.00237384538060532" flag="0"/>
		</comp>
	</station>
	<station code="JAVS" name="JAVS" netid="SL" source="Seismic Network of the Republic of Slovenia (SNRS)" insttype="" lat="45.8934" lon="14.0643">
		<comp name="--.HNE" depth="0.0">
			<acc value="0.039852379535556" flag="0"/>
			<vel value="0.0272876087888328" flag="0"/>
			<psa03 value="0.0775521322396588" flag="0"/>
			<psa10 value="0.031180023023513" flag="0"/>
			<psa30 value="0.00317857285652066" flag="0"/>
		</comp>
		<comp name="--.HNN" depth="0.0">
			<acc value="0.0310664054869249" flag="0"/>
			<vel value="0.0207743085988179" flag="0"/>
			<psa03 value="0.0798618112865672" flag="0"/>
			<psa10 value="0.0177443117235637" flag="0"/>
			<psa30 value="0.00175555921384999" flag="0"/>
		</comp>
		<comp name="--.HNZ" depth="0.0">
			<acc value="0.0176204673668909" flag="0"/>
			<vel value="0.0235870204096477" flag="0"/>
			<psa03 value="0.0603111307328881" flag="0"/>
			<psa10 value="0.022724024730128" flag="0"/>
			<psa30 value="0.00281009844689536" flag="0"/>
		</comp>
	</station>
	<station code="KNDS" name="KNDS" netid="SL" source="Seismic Network of the Republic of Slovenia (SNRS)" insttype="" lat="45.5278" lon="14.3807">
		<comp name="--.HNE" depth="0.0">
			<acc value="0.0441846033385205" flag="0"/>
			<vel value="0.0305886928840466" flag="0"/>
			<psa03 value="0.122510657396622" flag="0"/>
			<psa10 value="0.0401554025983391" flag="0"/>
			<psa30 value="0.00480021174046342" flag="0"/>
		</comp>
		<comp name="--.HNN" depth="0.0">
			<acc value="0.0415660645979859" flag="0"/>
			<vel value="0.0268431286473039" flag="0"/>
			<psa03 value="0.139501814227054" flag="0"/>
			<psa10 value="0.0258238657043848" flag="0"/>
			<psa30 value="0.00288374895088337" flag="0"/>
		</comp>
		<comp name="--.HNZ" depth="0.0">
			<acc value="0.0196438274537717" flag="0"/>
			<vel value="0.0135997321017923" flag="0"/>
			<psa03 value="0.0585091728204425" flag="0"/>
			<psa10 value="0.0135951156096863" flag="0"/>
			<psa30 value="0.00224048300433655" flag="0"/>
		</comp>
	</station>
	<station code="LJU" name="LJU" netid="SL" source="Seismic Network of the Republic of Slovenia (SNRS)" insttype="" lat="46.0438" lon="14.5278">
		<comp name="--.HNE" depth="0.0">
			<acc value="0.032770389985982" flag="0"/>
			<vel value="0.0290971174752861" flag="0"/>
			<psa03 value="0.0954935447286803" flag="0"/>
			<psa10 value="0.032508638537759" flag="0"/>
			<psa30 value="0.00390039129844806" flag="0"/>
		</comp>
		<comp name="--.HNN" depth="0.0">
			<acc value="0.0399906252019513" flag="0"/>
			<vel value="0.0256555589992919" flag="0"/>
			<psa03 value="0.0822260720737302" flag="0"/>
			<psa10 value="0.0183867105293353" flag="0"/>
			<psa30 value="0.00384816242187465" flag="0"/>
		</comp>
		<comp name="--.HNZ" depth="0.0">
			<acc value="0.0205617092883816" flag="0"/>
			<vel value="0.0183309548969083" flag="0"/>
			<psa03 value="0.0424874578147293" flag="0"/>
			<psa10 value="0.0204446762344633" flag="0"/>
			<psa30 value="0.00450615601072064" flag="0"/>
		</comp>
	</station>
