<stationlist created="1738494132">
	<station code="ABEA" name="ABEA" netid="HC" source="Seismological Network of Crete (HC)" insttype="" lat="35.5163" lon="24.0113">
		<comp name=".HNE" depth="0.0">
			<acc value="0.0025575906021768" flag="0"/>
			<vel value="0.00155625719831" flag="0"/>
			<psa03 value="0.00621748414344388" flag="0"/>
			<psa10 value="0.00137890247833635" flag="0"/>
			<psa30 value="0.000686264576245354" flag="0"/>
		</comp>
		<comp name=".HNN" depth="0.0">
			<acc value="0.0040385980415838" flag="0"/>
			<vel value="0.00216950366351" flag="0"/>
			<psa03 value="0.0101053054945971" flag="0"/>
			<psa10 value="0.0016175925481928" flag="0"/>
			<psa30 value="0.000700595473513251" flag="0"/>
		</comp>
		<comp name=".HNZ" depth="0.0">
			<acc value="0.0020785603718016" flag="0"/>
			<vel value="0.00137700884798" flag="0"/>
			<psa03 value="0.00263649057252825" flag="0"/>
			<psa10 value="0.000970443583999285" flag="0"/>
			<psa30 value="0.000786699719163824" flag="0"/>
		</comp>
	</station>
	<station code="ATEI" name="ATEI" netid="HC" source="Seismological Network of Crete (HC)" insttype="" lat="35.5193" lon="24.0432">
		<comp name=".HNE" depth="0.0">
			<acc value="0.011263779576162" flag="0"/>
			<vel value="0.00485364610253" flag="0"/>
			<psa03 value="0.028151250298829" flag="0"/>
			<psa10 value="0.00467296893625705" flag="0"/>
			<psa30 value="0.00133045115669485" flag="0"/>
		</comp>
		<comp name=".HNN" depth="0.0">
			<acc value="0.0078800389630122" flag="0"/>
			<vel value="0.00587610243263" flag="0"/>
			<psa03 value="0.0220600707463998" flag="0"/>
			<psa10 value="0.00469358264557743" flag="0"/>
			<psa30 value="0.000639434755245474" flag="0"/>
		</comp>
		<comp name=".HNZ" depth="0.0">
			<acc value="0.007877235360963" flag="0"/>
			<vel value="0.00364783191188" flag="0"/>
			<psa03 value="0.0162981838413749" flag="0"/>
			<psa10 value="0.00233773353524806" flag="0"/>
			<psa30 value="0.000548441019023721" flag="0"/>
		</comp>
	</station>
	<station code="G0LD" name="G0LD" netid="HC" source="Seismological Network of Crete (HC)" insttype="" lat="35.4955" lon="24.0306">
		<comp name=".HNE" depth="0.0">
			<acc value="0.0025409422106982" flag="0"/>
			<vel value="0.00262179094098" flag="0"/>
			<psa03 value="0.0043180848800542" flag="0"/>
			<psa10 value="0.00181881681581212" flag="0"/>
			<psa30 value="0.0014869337103944" flag="0"/>
		</comp>
		<comp name=".HNN" depth="0.0">
			<acc value="0.002646277826265" flag="0"/>
			<vel value="0.00204260200128" flag="0"/>
			<psa03 value="0.00321794461835191" flag="0"/>
			<psa10 value="0.00129704510255838" flag="0"/>
			<psa30 value="0.000619883876766143" flag="0"/>
		</comp>
		<comp name=".HNZ" depth="0.0">
			<acc value="0.0031497891626466" flag="0"/>
			<vel value="0.00474034632413" flag="0"/>
			<psa03 value="0.00222106201076045" flag="0"/>
			<psa10 value="0.00190902669802503" flag="0"/>
			<psa30 value="0.00114450269268559" flag="0"/>
		</comp>
	</station>
	<station code="POLY" name="POLY" netid="HC" source="Seismological Network of Crete (HC)" insttype="" lat="35.5226" lon="24.0602">
		<comp name=".HNE" depth="0.0">
			<acc value="0.0010208697462786" flag="0"/>
			<vel value="0.00179525257137" flag="0"/>
			<psa03 value="0.00164238939919514" flag="0"/>
			<psa10 value="0.00100011859669844" flag="0"/>
			<psa30 value="0.00095344566109398" flag="0"/>
		</comp>
		<comp name=".HNN" depth="0.0">
			<acc value="0.0013758226573908" flag="0"/>
			<vel value="0.00204535950114" flag="0"/>
			<psa03 value="0.00191029288867383" flag="0"/>
			<psa10 value="0.00121570221399287" flag="0"/>
			<psa30 value="0.000891680319446593" flag="0"/>
		</comp>
		<comp name=".HNZ" depth="0.0">
			<acc value="0.0028598177186586" flag="0"/>
			<vel value="0.00155243591538" flag="0"/>
			<psa03 value="0.00209849301876791" flag="0"/>
			<psa10 value="0.000967842083539574" flag="0"/>
			<psa30 value="0.000693035753966245" flag="0"/>
		</comp>
	</station>
	<station code="ARK1" name="ARK1" netid="HI" source="ITSAK Strong Motion Network" insttype="" lat="35.148777" lon="25.264194">
		<comp name=".HNE" depth="0.0">
			<acc value="0.01684993109427" flag="0"/>
			<vel value="0.00889830353268" flag="0"/>
			<psa03 value="0.0574941993335126" flag="0"/>
			<psa10 value="0.00994592980655263" flag="0"/>
			<psa30 value="0.000856525126003002" flag="0"/>
		</comp>
		<comp name=".HNN" depth="0.0">
			<acc value="0.020153968467096" flag="0"/>
			<vel value="0.0102715615877" flag="0"/>
			<psa03 value="0.0681858659371717" flag="0"/>
			<psa10 value="0.012044105675379" flag="0"/>
			<psa30 value="0.000787655980426575" flag="0"/>
		</comp>
		<comp name=".HNZ" depth="0.0">
			<acc value="0.0094625596702716" flag="0"/>
			<vel value="0.00571525213448" flag="0"/>
			<psa03 value="0.0278427246521756" flag="0"/>
			<psa10 value="0.00711023242424429" flag="0"/>
			<psa30 value="0.000461446974846269" flag="0"/>
		</comp>
	</station>
	<station code="CH01" name="CH01" netid="HI" source="ITSAK Strong Motion Network" insttype="" lat="35.517" lon="24.0208">
		<comp name=".HNE" depth="0.0">
			<acc value="0.0084322113849768" flag="0"/>
			<vel value="0.00323033971282" flag="0"/>
			<psa03 value="0.019011858400666" flag="0"/>
			<psa10 value="0.00448398641709272" flag="0"/>
			<psa30 value="0.000408646862515676" flag="0"/>
		</comp>
		<comp name=".HNN" depth="0.0">
			<acc value="0.01612939802283" flag="0"/>
			<vel value="0.00614473476768" flag="0"/>
			<psa03 value="0.0449884646398658" flag="0"/>
			<psa10 value="0.00377680066325805" flag="0"/>
			<psa30 value="0.000377391432622027" flag="0"/>
		</comp>
		<comp name=".HNZ" depth="0.0">
			<acc value="0.0075377095554678" flag="0"/>
			<vel value="0.00250662679234" flag="0"/>
			<psa03 value="0.0154221258068169" flag="0"/>
			<psa10 value="0.00337923424831025" flag="0"/>
			<psa30 value="0.000210544325132321" flag="0"/>
		</comp>
	</station>
	<station code="CH02" name="CH02" netid="HI" source="ITSAK Strong Motion Network" insttype="" lat="35.5145" lon="24.0315">
		<comp name=".HNE" depth="0.0">
			<acc value="0.0072388523178726" flag="0"/>
			<vel value="0.00344164645288" flag="0"/>
			<psa03 value="0.0183891791303773" flag="0"/>
			<psa10 value="0.00548896392943765" flag="0"/>
			<psa30 value="0.00039368680898564" flag="0"/>
		</comp>
		<comp name=".HNN" depth="0.0">
			<acc value="0.0101238009568956" flag="0"/>
			<vel value="0.00558737238085" flag="0"/>
			<psa03 value="0.0327637277278371" flag="0"/>
			<psa10 value="0.00412406757423979" flag="0"/>
			<psa30 value="0.000303748064526939" flag="0"/>
		</comp>
		<comp name=".HNZ" depth="0.0">
			<acc value="0.0052911229311744" flag="0"/>
			<vel value="0.00199814379516" flag="0"/>
			<psa03 value="0.00995303824616801" flag="0"/>
			<psa10 value="0.00361771887486875" flag="0"/>
			<psa30 value="0.000144562584374043" flag="0"/>
		</comp>
	</station>
	<station code="CH03" name="CH03" netid="HI" source="ITSAK Strong Motion Network" insttype="" lat="35.53303" lon="24.0705">
		<comp name=".HNE" depth="0.0">
			<acc value="0.0068308588565826" flag="0"/>
			<vel value="0.00321951783405" flag="0"/>
			<psa03 value="0.020888316040105" flag="0"/>
			<psa10 value="0.00370950081434876" flag="0"/>
			<psa30 value="0.000204102934880034" flag="0"/>
		</comp>
		<comp name=".HNN" depth="0.0">
			<acc value="0.0082863231701652" flag="0"/>
			<vel value="0.00416866654511" flag="0"/>
			<psa03 value="0.0271989267953998" flag="0"/>
			<psa10 value="0.00254438534991528" flag="0"/>
			<psa30 value="0.000236746907279049" flag="0"/>
		</comp>
		<comp name=".HNZ" depth="0.0">
			<acc value="0.0064568573969184" flag="0"/>
			<vel value="0.00266039470861" flag="0"/>
			<psa03 value="0.0107234102431139" flag="0"/>
			<psa10 value="0.00123012965411414" flag="0"/>
			<psa30 value="0.000109930159937891" flag="0"/>
		</comp>
	</station>
	<station code="GOR1" name="GOR1" netid="HI" source="ITSAK Strong Motion Network" insttype="" lat="35.0582" lon="24.9628">
		<comp name=".HNE" depth="0.0">
			<acc value="0.0079865498303922" flag="0"/>
			<vel value="0.00484114949411" flag="0"/>
			<psa03 value="0.023774793713424" flag="0"/>
			<psa10 value="0.00506909455264462" flag="0"/>
			<psa30 value="0.000476149928013812" flag="0"/>
		</comp>
		<comp name=".HNN" depth="0.0">
			<acc value="0.0061140822191616" flag="0"/>
			<vel value="0.00430353992202" flag="0"/>
			<psa03 value="0.0162277416748997" flag="0"/>
			<psa10 value="0.00450302595963508" flag="0"/>
			<psa30 value="0.000516072520604769" flag="0"/>
		</comp>
		<comp name=".HNZ" depth="0.0">
			<acc value="0.0051882027376542" flag="0"/>
			<vel value="0.00276640088568" flag="0"/>
			<psa03 value="0.0111377052662268" flag="0"/>
			<psa10 value="0.00544730992004887" flag="0"/>
			<psa30 value="0.000301281000054212" flag="0"/>
		</comp>
	</station>
	<station code="HER1" name="HER1" netid="HI" source="ITSAK Strong Motion Network" insttype="" lat="35.317672" lon="25.10217">
		<comp name=".HNE" depth="0.0">
			<acc value="0.02360254214247" flag="0"/>
			<vel value="0.014733134654" flag="0"/>
			<psa03 value="0.0553530262411233" flag="0"/>
			<psa10 value="0.023271690385279" flag="0"/>
			<psa30 value="0.00140002232794031" flag="0"/>
		</comp>
		<comp name=".HNN" depth="0.0">
			<acc value="0.02099419044759" flag="0"/>
			<vel value="0.0107692415965" flag="0"/>
			<psa03 value="0.042297064993822" flag="0"/>
			<psa10 value="0.0229957452302728" flag="0"/>
			<psa30 value="0.00110514904403423" flag="0"/>
		</comp>
		<comp name=".HNZ" depth="0.0">
			<acc value="0.018215017718262" flag="0"/>
			<vel value="0.0130044421929" flag="0"/>
			<psa03 value="0.0441915108040588" flag="0"/>
			<psa10 value="0.0217085999632127" flag="0"/>
			<psa30 value="0.000708126805758773" flag="0"/>
		</comp>
	</station>
	<station code="HER3" name="HER3" netid="HI" source="ITSAK Strong Motion Network" insttype="" lat="35.3296" lon="25.1065">
		<comp name=".HNE" depth="0.0">
			<acc value="0.046094783239608" flag="0"/>
			<vel value="0.0189824503585" flag="0"/>
			<psa03 value="0.100359210805077" flag="0"/>
			<psa10 value="0.0181579847523948" flag="0"/>
			<psa30 value="0.00131946094947859" flag="0"/>
		</comp>
		<comp name=".HNN" depth="0.0">
			<acc value="0.04760939848842" flag="0"/>
			<vel value="0.0216312241281" flag="0"/>
			<psa03 value="0.129823245986369" flag="0"/>
			<psa10 value="0.0241665071625054" flag="0"/>
			<psa30 value="0.0011941815044969" flag="0"/>
		</comp>
		<comp name=".HNZ" depth="0.0">
			<acc value="0.023804612894172" flag="0"/>
			<vel value="0.012029152424" flag="0"/>
			<psa03 value="0.0558534916862995" flag="0"/>
			<psa10 value="0.00917892430867679" flag="0"/>
			<psa30 value="0.000517463862775863" flag="0"/>
		</comp>
	</station>
	<station code="KIS1" name="KIS1" netid="HI" source="ITSAK Strong Motion Network" insttype="" lat="35.493933" lon="23.658993">
		<comp name=".HNE" depth="0.0">
			<acc value="0.0052554981046338" flag="0"/>
			<vel value="0.00238447023192" flag="0"/>
			<psa03 value="0.0142154195663727" flag="0"/>
			<psa10 value="0.0042682618138923" flag="0"/>
			<psa30 value="0.000382212845767026" flag="0"/>
		</comp>
		<comp name=".HNN" depth="0.0">
			<acc value="0.0042723596652216" flag="0"/>
			<vel value="0.00281675272871" flag="0"/>
			<psa03 value="0.0103315314184432" flag="0"/>
			<psa10 value="0.00336513190784747" flag="0"/>
			<psa30 value="0.0002896589801527" flag="0"/>
		</comp>
		<comp name=".HNZ" depth="0.0">
			<acc value="0.005173004462295" flag="0"/>
			<vel value="0.00155828415075" flag="0"/>
			<psa03 value="0.00703415543141289" flag="0"/>
			<psa10 value="0.00310899626824497" flag="0"/>
			<psa30 value="0.000178098165316824" flag="0"/>
		</comp>
	</station>
	<station code="KRL1" name="KRL1" netid="HI" source="ITSAK Strong Motion Network" insttype="" lat="37.7951" lon="26.7065">
		<comp name=".HNE" depth="0.0">
			<acc value="0.013722902854866" flag="0"/>
			<vel value="0.00611058320981" flag="0"/>
			<psa03 value="0.0455598045716121" flag="0"/>
			<psa10 value="0.00367588921274507" flag="0"/>
			<psa30 value="0.000239985611410691" flag="0"/>
		</comp>
		<comp name=".HNN" depth="0.0">
			<acc value="0.015290357906238" flag="0"/>
			<vel value="0.00498746071322" flag="0"/>
			<psa03 value="0.0412647570251467" flag="0"/>
			<psa10 value="0.00393704221597524" flag="0"/>
			<psa30 value="0.000395583028350818" flag="0"/>
		</comp>
		<comp name=".HNZ" depth="0.0">
			<acc value="0.0068806485380058" flag="0"/>
			<vel value="0.002931607544" flag="0"/>
			<psa03 value="0.0195807593687795" flag="0"/>
			<psa10 value="0.00226720776951322" flag="0"/>
			<psa30 value="0.000218375091278001" flag="0"/>
		</comp>
	</station>
	<station code="KTL1" name="KTL1" netid="HI" source="ITSAK Strong Motion Network" insttype="" lat="35.20778" lon="25.34272">
		<comp name=".HNE" depth="0.0">
			<acc value="0.013709083311528" flag="0"/>
			<vel value="0.00781847905578" flag="0"/>
			<psa03 value="0.0507030619540718" flag="0"/>
			<psa10 value="0.00776094412444802" flag="0"/>
			<psa30 value="0.000554413654265754" flag="0"/>
		</comp>
		<comp name=".HNN" depth="0.0">
			<acc value="0.01786470219687" flag="0"/>
			<vel value="0.0116741432906" flag="0"/>
			<psa03 value="0.0553929872217177" flag="0"/>
			<psa10 value="0.00968560349870778" flag="0"/>
			<psa30 value="0.000481286674546605" flag="0"/>
		</comp>
		<comp name=".HNZ" depth="0.0">
			<acc value="0.0079027512070098" flag="0"/>
			<vel value="0.00387269171388" flag="0"/>
			<psa03 value="0.0194282583809333" flag="0"/>
			<psa10 value="0.00297733653080999" flag="0"/>
			<psa30 value="0.000256938895940826" flag="0"/>
		</comp>
	</station>
	<station code="NAX1" name="NAX1" netid="HI" source="ITSAK Strong Motion Network" insttype="" lat="37.101394" lon="25.374103">
		<comp name=".HNE" depth="0.0">
			<acc value="0.1146783666138" flag="0"/>
			<vel value="0.0322095413425" flag="0"/>
			<psa03 value="0.128809241313625" flag="0"/>
			<psa10 value="0.01558563590939" flag="0"/>
			<psa30 value="0.000927945846858618" flag="0"/>
		</comp>
		<comp name=".HNN" depth="0.0">
			<acc value="0.10906696268274" flag="0"/>
			<vel value="0.0193016799139" flag="0"/>
			<psa03 value="0.0710747656461334" flag="0"/>
			<psa10 value="0.00654551345188429" flag="0"/>
			<psa30 value="0.000555236469190363" flag="0"/>
		</comp>
		<comp name=".HNZ" depth="0.0">
			<acc value="0.09040863390894" flag="0"/>
			<vel value="0.017365302701" flag="0"/>
			<psa03 value="0.0735097654943412" flag="0"/>
			<psa10 value="0.00847579116707312" flag="0"/>
			<psa30 value="0.000844943004578564" flag="0"/>
		</comp>
	</station>
	<station code="RTH1" name="RTH1" netid="HI" source="ITSAK Strong Motion Network" insttype="" lat="35.365393" lon="24.471773">
		<comp name=".HNE" depth="0.0">
			<acc value="0.0073730365840656" flag="0"/>
			<vel value="0.00268212013598" flag="0"/>
			<psa03 value="0.0201579981288403" flag="0"/>
			<psa10 value="0.00149797450689618" flag="0"/>
			<psa30 value="0.000337243304255536" flag="0"/>
		</comp>
		<comp name=".HNN" depth="0.0">
			<acc value="0.0069586020330078" flag="0"/>
			<vel value="0.00311370618174" flag="0"/>
			<psa03 value="0.0193992577618725" flag="0"/>
			<psa10 value="0.00258247052912477" flag="0"/>
			<psa30 value="0.0003445730606492" flag="0"/>
		</comp>
		<comp name=".HNZ" depth="0.0">
			<acc value="0.0061970586440142" flag="0"/>
			<vel value="0.00180140954652" flag="0"/>
			<psa03 value="0.00841637785624857" flag="0"/>
			<psa10 value="0.00158532599662897" flag="0"/>
			<psa30 value="0.000247879962497674" flag="0"/>
		</comp>
	</station>
	<station code="SFR2" name="SFR2" netid="HI" source="ITSAK Strong Motion Network" insttype="" lat="36.399841" lon="25.438209">
		<comp name=".HNE" depth="0.0">
			<acc value="0.43378721867676" flag="0"/>
			<vel value="0.115677624525" flag="0"/>
			<psa03 value="0.675678593725192" flag="0"/>
			<psa10 value="0.063328030171227" flag="0"/>
			<psa30 value="0.00398562402803281" flag="0"/>
		</comp>
		<comp name=".HNN" depth="0.0">
			<acc value="0.57494067410916" flag="0"/>
			<vel value="0.165311235227" flag="0"/>
			<psa03 value="0.824468700336559" flag="0"/>
			<psa10 value="0.0476206958873292" flag="0"/>
			<psa30 value="0.00254870238069308" flag="0"/>
		</comp>
		<comp name=".HNZ" depth="0.0">
			<acc value="0.56445820331616" flag="0"/>
			<vel value="0.117996822444" flag="0"/>
			<psa03 value="0.455432211814503" flag="0"/>
			<psa10 value="0.0265767749559025" flag="0"/>
			<psa30 value="0.00252248126866931" flag="0"/>
		</comp>
	</station>
	<station code="CHNB" name="CHNB" netid="HL" source="National Observatory of Athens Seismic Network" insttype="" lat="35.48765" lon="24.06605">
		<comp name="00.HNE" depth="0.0">
			<acc value="0.020222404707666" flag="0"/>
			<vel value="0.00939675109706" flag="0"/>
			<psa03 value="0.0531083619183676" flag="0"/>
			<psa10 value="0.015038845937244" flag="0"/>
			<psa30 value="0.000725602546775614" flag="0"/>
		</comp>
		<comp name="00.HNN" depth="0.0">
			<acc value="0.01965416408946" flag="0"/>
			<vel value="0.0104084418563" flag="0"/>
			<psa03 value="0.0464736828198719" flag="0"/>
			<psa10 value="0.0150039808150828" flag="0"/>
			<psa30 value="0.000568208057662386" flag="0"/>
		</comp>
		<comp name="00.HNZ" depth="0.0">
			<acc value="0.015953687370624" flag="0"/>
			<vel value="0.00556872822026" flag="0"/>
			<psa03 value="0.0347483097174772" flag="0"/>
			<psa10 value="0.00318903313279526" flag="0"/>
			<psa30 value="0.000256345393082757" flag="0"/>
		</comp>
	</station>
	<station code="IACM" name="IACM" netid="HL" source="National Observatory of Athens Seismic Network" insttype="" lat="35.3058" lon="25.0709">
		<comp name=".HNE" depth="0.0">
			<acc value="0.035084536530534" flag="0"/>
			<vel value="0.0185837207115" flag="0"/>
			<psa03 value="0.0892248482084361" flag="0"/>
			<psa10 value="0.0236947446605298" flag="0"/>
			<psa30 value="0.00116984520483465" flag="0"/>
		</comp>
		<comp name=".HNN" depth="0.0">
			<acc value="0.036508621819188" flag="0"/>
			<vel value="0.0178952164461" flag="0"/>
			<psa03 value="0.0972101376111343" flag="0"/>
			<psa10 value="0.0247310826878566" flag="0"/>
			<psa30 value="0.000989527426335081" flag="0"/>
		</comp>
		<comp name=".HNZ" depth="0.0">
			<acc value="0.03003879859233" flag="0"/>
			<vel value="0.0107937250587" flag="0"/>
			<psa03 value="0.0662040315256352" flag="0"/>
			<psa10 value="0.00830464295432964" flag="0"/>
			<psa30 value="0.000439882733822153" flag="0"/>
		</comp>
	</station>
	<station code="KARP" name="KARP" netid="HL" source="National Observatory of Athens Seismic Network" insttype="" lat="35.5471" lon="27.16106">
		<comp name=".HNE" depth="0.0">
			<acc value="5.9221748778054e-05" flag="0"/>
			<vel value="0.000110035416314" flag="0"/>
			<psa03 value="5.67557383456098e-05" flag="0"/>
			<psa10 value="6.08453087792151e-05" flag="0"/>
			<psa30 value="3.63817786038412e-05" flag="0"/>
		</comp>
		<comp name=".HNN" depth="0.0">
			<acc value="6.1983760990356e-05" flag="0"/>
			<vel value="0.000119523124219" flag="0"/>
			<psa03 value="6.06973650185778e-05" flag="0"/>
			<psa10 value="6.22908281217388e-05" flag="0"/>
			<psa30 value="3.49130159409494e-05" flag="0"/>
		</comp>
		<comp name=".HNZ" depth="0.0">
			<acc value="5.2275748875636e-05" flag="0"/>
			<vel value="9.59844466561e-05" flag="0"/>
			<psa03 value="4.43277910314666e-05" flag="0"/>
			<psa10 value="5.64242309925792e-05" flag="0"/>
			<psa30 value="3.22770861152171e-05" flag="0"/>
		</comp>
	</station>
	<station code="MILA" name="MILA" netid="HL" source="National Observatory of Athens Seismic Network" insttype="" lat="36.74288" lon="24.4282">
		<comp name="00.HNE" depth="0.0">
			<acc value="0.081695455040358" flag="0"/>
			<vel value="0.0446560921386" flag="0"/>
			<psa03 value="0.192835461902846" flag="0"/>
			<psa10 value="0.0196096309168202" flag="0"/>
			<psa30 value="0.00199822903953219" flag="0"/>
		</comp>
