<?xml version="1.0" encoding="UTF-8" standalone="yes"?>
<!DOCTYPE earthquake SYSTEM "stationlist.dtd">
<stationlist created="" xmlns="ch.ethz.sed.shakemap.usgs.xml">
  <station code="APE" name="APE" netid="GE" insttype="STS-2/N" lat="37.0727" lon="25.523">
    <comp name="--.HHZ">
      <acc value="0.0682911353" flag="0"/>
      <vel value="0.0163231312" flag="0"/>
      <psa03 value="0.0757776440" flag="0"/>
      <psa10 value="0.0087035957" flag="0"/>
      <psa30 value="0.0007015459" flag="0"/>
    </comp>
    <comp name="--.HHN">
      <acc value="0.1938416257" flag="0"/>
      <vel value="0.0452221884" flag="0"/>
      <psa03 value="0.1616520696" flag="0"/>
      <psa10 value="0.0086762367" flag="0"/>
      <psa30 value="0.0009466785" flag="0"/>
    </comp>
    <comp name="--.HHE">
      <acc value="0.1240782655" flag="0"/>
      <vel value="0.0284117988" flag="0"/>
      <psa03 value="0.1403872232" flag="0"/>
      <psa10 value="0.0092000292" flag="0"/>
      <psa30 value="0.0010292956" flag="0"/>
    </comp>
  </station>
  <station code="THERA" name="THERA" netid="GE" insttype="STS-2/N" lat="36.367" lon="25.4753">
    <comp name="--.HHE">
      <acc value="0.3159516242" flag="0"/>
      <vel value="0.0662872107" flag="0"/>
      <psa03 value="0.2159386385" flag="0"/>
      <psa10 value="0.0172528685" flag="0"/>
      <psa30 value="0.0014843901" flag="0"/>
    </comp>
    <comp name="--.HHN">
      <acc value="0.1943244913" flag="0"/>
      <vel value="0.0485399471" flag="0"/>
      <psa03 value="0.1579742574" flag="0"/>
      <psa10 value="0.0078251677" flag="0"/>
      <psa30 value="0.0007437107" flag="0"/>
    </comp>
    <comp name="--.HHZ">
      <acc value="0.2417380006" flag="0"/>
      <vel value="0.0499138202" flag="0"/>
      <psa03 value="0.1584839857" flag="0"/>
      <psa10 value="0.0084475804" flag="0"/>
      <psa30 value="0.0010638205" flag="0"/>
    </comp>
  </station>
  <station code="NAX1" name="NAX1" netid="HI" insttype="CMG-5TD,ACCELEROMETER,GURALP" lat="37.1014" lon="25.3741">
    <comp name="--.HNZ">
      <acc value="0.0985691086" flag="0"/>
      <vel value="0.0170791559" flag="0"/>
      <psa03 value="0.0715429437" flag="0"/>
      <psa10 value="0.0085088105" flag="0"/>
      <psa30 value="0.0008350477" flag="0"/>
    </comp>
    <comp name="--.HNN">
      <acc value="0.1161612860" flag="0"/>
      <vel value="0.0193845511" flag="0"/>
      <psa03 value="0.0704325917" flag="0"/>
      <psa10 value="0.0065217578" flag="0"/>
      <psa30 value="0.0005503749" flag="0"/>
    </comp>
    <comp name="--.HNE">
      <acc value="0.1271019723" flag="0"/>
      <vel value="0.0317939246" flag="0"/>
      <psa03 value="0.1277509543" flag="0"/>
      <psa10 value="0.0155513811" flag="0"/>
      <psa30 value="0.0009134296" flag="0"/>
    </comp>
  </station>
  <station code="APE" name="APE" netid="HL" insttype="120" lat="37.0727" lon="25.523">
    <comp name="--.HHE">
      <acc value="0.1091075935" flag="0"/>
      <vel value="0.0269616886" flag="0"/>
      <psa03 value="0.1370104447" flag="0"/>
      <psa10 value="0.0090574738" flag="0"/>
      <psa30 value="0.0010277947" flag="0"/>
    </comp>
    <comp name="--.HHZ">
      <acc value="0.0609059310" flag="0"/>
      <vel value="0.0156309090" flag="0"/>
      <psa03 value="0.0740185984" flag="0"/>
      <psa10 value="0.0085820458" flag="0"/>
      <psa30 value="0.0006986252" flag="0"/>
    </comp>
    <comp name="--.HHN">
      <acc value="0.1809524110" flag="0"/>
      <vel value="0.0428367406" flag="0"/>
      <psa03 value="0.1561117335" flag="0"/>
      <psa10 value="0.0084550750" flag="0"/>
      <psa30 value="0.0009241435" flag="0"/>
    </comp>
  </station>
  <station code="MHLO" name="MHLO" netid="HL" insttype="20" lat="36.6898" lon="24.4017">
    <comp name="--.HHE">
      <acc value="0.0675696800" flag="0"/>
      <vel value="0.0396135406" flag="0"/>
      <psa03 value="0.2420237618" flag="0"/>
      <psa10 value="0.0310587359" flag="0"/>
      <psa30 value="0.0019563317" flag="0"/>
    </comp>
    <comp name="--.HHN">
      <acc value="0.0593724230" flag="0"/>
      <vel value="0.0241690485" flag="0"/>
      <psa03 value="0.1249448638" flag="0"/>
      <psa10 value="0.0353294232" flag="0"/>
      <psa30 value="0.0016501034" flag="0"/>
    </comp>
    <comp name="--.HHZ">
      <acc value="0.0244352358" flag="0"/>
      <vel value="0.0146009878" flag="0"/>
      <psa03 value="0.0723831344" flag="0"/>
      <psa10 value="0.0185307734" flag="0"/>
      <psa30 value="0.0012775916" flag="0"/>
    </comp>
  </station>
  <station code="SAP3" name="SAP3" netid="HL" insttype="LE3D20_SMART24" lat="36.4356" lon="25.3454">
    <comp name="--.HHN">
      <acc value="0.3957206628" flag="0"/>
      <vel value="0.1129434313" flag="0"/>
      <psa03 value="0.6463582057" flag="0"/>
      <psa10 value="0.0815069397" flag="0"/>
      <psa30 value="0.0068297797" flag="0"/>
    </comp>
    <comp name="--.HHZ">
      <acc value="0.4523140591" flag="0"/>
      <vel value="0.1021442375" flag="0"/>
      <psa03 value="0.4994873959" flag="0"/>
      <psa10 value="0.0386084622" flag="0"/>
      <psa30 value="0.0030284961" flag="0"/>
    </comp>
    <comp name="--.HHE">
      <acc value="0.6745137204" flag="0"/>
      <vel value="0.1652969321" flag="0"/>
      <psa03 value="0.4491091588" flag="0"/>
      <psa10 value="0.1096806473" flag="0"/>
      <psa30 value="0.0078950006" flag="0"/>
    </comp>
  </station>
  <station code="THERA" name="THERA" netid="HL" insttype="120" lat="36.367" lon="25.4753">
    <comp name="--.HHN">
      <acc value="0.1923732292" flag="0"/>
      <vel value="0.0472150559" flag="0"/>
      <psa03 value="0.1532306595" flag="0"/>
      <psa10 value="0.0076982959" flag="0"/>
      <psa30 value="0.0007221476" flag="0"/>
    </comp>
    <comp name="--.HHE">
      <acc value="0.3150348272" flag="0"/>
      <vel value="0.0643059669" flag="0"/>
      <psa03 value="0.2094019790" flag="0"/>
      <psa10 value="0.0168993489" flag="0"/>
      <psa30 value="0.0014664615" flag="0"/>
    </comp>
    <comp name="--.HHZ">
      <acc value="0.2394762754" flag="0"/>
      <vel value="0.0485403677" flag="0"/>
      <psa03 value="0.1534401064" flag="0"/>
      <psa10 value="0.0083671317" flag="0"/>
      <psa30 value="0.0010449232" flag="0"/>
    </comp>
  </station>
  <station code="THRA" name="THRA" netid="HL" insttype="CMG-5" lat="36.415" lon="25.4324">
    <comp name="00.HNE">
      <acc value="0.5553277067" flag="0"/>
      <vel value="0.1468472754" flag="0"/>
      <psa03 value="1.0485763722" flag="0"/>
      <psa10 value="0.0809024249" flag="0"/>
      <psa30 value="0.0047352929" flag="0"/>
    </comp>
    <comp name="00.HNZ">
      <acc value="0.5683395003" flag="0"/>
      <vel value="0.1197055411" flag="0"/>
      <psa03 value="0.4608336194" flag="0"/>
      <psa10 value="0.0337009500" flag="0"/>
      <psa30 value="0.0022701152" flag="0"/>
    </comp>
    <comp name="00.HNN">
      <acc value="0.4412007513" flag="0"/>
      <vel value="0.1331804515" flag="0"/>
      <psa03 value="0.6996123374" flag="0"/>
      <psa10 value="0.0631888201" flag="0"/>
      <psa30 value="0.0040640619" flag="0"/>
    </comp>
  </station>
  <station code="TNSA" name="TNSA" netid="HL" insttype="CMG-5" lat="37.5394" lon="25.1631">
    <comp name="00.HNN">
      <acc value="0.0556565712" flag="0"/>
      <vel value="0.0193706351" flag="0"/>
      <psa03 value="0.1407552547" flag="0"/>
      <psa10 value="0.0059385168" flag="0"/>
      <psa30 value="0.0006395533" flag="0"/>
    </comp>
    <comp name="00.HNZ">
      <acc value="0.0408123969" flag="0"/>
      <vel value="0.0106272958" flag="0"/>
      <psa03 value="0.1088221583" flag="0"/>
      <psa10 value="0.0068308941" flag="0"/>
      <psa30 value="0.0006186761" flag="0"/>
    </comp>
    <comp name="00.HNE">
      <acc value="0.0493489222" flag="0"/>
      <vel value="0.0165153710" flag="0"/>
      <psa03 value="0.1564814280" flag="0"/>
      <psa10 value="0.0033205839" flag="0"/>
      <psa30 value="0.0005699022" flag="0"/>
    </comp>
  </station>
  <station code="CMBO" name="CMBO" netid="HT" insttype="120P," lat="36.4709" lon="25.4056">
    <comp name="--.HHN">
      <acc value="0.8400559346" flag="0"/>
      <vel value="0.2088382811" flag="0"/>
      <psa03 value="0.6160723191" flag="0"/>
      <psa10 value="0.1011835916" flag="0"/>
      <psa30 value="0.0062932206" flag="0"/>
    </comp>
    <comp name="--.HHE">
      <acc value="0.6495202146" flag="0"/>
      <vel value="0.1751160170" flag="0"/>
      <psa03 value="0.6700967866" flag="0"/>
      <psa10 value="0.0947818777" flag="0"/>
      <psa30 value="0.0059160840" flag="0"/>
    </comp>
    <comp name="--.HHZ">
      <acc value="0.6657617259" flag="0"/>
      <vel value="0.1518016982" flag="0"/>
      <psa03 value="0.8613533199" flag="0"/>
      <psa10 value="0.0299427175" flag="0"/>
      <psa30 value="0.0044363335" flag="0"/>
    </comp>
  </station>
</stationlist>
