<?xml version="1.0" encoding="UTF-8" standalone="yes"?>
<!DOCTYPE earthquake SYSTEM "stationlist.dtd">
<stationlist created="" xmlns="ch.ethz.sed.shakemap.usgs.xml">
  <station code="APE" name="APE" netid="GE" insttype="STS-2/N" lat="37.0727" lon="25.523">
    <comp name="--.HHE">
      <acc value="0.1240782655" flag="0"/>
      <vel value="0.0284117946" flag="0"/>
      <psa03 value="0.1403872232" flag="0"/>
      <psa10 value="0.0092000271" flag="0"/>
      <psa30 value="0.0010292514" flag="0"/>
    </comp>
    <comp name="--.HHN">
      <acc value="0.1938416261" flag="0"/>
      <vel value="0.0452221866" flag="0"/>
      <psa03 value="0.1616520696" flag="0"/>
      <psa10 value="0.0086762373" flag="0"/>
      <psa30 value="0.0009466737" flag="0"/>
    </comp>
    <comp name="--.HHZ">
      <acc value="0.0682911352" flag="0"/>
      <vel value="0.0163231298" flag="0"/>
      <psa03 value="0.0757776440" flag="0"/>
      <psa10 value="0.0087035926" flag="0"/>
      <psa30 value="0.0007016084" flag="0"/>
    </comp>
  </station>
  <station code="THERA" name="THERA" netid="GE" insttype="STS-2/N" lat="36.367" lon="25.4753">
    <comp name="--.HHE">
      <acc value="0.3159516246" flag="0"/>
      <vel value="0.0662872119" flag="0"/>
      <psa03 value="0.2159386385" flag="0"/>
      <psa10 value="0.0172528557" flag="0"/>
      <psa30 value="0.0014846611" flag="0"/>
    </comp>
    <comp name="--.HHN">
      <acc value="0.1943244915" flag="0"/>
      <vel value="0.0485399479" flag="0"/>
      <psa03 value="0.1579742574" flag="0"/>
      <psa10 value="0.0078251630" flag="0"/>
      <psa30 value="0.0007439838" flag="0"/>
    </comp>
    <comp name="--.HHZ">
      <acc value="0.2417380006" flag="0"/>
      <vel value="0.0499138236" flag="0"/>
      <psa03 value="0.1584839857" flag="0"/>
      <psa10 value="0.0084475856" flag="0"/>
      <psa30 value="0.0010642766" flag="0"/>
    </comp>
  </station>
  <station code="NAX1" name="NAX1" netid="HI" insttype="CMG-5TD,ACCELEROMETER,GURALP" lat="37.1014" lon="25.3741">
    <comp name="--.HNE">
      <acc value="0.1271019719" flag="0"/>
      <vel value="0.0317939246" flag="0"/>
      <psa03 value="0.1277509543" flag="0"/>
      <psa10 value="0.0155513784" flag="0"/>
      <psa30 value="0.0009135909" flag="0"/>
    </comp>
    <comp name="--.HNZ">
      <acc value="0.0985691099" flag="0"/>
      <vel value="0.0170791569" flag="0"/>
      <psa03 value="0.0715429437" flag="0"/>
      <psa10 value="0.0085088118" flag="0"/>
      <psa30 value="0.0008353076" flag="0"/>
    </comp>
    <comp name="--.HNN">
      <acc value="0.1161612843" flag="0"/>
      <vel value="0.0193845505" flag="0"/>
      <psa03 value="0.0704325917" flag="0"/>
      <psa10 value="0.0065217574" flag="0"/>
      <psa30 value="0.0005502828" flag="0"/>
    </comp>
  </station>
  <station code="APE" name="APE" netid="HL" insttype="120" lat="37.0727" lon="25.523">
    <comp name="--.HHE">
      <acc value="0.1091075935" flag="0"/>
      <vel value="0.0269616844" flag="0"/>
      <psa03 value="0.1370104447" flag="0"/>
      <psa10 value="0.0090574718" flag="0"/>
      <psa30 value="0.0010277512" flag="0"/>
    </comp>
    <comp name="--.HHN">
      <acc value="0.1809524113" flag="0"/>
      <vel value="0.0428367388" flag="0"/>
      <psa03 value="0.1561117335" flag="0"/>
      <psa10 value="0.0084550755" flag="0"/>
      <psa30 value="0.0009241371" flag="0"/>
    </comp>
    <comp name="--.HHZ">
      <acc value="0.0609059310" flag="0"/>
      <vel value="0.0156309077" flag="0"/>
      <psa03 value="0.0740185984" flag="0"/>
      <psa10 value="0.0085820427" flag="0"/>
      <psa30 value="0.0006986883" flag="0"/>
    </comp>
  </station>
  <station code="MHLO" name="MHLO" netid="HL" insttype="20" lat="36.6898" lon="24.4017">
    <comp name="--.HHE">
      <acc value="0.0675696804" flag="0"/>
      <vel value="0.0396134963" flag="0"/>
      <psa03 value="0.2420237618" flag="0"/>
      <psa10 value="0.0310587360" flag="0"/>
      <psa30 value="0.0019561888" flag="0"/>
    </comp>
    <comp name="--.HHN">
      <acc value="0.0593724231" flag="0"/>
      <vel value="0.0241690766" flag="0"/>
      <psa03 value="0.1249448638" flag="0"/>
      <psa10 value="0.0353294228" flag="0"/>
      <psa30 value="0.0016501283" flag="0"/>
    </comp>
    <comp name="--.HHZ">
      <acc value="0.0244352356" flag="0"/>
      <vel value="0.0146009940" flag="0"/>
      <psa03 value="0.0723831344" flag="0"/>
      <psa10 value="0.0185307731" flag="0"/>
      <psa30 value="0.0012775522" flag="0"/>
    </comp>
  </station>
  <station code="SAP3" name="SAP3" netid="HL" insttype="LE3D20_SMART24" lat="36.4356" lon="25.3454">
    <comp name="--.HHE">
      <acc value="0.6745137199" flag="0"/>
      <vel value="0.1652970543" flag="0"/>
      <psa03 value="0.4491091591" flag="0"/>
      <psa10 value="0.1096806473" flag="0"/>
      <psa30 value="0.0078908568" flag="0"/>
    </comp>
    <comp name="--.HHN">
      <acc value="0.3957206627" flag="0"/>
      <vel value="0.1129435064" flag="0"/>
      <psa03 value="0.6463582055" flag="0"/>
      <psa10 value="0.0815069343" flag="0"/>
      <psa30 value="0.0068439338" flag="0"/>
    </comp>
    <comp name="--.HHZ">
      <acc value="0.4523140589" flag="0"/>
      <vel value="0.1021442315" flag="0"/>
      <psa03 value="0.4994873959" flag="0"/>
      <psa10 value="0.0386084628" flag="0"/>
      <psa30 value="0.0030286274" flag="0"/>
    </comp>
  </station>
  <station code="THERA" name="THERA" netid="HL" insttype="120" lat="36.367" lon="25.4753">
    <comp name="--.HHE">
      <acc value="0.3150348278" flag="0"/>
      <vel value="0.0643059680" flag="0"/>
      <psa03 value="0.2094019790" flag="0"/>
      <psa10 value="0.0168993364" flag="0"/>
      <psa30 value="0.0014667328" flag="0"/>
    </comp>
    <comp name="--.HHN">
      <acc value="0.1923732294" flag="0"/>
      <vel value="0.0472150567" flag="0"/>
      <psa03 value="0.1532306595" flag="0"/>
      <psa10 value="0.0076982912" flag="0"/>
      <psa30 value="0.0007224199" flag="0"/>
    </comp>
    <comp name="--.HHZ">
      <acc value="0.2394762754" flag="0"/>
      <vel value="0.0485403711" flag="0"/>
      <psa03 value="0.1534401064" flag="0"/>
      <psa10 value="0.0083671368" flag="0"/>
      <psa30 value="0.0010453798" flag="0"/>
    </comp>
  </station>
  <station code="THRA" name="THRA" netid="HL" insttype="CMG-5" lat="36.415" lon="25.4324">
    <comp name="00.HNN">
      <acc value="0.4412007510" flag="0"/>
      <vel value="0.1331804620" flag="0"/>
      <psa03 value="0.6996123374" flag="0"/>
      <psa10 value="0.0631888225" flag="0"/>
      <psa30 value="0.0040641857" flag="0"/>
    </comp>
    <comp name="00.HNZ">
      <acc value="0.5683395039" flag="0"/>
      <vel value="0.1197055407" flag="0"/>
      <psa03 value="0.4608336194" flag="0"/>
      <psa10 value="0.0337009584" flag="0"/>
      <psa30 value="0.0022707740" flag="0"/>
    </comp>
    <comp name="00.HNE">
      <acc value="0.5553277100" flag="0"/>
      <vel value="0.1468472881" flag="0"/>
      <psa03 value="1.0485763722" flag="0"/>
      <psa10 value="0.0809024188" flag="0"/>
      <psa30 value="0.0047347117" flag="0"/>
    </comp>
  </station>
  <station code="TNSA" name="TNSA" netid="HL" insttype="CMG-5" lat="37.5394" lon="25.1631">
    <comp name="00.HNE">
      <acc value="0.0493489230" flag="0"/>
      <vel value="0.0165153702" flag="0"/>
      <psa03 value="0.1564814280" flag="0"/>
      <psa10 value="0.0033205832" flag="0"/>
      <psa30 value="0.0005697849" flag="0"/>
    </comp>
    <comp name="00.HNN">
      <acc value="0.0556565731" flag="0"/>
      <vel value="0.0193706363" flag="0"/>
      <psa03 value="0.1407552547" flag="0"/>
      <psa10 value="0.0059385157" flag="0"/>
      <psa30 value="0.0006393996" flag="0"/>
    </comp>
    <comp name="00.HNZ">
      <acc value="0.0408123977" flag="0"/>
      <vel value="0.0106272982" flag="0"/>
      <psa03 value="0.1088221583" flag="0"/>
      <psa10 value="0.0068308936" flag="0"/>
      <psa30 value="0.0006193199" flag="0"/>
    </comp>
  </station>
  <station code="CMBO" name="CMBO" netid="HT" insttype="120P," lat="36.4709" lon="25.4056">
    <comp name="--.HHE">
      <acc value="0.6495202144" flag="0"/>
      <vel value="0.1751160113" flag="0"/>
      <psa03 value="0.6700967866" flag="0"/>
      <psa10 value="0.0947818760" flag="0"/>
      <psa30 value="0.0059158548" flag="0"/>
    </comp>
    <comp name="--.HHN">
      <acc value="0.8400559345" flag="0"/>
      <vel value="0.2088382865" flag="0"/>
      <psa03 value="0.6160723190" flag="0"/>
      <psa10 value="0.1011837179" flag="0"/>
      <psa30 value="0.0062969499" flag="0"/>
    </comp>
    <comp name="--.HHZ">
      <acc value="0.6657617261" flag="0"/>
      <vel value="0.1518017040" flag="0"/>
      <psa03 value="0.8613533199" flag="0"/>
      <psa10 value="0.0299427368" flag="0"/>
      <psa30 value="0.0044354377" flag="0"/>
    </comp>
  </station>
</stationlist>
