<?xml version="1.0" encoding="UTF-8" standalone="yes"?>
<!DOCTYPE earthquake SYSTEM "stationlist.dtd">
<stationlist created="" xmlns="ch.ethz.sed.shakemap.usgs.xml">
  <station code="APE" name="APE" netid="GE" insttype="STS-2/N" lat="37.0727" lon="25.523">
    <comp name="--.HHE">
      <acc value="0.1240782655" flag="0"/>
      <vel value="0.0284117978" flag="0"/>
      <psa03 value="0.1403872232" flag="0"/>
      <psa10 value="0.0092000291" flag="0"/>
      <psa30 value="0.0010292654" flag="0"/>
    </comp>
    <comp name="--.HHN">
      <acc value="0.1938416258" flag="0"/>
      <vel value="0.0452221862" flag="0"/>
      <psa03 value="0.1616520696" flag="0"/>
      <psa10 value="0.0086762371" flag="0"/>
      <psa30 value="0.0009467203" flag="0"/>
    </comp>
    <comp name="--.HHZ">
      <acc value="0.0682911353" flag="0"/>
      <vel value="0.0163231299" flag="0"/>
      <psa03 value="0.0757776440" flag="0"/>
      <psa10 value="0.0087035948" flag="0"/>
      <psa30 value="0.0007015418" flag="0"/>
    </comp>
  </station>
  <station code="THERA" name="THERA" netid="GE" insttype="STS-2/N" lat="36.367" lon="25.4753">
    <comp name="--.HHE">
      <acc value="0.3159516242" flag="0"/>
      <vel value="0.0662872112" flag="0"/>
      <psa03 value="0.2159386385" flag="0"/>
      <psa10 value="0.0172528652" flag="0"/>
      <psa30 value="0.0014844006" flag="0"/>
    </comp>
    <comp name="--.HHN">
      <acc value="0.1943244914" flag="0"/>
      <vel value="0.0485399490" flag="0"/>
      <psa03 value="0.1579742574" flag="0"/>
      <psa10 value="0.0078251678" flag="0"/>
      <psa30 value="0.0007436617" flag="0"/>
    </comp>
    <comp name="--.HHZ">
      <acc value="0.2417380006" flag="0"/>
      <vel value="0.0499138226" flag="0"/>
      <psa03 value="0.1584839857" flag="0"/>
      <psa10 value="0.0084475815" flag="0"/>
      <psa30 value="0.0010638955" flag="0"/>
    </comp>
  </station>
</stationlist>
