<?xml version="1.0" encoding="UTF-8" standalone="yes"?>
<!DOCTYPE earthquake SYSTEM "stationlist.dtd">
<stationlist created="" xmlns="ch.ethz.sed.shakemap.usgs.xml">
  <station code="PHP" name="PHP" netid="AC" insttype="" lat="41.6847" lon="20.4408">
    <comp name="--.HHZ">
      <acc value="0.2415948549" flag="0"/>
      <vel value="0.0247894638" flag="0"/>
      <psa03 value="0.0850023627" flag="0"/>
      <psa10 value="0.0208726926" flag="0"/>
      <psa30 value="0.0019952636" flag="0"/>
    </comp>
    <comp name="--.HHE">
      <acc value="0.4401755788" flag="0"/>
      <vel value="0.0457130989" flag="0"/>
      <psa03 value="0.1528200859" flag="0"/>
      <psa10 value="0.0374664704" flag="0"/>
      <psa30 value="0.0036641082" flag="0"/>
    </comp>
    <comp name="--.HHN">
      <acc value="0.2335628118" flag="0"/>
      <vel value="0.0483266312" flag="0"/>
      <psa03 value="0.1706994731" flag="0"/>
      <psa10 value="0.0145932831" flag="0"/>
      <psa30 value="0.0023184228" flag="0"/>
    </comp>
  </station>
  <station code="LMS2" name="LMS2" netid="HI" insttype="CMG-5TD,ACCELEROMETER,GURALP" lat="40.835" lon="21.1418">
    <comp name="--.HNN">
      <acc value="0.0148191070" flag="0"/>
      <vel value="0.0043184536" flag="0"/>
      <psa03 value="0.0242983860" flag="0"/>
      <psa10 value="0.0023855690" flag="0"/>
      <psa30 value="0.0005771765" flag="0"/>
    </comp>
    <comp name="--.HNE">
      <acc value="0.0123187446" flag="0"/>
      <vel value="0.0055892232" flag="0"/>
      <psa03 value="0.0295759853" flag="0"/>
      <psa10 value="0.0043576899" flag="0"/>
      <psa30 value="0.0005729036" flag="0"/>
    </comp>
    <comp name="--.HNZ">
      <acc value="0.0048497703" flag="0"/>
      <vel value="0.0022480130" flag="0"/>
      <psa03 value="0.0061494083" flag="0"/>
      <psa10 value="0.0023998807" flag="0"/>
      <psa30 value="0.0007288492" flag="0"/>
    </comp>
  </station>
  <station code="TIR" name="TIR" netid="MN" insttype="" lat="41.3472" lon="19.8631">
    <comp name="--.HHE">
      <acc value="0.0145922261" flag="0"/>
      <vel value="0.0062318251" flag="0"/>
      <psa03 value="0.0286823126" flag="0"/>
      <psa10 value="0.0081919841" flag="0"/>
      <psa30 value="0.0006242200" flag="0"/>
    </comp>
    <comp name="--.HHZ">
      <acc value="0.0114575601" flag="0"/>
      <vel value="0.0046791289" flag="0"/>
      <psa03 value="0.0230665162" flag="0"/>
      <psa10 value="0.0046608367" flag="0"/>
      <psa30 value="0.0006394996" flag="0"/>
    </comp>
    <comp name="--.HHN">
      <acc value="0.0142342080" flag="0"/>
      <vel value="0.0059741605" flag="0"/>
      <psa03 value="0.0284648234" flag="0"/>
      <psa10 value="0.0058987623" flag="0"/>
      <psa30 value="0.0006682291" flag="0"/>
    </comp>
  </station>
</stationlist>
