<?xml version="1.0" encoding="UTF-8" standalone="yes"?>
<!DOCTYPE earthquake SYSTEM "stationlist.dtd">
<stationlist created="" xmlns="ch.ethz.sed.shakemap.usgs.xml">
  <station code="KEK" name="KEK" netid="MN" insttype="" commtype="DIG" lat="39.7127" lon="19.7962">
    <comp name="--.HHN">
      <acc value="0.0215241841" flag="0"/>
      <vel value="0.0203374972" flag="0"/>
      <psa03 value="0.0456166621" flag="0"/>
      <psa10 value="0.0134628582" flag="0"/>
      <psa30 value="0.0039623806" flag="0"/>
    </comp>
  </station>
  <station code="THL" name="THL" netid="MN" insttype="" commtype="DIG" lat="39.5647" lon="22.0144">
    <comp name="--.HHE">
      <acc value="0.0022668456" flag="0"/>
      <vel value="0.0020987736" flag="0"/>
      <psa03 value="0.0077713353" flag="0"/>
      <psa10 value="0.0015310758" flag="0"/>
      <psa30 value="0.0002588444" flag="0"/>
    </comp>
    <comp name="--.HHZ">
      <acc value="0.0013663081" flag="0"/>
      <vel value="0.0011558694" flag="0"/>
      <psa03 value="0.0031047880" flag="0"/>
      <psa10 value="0.0015542670" flag="0"/>
      <psa30 value="0.0001996814" flag="0"/>
    </comp>
    <comp name="--.HHN">
      <acc value="0.0025645196" flag="0"/>
      <vel value="0.0022152603" flag="0"/>
      <psa03 value="0.0056520071" flag="0"/>
      <psa10 value="0.0034250402" flag="0"/>
      <psa30 value="0.0004927420" flag="0"/>
    </comp>
  </station>
</stationlist>
