<?xml version="1.0" encoding="UTF-8" standalone="yes"?>
<!DOCTYPE earthquake SYSTEM "stationlist.dtd">
<stationlist created="" xmlns="ch.ethz.sed.shakemap.usgs.xml">
  <station code="TETR" name="TETR" netid="HL" insttype="60" lat="39.3445" lon="21.2747">
    <comp name="--.HHE">
      <acc value="0.0396337759" flag="0"/>
      <vel value="0.0150704709" flag="0"/>
      <psa03 value="0.1150772513" flag="0"/>
      <psa10 value="0.0087881444" flag="0"/>
      <psa30 value="0.0005028317" flag="0"/>
    </comp>
    <comp name="--.HHZ">
      <acc value="0.0133997978" flag="0"/>
      <vel value="0.0052917516" flag="0"/>
      <psa03 value="0.0265400843" flag="0"/>
      <psa10 value="0.0032246163" flag="0"/>
      <psa30 value="0.0001914438" flag="0"/>
    </comp>
    <comp name="--.HHN">
      <acc value="0.0277552489" flag="0"/>
      <vel value="0.0105087977" flag="0"/>
      <psa03 value="0.0793750515" flag="0"/>
      <psa10 value="0.0058582281" flag="0"/>
      <psa30 value="0.0003306913" flag="0"/>
    </comp>
  </station>
  <station code="THL" name="THL" netid="HL" insttype="120" lat="39.5647" lon="22.0144">
    <comp name="--.HHN">
      <acc value="0.1548661390" flag="0"/>
      <vel value="0.0355133282" flag="0"/>
      <psa03 value="0.0916792683" flag="0"/>
      <psa10 value="0.0112317692" flag="0"/>
      <psa30 value="0.0008353043" flag="0"/>
    </comp>
    <comp name="--.HHE">
      <acc value="0.1309643940" flag="0"/>
      <vel value="0.0293726143" flag="0"/>
      <psa03 value="0.0862984264" flag="0"/>
      <psa10 value="0.0099738701" flag="0"/>
      <psa30 value="0.0005832989" flag="0"/>
    </comp>
    <comp name="--.HHZ">
      <acc value="0.1084164544" flag="0"/>
      <vel value="0.0185503186" flag="0"/>
      <psa03 value="0.0503951059" flag="0"/>
      <psa10 value="0.0127927709" flag="0"/>
      <psa30 value="0.0009090889" flag="0"/>
    </comp>
  </station>
  <station code="LIT" name="LIT" netid="HT" insttype="100" lat="40.1033" lon="22.4892">
    <comp name="--.HHE">
      <acc value="0.0232199275" flag="0"/>
      <vel value="0.0086433014" flag="0"/>
      <psa03 value="0.0643261698" flag="0"/>
      <psa10 value="0.0064310824" flag="0"/>
      <psa30 value="0.0003290354" flag="0"/>
    </comp>
    <comp name="--.HHN">
      <acc value="0.0278139991" flag="0"/>
      <vel value="0.0106583760" flag="0"/>
      <psa03 value="0.0537582152" flag="0"/>
      <psa10 value="0.0045842460" flag="0"/>
      <psa30 value="0.0004174053" flag="0"/>
    </comp>
    <comp name="--.HHZ">
      <acc value="0.0139273267" flag="0"/>
      <vel value="0.0057650563" flag="0"/>
      <psa03 value="0.0368283678" flag="0"/>
      <psa10 value="0.0049065221" flag="0"/>
      <psa30 value="0.0003322985" flag="0"/>
    </comp>
  </station>
  <station code="TYRN" name="TYRN" netid="HT" insttype="120P," lat="39.711" lon="22.2325">
    <comp name="--.HHN">
      <acc value="0.0958835409" flag="0"/>
      <vel value="0.0248369512" flag="0"/>
      <psa03 value="0.1124785648" flag="0"/>
      <psa10 value="0.0137186814" flag="0"/>
      <psa30 value="0.0010648597" flag="0"/>
    </comp>
    <comp name="--.HHE">
      <acc value="0.1145296227" flag="0"/>
      <vel value="0.0372378179" flag="0"/>
      <psa03 value="0.2360017575" flag="0"/>
      <psa10 value="0.0261738052" flag="0"/>
      <psa30 value="0.0017467109" flag="0"/>
    </comp>
    <comp name="--.HHZ">
      <acc value="0.0920784115" flag="0"/>
      <vel value="0.0379541327" flag="0"/>
      <psa03 value="0.1582565966" flag="0"/>
      <psa10 value="0.0227892934" flag="0"/>
      <psa30 value="0.0016268842" flag="0"/>
    </comp>
  </station>
  <station code="THL" name="THL" netid="MN" insttype="" lat="39.5647" lon="22.0144">
    <comp name="--.HHE">
      <acc value="0.1309643940" flag="0"/>
      <vel value="0.0293726143" flag="0"/>
      <psa03 value="0.0862984264" flag="0"/>
      <psa10 value="0.0099738701" flag="0"/>
      <psa30 value="0.0005832989" flag="0"/>
    </comp>
    <comp name="--.HHZ">
      <acc value="0.1084164544" flag="0"/>
      <vel value="0.0185503186" flag="0"/>
      <psa03 value="0.0503951059" flag="0"/>
      <psa10 value="0.0127927709" flag="0"/>
      <psa30 value="0.0009090889" flag="0"/>
    </comp>
    <comp name="--.HHN">
      <acc value="0.1548661390" flag="0"/>
      <vel value="0.0355133282" flag="0"/>
      <psa03 value="0.0916792683" flag="0"/>
      <psa10 value="0.0112317692" flag="0"/>
      <psa30 value="0.0008353043" flag="0"/>
    </comp>
  </station>
</stationlist>
