<?xml version="1.0" encoding="UTF-8" standalone="yes"?>
<!DOCTYPE earthquake SYSTEM "stationlist.dtd">
<stationlist created="" xmlns="ch.ethz.sed.shakemap.usgs.xml">
  <station code="DYBB" name="DYBB" netid="KO" insttype="CMG-3T" lat="37.9532" lon="40.1393">
    <comp name="--.HHZ">
      <acc value="0.0049991129" flag="0"/>
      <vel value="0.0064867589" flag="0"/>
      <psa03 value="0.0108149408" flag="0"/>
      <psa10 value="0.0103475616" flag="0"/>
      <psa30 value="0.0023635265" flag="0"/>
    </comp>
    <comp name="--.HHE">
      <acc value="0.0065952065" flag="0"/>
      <vel value="0.0073544254" flag="0"/>
      <psa03 value="0.0167627768" flag="0"/>
      <psa10 value="0.0079154581" flag="0"/>
      <psa30 value="0.0048719974" flag="0"/>
    </comp>
    <comp name="--.HHN">
      <acc value="0.0085611708" flag="0"/>
      <vel value="0.0177123139" flag="0"/>
      <psa03 value="0.0223714938" flag="0"/>
      <psa10 value="0.0105783796" flag="0"/>
      <psa30 value="0.0103814409" flag="0"/>
    </comp>
  </station>
  <station code="MAZI" name="MAZI" netid="KO" insttype="CMG-3T" lat="37.4593" lon="40.4465">
    <comp name="--.HHN">
      <acc value="0.0142398106" flag="0"/>
      <vel value="0.0070933600" flag="0"/>
      <psa03 value="0.0450809959" flag="0"/>
      <psa10 value="0.0073341107" flag="0"/>
      <psa30 value="0.0016819399" flag="0"/>
    </comp>
    <comp name="--.HHZ">
      <acc value="0.0116771414" flag="0"/>
      <vel value="0.0041439989" flag="0"/>
      <psa03 value="0.0272301800" flag="0"/>
      <psa10 value="0.0035464301" flag="0"/>
      <psa30 value="0.0005274776" flag="0"/>
    </comp>
    <comp name="--.HHE">
      <acc value="0.0139781807" flag="0"/>
      <vel value="0.0052028158" flag="0"/>
      <psa03 value="0.0343492323" flag="0"/>
      <psa10 value="0.0082285356" flag="0"/>
      <psa30 value="0.0009633082" flag="0"/>
    </comp>
  </station>
  <station code="SVRC" name="SVRC" netid="KO" insttype="CMG-3T" lat="38.3775" lon="39.306">
    <comp name="--.HHZ">
      <acc value="0.3450018804" flag="0"/>
      <vel value="0.0978573105" flag="0"/>
      <psa03 value="0.5263083385" flag="0"/>
      <psa10 value="0.0907726730" flag="0"/>
      <psa30 value="0.0065348849" flag="0"/>
    </comp>
  </station>
</stationlist>
