<?xml version="1.0" encoding="UTF-8" standalone="yes"?>
<!DOCTYPE earthquake SYSTEM "stationlist.dtd">
<stationlist created="" xmlns="ch.ethz.sed.shakemap.usgs.xml">
  <station code="DYBB" name="DYBB" netid="KO" insttype="CMG-3T" lat="37.9532" lon="40.1393">
    <comp name="--.HHE">
      <acc value="0.0065952066" flag="0"/>
      <vel value="0.0073544256" flag="0"/>
      <psa03 value="0.0167627768" flag="0"/>
      <psa10 value="0.0079154581" flag="0"/>
      <psa30 value="0.0048720079" flag="0"/>
    </comp>
    <comp name="--.HHN">
      <acc value="0.0085611709" flag="0"/>
      <vel value="0.0177123142" flag="0"/>
      <psa03 value="0.0223714938" flag="0"/>
      <psa10 value="0.0105783796" flag="0"/>
      <psa30 value="0.0103814372" flag="0"/>
    </comp>
    <comp name="--.HHZ">
      <acc value="0.0049991126" flag="0"/>
      <vel value="0.0064867589" flag="0"/>
      <psa03 value="0.0108149408" flag="0"/>
      <psa10 value="0.0103475616" flag="0"/>
      <psa30 value="0.0023635184" flag="0"/>
    </comp>
  </station>
  <station code="MAZI" name="MAZI" netid="KO" insttype="CMG-3T" lat="37.4593" lon="40.4465">
    <comp name="--.HHN">
      <acc value="0.0142398106" flag="0"/>
      <vel value="0.0070933596" flag="0"/>
      <psa03 value="0.0450809959" flag="0"/>
      <psa10 value="0.0073341107" flag="0"/>
      <psa30 value="0.0016819389" flag="0"/>
    </comp>
    <comp name="--.HHE">
      <acc value="0.0139781810" flag="0"/>
      <vel value="0.0052028155" flag="0"/>
      <psa03 value="0.0343492323" flag="0"/>
      <psa10 value="0.0082285356" flag="0"/>
      <psa30 value="0.0009628293" flag="0"/>
    </comp>
    <comp name="--.HHZ">
      <acc value="0.0116771414" flag="0"/>
      <vel value="0.0041439995" flag="0"/>
      <psa03 value="0.0272301800" flag="0"/>
      <psa10 value="0.0035464304" flag="0"/>
      <psa30 value="0.0005274904" flag="0"/>
    </comp>
  </station>
  <station code="SVRC" name="SVRC" netid="KO" insttype="CMG-3T" lat="38.3775" lon="39.306">
    <comp name="--.HHZ">
      <acc value="0.3450018808" flag="0"/>
      <vel value="0.0978573059" flag="0"/>
      <psa03 value="0.5263083385" flag="0"/>
      <psa10 value="0.0907726743" flag="0"/>
      <psa30 value="0.0065348746" flag="0"/>
    </comp>
  </station>
</stationlist>
