<?xml version="1.0" encoding="UTF-8" standalone="yes"?>
<!DOCTYPE earthquake SYSTEM "stationlist.dtd">
<stationlist created="" xmlns="ch.ethz.sed.shakemap.usgs.xml">
  <station code="VOL2" name="VOL2" netid="HI" insttype="CMG-5TD,ACCELEROMETER,GURALP" lat="39.366" lon="22.9506">
    <comp name="--.HNN">
      <acc value="0.0465634171" flag="0"/>
      <vel value="0.0267906778" flag="0"/>
      <psa03 value="0.1372647787" flag="0"/>
      <psa10 value="0.0194431974" flag="0"/>
      <psa30 value="0.0012927972" flag="0"/>
    </comp>
    <comp name="--.HNZ">
      <acc value="0.0278480001" flag="0"/>
      <vel value="0.0081506121" flag="0"/>
      <psa03 value="0.0367273518" flag="0"/>
      <psa10 value="0.0058235910" flag="0"/>
      <psa30 value="0.0007029869" flag="0"/>
    </comp>
    <comp name="--.HNE">
      <acc value="0.0502345152" flag="0"/>
      <vel value="0.0241006189" flag="0"/>
      <psa03 value="0.1231053140" flag="0"/>
      <psa10 value="0.0142788082" flag="0"/>
      <psa30 value="0.0014360205" flag="0"/>
    </comp>
  </station>
  <station code="KZN" name="KZN" netid="HL" insttype="120" lat="40.3033" lon="21.7821">
    <comp name="--.HHZ">
      <acc value="0.0274268913" flag="0"/>
      <vel value="0.0119409330" flag="0"/>
      <psa03 value="0.0845586145" flag="0"/>
      <psa10 value="0.0088693878" flag="0"/>
      <psa30 value="0.0009849541" flag="0"/>
    </comp>
    <comp name="--.HHE">
      <acc value="0.0606456941" flag="0"/>
      <vel value="0.0316101188" flag="0"/>
      <psa03 value="0.1977298320" flag="0"/>
      <psa10 value="0.0164787767" flag="0"/>
      <psa30 value="0.0012963533" flag="0"/>
    </comp>
    <comp name="--.HHN">
      <acc value="0.0680499154" flag="0"/>
      <vel value="0.0323992557" flag="0"/>
      <psa03 value="0.2111668296" flag="0"/>
      <psa10 value="0.0136488164" flag="0"/>
      <psa30 value="0.0009741677" flag="0"/>
    </comp>
  </station>
  <station code="THL" name="THL" netid="HL" insttype="120" lat="39.5647" lon="22.0144">
    <comp name="--.HHE">
      <acc value="0.3204639235" flag="0"/>
      <vel value="0.0663331026" flag="0"/>
      <psa03 value="0.2389178121" flag="0"/>
      <psa10 value="0.0319367325" flag="0"/>
      <psa30 value="0.0025089096" flag="0"/>
    </comp>
    <comp name="--.HHN">
      <acc value="0.2336255510" flag="0"/>
      <vel value="0.0579715134" flag="0"/>
      <psa03 value="0.2036381710" flag="0"/>
      <psa10 value="0.0281042984" flag="0"/>
      <psa30 value="0.0035921364" flag="0"/>
    </comp>
    <comp name="--.HHZ">
      <acc value="0.2870256787" flag="0"/>
      <vel value="0.0719093928" flag="0"/>
      <psa03 value="0.1245967773" flag="0"/>
      <psa10 value="0.0502003416" flag="0"/>
      <psa30 value="0.0034703692" flag="0"/>
    </comp>
  </station>
  <station code="LIT" name="LIT" netid="HT" insttype="100" lat="40.1033" lon="22.4892">
    <comp name="--.HHE">
      <acc value="0.0794050779" flag="0"/>
      <vel value="0.0293515482" flag="0"/>
      <psa03 value="0.1588017051" flag="0"/>
      <psa10 value="0.0203730383" flag="0"/>
      <psa30 value="0.0016302516" flag="0"/>
    </comp>
    <comp name="--.HHZ">
      <acc value="0.0485249795" flag="0"/>
      <vel value="0.0247599102" flag="0"/>
      <psa03 value="0.0838100145" flag="0"/>
      <psa10 value="0.0161636191" flag="0"/>
      <psa30 value="0.0010677505" flag="0"/>
    </comp>
    <comp name="--.HHN">
      <acc value="0.1029669937" flag="0"/>
      <vel value="0.0456994716" flag="0"/>
      <psa03 value="0.2119608517" flag="0"/>
      <psa10 value="0.0309200210" flag="0"/>
      <psa30 value="0.0027209623" flag="0"/>
    </comp>
  </station>
  <station code="TYRN" name="TYRN" netid="HT" insttype="120P," lat="39.711" lon="22.2325">
    <comp name="--.HHE">
      <acc value="0.8278456058" flag="0"/>
      <vel value="0.4202745132" flag="0"/>
      <psa03 value="1.5182898522" flag="0"/>
      <psa10 value="0.1165588986" flag="0"/>
      <psa30 value="0.0147065238" flag="0"/>
    </comp>
    <comp name="--.HHZ">
      <acc value="0.8163853280" flag="0"/>
      <vel value="0.2549054166" flag="0"/>
      <psa03 value="1.4654599778" flag="0"/>
      <psa10 value="0.1371254687" flag="0"/>
      <psa30 value="0.0089831186" flag="0"/>
    </comp>
    <comp name="--.HHN">
      <acc value="1.0909364766" flag="0"/>
      <vel value="0.3549808814" flag="0"/>
      <psa03 value="1.3183483580" flag="0"/>
      <psa10 value="0.1352245260" flag="0"/>
      <psa30 value="0.0112266509" flag="0"/>
    </comp>
  </station>
  <station code="XOR" name="XOR" netid="HT" insttype="Compact," lat="39.366" lon="23.1918">
    <comp name="--.HHE">
      <acc value="0.0419352098" flag="0"/>
      <vel value="0.0255869350" flag="0"/>
      <psa03 value="0.0748337453" flag="0"/>
      <psa10 value="0.0218134035" flag="0"/>
      <psa30 value="0.0030475267" flag="0"/>
    </comp>
    <comp name="--.HHN">
      <acc value="0.0917493141" flag="0"/>
      <vel value="0.0477375976" flag="0"/>
      <psa03 value="0.2572762058" flag="0"/>
      <psa10 value="0.0409033369" flag="0"/>
      <psa30 value="0.0033336044" flag="0"/>
    </comp>
    <comp name="--.HHZ">
      <acc value="0.0367171091" flag="0"/>
      <vel value="0.0232414388" flag="0"/>
      <psa03 value="0.1229541932" flag="0"/>
      <psa10 value="0.0160616831" flag="0"/>
      <psa30 value="0.0022307757" flag="0"/>
    </comp>
  </station>
  <station code="THL" name="THL" netid="MN" insttype="" lat="39.5647" lon="22.0144">
    <comp name="--.HHZ">
      <acc value="0.2870256787" flag="0"/>
      <vel value="0.0719093928" flag="0"/>
      <psa03 value="0.1245967773" flag="0"/>
      <psa10 value="0.0502003416" flag="0"/>
      <psa30 value="0.0034703692" flag="0"/>
    </comp>
    <comp name="--.HHE">
      <acc value="0.3204639235" flag="0"/>
      <vel value="0.0663331026" flag="0"/>
      <psa03 value="0.2389178121" flag="0"/>
      <psa10 value="0.0319367325" flag="0"/>
      <psa30 value="0.0025089096" flag="0"/>
    </comp>
    <comp name="--.HHN">
      <acc value="0.2336255510" flag="0"/>
      <vel value="0.0579715134" flag="0"/>
      <psa03 value="0.2036381710" flag="0"/>
      <psa10 value="0.0281042984" flag="0"/>
      <psa30 value="0.0035921364" flag="0"/>
    </comp>
  </station>
</stationlist>
