<stationlist created="1778136339">
	<station code="MALA" name="MALA" netid="CL" source="Corinth Riff Laboratory (CRLNET)" insttype="" lat="38.39341" lon="21.87263">
		<comp name="01.HNE" depth="0.0">
			<acc value="0.0151710537499823" flag="0"/>
			<vel value="0.0181345466877039" flag="0"/>
			<psa03 value="0.0489927162470076" flag="0"/>
			<psa10 value="0.0372801013984764" flag="0"/>
			<psa30 value="0.00253151405046182" flag="0"/>
		</comp>
		<comp name="01.HNN" depth="0.0">
			<acc value="0.0169776177382019" flag="0"/>
			<vel value="0.0134228696033808" flag="0"/>
			<psa03 value="0.0633549645714728" flag="0"/>
			<psa10 value="0.0221675262690227" flag="0"/>
			<psa30 value="0.00143622483244652" flag="0"/>
		</comp>
		<comp name="01.HNZ" depth="0.0">
			<acc value="0.00737762571659896" flag="0"/>
			<vel value="0.00817415353199738" flag="0"/>
			<psa03 value="0.0162861632090509" flag="0"/>
			<psa10 value="0.0159702832303259" flag="0"/>
			<psa30 value="0.00138119191830605" flag="0"/>
		</comp>
	</station>
	<station code="ROD3" name="ROD3" netid="CL" source="Corinth Riff Laboratory (CRLNET)" insttype="" lat="38.30811" lon="21.89204">
		<comp name="00.HNE" depth="0.0">
			<acc value="0.0151400948364234" flag="0"/>
			<vel value="0.00672729865226175" flag="0"/>
			<psa03 value="0.0468003481227123" flag="0"/>
			<psa10 value="0.007010656355017" flag="0"/>
			<psa30 value="0.000604467211412851" flag="0"/>
		</comp>
		<comp name="00.HNN" depth="0.0">
			<acc value="0.0108090380734406" flag="0"/>
			<vel value="0.0076913431591267" flag="0"/>
			<psa03 value="0.0497533337595182" flag="0"/>
			<psa10 value="0.00758648855419416" flag="0"/>
			<psa30 value="0.000588360017030273" flag="0"/>
		</comp>
		<comp name="00.HNZ" depth="0.0">
			<acc value="0.00503226063986121" flag="0"/>
			<vel value="0.00243557433998526" flag="0"/>
			<psa03 value="0.010693387381767" flag="0"/>
			<psa10 value="0.00372881549956677" flag="0"/>
			<psa30 value="0.000285455278224574" flag="0"/>
		</comp>
	</station>
	<station code="STC" name="STC" netid="EG" source="EUROSEISTEST Strong Motion Network" insttype="" lat="40.64865" lon="23.304856">
		<comp name="--.EN1" depth="0.0">
			<acc value="0.0254826716883814" flag="0"/>
			<vel value="0.0169424735573525" flag="0"/>
			<psa03 value="0.0564260660747655" flag="0"/>
			<psa10 value="0.0213909951734606" flag="0"/>
			<psa30 value="0.000928255346527091" flag="0"/>
		</comp>
		<comp name="--.EN2" depth="0.0">
			<acc value="0.0198220978999768" flag="0"/>
			<vel value="0.0170860791149556" flag="0"/>
			<psa03 value="0.0364669964887099" flag="0"/>
			<psa10 value="0.011148636354957" flag="0"/>
			<psa30 value="0.000902733239147241" flag="0"/>
		</comp>
		<comp name="--.EN3" depth="0.0">
			<acc value="0.0125051484635074" flag="0"/>
			<vel value="0.0127923437787161" flag="0"/>
			<psa03 value="0.02634066421058" flag="0"/>
			<psa10 value="0.0135372586519463" flag="0"/>
			<psa30 value="0.000624437876361747" flag="0"/>
		</comp>
	</station>
	<station code="TST" name="TST" netid="EG" source="EUROSEISTEST Strong Motion Network" insttype="" lat="40.6638" lon="23.2906">
		<comp name="00.EN1" depth="0.0">
			<acc value="0.0109522382130666" flag="0"/>
			<vel value="0.00776096762671913" flag="0"/>
			<psa03 value="0.0231179949953727" flag="0"/>
			<psa10 value="0.0140269539043739" flag="0"/>
			<psa30 value="0.000619914347533219" flag="0"/>
		</comp>
		<comp name="00.EN2" depth="0.0">
			<acc value="0.00712133724620878" flag="0"/>
			<vel value="0.0057074590308315" flag="0"/>
			<psa03 value="0.0145163809098055" flag="0"/>
			<psa10 value="0.00662440930337353" flag="0"/>
			<psa30 value="0.000355724137894872" flag="0"/>
		</comp>
		<comp name="00.EN3" depth="0.0">
			<acc value="0.0156530193368047" flag="0"/>
			<vel value="0.0127779170753867" flag="0"/>
			<psa03 value="0.032799589478512" flag="0"/>
			<psa10 value="0.0165005774572594" flag="0"/>
			<psa30 value="0.000819937754350832" flag="0"/>
		</comp>
	</station>
	<station code="KRK1" name="KRK1" netid="HI" source="ITSAK Strong Motion Network" insttype="" lat="39.618861" lon="19.9202">
		<comp name="--.HNE" depth="0.0">
			<acc value="0.0216498450215555" flag="0"/>
			<vel value="0.0095318476713311" flag="0"/>
			<psa03 value="0.0412836150452011" flag="0"/>
			<psa10 value="0.00656654015731955" flag="0"/>
			<psa30 value="0.000604277790856129" flag="0"/>
		</comp>
		<comp name="--.HNN" depth="0.0">
			<acc value="0.0151704917031217" flag="0"/>
			<vel value="0.00950946661547587" flag="0"/>
			<psa03 value="0.0276208557878098" flag="0"/>
			<psa10 value="0.0109120378689655" flag="0"/>
			<psa30 value="0.000815486365717578" flag="0"/>
		</comp>
		<comp name="--.HNZ" depth="0.0">
			<acc value="0.00450461872153699" flag="0"/>
			<vel value="0.00276154494990812" flag="0"/>
			<psa03 value="0.0160127990506043" flag="0"/>
			<psa10 value="0.00242557396362198" flag="0"/>
			<psa30 value="0.000230835760486032" flag="0"/>
		</comp>
	</station>
	<station code="LMS2" name="LMS2" netid="HI" source="ITSAK Strong Motion Network" insttype="" lat="40.834985" lon="21.141815">
		<comp name="--.HNE" depth="0.0">
			<acc value="0.00785866977576388" flag="0"/>
			<vel value="0.00446159905525578" flag="0"/>
			<psa03 value="0.0203462137222348" flag="0"/>
			<psa10 value="0.00839366541414851" flag="0"/>
			<psa30 value="0.000547500435882065" flag="0"/>
		</comp>
		<comp name="--.HNN" depth="0.0">
			<acc value="0.0120856890326217" flag="0"/>
			<vel value="0.00815894920668032" flag="0"/>
			<psa03 value="0.0180623970659927" flag="0"/>
			<psa10 value="0.0120803208869896" flag="0"/>
			<psa30 value="0.000628541429452228" flag="0"/>
		</comp>
		<comp name="--.HNZ" depth="0.0">
			<acc value="0.00322175533485912" flag="0"/>
			<vel value="0.00309576175646111" flag="0"/>
			<psa03 value="0.0101631446125992" flag="0"/>
			<psa10 value="0.00358383702098731" flag="0"/>
			<psa30 value="0.00053510492724391" flag="0"/>
		</comp>
	</station>
	<station code="MSL1" name="MSL1" netid="HI" source="ITSAK Strong Motion Network" insttype="" lat="38.3727" lon="21.4243">
		<comp name="--.HNE" depth="0.0">
			<acc value="0.0107103480562253" flag="0"/>
			<vel value="0.0116381430505503" flag="0"/>
			<psa03 value="0.0287492430379138" flag="0"/>
			<psa10 value="0.0224480964512333" flag="0"/>
			<psa30 value="0.00124048696784168" flag="0"/>
		</comp>
		<comp name="--.HNN" depth="0.0">
			<acc value="0.0109549184302807" flag="0"/>
			<vel value="0.00964685211949025" flag="0"/>
			<psa03 value="0.0257472420867804" flag="0"/>
			<psa10 value="0.016974751368957" flag="0"/>
			<psa30 value="0.00089963001274209" flag="0"/>
		</comp>
		<comp name="--.HNZ" depth="0.0">
			<acc value="0.00515126963374399" flag="0"/>
			<vel value="0.00500758505448284" flag="0"/>
			<psa03 value="0.0140292574944473" flag="0"/>
			<psa10 value="0.00892017029249093" flag="0"/>
			<psa30 value="0.000430218421733941" flag="0"/>
		</comp>
	</station>
	<station code="SKO1" name="SKO1" netid="HI" source="ITSAK Strong Motion Network" insttype="" lat="39.123383" lon="23.728705">
		<comp name="--.HNE" depth="0.0">
			<acc value="0.00656648013829796" flag="0"/>
			<vel value="0.00408533180949443" flag="0"/>
			<psa03 value="0.017286477175514" flag="0"/>
			<psa10 value="0.00410525585930436" flag="0"/>
			<psa30 value="0.000238569189454733" flag="0"/>
		</comp>
		<comp name="--.HNN" depth="0.0">
			<acc value="0.00404756039491897" flag="0"/>
			<vel value="0.0030098913235182" flag="0"/>
			<psa03 value="0.0154850739872367" flag="0"/>
			<psa10 value="0.0047682561860839" flag="0"/>
			<psa30 value="0.000290147814618763" flag="0"/>
		</comp>
		<comp name="--.HNZ" depth="0.0">
			<acc value="0.00518086786434024" flag="0"/>
			<vel value="0.00347026637566599" flag="0"/>
			<psa03 value="0.0118459357767741" flag="0"/>
			<psa10 value="0.00390221998729692" flag="0"/>
			<psa30 value="0.000374289508384662" flag="0"/>
		</comp>
	</station>
	<station code="VAS2" name="VAS2" netid="HI" source="ITSAK Strong Motion Network" insttype="" lat="38.630558" lon="20.608081">
		<comp name="--.HNE" depth="0.0">
			<acc value="0.022487944879176" flag="0"/>
			<vel value="0.0215724119729509" flag="0"/>
			<psa03 value="0.0417311186484626" flag="0"/>
			<psa10 value="0.0464352086047723" flag="0"/>
			<psa30 value="0.00219240690286243" flag="0"/>
		</comp>
		<comp name="--.HNN" depth="0.0">
			<acc value="0.0196868507039854" flag="0"/>
			<vel value="0.0192961681509238" flag="0"/>
			<psa03 value="0.0587913998500267" flag="0"/>
			<psa10 value="0.044965985025878" flag="0"/>
			<psa30 value="0.00137338379243503" flag="0"/>
		</comp>
		<comp name="--.HNZ" depth="0.0">
			<acc value="0.0126742978302711" flag="0"/>
			<vel value="0.00945932654961938" flag="0"/>
			<psa03 value="0.031760648257887" flag="0"/>
			<psa10 value="0.0146781236036702" flag="0"/>
			<psa30 value="0.000733073614611064" flag="0"/>
		</comp>
	</station>
	<station code="VOL2" name="VOL2" netid="HI" source="ITSAK Strong Motion Network" insttype="" lat="39.366" lon="22.9506">
		<comp name="--.HNE" depth="0.0">
			<acc value="0.0501524460812275" flag="0"/>
			<vel value="0.0240179214843539" flag="0"/>
			<psa03 value="0.12348849026643" flag="0"/>
			<psa10 value="0.0142186258412206" flag="0"/>
			<psa30 value="0.00160937717205923" flag="0"/>
		</comp>
		<comp name="--.HNN" depth="0.0">
			<acc value="0.0465228595045562" flag="0"/>
			<vel value="0.0268053909233244" flag="0"/>
			<psa03 value="0.134584557507761" flag="0"/>
			<psa10 value="0.0195017855987061" flag="0"/>
			<psa30 value="0.00135747854879836" flag="0"/>
		</comp>
		<comp name="--.HNZ" depth="0.0">
			<acc value="0.0281239334954712" flag="0"/>
			<vel value="0.00852720980344733" flag="0"/>
			<psa03 value="0.0377624223858214" flag="0"/>
			<psa10 value="0.00586704555385397" flag="0"/>
			<psa30 value="0.000825941134173296" flag="0"/>
		</comp>
	</station>
	<station code="DLFA" name="DLFA" netid="HL" source="National Observatory of Athens Seismic Network" insttype="" lat="38.47836" lon="22.49583">
		<comp name="00.HNE" depth="0.0">
			<acc value="0.0161325102434781" flag="0"/>
			<vel value="0.0125088996414731" flag="0"/>
			<psa03 value="0.0329404764157273" flag="0"/>
			<psa10 value="0.0155650245439886" flag="0"/>
			<psa30 value="0.000765282258691653" flag="0"/>
		</comp>
		<comp name="00.HNN" depth="0.0">
			<acc value="0.0108732257642534" flag="0"/>
			<vel value="0.00846679728799413" flag="0"/>
			<psa03 value="0.0275576484756521" flag="0"/>
			<psa10 value="0.0143811442427123" flag="0"/>
			<psa30 value="0.00065041886830922" flag="0"/>
		</comp>
		<comp name="00.HNZ" depth="0.0">
			<acc value="0.00655884426440724" flag="0"/>
			<vel value="0.00681048594923622" flag="0"/>
			<psa03 value="0.016068475916014" flag="0"/>
			<psa10 value="0.0118928497179143" flag="0"/>
			<psa30 value="0.000385737896992425" flag="0"/>
		</comp>
	</station>
	<station code="JAN" name="JAN" netid="HL" source="National Observatory of Athens Seismic Network" insttype="" lat="39.65616" lon="20.84874">
		<comp name="00.HNE" depth="0.0">
			<acc value="0.0143984475399005" flag="0"/>
			<vel value="0.00767424724805668" flag="0"/>
			<psa03 value="0.0468003481227123" flag="0"/>
			<psa10 value="0.00876231374412234" flag="0"/>
			<psa30 value="0.000519457018838135" flag="0"/>
		</comp>
		<comp name="00.HNN" depth="0.0">
			<acc value="0.0157062356755931" flag="0"/>
			<vel value="0.00661947995320408" flag="0"/>
			<psa03 value="0.0247424402599043" flag="0"/>
			<psa10 value="0.00644287775303113" flag="0"/>
			<psa30 value="0.000591491971493552" flag="0"/>
		</comp>
		<comp name="00.HNZ" depth="0.0">
			<acc value="0.00650184050884428" flag="0"/>
			<vel value="0.00341333580208309" flag="0"/>
			<psa03 value="0.0157939989362499" flag="0"/>
			<psa10 value="0.00337043042455441" flag="0"/>
			<psa30 value="0.00061744245133215" flag="0"/>
		</comp>
	</station>
	<station code="ANX" name="ANX" netid="HP" source="University of Patras, Seismological Laboratory (PSLNET)" insttype="" lat="38.5933" lon="21.9209">
		<comp name="--.HNE" depth="0.0">
			<acc value="0.0493803153017117" flag="0"/>
			<vel value="0.0211026199329051" flag="0"/>
			<psa03 value="0.0830954421651722" flag="0"/>
			<psa10 value="0.0159483402492592" flag="0"/>
			<psa30 value="0.000702486223765138" flag="0"/>
		</comp>
		<comp name="--.HNN" depth="0.0">
			<acc value="0.0345439083934722" flag="0"/>
			<vel value="0.0206149900198317" flag="0"/>
			<psa03 value="0.117908435855185" flag="0"/>
			<psa10 value="0.0160300862895325" flag="0"/>
			<psa30 value="0.00106225901528177" flag="0"/>
		</comp>
		<comp name="--.HNZ" depth="0.0">
			<acc value="0.020259839903959" flag="0"/>
			<vel value="0.0113415819805894" flag="0"/>
			<psa03 value="0.0530739481803517" flag="0"/>
			<psa10 value="0.00906337821683359" flag="0"/>
			<psa30 value="0.000631882484112574" flag="0"/>
		</comp>
	</station>
	<station code="LTK" name="LTK" netid="HP" source="University of Patras, Seismological Laboratory (PSLNET)" insttype="" lat="38.0228" lon="22.9673">
		<comp name="--.HNE" depth="0.0">
			<acc value="0.00207517013322236" flag="0"/>
			<vel value="0.00161325461194446" flag="0"/>
			<psa03 value="0.00540131516741435" flag="0"/>
			<psa10 value="0.00270214259743453" flag="0"/>
			<psa30 value="0.000171175154618001" flag="0"/>
		</comp>
		<comp name="--.HNN" depth="0.0">
			<acc value="0.0025883852525714" flag="0"/>
			<vel value="0.00181255828186201" flag="0"/>
			<psa03 value="0.00690095910779934" flag="0"/>
			<psa10 value="0.00236032737572873" flag="0"/>
			<psa30 value="0.000143919560006352" flag="0"/>
		</comp>
		<comp name="--.HNZ" depth="0.0">
			<acc value="0.00185837179088103" flag="0"/>
			<vel value="0.00157199539694621" flag="0"/>
			<psa03 value="0.00606692273718965" flag="0"/>
			<psa10 value="0.0014824461344698" flag="0"/>
			<psa30 value="0.000117850476286644" flag="0"/>
		</comp>
	</station>
	<station code="PDO" name="PDO" netid="HP" source="University of Patras, Seismological Laboratory (PSLNET)" insttype="" lat="38.5986" lon="21.1833">
		<comp name="--.HNE" depth="0.0">
			<acc value="0.00980720145044185" flag="0"/>
			<vel value="0.00473122711568386" flag="0"/>
			<psa03 value="0.0396502646562895" flag="0"/>
			<psa10 value="0.0058805259622521" flag="0"/>
			<psa30 value="0.000361189083253979" flag="0"/>
		</comp>
		<comp name="--.HNN" depth="0.0">
			<acc value="0.0134640615345745" flag="0"/>
			<vel value="0.00817264047576391" flag="0"/>
			<psa03 value="0.0411460877055615" flag="0"/>
			<psa10 value="0.00740814653461782" flag="0"/>
			<psa30 value="0.000366642022609717" flag="0"/>
		</comp>
		<comp name="--.HNZ" depth="0.0">
			<acc value="0.00684900069316745" flag="0"/>
			<vel value="0.00316884674157126" flag="0"/>
			<psa03 value="0.0166664178704572" flag="0"/>
			<psa10 value="0.00348615453437838" flag="0"/>
			<psa30 value="0.000236263567968477" flag="0"/>
		</comp>
	</station>
	<station code="PVO" name="PVO" netid="HP" source="University of Patras, Seismological Laboratory (PSLNET)" insttype="" lat="38.616" lon="21.525">
		<comp name="--.HNE" depth="0.0">
			<acc value="0.00622348975638029" flag="0"/>
			<vel value="0.00360274861123819" flag="0"/>
			<psa03 value="0.0246614409911219" flag="0"/>
			<psa10 value="0.00621402430486917" flag="0"/>
			<psa30 value="0.000326212365176406" flag="0"/>
		</comp>
		<comp name="--.HNN" depth="0.0">
			<acc value="0.00715036982751661" flag="0"/>
			<vel value="0.00382059843301532" flag="0"/>
			<psa03 value="0.0213637043030704" flag="0"/>
			<psa10 value="0.00456243036360618" flag="0"/>
			<psa30 value="0.000338988654251212" flag="0"/>
		</comp>
		<comp name="--.HNZ" depth="0.0">
			<acc value="0.00609350757614396" flag="0"/>
			<vel value="0.0041952342081279" flag="0"/>
			<psa03 value="0.0227423529234368" flag="0"/>
			<psa10 value="0.00383188407788776" flag="0"/>
			<psa30 value="0.00025647225044463" flag="0"/>
		</comp>
	</station>
	<station code="SERG" name="SERG" netid="HP" source="University of Patras, Seismological Laboratory (PSLNET)" insttype="" lat="38.4133" lon="22.0566">
		<comp name="--.HNE" depth="0.0">
			<acc value="0.0266095476195186" flag="0"/>
			<vel value="0.0159995987512847" flag="0"/>
			<psa03 value="0.0823760976371682" flag="0"/>
			<psa10 value="0.0136260129689782" flag="0"/>
			<psa30 value="0.00107137284819454" flag="0"/>
		</comp>
		<comp name="--.HNN" depth="0.0">
			<acc value="0.0223815941571823" flag="0"/>
			<vel value="0.0101501445362776" flag="0"/>
			<psa03 value="0.0483879606734153" flag="0"/>
			<psa10 value="0.00839498925185093" flag="0"/>
			<psa30 value="0.000427110715863894" flag="0"/>
		</comp>
		<comp name="--.HNZ" depth="0.0">
			<acc value="0.0146018478930684" flag="0"/>
			<vel value="0.00799755660235832" flag="0"/>
			<psa03 value="0.0508454776384391" flag="0"/>
			<psa10 value="0.0101153875947756" flag="0"/>
			<psa30 value="0.000416607389861789" flag="0"/>
		</comp>
	</station>
</stationlist>
