<?xml version="1.0" encoding="UTF-8" standalone="yes"?>
<!DOCTYPE earthquake SYSTEM "stationlist.dtd">
<stationlist created="" xmlns="ch.ethz.sed.shakemap.usgs.xml">
  <station code="GVD" name="GVD" netid="GE" insttype="STS-2/N" lat="34.8391" lon="24.0874">
    <comp name="--.HHE">
      <acc value="0.0030840018" flag="0"/>
      <vel value="0.0009327673" flag="0"/>
      <psa03 value="0.0037857254" flag="0"/>
      <psa10 value="0.0007334781" flag="0"/>
      <psa30 value="0.0003382101" flag="0"/>
    </comp>
    <comp name="--.HHN">
      <acc value="0.0001864552" flag="0"/>
      <vel value="0.0000100270" flag="0"/>
      <psa03 value="0.0000063506" flag="0"/>
      <psa10 value="0.0000003281" flag="0"/>
      <psa30 value="0.0000000716" flag="0"/>
    </comp>
    <comp name="--.HHZ">
      <acc value="0.0001183519" flag="0"/>
      <vel value="0.0000059889" flag="0"/>
      <psa03 value="0.0000042347" flag="0"/>
      <psa10 value="0.0000002083" flag="0"/>
      <psa30 value="0.0000000660" flag="0"/>
    </comp>
  </station>
  <station code="IMMV" name="IMMV" netid="GE" insttype="STS-2/N" lat="35.4606" lon="23.9811">
    <comp name="--.HHE">
      <acc value="1.1826453633" flag="0"/>
      <vel value="0.9360689213" flag="0"/>
      <psa03 value="2.6187517734" flag="0"/>
      <psa10 value="0.7768052691" flag="0"/>
      <psa30 value="0.0460133076" flag="0"/>
    </comp>
    <comp name="--.HHZ">
      <acc value="0.5477712380" flag="0"/>
      <vel value="0.4358443566" flag="0"/>
      <psa03 value="1.3348661482" flag="0"/>
      <psa10 value="0.4560579578" flag="0"/>
      <psa30 value="0.0242712564" flag="0"/>
    </comp>
    <comp name="--.HHN">
      <acc value="1.6454445356" flag="0"/>
      <vel value="0.8891644038" flag="0"/>
      <psa03 value="3.7369434773" flag="0"/>
      <psa10 value="0.5261660846" flag="0"/>
      <psa30 value="0.0344114198" flag="0"/>
    </comp>
  </station>
  <station code="IDI" name="IDI" netid="MN" insttype="" lat="35.288" lon="24.89">
    <comp name="--.HHE">
      <acc value="0.0853956315" flag="0"/>
      <vel value="0.0720569636" flag="0"/>
      <psa03 value="0.2463687996" flag="0"/>
      <psa10 value="0.1061405298" flag="0"/>
      <psa30 value="0.0097874596" flag="0"/>
    </comp>
    <comp name="--.HHN">
      <acc value="0.1093671432" flag="0"/>
      <vel value="0.0736017794" flag="0"/>
      <psa03 value="0.2397075562" flag="0"/>
      <psa10 value="0.0796234888" flag="0"/>
      <psa30 value="0.0087364705" flag="0"/>
    </comp>
    <comp name="--.HHZ">
      <acc value="0.0849267030" flag="0"/>
      <vel value="0.0486921555" flag="0"/>
      <psa03 value="0.2051322069" flag="0"/>
      <psa10 value="0.0650052473" flag="0"/>
      <psa30 value="0.0132985665" flag="0"/>
    </comp>
  </station>
</stationlist>
