<?xml version="1.0" encoding="UTF-8" standalone="yes"?>
<!DOCTYPE earthquake SYSTEM "stationlist.dtd">
<stationlist created="" xmlns="ch.ethz.sed.shakemap.usgs.xml">
  <station code="GVD" name="GVD" netid="GE" insttype="STS-2/N" lat="34.8391" lon="24.0874">
    <comp name="--.HHE">
      <acc value="0.0030840018" flag="0"/>
      <vel value="0.0009327673" flag="0"/>
      <psa03 value="0.0037857254" flag="0"/>
      <psa10 value="0.0007334781" flag="0"/>
      <psa30 value="0.0003382101" flag="0"/>
    </comp>
    <comp name="--.HHN">
      <acc value="0.0001864552" flag="0"/>
      <vel value="0.0000100270" flag="0"/>
      <psa03 value="0.0000063506" flag="0"/>
      <psa10 value="0.0000003281" flag="0"/>
      <psa30 value="0.0000000716" flag="0"/>
    </comp>
    <comp name="--.HHZ">
      <acc value="0.0001183519" flag="0"/>
      <vel value="0.0000059889" flag="0"/>
      <psa03 value="0.0000042347" flag="0"/>
      <psa10 value="0.0000002083" flag="0"/>
      <psa30 value="0.0000000660" flag="0"/>
    </comp>
  </station>
  <station code="IMMV" name="IMMV" netid="GE" insttype="STS-2/N" lat="35.4606" lon="23.9811">
    <comp name="--.HHE">
      <acc value="1.1826453633" flag="0"/>
      <vel value="0.9360689213" flag="0"/>
      <psa03 value="2.6187517734" flag="0"/>
      <psa10 value="0.7768052691" flag="0"/>
      <psa30 value="0.0460133076" flag="0"/>
    </comp>
    <comp name="--.HHZ">
      <acc value="0.5477712380" flag="0"/>
      <vel value="0.4358443566" flag="0"/>
      <psa03 value="1.3348661482" flag="0"/>
      <psa10 value="0.4560579578" flag="0"/>
      <psa30 value="0.0242712564" flag="0"/>
    </comp>
    <comp name="--.HHN">
      <acc value="1.6454445356" flag="0"/>
      <vel value="0.8891644038" flag="0"/>
      <psa03 value="3.7369434773" flag="0"/>
      <psa10 value="0.5261660846" flag="0"/>
      <psa30 value="0.0344114198" flag="0"/>
    </comp>
  </station>
  <station code="CHAN" name="CHAN" netid="HC" insttype="120" lat="35.5193" lon="24.0428">
    <comp name="--.HHE">
      <acc value="0.4596663285" flag="0"/>
      <vel value="0.4251900480" flag="0"/>
      <psa03 value="1.5519862693" flag="0"/>
      <psa10 value="0.9491359489" flag="0"/>
      <psa30 value="0.0511775989" flag="0"/>
    </comp>
    <comp name="--.HHZ">
      <acc value="0.5114040264" flag="0"/>
      <vel value="0.5184176751" flag="0"/>
      <psa03 value="1.5216166205" flag="0"/>
      <psa10 value="0.7621763244" flag="0"/>
      <psa30 value="0.0349419787" flag="0"/>
    </comp>
    <comp name="--.HHN">
      <acc value="0.8623354615" flag="0"/>
      <vel value="0.9008387168" flag="0"/>
      <psa03 value="1.7890384496" flag="0"/>
      <psa10 value="2.2179333196" flag="0"/>
      <psa30 value="0.0648022064" flag="0"/>
    </comp>
  </station>
  <station code="KNDR" name="KNDR" netid="HC" insttype="120" lat="35.2348" lon="23.6248">
    <comp name="--.HHZ">
      <acc value="0.3233311211" flag="0"/>
      <vel value="0.2010783504" flag="0"/>
      <psa03 value="0.7198163361" flag="0"/>
      <psa10 value="0.1686115212" flag="0"/>
      <psa30 value="0.0115664077" flag="0"/>
    </comp>
    <comp name="--.HHN">
      <acc value="0.4503258096" flag="0"/>
      <vel value="0.2695442320" flag="0"/>
      <psa03 value="0.9847286514" flag="0"/>
      <psa10 value="0.3783336708" flag="0"/>
      <psa30 value="0.0282851321" flag="0"/>
    </comp>
    <comp name="--.HHE">
      <acc value="0.4514433262" flag="0"/>
      <vel value="0.2434770672" flag="0"/>
      <psa03 value="1.2620365166" flag="0"/>
      <psa10 value="0.3237228327" flag="0"/>
      <psa30 value="0.0207736256" flag="0"/>
    </comp>
  </station>
  <station code="KNSS" name="KNSS" netid="HC" insttype="60" lat="35.3042" lon="25.1802">
    <comp name="--.HHN">
      <acc value="0.0878528365" flag="0"/>
      <vel value="0.0777196867" flag="0"/>
      <psa03 value="0.2738798976" flag="0"/>
      <psa10 value="0.1143554834" flag="0"/>
      <psa30 value="0.0214409323" flag="0"/>
    </comp>
    <comp name="--.HHE">
      <acc value="0.0949202212" flag="0"/>
      <vel value="0.0583976891" flag="0"/>
      <psa03 value="0.2962877881" flag="0"/>
      <psa10 value="0.0854793919" flag="0"/>
      <psa30 value="0.0138234081" flag="0"/>
    </comp>
    <comp name="--.HHZ">
      <acc value="0.0606493041" flag="0"/>
      <vel value="0.0434843272" flag="0"/>
      <psa03 value="0.2238076303" flag="0"/>
      <psa10 value="0.0629284948" flag="0"/>
      <psa30 value="0.0088365554" flag="0"/>
    </comp>
  </station>
  <station code="PFKS" name="PFKS" netid="HC" insttype="120" lat="35.0429" lon="25.4733">
    <comp name="--.HHZ">
      <acc value="0.0559862939" flag="0"/>
      <vel value="0.0331158655" flag="0"/>
      <psa03 value="0.1073853813" flag="0"/>
      <psa10 value="0.0538615687" flag="0"/>
      <psa30 value="0.0057989191" flag="0"/>
    </comp>
    <comp name="--.HHN">
      <acc value="0.1035130670" flag="0"/>
      <vel value="0.0752147224" flag="0"/>
      <psa03 value="0.4233637372" flag="0"/>
      <psa10 value="0.0965623656" flag="0"/>
      <psa30 value="0.0072409319" flag="0"/>
    </comp>
    <comp name="--.HHE">
      <acc value="0.0817014861" flag="0"/>
      <vel value="0.0507606205" flag="0"/>
      <psa03 value="0.3002992623" flag="0"/>
      <psa10 value="0.0703604254" flag="0"/>
      <psa30 value="0.0068766815" flag="0"/>
    </comp>
  </station>
  <station code="STIA" name="STIA" netid="HC" insttype="120" lat="35.2021" lon="26.0909">
    <comp name="--.HHE">
      <acc value="0.0000000000" flag="0"/>
      <vel value="-100.0000000000" flag="0"/>
      <psa03 value="0.0000000000" flag="0"/>
      <psa10 value="0.0000000000" flag="0"/>
      <psa30 value="0.0000000000" flag="0"/>
    </comp>
    <comp name="--.HHN">
      <acc value="0.0000000000" flag="0"/>
      <vel value="-100.0000000000" flag="0"/>
      <psa03 value="0.0000000000" flag="0"/>
      <psa10 value="0.0000000000" flag="0"/>
      <psa30 value="0.0000000000" flag="0"/>
    </comp>
    <comp name="--.HHZ">
      <acc value="0.0164080962" flag="0"/>
      <vel value="0.0135088972" flag="0"/>
      <psa03 value="0.0681104842" flag="0"/>
      <psa10 value="0.0216018368" flag="0"/>
      <psa30 value="0.0041018494" flag="0"/>
    </comp>
  </station>
  <station code="ANKY" name="ANKY" netid="HL" insttype="60" lat="35.867" lon="23.3012">
    <comp name="--.HHZ">
      <acc value="0.0366605388" flag="0"/>
      <vel value="0.0333320814" flag="0"/>
      <psa03 value="0.0985680265" flag="0"/>
      <psa10 value="0.0484517895" flag="0"/>
      <psa30 value="0.0073564580" flag="0"/>
    </comp>
    <comp name="--.HHE">
      <acc value="0.0617178058" flag="0"/>
      <vel value="0.0866347917" flag="0"/>
      <psa03 value="0.1274062749" flag="0"/>
      <psa10 value="0.1235000454" flag="0"/>
      <psa30 value="0.0170505999" flag="0"/>
    </comp>
    <comp name="--.HHN">
      <acc value="0.0557165238" flag="0"/>
      <vel value="0.0658859228" flag="0"/>
      <psa03 value="0.1323409632" flag="0"/>
      <psa10 value="0.1590213905" flag="0"/>
      <psa30 value="0.0093778601" flag="0"/>
    </comp>
  </station>
  <station code="GVD" name="GVD" netid="HL" insttype="120" lat="34.8391" lon="24.0874">
    <comp name="--.HHN">
      <acc value="0.0001908446" flag="0"/>
      <vel value="0.0000100316" flag="0"/>
      <psa03 value="0.0000064650" flag="0"/>
      <psa10 value="0.0000003286" flag="0"/>
      <psa30 value="0.0000000724" flag="0"/>
    </comp>
    <comp name="--.HHZ">
      <acc value="0.0001323081" flag="0"/>
      <vel value="0.0000063781" flag="0"/>
      <psa03 value="0.0000041018" flag="0"/>
      <psa10 value="0.0000002118" flag="0"/>
      <psa30 value="0.0000000658" flag="0"/>
    </comp>
    <comp name="--.HHE">
      <acc value="0.0034330162" flag="0"/>
      <vel value="0.0009315763" flag="0"/>
      <psa03 value="0.0036899176" flag="0"/>
      <psa10 value="0.0007286793" flag="0"/>
      <psa30 value="0.0003384560" flag="0"/>
    </comp>
  </station>
  <station code="IACM" name="IACM" netid="HL" insttype="120" lat="35.3058" lon="25.0709">
    <comp name="--.HHZ">
      <acc value="0.3017635083" flag="0"/>
      <vel value="0.1998697964" flag="0"/>
      <psa03 value="0.7944546913" flag="0"/>
      <psa10 value="0.2625541667" flag="0"/>
      <psa30 value="0.0253901285" flag="0"/>
    </comp>
    <comp name="--.HHN">
      <acc value="0.3905147428" flag="0"/>
      <vel value="0.3939254484" flag="0"/>
      <psa03 value="1.0993989990" flag="0"/>
      <psa10 value="0.6014604625" flag="0"/>
      <psa30 value="0.0324129526" flag="0"/>
    </comp>
    <comp name="--.HHE">
      <acc value="0.4224816307" flag="0"/>
      <vel value="0.3547847999" flag="0"/>
      <psa03 value="1.4113500898" flag="0"/>
      <psa10 value="0.7227387765" flag="0"/>
      <psa30 value="0.0319063512" flag="0"/>
    </comp>
  </station>
  <station code="IDI" name="IDI" netid="HL" insttype="120" lat="35.288" lon="24.89">
    <comp name="--.HHZ">
      <acc value="0.0833734841" flag="0"/>
      <vel value="0.0485209443" flag="0"/>
      <psa03 value="0.2012814296" flag="0"/>
      <psa10 value="0.0653530022" flag="0"/>
      <psa30 value="0.0134603783" flag="0"/>
    </comp>
    <comp name="--.HHE">
      <acc value="0.0835820775" flag="0"/>
      <vel value="0.0722828798" flag="0"/>
      <psa03 value="0.2439616697" flag="0"/>
      <psa10 value="0.1067849990" flag="0"/>
      <psa30 value="0.0098892734" flag="0"/>
    </comp>
    <comp name="--.HHN">
      <acc value="0.1073649701" flag="0"/>
      <vel value="0.0735247903" flag="0"/>
      <psa03 value="0.2382984208" flag="0"/>
      <psa10 value="0.0803394360" flag="0"/>
      <psa30 value="0.0088262447" flag="0"/>
    </comp>
  </station>
  <station code="IMMV" name="IMMV" netid="HL" insttype="120" lat="35.4606" lon="23.9811">
    <comp name="--.HHE">
      <acc value="1.1646110075" flag="0"/>
      <vel value="0.9192582488" flag="0"/>
      <psa03 value="2.5563578901" flag="0"/>
      <psa10 value="0.7689365535" flag="0"/>
      <psa30 value="0.0456387121" flag="0"/>
    </comp>
    <comp name="--.HHN">
      <acc value="1.6122498333" flag="0"/>
      <vel value="0.8649635082" flag="0"/>
      <psa03 value="3.6401301682" flag="0"/>
      <psa10 value="0.5186740446" flag="0"/>
      <psa30 value="0.0340559144" flag="0"/>
    </comp>
    <comp name="--.HHZ">
      <acc value="0.5367151504" flag="0"/>
      <vel value="0.4277909586" flag="0"/>
      <psa03 value="1.3069938211" flag="0"/>
      <psa10 value="0.4528342609" flag="0"/>
      <psa30 value="0.0240166757" flag="0"/>
    </comp>
  </station>
  <station code="KTHA" name="KTHA" netid="HL" insttype="120" lat="36.2566" lon="23.0621">
    <comp name="--.HHE">
      <acc value="0.0552291299" flag="0"/>
      <vel value="0.0593167594" flag="0"/>
      <psa03 value="0.1610669486" flag="0"/>
      <psa10 value="0.1262984224" flag="0"/>
      <psa30 value="0.0170152215" flag="0"/>
    </comp>
    <comp name="--.HHN">
      <acc value="0.0418881374" flag="0"/>
      <vel value="0.0404818981" flag="0"/>
      <psa03 value="0.1150736138" flag="0"/>
      <psa10 value="0.0842118689" flag="0"/>
      <psa30 value="0.0090049044" flag="0"/>
    </comp>
    <comp name="--.HHZ">
      <acc value="0.0281822586" flag="0"/>
      <vel value="0.0296836154" flag="0"/>
      <psa03 value="0.0588288026" flag="0"/>
      <psa10 value="0.0490833926" flag="0"/>
      <psa30 value="0.0060764917" flag="0"/>
    </comp>
  </station>
  <station code="SIVA" name="SIVA" netid="HL" insttype="60" lat="35.0178" lon="24.812">
    <comp name="--.HHE">
      <acc value="0.8427544314" flag="0"/>
      <vel value="0.5683853484" flag="0"/>
      <psa03 value="1.4913297901" flag="0"/>
      <psa10 value="0.5574336723" flag="0"/>
      <psa30 value="0.0315705884" flag="0"/>
    </comp>
    <comp name="--.HHZ">
      <acc value="0.4128171768" flag="0"/>
      <vel value="0.1827752924" flag="0"/>
      <psa03 value="0.8724670881" flag="0"/>
      <psa10 value="0.1823019154" flag="0"/>
      <psa30 value="0.0110701074" flag="0"/>
    </comp>
    <comp name="--.HHN">
      <acc value="0.6242764974" flag="0"/>
      <vel value="0.3295037610" flag="0"/>
      <psa03 value="2.1970328384" flag="0"/>
      <psa10 value="0.4313808910" flag="0"/>
      <psa30 value="0.0224166925" flag="0"/>
    </comp>
  </station>
  <station code="IDI" name="IDI" netid="MN" insttype="" lat="35.288" lon="24.89">
    <comp name="--.HHE">
      <acc value="0.0853956315" flag="0"/>
      <vel value="0.0720569636" flag="0"/>
      <psa03 value="0.2463687996" flag="0"/>
      <psa10 value="0.1061405298" flag="0"/>
      <psa30 value="0.0097874596" flag="0"/>
    </comp>
    <comp name="--.HHN">
      <acc value="0.1093671432" flag="0"/>
      <vel value="0.0736017794" flag="0"/>
      <psa03 value="0.2397075562" flag="0"/>
      <psa10 value="0.0796234888" flag="0"/>
      <psa30 value="0.0087364705" flag="0"/>
    </comp>
    <comp name="--.HHZ">
      <acc value="0.0849267030" flag="0"/>
      <vel value="0.0486921555" flag="0"/>
      <psa03 value="0.2051322069" flag="0"/>
      <psa10 value="0.0650052473" flag="0"/>
      <psa30 value="0.0132985665" flag="0"/>
    </comp>
  </station>
</stationlist>
