<stationlist created="1724920291">
	<station code="ATEI" name="ATEI" netid="HC" source="Seismological Network of Crete (HC)" insttype="" lat="35.5193" lon="24.0432">
		<comp name=".HNE" depth="0.0">
			<acc value="0.2847939569697" flag="0"/>
			<vel value="0.244229540413" flag="0"/>
			<psa03 value="0.884850116979" flag="0"/>
			<psa10 value="0.485127157293776" flag="0"/>
			<psa30 value="0.027645479710707" flag="0"/>
		</comp>
		<comp name=".HNN" depth="0.0">
			<acc value="0.4289983723461" flag="0"/>
			<vel value="0.491228509993" flag="0"/>
			<psa03 value="0.894000639821089" flag="0"/>
			<psa10 value="1.15660649950552" flag="0"/>
			<psa30 value="0.0357044419107301" flag="0"/>
		</comp>
		<comp name=".HNZ" depth="0.0">
			<acc value="0.26336967920904" flag="0"/>
			<vel value="0.274030085978" flag="0"/>
			<psa03 value="0.792741181879204" flag="0"/>
			<psa10 value="0.402937282618918" flag="0"/>
			<psa30 value="0.0193471733219674" flag="0"/>
		</comp>
	</station>
	<station code="G0LD" name="G0LD" netid="HC" source="Seismological Network of Crete (HC)" insttype="" lat="35.4955" lon="24.0306">
		<comp name=".HNE" depth="0.0">
			<acc value="0.0023154805476864" flag="0"/>
			<vel value="0.00326981780069" flag="0"/>
			<psa03 value="0.0022819327423667" flag="0"/>
			<psa10 value="0.00198802169668085" flag="0"/>
			<psa30 value="0.00151322034759005" flag="0"/>
		</comp>
		<comp name=".HNN" depth="0.0">
			<acc value="0.0032190016321824" flag="0"/>
			<vel value="0.00253605610073" flag="0"/>
			<psa03 value="0.00132745520627138" flag="0"/>
			<psa10 value="0.0014880695148004" flag="0"/>
			<psa30 value="0.000771646117770482" flag="0"/>
		</comp>
		<comp name=".HNZ" depth="0.0">
			<acc value="0.0033168925693836" flag="0"/>
			<vel value="0.006258406632" flag="0"/>
			<psa03 value="0.00223618052530598" flag="0"/>
			<psa10 value="0.00207621675792261" flag="0"/>
			<psa30 value="0.00238056540910719" flag="0"/>
		</comp>
	</station>
	<station code="LENT" name="LENT" netid="HC" source="Seismological Network of Crete (HC)" insttype="" lat="35.5074" lon="24.0402">
		<comp name=".HNE" depth="0.0">
			<acc value="0.0023593107531804" flag="0"/>
			<vel value="0.00205034979926" flag="0"/>
			<psa03 value="0.00118560482630673" flag="0"/>
			<psa10 value="0.000952146356272295" flag="0"/>
			<psa30 value="0.00102259170001286" flag="0"/>
		</comp>
		<comp name=".HNN" depth="0.0">
			<acc value="0.0019806888534828" flag="0"/>
			<vel value="0.00171127968469" flag="0"/>
			<psa03 value="0.00134827649118024" flag="0"/>
			<psa10 value="0.00101242023193571" flag="0"/>
			<psa30 value="0.000746067392054296" flag="0"/>
		</comp>
		<comp name=".HNZ" depth="0.0">
			<acc value="0.003612072690465" flag="0"/>
			<vel value="0.00208056664129" flag="0"/>
			<psa03 value="0.00119078200846558" flag="0"/>
			<psa10 value="0.00102910555600337" flag="0"/>
			<psa30 value="0.000748595892887162" flag="0"/>
		</comp>
	</station>
	<station code="PASK" name="PASK" netid="HC" source="Seismological Network of Crete (HC)" insttype="" lat="35.4996" lon="24.0121">
		<comp name=".HNE" depth="0.0">
			<acc value="0.75860862195894" flag="0"/>
			<vel value="0.590261831994" flag="0"/>
			<psa03 value="1.56304937768227" flag="0"/>
			<psa10 value="1.32606840552464" flag="0"/>
			<psa30 value="0.0772103014701369" flag="0"/>
		</comp>
		<comp name=".HNN" depth="0.0">
			<acc value="0.9913890054927" flag="0"/>
			<vel value="0.857732345049" flag="0"/>
			<psa03 value="1.6506686820318" flag="0"/>
			<psa10 value="1.00339685011526" flag="0"/>
			<psa30 value="0.0608642652920786" flag="0"/>
		</comp>
		<comp name=".HNZ" depth="0.0">
			<acc value="0.39504783998718" flag="0"/>
			<vel value="0.365469139379" flag="0"/>
			<psa03 value="1.24397999090119" flag="0"/>
			<psa10 value="0.643307055934587" flag="0"/>
			<psa30 value="0.0259563594814092" flag="0"/>
		</comp>
	</station>
	<station code="POLY" name="POLY" netid="HC" source="Seismological Network of Crete (HC)" insttype="" lat="35.5226" lon="24.0602">
		<comp name=".HNE" depth="0.0">
			<acc value="0.0012228972223182" flag="0"/>
			<vel value="0.00256498504751" flag="0"/>
			<psa03 value="0.0012198565256519" flag="0"/>
			<psa10 value="0.00143672099602741" flag="0"/>
			<psa30 value="0.00113108899159319" flag="0"/>
		</comp>
		<comp name=".HNN" depth="0.0">
			<acc value="0.0010220994540048" flag="0"/>
			<vel value="0.00231726602072" flag="0"/>
			<psa03 value="0.00150739331444124" flag="0"/>
			<psa10 value="0.00113441663391089" flag="0"/>
			<psa30 value="0.000798563057133006" flag="0"/>
		</comp>
		<comp name=".HNZ" depth="0.0">
			<acc value="0.001276187328807" flag="0"/>
			<vel value="0.00223615056042" flag="0"/>
			<psa03 value="0.001356605005142" flag="0"/>
			<psa10 value="0.00108415744510876" flag="0"/>
			<psa30 value="0.000924670734063271" flag="0"/>
		</comp>
	</station>
	<station code="ARK1" name="ARK1" netid="HI" source="ITSAK Strong Motion Network" insttype="" lat="35.148777" lon="25.264194">
		<comp name=".HNE" depth="0.0">
			<acc value="0.11468772999042" flag="0"/>
			<vel value="0.0984151589809" flag="0"/>
			<psa03 value="0.369349759275334" flag="0"/>
			<psa10 value="0.164944101737231" flag="0"/>
			<psa30 value="0.0193297905037398" flag="0"/>
		</comp>
		<comp name=".HNN" depth="0.0">
			<acc value="0.15692943821106" flag="0"/>
			<vel value="0.116272984888" flag="0"/>
			<psa03 value="0.442653656965719" flag="0"/>
			<psa10 value="0.129444940091817" flag="0"/>
			<psa30 value="0.0334515059981172" flag="0"/>
		</comp>
		<comp name=".HNZ" depth="0.0">
			<acc value="0.096032677890528" flag="0"/>
			<vel value="0.0640437422174" flag="0"/>
			<psa03 value="0.175894923008601" flag="0"/>
			<psa10 value="0.0992015116134197" flag="0"/>
			<psa30 value="0.009395603245941" flag="0"/>
		</comp>
	</station>
	<station code="ARS1" name="ARS1" netid="HI" source="ITSAK Strong Motion Network" insttype="" lat="37.6349" lon="22.7293">
		<comp name=".HNE" depth="0.0">
			<acc value="0.0173976908787" flag="0"/>
			<vel value="0.0163502448662" flag="0"/>
			<psa03 value="0.0684399296429696" flag="0"/>
			<psa10 value="0.0338499036399894" flag="0"/>
			<psa30 value="0.00515072871047994" flag="0"/>
		</comp>
		<comp name=".HNN" depth="0.0">
			<acc value="0.022499784406668" flag="0"/>
			<vel value="0.0234907803459" flag="0"/>
			<psa03 value="0.0788116792202109" flag="0"/>
			<psa10 value="0.0252744730598115" flag="0"/>
			<psa30 value="0.00381440893587376" flag="0"/>
		</comp>
		<comp name=".HNZ" depth="0.0">
			<acc value="0.0091343150173362" flag="0"/>
			<vel value="0.00699276709418" flag="0"/>
			<psa03 value="0.0327373041023849" flag="0"/>
			<psa10 value="0.010854590625862" flag="0"/>
			<psa30 value="0.00444387730172774" flag="0"/>
		</comp>
	</station>
	<station code="ATH5" name="ATH5" netid="HI" source="ITSAK Strong Motion Network" insttype="" lat="37.975421" lon="23.737098">
		<comp name=".HNE" depth="0.0">
			<acc value="0.0036714419626512" flag="0"/>
			<vel value="0.00566834286126" flag="0"/>
			<psa03 value="0.0119734312018861" flag="0"/>
			<psa10 value="0.0120468180425919" flag="0"/>
			<psa30 value="0.00161005384566649" flag="0"/>
		</comp>
		<comp name=".HNN" depth="0.0">
			<acc value="0.0063435548705442" flag="0"/>
			<vel value="0.00596901162465" flag="0"/>
			<psa03 value="0.0177401009758686" flag="0"/>
			<psa10 value="0.0114087329600759" flag="0"/>
			<psa30 value="0.00177096335929585" flag="0"/>
		</comp>
		<comp name=".HNZ" depth="0.0">
			<acc value="0.003052308402513" flag="0"/>
			<vel value="0.00416273220259" flag="0"/>
			<psa03 value="0.00873928531497993" flag="0"/>
			<psa10 value="0.00635776429566725" flag="0"/>
			<psa30 value="0.00139817730988347" flag="0"/>
		</comp>
	</station>
	<station code="CH01" name="CH01" netid="HI" source="ITSAK Strong Motion Network" insttype="" lat="35.517" lon="24.0208">
		<comp name=".HNE" depth="0.0">
			<acc value="0.37166965349562" flag="0"/>
			<vel value="0.324587738628" flag="0"/>
			<psa03 value="1.20197954191306" flag="0"/>
			<psa10 value="0.66809139777434" flag="0"/>
			<psa30 value="0.0311646545054272" flag="0"/>
		</comp>
		<comp name=".HNN" depth="0.0">
			<acc value="0.55333333179546" flag="0"/>
			<vel value="0.476003757636" flag="0"/>
			<psa03 value="1.39523667758334" flag="0"/>
			<psa10 value="0.646403801078541" flag="0"/>
			<psa30 value="0.0381283891519943" flag="0"/>
		</comp>
		<comp name=".HNZ" depth="0.0">
			<acc value="0.28462466898546" flag="0"/>
			<vel value="0.387045552931" flag="0"/>
			<psa03 value="0.577580428534722" flag="0"/>
			<psa10 value="0.929141571068878" flag="0"/>
			<psa30 value="0.0279859405978877" flag="0"/>
		</comp>
	</station>
	<station code="GOR1" name="GOR1" netid="HI" source="ITSAK Strong Motion Network" insttype="" lat="35.0582" lon="24.9628">
		<comp name=".HNE" depth="0.0">
			<acc value="0.2221942349193" flag="0"/>
			<vel value="0.154525952281" flag="0"/>
			<psa03 value="0.815624864479918" flag="0"/>
			<psa10 value="0.216452188895368" flag="0"/>
			<psa30 value="0.0363416107866922" flag="0"/>
		</comp>
		<comp name=".HNN" depth="0.0">
			<acc value="0.1886185038309" flag="0"/>
			<vel value="0.1803490894" flag="0"/>
			<psa03 value="0.647637652817883" flag="0"/>
			<psa10 value="0.259953390636386" flag="0"/>
			<psa30 value="0.036370522701957" flag="0"/>
		</comp>
		<comp name=".HNZ" depth="0.0">
			<acc value="0.20264489199072" flag="0"/>
			<vel value="0.124529793454" flag="0"/>
			<psa03 value="0.517013249592597" flag="0"/>
			<psa10 value="0.17749679829161" flag="0"/>
			<psa30 value="0.0167420990819032" flag="0"/>
		</comp>
	</station>
	<station code="HER1" name="HER1" netid="HI" source="ITSAK Strong Motion Network" insttype="" lat="35.317672" lon="25.10217">
		<comp name=".HNE" depth="0.0">
			<acc value="0.3202143057015" flag="0"/>
			<vel value="0.490899875207" flag="0"/>
			<psa03 value="0.715197878347591" flag="0"/>
			<psa10 value="0.997605086438998" flag="0"/>
			<psa30 value="0.0526259428771346" flag="0"/>
		</comp>
		<comp name=".HNN" depth="0.0">
			<acc value="0.33890853068046" flag="0"/>
			<vel value="0.48233119379" flag="0"/>
			<psa03 value="0.748648844313315" flag="0"/>
			<psa10 value="0.877116024630577" flag="0"/>
			<psa30 value="0.0405243645402555" flag="0"/>
		</comp>
		<comp name=".HNZ" depth="0.0">
			<acc value="0.29736129562776" flag="0"/>
			<vel value="0.303250471372" flag="0"/>
			<psa03 value="0.494567137647424" flag="0"/>
			<psa10 value="0.457039446620538" flag="0"/>
			<psa30 value="0.0224469253319571" flag="0"/>
		</comp>
	</station>
	<station code="HER3" name="HER3" netid="HI" source="ITSAK Strong Motion Network" insttype="" lat="35.3296" lon="25.1065">
		<comp name=".HNE" depth="0.0">
			<acc value="0.3696710999604" flag="0"/>
			<vel value="0.376036159887" flag="0"/>
			<psa03 value="1.31823465991175" flag="0"/>
			<psa10 value="0.870793405788092" flag="0"/>
			<psa30 value="0.0401930325911713" flag="0"/>
		</comp>
		<comp name=".HNN" depth="0.0">
			<acc value="0.38689022801832" flag="0"/>
			<vel value="0.384042262457" flag="0"/>
			<psa03 value="1.1638196806758" flag="0"/>
			<psa10 value="0.858780730010038" flag="0"/>
			<psa30 value="0.0427405213497782" flag="0"/>
		</comp>
		<comp name=".HNZ" depth="0.0">
			<acc value="0.22527371475588" flag="0"/>
			<vel value="0.1509438877" flag="0"/>
			<psa03 value="0.509276945432877" flag="0"/>
			<psa10 value="0.278892415253684" flag="0"/>
			<psa30 value="0.0195179346340317" flag="0"/>
		</comp>
	</station>
	<station code="KSS1" name="KSS1" netid="HI" source="ITSAK Strong Motion Network" insttype="" lat="35.4189" lon="26.9207">
		<comp name=".HNE" depth="0.0">
			<acc value="0.0073496947978938" flag="0"/>
			<vel value="0.00766919408695" flag="0"/>
			<psa03 value="0.0398512076552725" flag="0"/>
			<psa10 value="0.00853104263970732" flag="0"/>
			<psa30 value="0.00369039822076848" flag="0"/>
		</comp>
		<comp name=".HNN" depth="0.0">
			<acc value="0.0082995511594134" flag="0"/>
			<vel value="0.00671825872556" flag="0"/>
			<psa03 value="0.027614298061734" flag="0"/>
			<psa10 value="0.0113647191068593" flag="0"/>
			<psa30 value="0.00393927804117038" flag="0"/>
		</comp>
		<comp name=".HNZ" depth="0.0">
			<acc value="0.0046755797057052" flag="0"/>
			<vel value="0.00729381969128" flag="0"/>
			<psa03 value="0.0116115621777754" flag="0"/>
			<psa10 value="0.00859162321537438" flag="0"/>
			<psa30 value="0.00319867231300749" flag="0"/>
		</comp>
	</station>
	<station code="KTL1" name="KTL1" netid="HI" source="ITSAK Strong Motion Network" insttype="" lat="35.20778" lon="25.34272">
		<comp name=".HNE" depth="0.0">
			<acc value="0.081314979292986" flag="0"/>
			<vel value="0.0935639941498" flag="0"/>
			<psa03 value="0.212949231841703" flag="0"/>
			<psa10 value="0.11678471641413" flag="0"/>
			<psa30 value="0.0124360738288719" flag="0"/>
		</comp>
		<comp name=".HNN" depth="0.0">
			<acc value="0.089975919881262" flag="0"/>
			<vel value="0.0801711783855" flag="0"/>
			<psa03 value="0.32850824122528" flag="0"/>
			<psa10 value="0.0832440245081033" flag="0"/>
			<psa30 value="0.01386792534865" flag="0"/>
		</comp>
		<comp name=".HNZ" depth="0.0">
			<acc value="0.05202881494149" flag="0"/>
			<vel value="0.0377961525016" flag="0"/>
			<psa03 value="0.13714999176375" flag="0"/>
			<psa10 value="0.0608345424896872" flag="0"/>
			<psa30 value="0.00509169146625092" flag="0"/>
		</comp>
	</station>
	<station code="NAX1" name="NAX1" netid="HI" source="ITSAK Strong Motion Network" insttype="" lat="37.101394" lon="25.374103">
		<comp name=".HNE" depth="0.0">
			<acc value="0.0064549434439386" flag="0"/>
			<vel value="0.00752790173518" flag="0"/>
			<psa03 value="0.0126449249037932" flag="0"/>
			<psa10 value="0.0112449361718407" flag="0"/>
			<psa30 value="0.0033833599643275" flag="0"/>
		</comp>
		<comp name=".HNN" depth="0.0">
			<acc value="0.0065389307652402" flag="0"/>
			<vel value="0.00581140571237" flag="0"/>
			<psa03 value="0.0216233530139139" flag="0"/>
			<psa10 value="0.010171876649395" flag="0"/>
			<psa30 value="0.00208405930870109" flag="0"/>
		</comp>
		<comp name=".HNZ" depth="0.0">
			<acc value="0.0055802883003948" flag="0"/>
			<vel value="0.00785534070461" flag="0"/>
			<psa03 value="0.0141446635770312" flag="0"/>
			<psa10 value="0.0100446579092699" flag="0"/>
			<psa30 value="0.00271944369146524" flag="0"/>
		</comp>
	</station>
	<station code="PYL1" name="PYL1" netid="HI" source="ITSAK Strong Motion Network" insttype="" lat="36.914188" lon="21.695161">
		<comp name=".HNE" depth="0.0">
			<acc value="0.0049457016419592" flag="0"/>
			<vel value="0.0128120768822" flag="0"/>
			<psa03 value="0.0127349451900984" flag="0"/>
			<psa10 value="0.017575344280297" flag="0"/>
			<psa30 value="0.00604091393091833" flag="0"/>
		</comp>
		<comp name=".HNN" depth="0.0">
			<acc value="0.005960283126804" flag="0"/>
			<vel value="0.0112135074822" flag="0"/>
			<psa03 value="0.00970214792799591" flag="0"/>
			<psa10 value="0.0114949427335317" flag="0"/>
			<psa30 value="0.00711360957506908" flag="0"/>
		</comp>
		<comp name=".HNZ" depth="0.0">
			<acc value="0.0036957281628246" flag="0"/>
			<vel value="0.00774363760156" flag="0"/>
			<psa03 value="0.00837412570828138" flag="0"/>
			<psa10 value="0.0100260519892324" flag="0"/>
			<psa30 value="0.00394611974439848" flag="0"/>
		</comp>
	</station>
	<station code="RTH1" name="RTH1" netid="HI" source="ITSAK Strong Motion Network" insttype="" lat="35.365393" lon="24.471773">
		<comp name=".HNE" depth="0.0">
			<acc value="0.54622664132652" flag="0"/>
			<vel value="0.368572402841" flag="0"/>
			<psa03 value="1.51122411117897" flag="0"/>
			<psa10 value="0.248033150978876" flag="0"/>
			<psa30 value="0.0152622910518937" flag="0"/>
		</comp>
		<comp name=".HNN" depth="0.0">
			<acc value="0.52426434420462" flag="0"/>
			<vel value="0.304621032453" flag="0"/>
			<psa03 value="2.22592078966357" flag="0"/>
			<psa10 value="0.260499756830261" flag="0"/>
			<psa30 value="0.0164307284551075" flag="0"/>
		</comp>
		<comp name=".HNZ" depth="0.0">
			<acc value="0.31379432973276" flag="0"/>
			<vel value="0.128668974147" flag="0"/>
			<psa03 value="0.78447121736769" flag="0"/>
			<psa10 value="0.0879250020997411" flag="0"/>
			<psa30 value="0.0196998783535814" flag="0"/>
		</comp>
	</station>
	<station code="ANKY" name="ANKY" netid="HL" source="National Observatory of Athens Seismic Network" insttype="" lat="35.86704" lon="23.30117">
		<comp name="00.HNE" depth="0.0">
			<acc value="0.056062619682192" flag="0"/>
			<vel value="0.0801923659159" flag="0"/>
			<psa03 value="0.133360282380928" flag="0"/>
			<psa10 value="0.124473490757829" flag="0"/>
			<psa30 value="0.0167944525500749" flag="0"/>
		</comp>
		<comp name="00.HNN" depth="0.0">
			<acc value="0.062379787899978" flag="0"/>
			<vel value="0.0727809097767" flag="0"/>
			<psa03 value="0.148983442338459" flag="0"/>
			<psa10 value="0.160334851396921" flag="0"/>
			<psa30 value="0.0109069858676262" flag="0"/>
		</comp>
		<comp name="00.HNZ" depth="0.0">
			<acc value="0.036886250460144" flag="0"/>
			<vel value="0.0336227688161" flag="0"/>
			<psa03 value="0.0922721646613697" flag="0"/>
			<psa10 value="0.0472743116913146" flag="0"/>
			<psa30 value="0.00741703967579108" flag="0"/>
		</comp>
	</station>
	<station code="IACM" name="IACM" netid="HL" source="National Observatory of Athens Seismic Network" insttype="" lat="35.3058" lon="25.0709">
		<comp name=".HNE" depth="0.0">
			<acc value="0.42295772401416" flag="0"/>
			<vel value="0.351821907245" flag="0"/>
			<psa03 value="1.40632482878292" flag="0"/>
			<psa10 value="0.737862039737409" flag="0"/>
			<psa30 value="0.0323157107572395" flag="0"/>
		</comp>
		<comp name=".HNN" depth="0.0">
			<acc value="0.39918764781978" flag="0"/>
			<vel value="0.390265185668" flag="0"/>
			<psa03 value="1.12225384380955" flag="0"/>
			<psa10 value="0.598193667393931" flag="0"/>
			<psa30 value="0.0318562836557765" flag="0"/>
		</comp>
		<comp name=".HNZ" depth="0.0">
			<acc value="0.3012519919479" flag="0"/>
			<vel value="0.195826141272" flag="0"/>
			<psa03 value="0.805024412249599" flag="0"/>
			<psa10 value="0.265190297555549" flag="0"/>
			<psa30 value="0.0250782013077613" flag="0"/>
		</comp>
	</station>
	<station code="IMMV" name="IMMV" netid="HL" source="National Observatory of Athens Seismic Network" insttype="" lat="35.4606" lon="23.9811">
		<comp name=".HNE" depth="0.0">
			<acc value="1.1281450684278" flag="0"/>
			<vel value="0.889896858616" flag="0"/>
			<psa03 value="2.51434422963401" flag="0"/>
			<psa10 value="0.743325881690166" flag="0"/>
			<psa30 value="0.0440271932521534" flag="0"/>
		</comp>
		<comp name=".HNN" depth="0.0">
			<acc value="1.564738619655" flag="0"/>
			<vel value="0.840864923876" flag="0"/>
			<psa03 value="3.50341675083149" flag="0"/>
			<psa10 value="0.505037856280568" flag="0"/>
			<psa30 value="0.0334729507520245" flag="0"/>
		</comp>
		<comp name=".HNZ" depth="0.0">
			<acc value="0.5303059281336" flag="0"/>
			<vel value="0.432760435154" flag="0"/>
			<psa03 value="1.29622045157871" flag="0"/>
			<psa10 value="0.451861853628457" flag="0"/>
			<psa30 value="0.023908898847226" flag="0"/>
		</comp>
	</station>
	<station code="MNVA" name="MNVA" netid="HL" source="National Observatory of Athens Seismic Network" insttype="" lat="36.68709" lon="23.03734">
		<comp name="00.HNE" depth="0.0">
			<acc value="0.014682278772876" flag="0"/>
			<vel value="0.0196858429537" flag="0"/>
			<psa03 value="0.0390283041835991" flag="0"/>
			<psa10 value="0.033579041946738" flag="0"/>
			<psa30 value="0.00493282344200285" flag="0"/>
		</comp>
		<comp name="00.HNN" depth="0.0">
			<acc value="0.0092380846720074" flag="0"/>
			<vel value="0.0120680683319" flag="0"/>
			<psa03 value="0.0220338971375347" flag="0"/>
			<psa10 value="0.0184087976174851" flag="0"/>
			<psa30 value="0.00650350832549219" flag="0"/>
		</comp>
