<stationlist xmlns:esm="https://esm-db.eu/esmws/shakemap/1/" created="1783994178">
	<station code="ROD3" name="ROD3" netid="CL" source="Corinth Riff Laboratory (CRLNET)" insttype="" lat="38.30811" lon="21.89204" esm:processing="manual (Paolucci et al 2011)" esm:quality="good">
		<comp name="00.HNE" depth="0.0">
			<acc value="0.0210860694090988" flag="0"/>
			<vel value="0.0117743119125584" flag="0"/>
			<psa03 value="0.112168711992007" flag="0"/>
			<psa10 value="0.0149112351996714" flag="0"/>
			<psa30 value="0.0022133969614059" flag="0"/>
		</comp>
		<comp name="00.HNN" depth="0.0">
			<acc value="0.0182823984970298" flag="0"/>
			<vel value="0.0124494880057728" flag="0"/>
			<psa03 value="0.073600929887057" flag="0"/>
			<psa10 value="0.0142911082159422" flag="0"/>
			<psa30 value="0.00247603371425516" flag="0"/>
		</comp>
		<comp name="00.HNZ" depth="0.0">
			<acc value="0.0088556587717334" flag="0"/>
			<vel value="0.00548930606480052" flag="0"/>
			<psa03 value="0.0359727341210905" flag="0"/>
			<psa10 value="0.0102522292245108" flag="0"/>
			<psa30 value="0.00112123969785389" flag="0"/>
		</comp>
	</station>
	<station code="ARG2" name="ARG2" netid="HI" source="ITSAK Strong Motion Network" insttype="" lat="38.1783" lon="20.4878" esm:processing="manual (Paolucci et al 2011)" esm:quality="good">
		<comp name="--.HNE" depth="0.0">
			<acc value="0.0990189743982182" flag="0"/>
			<vel value="0.0406121306580094" flag="0"/>
			<psa03 value="0.167514821578809" flag="0"/>
			<psa10 value="0.0304305169872852" flag="0"/>
			<psa30 value="0.00757440815840722" flag="0"/>
		</comp>
		<comp name="--.HNN" depth="0.0">
			<acc value="0.0795905941650919" flag="0"/>
			<vel value="0.0247663049105765" flag="0"/>
			<psa03 value="0.148365157146189" flag="0"/>
			<psa10 value="0.0317835213154217" flag="0"/>
			<psa30 value="0.0059363959741123" flag="0"/>
		</comp>
		<comp name="--.HNZ" depth="0.0">
			<acc value="0.0506930245582851" flag="0"/>
			<vel value="0.0192076446593196" flag="0"/>
			<psa03 value="0.125904569423817" flag="0"/>
			<psa10 value="0.0111340981169569" flag="0"/>
			<psa30 value="0.00458115453564484" flag="0"/>
		</comp>
	</station>
	<station code="KLV1" name="KLV1" netid="HI" source="ITSAK Strong Motion Network" insttype="" lat="38.03256" lon="22.10797" esm:processing="manual (Paolucci et al 2011)" esm:quality="good">
		<comp name="--.HNE" depth="0.0">
			<acc value="0.0116257824559895" flag="0"/>
			<vel value="0.00798247461518955" flag="0"/>
			<psa03 value="0.0485452941808249" flag="0"/>
			<psa10 value="0.00984954936494634" flag="0"/>
			<psa30 value="0.00268676950742722" flag="0"/>
		</comp>
		<comp name="--.HNN" depth="0.0">
			<acc value="0.00910497940783288" flag="0"/>
			<vel value="0.00836819925981691" flag="0"/>
			<psa03 value="0.0366438672203646" flag="0"/>
			<psa10 value="0.0118347610725991" flag="0"/>
			<psa30 value="0.00171675846794309" flag="0"/>
		</comp>
		<comp name="--.HNZ" depth="0.0">
			<acc value="0.00464022904162968" flag="0"/>
			<vel value="0.00442579613042631" flag="0"/>
			<psa03 value="0.0130199821259171" flag="0"/>
			<psa10 value="0.00916096680509114" flag="0"/>
			<psa30 value="0.00182056038729748" flag="0"/>
		</comp>
	</station>
	<station code="KRI1" name="KRI1" netid="HI" source="ITSAK Strong Motion Network" insttype="" lat="37.6621" lon="20.8172" esm:processing="manual (Paolucci et al 2011)" esm:quality="good">
		<comp name="--.HNE" depth="0.0">
			<acc value="0.27046765094063" flag="0"/>
			<vel value="0.0735130771760294" flag="0"/>
			<psa03 value="0.43028580104792" flag="0"/>
			<psa10 value="0.0466343545361585" flag="0"/>
			<psa30 value="0.0131662891415588" flag="0"/>
		</comp>
		<comp name="--.HNN" depth="0.0">
			<acc value="0.174673232113947" flag="0"/>
			<vel value="0.0958854747023223" flag="0"/>
			<psa03 value="0.531940094484633" flag="0"/>
			<psa10 value="0.0812527420629139" flag="0"/>
			<psa30 value="0.0159255410237076" flag="0"/>
		</comp>
		<comp name="--.HNZ" depth="0.0">
			<acc value="0.129753712883176" flag="0"/>
			<vel value="0.0375825865333779" flag="0"/>
			<psa03 value="0.182861398448877" flag="0"/>
			<psa10 value="0.0388304188577995" flag="0"/>
			<psa30 value="0.00986744624759365" flag="0"/>
		</comp>
	</station>
	<station code="PYL1" name="PYL1" netid="HI" source="ITSAK Strong Motion Network" insttype="" lat="36.914188" lon="21.695161" esm:processing="manual (Paolucci et al 2011)" esm:quality="best">
		<comp name="--.HNE" depth="0.0">
			<acc value="0.0266646643163198" flag="0"/>
			<vel value="0.0129020030726128" flag="0"/>
			<psa03 value="0.0707821708701059" flag="0"/>
			<psa10 value="0.0117300643091123" flag="0"/>
			<psa30 value="0.00338340566447371" flag="0"/>
		</comp>
		<comp name="--.HNN" depth="0.0">
			<acc value="0.0236044552160537" flag="0"/>
			<vel value="0.009360503677003" flag="0"/>
			<psa03 value="0.0407154080226273" flag="0"/>
			<psa10 value="0.0102844436132759" flag="0"/>
			<psa30 value="0.00296775056498996" flag="0"/>
		</comp>
		<comp name="--.HNZ" depth="0.0">
			<acc value="0.0142639731904331" flag="0"/>
			<vel value="0.00567773670298315" flag="0"/>
			<psa03 value="0.0272927460371458" flag="0"/>
			<psa10 value="0.00652744052353967" flag="0"/>
			<psa30 value="0.00204874564105066" flag="0"/>
		</comp>
	</station>
	<station code="ITM" name="ITM" netid="HL" source="National Observatory of Athens Seismic Network" insttype="" lat="37.17872" lon="21.92522" esm:processing="manual (Paolucci et al 2011)" esm:quality="good">
		<comp name="--.HNE" depth="0.0">
			<acc value="0.0206521013636153" flag="0"/>
			<vel value="0.0128994410233213" flag="0"/>
			<psa03 value="0.0448248340085975" flag="0"/>
			<psa10 value="0.0121499198725628" flag="0"/>
			<psa30 value="0.00402303317287034" flag="0"/>
		</comp>
		<comp name="--.HNN" depth="0.0">
			<acc value="0.0247032718127217" flag="0"/>
			<vel value="0.0100632304766591" flag="0"/>
			<psa03 value="0.0554993588518139" flag="0"/>
			<psa10 value="0.017798581568678" flag="0"/>
			<psa30 value="0.00432958848065499" flag="0"/>
		</comp>
		<comp name="--.HNZ" depth="0.0">
			<acc value="0.0109560096957752" flag="0"/>
			<vel value="0.00720877966175145" flag="0"/>
			<psa03 value="0.0244961513956424" flag="0"/>
			<psa10 value="0.0101996041112153" flag="0"/>
			<psa30 value="0.00289570495124164" flag="0"/>
		</comp>
	</station>
	<station code="LXRA" name="LXRA" netid="HL" source="National Observatory of Athens Seismic Network" insttype="" lat="38.20006" lon="20.43718" esm:processing="manual (Paolucci et al 2011)" esm:quality="good">
		<comp name="00.HNE" depth="0.0">
			<acc value="0.0802207126474003" flag="0"/>
			<vel value="0.0510187794368282" flag="0"/>
			<psa03 value="0.224970569862822" flag="0"/>
			<psa10 value="0.0840369020323279" flag="0"/>
			<psa30 value="0.0189921098007325" flag="0"/>
		</comp>
		<comp name="00.HNN" depth="0.0">
			<acc value="0.0858448469752674" flag="0"/>
			<vel value="0.0453000173721246" flag="0"/>
			<psa03 value="0.18720169286008" flag="0"/>
			<psa10 value="0.0663679740525638" flag="0"/>
			<psa30 value="0.016570582719781" flag="0"/>
		</comp>
		<comp name="00.HNZ" depth="0.0">
			<acc value="0.0627092624938798" flag="0"/>
			<vel value="0.0236811839328772" flag="0"/>
			<psa03 value="0.0771456626048696" flag="0"/>
			<psa10 value="0.033852690074577" flag="0"/>
			<psa30 value="0.00557323794966213" flag="0"/>
		</comp>
	</station>
	<station code="PATC" name="PATC" netid="HL" source="National Observatory of Athens Seismic Network" insttype="" lat="38.26933" lon="21.76001" esm:processing="manual (Paolucci et al 2011)" esm:quality="good">
		<comp name="00.HNE" depth="0.0">
			<acc value="0.0176349591590418" flag="0"/>
			<vel value="0.0243909882928307" flag="0"/>
			<psa03 value="0.0653640071280156" flag="0"/>
			<psa10 value="0.0354972265170454" flag="0"/>
			<psa30 value="0.00825519269933528" flag="0"/>
		</comp>
		<comp name="00.HNN" depth="0.0">
			<acc value="0.017004260945575" flag="0"/>
			<vel value="0.022166760015132" flag="0"/>
			<psa03 value="0.0420758133578042" flag="0"/>
			<psa10 value="0.033216164157859" flag="0"/>
			<psa30 value="0.0132439165111378" flag="0"/>
		</comp>
		<comp name="00.HNZ" depth="0.0">
			<acc value="0.0129669692032332" flag="0"/>
			<vel value="0.0119367609762889" flag="0"/>
			<psa03 value="0.0246643943117432" flag="0"/>
			<psa10 value="0.018703550268413" flag="0"/>
			<psa30 value="0.00318679465117233" flag="0"/>
		</comp>
	</station>
	<station code="PATG" name="PATG" netid="HL" source="National Observatory of Athens Seismic Network" insttype="" lat="38.23865" lon="21.72657" esm:processing="manual (Paolucci et al 2011)" esm:quality="good">
		<comp name="00.HNE" depth="0.0">
			<acc value="0.0206649943610255" flag="0"/>
			<vel value="0.0289941000683807" flag="0"/>
			<psa03 value="0.0446544893907693" flag="0"/>
			<psa10 value="0.037405851704097" flag="0"/>
			<psa30 value="0.0123332495172521" flag="0"/>
		</comp>
		<comp name="00.HNN" depth="0.0">
			<acc value="0.019407173021833" flag="0"/>
			<vel value="0.0301868169766564" flag="0"/>
			<psa03 value="0.0649912636855919" flag="0"/>
			<psa10 value="0.0486056611365061" flag="0"/>
			<psa30 value="0.0206844602439771" flag="0"/>
		</comp>
		<comp name="00.HNZ" depth="0.0">
			<acc value="0.0110987233880168" flag="0"/>
			<vel value="0.0174379502281254" flag="0"/>
			<psa03 value="0.0270170892287351" flag="0"/>
			<psa10 value="0.0308140625304151" flag="0"/>
			<psa30 value="0.00902739635403762" flag="0"/>
		</comp>
	</station>
	<station code="RIOA" name="RIOA" netid="HL" source="National Observatory of Athens Seismic Network" insttype="" lat="38.29585" lon="21.79118" esm:processing="manual (Paolucci et al 2011)" esm:quality="good">
		<comp name="00.HNE" depth="0.0">
			<acc value="0.0100724866073882" flag="0"/>
			<vel value="0.0131475013569539" flag="0"/>
			<psa03 value="0.023545986889407" flag="0"/>
			<psa10 value="0.0167994235043599" flag="0"/>
			<psa30 value="0.007604489593448" flag="0"/>
		</comp>
		<comp name="00.HNN" depth="0.0">
			<acc value="0.00896909277732871" flag="0"/>
			<vel value="0.0154476373953062" flag="0"/>
			<psa03 value="0.0231642897288434" flag="0"/>
			<psa10 value="0.0152486432727804" flag="0"/>
			<psa30 value="0.00554032618608598" flag="0"/>
		</comp>
		<comp name="00.HNZ" depth="0.0">
			<acc value="0.0154592982771906" flag="0"/>
			<vel value="0.00886238050184823" flag="0"/>
			<psa03 value="0.0281532139705901" flag="0"/>
			<psa10 value="0.0166432744102487" flag="0"/>
			<psa30 value="0.00342062514129472" flag="0"/>
		</comp>
	</station>
	<station code="ARS1" name="ARS1" netid="HI" source="ITSAK Strong Motion Network" insttype="" lat="37.6349" lon="22.7293" esm:processing="discarded" esm:quality="good">
		<comp name="--.HNE" depth="0.0">
			<acc value="0" flag="1"/>
			<vel value="0" flag="1"/>
			<psa03 value="0" flag="1"/>
			<psa10 value="0" flag="1"/>
			<psa30 value="0" flag="1"/>
		</comp>
		<comp name="--.HNN" depth="0.0">
			<acc value="0" flag="1"/>
			<vel value="0" flag="1"/>
			<psa03 value="0" flag="1"/>
			<psa10 value="0" flag="1"/>
			<psa30 value="0" flag="1"/>
		</comp>
		<comp name="--.HNZ" depth="0.0">
			<acc value="0" flag="1"/>
			<vel value="0" flag="1"/>
			<psa03 value="0" flag="1"/>
			<psa10 value="0" flag="1"/>
			<psa30 value="0" flag="1"/>
		</comp>
	</station>
	<station code="ART2" name="ART2" netid="HI" source="ITSAK Strong Motion Network" insttype="" lat="39.1474" lon="20.9937" esm:processing="discarded" esm:quality="bad">
		<comp name="--.HNE" depth="0.0">
			<acc value="0" flag="1"/>
			<vel value="0" flag="1"/>
			<psa03 value="0" flag="1"/>
			<psa10 value="0" flag="1"/>
			<psa30 value="0" flag="1"/>
		</comp>
		<comp name="--.HNN" depth="0.0">
			<acc value="0" flag="1"/>
			<vel value="0" flag="1"/>
			<psa03 value="0" flag="1"/>
			<psa10 value="0" flag="1"/>
			<psa30 value="0" flag="1"/>
		</comp>
		<comp name="--.HNZ" depth="0.0">
			<acc value="0" flag="1"/>
			<vel value="0" flag="1"/>
			<psa03 value="0" flag="1"/>
			<psa10 value="0" flag="1"/>
			<psa30 value="0" flag="1"/>
		</comp>
	</station>
	<station code="DLFA" name="DLFA" netid="HL" source="National Observatory of Athens Seismic Network" insttype="" lat="38.47836" lon="22.49583" esm:processing="discarded" esm:quality="bad">
		<comp name="00.HNE" depth="0.0">
			<acc value="0" flag="1"/>
			<vel value="0" flag="1"/>
			<psa03 value="0" flag="1"/>
			<psa10 value="0" flag="1"/>
			<psa30 value="0" flag="1"/>
		</comp>
		<comp name="00.HNN" depth="0.0">
			<acc value="0" flag="1"/>
			<vel value="0" flag="1"/>
			<psa03 value="0" flag="1"/>
			<psa10 value="0" flag="1"/>
			<psa30 value="0" flag="1"/>
		</comp>
		<comp name="00.HNZ" depth="0.0">
			<acc value="0" flag="1"/>
			<vel value="0" flag="1"/>
			<psa03 value="0" flag="1"/>
			<psa10 value="0" flag="1"/>
			<psa30 value="0" flag="1"/>
		</comp>
	</station>
	<station code="MNVA" name="MNVA" netid="HL" source="National Observatory of Athens Seismic Network" insttype="" lat="36.68709" lon="23.03734" esm:processing="discarded" esm:quality="bad">
		<comp name="00.HNE" depth="0.0">
			<acc value="0" flag="1"/>
			<vel value="0" flag="1"/>
			<psa03 value="0" flag="1"/>
			<psa10 value="0" flag="1"/>
			<psa30 value="0" flag="1"/>
		</comp>
		<comp name="00.HNN" depth="0.0">
			<acc value="0" flag="1"/>
			<vel value="0" flag="1"/>
			<psa03 value="0" flag="1"/>
			<psa10 value="0" flag="1"/>
			<psa30 value="0" flag="1"/>
		</comp>
		<comp name="00.HNZ" depth="0.0">
			<acc value="0" flag="1"/>
			<vel value="0" flag="1"/>
			<psa03 value="0" flag="1"/>
			<psa10 value="0" flag="1"/>
			<psa30 value="0" flag="1"/>
		</comp>
	</station>
</stationlist>
