<?xml version="1.0" encoding="UTF-8" standalone="yes"?>
<!DOCTYPE earthquake SYSTEM "stationlist.dtd">
<stationlist created="" xmlns="ch.ethz.sed.shakemap.usgs.xml">
  <station code="KRI1" name="KRI1" netid="HI" source="NOA" insttype="CMG-5TD,ACCELEROMETER,GURALP" lat="37.6621" lon="20.8172">
    <comp name="--.HNE">
      <acc value="0.2715285755" flag="0"/>
      <vel value="0.0725143459" flag="0"/>
      <psa03 value="0.4323148149" flag="0"/>
      <psa10 value="0.0470213538" flag="0"/>
      <psa30 value="0.0085579626" flag="0"/>
    </comp>
    <comp name="--.HNN">
      <acc value="0.1774442298" flag="0"/>
      <vel value="0.0944124383" flag="0"/>
      <psa03 value="0.5335954013" flag="0"/>
      <psa10 value="0.0811326080" flag="0"/>
      <psa30 value="0.0132617539" flag="0"/>
    </comp>
    <comp name="--.HNZ">
      <acc value="0.1311125423" flag="0"/>
      <vel value="0.0365324516" flag="0"/>
      <psa03 value="0.1849605331" flag="0"/>
      <psa10 value="0.0387218466" flag="0"/>
      <psa30 value="0.0076248478" flag="0"/>
    </comp>
  </station>
  <station code="PYL1" name="PYL1" netid="HI" source="NOA" insttype="CMG-5TD,ACCELEROMETER,GURALP" lat="36.9142" lon="21.6952">
    <comp name="--.HNE">
      <acc value="0.0264385414" flag="0"/>
      <vel value="0.0125768912" flag="0"/>
      <psa03 value="0.0709328112" flag="0"/>
      <psa10 value="0.0116159251" flag="0"/>
      <psa30 value="0.0029091724" flag="0"/>
    </comp>
    <comp name="--.HNN">
      <acc value="0.0236691115" flag="0"/>
      <vel value="0.0095474682" flag="0"/>
      <psa03 value="0.0408468711" flag="0"/>
      <psa10 value="0.0102684055" flag="0"/>
      <psa30 value="0.0023864094" flag="0"/>
    </comp>
    <comp name="--.HNZ">
      <acc value="0.0143318129" flag="0"/>
      <vel value="0.0048654485" flag="0"/>
      <psa03 value="0.0275941630" flag="0"/>
      <psa10 value="0.0064773327" flag="0"/>
      <psa30 value="0.0017553939" flag="0"/>
    </comp>
  </station>
  <station code="ITM" name="ITM" netid="HL" source="NOA" insttype="DR24" lat="37.1787" lon="21.9252">
    <comp name="--.HHE">
      <acc value="0.0212743701" flag="0"/>
      <vel value="0.0116577037" flag="0"/>
      <psa03 value="0.0456093675" flag="0"/>
      <psa10 value="0.0124157205" flag="0"/>
      <psa30 value="0.0037548889" flag="0"/>
    </comp>
    <comp name="--.HHN">
      <acc value="0.0246978872" flag="0"/>
      <vel value="0.0092955630" flag="0"/>
      <psa03 value="0.0564082298" flag="0"/>
      <psa10 value="0.0182650123" flag="0"/>
      <psa30 value="0.0040126006" flag="0"/>
    </comp>
    <comp name="--.HHZ">
      <acc value="0.0117012518" flag="0"/>
      <vel value="0.0071133364" flag="0"/>
      <psa03 value="0.0262283244" flag="0"/>
      <psa10 value="0.0110498435" flag="0"/>
      <psa30 value="0.0026792904" flag="0"/>
    </comp>
  </station>
  <station code="RLS" name="RLS" netid="HL" source="NOA" insttype="120" lat="38.0559" lon="21.4647">
    <comp name="--.HHE">
      <acc value="0.0112721903" flag="0"/>
      <vel value="0.0085132024" flag="0"/>
      <psa03 value="0.0298549081" flag="0"/>
      <psa10 value="0.0100012808" flag="0"/>
      <psa30 value="0.0020758379" flag="0"/>
    </comp>
    <comp name="--.HHN">
      <acc value="0.0119559358" flag="0"/>
      <vel value="0.0081650833" flag="0"/>
      <psa03 value="0.0300085451" flag="0"/>
      <psa10 value="0.0129850784" flag="0"/>
      <psa30 value="0.0017060520" flag="0"/>
    </comp>
    <comp name="--.HHZ">
      <acc value="0.0073225045" flag="0"/>
      <vel value="0.0050704782" flag="0"/>
      <psa03 value="0.0257465718" flag="0"/>
      <psa10 value="0.0080480873" flag="0"/>
      <psa30 value="0.0020627680" flag="0"/>
    </comp>
  </station>
  <station code="VLS" name="VLS" netid="HL" source="NOA" insttype="120P," lat="38.1768" lon="20.5886">
    <comp name="--.HHE">
      <acc value="0.1088525181" flag="0"/>
      <vel value="0.0225148647" flag="0"/>
      <psa03 value="0.0676156018" flag="0"/>
      <psa10 value="0.0186795703" flag="0"/>
      <psa30 value="0.0053638641" flag="0"/>
    </comp>
    <comp name="--.HHN">
      <acc value="0.0930907644" flag="0"/>
      <vel value="0.0216661467" flag="0"/>
      <psa03 value="0.0797133026" flag="0"/>
      <psa10 value="0.0202226376" flag="0"/>
      <psa30 value="0.0024117844" flag="0"/>
    </comp>
    <comp name="--.HHZ">
      <acc value="0.0557271176" flag="0"/>
      <vel value="0.0142433416" flag="0"/>
      <psa03 value="0.0615425609" flag="0"/>
      <psa10 value="0.0099866879" flag="0"/>
      <psa30 value="0.0018280534" flag="0"/>
    </comp>
  </station>
  <station code="AMT" name="AMT" netid="HP" source="NOA" insttype="CMG-3T," lat="37.5324" lon="21.7089">
    <comp name="00.HHE">
      <acc value="0.0516702229" flag="0"/>
      <vel value="0.0309358542" flag="0"/>
      <psa03 value="0.2380483280" flag="0"/>
      <psa10 value="0.0604565968" flag="0"/>
      <psa30 value="0.0064213121" flag="0"/>
    </comp>
    <comp name="00.HHN">
      <acc value="0.0801532954" flag="0"/>
      <vel value="0.0362587679" flag="0"/>
      <psa03 value="0.1567111831" flag="0"/>
      <psa10 value="0.0565900578" flag="0"/>
      <psa30 value="0.0090875574" flag="0"/>
    </comp>
    <comp name="00.HHZ">
      <acc value="0.0302584533" flag="0"/>
      <vel value="0.0149027574" flag="0"/>
      <psa03 value="0.0762739078" flag="0"/>
      <psa10 value="0.0270655080" flag="0"/>
      <psa30 value="0.0026698197" flag="0"/>
    </comp>
  </station>
  <station code="AXS" name="AXS" netid="HP" source="NOA" insttype="40," lat="38.1962" lon="21.3763">
    <comp name="--.HHE">
      <acc value="0.0069875318" flag="0"/>
      <vel value="0.0044934641" flag="0"/>
      <psa03 value="0.0123998679" flag="0"/>
      <psa10 value="0.0061657370" flag="0"/>
      <psa30 value="0.0012146704" flag="0"/>
    </comp>
    <comp name="--.HHE">
      <acc value="0.0069875318" flag="0"/>
      <vel value="0.0044934641" flag="0"/>
      <psa03 value="0.0123998679" flag="0"/>
      <psa10 value="0.0061657370" flag="0"/>
      <psa30 value="0.0012146704" flag="0"/>
    </comp>
    <comp name="--.HHN">
      <acc value="0.0076962734" flag="0"/>
      <vel value="0.0053912915" flag="0"/>
      <psa03 value="0.0262310464" flag="0"/>
      <psa10 value="0.0125522640" flag="0"/>
      <psa30 value="0.0013907413" flag="0"/>
    </comp>
    <comp name="--.HHN">
      <acc value="0.0076962734" flag="0"/>
      <vel value="0.0053912915" flag="0"/>
      <psa03 value="0.0262310464" flag="0"/>
      <psa10 value="0.0125522640" flag="0"/>
      <psa30 value="0.0013907413" flag="0"/>
    </comp>
    <comp name="--.HHZ">
      <acc value="0.0049803684" flag="0"/>
      <vel value="0.0037471911" flag="0"/>
      <psa03 value="0.0097987357" flag="0"/>
      <psa10 value="0.0068219700" flag="0"/>
      <psa30 value="0.0008126539" flag="0"/>
    </comp>
    <comp name="--.HHZ">
      <acc value="0.0049803684" flag="0"/>
      <vel value="0.0037471911" flag="0"/>
      <psa03 value="0.0097987357" flag="0"/>
      <psa10 value="0.0068219700" flag="0"/>
      <psa30 value="0.0008126539" flag="0"/>
    </comp>
  </station>
  <station code="DRO" name="DRO" netid="HP" source="NOA" insttype="120P," lat="37.952" lon="21.71">
    <comp name="--.HHE">
      <acc value="0.0300304594" flag="0"/>
      <vel value="0.0195219291" flag="0"/>
      <psa03 value="0.1170856354" flag="0"/>
      <psa10 value="0.0278875305" flag="0"/>
      <psa30 value="0.0047974910" flag="0"/>
    </comp>
    <comp name="--.HHN">
      <acc value="0.0315946005" flag="0"/>
      <vel value="0.0188971481" flag="0"/>
      <psa03 value="0.1069664064" flag="0"/>
      <psa10 value="0.0243162180" flag="0"/>
      <psa30 value="0.0036343732" flag="0"/>
    </comp>
    <comp name="--.HHZ">
      <acc value="0.0166692622" flag="0"/>
      <vel value="0.0092953320" flag="0"/>
      <psa03 value="0.0408294190" flag="0"/>
      <psa10 value="0.0111599079" flag="0"/>
      <psa30 value="0.0038558928" flag="0"/>
    </comp>
  </station>
  <station code="FSK" name="FSK" netid="HP" source="NOA" insttype="40," lat="38.4593" lon="20.5623">
    <comp name="--.HHE">
      <acc value="0.0937323447" flag="0"/>
      <vel value="0.0277229688" flag="0"/>
      <psa03 value="0.0608940255" flag="0"/>
      <psa10 value="0.0244443782" flag="0"/>
      <psa30 value="0.0070830711" flag="0"/>
    </comp>
    <comp name="--.HHN">
      <acc value="0.0475187924" flag="0"/>
      <vel value="0.0133145062" flag="0"/>
      <psa03 value="0.0326996213" flag="0"/>
      <psa10 value="0.0191186292" flag="0"/>
      <psa30 value="0.0025366990" flag="0"/>
    </comp>
    <comp name="--.HHZ">
      <acc value="0.0372143328" flag="0"/>
      <vel value="0.0119095580" flag="0"/>
      <psa03 value="0.0350277060" flag="0"/>
      <psa10 value="0.0106258782" flag="0"/>
      <psa30 value="0.0023884358" flag="0"/>
    </comp>
  </station>
  <station code="LTHK" name="LTHK" netid="HP" source="NOA" insttype="40," lat="37.7095" lon="20.8367">
    <comp name="--.HHE">
      <acc value="0.4114703819" flag="0"/>
      <vel value="0.0925297856" flag="0"/>
      <psa03 value="0.2526505320" flag="0"/>
      <psa10 value="0.0372527680" flag="0"/>
      <psa30 value="0.0045587657" flag="0"/>
    </comp>
  </station>
  <station code="PYL" name="PYL" netid="HP" source="NOA" insttype="120s" lat="36.8955" lon="21.742">
    <comp name="--.HHN">
      <acc value="0.0012635647" flag="0"/>
      <vel value="0.0005956919" flag="0"/>
      <psa03 value="0.0025418678" flag="0"/>
      <psa10 value="0.0005716858" flag="0"/>
      <psa30 value="0.0000872960" flag="0"/>
    </comp>
  </station>
  <station code="DMLN" name="DMLN" netid="HT" source="NOA" insttype="1s-100Hz," lat="38.2385" lon="20.3734">
    <comp name="--.HHE">
      <acc value="0.0646669459" flag="0"/>
      <vel value="0.0431225309" flag="0"/>
      <psa03 value="0.1042797161" flag="0"/>
      <psa10 value="0.0817793128" flag="0"/>
      <psa30 value="0.0074870448" flag="0"/>
    </comp>
    <comp name="--.HHN">
      <acc value="0.0807144870" flag="0"/>
      <vel value="0.0430124553" flag="0"/>
      <psa03 value="0.1697286793" flag="0"/>
      <psa10 value="0.0699352392" flag="0"/>
      <psa30 value="0.0067010475" flag="0"/>
    </comp>
    <comp name="--.HHZ">
      <acc value="0.0561722629" flag="0"/>
      <vel value="0.0224710917" flag="0"/>
      <psa03 value="0.0863868035" flag="0"/>
      <psa10 value="0.0229111464" flag="0"/>
      <psa30 value="0.0032501776" flag="0"/>
    </comp>
  </station>
  <station code="EVGI" name="EVGI" netid="HT" source="NOA" insttype="30" lat="38.621" lon="20.656">
    <comp name="--.HHE">
      <acc value="0.0375719577" flag="0"/>
      <vel value="0.0129347277" flag="0"/>
      <psa03 value="0.0426564096" flag="0"/>
      <psa10 value="0.0116409987" flag="0"/>
      <psa30 value="0.0050809370" flag="0"/>
    </comp>
    <comp name="--.HHN">
      <acc value="nan" flag="0"/>
      <vel value="-100.0000000000" flag="0"/>
      <psa03 value="0.0000000000" flag="0"/>
      <psa10 value="0.0000000000" flag="0"/>
      <psa30 value="0.0000000000" flag="0"/>
    </comp>
    <comp name="--.HHZ">
      <acc value="0.0244644354" flag="0"/>
      <vel value="0.0081180693" flag="0"/>
      <psa03 value="0.0393349381" flag="0"/>
      <psa10 value="0.0101013428" flag="0"/>
      <psa30 value="0.0024359408" flag="0"/>
    </comp>
  </station>
  <station code="PSDA" name="PSDA" netid="HT" source="NOA" insttype="30" lat="38.114" lon="20.5841">
    <comp name="--.HHE">
      <acc value="0.1351118968" flag="0"/>
      <vel value="0.0463607714" flag="0"/>
      <psa03 value="0.2099707743" flag="0"/>
      <psa10 value="0.0326180541" flag="0"/>
      <psa30 value="0.0087891917" flag="0"/>
    </comp>
    <comp name="--.HHN">
      <acc value="0.1134366986" flag="0"/>
      <vel value="0.0266904346" flag="0"/>
      <psa03 value="0.1121631415" flag="0"/>
      <psa10 value="0.0286435664" flag="0"/>
      <psa30 value="0.0027479197" flag="0"/>
    </comp>
    <comp name="--.HHZ">
      <acc value="0.0743303940" flag="0"/>
      <vel value="0.0187568970" flag="0"/>
      <psa03 value="0.0763596665" flag="0"/>
      <psa10 value="0.0123714853" flag="0"/>
      <psa30 value="0.0031180513" flag="0"/>
    </comp>
  </station>
</stationlist>
