<stationlist created="1778136846">
	<station code="NIG" name="NIG" netid="KO" source="Bogazici University Kandilli Observatory And Earthquake Research Institute (KOERI)" insttype="" lat="38.108" lon="34.6142">
		<comp name="--.HNE" depth="0.0">
			<acc value="0.00552334612998161" flag="0"/>
			<vel value="0.00514924048407208" flag="0"/>
			<psa03 value="0.015371948003609" flag="0"/>
			<psa10 value="0.00701664638089256" flag="0"/>
			<psa30 value="0.000742046083994062" flag="0"/>
		</comp>
		<comp name="--.HNN" depth="0.0">
			<acc value="0.00788420018392508" flag="0"/>
			<vel value="0.00769247352679073" flag="0"/>
			<psa03 value="0.0223560877519334" flag="0"/>
			<psa10 value="0.00817559315543431" flag="0"/>
			<psa30 value="0.000912177510615859" flag="0"/>
		</comp>
		<comp name="--.HNZ" depth="0.0">
			<acc value="0.00454146379745828" flag="0"/>
			<vel value="0.00347938537414113" flag="0"/>
			<psa03 value="0.00870012386656647" flag="0"/>
			<psa10 value="0.00559847212132028" flag="0"/>
			<psa30 value="0.000674787982644046" flag="0"/>
		</comp>
	</station>
</stationlist>
