<?xml version="1.0" encoding="UTF-8" standalone="yes"?>
<!DOCTYPE earthquake SYSTEM "stationlist.dtd">
<stationlist created="" xmlns="ch.ethz.sed.shakemap.usgs.xml">
  <station code="ANDN" name="ANDN" netid="TU" source="ODC" insttype="T" lat="37.58" lon="36.3452">
    <comp name="--.HHN">
      <acc value="0.6179230458" flag="0"/>
      <vel value="0.1768110343" flag="0"/>
      <psa03 value="0.7306472763" flag="0"/>
      <psa10 value="0.0765696167" flag="0"/>
      <psa30 value="0.0040153600" flag="0"/>
    </comp>
    <comp name="--.HHZ">
      <acc value="0.2307922704" flag="0"/>
      <vel value="0.0767236226" flag="0"/>
      <psa03 value="0.2656441552" flag="0"/>
      <psa10 value="0.0511272868" flag="0"/>
      <psa30 value="0.0036944061" flag="0"/>
    </comp>
    <comp name="--.HHE">
      <acc value="0.3133630336" flag="0"/>
      <vel value="0.0999040045" flag="0"/>
      <psa03 value="0.8099950506" flag="0"/>
      <psa10 value="0.0733234512" flag="0"/>
      <psa30 value="0.0043893390" flag="0"/>
    </comp>
  </station>
</stationlist>
