<?xml version="1.0" encoding="UTF-8" standalone="yes"?>
<!DOCTYPE earthquake SYSTEM "stationlist.dtd">
<stationlist created="" xmlns="ch.ethz.sed.shakemap.usgs.xml">
  <station code="KOZK" name="KOZK" netid="KO" insttype="CMG-5T" lat="39.2101" lon="34.868">
    <comp name="--.HNE">
      <acc value="0.0394989815" flag="0"/>
      <vel value="0.0208661416" flag="0"/>
      <psa03 value="0.0799291292" flag="0"/>
      <psa10 value="0.0231040736" flag="0"/>
      <psa30 value="0.0038723448" flag="0"/>
    </comp>
    <comp name="--.HNZ">
      <acc value="0.0288299788" flag="0"/>
      <vel value="0.0104732743" flag="0"/>
      <psa03 value="0.0591943192" flag="0"/>
      <psa10 value="0.0117407081" flag="0"/>
      <psa30 value="0.0011662380" flag="0"/>
    </comp>
    <comp name="--.HNN">
      <acc value="0.0395206882" flag="0"/>
      <vel value="0.0193523365" flag="0"/>
      <psa03 value="0.0900079957" flag="0"/>
      <psa10 value="0.0350828723" flag="0"/>
      <psa30 value="0.0021617240" flag="0"/>
    </comp>
  </station>
  <station code="YOZ" name="YOZ" netid="KO" insttype="360s," lat="39.6376" lon="35.3152">
    <comp name="--.HHZ">
      <acc value="0.0178301243" flag="0"/>
      <vel value="0.0065875582" flag="0"/>
      <psa03 value="0.0434598387" flag="0"/>
      <psa10 value="0.0029894312" flag="0"/>
      <psa30 value="0.0008924198" flag="0"/>
    </comp>
    <comp name="--.HHE">
      <acc value="0.0262960510" flag="0"/>
      <vel value="0.0107315931" flag="0"/>
      <psa03 value="0.0655525901" flag="0"/>
      <psa10 value="0.0088527680" flag="0"/>
      <psa30 value="0.0005444791" flag="0"/>
    </comp>
    <comp name="--.HHN">
      <acc value="0.0212055403" flag="0"/>
      <vel value="0.0080405395" flag="0"/>
      <psa03 value="0.0690366226" flag="0"/>
      <psa10 value="0.0051809406" flag="0"/>
      <psa30 value="0.0010471223" flag="0"/>
    </comp>
  </station>
</stationlist>
