<stationlist created="1778138277">
	<station code="ERBG" name="ERBG" netid="KO" source="Bogazici University Kandilli Observatory And Earthquake Research Institute (KOERI)" insttype="" lat="40.712" lon="36.6768">
		<comp name="--.HNE" depth="0.0">
			<acc value="0.0157729133369953" flag="0"/>
			<vel value="0.00131938328655904" flag="0"/>
			<psa03 value="0.0027387976428402" flag="0"/>
			<psa10 value="0.00203872763382504" flag="0"/>
			<psa30 value="0.000491129357826215" flag="0"/>
		</comp>
		<comp name="--.HNN" depth="0.0">
			<acc value="0.012544921632943" flag="0"/>
			<vel value="0.00131776397179848" flag="0"/>
			<psa03 value="0.00408136867793456" flag="0"/>
			<psa10 value="0.00232968714284106" flag="0"/>
			<psa30 value="0.000405212728771336" flag="0"/>
		</comp>
		<comp name="--.HNZ" depth="0.0">
			<acc value="0.00189000567303885" flag="0"/>
			<vel value="0.00161209974961515" flag="0"/>
			<psa03 value="0.0028636542212675" flag="0"/>
			<psa10 value="0.00276830213643028" flag="0"/>
			<psa30 value="0.000354185963081616" flag="0"/>
		</comp>
	</station>
	<station code="KOZK" name="KOZK" netid="KO" source="Bogazici University Kandilli Observatory And Earthquake Research Institute (KOERI)" insttype="" lat="39.2101" lon="34.868">
		<comp name="--.HNE" depth="0.0">
			<acc value="0.0389608330431559" flag="0"/>
			<vel value="0.0212630831222002" flag="0"/>
			<psa03 value="0.0809982094838463" flag="0"/>
			<psa10 value="0.023097601977756" flag="0"/>
			<psa30 value="0.00419643924350299" flag="0"/>
		</comp>
		<comp name="--.HNN" depth="0.0">
			<acc value="0.0395011584829053" flag="0"/>
			<vel value="0.019410139295147" flag="0"/>
			<psa03 value="0.0911391000179885" flag="0"/>
			<psa10 value="0.0350200936593461" flag="0"/>
			<psa30 value="0.00233172154844113" flag="0"/>
		</comp>
		<comp name="--.HNZ" depth="0.0">
			<acc value="0.0287672783559877" flag="0"/>
			<vel value="0.0105983477346421" flag="0"/>
			<psa03 value="0.0595405953138693" flag="0"/>
			<psa10 value="0.0117794337671729" flag="0"/>
			<psa30 value="0.00127956716087776" flag="0"/>
		</comp>
	</station>
	<station code="NIG" name="NIG" netid="KO" source="Bogazici University Kandilli Observatory And Earthquake Research Institute (KOERI)" insttype="" lat="38.108" lon="34.6142">
		<comp name="--.HNE" depth="0.0">
			<acc value="0.00534004652838204" flag="0"/>
			<vel value="0.00323763279353304" flag="0"/>
			<psa03 value="0.0142598665211829" flag="0"/>
			<psa10 value="0.00582610470084536" flag="0"/>
			<psa30 value="0.00110496861541273" flag="0"/>
		</comp>
		<comp name="--.HNN" depth="0.0">
			<acc value="0.00446324647513928" flag="0"/>
			<vel value="0.00305341492183548" flag="0"/>
			<psa03 value="0.0111252617335636" flag="0"/>
			<psa10 value="0.00728899082860734" flag="0"/>
			<psa30 value="0.000722007152348266" flag="0"/>
		</comp>
		<comp name="--.HNZ" depth="0.0">
			<acc value="0.00497732967530937" flag="0"/>
			<vel value="0.00392972493904352" flag="0"/>
			<psa03 value="0.00837263016651326" flag="0"/>
			<psa10 value="0.00327263156140434" flag="0"/>
			<psa30 value="0.00136822105459513" flag="0"/>
		</comp>
	</station>
	<station code="TUNC" name="TUNC" netid="KO" source="Bogazici University Kandilli Observatory And Earthquake Research Institute (KOERI)" insttype="" lat="39.6942" lon="37.5388">
		<comp name="--.HNE" depth="0.0">
			<acc value="0.00447329454290725" flag="0"/>
			<vel value="0.00234526697270806" flag="0"/>
			<psa03 value="0.00955200126280262" flag="0"/>
			<psa10 value="0.00316037818766938" flag="0"/>
			<psa30 value="0.000799862049434405" flag="0"/>
		</comp>
		<comp name="--.HNN" depth="0.0">
			<acc value="0.00783417257794796" flag="0"/>
			<vel value="0.00362455155642068" flag="0"/>
			<psa03 value="0.00694017785169558" flag="0"/>
			<psa10 value="0.00365261024875273" flag="0"/>
			<psa30 value="0.000741015546977092" flag="0"/>
		</comp>
		<comp name="--.HNZ" depth="0.0">
			<acc value="0.00199148016888313" flag="0"/>
			<vel value="0.00179694334767385" flag="0"/>
			<psa03 value="0.00404946356958765" flag="0"/>
			<psa10 value="0.00344652659672327" flag="0"/>
			<psa30 value="0.000632162190142526" flag="0"/>
		</comp>
	</station>
</stationlist>
