<?xml version="1.0" encoding="UTF-8" standalone="yes"?>
<!DOCTYPE earthquake SYSTEM "stationlist.dtd">
<stationlist created="" xmlns="ch.ethz.sed.shakemap.usgs.xml">
  <station code="CEYT" name="CEYT" netid="KO" insttype="CMG-3ESP" lat="37.0105" lon="35.7478">
    <comp name="--.HHZ">
      <acc value="0.0111636108" flag="0"/>
      <vel value="0.0048723206" flag="0"/>
      <psa03 value="0.0344210936" flag="0"/>
      <psa10 value="0.0037414986" flag="0"/>
      <psa30 value="0.0002348216" flag="0"/>
    </comp>
    <comp name="--.HHN">
      <acc value="0.0051369850" flag="0"/>
      <vel value="0.0018819713" flag="0"/>
      <psa03 value="0.0100926045" flag="0"/>
      <psa10 value="0.0009926448" flag="0"/>
      <psa30 value="0.0001194777" flag="0"/>
    </comp>
  </station>
  <station code="GAZ" name="GAZ" netid="KO" insttype="CMG-3T" lat="37.1721" lon="37.2096">
    <comp name="--.HHN">
      <acc value="0.0148566588" flag="0"/>
      <vel value="0.0144339371" flag="0"/>
      <psa03 value="0.0451936206" flag="0"/>
      <psa10 value="0.0127475597" flag="0"/>
      <psa30 value="0.0009724677" flag="0"/>
    </comp>
    <comp name="--.HHZ">
      <acc value="0.0131182639" flag="0"/>
      <vel value="0.0089778300" flag="0"/>
      <psa03 value="0.0290584741" flag="0"/>
      <psa10 value="0.0087149800" flag="0"/>
      <psa30 value="0.0005475922" flag="0"/>
    </comp>
  </station>
</stationlist>
