<?xml version="1.0" encoding="UTF-8" standalone="yes"?>
<!DOCTYPE earthquake SYSTEM "stationlist.dtd">
<stationlist created="" xmlns="ch.ethz.sed.shakemap.usgs.xml">
  <station code="ARPRA" name="ARPRA" netid="KO" insttype="CMG-5T" lat="39.0929" lon="38.3356">
    <comp name="--.HNE">
      <acc value="0.1063840467" flag="0"/>
      <vel value="0.0599649107" flag="0"/>
      <psa03 value="0.2069519899" flag="0"/>
      <psa10 value="0.1256039420" flag="0"/>
      <psa30 value="0.0095814560" flag="0"/>
    </comp>
    <comp name="--.HNZ">
      <acc value="0.0440384882" flag="0"/>
      <vel value="0.0301374596" flag="0"/>
      <psa03 value="0.0912586349" flag="0"/>
      <psa10 value="0.0663947541" flag="0"/>
      <psa30 value="0.0044595471" flag="0"/>
    </comp>
    <comp name="--.HNN">
      <acc value="0.0761198174" flag="0"/>
      <vel value="0.0803546729" flag="0"/>
      <psa03 value="0.2139560384" flag="0"/>
      <psa10 value="0.1325260659" flag="0"/>
      <psa30 value="0.0071437129" flag="0"/>
    </comp>
  </station>
  <station code="DARE" name="DARE" netid="KO" insttype="CMG-3ESP" lat="38.5712" lon="37.4832">
    <comp name="--.HHE">
      <acc value="0.0293303056" flag="0"/>
      <vel value="0.0193902469" flag="0"/>
      <psa03 value="0.0521531959" flag="0"/>
      <psa10 value="0.0414795511" flag="0"/>
      <psa30 value="0.0020679594" flag="0"/>
    </comp>
    <comp name="--.HHN">
      <acc value="0.0295760422" flag="0"/>
      <vel value="0.0214549911" flag="0"/>
      <psa03 value="0.0704961304" flag="0"/>
      <psa10 value="0.0256449493" flag="0"/>
      <psa30 value="0.0033444158" flag="0"/>
    </comp>
    <comp name="--.HHZ">
      <acc value="0.0253404819" flag="0"/>
      <vel value="0.0244251590" flag="0"/>
      <psa03 value="0.0658876205" flag="0"/>
      <psa10 value="0.0304395837" flag="0"/>
      <psa30 value="0.0042360883" flag="0"/>
    </comp>
  </station>
  <station code="GAZ" name="GAZ" netid="KO" insttype="CMG-3T" lat="37.1721" lon="37.2096">
    <comp name="--.HHN">
      <acc value="0.0386794021" flag="0"/>
      <vel value="0.0334762165" flag="0"/>
      <psa03 value="0.0937241841" flag="0"/>
      <psa10 value="0.0347674827" flag="0"/>
      <psa30 value="0.0070801425" flag="0"/>
    </comp>
    <comp name="--.HHZ">
      <acc value="0.0285191166" flag="0"/>
      <vel value="0.0222378055" flag="0"/>
      <psa03 value="0.0988464239" flag="0"/>
      <psa10 value="0.0241741875" flag="0"/>
      <psa30 value="0.0030448820" flag="0"/>
    </comp>
    <comp name="--.HHE">
      <acc value="0.0588238097" flag="0"/>
      <vel value="0.0393655806" flag="0"/>
      <psa03 value="0.1173037922" flag="0"/>
      <psa10 value="0.0608917484" flag="0"/>
      <psa30 value="0.0052157918" flag="0"/>
    </comp>
  </station>
  <station code="KHMN" name="KHMN" netid="KO" insttype="CMG-5T" lat="37.3916" lon="37.1574">
    <comp name="--.HNE">
      <acc value="0.0802128197" flag="0"/>
      <vel value="0.0383449050" flag="0"/>
      <psa03 value="0.1681211356" flag="0"/>
      <psa10 value="0.0318922299" flag="0"/>
      <psa30 value="0.0043918695" flag="0"/>
    </comp>
    <comp name="--.HNN">
      <acc value="0.0804757603" flag="0"/>
      <vel value="0.0318742962" flag="0"/>
      <psa03 value="0.1212221488" flag="0"/>
      <psa10 value="0.0318939400" flag="0"/>
      <psa30 value="0.0057684911" flag="0"/>
    </comp>
    <comp name="--.HNZ">
      <acc value="0.0467781653" flag="0"/>
      <vel value="0.0185032819" flag="0"/>
      <psa03 value="0.0720938265" flag="0"/>
      <psa10 value="0.0312950461" flag="0"/>
      <psa30 value="0.0045900413" flag="0"/>
    </comp>
  </station>
  <station code="KMRS" name="KMRS" netid="KO" insttype="CMG-3T" lat="37.5087" lon="36.9">
    <comp name="--.HHN">
      <acc value="0.0484615397" flag="0"/>
      <vel value="0.0410917699" flag="0"/>
      <psa03 value="0.1332957156" flag="0"/>
      <psa10 value="0.0520453521" flag="0"/>
      <psa30 value="0.0092948986" flag="0"/>
    </comp>
    <comp name="--.HHE">
      <acc value="0.0520812649" flag="0"/>
      <vel value="0.0339335302" flag="0"/>
      <psa03 value="0.1353697754" flag="0"/>
      <psa10 value="0.0567490456" flag="0"/>
      <psa30 value="0.0044385762" flag="0"/>
    </comp>
    <comp name="--.HHZ">
      <acc value="0.0321604793" flag="0"/>
      <vel value="0.0356563974" flag="0"/>
      <psa03 value="0.0923384107" flag="0"/>
      <psa10 value="0.0424801710" flag="0"/>
      <psa30 value="0.0049952327" flag="0"/>
    </comp>
  </station>
  <station code="SINE" name="SINE" netid="KO" insttype="CMG-6T" lat="39.1636" lon="39.3871">
    <comp name="--.HHE">
      <acc value="0.0191584494" flag="0"/>
      <vel value="0.0148818877" flag="0"/>
      <psa03 value="0.0480071129" flag="0"/>
      <psa10 value="0.0185629276" flag="0"/>
      <psa30 value="0.0010239117" flag="0"/>
    </comp>
    <comp name="--.HHN">
      <acc value="0.0245175000" flag="0"/>
      <vel value="0.0152821142" flag="0"/>
      <psa03 value="0.0610649143" flag="0"/>
      <psa10 value="0.0150512889" flag="0"/>
      <psa30 value="0.0007997388" flag="0"/>
    </comp>
    <comp name="--.HHZ">
      <acc value="0.0130400749" flag="0"/>
      <vel value="0.0093710384" flag="0"/>
      <psa03 value="0.0383440372" flag="0"/>
      <psa10 value="0.0096958572" flag="0"/>
      <psa30 value="0.0005322298" flag="0"/>
    </comp>
  </station>
  <station code="SVRC" name="SVRC" netid="KO" insttype="CMG-3T" lat="38.3775" lon="39.306">
    <comp name="--.HHZ">
      <acc value="0.0705406140" flag="0"/>
      <vel value="0.0413416970" flag="0"/>
      <psa03 value="0.2817226880" flag="0"/>
      <psa10 value="0.0384541353" flag="0"/>
      <psa30 value="0.0035456801" flag="0"/>
    </comp>
    <comp name="--.HHE">
      <acc value="0.0874508240" flag="0"/>
      <vel value="0.0661722717" flag="0"/>
      <psa03 value="0.2364137570" flag="0"/>
      <psa10 value="0.0676903020" flag="0"/>
      <psa30 value="0.0052166340" flag="0"/>
    </comp>
    <comp name="--.HHN">
      <acc value="0.0890858007" flag="0"/>
      <vel value="0.0482053007" flag="0"/>
      <psa03 value="0.3280436091" flag="0"/>
      <psa10 value="0.0414093951" flag="0"/>
      <psa30 value="0.0044848043" flag="0"/>
    </comp>
  </station>
  <station code="URFA" name="URFA" netid="KO" insttype="CMG-3ESP" lat="37.4409" lon="38.8213">
    <comp name="--.HHZ">
      <acc value="0.0563875701" flag="0"/>
      <vel value="0.0310239201" flag="0"/>
      <psa03 value="0.0655280543" flag="0"/>
      <psa10 value="0.0408314861" flag="0"/>
      <psa30 value="0.0045353029" flag="0"/>
    </comp>
    <comp name="--.HHE">
      <acc value="0.1028015170" flag="0"/>
      <vel value="0.0770832337" flag="0"/>
      <psa03 value="0.1796959737" flag="0"/>
      <psa10 value="0.0733921993" flag="0"/>
      <psa30 value="0.0110372349" flag="0"/>
    </comp>
  </station>
</stationlist>
