<?xml version="1.0" encoding="UTF-8" standalone="yes"?>
<!DOCTYPE earthquake SYSTEM "stationlist.dtd">
<stationlist created="" xmlns="ch.ethz.sed.shakemap.usgs.xml">
  <station code="MALA" name="MALA" netid="CL" insttype="ES-T" lat="38.3934" lon="21.8726">
    <comp name="01.HNN">
      <acc value="0.5760677181" flag="0"/>
      <vel value="0.2219093180" flag="0"/>
      <psa03 value="0.5509585238" flag="0"/>
      <psa10 value="0.1051374825" flag="0"/>
      <psa30 value="0.0067101225" flag="0"/>
    </comp>
    <comp name="01.HNZ">
      <acc value="0.1639643618" flag="0"/>
      <vel value="0.0323459758" flag="0"/>
      <psa03 value="0.1336816250" flag="0"/>
      <psa10 value="0.0429120864" flag="0"/>
      <psa30 value="0.0021660497" flag="0"/>
    </comp>
    <comp name="01.HNE">
      <acc value="0.4921157103" flag="0"/>
      <vel value="0.1481595216" flag="0"/>
      <psa03 value="0.4017498576" flag="0"/>
      <psa10 value="0.1073098672" flag="0"/>
      <psa30 value="0.0077444431" flag="0"/>
    </comp>
  </station>
  <station code="KALE" name="KALE" netid="HA" insttype="40," lat="38.3911" lon="22.1398">
    <comp name="--.HHE">
      <acc value="0.4047807597" flag="0"/>
      <vel value="0.1108303240" flag="0"/>
      <psa03 value="0.4853109863" flag="0"/>
      <psa10 value="0.0623640147" flag="0"/>
      <psa30 value="0.0059208723" flag="0"/>
    </comp>
    <comp name="--.HHZ">
      <acc value="0.3851913983" flag="0"/>
      <vel value="0.0907270903" flag="0"/>
      <psa03 value="0.4883552549" flag="0"/>
      <psa10 value="0.0376403336" flag="0"/>
      <psa30 value="0.0030730037" flag="0"/>
    </comp>
    <comp name="--.HHN">
      <acc value="0.5507506971" flag="0"/>
      <vel value="0.1258445660" flag="0"/>
      <psa03 value="0.7143515333" flag="0"/>
      <psa10 value="0.0672721812" flag="0"/>
      <psa30 value="0.0059585685" flag="0"/>
    </comp>
  </station>
  <station code="LAKA" name="LAKA" netid="HA" insttype="120s" lat="38.2401" lon="21.9785">
    <comp name="--.HHN">
      <acc value="0.1056193562" flag="0"/>
      <vel value="0.0183883645" flag="0"/>
      <psa03 value="0.0756396619" flag="0"/>
      <psa10 value="0.0137605017" flag="0"/>
      <psa30 value="0.0052691698" flag="0"/>
    </comp>
    <comp name="--.HHE">
      <acc value="0.0678344954" flag="0"/>
      <vel value="0.0117729629" flag="0"/>
      <psa03 value="0.0665699855" flag="0"/>
      <psa10 value="0.0078046147" flag="0"/>
      <psa30 value="0.0017045579" flag="0"/>
    </comp>
    <comp name="--.HHZ">
      <acc value="0.0736750822" flag="0"/>
      <vel value="0.0124505411" flag="0"/>
      <psa03 value="0.0605572212" flag="0"/>
      <psa10 value="0.0092317610" flag="0"/>
      <psa30 value="0.0058087247" flag="0"/>
    </comp>
  </station>
  <station code="THAL" name="THAL" netid="HA" insttype="30" lat="38.0357" lon="22.6634">
    <comp name="--.HHN">
      <acc value="0.0288418490" flag="0"/>
      <vel value="0.0076167311" flag="0"/>
      <psa03 value="0.0378384813" flag="0"/>
      <psa10 value="0.0056848386" flag="0"/>
      <psa30 value="0.0006032212" flag="0"/>
    </comp>
    <comp name="--.HHE">
      <acc value="0.0334201923" flag="0"/>
      <vel value="0.0097209891" flag="0"/>
      <psa03 value="0.0574349391" flag="0"/>
      <psa10 value="0.0067511016" flag="0"/>
      <psa30 value="0.0008724739" flag="0"/>
    </comp>
    <comp name="--.HHZ">
      <acc value="0.0162814905" flag="0"/>
      <vel value="0.0040556049" flag="0"/>
      <psa03 value="0.0216513570" flag="0"/>
      <psa10 value="0.0033915607" flag="0"/>
      <psa30 value="0.0005548938" flag="0"/>
    </comp>
  </station>
  <station code="KLV1" name="KLV1" netid="HI" insttype="CMG-5TD,ACCELEROMETER,GURALP" lat="38.0326" lon="22.108">
    <comp name="--.HNN">
      <acc value="0.0503815411" flag="0"/>
      <vel value="0.0145283817" flag="0"/>
      <psa03 value="0.0641949892" flag="0"/>
      <psa10 value="0.0112450537" flag="0"/>
      <psa30 value="0.0014656260" flag="0"/>
    </comp>
    <comp name="--.HNE">
      <acc value="0.0451921435" flag="0"/>
      <vel value="0.0137255450" flag="0"/>
      <psa03 value="0.0839548770" flag="0"/>
      <psa10 value="0.0159285183" flag="0"/>
      <psa30 value="0.0015686678" flag="0"/>
    </comp>
    <comp name="--.HNZ">
      <acc value="0.0340916808" flag="0"/>
      <vel value="0.0086685660" flag="0"/>
      <psa03 value="0.0311342417" flag="0"/>
      <psa10 value="0.0147109843" flag="0"/>
      <psa30 value="0.0017343713" flag="0"/>
    </comp>
  </station>
  <station code="MSL1" name="MSL1" netid="HI" insttype="CMG-5TD,ACCELEROMETER,GURALP" lat="38.3727" lon="21.4243">
    <comp name="--.HNZ">
      <acc value="0.0128242635" flag="0"/>
      <vel value="0.0058328427" flag="0"/>
      <psa03 value="0.0277906763" flag="0"/>
      <psa10 value="0.0100313660" flag="0"/>
      <psa30 value="0.0005215399" flag="0"/>
    </comp>
    <comp name="--.HNN">
      <acc value="0.0237914778" flag="0"/>
      <vel value="0.0106071245" flag="0"/>
      <psa03 value="0.0732262891" flag="0"/>
      <psa10 value="0.0111474680" flag="0"/>
      <psa30 value="0.0010186641" flag="0"/>
    </comp>
    <comp name="--.HNE">
      <acc value="0.0163539850" flag="0"/>
      <vel value="0.0107034390" flag="0"/>
      <psa03 value="0.0679433781" flag="0"/>
      <psa10 value="0.0216956479" flag="0"/>
      <psa30 value="0.0017607186" flag="0"/>
    </comp>
  </station>
  <station code="DLFA" name="DLFA" netid="HL" insttype="CMG-5" lat="38.4784" lon="22.4958">
    <comp name="00.HNN">
      <acc value="0.0888623286" flag="0"/>
      <vel value="0.0238984626" flag="0"/>
      <psa03 value="0.1271270083" flag="0"/>
      <psa10 value="0.0156449269" flag="0"/>
      <psa30 value="0.0010785575" flag="0"/>
    </comp>
    <comp name="00.HNZ">
      <acc value="0.0737989261" flag="0"/>
      <vel value="0.0175455690" flag="0"/>
      <psa03 value="0.0561814362" flag="0"/>
      <psa10 value="0.0080721444" flag="0"/>
      <psa30 value="0.0012262801" flag="0"/>
    </comp>
    <comp name="00.HNE">
      <acc value="0.0901032107" flag="0"/>
      <vel value="0.0201054383" flag="0"/>
      <psa03 value="0.0938085168" flag="0"/>
      <psa10 value="0.0152357545" flag="0"/>
      <psa30 value="0.0008862637" flag="0"/>
    </comp>
  </station>
  <station code="EVR" name="EVR" netid="HL" insttype="DR24" lat="38.9166" lon="21.8105">
    <comp name="--.HHE">
      <acc value="0.0418019868" flag="0"/>
      <vel value="0.0101198190" flag="0"/>
      <psa03 value="0.0516898760" flag="0"/>
      <psa10 value="0.0129340999" flag="0"/>
      <psa30 value="0.0016768630" flag="0"/>
    </comp>
    <comp name="--.HHZ">
      <acc value="0.0191481399" flag="0"/>
      <vel value="0.0074959303" flag="0"/>
      <psa03 value="0.0321798806" flag="0"/>
      <psa10 value="0.0069332467" flag="0"/>
      <psa30 value="0.0017777727" flag="0"/>
    </comp>
    <comp name="--.HHN">
      <acc value="0.0236209007" flag="0"/>
      <vel value="0.0097957841" flag="0"/>
      <psa03 value="0.0492930898" flag="0"/>
      <psa10 value="0.0069702706" flag="0"/>
      <psa30 value="0.0013700675" flag="0"/>
    </comp>
  </station>
  <station code="KLV" name="KLV" netid="HL" insttype="120" lat="38.0435" lon="22.1504">
    <comp name="--.HHE">
      <acc value="0.0277345034" flag="0"/>
      <vel value="0.0051266909" flag="0"/>
      <psa03 value="0.0151482789" flag="0"/>
      <psa10 value="0.0049083209" flag="0"/>
      <psa30 value="0.0006723003" flag="0"/>
    </comp>
    <comp name="--.HHN">
      <acc value="0.0247520608" flag="0"/>
      <vel value="0.0039293876" flag="0"/>
      <psa03 value="0.0137143765" flag="0"/>
      <psa10 value="0.0032611115" flag="0"/>
      <psa30 value="0.0010402203" flag="0"/>
    </comp>
    <comp name="--.HHZ">
      <acc value="0.0209752059" flag="0"/>
      <vel value="0.0052852829" flag="0"/>
      <psa03 value="0.0157757431" flag="0"/>
      <psa10 value="0.0040855519" flag="0"/>
      <psa30 value="0.0011736601" flag="0"/>
    </comp>
  </station>
  <station code="LKR" name="LKR" netid="HL" insttype="30" lat="38.6496" lon="22.9989">
    <comp name="--.HHE">
      <acc value="0.0358151733" flag="0"/>
      <vel value="0.0113558960" flag="0"/>
      <psa03 value="0.0438825289" flag="0"/>
      <psa10 value="0.0052156883" flag="0"/>
      <psa30 value="0.0007531309" flag="0"/>
    </comp>
    <comp name="--.HHZ">
      <acc value="0.0160928936" flag="0"/>
      <vel value="0.0036897014" flag="0"/>
      <psa03 value="0.0210600791" flag="0"/>
      <psa10 value="0.0035152165" flag="0"/>
      <psa30 value="0.0006249839" flag="0"/>
    </comp>
    <comp name="--.HHN">
      <acc value="0.0223175073" flag="0"/>
      <vel value="0.0068699339" flag="0"/>
      <psa03 value="0.0360816419" flag="0"/>
      <psa10 value="0.0055804780" flag="0"/>
      <psa30 value="0.0005191839" flag="0"/>
    </comp>
  </station>
  <station code="PATC" name="PATC" netid="HL" insttype="CMG-5" lat="38.2693" lon="21.76">
    <comp name="00.HNE">
      <acc value="0.0686196622" flag="0"/>
      <vel value="0.0336876795" flag="0"/>
      <psa03 value="0.1503315429" flag="0"/>
      <psa10 value="0.0246010075" flag="0"/>
      <psa30 value="0.0039540249" flag="0"/>
    </comp>
    <comp name="00.HNN">
      <acc value="0.1055195893" flag="0"/>
      <vel value="0.0325852238" flag="0"/>
      <psa03 value="0.1754737616" flag="0"/>
      <psa10 value="0.0286847543" flag="0"/>
      <psa30 value="0.0044000092" flag="0"/>
    </comp>
    <comp name="00.HNZ">
      <acc value="0.1088920736" flag="0"/>
      <vel value="0.0267872395" flag="0"/>
      <psa03 value="0.1107421988" flag="0"/>
      <psa10 value="0.0151250320" flag="0"/>
      <psa30 value="0.0030618668" flag="0"/>
    </comp>
  </station>
  <station code="PATG" name="PATG" netid="HL" insttype="CMG-5" lat="38.2386" lon="21.7266">
    <comp name="00.HNE">
      <acc value="0.0838572331" flag="0"/>
      <vel value="0.0403310233" flag="0"/>
      <psa03 value="0.1102746629" flag="0"/>
      <psa10 value="0.0297402994" flag="0"/>
      <psa30 value="0.0065254111" flag="0"/>
    </comp>
    <comp name="00.HNN">
      <acc value="0.0678494790" flag="0"/>
      <vel value="0.0401461009" flag="0"/>
      <psa03 value="0.1572874598" flag="0"/>
      <psa10 value="0.0313315711" flag="0"/>
      <psa30 value="0.0091722627" flag="0"/>
    </comp>
    <comp name="00.HNZ">
      <acc value="0.0526256896" flag="0"/>
      <vel value="0.0196170805" flag="0"/>
      <psa03 value="0.0877580836" flag="0"/>
      <psa10 value="0.0170192032" flag="0"/>
      <psa30 value="0.0036013845" flag="0"/>
    </comp>
  </station>
  <station code="RIOA" name="RIOA" netid="HL" insttype="CMG-5" lat="38.2959" lon="21.7912">
    <comp name="00.HNE">
      <acc value="0.1347319921" flag="0"/>
      <vel value="0.0331957074" flag="0"/>
      <psa03 value="0.1905326776" flag="0"/>
      <psa10 value="0.0175734044" flag="0"/>
      <psa30 value="0.0024646296" flag="0"/>
    </comp>
    <comp name="00.HNZ">
      <acc value="0.1172860614" flag="0"/>
      <vel value="0.0281378853" flag="0"/>
      <psa03 value="0.0929038126" flag="0"/>
      <psa10 value="0.0115213129" flag="0"/>
      <psa30 value="0.0044742512" flag="0"/>
    </comp>
    <comp name="00.HNN">
      <acc value="0.1064548793" flag="0"/>
      <vel value="0.0343887939" flag="0"/>
      <psa03 value="0.1491506284" flag="0"/>
      <psa10 value="0.0154261415" flag="0"/>
      <psa30 value="0.0020530000" flag="0"/>
    </comp>
  </station>
  <station code="RLS" name="RLS" netid="HL" insttype="CMG3ESPC-120s" lat="38.0559" lon="21.4647">
    <comp name="--.HHE">
      <acc value="0.0107124220" flag="0"/>
      <vel value="0.0040952204" flag="0"/>
      <psa03 value="0.0198112883" flag="0"/>
      <psa10 value="0.0029972664" flag="0"/>
      <psa30 value="0.0004090056" flag="0"/>
    </comp>
    <comp name="--.HHZ">
      <acc value="0.0073096138" flag="0"/>
      <vel value="0.0024556513" flag="0"/>
      <psa03 value="0.0196031019" flag="0"/>
      <psa10 value="0.0019799907" flag="0"/>
      <psa30 value="0.0010416266" flag="0"/>
    </comp>
    <comp name="--.HHN">
      <acc value="0.0125013086" flag="0"/>
      <vel value="0.0040109570" flag="0"/>
      <psa03 value="0.0291818475" flag="0"/>
      <psa10 value="0.0021602968" flag="0"/>
      <psa30 value="0.0003867314" flag="0"/>
    </comp>
  </station>
  <station code="AMPL" name="AMPL" netid="HP" insttype="Compact," lat="38.9224" lon="21.2135">
    <comp name="--.HHN">
      <acc value="0.0041771022" flag="0"/>
      <vel value="0.0018859096" flag="0"/>
      <psa03 value="0.0093712972" flag="0"/>
      <psa10 value="0.0024541604" flag="0"/>
      <psa30 value="0.0004265705" flag="0"/>
    </comp>
    <comp name="--.HHE">
      <acc value="0.0042135162" flag="0"/>
      <vel value="0.0018875710" flag="0"/>
      <psa03 value="0.0094054224" flag="0"/>
      <psa10 value="0.0022706880" flag="0"/>
      <psa30 value="0.0004189806" flag="0"/>
    </comp>
    <comp name="--.HHZ">
      <acc value="0.0027505163" flag="0"/>
      <vel value="0.0016222269" flag="0"/>
      <psa03 value="0.0076644338" flag="0"/>
      <psa10 value="0.0020479600" flag="0"/>
      <psa30 value="0.0003821408" flag="0"/>
    </comp>
  </station>
  <station code="AMT" name="AMT" netid="HP" insttype="CMG-3T," lat="37.5324" lon="21.7089">
    <comp name="00.HHN">
      <acc value="0.0113335268" flag="0"/>
      <vel value="0.0049150459" flag="0"/>
      <psa03 value="0.0273823968" flag="0"/>
      <psa10 value="0.0049547534" flag="0"/>
      <psa30 value="0.0003709706" flag="0"/>
    </comp>
    <comp name="00.HHE">
      <acc value="0.0072070889" flag="0"/>
      <vel value="0.0034670072" flag="0"/>
      <psa03 value="0.0232439959" flag="0"/>
      <psa10 value="0.0037030635" flag="0"/>
      <psa30 value="0.0005088452" flag="0"/>
    </comp>
    <comp name="00.HHZ">
      <acc value="0.0060611974" flag="0"/>
      <vel value="0.0034933856" flag="0"/>
      <psa03 value="0.0226996827" flag="0"/>
      <psa10 value="0.0028130366" flag="0"/>
      <psa30 value="0.0002797325" flag="0"/>
    </comp>
  </station>
  <station code="ANX" name="ANX" netid="HP" insttype="120" lat="38.5933" lon="21.9209">
    <comp name="--.HHE">
      <acc value="0.2712493959" flag="0"/>
      <vel value="0.0643940128" flag="0"/>
      <psa03 value="0.3319547302" flag="0"/>
      <psa10 value="0.0173306811" flag="0"/>
      <psa30 value="0.0026629750" flag="0"/>
    </comp>
    <comp name="--.HHN">
      <acc value="0.1941875910" flag="0"/>
      <vel value="0.0430851270" flag="0"/>
      <psa03 value="0.3257676263" flag="0"/>
      <psa10 value="0.0313541762" flag="0"/>
      <psa30 value="0.0027291122" flag="0"/>
    </comp>
    <comp name="--.HHZ">
      <acc value="0.1391190539" flag="0"/>
      <vel value="0.0340454435" flag="0"/>
      <psa03 value="0.2178208112" flag="0"/>
      <psa10 value="0.0176116337" flag="0"/>
      <psa30 value="0.0034732854" flag="0"/>
    </comp>
  </station>
  <station code="AXS" name="AXS" netid="HP" insttype="40," lat="38.1962" lon="21.3763">
    <comp name="--.HHE">
      <acc value="0.0071368709" flag="0"/>
      <vel value="0.0018284968" flag="0"/>
      <psa03 value="0.0118941474" flag="0"/>
      <psa10 value="0.0007746215" flag="0"/>
      <psa30 value="0.0001285643" flag="0"/>
    </comp>
    <comp name="--.HHZ">
      <acc value="0.0055338365" flag="0"/>
      <vel value="0.0018355862" flag="0"/>
      <psa03 value="0.0106641133" flag="0"/>
      <psa10 value="0.0007647760" flag="0"/>
      <psa30 value="0.0001284678" flag="0"/>
    </comp>
    <comp name="--.HHN">
      <acc value="0.0071046591" flag="0"/>
      <vel value="0.0020490704" flag="0"/>
      <psa03 value="0.0129922367" flag="0"/>
      <psa10 value="0.0020702574" flag="0"/>
      <psa30 value="0.0002233799" flag="0"/>
    </comp>
  </station>
  <station code="DRO" name="DRO" netid="HP" insttype="120P," lat="37.952" lon="21.71">
    <comp name="--.HHE">
      <acc value="0.0353829353" flag="0"/>
      <vel value="0.0119074384" flag="0"/>
      <psa03 value="0.0656689416" flag="0"/>
      <psa10 value="0.0054865441" flag="0"/>
      <psa30 value="0.0015110249" flag="0"/>
    </comp>
    <comp name="--.HHN">
      <acc value="0.0378882259" flag="0"/>
      <vel value="0.0096283016" flag="0"/>
      <psa03 value="0.0777318868" flag="0"/>
      <psa10 value="0.0051503679" flag="0"/>
      <psa30 value="0.0019271778" flag="0"/>
    </comp>
    <comp name="--.HHZ">
      <acc value="0.0243257032" flag="0"/>
      <vel value="0.0072218631" flag="0"/>
      <psa03 value="0.0355392706" flag="0"/>
      <psa10 value="0.0051362059" flag="0"/>
      <psa30 value="0.0016473393" flag="0"/>
    </comp>
  </station>
  <station code="EFP" name="EFP" netid="HP" insttype="40," lat="38.4269" lon="21.9058">
    <comp name="--.HHZ">
      <acc value="0.1174569636" flag="0"/>
      <vel value="0.0233019295" flag="0"/>
      <psa03 value="0.1253182026" flag="0"/>
      <psa10 value="0.0098909398" flag="0"/>
      <psa30 value="0.0011244867" flag="0"/>
    </comp>
    <comp name="--.HHN">
      <acc value="0.1352529450" flag="0"/>
      <vel value="0.0275794337" flag="0"/>
      <psa03 value="0.1268241281" flag="0"/>
      <psa10 value="0.0148155786" flag="0"/>
      <psa30 value="0.0016668997" flag="0"/>
    </comp>
    <comp name="--.HHE">
      <acc value="0.1378641130" flag="0"/>
      <vel value="0.0304566780" flag="0"/>
      <psa03 value="0.1253723521" flag="0"/>
      <psa10 value="0.0098267810" flag="0"/>
      <psa30 value="0.0019048335" flag="0"/>
    </comp>
  </station>
  <station code="GUR" name="GUR" netid="HP" insttype="40," lat="37.9363" lon="22.3423">
    <comp name="--.HHZ">
      <acc value="0.0163488725" flag="0"/>
      <vel value="0.0032879300" flag="0"/>
      <psa03 value="0.0160731169" flag="0"/>
      <psa10 value="0.0037179028" flag="0"/>
      <psa30 value="0.0009823913" flag="0"/>
    </comp>
    <comp name="--.HHE">
      <acc value="0.0291444994" flag="0"/>
      <vel value="0.0083123558" flag="0"/>
      <psa03 value="0.0407999477" flag="0"/>
      <psa10 value="0.0061969989" flag="0"/>
      <psa30 value="0.0005629279" flag="0"/>
    </comp>
    <comp name="--.HHN">
      <acc value="0.0220815233" flag="0"/>
      <vel value="0.0069940237" flag="0"/>
      <psa03 value="0.0385623181" flag="0"/>
      <psa10 value="0.0036749381" flag="0"/>
      <psa30 value="0.0006629184" flag="0"/>
    </comp>
  </station>
  <station code="LTK" name="LTK" netid="HP" insttype="120s" lat="38.0228" lon="22.9673">
    <comp name="--.HHN">
      <acc value="0.0049933374" flag="0"/>
      <vel value="0.0028864504" flag="0"/>
      <psa03 value="0.0108332732" flag="0"/>
      <psa10 value="0.0021439058" flag="0"/>
      <psa30 value="0.0004047995" flag="0"/>
    </comp>
    <comp name="--.HHE">
      <acc value="0.0050526110" flag="0"/>
      <vel value="0.0024390750" flag="0"/>
      <psa03 value="0.0112222228" flag="0"/>
      <psa10 value="0.0029321808" flag="0"/>
      <psa30 value="0.0003288827" flag="0"/>
    </comp>
    <comp name="--.HHZ">
      <acc value="0.0042735169" flag="0"/>
      <vel value="0.0020827676" flag="0"/>
      <psa03 value="0.0115006885" flag="0"/>
      <psa10 value="0.0018191088" flag="0"/>
      <psa30 value="0.0003191128" flag="0"/>
    </comp>
  </station>
  <station code="PLEV" name="PLEV" netid="HP" insttype="Compact," lat="38.4124" lon="21.4073">
    <comp name="--.HHE">
      <acc value="0.0106240171" flag="0"/>
      <vel value="0.0031491399" flag="0"/>
      <psa03 value="0.0171347757" flag="0"/>
      <psa10 value="0.0022318955" flag="0"/>
      <psa30 value="0.0004590756" flag="0"/>
    </comp>
    <comp name="--.HHN">
      <acc value="0.0125191120" flag="0"/>
      <vel value="0.0038112334" flag="0"/>
