<stationlist created="1778136014">
	<station code="AGRP" name="AGRP" netid="CL" source="Corinth Riff Laboratory (CRLNET)" insttype="" lat="38.3959" lon="21.72277">
		<comp name="00.HNE" depth="0.0">
			<acc value="0.0673453200405389" flag="0"/>
			<vel value="0.0150593786412228" flag="0"/>
			<psa03 value="0.0908714216417099" flag="0"/>
			<psa10 value="0.00995021932983746" flag="0"/>
			<psa30 value="0.00132168478350375" flag="0"/>
		</comp>
		<comp name="00.HNN" depth="0.0">
			<acc value="0.0483300512575607" flag="0"/>
			<vel value="0.011225479914398" flag="0"/>
			<psa03 value="0.0469793169491853" flag="0"/>
			<psa10 value="0.00832741949579274" flag="0"/>
			<psa30 value="0.00208767136080856" flag="0"/>
		</comp>
		<comp name="00.HNZ" depth="0.0">
			<acc value="0.0583122588739957" flag="0"/>
			<vel value="0.00992838820404231" flag="0"/>
			<psa03 value="0.038523039898332" flag="0"/>
			<psa10 value="0.00806567758707585" flag="0"/>
			<psa30 value="0.00212525481436791" flag="0"/>
		</comp>
	</station>
	<station code="MALA" name="MALA" netid="CL" source="Corinth Riff Laboratory (CRLNET)" insttype="" lat="38.39341" lon="21.87263">
		<comp name="01.HNE" depth="0.0">
			<acc value="0.486154465180384" flag="0"/>
			<vel value="0.148263513053362" flag="0"/>
			<psa03 value="0.397221310357017" flag="0"/>
			<psa10 value="0.107479281316346" flag="0"/>
			<psa30 value="0.00803122608797978" flag="0"/>
		</comp>
		<comp name="01.HNN" depth="0.0">
			<acc value="0.577137455492221" flag="0"/>
			<vel value="0.224110037677696" flag="0"/>
			<psa03 value="0.55480336206657" flag="0"/>
			<psa10 value="0.105538364393246" flag="0"/>
			<psa30 value="0.00684958441119122" flag="0"/>
		</comp>
		<comp name="01.HNZ" depth="0.0">
			<acc value="0.158688335602962" flag="0"/>
			<vel value="0.0325539735368676" flag="0"/>
			<psa03 value="0.133913424408487" flag="0"/>
			<psa10 value="0.0430223161958654" flag="0"/>
			<psa30 value="0.00235657202258437" flag="0"/>
		</comp>
	</station>
	<station code="AIGS" name="AIGS" netid="HA" source="Hellenic Seismological Network, University of Athens, Seismological Laboratory (HA)" insttype="" lat="38.25001" lon="22.0878">
		<comp name="--.HNE" depth="0.0">
			<acc value="0.413120783081911" flag="0"/>
			<vel value="0.12486941745303" flag="0"/>
			<psa03 value="0.375342371320682" flag="0"/>
			<psa10 value="0.0353754256627366" flag="0"/>
			<psa30 value="0.00661826720297476" flag="0"/>
		</comp>
		<comp name="--.HNN" depth="0.0">
			<acc value="0.582711143529597" flag="0"/>
			<vel value="0.148404171659767" flag="0"/>
			<psa03 value="0.658157859354778" flag="0"/>
			<psa10 value="0.0483135295505422" flag="0"/>
			<psa30 value="0.00615608020860801" flag="0"/>
		</comp>
		<comp name="--.HNZ" depth="0.0">
			<acc value="0.435128401670342" flag="0"/>
			<vel value="0.0752101381001728" flag="0"/>
			<psa03 value="0.130155079052553" flag="0"/>
			<psa10 value="0.0312197695120315" flag="0"/>
			<psa30 value="0.00624735431010928" flag="0"/>
		</comp>
	</station>
	<station code="KLV1" name="KLV1" netid="HI" source="ITSAK Strong Motion Network" insttype="" lat="38.03256" lon="22.10797">
		<comp name="--.HNE" depth="0.0">
			<acc value="0.0455449578553188" flag="0"/>
			<vel value="0.013983806282826" flag="0"/>
			<psa03 value="0.0836679263761682" flag="0"/>
			<psa10 value="0.0159461224387521" flag="0"/>
			<psa30 value="0.00173823472711986" flag="0"/>
		</comp>
		<comp name="--.HNN" depth="0.0">
			<acc value="0.0513476476918451" flag="0"/>
			<vel value="0.0143667751907133" flag="0"/>
			<psa03 value="0.065189395042822" flag="0"/>
			<psa10 value="0.011303223657974" flag="0"/>
			<psa30 value="0.00163443280776547" flag="0"/>
		</comp>
		<comp name="--.HNZ" depth="0.0">
			<acc value="0.0324973722094879" flag="0"/>
			<vel value="0.00941537551027488" flag="0"/>
			<psa03 value="0.0309168647732258" flag="0"/>
			<psa10 value="0.0148105652347803" flag="0"/>
			<psa30 value="0.0019623931822774" flag="0"/>
		</comp>
	</station>
	<station code="LAM2" name="LAM2" netid="HI" source="ITSAK Strong Motion Network" insttype="" lat="38.90203" lon="22.431301">
		<comp name="--.HNE" depth="0.0">
			<acc value="0.0195813803278737" flag="0"/>
			<vel value="0.00651889010950251" flag="0"/>
			<psa03 value="0.0384335554850954" flag="0"/>
			<psa10 value="0.00763883693593754" flag="0"/>
			<psa30 value="0.00121788286414936" flag="0"/>
		</comp>
		<comp name="--.HNN" depth="0.0">
			<acc value="0.0193456836563861" flag="0"/>
			<vel value="0.0085834375250161" flag="0"/>
			<psa03 value="0.0442053001388525" flag="0"/>
			<psa10 value="0.00562141083951966" flag="0"/>
			<psa30 value="0.0017163110458769" flag="0"/>
		</comp>
		<comp name="--.HNZ" depth="0.0">
			<acc value="0.0162712766279514" flag="0"/>
			<vel value="0.00407778556950176" flag="0"/>
			<psa03 value="0.0167783274818519" flag="0"/>
			<psa10 value="0.0063220737951618" flag="0"/>
			<psa30 value="0.00154763292692602" flag="0"/>
		</comp>
	</station>
	<station code="MSL1" name="MSL1" netid="HI" source="ITSAK Strong Motion Network" insttype="" lat="38.3727" lon="21.4243">
		<comp name="--.HNE" depth="0.0">
			<acc value="0.0163905317607022" flag="0"/>
			<vel value="0.010906922988234" flag="0"/>
			<psa03 value="0.0682318650928644" flag="0"/>
			<psa10 value="0.0216843104375454" flag="0"/>
			<psa30 value="0.00187827783383505" flag="0"/>
		</comp>
		<comp name="--.HNN" depth="0.0">
			<acc value="0.0240864118240428" flag="0"/>
			<vel value="0.0107709220766919" flag="0"/>
			<psa03 value="0.0740483519532398" flag="0"/>
			<psa10 value="0.0111663125057221" flag="0"/>
			<psa30 value="0.00113421493777319" flag="0"/>
		</comp>
		<comp name="--.HNZ" depth="0.0">
			<acc value="0.0130119045049353" flag="0"/>
			<vel value="0.00589083527615877" flag="0"/>
			<psa03 value="0.0284560434092208" flag="0"/>
			<psa10 value="0.0100307553017503" flag="0"/>
			<psa30 value="0.000550776563470925" flag="0"/>
		</comp>
	</station>
	<station code="VAS2" name="VAS2" netid="HI" source="ITSAK Strong Motion Network" insttype="" lat="38.630558" lon="20.608081">
		<comp name="--.HNE" depth="0.0">
			<acc value="0.00853688922139306" flag="0"/>
			<vel value="0.00519287854944671" flag="0"/>
			<psa03 value="0.0233554318547379" flag="0"/>
			<psa10 value="0.0110092673604919" flag="0"/>
			<psa30 value="0.000548539453140012" flag="0"/>
		</comp>
		<comp name="--.HNN" depth="0.0">
			<acc value="0.0115092130058931" flag="0"/>
			<vel value="0.00716735471237218" flag="0"/>
			<psa03 value="0.0472030279822767" flag="0"/>
			<psa10 value="0.0126602547847062" flag="0"/>
			<psa30 value="0.00102056973296278" flag="0"/>
		</comp>
		<comp name="--.HNZ" depth="0.0">
			<acc value="0.00380159572767158" flag="0"/>
			<vel value="0.00306299176190292" flag="0"/>
			<psa03 value="0.0122593646134065" flag="0"/>
			<psa10 value="0.00454625561448259" flag="0"/>
			<psa30 value="0.000347646945423971" flag="0"/>
		</comp>
	</station>
	<station code="DLFA" name="DLFA" netid="HL" source="National Observatory of Athens Seismic Network" insttype="" lat="38.47836" lon="22.49583">
		<comp name="00.HNE" depth="0.0">
			<acc value="0.088314761192212" flag="0"/>
			<vel value="0.0202811279780693" flag="0"/>
			<psa03 value="0.0938691494851342" flag="0"/>
			<psa10 value="0.0152293522887273" flag="0"/>
			<psa30 value="0.000913188437078926" flag="0"/>
		</comp>
		<comp name="00.HNN" depth="0.0">
			<acc value="0.0887485263357339" flag="0"/>
			<vel value="0.0238748632014572" flag="0"/>
			<psa03 value="0.12738106224222" flag="0"/>
			<psa10 value="0.0156320321482918" flag="0"/>
			<psa30 value="0.00117090354720017" flag="0"/>
		</comp>
		<comp name="00.HNZ" depth="0.0">
			<acc value="0.0745346174427659" flag="0"/>
			<vel value="0.0177729439890852" flag="0"/>
			<psa03 value="0.0564199225456407" flag="0"/>
			<psa10 value="0.00807775798286278" flag="0"/>
			<psa30 value="0.00136553214598965" flag="0"/>
		</comp>
	</station>
	<station code="KYMI" name="KYMI" netid="HL" source="National Observatory of Athens Seismic Network" insttype="" lat="38.633147" lon="24.100138">
		<comp name="--.HNE" depth="1.0">
			<acc value="0.000838855746497791" flag="0"/>
			<vel value="0.000890296693361666" flag="0"/>
			<psa03 value="0.0020581415044405" flag="0"/>
			<psa10 value="0.0011959591829064" flag="0"/>
			<psa30 value="0.000187469845730559" flag="0"/>
		</comp>
		<comp name="--.HNN" depth="1.0">
			<acc value="0.000910630535368976" flag="0"/>
			<vel value="0.000795968810475672" flag="0"/>
			<psa03 value="0.00255030577724149" flag="0"/>
			<psa10 value="0.00156642465370569" flag="0"/>
			<psa30 value="0.000156597723163951" flag="0"/>
		</comp>
		<comp name="--.HNZ" depth="1.0">
			<acc value="0.000451004591821866" flag="0"/>
			<vel value="0.000536460437245025" flag="0"/>
			<psa03 value="0.00165546164487605" flag="0"/>
			<psa10 value="0.000692609358450847" flag="0"/>
			<psa30 value="0.000213867747635339" flag="0"/>
		</comp>
	</station>
	<station code="PATC" name="PATC" netid="HL" source="National Observatory of Athens Seismic Network" insttype="" lat="38.26933" lon="21.76001">
		<comp name="00.HNE" depth="0.0">
			<acc value="0.0687106943182616" flag="0"/>
			<vel value="0.0348834302463975" flag="0"/>
			<psa03 value="0.151049689543285" flag="0"/>
			<psa10 value="0.0246440074053441" flag="0"/>
			<psa30 value="0.00437713007346553" flag="0"/>
		</comp>
		<comp name="00.HNN" depth="0.0">
			<acc value="0.105797254983079" flag="0"/>
			<vel value="0.0329900434966669" flag="0"/>
			<psa03 value="0.175434192150244" flag="0"/>
			<psa10 value="0.0287191275841363" flag="0"/>
			<psa30 value="0.00452209482290873" flag="0"/>
		</comp>
		<comp name="00.HNZ" depth="0.0">
			<acc value="0.106532624746245" flag="0"/>
			<vel value="0.0266144835976474" flag="0"/>
			<psa03 value="0.11055799255375" flag="0"/>
			<psa10 value="0.0151810307055796" flag="0"/>
			<psa30 value="0.00336416651562785" flag="0"/>
		</comp>
	</station>
	<station code="PATG" name="PATG" netid="HL" source="National Observatory of Athens Seismic Network" insttype="" lat="38.23865" lon="21.72657">
		<comp name="00.HNE" depth="0.0">
			<acc value="0.0836920623290562" flag="0"/>
			<vel value="0.0398179366798574" flag="0"/>
			<psa03 value="0.110155312694185" flag="0"/>
			<psa10 value="0.0296211304695606" flag="0"/>
			<psa30 value="0.00713369742321725" flag="0"/>
		</comp>
		<comp name="00.HNN" depth="0.0">
			<acc value="0.0684924701770537" flag="0"/>
			<vel value="0.0406969254468811" flag="0"/>
			<psa03 value="0.156731949783806" flag="0"/>
			<psa10 value="0.0316184225730003" flag="0"/>
			<psa30 value="0.00993903377818289" flag="0"/>
		</comp>
		<comp name="00.HNZ" depth="0.0">
			<acc value="0.0519292164409962" flag="0"/>
			<vel value="0.0197418897594806" flag="0"/>
			<psa03 value="0.087918436004904" flag="0"/>
			<psa10 value="0.0170051704694065" flag="0"/>
			<psa30 value="0.00391046885843695" flag="0"/>
		</comp>
	</station>
	<station code="RIOA" name="RIOA" netid="HL" source="National Observatory of Athens Seismic Network" insttype="" lat="38.29585" lon="21.79118">
		<comp name="00.HNE" depth="0.0">
			<acc value="0.134023850632775" flag="0"/>
			<vel value="0.0336991524564799" flag="0"/>
			<psa03 value="0.190870253433547" flag="0"/>
			<psa10 value="0.0175528150784142" flag="0"/>
			<psa30 value="0.00287244966489305" flag="0"/>
		</comp>
		<comp name="00.HNN" depth="0.0">
			<acc value="0.103818470031515" flag="0"/>
			<vel value="0.0357709912589629" flag="0"/>
			<psa03 value="0.149036290245463" flag="0"/>
			<psa10 value="0.0155233085862094" flag="0"/>
			<psa30 value="0.00245321518887984" flag="0"/>
		</comp>
		<comp name="00.HNZ" depth="0.0">
			<acc value="0.116903299772625" flag="0"/>
			<vel value="0.0291575113389225" flag="0"/>
			<psa03 value="0.0931532741792418" flag="0"/>
			<psa10 value="0.0115649655666909" flag="0"/>
			<psa30 value="0.00486884692420033" flag="0"/>
		</comp>
	</station>
	<station code="ANX" name="ANX" netid="HP" source="University of Patras, Seismological Laboratory (PSLNET)" insttype="" lat="38.5933" lon="21.9209">
		<comp name="--.HNE" depth="0.0">
			<acc value="0.334915380936807" flag="0"/>
			<vel value="0.0825290688352432" flag="0"/>
			<psa03 value="0.418742311740405" flag="0"/>
			<psa10 value="0.0219057843603059" flag="0"/>
			<psa30 value="0.00381024631561202" flag="0"/>
		</comp>
		<comp name="--.HNN" depth="0.0">
			<acc value="0.219981920877023" flag="0"/>
			<vel value="0.0557580366167731" flag="0"/>
			<psa03 value="0.422455914889722" flag="0"/>
			<psa10 value="0.0388747136423516" flag="0"/>
			<psa30 value="0.00367244031922774" flag="0"/>
		</comp>
		<comp name="--.HNZ" depth="0.0">
			<acc value="0.167797642531481" flag="0"/>
			<vel value="0.042871391913479" flag="0"/>
			<psa03 value="0.26380005022133" flag="0"/>
			<psa10 value="0.0221312850816619" flag="0"/>
			<psa30 value="0.00473551514847788" flag="0"/>
		</comp>
	</station>
	<station code="LTK" name="LTK" netid="HP" source="University of Patras, Seismological Laboratory (PSLNET)" insttype="" lat="38.0228" lon="22.9673">
		<comp name="--.HNE" depth="0.0">
			<acc value="0.00476991667141709" flag="0"/>
			<vel value="0.00235469573131685" flag="0"/>
			<psa03 value="0.0107381295883852" flag="0"/>
			<psa10 value="0.00282681261414241" flag="0"/>
			<psa30 value="0.000486347785940614" flag="0"/>
		</comp>
		<comp name="--.HNN" depth="0.0">
			<acc value="0.00479053040097566" flag="0"/>
			<vel value="0.00275635850571267" flag="0"/>
			<psa03 value="0.0106039029685304" flag="0"/>
			<psa10 value="0.00210198886692641" flag="0"/>
			<psa30 value="0.000456370507506372" flag="0"/>
		</comp>
		<comp name="--.HNZ" depth="0.0">
			<acc value="0.00404485639131458" flag="0"/>
			<vel value="0.00204193029775694" flag="0"/>
			<psa03 value="0.0110065828280949" flag="0"/>
			<psa10 value="0.00176373778489227" flag="0"/>
			<psa30 value="0.000370912892865473" flag="0"/>
		</comp>
	</station>
	<station code="PVO" name="PVO" netid="HP" source="University of Patras, Seismological Laboratory (PSLNET)" insttype="" lat="38.616" lon="21.525">
		<comp name="--.HNE" depth="0.0">
			<acc value="0.0196583892981106" flag="0"/>
			<vel value="0.00645082181007812" flag="0"/>
			<psa03 value="0.0357490230879991" flag="0"/>
			<psa10 value="0.00434894248329601" flag="0"/>
			<psa30 value="0.00147694024046915" flag="0"/>
		</comp>
		<comp name="--.HNN" depth="0.0">
			<acc value="0.024405427043275" flag="0"/>
			<vel value="0.00746667517656753" flag="0"/>
			<psa03 value="0.0502454980323192" flag="0"/>
			<psa10 value="0.00347915398663681" flag="0"/>
			<psa30 value="0.00191093964466639" flag="0"/>
		</comp>
		<comp name="--.HNZ" depth="0.0">
			<acc value="0.0199574028547693" flag="0"/>
			<vel value="0.00621277488931534" flag="0"/>
			<psa03 value="0.0250556357062322" flag="0"/>
			<psa10 value="0.00432880849031779" flag="0"/>
			<psa30 value="0.00180982225770909" flag="0"/>
		</comp>
	</station>
	<station code="SERG" name="SERG" netid="HP" source="University of Patras, Seismological Laboratory (PSLNET)" insttype="" lat="38.4133" lon="22.0566">
		<comp name="--.HNE" depth="0.0">
			<acc value="5.22322073016317" flag="0"/>
			<vel value="1.09092277456172" flag="0"/>
			<psa03 value="4.2668852763581" flag="0"/>
			<psa10 value="0.264677444893115" flag="0"/>
			<psa30 value="0.019981422053654" flag="0"/>
		</comp>
		<comp name="--.HNN" depth="0.0">
			<acc value="5.55154059916702" flag="0"/>
			<vel value="1.63971496628873" flag="0"/>
			<psa03 value="2.90247168553391" flag="0"/>
			<psa10 value="0.405659690525223" flag="0"/>
			<psa30 value="0.0420183010793514" flag="0"/>
		</comp>
		<comp name="--.HNZ" depth="0.0">
			<acc value="2.4238269668757" flag="0"/>
			<vel value="0.411331200471928" flag="0"/>
			<psa03 value="1.28436978318411" flag="0"/>
			<psa10 value="0.202274147056412" flag="0"/>
			<psa30 value="0.017427536899883" flag="0"/>
		</comp>
	</station>
	<station code="VALY" name="VALY" netid="HP" source="University of Patras, Seismological Laboratory (PSLNET)" insttype="" lat="37.1641" lon="21.9836">
		<comp name="--.HNE" depth="0.0">
			<acc value="0.00234257946376078" flag="0"/>
			<vel value="0.0012395775115353" flag="0"/>
			<psa03 value="0.00604019789346669" flag="0"/>
			<psa10 value="0.00223890001917832" flag="0"/>
			<psa30 value="0.000408943768491004" flag="0"/>
		</comp>
		<comp name="--.HNN" depth="0.0">
			<acc value="0.00381640935050545" flag="0"/>
			<vel value="0.00149548273101796" flag="0"/>
			<psa03 value="0.00402679859564446" flag="0"/>
			<psa10 value="0.00209796206833076" flag="0"/>
			<psa30 value="0.0004478694882489" flag="0"/>
		</comp>
		<comp name="--.HNZ" depth="0.0">
			<acc value="0.0012699632519524" flag="0"/>
			<vel value="0.00114461645750997" flag="0"/>
			<psa03 value="0.00268453239709631" flag="0"/>
			<psa10 value="0.00173555019472276" flag="0"/>
			<psa30 value="0.000267110973511082" flag="0"/>
		</comp>
	</station>
</stationlist>
