<?xml version="1.0" encoding="UTF-8" standalone="yes"?>
<!DOCTYPE earthquake SYSTEM "stationlist.dtd">
<stationlist created="" xmlns="ch.ethz.sed.shakemap.usgs.xml">
  <station code="ARG" name="ARG" netid="HL" source="NOA" insttype="LE3D20_DR24" lat="36.2136" lon="28.1212">
    <comp name="--.HHE">
      <acc value="0.0177910224" flag="0"/>
      <vel value="0.0113628698" flag="0"/>
      <psa03 value="0.0538155031" flag="0"/>
      <psa10 value="0.0062242686" flag="0"/>
      <psa30 value="0.0007547627" flag="0"/>
    </comp>
    <comp name="--.HHN">
      <acc value="0.0134079912" flag="0"/>
      <vel value="0.0113744368" flag="0"/>
      <psa03 value="0.0288765426" flag="0"/>
      <psa10 value="0.0099041791" flag="0"/>
      <psa30 value="0.0018906322" flag="0"/>
    </comp>
    <comp name="--.HHZ">
      <acc value="0.0142372438" flag="0"/>
      <vel value="0.0081684634" flag="0"/>
      <psa03 value="0.0216594769" flag="0"/>
      <psa10 value="0.0062912534" flag="0"/>
      <psa30 value="0.0012968702" flag="0"/>
    </comp>
  </station>
  <station code="SMG" name="SMG" netid="HL" source="NOA" insttype="120P," lat="37.7043" lon="26.8377">
    <comp name="--.HHE">
      <acc value="0.0443160904" flag="0"/>
      <vel value="0.0246933939" flag="0"/>
      <psa03 value="0.1271286226" flag="0"/>
      <psa10 value="0.0112956702" flag="0"/>
      <psa30 value="0.0011203641" flag="0"/>
    </comp>
    <comp name="--.HHN">
      <acc value="0.0357113575" flag="0"/>
      <vel value="0.0150957498" flag="0"/>
      <psa03 value="0.1039872015" flag="0"/>
      <psa10 value="0.0085967768" flag="0"/>
      <psa30 value="0.0009770460" flag="0"/>
    </comp>
    <comp name="--.HHZ">
      <acc value="0.0172926493" flag="0"/>
      <vel value="0.0094367509" flag="0"/>
      <psa03 value="0.0394386302" flag="0"/>
      <psa10 value="0.0071587484" flag="0"/>
      <psa30 value="0.0014024173" flag="0"/>
    </comp>
  </station>
  <station code="AYDN" name="AYDN" netid="TU" source="ODC" insttype="T" lat="37.6608" lon="27.8792">
    <comp name="--.HHE">
      <acc value="0.0843182656" flag="0"/>
      <vel value="0.0344858545" flag="0"/>
      <psa03 value="0.1706241507" flag="0"/>
      <psa10 value="0.0264717626" flag="0"/>
      <psa30 value="0.0040544151" flag="0"/>
    </comp>
    <comp name="--.HHN">
      <acc value="0.0721601957" flag="0"/>
      <vel value="0.0515575779" flag="0"/>
      <psa03 value="0.1856824481" flag="0"/>
      <psa10 value="0.0339578288" flag="0"/>
      <psa30 value="0.0086254882" flag="0"/>
    </comp>
    <comp name="--.HHZ">
      <acc value="0.0544572329" flag="0"/>
      <vel value="0.0222416906" flag="0"/>
      <psa03 value="0.0930391953" flag="0"/>
      <psa10 value="0.0197532139" flag="0"/>
      <psa30 value="0.0075148202" flag="0"/>
    </comp>
  </station>
</stationlist>
