<stationlist xmlns:esm="https://esm-db.eu/esmws/shakemap/1/" created="1780710868">
	<station code="KARP" name="KARP" netid="GE" source="GEOFON" insttype="" lat="35.5471" lon="27.16106" esm:processing="manual (Paolucci et al 2011)" esm:quality="good">
		<comp name="--.HNE" depth="0.0">
			<acc value="0.0062702047787726" flag="0"/>
			<vel value="0.00355664153515444" flag="0"/>
			<psa03 value="0.0148991548038845" flag="0"/>
			<psa10 value="0.00328586765404588" flag="0"/>
			<psa30 value="0.000663079502082787" flag="0"/>
		</comp>
		<comp name="--.HNN" depth="0.0">
			<acc value="0.00516252502478065" flag="0"/>
			<vel value="0.00255041716211247" flag="0"/>
			<psa03 value="0.0147649281840297" flag="0"/>
			<psa10 value="0.00485631910634722" flag="0"/>
			<psa30 value="0.000322591309717739" flag="0"/>
		</comp>
		<comp name="--.HNZ" depth="0.0">
			<acc value="0.00323146091070389" flag="0"/>
			<vel value="0.00186495761612594" flag="0"/>
			<psa03 value="0.00630865113317632" flag="0"/>
			<psa10 value="0.00269392826048614" flag="0"/>
			<psa30 value="0.000374044847328752" flag="0"/>
		</comp>
	</station>
	<station code="KOS2" name="KOS2" netid="HI" source="ITSAK Strong Motion Network" insttype="" lat="36.8941" lon="27.2888" esm:processing="manual (Paolucci et al 2011)" esm:quality="good">
		<comp name="--.HNE" depth="0.0">
			<acc value="0.304631089803375" flag="0"/>
			<vel value="0.197448099493224" flag="0"/>
			<psa03 value="0.811151568143797" flag="0"/>
			<psa10 value="0.110618205413223" flag="0"/>
			<psa30 value="0.0133953582100737" flag="0"/>
		</comp>
		<comp name="--.HNN" depth="0.0">
			<acc value="0.435693153183524" flag="0"/>
			<vel value="0.282288871005324" flag="0"/>
			<psa03 value="0.989160693708076" flag="0"/>
			<psa10 value="0.124346709859266" flag="0"/>
			<psa30 value="0.013357365693256" flag="0"/>
		</comp>
		<comp name="--.HNZ" depth="0.0">
			<acc value="0.182702501227888" flag="0"/>
			<vel value="0.0672588021068459" flag="0"/>
			<psa03 value="0.269267754333894" flag="0"/>
			<psa10 value="0.044073549656363" flag="0"/>
			<psa30 value="0.00737040575320907" flag="0"/>
		</comp>
	</station>
	<station code="KRL1" name="KRL1" netid="HI" source="ITSAK Strong Motion Network" insttype="" lat="37.7951" lon="26.7065" esm:processing="manual (Paolucci et al 2011)" esm:quality="good">
		<comp name="--.HNE" depth="0.0">
			<acc value="0.0289860160252322" flag="0"/>
			<vel value="0.0162396134742175" flag="0"/>
			<psa03 value="0.0926567630556557" flag="0"/>
			<psa10 value="0.0127290322984269" flag="0"/>
			<psa30 value="0.00242311656124578" flag="0"/>
		</comp>
		<comp name="--.HNN" depth="0.0">
			<acc value="0.0200872007444243" flag="0"/>
			<vel value="0.0168026092414212" flag="0"/>
			<psa03 value="0.0531144769068863" flag="0"/>
			<psa10 value="0.0184386383443021" flag="0"/>
			<psa30 value="0.00173197223465997" flag="0"/>
		</comp>
		<comp name="--.HNZ" depth="0.0">
			<acc value="0.0157077823777276" flag="0"/>
			<vel value="0.00964486490679251" flag="0"/>
			<psa03 value="0.0344806070876565" flag="0"/>
			<psa10 value="0.0127430422890276" flag="0"/>
			<psa30 value="0.00185508226509709" flag="0"/>
		</comp>
	</station>
	<station code="RDI1" name="RDI1" netid="HI" source="ITSAK Strong Motion Network" insttype="" lat="36.4514" lon="28.224" esm:processing="manual (Paolucci et al 2011)" esm:quality="bad">
		<comp name="--.HNE" depth="0.0">
			<acc value="0.0225333763477882" flag="0"/>
			<vel value="0.0142869743010025" flag="0"/>
			<psa03 value="0.0585228062566995" flag="0"/>
			<psa10 value="0.0111059105267874" flag="0"/>
			<psa30 value="0.00334940158744382" flag="0"/>
		</comp>
		<comp name="--.HNN" depth="0.0">
			<acc value="0.0191376634560732" flag="0"/>
			<vel value="0.0121486970477143" flag="0"/>
			<psa03 value="0.0493059116933355" flag="0"/>
			<psa10 value="0.007916686039037" flag="0"/>
			<psa30 value="0.00596771551874509" flag="0"/>
		</comp>
		<comp name="--.HNZ" depth="0.0">
			<acc value="0.0113231226118399" flag="0"/>
			<vel value="0.00768400872587668" flag="0"/>
			<psa03 value="0.0277401681033285" flag="0"/>
			<psa10 value="0.00651536012775273" flag="0"/>
			<psa30 value="0.00177492333654684" flag="0"/>
		</comp>
	</station>
	<station code="RKL1" name="RKL1" netid="HI" source="ITSAK Strong Motion Network" insttype="" lat="36.336699" lon="28.171224" esm:processing="manual (Paolucci et al 2011)" esm:quality="good">
		<comp name="--.HNE" depth="0.0">
			<acc value="0.0440192952096582" flag="0"/>
			<vel value="0.018164129486255" flag="0"/>
			<psa03 value="0.11026933605234" flag="0"/>
			<psa10 value="0.0151122214230023" flag="0"/>
			<psa30 value="0.00184762843798299" flag="0"/>
		</comp>
		<comp name="--.HNN" depth="0.0">
			<acc value="0.0387388459501397" flag="0"/>
			<vel value="0.0174451643926358" flag="0"/>
			<psa03 value="0.0816624930727207" flag="0"/>
			<psa10 value="0.0174600841448849" flag="0"/>
			<psa30 value="0.00157209768542287" flag="0"/>
		</comp>
		<comp name="--.HNZ" depth="0.0">
			<acc value="0.0209512236700785" flag="0"/>
			<vel value="0.00908957983362824" flag="0"/>
			<psa03 value="0.0425617882595898" flag="0"/>
			<psa10 value="0.00551856557788582" flag="0"/>
			<psa30 value="0.000880478431541592" flag="0"/>
		</comp>
	</station>
	<station code="RKT1" name="RKT1" netid="HI" source="ITSAK Strong Motion Network" insttype="" lat="35.954336" lon="27.767327" esm:processing="automatic (Paolucci et al 2011)" esm:quality="best">
		<comp name="--.HNE" depth="0.0">
			<acc value="0.0189381030456766" flag="0"/>
			<vel value="0.00833407530970152" flag="0"/>
			<psa03 value="0.0411013816189838" flag="0"/>
			<psa10 value="0.00532392534017531" flag="0"/>
			<psa30 value="0.000994527132541644" flag="0"/>
		</comp>
		<comp name="--.HNN" depth="0.0">
			<acc value="0.0246784030299244" flag="0"/>
			<vel value="0.00903314137340478" flag="0"/>
			<psa03 value="0.0468283990266136" flag="0"/>
			<psa10 value="0.0107675351713608" flag="0"/>
			<psa30 value="0.00123135469620545" flag="0"/>
		</comp>
		<comp name="--.HNZ" depth="0.0">
			<acc value="0.0101967982653443" flag="0"/>
			<vel value="0.00481864968469403" flag="0"/>
			<psa03 value="0.0108422182437478" flag="0"/>
			<psa10 value="0.00276780991632325" flag="0"/>
			<psa30 value="0.00137979640474012" flag="0"/>
		</comp>
	</station>
	<station code="RLN1" name="RLN1" netid="HI" source="ITSAK Strong Motion Network" insttype="" lat="36.089085" lon="28.086909" esm:processing="automatic (Paolucci et al 2011)" esm:quality="best">
		<comp name="--.HNE" depth="0.0">
			<acc value="0.0103865959882005" flag="0"/>
			<vel value="0.00461148080853682" flag="0"/>
			<psa03 value="0.0215811028192305" flag="0"/>
			<psa10 value="0.00401023581469151" flag="0"/>
			<psa30 value="0.00201879373517723" flag="0"/>
		</comp>
		<comp name="--.HNN" depth="0.0">
			<acc value="0.012623765679825" flag="0"/>
			<vel value="0.00622821145819174" flag="0"/>
			<psa03 value="0.0220756212557333" flag="0"/>
			<psa10 value="0.00342555802015707" flag="0"/>
			<psa30 value="0.00143768836479836" flag="0"/>
		</comp>
		<comp name="--.HNZ" depth="0.0">
			<acc value="0.00626023748477857" flag="0"/>
			<vel value="0.00500418074590979" flag="0"/>
			<psa03 value="0.0102115898791719" flag="0"/>
			<psa10 value="0.00193156487075556" flag="0"/>
			<psa30 value="0.000902793347295245" flag="0"/>
		</comp>
	</station>
	<station code="RPN1" name="RPN1" netid="HI" source="ITSAK Strong Motion Network" insttype="" lat="36.448678" lon="28.218047" esm:processing="manual (Paolucci et al 2011)" esm:quality="good">
		<comp name="--.HNE" depth="0.0">
			<acc value="0.0286585187491" flag="0"/>
			<vel value="0.0205134768370706" flag="0"/>
			<psa03 value="0.0484947646234897" flag="0"/>
			<psa10 value="0.0106264770769543" flag="0"/>
			<psa30 value="0.00296155514682725" flag="0"/>
		</comp>
		<comp name="--.HNN" depth="0.0">
			<acc value="0.0237360597220565" flag="0"/>
			<vel value="0.0177653830905614" flag="0"/>
			<psa03 value="0.0728583994280583" flag="0"/>
			<psa10 value="0.00999477491728646" flag="0"/>
			<psa30 value="0.00603760787855758" flag="0"/>
		</comp>
		<comp name="--.HNZ" depth="0.0">
			<acc value="0.0170878077589945" flag="0"/>
			<vel value="0.0105236654752476" flag="0"/>
			<psa03 value="0.0392579730438793" flag="0"/>
			<psa10 value="0.00644077932627066" flag="0"/>
			<psa30 value="0.00164139779704849" flag="0"/>
		</comp>
	</station>
	<station code="RSO1" name="RSO1" netid="HI" source="ITSAK Strong Motion Network" insttype="" lat="36.3632" lon="28.0016" esm:processing="manual (Paolucci et al 2011)" esm:quality="good">
		<comp name="--.HNE" depth="0.0">
			<acc value="0.0475510206698977" flag="0"/>
			<vel value="0.0200311267925767" flag="0"/>
			<psa03 value="0.113088699904691" flag="0"/>
			<psa10 value="0.0118805273391296" flag="0"/>
			<psa30 value="0.00225728495071647" flag="0"/>
		</comp>
		<comp name="--.HNN" depth="0.0">
			<acc value="0.0521855216883824" flag="0"/>
			<vel value="0.0261420474526648" flag="0"/>
			<psa03 value="0.103405235506032" flag="0"/>
			<psa10 value="0.0184395159024321" flag="0"/>
			<psa30 value="0.00206980044745492" flag="0"/>
		</comp>
		<comp name="--.HNZ" depth="0.0">
			<acc value="0.0257153117383078" flag="0"/>
			<vel value="0.0126200778418539" flag="0"/>
			<psa03 value="0.0771422040424235" flag="0"/>
			<psa10 value="0.00709674559331653" flag="0"/>
			<psa30 value="0.00171537582272963" flag="0"/>
		</comp>
	</station>
	<station code="KARP" name="KARP" netid="HL" source="National Observatory of Athens Seismic Network" insttype="" lat="35.5471" lon="27.16106" esm:processing="manual (Paolucci et al 2011)" esm:quality="good">
		<comp name="--.HNE" depth="0.0">
			<acc value="0.00614291897922591" flag="0"/>
			<vel value="0.00348439852586669" flag="0"/>
			<psa03 value="0.0146307015641749" flag="0"/>
			<psa10 value="0.00322143887651557" flag="0"/>
			<psa30 value="0.000649656840097306" flag="0"/>
		</comp>
		<comp name="--.HNN" depth="0.0">
			<acc value="0.00505769077579273" flag="0"/>
			<vel value="0.00249864336122134" flag="0"/>
			<psa03 value="0.0144517327377018" flag="0"/>
			<psa10 value="0.00475967594005175" flag="0"/>
			<psa30 value="0.000315879978724999" flag="0"/>
		</comp>
		<comp name="--.HNZ" depth="0.0">
			<acc value="0.0031658413527961" flag="0"/>
			<vel value="0.00182707256842861" flag="0"/>
			<psa03 value="0.0061744245133215" flag="0"/>
			<psa10 value="0.00264157987874276" flag="0"/>
			<psa30 value="0.000366438672203646" flag="0"/>
		</comp>
	</station>
	<station code="KLNA" name="KLNA" netid="HL" source="National Observatory of Athens Seismic Network" insttype="" lat="36.95708" lon="26.97274" esm:processing="manual (Paolucci et al 2011)" esm:quality="best">
		<comp name="00.HNE" depth="0.0">
			<acc value="0.147550441412723" flag="0"/>
			<vel value="0.0443275633116088" flag="0"/>
			<psa03 value="0.304068036177775" flag="0"/>
			<psa10 value="0.0086858045708051" flag="0"/>
			<psa30 value="0.000855023568475173" flag="0"/>
		</comp>
		<comp name="00.HNN" depth="0.0">
			<acc value="0.133304259449439" flag="0"/>
			<vel value="0.0456776620305583" flag="0"/>
			<psa03 value="0.23118298159661" flag="0"/>
			<psa10 value="0.00981733497618119" flag="0"/>
			<psa30 value="0.00103488723908063" flag="0"/>
		</comp>
		<comp name="00.HNZ" depth="0.0">
			<acc value="0.210272714609749" flag="0"/>
			<vel value="0.0445810127262485" flag="0"/>
			<psa03 value="0.122504161720828" flag="0"/>
			<psa10 value="0.00838379467613176" flag="0"/>
			<psa30 value="0.000911398748814196" flag="0"/>
		</comp>
	</station>
	<station code="NISR" name="NISR" netid="HL" source="National Observatory of Athens Seismic Network" insttype="" lat="36.6106" lon="27.131" esm:processing="manual (Paolucci et al 2011)" esm:quality="good">
		<comp name="00.HNE" depth="0.0">
			<acc value="0.161930880436304" flag="0"/>
			<vel value="0.0575388708983157" flag="0"/>
			<psa03 value="0.180400577084872" flag="0"/>
			<psa10 value="0.0223608126016137" flag="0"/>
			<psa30 value="0.00256954492608735" flag="0"/>
		</comp>
		<comp name="00.HNN" depth="0.0">
			<acc value="0.0749340944992986" flag="0"/>
			<vel value="0.0219277751056546" flag="0"/>
			<psa03 value="0.0731087656142561" flag="0"/>
			<psa10 value="0.00915291320789985" flag="0"/>
			<psa30 value="0.00313061219708047" flag="0"/>
		</comp>
		<comp name="00.HNZ" depth="0.0">
			<acc value="0.0330659294119202" flag="0"/>
			<vel value="0.0153437138548814" flag="0"/>
			<psa03 value="0.0550329141404743" flag="0"/>
			<psa10 value="0.0114683224003954" flag="0"/>
			<psa30 value="0.00121206637728898" flag="0"/>
		</comp>
	</station>
	<station code="RODB" name="RODB" netid="HL" source="National Observatory of Athens Seismic Network" insttype="" lat="36.4471" lon="28.22116" esm:processing="manual (Paolucci et al 2011)" esm:quality="good">
		<comp name="00.HNE" depth="0.0">
			<acc value="0.0186896355141372" flag="0"/>
			<vel value="0.0144169980684844" flag="0"/>
			<psa03 value="0.0462186994366747" flag="0"/>
			<psa10 value="0.0127045495692583" flag="0"/>
			<psa30 value="0.00438921046925246" flag="0"/>
		</comp>
		<comp name="00.HNN" depth="0.0">
			<acc value="0.0172002912842477" flag="0"/>
			<vel value="0.0118621116422626" flag="0"/>
			<psa03 value="0.0623258938192526" flag="0"/>
			<psa10 value="0.0106669894798622" flag="0"/>
			<psa30 value="0.00517398877333694" flag="0"/>
		</comp>
		<comp name="00.HNZ" depth="0.0">
			<acc value="0.016699129885415" flag="0"/>
			<vel value="0.00696195227472435" flag="0"/>
			<psa03 value="0.0354805698482895" flag="0"/>
			<psa10 value="0.00546436569428953" flag="0"/>
			<psa30 value="0.00137671769764422" flag="0"/>
		</comp>
	</station>
	<station code="CAME" name="CAME" netid="KO" source="Bogazici University Kandilli Observatory And Earthquake Research Institute (KOERI)" insttype="" lat="36.9435" lon="29.3023" esm:processing="manual (Paolucci et al 2011)" esm:quality="best">
		<comp name="--.HNE" depth="0.0">
			<acc value="0.00700513366618272" flag="0"/>
			<vel value="0.00360910058112282" flag="0"/>
			<psa03 value="0.0141385372913739" flag="0"/>
			<psa10 value="0.00364022593046259" flag="0"/>
			<psa30 value="0.000248319246731408" flag="0"/>
		</comp>
		<comp name="--.HNN" depth="0.0">
			<acc value="0.004941255972603" flag="0"/>
			<vel value="0.00253805146497081" flag="0"/>
			<psa03 value="0.0161966787958144" flag="0"/>
			<psa10 value="0.00228722160232605" flag="0"/>
			<psa30 value="0.000206708994576415" flag="0"/>
		</comp>
		<comp name="--.HNZ" depth="0.0">
			<acc value="0.00316961563029177" flag="0"/>
			<vel value="0.00148231591752092" flag="0"/>
			<psa03 value="0.00568226024052051" flag="0"/>
			<psa10 value="0.00195702411748321" flag="0"/>
			<psa30 value="0.000232659474415013" flag="0"/>
		</comp>
	</station>
</stationlist>
