<?xml version="1.0" encoding="UTF-8" standalone="yes"?>
<!DOCTYPE earthquake SYSTEM "stationlist.dtd">
<stationlist created="" xmlns="ch.ethz.sed.shakemap.usgs.xml">
  <station code="THERA" name="THERA" netid="GE" insttype="STS-2/N" lat="36.367" lon="25.4753">
    <comp name="--.HHE">
      <acc value="0.2379508543" flag="0"/>
      <vel value="0.0510522129" flag="0"/>
      <psa03 value="0.2097286804" flag="0"/>
      <psa10 value="0.0158675062" flag="0"/>
      <psa30 value="0.0014988246" flag="0"/>
    </comp>
    <comp name="--.HHZ">
      <acc value="0.1738361982" flag="0"/>
      <vel value="0.0377800319" flag="0"/>
      <psa03 value="0.1371894148" flag="0"/>
      <psa10 value="0.0101673337" flag="0"/>
      <psa30 value="0.0009731408" flag="0"/>
    </comp>
    <comp name="--.HHN">
      <acc value="0.1124995332" flag="0"/>
      <vel value="0.0350459353" flag="0"/>
      <psa03 value="0.2026414557" flag="0"/>
      <psa10 value="0.0112717014" flag="0"/>
      <psa30 value="0.0008689488" flag="0"/>
    </comp>
  </station>
  <station code="SERI" name="SERI" netid="HA" insttype="30" lat="37.1609" lon="24.4853">
    <comp name="--.HHZ">
      <acc value="0.0139009813" flag="0"/>
      <vel value="0.0032549331" flag="0"/>
      <psa03 value="0.0152963807" flag="0"/>
      <psa10 value="0.0019095422" flag="0"/>
      <psa30 value="0.0002828841" flag="0"/>
    </comp>
    <comp name="--.HHN">
      <acc value="0.0186315929" flag="0"/>
      <vel value="0.0064446405" flag="0"/>
      <psa03 value="0.0212357950" flag="0"/>
      <psa10 value="0.0027286386" flag="0"/>
      <psa30 value="0.0003323937" flag="0"/>
    </comp>
    <comp name="--.HHE">
      <acc value="0.0205866756" flag="0"/>
      <vel value="0.0036180325" flag="0"/>
      <psa03 value="0.0216109426" flag="0"/>
      <psa10 value="0.0022379775" flag="0"/>
      <psa30 value="0.0002321613" flag="0"/>
    </comp>
  </station>
  <station code="SNT1" name="SNT1" netid="HA" insttype="30" lat="36.4159" lon="25.4282">
    <comp name="--.HHN">
      <acc value="0.1807555742" flag="0"/>
      <vel value="0.0813282887" flag="0"/>
      <psa03 value="0.2949319455" flag="0"/>
      <psa10 value="0.0446873659" flag="0"/>
      <psa30 value="0.0033467306" flag="0"/>
    </comp>
    <comp name="--.HHZ">
      <acc value="0.1557210011" flag="0"/>
      <vel value="0.0487787662" flag="0"/>
      <psa03 value="0.2388555443" flag="0"/>
      <psa10 value="0.0150392639" flag="0"/>
      <psa30 value="0.0010712946" flag="0"/>
    </comp>
    <comp name="--.HHE">
      <acc value="0.2062375811" flag="0"/>
      <vel value="0.0653531603" flag="0"/>
      <psa03 value="0.2065557112" flag="0"/>
      <psa10 value="0.0342722999" flag="0"/>
      <psa30 value="0.0018097379" flag="0"/>
    </comp>
  </station>
  <station code="NAX1" name="NAX1" netid="HI" insttype="CMG-5TD,ACCELEROMETER,GURALP" lat="37.1014" lon="25.3741">
    <comp name="--.HNE">
      <acc value="0.1261593516" flag="0"/>
      <vel value="0.0383191506" flag="0"/>
      <psa03 value="0.1367198372" flag="0"/>
      <psa10 value="0.0208870354" flag="0"/>
      <psa30 value="0.0010554262" flag="0"/>
    </comp>
    <comp name="--.HNZ">
      <acc value="0.0627792935" flag="0"/>
      <vel value="0.0194643668" flag="0"/>
      <psa03 value="0.0385049558" flag="0"/>
      <psa10 value="0.0095565466" flag="0"/>
      <psa30 value="0.0007307144" flag="0"/>
    </comp>
    <comp name="--.HNN">
      <acc value="0.1050321898" flag="0"/>
      <vel value="0.0262030911" flag="0"/>
      <psa03 value="0.0614465072" flag="0"/>
      <psa10 value="0.0083527419" flag="0"/>
      <psa30 value="0.0006987366" flag="0"/>
    </comp>
  </station>
  <station code="SFR2" name="SFR2" netid="HI" insttype="unknown" lat="36.3998" lon="25.4382">
    <comp name="--.HNE">
      <acc value="0.4446444621" flag="0"/>
      <vel value="0.1251886692" flag="0"/>
      <psa03 value="0.7218431314" flag="0"/>
      <psa10 value="0.0645146404" flag="0"/>
      <psa30 value="0.0042461288" flag="0"/>
    </comp>
    <comp name="--.HNN">
      <acc value="0.6449033745" flag="0"/>
      <vel value="0.1836609448" flag="0"/>
      <psa03 value="0.6319002227" flag="0"/>
      <psa10 value="0.0533047589" flag="0"/>
      <psa30 value="0.0052834852" flag="0"/>
    </comp>
    <comp name="--.HNZ">
      <acc value="0.6237567719" flag="0"/>
      <vel value="0.1420920218" flag="0"/>
      <psa03 value="0.4962673375" flag="0"/>
      <psa10 value="0.0419466475" flag="0"/>
      <psa30 value="0.0031677664" flag="0"/>
    </comp>
  </station>
  <station code="AMGA" name="AMGA" netid="HL" insttype="CMG-5TD" lat="36.8316" lon="25.8938">
    <comp name="00.HNE">
      <acc value="0.1062998009" flag="0"/>
      <vel value="0.0159286664" flag="0"/>
      <psa03 value="0.0660740529" flag="0"/>
      <psa10 value="0.0044001417" flag="0"/>
      <psa30 value="0.0005909791" flag="0"/>
    </comp>
    <comp name="00.HNN">
      <acc value="0.1148420991" flag="0"/>
      <vel value="0.0230614369" flag="0"/>
      <psa03 value="0.0507549564" flag="0"/>
      <psa10 value="0.0131970024" flag="0"/>
      <psa30 value="0.0006553907" flag="0"/>
    </comp>
    <comp name="00.HNZ">
      <acc value="0.0819030626" flag="0"/>
      <vel value="0.0241150880" flag="0"/>
      <psa03 value="0.0319983714" flag="0"/>
      <psa10 value="0.0141753007" flag="0"/>
      <psa30 value="0.0012539151" flag="0"/>
    </comp>
  </station>
  <station code="MILA" name="MILA" netid="HL" insttype="CMG-5" lat="36.7429" lon="24.4282">
    <comp name="00.HNZ">
      <acc value="0.0360061499" flag="0"/>
      <vel value="0.0158129149" flag="0"/>
      <psa03 value="0.0549596578" flag="0"/>
      <psa10 value="0.0098324858" flag="0"/>
      <psa30 value="0.0006115960" flag="0"/>
    </comp>
    <comp name="00.HNN">
      <acc value="0.0624924025" flag="0"/>
      <vel value="0.0301320632" flag="0"/>
      <psa03 value="0.1404020059" flag="0"/>
      <psa10 value="0.0135142781" flag="0"/>
      <psa30 value="0.0010611008" flag="0"/>
    </comp>
    <comp name="00.HNE">
      <acc value="0.0460666250" flag="0"/>
      <vel value="0.0148258707" flag="0"/>
      <psa03 value="0.0717061273" flag="0"/>
      <psa10 value="0.0080070965" flag="0"/>
      <psa30 value="0.0008041929" flag="0"/>
    </comp>
  </station>
  <station code="SANT" name="SANT" netid="HL" insttype="30" lat="36.3705" lon="25.4593">
    <comp name="--.HHZ">
      <acc value="0.4997691571" flag="0"/>
      <vel value="0.1039330122" flag="0"/>
      <psa03 value="0.2396275348" flag="0"/>
      <psa10 value="0.0160380042" flag="0"/>
      <psa30 value="0.0017690253" flag="0"/>
    </comp>
    <comp name="--.HHE">
      <acc value="0.8928528356" flag="0"/>
      <vel value="0.1690527969" flag="0"/>
      <psa03 value="0.4320637339" flag="0"/>
      <psa10 value="0.0408245708" flag="0"/>
      <psa30 value="0.0022270432" flag="0"/>
    </comp>
    <comp name="--.HHN">
      <acc value="0.4601386340" flag="0"/>
      <vel value="0.0819968187" flag="0"/>
      <psa03 value="0.3071844101" flag="0"/>
      <psa10 value="0.0200834755" flag="0"/>
      <psa30 value="0.0013995856" flag="0"/>
    </comp>
  </station>
  <station code="SAP3" name="SAP3" netid="HL" insttype="65535" lat="36.4356" lon="25.3454">
    <comp name="--.HHE">
      <acc value="0.2854370979" flag="0"/>
      <vel value="0.0779174206" flag="0"/>
      <psa03 value="0.4215791056" flag="0"/>
      <psa10 value="0.0316067137" flag="0"/>
      <psa30 value="0.0029420746" flag="0"/>
    </comp>
    <comp name="--.HHN">
      <acc value="0.3222215751" flag="0"/>
      <vel value="0.0965291402" flag="0"/>
      <psa03 value="0.2182533802" flag="0"/>
      <psa10 value="0.0220741790" flag="0"/>
      <psa30 value="0.0020701684" flag="0"/>
    </comp>
    <comp name="--.HHZ">
      <acc value="0.1728354624" flag="0"/>
      <vel value="0.0488347125" flag="0"/>
      <psa03 value="0.1835568384" flag="0"/>
      <psa10 value="0.0121917515" flag="0"/>
      <psa30 value="0.0009866581" flag="0"/>
    </comp>
  </station>
  <station code="THERA" name="THERA" netid="HL" insttype="120" lat="36.367" lon="25.4753">
    <comp name="--.HHN">
      <acc value="0.2275200648" flag="0"/>
      <vel value="0.0680892989" flag="0"/>
      <psa03 value="0.3937336456" flag="0"/>
      <psa10 value="0.0222709898" flag="0"/>
      <psa30 value="0.0017018464" flag="0"/>
    </comp>
    <comp name="--.HHZ">
      <acc value="0.1743819459" flag="0"/>
      <vel value="0.0367012500" flag="0"/>
      <psa03 value="0.1332519733" flag="0"/>
      <psa10 value="0.0099281849" flag="0"/>
      <psa30 value="0.0009639742" flag="0"/>
    </comp>
    <comp name="--.HHE">
      <acc value="0.2348108547" flag="0"/>
      <vel value="0.0500262780" flag="0"/>
      <psa03 value="0.2041489886" flag="0"/>
      <psa10 value="0.0155047069" flag="0"/>
      <psa30 value="0.0014843271" flag="0"/>
    </comp>
  </station>
  <station code="THRA" name="THRA" netid="HL" insttype="CMG-5" lat="36.415" lon="25.4324">
    <comp name="00.HNE">
      <acc value="0.6852093222" flag="0"/>
      <vel value="0.1814901644" flag="0"/>
      <psa03 value="1.0979009786" flag="0"/>
      <psa10 value="0.0765520347" flag="0"/>
      <psa30 value="0.0048594494" flag="0"/>
    </comp>
    <comp name="00.HNN">
      <acc value="0.5564004349" flag="0"/>
      <vel value="0.1739644391" flag="0"/>
      <psa03 value="0.7529649244" flag="0"/>
      <psa10 value="0.1303771588" flag="0"/>
      <psa30 value="0.0062600865" flag="0"/>
    </comp>
    <comp name="00.HNZ">
      <acc value="0.4816423078" flag="0"/>
      <vel value="0.1654833879" flag="0"/>
      <psa03 value="0.6046484683" flag="0"/>
      <psa10 value="0.0437562074" flag="0"/>
      <psa30 value="0.0038839389" flag="0"/>
    </comp>
  </station>
  <station code="AKRO" name="AKRO" netid="HT" insttype="Compact," lat="36.3584" lon="25.3967">
    <comp name="--.HHE">
      <acc value="0.6718376739" flag="0"/>
      <vel value="0.2002021708" flag="0"/>
      <psa03 value="0.6528626752" flag="0"/>
      <psa10 value="0.0422062586" flag="0"/>
      <psa30 value="0.0033913007" flag="0"/>
    </comp>
    <comp name="--.HHZ">
      <acc value="0.4581749358" flag="0"/>
      <vel value="0.0921266873" flag="0"/>
      <psa03 value="0.3697370613" flag="0"/>
      <psa10 value="0.0266096172" flag="0"/>
      <psa30 value="0.0027682465" flag="0"/>
    </comp>
    <comp name="--.HHN">
      <acc value="0.6486749567" flag="0"/>
      <vel value="0.1350502495" flag="0"/>
      <psa03 value="0.4413203749" flag="0"/>
      <psa10 value="0.0378545277" flag="0"/>
      <psa30 value="0.0033313592" flag="0"/>
    </comp>
  </station>
  <station code="CMBO" name="CMBO" netid="HT" insttype="120P," lat="36.4709" lon="25.4056">
    <comp name="--.HHE">
      <acc value="0.3158472933" flag="0"/>
      <vel value="0.0777139633" flag="0"/>
      <psa03 value="0.3541852101" flag="0"/>
      <psa10 value="0.0466846933" flag="0"/>
      <psa30 value="0.0024739410" flag="0"/>
    </comp>
    <comp name="--.HHN">
      <acc value="0.3865087936" flag="0"/>
      <vel value="0.1186636090" flag="0"/>
      <psa03 value="0.4459249498" flag="0"/>
      <psa10 value="0.0464656611" flag="0"/>
      <psa30 value="0.0034707285" flag="0"/>
    </comp>
    <comp name="--.HHZ">
      <acc value="0.2679356911" flag="0"/>
      <vel value="0.0691724420" flag="0"/>
      <psa03 value="0.4191346101" flag="0"/>
      <psa10 value="0.0184281701" flag="0"/>
      <psa30 value="0.0015617338" flag="0"/>
    </comp>
  </station>
</stationlist>
