<stationlist created="1741951755">
	<station code="ABEA" name="ABEA" netid="HC" source="Seismological Network of Crete (HC)" insttype="" lat="35.5163" lon="24.0113">
		<comp name=".HNE" depth="0.0">
			<acc value="0.004025421696486" flag="0"/>
			<vel value="0.0017759672731" flag="0"/>
			<psa03 value="0.0015516695222618" flag="0"/>
			<psa10 value="0.000926361757544608" flag="0"/>
			<psa30 value="0.000770333478729178" flag="0"/>
		</comp>
		<comp name=".HNN" depth="0.0">
			<acc value="0.005662287983886" flag="0"/>
			<vel value="0.00177173058023" flag="0"/>
			<psa03 value="0.00132539720861314" flag="0"/>
			<psa10 value="0.00127435059134772" flag="0"/>
			<psa30 value="0.000712317187517228" flag="0"/>
		</comp>
		<comp name=".HNZ" depth="0.0">
			<acc value="0.0015585551761242" flag="0"/>
			<vel value="0.0016359417789" flag="0"/>
			<psa03 value="0.00138275615158938" flag="0"/>
			<psa10 value="0.00111538834212703" flag="0"/>
			<psa30 value="0.000679399642308781" flag="0"/>
		</comp>
	</station>
	<station code="ATEI" name="ATEI" netid="HC" source="Seismological Network of Crete (HC)" insttype="" lat="35.5193" lon="24.0432">
		<comp name=".HNE" depth="0.0">
			<acc value="0.0078408572514582" flag="0"/>
			<vel value="0.00339150318777" flag="0"/>
			<psa03 value="0.0167339418748709" flag="0"/>
			<psa10 value="0.00292122086029704" flag="0"/>
			<psa30 value="0.000718273884202729" flag="0"/>
		</comp>
		<comp name=".HNN" depth="0.0">
			<acc value="0.0062706134324274" flag="0"/>
			<vel value="0.00371121756056" flag="0"/>
			<psa03 value="0.0228124070433491" flag="0"/>
			<psa10 value="0.00235510327965977" flag="0"/>
			<psa30 value="0.000930235269352458" flag="0"/>
		</comp>
		<comp name=".HNZ" depth="0.0">
			<acc value="0.005350523369685" flag="0"/>
			<vel value="0.00190993118126" flag="0"/>
			<psa03 value="0.00943909013715703" flag="0"/>
			<psa10 value="0.00156398884096005" flag="0"/>
			<psa30 value="0.000696748864526238" flag="0"/>
		</comp>
	</station>
	<station code="G0LD" name="G0LD" netid="HC" source="Seismological Network of Crete (HC)" insttype="" lat="35.4955" lon="24.0306">
		<comp name=".HNE" depth="0.0">
			<acc value="0.0022469851373244" flag="0"/>
			<vel value="0.00325720071426" flag="0"/>
			<psa03 value="0.00220732656309567" flag="0"/>
			<psa10 value="0.00273391704608682" flag="0"/>
			<psa30 value="0.00164710952958823" flag="0"/>
		</comp>
		<comp name=".HNN" depth="0.0">
			<acc value="0.0027155331352908" flag="0"/>
			<vel value="0.00263632058712" flag="0"/>
			<psa03 value="0.00156654697266152" flag="0"/>
			<psa10 value="0.00189437471177931" flag="0"/>
			<psa30 value="0.00120537047487663" flag="0"/>
		</comp>
		<comp name=".HNZ" depth="0.0">
			<acc value="0.0032779569319014" flag="0"/>
			<vel value="0.00518852781978" flag="0"/>
			<psa03 value="0.00190055705492003" flag="0"/>
			<psa10 value="0.00182607401531516" flag="0"/>
			<psa30 value="0.00205342832121458" flag="0"/>
		</comp>
	</station>
	<station code="PASK" name="PASK" netid="HC" source="Seismological Network of Crete (HC)" insttype="" lat="35.4996" lon="24.0121">
		<comp name=".HNE" depth="0.0">
			<acc value="0.0087827367771216" flag="0"/>
			<vel value="0.00484459537743" flag="0"/>
			<psa03 value="0.0240341624578289" flag="0"/>
			<psa10 value="0.00547282379773515" flag="0"/>
			<psa30 value="0.000931248044778266" flag="0"/>
		</comp>
		<comp name=".HNN" depth="0.0">
			<acc value="0.0077638439417214" flag="0"/>
			<vel value="0.00411969430099" flag="0"/>
			<psa03 value="0.0211766606623385" flag="0"/>
			<psa10 value="0.00357441920960555" flag="0"/>
			<psa30 value="0.0012569874359163" flag="0"/>
		</comp>
		<comp name=".HNZ" depth="0.0">
			<acc value="0.0064446393086298" flag="0"/>
			<vel value="0.00285254884089" flag="0"/>
			<psa03 value="0.0150361679473387" flag="0"/>
			<psa10 value="0.00275257781352122" flag="0"/>
			<psa30 value="0.000952317044663511" flag="0"/>
		</comp>
	</station>
	<station code="POLY" name="POLY" netid="HC" source="Seismological Network of Crete (HC)" insttype="" lat="35.5226" lon="24.0602">
		<comp name=".HNE" depth="0.0">
			<acc value="0.001174916036085" flag="0"/>
			<vel value="0.00221351506832" flag="0"/>
			<psa03 value="0.00120411598096814" flag="0"/>
			<psa10 value="0.00116813300807852" flag="0"/>
			<psa30 value="0.00115575218791083" flag="0"/>
		</comp>
		<comp name=".HNN" depth="0.0">
			<acc value="0.0013020101074092" flag="0"/>
			<vel value="0.00243256415724" flag="0"/>
			<psa03 value="0.00170713164377935" flag="0"/>
			<psa10 value="0.00153129241716975" flag="0"/>
			<psa30 value="0.00154745761564071" flag="0"/>
		</comp>
		<comp name=".HNZ" depth="0.0">
			<acc value="0.0019855308230322" flag="0"/>
			<vel value="0.00132400930189" flag="0"/>
			<psa03 value="0.00140774348395932" flag="0"/>
			<psa10 value="0.00124668688376145" flag="0"/>
			<psa30 value="0.000904485751076698" flag="0"/>
		</comp>
	</station>
	<station code="ARK1" name="ARK1" netid="HI" source="ITSAK Strong Motion Network" insttype="" lat="35.148777" lon="25.264194">
		<comp name=".HNE" depth="0.0">
			<acc value="0.021321310007712" flag="0"/>
			<vel value="0.00909510841568" flag="0"/>
			<psa03 value="0.0569500747464705" flag="0"/>
			<psa10 value="0.00629428384040071" flag="0"/>
			<psa30 value="0.000718824806115733" flag="0"/>
		</comp>
		<comp name=".HNN" depth="0.0">
			<acc value="0.023697157917546" flag="0"/>
			<vel value="0.00824483791473" flag="0"/>
			<psa03 value="0.0562060358738416" flag="0"/>
			<psa10 value="0.00438751877657223" flag="0"/>
			<psa30 value="0.000513893261656189" flag="0"/>
		</comp>
		<comp name=".HNZ" depth="0.0">
			<acc value="0.015182884831038" flag="0"/>
			<vel value="0.00607077738184" flag="0"/>
			<psa03 value="0.0512735684973436" flag="0"/>
			<psa10 value="0.00564014160046122" flag="0"/>
			<psa30 value="0.000458942538108119" flag="0"/>
		</comp>
	</station>
	<station code="CH01" name="CH01" netid="HI" source="ITSAK Strong Motion Network" insttype="" lat="35.517" lon="24.0208">
		<comp name=".HNE" depth="0.0">
			<acc value="0.00794304279312" flag="0"/>
			<vel value="0.0034370367233" flag="0"/>
			<psa03 value="0.02203209493483" flag="0"/>
			<psa10 value="0.00211006462517693" flag="0"/>
			<psa30 value="0.000720639301316614" flag="0"/>
		</comp>
		<comp name=".HNN" depth="0.0">
			<acc value="0.01164537939903" flag="0"/>
			<vel value="0.00406982078496" flag="0"/>
			<psa03 value="0.0368972567621814" flag="0"/>
			<psa10 value="0.00195439333615348" flag="0"/>
			<psa30 value="0.000571341911096769" flag="0"/>
		</comp>
		<comp name=".HNZ" depth="0.0">
			<acc value="0.0077897120889342" flag="0"/>
			<vel value="0.00164548858272" flag="0"/>
			<psa03 value="0.0104059705944661" flag="0"/>
			<psa10 value="0.002030345125401" flag="0"/>
			<psa30 value="0.000353239962913757" flag="0"/>
		</comp>
	</station>
	<station code="CH02" name="CH02" netid="HI" source="ITSAK Strong Motion Network" insttype="" lat="35.5145" lon="24.0315">
		<comp name=".HNE" depth="0.0">
			<acc value="0.0061871049304806" flag="0"/>
			<vel value="0.00281094642801" flag="0"/>
			<psa03 value="0.0163606567298976" flag="0"/>
			<psa10 value="0.00238193466648349" flag="0"/>
			<psa30 value="0.000530796256397534" flag="0"/>
		</comp>
		<comp name=".HNN" depth="0.0">
			<acc value="0.0087561192096846" flag="0"/>
			<vel value="0.00433872663199" flag="0"/>
			<psa03 value="0.0251360062828961" flag="0"/>
			<psa10 value="0.00275653057537372" flag="0"/>
			<psa30 value="0.00071938437443332" flag="0"/>
		</comp>
		<comp name=".HNZ" depth="0.0">
			<acc value="0.0044407261767594" flag="0"/>
			<vel value="0.00137220517044" flag="0"/>
			<psa03 value="0.0072602628578066" flag="0"/>
			<psa10 value="0.00283818028113882" flag="0"/>
			<psa30 value="0.000279811114237886" flag="0"/>
		</comp>
	</station>
	<station code="CH03" name="CH03" netid="HI" source="ITSAK Strong Motion Network" insttype="" lat="35.53303" lon="24.0705">
		<comp name=".HNE" depth="0.0">
			<acc value="0.0051957218246322" flag="0"/>
			<vel value="0.00222520184037" flag="0"/>
			<psa03 value="0.0118586970387904" flag="0"/>
			<psa10 value="0.00360794033646618" flag="0"/>
			<psa30 value="0.000365682167357184" flag="0"/>
		</comp>
		<comp name=".HNN" depth="0.0">
			<acc value="0.007119412692657" flag="0"/>
			<vel value="0.00331176226562" flag="0"/>
			<psa03 value="0.0171583762415472" flag="0"/>
			<psa10 value="0.00227188175101545" flag="0"/>
			<psa30 value="0.000433255810446029" flag="0"/>
		</comp>
		<comp name=".HNZ" depth="0.0">
			<acc value="0.0047150386044318" flag="0"/>
			<vel value="0.00174716488361" flag="0"/>
			<psa03 value="0.0101624993875642" flag="0"/>
			<psa10 value="0.00117898271119301" flag="0"/>
			<psa30 value="0.000367705348257961" flag="0"/>
		</comp>
	</station>
	<station code="GOR1" name="GOR1" netid="HI" source="ITSAK Strong Motion Network" insttype="" lat="35.0582" lon="24.9628">
		<comp name=".HNE" depth="0.0">
			<acc value="0.01110777125589" flag="0"/>
			<vel value="0.00441975361645" flag="0"/>
			<psa03 value="0.0274240823358666" flag="0"/>
			<psa10 value="0.00390377962186619" flag="0"/>
			<psa30 value="0.000501418424844092" flag="0"/>
		</comp>
		<comp name=".HNN" depth="0.0">
			<acc value="0.008237005709013" flag="0"/>
			<vel value="0.0046860080311" flag="0"/>
			<psa03 value="0.019812615873962" flag="0"/>
			<psa10 value="0.00434565381572837" flag="0"/>
			<psa30 value="0.000500462892794298" flag="0"/>
		</comp>
		<comp name=".HNZ" depth="0.0">
			<acc value="0.0072660720123114" flag="0"/>
			<vel value="0.00332140213805" flag="0"/>
			<psa03 value="0.0162225369030408" flag="0"/>
			<psa10 value="0.00295499700405099" flag="0"/>
			<psa30 value="0.000370454827272623" flag="0"/>
		</comp>
	</station>
	<station code="HER3" name="HER3" netid="HI" source="ITSAK Strong Motion Network" insttype="" lat="35.3296" lon="25.1065">
		<comp name=".HNE" depth="0.0">
			<acc value="0.053557866395448" flag="0"/>
			<vel value="0.020603953208" flag="0"/>
			<psa03 value="0.154609200434128" flag="0"/>
			<psa10 value="0.01507702252876" flag="0"/>
			<psa30 value="0.000893168647205037" flag="0"/>
		</comp>
		<comp name=".HNN" depth="0.0">
			<acc value="0.063938125929924" flag="0"/>
			<vel value="0.0306061966779" flag="0"/>
			<psa03 value="0.219970030268395" flag="0"/>
			<psa10 value="0.0260061690310668" flag="0"/>
			<psa30 value="0.0011345121350261" flag="0"/>
		</comp>
		<comp name=".HNZ" depth="0.0">
			<acc value="0.043071193464384" flag="0"/>
			<vel value="0.0129309469132" flag="0"/>
			<psa03 value="0.0697968632831449" flag="0"/>
			<psa10 value="0.00869724146206932" flag="0"/>
			<psa30 value="0.000592835887050909" flag="0"/>
		</comp>
	</station>
	<station code="KIS1" name="KIS1" netid="HI" source="ITSAK Strong Motion Network" insttype="" lat="35.493933" lon="23.658993">
		<comp name=".HNE" depth="0.0">
			<acc value="0.022453701265158" flag="0"/>
			<vel value="0.00186560839951" flag="0"/>
			<psa03 value="0.00797348198009819" flag="0"/>
			<psa10 value="0.00359948610453775" flag="0"/>
			<psa30 value="0.000424420954347125" flag="0"/>
		</comp>
		<comp name=".HNN" depth="0.0">
			<acc value="0.023085767863878" flag="0"/>
			<vel value="0.00178403170774" flag="0"/>
			<psa03 value="0.00613829595489103" flag="0"/>
			<psa10 value="0.00230077788399351" flag="0"/>
			<psa30 value="0.000464462226677367" flag="0"/>
		</comp>
		<comp name=".HNZ" depth="0.0">
			<acc value="0.082032948614214" flag="0"/>
			<vel value="0.00361226553579" flag="0"/>
			<psa03 value="0.00444781613036673" flag="0"/>
			<psa10 value="0.00116882141305656" flag="0"/>
			<psa30 value="0.000256033783898435" flag="0"/>
		</comp>
	</station>
	<station code="KRL1" name="KRL1" netid="HI" source="ITSAK Strong Motion Network" insttype="" lat="37.7951" lon="26.7065">
		<comp name=".HNE" depth="0.0">
			<acc value="0.007127794126242" flag="0"/>
			<vel value="0.0041792734726" flag="0"/>
			<psa03 value="0.010875971781841" flag="0"/>
			<psa10 value="0.00664594416743613" flag="0"/>
			<psa30 value="0.000270751425536443" flag="0"/>
		</comp>
		<comp name=".HNN" depth="0.0">
			<acc value="0.0064050117812082" flag="0"/>
			<vel value="0.00289758044294" flag="0"/>
			<psa03 value="0.0075832497488986" flag="0"/>
			<psa10 value="0.00281636789867797" flag="0"/>
			<psa30 value="0.000277879684207089" flag="0"/>
		</comp>
		<comp name=".HNZ" depth="0.0">
			<acc value="0.0044416240622268" flag="0"/>
			<vel value="0.00185563087697" flag="0"/>
			<psa03 value="0.00459393746385104" flag="0"/>
			<psa10 value="0.00190606517371214" flag="0"/>
			<psa30 value="0.000158349877923085" flag="0"/>
		</comp>
	</station>
	<station code="KTL1" name="KTL1" netid="HI" source="ITSAK Strong Motion Network" insttype="" lat="35.20778" lon="25.34272">
		<comp name=".HNE" depth="0.0">
			<acc value="0.016181982248682" flag="0"/>
			<vel value="0.00801891567867" flag="0"/>
			<psa03 value="0.0427815397962293" flag="0"/>
			<psa10 value="0.00550873617673582" flag="0"/>
			<psa30 value="0.000413182084826838" flag="0"/>
		</comp>
		<comp name=".HNN" depth="0.0">
			<acc value="0.03608205098376" flag="0"/>
			<vel value="0.014787757538" flag="0"/>
			<psa03 value="0.061873114415208" flag="0"/>
			<psa10 value="0.00938491232939391" flag="0"/>
			<psa30 value="0.000536532782245723" flag="0"/>
		</comp>
		<comp name=".HNZ" depth="0.0">
			<acc value="0.011059128883584" flag="0"/>
			<vel value="0.00395693754338" flag="0"/>
			<psa03 value="0.0221757372629435" flag="0"/>
			<psa10 value="0.00255581751349245" flag="0"/>
			<psa30 value="0.000246585553832661" flag="0"/>
		</comp>
	</station>
	<station code="NAX1" name="NAX1" netid="HI" source="ITSAK Strong Motion Network" insttype="" lat="37.101394" lon="25.374103">
		<comp name=".HNE" depth="0.0">
			<acc value="0.12575793740388" flag="0"/>
			<vel value="0.0383359700799" flag="0"/>
			<psa03 value="0.13644980996356" flag="0"/>
			<psa10 value="0.0209297558686178" flag="0"/>
			<psa30 value="0.00104817079033776" flag="0"/>
		</comp>
		<comp name=".HNN" depth="0.0">
			<acc value="0.10282604096976" flag="0"/>
			<vel value="0.0263713205634" flag="0"/>
			<psa03 value="0.06205194396993" flag="0"/>
			<psa10 value="0.00842631413945039" flag="0"/>
			<psa30 value="0.00072251838412986" flag="0"/>
		</comp>
		<comp name=".HNZ" depth="0.0">
			<acc value="0.06253962858771" flag="0"/>
			<vel value="0.019402097054" flag="0"/>
			<psa03 value="0.0388045471733268" flag="0"/>
			<psa10 value="0.00962470602703807" flag="0"/>
			<psa30 value="0.00078699281149377" flag="0"/>
		</comp>
	</station>
	<station code="RTH1" name="RTH1" netid="HI" source="ITSAK Strong Motion Network" insttype="" lat="35.365393" lon="24.471773">
		<comp name=".HNE" depth="0.0">
			<acc value="0.0052972882475406" flag="0"/>
			<vel value="0.00218538698743" flag="0"/>
			<psa03 value="0.0149157758573647" flag="0"/>
			<psa10 value="0.00162667084489923" flag="0"/>
			<psa30 value="0.000471178973709745" flag="0"/>
		</comp>
		<comp name=".HNN" depth="0.0">
			<acc value="0.0074815264557312" flag="0"/>
			<vel value="0.00282246926358" flag="0"/>
			<psa03 value="0.02062860482507" flag="0"/>
			<psa10 value="0.00304184361658656" flag="0"/>
			<psa30 value="0.000530403261614983" flag="0"/>
		</comp>
		<comp name=".HNZ" depth="0.0">
			<acc value="0.0062143366358886" flag="0"/>
			<vel value="0.00174823764541" flag="0"/>
			<psa03 value="0.00908310105983643" flag="0"/>
			<psa10 value="0.00114301314088462" flag="0"/>
			<psa30 value="0.000331285930441928" flag="0"/>
		</comp>
	</station>
	<station code="SFR2" name="SFR2" netid="HI" source="ITSAK Strong Motion Network" insttype="" lat="36.399841" lon="25.438209">
		<comp name=".HNE" depth="0.0">
			<acc value="0.43437349776414" flag="0"/>
			<vel value="0.125461504983" flag="0"/>
			<psa03 value="0.731347281503296" flag="0"/>
			<psa10 value="0.0646792071800395" flag="0"/>
			<psa30 value="0.00432861716631127" flag="0"/>
		</comp>
		<comp name=".HNN" depth="0.0">
			<acc value="0.63869898285066" flag="0"/>
			<vel value="0.184362134264" flag="0"/>
			<psa03 value="0.624137804399692" flag="0"/>
			<psa10 value="0.0534529022425447" flag="0"/>
			<psa30 value="0.00539590953584375" flag="0"/>
		</comp>
		<comp name=".HNZ" depth="0.0">
			<acc value="0.60547829855508" flag="0"/>
			<vel value="0.143087517262" flag="0"/>
			<psa03 value="0.49991199171774" flag="0"/>
			<psa10 value="0.0423147131422386" flag="0"/>
			<psa30 value="0.00318717821825045" flag="0"/>
		</comp>
	</station>
	<station code="AMGA" name="AMGA" netid="HL" source="National Observatory of Athens Seismic Network" insttype="" lat="36.831561" lon="25.893836">
		<comp name="00.HNE" depth="0.0">
			<acc value="0.10660936358922" flag="0"/>
			<vel value="0.016118580727" flag="0"/>
			<psa03 value="0.0663219820474877" flag="0"/>
			<psa10 value="0.0043750421688099" flag="0"/>
			<psa30 value="0.000637944135665928" flag="0"/>
		</comp>
		<comp name="00.HNN" depth="0.0">
			<acc value="0.11129036802288" flag="0"/>
			<vel value="0.0233109608463" flag="0"/>
			<psa03 value="0.0510472774648621" flag="0"/>
			<psa10 value="0.0132393239152232" flag="0"/>
			<psa30 value="0.000650708991693984" flag="0"/>
		</comp>
		<comp name="00.HNZ" depth="0.0">
			<acc value="0.08090473088373" flag="0"/>
			<vel value="0.0243258665586" flag="0"/>
			<psa03 value="0.032181715214014" flag="0"/>
			<psa10 value="0.0141674175843996" flag="0"/>
			<psa30 value="0.00128870380780141" flag="0"/>
		</comp>
	</station>
	<station code="ANAF" name="ANAF" netid="HL" source="National Observatory of Athens Seismic Network" insttype="" lat="36.35675" lon="25.77262">
		<comp name=".HNE" depth="0.0">
			<acc value="1.7464598982198" flag="0"/>
			<vel value="0.479150949705" flag="0"/>
			<psa03 value="2.27448867371025" flag="0"/>
			<psa10 value="0.153900790172034" flag="0"/>
			<psa30 value="0.0115271402831602" flag="0"/>
		</comp>
		<comp name=".HNN" depth="0.0">
			<acc value="2.2619441439804" flag="0"/>
			<vel value="0.458789003941" flag="0"/>
			<psa03 value="1.93864909265432" flag="0"/>
			<psa10 value="0.0842849959672477" flag="0"/>
			<psa30 value="0.00674438219888887" flag="0"/>
		</comp>
		<comp name=".HNZ" depth="0.0">
			<acc value="0.92250008285472" flag="0"/>
			<vel value="0.27189723185" flag="0"/>
			<psa03 value="1.04182893272003" flag="0"/>
			<psa10 value="0.0522690013148785" flag="0"/>
			<psa30 value="0.0063596879647829" flag="0"/>
		</comp>
	</station>
	<station code="CHNB" name="CHNB" netid="HL" source="National Observatory of Athens Seismic Network" insttype="" lat="35.48765" lon="24.06605">
		<comp name="00.HNE" depth="0.0">
			<acc value="0.01218217458432" flag="0"/>
			<vel value="0.0065560797726" flag="0"/>
			<psa03 value="0.0313023444600351" flag="0"/>
			<psa10 value="0.00632215287411718" flag="0"/>
			<psa30 value="0.000434433805149315" flag="0"/>
		</comp>
		<comp name="00.HNN" depth="0.0">
			<acc value="0.01275212884404" flag="0"/>
			<vel value="0.00669446146435" flag="0"/>
			<psa03 value="0.0335968506264783" flag="0"/>
			<psa10 value="0.00890574683701573" flag="0"/>
			<psa30 value="0.000622796309283858" flag="0"/>
		</comp>
		<comp name="00.HNZ" depth="0.0">
			<acc value="0.0098434838409576" flag="0"/>
			<vel value="0.00535530327535" flag="0"/>
			<psa03 value="0.0249767248979289" flag="0"/>
			<psa10 value="0.00311093022448429" flag="0"/>
			<psa30 value="0.000233840855392386" flag="0"/>
		</comp>
	</station>
	<station code="HERG" name="HERG" netid="HL" source="National Observatory of Athens Seismic Network" insttype="" lat="35.32622" lon="25.06586">
		<comp name="00.HNE" depth="0.0">
			<acc value="0.023960761249734" flag="0"/>
			<vel value="0.0120064324862" flag="0"/>
			<psa03 value="0.0659864233599512" flag="0"/>
			<psa10 value="0.0118267234624022" flag="0"/>
			<psa30 value="0.00111543524627573" flag="0"/>
		</comp>
		<comp name="00.HNN" depth="0.0">
