<?xml version="1.0" encoding="UTF-8" standalone="yes"?>
<!DOCTYPE earthquake SYSTEM "stationlist.dtd">
<stationlist created="" xmlns="ch.ethz.sed.shakemap.usgs.xml">
  <station code="THERA" name="THERA" netid="GE" insttype="STS-2/N" lat="36.367" lon="25.4753">
    <comp name="--.HHE">
      <acc value="0.2379508543" flag="0"/>
      <vel value="0.0510522129" flag="0"/>
      <psa03 value="0.2097286804" flag="0"/>
      <psa10 value="0.0158675062" flag="0"/>
      <psa30 value="0.0014988246" flag="0"/>
    </comp>
    <comp name="--.HHZ">
      <acc value="0.1738361982" flag="0"/>
      <vel value="0.0377800319" flag="0"/>
      <psa03 value="0.1371894148" flag="0"/>
      <psa10 value="0.0101673337" flag="0"/>
      <psa30 value="0.0009731408" flag="0"/>
    </comp>
    <comp name="--.HHN">
      <acc value="0.1124995332" flag="0"/>
      <vel value="0.0350459353" flag="0"/>
      <psa03 value="0.2026414557" flag="0"/>
      <psa10 value="0.0112717014" flag="0"/>
      <psa30 value="0.0008689488" flag="0"/>
    </comp>
  </station>
</stationlist>
