<?xml version="1.0" encoding="UTF-8" standalone="yes"?>
<!DOCTYPE earthquake SYSTEM "stationlist.dtd">
<stationlist created="" xmlns="ch.ethz.sed.shakemap.usgs.xml">
  <station code="BLY" name="BLY" netid="MN" insttype="" lat="44.7488" lon="17.1839">
    <comp name="--.HHN">
      <acc value="0.0209872745" flag="0"/>
      <vel value="0.0119516904" flag="0"/>
      <psa03 value="0.0531115001" flag="0"/>
      <psa10 value="0.0065514880" flag="0"/>
      <psa30 value="0.0004077757" flag="0"/>
    </comp>
    <comp name="--.HHZ">
      <acc value="0.0106804878" flag="0"/>
      <vel value="0.0050475031" flag="0"/>
      <psa03 value="0.0287537602" flag="0"/>
      <psa10 value="0.0033429281" flag="0"/>
      <psa30 value="0.0001839789" flag="0"/>
    </comp>
    <comp name="--.HHE">
      <acc value="0.0211580671" flag="0"/>
      <vel value="0.0116390935" flag="0"/>
      <psa03 value="0.0553276111" flag="0"/>
      <psa10 value="0.0075126457" flag="0"/>
      <psa30 value="0.0004129804" flag="0"/>
    </comp>
  </station>
  <station code="BH01A" name="BH01A" netid="Y5" insttype="STS2_gen3" lat="43.6265" lon="18.9627">
    <comp name="--.HH2">
      <acc value="0.0117857236" flag="0"/>
      <vel value="0.0044998006" flag="0"/>
      <psa03 value="0.0230593712" flag="0"/>
      <psa10 value="0.0021408363" flag="0"/>
      <psa30 value="0.0002057794" flag="0"/>
    </comp>
    <comp name="--.HHZ">
      <acc value="0.0063878754" flag="0"/>
      <vel value="0.0028063008" flag="0"/>
      <psa03 value="0.0152748174" flag="0"/>
      <psa10 value="0.0021510841" flag="0"/>
      <psa30 value="0.0003580432" flag="0"/>
    </comp>
    <comp name="--.HH1">
      <acc value="0.0136039582" flag="0"/>
      <vel value="0.0066038446" flag="0"/>
      <psa03 value="0.0186824832" flag="0"/>
      <psa10 value="0.0023341104" flag="0"/>
      <psa30 value="0.0002767724" flag="0"/>
    </comp>
  </station>
  <station code="BH02A" name="BH02A" netid="Y5" insttype="STS2_gen3" lat="43.8746" lon="18.4241">
    <comp name="--.HH1">
      <acc value="0.0103223498" flag="0"/>
      <vel value="0.0081561759" flag="0"/>
      <psa03 value="0.0247261463" flag="0"/>
      <psa10 value="0.0125656791" flag="0"/>
      <psa30 value="0.0006620205" flag="0"/>
    </comp>
    <comp name="--.HH2">
      <acc value="0.0101074707" flag="0"/>
      <vel value="0.0061196048" flag="0"/>
      <psa03 value="0.0271522945" flag="0"/>
      <psa10 value="0.0062051017" flag="0"/>
      <psa30 value="0.0007006317" flag="0"/>
    </comp>
    <comp name="--.HHZ">
      <acc value="0.0067255374" flag="0"/>
      <vel value="0.0035086093" flag="0"/>
      <psa03 value="0.0260689930" flag="0"/>
      <psa10 value="0.0043387346" flag="0"/>
      <psa30 value="0.0005880191" flag="0"/>
    </comp>
  </station>
  <station code="BH03A" name="BH03A" netid="Y5" insttype="STS2_gen3" lat="43.8212" lon="17.6885">
    <comp name="--.HHZ">
      <acc value="0.0399072493" flag="0"/>
      <vel value="0.0149257634" flag="0"/>
      <psa03 value="0.1282066442" flag="0"/>
      <psa10 value="0.0043024228" flag="0"/>
      <psa30 value="0.0003697245" flag="0"/>
    </comp>
    <comp name="--.HH2">
      <acc value="0.0744735848" flag="0"/>
      <vel value="0.0287302183" flag="0"/>
      <psa03 value="0.1448284049" flag="0"/>
      <psa10 value="0.0111597727" flag="0"/>
      <psa30 value="0.0010108584" flag="0"/>
    </comp>
    <comp name="--.HH1">
      <acc value="0.0334222965" flag="0"/>
      <vel value="0.0119605823" flag="0"/>
      <psa03 value="0.0504985267" flag="0"/>
      <psa10 value="0.0077209379" flag="0"/>
      <psa30 value="0.0004895264" flag="0"/>
    </comp>
  </station>
  <station code="BH08A" name="BH08A" netid="Y5" insttype="STS2_gen2" lat="44.2357" lon="18.0082">
    <comp name="--.HH1">
      <acc value="0.0897524953" flag="0"/>
      <vel value="0.0168237055" flag="0"/>
      <psa03 value="0.0954078100" flag="0"/>
      <psa10 value="0.0046559078" flag="0"/>
      <psa30 value="0.0004902463" flag="0"/>
    </comp>
    <comp name="--.HH2">
      <acc value="0.0652426362" flag="0"/>
      <vel value="0.0151867307" flag="0"/>
      <psa03 value="0.0565639830" flag="0"/>
      <psa10 value="0.0056407913" flag="0"/>
      <psa30 value="0.0006893937" flag="0"/>
    </comp>
  </station>
  <station code="BH12A" name="BH12A" netid="Y5" insttype="STS2_gen3" lat="44.3931" lon="17.1573">
    <comp name="--.HH2">
      <acc value="0.0302441429" flag="0"/>
      <vel value="0.0075147467" flag="0"/>
      <psa03 value="0.0443539524" flag="0"/>
      <psa10 value="0.0036797202" flag="0"/>
      <psa30 value="0.0002378021" flag="0"/>
    </comp>
    <comp name="--.HH1">
      <acc value="0.0286019716" flag="0"/>
      <vel value="0.0067462141" flag="0"/>
      <psa03 value="0.0530583128" flag="0"/>
      <psa10 value="0.0031925212" flag="0"/>
      <psa30 value="0.0002452295" flag="0"/>
    </comp>
  </station>
  <station code="BH14A" name="BH14A" netid="Y5" insttype="STS2_gen3" lat="44.5136" lon="17.6572">
    <comp name="--.HH1">
      <acc value="0.0660256332" flag="0"/>
      <vel value="0.0176030890" flag="0"/>
      <psa03 value="0.0611561295" flag="0"/>
      <psa10 value="0.0051245286" flag="0"/>
      <psa30 value="0.0005041559" flag="0"/>
    </comp>
    <comp name="--.HH2">
      <acc value="0.0726932114" flag="0"/>
      <vel value="0.0193280516" flag="0"/>
      <psa03 value="0.0668970466" flag="0"/>
      <psa10 value="0.0036661187" flag="0"/>
      <psa30 value="0.0004849593" flag="0"/>
    </comp>
  </station>
  <station code="BH15A" name="BH15A" netid="Y5" insttype="STS2_gen3" lat="45.0581" lon="18.4648">
    <comp name="--.HHZ">
      <acc value="0.1210370218" flag="0"/>
      <vel value="0.0246627306" flag="0"/>
      <psa03 value="0.0662082512" flag="0"/>
      <psa10 value="0.0091515103" flag="0"/>
      <psa30 value="0.0029632578" flag="0"/>
    </comp>
    <comp name="--.HH2">
      <acc value="0.1313481121" flag="0"/>
      <vel value="0.0508668694" flag="0"/>
      <psa03 value="0.1504864632" flag="0"/>
      <psa10 value="0.0305693941" flag="0"/>
      <psa30 value="0.0043548419" flag="0"/>
    </comp>
    <comp name="--.HH1">
      <acc value="0.2158593989" flag="0"/>
      <vel value="0.0775636554" flag="0"/>
      <psa03 value="0.2394547972" flag="0"/>
      <psa10 value="0.0573847917" flag="0"/>
      <psa30 value="0.0033322833" flag="0"/>
    </comp>
  </station>
  <station code="BH16A" name="BH16A" netid="Y5" insttype="STS2_gen2" lat="44.7263" lon="18.0892">
    <comp name="--.HHZ">
      <acc value="0.1495703312" flag="0"/>
      <vel value="0.0209353914" flag="0"/>
      <psa03 value="0.0499508795" flag="0"/>
      <psa10 value="0.0101038330" flag="0"/>
      <psa30 value="0.0006085209" flag="0"/>
    </comp>
    <comp name="--.HH2">
      <acc value="0.2406553216" flag="0"/>
      <vel value="0.0311146530" flag="0"/>
      <psa03 value="0.0947682925" flag="0"/>
      <psa10 value="0.0110804433" flag="0"/>
      <psa30 value="0.0012899731" flag="0"/>
    </comp>
  </station>
  <station code="BH17A" name="BH17A" netid="Y5" insttype="STS2_gen3" lat="44.3837" lon="18.5514">
    <comp name="--.HH1">
      <acc value="0.2633275894" flag="0"/>
      <vel value="0.0650493596" flag="0"/>
      <psa03 value="0.3873584589" flag="0"/>
      <psa10 value="0.0159579900" flag="0"/>
      <psa30 value="0.0015212323" flag="0"/>
    </comp>
    <comp name="--.HHZ">
      <acc value="0.2229255743" flag="0"/>
      <vel value="0.0592116836" flag="0"/>
      <psa03 value="0.2046657826" flag="0"/>
      <psa10 value="0.0106459182" flag="0"/>
      <psa30 value="0.0020520574" flag="0"/>
    </comp>
    <comp name="--.HH2">
      <acc value="0.1635829870" flag="0"/>
      <vel value="0.0358329775" flag="0"/>
      <psa03 value="0.1660601439" flag="0"/>
      <psa10 value="0.0059377412" flag="0"/>
      <psa30 value="0.0010573147" flag="0"/>
    </comp>
  </station>
  <station code="BH18A" name="BH18A" netid="Y5" insttype="STS2_gen3" lat="44.7704" lon="18.9972">
    <comp name="--.HH2">
      <acc value="0.0878680471" flag="0"/>
      <vel value="0.0453546588" flag="0"/>
      <psa03 value="0.2246575767" flag="0"/>
      <psa10 value="0.0223833416" flag="0"/>
      <psa30 value="0.0049832862" flag="0"/>
    </comp>
    <comp name="--.HH1">
      <acc value="0.1130500364" flag="0"/>
      <vel value="0.0522702488" flag="0"/>
      <psa03 value="0.1931855048" flag="0"/>
      <psa10 value="0.0243332475" flag="0"/>
      <psa30 value="0.0058805204" flag="0"/>
    </comp>
  </station>
  <station code="BH20A" name="BH20A" netid="Y5" insttype="STS2_gen3" lat="45.0928" lon="17.6625">
    <comp name="--.HH2">
      <acc value="0.1391453232" flag="0"/>
      <vel value="0.0235525942" flag="0"/>
      <psa03 value="0.0928926454" flag="0"/>
      <psa10 value="0.0039281649" flag="0"/>
      <psa30 value="0.0004403730" flag="0"/>
    </comp>
    <comp name="--.HH1">
      <acc value="0.1250153073" flag="0"/>
      <vel value="0.0266551893" flag="0"/>
      <psa03 value="0.1241122667" flag="0"/>
      <psa10 value="0.0043445376" flag="0"/>
      <psa30 value="0.0004926803" flag="0"/>
    </comp>
    <comp name="--.HHZ">
      <acc value="0.0579314871" flag="0"/>
      <vel value="0.0107148597" flag="0"/>
      <psa03 value="0.0471876353" flag="0"/>
      <psa10 value="0.0029065385" flag="0"/>
      <psa30 value="0.0003660444" flag="0"/>
    </comp>
  </station>
</stationlist>
