<?xml version="1.0" encoding="UTF-8" standalone="yes"?>
<!DOCTYPE earthquake SYSTEM "stationlist.dtd">
<stationlist created="" xmlns="ch.ethz.sed.shakemap.usgs.xml">
  <station code="GAZ" name="GAZ" netid="KO" insttype="CMG-3T" lat="37.1721" lon="37.2096">
    <comp name="--.HHE">
      <acc value="0.0429991931" flag="0"/>
      <vel value="0.0197371929" flag="0"/>
      <psa03 value="0.0678937934" flag="0"/>
      <psa10 value="0.0194290477" flag="0"/>
      <psa30 value="0.0010768872" flag="0"/>
    </comp>
    <comp name="--.HHN">
      <acc value="0.0264072224" flag="0"/>
      <vel value="0.0129351236" flag="0"/>
      <psa03 value="0.0482107373" flag="0"/>
      <psa10 value="0.0116745707" flag="0"/>
      <psa30 value="0.0009199854" flag="0"/>
    </comp>
  </station>
  <station code="KHMN" name="KHMN" netid="KO" insttype="CMG-5T" lat="37.3916" lon="37.1574">
    <comp name="--.HNE">
      <acc value="0.0805632186" flag="0"/>
      <vel value="0.0336861703" flag="0"/>
      <psa03 value="0.1296997403" flag="0"/>
      <psa10 value="0.0152404336" flag="0"/>
      <psa30 value="0.0010611749" flag="0"/>
    </comp>
    <comp name="--.HNN">
      <acc value="0.0705316333" flag="0"/>
      <vel value="0.0198474203" flag="0"/>
      <psa03 value="0.0695157207" flag="0"/>
      <psa10 value="0.0060380122" flag="0"/>
      <psa30 value="0.0007901923" flag="0"/>
    </comp>
    <comp name="--.HNZ">
      <acc value="0.0412201956" flag="0"/>
      <vel value="0.0101487399" flag="0"/>
      <psa03 value="0.0580477482" flag="0"/>
      <psa10 value="0.0055221976" flag="0"/>
      <psa30 value="0.0005003907" flag="0"/>
    </comp>
  </station>
  <station code="SARI" name="SARI" netid="KO" insttype="CMG-3T" lat="38.4072" lon="36.4181">
    <comp name="--.HHN">
      <acc value="0.2331099556" flag="0"/>
      <vel value="0.0393302435" flag="0"/>
      <psa03 value="0.1878903847" flag="0"/>
      <psa10 value="0.0233720041" flag="0"/>
      <psa30 value="0.0016835503" flag="0"/>
    </comp>
    <comp name="--.HHZ">
      <acc value="0.1620667355" flag="0"/>
      <vel value="0.0386077275" flag="0"/>
      <psa03 value="0.1376918590" flag="0"/>
      <psa10 value="0.0139360433" flag="0"/>
      <psa30 value="0.0012003501" flag="0"/>
    </comp>
  </station>
  <station code="ANDN" name="ANDN" netid="TU" insttype="T" lat="37.58" lon="36.3452">
    <comp name="--.HHN">
      <acc value="0.1326466706" flag="0"/>
      <vel value="0.0417001798" flag="0"/>
      <psa03 value="0.2334705870" flag="0"/>
      <psa10 value="0.0304672304" flag="0"/>
      <psa30 value="0.0017884121" flag="0"/>
    </comp>
    <comp name="--.HHZ">
      <acc value="0.0545476147" flag="0"/>
      <vel value="0.0330869189" flag="0"/>
      <psa03 value="0.1268394621" flag="0"/>
      <psa10 value="0.0349621565" flag="0"/>
      <psa30 value="0.0025836331" flag="0"/>
    </comp>
    <comp name="--.HHE">
      <acc value="0.0979362870" flag="0"/>
      <vel value="0.0349383362" flag="0"/>
      <psa03 value="0.2385560005" flag="0"/>
      <psa10 value="0.0283604925" flag="0"/>
      <psa30 value="0.0015784514" flag="0"/>
    </comp>
  </station>
</stationlist>
