<?xml version="1.0" encoding="UTF-8" standalone="yes"?>
<!DOCTYPE earthquake SYSTEM "stationlist.dtd">
<stationlist created="" xmlns="ch.ethz.sed.shakemap.usgs.xml">
  <station code="KTHA" name="KTHA" netid="GE" source="GFZ" insttype="STS-2/N" lat="36.2566" lon="23.0621">
    <comp name="--.HHE">
      <acc value="0.0197356031" flag="0"/>
      <vel value="0.0135664660" flag="0"/>
      <psa03 value="0.0565493171" flag="0"/>
      <psa10 value="0.0133015971" flag="0"/>
      <psa30 value="0.0009192819" flag="0"/>
    </comp>
    <comp name="--.HHN">
      <acc value="0.0163644740" flag="0"/>
      <vel value="0.0107996410" flag="0"/>
      <psa03 value="0.0467657050" flag="0"/>
      <psa10 value="0.0100971320" flag="0"/>
      <psa30 value="0.0004456498" flag="0"/>
    </comp>
    <comp name="--.HHZ">
      <acc value="0.0125999773" flag="0"/>
      <vel value="0.0051576569" flag="0"/>
      <psa03 value="0.0342933055" flag="0"/>
      <psa10 value="0.0041546926" flag="0"/>
      <psa30 value="0.0003024538" flag="0"/>
    </comp>
  </station>
  <station code="KLMT" name="KLMT" netid="HC" source="NOA" insttype="120" lat="37.0613" lon="22.0597">
    <comp name="--.HHE">
      <acc value="0.1615402580" flag="0"/>
      <vel value="0.0407685120" flag="0"/>
      <psa03 value="0.2979890964" flag="0"/>
      <psa10 value="0.0719648646" flag="0"/>
      <psa30 value="0.0027986953" flag="0"/>
    </comp>
    <comp name="--.HHN">
      <acc value="0.2318315085" flag="0"/>
      <vel value="0.0576020172" flag="0"/>
      <psa03 value="0.4530065033" flag="0"/>
      <psa10 value="0.0412251697" flag="0"/>
      <psa30 value="0.0032406674" flag="0"/>
    </comp>
    <comp name="--.HHZ">
      <acc value="0.1764917394" flag="0"/>
      <vel value="0.0262662014" flag="0"/>
      <psa03 value="0.1090837459" flag="0"/>
      <psa10 value="0.0231282481" flag="0"/>
      <psa30 value="0.0022149760" flag="0"/>
    </comp>
  </station>
  <station code="KTHR" name="KTHR" netid="HC" source="NOA" insttype="120" lat="36.2447" lon="22.9939">
    <comp name="--.HHE">
      <acc value="0.1085443423" flag="0"/>
      <vel value="0.0668846547" flag="0"/>
      <psa03 value="0.5228788682" flag="0"/>
      <psa10 value="0.0342784265" flag="0"/>
      <psa30 value="0.0029923570" flag="0"/>
    </comp>
    <comp name="--.HHN">
      <acc value="0.1556058830" flag="0"/>
      <vel value="0.0700105444" flag="0"/>
      <psa03 value="0.5923637306" flag="0"/>
      <psa10 value="0.0212477262" flag="0"/>
      <psa30 value="0.0020583385" flag="0"/>
    </comp>
    <comp name="--.HHZ">
      <acc value="0.0829496161" flag="0"/>
      <vel value="0.0318988212" flag="0"/>
      <psa03 value="0.1921097599" flag="0"/>
      <psa10 value="0.0099437129" flag="0"/>
      <psa30 value="0.0007228705" flag="0"/>
    </comp>
  </station>
  <station code="ANKY" name="ANKY" netid="HL" source="NOA" insttype="60" lat="35.867" lon="23.3012">
    <comp name="--.HHE">
      <acc value="0.0064965697" flag="0"/>
      <vel value="0.0047538493" flag="0"/>
      <psa03 value="0.0287868196" flag="0"/>
      <psa10 value="0.0068851563" flag="0"/>
      <psa30 value="0.0003493112" flag="0"/>
    </comp>
    <comp name="--.HHN">
      <acc value="0.0057347972" flag="0"/>
      <vel value="0.0036414784" flag="0"/>
      <psa03 value="0.0197054912" flag="0"/>
      <psa10 value="0.0037194753" flag="0"/>
      <psa30 value="0.0002508931" flag="0"/>
    </comp>
    <comp name="--.HHZ">
      <acc value="0.0057331618" flag="0"/>
      <vel value="0.0027028697" flag="0"/>
      <psa03 value="0.0138543810" flag="0"/>
      <psa10 value="0.0023223265" flag="0"/>
      <psa30 value="0.0001429760" flag="0"/>
    </comp>
  </station>
  <station code="ITM" name="ITM" netid="HL" source="NOA" insttype="STS2gen3_DR24" lat="37.1787" lon="21.9252">
    <comp name="--.HHE">
      <acc value="0.0275433622" flag="0"/>
      <vel value="0.0082839097" flag="0"/>
      <psa03 value="0.0387075796" flag="0"/>
      <psa10 value="0.0056545507" flag="0"/>
      <psa30 value="0.0004192088" flag="0"/>
    </comp>
    <comp name="--.HHN">
      <acc value="0.0313826694" flag="0"/>
      <vel value="0.0082020583" flag="0"/>
      <psa03 value="0.0434472858" flag="0"/>
      <psa10 value="0.0034044668" flag="0"/>
      <psa30 value="0.0003172216" flag="0"/>
    </comp>
    <comp name="--.HHZ">
      <acc value="0.0235593236" flag="0"/>
      <vel value="0.0046157445" flag="0"/>
      <psa03 value="0.0213062776" flag="0"/>
      <psa10 value="0.0056425304" flag="0"/>
      <psa30 value="0.0003751584" flag="0"/>
    </comp>
  </station>
  <station code="KTHA" name="KTHA" netid="HL" source="NOA" insttype="120" lat="36.2566" lon="23.0621">
    <comp name="--.HHZ">
      <acc value="0.0122280985" flag="0"/>
      <vel value="0.0050016197" flag="0"/>
      <psa03 value="0.0332000983" flag="0"/>
      <psa10 value="0.0041176829" flag="0"/>
      <psa30 value="0.0003004172" flag="0"/>
    </comp>
  </station>
  <station code="VLI" name="VLI" netid="HL" source="NOA" insttype="60" lat="36.718" lon="22.9469">
    <comp name="--.HHE">
      <acc value="0.0293608507" flag="0"/>
      <vel value="0.0129545765" flag="0"/>
      <psa03 value="0.0825499359" flag="0"/>
      <psa10 value="0.0118821021" flag="0"/>
      <psa30 value="0.0010001588" flag="0"/>
    </comp>
    <comp name="--.HHN">
      <acc value="0.0466988227" flag="0"/>
      <vel value="0.0223619085" flag="0"/>
      <psa03 value="0.1030038133" flag="0"/>
      <psa10 value="0.0160635995" flag="0"/>
      <psa30 value="0.0012990634" flag="0"/>
    </comp>
    <comp name="--.HHZ">
      <acc value="0.0259591926" flag="0"/>
      <vel value="0.0129498823" flag="0"/>
      <psa03 value="0.0715288320" flag="0"/>
      <psa10 value="0.0052775131" flag="0"/>
      <psa30 value="0.0006281508" flag="0"/>
    </comp>
  </station>
</stationlist>
