<stationlist xmlns:esm="https://esm-db.eu/esmws/shakemap/1/" created="1783475692">
	<station code="IMMV" name="IMMV" netid="GE" source="GEOFON" insttype="" lat="35.4606" lon="23.9811" esm:processing="manual (Paolucci et al 2011)" esm:quality="best">
		<comp name="--.HNE" depth="0.0">
			<acc value="0.00255442483483789" flag="0"/>
			<vel value="0.00195354822245495" flag="0"/>
			<psa03 value="0.00666658878612249" flag="0"/>
			<psa10 value="0.0029798309607769" flag="0"/>
			<psa30 value="0.000170020385149433" flag="0"/>
		</comp>
		<comp name="--.HNN" depth="0.0">
			<acc value="0.0036480850398592" flag="0"/>
			<vel value="0.00203772043461165" flag="0"/>
			<psa03 value="0.0122593646134065" flag="0"/>
			<psa10 value="0.00286305380150321" flag="0"/>
			<psa30 value="0.000235344006812109" flag="0"/>
		</comp>
		<comp name="--.HNZ" depth="0.0">
			<acc value="0.00161957088800706" flag="0"/>
			<vel value="0.000998104894169415" flag="0"/>
			<psa03 value="0.0052348381743378" flag="0"/>
			<psa10 value="0.00118387878711947" flag="0"/>
			<psa30 value="0.000167335852752336" flag="0"/>
		</comp>
	</station>
	<station code="KTHA" name="KTHA" netid="GE" source="GEOFON" insttype="" lat="36.2566" lon="23.0621" esm:processing="manual (Paolucci et al 2011)" esm:quality="best">
		<comp name="--.HNE" depth="0.0">
			<acc value="0.019280096559326" flag="0"/>
			<vel value="0.0133608723724965" flag="0"/>
			<psa03 value="0.0559277582728397" flag="0"/>
			<psa10 value="0.0134535341080481" flag="0"/>
			<psa30 value="0.000964194552623756" flag="0"/>
		</comp>
		<comp name="--.HNN" depth="0.0">
			<acc value="0.0157605916697011" flag="0"/>
			<vel value="0.0106906618668169" flag="0"/>
			<psa03 value="0.0461292150234382" flag="0"/>
			<psa10 value="0.0101072644750676" flag="0"/>
			<psa30 value="0.000464871526763843" flag="0"/>
		</comp>
		<comp name="--.HNZ" depth="0.0">
			<acc value="0.0123500189590282" flag="0"/>
			<vel value="0.0051694351074009" flag="0"/>
			<psa03 value="0.034898921162252" flag="0"/>
			<psa10 value="0.0042482725184049" flag="0"/>
			<psa30 value="0.000331092328975211" flag="0"/>
		</comp>
	</station>
	<station code="ARS1" name="ARS1" netid="HI" source="ITSAK Strong Motion Network" insttype="" lat="37.6349" lon="22.7293" esm:processing="manual (Paolucci et al 2011)" esm:quality="good">
		<comp name="--.HNE" depth="0.0">
			<acc value="0.00944645536859174" flag="0"/>
			<vel value="0.00829462479231841" flag="0"/>
			<psa03 value="0.0274709265849082" flag="0"/>
			<psa10 value="0.00904574267355384" flag="0"/>
			<psa30 value="0.000486112150460697" flag="0"/>
		</comp>
		<comp name="--.HNN" depth="0.0">
			<acc value="0.00610443279893182" flag="0"/>
			<vel value="0.00529314512338835" flag="0"/>
			<psa03 value="0.0234681483996588" flag="0"/>
			<psa10 value="0.0100956856646425" flag="0"/>
			<psa30 value="0.000521300106492465" flag="0"/>
		</comp>
		<comp name="--.HNZ" depth="0.0">
			<acc value="0.0055344456549383" flag="0"/>
			<vel value="0.00255135889448945" flag="0"/>
			<psa03 value="0.0158164162495338" flag="0"/>
			<psa10 value="0.0018904160901617" flag="0"/>
			<psa30 value="0.000356070436877073" flag="0"/>
		</comp>
	</station>
	<station code="KLV1" name="KLV1" netid="HI" source="ITSAK Strong Motion Network" insttype="" lat="38.03256" lon="22.10797" esm:processing="manual (Paolucci et al 2011)" esm:quality="best">
		<comp name="--.HNE" depth="0.0">
			<acc value="0.00541891300956585" flag="0"/>
			<vel value="0.00278661037085038" flag="0"/>
			<psa03 value="0.0157430702449013" flag="0"/>
			<psa10 value="0.00394313121309057" flag="0"/>
			<psa30 value="0.000235491954353105" flag="0"/>
		</comp>
		<comp name="--.HNN" depth="0.0">
			<acc value="0.00364195580866866" flag="0"/>
			<vel value="0.0028249999869664" flag="0"/>
			<psa03 value="0.0147703508590701" flag="0"/>
			<psa10 value="0.00459250688730608" flag="0"/>
			<psa30 value="0.000268647614294385" flag="0"/>
		</comp>
		<comp name="--.HNZ" depth="0.0">
			<acc value="0.00206780708194169" flag="0"/>
			<vel value="0.00146968892416908" flag="0"/>
			<psa03 value="0.00608804718347413" flag="0"/>
			<psa10 value="0.00274071648088924" flag="0"/>
			<psa30 value="0.000165360589744121" flag="0"/>
		</comp>
	</station>
	<station code="NPS1" name="NPS1" netid="HI" source="ITSAK Strong Motion Network" insttype="" lat="36.51263" lon="23.06248" esm:processing="manual (Paolucci et al 2011)" esm:quality="best">
		<comp name="--.HNE" depth="0.0">
			<acc value="0.0388382066995682" flag="0"/>
			<vel value="0.0243494845179307" flag="0"/>
			<psa03 value="0.128007453134875" flag="0"/>
			<psa10 value="0.0177903961955572" flag="0"/>
			<psa30 value="0.000984775967668161" flag="0"/>
		</comp>
		<comp name="--.HNN" depth="0.0">
			<acc value="0.0416691177336658" flag="0"/>
			<vel value="0.0179163076225127" flag="0"/>
			<psa03 value="0.101564809023477" flag="0"/>
			<psa10 value="0.0103327651964237" flag="0"/>
			<psa30 value="0.000744957740194225" flag="0"/>
		</comp>
		<comp name="--.HNZ" depth="0.0">
			<acc value="0.0242799134437436" flag="0"/>
			<vel value="0.00851267517968524" flag="0"/>
			<psa03 value="0.0590149705295005" flag="0"/>
			<psa10 value="0.00496906946702526" flag="0"/>
			<psa30 value="0.000415207677417562" flag="0"/>
		</comp>
	</station>
	<station code="ANKY" name="ANKY" netid="HL" source="National Observatory of Athens Seismic Network" insttype="" lat="35.86704" lon="23.30117" esm:processing="manual (Paolucci et al 2011)" esm:quality="bad">
		<comp name="00.HNE" depth="0.0">
			<acc value="0.00657381211595263" flag="0"/>
			<vel value="0.00471386623404861" flag="0"/>
			<psa03 value="0.027829652516565" flag="0"/>
			<psa10 value="0.00655160131511353" flag="0"/>
			<psa30 value="0.000391494307909878" flag="0"/>
		</comp>
		<comp name="00.HNN" depth="0.0">
			<acc value="0.00695393491692297" flag="0"/>
			<vel value="0.00388012583739676" flag="0"/>
			<psa03 value="0.0213420325569156" flag="0"/>
			<psa10 value="0.00479189032881691" flag="0"/>
			<psa30 value="0.00029306145334968" flag="0"/>
		</comp>
		<comp name="00.HNZ" depth="0.0">
			<acc value="0.00605131806938877" flag="0"/>
			<vel value="0.00255830121055709" flag="0"/>
			<psa03 value="0.0131989509523902" flag="0"/>
			<psa10 value="0.00228722160232605" flag="0"/>
			<psa30 value="0.000153018346634489" flag="0"/>
		</comp>
	</station>
	<station code="IMMV" name="IMMV" netid="HL" source="National Observatory of Athens Seismic Network" insttype="" lat="35.4606" lon="23.9811" esm:processing="manual (Paolucci et al 2011)" esm:quality="best">
		<comp name="--.HNE" depth="0.0">
			<acc value="0.00250261882779202" flag="0"/>
			<vel value="0.0019139374944075" flag="0"/>
			<psa03 value="0.00653236216626768" flag="0"/>
			<psa10 value="0.00291942898184223" flag="0"/>
			<psa30 value="0.000166441008619971" flag="0"/>
		</comp>
		<comp name="--.HNN" depth="0.0">
			<acc value="0.00357411420922961" flag="0"/>
			<vel value="0.00199633744114029" flag="0"/>
			<psa03 value="0.0119909113736968" flag="0"/>
			<psa10 value="0.00280667862116419" flag="0"/>
			<psa30 value="0.0002304223640841" flag="0"/>
		</comp>
		<comp name="--.HNZ" depth="0.0">
			<acc value="0.00158668463379142" flag="0"/>
			<vel value="0.000977813363058659" flag="0"/>
			<psa03 value="0.00510061155448298" flag="0"/>
			<psa10 value="0.0011597179955456" flag="0"/>
			<psa30 value="0.000163756476222875" flag="0"/>
		</comp>
	</station>
	<station code="ITM" name="ITM" netid="HL" source="National Observatory of Athens Seismic Network" insttype="" lat="37.17872" lon="21.92522" esm:processing="manual (Paolucci et al 2011)" esm:quality="best">
		<comp name="00.HNE" depth="0.0">
			<acc value="0.0271289661202641" flag="0"/>
			<vel value="0.00813757383519459" flag="0"/>
			<psa03 value="0.0378071645924396" flag="0"/>
			<psa10 value="0.00556503565918064" flag="0"/>
			<psa30 value="0.000437578780726698" flag="0"/>
		</comp>
		<comp name="00.HNN" depth="0.0">
			<acc value="0.0302327059177587" flag="0"/>
			<vel value="0.00816881910581668" flag="0"/>
			<psa03 value="0.0430420027667774" flag="0"/>
			<psa10 value="0.00336640362595877" flag="0"/>
			<psa30 value="0.000313195446327902" flag="0"/>
		</comp>
		<comp name="00.HNZ" depth="0.0">
			<acc value="0.0220698875865285" flag="0"/>
			<vel value="0.00441813153169758" flag="0"/>
			<psa03 value="0.0199102819451309" flag="0"/>
			<psa10 value="0.00518248979259442" flag="0"/>
			<psa30 value="0.00034406756889451" flag="0"/>
		</comp>
	</station>
	<station code="KIAA" name="KIAA" netid="HL" source="National Observatory of Athens Seismic Network" insttype="" lat="38.0139" lon="22.7495" esm:processing="manual (Paolucci et al 2011)" esm:quality="good">
		<comp name="00.HNE" depth="0.0">
			<acc value="0.00651260528580642" flag="0"/>
			<vel value="0.00725780511618574" flag="0"/>
			<psa03 value="0.0179696174823012" flag="0"/>
			<psa10 value="0.0187552230664823" flag="0"/>
			<psa30 value="0.000957319667729705" flag="0"/>
		</comp>
		<comp name="00.HNN" depth="0.0">
			<acc value="0.00578025037128763" flag="0"/>
			<vel value="0.00685728805548931" flag="0"/>
			<psa03 value="0.0144648241090242" flag="0"/>
			<psa10 value="0.0121745702555297" flag="0"/>
			<psa30 value="0.00088614297345636" flag="0"/>
		</comp>
		<comp name="00.HNZ" depth="0.0">
			<acc value="0.00499441038751422" flag="0"/>
			<vel value="0.00364712177611389" flag="0"/>
			<psa03 value="0.0110006258728925" flag="0"/>
			<psa10 value="0.00493324461574468" flag="0"/>
			<psa30 value="0.000630323526673508" flag="0"/>
		</comp>
	</station>
	<station code="KTHA" name="KTHA" netid="HL" source="National Observatory of Athens Seismic Network" insttype="" lat="36.2566" lon="23.0621" esm:processing="manual (Paolucci et al 2011)" esm:quality="best">
		<comp name="--.HNE" depth="0.0">
			<acc value="0.0188889454930028" flag="0"/>
			<vel value="0.0130899026794961" flag="0"/>
			<psa03 value="0.0547644609007646" flag="0"/>
			<psa10 value="0.0131797118035443" flag="0"/>
			<psa30 value="0.000944507981711717" flag="0"/>
		</comp>
		<comp name="--.HNN" depth="0.0">
			<acc value="0.0154408426497963" flag="0"/>
			<vel value="0.0104738710075526" flag="0"/>
			<psa03 value="0.0451896286844545" flag="0"/>
			<psa10 value="0.00990592454528537" flag="0"/>
			<psa30 value="0.000455475663374006" flag="0"/>
		</comp>
		<comp name="--.HNZ" depth="0.0">
			<acc value="0.0120994244159777" flag="0"/>
			<vel value="0.00506444650203848" flag="0"/>
			<psa03 value="0.0341830458563596" flag="0"/>
			<psa10 value="0.00416370974789637" flag="0"/>
			<psa30 value="0.00032438099798247" flag="0"/>
		</comp>
	</station>
	<station code="MNVA" name="MNVA" netid="HL" source="National Observatory of Athens Seismic Network" insttype="" lat="36.68709" lon="23.03734" esm:processing="manual (Paolucci et al 2011)" esm:quality="best">
		<comp name="00.HNE" depth="0.0">
			<acc value="0.00531884109939118" flag="0"/>
			<vel value="0.00350443548154972" flag="0"/>
			<psa03 value="0.0161071943825778" flag="0"/>
			<psa10 value="0.00321338527932428" flag="0"/>
			<psa30 value="0.000353016010218164" flag="0"/>
		</comp>
		<comp name="00.HNN" depth="0.0">
			<acc value="0.0061504958385011" flag="0"/>
			<vel value="0.00317475981930954" flag="0"/>
			<psa03 value="0.0234449162679744" flag="0"/>
			<psa10 value="0.00320935848072863" flag="0"/>
			<psa30 value="0.000262189330783072" flag="0"/>
		</comp>
		<comp name="00.HNZ" depth="0.0">
			<acc value="0.00749610814527683" flag="0"/>
			<vel value="0.00325864969394629" flag="0"/>
			<psa03 value="0.0257267688055063" flag="0"/>
			<psa10 value="0.00260936548997761" flag="0"/>
			<psa30 value="0.000384782976917137" flag="0"/>
		</comp>
	</station>
	<station code="NPLA" name="NPLA" netid="HL" source="National Observatory of Athens Seismic Network" insttype="" lat="37.56561" lon="22.79975" esm:processing="manual (Paolucci et al 2011)" esm:quality="good">
		<comp name="00.HNE" depth="0.0">
			<acc value="0.00800840798628032" flag="0"/>
			<vel value="0.00483990296950958" flag="0"/>
			<psa03 value="0.0393645556252856" flag="0"/>
			<psa10 value="0.00366224205868803" flag="0"/>
			<psa30 value="0.000329908026662662" flag="0"/>
		</comp>
		<comp name="00.HNN" depth="0.0">
			<acc value="0.00637514736575967" flag="0"/>
			<vel value="0.00436715844241646" flag="0"/>
			<psa03 value="0.0292924222500476" flag="0"/>
			<psa10 value="0.00261348695880969" flag="0"/>
			<psa30 value="0.000561276452643719" flag="0"/>
		</comp>
		<comp name="00.HNZ" depth="0.0">
			<acc value="0.00331527691933411" flag="0"/>
			<vel value="0.00119010652927056" flag="0"/>
			<psa03 value="0.00558701334138089" flag="0"/>
			<psa10 value="0.00165788978799945" flag="0"/>
			<psa30 value="0.000287428025071037" flag="0"/>
		</comp>
	</station>
	<station code="ZARA" name="ZARA" netid="HL" source="National Observatory of Athens Seismic Network" insttype="" lat="37.4865" lon="21.6491" esm:processing="automatic (Paolucci et al 2011)" esm:quality="best">
		<comp name="00.HNE" depth="0.0">
			<acc value="0.0220406901736654" flag="0"/>
			<vel value="0.00768912438988379" flag="0"/>
			<psa03 value="0.0570419662501551" flag="0"/>
			<psa10 value="0.0082815207976155" flag="0"/>
			<psa30 value="0.000716714874674926" flag="0"/>
		</comp>
		<comp name="00.HNN" depth="0.0">
			<acc value="0.0242932635652026" flag="0"/>
			<vel value="0.00772809958269202" flag="0"/>
			<psa03 value="0.0492571901305203" flag="0"/>
			<psa10 value="0.00800037311047363" flag="0"/>
			<psa30 value="0.000634375878456233" flag="0"/>
		</comp>
		<comp name="00.HNZ" depth="0.0">
			<acc value="0.0112478792627065" flag="0"/>
			<vel value="0.00394590280254942" flag="0"/>
			<psa03 value="0.0188823302887857" flag="0"/>
			<psa10 value="0.00458262357633554" flag="0"/>
			<psa30 value="0.000383479101525133" flag="0"/>
		</comp>
	</station>
	<station code="CH01" name="CH01" netid="HI" source="ITSAK Strong Motion Network" insttype="" lat="35.517" lon="24.0208" esm:processing="discarded" esm:quality="good">
		<comp name="--.HNE" depth="0.0">
			<acc value="0" flag="1"/>
			<vel value="0" flag="1"/>
			<psa03 value="0" flag="1"/>
			<psa10 value="0" flag="1"/>
			<psa30 value="0" flag="1"/>
		</comp>
		<comp name="--.HNN" depth="0.0">
			<acc value="0" flag="1"/>
			<vel value="0" flag="1"/>
			<psa03 value="0" flag="1"/>
			<psa10 value="0" flag="1"/>
			<psa30 value="0" flag="1"/>
		</comp>
		<comp name="--.HNZ" depth="0.0">
			<acc value="0" flag="1"/>
			<vel value="0" flag="1"/>
			<psa03 value="0" flag="1"/>
			<psa10 value="0" flag="1"/>
			<psa30 value="0" flag="1"/>
		</comp>
	</station>
	<station code="MSL1" name="MSL1" netid="HI" source="ITSAK Strong Motion Network" insttype="" lat="38.3727" lon="21.4243" esm:processing="discarded" esm:quality="bad">
		<comp name="--.HNE" depth="0.0">
			<acc value="0" flag="1"/>
			<vel value="0" flag="1"/>
			<psa03 value="0" flag="1"/>
			<psa10 value="0" flag="1"/>
			<psa30 value="0" flag="1"/>
		</comp>
		<comp name="--.HNN" depth="0.0">
			<acc value="0" flag="1"/>
			<vel value="0" flag="1"/>
			<psa03 value="0" flag="1"/>
			<psa10 value="0" flag="1"/>
			<psa30 value="0" flag="1"/>
		</comp>
		<comp name="--.HNZ" depth="0.0">
			<acc value="0" flag="1"/>
			<vel value="0" flag="1"/>
			<psa03 value="0" flag="1"/>
			<psa10 value="0" flag="1"/>
			<psa30 value="0" flag="1"/>
		</comp>
	</station>
	<station code="ARIA" name="ARIA" netid="HL" source="National Observatory of Athens Seismic Network" insttype="" lat="38.33358" lon="21.76206" esm:processing="automatic (Paolucci et al 2011)" esm:quality="bad">
		<comp name="00.HNE" depth="0.0">
			<acc value="0" flag="1"/>
			<vel value="0" flag="1"/>
			<psa03 value="0" flag="1"/>
			<psa10 value="0" flag="1"/>
			<psa30 value="0" flag="1"/>
		</comp>
		<comp name="00.HNN" depth="0.0">
			<acc value="0" flag="1"/>
			<vel value="0" flag="1"/>
			<psa03 value="0" flag="1"/>
			<psa10 value="0" flag="1"/>
			<psa30 value="0" flag="1"/>
		</comp>
		<comp name="00.HNZ" depth="0.0">
			<acc value="0" flag="1"/>
			<vel value="0" flag="1"/>
			<psa03 value="0" flag="1"/>
			<psa10 value="0" flag="1"/>
			<psa30 value="0" flag="1"/>
		</comp>
	</station>
	<station code="CHNB" name="CHNB" netid="HL" source="National Observatory of Athens Seismic Network" insttype="" lat="35.48765" lon="24.06605" esm:processing="automatic (Paolucci et al 2011)" esm:quality="bad">
		<comp name="00.HNE" depth="0.0">
			<acc value="0" flag="1"/>
			<vel value="0" flag="1"/>
			<psa03 value="0" flag="1"/>
			<psa10 value="0" flag="1"/>
			<psa30 value="0" flag="1"/>
		</comp>
		<comp name="00.HNN" depth="0.0">
			<acc value="0" flag="1"/>
			<vel value="0" flag="1"/>
			<psa03 value="0" flag="1"/>
			<psa10 value="0" flag="1"/>
			<psa30 value="0" flag="1"/>
		</comp>
		<comp name="00.HNZ" depth="0.0">
			<acc value="0" flag="1"/>
			<vel value="0" flag="1"/>
			<psa03 value="0" flag="1"/>
			<psa10 value="0" flag="1"/>
			<psa30 value="0" flag="1"/>
		</comp>
	</station>
	<station code="DRPA" name="DRPA" netid="HL" source="National Observatory of Athens Seismic Network" insttype="" lat="37.94738" lon="23.63024" esm:processing="automatic (Paolucci et al 2011)" esm:quality="bad">
		<comp name="00.HNE" depth="0.0">
			<acc value="0" flag="1"/>
			<vel value="0" flag="1"/>
			<psa03 value="0" flag="1"/>
			<psa10 value="0" flag="1"/>
			<psa30 value="0" flag="1"/>
		</comp>
		<comp name="00.HNN" depth="0.0">
			<acc value="0" flag="1"/>
			<vel value="0" flag="1"/>
			<psa03 value="0" flag="1"/>
			<psa10 value="0" flag="1"/>
			<psa30 value="0" flag="1"/>
		</comp>
		<comp name="00.HNZ" depth="0.0">
			<acc value="0" flag="1"/>
			<vel value="0" flag="1"/>
			<psa03 value="0" flag="1"/>
			<psa10 value="0" flag="1"/>
			<psa30 value="0" flag="1"/>
		</comp>
	</station>
	<station code="PATC" name="PATC" netid="HL" source="National Observatory of Athens Seismic Network" insttype="" lat="38.26933" lon="21.76001" esm:processing="automatic (Paolucci et al 2011)" esm:quality="bad">
		<comp name="00.HNE" depth="0.0">
			<acc value="0" flag="1"/>
			<vel value="0" flag="1"/>
			<psa03 value="0" flag="1"/>
			<psa10 value="0" flag="1"/>
			<psa30 value="0" flag="1"/>
		</comp>
		<comp name="00.HNN" depth="0.0">
			<acc value="0" flag="1"/>
			<vel value="0" flag="1"/>
			<psa03 value="0" flag="1"/>
			<psa10 value="0" flag="1"/>
			<psa30 value="0" flag="1"/>
		</comp>
		<comp name="00.HNZ" depth="0.0">
			<acc value="0" flag="1"/>
			<vel value="0" flag="1"/>
			<psa03 value="0" flag="1"/>
			<psa10 value="0" flag="1"/>
			<psa30 value="0" flag="1"/>
		</comp>
	</station>
	<station code="PATG" name="PATG" netid="HL" source="National Observatory of Athens Seismic Network" insttype="" lat="38.23865" lon="21.72657" esm:processing="automatic (Paolucci et al 2011)" esm:quality="bad">
		<comp name="00.HNE" depth="0.0">
			<acc value="0" flag="1"/>
			<vel value="0" flag="1"/>
			<psa03 value="0" flag="1"/>
			<psa10 value="0" flag="1"/>
			<psa30 value="0" flag="1"/>
		</comp>
		<comp name="00.HNN" depth="0.0">
			<acc value="0" flag="1"/>
			<vel value="0" flag="1"/>
			<psa03 value="0" flag="1"/>
			<psa10 value="0" flag="1"/>
			<psa30 value="0" flag="1"/>
		</comp>
		<comp name="00.HNZ" depth="0.0">
			<acc value="0" flag="1"/>
			<vel value="0" flag="1"/>
			<psa03 value="0" flag="1"/>
			<psa10 value="0" flag="1"/>
			<psa30 value="0" flag="1"/>
		</comp>
	</station>
	<station code="RIOA" name="RIOA" netid="HL" source="National Observatory of Athens Seismic Network" insttype="" lat="38.29585" lon="21.79118" esm:processing="automatic (Paolucci et al 2011)" esm:quality="bad">
		<comp name="00.HNE" depth="0.0">
			<acc value="0" flag="1"/>
			<vel value="0" flag="1"/>
			<psa03 value="0" flag="1"/>
			<psa10 value="0" flag="1"/>
			<psa30 value="0" flag="1"/>
		</comp>
		<comp name="00.HNN" depth="0.0">
			<acc value="0" flag="1"/>
