<?xml version="1.0" encoding="UTF-8" standalone="yes"?>
<!DOCTYPE earthquake SYSTEM "stationlist.dtd">
<stationlist created="" xmlns="ch.ethz.sed.shakemap.usgs.xml">
  <station code="ACOR" name="ACOR" netid="HA" insttype="Horizon,120s,1200" commtype="DIG" lat="37.8905" lon="22.8694">
    <comp name="--.HHZ">
      <acc value="0.0981084081" flag="0"/>
      <vel value="0.0797197952" flag="0"/>
      <psa03 value="0.2497709917" flag="0"/>
      <psa10 value="0.1060055746" flag="0"/>
      <psa30 value="0.0325766641" flag="0"/>
    </comp>
    <comp name="--.HHN">
      <acc value="0.0783315604" flag="0"/>
      <vel value="0.1136655208" flag="0"/>
      <psa03 value="0.1750464840" flag="0"/>
      <psa10 value="0.1850357145" flag="0"/>
      <psa30 value="0.0357060963" flag="0"/>
    </comp>
    <comp name="--.HHE">
      <acc value="0.1273359933" flag="0"/>
      <vel value="0.1537018310" flag="0"/>
      <psa03 value="0.2209104516" flag="0"/>
      <psa10 value="0.3077226455" flag="0"/>
      <psa30 value="0.0302201900" flag="0"/>
    </comp>
  </station>
  <station code="AXAR" name="AXAR" netid="HA" insttype="Horizon,120s,1200" commtype="DIG" lat="38.7664" lon="22.659">
    <comp name="--.HHZ">
      <acc value="0.1982822869" flag="0"/>
      <vel value="0.0965637102" flag="0"/>
      <psa03 value="0.4267506193" flag="0"/>
      <psa10 value="0.1072419744" flag="0"/>
      <psa30 value="0.0119032113" flag="0"/>
    </comp>
  </station>
  <station code="ERTR" name="ERTR" netid="HA" insttype="Horizon,120s,1200" commtype="DIG" lat="38.4066" lon="23.7865">
    <comp name="--.HHN">
      <acc value="0.3330106225" flag="0"/>
      <vel value="0.1184637778" flag="0"/>
      <psa03 value="0.5516838901" flag="0"/>
      <psa10 value="0.0574816973" flag="0"/>
      <psa30 value="0.0124522092" flag="0"/>
    </comp>
  </station>
  <station code="THAL" name="THAL" netid="HA" insttype="30" commtype="DIG" lat="38.0357" lon="22.6634">
    <comp name="--.HHE">
      <acc value="0.6081615600" flag="0"/>
      <vel value="0.4536535540" flag="0"/>
      <psa03 value="2.1782231940" flag="0"/>
      <psa10 value="0.4256108595" flag="0"/>
      <psa30 value="0.0559069291" flag="0"/>
    </comp>
  </station>
  <station code="KIF1" name="KIF1" netid="HI" insttype="unknown" commtype="DIG" lat="38.0773" lon="23.8146">
    <comp name="--.HNZ">
      <acc value="0.2112689452" flag="0"/>
      <vel value="0.1295434120" flag="0"/>
      <psa03 value="0.5759495224" flag="0"/>
      <psa10 value="0.1039429677" flag="0"/>
      <psa30 value="0.0213769379" flag="0"/>
    </comp>
  </station>
  <station code="KOR2" name="KOR2" netid="HI" insttype="unknown" commtype="DIG" lat="37.9401" lon="22.9495">
    <comp name="--.HNE">
      <acc value="0.4830013586" flag="0"/>
      <vel value="0.6282942100" flag="0"/>
      <psa03 value="1.4706934089" flag="0"/>
      <psa10 value="0.9312126883" flag="0"/>
      <psa30 value="0.1298866245" flag="0"/>
    </comp>
  </station>
  <station code="LAM2" name="LAM2" netid="HI" insttype="CMG-5TD,ACCELEROMETER,GURALP" commtype="DIG" lat="38.902" lon="22.4313">
    <comp name="--.HNN">
      <acc value="0.1769708434" flag="0"/>
      <vel value="0.0872574228" flag="0"/>
      <psa03 value="0.3729423567" flag="0"/>
      <psa10 value="0.1350698795" flag="0"/>
      <psa30 value="0.0113632968" flag="0"/>
    </comp>
  </station>
  <station code="PLN1" name="PLN1" netid="HI" insttype="CMG-5TD,ACCELEROMETER,GURALP" commtype="DIG" lat="39.998" lon="23.575">
    <comp name="--.HNZ">
      <acc value="0.0306651070" flag="0"/>
      <vel value="0.0339768780" flag="0"/>
      <psa03 value="0.0843927606" flag="0"/>
      <psa10 value="0.0483852596" flag="0"/>
      <psa30 value="0.0095109124" flag="0"/>
    </comp>
  </station>
  <station code="SKY1" name="SKY1" netid="HI" insttype="CMG-5TD,ACCELEROMETER,GURALP" commtype="DIG" lat="38.9045" lon="24.5646">
    <comp name="--.HNE">
      <acc value="0.5217312199" flag="0"/>
      <vel value="0.2595556546" flag="0"/>
      <psa03 value="1.8962310069" flag="0"/>
      <psa10 value="0.3124758990" flag="0"/>
      <psa30 value="0.0174917436" flag="0"/>
    </comp>
    <comp name="--.HNN">
      <acc value="0.4309084071" flag="0"/>
      <vel value="0.3087000711" flag="0"/>
      <psa03 value="1.4627160334" flag="0"/>
      <psa10 value="0.1695508311" flag="0"/>
      <psa30 value="0.0346628543" flag="0"/>
    </comp>
  </station>
  <station code="THV2" name="THV2" netid="HI" insttype="unknown" commtype="DIG" lat="38.3161" lon="23.3198">
    <comp name="--.HNN">
      <acc value="0.6057204174" flag="0"/>
      <vel value="0.4741078151" flag="0"/>
      <psa03 value="1.1793487142" flag="0"/>
      <psa10 value="0.5653768409" flag="0"/>
      <psa30 value="0.0838638522" flag="0"/>
    </comp>
    <comp name="--.HNE">
      <acc value="0.8124854060" flag="0"/>
      <vel value="0.3701815404" flag="0"/>
      <psa03 value="1.0196585850" flag="0"/>
      <psa10 value="0.4598816045" flag="0"/>
      <psa30 value="0.0768895729" flag="0"/>
    </comp>
    <comp name="--.HNZ">
      <acc value="0.4598248408" flag="0"/>
      <vel value="0.3152283346" flag="0"/>
      <psa03 value="0.7104942937" flag="0"/>
      <psa10 value="0.4435790943" flag="0"/>
      <psa30 value="0.0278075494" flag="0"/>
    </comp>
  </station>
  <station code="TRP1" name="TRP1" netid="HI" insttype="unknown" commtype="DIG" lat="37.5112" lon="22.3634">
    <comp name="--.HNE">
      <acc value="0.0686648857" flag="0"/>
      <vel value="0.0652227835" flag="0"/>
      <psa03 value="0.1235420544" flag="0"/>
      <psa10 value="0.0635946646" flag="0"/>
      <psa30 value="0.0122915072" flag="0"/>
    </comp>
    <comp name="--.HNZ">
      <acc value="0.0263630654" flag="0"/>
      <vel value="0.0364102165" flag="0"/>
      <psa03 value="0.0620623361" flag="0"/>
      <psa10 value="0.0337664077" flag="0"/>
      <psa30 value="0.0104999369" flag="0"/>
    </comp>
    <comp name="--.HNN">
      <acc value="0.0866565416" flag="0"/>
      <vel value="0.0618147477" flag="0"/>
      <psa03 value="0.2071785977" flag="0"/>
      <psa10 value="0.0843944073" flag="0"/>
      <psa30 value="0.0124083506" flag="0"/>
    </comp>
  </station>
  <station code="VOL2" name="VOL2" netid="HI" insttype="CMG-5TD,ACCELEROMETER,GURALP" commtype="DIG" lat="39.366" lon="22.9506">
    <comp name="--.HNN">
      <acc value="0.4833192682" flag="0"/>
      <vel value="0.3050267158" flag="0"/>
      <psa03 value="0.8172696021" flag="0"/>
      <psa10 value="0.2543572549" flag="0"/>
      <psa30 value="0.0454085418" flag="0"/>
    </comp>
    <comp name="--.HNE">
      <acc value="0.6170702428" flag="0"/>
      <vel value="0.3717795461" flag="0"/>
      <psa03 value="1.9003009163" flag="0"/>
      <psa10 value="0.2263494397" flag="0"/>
      <psa30 value="0.0316822502" flag="0"/>
    </comp>
    <comp name="--.HNZ">
      <acc value="0.2391381437" flag="0"/>
      <vel value="0.1138414477" flag="0"/>
      <psa03 value="0.4581718760" flag="0"/>
      <psa10 value="0.0740725809" flag="0"/>
      <psa30 value="0.0262819461" flag="0"/>
    </comp>
  </station>
  <station code="VOL3" name="VOL3" netid="HI" insttype="unknown" commtype="DIG" lat="39.374" lon="22.9354">
    <comp name="--.HNN">
      <acc value="0.3451440183" flag="0"/>
      <vel value="0.2980151753" flag="0"/>
      <psa03 value="0.8426570452" flag="0"/>
      <psa10 value="0.1710955197" flag="0"/>
      <psa30 value="0.0427889550" flag="0"/>
    </comp>
    <comp name="--.HNE">
      <acc value="0.3327915475" flag="0"/>
      <vel value="0.2149418801" flag="0"/>
      <psa03 value="0.7368655693" flag="0"/>
      <psa10 value="0.1435577001" flag="0"/>
      <psa30 value="0.0284634042" flag="0"/>
    </comp>
    <comp name="--.HNZ">
      <acc value="0.1746405309" flag="0"/>
      <vel value="0.1289224839" flag="0"/>
      <psa03 value="0.5429395687" flag="0"/>
      <psa10 value="0.0535238533" flag="0"/>
      <psa30 value="0.0251103428" flag="0"/>
    </comp>
  </station>
  <station code="ACHA" name="ACHA" netid="HL" insttype="CMG-5" commtype="DIG" lat="38.0746" lon="23.7413">
    <comp name="00.HNE">
      <acc value="0.6887535232" flag="0"/>
      <vel value="0.3881911495" flag="0"/>
      <psa03 value="1.3689306078" flag="0"/>
      <psa10 value="0.2191545472" flag="0"/>
      <psa30 value="0.0390269587" flag="0"/>
    </comp>
    <comp name="00.HNZ">
      <acc value="0.3832377994" flag="0"/>
      <vel value="0.1878518440" flag="0"/>
      <psa03 value="1.3885245685" flag="0"/>
      <psa10 value="0.1459144346" flag="0"/>
      <psa30 value="0.0290033272" flag="0"/>
    </comp>
    <comp name="00.HNN">
      <acc value="0.5071292301" flag="0"/>
      <vel value="0.2853410732" flag="0"/>
      <psa03 value="1.6502979630" flag="0"/>
      <psa10 value="0.2560663029" flag="0"/>
      <psa30 value="0.0514858728" flag="0"/>
    </comp>
  </station>
  <station code="AGXA" name="AGXA" netid="HL" insttype="CMG-5" commtype="DIG" lat="39.2765" lon="22.82">
    <comp name="00.HNZ">
      <acc value="0.3462787611" flag="0"/>
      <vel value="0.1909205554" flag="0"/>
      <psa03 value="0.7952601908" flag="0"/>
      <psa10 value="0.2269310297" flag="0"/>
      <psa30 value="0.0161281455" flag="0"/>
    </comp>
    <comp name="00.HNN">
      <acc value="0.7852385525" flag="0"/>
      <vel value="0.5634156164" flag="0"/>
      <psa03 value="1.7589834578" flag="0"/>
      <psa10 value="0.5615729828" flag="0"/>
      <psa30 value="0.0527487336" flag="0"/>
    </comp>
    <comp name="00.HNE">
      <acc value="0.9273164364" flag="0"/>
      <vel value="0.6507081577" flag="0"/>
      <psa03 value="4.2161030571" flag="0"/>
      <psa10 value="0.5136309280" flag="0"/>
      <psa30 value="0.0368827257" flag="0"/>
    </comp>
  </station>
  <station code="ALNA" name="ALNA" netid="HL" insttype="CMG-5" commtype="DIG" lat="39.148" lon="23.8667">
    <comp name="00.HNE">
      <acc value="0.1897751261" flag="0"/>
      <vel value="0.1171523628" flag="0"/>
      <psa03 value="0.4887468913" flag="0"/>
      <psa10 value="0.2899466451" flag="0"/>
      <psa30 value="0.0146232380" flag="0"/>
    </comp>
    <comp name="00.HNZ">
      <acc value="0.1920347628" flag="0"/>
      <vel value="0.1020757825" flag="0"/>
      <psa03 value="0.5565101026" flag="0"/>
      <psa10 value="0.1104520071" flag="0"/>
      <psa30 value="0.0188158721" flag="0"/>
    </comp>
    <comp name="00.HNN">
      <acc value="0.1792204540" flag="0"/>
      <vel value="0.1116000108" flag="0"/>
      <psa03 value="0.4433286138" flag="0"/>
      <psa10 value="0.1533917293" flag="0"/>
      <psa30 value="0.0213778944" flag="0"/>
    </comp>
  </station>
  <station code="DLFA" name="DLFA" netid="HL" insttype="CMG-5" commtype="DIG" lat="38.4784" lon="22.4958">
    <comp name="00.HNZ">
      <acc value="0.2419211588" flag="0"/>
      <vel value="0.1773594068" flag="0"/>
      <psa03 value="0.5656197239" flag="0"/>
      <psa10 value="0.4376810688" flag="0"/>
      <psa30 value="0.0283119672" flag="0"/>
    </comp>
    <comp name="00.HNE">
      <acc value="0.2710826880" flag="0"/>
      <vel value="0.2613753095" flag="0"/>
      <psa03 value="0.7113470199" flag="0"/>
      <psa10 value="0.6426850394" flag="0"/>
      <psa30 value="0.0334942433" flag="0"/>
    </comp>
    <comp name="00.HNN">
      <acc value="0.3375188594" flag="0"/>
      <vel value="0.2569938190" flag="0"/>
      <psa03 value="0.7285800186" flag="0"/>
      <psa10 value="0.5035444731" flag="0"/>
      <psa30 value="0.0205140961" flag="0"/>
    </comp>
  </station>
  <station code="DRPA" name="DRPA" netid="HL" insttype="CMG-5" commtype="DIG" lat="37.9474" lon="23.6302">
    <comp name="00.HNE">
      <acc value="0.4101943224" flag="0"/>
      <vel value="0.2680996297" flag="0"/>
      <psa03 value="0.7092952473" flag="0"/>
      <psa10 value="0.3486191841" flag="0"/>
      <psa30 value="0.0216827895" flag="0"/>
    </comp>
    <comp name="00.HNZ">
      <acc value="0.3626503391" flag="0"/>
      <vel value="0.2084852312" flag="0"/>
      <psa03 value="0.5555469162" flag="0"/>
      <psa10 value="0.3461460239" flag="0"/>
      <psa30 value="0.0249304768" flag="0"/>
    </comp>
    <comp name="00.HNN">
      <acc value="0.5305987720" flag="0"/>
      <vel value="0.2524645364" flag="0"/>
      <psa03 value="1.4915582941" flag="0"/>
      <psa10 value="0.3233670010" flag="0"/>
      <psa30 value="0.0359958498" flag="0"/>
    </comp>
  </station>
  <station code="EFSA" name="EFSA" netid="HL" insttype="CMG-5" commtype="DIG" lat="39.5401" lon="24.9886">
    <comp name="00.HNN">
      <acc value="0.0372227618" flag="0"/>
      <vel value="0.0348228535" flag="0"/>
      <psa03 value="0.0851651450" flag="0"/>
      <psa10 value="0.0388352438" flag="0"/>
      <psa30 value="0.0100442846" flag="0"/>
    </comp>
    <comp name="00.HNZ">
      <acc value="0.0230239644" flag="0"/>
      <vel value="0.0205021236" flag="0"/>
      <psa03 value="0.0554708851" flag="0"/>
      <psa10 value="0.0281832620" flag="0"/>
      <psa30 value="0.0077142554" flag="0"/>
    </comp>
    <comp name="00.HNE">
      <acc value="0.0414127797" flag="0"/>
      <vel value="0.0358734556" flag="0"/>
      <psa03 value="0.1303945690" flag="0"/>
      <psa10 value="0.0340917128" flag="0"/>
      <psa30 value="0.0138528541" flag="0"/>
    </comp>
  </station>
  <station code="ELFA" name="ELFA" netid="HL" insttype="CMG-5" commtype="DIG" lat="38.0447" lon="23.5405">
    <comp name="00.HNN">
      <acc value="0.2851389665" flag="0"/>
      <vel value="0.2011223496" flag="0"/>
      <psa03 value="0.5807515087" flag="0"/>
      <psa10 value="0.1745156719" flag="0"/>
      <psa30 value="0.0297494016" flag="0"/>
    </comp>
    <comp name="00.HNE">
      <acc value="0.2715912441" flag="0"/>
      <vel value="0.1461412492" flag="0"/>
      <psa03 value="0.5247932582" flag="0"/>
      <psa10 value="0.2813437691" flag="0"/>
      <psa30 value="0.0290082208" flag="0"/>
    </comp>
    <comp name="00.HNZ">
      <acc value="0.1484044357" flag="0"/>
      <vel value="0.1121286082" flag="0"/>
      <psa03 value="0.3480013437" flag="0"/>
      <psa10 value="0.1419238296" flag="0"/>
      <psa30 value="0.0193969893" flag="0"/>
    </comp>
  </station>
  <station code="EVR" name="EVR" netid="HL" insttype="DR24" commtype="DIG" lat="38.9166" lon="21.8105">
    <comp name="--.HHE">
      <acc value="0.0271926106" flag="0"/>
      <vel value="0.0376821985" flag="0"/>
      <psa03 value="0.0755922977" flag="0"/>
      <psa10 value="0.0516039182" flag="0"/>
      <psa30 value="0.0114502874" flag="0"/>
    </comp>
    <comp name="--.HHN">
      <acc value="0.0000168870" flag="0"/>
      <vel value="0.0000059947" flag="0"/>
      <psa03 value="0.0000356141" flag="0"/>
      <psa10 value="0.0000027924" flag="0"/>
      <psa30 value="0.0000003542" flag="0"/>
    </comp>
    <comp name="--.HHZ">
      <acc value="0.0205113749" flag="0"/>
      <vel value="0.0268390755" flag="0"/>
      <psa03 value="0.0562441455" flag="0"/>
      <psa10 value="0.0295265283" flag="0"/>
      <psa30 value="0.0127557094" flag="0"/>
    </comp>
  </station>
  <station code="GINA" name="GINA" netid="HL" insttype="CMG-5" commtype="DIG" lat="39.6689" lon="22.389">
    <comp name="00.HNE">
      <acc value="0.0711192170" flag="0"/>
      <vel value="0.0834587619" flag="0"/>
      <psa03 value="0.2727783286" flag="0"/>
      <psa10 value="0.0836905926" flag="0"/>
      <psa30 value="0.0172159783" flag="0"/>
    </comp>
    <comp name="00.HNN">
      <acc value="0.0898026088" flag="0"/>
      <vel value="0.1014668637" flag="0"/>
      <psa03 value="0.2350042383" flag="0"/>
      <psa10 value="0.0729453583" flag="0"/>
      <psa30 value="0.0314157803" flag="0"/>
    </comp>
    <comp name="00.HNZ">
      <acc value="0.0536280790" flag="0"/>
      <vel value="0.0673656565" flag="0"/>
      <psa03 value="0.1458621254" flag="0"/>
      <psa10 value="0.0638953392" flag="0"/>
      <psa30 value="0.0155302087" flag="0"/>
    </comp>
  </station>
  <station code="KIAA" name="KIAA" netid="HL" insttype="CMG-5" commtype="DIG" lat="38.0139" lon="22.7495">
    <comp name="00.HNN">
      <acc value="0.6709932400" flag="0"/>
      <vel value="0.8322668838" flag="0"/>
      <psa03 value="1.2731984214" flag="0"/>
      <psa10 value="1.8093230888" flag="0"/>
      <psa30 value="0.1945611998" flag="0"/>
    </comp>
    <comp name="00.HNZ">
      <acc value="0.2614342439" flag="0"/>
      <vel value="0.3423938198" flag="0"/>
      <psa03 value="0.6067213338" flag="0"/>
      <psa10 value="0.6313559933" flag="0"/>
      <psa30 value="0.0564901303" flag="0"/>
    </comp>
    <comp name="00.HNE">
      <acc value="0.5848816236" flag="0"/>
      <vel value="0.7687061309" flag="0"/>
      <psa03 value="1.2939439921" flag="0"/>
      <psa10 value="1.1393544065" flag="0"/>
      <psa30 value="0.1630828036" flag="0"/>
    </comp>
  </station>
  <station code="KLV" name="KLV" netid="HL" insttype="120" commtype="DIG" lat="38.0435" lon="22.1504">
    <comp name="--.HHE">
      <acc value="0.0483176917" flag="0"/>
      <vel value="0.0474451324" flag="0"/>
      <psa03 value="0.1154683801" flag="0"/>
      <psa10 value="0.0558273999" flag="0"/>
      <psa30 value="0.0223185586" flag="0"/>
    </comp>
    <comp name="--.HHZ">
      <acc value="0.0479548782" flag="0"/>
      <vel value="0.0496778882" flag="0"/>
      <psa03 value="0.1007960851" flag="0"/>
      <psa10 value="0.0561478151" flag="0"/>
      <psa30 value="0.0203367928" flag="0"/>
    </comp>
    <comp name="--.HHN">
      <acc value="0.0612220591" flag="0"/>
      <vel value="0.0591141617" flag="0"/>
      <psa03 value="0.1376762262" flag="0"/>
      <psa10 value="0.0747475291" flag="0"/>
      <psa30 value="0.0231321969" flag="0"/>
    </comp>
  </station>
  <station code="KRYO" name="KRYO" netid="HL" insttype="Horizon,120s,1200" commtype="DIG" lat="37.9712" lon="22.618">
    <comp name="--.HHE">
      <acc value="0.2931119109" flag="0"/>
      <vel value="0.3342109232" flag="0"/>
      <psa03 value="0.5251156609" flag="0"/>
      <psa10 value="0.8294734731" flag="0"/>
      <psa30 value="0.0941894515" flag="0"/>
    </comp>
    <comp name="--.HHN">
      <acc value="0.2825482488" flag="0"/>
      <vel value="0.2499428561" flag="0"/>
      <psa03 value="0.8846601696" flag="0"/>
      <psa10 value="0.6068577851" flag="0"/>
      <psa30 value="0.0645446721" flag="0"/>
    </comp>
    <comp name="--.HHZ">
      <acc value="0.2138268614" flag="0"/>
      <vel value="0.1957239150" flag="0"/>
      <psa03 value="0.5912361344" flag="0"/>
      <psa10 value="0.2256537893" flag="0"/>
      <psa30 value="0.0613866173" flag="0"/>
    </comp>
  </station>
  <station code="LARA" name="LARA" netid="HL" insttype="CMG-5" commtype="DIG" lat="39.637" lon="22.4297">
    <comp name="00.HNE">
      <acc value="0.1591153802" flag="0"/>
      <vel value="0.1849281739" flag="0"/>
      <psa03 value="0.4807966192" flag="0"/>
      <psa10 value="0.1593680529" flag="0"/>
      <psa30 value="0.1372319034" flag="0"/>
    </comp>
    <comp name="00.HNZ">
      <acc value="0.0673489577" flag="0"/>
      <vel value="0.1283729495" flag="0"/>
      <psa03 value="0.1929214126" flag="0"/>
      <psa10 value="0.1137592427" flag="0"/>
      <psa30 value="0.0307220160" flag="0"/>
    </comp>
    <comp name="00.HNN">
      <acc value="0.1360072106" flag="0"/>
      <vel value="0.1790164582" flag="0"/>
      <psa03 value="0.4480002500" flag="0"/>
      <psa10 value="0.1438755779" flag="0"/>
      <psa30 value="0.0674450445" flag="0"/>
    </comp>
  </station>
  <station code="LKR" name="LKR" netid="HL" insttype="65535" commtype="DIG" lat="38.6496" lon="22.9988">
    <comp name="--.HHE">
      <acc value="3.0034635556" flag="0"/>
      <vel value="0.4494450718" flag="0"/>
      <psa03 value="1.3961766300" flag="0"/>
      <psa10 value="0.2273941388" flag="0"/>
