<?xml version="1.0" encoding="UTF-8" standalone="yes"?>
<!DOCTYPE earthquake SYSTEM "stationlist.dtd">
<stationlist created="" xmlns="ch.ethz.sed.shakemap.usgs.xml">
  <station code="ACOR" name="ACOR" netid="HA" insttype="Horizon,120s,1200" commtype="DIG" lat="37.8905" lon="22.8694">
    <comp name="--.HHE">
      <acc value="0.1273359933" flag="0"/>
      <vel value="0.1537018310" flag="0"/>
      <psa03 value="0.2209104516" flag="0"/>
      <psa10 value="0.3077226455" flag="0"/>
      <psa30 value="0.0302201900" flag="0"/>
    </comp>
    <comp name="--.HHZ">
      <acc value="0.0981084081" flag="0"/>
      <vel value="0.0797197952" flag="0"/>
      <psa03 value="0.2497709917" flag="0"/>
      <psa10 value="0.1060055746" flag="0"/>
      <psa30 value="0.0325766641" flag="0"/>
    </comp>
    <comp name="--.HHN">
      <acc value="0.0783315604" flag="0"/>
      <vel value="0.1136655208" flag="0"/>
      <psa03 value="0.1750464840" flag="0"/>
      <psa10 value="0.1850357145" flag="0"/>
      <psa30 value="0.0357060963" flag="0"/>
    </comp>
  </station>
  <station code="ANTK" name="ANTK" netid="HA" insttype="25" commtype="DIG" lat="38.3605" lon="22.6385">
    <comp name="--.HHE">
      <acc value="0.1090107849" flag="0"/>
      <vel value="0.1266607162" flag="0"/>
      <psa03 value="0.2967769716" flag="0"/>
      <psa10 value="0.1850767664" flag="0"/>
      <psa30 value="0.0128689676" flag="0"/>
    </comp>
    <comp name="--.HHN">
      <acc value="0.0821304227" flag="0"/>
      <vel value="0.0990047750" flag="0"/>
      <psa03 value="0.2698295160" flag="0"/>
      <psa10 value="0.1423940587" flag="0"/>
      <psa30 value="0.0203193524" flag="0"/>
    </comp>
    <comp name="--.HHZ">
      <acc value="0.1056561695" flag="0"/>
      <vel value="0.1524447005" flag="0"/>
      <psa03 value="0.2049459458" flag="0"/>
      <psa10 value="0.1834934845" flag="0"/>
      <psa30 value="0.0169112802" flag="0"/>
    </comp>
  </station>
  <station code="ATAL" name="ATAL" netid="HA" insttype="120s," commtype="DIG" lat="38.6926" lon="23.0213">
    <comp name="--.HHZ">
      <acc value="1.4492369631" flag="0"/>
      <vel value="0.8237661223" flag="0"/>
      <psa03 value="3.6196203502" flag="0"/>
      <psa10 value="0.3703751383" flag="0"/>
      <psa30 value="0.0781549210" flag="0"/>
    </comp>
    <comp name="--.HHE">
      <acc value="1.3888260658" flag="0"/>
      <vel value="0.7011796165" flag="0"/>
      <psa03 value="2.7456883108" flag="0"/>
      <psa10 value="0.3548078481" flag="0"/>
      <psa30 value="0.0594079304" flag="0"/>
    </comp>
    <comp name="--.HHN">
      <acc value="1.2850192994" flag="0"/>
      <vel value="0.5189705372" flag="0"/>
      <psa03 value="2.2258430200" flag="0"/>
      <psa10 value="0.3646722656" flag="0"/>
      <psa30 value="0.0667768690" flag="0"/>
    </comp>
  </station>
  <station code="AXAR" name="AXAR" netid="HA" insttype="Horizon,120s,1200" commtype="DIG" lat="38.7664" lon="22.659">
    <comp name="--.HHE">
      <acc value="0.4899340663" flag="0"/>
      <vel value="0.2396918557" flag="0"/>
      <psa03 value="1.7217251037" flag="0"/>
      <psa10 value="0.2288073795" flag="0"/>
      <psa30 value="0.0293306982" flag="0"/>
    </comp>
    <comp name="--.HHZ">
      <acc value="0.1982822871" flag="0"/>
      <vel value="0.0965636189" flag="0"/>
      <psa03 value="0.4267506192" flag="0"/>
      <psa10 value="0.1072419747" flag="0"/>
      <psa30 value="0.0119045452" flag="0"/>
    </comp>
    <comp name="--.HHN">
      <acc value="0.3696646978" flag="0"/>
      <vel value="0.1990706843" flag="0"/>
      <psa03 value="1.2751422389" flag="0"/>
      <psa10 value="0.1264367058" flag="0"/>
      <psa30 value="0.0283173504" flag="0"/>
    </comp>
  </station>
  <station code="KALE" name="KALE" netid="HA" insttype="40," commtype="DIG" lat="38.3911" lon="22.1398">
    <comp name="--.HHN">
      <acc value="0.1591955987" flag="0"/>
      <vel value="0.1697323373" flag="0"/>
      <psa03 value="0.4123609542" flag="0"/>
      <psa10 value="0.1596437097" flag="0"/>
      <psa30 value="0.0407271096" flag="0"/>
    </comp>
    <comp name="--.HHE">
      <acc value="0.1035945103" flag="0"/>
      <vel value="0.1141306716" flag="0"/>
      <psa03 value="0.3324708601" flag="0"/>
      <psa10 value="0.1144180619" flag="0"/>
      <psa30 value="0.0179019974" flag="0"/>
    </comp>
    <comp name="--.HHZ">
      <acc value="0.0947134177" flag="0"/>
      <vel value="0.1004252357" flag="0"/>
      <psa03 value="0.2767539532" flag="0"/>
      <psa10 value="0.0877529134" flag="0"/>
      <psa30 value="0.0258708194" flag="0"/>
    </comp>
  </station>
  <station code="LAKA" name="LAKA" netid="HA" insttype="120s," commtype="DIG" lat="38.2401" lon="21.9785">
    <comp name="--.HHE">
      <acc value="0.0329518479" flag="0"/>
      <vel value="0.0384643090" flag="0"/>
      <psa03 value="0.0657951723" flag="0"/>
      <psa10 value="0.0401572674" flag="0"/>
      <psa30 value="0.0118541943" flag="0"/>
    </comp>
    <comp name="--.HHN">
      <acc value="0.0313756469" flag="0"/>
      <vel value="0.0580380679" flag="0"/>
      <psa03 value="0.0709959919" flag="0"/>
      <psa10 value="0.0632556765" flag="0"/>
      <psa30 value="0.0246924534" flag="0"/>
    </comp>
    <comp name="--.HHZ">
      <acc value="0.0255484015" flag="0"/>
      <vel value="0.0523955777" flag="0"/>
      <psa03 value="0.0649616644" flag="0"/>
      <psa10 value="0.0544092773" flag="0"/>
      <psa30 value="0.0289617611" flag="0"/>
    </comp>
  </station>
  <station code="MDRA" name="MDRA" netid="HA" insttype="60" commtype="DIG" lat="38.0606" lon="23.4662">
    <comp name="--.HHZ">
      <acc value="0.1402473243" flag="0"/>
      <vel value="0.1514655285" flag="0"/>
      <psa03 value="0.3731784558" flag="0"/>
      <psa10 value="0.1432930897" flag="0"/>
      <psa30 value="0.0250367550" flag="0"/>
    </comp>
    <comp name="--.HHE">
      <acc value="0.2059153855" flag="0"/>
      <vel value="0.1053964681" flag="0"/>
      <psa03 value="0.2830209213" flag="0"/>
      <psa10 value="0.1484081045" flag="0"/>
      <psa30 value="0.0160531725" flag="0"/>
    </comp>
    <comp name="--.HHN">
      <acc value="0.2866426391" flag="0"/>
      <vel value="0.1631925113" flag="0"/>
      <psa03 value="0.7568634914" flag="0"/>
      <psa10 value="0.1983974161" flag="0"/>
      <psa30 value="0.0146419781" flag="0"/>
    </comp>
  </station>
  <station code="THAL" name="THAL" netid="HA" insttype="30" commtype="DIG" lat="38.0357" lon="22.6634">
    <comp name="--.HHE">
      <acc value="0.6081615628" flag="0"/>
      <vel value="0.4536554433" flag="0"/>
      <psa03 value="2.1782231909" flag="0"/>
      <psa10 value="0.4256108578" flag="0"/>
      <psa30 value="0.0559056570" flag="0"/>
    </comp>
    <comp name="--.HHN">
      <acc value="0.4057662329" flag="0"/>
      <vel value="0.3315453754" flag="0"/>
      <psa03 value="1.2745199928" flag="0"/>
      <psa10 value="0.4168630928" flag="0"/>
      <psa30 value="0.0998174904" flag="0"/>
    </comp>
    <comp name="--.HHZ">
      <acc value="0.3596429133" flag="0"/>
      <vel value="0.2022721639" flag="0"/>
      <psa03 value="0.6891782281" flag="0"/>
      <psa10 value="0.1375326930" flag="0"/>
      <psa30 value="0.0192517329" flag="0"/>
    </comp>
  </station>
  <station code="THIV" name="THIV" netid="HA" insttype="25" commtype="DIG" lat="38.299" lon="23.332">
    <comp name="--.HHE">
      <acc value="0.3745486102" flag="0"/>
      <vel value="0.2141249715" flag="0"/>
      <psa03 value="0.5892125782" flag="0"/>
      <psa10 value="0.3593263353" flag="0"/>
      <psa30 value="0.0543359235" flag="0"/>
    </comp>
    <comp name="--.HHZ">
      <acc value="0.3876562582" flag="0"/>
      <vel value="0.1240703448" flag="0"/>
      <psa03 value="0.4861427923" flag="0"/>
      <psa10 value="0.1887240356" flag="0"/>
      <psa30 value="0.0231024470" flag="0"/>
    </comp>
    <comp name="--.HHN">
      <acc value="0.4119581692" flag="0"/>
      <vel value="0.2081791705" flag="0"/>
      <psa03 value="0.8538272025" flag="0"/>
      <psa10 value="0.1794676926" flag="0"/>
      <psa30 value="0.0352187571" flag="0"/>
    </comp>
  </station>
  <station code="VILL" name="VILL" netid="HA" insttype="Horizon,120s,1200" commtype="DIG" lat="38.1642" lon="23.3122">
    <comp name="--.HHZ">
      <acc value="0.1553182667" flag="0"/>
      <vel value="0.1424710190" flag="0"/>
      <psa03 value="0.4390516529" flag="0"/>
      <psa10 value="0.1541796982" flag="0"/>
      <psa30 value="0.0329346788" flag="0"/>
    </comp>
    <comp name="--.HHN">
      <acc value="0.3953426338" flag="0"/>
      <vel value="0.2411395168" flag="0"/>
      <psa03 value="0.5701671702" flag="0"/>
      <psa10 value="0.1721909126" flag="0"/>
      <psa30 value="0.0201252305" flag="0"/>
    </comp>
    <comp name="--.HHE">
      <acc value="0.5244944830" flag="0"/>
      <vel value="0.3859812100" flag="0"/>
      <psa03 value="1.3144784387" flag="0"/>
      <psa10 value="0.4065047118" flag="0"/>
      <psa30 value="0.0270162287" flag="0"/>
    </comp>
  </station>
  <station code="KAC1" name="KAC1" netid="HI" insttype="unknown" commtype="DIG" lat="38.1434" lon="21.5497">
    <comp name="--.HNN">
      <acc value="0.1132635198" flag="0"/>
      <vel value="0.1720376376" flag="0"/>
      <psa03 value="0.3333216269" flag="0"/>
      <psa10 value="0.2070886460" flag="0"/>
      <psa30 value="0.0773426472" flag="0"/>
    </comp>
    <comp name="--.HNE">
      <acc value="0.0978313700" flag="0"/>
      <vel value="0.1718738122" flag="0"/>
      <psa03 value="0.2404837235" flag="0"/>
      <psa10 value="0.1592846506" flag="0"/>
      <psa30 value="0.0699334941" flag="0"/>
    </comp>
    <comp name="--.HNZ">
      <acc value="0.0455013023" flag="0"/>
      <vel value="0.1209331442" flag="0"/>
      <psa03 value="0.0933409919" flag="0"/>
      <psa10 value="0.1852773307" flag="0"/>
      <psa30 value="0.0357881403" flag="0"/>
    </comp>
  </station>
  <station code="KMV1" name="KMV1" netid="HI" insttype="unknown" commtype="DIG" lat="38.7794" lon="22.7846">
    <comp name="--.HNN">
      <acc value="1.0739566188" flag="0"/>
      <vel value="0.4493365920" flag="0"/>
      <psa03 value="2.0524765510" flag="0"/>
      <psa10 value="0.4858586109" flag="0"/>
      <psa30 value="0.0444020600" flag="0"/>
    </comp>
    <comp name="--.HNE">
      <acc value="0.9362129004" flag="0"/>
      <vel value="0.3610176354" flag="0"/>
      <psa03 value="2.2563874423" flag="0"/>
      <psa10 value="0.4426274253" flag="0"/>
      <psa30 value="0.0288449076" flag="0"/>
    </comp>
    <comp name="--.HNZ">
      <acc value="0.4468388762" flag="0"/>
      <vel value="0.2125887216" flag="0"/>
      <psa03 value="0.9317683118" flag="0"/>
      <psa10 value="0.1673363916" flag="0"/>
      <psa30 value="0.0171092056" flag="0"/>
    </comp>
  </station>
  <station code="KOR2" name="KOR2" netid="HI" insttype="unknown" commtype="DIG" lat="37.9401" lon="22.9495">
    <comp name="--.HNN">
      <acc value="0.4799581861" flag="0"/>
      <vel value="0.6138824096" flag="0"/>
      <psa03 value="0.9907526850" flag="0"/>
      <psa10 value="0.8414092318" flag="0"/>
      <psa30 value="0.0981815698" flag="0"/>
    </comp>
    <comp name="--.HNE">
      <acc value="0.4830013576" flag="0"/>
      <vel value="0.6282942105" flag="0"/>
      <psa03 value="1.4706934089" flag="0"/>
      <psa10 value="0.9312126866" flag="0"/>
      <psa30 value="0.1298839749" flag="0"/>
    </comp>
    <comp name="--.HNZ">
      <acc value="0.4530332576" flag="0"/>
      <vel value="0.3073887919" flag="0"/>
      <psa03 value="0.9248022161" flag="0"/>
      <psa10 value="0.3561301529" flag="0"/>
      <psa30 value="0.0288543077" flag="0"/>
    </comp>
  </station>
  <station code="LAM2" name="LAM2" netid="HI" insttype="CMG-5TD,ACCELEROMETER,GURALP" commtype="DIG" lat="38.902" lon="22.4313">
    <comp name="--.HNE">
      <acc value="0.1921070656" flag="0"/>
      <vel value="0.1176353354" flag="0"/>
      <psa03 value="0.3145880039" flag="0"/>
      <psa10 value="0.1536613272" flag="0"/>
      <psa30 value="0.0168353820" flag="0"/>
    </comp>
    <comp name="--.HNN">
      <acc value="0.1769708436" flag="0"/>
      <vel value="0.0872574245" flag="0"/>
      <psa03 value="0.3729423567" flag="0"/>
      <psa10 value="0.1350698876" flag="0"/>
      <psa30 value="0.0113631838" flag="0"/>
    </comp>
    <comp name="--.HNZ">
      <acc value="0.1196888300" flag="0"/>
      <vel value="0.0809279538" flag="0"/>
      <psa03 value="0.2197620794" flag="0"/>
      <psa10 value="0.1040645752" flag="0"/>
      <psa30 value="0.0215641910" flag="0"/>
    </comp>
  </station>
  <station code="LAR4" name="LAR4" netid="HI" insttype="unknown" commtype="DIG" lat="39.6422" lon="22.4219">
    <comp name="--.HNE">
      <acc value="0.1434719713" flag="0"/>
      <vel value="0.2068886223" flag="0"/>
      <psa03 value="0.3033912825" flag="0"/>
      <psa10 value="0.2067201356" flag="0"/>
      <psa30 value="0.1446697790" flag="0"/>
    </comp>
    <comp name="--.HNN">
      <acc value="0.1417360120" flag="0"/>
      <vel value="0.2049487448" flag="0"/>
      <psa03 value="0.3024174895" flag="0"/>
      <psa10 value="0.2421032116" flag="0"/>
      <psa30 value="0.1008235737" flag="0"/>
    </comp>
    <comp name="--.HNZ">
      <acc value="0.0656872939" flag="0"/>
      <vel value="0.1405982133" flag="0"/>
      <psa03 value="0.1330964553" flag="0"/>
      <psa10 value="0.0986151201" flag="0"/>
      <psa30 value="0.0274767595" flag="0"/>
    </comp>
  </station>
  <station code="NMA1" name="NMA1" netid="HI" insttype="unknown" commtype="DIG" lat="37.8187" lon="22.6627">
    <comp name="--.HNE">
      <acc value="0.1501777582" flag="0"/>
      <vel value="0.1822470951" flag="0"/>
      <psa03 value="0.3774465828" flag="0"/>
      <psa10 value="0.2331325346" flag="0"/>
      <psa30 value="0.0437272444" flag="0"/>
    </comp>
    <comp name="--.HNN">
      <acc value="0.1862089266" flag="0"/>
      <vel value="0.1793940564" flag="0"/>
      <psa03 value="0.4873466169" flag="0"/>
      <psa10 value="0.1765965812" flag="0"/>
      <psa30 value="0.0620742826" flag="0"/>
    </comp>
    <comp name="--.HNZ">
      <acc value="0.1006432222" flag="0"/>
      <vel value="0.1029804112" flag="0"/>
      <psa03 value="0.1928298435" flag="0"/>
      <psa10 value="0.1683544346" flag="0"/>
      <psa30 value="0.0322203823" flag="0"/>
    </comp>
  </station>
  <station code="THV2" name="THV2" netid="HI" insttype="unknown" commtype="DIG" lat="38.3161" lon="23.3198">
    <comp name="--.HNE">
      <acc value="0.8124854098" flag="0"/>
      <vel value="0.3701815521" flag="0"/>
      <psa03 value="1.0196585851" flag="0"/>
      <psa10 value="0.4598816078" flag="0"/>
      <psa30 value="0.0768946972" flag="0"/>
    </comp>
    <comp name="--.HNN">
      <acc value="0.6057204138" flag="0"/>
      <vel value="0.4741077904" flag="0"/>
      <psa03 value="1.1793487142" flag="0"/>
      <psa10 value="0.5653767243" flag="0"/>
      <psa30 value="0.0838382357" flag="0"/>
    </comp>
    <comp name="--.HNZ">
      <acc value="0.4598248421" flag="0"/>
      <vel value="0.3152282981" flag="0"/>
      <psa03 value="0.7104942937" flag="0"/>
      <psa10 value="0.4435791076" flag="0"/>
      <psa30 value="0.0278074192" flag="0"/>
    </comp>
  </station>
  <station code="TRP1" name="TRP1" netid="HI" insttype="unknown" commtype="DIG" lat="37.5112" lon="22.3634">
    <comp name="--.HNZ">
      <acc value="0.0263630661" flag="0"/>
      <vel value="0.0364102103" flag="0"/>
      <psa03 value="0.0620623361" flag="0"/>
      <psa10 value="0.0337664075" flag="0"/>
      <psa30 value="0.0104999422" flag="0"/>
    </comp>
    <comp name="--.HNE">
      <acc value="0.0686648869" flag="0"/>
      <vel value="0.0652227911" flag="0"/>
      <psa03 value="0.1235420544" flag="0"/>
      <psa10 value="0.0635946645" flag="0"/>
      <psa30 value="0.0122914041" flag="0"/>
    </comp>
    <comp name="--.HNN">
      <acc value="0.0866565430" flag="0"/>
      <vel value="0.0618147558" flag="0"/>
      <psa03 value="0.2071785977" flag="0"/>
      <psa10 value="0.0843944073" flag="0"/>
      <psa30 value="0.0124083929" flag="0"/>
    </comp>
  </station>
  <station code="AGXA" name="AGXA" netid="HL" insttype="CMG-5" commtype="DIG" lat="39.2765" lon="22.82">
    <comp name="00.HNE">
      <acc value="0.9273164400" flag="0"/>
      <vel value="0.6507081637" flag="0"/>
      <psa03 value="4.2161030571" flag="0"/>
      <psa10 value="0.5136309125" flag="0"/>
      <psa30 value="0.0368811619" flag="0"/>
    </comp>
    <comp name="00.HNZ">
      <acc value="0.3462787616" flag="0"/>
      <vel value="0.1909205421" flag="0"/>
      <psa03 value="0.7952601908" flag="0"/>
      <psa10 value="0.2269310343" flag="0"/>
      <psa30 value="0.0161264971" flag="0"/>
    </comp>
    <comp name="00.HNN">
      <acc value="0.7852385580" flag="0"/>
      <vel value="0.5634156339" flag="0"/>
      <psa03 value="1.7589834578" flag="0"/>
      <psa10 value="0.5615729728" flag="0"/>
      <psa30 value="0.0527470542" flag="0"/>
    </comp>
  </station>
  <station code="ALNA" name="ALNA" netid="HL" insttype="CMG-5" commtype="DIG" lat="39.148" lon="23.8667">
    <comp name="00.HNZ">
      <acc value="0.1920347590" flag="0"/>
      <vel value="0.1020757735" flag="0"/>
      <psa03 value="0.5565101026" flag="0"/>
      <psa10 value="0.1104519978" flag="0"/>
      <psa30 value="0.0188317401" flag="0"/>
    </comp>
    <comp name="00.HNN">
      <acc value="0.1792204484" flag="0"/>
      <vel value="0.1116000279" flag="0"/>
      <psa03 value="0.4433286138" flag="0"/>
      <psa10 value="0.1533913747" flag="0"/>
      <psa30 value="0.0213868680" flag="0"/>
    </comp>
    <comp name="00.HNE">
      <acc value="0.1897751099" flag="0"/>
      <vel value="0.1171523707" flag="0"/>
      <psa03 value="0.4887468914" flag="0"/>
      <psa10 value="0.2899466394" flag="0"/>
      <psa30 value="0.0145971886" flag="0"/>
    </comp>
  </station>
  <station code="DLFA" name="DLFA" netid="HL" insttype="CMG-5" commtype="DIG" lat="38.4784" lon="22.4958">
    <comp name="00.HNN">
      <acc value="0.3375188575" flag="0"/>
      <vel value="0.2569938246" flag="0"/>
      <psa03 value="0.7285800186" flag="0"/>
      <psa10 value="0.5035444599" flag="0"/>
      <psa30 value="0.0205148945" flag="0"/>
    </comp>
    <comp name="00.HNE">
      <acc value="0.2710826876" flag="0"/>
      <vel value="0.2613753114" flag="0"/>
      <psa03 value="0.7113470199" flag="0"/>
      <psa10 value="0.6426850402" flag="0"/>
      <psa30 value="0.0334933100" flag="0"/>
    </comp>
    <comp name="00.HNZ">
      <acc value="0.2419211580" flag="0"/>
      <vel value="0.1773593961" flag="0"/>
      <psa03 value="0.5656197239" flag="0"/>
      <psa10 value="0.4376810836" flag="0"/>
      <psa30 value="0.0283116512" flag="0"/>
    </comp>
  </station>
  <station code="ELFA" name="ELFA" netid="HL" insttype="CMG-5" commtype="DIG" lat="38.0447" lon="23.5405">
    <comp name="00.HNN">
      <acc value="0.2851389618" flag="0"/>
      <vel value="0.2011223516" flag="0"/>
      <psa03 value="0.5807515087" flag="0"/>
      <psa10 value="0.1745156668" flag="0"/>
      <psa30 value="0.0297513105" flag="0"/>
    </comp>
    <comp name="00.HNE">
      <acc value="0.2715912424" flag="0"/>
      <vel value="0.1461412680" flag="0"/>
      <psa03 value="0.5247932582" flag="0"/>
      <psa10 value="0.2813437630" flag="0"/>
      <psa30 value="0.0290112274" flag="0"/>
    </comp>
    <comp name="00.HNZ">
      <acc value="0.1484044394" flag="0"/>
      <vel value="0.1121285825" flag="0"/>
      <psa03 value="0.3480013437" flag="0"/>
      <psa10 value="0.1419238571" flag="0"/>
      <psa30 value="0.0193965774" flag="0"/>
    </comp>
  </station>
  <station code="EVR" name="EVR" netid="HL" insttype="DR24" commtype="DIG" lat="38.9166" lon="21.8105">
