<?xml version="1.0" encoding="UTF-8" standalone="yes"?>
<!DOCTYPE earthquake SYSTEM "stationlist.dtd">
<stationlist created="" xmlns="ch.ethz.sed.shakemap.usgs.xml">
  <station code="ACOR" name="ACOR" netid="HA" insttype="Horizon,120s,1200" commtype="DIG" lat="37.8905" lon="22.8694">
    <comp name="--.HHZ">
      <acc value="0.0981084081" flag="0"/>
      <vel value="0.0797197952" flag="0"/>
      <psa03 value="0.2497709917" flag="0"/>
      <psa10 value="0.1060055746" flag="0"/>
      <psa30 value="0.0325766641" flag="0"/>
    </comp>
    <comp name="--.HHN">
      <acc value="0.0783315604" flag="0"/>
      <vel value="0.1136655208" flag="0"/>
      <psa03 value="0.1750464840" flag="0"/>
      <psa10 value="0.1850357145" flag="0"/>
      <psa30 value="0.0357060963" flag="0"/>
    </comp>
    <comp name="--.HHE">
      <acc value="0.1273359933" flag="0"/>
      <vel value="0.1537018310" flag="0"/>
      <psa03 value="0.2209104516" flag="0"/>
      <psa10 value="0.3077226455" flag="0"/>
      <psa30 value="0.0302201900" flag="0"/>
    </comp>
  </station>
  <station code="ATAL" name="ATAL" netid="HA" insttype="120s," commtype="DIG" lat="38.6926" lon="23.0213">
    <comp name="--.HHZ">
      <acc value="1.4492369627" flag="0"/>
      <vel value="0.8237661510" flag="0"/>
      <psa03 value="3.6196203503" flag="0"/>
      <psa10 value="0.3703752291" flag="0"/>
      <psa30 value="0.0781561577" flag="0"/>
    </comp>
    <comp name="--.HHE">
      <acc value="1.3888260658" flag="0"/>
      <vel value="0.7011797179" flag="0"/>
      <psa03 value="2.7456883109" flag="0"/>
      <psa10 value="0.3548078660" flag="0"/>
      <psa30 value="0.0594261763" flag="0"/>
    </comp>
    <comp name="--.HHN">
      <acc value="1.2850192995" flag="0"/>
      <vel value="0.5189705417" flag="0"/>
      <psa03 value="2.2258430199" flag="0"/>
      <psa10 value="0.3646722146" flag="0"/>
      <psa30 value="0.0667771455" flag="0"/>
    </comp>
  </station>
  <station code="ATHU" name="ATHU" netid="HA" insttype="60s," commtype="DIG" lat="37.9665" lon="23.7845">
    <comp name="--.HHZ">
      <acc value="0.1096220222" flag="0"/>
      <vel value="0.0640586768" flag="0"/>
      <psa03 value="0.1673361682" flag="0"/>
      <psa10 value="0.0570440174" flag="0"/>
      <psa30 value="0.0151977523" flag="0"/>
    </comp>
    <comp name="--.HHE">
      <acc value="0.1356777516" flag="0"/>
      <vel value="0.1231403044" flag="0"/>
      <psa03 value="0.3052024834" flag="0"/>
      <psa10 value="0.1003241214" flag="0"/>
      <psa30 value="0.0201042862" flag="0"/>
    </comp>
    <comp name="--.HHN">
      <acc value="0.1674017324" flag="0"/>
      <vel value="0.1270575045" flag="0"/>
      <psa03 value="0.4405328038" flag="0"/>
      <psa10 value="0.0729943202" flag="0"/>
      <psa30 value="0.0181660691" flag="0"/>
    </comp>
  </station>
  <station code="AXAR" name="AXAR" netid="HA" insttype="Horizon,120s,1200" commtype="DIG" lat="38.7664" lon="22.659">
    <comp name="--.HHZ">
      <acc value="0.1982822869" flag="0"/>
      <vel value="0.0965637102" flag="0"/>
      <psa03 value="0.4267506193" flag="0"/>
      <psa10 value="0.1072419744" flag="0"/>
      <psa30 value="0.0119032113" flag="0"/>
    </comp>
    <comp name="--.HHE">
      <acc value="0.4899340663" flag="0"/>
      <vel value="0.2396918969" flag="0"/>
      <psa03 value="1.7217251037" flag="0"/>
      <psa10 value="0.2288073628" flag="0"/>
      <psa30 value="0.0293311092" flag="0"/>
    </comp>
    <comp name="--.HHN">
      <acc value="0.3696646976" flag="0"/>
      <vel value="0.1990706984" flag="0"/>
      <psa03 value="1.2751422390" flag="0"/>
      <psa10 value="0.1264367059" flag="0"/>
      <psa30 value="0.0283174135" flag="0"/>
    </comp>
  </station>
  <station code="ERTR" name="ERTR" netid="HA" insttype="Horizon,120s,1200" commtype="DIG" lat="38.4066" lon="23.7865">
    <comp name="--.HHN">
      <acc value="0.3330106225" flag="0"/>
      <vel value="0.1184637778" flag="0"/>
      <psa03 value="0.5516838901" flag="0"/>
      <psa10 value="0.0574816973" flag="0"/>
      <psa30 value="0.0124522092" flag="0"/>
    </comp>
    <comp name="--.HHE">
      <acc value="0.4119270674" flag="0"/>
      <vel value="0.1293508795" flag="0"/>
      <psa03 value="0.5694297427" flag="0"/>
      <psa10 value="0.0615719647" flag="0"/>
      <psa30 value="0.0305961836" flag="0"/>
    </comp>
    <comp name="--.HHZ">
      <acc value="0.2431445503" flag="0"/>
      <vel value="0.1552765859" flag="0"/>
      <psa03 value="0.4424378592" flag="0"/>
      <psa10 value="0.0853498865" flag="0"/>
      <psa30 value="0.0382345078" flag="0"/>
    </comp>
  </station>
  <station code="KALE" name="KALE" netid="HA" insttype="40," commtype="DIG" lat="38.3911" lon="22.1398">
    <comp name="--.HHE">
      <acc value="0.1035945103" flag="0"/>
      <vel value="0.1141306884" flag="0"/>
      <psa03 value="0.3324708601" flag="0"/>
      <psa10 value="0.1144180648" flag="0"/>
      <psa30 value="0.0179017596" flag="0"/>
    </comp>
    <comp name="--.HHZ">
      <acc value="0.0947134179" flag="0"/>
      <vel value="0.1004251885" flag="0"/>
      <psa03 value="0.2767539532" flag="0"/>
      <psa10 value="0.0877529133" flag="0"/>
      <psa30 value="0.0258697287" flag="0"/>
    </comp>
    <comp name="--.HHN">
      <acc value="0.1591955980" flag="0"/>
      <vel value="0.1697328172" flag="0"/>
      <psa03 value="0.4123609536" flag="0"/>
      <psa10 value="0.1596437099" flag="0"/>
      <psa30 value="0.0407265576" flag="0"/>
    </comp>
  </station>
  <station code="LAKA" name="LAKA" netid="HA" insttype="120s," commtype="DIG" lat="38.2401" lon="21.9785">
    <comp name="--.HHN">
      <acc value="0.0313756468" flag="0"/>
      <vel value="0.0580380671" flag="0"/>
      <psa03 value="0.0709959919" flag="0"/>
      <psa10 value="0.0632556765" flag="0"/>
      <psa30 value="0.0246928673" flag="0"/>
    </comp>
    <comp name="--.HHZ">
      <acc value="0.0255484015" flag="0"/>
      <vel value="0.0523955689" flag="0"/>
      <psa03 value="0.0649616644" flag="0"/>
      <psa10 value="0.0544092773" flag="0"/>
      <psa30 value="0.0289612287" flag="0"/>
    </comp>
    <comp name="--.HHE">
      <acc value="0.0329518476" flag="0"/>
      <vel value="0.0384642979" flag="0"/>
      <psa03 value="0.0657951723" flag="0"/>
      <psa10 value="0.0401572671" flag="0"/>
      <psa30 value="0.0118541615" flag="0"/>
    </comp>
  </station>
  <station code="LOUT" name="LOUT" netid="HA" insttype="30" commtype="DIG" lat="37.9879" lon="22.9743">
    <comp name="--.HHZ">
      <acc value="0.2230593346" flag="0"/>
      <vel value="0.2428256876" flag="0"/>
      <psa03 value="0.4069636266" flag="0"/>
      <psa10 value="0.3615777667" flag="0"/>
      <psa30 value="0.0296082853" flag="0"/>
    </comp>
    <comp name="--.HHN">
      <acc value="0.3349216919" flag="0"/>
      <vel value="0.2736494313" flag="0"/>
      <psa03 value="0.8496181609" flag="0"/>
      <psa10 value="0.3380892514" flag="0"/>
      <psa30 value="0.0524793022" flag="0"/>
    </comp>
    <comp name="--.HHE">
      <acc value="0.3707226746" flag="0"/>
      <vel value="0.3798094979" flag="0"/>
      <psa03 value="0.9997288710" flag="0"/>
      <psa10 value="0.5931408405" flag="0"/>
      <psa30 value="0.0459353274" flag="0"/>
    </comp>
  </station>
  <station code="MDRA" name="MDRA" netid="HA" insttype="60" commtype="DIG" lat="38.0606" lon="23.4662">
    <comp name="--.HHN">
      <acc value="0.2866426396" flag="0"/>
      <vel value="0.1631921506" flag="0"/>
      <psa03 value="0.7568634920" flag="0"/>
      <psa10 value="0.1983974140" flag="0"/>
      <psa30 value="0.0146438689" flag="0"/>
    </comp>
    <comp name="--.HHZ">
      <acc value="0.1402473248" flag="0"/>
      <vel value="0.1514654247" flag="0"/>
      <psa03 value="0.3731784560" flag="0"/>
      <psa10 value="0.1432930894" flag="0"/>
      <psa30 value="0.0250392513" flag="0"/>
    </comp>
    <comp name="--.HHE">
      <acc value="0.2059153855" flag="0"/>
      <vel value="0.1053965581" flag="0"/>
      <psa03 value="0.2830209215" flag="0"/>
      <psa10 value="0.1484081103" flag="0"/>
      <psa30 value="0.0160533546" flag="0"/>
    </comp>
  </station>
  <station code="PSAH" name="PSAH" netid="HA" insttype="25" commtype="DIG" lat="38.5694" lon="23.6473">
    <comp name="--.HHZ">
      <acc value="0.6724983319" flag="0"/>
      <vel value="0.2223427575" flag="0"/>
      <psa03 value="1.0143022878" flag="0"/>
      <psa10 value="0.4164691367" flag="0"/>
      <psa30 value="0.0435618146" flag="0"/>
    </comp>
    <comp name="--.HHN">
      <acc value="0.9539024407" flag="0"/>
      <vel value="0.2376352202" flag="0"/>
      <psa03 value="1.3729410685" flag="0"/>
      <psa10 value="0.3381244586" flag="0"/>
      <psa30 value="0.0513949826" flag="0"/>
    </comp>
    <comp name="--.HHE">
      <acc value="1.2749441749" flag="0"/>
      <vel value="0.2822683950" flag="0"/>
      <psa03 value="1.7260887718" flag="0"/>
      <psa10 value="0.4414680491" flag="0"/>
      <psa30 value="0.0407487473" flag="0"/>
    </comp>
  </station>
  <station code="THAL" name="THAL" netid="HA" insttype="30" commtype="DIG" lat="38.0357" lon="22.6634">
    <comp name="--.HHE">
      <acc value="0.6081615600" flag="0"/>
      <vel value="0.4536535540" flag="0"/>
      <psa03 value="2.1782231940" flag="0"/>
      <psa10 value="0.4256108595" flag="0"/>
      <psa30 value="0.0559069291" flag="0"/>
    </comp>
    <comp name="--.HHZ">
      <acc value="0.3596429133" flag="0"/>
      <vel value="0.2022721962" flag="0"/>
      <psa03 value="0.6891782281" flag="0"/>
      <psa10 value="0.1375325974" flag="0"/>
      <psa30 value="0.0192513084" flag="0"/>
    </comp>
    <comp name="--.HHN">
      <acc value="0.4057662337" flag="0"/>
      <vel value="0.3315451869" flag="0"/>
      <psa03 value="1.2745199925" flag="0"/>
      <psa10 value="0.4168630980" flag="0"/>
      <psa30 value="0.0998190533" flag="0"/>
    </comp>
  </station>
  <station code="THIV" name="THIV" netid="HA" insttype="25" commtype="DIG" lat="38.299" lon="23.332">
    <comp name="--.HHE">
      <acc value="0.3745486364" flag="0"/>
      <vel value="0.2141167297" flag="0"/>
      <psa03 value="0.5892125863" flag="0"/>
      <psa10 value="0.3593261706" flag="0"/>
      <psa30 value="0.0543374708" flag="0"/>
    </comp>
    <comp name="--.HHZ">
      <acc value="0.3876562635" flag="0"/>
      <vel value="0.1240717931" flag="0"/>
      <psa03 value="0.4861427907" flag="0"/>
      <psa10 value="0.1887246741" flag="0"/>
      <psa30 value="0.0230995538" flag="0"/>
    </comp>
    <comp name="--.HHN">
      <acc value="0.4119581836" flag="0"/>
      <vel value="0.2081915560" flag="0"/>
      <psa03 value="0.8538271900" flag="0"/>
      <psa10 value="0.1794676347" flag="0"/>
      <psa30 value="0.0352356804" flag="0"/>
    </comp>
  </station>
  <station code="AIG2" name="AIG2" netid="HI" insttype="unknown" commtype="DIG" lat="38.2417" lon="22.0726">
    <comp name="--.HNE">
      <acc value="0.0766103931" flag="0"/>
      <vel value="0.1005127253" flag="0"/>
      <psa03 value="0.2807089025" flag="0"/>
      <psa10 value="0.1659329280" flag="0"/>
      <psa30 value="0.0274061493" flag="0"/>
    </comp>
    <comp name="--.HNN">
      <acc value="0.0634109978" flag="0"/>
      <vel value="0.0762661213" flag="0"/>
      <psa03 value="0.2113675250" flag="0"/>
      <psa10 value="0.0836122303" flag="0"/>
      <psa30 value="0.0479473796" flag="0"/>
    </comp>
    <comp name="--.HNZ">
      <acc value="0.0468671488" flag="0"/>
      <vel value="0.0449699675" flag="0"/>
      <psa03 value="0.1102366107" flag="0"/>
      <psa10 value="0.0832588691" flag="0"/>
      <psa30 value="0.0199935792" flag="0"/>
    </comp>
  </station>
  <station code="ARS1" name="ARS1" netid="HI" insttype="CMG-5TD,ACCELEROMETER,GURALP" commtype="DIG" lat="37.6349" lon="22.7293">
    <comp name="--.HNE">
      <acc value="0.2392815195" flag="0"/>
      <vel value="0.1990849959" flag="0"/>
      <psa03 value="0.5246873837" flag="0"/>
      <psa10 value="0.2005007668" flag="0"/>
      <psa30 value="0.0295118769" flag="0"/>
    </comp>
    <comp name="--.HNN">
      <acc value="0.1877420442" flag="0"/>
      <vel value="0.1830243871" flag="0"/>
      <psa03 value="0.4482516633" flag="0"/>
      <psa10 value="0.2006897087" flag="0"/>
      <psa30 value="0.0300075529" flag="0"/>
    </comp>
    <comp name="--.HNZ">
      <acc value="0.0588355308" flag="0"/>
      <vel value="0.0707786853" flag="0"/>
      <psa03 value="0.1726463242" flag="0"/>
      <psa10 value="0.0864223387" flag="0"/>
      <psa30 value="0.0370914167" flag="0"/>
    </comp>
  </station>
  <station code="FRS1" name="FRS1" netid="HI" insttype="unknown" commtype="DIG" lat="39.2934" lon="22.3844">
    <comp name="--.HNN">
      <acc value="0.1021121571" flag="0"/>
      <vel value="0.1066343277" flag="0"/>
      <psa03 value="0.2835851229" flag="0"/>
      <psa10 value="0.0798337804" flag="0"/>
      <psa30 value="0.0218978798" flag="0"/>
    </comp>
    <comp name="--.HNE">
      <acc value="0.0612760155" flag="0"/>
      <vel value="0.0453539856" flag="0"/>
      <psa03 value="0.2533914607" flag="0"/>
      <psa10 value="0.0364873842" flag="0"/>
      <psa30 value="0.0099902746" flag="0"/>
    </comp>
    <comp name="--.HNZ">
      <acc value="0.0564766003" flag="0"/>
      <vel value="0.0364253246" flag="0"/>
      <psa03 value="0.1697617805" flag="0"/>
      <psa10 value="0.0389418645" flag="0"/>
      <psa30 value="0.0116360733" flag="0"/>
    </comp>
  </station>
  <station code="KIF1" name="KIF1" netid="HI" insttype="unknown" commtype="DIG" lat="38.0773" lon="23.8146">
    <comp name="--.HNZ">
      <acc value="0.2112689452" flag="0"/>
      <vel value="0.1295434120" flag="0"/>
      <psa03 value="0.5759495224" flag="0"/>
      <psa10 value="0.1039429677" flag="0"/>
      <psa30 value="0.0213769379" flag="0"/>
    </comp>
    <comp name="--.HNE">
      <acc value="0.4020080172" flag="0"/>
      <vel value="0.1842254397" flag="0"/>
      <psa03 value="0.8549104209" flag="0"/>
      <psa10 value="0.1365442370" flag="0"/>
      <psa30 value="0.0498083854" flag="0"/>
    </comp>
    <comp name="--.HNN">
      <acc value="0.4367509262" flag="0"/>
      <vel value="0.1740816991" flag="0"/>
      <psa03 value="1.1145166319" flag="0"/>
      <psa10 value="0.1176891093" flag="0"/>
      <psa30 value="0.0611170269" flag="0"/>
    </comp>
  </station>
  <station code="KMV1" name="KMV1" netid="HI" insttype="unknown" commtype="DIG" lat="38.7794" lon="22.7846">
    <comp name="--.HNE">
      <acc value="0.9362128997" flag="0"/>
      <vel value="0.3610176270" flag="0"/>
      <psa03 value="2.2563874423" flag="0"/>
      <psa10 value="0.4426273919" flag="0"/>
      <psa30 value="0.0288330574" flag="0"/>
    </comp>
    <comp name="--.HNN">
      <acc value="1.0739566179" flag="0"/>
      <vel value="0.4493366055" flag="0"/>
      <psa03 value="2.0524765510" flag="0"/>
      <psa10 value="0.4858584937" flag="0"/>
      <psa30 value="0.0443995130" flag="0"/>
    </comp>
    <comp name="--.HNZ">
      <acc value="0.4468388754" flag="0"/>
      <vel value="0.2125887514" flag="0"/>
      <psa03 value="0.9317683118" flag="0"/>
      <psa10 value="0.1673364326" flag="0"/>
      <psa30 value="0.0171085280" flag="0"/>
    </comp>
  </station>
  <station code="KOR2" name="KOR2" netid="HI" insttype="unknown" commtype="DIG" lat="37.9401" lon="22.9495">
    <comp name="--.HNE">
      <acc value="0.4830013586" flag="0"/>
      <vel value="0.6282942100" flag="0"/>
      <psa03 value="1.4706934089" flag="0"/>
      <psa10 value="0.9312126883" flag="0"/>
      <psa30 value="0.1298866245" flag="0"/>
    </comp>
    <comp name="--.HNZ">
      <acc value="0.4530332548" flag="0"/>
      <vel value="0.3073887687" flag="0"/>
      <psa03 value="0.9248022158" flag="0"/>
      <psa10 value="0.3561301476" flag="0"/>
      <psa30 value="0.0288556097" flag="0"/>
    </comp>
    <comp name="--.HNN">
      <acc value="0.4799581859" flag="0"/>
      <vel value="0.6138824617" flag="0"/>
      <psa03 value="0.9907526851" flag="0"/>
      <psa10 value="0.8414092325" flag="0"/>
      <psa30 value="0.0981843041" flag="0"/>
    </comp>
  </station>
  <station code="LAM2" name="LAM2" netid="HI" insttype="CMG-5TD,ACCELEROMETER,GURALP" commtype="DIG" lat="38.902" lon="22.4313">
    <comp name="--.HNN">
      <acc value="0.1769708434" flag="0"/>
      <vel value="0.0872574228" flag="0"/>
      <psa03 value="0.3729423567" flag="0"/>
      <psa10 value="0.1350698795" flag="0"/>
      <psa30 value="0.0113632968" flag="0"/>
    </comp>
    <comp name="--.HNZ">
      <acc value="0.1196888290" flag="0"/>
      <vel value="0.0809279510" flag="0"/>
      <psa03 value="0.2197620794" flag="0"/>
      <psa10 value="0.1040645683" flag="0"/>
      <psa30 value="0.0215649848" flag="0"/>
    </comp>
    <comp name="--.HNE">
      <acc value="0.1921070656" flag="0"/>
      <vel value="0.1176353390" flag="0"/>
      <psa03 value="0.3145880039" flag="0"/>
      <psa10 value="0.1536613270" flag="0"/>
      <psa30 value="0.0168354201" flag="0"/>
    </comp>
  </station>
  <station code="NMA1" name="NMA1" netid="HI" insttype="unknown" commtype="DIG" lat="37.8187" lon="22.6627">
    <comp name="--.HNE">
      <acc value="0.1501777581" flag="0"/>
      <vel value="0.1822470630" flag="0"/>
      <psa03 value="0.3774465828" flag="0"/>
      <psa10 value="0.2331325330" flag="0"/>
      <psa30 value="0.0437266157" flag="0"/>
    </comp>
    <comp name="--.HNN">
      <acc value="0.1862089262" flag="0"/>
      <vel value="0.1793940659" flag="0"/>
      <psa03 value="0.4873466168" flag="0"/>
      <psa10 value="0.1765965812" flag="0"/>
      <psa30 value="0.0620742281" flag="0"/>
    </comp>
    <comp name="--.HNZ">
      <acc value="0.1006432220" flag="0"/>
      <vel value="0.1029804012" flag="0"/>
      <psa03 value="0.1928298434" flag="0"/>
      <psa10 value="0.1683544344" flag="0"/>
      <psa30 value="0.0322202244" flag="0"/>
    </comp>
  </station>
  <station code="PLN1" name="PLN1" netid="HI" insttype="CMG-5TD,ACCELEROMETER,GURALP" commtype="DIG" lat="39.998" lon="23.575">
    <comp name="--.HNZ">
      <acc value="0.0306651070" flag="0"/>
      <vel value="0.0339768780" flag="0"/>
      <psa03 value="0.0843927606" flag="0"/>
      <psa10 value="0.0483852596" flag="0"/>
      <psa30 value="0.0095109124" flag="0"/>
    </comp>
    <comp name="--.HNN">
      <acc value="0.0636645070" flag="0"/>
      <vel value="0.0649438399" flag="0"/>
      <psa03 value="0.1511819208" flag="0"/>
      <psa10 value="0.1003653816" flag="0"/>
      <psa30 value="0.0214121602" flag="0"/>
    </comp>
    <comp name="--.HNE">
      <acc value="0.0677394955" flag="0"/>
      <vel value="0.0690557877" flag="0"/>
      <psa03 value="0.1856333297" flag="0"/>
      <psa10 value="0.1224242351" flag="0"/>
      <psa30 value="0.0243121588" flag="0"/>
    </comp>
  </station>
  <station code="SKY1" name="SKY1" netid="HI" insttype="CMG-5TD,ACCELEROMETER,GURALP" commtype="DIG" lat="38.9045" lon="24.5646">
    <comp name="--.HNE">
      <acc value="0.5217312199" flag="0"/>
      <vel value="0.2595556546" flag="0"/>
      <psa03 value="1.8962310069" flag="0"/>
      <psa10 value="0.3124758990" flag="0"/>
      <psa30 value="0.0174917436" flag="0"/>
    </comp>
    <comp name="--.HNN">
      <acc value="0.4309084071" flag="0"/>
      <vel value="0.3087000711" flag="0"/>
      <psa03 value="1.4627160334" flag="0"/>
      <psa10 value="0.1695508311" flag="0"/>
      <psa30 value="0.0346628543" flag="0"/>
    </comp>
    <comp name="--.HNZ">
      <acc value="0.2781792051" flag="0"/>
      <vel value="0.1579154557" flag="0"/>
      <psa03 value="1.1812336473" flag="0"/>
      <psa10 value="0.1438480447" flag="0"/>
      <psa30 value="0.0219172217" flag="0"/>
    </comp>
  </station>
