<?xml version="1.0" encoding="UTF-8" standalone="yes"?>
<!DOCTYPE earthquake SYSTEM "stationlist.dtd">
<stationlist created="" xmlns="ch.ethz.sed.shakemap.usgs.xml">
  <station code="AGRP" name="AGRP" netid="CL" source="RESIF" insttype="30" lat="38.3959" lon="21.7228">
    <comp name="00.HHE">
      <acc value="0.0096085567" flag="0"/>
      <vel value="0.0042849744" flag="0"/>
      <psa03 value="0.0222288519" flag="0"/>
      <psa10 value="0.0048366102" flag="0"/>
      <psa30 value="0.0002728722" flag="0"/>
    </comp>
    <comp name="00.HHN">
      <acc value="0.0100919042" flag="0"/>
      <vel value="0.0043290160" flag="0"/>
      <psa03 value="0.0180273462" flag="0"/>
      <psa10 value="0.0047741886" flag="0"/>
      <psa30 value="0.0003028007" flag="0"/>
    </comp>
    <comp name="00.HHZ">
      <acc value="0.0048257831" flag="0"/>
      <vel value="0.0024697549" flag="0"/>
      <psa03 value="0.0122107512" flag="0"/>
      <psa10 value="0.0029677014" flag="0"/>
      <psa30 value="0.0002090785" flag="0"/>
    </comp>
  </station>
  <station code="MALA" name="MALA" netid="CL" source="RESIF" insttype="30" lat="38.3935" lon="21.8726">
    <comp name="00.HH2">
      <acc value="0.0088139015" flag="0"/>
      <vel value="0.0052332565" flag="0"/>
      <psa03 value="0.0151061486" flag="0"/>
      <psa10 value="0.0048462852" flag="0"/>
      <psa30 value="0.0003572526" flag="0"/>
    </comp>
    <comp name="00.HH3">
      <acc value="0.0060111461" flag="0"/>
      <vel value="0.0034733854" flag="0"/>
      <psa03 value="0.0151808924" flag="0"/>
      <psa10 value="0.0048119773" flag="0"/>
      <psa30 value="0.0002541909" flag="0"/>
    </comp>
    <comp name="00.HHZ">
      <acc value="0.0052871708" flag="0"/>
      <vel value="0.0023044701" flag="0"/>
      <psa03 value="0.0152762652" flag="0"/>
      <psa10 value="0.0028865724" flag="0"/>
      <psa30 value="0.0002345681" flag="0"/>
    </comp>
  </station>
  <station code="MG00" name="MG00" netid="CL" source="RESIF" insttype="40" lat="38.4145" lon="21.9467">
    <comp name="00.HHE">
      <acc value="0.0149361578" flag="0"/>
      <vel value="0.0088772374" flag="0"/>
      <psa03 value="0.0446226818" flag="0"/>
      <psa10 value="0.0038401369" flag="0"/>
      <psa30 value="0.0003096306" flag="0"/>
    </comp>
    <comp name="00.HHN">
      <acc value="0.0166235211" flag="0"/>
      <vel value="0.0082779547" flag="0"/>
      <psa03 value="0.0338917765" flag="0"/>
      <psa10 value="0.0063845799" flag="0"/>
      <psa30 value="0.0003588977" flag="0"/>
    </comp>
    <comp name="00.HHZ">
      <acc value="0.0082231971" flag="0"/>
      <vel value="0.0034933052" flag="0"/>
      <psa03 value="0.0165641300" flag="0"/>
      <psa10 value="0.0021773630" flag="0"/>
      <psa30 value="0.0001828187" flag="0"/>
    </comp>
  </station>
  <station code="MG02" name="MG02" netid="CL" source="RESIF" insttype="40" lat="38.415" lon="21.947">
    <comp name="02.HHE">
      <acc value="0.0117753430" flag="0"/>
      <vel value="0.0071547159" flag="0"/>
      <psa03 value="0.0302040752" flag="0"/>
      <psa10 value="0.0057191641" flag="0"/>
      <psa30 value="0.0002883496" flag="0"/>
    </comp>
    <comp name="02.HHN">
      <acc value="0.0077562058" flag="0"/>
      <vel value="0.0052926715" flag="0"/>
      <psa03 value="0.0308047509" flag="0"/>
      <psa10 value="0.0037147861" flag="0"/>
      <psa30 value="0.0002091615" flag="0"/>
    </comp>
    <comp name="02.HHZ">
      <acc value="0.0080253381" flag="0"/>
      <vel value="0.0045230220" flag="0"/>
      <psa03 value="0.0302140820" flag="0"/>
      <psa10 value="0.0031046353" flag="0"/>
      <psa30 value="0.0001626617" flag="0"/>
    </comp>
  </station>
  <station code="MG03" name="MG03" netid="CL" source="RESIF" insttype="40" lat="38.4141" lon="21.946">
    <comp name="03.HHE">
      <acc value="0.0095187665" flag="0"/>
      <vel value="0.0056330418" flag="0"/>
      <psa03 value="0.0310671804" flag="0"/>
      <psa10 value="0.0026934280" flag="0"/>
      <psa30 value="0.0002465488" flag="0"/>
    </comp>
    <comp name="03.HHN">
      <acc value="0.0049499451" flag="0"/>
      <vel value="0.0025023440" flag="0"/>
      <psa03 value="0.0153819744" flag="0"/>
      <psa10 value="0.0025582946" flag="0"/>
      <psa30 value="0.0001693908" flag="0"/>
    </comp>
    <comp name="03.HHZ">
      <acc value="0.0053291070" flag="0"/>
      <vel value="0.0022036572" flag="0"/>
      <psa03 value="0.0132163507" flag="0"/>
      <psa10 value="0.0018684239" flag="0"/>
      <psa30 value="0.0001722904" flag="0"/>
    </comp>
  </station>
  <station code="MG04" name="MG04" netid="CL" source="RESIF" insttype="40" lat="38.4142" lon="21.9481">
    <comp name="04.HHE">
      <acc value="0.0126776520" flag="0"/>
      <vel value="0.0068193469" flag="0"/>
      <psa03 value="0.0281035974" flag="0"/>
      <psa10 value="0.0038156186" flag="0"/>
      <psa30 value="0.0002827429" flag="0"/>
    </comp>
    <comp name="04.HHN">
      <acc value="0.0115717784" flag="0"/>
      <vel value="0.0041648992" flag="0"/>
      <psa03 value="0.0255578595" flag="0"/>
      <psa10 value="0.0053995642" flag="0"/>
      <psa30 value="0.0003395034" flag="0"/>
    </comp>
    <comp name="04.HHZ">
      <acc value="0.0067403346" flag="0"/>
      <vel value="0.0025701958" flag="0"/>
      <psa03 value="0.0155171934" flag="0"/>
      <psa10 value="0.0021512187" flag="0"/>
      <psa30 value="0.0001913002" flag="0"/>
    </comp>
  </station>
  <station code="MG05" name="MG05" netid="CL" source="RESIF" insttype="30" lat="38.4155" lon="21.9458">
    <comp name="05.HHE">
      <acc value="0.0267788751" flag="0"/>
      <vel value="0.0185984254" flag="0"/>
      <psa03 value="0.0591982096" flag="0"/>
      <psa10 value="0.0089547920" flag="0"/>
      <psa30 value="0.0006962468" flag="0"/>
    </comp>
    <comp name="05.HHN">
      <acc value="0.0180157658" flag="0"/>
      <vel value="0.0135813576" flag="0"/>
      <psa03 value="0.0621423690" flag="0"/>
      <psa10 value="0.0134092903" flag="0"/>
      <psa30 value="0.0006512150" flag="0"/>
    </comp>
    <comp name="05.HHZ">
      <acc value="0.0163299642" flag="0"/>
      <vel value="0.0069377127" flag="0"/>
      <psa03 value="0.0475960969" flag="0"/>
      <psa10 value="0.0059773899" flag="0"/>
      <psa30 value="0.0004096677" flag="0"/>
    </comp>
  </station>
  <station code="MG06" name="MG06" netid="CL" source="RESIF" insttype="40" lat="38.4129" lon="21.9462">
    <comp name="06.HHE">
      <acc value="0.0060548469" flag="0"/>
      <vel value="0.0031521104" flag="0"/>
      <psa03 value="0.0163674327" flag="0"/>
      <psa10 value="0.0041792928" flag="0"/>
      <psa30 value="0.0003361431" flag="0"/>
    </comp>
    <comp name="06.HHN">
      <acc value="0.0067407504" flag="0"/>
      <vel value="0.0040782667" flag="0"/>
      <psa03 value="0.0117372778" flag="0"/>
      <psa10 value="0.0024165996" flag="0"/>
      <psa30 value="0.0001578450" flag="0"/>
    </comp>
    <comp name="06.HHZ">
      <acc value="0.0043605819" flag="0"/>
      <vel value="0.0018790053" flag="0"/>
      <psa03 value="0.0075393613" flag="0"/>
      <psa10 value="0.0014593813" flag="0"/>
      <psa30 value="0.0001679489" flag="0"/>
    </comp>
  </station>
  <station code="MG07" name="MG07" netid="CL" source="RESIF" insttype="40" lat="38.4155" lon="21.9488">
    <comp name="07.HHE">
      <acc value="0.0141882381" flag="0"/>
      <vel value="0.0100565440" flag="0"/>
      <psa03 value="0.0339393581" flag="0"/>
      <psa10 value="0.0066641552" flag="0"/>
      <psa30 value="0.0003361198" flag="0"/>
    </comp>
    <comp name="07.HHN">
      <acc value="0.0144528226" flag="0"/>
      <vel value="0.0083358043" flag="0"/>
      <psa03 value="0.0368474000" flag="0"/>
      <psa10 value="0.0069725694" flag="0"/>
      <psa30 value="0.0004920678" flag="0"/>
    </comp>
    <comp name="07.HHZ">
      <acc value="0.0071235189" flag="0"/>
      <vel value="0.0040887354" flag="0"/>
      <psa03 value="0.0198897108" flag="0"/>
      <psa10 value="0.0034249984" flag="0"/>
      <psa30 value="0.0002289953" flag="0"/>
    </comp>
  </station>
  <station code="ROD3" name="ROD3" netid="CL" source="RESIF" insttype="30" lat="38.3081" lon="21.892">
    <comp name="00.HHE">
      <acc value="0.0338890541" flag="0"/>
      <vel value="0.0151747100" flag="0"/>
      <psa03 value="0.0963498127" flag="0"/>
      <psa10 value="0.0088075935" flag="0"/>
      <psa30 value="0.0004711001" flag="0"/>
    </comp>
    <comp name="00.HHN">
      <acc value="0.0367283257" flag="0"/>
      <vel value="0.0138807269" flag="0"/>
      <psa03 value="0.1072935613" flag="0"/>
      <psa10 value="0.0062925795" flag="0"/>
      <psa30 value="0.0005424594" flag="0"/>
    </comp>
    <comp name="00.HHZ">
      <acc value="0.0227483316" flag="0"/>
      <vel value="0.0072553452" flag="0"/>
      <psa03 value="0.0322963382" flag="0"/>
      <psa10 value="0.0049142496" flag="0"/>
      <psa30 value="0.0002825139" flag="0"/>
    </comp>
  </station>
  <station code="ARG2" name="ARG2" netid="HI" source="NOA" insttype="CMG-5TD,ACCELEROMETER,GURALP" lat="38.1783" lon="20.4878">
    <comp name="--.HNE">
      <acc value="2.5001107180" flag="0"/>
      <vel value="0.4159010198" flag="0"/>
      <psa03 value="1.2545914860" flag="0"/>
      <psa10 value="0.0673984173" flag="0"/>
      <psa30 value="0.0077373158" flag="0"/>
    </comp>
    <comp name="--.HNN">
      <acc value="1.9003475100" flag="0"/>
      <vel value="0.2910056974" flag="0"/>
      <psa03 value="0.5586978437" flag="0"/>
      <psa10 value="0.0493915553" flag="0"/>
      <psa30 value="0.0047204449" flag="0"/>
    </comp>
    <comp name="--.HNZ">
      <acc value="1.5419650876" flag="0"/>
      <vel value="0.2634674999" flag="0"/>
      <psa03 value="1.0759317509" flag="0"/>
      <psa10 value="0.0362502702" flag="0"/>
      <psa30 value="0.0031426281" flag="0"/>
    </comp>
  </station>
  <station code="ANDM" name="ANDM" netid="HL" source="NOA" insttype="SMART24" lat="37.9831" lon="21.2726">
    <comp name="--.HHE">
      <acc value="0.0858253421" flag="0"/>
      <vel value="0.0480309508" flag="0"/>
      <psa03 value="0.2401453260" flag="0"/>
      <psa10 value="0.0417121131" flag="0"/>
      <psa30 value="0.0018174145" flag="0"/>
    </comp>
    <comp name="--.HHN">
      <acc value="0.0677332304" flag="0"/>
      <vel value="0.0354294252" flag="0"/>
      <psa03 value="0.2355013091" flag="0"/>
      <psa10 value="0.0376967705" flag="0"/>
      <psa30 value="0.0025439907" flag="0"/>
    </comp>
    <comp name="--.HHZ">
      <acc value="0.0477312706" flag="0"/>
      <vel value="0.0100071753" flag="0"/>
      <psa03 value="0.0721660814" flag="0"/>
      <psa10 value="0.0143450057" flag="0"/>
      <psa30 value="0.0013594531" flag="0"/>
    </comp>
  </station>
  <station code="RLS" name="RLS" netid="HL" source="NOA" insttype="120" lat="38.0559" lon="21.4647">
    <comp name="--.HHE">
      <acc value="0.0128674594" flag="0"/>
      <vel value="0.0042827276" flag="0"/>
      <psa03 value="0.0168434363" flag="0"/>
      <psa10 value="0.0028875623" flag="0"/>
      <psa30 value="0.0001680331" flag="0"/>
    </comp>
    <comp name="--.HHN">
      <acc value="0.0175652025" flag="0"/>
      <vel value="0.0063575080" flag="0"/>
      <psa03 value="0.0289015536" flag="0"/>
      <psa10 value="0.0023528700" flag="0"/>
      <psa30 value="0.0002164466" flag="0"/>
    </comp>
    <comp name="--.HHZ">
      <acc value="0.0075821636" flag="0"/>
      <vel value="0.0020373845" flag="0"/>
      <psa03 value="0.0113841663" flag="0"/>
      <psa10 value="0.0024249060" flag="0"/>
      <psa30 value="0.0001267152" flag="0"/>
    </comp>
  </station>
  <station code="VLS" name="VLS" netid="HL" source="NOA" insttype="120P," lat="38.1768" lon="20.5886">
    <comp name="--.HHE">
      <acc value="3.0107588010" flag="0"/>
      <vel value="0.6572860116" flag="0"/>
      <psa03 value="1.3921172631" flag="0"/>
      <psa10 value="0.3828507001" flag="0"/>
      <psa30 value="0.0779557905" flag="0"/>
    </comp>
    <comp name="--.HHN">
      <acc value="2.6599562991" flag="0"/>
      <vel value="0.3499603693" flag="0"/>
      <psa03 value="0.4081243608" flag="0"/>
      <psa10 value="0.0254638299" flag="0"/>
      <psa30 value="0.0031067172" flag="0"/>
    </comp>
    <comp name="--.HHZ">
      <acc value="2.2963986591" flag="0"/>
      <vel value="0.4783723815" flag="0"/>
      <psa03 value="0.5938890993" flag="0"/>
      <psa10 value="0.2572714115" flag="0"/>
      <psa30 value="0.0541190534" flag="0"/>
    </comp>
  </station>
  <station code="AMPL" name="AMPL" netid="HP" source="NOA" insttype="Compact," lat="38.9224" lon="21.2135">
    <comp name="--.HHE">
      <acc value="0.0053446060" flag="0"/>
      <vel value="0.0029081605" flag="0"/>
      <psa03 value="0.0128585555" flag="0"/>
      <psa10 value="0.0032020081" flag="0"/>
      <psa30 value="0.0002585326" flag="0"/>
    </comp>
    <comp name="--.HHN">
      <acc value="0.0076216809" flag="0"/>
      <vel value="0.0041679797" flag="0"/>
      <psa03 value="0.0161081453" flag="0"/>
      <psa10 value="0.0037128563" flag="0"/>
      <psa30 value="0.0002323212" flag="0"/>
    </comp>
    <comp name="--.HHZ">
      <acc value="0.0035746661" flag="0"/>
      <vel value="0.0017976381" flag="0"/>
      <psa03 value="0.0084045557" flag="0"/>
      <psa10 value="0.0026325836" flag="0"/>
      <psa30 value="0.0001637450" flag="0"/>
    </comp>
  </station>
  <station code="AMT" name="AMT" netid="HP" source="NOA" insttype="CMG-3T," lat="37.5324" lon="21.7089">
    <comp name="00.HHE">
      <acc value="0.0065254147" flag="0"/>
      <vel value="0.0050566933" flag="0"/>
      <psa03 value="0.0281498331" flag="0"/>
      <psa10 value="0.0059212421" flag="0"/>
      <psa30 value="0.0002765486" flag="0"/>
    </comp>
    <comp name="00.HHN">
      <acc value="0.0057960100" flag="0"/>
      <vel value="0.0037987898" flag="0"/>
      <psa03 value="0.0240253443" flag="0"/>
      <psa10 value="0.0047364590" flag="0"/>
      <psa30 value="0.0003025476" flag="0"/>
    </comp>
    <comp name="00.HHZ">
      <acc value="0.0037724785" flag="0"/>
      <vel value="0.0020955054" flag="0"/>
      <psa03 value="0.0104849630" flag="0"/>
      <psa10 value="0.0015973002" flag="0"/>
      <psa30 value="0.0001058737" flag="0"/>
    </comp>
  </station>
  <station code="AXS" name="AXS" netid="HP" source="NOA" insttype="40," lat="38.1962" lon="21.3763">
    <comp name="--.HHE">
      <acc value="0.0138698902" flag="0"/>
      <vel value="0.0029401091" flag="0"/>
      <psa03 value="0.0200241142" flag="0"/>
      <psa10 value="0.0022245199" flag="0"/>
      <psa30 value="0.0001761300" flag="0"/>
    </comp>
    <comp name="--.HHN">
      <acc value="0.0109207198" flag="0"/>
      <vel value="0.0043076954" flag="0"/>
      <psa03 value="0.0203229019" flag="0"/>
      <psa10 value="0.0041219084" flag="0"/>
      <psa30 value="0.0002466765" flag="0"/>
    </comp>
    <comp name="--.HHZ">
      <acc value="0.0072453365" flag="0"/>
      <vel value="0.0039097921" flag="0"/>
      <psa03 value="0.0150209544" flag="0"/>
      <psa10 value="0.0034465641" flag="0"/>
      <psa30 value="0.0001385546" flag="0"/>
    </comp>
  </station>
  <station code="DRO" name="DRO" netid="HP" source="NOA" insttype="120P," lat="37.952" lon="21.71">
    <comp name="--.HHE">
      <acc value="0.0298270533" flag="0"/>
      <vel value="0.0070598493" flag="0"/>
      <psa03 value="0.0444877966" flag="0"/>
      <psa10 value="0.0052664455" flag="0"/>
      <psa30 value="0.0003559031" flag="0"/>
    </comp>
    <comp name="--.HHN">
      <acc value="0.0325199218" flag="0"/>
      <vel value="0.0078835254" flag="0"/>
      <psa03 value="0.0370978251" flag="0"/>
      <psa10 value="0.0070710064" flag="0"/>
      <psa30 value="0.0005112408" flag="0"/>
    </comp>
    <comp name="--.HHZ">
      <acc value="0.0137766980" flag="0"/>
      <vel value="0.0035202890" flag="0"/>
      <psa03 value="0.0245299128" flag="0"/>
      <psa10 value="0.0024727960" flag="0"/>
      <psa30 value="0.0001922136" flag="0"/>
    </comp>
  </station>
  <station code="EFP" name="EFP" netid="HP" source="NOA" insttype="40," lat="38.4269" lon="21.9058">
    <comp name="--.HHE">
      <acc value="0.0079751045" flag="0"/>
      <vel value="0.0038994599" flag="0"/>
      <psa03 value="0.0206768939" flag="0"/>
      <psa10 value="0.0042608275" flag="0"/>
      <psa30 value="0.0002397885" flag="0"/>
    </comp>
    <comp name="--.HHN">
      <acc value="0.0075734791" flag="0"/>
      <vel value="0.0032381085" flag="0"/>
      <psa03 value="0.0177926009" flag="0"/>
      <psa10 value="0.0037343543" flag="0"/>
      <psa30 value="0.0002958016" flag="0"/>
    </comp>
    <comp name="--.HHZ">
      <acc value="0.0038568470" flag="0"/>
      <vel value="0.0017817290" flag="0"/>
      <psa03 value="0.0113858137" flag="0"/>
      <psa10 value="0.0028244704" flag="0"/>
      <psa30 value="0.0001841643" flag="0"/>
    </comp>
  </station>
  <station code="FSK" name="FSK" netid="HP" source="NOA" insttype="40," lat="38.4593" lon="20.5623">
    <comp name="--.HHE">
      <acc value="0.1819115349" flag="0"/>
      <vel value="0.0430401781" flag="0"/>
      <psa03 value="0.0716932075" flag="0"/>
      <psa10 value="0.0099067803" flag="0"/>
      <psa30 value="0.0008483656" flag="0"/>
    </comp>
    <comp name="--.HHN">
      <acc value="0.0625963719" flag="0"/>
      <vel value="0.0174231713" flag="0"/>
      <psa03 value="0.0447426331" flag="0"/>
      <psa10 value="0.0129223490" flag="0"/>
      <psa30 value="0.0006099914" flag="0"/>
    </comp>
    <comp name="--.HHZ">
      <acc value="0.0897739142" flag="0"/>
      <vel value="0.0184425249" flag="0"/>
      <psa03 value="0.0321226935" flag="0"/>
      <psa10 value="0.0044606891" flag="0"/>
      <psa30 value="0.0006783956" flag="0"/>
    </comp>
  </station>
  <station code="LTHK" name="LTHK" netid="HP" source="NOA" insttype="40," lat="37.7095" lon="20.8367">
    <comp name="--.HHE">
      <acc value="0.1070561183" flag="0"/>
      <vel value="0.0189678765" flag="0"/>
      <psa03 value="0.0817319835" flag="0"/>
      <psa10 value="0.0102364135" flag="0"/>
      <psa30 value="0.0008582134" flag="0"/>
    </comp>
    <comp name="--.HHZ">
      <acc value="0.0644702449" flag="0"/>
      <vel value="0.0107308117" flag="0"/>
      <psa03 value="0.0779274943" flag="0"/>
      <psa10 value="0.0062666192" flag="0"/>
      <psa30 value="0.0003767402" flag="0"/>
    </comp>
  </station>
  <station code="PVO" name="PVO" netid="HP" source="NOA" insttype="120P," lat="38.616" lon="21.525">
    <comp name="--.HHE">
      <acc value="0.0157075402" flag="0"/>
      <vel value="0.0079936927" flag="0"/>
      <psa03 value="0.0533946511" flag="0"/>
      <psa10 value="0.0058245018" flag="0"/>
      <psa30 value="0.0005090854" flag="0"/>
    </comp>
    <comp name="--.HHN">
      <acc value="0.0122889314" flag="0"/>
      <vel value="0.0064294618" flag="0"/>
      <psa03 value="0.0414568462" flag="0"/>
      <psa10 value="0.0087163535" flag="0"/>
      <psa30 value="0.0004401645" flag="0"/>
    </comp>
    <comp name="--.HHZ">
      <acc value="0.0078568167" flag="0"/>
      <vel value="0.0035764459" flag="0"/>
      <psa03 value="0.0141922374" flag="0"/>
      <psa10 value="0.0030554599" flag="0"/>
      <psa30 value="0.0003144572" flag="0"/>
    </comp>
  </station>
  <station code="DMLN" name="DMLN" netid="HT" source="NOA" insttype="1s-100Hz," lat="38.2385" lon="20.3734">
    <comp name="--.HHE">
      <acc value="0.3681444485" flag="0"/>
      <vel value="0.0446128509" flag="0"/>
      <psa03 value="0.1325635040" flag="0"/>
      <psa10 value="0.0208051949" flag="0"/>
      <psa30 value="0.0014100818" flag="0"/>
    </comp>
    <comp name="--.HHN">
      <acc value="0.3897987930" flag="0"/>
      <vel value="0.0677693383" flag="0"/>
