<stationlist xmlns:esm="https://esm-db.eu/esmws/shakemap/1/" created="1781661270">
	<station code="ROD3" name="ROD3" netid="CL" source="Corinth Riff Laboratory (CRLNET)" insttype="" lat="38.30811" lon="21.89204" esm:processing="manual (Paolucci et al 2011)" esm:quality="good">
		<comp name="00.HNE" depth="0.0">
			<acc value="0.0265386272486545" flag="0"/>
			<vel value="0.0130306118686998" flag="0"/>
			<psa03 value="0.0766433999370995" flag="0"/>
			<psa10 value="0.00724823747216002" flag="0"/>
			<psa30 value="0.000402232437498263" flag="0"/>
		</comp>
		<comp name="00.HNN" depth="0.0">
			<acc value="0.0321555432891273" flag="0"/>
			<vel value="0.0116785113342675" flag="0"/>
			<psa03 value="0.0928400787329139" flag="0"/>
			<psa10 value="0.00524691857012473" flag="0"/>
			<psa30 value="0.000430867449733957" flag="0"/>
		</comp>
		<comp name="00.HNZ" depth="0.0">
			<acc value="0.0178289244807341" flag="0"/>
			<vel value="0.00510025621169697" flag="0"/>
			<psa03 value="0.0241607915738668" flag="0"/>
			<psa10 value="0.00369257431220597" flag="0"/>
			<psa30 value="0.000233106896481196" flag="0"/>
		</comp>
	</station>
	<station code="ARG2" name="ARG2" netid="HI" source="ITSAK Strong Motion Network" insttype="" lat="38.1783" lon="20.4878" esm:processing="manual (Paolucci et al 2011)" esm:quality="good">
		<comp name="--.HNE" depth="0.0">
			<acc value="2.57251234074167" flag="0"/>
			<vel value="0.432021016620564" flag="0"/>
			<psa03 value="1.27510814641413" flag="0"/>
			<psa10 value="0.0681213518425173" flag="0"/>
			<psa30 value="0.0077744058219909" flag="0"/>
		</comp>
		<comp name="--.HNN" depth="0.0">
			<acc value="1.83975578732797" flag="0"/>
			<vel value="0.303193232914513" flag="0"/>
			<psa03 value="0.561425208646074" flag="0"/>
			<psa10 value="0.0500208921550955" flag="0"/>
			<psa30 value="0.00468450903293305" flag="0"/>
		</comp>
		<comp name="--.HNZ" depth="0.0">
			<acc value="1.52621537756334" flag="0"/>
			<vel value="0.27299074160879" flag="0"/>
			<psa03 value="1.095557671255" flag="0"/>
			<psa10 value="0.0366680280119384" flag="0"/>
			<psa30 value="0.00313956063840413" flag="0"/>
		</comp>
	</station>
	<station code="KLV1" name="KLV1" netid="HI" source="ITSAK Strong Motion Network" insttype="" lat="38.03256" lon="22.10797" esm:processing="manual (Paolucci et al 2011)" esm:quality="best">
		<comp name="--.HNE" depth="0.0">
			<acc value="0.0112041957607589" flag="0"/>
			<vel value="0.00483789682970301" flag="0"/>
			<psa03 value="0.0284560434092208" flag="0"/>
			<psa10 value="0.00422008492823539" flag="0"/>
			<psa30 value="0.00029306145334968" flag="0"/>
		</comp>
		<comp name="--.HNN" depth="0.0">
			<acc value="0.0114863217564833" flag="0"/>
			<vel value="0.00515693779984269" flag="0"/>
			<psa03 value="0.0316774822857364" flag="0"/>
			<psa10 value="0.00321741207791992" flag="0"/>
			<psa30 value="0.00036062218534327" flag="0"/>
		</comp>
		<comp name="--.HNZ" depth="0.0">
			<acc value="0.0102598382750978" flag="0"/>
			<vel value="0.00327539486171504" flag="0"/>
			<psa03 value="0.00885895691041781" flag="0"/>
			<psa10 value="0.0027261426492513" flag="0"/>
			<psa30 value="0.000147649281840297" flag="0"/>
		</comp>
	</station>
	<station code="PATC" name="PATC" netid="HL" source="National Observatory of Athens Seismic Network" insttype="" lat="38.26933" lon="21.76001" esm:processing="manual (Paolucci et al 2011)" esm:quality="best">
		<comp name="00.HNE" depth="0.0">
			<acc value="0.0191116478286443" flag="0"/>
			<vel value="0.00722378201834091" flag="0"/>
			<psa03 value="0.0476504500484594" flag="0"/>
			<psa10 value="0.0151689503097927" flag="0"/>
			<psa30 value="0.00106441709544868" flag="0"/>
		</comp>
		<comp name="00.HNN" depth="0.0">
			<acc value="0.0198045590288198" flag="0"/>
			<vel value="0.0113473467608923" flag="0"/>
			<psa03 value="0.0358385075012357" flag="0"/>
			<psa10 value="0.0129058894990405" flag="0"/>
			<psa30 value="0.000804017452930343" flag="0"/>
		</comp>
		<comp name="00.HNZ" depth="0.0">
			<acc value="0.0156441601833493" flag="0"/>
			<vel value="0.0049447263058274" flag="0"/>
			<psa03 value="0.0250556357062322" flag="0"/>
			<psa10 value="0.00738112182581629" flag="0"/>
			<psa30 value="0.0004841106756097" flag="0"/>
		</comp>
	</station>
	<station code="PATG" name="PATG" netid="HL" source="National Observatory of Athens Seismic Network" insttype="" lat="38.23865" lon="21.72657" esm:processing="manual (Paolucci et al 2011)" esm:quality="good">
		<comp name="00.HNE" depth="0.0">
			<acc value="0.0218671009397717" flag="0"/>
			<vel value="0.0112534677780535" flag="0"/>
			<psa03 value="0.0546749764875281" flag="0"/>
			<psa10 value="0.014383724583642" flag="0"/>
			<psa30 value="0.000948982202373544" flag="0"/>
		</comp>
		<comp name="00.HNN" depth="0.0">
			<acc value="0.0217071115057308" flag="0"/>
			<vel value="0.0109103808768867" flag="0"/>
			<psa03 value="0.0490822006602441" flag="0"/>
			<psa10 value="0.0187366938655337" flag="0"/>
			<psa30 value="0.000914978125343657" flag="0"/>
		</comp>
		<comp name="00.HNZ" depth="0.0">
			<acc value="0.0152856167140452" flag="0"/>
			<vel value="0.00539231624249381" flag="0"/>
			<psa03 value="0.0268453239709631" flag="0"/>
			<psa10 value="0.00980525458039425" flag="0"/>
			<psa30 value="0.00047739934461696" flag="0"/>
		</comp>
	</station>
	<station code="RIOA" name="RIOA" netid="HL" source="National Observatory of Athens Seismic Network" insttype="" lat="38.29585" lon="21.79118" esm:processing="manual (Paolucci et al 2011)" esm:quality="good">
		<comp name="00.HNE" depth="0.0">
			<acc value="0.0131932220923813" flag="0"/>
			<vel value="0.00603484709867207" flag="0"/>
			<psa03 value="0.0270242927974361" flag="0"/>
			<psa10 value="0.0067932092308522" flag="0"/>
			<psa30 value="0.000766433999370995" flag="0"/>
		</comp>
		<comp name="00.HNN" depth="0.0">
			<acc value="0.0125560604908109" flag="0"/>
			<vel value="0.00590216504013258" flag="0"/>
			<psa03 value="0.0206708994576416" flag="0"/>
			<psa10 value="0.0107998738335184" flag="0"/>
			<psa30 value="0.000727508279613099" flag="0"/>
		</comp>
		<comp name="00.HNZ" depth="0.0">
			<acc value="0.011661673973586" flag="0"/>
			<vel value="0.00369318387428483" flag="0"/>
			<psa03 value="0.0214762591767704" flag="0"/>
			<psa10 value="0.00447780003835664" flag="0"/>
			<psa30 value="0.000387467509314233" flag="0"/>
		</comp>
	</station>
	<station code="ANX" name="ANX" netid="HP" source="University of Patras, Seismological Laboratory (PSLNET)" insttype="" lat="38.5933" lon="21.9209" esm:processing="manual (Paolucci et al 2011)" esm:quality="good">
		<comp name="--.HNE" depth="0.0">
			<acc value="0.00710811866912657" flag="0"/>
			<vel value="0.00533353224016072" flag="0"/>
			<psa03 value="0.0164203898289057" flag="0"/>
			<psa10 value="0.00736098783283807" flag="0"/>
			<psa30 value="0.000509166311315932" flag="0"/>
		</comp>
		<comp name="--.HNN" depth="0.0">
			<acc value="0.010781875591569" flag="0"/>
			<vel value="0.00920082204442745" flag="0"/>
			<psa03 value="0.0216104857966253" flag="0"/>
			<psa10 value="0.0106750430770535" flag="0"/>
			<psa30 value="0.000476951922550777" flag="0"/>
		</comp>
		<comp name="--.HNZ" depth="0.0">
			<acc value="0.00375451534415865" flag="0"/>
			<vel value="0.00266550387670385" flag="0"/>
			<psa03 value="0.00675607319935904" flag="0"/>
			<psa10 value="0.00258520469840374" flag="0"/>
			<psa30 value="0.000217447124164801" flag="0"/>
		</comp>
	</station>
	<station code="LTHK" name="LTHK" netid="HP" source="University of Patras, Seismological Laboratory (PSLNET)" insttype="" lat="37.7095" lon="20.8367" esm:processing="manual (Paolucci et al 2011)" esm:quality="best">
		<comp name="--.HNE" depth="0.0">
			<acc value="0.102375693453063" flag="0"/>
			<vel value="0.0188625801855217" flag="0"/>
			<psa03 value="0.0820572069379104" flag="0"/>
			<psa10 value="0.0101636396554066" flag="0"/>
			<psa30 value="0.000885895691041781" flag="0"/>
		</comp>
		<comp name="--.HNN" depth="0.0">
			<acc value="0.126439676112526" flag="0"/>
			<vel value="0.0244896475852672" flag="0"/>
			<psa03 value="0.169662447496487" flag="0"/>
			<psa10 value="0.00782406967133718" flag="0"/>
			<psa30 value="0.000611178542405592" flag="0"/>
		</comp>
		<comp name="--.HNZ" depth="0.0">
			<acc value="0.0636747407217422" flag="0"/>
			<vel value="0.0105002580642032" flag="0"/>
			<psa03 value="0.0764196889040082" flag="0"/>
			<psa10 value="0.00626569861482278" flag="0"/>
			<psa30 value="0.000357937652946174" flag="0"/>
		</comp>
	</station>
	<station code="PVO" name="PVO" netid="HP" source="University of Patras, Seismological Laboratory (PSLNET)" insttype="" lat="38.616" lon="21.525" esm:processing="manual (Paolucci et al 2011)" esm:quality="best">
		<comp name="--.HNE" depth="0.0">
			<acc value="0.00616179418866065" flag="0"/>
			<vel value="0.00324527546686394" flag="0"/>
			<psa03 value="0.0213867747635339" flag="0"/>
			<psa10 value="0.00236775757423894" flag="0"/>
			<psa30 value="0.000247424402599043" flag="0"/>
		</comp>
		<comp name="--.HNN" depth="0.0">
			<acc value="0.00735243992608648" flag="0"/>
			<vel value="0.00389279221521966" flag="0"/>
			<psa03 value="0.024697698053286" flag="0"/>
			<psa10 value="0.00472746155128659" flag="0"/>
			<psa30 value="0.000255477999790332" flag="0"/>
		</comp>
		<comp name="--.HNZ" depth="0.0">
			<acc value="0.00420818844064312" flag="0"/>
			<vel value="0.00174822587380028" flag="0"/>
			<psa03 value="0.00680081540597731" flag="0"/>
			<psa10 value="0.00168722861157503" flag="0"/>
			<psa30 value="0.00014988639217121" flag="0"/>
		</comp>
	</station>
</stationlist>
