<?xml version="1.0" encoding="UTF-8" standalone="yes"?>
<!DOCTYPE earthquake SYSTEM "stationlist.dtd">
<stationlist created="" xmlns="ch.ethz.sed.shakemap.usgs.xml">
  <station code="DARE" name="DARE" netid="KO" insttype="CMG-3ESP" lat="38.5712" lon="37.4832">
    <comp name="--.HHZ">
      <acc value="0.0038639910" flag="0"/>
      <vel value="0.0017454826" flag="0"/>
      <psa03 value="0.0057690902" flag="0"/>
      <psa10 value="0.0036070513" flag="0"/>
      <psa30 value="0.0004557089" flag="0"/>
    </comp>
    <comp name="--.HHE">
      <acc value="0.0057337276" flag="0"/>
      <vel value="0.0019980077" flag="0"/>
      <psa03 value="0.0077567522" flag="0"/>
      <psa10 value="0.0031978093" flag="0"/>
      <psa30 value="0.0001920471" flag="0"/>
    </comp>
    <comp name="--.HHN">
      <acc value="0.0033338792" flag="0"/>
      <vel value="0.0012380209" flag="0"/>
      <psa03 value="0.0069733175" flag="0"/>
      <psa10 value="0.0031093676" flag="0"/>
      <psa30 value="0.0003446258" flag="0"/>
    </comp>
  </station>
  <station code="ANDN" name="ANDN" netid="TU" insttype="T" lat="37.58" lon="36.3452">
    <comp name="--.HHZ">
      <acc value="0.0290280056" flag="0"/>
      <vel value="0.0144693566" flag="0"/>
      <psa03 value="0.0533182619" flag="0"/>
      <psa10 value="0.0105887700" flag="0"/>
      <psa30 value="0.0010476178" flag="0"/>
    </comp>
    <comp name="--.HHN">
      <acc value="0.0785571053" flag="0"/>
      <vel value="0.0201995505" flag="0"/>
      <psa03 value="0.1317428418" flag="0"/>
      <psa10 value="0.0183369192" flag="0"/>
      <psa30 value="0.0018590664" flag="0"/>
    </comp>
    <comp name="--.HHE">
      <acc value="0.0400051657" flag="0"/>
      <vel value="0.0141244824" flag="0"/>
      <psa03 value="0.0815891953" flag="0"/>
      <psa10 value="0.0072533423" flag="0"/>
      <psa30 value="0.0008333041" flag="0"/>
    </comp>
  </station>
</stationlist>
