<?xml version="1.0" encoding="UTF-8" standalone="yes"?>
<!DOCTYPE earthquake SYSTEM "stationlist.dtd">
<stationlist created="" xmlns="ch.ethz.sed.shakemap.usgs.xml">
  <station code="DARE" name="DARE" netid="KO" insttype="CMG-3ESP" lat="38.5712" lon="37.4832">
    <comp name="--.HHZ">
      <acc value="0.0085237322" flag="0"/>
      <vel value="0.0052205174" flag="0"/>
      <psa03 value="0.0227923727" flag="0"/>
      <psa10 value="0.0086507239" flag="0"/>
      <psa30 value="0.0015860011" flag="0"/>
    </comp>
  </station>
  <station code="GAZ" name="GAZ" netid="KO" insttype="CMG-3T" lat="37.1721" lon="37.2096">
    <comp name="--.HHE">
      <acc value="0.0244022079" flag="0"/>
      <vel value="0.0091706105" flag="0"/>
      <psa03 value="0.0308622350" flag="0"/>
      <psa10 value="0.0103149318" flag="0"/>
      <psa30 value="0.0010003250" flag="0"/>
    </comp>
  </station>
  <station code="KMRS" name="KMRS" netid="KO" insttype="CMG-3T" lat="37.5053" lon="36.9">
    <comp name="--.HHE">
      <acc value="0.0119202057" flag="0"/>
      <vel value="0.0054458012" flag="0"/>
      <psa03 value="0.0375464122" flag="0"/>
      <psa10 value="0.0065002194" flag="0"/>
      <psa30 value="0.0006473921" flag="0"/>
    </comp>
    <comp name="--.HHZ">
      <acc value="0.0094588377" flag="0"/>
      <vel value="0.0051595064" flag="0"/>
      <psa03 value="0.0246457229" flag="0"/>
      <psa10 value="0.0040664291" flag="0"/>
      <psa30 value="0.0007213751" flag="0"/>
    </comp>
  </station>
</stationlist>
