<?xml version="1.0" encoding="UTF-8" standalone="yes"?>
<!DOCTYPE earthquake SYSTEM "stationlist.dtd">
<stationlist created="" xmlns="ch.ethz.sed.shakemap.usgs.xml">
  <station code="DARE" name="DARE" netid="KO" insttype="CMG-3ESP" lat="38.5712" lon="37.4832">
    <comp name="--.HHZ">
      <acc value="0.0085237320" flag="0"/>
      <vel value="0.0052205169" flag="0"/>
      <psa03 value="0.0227923727" flag="0"/>
      <psa10 value="0.0086507239" flag="0"/>
      <psa30 value="0.0015860025" flag="0"/>
    </comp>
  </station>
  <station code="GAZ" name="GAZ" netid="KO" insttype="CMG-3T" lat="37.1721" lon="37.2096">
    <comp name="--.HHE">
      <acc value="0.0244022076" flag="0"/>
      <vel value="0.0091706111" flag="0"/>
      <psa03 value="0.0308622350" flag="0"/>
      <psa10 value="0.0103149318" flag="0"/>
      <psa30 value="0.0010003258" flag="0"/>
    </comp>
  </station>
  <station code="KMRS" name="KMRS" netid="KO" insttype="CMG-3T" lat="37.5053" lon="36.9">
    <comp name="--.HHE">
      <acc value="0.0119202055" flag="0"/>
      <vel value="0.0054458020" flag="0"/>
      <psa03 value="0.0375464122" flag="0"/>
      <psa10 value="0.0065002193" flag="0"/>
      <psa30 value="0.0006473891" flag="0"/>
    </comp>
    <comp name="--.HHZ">
      <acc value="0.0094588376" flag="0"/>
      <vel value="0.0051595067" flag="0"/>
      <psa03 value="0.0246457229" flag="0"/>
      <psa10 value="0.0040664290" flag="0"/>
      <psa30 value="0.0007213611" flag="0"/>
    </comp>
  </station>
</stationlist>
