<stationlist created="1719997278">
	<station code="ABEA" name="ABEA" netid="HC" source="Seismological Network of Crete (HC)" insttype="" lat="35.5163" lon="24.0113">
		<comp name=".HNE" depth="0.0">
			<acc value="0.0014463639029688" flag="0"/>
			<vel value="0.00140724447102" flag="0"/>
			<psa03 value="0.001176495661675" flag="0"/>
			<psa10 value="0.000964337710764327" flag="0"/>
			<psa30 value="0.000800543761260208" flag="0"/>
		</comp>
		<comp name=".HNN" depth="0.0">
			<acc value="0.001314537430077" flag="0"/>
			<vel value="0.00205572887786" flag="0"/>
			<psa03 value="0.00115902274310841" flag="0"/>
			<psa10 value="0.00107555660190917" flag="0"/>
			<psa30 value="0.000754642751794536" flag="0"/>
		</comp>
		<comp name=".HNZ" depth="0.0">
			<acc value="0.001693593094281" flag="0"/>
			<vel value="0.00307811641245" flag="0"/>
			<psa03 value="0.00100849519327298" flag="0"/>
			<psa10 value="0.000865296638060249" flag="0"/>
			<psa30 value="0.000602578615793511" flag="0"/>
		</comp>
	</station>
	<station code="ATEI" name="ATEI" netid="HC" source="Seismological Network of Crete (HC)" insttype="" lat="35.5193" lon="24.0432">
		<comp name=".HNE" depth="0.0">
			<acc value="0.020437234921908" flag="0"/>
			<vel value="0.0232946587266" flag="0"/>
			<psa03 value="0.0580018735893284" flag="0"/>
			<psa10 value="0.0351352450375454" flag="0"/>
			<psa30 value="0.0115818314061705" flag="0"/>
		</comp>
		<comp name=".HNN" depth="0.0">
			<acc value="0.024789167675076" flag="0"/>
			<vel value="0.0312748394558" flag="0"/>
			<psa03 value="0.0534636146187874" flag="0"/>
			<psa10 value="0.038374623380448" flag="0"/>
			<psa30 value="0.00994777399120085" flag="0"/>
		</comp>
		<comp name=".HNZ" depth="0.0">
			<acc value="0.018212161654206" flag="0"/>
			<vel value="0.012954059807" flag="0"/>
			<psa03 value="0.0386278349461739" flag="0"/>
			<psa10 value="0.0213266934137618" flag="0"/>
			<psa30 value="0.00543639305100493" flag="0"/>
		</comp>
	</station>
	<station code="G0LD" name="G0LD" netid="HC" source="Seismological Network of Crete (HC)" insttype="" lat="35.4955" lon="24.0306">
		<comp name=".HNE" depth="0.0">
			<acc value="0.00210840760203" flag="0"/>
			<vel value="0.0033325967977" flag="0"/>
			<psa03 value="0.00185386857792442" flag="0"/>
			<psa10 value="0.00210368990600752" flag="0"/>
			<psa30 value="0.00141568638644377" flag="0"/>
		</comp>
		<comp name=".HNN" depth="0.0">
			<acc value="0.002394197974575" flag="0"/>
			<vel value="0.00273648200787" flag="0"/>
			<psa03 value="0.00149419875546886" flag="0"/>
			<psa10 value="0.00143448725430099" flag="0"/>
			<psa30 value="0.000891358527295324" flag="0"/>
		</comp>
		<comp name=".HNZ" depth="0.0">
			<acc value="0.004145443909818" flag="0"/>
			<vel value="0.0059975252506" flag="0"/>
			<psa03 value="0.00209028951308627" flag="0"/>
			<psa10 value="0.00190167386718549" flag="0"/>
			<psa30 value="0.00205241971273338" flag="0"/>
		</comp>
	</station>
	<station code="LENT" name="LENT" netid="HC" source="Seismological Network of Crete (HC)" insttype="" lat="35.5074" lon="24.0402">
		<comp name=".HNE" depth="0.0">
			<acc value="0.0025211138738904" flag="0"/>
			<vel value="0.00236889497088" flag="0"/>
			<psa03 value="0.00114817404266409" flag="0"/>
			<psa10 value="0.00103429472788569" flag="0"/>
			<psa30 value="0.000898354407402379" flag="0"/>
		</comp>
		<comp name=".HNN" depth="0.0">
			<acc value="0.0022292326283124" flag="0"/>
			<vel value="0.00224685416839" flag="0"/>
			<psa03 value="0.00115589525728197" flag="0"/>
			<psa10 value="0.00089261825267245" flag="0"/>
			<psa30 value="0.00064611811465447" flag="0"/>
		</comp>
		<comp name=".HNZ" depth="0.0">
			<acc value="0.0023493989693988" flag="0"/>
			<vel value="0.00175952162501" flag="0"/>
			<psa03 value="0.00124168520151255" flag="0"/>
			<psa10 value="0.000829586538066983" flag="0"/>
			<psa30 value="0.000687674305047288" flag="0"/>
		</comp>
	</station>
	<station code="MULT" name="MULT" netid="HC" source="Seismological Network of Crete (HC)" insttype="" lat="35.5091" lon="24.0118">
		<comp name=".HNE" depth="0.0">
			<acc value="0.032831667096054" flag="0"/>
			<vel value="0.0351166497493" flag="0"/>
			<psa03 value="0.0789081804047198" flag="0"/>
			<psa10 value="0.0588291983957489" flag="0"/>
			<psa30 value="0.0085964194705918" flag="0"/>
		</comp>
		<comp name=".HNN" depth="0.0">
			<acc value="0.032710534129752" flag="0"/>
			<vel value="0.0406873607631" flag="0"/>
			<psa03 value="0.0652687351915682" flag="0"/>
			<psa10 value="0.0608271244984935" flag="0"/>
			<psa30 value="0.0147147397792901" flag="0"/>
		</comp>
		<comp name=".HNZ" depth="0.0">
			<acc value="0.023888804475084" flag="0"/>
			<vel value="0.0252628660329" flag="0"/>
			<psa03 value="0.0471247207395846" flag="0"/>
			<psa10 value="0.0404279781553003" flag="0"/>
			<psa30 value="0.00564643446521953" flag="0"/>
		</comp>
	</station>
	<station code="PASK" name="PASK" netid="HC" source="Seismological Network of Crete (HC)" insttype="" lat="35.4996" lon="24.0121">
		<comp name=".HNE" depth="0.0">
			<acc value="0.044506066172568" flag="0"/>
			<vel value="0.0452673516469" flag="0"/>
			<psa03 value="0.105431203049602" flag="0"/>
			<psa10 value="0.0857740921125098" flag="0"/>
			<psa30 value="0.00805491193172401" flag="0"/>
		</comp>
		<comp name=".HNN" depth="0.0">
			<acc value="0.057841283325606" flag="0"/>
			<vel value="0.0478411299195" flag="0"/>
			<psa03 value="0.135828998004388" flag="0"/>
			<psa10 value="0.0518011203200952" flag="0"/>
			<psa30 value="0.0107167274305799" flag="0"/>
		</comp>
		<comp name=".HNZ" depth="0.0">
			<acc value="0.030297997444158" flag="0"/>
			<vel value="0.0256705379515" flag="0"/>
			<psa03 value="0.0964433263969307" flag="0"/>
			<psa10 value="0.0334842919200043" flag="0"/>
			<psa30 value="0.00567189448519494" flag="0"/>
		</comp>
	</station>
	<station code="POLY" name="POLY" netid="HC" source="Seismological Network of Crete (HC)" insttype="" lat="35.5226" lon="24.0602">
		<comp name=".HNE" depth="0.0">
			<acc value="0.0010417558177008" flag="0"/>
			<vel value="0.00257923837658" flag="0"/>
			<psa03 value="0.00128907912888886" flag="0"/>
			<psa10 value="0.00101477573953762" flag="0"/>
			<psa30 value="0.000777794910511651" flag="0"/>
		</comp>
		<comp name=".HNN" depth="0.0">
			<acc value="0.0011502546608988" flag="0"/>
			<vel value="0.00235386830377" flag="0"/>
			<psa03 value="0.00118658153489214" flag="0"/>
			<psa10 value="0.00122567213226439" flag="0"/>
			<psa30 value="0.00125076337776804" flag="0"/>
		</comp>
		<comp name=".HNZ" depth="0.0">
			<acc value="0.0013980550528128" flag="0"/>
			<vel value="0.00210103193613" flag="0"/>
			<psa03 value="0.0012301276324948" flag="0"/>
			<psa10 value="0.000995155846067666" flag="0"/>
			<psa30 value="0.000776928238515497" flag="0"/>
		</comp>
	</station>
	<station code="AGN1" name="AGN1" netid="HI" source="ITSAK Strong Motion Network" insttype="" lat="35.1879" lon="25.7155">
		<comp name=".HNE" depth="0.0">
			<acc value="0.047132704767414" flag="0"/>
			<vel value="0.0244696043952" flag="0"/>
			<psa03 value="0.0933584345382184" flag="0"/>
			<psa10 value="0.0185067072285293" flag="0"/>
			<psa30 value="0.0109705509118016" flag="0"/>
		</comp>
		<comp name=".HNN" depth="0.0">
			<acc value="0.046136092857006" flag="0"/>
			<vel value="0.0202941043766" flag="0"/>
			<psa03 value="0.101978276393708" flag="0"/>
			<psa10 value="0.0153156770884501" flag="0"/>
			<psa30 value="0.00665669805692542" flag="0"/>
		</comp>
		<comp name=".HNZ" depth="0.0">
			<acc value="0.027083096275746" flag="0"/>
			<vel value="0.0169084306692" flag="0"/>
			<psa03 value="0.0711841791442274" flag="0"/>
			<psa10 value="0.0140085570606724" flag="0"/>
			<psa30 value="0.00467879286373743" flag="0"/>
		</comp>
	</station>
	<station code="ARK1" name="ARK1" netid="HI" source="ITSAK Strong Motion Network" insttype="" lat="35.148777" lon="25.264194">
		<comp name=".HNE" depth="0.0">
			<acc value="0.37749206781936" flag="0"/>
			<vel value="0.18102824039" flag="0"/>
			<psa03 value="1.21399400447919" flag="0"/>
			<psa10 value="0.0641647856019736" flag="0"/>
			<psa30 value="0.0156118475416319" flag="0"/>
		</comp>
		<comp name=".HNN" depth="0.0">
			<acc value="0.5943335438949" flag="0"/>
			<vel value="0.291896602433" flag="0"/>
			<psa03 value="1.15867175631833" flag="0"/>
			<psa10 value="0.117090039140303" flag="0"/>
			<psa30 value="0.0146944134327648" flag="0"/>
		</comp>
		<comp name=".HNZ" depth="0.0">
			<acc value="0.1291358272236" flag="0"/>
			<vel value="0.0521081963864" flag="0"/>
			<psa03 value="0.270418434727633" flag="0"/>
			<psa10 value="0.0444666094446589" flag="0"/>
			<psa30 value="0.0116244467292239" flag="0"/>
		</comp>
	</station>
	<station code="CH01" name="CH01" netid="HI" source="ITSAK Strong Motion Network" insttype="" lat="35.517" lon="24.0208">
		<comp name=".HNE" depth="0.0">
			<acc value="0.028590794159754" flag="0"/>
			<vel value="0.036223777321" flag="0"/>
			<psa03 value="0.0805932868263216" flag="0"/>
			<psa10 value="0.0451740150566997" flag="0"/>
			<psa30 value="0.0105616913268909" flag="0"/>
		</comp>
		<comp name=".HNN" depth="0.0">
			<acc value="0.030451223796846" flag="0"/>
			<vel value="0.0303010233591" flag="0"/>
			<psa03 value="0.0698083380014437" flag="0"/>
			<psa10 value="0.0426387983611708" flag="0"/>
			<psa30 value="0.0130421814804944" flag="0"/>
		</comp>
		<comp name=".HNZ" depth="0.0">
			<acc value="0.019853340295158" flag="0"/>
			<vel value="0.0166930797955" flag="0"/>
			<psa03 value="0.0416455062062345" flag="0"/>
			<psa10 value="0.0356981498272468" flag="0"/>
			<psa30 value="0.00563127804451728" flag="0"/>
		</comp>
	</station>
	<station code="GOR1" name="GOR1" netid="HI" source="ITSAK Strong Motion Network" insttype="" lat="35.0582" lon="24.9628">
		<comp name=".HNE" depth="0.0">
			<acc value="0.29959321706724" flag="0"/>
			<vel value="0.243735349435" flag="0"/>
			<psa03 value="0.95608125235812" flag="0"/>
			<psa10 value="0.358952928869974" flag="0"/>
			<psa30 value="0.0427952649762915" flag="0"/>
		</comp>
		<comp name=".HNN" depth="0.0">
			<acc value="0.42093231614436" flag="0"/>
			<vel value="0.276696503261" flag="0"/>
			<psa03 value="0.901686232286881" flag="0"/>
			<psa10 value="0.374108462849653" flag="0"/>
			<psa30 value="0.0646537629945995" flag="0"/>
		</comp>
		<comp name=".HNZ" depth="0.0">
			<acc value="0.28838852005074" flag="0"/>
			<vel value="0.149525856518" flag="0"/>
			<psa03 value="0.817773756830228" flag="0"/>
			<psa10 value="0.199345145637404" flag="0"/>
			<psa30 value="0.0209743177789486" flag="0"/>
		</comp>
	</station>
	<station code="HER1" name="HER1" netid="HI" source="ITSAK Strong Motion Network" insttype="" lat="35.317672" lon="25.10217">
		<comp name=".HNE" depth="0.0">
			<acc value="0.1710904828857" flag="0"/>
			<vel value="0.295799122986" flag="0"/>
			<psa03 value="0.390495951773787" flag="0"/>
			<psa10 value="0.437058392975108" flag="0"/>
			<psa30 value="0.030596016835938" flag="0"/>
		</comp>
		<comp name=".HNN" depth="0.0">
			<acc value="0.16699912135356" flag="0"/>
			<vel value="0.205139025105" flag="0"/>
			<psa03 value="0.467400171299729" flag="0"/>
			<psa10 value="0.241849816363201" flag="0"/>
			<psa30 value="0.0344763872247838" flag="0"/>
		</comp>
		<comp name=".HNZ" depth="0.0">
			<acc value="0.14851625054808" flag="0"/>
			<vel value="0.168505055869" flag="0"/>
			<psa03 value="0.376249633024761" flag="0"/>
			<psa10 value="0.2493800002012" flag="0"/>
			<psa30 value="0.0127331126728933" flag="0"/>
		</comp>
	</station>
	<station code="HER3" name="HER3" netid="HI" source="ITSAK Strong Motion Network" insttype="" lat="35.3296" lon="25.1065">
		<comp name=".HNE" depth="0.0">
			<acc value="0.21231030479586" flag="0"/>
			<vel value="0.154899774691" flag="0"/>
			<psa03 value="0.349961516566302" flag="0"/>
			<psa10 value="0.244939481038595" flag="0"/>
			<psa30 value="0.0168752912385409" flag="0"/>
		</comp>
		<comp name=".HNN" depth="0.0">
			<acc value="0.21173231355528" flag="0"/>
			<vel value="0.167592306115" flag="0"/>
			<psa03 value="0.480120513959657" flag="0"/>
			<psa10 value="0.314566278472155" flag="0"/>
			<psa30 value="0.0241008432292299" flag="0"/>
		</comp>
		<comp name=".HNZ" depth="0.0">
			<acc value="0.094697524309854" flag="0"/>
			<vel value="0.0646665036025" flag="0"/>
			<psa03 value="0.244022227774864" flag="0"/>
			<psa10 value="0.0729389043442948" flag="0"/>
			<psa30 value="0.00973344145937554" flag="0"/>
		</comp>
	</station>
	<station code="KSS1" name="KSS1" netid="HI" source="ITSAK Strong Motion Network" insttype="" lat="35.4189" lon="26.9207">
		<comp name=".HNE" depth="0.0">
			<acc value="0.0032131589203452" flag="0"/>
			<vel value="0.00444009665028" flag="0"/>
			<psa03 value="0.0115162173199817" flag="0"/>
			<psa10 value="0.00435983209872545" flag="0"/>
			<psa30 value="0.00281186814746518" flag="0"/>
		</comp>
		<comp name=".HNN" depth="0.0">
			<acc value="0.0031717772795742" flag="0"/>
			<vel value="0.00432923574799" flag="0"/>
			<psa03 value="0.0109844451135134" flag="0"/>
			<psa10 value="0.00446240139345502" flag="0"/>
			<psa30 value="0.00171991831114544" flag="0"/>
		</comp>
		<comp name=".HNZ" depth="0.0">
			<acc value="0.0021101164849584" flag="0"/>
			<vel value="0.0044892741828" flag="0"/>
			<psa03 value="0.00347182178802917" flag="0"/>
			<psa10 value="0.00480510753353815" flag="0"/>
			<psa30 value="0.00165559071642862" flag="0"/>
		</comp>
	</station>
	<station code="KTL1" name="KTL1" netid="HI" source="ITSAK Strong Motion Network" insttype="" lat="35.20778" lon="25.34272">
		<comp name=".HNE" depth="0.0">
			<acc value="0.11320410612132" flag="0"/>
			<vel value="0.0687366083296" flag="0"/>
			<psa03 value="0.341459307503491" flag="0"/>
			<psa10 value="0.0588307847506396" flag="0"/>
			<psa30 value="0.00829624375211985" flag="0"/>
		</comp>
		<comp name=".HNN" depth="0.0">
			<acc value="0.11782634846514" flag="0"/>
			<vel value="0.0744527058668" flag="0"/>
			<psa03 value="0.25989340416253" flag="0"/>
			<psa10 value="0.0404995216444801" flag="0"/>
			<psa30 value="0.0120649900797026" flag="0"/>
		</comp>
		<comp name=".HNZ" depth="0.0">
			<acc value="0.055573880544954" flag="0"/>
			<vel value="0.0494253203631" flag="0"/>
			<psa03 value="0.128835024271483" flag="0"/>
			<psa10 value="0.0233433163801392" flag="0"/>
			<psa30 value="0.011587950978215" flag="0"/>
		</comp>
	</station>
	<station code="RTH1" name="RTH1" netid="HI" source="ITSAK Strong Motion Network" insttype="" lat="35.365393" lon="24.471773">
		<comp name=".HNE" depth="0.0">
			<acc value="0.091934040074556" flag="0"/>
			<vel value="0.0395246659788" flag="0"/>
			<psa03 value="0.296790619255444" flag="0"/>
			<psa10 value="0.0505490511263694" flag="0"/>
			<psa30 value="0.0167599785996527" flag="0"/>
		</comp>
		<comp name=".HNN" depth="0.0">
			<acc value="0.095134251272124" flag="0"/>
			<vel value="0.0476072558654" flag="0"/>
			<psa03 value="0.230519312439671" flag="0"/>
			<psa10 value="0.0269453681234067" flag="0"/>
			<psa30 value="0.00992841104183258" flag="0"/>
		</comp>
		<comp name=".HNZ" depth="0.0">
			<acc value="0.056437844010666" flag="0"/>
			<vel value="0.0353496686971" flag="0"/>
			<psa03 value="0.176020368818731" flag="0"/>
			<psa10 value="0.0215695257502167" flag="0"/>
			<psa30 value="0.0105776415501766" flag="0"/>
		</comp>
	</station>
	<station code="ANKY" name="ANKY" netid="HL" source="National Observatory of Athens Seismic Network" insttype="" lat="35.86704" lon="23.30117">
		<comp name="00.HNE" depth="0.0">
			<acc value="0.0079786343404878" flag="0"/>
			<vel value="0.0109189420115" flag="0"/>
			<psa03 value="0.0228941937112998" flag="0"/>
			<psa10 value="0.0197441392023241" flag="0"/>
			<psa30 value="0.00337811128329474" flag="0"/>
		</comp>
		<comp name="00.HNN" depth="0.0">
			<acc value="0.0056394593508402" flag="0"/>
			<vel value="0.00955069338437" flag="0"/>
			<psa03 value="0.0165508828730929" flag="0"/>
			<psa10 value="0.0144143283160286" flag="0"/>
			<psa30 value="0.00448740518525236" flag="0"/>
		</comp>
		<comp name="00.HNZ" depth="0.0">
			<acc value="0.0072853599184902" flag="0"/>
			<vel value="0.00553121604703" flag="0"/>
			<psa03 value="0.00976198066767451" flag="0"/>
			<psa10 value="0.00642852632707688" flag="0"/>
			<psa30 value="0.00173239486682336" flag="0"/>
		</comp>
	</station>
	<station code="IMMV" name="IMMV" netid="HL" source="National Observatory of Athens Seismic Network" insttype="" lat="35.4606" lon="23.9811">
		<comp name=".HNE" depth="0.0">
			<acc value="0.035889597093978" flag="0"/>
			<vel value="0.0226549346428" flag="0"/>
			<psa03 value="0.145038264323086" flag="0"/>
			<psa10 value="0.0444930524464843" flag="0"/>
			<psa30 value="0.00729433738072493" flag="0"/>
		</comp>
		<comp name=".HNN" depth="0.0">
			<acc value="0.047766391526484" flag="0"/>
			<vel value="0.0251330405252" flag="0"/>
			<psa03 value="0.119826948363956" flag="0"/>
			<psa10 value="0.0377130608051945" flag="0"/>
			<psa30 value="0.00631960197593969" flag="0"/>
		</comp>
		<comp name=".HNZ" depth="0.0">
			<acc value="0.045586788533904" flag="0"/>
			<vel value="0.0190072100382" flag="0"/>
			<psa03 value="0.143333224289163" flag="0"/>
			<psa10 value="0.0224852595380927" flag="0"/>
			<psa30 value="0.00316976539806903" flag="0"/>
		</comp>
	</station>
	<station code="SIVA" name="SIVA" netid="HL" source="National Observatory of Athens Seismic Network" insttype="" lat="35.01777" lon="24.81204">
		<comp name="00.HNE" depth="0.0">
			<acc value="1.8385951477806" flag="0"/>
			<vel value="0.889876292352" flag="0"/>
			<psa03 value="5.31124351047883" flag="0"/>
			<psa10 value="0.859312605240851" flag="0"/>
			<psa30 value="0.0516525750629948" flag="0"/>
		</comp>
		<comp name="00.HNN" depth="0.0">
			<acc value="1.6493350627002" flag="0"/>
			<vel value="0.902665853182" flag="0"/>
			<psa03 value="3.54951947157831" flag="0"/>
			<psa10 value="0.848823370381065" flag="0"/>
			<psa30 value="0.033356856394707" flag="0"/>
		</comp>
		<comp name="00.HNZ" depth="0.0">
			<acc value="0.82336179981498" flag="0"/>
			<vel value="0.310906497753" flag="0"/>
			<psa03 value="1.14962782386862" flag="0"/>
			<psa10 value="0.304831323578961" flag="0"/>
			<psa30 value="0.0260473871782275" flag="0"/>
		</comp>
	</station>
</stationlist>
