<?xml version="1.0" encoding="UTF-8" standalone="yes"?>
<!DOCTYPE earthquake SYSTEM "stationlist.dtd">
<stationlist created="" xmlns="ch.ethz.sed.shakemap.usgs.xml">
  <station code="IMMV" name="IMMV" netid="GE" insttype="STS-2/N" lat="35.4606" lon="23.9811">
    <comp name="--.HHE">
      <acc value="0.0382794655" flag="0"/>
      <vel value="0.0243534998" flag="0"/>
      <psa03 value="0.1523727221" flag="0"/>
      <psa10 value="0.0462761165" flag="0"/>
      <psa30 value="0.0065059824" flag="0"/>
    </comp>
    <comp name="--.HHZ">
      <acc value="0.0476216938" flag="0"/>
      <vel value="0.0187486804" flag="0"/>
      <psa03 value="0.1480578356" flag="0"/>
      <psa10 value="0.0227400788" flag="0"/>
      <psa30 value="0.0028134979" flag="0"/>
    </comp>
    <comp name="--.HHN">
      <acc value="0.0511870946" flag="0"/>
      <vel value="0.0264242172" flag="0"/>
      <psa03 value="0.1260013751" flag="0"/>
      <psa10 value="0.0385429035" flag="0"/>
      <psa30 value="0.0059770036" flag="0"/>
    </comp>
  </station>
  <station code="ZKR" name="ZKR" netid="GE" insttype="STS-2/N" lat="35.1147" lon="26.2169">
    <comp name="--.HHE">
      <acc value="0.0110374340" flag="0"/>
      <vel value="0.0106060597" flag="0"/>
      <psa03 value="0.0375661460" flag="0"/>
      <psa10 value="0.0178582362" flag="0"/>
      <psa30 value="0.0039869775" flag="0"/>
    </comp>
    <comp name="--.HHN">
      <acc value="0.0061388753" flag="0"/>
      <vel value="0.0069753870" flag="0"/>
      <psa03 value="0.0216565008" flag="0"/>
      <psa10 value="0.0064391438" flag="0"/>
      <psa30 value="0.0012749947" flag="0"/>
    </comp>
    <comp name="--.HHZ">
      <acc value="0.0061200509" flag="0"/>
      <vel value="0.0066440091" flag="0"/>
      <psa03 value="0.0182110811" flag="0"/>
      <psa10 value="0.0096590583" flag="0"/>
      <psa30 value="0.0032595945" flag="0"/>
    </comp>
  </station>
  <station code="CHAN" name="CHAN" netid="HC" insttype="120" lat="35.5193" lon="24.0428">
    <comp name="--.HHE">
      <acc value="0.0413878893" flag="0"/>
      <vel value="0.0479433268" flag="0"/>
      <psa03 value="0.1132433625" flag="0"/>
      <psa10 value="0.0742296675" flag="0"/>
      <psa30 value="0.0196342521" flag="0"/>
    </comp>
    <comp name="--.HHN">
      <acc value="0.0489903386" flag="0"/>
      <vel value="0.0567108154" flag="0"/>
      <psa03 value="0.0956253146" flag="0"/>
      <psa10 value="0.0668474694" flag="0"/>
      <psa30 value="0.0149851512" flag="0"/>
    </comp>
    <comp name="--.HHZ">
      <acc value="0.0330047084" flag="0"/>
      <vel value="0.0234057441" flag="0"/>
      <psa03 value="0.0741142571" flag="0"/>
      <psa10 value="0.0415128867" flag="0"/>
      <psa30 value="0.0080914494" flag="0"/>
    </comp>
  </station>
  <station code="IMOD" name="IMOD" netid="HC" insttype="120" lat="34.9731" lon="24.7995">
    <comp name="--.HHE">
      <acc value="1.2848868062" flag="0"/>
      <vel value="0.6306120480" flag="0"/>
      <psa03 value="3.3444247250" flag="0"/>
      <psa10 value="0.8515983869" flag="0"/>
      <psa30 value="0.0677340922" flag="0"/>
    </comp>
    <comp name="--.HHN">
      <acc value="12.1323677697" flag="0"/>
      <vel value="0.7580910920" flag="0"/>
      <psa03 value="6.1656022150" flag="0"/>
      <psa10 value="0.5995117941" flag="0"/>
      <psa30 value="0.0494294054" flag="0"/>
    </comp>
    <comp name="--.HHZ">
      <acc value="0.7612681322" flag="0"/>
      <vel value="0.2676454083" flag="0"/>
      <psa03 value="2.0294832456" flag="0"/>
      <psa10 value="0.1855021455" flag="0"/>
      <psa30 value="0.0203221509" flag="0"/>
    </comp>
  </station>
  <station code="IPPL" name="IPPL" netid="HC" insttype="60" lat="35.3486" lon="24.4632">
    <comp name="--.HHE">
      <acc value="0.0000000000" flag="0"/>
      <vel value="-100.0000000000" flag="0"/>
      <psa03 value="0.0000000000" flag="0"/>
      <psa10 value="0.0000000000" flag="0"/>
      <psa30 value="0.0000000000" flag="0"/>
    </comp>
    <comp name="--.HHZ">
      <acc value="0.0569195258" flag="0"/>
      <vel value="0.0280054976" flag="0"/>
      <psa03 value="0.1948519214" flag="0"/>
      <psa10 value="0.0249130920" flag="0"/>
      <psa30 value="0.0075962077" flag="0"/>
    </comp>
    <comp name="--.HHN">
      <acc value="0.0000000000" flag="0"/>
      <vel value="-100.0000000000" flag="0"/>
      <psa03 value="0.0000000000" flag="0"/>
      <psa10 value="0.0000000000" flag="0"/>
      <psa30 value="0.0000000000" flag="0"/>
    </comp>
  </station>
  <station code="KNDR" name="KNDR" netid="HC" insttype="120" lat="35.2348" lon="23.6248">
    <comp name="--.HHE">
      <acc value="0.0251647009" flag="0"/>
      <vel value="0.0206293913" flag="0"/>
      <psa03 value="0.1168184780" flag="0"/>
      <psa10 value="0.0255237033" flag="0"/>
      <psa30 value="0.0032885530" flag="0"/>
    </comp>
    <comp name="--.HHN">
      <acc value="0.0364765749" flag="0"/>
      <vel value="0.0217723522" flag="0"/>
      <psa03 value="0.1300227374" flag="0"/>
      <psa10 value="0.0371656487" flag="0"/>
      <psa30 value="0.0035877591" flag="0"/>
    </comp>
    <comp name="--.HHZ">
      <acc value="0.0241182024" flag="0"/>
      <vel value="0.0145420090" flag="0"/>
      <psa03 value="0.0767797855" flag="0"/>
      <psa10 value="0.0156365792" flag="0"/>
      <psa30 value="0.0039844230" flag="0"/>
    </comp>
  </station>
  <station code="KNSS" name="KNSS" netid="HC" insttype="60" lat="35.3042" lon="25.1802">
    <comp name="--.HHE">
      <acc value="0.1118770203" flag="0"/>
      <vel value="0.0469741390" flag="0"/>
      <psa03 value="0.2559218489" flag="0"/>
      <psa10 value="0.0251731729" flag="0"/>
      <psa30 value="0.0100706175" flag="0"/>
    </comp>
    <comp name="--.HHN">
      <acc value="0.1351350268" flag="0"/>
      <vel value="0.0706010442" flag="0"/>
      <psa03 value="0.4033647577" flag="0"/>
      <psa10 value="0.0299079910" flag="0"/>
      <psa30 value="0.0119488334" flag="0"/>
    </comp>
    <comp name="--.HHZ">
      <acc value="0.0793096722" flag="0"/>
      <vel value="0.0493468537" flag="0"/>
      <psa03 value="0.1802484493" flag="0"/>
      <psa10 value="0.0148342812" flag="0"/>
      <psa30 value="0.0120334219" flag="0"/>
    </comp>
  </station>
  <station code="PFKS" name="PFKS" netid="HC" insttype="120" lat="35.0429" lon="25.4733">
    <comp name="--.HHE">
      <acc value="0.0939818397" flag="0"/>
      <vel value="0.0454182959" flag="0"/>
      <psa03 value="0.2573741072" flag="0"/>
      <psa10 value="0.0370709417" flag="0"/>
      <psa30 value="0.0044784489" flag="0"/>
    </comp>
    <comp name="--.HHZ">
      <acc value="0.0606759515" flag="0"/>
      <vel value="0.0232560544" flag="0"/>
      <psa03 value="0.1177205982" flag="0"/>
      <psa10 value="0.0185124108" flag="0"/>
      <psa30 value="0.0085455337" flag="0"/>
    </comp>
    <comp name="--.HHN">
      <acc value="0.1198333810" flag="0"/>
      <vel value="0.0584383725" flag="0"/>
      <psa03 value="0.2553767372" flag="0"/>
      <psa10 value="0.0232721438" flag="0"/>
      <psa30 value="0.0048198532" flag="0"/>
    </comp>
  </station>
  <station code="STIA" name="STIA" netid="HC" insttype="120" lat="35.2021" lon="26.0909">
    <comp name="--.HHE">
      <acc value="0.0210146231" flag="0"/>
      <vel value="0.0216025694" flag="0"/>
      <psa03 value="0.0433019106" flag="0"/>
      <psa10 value="0.0290556519" flag="0"/>
      <psa30 value="0.0037507949" flag="0"/>
    </comp>
    <comp name="--.HHZ">
      <acc value="0.0128478004" flag="0"/>
      <vel value="0.0142342534" flag="0"/>
      <psa03 value="0.0281395662" flag="0"/>
      <psa10 value="0.0110705546" flag="0"/>
      <psa30 value="0.0023933394" flag="0"/>
    </comp>
    <comp name="--.HHN">
      <acc value="0.0000000000" flag="0"/>
      <vel value="-100.0000000000" flag="0"/>
      <psa03 value="0.0000000000" flag="0"/>
      <psa10 value="0.0000000000" flag="0"/>
      <psa30 value="0.0000000000" flag="0"/>
    </comp>
  </station>
  <station code="IACM" name="IACM" netid="HL" insttype="120" lat="35.3058" lon="25.0709">
    <comp name="--.HHE">
      <acc value="0.2411997867" flag="0"/>
      <vel value="0.1779827996" flag="0"/>
      <psa03 value="0.6034462816" flag="0"/>
      <psa10 value="0.2026225648" flag="0"/>
      <psa30 value="0.0193100494" flag="0"/>
    </comp>
    <comp name="--.HHN">
      <acc value="0.2882278168" flag="0"/>
      <vel value="0.1654185751" flag="0"/>
      <psa03 value="0.5607514920" flag="0"/>
      <psa10 value="0.2075695291" flag="0"/>
      <psa30 value="0.0205195981" flag="0"/>
    </comp>
    <comp name="--.HHZ">
      <acc value="0.1804331827" flag="0"/>
      <vel value="0.0744589622" flag="0"/>
      <psa03 value="0.4126227331" flag="0"/>
      <psa10 value="0.0891840637" flag="0"/>
      <psa30 value="0.0068571319" flag="0"/>
    </comp>
  </station>
  <station code="IDI" name="IDI" netid="HL" insttype="120" lat="35.288" lon="24.89">
    <comp name="--.HHN">
      <acc value="0.1861829852" flag="0"/>
      <vel value="0.0793298926" flag="0"/>
      <psa03 value="0.3509795659" flag="0"/>
      <psa10 value="0.0346185134" flag="0"/>
      <psa30 value="0.0042508681" flag="0"/>
    </comp>
    <comp name="--.HHZ">
      <acc value="0.1203468318" flag="0"/>
      <vel value="0.0471517533" flag="0"/>
      <psa03 value="0.3243116879" flag="0"/>
      <psa10 value="0.0264543948" flag="0"/>
      <psa30 value="0.0049998525" flag="0"/>
    </comp>
    <comp name="--.HHE">
      <acc value="0.1987938410" flag="0"/>
      <vel value="0.0825386926" flag="0"/>
      <psa03 value="0.2342324761" flag="0"/>
      <psa10 value="0.0635045503" flag="0"/>
      <psa30 value="0.0073275834" flag="0"/>
    </comp>
  </station>
  <station code="IMMV" name="IMMV" netid="HL" insttype="120" lat="35.4606" lon="23.9811">
    <comp name="--.HHE">
      <acc value="0.0375380097" flag="0"/>
      <vel value="0.0240790904" flag="0"/>
      <psa03 value="0.1481490464" flag="0"/>
      <psa10 value="0.0459822556" flag="0"/>
      <psa30 value="0.0065015571" flag="0"/>
    </comp>
    <comp name="--.HHN">
      <acc value="0.0498492294" flag="0"/>
      <vel value="0.0260563918" flag="0"/>
      <psa03 value="0.1222387840" flag="0"/>
      <psa10 value="0.0382768107" flag="0"/>
      <psa30 value="0.0059749068" flag="0"/>
    </comp>
    <comp name="--.HHZ">
      <acc value="0.0462522064" flag="0"/>
      <vel value="0.0182597532" flag="0"/>
      <psa03 value="0.1438069984" flag="0"/>
      <psa10 value="0.0225354352" flag="0"/>
      <psa30 value="0.0028143553" flag="0"/>
    </comp>
  </station>
  <station code="SIVA" name="SIVA" netid="HL" insttype="60" lat="35.0178" lon="24.812">
    <comp name="--.HHE">
      <acc value="1.9946068164" flag="0"/>
      <vel value="0.8829987407" flag="0"/>
      <psa03 value="5.5157360368" flag="0"/>
      <psa10 value="0.9157437712" flag="0"/>
      <psa30 value="0.0538257993" flag="0"/>
    </comp>
    <comp name="--.HHZ">
      <acc value="0.8567265904" flag="0"/>
      <vel value="0.3146721031" flag="0"/>
      <psa03 value="1.1578978353" flag="0"/>
      <psa10 value="0.3160550447" flag="0"/>
      <psa30 value="0.0254899096" flag="0"/>
    </comp>
    <comp name="--.HHN">
      <acc value="1.7121899610" flag="0"/>
      <vel value="0.8516389033" flag="0"/>
      <psa03 value="3.4455510774" flag="0"/>
      <psa10 value="0.7427070731" flag="0"/>
      <psa30 value="0.0313085360" flag="0"/>
    </comp>
  </station>
  <station code="VAM" name="VAM" netid="HL" insttype="CMG3ESPC-120s" lat="35.407" lon="24.1997">
    <comp name="--.HHE">
      <acc value="0.0808446549" flag="0"/>
      <vel value="0.0297005919" flag="0"/>
      <psa03 value="0.1262741367" flag="0"/>
      <psa10 value="0.0497809871" flag="0"/>
      <psa30 value="0.0051568374" flag="0"/>
    </comp>
    <comp name="--.HHN">
      <acc value="0.0661986755" flag="0"/>
      <vel value="0.0345971850" flag="0"/>
      <psa03 value="0.1720279262" flag="0"/>
      <psa10 value="0.0265554039" flag="0"/>
      <psa30 value="0.0035572978" flag="0"/>
    </comp>
    <comp name="--.HHZ">
      <acc value="0.0392194391" flag="0"/>
      <vel value="0.0181872251" flag="0"/>
      <psa03 value="0.0758618490" flag="0"/>
      <psa10 value="0.0188386962" flag="0"/>
      <psa30 value="0.0028942490" flag="0"/>
    </comp>
  </station>
  <station code="ZKR" name="ZKR" netid="HL" insttype="120" lat="35.1147" lon="26.2169">
    <comp name="--.HHE">
      <acc value="0.0108542848" flag="0"/>
      <vel value="0.0105224723" flag="0"/>
      <psa03 value="0.0365628060" flag="0"/>
      <psa10 value="0.0177458862" flag="0"/>
      <psa30 value="0.0039885175" flag="0"/>
    </comp>
    <comp name="--.HHN">
      <acc value="0.0060100240" flag="0"/>
      <vel value="0.0068937539" flag="0"/>
      <psa03 value="0.0210872183" flag="0"/>
      <psa10 value="0.0063813887" flag="0"/>
      <psa30 value="0.0012749647" flag="0"/>
    </comp>
    <comp name="--.HHZ">
      <acc value="0.0060391052" flag="0"/>
      <vel value="0.0066053010" flag="0"/>
      <psa03 value="0.0177508424" flag="0"/>
      <psa10 value="0.0095934835" flag="0"/>
      <psa30 value="0.0032606877" flag="0"/>
    </comp>
  </station>
  <station code="IDI" name="IDI" netid="MN" insttype="" lat="35.288" lon="24.89">
    <comp name="--.HHE">
      <acc value="0.2055049495" flag="0"/>
      <vel value="0.0821475590" flag="0"/>
      <psa03 value="0.2379092245" flag="0"/>
      <psa10 value="0.0631495576" flag="0"/>
      <psa30 value="0.0072825807" flag="0"/>
    </comp>
    <comp name="--.HHN">
      <acc value="0.1958874670" flag="0"/>
      <vel value="0.0796645280" flag="0"/>
      <psa03 value="0.3537444893" flag="0"/>
      <psa10 value="0.0347028328" flag="0"/>
      <psa30 value="0.0042073405" flag="0"/>
    </comp>
    <comp name="--.HHZ">
      <acc value="0.1223984573" flag="0"/>
      <vel value="0.0478921534" flag="0"/>
      <psa03 value="0.3284744332" flag="0"/>
      <psa10 value="0.0262243348" flag="0"/>
      <psa30 value="0.0049424514" flag="0"/>
    </comp>
  </station>
</stationlist>
