<?xml version="1.0" encoding="UTF-8" standalone="yes"?>
<!DOCTYPE earthquake SYSTEM "stationlist.dtd">
<stationlist created="" xmlns="ch.ethz.sed.shakemap.usgs.xml">
  <station code="IMMV" name="IMMV" netid="GE" insttype="STS-2/N" lat="35.4606" lon="23.9811">
    <comp name="--.HHE">
      <acc value="0.0382794646" flag="0"/>
      <vel value="0.0243534993" flag="0"/>
      <psa03 value="0.1523727221" flag="0"/>
      <psa10 value="0.0462761165" flag="0"/>
      <psa30 value="0.0065059899" flag="0"/>
    </comp>
    <comp name="--.HHN">
      <acc value="0.0511870946" flag="0"/>
      <vel value="0.0264242262" flag="0"/>
      <psa03 value="0.1260013751" flag="0"/>
      <psa10 value="0.0385429035" flag="0"/>
      <psa30 value="0.0059769317" flag="0"/>
    </comp>
    <comp name="--.HHZ">
      <acc value="0.0476216939" flag="0"/>
      <vel value="0.0187486797" flag="0"/>
      <psa03 value="0.1480578356" flag="0"/>
      <psa10 value="0.0227400788" flag="0"/>
      <psa30 value="0.0028135008" flag="0"/>
    </comp>
  </station>
  <station code="ZKR" name="ZKR" netid="GE" insttype="STS-2/N" lat="35.1147" lon="26.2169">
    <comp name="--.HHN">
      <acc value="0.0061388751" flag="0"/>
      <vel value="0.0069753874" flag="0"/>
      <psa03 value="0.0216565008" flag="0"/>
      <psa10 value="0.0064391438" flag="0"/>
      <psa30 value="0.0012749957" flag="0"/>
    </comp>
    <comp name="--.HHZ">
      <acc value="0.0061200508" flag="0"/>
      <vel value="0.0066440102" flag="0"/>
      <psa03 value="0.0182110811" flag="0"/>
      <psa10 value="0.0096590583" flag="0"/>
      <psa30 value="0.0032596705" flag="0"/>
    </comp>
    <comp name="--.HHE">
      <acc value="0.0110374342" flag="0"/>
      <vel value="0.0106060591" flag="0"/>
      <psa03 value="0.0375661460" flag="0"/>
      <psa10 value="0.0178582362" flag="0"/>
      <psa30 value="0.0039869791" flag="0"/>
    </comp>
  </station>
  <station code="CHAN" name="CHAN" netid="HC" insttype="120" lat="35.5193" lon="24.0428">
    <comp name="--.HHZ">
      <acc value="0.0330047087" flag="0"/>
      <vel value="0.0234057435" flag="0"/>
      <psa03 value="0.0741142571" flag="0"/>
      <psa10 value="0.0415128866" flag="0"/>
      <psa30 value="0.0080914375" flag="0"/>
    </comp>
    <comp name="--.HHN">
      <acc value="0.0489903384" flag="0"/>
      <vel value="0.0567108141" flag="0"/>
      <psa03 value="0.0956253146" flag="0"/>
      <psa10 value="0.0668474694" flag="0"/>
      <psa30 value="0.0149851681" flag="0"/>
    </comp>
    <comp name="--.HHE">
      <acc value="0.0413878895" flag="0"/>
      <vel value="0.0479433255" flag="0"/>
      <psa03 value="0.1132433625" flag="0"/>
      <psa10 value="0.0742296675" flag="0"/>
      <psa30 value="0.0196342563" flag="0"/>
    </comp>
  </station>
  <station code="IMOD" name="IMOD" netid="HC" insttype="120" lat="34.9731" lon="24.7995">
    <comp name="--.HHE">
      <acc value="1.2848868062" flag="0"/>
      <vel value="0.6306120477" flag="0"/>
      <psa03 value="3.3444247250" flag="0"/>
      <psa10 value="0.8515984111" flag="0"/>
      <psa30 value="0.0677330833" flag="0"/>
    </comp>
    <comp name="--.HHN">
      <acc value="12.1323677690" flag="0"/>
      <vel value="0.7580911047" flag="0"/>
      <psa03 value="6.1656022150" flag="0"/>
      <psa10 value="0.5995117913" flag="0"/>
      <psa30 value="0.0494294718" flag="0"/>
    </comp>
    <comp name="--.HHZ">
      <acc value="0.7612681320" flag="0"/>
      <vel value="0.2676454076" flag="0"/>
      <psa03 value="2.0294832456" flag="0"/>
      <psa10 value="0.1855021457" flag="0"/>
      <psa30 value="0.0203222687" flag="0"/>
    </comp>
  </station>
  <station code="IPPL" name="IPPL" netid="HC" insttype="60" lat="35.3486" lon="24.4632">
    <comp name="--.HHE">
      <acc value="0.0000000000" flag="0"/>
      <vel value="-100.0000000000" flag="0"/>
      <psa03 value="0.0000000000" flag="0"/>
      <psa10 value="0.0000000000" flag="0"/>
      <psa30 value="0.0000000000" flag="0"/>
    </comp>
    <comp name="--.HHZ">
      <acc value="0.0569195256" flag="0"/>
      <vel value="0.0280054975" flag="0"/>
      <psa03 value="0.1948519214" flag="0"/>
      <psa10 value="0.0249130919" flag="0"/>
      <psa30 value="0.0075961949" flag="0"/>
    </comp>
    <comp name="--.HHN">
      <acc value="0.0000000000" flag="0"/>
      <vel value="-100.0000000000" flag="0"/>
      <psa03 value="0.0000000000" flag="0"/>
      <psa10 value="0.0000000000" flag="0"/>
      <psa30 value="0.0000000000" flag="0"/>
    </comp>
  </station>
  <station code="KNSS" name="KNSS" netid="HC" insttype="60" lat="35.3042" lon="25.1802">
    <comp name="--.HHE">
      <acc value="0.1118770202" flag="0"/>
      <vel value="0.0469741391" flag="0"/>
      <psa03 value="0.2559218489" flag="0"/>
      <psa10 value="0.0251731729" flag="0"/>
      <psa30 value="0.0100706256" flag="0"/>
    </comp>
    <comp name="--.HHZ">
      <acc value="0.0793096722" flag="0"/>
      <vel value="0.0493468542" flag="0"/>
      <psa03 value="0.1802484493" flag="0"/>
      <psa10 value="0.0148342811" flag="0"/>
      <psa30 value="0.0120334279" flag="0"/>
    </comp>
    <comp name="--.HHN">
      <acc value="0.1351350268" flag="0"/>
      <vel value="0.0706010441" flag="0"/>
      <psa03 value="0.4033647577" flag="0"/>
      <psa10 value="0.0299079911" flag="0"/>
      <psa30 value="0.0119488283" flag="0"/>
    </comp>
  </station>
  <station code="PFKS" name="PFKS" netid="HC" insttype="120" lat="35.0429" lon="25.4733">
    <comp name="--.HHN">
      <acc value="0.1198333812" flag="0"/>
      <vel value="0.0584383736" flag="0"/>
      <psa03 value="0.2553767372" flag="0"/>
      <psa10 value="0.0232721439" flag="0"/>
      <psa30 value="0.0048198539" flag="0"/>
    </comp>
    <comp name="--.HHE">
      <acc value="0.0939818398" flag="0"/>
      <vel value="0.0454182955" flag="0"/>
      <psa03 value="0.2573741072" flag="0"/>
      <psa10 value="0.0370709417" flag="0"/>
      <psa30 value="0.0044784486" flag="0"/>
    </comp>
    <comp name="--.HHZ">
      <acc value="0.0606759516" flag="0"/>
      <vel value="0.0232560544" flag="0"/>
      <psa03 value="0.1177205982" flag="0"/>
      <psa10 value="0.0185124108" flag="0"/>
      <psa30 value="0.0085455458" flag="0"/>
    </comp>
  </station>
  <station code="STIA" name="STIA" netid="HC" insttype="120" lat="35.2021" lon="26.0909">
    <comp name="--.HHE">
      <acc value="0.0210146231" flag="0"/>
      <vel value="0.0216025694" flag="0"/>
      <psa03 value="0.0433019106" flag="0"/>
      <psa10 value="0.0290556519" flag="0"/>
      <psa30 value="0.0037508110" flag="0"/>
    </comp>
    <comp name="--.HHN">
      <acc value="0.0000000000" flag="0"/>
      <vel value="-100.0000000000" flag="0"/>
      <psa03 value="0.0000000000" flag="0"/>
      <psa10 value="0.0000000000" flag="0"/>
      <psa30 value="0.0000000000" flag="0"/>
    </comp>
    <comp name="--.HHZ">
      <acc value="0.0128478005" flag="0"/>
      <vel value="0.0142342532" flag="0"/>
      <psa03 value="0.0281395662" flag="0"/>
      <psa10 value="0.0110705546" flag="0"/>
      <psa30 value="0.0023933412" flag="0"/>
    </comp>
  </station>
  <station code="IACM" name="IACM" netid="HL" insttype="120" lat="35.3058" lon="25.0709">
    <comp name="--.HHE">
      <acc value="0.2411997867" flag="0"/>
      <vel value="0.1779827981" flag="0"/>
      <psa03 value="0.6034462816" flag="0"/>
      <psa10 value="0.2026225655" flag="0"/>
      <psa30 value="0.0193101572" flag="0"/>
    </comp>
    <comp name="--.HHN">
      <acc value="0.2882278169" flag="0"/>
      <vel value="0.1654185783" flag="0"/>
      <psa03 value="0.5607514920" flag="0"/>
      <psa10 value="0.2075695292" flag="0"/>
      <psa30 value="0.0205195295" flag="0"/>
    </comp>
    <comp name="--.HHZ">
      <acc value="0.1804331829" flag="0"/>
      <vel value="0.0744589596" flag="0"/>
      <psa03 value="0.4126227331" flag="0"/>
      <psa10 value="0.0891840637" flag="0"/>
      <psa30 value="0.0068570866" flag="0"/>
    </comp>
  </station>
  <station code="IDI" name="IDI" netid="HL" insttype="120" lat="35.288" lon="24.89">
    <comp name="--.HHE">
      <acc value="0.1987938410" flag="0"/>
      <vel value="0.0825386930" flag="0"/>
      <psa03 value="0.2342324761" flag="0"/>
      <psa10 value="0.0635045506" flag="0"/>
      <psa30 value="0.0073275791" flag="0"/>
    </comp>
    <comp name="--.HHN">
      <acc value="0.1861829852" flag="0"/>
      <vel value="0.0793298720" flag="0"/>
      <psa03 value="0.3509795659" flag="0"/>
      <psa10 value="0.0346185128" flag="0"/>
      <psa30 value="0.0042500111" flag="0"/>
    </comp>
    <comp name="--.HHZ">
      <acc value="0.1203468318" flag="0"/>
      <vel value="0.0471517530" flag="0"/>
      <psa03 value="0.3243116879" flag="0"/>
      <psa10 value="0.0264543949" flag="0"/>
      <psa30 value="0.0049998243" flag="0"/>
    </comp>
  </station>
  <station code="IMMV" name="IMMV" netid="HL" insttype="120" lat="35.4606" lon="23.9811">
    <comp name="--.HHE">
      <acc value="0.0375380089" flag="0"/>
      <vel value="0.0240790901" flag="0"/>
      <psa03 value="0.1481490464" flag="0"/>
      <psa10 value="0.0459822556" flag="0"/>
      <psa30 value="0.0065015642" flag="0"/>
    </comp>
    <comp name="--.HHN">
      <acc value="0.0498492294" flag="0"/>
      <vel value="0.0260563923" flag="0"/>
      <psa03 value="0.1222387840" flag="0"/>
      <psa10 value="0.0382768107" flag="0"/>
      <psa30 value="0.0059748781" flag="0"/>
    </comp>
    <comp name="--.HHZ">
      <acc value="0.0462522063" flag="0"/>
      <vel value="0.0182597528" flag="0"/>
      <psa03 value="0.1438069984" flag="0"/>
      <psa10 value="0.0225354352" flag="0"/>
      <psa30 value="0.0028143587" flag="0"/>
    </comp>
  </station>
  <station code="SIVA" name="SIVA" netid="HL" insttype="60" lat="35.0178" lon="24.812">
    <comp name="--.HHN">
      <acc value="1.7121899612" flag="0"/>
      <vel value="0.8516389041" flag="0"/>
      <psa03 value="3.4455510774" flag="0"/>
      <psa10 value="0.7427070678" flag="0"/>
      <psa30 value="0.0313088811" flag="0"/>
    </comp>
    <comp name="--.HHZ">
      <acc value="0.8567265906" flag="0"/>
      <vel value="0.3146721029" flag="0"/>
      <psa03 value="1.1578978353" flag="0"/>
      <psa10 value="0.3160550411" flag="0"/>
      <psa30 value="0.0254898068" flag="0"/>
    </comp>
    <comp name="--.HHE">
      <acc value="1.9946068165" flag="0"/>
      <vel value="0.8829987405" flag="0"/>
      <psa03 value="5.5157360368" flag="0"/>
      <psa10 value="0.9157437701" flag="0"/>
      <psa30 value="0.0538248621" flag="0"/>
    </comp>
  </station>
  <station code="VAM" name="VAM" netid="HL" insttype="CMG3ESPC-120s" lat="35.407" lon="24.1997">
    <comp name="--.HHZ">
      <acc value="0.0392194387" flag="0"/>
      <vel value="0.0181872253" flag="0"/>
      <psa03 value="0.0758618490" flag="0"/>
      <psa10 value="0.0188386962" flag="0"/>
      <psa30 value="0.0028942519" flag="0"/>
    </comp>
    <comp name="--.HHE">
      <acc value="0.0808446546" flag="0"/>
      <vel value="0.0297005914" flag="0"/>
      <psa03 value="0.1262741367" flag="0"/>
      <psa10 value="0.0497809871" flag="0"/>
      <psa30 value="0.0051568364" flag="0"/>
    </comp>
    <comp name="--.HHN">
      <acc value="0.0661986753" flag="0"/>
      <vel value="0.0345971854" flag="0"/>
      <psa03 value="0.1720279262" flag="0"/>
      <psa10 value="0.0265554039" flag="0"/>
      <psa30 value="0.0035572991" flag="0"/>
    </comp>
  </station>
  <station code="ZKR" name="ZKR" netid="HL" insttype="120" lat="35.1147" lon="26.2169">
    <comp name="--.HHE">
      <acc value="0.0108542850" flag="0"/>
      <vel value="0.0105224719" flag="0"/>
      <psa03 value="0.0365628060" flag="0"/>
      <psa10 value="0.0177458862" flag="0"/>
      <psa30 value="0.0039885186" flag="0"/>
    </comp>
    <comp name="--.HHN">
      <acc value="0.0060100239" flag="0"/>
      <vel value="0.0068937542" flag="0"/>
      <psa03 value="0.0210872183" flag="0"/>
      <psa10 value="0.0063813887" flag="0"/>
      <psa30 value="0.0012749657" flag="0"/>
    </comp>
    <comp name="--.HHZ">
      <acc value="0.0060391051" flag="0"/>
      <vel value="0.0066053018" flag="0"/>
      <psa03 value="0.0177508424" flag="0"/>
      <psa10 value="0.0095934835" flag="0"/>
      <psa30 value="0.0032607393" flag="0"/>
    </comp>
  </station>
</stationlist>
