<?xml version="1.0" encoding="UTF-8" standalone="yes"?>
<!DOCTYPE earthquake SYSTEM "stationlist.dtd">
<stationlist created="" xmlns="ch.ethz.sed.shakemap.usgs.xml">
  <station code="IMMV" name="IMMV" netid="GE" insttype="STS-2/N" lat="35.4606" lon="23.9811">
    <comp name="--.HHE">
      <acc value="0.0382794646" flag="0"/>
      <vel value="0.0243534993" flag="0"/>
      <psa03 value="0.1523727221" flag="0"/>
      <psa10 value="0.0462761165" flag="0"/>
      <psa30 value="0.0065059899" flag="0"/>
    </comp>
    <comp name="--.HHN">
      <acc value="0.0511870946" flag="0"/>
      <vel value="0.0264242262" flag="0"/>
      <psa03 value="0.1260013751" flag="0"/>
      <psa10 value="0.0385429035" flag="0"/>
      <psa30 value="0.0059769317" flag="0"/>
    </comp>
    <comp name="--.HHZ">
      <acc value="0.0476216939" flag="0"/>
      <vel value="0.0187486797" flag="0"/>
      <psa03 value="0.1480578356" flag="0"/>
      <psa10 value="0.0227400788" flag="0"/>
      <psa30 value="0.0028135008" flag="0"/>
    </comp>
  </station>
  <station code="ZKR" name="ZKR" netid="GE" insttype="STS-2/N" lat="35.1147" lon="26.2169">
    <comp name="--.HHN">
      <acc value="0.0061388751" flag="0"/>
      <vel value="0.0069753874" flag="0"/>
      <psa03 value="0.0216565008" flag="0"/>
      <psa10 value="0.0064391438" flag="0"/>
      <psa30 value="0.0012749957" flag="0"/>
    </comp>
    <comp name="--.HHZ">
      <acc value="0.0061200508" flag="0"/>
      <vel value="0.0066440102" flag="0"/>
      <psa03 value="0.0182110811" flag="0"/>
      <psa10 value="0.0096590583" flag="0"/>
      <psa30 value="0.0032596705" flag="0"/>
    </comp>
    <comp name="--.HHE">
      <acc value="0.0110374342" flag="0"/>
      <vel value="0.0106060591" flag="0"/>
      <psa03 value="0.0375661460" flag="0"/>
      <psa10 value="0.0178582362" flag="0"/>
      <psa30 value="0.0039869791" flag="0"/>
    </comp>
  </station>
</stationlist>
