<?xml version="1.0" encoding="UTF-8" standalone="yes"?>
<!DOCTYPE earthquake SYSTEM "stationlist.dtd">
<stationlist created="" xmlns="ch.ethz.sed.shakemap.usgs.xml">
  <station code="KHMN" name="KHMN" netid="KO" insttype="CMG-5T" lat="37.3916" lon="37.1574">
    <comp name="--.HNZ">
      <acc value="3.8172700350" flag="0"/>
      <vel value="0.4876072307" flag="0"/>
      <psa03 value="0.7341728873" flag="0"/>
      <psa10 value="0.1762426693" flag="0"/>
      <psa30 value="0.0189050374" flag="0"/>
    </comp>
    <comp name="--.HNN">
      <acc value="5.4998522355" flag="0"/>
      <vel value="0.7553980636" flag="0"/>
      <psa03 value="2.7618873726" flag="0"/>
      <psa10 value="0.1360898079" flag="0"/>
      <psa30 value="0.0150719440" flag="0"/>
    </comp>
    <comp name="--.HNE">
      <acc value="6.1585913501" flag="0"/>
      <vel value="0.9606285152" flag="0"/>
      <psa03 value="3.3314429668" flag="0"/>
      <psa10 value="0.3162588879" flag="0"/>
      <psa30 value="0.0331734842" flag="0"/>
    </comp>
  </station>
  <station code="ANDN" name="ANDN" netid="TU" insttype="T" lat="37.58" lon="36.3452">
    <comp name="--.HHE">
      <acc value="0.0550820223" flag="0"/>
      <vel value="0.0229190190" flag="0"/>
      <psa03 value="0.0809438851" flag="0"/>
      <psa10 value="0.0239169313" flag="0"/>
      <psa30 value="0.0012433676" flag="0"/>
    </comp>
    <comp name="--.HHZ">
      <acc value="0.0334387785" flag="0"/>
      <vel value="0.0157579460" flag="0"/>
      <psa03 value="0.0621836371" flag="0"/>
      <psa10 value="0.0215376209" flag="0"/>
      <psa30 value="0.0008755344" flag="0"/>
    </comp>
    <comp name="--.HHN">
      <acc value="0.0747921198" flag="0"/>
      <vel value="0.0237238627" flag="0"/>
      <psa03 value="0.1432089498" flag="0"/>
      <psa10 value="0.0175586914" flag="0"/>
      <psa30 value="0.0015339509" flag="0"/>
    </comp>
  </station>
</stationlist>
