<?xml version="1.0" encoding="UTF-8" standalone="yes"?>
<!DOCTYPE earthquake SYSTEM "stationlist.dtd">
<stationlist created="" xmlns="ch.ethz.sed.shakemap.usgs.xml">
  <station code="KARS" name="KARS" netid="KO" insttype="CMG-3T" commtype="DIG" lat="40.6152" lon="43.0937">
    <comp name="--.HHN">
      <acc value="0.0000099140" flag="0"/>
      <vel value="0.0000015179" flag="0"/>
      <psa03 value="0.0000048288" flag="0"/>
      <psa10 value="0.0000014645" flag="0"/>
      <psa30 value="0.0000004628" flag="0"/>
    </comp>
    <comp name="--.HHZ">
      <acc value="0.0026710053" flag="0"/>
      <vel value="0.0014918364" flag="0"/>
      <psa03 value="0.0036942491" flag="0"/>
      <psa10 value="0.0016757876" flag="0"/>
      <psa30 value="0.0004322026" flag="0"/>
    </comp>
    <comp name="--.HHE">
      <acc value="0.0049626040" flag="0"/>
      <vel value="0.0021969020" flag="0"/>
      <psa03 value="0.0088910985" flag="0"/>
      <psa10 value="0.0020462543" flag="0"/>
      <psa30 value="0.0006873674" flag="0"/>
    </comp>
  </station>
  <station code="TASB" name="TASB" netid="KO" insttype="CMG-3T" commtype="DIG" lat="39.9838" lon="44.2384">
    <comp name="--.HHZ">
      <acc value="0.0044681529" flag="0"/>
      <vel value="0.0014851459" flag="0"/>
      <psa03 value="0.0064902253" flag="0"/>
      <psa10 value="0.0013228586" flag="0"/>
      <psa30 value="0.0002562384" flag="0"/>
    </comp>
    <comp name="--.HHN">
      <acc value="0.0050054608" flag="0"/>
      <vel value="0.0019705156" flag="0"/>
      <psa03 value="0.0072786734" flag="0"/>
      <psa10 value="0.0023548463" flag="0"/>
      <psa30 value="0.0002543242" flag="0"/>
    </comp>
    <comp name="--.HHE">
      <acc value="0.0038160736" flag="0"/>
      <vel value="0.0023306266" flag="0"/>
      <psa03 value="0.0110851338" flag="0"/>
      <psa10 value="0.0019884841" flag="0"/>
      <psa30 value="0.0002255969" flag="0"/>
    </comp>
  </station>
</stationlist>
