<?xml version="1.0" encoding="UTF-8" standalone="yes"?>
<!DOCTYPE earthquake SYSTEM "stationlist.dtd">
<stationlist created="" xmlns="ch.ethz.sed.shakemap.usgs.xml">
  <station code="KALE" name="KALE" netid="HA" insttype="40," lat="38.3911" lon="22.1398">
    <comp name="--.HHN">
      <acc value="0.9485395729" flag="0"/>
      <vel value="0.2340470777" flag="0"/>
      <psa03 value="1.8965790514" flag="0"/>
      <psa10 value="0.0959538076" flag="0"/>
      <psa30 value="0.0143288530" flag="0"/>
    </comp>
    <comp name="--.HHE">
      <acc value="0.8968107514" flag="0"/>
      <vel value="0.2117441165" flag="0"/>
      <psa03 value="1.3559869889" flag="0"/>
      <psa10 value="0.0772822806" flag="0"/>
      <psa30 value="0.0097459739" flag="0"/>
    </comp>
    <comp name="--.HHZ">
      <acc value="0.6557442533" flag="0"/>
      <vel value="0.1472554759" flag="0"/>
      <psa03 value="1.1676266608" flag="0"/>
      <psa10 value="0.0545068791" flag="0"/>
      <psa30 value="0.0123874442" flag="0"/>
    </comp>
  </station>
  <station code="LAKA" name="LAKA" netid="HA" insttype="120s" lat="38.2401" lon="21.9785">
    <comp name="--.HHE">
      <acc value="0.1624336754" flag="0"/>
      <vel value="0.0355254472" flag="0"/>
      <psa03 value="0.1499642041" flag="0"/>
      <psa10 value="0.0382896439" flag="0"/>
      <psa30 value="0.0051467343" flag="0"/>
    </comp>
    <comp name="--.HHZ">
      <acc value="0.1169531801" flag="0"/>
      <vel value="0.0387946295" flag="0"/>
      <psa03 value="0.0814373018" flag="0"/>
      <psa10 value="0.0492209744" flag="0"/>
      <psa30 value="0.0161947749" flag="0"/>
    </comp>
    <comp name="--.HHN">
      <acc value="0.1732226499" flag="0"/>
      <vel value="0.0432335731" flag="0"/>
      <psa03 value="0.1006972521" flag="0"/>
      <psa10 value="0.0324828405" flag="0"/>
      <psa30 value="0.0143854163" flag="0"/>
    </comp>
  </station>
  <station code="KLV1" name="KLV1" netid="HI" insttype="CMG-5TD,ACCELEROMETER,GURALP" lat="38.0326" lon="22.108">
    <comp name="--.HNE">
      <acc value="0.0872569945" flag="0"/>
      <vel value="0.0323376592" flag="0"/>
      <psa03 value="0.2087473946" flag="0"/>
      <psa10 value="0.0380581915" flag="0"/>
      <psa30 value="0.0037371697" flag="0"/>
    </comp>
    <comp name="--.HNZ">
      <acc value="0.0648492632" flag="0"/>
      <vel value="0.0170773933" flag="0"/>
      <psa03 value="0.0758071925" flag="0"/>
      <psa10 value="0.0181745551" flag="0"/>
      <psa30 value="0.0034980792" flag="0"/>
    </comp>
    <comp name="--.HNN">
      <acc value="0.1020678583" flag="0"/>
      <vel value="0.0404992444" flag="0"/>
      <psa03 value="0.3305640312" flag="0"/>
      <psa10 value="0.0323529785" flag="0"/>
      <psa30 value="0.0028149217" flag="0"/>
    </comp>
  </station>
  <station code="LAM2" name="LAM2" netid="HI" insttype="CMG-5TD,ACCELEROMETER,GURALP" lat="38.902" lon="22.4313">
    <comp name="--.HNE">
      <acc value="0.0349385214" flag="0"/>
      <vel value="0.0151718195" flag="0"/>
      <psa03 value="0.0665724958" flag="0"/>
      <psa10 value="0.0097045698" flag="0"/>
      <psa30 value="0.0032234404" flag="0"/>
    </comp>
    <comp name="--.HNN">
      <acc value="0.0284304475" flag="0"/>
      <vel value="0.0110713467" flag="0"/>
      <psa03 value="0.0667101878" flag="0"/>
      <psa10 value="0.0117551814" flag="0"/>
      <psa30 value="0.0041203533" flag="0"/>
    </comp>
    <comp name="--.HNZ">
      <acc value="0.0191114399" flag="0"/>
      <vel value="0.0071275845" flag="0"/>
      <psa03 value="0.0232074405" flag="0"/>
      <psa10 value="0.0079928085" flag="0"/>
      <psa30 value="0.0026892596" flag="0"/>
    </comp>
  </station>
  <station code="DLFA" name="DLFA" netid="HL" insttype="CMG-5" lat="38.4784" lon="22.4958">
    <comp name="00.HNE">
      <acc value="0.0788138520" flag="0"/>
      <vel value="0.0177549938" flag="0"/>
      <psa03 value="0.1186939017" flag="0"/>
      <psa10 value="0.0100238997" flag="0"/>
      <psa30 value="0.0019128359" flag="0"/>
    </comp>
    <comp name="00.HNN">
      <acc value="0.0861573658" flag="0"/>
      <vel value="0.0203235660" flag="0"/>
      <psa03 value="0.1105228472" flag="0"/>
      <psa10 value="0.0164199522" flag="0"/>
      <psa30 value="0.0019661042" flag="0"/>
    </comp>
    <comp name="00.HNZ">
      <acc value="0.0858572119" flag="0"/>
      <vel value="0.0240856517" flag="0"/>
      <psa03 value="0.1494861271" flag="0"/>
      <psa10 value="0.0101593355" flag="0"/>
      <psa30 value="0.0025624718" flag="0"/>
    </comp>
  </station>
  <station code="PATC" name="PATC" netid="HL" insttype="CMG-5" lat="38.2693" lon="21.76">
    <comp name="00.HNE">
      <acc value="0.2144885406" flag="0"/>
      <vel value="0.0954510216" flag="0"/>
      <psa03 value="0.3883743117" flag="0"/>
      <psa10 value="0.1191952538" flag="0"/>
      <psa30 value="0.0220356123" flag="0"/>
    </comp>
    <comp name="00.HNN">
      <acc value="0.2737666004" flag="0"/>
      <vel value="0.1483809524" flag="0"/>
      <psa03 value="0.4994719777" flag="0"/>
      <psa10 value="0.1509631116" flag="0"/>
      <psa30 value="0.0162159201" flag="0"/>
    </comp>
    <comp name="00.HNZ">
      <acc value="0.2172942669" flag="0"/>
      <vel value="0.0938154926" flag="0"/>
      <psa03 value="0.2512412288" flag="0"/>
      <psa10 value="0.1399289077" flag="0"/>
      <psa30 value="0.0109933727" flag="0"/>
    </comp>
  </station>
  <station code="PATG" name="PATG" netid="HL" insttype="CMG-5" lat="38.2386" lon="21.7266">
    <comp name="00.HNN">
      <acc value="0.1457154004" flag="0"/>
      <vel value="0.0977375897" flag="0"/>
      <psa03 value="0.4079952284" flag="0"/>
      <psa10 value="0.1613881892" flag="0"/>
      <psa30 value="0.0295895848" flag="0"/>
    </comp>
    <comp name="00.HNE">
      <acc value="0.1764450672" flag="0"/>
      <vel value="0.1066644245" flag="0"/>
      <psa03 value="0.3570634765" flag="0"/>
      <psa10 value="0.1673446378" flag="0"/>
      <psa30 value="0.0228571146" flag="0"/>
    </comp>
    <comp name="00.HNZ">
      <acc value="0.1211422494" flag="0"/>
      <vel value="0.0537160190" flag="0"/>
      <psa03 value="0.2194956940" flag="0"/>
      <psa10 value="0.0988365486" flag="0"/>
      <psa30 value="0.0091904486" flag="0"/>
    </comp>
  </station>
  <station code="RIOA" name="RIOA" netid="HL" insttype="CMG-5" lat="38.2959" lon="21.7912">
    <comp name="00.HNN">
      <acc value="0.2650223726" flag="0"/>
      <vel value="0.0861938070" flag="0"/>
      <psa03 value="0.3751210358" flag="0"/>
      <psa10 value="0.1046725677" flag="0"/>
      <psa30 value="0.0136478582" flag="0"/>
    </comp>
    <comp name="00.HNE">
      <acc value="0.2776345366" flag="0"/>
      <vel value="0.1235994576" flag="0"/>
      <psa03 value="0.6058053522" flag="0"/>
      <psa10 value="0.1224053746" flag="0"/>
      <psa30 value="0.0069444567" flag="0"/>
    </comp>
    <comp name="00.HNZ">
      <acc value="0.1891005663" flag="0"/>
      <vel value="0.0537806664" flag="0"/>
      <psa03 value="0.2146765901" flag="0"/>
      <psa10 value="0.0437634090" flag="0"/>
      <psa30 value="0.0114079025" flag="0"/>
    </comp>
  </station>
  <station code="ANX" name="ANX" netid="HP" insttype="120" lat="38.5933" lon="21.9209">
    <comp name="--.HHE">
      <acc value="0.9853509208" flag="0"/>
      <vel value="0.3432865641" flag="0"/>
      <psa03 value="1.3439588018" flag="0"/>
      <psa10 value="0.1512163842" flag="0"/>
      <psa30 value="0.0095296023" flag="0"/>
    </comp>
    <comp name="--.HHN">
      <acc value="0.6571560230" flag="0"/>
      <vel value="0.2788428884" flag="0"/>
      <psa03 value="1.3639105390" flag="0"/>
      <psa10 value="0.2229475015" flag="0"/>
      <psa30 value="0.0093475475" flag="0"/>
    </comp>
    <comp name="--.HHZ">
      <acc value="0.2639948418" flag="0"/>
      <vel value="0.0888096649" flag="0"/>
      <psa03 value="0.4421000164" flag="0"/>
      <psa10 value="0.0898969038" flag="0"/>
      <psa30 value="0.0088435198" flag="0"/>
    </comp>
  </station>
  <station code="EFP" name="EFP" netid="HP" insttype="40," lat="38.4269" lon="21.9058">
    <comp name="--.HHN">
      <acc value="1.4364458228" flag="0"/>
      <vel value="0.4861179537" flag="0"/>
      <psa03 value="3.2064018279" flag="0"/>
      <psa10 value="0.2055132391" flag="0"/>
      <psa30 value="0.0241728826" flag="0"/>
    </comp>
    <comp name="--.HHZ">
      <acc value="1.1912184797" flag="0"/>
      <vel value="0.2908169207" flag="0"/>
      <psa03 value="1.6029435008" flag="0"/>
      <psa10 value="0.1024824572" flag="0"/>
      <psa30 value="0.0106764326" flag="0"/>
    </comp>
    <comp name="--.HHE">
      <acc value="1.0997523125" flag="0"/>
      <vel value="0.3278185860" flag="0"/>
      <psa03 value="1.6592320258" flag="0"/>
      <psa10 value="0.1477233116" flag="0"/>
      <psa30 value="0.0137499313" flag="0"/>
    </comp>
  </station>
  <station code="PVO" name="PVO" netid="HP" insttype="DC_100" lat="38.616" lon="21.525">
    <comp name="--.HNE">
      <acc value="0.0668589680" flag="0"/>
      <vel value="0.0275987980" flag="0"/>
      <psa03 value="0.2236695506" flag="0"/>
      <psa10 value="0.0350775735" flag="0"/>
      <psa30 value="0.0041829964" flag="0"/>
    </comp>
    <comp name="--.HNN">
      <acc value="0.0564761825" flag="0"/>
      <vel value="0.0417605237" flag="0"/>
      <psa03 value="0.1491069738" flag="0"/>
      <psa10 value="0.0392087968" flag="0"/>
      <psa30 value="0.0048802989" flag="0"/>
    </comp>
    <comp name="--.HNZ">
      <acc value="0.0638066045" flag="0"/>
      <vel value="0.0298396279" flag="0"/>
      <psa03 value="0.1811637272" flag="0"/>
      <psa10 value="0.0264601455" flag="0"/>
      <psa30 value="0.0044364340" flag="0"/>
    </comp>
  </station>
  <station code="SERG" name="SERG" netid="HP" insttype="DC_100" lat="38.4133" lon="22.0566">
    <comp name="--.HNE">
      <acc value="3.9515921129" flag="0"/>
      <vel value="0.9368546678" flag="0"/>
      <psa03 value="5.1610469852" flag="0"/>
      <psa10 value="0.2034413310" flag="0"/>
      <psa30 value="0.0221540408" flag="0"/>
    </comp>
    <comp name="--.HNN">
      <acc value="5.6948356696" flag="0"/>
      <vel value="1.4899246559" flag="0"/>
      <psa03 value="7.6487973670" flag="0"/>
      <psa10 value="0.5851692324" flag="0"/>
      <psa30 value="0.0574548293" flag="0"/>
    </comp>
    <comp name="--.HNZ">
      <acc value="2.7305289547" flag="0"/>
      <vel value="0.7834246611" flag="0"/>
      <psa03 value="1.5265603875" flag="0"/>
      <psa10 value="0.1938957336" flag="0"/>
      <psa30 value="0.0267717394" flag="0"/>
    </comp>
  </station>
  <station code="UPR" name="UPR" netid="HP" insttype="120" lat="0" lon="0">
    <comp name="--.HHE">
      <acc value="0.2771451666" flag="0"/>
      <vel value="0.1069826245" flag="0"/>
      <psa03 value="0.4933772798" flag="0"/>
      <psa10 value="0.1450276135" flag="0"/>
      <psa30 value="0.0138391858" flag="0"/>
    </comp>
    <comp name="--.HHN">
      <acc value="0.3139125629" flag="0"/>
      <vel value="0.1178898048" flag="0"/>
      <psa03 value="0.4462810373" flag="0"/>
      <psa10 value="0.1371345398" flag="0"/>
      <psa30 value="0.0173858913" flag="0"/>
    </comp>
    <comp name="--.HHZ">
      <acc value="0.2189506001" flag="0"/>
      <vel value="0.0924004826" flag="0"/>
      <psa03 value="0.2742226147" flag="0"/>
      <psa10 value="0.1545470301" flag="0"/>
      <psa30 value="0.0099039068" flag="0"/>
    </comp>
  </station>
</stationlist>
