<stationlist created="1778136051">
	<station code="MALA" name="MALA" netid="CL" source="Corinth Riff Laboratory (CRLNET)" insttype="" lat="38.39341" lon="21.87263">
		<comp name="01.HNE" depth="0.0">
			<acc value="1.43239333280897" flag="0"/>
			<vel value="0.582373234634302" flag="0"/>
			<psa03 value="1.89894873329269" flag="0"/>
			<psa10 value="0.468308623076259" flag="0"/>
			<psa30 value="0.0340376336848502" flag="0"/>
		</comp>
		<comp name="01.HNN" depth="0.0">
			<acc value="1.53779391855673" flag="0"/>
			<vel value="0.43364821019928" flag="0"/>
			<psa03 value="1.51555276478072" flag="0"/>
			<psa10 value="0.393563187543907" flag="0"/>
			<psa30 value="0.0236869716057792" flag="0"/>
		</comp>
		<comp name="01.HNZ" depth="0.0">
			<acc value="0.339808382206266" flag="0"/>
			<vel value="0.129138033391121" flag="0"/>
			<psa03 value="0.765583897445248" flag="0"/>
			<psa10 value="0.14483589188814" flag="0"/>
			<psa30 value="0.0141680671477419" flag="0"/>
		</comp>
	</station>
	<station code="AIGS" name="AIGS" netid="HA" source="Hellenic Seismological Network, University of Athens, Seismological Laboratory (HA)" insttype="" lat="38.25001" lon="22.0878">
		<comp name="--.HNE" depth="0.0">
			<acc value="0.622480360646769" flag="0"/>
			<vel value="0.149363309224654" flag="0"/>
			<psa03 value="0.775964089380687" flag="0"/>
			<psa10 value="0.0442343825731544" flag="0"/>
			<psa30 value="0.0141595661284845" flag="0"/>
		</comp>
		<comp name="--.HNN" depth="0.0">
			<acc value="0.719793788247774" flag="0"/>
			<vel value="0.215631602162472" flag="0"/>
			<psa03 value="1.55380735143934" flag="0"/>
			<psa10 value="0.087389583122676" flag="0"/>
			<psa30 value="0.0180758514737818" flag="0"/>
		</comp>
		<comp name="--.HNZ" depth="0.0">
			<acc value="0.544008785492304" flag="0"/>
			<vel value="0.0998719124580621" flag="0"/>
			<psa03 value="0.244337190342382" flag="0"/>
			<psa10 value="0.0385968645392521" flag="0"/>
			<psa30 value="0.0167201626132482" flag="0"/>
		</comp>
	</station>
	<station code="ARS1" name="ARS1" netid="HI" source="ITSAK Strong Motion Network" insttype="" lat="37.6349" lon="22.7293">
		<comp name="--.HNE" depth="0.0">
			<acc value="0.0110710492160955" flag="0"/>
			<vel value="0.0092296249443875" flag="0"/>
			<psa03 value="0.0486347785940614" flag="0"/>
			<psa10 value="0.012084422585529" flag="0"/>
			<psa30 value="0.00080178034259943" flag="0"/>
		</comp>
		<comp name="--.HNN" depth="0.0">
			<acc value="0.0128993591415333" flag="0"/>
			<vel value="0.00923161186379719" flag="0"/>
			<psa03 value="0.0494401383131903" flag="0"/>
			<psa10 value="0.01177838589226" flag="0"/>
			<psa30 value="0.00159013802321338" flag="0"/>
		</comp>
		<comp name="--.HNZ" depth="0.0">
			<acc value="0.00797700754097582" flag="0"/>
			<vel value="0.00371005631184452" flag="0"/>
			<psa03 value="0.0347199523357789" flag="0"/>
			<psa10 value="0.00325365326528072" flag="0"/>
			<psa30 value="0.000981644013204882" flag="0"/>
		</comp>
	</station>
	<station code="KLV1" name="KLV1" netid="HI" source="ITSAK Strong Motion Network" insttype="" lat="38.03256" lon="22.10797">
		<comp name="--.HNE" depth="0.0">
			<acc value="0.0867202754165544" flag="0"/>
			<vel value="0.0324818665819207" flag="0"/>
			<psa03 value="0.214225685288285" flag="0"/>
			<psa10 value="0.0381257291035617" flag="0"/>
			<psa30 value="0.00407467275672601" flag="0"/>
		</comp>
		<comp name="--.HNN" depth="0.0">
			<acc value="0.103125459882059" flag="0"/>
			<vel value="0.0405881155469181" flag="0"/>
			<psa03 value="0.327870890098695" flag="0"/>
			<psa10 value="0.0322184155637513" flag="0"/>
			<psa30 value="0.00308765967872693" flag="0"/>
		</comp>
		<comp name="--.HNZ" depth="0.0">
			<acc value="0.0622006585054885" flag="0"/>
			<vel value="0.0173370391291879" flag="0"/>
			<psa03 value="0.0767776265569543" flag="0"/>
			<psa10 value="0.0184145499778821" flag="0"/>
			<psa30 value="0.00378429583577342" flag="0"/>
		</comp>
	</station>
	<station code="LAM2" name="LAM2" netid="HI" source="ITSAK Strong Motion Network" insttype="" lat="38.90203" lon="22.431301">
		<comp name="--.HNE" depth="0.0">
			<acc value="0.0345650584058607" flag="0"/>
			<vel value="0.0161374378060704" flag="0"/>
			<psa03 value="0.0672922787538807" flag="0"/>
			<psa10 value="0.0097367990042683" flag="0"/>
			<psa30 value="0.00356908582193954" flag="0"/>
		</comp>
		<comp name="--.HNN" depth="0.0">
			<acc value="0.0288143746473841" flag="0"/>
			<vel value="0.0124650498907098" flag="0"/>
			<psa03 value="0.067337020960499" flag="0"/>
			<psa10 value="0.0116293943442212" flag="0"/>
			<psa30 value="0.00452656904357055" flag="0"/>
		</comp>
		<comp name="--.HNZ" depth="0.0">
			<acc value="0.0188929458698617" flag="0"/>
			<vel value="0.0078444329753236" flag="0"/>
			<psa03 value="0.0228632675819369" flag="0"/>
			<psa10 value="0.00819050834354083" flag="0"/>
			<psa30 value="0.00298833198003437" flag="0"/>
		</comp>
	</station>
	<station code="VAS2" name="VAS2" netid="HI" source="ITSAK Strong Motion Network" insttype="" lat="38.630558" lon="20.608081">
		<comp name="--.HNE" depth="0.0">
			<acc value="0.0387475663646735" flag="0"/>
			<vel value="0.0331407003614336" flag="0"/>
			<psa03 value="0.107470780297089" flag="0"/>
			<psa10 value="0.0546396301442996" flag="0"/>
			<psa30 value="0.00261026033410997" flag="0"/>
		</comp>
		<comp name="--.HNN" depth="0.0">
			<acc value="0.0544195738662359" flag="0"/>
			<vel value="0.0440899703163486" flag="0"/>
			<psa03 value="0.246842753913005" flag="0"/>
			<psa10 value="0.0823238704893553" flag="0"/>
			<psa30 value="0.00532924423030235" flag="0"/>
		</comp>
		<comp name="--.HNZ" depth="0.0">
			<acc value="0.0278741536742648" flag="0"/>
			<vel value="0.0203473221875626" flag="0"/>
			<psa03 value="0.100669964891111" flag="0"/>
			<psa10 value="0.0239836124356584" flag="0"/>
			<psa30 value="0.00134763526334234" flag="0"/>
		</comp>
	</station>
	<station code="DLFA" name="DLFA" netid="HL" source="National Observatory of Athens Seismic Network" insttype="" lat="38.47836" lon="22.49583">
		<comp name="00.HNE" depth="0.0">
			<acc value="0.0772762829125956" flag="0"/>
			<vel value="0.0180888705135806" flag="0"/>
			<psa03 value="0.118924785191366" flag="0"/>
			<psa10 value="0.0100871304820894" flag="0"/>
			<psa30 value="0.00221250211727354" flag="0"/>
		</comp>
		<comp name="00.HNN" depth="0.0">
			<acc value="0.0856592138857765" flag="0"/>
			<vel value="0.0208737190363706" flag="0"/>
			<psa03 value="0.110915930206696" flag="0"/>
			<psa10 value="0.0165420886309074" flag="0"/>
			<psa30 value="0.00223084642198703" flag="0"/>
		</comp>
		<comp name="00.HNZ" depth="0.0">
			<acc value="0.0833138262499687" flag="0"/>
			<vel value="0.0238488855532527" flag="0"/>
			<psa03 value="0.149707423344737" flag="0"/>
			<psa10 value="0.0101797468497892" flag="0"/>
			<psa30 value="0.00285142082778246" flag="0"/>
		</comp>
	</station>
	<station code="PATC" name="PATC" netid="HL" source="National Observatory of Athens Seismic Network" insttype="" lat="38.26933" lon="21.76001">
		<comp name="00.HNE" depth="0.0">
			<acc value="0.213262088346" flag="0"/>
			<vel value="0.096137406849537" flag="0"/>
			<psa03 value="0.38782544696718" flag="0"/>
			<psa10 value="0.11928182800018" flag="0"/>
			<psa30 value="0.0236386500226315" flag="0"/>
		</comp>
		<comp name="00.HNN" depth="0.0">
			<acc value="0.275847533435301" flag="0"/>
			<vel value="0.151148922287423" flag="0"/>
			<psa03 value="0.499591479099622" flag="0"/>
			<psa10 value="0.150634481865868" flag="0"/>
			<psa30 value="0.0174230626792212" flag="0"/>
		</comp>
		<comp name="00.HNZ" depth="0.0">
			<acc value="0.212854608356604" flag="0"/>
			<vel value="0.0941856917402851" flag="0"/>
			<psa03 value="0.250511614855704" flag="0"/>
			<psa10 value="0.13989903680988" flag="0"/>
			<psa30 value="0.0109287313885791" flag="0"/>
		</comp>
	</station>
	<station code="PATG" name="PATG" netid="HL" source="National Observatory of Athens Seismic Network" insttype="" lat="38.23865" lon="21.72657">
		<comp name="00.HNE" depth="0.0">
			<acc value="0.17671047886974" flag="0"/>
			<vel value="0.105847273676054" flag="0"/>
			<psa03 value="0.355924253648352" flag="0"/>
			<psa10 value="0.167402071218131" flag="0"/>
			<psa30 value="0.0253205095694123" flag="0"/>
		</comp>
		<comp name="00.HNN" depth="0.0">
			<acc value="0.145814874744266" flag="0"/>
			<vel value="0.106249338524422" flag="0"/>
			<psa03 value="0.407467275672601" flag="0"/>
			<psa10 value="0.1608665770974" flag="0"/>
			<psa30 value="0.0336609043051244" flag="0"/>
		</comp>
		<comp name="00.HNZ" depth="0.0">
			<acc value="0.112967746947563" flag="0"/>
			<vel value="0.0540055436150495" flag="0"/>
			<psa03 value="0.219147328016295" flag="0"/>
			<psa10 value="0.0988095839399237" flag="0"/>
			<psa30 value="0.00981822982031355" flag="0"/>
		</comp>
	</station>
	<station code="RIOA" name="RIOA" netid="HL" source="National Observatory of Athens Seismic Network" insttype="" lat="38.29585" lon="21.79118">
		<comp name="00.HNE" depth="0.0">
			<acc value="0.279425790026389" flag="0"/>
			<vel value="0.124407021085137" flag="0"/>
			<psa03 value="0.606167415264346" flag="0"/>
			<psa10 value="0.122169042593257" flag="0"/>
			<psa30 value="0.00787552320894819" flag="0"/>
		</comp>
		<comp name="00.HNN" depth="0.0">
			<acc value="0.266403824670523" flag="0"/>
			<vel value="0.08951204835098" flag="0"/>
			<psa03 value="0.376237215453047" flag="0"/>
			<psa10 value="0.104459182369613" flag="0"/>
			<psa30 value="0.0157291227366534" flag="0"/>
		</comp>
		<comp name="00.HNZ" depth="0.0">
			<acc value="0.184997971024641" flag="0"/>
			<vel value="0.0551250554495352" flag="0"/>
			<psa03 value="0.21435991190814" flag="0"/>
			<psa10 value="0.0437914347276335" flag="0"/>
			<psa30 value="0.0125148426131968" flag="0"/>
		</comp>
	</station>
	<station code="ANX" name="ANX" netid="HP" source="University of Patras, Seismological Laboratory (PSLNET)" insttype="" lat="38.5933" lon="21.9209">
		<comp name="--.HNE" depth="0.0">
			<acc value="1.21370032962877" flag="0"/>
			<vel value="0.424861753513433" flag="0"/>
			<psa03 value="1.70033807811418" flag="0"/>
			<psa10 value="0.197695677053165" flag="0"/>
			<psa30 value="0.0126911269072728" flag="0"/>
		</comp>
		<comp name="--.HNN" depth="0.0">
			<acc value="0.785230696199075" flag="0"/>
			<vel value="0.347814340431991" flag="0"/>
			<psa03 value="1.68857087777358" flag="0"/>
			<psa10 value="0.273798143712249" flag="0"/>
			<psa30 value="0.0112866690415252" flag="0"/>
		</comp>
		<comp name="--.HNZ" depth="0.0">
			<acc value="0.306739741324629" flag="0"/>
			<vel value="0.114495773020118" flag="0"/>
			<psa03 value="0.538919878717083" flag="0"/>
			<psa10 value="0.11115574843417" flag="0"/>
			<psa30 value="0.0120468391319697" flag="0"/>
		</comp>
	</station>
	<station code="PDO" name="PDO" netid="HP" source="University of Patras, Seismological Laboratory (PSLNET)" insttype="" lat="38.5986" lon="21.1833">
		<comp name="--.HNE" depth="0.0">
			<acc value="0.102290698871998" flag="0"/>
			<vel value="0.0391808119761747" flag="0"/>
			<psa03 value="0.207201158849216" flag="0"/>
			<psa10 value="0.0149434495884366" flag="0"/>
			<psa30 value="0.00132750127036412" flag="0"/>
		</comp>
		<comp name="--.HNN" depth="0.0">
			<acc value="0.160367758927837" flag="0"/>
			<vel value="0.0869380794984464" flag="0"/>
			<psa03 value="0.362411873608001" flag="0"/>
			<psa10 value="0.0353351576767801" flag="0"/>
			<psa30 value="0.00271495709759673" flag="0"/>
		</comp>
		<comp name="--.HNZ" depth="0.0">
			<acc value="0.0748220337681823" flag="0"/>
			<vel value="0.0374736855712377" flag="0"/>
			<psa03 value="0.15610555889115" flag="0"/>
			<psa10 value="0.0156078713567179" flag="0"/>
			<psa30 value="0.000992382142793267" flag="0"/>
		</comp>
	</station>
	<station code="PVO" name="PVO" netid="HP" source="University of Patras, Seismological Laboratory (PSLNET)" insttype="" lat="38.616" lon="21.525">
		<comp name="--.HNE" depth="0.0">
			<acc value="0.0664694534547674" flag="0"/>
			<vel value="0.0280226029843864" flag="0"/>
			<psa03 value="0.221563407173682" flag="0"/>
			<psa10 value="0.0349445582130026" flag="0"/>
			<psa30 value="0.00474177905740444" flag="0"/>
		</comp>
		<comp name="--.HNN" depth="0.0">
			<acc value="0.0567404097503615" flag="0"/>
			<vel value="0.0431082751499568" flag="0"/>
			<psa03 value="0.152168244708742" flag="0"/>
			<psa10 value="0.0391324287524728" flag="0"/>
			<psa30 value="0.005426334818664" flag="0"/>
		</comp>
		<comp name="--.HNZ" depth="0.0">
			<acc value="0.0638497401249729" flag="0"/>
			<vel value="0.0293854422405725" flag="0"/>
			<psa03 value="0.180579545911345" flag="0"/>
			<psa10 value="0.0264319059818102" flag="0"/>
			<psa30 value="0.00508047756150476" flag="0"/>
		</comp>
	</station>
	<station code="SERG" name="SERG" netid="HP" source="University of Patras, Seismological Laboratory (PSLNET)" insttype="" lat="38.4133" lon="22.0566">
		<comp name="--.HNE" depth="0.0">
			<acc value="4.00151972097987" flag="0"/>
			<vel value="0.949256160389136" flag="0"/>
			<psa03 value="5.23260106400688" flag="0"/>
			<psa10 value="0.206796241879321" flag="0"/>
			<psa30 value="0.020924140347101" flag="0"/>
		</comp>
		<comp name="--.HNN" depth="0.0">
			<acc value="5.72075729416742" flag="0"/>
			<vel value="1.49934553476406" flag="0"/>
			<psa03 value="7.76277284827015" flag="0"/>
			<psa10 value="0.587538102694696" flag="0"/>
			<psa30 value="0.0624766750555561" flag="0"/>
		</comp>
		<comp name="--.HNZ" depth="0.0">
			<acc value="2.73787856264419" flag="0"/>
			<vel value="0.808252705560984" flag="0"/>
			<psa03 value="1.57385186000433" flag="0"/>
			<psa10 value="0.194518532961201" flag="0"/>
			<psa30 value="0.030476601460102" flag="0"/>
		</comp>
	</station>
	<station code="UPR" name="UPR" netid="HP" source="University of Patras, Seismological Laboratory (PSLNET)" insttype="" lat="38.2836" lon="21.7864">
		<comp name="--.HNE" depth="2.0">
			<acc value="0.26635794360861" flag="0"/>
			<vel value="0.107973088520871" flag="0"/>
			<psa03 value="0.501425909570972" flag="0"/>
			<psa10 value="0.14046278861327" flag="0"/>
			<psa30 value="0.0145242151124234" flag="0"/>
		</comp>
		<comp name="--.HNN" depth="2.0">
			<acc value="0.313972475632279" flag="0"/>
			<vel value="0.191804477135876" flag="0"/>
			<psa03 value="0.612073386537958" flag="0"/>
			<psa10 value="0.158800829417835" flag="0"/>
			<psa30 value="0.0174776481712955" flag="0"/>
		</comp>
		<comp name="--.HNZ" depth="2.0">
			<acc value="0.219080015422386" flag="0"/>
			<vel value="0.0887149709290364" flag="0"/>
			<psa03 value="0.269661279288324" flag="0"/>
			<psa10 value="0.151488163168145" flag="0"/>
			<psa30 value="0.0108343253326145" flag="0"/>
		</comp>
	</station>
</stationlist>
