<?xml version="1.0" encoding="UTF-8" standalone="yes"?>
<!DOCTYPE earthquake SYSTEM "stationlist.dtd">
<stationlist created="" xmlns="ch.ethz.sed.shakemap.usgs.xml">
  <station code="ADA" name="ADA" netid="VI" insttype="CMG-3ESP" lat="65.0188" lon="-15.5745">
    <comp name="--.HHN">
      <acc value="0.0125138087" flag="0"/>
      <vel value="0.0540811717" flag="0"/>
      <psa03 value="0.0127119145" flag="0"/>
      <psa10 value="0.0182598941" flag="0"/>
      <psa30 value="0.0358879160" flag="0"/>
    </comp>
    <comp name="--.HHE">
      <acc value="0.0113713301" flag="0"/>
      <vel value="0.0386962577" flag="0"/>
      <psa03 value="0.0156407953" flag="0"/>
      <psa10 value="0.0271362908" flag="0"/>
      <psa30 value="0.0417367433" flag="0"/>
    </comp>
    <comp name="--.HHZ">
      <acc value="0.0120169774" flag="0"/>
      <vel value="0.0421002104" flag="0"/>
      <psa03 value="0.0124781957" flag="0"/>
      <psa10 value="0.0224535584" flag="0"/>
      <psa30 value="0.0366503038" flag="0"/>
    </comp>
  </station>
  <station code="GOD" name="GOD" netid="VI" insttype="CMG-3ESP" lat="63.6598" lon="-19.3224">
    <comp name="--.HHE">
      <acc value="0.0230130823" flag="0"/>
      <vel value="0.0859385027" flag="0"/>
      <psa03 value="0.0231586293" flag="0"/>
      <psa10 value="0.0456622718" flag="0"/>
      <psa30 value="0.0703241017" flag="0"/>
    </comp>
    <comp name="--.HHN">
      <acc value="0.0214359936" flag="0"/>
      <vel value="0.0738128435" flag="0"/>
      <psa03 value="0.0223476539" flag="0"/>
      <psa10 value="0.0339202195" flag="0"/>
      <psa30 value="0.0659503731" flag="0"/>
    </comp>
    <comp name="--.HHZ">
      <acc value="0.0136529975" flag="0"/>
      <vel value="0.0491203482" flag="0"/>
      <psa03 value="0.0193308025" flag="0"/>
      <psa10 value="0.0369532488" flag="0"/>
      <psa30 value="0.0469985318" flag="0"/>
    </comp>
  </station>
  <station code="SKR" name="SKR" netid="VI" insttype="LE-3D/5s" lat="64.5601" lon="-18.3865">
    <comp name="--.HHE">
      <acc value="0.3468801539" flag="0"/>
      <vel value="1.0705398357" flag="0"/>
      <psa03 value="0.3846204935" flag="0"/>
      <psa10 value="0.6324627955" flag="0"/>
      <psa30 value="0.4300456033" flag="0"/>
    </comp>
    <comp name="--.HHZ">
      <acc value="0.2189160801" flag="0"/>
      <vel value="0.5781069717" flag="0"/>
      <psa03 value="0.3678081838" flag="0"/>
      <psa10 value="0.6009051342" flag="0"/>
      <psa30 value="0.4191357646" flag="0"/>
    </comp>
    <comp name="--.HHN">
      <acc value="0.2774246580" flag="0"/>
      <vel value="0.9864378492" flag="0"/>
      <psa03 value="0.3005758315" flag="0"/>
      <psa10 value="0.4866671714" flag="0"/>
      <psa30 value="0.4412634914" flag="0"/>
    </comp>
  </station>
</stationlist>
