<?xml version="1.0" encoding="UTF-8" standalone="yes"?>
<!DOCTYPE earthquake SYSTEM "stationlist.dtd">
<stationlist created="" xmlns="ch.ethz.sed.shakemap.usgs.xml">
  <station code="ADA" name="ADA" netid="VI" insttype="CMG-3ESP" lat="65.0188" lon="-15.5745">
    <comp name="--.HHN">
      <acc value="0.0125138086" flag="0"/>
      <vel value="0.0540811737" flag="0"/>
      <psa03 value="0.0127119145" flag="0"/>
      <psa10 value="0.0182598941" flag="0"/>
      <psa30 value="0.0358879099" flag="0"/>
    </comp>
    <comp name="--.HHE">
      <acc value="0.0113713300" flag="0"/>
      <vel value="0.0386962489" flag="0"/>
      <psa03 value="0.0156407952" flag="0"/>
      <psa10 value="0.0271362908" flag="0"/>
      <psa30 value="0.0417367406" flag="0"/>
    </comp>
    <comp name="--.HHZ">
      <acc value="0.0120169768" flag="0"/>
      <vel value="0.0421001969" flag="0"/>
      <psa03 value="0.0124781958" flag="0"/>
      <psa10 value="0.0224535584" flag="0"/>
      <psa30 value="0.0366502984" flag="0"/>
    </comp>
  </station>
  <station code="GOD" name="GOD" netid="VI" insttype="CMG-3ESP" lat="63.6598" lon="-19.3224">
    <comp name="--.HHE">
      <acc value="0.0230130825" flag="0"/>
      <vel value="0.0859387441" flag="0"/>
      <psa03 value="0.0231586294" flag="0"/>
      <psa10 value="0.0456622718" flag="0"/>
      <psa30 value="0.0703339396" flag="0"/>
    </comp>
    <comp name="--.HHN">
      <acc value="0.0214359933" flag="0"/>
      <vel value="0.0738128362" flag="0"/>
      <psa03 value="0.0223476539" flag="0"/>
      <psa10 value="0.0339202195" flag="0"/>
      <psa30 value="0.0659503737" flag="0"/>
    </comp>
    <comp name="--.HHZ">
      <acc value="0.0136529973" flag="0"/>
      <vel value="0.0491203550" flag="0"/>
      <psa03 value="0.0193308025" flag="0"/>
      <psa10 value="0.0369532488" flag="0"/>
      <psa30 value="0.0469989933" flag="0"/>
    </comp>
  </station>
  <station code="SKR" name="SKR" netid="VI" insttype="LE-3D/5s" lat="64.5601" lon="-18.3865">
    <comp name="--.HHE">
      <acc value="0.3468801492" flag="0"/>
      <vel value="1.0705860033" flag="0"/>
      <psa03 value="0.3846204524" flag="0"/>
      <psa10 value="0.6324627546" flag="0"/>
      <psa30 value="0.4300455075" flag="0"/>
    </comp>
    <comp name="--.HHN">
      <acc value="0.2774246650" flag="0"/>
      <vel value="0.9864374899" flag="0"/>
      <psa03 value="0.3005758287" flag="0"/>
      <psa10 value="0.4866671688" flag="0"/>
      <psa30 value="0.4412644080" flag="0"/>
    </comp>
    <comp name="--.HHZ">
      <acc value="0.2189162828" flag="0"/>
      <vel value="0.5779493356" flag="0"/>
      <psa03 value="0.3678081617" flag="0"/>
      <psa10 value="0.6009051844" flag="0"/>
      <psa30 value="0.4191384631" flag="0"/>
    </comp>
  </station>
</stationlist>
