<?xml version="1.0" encoding="UTF-8" standalone="yes"?>
<!DOCTYPE earthquake SYSTEM "stationlist.dtd">
<stationlist created="" xmlns="ch.ethz.sed.shakemap.usgs.xml">
  <station code="THL" name="THL" netid="MN" insttype="" lat="39.5647" lon="22.0144">
    <comp name="--.HHN">
      <acc value="0.0069606889" flag="0"/>
      <vel value="0.0028354368" flag="0"/>
      <psa03 value="0.0144550918" flag="0"/>
      <psa10 value="0.0026348495" flag="0"/>
      <psa30 value="0.0003183684" flag="0"/>
    </comp>
    <comp name="--.HHE">
      <acc value="0.0055160660" flag="0"/>
      <vel value="0.0018687955" flag="0"/>
      <psa03 value="0.0150683753" flag="0"/>
      <psa10 value="0.0019823831" flag="0"/>
      <psa30 value="0.0001957281" flag="0"/>
    </comp>
    <comp name="--.HHZ">
      <acc value="0.0045588631" flag="0"/>
      <vel value="0.0019375499" flag="0"/>
      <psa03 value="0.0116622213" flag="0"/>
      <psa10 value="0.0023591245" flag="0"/>
      <psa30 value="0.0003153531" flag="0"/>
    </comp>
  </station>
</stationlist>
