<?xml version="1.0" encoding="UTF-8" standalone="yes"?>
<!DOCTYPE earthquake SYSTEM "stationlist.dtd">
<stationlist created="" xmlns="ch.ethz.sed.shakemap.usgs.xml">
  <station code="KARP" name="KARP" netid="GE" source="GFZ" insttype="STS-2/N" lat="35.5471" lon="27.1611">
    <comp name="--.HHE">
      <acc value="0.0545349726" flag="0"/>
      <vel value="0.0117533839" flag="0"/>
      <psa03 value="0.0702229312" flag="0"/>
      <psa10 value="0.0182858949" flag="0"/>
      <psa30 value="0.0017725788" flag="0"/>
    </comp>
    <comp name="--.HHN">
      <acc value="0.0437622407" flag="0"/>
      <vel value="0.0136779639" flag="0"/>
      <psa03 value="0.0650760744" flag="0"/>
      <psa10 value="0.0198428324" flag="0"/>
      <psa30 value="0.0011426192" flag="0"/>
    </comp>
    <comp name="--.HHZ">
      <acc value="0.0481346495" flag="0"/>
      <vel value="0.0129756455" flag="0"/>
      <psa03 value="0.0727337210" flag="0"/>
      <psa10 value="0.0121517515" flag="0"/>
      <psa30 value="0.0014767353" flag="0"/>
    </comp>
  </station>
  <station code="ARG" name="ARG" netid="HL" source="NOA" insttype="LE3D20_DR24" lat="36.2136" lon="28.1212">
    <comp name="--.HHE">
      <acc value="0.0168701521" flag="0"/>
      <vel value="0.0089668362" flag="0"/>
      <psa03 value="0.0396959780" flag="0"/>
      <psa10 value="0.0112900027" flag="0"/>
      <psa30 value="0.0014653747" flag="0"/>
    </comp>
    <comp name="--.HHN">
      <acc value="0.0117035284" flag="0"/>
      <vel value="0.0078477537" flag="0"/>
      <psa03 value="0.0256703691" flag="0"/>
      <psa10 value="0.0097233439" flag="0"/>
      <psa30 value="0.0017790580" flag="0"/>
    </comp>
    <comp name="--.HHZ">
      <acc value="0.0096513926" flag="0"/>
      <vel value="0.0058977681" flag="0"/>
      <psa03 value="0.0220879640" flag="0"/>
      <psa10 value="0.0096696408" flag="0"/>
      <psa30 value="0.0009117975" flag="0"/>
    </comp>
  </station>
  <station code="KARP" name="KARP" netid="HL" source="NOA" insttype="120" lat="35.5471" lon="27.1611">
    <comp name="--.HHE">
      <acc value="0.0489580397" flag="0"/>
      <vel value="0.0114314561" flag="0"/>
      <psa03 value="0.0683964070" flag="0"/>
      <psa10 value="0.0182021393" flag="0"/>
      <psa30 value="0.0017696274" flag="0"/>
    </comp>
    <comp name="--.HHN">
      <acc value="0.0430933489" flag="0"/>
      <vel value="0.0133956970" flag="0"/>
      <psa03 value="0.0632306964" flag="0"/>
      <psa10 value="0.0197406531" flag="0"/>
      <psa30 value="0.0011400296" flag="0"/>
    </comp>
    <comp name="--.HHZ">
      <acc value="0.0457211909" flag="0"/>
      <vel value="0.0125964691" flag="0"/>
      <psa03 value="0.0707668969" flag="0"/>
      <psa10 value="0.0120620701" flag="0"/>
      <psa30 value="0.0014743481" flag="0"/>
    </comp>
  </station>
</stationlist>
