<stationlist xmlns:esm="https://esm-db.eu/esmws/shakemap/1/" created="1783475640">
	<station code="KARP" name="KARP" netid="GE" source="GEOFON" insttype="" lat="35.5471" lon="27.16106" esm:processing="manual (Paolucci et al 2011)" esm:quality="good">
		<comp name="--.HNE" depth="0.0">
			<acc value="0.0483536778884199" flag="0"/>
			<vel value="0.0120202563804921" flag="0"/>
			<psa03 value="0.0638471288442738" flag="0"/>
			<psa10 value="0.017826637382918" flag="0"/>
			<psa30 value="0.00219371039049386" flag="0"/>
		</comp>
		<comp name="--.HNN" depth="0.0">
			<acc value="0.0386242804595299" flag="0"/>
			<vel value="0.0141128934574976" flag="0"/>
			<psa03 value="0.0588360017030274" flag="0"/>
			<psa10 value="0.0195541339804495" flag="0"/>
			<psa30 value="0.00130557758912117" flag="0"/>
		</comp>
		<comp name="--.HNZ" depth="0.0">
			<acc value="0.0393826005799334" flag="0"/>
			<vel value="0.0105288541165124" flag="0"/>
			<psa03 value="0.0625943470589622" flag="0"/>
			<psa10 value="0.0103851135781671" flag="0"/>
			<psa30 value="0.00155389683585258" flag="0"/>
		</comp>
	</station>
	<station code="RDI1" name="RDI1" netid="HI" source="ITSAK Strong Motion Network" insttype="" lat="36.4514" lon="28.224" esm:processing="manual (Paolucci et al 2011)" esm:quality="good">
		<comp name="--.HNE" depth="0.0">
			<acc value="0.0163821725643568" flag="0"/>
			<vel value="0.0192058914011433" flag="0"/>
			<psa03 value="0.0486795208006797" flag="0"/>
			<psa10 value="0.0265768707312534" flag="0"/>
			<psa30 value="0.00322859762957449" flag="0"/>
		</comp>
		<comp name="--.HNN" depth="0.0">
			<acc value="0.0169057079963766" flag="0"/>
			<vel value="0.019511526537343" flag="0"/>
			<psa03 value="0.0420576742211754" flag="0"/>
			<psa10 value="0.0309298400131451" flag="0"/>
			<psa30 value="0.00254806866691058" flag="0"/>
		</comp>
		<comp name="--.HNZ" depth="0.0">
			<acc value="0.0105887520842268" flag="0"/>
			<vel value="0.00951562882321605" flag="0"/>
			<psa03 value="0.0259504798385976" flag="0"/>
			<psa10 value="0.0158816936612217" flag="0"/>
			<psa30 value="0.000986565655932892" flag="0"/>
		</comp>
	</station>
	<station code="RGE1" name="RGE1" netid="HI" source="ITSAK Strong Motion Network" insttype="" lat="36.0269" lon="27.9306" esm:processing="manual (Paolucci et al 2011)" esm:quality="best">
		<comp name="--.HNE" depth="0.0">
			<acc value="0.0490128076729863" flag="0"/>
			<vel value="0.0203410642020843" flag="0"/>
			<psa03 value="0.143667225451271" flag="0"/>
			<psa10 value="0.0176736190362835" flag="0"/>
			<psa30 value="0.00277580649859758" flag="0"/>
		</comp>
		<comp name="--.HNN" depth="0.0">
			<acc value="0.0515982216100533" flag="0"/>
			<vel value="0.0214069512157365" flag="0"/>
			<psa03 value="0.103533466114681" flag="0"/>
			<psa10 value="0.0182736120270345" flag="0"/>
			<psa30 value="0.00266529324825045" flag="0"/>
		</comp>
		<comp name="--.HNZ" depth="0.0">
			<acc value="0.0241702107131842" flag="0"/>
			<vel value="0.00783952778316535" flag="0"/>
			<psa03 value="0.0541380700081088" flag="0"/>
			<psa10 value="0.00823480312809292" flag="0"/>
			<psa30 value="0.00171094198108271" flag="0"/>
		</comp>
	</station>
	<station code="KARP" name="KARP" netid="HL" source="National Observatory of Athens Seismic Network" insttype="" lat="35.5471" lon="27.16106" esm:processing="manual (Paolucci et al 2011)" esm:quality="good">
		<comp name="--.HNE" depth="0.0">
			<acc value="0.0473914334289545" flag="0"/>
			<vel value="0.0115086366179709" flag="0"/>
			<psa03 value="0.0625496048523439" flag="0"/>
			<psa10 value="0.0174601987107144" flag="0"/>
			<psa30 value="0.00207201158849216" flag="0"/>
		</comp>
		<comp name="--.HNN" depth="0.0">
			<acc value="0.0378632515605941" flag="0"/>
			<vel value="0.0138865121210569" flag="0"/>
			<psa03 value="0.0576727043309523" flag="0"/>
			<psa10 value="0.0191393737250981" flag="0"/>
			<psa30 value="0.00123801685712758" flag="0"/>
		</comp>
		<comp name="--.HNZ" depth="0.0">
			<acc value="0.038612653899365" flag="0"/>
			<vel value="0.0105063330925504" flag="0"/>
			<psa03 value="0.0613415652736506" flag="0"/>
			<psa10 value="0.0101716932525979" flag="0"/>
			<psa30 value="0.00146754437707931" flag="0"/>
		</comp>
	</station>
	<station code="KSL" name="KSL" netid="HL" source="National Observatory of Athens Seismic Network" insttype="" lat="36.15031" lon="29.58561" esm:processing="manual (Paolucci et al 2011)" esm:quality="bad">
		<comp name="00.HNE" depth="0.0">
			<acc value="0.00144342248345787" flag="0"/>
			<vel value="0.00320588311507884" flag="0"/>
			<psa03 value="0.00465318948830026" flag="0"/>
			<psa10 value="0.00378519067990579" flag="0"/>
			<psa30 value="0.00100088316205074" flag="0"/>
		</comp>
		<comp name="00.HNN" depth="0.0">
			<acc value="0.000916625196058724" flag="0"/>
			<vel value="0.00176495569938416" flag="0"/>
			<psa03 value="0.00263979019047803" flag="0"/>
			<psa10 value="0.00194091692310063" flag="0"/>
			<psa30 value="0.00110647476966986" flag="0"/>
		</comp>
		<comp name="00.HNZ" depth="0.0">
			<acc value="0.001267762984036" flag="0"/>
			<vel value="0.00110638244472498" flag="0"/>
			<psa03 value="0.00259504798385976" flag="0"/>
			<psa10 value="0.00148991548038845" flag="0"/>
			<psa30 value="0.000489479740403893" flag="0"/>
		</comp>
	</station>
	<station code="NISR" name="NISR" netid="HL" source="National Observatory of Athens Seismic Network" insttype="" lat="36.6106" lon="27.131" esm:processing="manual (Paolucci et al 2011)" esm:quality="good">
		<comp name="00.HNE" depth="0.0">
			<acc value="0.00794344551734424" flag="0"/>
			<vel value="0.00755755657054829" flag="0"/>
			<psa03 value="0.0205525633293705" flag="0"/>
			<psa10 value="0.00840469489478867" flag="0"/>
			<psa30 value="0.00283767923232253" flag="0"/>
		</comp>
		<comp name="00.HNN" depth="0.0">
			<acc value="0.00437575779522354" flag="0"/>
			<vel value="0.00488189735276949" flag="0"/>
			<psa03 value="0.0119355367644841" flag="0"/>
			<psa10 value="0.00603264916465045" flag="0"/>
			<psa30 value="0.00209165043657613" flag="0"/>
		</comp>
		<comp name="00.HNZ" depth="0.0">
			<acc value="0.00274841465071321" flag="0"/>
			<vel value="0.00229074689978084" flag="0"/>
			<psa03 value="0.00584135766440237" flag="0"/>
			<psa10 value="0.00437304047371961" flag="0"/>
			<psa30 value="0.000849813848080098" flag="0"/>
		</comp>
	</station>
	<station code="RODB" name="RODB" netid="HL" source="National Observatory of Athens Seismic Network" insttype="" lat="36.4471" lon="28.22116" esm:processing="manual (Paolucci et al 2011)" esm:quality="good">
		<comp name="00.HNE" depth="0.0">
			<acc value="0.0182717547027336" flag="0"/>
			<vel value="0.0179592183990157" flag="0"/>
			<psa03 value="0.0508939912688135" flag="0"/>
			<psa10 value="0.0311803586707367" flag="0"/>
			<psa30 value="0.00182833778507191" flag="0"/>
		</comp>
		<comp name="00.HNN" depth="0.0">
			<acc value="0.0177365196606802" flag="0"/>
			<vel value="0.0185192373494427" flag="0"/>
			<psa03 value="0.0639115879957096" flag="0"/>
			<psa10 value="0.0181579416245181" flag="0"/>
			<psa30 value="0.00147221044338331" flag="0"/>
		</comp>
		<comp name="00.HNZ" depth="0.0">
			<acc value="0.00950036446207551" flag="0"/>
			<vel value="0.00775118191045336" flag="0"/>
			<psa03 value="0.0267538113712024" flag="0"/>
			<psa10 value="0.0157133909350321" flag="0"/>
			<psa30 value="0.000624395686066493" flag="0"/>
		</comp>
	</station>
	<station code="ZKR" name="ZKR" netid="HL" source="National Observatory of Athens Seismic Network" insttype="" lat="35.1147" lon="26.21691" esm:processing="manual (Paolucci et al 2011)" esm:quality="good">
		<comp name="00.HNE" depth="0.0">
			<acc value="0.00650554726826025" flag="0"/>
			<vel value="0.00803041622611691" flag="0"/>
			<psa03 value="0.0150781236303576" flag="0"/>
			<psa10 value="0.0135542040729392" flag="0"/>
			<psa30 value="0.000812965894253998" flag="0"/>
		</comp>
		<comp name="00.HNN" depth="0.0">
			<acc value="0.00512484198177772" flag="0"/>
			<vel value="0.00607858843361346" flag="0"/>
			<psa03 value="0.0139148262582825" flag="0"/>
			<psa10 value="0.0067932092308522" flag="0"/>
			<psa30 value="0.00116419221620743" flag="0"/>
		</comp>
		<comp name="00.HNZ" depth="0.0">
			<acc value="0.00308964227209671" flag="0"/>
			<vel value="0.00362615784132809" flag="0"/>
			<psa03 value="0.00657710437288595" flag="0"/>
			<psa10 value="0.012640120791728" flag="0"/>
			<psa30 value="0.000924821410799677" flag="0"/>
		</comp>
	</station>
	<station code="SIT2" name="SIT2" netid="HI" source="ITSAK Strong Motion Network" insttype="" lat="35.2059" lon="26.107" esm:processing="discarded" esm:quality="good">
		<comp name="--.HNE" depth="0.0">
			<acc value="0" flag="1"/>
			<vel value="0" flag="1"/>
			<psa03 value="0" flag="1"/>
			<psa10 value="0" flag="1"/>
			<psa30 value="0" flag="1"/>
		</comp>
		<comp name="--.HNN" depth="0.0">
			<acc value="0" flag="1"/>
			<vel value="0" flag="1"/>
			<psa03 value="0" flag="1"/>
			<psa10 value="0" flag="1"/>
			<psa30 value="0" flag="1"/>
		</comp>
		<comp name="--.HNZ" depth="0.0">
			<acc value="0" flag="1"/>
			<vel value="0" flag="1"/>
			<psa03 value="0" flag="1"/>
			<psa10 value="0" flag="1"/>
			<psa30 value="0" flag="1"/>
		</comp>
	</station>
	<station code="ASTA" name="ASTA" netid="HL" source="National Observatory of Athens Seismic Network" insttype="" lat="36.54552" lon="26.35295" esm:processing="automatic (Paolucci et al 2011)" esm:quality="bad">
		<comp name="00.HNE" depth="0.0">
			<acc value="0" flag="1"/>
			<vel value="0" flag="1"/>
			<psa03 value="0" flag="1"/>
			<psa10 value="0" flag="1"/>
			<psa30 value="0" flag="1"/>
		</comp>
		<comp name="00.HNN" depth="0.0">
			<acc value="0" flag="1"/>
			<vel value="0" flag="1"/>
			<psa03 value="0" flag="1"/>
			<psa10 value="0" flag="1"/>
			<psa30 value="0" flag="1"/>
		</comp>
		<comp name="00.HNZ" depth="0.0">
			<acc value="0" flag="1"/>
			<vel value="0" flag="1"/>
			<psa03 value="0" flag="1"/>
			<psa10 value="0" flag="1"/>
			<psa30 value="0" flag="1"/>
		</comp>
	</station>
	<station code="KLNA" name="KLNA" netid="HL" source="National Observatory of Athens Seismic Network" insttype="" lat="36.95708" lon="26.97274" esm:processing="automatic (Paolucci et al 2011)" esm:quality="bad">
		<comp name="00.HNE" depth="0.0">
			<acc value="0" flag="1"/>
			<vel value="0" flag="1"/>
			<psa03 value="0" flag="1"/>
			<psa10 value="0" flag="1"/>
			<psa30 value="0" flag="1"/>
		</comp>
		<comp name="00.HNN" depth="0.0">
			<acc value="0" flag="1"/>
			<vel value="0" flag="1"/>
			<psa03 value="0" flag="1"/>
			<psa10 value="0" flag="1"/>
			<psa30 value="0" flag="1"/>
		</comp>
		<comp name="00.HNZ" depth="0.0">
			<acc value="0" flag="1"/>
			<vel value="0" flag="1"/>
			<psa03 value="0" flag="1"/>
			<psa10 value="0" flag="1"/>
			<psa30 value="0" flag="1"/>
		</comp>
	</station>
	<station code="DEMR" name="DEMR" netid="KO" source="Bogazici University Kandilli Observatory And Earthquake Research Institute (KOERI)" insttype="" lat="36.2365" lon="29.9056" esm:processing="discarded" esm:quality="bad">
		<comp name="--.HNE" depth="0.0">
			<acc value="0" flag="1"/>
			<vel value="0" flag="1"/>
			<psa03 value="0" flag="1"/>
			<psa10 value="0" flag="1"/>
			<psa30 value="0" flag="1"/>
		</comp>
		<comp name="--.HNN" depth="0.0">
			<acc value="0" flag="1"/>
			<vel value="0" flag="1"/>
			<psa03 value="0" flag="1"/>
			<psa10 value="0" flag="1"/>
			<psa30 value="0" flag="1"/>
		</comp>
		<comp name="--.HNZ" depth="0.0">
			<acc value="0" flag="1"/>
			<vel value="0" flag="1"/>
			<psa03 value="0" flag="1"/>
			<psa10 value="0" flag="1"/>
			<psa30 value="0" flag="1"/>
		</comp>
	</station>
</stationlist>
