<?xml version="1.0" encoding="UTF-8" standalone="yes"?>
<!DOCTYPE earthquake SYSTEM "stationlist.dtd">
<stationlist created="" xmlns="ch.ethz.sed.shakemap.usgs.xml">
  <station code="ACB" name="ACB" netid="CH" insttype="Trillium 240s_g2" commtype="DIG" lat="47.5877" lon="8.25474">
    <comp name="--.HHE">
      <acc value="0.0219215788" flag="0"/>
      <vel value="0.0089749306" flag="0"/>
      <psa03 value="0.0540187134" flag="0"/>
      <psa10 value="0.0045352173" flag="0"/>
      <psa30 value="0.0004818831" flag="0"/>
    </comp>
    <comp name="--.HHZ">
      <acc value="0.0166088351" flag="0"/>
      <vel value="0.0072222479" flag="0"/>
      <psa03 value="0.0429376911" flag="0"/>
      <psa10 value="0.0035560110" flag="0"/>
      <psa30 value="0.0003675168" flag="0"/>
    </comp>
    <comp name="--.HHN">
      <acc value="0.0310857266" flag="0"/>
      <vel value="0.0103893178" flag="0"/>
      <psa03 value="0.0437564010" flag="0"/>
      <psa10 value="0.0080709690" flag="0"/>
      <psa30 value="0.0004346724" flag="0"/>
    </comp>
  </station>
  <station code="AIGLE" name="AIGLE" netid="CH" insttype="Trillium 240s_g2" commtype="DIG" lat="46.3418" lon="6.95295">
    <comp name="--.HHN">
      <acc value="0.0064939707" flag="0"/>
      <vel value="0.0048617109" flag="0"/>
      <psa03 value="0.0112196184" flag="0"/>
      <psa10 value="0.0105788115" flag="0"/>
      <psa30 value="0.0013570017" flag="0"/>
    </comp>
    <comp name="--.HHZ">
      <acc value="0.0093761122" flag="0"/>
      <vel value="0.0047021134" flag="0"/>
      <psa03 value="0.0190417921" flag="0"/>
      <psa10 value="0.0042856477" flag="0"/>
      <psa30 value="0.0006045124" flag="0"/>
    </comp>
    <comp name="--.HHE">
      <acc value="0.0096421539" flag="0"/>
      <vel value="0.0080510956" flag="0"/>
      <psa03 value="0.0278822570" flag="0"/>
      <psa10 value="0.0127615942" flag="0"/>
      <psa30 value="0.0009130590" flag="0"/>
    </comp>
  </station>
  <station code="BALST" name="BALST" netid="CH" insttype="STS2_gen3" commtype="DIG" lat="47.336" lon="7.69485">
    <comp name="--.HHZ">
      <acc value="0.0219086052" flag="0"/>
      <vel value="0.0072918806" flag="0"/>
      <psa03 value="0.0473167860" flag="0"/>
      <psa10 value="0.0058310832" flag="0"/>
      <psa30 value="0.0007080203" flag="0"/>
    </comp>
    <comp name="--.HHE">
      <acc value="0.0367378951" flag="0"/>
      <vel value="0.0133346523" flag="0"/>
      <psa03 value="0.0829283247" flag="0"/>
      <psa10 value="0.0066434166" flag="0"/>
      <psa30 value="0.0008475959" flag="0"/>
    </comp>
    <comp name="--.HHN">
      <acc value="0.0285054772" flag="0"/>
      <vel value="0.0135932560" flag="0"/>
      <psa03 value="0.0698257207" flag="0"/>
      <psa10 value="0.0053872815" flag="0"/>
      <psa30 value="0.0006859464" flag="0"/>
    </comp>
  </station>
  <station code="BLOTZ" name="BLOTZ" netid="CH" insttype="EpiSensor ES-T" commtype="DIG" lat="47.6207" lon="7.44006">
    <comp name="SF.HGN">
      <acc value="0.0234080820" flag="0"/>
      <vel value="0.0057625753" flag="0"/>
      <psa03 value="0.0305336365" flag="0"/>
      <psa10 value="0.0019872746" flag="0"/>
      <psa30 value="0.0001702245" flag="0"/>
    </comp>
    <comp name="SF.HGE">
      <acc value="0.0213488387" flag="0"/>
      <vel value="0.0049599645" flag="0"/>
      <psa03 value="0.0338497016" flag="0"/>
      <psa10 value="0.0014439373" flag="0"/>
      <psa30 value="0.0001598328" flag="0"/>
    </comp>
    <comp name="SF.HGZ">
      <acc value="0.0056754250" flag="0"/>
      <vel value="0.0016744039" flag="0"/>
      <psa03 value="0.0087881592" flag="0"/>
      <psa10 value="0.0008730641" flag="0"/>
      <psa30 value="0.0001631633" flag="0"/>
    </comp>
  </station>
  <station code="BNALP" name="BNALP" netid="CH" insttype="STS2_gen3" commtype="DIG" lat="46.8703" lon="8.4249">
    <comp name="--.HHZ">
      <acc value="0.0073461136" flag="0"/>
      <vel value="0.0029223763" flag="0"/>
      <psa03 value="0.0115165922" flag="0"/>
      <psa10 value="0.0015615138" flag="0"/>
      <psa30 value="0.0003634302" flag="0"/>
    </comp>
    <comp name="--.HHN">
      <acc value="0.0152122582" flag="0"/>
      <vel value="0.0049024285" flag="0"/>
      <psa03 value="0.0303687068" flag="0"/>
      <psa10 value="0.0037743562" flag="0"/>
      <psa30 value="0.0007321365" flag="0"/>
    </comp>
    <comp name="--.HHE">
      <acc value="0.0094877461" flag="0"/>
      <vel value="0.0028505052" flag="0"/>
      <psa03 value="0.0180093744" flag="0"/>
      <psa10 value="0.0020654740" flag="0"/>
      <psa30 value="0.0005509081" flag="0"/>
    </comp>
  </station>
  <station code="BOBI" name="BOBI" netid="CH" insttype="EpiSensor ES-T" commtype="DIG" lat="47.5463" lon="8.33992">
    <comp name="SF.HGN">
      <acc value="0.1097621418" flag="0"/>
      <vel value="0.0320184889" flag="0"/>
      <psa03 value="0.1087282298" flag="0"/>
      <psa10 value="0.0225240729" flag="0"/>
      <psa30 value="0.0017452138" flag="0"/>
    </comp>
    <comp name="SF.HGE">
      <acc value="0.1068210304" flag="0"/>
      <vel value="0.0328007052" flag="0"/>
      <psa03 value="0.1657449151" flag="0"/>
      <psa10 value="0.0164010081" flag="0"/>
      <psa30 value="0.0021283958" flag="0"/>
    </comp>
    <comp name="SF.HGZ">
      <acc value="0.0829954986" flag="0"/>
      <vel value="0.0183797313" flag="0"/>
      <psa03 value="0.1424107570" flag="0"/>
      <psa10 value="0.0108406538" flag="0"/>
      <psa30 value="0.0021933512" flag="0"/>
    </comp>
  </station>
  <station code="BOURR" name="BOURR" netid="CH" insttype="STS2.5" commtype="DIG" lat="47.3936" lon="7.2301">
    <comp name="--.HHN">
      <acc value="0.0098068932" flag="0"/>
      <vel value="0.0081187892" flag="0"/>
      <psa03 value="0.0218288073" flag="0"/>
      <psa10 value="0.0119616763" flag="0"/>
      <psa30 value="0.0005950517" flag="0"/>
    </comp>
    <comp name="--.HHZ">
      <acc value="0.0127634171" flag="0"/>
      <vel value="0.0073100013" flag="0"/>
      <psa03 value="0.0468951990" flag="0"/>
      <psa10 value="0.0045918799" flag="0"/>
      <psa30 value="0.0008540513" flag="0"/>
    </comp>
    <comp name="--.HHE">
      <acc value="0.0114509245" flag="0"/>
      <vel value="0.0059154055" flag="0"/>
      <psa03 value="0.0278948644" flag="0"/>
      <psa10 value="0.0050334609" flag="0"/>
      <psa30 value="0.0007059822" flag="0"/>
    </comp>
  </station>
  <station code="BRANT" name="BRANT" netid="CH" insttype="STS2.5" commtype="DIG" lat="46.938" lon="6.47298">
    <comp name="--.HHN">
      <acc value="0.0088159869" flag="0"/>
      <vel value="0.0042700806" flag="0"/>
      <psa03 value="0.0222844542" flag="0"/>
      <psa10 value="0.0057831426" flag="0"/>
      <psa30 value="0.0003977876" flag="0"/>
    </comp>
    <comp name="--.HHE">
      <acc value="0.0134871761" flag="0"/>
      <vel value="0.0053718756" flag="0"/>
      <psa03 value="0.0204117165" flag="0"/>
      <psa10 value="0.0034509422" flag="0"/>
      <psa30 value="0.0003034989" flag="0"/>
    </comp>
    <comp name="--.HHZ">
      <acc value="0.0073584416" flag="0"/>
      <vel value="0.0041008401" flag="0"/>
      <psa03 value="0.0185566554" flag="0"/>
      <psa10 value="0.0031006944" flag="0"/>
      <psa30 value="0.0003143866" flag="0"/>
    </comp>
  </station>
  <station code="BULAC" name="BULAC" netid="CH" insttype="ABBT" commtype="DIG" lat="47.5424" lon="8.52044">
    <comp name="BT.HG2">
      <acc value="0.0233360393" flag="0"/>
      <vel value="0.0097066417" flag="0"/>
      <psa03 value="0.0611211031" flag="0"/>
      <psa10 value="0.0026159533" flag="0"/>
      <psa30 value="0.0002428441" flag="0"/>
    </comp>
    <comp name="BT.HGZ">
      <acc value="0.0084355989" flag="0"/>
      <vel value="0.0023105057" flag="0"/>
      <psa03 value="0.0075808150" flag="0"/>
      <psa10 value="0.0007400035" flag="0"/>
      <psa30 value="0.0002955861" flag="0"/>
    </comp>
    <comp name="BT.HG1">
      <acc value="0.1752246950" flag="0"/>
      <vel value="0.3192734018" flag="0"/>
      <psa03 value="0.3581182080" flag="0"/>
      <psa10 value="0.3096558335" flag="0"/>
      <psa30 value="0.2115071680" flag="0"/>
    </comp>
  </station>
  <station code="CHAMB" name="CHAMB" netid="CH" insttype="Trillium Compact 120s" commtype="DIG" lat="46.7823" lon="6.61184">
    <comp name="--.HHN">
      <acc value="0.0074306259" flag="0"/>
      <vel value="0.0039970354" flag="0"/>
      <psa03 value="0.0124524674" flag="0"/>
      <psa10 value="0.0058305195" flag="0"/>
      <psa30 value="0.0005080708" flag="0"/>
    </comp>
    <comp name="--.HHE">
      <acc value="0.0066064941" flag="0"/>
      <vel value="0.0031845511" flag="0"/>
      <psa03 value="0.0116465733" flag="0"/>
      <psa10 value="0.0028590675" flag="0"/>
      <psa30 value="0.0004762615" flag="0"/>
    </comp>
    <comp name="--.HHZ">
      <acc value="0.0065359957" flag="0"/>
      <vel value="0.0036851074" flag="0"/>
      <psa03 value="0.0087650115" flag="0"/>
      <psa10 value="0.0046922371" flag="0"/>
      <psa30 value="0.0005375752" flag="0"/>
    </comp>
  </station>
  <station code="CHASS" name="CHASS" netid="CH" insttype="Trillium 240s_g2" commtype="DIG" lat="47.1609" lon="7.12129">
    <comp name="--.HHN">
      <acc value="0.0444722928" flag="0"/>
      <vel value="0.0131082395" flag="0"/>
      <psa03 value="0.0426832979" flag="0"/>
      <psa10 value="0.0050438809" flag="0"/>
      <psa30 value="0.0008714798" flag="0"/>
    </comp>
    <comp name="--.HHE">
      <acc value="0.0284977832" flag="0"/>
      <vel value="0.0095974042" flag="0"/>
      <psa03 value="0.0206642346" flag="0"/>
      <psa10 value="0.0057862108" flag="0"/>
      <psa30 value="0.0003984921" flag="0"/>
    </comp>
    <comp name="--.HHZ">
      <acc value="0.0120970174" flag="0"/>
      <vel value="0.0051464052" flag="0"/>
      <psa03 value="0.0160236096" flag="0"/>
      <psa10 value="0.0041578000" flag="0"/>
      <psa30 value="0.0011749270" flag="0"/>
    </comp>
  </station>
  <station code="DAGMA" name="DAGMA" netid="CH" insttype="Trillium Compact 120s" commtype="DIG" lat="47.2309" lon="8.01248">
    <comp name="--.HHN">
      <acc value="0.0268455542" flag="0"/>
      <vel value="0.0083698796" flag="0"/>
      <psa03 value="0.0430102506" flag="0"/>
      <psa10 value="0.0059759863" flag="0"/>
      <psa30 value="0.0008683360" flag="0"/>
    </comp>
    <comp name="--.HHE">
      <acc value="0.0386087595" flag="0"/>
      <vel value="0.0143074712" flag="0"/>
      <psa03 value="0.0613630677" flag="0"/>
      <psa10 value="0.0042827273" flag="0"/>
      <psa30 value="0.0020501594" flag="0"/>
    </comp>
    <comp name="--.HHZ">
      <acc value="0.0197490984" flag="0"/>
      <vel value="0.0065430748" flag="0"/>
      <psa03 value="0.0364873253" flag="0"/>
      <psa10 value="0.0052863864" flag="0"/>
      <psa30 value="0.0007429398" flag="0"/>
    </comp>
  </station>
  <station code="DIX" name="DIX" netid="CH" insttype="STS2.5" commtype="DIG" lat="46.0811" lon="7.40839">
    <comp name="--.HHN">
      <acc value="0.0091313427" flag="0"/>
      <vel value="0.0041253742" flag="0"/>
      <psa03 value="0.0177687091" flag="0"/>
      <psa10 value="0.0022853024" flag="0"/>
      <psa30 value="0.0005647118" flag="0"/>
    </comp>
    <comp name="--.HHE">
      <acc value="0.0074270776" flag="0"/>
      <vel value="0.0035957878" flag="0"/>
      <psa03 value="0.0172488997" flag="0"/>
      <psa10 value="0.0031864736" flag="0"/>
      <psa30 value="0.0003781895" flag="0"/>
    </comp>
    <comp name="--.HHZ">
      <acc value="0.0074467393" flag="0"/>
      <vel value="0.0026604708" flag="0"/>
      <psa03 value="0.0077876830" flag="0"/>
      <psa10 value="0.0028986174" flag="0"/>
      <psa30 value="0.0007974431" flag="0"/>
    </comp>
  </station>
  <station code="EMBD" name="EMBD" netid="CH" insttype="Trillium 40s" commtype="DIG" lat="46.2165" lon="7.83223">
    <comp name="--.HHN">
      <acc value="0.0180586183" flag="0"/>
      <vel value="0.0065246251" flag="0"/>
      <psa03 value="0.0439396642" flag="0"/>
      <psa10 value="0.0055304337" flag="0"/>
      <psa30 value="0.0014194481" flag="0"/>
    </comp>
    <comp name="--.HHE">
      <acc value="0.0352892392" flag="0"/>
      <vel value="0.0108595637" flag="0"/>
      <psa03 value="0.0572487212" flag="0"/>
      <psa10 value="0.0046570181" flag="0"/>
      <psa30 value="0.0014620030" flag="0"/>
    </comp>
    <comp name="--.HHZ">
      <acc value="0.0136432749" flag="0"/>
      <vel value="0.0073631715" flag="0"/>
      <psa03 value="0.0354104616" flag="0"/>
      <psa10 value="0.0057291292" flag="0"/>
      <psa30 value="0.0013206778" flag="0"/>
    </comp>
  </station>
  <station code="EMMET" name="EMMET" netid="CH" insttype="Trillium Compact 120s" commtype="DIG" lat="47.4376" lon="8.01358">
    <comp name="--.HHZ">
      <acc value="0.0282202628" flag="0"/>
      <vel value="0.0094337847" flag="0"/>
      <psa03 value="0.1200670872" flag="0"/>
      <psa10 value="0.0038575145" flag="0"/>
      <psa30 value="0.0005315479" flag="0"/>
    </comp>
    <comp name="--.HHE">
      <acc value="0.0538191623" flag="0"/>
      <vel value="0.0148917329" flag="0"/>
      <psa03 value="0.1114801880" flag="0"/>
      <psa10 value="0.0091351528" flag="0"/>
      <psa30 value="0.0009407848" flag="0"/>
    </comp>
    <comp name="--.HHN">
      <acc value="0.0377970413" flag="0"/>
      <vel value="0.0114866855" flag="0"/>
      <psa03 value="0.0822095364" flag="0"/>
      <psa10 value="0.0094789765" flag="0"/>
      <psa30 value="0.0007914649" flag="0"/>
    </comp>
  </station>
  <station code="FIESA" name="FIESA" netid="CH" insttype="STS2_gen2" commtype="DIG" lat="46.4352" lon="8.11051">
    <comp name="--.HHE">
      <acc value="0.0322456845" flag="0"/>
      <vel value="0.0206578052" flag="0"/>
      <psa03 value="0.0293135635" flag="0"/>
      <psa10 value="0.0407286170" flag="0"/>
      <psa30 value="0.0040469917" flag="0"/>
    </comp>
    <comp name="--.HHN">
      <acc value="0.0349561467" flag="0"/>
      <vel value="0.0156357777" flag="0"/>
      <psa03 value="0.0236051204" flag="0"/>
      <psa10 value="0.0249020842" flag="0"/>
      <psa30 value="0.0035980639" flag="0"/>
    </comp>
    <comp name="--.HHZ">
      <acc value="0.0308609724" flag="0"/>
      <vel value="0.0153591042" flag="0"/>
      <psa03 value="0.0178996017" flag="0"/>
      <psa10 value="0.0261814324" flag="0"/>
      <psa30 value="0.0027593137" flag="0"/>
    </comp>
  </station>
  <station code="GIMEL" name="GIMEL" netid="CH" insttype="Trillium 240s_g2" commtype="DIG" lat="46.5336" lon="6.26545">
    <comp name="--.HHN">
      <acc value="0.0090982407" flag="0"/>
      <vel value="0.0028146935" flag="0"/>
      <psa03 value="0.0095606505" flag="0"/>
      <psa10 value="0.0022889456" flag="0"/>
      <psa30 value="0.0003129397" flag="0"/>
    </comp>
    <comp name="--.HHZ">
      <acc value="0.0065568181" flag="0"/>
      <vel value="0.0032000631" flag="0"/>
      <psa03 value="0.0092428572" flag="0"/>
      <psa10 value="0.0035128809" flag="0"/>
      <psa30 value="0.0002582099" flag="0"/>
    </comp>
    <comp name="--.HHE">
      <acc value="0.0074662280" flag="0"/>
      <vel value="0.0024352152" flag="0"/>
      <psa03 value="0.0121406171" flag="0"/>
      <psa10 value="0.0023864569" flag="0"/>
      <psa30 value="0.0002316556" flag="0"/>
    </comp>
  </station>
  <station code="GOURZ" name="GOURZ" netid="CH" insttype="Trillium Compact 120s" commtype="DIG" lat="46.5111" lon="6.74125">
    <comp name="--.HHN">
      <acc value="0.0215799509" flag="0"/>
      <vel value="0.0076039427" flag="0"/>
      <psa03 value="0.0373946350" flag="0"/>
      <psa10 value="0.0075698965" flag="0"/>
      <psa30 value="0.0006580016" flag="0"/>
    </comp>
    <comp name="--.HHZ">
      <acc value="0.0106193021" flag="0"/>
      <vel value="0.0032950842" flag="0"/>
      <psa03 value="0.0212673202" flag="0"/>
      <psa10 value="0.0043550883" flag="0"/>
      <psa30 value="0.0005996255" flag="0"/>
    </comp>
    <comp name="--.HHE">
      <acc value="0.0316769387" flag="0"/>
      <vel value="0.0082176288" flag="0"/>
      <psa03 value="0.0393252002" flag="0"/>
      <psa10 value="0.0063020554" flag="0"/>
      <psa30 value="0.0005194710" flag="0"/>
    </comp>
  </station>
  <station code="GRIMS" name="GRIMS" netid="CH" insttype="STS2_gen3" commtype="DIG" lat="46.5781" lon="8.31886">
    <comp name="--.HHZ">
      <acc value="0.0195030814" flag="0"/>
      <vel value="0.0041624501" flag="0"/>
      <psa03 value="0.0179249564" flag="0"/>
      <psa10 value="0.0040661342" flag="0"/>
      <psa30 value="0.0011042624" flag="0"/>
    </comp>
    <comp name="--.HHN">
      <acc value="0.0144296732" flag="0"/>
      <vel value="0.0064954933" flag="0"/>
      <psa03 value="0.0142008996" flag="0"/>
      <psa10 value="0.0041668970" flag="0"/>
      <psa30 value="0.0017536106" flag="0"/>
    </comp>
    <comp name="--.HHE">
      <acc value="0.0217492627" flag="0"/>
      <vel value="0.0050047613" flag="0"/>
      <psa03 value="0.0171042115" flag="0"/>
      <psa10 value="0.0058429752" flag="0"/>
      <psa30 value="0.0008808947" flag="0"/>
    </comp>
  </station>
  <station code="GRYON" name="GRYON" netid="CH" insttype="Trillium 240s_g2" commtype="DIG" lat="46.2505" lon="7.11106">
    <comp name="--.HHE">
      <acc value="0.0097528242" flag="0"/>
      <vel value="0.0043575150" flag="0"/>
      <psa03 value="0.0334342342" flag="0"/>
      <psa10 value="0.0040903175" flag="0"/>
      <psa30 value="0.0003868475" flag="0"/>
    </comp>
    <comp name="--.HHZ">
      <acc value="0.0134708030" flag="0"/>
      <vel value="0.0048835098" flag="0"/>
      <psa03 value="0.0289040629" flag="0"/>
      <psa10 value="0.0054564677" flag="0"/>
      <psa30 value="0.0005824607" flag="0"/>
    </comp>
    <comp name="--.HHN">
      <acc value="0.0082678993" flag="0"/>
      <vel value="0.0033233707" flag="0"/>
      <psa03 value="0.0135605689" flag="0"/>
      <psa10 value="0.0050544569" flag="0"/>
      <psa30 value="0.0008172705" flag="0"/>
    </comp>
  </station>
  <station code="HAMIK" name="HAMIK" netid="CH" insttype="EpiSensor ES-T" commtype="DIG" lat="47.2451" lon="8.27061">
    <comp name="SF.HGZ">
      <acc value="0.0146394416" flag="0"/>
      <vel value="0.0044949664" flag="0"/>
      <psa03 value="0.0242827828" flag="0"/>
      <psa10 value="0.0027123690" flag="0"/>
      <psa30 value="0.0007215920" flag="0"/>
    </comp>
    <comp name="SF.HGN">
      <acc value="0.0650542770" flag="0"/>
      <vel value="0.0163117886" flag="0"/>
      <psa03 value="0.1078463554" flag="0"/>
      <psa10 value="0.0042440123" flag="0"/>
      <psa30 value="0.0006418746" flag="0"/>
    </comp>
    <comp name="SF.HGE">
      <acc value="0.0475271740" flag="0"/>
      <vel value="0.0151260011" flag="0"/>
      <psa03 value="0.0779933650" flag="0"/>
      <psa10 value="0.0100525426" flag="0"/>
      <psa30 value="0.0006655912" flag="0"/>
    </comp>
  </station>
  <station code="HASLI" name="HASLI" netid="CH" insttype="STS2_gen3" commtype="DIG" lat="46.7567" lon="8.15108">
    <comp name="--.HHN">
      <acc value="0.0364942638" flag="0"/>
      <vel value="0.0208106890" flag="0"/>
      <psa03 value="0.1413393424" flag="0"/>
      <psa10 value="0.0094161300" flag="0"/>
      <psa30 value="0.0018915363" flag="0"/>
    </comp>
    <comp name="--.HHE">
      <acc value="0.0251041138" flag="0"/>
      <vel value="0.0101213031" flag="0"/>
      <psa03 value="0.0427811009" flag="0"/>
      <psa10 value="0.0042004731" flag="0"/>
      <psa30 value="0.0006768973" flag="0"/>
    </comp>
    <comp name="--.HHZ">
      <acc value="0.0285290774" flag="0"/>
      <vel value="0.0106980428" flag="0"/>
      <psa03 value="0.0677733284" flag="0"/>
      <psa10 value="0.0063690922" flag="0"/>
