<?xml version="1.0" encoding="UTF-8" standalone="yes"?>
<!DOCTYPE earthquake SYSTEM "stationlist.dtd">
<stationlist created="" xmlns="ch.ethz.sed.shakemap.usgs.xml">
  <station code="ACB" name="ACB" netid="CH" insttype="Trillium 240s_g2" commtype="DIG" lat="47.5877" lon="8.25474">
    <comp name="--.HHN">
      <acc value="0.0310857265" flag="0"/>
      <vel value="0.0103893179" flag="0"/>
      <psa03 value="0.0437564010" flag="0"/>
      <psa10 value="0.0080709690" flag="0"/>
      <psa30 value="0.0004346720" flag="0"/>
    </comp>
    <comp name="--.HHZ">
      <acc value="0.0166088351" flag="0"/>
      <vel value="0.0072222482" flag="0"/>
      <psa03 value="0.0429376911" flag="0"/>
      <psa10 value="0.0035560110" flag="0"/>
      <psa30 value="0.0003675151" flag="0"/>
    </comp>
    <comp name="--.HHE">
      <acc value="0.0219215788" flag="0"/>
      <vel value="0.0089749308" flag="0"/>
      <psa03 value="0.0540187134" flag="0"/>
      <psa10 value="0.0045352173" flag="0"/>
      <psa30 value="0.0004818801" flag="0"/>
    </comp>
  </station>
  <station code="AIGLE" name="AIGLE" netid="CH" insttype="Trillium 240s_g2" commtype="DIG" lat="46.3418" lon="6.95295">
    <comp name="--.HHN">
      <acc value="0.0064939712" flag="0"/>
      <vel value="0.0048617113" flag="0"/>
      <psa03 value="0.0112196184" flag="0"/>
      <psa10 value="0.0105788115" flag="0"/>
      <psa30 value="0.0013570196" flag="0"/>
    </comp>
    <comp name="--.HHZ">
      <acc value="0.0093761124" flag="0"/>
      <vel value="0.0047021124" flag="0"/>
      <psa03 value="0.0190417921" flag="0"/>
      <psa10 value="0.0042856477" flag="0"/>
      <psa30 value="0.0006043917" flag="0"/>
    </comp>
    <comp name="--.HHE">
      <acc value="0.0096421539" flag="0"/>
      <vel value="0.0080510957" flag="0"/>
      <psa03 value="0.0278822570" flag="0"/>
      <psa10 value="0.0127615940" flag="0"/>
      <psa30 value="0.0009130776" flag="0"/>
    </comp>
  </station>
  <station code="BALST" name="BALST" netid="CH" insttype="STS2_gen3" commtype="DIG" lat="47.336" lon="7.69485">
    <comp name="--.HHZ">
      <acc value="0.0219086051" flag="0"/>
      <vel value="0.0072918808" flag="0"/>
      <psa03 value="0.0473167860" flag="0"/>
      <psa10 value="0.0058310832" flag="0"/>
      <psa30 value="0.0007080177" flag="0"/>
    </comp>
    <comp name="--.HHE">
      <acc value="0.0367378952" flag="0"/>
      <vel value="0.0133346527" flag="0"/>
      <psa03 value="0.0829283247" flag="0"/>
      <psa10 value="0.0066434166" flag="0"/>
      <psa30 value="0.0008475893" flag="0"/>
    </comp>
    <comp name="--.HHN">
      <acc value="0.0285054769" flag="0"/>
      <vel value="0.0135932561" flag="0"/>
      <psa03 value="0.0698257207" flag="0"/>
      <psa10 value="0.0053872815" flag="0"/>
      <psa30 value="0.0006859447" flag="0"/>
    </comp>
  </station>
  <station code="BLOTZ" name="BLOTZ" netid="CH" insttype="EpiSensor ES-T" commtype="DIG" lat="47.6207" lon="7.44006">
    <comp name="SF.HGN">
      <acc value="0.0234080821" flag="0"/>
      <vel value="0.0057625755" flag="0"/>
      <psa03 value="0.0305336365" flag="0"/>
      <psa10 value="0.0019872746" flag="0"/>
      <psa30 value="0.0001701983" flag="0"/>
    </comp>
    <comp name="SF.HGE">
      <acc value="0.0213488388" flag="0"/>
      <vel value="0.0049599645" flag="0"/>
      <psa03 value="0.0338497016" flag="0"/>
      <psa10 value="0.0014439373" flag="0"/>
      <psa30 value="0.0001598327" flag="0"/>
    </comp>
    <comp name="SF.HGZ">
      <acc value="0.0056754252" flag="0"/>
      <vel value="0.0016744040" flag="0"/>
      <psa03 value="0.0087881592" flag="0"/>
      <psa10 value="0.0008730641" flag="0"/>
      <psa30 value="0.0001631623" flag="0"/>
    </comp>
  </station>
  <station code="BNALP" name="BNALP" netid="CH" insttype="STS2_gen3" commtype="DIG" lat="46.8703" lon="8.4249">
    <comp name="--.HHZ">
      <acc value="0.0073461135" flag="0"/>
      <vel value="0.0029223765" flag="0"/>
      <psa03 value="0.0115165922" flag="0"/>
      <psa10 value="0.0015615138" flag="0"/>
      <psa30 value="0.0003634323" flag="0"/>
    </comp>
    <comp name="--.HHE">
      <acc value="0.0094877461" flag="0"/>
      <vel value="0.0028505053" flag="0"/>
      <psa03 value="0.0180093744" flag="0"/>
      <psa10 value="0.0020654740" flag="0"/>
      <psa30 value="0.0005509019" flag="0"/>
    </comp>
    <comp name="--.HHN">
      <acc value="0.0152122582" flag="0"/>
      <vel value="0.0049024290" flag="0"/>
      <psa03 value="0.0303687068" flag="0"/>
      <psa10 value="0.0037743562" flag="0"/>
      <psa30 value="0.0007321472" flag="0"/>
    </comp>
  </station>
  <station code="BOBI" name="BOBI" netid="CH" insttype="EpiSensor ES-T" commtype="DIG" lat="47.5463" lon="8.33992">
    <comp name="SF.HGE">
      <acc value="0.1068210305" flag="0"/>
      <vel value="0.0328007058" flag="0"/>
      <psa03 value="0.1657449151" flag="0"/>
      <psa10 value="0.0164010081" flag="0"/>
      <psa30 value="0.0021284115" flag="0"/>
    </comp>
    <comp name="SF.HGZ">
      <acc value="0.0829954987" flag="0"/>
      <vel value="0.0183797308" flag="0"/>
      <psa03 value="0.1424107570" flag="0"/>
      <psa10 value="0.0108406538" flag="0"/>
      <psa30 value="0.0021933439" flag="0"/>
    </comp>
    <comp name="SF.HGN">
      <acc value="0.1097621418" flag="0"/>
      <vel value="0.0320184879" flag="0"/>
      <psa03 value="0.1087282298" flag="0"/>
      <psa10 value="0.0225240729" flag="0"/>
      <psa30 value="0.0017451707" flag="0"/>
    </comp>
  </station>
  <station code="BOURR" name="BOURR" netid="CH" insttype="STS2.5" commtype="DIG" lat="47.3936" lon="7.2301">
    <comp name="--.HHN">
      <acc value="0.0098068931" flag="0"/>
      <vel value="0.0081187892" flag="0"/>
      <psa03 value="0.0218288073" flag="0"/>
      <psa10 value="0.0119616763" flag="0"/>
      <psa30 value="0.0005950517" flag="0"/>
    </comp>
    <comp name="--.HHE">
      <acc value="0.0114509244" flag="0"/>
      <vel value="0.0059154053" flag="0"/>
      <psa03 value="0.0278948644" flag="0"/>
      <psa10 value="0.0050334609" flag="0"/>
      <psa30 value="0.0007059769" flag="0"/>
    </comp>
    <comp name="--.HHZ">
      <acc value="0.0127634172" flag="0"/>
      <vel value="0.0073100011" flag="0"/>
      <psa03 value="0.0468951990" flag="0"/>
      <psa10 value="0.0045918799" flag="0"/>
      <psa30 value="0.0008540533" flag="0"/>
    </comp>
  </station>
  <station code="BRANT" name="BRANT" netid="CH" insttype="STS2.5" commtype="DIG" lat="46.938" lon="6.47298">
    <comp name="--.HHZ">
      <acc value="0.0073584417" flag="0"/>
      <vel value="0.0041008409" flag="0"/>
      <psa03 value="0.0185566554" flag="0"/>
      <psa10 value="0.0031006945" flag="0"/>
      <psa30 value="0.0003143748" flag="0"/>
    </comp>
    <comp name="--.HHN">
      <acc value="0.0088159869" flag="0"/>
      <vel value="0.0042700806" flag="0"/>
      <psa03 value="0.0222844542" flag="0"/>
      <psa10 value="0.0057831426" flag="0"/>
      <psa30 value="0.0003977843" flag="0"/>
    </comp>
    <comp name="--.HHE">
      <acc value="0.0134871761" flag="0"/>
      <vel value="0.0053718755" flag="0"/>
      <psa03 value="0.0204117165" flag="0"/>
      <psa10 value="0.0034509422" flag="0"/>
      <psa30 value="0.0003035000" flag="0"/>
    </comp>
  </station>
  <station code="BULAC" name="BULAC" netid="CH" insttype="ABBT" commtype="DIG" lat="47.5424" lon="8.52044">
    <comp name="BT.HGZ">
      <acc value="0.0084355989" flag="0"/>
      <vel value="0.0023105056" flag="0"/>
      <psa03 value="0.0075808150" flag="0"/>
      <psa10 value="0.0007400035" flag="0"/>
      <psa30 value="0.0002955855" flag="0"/>
    </comp>
    <comp name="BT.HG1">
      <acc value="0.1752246879" flag="0"/>
      <vel value="0.3192638533" flag="0"/>
      <psa03 value="0.3581182038" flag="0"/>
      <psa10 value="0.3129019917" flag="0"/>
      <psa30 value="0.2117079794" flag="0"/>
    </comp>
    <comp name="BT.HG2">
      <acc value="0.0233360393" flag="0"/>
      <vel value="0.0097066418" flag="0"/>
      <psa03 value="0.0611211031" flag="0"/>
      <psa10 value="0.0026159533" flag="0"/>
      <psa30 value="0.0002428482" flag="0"/>
    </comp>
  </station>
  <station code="CHAMB" name="CHAMB" netid="CH" insttype="Trillium Compact 120s" commtype="DIG" lat="46.7823" lon="6.61184">
    <comp name="--.HHE">
      <acc value="0.0066064946" flag="0"/>
      <vel value="0.0031845498" flag="0"/>
      <psa03 value="0.0116465733" flag="0"/>
      <psa10 value="0.0028590675" flag="0"/>
      <psa30 value="0.0004762573" flag="0"/>
    </comp>
    <comp name="--.HHZ">
      <acc value="0.0065359966" flag="0"/>
      <vel value="0.0036851089" flag="0"/>
      <psa03 value="0.0087650115" flag="0"/>
      <psa10 value="0.0046922371" flag="0"/>
      <psa30 value="0.0005375696" flag="0"/>
    </comp>
    <comp name="--.HHN">
      <acc value="0.0074306260" flag="0"/>
      <vel value="0.0039970359" flag="0"/>
      <psa03 value="0.0124524674" flag="0"/>
      <psa10 value="0.0058305195" flag="0"/>
      <psa30 value="0.0005080884" flag="0"/>
    </comp>
  </station>
  <station code="CHASS" name="CHASS" netid="CH" insttype="Trillium 240s_g2" commtype="DIG" lat="47.1609" lon="7.12129">
    <comp name="--.HHE">
      <acc value="0.0284977831" flag="0"/>
      <vel value="0.0095974042" flag="0"/>
      <psa03 value="0.0206642346" flag="0"/>
      <psa10 value="0.0057862108" flag="0"/>
      <psa30 value="0.0003984973" flag="0"/>
    </comp>
    <comp name="--.HHN">
      <acc value="0.0444722929" flag="0"/>
      <vel value="0.0131082398" flag="0"/>
      <psa03 value="0.0426832979" flag="0"/>
      <psa10 value="0.0050438809" flag="0"/>
      <psa30 value="0.0008714910" flag="0"/>
    </comp>
    <comp name="--.HHZ">
      <acc value="0.0120970173" flag="0"/>
      <vel value="0.0051464054" flag="0"/>
      <psa03 value="0.0160236096" flag="0"/>
      <psa10 value="0.0041578000" flag="0"/>
      <psa30 value="0.0011749248" flag="0"/>
    </comp>
  </station>
  <station code="DAGMA" name="DAGMA" netid="CH" insttype="Trillium Compact 120s" commtype="DIG" lat="47.2309" lon="8.01248">
    <comp name="--.HHE">
      <acc value="0.0386087591" flag="0"/>
      <vel value="0.0143074709" flag="0"/>
      <psa03 value="0.0613630677" flag="0"/>
      <psa10 value="0.0042827273" flag="0"/>
      <psa30 value="0.0020501574" flag="0"/>
    </comp>
    <comp name="--.HHZ">
      <acc value="0.0197490988" flag="0"/>
      <vel value="0.0065430749" flag="0"/>
      <psa03 value="0.0364873253" flag="0"/>
      <psa10 value="0.0052863864" flag="0"/>
      <psa30 value="0.0007429430" flag="0"/>
    </comp>
    <comp name="--.HHN">
      <acc value="0.0268455542" flag="0"/>
      <vel value="0.0083698795" flag="0"/>
      <psa03 value="0.0430102506" flag="0"/>
      <psa10 value="0.0059759863" flag="0"/>
      <psa30 value="0.0008683379" flag="0"/>
    </comp>
  </station>
  <station code="EMBD" name="EMBD" netid="CH" insttype="Trillium 40s" commtype="DIG" lat="46.2165" lon="7.83223">
    <comp name="--.HHZ">
      <acc value="0.0136432738" flag="0"/>
      <vel value="0.0073631704" flag="0"/>
      <psa03 value="0.0354104616" flag="0"/>
      <psa10 value="0.0057291292" flag="0"/>
      <psa30 value="0.0013205587" flag="0"/>
    </comp>
    <comp name="--.HHN">
      <acc value="0.0180586167" flag="0"/>
      <vel value="0.0065246258" flag="0"/>
      <psa03 value="0.0439396642" flag="0"/>
      <psa10 value="0.0055304336" flag="0"/>
      <psa30 value="0.0014193838" flag="0"/>
    </comp>
    <comp name="--.HHE">
      <acc value="0.0352892381" flag="0"/>
      <vel value="0.0108595623" flag="0"/>
      <psa03 value="0.0572487212" flag="0"/>
      <psa10 value="0.0046570187" flag="0"/>
      <psa30 value="0.0014620857" flag="0"/>
    </comp>
  </station>
  <station code="EMMET" name="EMMET" netid="CH" insttype="Trillium Compact 120s" commtype="DIG" lat="47.4376" lon="8.01358">
    <comp name="--.HHZ">
      <acc value="0.0282202629" flag="0"/>
      <vel value="0.0094337848" flag="0"/>
      <psa03 value="0.1200670872" flag="0"/>
      <psa10 value="0.0038575145" flag="0"/>
      <psa30 value="0.0005315490" flag="0"/>
    </comp>
    <comp name="--.HHE">
      <acc value="0.0538191625" flag="0"/>
      <vel value="0.0148917328" flag="0"/>
      <psa03 value="0.1114801880" flag="0"/>
      <psa10 value="0.0091351528" flag="0"/>
      <psa30 value="0.0009599828" flag="0"/>
    </comp>
    <comp name="--.HHN">
      <acc value="0.0377970412" flag="0"/>
      <vel value="0.0114866860" flag="0"/>
      <psa03 value="0.0822095364" flag="0"/>
      <psa10 value="0.0094789765" flag="0"/>
      <psa30 value="0.0007914650" flag="0"/>
    </comp>
  </station>
  <station code="FIESA" name="FIESA" netid="CH" insttype="STS2_gen2" commtype="DIG" lat="46.4352" lon="8.11051">
    <comp name="--.HHZ">
      <acc value="0.0308609724" flag="0"/>
      <vel value="0.0153591044" flag="0"/>
      <psa03 value="0.0178996017" flag="0"/>
      <psa10 value="0.0261814327" flag="0"/>
      <psa30 value="0.0027593143" flag="0"/>
    </comp>
    <comp name="--.HHN">
      <acc value="0.0349561465" flag="0"/>
      <vel value="0.0156357783" flag="0"/>
      <psa03 value="0.0236051204" flag="0"/>
      <psa10 value="0.0249020819" flag="0"/>
      <psa30 value="0.0035981006" flag="0"/>
    </comp>
    <comp name="--.HHE">
      <acc value="0.0322456843" flag="0"/>
      <vel value="0.0206578062" flag="0"/>
      <psa03 value="0.0293135635" flag="0"/>
      <psa10 value="0.0407286173" flag="0"/>
      <psa30 value="0.0040467787" flag="0"/>
    </comp>
  </station>
  <station code="FLACH" name="FLACH" netid="CH" insttype="Trillium Compact 120s" commtype="DIG" lat="47.5724" lon="8.5679">
    <comp name="01.HHZ">
      <acc value="0.0655111874" flag="0"/>
      <vel value="0.0153608100" flag="0"/>
      <psa03 value="0.0366139047" flag="0"/>
      <psa10 value="0.0019949030" flag="0"/>
      <psa30 value="0.0001804920" flag="0"/>
    </comp>
    <comp name="01.HHN">
      <acc value="0.0432046460" flag="0"/>
      <vel value="0.0131024375" flag="0"/>
      <psa03 value="0.0429141392" flag="0"/>
      <psa10 value="0.0040144934" flag="0"/>
      <psa30 value="0.0003858885" flag="0"/>
    </comp>
    <comp name="01.HHE">
      <acc value="0.0743938297" flag="0"/>
      <vel value="0.0197301670" flag="0"/>
      <psa03 value="0.0488135473" flag="0"/>
      <psa10 value="0.0045305794" flag="0"/>
      <psa30 value="0.0003747300" flag="0"/>
    </comp>
  </station>
  <station code="GIMEL" name="GIMEL" netid="CH" insttype="Trillium 240s_g2" commtype="DIG" lat="46.5336" lon="6.26545">
    <comp name="--.HHN">
      <acc value="0.0090982411" flag="0"/>
      <vel value="0.0028146936" flag="0"/>
      <psa03 value="0.0095606505" flag="0"/>
      <psa10 value="0.0022889456" flag="0"/>
      <psa30 value="0.0003129285" flag="0"/>
    </comp>
    <comp name="--.HHE">
      <acc value="0.0074662282" flag="0"/>
      <vel value="0.0024352152" flag="0"/>
      <psa03 value="0.0121406171" flag="0"/>
      <psa10 value="0.0023864569" flag="0"/>
      <psa30 value="0.0002316702" flag="0"/>
    </comp>
    <comp name="--.HHZ">
      <acc value="0.0065568186" flag="0"/>
      <vel value="0.0032000629" flag="0"/>
      <psa03 value="0.0092428572" flag="0"/>
      <psa10 value="0.0035128809" flag="0"/>
      <psa30 value="0.0002582108" flag="0"/>
    </comp>
  </station>
  <station code="GOURZ" name="GOURZ" netid="CH" insttype="Trillium Compact 120s" commtype="DIG" lat="46.5111" lon="6.74125">
    <comp name="--.HHZ">
      <acc value="0.0106193032" flag="0"/>
      <vel value="0.0032950839" flag="0"/>
      <psa03 value="0.0212673202" flag="0"/>
      <psa10 value="0.0043550883" flag="0"/>
      <psa30 value="0.0005996320" flag="0"/>
    </comp>
    <comp name="--.HHN">
      <acc value="0.0215799490" flag="0"/>
      <vel value="0.0076039424" flag="0"/>
      <psa03 value="0.0373946350" flag="0"/>
      <psa10 value="0.0075698966" flag="0"/>
      <psa30 value="0.0006580291" flag="0"/>
    </comp>
    <comp name="--.HHE">
      <acc value="0.0316769403" flag="0"/>
      <vel value="0.0082176285" flag="0"/>
      <psa03 value="0.0393252002" flag="0"/>
      <psa10 value="0.0063020554" flag="0"/>
      <psa30 value="0.0005194819" flag="0"/>
    </comp>
  </station>
  <station code="GRIMS" name="GRIMS" netid="CH" insttype="STS2_gen3" commtype="DIG" lat="46.5781" lon="8.31886">
    <comp name="--.HHE">
      <acc value="0.0217492627" flag="0"/>
      <vel value="0.0050047615" flag="0"/>
      <psa03 value="0.0171042115" flag="0"/>
      <psa10 value="0.0058429748" flag="0"/>
      <psa30 value="0.0008809048" flag="0"/>
    </comp>
    <comp name="--.HHZ">
      <acc value="0.0195030814" flag="0"/>
      <vel value="0.0041624498" flag="0"/>
      <psa03 value="0.0179249564" flag="0"/>
      <psa10 value="0.0040661342" flag="0"/>
      <psa30 value="0.0011042877" flag="0"/>
    </comp>
    <comp name="--.HHN">
      <acc value="0.0144296733" flag="0"/>
      <vel value="0.0064954933" flag="0"/>
      <psa03 value="0.0142008996" flag="0"/>
      <psa10 value="0.0041668973" flag="0"/>
      <psa30 value="0.0017536000" flag="0"/>
    </comp>
  </station>
  <station code="GRYON" name="GRYON" netid="CH" insttype="Trillium 240s_g2" commtype="DIG" lat="46.2505" lon="7.11106">
    <comp name="--.HHE">
      <acc value="0.0097528243" flag="0"/>
      <vel value="0.0043575143" flag="0"/>
      <psa03 value="0.0334342342" flag="0"/>
      <psa10 value="0.0040903175" flag="0"/>
      <psa30 value="0.0003867756" flag="0"/>
    </comp>
    <comp name="--.HHN">
      <acc value="0.0082678988" flag="0"/>
      <vel value="0.0033233707" flag="0"/>
      <psa03 value="0.0135605689" flag="0"/>
      <psa10 value="0.0050544569" flag="0"/>
      <psa30 value="0.0008172466" flag="0"/>
    </comp>
    <comp name="--.HHZ">
      <acc value="0.0134708030" flag="0"/>
      <vel value="0.0048835094" flag="0"/>
      <psa03 value="0.0289040629" flag="0"/>
      <psa10 value="0.0054564675" flag="0"/>
      <psa30 value="0.0005824481" flag="0"/>
    </comp>
  </station>
  <station code="HAMIK" name="HAMIK" netid="CH" insttype="EpiSensor ES-T" commtype="DIG" lat="47.2451" lon="8.27061">
    <comp name="SF.HGE">
      <acc value="0.0475271741" flag="0"/>
      <vel value="0.0151260012" flag="0"/>
      <psa03 value="0.0779933650" flag="0"/>
      <psa10 value="0.0100525426" flag="0"/>
      <psa30 value="0.0006655786" flag="0"/>
    </comp>
    <comp name="SF.HGZ">
      <acc value="0.0146394417" flag="0"/>
      <vel value="0.0044949662" flag="0"/>
      <psa03 value="0.0242827828" flag="0"/>
      <psa10 value="0.0027123690" flag="0"/>
      <psa30 value="0.0007216002" flag="0"/>
    </comp>
    <comp name="SF.HGN">
      <acc value="0.0650542768" flag="0"/>
      <vel value="0.0163117882" flag="0"/>
      <psa03 value="0.1078463554" flag="0"/>
      <psa10 value="0.0042440121" flag="0"/>
      <psa30 value="0.0006418702" flag="0"/>
    </comp>
  </station>
  <station code="HASLI" name="HASLI" netid="CH" insttype="STS2_gen3" commtype="DIG" lat="46.7567" lon="8.15108">
    <comp name="--.HHE">
      <acc value="0.0251041139" flag="0"/>
      <vel value="0.0101213032" flag="0"/>
      <psa03 value="0.0427811009" flag="0"/>
      <psa10 value="0.0042004727" flag="0"/>
      <psa30 value="0.0006768941" flag="0"/>
    </comp>
    <comp name="--.HHZ">
      <acc value="0.0285290774" flag="0"/>
      <vel value="0.0106980426" flag="0"/>
      <psa03 value="0.0677733284" flag="0"/>
      <psa10 value="0.0063690922" flag="0"/>
      <psa30 value="0.0007823696" flag="0"/>
    </comp>
    <comp name="--.HHN">
      <acc value="0.0364942639" flag="0"/>
      <vel value="0.0208106889" flag="0"/>
      <psa03 value="0.1413393424" flag="0"/>
      <psa10 value="0.0094161301" flag="0"/>
