<?xml version="1.0" encoding="UTF-8" standalone="yes"?>
<!DOCTYPE earthquake SYSTEM "stationlist.dtd">
<stationlist created="" xmlns="ch.ethz.sed.shakemap.usgs.xml">
  <station code="CHAN" name="CHAN" netid="HC" insttype="120" commtype="DIG" lat="35.5193" lon="24.0428">
    <comp name="--.HHE">
      <acc value="0.1307216911" flag="0"/>
      <vel value="0.0739776691" flag="0"/>
      <psa03 value="0.2636004791" flag="0"/>
      <psa10 value="0.1247487998" flag="0"/>
      <psa30 value="0.0100451554" flag="0"/>
    </comp>
    <comp name="--.HHZ">
      <acc value="0.0867282131" flag="0"/>
      <vel value="0.0444008941" flag="0"/>
      <psa03 value="0.2869945425" flag="0"/>
      <psa10 value="0.0351427311" flag="0"/>
      <psa30 value="0.0033161412" flag="0"/>
    </comp>
    <comp name="--.HHN">
      <acc value="0.0741811254" flag="0"/>
      <vel value="0.0503699429" flag="0"/>
      <psa03 value="0.1850866604" flag="0"/>
      <psa10 value="0.0901549311" flag="0"/>
      <psa30 value="0.0062167842" flag="0"/>
    </comp>
  </station>
  <station code="IMOD" name="IMOD" netid="HC" insttype="120" commtype="DIG" lat="34.9731" lon="24.7995">
    <comp name="--.HHE">
      <acc value="0.0276697564" flag="0"/>
      <vel value="0.0223830759" flag="0"/>
      <psa03 value="0.0766099107" flag="0"/>
      <psa10 value="0.0340144539" flag="0"/>
      <psa30 value="0.0021704069" flag="0"/>
    </comp>
    <comp name="--.HHN">
      <acc value="0.0284195903" flag="0"/>
      <vel value="0.0191104342" flag="0"/>
      <psa03 value="0.1013978081" flag="0"/>
      <psa10 value="0.0343266237" flag="0"/>
      <psa30 value="0.0022185543" flag="0"/>
    </comp>
    <comp name="--.HHZ">
      <acc value="0.0179278422" flag="0"/>
      <vel value="0.0100061748" flag="0"/>
      <psa03 value="0.0454371891" flag="0"/>
      <psa10 value="0.0099544646" flag="0"/>
      <psa30 value="0.0013525948" flag="0"/>
    </comp>
  </station>
  <station code="IPPL" name="IPPL" netid="HC" insttype="60" commtype="DIG" lat="35.3486" lon="24.4632">
    <comp name="--.HHE">
      <acc value="0.0000000000" flag="0"/>
      <vel value="-100.0000000000" flag="0"/>
      <psa03 value="0.0000000000" flag="0"/>
      <psa10 value="0.0000000000" flag="0"/>
      <psa30 value="0.0000000000" flag="0"/>
    </comp>
    <comp name="--.HHN">
      <acc value="0.0000000000" flag="0"/>
      <vel value="-100.0000000000" flag="0"/>
      <psa03 value="0.0000000000" flag="0"/>
      <psa10 value="0.0000000000" flag="0"/>
      <psa30 value="0.0000000000" flag="0"/>
    </comp>
    <comp name="--.HHZ">
      <acc value="0.0336062922" flag="0"/>
      <vel value="0.0116585663" flag="0"/>
      <psa03 value="0.1100685713" flag="0"/>
      <psa10 value="0.0154025556" flag="0"/>
      <psa30 value="0.0009887712" flag="0"/>
    </comp>
  </station>
  <station code="KNDR" name="KNDR" netid="HC" insttype="120" commtype="DIG" lat="35.2348" lon="23.6248">
    <comp name="--.HHN">
      <acc value="0.5581564342" flag="0"/>
      <vel value="0.2456440327" flag="0"/>
      <psa03 value="1.5880164665" flag="0"/>
      <psa10 value="0.2749066412" flag="0"/>
      <psa30 value="0.0081438402" flag="0"/>
    </comp>
    <comp name="--.HHZ">
      <acc value="0.3880806310" flag="0"/>
      <vel value="0.1230345495" flag="0"/>
      <psa03 value="0.7221686904" flag="0"/>
      <psa10 value="0.0902918255" flag="0"/>
      <psa30 value="0.0056947201" flag="0"/>
    </comp>
    <comp name="--.HHE">
      <acc value="0.6860311251" flag="0"/>
      <vel value="0.2492102638" flag="0"/>
      <psa03 value="1.3307328780" flag="0"/>
      <psa10 value="0.1575141963" flag="0"/>
      <psa30 value="0.0176660001" flag="0"/>
    </comp>
  </station>
  <station code="TEFL" name="TEFL" netid="HC" insttype="GEOtiny," commtype="DIG" lat="35.0933" lon="25.1634">
    <comp name="--.HHE">
      <acc value="0.0276400791" flag="0"/>
      <vel value="0.0129057006" flag="0"/>
      <psa03 value="0.0425375981" flag="0"/>
      <psa10 value="0.0145615743" flag="0"/>
      <psa30 value="0.0014263726" flag="0"/>
    </comp>
    <comp name="--.HHN">
      <acc value="0.0204951930" flag="0"/>
      <vel value="0.0128759313" flag="0"/>
      <psa03 value="0.0483137501" flag="0"/>
      <psa10 value="0.0336363332" flag="0"/>
      <psa30 value="0.0020810825" flag="0"/>
    </comp>
    <comp name="--.HHZ">
      <acc value="0.0098161367" flag="0"/>
      <vel value="0.0072907832" flag="0"/>
      <psa03 value="0.0316157624" flag="0"/>
      <psa10 value="0.0090350147" flag="0"/>
      <psa30 value="0.0011586572" flag="0"/>
    </comp>
  </station>
  <station code="CH03" name="CH03" netid="HI" insttype="unknown" commtype="DIG" lat="35.533" lon="24.0705">
    <comp name="--.HNZ">
      <acc value="0.0303436278" flag="0"/>
      <vel value="0.0199207736" flag="0"/>
      <psa03 value="0.0696493910" flag="0"/>
      <psa10 value="0.0205318325" flag="0"/>
      <psa30 value="0.0018753945" flag="0"/>
    </comp>
    <comp name="--.HNE">
      <acc value="0.0407377017" flag="0"/>
      <vel value="0.0259403880" flag="0"/>
      <psa03 value="0.0879403609" flag="0"/>
      <psa10 value="0.0324440358" flag="0"/>
      <psa30 value="0.0051849862" flag="0"/>
    </comp>
    <comp name="--.HNN">
      <acc value="0.0430698753" flag="0"/>
      <vel value="0.0264774056" flag="0"/>
      <psa03 value="0.1249718786" flag="0"/>
      <psa10 value="0.0474452484" flag="0"/>
      <psa30 value="0.0030882753" flag="0"/>
    </comp>
  </station>
  <station code="GOR1" name="GOR1" netid="HI" insttype="unknown" commtype="DIG" lat="35.0582" lon="24.9628">
    <comp name="--.HNE">
      <acc value="0.0128628350" flag="0"/>
      <vel value="0.0143149920" flag="0"/>
      <psa03 value="0.0429998174" flag="0"/>
      <psa10 value="0.0303321328" flag="0"/>
      <psa30 value="0.0041954187" flag="0"/>
    </comp>
    <comp name="--.HNN">
      <acc value="0.0108386242" flag="0"/>
      <vel value="0.0115929168" flag="0"/>
      <psa03 value="0.0334357894" flag="0"/>
      <psa10 value="0.0212687843" flag="0"/>
      <psa30 value="0.0039079376" flag="0"/>
    </comp>
    <comp name="--.HNZ">
      <acc value="0.0105450894" flag="0"/>
      <vel value="0.0083516331" flag="0"/>
      <psa03 value="0.0347972451" flag="0"/>
      <psa10 value="0.0169507806" flag="0"/>
      <psa30 value="0.0011509461" flag="0"/>
    </comp>
  </station>
  <station code="ANKY" name="ANKY" netid="HL" insttype="60" commtype="DIG" lat="35.867" lon="23.3012">
    <comp name="--.HHE">
      <acc value="0.0119361493" flag="0"/>
      <vel value="0.0136820880" flag="0"/>
      <psa03 value="0.0313641226" flag="0"/>
      <psa10 value="0.0248228879" flag="0"/>
      <psa30 value="0.0019564830" flag="0"/>
    </comp>
    <comp name="--.HHZ">
      <acc value="0.0121129716" flag="0"/>
      <vel value="0.0066738736" flag="0"/>
      <psa03 value="0.0355002820" flag="0"/>
      <psa10 value="0.0110794854" flag="0"/>
      <psa30 value="0.0012167684" flag="0"/>
    </comp>
    <comp name="--.HHN">
      <acc value="0.0129578037" flag="0"/>
      <vel value="0.0101733850" flag="0"/>
      <psa03 value="0.0342287578" flag="0"/>
      <psa10 value="0.0226464091" flag="0"/>
      <psa30 value="0.0017918700" flag="0"/>
    </comp>
  </station>
  <station code="IDI" name="IDI" netid="HL" insttype="120" commtype="DIG" lat="35.288" lon="24.89">
    <comp name="--.HHZ">
      <acc value="0.0098052873" flag="0"/>
      <vel value="0.0062466404" flag="0"/>
      <psa03 value="0.0186162544" flag="0"/>
      <psa10 value="0.0076828525" flag="0"/>
      <psa30 value="0.0012410036" flag="0"/>
    </comp>
    <comp name="--.HHN">
      <acc value="0.0090638624" flag="0"/>
      <vel value="0.0060967920" flag="0"/>
      <psa03 value="0.0227884452" flag="0"/>
      <psa10 value="0.0072226652" flag="0"/>
      <psa30 value="0.0008158411" flag="0"/>
    </comp>
    <comp name="--.HHE">
      <acc value="0.0100845988" flag="0"/>
      <vel value="0.0044961821" flag="0"/>
      <psa03 value="0.0179946229" flag="0"/>
      <psa10 value="0.0060233341" flag="0"/>
      <psa30 value="0.0009045479" flag="0"/>
    </comp>
  </station>
  <station code="SIVA" name="SIVA" netid="HL" insttype="60" commtype="DIG" lat="35.0178" lon="24.812">
    <comp name="--.HHE">
      <acc value="0.0367022838" flag="0"/>
      <vel value="0.0283806276" flag="0"/>
      <psa03 value="0.1402775878" flag="0"/>
      <psa10 value="0.0295596906" flag="0"/>
      <psa30 value="0.0034927205" flag="0"/>
    </comp>
    <comp name="--.HHN">
      <acc value="0.0310368581" flag="0"/>
      <vel value="0.0189942757" flag="0"/>
      <psa03 value="0.0837844582" flag="0"/>
      <psa10 value="0.0194808876" flag="0"/>
      <psa30 value="0.0016469827" flag="0"/>
    </comp>
    <comp name="--.HHZ">
      <acc value="0.0238456811" flag="0"/>
      <vel value="0.0141700061" flag="0"/>
      <psa03 value="0.0820213645" flag="0"/>
      <psa10 value="0.0128227379" flag="0"/>
      <psa30 value="0.0016289315" flag="0"/>
    </comp>
  </station>
  <station code="IDI" name="IDI" netid="MN" insttype="" commtype="DIG" lat="35.288" lon="24.89">
    <comp name="--.HHN">
      <acc value="0.0092105718" flag="0"/>
      <vel value="0.0061280999" flag="0"/>
      <psa03 value="0.0229841550" flag="0"/>
      <psa10 value="0.0071652065" flag="0"/>
      <psa30 value="0.0008063065" flag="0"/>
    </comp>
    <comp name="--.HHZ">
      <acc value="0.0099660227" flag="0"/>
      <vel value="0.0062937616" flag="0"/>
      <psa03 value="0.0188151434" flag="0"/>
      <psa10 value="0.0076261996" flag="0"/>
      <psa30 value="0.0012267157" flag="0"/>
    </comp>
    <comp name="--.HHE">
      <acc value="0.0102097057" flag="0"/>
      <vel value="0.0044914498" flag="0"/>
      <psa03 value="0.0182786507" flag="0"/>
      <psa10 value="0.0059774810" flag="0"/>
      <psa30 value="0.0008941915" flag="0"/>
    </comp>
  </station>
</stationlist>
