<?xml version="1.0" encoding="UTF-8" standalone="yes"?>
<!DOCTYPE earthquake SYSTEM "stationlist.dtd">
<stationlist created="" xmlns="ch.ethz.sed.shakemap.usgs.xml">
  <station code="IDI" name="IDI" netid="MN" insttype="" commtype="DIG" lat="35.288" lon="24.89">
    <comp name="--.HHN">
      <acc value="0.0092105718" flag="0"/>
      <vel value="0.0061280999" flag="0"/>
      <psa03 value="0.0229841550" flag="0"/>
      <psa10 value="0.0071652065" flag="0"/>
      <psa30 value="0.0008063065" flag="0"/>
    </comp>
    <comp name="--.HHZ">
      <acc value="0.0099660227" flag="0"/>
      <vel value="0.0062937616" flag="0"/>
      <psa03 value="0.0188151434" flag="0"/>
      <psa10 value="0.0076261996" flag="0"/>
      <psa30 value="0.0012267157" flag="0"/>
    </comp>
    <comp name="--.HHE">
      <acc value="0.0102097057" flag="0"/>
      <vel value="0.0044914498" flag="0"/>
      <psa03 value="0.0182786507" flag="0"/>
      <psa10 value="0.0059774810" flag="0"/>
      <psa30 value="0.0008941915" flag="0"/>
    </comp>
  </station>
</stationlist>
