<stationlist created="1778550961">
	<station code="4802" name="4802" netid="TK" source="Turkish National Strong Motion Network (TNSMN)" insttype="" lat="37.03304" lon="27.43997">
		<comp name="00.HNE" depth="None">
			<acc value="0.360900562838469" flag="0"/>
			<vel value="0.134062831044661" flag="0"/>
			<psa03 value="0.645719525914898" flag="0"/>
			<psa10 value="0.0447900807793533" flag="0"/>
			<psa30 value="0.00355074151722605" flag="0"/>
		</comp>
		<comp name="00.HNN" depth="None">
			<acc value="0.437658537708407" flag="0"/>
			<vel value="0.0865541058675947" flag="0"/>
			<psa03 value="0.37874277902367" flag="0"/>
			<psa10 value="0.0508383322700113" flag="0"/>
			<psa30 value="0.00482007791898641" flag="0"/>
		</comp>
		<comp name="00.HNZ" depth="None">
			<acc value="0.223907248452466" flag="0"/>
			<vel value="0.0529698730040917" flag="0"/>
			<psa03 value="0.316416885204418" flag="0"/>
			<psa10 value="0.0365431972554735" flag="0"/>
			<psa30 value="0.00197492100013052" flag="0"/>
		</comp>
	</station>
</stationlist>
