<?xml version="1.0" encoding="UTF-8" standalone="yes"?>
<!DOCTYPE earthquake SYSTEM "stationlist.dtd">
<stationlist created="" xmlns="ch.ethz.sed.shakemap.usgs.xml">
  <station code="ATAL" name="ATAL" netid="HA" insttype="120" lat="38.6926" lon="23.0213">
    <comp name="--.HHE">
      <acc value="0.0065851066" flag="0"/>
      <vel value="0.0021062949" flag="0"/>
      <psa03 value="0.0057432984" flag="0"/>
      <psa10 value="0.0022804339" flag="0"/>
      <psa30 value="0.0001539056" flag="0"/>
    </comp>
    <comp name="--.HHZ">
      <acc value="0.0046864762" flag="0"/>
      <vel value="0.0021182562" flag="0"/>
      <psa03 value="0.0055755776" flag="0"/>
      <psa10 value="0.0023511703" flag="0"/>
      <psa30 value="0.0001786671" flag="0"/>
    </comp>
    <comp name="--.HHN">
      <acc value="0.0080014404" flag="0"/>
      <vel value="0.0024858272" flag="0"/>
      <psa03 value="0.0061384180" flag="0"/>
      <psa10 value="0.0027352977" flag="0"/>
      <psa30 value="0.0001977652" flag="0"/>
    </comp>
  </station>
  <station code="AXAR" name="AXAR" netid="HA" insttype="30" lat="38.7664" lon="22.659">
    <comp name="--.HHN">
      <acc value="0.0122833947" flag="0"/>
      <vel value="0.0024837066" flag="0"/>
      <psa03 value="0.0098758352" flag="0"/>
      <psa10 value="0.0011814281" flag="0"/>
      <psa30 value="0.0000733126" flag="0"/>
    </comp>
    <comp name="--.HHE">
      <acc value="0.0087697372" flag="0"/>
      <vel value="0.0023764172" flag="0"/>
      <psa03 value="0.0096175722" flag="0"/>
      <psa10 value="0.0012421219" flag="0"/>
      <psa30 value="0.0001028645" flag="0"/>
    </comp>
    <comp name="--.HHZ">
      <acc value="0.0067902311" flag="0"/>
      <vel value="0.0018659138" flag="0"/>
      <psa03 value="0.0072972474" flag="0"/>
      <psa10 value="0.0008502898" flag="0"/>
      <psa30 value="0.0000804524" flag="0"/>
    </comp>
  </station>
  <station code="DOMV" name="DOMV" netid="HA" insttype="60" lat="38.2569" lon="22.9795">
    <comp name="--.HHN">
      <acc value="0.0157181592" flag="0"/>
      <vel value="0.0052910570" flag="0"/>
      <psa03 value="0.0427255736" flag="0"/>
      <psa10 value="0.0038248602" flag="0"/>
      <psa30 value="0.0003315260" flag="0"/>
    </comp>
    <comp name="--.HHE">
      <acc value="0.0179354492" flag="0"/>
      <vel value="0.0062362135" flag="0"/>
      <psa03 value="0.0385867394" flag="0"/>
      <psa10 value="0.0022791562" flag="0"/>
      <psa30 value="0.0002036818" flag="0"/>
    </comp>
    <comp name="--.HHZ">
      <acc value="0.0154676208" flag="0"/>
      <vel value="0.0053894286" flag="0"/>
      <psa03 value="0.0276936413" flag="0"/>
      <psa10 value="0.0026396150" flag="0"/>
      <psa30 value="0.0002850587" flag="0"/>
    </comp>
  </station>
  <station code="KALE" name="KALE" netid="HA" insttype="40," lat="38.3911" lon="22.1398">
    <comp name="--.HHE">
      <acc value="0.0712536090" flag="0"/>
      <vel value="0.0243108088" flag="0"/>
      <psa03 value="0.1363936619" flag="0"/>
      <psa10 value="0.0099416584" flag="0"/>
      <psa30 value="0.0006485655" flag="0"/>
    </comp>
    <comp name="--.HHN">
      <acc value="0.1074786031" flag="0"/>
      <vel value="0.0396898660" flag="0"/>
      <psa03 value="0.2320383058" flag="0"/>
      <psa10 value="0.0131592448" flag="0"/>
      <psa30 value="0.0012967808" flag="0"/>
    </comp>
    <comp name="--.HHZ">
      <acc value="0.0443094546" flag="0"/>
      <vel value="0.0151569108" flag="0"/>
      <psa03 value="0.0901871732" flag="0"/>
      <psa10 value="0.0050733581" flag="0"/>
      <psa30 value="0.0007193037" flag="0"/>
    </comp>
  </station>
  <station code="LAKA" name="LAKA" netid="HA" insttype="120s" lat="38.2401" lon="21.9785">
    <comp name="--.HHZ">
      <acc value="0.0063856562" flag="0"/>
      <vel value="0.0028245561" flag="0"/>
      <psa03 value="0.0121569422" flag="0"/>
      <psa10 value="0.0019624059" flag="0"/>
      <psa30 value="0.0003343483" flag="0"/>
    </comp>
    <comp name="--.HHE">
      <acc value="0.0000331077" flag="0"/>
      <vel value="0.0000037439" flag="0"/>
      <psa03 value="0.0000125927" flag="0"/>
      <psa10 value="0.0000041061" flag="0"/>
      <psa30 value="0.0000006864" flag="0"/>
    </comp>
    <comp name="--.HHN">
      <acc value="0.0000340699" flag="0"/>
      <vel value="0.0000045477" flag="0"/>
      <psa03 value="0.0000142919" flag="0"/>
      <psa10 value="0.0000052571" flag="0"/>
      <psa30 value="0.0000008187" flag="0"/>
    </comp>
  </station>
  <station code="THAL" name="THAL" netid="HA" insttype="30" lat="38.0357" lon="22.6634">
    <comp name="--.HHN">
      <acc value="0.0254453614" flag="0"/>
      <vel value="0.0135857880" flag="0"/>
      <psa03 value="0.0686502886" flag="0"/>
      <psa10 value="0.0079437995" flag="0"/>
      <psa30 value="0.0003756072" flag="0"/>
    </comp>
    <comp name="--.HHZ">
      <acc value="0.0179975513" flag="0"/>
      <vel value="0.0064335216" flag="0"/>
      <psa03 value="0.0386982754" flag="0"/>
      <psa10 value="0.0061305124" flag="0"/>
      <psa30 value="0.0003296532" flag="0"/>
    </comp>
    <comp name="--.HHE">
      <acc value="0.0357886770" flag="0"/>
      <vel value="0.0130858310" flag="0"/>
      <psa03 value="0.0718180680" flag="0"/>
      <psa10 value="0.0082886319" flag="0"/>
      <psa30 value="0.0004446811" flag="0"/>
    </comp>
  </station>
  <station code="KLV1" name="KLV1" netid="HI" insttype="CMG-5TD,ACCELEROMETER,GURALP" lat="38.0326" lon="22.108">
    <comp name="--.HNE">
      <acc value="0.0361725947" flag="0"/>
      <vel value="0.0160328924" flag="0"/>
      <psa03 value="0.1064948881" flag="0"/>
      <psa10 value="0.0133280886" flag="0"/>
      <psa30 value="0.0006586126" flag="0"/>
    </comp>
    <comp name="--.HNN">
      <acc value="0.0512913277" flag="0"/>
      <vel value="0.0207828207" flag="0"/>
      <psa03 value="0.1304833673" flag="0"/>
      <psa10 value="0.0149120963" flag="0"/>
      <psa30 value="0.0007887846" flag="0"/>
    </comp>
    <comp name="--.HNZ">
      <acc value="0.0154451087" flag="0"/>
      <vel value="0.0055814458" flag="0"/>
      <psa03 value="0.0520104036" flag="0"/>
      <psa10 value="0.0046390179" flag="0"/>
      <psa30 value="0.0002924185" flag="0"/>
    </comp>
  </station>
  <station code="LAM2" name="LAM2" netid="HI" insttype="CMG-5TD,ACCELEROMETER,GURALP" lat="38.902" lon="22.4313">
    <comp name="--.HNN">
      <acc value="0.1647993783" flag="0"/>
      <vel value="0.0353423893" flag="0"/>
      <psa03 value="0.0872115442" flag="0"/>
      <psa10 value="0.0069643568" flag="0"/>
      <psa30 value="0.0007027710" flag="0"/>
    </comp>
    <comp name="--.HNE">
      <acc value="0.2594152368" flag="0"/>
      <vel value="0.0675353274" flag="0"/>
      <psa03 value="0.1800940603" flag="0"/>
      <psa10 value="0.0128223872" flag="0"/>
      <psa30 value="0.0009865123" flag="0"/>
    </comp>
    <comp name="--.HNZ">
      <acc value="0.0985832509" flag="0"/>
      <vel value="0.0159602623" flag="0"/>
      <psa03 value="0.0484004996" flag="0"/>
      <psa10 value="0.0045379546" flag="0"/>
      <psa30 value="0.0006384872" flag="0"/>
    </comp>
  </station>
  <station code="MSL1" name="MSL1" netid="HI" insttype="CMG-5TD,ACCELEROMETER,GURALP" lat="38.3727" lon="21.4243">
    <comp name="--.HNN">
      <acc value="0.0270282508" flag="0"/>
      <vel value="0.0166560705" flag="0"/>
      <psa03 value="0.0834055501" flag="0"/>
      <psa10 value="0.0143028406" flag="0"/>
      <psa30 value="0.0009432798" flag="0"/>
    </comp>
    <comp name="--.HNZ">
      <acc value="0.0210249934" flag="0"/>
      <vel value="0.0082878231" flag="0"/>
      <psa03 value="0.0315089206" flag="0"/>
      <psa10 value="0.0130431277" flag="0"/>
      <psa30 value="0.0003433759" flag="0"/>
    </comp>
    <comp name="--.HNE">
      <acc value="0.0230727263" flag="0"/>
      <vel value="0.0148413729" flag="0"/>
      <psa03 value="0.0861784703" flag="0"/>
      <psa10 value="0.0203502242" flag="0"/>
      <psa30 value="0.0008971789" flag="0"/>
    </comp>
  </station>
  <station code="DLFA" name="DLFA" netid="HL" insttype="CMG-5" lat="38.4784" lon="22.4958">
    <comp name="00.HNE">
      <acc value="0.0445781659" flag="0"/>
      <vel value="0.0129943719" flag="0"/>
      <psa03 value="0.0401816433" flag="0"/>
      <psa10 value="0.0076460612" flag="0"/>
      <psa30 value="0.0005038593" flag="0"/>
    </comp>
    <comp name="00.HNN">
      <acc value="0.0501287064" flag="0"/>
      <vel value="0.0119100468" flag="0"/>
      <psa03 value="0.0509198490" flag="0"/>
      <psa10 value="0.0093647644" flag="0"/>
      <psa30 value="0.0004488972" flag="0"/>
    </comp>
    <comp name="00.HNZ">
      <acc value="0.0428487270" flag="0"/>
      <vel value="0.0103877818" flag="0"/>
      <psa03 value="0.0353736124" flag="0"/>
      <psa10 value="0.0050976817" flag="0"/>
      <psa30 value="0.0004514367" flag="0"/>
    </comp>
  </station>
  <station code="EVR" name="EVR" netid="HL" insttype="DR24" lat="38.9166" lon="21.8105">
    <comp name="--.HHE">
      <acc value="0.5267142565" flag="0"/>
      <vel value="0.0826775847" flag="0"/>
      <psa03 value="0.2673701757" flag="0"/>
      <psa10 value="0.0298314969" flag="0"/>
      <psa30 value="0.0023577173" flag="0"/>
    </comp>
    <comp name="--.HHN">
      <acc value="0.5551734124" flag="0"/>
      <vel value="0.0720957921" flag="0"/>
      <psa03 value="0.2623434048" flag="0"/>
      <psa10 value="0.0261535764" flag="0"/>
      <psa30 value="0.0028832328" flag="0"/>
    </comp>
    <comp name="--.HHZ">
      <acc value="0.3882637387" flag="0"/>
      <vel value="0.0792732301" flag="0"/>
      <psa03 value="0.3302579227" flag="0"/>
      <psa10 value="0.0203526427" flag="0"/>
      <psa30 value="0.0020863047" flag="0"/>
    </comp>
  </station>
  <station code="JAN" name="JAN" netid="HL" insttype="CMG3EPSC60_DR24" lat="39.6562" lon="20.8487">
    <comp name="--.HHN">
      <acc value="0.0115526334" flag="0"/>
      <vel value="0.0048883289" flag="0"/>
      <psa03 value="0.0311257295" flag="0"/>
      <psa10 value="0.0023509738" flag="0"/>
      <psa30 value="0.0002474805" flag="0"/>
    </comp>
    <comp name="--.HHE">
      <acc value="0.0148237470" flag="0"/>
      <vel value="0.0062321881" flag="0"/>
      <psa03 value="0.0471475027" flag="0"/>
      <psa10 value="0.0079180550" flag="0"/>
      <psa30 value="0.0003688269" flag="0"/>
    </comp>
    <comp name="--.HHZ">
      <acc value="0.0091978442" flag="0"/>
      <vel value="0.0052913637" flag="0"/>
      <psa03 value="0.0243584809" flag="0"/>
      <psa10 value="0.0024257676" flag="0"/>
      <psa30 value="0.0001910148" flag="0"/>
    </comp>
  </station>
  <station code="KLV" name="KLV" netid="HL" insttype="120" lat="38.0435" lon="22.1504">
    <comp name="--.HHE">
      <acc value="0.0092803932" flag="0"/>
      <vel value="0.0045374398" flag="0"/>
      <psa03 value="0.0138923385" flag="0"/>
      <psa10 value="0.0050615263" flag="0"/>
      <psa30 value="0.0003265432" flag="0"/>
    </comp>
    <comp name="--.HHN">
      <acc value="0.0074850703" flag="0"/>
      <vel value="0.0038119678" flag="0"/>
      <psa03 value="0.0224711353" flag="0"/>
      <psa10 value="0.0058039944" flag="0"/>
      <psa30 value="0.0002216922" flag="0"/>
    </comp>
    <comp name="--.HHZ">
      <acc value="0.0096496444" flag="0"/>
      <vel value="0.0050790073" flag="0"/>
      <psa03 value="0.0192930443" flag="0"/>
      <psa10 value="0.0090539394" flag="0"/>
      <psa30 value="0.0003180514" flag="0"/>
    </comp>
  </station>
  <station code="LKR" name="LKR" netid="HL" insttype="30" lat="38.6496" lon="22.9989">
    <comp name="--.HHE">
      <acc value="0.1024701056" flag="0"/>
      <vel value="0.0233496514" flag="0"/>
      <psa03 value="0.0819555076" flag="0"/>
      <psa10 value="0.0103844587" flag="0"/>
      <psa30 value="0.0008120895" flag="0"/>
    </comp>
    <comp name="--.HHN">
      <acc value="0.0752843209" flag="0"/>
      <vel value="0.0151120316" flag="0"/>
      <psa03 value="0.0695852841" flag="0"/>
      <psa10 value="0.0063841720" flag="0"/>
      <psa30 value="0.0007806954" flag="0"/>
    </comp>
    <comp name="--.HHZ">
      <acc value="0.0496569235" flag="0"/>
      <vel value="0.0114699441" flag="0"/>
      <psa03 value="0.0317746913" flag="0"/>
      <psa10 value="0.0077420002" flag="0"/>
      <psa30 value="0.0006137365" flag="0"/>
    </comp>
  </station>
  <station code="NEO" name="NEO" netid="HL" insttype="120" lat="39.3057" lon="23.2219">
    <comp name="--.HHE">
      <acc value="0.0052791157" flag="0"/>
      <vel value="0.0024095133" flag="0"/>
      <psa03 value="0.0090716524" flag="0"/>
      <psa10 value="0.0036094963" flag="0"/>
      <psa30 value="0.0001892380" flag="0"/>
    </comp>
    <comp name="--.HHN">
      <acc value="0.0086847451" flag="0"/>
      <vel value="0.0032934349" flag="0"/>
      <psa03 value="0.0160971005" flag="0"/>
      <psa10 value="0.0022768402" flag="0"/>
      <psa30 value="0.0003085831" flag="0"/>
    </comp>
    <comp name="--.HHZ">
      <acc value="0.0061961432" flag="0"/>
      <vel value="0.0021559745" flag="0"/>
      <psa03 value="0.0096244522" flag="0"/>
      <psa10 value="0.0031270169" flag="0"/>
      <psa30 value="0.0001957492" flag="0"/>
    </comp>
  </station>
  <station code="RLS" name="RLS" netid="HL" insttype="CMG3ESPC-120s" lat="38.0559" lon="21.4647">
    <comp name="--.HHN">
      <acc value="0.0063738240" flag="0"/>
      <vel value="0.0024162983" flag="0"/>
      <psa03 value="0.0149147997" flag="0"/>
      <psa10 value="0.0017755838" flag="0"/>
      <psa30 value="0.0001601767" flag="0"/>
    </comp>
    <comp name="--.HHZ">
      <acc value="0.0047254503" flag="0"/>
      <vel value="0.0014480279" flag="0"/>
      <psa03 value="0.0129678939" flag="0"/>
      <psa10 value="0.0016188264" flag="0"/>
      <psa30 value="0.0001251171" flag="0"/>
    </comp>
    <comp name="--.HHE">
      <acc value="0.0051290144" flag="0"/>
      <vel value="0.0020850820" flag="0"/>
      <psa03 value="0.0128948299" flag="0"/>
      <psa10 value="0.0019743218" flag="0"/>
      <psa30 value="0.0000940194" flag="0"/>
    </comp>
  </station>
  <station code="SOFA" name="SOFA" netid="HL" insttype="CMG-5" lat="39.3377" lon="22.0969">
    <comp name="00.HNE">
      <acc value="0.0622563184" flag="0"/>
      <vel value="0.0443069263" flag="0"/>
      <psa03 value="0.1304182444" flag="0"/>
      <psa10 value="0.0519123651" flag="0"/>
      <psa30 value="0.0031541697" flag="0"/>
    </comp>
    <comp name="00.HNN">
      <acc value="0.0535229980" flag="0"/>
      <vel value="0.0486114402" flag="0"/>
      <psa03 value="0.1234593936" flag="0"/>
      <psa10 value="0.0503159298" flag="0"/>
      <psa30 value="0.0029298790" flag="0"/>
    </comp>
    <comp name="00.HNZ">
      <acc value="0.0325955506" flag="0"/>
      <vel value="0.0142422080" flag="0"/>
      <psa03 value="0.0471774134" flag="0"/>
      <psa10 value="0.0191023077" flag="0"/>
      <psa30 value="0.0009276898" flag="0"/>
    </comp>
  </station>
  <station code="TETR" name="TETR" netid="HL" insttype="60" lat="39.3445" lon="21.2747">
    <comp name="--.HHE">
      <acc value="0.1360636852" flag="0"/>
      <vel value="0.0407173378" flag="0"/>
      <psa03 value="0.1953674163" flag="0"/>
      <psa10 value="0.0133664669" flag="0"/>
      <psa30 value="0.0012022973" flag="0"/>
    </comp>
    <comp name="--.HHN">
      <acc value="0.1256063819" flag="0"/>
      <vel value="0.0413035748" flag="0"/>
      <psa03 value="0.1370347226" flag="0"/>
      <psa10 value="0.0108995558" flag="0"/>
      <psa30 value="0.0009212543" flag="0"/>
    </comp>
    <comp name="--.HHZ">
      <acc value="0.0473807797" flag="0"/>
      <vel value="0.0180485390" flag="0"/>
      <psa03 value="0.1055303611" flag="0"/>
      <psa10 value="0.0095891696" flag="0"/>
      <psa30 value="0.0007094161" flag="0"/>
    </comp>
  </station>
  <station code="THL" name="THL" netid="HL" insttype="120" lat="39.5647" lon="22.0144">
    <comp name="--.HHE">
      <acc value="0.0073678965" flag="0"/>
      <vel value="0.0039100769" flag="0"/>
      <psa03 value="0.0149861473" flag="0"/>
      <psa10 value="0.0026845053" flag="0"/>
      <psa30 value="0.0001734097" flag="0"/>
    </comp>
    <comp name="--.HHN">
      <acc value="0.0081745767" flag="0"/>
      <vel value="0.0025127414" flag="0"/>
      <psa03 value="0.0098076074" flag="0"/>
      <psa10 value="0.0027682528" flag="0"/>
      <psa30 value="0.0002651740" flag="0"/>
    </comp>
    <comp name="--.HHZ">
      <acc value="0.0079362901" flag="0"/>
      <vel value="0.0025219327" flag="0"/>
      <psa03 value="0.0083557429" flag="0"/>
      <psa10 value="0.0027901020" flag="0"/>
      <psa30 value="0.0002568139" flag="0"/>
    </comp>
  </station>
  <station code="AMPL" name="AMPL" netid="HP" insttype="Compact," lat="38.9224" lon="21.2135">
    <comp name="--.HHE">
      <acc value="0.0656819500" flag="0"/>
      <vel value="0.0164813457" flag="0"/>
      <psa03 value="0.0946084894" flag="0"/>
      <psa10 value="0.0089471968" flag="0"/>
      <psa30 value="0.0005860882" flag="0"/>
    </comp>
    <comp name="--.HHN">
      <acc value="0.0791206157" flag="0"/>
      <vel value="0.0179975319" flag="0"/>
      <psa03 value="0.0663963917" flag="0"/>
      <psa10 value="0.0066363594" flag="0"/>
      <psa30 value="0.0004759044" flag="0"/>
    </comp>
    <comp name="--.HHZ">
      <acc value="0.0304547615" flag="0"/>
      <vel value="0.0070285720" flag="0"/>
      <psa03 value="0.0435625572" flag="0"/>
      <psa10 value="0.0045305311" flag="0"/>
      <psa30 value="0.0004455653" flag="0"/>
    </comp>
  </station>
  <station code="ANX" name="ANX" netid="HP" insttype="120" lat="38.5933" lon="21.9209">
    <comp name="--.HHN">
      <acc value="0.1830515284" flag="0"/>
      <vel value="0.0584201547" flag="0"/>
      <psa03 value="0.3641026537" flag="0"/>
      <psa10 value="0.0257449365" flag="0"/>
      <psa30 value="0.0016180181" flag="0"/>
    </comp>
    <comp name="--.HHE">
      <acc value="0.1867473912" flag="0"/>
      <vel value="0.0539997672" flag="0"/>
      <psa03 value="0.2230485791" flag="0"/>
      <psa10 value="0.0255951874" flag="0"/>
      <psa30 value="0.0016853051" flag="0"/>
    </comp>
    <comp name="--.HHZ">
      <acc value="0.1177020272" flag="0"/>
      <vel value="0.0366009321" flag="0"/>
      <psa03 value="0.2152558425" flag="0"/>
      <psa10 value="0.0218660023" flag="0"/>
      <psa30 value="0.0013896673" flag="0"/>
    </comp>
  </station>
  <station code="AXS" name="AXS" netid="HP" insttype="40," lat="38.1962" lon="21.3763">
    <comp name="--.HHE">
      <acc value="0.0038494316" flag="0"/>
      <vel value="0.0015986844" flag="0"/>
      <psa03 value="0.0094552017" flag="0"/>
      <psa10 value="0.0011941599" flag="0"/>
      <psa30 value="0.0000832222" flag="0"/>
    </comp>
    <comp name="--.HHN">
      <acc value="0.0031261062" flag="0"/>
      <vel value="0.0015173689" flag="0"/>
      <psa03 value="0.0099154398" flag="0"/>
      <psa10 value="0.0012317186" flag="0"/>
      <psa30 value="0.0000695684" flag="0"/>
    </comp>
    <comp name="--.HHZ">
      <acc value="0.0020021079" flag="0"/>
      <vel value="0.0007810080" flag="0"/>
      <psa03 value="0.0035055522" flag="0"/>
      <psa10 value="0.0008048400" flag="0"/>
      <psa30 value="0.0000401986" flag="0"/>
    </comp>
  </station>
  <station code="DRO" name="DRO" netid="HP" insttype="120P," lat="37.952" lon="21.71">
    <comp name="--.HHE">
      <acc value="0.0160795639" flag="0"/>
      <vel value="0.0070184506" flag="0"/>
      <psa03 value="0.0442604817" flag="0"/>
      <psa10 value="0.0053998031" flag="0"/>
      <psa30 value="0.0002828894" flag="0"/>
    </comp>
    <comp name="--.HHN">
      <acc value="0.0139641294" flag="0"/>
      <vel value="0.0056778358" flag="0"/>
