<stationlist created="1778138936">
	<station code="AGRP" name="AGRP" netid="CL" source="Corinth Riff Laboratory (CRLNET)" insttype="" lat="38.3959" lon="21.72277">
		<comp name="00.HNE" depth="0.0">
			<acc value="0.0435577259548937" flag="0"/>
			<vel value="0.0150712452824335" flag="0"/>
			<psa03 value="0.112104832645195" flag="0"/>
			<psa10 value="0.00714336305650703" flag="0"/>
			<psa30 value="0.000357597959943177" flag="0"/>
		</comp>
		<comp name="00.HNN" depth="0.0">
			<acc value="0.0319976546546069" flag="0"/>
			<vel value="0.00854572952921898" flag="0"/>
			<psa03 value="0.0681534887923661" flag="0"/>
			<psa10 value="0.00696787815023783" flag="0"/>
			<psa30 value="0.000501928979497131" flag="0"/>
		</comp>
		<comp name="00.HNZ" depth="0.0">
			<acc value="0.0229846652272777" flag="0"/>
			<vel value="0.00685217790354279" flag="0"/>
			<psa03 value="0.039837079115135" flag="0"/>
			<psa10 value="0.00531473019978683" flag="0"/>
			<psa30 value="0.000304908740374382" flag="0"/>
		</comp>
	</station>
	<station code="ROD3" name="ROD3" netid="CL" source="Corinth Riff Laboratory (CRLNET)" insttype="" lat="38.30811" lon="21.89204">
		<comp name="00.HNE" depth="0.0">
			<acc value="0.0736350282669666" flag="0"/>
			<vel value="0.0222437357351895" flag="0"/>
			<psa03 value="0.160757003529141" flag="0"/>
			<psa10 value="0.00835977535658304" flag="0"/>
			<psa30 value="0.000665600915709857" flag="0"/>
		</comp>
		<comp name="00.HNN" depth="0.0">
			<acc value="0.0688826689455316" flag="0"/>
			<vel value="0.0262363675575" flag="0"/>
			<psa03 value="0.131651585854597" flag="0"/>
			<psa10 value="0.00902376903042923" flag="0"/>
			<psa30 value="0.00087909979854921" flag="0"/>
		</comp>
		<comp name="00.HNZ" depth="0.0">
			<acc value="0.0264621215048567" flag="0"/>
			<vel value="0.00726072200223233" flag="0"/>
			<psa03 value="0.0375559201870841" flag="0"/>
			<psa10 value="0.00350566168600835" flag="0"/>
			<psa30 value="0.0003572423113834" flag="0"/>
		</comp>
	</station>
	<station code="AIGS" name="AIGS" netid="HA" source="Hellenic Seismological Network, University of Athens, Seismological Laboratory (HA)" insttype="" lat="38.25001" lon="22.0878">
		<comp name="--.HNE" depth="0.0">
			<acc value="0.0693011634309424" flag="0"/>
			<vel value="0.0194518036064101" flag="0"/>
			<psa03 value="0.101040026739333" flag="0"/>
			<psa10 value="0.00566488573960955" flag="0"/>
			<psa30 value="0.00139856066861305" flag="0"/>
		</comp>
		<comp name="--.HNN" depth="0.0">
			<acc value="0.0657068697424566" flag="0"/>
			<vel value="0.0213254843981657" flag="0"/>
			<psa03 value="0.107509507394111" flag="0"/>
			<psa10 value="0.00810068006780682" flag="0"/>
			<psa30 value="0.00124104012948243" flag="0"/>
		</comp>
		<comp name="--.HNZ" depth="0.0">
			<acc value="0.0394174019324319" flag="0"/>
			<vel value="0.00996861794458659" flag="0"/>
			<psa03 value="0.0361555071040622" flag="0"/>
			<psa10 value="0.00597582258767412" flag="0"/>
			<psa30 value="0.000574415031343559" flag="0"/>
		</comp>
	</station>
	<station code="DRES" name="DRES" netid="HA" source="Hellenic Seismological Network, University of Athens, Seismological Laboratory (HA)" insttype="" lat="38.319719" lon="21.853176">
		<comp name="--.HNE" depth="0.0">
			<acc value="0.020920346146217" flag="0"/>
			<vel value="0.00850570697297943" flag="0"/>
			<psa03 value="0.042045485827903" flag="0"/>
			<psa10 value="0.008336258486225" flag="0"/>
			<psa30 value="0.000710272416644061" flag="0"/>
		</comp>
		<comp name="--.HNN" depth="0.0">
			<acc value="0.022703004353593" flag="0"/>
			<vel value="0.00999691391801606" flag="0"/>
			<psa03 value="0.047031386431726" flag="0"/>
			<psa10 value="0.00676326037656017" flag="0"/>
			<psa30 value="0.000770621674906032" flag="0"/>
		</comp>
		<comp name="--.HNZ" depth="0.0">
			<acc value="0.0173307179409026" flag="0"/>
			<vel value="0.00510530727554641" flag="0"/>
			<psa03 value="0.0184729203549128" flag="0"/>
			<psa10 value="0.00615767213430162" flag="0"/>
			<psa30 value="0.000841891604520987" flag="0"/>
		</comp>
	</station>
	<station code="KIAS" name="KIAS" netid="HA" source="Hellenic Seismological Network, University of Athens, Seismological Laboratory (HA)" insttype="" lat="37.9875" lon="22.7543">
		<comp name="--.HNE" depth="0.0">
			<acc value="0.0131582682095733" flag="0"/>
			<vel value="0.00559909171038963" flag="0"/>
			<psa03 value="0.0349245140984822" flag="0"/>
			<psa10 value="0.0072017080153246" flag="0"/>
			<psa30 value="0.000918146239348718" flag="0"/>
		</comp>
		<comp name="--.HNN" depth="0.0">
			<acc value="0.015667287662004" flag="0"/>
			<vel value="0.00488300690347713" flag="0"/>
			<psa03 value="0.0292225113687768" flag="0"/>
			<psa10 value="0.00568754474067397" flag="0"/>
			<psa30 value="0.000848995304272272" flag="0"/>
		</comp>
		<comp name="--.HNZ" depth="0.0">
			<acc value="0.0221069060035137" flag="0"/>
			<vel value="0.00777643757635864" flag="0"/>
			<psa03 value="0.0370118476865924" flag="0"/>
			<psa10 value="0.00446823162339869" flag="0"/>
			<psa30 value="0.000481596382561638" flag="0"/>
		</comp>
	</station>
	<station code="LTRS" name="LTRS" netid="HA" source="Hellenic Seismological Network, University of Athens, Seismological Laboratory (HA)" insttype="" lat="37.97528" lon="22.9765">
		<comp name="--.HNE" depth="0.0">
			<acc value="0.0107134906466382" flag="0"/>
			<vel value="0.00772644266834878" flag="0"/>
			<psa03 value="0.0308656670948182" flag="0"/>
			<psa10 value="0.0141601055375118" flag="0"/>
			<psa30 value="0.000794514299339755" flag="0"/>
		</comp>
		<comp name="--.HNN" depth="0.0">
			<acc value="0.0079644301024361" flag="0"/>
			<vel value="0.00501083063429951" flag="0"/>
			<psa03 value="0.0274254391965703" flag="0"/>
			<psa10 value="0.00669806980798296" flag="0"/>
			<psa30 value="0.000671070184273045" flag="0"/>
		</comp>
		<comp name="--.HNZ" depth="0.0">
			<acc value="0.00823284821042961" flag="0"/>
			<vel value="0.00446913915657188" flag="0"/>
			<psa03 value="0.0169597016220153" flag="0"/>
			<psa10 value="0.00739913328125489" flag="0"/>
			<psa30 value="0.00064304791126846" flag="0"/>
		</comp>
	</station>
	<station code="ARG2" name="ARG2" netid="HI" source="ITSAK Strong Motion Network" insttype="" lat="38.1783" lon="20.4878">
		<comp name="--.HNE" depth="0.0">
			<acc value="0.0151204381001661" flag="0"/>
			<vel value="0.00718223105424218" flag="0"/>
			<psa03 value="0.0389837465443996" flag="0"/>
			<psa10 value="0.00416471604824793" flag="0"/>
			<psa30 value="0.000268339390751048" flag="0"/>
		</comp>
		<comp name="--.HNN" depth="0.0">
			<acc value="0.0154663186482118" flag="0"/>
			<vel value="0.00712749888592728" flag="0"/>
			<psa03 value="0.0287893134007203" flag="0"/>
			<psa10 value="0.00628168206810059" flag="0"/>
			<psa30 value="0.000386710982288165" flag="0"/>
		</comp>
		<comp name="--.HNZ" depth="0.0">
			<acc value="0.00984155029306751" flag="0"/>
			<vel value="0.00451249321471155" flag="0"/>
			<psa03 value="0.0292554197988299" flag="0"/>
			<psa10 value="0.00295425070460969" flag="0"/>
			<psa30 value="0.000137116583300791" flag="0"/>
		</comp>
	</station>
	<station code="ART2" name="ART2" netid="HI" source="ITSAK Strong Motion Network" insttype="" lat="39.1474" lon="20.9937">
		<comp name="--.HNE" depth="0.0">
			<acc value="0.0143754830242289" flag="0"/>
			<vel value="0.00375943841056663" flag="0"/>
			<psa03 value="0.0165495859121816" flag="0"/>
			<psa10 value="0.00299203422320901" flag="0"/>
			<psa30 value="0.000261451694891571" flag="0"/>
		</comp>
		<comp name="--.HNN" depth="0.0">
			<acc value="0.0145060520184062" flag="0"/>
			<vel value="0.00501666783997097" flag="0"/>
			<psa03 value="0.0179548196270311" flag="0"/>
			<psa10 value="0.00196627330283221" flag="0"/>
			<psa30 value="0.000170636069427121" flag="0"/>
		</comp>
		<comp name="--.HNZ" depth="0.0">
			<acc value="0.0104164803454781" flag="0"/>
			<vel value="0.00322946578112709" flag="0"/>
			<psa03 value="0.0129035566202087" flag="0"/>
			<psa10 value="0.00256719553285651" flag="0"/>
			<psa30 value="0.000301937189357146" flag="0"/>
		</comp>
	</station>
	<station code="KLV1" name="KLV1" netid="HI" source="ITSAK Strong Motion Network" insttype="" lat="38.03256" lon="22.10797">
		<comp name="--.HNE" depth="0.0">
			<acc value="0.0363327384258726" flag="0"/>
			<vel value="0.0160552873162315" flag="0"/>
			<psa03 value="0.109423467517586" flag="0"/>
			<psa10 value="0.0132832965157001" flag="0"/>
			<psa30 value="0.000613310732991284" flag="0"/>
		</comp>
		<comp name="--.HNN" depth="0.0">
			<acc value="0.051288190068551" flag="0"/>
			<vel value="0.0209707031935088" flag="0"/>
			<psa03 value="0.128508065112121" flag="0"/>
			<psa10 value="0.0148756501263102" flag="0"/>
			<psa30 value="0.000776920477586027" flag="0"/>
		</comp>
		<comp name="--.HNZ" depth="0.0">
			<acc value="0.014996237089473" flag="0"/>
			<vel value="0.00563915805238159" flag="0"/>
			<psa03 value="0.0525855616602862" flag="0"/>
			<psa10 value="0.00460454190328758" flag="0"/>
			<psa30 value="0.000278189756831286" flag="0"/>
		</comp>
	</station>
	<station code="KRI1" name="KRI1" netid="HI" source="ITSAK Strong Motion Network" insttype="" lat="37.6621" lon="20.8172">
		<comp name="--.HNE" depth="0.0">
			<acc value="0.00410282357599536" flag="0"/>
			<vel value="0.00246078668924693" flag="0"/>
			<psa03 value="0.0135120774004637" flag="0"/>
			<psa10 value="0.00404090722150898" flag="0"/>
			<psa30 value="0.000194295670613945" flag="0"/>
		</comp>
		<comp name="--.HNN" depth="0.0">
			<acc value="0.00381657998592225" flag="0"/>
			<vel value="0.00293818665879815" flag="0"/>
			<psa03 value="0.0104719814778092" flag="0"/>
			<psa10 value="0.00203195937295911" flag="0"/>
			<psa30 value="0.000183190104195442" flag="0"/>
		</comp>
		<comp name="--.HNZ" depth="0.0">
			<acc value="0.00323687341307997" flag="0"/>
			<vel value="0.0010568942329175" flag="0"/>
			<psa03 value="0.00693653698550414" flag="0"/>
			<psa10 value="0.000836209066623307" flag="0"/>
			<psa30 value="6.3312488412655e-05" flag="0"/>
		</comp>
	</station>
	<station code="LAM2" name="LAM2" netid="HI" source="ITSAK Strong Motion Network" insttype="" lat="38.90203" lon="22.431301">
		<comp name="--.HNE" depth="0.0">
			<acc value="0.260739197970442" flag="0"/>
			<vel value="0.0685429049735992" flag="0"/>
			<psa03 value="0.184625918060877" flag="0"/>
			<psa10 value="0.0129624158839353" flag="0"/>
			<psa30 value="0.00100886558239568" flag="0"/>
		</comp>
		<comp name="--.HNN" depth="0.0">
			<acc value="0.162265580305969" flag="0"/>
			<vel value="0.0361390098548348" flag="0"/>
			<psa03 value="0.0876659845245671" flag="0"/>
			<psa10 value="0.00701988706432278" flag="0"/>
			<psa30 value="0.000712304374168035" flag="0"/>
		</comp>
		<comp name="--.HNZ" depth="0.0">
			<acc value="0.0992828273338734" flag="0"/>
			<vel value="0.0163418989165173" flag="0"/>
			<psa03 value="0.0488767795132626" flag="0"/>
			<psa10 value="0.00457660536512482" flag="0"/>
			<psa30 value="0.000665569351121107" flag="0"/>
		</comp>
	</station>
	<station code="MSL1" name="MSL1" netid="HI" source="ITSAK Strong Motion Network" insttype="" lat="38.3727" lon="21.4243">
		<comp name="--.HNE" depth="0.0">
			<acc value="0.0227197938282591" flag="0"/>
			<vel value="0.014808162163639" flag="0"/>
			<psa03 value="0.0859631738050927" flag="0"/>
			<psa10 value="0.0202261886357497" flag="0"/>
			<psa30 value="0.000888872945970011" flag="0"/>
		</comp>
		<comp name="--.HNN" depth="0.0">
			<acc value="0.0269260064966466" flag="0"/>
			<vel value="0.016542960432183" flag="0"/>
			<psa03 value="0.0829498023090743" flag="0"/>
			<psa10 value="0.0143049476325624" flag="0"/>
			<psa30 value="0.000817147100737091" flag="0"/>
		</comp>
		<comp name="--.HNZ" depth="0.0">
			<acc value="0.0207216074489519" flag="0"/>
			<vel value="0.00828461350175222" flag="0"/>
			<psa03 value="0.0316196206863415" flag="0"/>
			<psa10 value="0.0129924778754022" flag="0"/>
			<psa30 value="0.000341879991621629" flag="0"/>
		</comp>
	</station>
	<station code="VAS2" name="VAS2" netid="HI" source="ITSAK Strong Motion Network" insttype="" lat="38.630558" lon="20.608081">
		<comp name="--.HNE" depth="0.0">
			<acc value="0.051505340061021" flag="0"/>
			<vel value="0.0334396700833" flag="0"/>
			<psa03 value="0.110802777640425" flag="0"/>
			<psa10 value="0.0604544773122418" flag="0"/>
			<psa30 value="0.00221614972570836" flag="0"/>
		</comp>
		<comp name="--.HNN" depth="0.0">
			<acc value="0.048198913222749" flag="0"/>
			<vel value="0.0302870496984477" flag="0"/>
			<psa03 value="0.14550856631169" flag="0"/>
			<psa10 value="0.0618522474077505" flag="0"/>
			<psa30 value="0.00195895435444606" flag="0"/>
		</comp>
		<comp name="--.HNZ" depth="0.0">
			<acc value="0.0188414281437659" flag="0"/>
			<vel value="0.0138040312695769" flag="0"/>
			<psa03 value="0.0611805320765757" flag="0"/>
			<psa10 value="0.0244586590161412" flag="0"/>
			<psa30 value="0.000898553274743597" flag="0"/>
		</comp>
	</station>
	<station code="DLFA" name="DLFA" netid="HL" source="National Observatory of Athens Seismic Network" insttype="" lat="38.47836" lon="22.49583">
		<comp name="00.HNE" depth="0.0">
			<acc value="0.043532715197919" flag="0"/>
			<vel value="0.0129447352280997" flag="0"/>
			<psa03 value="0.0400627164583402" flag="0"/>
			<psa10 value="0.0076514317135677" flag="0"/>
			<psa30 value="0.000538673288626885" flag="0"/>
		</comp>
		<comp name="00.HNN" depth="0.0">
			<acc value="0.0493496718617674" flag="0"/>
			<vel value="0.0119727226743525" flag="0"/>
			<psa03 value="0.0510605752209242" flag="0"/>
			<psa10 value="0.00936651454813288" flag="0"/>
			<psa30 value="0.000467247879960262" flag="0"/>
		</comp>
		<comp name="00.HNZ" depth="0.0">
			<acc value="0.0414989439810612" flag="0"/>
			<vel value="0.0103952714974227" flag="0"/>
			<psa03 value="0.0355957486686514" flag="0"/>
			<psa10 value="0.00510248676469717" flag="0"/>
			<psa30 value="0.000478176676855905" flag="0"/>
		</comp>
	</station>
	<station code="LKR" name="LKR" netid="HL" source="National Observatory of Athens Seismic Network" insttype="" lat="38.64957" lon="22.998812">
		<comp name="--.HNE" depth="0.0">
			<acc value="0.0242152502490121" flag="0"/>
			<vel value="0.00573580563584832" flag="0"/>
			<psa03 value="0.0197991944119625" flag="0"/>
			<psa10 value="0.00256519102506421" flag="0"/>
			<psa30 value="0.000211145315465784" flag="0"/>
		</comp>
		<comp name="--.HNN" depth="0.0">
			<acc value="0.018414594445462" flag="0"/>
			<vel value="0.00384667307477151" flag="0"/>
			<psa03 value="0.0177666886746613" flag="0"/>
			<psa10 value="0.00161487490722276" flag="0"/>
			<psa30 value="0.000248034608158632" flag="0"/>
		</comp>
		<comp name="--.HNZ" depth="0.0">
			<acc value="0.0118506800572925" flag="0"/>
			<vel value="0.00291066819678066" flag="0"/>
			<psa03 value="0.0078811067200515" flag="0"/>
			<psa10 value="0.00188143096369301" flag="0"/>
			<psa30 value="0.000165184992174013" flag="0"/>
		</comp>
	</station>
	<station code="PATG" name="PATG" netid="HL" source="National Observatory of Athens Seismic Network" insttype="" lat="38.23865" lon="21.72657">
		<comp name="00.HNE" depth="0.0">
			<acc value="0.0260317388492893" flag="0"/>
			<vel value="0.0111171988170974" flag="0"/>
			<psa03 value="0.0444199686465739" flag="0"/>
			<psa10 value="0.0128295220803894" flag="0"/>
			<psa30 value="0.00090393404786186" flag="0"/>
		</comp>
		<comp name="00.HNN" depth="0.0">
			<acc value="0.0379438204326876" flag="0"/>
			<vel value="0.0120857053393302" flag="0"/>
			<psa03 value="0.062128105265432" flag="0"/>
			<psa10 value="0.0129521730179034" flag="0"/>
			<psa30 value="0.00106488950203731" flag="0"/>
		</comp>
		<comp name="00.HNZ" depth="0.0">
			<acc value="0.0154140074521516" flag="0"/>
			<vel value="0.00417113961785327" flag="0"/>
			<psa03 value="0.0396359303733654" flag="0"/>
			<psa10 value="0.00407494541388081" flag="0"/>
			<psa30 value="0.000556516710252205" flag="0"/>
		</comp>
	</station>
	<station code="RIOA" name="RIOA" netid="HL" source="National Observatory of Athens Seismic Network" insttype="" lat="38.29585" lon="21.79118">
		<comp name="00.HNE" depth="0.0">
			<acc value="0.0320134495050718" flag="0"/>
			<vel value="0.0130335653628845" flag="0"/>
			<psa03 value="0.103391942958589" flag="0"/>
			<psa10 value="0.0106640170638081" flag="0"/>
			<psa30 value="0.000719581262477749" flag="0"/>
		</comp>
		<comp name="00.HNN" depth="0.0">
			<acc value="0.0368820296584741" flag="0"/>
			<vel value="0.0115459145279844" flag="0"/>
			<psa03 value="0.0651336689524393" flag="0"/>
			<psa10 value="0.0104700635903128" flag="0"/>
			<psa30 value="0.000546327910291174" flag="0"/>
		</comp>
		<comp name="00.HNZ" depth="0.0">
			<acc value="0.0222844836661195" flag="0"/>
			<vel value="0.00633131879137321" flag="0"/>
			<psa03 value="0.0385102620533774" flag="0"/>
			<psa10 value="0.00403397301215351" flag="0"/>
			<psa30 value="0.0005985003247927" flag="0"/>
		</comp>
	</station>
	<station code="SOFA" name="SOFA" netid="HL" source="National Observatory of Athens Seismic Network" insttype="" lat="39.33773" lon="22.09691">
		<comp name="00.HNE" depth="0.0">
			<acc value="0.0616876513790764" flag="0"/>
			<vel value="0.0443541493608608" flag="0"/>
			<psa03 value="0.130944205661096" flag="0"/>
			<psa10 value="0.0519575844349318" flag="0"/>
			<psa30 value="0.0031576545957872" flag="0"/>
		</comp>
		<comp name="00.HNN" depth="0.0">
			<acc value="0.0536244245881598" flag="0"/>
			<vel value="0.0485950629679829" flag="0"/>
			<psa03 value="0.123752770930276" flag="0"/>
			<psa10 value="0.0503415311294552" flag="0"/>
			<psa30 value="0.00291992238886114" flag="0"/>
		</comp>
		<comp name="00.HNZ" depth="0.0">
			<acc value="0.0312980660295551" flag="0"/>
			<vel value="0.0139328691607904" flag="0"/>
			<psa03 value="0.0474248552056078" flag="0"/>
			<psa10 value="0.019107596409482" flag="0"/>
			<psa30 value="0.000987699701091888" flag="0"/>
		</comp>
	</station>
	<station code="ANX" name="ANX" netid="HP" source="University of Patras, Seismological Laboratory (PSLNET)" insttype="" lat="38.5933" lon="21.9209">
		<comp name="--.HNE" depth="0.0">
			<acc value="0.234622110098423" flag="0"/>
			<vel value="0.065895757299854" flag="0"/>
			<psa03 value="0.273695547653528" flag="0"/>
			<psa10 value="0.0307665562583394" flag="0"/>
			<psa30 value="0.00212723966918935" flag="0"/>
		</comp>
		<comp name="--.HNN" depth="0.0">
			<acc value="0.209003232257724" flag="0"/>
			<vel value="0.0734652354200843" flag="0"/>
			<psa03 value="0.463147889606684" flag="0"/>
			<psa10 value="0.032812453664015" flag="0"/>
			<psa30 value="0.00202064448277971" flag="0"/>
		</comp>
		<comp name="--.HNZ" depth="0.0">
			<acc value="0.141573893004617" flag="0"/>
			<vel value="0.0443950787012589" flag="0"/>
			<psa03 value="0.259353660073755" flag="0"/>
			<psa10 value="0.0268576835647232" flag="0"/>
			<psa30 value="0.00162955659596086" flag="0"/>
		</comp>
	</station>
	<station code="DSF" name="DSF" netid="HP" source="University of Patras, Seismological Laboratory (PSLNET)" insttype="" lat="38.4112" lon="22.5271">
		<comp name="--.HNE" depth="1.0">
			<acc value="0.0867626607193907" flag="0"/>
			<vel value="0.0163620268236143" flag="0"/>
			<psa03 value="0.0682563601906" flag="0"/>
			<psa10 value="0.00629870913356254" flag="0"/>
			<psa30 value="0.000404151043856497" flag="0"/>
		</comp>
		<comp name="--.HNN" depth="1.0">
			<acc value="0.10279473346661" flag="0"/>
			<vel value="0.023558362835635" flag="0"/>
			<psa03 value="0.0910523963579489" flag="0"/>
			<psa10 value="0.00631535836149215" flag="0"/>
			<psa30 value="0.00036297560785276" flag="0"/>
		</comp>
		<comp name="--.HNZ" depth="1.0">
			<acc value="0.0476803505965839" flag="0"/>
			<vel value="0.00955058224981009" flag="0"/>
