<stationlist created="1775819716">
	<station code="KRL1" name="KRL1" netid="HI" source="ITSAK Strong Motion Network" insttype="" lat="37.7951" lon="26.7065">
		<comp name="--.HNE" depth="0.0">
			<acc value="1.83196934683801" flag="0"/>
			<vel value="0.429966756590394" flag="0"/>
			<psa03 value="1.88051494416596" flag="0"/>
			<psa10 value="0.106951770700317" flag="0"/>
			<psa30 value="0.0117470663476272" flag="0"/>
		</comp>
		<comp name="--.HNN" depth="0.0">
			<acc value="1.89817644139348" flag="0"/>
			<vel value="0.577287508928745" flag="0"/>
			<psa03 value="1.35967091692266" flag="0"/>
			<psa10 value="0.109098054351795" flag="0"/>
			<psa30 value="0.0133067796703402" flag="0"/>
		</comp>
		<comp name="--.HNZ" depth="0.0">
			<acc value="0.702529359865287" flag="0"/>
			<vel value="0.183849523741402" flag="0"/>
			<psa03 value="0.429301472502317" flag="0"/>
			<psa10 value="0.0373445301760067" flag="0"/>
			<psa30 value="0.00624780173217547" flag="0"/>
		</comp>
	</station>
	<station code="MYT1" name="MYT1" netid="HI" source="ITSAK Strong Motion Network" insttype="" lat="39.085" lon="26.5694">
		<comp name="--.HNE" depth="0.0">
			<acc value="0.0130424807360731" flag="0"/>
			<vel value="0.0062097083781264" flag="0"/>
			<psa03 value="0.0324430163781259" flag="0"/>
			<psa10 value="0.00716024386228164" flag="0"/>
			<psa30 value="0.00133766767641674" flag="0"/>
		</comp>
		<comp name="--.HNN" depth="0.0">
			<acc value="0.0112061835486985" flag="0"/>
			<vel value="0.00658294894902401" flag="0"/>
			<psa03 value="0.0289354819378456" flag="0"/>
			<psa10 value="0.00707586421003656" flag="0"/>
			<psa30 value="0.00138601796271909" flag="0"/>
		</comp>
		<comp name="--.HNZ" depth="0.0">
			<acc value="0.00796383214955223" flag="0"/>
			<vel value="0.00562812819356735" flag="0"/>
			<psa03 value="0.0229724983777805" flag="0"/>
			<psa10 value="0.00891958619130111" flag="0"/>
			<psa30 value="0.000787494094702547" flag="0"/>
		</comp>
	</station>
	<station code="PRK" name="PRK" netid="HL" source="National Observatory of Athens Seismic Network" insttype="" lat="39.24565" lon="26.26499">
		<comp name="--.HNE" depth="0.0">
			<acc value="0.0107726986170166" flag="0"/>
			<vel value="0.00899904183878328" flag="0"/>
			<psa03 value="0.0331111778280438" flag="0"/>
			<psa10 value="0.0122764523172025" flag="0"/>
			<psa30 value="0.000715333324823442" flag="0"/>
		</comp>
		<comp name="--.HNN" depth="0.0">
			<acc value="0.0113353202811075" flag="0"/>
			<vel value="0.00680448984279502" flag="0"/>
			<psa03 value="0.0411145725969941" flag="0"/>
			<psa10 value="0.00952155263111868" flag="0"/>
			<psa30 value="0.00099030726966326" flag="0"/>
		</comp>
		<comp name="--.HNZ" depth="0.0">
			<acc value="0.00711066998379834" flag="0"/>
			<vel value="0.00410415650030027" flag="0"/>
			<psa03 value="0.0246548363868913" flag="0"/>
			<psa10 value="0.00340012875746704" flag="0"/>
			<psa30 value="0.00055384887727076" flag="0"/>
		</comp>
	</station>
	<station code="AKS" name="AKS" netid="KO" source="Bogazici University Kandilli Observatory And Earthquake Research Institute (KOERI)" insttype="" lat="38.8785" lon="27.8129">
		<comp name="--.HNE" depth="0.0">
			<acc value="0.00623050088191323" flag="0"/>
			<vel value="0.00305493784856311" flag="0"/>
			<psa03 value="0.0237581117143023" flag="0"/>
			<psa10 value="0.00206172088096996" flag="0"/>
			<psa30 value="0.000680976384730096" flag="0"/>
		</comp>
		<comp name="--.HNN" depth="0.0">
			<acc value="0.0117570195098777" flag="0"/>
			<vel value="0.00525577815826494" flag="0"/>
			<psa03 value="0.0365991250137463" flag="0"/>
			<psa10 value="0.0025449367124473" flag="0"/>
			<psa30 value="0.000966879085020852" flag="0"/>
		</comp>
		<comp name="--.HNZ" depth="0.0">
			<acc value="0.00312152560357327" flag="0"/>
			<vel value="0.00114458693280758" flag="0"/>
			<psa03 value="0.0106039029685304" flag="0"/>
			<psa10 value="0.00111945000958916" flag="0"/>
			<psa30 value="0.00057627962124334" flag="0"/>
		</comp>
	</station>
	<station code="DATC" name="DATC" netid="KO" source="Bogazici University Kandilli Observatory And Earthquake Research Institute (KOERI)" insttype="" lat="36.7584" lon="27.6602">
		<comp name="--.HNE" depth="0.0">
			<acc value="0.0528026789600283" flag="0"/>
			<vel value="0.0174410791578942" flag="0"/>
			<psa03 value="0.107515522503707" flag="0"/>
			<psa10 value="0.0201621805683918" flag="0"/>
			<psa30 value="0.00540843793601669" flag="0"/>
		</comp>
		<comp name="--.HNN" depth="0.0">
			<acc value="0.0641884836098926" flag="0"/>
			<vel value="0.0351803922679568" flag="0"/>
			<psa03 value="0.228990613472315" flag="0"/>
			<psa10 value="0.0229487251965778" flag="0"/>
			<psa30 value="0.00664198057248244" flag="0"/>
		</comp>
		<comp name="--.HNZ" depth="0.0">
			<acc value="0.119333868023965" flag="0"/>
			<vel value="0.0190408233341048" flag="0"/>
			<psa03 value="0.0543170388345819" flag="0"/>
			<psa10 value="0.0129823986723577" flag="0"/>
			<psa30 value="0.00254135733591784" flag="0"/>
		</comp>
	</station>
	<station code="EZNE" name="EZNE" netid="KO" source="Bogazici University Kandilli Observatory And Earthquake Research Institute (KOERI)" insttype="" lat="39.756" lon="26.3655">
		<comp name="--.HNE" depth="0.0">
			<acc value="0.0153250229322117" flag="0"/>
			<vel value="0.00773283736523462" flag="0"/>
			<psa03 value="0.0502454980323192" flag="0"/>
			<psa10 value="0.0080616507884802" flag="0"/>
			<psa30 value="0.00150691751890339" flag="0"/>
		</comp>
		<comp name="--.HNN" depth="0.0">
			<acc value="0.0259279420480018" flag="0"/>
			<vel value="0.00790614065012567" flag="0"/>
			<psa03 value="0.0429077761469226" flag="0"/>
			<psa10 value="0.00733280024266856" flag="0"/>
			<psa30 value="0.00137895480797514" flag="0"/>
		</comp>
		<comp name="--.HNZ" depth="0.0">
			<acc value="0.0138004598188425" flag="0"/>
			<vel value="0.00505500963898333" flag="0"/>
			<psa03 value="0.0318564511122095" flag="0"/>
			<psa10 value="0.00331808204281103" flag="0"/>
			<psa30 value="0.0013333177572245" flag="0"/>
		</comp>
	</station>
	<station code="FOCM" name="FOCM" netid="KO" source="Bogazici University Kandilli Observatory And Earthquake Research Institute (KOERI)" insttype="" lat="38.7131" lon="26.7309">
		<comp name="--.HNE" depth="0.0">
			<acc value="0.0278001783773381" flag="0"/>
			<vel value="0.0120919252209683" flag="0"/>
			<psa03 value="0.097135330568268" flag="0"/>
			<psa10 value="0.00801735600392812" flag="0"/>
			<psa30 value="0.000953456423035371" flag="0"/>
		</comp>
		<comp name="--.HNN" depth="0.0">
			<acc value="0.0430727653024023" flag="0"/>
			<vel value="0.0165357195511398" flag="0"/>
			<psa03 value="0.101072644750676" flag="0"/>
			<psa10 value="0.00637844897550082" flag="0"/>
			<psa30 value="0.00109528921801529" flag="0"/>
		</comp>
		<comp name="--.HNZ" depth="0.0">
			<acc value="0.0252280124745459" flag="0"/>
			<vel value="0.00827743167897912" flag="0"/>
			<psa03 value="0.0825941134173297" flag="0"/>
			<psa10 value="0.00396236981811415" flag="0"/>
			<psa30 value="0.000756590713914975" flag="0"/>
		</comp>
	</station>
	<station code="GOMA" name="GOMA" netid="KO" source="Bogazici University Kandilli Observatory And Earthquake Research Institute (KOERI)" insttype="" lat="38.7077" lon="27.9175">
		<comp name="--.HNE" depth="0.0">
			<acc value="0.0195361357815877" flag="0"/>
			<vel value="0.0114802626448236" flag="0"/>
			<psa03 value="0.0558382738596032" flag="0"/>
			<psa10 value="0.00318117089055912" flag="0"/>
			<psa30 value="0.000521694129169049" flag="0"/>
		</comp>
		<comp name="--.HNN" depth="0.0">
			<acc value="0.0103818925816134" flag="0"/>
			<vel value="0.00379845619436412" flag="0"/>
			<psa03 value="0.0303799582938065" flag="0"/>
			<psa10 value="0.00295969696779868" flag="0"/>
			<psa30 value="0.000479636454947873" flag="0"/>
		</comp>
		<comp name="--.HNZ" depth="0.0">
			<acc value="0.00878850501545447" flag="0"/>
			<vel value="0.00400783740389681" flag="0"/>
			<psa03 value="0.0206261572510233" flag="0"/>
			<psa10 value="0.00136911152251912" flag="0"/>
			<psa30 value="0.000736904143002936" flag="0"/>
		</comp>
	</station>
	<station code="NAZL" name="NAZL" netid="KO" source="Bogazici University Kandilli Observatory And Earthquake Research Institute (KOERI)" insttype="" lat="37.9641" lon="28.2922">
		<comp name="--.HNE" depth="0.0">
			<acc value="0.0382928956094014" flag="0"/>
			<vel value="0.0196661076034417" flag="0"/>
			<psa03 value="0.132078993937138" flag="0"/>
			<psa10 value="0.0110173209576832" flag="0"/>
			<psa30 value="0.00150647009683721" flag="0"/>
		</comp>
		<comp name="--.HNN" depth="0.0">
			<acc value="0.0477107245798368" flag="0"/>
			<vel value="0.0252754022367665" flag="0"/>
			<psa03 value="0.116419221620743" flag="0"/>
			<psa10 value="0.0142105722440293" flag="0"/>
			<psa30 value="0.00184248406854043" flag="0"/>
		</comp>
		<comp name="--.HNZ" depth="0.0">
			<acc value="0.013708107047124" flag="0"/>
			<vel value="0.00709269370656902" flag="0"/>
			<psa03 value="0.0489927162470076" flag="0"/>
			<psa10 value="0.00509390022349024" flag="0"/>
			<psa30 value="0.00132839611449649" flag="0"/>
		</comp>
	</station>
	<station code="SOMA" name="SOMA" netid="KO" source="Bogazici University Kandilli Observatory And Earthquake Research Institute (KOERI)" insttype="" lat="39.1564" lon="27.5341">
		<comp name="--.HNE" depth="0.0">
			<acc value="0.0512071342380523" flag="0"/>
			<vel value="0.0207473931427691" flag="0"/>
			<psa03 value="0.179237279712797" flag="0"/>
			<psa10 value="0.0143313762018986" flag="0"/>
			<psa30 value="0.00220802789661171" flag="0"/>
		</comp>
		<comp name="--.HNN" depth="0.0">
			<acc value="0.0761842598018445" flag="0"/>
			<vel value="0.0289602604623765" flag="0"/>
			<psa03 value="0.22782731610024" flag="0"/>
			<psa10 value="0.00918110079806936" flag="0"/>
			<psa30 value="0.00350913126507105" flag="0"/>
		</comp>
		<comp name="--.HNZ" depth="0.0">
			<acc value="0.0329754255089216" flag="0"/>
			<vel value="0.0118105648952201" flag="0"/>
			<psa03 value="0.109842117247857" flag="0"/>
			<psa10 value="0.00789252524746314" flag="0"/>
			<psa30 value="0.00284828887331918" flag="0"/>
		</comp>
	</station>
	<station code="YKAV" name="YKAV" netid="KO" source="Bogazici University Kandilli Observatory And Earthquake Research Institute (KOERI)" insttype="" lat="37.1246" lon="27.2801">
		<comp name="--.HNE" depth="0.0">
			<acc value="0.0170040004275936" flag="0"/>
			<vel value="0.00853806740422091" flag="0"/>
			<psa03 value="0.0558830160662214" flag="0"/>
			<psa10 value="0.0084965450368098" flag="0"/>
			<psa30 value="0.000705584598370145" flag="0"/>
		</comp>
		<comp name="--.HNN" depth="0.0">
			<acc value="0.0156154893843333" flag="0"/>
			<vel value="0.00913804279810212" flag="0"/>
			<psa03 value="0.0544065232478185" flag="0"/>
			<psa10 value="0.0065395209193266" flag="0"/>
			<psa30 value="0.000660394969685691" flag="0"/>
		</comp>
		<comp name="--.HNZ" depth="0.0">
			<acc value="0.00959284759342151" flag="0"/>
			<vel value="0.00675725981292123" flag="0"/>
			<psa03 value="0.0353463432284347" flag="0"/>
			<psa10 value="0.00419592413666152" flag="0"/>
			<psa30 value="0.000665316612413701" flag="0"/>
		</comp>
	</station>
</stationlist>
