<stationlist created="1631873511">
	<station code="KRL1" name="KRL1" netid="HI" source="ITSAK Strong Motion Network" insttype="" lat="37.7951" lon="26.7065">
		<comp name="--.HNE" depth="0.0">
			<acc value="1.820376558" flag="0"/>
			<vel value="0.425079" flag="0"/>
			<psa03 value="1.88051494417" flag="0"/>
			<psa10 value="0.1069517707" flag="0"/>
			<psa30 value="0.0117470663476" flag="0"/>
		</comp>
		<comp name="--.HNN" depth="0.0">
			<acc value="-1.889866098" flag="0"/>
			<vel value="-0.572553" flag="0"/>
			<psa03 value="1.35967091692" flag="0"/>
			<psa10 value="0.109098054352" flag="0"/>
			<psa30 value="0.0133067796703" flag="0"/>
		</comp>
		<comp name="--.HNZ" depth="0.0">
			<acc value="-0.69517335" flag="0"/>
			<vel value="-0.181786" flag="0"/>
			<psa03 value="0.429301472502" flag="0"/>
			<psa10 value="0.037344530176" flag="0"/>
			<psa30 value="0.00624780173218" flag="0"/>
		</comp>
	</station>
</stationlist>
