<stationlist created="1642764335">
	<station code="KRL1" name="KRL1" netid="HI" source="ITSAK Strong Motion Network" insttype="" lat="37.7951" lon="26.7065">
		<comp name=".HNE" depth="0.0">
			<acc value="1.820376558" flag="0"/>
			<vel value="0.425079" flag="0"/>
			<psa03 value="1.88051494417" flag="0"/>
			<psa10 value="0.1069517707" flag="0"/>
			<psa30 value="0.0117470663476" flag="0"/>
		</comp>
		<comp name=".HNN" depth="0.0">
			<acc value="1.889866098" flag="0"/>
			<vel value="0.572553" flag="0"/>
			<psa03 value="1.35967091692" flag="0"/>
			<psa10 value="0.109098054352" flag="0"/>
			<psa30 value="0.0133067796703" flag="0"/>
		</comp>
		<comp name=".HNZ" depth="0.0">
			<acc value="0.69517335" flag="0"/>
			<vel value="0.181786" flag="0"/>
			<psa03 value="0.429301472502" flag="0"/>
			<psa10 value="0.037344530176" flag="0"/>
			<psa30 value="0.00624780173218" flag="0"/>
		</comp>
	</station>
	<station code="MYT1" name="MYT1" netid="HI" source="ITSAK Strong Motion Network" insttype="" lat="39.085" lon="26.5694">
		<comp name=".HNE" depth="0.0">
			<acc value="0.013000512" flag="0"/>
			<vel value="0.006357" flag="0"/>
			<psa03 value="0.0324380997982" flag="0"/>
			<psa10 value="0.00719186229182" flag="0"/>
			<psa30 value="0.00159774419834" flag="0"/>
		</comp>
		<comp name=".HNN" depth="0.0">
			<acc value="0.011251212" flag="0"/>
			<vel value="0.006599" flag="0"/>
			<psa03 value="0.0289929498886" flag="0"/>
			<psa10 value="0.00708716552833" flag="0"/>
			<psa30 value="0.00164024929463" flag="0"/>
		</comp>
		<comp name=".HNZ" depth="0.0">
			<acc value="0.008022096" flag="0"/>
			<vel value="0.005962" flag="0"/>
			<psa03 value="0.0229974942018" flag="0"/>
			<psa10 value="0.0089717072711" flag="0"/>
			<psa30 value="0.000909161638483" flag="0"/>
		</comp>
	</station>
	<station code="NAX1" name="NAX1" netid="HI" source="ITSAK Strong Motion Network" insttype="" lat="37.101394" lon="25.374103">
		<comp name=".HNE" depth="0.0">
			<acc value="0.008642868" flag="0"/>
			<vel value="0.002551" flag="0"/>
			<psa03 value="0.0126173022664" flag="0"/>
			<psa10 value="0.00114361080116" flag="0"/>
			<psa30 value="0.000145412171509" flag="0"/>
		</comp>
		<comp name=".HNN" depth="0.0">
			<acc value="0.00981291" flag="0"/>
			<vel value="0.00215" flag="0"/>
			<psa03 value="0.00765091733172" flag="0"/>
			<psa10 value="0.00147380828601" flag="0"/>
			<psa30 value="0.000363754139807" flag="0"/>
		</comp>
		<comp name=".HNZ" depth="0.0">
			<acc value="0.006369492" flag="0"/>
			<vel value="0.002387" flag="0"/>
			<psa03 value="0.00894844132365" flag="0"/>
			<psa10 value="0.00137313832111" flag="0"/>
			<psa30 value="0.000248319246731" flag="0"/>
		</comp>
	</station>
	<station code="RDI1" name="RDI1" netid="HI" source="ITSAK Strong Motion Network" insttype="" lat="36.4514" lon="28.224">
		<comp name=".HNE" depth="0.0">
			<acc value="0.002269092" flag="0"/>
			<vel value="0.003249" flag="0"/>
			<psa03 value="0.0041610252155" flag="0"/>
			<psa10 value="0.00308452772426" flag="0"/>
			<psa30 value="0.00120893442283" flag="0"/>
		</comp>
		<comp name=".HNN" depth="0.0">
			<acc value="0.002134452" flag="0"/>
			<vel value="0.002767" flag="0"/>
			<psa03 value="0.00680081540598" flag="0"/>
			<psa10 value="0.00341472520911" flag="0"/>
			<psa30 value="0.0017834243558" flag="0"/>
		</comp>
		<comp name=".HNZ" depth="0.0">
			<acc value="0.004403136" flag="0"/>
			<vel value="0.001647" flag="0"/>
			<psa03 value="0.00389257197579" flag="0"/>
			<psa10 value="0.0017556841877" flag="0"/>
			<psa30 value="0.000615205341001" flag="0"/>
		</comp>
	</station>
	<station code="SKY1" name="SKY1" netid="HI" source="ITSAK Strong Motion Network" insttype="" lat="38.904483" lon="24.564572">
		<comp name=".HNE" depth="0.0">
			<acc value="0.000744498" flag="0"/>
			<vel value="0.000665" flag="0"/>
			<psa03 value="0.0019686570912" flag="0"/>
			<psa10 value="0.000873815295255" flag="0"/>
			<psa30 value="0.000212972903503" flag="0"/>
		</comp>
		<comp name=".HNN" depth="0.0">
			<acc value="0.001071408" flag="0"/>
			<vel value="0.000881" flag="0"/>
			<psa03 value="0.00174494605811" flag="0"/>
			<psa10 value="0.00155837105651" flag="0"/>
			<psa30 value="0.000167783274819" flag="0"/>
		</comp>
		<comp name=".HNZ" depth="0.0">
			<acc value="0.001190238" flag="0"/>
			<vel value="0.000417" flag="0"/>
			<psa03 value="0.00102907075222" flag="0"/>
			<psa10 value="0.000503349824456" flag="0"/>
			<psa30 value="0.000146307015642" flag="0"/>
		</comp>
	</station>
	<station code="ASTA" name="ASTA" netid="HL" source="National Observatory of Athens Seismic Network" insttype="" lat="36.54543" lon="26.3528">
		<comp name="00.HNE" depth="0.0">
			<acc value="0.0054417" flag="0"/>
			<vel value="0.002475" flag="0"/>
			<psa03 value="0.0133331775722" flag="0"/>
			<psa10 value="0.00281070541976" flag="0"/>
			<psa30 value="0.000353016010218" flag="0"/>
		</comp>
		<comp name="00.HNN" depth="0.0">
			<acc value="0.003923124" flag="0"/>
			<vel value="0.002039" flag="0"/>
			<psa03 value="0.0107381295884" flag="0"/>
			<psa10 value="0.00169930900736" flag="0"/>
			<psa30 value="0.000475162234286" flag="0"/>
		</comp>
		<comp name="00.HNZ" depth="0.0">
			<acc value="0.003866412" flag="0"/>
			<vel value="0.002602" flag="0"/>
			<psa03 value="0.00863524587733" flag="0"/>
			<psa10 value="0.00206172088097" flag="0"/>
			<psa30 value="0.000524378661566" flag="0"/>
		</comp>
	</station>
	<station code="PRK" name="PRK" netid="HL" source="National Observatory of Athens Seismic Network" insttype="" lat="39.24565" lon="26.26499">
		<comp name=".HNE" depth="0.0">
			<acc value="0.01074723" flag="0"/>
			<vel value="0.008992" flag="0"/>
			<psa03 value="0.0331092328975" flag="0"/>
			<psa10 value="0.0122777089181" flag="0"/>
			<psa30 value="0.000715427883826" flag="0"/>
		</comp>
		<comp name=".HNN" depth="0.0">
			<acc value="0.011312004" flag="0"/>
			<vel value="0.006789" flag="0"/>
			<psa03 value="0.0411180878822" flag="0"/>
			<psa10 value="0.0095233786787" flag="0"/>
			<psa30 value="0.000990145032462" flag="0"/>
		</comp>
		<comp name=".HNZ" depth="0.0">
			<acc value="0.00710124" flag="0"/>
			<vel value="0.004096" flag="0"/>
			<psa03 value="0.0246529558467" flag="0"/>
			<psa10 value="0.00339861801472" flag="0"/>
			<psa30 value="0.000553908517934" flag="0"/>
		</comp>
	</station>
	<station code="RODB" name="RODB" netid="HL" source="National Observatory of Athens Seismic Network" insttype="" lat="36.4471" lon="28.22116">
		<comp name="00.HNE" depth="0.0">
			<acc value="0.00557328" flag="0"/>
			<vel value="0.003192" flag="0"/>
			<psa03 value="0.00738246409201" flag="0"/>
			<psa10 value="0.00236775757424" flag="0"/>
			<psa30 value="0.00148946805832" flag="0"/>
		</comp>
		<comp name="00.HNN" depth="0.0">
			<acc value="0.005470872" flag="0"/>
			<vel value="0.002779" flag="0"/>
			<psa03 value="0.00496638493463" flag="0"/>
			<psa10 value="0.00257312430262" flag="0"/>
			<psa30 value="0.00182369234176" flag="0"/>
		</comp>
		<comp name="00.HNZ" depth="0.0">
			<acc value="0.012321396" flag="0"/>
			<vel value="0.002088" flag="0"/>
			<psa03 value="0.00353463432284" flag="0"/>
			<psa10 value="0.00126844155763" flag="0"/>
			<psa30 value="0.000527510616029" flag="0"/>
		</comp>
	</station>
	<station code="THRA" name="THRA" netid="HL" source="National Observatory of Athens Seismic Network" insttype="" lat="36.41502" lon="25.43244">
		<comp name="00.HNE" depth="0.0">
			<acc value="0.017641512" flag="0"/>
			<vel value="0.008278" flag="0"/>
			<psa03 value="0.0278296525166" flag="0"/>
			<psa10 value="0.0137917851901" flag="0"/>
			<psa30 value="0.00161787819132" flag="0"/>
		</comp>
		<comp name="00.HNN" depth="0.0">
			<acc value="0.013375464" flag="0"/>
			<vel value="0.008364" flag="0"/>
			<psa03 value="0.0226842987555" flag="0"/>
			<psa10 value="0.0177581818068" flag="0"/>
			<psa30 value="0.00162682663264" flag="0"/>
		</comp>
		<comp name="00.HNZ" depth="0.0">
			<acc value="0.015040104" flag="0"/>
			<vel value="0.003548" flag="0"/>
			<psa03 value="0.0169572963083" flag="0"/>
			<psa10 value="0.00376505668693" flag="0"/>
			<psa30 value="0.000384335554851" flag="0"/>
		</comp>
	</station>
	<station code="TNSA" name="TNSA" netid="HL" source="National Observatory of Athens Seismic Network" insttype="" lat="37.53942" lon="25.1631">
		<comp name="00.HNE" depth="0.0">
			<acc value="0.006133362" flag="0"/>
			<vel value="0.001597" flag="0"/>
			<psa03 value="0.00675607319936" flag="0"/>
			<psa10 value="0.00115166439835" flag="0"/>
			<psa30 value="0.000127515288862" flag="0"/>
		</comp>
		<comp name="00.HNN" depth="0.0">
			<acc value="0.006933756" flag="0"/>
			<vel value="0.001924" flag="0"/>
			<psa03 value="0.00680081540598" flag="0"/>
			<psa10 value="0.000994619253124" flag="0"/>
			<psa30 value="0.000161519365892" flag="0"/>
		</comp>
		<comp name="00.HNZ" depth="0.0">
			<acc value="0.006222204" flag="0"/>
			<vel value="0.001156" flag="0"/>
			<psa03 value="0.00420576742212" flag="0"/>
			<psa10 value="0.000825493712107" flag="0"/>
			<psa30 value="0.000177179138208" flag="0"/>
		</comp>
	</station>
	<station code="AKS" name="AKS" netid="KO" source="Bogazici University Kandilli Observatory And Earthquake Research Institute (KOERI)" insttype="" lat="38.8785" lon="27.8129">
		<comp name=".HNE" depth="0.0">
			<acc value="0.00641223" flag="0"/>
			<vel value="0.002827" flag="0"/>
			<psa03 value="0.0237581117143" flag="0"/>
			<psa10 value="0.00206172088097" flag="0"/>
			<psa30 value="0.00068097638473" flag="0"/>
		</comp>
		<comp name=".HNN" depth="0.0">
			<acc value="0.011717556" flag="0"/>
			<vel value="0.005728" flag="0"/>
			<psa03 value="0.0365991250137" flag="0"/>
			<psa10 value="0.00254493671245" flag="0"/>
			<psa30 value="0.000966879085021" flag="0"/>
		</comp>
		<comp name=".HNZ" depth="0.0">
			<acc value="0.003084684" flag="0"/>
			<vel value="0.001726" flag="0"/>
			<psa03 value="0.0106039029685" flag="0"/>
			<psa10 value="0.00111945000959" flag="0"/>
			<psa30 value="0.000576279621243" flag="0"/>
		</comp>
	</station>
	<station code="DATC" name="DATC" netid="KO" source="Bogazici University Kandilli Observatory And Earthquake Research Institute (KOERI)" insttype="" lat="36.7584" lon="27.6602">
		<comp name=".HNE" depth="0.0">
			<acc value="0.050855466" flag="0"/>
			<vel value="0.017246" flag="0"/>
			<psa03 value="0.107515522504" flag="0"/>
			<psa10 value="0.0201621805684" flag="0"/>
			<psa30 value="0.00540843793602" flag="0"/>
		</comp>
		<comp name=".HNN" depth="0.0">
			<acc value="0.061702452" flag="0"/>
			<vel value="0.035309" flag="0"/>
			<psa03 value="0.228990613472" flag="0"/>
			<psa10 value="0.0229487251966" flag="0"/>
			<psa30 value="0.00664198057248" flag="0"/>
		</comp>
		<comp name=".HNZ" depth="0.0">
			<acc value="0.116560296" flag="0"/>
			<vel value="0.018669" flag="0"/>
			<psa03 value="0.0543170388346" flag="0"/>
			<psa10 value="0.0129823986724" flag="0"/>
			<psa30 value="0.00254135733592" flag="0"/>
		</comp>
	</station>
	<station code="EZNE" name="EZNE" netid="KO" source="Bogazici University Kandilli Observatory And Earthquake Research Institute (KOERI)" insttype="" lat="39.756" lon="26.3655">
		<comp name=".HNE" depth="0.0">
			<acc value="0.01521789" flag="0"/>
			<vel value="0.007817" flag="0"/>
			<psa03 value="0.0502454980323" flag="0"/>
			<psa10 value="0.00806165078848" flag="0"/>
			<psa30 value="0.0015069175189" flag="0"/>
		</comp>
		<comp name=".HNN" depth="0.0">
			<acc value="0.02553417" flag="0"/>
			<vel value="0.00812" flag="0"/>
			<psa03 value="0.0429077761469" flag="0"/>
			<psa10 value="0.00733280024267" flag="0"/>
			<psa30 value="0.00137895480798" flag="0"/>
		</comp>
		<comp name=".HNZ" depth="0.0">
			<acc value="0.013364652" flag="0"/>
			<vel value="0.005263" flag="0"/>
			<psa03 value="0.0318564511122" flag="0"/>
			<psa10 value="0.00331808204281" flag="0"/>
			<psa30 value="0.00133331775722" flag="0"/>
		</comp>
	</station>
	<station code="FOCM" name="FOCM" netid="KO" source="Bogazici University Kandilli Observatory And Earthquake Research Institute (KOERI)" insttype="" lat="38.7131" lon="26.7309">
		<comp name=".HNE" depth="0.0">
			<acc value="0.02768076" flag="0"/>
			<vel value="0.012039" flag="0"/>
			<psa03 value="0.0971353305683" flag="0"/>
			<psa10 value="0.00801735600393" flag="0"/>
			<psa30 value="0.000953456423035" flag="0"/>
		</comp>
		<comp name=".HNN" depth="0.0">
			<acc value="0.042740448" flag="0"/>
			<vel value="0.01654" flag="0"/>
			<psa03 value="0.101072644751" flag="0"/>
			<psa10 value="0.0063784489755" flag="0"/>
			<psa30 value="0.00109528921802" flag="0"/>
		</comp>
		<comp name=".HNZ" depth="0.0">
			<acc value="0.025244286" flag="0"/>
			<vel value="0.008246" flag="0"/>
			<psa03 value="0.0825941134173" flag="0"/>
			<psa10 value="0.00396236981811" flag="0"/>
			<psa30 value="0.000756590713915" flag="0"/>
		</comp>
	</station>
	<station code="GOMA" name="GOMA" netid="KO" source="Bogazici University Kandilli Observatory And Earthquake Research Institute (KOERI)" insttype="" lat="38.7077" lon="27.9175">
		<comp name=".HNE" depth="0.0">
			<acc value="0.019723944" flag="0"/>
			<vel value="0.01155" flag="0"/>
			<psa03 value="0.0558382738596" flag="0"/>
			<psa10 value="0.00318117089056" flag="0"/>
			<psa30 value="0.000521694129169" flag="0"/>
		</comp>
		<comp name=".HNN" depth="0.0">
			<acc value="0.011599746" flag="0"/>
			<vel value="0.003745" flag="0"/>
			<psa03 value="0.0303799582938" flag="0"/>
			<psa10 value="0.0029596969678" flag="0"/>
			<psa30 value="0.000479636454948" flag="0"/>
		</comp>
		<comp name=".HNZ" depth="0.0">
			<acc value="0.009243138" flag="0"/>
			<vel value="0.004162" flag="0"/>
			<psa03 value="0.020626157251" flag="0"/>
			<psa10 value="0.00136911152252" flag="0"/>
			<psa30 value="0.000736904143003" flag="0"/>
		</comp>
	</station>
	<station code="NAZL" name="NAZL" netid="KO" source="Bogazici University Kandilli Observatory And Earthquake Research Institute (KOERI)" insttype="" lat="37.9641" lon="28.2922">
		<comp name=".HNE" depth="0.0">
			<acc value="0.038166972" flag="0"/>
			<vel value="0.020191" flag="0"/>
			<psa03 value="0.132078993937" flag="0"/>
			<psa10 value="0.0110173209577" flag="0"/>
			<psa30 value="0.00150647009684" flag="0"/>
		</comp>
		<comp name=".HNN" depth="0.0">
			<acc value="0.047658582" flag="0"/>
			<vel value="0.025099" flag="0"/>
			<psa03 value="0.116419221621" flag="0"/>
			<psa10 value="0.014210572244" flag="0"/>
			<psa30 value="0.00184248406854" flag="0"/>
		</comp>
		<comp name=".HNZ" depth="0.0">
			<acc value="0.014750832" flag="0"/>
			<vel value="0.007344" flag="0"/>
			<psa03 value="0.048992716247" flag="0"/>
			<psa10 value="0.00509390022349" flag="0"/>
			<psa30 value="0.0013283961145" flag="0"/>
		</comp>
	</station>
	<station code="SOMA" name="SOMA" netid="KO" source="Bogazici University Kandilli Observatory And Earthquake Research Institute (KOERI)" insttype="" lat="39.1564" lon="27.5341">
		<comp name=".HNE" depth="0.0">
			<acc value="0.050754996" flag="0"/>
			<vel value="0.02541" flag="0"/>
			<psa03 value="0.179237279713" flag="0"/>
			<psa10 value="0.0143313762019" flag="0"/>
			<psa30 value="0.00220802789661" flag="0"/>
		</comp>
		<comp name=".HNN" depth="0.0">
			<acc value="0.076894434" flag="0"/>
			<vel value="0.029113" flag="0"/>
			<psa03 value="0.2278273161" flag="0"/>
			<psa10 value="0.00918110079807" flag="0"/>
			<psa30 value="0.00350913126507" flag="0"/>
		</comp>
		<comp name=".HNZ" depth="0.0">
			<acc value="0.03330606" flag="0"/>
			<vel value="0.012922" flag="0"/>
			<psa03 value="0.109842117248" flag="0"/>
			<psa10 value="0.00789252524746" flag="0"/>
			<psa30 value="0.00284828887332" flag="0"/>
		</comp>
	</station>
	<station code="YKAV" name="YKAV" netid="KO" source="Bogazici University Kandilli Observatory And Earthquake Research Institute (KOERI)" insttype="" lat="37.1246" lon="27.2801">
		<comp name=".HNE" depth="0.0">
			<acc value="0.016927104" flag="0"/>
			<vel value="0.0086" flag="0"/>
			<psa03 value="0.0558830160662" flag="0"/>
			<psa10 value="0.00849654503681" flag="0"/>
			<psa30 value="0.00070558459837" flag="0"/>
		</comp>
		<comp name=".HNN" depth="0.0">
			<acc value="0.01570698" flag="0"/>
			<vel value="0.009138" flag="0"/>
			<psa03 value="0.0544065232478" flag="0"/>
			<psa10 value="0.00653952091933" flag="0"/>
			<psa30 value="0.000660394969686" flag="0"/>
		</comp>
		<comp name=".HNZ" depth="0.0">
			<acc value="0.00968745" flag="0"/>
			<vel value="0.006729" flag="0"/>
			<psa03 value="0.0353463432284" flag="0"/>
			<psa10 value="0.00419592413666" flag="0"/>
			<psa30 value="0.000665316612414" flag="0"/>
		</comp>
	</station>
</stationlist>
