<?xml version="1.0" encoding="UTF-8" standalone="yes"?>
<!DOCTYPE earthquake SYSTEM "stationlist.dtd">
<stationlist created="" xmlns="ch.ethz.sed.shakemap.usgs.xml">
  <station code="ZKR" name="ZKR" netid="GE" insttype="STS-2/N" lat="35.1147" lon="26.2169">
    <comp name="--.HHZ">
      <acc value="0.0277818967" flag="0"/>
      <vel value="0.0148742019" flag="0"/>
      <psa03 value="0.0790536757" flag="0"/>
      <psa10 value="0.0118501094" flag="0"/>
      <psa30 value="0.0009848633" flag="0"/>
    </comp>
    <comp name="--.HHE">
      <acc value="0.0337686394" flag="0"/>
      <vel value="0.0211283569" flag="0"/>
      <psa03 value="0.1268715204" flag="0"/>
      <psa10 value="0.0182662242" flag="0"/>
      <psa30 value="0.0019559290" flag="0"/>
    </comp>
    <comp name="--.HHN">
      <acc value="0.0212053494" flag="0"/>
      <vel value="0.0124870436" flag="0"/>
      <psa03 value="0.0572745434" flag="0"/>
      <psa10 value="0.0122115130" flag="0"/>
      <psa30 value="0.0008889764" flag="0"/>
    </comp>
  </station>
  <station code="PFKS" name="PFKS" netid="HC" insttype="120" lat="35.0429" lon="25.4733">
    <comp name="--.HHE">
      <acc value="0.0210791353" flag="0"/>
      <vel value="0.0118732248" flag="0"/>
      <psa03 value="0.0749610549" flag="0"/>
      <psa10 value="0.0122945024" flag="0"/>
      <psa30 value="0.0006624655" flag="0"/>
    </comp>
    <comp name="--.HHN">
      <acc value="0.0228641165" flag="0"/>
      <vel value="0.0130854814" flag="0"/>
      <psa03 value="0.0748422406" flag="0"/>
      <psa10 value="0.0101019255" flag="0"/>
      <psa30 value="0.0008649694" flag="0"/>
    </comp>
    <comp name="--.HHZ">
      <acc value="0.0103426684" flag="0"/>
      <vel value="0.0065897178" flag="0"/>
      <psa03 value="0.0458223264" flag="0"/>
      <psa10 value="0.0061935837" flag="0"/>
      <psa30 value="0.0005240889" flag="0"/>
    </comp>
  </station>
  <station code="STIA" name="STIA" netid="HC" insttype="120" lat="35.2021" lon="26.0909">
    <comp name="--.HHN">
      <acc value="0.0000000000" flag="0"/>
      <vel value="-100.0000000000" flag="0"/>
      <psa03 value="0.0000000000" flag="0"/>
      <psa10 value="0.0000000000" flag="0"/>
      <psa30 value="0.0000000000" flag="0"/>
    </comp>
    <comp name="--.HHE">
      <acc value="0.0297482802" flag="0"/>
      <vel value="0.0244228856" flag="0"/>
      <psa03 value="0.0925897718" flag="0"/>
      <psa10 value="0.0401873020" flag="0"/>
      <psa30 value="0.0026265056" flag="0"/>
    </comp>
    <comp name="--.HHZ">
      <acc value="0.0276578456" flag="0"/>
      <vel value="0.0158980741" flag="0"/>
      <psa03 value="0.0652358113" flag="0"/>
      <psa10 value="0.0135251769" flag="0"/>
      <psa30 value="0.0010423123" flag="0"/>
    </comp>
  </station>
  <station code="ZKR" name="ZKR" netid="HL" insttype="120" lat="35.1147" lon="26.2169">
    <comp name="--.HHZ">
      <acc value="0.0272399308" flag="0"/>
      <vel value="0.0146745588" flag="0"/>
      <psa03 value="0.0770437253" flag="0"/>
      <psa10 value="0.0117411934" flag="0"/>
      <psa30 value="0.0009792674" flag="0"/>
    </comp>
    <comp name="--.HHN">
      <acc value="0.0206893453" flag="0"/>
      <vel value="0.0122477354" flag="0"/>
      <psa03 value="0.0557413538" flag="0"/>
      <psa10 value="0.0120899985" flag="0"/>
      <psa30 value="0.0008823447" flag="0"/>
    </comp>
    <comp name="--.HHE">
      <acc value="0.0327914425" flag="0"/>
      <vel value="0.0207187431" flag="0"/>
      <psa03 value="0.1234355766" flag="0"/>
      <psa10 value="0.0180487695" flag="0"/>
      <psa30 value="0.0019460235" flag="0"/>
    </comp>
  </station>
</stationlist>
