<?xml version="1.0" encoding="UTF-8" standalone="yes"?>
<!DOCTYPE earthquake SYSTEM "stationlist.dtd">
<stationlist created="" xmlns="ch.ethz.sed.shakemap.usgs.xml">
  <station code="ZKR" name="ZKR" netid="GE" insttype="STS-2/N" lat="35.1147" lon="26.2169">
    <comp name="--.HHN">
      <acc value="0.0212053499" flag="0"/>
      <vel value="0.0124870435" flag="0"/>
      <psa03 value="0.0572745434" flag="0"/>
      <psa10 value="0.0122115130" flag="0"/>
      <psa30 value="0.0008889502" flag="0"/>
    </comp>
    <comp name="--.HHE">
      <acc value="0.0337686391" flag="0"/>
      <vel value="0.0211283568" flag="0"/>
      <psa03 value="0.1268715204" flag="0"/>
      <psa10 value="0.0182662245" flag="0"/>
      <psa30 value="0.0019558485" flag="0"/>
    </comp>
  </station>
  <station code="KNSS" name="KNSS" netid="HC" insttype="60" lat="35.3042" lon="25.1802">
    <comp name="--.HHN">
      <acc value="0.0061489767" flag="0"/>
      <vel value="0.0037513953" flag="0"/>
      <psa03 value="0.0258298901" flag="0"/>
      <psa10 value="0.0069640549" flag="0"/>
      <psa30 value="0.0004822069" flag="0"/>
    </comp>
    <comp name="--.HHE">
      <acc value="0.0068290480" flag="0"/>
      <vel value="0.0046043940" flag="0"/>
      <psa03 value="0.0257787989" flag="0"/>
      <psa10 value="0.0059771194" flag="0"/>
      <psa30 value="0.0005300646" flag="0"/>
    </comp>
    <comp name="--.HHZ">
      <acc value="0.0058151725" flag="0"/>
      <vel value="0.0035352128" flag="0"/>
      <psa03 value="0.0164224110" flag="0"/>
      <psa10 value="0.0034068936" flag="0"/>
      <psa30 value="0.0003335925" flag="0"/>
    </comp>
  </station>
  <station code="PFKS" name="PFKS" netid="HC" insttype="120" lat="35.0429" lon="25.4733">
    <comp name="--.HHE">
      <acc value="0.0210791353" flag="0"/>
      <vel value="0.0118732246" flag="0"/>
      <psa03 value="0.0749610549" flag="0"/>
      <psa10 value="0.0122945025" flag="0"/>
      <psa30 value="0.0006624073" flag="0"/>
    </comp>
    <comp name="--.HHN">
      <acc value="0.0228641162" flag="0"/>
      <vel value="0.0130854812" flag="0"/>
      <psa03 value="0.0748422406" flag="0"/>
      <psa10 value="0.0101019255" flag="0"/>
      <psa30 value="0.0008649465" flag="0"/>
    </comp>
    <comp name="--.HHZ">
      <acc value="0.0103426685" flag="0"/>
      <vel value="0.0065897184" flag="0"/>
      <psa03 value="0.0458223264" flag="0"/>
      <psa10 value="0.0061935837" flag="0"/>
      <psa30 value="0.0005240795" flag="0"/>
    </comp>
  </station>
  <station code="STIA" name="STIA" netid="HC" insttype="120" lat="35.2021" lon="26.0909">
    <comp name="--.HHN">
      <acc value="0.0000000000" flag="0"/>
      <vel value="-100.0000000000" flag="0"/>
      <psa03 value="0.0000000000" flag="0"/>
      <psa10 value="0.0000000000" flag="0"/>
      <psa30 value="0.0000000000" flag="0"/>
    </comp>
    <comp name="--.HHE">
      <acc value="0.0297482801" flag="0"/>
      <vel value="0.0244228859" flag="0"/>
      <psa03 value="0.0925897718" flag="0"/>
      <psa10 value="0.0401873018" flag="0"/>
      <psa30 value="0.0026264505" flag="0"/>
    </comp>
    <comp name="--.HHZ">
      <acc value="0.0276578452" flag="0"/>
      <vel value="0.0158980741" flag="0"/>
      <psa03 value="0.0652358113" flag="0"/>
      <psa10 value="0.0135251768" flag="0"/>
      <psa30 value="0.0010423400" flag="0"/>
    </comp>
  </station>
  <station code="ZKR" name="ZKR" netid="HL" insttype="120" lat="35.1147" lon="26.2169">
    <comp name="--.HHE">
      <acc value="0.0327914422" flag="0"/>
      <vel value="0.0207187429" flag="0"/>
      <psa03 value="0.1234355766" flag="0"/>
      <psa10 value="0.0180487698" flag="0"/>
      <psa30 value="0.0019459427" flag="0"/>
    </comp>
    <comp name="--.HHZ">
      <acc value="0.0272399311" flag="0"/>
      <vel value="0.0146745588" flag="0"/>
      <psa03 value="0.0770437253" flag="0"/>
      <psa10 value="0.0117411932" flag="0"/>
      <psa30 value="0.0009791703" flag="0"/>
    </comp>
    <comp name="--.HHN">
      <acc value="0.0206893460" flag="0"/>
      <vel value="0.0122477353" flag="0"/>
      <psa03 value="0.0557413538" flag="0"/>
      <psa10 value="0.0120899985" flag="0"/>
      <psa30 value="0.0008823187" flag="0"/>
    </comp>
  </station>
</stationlist>
