<?xml version="1.0" encoding="UTF-8" standalone="yes"?>
<!DOCTYPE earthquake SYSTEM "stationlist.dtd">
<stationlist created="" xmlns="ch.ethz.sed.shakemap.usgs.xml">
  <station code="APE" name="APE" netid="GE" insttype="STS-2/N" lat="37.0727" lon="25.523">
    <comp name="--.HHZ">
      <acc value="0.1465251124" flag="0"/>
      <vel value="0.0208030759" flag="0"/>
      <psa03 value="0.1132535029" flag="0"/>
      <psa10 value="0.0213224531" flag="0"/>
      <psa30 value="0.0065441389" flag="0"/>
    </comp>
    <comp name="--.HHE">
      <acc value="0.2090088831" flag="0"/>
      <vel value="0.0411938892" flag="0"/>
      <psa03 value="0.2074111044" flag="0"/>
      <psa10 value="0.0279186278" flag="0"/>
      <psa30 value="0.0058451015" flag="0"/>
    </comp>
    <comp name="--.HHN">
      <acc value="0.2723614180" flag="0"/>
      <vel value="0.0456786205" flag="0"/>
      <psa03 value="0.1729095717" flag="0"/>
      <psa10 value="0.0275446712" flag="0"/>
      <psa30 value="0.0061714989" flag="0"/>
    </comp>
  </station>
  <station code="THERA" name="THERA" netid="GE" insttype="STS-2/N" lat="36.367" lon="25.4753">
    <comp name="--.HHE">
      <acc value="0.1574848590" flag="0"/>
      <vel value="0.0463750719" flag="0"/>
      <psa03 value="0.3393934759" flag="0"/>
      <psa10 value="0.0151748947" flag="0"/>
      <psa30 value="0.0036536129" flag="0"/>
    </comp>
    <comp name="--.HHN">
      <acc value="0.1172434672" flag="0"/>
      <vel value="0.0311557982" flag="0"/>
      <psa03 value="0.1915462155" flag="0"/>
      <psa10 value="0.0071124643" flag="0"/>
      <psa30 value="0.0015417742" flag="0"/>
    </comp>
    <comp name="--.HHZ">
      <acc value="0.1287477585" flag="0"/>
      <vel value="0.0288851524" flag="0"/>
      <psa03 value="0.1297069894" flag="0"/>
      <psa10 value="0.0091846403" flag="0"/>
      <psa30 value="0.0025985574" flag="0"/>
    </comp>
  </station>
  <station code="SERI" name="SERI" netid="HA" insttype="30" lat="37.1609" lon="24.4853">
    <comp name="--.HHE">
      <acc value="0.0417200966" flag="0"/>
      <vel value="0.0102034592" flag="0"/>
      <psa03 value="0.0572939966" flag="0"/>
      <psa10 value="0.0052961774" flag="0"/>
      <psa30 value="0.0011635081" flag="0"/>
    </comp>
    <comp name="--.HHZ">
      <acc value="0.0479898225" flag="0"/>
      <vel value="0.0102436031" flag="0"/>
      <psa03 value="0.0424731002" flag="0"/>
      <psa10 value="0.0050390040" flag="0"/>
      <psa30 value="0.0015539903" flag="0"/>
    </comp>
    <comp name="--.HHN">
      <acc value="0.0643842617" flag="0"/>
      <vel value="0.0161328888" flag="0"/>
      <psa03 value="0.0785855761" flag="0"/>
      <psa10 value="0.0073753959" flag="0"/>
      <psa30 value="0.0015440407" flag="0"/>
    </comp>
  </station>
  <station code="SNT1" name="SNT1" netid="HA" insttype="30" lat="36.4159" lon="25.4282">
    <comp name="--.HHN">
      <acc value="0.1184954292" flag="0"/>
      <vel value="0.0470991882" flag="0"/>
      <psa03 value="0.2246712412" flag="0"/>
      <psa10 value="0.0263302430" flag="0"/>
      <psa30 value="0.0073196258" flag="0"/>
    </comp>
    <comp name="--.HHZ">
      <acc value="0.0822920820" flag="0"/>
      <vel value="0.0253964605" flag="0"/>
      <psa03 value="0.1635632730" flag="0"/>
      <psa10 value="0.0150429047" flag="0"/>
      <psa30 value="0.0035284601" flag="0"/>
    </comp>
    <comp name="--.HHE">
      <acc value="0.1017295605" flag="0"/>
      <vel value="0.0323994865" flag="0"/>
      <psa03 value="0.1621858236" flag="0"/>
      <psa10 value="0.0192507051" flag="0"/>
      <psa30 value="0.0053033210" flag="0"/>
    </comp>
  </station>
  <station code="NAX1" name="NAX1" netid="HI" insttype="CMG-5TD,ACCELEROMETER,GURALP" lat="37.1014" lon="25.3741">
    <comp name="--.HNN">
      <acc value="0.2002786896" flag="0"/>
      <vel value="0.0482434781" flag="0"/>
      <psa03 value="0.1752419673" flag="0"/>
      <psa10 value="0.0187891979" flag="0"/>
      <psa30 value="0.0038887753" flag="0"/>
    </comp>
    <comp name="--.HNE">
      <acc value="0.2099069790" flag="0"/>
      <vel value="0.0696567701" flag="0"/>
      <psa03 value="0.2010059848" flag="0"/>
      <psa10 value="0.0283714070" flag="0"/>
      <psa30 value="0.0031846714" flag="0"/>
    </comp>
    <comp name="--.HNZ">
      <acc value="0.1120164154" flag="0"/>
      <vel value="0.0263852836" flag="0"/>
      <psa03 value="0.1285520352" flag="0"/>
      <psa10 value="0.0204444480" flag="0"/>
      <psa30 value="0.0049262544" flag="0"/>
    </comp>
  </station>
  <station code="SFR2" name="SFR2" netid="HI" insttype="unknown" lat="36.3998" lon="25.4382">
    <comp name="--.HNE">
      <acc value="0.3265169819" flag="0"/>
      <vel value="0.0848617538" flag="0"/>
      <psa03 value="0.3878747077" flag="0"/>
      <psa10 value="0.0497235898" flag="0"/>
      <psa30 value="0.0055486459" flag="0"/>
    </comp>
    <comp name="--.HNN">
      <acc value="0.3163609568" flag="0"/>
      <vel value="0.1077020441" flag="0"/>
      <psa03 value="0.5914151362" flag="0"/>
      <psa10 value="0.0432337717" flag="0"/>
      <psa30 value="0.0077029271" flag="0"/>
    </comp>
    <comp name="--.HNZ">
      <acc value="0.4196200371" flag="0"/>
      <vel value="0.0925414764" flag="0"/>
      <psa03 value="0.4361504631" flag="0"/>
      <psa10 value="0.0286583088" flag="0"/>
      <psa30 value="0.0038916280" flag="0"/>
    </comp>
  </station>
  <station code="AMGA" name="AMGA" netid="HL" insttype="SMART24" lat="36.8316" lon="25.8938">
    <comp name="--.HHE">
      <acc value="1.4501328308" flag="0"/>
      <vel value="0.2038944037" flag="0"/>
      <psa03 value="0.5767252974" flag="0"/>
      <psa10 value="0.0845825536" flag="0"/>
      <psa30 value="0.0080115912" flag="0"/>
    </comp>
    <comp name="--.HHN">
      <acc value="1.0374897825" flag="0"/>
      <vel value="0.2580935940" flag="0"/>
      <psa03 value="0.9930677754" flag="0"/>
      <psa10 value="0.0650783220" flag="0"/>
      <psa30 value="0.0137952366" flag="0"/>
    </comp>
    <comp name="--.HHZ">
      <acc value="0.8379745476" flag="0"/>
      <vel value="0.2209691181" flag="0"/>
      <psa03 value="0.7767572902" flag="0"/>
      <psa10 value="0.0620842606" flag="0"/>
      <psa30 value="0.0107024761" flag="0"/>
    </comp>
  </station>
  <station code="APE" name="APE" netid="HL" insttype="120" lat="37.0727" lon="25.523">
    <comp name="--.HHE">
      <acc value="0.1845970254" flag="0"/>
      <vel value="0.0390863503" flag="0"/>
      <psa03 value="0.2016077748" flag="0"/>
      <psa10 value="0.0276379429" flag="0"/>
      <psa30 value="0.0058324485" flag="0"/>
    </comp>
    <comp name="--.HHN">
      <acc value="0.2585864675" flag="0"/>
      <vel value="0.0425517030" flag="0"/>
      <psa03 value="0.1692808860" flag="0"/>
      <psa10 value="0.0272511870" flag="0"/>
      <psa30 value="0.0061574642" flag="0"/>
    </comp>
    <comp name="--.HHZ">
      <acc value="0.1198517856" flag="0"/>
      <vel value="0.0200670416" flag="0"/>
      <psa03 value="0.1097950101" flag="0"/>
      <psa10 value="0.0212359311" flag="0"/>
      <psa30 value="0.0065309413" flag="0"/>
    </comp>
  </station>
  <station code="MHLO" name="MHLO" netid="HL" insttype="20" lat="36.6898" lon="24.4017">
    <comp name="--.HHN">
      <acc value="0.1444590571" flag="0"/>
      <vel value="0.0606217415" flag="0"/>
      <psa03 value="0.4457570086" flag="0"/>
      <psa10 value="0.0447567488" flag="0"/>
      <psa30 value="0.0038001961" flag="0"/>
    </comp>
    <comp name="--.HHE">
      <acc value="0.2005926700" flag="0"/>
      <vel value="0.0576366153" flag="0"/>
      <psa03 value="0.3992598323" flag="0"/>
      <psa10 value="0.0484506540" flag="0"/>
      <psa30 value="0.0051914634" flag="0"/>
    </comp>
    <comp name="--.HHZ">
      <acc value="0.0502706564" flag="0"/>
      <vel value="0.0263272087" flag="0"/>
      <psa03 value="0.1340090069" flag="0"/>
      <psa10 value="0.0311272414" flag="0"/>
      <psa30 value="0.0033509267" flag="0"/>
    </comp>
  </station>
  <station code="MILA" name="MILA" netid="HL" insttype="CMG-5" lat="36.7429" lon="24.4282">
    <comp name="00.HNN">
      <acc value="0.2003140466" flag="0"/>
      <vel value="0.0824763438" flag="0"/>
      <psa03 value="0.6934329598" flag="0"/>
      <psa10 value="0.0344596041" flag="0"/>
      <psa30 value="0.0032628609" flag="0"/>
    </comp>
    <comp name="00.HNZ">
      <acc value="0.1557868130" flag="0"/>
      <vel value="0.0546617650" flag="0"/>
      <psa03 value="0.2487997395" flag="0"/>
      <psa10 value="0.0248004140" flag="0"/>
      <psa30 value="0.0025700806" flag="0"/>
    </comp>
    <comp name="00.HNE">
      <acc value="0.1511170470" flag="0"/>
      <vel value="0.0536726694" flag="0"/>
      <psa03 value="0.2549013246" flag="0"/>
      <psa10 value="0.0296249354" flag="0"/>
      <psa30 value="0.0040722588" flag="0"/>
    </comp>
  </station>
  <station code="SANT" name="SANT" netid="HL" insttype="30" lat="36.3705" lon="25.4593">
    <comp name="--.HHZ">
      <acc value="0.3404953461" flag="0"/>
      <vel value="0.0566711599" flag="0"/>
      <psa03 value="0.1900075146" flag="0"/>
      <psa10 value="0.0130017937" flag="0"/>
      <psa30 value="0.0020538921" flag="0"/>
    </comp>
    <comp name="--.HHE">
      <acc value="0.4585447637" flag="0"/>
      <vel value="0.1076693896" flag="0"/>
      <psa03 value="0.4621307962" flag="0"/>
      <psa10 value="0.0219849731" flag="0"/>
      <psa30 value="0.0038222974" flag="0"/>
    </comp>
    <comp name="--.HHN">
      <acc value="0.4452155680" flag="0"/>
      <vel value="0.0601154501" flag="0"/>
      <psa03 value="0.2414284071" flag="0"/>
      <psa10 value="0.0160240347" flag="0"/>
      <psa30 value="0.0030128821" flag="0"/>
    </comp>
  </station>
  <station code="SAP3" name="SAP3" netid="HL" insttype="65535" lat="36.4356" lon="25.3454">
    <comp name="--.HHE">
      <acc value="0.1953932923" flag="0"/>
      <vel value="0.0717727654" flag="0"/>
      <psa03 value="0.3517376664" flag="0"/>
      <psa10 value="0.0297057768" flag="0"/>
      <psa30 value="0.0102037560" flag="0"/>
    </comp>
    <comp name="--.HHN">
      <acc value="0.1786637858" flag="0"/>
      <vel value="0.0565288529" flag="0"/>
      <psa03 value="0.4342468954" flag="0"/>
      <psa10 value="0.0212563808" flag="0"/>
      <psa30 value="0.0079947956" flag="0"/>
    </comp>
    <comp name="--.HHZ">
      <acc value="0.2035169986" flag="0"/>
      <vel value="0.0612599213" flag="0"/>
      <psa03 value="0.3193949050" flag="0"/>
      <psa10 value="0.0139467061" flag="0"/>
      <psa30 value="0.0044978064" flag="0"/>
    </comp>
  </station>
  <station code="THERA" name="THERA" netid="HL" insttype="120" lat="36.367" lon="25.4753">
    <comp name="--.HHN">
      <acc value="0.2282065039" flag="0"/>
      <vel value="0.0603944207" flag="0"/>
      <psa03 value="0.3707698511" flag="0"/>
      <psa10 value="0.0141098625" flag="0"/>
      <psa30 value="0.0030772978" flag="0"/>
    </comp>
    <comp name="--.HHE">
      <acc value="0.1581568709" flag="0"/>
      <vel value="0.0450246210" flag="0"/>
      <psa03 value="0.3289099857" flag="0"/>
      <psa10 value="0.0150539757" flag="0"/>
      <psa30 value="0.0036526651" flag="0"/>
    </comp>
    <comp name="--.HHZ">
      <acc value="0.1279457208" flag="0"/>
      <vel value="0.0279691909" flag="0"/>
      <psa03 value="0.1263651397" flag="0"/>
      <psa10 value="0.0091520025" flag="0"/>
      <psa30 value="0.0025930183" flag="0"/>
    </comp>
  </station>
  <station code="THRA" name="THRA" netid="HL" insttype="CMG-5" lat="36.415" lon="25.4324">
    <comp name="00.HNN">
      <acc value="0.3790720864" flag="0"/>
      <vel value="0.1305960673" flag="0"/>
      <psa03 value="0.7856410778" flag="0"/>
      <psa10 value="0.0947654984" flag="0"/>
      <psa30 value="0.0113665068" flag="0"/>
    </comp>
    <comp name="00.HNE">
      <acc value="0.6162711326" flag="0"/>
      <vel value="0.1368773787" flag="0"/>
      <psa03 value="1.1482311639" flag="0"/>
      <psa10 value="0.0643356335" flag="0"/>
      <psa30 value="0.0094549053" flag="0"/>
    </comp>
    <comp name="00.HNZ">
      <acc value="0.3572068726" flag="0"/>
      <vel value="0.1047201419" flag="0"/>
      <psa03 value="0.5924475421" flag="0"/>
      <psa10 value="0.0365296070" flag="0"/>
      <psa30 value="0.0054988466" flag="0"/>
    </comp>
  </station>
  <station code="TNSA" name="TNSA" netid="HL" insttype="CMG-5" lat="37.5394" lon="25.1631">
    <comp name="00.HNZ">
      <acc value="0.0520701068" flag="0"/>
      <vel value="0.0281526521" flag="0"/>
      <psa03 value="0.0707205618" flag="0"/>
      <psa10 value="0.0129920603" flag="0"/>
      <psa30 value="0.0028023073" flag="0"/>
    </comp>
    <comp name="00.HNN">
      <acc value="0.0688704498" flag="0"/>
      <vel value="0.0215939102" flag="0"/>
      <psa03 value="0.1196734459" flag="0"/>
      <psa10 value="0.0226221418" flag="0"/>
      <psa30 value="0.0025023422" flag="0"/>
    </comp>
    <comp name="00.HNE">
      <acc value="0.0754205020" flag="0"/>
      <vel value="0.0206010524" flag="0"/>
      <psa03 value="0.1156714121" flag="0"/>
      <psa10 value="0.0103772323" flag="0"/>
      <psa30 value="0.0015875845" flag="0"/>
    </comp>
  </station>
  <station code="AKRO" name="AKRO" netid="HT" insttype="Compact," lat="36.3584" lon="25.3967">
    <comp name="--.HHE">
      <acc value="0.7003749554" flag="0"/>
      <vel value="0.1654773217" flag="0"/>
      <psa03 value="0.8215914108" flag="0"/>
      <psa10 value="0.0574325491" flag="0"/>
      <psa30 value="0.0040948448" flag="0"/>
    </comp>
    <comp name="--.HHN">
      <acc value="0.4466529759" flag="0"/>
      <vel value="0.0988892164" flag="0"/>
      <psa03 value="0.5619021542" flag="0"/>
      <psa10 value="0.0334834040" flag="0"/>
      <psa30 value="0.0048389807" flag="0"/>
    </comp>
    <comp name="--.HHZ">
      <acc value="0.3352805281" flag="0"/>
      <vel value="0.0816303593" flag="0"/>
      <psa03 value="0.3469229185" flag="0"/>
      <psa10 value="0.0173387589" flag="0"/>
      <psa30 value="0.0026650555" flag="0"/>
    </comp>
  </station>
  <station code="CMBO" name="CMBO" netid="HT" insttype="120P," lat="36.4709" lon="25.4056">
    <comp name="--.HHE">
      <acc value="0.1985787786" flag="0"/>
      <vel value="0.0869800864" flag="0"/>
      <psa03 value="0.4435989344" flag="0"/>
      <psa10 value="0.0393548812" flag="0"/>
      <psa30 value="0.0054287564" flag="0"/>
    </comp>
    <comp name="--.HHN">
      <acc value="0.3974315216" flag="0"/>
      <vel value="0.1134320272" flag="0"/>
      <psa03 value="0.7551253688" flag="0"/>
      <psa10 value="0.0446725372" flag="0"/>
      <psa30 value="0.0043664730" flag="0"/>
    </comp>
    <comp name="--.HHZ">
      <acc value="0.1945388679" flag="0"/>
      <vel value="0.0660910390" flag="0"/>
      <psa03 value="0.5489729130" flag="0"/>
      <psa10 value="0.0205033959" flag="0"/>
      <psa30 value="0.0038468064" flag="0"/>
    </comp>
  </station>
</stationlist>
