<?xml version="1.0" encoding="UTF-8" standalone="yes"?>
<!DOCTYPE earthquake SYSTEM "stationlist.dtd">
<stationlist created="" xmlns="ch.ethz.sed.shakemap.usgs.xml">
  <station code="APE" name="APE" netid="GE" insttype="STS-2/N" lat="37.0727" lon="25.523">
    <comp name="--.HHZ">
      <acc value="0.1465251124" flag="0"/>
      <vel value="0.0208030759" flag="0"/>
      <psa03 value="0.1132535029" flag="0"/>
      <psa10 value="0.0213224531" flag="0"/>
      <psa30 value="0.0065441389" flag="0"/>
    </comp>
    <comp name="--.HHE">
      <acc value="0.2090088831" flag="0"/>
      <vel value="0.0411938892" flag="0"/>
      <psa03 value="0.2074111044" flag="0"/>
      <psa10 value="0.0279186278" flag="0"/>
      <psa30 value="0.0058451015" flag="0"/>
    </comp>
    <comp name="--.HHN">
      <acc value="0.2723614180" flag="0"/>
      <vel value="0.0456786205" flag="0"/>
      <psa03 value="0.1729095717" flag="0"/>
      <psa10 value="0.0275446712" flag="0"/>
      <psa30 value="0.0061714989" flag="0"/>
    </comp>
  </station>
  <station code="THERA" name="THERA" netid="GE" insttype="STS-2/N" lat="36.367" lon="25.4753">
    <comp name="--.HHE">
      <acc value="0.1574848590" flag="0"/>
      <vel value="0.0463750719" flag="0"/>
      <psa03 value="0.3393934759" flag="0"/>
      <psa10 value="0.0151748947" flag="0"/>
      <psa30 value="0.0036536129" flag="0"/>
    </comp>
    <comp name="--.HHN">
      <acc value="0.1172434672" flag="0"/>
      <vel value="0.0311557982" flag="0"/>
      <psa03 value="0.1915462155" flag="0"/>
      <psa10 value="0.0071124643" flag="0"/>
      <psa30 value="0.0015417742" flag="0"/>
    </comp>
    <comp name="--.HHZ">
      <acc value="0.1287477585" flag="0"/>
      <vel value="0.0288851524" flag="0"/>
      <psa03 value="0.1297069894" flag="0"/>
      <psa10 value="0.0091846403" flag="0"/>
      <psa30 value="0.0025985574" flag="0"/>
    </comp>
  </station>
</stationlist>
