<?xml version="1.0" encoding="UTF-8" standalone="yes"?>
<!DOCTYPE earthquake SYSTEM "stationlist.dtd">
<stationlist created="" xmlns="ch.ethz.sed.shakemap.usgs.xml">
  <station code="AKMS" name="AKMS" netid="CQ" insttype="Trillium120P" lat="35.018" lon="32.335">
    <comp name="--.HHE">
      <acc value="0.0899567160" flag="0"/>
      <vel value="0.0263164867" flag="0"/>
      <psa03 value="0.1025762246" flag="0"/>
      <psa10 value="0.0109232712" flag="0"/>
      <psa30 value="0.0008948279" flag="0"/>
    </comp>
    <comp name="--.HHN">
      <acc value="0.0900583637" flag="0"/>
      <vel value="0.0232900282" flag="0"/>
      <psa03 value="0.1039681289" flag="0"/>
      <psa10 value="0.0123269135" flag="0"/>
      <psa30 value="0.0010220757" flag="0"/>
    </comp>
    <comp name="--.HHZ">
      <acc value="0.0824009192" flag="0"/>
      <vel value="0.0160517056" flag="0"/>
      <psa03 value="0.0701158356" flag="0"/>
      <psa10 value="0.0060456899" flag="0"/>
      <psa30 value="0.0005989241" flag="0"/>
    </comp>
  </station>
  <station code="ASGA" name="ASGA" netid="CQ" insttype="" lat="34.786" lon="33.248">
    <comp name="--.HHN">
      <acc value="0.0081549110" flag="0"/>
      <vel value="0.0055741568" flag="0"/>
      <psa03 value="0.0213749129" flag="0"/>
      <psa10 value="0.0058942110" flag="0"/>
      <psa30 value="0.0005402627" flag="0"/>
    </comp>
    <comp name="--.HHE">
      <acc value="0.0104732027" flag="0"/>
      <vel value="0.0054838977" flag="0"/>
      <psa03 value="0.0206752312" flag="0"/>
      <psa10 value="0.0076937937" flag="0"/>
      <psa30 value="0.0003607245" flag="0"/>
    </comp>
    <comp name="--.HHZ">
      <acc value="0.0074347736" flag="0"/>
      <vel value="0.0033360583" flag="0"/>
      <psa03 value="0.0124913094" flag="0"/>
      <psa10 value="0.0032869564" flag="0"/>
      <psa30 value="0.0002951808" flag="0"/>
    </comp>
  </station>
  <station code="ATHA" name="ATHA" netid="CQ" insttype="" lat="35.141" lon="33.396">
    <comp name="--.HHN">
      <acc value="0.0070215087" flag="0"/>
      <vel value="0.0095047615" flag="0"/>
      <psa03 value="0.0105423723" flag="0"/>
      <psa10 value="0.0138123451" flag="0"/>
      <psa30 value="0.0017915682" flag="0"/>
    </comp>
    <comp name="--.HHZ">
      <acc value="0.0041331978" flag="0"/>
      <vel value="0.0031861666" flag="0"/>
      <psa03 value="0.0071035213" flag="0"/>
      <psa10 value="0.0095076911" flag="0"/>
      <psa30 value="0.0004667843" flag="0"/>
    </comp>
    <comp name="--.HHE">
      <acc value="0.0064101798" flag="0"/>
      <vel value="0.0081177523" flag="0"/>
      <psa03 value="0.0130954959" flag="0"/>
      <psa10 value="0.0206491335" flag="0"/>
      <psa30 value="0.0014696298" flag="0"/>
    </comp>
  </station>
  <station code="NATA" name="NATA" netid="CQ" insttype="" lat="34.7789" lon="32.5699">
    <comp name="--.HHN">
      <acc value="0.1239356806" flag="0"/>
      <vel value="0.0732954656" flag="0"/>
      <psa03 value="0.2746209426" flag="0"/>
      <psa10 value="0.1395229516" flag="0"/>
      <psa30 value="0.0066284954" flag="0"/>
    </comp>
    <comp name="--.HHZ">
      <acc value="0.1074002416" flag="0"/>
      <vel value="0.0523459288" flag="0"/>
      <psa03 value="0.1337865760" flag="0"/>
      <psa10 value="0.0854090917" flag="0"/>
      <psa30 value="0.0029714077" flag="0"/>
    </comp>
    <comp name="--.HHE">
      <acc value="0.1921727332" flag="0"/>
      <vel value="0.0999903505" flag="0"/>
      <psa03 value="0.3851000110" flag="0"/>
      <psa10 value="0.1402517354" flag="0"/>
      <psa30 value="0.0062421694" flag="0"/>
    </comp>
  </station>
  <station code="XYLS" name="XYLS" netid="CQ" insttype="120QA" lat="35.014" lon="33.0493">
    <comp name="--.HHZ">
      <acc value="0.0095076425" flag="0"/>
      <vel value="0.0038060258" flag="0"/>
      <psa03 value="0.0164623217" flag="0"/>
      <psa10 value="0.0028064930" flag="0"/>
      <psa30 value="0.0005125751" flag="0"/>
    </comp>
  </station>
</stationlist>
