<?xml version="1.0" encoding="UTF-8" standalone="yes"?>
<!DOCTYPE earthquake SYSTEM "stationlist.dtd">
<stationlist created="" xmlns="ch.ethz.sed.shakemap.usgs.xml">
  <station code="APE" name="APE" netid="GE" insttype="STS-2/N" lat="37.0727" lon="25.523">
    <comp name="--.HHZ">
      <acc value="0.0794899904" flag="0"/>
      <vel value="0.0161012946" flag="0"/>
      <psa03 value="0.0710238516" flag="0"/>
      <psa10 value="0.0087774760" flag="0"/>
      <psa30 value="0.0021720312" flag="0"/>
    </comp>
    <comp name="--.HHN">
      <acc value="0.1368339002" flag="0"/>
      <vel value="0.0236765267" flag="0"/>
      <psa03 value="0.1006722300" flag="0"/>
      <psa10 value="0.0125509887" flag="0"/>
      <psa30 value="0.0015031688" flag="0"/>
    </comp>
    <comp name="--.HHE">
      <acc value="0.1492833624" flag="0"/>
      <vel value="0.0297381183" flag="0"/>
      <psa03 value="0.0861026208" flag="0"/>
      <psa10 value="0.0128105516" flag="0"/>
      <psa30 value="0.0014141843" flag="0"/>
    </comp>
  </station>
  <station code="THERA" name="THERA" netid="GE" insttype="STS-2/N" lat="36.367" lon="25.4753">
    <comp name="--.HHN">
      <acc value="0.0537354398" flag="0"/>
      <vel value="0.0106690102" flag="0"/>
      <psa03 value="0.0354266996" flag="0"/>
      <psa10 value="0.0078962028" flag="0"/>
      <psa30 value="0.0005739922" flag="0"/>
    </comp>
    <comp name="--.HHZ">
      <acc value="0.0628538513" flag="0"/>
      <vel value="0.0123185391" flag="0"/>
      <psa03 value="0.0460438734" flag="0"/>
      <psa10 value="0.0062324394" flag="0"/>
      <psa30 value="0.0009287780" flag="0"/>
    </comp>
    <comp name="--.HHE">
      <acc value="0.1013673669" flag="0"/>
      <vel value="0.0192088908" flag="0"/>
      <psa03 value="0.0492060097" flag="0"/>
      <psa10 value="0.0082604000" flag="0"/>
      <psa30 value="0.0008107289" flag="0"/>
    </comp>
  </station>
</stationlist>
