<stationlist created="1739304152">
	<station code="ABEA" name="ABEA" netid="HC" source="Seismological Network of Crete (HC)" insttype="" lat="35.5163" lon="24.0113">
		<comp name=".HNE" depth="0.0">
			<acc value="0.0049585822958502" flag="0"/>
			<vel value="0.00202113569613" flag="0"/>
			<psa03 value="0.00202116156130285" flag="0"/>
			<psa10 value="0.00139409825060394" flag="0"/>
			<psa30 value="0.000933536529712589" flag="0"/>
		</comp>
		<comp name=".HNN" depth="0.0">
			<acc value="0.006454901662056" flag="0"/>
			<vel value="0.00163305094552" flag="0"/>
			<psa03 value="0.002185054091556" flag="0"/>
			<psa10 value="0.00139798655506046" flag="0"/>
			<psa30 value="0.000961035955581341" flag="0"/>
		</comp>
		<comp name=".HNZ" depth="0.0">
			<acc value="0.0096716850585204" flag="0"/>
			<vel value="0.00137086806091" flag="0"/>
			<psa03 value="0.00157125708286294" flag="0"/>
			<psa10 value="0.00125212872863427" flag="0"/>
			<psa30 value="0.000749583562480982" flag="0"/>
		</comp>
	</station>
	<station code="ATEI" name="ATEI" netid="HC" source="Seismological Network of Crete (HC)" insttype="" lat="35.5193" lon="24.0432">
		<comp name=".HNE" depth="0.0">
			<acc value="0.0050908138118436" flag="0"/>
			<vel value="0.00320311854888" flag="0"/>
			<psa03 value="0.00883769482891794" flag="0"/>
			<psa10 value="0.00406599872744493" flag="0"/>
			<psa30 value="0.000822273377826195" flag="0"/>
		</comp>
		<comp name=".HNN" depth="0.0">
			<acc value="0.0045363838047642" flag="0"/>
			<vel value="0.0030751540242" flag="0"/>
			<psa03 value="0.00871071571406062" flag="0"/>
			<psa10 value="0.00602216159489549" flag="0"/>
			<psa30 value="0.000974032962405191" flag="0"/>
		</comp>
		<comp name=".HNZ" depth="0.0">
			<acc value="0.0059942615735784" flag="0"/>
			<vel value="0.00213851723838" flag="0"/>
			<psa03 value="0.00539814080346888" flag="0"/>
			<psa10 value="0.00245038466970945" flag="0"/>
			<psa30 value="0.000805598783633627" flag="0"/>
		</comp>
	</station>
	<station code="G0LD" name="G0LD" netid="HC" source="Seismological Network of Crete (HC)" insttype="" lat="35.4955" lon="24.0306">
		<comp name=".HNE" depth="0.0">
			<acc value="0.0043479514177884" flag="0"/>
			<vel value="0.00316809012865" flag="0"/>
			<psa03 value="0.00317604014967876" flag="0"/>
			<psa10 value="0.00232662834646049" flag="0"/>
			<psa30 value="0.00123912698191277" flag="0"/>
		</comp>
		<comp name=".HNN" depth="0.0">
			<acc value="0.006148434862932" flag="0"/>
			<vel value="0.0020703872963" flag="0"/>
			<psa03 value="0.00238517949081075" flag="0"/>
			<psa10 value="0.00146181883051226" flag="0"/>
			<psa30 value="0.00135840613357286" flag="0"/>
		</comp>
		<comp name=".HNZ" depth="0.0">
			<acc value="0.0044789529160776" flag="0"/>
			<vel value="0.0044038286237" flag="0"/>
			<psa03 value="0.00306291286388279" flag="0"/>
			<psa10 value="0.00177129882422833" flag="0"/>
			<psa30 value="0.00175192772328057" flag="0"/>
		</comp>
	</station>
	<station code="PASK" name="PASK" netid="HC" source="Seismological Network of Crete (HC)" insttype="" lat="35.4996" lon="24.0121">
		<comp name=".HNE" depth="0.0">
			<acc value="0.034207517233632" flag="0"/>
			<vel value="0.00671027935592" flag="0"/>
			<psa03 value="0.0162116755064361" flag="0"/>
			<psa10 value="0.00904600800362198" flag="0"/>
			<psa30 value="0.00110859520982459" flag="0"/>
		</comp>
		<comp name=".HNN" depth="0.0">
			<acc value="0.0477239049675" flag="0"/>
			<vel value="0.00595794470721" flag="0"/>
			<psa03 value="0.0124614479056008" flag="0"/>
			<psa10 value="0.00649950352897955" flag="0"/>
			<psa30 value="0.0013336264712064" flag="0"/>
		</comp>
		<comp name=".HNZ" depth="0.0">
			<acc value="0.011792629431876" flag="0"/>
			<vel value="0.00253218204429" flag="0"/>
			<psa03 value="0.00602287945493435" flag="0"/>
			<psa10 value="0.00321480249613851" flag="0"/>
			<psa30 value="0.00106108206231084" flag="0"/>
		</comp>
	</station>
	<station code="POLY" name="POLY" netid="HC" source="Seismological Network of Crete (HC)" insttype="" lat="35.5226" lon="24.0602">
		<comp name=".HNE" depth="0.0">
			<acc value="0.0018601872600408" flag="0"/>
			<vel value="0.00200007192087" flag="0"/>
			<psa03 value="0.00147869724028801" flag="0"/>
			<psa10 value="0.00137548119700383" flag="0"/>
			<psa30 value="0.000863383340742902" flag="0"/>
		</comp>
		<comp name=".HNN" depth="0.0">
			<acc value="0.0015225187113762" flag="0"/>
			<vel value="0.00236853549132" flag="0"/>
			<psa03 value="0.0015470281015085" flag="0"/>
			<psa10 value="0.00129394235795565" flag="0"/>
			<psa30 value="0.00134499264082701" flag="0"/>
		</comp>
		<comp name=".HNZ" depth="0.0">
			<acc value="0.0019897131083058" flag="0"/>
			<vel value="0.00135788503118" flag="0"/>
			<psa03 value="0.00171799645857233" flag="0"/>
			<psa10 value="0.000911156902643522" flag="0"/>
			<psa30 value="0.000712080973954579" flag="0"/>
		</comp>
	</station>
	<station code="ARK1" name="ARK1" netid="HI" source="ITSAK Strong Motion Network" insttype="" lat="35.148777" lon="25.264194">
		<comp name=".HNE" depth="0.0">
			<acc value="0.009414193013574" flag="0"/>
			<vel value="0.00719497530423" flag="0"/>
			<psa03 value="0.0191457982631101" flag="0"/>
			<psa10 value="0.00752696799967391" flag="0"/>
			<psa30 value="0.000692989084207201" flag="0"/>
		</comp>
		<comp name=".HNN" depth="0.0">
			<acc value="0.009662652774084" flag="0"/>
			<vel value="0.00737646482457" flag="0"/>
			<psa03 value="0.0142675271848885" flag="0"/>
			<psa10 value="0.00904762529825859" flag="0"/>
			<psa30 value="0.000929733881974876" flag="0"/>
		</comp>
		<comp name=".HNZ" depth="0.0">
			<acc value="0.0064047442877076" flag="0"/>
			<vel value="0.00510661039345" flag="0"/>
			<psa03 value="0.013242986657866" flag="0"/>
			<psa10 value="0.00646092284818413" flag="0"/>
			<psa30 value="0.000358048875230744" flag="0"/>
		</comp>
	</station>
	<station code="CH01" name="CH01" netid="HI" source="ITSAK Strong Motion Network" insttype="" lat="35.517" lon="24.0208">
		<comp name=".HNE" depth="0.0">
			<acc value="0.0054448251559476" flag="0"/>
			<vel value="0.00276286653843" flag="0"/>
			<psa03 value="0.00955565384849921" flag="0"/>
			<psa10 value="0.00396686466031717" flag="0"/>
			<psa30 value="0.000637064806582738" flag="0"/>
		</comp>
		<comp name=".HNN" depth="0.0">
			<acc value="0.0056913019235742" flag="0"/>
			<vel value="0.00339166665616" flag="0"/>
			<psa03 value="0.0178204435377815" flag="0"/>
			<psa10 value="0.00422590088269483" flag="0"/>
			<psa30 value="0.000584896454852541" flag="0"/>
		</comp>
		<comp name=".HNZ" depth="0.0">
			<acc value="0.0065134215718782" flag="0"/>
			<vel value="0.00189272129629" flag="0"/>
			<psa03 value="0.00571872519166547" flag="0"/>
			<psa10 value="0.00403167504745521" flag="0"/>
			<psa30 value="0.000528116130933295" flag="0"/>
		</comp>
	</station>
	<station code="CH02" name="CH02" netid="HI" source="ITSAK Strong Motion Network" insttype="" lat="35.5145" lon="24.0315">
		<comp name=".HNE" depth="0.0">
			<acc value="0.0045830731825908" flag="0"/>
			<vel value="0.0026522885379" flag="0"/>
			<psa03 value="0.00983727797344883" flag="0"/>
			<psa10 value="0.00375903503324699" flag="0"/>
			<psa30 value="0.000583421044612095" flag="0"/>
		</comp>
		<comp name=".HNN" depth="0.0">
			<acc value="0.0069528202543386" flag="0"/>
			<vel value="0.00375362257319" flag="0"/>
			<psa03 value="0.0187182959848465" flag="0"/>
			<psa10 value="0.00344245757716851" flag="0"/>
			<psa30 value="0.000717842188937163" flag="0"/>
		</comp>
		<comp name=".HNZ" depth="0.0">
			<acc value="0.0046971384303054" flag="0"/>
			<vel value="0.00152350230477" flag="0"/>
			<psa03 value="0.00473918439040047" flag="0"/>
			<psa10 value="0.00288405238244019" flag="0"/>
			<psa30 value="0.000500716711690428" flag="0"/>
		</comp>
	</station>
	<station code="CH03" name="CH03" netid="HI" source="ITSAK Strong Motion Network" insttype="" lat="35.53303" lon="24.0705">
		<comp name=".HNE" depth="0.0">
			<acc value="0.0035251588028604" flag="0"/>
			<vel value="0.00242718323672" flag="0"/>
			<psa03 value="0.00785672099003158" flag="0"/>
			<psa10 value="0.00447965628648362" flag="0"/>
			<psa30 value="0.000478560764802911" flag="0"/>
		</comp>
		<comp name=".HNN" depth="0.0">
			<acc value="0.0036845818866906" flag="0"/>
			<vel value="0.00320307851825" flag="0"/>
			<psa03 value="0.0108068812674502" flag="0"/>
			<psa10 value="0.00469488351301128" flag="0"/>
			<psa30 value="0.000402616775551966" flag="0"/>
		</comp>
		<comp name=".HNZ" depth="0.0">
			<acc value="0.002545288746582" flag="0"/>
			<vel value="0.00111067650438" flag="0"/>
			<psa03 value="0.00413518734732499" flag="0"/>
			<psa10 value="0.00136784487082111" flag="0"/>
			<psa30 value="0.000235063228035405" flag="0"/>
		</comp>
	</station>
	<station code="GOR1" name="GOR1" netid="HI" source="ITSAK Strong Motion Network" insttype="" lat="35.0582" lon="24.9628">
		<comp name=".HNE" depth="0.0">
			<acc value="0.004925668899783" flag="0"/>
			<vel value="0.00331839888781" flag="0"/>
			<psa03 value="0.00854626276252893" flag="0"/>
			<psa10 value="0.00572343368064645" flag="0"/>
			<psa30 value="0.000520629541234432" flag="0"/>
		</comp>
		<comp name=".HNN" depth="0.0">
			<acc value="0.0051730242732246" flag="0"/>
			<vel value="0.0037553581709" flag="0"/>
			<psa03 value="0.00722941641337402" flag="0"/>
			<psa10 value="0.0044929448230427" flag="0"/>
			<psa30 value="0.000578298778205444" flag="0"/>
		</comp>
		<comp name=".HNZ" depth="0.0">
			<acc value="0.006598053401151" flag="0"/>
			<vel value="0.00302648341113" flag="0"/>
			<psa03 value="0.00638258557540882" flag="0"/>
			<psa10 value="0.00302369850831201" flag="0"/>
			<psa30 value="0.000316788928420096" flag="0"/>
		</comp>
	</station>
	<station code="HER3" name="HER3" netid="HI" source="ITSAK Strong Motion Network" insttype="" lat="35.3296" lon="25.1065">
		<comp name=".HNE" depth="0.0">
			<acc value="0.029648679579114" flag="0"/>
			<vel value="0.0112790604839" flag="0"/>
			<psa03 value="0.0473073682559683" flag="0"/>
			<psa10 value="0.0209178225781056" flag="0"/>
			<psa30 value="0.000870669396323598" flag="0"/>
		</comp>
		<comp name=".HNN" depth="0.0">
			<acc value="0.019285722673776" flag="0"/>
			<vel value="0.0124369118334" flag="0"/>
			<psa03 value="0.034892860959939" flag="0"/>
			<psa10 value="0.0266740488998224" flag="0"/>
			<psa30 value="0.00102460183317434" flag="0"/>
		</comp>
		<comp name=".HNZ" depth="0.0">
			<acc value="0.025815660496806" flag="0"/>
			<vel value="0.00715652293146" flag="0"/>
			<psa03 value="0.0208469630402467" flag="0"/>
			<psa10 value="0.00778644487626079" flag="0"/>
			<psa30 value="0.000673895944380467" flag="0"/>
		</comp>
	</station>
	<station code="KRL1" name="KRL1" netid="HI" source="ITSAK Strong Motion Network" insttype="" lat="37.7951" lon="26.7065">
		<comp name=".HNE" depth="0.0">
			<acc value="0.030686307480438" flag="0"/>
			<vel value="0.00945662903685" flag="0"/>
			<psa03 value="0.0348365160815726" flag="0"/>
			<psa10 value="0.0101275271489855" flag="0"/>
			<psa30 value="0.000416342788999894" flag="0"/>
		</comp>
		<comp name=".HNN" depth="0.0">
			<acc value="0.020539558287" flag="0"/>
			<vel value="0.00754170865163" flag="0"/>
			<psa03 value="0.0328306774754247" flag="0"/>
			<psa10 value="0.00911109825304899" flag="0"/>
			<psa30 value="0.000565930094256154" flag="0"/>
		</comp>
		<comp name=".HNZ" depth="0.0">
			<acc value="0.013457801474178" flag="0"/>
			<vel value="0.00350047414895" flag="0"/>
			<psa03 value="0.0193885656473171" flag="0"/>
			<psa10 value="0.00357932945675841" flag="0"/>
			<psa30 value="0.000351064428170439" flag="0"/>
		</comp>
	</station>
	<station code="KTL1" name="KTL1" netid="HI" source="ITSAK Strong Motion Network" insttype="" lat="35.20778" lon="25.34272">
		<comp name=".HNE" depth="0.0">
			<acc value="0.0078829998998064" flag="0"/>
			<vel value="0.005475545324" flag="0"/>
			<psa03 value="0.0149403569128433" flag="0"/>
			<psa10 value="0.005027325691913" flag="0"/>
			<psa30 value="0.000381559677497703" flag="0"/>
		</comp>
		<comp name=".HNN" depth="0.0">
			<acc value="0.0099693247622118" flag="0"/>
			<vel value="0.00681631364274" flag="0"/>
			<psa03 value="0.0194488964668593" flag="0"/>
			<psa10 value="0.00507838110531145" flag="0"/>
			<psa30 value="0.00037555149302667" flag="0"/>
		</comp>
		<comp name=".HNZ" depth="0.0">
			<acc value="0.011721241337418" flag="0"/>
			<vel value="0.00240292579431" flag="0"/>
			<psa03 value="0.00824376485897049" flag="0"/>
			<psa10 value="0.00235325464157006" flag="0"/>
			<psa30 value="0.000399621785481928" flag="0"/>
		</comp>
	</station>
	<station code="NAX1" name="NAX1" netid="HI" source="ITSAK Strong Motion Network" insttype="" lat="37.101394" lon="25.374103">
		<comp name=".HNE" depth="0.0">
			<acc value="0.10427572126458" flag="0"/>
			<vel value="0.0214271877422" flag="0"/>
			<psa03 value="0.0771806388801964" flag="0"/>
			<psa10 value="0.00567291267762235" flag="0"/>
			<psa30 value="0.00123844224905291" flag="0"/>
		</comp>
		<comp name=".HNN" depth="0.0">
			<acc value="0.083316536968518" flag="0"/>
			<vel value="0.0204985059407" flag="0"/>
			<psa03 value="0.0727484442271885" flag="0"/>
			<psa10 value="0.00525528266791687" flag="0"/>
			<psa30 value="0.00154203642317808" flag="0"/>
		</comp>
		<comp name=".HNZ" depth="0.0">
			<acc value="0.063129667181298" flag="0"/>
			<vel value="0.0122472067714" flag="0"/>
			<psa03 value="0.0524212539010181" flag="0"/>
			<psa10 value="0.00574816563152106" flag="0"/>
			<psa30 value="0.00183417087981799" flag="0"/>
		</comp>
	</station>
	<station code="RDI1" name="RDI1" netid="HI" source="ITSAK Strong Motion Network" insttype="" lat="36.4514" lon="28.224">
		<comp name=".HNE" depth="0.0">
			<acc value="0.002758303092258" flag="0"/>
			<vel value="0.00169145245829" flag="0"/>
			<psa03 value="0.00507029942412163" flag="0"/>
			<psa10 value="0.00310691370841148" flag="0"/>
			<psa30 value="0.000764887753394309" flag="0"/>
		</comp>
		<comp name=".HNN" depth="0.0">
			<acc value="0.0032184666102156" flag="0"/>
			<vel value="0.00169079112453" flag="0"/>
			<psa03 value="0.00539328468749215" flag="0"/>
			<psa10 value="0.00185625929619285" flag="0"/>
			<psa30 value="0.000969483494358438" flag="0"/>
		</comp>
		<comp name=".HNZ" depth="0.0">
			<acc value="0.0063046182691722" flag="0"/>
			<vel value="0.00132833102374" flag="0"/>
			<psa03 value="0.00537366229386169" flag="0"/>
			<psa10 value="0.00165647008457667" flag="0"/>
			<psa30 value="0.000275554165569384" flag="0"/>
		</comp>
	</station>
	<station code="RKL1" name="RKL1" netid="HI" source="ITSAK Strong Motion Network" insttype="" lat="36.336699" lon="28.171224">
		<comp name=".HNE" depth="0.0">
			<acc value="0.0021201898849656" flag="0"/>
			<vel value="0.00221633631474" flag="0"/>
			<psa03 value="0.00681647890200859" flag="0"/>
			<psa10 value="0.0065280030731826" flag="0"/>
			<psa30 value="0.00034375772017866" flag="0"/>
		</comp>
		<comp name=".HNN" depth="0.0">
			<acc value="0.0017665106735268" flag="0"/>
			<vel value="0.00167001164189" flag="0"/>
			<psa03 value="0.00484904095173015" flag="0"/>
			<psa10 value="0.00402351919465044" flag="0"/>
			<psa30 value="0.000163497875202745" flag="0"/>
		</comp>
		<comp name=".HNZ" depth="0.0">
			<acc value="0.0057008968635828" flag="0"/>
			<vel value="0.000621184867431" flag="0"/>
			<psa03 value="0.0022286875159103" flag="0"/>
			<psa10 value="0.000834686758745495" flag="0"/>
			<psa30 value="0.000132719443053482" flag="0"/>
		</comp>
	</station>
	<station code="RPN1" name="RPN1" netid="HI" source="ITSAK Strong Motion Network" insttype="" lat="36.448678" lon="28.218047">
		<comp name=".HNE" depth="0.0">
			<acc value="0.010287641086782" flag="0"/>
			<vel value="0.00203221977523" flag="0"/>
			<psa03 value="0.0111454023907145" flag="0"/>
			<psa10 value="0.00243323314287732" flag="0"/>
			<psa30 value="0.00074755842832696" flag="0"/>
		</comp>
		<comp name=".HNN" depth="0.0">
			<acc value="0.010387359549456" flag="0"/>
			<vel value="0.00207564575018" flag="0"/>
			<psa03 value="0.00487238982920955" flag="0"/>
			<psa10 value="0.00277781182890242" flag="0"/>
			<psa30 value="0.00120425144241473" flag="0"/>
		</comp>
		<comp name=".HNZ" depth="0.0">
			<acc value="0.020452997233542" flag="0"/>
			<vel value="0.00207118631542" flag="0"/>
			<psa03 value="0.00477617902864609" flag="0"/>
			<psa10 value="0.00145037107996684" flag="0"/>
			<psa30 value="0.000300476597808461" flag="0"/>
		</comp>
	</station>
	<station code="RTH1" name="RTH1" netid="HI" source="ITSAK Strong Motion Network" insttype="" lat="35.365393" lon="24.471773">
		<comp name=".HNE" depth="0.0">
			<acc value="0.004903934919048" flag="0"/>
			<vel value="0.00157618954447" flag="0"/>
			<psa03 value="0.00641682742706589" flag="0"/>
			<psa10 value="0.00140658540594104" flag="0"/>
			<psa30 value="0.000427989315733232" flag="0"/>
		</comp>
		<comp name=".HNN" depth="0.0">
			<acc value="0.005011580190954" flag="0"/>
			<vel value="0.00178722974318" flag="0"/>
			<psa03 value="0.00713818901580141" flag="0"/>
			<psa10 value="0.00179823088178203" flag="0"/>
			<psa30 value="0.000500699002183667" flag="0"/>
		</comp>
		<comp name=".HNZ" depth="0.0">
			<acc value="0.0086831587029024" flag="0"/>
			<vel value="0.00131927451876" flag="0"/>
			<psa03 value="0.00309770162680173" flag="0"/>
			<psa10 value="0.0018088306074007" flag="0"/>
			<psa30 value="0.000318901932979812" flag="0"/>
		</comp>
	</station>
	<station code="SFR2" name="SFR2" netid="HI" source="ITSAK Strong Motion Network" insttype="" lat="36.399841" lon="25.438209">
		<comp name=".HNE" depth="0.0">
			<acc value="0.20243510501154" flag="0"/>
			<vel value="0.0599951163278" flag="0"/>
			<psa03 value="0.170728716189544" flag="0"/>
			<psa10 value="0.0372328677447669" flag="0"/>
			<psa30 value="0.00247807811884625" flag="0"/>
		</comp>
		<comp name=".HNN" depth="0.0">
			<acc value="0.18588797770086" flag="0"/>
			<vel value="0.0580308153203" flag="0"/>
			<psa03 value="0.142873339657609" flag="0"/>
			<psa10 value="0.0413649739764933" flag="0"/>
			<psa30 value="0.00421070977219201" flag="0"/>
		</comp>
		<comp name=".HNZ" depth="0.0">
			<acc value="0.16976869756752" flag="0"/>
			<vel value="0.0459878972555" flag="0"/>
			<psa03 value="0.113988728276936" flag="0"/>
			<psa10 value="0.0166613262310887" flag="0"/>
			<psa30 value="0.00209323866679021" flag="0"/>
		</comp>
	</station>
	<station code="AMGA" name="AMGA" netid="HL" source="National Observatory of Athens Seismic Network" insttype="" lat="36.831561" lon="25.893836">
		<comp name="00.HNE" depth="0.0">
			<acc value="0.65046781158336" flag="0"/>
			<vel value="0.146018791696" flag="0"/>
			<psa03 value="0.604601093522189" flag="0"/>
			<psa10 value="0.0515794656363592" flag="0"/>
			<psa30 value="0.00575665718361396" flag="0"/>
		</comp>
		<comp name="00.HNN" depth="0.0">
			<acc value="0.65173424035608" flag="0"/>
			<vel value="0.198088392291" flag="0"/>
			<psa03 value="0.470176021855978" flag="0"/>
			<psa10 value="0.0809300312173219" flag="0"/>
			<psa30 value="0.0057699076447476" flag="0"/>
		</comp>
		<comp name="00.HNZ" depth="0.0">
			<acc value="0.3853276372782" flag="0"/>
			<vel value="0.0986875337064" flag="0"/>
			<psa03 value="0.386052490749487" flag="0"/>
			<psa10 value="0.0400627077077848" flag="0"/>
			<psa30 value="0.00342240317574639" flag="0"/>
		</comp>
	</station>
	<station code="ANAF" name="ANAF" netid="HL" source="National Observatory of Athens Seismic Network" insttype="" lat="36.35675" lon="25.77262">
		<comp name=".HNE" depth="0.0">
			<acc value="1.3275774230028" flag="0"/>
			<vel value="0.221245230042" flag="0"/>
			<psa03 value="0.376707038325995" flag="0"/>
			<psa10 value="0.0380700582044985" flag="0"/>
			<psa30 value="0.00329563269449203" flag="0"/>
		</comp>
