<?xml version="1.0" encoding="UTF-8" standalone="yes"?>
<!DOCTYPE earthquake SYSTEM "stationlist.dtd">
<stationlist created="" xmlns="ch.ethz.sed.shakemap.usgs.xml">
  <station code="ARPRA" name="ARPRA" netid="KO" insttype="CMG-5T" lat="39.0929" lon="38.3356">
    <comp name="--.HNN">
      <acc value="5.1303484517" flag="0"/>
      <vel value="2.9686222616" flag="0"/>
      <psa03 value="10.4579017880" flag="0"/>
      <psa10 value="2.4467417946" flag="0"/>
      <psa30 value="0.2634700960" flag="0"/>
    </comp>
    <comp name="--.HNE">
      <acc value="7.3092593037" flag="0"/>
      <vel value="5.6071930941" flag="0"/>
      <psa03 value="19.3378925799" flag="0"/>
      <psa10 value="3.3849160093" flag="0"/>
      <psa30 value="0.3674014025" flag="0"/>
    </comp>
    <comp name="--.HNZ">
      <acc value="1.6019843682" flag="0"/>
      <vel value="1.1221366139" flag="0"/>
      <psa03 value="3.4611782682" flag="0"/>
      <psa10 value="0.9446782749" flag="0"/>
      <psa30 value="0.1722147019" flag="0"/>
    </comp>
  </station>
  <station code="GAZ" name="GAZ" netid="KO" insttype="CMG-3T" lat="37.1721" lon="37.2096">
    <comp name="--.HHE">
      <acc value="0.1312971590" flag="0"/>
      <vel value="0.1604260492" flag="0"/>
      <psa03 value="0.2895445878" flag="0"/>
      <psa10 value="0.3277546978" flag="0"/>
      <psa30 value="0.0580811456" flag="0"/>
    </comp>
    <comp name="--.HHN">
      <acc value="0.1294421798" flag="0"/>
      <vel value="0.1662567951" flag="0"/>
      <psa03 value="0.2165117273" flag="0"/>
      <psa10 value="0.4404918258" flag="0"/>
      <psa30 value="0.0623800895" flag="0"/>
    </comp>
  </station>
  <station code="KMRS" name="KMRS" netid="KO" insttype="CMG-3T" lat="37.5087" lon="36.9">
    <comp name="--.HHE">
      <acc value="0.1000673405" flag="0"/>
      <vel value="0.1499334748" flag="0"/>
      <psa03 value="0.1807666763" flag="0"/>
      <psa10 value="0.1786726369" flag="0"/>
      <psa30 value="0.0809212455" flag="0"/>
    </comp>
    <comp name="--.HHZ">
      <acc value="0.0711969794" flag="0"/>
      <vel value="0.1464157346" flag="0"/>
      <psa03 value="0.1547054560" flag="0"/>
      <psa10 value="0.1657223048" flag="0"/>
      <psa30 value="0.0444789678" flag="0"/>
    </comp>
    <comp name="--.HHN">
      <acc value="0.1256090191" flag="0"/>
      <vel value="0.2221523364" flag="0"/>
      <psa03 value="0.2880693786" flag="0"/>
      <psa10 value="0.2861649168" flag="0"/>
      <psa30 value="0.1053372815" flag="0"/>
    </comp>
  </station>
  <station code="RFHY" name="RFHY" netid="KO" insttype="CMG-5T" lat="39.927" lon="38.833">
    <comp name="--.HNZ">
      <acc value="0.2366351662" flag="0"/>
      <vel value="0.4805608069" flag="0"/>
      <psa03 value="0.3906380053" flag="0"/>
      <psa10 value="0.7133230683" flag="0"/>
      <psa30 value="0.1998976882" flag="0"/>
    </comp>
    <comp name="--.HNN">
      <acc value="0.5279903352" flag="0"/>
      <vel value="0.6624965382" flag="0"/>
      <psa03 value="0.6409404169" flag="0"/>
      <psa10 value="0.8829021547" flag="0"/>
      <psa30 value="0.2771711244" flag="0"/>
    </comp>
    <comp name="--.HNE">
      <acc value="0.0153443960" flag="0"/>
      <vel value="0.0665518368" flag="0"/>
      <psa03 value="0.0257193195" flag="0"/>
      <psa10 value="0.0352986548" flag="0"/>
      <psa30 value="0.0214928204" flag="0"/>
    </comp>
  </station>
  <station code="TUNC" name="TUNC" netid="KO" insttype="CMG-5T" lat="39.6942" lon="37.5388">
    <comp name="--.HNE">
      <acc value="0.3830846099" flag="0"/>
      <vel value="0.4345749531" flag="0"/>
      <psa03 value="0.8604287393" flag="0"/>
      <psa10 value="0.5996655011" flag="0"/>
      <psa30 value="0.1508692986" flag="0"/>
    </comp>
    <comp name="--.HNZ">
      <acc value="0.2774559496" flag="0"/>
      <vel value="0.4480819791" flag="0"/>
      <psa03 value="0.7512203136" flag="0"/>
      <psa10 value="0.6119108910" flag="0"/>
      <psa30 value="0.1015081951" flag="0"/>
    </comp>
    <comp name="--.HNN">
      <acc value="0.5519743007" flag="0"/>
      <vel value="0.4859374092" flag="0"/>
      <psa03 value="1.0920027903" flag="0"/>
      <psa10 value="0.9398796383" flag="0"/>
      <psa30 value="0.1404506314" flag="0"/>
    </comp>
  </station>
  <station code="YEDI" name="YEDI" netid="KO" insttype="CMG-3T" lat="39.4377" lon="40.5443">
    <comp name="--.HHE">
      <acc value="0.1000275837" flag="0"/>
      <vel value="0.2381338940" flag="0"/>
      <psa03 value="0.1354909899" flag="0"/>
      <psa10 value="0.4006416478" flag="0"/>
      <psa30 value="0.0744283626" flag="0"/>
    </comp>
    <comp name="--.HHZ">
      <acc value="0.0000323967" flag="0"/>
      <vel value="0.0000046766" flag="0"/>
      <psa03 value="0.0000115973" flag="0"/>
      <psa10 value="0.0000086497" flag="0"/>
      <psa30 value="0.0000009505" flag="0"/>
    </comp>
  </station>
</stationlist>
