<?xml version="1.0" encoding="UTF-8" standalone="yes"?>
<!DOCTYPE earthquake SYSTEM "stationlist.dtd">
<stationlist created="" xmlns="ch.ethz.sed.shakemap.usgs.xml">
  <station code="ARPRA" name="ARPRA" netid="KO" insttype="CMG-5T" lat="39.0929" lon="38.3356">
    <comp name="--.HNZ">
      <acc value="1.6019533928" flag="0"/>
      <vel value="1.1222953260" flag="0"/>
      <psa03 value="3.4611049255" flag="0"/>
      <psa10 value="0.9445163118" flag="0"/>
      <psa30 value="0.1721902158" flag="0"/>
    </comp>
    <comp name="--.HNE">
      <acc value="7.3102080434" flag="0"/>
      <vel value="5.6107722724" flag="0"/>
      <psa03 value="19.3370696227" flag="0"/>
      <psa10 value="3.3842269594" flag="0"/>
      <psa30 value="0.3672312467" flag="0"/>
    </comp>
    <comp name="--.HNN">
      <acc value="5.1301177495" flag="0"/>
      <vel value="2.9689325055" flag="0"/>
      <psa03 value="10.4581436911" flag="0"/>
      <psa10 value="2.4469780400" flag="0"/>
      <psa30 value="0.2631612055" flag="0"/>
    </comp>
  </station>
  <station code="GAZ" name="GAZ" netid="KO" insttype="CMG-3T" lat="37.1721" lon="37.2096">
    <comp name="--.HHE">
      <acc value="0.1313575031" flag="0"/>
      <vel value="0.1596903188" flag="0"/>
      <psa03 value="0.2894678579" flag="0"/>
      <psa10 value="0.3277417031" flag="0"/>
      <psa30 value="0.0579222717" flag="0"/>
    </comp>
    <comp name="--.HHN">
      <acc value="0.1294100534" flag="0"/>
      <vel value="0.1669124624" flag="0"/>
      <psa03 value="0.2164831654" flag="0"/>
      <psa10 value="0.4404068103" flag="0"/>
      <psa30 value="0.0622234751" flag="0"/>
    </comp>
  </station>
  <station code="KARO" name="KARO" netid="KO" insttype="CMG-3T" lat="39.3089" lon="41.0493">
    <comp name="--.HHZ">
      <acc value="0.0823740991" flag="0"/>
      <vel value="0.1714783388" flag="0"/>
      <psa03 value="0.1118882586" flag="0"/>
      <psa10 value="0.1851434274" flag="0"/>
      <psa30 value="0.0598869688" flag="0"/>
    </comp>
    <comp name="--.HHN">
      <acc value="0.1210040238" flag="0"/>
      <vel value="0.3460584134" flag="0"/>
      <psa03 value="0.1613271102" flag="0"/>
      <psa10 value="0.3179161138" flag="0"/>
      <psa30 value="0.1023382331" flag="0"/>
    </comp>
    <comp name="--.HHE">
      <acc value="0.1509228100" flag="0"/>
      <vel value="0.4343885426" flag="0"/>
      <psa03 value="0.1775193822" flag="0"/>
      <psa10 value="0.5351988443" flag="0"/>
      <psa30 value="0.1893903864" flag="0"/>
    </comp>
  </station>
  <station code="KMRS" name="KMRS" netid="KO" insttype="CMG-3T" lat="37.5087" lon="36.9">
    <comp name="--.HHZ">
      <acc value="0.0711266432" flag="0"/>
      <vel value="0.1467175554" flag="0"/>
      <psa03 value="0.1547110460" flag="0"/>
      <psa10 value="0.1656738598" flag="0"/>
      <psa30 value="0.0443697482" flag="0"/>
    </comp>
    <comp name="--.HHN">
      <acc value="0.1255359921" flag="0"/>
      <vel value="0.2218731181" flag="0"/>
      <psa03 value="0.2880547481" flag="0"/>
      <psa10 value="0.2861454232" flag="0"/>
      <psa30 value="0.1052145428" flag="0"/>
    </comp>
  </station>
  <station code="RFHY" name="RFHY" netid="KO" insttype="CMG-5T" lat="39.927" lon="38.833">
    <comp name="--.HNZ">
      <acc value="0.2366524017" flag="0"/>
      <vel value="0.4802458958" flag="0"/>
      <psa03 value="0.3905659494" flag="0"/>
      <psa10 value="0.7132838729" flag="0"/>
      <psa30 value="0.1998352736" flag="0"/>
    </comp>
    <comp name="--.HNN">
      <acc value="0.5279777875" flag="0"/>
      <vel value="0.6605182931" flag="0"/>
      <psa03 value="0.6407425471" flag="0"/>
      <psa10 value="0.8827192781" flag="0"/>
      <psa30 value="0.2770038090" flag="0"/>
    </comp>
    <comp name="--.HNE">
      <acc value="0.0153500649" flag="0"/>
      <vel value="0.0782056228" flag="0"/>
      <psa03 value="0.0257038151" flag="0"/>
      <psa10 value="0.0353019877" flag="0"/>
      <psa30 value="0.0214386595" flag="0"/>
    </comp>
  </station>
  <station code="SVAN" name="SVAN" netid="KO" insttype="CMG-3T" lat="38.1511" lon="41.1984">
    <comp name="--.HHN">
      <acc value="0.1044429995" flag="0"/>
      <vel value="0.1617935663" flag="0"/>
      <psa03 value="0.2382198438" flag="0"/>
      <psa10 value="0.2909316727" flag="0"/>
      <psa30 value="0.0620169154" flag="0"/>
    </comp>
  </station>
  <station code="TUNC" name="TUNC" netid="KO" insttype="CMG-5T" lat="39.6942" lon="37.5388">
    <comp name="--.HNN">
      <acc value="0.5519082358" flag="0"/>
      <vel value="0.4858483347" flag="0"/>
      <psa03 value="1.0920511974" flag="0"/>
      <psa10 value="0.9396119082" flag="0"/>
      <psa30 value="0.1404891660" flag="0"/>
    </comp>
    <comp name="--.HNZ">
      <acc value="0.2775587055" flag="0"/>
      <vel value="0.4470295008" flag="0"/>
      <psa03 value="0.7511244849" flag="0"/>
      <psa10 value="0.6118545705" flag="0"/>
      <psa30 value="0.1013150163" flag="0"/>
    </comp>
    <comp name="--.HNE">
      <acc value="0.3829745294" flag="0"/>
      <vel value="0.4334938384" flag="0"/>
      <psa03 value="0.8604773199" flag="0"/>
      <psa10 value="0.5995951879" flag="0"/>
      <psa30 value="0.1501368556" flag="0"/>
    </comp>
  </station>
  <station code="YEDI" name="YEDI" netid="KO" insttype="CMG-3T" lat="39.4377" lon="40.5443">
    <comp name="--.HHE">
      <acc value="0.1001522738" flag="0"/>
      <vel value="0.2357673704" flag="0"/>
      <psa03 value="0.1356075845" flag="0"/>
      <psa10 value="0.4003882531" flag="0"/>
      <psa30 value="0.0740963886" flag="0"/>
    </comp>
    <comp name="--.HHZ">
      <acc value="0.0000323984" flag="0"/>
      <vel value="0.0000046722" flag="0"/>
      <psa03 value="0.0000115966" flag="0"/>
      <psa10 value="0.0000086489" flag="0"/>
      <psa30 value="0.0000007394" flag="0"/>
    </comp>
  </station>
</stationlist>
