<?xml version="1.0" encoding="UTF-8" standalone="yes"?>
<!DOCTYPE earthquake SYSTEM "stationlist.dtd">
<stationlist created="" xmlns="ch.ethz.sed.shakemap.usgs.xml">
  <station code="AGRP" name="AGRP" netid="CL" insttype="CMG40-T" lat="38.3959" lon="21.7228">
    <comp name="00.HHE">
      <acc value="0.0287538754" flag="0"/>
      <vel value="0.0203084662" flag="0"/>
      <psa03 value="0.0699436269" flag="0"/>
      <psa10 value="0.0220191202" flag="0"/>
      <psa30 value="0.0021639344" flag="0"/>
    </comp>
    <comp name="00.HHN">
      <acc value="0.0385321595" flag="0"/>
      <vel value="0.0268077913" flag="0"/>
      <psa03 value="0.1066900493" flag="0"/>
      <psa10 value="0.0411917362" flag="0"/>
      <psa30 value="0.0031253921" flag="0"/>
    </comp>
    <comp name="00.HHZ">
      <acc value="0.0148018453" flag="0"/>
      <vel value="0.0095667083" flag="0"/>
      <psa03 value="0.0684967565" flag="0"/>
      <psa10 value="0.0222155122" flag="0"/>
      <psa30 value="0.0021968635" flag="0"/>
    </comp>
  </station>
  <station code="PSAM" name="PSAM" netid="CL" insttype="CMG40-T" lat="38.3218" lon="22.1842">
    <comp name="00.HHN">
      <acc value="0.0214494954" flag="0"/>
      <vel value="0.0153166509" flag="0"/>
      <psa03 value="0.0423898065" flag="0"/>
      <psa10 value="0.0189360392" flag="0"/>
      <psa30 value="0.0041866265" flag="0"/>
    </comp>
    <comp name="00.HHZ">
      <acc value="0.0109966813" flag="0"/>
      <vel value="0.0078416110" flag="0"/>
      <psa03 value="0.0463801740" flag="0"/>
      <psa10 value="0.0129668885" flag="0"/>
      <psa30 value="0.0017138837" flag="0"/>
    </comp>
    <comp name="00.HHE">
      <acc value="0.0244614158" flag="0"/>
      <vel value="0.0163928160" flag="0"/>
      <psa03 value="0.0658832805" flag="0"/>
      <psa10 value="0.0265112169" flag="0"/>
      <psa30 value="0.0041129160" flag="0"/>
    </comp>
  </station>
  <station code="ROD3" name="ROD3" netid="CL" insttype="CMG40-T" lat="38.3081" lon="21.892">
    <comp name="00.HHN">
      <acc value="0.2532165081" flag="0"/>
      <vel value="0.1303922646" flag="0"/>
      <psa03 value="0.9926868873" flag="0"/>
      <psa10 value="0.1062412270" flag="0"/>
      <psa30 value="0.0066034597" flag="0"/>
    </comp>
    <comp name="00.HHZ">
      <acc value="0.0974508805" flag="0"/>
      <vel value="0.0518050486" flag="0"/>
      <psa03 value="0.2615465036" flag="0"/>
      <psa10 value="0.0450061018" flag="0"/>
      <psa30 value="0.0045075636" flag="0"/>
    </comp>
    <comp name="00.HHE">
      <acc value="0.1769660436" flag="0"/>
      <vel value="0.1106232742" flag="0"/>
      <psa03 value="0.8335743180" flag="0"/>
      <psa10 value="0.0493777330" flag="0"/>
      <psa30 value="0.0065510086" flag="0"/>
    </comp>
  </station>
  <station code="TRIZ" name="TRIZ" netid="CL" insttype="STS-2" lat="38.3654" lon="22.0727">
    <comp name="00.HHZ">
      <acc value="0.0228209018" flag="0"/>
      <vel value="0.0145082513" flag="0"/>
      <psa03 value="0.0527658233" flag="0"/>
      <psa10 value="0.0182560063" flag="0"/>
      <psa30 value="0.0025854994" flag="0"/>
    </comp>
    <comp name="00.HH2">
      <acc value="0.0321028540" flag="0"/>
      <vel value="0.0324230454" flag="0"/>
      <psa03 value="0.1177917957" flag="0"/>
      <psa10 value="0.0516817687" flag="0"/>
      <psa30 value="0.0041202015" flag="0"/>
    </comp>
    <comp name="00.HH3">
      <acc value="0.0391425858" flag="0"/>
      <vel value="0.0307578863" flag="0"/>
      <psa03 value="0.1410473188" flag="0"/>
      <psa10 value="0.0518839585" flag="0"/>
      <psa30 value="0.0031913510" flag="0"/>
    </comp>
  </station>
  <station code="ZIRI" name="ZIRI" netid="CL" insttype="TRILLIUM-40" lat="38.3051" lon="21.9476">
    <comp name="01.HHZ">
      <acc value="0.1356741782" flag="0"/>
      <vel value="0.0535068008" flag="0"/>
      <psa03 value="0.3315325017" flag="0"/>
      <psa10 value="0.0273060102" flag="0"/>
      <psa30 value="0.0021652248" flag="0"/>
    </comp>
    <comp name="01.HHE">
      <acc value="0.1685314302" flag="0"/>
      <vel value="0.0954734727" flag="0"/>
      <psa03 value="0.5893132787" flag="0"/>
      <psa10 value="0.0732366641" flag="0"/>
      <psa30 value="0.0048473609" flag="0"/>
    </comp>
    <comp name="01.HHN">
      <acc value="0.1727709704" flag="0"/>
      <vel value="0.0895492515" flag="0"/>
      <psa03 value="0.4990608025" flag="0"/>
      <psa10 value="0.0440048186" flag="0"/>
      <psa30 value="0.0047987588" flag="0"/>
    </comp>
  </station>
  <station code="KLV" name="KLV" netid="MN" insttype="" lat="38.0437" lon="22.1504">
    <comp name="--.HHE">
      <acc value="0.0337559917" flag="0"/>
      <vel value="0.0226339075" flag="0"/>
      <psa03 value="0.1013029148" flag="0"/>
      <psa10 value="0.0146053718" flag="0"/>
      <psa30 value="0.0032881002" flag="0"/>
    </comp>
    <comp name="--.HHN">
      <acc value="0.0417052425" flag="0"/>
      <vel value="0.0243730502" flag="0"/>
      <psa03 value="0.0948620373" flag="0"/>
      <psa10 value="0.0158231595" flag="0"/>
      <psa30 value="0.0028156204" flag="0"/>
    </comp>
    <comp name="--.HHZ">
      <acc value="0.0422332389" flag="0"/>
      <vel value="0.0280024979" flag="0"/>
      <psa03 value="0.1005325144" flag="0"/>
      <psa10 value="0.0255901970" flag="0"/>
      <psa30 value="0.0033929896" flag="0"/>
    </comp>
  </station>
</stationlist>
