<?xml version="1.0" encoding="UTF-8" standalone="yes"?>
<!DOCTYPE earthquake SYSTEM "stationlist.dtd">
<stationlist created="" xmlns="ch.ethz.sed.shakemap.usgs.xml">
  <station code="AGRP" name="AGRP" netid="CL" insttype="CMG40-T" lat="38.3959" lon="21.7228">
    <comp name="00.HHE">
      <acc value="0.0287538754" flag="0"/>
      <vel value="0.0203084662" flag="0"/>
      <psa03 value="0.0699436269" flag="0"/>
      <psa10 value="0.0220191202" flag="0"/>
      <psa30 value="0.0021639344" flag="0"/>
    </comp>
    <comp name="00.HHN">
      <acc value="0.0385321595" flag="0"/>
      <vel value="0.0268077913" flag="0"/>
      <psa03 value="0.1066900493" flag="0"/>
      <psa10 value="0.0411917362" flag="0"/>
      <psa30 value="0.0031253921" flag="0"/>
    </comp>
    <comp name="00.HHZ">
      <acc value="0.0148018453" flag="0"/>
      <vel value="0.0095667083" flag="0"/>
      <psa03 value="0.0684967565" flag="0"/>
      <psa10 value="0.0222155122" flag="0"/>
      <psa30 value="0.0021968635" flag="0"/>
    </comp>
  </station>
  <station code="PSAM" name="PSAM" netid="CL" insttype="CMG40-T" lat="38.3218" lon="22.1842">
    <comp name="00.HHN">
      <acc value="0.0214494954" flag="0"/>
      <vel value="0.0153166509" flag="0"/>
      <psa03 value="0.0423898065" flag="0"/>
      <psa10 value="0.0189360392" flag="0"/>
      <psa30 value="0.0041866265" flag="0"/>
    </comp>
    <comp name="00.HHZ">
      <acc value="0.0109966813" flag="0"/>
      <vel value="0.0078416110" flag="0"/>
      <psa03 value="0.0463801740" flag="0"/>
      <psa10 value="0.0129668885" flag="0"/>
      <psa30 value="0.0017138837" flag="0"/>
    </comp>
    <comp name="00.HHE">
      <acc value="0.0244614158" flag="0"/>
      <vel value="0.0163928160" flag="0"/>
      <psa03 value="0.0658832805" flag="0"/>
      <psa10 value="0.0265112169" flag="0"/>
      <psa30 value="0.0041129160" flag="0"/>
    </comp>
  </station>
  <station code="ROD3" name="ROD3" netid="CL" insttype="CMG40-T" lat="38.3081" lon="21.892">
    <comp name="00.HHN">
      <acc value="0.2532165081" flag="0"/>
      <vel value="0.1303922646" flag="0"/>
      <psa03 value="0.9926868873" flag="0"/>
      <psa10 value="0.1062412270" flag="0"/>
      <psa30 value="0.0066034597" flag="0"/>
    </comp>
    <comp name="00.HHZ">
      <acc value="0.0974508805" flag="0"/>
      <vel value="0.0518050486" flag="0"/>
      <psa03 value="0.2615465036" flag="0"/>
      <psa10 value="0.0450061018" flag="0"/>
      <psa30 value="0.0045075636" flag="0"/>
    </comp>
    <comp name="00.HHE">
      <acc value="0.1769660436" flag="0"/>
      <vel value="0.1106232742" flag="0"/>
      <psa03 value="0.8335743180" flag="0"/>
      <psa10 value="0.0493777330" flag="0"/>
      <psa30 value="0.0065510086" flag="0"/>
    </comp>
  </station>
  <station code="TRIZ" name="TRIZ" netid="CL" insttype="STS-2" lat="38.3654" lon="22.0727">
    <comp name="00.HHZ">
      <acc value="0.0228209018" flag="0"/>
      <vel value="0.0145082513" flag="0"/>
      <psa03 value="0.0527658233" flag="0"/>
      <psa10 value="0.0182560063" flag="0"/>
      <psa30 value="0.0025854994" flag="0"/>
    </comp>
    <comp name="00.HH2">
      <acc value="0.0321028540" flag="0"/>
      <vel value="0.0324230454" flag="0"/>
      <psa03 value="0.1177917957" flag="0"/>
      <psa10 value="0.0516817687" flag="0"/>
      <psa30 value="0.0041202015" flag="0"/>
    </comp>
    <comp name="00.HH3">
      <acc value="0.0391425858" flag="0"/>
      <vel value="0.0307578863" flag="0"/>
      <psa03 value="0.1410473188" flag="0"/>
      <psa10 value="0.0518839585" flag="0"/>
      <psa30 value="0.0031913510" flag="0"/>
    </comp>
  </station>
  <station code="ZIRI" name="ZIRI" netid="CL" insttype="TRILLIUM-40" lat="38.3051" lon="21.9476">
    <comp name="01.HHZ">
      <acc value="0.1356741782" flag="0"/>
      <vel value="0.0535068008" flag="0"/>
      <psa03 value="0.3315325017" flag="0"/>
      <psa10 value="0.0273060102" flag="0"/>
      <psa30 value="0.0021652248" flag="0"/>
    </comp>
    <comp name="01.HHE">
      <acc value="0.1685314302" flag="0"/>
      <vel value="0.0954734727" flag="0"/>
      <psa03 value="0.5893132787" flag="0"/>
      <psa10 value="0.0732366641" flag="0"/>
      <psa30 value="0.0048473609" flag="0"/>
    </comp>
    <comp name="01.HHN">
      <acc value="0.1727709704" flag="0"/>
      <vel value="0.0895492515" flag="0"/>
      <psa03 value="0.4990608025" flag="0"/>
      <psa10 value="0.0440048186" flag="0"/>
      <psa30 value="0.0047987588" flag="0"/>
    </comp>
  </station>
  <station code="ACOR" name="ACOR" netid="HA" insttype="Horizon,120s,1200" lat="37.8905" lon="22.8694">
    <comp name="--.HHE">
      <acc value="0.0101813800" flag="0"/>
      <vel value="0.0132895517" flag="0"/>
      <psa03 value="0.0354901809" flag="0"/>
      <psa10 value="0.0111241455" flag="0"/>
      <psa30 value="0.0068024256" flag="0"/>
    </comp>
    <comp name="--.HHZ">
      <acc value="0.0098141200" flag="0"/>
      <vel value="0.0107395411" flag="0"/>
      <psa03 value="0.0283998963" flag="0"/>
      <psa10 value="0.0114957443" flag="0"/>
      <psa30 value="0.0065248432" flag="0"/>
    </comp>
    <comp name="--.HHN">
      <acc value="0.0101931962" flag="0"/>
      <vel value="0.0124141441" flag="0"/>
      <psa03 value="0.0254180341" flag="0"/>
      <psa10 value="0.0199735968" flag="0"/>
      <psa30 value="0.0031200788" flag="0"/>
    </comp>
  </station>
  <station code="ATHR" name="ATHR" netid="HA" insttype="GEOtiny," lat="38.3172" lon="20.4165">
    <comp name="--.HHN">
      <acc value="0.0085322313" flag="0"/>
      <vel value="0.0092679584" flag="0"/>
      <psa03 value="0.0280748442" flag="0"/>
      <psa10 value="0.0236730051" flag="0"/>
      <psa30 value="0.0025145288" flag="0"/>
    </comp>
    <comp name="--.HHZ">
      <acc value="0.0081816444" flag="0"/>
      <vel value="0.0088424498" flag="0"/>
      <psa03 value="0.0153228342" flag="0"/>
      <psa10 value="0.0215869019" flag="0"/>
      <psa30 value="0.0015582487" flag="0"/>
    </comp>
    <comp name="--.HHE">
      <acc value="0.0089570680" flag="0"/>
      <vel value="0.0143850381" flag="0"/>
      <psa03 value="0.0200957275" flag="0"/>
      <psa10 value="0.0314355416" flag="0"/>
      <psa30 value="0.0019125296" flag="0"/>
    </comp>
  </station>
  <station code="EPID" name="EPID" netid="HA" insttype="30" lat="37.6144" lon="23.1189">
    <comp name="--.HHN">
      <acc value="0.0137077159" flag="0"/>
      <vel value="0.0121180678" flag="0"/>
      <psa03 value="0.0483348893" flag="0"/>
      <psa10 value="0.0097587145" flag="0"/>
      <psa30 value="0.0037089934" flag="0"/>
    </comp>
    <comp name="--.HHE">
      <acc value="0.0175553494" flag="0"/>
      <vel value="0.0137910434" flag="0"/>
      <psa03 value="0.0308948232" flag="0"/>
      <psa10 value="0.0102941341" flag="0"/>
      <psa30 value="0.0054537416" flag="0"/>
    </comp>
    <comp name="--.HHZ">
      <acc value="0.0088228382" flag="0"/>
      <vel value="0.0127136260" flag="0"/>
      <psa03 value="0.0266409298" flag="0"/>
      <psa10 value="0.0108407307" flag="0"/>
      <psa30 value="0.0055722624" flag="0"/>
    </comp>
  </station>
  <station code="HAVD" name="HAVD" netid="HA" insttype="GEOtiny," lat="38.2036" lon="20.3848">
    <comp name="--.HHN">
      <acc value="0.0135478865" flag="0"/>
      <vel value="0.0157062388" flag="0"/>
      <psa03 value="0.0376540740" flag="0"/>
      <psa10 value="0.0291327571" flag="0"/>
      <psa30 value="0.0032043436" flag="0"/>
    </comp>
    <comp name="--.HHZ">
      <acc value="0.0092329551" flag="0"/>
      <vel value="0.0078495049" flag="0"/>
      <psa03 value="0.0283429649" flag="0"/>
      <psa10 value="0.0153448367" flag="0"/>
      <psa30 value="0.0014916867" flag="0"/>
    </comp>
    <comp name="--.HHE">
      <acc value="0.0133507561" flag="0"/>
      <vel value="0.0133171595" flag="0"/>
      <psa03 value="0.0357051865" flag="0"/>
      <psa10 value="0.0277272740" flag="0"/>
      <psa30 value="0.0025776228" flag="0"/>
    </comp>
  </station>
  <station code="KALE" name="KALE" netid="HA" insttype="40," lat="38.3911" lon="22.1398">
    <comp name="--.HHE">
      <acc value="0.0343976153" flag="0"/>
      <vel value="0.0186128703" flag="0"/>
      <psa03 value="0.1058834153" flag="0"/>
      <psa10 value="0.0206062029" flag="0"/>
      <psa30 value="0.0023084427" flag="0"/>
    </comp>
    <comp name="--.HHN">
      <acc value="0.0379175438" flag="0"/>
      <vel value="0.0210864279" flag="0"/>
      <psa03 value="0.0802550693" flag="0"/>
      <psa10 value="0.0249497289" flag="0"/>
      <psa30 value="0.0021993261" flag="0"/>
    </comp>
    <comp name="--.HHZ">
      <acc value="0.0175194837" flag="0"/>
      <vel value="0.0081119213" flag="0"/>
      <psa03 value="0.0378118519" flag="0"/>
      <psa10 value="0.0090068047" flag="0"/>
      <psa30 value="0.0022048170" flag="0"/>
    </comp>
  </station>
  <station code="LAKA" name="LAKA" netid="HA" insttype="120s," lat="38.2401" lon="21.9785">
    <comp name="--.HHE">
      <acc value="0.0357106438" flag="0"/>
      <vel value="0.0211409436" flag="0"/>
      <psa03 value="0.1177221898" flag="0"/>
      <psa10 value="0.0304966418" flag="0"/>
      <psa30 value="0.0059243245" flag="0"/>
    </comp>
    <comp name="--.HHN">
      <acc value="0.0725699899" flag="0"/>
      <vel value="0.0386062241" flag="0"/>
      <psa03 value="0.1792809616" flag="0"/>
      <psa10 value="0.0278095874" flag="0"/>
      <psa30 value="0.0033773745" flag="0"/>
    </comp>
    <comp name="--.HHZ">
      <acc value="0.0240181953" flag="0"/>
      <vel value="0.0144745651" flag="0"/>
      <psa03 value="0.0539120373" flag="0"/>
      <psa10 value="0.0202032455" flag="0"/>
      <psa30 value="0.0036173857" flag="0"/>
    </comp>
  </station>
  <station code="LOUT" name="LOUT" netid="HA" insttype="30" lat="37.9879" lon="22.9743">
    <comp name="--.HHN">
      <acc value="0.0161034264" flag="0"/>
      <vel value="0.0152729196" flag="0"/>
      <psa03 value="0.0494547635" flag="0"/>
      <psa10 value="0.0210816190" flag="0"/>
      <psa30 value="0.0037916010" flag="0"/>
    </comp>
    <comp name="--.HHE">
      <acc value="0.0196868898" flag="0"/>
      <vel value="0.0197522205" flag="0"/>
      <psa03 value="0.0514416613" flag="0"/>
      <psa10 value="0.0271943693" flag="0"/>
      <psa30 value="0.0040485254" flag="0"/>
    </comp>
    <comp name="--.HHZ">
      <acc value="0.0103311487" flag="0"/>
      <vel value="0.0085529693" flag="0"/>
      <psa03 value="0.0263844651" flag="0"/>
      <psa10 value="0.0129054950" flag="0"/>
      <psa30 value="0.0025359524" flag="0"/>
    </comp>
  </station>
  <station code="PRDM" name="PRDM" netid="HA" insttype="25" lat="38.2804" lon="22.847">
    <comp name="--.HHN">
      <acc value="0.0052562023" flag="0"/>
      <vel value="0.0035514059" flag="0"/>
      <psa03 value="0.0177100946" flag="0"/>
      <psa10 value="0.0045294049" flag="0"/>
      <psa30 value="0.0009556405" flag="0"/>
    </comp>
    <comp name="--.HHE">
      <acc value="0.0053910868" flag="0"/>
      <vel value="0.0034658030" flag="0"/>
      <psa03 value="0.0210071994" flag="0"/>
      <psa10 value="0.0064948209" flag="0"/>
      <psa30 value="0.0009704301" flag="0"/>
    </comp>
    <comp name="--.HHZ">
      <acc value="0.0026567554" flag="0"/>
      <vel value="0.0025576549" flag="0"/>
      <psa03 value="0.0067861256" flag="0"/>
      <psa10 value="0.0031862836" flag="0"/>
      <psa30 value="0.0010126722" flag="0"/>
    </comp>
  </station>
  <station code="THAL" name="THAL" netid="HA" insttype="30" lat="38.0357" lon="22.6634">
    <comp name="--.HHN">
      <acc value="0.0926180459" flag="0"/>
      <vel value="0.0617078069" flag="0"/>
      <psa03 value="0.2768099421" flag="0"/>
      <psa10 value="0.0611187750" flag="0"/>
      <psa30 value="0.0080827885" flag="0"/>
    </comp>
    <comp name="--.HHZ">
      <acc value="0.0368901642" flag="0"/>
      <vel value="0.0216377285" flag="0"/>
      <psa03 value="0.1148525177" flag="0"/>
      <psa10 value="0.0303128130" flag="0"/>
      <psa30 value="0.0063739991" flag="0"/>
    </comp>
    <comp name="--.HHE">
      <acc value="0.0760834569" flag="0"/>
      <vel value="0.0516673154" flag="0"/>
      <psa03 value="0.3102648004" flag="0"/>
      <psa10 value="0.0596725386" flag="0"/>
      <psa30 value="0.0069844511" flag="0"/>
    </comp>
  </station>
  <station code="MSL1" name="MSL1" netid="HI" insttype="CMG-5TD,ACCELEROMETER,GURALP" lat="38.3727" lon="21.4243">
    <comp name="--.HNN">
      <acc value="0.0464068966" flag="0"/>
      <vel value="0.0625148624" flag="0"/>
      <psa03 value="0.1364423275" flag="0"/>
      <psa10 value="0.1047461494" flag="0"/>
      <psa30 value="0.0107523604" flag="0"/>
    </comp>
    <comp name="--.HNE">
      <acc value="0.0496340737" flag="0"/>
      <vel value="0.0504149027" flag="0"/>
      <psa03 value="0.1316070467" flag="0"/>
      <psa10 value="0.1524854551" flag="0"/>
      <psa30 value="0.0130273398" flag="0"/>
    </comp>
    <comp name="--.HNZ">
      <acc value="0.0216095900" flag="0"/>
      <vel value="0.0271826546" flag="0"/>
      <psa03 value="0.0574735912" flag="0"/>
      <psa10 value="0.0932199883" flag="0"/>
      <psa30 value="0.0034080934" flag="0"/>
    </comp>
  </station>
  <station code="PYL1" name="PYL1" netid="HI" insttype="CMG-5TD,ACCELEROMETER,GURALP" lat="36.9142" lon="21.6952">
    <comp name="--.HNE">
      <acc value="0.1713474433" flag="0"/>
      <vel value="0.1289962799" flag="0"/>
      <psa03 value="0.2527674364" flag="0"/>
      <psa10 value="0.1034250995" flag="0"/>
      <psa30 value="0.0165912676" flag="0"/>
    </comp>
    <comp name="--.HNN">
      <acc value="0.1470904428" flag="0"/>
      <vel value="0.1005673793" flag="0"/>
      <psa03 value="0.2741107446" flag="0"/>
      <psa10 value="0.0968217310" flag="0"/>
      <psa30 value="0.0139050121" flag="0"/>
    </comp>
    <comp name="--.HNZ">
      <acc value="0.0905257953" flag="0"/>
      <vel value="0.0603055574" flag="0"/>
      <psa03 value="0.1694300596" flag="0"/>
      <psa10 value="0.0871273402" flag="0"/>
      <psa30 value="0.0045251331" flag="0"/>
    </comp>
  </station>
  <station code="ITM" name="ITM" netid="HL" insttype="DR24" lat="37.1787" lon="21.9252">
    <comp name="--.HHN">
      <acc value="0.3326176859" flag="0"/>
      <vel value="0.1370973156" flag="0"/>
      <psa03 value="0.4038887792" flag="0"/>
      <psa10 value="0.3030195546" flag="0"/>
      <psa30 value="0.0249662812" flag="0"/>
    </comp>
    <comp name="--.HHE">
      <acc value="0.2416694758" flag="0"/>
      <vel value="0.1466516835" flag="0"/>
      <psa03 value="0.2411869945" flag="0"/>
      <psa10 value="0.2170530776" flag="0"/>
      <psa30 value="0.0172386186" flag="0"/>
    </comp>
    <comp name="--.HHZ">
      <acc value="0.1999313611" flag="0"/>
      <vel value="0.1454947414" flag="0"/>
      <psa03 value="0.2344925193" flag="0"/>
      <psa10 value="0.1361493454" flag="0"/>
      <psa30 value="0.0293456944" flag="0"/>
    </comp>
  </station>
  <station code="KLV" name="KLV" netid="HL" insttype="120" lat="38.0435" lon="22.1504">
    <comp name="--.HHN">
      <acc value="0.0406917795" flag="0"/>
      <vel value="0.0238605168" flag="0"/>
      <psa03 value="0.0921114341" flag="0"/>
      <psa10 value="0.0156771965" flag="0"/>
      <psa30 value="0.0028121353" flag="0"/>
    </comp>
    <comp name="--.HHE">
      <acc value="0.0327773616" flag="0"/>
      <vel value="0.0222831023" flag="0"/>
      <psa03 value="0.0983572575" flag="0"/>
      <psa10 value="0.0144812416" flag="0"/>
      <psa30 value="0.0032831172" flag="0"/>
    </comp>
    <comp name="--.HHZ">
      <acc value="0.0411911098" flag="0"/>
      <vel value="0.0275533826" flag="0"/>
      <psa03 value="0.0986208212" flag="0"/>
      <psa10 value="0.0253628485" flag="0"/>
      <psa30 value="0.0033863503" flag="0"/>
    </comp>
  </station>
  <station code="ORTH" name="ORTH" netid="HL" insttype="30" lat="37.8511" lon="20.6963">
    <comp name="--.HHE">
      <acc value="0.0864284040" flag="0"/>
      <vel value="0.0420741963" flag="0"/>
      <psa03 value="0.1924304629" flag="0"/>
      <psa10 value="0.0403532081" flag="0"/>
      <psa30 value="0.0022029348" flag="0"/>
    </comp>
    <comp name="--.HHN">
      <acc value="0.0833998622" flag="0"/>
      <vel value="0.0378006913" flag="0"/>
      <psa03 value="0.1583014243" flag="0"/>
      <psa10 value="0.0528584760" flag="0"/>
      <psa30 value="0.0024325926" flag="0"/>
    </comp>
    <comp name="--.HHZ">
      <acc value="0.0444880787" flag="0"/>
      <vel value="0.0174529805" flag="0"/>
      <psa03 value="0.0853094325" flag="0"/>
      <psa10 value="0.0169036164" flag="0"/>
      <psa30 value="0.0020386964" flag="0"/>
    </comp>
  </station>
  <station code="PATC" name="PATC" netid="HL" insttype="CMG-5" lat="38.2693" lon="21.76">
    <comp name="00.HNE">
      <acc value="0.1884848532" flag="0"/>
      <vel value="0.1473292161" flag="0"/>
      <psa03 value="0.6596791129" flag="0"/>
      <psa10 value="0.2367803649" flag="0"/>
      <psa30 value="0.0122655852" flag="0"/>
    </comp>
    <comp name="00.HNN">
      <acc value="0.1607419759" flag="0"/>
      <vel value="0.1413877142" flag="0"/>
      <psa03 value="0.3935958041" flag="0"/>
      <psa10 value="0.1709442095" flag="0"/>
      <psa30 value="0.0116391904" flag="0"/>
    </comp>
    <comp name="00.HNZ">
      <acc value="0.0695126860" flag="0"/>
      <vel value="0.0417799257" flag="0"/>
      <psa03 value="0.2585415428" flag="0"/>
      <psa10 value="0.0907493806" flag="0"/>
      <psa30 value="0.0053316302" flag="0"/>
    </comp>
  </station>
  <station code="PATG" name="PATG" netid="HL" insttype="CMG-5" lat="38.2386" lon="21.7266">
    <comp name="00.HNN">
      <acc value="0.1637413599" flag="0"/>
      <vel value="0.0815933604" flag="0"/>
      <psa03 value="0.3858097779" flag="0"/>
      <psa10 value="0.1520841617" flag="0"/>
      <psa30 value="0.0217143422" flag="0"/>
    </comp>
    <comp name="00.HNE">
      <acc value="0.1967844694" flag="0"/>
      <vel value="0.0981940453" flag="0"/>
      <psa03 value="0.4626598500" flag="0"/>
      <psa10 value="0.1397251669" flag="0"/>
      <psa30 value="0.0240729010" flag="0"/>
    </comp>
    <comp name="00.HNZ">
      <acc value="0.0561501655" flag="0"/>
      <vel value="0.0455578233" flag="0"/>
      <psa03 value="0.1709503579" flag="0"/>
      <psa10 value="0.0749539125" flag="0"/>
      <psa30 value="0.0114403924" flag="0"/>
    </comp>
  </station>
  <station code="RLS" name="RLS" netid="HL" insttype="CMG3ESPC-120s" lat="38.0559" lon="21.4647">
    <comp name="--.HHE">
      <acc value="0.1434248477" flag="0"/>
      <vel value="0.0275697124" flag="0"/>
      <psa03 value="0.2060881537" flag="0"/>
      <psa10 value="0.0330085641" flag="0"/>
      <psa30 value="0.0032432772" flag="0"/>
    </comp>
    <comp name="--.HHN">
      <acc value="0.0986840653" flag="0"/>
      <vel value="0.0253471410" flag="0"/>
      <psa03 value="0.1311783155" flag="0"/>
      <psa10 value="0.0484344033" flag="0"/>
      <psa30 value="0.0037586756" flag="0"/>
    </comp>
    <comp name="--.HHZ">
      <acc value="0.0403195230" flag="0"/>
      <vel value="0.0209529598" flag="0"/>
      <psa03 value="0.1214625601" flag="0"/>
      <psa10 value="0.0329827639" flag="0"/>
      <psa30 value="0.0102910881" flag="0"/>
    </comp>
  </station>
  <station code="VELA" name="VELA" netid="HL" insttype="DC" lat="37.9749" lon="22.7661">
    <comp name="00.HNE">
      <acc value="0.0671360059" flag="0"/>
      <vel value="0.0608822223" flag="0"/>
      <psa03 value="0.2589547608" flag="0"/>
      <psa10 value="0.0627577286" flag="0"/>
      <psa30 value="0.0170973855" flag="0"/>
    </comp>
    <comp name="00.HNZ">
      <acc value="0.0260057834" flag="0"/>
