<?xml version="1.0" encoding="UTF-8" standalone="yes"?>
<!DOCTYPE earthquake SYSTEM "stationlist.dtd">
<stationlist created="" xmlns="ch.ethz.sed.shakemap.usgs.xml">
  <station code="AGRP" name="AGRP" netid="CL" insttype="CMG40-T" lat="38.3959" lon="21.7228">
    <comp name="00.HHE">
      <acc value="0.0287538753" flag="0"/>
      <vel value="0.0203084662" flag="0"/>
      <psa03 value="0.0699436269" flag="0"/>
      <psa10 value="0.0220191202" flag="0"/>
      <psa30 value="0.0021639346" flag="0"/>
    </comp>
    <comp name="00.HHN">
      <acc value="0.0385321595" flag="0"/>
      <vel value="0.0268077912" flag="0"/>
      <psa03 value="0.1066900493" flag="0"/>
      <psa10 value="0.0411917362" flag="0"/>
      <psa30 value="0.0031253909" flag="0"/>
    </comp>
    <comp name="00.HHZ">
      <acc value="0.0148018453" flag="0"/>
      <vel value="0.0095667075" flag="0"/>
      <psa03 value="0.0684967565" flag="0"/>
      <psa10 value="0.0222155122" flag="0"/>
      <psa30 value="0.0021968635" flag="0"/>
    </comp>
  </station>
  <station code="PSAM" name="PSAM" netid="CL" insttype="CMG40-T" lat="38.3218" lon="22.1842">
    <comp name="00.HHE">
      <acc value="0.0244614158" flag="0"/>
      <vel value="0.0163928144" flag="0"/>
      <psa03 value="0.0658832805" flag="0"/>
      <psa10 value="0.0265112169" flag="0"/>
      <psa30 value="0.0041129168" flag="0"/>
    </comp>
    <comp name="00.HHZ">
      <acc value="0.0109966813" flag="0"/>
      <vel value="0.0078416102" flag="0"/>
      <psa03 value="0.0463801740" flag="0"/>
      <psa10 value="0.0129668885" flag="0"/>
      <psa30 value="0.0017138845" flag="0"/>
    </comp>
    <comp name="00.HHN">
      <acc value="0.0214494955" flag="0"/>
      <vel value="0.0153166467" flag="0"/>
      <psa03 value="0.0423898065" flag="0"/>
      <psa10 value="0.0189360392" flag="0"/>
      <psa30 value="0.0041866268" flag="0"/>
    </comp>
  </station>
  <station code="ROD3" name="ROD3" netid="CL" insttype="CMG40-T" lat="38.3081" lon="21.892">
    <comp name="00.HHN">
      <acc value="0.2532165081" flag="0"/>
      <vel value="0.1303922629" flag="0"/>
      <psa03 value="0.9926868873" flag="0"/>
      <psa10 value="0.1062412270" flag="0"/>
      <psa30 value="0.0066034559" flag="0"/>
    </comp>
    <comp name="00.HHZ">
      <acc value="0.0974508805" flag="0"/>
      <vel value="0.0518050487" flag="0"/>
      <psa03 value="0.2615465036" flag="0"/>
      <psa10 value="0.0450061018" flag="0"/>
      <psa30 value="0.0045075575" flag="0"/>
    </comp>
    <comp name="00.HHE">
      <acc value="0.1769660436" flag="0"/>
      <vel value="0.1106232745" flag="0"/>
      <psa03 value="0.8335743180" flag="0"/>
      <psa10 value="0.0493777330" flag="0"/>
      <psa30 value="0.0065510086" flag="0"/>
    </comp>
  </station>
  <station code="TRIZ" name="TRIZ" netid="CL" insttype="STS-2" lat="38.3654" lon="22.0727">
    <comp name="00.HH3">
      <acc value="0.0391425858" flag="0"/>
      <vel value="0.0307578863" flag="0"/>
      <psa03 value="0.1410473188" flag="0"/>
      <psa10 value="0.0518839586" flag="0"/>
      <psa30 value="0.0031913509" flag="0"/>
    </comp>
    <comp name="00.HHZ">
      <acc value="0.0228209018" flag="0"/>
      <vel value="0.0145082512" flag="0"/>
      <psa03 value="0.0527658233" flag="0"/>
      <psa10 value="0.0182560063" flag="0"/>
      <psa30 value="0.0025854980" flag="0"/>
    </comp>
    <comp name="00.HH2">
      <acc value="0.0321028540" flag="0"/>
      <vel value="0.0324230453" flag="0"/>
      <psa03 value="0.1177917957" flag="0"/>
      <psa10 value="0.0516817687" flag="0"/>
      <psa30 value="0.0041202156" flag="0"/>
    </comp>
  </station>
  <station code="ZIRI" name="ZIRI" netid="CL" insttype="TRILLIUM-40" lat="38.3051" lon="21.9476">
    <comp name="01.HHZ">
      <acc value="0.1356741782" flag="0"/>
      <vel value="0.0535068008" flag="0"/>
      <psa03 value="0.3315325017" flag="0"/>
      <psa10 value="0.0273060102" flag="0"/>
      <psa30 value="0.0021652255" flag="0"/>
    </comp>
    <comp name="01.HHE">
      <acc value="0.1685314302" flag="0"/>
      <vel value="0.0954734715" flag="0"/>
      <psa03 value="0.5893132787" flag="0"/>
      <psa10 value="0.0732366641" flag="0"/>
      <psa30 value="0.0048473582" flag="0"/>
    </comp>
    <comp name="01.HHN">
      <acc value="0.1727709704" flag="0"/>
      <vel value="0.0895492529" flag="0"/>
      <psa03 value="0.4990608025" flag="0"/>
      <psa10 value="0.0440048186" flag="0"/>
      <psa30 value="0.0047987532" flag="0"/>
    </comp>
  </station>
  <station code="ACOR" name="ACOR" netid="HA" insttype="Horizon,120s,1200" lat="37.8905" lon="22.8694">
    <comp name="--.HHE">
      <acc value="0.0101813801" flag="0"/>
      <vel value="0.0132895516" flag="0"/>
      <psa03 value="0.0354901809" flag="0"/>
      <psa10 value="0.0111241455" flag="0"/>
      <psa30 value="0.0068024265" flag="0"/>
    </comp>
    <comp name="--.HHN">
      <acc value="0.0101931961" flag="0"/>
      <vel value="0.0124141442" flag="0"/>
      <psa03 value="0.0254180341" flag="0"/>
      <psa10 value="0.0199735968" flag="0"/>
      <psa30 value="0.0031200797" flag="0"/>
    </comp>
    <comp name="--.HHZ">
      <acc value="0.0098141200" flag="0"/>
      <vel value="0.0107395410" flag="0"/>
      <psa03 value="0.0283998963" flag="0"/>
      <psa10 value="0.0114957443" flag="0"/>
      <psa30 value="0.0065248439" flag="0"/>
    </comp>
  </station>
  <station code="ATHR" name="ATHR" netid="HA" insttype="GEOtiny," lat="38.3172" lon="20.4165">
    <comp name="--.HHN">
      <acc value="0.0085322321" flag="0"/>
      <vel value="0.0092685673" flag="0"/>
      <psa03 value="0.0280748439" flag="0"/>
      <psa10 value="0.0236730048" flag="0"/>
      <psa30 value="0.0025145465" flag="0"/>
    </comp>
    <comp name="--.HHZ">
      <acc value="0.0081816446" flag="0"/>
      <vel value="0.0088425824" flag="0"/>
      <psa03 value="0.0153228341" flag="0"/>
      <psa10 value="0.0215869018" flag="0"/>
      <psa30 value="0.0015582476" flag="0"/>
    </comp>
    <comp name="--.HHE">
      <acc value="0.0089570687" flag="0"/>
      <vel value="0.0143854629" flag="0"/>
      <psa03 value="0.0200957274" flag="0"/>
      <psa10 value="0.0314355417" flag="0"/>
      <psa30 value="0.0019125234" flag="0"/>
    </comp>
  </station>
  <station code="EPID" name="EPID" netid="HA" insttype="30" lat="37.6144" lon="23.1189">
    <comp name="--.HHZ">
      <acc value="0.0088228379" flag="0"/>
      <vel value="0.0127136273" flag="0"/>
      <psa03 value="0.0266409298" flag="0"/>
      <psa10 value="0.0108407307" flag="0"/>
      <psa30 value="0.0055722632" flag="0"/>
    </comp>
    <comp name="--.HHE">
      <acc value="0.0175553493" flag="0"/>
      <vel value="0.0137910410" flag="0"/>
      <psa03 value="0.0308948232" flag="0"/>
      <psa10 value="0.0102941341" flag="0"/>
      <psa30 value="0.0054537424" flag="0"/>
    </comp>
    <comp name="--.HHN">
      <acc value="0.0137077161" flag="0"/>
      <vel value="0.0121180675" flag="0"/>
      <psa03 value="0.0483348893" flag="0"/>
      <psa10 value="0.0097587145" flag="0"/>
      <psa30 value="0.0037089933" flag="0"/>
    </comp>
  </station>
  <station code="HAVD" name="HAVD" netid="HA" insttype="GEOtiny," lat="38.2036" lon="20.3848">
    <comp name="--.HHE">
      <acc value="0.0133507563" flag="0"/>
      <vel value="0.0133171889" flag="0"/>
      <psa03 value="0.0357051863" flag="0"/>
      <psa10 value="0.0277272742" flag="0"/>
      <psa30 value="0.0025776325" flag="0"/>
    </comp>
    <comp name="--.HHZ">
      <acc value="0.0092329558" flag="0"/>
      <vel value="0.0078491485" flag="0"/>
      <psa03 value="0.0283429649" flag="0"/>
      <psa10 value="0.0153448367" flag="0"/>
      <psa30 value="0.0014916901" flag="0"/>
    </comp>
    <comp name="--.HHN">
      <acc value="0.0135478856" flag="0"/>
      <vel value="0.0157057290" flag="0"/>
      <psa03 value="0.0376540742" flag="0"/>
      <psa10 value="0.0291327568" flag="0"/>
      <psa30 value="0.0032043356" flag="0"/>
    </comp>
  </station>
  <station code="KALE" name="KALE" netid="HA" insttype="40," lat="38.3911" lon="22.1398">
    <comp name="--.HHN">
      <acc value="0.0379175438" flag="0"/>
      <vel value="0.0210864312" flag="0"/>
      <psa03 value="0.0802550693" flag="0"/>
      <psa10 value="0.0249497289" flag="0"/>
      <psa30 value="0.0021993243" flag="0"/>
    </comp>
    <comp name="--.HHE">
      <acc value="0.0343976152" flag="0"/>
      <vel value="0.0186128699" flag="0"/>
      <psa03 value="0.1058834153" flag="0"/>
      <psa10 value="0.0206062029" flag="0"/>
      <psa30 value="0.0023084405" flag="0"/>
    </comp>
    <comp name="--.HHZ">
      <acc value="0.0175194836" flag="0"/>
      <vel value="0.0081119214" flag="0"/>
      <psa03 value="0.0378118519" flag="0"/>
      <psa10 value="0.0090068047" flag="0"/>
      <psa30 value="0.0022048155" flag="0"/>
    </comp>
  </station>
  <station code="LAKA" name="LAKA" netid="HA" insttype="120s," lat="38.2401" lon="21.9785">
    <comp name="--.HHE">
      <acc value="0.0357106438" flag="0"/>
      <vel value="0.0211409441" flag="0"/>
      <psa03 value="0.1177221898" flag="0"/>
      <psa10 value="0.0304966419" flag="0"/>
      <psa30 value="0.0059243261" flag="0"/>
    </comp>
    <comp name="--.HHN">
      <acc value="0.0725699900" flag="0"/>
      <vel value="0.0386062245" flag="0"/>
      <psa03 value="0.1792809616" flag="0"/>
      <psa10 value="0.0278095871" flag="0"/>
      <psa30 value="0.0033773740" flag="0"/>
    </comp>
    <comp name="--.HHZ">
      <acc value="0.0240181953" flag="0"/>
      <vel value="0.0144745651" flag="0"/>
      <psa03 value="0.0539120373" flag="0"/>
      <psa10 value="0.0202032455" flag="0"/>
      <psa30 value="0.0036173855" flag="0"/>
    </comp>
  </station>
  <station code="LOUT" name="LOUT" netid="HA" insttype="30" lat="37.9879" lon="22.9743">
    <comp name="--.HHE">
      <acc value="0.0196868899" flag="0"/>
      <vel value="0.0197522189" flag="0"/>
      <psa03 value="0.0514416613" flag="0"/>
      <psa10 value="0.0271943693" flag="0"/>
      <psa30 value="0.0040485243" flag="0"/>
    </comp>
    <comp name="--.HHN">
      <acc value="0.0161034265" flag="0"/>
      <vel value="0.0152729241" flag="0"/>
      <psa03 value="0.0494547635" flag="0"/>
      <psa10 value="0.0210816190" flag="0"/>
      <psa30 value="0.0037916000" flag="0"/>
    </comp>
    <comp name="--.HHZ">
      <acc value="0.0103311487" flag="0"/>
      <vel value="0.0085529679" flag="0"/>
      <psa03 value="0.0263844651" flag="0"/>
      <psa10 value="0.0129054950" flag="0"/>
      <psa30 value="0.0025359504" flag="0"/>
    </comp>
  </station>
  <station code="PRDM" name="PRDM" netid="HA" insttype="25" lat="38.2804" lon="22.847">
    <comp name="--.HHE">
      <acc value="0.0053910868" flag="0"/>
      <vel value="0.0034658027" flag="0"/>
      <psa03 value="0.0210071994" flag="0"/>
      <psa10 value="0.0064948209" flag="0"/>
      <psa30 value="0.0009704226" flag="0"/>
    </comp>
    <comp name="--.HHN">
      <acc value="0.0052562023" flag="0"/>
      <vel value="0.0035514065" flag="0"/>
      <psa03 value="0.0177100946" flag="0"/>
      <psa10 value="0.0045294049" flag="0"/>
      <psa30 value="0.0009556427" flag="0"/>
    </comp>
    <comp name="--.HHZ">
      <acc value="0.0026567553" flag="0"/>
      <vel value="0.0025576571" flag="0"/>
      <psa03 value="0.0067861256" flag="0"/>
      <psa10 value="0.0031862836" flag="0"/>
      <psa30 value="0.0010126784" flag="0"/>
    </comp>
  </station>
  <station code="THAL" name="THAL" netid="HA" insttype="30" lat="38.0357" lon="22.6634">
    <comp name="--.HHE">
      <acc value="0.0760834569" flag="0"/>
      <vel value="0.0516673163" flag="0"/>
      <psa03 value="0.3102648004" flag="0"/>
      <psa10 value="0.0596725386" flag="0"/>
      <psa30 value="0.0069844540" flag="0"/>
    </comp>
    <comp name="--.HHN">
      <acc value="0.0926180458" flag="0"/>
      <vel value="0.0617078075" flag="0"/>
      <psa03 value="0.2768099421" flag="0"/>
      <psa10 value="0.0611187750" flag="0"/>
      <psa30 value="0.0080827892" flag="0"/>
    </comp>
    <comp name="--.HHZ">
      <acc value="0.0368901643" flag="0"/>
      <vel value="0.0216377278" flag="0"/>
      <psa03 value="0.1148525177" flag="0"/>
      <psa10 value="0.0303128130" flag="0"/>
      <psa30 value="0.0063739992" flag="0"/>
    </comp>
  </station>
  <station code="MSL1" name="MSL1" netid="HI" insttype="CMG-5TD,ACCELEROMETER,GURALP" lat="38.3727" lon="21.4243">
    <comp name="--.HNE">
      <acc value="0.0496340736" flag="0"/>
      <vel value="0.0504149030" flag="0"/>
      <psa03 value="0.1316070467" flag="0"/>
      <psa10 value="0.1524854551" flag="0"/>
      <psa30 value="0.0130273408" flag="0"/>
    </comp>
    <comp name="--.HNZ">
      <acc value="0.0216095897" flag="0"/>
      <vel value="0.0271826544" flag="0"/>
      <psa03 value="0.0574735912" flag="0"/>
      <psa10 value="0.0932199883" flag="0"/>
      <psa30 value="0.0034080934" flag="0"/>
    </comp>
    <comp name="--.HNN">
      <acc value="0.0464068966" flag="0"/>
      <vel value="0.0625148624" flag="0"/>
      <psa03 value="0.1364423275" flag="0"/>
      <psa10 value="0.1047461494" flag="0"/>
      <psa30 value="0.0107523631" flag="0"/>
    </comp>
  </station>
  <station code="ITM" name="ITM" netid="HL" insttype="DR24" lat="37.1787" lon="21.9252">
    <comp name="--.HHN">
      <acc value="0.3326176857" flag="0"/>
      <vel value="0.1370973155" flag="0"/>
      <psa03 value="0.4038887792" flag="0"/>
      <psa10 value="0.3030195544" flag="0"/>
      <psa30 value="0.0249662738" flag="0"/>
    </comp>
    <comp name="--.HHE">
      <acc value="0.2416694758" flag="0"/>
      <vel value="0.1466516829" flag="0"/>
      <psa03 value="0.2411869945" flag="0"/>
      <psa10 value="0.2170530779" flag="0"/>
      <psa30 value="0.0172386122" flag="0"/>
    </comp>
    <comp name="--.HHZ">
      <acc value="0.1999313611" flag="0"/>
      <vel value="0.1454947413" flag="0"/>
      <psa03 value="0.2344925193" flag="0"/>
      <psa10 value="0.1361493450" flag="0"/>
      <psa30 value="0.0293457931" flag="0"/>
    </comp>
  </station>
  <station code="KLV" name="KLV" netid="HL" insttype="120" lat="38.0435" lon="22.1504">
    <comp name="--.HHE">
      <acc value="0.0327773616" flag="0"/>
      <vel value="0.0222831024" flag="0"/>
      <psa03 value="0.0983572575" flag="0"/>
      <psa10 value="0.0144812416" flag="0"/>
      <psa30 value="0.0032831163" flag="0"/>
    </comp>
    <comp name="--.HHN">
      <acc value="0.0406917795" flag="0"/>
      <vel value="0.0238605169" flag="0"/>
      <psa03 value="0.0921114341" flag="0"/>
      <psa10 value="0.0156771966" flag="0"/>
      <psa30 value="0.0028121351" flag="0"/>
    </comp>
    <comp name="--.HHZ">
      <acc value="0.0411911098" flag="0"/>
      <vel value="0.0275533829" flag="0"/>
      <psa03 value="0.0986208212" flag="0"/>
      <psa10 value="0.0253628485" flag="0"/>
      <psa30 value="0.0033863510" flag="0"/>
    </comp>
  </station>
  <station code="ORTH" name="ORTH" netid="HL" insttype="30" lat="37.8511" lon="20.6963">
    <comp name="--.HHE">
      <acc value="0.0864284041" flag="0"/>
      <vel value="0.0420742010" flag="0"/>
      <psa03 value="0.1924304629" flag="0"/>
      <psa10 value="0.0403532081" flag="0"/>
      <psa30 value="0.0022029074" flag="0"/>
    </comp>
    <comp name="--.HHN">
      <acc value="0.0833998621" flag="0"/>
      <vel value="0.0378006950" flag="0"/>
      <psa03 value="0.1583014243" flag="0"/>
      <psa10 value="0.0528584760" flag="0"/>
      <psa30 value="0.0024326016" flag="0"/>
    </comp>
    <comp name="--.HHZ">
      <acc value="0.0444880788" flag="0"/>
      <vel value="0.0174529851" flag="0"/>
      <psa03 value="0.0853094324" flag="0"/>
      <psa10 value="0.0169036164" flag="0"/>
      <psa30 value="0.0020386989" flag="0"/>
    </comp>
  </station>
  <station code="PATC" name="PATC" netid="HL" insttype="CMG-5" lat="38.2693" lon="21.76">
    <comp name="00.HNE">
      <acc value="0.1884848532" flag="0"/>
      <vel value="0.1473292161" flag="0"/>
      <psa03 value="0.6596791129" flag="0"/>
      <psa10 value="0.2367803649" flag="0"/>
      <psa30 value="0.0122655853" flag="0"/>
    </comp>
    <comp name="00.HNN">
      <acc value="0.1607419759" flag="0"/>
      <vel value="0.1413877142" flag="0"/>
      <psa03 value="0.3935958041" flag="0"/>
      <psa10 value="0.1709442095" flag="0"/>
      <psa30 value="0.0116391901" flag="0"/>
    </comp>
    <comp name="00.HNZ">
      <acc value="0.0695126860" flag="0"/>
      <vel value="0.0417799255" flag="0"/>
      <psa03 value="0.2585415428" flag="0"/>
      <psa10 value="0.0907493806" flag="0"/>
      <psa30 value="0.0053316178" flag="0"/>
    </comp>
  </station>
  <station code="PATG" name="PATG" netid="HL" insttype="CMG-5" lat="38.2386" lon="21.7266">
    <comp name="00.HNE">
      <acc value="0.1967844694" flag="0"/>
      <vel value="0.0981940451" flag="0"/>
      <psa03 value="0.4626598500" flag="0"/>
      <psa10 value="0.1397251669" flag="0"/>
      <psa30 value="0.0240728964" flag="0"/>
    </comp>
    <comp name="00.HNZ">
      <acc value="0.0561501655" flag="0"/>
      <vel value="0.0455578232" flag="0"/>
      <psa03 value="0.1709503579" flag="0"/>
      <psa10 value="0.0749539125" flag="0"/>
      <psa30 value="0.0114403918" flag="0"/>
    </comp>
    <comp name="00.HNN">
      <acc value="0.1637413599" flag="0"/>
      <vel value="0.0815933604" flag="0"/>
      <psa03 value="0.3858097779" flag="0"/>
      <psa10 value="0.1520841617" flag="0"/>
      <psa30 value="0.0217143428" flag="0"/>
    </comp>
  </station>
  <station code="RLS" name="RLS" netid="HL" insttype="CMG3ESPC-120s" lat="38.0559" lon="21.4647">
    <comp name="--.HHN">
      <acc value="0.0986840652" flag="0"/>
      <vel value="0.0253471409" flag="0"/>
      <psa03 value="0.1311783155" flag="0"/>
      <psa10 value="0.0484344034" flag="0"/>
      <psa30 value="0.0037586755" flag="0"/>
    </comp>
    <comp name="--.HHE">
      <acc value="0.1434248477" flag="0"/>
      <vel value="0.0275697125" flag="0"/>
      <psa03 value="0.2060881537" flag="0"/>
      <psa10 value="0.0330085641" flag="0"/>
      <psa30 value="0.0032432773" flag="0"/>
    </comp>
    <comp name="--.HHZ">
      <acc value="0.0403195230" flag="0"/>
      <vel value="0.0209529602" flag="0"/>
      <psa03 value="0.1214625601" flag="0"/>
      <psa10 value="0.0329827639" flag="0"/>
      <psa30 value="0.0102910876" flag="0"/>
    </comp>
  </station>
  <station code="VELA" name="VELA" netid="HL" insttype="DC" lat="37.9749" lon="22.7661">
    <comp name="00.HNN">
      <acc value="0.0689386968" flag="0"/>
      <vel value="0.0767857329" flag="0"/>
      <psa03 value="0.2628359581" flag="0"/>
      <psa10 value="0.1048257295" flag="0"/>
      <psa30 value="0.0207434571" flag="0"/>
    </comp>
    <comp name="00.HNE">
      <acc value="0.0671360057" flag="0"/>
      <vel value="0.0608822232" flag="0"/>
      <psa03 value="0.2589547608" flag="0"/>
      <psa10 value="0.0627577286" flag="0"/>
      <psa30 value="0.0170973748" flag="0"/>
    </comp>
    <comp name="00.HNZ">
      <acc value="0.0260057830" flag="0"/>
      <vel value="0.0339679007" flag="0"/>
      <psa03 value="0.0830587367" flag="0"/>
      <psa10 value="0.0371095672" flag="0"/>
      <psa30 value="0.0127566086" flag="0"/>
    </comp>
  </station>
  <station code="AMT" name="AMT" netid="HP" insttype="CMG-3T," lat="37.5324" lon="21.7089">
    <comp name="00.HHN">
      <acc value="1.2308227905" flag="0"/>
      <vel value="0.5156766863" flag="0"/>
      <psa03 value="1.8332952148" flag="0"/>
      <psa10 value="0.4105280705" flag="0"/>
      <psa30 value="0.0272369187" flag="0"/>
    </comp>
    <comp name="00.HHE">
      <acc value="0.8839168791" flag="0"/>
      <vel value="0.3801323653" flag="0"/>
