<?xml version="1.0" encoding="UTF-8" standalone="yes"?>
<!DOCTYPE earthquake SYSTEM "stationlist.dtd">
<stationlist created="" xmlns="ch.ethz.sed.shakemap.usgs.xml">
  <station code="TRIZ" name="TRIZ" netid="CL" source="RESIF" insttype="generation" lat="38.3654" lon="22.0727">
    <comp name="00.HHZ">
      <acc value="0.0104044644" flag="0"/>
      <vel value="0.0058041979" flag="0"/>
      <psa03 value="0.0142820063" flag="0"/>
      <psa10 value="0.0073125387" flag="0"/>
      <psa30 value="0.0009979493" flag="0"/>
    </comp>
  </station>
  <station code="KALE" name="KALE" netid="HA" source="NOA" insttype="120" lat="38.3911" lon="22.1398">
    <comp name="--.HHE">
      <acc value="0.0177038884" flag="0"/>
      <vel value="0.0084976181" flag="0"/>
      <psa03 value="0.0505255381" flag="0"/>
      <psa10 value="0.0075192944" flag="0"/>
      <psa30 value="0.0005462047" flag="0"/>
    </comp>
    <comp name="--.HHN">
      <acc value="0.0220971199" flag="0"/>
      <vel value="0.0111251768" flag="0"/>
      <psa03 value="0.0413286650" flag="0"/>
      <psa10 value="0.0081705748" flag="0"/>
      <psa30 value="0.0013166628" flag="0"/>
    </comp>
    <comp name="--.HHZ">
      <acc value="0.0134080925" flag="0"/>
      <vel value="0.0063228919" flag="0"/>
      <psa03 value="0.0244134423" flag="0"/>
      <psa10 value="0.0057987584" flag="0"/>
      <psa30 value="0.0006872122" flag="0"/>
    </comp>
  </station>
  <station code="ALNA" name="ALNA" netid="HL" source="NOA" insttype="CMG-5" lat="39.148" lon="23.8667">
    <comp name="00.HNE">
      <acc value="0.0231683349" flag="0"/>
      <vel value="0.0132204635" flag="0"/>
      <psa03 value="0.0472643476" flag="0"/>
      <psa10 value="0.0228401664" flag="0"/>
      <psa30 value="0.0009992103" flag="0"/>
    </comp>
    <comp name="00.HNN">
      <acc value="0.0188518325" flag="0"/>
      <vel value="0.0133412346" flag="0"/>
      <psa03 value="0.0730306190" flag="0"/>
      <psa10 value="0.0139882167" flag="0"/>
      <psa30 value="0.0012767436" flag="0"/>
    </comp>
    <comp name="00.HNZ">
      <acc value="0.0136901960" flag="0"/>
      <vel value="0.0074327279" flag="0"/>
      <psa03 value="0.0395553982" flag="0"/>
      <psa10 value="0.0076869856" flag="0"/>
      <psa30 value="0.0006971605" flag="0"/>
    </comp>
  </station>
  <station code="EVR" name="EVR" netid="HL" source="NOA" insttype="DR24" lat="38.9166" lon="21.8105">
    <comp name="--.HHE">
      <acc value="0.0281894953" flag="0"/>
      <vel value="0.0134002098" flag="0"/>
      <psa03 value="0.0430144875" flag="0"/>
      <psa10 value="0.0173452063" flag="0"/>
      <psa30 value="0.0011155320" flag="0"/>
    </comp>
    <comp name="--.HHN">
      <acc value="0.0300103888" flag="0"/>
      <vel value="0.0108063883" flag="0"/>
      <psa03 value="0.0599959611" flag="0"/>
      <psa10 value="0.0133996187" flag="0"/>
      <psa30 value="0.0009296472" flag="0"/>
    </comp>
    <comp name="--.HHZ">
      <acc value="0.0215986132" flag="0"/>
      <vel value="0.0092281997" flag="0"/>
      <psa03 value="0.0425148170" flag="0"/>
      <psa10 value="0.0128248604" flag="0"/>
      <psa30 value="0.0008104268" flag="0"/>
    </comp>
  </station>
  <station code="LKR" name="LKR" netid="HL" source="NOA" insttype="30" lat="38.6496" lon="22.9989">
    <comp name="--.HHE">
      <acc value="0.0495394598" flag="0"/>
      <vel value="0.0112041702" flag="0"/>
      <psa03 value="0.0288814968" flag="0"/>
      <psa10 value="0.0043459468" flag="0"/>
      <psa30 value="0.0007066694" flag="0"/>
    </comp>
    <comp name="--.HHN">
      <acc value="0.0271333631" flag="0"/>
      <vel value="0.0064812402" flag="0"/>
      <psa03 value="0.0383866599" flag="0"/>
      <psa10 value="0.0054577426" flag="0"/>
      <psa30 value="0.0005496299" flag="0"/>
    </comp>
    <comp name="--.HHZ">
      <acc value="0.0194053453" flag="0"/>
      <vel value="0.0062976692" flag="0"/>
      <psa03 value="0.0169096324" flag="0"/>
      <psa10 value="0.0038091916" flag="0"/>
      <psa30 value="0.0008159540" flag="0"/>
    </comp>
  </station>
  <station code="NEO" name="NEO" netid="HL" source="NOA" insttype="120" lat="39.3057" lon="23.2219">
    <comp name="--.HHE">
      <acc value="0.1406032606" flag="0"/>
      <vel value="0.0450637193" flag="0"/>
      <psa03 value="0.3103120885" flag="0"/>
      <psa10 value="0.0152058179" flag="0"/>
      <psa30 value="0.0013808290" flag="0"/>
    </comp>
    <comp name="--.HHN">
      <acc value="0.1526011650" flag="0"/>
      <vel value="0.0431444783" flag="0"/>
      <psa03 value="0.3164298423" flag="0"/>
      <psa10 value="0.0299390048" flag="0"/>
      <psa30 value="0.0020234122" flag="0"/>
    </comp>
    <comp name="--.HHZ">
      <acc value="0.1007462630" flag="0"/>
      <vel value="0.0371198630" flag="0"/>
      <psa03 value="0.1691405596" flag="0"/>
      <psa10 value="0.0110663353" flag="0"/>
      <psa30 value="0.0011069264" flag="0"/>
    </comp>
  </station>
  <station code="THL" name="THL" netid="HL" source="NOA" insttype="120" lat="39.5647" lon="22.0144">
    <comp name="--.HHE">
      <acc value="0.0660180134" flag="0"/>
      <vel value="0.0332424815" flag="0"/>
      <psa03 value="0.1079511872" flag="0"/>
      <psa10 value="0.0155976313" flag="0"/>
      <psa30 value="0.0010924446" flag="0"/>
    </comp>
    <comp name="--.HHN">
      <acc value="0.0665864407" flag="0"/>
      <vel value="0.0433033893" flag="0"/>
      <psa03 value="0.1288983618" flag="0"/>
      <psa10 value="0.0276459978" flag="0"/>
      <psa30 value="0.0017604786" flag="0"/>
    </comp>
    <comp name="--.HHZ">
      <acc value="0.0511545156" flag="0"/>
      <vel value="0.0157998796" flag="0"/>
      <psa03 value="0.0860673081" flag="0"/>
      <psa10 value="0.0158408961" flag="0"/>
      <psa30 value="0.0007747499" flag="0"/>
    </comp>
  </station>
  <station code="ANX" name="ANX" netid="HP" source="NOA" insttype="120" lat="38.5933" lon="21.9209">
    <comp name="--.HHN">
      <acc value="0.0482882870" flag="0"/>
      <vel value="0.0244777294" flag="0"/>
      <psa03 value="0.2171190727" flag="0"/>
      <psa10 value="0.0248633235" flag="0"/>
      <psa30 value="0.0012243115" flag="0"/>
    </comp>
    <comp name="--.HHE">
      <acc value="0.2225597617" flag="0"/>
      <vel value="0.0213881126" flag="0"/>
      <psa03 value="0.0810278627" flag="0"/>
      <psa10 value="0.0146765785" flag="0"/>
      <psa30 value="0.0008786487" flag="0"/>
    </comp>
    <comp name="--.HHZ">
      <acc value="0.0300419947" flag="0"/>
      <vel value="0.0142441415" flag="0"/>
      <psa03 value="0.0897237946" flag="0"/>
      <psa10 value="0.0140208133" flag="0"/>
      <psa30 value="0.0008859105" flag="0"/>
    </comp>
  </station>
  <station code="SERG" name="SERG" netid="HP" source="NOA" insttype="120" lat="38.4133" lon="22.0566">
    <comp name="--.HHE">
      <acc value="0.0337750888" flag="0"/>
      <vel value="0.0113954699" flag="0"/>
      <psa03 value="0.0587038135" flag="0"/>
      <psa10 value="0.0053297495" flag="0"/>
      <psa30 value="0.0005120962" flag="0"/>
    </comp>
    <comp name="--.HHN">
      <acc value="0.0250934665" flag="0"/>
      <vel value="0.0147672847" flag="0"/>
      <psa03 value="0.0432075479" flag="0"/>
      <psa10 value="0.0097328272" flag="0"/>
      <psa30 value="0.0008906095" flag="0"/>
    </comp>
  </station>
  <station code="AGG" name="AGG" netid="HT" source="GFZ" insttype="CMG-3ESP/90" lat="39.0211" lon="22.336">
    <comp name="--.HHE">
      <acc value="0.1596073972" flag="0"/>
      <vel value="0.0615685754" flag="0"/>
      <psa03 value="0.2374428896" flag="0"/>
      <psa10 value="0.0515612858" flag="0"/>
      <psa30 value="0.0027078830" flag="0"/>
    </comp>
    <comp name="--.HHN">
      <acc value="0.1288020320" flag="0"/>
      <vel value="0.0435933426" flag="0"/>
      <psa03 value="0.2431327735" flag="0"/>
      <psa10 value="0.0513095560" flag="0"/>
      <psa30 value="0.0033869945" flag="0"/>
    </comp>
    <comp name="--.HHZ">
      <acc value="0.1152722961" flag="0"/>
      <vel value="0.0356217772" flag="0"/>
      <psa03 value="0.2256721732" flag="0"/>
      <psa10 value="0.0355557310" flag="0"/>
      <psa30 value="0.0040807329" flag="0"/>
    </comp>
  </station>
  <station code="LIT" name="LIT" netid="HT" source="GFZ" insttype="CMG-3ESP/90" lat="40.1003" lon="22.489">
    <comp name="--.HHE">
      <acc value="0.0000000000" flag="0"/>
      <vel value="0.0000000000" flag="0"/>
    </comp>
    <comp name="--.HHN">
      <acc value="0.0000000000" flag="0"/>
      <vel value="0.0000000000" flag="0"/>
    </comp>
    <comp name="--.HHZ">
      <acc value="0.0205548570" flag="0"/>
      <vel value="0.0121845521" flag="0"/>
      <psa03 value="0.0730216786" flag="0"/>
      <psa10 value="0.0062801033" flag="0"/>
      <psa30 value="0.0010196000" flag="0"/>
    </comp>
  </station>
  <station code="PAIG" name="PAIG" netid="HT" source="GFZ" insttype="CMG-3ESP/90" lat="39.9363" lon="23.6768">
    <comp name="--.HHE">
      <acc value="0.0038010318" flag="0"/>
      <vel value="0.0033496369" flag="0"/>
      <psa03 value="0.0103359403" flag="0"/>
      <psa10 value="0.0022814251" flag="0"/>
      <psa30 value="0.0002893365" flag="0"/>
    </comp>
    <comp name="--.HHN">
      <acc value="0.0043350108" flag="0"/>
      <vel value="0.0027094323" flag="0"/>
      <psa03 value="0.0102695232" flag="0"/>
      <psa10 value="0.0051165108" flag="0"/>
      <psa30 value="0.0004797211" flag="0"/>
    </comp>
    <comp name="--.HHZ">
      <acc value="0.0028036306" flag="0"/>
      <vel value="0.0017538470" flag="0"/>
      <psa03 value="0.0056928660" flag="0"/>
      <psa10 value="0.0023495360" flag="0"/>
      <psa30 value="0.0002527233" flag="0"/>
    </comp>
  </station>
  <station code="XOR" name="XOR" netid="HT" source="GFZ" insttype="CMG-3ESP/90" lat="39.366" lon="23.192">
    <comp name="--.HHE">
      <acc value="0.1230575865" flag="0"/>
      <vel value="0.0469978648" flag="0"/>
      <psa03 value="0.3142856192" flag="0"/>
      <psa10 value="0.0259909829" flag="0"/>
      <psa30 value="0.0015751305" flag="0"/>
    </comp>
    <comp name="--.HHN">
      <acc value="0.1660983216" flag="0"/>
      <vel value="0.0698992721" flag="0"/>
      <psa03 value="0.3709581048" flag="0"/>
      <psa10 value="0.0350896905" flag="0"/>
      <psa30 value="0.0020244688" flag="0"/>
    </comp>
    <comp name="--.HHZ">
      <acc value="0.0671774406" flag="0"/>
      <vel value="0.0341808038" flag="0"/>
      <psa03 value="0.1580004138" flag="0"/>
      <psa10 value="0.0178691841" flag="0"/>
      <psa30 value="0.0022761370" flag="0"/>
    </comp>
  </station>
</stationlist>
