<stationlist xmlns:esm="https://esm-db.eu/esmws/shakemap/1/" created="1780538060">
	<station code="AGR2" name="AGR2" netid="HI" source="ITSAK Strong Motion Network" insttype="" lat="38.631903" lon="21.413578" esm:processing="automatic (Paolucci et al 2011)" esm:quality="best">
		<comp name="--.HNE" depth="0.0">
			<acc value="0.0350303194754001" flag="0"/>
			<vel value="0.0191493009176759" flag="0"/>
			<psa03 value="0.0784429725036169" flag="0"/>
			<psa10 value="0.0305244195929919" flag="0"/>
			<psa30 value="0.00408488018659814" flag="0"/>
		</comp>
		<comp name="--.HNN" depth="0.0">
			<acc value="0.0277082479773616" flag="0"/>
			<vel value="0.0190576210747922" flag="0"/>
			<psa03 value="0.0662534358399694" flag="0"/>
			<psa10 value="0.0212977133689869" flag="0"/>
			<psa30 value="0.00334970169296434" flag="0"/>
		</comp>
		<comp name="--.HNZ" depth="0.0">
			<acc value="0.0216231653679764" flag="0"/>
			<vel value="0.0110856760406465" flag="0"/>
			<psa03 value="0.0291714637163051" flag="0"/>
			<psa10 value="0.0182404864677088" flag="0"/>
			<psa30 value="0.00234728216259007" flag="0"/>
		</comp>
	</station>
	<station code="AKR1" name="AKR1" netid="HI" source="ITSAK Strong Motion Network" insttype="" lat="38.153583" lon="22.31326" esm:processing="automatic (Paolucci et al 2011)" esm:quality="best">
		<comp name="--.HNE" depth="0.0">
			<acc value="0.00787041464716342" flag="0"/>
			<vel value="0.00367006871769457" flag="0"/>
			<psa03 value="0.0220229146391786" flag="0"/>
			<psa10 value="0.00459481891545295" flag="0"/>
			<psa30 value="0.00085512050170319" flag="0"/>
		</comp>
		<comp name="--.HNN" depth="0.0">
			<acc value="0.00765350989341795" flag="0"/>
			<vel value="0.00443583032835984" flag="0"/>
			<psa03 value="0.0275614273717989" flag="0"/>
			<psa10 value="0.00679410054456736" flag="0"/>
			<psa30 value="0.000888123833845306" flag="0"/>
		</comp>
		<comp name="--.HNZ" depth="0.0">
			<acc value="0.00383177282039007" flag="0"/>
			<vel value="0.00274946675393872" flag="0"/>
			<psa03 value="0.00646345291161775" flag="0"/>
			<psa10 value="0.00469249226083272" flag="0"/>
			<psa30 value="0.000533651758059944" flag="0"/>
		</comp>
	</station>
	<station code="ART2" name="ART2" netid="HI" source="ITSAK Strong Motion Network" insttype="" lat="39.1474" lon="20.9937" esm:processing="manual (Paolucci et al 2011)" esm:quality="bad">
		<comp name="--.HNE" depth="0.0">
			<acc value="0.00565913522943222" flag="0"/>
			<vel value="0.00349574947521437" flag="0"/>
			<psa03 value="0.0106433059782382" flag="0"/>
			<psa10 value="0.00441236042223248" flag="0"/>
			<psa30 value="0.000252475475261109" flag="0"/>
		</comp>
		<comp name="--.HNN" depth="0.0">
			<acc value="0.00509878436847747" flag="0"/>
			<vel value="0.00423476294470561" flag="0"/>
			<psa03 value="0.0135777458131768" flag="0"/>
			<psa10 value="0.0064759585317152" flag="0"/>
			<psa30 value="0.000486804644250028" flag="0"/>
		</comp>
		<comp name="--.HNZ" depth="0.0">
			<acc value="0.00339235464676289" flag="0"/>
			<vel value="0.00258258689064173" flag="0"/>
			<psa03 value="0.00879335920958562" flag="0"/>
			<psa10 value="0.00406017834189632" flag="0"/>
			<psa30 value="0.000513274001883805" flag="0"/>
		</comp>
	</station>
	<station code="AST1" name="AST1" netid="HI" source="ITSAK Strong Motion Network" insttype="" lat="38.5416" lon="21.0895" esm:processing="automatic (Paolucci et al 2011)" esm:quality="best">
		<comp name="--.HNE" depth="0.0">
			<acc value="0.0114468713526454" flag="0"/>
			<vel value="0.00851409341898899" flag="0"/>
			<psa03 value="0.0173535115641412" flag="0"/>
			<psa10 value="0.013259298675964" flag="0"/>
			<psa30 value="0.000589718857646795" flag="0"/>
		</comp>
		<comp name="--.HNN" depth="0.0">
			<acc value="0.0141402701213805" flag="0"/>
			<vel value="0.0105546314046752" flag="0"/>
			<psa03 value="0.0329390492378555" flag="0"/>
			<psa10 value="0.0136886589939779" flag="0"/>
			<psa30 value="0.000831659207924286" flag="0"/>
		</comp>
		<comp name="--.HNZ" depth="0.0">
			<acc value="0.00556689035905515" flag="0"/>
			<vel value="0.00452064709730989" flag="0"/>
			<psa03 value="0.0153774093028979" flag="0"/>
			<psa10 value="0.00752314743409581" flag="0"/>
			<psa30 value="0.000441393146379702" flag="0"/>
		</comp>
	</station>
	<station code="FRS1" name="FRS1" netid="HI" source="ITSAK Strong Motion Network" insttype="" lat="39.2934" lon="22.3844" esm:processing="automatic (Paolucci et al 2011)" esm:quality="best">
		<comp name="--.HNE" depth="0.0">
			<acc value="0.27556655646267" flag="0"/>
			<vel value="0.082196325613712" flag="0"/>
			<psa03 value="0.573642000967275" flag="0"/>
			<psa10 value="0.0426748569998389" flag="0"/>
			<psa30 value="0.00259383537053008" flag="0"/>
		</comp>
		<comp name="--.HNN" depth="0.0">
			<acc value="0.293786509771943" flag="0"/>
			<vel value="0.107798436969612" flag="0"/>
			<psa03 value="0.439366439203632" flag="0"/>
			<psa10 value="0.0532650823002909" flag="0"/>
			<psa30 value="0.00652021401551231" flag="0"/>
		</comp>
		<comp name="--.HNZ" depth="0.0">
			<acc value="0.278456863555026" flag="0"/>
			<vel value="0.0881169913307835" flag="0"/>
			<psa03 value="0.375324696752495" flag="0"/>
			<psa10 value="0.0366981760740596" flag="0"/>
			<psa30 value="0.00429966274822208" flag="0"/>
		</comp>
	</station>
	<station code="GRE3" name="GRE3" netid="HI" source="ITSAK Strong Motion Network" insttype="" lat="40.08481" lon="21.43829" esm:processing="automatic (Paolucci et al 2011)" esm:quality="best">
		<comp name="--.HNE" depth="0.0">
			<acc value="0.00757366813630398" flag="0"/>
			<vel value="0.00794171680794905" flag="0"/>
			<psa03 value="0.0229671334390402" flag="0"/>
			<psa10 value="0.00992084251962795" flag="0"/>
			<psa30 value="0.00101940523892743" flag="0"/>
		</comp>
		<comp name="--.HNN" depth="0.0">
			<acc value="0.00796142085791323" flag="0"/>
			<vel value="0.00797533761353312" flag="0"/>
			<psa03 value="0.0289380524206189" flag="0"/>
			<psa10 value="0.0109459635538654" flag="0"/>
			<psa30 value="0.00136822824257282" flag="0"/>
		</comp>
		<comp name="--.HNZ" depth="0.0">
			<acc value="0.00561277986238811" flag="0"/>
			<vel value="0.00521230411684404" flag="0"/>
			<psa03 value="0.013774161168494" flag="0"/>
			<psa10 value="0.00625537735680009" flag="0"/>
			<psa30 value="0.00083175983959064" flag="0"/>
		</comp>
	</station>
	<station code="JAN2" name="JAN2" netid="HI" source="ITSAK Strong Motion Network" insttype="" lat="39.664" lon="20.85222" esm:processing="manual (Paolucci et al 2011)" esm:quality="good">
		<comp name="--.HNE" depth="0.0">
			<acc value="0.0131103412321506" flag="0"/>
			<vel value="0.00878339299002171" flag="0"/>
			<psa03 value="0.0369913723718754" flag="0"/>
			<psa10 value="0.00631440486083254" flag="0"/>
			<psa30 value="0.000471020421541279" flag="0"/>
		</comp>
		<comp name="--.HNN" depth="0.0">
			<acc value="0.012426700124312" flag="0"/>
			<vel value="0.00802746090489839" flag="0"/>
			<psa03 value="0.0423471464364557" flag="0"/>
			<psa10 value="0.00583125613585068" flag="0"/>
			<psa30 value="0.000502409532165808" flag="0"/>
		</comp>
		<comp name="--.HNZ" depth="0.0">
			<acc value="0.00518256303314478" flag="0"/>
			<vel value="0.00308833545821093" flag="0"/>
			<psa03 value="0.0135273974257738" flag="0"/>
			<psa10 value="0.0025972143964573" flag="0"/>
			<psa30 value="0.000449392009598467" flag="0"/>
		</comp>
	</station>
	<station code="KAC1" name="KAC1" netid="HI" source="ITSAK Strong Motion Network" insttype="" lat="38.143412" lon="21.549694" esm:processing="manual (Paolucci et al 2011)" esm:quality="good">
		<comp name="--.HNE" depth="0.0">
			<acc value="0.0113593966958276" flag="0"/>
			<vel value="0.0065812611400852" flag="0"/>
			<psa03 value="0.0285849300696629" flag="0"/>
			<psa10 value="0.00898838449886034" flag="0"/>
			<psa30 value="0.00136361533282352" flag="0"/>
		</comp>
		<comp name="--.HNN" depth="0.0">
			<acc value="0.0130505588049303" flag="0"/>
			<vel value="0.00986046272196117" flag="0"/>
			<psa03 value="0.0314786634319631" flag="0"/>
			<psa10 value="0.0110987055472729" flag="0"/>
			<psa30 value="0.00139889266977396" flag="0"/>
		</comp>
		<comp name="--.HNZ" depth="0.0">
			<acc value="0.00505063122163746" flag="0"/>
			<vel value="0.00299287025027824" flag="0"/>
			<psa03 value="0.0156069427375281" flag="0"/>
			<psa10 value="0.00454098644306585" flag="0"/>
			<psa30 value="0.000758226895477307" flag="0"/>
		</comp>
	</station>
	<station code="KLR1" name="KLR1" netid="HI" source="ITSAK Strong Motion Network" insttype="" lat="40.58251" lon="22.949554" esm:processing="manual (Paolucci et al 2011)" esm:quality="good">
		<comp name="--.HNE" depth="0.0">
			<acc value="0.00565984145490584" flag="0"/>
			<vel value="0.00423789554382791" flag="0"/>
			<psa03 value="0.0260234661144135" flag="0"/>
			<psa10 value="0.00761222333493708" flag="0"/>
			<psa30 value="0.00116326976924651" flag="0"/>
		</comp>
		<comp name="--.HNN" depth="0.0">
			<acc value="0.00566854252948249" flag="0"/>
			<vel value="0.00487663017817827" flag="0"/>
			<psa03 value="0.0163092001961383" flag="0"/>
			<psa10 value="0.00797366665378308" flag="0"/>
			<psa30 value="0.00107212039771465" flag="0"/>
		</comp>
		<comp name="--.HNZ" depth="0.0">
			<acc value="0.00577350147233638" flag="0"/>
			<vel value="0.00288602219948722" flag="0"/>
			<psa03 value="0.0189123973847595" flag="0"/>
			<psa10 value="0.00364382880765052" flag="0"/>
			<psa30 value="0.000638006483548361" flag="0"/>
		</comp>
	</station>
	<station code="KLV1" name="KLV1" netid="HI" source="ITSAK Strong Motion Network" insttype="" lat="38.03256" lon="22.10797" esm:processing="manual (Paolucci et al 2011)" esm:quality="bad">
		<comp name="--.HNE" depth="0.0">
			<acc value="0.00689032239443176" flag="0"/>
			<vel value="0.00417878823154417" flag="0"/>
			<psa03 value="0.0236848736941354" flag="0"/>
			<psa10 value="0.00442774581642983" flag="0"/>
			<psa30 value="0.000292760956476705" flag="0"/>
		</comp>
		<comp name="--.HNN" depth="0.0">
			<acc value="0.0080619056577384" flag="0"/>
			<vel value="0.00468041143943079" flag="0"/>
			<psa03 value="0.0352760790546005" flag="0"/>
			<psa10 value="0.00407887192401046" flag="0"/>
			<psa30 value="0.000297652139868377" flag="0"/>
		</comp>
		<comp name="--.HNZ" depth="0.0">
			<acc value="0.0040141013324943" flag="0"/>
			<vel value="0.00204486728895185" flag="0"/>
			<psa03 value="0.00879410079519518" flag="0"/>
			<psa10 value="0.0027452575629655" flag="0"/>
			<psa30 value="0.000387269300523711" flag="0"/>
		</comp>
	</station>
	<station code="KMV1" name="KMV1" netid="HI" source="ITSAK Strong Motion Network" insttype="" lat="38.7794" lon="22.7846" esm:processing="automatic (Paolucci et al 2011)" esm:quality="best">
		<comp name="--.HNE" depth="0.0">
			<acc value="0.125906766568822" flag="0"/>
			<vel value="0.0484503609465201" flag="0"/>
			<psa03 value="0.248348722717381" flag="0"/>
			<psa10 value="0.0504995628481997" flag="0"/>
			<psa30 value="0.00214321406074651" flag="0"/>
		</comp>
		<comp name="--.HNN" depth="0.0">
			<acc value="0.112738254009024" flag="0"/>
			<vel value="0.0589197027263847" flag="0"/>
			<psa03 value="0.294455777083451" flag="0"/>
			<psa10 value="0.0587201974248956" flag="0"/>
			<psa30 value="0.0025331509338173" flag="0"/>
		</comp>
		<comp name="--.HNZ" depth="0.0">
			<acc value="0.0578672654224636" flag="0"/>
			<vel value="0.0217133694198787" flag="0"/>
			<psa03 value="0.0833693457266655" flag="0"/>
			<psa10 value="0.0213618463674833" flag="0"/>
			<psa30 value="0.00187139292893055" flag="0"/>
		</comp>
	</station>
	<station code="KOR2" name="KOR2" netid="HI" source="ITSAK Strong Motion Network" insttype="" lat="37.9401" lon="22.9495" esm:processing="manual (Paolucci et al 2011)" esm:quality="good">
		<comp name="--.HNE" depth="0.0">
			<acc value="0.00730303593495343" flag="0"/>
			<vel value="0.00622254334011461" flag="0"/>
			<psa03 value="0.0159315475743388" flag="0"/>
			<psa10 value="0.0131360448860053" flag="0"/>
			<psa30 value="0.00132482463813037" flag="0"/>
		</comp>
		<comp name="--.HNN" depth="0.0">
			<acc value="0.00699926822641843" flag="0"/>
			<vel value="0.00717132987787907" flag="0"/>
			<psa03 value="0.019955193027353" flag="0"/>
			<psa10 value="0.0132919942793873" flag="0"/>
			<psa30 value="0.000997599627746039" flag="0"/>
		</comp>
		<comp name="--.HNZ" depth="0.0">
			<acc value="0.00476722920306676" flag="0"/>
			<vel value="0.00478714892566599" flag="0"/>
			<psa03 value="0.0106384371661265" flag="0"/>
			<psa10 value="0.00967789767572435" flag="0"/>
			<psa30 value="0.000725360082795602" flag="0"/>
		</comp>
	</station>
	<station code="KOZ2" name="KOZ2" netid="HI" source="ITSAK Strong Motion Network" insttype="" lat="40.295728" lon="21.788123" esm:processing="manual (Paolucci et al 2011)" esm:quality="good">
		<comp name="--.HNE" depth="0.0">
			<acc value="0.0166642660326634" flag="0"/>
			<vel value="0.00979747866206241" flag="0"/>
			<psa03 value="0.0524049299027493" flag="0"/>
			<psa10 value="0.0103919946686455" flag="0"/>
			<psa30 value="0.000759380409391943" flag="0"/>
		</comp>
		<comp name="--.HNN" depth="0.0">
			<acc value="0.0180463799247009" flag="0"/>
			<vel value="0.00796593609640117" flag="0"/>
			<psa03 value="0.0494556564028542" flag="0"/>
			<psa10 value="0.00772183559621144" flag="0"/>
			<psa30 value="0.00101510526657537" flag="0"/>
		</comp>
		<comp name="--.HNZ" depth="0.0">
			<acc value="0.00670248257420054" flag="0"/>
			<vel value="0.00380165590626965" flag="0"/>
			<psa03 value="0.0226969306435977" flag="0"/>
			<psa10 value="0.0051273959148154" flag="0"/>
			<psa30 value="0.000755061842058051" flag="0"/>
		</comp>
	</station>
	<station code="KYM1" name="KYM1" netid="HI" source="ITSAK Strong Motion Network" insttype="" lat="38.633885" lon="24.10568" esm:processing="manual (Paolucci et al 2011)" esm:quality="good">
		<comp name="--.HNE" depth="0.0">
			<acc value="0.011906390686691" flag="0"/>
			<vel value="0.00660833732653803" flag="0"/>
			<psa03 value="0.0300754689147128" flag="0"/>
			<psa10 value="0.00407138174030899" flag="0"/>
			<psa30 value="0.000360253448356255" flag="0"/>
		</comp>
		<comp name="--.HNN" depth="0.0">
			<acc value="0.0128171353538367" flag="0"/>
			<vel value="0.00740061628609467" flag="0"/>
			<psa03 value="0.0323847781451159" flag="0"/>
			<psa10 value="0.00649576546883274" flag="0"/>
			<psa30 value="0.000340377496255307" flag="0"/>
		</comp>
		<comp name="--.HNZ" depth="0.0">
			<acc value="0.00442539608657622" flag="0"/>
			<vel value="0.00299296591261455" flag="0"/>
			<psa03 value="0.0118975654990741" flag="0"/>
			<psa10 value="0.00448356076389643" flag="0"/>
			<psa30 value="0.000278001124543475" flag="0"/>
		</comp>
	</station>
	<station code="LAM2" name="LAM2" netid="HI" source="ITSAK Strong Motion Network" insttype="" lat="38.90203" lon="22.431301" esm:processing="manual (Paolucci et al 2011)" esm:quality="best">
		<comp name="--.HNE" depth="0.0">
			<acc value="0.137054842151077" flag="0"/>
			<vel value="0.0508004695215546" flag="0"/>
			<psa03 value="0.214807333974323" flag="0"/>
			<psa10 value="0.0394747066331026" flag="0"/>
			<psa30 value="0.00256193875096224" flag="0"/>
		</comp>
		<comp name="--.HNN" depth="0.0">
			<acc value="0.177543676109031" flag="0"/>
			<vel value="0.0744744258729489" flag="0"/>
			<psa03 value="0.408854284077767" flag="0"/>
			<psa10 value="0.0568302085803302" flag="0"/>
			<psa30 value="0.00366528156616882" flag="0"/>
		</comp>
		<comp name="--.HNZ" depth="0.0">
			<acc value="0.194467451191545" flag="0"/>
			<vel value="0.0477575400332185" flag="0"/>
			<psa03 value="0.156060816684532" flag="0"/>
			<psa10 value="0.0434733176385776" flag="0"/>
			<psa30 value="0.00370644439625763" flag="0"/>
		</comp>
	</station>
	<station code="LAR4" name="LAR4" netid="HI" source="ITSAK Strong Motion Network" insttype="" lat="39.6422" lon="22.4219" esm:processing="manual (Paolucci et al 2011)" esm:quality="good">
		<comp name="--.HNE" depth="0.0">
			<acc value="0.327760879054408" flag="0"/>
			<vel value="0.223968053927762" flag="0"/>
			<psa03 value="1.08231703152494" flag="0"/>
			<psa10 value="0.193879608572556" flag="0"/>
			<psa30 value="0.0137655360658733" flag="0"/>
		</comp>
		<comp name="--.HNN" depth="0.0">
			<acc value="0.407303457087591" flag="0"/>
			<vel value="0.206835950118984" flag="0"/>
			<psa03 value="0.910033368577789" flag="0"/>
			<psa10 value="0.288641741098768" flag="0"/>
			<psa30 value="0.0144539141675441" flag="0"/>
		</comp>
		<comp name="--.HNZ" depth="0.0">
			<acc value="0.204007281555788" flag="0"/>
			<vel value="0.0783075200910469" flag="0"/>
			<psa03 value="0.42248423750729" flag="0"/>
			<psa10 value="0.0933275799941466" flag="0"/>
			<psa30 value="0.0113364684854007" flag="0"/>
		</comp>
	</station>
	<station code="LMS2" name="LMS2" netid="HI" source="ITSAK Strong Motion Network" insttype="" lat="40.834985" lon="21.141815" esm:processing="manual (Paolucci et al 2011)" esm:quality="good">
		<comp name="--.HNE" depth="0.0">
			<acc value="0.00284662705418555" flag="0"/>
			<vel value="0.00183322113163474" flag="0"/>
			<psa03 value="0.00650260068723636" flag="0"/>
			<psa10 value="0.00212455628830229" flag="0"/>
			<psa30 value="0.000170586313526948" flag="0"/>
		</comp>
		<comp name="--.HNN" depth="0.0">
			<acc value="0.0031541870852477" flag="0"/>
			<vel value="0.00258749322783584" flag="0"/>
			<psa03 value="0.00711770393484414" flag="0"/>
			<psa10 value="0.00435586105441807" flag="0"/>
			<psa30 value="0.000196818025207203" flag="0"/>
		</comp>
		<comp name="--.HNZ" depth="0.0">
			<acc value="0.00224592057888237" flag="0"/>
			<vel value="0.00179638672017907" flag="0"/>
			<psa03 value="0.00374124783930933" flag="0"/>
			<psa10 value="0.00454297219963211" flag="0"/>
			<psa30 value="0.000193838270521598" flag="0"/>
		</comp>
	</station>
	<station code="MSL1" name="MSL1" netid="HI" source="ITSAK Strong Motion Network" insttype="" lat="38.3727" lon="21.4243" esm:processing="manual (Paolucci et al 2011)" esm:quality="best">
		<comp name="--.HNE" depth="0.0">
			<acc value="0.0105331825882898" flag="0"/>
			<vel value="0.0137028359594243" flag="0"/>
			<psa03 value="0.0301425619009485" flag="0"/>
			<psa10 value="0.0251043449146413" flag="0"/>
			<psa30 value="0.00262474637656767" flag="0"/>
		</comp>
		<comp name="--.HNN" depth="0.0">
			<acc value="0.0168974441077187" flag="0"/>
			<vel value="0.016566124321569" flag="0"/>
			<psa03 value="0.0549584688540082" flag="0"/>
			<psa10 value="0.0278958310869111" flag="0"/>
			<psa30 value="0.00229626565799581" flag="0"/>
		</comp>
		<comp name="--.HNZ" depth="0.0">
			<acc value="0.0091683687324149" flag="0"/>
			<vel value="0.00830611787701924" flag="0"/>
			<psa03 value="0.0239597278393814" flag="0"/>
			<psa10 value="0.0204985841805991" flag="0"/>
			<psa30 value="0.000852117906961132" flag="0"/>
		</comp>
	</station>
	<station code="PLN1" name="PLN1" netid="HI" source="ITSAK Strong Motion Network" insttype="" lat="39.998" lon="23.575" esm:processing="manual (Paolucci et al 2011)" esm:quality="best">
		<comp name="--.HNE" depth="0.0">
			<acc value="0.00977097843597943" flag="0"/>
			<vel value="0.00839212729298475" flag="0"/>
			<psa03 value="0.0257267688055063" flag="0"/>
			<psa10 value="0.0163528290969121" flag="0"/>
			<psa30 value="0.0011261613405819" flag="0"/>
		</comp>
		<comp name="--.HNN" depth="0.0">
			<acc value="0.00772203258962791" flag="0"/>
			<vel value="0.00848806698701142" flag="0"/>
			<psa03 value="0.0187917267796741" flag="0"/>
			<psa10 value="0.0141944650496467" flag="0"/>
			<psa30 value="0.00158163700395591" flag="0"/>
		</comp>
		<comp name="--.HNZ" depth="0.0">
			<acc value="0.00510567132826657" flag="0"/>
			<vel value="0.00514487797993866" flag="0"/>
			<psa03 value="0.0115882315141324" flag="0"/>
