<?xml version="1.0" encoding="UTF-8" standalone="yes"?>
<!DOCTYPE earthquake SYSTEM "stationlist.dtd">
<stationlist created="" xmlns="ch.ethz.sed.shakemap.usgs.xml">
  <station code="ALAN" name="ALAN" netid="KO" insttype="CMG-5T" lat="36.557" lon="32.0327">
    <comp name="--.HNE">
      <acc value="0.0990920105" flag="0"/>
      <vel value="0.0284726652" flag="0"/>
      <psa03 value="0.1688760333" flag="0"/>
      <psa10 value="0.0183881698" flag="0"/>
      <psa30 value="0.0009988014" flag="0"/>
    </comp>
    <comp name="--.HNN">
      <acc value="0.1384973717" flag="0"/>
      <vel value="0.0453470572" flag="0"/>
      <psa03 value="0.3486619166" flag="0"/>
      <psa10 value="0.0167041805" flag="0"/>
      <psa30 value="0.0018026033" flag="0"/>
    </comp>
    <comp name="--.HNZ">
      <acc value="0.0615535020" flag="0"/>
      <vel value="0.0128796160" flag="0"/>
      <psa03 value="0.0696344048" flag="0"/>
      <psa10 value="0.0090269808" flag="0"/>
      <psa30 value="0.0007349431" flag="0"/>
    </comp>
  </station>
  <station code="BOZY" name="BOZY" netid="KO" insttype="CMG-5T" lat="36.1069" lon="32.9763">
    <comp name="--.HNZ">
      <acc value="0.0789543232" flag="0"/>
      <vel value="0.0153469569" flag="0"/>
      <psa03 value="0.0487998020" flag="0"/>
      <psa10 value="0.0082844807" flag="0"/>
      <psa30 value="0.0004529465" flag="0"/>
    </comp>
    <comp name="--.HNE">
      <acc value="0.1538185024" flag="0"/>
      <vel value="0.0308197947" flag="0"/>
      <psa03 value="0.0974964475" flag="0"/>
      <psa10 value="0.0094031697" flag="0"/>
      <psa30 value="0.0006784930" flag="0"/>
    </comp>
    <comp name="--.HNN">
      <acc value="0.2081908600" flag="0"/>
      <vel value="0.0392931857" flag="0"/>
      <psa03 value="0.1428884338" flag="0"/>
      <psa10 value="0.0120838635" flag="0"/>
      <psa30 value="0.0011630178" flag="0"/>
    </comp>
  </station>
  <station code="HDMB" name="HDMB" netid="KO" insttype="CMG-3T" lat="36.9638" lon="32.4857">
    <comp name="--.HHE">
      <acc value="0.0404781836" flag="0"/>
      <vel value="0.0158764835" flag="0"/>
      <psa03 value="0.1012768704" flag="0"/>
      <psa10 value="0.0170402083" flag="0"/>
      <psa30 value="0.0006212874" flag="0"/>
    </comp>
    <comp name="--.HHN">
      <acc value="0.0385626522" flag="0"/>
      <vel value="0.0165691902" flag="0"/>
      <psa03 value="0.0963446930" flag="0"/>
      <psa10 value="0.0169320055" flag="0"/>
      <psa30 value="0.0009835902" flag="0"/>
    </comp>
    <comp name="--.HHZ">
      <acc value="0.0183329221" flag="0"/>
      <vel value="0.0133605027" flag="0"/>
      <psa03 value="0.0572040693" flag="0"/>
      <psa10 value="0.0129020214" flag="0"/>
      <psa30 value="0.0006559891" flag="0"/>
    </comp>
  </station>
  <station code="LMOS" name="LMOS" netid="KO" insttype="CMG-6T" lat="36.6021" lon="32.6962">
    <comp name="--.HHZ">
      <acc value="0.0414246991" flag="0"/>
      <vel value="0.0157413606" flag="0"/>
      <psa03 value="0.0548295918" flag="0"/>
      <psa10 value="0.0049802673" flag="0"/>
      <psa30 value="0.0004350154" flag="0"/>
    </comp>
    <comp name="--.HHN">
      <acc value="0.0325744265" flag="0"/>
      <vel value="0.0087538912" flag="0"/>
      <psa03 value="0.0576228017" flag="0"/>
      <psa10 value="0.0043002988" flag="0"/>
      <psa30 value="0.0003988497" flag="0"/>
    </comp>
    <comp name="--.HHE">
      <acc value="0.0185307220" flag="0"/>
      <vel value="0.0083803383" flag="0"/>
      <psa03 value="0.0772820704" flag="0"/>
      <psa10 value="0.0050837237" flag="0"/>
      <psa30 value="0.0003680208" flag="0"/>
    </comp>
  </station>
</stationlist>
