<?xml version="1.0" encoding="UTF-8" standalone="yes"?>
<!DOCTYPE earthquake SYSTEM "stationlist.dtd">
<stationlist created="" xmlns="ch.ethz.sed.shakemap.usgs.xml">
  <station code="ALAN" name="ALAN" netid="KO" insttype="CMG-5T" lat="36.557" lon="32.0327">
    <comp name="--.HNE">
      <acc value="0.0990920014" flag="0"/>
      <vel value="0.0284726516" flag="0"/>
      <psa03 value="0.1688760333" flag="0"/>
      <psa10 value="0.0183881705" flag="0"/>
      <psa30 value="0.0009978427" flag="0"/>
    </comp>
    <comp name="--.HNN">
      <acc value="0.1384973747" flag="0"/>
      <vel value="0.0453470670" flag="0"/>
      <psa03 value="0.3486619166" flag="0"/>
      <psa10 value="0.0167041781" flag="0"/>
      <psa30 value="0.0018006030" flag="0"/>
    </comp>
    <comp name="--.HNZ">
      <acc value="0.0615534322" flag="0"/>
      <vel value="0.0128796133" flag="0"/>
      <psa03 value="0.0696344048" flag="0"/>
      <psa10 value="0.0090269803" flag="0"/>
      <psa30 value="0.0007837460" flag="0"/>
    </comp>
  </station>
  <station code="BOZY" name="BOZY" netid="KO" insttype="CMG-5T" lat="36.1069" lon="32.9763">
    <comp name="--.HNE">
      <acc value="0.1538183974" flag="0"/>
      <vel value="0.0308198046" flag="0"/>
      <psa03 value="0.0974964476" flag="0"/>
      <psa10 value="0.0094031703" flag="0"/>
      <psa30 value="0.0006781686" flag="0"/>
    </comp>
    <comp name="--.HNN">
      <acc value="0.2081906771" flag="0"/>
      <vel value="0.0392931909" flag="0"/>
      <psa03 value="0.1428884338" flag="0"/>
      <psa10 value="0.0120838630" flag="0"/>
      <psa30 value="0.0011622987" flag="0"/>
    </comp>
    <comp name="--.HNZ">
      <acc value="0.0789542497" flag="0"/>
      <vel value="0.0153469553" flag="0"/>
      <psa03 value="0.0487998020" flag="0"/>
      <psa10 value="0.0082844802" flag="0"/>
      <psa30 value="0.0004540562" flag="0"/>
    </comp>
  </station>
  <station code="HDMB" name="HDMB" netid="KO" insttype="CMG-3T" lat="36.9638" lon="32.4857">
    <comp name="--.HHN">
      <acc value="0.0385626528" flag="0"/>
      <vel value="0.0165691905" flag="0"/>
      <psa03 value="0.0963446930" flag="0"/>
      <psa10 value="0.0169320055" flag="0"/>
      <psa30 value="0.0009835545" flag="0"/>
    </comp>
    <comp name="--.HHZ">
      <acc value="0.0183329218" flag="0"/>
      <vel value="0.0133605031" flag="0"/>
      <psa03 value="0.0572040693" flag="0"/>
      <psa10 value="0.0129020214" flag="0"/>
      <psa30 value="0.0006559557" flag="0"/>
    </comp>
    <comp name="--.HHE">
      <acc value="0.0404781835" flag="0"/>
      <vel value="0.0158764836" flag="0"/>
      <psa03 value="0.1012768704" flag="0"/>
      <psa10 value="0.0170402083" flag="0"/>
      <psa30 value="0.0006213206" flag="0"/>
    </comp>
  </station>
  <station code="LMOS" name="LMOS" netid="KO" insttype="CMG-6T" lat="36.6021" lon="32.6962">
    <comp name="--.HHE">
      <acc value="0.0185307169" flag="0"/>
      <vel value="0.0083803409" flag="0"/>
      <psa03 value="0.0772820704" flag="0"/>
      <psa10 value="0.0050837237" flag="0"/>
      <psa30 value="0.0003680260" flag="0"/>
    </comp>
    <comp name="--.HHN">
      <acc value="0.0325744369" flag="0"/>
      <vel value="0.0087538916" flag="0"/>
      <psa03 value="0.0576228017" flag="0"/>
      <psa10 value="0.0043002988" flag="0"/>
      <psa30 value="0.0003988595" flag="0"/>
    </comp>
    <comp name="--.HHZ">
      <acc value="0.0414246981" flag="0"/>
      <vel value="0.0157413603" flag="0"/>
      <psa03 value="0.0548295918" flag="0"/>
      <psa10 value="0.0049802673" flag="0"/>
      <psa30 value="0.0004349870" flag="0"/>
    </comp>
  </station>
</stationlist>
