<?xml version="1.0" encoding="UTF-8" standalone="yes"?>
<!DOCTYPE earthquake SYSTEM "stationlist.dtd">
<stationlist created="" xmlns="ch.ethz.sed.shakemap.usgs.xml">
  <station code="ARPRA" name="ARPRA" netid="KO" insttype="CMG-5T" lat="39.0929" lon="38.3356">
    <comp name="--.HNE">
      <acc value="0.0277276170" flag="0"/>
      <vel value="0.0133367153" flag="0"/>
      <psa03 value="0.0643609826" flag="0"/>
      <psa10 value="0.0196626491" flag="0"/>
      <psa30 value="0.0011582849" flag="0"/>
    </comp>
    <comp name="--.HNZ">
      <acc value="0.0125001401" flag="0"/>
      <vel value="0.0061463472" flag="0"/>
      <psa03 value="0.0352312969" flag="0"/>
      <psa10 value="0.0046876388" flag="0"/>
      <psa30 value="0.0003262808" flag="0"/>
    </comp>
    <comp name="--.HNN">
      <acc value="0.0371499223" flag="0"/>
      <vel value="0.0225341826" flag="0"/>
      <psa03 value="0.0979562177" flag="0"/>
      <psa10 value="0.0127697650" flag="0"/>
      <psa30 value="0.0011423248" flag="0"/>
    </comp>
  </station>
  <station code="DARE" name="DARE" netid="KO" insttype="CMG-3ESP" lat="38.5712" lon="37.4832">
    <comp name="--.HHZ">
      <acc value="0.0025158422" flag="0"/>
      <vel value="0.0018247254" flag="0"/>
      <psa03 value="0.0085459035" flag="0"/>
      <psa10 value="0.0029825880" flag="0"/>
      <psa30 value="0.0002059551" flag="0"/>
    </comp>
  </station>
  <station code="SVRC" name="SVRC" netid="KO" insttype="CMG-3T" lat="38.3775" lon="39.306">
    <comp name="--.HHZ">
      <acc value="0.0278662475" flag="0"/>
      <vel value="0.0102469889" flag="0"/>
      <psa03 value="0.0253045444" flag="0"/>
      <psa10 value="0.0051057463" flag="0"/>
      <psa30 value="0.0005430407" flag="0"/>
    </comp>
  </station>
  <station code="URFA" name="URFA" netid="KO" insttype="CMG-3ESP" lat="37.4409" lon="38.8213">
    <comp name="--.HHN">
      <acc value="0.0239256866" flag="0"/>
      <vel value="0.0079188215" flag="0"/>
      <psa03 value="0.0305412111" flag="0"/>
      <psa10 value="0.0058028476" flag="0"/>
      <psa30 value="0.0006161902" flag="0"/>
    </comp>
    <comp name="--.HHE">
      <acc value="0.0295103255" flag="0"/>
      <vel value="0.0085029609" flag="0"/>
      <psa03 value="0.0222066133" flag="0"/>
      <psa10 value="0.0070870324" flag="0"/>
      <psa30 value="0.0009013631" flag="0"/>
    </comp>
    <comp name="--.HHZ">
      <acc value="0.0284237929" flag="0"/>
      <vel value="0.0073689012" flag="0"/>
      <psa03 value="0.0199839946" flag="0"/>
      <psa10 value="0.0055642595" flag="0"/>
      <psa30 value="0.0005223622" flag="0"/>
    </comp>
  </station>
</stationlist>
