<?xml version="1.0" encoding="UTF-8" standalone="yes"?>
<!DOCTYPE earthquake SYSTEM "stationlist.dtd">
<stationlist created="" xmlns="ch.ethz.sed.shakemap.usgs.xml">
  <station code="KMRS" name="KMRS" netid="KO" insttype="CMG-3T" lat="37.5053" lon="36.9">
    <comp name="--.HHN">
      <acc value="0.0045957743" flag="0"/>
      <vel value="0.0022899857" flag="0"/>
      <psa03 value="0.0093889731" flag="0"/>
      <psa10 value="0.0017185417" flag="0"/>
      <psa30 value="0.0005647898" flag="0"/>
    </comp>
    <comp name="--.HHZ">
      <acc value="0.0035068592" flag="0"/>
      <vel value="0.0012819402" flag="0"/>
      <psa03 value="0.0055092291" flag="0"/>
      <psa10 value="0.0010941805" flag="0"/>
      <psa30 value="0.0003279986" flag="0"/>
    </comp>
  </station>
  <station code="ANDN" name="ANDN" netid="TU" insttype="T" lat="37.58" lon="36.3452">
    <comp name="--.HHZ">
      <acc value="0.0416457191" flag="0"/>
      <vel value="0.0224478004" flag="0"/>
      <psa03 value="0.0758501679" flag="0"/>
      <psa10 value="0.0422560775" flag="0"/>
      <psa30 value="0.0018340558" flag="0"/>
    </comp>
    <comp name="--.HHN">
      <acc value="0.1049206319" flag="0"/>
      <vel value="0.0334728414" flag="0"/>
      <psa03 value="0.2645795373" flag="0"/>
      <psa10 value="0.0377091908" flag="0"/>
      <psa30 value="0.0018579885" flag="0"/>
    </comp>
    <comp name="--.HHE">
      <acc value="0.0798433820" flag="0"/>
      <vel value="0.0345889450" flag="0"/>
      <psa03 value="0.1363513380" flag="0"/>
      <psa10 value="0.0350635432" flag="0"/>
      <psa30 value="0.0021040002" flag="0"/>
    </comp>
  </station>
</stationlist>
