<?xml version="1.0" encoding="UTF-8" standalone="yes"?>
<!DOCTYPE earthquake SYSTEM "stationlist.dtd">
<stationlist created="" xmlns="ch.ethz.sed.shakemap.usgs.xml">
  <station code="LSK" name="LSK" netid="AC" insttype="" lat="40.1499" lon="20.5987">
    <comp name="--.HHN">
      <acc value="0.0464927530" flag="0"/>
      <vel value="0.0733673111" flag="0"/>
      <psa03 value="0.0680512355" flag="0"/>
      <psa10 value="0.1385189740" flag="0"/>
      <psa30 value="0.0296962131" flag="0"/>
    </comp>
    <comp name="--.HHE">
      <acc value="17.9993715308" flag="0"/>
      <vel value="0.8360271211" flag="0"/>
      <psa03 value="1.5570915331" flag="0"/>
      <psa10 value="0.5318010066" flag="0"/>
      <psa30 value="0.1077772245" flag="0"/>
    </comp>
    <comp name="--.HHZ">
      <acc value="0.0261814208" flag="0"/>
      <vel value="0.0497268276" flag="0"/>
      <psa03 value="0.0447041871" flag="0"/>
      <psa10 value="0.0740487878" flag="0"/>
      <psa30 value="0.0233779461" flag="0"/>
    </comp>
  </station>
  <station code="VLO" name="VLO" netid="AC" insttype="" lat="40.4686" lon="19.4955">
    <comp name="--.HHN">
      <acc value="0.0299886797" flag="0"/>
      <vel value="0.0364866364" flag="0"/>
      <psa03 value="0.0821944434" flag="0"/>
      <psa10 value="0.0414749965" flag="0"/>
      <psa30 value="0.0156389365" flag="0"/>
    </comp>
    <comp name="--.HHE">
      <acc value="0.0322433355" flag="0"/>
      <vel value="0.0524173341" flag="0"/>
      <psa03 value="0.0741867807" flag="0"/>
      <psa10 value="0.0482725357" flag="0"/>
      <psa30 value="0.0183801534" flag="0"/>
    </comp>
    <comp name="--.HHZ">
      <acc value="0.0157758448" flag="0"/>
      <vel value="0.0217063285" flag="0"/>
      <psa03 value="0.0445991880" flag="0"/>
      <psa10 value="0.0199382673" flag="0"/>
      <psa30 value="0.0109998920" flag="0"/>
    </comp>
  </station>
  <station code="LMS2" name="LMS2" netid="HI" insttype="CMG-5TD,ACCELEROMETER,GURALP" lat="40.835" lon="21.1418">
    <comp name="--.HNE">
      <acc value="0.1616533658" flag="0"/>
      <vel value="0.0401840060" flag="0"/>
      <psa03 value="0.1640647134" flag="0"/>
      <psa10 value="0.0243508714" flag="0"/>
      <psa30 value="0.0050622736" flag="0"/>
    </comp>
    <comp name="--.HNZ">
      <acc value="0.0446288405" flag="0"/>
      <vel value="0.0398797312" flag="0"/>
      <psa03 value="0.0962613291" flag="0"/>
      <psa10 value="0.0265353567" flag="0"/>
      <psa30 value="0.0075116702" flag="0"/>
    </comp>
    <comp name="--.HNN">
      <acc value="0.1607152022" flag="0"/>
      <vel value="0.0516095305" flag="0"/>
      <psa03 value="0.2200402822" flag="0"/>
      <psa10 value="0.0443715231" flag="0"/>
      <psa30 value="0.0081534186" flag="0"/>
    </comp>
  </station>
  <station code="KZN" name="KZN" netid="HL" insttype="120" lat="40.3033" lon="21.7821">
    <comp name="--.HHZ">
      <acc value="0.0083835838" flag="0"/>
      <vel value="0.0122161735" flag="0"/>
      <psa03 value="0.0228829837" flag="0"/>
      <psa10 value="0.0138066922" flag="0"/>
      <psa30 value="0.0053082993" flag="0"/>
    </comp>
    <comp name="--.HHN">
      <acc value="0.0095095894" flag="0"/>
      <vel value="0.0158478681" flag="0"/>
      <psa03 value="0.0338341553" flag="0"/>
      <psa10 value="0.0183636264" flag="0"/>
      <psa30 value="0.0053927842" flag="0"/>
    </comp>
    <comp name="--.HHE">
      <acc value="0.0127224454" flag="0"/>
      <vel value="0.0188925681" flag="0"/>
      <psa03 value="0.0263101554" flag="0"/>
      <psa10 value="0.0349256522" flag="0"/>
      <psa30 value="0.0032757380" flag="0"/>
    </comp>
  </station>
  <station code="PENT" name="PENT" netid="HL" insttype="30" lat="40.1959" lon="21.1384">
    <comp name="--.HHZ">
      <acc value="0.0130545130" flag="0"/>
      <vel value="0.0255585239" flag="0"/>
      <psa03 value="0.0345215223" flag="0"/>
      <psa10 value="0.0417976722" flag="0"/>
      <psa30 value="0.0106870119" flag="0"/>
    </comp>
    <comp name="--.HHE">
      <acc value="0.0158366953" flag="0"/>
      <vel value="0.0264643729" flag="0"/>
      <psa03 value="0.0396461686" flag="0"/>
      <psa10 value="0.0455593371" flag="0"/>
      <psa30 value="0.0157721030" flag="0"/>
    </comp>
    <comp name="--.HHN">
      <acc value="0.0005489574" flag="0"/>
      <vel value="0.0012333200" flag="0"/>
      <psa03 value="0.0012475683" flag="0"/>
      <psa10 value="0.0016311202" flag="0"/>
      <psa30 value="0.0005569159" flag="0"/>
    </comp>
  </station>
  <station code="GRG" name="GRG" netid="HT" insttype="100" lat="40.957" lon="22.401">
    <comp name="--.HHE">
      <acc value="0.0718044576" flag="0"/>
      <vel value="0.0778115404" flag="0"/>
      <psa03 value="0.1407016157" flag="0"/>
      <psa10 value="0.1235019457" flag="0"/>
      <psa30 value="0.0269899610" flag="0"/>
    </comp>
    <comp name="--.HHN">
      <acc value="0.0727264053" flag="0"/>
      <vel value="0.0728563244" flag="0"/>
      <psa03 value="0.1441889468" flag="0"/>
      <psa10 value="0.0974373983" flag="0"/>
      <psa30 value="0.0263250223" flag="0"/>
    </comp>
    <comp name="--.HHZ">
      <acc value="0.0497203151" flag="0"/>
      <vel value="0.0749728020" flag="0"/>
      <psa03 value="0.0843602917" flag="0"/>
      <psa10 value="0.0820519325" flag="0"/>
      <psa30 value="0.0281483634" flag="0"/>
    </comp>
  </station>
  <station code="NEST" name="NEST" netid="HT" insttype="120P," lat="40.4147" lon="21.0489">
    <comp name="--.HHN">
      <acc value="0.0264369570" flag="0"/>
      <vel value="0.0434580497" flag="0"/>
      <psa03 value="0.0550105898" flag="0"/>
      <psa10 value="0.0291236053" flag="0"/>
      <psa30 value="0.0182371590" flag="0"/>
    </comp>
    <comp name="--.HHE">
      <acc value="0.0227153444" flag="0"/>
      <vel value="0.0333002663" flag="0"/>
      <psa03 value="0.0821039064" flag="0"/>
      <psa10 value="0.0369808786" flag="0"/>
      <psa30 value="0.0141954414" flag="0"/>
    </comp>
    <comp name="--.HHZ">
      <acc value="0.0237476451" flag="0"/>
      <vel value="0.0344445781" flag="0"/>
      <psa03 value="0.0848982591" flag="0"/>
      <psa10 value="0.0357796535" flag="0"/>
      <psa30 value="0.0142234490" flag="0"/>
    </comp>
  </station>
  <station code="PDG" name="PDG" netid="MN" insttype="" lat="42.4297" lon="19.2608">
    <comp name="--.HHE">
      <acc value="0.0439970485" flag="0"/>
      <vel value="0.0337876618" flag="0"/>
      <psa03 value="0.1640091614" flag="0"/>
      <psa10 value="0.0502528652" flag="0"/>
      <psa30 value="0.0046787532" flag="0"/>
    </comp>
    <comp name="--.HHN">
      <acc value="0.0467407657" flag="0"/>
      <vel value="0.0296894956" flag="0"/>
      <psa03 value="0.0743382687" flag="0"/>
      <psa10 value="0.0197812509" flag="0"/>
      <psa30 value="0.0057907311" flag="0"/>
    </comp>
    <comp name="--.HHZ">
      <acc value="0.0447636426" flag="0"/>
      <vel value="0.0329795412" flag="0"/>
      <psa03 value="0.1022401309" flag="0"/>
      <psa10 value="0.0345789614" flag="0"/>
      <psa30 value="0.0072386442" flag="0"/>
    </comp>
  </station>
</stationlist>
