<?xml version="1.0" encoding="UTF-8" standalone="yes"?>
<!DOCTYPE earthquake SYSTEM "stationlist.dtd">
<stationlist created="" xmlns="ch.ethz.sed.shakemap.usgs.xml">
  <station code="LMS2" name="LMS2" netid="HI" source="NOA" insttype="CMG-5TD,ACCELEROMETER,GURALP" lat="40.835" lon="21.1418">
    <comp name="--.HNE">
      <acc value="0.0855820507" flag="0"/>
      <vel value="0.0187836230" flag="0"/>
      <psa03 value="0.0716568560" flag="0"/>
      <psa10 value="0.0088495129" flag="0"/>
      <psa30 value="0.0008991288" flag="0"/>
    </comp>
    <comp name="--.HNN">
      <acc value="0.1355264016" flag="0"/>
      <vel value="0.0268270029" flag="0"/>
      <psa03 value="0.0817480896" flag="0"/>
      <psa10 value="0.0033039662" flag="0"/>
      <psa30 value="0.0008741588" flag="0"/>
    </comp>
    <comp name="--.HNZ">
      <acc value="0.0228225091" flag="0"/>
      <vel value="0.0053405949" flag="0"/>
      <psa03 value="0.0241240452" flag="0"/>
      <psa10 value="0.0023886576" flag="0"/>
      <psa30 value="0.0006332311" flag="0"/>
    </comp>
  </station>
  <station code="JAN" name="JAN" netid="HL" source="NOA" insttype="CMG3EPSC60_DR24" lat="39.6562" lon="20.8487">
    <comp name="--.HHE">
      <acc value="0.0147661348" flag="0"/>
      <vel value="0.0068086383" flag="0"/>
      <psa03 value="0.0628447869" flag="0"/>
      <psa10 value="0.0056036335" flag="0"/>
      <psa30 value="0.0004870726" flag="0"/>
    </comp>
    <comp name="--.HHN">
      <acc value="0.0119380283" flag="0"/>
      <vel value="0.0041932835" flag="0"/>
      <psa03 value="0.0396595707" flag="0"/>
      <psa10 value="0.0045469162" flag="0"/>
      <psa30 value="0.0003797706" flag="0"/>
    </comp>
    <comp name="--.HHZ">
      <acc value="0.0084271712" flag="0"/>
      <vel value="0.0032877847" flag="0"/>
      <psa03 value="0.0285598491" flag="0"/>
      <psa10 value="0.0030051546" flag="0"/>
      <psa30 value="0.0004211687" flag="0"/>
    </comp>
  </station>
  <station code="KEK" name="KEK" netid="HL" source="NOA" insttype="120" lat="39.7127" lon="19.7962">
    <comp name="--.HHE">
      <acc value="0.0055142245" flag="0"/>
      <vel value="0.0035782920" flag="0"/>
      <psa03 value="0.0172822832" flag="0"/>
      <psa10 value="0.0035287678" flag="0"/>
      <psa30 value="0.0002485668" flag="0"/>
    </comp>
    <comp name="--.HHN">
      <acc value="0.0043331348" flag="0"/>
      <vel value="0.0027565803" flag="0"/>
      <psa03 value="0.0187623655" flag="0"/>
      <psa10 value="0.0034031549" flag="0"/>
      <psa30 value="0.0003929562" flag="0"/>
    </comp>
    <comp name="--.HHZ">
      <acc value="0.0027976061" flag="0"/>
      <vel value="0.0019348662" flag="0"/>
      <psa03 value="0.0122545954" flag="0"/>
      <psa10 value="0.0038506120" flag="0"/>
      <psa30 value="0.0002503342" flag="0"/>
    </comp>
  </station>
  <station code="KZN" name="KZN" netid="HL" source="NOA" insttype="120" lat="40.3033" lon="21.7821">
    <comp name="--.HHE">
      <acc value="0.0277844630" flag="0"/>
      <vel value="0.0091576872" flag="0"/>
      <psa03 value="0.0224073669" flag="0"/>
      <psa10 value="0.0072453573" flag="0"/>
      <psa30 value="0.0011454776" flag="0"/>
    </comp>
    <comp name="--.HHN">
      <acc value="0.0187956375" flag="0"/>
      <vel value="0.0078701580" flag="0"/>
      <psa03 value="0.0260524920" flag="0"/>
      <psa10 value="0.0059771942" flag="0"/>
      <psa30 value="0.0005631045" flag="0"/>
    </comp>
    <comp name="--.HHZ">
      <acc value="0.0129903848" flag="0"/>
      <vel value="0.0046521093" flag="0"/>
      <psa03 value="0.0130815893" flag="0"/>
      <psa10 value="0.0044158471" flag="0"/>
      <psa30 value="0.0009025453" flag="0"/>
    </comp>
  </station>
  <station code="PENT" name="PENT" netid="HL" source="NOA" insttype="30" lat="40.1959" lon="21.1384">
    <comp name="--.HHE">
      <acc value="0.0787475066" flag="0"/>
      <vel value="0.0198159560" flag="0"/>
      <psa03 value="0.0989407430" flag="0"/>
      <psa10 value="0.0222850739" flag="0"/>
      <psa30 value="0.0021315008" flag="0"/>
    </comp>
    <comp name="--.HHN">
      <acc value="0.0042986373" flag="0"/>
      <vel value="0.0009724865" flag="0"/>
      <psa03 value="0.0046027208" flag="0"/>
      <psa10 value="0.0008554920" flag="0"/>
      <psa30 value="0.0001432781" flag="0"/>
    </comp>
    <comp name="--.HHZ">
      <acc value="0.0624912704" flag="0"/>
      <vel value="0.0156308943" flag="0"/>
      <psa03 value="0.0590028401" flag="0"/>
      <psa10 value="0.0266196845" flag="0"/>
      <psa30 value="0.0026785296" flag="0"/>
    </comp>
  </station>
  <station code="FNA" name="FNA" netid="HT" source="NOA" insttype="30" lat="40.7817" lon="21.3836">
    <comp name="--.HHE">
      <acc value="0.0599960631" flag="0"/>
      <vel value="0.0195858414" flag="0"/>
      <psa03 value="0.0902805812" flag="0"/>
      <psa10 value="0.0092327102" flag="0"/>
      <psa30 value="0.0007185998" flag="0"/>
    </comp>
    <comp name="--.HHN">
      <acc value="0.0573229059" flag="0"/>
      <vel value="0.0213772449" flag="0"/>
      <psa03 value="0.1222214037" flag="0"/>
      <psa10 value="0.0121378864" flag="0"/>
      <psa30 value="0.0010535060" flag="0"/>
    </comp>
    <comp name="--.HHZ">
      <acc value="0.0303070376" flag="0"/>
      <vel value="0.0093357977" flag="0"/>
      <psa03 value="0.0363501579" flag="0"/>
      <psa10 value="0.0077466606" flag="0"/>
      <psa30 value="0.0008303214" flag="0"/>
    </comp>
  </station>
  <station code="IGT" name="IGT" netid="HT" source="NOA" insttype="100" lat="39.5315" lon="20.3299">
    <comp name="--.HHE">
      <acc value="0.0038212905" flag="0"/>
      <vel value="0.0029401779" flag="0"/>
      <psa03 value="0.0175455011" flag="0"/>
      <psa10 value="0.0041928108" flag="0"/>
      <psa30 value="0.0003344605" flag="0"/>
    </comp>
    <comp name="--.HHN">
      <acc value="0.0062873998" flag="0"/>
      <vel value="0.0030845287" flag="0"/>
      <psa03 value="0.0234279361" flag="0"/>
      <psa10 value="0.0052687125" flag="0"/>
      <psa30 value="0.0003248395" flag="0"/>
    </comp>
    <comp name="--.HHZ">
      <acc value="0.0034538730" flag="0"/>
      <vel value="0.0021467440" flag="0"/>
      <psa03 value="0.0152266493" flag="0"/>
      <psa10 value="0.0022289212" flag="0"/>
      <psa30 value="0.0003735776" flag="0"/>
    </comp>
  </station>
  <station code="KPRO" name="KPRO" netid="HT" source="NOA" insttype="100" lat="39.9549" lon="21.3632">
    <comp name="--.HHE">
      <acc value="0.0839046313" flag="0"/>
      <vel value="0.0183997699" flag="0"/>
      <psa03 value="0.0419718765" flag="0"/>
      <psa10 value="0.0210084050" flag="0"/>
      <psa30 value="0.0021789314" flag="0"/>
    </comp>
    <comp name="--.HHN">
      <acc value="0.0444948598" flag="0"/>
      <vel value="0.0124485026" flag="0"/>
      <psa03 value="0.0530393209" flag="0"/>
      <psa10 value="0.0096717473" flag="0"/>
      <psa30 value="0.0012486753" flag="0"/>
    </comp>
    <comp name="--.HHZ">
      <acc value="0.0187622460" flag="0"/>
      <vel value="0.0076300221" flag="0"/>
      <psa03 value="0.0209766931" flag="0"/>
      <psa10 value="0.0132944703" flag="0"/>
      <psa30 value="0.0011814695" flag="0"/>
    </comp>
  </station>
  <station code="NEST" name="NEST" netid="HT" source="NOA" insttype="120P," lat="40.4147" lon="21.0489">
    <comp name="--.HHE">
      <acc value="0.1089932746" flag="0"/>
      <vel value="0.0476933546" flag="0"/>
      <psa03 value="0.1054510368" flag="0"/>
      <psa10 value="0.0283218751" flag="0"/>
      <psa30 value="0.0042417278" flag="0"/>
    </comp>
    <comp name="--.HHN">
      <acc value="0.0886717668" flag="0"/>
      <vel value="0.0363750353" flag="0"/>
      <psa03 value="0.1375547515" flag="0"/>
      <psa10 value="0.0323810227" flag="0"/>
      <psa30 value="0.0036400134" flag="0"/>
    </comp>
    <comp name="--.HHZ">
      <acc value="0.1040971847" flag="0"/>
      <vel value="0.0393941846" flag="0"/>
      <psa03 value="0.1224614184" flag="0"/>
      <psa10 value="0.0422929648" flag="0"/>
      <psa30 value="0.0036623631" flag="0"/>
    </comp>
  </station>
  <station code="KEK" name="KEK" netid="MN" source="INGV" insttype="" lat="39.7127" lon="19.7962">
    <comp name="--.HHE">
      <acc value="0.0055142207" flag="0"/>
      <vel value="0.0035782895" flag="0"/>
      <psa03 value="0.0172822713" flag="0"/>
      <psa10 value="0.0035287653" flag="0"/>
      <psa30 value="0.0002485667" flag="0"/>
    </comp>
    <comp name="--.HHN">
      <acc value="0.0043331318" flag="0"/>
      <vel value="0.0027565784" flag="0"/>
      <psa03 value="0.0187623525" flag="0"/>
      <psa10 value="0.0034031526" flag="0"/>
      <psa30 value="0.0003929559" flag="0"/>
    </comp>
    <comp name="--.HHZ">
      <acc value="0.0027976042" flag="0"/>
      <vel value="0.0019348648" flag="0"/>
      <psa03 value="0.0122545869" flag="0"/>
      <psa10 value="0.0038506093" flag="0"/>
      <psa30 value="0.0002503340" flag="0"/>
    </comp>
  </station>
</stationlist>
