<stationlist xmlns:esm="https://esm-db.eu/esmws/shakemap/1/" created="1781920460">
	<station code="KRK1" name="KRK1" netid="HI" source="ITSAK Strong Motion Network" insttype="" lat="39.618861" lon="19.9202" esm:processing="manual (Paolucci et al 2011)" esm:quality="good">
		<comp name="--.HNE" depth="0.0">
			<acc value="0.0202950190801794" flag="0"/>
			<vel value="0.00788359761991789" flag="0"/>
			<psa03 value="0.0463976682631478" flag="0"/>
			<psa10 value="0.00544020490271566" flag="0"/>
			<psa30 value="0.000624153782324891" flag="0"/>
		</comp>
		<comp name="--.HNN" depth="0.0">
			<acc value="0.0214848158028359" flag="0"/>
			<vel value="0.00876452333752349" flag="0"/>
			<psa03 value="0.0557040472397483" flag="0"/>
			<psa10 value="0.00579858997772802" flag="0"/>
			<psa30 value="0.000667106300678432" flag="0"/>
		</comp>
		<comp name="--.HNZ" depth="0.0">
			<acc value="0.0159010831525781" flag="0"/>
			<vel value="0.00500762638837311" flag="0"/>
			<psa03 value="0.0387914931380416" flag="0"/>
			<psa10 value="0.00293553617622481" flag="0"/>
			<psa30 value="0.00034898921162252" flag="0"/>
		</comp>
	</station>
	<station code="LMS2" name="LMS2" netid="HI" source="ITSAK Strong Motion Network" insttype="" lat="40.834985" lon="21.141815" esm:processing="manual (Paolucci et al 2011)" esm:quality="good">
		<comp name="--.HNE" depth="0.0">
			<acc value="0.0869862465308288" flag="0"/>
			<vel value="0.0191557630094593" flag="0"/>
			<psa03 value="0.0737798987135301" flag="0"/>
			<psa10 value="0.0088670105076091" flag="0"/>
			<psa30 value="0.000992382142793267" flag="0"/>
		</comp>
		<comp name="--.HNN" depth="0.0">
			<acc value="0.136279256524339" flag="0"/>
			<vel value="0.0272827198651112" flag="0"/>
			<psa03 value="0.0833547309298403" flag="0"/>
			<psa10 value="0.00331405524421539" flag="0"/>
			<psa30 value="0.000943613137579351" flag="0"/>
		</comp>
		<comp name="--.HNZ" depth="0.0">
			<acc value="0.0222549095690443" flag="0"/>
			<vel value="0.00565787462436062" flag="0"/>
			<psa03 value="0.0245634714334312" flag="0"/>
			<psa10 value="0.00241205235879103" flag="0"/>
			<psa30 value="0.00070468975423778" flag="0"/>
		</comp>
	</station>
	<station code="JAN" name="JAN" netid="HL" source="National Observatory of Athens Seismic Network" insttype="" lat="39.65616" lon="20.84874" esm:processing="manual (Paolucci et al 2011)" esm:quality="good">
		<comp name="00.HNE" depth="0.0">
			<acc value="0.0148378716862416" flag="0"/>
			<vel value="0.00687493950555888" flag="0"/>
			<psa03 value="0.0655501965455335" flag="0"/>
			<psa10 value="0.00568501191665224" flag="0"/>
			<psa30 value="0.000526890997692996" flag="0"/>
		</comp>
		<comp name="00.HNN" depth="0.0">
			<acc value="0.0116663493489909" flag="0"/>
			<vel value="0.00418569148030411" flag="0"/>
			<psa03 value="0.0393100858710929" flag="0"/>
			<psa10 value="0.0044391165697016" flag="0"/>
			<psa30 value="0.000387543928091739" flag="0"/>
		</comp>
		<comp name="00.HNZ" depth="0.0">
			<acc value="0.00839777355994014" flag="0"/>
			<vel value="0.00337267091816235" flag="0"/>
			<psa03 value="0.0287005835644852" flag="0"/>
			<psa10 value="0.00296788918621888" flag="0"/>
			<psa30 value="0.000500700825222773" flag="0"/>
		</comp>
	</station>
</stationlist>
