<stationlist created="1762995735">
	<station code="AKDN" name="AKDN" netid="KO" source="Bogazici University Kandilli Observatory And Earthquake Research Institute (KOERI)" insttype="" lat="35.2977" lon="32.9677">
		<comp name="--.HNE" depth="0.0">
			<acc value="0.17582261674818" flag="0"/>
			<vel value="0.208417800967" flag="0"/>
			<psa03 value="0.485744886549812" flag="0"/>
			<psa10 value="0.299915317918073" flag="0"/>
			<psa30 value="0.1403318162941" flag="0"/>
		</comp>
		<comp name="--.HNN" depth="0.0">
			<acc value="0.21611002355628" flag="0"/>
			<vel value="0.236122911428" flag="0"/>
			<psa03 value="0.462629646945024" flag="0"/>
			<psa10 value="0.202868579047564" flag="0"/>
			<psa30 value="0.145250088771997" flag="0"/>
		</comp>
		<comp name="--.HNZ" depth="0.0">
			<acc value="0.12299992968414" flag="0"/>
			<vel value="0.153212883056" flag="0"/>
			<psa03 value="0.347211292710677" flag="0"/>
			<psa10 value="0.141857617370791" flag="0"/>
			<psa30 value="0.041285364952812" flag="0"/>
		</comp>
	</station>
	<station code="AKIN" name="AKIN" netid="KO" source="Bogazici University Kandilli Observatory And Earthquake Research Institute (KOERI)" insttype="" lat="35.0157" lon="33.4662">
		<comp name="--.HNE" depth="0.0">
			<acc value="0.12254199163776" flag="0"/>
			<vel value="0.0816531559395" flag="0"/>
			<psa03 value="0.303768956535671" flag="0"/>
			<psa10 value="0.096922568144588" flag="0"/>
			<psa30 value="0.030208927859875" flag="0"/>
		</comp>
		<comp name="--.HNN" depth="0.0">
			<acc value="0.13701134963262" flag="0"/>
			<vel value="0.163298668795" flag="0"/>
			<psa03 value="0.363473286654875" flag="0"/>
			<psa10 value="0.185118248175231" flag="0"/>
			<psa30 value="0.0304681416981701" flag="0"/>
		</comp>
		<comp name="--.HNZ" depth="0.0">
			<acc value="0.15479417003664" flag="0"/>
			<vel value="0.0855352496384" flag="0"/>
			<psa03 value="0.581817500888667" flag="0"/>
			<psa10 value="0.0866002493415635" flag="0"/>
			<psa30 value="0.0161514032845538" flag="0"/>
		</comp>
	</station>
	<station code="ALAN" name="ALAN" netid="KO" source="Bogazici University Kandilli Observatory And Earthquake Research Institute (KOERI)" insttype="" lat="36.557" lon="32.0327">
		<comp name="--.HNE" depth="0.0">
			<acc value="0.053726366507412" flag="0"/>
			<vel value="0.0205893801844" flag="0"/>
			<psa03 value="0.0832139708502929" flag="0"/>
			<psa10 value="0.0271012509498528" flag="0"/>
			<psa30 value="0.0028728042675156" flag="0"/>
		</comp>
		<comp name="--.HNN" depth="0.0">
			<acc value="0.035229970136874" flag="0"/>
			<vel value="0.0166749801102" flag="0"/>
			<psa03 value="0.122141268342778" flag="0"/>
			<psa10 value="0.0120306047810054" flag="0"/>
			<psa30 value="0.0021331440186564" flag="0"/>
		</comp>
		<comp name="--.HNZ" depth="0.0">
			<acc value="0.12311633036238" flag="0"/>
			<vel value="0.0162292063184" flag="0"/>
			<psa03 value="0.0323368635126787" flag="0"/>
			<psa10 value="0.0131467143427862" flag="0"/>
			<psa30 value="0.00300270933142177" flag="0"/>
		</comp>
	</station>
	<station code="BCK" name="BCK" netid="KO" source="Bogazici University Kandilli Observatory And Earthquake Research Institute (KOERI)" insttype="" lat="37.4602" lon="30.5885">
		<comp name="--.HNE" depth="0.0">
			<acc value="0.017302787639676" flag="0"/>
			<vel value="0.00700758698397" flag="0"/>
			<psa03 value="0.0110255194490655" flag="0"/>
			<psa10 value="0.0077500468400612" flag="0"/>
			<psa30 value="0.00232609888430082" flag="0"/>
		</comp>
		<comp name="--.HNN" depth="0.0">
			<acc value="0.013602249475632" flag="0"/>
			<vel value="0.00557904042842" flag="0"/>
			<psa03 value="0.00839066065780106" flag="0"/>
			<psa10 value="0.00622934781997733" flag="0"/>
			<psa30 value="0.00138117982971796" flag="0"/>
		</comp>
		<comp name="--.HNZ" depth="0.0">
			<acc value="0.0044640327847632" flag="0"/>
			<vel value="0.00370500646506" flag="0"/>
			<psa03 value="0.00488786546376657" flag="0"/>
			<psa10 value="0.00645946400154884" flag="0"/>
			<psa30 value="0.00157782098122903" flag="0"/>
		</comp>
	</station>
	<station code="BOZY" name="BOZY" netid="KO" source="Bogazici University Kandilli Observatory And Earthquake Research Institute (KOERI)" insttype="" lat="36.1069" lon="32.9763">
		<comp name="--.HNE" depth="0.0">
			<acc value="0.09525253012665" flag="0"/>
			<vel value="0.0377713148312" flag="0"/>
			<psa03 value="0.199249574306462" flag="0"/>
			<psa10 value="0.0226606380310547" flag="0"/>
			<psa30 value="0.00450210990935224" flag="0"/>
		</comp>
		<comp name="--.HNN" depth="0.0">
			<acc value="0.07120576528059" flag="0"/>
			<vel value="0.0334058771042" flag="0"/>
			<psa03 value="0.13625122389154" flag="0"/>
			<psa10 value="0.0213922852588996" flag="0"/>
			<psa30 value="0.00869928295146852" flag="0"/>
		</comp>
		<comp name="--.HNZ" depth="0.0">
			<acc value="0.055725835251402" flag="0"/>
			<vel value="0.0228711452861" flag="0"/>
			<psa03 value="0.0771822796140491" flag="0"/>
			<psa10 value="0.0150158981670429" flag="0"/>
			<psa30 value="0.0059524914066636" flag="0"/>
		</comp>
	</station>
	<station code="DEMR" name="DEMR" netid="KO" source="Bogazici University Kandilli Observatory And Earthquake Research Institute (KOERI)" insttype="" lat="36.2365" lon="29.9056">
		<comp name="--.HNE" depth="0.0">
			<acc value="0.0101152894536858" flag="0"/>
			<vel value="0.00646478499758" flag="0"/>
			<psa03 value="0.00690543857121871" flag="0"/>
			<psa10 value="0.0041595960215914" flag="0"/>
			<psa30 value="0.00234694234841366" flag="0"/>
		</comp>
		<comp name="--.HNN" depth="0.0">
			<acc value="0.007065704616168" flag="0"/>
			<vel value="0.00511730170695" flag="0"/>
			<psa03 value="0.00830103557994381" flag="0"/>
			<psa10 value="0.00575764016541467" flag="0"/>
			<psa30 value="0.00201383298988773" flag="0"/>
		</comp>
		<comp name="--.HNZ" depth="0.0">
			<acc value="0.0053956617741696" flag="0"/>
			<vel value="0.00454265281022" flag="0"/>
			<psa03 value="0.00824482417393315" flag="0"/>
			<psa10 value="0.00510041709636542" flag="0"/>
			<psa30 value="0.00199281472252839" flag="0"/>
		</comp>
	</station>
	<station code="KEMT" name="KEMT" netid="KO" source="Bogazici University Kandilli Observatory And Earthquake Research Institute (KOERI)" insttype="" lat="36.6037" lon="30.5558">
		<comp name="--.HNE" depth="0.0">
			<acc value="0.018620999437938" flag="0"/>
			<vel value="0.0116641978474" flag="0"/>
			<psa03 value="0.0565897435845731" flag="0"/>
			<psa10 value="0.011723203479705" flag="0"/>
			<psa30 value="0.0032104241331743" flag="0"/>
		</comp>
		<comp name="--.HNN" depth="0.0">
			<acc value="0.019058837665218" flag="0"/>
			<vel value="0.0131448081831" flag="0"/>
			<psa03 value="0.0717414712705083" flag="0"/>
			<psa10 value="0.0104382221059698" flag="0"/>
			<psa30 value="0.00351866934457578" flag="0"/>
		</comp>
		<comp name="--.HNZ" depth="0.0">
			<acc value="0.0062863405397508" flag="0"/>
			<vel value="0.00618785284452" flag="0"/>
			<psa03 value="0.0135110916581091" flag="0"/>
			<psa10 value="0.00666394348481519" flag="0"/>
			<psa30 value="0.00189765966897374" flag="0"/>
		</comp>
	</station>
	<station code="KRMN" name="KRMN" netid="KO" source="Bogazici University Kandilli Observatory And Earthquake Research Institute (KOERI)" insttype="" lat="37.174" lon="33.2636">
		<comp name="--.HNE" depth="0.0">
			<acc value="0.025031487693486" flag="0"/>
			<vel value="0.0293293923258" flag="0"/>
			<psa03 value="0.0609928998551135" flag="0"/>
			<psa10 value="0.0576066174058577" flag="0"/>
			<psa30 value="0.0110440216122481" flag="0"/>
		</comp>
		<comp name="--.HNN" depth="0.0">
			<acc value="0.021400806854718" flag="0"/>
			<vel value="0.0329510595118" flag="0"/>
			<psa03 value="0.0526717392441449" flag="0"/>
			<psa10 value="0.0307016150813185" flag="0"/>
			<psa30 value="0.00859799790848324" flag="0"/>
		</comp>
		<comp name="--.HNZ" depth="0.0">
			<acc value="0.024076684609896" flag="0"/>
			<vel value="0.0183005601446" flag="0"/>
			<psa03 value="0.039530782782841" flag="0"/>
			<psa10 value="0.0179136373155725" flag="0"/>
			<psa30 value="0.00663081134202423" flag="0"/>
		</comp>
	</station>
	<station code="KRTS" name="KRTS" netid="KO" source="Bogazici University Kandilli Observatory And Earthquake Research Institute (KOERI)" insttype="" lat="36.573" lon="35.375">
		<comp name="--.HNE" depth="0.0">
			<acc value="0.010909934981454" flag="0"/>
			<vel value="0.00963200297435" flag="0"/>
			<psa03 value="0.0373285223105756" flag="0"/>
			<psa10 value="0.00946598801276016" flag="0"/>
			<psa30 value="0.00467201741488076" flag="0"/>
		</comp>
		<comp name="--.HNN" depth="0.0">
			<acc value="0.0094092798670272" flag="0"/>
			<vel value="0.0107876369499" flag="0"/>
			<psa03 value="0.0243895766272349" flag="0"/>
			<psa10 value="0.00924074715416695" flag="0"/>
			<psa30 value="0.00397844938608121" flag="0"/>
		</comp>
		<comp name="--.HNZ" depth="0.0">
			<acc value="0.012167984871354" flag="0"/>
			<vel value="0.0105307522842" flag="0"/>
			<psa03 value="0.0210562841984012" flag="0"/>
			<psa10 value="0.005955550619744" flag="0"/>
			<psa30 value="0.00603552149033458" flag="0"/>
		</comp>
	</station>
	<station code="MNVG" name="MNVG" netid="KO" source="Bogazici University Kandilli Observatory And Earthquake Research Institute (KOERI)" insttype="" lat="36.7935" lon="31.4161">
		<comp name="--.HNE" depth="0.0">
			<acc value="0.026306138564826" flag="0"/>
			<vel value="0.0199812497135" flag="0"/>
			<psa03 value="0.10092369611623" flag="0"/>
			<psa10 value="0.0329572020028722" flag="0"/>
			<psa30 value="0.0047214015196651" flag="0"/>
		</comp>
		<comp name="--.HNN" depth="0.0">
			<acc value="0.025313663322252" flag="0"/>
			<vel value="0.0890589048797" flag="0"/>
			<psa03 value="0.0824317419481931" flag="0"/>
			<psa10 value="0.0287716997339098" flag="0"/>
			<psa30 value="0.00797559167715247" flag="0"/>
		</comp>
		<comp name="--.HNZ" depth="0.0">
			<acc value="0.018023860218288" flag="0"/>
			<vel value="0.011561663009" flag="0"/>
			<psa03 value="0.0782184107526922" flag="0"/>
			<psa10 value="0.0146427484477224" flag="0"/>
			<psa30 value="0.00342425017310001" flag="0"/>
		</comp>
	</station>
	<station code="SEYD" name="SEYD" netid="KO" source="Bogazici University Kandilli Observatory And Earthquake Research Institute (KOERI)" insttype="" lat="37.4056" lon="31.8379">
		<comp name="--.HNE" depth="0.0">
			<acc value="0.009290484058437" flag="0"/>
			<vel value="0.0136475962624" flag="0"/>
			<psa03 value="0.0279955238368962" flag="0"/>
			<psa10 value="0.0239125159618336" flag="0"/>
			<psa30 value="0.00398567194787121" flag="0"/>
		</comp>
		<comp name="--.HNN" depth="0.0">
			<acc value="0.009823088990448" flag="0"/>
			<vel value="0.0127893554348" flag="0"/>
			<psa03 value="0.0223654503513271" flag="0"/>
			<psa10 value="0.0155982920603032" flag="0"/>
			<psa30 value="0.00240021691925656" flag="0"/>
		</comp>
		<comp name="--.HNZ" depth="0.0">
			<acc value="0.0090512500053" flag="0"/>
			<vel value="0.00774027574622" flag="0"/>
			<psa03 value="0.0163307680311444" flag="0"/>
			<psa10 value="0.0114661933290529" flag="0"/>
			<psa30 value="0.00310317911205193" flag="0"/>
		</comp>
	</station>
	<station code="SLFK" name="SLFK" netid="KO" source="Bogazici University Kandilli Observatory And Earthquake Research Institute (KOERI)" insttype="" lat="36.3925" lon="33.9464">
		<comp name="--.HNE" depth="0.0">
			<acc value="0.069807691267548" flag="0"/>
			<vel value="0.0490522974969" flag="0"/>
			<psa03 value="0.147019010121389" flag="0"/>
			<psa10 value="0.0373750096609588" flag="0"/>
			<psa30 value="0.00588066998220721" flag="0"/>
		</comp>
		<comp name="--.HNN" depth="0.0">
			<acc value="0.070319923739814" flag="0"/>
			<vel value="0.041323834324" flag="0"/>
			<psa03 value="0.167838097616993" flag="0"/>
			<psa10 value="0.0324750925655167" flag="0"/>
			<psa30 value="0.00451799846190425" flag="0"/>
		</comp>
		<comp name="--.HNZ" depth="0.0">
			<acc value="0.038876040880176" flag="0"/>
			<vel value="0.0218377421913" flag="0"/>
			<psa03 value="0.0856959165174073" flag="0"/>
			<psa10 value="0.0213830408965318" flag="0"/>
			<psa30 value="0.00592864941060487" flag="0"/>
		</comp>
	</station>
</stationlist>
