<?xml version="1.0" encoding="UTF-8" standalone="yes"?>
<!DOCTYPE earthquake SYSTEM "stationlist.dtd">
<stationlist created="" xmlns="ch.ethz.sed.shakemap.usgs.xml">
  <station code="AKDN" name="AKDN" netid="KO" insttype="CMG-5T" commtype="DIG" lat="35.2977" lon="32.9677">
    <comp name="--.HNE">
      <acc value="0.1784132155" flag="0"/>
      <vel value="0.2091817063" flag="0"/>
      <psa03 value="0.4816531504" flag="0"/>
      <psa10 value="0.2994613454" flag="0"/>
      <psa30 value="0.1402041201" flag="0"/>
    </comp>
    <comp name="--.HNZ">
      <acc value="0.1243469698" flag="0"/>
      <vel value="0.1342235393" flag="0"/>
      <psa03 value="0.3462595663" flag="0"/>
      <psa10 value="0.1416754855" flag="0"/>
      <psa30 value="0.0385389600" flag="0"/>
    </comp>
    <comp name="--.HNN">
      <acc value="0.2167058821" flag="0"/>
      <vel value="0.2272763887" flag="0"/>
      <psa03 value="0.4576885069" flag="0"/>
      <psa10 value="0.2018271495" flag="0"/>
      <psa30 value="0.1460271698" flag="0"/>
    </comp>
  </station>
  <station code="AKIN" name="AKIN" netid="KO" insttype="CMG-5T" commtype="DIG" lat="35.0157" lon="33.4662">
    <comp name="--.HNZ">
      <acc value="0.1545873447" flag="0"/>
      <vel value="0.0852770829" flag="0"/>
      <psa03 value="0.5822154537" flag="0"/>
      <psa10 value="0.0866943964" flag="0"/>
      <psa30 value="0.0159132353" flag="0"/>
    </comp>
  </station>
  <station code="EREN" name="EREN" netid="KO" insttype="CMG-6T" commtype="DIG" lat="35.5292" lon="34.1742">
    <comp name="--.HHZ">
      <acc value="0.0536015377" flag="0"/>
      <vel value="0.0492936157" flag="0"/>
      <psa03 value="0.2112125017" flag="0"/>
      <psa10 value="0.0762121222" flag="0"/>
      <psa30 value="0.0171495134" flag="0"/>
    </comp>
    <comp name="--.HHE">
      <acc value="0.0617268430" flag="0"/>
      <vel value="0.0692837923" flag="0"/>
      <psa03 value="0.2072964379" flag="0"/>
      <psa10 value="0.0943540534" flag="0"/>
      <psa30 value="0.0175223388" flag="0"/>
    </comp>
  </station>
  <station code="LFK" name="LFK" netid="KO" insttype="CMG-6T" commtype="DIG" lat="35.2832" lon="33.5335">
    <comp name="--.HHZ">
      <acc value="0.9654695039" flag="0"/>
      <vel value="0.6061812292" flag="0"/>
      <psa03 value="2.5288107743" flag="0"/>
      <psa10 value="0.6572171210" flag="0"/>
      <psa30 value="0.2512993523" flag="0"/>
    </comp>
    <comp name="--.HHN">
      <acc value="2.4432058107" flag="0"/>
      <vel value="1.7568873455" flag="0"/>
      <psa03 value="5.7210459335" flag="0"/>
      <psa10 value="1.4061498186" flag="0"/>
      <psa30 value="0.2939241531" flag="0"/>
    </comp>
    <comp name="--.HHE">
      <acc value="1.7986045741" flag="0"/>
      <vel value="1.2586666124" flag="0"/>
      <psa03 value="5.1308799851" flag="0"/>
      <psa10 value="1.1686673318" flag="0"/>
      <psa30 value="0.4461677110" flag="0"/>
    </comp>
  </station>
  <station code="MAGT" name="MAGT" netid="KO" insttype="CMG-6T" commtype="DIG" lat="35.1696" lon="33.8714">
    <comp name="--.HHN">
      <acc value="0.0893543211" flag="0"/>
      <vel value="0.0998780181" flag="0"/>
      <psa03 value="0.2750640452" flag="0"/>
      <psa10 value="0.1837544549" flag="0"/>
      <psa30 value="0.0570617143" flag="0"/>
    </comp>
    <comp name="--.HHZ">
      <acc value="0.0460227978" flag="0"/>
      <vel value="0.0861018849" flag="0"/>
      <psa03 value="0.1538393850" flag="0"/>
      <psa10 value="0.0746566219" flag="0"/>
      <psa30 value="0.0459863666" flag="0"/>
    </comp>
    <comp name="--.HHE">
      <acc value="0.0660190683" flag="0"/>
      <vel value="0.0725355242" flag="0"/>
      <psa03 value="0.1733593992" flag="0"/>
      <psa10 value="0.1358171398" flag="0"/>
      <psa30 value="0.0322917136" flag="0"/>
    </comp>
  </station>
</stationlist>
