<?xml version="1.0" encoding="UTF-8" standalone="yes"?>
<!DOCTYPE earthquake SYSTEM "stationlist.dtd">
<stationlist created="" xmlns="ch.ethz.sed.shakemap.usgs.xml">
  <station code="AKDN" name="AKDN" netid="KO" insttype="CMG-5T" commtype="DIG" lat="35.2977" lon="32.9677">
    <comp name="--.HNN">
      <acc value="0.2167058820" flag="0"/>
      <vel value="0.2272763931" flag="0"/>
      <psa03 value="0.4576885069" flag="0"/>
      <psa10 value="0.2018271495" flag="0"/>
      <psa30 value="0.1460268972" flag="0"/>
    </comp>
    <comp name="--.HNE">
      <acc value="0.1784132155" flag="0"/>
      <vel value="0.2091817056" flag="0"/>
      <psa03 value="0.4816531504" flag="0"/>
      <psa10 value="0.2994613454" flag="0"/>
      <psa30 value="0.1402041134" flag="0"/>
    </comp>
    <comp name="--.HNZ">
      <acc value="0.1243469696" flag="0"/>
      <vel value="0.1342235418" flag="0"/>
      <psa03 value="0.3462595662" flag="0"/>
      <psa10 value="0.1416754855" flag="0"/>
      <psa30 value="0.0385390928" flag="0"/>
    </comp>
  </station>
  <station code="AKIN" name="AKIN" netid="KO" insttype="CMG-5T" commtype="DIG" lat="35.0157" lon="33.4662">
    <comp name="--.HNZ">
      <acc value="0.1545873447" flag="0"/>
      <vel value="0.0852770833" flag="0"/>
      <psa03 value="0.5822154538" flag="0"/>
      <psa10 value="0.0866943965" flag="0"/>
      <psa30 value="0.0159130432" flag="0"/>
    </comp>
    <comp name="--.HNN">
      <acc value="0.1372661598" flag="0"/>
      <vel value="0.1621958036" flag="0"/>
      <psa03 value="0.3598461478" flag="0"/>
      <psa10 value="0.1851189049" flag="0"/>
      <psa30 value="0.0300636869" flag="0"/>
    </comp>
  </station>
  <station code="EREN" name="EREN" netid="KO" insttype="CMG-6T" commtype="DIG" lat="35.5292" lon="34.1742">
    <comp name="--.HHE">
      <acc value="0.0617268435" flag="0"/>
      <vel value="0.0692837928" flag="0"/>
      <psa03 value="0.2072964379" flag="0"/>
      <psa10 value="0.0943540534" flag="0"/>
      <psa30 value="0.0175223391" flag="0"/>
    </comp>
    <comp name="--.HHN">
      <acc value="0.0543671067" flag="0"/>
      <vel value="0.0547152625" flag="0"/>
      <psa03 value="0.1368313670" flag="0"/>
      <psa10 value="0.1107960600" flag="0"/>
      <psa30 value="0.0196649538" flag="0"/>
    </comp>
    <comp name="--.HHZ">
      <acc value="0.0536015378" flag="0"/>
      <vel value="0.0492936083" flag="0"/>
      <psa03 value="0.2112125017" flag="0"/>
      <psa10 value="0.0762121222" flag="0"/>
      <psa30 value="0.0171495135" flag="0"/>
    </comp>
  </station>
  <station code="LFK" name="LFK" netid="KO" insttype="CMG-6T" commtype="DIG" lat="35.2832" lon="33.5335">
    <comp name="--.HHZ">
      <acc value="0.9654695039" flag="0"/>
      <vel value="0.6061813379" flag="0"/>
      <psa03 value="2.5288107741" flag="0"/>
      <psa10 value="0.6572171209" flag="0"/>
      <psa30 value="0.2512993451" flag="0"/>
    </comp>
    <comp name="--.HHE">
      <acc value="1.7986045725" flag="0"/>
      <vel value="1.2586666973" flag="0"/>
      <psa03 value="5.1308799853" flag="0"/>
      <psa10 value="1.1686673316" flag="0"/>
      <psa30 value="0.4461676851" flag="0"/>
    </comp>
    <comp name="--.HHN">
      <acc value="2.4432058112" flag="0"/>
      <vel value="1.7568870892" flag="0"/>
      <psa03 value="5.7210459339" flag="0"/>
      <psa10 value="1.4061498188" flag="0"/>
      <psa30 value="0.2939241526" flag="0"/>
    </comp>
  </station>
  <station code="MAGT" name="MAGT" netid="KO" insttype="CMG-6T" commtype="DIG" lat="35.1696" lon="33.8714">
    <comp name="--.HHE">
      <acc value="0.0660190685" flag="0"/>
      <vel value="0.0725354416" flag="0"/>
      <psa03 value="0.1733593993" flag="0"/>
      <psa10 value="0.1358171401" flag="0"/>
      <psa30 value="0.0322917153" flag="0"/>
    </comp>
    <comp name="--.HHN">
      <acc value="0.0893543210" flag="0"/>
      <vel value="0.0998779947" flag="0"/>
      <psa03 value="0.2750640452" flag="0"/>
      <psa10 value="0.1837544549" flag="0"/>
      <psa30 value="0.0570617131" flag="0"/>
    </comp>
    <comp name="--.HHZ">
      <acc value="0.0460227974" flag="0"/>
      <vel value="0.0861018215" flag="0"/>
      <psa03 value="0.1538393851" flag="0"/>
      <psa10 value="0.0746566218" flag="0"/>
      <psa30 value="0.0459863667" flag="0"/>
    </comp>
  </station>
</stationlist>
