<?xml version="1.0" encoding="UTF-8" standalone="yes"?>
<!DOCTYPE earthquake SYSTEM "stationlist.dtd">
<stationlist created="" xmlns="ch.ethz.sed.shakemap.usgs.xml">
  <station code="BERA" name="BERA" netid="AC" insttype="" lat="40.7081" lon="19.9455">
    <comp name="00.HHE">
      <acc value="0.0166437469" flag="0"/>
      <vel value="0.0087641457" flag="0"/>
      <psa03 value="0.0245380748" flag="0"/>
      <psa10 value="0.0129891694" flag="0"/>
      <psa30 value="0.0010932182" flag="0"/>
    </comp>
    <comp name="00.HHN">
      <acc value="0.0198695953" flag="0"/>
      <vel value="0.0082860554" flag="0"/>
      <psa03 value="0.0255010993" flag="0"/>
      <psa10 value="0.0069420971" flag="0"/>
      <psa30 value="0.0004896459" flag="0"/>
    </comp>
    <comp name="00.HHZ">
      <acc value="0.0088355236" flag="0"/>
      <vel value="0.0043201644" flag="0"/>
      <psa03 value="0.0129435392" flag="0"/>
      <psa10 value="0.0059094139" flag="0"/>
      <psa30 value="0.0003943634" flag="0"/>
    </comp>
  </station>
  <station code="KEK" name="KEK" netid="MN" insttype="" lat="39.7127" lon="19.7962">
    <comp name="--.HHE">
      <acc value="0.0956434261" flag="0"/>
      <vel value="0.0394584564" flag="0"/>
      <psa03 value="0.1346163762" flag="0"/>
      <psa10 value="0.0257618778" flag="0"/>
      <psa30 value="0.0022095729" flag="0"/>
    </comp>
    <comp name="--.HHZ">
      <acc value="0.0488575260" flag="0"/>
      <vel value="0.0293313065" flag="0"/>
      <psa03 value="0.1186977720" flag="0"/>
      <psa10 value="0.0450049131" flag="0"/>
      <psa30 value="0.0020930524" flag="0"/>
    </comp>
    <comp name="--.HHN">
      <acc value="0.0514379035" flag="0"/>
      <vel value="0.0259375969" flag="0"/>
      <psa03 value="0.1013474701" flag="0"/>
      <psa10 value="0.0243317898" flag="0"/>
      <psa30 value="0.0016789235" flag="0"/>
    </comp>
  </station>
</stationlist>
