<?xml version="1.0" encoding="UTF-8" standalone="yes"?>
<!DOCTYPE earthquake SYSTEM "stationlist.dtd">
<stationlist created="" xmlns="ch.ethz.sed.shakemap.usgs.xml">
  <station code="BERA" name="BERA" netid="AC" insttype="" lat="40.7081" lon="19.9455">
    <comp name="00.HHE">
      <acc value="0.0166437469" flag="0"/>
      <vel value="0.0087641457" flag="0"/>
      <psa03 value="0.0245380748" flag="0"/>
      <psa10 value="0.0129891694" flag="0"/>
      <psa30 value="0.0010932182" flag="0"/>
    </comp>
    <comp name="00.HHN">
      <acc value="0.0198695953" flag="0"/>
      <vel value="0.0082860554" flag="0"/>
      <psa03 value="0.0255010993" flag="0"/>
      <psa10 value="0.0069420971" flag="0"/>
      <psa30 value="0.0004896459" flag="0"/>
    </comp>
    <comp name="00.HHZ">
      <acc value="0.0088355236" flag="0"/>
      <vel value="0.0043201644" flag="0"/>
      <psa03 value="0.0129435392" flag="0"/>
      <psa10 value="0.0059094139" flag="0"/>
      <psa30 value="0.0003943634" flag="0"/>
    </comp>
  </station>
  <station code="JAN" name="JAN" netid="HL" insttype="CMG3EPSC60_DR24" lat="39.6562" lon="20.8487">
    <comp name="--.HHE">
      <acc value="0.0875145028" flag="0"/>
      <vel value="0.0373153691" flag="0"/>
      <psa03 value="0.1376185213" flag="0"/>
      <psa10 value="0.0186997872" flag="0"/>
      <psa30 value="0.0012790301" flag="0"/>
    </comp>
    <comp name="--.HHN">
      <acc value="0.0890592129" flag="0"/>
      <vel value="0.0330211402" flag="0"/>
      <psa03 value="0.1060710448" flag="0"/>
      <psa10 value="0.0209389902" flag="0"/>
      <psa30 value="0.0019959635" flag="0"/>
    </comp>
    <comp name="--.HHZ">
      <acc value="0.0000744351" flag="0"/>
      <vel value="0.0000086363" flag="0"/>
      <psa03 value="0.0000681871" flag="0"/>
      <psa10 value="0.0000088069" flag="0"/>
      <psa30 value="0.0000007696" flag="0"/>
    </comp>
  </station>
  <station code="KEK" name="KEK" netid="HL" insttype="120" lat="39.7127" lon="19.7962">
    <comp name="--.HHN">
      <acc value="0.0514379392" flag="0"/>
      <vel value="0.0259376151" flag="0"/>
      <psa03 value="0.1013475403" flag="0"/>
      <psa10 value="0.0243318066" flag="0"/>
      <psa30 value="0.0016789193" flag="0"/>
    </comp>
    <comp name="--.HHE">
      <acc value="0.0956434923" flag="0"/>
      <vel value="0.0394584837" flag="0"/>
      <psa03 value="0.1346164694" flag="0"/>
      <psa10 value="0.0257618958" flag="0"/>
      <psa30 value="0.0022095599" flag="0"/>
    </comp>
    <comp name="--.HHZ">
      <acc value="0.0488575598" flag="0"/>
      <vel value="0.0293313269" flag="0"/>
      <psa03 value="0.1186978542" flag="0"/>
      <psa10 value="0.0450049443" flag="0"/>
      <psa30 value="0.0020930502" flag="0"/>
    </comp>
  </station>
  <station code="OTHN" name="OTHN" netid="HL" insttype="30" lat="39.8416" lon="19.4057">
    <comp name="--.HHE">
      <acc value="0.0907907234" flag="0"/>
      <vel value="0.0232287567" flag="0"/>
      <psa03 value="0.1048260962" flag="0"/>
      <psa10 value="0.0178659782" flag="0"/>
      <psa30 value="0.0008573358" flag="0"/>
    </comp>
    <comp name="--.HHN">
      <acc value="0.1389503938" flag="0"/>
      <vel value="0.0255267125" flag="0"/>
      <psa03 value="0.1026238722" flag="0"/>
      <psa10 value="0.0107940369" flag="0"/>
      <psa30 value="0.0010690006" flag="0"/>
    </comp>
    <comp name="--.HHZ">
      <acc value="0.0704323691" flag="0"/>
      <vel value="0.0170296220" flag="0"/>
      <psa03 value="0.0681675505" flag="0"/>
      <psa10 value="0.0072691633" flag="0"/>
      <psa30 value="0.0005965530" flag="0"/>
    </comp>
  </station>
  <station code="PENT" name="PENT" netid="HL" insttype="30s-100Hz," lat="40.1959" lon="21.1384">
    <comp name="--.HHN">
      <acc value="0.0062089758" flag="0"/>
      <vel value="0.0039101579" flag="0"/>
      <psa03 value="0.0207070749" flag="0"/>
      <psa10 value="0.0063532793" flag="0"/>
      <psa30 value="0.0004400413" flag="0"/>
    </comp>
    <comp name="--.HHZ">
      <acc value="0.0055449936" flag="0"/>
      <vel value="0.0045685389" flag="0"/>
      <psa03 value="0.0142248559" flag="0"/>
      <psa10 value="0.0097025158" flag="0"/>
      <psa30 value="0.0004985087" flag="0"/>
    </comp>
    <comp name="--.HHE">
      <acc value="0.0060809571" flag="0"/>
      <vel value="0.0049791689" flag="0"/>
      <psa03 value="0.0130113994" flag="0"/>
      <psa10 value="0.0103725887" flag="0"/>
      <psa30 value="0.0004403048" flag="0"/>
    </comp>
  </station>
  <station code="TETR" name="TETR" netid="HL" insttype="60" lat="39.3445" lon="21.2747">
    <comp name="--.HHE">
      <acc value="0.0308748951" flag="0"/>
      <vel value="0.0149184824" flag="0"/>
      <psa03 value="0.0671188101" flag="0"/>
      <psa10 value="0.0140843073" flag="0"/>
      <psa30 value="0.0012360209" flag="0"/>
    </comp>
    <comp name="--.HHN">
      <acc value="0.0222908378" flag="0"/>
      <vel value="0.0123056898" flag="0"/>
      <psa03 value="0.0556214090" flag="0"/>
      <psa10 value="0.0164962666" flag="0"/>
      <psa30 value="0.0011225450" flag="0"/>
    </comp>
    <comp name="--.HHZ">
      <acc value="0.0111354428" flag="0"/>
      <vel value="0.0051845422" flag="0"/>
      <psa03 value="0.0167069268" flag="0"/>
      <psa10 value="0.0069050382" flag="0"/>
      <psa30 value="0.0007611845" flag="0"/>
    </comp>
  </station>
  <station code="AMPL" name="AMPL" netid="HP" insttype="Compact," lat="38.9224" lon="21.2135">
    <comp name="--.HHE">
      <acc value="0.0093448217" flag="0"/>
      <vel value="0.0044964038" flag="0"/>
      <psa03 value="0.0197964953" flag="0"/>
      <psa10 value="0.0047973620" flag="0"/>
      <psa30 value="0.0005013050" flag="0"/>
    </comp>
    <comp name="--.HHN">
      <acc value="0.0100788243" flag="0"/>
      <vel value="0.0042409099" flag="0"/>
      <psa03 value="0.0214028777" flag="0"/>
      <psa10 value="0.0039725793" flag="0"/>
      <psa30 value="0.0002997433" flag="0"/>
    </comp>
    <comp name="--.HHZ">
      <acc value="0.0046677844" flag="0"/>
      <vel value="0.0027841249" flag="0"/>
      <psa03 value="0.0124961846" flag="0"/>
      <psa10 value="0.0044233514" flag="0"/>
      <psa30 value="0.0003153043" flag="0"/>
    </comp>
  </station>
  <station code="KSTR" name="KSTR" netid="HP" insttype="Compact," lat="39.2492" lon="20.576">
    <comp name="--.HHE">
      <acc value="0.0194803004" flag="0"/>
      <vel value="0.0076992434" flag="0"/>
      <psa03 value="0.0363380444" flag="0"/>
      <psa10 value="0.0085294658" flag="0"/>
      <psa30 value="0.0007571701" flag="0"/>
    </comp>
    <comp name="--.HHN">
      <acc value="0.0176567213" flag="0"/>
      <vel value="0.0073406803" flag="0"/>
      <psa03 value="0.0409880730" flag="0"/>
      <psa10 value="0.0067876138" flag="0"/>
      <psa30 value="0.0006040190" flag="0"/>
    </comp>
    <comp name="--.HHZ">
      <acc value="0.0139102019" flag="0"/>
      <vel value="0.0061307051" flag="0"/>
      <psa03 value="0.0190010866" flag="0"/>
      <psa10 value="0.0069351855" flag="0"/>
      <psa30 value="0.0005486994" flag="0"/>
    </comp>
  </station>
  <station code="PRMD" name="PRMD" netid="HP" insttype="120P," lat="39.5299" lon="21.0965">
    <comp name="--.HHE">
      <acc value="0.0189880414" flag="0"/>
      <vel value="0.0150490682" flag="0"/>
      <psa03 value="0.0539529910" flag="0"/>
      <psa10 value="0.0173272594" flag="0"/>
      <psa30 value="0.0008259305" flag="0"/>
    </comp>
    <comp name="--.HHN">
      <acc value="0.0205619928" flag="0"/>
      <vel value="0.0114308272" flag="0"/>
      <psa03 value="0.0367240493" flag="0"/>
      <psa10 value="0.0120500733" flag="0"/>
      <psa30 value="0.0008239227" flag="0"/>
    </comp>
    <comp name="--.HHZ">
      <acc value="0.0135057477" flag="0"/>
      <vel value="0.0071860427" flag="0"/>
      <psa03 value="0.0319037601" flag="0"/>
      <psa10 value="0.0092502313" flag="0"/>
      <psa30 value="0.0008464435" flag="0"/>
    </comp>
  </station>
  <station code="KPRO" name="KPRO" netid="HT" insttype="100" lat="39.9549" lon="21.3632">
    <comp name="--.HHE">
      <acc value="0.0146764281" flag="0"/>
      <vel value="0.0121662190" flag="0"/>
      <psa03 value="0.0410879352" flag="0"/>
      <psa10 value="0.0210795125" flag="0"/>
      <psa30 value="0.0007491234" flag="0"/>
    </comp>
    <comp name="--.HHZ">
      <acc value="0.0065053860" flag="0"/>
      <vel value="0.0080607336" flag="0"/>
      <psa03 value="0.0143836929" flag="0"/>
      <psa10 value="0.0143022832" flag="0"/>
      <psa30 value="0.0007509265" flag="0"/>
    </comp>
    <comp name="--.HHN">
      <acc value="0.0160147425" flag="0"/>
      <vel value="0.0110919158" flag="0"/>
      <psa03 value="0.0293077666" flag="0"/>
      <psa10 value="0.0199830556" flag="0"/>
      <psa30 value="0.0009088176" flag="0"/>
    </comp>
  </station>
  <station code="NEST" name="NEST" netid="HT" insttype="120P," lat="40.4147" lon="21.0489">
    <comp name="--.HHN">
      <acc value="0.0059691834" flag="0"/>
      <vel value="0.0044177870" flag="0"/>
      <psa03 value="0.0127010604" flag="0"/>
      <psa10 value="0.0048981361" flag="0"/>
      <psa30 value="0.0004120412" flag="0"/>
    </comp>
    <comp name="--.HHZ">
      <acc value="0.0053320691" flag="0"/>
      <vel value="0.0042546421" flag="0"/>
      <psa03 value="0.0142474519" flag="0"/>
      <psa10 value="0.0066611275" flag="0"/>
      <psa30 value="0.0006992851" flag="0"/>
    </comp>
    <comp name="--.HHE">
      <acc value="0.0061837286" flag="0"/>
      <vel value="0.0045155168" flag="0"/>
      <psa03 value="0.0166206833" flag="0"/>
      <psa10 value="0.0055974452" flag="0"/>
      <psa30 value="0.0006134005" flag="0"/>
    </comp>
  </station>
  <station code="NYDR" name="NYDR" netid="HT" insttype="1s-100Hz," lat="38.7135" lon="20.6983">
    <comp name="--.HHE">
      <acc value="0.0105956610" flag="0"/>
      <vel value="0.0096068992" flag="0"/>
      <psa03 value="0.0274767359" flag="0"/>
      <psa10 value="0.0155443695" flag="0"/>
      <psa30 value="0.0009020188" flag="0"/>
    </comp>
    <comp name="--.HHN">
      <acc value="0.0138118496" flag="0"/>
      <vel value="0.0049054026" flag="0"/>
      <psa03 value="0.0292313601" flag="0"/>
      <psa10 value="0.0067791274" flag="0"/>
      <psa30 value="0.0004655211" flag="0"/>
    </comp>
    <comp name="--.HHZ">
      <acc value="0.0064827741" flag="0"/>
      <vel value="0.0034696856" flag="0"/>
      <psa03 value="0.0205679326" flag="0"/>
      <psa10 value="0.0051060384" flag="0"/>
      <psa30 value="0.0002702878" flag="0"/>
    </comp>
  </station>
  <station code="TSLK" name="TSLK" netid="HT" insttype="1s-100Hz," lat="38.8249" lon="20.6554">
    <comp name="--.HHE">
      <acc value="0.0205789318" flag="0"/>
      <vel value="0.0098663637" flag="0"/>
      <psa03 value="0.0357431357" flag="0"/>
      <psa10 value="0.0125350304" flag="0"/>
      <psa30 value="0.0006392560" flag="0"/>
    </comp>
    <comp name="--.HHN">
      <acc value="0.0216702292" flag="0"/>
      <vel value="0.0124888894" flag="0"/>
      <psa03 value="0.0676452641" flag="0"/>
      <psa10 value="0.0079149816" flag="0"/>
      <psa30 value="0.0006124716" flag="0"/>
    </comp>
    <comp name="--.HHZ">
      <acc value="0.0115304588" flag="0"/>
      <vel value="0.0035714849" flag="0"/>
      <psa03 value="0.0187244844" flag="0"/>
      <psa10 value="0.0044106881" flag="0"/>
      <psa30 value="0.0003447763" flag="0"/>
    </comp>
  </station>
  <station code="KEK" name="KEK" netid="MN" insttype="" lat="39.7127" lon="19.7962">
    <comp name="--.HHE">
      <acc value="0.0956434261" flag="0"/>
      <vel value="0.0394584564" flag="0"/>
      <psa03 value="0.1346163762" flag="0"/>
      <psa10 value="0.0257618778" flag="0"/>
      <psa30 value="0.0022095729" flag="0"/>
    </comp>
    <comp name="--.HHZ">
      <acc value="0.0488575260" flag="0"/>
      <vel value="0.0293313065" flag="0"/>
      <psa03 value="0.1186977720" flag="0"/>
      <psa10 value="0.0450049131" flag="0"/>
      <psa30 value="0.0020930524" flag="0"/>
    </comp>
    <comp name="--.HHN">
      <acc value="0.0514379035" flag="0"/>
      <vel value="0.0259375969" flag="0"/>
      <psa03 value="0.1013474701" flag="0"/>
      <psa10 value="0.0243317898" flag="0"/>
      <psa30 value="0.0016789235" flag="0"/>
    </comp>
  </station>
</stationlist>
