<?xml version="1.0" encoding="UTF-8" standalone="yes"?>
<!DOCTYPE earthquake SYSTEM "stationlist.dtd">
<stationlist created="" xmlns="ch.ethz.sed.shakemap.usgs.xml">
  <station code="SRN" name="SRN" netid="AC" insttype="" lat="39.88" lon="20.0005">
    <comp name="--.HHE">
      <acc value="0.0038358115" flag="0"/>
      <vel value="0.0024526875" flag="0"/>
      <psa03 value="0.0120214835" flag="0"/>
      <psa10 value="0.0030145328" flag="0"/>
      <psa30 value="0.0003126535" flag="0"/>
    </comp>
    <comp name="--.HHZ">
      <acc value="0.0040052526" flag="0"/>
      <vel value="0.0020405792" flag="0"/>
      <psa03 value="0.0098571145" flag="0"/>
      <psa10 value="0.0019499063" flag="0"/>
      <psa30 value="0.0001531442" flag="0"/>
    </comp>
    <comp name="--.HHN">
      <acc value="0.0058828225" flag="0"/>
      <vel value="0.0031548273" flag="0"/>
      <psa03 value="0.0095031362" flag="0"/>
      <psa10 value="0.0054318753" flag="0"/>
      <psa30 value="0.0002778716" flag="0"/>
    </comp>
  </station>
  <station code="VLO" name="VLO" netid="AC" insttype="" lat="40.4686" lon="19.4955">
    <comp name="--.HHE">
      <acc value="0.0349417954" flag="0"/>
      <vel value="0.0120151070" flag="0"/>
      <psa03 value="0.0610304954" flag="0"/>
      <psa10 value="0.0134431639" flag="0"/>
      <psa30 value="0.0009102902" flag="0"/>
    </comp>
    <comp name="--.HHN">
      <acc value="0.0632069224" flag="0"/>
      <vel value="0.0118711705" flag="0"/>
      <psa03 value="0.0513318105" flag="0"/>
      <psa10 value="0.0143728233" flag="0"/>
      <psa30 value="0.0012410897" flag="0"/>
    </comp>
    <comp name="--.HHZ">
      <acc value="0.0176586379" flag="0"/>
      <vel value="0.0084031683" flag="0"/>
      <psa03 value="0.0417465985" flag="0"/>
      <psa10 value="0.0076923988" flag="0"/>
      <psa30 value="0.0008486262" flag="0"/>
    </comp>
  </station>
  <station code="JAN" name="JAN" netid="HL" insttype="CMG3EPSC60_DR24" lat="39.6562" lon="20.8487">
    <comp name="--.HHE">
      <acc value="0.0362399966" flag="0"/>
      <vel value="0.0152121856" flag="0"/>
      <psa03 value="0.0849824601" flag="0"/>
      <psa10 value="0.0169745391" flag="0"/>
      <psa30 value="0.0011863420" flag="0"/>
    </comp>
    <comp name="--.HHN">
      <acc value="0.0311786403" flag="0"/>
      <vel value="0.0108011441" flag="0"/>
      <psa03 value="0.0533580823" flag="0"/>
      <psa10 value="0.0114252787" flag="0"/>
      <psa30 value="0.0008319483" flag="0"/>
    </comp>
    <comp name="--.HHZ">
      <acc value="0.0001514768" flag="0"/>
      <vel value="0.0000227804" flag="0"/>
      <psa03 value="0.0000598544" flag="0"/>
      <psa10 value="0.0000290695" flag="0"/>
      <psa30 value="0.0000017938" flag="0"/>
    </comp>
  </station>
  <station code="KEK" name="KEK" netid="HL" insttype="120" lat="39.7127" lon="19.7962">
    <comp name="--.HHE">
      <acc value="0.0075033384" flag="0"/>
      <vel value="0.0036670509" flag="0"/>
      <psa03 value="0.0156928276" flag="0"/>
      <psa10 value="0.0058269218" flag="0"/>
      <psa30 value="0.0003535860" flag="0"/>
    </comp>
    <comp name="--.HHN">
      <acc value="0.0070523775" flag="0"/>
      <vel value="0.0038888765" flag="0"/>
      <psa03 value="0.0192447471" flag="0"/>
      <psa10 value="0.0065270938" flag="0"/>
      <psa30 value="0.0004792127" flag="0"/>
    </comp>
    <comp name="--.HHZ">
      <acc value="0.0051134242" flag="0"/>
      <vel value="0.0023058224" flag="0"/>
      <psa03 value="0.0104195540" flag="0"/>
      <psa10 value="0.0038978488" flag="0"/>
      <psa30 value="0.0002682234" flag="0"/>
    </comp>
  </station>
  <station code="KZN" name="KZN" netid="HL" insttype="120" lat="40.3033" lon="21.7821">
    <comp name="--.HHE">
      <acc value="0.0098357202" flag="0"/>
      <vel value="0.0051536885" flag="0"/>
      <psa03 value="0.0249058193" flag="0"/>
      <psa10 value="0.0040464105" flag="0"/>
      <psa30 value="0.0008018475" flag="0"/>
    </comp>
    <comp name="--.HHN">
      <acc value="0.0058526345" flag="0"/>
      <vel value="0.0044747151" flag="0"/>
      <psa03 value="0.0212202634" flag="0"/>
      <psa10 value="0.0040866824" flag="0"/>
      <psa30 value="0.0003182492" flag="0"/>
    </comp>
    <comp name="--.HHZ">
      <acc value="0.0040189306" flag="0"/>
      <vel value="0.0024714355" flag="0"/>
      <psa03 value="0.0104899441" flag="0"/>
      <psa10 value="0.0025696649" flag="0"/>
      <psa30 value="0.0009288238" flag="0"/>
    </comp>
  </station>
  <station code="OTHN" name="OTHN" netid="HL" insttype="30" lat="39.8416" lon="19.4057">
    <comp name="--.HHN">
      <acc value="0.0305751217" flag="0"/>
      <vel value="0.0121923752" flag="0"/>
      <psa03 value="0.0562184573" flag="0"/>
      <psa10 value="0.0082542249" flag="0"/>
      <psa30 value="0.0005372234" flag="0"/>
    </comp>
    <comp name="--.HHZ">
      <acc value="0.0198371919" flag="0"/>
      <vel value="0.0092158652" flag="0"/>
      <psa03 value="0.0438084189" flag="0"/>
      <psa10 value="0.0063897811" flag="0"/>
      <psa30 value="0.0004894444" flag="0"/>
    </comp>
    <comp name="--.HHE">
      <acc value="0.0277973475" flag="0"/>
      <vel value="0.0101101349" flag="0"/>
      <psa03 value="0.0704316870" flag="0"/>
      <psa10 value="0.0093738087" flag="0"/>
      <psa30 value="0.0004861361" flag="0"/>
    </comp>
  </station>
  <station code="TETR" name="TETR" netid="HL" insttype="60" lat="39.3445" lon="21.2747">
    <comp name="--.HHZ">
      <acc value="0.0045195639" flag="0"/>
      <vel value="0.0024713035" flag="0"/>
      <psa03 value="0.0134708837" flag="0"/>
      <psa10 value="0.0028203883" flag="0"/>
      <psa30 value="0.0007059852" flag="0"/>
    </comp>
    <comp name="--.HHN">
      <acc value="0.0098389022" flag="0"/>
      <vel value="0.0085637613" flag="0"/>
      <psa03 value="0.0314911722" flag="0"/>
      <psa10 value="0.0093108990" flag="0"/>
      <psa30 value="0.0008088005" flag="0"/>
    </comp>
    <comp name="--.HHE">
      <acc value="0.0118325919" flag="0"/>
      <vel value="0.0088056166" flag="0"/>
      <psa03 value="0.0409886202" flag="0"/>
      <psa10 value="0.0096702041" flag="0"/>
      <psa30 value="0.0011418687" flag="0"/>
    </comp>
  </station>
  <station code="KSTR" name="KSTR" netid="HP" insttype="Compact," lat="39.2492" lon="20.576">
    <comp name="--.HHE">
      <acc value="0.0044469688" flag="0"/>
      <vel value="0.0024051371" flag="0"/>
      <psa03 value="0.0087910085" flag="0"/>
      <psa10 value="0.0033228092" flag="0"/>
      <psa30 value="0.0003663062" flag="0"/>
    </comp>
    <comp name="--.HHN">
      <acc value="0.0038004287" flag="0"/>
      <vel value="0.0028186271" flag="0"/>
      <psa03 value="0.0085893707" flag="0"/>
      <psa10 value="0.0029041591" flag="0"/>
      <psa30 value="0.0002820770" flag="0"/>
    </comp>
    <comp name="--.HHZ">
      <acc value="0.0025497914" flag="0"/>
      <vel value="0.0023276870" flag="0"/>
      <psa03 value="0.0066894531" flag="0"/>
      <psa10 value="0.0033510155" flag="0"/>
      <psa30 value="0.0003024911" flag="0"/>
    </comp>
  </station>
  <station code="KEK" name="KEK" netid="MN" insttype="" lat="39.7127" lon="19.7962">
    <comp name="--.HHZ">
      <acc value="0.0051134206" flag="0"/>
      <vel value="0.0023058208" flag="0"/>
      <psa03 value="0.0104195467" flag="0"/>
      <psa10 value="0.0038978461" flag="0"/>
      <psa30 value="0.0002682233" flag="0"/>
    </comp>
    <comp name="--.HHE">
      <acc value="0.0075033332" flag="0"/>
      <vel value="0.0036670483" flag="0"/>
      <psa03 value="0.0156928167" flag="0"/>
      <psa10 value="0.0058269178" flag="0"/>
      <psa30 value="0.0003535857" flag="0"/>
    </comp>
    <comp name="--.HHN">
      <acc value="0.0070523726" flag="0"/>
      <vel value="0.0038888738" flag="0"/>
      <psa03 value="0.0192447338" flag="0"/>
      <psa10 value="0.0065270893" flag="0"/>
      <psa30 value="0.0004792124" flag="0"/>
    </comp>
  </station>
</stationlist>
