<?xml version="1.0" encoding="UTF-8" standalone="yes"?>
<!DOCTYPE earthquake SYSTEM "stationlist.dtd">
<stationlist created="" xmlns="ch.ethz.sed.shakemap.usgs.xml">
  <station code="BISRR" name="BISRR" netid="RO" insttype="CMG40T.1to100/Basalt" commtype="DIG" lat="45.5481" lon="26.7099">
    <comp name="--.HHE">
      <acc value="0.0527147952" flag="0"/>
      <vel value="0.0178273881" flag="0"/>
      <psa03 value="0.1377917102" flag="0"/>
      <psa10 value="0.0147372838" flag="0"/>
      <psa30 value="0.0007360241" flag="0"/>
    </comp>
    <comp name="--.HHN">
      <acc value="0.0401788718" flag="0"/>
      <vel value="0.0196703477" flag="0"/>
      <psa03 value="0.1283469324" flag="0"/>
      <psa10 value="0.0140380194" flag="0"/>
      <psa30 value="0.0009722799" flag="0"/>
    </comp>
    <comp name="--.HHZ">
      <acc value="0.0331559411" flag="0"/>
      <vel value="0.0103563873" flag="0"/>
      <psa03 value="0.0559699971" flag="0"/>
      <psa10 value="0.0081797943" flag="0"/>
      <psa30 value="0.0003556879" flag="0"/>
    </comp>
  </station>
  <station code="BOSR" name="BOSR" netid="RO" insttype="Seismometer/Basalt" commtype="DIG" lat="46.0749" lon="25.6611">
    <comp name="--.HHE">
      <acc value="0.0101201495" flag="0"/>
      <vel value="0.0055370188" flag="0"/>
      <psa03 value="0.0287778374" flag="0"/>
      <psa10 value="0.0051338232" flag="0"/>
      <psa30 value="0.0002801634" flag="0"/>
    </comp>
    <comp name="--.HHZ">
      <acc value="0.0077871276" flag="0"/>
      <vel value="0.0032245317" flag="0"/>
      <psa03 value="0.0146973830" flag="0"/>
      <psa10 value="0.0016063726" flag="0"/>
      <psa30 value="0.0001553950" flag="0"/>
    </comp>
    <comp name="--.HHN">
      <acc value="0.0130596705" flag="0"/>
      <vel value="0.0072812986" flag="0"/>
      <psa03 value="0.0288884951" flag="0"/>
      <psa10 value="0.0037358141" flag="0"/>
      <psa30 value="0.0002831431" flag="0"/>
    </comp>
  </station>
  <station code="DOPR" name="DOPR" netid="RO" insttype="330" commtype="DIG" lat="45.9675" lon="25.3886">
    <comp name="--.HHZ">
      <acc value="0.0036516703" flag="0"/>
      <vel value="0.0014321890" flag="0"/>
      <psa03 value="0.0052402956" flag="0"/>
      <psa10 value="0.0007615502" flag="0"/>
      <psa30 value="0.0000830122" flag="0"/>
    </comp>
    <comp name="--.HHE">
      <acc value="0.0074545761" flag="0"/>
      <vel value="0.0026873153" flag="0"/>
      <psa03 value="0.0129604404" flag="0"/>
      <psa10 value="0.0026115026" flag="0"/>
      <psa30 value="0.0001824435" flag="0"/>
    </comp>
    <comp name="--.HHN">
      <acc value="0.0062621770" flag="0"/>
      <vel value="0.0018650254" flag="0"/>
      <psa03 value="0.0104835628" flag="0"/>
      <psa10 value="0.0014461376" flag="0"/>
      <psa30 value="0.0001159262" flag="0"/>
    </comp>
  </station>
  <station code="MLR" name="MLR" netid="RO" insttype="330HR" commtype="DIG" lat="45.4909" lon="25.945">
    <comp name="--.HHE">
      <acc value="0.0147474524" flag="0"/>
      <vel value="0.0061153491" flag="0"/>
      <psa03 value="0.0583805233" flag="0"/>
      <psa10 value="0.0041172864" flag="0"/>
      <psa30 value="0.0004558298" flag="0"/>
    </comp>
    <comp name="--.HHZ">
      <acc value="0.0121118287" flag="0"/>
      <vel value="0.0063702248" flag="0"/>
      <psa03 value="0.0394359882" flag="0"/>
      <psa10 value="0.0028365219" flag="0"/>
      <psa30 value="0.0002513539" flag="0"/>
    </comp>
    <comp name="--.HHN">
      <acc value="0.0188882696" flag="0"/>
      <vel value="0.0095369553" flag="0"/>
      <psa03 value="0.0540352277" flag="0"/>
      <psa10 value="0.0031568346" flag="0"/>
      <psa30 value="0.0004986802" flag="0"/>
    </comp>
  </station>
  <station code="NARR" name="NARR" netid="RO" insttype="OBS-SIO/Centaur" commtype="DIG" lat="45.8165" lon="26.7368">
    <comp name="--.HHE">
      <acc value="0.1124691519" flag="0"/>
      <vel value="0.0319027487" flag="0"/>
      <psa03 value="0.1153945149" flag="0"/>
      <psa10 value="0.0053034510" flag="0"/>
      <psa30 value="0.0004907218" flag="0"/>
    </comp>
    <comp name="--.HHZ">
      <acc value="0.0721405960" flag="0"/>
      <vel value="0.0189603017" flag="0"/>
      <psa03 value="0.0700262445" flag="0"/>
      <psa10 value="0.0028454963" flag="0"/>
      <psa30 value="0.0003122624" flag="0"/>
    </comp>
    <comp name="--.HHN">
      <acc value="0.0710032257" flag="0"/>
      <vel value="0.0196623689" flag="0"/>
      <psa03 value="0.0822001126" flag="0"/>
      <psa10 value="0.0059617939" flag="0"/>
      <psa30 value="0.0004588910" flag="0"/>
    </comp>
  </station>
  <station code="NEHR" name="NEHR" netid="RO" insttype="Seismometer/Basalt" commtype="DIG" lat="45.4272" lon="26.2952">
    <comp name="--.HHE">
      <acc value="0.0046112032" flag="0"/>
      <vel value="0.0016061076" flag="0"/>
      <psa03 value="0.0120797555" flag="0"/>
      <psa10 value="0.0009585669" flag="0"/>
      <psa30 value="0.0000612596" flag="0"/>
    </comp>
    <comp name="--.HHN">
      <acc value="0.0039744850" flag="0"/>
      <vel value="0.0013633860" flag="0"/>
      <psa03 value="0.0087496725" flag="0"/>
      <psa10 value="0.0007006329" flag="0"/>
      <psa30 value="0.0000526449" flag="0"/>
    </comp>
    <comp name="--.HHZ">
      <acc value="0.0020297266" flag="0"/>
      <vel value="0.0007378534" flag="0"/>
      <psa03 value="0.0050182614" flag="0"/>
      <psa10 value="0.0003668495" flag="0"/>
      <psa30 value="0.0000211781" flag="0"/>
    </comp>
  </station>
  <station code="ODBI" name="ODBI" netid="RO" insttype="200" commtype="DIG" lat="45.7633" lon="27.0558">
    <comp name="--.HNE">
      <acc value="0.0336957761" flag="0"/>
      <vel value="0.0056118725" flag="0"/>
      <psa03 value="0.0269076688" flag="0"/>
      <psa10 value="0.0035189107" flag="0"/>
      <psa30 value="0.0002357120" flag="0"/>
    </comp>
    <comp name="--.HNZ">
      <acc value="0.0404597295" flag="0"/>
      <vel value="0.0116024105" flag="0"/>
      <psa03 value="0.0401192187" flag="0"/>
      <psa10 value="0.0027385741" flag="0"/>
      <psa30 value="0.0003221914" flag="0"/>
    </comp>
    <comp name="--.HNN">
      <acc value="0.0180109192" flag="0"/>
      <vel value="0.0044900645" flag="0"/>
      <psa03 value="0.0297083457" flag="0"/>
      <psa10 value="0.0038351668" flag="0"/>
      <psa30 value="0.0002235647" flag="0"/>
    </comp>
  </station>
  <station code="PANC" name="PANC" netid="RO" insttype="Seismometer/Basalt" commtype="DIG" lat="45.8723" lon="27.1477">
    <comp name="--.HHE">
      <acc value="0.0396143291" flag="0"/>
      <vel value="0.0075823855" flag="0"/>
      <psa03 value="0.0341325661" flag="0"/>
      <psa10 value="0.0019962360" flag="0"/>
      <psa30 value="0.0001578960" flag="0"/>
    </comp>
    <comp name="--.HHN">
      <acc value="0.0769277428" flag="0"/>
      <vel value="0.0112942410" flag="0"/>
      <psa03 value="0.0422182556" flag="0"/>
      <psa10 value="0.0022732810" flag="0"/>
      <psa30 value="0.0002122359" flag="0"/>
    </comp>
    <comp name="--.HHZ">
      <acc value="0.1545693060" flag="0"/>
      <vel value="0.0211761167" flag="0"/>
      <psa03 value="0.0964120372" flag="0"/>
      <psa10 value="0.0049114364" flag="0"/>
      <psa30 value="0.0005173974" flag="0"/>
    </comp>
  </station>
  <station code="PGOR" name="PGOR" netid="RO" insttype="CMG40T.1to100/Quanterra" commtype="DIG" lat="44.9199" lon="26.9768">
    <comp name="--.HHE">
      <acc value="0.0533864578" flag="0"/>
      <vel value="0.0147706226" flag="0"/>
      <psa03 value="0.1053187174" flag="0"/>
      <psa10 value="0.0041482098" flag="0"/>
      <psa30 value="0.0004406327" flag="0"/>
    </comp>
    <comp name="--.HHN">
      <acc value="0.0394001996" flag="0"/>
      <vel value="0.0130327877" flag="0"/>
      <psa03 value="0.0598808857" flag="0"/>
      <psa10 value="0.0054264190" flag="0"/>
      <psa30 value="0.0004645933" flag="0"/>
    </comp>
    <comp name="--.HHZ">
      <acc value="0.1348408491" flag="0"/>
      <vel value="0.0131095142" flag="0"/>
      <psa03 value="0.0174472855" flag="0"/>
      <psa10 value="0.0012978687" flag="0"/>
      <psa30 value="0.0000796507" flag="0"/>
    </comp>
  </station>
  <station code="PLOR" name="PLOR" netid="RO" insttype="MBB2/Quanterra" commtype="DIG" lat="45.8512" lon="26.6498">
    <comp name="--.HHN">
      <acc value="0.0270271199" flag="0"/>
      <vel value="0.0105894881" flag="0"/>
      <psa03 value="0.0644940817" flag="0"/>
      <psa10 value="0.0036680502" flag="0"/>
      <psa30 value="0.0002909922" flag="0"/>
    </comp>
    <comp name="--.HHE">
      <acc value="0.0278960122" flag="0"/>
      <vel value="0.0100415508" flag="0"/>
      <psa03 value="0.0627212558" flag="0"/>
      <psa10 value="0.0053947386" flag="0"/>
      <psa30 value="0.0003212540" flag="0"/>
    </comp>
    <comp name="--.HHZ">
      <acc value="0.0146369150" flag="0"/>
      <vel value="0.0036979011" flag="0"/>
      <psa03 value="0.0289830665" flag="0"/>
      <psa10 value="0.0015647358" flag="0"/>
      <psa30 value="0.0001499474" flag="0"/>
    </comp>
  </station>
  <station code="PLOR4" name="PLOR4" netid="RO" insttype="MBB2/Quanterra" commtype="DIG" lat="45.8512" lon="26.6498">
    <comp name="--.HHE">
      <acc value="0.0278960122" flag="0"/>
      <vel value="0.0100415508" flag="0"/>
      <psa03 value="0.0627212558" flag="0"/>
      <psa10 value="0.0053947386" flag="0"/>
      <psa30 value="0.0003212540" flag="0"/>
    </comp>
    <comp name="--.HHZ">
      <acc value="0.0146369150" flag="0"/>
      <vel value="0.0036979011" flag="0"/>
      <psa03 value="0.0289830665" flag="0"/>
      <psa10 value="0.0015647358" flag="0"/>
      <psa30 value="0.0001499474" flag="0"/>
    </comp>
    <comp name="--.HHN">
      <acc value="0.0270271199" flag="0"/>
      <vel value="0.0105894881" flag="0"/>
      <psa03 value="0.0644940817" flag="0"/>
      <psa10 value="0.0036680502" flag="0"/>
      <psa30 value="0.0002909922" flag="0"/>
    </comp>
  </station>
  <station code="TUDR" name="TUDR" netid="RO" insttype="CMG40T.1to100/Quanterra" commtype="DIG" lat="45.5939" lon="27.6687">
    <comp name="--.HHN">
      <acc value="0.0566213652" flag="0"/>
      <vel value="0.0168750101" flag="0"/>
      <psa03 value="0.0587376518" flag="0"/>
      <psa10 value="0.0055871975" flag="0"/>
      <psa30 value="0.0003220573" flag="0"/>
    </comp>
    <comp name="--.HHE">
      <acc value="0.0549444185" flag="0"/>
      <vel value="0.0130975320" flag="0"/>
      <psa03 value="0.0979322300" flag="0"/>
      <psa10 value="0.0047882781" flag="0"/>
      <psa30 value="0.0003941351" flag="0"/>
    </comp>
    <comp name="--.HHZ">
      <acc value="0.0993454254" flag="0"/>
      <vel value="0.0144645317" flag="0"/>
      <psa03 value="0.0344063834" flag="0"/>
      <psa10 value="0.0017935591" flag="0"/>
      <psa30 value="0.0001945375" flag="0"/>
    </comp>
  </station>
  <station code="VRI" name="VRI" netid="RO" insttype="Linear" commtype="DIG" lat="45.8657" lon="26.7277">
    <comp name="--.HHN">
      <acc value="0.0262288231" flag="0"/>
      <vel value="0.0097985422" flag="0"/>
      <psa03 value="0.0842672825" flag="0"/>
      <psa10 value="0.0036347576" flag="0"/>
      <psa30 value="0.0002271389" flag="0"/>
    </comp>
    <comp name="--.HHZ">
      <acc value="0.0224888641" flag="0"/>
      <vel value="0.0073403492" flag="0"/>
      <psa03 value="0.0517075918" flag="0"/>
      <psa10 value="0.0025666936" flag="0"/>
      <psa30 value="0.0002136002" flag="0"/>
    </comp>
    <comp name="--.HHE">
      <acc value="0.0159652603" flag="0"/>
      <vel value="0.0052261549" flag="0"/>
      <psa03 value="0.0368484879" flag="0"/>
      <psa10 value="0.0018193054" flag="0"/>
      <psa30 value="0.0001516252" flag="0"/>
    </comp>
  </station>
</stationlist>
