<?xml version="1.0" encoding="UTF-8" standalone="yes"?>
<!DOCTYPE earthquake SYSTEM "stationlist.dtd">
<stationlist created="" xmlns="ch.ethz.sed.shakemap.usgs.xml">
  <station code="BAC" name="BAC" netid="RO" insttype="2.5V" commtype="DIG" lat="46.5669" lon="26.9124">
    <comp name="--.HNE">
      <acc value="0.0153840029" flag="0"/>
      <vel value="0.0040847115" flag="0"/>
      <psa03 value="0.0212591039" flag="0"/>
      <psa10 value="0.0020462087" flag="0"/>
      <psa30 value="0.0001559946" flag="0"/>
    </comp>
    <comp name="--.HNN">
      <acc value="0.0099275612" flag="0"/>
      <vel value="0.0029735561" flag="0"/>
      <psa03 value="0.0156038666" flag="0"/>
      <psa10 value="0.0015317164" flag="0"/>
      <psa30 value="0.0001140941" flag="0"/>
    </comp>
    <comp name="--.HNZ">
      <acc value="0.0176976679" flag="0"/>
      <vel value="0.0032856825" flag="0"/>
      <psa03 value="0.0065208273" flag="0"/>
      <psa10 value="0.0009332038" flag="0"/>
      <psa30 value="0.0000736067" flag="0"/>
    </comp>
  </station>
  <station code="BIR" name="BIR" netid="RO" insttype="MBB2/Quanterra" commtype="DIG" lat="46.2334" lon="27.6436">
    <comp name="--.HHE">
      <acc value="0.0722559495" flag="0"/>
      <vel value="0.0157353093" flag="0"/>
      <psa03 value="0.0409579535" flag="0"/>
      <psa10 value="0.0044129708" flag="0"/>
      <psa30 value="0.0003758011" flag="0"/>
    </comp>
    <comp name="--.HHZ">
      <acc value="0.0640673970" flag="0"/>
      <vel value="0.0184253051" flag="0"/>
      <psa03 value="0.0527841633" flag="0"/>
      <psa10 value="0.0028438304" flag="0"/>
      <psa30 value="0.0003319793" flag="0"/>
    </comp>
    <comp name="--.HHN">
      <acc value="0.0796951461" flag="0"/>
      <vel value="0.0245073021" flag="0"/>
      <psa03 value="0.0829246859" flag="0"/>
      <psa10 value="0.0075861967" flag="0"/>
      <psa30 value="0.0006289327" flag="0"/>
    </comp>
  </station>
  <station code="BISRR" name="BISRR" netid="RO" insttype="CMG40T.1to100/Basalt" commtype="DIG" lat="45.5481" lon="26.7099">
    <comp name="--.HHE">
      <acc value="0.0527147955" flag="0"/>
      <vel value="0.0178279456" flag="0"/>
      <psa03 value="0.1377917110" flag="0"/>
      <psa10 value="0.0147372846" flag="0"/>
      <psa30 value="0.0007365986" flag="0"/>
    </comp>
    <comp name="--.HHN">
      <acc value="0.0401788750" flag="0"/>
      <vel value="0.0196701471" flag="0"/>
      <psa03 value="0.1283469327" flag="0"/>
      <psa10 value="0.0140380198" flag="0"/>
      <psa30 value="0.0009727524" flag="0"/>
    </comp>
    <comp name="--.HHZ">
      <acc value="0.0331559419" flag="0"/>
      <vel value="0.0103563977" flag="0"/>
      <psa03 value="0.0559699971" flag="0"/>
      <psa10 value="0.0081797944" flag="0"/>
      <psa30 value="0.0003559164" flag="0"/>
    </comp>
  </station>
  <station code="BOSR" name="BOSR" netid="RO" insttype="Seismometer/Basalt" commtype="DIG" lat="46.0749" lon="25.6611">
    <comp name="--.HHE">
      <acc value="0.0101201496" flag="0"/>
      <vel value="0.0055370185" flag="0"/>
      <psa03 value="0.0287778374" flag="0"/>
      <psa10 value="0.0051338233" flag="0"/>
      <psa30 value="0.0002801622" flag="0"/>
    </comp>
    <comp name="--.HHN">
      <acc value="0.0130596712" flag="0"/>
      <vel value="0.0072812986" flag="0"/>
      <psa03 value="0.0288884951" flag="0"/>
      <psa10 value="0.0037358141" flag="0"/>
      <psa30 value="0.0002831474" flag="0"/>
    </comp>
    <comp name="--.HHZ">
      <acc value="0.0077871281" flag="0"/>
      <vel value="0.0032245317" flag="0"/>
      <psa03 value="0.0146973830" flag="0"/>
      <psa10 value="0.0016063726" flag="0"/>
      <psa30 value="0.0001553942" flag="0"/>
    </comp>
  </station>
  <station code="DOPR" name="DOPR" netid="RO" insttype="330" commtype="DIG" lat="45.9675" lon="25.3886">
    <comp name="--.HHE">
      <acc value="0.0074545769" flag="0"/>
      <vel value="0.0026873153" flag="0"/>
      <psa03 value="0.0129604404" flag="0"/>
      <psa10 value="0.0026115026" flag="0"/>
      <psa30 value="0.0001824465" flag="0"/>
    </comp>
    <comp name="--.HHN">
      <acc value="0.0062621772" flag="0"/>
      <vel value="0.0018650255" flag="0"/>
      <psa03 value="0.0104835628" flag="0"/>
      <psa10 value="0.0014461376" flag="0"/>
      <psa30 value="0.0001159319" flag="0"/>
    </comp>
    <comp name="--.HHZ">
      <acc value="0.0036516698" flag="0"/>
      <vel value="0.0014321891" flag="0"/>
      <psa03 value="0.0052402956" flag="0"/>
      <psa10 value="0.0007615505" flag="0"/>
      <psa30 value="0.0000830119" flag="0"/>
    </comp>
  </station>
  <station code="GISR" name="GISR" netid="RO" insttype="2.5V" commtype="DIG" lat="45.4411" lon="28.0541">
    <comp name="--.HNE">
      <acc value="0.0888867327" flag="0"/>
      <vel value="0.0333095046" flag="0"/>
      <psa03 value="0.1666521963" flag="0"/>
      <psa10 value="0.0128669044" flag="0"/>
      <psa30 value="0.0009160202" flag="0"/>
    </comp>
    <comp name="--.HNN">
      <acc value="0.0591681711" flag="0"/>
      <vel value="0.0217645204" flag="0"/>
      <psa03 value="0.1527301329" flag="0"/>
      <psa10 value="0.0095404560" flag="0"/>
      <psa30 value="0.0006912416" flag="0"/>
    </comp>
    <comp name="--.HNZ">
      <acc value="0.0632809101" flag="0"/>
      <vel value="0.0139254390" flag="0"/>
      <psa03 value="0.0596083519" flag="0"/>
      <psa10 value="0.0049225327" flag="0"/>
      <psa30 value="0.0006087982" flag="0"/>
    </comp>
  </station>
  <station code="IZVR" name="IZVR" netid="RO" insttype="CMG40T.1to100/Quanterra" commtype="DIG" lat="45.5442" lon="27.7655">
    <comp name="--.HHN">
      <acc value="0.0414812159" flag="0"/>
      <vel value="0.0141596683" flag="0"/>
      <psa03 value="0.0555782262" flag="0"/>
      <psa10 value="0.0040055115" flag="0"/>
      <psa30 value="0.0002690910" flag="0"/>
    </comp>
    <comp name="--.HHE">
      <acc value="0.0357767491" flag="0"/>
      <vel value="0.0088014642" flag="0"/>
      <psa03 value="0.0313765862" flag="0"/>
      <psa10 value="0.0026185158" flag="0"/>
      <psa30 value="0.0001650838" flag="0"/>
    </comp>
    <comp name="--.HHZ">
      <acc value="0.0196930838" flag="0"/>
      <vel value="0.0035674305" flag="0"/>
      <psa03 value="0.0113733000" flag="0"/>
      <psa10 value="0.0006457943" flag="0"/>
      <psa30 value="0.0000718309" flag="0"/>
    </comp>
  </station>
  <station code="MLR" name="MLR" netid="RO" insttype="330HR" commtype="DIG" lat="45.4909" lon="25.945">
    <comp name="--.HHE">
      <acc value="0.0147474517" flag="0"/>
      <vel value="0.0061153488" flag="0"/>
      <psa03 value="0.0583805233" flag="0"/>
      <psa10 value="0.0041172863" flag="0"/>
      <psa30 value="0.0004558293" flag="0"/>
    </comp>
    <comp name="--.HHZ">
      <acc value="0.0121118290" flag="0"/>
      <vel value="0.0063702244" flag="0"/>
      <psa03 value="0.0394359882" flag="0"/>
      <psa10 value="0.0028365219" flag="0"/>
      <psa30 value="0.0002513250" flag="0"/>
    </comp>
    <comp name="--.HHN">
      <acc value="0.0188882682" flag="0"/>
      <vel value="0.0095369551" flag="0"/>
      <psa03 value="0.0540352277" flag="0"/>
      <psa10 value="0.0031568346" flag="0"/>
      <psa30 value="0.0004986773" flag="0"/>
    </comp>
  </station>
  <station code="MTUR" name="MTUR" netid="RO" insttype="200" commtype="DIG" lat="45.2349" lon="25.0739">
    <comp name="--.HNE">
      <acc value="0.0075880378" flag="0"/>
      <vel value="0.0032238755" flag="0"/>
      <psa03 value="0.0201016165" flag="0"/>
      <psa10 value="0.0049474844" flag="0"/>
      <psa30 value="0.0002054129" flag="0"/>
    </comp>
    <comp name="--.HNZ">
      <acc value="0.0112086655" flag="0"/>
      <vel value="0.0023063196" flag="0"/>
      <psa03 value="0.0131929442" flag="0"/>
      <psa10 value="0.0017603997" flag="0"/>
      <psa30 value="0.0002741827" flag="0"/>
    </comp>
    <comp name="--.HNN">
      <acc value="0.0111416280" flag="0"/>
      <vel value="0.0049084810" flag="0"/>
      <psa03 value="0.0304967934" flag="0"/>
      <psa10 value="0.0045208170" flag="0"/>
      <psa30 value="0.0002289779" flag="0"/>
    </comp>
  </station>
  <station code="NARR" name="NARR" netid="RO" insttype="OBS-SIO/Centaur" commtype="DIG" lat="45.8165" lon="26.7368">
    <comp name="--.HHE">
      <acc value="0.1124691539" flag="0"/>
      <vel value="0.0319027462" flag="0"/>
      <psa03 value="0.1153945149" flag="0"/>
      <psa10 value="0.0053034510" flag="0"/>
      <psa30 value="0.0004905786" flag="0"/>
    </comp>
    <comp name="--.HHN">
      <acc value="0.0710032252" flag="0"/>
      <vel value="0.0196623690" flag="0"/>
      <psa03 value="0.0822001126" flag="0"/>
      <psa10 value="0.0059617939" flag="0"/>
      <psa30 value="0.0004589195" flag="0"/>
    </comp>
    <comp name="--.HHZ">
      <acc value="0.0721405935" flag="0"/>
      <vel value="0.0189603001" flag="0"/>
      <psa03 value="0.0700262445" flag="0"/>
      <psa10 value="0.0028454982" flag="0"/>
      <psa30 value="0.0003123923" flag="0"/>
    </comp>
  </station>
  <station code="NEGRR" name="NEGRR" netid="RO" insttype="200" commtype="DIG" lat="45.5373" lon="27.8771">
    <comp name="--.HNE">
      <acc value="0.0291612107" flag="0"/>
      <vel value="0.0085683903" flag="0"/>
      <psa03 value="0.0644297105" flag="0"/>
      <psa10 value="0.0023147515" flag="0"/>
      <psa30 value="0.0001592650" flag="0"/>
    </comp>
    <comp name="--.HNN">
      <acc value="0.0187153863" flag="0"/>
      <vel value="0.0056820038" flag="0"/>
      <psa03 value="0.0285936825" flag="0"/>
      <psa10 value="0.0020440400" flag="0"/>
      <psa30 value="0.0001341607" flag="0"/>
    </comp>
    <comp name="--.HNZ">
      <acc value="0.0113727262" flag="0"/>
      <vel value="0.0025146706" flag="0"/>
      <psa03 value="0.0053088397" flag="0"/>
      <psa10 value="0.0006886618" flag="0"/>
      <psa30 value="0.0000632805" flag="0"/>
    </comp>
  </station>
  <station code="NEHR" name="NEHR" netid="RO" insttype="Seismometer/Basalt" commtype="DIG" lat="45.4272" lon="26.2952">
    <comp name="--.HHN">
      <acc value="0.0039744848" flag="0"/>
      <vel value="0.0013633862" flag="0"/>
      <psa03 value="0.0087496725" flag="0"/>
      <psa10 value="0.0007006329" flag="0"/>
      <psa30 value="0.0000526410" flag="0"/>
    </comp>
    <comp name="--.HHE">
      <acc value="0.0046112031" flag="0"/>
      <vel value="0.0016061075" flag="0"/>
      <psa03 value="0.0120797555" flag="0"/>
      <psa10 value="0.0009585669" flag="0"/>
      <psa30 value="0.0000612613" flag="0"/>
    </comp>
    <comp name="--.HHZ">
      <acc value="0.0020297265" flag="0"/>
      <vel value="0.0007378534" flag="0"/>
      <psa03 value="0.0050182614" flag="0"/>
      <psa10 value="0.0003668495" flag="0"/>
      <psa30 value="0.0000211793" flag="0"/>
    </comp>
  </station>
  <station code="ODBI" name="ODBI" netid="RO" insttype="200" commtype="DIG" lat="45.7633" lon="27.0558">
    <comp name="--.HNN">
      <acc value="0.0180109271" flag="0"/>
      <vel value="0.0044900650" flag="0"/>
      <psa03 value="0.0297083457" flag="0"/>
      <psa10 value="0.0038351668" flag="0"/>
      <psa30 value="0.0002235524" flag="0"/>
    </comp>
    <comp name="--.HNZ">
      <acc value="0.0404597403" flag="0"/>
      <vel value="0.0116024102" flag="0"/>
      <psa03 value="0.0401192187" flag="0"/>
      <psa10 value="0.0027385640" flag="0"/>
      <psa30 value="0.0003229343" flag="0"/>
    </comp>
    <comp name="--.HNE">
      <acc value="0.0336957868" flag="0"/>
      <vel value="0.0056118715" flag="0"/>
      <psa03 value="0.0269076688" flag="0"/>
      <psa10 value="0.0035189106" flag="0"/>
      <psa30 value="0.0002357674" flag="0"/>
    </comp>
  </station>
  <station code="ODSR" name="ODSR" netid="RO" insttype="CMG40T.1to100/Quanterra" commtype="DIG" lat="46.2969" lon="25.2919">
    <comp name="--.HHE">
      <acc value="0.0069621987" flag="0"/>
      <vel value="0.0020420773" flag="0"/>
      <psa03 value="0.0072287142" flag="0"/>
      <psa10 value="0.0017821382" flag="0"/>
      <psa30 value="0.0001844744" flag="0"/>
    </comp>
    <comp name="--.HHN">
      <acc value="0.0035619066" flag="0"/>
      <vel value="0.0011478117" flag="0"/>
      <psa03 value="0.0053688907" flag="0"/>
      <psa10 value="0.0013849169" flag="0"/>
      <psa30 value="0.0001004094" flag="0"/>
    </comp>
    <comp name="--.HHZ">
      <acc value="0.0039618153" flag="0"/>
      <vel value="0.0012791082" flag="0"/>
      <psa03 value="0.0045544903" flag="0"/>
      <psa10 value="0.0006990682" flag="0"/>
      <psa30 value="0.0000498387" flag="0"/>
    </comp>
  </station>
  <station code="PANC" name="PANC" netid="RO" insttype="Seismometer/Basalt" commtype="DIG" lat="45.8723" lon="27.1477">
    <comp name="--.HHN">
      <acc value="0.0769277424" flag="0"/>
      <vel value="0.0112942410" flag="0"/>
      <psa03 value="0.0422182556" flag="0"/>
      <psa10 value="0.0022732810" flag="0"/>
      <psa30 value="0.0002122865" flag="0"/>
    </comp>
    <comp name="--.HHZ">
      <acc value="0.1545693065" flag="0"/>
      <vel value="0.0211761165" flag="0"/>
      <psa03 value="0.0964120372" flag="0"/>
      <psa10 value="0.0049114381" flag="0"/>
      <psa30 value="0.0005175685" flag="0"/>
    </comp>
    <comp name="--.HHE">
      <acc value="0.0396143292" flag="0"/>
      <vel value="0.0075823857" flag="0"/>
      <psa03 value="0.0341325661" flag="0"/>
      <psa10 value="0.0019962360" flag="0"/>
      <psa30 value="0.0001578591" flag="0"/>
    </comp>
  </station>
  <station code="PGOR" name="PGOR" netid="RO" insttype="CMG40T.1to100/Quanterra" commtype="DIG" lat="44.9199" lon="26.9768">
    <comp name="--.HHE">
      <acc value="0.0533864584" flag="0"/>
      <vel value="0.0147706163" flag="0"/>
      <psa03 value="0.1053187174" flag="0"/>
      <psa10 value="0.0041482100" flag="0"/>
      <psa30 value="0.0004409655" flag="0"/>
    </comp>
    <comp name="--.HHZ">
      <acc value="0.1348408493" flag="0"/>
      <vel value="0.0131095116" flag="0"/>
      <psa03 value="0.0174472855" flag="0"/>
      <psa10 value="0.0012978905" flag="0"/>
      <psa30 value="0.0000804567" flag="0"/>
    </comp>
    <comp name="--.HHN">
      <acc value="0.0394002008" flag="0"/>
      <vel value="0.0130327895" flag="0"/>
      <psa03 value="0.0598808857" flag="0"/>
      <psa10 value="0.0054264190" flag="0"/>
      <psa30 value="0.0004644087" flag="0"/>
    </comp>
  </station>
  <station code="PLOR" name="PLOR" netid="RO" insttype="MBB2/Quanterra" commtype="DIG" lat="45.8512" lon="26.6498">
    <comp name="--.HHN">
      <acc value="0.0270271198" flag="0"/>
      <vel value="0.0105894880" flag="0"/>
      <psa03 value="0.0644940817" flag="0"/>
      <psa10 value="0.0036680502" flag="0"/>
      <psa30 value="0.0002909914" flag="0"/>
    </comp>
    <comp name="--.HHZ">
      <acc value="0.0146369171" flag="0"/>
      <vel value="0.0036979011" flag="0"/>
      <psa03 value="0.0289830665" flag="0"/>
      <psa10 value="0.0015647358" flag="0"/>
      <psa30 value="0.0001499458" flag="0"/>
    </comp>
    <comp name="--.HHE">
      <acc value="0.0278960130" flag="0"/>
      <vel value="0.0100415506" flag="0"/>
      <psa03 value="0.0627212558" flag="0"/>
      <psa10 value="0.0053947386" flag="0"/>
      <psa30 value="0.0003212169" flag="0"/>
    </comp>
  </station>
  <station code="PLOR4" name="PLOR4" netid="RO" insttype="MBB2/Quanterra" commtype="DIG" lat="45.8512" lon="26.6498">
    <comp name="--.HHE">
      <acc value="0.0278960130" flag="0"/>
      <vel value="0.0100415506" flag="0"/>
      <psa03 value="0.0627212558" flag="0"/>
      <psa10 value="0.0053947386" flag="0"/>
      <psa30 value="0.0003212169" flag="0"/>
    </comp>
    <comp name="--.HHZ">
      <acc value="0.0146369171" flag="0"/>
      <vel value="0.0036979011" flag="0"/>
      <psa03 value="0.0289830665" flag="0"/>
      <psa10 value="0.0015647358" flag="0"/>
      <psa30 value="0.0001499458" flag="0"/>
    </comp>
    <comp name="--.HHN">
      <acc value="0.0270271198" flag="0"/>
      <vel value="0.0105894880" flag="0"/>
      <psa03 value="0.0644940817" flag="0"/>
      <psa10 value="0.0036680502" flag="0"/>
      <psa30 value="0.0002909914" flag="0"/>
    </comp>
  </station>
  <station code="SCHL" name="SCHL" netid="RO" insttype="CMG40T.1to100/Quanterra" commtype="DIG" lat="45.5007" lon="27.8302">
    <comp name="--.HHE">
      <acc value="0.0303317670" flag="0"/>
      <vel value="0.0132139500" flag="0"/>
      <psa03 value="0.0486105127" flag="0"/>
      <psa10 value="0.0041934936" flag="0"/>
      <psa30 value="0.0002535240" flag="0"/>
    </comp>
    <comp name="--.HHN">
      <acc value="0.0303898865" flag="0"/>
      <vel value="0.0085744492" flag="0"/>
      <psa03 value="0.0446982679" flag="0"/>
      <psa10 value="0.0033381112" flag="0"/>
      <psa30 value="0.0003143683" flag="0"/>
    </comp>
    <comp name="--.HHZ">
      <acc value="0.0480396103" flag="0"/>
      <vel value="0.0067810778" flag="0"/>
      <psa03 value="0.0277939479" flag="0"/>
      <psa10 value="0.0014201176" flag="0"/>
      <psa30 value="0.0001231086" flag="0"/>
    </comp>
  </station>
  <station code="SCHLR" name="SCHLR" netid="RO" insttype="CMG40T.1to100/Quanterra" commtype="DIG" lat="45.4702" lon="27.8314">
    <comp name="--.HHE">
      <acc value="0.0302821942" flag="0"/>
      <vel value="0.0069760385" flag="0"/>
      <psa03 value="0.0299292168" flag="0"/>
      <psa10 value="0.0018677654" flag="0"/>
      <psa30 value="0.0001720039" flag="0"/>
    </comp>
    <comp name="--.HHN">
      <acc value="0.0375564242" flag="0"/>
      <vel value="0.0078244146" flag="0"/>
      <psa03 value="0.0277058114" flag="0"/>
      <psa10 value="0.0028397233" flag="0"/>
      <psa30 value="0.0001560964" flag="0"/>
    </comp>
    <comp name="--.HHZ">
      <acc value="0.0221213503" flag="0"/>
      <vel value="0.0040888659" flag="0"/>
      <psa03 value="0.0093299741" flag="0"/>
      <psa10 value="0.0005273827" flag="0"/>
      <psa30 value="0.0000757964" flag="0"/>
    </comp>
  </station>
  <station code="SCTR" name="SCTR" netid="RO" insttype="MBB2/Basalt" commtype="DIG" lat="45.6741" lon="27.9949">
    <comp name="--.HHN">
      <acc value="0.0634251844" flag="0"/>
      <vel value="0.0204805878" flag="0"/>
      <psa03 value="0.0699934540" flag="0"/>
      <psa10 value="0.0050124504" flag="0"/>
      <psa30 value="0.0003031283" flag="0"/>
    </comp>
    <comp name="--.HHZ">
      <acc value="0.0346005360" flag="0"/>
      <vel value="0.0078313154" flag="0"/>
      <psa03 value="0.0281088011" flag="0"/>
      <psa10 value="0.0037653384" flag="0"/>
      <psa30 value="0.0001998009" flag="0"/>
    </comp>
    <comp name="--.HHE">
      <acc value="0.0499210375" flag="0"/>
      <vel value="0.0126593554" flag="0"/>
      <psa03 value="0.0410228156" flag="0"/>
      <psa10 value="0.0058573061" flag="0"/>
      <psa30 value="0.0004894439" flag="0"/>
    </comp>
  </station>
  <station code="SULR" name="SULR" netid="RO" insttype="200" commtype="DIG" lat="44.6777" lon="26.2526">
    <comp name="--.HNE">
      <acc value="0.0408702736" flag="0"/>
      <vel value="0.0208077926" flag="0"/>
      <psa03 value="0.0811891563" flag="0"/>
      <psa10 value="0.0082337789" flag="0"/>
      <psa30 value="0.0007191306" flag="0"/>
    </comp>
    <comp name="--.HNN">
      <acc value="0.0517399947" flag="0"/>
      <vel value="0.0129573221" flag="0"/>
      <psa03 value="0.0488730617" flag="0"/>
      <psa10 value="0.0049199313" flag="0"/>
      <psa30 value="0.0003458526" flag="0"/>
    </comp>
    <comp name="--.HNZ">
      <acc value="0.0323771483" flag="0"/>
      <vel value="0.0085291881" flag="0"/>
      <psa03 value="0.0242090264" flag="0"/>
      <psa10 value="0.0013949640" flag="0"/>
      <psa30 value="0.0001730820" flag="0"/>
    </comp>
