<?xml version="1.0" encoding="UTF-8" standalone="yes"?>
<!DOCTYPE earthquake SYSTEM "stationlist.dtd">
<stationlist created="" xmlns="ch.ethz.sed.shakemap.usgs.xml">
  <station code="DARE" name="DARE" netid="KO" insttype="CMG-3ESP" lat="38.5712" lon="37.4832">
    <comp name="--.HHE">
      <acc value="0.0050276456" flag="0"/>
      <vel value="0.0015142443" flag="0"/>
      <psa03 value="0.0060795954" flag="0"/>
      <psa10 value="0.0007205937" flag="0"/>
      <psa30 value="0.0000501137" flag="0"/>
    </comp>
    <comp name="--.HHN">
      <acc value="0.0050492343" flag="0"/>
      <vel value="0.0025284792" flag="0"/>
      <psa03 value="0.0088618097" flag="0"/>
      <psa10 value="0.0018011632" flag="0"/>
      <psa30 value="0.0001211111" flag="0"/>
    </comp>
    <comp name="--.HHZ">
      <acc value="0.0038331664" flag="0"/>
      <vel value="0.0012536606" flag="0"/>
      <psa03 value="0.0046532225" flag="0"/>
      <psa10 value="0.0007362230" flag="0"/>
      <psa30 value="0.0000677260" flag="0"/>
    </comp>
  </station>
  <station code="SVRC" name="SVRC" netid="KO" insttype="CMG-3T" lat="38.3775" lon="39.306">
    <comp name="--.HHE">
      <acc value="0.0011264979" flag="0"/>
      <vel value="0.0004903423" flag="0"/>
      <psa03 value="0.0041313134" flag="0"/>
      <psa10 value="0.0002348330" flag="0"/>
      <psa30 value="0.0000251152" flag="0"/>
    </comp>
    <comp name="--.HHN">
      <acc value="0.0010533774" flag="0"/>
      <vel value="0.0005479706" flag="0"/>
      <psa03 value="0.0045760479" flag="0"/>
      <psa10 value="0.0002114941" flag="0"/>
      <psa30 value="0.0000156473" flag="0"/>
    </comp>
    <comp name="--.HHZ">
      <acc value="0.0006402135" flag="0"/>
      <vel value="0.0002726728" flag="0"/>
      <psa03 value="0.0017029010" flag="0"/>
      <psa10 value="0.0001782121" flag="0"/>
      <psa30 value="0.0000178826" flag="0"/>
    </comp>
  </station>
</stationlist>
