<?xml version="1.0" encoding="UTF-8" standalone="yes"?>
<!DOCTYPE earthquake SYSTEM "stationlist.dtd">
<stationlist created="" xmlns="ch.ethz.sed.shakemap.usgs.xml">
  <station code="CEYT" name="CEYT" netid="KO" insttype="CMG-3ESP" lat="37.0105" lon="35.7478">
    <comp name="--.HHE">
      <acc value="0.0044312631" flag="0"/>
      <vel value="0.0014438812" flag="0"/>
      <psa03 value="0.0070924962" flag="0"/>
      <psa10 value="0.0007119419" flag="0"/>
      <psa30 value="0.0000935316" flag="0"/>
    </comp>
    <comp name="--.HHZ">
      <acc value="0.0025247971" flag="0"/>
      <vel value="0.0008973852" flag="0"/>
      <psa03 value="0.0039385765" flag="0"/>
      <psa10 value="0.0004497426" flag="0"/>
      <psa30 value="0.0000514810" flag="0"/>
    </comp>
    <comp name="--.HHN">
      <acc value="0.0026255049" flag="0"/>
      <vel value="0.0011958484" flag="0"/>
      <psa03 value="0.0078338349" flag="0"/>
      <psa10 value="0.0011950750" flag="0"/>
      <psa30 value="0.0001082478" flag="0"/>
    </comp>
  </station>
  <station code="KHMN" name="KHMN" netid="KO" insttype="CMG-5T" lat="37.3916" lon="37.1574">
    <comp name="--.HNE">
      <acc value="0.0648222661" flag="0"/>
      <vel value="0.0159778340" flag="0"/>
      <psa03 value="0.0946285514" flag="0"/>
      <psa10 value="0.0088642824" flag="0"/>
      <psa30 value="0.0005533294" flag="0"/>
    </comp>
    <comp name="--.HNN">
      <acc value="0.0661012471" flag="0"/>
      <vel value="0.0237262805" flag="0"/>
      <psa03 value="0.0744309622" flag="0"/>
      <psa10 value="0.0076441883" flag="0"/>
      <psa30 value="0.0005461082" flag="0"/>
    </comp>
    <comp name="--.HNZ">
      <acc value="0.0307314109" flag="0"/>
      <vel value="0.0074430434" flag="0"/>
      <psa03 value="0.0471451233" flag="0"/>
      <psa10 value="0.0067265688" flag="0"/>
      <psa30 value="0.0005410875" flag="0"/>
    </comp>
  </station>
  <station code="KMRS" name="KMRS" netid="KO" insttype="CMG-3T" lat="37.5053" lon="36.9">
    <comp name="--.HHE">
      <acc value="0.0980547013" flag="0"/>
      <vel value="0.0272279714" flag="0"/>
      <psa03 value="0.0833577617" flag="0"/>
      <psa10 value="0.0090359057" flag="0"/>
      <psa30 value="0.0006342187" flag="0"/>
    </comp>
    <comp name="--.HHN">
      <acc value="0.0869553482" flag="0"/>
      <vel value="0.0270969892" flag="0"/>
      <psa03 value="0.1178818752" flag="0"/>
      <psa10 value="0.0085129050" flag="0"/>
      <psa30 value="0.0007396391" flag="0"/>
    </comp>
    <comp name="--.HHZ">
      <acc value="0.0537644499" flag="0"/>
      <vel value="0.0156234218" flag="0"/>
      <psa03 value="0.0901432740" flag="0"/>
      <psa10 value="0.0076750145" flag="0"/>
      <psa30 value="0.0006060590" flag="0"/>
    </comp>
  </station>
  <station code="ANDN" name="ANDN" netid="TU" insttype="T" lat="37.58" lon="36.3452">
    <comp name="--.HHN">
      <acc value="0.0899888622" flag="0"/>
      <vel value="0.0310705721" flag="0"/>
      <psa03 value="0.1919012824" flag="0"/>
      <psa10 value="0.0118495721" flag="0"/>
      <psa30 value="0.0009509077" flag="0"/>
    </comp>
    <comp name="--.HHE">
      <acc value="0.0565975438" flag="0"/>
      <vel value="0.0154397091" flag="0"/>
      <psa03 value="0.1242716723" flag="0"/>
      <psa10 value="0.0100364059" flag="0"/>
      <psa30 value="0.0006317367" flag="0"/>
    </comp>
    <comp name="--.HHZ">
      <acc value="0.0473739728" flag="0"/>
      <vel value="0.0123331293" flag="0"/>
      <psa03 value="0.0725399527" flag="0"/>
      <psa10 value="0.0114097030" flag="0"/>
      <psa30 value="0.0006210414" flag="0"/>
    </comp>
  </station>
</stationlist>
