<stationlist created="1778205363">
	<station code="CMRD" name="CMRD" netid="KO" source="Bogazici University Kandilli Observatory And Earthquake Research Institute (KOERI)" insttype="" lat="37.6623" lon="34.9902">
		<comp name="--.HNE" depth="0.0">
			<acc value="0.000575054316842755" flag="0"/>
			<vel value="0.000369872508863055" flag="0"/>
			<psa03 value="0.00152415712027171" flag="0"/>
			<psa10 value="0.00040031666549864" flag="0"/>
			<psa30 value="0.000175462443838098" flag="0"/>
		</comp>
		<comp name="--.HNN" depth="0.0">
			<acc value="0.000566131928984051" flag="0"/>
			<vel value="0.000364487709288928" flag="0"/>
			<psa03 value="0.00187650044826776" flag="0"/>
			<psa10 value="0.000311238332855848" flag="0"/>
			<psa30 value="7.49772194769508e-05" flag="0"/>
		</comp>
		<comp name="--.HNZ" depth="0.0">
			<acc value="0.000412902184298046" flag="0"/>
			<vel value="0.000315705846224227" flag="0"/>
			<psa03 value="0.000993417045982945" flag="0"/>
			<psa10 value="0.000399614577973197" flag="0"/>
			<psa30 value="0.00012990917876235" flag="0"/>
		</comp>
	</station>
	<station code="KHMN" name="KHMN" netid="KO" source="Bogazici University Kandilli Observatory And Earthquake Research Institute (KOERI)" insttype="" lat="37.3916" lon="37.1574">
		<comp name="--.HNE" depth="0.0">
			<acc value="0.0633787531378596" flag="0"/>
			<vel value="0.0162869381621521" flag="0"/>
			<psa03 value="0.0954590528605294" flag="0"/>
			<psa10 value="0.00890485146522063" flag="0"/>
			<psa30 value="0.000577660506758067" flag="0"/>
		</comp>
		<comp name="--.HNN" depth="0.0">
			<acc value="0.0616847879296061" flag="0"/>
			<vel value="0.0238897654217609" flag="0"/>
			<psa03 value="0.0745330572411424" flag="0"/>
			<psa10 value="0.00764108337178814" flag="0"/>
			<psa30 value="0.000556578328914912" flag="0"/>
		</comp>
		<comp name="--.HNZ" depth="0.0">
			<acc value="0.0306049293818725" flag="0"/>
			<vel value="0.00745363122911485" flag="0"/>
			<psa03 value="0.0474650453678649" flag="0"/>
			<psa10 value="0.00676015329574368" flag="0"/>
			<psa30 value="0.000637045326125749" flag="0"/>
		</comp>
	</station>
	<station code="KRTS" name="KRTS" netid="KO" source="Bogazici University Kandilli Observatory And Earthquake Research Institute (KOERI)" insttype="" lat="36.573" lon="35.375">
		<comp name="--.HNE" depth="0.0">
			<acc value="0.00202662583697294" flag="0"/>
			<vel value="0.000850409516635816" flag="0"/>
			<psa03 value="0.00496678800969564" flag="0"/>
			<psa10 value="0.00105068225879332" flag="0"/>
			<psa30 value="0.000281144535903964" flag="0"/>
		</comp>
		<comp name="--.HNN" depth="0.0">
			<acc value="0.00203152472331731" flag="0"/>
			<vel value="0.000984417321098175" flag="0"/>
			<psa03 value="0.00575093826308583" flag="0"/>
			<psa10 value="0.00127888300097228" flag="0"/>
			<psa30 value="0.000373420206005814" flag="0"/>
		</comp>
		<comp name="--.HNZ" depth="0.0">
			<acc value="0.00434330754551005" flag="0"/>
			<vel value="0.00116807065494022" flag="0"/>
			<psa03 value="0.00426683181031157" flag="0"/>
			<psa10 value="0.000734946850684559" flag="0"/>
			<psa30 value="0.000747866625827201" flag="0"/>
		</comp>
	</station>
</stationlist>
