<?xml version="1.0" encoding="UTF-8" standalone="yes"?>
<!DOCTYPE earthquake SYSTEM "stationlist.dtd">
<stationlist created="" xmlns="ch.ethz.sed.shakemap.usgs.xml">
  <station code="CEYT" name="CEYT" netid="KO" insttype="CMG-3ESP" lat="37.0105" lon="35.7478">
    <comp name="--.HHN">
      <acc value="0.0026255049" flag="0"/>
      <vel value="0.0011958483" flag="0"/>
      <psa03 value="0.0078338349" flag="0"/>
      <psa10 value="0.0011950750" flag="0"/>
      <psa30 value="0.0001082671" flag="0"/>
    </comp>
    <comp name="--.HHZ">
      <acc value="0.0025247960" flag="0"/>
      <vel value="0.0008973852" flag="0"/>
      <psa03 value="0.0039385765" flag="0"/>
      <psa10 value="0.0004497425" flag="0"/>
      <psa30 value="0.0000505130" flag="0"/>
    </comp>
    <comp name="--.HHE">
      <acc value="0.0044312635" flag="0"/>
      <vel value="0.0014438812" flag="0"/>
      <psa03 value="0.0070924962" flag="0"/>
      <psa10 value="0.0007119419" flag="0"/>
      <psa30 value="0.0000935273" flag="0"/>
    </comp>
  </station>
  <station code="GAZ" name="GAZ" netid="KO" insttype="CMG-3T" lat="37.1721" lon="37.2096">
    <comp name="--.HHE">
      <acc value="0.0408979825" flag="0"/>
      <vel value="0.0201563909" flag="0"/>
      <psa03 value="0.1022225341" flag="0"/>
      <psa10 value="0.0120918550" flag="0"/>
      <psa30 value="0.0006525148" flag="0"/>
    </comp>
    <comp name="--.HHZ">
      <acc value="0.0219022719" flag="0"/>
      <vel value="0.0081918993" flag="0"/>
      <psa03 value="0.0466274404" flag="0"/>
      <psa10 value="0.0075099354" flag="0"/>
      <psa30 value="0.0004580809" flag="0"/>
    </comp>
    <comp name="--.HHN">
      <acc value="0.0236678096" flag="0"/>
      <vel value="0.0114163734" flag="0"/>
      <psa03 value="0.0484377863" flag="0"/>
      <psa10 value="0.0125610726" flag="0"/>
      <psa30 value="0.0006906871" flag="0"/>
    </comp>
  </station>
  <station code="KHMN" name="KHMN" netid="KO" insttype="CMG-5T" lat="37.3916" lon="37.1574">
    <comp name="--.HNE">
      <acc value="0.0648222632" flag="0"/>
      <vel value="0.0159778343" flag="0"/>
      <psa03 value="0.0946285514" flag="0"/>
      <psa10 value="0.0088642824" flag="0"/>
      <psa30 value="0.0005534742" flag="0"/>
    </comp>
    <comp name="--.HNN">
      <acc value="0.0661012777" flag="0"/>
      <vel value="0.0237262802" flag="0"/>
      <psa03 value="0.0744309622" flag="0"/>
      <psa10 value="0.0076441889" flag="0"/>
      <psa30 value="0.0005461991" flag="0"/>
    </comp>
    <comp name="--.HNZ">
      <acc value="0.0307313626" flag="0"/>
      <vel value="0.0074430424" flag="0"/>
      <psa03 value="0.0471451233" flag="0"/>
      <psa10 value="0.0067265689" flag="0"/>
      <psa30 value="0.0005405569" flag="0"/>
    </comp>
  </station>
  <station code="KMRS" name="KMRS" netid="KO" insttype="CMG-3T" lat="37.5053" lon="36.9">
    <comp name="--.HHE">
      <acc value="0.0980547025" flag="0"/>
      <vel value="0.0272279715" flag="0"/>
      <psa03 value="0.0833577617" flag="0"/>
      <psa10 value="0.0090359061" flag="0"/>
      <psa30 value="0.0006341812" flag="0"/>
    </comp>
    <comp name="--.HHN">
      <acc value="0.0869553483" flag="0"/>
      <vel value="0.0270969894" flag="0"/>
      <psa03 value="0.1178818752" flag="0"/>
      <psa10 value="0.0085129050" flag="0"/>
      <psa30 value="0.0007395690" flag="0"/>
    </comp>
    <comp name="--.HHZ">
      <acc value="0.0537644499" flag="0"/>
      <vel value="0.0156234220" flag="0"/>
      <psa03 value="0.0901432740" flag="0"/>
      <psa10 value="0.0076750146" flag="0"/>
      <psa30 value="0.0006060124" flag="0"/>
    </comp>
  </station>
  <station code="ANDN" name="ANDN" netid="TU" insttype="T" lat="37.58" lon="36.3452">
    <comp name="--.HHZ">
      <acc value="0.0473739727" flag="0"/>
      <vel value="0.0123331302" flag="0"/>
      <psa03 value="0.0725399527" flag="0"/>
      <psa10 value="0.0114097030" flag="0"/>
      <psa30 value="0.0006210334" flag="0"/>
    </comp>
    <comp name="--.HHN">
      <acc value="0.0899888621" flag="0"/>
      <vel value="0.0310705876" flag="0"/>
      <psa03 value="0.1919012825" flag="0"/>
      <psa10 value="0.0118495721" flag="0"/>
      <psa30 value="0.0009512034" flag="0"/>
    </comp>
    <comp name="--.HHE">
      <acc value="0.0565975419" flag="0"/>
      <vel value="0.0154397095" flag="0"/>
      <psa03 value="0.1242716723" flag="0"/>
      <psa10 value="0.0100364059" flag="0"/>
      <psa30 value="0.0006318871" flag="0"/>
    </comp>
  </station>
</stationlist>
