<?xml version="1.0" encoding="UTF-8" standalone="yes"?>
<!DOCTYPE earthquake SYSTEM "stationlist.dtd">
<stationlist created="" xmlns="ch.ethz.sed.shakemap.usgs.xml">
  <station code="SERI" name="SERI" netid="HA" insttype="30" lat="37.1609" lon="24.4853">
    <comp name="--.HHE">
      <acc value="0.0428039665" flag="0"/>
      <vel value="0.0104824796" flag="0"/>
      <psa03 value="0.0800657095" flag="0"/>
      <psa10 value="0.0041916103" flag="0"/>
      <psa30 value="0.0005077103" flag="0"/>
    </comp>
    <comp name="--.HHZ">
      <acc value="0.0359202367" flag="0"/>
      <vel value="0.0114819357" flag="0"/>
      <psa03 value="0.0667500301" flag="0"/>
      <psa10 value="0.0066390237" flag="0"/>
      <psa30 value="0.0006976930" flag="0"/>
    </comp>
    <comp name="--.HHN">
      <acc value="0.0596512504" flag="0"/>
      <vel value="0.0178206066" flag="0"/>
      <psa03 value="0.1004973922" flag="0"/>
      <psa10 value="0.0069616351" flag="0"/>
      <psa30 value="0.0009578239" flag="0"/>
    </comp>
  </station>
  <station code="NAX1" name="NAX1" netid="HI" insttype="CMG-5TD,ACCELEROMETER,GURALP" lat="37.1014" lon="25.3741">
    <comp name="--.HNN">
      <acc value="0.2284765255" flag="0"/>
      <vel value="0.0397043056" flag="0"/>
      <psa03 value="0.1348281596" flag="0"/>
      <psa10 value="0.0104470563" flag="0"/>
      <psa30 value="0.0016436476" flag="0"/>
    </comp>
    <comp name="--.HNZ">
      <acc value="0.0876109884" flag="0"/>
      <vel value="0.0209038657" flag="0"/>
      <psa03 value="0.1185216761" flag="0"/>
      <psa10 value="0.0068484961" flag="0"/>
      <psa30 value="0.0010127337" flag="0"/>
    </comp>
    <comp name="--.HNE">
      <acc value="0.2178793128" flag="0"/>
      <vel value="0.0469115348" flag="0"/>
      <psa03 value="0.3147842888" flag="0"/>
      <psa10 value="0.0086912759" flag="0"/>
      <psa30 value="0.0013865122" flag="0"/>
    </comp>
  </station>
  <station code="SFR2" name="SFR2" netid="HI" insttype="unknown" lat="36.3998" lon="25.4382">
    <comp name="--.HNE">
      <acc value="0.2510630948" flag="0"/>
      <vel value="0.1114096566" flag="0"/>
      <psa03 value="0.7324035036" flag="0"/>
      <psa10 value="0.0461585397" flag="0"/>
      <psa30 value="0.0054968295" flag="0"/>
    </comp>
    <comp name="--.HNN">
      <acc value="0.2562828178" flag="0"/>
      <vel value="0.1310396266" flag="0"/>
      <psa03 value="0.7361715248" flag="0"/>
      <psa10 value="0.0839010039" flag="0"/>
      <psa30 value="0.0057314697" flag="0"/>
    </comp>
    <comp name="--.HNZ">
      <acc value="0.2137792799" flag="0"/>
      <vel value="0.0865673063" flag="0"/>
      <psa03 value="0.4925246544" flag="0"/>
      <psa10 value="0.0564633619" flag="0"/>
      <psa30 value="0.0038512680" flag="0"/>
    </comp>
  </station>
  <station code="MILA" name="MILA" netid="HL" insttype="CMG-5" lat="36.7429" lon="24.4282">
    <comp name="00.HNE">
      <acc value="0.1814763600" flag="0"/>
      <vel value="0.0706584214" flag="0"/>
      <psa03 value="0.3595169328" flag="0"/>
      <psa10 value="0.0275073292" flag="0"/>
      <psa30 value="0.0027578350" flag="0"/>
    </comp>
    <comp name="00.HNN">
      <acc value="0.1749607640" flag="0"/>
      <vel value="0.0805412167" flag="0"/>
      <psa03 value="0.5934796681" flag="0"/>
      <psa10 value="0.0338175621" flag="0"/>
      <psa30 value="0.0031859555" flag="0"/>
    </comp>
    <comp name="00.HNZ">
      <acc value="0.1038007935" flag="0"/>
      <vel value="0.0457673690" flag="0"/>
      <psa03 value="0.2863689730" flag="0"/>
      <psa10 value="0.0196694867" flag="0"/>
      <psa30 value="0.0018562837" flag="0"/>
    </comp>
  </station>
  <station code="SAP3" name="SAP3" netid="HL" insttype="0" lat="36.4356" lon="25.3454">
    <comp name="--.HNE">
      <acc value="0.6360539672" flag="0"/>
      <vel value="0.1734704216" flag="0"/>
      <psa03 value="1.3888768496" flag="0"/>
      <psa10 value="0.1348219533" flag="0"/>
      <psa30 value="0.0446251918" flag="0"/>
    </comp>
    <comp name="--.HNZ">
      <acc value="0.7980792646" flag="0"/>
      <vel value="0.1757475202" flag="0"/>
      <psa03 value="1.1201765580" flag="0"/>
      <psa10 value="0.0529299129" flag="0"/>
      <psa30 value="0.0051466677" flag="0"/>
    </comp>
    <comp name="--.HNN">
      <acc value="0.6423726778" flag="0"/>
      <vel value="0.1967671682" flag="0"/>
      <psa03 value="1.5256443523" flag="0"/>
      <psa10 value="0.1064295583" flag="0"/>
      <psa30 value="0.0396470700" flag="0"/>
    </comp>
  </station>
  <station code="THERA" name="THERA" netid="HL" insttype="DC" lat="37.5785" lon="23.3859">
    <comp name="00.HNE">
      <acc value="0.0725045589" flag="0"/>
      <vel value="0.0277250449" flag="0"/>
      <psa03 value="0.1183320297" flag="0"/>
      <psa10 value="0.0135705273" flag="0"/>
      <psa30 value="0.0027794991" flag="0"/>
    </comp>
    <comp name="00.HNN">
      <acc value="0.1133078743" flag="0"/>
      <vel value="0.0412142455" flag="0"/>
      <psa03 value="0.2429284344" flag="0"/>
      <psa10 value="0.0223556460" flag="0"/>
      <psa30 value="0.0013018883" flag="0"/>
    </comp>
    <comp name="00.HNZ">
      <acc value="0.0686708397" flag="0"/>
      <vel value="0.0214880225" flag="0"/>
      <psa03 value="0.1023061393" flag="0"/>
      <psa10 value="0.0153771417" flag="0"/>
      <psa30 value="0.0021982760" flag="0"/>
    </comp>
  </station>
  <station code="THRA" name="THRA" netid="HL" insttype="CMG-5" lat="36.415" lon="25.4324">
    <comp name="00.HNE">
      <acc value="0.4206617065" flag="0"/>
      <vel value="0.1830058707" flag="0"/>
      <psa03 value="0.9377181161" flag="0"/>
      <psa10 value="0.0783851731" flag="0"/>
      <psa30 value="0.0093620668" flag="0"/>
    </comp>
    <comp name="00.HNN">
      <acc value="0.2930334532" flag="0"/>
      <vel value="0.1246307374" flag="0"/>
      <psa03 value="0.6836403396" flag="0"/>
      <psa10 value="0.1602024968" flag="0"/>
      <psa30 value="0.0116399135" flag="0"/>
    </comp>
    <comp name="00.HNZ">
      <acc value="0.2539856422" flag="0"/>
      <vel value="0.0804280761" flag="0"/>
      <psa03 value="0.5979387133" flag="0"/>
      <psa10 value="0.0429256405" flag="0"/>
      <psa30 value="0.0041376155" flag="0"/>
    </comp>
  </station>
  <station code="TNSA" name="TNSA" netid="HL" insttype="CMG-5" lat="37.5394" lon="25.1631">
    <comp name="00.HNZ">
      <acc value="0.0357510479" flag="0"/>
      <vel value="0.0244157560" flag="0"/>
      <psa03 value="0.0725607353" flag="0"/>
      <psa10 value="0.0088659119" flag="0"/>
      <psa30 value="0.0012317075" flag="0"/>
    </comp>
    <comp name="00.HNN">
      <acc value="0.0834561485" flag="0"/>
      <vel value="0.0260112038" flag="0"/>
      <psa03 value="0.1633201461" flag="0"/>
      <psa10 value="0.0087275214" flag="0"/>
      <psa30 value="0.0010977906" flag="0"/>
    </comp>
    <comp name="00.HNE">
      <acc value="0.0548114205" flag="0"/>
      <vel value="0.0144576390" flag="0"/>
      <psa03 value="0.0837131801" flag="0"/>
      <psa10 value="0.0054542679" flag="0"/>
      <psa30 value="0.0004774793" flag="0"/>
    </comp>
  </station>
  <station code="CMBO" name="CMBO" netid="HT" insttype="120P," lat="36.4709" lon="25.4056">
    <comp name="--.HHE">
      <acc value="0.1636655050" flag="0"/>
      <vel value="0.0686517363" flag="0"/>
      <psa03 value="0.3362320407" flag="0"/>
      <psa10 value="0.0394995094" flag="0"/>
      <psa30 value="0.0071619407" flag="0"/>
    </comp>
    <comp name="--.HHN">
      <acc value="0.2159349730" flag="0"/>
      <vel value="0.1218312943" flag="0"/>
      <psa03 value="0.4082116107" flag="0"/>
      <psa10 value="0.0663091470" flag="0"/>
      <psa30 value="0.0058834478" flag="0"/>
    </comp>
    <comp name="--.HHZ">
      <acc value="0.1944323319" flag="0"/>
      <vel value="0.0512848697" flag="0"/>
      <psa03 value="0.3532768655" flag="0"/>
      <psa10 value="0.0209936848" flag="0"/>
      <psa30 value="0.0038244985" flag="0"/>
    </comp>
  </station>
</stationlist>
