<?xml version="1.0" encoding="UTF-8" standalone="yes"?>
<!DOCTYPE earthquake SYSTEM "stationlist.dtd">
<stationlist created="" xmlns="ch.ethz.sed.shakemap.usgs.xml">
  <station code="AGRP" name="AGRP" netid="CL" source="RESIF" insttype="30" lat="38.3959" lon="21.7228">
    <comp name="00.HHE">
      <acc value="0.0207416241" flag="0"/>
      <vel value="0.0106342176" flag="0"/>
      <psa03 value="0.0578924098" flag="0"/>
      <psa10 value="0.0203024959" flag="0"/>
      <psa30 value="0.0019414476" flag="0"/>
    </comp>
    <comp name="00.HHN">
      <acc value="0.0190520473" flag="0"/>
      <vel value="0.0172883275" flag="0"/>
      <psa03 value="0.0625784474" flag="0"/>
      <psa10 value="0.0149994711" flag="0"/>
      <psa30 value="0.0024092114" flag="0"/>
    </comp>
    <comp name="00.HHZ">
      <acc value="0.0106044948" flag="0"/>
      <vel value="0.0070464113" flag="0"/>
      <psa03 value="0.0318355211" flag="0"/>
      <psa10 value="0.0117888818" flag="0"/>
      <psa30 value="0.0009015307" flag="0"/>
    </comp>
  </station>
  <station code="ROD3" name="ROD3" netid="CL" source="RESIF" insttype="30" lat="38.3081" lon="21.892">
    <comp name="00.HHE">
      <acc value="0.0480151438" flag="0"/>
      <vel value="0.0287981974" flag="0"/>
      <psa03 value="0.1848964386" flag="0"/>
      <psa10 value="0.0260961391" flag="0"/>
      <psa30 value="0.0031804327" flag="0"/>
    </comp>
    <comp name="00.HHN">
      <acc value="0.0538290707" flag="0"/>
      <vel value="0.0300221101" flag="0"/>
      <psa03 value="0.1977627104" flag="0"/>
      <psa10 value="0.0373583984" flag="0"/>
      <psa30 value="0.0025874793" flag="0"/>
    </comp>
    <comp name="00.HHZ">
      <acc value="0.0233617537" flag="0"/>
      <vel value="0.0123127946" flag="0"/>
      <psa03 value="0.0654128311" flag="0"/>
      <psa10 value="0.0228491454" flag="0"/>
      <psa30 value="0.0014636429" flag="0"/>
    </comp>
  </station>
  <station code="ITM" name="ITM" netid="HL" source="NOA" insttype="DR24" lat="37.1787" lon="21.9252">
    <comp name="--.HHE">
      <acc value="0.0152945476" flag="0"/>
      <vel value="0.0100084798" flag="0"/>
      <psa03 value="0.0264913642" flag="0"/>
      <psa10 value="0.0130364722" flag="0"/>
      <psa30 value="0.0016520532" flag="0"/>
    </comp>
    <comp name="--.HHN">
      <acc value="0.0185887301" flag="0"/>
      <vel value="0.0136278004" flag="0"/>
      <psa03 value="0.0532834179" flag="0"/>
      <psa10 value="0.0124341508" flag="0"/>
      <psa30 value="0.0023684288" flag="0"/>
    </comp>
    <comp name="--.HHZ">
      <acc value="0.0101297056" flag="0"/>
      <vel value="0.0083878735" flag="0"/>
      <psa03 value="0.0230751789" flag="0"/>
      <psa10 value="0.0131574670" flag="0"/>
      <psa30 value="0.0013504834" flag="0"/>
    </comp>
  </station>
  <station code="LXRA" name="LXRA" netid="HL" source="NOA" insttype="CMG-5" lat="38.2001" lon="20.4372">
    <comp name="00.HNE">
      <acc value="0.2096949572" flag="0"/>
      <vel value="0.1118187701" flag="0"/>
      <psa03 value="0.4004034446" flag="0"/>
      <psa10 value="0.1115946114" flag="0"/>
      <psa30 value="0.0182367991" flag="0"/>
    </comp>
    <comp name="00.HNN">
      <acc value="0.1887179951" flag="0"/>
      <vel value="0.0967151631" flag="0"/>
      <psa03 value="0.4017248803" flag="0"/>
      <psa10 value="0.1386211704" flag="0"/>
      <psa30 value="0.0107711312" flag="0"/>
    </comp>
    <comp name="00.HNZ">
      <acc value="0.1216320022" flag="0"/>
      <vel value="0.0581562395" flag="0"/>
      <psa03 value="0.2278753187" flag="0"/>
      <psa10 value="0.0582218308" flag="0"/>
      <psa30 value="0.0050046655" flag="0"/>
    </comp>
  </station>
  <station code="RLS" name="RLS" netid="HL" source="NOA" insttype="120" lat="38.0559" lon="21.4647">
    <comp name="--.HHE">
      <acc value="0.0311288436" flag="0"/>
      <vel value="0.0173579126" flag="0"/>
      <psa03 value="0.1141792165" flag="0"/>
      <psa10 value="0.0167783582" flag="0"/>
      <psa30 value="0.0019397306" flag="0"/>
    </comp>
    <comp name="--.HHN">
      <acc value="0.0426982916" flag="0"/>
      <vel value="0.0257003940" flag="0"/>
      <psa03 value="0.1358858797" flag="0"/>
      <psa10 value="0.0210800580" flag="0"/>
      <psa30 value="0.0024233154" flag="0"/>
    </comp>
    <comp name="--.HHZ">
      <acc value="0.0159141680" flag="0"/>
      <vel value="0.0094501731" flag="0"/>
      <psa03 value="0.0640024854" flag="0"/>
      <psa10 value="0.0116233003" flag="0"/>
      <psa30 value="0.0015947932" flag="0"/>
    </comp>
  </station>
  <station code="VLS" name="VLS" netid="HL" source="NOA" insttype="120P," lat="38.1768" lon="20.5886">
    <comp name="--.HHE">
      <acc value="0.1431619064" flag="0"/>
      <vel value="0.0370002361" flag="0"/>
      <psa03 value="0.1923794762" flag="0"/>
      <psa10 value="0.0196049300" flag="0"/>
      <psa30 value="0.0030813395" flag="0"/>
    </comp>
    <comp name="--.HHN">
      <acc value="0.1171170167" flag="0"/>
      <vel value="0.0533449089" flag="0"/>
      <psa03 value="0.1862876572" flag="0"/>
      <psa10 value="0.0785747608" flag="0"/>
      <psa30 value="0.0041213933" flag="0"/>
    </comp>
    <comp name="--.HHZ">
      <acc value="0.0599425171" flag="0"/>
      <vel value="0.0310748901" flag="0"/>
      <psa03 value="0.0954809865" flag="0"/>
      <psa10 value="0.0305264208" flag="0"/>
      <psa30 value="0.0018229442" flag="0"/>
    </comp>
  </station>
  <station code="AMT" name="AMT" netid="HP" source="NOA" insttype="CMG-3T," lat="37.5324" lon="21.7089">
    <comp name="00.HHE">
      <acc value="0.0555179466" flag="0"/>
      <vel value="0.0371858694" flag="0"/>
      <psa03 value="0.2421647661" flag="0"/>
      <psa10 value="0.0489013021" flag="0"/>
      <psa30 value="0.0025538132" flag="0"/>
    </comp>
    <comp name="00.HHN">
      <acc value="0.0429521292" flag="0"/>
      <vel value="0.0284870409" flag="0"/>
      <psa03 value="0.1369223474" flag="0"/>
      <psa10 value="0.0396689182" flag="0"/>
      <psa30 value="0.0033489610" flag="0"/>
    </comp>
    <comp name="00.HHZ">
      <acc value="0.0413992550" flag="0"/>
      <vel value="0.0231876781" flag="0"/>
      <psa03 value="0.1084358988" flag="0"/>
      <psa10 value="0.0216930337" flag="0"/>
      <psa30 value="0.0016206814" flag="0"/>
    </comp>
  </station>
  <station code="DRO" name="DRO" netid="HP" source="NOA" insttype="120P," lat="37.952" lon="21.71">
    <comp name="--.HHE">
      <acc value="0.0665083786" flag="0"/>
      <vel value="0.0494109447" flag="0"/>
      <psa03 value="0.1759772372" flag="0"/>
      <psa10 value="0.0548270683" flag="0"/>
      <psa30 value="0.0030271795" flag="0"/>
    </comp>
    <comp name="--.HHN">
      <acc value="0.0565672525" flag="0"/>
      <vel value="0.0324654089" flag="0"/>
      <psa03 value="0.1601060013" flag="0"/>
      <psa10 value="0.0344711040" flag="0"/>
      <psa30 value="0.0033179656" flag="0"/>
    </comp>
    <comp name="--.HHZ">
      <acc value="0.0229764320" flag="0"/>
      <vel value="0.0156431499" flag="0"/>
      <psa03 value="0.0949375364" flag="0"/>
      <psa10 value="0.0126674796" flag="0"/>
      <psa30 value="0.0024631185" flag="0"/>
    </comp>
  </station>
  <station code="FSK" name="FSK" netid="HP" source="NOA" insttype="40," lat="38.4593" lon="20.5623">
    <comp name="--.HHE">
      <acc value="0.0808025890" flag="0"/>
      <vel value="0.0273006356" flag="0"/>
      <psa03 value="0.0969435633" flag="0"/>
      <psa10 value="0.0309875405" flag="0"/>
      <psa30 value="0.0054127533" flag="0"/>
    </comp>
    <comp name="--.HHN">
      <acc value="0.0469294554" flag="0"/>
      <vel value="0.0268704199" flag="0"/>
      <psa03 value="0.1018330547" flag="0"/>
      <psa10 value="0.0516271393" flag="0"/>
      <psa30 value="0.0036593736" flag="0"/>
    </comp>
    <comp name="--.HHZ">
      <acc value="0.0294126126" flag="0"/>
      <vel value="0.0163921045" flag="0"/>
      <psa03 value="0.0488849908" flag="0"/>
      <psa10 value="0.0215087295" flag="0"/>
      <psa30 value="0.0022466185" flag="0"/>
    </comp>
  </station>
  <station code="LTHK" name="LTHK" netid="HP" source="NOA" insttype="40," lat="37.7095" lon="20.8367">
    <comp name="--.HHE">
      <acc value="0.9426004274" flag="0"/>
      <vel value="0.2555385832" flag="0"/>
      <psa03 value="0.9142126943" flag="0"/>
      <psa10 value="0.1752626223" flag="0"/>
      <psa30 value="0.0111763723" flag="0"/>
    </comp>
    <comp name="--.HHN">
      <acc value="1.0137358359" flag="0"/>
      <vel value="0.3624702643" flag="0"/>
      <psa03 value="0.9705594181" flag="0"/>
      <psa10 value="0.2199600451" flag="0"/>
      <psa30 value="0.0201010363" flag="0"/>
    </comp>
    <comp name="--.HHZ">
      <acc value="0.6057397206" flag="0"/>
      <vel value="0.1852555275" flag="0"/>
      <psa03 value="0.4898675327" flag="0"/>
      <psa10 value="0.0490629768" flag="0"/>
      <psa30 value="0.0039689284" flag="0"/>
    </comp>
  </station>
  <station code="PYL" name="PYL" netid="HP" source="NOA" insttype="120s" lat="36.8955" lon="21.742">
    <comp name="--.HHE">
      <acc value="0.0148037636" flag="0"/>
      <vel value="0.0092561749" flag="0"/>
      <psa03 value="0.0218034850" flag="0"/>
      <psa10 value="0.0085539219" flag="0"/>
      <psa30 value="0.0008367217" flag="0"/>
    </comp>
    <comp name="--.HHZ">
      <acc value="0.0004474060" flag="0"/>
      <vel value="0.0002600024" flag="0"/>
      <psa03 value="0.0007857304" flag="0"/>
      <psa10 value="0.0002857050" flag="0"/>
      <psa30 value="0.0000639368" flag="0"/>
    </comp>
  </station>
  <station code="DMLN" name="DMLN" netid="HT" source="NOA" insttype="1s-100Hz," lat="38.2385" lon="20.3734">
    <comp name="--.HHE">
      <acc value="0.2105586806" flag="0"/>
      <vel value="0.2028421018" flag="0"/>
      <psa03 value="0.3627134462" flag="0"/>
      <psa10 value="0.1830770608" flag="0"/>
      <psa30 value="0.0133862052" flag="0"/>
    </comp>
    <comp name="--.HHN">
      <acc value="0.2017937553" flag="0"/>
      <vel value="0.1397656066" flag="0"/>
      <psa03 value="0.4798896997" flag="0"/>
      <psa10 value="0.0996088872" flag="0"/>
      <psa30 value="0.0077152582" flag="0"/>
    </comp>
    <comp name="--.HHZ">
      <acc value="0.0923258837" flag="0"/>
      <vel value="0.0552357590" flag="0"/>
      <psa03 value="0.1460995722" flag="0"/>
      <psa10 value="0.0721176329" flag="0"/>
      <psa30 value="0.0034157869" flag="0"/>
    </comp>
  </station>
  <station code="DRAG" name="DRAG" netid="HT" source="NOA" insttype="1s-100Hz," lat="38.6839" lon="20.5746">
    <comp name="--.HHE">
      <acc value="0.0008147650" flag="0"/>
      <vel value="0.0003394959" flag="0"/>
      <psa03 value="0.0018293859" flag="0"/>
      <psa10 value="0.0003698816" flag="0"/>
      <psa30 value="0.0000134261" flag="0"/>
    </comp>
    <comp name="--.HHN">
      <acc value="0.0001952931" flag="0"/>
      <vel value="0.0000813473" flag="0"/>
      <psa03 value="0.0004124715" flag="0"/>
      <psa10 value="0.0000992509" flag="0"/>
      <psa30 value="0.0000069062" flag="0"/>
    </comp>
    <comp name="--.HHZ">
      <acc value="0.0003618068" flag="0"/>
      <vel value="0.0001537104" flag="0"/>
      <psa03 value="0.0007775932" flag="0"/>
      <psa10 value="0.0001371089" flag="0"/>
      <psa30 value="0.0000112283" flag="0"/>
    </comp>
  </station>
  <station code="EVGI" name="EVGI" netid="HT" source="NOA" insttype="30" lat="38.621" lon="20.656">
    <comp name="--.HHE">
      <acc value="0.0899801163" flag="0"/>
      <vel value="0.0204117031" flag="0"/>
      <psa03 value="0.1178927725" flag="0"/>
      <psa10 value="0.0120343747" flag="0"/>
      <psa30 value="0.0022646196" flag="0"/>
    </comp>
    <comp name="--.HHN">
      <acc value="nan" flag="0"/>
      <vel value="-100.0000000000" flag="0"/>
      <psa03 value="0.0000000000" flag="0"/>
      <psa10 value="0.0000000000" flag="0"/>
      <psa30 value="0.0000000000" flag="0"/>
    </comp>
    <comp name="--.HHZ">
      <acc value="0.0529797045" flag="0"/>
      <vel value="0.0163948217" flag="0"/>
      <psa03 value="0.0852259980" flag="0"/>
      <psa10 value="0.0219234694" flag="0"/>
      <psa30 value="0.0019955918" flag="0"/>
    </comp>
  </station>
  <station code="LKD2" name="LKD2" netid="HT" source="NOA" insttype="100" lat="38.7889" lon="20.6578">
    <comp name="--.HHE">
      <acc value="0.0318286877" flag="0"/>
      <vel value="0.0200413997" flag="0"/>
      <psa03 value="0.0660734992" flag="0"/>
      <psa10 value="0.0191246179" flag="0"/>
      <psa30 value="0.0018527087" flag="0"/>
    </comp>
    <comp name="--.HHN">
      <acc value="0.0416559730" flag="0"/>
      <vel value="0.0211473716" flag="0"/>
      <psa03 value="0.0799767600" flag="0"/>
      <psa10 value="0.0186482119" flag="0"/>
      <psa30 value="0.0018048896" flag="0"/>
    </comp>
    <comp name="--.HHZ">
      <acc value="0.0211256401" flag="0"/>
      <vel value="0.0098223841" flag="0"/>
      <psa03 value="0.0341490520" flag="0"/>
      <psa10 value="0.0114863867" flag="0"/>
      <psa30 value="0.0006579049" flag="0"/>
    </comp>
  </station>
  <station code="NYDR" name="NYDR" netid="HT" source="NOA" insttype="1s-100Hz," lat="38.7135" lon="20.6983">
    <comp name="--.HHE">
      <acc value="0.0251482446" flag="0"/>
      <vel value="0.0152882711" flag="0"/>
      <psa03 value="0.0573453001" flag="0"/>
      <psa10 value="0.0202595971" flag="0"/>
      <psa30 value="0.0020588475" flag="0"/>
    </comp>
    <comp name="--.HHN">
      <acc value="0.0266629556" flag="0"/>
      <vel value="0.0129350203" flag="0"/>
      <psa03 value="0.0789232776" flag="0"/>
      <psa10 value="0.0177207412" flag="0"/>
      <psa30 value="0.0013209101" flag="0"/>
    </comp>
    <comp name="--.HHZ">
      <acc value="0.0261721884" flag="0"/>
      <vel value="0.0119431721" flag="0"/>
      <psa03 value="0.0609385453" flag="0"/>
      <psa10 value="0.0103012528" flag="0"/>
      <psa30 value="0.0009961181" flag="0"/>
    </comp>
  </station>
  <station code="PSDA" name="PSDA" netid="HT" source="NOA" insttype="30" lat="38.114" lon="20.5841">
    <comp name="--.HHE">
      <acc value="0.1699301496" flag="0"/>
      <vel value="0.0699954460" flag="0"/>
      <psa03 value="0.3526390848" flag="0"/>
      <psa10 value="0.0434918395" flag="0"/>
      <psa30 value="0.0042094180" flag="0"/>
    </comp>
    <comp name="--.HHN">
      <acc value="0.1559291565" flag="0"/>
      <vel value="0.0647089638" flag="0"/>
      <psa03 value="0.3316563159" flag="0"/>
      <psa10 value="0.0660280269" flag="0"/>
      <psa30 value="0.0040180292" flag="0"/>
    </comp>
    <comp name="--.HHZ">
      <acc value="0.2069712026" flag="0"/>
      <vel value="0.0363690110" flag="0"/>
      <psa03 value="0.1239455361" flag="0"/>
      <psa10 value="0.0282277523" flag="0"/>
      <psa30 value="0.0022214074" flag="0"/>
    </comp>
  </station>
</stationlist>
