<stationlist xmlns:esm="https://esm-db.eu/esmws/shakemap/1/" created="1783994105">
	<station code="ROD3" name="ROD3" netid="CL" source="Corinth Riff Laboratory (CRLNET)" insttype="" lat="38.30811" lon="21.89204" esm:processing="manual (Paolucci et al 2011)" esm:quality="good">
		<comp name="00.HNE" depth="0.0">
			<acc value="0.0427852643154462" flag="0"/>
			<vel value="0.0247453143848793" flag="0"/>
			<psa03 value="0.140893208640938" flag="0"/>
			<psa10 value="0.0238386476862152" flag="0"/>
			<psa30 value="0.00301830925846861" flag="0"/>
		</comp>
		<comp name="00.HNN" depth="0.0">
			<acc value="0.0489170607294309" flag="0"/>
			<vel value="0.0275871099475728" flag="0"/>
			<psa03 value="0.159908646453703" flag="0"/>
			<psa10 value="0.029005030284427" flag="0"/>
			<psa30 value="0.00228185253753186" flag="0"/>
		</comp>
		<comp name="00.HNZ" depth="0.0">
			<acc value="0.0183357021506277" flag="0"/>
			<vel value="0.0110305987486545" flag="0"/>
			<psa03 value="0.0490822006602441" flag="0"/>
			<psa10 value="0.0172870463711017" flag="0"/>
			<psa30 value="0.00121385606555371" flag="0"/>
		</comp>
	</station>
	<station code="ARG2" name="ARG2" netid="HI" source="ITSAK Strong Motion Network" insttype="" lat="38.1783" lon="20.4878" esm:processing="manual (Paolucci et al 2011)" esm:quality="good">
		<comp name="--.HNE" depth="0.0">
			<acc value="0.164171339356582" flag="0"/>
			<vel value="0.073992615967311" flag="0"/>
			<psa03 value="0.402098210878408" flag="0"/>
			<psa10 value="0.070956218053851" flag="0"/>
			<psa30 value="0.00708134904147387" flag="0"/>
		</comp>
		<comp name="--.HNN" depth="0.0">
			<acc value="0.137695459672186" flag="0"/>
			<vel value="0.0664623419305525" flag="0"/>
			<psa03 value="0.356371675714535" flag="0"/>
			<psa10 value="0.061034186314183" flag="0"/>
			<psa30 value="0.004478694882489" flag="0"/>
		</comp>
		<comp name="--.HNZ" depth="0.0">
			<acc value="0.102894214694073" flag="0"/>
			<vel value="0.0463990845658766" flag="0"/>
			<psa03 value="0.235030811365782" flag="0"/>
			<psa10 value="0.0417297138466635" flag="0"/>
			<psa30 value="0.00411986238541046" flag="0"/>
		</comp>
	</station>
	<station code="ART2" name="ART2" netid="HI" source="ITSAK Strong Motion Network" insttype="" lat="39.1474" lon="20.9937" esm:processing="manual (Paolucci et al 2011)" esm:quality="good">
		<comp name="--.HNE" depth="0.0">
			<acc value="0.00687226698995232" flag="0"/>
			<vel value="0.00503238996647506" flag="0"/>
			<psa03 value="0.0166712984021218" flag="0"/>
			<psa10 value="0.00623564401832981" flag="0"/>
			<psa30 value="0.00157939587722449" flag="0"/>
		</comp>
		<comp name="--.HNN" depth="0.0">
			<acc value="0.00622911360021788" flag="0"/>
			<vel value="0.00569458003836302" flag="0"/>
			<psa03 value="0.0188053850874079" flag="0"/>
			<psa10 value="0.00473347544452091" flag="0"/>
			<psa30 value="0.00107827153436321" flag="0"/>
		</comp>
		<comp name="--.HNZ" depth="0.0">
			<acc value="0.0041936908918971" flag="0"/>
			<vel value="0.00389845919911195" flag="0"/>
			<psa03 value="0.0131345771325176" flag="0"/>
			<psa10 value="0.00519869376294711" flag="0"/>
			<psa30 value="0.00130676469174535" flag="0"/>
		</comp>
	</station>
	<station code="KLV1" name="KLV1" netid="HI" source="ITSAK Strong Motion Network" insttype="" lat="38.03256" lon="22.10797" esm:processing="manual (Paolucci et al 2011)" esm:quality="good">
		<comp name="--.HNE" depth="0.0">
			<acc value="0.0266262549984507" flag="0"/>
			<vel value="0.0218872085414499" flag="0"/>
			<psa03 value="0.0735969743968006" flag="0"/>
			<psa10 value="0.0233111336232059" flag="0"/>
			<psa30 value="0.0019641249053043" flag="0"/>
		</comp>
		<comp name="--.HNN" depth="0.0">
			<acc value="0.0197436498416838" flag="0"/>
			<vel value="0.0147345369005833" flag="0"/>
			<psa03 value="0.083688434573276" flag="0"/>
			<psa10 value="0.0148868146159245" flag="0"/>
			<psa30 value="0.00184475470594724" flag="0"/>
		</comp>
		<comp name="--.HNZ" depth="0.0">
			<acc value="0.0104969682786968" flag="0"/>
			<vel value="0.00776467067964217" flag="0"/>
			<psa03 value="0.0242085177579745" flag="0"/>
			<psa10 value="0.0119650607515642" flag="0"/>
			<psa30 value="0.00114677075960341" flag="0"/>
		</comp>
	</station>
	<station code="KRI1" name="KRI1" netid="HI" source="ITSAK Strong Motion Network" insttype="" lat="37.6621" lon="20.8172" esm:processing="manual (Paolucci et al 2011)" esm:quality="good">
		<comp name="--.HNE" depth="0.0">
			<acc value="0.808528811571271" flag="0"/>
			<vel value="0.373224762949634" flag="0"/>
			<psa03 value="1.20463917099035" flag="0"/>
			<psa10 value="0.180018031218285" flag="0"/>
			<psa30 value="0.0130938067668372" flag="0"/>
		</comp>
		<comp name="--.HNN" depth="0.0">
			<acc value="0.743793878175158" flag="0"/>
			<vel value="0.40056591157825" flag="0"/>
			<psa03 value="1.49506083414955" flag="0"/>
			<psa10 value="0.315523830760317" flag="0"/>
			<psa30 value="0.0230413415642776" flag="0"/>
		</comp>
		<comp name="--.HNZ" depth="0.0">
			<acc value="0.509474578872019" flag="0"/>
			<vel value="0.159336152924893" flag="0"/>
			<psa03 value="0.481918307485405" flag="0"/>
			<psa10 value="0.128821313873262" flag="0"/>
			<psa30 value="0.00685942769664724" flag="0"/>
		</comp>
	</station>
	<station code="MSL1" name="MSL1" netid="HI" source="ITSAK Strong Motion Network" insttype="" lat="38.3727" lon="21.4243" esm:processing="manual (Paolucci et al 2011)" esm:quality="good">
		<comp name="--.HNE" depth="0.0">
			<acc value="0.0741546266881431" flag="0"/>
			<vel value="0.0484326827536174" flag="0"/>
			<psa03 value="0.221205469520736" flag="0"/>
			<psa10 value="0.0886741318746866" flag="0"/>
			<psa30 value="0.00628359549747008" flag="0"/>
		</comp>
		<comp name="--.HNN" depth="0.0">
			<acc value="0.0714553656237285" flag="0"/>
			<vel value="0.0624201841788666" flag="0"/>
			<psa03 value="0.242010595598232" flag="0"/>
			<psa10 value="0.11590737077703" flag="0"/>
			<psa30 value="0.00889654036397715" flag="0"/>
		</comp>
		<comp name="--.HNZ" depth="0.0">
			<acc value="0.0262470253735882" flag="0"/>
			<vel value="0.0277824157182121" flag="0"/>
			<psa03 value="0.0930637897660053" flag="0"/>
			<psa10 value="0.0610019719254179" flag="0"/>
			<psa30 value="0.00301070308334351" flag="0"/>
		</comp>
	</station>
	<station code="PYL1" name="PYL1" netid="HI" source="ITSAK Strong Motion Network" insttype="" lat="36.914188" lon="21.695161" esm:processing="manual (Paolucci et al 2011)" esm:quality="best">
		<comp name="--.HNE" depth="0.0">
			<acc value="0.0156183211643504" flag="0"/>
			<vel value="0.0125917333019093" flag="0"/>
			<psa03 value="0.038030875625531" flag="0"/>
			<psa10 value="0.0133206497543919" flag="0"/>
			<psa30 value="0.00156418754337478" flag="0"/>
		</comp>
		<comp name="--.HNN" depth="0.0">
			<acc value="0.0118791442833703" flag="0"/>
			<vel value="0.00863465916651827" flag="0"/>
			<psa03 value="0.0300667628474786" flag="0"/>
			<psa10 value="0.0100831036834937" flag="0"/>
			<psa30 value="0.00218207741677311" flag="0"/>
		</comp>
		<comp name="--.HNZ" depth="0.0">
			<acc value="0.00950628622134461" flag="0"/>
			<vel value="0.00457022774517608" flag="0"/>
			<psa03 value="0.015480803489922" flag="0"/>
			<psa10 value="0.00565362522828482" flag="0"/>
			<psa30 value="0.001087235620824" flag="0"/>
		</comp>
	</station>
	<station code="ARTB" name="ARTB" netid="HL" source="National Observatory of Athens Seismic Network" insttype="" lat="39.15702" lon="20.9785" esm:processing="manual (Paolucci et al 2011)" esm:quality="good">
		<comp name="00.HNE" depth="0.0">
			<acc value="0.0356856527764841" flag="0"/>
			<vel value="0.0126515102304123" flag="0"/>
			<psa03 value="0.0814576305432502" flag="0"/>
			<psa10 value="0.0123346392968181" flag="0"/>
			<psa30 value="0.00131974784348431" flag="0"/>
		</comp>
		<comp name="00.HNN" depth="0.0">
			<acc value="0.0292086754788415" flag="0"/>
			<vel value="0.0131920562045994" flag="0"/>
			<psa03 value="0.0923800155559863" flag="0"/>
			<psa10 value="0.00633260622283344" flag="0"/>
			<psa30 value="0.000855845289300145" flag="0"/>
		</comp>
		<comp name="00.HNZ" depth="0.0">
			<acc value="0.0119374960325764" flag="0"/>
			<vel value="0.0046829734035689" flag="0"/>
			<psa03 value="0.0251445849761848" flag="0"/>
			<psa10 value="0.00429848834750713" flag="0"/>
			<psa30 value="0.000976940446676683" flag="0"/>
		</comp>
	</station>
	<station code="ITM" name="ITM" netid="HL" source="National Observatory of Athens Seismic Network" insttype="" lat="37.17872" lon="21.92522" esm:processing="manual (Paolucci et al 2011)" esm:quality="good">
		<comp name="--.HNE" depth="0.0">
			<acc value="0.0149343826988696" flag="0"/>
			<vel value="0.00984947702489609" flag="0"/>
			<psa03 value="0.0261263323037937" flag="0"/>
			<psa10 value="0.0127421619181918" flag="0"/>
			<psa30 value="0.00159100289613363" flag="0"/>
		</comp>
		<comp name="--.HNN" depth="0.0">
			<acc value="0.0181647660364582" flag="0"/>
			<vel value="0.0133823046452263" flag="0"/>
			<psa03 value="0.0522782027576979" flag="0"/>
			<psa10 value="0.0121453314436019" flag="0"/>
			<psa30 value="0.0023817315280248" flag="0"/>
		</comp>
		<comp name="--.HNZ" depth="0.0">
			<acc value="0.00965155847036733" flag="0"/>
			<vel value="0.00774726706033152" flag="0"/>
			<psa03 value="0.0216096099160191" flag="0"/>
			<psa10 value="0.0121827242331907" flag="0"/>
			<psa30 value="0.00125741538093124" flag="0"/>
		</comp>
	</station>
	<station code="KIAA" name="KIAA" netid="HL" source="National Observatory of Athens Seismic Network" insttype="" lat="38.0139" lon="22.7495" esm:processing="manual (Paolucci et al 2011)" esm:quality="good">
		<comp name="00.HNE" depth="0.0">
			<acc value="0.0259540614203602" flag="0"/>
			<vel value="0.0320653077556657" flag="0"/>
			<psa03 value="0.0637488115875714" flag="0"/>
			<psa10 value="0.069455501086077" flag="0"/>
			<psa30 value="0.00933982705103797" flag="0"/>
		</comp>
		<comp name="00.HNN" depth="0.0">
			<acc value="0.0200332685509434" flag="0"/>
			<vel value="0.0255430724108515" flag="0"/>
			<psa03 value="0.0489588630760678" flag="0"/>
			<psa10 value="0.043286154995331" flag="0"/>
			<psa30 value="0.00478140049431685" flag="0"/>
		</comp>
		<comp name="00.HNZ" depth="0.0">
			<acc value="0.0144025958221894" flag="0"/>
			<vel value="0.014583651697685" flag="0"/>
			<psa03 value="0.0361534835325186" flag="0"/>
			<psa10 value="0.0288727558033718" flag="0"/>
			<psa30 value="0.00210033788707709" flag="0"/>
		</comp>
	</station>
	<station code="LXRA" name="LXRA" netid="HL" source="National Observatory of Athens Seismic Network" insttype="" lat="38.20006" lon="20.43718" esm:processing="manual (Paolucci et al 2011)" esm:quality="good">
		<comp name="00.HNE" depth="0.0">
			<acc value="0.209734158543606" flag="0"/>
			<vel value="0.115601283313319" flag="0"/>
			<psa03 value="0.402187695291645" flag="0"/>
			<psa10 value="0.111638964265647" flag="0"/>
			<psa30 value="0.0198194552656958" flag="0"/>
		</comp>
		<comp name="00.HNN" depth="0.0">
			<acc value="0.189284257011805" flag="0"/>
			<vel value="0.0979959896946613" flag="0"/>
			<psa03 value="0.401829757638699" flag="0"/>
			<psa10 value="0.138711131224165" flag="0"/>
			<psa30 value="0.0120405752230431" flag="0"/>
		</comp>
		<comp name="00.HNZ" depth="0.0">
			<acc value="0.117278124557777" flag="0"/>
			<vel value="0.0585816615510279" flag="0"/>
			<psa03 value="0.228543191406132" flag="0"/>
			<psa10 value="0.0583201240607187" flag="0"/>
			<psa30 value="0.00496593751256198" flag="0"/>
		</comp>
	</station>
	<station code="PATC" name="PATC" netid="HL" source="National Observatory of Athens Seismic Network" insttype="" lat="38.26933" lon="21.76001" esm:processing="manual (Paolucci et al 2011)" esm:quality="good">
		<comp name="00.HNE" depth="0.0">
			<acc value="0.0563913742976526" flag="0"/>
			<vel value="0.0446985967589552" flag="0"/>
			<psa03 value="0.195292332991949" flag="0"/>
			<psa10 value="0.059616499300496" flag="0"/>
			<psa30 value="0.00863961316530451" flag="0"/>
		</comp>
		<comp name="00.HNN" depth="0.0">
			<acc value="0.0632222400016646" flag="0"/>
			<vel value="0.041654402913136" flag="0"/>
			<psa03 value="0.197028948034173" flag="0"/>
			<psa10 value="0.0397219076314356" flag="0"/>
			<psa30 value="0.00687918654568069" flag="0"/>
		</comp>
		<comp name="00.HNZ" depth="0.0">
			<acc value="0.0283831980092045" flag="0"/>
			<vel value="0.0212364680408705" flag="0"/>
			<psa03 value="0.0962496885694987" flag="0"/>
			<psa10 value="0.033608286384032" flag="0"/>
			<psa30 value="0.00271988601243315" flag="0"/>
		</comp>
	</station>
	<station code="PRGA" name="PRGA" netid="HL" source="National Observatory of Athens Seismic Network" insttype="" lat="39.28557" lon="20.40157" esm:processing="automatic (Paolucci et al 2011)" esm:quality="good">
		<comp name="00.HNE" depth="0.0">
			<acc value="0.0360336104223359" flag="0"/>
			<vel value="0.0151518667428821" flag="0"/>
			<psa03 value="0.1019948920779" flag="0"/>
			<psa10 value="0.0138970818634869" flag="0"/>
			<psa30 value="0.00181866526931585" flag="0"/>
		</comp>
		<comp name="00.HNN" depth="0.0">
			<acc value="0.0367438858556589" flag="0"/>
			<vel value="0.0166131744462704" flag="0"/>
			<psa03 value="0.0919516017588281" flag="0"/>
			<psa10 value="0.0214884435039338" flag="0"/>
			<psa30 value="0.00131800970750614" flag="0"/>
		</comp>
		<comp name="00.HNZ" depth="0.0">
			<acc value="0.0115299298865682" flag="0"/>
			<vel value="0.00524864449541901" flag="0"/>
			<psa03 value="0.0195791030090691" flag="0"/>
			<psa10 value="0.00865032491657475" flag="0"/>
			<psa30 value="0.00117199118032866" flag="0"/>
		</comp>
	</station>
	<station code="RIOA" name="RIOA" netid="HL" source="National Observatory of Athens Seismic Network" insttype="" lat="38.29585" lon="21.79118" esm:processing="manual (Paolucci et al 2011)" esm:quality="good">
		<comp name="00.HNE" depth="0.0">
			<acc value="0.0250980429041395" flag="0"/>
			<vel value="0.021290193366777" flag="0"/>
			<psa03 value="0.0638857685769665" flag="0"/>
			<psa10 value="0.0189048636044335" flag="0"/>
			<psa30 value="0.00490476700007574" flag="0"/>
		</comp>
		<comp name="00.HNN" depth="0.0">
			<acc value="0.0367246238630718" flag="0"/>
			<vel value="0.0233459168344004" flag="0"/>
			<psa03 value="0.0543248435459391" flag="0"/>
			<psa10 value="0.0239473782712828" flag="0"/>
			<psa30 value="0.00477874573511875" flag="0"/>
		</comp>
		<comp name="00.HNZ" depth="0.0">
			<acc value="0.0187919433423573" flag="0"/>
			<vel value="0.0167659075733712" flag="0"/>
			<psa03 value="0.0325745875940603" flag="0"/>
			<psa10 value="0.0149931041570681" flag="0"/>
			<psa30 value="0.00284264518629261" flag="0"/>
		</comp>
	</station>
	<station code="SMHA" name="SMHA" netid="HL" source="National Observatory of Athens Seismic Network" insttype="" lat="38.25123" lon="20.6477" esm:processing="manual (Paolucci et al 2011)" esm:quality="good">
		<comp name="00.HNE" depth="0.0">
			<acc value="0.200374402271603" flag="0"/>
			<vel value="0.12233887326347" flag="0"/>
			<psa03 value="0.79096614762542" flag="0"/>
			<psa10 value="0.0949695287651944" flag="0"/>
			<psa30 value="0.00700671749398012" flag="0"/>
		</comp>
		<comp name="00.HNN" depth="0.0">
			<acc value="0.246401417056962" flag="0"/>
			<vel value="0.13449203335699" flag="0"/>
			<psa03 value="0.900836592669854" flag="0"/>
			<psa10 value="0.106243233092778" flag="0"/>
			<psa30 value="0.00675873523303903" flag="0"/>
		</comp>
		<comp name="00.HNZ" depth="0.0">
			<acc value="0.185127900138403" flag="0"/>
			<vel value="0.0540248067529194" flag="0"/>
			<psa03 value="0.256018626644208" flag="0"/>
			<psa10 value="0.0418483509978725" flag="0"/>
			<psa30 value="0.00288731210359" flag="0"/>
		</comp>
	</station>
	<station code="ZARA" name="ZARA" netid="HL" source="National Observatory of Athens Seismic Network" insttype="" lat="37.4865" lon="21.6491" esm:processing="manual (Paolucci et al 2011)" esm:quality="good">
		<comp name="00.HNE" depth="0.0">
			<acc value="0.101354432760649" flag="0"/>
			<vel value="0.0554665927180611" flag="0"/>
			<psa03 value="0.218153972463365" flag="0"/>
			<psa10 value="0.055578111777142" flag="0"/>
			<psa30 value="0.00459900132793391" flag="0"/>
		</comp>
		<comp name="00.HNN" depth="0.0">
			<acc value="0.0678011330679759" flag="0"/>
			<vel value="0.0502988947460181" flag="0"/>
			<psa03 value="0.173450688173506" flag="0"/>
			<psa10 value="0.0557110618344308" flag="0"/>
			<psa30 value="0.00365963159929958" flag="0"/>
		</comp>
		<comp name="00.HNZ" depth="0.0">
			<acc value="0.0344475617741064" flag="0"/>
			<vel value="0.0209030242521031" flag="0"/>
			<psa03 value="0.108115110012104" flag="0"/>
			<psa10 value="0.0231023479171691" flag="0"/>
			<psa30 value="0.00306530472806116" flag="0"/>
		</comp>
	</station>
	<station code="ANX" name="ANX" netid="HP" source="University of Patras, Seismological Laboratory (PSLNET)" insttype="" lat="38.5933" lon="21.9209" esm:processing="manual (Paolucci et al 2011)" esm:quality="good">
		<comp name="--.HNE" depth="0.0">
			<acc value="0.0342885853918695" flag="0"/>
			<vel value="0.0217244630107521" flag="0"/>
			<psa03 value="0.0785620272654106" flag="0"/>
			<psa10 value="0.0190740935650879" flag="0"/>
			<psa30 value="0.00248435311786815" flag="0"/>
		</comp>
		<comp name="--.HNN" depth="0.0">
			<acc value="0.0398828000542926" flag="0"/>
			<vel value="0.0343089763641064" flag="0"/>
			<psa03 value="0.0860820202197042" flag="0"/>
			<psa10 value="0.0335764130225782" flag="0"/>
			<psa30 value="0.00215303804487058" flag="0"/>
		</comp>
		<comp name="--.HNZ" depth="0.0">
			<acc value="0.0214034822038207" flag="0"/>
			<vel value="0.0156278074039668" flag="0"/>
			<psa03 value="0.0594744607244708" flag="0"/>
			<psa10 value="0.0150774341185141" flag="0"/>
			<psa30 value="0.00125085744650027" flag="0"/>
		</comp>
	</station>
	<station code="FSK" name="FSK" netid="HP" source="University of Patras, Seismological Laboratory (PSLNET)" insttype="" lat="38.4593" lon="20.5623" esm:processing="manual (Paolucci et al 2011)" esm:quality="good">
		<comp name="--.HNE" depth="0.0">
			<acc value="0.0907819007882102" flag="0"/>
			<vel value="0.0288137885171985" flag="0"/>
			<psa03 value="0.11500410804108" flag="0"/>
			<psa10 value="0.0401028503670222" flag="0"/>
			<psa30 value="0.00544170131933925" flag="0"/>
		</comp>
		<comp name="--.HNN" depth="0.0">
			<acc value="0.0411753393939184" flag="0"/>
			<vel value="0.0280316323281068" flag="0"/>
			<psa03 value="0.0944527570316032" flag="0"/>
			<psa10 value="0.0511101407959922" flag="0"/>
			<psa30 value="0.00297623049399698" flag="0"/>
		</comp>
		<comp name="--.HNZ" depth="0.0">
			<acc value="0.0303217965413361" flag="0"/>
			<vel value="0.0163461731710974" flag="0"/>
			<psa03 value="0.0498220608836862" flag="0"/>
			<psa10 value="0.0214557807151729" flag="0"/>
			<psa30 value="0.00230924735130382" flag="0"/>
		</comp>
	</station>
	<station code="AGRP" name="AGRP" netid="CL" source="Corinth Riff Laboratory (CRLNET)" insttype="" lat="38.3959" lon="21.72277" esm:processing="discarded" esm:quality="bad">
		<comp name="00.HNE" depth="0.0">
			<acc value="0" flag="1"/>
			<vel value="0" flag="1"/>
			<psa03 value="0" flag="1"/>
			<psa10 value="0" flag="1"/>
			<psa30 value="0" flag="1"/>
		</comp>
		<comp name="00.HNN" depth="0.0">
			<acc value="0" flag="1"/>
			<vel value="0" flag="1"/>
			<psa03 value="0" flag="1"/>
			<psa10 value="0" flag="1"/>
			<psa30 value="0" flag="1"/>
		</comp>
		<comp name="00.HNZ" depth="0.0">
			<acc value="0" flag="1"/>
			<vel value="0" flag="1"/>
			<psa03 value="0" flag="1"/>
			<psa10 value="0" flag="1"/>
			<psa30 value="0" flag="1"/>
		</comp>
	</station>
