<?xml version="1.0" encoding="UTF-8" standalone="yes"?>
<!DOCTYPE earthquake SYSTEM "stationlist.dtd">
<stationlist created="" xmlns="ch.ethz.sed.shakemap.usgs.xml">
  <station code="AKDN" name="AKDN" netid="KO" insttype="CMG-5T" commtype="DIG" lat="35.2977" lon="32.9677">
    <comp name="--.HNE">
      <acc value="0.0210590870" flag="0"/>
      <vel value="0.0080414501" flag="0"/>
      <psa03 value="0.0573207985" flag="0"/>
      <psa10 value="0.0042141795" flag="0"/>
      <psa30 value="0.0004465723" flag="0"/>
    </comp>
    <comp name="--.HNZ">
      <acc value="0.0137851903" flag="0"/>
      <vel value="0.0030868967" flag="0"/>
      <psa03 value="0.0241109283" flag="0"/>
      <psa10 value="0.0022958141" flag="0"/>
      <psa30 value="0.0003246817" flag="0"/>
    </comp>
    <comp name="--.HNN">
      <acc value="0.0127957985" flag="0"/>
      <vel value="0.0048070798" flag="0"/>
      <psa03 value="0.0428748611" flag="0"/>
      <psa10 value="0.0071659558" flag="0"/>
      <psa30 value="0.0004112472" flag="0"/>
    </comp>
  </station>
  <station code="AKIN" name="AKIN" netid="KO" insttype="CMG-5T" commtype="DIG" lat="35.0157" lon="33.4662">
    <comp name="--.HNZ">
      <acc value="0.0190698797" flag="0"/>
      <vel value="0.0070692305" flag="0"/>
      <psa03 value="0.0559181452" flag="0"/>
      <psa10 value="0.0034807883" flag="0"/>
      <psa30 value="0.0002192759" flag="0"/>
    </comp>
    <comp name="--.HNN">
      <acc value="0.0273136576" flag="0"/>
      <vel value="0.0077355632" flag="0"/>
      <psa03 value="0.0433691084" flag="0"/>
      <psa10 value="0.0050819304" flag="0"/>
      <psa30 value="0.0002772836" flag="0"/>
    </comp>
    <comp name="--.HNE">
      <acc value="0.0300207940" flag="0"/>
      <vel value="0.0078575537" flag="0"/>
      <psa03 value="0.0540009767" flag="0"/>
      <psa10 value="0.0047901271" flag="0"/>
      <psa30 value="0.0003793519" flag="0"/>
    </comp>
  </station>
  <station code="HSY" name="HSY" netid="KO" insttype="CMG-6T" commtype="DIG" lat="35.2916" lon="33.0974">
    <comp name="--.HHN">
      <acc value="0.1136268317" flag="0"/>
      <vel value="0.0359059023" flag="0"/>
      <psa03 value="0.2337838995" flag="0"/>
      <psa10 value="0.0074275504" flag="0"/>
      <psa30 value="0.0007598070" flag="0"/>
    </comp>
    <comp name="--.HHE">
      <acc value="0.1012997423" flag="0"/>
      <vel value="0.0379964050" flag="0"/>
      <psa03 value="0.1508260141" flag="0"/>
      <psa10 value="0.0133527014" flag="0"/>
      <psa30 value="0.0009996449" flag="0"/>
    </comp>
    <comp name="--.HHZ">
      <acc value="0.0361221004" flag="0"/>
      <vel value="0.0101764603" flag="0"/>
      <psa03 value="0.0508791092" flag="0"/>
      <psa10 value="0.0051707106" flag="0"/>
      <psa30 value="0.0003479320" flag="0"/>
    </comp>
  </station>
  <station code="LEF" name="LEF" netid="KO" insttype="CMG-6T" commtype="DIG" lat="35.1118" lon="32.8433">
    <comp name="--.HHE">
      <acc value="0.0301303069" flag="0"/>
      <vel value="0.0129160493" flag="0"/>
      <psa03 value="0.0481884024" flag="0"/>
      <psa10 value="0.0073834018" flag="0"/>
      <psa30 value="0.0007452116" flag="0"/>
    </comp>
    <comp name="--.HHZ">
      <acc value="0.0453951949" flag="0"/>
      <vel value="0.0113818292" flag="0"/>
      <psa03 value="0.0330554853" flag="0"/>
      <psa10 value="0.0104324426" flag="0"/>
      <psa30 value="0.0005115138" flag="0"/>
    </comp>
    <comp name="--.HHN">
      <acc value="0.0424373941" flag="0"/>
      <vel value="0.0140401096" flag="0"/>
      <psa03 value="0.0521423853" flag="0"/>
      <psa10 value="0.0060995208" flag="0"/>
      <psa30 value="0.0003342633" flag="0"/>
    </comp>
  </station>
  <station code="LFK" name="LFK" netid="KO" insttype="CMG-6T" commtype="DIG" lat="35.2832" lon="33.5335">
    <comp name="--.HHE">
      <acc value="0.2192745709" flag="0"/>
      <vel value="0.1230731201" flag="0"/>
      <psa03 value="0.6664786964" flag="0"/>
      <psa10 value="0.0510641605" flag="0"/>
      <psa30 value="0.0047940563" flag="0"/>
    </comp>
    <comp name="--.HHZ">
      <acc value="0.1392680434" flag="0"/>
      <vel value="0.0359909806" flag="0"/>
      <psa03 value="0.2299821207" flag="0"/>
      <psa10 value="0.0247015390" flag="0"/>
      <psa30 value="0.0011323733" flag="0"/>
    </comp>
    <comp name="--.HHN">
      <acc value="0.1711842652" flag="0"/>
      <vel value="0.1284265891" flag="0"/>
      <psa03 value="0.3893642695" flag="0"/>
      <psa10 value="0.0598623565" flag="0"/>
      <psa30 value="0.0044108218" flag="0"/>
    </comp>
  </station>
  <station code="MAGT" name="MAGT" netid="KO" insttype="CMG-6T" commtype="DIG" lat="35.1696" lon="33.8714">
    <comp name="--.HHE">
      <acc value="0.0063621958" flag="0"/>
      <vel value="0.0021775932" flag="0"/>
      <psa03 value="0.0080455388" flag="0"/>
      <psa10 value="0.0020641028" flag="0"/>
      <psa30 value="0.0002329113" flag="0"/>
    </comp>
    <comp name="--.HHN">
      <acc value="0.0090903042" flag="0"/>
      <vel value="0.0023734885" flag="0"/>
      <psa03 value="0.0134132004" flag="0"/>
      <psa10 value="0.0025620539" flag="0"/>
      <psa30 value="0.0002753168" flag="0"/>
    </comp>
    <comp name="--.HHZ">
      <acc value="0.0205265831" flag="0"/>
      <vel value="0.0046010969" flag="0"/>
      <psa03 value="0.0194764897" flag="0"/>
      <psa10 value="0.0019501125" flag="0"/>
      <psa30 value="0.0002247980" flag="0"/>
    </comp>
  </station>
</stationlist>
