<?xml version="1.0" encoding="UTF-8" standalone="yes"?>
<!DOCTYPE earthquake SYSTEM "stationlist.dtd">
<stationlist created="" xmlns="ch.ethz.sed.shakemap.usgs.xml">
  <station code="ANDN" name="ANDN" netid="TU" source="ODC" insttype="T" lat="37.58" lon="36.3452">
    <comp name="--.HHZ">
      <acc value="0.0213107153" flag="0"/>
      <vel value="0.0112315325" flag="0"/>
      <psa03 value="0.0552010980" flag="0"/>
      <psa10 value="0.0182569761" flag="0"/>
      <psa30 value="0.0009696326" flag="0"/>
    </comp>
    <comp name="--.HHN">
      <acc value="0.0522802297" flag="0"/>
      <vel value="0.0174500688" flag="0"/>
      <psa03 value="0.0998877645" flag="0"/>
      <psa10 value="0.0224942527" flag="0"/>
      <psa30 value="0.0013035841" flag="0"/>
    </comp>
    <comp name="--.HHE">
      <acc value="0.0611962568" flag="0"/>
      <vel value="0.0222419934" flag="0"/>
      <psa03 value="0.1238334691" flag="0"/>
      <psa10 value="0.0169992157" flag="0"/>
      <psa30 value="0.0023303010" flag="0"/>
    </comp>
  </station>
</stationlist>
