<stationlist created="1778069825">
	<station code="KRTS" name="KRTS" netid="KO" source="Bogazici University Kandilli Observatory And Earthquake Research Institute (KOERI)" insttype="" lat="36.573" lon="35.375">
		<comp name="--.HNE" depth="0.0">
			<acc value="0.139395928539084" flag="0"/>
			<vel value="0.0537551789876051" flag="0"/>
			<psa03 value="0.283978785406171" flag="0"/>
			<psa10 value="0.0574060407795074" flag="0"/>
			<psa30 value="0.00772832134917408" flag="0"/>
		</comp>
		<comp name="--.HNN" depth="0.0">
			<acc value="0.158351644527718" flag="0"/>
			<vel value="0.0566778777301391" flag="0"/>
			<psa03 value="0.294001039688664" flag="0"/>
			<psa10 value="0.0526141504506905" flag="0"/>
			<psa30 value="0.00507958271737239" flag="0"/>
		</comp>
		<comp name="--.HNZ" depth="0.0">
			<acc value="0.169752568364527" flag="0"/>
			<vel value="0.0349308736478825" flag="0"/>
			<psa03 value="0.303889067351302" flag="0"/>
			<psa10 value="0.0322546567511121" flag="0"/>
			<psa30 value="0.00705181918510581" flag="0"/>
		</comp>
	</station>
</stationlist>
