<?xml version="1.0" encoding="UTF-8" standalone="yes"?>
<!DOCTYPE earthquake SYSTEM "stationlist.dtd">
<stationlist created="" xmlns="ch.ethz.sed.shakemap.usgs.xml">
  <station code="APE" name="APE" netid="GE" insttype="STS-2/N" lat="37.0727" lon="25.523">
    <comp name="--.HHZ">
      <acc value="0.0280856437" flag="0"/>
      <vel value="0.0134291993" flag="0"/>
      <psa03 value="0.0544696383" flag="0"/>
      <psa10 value="0.0113641386" flag="0"/>
      <psa30 value="0.0038739715" flag="0"/>
    </comp>
    <comp name="--.HHE">
      <acc value="0.0350315745" flag="0"/>
      <vel value="0.0116048223" flag="0"/>
      <psa03 value="0.0642355108" flag="0"/>
      <psa10 value="0.0099681967" flag="0"/>
      <psa30 value="0.0037320008" flag="0"/>
    </comp>
    <comp name="--.HHN">
      <acc value="0.0317978664" flag="0"/>
      <vel value="0.0127119423" flag="0"/>
      <psa03 value="0.0649747013" flag="0"/>
      <psa10 value="0.0152134952" flag="0"/>
      <psa30 value="0.0037525569" flag="0"/>
    </comp>
  </station>
  <station code="KARP" name="KARP" netid="GE" insttype="STS-2/N" lat="35.5471" lon="27.1611">
    <comp name="--.HHN">
      <acc value="0.1019521868" flag="0"/>
      <vel value="0.0841489656" flag="0"/>
      <psa03 value="0.1825711244" flag="0"/>
      <psa10 value="0.1578376540" flag="0"/>
      <psa30 value="0.0089984902" flag="0"/>
    </comp>
    <comp name="--.HHZ">
      <acc value="0.0764892477" flag="0"/>
      <vel value="0.0700264199" flag="0"/>
      <psa03 value="0.1726059029" flag="0"/>
      <psa10 value="0.0690256874" flag="0"/>
      <psa30 value="0.0080401002" flag="0"/>
    </comp>
    <comp name="--.HHE">
      <acc value="0.1053746927" flag="0"/>
      <vel value="0.0827324457" flag="0"/>
      <psa03 value="0.2029289905" flag="0"/>
      <psa10 value="0.1259267656" flag="0"/>
      <psa30 value="0.0134776418" flag="0"/>
    </comp>
  </station>
  <station code="THERA" name="THERA" netid="GE" insttype="STS-2/N" lat="36.367" lon="25.4753">
    <comp name="--.HHN">
      <acc value="0.0160995230" flag="0"/>
      <vel value="0.0124086682" flag="0"/>
      <psa03 value="0.0442997576" flag="0"/>
      <psa10 value="0.0148909174" flag="0"/>
      <psa30 value="0.0025935689" flag="0"/>
    </comp>
    <comp name="--.HHE">
      <acc value="0.0253471279" flag="0"/>
      <vel value="0.0158155641" flag="0"/>
      <psa03 value="0.0954157371" flag="0"/>
      <psa10 value="0.0136878734" flag="0"/>
      <psa30 value="0.0042241070" flag="0"/>
    </comp>
    <comp name="--.HHZ">
      <acc value="0.0130742565" flag="0"/>
      <vel value="0.0212789156" flag="0"/>
      <psa03 value="0.0369359469" flag="0"/>
      <psa10 value="0.0245732838" flag="0"/>
      <psa30 value="0.0066227834" flag="0"/>
    </comp>
  </station>
  <station code="ZKR" name="ZKR" netid="GE" insttype="STS-2/N" lat="35.1147" lon="26.2169">
    <comp name="--.HHE">
      <acc value="0.0161575222" flag="0"/>
      <vel value="0.0143201092" flag="0"/>
      <psa03 value="0.0356156640" flag="0"/>
      <psa10 value="0.0227767747" flag="0"/>
      <psa30 value="0.0058063631" flag="0"/>
    </comp>
    <comp name="--.HHN">
      <acc value="0.0075995324" flag="0"/>
      <vel value="0.0058738253" flag="0"/>
      <psa03 value="0.0148486405" flag="0"/>
      <psa10 value="0.0087932829" flag="0"/>
      <psa30 value="0.0019659196" flag="0"/>
    </comp>
    <comp name="--.HHZ">
      <acc value="0.0136342723" flag="0"/>
      <vel value="0.0085854278" flag="0"/>
      <psa03 value="0.0234353140" flag="0"/>
      <psa10 value="0.0146900350" flag="0"/>
      <psa30 value="0.0028223630" flag="0"/>
    </comp>
  </station>
  <station code="DATC" name="DATC" netid="KO" insttype="CMG-5T" lat="36.7584" lon="27.6602">
    <comp name="--.HNN">
      <acc value="0.3763205448" flag="0"/>
      <vel value="0.1561810932" flag="0"/>
      <psa03 value="0.8780449908" flag="0"/>
      <psa10 value="0.2291812138" flag="0"/>
      <psa30 value="0.0136701790" flag="0"/>
    </comp>
    <comp name="--.HNE">
      <acc value="0.4604447756" flag="0"/>
      <vel value="0.2585085162" flag="0"/>
      <psa03 value="1.2032991139" flag="0"/>
      <psa10 value="0.3786664675" flag="0"/>
      <psa30 value="0.0221579900" flag="0"/>
    </comp>
    <comp name="--.HNZ">
      <acc value="0.6747522979" flag="0"/>
      <vel value="0.1604759054" flag="0"/>
      <psa03 value="0.8056306371" flag="0"/>
      <psa10 value="0.2600508948" flag="0"/>
      <psa30 value="0.0155488330" flag="0"/>
    </comp>
  </station>
  <station code="FETY" name="FETY" netid="KO" insttype="120s," lat="36.6353" lon="29.0835">
    <comp name="--.HHZ">
      <acc value="0.0121581148" flag="0"/>
      <vel value="0.0123838151" flag="0"/>
      <psa03 value="0.0309021482" flag="0"/>
      <psa10 value="0.0329149021" flag="0"/>
      <psa30 value="0.0033051616" flag="0"/>
    </comp>
  </station>
  <station code="AYDN" name="AYDN" netid="TU" source="ODC" insttype="T" lat="37.6608" lon="27.8792">
    <comp name="--.HHE">
      <acc value="0.0551417613" flag="0"/>
      <vel value="0.0360010392" flag="0"/>
      <psa03 value="0.2018858788" flag="0"/>
      <psa10 value="0.0547411063" flag="0"/>
      <psa30 value="0.0051883842" flag="0"/>
    </comp>
    <comp name="--.HHZ">
      <acc value="0.0755801743" flag="0"/>
      <vel value="0.0343424642" flag="0"/>
      <psa03 value="0.4246332099" flag="0"/>
      <psa10 value="0.0263276702" flag="0"/>
      <psa30 value="0.0041347054" flag="0"/>
    </comp>
    <comp name="--.HHN">
      <acc value="0.0644755608" flag="0"/>
      <vel value="0.0359687974" flag="0"/>
      <psa03 value="0.2225289828" flag="0"/>
      <psa10 value="0.0359395364" flag="0"/>
      <psa30 value="0.0047330669" flag="0"/>
    </comp>
  </station>
</stationlist>
