<stationlist created="1778136556">
	<station code="ABEA" name="ABEA" netid="HC" source="Seismological Network of Crete (HC)" insttype="" lat="35.5163" lon="24.0113">
		<comp name="--.HNE" depth="0.0">
			<acc value="0.00884060489547455" flag="0"/>
			<vel value="0.00913464546954731" flag="0"/>
			<psa03 value="0.0111095705899358" flag="0"/>
			<psa10 value="0.0128845485380952" flag="0"/>
			<psa30 value="0.00333666791287253" flag="0"/>
		</comp>
		<comp name="--.HNN" depth="0.0">
			<acc value="0.0164121766354116" flag="0"/>
			<vel value="0.0108549894310169" flag="0"/>
			<psa03 value="0.0122215270641131" flag="0"/>
			<psa10 value="0.012944354687467" flag="0"/>
			<psa30 value="0.00311453694778779" flag="0"/>
		</comp>
		<comp name="--.HNZ" depth="0.0">
			<acc value="0.00989846716092903" flag="0"/>
			<vel value="0.0060715091712335" flag="0"/>
			<psa03 value="0.006020352594834" flag="0"/>
			<psa10 value="0.0119745582557263" flag="0"/>
			<psa30 value="0.00134408164297732" flag="0"/>
		</comp>
	</station>
	<station code="ATEI" name="ATEI" netid="HC" source="Seismological Network of Crete (HC)" insttype="" lat="35.5193" lon="24.0432">
		<comp name="--.HNE" depth="0.0">
			<acc value="0.00395841370095501" flag="0"/>
			<vel value="0.00672760494015138" flag="0"/>
			<psa03 value="0.00890163396040107" flag="0"/>
			<psa10 value="0.00723637249914507" flag="0"/>
			<psa30 value="0.00230048760434749" flag="0"/>
		</comp>
		<comp name="--.HNN" depth="0.0">
			<acc value="0.00395104456673354" flag="0"/>
			<vel value="0.00621724595347014" flag="0"/>
			<psa03 value="0.00994688679700149" flag="0"/>
			<psa10 value="0.00822844634417976" flag="0"/>
			<psa30 value="0.00227341331080978" flag="0"/>
		</comp>
		<comp name="--.HNZ" depth="0.0">
			<acc value="0.00410738264948469" flag="0"/>
			<vel value="0.00605126023635136" flag="0"/>
			<psa03 value="0.00913712156549088" flag="0"/>
			<psa10 value="0.00556596449906799" flag="0"/>
			<psa30 value="0.00173066454386511" flag="0"/>
		</comp>
	</station>
	<station code="DEYA" name="DEYA" netid="HC" source="Seismological Network of Crete (HC)" insttype="" lat="35.4825" lon="24.014">
		<comp name="--.HNE" depth="0.0">
			<acc value="0.00803425030208303" flag="0"/>
			<vel value="0.0110900860026323" flag="0"/>
			<psa03 value="0.0190867201307234" flag="0"/>
			<psa10 value="0.0231206453792694" flag="0"/>
			<psa30 value="0.00331003219005475" flag="0"/>
		</comp>
		<comp name="--.HNN" depth="0.0">
			<acc value="0.00864976343448079" flag="0"/>
			<vel value="0.0114020864994553" flag="0"/>
			<psa03 value="0.0228000520581973" flag="0"/>
			<psa10 value="0.0213291817036059" flag="0"/>
			<psa30 value="0.00237800211430496" flag="0"/>
		</comp>
		<comp name="--.HNZ" depth="0.0">
			<acc value="0.00570563090452419" flag="0"/>
			<vel value="0.00890329501747134" flag="0"/>
			<psa03 value="0.0124931153680036" flag="0"/>
			<psa10 value="0.01122077988408" flag="0"/>
			<psa30 value="0.0023135165924532" flag="0"/>
		</comp>
	</station>
	<station code="G0LD" name="G0LD" netid="HC" source="Seismological Network of Crete (HC)" insttype="" lat="35.4955" lon="24.0306">
		<comp name="--.HNE" depth="0.0">
			<acc value="0.0124304880241445" flag="0"/>
			<vel value="0.0190068248653109" flag="0"/>
			<psa03 value="0.0254574963300427" flag="0"/>
			<psa10 value="0.037993883158298" flag="0"/>
			<psa30 value="0.00617267349265874" flag="0"/>
		</comp>
		<comp name="--.HNN" depth="0.0">
			<acc value="0.0141927455754997" flag="0"/>
			<vel value="0.0187483981261804" flag="0"/>
			<psa03 value="0.0252392735404875" flag="0"/>
			<psa10 value="0.0414241228950329" flag="0"/>
			<psa30 value="0.00369930297733178" flag="0"/>
		</comp>
		<comp name="--.HNZ" depth="0.0">
			<acc value="0.0098755992927765" flag="0"/>
			<vel value="0.0115637194407972" flag="0"/>
			<psa03 value="0.0143026310728733" flag="0"/>
			<psa10 value="0.0213497893187692" flag="0"/>
			<psa30 value="0.00296480786230238" flag="0"/>
		</comp>
	</station>
	<station code="LENT" name="LENT" netid="HC" source="Seismological Network of Crete (HC)" insttype="" lat="35.5074" lon="24.0402">
		<comp name="--.HNE" depth="0.0">
			<acc value="0.00674537214512806" flag="0"/>
			<vel value="0.00873404476816482" flag="0"/>
			<psa03 value="0.00833772681265111" flag="0"/>
			<psa10 value="0.0126034364782955" flag="0"/>
			<psa30 value="0.00292877651707182" flag="0"/>
		</comp>
		<comp name="--.HNN" depth="0.0">
			<acc value="0.00579722152219041" flag="0"/>
			<vel value="0.00828539363626369" flag="0"/>
			<psa03 value="0.0103847523920062" flag="0"/>
			<psa10 value="0.0182172668045066" flag="0"/>
			<psa30 value="0.00264533461543392" flag="0"/>
		</comp>
		<comp name="--.HNZ" depth="0.0">
			<acc value="0.0048006039210053" flag="0"/>
			<vel value="0.00510617384037629" flag="0"/>
			<psa03 value="0.00798183930456901" flag="0"/>
			<psa10 value="0.0104594456994272" flag="0"/>
			<psa30 value="0.00160881022161312" flag="0"/>
		</comp>
	</station>
	<station code="MULT" name="MULT" netid="HC" source="Seismological Network of Crete (HC)" insttype="" lat="35.5091" lon="24.0118">
		<comp name="--.HNE" depth="0.0">
			<acc value="0.00904735283894554" flag="0"/>
			<vel value="0.0109690785122959" flag="0"/>
			<psa03 value="0.016530141915796" flag="0"/>
			<psa10 value="0.0110492735226346" flag="0"/>
			<psa30 value="0.0034763625836269" flag="0"/>
		</comp>
		<comp name="--.HNN" depth="0.0">
			<acc value="0.0089324825804445" flag="0"/>
			<vel value="0.0117531912957395" flag="0"/>
			<psa03 value="0.013350289339053" flag="0"/>
			<psa10 value="0.0134605229435842" flag="0"/>
			<psa30 value="0.00422534782522288" flag="0"/>
		</comp>
		<comp name="--.HNZ" depth="0.0">
			<acc value="0.0241315153244272" flag="0"/>
			<vel value="0.0108165302523213" flag="0"/>
			<psa03 value="0.0130237052044814" flag="0"/>
			<psa10 value="0.0135018591194109" flag="0"/>
			<psa30 value="0.00371478483626351" flag="0"/>
		</comp>
	</station>
	<station code="NERO" name="NERO" netid="HC" source="Seismological Network of Crete (HC)" insttype="" lat="35.474" lon="24.0423">
		<comp name="--.HNE" depth="0.0">
			<acc value="0.0029534738528914" flag="0"/>
			<vel value="0.00565876017861839" flag="0"/>
			<psa03 value="0.0055414263370928" flag="0"/>
			<psa10 value="0.00778282869921717" flag="0"/>
			<psa30 value="0.00184478012429459" flag="0"/>
		</comp>
		<comp name="--.HNN" depth="0.0">
			<acc value="0.00347086203842324" flag="0"/>
			<vel value="0.00585825735095575" flag="0"/>
			<psa03 value="0.00646522516444702" flag="0"/>
			<psa10 value="0.00663158915396674" flag="0"/>
			<psa30 value="0.00142771551664615" flag="0"/>
		</comp>
		<comp name="--.HNZ" depth="0.0">
			<acc value="0.00269093975379835" flag="0"/>
			<vel value="0.00513809140213501" flag="0"/>
			<psa03 value="0.00446176822649835" flag="0"/>
			<psa10 value="0.00593051067974255" flag="0"/>
			<psa30 value="0.00161074128704057" flag="0"/>
		</comp>
	</station>
	<station code="PASK" name="PASK" netid="HC" source="Seismological Network of Crete (HC)" insttype="" lat="35.4996" lon="24.0121">
		<comp name="--.HNE" depth="0.0">
			<acc value="0.00797430750742952" flag="0"/>
			<vel value="0.0119993097247475" flag="0"/>
			<psa03 value="0.0143421649417683" flag="0"/>
			<psa10 value="0.0146683860835871" flag="0"/>
			<psa30 value="0.00446650255054217" flag="0"/>
		</comp>
		<comp name="--.HNN" depth="0.0">
			<acc value="0.00588328179916209" flag="0"/>
			<vel value="0.0104188748589057" flag="0"/>
			<psa03 value="0.0130702864152536" flag="0"/>
			<psa10 value="0.0115898390199527" flag="0"/>
			<psa30 value="0.0032353395337" flag="0"/>
		</comp>
		<comp name="--.HNZ" depth="0.0">
			<acc value="0.0129429866872631" flag="0"/>
			<vel value="0.00852679749921864" flag="0"/>
			<psa03 value="0.0118562619816892" flag="0"/>
			<psa10 value="0.00867164414138468" flag="0"/>
			<psa30 value="0.00190352609926409" flag="0"/>
		</comp>
	</station>
	<station code="POLY" name="POLY" netid="HC" source="Seismological Network of Crete (HC)" insttype="" lat="35.5226" lon="24.0602">
		<comp name="--.HNE" depth="0.0">
			<acc value="0.00344075822231085" flag="0"/>
			<vel value="0.00690696260267896" flag="0"/>
			<psa03 value="0.0061333906820389" flag="0"/>
			<psa10 value="0.00843944657192706" flag="0"/>
			<psa30 value="0.00197887692421632" flag="0"/>
		</comp>
		<comp name="--.HNN" depth="0.0">
			<acc value="0.00377543415866106" flag="0"/>
			<vel value="0.00774541943855296" flag="0"/>
			<psa03 value="0.00884258577791056" flag="0"/>
			<psa10 value="0.010238265422337" flag="0"/>
			<psa30 value="0.00266122316797251" flag="0"/>
		</comp>
		<comp name="--.HNZ" depth="0.0">
			<acc value="0.00260888928100197" flag="0"/>
			<vel value="0.00459763800282303" flag="0"/>
			<psa03 value="0.00587467172024442" flag="0"/>
			<psa10 value="0.00532561388954052" flag="0"/>
			<psa30 value="0.00136699024389543" flag="0"/>
		</comp>
	</station>
	<station code="SOUD" name="SOUD" netid="HC" source="Seismological Network of Crete (HC)" insttype="" lat="35.4878" lon="24.0678">
		<comp name="--.HNE" depth="0.0">
			<acc value="0.00770018993945431" flag="0"/>
			<vel value="0.0125415617050592" flag="0"/>
			<psa03 value="0.014441554338353" flag="0"/>
			<psa10 value="0.0181547651640738" flag="0"/>
			<psa30 value="0.00248037618774915" flag="0"/>
		</comp>
		<comp name="--.HNN" depth="0.0">
			<acc value="0.00913278036601513" flag="0"/>
			<vel value="0.0110921235543546" flag="0"/>
			<psa03 value="0.0146635456067028" flag="0"/>
			<psa10 value="0.014445228487999" flag="0"/>
			<psa30 value="0.00268326129455858" flag="0"/>
		</comp>
		<comp name="--.HNZ" depth="0.0">
			<acc value="0.00663749171767401" flag="0"/>
			<vel value="0.00887339963092475" flag="0"/>
			<psa03 value="0.00773661472629351" flag="0"/>
			<psa10 value="0.00524044387244812" flag="0"/>
			<psa30 value="0.00266670915639406" flag="0"/>
		</comp>
	</station>
	<station code="KRL1" name="KRL1" netid="HI" source="ITSAK Strong Motion Network" insttype="" lat="37.7951" lon="26.7065">
		<comp name="--.HNE" depth="0.0">
			<acc value="0.0332772653643247" flag="0"/>
			<vel value="0.0356021714071293" flag="0"/>
			<psa03 value="0.0613006181569254" flag="0"/>
			<psa10 value="0.0822321174741199" flag="0"/>
			<psa30 value="0.0102367831366332" flag="0"/>
		</comp>
		<comp name="--.HNN" depth="0.0">
			<acc value="0.0253108797062955" flag="0"/>
			<vel value="0.0293275435043759" flag="0"/>
			<psa03 value="0.0577403302219162" flag="0"/>
			<psa10 value="0.0542425883053136" flag="0"/>
			<psa30 value="0.00622437900124116" flag="0"/>
		</comp>
		<comp name="--.HNZ" depth="0.0">
			<acc value="0.0117206288747412" flag="0"/>
			<vel value="0.0142740135528844" flag="0"/>
			<psa03 value="0.0358118931955055" flag="0"/>
			<psa10 value="0.0259720680220463" flag="0"/>
			<psa30 value="0.00351318648136156" flag="0"/>
		</comp>
	</station>
	<station code="KSS1" name="KSS1" netid="HI" source="ITSAK Strong Motion Network" insttype="" lat="35.4189" lon="26.9207">
		<comp name="--.HNE" depth="0.0">
			<acc value="0.0271002046829564" flag="0"/>
			<vel value="0.0258147798200441" flag="0"/>
			<psa03 value="0.0871826920921949" flag="0"/>
			<psa10 value="0.0412887801792233" flag="0"/>
			<psa30 value="0.00646866351721008" flag="0"/>
		</comp>
		<comp name="--.HNN" depth="0.0">
			<acc value="0.0409135144888051" flag="0"/>
			<vel value="0.0223365899164629" flag="0"/>
			<psa03 value="0.111484624892387" flag="0"/>
			<psa10 value="0.0432392393872247" flag="0"/>
			<psa30 value="0.00486114286019641" flag="0"/>
		</comp>
		<comp name="--.HNZ" depth="0.0">
			<acc value="0.0197741620145526" flag="0"/>
			<vel value="0.0150125846473402" flag="0"/>
			<psa03 value="0.0264465540377578" flag="0"/>
			<psa10 value="0.0373858928819126" flag="0"/>
			<psa30 value="0.00296390801102493" flag="0"/>
		</comp>
	</station>
	<station code="MYT1" name="MYT1" netid="HI" source="ITSAK Strong Motion Network" insttype="" lat="39.085" lon="26.5694">
		<comp name="--.HNE" depth="0.0">
			<acc value="0.0029616503139248" flag="0"/>
			<vel value="0.00921032811477128" flag="0"/>
			<psa03 value="0.00397291260002489" flag="0"/>
			<psa10 value="0.00757430972959736" flag="0"/>
			<psa30 value="0.00663864686109201" flag="0"/>
		</comp>
		<comp name="--.HNN" depth="0.0">
			<acc value="0.00312676021974025" flag="0"/>
			<vel value="0.0121908973672196" flag="0"/>
			<psa03 value="0.00445140067771722" flag="0"/>
			<psa10 value="0.00863926824662708" flag="0"/>
			<psa30 value="0.00665347492674875" flag="0"/>
		</comp>
		<comp name="--.HNZ" depth="0.0">
			<acc value="0.00305620013388276" flag="0"/>
			<vel value="0.0105395910225479" flag="0"/>
			<psa03 value="0.00382029767232411" flag="0"/>
			<psa10 value="0.00733302671453293" flag="0"/>
			<psa30 value="0.00541066259651542" flag="0"/>
		</comp>
	</station>
	<station code="NAX1" name="NAX1" netid="HI" source="ITSAK Strong Motion Network" insttype="" lat="37.101394" lon="25.374103">
		<comp name="--.HNE" depth="0.0">
			<acc value="0.00870691240991525" flag="0"/>
			<vel value="0.0142323773582928" flag="0"/>
			<psa03 value="0.0235481016128315" flag="0"/>
			<psa10 value="0.0207895059527257" flag="0"/>
			<psa30 value="0.00262736467501369" flag="0"/>
		</comp>
		<comp name="--.HNN" depth="0.0">
			<acc value="0.0236270182805214" flag="0"/>
			<vel value="0.0223674050977949" flag="0"/>
			<psa03 value="0.0469072219565154" flag="0"/>
			<psa10 value="0.0301414892257168" flag="0"/>
			<psa30 value="0.00677219320790959" flag="0"/>
		</comp>
		<comp name="--.HNZ" depth="0.0">
			<acc value="0.00847469176271008" flag="0"/>
			<vel value="0.014471772815993" flag="0"/>
			<psa03 value="0.0275479290817689" flag="0"/>
			<psa10 value="0.0140924894957796" flag="0"/>
			<psa30 value="0.00424184433470393" flag="0"/>
		</comp>
	</station>
	<station code="RDI1" name="RDI1" netid="HI" source="ITSAK Strong Motion Network" insttype="" lat="36.4514" lon="28.224">
		<comp name="--.HNE" depth="0.0">
			<acc value="0.0886651976238706" flag="0"/>
			<vel value="0.114613765067846" flag="0"/>
			<psa03 value="0.293724249456863" flag="0"/>
			<psa10 value="0.123009701288875" flag="0"/>
			<psa30 value="0.0364344269353243" flag="0"/>
		</comp>
		<comp name="--.HNN" depth="0.0">
			<acc value="0.0931151287669929" flag="0"/>
			<vel value="0.119703151323782" flag="0"/>
			<psa03 value="0.261011103204655" flag="0"/>
			<psa10 value="0.178512740592949" flag="0"/>
			<psa30 value="0.0342483454514573" flag="0"/>
		</comp>
		<comp name="--.HNZ" depth="0.0">
			<acc value="0.0523325528696003" flag="0"/>
			<vel value="0.05096523475519" flag="0"/>
			<psa03 value="0.20903149314381" flag="0"/>
			<psa10 value="0.0991616389721065" flag="0"/>
			<psa30 value="0.0148122962419409" flag="0"/>
		</comp>
	</station>
	<station code="SIT2" name="SIT2" netid="HI" source="ITSAK Strong Motion Network" insttype="" lat="35.2059" lon="26.107">
		<comp name="--.HNE" depth="0.0">
			<acc value="0.0438666204219935" flag="0"/>
			<vel value="0.0370860901386966" flag="0"/>
			<psa03 value="0.122953353389604" flag="0"/>
			<psa10 value="0.0562108011895368" flag="0"/>
			<psa30 value="0.00468784638016467" flag="0"/>
		</comp>
		<comp name="--.HNN" depth="0.0">
			<acc value="0.0589310667394078" flag="0"/>
			<vel value="0.0552032444100063" flag="0"/>
			<psa03 value="0.168766940398264" flag="0"/>
			<psa10 value="0.0712762392009317" flag="0"/>
			<psa30 value="0.00537077287065907" flag="0"/>
		</comp>
		<comp name="--.HNZ" depth="0.0">
			<acc value="0.0198948825362267" flag="0"/>
			<vel value="0.0138247101908762" flag="0"/>
			<psa03 value="0.0550534959823593" flag="0"/>
			<psa10 value="0.0141065988679307" flag="0"/>
			<psa30 value="0.00260028413106131" flag="0"/>
		</comp>
	</station>
	<station code="IMMV" name="IMMV" netid="HL" source="National Observatory of Athens Seismic Network" insttype="" lat="35.4606" lon="23.9811">
		<comp name="--.HNE" depth="0.0">
			<acc value="0.00434825061804134" flag="0"/>
			<vel value="0.00516038435343394" flag="0"/>
			<psa03 value="0.00689023118359509" flag="0"/>
			<psa10 value="0.0101721916702786" flag="0"/>
			<psa30 value="0.0011912282880261" flag="0"/>
		</comp>
		<comp name="--.HNN" depth="0.0">
			<acc value="0.00360626071544465" flag="0"/>
			<vel value="0.00577664785067929" flag="0"/>
			<psa03 value="0.00804763793423959" flag="0"/>
			<psa10 value="0.0124596257015727" flag="0"/>
			<psa30 value="0.000989844739021901" flag="0"/>
		</comp>
		<comp name="--.HNZ" depth="0.0">
			<acc value="0.00267027170591316" flag="0"/>
			<vel value="0.0036198041515085" flag="0"/>
			<psa03 value="0.00598452990929558" flag="0"/>
			<psa10 value="0.00444812794790522" flag="0"/>
			<psa30 value="0.000735874841846248" flag="0"/>
		</comp>
	</station>
	<station code="KARP" name="KARP" netid="HL" source="National Observatory of Athens Seismic Network" insttype="" lat="35.5471" lon="27.16106">
		<comp name="--.HNE" depth="0.0">
			<acc value="0.0888111413609053" flag="0"/>
			<vel value="0.0671079675498853" flag="0"/>
			<psa03 value="0.155619381936771" flag="0"/>
			<psa10 value="0.0996687250640551" flag="0"/>
			<psa30 value="0.0101036926533939" flag="0"/>
		</comp>
		<comp name="--.HNN" depth="0.0">
			<acc value="0.083619980014653" flag="0"/>
			<vel value="0.073217861246716" flag="0"/>
			<psa03 value="0.157358632570591" flag="0"/>
			<psa10 value="0.140180311257662" flag="0"/>
			<psa30 value="0.00704525087995899" flag="0"/>
		</comp>
		<comp name="--.HNZ" depth="0.0">
			<acc value="0.0607796730294729" flag="0"/>
			<vel value="0.0554333294391424" flag="0"/>
			<psa03 value="0.137848110927632" flag="0"/>
			<psa10 value="0.0551420966433697" flag="0"/>
			<psa30 value="0.00603651572288082" flag="0"/>
		</comp>
	</station>
	<station code="KLNA" name="KLNA" netid="HL" source="National Observatory of Athens Seismic Network" insttype="" lat="36.95708" lon="26.97274">
		<comp name="00.HNE" depth="0.0">
			<acc value="0.209323252683575" flag="0"/>
			<vel value="0.0818412822249694" flag="0"/>
			<psa03 value="0.440220620788978" flag="0"/>
			<psa10 value="0.0524324596430408" flag="0"/>
			<psa30 value="0.00556151592311776" flag="0"/>
		</comp>
		<comp name="00.HNN" depth="0.0">
			<acc value="0.192062813694163" flag="0"/>
			<vel value="0.0873060779150965" flag="0"/>
			<psa03 value="0.467363168850568" flag="0"/>
			<psa10 value="0.0527567811279377" flag="0"/>
			<psa30 value="0.00606994585413244" flag="0"/>
		</comp>
		<comp name="00.HNZ" depth="0.0">
			<acc value="0.178454406955849" flag="0"/>
			<vel value="0.0676558580678535" flag="0"/>
			<psa03 value="0.174144296621769" flag="0"/>
			<psa10 value="0.0240274967037176" flag="0"/>
			<psa30 value="0.00698144623656917" flag="0"/>
		</comp>
	</station>
	<station code="NISR" name="NISR" netid="HL" source="National Observatory of Athens Seismic Network" insttype="" lat="36.6106" lon="27.131">
		<comp name="--.HNE" depth="0.0">
			<acc value="4.25964328069391" flag="0"/>
			<vel value="1.92157225415256" flag="0"/>
			<psa03 value="7.60074417866356" flag="0"/>
			<psa10 value="1.37292610961802" flag="0"/>
			<psa30 value="0.175952362647198" flag="0"/>
		</comp>
		<comp name="--.HNN" depth="0.0">
			<acc value="3.2362548921041" flag="0"/>
			<vel value="1.23981097108229" flag="0"/>
			<psa03 value="7.43545789592743" flag="0"/>
			<psa10 value="0.530658533524564" flag="0"/>
			<psa30 value="0.107857731712208" flag="0"/>
		</comp>
		<comp name="--.HNZ" depth="0.0">
			<acc value="2.03398078276397" flag="0"/>
			<vel value="0.588033870601894" flag="0"/>
			<psa03 value="3.31554463856093" flag="0"/>
			<psa10 value="1.0786382944934" flag="0"/>
			<psa30 value="0.0546902596280028" flag="0"/>
		</comp>
	</station>
	<station code="RODB" name="RODB" netid="HL" source="National Observatory of Athens Seismic Network" insttype="" lat="36.4471" lon="28.22116">
		<comp name="00.HNE" depth="0.0">
