<stationlist created="1777946101">
	<station code="FIVI" name="FIVI" netid="GU" source="Regional Seismic Network of North Western Italy (RSNI)" insttype="" lat="44.2394" lon="10.1271">
		<comp name="--.HNE" depth="0.0">
			<acc value="0.00255328770897142" flag="0"/>
			<vel value="0.000657372567461913" flag="0"/>
			<psa03 value="0.00175892527667904" flag="0"/>
			<psa10 value="0.000793943532362389" flag="0"/>
			<psa30 value="6.18070306104796e-05" flag="0"/>
		</comp>
		<comp name="--.HNN" depth="0.0">
			<acc value="0.0023508926853898" flag="0"/>
			<vel value="0.000736403186514277" flag="0"/>
			<psa03 value="0.00213138517167344" flag="0"/>
			<psa10 value="0.000418017427929909" flag="0"/>
			<psa30 value="5.2753829968812e-05" flag="0"/>
		</comp>
		<comp name="--.HNZ" depth="0.0">
			<acc value="0.0046053995842292" flag="0"/>
			<vel value="0.00076387914867981" flag="0"/>
			<psa03 value="0.00125792846505275" flag="0"/>
			<psa10 value="0.000692554979930404" flag="0"/>
			<psa30 value="6.10440503792621e-05" flag="0"/>
		</comp>
	</station>
	<station code="AUL" name="AUL" netid="IT" source="Italian Strong Motion Network (RAN)" insttype="" lat="44.2087" lon="9.9731">
		<comp name="--.HNE" depth="0.0">
			<acc value="0.00189690026327071" flag="0"/>
			<vel value="0.000904558194688652" flag="0"/>
			<psa03 value="0.00386530683885725" flag="0"/>
			<psa10 value="0.0011789770858198" flag="0"/>
			<psa30 value="7.96138091802025e-05" flag="0"/>
		</comp>
		<comp name="--.HNN" depth="0.0">
			<acc value="0.00137380080561489" flag="0"/>
			<vel value="0.000999079398774626" flag="0"/>
			<psa03 value="0.0034437479881724" flag="0"/>
			<psa10 value="0.00110518110344942" flag="0"/>
			<psa30 value="5.88280246722794e-05" flag="0"/>
		</comp>
		<comp name="--.HNZ" depth="0.0">
			<acc value="0.00141332123073376" flag="0"/>
			<vel value="0.00052544361477325" flag="0"/>
			<psa03 value="0.00220496182310587" flag="0"/>
			<psa10 value="0.000422138130594989" flag="0"/>
			<psa30 value="7.92173050493867e-05" flag="0"/>
		</comp>
	</station>
	<station code="BGL" name="BGL" netid="IT" source="Italian Strong Motion Network (RAN)" insttype="" lat="43.9958" lon="10.5769">
		<comp name="--.HNE" depth="0.0">
			<acc value="0.00224271603609502" flag="0"/>
			<vel value="0.00141233697689487" flag="0"/>
			<psa03 value="0.00826772412842431" flag="0"/>
			<psa10 value="0.00108304737157218" flag="0"/>
			<psa30 value="9.58293495261419e-05" flag="0"/>
		</comp>
		<comp name="--.HNN" depth="0.0">
			<acc value="0.00153585590763123" flag="0"/>
			<vel value="0.000684004056152342" flag="0"/>
			<psa03 value="0.00334424725611422" flag="0"/>
			<psa10 value="0.00116231227092193" flag="0"/>
			<psa30 value="6.67383338475573e-05" flag="0"/>
		</comp>
		<comp name="--.HNZ" depth="0.0">
			<acc value="0.00157384941335892" flag="0"/>
			<vel value="0.000767101191106562" flag="0"/>
			<psa03 value="0.00433441376124295" flag="0"/>
			<psa10 value="0.000908846105033395" flag="0"/>
			<psa30 value="5.90510863236952e-05" flag="0"/>
		</comp>
	</station>
	<station code="BRR" name="BRR" netid="IT" source="Italian Strong Motion Network (RAN)" insttype="" lat="44.5063" lon="9.9872">
		<comp name="--.HGE" depth="0.0">
			<acc value="0.00442382289680299" flag="0"/>
			<vel value="0.00142355743250523" flag="0"/>
			<psa03 value="0.00806332517133581" flag="0"/>
			<psa10 value="0.000959914409929567" flag="0"/>
			<psa30 value="0.000367332823579898" flag="0"/>
		</comp>
		<comp name="--.HGN" depth="0.0">
			<acc value="0.00534063856383925" flag="0"/>
			<vel value="0.00136325133102492" flag="0"/>
			<psa03 value="0.00713532424269114" flag="0"/>
			<psa10 value="0.000866926296800744" flag="0"/>
			<psa30 value="9.55082735691913e-05" flag="0"/>
		</comp>
		<comp name="--.HGZ" depth="0.0">
			<acc value="0.00367932802547214" flag="0"/>
			<vel value="0.000805173232570335" flag="0"/>
			<psa03 value="0.00251913497928712" flag="0"/>
			<psa10 value="0.00045841944030452" flag="0"/>
			<psa30 value="0.000131772231868003" flag="0"/>
		</comp>
	</station>
	<station code="BRSA" name="BRSA" netid="IT" source="Italian Strong Motion Network (RAN)" insttype="" lat="45.5527" lon="10.2255">
		<comp name="--.HGE" depth="0.0">
			<acc value="0.0237461269707322" flag="0"/>
			<vel value="0.00533828898676075" flag="0"/>
			<psa03 value="0.020117634777913" flag="0"/>
			<psa10 value="0.00165472985210511" flag="0"/>
			<psa30 value="0.000135594946041542" flag="0"/>
		</comp>
		<comp name="--.HGN" depth="0.0">
			<acc value="0.0270746493131933" flag="0"/>
			<vel value="0.00351949757387288" flag="0"/>
			<psa03 value="0.0104901962260944" flag="0"/>
			<psa10 value="0.00135506929793928" flag="0"/>
			<psa30 value="0.000108337417707517" flag="0"/>
		</comp>
		<comp name="--.HGZ" depth="0.0">
			<acc value="0.0303554570594351" flag="0"/>
			<vel value="0.00431129892038625" flag="0"/>
			<psa03 value="0.00905541953856476" flag="0"/>
			<psa10 value="0.000667127357977402" flag="0"/>
			<psa30 value="0.000122423826123308" flag="0"/>
		</comp>
	</station>
	<station code="BVT" name="BVT" netid="IT" source="Italian Strong Motion Network (RAN)" insttype="" lat="44.5304" lon="9.7428">
		<comp name="--.HNE" depth="0.0">
			<acc value="0.00128513236826803" flag="0"/>
			<vel value="0.000591747941256884" flag="0"/>
			<psa03 value="0.00294496722504253" flag="0"/>
			<psa10 value="0.000507113574253054" flag="0"/>
			<psa30 value="9.76306146847117e-05" flag="0"/>
		</comp>
		<comp name="--.HNN" depth="0.0">
			<acc value="0.00150999824170879" flag="0"/>
			<vel value="0.000583652587438006" flag="0"/>
			<psa03 value="0.00313063772792763" flag="0"/>
			<psa10 value="0.000740866910829823" flag="0"/>
			<psa30 value="9.54728220016887e-05" flag="0"/>
		</comp>
		<comp name="--.HNZ" depth="0.0">
			<acc value="0.0011426561683147" flag="0"/>
			<vel value="0.000504204265533361" flag="0"/>
			<psa03 value="0.00161330609236207" flag="0"/>
			<psa10 value="0.000378611604598271" flag="0"/>
			<psa30 value="6.52751705137048e-05" flag="0"/>
		</comp>
	</station>
	<station code="CNF" name="CNF" netid="IT" source="Italian Strong Motion Network (RAN)" insttype="" lat="44.1105" lon="10.411">
		<comp name="--.HNE" depth="0.0">
			<acc value="0.00679737183500653" flag="0"/>
			<vel value="0.00126706362032973" flag="0"/>
			<psa03 value="0.00440126031189744" flag="0"/>
			<psa10 value="0.00161311756424772" flag="0"/>
			<psa30 value="0.000107751005162591" flag="0"/>
		</comp>
		<comp name="--.HNN" depth="0.0">
			<acc value="0.00396922497848329" flag="0"/>
			<vel value="0.00115992309920801" flag="0"/>
			<psa03 value="0.0030429968310026" flag="0"/>
			<psa10 value="0.00119854541337537" flag="0"/>
			<psa30 value="0.000123845847408932" flag="0"/>
		</comp>
		<comp name="--.HNZ" depth="0.0">
			<acc value="0.00627718144112766" flag="0"/>
			<vel value="0.000642665679127216" flag="0"/>
			<psa03 value="0.00238326172053894" flag="0"/>
			<psa10 value="0.000600093483717983" flag="0"/>
			<psa30 value="8.76762378079179e-05" flag="0"/>
		</comp>
	</station>
	<station code="CRR" name="CRR" netid="IT" source="Italian Strong Motion Network (RAN)" insttype="" lat="44.09" lon="10.105">
		<comp name="--.HNE" depth="0.0">
			<acc value="0.00457139403248443" flag="0"/>
			<vel value="0.00146881254296052" flag="0"/>
			<psa03 value="0.00477828789228729" flag="0"/>
			<psa10 value="0.000730423992473253" flag="0"/>
			<psa30 value="8.19828658582807e-05" flag="0"/>
		</comp>
		<comp name="--.HNN" depth="0.0">
			<acc value="0.00505356271234073" flag="0"/>
			<vel value="0.00131931663073621" flag="0"/>
			<psa03 value="0.00455635847699566" flag="0"/>
			<psa10 value="0.000583457381657844" flag="0"/>
			<psa30 value="6.80400021078514e-05" flag="0"/>
		</comp>
		<comp name="--.HNZ" depth="0.0">
			<acc value="0.0028367540722603" flag="0"/>
			<vel value="0.000751274085278368" flag="0"/>
			<psa03 value="0.00220313536747648" flag="0"/>
			<psa10 value="0.000554328498887403" flag="0"/>
			<psa30 value="6.58089102985745e-05" flag="0"/>
		</comp>
	</station>
	<station code="DSG" name="DSG" netid="IT" source="Italian Strong Motion Network (RAN)" insttype="" lat="45.4591" lon="10.5575">
		<comp name="--.HGE" depth="0.0">
			<acc value="0.0679263071182452" flag="0"/>
			<vel value="0.010810965852368" flag="0"/>
			<psa03 value="0.0229813218789529" flag="0"/>
			<psa10 value="0.00121919990663542" flag="0"/>
			<psa30 value="0.000110821260635689" flag="0"/>
		</comp>
		<comp name="--.HGN" depth="0.0">
			<acc value="0.0358936263359185" flag="0"/>
			<vel value="0.00977193675888255" flag="0"/>
			<psa03 value="0.0470670085833655" flag="0"/>
			<psa10 value="0.0014574631513439" flag="0"/>
			<psa30 value="0.00016524114172701" flag="0"/>
		</comp>
		<comp name="--.HGZ" depth="0.0">
			<acc value="0.0150634660226402" flag="0"/>
			<vel value="0.00238178314812955" flag="0"/>
			<psa03 value="0.0082570762876693" flag="0"/>
			<psa10 value="0.000720449210598146" flag="0"/>
			<psa30 value="8.88708742384918e-05" flag="0"/>
		</comp>
	</station>
	<station code="FIC" name="FIC" netid="IT" source="Italian Strong Motion Network (RAN)" insttype="" lat="44.9538" lon="11.4517">
		<comp name="--.HNE" depth="0.0">
			<acc value="0.00823041727809438" flag="0"/>
			<vel value="0.00439820629387152" flag="0"/>
			<psa03 value="0.021875545501706" flag="0"/>
			<psa10 value="0.00380709868597974" flag="0"/>
			<psa30 value="0.000178593940346996" flag="0"/>
		</comp>
		<comp name="--.HNN" depth="0.0">
			<acc value="0.0107868332241851" flag="0"/>
			<vel value="0.00414041915323272" flag="0"/>
			<psa03 value="0.016989319469436" flag="0"/>
			<psa10 value="0.00391220807083542" flag="0"/>
			<psa30 value="0.000238690760008121" flag="0"/>
		</comp>
		<comp name="--.HNZ" depth="0.0">
			<acc value="0.00578728174439339" flag="0"/>
			<vel value="0.00156531787831574" flag="0"/>
			<psa03 value="0.00548096334732725" flag="0"/>
			<psa10 value="0.000672849182331118" flag="0"/>
			<psa30 value="7.82247392966578e-05" flag="0"/>
		</comp>
	</station>
	<station code="FVZ" name="FVZ" netid="IT" source="Italian Strong Motion Network (RAN)" insttype="" lat="44.2382" lon="10.1311">
		<comp name="--.HNE" depth="0.0">
			<acc value="0.00205539839378384" flag="0"/>
			<vel value="0.000471117847104631" flag="0"/>
			<psa03 value="0.00207089695238607" flag="0"/>
			<psa10 value="0.000526199408908305" flag="0"/>
			<psa30 value="7.97694444904485e-05" flag="0"/>
		</comp>
		<comp name="--.HNN" depth="0.0">
			<acc value="0.00222622190417853" flag="0"/>
			<vel value="0.000473036550409027" flag="0"/>
			<psa03 value="0.00165550843232947" flag="0"/>
			<psa10 value="0.000375288562197166" flag="0"/>
			<psa30 value="0.000102864828613098" flag="0"/>
		</comp>
		<comp name="--.HNZ" depth="0.0">
			<acc value="0.00260279932437439" flag="0"/>
			<vel value="0.000529386400909072" flag="0"/>
			<psa03 value="0.00174086206835957" flag="0"/>
			<psa10 value="0.000798904642261997" flag="0"/>
			<psa30 value="6.08741563121001e-05" flag="0"/>
		</comp>
	</station>
	<station code="GAI" name="GAI" netid="IT" source="Italian Strong Motion Network (RAN)" insttype="" lat="45.6592" lon="10.6162">
		<comp name="--.HNE" depth="0.0">
			<acc value="0.0143108977120046" flag="0"/>
			<vel value="0.00388073606780803" flag="0"/>
			<psa03 value="0.0347508671785623" flag="0"/>
			<psa10 value="0.00108529986454129" flag="0"/>
			<psa30 value="0.000127714163561596" flag="0"/>
		</comp>
		<comp name="--.HNN" depth="0.0">
			<acc value="0.0138941798014468" flag="0"/>
			<vel value="0.00353890346711945" flag="0"/>
			<psa03 value="0.0248041718004879" flag="0"/>
			<psa10 value="0.000983977410236457" flag="0"/>
			<psa30 value="0.000114220535300012" flag="0"/>
		</comp>
		<comp name="--.HNZ" depth="0.0">
			<acc value="0.0117204830390096" flag="0"/>
			<vel value="0.0020818382072534" flag="0"/>
			<psa03 value="0.0111640637831778" flag="0"/>
			<psa10 value="0.000780133359694496" flag="0"/>
			<psa30 value="6.75198309304659e-05" flag="0"/>
		</comp>
	</station>
	<station code="ISD" name="ISD" netid="IT" source="Italian Strong Motion Network (RAN)" insttype="" lat="45.2733" lon="10.9602">
		<comp name="--.HGE" depth="0.0">
			<acc value="0.010491492460661" flag="0"/>
			<vel value="0.00371952545013764" flag="0"/>
			<psa03 value="0.0130170602330267" flag="0"/>
			<psa10 value="0.00261102023290292" flag="0"/>
			<psa30 value="0.000184415758305718" flag="0"/>
		</comp>
		<comp name="--.HGN" depth="0.0">
			<acc value="0.0146243462900104" flag="0"/>
			<vel value="0.00475636467808791" flag="0"/>
			<psa03 value="0.0231232739909282" flag="0"/>
			<psa10 value="0.00206640470166865" flag="0"/>
			<psa30 value="0.000267326797630046" flag="0"/>
		</comp>
		<comp name="--.HGZ" depth="0.0">
			<acc value="0.00855077881597262" flag="0"/>
			<vel value="0.0011564839409923" flag="0"/>
			<psa03 value="0.00482023793689334" flag="0"/>
			<psa10 value="0.000540807329735925" flag="0"/>
			<psa30 value="0.000233806426028155" flag="0"/>
		</comp>
	</station>
	<station code="MDN" name="MDN" netid="IT" source="Italian Strong Motion Network (RAN)" insttype="" lat="44.646" lon="10.8899">
		<comp name="--.HNE" depth="0.0">
			<acc value="0.078152251484532" flag="0"/>
			<vel value="0.0200205425939" flag="0"/>
			<psa03 value="0.0422084471441533" flag="0"/>
			<psa10 value="0.00917700699418937" flag="0"/>
			<psa30 value="0.000678133777199802" flag="0"/>
		</comp>
		<comp name="--.HNN" depth="0.0">
			<acc value="0.058008656431614" flag="0"/>
			<vel value="0.0195344029267" flag="0"/>
			<psa03 value="0.0897984487066151" flag="0"/>
			<psa10 value="0.00768889763299675" flag="0"/>
			<psa30 value="0.000782379380878805" flag="0"/>
		</comp>
		<comp name="--.HNZ" depth="0.0">
			<acc value="0.049549344430344" flag="0"/>
			<vel value="0.00933646979768" flag="0"/>
			<psa03 value="0.0388089120457806" flag="0"/>
			<psa10 value="0.0018539946149178" flag="0"/>
			<psa30 value="0.000165714858004587" flag="0"/>
		</comp>
	</station>
	<station code="MRZ" name="MRZ" netid="IT" source="Italian Strong Motion Network (RAN)" insttype="" lat="44.3614" lon="11.1901">
		<comp name="--.HNE" depth="0.0">
			<acc value="0.00132058638389326" flag="0"/>
			<vel value="0.000490575382210373" flag="0"/>
			<psa03 value="0.00282884787905951" flag="0"/>
			<psa10 value="0.000590714874150744" flag="0"/>
			<psa30 value="7.42445407324606e-05" flag="0"/>
		</comp>
		<comp name="--.HNN" depth="0.0">
			<acc value="0.00170863740026154" flag="0"/>
			<vel value="0.000662310420483695" flag="0"/>
			<psa03 value="0.00321255982153121" flag="0"/>
			<psa10 value="0.00045662843298719" flag="0"/>
			<psa30 value="0.00010073393224316" flag="0"/>
		</comp>
		<comp name="--.HNZ" depth="0.0">
			<acc value="0.00113996036359151" flag="0"/>
			<vel value="0.000450197458439161" flag="0"/>
			<psa03 value="0.001538523957424" flag="0"/>
			<psa10 value="0.00034948058301389" flag="0"/>
			<psa30 value="8.20219309464328e-05" flag="0"/>
		</comp>
	</station>
	<station code="PAR" name="PAR" netid="IT" source="Italian Strong Motion Network (RAN)" insttype="" lat="44.8289" lon="10.2793">
		<comp name="--.HNE" depth="0.0">
			<acc value="0.098423379471924" flag="0"/>
			<vel value="0.0228126318509" flag="0"/>
			<psa03 value="0.0565236975427145" flag="0"/>
			<psa10 value="0.00292591664011642" flag="0"/>
			<psa30 value="0.000362859558498407" flag="0"/>
		</comp>
		<comp name="--.HNN" depth="0.0">
			<acc value="0.095533607579352" flag="0"/>
			<vel value="0.0213328071292" flag="0"/>
			<psa03 value="0.0577016505762411" flag="0"/>
			<psa10 value="0.00295482777408703" flag="0"/>
			<psa30 value="0.000295348784157442" flag="0"/>
		</comp>
		<comp name="--.HNZ" depth="0.0">
			<acc value="0.015962131630854" flag="0"/>
			<vel value="0.00235577621118" flag="0"/>
			<psa03 value="0.00601113128085917" flag="0"/>
			<psa10 value="0.000662510977944545" flag="0"/>
			<psa30 value="0.000116223246094512" flag="0"/>
		</comp>
	</station>
	<station code="PRT" name="PRT" netid="IT" source="Italian Strong Motion Network (RAN)" insttype="" lat="44.1496" lon="10.926">
		<comp name="--.HNE" depth="0.0">
			<acc value="0.0096215311878004" flag="0"/>
			<vel value="0.000621364626946733" flag="0"/>
			<psa03 value="0.00553543440369142" flag="0"/>
			<psa10 value="0.000657016453803915" flag="0"/>
			<psa30 value="6.45989082667443e-05" flag="0"/>
		</comp>
		<comp name="--.HNN" depth="0.0">
			<acc value="0.00811981084561188" flag="0"/>
			<vel value="0.00069508407786257" flag="0"/>
			<psa03 value="0.00669379434248469" flag="0"/>
			<psa10 value="0.000392156388592399" flag="0"/>
			<psa30 value="7.06322246110725e-05" flag="0"/>
		</comp>
		<comp name="--.HNZ" depth="0.0">
			<acc value="0.00305121362159755" flag="0"/>
			<vel value="0.000308939914985226" flag="0"/>
			<psa03 value="0.00314255518406549" flag="0"/>
			<psa10 value="0.00023819225367715" flag="0"/>
			<psa30 value="6.42665424994018e-05" flag="0"/>
		</comp>
	</station>
	<station code="PSTA" name="PSTA" netid="IT" source="Italian Strong Motion Network (RAN)" insttype="" lat="43.9303" lon="10.9213">
		<comp name="--.HNE" depth="0.0">
			<acc value="0.034276911133087" flag="0"/>
			<vel value="0.00171074585388337" flag="0"/>
			<psa03 value="0.00248365264828714" flag="0"/>
			<psa10 value="0.00117144682135241" flag="0"/>
			<psa30 value="9.65044463312364e-05" flag="0"/>
		</comp>
		<comp name="--.HNN" depth="0.0">
			<acc value="0.0198607522302613" flag="0"/>
			<vel value="0.00145900798809028" flag="0"/>
			<psa03 value="0.00436919796656861" flag="0"/>
			<psa10 value="0.00128433222914542" flag="0"/>
			<psa30 value="0.000110579877457369" flag="0"/>
		</comp>
		<comp name="--.HNZ" depth="0.0">
			<acc value="0.0214725017591326" flag="0"/>
			<vel value="0.00133515901359458" flag="0"/>
			<psa03 value="0.0016539806618506" flag="0"/>
			<psa10 value="0.000633224467544403" flag="0"/>
			<psa30 value="5.85373348422306e-05" flag="0"/>
		</comp>
	</station>
	<station code="PZS" name="PZS" netid="IT" source="Italian Strong Motion Network (RAN)" insttype="" lat="44.1885" lon="10.2886">
		<comp name="--.HNE" depth="0.0">
			<acc value="0.0016082427273269" flag="0"/>
			<vel value="0.00101073654849788" flag="0"/>
			<psa03 value="0.00326246449465922" flag="0"/>
			<psa10 value="0.00118482665301408" flag="0"/>
			<psa30 value="8.53213943110018e-05" flag="0"/>
		</comp>
		<comp name="--.HNN" depth="0.0">
			<acc value="0.00123951103247665" flag="0"/>
			<vel value="0.000947345944464134" flag="0"/>
			<psa03 value="0.00273562327890815" flag="0"/>
			<psa10 value="0.00150875342407385" flag="0"/>
			<psa30 value="9.18614825078177e-05" flag="0"/>
		</comp>
		<comp name="--.HNZ" depth="0.0">
			<acc value="0.00107007971569384" flag="0"/>
			<vel value="0.000408600430292775" flag="0"/>
			<psa03 value="0.00172063725851388" flag="0"/>
			<psa10 value="0.000497218719550261" flag="0"/>
			<psa30 value="5.47755882495197e-05" flag="0"/>
		</comp>
	</station>
	<station code="SLOB" name="SLOB" netid="IT" source="Italian Strong Motion Network (RAN)" insttype="" lat="45.6044" lon="10.5165">
		<comp name="--.HNE" depth="0.0">
			<acc value="0.0124980799189056" flag="0"/>
			<vel value="0.00623920196947324" flag="0"/>
			<psa03 value="0.0262285135519789" flag="0"/>
			<psa10 value="0.00311915334735152" flag="0"/>
			<psa30 value="0.000260410454039466" flag="0"/>
		</comp>
		<comp name="--.HNN" depth="0.0">
			<acc value="0.0168174486683073" flag="0"/>
			<vel value="0.00545138830822479" flag="0"/>
			<psa03 value="0.0420408605215341" flag="0"/>
			<psa10 value="0.00336861049766352" flag="0"/>
			<psa30 value="0.000251297506601367" flag="0"/>
		</comp>
		<comp name="--.HNZ" depth="0.0">
			<acc value="0.013581854247831" flag="0"/>
			<vel value="0.00411825527258021" flag="0"/>
			<psa03 value="0.0410568838795616" flag="0"/>
			<psa10 value="0.00120992097164067" flag="0"/>
