<?xml version="1.0" encoding="UTF-8" standalone="yes"?>
<!DOCTYPE earthquake SYSTEM "stationlist.dtd">
<stationlist created="" xmlns="ch.ethz.sed.shakemap.usgs.xml">
  <station code="GURO" name="GURO" netid="KO" insttype="CMG-3T" lat="38.5509" lon="42.0322">
    <comp name="--.HHE">
      <acc value="0.1764120094" flag="0"/>
      <vel value="0.0751968231" flag="0"/>
      <psa03 value="0.4781102666" flag="0"/>
      <psa10 value="0.0549832079" flag="0"/>
      <psa30 value="0.0035807019" flag="0"/>
    </comp>
    <comp name="--.HHN">
      <acc value="0.1681933574" flag="0"/>
      <vel value="0.0622835147" flag="0"/>
      <psa03 value="0.3259525253" flag="0"/>
      <psa10 value="0.0322125325" flag="0"/>
      <psa30 value="0.0030862751" flag="0"/>
    </comp>
    <comp name="--.HHZ">
      <acc value="0.1554203130" flag="0"/>
      <vel value="0.0550573354" flag="0"/>
      <psa03 value="0.1898859733" flag="0"/>
      <psa10 value="0.0224940488" flag="0"/>
      <psa30 value="0.0022837262" flag="0"/>
    </comp>
  </station>
  <station code="MLAZ" name="MLAZ" netid="KO" insttype="CMG-3T" lat="39.141" lon="42.5496">
    <comp name="--.HHE">
      <acc value="0.0743460089" flag="0"/>
      <vel value="0.0516222320" flag="0"/>
      <psa03 value="0.1535838881" flag="0"/>
      <psa10 value="0.0808283050" flag="0"/>
      <psa30 value="0.0089045300" flag="0"/>
    </comp>
    <comp name="--.HHN">
      <acc value="0.0847918979" flag="0"/>
      <vel value="0.0816750701" flag="0"/>
      <psa03 value="0.1601546326" flag="0"/>
      <psa10 value="0.1533607093" flag="0"/>
      <psa30 value="0.0068519170" flag="0"/>
    </comp>
    <comp name="--.HHZ">
      <acc value="0.0473395566" flag="0"/>
      <vel value="0.0286131140" flag="0"/>
      <psa03 value="0.1015115777" flag="0"/>
      <psa10 value="0.0607698466" flag="0"/>
      <psa30 value="0.0032598517" flag="0"/>
    </comp>
  </station>
  <station code="SIRT" name="SIRT" netid="KO" insttype="CMG-3T" lat="37.501" lon="42.4392">
    <comp name="--.HHE">
      <acc value="0.0766057669" flag="0"/>
      <vel value="0.0597578984" flag="0"/>
      <psa03 value="0.1669081645" flag="0"/>
      <psa10 value="0.0728327905" flag="0"/>
      <psa30 value="0.0065700161" flag="0"/>
    </comp>
    <comp name="--.HHN">
      <acc value="0.0668909446" flag="0"/>
      <vel value="0.0401337011" flag="0"/>
      <psa03 value="0.0910727755" flag="0"/>
      <psa10 value="0.0653814706" flag="0"/>
      <psa30 value="0.0052619279" flag="0"/>
    </comp>
  </station>
  <station code="SVAN" name="SVAN" netid="KO" insttype="CMG-3T" lat="38.1511" lon="41.1984">
    <comp name="--.HHZ">
      <acc value="0.0105007734" flag="0"/>
      <vel value="0.0072090079" flag="0"/>
      <psa03 value="0.0247372239" flag="0"/>
      <psa10 value="0.0081610711" flag="0"/>
      <psa30 value="0.0017284577" flag="0"/>
    </comp>
  </station>
  <station code="VANB" name="VANB" netid="KO" insttype="CMG-3T" lat="38.509" lon="43.4056">
    <comp name="--.HHZ">
      <acc value="0.0172584547" flag="0"/>
      <vel value="0.0256911334" flag="0"/>
      <psa03 value="0.0300735795" flag="0"/>
      <psa10 value="0.0592793880" flag="0"/>
      <psa30 value="0.0055316170" flag="0"/>
    </comp>
    <comp name="--.HHE">
      <acc value="0.0230238672" flag="0"/>
      <vel value="0.0333152654" flag="0"/>
      <psa03 value="0.0352323454" flag="0"/>
      <psa10 value="0.0867269249" flag="0"/>
      <psa30 value="0.0054045721" flag="0"/>
    </comp>
    <comp name="--.HHN">
      <acc value="0.0170749490" flag="0"/>
      <vel value="0.0297562236" flag="0"/>
      <psa03 value="0.0331654844" flag="0"/>
      <psa10 value="0.0508030283" flag="0"/>
      <psa30 value="0.0042615026" flag="0"/>
    </comp>
  </station>
</stationlist>
