<?xml version="1.0" encoding="UTF-8" standalone="yes"?>
<!DOCTYPE earthquake SYSTEM "stationlist.dtd">
<stationlist created="" xmlns="ch.ethz.sed.shakemap.usgs.xml">
  <station code="GURO" name="GURO" netid="KO" insttype="CMG-3T" lat="38.5509" lon="42.0322">
    <comp name="--.HHN">
      <acc value="0.1681933566" flag="0"/>
      <vel value="0.0622835158" flag="0"/>
      <psa03 value="0.3259525253" flag="0"/>
      <psa10 value="0.0322125330" flag="0"/>
      <psa30 value="0.0030862238" flag="0"/>
    </comp>
    <comp name="--.HHE">
      <acc value="0.1764120097" flag="0"/>
      <vel value="0.0751968225" flag="0"/>
      <psa03 value="0.4781102666" flag="0"/>
      <psa10 value="0.0549832078" flag="0"/>
      <psa30 value="0.0035806942" flag="0"/>
    </comp>
    <comp name="--.HHZ">
      <acc value="0.1554203133" flag="0"/>
      <vel value="0.0550573361" flag="0"/>
      <psa03 value="0.1898859733" flag="0"/>
      <psa10 value="0.0224940480" flag="0"/>
      <psa30 value="0.0022837269" flag="0"/>
    </comp>
  </station>
  <station code="MLAZ" name="MLAZ" netid="KO" insttype="CMG-3T" lat="39.141" lon="42.5496">
    <comp name="--.HHE">
      <acc value="0.0743460089" flag="0"/>
      <vel value="0.0516222331" flag="0"/>
      <psa03 value="0.1535838881" flag="0"/>
      <psa10 value="0.0808283052" flag="0"/>
      <psa30 value="0.0089045428" flag="0"/>
    </comp>
    <comp name="--.HHN">
      <acc value="0.0847918977" flag="0"/>
      <vel value="0.0816750703" flag="0"/>
      <psa03 value="0.1601546326" flag="0"/>
      <psa10 value="0.1533607090" flag="0"/>
      <psa30 value="0.0068519128" flag="0"/>
    </comp>
    <comp name="--.HHZ">
      <acc value="0.0473395568" flag="0"/>
      <vel value="0.0286131137" flag="0"/>
      <psa03 value="0.1015115777" flag="0"/>
      <psa10 value="0.0607698466" flag="0"/>
      <psa30 value="0.0032598541" flag="0"/>
    </comp>
  </station>
  <station code="SIRT" name="SIRT" netid="KO" insttype="CMG-3T" lat="37.501" lon="42.4392">
    <comp name="--.HHE">
      <acc value="0.0766057669" flag="0"/>
      <vel value="0.0597578975" flag="0"/>
      <psa03 value="0.1669081645" flag="0"/>
      <psa10 value="0.0728327905" flag="0"/>
      <psa30 value="0.0065700157" flag="0"/>
    </comp>
    <comp name="--.HHN">
      <acc value="0.0668909447" flag="0"/>
      <vel value="0.0401337003" flag="0"/>
      <psa03 value="0.0910727755" flag="0"/>
      <psa10 value="0.0653814706" flag="0"/>
      <psa30 value="0.0052619452" flag="0"/>
    </comp>
  </station>
  <station code="SVAN" name="SVAN" netid="KO" insttype="CMG-3T" lat="38.1511" lon="41.1984">
    <comp name="--.HHZ">
      <acc value="0.0105007734" flag="0"/>
      <vel value="0.0072090080" flag="0"/>
      <psa03 value="0.0247372239" flag="0"/>
      <psa10 value="0.0081610711" flag="0"/>
      <psa30 value="0.0017284573" flag="0"/>
    </comp>
  </station>
  <station code="VANB" name="VANB" netid="KO" insttype="CMG-3T" lat="38.509" lon="43.4056">
    <comp name="--.HHZ">
      <acc value="0.0172584546" flag="0"/>
      <vel value="0.0256911332" flag="0"/>
      <psa03 value="0.0300735795" flag="0"/>
      <psa10 value="0.0592793879" flag="0"/>
      <psa30 value="0.0055316358" flag="0"/>
    </comp>
    <comp name="--.HHE">
      <acc value="0.0230238672" flag="0"/>
      <vel value="0.0333152650" flag="0"/>
      <psa03 value="0.0352323454" flag="0"/>
      <psa10 value="0.0867269249" flag="0"/>
      <psa30 value="0.0054045963" flag="0"/>
    </comp>
    <comp name="--.HHN">
      <acc value="0.0170749490" flag="0"/>
      <vel value="0.0297562236" flag="0"/>
      <psa03 value="0.0331654844" flag="0"/>
      <psa10 value="0.0508030283" flag="0"/>
      <psa30 value="0.0042614993" flag="0"/>
    </comp>
  </station>
</stationlist>
