<stationlist created="1778136211">
	<station code="KSS1" name="KSS1" netid="HI" source="ITSAK Strong Motion Network" insttype="" lat="35.4189" lon="26.9207">
		<comp name="--.HNE" depth="0.0">
			<acc value="0.0159538066709864" flag="0"/>
			<vel value="0.00852381512206937" flag="0"/>
			<psa03 value="0.051856217470577" flag="0"/>
			<psa10 value="0.00454222881588695" flag="0"/>
			<psa30 value="0.00046755605916094" flag="0"/>
		</comp>
		<comp name="--.HNN" depth="0.0">
			<acc value="0.0227296214051979" flag="0"/>
			<vel value="0.00816002286249937" flag="0"/>
			<psa03 value="0.0919899768071667" flag="0"/>
			<psa10 value="0.00457847000324775" flag="0"/>
			<psa30 value="0.000331092328975211" flag="0"/>
		</comp>
		<comp name="--.HNZ" depth="0.0">
			<acc value="0.0154556616848676" flag="0"/>
			<vel value="0.00440383838615743" flag="0"/>
			<psa03 value="0.0204471884245502" flag="0"/>
			<psa10 value="0.00273419624644259" flag="0"/>
			<psa30 value="0.000251451201194687" flag="0"/>
		</comp>
	</station>
	<station code="RDI1" name="RDI1" netid="HI" source="ITSAK Strong Motion Network" insttype="" lat="36.4514" lon="28.224">
		<comp name="--.HNE" depth="0.0">
			<acc value="0.0271093975615667" flag="0"/>
			<vel value="0.0197297988529674" flag="0"/>
			<psa03 value="0.0476504500484594" flag="0"/>
			<psa10 value="0.0155112281904225" flag="0"/>
			<psa30 value="0.00273151171404549" flag="0"/>
		</comp>
		<comp name="--.HNN" depth="0.0">
			<acc value="0.0247916985178782" flag="0"/>
			<vel value="0.0162452293440632" flag="0"/>
			<psa03 value="0.086934107459302" flag="0"/>
			<psa10 value="0.018801122643064" flag="0"/>
			<psa30 value="0.00185545930845973" flag="0"/>
		</comp>
		<comp name="--.HNZ" depth="0.0">
			<acc value="0.014421131931551" flag="0"/>
			<vel value="0.00883494210184616" flag="0"/>
			<psa03 value="0.0413417989152831" flag="0"/>
			<psa10 value="0.00814621355898874" flag="0"/>
			<psa30 value="0.000983433701469613" flag="0"/>
		</comp>
	</station>
	<station code="SIT2" name="SIT2" netid="HI" source="ITSAK Strong Motion Network" insttype="" lat="35.2059" lon="26.107">
		<comp name="--.HNE" depth="0.0">
			<acc value="0.0211893650425106" flag="0"/>
			<vel value="0.0174718996588854" flag="0"/>
			<psa03 value="0.0497533337595182" flag="0"/>
			<psa10 value="0.0113354380467391" flag="0"/>
			<psa30 value="0.000687687715722837" flag="0"/>
		</comp>
		<comp name="--.HNN" depth="0.0">
			<acc value="0.0184434997055932" flag="0"/>
			<vel value="0.0141610275468289" flag="0"/>
			<psa03 value="0.0474714812219863" flag="0"/>
			<psa10 value="0.00902808245143487" flag="0"/>
			<psa30 value="0.000591939393559735" flag="0"/>
		</comp>
		<comp name="--.HNZ" depth="0.0">
			<acc value="0.00720906185470012" flag="0"/>
			<vel value="0.00393303513580194" flag="0"/>
			<psa03 value="0.0255925421856514" flag="0"/>
			<psa10 value="0.00277446423239903" flag="0"/>
			<psa30 value="0.00026174190871689" flag="0"/>
		</comp>
	</station>
	<station code="KARP" name="KARP" netid="HL" source="National Observatory of Athens Seismic Network" insttype="" lat="35.5471" lon="27.16106">
		<comp name="--.HNE" depth="0.0">
			<acc value="0.0492061187587077" flag="0"/>
			<vel value="0.0150898691881308" flag="0"/>
			<psa03 value="0.0999093473786008" flag="0"/>
			<psa10 value="0.0109609457773442" flag="0"/>
			<psa30 value="0.000775829862760832" flag="0"/>
		</comp>
		<comp name="--.HNN" depth="0.0">
			<acc value="0.0418315891364716" flag="0"/>
			<vel value="0.0142839725348746" flag="0"/>
			<psa03 value="0.0887685379306512" flag="0"/>
			<psa10 value="0.0162239715418515" flag="0"/>
			<psa30 value="0.00063220737951618" flag="0"/>
		</comp>
		<comp name="--.HNZ" depth="0.0">
			<acc value="0.03199366091749" flag="0"/>
			<vel value="0.0108917011473399" flag="0"/>
			<psa03 value="0.0392389152042243" flag="0"/>
			<psa10 value="0.0098455225663507" flag="0"/>
			<psa30 value="0.000395521106505522" flag="0"/>
		</comp>
	</station>
	<station code="NISR" name="NISR" netid="HL" source="National Observatory of Athens Seismic Network" insttype="" lat="36.6106" lon="27.131">
		<comp name="--.HNE" depth="0.0">
			<acc value="0.0172737603577121" flag="0"/>
			<vel value="0.0104170829997391" flag="0"/>
			<psa03 value="0.0417444787748475" flag="0"/>
			<psa10 value="0.0201662073669874" flag="0"/>
			<psa30 value="0.00171138940314889" flag="0"/>
		</comp>
		<comp name="--.HNN" depth="0.0">
			<acc value="0.0102889506465087" flag="0"/>
			<vel value="0.00847319385520453" flag="0"/>
			<psa03 value="0.0311405758063171" flag="0"/>
			<psa10 value="0.016501820644951" flag="0"/>
			<psa30 value="0.000990145032462354" flag="0"/>
		</comp>
		<comp name="--.HNZ" depth="0.0">
			<acc value="0.0074329755457051" flag="0"/>
			<vel value="0.00571394026989762" flag="0"/>
			<psa03 value="0.0177179138208356" flag="0"/>
			<psa10 value="0.00889922489637425" flag="0"/>
			<psa30 value="0.000913635859145109" flag="0"/>
		</comp>
	</station>
	<station code="RODB" name="RODB" netid="HL" source="National Observatory of Athens Seismic Network" insttype="" lat="36.4471" lon="28.22116">
		<comp name="00.HNE" depth="0.0">
			<acc value="0.0319971946665013" flag="0"/>
			<vel value="0.0204893953281568" flag="0"/>
			<psa03 value="0.0944060559645534" flag="0"/>
			<psa10 value="0.016264239527808" flag="0"/>
			<psa30 value="0.00204113946592556" flag="0"/>
		</comp>
		<comp name="00.HNN" depth="0.0">
			<acc value="0.028623534299725" flag="0"/>
			<vel value="0.0151307280948832" flag="0"/>
			<psa03 value="0.118253652092092" flag="0"/>
			<psa10 value="0.0140656074945861" flag="0"/>
			<psa30 value="0.00305947208855742" flag="0"/>
		</comp>
		<comp name="00.HNZ" depth="0.0">
			<acc value="0.0333215822751986" flag="0"/>
			<vel value="0.00805562361482886" flag="0"/>
			<psa03 value="0.0324828420048653" flag="0"/>
			<psa10 value="0.0113837596298869" flag="0"/>
			<psa30 value="0.00106531193958105" flag="0"/>
		</comp>
	</station>
</stationlist>
