<?xml version="1.0" encoding="UTF-8" standalone="yes"?>
<!DOCTYPE earthquake SYSTEM "stationlist.dtd">
<stationlist created="" xmlns="ch.ethz.sed.shakemap.usgs.xml">
  <station code="KARP" name="KARP" netid="GE" insttype="STS-2/N" lat="35.5471" lon="27.1611">
    <comp name="--.HHE">
      <acc value="0.0589234303" flag="0"/>
      <vel value="0.0173667098" flag="0"/>
      <psa03 value="0.1165387227" flag="0"/>
      <psa10 value="0.0121795384" flag="0"/>
      <psa30 value="0.0009270084" flag="0"/>
    </comp>
    <comp name="--.HHN">
      <acc value="0.0522664965" flag="0"/>
      <vel value="0.0173076707" flag="0"/>
      <psa03 value="0.0996133970" flag="0"/>
      <psa10 value="0.0180686490" flag="0"/>
      <psa30 value="0.0007046159" flag="0"/>
    </comp>
    <comp name="--.HHZ">
      <acc value="0.0391743196" flag="0"/>
      <vel value="0.0135832231" flag="0"/>
      <psa03 value="0.0481149411" flag="0"/>
      <psa10 value="0.0121919079" flag="0"/>
      <psa30 value="0.0004795706" flag="0"/>
    </comp>
  </station>
  <station code="RDI1" name="RDI1" netid="HI" insttype="CMG-5TD,ACCELEROMETER,GURALP" lat="36.4514" lon="28.224">
    <comp name="--.HNN">
      <acc value="0.0247764718" flag="0"/>
      <vel value="0.0161454591" flag="0"/>
      <psa03 value="0.0867308028" flag="0"/>
      <psa10 value="0.0187004165" flag="0"/>
      <psa30 value="0.0014886213" flag="0"/>
    </comp>
    <comp name="--.HNZ">
      <acc value="0.0143243975" flag="0"/>
      <vel value="0.0086730931" flag="0"/>
      <psa03 value="0.0410804207" flag="0"/>
      <psa10 value="0.0081000404" flag="0"/>
      <psa30 value="0.0009776050" flag="0"/>
    </comp>
    <comp name="--.HNE">
      <acc value="0.0271680777" flag="0"/>
      <vel value="0.0196143986" flag="0"/>
      <psa03 value="0.0476157954" flag="0"/>
      <psa10 value="0.0152825479" flag="0"/>
      <psa30 value="0.0026531957" flag="0"/>
    </comp>
  </station>
  <station code="ARG" name="ARG" netid="HL" insttype="LE3D20_DR24" lat="36.2136" lon="28.1212">
    <comp name="--.HHE">
      <acc value="0.1444811437" flag="0"/>
      <vel value="0.0487952639" flag="0"/>
      <psa03 value="0.2270910480" flag="0"/>
      <psa10 value="0.0376733318" flag="0"/>
      <psa30 value="0.0029574688" flag="0"/>
    </comp>
    <comp name="--.HHN">
      <acc value="0.0954269626" flag="0"/>
      <vel value="0.0460282065" flag="0"/>
      <psa03 value="0.1240441135" flag="0"/>
      <psa10 value="0.0683237209" flag="0"/>
      <psa30 value="0.0037005358" flag="0"/>
    </comp>
    <comp name="--.HHZ">
      <acc value="0.0644777320" flag="0"/>
      <vel value="0.0295529154" flag="0"/>
      <psa03 value="0.0983533404" flag="0"/>
      <psa10 value="0.0306246699" flag="0"/>
      <psa30 value="0.0018069707" flag="0"/>
    </comp>
  </station>
  <station code="KARP" name="KARP" netid="HL" insttype="120" lat="35.5471" lon="27.1611">
    <comp name="--.HHE">
      <acc value="0.0565194949" flag="0"/>
      <vel value="0.0167968797" flag="0"/>
      <psa03 value="0.1129539662" flag="0"/>
      <psa10 value="0.0120595936" flag="0"/>
      <psa30 value="0.0009215930" flag="0"/>
    </comp>
    <comp name="--.HHN">
      <acc value="0.0460685448" flag="0"/>
      <vel value="0.0168097027" flag="0"/>
      <psa03 value="0.0962984400" flag="0"/>
      <psa10 value="0.0179311051" flag="0"/>
      <psa30 value="0.0006967041" flag="0"/>
    </comp>
    <comp name="--.HHZ">
      <acc value="0.0369896256" flag="0"/>
      <vel value="0.0130152021" flag="0"/>
      <psa03 value="0.0470905960" flag="0"/>
      <psa10 value="0.0121241532" flag="0"/>
      <psa30 value="0.0004724744" flag="0"/>
    </comp>
  </station>
  <station code="NISR" name="NISR" netid="HL" insttype="65535" lat="36.6106" lon="27.131">
    <comp name="--.HHE">
      <acc value="0.0188631586" flag="0"/>
      <vel value="0.0103656777" flag="0"/>
      <psa03 value="0.0459252943" flag="0"/>
      <psa10 value="0.0213494240" flag="0"/>
      <psa30 value="0.0015278196" flag="0"/>
    </comp>
    <comp name="--.HHN">
      <acc value="0.0107764394" flag="0"/>
      <vel value="0.0080402816" flag="0"/>
      <psa03 value="0.0272501879" flag="0"/>
      <psa10 value="0.0144956268" flag="0"/>
      <psa30 value="0.0008495787" flag="0"/>
    </comp>
    <comp name="--.HHZ">
      <acc value="0.0072924872" flag="0"/>
      <vel value="0.0059049554" flag="0"/>
      <psa03 value="0.0199072901" flag="0"/>
      <psa10 value="0.0086370002" flag="0"/>
      <psa30 value="0.0005020296" flag="0"/>
    </comp>
  </station>
</stationlist>
