<?xml version="1.0" encoding="UTF-8" standalone="yes"?>
<!DOCTYPE earthquake SYSTEM "stationlist.dtd">
<stationlist created="" xmlns="ch.ethz.sed.shakemap.usgs.xml">
  <station code="PLN1" name="PLN1" netid="HI" insttype="CMG-5TD,ACCELEROMETER,GURALP" lat="39.998" lon="23.575">
    <comp name="--.HNN">
      <acc value="0.0660169792" flag="0"/>
      <vel value="0.0246114747" flag="0"/>
      <psa03 value="0.1990897243" flag="0"/>
      <psa10 value="0.0350861118" flag="0"/>
      <psa30 value="0.0017782296" flag="0"/>
    </comp>
    <comp name="--.HNZ">
      <acc value="0.1119718055" flag="0"/>
      <vel value="0.0244845551" flag="0"/>
      <psa03 value="0.0696774769" flag="0"/>
      <psa10 value="0.0159515947" flag="0"/>
      <psa30 value="0.0006008127" flag="0"/>
    </comp>
    <comp name="--.HNE">
      <acc value="0.0675771929" flag="0"/>
      <vel value="0.0298187636" flag="0"/>
      <psa03 value="0.1201806095" flag="0"/>
      <psa10 value="0.0371689671" flag="0"/>
      <psa30 value="0.0017010350" flag="0"/>
    </comp>
  </station>
  <station code="EFSA" name="EFSA" netid="HL" insttype="CMG-5" lat="39.5401" lon="24.9886">
    <comp name="00.HNN">
      <acc value="0.0465346619" flag="0"/>
      <vel value="0.0169918336" flag="0"/>
      <psa03 value="0.0689757648" flag="0"/>
      <psa10 value="0.0143190875" flag="0"/>
      <psa30 value="0.0008589734" flag="0"/>
    </comp>
    <comp name="00.HNE">
      <acc value="0.0375463635" flag="0"/>
      <vel value="0.0237157437" flag="0"/>
      <psa03 value="0.0915303495" flag="0"/>
      <psa10 value="0.0278402154" flag="0"/>
      <psa30 value="0.0011752405" flag="0"/>
    </comp>
    <comp name="00.HNZ">
      <acc value="0.0339081805" flag="0"/>
      <vel value="0.0105317790" flag="0"/>
      <psa03 value="0.0494851031" flag="0"/>
      <psa10 value="0.0088827400" flag="0"/>
      <psa30 value="0.0005679522" flag="0"/>
    </comp>
  </station>
  <station code="LIA" name="LIA" netid="HL" insttype="P6C" lat="39.8972" lon="25.1806">
    <comp name="--.HHE">
      <acc value="0.0798218679" flag="0"/>
      <vel value="0.0251459135" flag="0"/>
      <psa03 value="0.1011100460" flag="0"/>
      <psa10 value="0.0119465222" flag="0"/>
      <psa30 value="0.0010422819" flag="0"/>
    </comp>
    <comp name="--.HHZ">
      <acc value="0.0408455847" flag="0"/>
      <vel value="0.0110327034" flag="0"/>
      <psa03 value="0.0449379872" flag="0"/>
      <psa10 value="0.0098592647" flag="0"/>
      <psa30 value="0.0003233119" flag="0"/>
    </comp>
    <comp name="--.HHN">
      <acc value="0.0590548269" flag="0"/>
      <vel value="0.0250656434" flag="0"/>
      <psa03 value="0.1533595573" flag="0"/>
      <psa10 value="0.0185871265" flag="0"/>
      <psa30 value="0.0014991372" flag="0"/>
    </comp>
  </station>
  <station code="NEO" name="NEO" netid="HL" insttype="120" lat="39.3057" lon="23.2219">
    <comp name="--.HHN">
      <acc value="0.0141158740" flag="0"/>
      <vel value="0.0060050692" flag="0"/>
      <psa03 value="0.0267406337" flag="0"/>
      <psa10 value="0.0051659300" flag="0"/>
      <psa30 value="0.0004395436" flag="0"/>
    </comp>
    <comp name="--.HHZ">
      <acc value="0.0104119461" flag="0"/>
      <vel value="0.0040430977" flag="0"/>
      <psa03 value="0.0140418241" flag="0"/>
      <psa10 value="0.0028465005" flag="0"/>
      <psa30 value="0.0003214379" flag="0"/>
    </comp>
    <comp name="--.HHE">
      <acc value="0.0140800264" flag="0"/>
      <vel value="0.0052297017" flag="0"/>
      <psa03 value="0.0304796899" flag="0"/>
      <psa10 value="0.0049554505" flag="0"/>
      <psa30 value="0.0003516868" flag="0"/>
    </comp>
  </station>
  <station code="PLG" name="PLG" netid="HL" insttype="120" lat="40.3733" lon="23.4444">
    <comp name="--.HHE">
      <acc value="0.0121690365" flag="0"/>
      <vel value="0.0028661585" flag="0"/>
      <psa03 value="0.0107724965" flag="0"/>
      <psa10 value="0.0019477949" flag="0"/>
      <psa30 value="0.0002632126" flag="0"/>
    </comp>
    <comp name="--.HHZ">
      <acc value="0.0104501126" flag="0"/>
      <vel value="0.0030053341" flag="0"/>
      <psa03 value="0.0114504455" flag="0"/>
      <psa10 value="0.0017566618" flag="0"/>
      <psa30 value="0.0001677573" flag="0"/>
    </comp>
    <comp name="--.HHN">
      <acc value="0.0107114937" flag="0"/>
      <vel value="0.0029765325" flag="0"/>
      <psa03 value="0.0107894534" flag="0"/>
      <psa10 value="0.0022967804" flag="0"/>
      <psa30 value="0.0002138164" flag="0"/>
    </comp>
  </station>
  <station code="SKY" name="SKY" netid="HL" insttype="120" lat="38.8831" lon="24.5482">
    <comp name="--.HHN">
      <acc value="0.1173741823" flag="0"/>
      <vel value="0.0374990644" flag="0"/>
      <psa03 value="0.1684019523" flag="0"/>
      <psa10 value="0.0090763158" flag="0"/>
      <psa30 value="0.0008852092" flag="0"/>
    </comp>
    <comp name="--.HHZ">
      <acc value="0.0822044762" flag="0"/>
      <vel value="0.0172221081" flag="0"/>
      <psa03 value="0.0515616972" flag="0"/>
      <psa10 value="0.0067836889" flag="0"/>
      <psa30 value="0.0006203937" flag="0"/>
    </comp>
    <comp name="--.HHE">
      <acc value="0.0000157357" flag="0"/>
      <vel value="0.0000123011" flag="0"/>
      <psa03 value="0.0000136436" flag="0"/>
      <psa10 value="0.0000105300" flag="0"/>
      <psa30 value="0.0000064846" flag="0"/>
    </comp>
  </station>
  <station code="AOS2" name="AOS2" netid="HT" insttype="100" lat="39.1478" lon="23.8436">
    <comp name="--.HHZ">
      <acc value="0.0308542207" flag="0"/>
      <vel value="0.0081114585" flag="0"/>
      <psa03 value="0.0474182946" flag="0"/>
      <psa10 value="0.0072537676" flag="0"/>
      <psa30 value="0.0003523524" flag="0"/>
    </comp>
    <comp name="--.HHN">
      <acc value="0.0514915104" flag="0"/>
      <vel value="0.0220690349" flag="0"/>
      <psa03 value="0.0722708168" flag="0"/>
      <psa10 value="0.0109736185" flag="0"/>
      <psa30 value="0.0006737041" flag="0"/>
    </comp>
    <comp name="--.HHE">
      <acc value="0.0473953627" flag="0"/>
      <vel value="0.0142685211" flag="0"/>
      <psa03 value="0.0601605557" flag="0"/>
      <psa10 value="0.0131001193" flag="0"/>
      <psa30 value="0.0007499113" flag="0"/>
    </comp>
  </station>
  <station code="KOKK" name="KOKK" netid="HT" insttype="Compact," lat="40.8178" lon="23.9992">
    <comp name="--.HHE">
      <acc value="0.0156203711" flag="0"/>
      <vel value="0.0067648393" flag="0"/>
      <psa03 value="0.0219425991" flag="0"/>
      <psa10 value="0.0110786340" flag="0"/>
      <psa30 value="0.0005741315" flag="0"/>
    </comp>
    <comp name="--.HHN">
      <acc value="0.0163673868" flag="0"/>
      <vel value="0.0058277905" flag="0"/>
      <psa03 value="0.0314700212" flag="0"/>
      <psa10 value="0.0067898294" flag="0"/>
      <psa30 value="0.0004316661" flag="0"/>
    </comp>
    <comp name="--.HHZ">
      <acc value="0.0111631901" flag="0"/>
      <vel value="0.0035024071" flag="0"/>
      <psa03 value="0.0182574759" flag="0"/>
      <psa10 value="0.0045708280" flag="0"/>
      <psa30 value="0.0002873974" flag="0"/>
    </comp>
  </station>
  <station code="OUR" name="OUR" netid="HT" insttype="100" lat="40.3325" lon="23.9791">
    <comp name="--.HHE">
      <acc value="0.0895241004" flag="0"/>
      <vel value="0.0326424040" flag="0"/>
      <psa03 value="0.0765177091" flag="0"/>
      <psa10 value="0.0107985201" flag="0"/>
      <psa30 value="0.0015208121" flag="0"/>
    </comp>
    <comp name="--.HHN">
      <acc value="0.0635876465" flag="0"/>
      <vel value="0.0177168077" flag="0"/>
      <psa03 value="0.0630353663" flag="0"/>
      <psa10 value="0.0131299239" flag="0"/>
      <psa30 value="0.0009297980" flag="0"/>
    </comp>
    <comp name="--.HHZ">
      <acc value="0.0494374143" flag="0"/>
      <vel value="0.0146500292" flag="0"/>
      <psa03 value="0.0368073116" flag="0"/>
      <psa10 value="0.0073521975" flag="0"/>
      <psa30 value="0.0004805574" flag="0"/>
    </comp>
  </station>
  <station code="PAIG" name="PAIG" netid="HT" insttype="100" lat="39.9363" lon="23.6768">
    <comp name="--.HHE">
      <acc value="0.0954572551" flag="0"/>
      <vel value="0.0318095487" flag="0"/>
      <psa03 value="0.0909491565" flag="0"/>
      <psa10 value="0.0153209049" flag="0"/>
      <psa30 value="0.0009412842" flag="0"/>
    </comp>
    <comp name="--.HHN">
      <acc value="0.0789308258" flag="0"/>
      <vel value="0.0248575561" flag="0"/>
      <psa03 value="0.0711557648" flag="0"/>
      <psa10 value="0.0123853863" flag="0"/>
      <psa30 value="0.0011031669" flag="0"/>
    </comp>
    <comp name="--.HHZ">
      <acc value="0.0648405858" flag="0"/>
      <vel value="0.0253205439" flag="0"/>
      <psa03 value="0.0997359308" flag="0"/>
      <psa10 value="0.0263458856" flag="0"/>
      <psa30 value="0.0011624110" flag="0"/>
    </comp>
  </station>
  <station code="THAS" name="THAS" netid="HT" insttype="100" lat="40.6064" lon="24.7194">
    <comp name="--.HHE">
      <acc value="0.0358464753" flag="0"/>
      <vel value="0.0103189469" flag="0"/>
      <psa03 value="0.0653457492" flag="0"/>
      <psa10 value="0.0049805603" flag="0"/>
      <psa30 value="0.0006819978" flag="0"/>
    </comp>
    <comp name="--.HHN">
      <acc value="0.0387258486" flag="0"/>
      <vel value="0.0090296657" flag="0"/>
      <psa03 value="0.0580716395" flag="0"/>
      <psa10 value="0.0033018107" flag="0"/>
      <psa30 value="0.0004904959" flag="0"/>
    </comp>
    <comp name="--.HHZ">
      <acc value="0.0304543083" flag="0"/>
      <vel value="0.0118346174" flag="0"/>
      <psa03 value="0.0461721726" flag="0"/>
      <psa10 value="0.0032794076" flag="0"/>
      <psa30 value="0.0004304088" flag="0"/>
    </comp>
  </station>
</stationlist>
