<?xml version="1.0" encoding="UTF-8" standalone="yes"?>
<!DOCTYPE earthquake SYSTEM "stationlist.dtd">
<stationlist created="" xmlns="ch.ethz.sed.shakemap.usgs.xml">
  <station code="MRKA" name="MRKA" netid="HA" insttype="Horizon,120s,1200" lat="38.7047" lon="23.5863">
    <comp name="--.HHE">
      <acc value="0.0162076216" flag="0"/>
      <vel value="0.0051348543" flag="0"/>
      <psa03 value="0.0217704290" flag="0"/>
      <psa10 value="0.0031902488" flag="0"/>
      <psa30 value="0.0004477633" flag="0"/>
    </comp>
    <comp name="--.HHN">
      <acc value="0.0127867679" flag="0"/>
      <vel value="0.0058088625" flag="0"/>
      <psa03 value="0.0271287660" flag="0"/>
      <psa10 value="0.0037760640" flag="0"/>
      <psa30 value="0.0002955220" flag="0"/>
    </comp>
    <comp name="--.HHZ">
      <acc value="0.0072855736" flag="0"/>
      <vel value="0.0040140835" flag="0"/>
      <psa03 value="0.0194106041" flag="0"/>
      <psa10 value="0.0033013781" flag="0"/>
      <psa30 value="0.0003277388" flag="0"/>
    </comp>
  </station>
  <station code="PLN1" name="PLN1" netid="HI" insttype="CMG-5TD,ACCELEROMETER,GURALP" lat="39.998" lon="23.575">
    <comp name="--.HNE">
      <acc value="0.0675771989" flag="0"/>
      <vel value="0.0298187655" flag="0"/>
      <psa03 value="0.1201806095" flag="0"/>
      <psa10 value="0.0371689669" flag="0"/>
      <psa30 value="0.0017011462" flag="0"/>
    </comp>
    <comp name="--.HNN">
      <acc value="0.0660169778" flag="0"/>
      <vel value="0.0246114740" flag="0"/>
      <psa03 value="0.1990897243" flag="0"/>
      <psa10 value="0.0350861118" flag="0"/>
      <psa30 value="0.0017782069" flag="0"/>
    </comp>
    <comp name="--.HNZ">
      <acc value="0.1119718058" flag="0"/>
      <vel value="0.0244845552" flag="0"/>
      <psa03 value="0.0696774769" flag="0"/>
      <psa10 value="0.0159515947" flag="0"/>
      <psa30 value="0.0006007600" flag="0"/>
    </comp>
  </station>
  <station code="EFSA" name="EFSA" netid="HL" insttype="CMG-5" lat="39.5401" lon="24.9886">
    <comp name="00.HNZ">
      <acc value="0.0339081804" flag="0"/>
      <vel value="0.0105317792" flag="0"/>
      <psa03 value="0.0494851031" flag="0"/>
      <psa10 value="0.0088827416" flag="0"/>
      <psa30 value="0.0005683441" flag="0"/>
    </comp>
    <comp name="00.HNN">
      <acc value="0.0465346618" flag="0"/>
      <vel value="0.0169918315" flag="0"/>
      <psa03 value="0.0689757648" flag="0"/>
      <psa10 value="0.0143190882" flag="0"/>
      <psa30 value="0.0008582654" flag="0"/>
    </comp>
    <comp name="00.HNE">
      <acc value="0.0375463629" flag="0"/>
      <vel value="0.0237157479" flag="0"/>
      <psa03 value="0.0915303495" flag="0"/>
      <psa10 value="0.0278402168" flag="0"/>
      <psa30 value="0.0011751158" flag="0"/>
    </comp>
  </station>
  <station code="LIA" name="LIA" netid="HL" insttype="P6C" lat="39.8972" lon="25.1806">
    <comp name="--.HHN">
      <acc value="0.0590548264" flag="0"/>
      <vel value="0.0250656436" flag="0"/>
      <psa03 value="0.1533595573" flag="0"/>
      <psa10 value="0.0185871264" flag="0"/>
      <psa30 value="0.0014992895" flag="0"/>
    </comp>
    <comp name="--.HHZ">
      <acc value="0.0408455844" flag="0"/>
      <vel value="0.0110327032" flag="0"/>
      <psa03 value="0.0449379872" flag="0"/>
      <psa10 value="0.0098592650" flag="0"/>
      <psa30 value="0.0003234530" flag="0"/>
    </comp>
    <comp name="--.HHE">
      <acc value="0.0798218684" flag="0"/>
      <vel value="0.0251459116" flag="0"/>
      <psa03 value="0.1011100460" flag="0"/>
      <psa10 value="0.0119465228" flag="0"/>
      <psa30 value="0.0010424682" flag="0"/>
    </comp>
  </station>
  <station code="NEO" name="NEO" netid="HL" insttype="120" lat="39.3057" lon="23.2219">
    <comp name="--.HHE">
      <acc value="0.0140800262" flag="0"/>
      <vel value="0.0052297018" flag="0"/>
      <psa03 value="0.0304796899" flag="0"/>
      <psa10 value="0.0049554505" flag="0"/>
      <psa30 value="0.0003516814" flag="0"/>
    </comp>
    <comp name="--.HHN">
      <acc value="0.0141158728" flag="0"/>
      <vel value="0.0060050691" flag="0"/>
      <psa03 value="0.0267406337" flag="0"/>
      <psa10 value="0.0051659299" flag="0"/>
      <psa30 value="0.0004395477" flag="0"/>
    </comp>
    <comp name="--.HHZ">
      <acc value="0.0104119466" flag="0"/>
      <vel value="0.0040430977" flag="0"/>
      <psa03 value="0.0140418241" flag="0"/>
      <psa10 value="0.0028465003" flag="0"/>
      <psa30 value="0.0003214377" flag="0"/>
    </comp>
  </station>
  <station code="PLG" name="PLG" netid="HL" insttype="120" lat="40.3733" lon="23.4444">
    <comp name="--.HHE">
      <acc value="0.0121690363" flag="0"/>
      <vel value="0.0028661583" flag="0"/>
      <psa03 value="0.0107724965" flag="0"/>
      <psa10 value="0.0019477949" flag="0"/>
      <psa30 value="0.0002632052" flag="0"/>
    </comp>
    <comp name="--.HHN">
      <acc value="0.0107114933" flag="0"/>
      <vel value="0.0029765328" flag="0"/>
      <psa03 value="0.0107894534" flag="0"/>
      <psa10 value="0.0022967804" flag="0"/>
      <psa30 value="0.0002138160" flag="0"/>
    </comp>
    <comp name="--.HHZ">
      <acc value="0.0104501116" flag="0"/>
      <vel value="0.0030053341" flag="0"/>
      <psa03 value="0.0114504455" flag="0"/>
      <psa10 value="0.0017566618" flag="0"/>
      <psa30 value="0.0001677705" flag="0"/>
    </comp>
  </station>
  <station code="SKY" name="SKY" netid="HL" insttype="120" lat="38.8831" lon="24.5482">
    <comp name="--.HHE">
      <acc value="0.0000157358" flag="0"/>
      <vel value="0.0000123011" flag="0"/>
      <psa03 value="0.0000136436" flag="0"/>
      <psa10 value="0.0000105303" flag="0"/>
      <psa30 value="0.0000064845" flag="0"/>
    </comp>
    <comp name="--.HHZ">
      <acc value="0.0822044777" flag="0"/>
      <vel value="0.0172221079" flag="0"/>
      <psa03 value="0.0515616972" flag="0"/>
      <psa10 value="0.0067836889" flag="0"/>
      <psa30 value="0.0006203839" flag="0"/>
    </comp>
    <comp name="--.HHN">
      <acc value="0.1173741817" flag="0"/>
      <vel value="0.0374990656" flag="0"/>
      <psa03 value="0.1684019523" flag="0"/>
      <psa10 value="0.0090763158" flag="0"/>
      <psa30 value="0.0008851437" flag="0"/>
    </comp>
  </station>
  <station code="SMTH" name="SMTH" netid="HL" insttype="CMG3ESPC60_P6C" lat="40.4709" lon="25.5304">
    <comp name="--.HHE">
      <acc value="0.0107307305" flag="0"/>
      <vel value="0.0036359739" flag="0"/>
      <psa03 value="0.0163998132" flag="0"/>
      <psa10 value="0.0018879294" flag="0"/>
      <psa30 value="0.0001065708" flag="0"/>
    </comp>
    <comp name="--.HHN">
      <acc value="0.0110314165" flag="0"/>
      <vel value="0.0031492921" flag="0"/>
      <psa03 value="0.0161212736" flag="0"/>
      <psa10 value="0.0009406550" flag="0"/>
      <psa30 value="0.0001296664" flag="0"/>
    </comp>
    <comp name="--.HHZ">
      <acc value="0.0110189251" flag="0"/>
      <vel value="0.0043799411" flag="0"/>
      <psa03 value="0.0159245101" flag="0"/>
      <psa10 value="0.0020745459" flag="0"/>
      <psa30 value="0.0001812515" flag="0"/>
    </comp>
  </station>
  <station code="AOS2" name="AOS2" netid="HT" insttype="100" lat="39.1478" lon="23.8436">
    <comp name="--.HHZ">
      <acc value="0.0308542201" flag="0"/>
      <vel value="0.0081114586" flag="0"/>
      <psa03 value="0.0474182946" flag="0"/>
      <psa10 value="0.0072537676" flag="0"/>
      <psa30 value="0.0003522797" flag="0"/>
    </comp>
    <comp name="--.HHN">
      <acc value="0.0514915106" flag="0"/>
      <vel value="0.0220690359" flag="0"/>
      <psa03 value="0.0722708168" flag="0"/>
      <psa10 value="0.0109736185" flag="0"/>
      <psa30 value="0.0006735412" flag="0"/>
    </comp>
    <comp name="--.HHE">
      <acc value="0.0473953630" flag="0"/>
      <vel value="0.0142685203" flag="0"/>
      <psa03 value="0.0601605557" flag="0"/>
      <psa10 value="0.0131001189" flag="0"/>
      <psa30 value="0.0007498486" flag="0"/>
    </comp>
  </station>
  <station code="HORT" name="HORT" netid="HT" insttype="100" lat="40.5978" lon="23.0996">
    <comp name="--.HHE">
      <acc value="0.0056648373" flag="0"/>
      <vel value="0.0020441459" flag="0"/>
      <psa03 value="0.0107233091" flag="0"/>
      <psa10 value="0.0016572151" flag="0"/>
      <psa30 value="0.0001161696" flag="0"/>
    </comp>
    <comp name="--.HHN">
      <acc value="0.0000102344" flag="0"/>
      <vel value="0.0000023441" flag="0"/>
      <psa03 value="0.0000131765" flag="0"/>
      <psa10 value="0.0000038051" flag="0"/>
      <psa30 value="0.0000006115" flag="0"/>
    </comp>
    <comp name="--.HHZ">
      <acc value="0.0038174645" flag="0"/>
      <vel value="0.0012561744" flag="0"/>
      <psa03 value="0.0056257534" flag="0"/>
      <psa10 value="0.0010767229" flag="0"/>
      <psa30 value="0.0001400522" flag="0"/>
    </comp>
  </station>
  <station code="KAVA" name="KAVA" netid="HT" insttype="Compact," lat="40.9967" lon="24.5137">
    <comp name="--.HHE">
      <acc value="0.0331323203" flag="0"/>
      <vel value="0.0078594284" flag="0"/>
      <psa03 value="0.0329079576" flag="0"/>
      <psa10 value="0.0050288574" flag="0"/>
      <psa30 value="0.0007189984" flag="0"/>
    </comp>
    <comp name="--.HHN">
      <acc value="0.0201766105" flag="0"/>
      <vel value="0.0071345385" flag="0"/>
      <psa03 value="0.0419340796" flag="0"/>
      <psa10 value="0.0023671881" flag="0"/>
      <psa30 value="0.0004279241" flag="0"/>
    </comp>
    <comp name="--.HHZ">
      <acc value="0.0196745819" flag="0"/>
      <vel value="0.0051894208" flag="0"/>
      <psa03 value="0.0255165727" flag="0"/>
      <psa10 value="0.0028432135" flag="0"/>
      <psa30 value="0.0003381448" flag="0"/>
    </comp>
  </station>
  <station code="KOKK" name="KOKK" netid="HT" insttype="Compact," lat="40.8178" lon="23.9992">
    <comp name="--.HHN">
      <acc value="0.0163673839" flag="0"/>
      <vel value="0.0058277905" flag="0"/>
      <psa03 value="0.0314700212" flag="0"/>
      <psa10 value="0.0067898294" flag="0"/>
      <psa30 value="0.0004316706" flag="0"/>
    </comp>
    <comp name="--.HHE">
      <acc value="0.0156203724" flag="0"/>
      <vel value="0.0067648396" flag="0"/>
      <psa03 value="0.0219425991" flag="0"/>
      <psa10 value="0.0110786340" flag="0"/>
      <psa30 value="0.0005741393" flag="0"/>
    </comp>
    <comp name="--.HHZ">
      <acc value="0.0111631875" flag="0"/>
      <vel value="0.0035024069" flag="0"/>
      <psa03 value="0.0182574759" flag="0"/>
      <psa10 value="0.0045708280" flag="0"/>
      <psa30 value="0.0002874081" flag="0"/>
    </comp>
  </station>
  <station code="OUR" name="OUR" netid="HT" insttype="100" lat="40.3325" lon="23.9791">
    <comp name="--.HHZ">
      <acc value="0.0494374161" flag="0"/>
      <vel value="0.0146500296" flag="0"/>
      <psa03 value="0.0368073116" flag="0"/>
      <psa10 value="0.0073521974" flag="0"/>
      <psa30 value="0.0004806725" flag="0"/>
    </comp>
    <comp name="--.HHN">
      <acc value="0.0635876457" flag="0"/>
      <vel value="0.0177168070" flag="0"/>
      <psa03 value="0.0630353663" flag="0"/>
      <psa10 value="0.0131299239" flag="0"/>
      <psa30 value="0.0009298825" flag="0"/>
    </comp>
    <comp name="--.HHE">
      <acc value="0.0895241004" flag="0"/>
      <vel value="0.0326424039" flag="0"/>
      <psa03 value="0.0765177091" flag="0"/>
      <psa10 value="0.0107985196" flag="0"/>
      <psa30 value="0.0015207826" flag="0"/>
    </comp>
  </station>
  <station code="PAIG" name="PAIG" netid="HT" insttype="100" lat="39.9363" lon="23.6768">
    <comp name="--.HHN">
      <acc value="0.0789308261" flag="0"/>
      <vel value="0.0248575561" flag="0"/>
      <psa03 value="0.0711557648" flag="0"/>
      <psa10 value="0.0123853867" flag="0"/>
      <psa30 value="0.0011032021" flag="0"/>
    </comp>
    <comp name="--.HHZ">
      <acc value="0.0648405848" flag="0"/>
      <vel value="0.0253205438" flag="0"/>
      <psa03 value="0.0997359308" flag="0"/>
      <psa10 value="0.0263458861" flag="0"/>
      <psa30 value="0.0011625078" flag="0"/>
    </comp>
    <comp name="--.HHE">
      <acc value="0.0954572556" flag="0"/>
      <vel value="0.0318095487" flag="0"/>
      <psa03 value="0.0909491565" flag="0"/>
      <psa10 value="0.0153209043" flag="0"/>
      <psa30 value="0.0009413210" flag="0"/>
    </comp>
  </station>
  <station code="SOH" name="SOH" netid="HT" insttype="120P," lat="40.8217" lon="23.3539">
    <comp name="--.HHE">
      <acc value="0.0044725215" flag="0"/>
      <vel value="0.0029440050" flag="0"/>
      <psa03 value="0.0094202503" flag="0"/>
      <psa10 value="0.0030053849" flag="0"/>
      <psa30 value="0.0002935471" flag="0"/>
    </comp>
    <comp name="--.HHN">
      <acc value="0.0070762751" flag="0"/>
      <vel value="0.0029686611" flag="0"/>
      <psa03 value="0.0104031250" flag="0"/>
      <psa10 value="0.0024474870" flag="0"/>
      <psa30 value="0.0002114125" flag="0"/>
    </comp>
    <comp name="--.HHZ">
      <acc value="0.0042638894" flag="0"/>
      <vel value="0.0023031301" flag="0"/>
      <psa03 value="0.0057245994" flag="0"/>
      <psa10 value="0.0029728727" flag="0"/>
      <psa30 value="0.0002559869" flag="0"/>
    </comp>
  </station>
  <station code="THAS" name="THAS" netid="HT" insttype="100" lat="40.6064" lon="24.7194">
    <comp name="--.HHE">
      <acc value="0.0358464752" flag="0"/>
      <vel value="0.0103189473" flag="0"/>
      <psa03 value="0.0653457492" flag="0"/>
      <psa10 value="0.0049805603" flag="0"/>
      <psa30 value="0.0006820068" flag="0"/>
    </comp>
    <comp name="--.HHN">
      <acc value="0.0387258482" flag="0"/>
      <vel value="0.0090296659" flag="0"/>
      <psa03 value="0.0580716395" flag="0"/>
      <psa10 value="0.0033018107" flag="0"/>
      <psa30 value="0.0004904991" flag="0"/>
    </comp>
    <comp name="--.HHZ">
      <acc value="0.0304543065" flag="0"/>
      <vel value="0.0118346185" flag="0"/>
      <psa03 value="0.0461721726" flag="0"/>
      <psa10 value="0.0032794076" flag="0"/>
      <psa30 value="0.0004304317" flag="0"/>
    </comp>
  </station>
</stationlist>
