<?xml version="1.0" encoding="UTF-8" standalone="yes"?>
<!DOCTYPE earthquake SYSTEM "stationlist.dtd">
<stationlist created="" xmlns="ch.ethz.sed.shakemap.usgs.xml">
  <station code="PLN1" name="PLN1" netid="HI" insttype="CMG-5TD,ACCELEROMETER,GURALP" lat="39.998" lon="23.575">
    <comp name="--.HNZ">
      <acc value="0.1119718050" flag="0"/>
      <vel value="0.0244845556" flag="0"/>
      <psa03 value="0.0696774769" flag="0"/>
      <psa10 value="0.0159515946" flag="0"/>
      <psa30 value="0.0006008190" flag="0"/>
    </comp>
    <comp name="--.HNE">
      <acc value="0.0675772038" flag="0"/>
      <vel value="0.0298187639" flag="0"/>
      <psa03 value="0.1201806095" flag="0"/>
      <psa10 value="0.0371689673" flag="0"/>
      <psa30 value="0.0017009457" flag="0"/>
    </comp>
    <comp name="--.HNN">
      <acc value="0.0660169977" flag="0"/>
      <vel value="0.0246114750" flag="0"/>
      <psa03 value="0.1990897243" flag="0"/>
      <psa10 value="0.0350861118" flag="0"/>
      <psa30 value="0.0017782239" flag="0"/>
    </comp>
  </station>
  <station code="EFSA" name="EFSA" netid="HL" insttype="CMG-5" lat="39.5401" lon="24.9886">
    <comp name="00.HNN">
      <acc value="0.0465346576" flag="0"/>
      <vel value="0.0169918319" flag="0"/>
      <psa03 value="0.0689757648" flag="0"/>
      <psa10 value="0.0143190875" flag="0"/>
      <psa30 value="0.0008592624" flag="0"/>
    </comp>
    <comp name="00.HNE">
      <acc value="0.0375463671" flag="0"/>
      <vel value="0.0237157456" flag="0"/>
      <psa03 value="0.0915303495" flag="0"/>
      <psa10 value="0.0278402176" flag="0"/>
      <psa30 value="0.0011758695" flag="0"/>
    </comp>
    <comp name="00.HNZ">
      <acc value="0.0339081822" flag="0"/>
      <vel value="0.0105317748" flag="0"/>
      <psa03 value="0.0494851031" flag="0"/>
      <psa10 value="0.0088827395" flag="0"/>
      <psa30 value="0.0005674631" flag="0"/>
    </comp>
  </station>
  <station code="LIA" name="LIA" netid="HL" insttype="P6C" lat="39.8972" lon="25.1806">
    <comp name="--.HHN">
      <acc value="0.0590548264" flag="0"/>
      <vel value="0.0250656439" flag="0"/>
      <psa03 value="0.1533595573" flag="0"/>
      <psa10 value="0.0185871267" flag="0"/>
      <psa30 value="0.0014989619" flag="0"/>
    </comp>
    <comp name="--.HHE">
      <acc value="0.0798218668" flag="0"/>
      <vel value="0.0251459126" flag="0"/>
      <psa03 value="0.1011100460" flag="0"/>
      <psa10 value="0.0119465224" flag="0"/>
      <psa30 value="0.0010422842" flag="0"/>
    </comp>
    <comp name="--.HHZ">
      <acc value="0.0408455848" flag="0"/>
      <vel value="0.0110327019" flag="0"/>
      <psa03 value="0.0449379872" flag="0"/>
      <psa10 value="0.0098592644" flag="0"/>
      <psa30 value="0.0003232142" flag="0"/>
    </comp>
  </station>
  <station code="NEO" name="NEO" netid="HL" insttype="120" lat="39.3057" lon="23.2219">
    <comp name="--.HHZ">
      <acc value="0.0104119443" flag="0"/>
      <vel value="0.0040430977" flag="0"/>
      <psa03 value="0.0140418241" flag="0"/>
      <psa10 value="0.0028465008" flag="0"/>
      <psa30 value="0.0003216570" flag="0"/>
    </comp>
    <comp name="--.HHE">
      <acc value="0.0140800275" flag="0"/>
      <vel value="0.0052297015" flag="0"/>
      <psa03 value="0.0304796899" flag="0"/>
      <psa10 value="0.0049554505" flag="0"/>
      <psa30 value="0.0003517067" flag="0"/>
    </comp>
    <comp name="--.HHN">
      <acc value="0.0141158736" flag="0"/>
      <vel value="0.0060050694" flag="0"/>
      <psa03 value="0.0267406337" flag="0"/>
      <psa10 value="0.0051659302" flag="0"/>
      <psa30 value="0.0004395327" flag="0"/>
    </comp>
  </station>
  <station code="PLG" name="PLG" netid="HL" insttype="120" lat="40.3733" lon="23.4444">
    <comp name="--.HHN">
      <acc value="0.0107114944" flag="0"/>
      <vel value="0.0029765324" flag="0"/>
      <psa03 value="0.0107894534" flag="0"/>
      <psa10 value="0.0022967804" flag="0"/>
      <psa30 value="0.0002138168" flag="0"/>
    </comp>
    <comp name="--.HHE">
      <acc value="0.0121690360" flag="0"/>
      <vel value="0.0028661584" flag="0"/>
      <psa03 value="0.0107724965" flag="0"/>
      <psa10 value="0.0019477949" flag="0"/>
      <psa30 value="0.0002632148" flag="0"/>
    </comp>
    <comp name="--.HHZ">
      <acc value="0.0104501135" flag="0"/>
      <vel value="0.0030053338" flag="0"/>
      <psa03 value="0.0114504455" flag="0"/>
      <psa10 value="0.0017566618" flag="0"/>
      <psa30 value="0.0001677498" flag="0"/>
    </comp>
  </station>
  <station code="AOS2" name="AOS2" netid="HT" insttype="100" lat="39.1478" lon="23.8436">
    <comp name="--.HHZ">
      <acc value="0.0308542194" flag="0"/>
      <vel value="0.0081114585" flag="0"/>
      <psa03 value="0.0474182946" flag="0"/>
      <psa10 value="0.0072537678" flag="0"/>
      <psa30 value="0.0003523807" flag="0"/>
    </comp>
    <comp name="--.HHE">
      <acc value="0.0473953610" flag="0"/>
      <vel value="0.0142685211" flag="0"/>
      <psa03 value="0.0601605557" flag="0"/>
      <psa10 value="0.0131001196" flag="0"/>
      <psa30 value="0.0007499280" flag="0"/>
    </comp>
    <comp name="--.HHN">
      <acc value="0.0514915104" flag="0"/>
      <vel value="0.0220690340" flag="0"/>
      <psa03 value="0.0722708168" flag="0"/>
      <psa10 value="0.0109736186" flag="0"/>
      <psa30 value="0.0006738929" flag="0"/>
    </comp>
  </station>
  <station code="OUR" name="OUR" netid="HT" insttype="100" lat="40.3325" lon="23.9791">
    <comp name="--.HHE">
      <acc value="0.0895241007" flag="0"/>
      <vel value="0.0326424040" flag="0"/>
      <psa03 value="0.0765177091" flag="0"/>
      <psa10 value="0.0107985203" flag="0"/>
      <psa30 value="0.0015208110" flag="0"/>
    </comp>
    <comp name="--.HHZ">
      <acc value="0.0494374143" flag="0"/>
      <vel value="0.0146500292" flag="0"/>
      <psa03 value="0.0368073116" flag="0"/>
      <psa10 value="0.0073521976" flag="0"/>
      <psa30 value="0.0004805366" flag="0"/>
    </comp>
    <comp name="--.HHN">
      <acc value="0.0635876449" flag="0"/>
      <vel value="0.0177168079" flag="0"/>
      <psa03 value="0.0630353663" flag="0"/>
      <psa10 value="0.0131299240" flag="0"/>
      <psa30 value="0.0009297799" flag="0"/>
    </comp>
  </station>
  <station code="PAIG" name="PAIG" netid="HT" insttype="100" lat="39.9363" lon="23.6768">
    <comp name="--.HHZ">
      <acc value="0.0648405870" flag="0"/>
      <vel value="0.0253205438" flag="0"/>
      <psa03 value="0.0997359308" flag="0"/>
      <psa10 value="0.0263458855" flag="0"/>
      <psa30 value="0.0011623640" flag="0"/>
    </comp>
    <comp name="--.HHE">
      <acc value="0.0954572540" flag="0"/>
      <vel value="0.0318095490" flag="0"/>
      <psa03 value="0.0909491565" flag="0"/>
      <psa10 value="0.0153209051" flag="0"/>
      <psa30 value="0.0009412824" flag="0"/>
    </comp>
    <comp name="--.HHN">
      <acc value="0.0789308261" flag="0"/>
      <vel value="0.0248575558" flag="0"/>
      <psa03 value="0.0711557648" flag="0"/>
      <psa10 value="0.0123853862" flag="0"/>
      <psa30 value="0.0011031651" flag="0"/>
    </comp>
  </station>
</stationlist>
