<?xml version="1.0" encoding="UTF-8" standalone="yes"?>
<!DOCTYPE earthquake SYSTEM "stationlist.dtd">
<stationlist created="" xmlns="ch.ethz.sed.shakemap.usgs.xml">
  <station code="PLN1" name="PLN1" netid="HI" insttype="CMG-5TD,ACCELEROMETER,GURALP" lat="39.998" lon="23.575">
    <comp name="--.HNE">
      <acc value="0.0675771950" flag="0"/>
      <vel value="0.0298187662" flag="0"/>
      <psa03 value="0.1201806095" flag="0"/>
      <psa10 value="0.0371689669" flag="0"/>
      <psa30 value="0.0017011785" flag="0"/>
    </comp>
    <comp name="--.HNZ">
      <acc value="0.1119718050" flag="0"/>
      <vel value="0.0244845553" flag="0"/>
      <psa03 value="0.0696774769" flag="0"/>
      <psa10 value="0.0159515946" flag="0"/>
      <psa30 value="0.0006007495" flag="0"/>
    </comp>
    <comp name="--.HNN">
      <acc value="0.0660169794" flag="0"/>
      <vel value="0.0246114737" flag="0"/>
      <psa03 value="0.1990897243" flag="0"/>
      <psa10 value="0.0350861117" flag="0"/>
      <psa30 value="0.0017782195" flag="0"/>
    </comp>
  </station>
  <station code="EFSA" name="EFSA" netid="HL" insttype="CMG-5" lat="39.5401" lon="24.9886">
    <comp name="00.HNZ">
      <acc value="0.0339081784" flag="0"/>
      <vel value="0.0105317729" flag="0"/>
      <psa03 value="0.0494851031" flag="0"/>
      <psa10 value="0.0088827430" flag="0"/>
      <psa30 value="0.0005687189" flag="0"/>
    </comp>
    <comp name="00.HNE">
      <acc value="0.0375463619" flag="0"/>
      <vel value="0.0237157439" flag="0"/>
      <psa03 value="0.0915303495" flag="0"/>
      <psa10 value="0.0278402182" flag="0"/>
      <psa30 value="0.0011753109" flag="0"/>
    </comp>
    <comp name="00.HNN">
      <acc value="0.0465346608" flag="0"/>
      <vel value="0.0169918361" flag="0"/>
      <psa03 value="0.0689757648" flag="0"/>
      <psa10 value="0.0143190886" flag="0"/>
      <psa30 value="0.0008580298" flag="0"/>
    </comp>
  </station>
  <station code="LIA" name="LIA" netid="HL" insttype="P6C" lat="39.8972" lon="25.1806">
    <comp name="--.HHN">
      <acc value="0.0590548267" flag="0"/>
      <vel value="0.0250656448" flag="0"/>
      <psa03 value="0.1533595573" flag="0"/>
      <psa10 value="0.0185871262" flag="0"/>
      <psa30 value="0.0014994555" flag="0"/>
    </comp>
    <comp name="--.HHE">
      <acc value="0.0798218679" flag="0"/>
      <vel value="0.0251459132" flag="0"/>
      <psa03 value="0.1011100460" flag="0"/>
      <psa10 value="0.0119465225" flag="0"/>
      <psa30 value="0.0010425809" flag="0"/>
    </comp>
    <comp name="--.HHZ">
      <acc value="0.0408455848" flag="0"/>
      <vel value="0.0110326989" flag="0"/>
      <psa03 value="0.0449379872" flag="0"/>
      <psa10 value="0.0098592648" flag="0"/>
      <psa30 value="0.0003234518" flag="0"/>
    </comp>
  </station>
  <station code="NEO" name="NEO" netid="HL" insttype="120" lat="39.3057" lon="23.2219">
    <comp name="--.HHZ">
      <acc value="0.0104119474" flag="0"/>
      <vel value="0.0040430976" flag="0"/>
      <psa03 value="0.0140418241" flag="0"/>
      <psa10 value="0.0028465001" flag="0"/>
      <psa30 value="0.0003214366" flag="0"/>
    </comp>
    <comp name="--.HHE">
      <acc value="0.0140800261" flag="0"/>
      <vel value="0.0052297013" flag="0"/>
      <psa03 value="0.0304796899" flag="0"/>
      <psa10 value="0.0049554505" flag="0"/>
      <psa30 value="0.0003516627" flag="0"/>
    </comp>
    <comp name="--.HHN">
      <acc value="0.0141158744" flag="0"/>
      <vel value="0.0060050688" flag="0"/>
      <psa03 value="0.0267406337" flag="0"/>
      <psa10 value="0.0051659298" flag="0"/>
      <psa30 value="0.0004395597" flag="0"/>
    </comp>
  </station>
  <station code="PLG" name="PLG" netid="HL" insttype="120" lat="40.3733" lon="23.4444">
    <comp name="--.HHE">
      <acc value="0.0121690365" flag="0"/>
      <vel value="0.0028661582" flag="0"/>
      <psa03 value="0.0107724965" flag="0"/>
      <psa10 value="0.0019477949" flag="0"/>
      <psa30 value="0.0002632033" flag="0"/>
    </comp>
    <comp name="--.HHN">
      <acc value="0.0107114936" flag="0"/>
      <vel value="0.0029765328" flag="0"/>
      <psa03 value="0.0107894534" flag="0"/>
      <psa10 value="0.0022967804" flag="0"/>
      <psa30 value="0.0002138158" flag="0"/>
    </comp>
    <comp name="--.HHZ">
      <acc value="0.0104501125" flag="0"/>
      <vel value="0.0030053339" flag="0"/>
      <psa03 value="0.0114504455" flag="0"/>
      <psa10 value="0.0017566618" flag="0"/>
      <psa30 value="0.0001677731" flag="0"/>
    </comp>
  </station>
  <station code="SKY" name="SKY" netid="HL" insttype="120" lat="38.8831" lon="24.5482">
    <comp name="--.HHE">
      <acc value="0.0000157356" flag="0"/>
      <vel value="0.0000123012" flag="0"/>
      <psa03 value="0.0000136436" flag="0"/>
      <psa10 value="0.0000105307" flag="0"/>
      <psa30 value="0.0000064823" flag="0"/>
    </comp>
    <comp name="--.HHN">
      <acc value="0.1173741821" flag="0"/>
      <vel value="0.0374990637" flag="0"/>
      <psa03 value="0.1684019523" flag="0"/>
      <psa10 value="0.0090763157" flag="0"/>
      <psa30 value="0.0008846657" flag="0"/>
    </comp>
    <comp name="--.HHZ">
      <acc value="0.0822044761" flag="0"/>
      <vel value="0.0172221062" flag="0"/>
      <psa03 value="0.0515616972" flag="0"/>
      <psa10 value="0.0067836889" flag="0"/>
      <psa30 value="0.0006201798" flag="0"/>
    </comp>
  </station>
  <station code="AOS2" name="AOS2" netid="HT" insttype="100" lat="39.1478" lon="23.8436">
    <comp name="--.HHE">
      <acc value="0.0473953632" flag="0"/>
      <vel value="0.0142685190" flag="0"/>
      <psa03 value="0.0601605557" flag="0"/>
      <psa10 value="0.0131001186" flag="0"/>
      <psa30 value="0.0007496704" flag="0"/>
    </comp>
    <comp name="--.HHN">
      <acc value="0.0514915105" flag="0"/>
      <vel value="0.0220690348" flag="0"/>
      <psa03 value="0.0722708168" flag="0"/>
      <psa10 value="0.0109736185" flag="0"/>
      <psa30 value="0.0006733788" flag="0"/>
    </comp>
    <comp name="--.HHZ">
      <acc value="0.0308542202" flag="0"/>
      <vel value="0.0081114587" flag="0"/>
      <psa03 value="0.0474182946" flag="0"/>
      <psa10 value="0.0072537677" flag="0"/>
      <psa30 value="0.0003521885" flag="0"/>
    </comp>
  </station>
  <station code="KOKK" name="KOKK" netid="HT" insttype="Compact," lat="40.8178" lon="23.9992">
    <comp name="--.HHN">
      <acc value="0.0163673867" flag="0"/>
      <vel value="0.0058277904" flag="0"/>
      <psa03 value="0.0314700212" flag="0"/>
      <psa10 value="0.0067898294" flag="0"/>
      <psa30 value="0.0004316737" flag="0"/>
    </comp>
    <comp name="--.HHZ">
      <acc value="0.0111631901" flag="0"/>
      <vel value="0.0035024064" flag="0"/>
      <psa03 value="0.0182574759" flag="0"/>
      <psa10 value="0.0045708280" flag="0"/>
      <psa30 value="0.0002874246" flag="0"/>
    </comp>
    <comp name="--.HHE">
      <acc value="0.0156203712" flag="0"/>
      <vel value="0.0067648400" flag="0"/>
      <psa03 value="0.0219425991" flag="0"/>
      <psa10 value="0.0110786340" flag="0"/>
      <psa30 value="0.0005741408" flag="0"/>
    </comp>
  </station>
  <station code="OUR" name="OUR" netid="HT" insttype="100" lat="40.3325" lon="23.9791">
    <comp name="--.HHE">
      <acc value="0.0895241003" flag="0"/>
      <vel value="0.0326424038" flag="0"/>
      <psa03 value="0.0765177091" flag="0"/>
      <psa10 value="0.0107985196" flag="0"/>
      <psa30 value="0.0015207768" flag="0"/>
    </comp>
    <comp name="--.HHN">
      <acc value="0.0635876466" flag="0"/>
      <vel value="0.0177168073" flag="0"/>
      <psa03 value="0.0630353663" flag="0"/>
      <psa10 value="0.0131299239" flag="0"/>
      <psa30 value="0.0009298977" flag="0"/>
    </comp>
    <comp name="--.HHZ">
      <acc value="0.0494374142" flag="0"/>
      <vel value="0.0146500295" flag="0"/>
      <psa03 value="0.0368073116" flag="0"/>
      <psa10 value="0.0073521974" flag="0"/>
      <psa30 value="0.0004806888" flag="0"/>
    </comp>
  </station>
  <station code="PAIG" name="PAIG" netid="HT" insttype="100" lat="39.9363" lon="23.6768">
    <comp name="--.HHE">
      <acc value="0.0954572554" flag="0"/>
      <vel value="0.0318095487" flag="0"/>
      <psa03 value="0.0909491565" flag="0"/>
      <psa10 value="0.0153209042" flag="0"/>
      <psa30 value="0.0009413386" flag="0"/>
    </comp>
    <comp name="--.HHN">
      <acc value="0.0789308262" flag="0"/>
      <vel value="0.0248575564" flag="0"/>
      <psa03 value="0.0711557648" flag="0"/>
      <psa10 value="0.0123853867" flag="0"/>
      <psa30 value="0.0011032080" flag="0"/>
    </comp>
    <comp name="--.HHZ">
      <acc value="0.0648405854" flag="0"/>
      <vel value="0.0253205440" flag="0"/>
      <psa03 value="0.0997359308" flag="0"/>
      <psa10 value="0.0263458862" flag="0"/>
      <psa30 value="0.0011625302" flag="0"/>
    </comp>
  </station>
  <station code="THAS" name="THAS" netid="HT" insttype="100" lat="40.6064" lon="24.7194">
    <comp name="--.HHZ">
      <acc value="0.0304543084" flag="0"/>
      <vel value="0.0118346190" flag="0"/>
      <psa03 value="0.0461721726" flag="0"/>
      <psa10 value="0.0032794076" flag="0"/>
      <psa30 value="0.0004304449" flag="0"/>
    </comp>
    <comp name="--.HHE">
      <acc value="0.0358464754" flag="0"/>
      <vel value="0.0103189474" flag="0"/>
      <psa03 value="0.0653457492" flag="0"/>
      <psa10 value="0.0049805603" flag="0"/>
      <psa30 value="0.0006820162" flag="0"/>
    </comp>
    <comp name="--.HHN">
      <acc value="0.0387258491" flag="0"/>
      <vel value="0.0090296658" flag="0"/>
      <psa03 value="0.0580716395" flag="0"/>
      <psa10 value="0.0033018107" flag="0"/>
      <psa30 value="0.0004905069" flag="0"/>
    </comp>
  </station>
</stationlist>
