<?xml version="1.0" encoding="UTF-8" standalone="yes"?>
<!DOCTYPE earthquake SYSTEM "stationlist.dtd">
<stationlist created="" xmlns="ch.ethz.sed.shakemap.usgs.xml">
  <station code="CLDR" name="CLDR" netid="KO" insttype="CMG-3ESP" lat="39.144" lon="43.9172">
    <comp name="--.HHE">
      <acc value="0.0121328725" flag="0"/>
      <vel value="0.0075577045" flag="0"/>
      <psa03 value="0.0483936372" flag="0"/>
      <psa10 value="0.0108160137" flag="0"/>
      <psa30 value="0.0022074663" flag="0"/>
    </comp>
    <comp name="--.HHZ">
      <acc value="0.0046725847" flag="0"/>
      <vel value="0.0027333393" flag="0"/>
      <psa03 value="0.0188675046" flag="0"/>
      <psa10 value="0.0034307254" flag="0"/>
      <psa30 value="0.0005375681" flag="0"/>
    </comp>
    <comp name="--.HHN">
      <acc value="0.0072636056" flag="0"/>
      <vel value="0.0046773922" flag="0"/>
      <psa03 value="0.0343395135" flag="0"/>
      <psa10 value="0.0099199568" flag="0"/>
      <psa30 value="0.0011706442" flag="0"/>
    </comp>
  </station>
</stationlist>
