<stationlist created="1778069705">
	<station code="KARP" name="KARP" netid="GE" source="GEOFON" insttype="" lat="35.5471" lon="27.16106">
		<comp name="--.HNE" depth="0.0">
			<acc value="0.233713102948929" flag="0"/>
			<vel value="0.0584183839014471" flag="0"/>
			<psa03 value="0.239147094374663" flag="0"/>
			<psa10 value="0.0182977728186084" flag="0"/>
			<psa30 value="0.00219460523462623" flag="0"/>
		</comp>
		<comp name="--.HNN" depth="0.0">
			<acc value="0.201384204204562" flag="0"/>
			<vel value="0.0554110041311875" flag="0"/>
			<psa03 value="0.226395565488455" flag="0"/>
			<psa10 value="0.0306036693268979" flag="0"/>
			<psa30 value="0.00243397604003398" flag="0"/>
		</comp>
		<comp name="--.HNZ" depth="0.0">
			<acc value="0.13614371840652" flag="0"/>
			<vel value="0.0294927855536024" flag="0"/>
			<psa03 value="0.143443514418179" flag="0"/>
			<psa10 value="0.00974485260145959" flag="0"/>
			<psa30 value="0.00165769875520697" flag="0"/>
		</comp>
	</station>
	<station code="KSS1" name="KSS1" netid="HI" source="ITSAK Strong Motion Network" insttype="" lat="35.4189" lon="26.9207">
		<comp name="--.HNE" depth="0.0">
			<acc value="0.273372089984041" flag="0"/>
			<vel value="0.0636804683763258" flag="0"/>
			<psa03 value="0.188767369722489" flag="0"/>
			<psa10 value="0.0371190294546506" flag="0"/>
			<psa30 value="0.00470285333764654" flag="0"/>
		</comp>
		<comp name="--.HNN" depth="0.0">
			<acc value="0.332014539483235" flag="0"/>
			<vel value="0.0576703844416648" flag="0"/>
			<psa03 value="0.208319714014673" flag="0"/>
			<psa10 value="0.0412384444179949" flag="0"/>
			<psa30 value="0.0081627681754375" flag="0"/>
		</comp>
		<comp name="--.HNZ" depth="0.0">
			<acc value="0.220634866804426" flag="0"/>
			<vel value="0.040547399644568" flag="0"/>
			<psa03 value="0.0643840353236931" flag="0"/>
			<psa10 value="0.0146092253049981" flag="0"/>
			<psa30 value="0.00449614434307013" flag="0"/>
		</comp>
	</station>
	<station code="SIT2" name="SIT2" netid="HI" source="ITSAK Strong Motion Network" insttype="" lat="35.2059" lon="26.107">
		<comp name="--.HNE" depth="0.0">
			<acc value="0.159216266957184" flag="0"/>
			<vel value="0.118652890695528" flag="0"/>
			<psa03 value="0.523439075227161" flag="0"/>
			<psa10 value="0.0495658639137876" flag="0"/>
			<psa30 value="0.00408809541871149" flag="0"/>
		</comp>
		<comp name="--.HNN" depth="0.0">
			<acc value="0.159739726081655" flag="0"/>
			<vel value="0.0994742006351402" flag="0"/>
			<psa03 value="0.477175633583868" flag="0"/>
			<psa10 value="0.0576838898826069" flag="0"/>
			<psa30 value="0.00357221777640282" flag="0"/>
		</comp>
		<comp name="--.HNZ" depth="0.0">
			<acc value="0.109905805656909" flag="0"/>
			<vel value="0.0420972986917808" flag="0"/>
			<psa03 value="0.235030811365782" flag="0"/>
			<psa10 value="0.0142266794384119" flag="0"/>
			<psa30 value="0.00108499851049309" flag="0"/>
		</comp>
	</station>
	<station code="AGNA" name="AGNA" netid="HL" source="National Observatory of Athens Seismic Network" insttype="" lat="35.1895" lon="25.71853">
		<comp name="00.HNE" depth="0.0">
			<acc value="0.0259968599891665" flag="0"/>
			<vel value="0.0129693169512329" flag="0"/>
			<psa03 value="0.0758322578899953" flag="0"/>
			<psa10 value="0.0128986279083015" flag="0"/>
			<psa30 value="0.000518834370232857" flag="0"/>
		</comp>
		<comp name="00.HNN" depth="0.0">
			<acc value="0.0229805258132504" flag="0"/>
			<vel value="0.012057555037744" flag="0"/>
			<psa03 value="0.0844569750683964" flag="0"/>
			<psa10 value="0.0151513580781143" flag="0"/>
			<psa30 value="0.00133414983921311" flag="0"/>
		</comp>
		<comp name="00.HNZ" depth="0.0">
			<acc value="0.014127379852973" flag="0"/>
			<vel value="0.00590393076483917" flag="0"/>
			<psa03 value="0.0281487449245179" flag="0"/>
			<psa10 value="0.00684315238775434" flag="0"/>
			<psa30 value="0.000483876325264658" flag="0"/>
		</comp>
	</station>
	<station code="KARP" name="KARP" netid="HL" source="National Observatory of Athens Seismic Network" insttype="" lat="35.5471" lon="27.16106">
		<comp name="--.HNE" depth="0.0">
			<acc value="0.234379278649336" flag="0"/>
			<vel value="0.0573234431898128" flag="0"/>
			<psa03 value="0.234314936059889" flag="0"/>
			<psa10 value="0.0179273073478091" flag="0"/>
			<psa30 value="0.00215031045007414" flag="0"/>
		</comp>
		<comp name="--.HNN" depth="0.0">
			<acc value="0.199916602025473" flag="0"/>
			<vel value="0.0557558419473213" flag="0"/>
			<psa03 value="0.221787118206773" flag="0"/>
			<psa10 value="0.0299835423431686" flag="0"/>
			<psa30 value="0.0023843121906877" flag="0"/>
		</comp>
		<comp name="--.HNZ" depth="0.0">
			<acc value="0.141812224993134" flag="0"/>
			<vel value="0.0285318380591072" flag="0"/>
			<psa03 value="0.140535270987992" flag="0"/>
			<psa10 value="0.00954753947027301" flag="0"/>
			<psa30 value="0.00162414210024326" flag="0"/>
		</comp>
	</station>
	<station code="SIVA" name="SIVA" netid="HL" source="National Observatory of Athens Seismic Network" insttype="" lat="35.01777" lon="24.81204">
		<comp name="00.HNE" depth="0.0">
			<acc value="0.00991317779032824" flag="0"/>
			<vel value="0.00619907270944462" flag="0"/>
			<psa03 value="0.0294403719548228" flag="0"/>
			<psa10 value="0.00597979591453202" flag="0"/>
			<psa30 value="0.000700662955642136" flag="0"/>
		</comp>
		<comp name="00.HNN" depth="0.0">
			<acc value="0.0085760112411771" flag="0"/>
			<vel value="0.00546967505373455" flag="0"/>
			<psa03 value="0.0192838910524751" flag="0"/>
			<psa10 value="0.00899184126407407" flag="0"/>
			<psa30 value="0.000646077463567844" flag="0"/>
		</comp>
		<comp name="00.HNZ" depth="0.0">
			<acc value="0.00510320484865946" flag="0"/>
			<vel value="0.00288855224060489" flag="0"/>
			<psa03 value="0.0130647243325354" flag="0"/>
			<psa10 value="0.00293150937762917" flag="0"/>
			<psa30 value="0.000432209715932505" flag="0"/>
		</comp>
	</station>
</stationlist>
