<?xml version="1.0" encoding="UTF-8" standalone="yes"?>
<!DOCTYPE earthquake SYSTEM "stationlist.dtd">
<stationlist created="" xmlns="ch.ethz.sed.shakemap.usgs.xml">
  <station code="KARP" name="KARP" netid="GE" insttype="STS-2/N" lat="35.5471" lon="27.1611">
    <comp name="--.HHZ">
      <acc value="0.1884821032" flag="0"/>
      <vel value="0.0347908081" flag="0"/>
      <psa03 value="0.1756655159" flag="0"/>
      <psa10 value="0.0119950178" flag="0"/>
      <psa30 value="0.0019380044" flag="0"/>
    </comp>
    <comp name="--.HHN">
      <acc value="0.2868424366" flag="0"/>
      <vel value="0.0710901158" flag="0"/>
      <psa03 value="0.2731423900" flag="0"/>
      <psa10 value="0.0349991648" flag="0"/>
      <psa30 value="0.0025529778" flag="0"/>
    </comp>
  </station>
  <station code="ZKR" name="ZKR" netid="GE" insttype="STS-2/N" lat="35.1147" lon="26.2169">
    <comp name="--.HHE">
      <acc value="0.1377952154" flag="0"/>
      <vel value="0.0618491879" flag="0"/>
      <psa03 value="0.2541883924" flag="0"/>
      <psa10 value="0.0265019452" flag="0"/>
      <psa30 value="0.0020711609" flag="0"/>
    </comp>
    <comp name="--.HHN">
      <acc value="0.0528313466" flag="0"/>
      <vel value="0.0125978177" flag="0"/>
      <psa03 value="0.0665530156" flag="0"/>
      <psa10 value="0.0118582308" flag="0"/>
      <psa30 value="0.0008754453" flag="0"/>
    </comp>
    <comp name="--.HHZ">
      <acc value="0.0548912675" flag="0"/>
      <vel value="0.0149384490" flag="0"/>
      <psa03 value="0.0739707388" flag="0"/>
      <psa10 value="0.0191422653" flag="0"/>
      <psa30 value="0.0008735428" flag="0"/>
    </comp>
  </station>
  <station code="SIT2" name="SIT2" netid="HI" insttype="CMG-5TD,ACCELEROMETER,GURALP" lat="35.2059" lon="26.107">
    <comp name="--.HNE">
      <acc value="0.1595479178" flag="0"/>
      <vel value="0.1179078488" flag="0"/>
      <psa03 value="0.5266831257" flag="0"/>
      <psa10 value="0.0495460344" flag="0"/>
      <psa30 value="0.0040740882" flag="0"/>
    </comp>
    <comp name="--.HNZ">
      <acc value="0.1092147441" flag="0"/>
      <vel value="0.0412116517" flag="0"/>
      <psa03 value="0.2346618429" flag="0"/>
      <psa10 value="0.0141364125" flag="0"/>
      <psa30 value="0.0010525727" flag="0"/>
    </comp>
    <comp name="--.HNN">
      <acc value="0.1594293403" flag="0"/>
      <vel value="0.0985945536" flag="0"/>
      <psa03 value="0.4773644552" flag="0"/>
      <psa10 value="0.0575002108" flag="0"/>
      <psa30 value="0.0037062055" flag="0"/>
    </comp>
  </station>
  <station code="KARP" name="KARP" netid="HL" insttype="120" lat="35.5471" lon="27.1611">
    <comp name="--.HHZ">
      <acc value="0.1647891528" flag="0"/>
      <vel value="0.0334816915" flag="0"/>
      <psa03 value="0.1703075627" flag="0"/>
      <psa10 value="0.0118346426" flag="0"/>
      <psa30 value="0.0019300574" flag="0"/>
    </comp>
    <comp name="--.HHE">
      <acc value="0.2407932369" flag="0"/>
      <vel value="0.0669023505" flag="0"/>
      <psa03 value="0.2561556779" flag="0"/>
      <psa10 value="0.0213800408" flag="0"/>
      <psa30 value="0.0024059054" flag="0"/>
    </comp>
    <comp name="--.HHN">
      <acc value="0.2653867385" flag="0"/>
      <vel value="0.0685402212" flag="0"/>
      <psa03 value="0.2630285624" flag="0"/>
      <psa10 value="0.0347354677" flag="0"/>
      <psa30 value="0.0025354006" flag="0"/>
    </comp>
  </station>
  <station code="NPS" name="NPS" netid="HL" insttype="CMG3ESPC-120s" lat="35.2613" lon="25.6104">
    <comp name="--.HHE">
      <acc value="0.0176314804" flag="0"/>
      <vel value="0.0075335215" flag="0"/>
      <psa03 value="0.0378360753" flag="0"/>
      <psa10 value="0.0054245494" flag="0"/>
      <psa30 value="0.0003162052" flag="0"/>
    </comp>
    <comp name="--.HHZ">
      <acc value="0.0339773576" flag="0"/>
      <vel value="0.0105262554" flag="0"/>
      <psa03 value="0.0394198560" flag="0"/>
      <psa10 value="0.0035491346" flag="0"/>
      <psa30 value="0.0007793622" flag="0"/>
    </comp>
    <comp name="--.HHN">
      <acc value="0.0345396282" flag="0"/>
      <vel value="0.0142192702" flag="0"/>
      <psa03 value="0.0603518424" flag="0"/>
      <psa10 value="0.0105508971" flag="0"/>
      <psa30 value="0.0008212063" flag="0"/>
    </comp>
  </station>
  <station code="ZKR" name="ZKR" netid="HL" insttype="120" lat="35.1147" lon="26.2169">
    <comp name="--.HHE">
      <acc value="0.1336673063" flag="0"/>
      <vel value="0.0601805547" flag="0"/>
      <psa03 value="0.2473675973" flag="0"/>
      <psa10 value="0.0263025743" flag="0"/>
      <psa30 value="0.0020497547" flag="0"/>
    </comp>
    <comp name="--.HHN">
      <acc value="0.0517039093" flag="0"/>
      <vel value="0.0121713458" flag="0"/>
      <psa03 value="0.0646373858" flag="0"/>
      <psa10 value="0.0117549694" flag="0"/>
      <psa30 value="0.0008756151" flag="0"/>
    </comp>
    <comp name="--.HHZ">
      <acc value="0.0542851923" flag="0"/>
      <vel value="0.0144938176" flag="0"/>
      <psa03 value="0.0720744502" flag="0"/>
      <psa10 value="0.0190335587" flag="0"/>
      <psa30 value="0.0008650606" flag="0"/>
    </comp>
  </station>
</stationlist>
