<?xml version="1.0" encoding="UTF-8" standalone="yes"?>
<!DOCTYPE earthquake SYSTEM "stationlist.dtd">
<stationlist created="" xmlns="ch.ethz.sed.shakemap.usgs.xml">
  <station code="AKS" name="AKS" netid="KO" insttype="CMG-5T" commtype="DIG" lat="38.8785" lon="27.8129">
    <comp name="--.HNE">
      <acc value="0.1116169855" flag="0"/>
      <vel value="0.0321529528" flag="0"/>
      <psa03 value="0.1815320936" flag="0"/>
      <psa10 value="0.0277217333" flag="0"/>
      <psa30 value="0.0027347597" flag="0"/>
    </comp>
    <comp name="--.HNZ">
      <acc value="0.0738007569" flag="0"/>
      <vel value="0.0131515336" flag="0"/>
      <psa03 value="0.0500271182" flag="0"/>
      <psa10 value="0.0100196541" flag="0"/>
      <psa30 value="0.0018719787" flag="0"/>
    </comp>
    <comp name="--.HNN">
      <acc value="0.1382356419" flag="0"/>
      <vel value="0.0368385751" flag="0"/>
      <psa03 value="0.1787122489" flag="0"/>
      <psa10 value="0.0172476711" flag="0"/>
      <psa30 value="0.0030983987" flag="0"/>
    </comp>
  </station>
  <station code="BALB" name="BALB" netid="KO" insttype="CMG-5T" commtype="DIG" lat="39.6507" lon="27.8642">
    <comp name="--.HNE">
      <acc value="0.0523500599" flag="0"/>
      <vel value="0.0276466909" flag="0"/>
      <psa03 value="0.2041329100" flag="0"/>
      <psa10 value="0.0320921199" flag="0"/>
      <psa30 value="0.0032886356" flag="0"/>
    </comp>
    <comp name="--.HNN">
      <acc value="0.0563684457" flag="0"/>
      <vel value="0.0249720530" flag="0"/>
      <psa03 value="0.1373042293" flag="0"/>
      <psa10 value="0.0328565398" flag="0"/>
      <psa30 value="0.0030471996" flag="0"/>
    </comp>
    <comp name="--.HNZ">
      <acc value="0.0422846482" flag="0"/>
      <vel value="0.0156138698" flag="0"/>
      <psa03 value="0.1145536457" flag="0"/>
      <psa10 value="0.0147243988" flag="0"/>
      <psa30 value="0.0015933455" flag="0"/>
    </comp>
  </station>
  <station code="DST" name="DST" netid="KO" insttype="CMG-5T" commtype="DIG" lat="39.6041" lon="28.6267">
    <comp name="--.HNE">
      <acc value="0.0479062814" flag="0"/>
      <vel value="0.0108409468" flag="0"/>
      <psa03 value="0.0542503876" flag="0"/>
      <psa10 value="0.0061333142" flag="0"/>
      <psa30 value="0.0009905568" flag="0"/>
    </comp>
    <comp name="--.HNZ">
      <acc value="0.0464306007" flag="0"/>
      <vel value="0.0130423142" flag="0"/>
      <psa03 value="0.0662089681" flag="0"/>
      <psa10 value="0.0057595344" flag="0"/>
      <psa30 value="0.0008672817" flag="0"/>
    </comp>
    <comp name="--.HNN">
      <acc value="0.0430428931" flag="0"/>
      <vel value="0.0122580689" flag="0"/>
      <psa03 value="0.0435974034" flag="0"/>
      <psa10 value="0.0113919219" flag="0"/>
      <psa30 value="0.0011947243" flag="0"/>
    </comp>
  </station>
  <station code="GEDZ" name="GEDZ" netid="KO" insttype="CMG-6T" commtype="DIG" lat="39.0445" lon="29.4105">
    <comp name="--.HHZ">
      <acc value="0.0660189332" flag="0"/>
      <vel value="0.0128641263" flag="0"/>
      <psa03 value="0.0845786681" flag="0"/>
      <psa10 value="0.0161769664" flag="0"/>
      <psa30 value="0.0008529818" flag="0"/>
    </comp>
    <comp name="--.HHE">
      <acc value="0.0888487182" flag="0"/>
      <vel value="0.0359131596" flag="0"/>
      <psa03 value="0.1780990102" flag="0"/>
      <psa10 value="0.0482123667" flag="0"/>
      <psa30 value="0.0019506308" flag="0"/>
    </comp>
    <comp name="--.HHN">
      <acc value="0.0969415229" flag="0"/>
      <vel value="0.0390020771" flag="0"/>
      <psa03 value="0.2447484266" flag="0"/>
      <psa10 value="0.0494227719" flag="0"/>
      <psa30 value="0.0029137747" flag="0"/>
    </comp>
  </station>
  <station code="GONE" name="GONE" netid="KO" insttype="CMG-5T" commtype="DIG" lat="40.0466" lon="27.686">
    <comp name="--.HNZ">
      <acc value="0.0136061322" flag="0"/>
      <vel value="0.0040400552" flag="0"/>
      <psa03 value="0.0273000634" flag="0"/>
      <psa10 value="0.0052286404" flag="0"/>
      <psa30 value="0.0007052825" flag="0"/>
    </comp>
    <comp name="--.HNE">
      <acc value="0.0193733849" flag="0"/>
      <vel value="0.0138637310" flag="0"/>
      <psa03 value="0.0403372262" flag="0"/>
      <psa10 value="0.0170274430" flag="0"/>
      <psa30 value="0.0020381992" flag="0"/>
    </comp>
    <comp name="--.HNN">
      <acc value="0.0298482301" flag="0"/>
      <vel value="0.0139263061" flag="0"/>
      <psa03 value="0.1140110696" flag="0"/>
      <psa10 value="0.0180015939" flag="0"/>
      <psa30 value="0.0015000852" flag="0"/>
    </comp>
  </station>
  <station code="GORD" name="GORD" netid="KO" insttype="CMG-5T" commtype="DIG" lat="38.9088" lon="28.1769">
    <comp name="--.HNE">
      <acc value="0.1513554957" flag="0"/>
      <vel value="0.0578763815" flag="0"/>
      <psa03 value="0.2901669134" flag="0"/>
      <psa10 value="0.0895331295" flag="0"/>
      <psa30 value="0.0061319397" flag="0"/>
    </comp>
    <comp name="--.HNN">
      <acc value="0.1685720070" flag="0"/>
      <vel value="0.1129352797" flag="0"/>
      <psa03 value="0.3903347760" flag="0"/>
      <psa10 value="0.1165274089" flag="0"/>
      <psa30 value="0.0051782909" flag="0"/>
    </comp>
    <comp name="--.HNZ">
      <acc value="0.1461665803" flag="0"/>
      <vel value="0.0557213452" flag="0"/>
      <psa03 value="0.2161089436" flag="0"/>
      <psa10 value="0.0615628496" flag="0"/>
      <psa30 value="0.0028913410" flag="0"/>
    </comp>
  </station>
  <station code="KULA" name="KULA" netid="KO" insttype="CMG-3T" commtype="DIG" lat="38.5145" lon="28.6607">
    <comp name="--.HHZ">
      <acc value="0.0343474463" flag="0"/>
      <vel value="0.0084005726" flag="0"/>
      <psa03 value="0.0487836403" flag="0"/>
      <psa10 value="0.0076431251" flag="0"/>
      <psa30 value="0.0011384107" flag="0"/>
    </comp>
  </station>
  <station code="ORLT" name="ORLT" netid="KO" insttype="CMG-5T" commtype="DIG" lat="40.0452" lon="28.8914">
    <comp name="--.HNE">
      <acc value="0.0531901669" flag="0"/>
      <vel value="0.0223156732" flag="0"/>
      <psa03 value="0.1187207603" flag="0"/>
      <psa10 value="0.0266825454" flag="0"/>
      <psa30 value="0.0011468938" flag="0"/>
    </comp>
    <comp name="--.HNN">
      <acc value="0.0467467255" flag="0"/>
      <vel value="0.0271628658" flag="0"/>
      <psa03 value="0.1337988233" flag="0"/>
      <psa10 value="0.0322010839" flag="0"/>
      <psa30 value="0.0019580839" flag="0"/>
    </comp>
    <comp name="--.HNZ">
      <acc value="0.0197797616" flag="0"/>
      <vel value="0.0111610372" flag="0"/>
      <psa03 value="0.0481524592" flag="0"/>
      <psa10 value="0.0168479321" flag="0"/>
      <psa30 value="0.0014287638" flag="0"/>
    </comp>
  </station>
  <station code="SHAP" name="SHAP" netid="KO" insttype="CMG-5T" commtype="DIG" lat="39.0231" lon="29.222">
    <comp name="--.HNE">
      <acc value="0.1191085302" flag="0"/>
      <vel value="0.0226659075" flag="0"/>
      <psa03 value="0.1369027552" flag="0"/>
      <psa10 value="0.0079490268" flag="0"/>
      <psa30 value="0.0010299115" flag="0"/>
    </comp>
    <comp name="--.HNN">
      <acc value="0.0779768091" flag="0"/>
      <vel value="0.0243943263" flag="0"/>
      <psa03 value="0.1217877584" flag="0"/>
      <psa10 value="0.0158862610" flag="0"/>
      <psa30 value="0.0013036558" flag="0"/>
    </comp>
    <comp name="--.HNZ">
      <acc value="0.0657352783" flag="0"/>
      <vel value="0.0095921809" flag="0"/>
      <psa03 value="0.0438974086" flag="0"/>
      <psa10 value="0.0060627437" flag="0"/>
      <psa30 value="0.0007990293" flag="0"/>
    </comp>
  </station>
  <station code="SIMA" name="SIMA" netid="KO" insttype="CMG-6T" commtype="DIG" lat="39.0833" lon="28.9825">
    <comp name="--.HHE">
      <acc value="0.0647231292" flag="0"/>
      <vel value="0.0142233537" flag="0"/>
      <psa03 value="0.1443541040" flag="0"/>
      <psa10 value="0.0054819367" flag="0"/>
      <psa30 value="0.0012428730" flag="0"/>
    </comp>
    <comp name="--.HHN">
      <acc value="0.0474215418" flag="0"/>
      <vel value="0.0204532297" flag="0"/>
      <psa03 value="0.2084945653" flag="0"/>
      <psa10 value="0.0101045563" flag="0"/>
      <psa30 value="0.0021144614" flag="0"/>
    </comp>
    <comp name="--.HHZ">
      <acc value="0.0567134111" flag="0"/>
      <vel value="0.0102838252" flag="0"/>
      <psa03 value="0.0671614991" flag="0"/>
      <psa10 value="0.0057597883" flag="0"/>
      <psa30 value="0.0009754081" flag="0"/>
    </comp>
  </station>
  <station code="SMAA" name="SMAA" netid="KO" insttype="CMG-5T" commtype="DIG" lat="39.1005" lon="28.9805">
    <comp name="--.HNN">
      <acc value="0.0802643171" flag="0"/>
      <vel value="0.0350021852" flag="0"/>
      <psa03 value="0.2402074429" flag="0"/>
      <psa10 value="0.0400912119" flag="0"/>
      <psa30 value="0.0051544236" flag="0"/>
    </comp>
    <comp name="--.HNZ">
      <acc value="0.0719827892" flag="0"/>
      <vel value="0.0138876660" flag="0"/>
      <psa03 value="0.0387177971" flag="0"/>
      <psa10 value="0.0219706432" flag="0"/>
      <psa30 value="0.0015746887" flag="0"/>
    </comp>
    <comp name="--.HNE">
      <acc value="0.0562976489" flag="0"/>
      <vel value="0.0284018315" flag="0"/>
      <psa03 value="0.2058842202" flag="0"/>
      <psa10 value="0.0355389281" flag="0"/>
      <psa30 value="0.0064791385" flag="0"/>
    </comp>
  </station>
  <station code="SOMA" name="SOMA" netid="KO" insttype="CMG-5T" commtype="DIG" lat="39.1564" lon="27.5341">
    <comp name="--.HNE">
      <acc value="0.0937448922" flag="0"/>
      <vel value="0.0247178815" flag="0"/>
      <psa03 value="0.1461066514" flag="0"/>
      <psa10 value="0.0401163196" flag="0"/>
      <psa30 value="0.0019003534" flag="0"/>
    </comp>
    <comp name="--.HNZ">
      <acc value="0.0634958767" flag="0"/>
      <vel value="0.0244680523" flag="0"/>
      <psa03 value="0.1522015735" flag="0"/>
      <psa10 value="0.0336512322" flag="0"/>
      <psa30 value="0.0018984380" flag="0"/>
    </comp>
    <comp name="--.HNN">
      <acc value="0.0628597074" flag="0"/>
      <vel value="0.0416838473" flag="0"/>
      <psa03 value="0.1361362554" flag="0"/>
      <psa10 value="0.0411895613" flag="0"/>
      <psa30 value="0.0029203567" flag="0"/>
    </comp>
  </station>
  <station code="SUSR" name="SUSR" netid="KO" insttype="CMG-5T" commtype="DIG" lat="39.9627" lon="28.0835">
    <comp name="--.HNE">
      <acc value="0.0316329822" flag="0"/>
      <vel value="0.0093581382" flag="0"/>
      <psa03 value="0.0428390112" flag="0"/>
      <psa10 value="0.0098862747" flag="0"/>
      <psa30 value="0.0007979999" flag="0"/>
    </comp>
    <comp name="--.HNN">
      <acc value="0.0303348800" flag="0"/>
      <vel value="0.0085481407" flag="0"/>
      <psa03 value="0.0495453815" flag="0"/>
      <psa10 value="0.0056782372" flag="0"/>
      <psa30 value="0.0007975935" flag="0"/>
    </comp>
    <comp name="--.HNZ">
      <acc value="0.0291178196" flag="0"/>
      <vel value="0.0067171066" flag="0"/>
      <psa03 value="0.0358949744" flag="0"/>
      <psa10 value="0.0031800591" flag="0"/>
      <psa30 value="0.0005715980" flag="0"/>
    </comp>
  </station>
  <station code="TVSB" name="TVSB" netid="KO" insttype="CMG-3T" commtype="DIG" lat="39.4497" lon="29.4615">
    <comp name="--.HHN">
      <acc value="0.0404851981" flag="0"/>
      <vel value="0.0204537604" flag="0"/>
      <psa03 value="0.0794939923" flag="0"/>
      <psa10 value="0.0136564679" flag="0"/>
      <psa30 value="0.0011876645" flag="0"/>
    </comp>
    <comp name="--.HHZ">
      <acc value="0.0207212974" flag="0"/>
      <vel value="0.0092181823" flag="0"/>
      <psa03 value="0.0362843487" flag="0"/>
      <psa10 value="0.0040516189" flag="0"/>
      <psa30 value="0.0007187153" flag="0"/>
    </comp>
    <comp name="--.HHE">
      <acc value="0.0478876834" flag="0"/>
      <vel value="0.0213163377" flag="0"/>
      <psa03 value="0.0889874072" flag="0"/>
      <psa10 value="0.0106365639" flag="0"/>
      <psa30 value="0.0007844714" flag="0"/>
    </comp>
  </station>
  <station code="YAYO" name="YAYO" netid="KO" insttype="CMG-6T" commtype="DIG" lat="39.6113" lon="27.0726">
    <comp name="--.HHE">
      <acc value="0.0324220211" flag="0"/>
      <vel value="0.0165439640" flag="0"/>
      <psa03 value="0.0774900089" flag="0"/>
      <psa10 value="0.0105752813" flag="0"/>
      <psa30 value="0.0008149764" flag="0"/>
    </comp>
    <comp name="--.HHN">
      <acc value="0.0276534579" flag="0"/>
      <vel value="0.0146978858" flag="0"/>
      <psa03 value="0.0998630709" flag="0"/>
      <psa10 value="0.0105884669" flag="0"/>
      <psa30 value="0.0009943943" flag="0"/>
    </comp>
    <comp name="--.HHZ">
      <acc value="0.0335823839" flag="0"/>
      <vel value="0.0132413662" flag="0"/>
      <psa03 value="0.0832217557" flag="0"/>
      <psa10 value="0.0052978133" flag="0"/>
      <psa30 value="0.0005041015" flag="0"/>
    </comp>
  </station>
  <station code="YENI" name="YENI" netid="KO" insttype="CMG-5T" commtype="DIG" lat="39.9364" lon="27.2422">
    <comp name="--.HNE">
      <acc value="0.0431896473" flag="0"/>
      <vel value="0.0175236647" flag="0"/>
      <psa03 value="0.0533749882" flag="0"/>
      <psa10 value="0.0063262316" flag="0"/>
      <psa30 value="0.0005922922" flag="0"/>
    </comp>
    <comp name="--.HNZ">
      <acc value="0.0196487566" flag="0"/>
      <vel value="0.0045964070" flag="0"/>
      <psa03 value="0.0211277690" flag="0"/>
      <psa10 value="0.0036931090" flag="0"/>
      <psa30 value="0.0006849896" flag="0"/>
    </comp>
    <comp name="--.HNN">
      <acc value="0.0464391156" flag="0"/>
      <vel value="0.0150554909" flag="0"/>
      <psa03 value="0.0621841561" flag="0"/>
      <psa10 value="0.0081581943" flag="0"/>
      <psa30 value="0.0009040206" flag="0"/>
    </comp>
  </station>
</stationlist>
