<?xml version="1.0" encoding="UTF-8" standalone="yes"?>
<!DOCTYPE earthquake SYSTEM "stationlist.dtd">
<stationlist created="" xmlns="ch.ethz.sed.shakemap.usgs.xml">
  <station code="AKS" name="AKS" netid="KO" insttype="CMG-5T" commtype="DIG" lat="38.8785" lon="27.8129">
    <comp name="--.HNE">
      <acc value="0.1116171805" flag="0"/>
      <vel value="0.0321529758" flag="0"/>
      <psa03 value="0.1815320936" flag="0"/>
      <psa10 value="0.0277217461" flag="0"/>
      <psa30 value="0.0027364973" flag="0"/>
    </comp>
    <comp name="--.HNN">
      <acc value="0.1382357830" flag="0"/>
      <vel value="0.0368385733" flag="0"/>
      <psa03 value="0.1787122489" flag="0"/>
      <psa10 value="0.0172476715" flag="0"/>
      <psa30 value="0.0030995759" flag="0"/>
    </comp>
    <comp name="--.HNZ">
      <acc value="0.0738007358" flag="0"/>
      <vel value="0.0131515653" flag="0"/>
      <psa03 value="0.0500271181" flag="0"/>
      <psa10 value="0.0100196566" flag="0"/>
      <psa30 value="0.0018646013" flag="0"/>
    </comp>
  </station>
  <station code="BALB" name="BALB" netid="KO" insttype="CMG-5T" commtype="DIG" lat="39.6507" lon="27.8642">
    <comp name="--.HNE">
      <acc value="0.0523500625" flag="0"/>
      <vel value="0.0276466879" flag="0"/>
      <psa03 value="0.2041329100" flag="0"/>
      <psa10 value="0.0320921314" flag="0"/>
      <psa30 value="0.0032871535" flag="0"/>
    </comp>
    <comp name="--.HNN">
      <acc value="0.0563684463" flag="0"/>
      <vel value="0.0249720508" flag="0"/>
      <psa03 value="0.1373042293" flag="0"/>
      <psa10 value="0.0328565410" flag="0"/>
      <psa30 value="0.0030467432" flag="0"/>
    </comp>
    <comp name="--.HNZ">
      <acc value="0.0422846481" flag="0"/>
      <vel value="0.0156138682" flag="0"/>
      <psa03 value="0.1145536457" flag="0"/>
      <psa10 value="0.0147243943" flag="0"/>
      <psa30 value="0.0015931831" flag="0"/>
    </comp>
  </station>
  <station code="DST" name="DST" netid="KO" insttype="CMG-5T" commtype="DIG" lat="39.6041" lon="28.6267">
    <comp name="--.HNE">
      <acc value="0.0479062711" flag="0"/>
      <vel value="0.0108409451" flag="0"/>
      <psa03 value="0.0542503876" flag="0"/>
      <psa10 value="0.0061333143" flag="0"/>
      <psa30 value="0.0009897172" flag="0"/>
    </comp>
    <comp name="--.HNN">
      <acc value="0.0430428756" flag="0"/>
      <vel value="0.0122581039" flag="0"/>
      <psa03 value="0.0435974034" flag="0"/>
      <psa10 value="0.0113919211" flag="0"/>
      <psa30 value="0.0011950897" flag="0"/>
    </comp>
    <comp name="--.HNZ">
      <acc value="0.0464306021" flag="0"/>
      <vel value="0.0130422999" flag="0"/>
      <psa03 value="0.0662089681" flag="0"/>
      <psa10 value="0.0057595348" flag="0"/>
      <psa30 value="0.0008659028" flag="0"/>
    </comp>
  </station>
  <station code="GEDZ" name="GEDZ" netid="KO" insttype="CMG-6T" commtype="DIG" lat="39.0445" lon="29.4105">
    <comp name="--.HHE">
      <acc value="0.0888487141" flag="0"/>
      <vel value="0.0359130941" flag="0"/>
      <psa03 value="0.1780990103" flag="0"/>
      <psa10 value="0.0482123673" flag="0"/>
      <psa30 value="0.0019511405" flag="0"/>
    </comp>
    <comp name="--.HHN">
      <acc value="0.0969415169" flag="0"/>
      <vel value="0.0390019465" flag="0"/>
      <psa03 value="0.2447484268" flag="0"/>
      <psa10 value="0.0494227726" flag="0"/>
      <psa30 value="0.0029153134" flag="0"/>
    </comp>
    <comp name="--.HHZ">
      <acc value="0.0660189317" flag="0"/>
      <vel value="0.0128641395" flag="0"/>
      <psa03 value="0.0845786681" flag="0"/>
      <psa10 value="0.0161769666" flag="0"/>
      <psa30 value="0.0008529725" flag="0"/>
    </comp>
  </station>
  <station code="GONE" name="GONE" netid="KO" insttype="CMG-5T" commtype="DIG" lat="40.0466" lon="27.686">
    <comp name="--.HNZ">
      <acc value="0.0136061382" flag="0"/>
      <vel value="0.0040400501" flag="0"/>
      <psa03 value="0.0273000634" flag="0"/>
      <psa10 value="0.0052286404" flag="0"/>
      <psa30 value="0.0007053223" flag="0"/>
    </comp>
    <comp name="--.HNN">
      <acc value="0.0298482274" flag="0"/>
      <vel value="0.0139263073" flag="0"/>
      <psa03 value="0.1140110696" flag="0"/>
      <psa10 value="0.0180015937" flag="0"/>
      <psa30 value="0.0015002005" flag="0"/>
    </comp>
    <comp name="--.HNE">
      <acc value="0.0193733858" flag="0"/>
      <vel value="0.0138637274" flag="0"/>
      <psa03 value="0.0403372262" flag="0"/>
      <psa10 value="0.0170274435" flag="0"/>
      <psa30 value="0.0020375969" flag="0"/>
    </comp>
  </station>
  <station code="GORD" name="GORD" netid="KO" insttype="CMG-5T" commtype="DIG" lat="38.9088" lon="28.1769">
    <comp name="--.HNE">
      <acc value="0.1513554952" flag="0"/>
      <vel value="0.0578763864" flag="0"/>
      <psa03 value="0.2901669134" flag="0"/>
      <psa10 value="0.0895331395" flag="0"/>
      <psa30 value="0.0061325799" flag="0"/>
    </comp>
    <comp name="--.HNZ">
      <acc value="0.1461665818" flag="0"/>
      <vel value="0.0557213477" flag="0"/>
      <psa03 value="0.2161089436" flag="0"/>
      <psa10 value="0.0615628586" flag="0"/>
      <psa30 value="0.0028921901" flag="0"/>
    </comp>
    <comp name="--.HNN">
      <acc value="0.1685720046" flag="0"/>
      <vel value="0.1129352808" flag="0"/>
      <psa03 value="0.3903347760" flag="0"/>
      <psa10 value="0.1165274136" flag="0"/>
      <psa30 value="0.0051776591" flag="0"/>
    </comp>
  </station>
  <station code="KCTX" name="KCTX" netid="KO" insttype="CMG-3ESP" commtype="DIG" lat="40.2626" lon="28.3353">
    <comp name="--.HHE">
      <acc value="0.0190180052" flag="0"/>
      <vel value="0.0085214524" flag="0"/>
      <psa03 value="0.0343258843" flag="0"/>
      <psa10 value="0.0084415979" flag="0"/>
      <psa30 value="0.0014721045" flag="0"/>
    </comp>
    <comp name="--.HHN">
      <acc value="0.0233471646" flag="0"/>
      <vel value="0.0057793482" flag="0"/>
      <psa03 value="0.0278437547" flag="0"/>
      <psa10 value="0.0074791224" flag="0"/>
      <psa30 value="0.0005616709" flag="0"/>
    </comp>
    <comp name="--.HHZ">
      <acc value="0.0193237127" flag="0"/>
      <vel value="0.0043161089" flag="0"/>
      <psa03 value="0.0237030796" flag="0"/>
      <psa10 value="0.0043921923" flag="0"/>
      <psa30 value="0.0004222667" flag="0"/>
    </comp>
  </station>
  <station code="KULA" name="KULA" netid="KO" insttype="CMG-3T" commtype="DIG" lat="38.5145" lon="28.6607">
    <comp name="--.HHZ">
      <acc value="0.0343474463" flag="0"/>
      <vel value="0.0084005726" flag="0"/>
      <psa03 value="0.0487836403" flag="0"/>
      <psa10 value="0.0076431272" flag="0"/>
      <psa30 value="0.0011385170" flag="0"/>
    </comp>
  </station>
  <station code="ORLT" name="ORLT" netid="KO" insttype="CMG-5T" commtype="DIG" lat="40.0452" lon="28.8914">
    <comp name="--.HNE">
      <acc value="0.0531901617" flag="0"/>
      <vel value="0.0223156210" flag="0"/>
      <psa03 value="0.1187207602" flag="0"/>
      <psa10 value="0.0266825461" flag="0"/>
      <psa30 value="0.0011446512" flag="0"/>
    </comp>
    <comp name="--.HNZ">
      <acc value="0.0197797444" flag="0"/>
      <vel value="0.0111610260" flag="0"/>
      <psa03 value="0.0481524591" flag="0"/>
      <psa10 value="0.0168479316" flag="0"/>
      <psa30 value="0.0014285633" flag="0"/>
    </comp>
    <comp name="--.HNN">
      <acc value="0.0467467228" flag="0"/>
      <vel value="0.0271628879" flag="0"/>
      <psa03 value="0.1337988233" flag="0"/>
      <psa10 value="0.0322010855" flag="0"/>
      <psa30 value="0.0019584860" flag="0"/>
    </comp>
  </station>
  <station code="SHAP" name="SHAP" netid="KO" insttype="CMG-5T" commtype="DIG" lat="39.0231" lon="29.222">
    <comp name="--.HNN">
      <acc value="0.0779768038" flag="0"/>
      <vel value="0.0243943220" flag="0"/>
      <psa03 value="0.1217877584" flag="0"/>
      <psa10 value="0.0158862597" flag="0"/>
      <psa30 value="0.0013038034" flag="0"/>
    </comp>
    <comp name="--.HNE">
      <acc value="0.1191085320" flag="0"/>
      <vel value="0.0226659079" flag="0"/>
      <psa03 value="0.1369027552" flag="0"/>
      <psa10 value="0.0079490270" flag="0"/>
      <psa30 value="0.0010299088" flag="0"/>
    </comp>
    <comp name="--.HNZ">
      <acc value="0.0657352780" flag="0"/>
      <vel value="0.0095921776" flag="0"/>
      <psa03 value="0.0438974086" flag="0"/>
      <psa10 value="0.0060627437" flag="0"/>
      <psa30 value="0.0007984259" flag="0"/>
    </comp>
  </station>
  <station code="SIMA" name="SIMA" netid="KO" insttype="CMG-6T" commtype="DIG" lat="39.0833" lon="28.9825">
    <comp name="--.HHN">
      <acc value="0.0474215278" flag="0"/>
      <vel value="0.0204532277" flag="0"/>
      <psa03 value="0.2084945653" flag="0"/>
      <psa10 value="0.0101045544" flag="0"/>
      <psa30 value="0.0021146551" flag="0"/>
    </comp>
    <comp name="--.HHZ">
      <acc value="0.0567133984" flag="0"/>
      <vel value="0.0102838215" flag="0"/>
      <psa03 value="0.0671614991" flag="0"/>
      <psa10 value="0.0057597873" flag="0"/>
      <psa30 value="0.0009754555" flag="0"/>
    </comp>
    <comp name="--.HHE">
      <acc value="0.0647231057" flag="0"/>
      <vel value="0.0142233511" flag="0"/>
      <psa03 value="0.1443541040" flag="0"/>
      <psa10 value="0.0054819370" flag="0"/>
      <psa30 value="0.0012429493" flag="0"/>
    </comp>
  </station>
  <station code="SMAA" name="SMAA" netid="KO" insttype="CMG-5T" commtype="DIG" lat="39.1005" lon="28.9805">
    <comp name="--.HNN">
      <acc value="0.0802643195" flag="0"/>
      <vel value="0.0350021772" flag="0"/>
      <psa03 value="0.2402074429" flag="0"/>
      <psa10 value="0.0400912094" flag="0"/>
      <psa30 value="0.0051543987" flag="0"/>
    </comp>
    <comp name="--.HNE">
      <acc value="0.0562976434" flag="0"/>
      <vel value="0.0284018150" flag="0"/>
      <psa03 value="0.2058842202" flag="0"/>
      <psa10 value="0.0355389247" flag="0"/>
      <psa30 value="0.0064781450" flag="0"/>
    </comp>
    <comp name="--.HNZ">
      <acc value="0.0719827839" flag="0"/>
      <vel value="0.0138876696" flag="0"/>
      <psa03 value="0.0387177972" flag="0"/>
      <psa10 value="0.0219706432" flag="0"/>
      <psa30 value="0.0015751881" flag="0"/>
    </comp>
  </station>
  <station code="SOMA" name="SOMA" netid="KO" insttype="CMG-5T" commtype="DIG" lat="39.1564" lon="27.5341">
    <comp name="--.HNN">
      <acc value="0.0628597109" flag="0"/>
      <vel value="0.0416838407" flag="0"/>
      <psa03 value="0.1361362554" flag="0"/>
      <psa10 value="0.0411895612" flag="0"/>
      <psa30 value="0.0029201136" flag="0"/>
    </comp>
    <comp name="--.HNE">
      <acc value="0.0937448919" flag="0"/>
      <vel value="0.0247178829" flag="0"/>
      <psa03 value="0.1461066514" flag="0"/>
      <psa10 value="0.0401163268" flag="0"/>
      <psa30 value="0.0019009346" flag="0"/>
    </comp>
    <comp name="--.HNZ">
      <acc value="0.0634958765" flag="0"/>
      <vel value="0.0244680507" flag="0"/>
      <psa03 value="0.1522015735" flag="0"/>
      <psa10 value="0.0336512285" flag="0"/>
      <psa30 value="0.0018993450" flag="0"/>
    </comp>
  </station>
  <station code="SUSR" name="SUSR" netid="KO" insttype="CMG-5T" commtype="DIG" lat="39.9627" lon="28.0835">
    <comp name="--.HNN">
      <acc value="0.0303348775" flag="0"/>
      <vel value="0.0085481382" flag="0"/>
      <psa03 value="0.0495453815" flag="0"/>
      <psa10 value="0.0056782371" flag="0"/>
      <psa30 value="0.0007975657" flag="0"/>
    </comp>
    <comp name="--.HNE">
      <acc value="0.0316329816" flag="0"/>
      <vel value="0.0093581352" flag="0"/>
      <psa03 value="0.0428390112" flag="0"/>
      <psa10 value="0.0098862753" flag="0"/>
      <psa30 value="0.0007982591" flag="0"/>
    </comp>
    <comp name="--.HNZ">
      <acc value="0.0291178199" flag="0"/>
      <vel value="0.0067171060" flag="0"/>
      <psa03 value="0.0358949744" flag="0"/>
      <psa10 value="0.0031800592" flag="0"/>
      <psa30 value="0.0005717696" flag="0"/>
    </comp>
  </station>
  <station code="TVSB" name="TVSB" netid="KO" insttype="CMG-3T" commtype="DIG" lat="39.4497" lon="29.4615">
    <comp name="--.HHE">
      <acc value="0.0478876835" flag="0"/>
      <vel value="0.0213163374" flag="0"/>
      <psa03 value="0.0889874072" flag="0"/>
      <psa10 value="0.0106365648" flag="0"/>
      <psa30 value="0.0007843398" flag="0"/>
    </comp>
    <comp name="--.HHN">
      <acc value="0.0404851979" flag="0"/>
      <vel value="0.0204537585" flag="0"/>
      <psa03 value="0.0794939923" flag="0"/>
      <psa10 value="0.0136564678" flag="0"/>
      <psa30 value="0.0011874424" flag="0"/>
    </comp>
    <comp name="--.HHZ">
      <acc value="0.0207212972" flag="0"/>
      <vel value="0.0092181825" flag="0"/>
      <psa03 value="0.0362843487" flag="0"/>
      <psa10 value="0.0040516189" flag="0"/>
      <psa30 value="0.0007186782" flag="0"/>
    </comp>
  </station>
  <station code="YAYO" name="YAYO" netid="KO" insttype="CMG-6T" commtype="DIG" lat="39.6113" lon="27.0726">
    <comp name="--.HHE">
      <acc value="0.0324220206" flag="0"/>
      <vel value="0.0165439620" flag="0"/>
      <psa03 value="0.0774900089" flag="0"/>
      <psa10 value="0.0105752821" flag="0"/>
      <psa30 value="0.0008149478" flag="0"/>
    </comp>
    <comp name="--.HHN">
      <acc value="0.0276534573" flag="0"/>
      <vel value="0.0146978908" flag="0"/>
      <psa03 value="0.0998630709" flag="0"/>
      <psa10 value="0.0105884670" flag="0"/>
      <psa30 value="0.0009943782" flag="0"/>
    </comp>
    <comp name="--.HHZ">
      <acc value="0.0335823844" flag="0"/>
      <vel value="0.0132413663" flag="0"/>
      <psa03 value="0.0832217557" flag="0"/>
      <psa10 value="0.0052977966" flag="0"/>
      <psa30 value="0.0005041073" flag="0"/>
    </comp>
  </station>
  <station code="YENI" name="YENI" netid="KO" insttype="CMG-5T" commtype="DIG" lat="39.9364" lon="27.2422">
    <comp name="--.HNE">
      <acc value="0.0431896531" flag="0"/>
      <vel value="0.0175236699" flag="0"/>
      <psa03 value="0.0533749882" flag="0"/>
      <psa10 value="0.0063262320" flag="0"/>
      <psa30 value="0.0005926906" flag="0"/>
    </comp>
    <comp name="--.HNN">
      <acc value="0.0464391174" flag="0"/>
      <vel value="0.0150554876" flag="0"/>
      <psa03 value="0.0621841561" flag="0"/>
      <psa10 value="0.0081581945" flag="0"/>
      <psa30 value="0.0009044236" flag="0"/>
    </comp>
    <comp name="--.HNZ">
      <acc value="0.0196487545" flag="0"/>
      <vel value="0.0045964130" flag="0"/>
      <psa03 value="0.0211277690" flag="0"/>
      <psa10 value="0.0036929975" flag="0"/>
      <psa30 value="0.0006848863" flag="0"/>
    </comp>
  </station>
</stationlist>
