<?xml version="1.0" encoding="UTF-8" standalone="yes"?>
<!DOCTYPE earthquake SYSTEM "stationlist.dtd">
<stationlist created="" xmlns="ch.ethz.sed.shakemap.usgs.xml">
  <station code="ARPRA" name="ARPRA" netid="KO" insttype="CMG-5T" lat="39.0929" lon="38.3356">
    <comp name="--.HNN">
      <acc value="0.0259297668" flag="0"/>
      <vel value="0.0153834672" flag="0"/>
      <psa03 value="0.0592459015" flag="0"/>
      <psa10 value="0.0080010173" flag="0"/>
      <psa30 value="0.0004770050" flag="0"/>
    </comp>
    <comp name="--.HNZ">
      <acc value="0.0123467561" flag="0"/>
      <vel value="0.0045099853" flag="0"/>
      <psa03 value="0.0197120721" flag="0"/>
      <psa10 value="0.0050481426" flag="0"/>
      <psa30 value="0.0002764977" flag="0"/>
    </comp>
    <comp name="--.HNE">
      <acc value="0.0232652566" flag="0"/>
      <vel value="0.0142509742" flag="0"/>
      <psa03 value="0.0515204183" flag="0"/>
      <psa10 value="0.0114200087" flag="0"/>
      <psa30 value="0.0006660816" flag="0"/>
    </comp>
  </station>
  <station code="DARE" name="DARE" netid="KO" insttype="CMG-3ESP" lat="38.5712" lon="37.4832">
    <comp name="--.HHN">
      <acc value="0.0051494817" flag="0"/>
      <vel value="0.0026282972" flag="0"/>
      <psa03 value="0.0092438634" flag="0"/>
      <psa10 value="0.0037934887" flag="0"/>
      <psa30 value="0.0002170490" flag="0"/>
    </comp>
    <comp name="--.HHE">
      <acc value="0.0042320419" flag="0"/>
      <vel value="0.0022479912" flag="0"/>
      <psa03 value="0.0101399734" flag="0"/>
      <psa10 value="0.0042877594" flag="0"/>
      <psa30 value="0.0002728751" flag="0"/>
    </comp>
    <comp name="--.HHZ">
      <acc value="0.0040182265" flag="0"/>
      <vel value="0.0020715077" flag="0"/>
      <psa03 value="0.0085210378" flag="0"/>
      <psa10 value="0.0039270016" flag="0"/>
      <psa30 value="0.0002347161" flag="0"/>
    </comp>
  </station>
  <station code="URFA" name="URFA" netid="KO" insttype="CMG-3ESP" lat="37.4409" lon="38.8213">
    <comp name="--.HHE">
      <acc value="0.0544328108" flag="0"/>
      <vel value="0.0104304572" flag="0"/>
      <psa03 value="0.0403745329" flag="0"/>
      <psa10 value="0.0055754531" flag="0"/>
      <psa30 value="0.0013829168" flag="0"/>
    </comp>
    <comp name="--.HHN">
      <acc value="0.0460184146" flag="0"/>
      <vel value="0.0088176007" flag="0"/>
      <psa03 value="0.0307466571" flag="0"/>
      <psa10 value="0.0076391372" flag="0"/>
      <psa30 value="0.0007641885" flag="0"/>
    </comp>
    <comp name="--.HHZ">
      <acc value="0.0373847208" flag="0"/>
      <vel value="0.0061577655" flag="0"/>
      <psa03 value="0.0209009507" flag="0"/>
      <psa10 value="0.0042953767" flag="0"/>
      <psa30 value="0.0006270415" flag="0"/>
    </comp>
  </station>
</stationlist>
