<?xml version="1.0" encoding="UTF-8" standalone="yes"?>
<!DOCTYPE earthquake SYSTEM "stationlist.dtd">
<stationlist created="" xmlns="ch.ethz.sed.shakemap.usgs.xml">
  <station code="MYT1" name="MYT1" netid="HI" insttype="CMG-5TD,ACCELEROMETER,GURALP" commtype="DIG" lat="39.085" lon="26.5694">
    <comp name="--.HNE">
      <acc value="0.0991298475" flag="0"/>
      <vel value="0.1386840512" flag="0"/>
      <psa03 value="0.2114048280" flag="0"/>
      <psa10 value="0.2512116101" flag="0"/>
      <psa30 value="0.0155733274" flag="0"/>
    </comp>
    <comp name="--.HNN">
      <acc value="0.0840549048" flag="0"/>
      <vel value="0.0917150846" flag="0"/>
      <psa03 value="0.1980947825" flag="0"/>
      <psa10 value="0.2044408004" flag="0"/>
      <psa30 value="0.0228901263" flag="0"/>
    </comp>
    <comp name="--.HNZ">
      <acc value="0.0446537254" flag="0"/>
      <vel value="0.0396114240" flag="0"/>
      <psa03 value="0.0832372319" flag="0"/>
      <psa10 value="0.0937532847" flag="0"/>
      <psa30 value="0.0080482908" flag="0"/>
    </comp>
  </station>
  <station code="AKS" name="AKS" netid="KO" insttype="CMG-5T" commtype="DIG" lat="38.8785" lon="27.8129">
    <comp name="--.HNZ">
      <acc value="0.1434097315" flag="0"/>
      <vel value="0.0503900615" flag="0"/>
      <psa03 value="0.1660803870" flag="0"/>
      <psa10 value="0.0536086399" flag="0"/>
      <psa30 value="0.0165415077" flag="0"/>
    </comp>
    <comp name="--.HNN">
      <acc value="0.3930940776" flag="0"/>
      <vel value="0.1058463571" flag="0"/>
      <psa03 value="0.5231578571" flag="0"/>
      <psa10 value="0.1193259710" flag="0"/>
      <psa30 value="0.0304145783" flag="0"/>
    </comp>
  </station>
  <station code="AYDB" name="AYDB" netid="KO" insttype="CMG-3ESPC" commtype="DIG" lat="37.9467" lon="27.8908">
    <comp name="--.HHN">
      <acc value="0.0810567454" flag="0"/>
      <vel value="0.0404164418" flag="0"/>
      <psa03 value="0.3476230863" flag="0"/>
      <psa10 value="0.0300383818" flag="0"/>
      <psa30 value="0.0064490157" flag="0"/>
    </comp>
  </station>
  <station code="AYVL" name="AYVL" netid="KO" insttype="CMG-6T" commtype="DIG" lat="39.2907" lon="26.69">
    <comp name="--.HHZ">
      <acc value="0.0789542798" flag="0"/>
      <vel value="0.0385684910" flag="0"/>
      <psa03 value="0.1327206675" flag="0"/>
      <psa10 value="0.0350854292" flag="0"/>
      <psa30 value="0.0016169763" flag="0"/>
    </comp>
    <comp name="--.HHN">
      <acc value="0.1849416383" flag="0"/>
      <vel value="0.0912655797" flag="0"/>
      <psa03 value="0.4483083108" flag="0"/>
      <psa10 value="0.1002983665" flag="0"/>
      <psa30 value="0.0054724288" flag="0"/>
    </comp>
    <comp name="--.HHE">
      <acc value="0.1304840188" flag="0"/>
      <vel value="0.0762903165" flag="0"/>
      <psa03 value="0.3954291818" flag="0"/>
      <psa10 value="0.0620798917" flag="0"/>
      <psa30 value="0.0028066163" flag="0"/>
    </comp>
  </station>
  <station code="BALB" name="BALB" netid="KO" insttype="CMG-5T" commtype="DIG" lat="39.6507" lon="27.8642">
    <comp name="--.HNE">
      <acc value="0.3639159548" flag="0"/>
      <vel value="0.1562943331" flag="0"/>
      <psa03 value="0.8246384043" flag="0"/>
      <psa10 value="0.1993618781" flag="0"/>
      <psa30 value="0.0266373576" flag="0"/>
    </comp>
    <comp name="--.HNZ">
      <acc value="0.3616802039" flag="0"/>
      <vel value="0.1251188362" flag="0"/>
      <psa03 value="0.5584287701" flag="0"/>
      <psa10 value="0.1134289930" flag="0"/>
      <psa30 value="0.0179583928" flag="0"/>
    </comp>
    <comp name="--.HNN">
      <acc value="0.3523260063" flag="0"/>
      <vel value="0.2147698204" flag="0"/>
      <psa03 value="0.9375176178" flag="0"/>
      <psa10 value="0.3457368630" flag="0"/>
      <psa30 value="0.0302550939" flag="0"/>
    </comp>
  </station>
  <station code="BIGA" name="BIGA" netid="KO" insttype="CMG-5T" commtype="DIG" lat="40.2813" lon="27.1505">
    <comp name="--.HNN">
      <acc value="0.1538667830" flag="0"/>
      <vel value="0.0834466986" flag="0"/>
      <psa03 value="0.4287205761" flag="0"/>
      <psa10 value="0.0691562800" flag="0"/>
      <psa30 value="0.0077337325" flag="0"/>
    </comp>
    <comp name="--.HNE">
      <acc value="0.1301261993" flag="0"/>
      <vel value="0.0626998305" flag="0"/>
      <psa03 value="0.4385372667" flag="0"/>
      <psa10 value="0.0747013601" flag="0"/>
      <psa30 value="0.0069841537" flag="0"/>
    </comp>
    <comp name="--.HNZ">
      <acc value="0.0739948730" flag="0"/>
      <vel value="0.0251755724" flag="0"/>
      <psa03 value="0.0872050665" flag="0"/>
      <psa10 value="0.0397542939" flag="0"/>
      <psa30 value="0.0037813690" flag="0"/>
    </comp>
  </station>
  <station code="BLCB" name="BLCB" netid="KO" insttype="CMG-3T" commtype="DIG" lat="38.3853" lon="27.042">
    <comp name="--.HHN">
      <acc value="0.0000614803" flag="0"/>
      <vel value="0.0000275689" flag="0"/>
      <psa03 value="0.0000632849" flag="0"/>
      <psa10 value="0.0000262685" flag="0"/>
      <psa30 value="0.0000061763" flag="0"/>
    </comp>
    <comp name="--.HHZ">
      <acc value="0.0458235852" flag="0"/>
      <vel value="0.0265925179" flag="0"/>
      <psa03 value="0.0617714363" flag="0"/>
      <psa10 value="0.0314105906" flag="0"/>
      <psa30 value="0.0062157876" flag="0"/>
    </comp>
    <comp name="--.HHE">
      <acc value="0.0612394514" flag="0"/>
      <vel value="0.0447594459" flag="0"/>
      <psa03 value="0.1352514801" flag="0"/>
      <psa10 value="0.0487841133" flag="0"/>
      <psa30 value="0.0096094747" flag="0"/>
    </comp>
  </station>
  <station code="BMYO" name="BMYO" netid="KO" insttype="CMG-5T" commtype="DIG" lat="39.8098" lon="26.6009">
    <comp name="--.HNE">
      <acc value="0.1345081116" flag="0"/>
      <vel value="0.1092334898" flag="0"/>
      <psa03 value="0.3575860221" flag="0"/>
      <psa10 value="0.1920648671" flag="0"/>
      <psa30 value="0.0124575289" flag="0"/>
    </comp>
    <comp name="--.HNN">
      <acc value="0.1259754876" flag="0"/>
      <vel value="0.0782718087" flag="0"/>
      <psa03 value="0.4238046497" flag="0"/>
      <psa10 value="0.1041330166" flag="0"/>
      <psa30 value="0.0109041763" flag="0"/>
    </comp>
    <comp name="--.HNZ">
      <acc value="0.0505032629" flag="0"/>
      <vel value="0.0492577378" flag="0"/>
      <psa03 value="0.0868036817" flag="0"/>
      <psa10 value="0.0931196261" flag="0"/>
      <psa30 value="0.0084805607" flag="0"/>
    </comp>
  </station>
  <station code="CANM" name="CANM" netid="KO" insttype="CMG-5T" commtype="DIG" lat="40.0113" lon="27.0529">
    <comp name="--.HNE">
      <acc value="0.0806528257" flag="0"/>
      <vel value="0.0804801521" flag="0"/>
      <psa03 value="0.1796998698" flag="0"/>
      <psa10 value="0.1044748124" flag="0"/>
      <psa30 value="0.0114148257" flag="0"/>
    </comp>
    <comp name="--.HNZ">
      <acc value="0.0538763304" flag="0"/>
      <vel value="0.0478073811" flag="0"/>
      <psa03 value="0.1186830694" flag="0"/>
      <psa10 value="0.0615206944" flag="0"/>
      <psa30 value="0.0088449176" flag="0"/>
    </comp>
    <comp name="--.HNN">
      <acc value="0.0878418069" flag="0"/>
      <vel value="0.0780179299" flag="0"/>
      <psa03 value="0.1672355120" flag="0"/>
      <psa10 value="0.1516831144" flag="0"/>
      <psa30 value="0.0104756601" flag="0"/>
    </comp>
  </station>
  <station code="DKL" name="DKL" netid="KO" insttype="CMG-3ESPC" commtype="DIG" lat="39.0713" lon="26.9053">
    <comp name="--.HHN">
      <acc value="0.0589138930" flag="0"/>
      <vel value="0.0542900093" flag="0"/>
      <psa03 value="0.0878987406" flag="0"/>
      <psa10 value="0.0543916134" flag="0"/>
      <psa30 value="0.0081098994" flag="0"/>
    </comp>
    <comp name="--.HHZ">
      <acc value="0.0321015809" flag="0"/>
      <vel value="0.0195429824" flag="0"/>
      <psa03 value="0.1168926959" flag="0"/>
      <psa10 value="0.0275517085" flag="0"/>
      <psa30 value="0.0048662237" flag="0"/>
    </comp>
    <comp name="--.HHE">
      <acc value="0.0393417412" flag="0"/>
      <vel value="0.0338263385" flag="0"/>
      <psa03 value="0.1134363273" flag="0"/>
      <psa10 value="0.0332607333" flag="0"/>
      <psa30 value="0.0069770153" flag="0"/>
    </comp>
  </station>
  <station code="DST" name="DST" netid="KO" insttype="CMG-5T" commtype="DIG" lat="39.6041" lon="28.6267">
    <comp name="--.HNN">
      <acc value="0.2371785070" flag="0"/>
      <vel value="0.0643942370" flag="0"/>
      <psa03 value="0.3002960289" flag="0"/>
      <psa10 value="0.0356833970" flag="0"/>
      <psa30 value="0.0112235975" flag="0"/>
    </comp>
    <comp name="--.HNE">
      <acc value="0.2374983191" flag="0"/>
      <vel value="0.0663440883" flag="0"/>
      <psa03 value="0.2692898521" flag="0"/>
      <psa10 value="0.0351064073" flag="0"/>
      <psa30 value="0.0123654683" flag="0"/>
    </comp>
    <comp name="--.HNZ">
      <acc value="0.1802750124" flag="0"/>
      <vel value="0.0620724027" flag="0"/>
      <psa03 value="0.2373214992" flag="0"/>
      <psa10 value="0.0328567374" flag="0"/>
      <psa30 value="0.0135704487" flag="0"/>
    </comp>
  </station>
  <station code="EDC" name="EDC" netid="KO" insttype="CMG-3T" commtype="DIG" lat="40.3465" lon="27.8618">
    <comp name="--.HHN">
      <acc value="0.2030935701" flag="0"/>
      <vel value="0.0814653859" flag="0"/>
      <psa03 value="0.6030537086" flag="0"/>
      <psa10 value="0.1357741798" flag="0"/>
      <psa30 value="0.0081387550" flag="0"/>
    </comp>
    <comp name="--.HHE">
      <acc value="0.1022283761" flag="0"/>
      <vel value="0.0858120344" flag="0"/>
      <psa03 value="0.4162295749" flag="0"/>
      <psa10 value="0.1991035502" flag="0"/>
      <psa30 value="0.0108236750" flag="0"/>
    </comp>
    <comp name="--.HHZ">
      <acc value="0.0616838416" flag="0"/>
      <vel value="0.0292810301" flag="0"/>
      <psa03 value="0.1110302827" flag="0"/>
      <psa10 value="0.0424752674" flag="0"/>
      <psa30 value="0.0043912030" flag="0"/>
    </comp>
  </station>
  <station code="GOMA" name="GOMA" netid="KO" insttype="CMG-5T" commtype="DIG" lat="38.7077" lon="27.9175">
    <comp name="--.HNE">
      <acc value="0.1699979383" flag="0"/>
      <vel value="0.1179554303" flag="0"/>
      <psa03 value="0.4821012959" flag="0"/>
      <psa10 value="0.1523225305" flag="0"/>
      <psa30 value="0.0058941693" flag="0"/>
    </comp>
    <comp name="--.HNZ">
      <acc value="0.1474864253" flag="0"/>
      <vel value="0.0663510006" flag="0"/>
      <psa03 value="0.2070773852" flag="0"/>
      <psa10 value="0.0416644548" flag="0"/>
      <psa30 value="0.0130080078" flag="0"/>
    </comp>
    <comp name="--.HNN">
      <acc value="0.2192549423" flag="0"/>
      <vel value="0.1511256346" flag="0"/>
      <psa03 value="0.5695539800" flag="0"/>
      <psa10 value="0.0999533809" flag="0"/>
      <psa30 value="0.0154853085" flag="0"/>
    </comp>
  </station>
  <station code="GONE" name="GONE" netid="KO" insttype="CMG-5T" commtype="DIG" lat="40.0466" lon="27.686">
    <comp name="--.HNZ">
      <acc value="0.0733244749" flag="0"/>
      <vel value="0.0277238860" flag="0"/>
      <psa03 value="0.1433313332" flag="0"/>
      <psa10 value="0.0328223151" flag="0"/>
      <psa30 value="0.0048903000" flag="0"/>
    </comp>
    <comp name="--.HNE">
      <acc value="0.1832929738" flag="0"/>
      <vel value="0.0755396531" flag="0"/>
      <psa03 value="0.3779105988" flag="0"/>
      <psa10 value="0.1106384841" flag="0"/>
      <psa30 value="0.0089201761" flag="0"/>
    </comp>
    <comp name="--.HNN">
      <acc value="0.3361890842" flag="0"/>
      <vel value="0.1410728822" flag="0"/>
      <psa03 value="0.9214139407" flag="0"/>
      <psa10 value="0.0824689230" flag="0"/>
      <psa30 value="0.0129624348" flag="0"/>
    </comp>
  </station>
  <station code="GORD" name="GORD" netid="KO" insttype="CMG-5T" commtype="DIG" lat="38.9088" lon="28.1769">
    <comp name="--.HNE">
      <acc value="0.1865185935" flag="0"/>
      <vel value="0.1292357121" flag="0"/>
      <psa03 value="0.5079208827" flag="0"/>
      <psa10 value="0.1972514555" flag="0"/>
      <psa30 value="0.0439156873" flag="0"/>
    </comp>
    <comp name="--.HNN">
      <acc value="0.3043543265" flag="0"/>
      <vel value="0.2020108435" flag="0"/>
      <psa03 value="0.6719907987" flag="0"/>
      <psa10 value="0.2700550568" flag="0"/>
      <psa30 value="0.0274208819" flag="0"/>
    </comp>
    <comp name="--.HNZ">
      <acc value="0.2353794090" flag="0"/>
      <vel value="0.1110389453" flag="0"/>
      <psa03 value="0.3012286299" flag="0"/>
      <psa10 value="0.1194149751" flag="0"/>
      <psa30 value="0.0203562614" flag="0"/>
    </comp>
  </station>
  <station code="KCTX" name="KCTX" netid="KO" insttype="CMG-3ESP" commtype="DIG" lat="40.2626" lon="28.3353">
    <comp name="--.HHZ">
      <acc value="0.1102434523" flag="0"/>
      <vel value="0.0433456542" flag="0"/>
      <psa03 value="0.1454096495" flag="0"/>
      <psa10 value="0.0283129830" flag="0"/>
      <psa30 value="0.0031912487" flag="0"/>
    </comp>
    <comp name="--.HHN">
      <acc value="0.1588097649" flag="0"/>
      <vel value="0.0697156563" flag="0"/>
      <psa03 value="0.3496205665" flag="0"/>
      <psa10 value="0.0429453343" flag="0"/>
      <psa30 value="0.0080096492" flag="0"/>
    </comp>
  </station>
  <station code="KRBG" name="KRBG" netid="KO" insttype="CMG-3ESP" commtype="DIG" lat="40.3932" lon="27.2977">
    <comp name="--.HHE">
      <acc value="0.0492236913" flag="0"/>
      <vel value="0.0257808828" flag="0"/>
      <psa03 value="0.1307637542" flag="0"/>
      <psa10 value="0.0411739385" flag="0"/>
      <psa30 value="0.0050841768" flag="0"/>
    </comp>
    <comp name="--.HHN">
      <acc value="0.0484775211" flag="0"/>
      <vel value="0.0334865382" flag="0"/>
      <psa03 value="0.0759344387" flag="0"/>
      <psa10 value="0.0583770968" flag="0"/>
      <psa30 value="0.0068733606" flag="0"/>
    </comp>
    <comp name="--.HHZ">
      <acc value="0.0323538561" flag="0"/>
      <vel value="0.0211299789" flag="0"/>
      <psa03 value="0.0754653033" flag="0"/>
      <psa10 value="0.0312193130" flag="0"/>
      <psa30 value="0.0066953924" flag="0"/>
    </comp>
  </station>
  <station code="KULA" name="KULA" netid="KO" insttype="CMG-3T" commtype="DIG" lat="38.5145" lon="28.6607">
    <comp name="--.HHE">
      <acc value="0.1035760863" flag="0"/>
      <vel value="0.0516274230" flag="0"/>
      <psa03 value="0.1887823773" flag="0"/>
      <psa10 value="0.0554662500" flag="0"/>
      <psa30 value="0.0075561650" flag="0"/>
    </comp>
    <comp name="--.HHN">
      <acc value="0.0968244140" flag="0"/>
      <vel value="0.0299871882" flag="0"/>
      <psa03 value="0.1235998027" flag="0"/>
      <psa10 value="0.0258177646" flag="0"/>
      <psa30 value="0.0043089706" flag="0"/>
    </comp>
  </station>
  <station code="MDNY" name="MDNY" netid="KO" insttype="CMG-3ESP" commtype="DIG" lat="40.3709" lon="28.8846">
    <comp name="--.HHZ">
      <acc value="0.2058401570" flag="0"/>
      <vel value="0.0789616532" flag="0"/>
      <psa03 value="0.2599477882" flag="0"/>
      <psa10 value="0.0369753243" flag="0"/>
      <psa30 value="0.0083888596" flag="0"/>
    </comp>
    <comp name="--.HHE">
      <acc value="0.4219553082" flag="0"/>
      <vel value="0.1529362396" flag="0"/>
      <psa03 value="1.3989109330" flag="0"/>
      <psa10 value="0.0545675220" flag="0"/>
      <psa30 value="0.0095485234" flag="0"/>
    </comp>
    <comp name="--.HHN">
      <acc value="0.5555947707" flag="0"/>
      <vel value="0.2067253125" flag="0"/>
      <psa03 value="1.4672468309" flag="0"/>
      <psa10 value="0.0506167676" flag="0"/>
      <psa30 value="0.0095599320" flag="0"/>
    </comp>
  </station>
  <station code="NAZL" name="NAZL" netid="KO" insttype="CMG-5T" commtype="DIG" lat="37.9641" lon="28.2922">
    <comp name="--.HNE">
      <acc value="0.0595747575" flag="0"/>
      <vel value="0.0608158996" flag="0"/>
      <psa03 value="0.2118832274" flag="0"/>
      <psa10 value="0.0756045182" flag="0"/>
      <psa30 value="0.0117110743" flag="0"/>
    </comp>
    <comp name="--.HNZ">
      <acc value="0.0476113774" flag="0"/>
      <vel value="0.0193387027" flag="0"/>
      <psa03 value="0.0991816452" flag="0"/>
      <psa10 value="0.0270397510" flag="0"/>
      <psa30 value="0.0034301270" flag="0"/>
    </comp>
    <comp name="--.HNN">
      <acc value="0.0603303039" flag="0"/>
      <vel value="0.0468834709" flag="0"/>
      <psa03 value="0.1447951318" flag="0"/>
      <psa10 value="0.0513400372" flag="0"/>
      <psa30 value="0.0030923954" flag="0"/>
    </comp>
  </station>
  <station code="ORLT" name="ORLT" netid="KO" insttype="CMG-5T" commtype="DIG" lat="40.0452" lon="28.8914">
    <comp name="--.HNE">
      <acc value="0.2089600200" flag="0"/>
      <vel value="0.1085846042" flag="0"/>
      <psa03 value="0.4460012582" flag="0"/>
      <psa10 value="0.0740220188" flag="0"/>
      <psa30 value="0.0099773168" flag="0"/>
    </comp>
    <comp name="--.HNN">
      <acc value="0.2543931871" flag="0"/>
      <vel value="0.1222109217" flag="0"/>
      <psa03 value="0.8311479956" flag="0"/>
      <psa10 value="0.0767671359" flag="0"/>
      <psa30 value="0.0198612760" flag="0"/>
    </comp>
    <comp name="--.HNZ">
      <acc value="0.1552483764" flag="0"/>
      <vel value="0.0762375007" flag="0"/>
      <psa03 value="0.3480425869" flag="0"/>
      <psa10 value="0.0465522211" flag="0"/>
      <psa30 value="0.0156455579" flag="0"/>
    </comp>
  </station>
  <station code="SHAP" name="SHAP" netid="KO" insttype="CMG-5T" commtype="DIG" lat="39.0231" lon="29.222">
    <comp name="--.HNZ">
      <acc value="0.1628725568" flag="0"/>
      <vel value="0.0369892613" flag="0"/>
      <psa03 value="0.1199288968" flag="0"/>
      <psa10 value="0.0244795069" flag="0"/>
      <psa30 value="0.0035269988" flag="0"/>
    </comp>
    <comp name="--.HNN">
      <acc value="0.2637296483" flag="0"/>
      <vel value="0.0798599872" flag="0"/>
      <psa03 value="0.3184732589" flag="0"/>
      <psa10 value="0.0387812531" flag="0"/>
      <psa30 value="0.0032534303" flag="0"/>
    </comp>
    <comp name="--.HNE">
      <acc value="0.2239100358" flag="0"/>
      <vel value="0.0740056148" flag="0"/>
      <psa03 value="0.3947185145" flag="0"/>
      <psa10 value="0.0241974840" flag="0"/>
      <psa30 value="0.0051251293" flag="0"/>
    </comp>
  </station>
  <station code="SIMA" name="SIMA" netid="KO" insttype="CMG-6T" commtype="DIG" lat="39.0833" lon="28.9825">
    <comp name="--.HHE">
      <acc value="0.3038753617" flag="0"/>
      <vel value="0.0692207656" flag="0"/>
      <psa03 value="0.3168607428" flag="0"/>
      <psa10 value="0.0244749361" flag="0"/>
      <psa30 value="0.0054489965" flag="0"/>
    </comp>
    <comp name="--.HHN">
      <acc value="0.2599969906" flag="0"/>
      <vel value="0.1030972100" flag="0"/>
      <psa03 value="0.4455364269" flag="0"/>
      <psa10 value="0.0378714845" flag="0"/>
      <psa30 value="0.0048106030" flag="0"/>
    </comp>
    <comp name="--.HHZ">
      <acc value="0.1714881556" flag="0"/>
      <vel value="0.0355370905" flag="0"/>
      <psa03 value="0.2138658084" flag="0"/>
      <psa10 value="0.0178409502" flag="0"/>
      <psa30 value="0.0030301045" flag="0"/>
    </comp>
  </station>
  <station code="SMAA" name="SMAA" netid="KO" insttype="CMG-5T" commtype="DIG" lat="39.1005" lon="28.9805">
    <comp name="--.HNZ">
      <acc value="0.1213712724" flag="0"/>
      <vel value="0.0521244343" flag="0"/>
      <psa03 value="0.1311097066" flag="0"/>
      <psa10 value="0.0933279602" flag="0"/>
      <psa30 value="0.0051773496" flag="0"/>
    </comp>
    <comp name="--.HNE">
      <acc value="0.3112151933" flag="0"/>
      <vel value="0.1826981475" flag="0"/>
