<?xml version="1.0" encoding="UTF-8" standalone="yes"?>
<!DOCTYPE earthquake SYSTEM "stationlist.dtd">
<stationlist created="" xmlns="ch.ethz.sed.shakemap.usgs.xml">
  <station code="LOZB" name="LOZB" netid="BS" insttype="Seismometer/Basalt" lat="43.3701" lon="26.593">
    <comp name="--.HHN">
      <acc value="0.0864719471" flag="0"/>
      <vel value="0.0392374317" flag="0"/>
      <psa03 value="0.1975973805" flag="0"/>
      <psa10 value="0.0367555803" flag="0"/>
      <psa30 value="0.0125039517" flag="0"/>
    </comp>
    <comp name="--.HHZ">
      <acc value="0.0320886583" flag="0"/>
      <vel value="0.0126212940" flag="0"/>
      <psa03 value="0.0840720346" flag="0"/>
      <psa10 value="0.0087452672" flag="0"/>
      <psa30 value="0.0016638222" flag="0"/>
    </comp>
  </station>
  <station code="RAZG" name="RAZG" netid="BS" insttype="200" lat="43.5662" lon="26.5079">
    <comp name="--.HNE">
      <acc value="0.0516684222" flag="0"/>
      <vel value="0.0155630244" flag="0"/>
      <psa03 value="0.0411489149" flag="0"/>
      <psa10 value="0.0094340846" flag="0"/>
      <psa30 value="0.0027017578" flag="0"/>
    </comp>
    <comp name="--.HNN">
      <acc value="0.0520628786" flag="0"/>
      <vel value="0.0133479668" flag="0"/>
      <psa03 value="0.0337945820" flag="0"/>
      <psa10 value="0.0083752231" flag="0"/>
      <psa30 value="0.0015589810" flag="0"/>
    </comp>
    <comp name="--.HNZ">
      <acc value="0.0222772191" flag="0"/>
      <vel value="0.0081020412" flag="0"/>
      <psa03 value="0.0276108840" flag="0"/>
      <psa10 value="0.0078008286" flag="0"/>
      <psa30 value="0.0022596481" flag="0"/>
    </comp>
  </station>
  <station code="SILAM" name="SILAM" netid="BS" insttype="200" lat="44.1046" lon="27.2665">
    <comp name="--.HNN">
      <acc value="0.0388398334" flag="0"/>
      <vel value="0.0140589145" flag="0"/>
      <psa03 value="0.1596996900" flag="0"/>
      <psa10 value="0.0038800354" flag="0"/>
      <psa30 value="0.0006520906" flag="0"/>
    </comp>
    <comp name="--.HNE">
      <acc value="0.0349429883" flag="0"/>
      <vel value="0.0139389014" flag="0"/>
      <psa03 value="0.1201929263" flag="0"/>
      <psa10 value="0.0063543250" flag="0"/>
      <psa30 value="0.0035943442" flag="0"/>
    </comp>
    <comp name="--.HNZ">
      <acc value="0.0291295087" flag="0"/>
      <vel value="0.0076910894" flag="0"/>
      <psa03 value="0.0236567317" flag="0"/>
      <psa10 value="0.0035070209" flag="0"/>
      <psa30 value="0.0005397773" flag="0"/>
    </comp>
  </station>
  <station code="ICOR" name="ICOR" netid="RO" insttype="CMG40T.1to100/Quanterra" lat="44.1168" lon="27.8009">
    <comp name="--.HHE">
      <acc value="0.0501028839" flag="0"/>
      <vel value="0.0218060613" flag="0"/>
      <psa03 value="0.1207241190" flag="0"/>
      <psa10 value="0.0263948606" flag="0"/>
      <psa30 value="0.0032809283" flag="0"/>
    </comp>
    <comp name="--.HHN">
      <acc value="0.0434924454" flag="0"/>
      <vel value="0.0297805335" flag="0"/>
      <psa03 value="0.1029679666" flag="0"/>
      <psa10 value="0.0208693849" flag="0"/>
      <psa30 value="0.0017258834" flag="0"/>
    </comp>
    <comp name="--.HHZ">
      <acc value="0.0332401968" flag="0"/>
      <vel value="0.0102700307" flag="0"/>
      <psa03 value="0.0517609421" flag="0"/>
      <psa10 value="0.0064195498" flag="0"/>
      <psa30 value="0.0009478221" flag="0"/>
    </comp>
  </station>
</stationlist>
