<?xml version="1.0" encoding="UTF-8" standalone="yes"?>
<!DOCTYPE earthquake SYSTEM "stationlist.dtd">
<stationlist created="" xmlns="ch.ethz.sed.shakemap.usgs.xml">
  <station code="ELND" name="ELND" netid="BS" insttype="Seismometer/Basalt" lat="42.9287" lon="25.8751">
    <comp name="--.HHE">
      <acc value="0.0351389738" flag="0"/>
      <vel value="0.0082788248" flag="0"/>
      <psa03 value="0.0473119078" flag="0"/>
      <psa10 value="0.0047591962" flag="0"/>
      <psa30 value="0.0007387011" flag="0"/>
    </comp>
    <comp name="--.HHN">
      <acc value="0.0372816501" flag="0"/>
      <vel value="0.0100979552" flag="0"/>
      <psa03 value="0.0446431214" flag="0"/>
      <psa10 value="0.0059384691" flag="0"/>
      <psa30 value="0.0010013327" flag="0"/>
    </comp>
  </station>
  <station code="LOZB" name="LOZB" netid="BS" insttype="Seismometer/Basalt" lat="43.3701" lon="26.593">
    <comp name="--.HHN">
      <acc value="0.0864719481" flag="0"/>
      <vel value="0.0392374246" flag="0"/>
      <psa03 value="0.1975973805" flag="0"/>
      <psa10 value="0.0367555803" flag="0"/>
      <psa30 value="0.0125039803" flag="0"/>
    </comp>
    <comp name="--.HHZ">
      <acc value="0.0320886578" flag="0"/>
      <vel value="0.0126212938" flag="0"/>
      <psa03 value="0.0840720346" flag="0"/>
      <psa10 value="0.0087452673" flag="0"/>
      <psa30 value="0.0016638165" flag="0"/>
    </comp>
    <comp name="--.HHE">
      <acc value="0.0718617893" flag="0"/>
      <vel value="0.0307870165" flag="0"/>
      <psa03 value="0.2836015829" flag="0"/>
      <psa10 value="0.0108134345" flag="0"/>
      <psa30 value="0.0016399086" flag="0"/>
    </comp>
  </station>
  <station code="RAZG" name="RAZG" netid="BS" insttype="Seismometer/Basalt" lat="43.5662" lon="26.5079">
    <comp name="--.HHZ">
      <acc value="0.0224294956" flag="0"/>
      <vel value="0.0075473530" flag="0"/>
      <psa03 value="0.0256184308" flag="0"/>
      <psa10 value="0.0071923600" flag="0"/>
      <psa30 value="0.0020546414" flag="0"/>
    </comp>
    <comp name="--.HHE">
      <acc value="0.0461759853" flag="0"/>
      <vel value="0.0140213253" flag="0"/>
      <psa03 value="0.0382747484" flag="0"/>
      <psa10 value="0.0085339702" flag="0"/>
      <psa30 value="0.0024408694" flag="0"/>
    </comp>
    <comp name="--.HHN">
      <acc value="0.0503910289" flag="0"/>
      <vel value="0.0125848620" flag="0"/>
      <psa03 value="0.0301068270" flag="0"/>
      <psa10 value="0.0079059192" flag="0"/>
      <psa30 value="0.0014968548" flag="0"/>
    </comp>
  </station>
  <station code="SILAM" name="SILAM" netid="BS" insttype="200" lat="44.1046" lon="27.2665">
    <comp name="--.HNN">
      <acc value="0.0388398378" flag="0"/>
      <vel value="0.0140589121" flag="0"/>
      <psa03 value="0.1596996900" flag="0"/>
      <psa10 value="0.0038800355" flag="0"/>
      <psa30 value="0.0006521118" flag="0"/>
    </comp>
    <comp name="--.HNE">
      <acc value="0.0349429866" flag="0"/>
      <vel value="0.0139390140" flag="0"/>
      <psa03 value="0.1201929263" flag="0"/>
      <psa10 value="0.0063543237" flag="0"/>
      <psa30 value="0.0035925495" flag="0"/>
    </comp>
    <comp name="--.HNZ">
      <acc value="0.0291295005" flag="0"/>
      <vel value="0.0076910907" flag="0"/>
      <psa03 value="0.0236567317" flag="0"/>
      <psa10 value="0.0035070209" flag="0"/>
      <psa30 value="0.0005397970" flag="0"/>
    </comp>
  </station>
  <station code="ICOR" name="ICOR" netid="RO" insttype="CMG40T.1to100/Quanterra" lat="44.1168" lon="27.8009">
    <comp name="--.HHE">
      <acc value="0.0501028807" flag="0"/>
      <vel value="0.0218060578" flag="0"/>
      <psa03 value="0.1207241190" flag="0"/>
      <psa10 value="0.0263948605" flag="0"/>
      <psa30 value="0.0032808958" flag="0"/>
    </comp>
    <comp name="--.HHN">
      <acc value="0.0434924467" flag="0"/>
      <vel value="0.0297805320" flag="0"/>
      <psa03 value="0.1029679666" flag="0"/>
      <psa10 value="0.0208693849" flag="0"/>
      <psa30 value="0.0017258766" flag="0"/>
    </comp>
    <comp name="--.HHZ">
      <acc value="0.0332401953" flag="0"/>
      <vel value="0.0102700305" flag="0"/>
      <psa03 value="0.0517609421" flag="0"/>
      <psa10 value="0.0064195498" flag="0"/>
      <psa30 value="0.0009478018" flag="0"/>
    </comp>
  </station>
</stationlist>
