<stationlist created="1778138763">
	<station code="JMB" name="JMB" netid="BS" source="National Seismic Network of Bulgaria (BS)" insttype="" lat="42.4911" lon="26.5296">
		<comp name="--.HNE" depth="0.0">
			<acc value="2.90064405933849" flag="0"/>
			<vel value="2.73753348609841" flag="0"/>
			<psa03 value="5.17375706933235" flag="0"/>
			<psa10 value="3.14044963937433" flag="0"/>
			<psa30 value="1.0425071409805" flag="0"/>
		</comp>
		<comp name="--.HNN" depth="0.0">
			<acc value="2.52022883378551" flag="0"/>
			<vel value="2.95021846842352" flag="0"/>
			<psa03 value="4.67949932720697" flag="0"/>
			<psa10 value="4.58695970357257" flag="0"/>
			<psa30 value="2.13433573593361" flag="0"/>
		</comp>
		<comp name="--.HNZ" depth="0.0">
			<acc value="2.01292559109933" flag="0"/>
			<vel value="2.95788539794589" flag="0"/>
			<psa03 value="6.22145347407553" flag="0"/>
			<psa10 value="1.37614148261775" flag="0"/>
			<psa30 value="2.29420488648182" flag="0"/>
		</comp>
	</station>
	<station code="LOZB" name="LOZB" netid="BS" source="National Seismic Network of Bulgaria (BS)" insttype="" lat="43.3701" lon="26.593">
		<comp name="--.HNE" depth="0.0">
			<acc value="0.079835476439142" flag="0"/>
			<vel value="0.0337743181816841" flag="0"/>
			<psa03 value="0.326525922406427" flag="0"/>
			<psa10 value="0.0113797829172565" flag="0"/>
			<psa30 value="0.00141060917510361" flag="0"/>
		</comp>
		<comp name="--.HNN" depth="0.0">
			<acc value="0.0906216140666876" flag="0"/>
			<vel value="0.0374294830637408" flag="0"/>
			<psa03 value="0.332946035207506" flag="0"/>
			<psa10 value="0.0114496416075547" flag="0"/>
			<psa30 value="0.00182115064229013" flag="0"/>
		</comp>
		<comp name="--.HNZ" depth="0.0">
			<acc value="0.0338071251646806" flag="0"/>
			<vel value="0.0136133994804537" flag="0"/>
			<psa03 value="0.0914832686510267" flag="0"/>
			<psa10 value="0.00923691064999254" flag="0"/>
			<psa30 value="0.00163232000818814" flag="0"/>
		</comp>
	</station>
	<station code="RAZG" name="RAZG" netid="BS" source="National Seismic Network of Bulgaria (BS)" insttype="" lat="43.5662" lon="26.5079">
		<comp name="--.HNE" depth="0.0">
			<acc value="0.0511139043741767" flag="0"/>
			<vel value="0.0158811774821021" flag="0"/>
			<psa03 value="0.0416598196544131" flag="0"/>
			<psa10 value="0.00944421969569326" flag="0"/>
			<psa30 value="0.00294965581688683" flag="0"/>
		</comp>
		<comp name="--.HNN" depth="0.0">
			<acc value="0.0525677965504354" flag="0"/>
			<vel value="0.0134252209379956" flag="0"/>
			<psa03 value="0.034458220187977" flag="0"/>
			<psa10 value="0.00836383875076459" flag="0"/>
			<psa30 value="0.00168552999142315" flag="0"/>
		</comp>
		<comp name="--.HNZ" depth="0.0">
			<acc value="0.0226102824392068" flag="0"/>
			<vel value="0.00802961644964482" flag="0"/>
			<psa03 value="0.0270926593390318" flag="0"/>
			<psa10 value="0.00779634178186446" flag="0"/>
			<psa30 value="0.00248066516522784" flag="0"/>
		</comp>
	</station>
	<station code="VETAM" name="VETAM" netid="BS" source="National Seismic Network of Bulgaria (BS)" insttype="" lat="43.0805" lon="25.6367">
		<comp name="--.HNE" depth="0.0">
			<acc value="0.0126876725102568" flag="0"/>
			<vel value="0.0078250149980396" flag="0"/>
			<psa03 value="0.0365832541902042" flag="0"/>
			<psa10 value="0.00793442405415321" flag="0"/>
			<psa30 value="0.00218635816883155" flag="0"/>
		</comp>
		<comp name="--.HNN" depth="0.0">
			<acc value="0.0155056735641889" flag="0"/>
			<vel value="0.00895176019976233" flag="0"/>
			<psa03 value="0.036988992005857" flag="0"/>
			<psa10 value="0.0119293049454055" flag="0"/>
			<psa30 value="0.00237611386421625" flag="0"/>
		</comp>
		<comp name="--.HNZ" depth="0.0">
			<acc value="0.00989952196435775" flag="0"/>
			<vel value="0.00541792955800074" flag="0"/>
			<psa03 value="0.0211296640594615" flag="0"/>
			<psa10 value="0.00731291413216365" flag="0"/>
			<psa30 value="0.00271004390210784" flag="0"/>
		</comp>
	</station>
	<station code="CTYL" name="CTYL" netid="KO" source="Bogazici University Kandilli Observatory And Earthquake Research Institute (KOERI)" insttype="" lat="41.476" lon="28.2897">
		<comp name="--.HNE" depth="0.0">
			<acc value="0.00710715646777403" flag="0"/>
			<vel value="0.00305253750897454" flag="0"/>
			<psa03 value="0.0199231804900178" flag="0"/>
			<psa10 value="0.00551016502138603" flag="0"/>
			<psa30 value="0.000659030636711375" flag="0"/>
		</comp>
		<comp name="--.HNN" depth="0.0">
			<acc value="0.0075264698342228" flag="0"/>
			<vel value="0.00422470028803055" flag="0"/>
			<psa03 value="0.0185650306234243" flag="0"/>
			<psa10 value="0.00385977819136358" flag="0"/>
			<psa30 value="0.000351408357204039" flag="0"/>
		</comp>
		<comp name="--.HNZ" depth="0.0">
			<acc value="0.00472577735319043" flag="0"/>
			<vel value="0.00324071131706304" flag="0"/>
			<psa03 value="0.0191444908848262" flag="0"/>
			<psa10 value="0.0012539283791003" flag="0"/>
			<psa30 value="0.000665028377780921" flag="0"/>
		</comp>
	</station>
	<station code="COPA" name="COPA" netid="RO" source="Romanian Seismic Network (NIEP)" insttype="" lat="44.1343" lon="25.2172">
		<comp name="--.HNE" depth="0.0">
			<acc value="0.0100760600322505" flag="0"/>
			<vel value="0.00998673458827275" flag="0"/>
			<psa03 value="0.0234229605103277" flag="0"/>
			<psa10 value="0.0140514120871045" flag="0"/>
			<psa30 value="0.00584720693210078" flag="0"/>
		</comp>
		<comp name="--.HNN" depth="0.0">
			<acc value="0.00856548059894088" flag="0"/>
			<vel value="0.00729188545608227" flag="0"/>
			<psa03 value="0.0242973465591385" flag="0"/>
			<psa10 value="0.00977056256430483" flag="0"/>
			<psa30 value="0.00359316511288609" flag="0"/>
		</comp>
		<comp name="--.HNZ" depth="0.0">
			<acc value="0.0037270198452404" flag="0"/>
			<vel value="0.00437009994724765" flag="0"/>
			<psa03 value="0.0106533326841466" flag="0"/>
			<psa10 value="0.00341132301465839" flag="0"/>
			<psa30 value="0.00309119602656443" flag="0"/>
		</comp>
	</station>
	<station code="SULR" name="SULR" netid="RO" source="Romanian Seismic Network (NIEP)" insttype="" lat="44.6777" lon="26.2526">
		<comp name="--.HNE" depth="0.0">
			<acc value="0.015954958195355" flag="0"/>
			<vel value="0.00834126976084939" flag="0"/>
			<psa03 value="0.0236707711974073" flag="0"/>
			<psa10 value="0.0116710684635227" flag="0"/>
			<psa30 value="0.00185996571360016" flag="0"/>
		</comp>
		<comp name="--.HNN" depth="0.0">
			<acc value="0.0175169286105141" flag="0"/>
			<vel value="0.0117074024954675" flag="0"/>
			<psa03 value="0.0301081325368511" flag="0"/>
			<psa10 value="0.0119553157310049" flag="0"/>
			<psa30 value="0.00202344425158451" flag="0"/>
		</comp>
		<comp name="--.HNZ" depth="0.0">
			<acc value="0.00937609050156515" flag="0"/>
			<vel value="0.00405703997161309" flag="0"/>
			<psa03 value="0.0181606158120922" flag="0"/>
			<psa10 value="0.00368944026668569" flag="0"/>
			<psa30 value="0.000706236055506885" flag="0"/>
		</comp>
	</station>
</stationlist>
