<?xml version="1.0" encoding="UTF-8" standalone="yes"?>
<!DOCTYPE earthquake SYSTEM "stationlist.dtd">
<stationlist created="" xmlns="ch.ethz.sed.shakemap.usgs.xml">
  <station code="ITS1" name="ITS1" netid="HI" insttype="unknown" commtype="DIG" lat="40.605" lon="23.0123">
    <comp name="--.HNN">
      <acc value="0.0151657519" flag="0"/>
      <vel value="0.0082559986" flag="0"/>
      <psa03 value="0.0511713568" flag="0"/>
      <psa10 value="0.0090857038" flag="0"/>
      <psa30 value="0.0005548504" flag="0"/>
    </comp>
    <comp name="--.HNZ">
      <acc value="0.0095819853" flag="0"/>
      <vel value="0.0041754654" flag="0"/>
      <psa03 value="0.0230095423" flag="0"/>
      <psa10 value="0.0032839833" flag="0"/>
      <psa30 value="0.0002129354" flag="0"/>
    </comp>
    <comp name="--.HNE">
      <acc value="0.0134235601" flag="0"/>
      <vel value="0.0071381641" flag="0"/>
      <psa03 value="0.0253442342" flag="0"/>
      <psa10 value="0.0038796749" flag="0"/>
      <psa30 value="0.0004377622" flag="0"/>
    </comp>
  </station>
  <station code="LMN1" name="LMN1" netid="HI" insttype="CMG-5TD,ACCELEROMETER,GURALP" commtype="DIG" lat="39.875" lon="25.0588">
    <comp name="--.HNE">
      <acc value="0.0754270536" flag="0"/>
      <vel value="0.0298590901" flag="0"/>
      <psa03 value="0.2645552835" flag="0"/>
      <psa10 value="0.0066285605" flag="0"/>
      <psa30 value="0.0009241496" flag="0"/>
    </comp>
    <comp name="--.HNZ">
      <acc value="0.0791755723" flag="0"/>
      <vel value="0.0159252947" flag="0"/>
      <psa03 value="0.0616190807" flag="0"/>
      <psa10 value="0.0048140465" flag="0"/>
      <psa30 value="0.0003760928" flag="0"/>
    </comp>
    <comp name="--.HNN">
      <acc value="0.0717924492" flag="0"/>
      <vel value="0.0315541195" flag="0"/>
      <psa03 value="0.2503603417" flag="0"/>
      <psa10 value="0.0075380267" flag="0"/>
      <psa30 value="0.0008588155" flag="0"/>
    </comp>
  </station>
  <station code="PLA1" name="PLA1" netid="HI" insttype="unknown" commtype="DIG" lat="40.5559" lon="22.9886">
    <comp name="--.HNZ">
      <acc value="0.0221759082" flag="0"/>
      <vel value="0.0047585346" flag="0"/>
      <psa03 value="0.0152012394" flag="0"/>
      <psa10 value="0.0050172479" flag="0"/>
      <psa30 value="0.0004099981" flag="0"/>
    </comp>
    <comp name="--.HNN">
      <acc value="0.0117053997" flag="0"/>
      <vel value="0.0072355918" flag="0"/>
      <psa03 value="0.0367003084" flag="0"/>
      <psa10 value="0.0087658026" flag="0"/>
      <psa30 value="0.0011248495" flag="0"/>
    </comp>
    <comp name="--.HNE">
      <acc value="0.0118379999" flag="0"/>
      <vel value="0.0106041203" flag="0"/>
      <psa03 value="0.0272078342" flag="0"/>
      <psa10 value="0.0136422559" flag="0"/>
      <psa30 value="0.0009221143" flag="0"/>
    </comp>
  </station>
  <station code="XAN2" name="XAN2" netid="HI" insttype="unknown" commtype="DIG" lat="41.142" lon="24.8908">
    <comp name="--.HNZ">
      <acc value="0.0119332711" flag="0"/>
      <vel value="0.0065930902" flag="0"/>
      <psa03 value="0.0137145901" flag="0"/>
      <psa10 value="0.0137275274" flag="0"/>
      <psa30 value="0.0007416949" flag="0"/>
    </comp>
    <comp name="--.HNE">
      <acc value="0.0176190441" flag="0"/>
      <vel value="0.0139457928" flag="0"/>
      <psa03 value="0.0659155480" flag="0"/>
      <psa10 value="0.0185622272" flag="0"/>
      <psa30 value="0.0010415370" flag="0"/>
    </comp>
    <comp name="--.HNN">
      <acc value="0.0151129771" flag="0"/>
      <vel value="0.0139587200" flag="0"/>
      <psa03 value="0.0289764753" flag="0"/>
      <psa10 value="0.0130432233" flag="0"/>
      <psa30 value="0.0007691131" flag="0"/>
    </comp>
  </station>
  <station code="KVLA" name="KVLA" netid="HL" insttype="CMG-5" commtype="DIG" lat="40.937" lon="24.3859">
    <comp name="00.HNE">
      <acc value="0.0437273481" flag="0"/>
      <vel value="0.0110541071" flag="0"/>
      <psa03 value="0.0486632200" flag="0"/>
      <psa10 value="0.0046351603" flag="0"/>
      <psa30 value="0.0004585826" flag="0"/>
    </comp>
    <comp name="00.HNN">
      <acc value="0.0374977323" flag="0"/>
      <vel value="0.0080258134" flag="0"/>
      <psa03 value="0.0441484129" flag="0"/>
      <psa10 value="0.0034225129" flag="0"/>
      <psa30 value="0.0003313236" flag="0"/>
    </comp>
    <comp name="00.HNZ">
      <acc value="0.0396930002" flag="0"/>
      <vel value="0.0069772230" flag="0"/>
      <psa03 value="0.0314533518" flag="0"/>
      <psa10 value="0.0037642231" flag="0"/>
      <psa30 value="0.0002781628" flag="0"/>
    </comp>
  </station>
  <station code="LIA" name="LIA" netid="HL" insttype="60s" commtype="DIG" lat="39.8972" lon="25.1806">
    <comp name="--.HHE">
      <acc value="0.0222529929" flag="0"/>
      <vel value="0.0092009580" flag="0"/>
      <psa03 value="0.0402095839" flag="0"/>
      <psa10 value="0.0054221414" flag="0"/>
      <psa30 value="0.0004954926" flag="0"/>
    </comp>
    <comp name="--.HHN">
      <acc value="0.0256329259" flag="0"/>
      <vel value="0.0109139121" flag="0"/>
      <psa03 value="0.0600208061" flag="0"/>
      <psa10 value="0.0052219232" flag="0"/>
      <psa30 value="0.0003874163" flag="0"/>
    </comp>
    <comp name="--.HHZ">
      <acc value="0.0177480601" flag="0"/>
      <vel value="0.0059857574" flag="0"/>
      <psa03 value="0.0332357727" flag="0"/>
      <psa10 value="0.0043947442" flag="0"/>
      <psa30 value="0.0004429736" flag="0"/>
    </comp>
  </station>
  <station code="NGRA" name="NGRA" netid="HL" insttype="CMG-5" commtype="DIG" lat="40.9075" lon="23.4993">
    <comp name="00.HNE">
      <acc value="0.0336247153" flag="0"/>
      <vel value="0.0216892188" flag="0"/>
      <psa03 value="0.0856707333" flag="0"/>
      <psa10 value="0.0156849451" flag="0"/>
      <psa30 value="0.0019258755" flag="0"/>
    </comp>
    <comp name="00.HNN">
      <acc value="0.0332276499" flag="0"/>
      <vel value="0.0134910563" flag="0"/>
      <psa03 value="0.1022617351" flag="0"/>
      <psa10 value="0.0116111911" flag="0"/>
      <psa30 value="0.0009410445" flag="0"/>
    </comp>
    <comp name="00.HNZ">
      <acc value="0.0232479241" flag="0"/>
      <vel value="0.0114389018" flag="0"/>
      <psa03 value="0.0499910647" flag="0"/>
      <psa10 value="0.0173962346" flag="0"/>
      <psa30 value="0.0007932372" flag="0"/>
    </comp>
  </station>
  <station code="PLG" name="PLG" netid="HL" insttype="120" commtype="DIG" lat="40.3733" lon="23.4444">
    <comp name="--.HHE">
      <acc value="0.0665005801" flag="0"/>
      <vel value="0.0143202534" flag="0"/>
      <psa03 value="0.0835674879" flag="0"/>
      <psa10 value="0.0052867191" flag="0"/>
      <psa30 value="0.0005473500" flag="0"/>
    </comp>
    <comp name="--.HHN">
      <acc value="0.0623446702" flag="0"/>
      <vel value="0.0119229111" flag="0"/>
      <psa03 value="0.0813364285" flag="0"/>
      <psa10 value="0.0069957885" flag="0"/>
      <psa30 value="0.0007780339" flag="0"/>
    </comp>
    <comp name="--.HHZ">
      <acc value="0.0482222753" flag="0"/>
      <vel value="0.0181380204" flag="0"/>
      <psa03 value="0.0793261955" flag="0"/>
      <psa10 value="0.0063614086" flag="0"/>
      <psa30 value="0.0005042925" flag="0"/>
    </comp>
  </station>
  <station code="PRAS" name="PRAS" netid="HL" insttype="120" commtype="DIG" lat="41.3524" lon="24.55">
    <comp name="--.HHE">
      <acc value="0.0142379942" flag="0"/>
      <vel value="0.0046234196" flag="0"/>
      <psa03 value="0.0355969073" flag="0"/>
      <psa10 value="0.0032112645" flag="0"/>
      <psa30 value="0.0002304546" flag="0"/>
    </comp>
    <comp name="--.HHN">
      <acc value="0.0134383968" flag="0"/>
      <vel value="0.0058038803" flag="0"/>
      <psa03 value="0.0268332835" flag="0"/>
      <psa10 value="0.0033452162" flag="0"/>
      <psa30 value="0.0002129395" flag="0"/>
    </comp>
    <comp name="--.HHZ">
      <acc value="0.0108426102" flag="0"/>
      <vel value="0.0041957070" flag="0"/>
      <psa03 value="0.0154700077" flag="0"/>
      <psa10 value="0.0045828328" flag="0"/>
      <psa30 value="0.0004297483" flag="0"/>
    </comp>
  </station>
  <station code="HMT1" name="HMT1" netid="HT" insttype="Compact," commtype="DIG" lat="40.2581" lon="24.2476">
    <comp name="--.HHN">
      <acc value="2.0037511958" flag="0"/>
      <vel value="0.3640986355" flag="0"/>
      <psa03 value="1.1086980475" flag="0"/>
      <psa10 value="0.0774848176" flag="0"/>
      <psa30 value="0.0081143250" flag="0"/>
    </comp>
    <comp name="--.HHE">
      <acc value="2.2001430689" flag="0"/>
      <vel value="0.4445071734" flag="0"/>
      <psa03 value="1.2392929660" flag="0"/>
      <psa10 value="0.0692169755" flag="0"/>
      <psa30 value="0.0089223933" flag="0"/>
    </comp>
    <comp name="--.HHZ">
      <acc value="2.4092966065" flag="0"/>
      <vel value="0.4576549140" flag="0"/>
      <psa03 value="0.7221882596" flag="0"/>
      <psa10 value="0.0614043191" flag="0"/>
      <psa30 value="0.0052506112" flag="0"/>
    </comp>
  </station>
  <station code="HORT" name="HORT" netid="HT" insttype="100" commtype="DIG" lat="40.5978" lon="23.0996">
    <comp name="--.HHN">
      <acc value="0.0000113207" flag="0"/>
      <vel value="0.0000023921" flag="0"/>
      <psa03 value="0.0000091192" flag="0"/>
      <psa10 value="0.0000018517" flag="0"/>
      <psa30 value="0.0000005098" flag="0"/>
    </comp>
    <comp name="--.HHE">
      <acc value="0.0251658104" flag="0"/>
      <vel value="0.0072392788" flag="0"/>
      <psa03 value="0.0503283720" flag="0"/>
      <psa10 value="0.0030505155" flag="0"/>
      <psa30 value="0.0005157213" flag="0"/>
    </comp>
    <comp name="--.HHZ">
      <acc value="0.0160914670" flag="0"/>
      <vel value="0.0042204911" flag="0"/>
      <psa03 value="0.0232969662" flag="0"/>
      <psa10 value="0.0031250672" flag="0"/>
      <psa30 value="0.0002516910" flag="0"/>
    </comp>
  </station>
  <station code="KAVA" name="KAVA" netid="HT" insttype="Compact," commtype="DIG" lat="40.9967" lon="24.5137">
    <comp name="--.HHE">
      <acc value="0.1028822657" flag="0"/>
      <vel value="0.0180787047" flag="0"/>
      <psa03 value="0.0820590900" flag="0"/>
      <psa10 value="0.0163945775" flag="0"/>
      <psa30 value="0.0007648854" flag="0"/>
    </comp>
    <comp name="--.HHN">
      <acc value="0.0879278669" flag="0"/>
      <vel value="0.0155701710" flag="0"/>
      <psa03 value="0.0847647001" flag="0"/>
      <psa10 value="0.0062810787" flag="0"/>
      <psa30 value="0.0004698952" flag="0"/>
    </comp>
    <comp name="--.HHZ">
      <acc value="0.0548701312" flag="0"/>
      <vel value="0.0111111733" flag="0"/>
      <psa03 value="0.0940352630" flag="0"/>
      <psa10 value="0.0060596964" flag="0"/>
      <psa30 value="0.0006543321" flag="0"/>
    </comp>
  </station>
  <station code="KOKK" name="KOKK" netid="HT" insttype="Compact," commtype="DIG" lat="40.8178" lon="23.9992">
    <comp name="--.HHN">
      <acc value="0.0773101408" flag="0"/>
      <vel value="0.0165894880" flag="0"/>
      <psa03 value="0.0858437153" flag="0"/>
      <psa10 value="0.0085441218" flag="0"/>
      <psa30 value="0.0006007760" flag="0"/>
    </comp>
    <comp name="--.HHZ">
      <acc value="0.0474857027" flag="0"/>
      <vel value="0.0111134952" flag="0"/>
      <psa03 value="0.0533612013" flag="0"/>
      <psa10 value="0.0047377591" flag="0"/>
      <psa30 value="0.0003409991" flag="0"/>
    </comp>
    <comp name="--.HHE">
      <acc value="0.0661812248" flag="0"/>
      <vel value="0.0172598218" flag="0"/>
      <psa03 value="0.0892249250" flag="0"/>
      <psa10 value="0.0118513481" flag="0"/>
      <psa30 value="0.0006023912" flag="0"/>
    </comp>
  </station>
  <station code="OUR" name="OUR" netid="HT" insttype="100" commtype="DIG" lat="40.3325" lon="23.9791">
    <comp name="--.HHE">
      <acc value="0.4346932684" flag="0"/>
      <vel value="0.1320469218" flag="0"/>
      <psa03 value="0.4314043207" flag="0"/>
      <psa10 value="0.0673085028" flag="0"/>
      <psa30 value="0.0047349645" flag="0"/>
    </comp>
    <comp name="--.HHZ">
      <acc value="0.5537230097" flag="0"/>
      <vel value="0.1164577308" flag="0"/>
      <psa03 value="0.3046181584" flag="0"/>
      <psa10 value="0.0513858231" flag="0"/>
      <psa30 value="0.0028986889" flag="0"/>
    </comp>
    <comp name="--.HHN">
      <acc value="0.5284551659" flag="0"/>
      <vel value="0.1207736850" flag="0"/>
      <psa03 value="0.4258420641" flag="0"/>
      <psa10 value="0.0647685982" flag="0"/>
      <psa30 value="0.0057747424" flag="0"/>
    </comp>
  </station>
  <station code="PAIG" name="PAIG" netid="HT" insttype="100" commtype="DIG" lat="39.9363" lon="23.6768">
    <comp name="--.HHE">
      <acc value="0.0751670289" flag="0"/>
      <vel value="0.0208471081" flag="0"/>
      <psa03 value="0.0977807643" flag="0"/>
      <psa10 value="0.0144192735" flag="0"/>
      <psa30 value="0.0007676645" flag="0"/>
    </comp>
    <comp name="--.HHN">
      <acc value="0.0461319335" flag="0"/>
      <vel value="0.0155215064" flag="0"/>
      <psa03 value="0.0594732322" flag="0"/>
      <psa10 value="0.0093881989" flag="0"/>
      <psa30 value="0.0006125803" flag="0"/>
    </comp>
    <comp name="--.HHZ">
      <acc value="0.0434180455" flag="0"/>
      <vel value="0.0096513618" flag="0"/>
      <psa03 value="0.0444220368" flag="0"/>
      <psa10 value="0.0056597596" flag="0"/>
      <psa30 value="0.0007520641" flag="0"/>
    </comp>
  </station>
  <station code="SOH" name="SOH" netid="HT" insttype="120P," commtype="DIG" lat="40.8206" lon="23.3557">
    <comp name="--.HHN">
      <acc value="0.0170987583" flag="0"/>
      <vel value="0.0087514882" flag="0"/>
      <psa03 value="0.0384416509" flag="0"/>
      <psa10 value="0.0061642201" flag="0"/>
      <psa30 value="0.0010310606" flag="0"/>
    </comp>
    <comp name="--.HHE">
      <acc value="0.0243538219" flag="0"/>
      <vel value="0.0127023102" flag="0"/>
      <psa03 value="0.0399918987" flag="0"/>
      <psa10 value="0.0140144175" flag="0"/>
      <psa30 value="0.0009556782" flag="0"/>
    </comp>
    <comp name="--.HHZ">
      <acc value="0.0167206876" flag="0"/>
      <vel value="0.0087234890" flag="0"/>
      <psa03 value="0.0267901842" flag="0"/>
      <psa10 value="0.0097440466" flag="0"/>
      <psa30 value="0.0005734741" flag="0"/>
    </comp>
  </station>
  <station code="SRS" name="SRS" netid="HT" insttype="100" commtype="DIG" lat="41.1087" lon="23.595">
    <comp name="--.HHN">
      <acc value="0.0261683179" flag="0"/>
      <vel value="0.0056939190" flag="0"/>
      <psa03 value="0.0205629862" flag="0"/>
      <psa10 value="0.0035747323" flag="0"/>
      <psa30 value="0.0002929794" flag="0"/>
    </comp>
    <comp name="--.HHZ">
      <acc value="0.0209489841" flag="0"/>
      <vel value="0.0039861574" flag="0"/>
      <psa03 value="0.0150603227" flag="0"/>
      <psa10 value="0.0020328522" flag="0"/>
      <psa30 value="0.0001628743" flag="0"/>
    </comp>
    <comp name="--.HHE">
      <acc value="0.0301370984" flag="0"/>
      <vel value="0.0068816491" flag="0"/>
      <psa03 value="0.0206407077" flag="0"/>
      <psa10 value="0.0046084256" flag="0"/>
      <psa30 value="0.0008325987" flag="0"/>
    </comp>
  </station>
  <station code="THAS" name="THAS" netid="HT" insttype="100" commtype="DIG" lat="40.6064" lon="24.7194">
    <comp name="--.HHE">
      <acc value="0.0814186476" flag="0"/>
      <vel value="0.0305408719" flag="0"/>
      <psa03 value="0.1768907335" flag="0"/>
      <psa10 value="0.0129198287" flag="0"/>
      <psa30 value="0.0012947892" flag="0"/>
    </comp>
    <comp name="--.HHN">
      <acc value="0.1336791035" flag="0"/>
      <vel value="0.0438204243" flag="0"/>
      <psa03 value="0.2131153631" flag="0"/>
      <psa10 value="0.0099186070" flag="0"/>
      <psa30 value="0.0012929560" flag="0"/>
    </comp>
    <comp name="--.HHZ">
      <acc value="0.0675043154" flag="0"/>
      <vel value="0.0166214705" flag="0"/>
      <psa03 value="0.0779819136" flag="0"/>
      <psa10 value="0.0063896341" flag="0"/>
      <psa30 value="0.0003508011" flag="0"/>
    </comp>
  </station>
  <station code="THE" name="THE" netid="HT" insttype="30s-100Hz," commtype="DIG" lat="40.6319" lon="22.9628">
    <comp name="--.HHN">
      <acc value="0.0058908254" flag="0"/>
      <vel value="0.0027961490" flag="0"/>
      <psa03 value="0.0092782218" flag="0"/>
      <psa10 value="0.0036971388" flag="0"/>
      <psa30 value="0.0002724110" flag="0"/>
    </comp>
    <comp name="--.HHE">
      <acc value="0.0070362244" flag="0"/>
      <vel value="0.0020979965" flag="0"/>
      <psa03 value="0.0105778375" flag="0"/>
      <psa10 value="0.0023800493" flag="0"/>
      <psa30 value="0.0002170573" flag="0"/>
    </comp>
    <comp name="--.HHZ">
      <acc value="0.0052117475" flag="0"/>
      <vel value="0.0018042227" flag="0"/>
      <psa03 value="0.0099026753" flag="0"/>
      <psa10 value="0.0014732534" flag="0"/>
      <psa30 value="0.0001638528" flag="0"/>
    </comp>
  </station>
</stationlist>
