<?xml version="1.0" encoding="UTF-8" standalone="yes"?>
<!DOCTYPE earthquake SYSTEM "stationlist.dtd">
<stationlist created="" xmlns="ch.ethz.sed.shakemap.usgs.xml">
  <station code="KMON" name="KMON" netid="KO" insttype="CMG-5T" lat="41.3738" lon="33.7839">
    <comp name="--.HNZ">
      <acc value="0.0217677879" flag="0"/>
      <vel value="0.0053174243" flag="0"/>
      <psa03 value="0.0273661871" flag="0"/>
      <psa10 value="0.0038121388" flag="0"/>
      <psa30 value="0.0002592277" flag="0"/>
    </comp>
    <comp name="--.HNE">
      <acc value="0.0292391771" flag="0"/>
      <vel value="0.0138897594" flag="0"/>
      <psa03 value="0.0459967981" flag="0"/>
      <psa10 value="0.0114019189" flag="0"/>
      <psa30 value="0.0008903035" flag="0"/>
    </comp>
    <comp name="--.HNN">
      <acc value="0.0355758607" flag="0"/>
      <vel value="0.0116766739" flag="0"/>
      <psa03 value="0.0785784952" flag="0"/>
      <psa10 value="0.0050969759" flag="0"/>
      <psa30 value="0.0003630464" flag="0"/>
    </comp>
  </station>
</stationlist>
