<stationlist created="1778069548">
	<station code="IMMV" name="IMMV" netid="GE" source="GEOFON" insttype="" lat="35.4606" lon="23.9811">
		<comp name="--.HNE" depth="0.0">
			<acc value="0.00108623055819363" flag="0"/>
			<vel value="0.00174752208764444" flag="0"/>
			<psa03 value="0.00268453239709631" flag="0"/>
			<psa10 value="0.00197313131186578" flag="0"/>
			<psa30 value="0.000450554020645997" flag="0"/>
		</comp>
		<comp name="--.HNN" depth="0.0">
			<acc value="0.000902157136654681" flag="0"/>
			<vel value="0.00179787029696984" flag="0"/>
			<psa03 value="0.00357937652946174" flag="0"/>
			<psa10 value="0.00158655864668392" flag="0"/>
			<psa30 value="0.000466661215028574" flag="0"/>
		</comp>
		<comp name="--.HNZ" depth="0.0">
			<acc value="0.000637902010650199" flag="0"/>
			<vel value="0.00118289316595717" flag="0"/>
			<psa03 value="0.00241607915738667" flag="0"/>
			<psa10 value="0.00135703112673218" flag="0"/>
			<psa30 value="0.000207156416642598" flag="0"/>
		</comp>
	</station>
</stationlist>
