<?xml version="1.0" encoding="UTF-8" standalone="yes"?>
<!DOCTYPE earthquake SYSTEM "stationlist.dtd">
<stationlist created="" xmlns="ch.ethz.sed.shakemap.usgs.xml">
  <station code="JMIC" name="JMIC" netid="NO" insttype="STS-2" lat="70.9866" lon="-8.5057">
    <comp name="00.HHE">
      <acc value="0.1457154505" flag="0"/>
      <vel value="0.0767621502" flag="0"/>
      <psa03 value="0.2378036083" flag="0"/>
      <psa10 value="0.0903600823" flag="0"/>
      <psa30 value="0.0086131072" flag="0"/>
    </comp>
    <comp name="00.HHN">
      <acc value="0.1873988536" flag="0"/>
      <vel value="0.0996624810" flag="0"/>
      <psa03 value="0.3747431097" flag="0"/>
      <psa10 value="0.0610545095" flag="0"/>
      <psa30 value="0.0093901167" flag="0"/>
    </comp>
    <comp name="00.HHZ">
      <acc value="0.0715888207" flag="0"/>
      <vel value="0.0454526775" flag="0"/>
      <psa03 value="0.1406075604" flag="0"/>
      <psa10 value="0.0260953374" flag="0"/>
      <psa30 value="0.0032019528" flag="0"/>
    </comp>
  </station>
  <station code="JNW" name="JNW" netid="NS" insttype="" lat="71.0273" lon="-8.42367">
    <comp name="00.HHN">
      <acc value="0.1762445210" flag="0"/>
      <vel value="0.0911692738" flag="0"/>
      <psa03 value="0.7109779654" flag="0"/>
      <psa10 value="0.1054925349" flag="0"/>
      <psa30 value="0.0106112591" flag="0"/>
    </comp>
    <comp name="00.HHE">
      <acc value="0.2616565935" flag="0"/>
      <vel value="0.1158308207" flag="0"/>
      <psa03 value="0.6815858240" flag="0"/>
      <psa10 value="0.0897091097" flag="0"/>
      <psa30 value="0.0109422863" flag="0"/>
    </comp>
    <comp name="00.HHZ">
      <acc value="0.1142129603" flag="0"/>
      <vel value="0.0430698491" flag="0"/>
      <psa03 value="0.2315937885" flag="0"/>
      <psa10 value="0.0278011943" flag="0"/>
      <psa30 value="0.0053178237" flag="0"/>
    </comp>
  </station>
</stationlist>
