<?xml version="1.0" encoding="UTF-8" standalone="yes"?>
<!DOCTYPE earthquake SYSTEM "stationlist.dtd">
<stationlist created="" xmlns="ch.ethz.sed.shakemap.usgs.xml">
  <station code="AFSR" name="AFSR" netid="KO" insttype="CMG-3ESP" commtype="DIG" lat="39.4468" lon="33.0707">
    <comp name="--.HHZ">
      <acc value="0.0085885834" flag="0"/>
      <vel value="0.0044959803" flag="0"/>
      <psa03 value="0.0111752313" flag="0"/>
      <psa10 value="0.0091481698" flag="0"/>
      <psa30 value="0.0009836171" flag="0"/>
    </comp>
    <comp name="--.HHE">
      <acc value="0.0140219528" flag="0"/>
      <vel value="0.0074538795" flag="0"/>
      <psa03 value="0.0239787771" flag="0"/>
      <psa10 value="0.0127383107" flag="0"/>
      <psa30 value="0.0013813368" flag="0"/>
    </comp>
    <comp name="--.HHN">
      <acc value="0.0112382137" flag="0"/>
      <vel value="0.0073227101" flag="0"/>
      <psa03 value="0.0302606297" flag="0"/>
      <psa10 value="0.0089737192" flag="0"/>
      <psa30 value="0.0019481212" flag="0"/>
    </comp>
  </station>
  <station code="CANT" name="CANT" netid="KO" insttype="CMG-3ESP" commtype="DIG" lat="40.6062" lon="33.6193">
    <comp name="--.HHE">
      <acc value="0.0486050508" flag="0"/>
      <vel value="0.0401861553" flag="0"/>
      <psa03 value="0.1311584429" flag="0"/>
      <psa10 value="0.0587535836" flag="0"/>
      <psa30 value="0.0067303551" flag="0"/>
    </comp>
    <comp name="--.HHN">
      <acc value="0.0426474041" flag="0"/>
      <vel value="0.0239256169" flag="0"/>
      <psa03 value="0.0960869532" flag="0"/>
      <psa10 value="0.0172891791" flag="0"/>
      <psa30 value="0.0021786484" flag="0"/>
    </comp>
    <comp name="--.HHZ">
      <acc value="0.0228309897" flag="0"/>
      <vel value="0.0154445236" flag="0"/>
      <psa03 value="0.0473894136" flag="0"/>
      <psa10 value="0.0358697712" flag="0"/>
      <psa30 value="0.0034848000" flag="0"/>
    </comp>
  </station>
  <station code="CORM" name="CORM" netid="KO" insttype="CMG-6T" commtype="DIG" lat="40.1785" lon="34.6302">
    <comp name="--.HHZ">
      <acc value="0.0059384792" flag="0"/>
      <vel value="0.0033659191" flag="0"/>
      <psa03 value="0.0231021466" flag="0"/>
      <psa10 value="0.0021829074" flag="0"/>
      <psa30 value="0.0007295093" flag="0"/>
    </comp>
    <comp name="--.HHN">
      <acc value="0.0105746829" flag="0"/>
      <vel value="0.0077656172" flag="0"/>
      <psa03 value="0.0261669833" flag="0"/>
      <psa10 value="0.0097400098" flag="0"/>
      <psa30 value="0.0017644760" flag="0"/>
    </comp>
    <comp name="--.HHE">
      <acc value="0.0081289373" flag="0"/>
      <vel value="0.0045553292" flag="0"/>
      <psa03 value="0.0336296835" flag="0"/>
      <psa10 value="0.0036568940" flag="0"/>
      <psa30 value="0.0011706878" flag="0"/>
    </comp>
  </station>
  <station code="GERE" name="GERE" netid="KO" insttype="CMG-6T" commtype="DIG" lat="40.8004" lon="32.2154">
    <comp name="--.HHN">
      <acc value="0.0124838456" flag="0"/>
      <vel value="0.0102923882" flag="0"/>
      <psa03 value="0.0317059875" flag="0"/>
      <psa10 value="0.0138878325" flag="0"/>
      <psa30 value="0.0005936633" flag="0"/>
    </comp>
    <comp name="--.HHE">
      <acc value="0.0092375489" flag="0"/>
      <vel value="0.0063007667" flag="0"/>
      <psa03 value="0.0397127297" flag="0"/>
      <psa10 value="0.0111068525" flag="0"/>
      <psa30 value="0.0003577876" flag="0"/>
    </comp>
    <comp name="--.HHZ">
      <acc value="0.0050249866" flag="0"/>
      <vel value="0.0029471070" flag="0"/>
      <psa03 value="0.0130932735" flag="0"/>
      <psa10 value="0.0043718705" flag="0"/>
      <psa30 value="0.0001334778" flag="0"/>
    </comp>
  </station>
  <station code="KAMT" name="KAMT" netid="KO" insttype="CMG-3T" commtype="DIG" lat="39.3689" lon="33.7087">
    <comp name="--.HHZ">
      <acc value="0.0090787357" flag="0"/>
      <vel value="0.0023354398" flag="0"/>
      <psa03 value="0.0124811996" flag="0"/>
      <psa10 value="0.0021738171" flag="0"/>
      <psa30 value="0.0011130407" flag="0"/>
    </comp>
    <comp name="--.HHN">
      <acc value="0.0123536785" flag="0"/>
      <vel value="0.0056283122" flag="0"/>
      <psa03 value="0.0191792563" flag="0"/>
      <psa10 value="0.0058434412" flag="0"/>
      <psa30 value="0.0010211364" flag="0"/>
    </comp>
    <comp name="--.HHE">
      <acc value="0.0160054372" flag="0"/>
      <vel value="0.0054760756" flag="0"/>
      <psa03 value="0.0250567691" flag="0"/>
      <psa10 value="0.0045470091" flag="0"/>
      <psa30 value="0.0006671894" flag="0"/>
    </comp>
  </station>
  <station code="LOD" name="LOD" netid="KO" insttype="CMG-3T" commtype="DIG" lat="39.8884" lon="32.7634">
    <comp name="--.HHZ">
      <acc value="0.0285991598" flag="0"/>
      <vel value="0.0085557177" flag="0"/>
      <psa03 value="0.0245190428" flag="0"/>
      <psa10 value="0.0087379070" flag="0"/>
      <psa30 value="0.0009634506" flag="0"/>
    </comp>
  </station>
  <station code="POLA" name="POLA" netid="KO" insttype="CMG-6T" commtype="DIG" lat="39.7005" lon="32.1677">
    <comp name="--.HHZ">
      <acc value="0.0100413317" flag="0"/>
      <vel value="0.0054807398" flag="0"/>
      <psa03 value="0.0278204557" flag="0"/>
      <psa10 value="0.0038363379" flag="0"/>
      <psa30 value="0.0002074957" flag="0"/>
    </comp>
    <comp name="--.HHN">
      <acc value="0.0160815732" flag="0"/>
      <vel value="0.0112389979" flag="0"/>
      <psa03 value="0.0319051255" flag="0"/>
      <psa10 value="0.0092285137" flag="0"/>
      <psa30 value="0.0005983456" flag="0"/>
    </comp>
    <comp name="--.HHE">
      <acc value="0.0121171857" flag="0"/>
      <vel value="0.0095366761" flag="0"/>
      <psa03 value="0.0355183440" flag="0"/>
      <psa10 value="0.0073239687" flag="0"/>
      <psa30 value="0.0003003597" flag="0"/>
    </comp>
  </station>
  <station code="TOS" name="TOS" netid="KO" insttype="CMG-5T" commtype="DIG" lat="41.0362" lon="34.0226">
    <comp name="--.HNE">
      <acc value="0.0046662982" flag="0"/>
      <vel value="0.0032642344" flag="0"/>
      <psa03 value="0.0129496166" flag="0"/>
      <psa10 value="0.0038342514" flag="0"/>
      <psa30 value="0.0006597253" flag="0"/>
    </comp>
    <comp name="--.HNN">
      <acc value="0.0068807810" flag="0"/>
      <vel value="0.0048800124" flag="0"/>
      <psa03 value="0.0168319793" flag="0"/>
      <psa10 value="0.0069560348" flag="0"/>
      <psa30 value="0.0006372421" flag="0"/>
    </comp>
    <comp name="--.HNZ">
      <acc value="0.0086202241" flag="0"/>
      <vel value="0.0030491417" flag="0"/>
      <psa03 value="0.0127761407" flag="0"/>
      <psa10 value="0.0025692922" flag="0"/>
      <psa30 value="0.0004626934" flag="0"/>
    </comp>
  </station>
  <station code="YALI" name="YALI" netid="KO" insttype="CMG-6T" commtype="DIG" lat="40.7676" lon="32.9822">
    <comp name="--.HHE">
      <acc value="0.0299675581" flag="0"/>
      <vel value="0.0156659073" flag="0"/>
      <psa03 value="0.0762351023" flag="0"/>
      <psa10 value="0.0119447047" flag="0"/>
      <psa30 value="0.0017923965" flag="0"/>
    </comp>
    <comp name="--.HHN">
      <acc value="0.0375658785" flag="0"/>
      <vel value="0.0186041731" flag="0"/>
      <psa03 value="0.0845904957" flag="0"/>
      <psa10 value="0.0113187581" flag="0"/>
      <psa30 value="0.0018199490" flag="0"/>
    </comp>
    <comp name="--.HHZ">
      <acc value="0.0095673358" flag="0"/>
      <vel value="0.0050666041" flag="0"/>
      <psa03 value="0.0251861696" flag="0"/>
      <psa10 value="0.0086792685" flag="0"/>
      <psa30 value="0.0025573961" flag="0"/>
    </comp>
  </station>
</stationlist>
