<?xml version="1.0" encoding="UTF-8" standalone="yes"?>
<!DOCTYPE earthquake SYSTEM "stationlist.dtd">
<stationlist created="" xmlns="ch.ethz.sed.shakemap.usgs.xml">
  <station code="DARE" name="DARE" netid="KO" insttype="CMG-3ESP" lat="38.5712" lon="37.4832">
    <comp name="--.HHE">
      <acc value="0.0129570357" flag="0"/>
      <vel value="0.0033802320" flag="0"/>
      <psa03 value="0.0180569846" flag="0"/>
      <psa10 value="0.0044547769" flag="0"/>
      <psa30 value="0.0003046248" flag="0"/>
    </comp>
    <comp name="--.HHN">
      <acc value="0.0103601883" flag="0"/>
      <vel value="0.0027650871" flag="0"/>
      <psa03 value="0.0101243898" flag="0"/>
      <psa10 value="0.0042144505" flag="0"/>
      <psa30 value="0.0001436661" flag="0"/>
    </comp>
    <comp name="--.HHZ">
      <acc value="0.0101556017" flag="0"/>
      <vel value="0.0030867212" flag="0"/>
      <psa03 value="0.0092333235" flag="0"/>
      <psa10 value="0.0025384582" flag="0"/>
      <psa30 value="0.0002398026" flag="0"/>
    </comp>
  </station>
  <station code="GAZ" name="GAZ" netid="KO" insttype="CMG-3T" lat="37.1721" lon="37.2096">
    <comp name="--.HHE">
      <acc value="0.0026540883" flag="0"/>
      <vel value="0.0011717395" flag="0"/>
      <psa03 value="0.0099798815" flag="0"/>
      <psa10 value="0.0005942718" flag="0"/>
      <psa30 value="0.0000580987" flag="0"/>
    </comp>
    <comp name="--.HHZ">
      <acc value="0.0016938431" flag="0"/>
      <vel value="0.0008458622" flag="0"/>
      <psa03 value="0.0065246796" flag="0"/>
      <psa10 value="0.0005142289" flag="0"/>
      <psa30 value="0.0000353002" flag="0"/>
    </comp>
    <comp name="--.HHN">
      <acc value="0.0016806105" flag="0"/>
      <vel value="0.0009019291" flag="0"/>
      <psa03 value="0.0066855066" flag="0"/>
      <psa10 value="0.0008933775" flag="0"/>
      <psa30 value="0.0000703993" flag="0"/>
    </comp>
  </station>
  <station code="ANDN" name="ANDN" netid="TU" insttype="T" lat="37.58" lon="36.3452">
    <comp name="--.HHE">
      <acc value="0.0058029568" flag="0"/>
      <vel value="0.0032038176" flag="0"/>
      <psa03 value="0.0115135129" flag="0"/>
      <psa10 value="0.0042747020" flag="0"/>
      <psa30 value="0.0002942998" flag="0"/>
    </comp>
    <comp name="--.HHN">
      <acc value="0.0064766820" flag="0"/>
      <vel value="0.0033777841" flag="0"/>
      <psa03 value="0.0213971586" flag="0"/>
      <psa10 value="0.0044474316" flag="0"/>
      <psa30 value="0.0002896508" flag="0"/>
    </comp>
    <comp name="--.HHZ">
      <acc value="0.0022743905" flag="0"/>
      <vel value="0.0014314830" flag="0"/>
      <psa03 value="0.0064721009" flag="0"/>
      <psa10 value="0.0011546469" flag="0"/>
      <psa30 value="0.0001246064" flag="0"/>
    </comp>
  </station>
</stationlist>
