<?xml version="1.0" encoding="UTF-8" standalone="yes"?>
<!DOCTYPE earthquake SYSTEM "stationlist.dtd">
<stationlist created="" xmlns="ch.ethz.sed.shakemap.usgs.xml">
  <station code="ZKR" name="ZKR" netid="GE" insttype="STS-2/N" lat="35.1147" lon="26.2169">
    <comp name="--.HHZ">
      <acc value="0.0005389370" flag="0"/>
      <vel value="0.0004590557" flag="0"/>
      <psa03 value="0.0014001095" flag="0"/>
      <psa10 value="0.0007381058" flag="0"/>
      <psa30 value="0.0000605619" flag="0"/>
    </comp>
    <comp name="--.HHN">
      <acc value="0.0003827920" flag="0"/>
      <vel value="0.0003490364" flag="0"/>
      <psa03 value="0.0016600910" flag="0"/>
      <psa10 value="0.0003660365" flag="0"/>
      <psa30 value="0.0000398698" flag="0"/>
    </comp>
    <comp name="--.HHE">
      <acc value="0.0008273168" flag="0"/>
      <vel value="0.0005913748" flag="0"/>
      <psa03 value="0.0026667118" flag="0"/>
      <psa10 value="0.0007709678" flag="0"/>
      <psa30 value="0.0000978719" flag="0"/>
    </comp>
  </station>
  <station code="ZKR" name="ZKR" netid="HL" insttype="120" lat="35.1147" lon="26.2169">
    <comp name="--.HHE">
      <acc value="0.0008153065" flag="0"/>
      <vel value="0.0005812845" flag="0"/>
      <psa03 value="0.0025923043" flag="0"/>
      <psa10 value="0.0007672914" flag="0"/>
      <psa30 value="0.0000976149" flag="0"/>
    </comp>
    <comp name="--.HHZ">
      <acc value="0.0005356687" flag="0"/>
      <vel value="0.0004533471" flag="0"/>
      <psa03 value="0.0013625024" flag="0"/>
      <psa10 value="0.0007340094" flag="0"/>
      <psa30 value="0.0000602781" flag="0"/>
    </comp>
    <comp name="--.HHN">
      <acc value="0.0003784663" flag="0"/>
      <vel value="0.0003438775" flag="0"/>
      <psa03 value="0.0016175782" flag="0"/>
      <psa10 value="0.0003636255" flag="0"/>
      <psa30 value="0.0000398761" flag="0"/>
    </comp>
  </station>
</stationlist>
