<stationlist created="1778069474">
	<station code="SIT2" name="SIT2" netid="HI" source="ITSAK Strong Motion Network" insttype="" lat="35.2059" lon="26.107">
		<comp name="--.HNE" depth="0.0">
			<acc value="0.0875016721101911" flag="0"/>
			<vel value="0.0610771911602551" flag="0"/>
			<psa03 value="0.202413742741061" flag="0"/>
			<psa10 value="0.0572087276483208" flag="0"/>
			<psa30 value="0.0037771370827145" flag="0"/>
		</comp>
		<comp name="--.HNN" depth="0.0">
			<acc value="0.102139069547854" flag="0"/>
			<vel value="0.0787976751001652" flag="0"/>
			<psa03 value="0.280086213430381" flag="0"/>
			<psa10 value="0.0772178898700781" flag="0"/>
			<psa30 value="0.00571089525275621" flag="0"/>
		</comp>
		<comp name="--.HNZ" depth="0.0">
			<acc value="0.0369488516924997" flag="0"/>
			<vel value="0.0203028395490539" flag="0"/>
			<psa03 value="0.123577974679667" flag="0"/>
			<psa10 value="0.0136347400448521" flag="0"/>
			<psa30 value="0.00349570860308557" flag="0"/>
		</comp>
	</station>
</stationlist>
