<?xml version="1.0" encoding="UTF-8" standalone="yes"?>
<!DOCTYPE earthquake SYSTEM "stationlist.dtd">
<stationlist created="" xmlns="ch.ethz.sed.shakemap.usgs.xml">
  <station code="GVD" name="GVD" netid="GE" insttype="STS-2/N" lat="34.8391" lon="24.0874">
    <comp name="--.HHE">
      <acc value="0.0132604825" flag="0"/>
      <vel value="0.0097965497" flag="0"/>
      <psa03 value="0.0357283771" flag="0"/>
      <psa10 value="0.0113452313" flag="0"/>
      <psa30 value="0.0026603642" flag="0"/>
    </comp>
    <comp name="--.HHZ">
      <acc value="0.0113249440" flag="0"/>
      <vel value="0.0052858618" flag="0"/>
      <psa03 value="0.0213869005" flag="0"/>
      <psa10 value="0.0065418400" flag="0"/>
      <psa30 value="0.0015093211" flag="0"/>
    </comp>
    <comp name="--.HHN">
      <acc value="0.0116914456" flag="0"/>
      <vel value="0.0080342698" flag="0"/>
      <psa03 value="0.0363401917" flag="0"/>
      <psa10 value="0.0100340201" flag="0"/>
      <psa30 value="0.0022185584" flag="0"/>
    </comp>
  </station>
  <station code="ZKR" name="ZKR" netid="GE" insttype="STS-2/N" lat="35.1147" lon="26.2169">
    <comp name="--.HHE">
      <acc value="0.0387467641" flag="0"/>
      <vel value="0.0195673227" flag="0"/>
      <psa03 value="0.1598704422" flag="0"/>
      <psa10 value="0.0283377476" flag="0"/>
      <psa30 value="0.0053868420" flag="0"/>
    </comp>
    <comp name="--.HHN">
      <acc value="0.0216814582" flag="0"/>
      <vel value="0.0102442772" flag="0"/>
      <psa03 value="0.0867219699" flag="0"/>
      <psa10 value="0.0141594324" flag="0"/>
      <psa30 value="0.0021650022" flag="0"/>
    </comp>
    <comp name="--.HHZ">
      <acc value="0.0181643561" flag="0"/>
      <vel value="0.0099992197" flag="0"/>
      <psa03 value="0.0318812881" flag="0"/>
      <psa10 value="0.0168083766" flag="0"/>
      <psa30 value="0.0034259741" flag="0"/>
    </comp>
  </station>
  <station code="STIA" name="STIA" netid="HC" insttype="120" lat="35.2021" lon="26.0909">
    <comp name="--.HHE">
      <acc value="0.0316672684" flag="0"/>
      <vel value="0.0226035457" flag="0"/>
      <psa03 value="0.0849279217" flag="0"/>
      <psa10 value="0.0439494527" flag="0"/>
      <psa30 value="0.0032713884" flag="0"/>
    </comp>
    <comp name="--.HHN">
      <acc value="0.0238389573" flag="0"/>
      <vel value="0.0175283033" flag="0"/>
      <psa03 value="0.0769095554" flag="0"/>
      <psa10 value="0.0407951445" flag="0"/>
      <psa30 value="0.0047655450" flag="0"/>
    </comp>
    <comp name="--.HHZ">
      <acc value="0.0264201496" flag="0"/>
      <vel value="0.0170287484" flag="0"/>
      <psa03 value="0.0935107612" flag="0"/>
      <psa10 value="0.0142721757" flag="0"/>
      <psa30 value="0.0034762064" flag="0"/>
    </comp>
  </station>
  <station code="SIT2" name="SIT2" netid="HI" insttype="CMG-5TD,ACCELEROMETER,GURALP" lat="35.2059" lon="26.107">
    <comp name="--.HNE">
      <acc value="0.0874370861" flag="0"/>
      <vel value="0.0611562722" flag="0"/>
      <psa03 value="0.2005209129" flag="0"/>
      <psa10 value="0.0571468355" flag="0"/>
      <psa30 value="0.0037336552" flag="0"/>
    </comp>
    <comp name="--.HNN">
      <acc value="0.1020527512" flag="0"/>
      <vel value="0.0782857412" flag="0"/>
      <psa03 value="0.2827671168" flag="0"/>
      <psa10 value="0.0771196545" flag="0"/>
      <psa30 value="0.0057116612" flag="0"/>
    </comp>
    <comp name="--.HNZ">
      <acc value="0.0370950646" flag="0"/>
      <vel value="0.0189762454" flag="0"/>
      <psa03 value="0.1215498017" flag="0"/>
      <psa10 value="0.0136352189" flag="0"/>
      <psa30 value="0.0033895280" flag="0"/>
    </comp>
  </station>
  <station code="GVD" name="GVD" netid="HL" insttype="120" lat="34.8391" lon="24.0874">
    <comp name="--.HHE">
      <acc value="0.0130926138" flag="0"/>
      <vel value="0.0096473977" flag="0"/>
      <psa03 value="0.0348379539" flag="0"/>
      <psa10 value="0.0112653480" flag="0"/>
      <psa30 value="0.0026607951" flag="0"/>
    </comp>
    <comp name="--.HHN">
      <acc value="0.0114549733" flag="0"/>
      <vel value="0.0079880748" flag="0"/>
      <psa03 value="0.0353199301" flag="0"/>
      <psa10 value="0.0099702963" flag="0"/>
      <psa30 value="0.0022204423" flag="0"/>
    </comp>
    <comp name="--.HHZ">
      <acc value="0.0109785015" flag="0"/>
      <vel value="0.0052390215" flag="0"/>
      <psa03 value="0.0208166073" flag="0"/>
      <psa10 value="0.0065104355" flag="0"/>
      <psa30 value="0.0015103949" flag="0"/>
    </comp>
  </station>
  <station code="IACM" name="IACM" netid="HL" insttype="120" lat="35.3058" lon="25.0709">
    <comp name="--.HHE">
      <acc value="0.0432860646" flag="0"/>
      <vel value="0.0565544454" flag="0"/>
      <psa03 value="0.0950940066" flag="0"/>
      <psa10 value="0.1543729400" flag="0"/>
      <psa30 value="0.0137645030" flag="0"/>
    </comp>
    <comp name="--.HHN">
      <acc value="0.0416928207" flag="0"/>
      <vel value="0.0470286816" flag="0"/>
      <psa03 value="0.1038003322" flag="0"/>
      <psa10 value="0.0957458137" flag="0"/>
      <psa30 value="0.0073053818" flag="0"/>
    </comp>
    <comp name="--.HHZ">
      <acc value="0.0228571839" flag="0"/>
      <vel value="0.0160342747" flag="0"/>
      <psa03 value="0.0504581253" flag="0"/>
      <psa10 value="0.0349278746" flag="0"/>
      <psa30 value="0.0029486810" flag="0"/>
    </comp>
  </station>
  <station code="IDI" name="IDI" netid="HL" insttype="120" lat="35.288" lon="24.89">
    <comp name="--.HHE">
      <acc value="0.0052127668" flag="0"/>
      <vel value="0.0065435264" flag="0"/>
      <psa03 value="0.0163686562" flag="0"/>
      <psa10 value="0.0084235804" flag="0"/>
      <psa30 value="0.0023164834" flag="0"/>
    </comp>
    <comp name="--.HHN">
      <acc value="0.0041717266" flag="0"/>
      <vel value="0.0053985949" flag="0"/>
      <psa03 value="0.0104583003" flag="0"/>
      <psa10 value="0.0080938320" flag="0"/>
      <psa30 value="0.0021944554" flag="0"/>
    </comp>
    <comp name="--.HHZ">
      <acc value="0.0043568576" flag="0"/>
      <vel value="0.0059520499" flag="0"/>
      <psa03 value="0.0129636247" flag="0"/>
      <psa10 value="0.0075795459" flag="0"/>
      <psa30 value="0.0018555999" flag="0"/>
    </comp>
  </station>
  <station code="NPS" name="NPS" netid="HL" insttype="CMG3ESPC-120s" lat="35.2613" lon="25.6104">
    <comp name="--.HHE">
      <acc value="0.0052036263" flag="0"/>
      <vel value="0.0039692089" flag="0"/>
      <psa03 value="0.0139847153" flag="0"/>
      <psa10 value="0.0080303463" flag="0"/>
      <psa30 value="0.0012905488" flag="0"/>
    </comp>
    <comp name="--.HHN">
      <acc value="0.0095139181" flag="0"/>
      <vel value="0.0125927481" flag="0"/>
      <psa03 value="0.0294185052" flag="0"/>
      <psa10 value="0.0130954533" flag="0"/>
      <psa30 value="0.0023603583" flag="0"/>
    </comp>
    <comp name="--.HHZ">
      <acc value="0.0088784837" flag="0"/>
      <vel value="0.0080886678" flag="0"/>
      <psa03 value="0.0251360419" flag="0"/>
      <psa10 value="0.0103113316" flag="0"/>
      <psa30 value="0.0027695787" flag="0"/>
    </comp>
  </station>
  <station code="ZKR" name="ZKR" netid="HL" insttype="120" lat="35.1147" lon="26.2169">
    <comp name="--.HHN">
      <acc value="0.0210596489" flag="0"/>
      <vel value="0.0100179625" flag="0"/>
      <psa03 value="0.0844154551" flag="0"/>
      <psa10 value="0.0140597862" flag="0"/>
      <psa30 value="0.0021631303" flag="0"/>
    </comp>
    <comp name="--.HHE">
      <acc value="0.0376146363" flag="0"/>
      <vel value="0.0190579629" flag="0"/>
      <psa03 value="0.1556095314" flag="0"/>
      <psa10 value="0.0281166921" flag="0"/>
      <psa30 value="0.0053885343" flag="0"/>
    </comp>
    <comp name="--.HHZ">
      <acc value="0.0181362219" flag="0"/>
      <vel value="0.0099421388" flag="0"/>
      <psa03 value="0.0310205552" flag="0"/>
      <psa10 value="0.0167205288" flag="0"/>
      <psa30 value="0.0034279560" flag="0"/>
    </comp>
  </station>
  <station code="IDI" name="IDI" netid="MN" insttype="" lat="35.288" lon="24.89">
    <comp name="--.HHE">
      <acc value="0.0052401605" flag="0"/>
      <vel value="0.0065034772" flag="0"/>
      <psa03 value="0.0164648598" flag="0"/>
      <psa10 value="0.0083458749" flag="0"/>
      <psa30 value="0.0022878911" flag="0"/>
    </comp>
    <comp name="--.HHN">
      <acc value="0.0042015325" flag="0"/>
      <vel value="0.0053618824" flag="0"/>
      <psa03 value="0.0104956227" flag="0"/>
      <psa10 value="0.0080261952" flag="0"/>
      <psa30 value="0.0021674714" flag="0"/>
    </comp>
    <comp name="--.HHZ">
      <acc value="0.0043829006" flag="0"/>
      <vel value="0.0058931962" flag="0"/>
      <psa03 value="0.0130573326" flag="0"/>
      <psa10 value="0.0075174912" flag="0"/>
      <psa30 value="0.0018327915" flag="0"/>
    </comp>
  </station>
</stationlist>
