<?xml version="1.0" encoding="UTF-8" standalone="yes"?>
<!DOCTYPE earthquake SYSTEM "stationlist.dtd">
<stationlist created="" xmlns="ch.ethz.sed.shakemap.usgs.xml">
  <station code="AKYT" name="AKYT" netid="Z3" source="GFZ" insttype="CMG-3ESP/60" lat="35.8686" lon="23.2999">
    <comp name="--.HHE">
      <acc value="0.0024935426" flag="0"/>
      <vel value="0.0023473656" flag="0"/>
      <psa03 value="0.0056245752" flag="0"/>
      <psa10 value="0.0046286340" flag="0"/>
      <psa30 value="0.0003453601" flag="0"/>
    </comp>
    <comp name="--.HHN">
      <acc value="0.0021063894" flag="0"/>
      <vel value="0.0022173096" flag="0"/>
      <psa03 value="0.0072538968" flag="0"/>
      <psa10 value="0.0028529079" flag="0"/>
      <psa30 value="0.0004621746" flag="0"/>
    </comp>
    <comp name="--.HHZ">
      <acc value="0.0014514862" flag="0"/>
      <vel value="0.0012183038" flag="0"/>
      <psa03 value="0.0043108005" flag="0"/>
      <psa10 value="0.0014072497" flag="0"/>
      <psa30 value="0.0001371878" flag="0"/>
    </comp>
  </station>
  <station code="KYTH" name="KYTH" netid="Z3" source="GFZ" insttype="CMG-3ESP/60" lat="36.1704" lon="22.9887">
    <comp name="--.HHE">
      <acc value="0.0081702827" flag="0"/>
      <vel value="0.0052321704" flag="0"/>
      <psa03 value="0.0256164941" flag="0"/>
      <psa10 value="0.0045555554" flag="0"/>
      <psa30 value="0.0005707246" flag="0"/>
    </comp>
    <comp name="--.HHN">
      <acc value="0.0068749580" flag="0"/>
      <vel value="0.0038232560" flag="0"/>
      <psa03 value="0.0169388642" flag="0"/>
      <psa10 value="0.0045048755" flag="0"/>
      <psa30 value="0.0006349146" flag="0"/>
    </comp>
    <comp name="--.HHZ">
      <acc value="0.0060938764" flag="0"/>
      <vel value="0.0023343883" flag="0"/>
      <psa03 value="0.0115098562" flag="0"/>
      <psa10 value="0.0026351244" flag="0"/>
      <psa30 value="0.0002731438" flag="0"/>
    </comp>
  </station>
  <station code="PE08" name="PE08" netid="Z3" source="GFZ" insttype="CMG-3ESP/60" lat="36.8311" lon="22.442">
    <comp name="--.HHE">
      <acc value="0.0000000000" flag="0"/>
      <vel value="-100.0000000000" flag="0"/>
      <psa03 value="0.0000000000" flag="0"/>
      <psa10 value="0.0000000000" flag="0"/>
      <psa30 value="0.0000000000" flag="0"/>
    </comp>
    <comp name="--.HHN">
      <acc value="0.0000262447" flag="0"/>
      <vel value="0.0000098690" flag="0"/>
      <psa03 value="0.0000595657" flag="0"/>
      <psa10 value="0.0000045647" flag="0"/>
      <psa30 value="0.0000003722" flag="0"/>
    </comp>
    <comp name="--.HHZ">
      <acc value="0.0030016050" flag="0"/>
      <vel value="0.0020296028" flag="0"/>
      <psa03 value="0.0116787251" flag="0"/>
      <psa10 value="0.0030517801" flag="0"/>
      <psa30 value="0.0001648881" flag="0"/>
    </comp>
  </station>
  <station code="PE09" name="PE09" netid="Z3" source="GFZ" insttype="CMG-3ESP/60" lat="36.7921" lon="21.8879">
    <comp name="--.HHE">
      <acc value="0.0054515292" flag="0"/>
      <vel value="0.0043115523" flag="0"/>
      <psa03 value="0.0131350434" flag="0"/>
      <psa10 value="0.0060680998" flag="0"/>
      <psa30 value="0.0004696496" flag="0"/>
    </comp>
    <comp name="--.HHN">
      <acc value="0.0050008629" flag="0"/>
      <vel value="0.0036873789" flag="0"/>
      <psa03 value="0.0170396268" flag="0"/>
      <psa10 value="0.0054601914" flag="0"/>
      <psa30 value="0.0003770769" flag="0"/>
    </comp>
    <comp name="--.HHZ">
      <acc value="0.0033439363" flag="0"/>
      <vel value="0.0019889160" flag="0"/>
      <psa03 value="0.0077809170" flag="0"/>
      <psa10 value="0.0023088941" flag="0"/>
      <psa30 value="0.0005072106" flag="0"/>
    </comp>
  </station>
  <station code="PE11" name="PE11" netid="Z3" source="GFZ" insttype="CMG-3ESP/60" lat="36.4834" lon="22.4785">
    <comp name="--.HHE">
      <acc value="0.0099082504" flag="0"/>
      <vel value="0.0085518744" flag="0"/>
      <psa03 value="0.0295972401" flag="0"/>
      <psa10 value="0.0119250205" flag="0"/>
      <psa30 value="0.0007852312" flag="0"/>
    </comp>
    <comp name="--.HHN">
      <acc value="0.0078184035" flag="0"/>
      <vel value="0.0049431519" flag="0"/>
      <psa03 value="0.0261543568" flag="0"/>
      <psa10 value="0.0050543378" flag="0"/>
      <psa30 value="0.0003920320" flag="0"/>
    </comp>
    <comp name="--.HHZ">
      <acc value="0.0064835243" flag="0"/>
      <vel value="0.0033298462" flag="0"/>
      <psa03 value="0.0199143206" flag="0"/>
      <psa10 value="0.0035695002" flag="0"/>
      <psa30 value="0.0003678116" flag="0"/>
    </comp>
  </station>
</stationlist>
