<?xml version="1.0" encoding="UTF-8" standalone="yes"?>
<!DOCTYPE earthquake SYSTEM "stationlist.dtd">
<stationlist created="" xmlns="ch.ethz.sed.shakemap.usgs.xml">
  <station code="ZKR" name="ZKR" netid="GE" source="GFZ" insttype="STS-2/N" lat="35.1147" lon="26.2169">
    <comp name="--.HHE">
      <acc value="1.7139234160" flag="0"/>
      <vel value="0.6899461552" flag="0"/>
      <psa03 value="4.3467455113" flag="0"/>
      <psa10 value="0.1922248177" flag="0"/>
      <psa30 value="0.0157738030" flag="0"/>
    </comp>
    <comp name="--.HHN">
      <acc value="1.6065833186" flag="0"/>
      <vel value="0.5119092208" flag="0"/>
      <psa03 value="1.9312808727" flag="0"/>
      <psa10 value="0.1780040596" flag="0"/>
      <psa30 value="0.0167385910" flag="0"/>
    </comp>
    <comp name="--.HHZ">
      <acc value="2.4520446837" flag="0"/>
      <vel value="0.2526953571" flag="0"/>
      <psa03 value="1.1102750372" flag="0"/>
      <psa10 value="0.1120713415" flag="0"/>
      <psa30 value="0.0093758987" flag="0"/>
    </comp>
  </station>
  <station code="FRMA" name="FRMA" netid="HC" source="NOA" insttype="60" lat="35.0187" lon="25.8555">
    <comp name="--.HHE">
      <acc value="0.5933799898" flag="0"/>
      <vel value="0.2814674973" flag="0"/>
      <psa03 value="1.1885016274" flag="0"/>
      <psa10 value="0.1753515903" flag="0"/>
      <psa30 value="0.0157248885" flag="0"/>
    </comp>
    <comp name="--.HHN">
      <acc value="0.5032012381" flag="0"/>
      <vel value="0.1916084771" flag="0"/>
      <psa03 value="1.1902113169" flag="0"/>
      <psa10 value="0.1894242375" flag="0"/>
      <psa30 value="0.0116325578" flag="0"/>
    </comp>
    <comp name="--.HHZ">
      <acc value="0.2500808238" flag="0"/>
      <vel value="0.0940611358" flag="0"/>
      <psa03 value="0.5713113981" flag="0"/>
      <psa10 value="0.1068182817" flag="0"/>
      <psa30 value="0.0114201385" flag="0"/>
    </comp>
  </station>
  <station code="HRKL" name="HRKL" netid="HC" source="NOA" insttype="120" lat="35.3115" lon="25.1016">
    <comp name="--.HHE">
      <acc value="0.1602191962" flag="0"/>
      <vel value="0.1473649592" flag="0"/>
      <psa03 value="0.3104039101" flag="0"/>
      <psa10 value="0.4389918980" flag="0"/>
      <psa30 value="0.0130271294" flag="0"/>
    </comp>
    <comp name="--.HHN">
      <acc value="0.1565947179" flag="0"/>
      <vel value="0.1769155830" flag="0"/>
      <psa03 value="0.2816895189" flag="0"/>
      <psa10 value="0.2444443139" flag="0"/>
      <psa30 value="0.0108117482" flag="0"/>
    </comp>
    <comp name="--.HHZ">
      <acc value="0.1268071287" flag="0"/>
      <vel value="0.0941551686" flag="0"/>
      <psa03 value="0.4161363366" flag="0"/>
      <psa10 value="0.1950746201" flag="0"/>
      <psa30 value="0.0070262513" flag="0"/>
    </comp>
  </station>
  <station code="KSTL" name="KSTL" netid="HC" source="NOA" insttype="120" lat="35.2092" lon="25.3374">
    <comp name="--.HHE">
      <acc value="0.0716362555" flag="0"/>
      <vel value="0.0672095952" flag="0"/>
      <psa03 value="0.2158833763" flag="0"/>
      <psa10 value="0.0481390552" flag="0"/>
      <psa30 value="0.0102016978" flag="0"/>
    </comp>
    <comp name="--.HHN">
      <acc value="58.3028549558" flag="0"/>
      <vel value="2.5943711347" flag="0"/>
      <psa03 value="9.0804345330" flag="0"/>
      <psa10 value="3.0261395068" flag="0"/>
      <psa30 value="0.6066552896" flag="0"/>
    </comp>
    <comp name="--.HHZ">
      <acc value="0.1287056883" flag="0"/>
      <vel value="0.0971532244" flag="0"/>
      <psa03 value="0.3314131380" flag="0"/>
      <psa10 value="0.0790838152" flag="0"/>
      <psa30 value="0.0104792651" flag="0"/>
    </comp>
  </station>
  <station code="TMBK" name="TMBK" netid="HC" source="NOA" insttype="120" lat="35.0724" lon="24.7662">
    <comp name="--.HHE">
      <acc value="0.0766015103" flag="0"/>
      <vel value="0.1058222833" flag="0"/>
      <psa03 value="0.1462463578" flag="0"/>
      <psa10 value="0.1978707061" flag="0"/>
      <psa30 value="0.0176975847" flag="0"/>
    </comp>
    <comp name="--.HHN">
      <acc value="0.0732205935" flag="0"/>
      <vel value="0.0954726559" flag="0"/>
      <psa03 value="0.1888604662" flag="0"/>
      <psa10 value="0.1557392889" flag="0"/>
      <psa30 value="0.0168772943" flag="0"/>
    </comp>
    <comp name="--.HHZ">
      <acc value="0.0377549989" flag="0"/>
      <vel value="0.0245083840" flag="0"/>
      <psa03 value="0.0659398136" flag="0"/>
      <psa10 value="0.0273624566" flag="0"/>
      <psa30 value="0.0033062669" flag="0"/>
    </comp>
  </station>
  <station code="IACM" name="IACM" netid="HL" source="NOA" insttype="120" lat="35.3058" lon="25.0709">
    <comp name="--.HHE">
      <acc value="1.3485213879" flag="0"/>
      <vel value="0.1168115677" flag="0"/>
      <psa03 value="0.0867495975" flag="0"/>
      <psa10 value="0.0088614118" flag="0"/>
      <psa30 value="0.0009119540" flag="0"/>
    </comp>
    <comp name="--.HHN">
      <acc value="0.1308482212" flag="0"/>
      <vel value="0.1158026270" flag="0"/>
      <psa03 value="0.5073661622" flag="0"/>
      <psa10 value="0.2038280158" flag="0"/>
      <psa30 value="0.0111319535" flag="0"/>
    </comp>
    <comp name="--.HHZ">
      <acc value="1.8657587333" flag="0"/>
      <vel value="0.2186385706" flag="0"/>
      <psa03 value="0.3284203390" flag="0"/>
      <psa10 value="0.1739334686" flag="0"/>
      <psa30 value="0.0114923488" flag="0"/>
    </comp>
  </station>
  <station code="IDI" name="IDI" netid="HL" source="NOA" insttype="120" lat="35.288" lon="24.89">
    <comp name="--.HHE">
      <acc value="0.0210114722" flag="0"/>
      <vel value="0.0122406893" flag="0"/>
      <psa03 value="0.0713223163" flag="0"/>
      <psa10 value="0.0150476308" flag="0"/>
      <psa30 value="0.0008129936" flag="0"/>
    </comp>
    <comp name="--.HHN">
      <acc value="0.0172681622" flag="0"/>
      <vel value="0.0182128855" flag="0"/>
      <psa03 value="0.0717249579" flag="0"/>
      <psa10 value="0.0269332540" flag="0"/>
      <psa30 value="0.0016921138" flag="0"/>
    </comp>
    <comp name="--.HHZ">
      <acc value="0.0160238932" flag="0"/>
      <vel value="0.0128479971" flag="0"/>
      <psa03 value="0.0354736420" flag="0"/>
      <psa10 value="0.0143358131" flag="0"/>
      <psa30 value="0.0029376025" flag="0"/>
    </comp>
  </station>
  <station code="KARP" name="KARP" netid="HL" source="NOA" insttype="120" lat="35.5471" lon="27.1611">
    <comp name="--.HHE">
      <acc value="0.0510646287" flag="0"/>
      <vel value="0.0264020690" flag="0"/>
      <psa03 value="0.1620944600" flag="0"/>
      <psa10 value="0.0224597480" flag="0"/>
      <psa30 value="0.0025569361" flag="0"/>
    </comp>
    <comp name="--.HHN">
      <acc value="0.0652454671" flag="0"/>
      <vel value="0.0301090863" flag="0"/>
      <psa03 value="0.1113839193" flag="0"/>
      <psa10 value="0.0331928495" flag="0"/>
      <psa30 value="0.0028037633" flag="0"/>
    </comp>
    <comp name="--.HHZ">
      <acc value="0.0434746340" flag="0"/>
      <vel value="0.0204859443" flag="0"/>
      <psa03 value="0.1880814536" flag="0"/>
      <psa10 value="0.0244128759" flag="0"/>
      <psa30 value="0.0018485496" flag="0"/>
    </comp>
  </station>
  <station code="NPS" name="NPS" netid="HL" source="NOA" insttype="120" lat="35.2613" lon="25.6104">
    <comp name="--.HHE">
      <acc value="0.2673707532" flag="0"/>
      <vel value="0.1364464467" flag="0"/>
      <psa03 value="0.4501577613" flag="0"/>
      <psa10 value="0.1430515935" flag="0"/>
      <psa30 value="0.0083506844" flag="0"/>
    </comp>
    <comp name="--.HHN">
      <acc value="0.1423228696" flag="0"/>
      <vel value="0.1196314348" flag="0"/>
      <psa03 value="0.3075423257" flag="0"/>
      <psa10 value="0.1654154714" flag="0"/>
      <psa30 value="0.0068101083" flag="0"/>
    </comp>
    <comp name="--.HHZ">
      <acc value="0.0766013236" flag="0"/>
      <vel value="0.0418752122" flag="0"/>
      <psa03 value="0.1618536432" flag="0"/>
      <psa10 value="0.0413645090" flag="0"/>
      <psa30 value="0.0036356908" flag="0"/>
    </comp>
  </station>
  <station code="SIVA" name="SIVA" netid="HL" source="NOA" insttype="60" lat="35.0178" lon="24.812">
    <comp name="--.HHE">
      <acc value="0.0345922279" flag="0"/>
      <vel value="0.0317022890" flag="0"/>
      <psa03 value="0.0985809483" flag="0"/>
      <psa10 value="0.0483612252" flag="0"/>
      <psa30 value="0.0030534883" flag="0"/>
    </comp>
    <comp name="--.HHN">
      <acc value="0.0372193138" flag="0"/>
      <vel value="0.0438053901" flag="0"/>
      <psa03 value="0.0740728601" flag="0"/>
      <psa10 value="0.0504210168" flag="0"/>
      <psa30 value="0.0056412920" flag="0"/>
    </comp>
    <comp name="--.HHZ">
      <acc value="0.0132427042" flag="0"/>
      <vel value="0.0079689209" flag="0"/>
      <psa03 value="0.0217184281" flag="0"/>
      <psa10 value="0.0160597113" flag="0"/>
      <psa30 value="0.0014654238" flag="0"/>
    </comp>
  </station>
  <station code="ZKR" name="ZKR" netid="HL" source="NOA" insttype="120" lat="35.1147" lon="26.2169">
    <comp name="--.HHE">
      <acc value="1.6543861620" flag="0"/>
      <vel value="0.6754197946" flag="0"/>
      <psa03 value="4.2105214543" flag="0"/>
      <psa10 value="0.1894198787" flag="0"/>
      <psa30 value="0.0155368613" flag="0"/>
    </comp>
  </station>
  <station code="IDI" name="IDI" netid="MN" source="INGV" insttype="" lat="35.288" lon="24.89">
    <comp name="--.HHE">
      <acc value="0.0202883099" flag="0"/>
      <vel value="0.0115621229" flag="0"/>
      <psa03 value="0.0683399936" flag="0"/>
      <psa10 value="0.0141753941" flag="0"/>
      <psa30 value="0.0007607472" flag="0"/>
    </comp>
    <comp name="--.HHN">
      <acc value="0.0166144244" flag="0"/>
      <vel value="0.0174911318" flag="0"/>
      <psa03 value="0.0693588660" flag="0"/>
      <psa10 value="0.0256870037" flag="0"/>
      <psa30 value="0.0016042885" flag="0"/>
    </comp>
    <comp name="--.HHZ">
      <acc value="0.0154588183" flag="0"/>
      <vel value="0.0123477058" flag="0"/>
      <psa03 value="0.0341704661" flag="0"/>
      <psa10 value="0.0136352425" flag="0"/>
      <psa30 value="0.0027819337" flag="0"/>
    </comp>
  </station>
</stationlist>
