<stationlist xmlns:esm="https://esm-db.eu/esmws/shakemap/1/" created="1781229260">
	<station code="IMMV" name="IMMV" netid="GE" source="GEOFON" insttype="" lat="35.4606" lon="23.9811" esm:processing="manual (Paolucci et al 2011)" esm:quality="good">
		<comp name="--.HNE" depth="0.0">
			<acc value="0.00970538055075947" flag="0"/>
			<vel value="0.0141662285458717" flag="0"/>
			<psa03 value="0.0257715110121245" flag="0"/>
			<psa10 value="0.0290090570830227" flag="0"/>
			<psa30 value="0.00214449396321376" flag="0"/>
		</comp>
		<comp name="--.HNN" depth="0.0">
			<acc value="0.0133367137878101" flag="0"/>
			<vel value="0.0142655114267073" flag="0"/>
			<psa03 value="0.0310958335996989" flag="0"/>
			<psa10 value="0.0209675402875207" flag="0"/>
			<psa30 value="0.00266439840411808" flag="0"/>
		</comp>
		<comp name="--.HNZ" depth="0.0">
			<acc value="0.00713211825135658" flag="0"/>
			<vel value="0.00844535848319246" flag="0"/>
			<psa03 value="0.0275164570702371" flag="0"/>
			<psa10 value="0.0189984357742506" flag="0"/>
			<psa30 value="0.00169349252050159" flag="0"/>
		</comp>
	</station>
	<station code="CH01" name="CH01" netid="HI" source="ITSAK Strong Motion Network" insttype="" lat="35.517" lon="24.0208" esm:processing="manual (Paolucci et al 2011)" esm:quality="good">
		<comp name="--.HNE" depth="0.0">
			<acc value="0.00947551785698322" flag="0"/>
			<vel value="0.0109214604276136" flag="0"/>
			<psa03 value="0.0261794738450057" flag="0"/>
			<psa10 value="0.0166005253283311" flag="0"/>
			<psa30 value="0.00274578668655732" flag="0"/>
		</comp>
		<comp name="--.HNN" depth="0.0">
			<acc value="0.0112164413151356" flag="0"/>
			<vel value="0.0137625178505868" flag="0"/>
			<psa03 value="0.0293915303779735" flag="0"/>
			<psa10 value="0.016318347260421" flag="0"/>
			<psa30 value="0.0035701785901445" flag="0"/>
		</comp>
		<comp name="--.HNZ" depth="0.0">
			<acc value="0.00786742417243021" flag="0"/>
			<vel value="0.0103946144749206" flag="0"/>
			<psa03 value="0.0154894636009675" flag="0"/>
			<psa10 value="0.0181423799686261" flag="0"/>
			<psa30 value="0.00190378778326297" flag="0"/>
		</comp>
	</station>
	<station code="KSS1" name="KSS1" netid="HI" source="ITSAK Strong Motion Network" insttype="" lat="35.4189" lon="26.9207" esm:processing="manual (Paolucci et al 2011)" esm:quality="best">
		<comp name="--.HNE" depth="0.0">
			<acc value="0.0378007236193239" flag="0"/>
			<vel value="0.0208076209541754" flag="0"/>
			<psa03 value="0.0818782381114373" flag="0"/>
			<psa10 value="0.0181930760551217" flag="0"/>
			<psa30 value="0.00195523442921848" flag="0"/>
		</comp>
		<comp name="--.HNN" depth="0.0">
			<acc value="0.0515025307325467" flag="0"/>
			<vel value="0.0284020079443633" flag="0"/>
			<psa03 value="0.113734689223647" flag="0"/>
			<psa10 value="0.0272171317079609" flag="0"/>
			<psa30 value="0.00305097106929995" flag="0"/>
		</comp>
		<comp name="--.HNZ" depth="0.0">
			<acc value="0.0468072809132971" flag="0"/>
			<vel value="0.0193148550166386" flag="0"/>
			<psa03 value="0.125143951911306" flag="0"/>
			<psa10 value="0.0188655514205943" flag="0"/>
			<psa30 value="0.00199639725930729" flag="0"/>
		</comp>
	</station>
	<station code="RGE1" name="RGE1" netid="HI" source="ITSAK Strong Motion Network" insttype="" lat="36.0269" lon="27.9306" esm:processing="manual (Paolucci et al 2011)" esm:quality="good">
		<comp name="--.HNE" depth="0.0">
			<acc value="0.0114484720356196" flag="0"/>
			<vel value="0.00755137019621165" flag="0"/>
			<psa03 value="0.0275989454822047" flag="0"/>
			<psa10 value="0.00967959466313249" flag="0"/>
			<psa30 value="0.00172487613958047" flag="0"/>
		</comp>
		<comp name="--.HNN" depth="0.0">
			<acc value="0.00882165016458425" flag="0"/>
			<vel value="0.00847004528127591" flag="0"/>
			<psa03 value="0.0312471142388037" flag="0"/>
			<psa10 value="0.0103774765193848" flag="0"/>
			<psa30 value="0.00136063086428553" flag="0"/>
		</comp>
		<comp name="--.HNZ" depth="0.0">
			<acc value="0.00920227562618164" flag="0"/>
			<vel value="0.00559465008746768" flag="0"/>
			<psa03 value="0.0438276533669356" flag="0"/>
			<psa10 value="0.00571889400490141" flag="0"/>
			<psa30 value="0.000945867242396295" flag="0"/>
		</comp>
	</station>
	<station code="SIT2" name="SIT2" netid="HI" source="ITSAK Strong Motion Network" insttype="" lat="35.2059" lon="26.107" esm:processing="manual (Paolucci et al 2011)" esm:quality="good">
		<comp name="--.HNE" depth="0.0">
			<acc value="3.40043671732415" flag="0"/>
			<vel value="2.35135367680921" flag="0"/>
			<psa03 value="9.86516439505612" flag="0"/>
			<psa10 value="1.31599402224397" flag="0"/>
			<psa30 value="0.0724470283783718" flag="0"/>
		</comp>
		<comp name="--.HNN" depth="0.0">
			<acc value="4.34058024757037" flag="0"/>
			<vel value="2.18991883260548" flag="0"/>
			<psa03 value="8.88329667081815" flag="0"/>
			<psa10 value="0.887711777208416" flag="0"/>
			<psa30 value="0.0669835575282146" flag="0"/>
		</comp>
		<comp name="--.HNZ" depth="0.0">
			<acc value="3.34291048914906" flag="0"/>
			<vel value="1.1492020255548" flag="0"/>
			<psa03 value="7.85758158409427" flag="0"/>
			<psa10 value="0.303407193786023" flag="0"/>
			<psa30 value="0.0263061803812129" flag="0"/>
		</comp>
	</station>
	<station code="AGNA" name="AGNA" netid="HL" source="National Observatory of Athens Seismic Network" insttype="" lat="35.1895" lon="25.71853" esm:processing="manual (Paolucci et al 2011)" esm:quality="good">
		<comp name="00.HNE" depth="0.0">
			<acc value="0.233773630730201" flag="0"/>
			<vel value="0.149130340158607" flag="0"/>
			<psa03 value="0.802087717706593" flag="0"/>
			<psa10 value="0.189690386057015" flag="0"/>
			<psa30 value="0.00876158291185471" flag="0"/>
		</comp>
		<comp name="00.HNN" depth="0.0">
			<acc value="0.316801714035815" flag="0"/>
			<vel value="0.21092574304447" flag="0"/>
			<psa03 value="0.631108432837536" flag="0"/>
			<psa10 value="0.208135457952562" flag="0"/>
			<psa30 value="0.0211674905756847" flag="0"/>
		</comp>
		<comp name="00.HNZ" depth="0.0">
			<acc value="0.110914953255069" flag="0"/>
			<vel value="0.076543920366353" flag="0"/>
			<psa03 value="0.233321893930175" flag="0"/>
			<psa10 value="0.0578721012425384" flag="0"/>
			<psa30 value="0.00880443658402519" flag="0"/>
		</comp>
	</station>
	<station code="CHNB" name="CHNB" netid="HL" source="National Observatory of Athens Seismic Network" insttype="" lat="35.48765" lon="24.06605" esm:processing="manual (Paolucci et al 2011)" esm:quality="good">
		<comp name="00.HNE" depth="0.0">
			<acc value="0.0255237286729389" flag="0"/>
			<vel value="0.0241971079931652" flag="0"/>
			<psa03 value="0.045983947252479" flag="0"/>
			<psa10 value="0.036112631034556" flag="0"/>
			<psa30 value="0.00326339910084162" flag="0"/>
		</comp>
		<comp name="00.HNN" depth="0.0">
			<acc value="0.0291020946239135" flag="0"/>
			<vel value="0.031515562039882" flag="0"/>
			<psa03 value="0.0557980244702975" flag="0"/>
			<psa10 value="0.0708641694035458" flag="0"/>
			<psa30 value="0.00391666779335297" flag="0"/>
		</comp>
		<comp name="00.HNZ" depth="0.0">
			<acc value="0.0164654126575675" flag="0"/>
			<vel value="0.0126748218766888" flag="0"/>
			<psa03 value="0.0620332448147758" flag="0"/>
			<psa10 value="0.0143469494774984" flag="0"/>
			<psa30 value="0.00175248442682625" flag="0"/>
		</comp>
	</station>
	<station code="GVD" name="GVD" netid="HL" source="National Observatory of Athens Seismic Network" insttype="" lat="34.83914" lon="24.08738" esm:processing="manual (Paolucci et al 2011)" esm:quality="bad">
		<comp name="00.HNE" depth="1.0">
			<acc value="0.00948206387155783" flag="0"/>
			<vel value="0.00849639888578033" flag="0"/>
			<psa03 value="0.0224272148595793" flag="0"/>
			<psa10 value="0.0185966700631209" flag="0"/>
			<psa30 value="0.00128099100520159" flag="0"/>
		</comp>
		<comp name="00.HNN" depth="1.0">
			<acc value="0.00765655608976306" flag="0"/>
			<vel value="0.00784131669801559" flag="0"/>
			<psa03 value="0.021656428121662" flag="0"/>
			<psa10 value="0.00877990725076565" flag="0"/>
			<psa30 value="0.00176904489887551" flag="0"/>
		</comp>
		<comp name="00.HNZ" depth="1.0">
			<acc value="0.00443392304942256" flag="0"/>
			<vel value="0.00304692649344406" flag="0"/>
			<psa03 value="0.00868691661141579" flag="0"/>
			<psa10 value="0.00606766898452999" flag="0"/>
			<psa30 value="0.00114812439093988" flag="0"/>
		</comp>
	</station>
	<station code="HERG" name="HERG" netid="HL" source="National Observatory of Athens Seismic Network" insttype="" lat="35.32622" lon="25.06586" esm:processing="manual (Paolucci et al 2011)" esm:quality="good">
		<comp name="00.HNE" depth="0.0">
			<acc value="0.0902747267245059" flag="0"/>
			<vel value="0.0975449117310383" flag="0"/>
			<psa03 value="0.298550298325388" flag="0"/>
			<psa10 value="0.155698344251179" flag="0"/>
			<psa30 value="0.010819192551742" flag="0"/>
		</comp>
		<comp name="00.HNN" depth="0.0">
			<acc value="0.0810167436796455" flag="0"/>
			<vel value="0.0983673159518201" flag="0"/>
			<psa03 value="0.278229639681482" flag="0"/>
			<psa10 value="0.170817515822094" flag="0"/>
			<psa30 value="0.0156080939596243" flag="0"/>
		</comp>
		<comp name="00.HNZ" depth="0.0">
			<acc value="0.0764427286639661" flag="0"/>
			<vel value="0.0665901187380536" flag="0"/>
			<psa03 value="0.184022003054569" flag="0"/>
			<psa10 value="0.0839199092821324" flag="0"/>
			<psa30 value="0.00335252292152355" flag="0"/>
		</comp>
	</station>
	<station code="IACM" name="IACM" netid="HL" source="National Observatory of Athens Seismic Network" insttype="" lat="35.3058" lon="25.0709" esm:processing="manual (Paolucci et al 2011)" esm:quality="good">
		<comp name="--.HNE" depth="0.0">
			<acc value="0.15809418764273" flag="0"/>
			<vel value="0.140825484291254" flag="0"/>
			<psa03 value="0.503439308868794" flag="0"/>
			<psa10 value="0.338170546062222" flag="0"/>
			<psa30 value="0.0132472725355379" flag="0"/>
		</comp>
		<comp name="--.HNN" depth="0.0">
			<acc value="0.135074167818189" flag="0"/>
			<vel value="0.118973915880879" flag="0"/>
			<psa03 value="0.513998469630706" flag="0"/>
			<psa10 value="0.200301015744547" flag="0"/>
			<psa30 value="0.0113076978786358" flag="0"/>
		</comp>
		<comp name="--.HNZ" depth="0.0">
			<acc value="0.104817775945682" flag="0"/>
			<vel value="0.0634211486171018" flag="0"/>
			<psa03 value="0.178745115439996" flag="0"/>
			<psa10 value="0.0846755208692117" flag="0"/>
			<psa30 value="0.00456996898399028" flag="0"/>
		</comp>
	</station>
	<station code="IMMV" name="IMMV" netid="HL" source="National Observatory of Athens Seismic Network" insttype="" lat="35.4606" lon="23.9811" esm:processing="manual (Paolucci et al 2011)" esm:quality="good">
		<comp name="--.HNE" depth="0.0">
			<acc value="0.00950841390426404" flag="0"/>
			<vel value="0.0138787930051131" flag="0"/>
			<psa03 value="0.0252793467393235" flag="0"/>
			<psa10 value="0.0284211444880586" flag="0"/>
			<psa30 value="0.00210109402279404" flag="0"/>
		</comp>
		<comp name="--.HNN" depth="0.0">
			<acc value="0.0130660732191033" flag="0"/>
			<vel value="0.0139760153199442" flag="0"/>
			<psa03 value="0.0304694427070431" flag="0"/>
			<psa10 value="0.0205406996363824" flag="0"/>
			<psa30 value="0.00261026033410997" flag="0"/>
		</comp>
		<comp name="--.HNZ" depth="0.0">
			<acc value="0.00698738904827155" flag="0"/>
			<vel value="0.00827405304696322" flag="0"/>
			<psa03 value="0.0269795505908179" flag="0"/>
			<psa10 value="0.0186118631090687" flag="0"/>
			<psa30 value="0.00165904102140552" flag="0"/>
		</comp>
	</station>
	<station code="KARP" name="KARP" netid="HL" source="National Observatory of Athens Seismic Network" insttype="" lat="35.5471" lon="27.16106" esm:processing="manual (Paolucci et al 2011)" esm:quality="best">
		<comp name="--.HNE" depth="0.0">
			<acc value="0.0453837450590344" flag="0"/>
			<vel value="0.0233833403264246" flag="0"/>
			<psa03 value="0.143846194277744" flag="0"/>
			<psa10 value="0.0204561368658738" flag="0"/>
			<psa30 value="0.00219997429942042" flag="0"/>
		</comp>
		<comp name="--.HNN" depth="0.0">
			<acc value="0.0558333101890013" flag="0"/>
			<vel value="0.0271187478610974" flag="0"/>
			<psa03 value="0.105591607619121" flag="0"/>
			<psa10 value="0.028099000600407" flag="0"/>
			<psa30 value="0.00290555889779057" flag="0"/>
		</comp>
		<comp name="--.HNZ" depth="0.0">
			<acc value="0.0375276267467756" flag="0"/>
			<vel value="0.0169212513652143" flag="0"/>
			<psa03 value="0.151676080435941" flag="0"/>
			<psa10 value="0.0202064753529439" flag="0"/>
			<psa30 value="0.00163980187255966" flag="0"/>
		</comp>
	</station>
	<station code="NISR" name="NISR" netid="HL" source="National Observatory of Athens Seismic Network" insttype="" lat="36.6106" lon="27.131" esm:processing="manual (Paolucci et al 2011)" esm:quality="good">
		<comp name="00.HNE" depth="0.0">
			<acc value="0.0213361759347761" flag="0"/>
			<vel value="0.0121329287422774" flag="0"/>
			<psa03 value="0.0473244266776778" flag="0"/>
			<psa10 value="0.0129260609756018" flag="0"/>
			<psa30 value="0.00355398460070441" flag="0"/>
		</comp>
		<comp name="00.HNN" depth="0.0">
			<acc value="0.0118332074741308" flag="0"/>
			<vel value="0.0117218264678647" flag="0"/>
			<psa03 value="0.0381504621767198" flag="0"/>
			<psa10 value="0.00770908615787372" flag="0"/>
			<psa30 value="0.00287877070443089" flag="0"/>
		</comp>
		<comp name="00.HNZ" depth="0.0">
			<acc value="0.00659981749004787" flag="0"/>
			<vel value="0.00480700692463752" flag="0"/>
			<psa03 value="0.0208704958491729" flag="0"/>
			<psa10 value="0.00963783283412523" flag="0"/>
			<psa30 value="0.00138925703146021" flag="0"/>
		</comp>
	</station>
	<station code="THRA" name="THRA" netid="HL" source="National Observatory of Athens Seismic Network" insttype="" lat="36.41502" lon="25.43244" esm:processing="manual (Paolucci et al 2011)" esm:quality="good">
		<comp name="00.HNE" depth="0.0">
			<acc value="0.0484943336635802" flag="0"/>
			<vel value="0.0380329951685661" flag="0"/>
			<psa03 value="0.122813729556845" flag="0"/>
			<psa10 value="0.0499519815736276" flag="0"/>
			<psa30 value="0.00437225172355212" flag="0"/>
		</comp>
		<comp name="00.HNN" depth="0.0">
			<acc value="0.0384878802280344" flag="0"/>
			<vel value="0.0298851527375238" flag="0"/>
			<psa03 value="0.106430050468512" flag="0"/>
			<psa10 value="0.0364105470200464" flag="0"/>
			<psa30 value="0.00168784222793077" flag="0"/>
		</comp>
		<comp name="00.HNZ" depth="0.0">
			<acc value="0.0265398496290802" flag="0"/>
			<vel value="0.0154953993624128" flag="0"/>
			<psa03 value="0.0678496301216735" flag="0"/>
			<psa10 value="0.0139066890623999" flag="0"/>
			<psa30 value="0.00140662932812294" flag="0"/>
		</comp>
	</station>
	<station code="ZKR" name="ZKR" netid="HL" source="National Observatory of Athens Seismic Network" insttype="" lat="35.1147" lon="26.21691" esm:processing="manual (Paolucci et al 2011)" esm:quality="good">
		<comp name="00.HNE" depth="0.0">
			<acc value="1.73923153112921" flag="0"/>
			<vel value="0.692065989731727" flag="0"/>
			<psa03 value="3.95234756383165" flag="0"/>
			<psa10 value="0.168445012054403" flag="0"/>
			<psa30 value="0.0139707540165554" flag="0"/>
		</comp>
		<comp name="00.HNN" depth="0.0">
			<acc value="3.03508493566568" flag="0"/>
			<vel value="1.03824201855893" flag="0"/>
			<psa03 value="3.94322015368153" flag="0"/>
			<psa10 value="0.364433326503015" flag="0"/>
			<psa30 value="0.0315365443348888" flag="0"/>
		</comp>
		<comp name="00.HNZ" depth="0.0">
			<acc value="2.59711504311857" flag="0"/>
			<vel value="0.264847714259681" flag="0"/>
			<psa03 value="1.03238167551" flag="0"/>
			<psa10 value="0.108079274307097" flag="0"/>
			<psa30 value="0.010007936776375" flag="0"/>
		</comp>
	</station>
</stationlist>
