<?xml version="1.0" encoding="UTF-8" standalone="yes"?>
<!DOCTYPE earthquake SYSTEM "stationlist.dtd">
<stationlist created="" xmlns="ch.ethz.sed.shakemap.usgs.xml">
  <station code="AOI" name="AOI" netid="IV" insttype="" lat="43.5502" lon="13.602">
    <comp name="--.HHE">
      <acc value="0.0222051826" flag="0"/>
      <vel value="0.0104361525" flag="0"/>
      <psa03 value="0.0483291443" flag="0"/>
      <psa10 value="0.0119609934" flag="0"/>
      <psa30 value="0.0034320147" flag="0"/>
    </comp>
    <comp name="--.HHN">
      <acc value="0.0190094449" flag="0"/>
      <vel value="0.0136124019" flag="0"/>
      <psa03 value="0.0552554035" flag="0"/>
      <psa10 value="0.0178838300" flag="0"/>
      <psa30 value="0.0040630702" flag="0"/>
    </comp>
    <comp name="--.HHZ">
      <acc value="0.0144756492" flag="0"/>
      <vel value="0.0084965369" flag="0"/>
      <psa03 value="0.0389476892" flag="0"/>
      <psa10 value="0.0092868223" flag="0"/>
      <psa30 value="0.0024334065" flag="0"/>
    </comp>
  </station>
  <station code="APEC" name="APEC" netid="IV" insttype="" lat="43.5585" lon="12.4199">
    <comp name="--.HHE">
      <acc value="0.1788599234" flag="0"/>
      <vel value="0.1189526176" flag="0"/>
      <psa03 value="0.4391333096" flag="0"/>
      <psa10 value="0.1005921086" flag="0"/>
      <psa30 value="0.0127908885" flag="0"/>
    </comp>
    <comp name="--.HHN">
      <acc value="0.1519092485" flag="0"/>
      <vel value="0.0851568803" flag="0"/>
      <psa03 value="0.3457530389" flag="0"/>
      <psa10 value="0.1019032551" flag="0"/>
      <psa30 value="0.0306667239" flag="0"/>
    </comp>
    <comp name="--.HHZ">
      <acc value="0.1257865809" flag="0"/>
      <vel value="0.0727256679" flag="0"/>
      <psa03 value="0.2583260425" flag="0"/>
      <psa10 value="0.0714952306" flag="0"/>
      <psa30 value="0.0200993742" flag="0"/>
    </comp>
  </station>
  <station code="ARCI" name="ARCI" netid="IV" insttype="" lat="42.8519" lon="11.4754">
    <comp name="--.HHE">
      <acc value="0.0119107120" flag="0"/>
      <vel value="0.0099956097" flag="0"/>
      <psa03 value="0.0350599868" flag="0"/>
      <psa10 value="0.0192771559" flag="0"/>
      <psa30 value="0.0061050594" flag="0"/>
    </comp>
    <comp name="--.HHZ">
      <acc value="0.0076248955" flag="0"/>
      <vel value="0.0059319046" flag="0"/>
      <psa03 value="0.0220001874" flag="0"/>
      <psa10 value="0.0082966460" flag="0"/>
      <psa30 value="0.0032266641" flag="0"/>
    </comp>
    <comp name="--.HHN">
      <acc value="0.0180526070" flag="0"/>
      <vel value="0.0103673225" flag="0"/>
      <psa03 value="0.0555359036" flag="0"/>
      <psa10 value="0.0210895006" flag="0"/>
      <psa30 value="0.0048775030" flag="0"/>
    </comp>
  </station>
  <station code="ARVD" name="ARVD" netid="IV" insttype="" lat="43.4981" lon="12.9415">
    <comp name="--.HHE">
      <acc value="0.0811081081" flag="0"/>
      <vel value="0.0380341090" flag="0"/>
      <psa03 value="0.1613102349" flag="0"/>
      <psa10 value="0.0353897048" flag="0"/>
      <psa30 value="0.0189421297" flag="0"/>
    </comp>
    <comp name="--.HHN">
      <acc value="0.0530021868" flag="0"/>
      <vel value="0.0231376338" flag="0"/>
      <psa03 value="0.1017406670" flag="0"/>
      <psa10 value="0.0313319487" flag="0"/>
      <psa30 value="0.0120551575" flag="0"/>
    </comp>
    <comp name="--.HHZ">
      <acc value="0.0741487496" flag="0"/>
      <vel value="0.0371397849" flag="0"/>
      <psa03 value="0.1457390205" flag="0"/>
      <psa10 value="0.0415343872" flag="0"/>
      <psa30 value="0.0225022424" flag="0"/>
    </comp>
  </station>
  <station code="ATBU" name="ATBU" netid="IV" insttype="" lat="43.4757" lon="12.5483">
    <comp name="--.HNE">
      <acc value="0.5001384036" flag="0"/>
      <vel value="0.2489877667" flag="0"/>
      <psa03 value="0.7792526412" flag="0"/>
      <psa10 value="0.3354764832" flag="0"/>
      <psa30 value="0.0209643958" flag="0"/>
    </comp>
    <comp name="--.HNN">
      <acc value="0.6532371886" flag="0"/>
      <vel value="0.3104074414" flag="0"/>
      <psa03 value="1.1489875933" flag="0"/>
      <psa10 value="0.1682351787" flag="0"/>
      <psa30 value="0.0613745905" flag="0"/>
    </comp>
    <comp name="--.HNZ">
      <acc value="0.2614843352" flag="0"/>
      <vel value="0.1563332318" flag="0"/>
      <psa03 value="0.4956096056" flag="0"/>
      <psa10 value="0.1687284833" flag="0"/>
      <psa30 value="0.0417320904" flag="0"/>
    </comp>
  </station>
  <station code="ATCC" name="ATCC" netid="IV" insttype="" lat="43.1851" lon="12.6399">
    <comp name="--.HNE">
      <acc value="2.5040149712" flag="0"/>
      <vel value="0.9756849901" flag="0"/>
      <psa03 value="2.8799684923" flag="0"/>
      <psa10 value="0.9532061217" flag="0"/>
      <psa30 value="0.0713512289" flag="0"/>
    </comp>
    <comp name="--.HNN">
      <acc value="4.0850993191" flag="0"/>
      <vel value="1.0073662687" flag="0"/>
      <psa03 value="2.0888010780" flag="0"/>
      <psa10 value="0.6705475788" flag="0"/>
      <psa30 value="0.1132548359" flag="0"/>
    </comp>
    <comp name="--.HNZ">
      <acc value="1.0076523389" flag="0"/>
      <vel value="0.7321264431" flag="0"/>
      <psa03 value="2.4444983967" flag="0"/>
      <psa10 value="1.2565626911" flag="0"/>
      <psa30 value="0.0659655203" flag="0"/>
    </comp>
  </station>
  <station code="ATFO" name="ATFO" netid="IV" insttype="" lat="43.3666" lon="12.5715">
    <comp name="--.HHE">
      <acc value="0.8503694756" flag="0"/>
      <vel value="0.3864583373" flag="0"/>
      <psa03 value="1.6610341047" flag="0"/>
      <psa10 value="0.2895851519" flag="0"/>
      <psa30 value="0.0525983670" flag="0"/>
    </comp>
    <comp name="--.HHZ">
      <acc value="0.5598895647" flag="0"/>
      <vel value="0.2750335194" flag="0"/>
      <psa03 value="0.6423027311" flag="0"/>
      <psa10 value="0.1400878269" flag="0"/>
      <psa30 value="0.0660108096" flag="0"/>
    </comp>
    <comp name="--.HHN">
      <acc value="0.9594869533" flag="0"/>
      <vel value="0.4503324054" flag="0"/>
      <psa03 value="1.5057047066" flag="0"/>
      <psa10 value="0.1833990423" flag="0"/>
      <psa30 value="0.0548194908" flag="0"/>
    </comp>
  </station>
  <station code="ATLO" name="ATLO" netid="IV" insttype="" lat="43.3152" lon="12.4073">
    <comp name="--.HNE">
      <acc value="9.3300116064" flag="0"/>
      <vel value="1.3701401647" flag="0"/>
      <psa03 value="3.6849915756" flag="0"/>
      <psa10 value="0.7398935676" flag="0"/>
      <psa30 value="0.0657321484" flag="0"/>
    </comp>
    <comp name="--.HNN">
      <acc value="6.7455574383" flag="0"/>
      <vel value="1.4892838457" flag="0"/>
      <psa03 value="5.5580540359" flag="0"/>
      <psa10 value="0.7085026020" flag="0"/>
      <psa30 value="0.0832615341" flag="0"/>
    </comp>
    <comp name="--.HNZ">
      <acc value="1.1775213179" flag="0"/>
      <vel value="0.2209438365" flag="0"/>
      <psa03 value="0.9452917624" flag="0"/>
      <psa10 value="0.1353505583" flag="0"/>
      <psa30 value="0.0210280831" flag="0"/>
    </comp>
  </station>
  <station code="ATMI" name="ATMI" netid="IV" insttype="" lat="43.3342" lon="12.268">
    <comp name="--.HHE">
      <acc value="0.7645351156" flag="0"/>
      <vel value="0.4164170426" flag="0"/>
      <psa03 value="1.9602597752" flag="0"/>
      <psa10 value="0.4517558188" flag="0"/>
      <psa30 value="0.0540601896" flag="0"/>
    </comp>
    <comp name="--.HHN">
      <acc value="0.8258050864" flag="0"/>
      <vel value="0.3988703497" flag="0"/>
      <psa03 value="2.1198563716" flag="0"/>
      <psa10 value="0.7385522869" flag="0"/>
      <psa30 value="0.0537839989" flag="0"/>
    </comp>
    <comp name="--.HHZ">
      <acc value="0.6161014712" flag="0"/>
      <vel value="0.2719645814" flag="0"/>
      <psa03 value="0.8295995129" flag="0"/>
      <psa10 value="0.2805116134" flag="0"/>
      <psa30 value="0.0374351991" flag="0"/>
    </comp>
  </station>
  <station code="ATPC" name="ATPC" netid="IV" insttype="" lat="43.4807" lon="12.457">
    <comp name="--.HHN">
      <acc value="0.7888017677" flag="0"/>
      <vel value="0.2046153810" flag="0"/>
      <psa03 value="1.0194621166" flag="0"/>
      <psa10 value="0.1741136391" flag="0"/>
      <psa30 value="0.0353305805" flag="0"/>
    </comp>
    <comp name="--.HHE">
      <acc value="0.8204087212" flag="0"/>
      <vel value="0.2653166376" flag="0"/>
      <psa03 value="1.5711255586" flag="0"/>
      <psa10 value="0.2557928750" flag="0"/>
      <psa30 value="0.0262387759" flag="0"/>
    </comp>
    <comp name="--.HHZ">
      <acc value="0.3190129120" flag="0"/>
      <vel value="0.1228306028" flag="0"/>
      <psa03 value="0.4144738112" flag="0"/>
      <psa10 value="0.1454626071" flag="0"/>
      <psa30 value="0.0353242265" flag="0"/>
    </comp>
  </station>
  <station code="ATPI" name="ATPI" netid="IV" insttype="" lat="43.4507" lon="12.4022">
    <comp name="--.HNE">
      <acc value="0.4644597316" flag="0"/>
      <vel value="0.1924267525" flag="0"/>
      <psa03 value="1.0592259395" flag="0"/>
      <psa10 value="0.2425541124" flag="0"/>
      <psa30 value="0.0237426474" flag="0"/>
    </comp>
    <comp name="--.HNN">
      <acc value="0.3776004390" flag="0"/>
      <vel value="0.1646069609" flag="0"/>
      <psa03 value="0.8761125050" flag="0"/>
      <psa10 value="0.1192215625" flag="0"/>
      <psa30 value="0.0221480490" flag="0"/>
    </comp>
    <comp name="--.HNZ">
      <acc value="0.2635358656" flag="0"/>
      <vel value="0.1533791427" flag="0"/>
      <psa03 value="0.5444191159" flag="0"/>
      <psa10 value="0.1767769291" flag="0"/>
      <psa30 value="0.0350578551" flag="0"/>
    </comp>
  </station>
  <station code="ATVO" name="ATVO" netid="IV" insttype="" lat="43.3821" lon="12.4066">
    <comp name="--.HHE">
      <acc value="0.9869666974" flag="0"/>
      <vel value="0.3006428132" flag="0"/>
      <psa03 value="2.0277945472" flag="0"/>
      <psa10 value="0.2430128660" flag="0"/>
      <psa30 value="0.0422006444" flag="0"/>
    </comp>
    <comp name="--.HHN">
      <acc value="0.7774471844" flag="0"/>
      <vel value="0.3901392278" flag="0"/>
      <psa03 value="1.8158061493" flag="0"/>
      <psa10 value="0.2893786749" flag="0"/>
      <psa30 value="0.0513808062" flag="0"/>
    </comp>
    <comp name="--.HHZ">
      <acc value="0.4493514761" flag="0"/>
      <vel value="0.1855867981" flag="0"/>
      <psa03 value="0.6438282559" flag="0"/>
      <psa10 value="0.2328824345" flag="0"/>
      <psa30 value="0.0326151832" flag="0"/>
    </comp>
  </station>
  <station code="BARO" name="BARO" netid="IV" insttype="" lat="42.248" lon="12.0512">
    <comp name="--.HNE">
      <acc value="0.0345145722" flag="0"/>
      <vel value="0.0417538839" flag="0"/>
      <psa03 value="0.1144094854" flag="0"/>
      <psa10 value="0.0781313063" flag="0"/>
      <psa30 value="0.0058363155" flag="0"/>
    </comp>
    <comp name="--.HNN">
      <acc value="0.0421890114" flag="0"/>
      <vel value="0.0475922763" flag="0"/>
      <psa03 value="0.1109613868" flag="0"/>
      <psa10 value="0.1032399415" flag="0"/>
      <psa30 value="0.0073032715" flag="0"/>
    </comp>
    <comp name="--.HNZ">
      <acc value="0.0163423558" flag="0"/>
      <vel value="0.0151926960" flag="0"/>
      <psa03 value="0.0474366376" flag="0"/>
      <psa10 value="0.0183821151" flag="0"/>
      <psa30 value="0.0028327446" flag="0"/>
    </comp>
  </station>
  <station code="BOSL" name="BOSL" netid="IV" insttype="" lat="43.931" lon="11.3743">
    <comp name="--.HHE">
      <acc value="0.0041349925" flag="0"/>
      <vel value="0.0036300263" flag="0"/>
      <psa03 value="0.0115078117" flag="0"/>
      <psa10 value="0.0063123008" flag="0"/>
      <psa30 value="0.0013019880" flag="0"/>
    </comp>
    <comp name="--.HHN">
      <acc value="0.0046714005" flag="0"/>
      <vel value="0.0043599890" flag="0"/>
      <psa03 value="0.0128596624" flag="0"/>
      <psa10 value="0.0052841866" flag="0"/>
      <psa30 value="0.0012600315" flag="0"/>
    </comp>
    <comp name="--.HHZ">
      <acc value="0.0027491437" flag="0"/>
      <vel value="0.0022323430" flag="0"/>
      <psa03 value="0.0068068022" flag="0"/>
      <psa10 value="0.0028009987" flag="0"/>
      <psa30 value="0.0010738555" flag="0"/>
    </comp>
  </station>
  <station code="BRIS" name="BRIS" netid="IV" insttype="" lat="44.2245" lon="11.7666">
    <comp name="--.HHE">
      <acc value="0.0037819718" flag="0"/>
      <vel value="0.0038689825" flag="0"/>
      <psa03 value="0.0099628825" flag="0"/>
      <psa10 value="0.0080268039" flag="0"/>
      <psa30 value="0.0024867013" flag="0"/>
    </comp>
    <comp name="--.HHZ">
      <acc value="0.0034381001" flag="0"/>
      <vel value="0.0040008456" flag="0"/>
      <psa03 value="0.0110422373" flag="0"/>
      <psa10 value="0.0079679573" flag="0"/>
      <psa30 value="0.0016064853" flag="0"/>
    </comp>
    <comp name="--.HHN">
      <acc value="0.0040091251" flag="0"/>
      <vel value="0.0046718017" flag="0"/>
      <psa03 value="0.0118920486" flag="0"/>
      <psa10 value="0.0051192734" flag="0"/>
      <psa30 value="0.0022536435" flag="0"/>
    </comp>
  </station>
  <station code="CAFI" name="CAFI" netid="IV" insttype="" lat="43.3292" lon="11.9663">
    <comp name="--.HHN">
      <acc value="0.2329310040" flag="0"/>
      <vel value="0.0613111128" flag="0"/>
      <psa03 value="0.3572825425" flag="0"/>
      <psa10 value="0.0455419055" flag="0"/>
      <psa30 value="0.0110117925" flag="0"/>
    </comp>
    <comp name="--.HHE">
      <acc value="0.3715827532" flag="0"/>
      <vel value="0.0848049807" flag="0"/>
      <psa03 value="0.4509325889" flag="0"/>
      <psa10 value="0.0379555557" flag="0"/>
      <psa30 value="0.0280468978" flag="0"/>
    </comp>
    <comp name="--.HHZ">
      <acc value="0.1994698614" flag="0"/>
      <vel value="0.0969370156" flag="0"/>
      <psa03 value="0.4057686620" flag="0"/>
      <psa10 value="0.0622428935" flag="0"/>
      <psa30 value="0.0308052174" flag="0"/>
    </comp>
  </station>
  <station code="CAMP" name="CAMP" netid="IV" insttype="" lat="42.5358" lon="13.409">
    <comp name="--.HHE">
      <acc value="0.0207155056" flag="0"/>
      <vel value="0.0241557757" flag="0"/>
      <psa03 value="0.0459661923" flag="0"/>
      <psa10 value="0.0398351444" flag="0"/>
      <psa30 value="0.0129823426" flag="0"/>
    </comp>
    <comp name="--.HHN">
      <acc value="0.0137784524" flag="0"/>
      <vel value="0.0146142902" flag="0"/>
      <psa03 value="0.0381241267" flag="0"/>
      <psa10 value="0.0352740743" flag="0"/>
      <psa30 value="0.0069638315" flag="0"/>
    </comp>
    <comp name="--.HHZ">
      <acc value="0.0113770319" flag="0"/>
      <vel value="0.0175990712" flag="0"/>
      <psa03 value="0.0314655277" flag="0"/>
      <psa10 value="0.0187648912" flag="0"/>
      <psa30 value="0.0106175714" flag="0"/>
    </comp>
  </station>
  <station code="CASP" name="CASP" netid="IV" insttype="" lat="42.7908" lon="10.8652">
    <comp name="--.HHN">
      <acc value="0.0027755973" flag="0"/>
      <vel value="0.0019307906" flag="0"/>
      <psa03 value="0.0077932458" flag="0"/>
      <psa10 value="0.0039252486" flag="0"/>
      <psa30 value="0.0004804917" flag="0"/>
    </comp>
    <comp name="--.HHE">
      <acc value="0.0025343707" flag="0"/>
      <vel value="0.0017283198" flag="0"/>
      <psa03 value="0.0089198627" flag="0"/>
      <psa10 value="0.0024129021" flag="0"/>
      <psa30 value="0.0005703270" flag="0"/>
    </comp>
    <comp name="--.HHZ">
      <acc value="0.0037313629" flag="0"/>
      <vel value="0.0024968711" flag="0"/>
      <psa03 value="0.0130283467" flag="0"/>
      <psa10 value="0.0035992362" flag="0"/>
      <psa30 value="0.0005498667" flag="0"/>
    </comp>
  </station>
  <station code="CDCA" name="CDCA" netid="IV" insttype="" lat="43.4584" lon="12.2336">
    <comp name="--.HNE">
      <acc value="0.7886719100" flag="0"/>
      <vel value="0.1533672808" flag="0"/>
      <psa03 value="0.5119030565" flag="0"/>
      <psa10 value="0.3522150490" flag="0"/>
      <psa30 value="0.0263981592" flag="0"/>
    </comp>
    <comp name="--.HNN">
      <acc value="0.7965510708" flag="0"/>
      <vel value="0.3406043939" flag="0"/>
      <psa03 value="0.9917681135" flag="0"/>
      <psa10 value="0.6006361740" flag="0"/>
      <psa30 value="0.0974515455" flag="0"/>
    </comp>
    <comp name="--.HNZ">
      <acc value="0.4219221879" flag="0"/>
      <vel value="0.1425739496" flag="0"/>
      <psa03 value="0.7116628657" flag="0"/>
      <psa10 value="0.1750670727" flag="0"/>
      <psa30 value="0.0233222635" flag="0"/>
    </comp>
  </station>
  <station code="CESI" name="CESI" netid="IV" insttype="" lat="43.0049" lon="12.9046">
    <comp name="--.HHE">
      <acc value="0.3958416121" flag="0"/>
      <vel value="0.1529003816" flag="0"/>
      <psa03 value="0.6990933582" flag="0"/>
      <psa10 value="0.0932789904" flag="0"/>
      <psa30 value="0.0120672731" flag="0"/>
    </comp>
    <comp name="--.HHN">
      <acc value="0.2872198542" flag="0"/>
      <vel value="0.1128108571" flag="0"/>
      <psa03 value="0.4689310584" flag="0"/>
      <psa10 value="0.0816355471" flag="0"/>
      <psa30 value="0.0090487005" flag="0"/>
    </comp>
    <comp name="--.HHZ">
      <acc value="0.2012337265" flag="0"/>
      <vel value="0.0826163522" flag="0"/>
      <psa03 value="0.4446543935" flag="0"/>
      <psa10 value="0.1001658039" flag="0"/>
      <psa30 value="0.0141885875" flag="0"/>
    </comp>
  </station>
  <station code="CESX" name="CESX" netid="IV" insttype="" lat="42.6085" lon="12.5868">
    <comp name="--.HHE">
      <acc value="0.1162007583" flag="0"/>
      <vel value="0.0707908940" flag="0"/>
      <psa03 value="0.3594553178" flag="0"/>
      <psa10 value="0.1023997301" flag="0"/>
      <psa30 value="0.0084603016" flag="0"/>
    </comp>
    <comp name="--.HHZ">
      <acc value="0.0551788019" flag="0"/>
      <vel value="0.0346430364" flag="0"/>
      <psa03 value="0.1263561346" flag="0"/>
      <psa10 value="0.0410863731" flag="0"/>
      <psa30 value="0.0071137303" flag="0"/>
    </comp>
    <comp name="--.HHN">
      <acc value="0.1382032575" flag="0"/>
      <vel value="0.0846970826" flag="0"/>
      <psa03 value="0.3011391353" flag="0"/>
      <psa10 value="0.1413361205" flag="0"/>
      <psa30 value="0.0103679379" flag="0"/>
    </comp>
  </station>
  <station code="CING" name="CING" netid="IV" insttype="" lat="43.3756" lon="13.1954">
    <comp name="--.HHN">
      <acc value="0.0850660644" flag="0"/>
      <vel value="0.0376576715" flag="0"/>
      <psa03 value="0.2020813126" flag="0"/>
      <psa10 value="0.0502124404" flag="0"/>
      <psa30 value="0.0113749607" flag="0"/>
    </comp>
    <comp name="--.HHE">
      <acc value="0.0576266055" flag="0"/>
      <vel value="0.0356867830" flag="0"/>
      <psa03 value="0.1365548196" flag="0"/>
      <psa10 value="0.0211503838" flag="0"/>
      <psa30 value="0.0231022620" flag="0"/>
    </comp>
    <comp name="--.HHZ">
      <acc value="0.0570646930" flag="0"/>
      <vel value="0.0280134500" flag="0"/>
      <psa03 value="0.1861097951" flag="0"/>
      <psa10 value="0.0248161903" flag="0"/>
      <psa30 value="0.0190411783" flag="0"/>
    </comp>
  </station>
  <station code="COR1" name="COR1" netid="IV" insttype="" lat="43.6318" lon="13.0003">
    <comp name="--.HNE">
      <acc value="0.0998862626" flag="0"/>
      <vel value="0.0587128084" flag="0"/>
      <psa03 value="0.3131299428" flag="0"/>
      <psa10 value="0.0907096440" flag="0"/>
      <psa30 value="0.0372702615" flag="0"/>
    </comp>
    <comp name="--.HNN">
      <acc value="0.0986531263" flag="0"/>
      <vel value="0.0566391738" flag="0"/>
      <psa03 value="0.3017732181" flag="0"/>
      <psa10 value="0.0767554041" flag="0"/>
      <psa30 value="0.0298393379" flag="0"/>
    </comp>
