<?xml version="1.0" encoding="UTF-8" standalone="yes"?>
<!DOCTYPE earthquake SYSTEM "stationlist.dtd">
<stationlist created="" xmlns="ch.ethz.sed.shakemap.usgs.xml">
  <station code="CARD" name="CARD" netid="GU" insttype="" lat="44.026" lon="10.4821">
    <comp name="--.HHE">
      <acc value="0.0097731723" flag="0"/>
      <vel value="0.0021870686" flag="0"/>
      <psa03 value="0.0053895312" flag="0"/>
      <psa10 value="0.0011016118" flag="0"/>
      <psa30 value="0.0000552591" flag="0"/>
    </comp>
    <comp name="--.HHN">
      <acc value="0.0102519644" flag="0"/>
      <vel value="0.0023177778" flag="0"/>
      <psa03 value="0.0082554894" flag="0"/>
      <psa10 value="0.0007292050" flag="0"/>
      <psa30 value="0.0000483927" flag="0"/>
    </comp>
    <comp name="--.HHZ">
      <acc value="0.0052271685" flag="0"/>
      <vel value="0.0008898648" flag="0"/>
      <psa03 value="0.0026294068" flag="0"/>
      <psa10 value="0.0004320695" flag="0"/>
      <psa30 value="0.0000412619" flag="0"/>
    </comp>
  </station>
  <station code="GRAM" name="GRAM" netid="GU" insttype="" lat="44.4913" lon="10.0658">
    <comp name="--.HHE">
      <acc value="0.0066699561" flag="0"/>
      <vel value="0.0026671514" flag="0"/>
      <psa03 value="0.0233954318" flag="0"/>
      <psa10 value="0.0006755442" flag="0"/>
      <psa30 value="0.0000546351" flag="0"/>
    </comp>
    <comp name="--.HHN">
      <acc value="0.0074771113" flag="0"/>
      <vel value="0.0024621181" flag="0"/>
      <psa03 value="0.0172305630" flag="0"/>
      <psa10 value="0.0012012973" flag="0"/>
      <psa30 value="0.0001080437" flag="0"/>
    </comp>
    <comp name="--.HHZ">
      <acc value="0.0090595351" flag="0"/>
      <vel value="0.0014736245" flag="0"/>
      <psa03 value="0.0053382564" flag="0"/>
      <psa10 value="0.0006979284" flag="0"/>
      <psa30 value="0.0000419875" flag="0"/>
    </comp>
  </station>
  <station code="GSCL" name="GSCL" netid="GU" insttype="" lat="44.3505" lon="10.5881">
    <comp name="--.HHE">
      <acc value="0.0287413990" flag="0"/>
      <vel value="0.0109876098" flag="0"/>
      <psa03 value="0.0583280074" flag="0"/>
      <psa10 value="0.0036438171" flag="0"/>
      <psa30 value="0.0002739634" flag="0"/>
    </comp>
    <comp name="--.HHN">
      <acc value="0.0320324420" flag="0"/>
      <vel value="0.0099302551" flag="0"/>
      <psa03 value="0.0545509404" flag="0"/>
      <psa10 value="0.0036276652" flag="0"/>
      <psa30 value="0.0002142910" flag="0"/>
    </comp>
    <comp name="--.HHZ">
      <acc value="0.0177620593" flag="0"/>
      <vel value="0.0054378020" flag="0"/>
      <psa03 value="0.0324079165" flag="0"/>
      <psa10 value="0.0020028403" flag="0"/>
      <psa30 value="0.0001651235" flag="0"/>
    </comp>
  </station>
  <station code="POPM" name="POPM" netid="GU" insttype="" lat="44.045" lon="10.757">
    <comp name="--.HHE">
      <acc value="0.0090707141" flag="0"/>
      <vel value="0.0030443508" flag="0"/>
      <psa03 value="0.0135425544" flag="0"/>
      <psa10 value="0.0008414821" flag="0"/>
      <psa30 value="0.0000606657" flag="0"/>
    </comp>
    <comp name="--.HHN">
      <acc value="0.0115007534" flag="0"/>
      <vel value="0.0030388197" flag="0"/>
      <psa03 value="0.0178553250" flag="0"/>
      <psa10 value="0.0009594481" flag="0"/>
      <psa30 value="0.0001033276" flag="0"/>
    </comp>
    <comp name="--.HHZ">
      <acc value="0.0160324793" flag="0"/>
      <vel value="0.0023461347" flag="0"/>
      <psa03 value="0.0057699067" flag="0"/>
      <psa10 value="0.0006101038" flag="0"/>
      <psa30 value="0.0000744927" flag="0"/>
    </comp>
  </station>
  <station code="BDI" name="BDI" netid="IV" insttype="" lat="44.0624" lon="10.597">
    <comp name="--.HHE">
      <acc value="0.0100671777" flag="0"/>
      <vel value="0.0030735085" flag="0"/>
      <psa03 value="0.0293373896" flag="0"/>
      <psa10 value="0.0020903888" flag="0"/>
      <psa30 value="0.0000943270" flag="0"/>
    </comp>
    <comp name="--.HHN">
      <acc value="0.0123575358" flag="0"/>
      <vel value="0.0031327812" flag="0"/>
      <psa03 value="0.0245810427" flag="0"/>
      <psa10 value="0.0015305506" flag="0"/>
      <psa30 value="0.0001102394" flag="0"/>
    </comp>
    <comp name="--.HHZ">
      <acc value="0.0117524428" flag="0"/>
      <vel value="0.0020057276" flag="0"/>
      <psa03 value="0.0076716261" flag="0"/>
      <psa10 value="0.0005458985" flag="0"/>
      <psa30 value="0.0000583396" flag="0"/>
    </comp>
  </station>
  <station code="CAVE" name="CAVE" netid="IV" insttype="" lat="44.8658" lon="11.0031">
    <comp name="--.HHE">
      <acc value="0.0249674176" flag="0"/>
      <vel value="0.0093975660" flag="0"/>
      <psa03 value="0.0409346723" flag="0"/>
      <psa10 value="0.0040518014" flag="0"/>
      <psa30 value="0.0003912181" flag="0"/>
    </comp>
    <comp name="--.HHN">
      <acc value="0.0270260374" flag="0"/>
      <vel value="0.0089519601" flag="0"/>
      <psa03 value="0.0419218910" flag="0"/>
      <psa10 value="0.0054201657" flag="0"/>
      <psa30 value="0.0004387306" flag="0"/>
    </comp>
    <comp name="--.HHZ">
      <acc value="0.0113315394" flag="0"/>
      <vel value="0.0024076401" flag="0"/>
      <psa03 value="0.0191117638" flag="0"/>
      <psa10 value="0.0024087256" flag="0"/>
      <psa30 value="0.0001170291" flag="0"/>
    </comp>
  </station>
  <station code="CRMI" name="CRMI" netid="IV" insttype="" lat="43.7956" lon="10.9795">
    <comp name="--.HNE">
      <acc value="0.0009206113" flag="0"/>
      <vel value="0.0003678556" flag="0"/>
      <psa03 value="0.0013789933" flag="0"/>
      <psa10 value="0.0003416685" flag="0"/>
      <psa30 value="0.0000507492" flag="0"/>
    </comp>
    <comp name="--.HNN">
      <acc value="0.0012166038" flag="0"/>
      <vel value="0.0004653398" flag="0"/>
      <psa03 value="0.0025495219" flag="0"/>
      <psa10 value="0.0005216137" flag="0"/>
      <psa30 value="0.0000535105" flag="0"/>
    </comp>
    <comp name="--.HNZ">
      <acc value="0.0009872404" flag="0"/>
      <vel value="0.0002349513" flag="0"/>
      <psa03 value="0.0011635186" flag="0"/>
      <psa10 value="0.0002929599" flag="0"/>
      <psa30 value="0.0000383220" flag="0"/>
    </comp>
  </station>
  <station code="IMOL" name="IMOL" netid="IV" insttype="" lat="44.3595" lon="11.7425">
    <comp name="--.HNE">
      <acc value="0.1097296069" flag="0"/>
      <vel value="0.0067226165" flag="0"/>
      <psa03 value="0.0099689702" flag="0"/>
      <psa10 value="0.0011745279" flag="0"/>
      <psa30 value="0.0001554008" flag="0"/>
    </comp>
    <comp name="--.HNN">
      <acc value="0.1217002603" flag="0"/>
      <vel value="0.0050936492" flag="0"/>
      <psa03 value="0.0079591629" flag="0"/>
      <psa10 value="0.0010412030" flag="0"/>
      <psa30 value="0.0001105549" flag="0"/>
    </comp>
    <comp name="--.HNZ">
      <acc value="0.1428592448" flag="0"/>
      <vel value="0.0073408530" flag="0"/>
      <psa03 value="0.0035913559" flag="0"/>
      <psa10 value="0.0004101511" flag="0"/>
      <psa30 value="0.0003144475" flag="0"/>
    </comp>
  </station>
  <station code="MODE" name="MODE" netid="IV" insttype="" lat="44.6297" lon="10.9492">
    <comp name="--.HNE">
      <acc value="0.0617178755" flag="0"/>
      <vel value="0.0233688191" flag="0"/>
      <psa03 value="0.0636327120" flag="0"/>
      <psa10 value="0.0193644000" flag="0"/>
      <psa30 value="0.0010376649" flag="0"/>
    </comp>
    <comp name="--.HNN">
      <acc value="0.0564469090" flag="0"/>
      <vel value="0.0304856492" flag="0"/>
      <psa03 value="0.0761250216" flag="0"/>
      <psa10 value="0.0194644671" flag="0"/>
      <psa30 value="0.0015627357" flag="0"/>
    </comp>
    <comp name="--.HNZ">
      <acc value="0.0383787158" flag="0"/>
      <vel value="0.0131029721" flag="0"/>
      <psa03 value="0.0934994698" flag="0"/>
      <psa10 value="0.0043713419" flag="0"/>
      <psa30 value="0.0003528434" flag="0"/>
    </comp>
  </station>
  <station code="NEVI" name="NEVI" netid="IV" insttype="" lat="44.5834" lon="10.3163">
    <comp name="--.HNE">
      <acc value="0.0061173540" flag="0"/>
      <vel value="0.0025815744" flag="0"/>
      <psa03 value="0.0155539691" flag="0"/>
      <psa10 value="0.0037023346" flag="0"/>
      <psa30 value="0.0006166191" flag="0"/>
    </comp>
    <comp name="--.HNN">
      <acc value="0.0102932893" flag="0"/>
      <vel value="0.0040297730" flag="0"/>
      <psa03 value="0.0208796282" flag="0"/>
      <psa10 value="0.0043635300" flag="0"/>
      <psa30 value="0.0003610337" flag="0"/>
    </comp>
    <comp name="--.HNZ">
      <acc value="0.0050042711" flag="0"/>
      <vel value="0.0015707098" flag="0"/>
      <psa03 value="0.0058130986" flag="0"/>
      <psa10 value="0.0025544498" flag="0"/>
      <psa30 value="0.0001920388" flag="0"/>
    </comp>
  </station>
  <station code="PII" name="PII" netid="IV" insttype="" lat="43.7219" lon="10.525">
    <comp name="--.HHE">
      <acc value="0.0062600534" flag="0"/>
      <vel value="0.0016050012" flag="0"/>
      <psa03 value="0.0115431310" flag="0"/>
      <psa10 value="0.0008016587" flag="0"/>
      <psa30 value="0.0000501671" flag="0"/>
    </comp>
    <comp name="--.HHN">
      <acc value="0.0054600760" flag="0"/>
      <vel value="0.0018176379" flag="0"/>
      <psa03 value="0.0117351636" flag="0"/>
      <psa10 value="0.0008478475" flag="0"/>
      <psa30 value="0.0000412004" flag="0"/>
    </comp>
    <comp name="--.HHZ">
      <acc value="0.0067536905" flag="0"/>
      <vel value="0.0012681985" flag="0"/>
      <psa03 value="0.0101471448" flag="0"/>
      <psa10 value="0.0005910523" flag="0"/>
      <psa30 value="0.0000412384" flag="0"/>
    </comp>
  </station>
  <station code="SBPO" name="SBPO" netid="IV" insttype="" lat="45.0511" lon="10.9199">
    <comp name="--.HNE">
      <acc value="0.0272070678" flag="0"/>
      <vel value="0.0067046636" flag="0"/>
      <psa03 value="0.0269982036" flag="0"/>
      <psa10 value="0.0041301410" flag="0"/>
      <psa30 value="0.0003852680" flag="0"/>
    </comp>
    <comp name="--.HNN">
      <acc value="0.0329608831" flag="0"/>
      <vel value="0.0062918285" flag="0"/>
      <psa03 value="0.0260153207" flag="0"/>
      <psa10 value="0.0053785378" flag="0"/>
      <psa30 value="0.0016012480" flag="0"/>
    </comp>
    <comp name="--.HNZ">
      <acc value="0.0140681249" flag="0"/>
      <vel value="0.0025914599" flag="0"/>
      <psa03 value="0.0154747630" flag="0"/>
      <psa10 value="0.0009758994" flag="0"/>
      <psa30 value="0.0001438480" flag="0"/>
    </comp>
  </station>
  <station code="ZCCA" name="ZCCA" netid="IV" insttype="" lat="44.3509" lon="10.9765">
    <comp name="--.HHE">
      <acc value="0.0127648604" flag="0"/>
      <vel value="0.0045108869" flag="0"/>
      <psa03 value="0.0168377844" flag="0"/>
      <psa10 value="0.0044832819" flag="0"/>
      <psa30 value="0.0003869320" flag="0"/>
    </comp>
    <comp name="--.HHZ">
      <acc value="0.0147503561" flag="0"/>
      <vel value="0.0035148407" flag="0"/>
      <psa03 value="0.0158618543" flag="0"/>
      <psa10 value="0.0021509865" flag="0"/>
      <psa30 value="0.0002564738" flag="0"/>
    </comp>
    <comp name="--.HHN">
      <acc value="0.0163931410" flag="0"/>
      <vel value="0.0042749722" flag="0"/>
      <psa03 value="0.0239953460" flag="0"/>
      <psa10 value="0.0035120850" flag="0"/>
      <psa30 value="0.0002378697" flag="0"/>
    </comp>
  </station>
</stationlist>
