<stationlist created="1778135885">
	<station code="KRL1" name="KRL1" netid="HI" source="ITSAK Strong Motion Network" insttype="" lat="37.7951" lon="26.7065">
		<comp name="--.HNE" depth="0.0">
			<acc value="1.52474110731085" flag="0"/>
			<vel value="0.417137590568941" flag="0"/>
			<psa03 value="1.43783555188478" flag="0"/>
			<psa10 value="0.11412349899916" flag="0"/>
			<psa30 value="0.0225715483947857" flag="0"/>
		</comp>
		<comp name="--.HNN" depth="0.0">
			<acc value="1.23304347927461" flag="0"/>
			<vel value="0.362429828012813" flag="0"/>
			<psa03 value="1.22589171913403" flag="0"/>
			<psa10 value="0.134764868600433" flag="0"/>
			<psa30 value="0.00888803934471968" flag="0"/>
		</comp>
		<comp name="--.HNZ" depth="0.0">
			<acc value="0.569916987399662" flag="0"/>
			<vel value="0.137496777764457" flag="0"/>
			<psa03 value="0.533640298336127" flag="0"/>
			<psa10 value="0.0546597641372779" flag="0"/>
			<psa30 value="0.00690059052673605" flag="0"/>
		</comp>
	</station>
	<station code="MYT1" name="MYT1" netid="HI" source="ITSAK Strong Motion Network" insttype="" lat="39.085" lon="26.5694">
		<comp name="--.HNE" depth="0.0">
			<acc value="0.0115599188940845" flag="0"/>
			<vel value="0.0102916715318534" flag="0"/>
			<psa03 value="0.0389704619645147" flag="0"/>
			<psa10 value="0.0140535270987992" flag="0"/>
			<psa30 value="0.00107381295883852" flag="0"/>
		</comp>
		<comp name="--.HNN" depth="0.0">
			<acc value="0.0129586470573348" flag="0"/>
			<vel value="0.00933134248317776" flag="0"/>
			<psa03 value="0.0368675782534559" flag="0"/>
			<psa10 value="0.0159461224387521" flag="0"/>
			<psa30 value="0.0017708965379512" flag="0"/>
		</comp>
		<comp name="--.HNZ" depth="0.0">
			<acc value="0.00886054566422373" flag="0"/>
			<vel value="0.00762036147386979" flag="0"/>
			<psa03 value="0.0207156416642598" flag="0"/>
			<psa10 value="0.0124065664731806" flag="0"/>
			<psa30 value="0.0011364520481041" flag="0"/>
		</comp>
	</station>
	<station code="KLNA" name="KLNA" netid="HL" source="National Observatory of Athens Seismic Network" insttype="" lat="36.95708" lon="26.97274">
		<comp name="00.HNE" depth="0.0">
			<acc value="0.0480563472597643" flag="0"/>
			<vel value="0.0179360062421222" flag="0"/>
			<psa03 value="0.156284527717623" flag="0"/>
			<psa10 value="0.00641066336426598" flag="0"/>
			<psa30 value="0.000819229803180556" flag="0"/>
		</comp>
		<comp name="00.HNN" depth="0.0">
			<acc value="0.0451878903706148" flag="0"/>
			<vel value="0.0160211258061454" flag="0"/>
			<psa03 value="0.114719017769249" flag="0"/>
			<psa10 value="0.00950324468572092" flag="0"/>
			<psa30 value="0.000783436037885938" flag="0"/>
		</comp>
		<comp name="00.HNZ" depth="0.0">
			<acc value="0.0415898135692692" flag="0"/>
			<vel value="0.0123330943402204" flag="0"/>
			<psa03 value="0.057627962124334" flag="0"/>
			<psa10 value="0.0062495914204402" flag="0"/>
			<psa30 value="0.000790147368878679" flag="0"/>
		</comp>
	</station>
	<station code="PRK" name="PRK" netid="HL" source="National Observatory of Athens Seismic Network" insttype="" lat="39.24565" lon="26.26499">
		<comp name="--.HNE" depth="0.0">
			<acc value="0.0101460038187606" flag="0"/>
			<vel value="0.00823486333418768" flag="0"/>
			<psa03 value="0.0326618108313384" flag="0"/>
			<psa10 value="0.0117864394894513" flag="0"/>
			<psa30 value="0.000569120868184417" flag="0"/>
		</comp>
		<comp name="--.HNN" depth="0.0">
			<acc value="0.0116688039759455" flag="0"/>
			<vel value="0.0107864064975903" flag="0"/>
			<psa03 value="0.0268900661775813" flag="0"/>
			<psa10 value="0.0119112702459163" flag="0"/>
			<psa30 value="0.000931085319726235" flag="0"/>
		</comp>
		<comp name="--.HNZ" depth="0.0">
			<acc value="0.00952944667263165" flag="0"/>
			<vel value="0.00754265901783193" flag="0"/>
			<psa03 value="0.0221473922760445" flag="0"/>
			<psa10 value="0.00473954194707353" flag="0"/>
			<psa30 value="0.000542722966279636" flag="0"/>
		</comp>
	</station>
	<station code="SMG" name="SMG" netid="HL" source="National Observatory of Athens Seismic Network" insttype="" lat="37.70425" lon="26.83772">
		<comp name="00.HNE" depth="0.0">
			<acc value="0.334732967842693" flag="0"/>
			<vel value="0.105648950718592" flag="0"/>
			<psa03 value="0.63350490350811" flag="0"/>
			<psa10 value="0.037296208592859" flag="0"/>
			<psa30 value="0.00452701646563674" flag="0"/>
		</comp>
		<comp name="00.HNN" depth="0.0">
			<acc value="0.354373530207852" flag="0"/>
			<vel value="0.098760657203324" flag="0"/>
			<psa03 value="0.53435617364202" flag="0"/>
			<psa10 value="0.0328506229432675" flag="0"/>
			<psa30 value="0.00707553255461349" flag="0"/>
		</comp>
		<comp name="00.HNZ" depth="0.0">
			<acc value="0.253034689262342" flag="0"/>
			<vel value="0.0596793720159558" flag="0"/>
			<psa03 value="0.237267921696695" flag="0"/>
			<psa10 value="0.0323714339103858" flag="0"/>
			<psa30 value="0.00811489401435595" flag="0"/>
		</comp>
	</station>
	<station code="FOCM" name="FOCM" netid="KO" source="Bogazici University Kandilli Observatory And Earthquake Research Institute (KOERI)" insttype="" lat="38.7131" lon="26.7309">
		<comp name="--.HNE" depth="0.0">
			<acc value="0.0434876742691172" flag="0"/>
			<vel value="0.0260655096430199" flag="0"/>
			<psa03 value="0.117850972232528" flag="0"/>
			<psa10 value="0.0160790067924083" flag="0"/>
			<psa30 value="0.0010174377784995" flag="0"/>
		</comp>
		<comp name="--.HNN" depth="0.0">
			<acc value="0.0318919465233414" flag="0"/>
			<vel value="0.0180355859963743" flag="0"/>
			<psa03 value="0.0537353901485444" flag="0"/>
			<psa10 value="0.0302372306546942" flag="0"/>
			<psa30 value="0.00155881847858059" flag="0"/>
		</comp>
		<comp name="--.HNZ" depth="0.0">
			<acc value="0.0220684580309297" flag="0"/>
			<vel value="0.0108805227306234" flag="0"/>
			<psa03 value="0.0626390892655805" flag="0"/>
			<psa10 value="0.00732071984688162" flag="0"/>
			<psa30 value="0.000682766072994827" flag="0"/>
		</comp>
	</station>
	<station code="GMLD" name="GMLD" netid="KO" source="Bogazici University Kandilli Observatory And Earthquake Research Institute (KOERI)" insttype="" lat="38.0766" lon="26.9157">
		<comp name="--.HNE" depth="0.0">
			<acc value="0.88843494548384" flag="0"/>
			<vel value="0.474004348901174" flag="0"/>
			<psa03 value="2.17241310014357" flag="0"/>
			<psa10 value="0.257795646093158" flag="0"/>
			<psa30 value="0.0242109028452792" flag="0"/>
		</comp>
		<comp name="--.HNN" depth="0.0">
			<acc value="0.772914790981726" flag="0"/>
			<vel value="0.501567002009537" flag="0"/>
			<psa03 value="1.96248266669064" flag="0"/>
			<psa10 value="0.277837022703681" flag="0"/>
			<psa30 value="0.0411963867437737" flag="0"/>
		</comp>
		<comp name="--.HNZ" depth="0.0">
			<acc value="0.593382033796796" flag="0"/>
			<vel value="0.194300114224182" flag="0"/>
			<psa03 value="1.42029660689042" flag="0"/>
			<psa10 value="0.0866929469656295" flag="0"/>
			<psa30 value="0.0171447661540555" flag="0"/>
		</comp>
	</station>
	<station code="GORD" name="GORD" netid="KO" source="Bogazici University Kandilli Observatory And Earthquake Research Institute (KOERI)" insttype="" lat="38.9088" lon="28.1769">
		<comp name="--.HNE" depth="0.0">
			<acc value="0.0343907315235018" flag="0"/>
			<vel value="0.0244551255937968" flag="0"/>
			<psa03 value="0.143532998831416" flag="0"/>
			<psa10 value="0.0388344456563951" flag="0"/>
			<psa30 value="0.00219594750082478" flag="0"/>
		</comp>
		<comp name="--.HNN" depth="0.0">
			<acc value="0.0398151487185893" flag="0"/>
			<vel value="0.0338412742314553" flag="0"/>
			<psa03 value="0.10639696733825" flag="0"/>
			<psa10 value="0.0258641273798243" flag="0"/>
			<psa30 value="0.00237804828176114" flag="0"/>
		</comp>
		<comp name="--.HNZ" depth="0.0">
			<acc value="0.0258858171356461" flag="0"/>
			<vel value="0.0226984521634764" flag="0"/>
			<psa03 value="0.0737798987135301" flag="0"/>
			<psa10 value="0.0246238734123659" flag="0"/>
			<psa30 value="0.00190199120334273" flag="0"/>
		</comp>
	</station>
	<station code="KRBN" name="KRBN" netid="KO" source="Bogazici University Kandilli Observatory And Earthquake Research Institute (KOERI)" insttype="" lat="38.5936" lon="26.5537">
		<comp name="--.HNE" depth="0.0">
			<acc value="0.193416321640071" flag="0"/>
			<vel value="0.111709680910853" flag="0"/>
			<psa03 value="0.5291660776743" flag="0"/>
			<psa10 value="0.0920042943132846" flag="0"/>
			<psa30 value="0.00559635520381343" flag="0"/>
		</comp>
		<comp name="--.HNN" depth="0.0">
			<acc value="0.272381919040288" flag="0"/>
			<vel value="0.111045353852688" flag="0"/>
			<psa03 value="0.76294410725477" flag="0"/>
			<psa10 value="0.148093571952016" flag="0"/>
			<psa30 value="0.00793592518788286" flag="0"/>
		</comp>
		<comp name="--.HNZ" depth="0.0">
			<acc value="0.120625311790073" flag="0"/>
			<vel value="0.0657157853584812" flag="0"/>
			<psa03 value="0.255612226410187" flag="0"/>
			<psa10 value="0.0538181632307882" flag="0"/>
			<psa30 value="0.00346841585704843" flag="0"/>
		</comp>
	</station>
	<station code="NAZL" name="NAZL" netid="KO" source="Bogazici University Kandilli Observatory And Earthquake Research Institute (KOERI)" insttype="" lat="37.9641" lon="28.2922">
		<comp name="--.HNE" depth="0.0">
			<acc value="0.062441346306038" flag="0"/>
			<vel value="0.0424057980185124" flag="0"/>
			<psa03 value="0.274806633049425" flag="0"/>
			<psa10 value="0.0362210533678219" flag="0"/>
			<psa30 value="0.00291182280671713" flag="0"/>
		</comp>
		<comp name="--.HNN" depth="0.0">
			<acc value="0.0480890842243084" flag="0"/>
			<vel value="0.029341631902949" flag="0"/>
			<psa03 value="0.114897986595722" flag="0"/>
			<psa10 value="0.0288439583406013" flag="0"/>
			<psa30 value="0.00208722393874238" flag="0"/>
		</comp>
		<comp name="--.HNZ" depth="0.0">
			<acc value="0.0185241668355119" flag="0"/>
			<vel value="0.0137349548812497" flag="0"/>
			<psa03 value="0.0497533337595182" flag="0"/>
			<psa10 value="0.0118710022599599" flag="0"/>
			<psa30 value="0.00214807333974323" flag="0"/>
		</comp>
	</station>
	<station code="SOMA" name="SOMA" netid="KO" source="Bogazici University Kandilli Observatory And Earthquake Research Institute (KOERI)" insttype="" lat="39.1564" lon="27.5341">
		<comp name="--.HNE" depth="0.0">
			<acc value="0.0968845540112481" flag="0"/>
			<vel value="0.052820192661154" flag="0"/>
			<psa03 value="0.400532233646769" flag="0"/>
			<psa10 value="0.0243701851008403" flag="0"/>
			<psa30 value="0.00290153209919492" flag="0"/>
		</comp>
		<comp name="--.HNN" depth="0.0">
			<acc value="0.120995471572305" flag="0"/>
			<vel value="0.0587717280696674" flag="0"/>
			<psa03 value="0.341338294290795" flag="0"/>
			<psa10 value="0.0393619562724246" flag="0"/>
			<psa30 value="0.00578740442607345" flag="0"/>
		</comp>
		<comp name="--.HNZ" depth="0.0">
			<acc value="0.0867810700544191" flag="0"/>
			<vel value="0.0444734993800715" flag="0"/>
			<psa03 value="0.271719420792764" flag="0"/>
			<psa10 value="0.0138280263774431" flag="0"/>
			<psa30 value="0.003484523051431" flag="0"/>
		</comp>
	</station>
</stationlist>
