<?xml version="1.0" encoding="UTF-8" standalone="yes"?>
<!DOCTYPE earthquake SYSTEM "stationlist.dtd">
<stationlist created="" xmlns="ch.ethz.sed.shakemap.usgs.xml">
  <station code="KRL1" name="KRL1" netid="HI" insttype="CMG-5TD,ACCELEROMETER,GURALP" lat="37.7951" lon="26.7065">
    <comp name="--.HNN">
      <acc value="1.2388467232" flag="0"/>
      <vel value="0.3553604973" flag="0"/>
      <psa03 value="1.2111514632" flag="0"/>
      <psa10 value="0.1344788452" flag="0"/>
      <psa30 value="0.0087480707" flag="0"/>
    </comp>
    <comp name="--.HNZ">
      <acc value="0.5743303215" flag="0"/>
      <vel value="0.1340829411" flag="0"/>
      <psa03 value="0.5208259867" flag="0"/>
      <psa10 value="0.0542854540" flag="0"/>
      <psa30 value="0.0063146914" flag="0"/>
    </comp>
    <comp name="--.HNE">
      <acc value="1.5381822962" flag="0"/>
      <vel value="0.4054840294" flag="0"/>
      <psa03 value="1.4267676315" flag="0"/>
      <psa10 value="0.1138162049" flag="0"/>
      <psa30 value="0.0204794993" flag="0"/>
    </comp>
  </station>
  <station code="EAG2" name="EAG2" netid="HL" insttype="SMART24" lat="38.5438" lon="26.1079">
    <comp name="--.HHZ">
      <acc value="0.0964648337" flag="0"/>
      <vel value="0.0604573359" flag="0"/>
      <psa03 value="0.2580652126" flag="0"/>
      <psa10 value="0.0444366579" flag="0"/>
      <psa30 value="0.0024940831" flag="0"/>
    </comp>
    <comp name="--.HHE">
      <acc value="0.2814685420" flag="0"/>
      <vel value="0.1528771113" flag="0"/>
      <psa03 value="1.0196400790" flag="0"/>
      <psa10 value="0.0617212311" flag="0"/>
      <psa30 value="0.0051857127" flag="0"/>
    </comp>
    <comp name="--.HHN">
      <acc value="0.1910508470" flag="0"/>
      <vel value="0.1133789070" flag="0"/>
      <psa03 value="0.6402643760" flag="0"/>
      <psa10 value="0.1124818902" flag="0"/>
      <psa30 value="0.0060662536" flag="0"/>
    </comp>
  </station>
  <station code="SMG" name="SMG" netid="HL" insttype="120" lat="37.7043" lon="26.8377">
    <comp name="--.HHZ">
      <acc value="0.2923661516" flag="0"/>
      <vel value="0.0614709380" flag="0"/>
      <psa03 value="0.2374473965" flag="0"/>
      <psa10 value="0.0343887047" flag="0"/>
      <psa30 value="0.0072941949" flag="0"/>
    </comp>
    <comp name="--.HHN">
      <acc value="0.4570166419" flag="0"/>
      <vel value="0.1067335565" flag="0"/>
      <psa03 value="0.5845089911" flag="0"/>
      <psa10 value="0.0360971380" flag="0"/>
      <psa30 value="0.0062727089" flag="0"/>
    </comp>
    <comp name="--.HHE">
      <acc value="0.4066292476" flag="0"/>
      <vel value="0.1181632347" flag="0"/>
      <psa03 value="0.6754067786" flag="0"/>
      <psa10 value="0.0401889847" flag="0"/>
      <psa30 value="0.0048467311" flag="0"/>
    </comp>
  </station>
  <station code="CHOS" name="CHOS" netid="HT" insttype="100" lat="38.3869" lon="26.0506">
    <comp name="--.HHE">
      <acc value="0.0296940781" flag="0"/>
      <vel value="0.0127281629" flag="0"/>
      <psa03 value="0.0569694614" flag="0"/>
      <psa10 value="0.0165537749" flag="0"/>
      <psa30 value="0.0007084963" flag="0"/>
    </comp>
    <comp name="--.HHN">
      <acc value="0.0253713782" flag="0"/>
      <vel value="0.0156617100" flag="0"/>
      <psa03 value="0.0447720638" flag="0"/>
      <psa10 value="0.0196478499" flag="0"/>
      <psa30 value="0.0008568247" flag="0"/>
    </comp>
    <comp name="--.HHZ">
      <acc value="0.0095218333" flag="0"/>
      <vel value="0.0043906727" flag="0"/>
      <psa03 value="0.0175358464" flag="0"/>
      <psa10 value="0.0074173599" flag="0"/>
      <psa30 value="0.0005311028" flag="0"/>
    </comp>
  </station>
  <station code="GMLD" name="GMLD" netid="KO" insttype="100" lat="38.0764" lon="26.8747">
    <comp name="--.HNE">
      <acc value="0.1405928882" flag="0"/>
      <vel value="0.0755623877" flag="0"/>
      <psa03 value="0.3429534502" flag="0"/>
      <psa10 value="0.0408859221" flag="0"/>
      <psa30 value="0.0035846651" flag="0"/>
    </comp>
    <comp name="--.HNZ">
      <acc value="0.0954086129" flag="0"/>
      <vel value="0.0307621063" flag="0"/>
      <psa03 value="0.2223671117" flag="0"/>
      <psa10 value="0.0135837918" flag="0"/>
      <psa30 value="0.0023976163" flag="0"/>
    </comp>
    <comp name="--.HNN">
      <acc value="0.1235874497" flag="0"/>
      <vel value="0.0798869709" flag="0"/>
      <psa03 value="0.3067516747" flag="0"/>
      <psa10 value="0.0441919891" flag="0"/>
      <psa30 value="0.0059399390" flag="0"/>
    </comp>
  </station>
  <station code="KRBN" name="KRBN" netid="KO" insttype="100" lat="38.5936" lon="26.5537">
    <comp name="--.HNE">
      <acc value="0.0307971274" flag="0"/>
      <vel value="0.0177189805" flag="0"/>
      <psa03 value="0.0849479369" flag="0"/>
      <psa10 value="0.0146221723" flag="0"/>
      <psa30 value="0.0008673453" flag="0"/>
    </comp>
    <comp name="--.HNN">
      <acc value="0.0432030852" flag="0"/>
      <vel value="0.0176380319" flag="0"/>
      <psa03 value="0.1233007725" flag="0"/>
      <psa10 value="0.0235295690" flag="0"/>
      <psa30 value="0.0012555042" flag="0"/>
    </comp>
    <comp name="--.HNZ">
      <acc value="0.0192331813" flag="0"/>
      <vel value="0.0102323988" flag="0"/>
      <psa03 value="0.0400152979" flag="0"/>
      <psa10 value="0.0085451738" flag="0"/>
      <psa30 value="0.0005391808" flag="0"/>
    </comp>
  </station>
  <station code="AYDN" name="AYDN" netid="TU" source="ODC" insttype="T" lat="37.6608" lon="27.8792">
    <comp name="--.HHN">
      <acc value="0.0293561769" flag="0"/>
      <vel value="0.0139707337" flag="0"/>
      <psa03 value="0.0683730491" flag="0"/>
      <psa10 value="0.0205291637" flag="0"/>
      <psa30 value="0.0010142583" flag="0"/>
    </comp>
    <comp name="--.HHZ">
      <acc value="0.0136797633" flag="0"/>
      <vel value="0.0075300301" flag="0"/>
      <psa03 value="0.0232869830" flag="0"/>
      <psa10 value="0.0110524283" flag="0"/>
      <psa30 value="0.0010977009" flag="0"/>
    </comp>
    <comp name="--.HHE">
      <acc value="0.0311650376" flag="0"/>
      <vel value="0.0139846785" flag="0"/>
      <psa03 value="0.0705613306" flag="0"/>
      <psa10 value="0.0114331359" flag="0"/>
      <psa30 value="0.0014506688" flag="0"/>
    </comp>
  </station>
</stationlist>
