<?xml version="1.0" encoding="UTF-8" standalone="yes"?>
<!DOCTYPE earthquake SYSTEM "stationlist.dtd">
<stationlist created="" xmlns="ch.ethz.sed.shakemap.usgs.xml">
  <station code="SNT1" name="SNT1" netid="HA" insttype="30" lat="36.4159" lon="25.4282">
    <comp name="--.HHE">
      <acc value="0.1909838149" flag="0"/>
      <vel value="0.0777113495" flag="0"/>
      <psa03 value="0.1962769628" flag="0"/>
      <psa10 value="0.0299194988" flag="0"/>
      <psa30 value="0.0034285151" flag="0"/>
    </comp>
    <comp name="--.HHN">
      <acc value="0.1339515904" flag="0"/>
      <vel value="0.0690059855" flag="0"/>
      <psa03 value="0.2512094393" flag="0"/>
      <psa10 value="0.0413186346" flag="0"/>
      <psa30 value="0.0022900079" flag="0"/>
    </comp>
    <comp name="--.HHZ">
      <acc value="0.1384391866" flag="0"/>
      <vel value="0.0394405766" flag="0"/>
      <psa03 value="0.2067074643" flag="0"/>
      <psa10 value="0.0200695223" flag="0"/>
      <psa30 value="0.0014069943" flag="0"/>
    </comp>
  </station>
  <station code="SAP3" name="SAP3" netid="HL" insttype="LE3D20_SMART24" lat="36.4356" lon="25.3454">
    <comp name="--.HHE">
      <acc value="0.7601795046" flag="0"/>
      <vel value="0.2391684657" flag="0"/>
      <psa03 value="1.0924680001" flag="0"/>
      <psa10 value="0.0837050360" flag="0"/>
      <psa30 value="0.0107560310" flag="0"/>
    </comp>
    <comp name="--.HHZ">
      <acc value="0.5650761966" flag="0"/>
      <vel value="0.1489026094" flag="0"/>
      <psa03 value="0.8001898104" flag="0"/>
      <psa10 value="0.0453392709" flag="0"/>
      <psa30 value="0.0042617885" flag="0"/>
    </comp>
  </station>
  <station code="THERA" name="THERA" netid="HL" insttype="120" lat="36.367" lon="25.4753">
    <comp name="--.HHZ">
      <acc value="0.2016911426" flag="0"/>
      <vel value="0.0588736402" flag="0"/>
      <psa03 value="0.3016604087" flag="0"/>
      <psa10 value="0.0229094321" flag="0"/>
      <psa30 value="0.0016977021" flag="0"/>
    </comp>
    <comp name="--.HHE">
      <acc value="0.2532737414" flag="0"/>
      <vel value="0.0879266648" flag="0"/>
      <psa03 value="0.5895055912" flag="0"/>
      <psa10 value="0.0212567294" flag="0"/>
      <psa30 value="0.0019153089" flag="0"/>
    </comp>
    <comp name="--.HHN">
      <acc value="0.1378309137" flag="0"/>
      <vel value="0.0458872740" flag="0"/>
      <psa03 value="0.4227751962" flag="0"/>
      <psa10 value="0.0111920674" flag="0"/>
      <psa30 value="0.0009130306" flag="0"/>
    </comp>
  </station>
  <station code="THRA" name="THRA" netid="HL" insttype="CMG-5" lat="36.415" lon="25.4324">
    <comp name="00.HNE">
      <acc value="0.5512480839" flag="0"/>
      <vel value="0.1820378388" flag="0"/>
      <psa03 value="1.2676920073" flag="0"/>
      <psa10 value="0.0779532799" flag="0"/>
      <psa30 value="0.0073928584" flag="0"/>
    </comp>
    <comp name="00.HNN">
      <acc value="0.4232012005" flag="0"/>
      <vel value="0.1448578796" flag="0"/>
      <psa03 value="1.0976546681" flag="0"/>
      <psa10 value="0.1482660808" flag="0"/>
      <psa30 value="0.0065904533" flag="0"/>
    </comp>
    <comp name="00.HNZ">
      <acc value="0.3631726353" flag="0"/>
      <vel value="0.1225355943" flag="0"/>
      <psa03 value="0.7404308989" flag="0"/>
      <psa10 value="0.0427877783" flag="0"/>
      <psa30 value="0.0033627919" flag="0"/>
    </comp>
  </station>
  <station code="CMBO" name="CMBO" netid="HT" insttype="120P," lat="36.4709" lon="25.4056">
    <comp name="--.HHE">
      <acc value="0.5585827435" flag="0"/>
      <vel value="0.1587218514" flag="0"/>
      <psa03 value="0.9175889619" flag="0"/>
      <psa10 value="0.1060501449" flag="0"/>
      <psa30 value="0.0081501732" flag="0"/>
    </comp>
    <comp name="--.HHN">
      <acc value="0.8987371863" flag="0"/>
      <vel value="0.2992044640" flag="0"/>
      <psa03 value="1.2734490281" flag="0"/>
      <psa10 value="0.1071466872" flag="0"/>
      <psa30 value="0.0069627725" flag="0"/>
    </comp>
    <comp name="--.HHZ">
      <acc value="0.6598405765" flag="0"/>
      <vel value="0.1755928466" flag="0"/>
      <psa03 value="1.0046678577" flag="0"/>
      <psa10 value="0.0404571561" flag="0"/>
      <psa30 value="0.0045547818" flag="0"/>
    </comp>
  </station>
</stationlist>
