<?xml version="1.0" encoding="UTF-8" standalone="yes"?>
<!DOCTYPE earthquake SYSTEM "stationlist.dtd">
<stationlist created="" xmlns="ch.ethz.sed.shakemap.usgs.xml">
  <station code="LMN1" name="LMN1" netid="HI" insttype="CMG-5TD,ACCELEROMETER,GURALP" lat="39.875" lon="25.0588">
    <comp name="--.HNZ">
      <acc value="0.1301383721" flag="0"/>
      <vel value="0.0239502902" flag="0"/>
      <psa03 value="0.0991466853" flag="0"/>
      <psa10 value="0.0053365002" flag="0"/>
      <psa30 value="0.0005896947" flag="0"/>
    </comp>
    <comp name="--.HNN">
      <acc value="0.1230599078" flag="0"/>
      <vel value="0.0395606833" flag="0"/>
      <psa03 value="0.2466239162" flag="0"/>
      <psa10 value="0.0079523024" flag="0"/>
      <psa30 value="0.0010284400" flag="0"/>
    </comp>
    <comp name="--.HNE">
      <acc value="0.1541367967" flag="0"/>
      <vel value="0.0525632350" flag="0"/>
      <psa03 value="0.4172059110" flag="0"/>
      <psa10 value="0.0124384171" flag="0"/>
      <psa30 value="0.0010344504" flag="0"/>
    </comp>
  </station>
  <station code="SKO1" name="SKO1" netid="HI" insttype="CMG-5TD,ACCELEROMETER,GURALP" lat="39.1234" lon="23.7287">
    <comp name="--.HNN">
      <acc value="0.0078444197" flag="0"/>
      <vel value="0.0044815068" flag="0"/>
      <psa03 value="0.0233611427" flag="0"/>
      <psa10 value="0.0069642182" flag="0"/>
      <psa30 value="0.0010380854" flag="0"/>
    </comp>
    <comp name="--.HNZ">
      <acc value="0.0092944617" flag="0"/>
      <vel value="0.0043724762" flag="0"/>
      <psa03 value="0.0187837036" flag="0"/>
      <psa10 value="0.0046609874" flag="0"/>
      <psa30 value="0.0011377167" flag="0"/>
    </comp>
    <comp name="--.HNE">
      <acc value="0.0151960382" flag="0"/>
      <vel value="0.0057161053" flag="0"/>
      <psa03 value="0.0344252457" flag="0"/>
      <psa10 value="0.0070103496" flag="0"/>
      <psa30 value="0.0007452811" flag="0"/>
    </comp>
  </station>
  <station code="THS1" name="THS1" netid="HI" insttype="CMG-5TD,ACCELEROMETER,GURALP" lat="40.7385" lon="24.5751">
    <comp name="--.HNZ">
      <acc value="0.1101778046" flag="0"/>
      <vel value="0.0417659940" flag="0"/>
      <psa03 value="0.2338434634" flag="0"/>
      <psa10 value="0.0285655625" flag="0"/>
      <psa30 value="0.0019204883" flag="0"/>
    </comp>
    <comp name="--.HNE">
      <acc value="0.2005212237" flag="0"/>
      <vel value="0.0559037816" flag="0"/>
      <psa03 value="0.3050389457" flag="0"/>
      <psa10 value="0.0478057715" flag="0"/>
      <psa30 value="0.0024573403" flag="0"/>
    </comp>
    <comp name="--.HNN">
      <acc value="0.2407434101" flag="0"/>
      <vel value="0.0851582098" flag="0"/>
      <psa03 value="0.4774325431" flag="0"/>
      <psa10 value="0.0518937726" flag="0"/>
      <psa30 value="0.0025536919" flag="0"/>
    </comp>
  </station>
  <station code="EFSA" name="EFSA" netid="HL" insttype="CMG-5" lat="39.5401" lon="24.9886">
    <comp name="00.HNN">
      <acc value="0.0257470278" flag="0"/>
      <vel value="0.0136018133" flag="0"/>
      <psa03 value="0.0576192534" flag="0"/>
      <psa10 value="0.0135009674" flag="0"/>
      <psa30 value="0.0010130669" flag="0"/>
    </comp>
    <comp name="00.HNE">
      <acc value="0.0355326914" flag="0"/>
      <vel value="0.0300732283" flag="0"/>
      <psa03 value="0.0688324975" flag="0"/>
      <psa10 value="0.0459106454" flag="0"/>
      <psa30 value="0.0043407175" flag="0"/>
    </comp>
    <comp name="00.HNZ">
      <acc value="0.0185604593" flag="0"/>
      <vel value="0.0095159145" flag="0"/>
      <psa03 value="0.0516884295" flag="0"/>
      <psa10 value="0.0139312402" flag="0"/>
      <psa30 value="0.0013825024" flag="0"/>
    </comp>
  </station>
  <station code="LIA" name="LIA" netid="HL" insttype="P6C" lat="39.8972" lon="25.1806">
    <comp name="--.HHE">
      <acc value="0.0413767444" flag="0"/>
      <vel value="0.0172082926" flag="0"/>
      <psa03 value="0.1064444609" flag="0"/>
      <psa10 value="0.0101949508" flag="0"/>
      <psa30 value="0.0009215201" flag="0"/>
    </comp>
    <comp name="--.HHZ">
      <acc value="0.0411329672" flag="0"/>
      <vel value="0.0136577594" flag="0"/>
      <psa03 value="0.0804814194" flag="0"/>
      <psa10 value="0.0066889994" flag="0"/>
      <psa30 value="0.0006696418" flag="0"/>
    </comp>
    <comp name="--.HHN">
      <acc value="0.0798295580" flag="0"/>
      <vel value="0.0228772334" flag="0"/>
      <psa03 value="0.1134978391" flag="0"/>
      <psa10 value="0.0111612964" flag="0"/>
      <psa30 value="0.0008528508" flag="0"/>
    </comp>
  </station>
  <station code="NEO" name="NEO" netid="HL" insttype="120" lat="39.3057" lon="23.2219">
    <comp name="--.HHZ">
      <acc value="0.0119468533" flag="0"/>
      <vel value="0.0077357483" flag="0"/>
      <psa03 value="0.0248366002" flag="0"/>
      <psa10 value="0.0083489110" flag="0"/>
      <psa30 value="0.0012273908" flag="0"/>
    </comp>
    <comp name="--.HHE">
      <acc value="0.0167912415" flag="0"/>
      <vel value="0.0110382686" flag="0"/>
      <psa03 value="0.0361332032" flag="0"/>
      <psa10 value="0.0102893366" flag="0"/>
      <psa30 value="0.0010553940" flag="0"/>
    </comp>
    <comp name="--.HHN">
      <acc value="0.0134752728" flag="0"/>
      <vel value="0.0127156434" flag="0"/>
      <psa03 value="0.0297746588" flag="0"/>
      <psa10 value="0.0129136918" flag="0"/>
      <psa30 value="0.0012634294" flag="0"/>
    </comp>
  </station>
  <station code="PLG" name="PLG" netid="HL" insttype="CMG3ESPC-120s" lat="40.3733" lon="23.4444">
    <comp name="--.HHZ">
      <acc value="0.0823760056" flag="0"/>
      <vel value="0.0337736037" flag="0"/>
      <psa03 value="0.2037603811" flag="0"/>
      <psa10 value="0.0243546475" flag="0"/>
      <psa30 value="0.0030347895" flag="0"/>
    </comp>
  </station>
  <station code="SMTH" name="SMTH" netid="HL" insttype="CMG3ESPC60_P6C" lat="40.4709" lon="25.5304">
    <comp name="--.HHN">
      <acc value="0.0255056795" flag="0"/>
      <vel value="0.0085924673" flag="0"/>
      <psa03 value="0.0382734656" flag="0"/>
      <psa10 value="0.0081824137" flag="0"/>
      <psa30 value="0.0010065000" flag="0"/>
    </comp>
    <comp name="--.HHZ">
      <acc value="0.0250967932" flag="0"/>
      <vel value="0.0070157168" flag="0"/>
      <psa03 value="0.0306270448" flag="0"/>
      <psa10 value="0.0038880196" flag="0"/>
      <psa30 value="0.0006822872" flag="0"/>
    </comp>
    <comp name="--.HHE">
      <acc value="0.0309996268" flag="0"/>
      <vel value="0.0087916885" flag="0"/>
      <psa03 value="0.0390258112" flag="0"/>
      <psa10 value="0.0048976976" flag="0"/>
      <psa30 value="0.0007622027" flag="0"/>
    </comp>
  </station>
  <station code="AOS2" name="AOS2" netid="HT" insttype="100" lat="39.1478" lon="23.8436">
    <comp name="--.HHN">
      <acc value="0.0158012020" flag="0"/>
      <vel value="0.0073191779" flag="0"/>
      <psa03 value="0.0562888088" flag="0"/>
      <psa10 value="0.0097188467" flag="0"/>
      <psa30 value="0.0009208005" flag="0"/>
    </comp>
    <comp name="--.HHE">
      <acc value="0.0211324349" flag="0"/>
      <vel value="0.0108319529" flag="0"/>
      <psa03 value="0.0536845434" flag="0"/>
      <psa10 value="0.0112826535" flag="0"/>
      <psa30 value="0.0011761638" flag="0"/>
    </comp>
    <comp name="--.HHZ">
      <acc value="0.0159614205" flag="0"/>
      <vel value="0.0080769894" flag="0"/>
      <psa03 value="0.0320121519" flag="0"/>
      <psa10 value="0.0070285361" flag="0"/>
      <psa30 value="0.0013805616" flag="0"/>
    </comp>
  </station>
  <station code="KAVA" name="KAVA" netid="HT" insttype="Compact," lat="40.9967" lon="24.5137">
    <comp name="--.HHE">
      <acc value="0.1085878534" flag="0"/>
      <vel value="0.0306405408" flag="0"/>
      <psa03 value="0.0996205093" flag="0"/>
      <psa10 value="0.0175825296" flag="0"/>
      <psa30 value="0.0018422935" flag="0"/>
    </comp>
    <comp name="--.HHN">
      <acc value="0.0838553082" flag="0"/>
      <vel value="0.0208442314" flag="0"/>
      <psa03 value="0.0946558421" flag="0"/>
      <psa10 value="0.0178459725" flag="0"/>
      <psa30 value="0.0013922883" flag="0"/>
    </comp>
    <comp name="--.HHZ">
      <acc value="0.0611455168" flag="0"/>
      <vel value="0.0172692792" flag="0"/>
      <psa03 value="0.0841866117" flag="0"/>
      <psa10 value="0.0159214944" flag="0"/>
      <psa30 value="0.0020416931" flag="0"/>
    </comp>
  </station>
  <station code="OUR" name="OUR" netid="HT" insttype="100" lat="40.3325" lon="23.9791">
    <comp name="--.HHE">
      <acc value="0.1260741798" flag="0"/>
      <vel value="0.0584269583" flag="0"/>
      <psa03 value="0.3609446340" flag="0"/>
      <psa10 value="0.0222943357" flag="0"/>
      <psa30 value="0.0040348545" flag="0"/>
    </comp>
    <comp name="--.HHN">
      <acc value="0.1635664781" flag="0"/>
      <vel value="0.0504120441" flag="0"/>
      <psa03 value="0.2303922971" flag="0"/>
      <psa10 value="0.0211887297" flag="0"/>
      <psa30 value="0.0023866715" flag="0"/>
    </comp>
    <comp name="--.HHZ">
      <acc value="0.1080687778" flag="0"/>
      <vel value="0.0276432790" flag="0"/>
      <psa03 value="0.1537111350" flag="0"/>
      <psa10 value="0.0208603951" flag="0"/>
      <psa30 value="0.0024337141" flag="0"/>
    </comp>
  </station>
  <station code="PAIG" name="PAIG" netid="HT" insttype="100" lat="39.9363" lon="23.6768">
    <comp name="--.HHN">
      <acc value="0.0318263972" flag="0"/>
      <vel value="0.0125202045" flag="0"/>
      <psa03 value="0.0700191855" flag="0"/>
      <psa10 value="0.0140199921" flag="0"/>
      <psa30 value="0.0008324280" flag="0"/>
    </comp>
    <comp name="--.HHE">
      <acc value="0.0510971359" flag="0"/>
      <vel value="0.0155335656" flag="0"/>
      <psa03 value="0.0799708980" flag="0"/>
      <psa10 value="0.0121510334" flag="0"/>
      <psa30 value="0.0007572498" flag="0"/>
    </comp>
    <comp name="--.HHZ">
      <acc value="0.0254805938" flag="0"/>
      <vel value="0.0104013281" flag="0"/>
      <psa03 value="0.0410093500" flag="0"/>
      <psa10 value="0.0094312267" flag="0"/>
      <psa30 value="0.0005504527" flag="0"/>
    </comp>
  </station>
  <station code="SOH" name="SOH" netid="HT" insttype="120P," lat="40.8217" lon="23.3539">
    <comp name="--.HHE">
      <acc value="0.0412015001" flag="0"/>
      <vel value="0.0211646410" flag="0"/>
      <psa03 value="0.1995869279" flag="0"/>
      <psa10 value="0.0220530761" flag="0"/>
      <psa30 value="0.0017142677" flag="0"/>
    </comp>
    <comp name="--.HHZ">
      <acc value="0.0224756450" flag="0"/>
      <vel value="0.0147551072" flag="0"/>
      <psa03 value="0.1026108737" flag="0"/>
      <psa10 value="0.0110712836" flag="0"/>
      <psa30 value="0.0011031134" flag="0"/>
    </comp>
    <comp name="--.HHN">
      <acc value="0.0299676593" flag="0"/>
      <vel value="0.0257449554" flag="0"/>
      <psa03 value="0.1400124318" flag="0"/>
      <psa10 value="0.0126539756" flag="0"/>
      <psa30 value="0.0025086265" flag="0"/>
    </comp>
  </station>
  <station code="THAS" name="THAS" netid="HT" insttype="100" lat="40.6064" lon="24.7194">
    <comp name="--.HHN">
      <acc value="0.1976058078" flag="0"/>
      <vel value="0.0669067527" flag="0"/>
      <psa03 value="0.2822022196" flag="0"/>
      <psa10 value="0.0594136112" flag="0"/>
      <psa30 value="0.0025903661" flag="0"/>
    </comp>
    <comp name="--.HHZ">
      <acc value="0.2519174251" flag="0"/>
      <vel value="0.0923565055" flag="0"/>
      <psa03 value="0.2006569769" flag="0"/>
      <psa10 value="0.0514081827" flag="0"/>
      <psa30 value="0.0042024626" flag="0"/>
    </comp>
    <comp name="--.HHE">
      <acc value="0.2536419235" flag="0"/>
      <vel value="0.1103902031" flag="0"/>
      <psa03 value="0.3184048207" flag="0"/>
      <psa10 value="0.0799190690" flag="0"/>
      <psa30 value="0.0069397554" flag="0"/>
    </comp>
  </station>
  <station code="XOR" name="XOR" netid="HT" insttype="Compact," lat="39.366" lon="23.1918">
    <comp name="--.HHE">
      <acc value="0.0140575777" flag="0"/>
      <vel value="0.0097859396" flag="0"/>
      <psa03 value="0.0320549646" flag="0"/>
      <psa10 value="0.0092966393" flag="0"/>
      <psa30 value="0.0010083573" flag="0"/>
    </comp>
    <comp name="--.HHN">
      <acc value="0.0157383810" flag="0"/>
      <vel value="0.0086360440" flag="0"/>
      <psa03 value="0.0253527438" flag="0"/>
      <psa10 value="0.0097306115" flag="0"/>
      <psa30 value="0.0014610630" flag="0"/>
    </comp>
    <comp name="--.HHZ">
      <acc value="0.0102834663" flag="0"/>
      <vel value="0.0080164981" flag="0"/>
      <psa03 value="0.0222889185" flag="0"/>
      <psa10 value="0.0082430722" flag="0"/>
      <psa30 value="0.0009060859" flag="0"/>
    </comp>
  </station>
</stationlist>
