<stationlist created="1778069876">
	<station code="MMAA" name="MMAA" netid="EG" source="EUROSEISTEST Strong Motion Network" insttype="" lat="40.630855" lon="22.943725">
		<comp name="--.EN1" depth="0.0">
			<acc value="0.0699491651739151" flag="0"/>
			<vel value="0.0432574245028922" flag="0"/>
			<psa03 value="0.190058548779593" flag="0"/>
			<psa10 value="0.0752159951906081" flag="0"/>
			<psa30 value="0.00274992966934377" flag="0"/>
		</comp>
		<comp name="--.EN2" depth="0.0">
			<acc value="0.0614773376083434" flag="0"/>
			<vel value="0.0337807889395643" flag="0"/>
			<psa03 value="0.248300427851478" flag="0"/>
			<psa10 value="0.0327240528078874" flag="0"/>
			<psa30 value="0.00171543530583456" flag="0"/>
		</comp>
		<comp name="--.EN3" depth="0.0">
			<acc value="0.0503429303531073" flag="0"/>
			<vel value="0.0213431797056461" flag="0"/>
			<psa03 value="0.119032072790806" flag="0"/>
			<psa10 value="0.0239338492500363" flag="0"/>
			<psa30 value="0.00151282469637768" flag="0"/>
		</comp>
	</station>
	<station code="STC" name="STC" netid="EG" source="EUROSEISTEST Strong Motion Network" insttype="" lat="40.64865" lon="23.304856">
		<comp name="--.EN1" depth="0.0">
			<acc value="0.0831111080991065" flag="0"/>
			<vel value="0.0457794171841362" flag="0"/>
			<psa03 value="0.354291470070984" flag="0"/>
			<psa10 value="0.0547995151989037" flag="0"/>
			<psa30 value="0.00536266566693519" flag="0"/>
		</comp>
		<comp name="--.EN2" depth="0.0">
			<acc value="0.106866849056482" flag="0"/>
			<vel value="0.0776207817659616" flag="0"/>
			<psa03 value="0.171281763242821" flag="0"/>
			<psa10 value="0.0653950846033121" flag="0"/>
			<psa30 value="0.00839739211934163" flag="0"/>
		</comp>
		<comp name="--.EN3" depth="0.0">
			<acc value="0.0425320765833527" flag="0"/>
			<vel value="0.0278083931155841" flag="0"/>
			<psa03 value="0.133685449754958" flag="0"/>
			<psa10 value="0.0331382039933608" flag="0"/>
			<psa30 value="0.00750275868760199" flag="0"/>
		</comp>
	</station>
	<station code="LMN1" name="LMN1" netid="HI" source="ITSAK Strong Motion Network" insttype="" lat="39.875" lon="25.0588">
		<comp name="--.HNE" depth="0.0">
			<acc value="0.152396826392234" flag="0"/>
			<vel value="0.0537786021574996" flag="0"/>
			<psa03 value="0.416102521549927" flag="0"/>
			<psa10 value="0.0125636116184107" flag="0"/>
			<psa30 value="0.00127515288862074" flag="0"/>
		</comp>
		<comp name="--.HNN" depth="0.0">
			<acc value="0.1230123384468" flag="0"/>
			<vel value="0.0400436943989273" flag="0"/>
			<psa03 value="0.245411003301221" flag="0"/>
			<psa10 value="0.00801735600392812" flag="0"/>
			<psa30 value="0.00108678819875782" flag="0"/>
		</comp>
		<comp name="--.HNZ" depth="0.0">
			<acc value="0.12402204682631" flag="0"/>
			<vel value="0.0239311560659666" flag="0"/>
			<psa03 value="0.0988355344197623" flag="0"/>
			<psa10 value="0.00533148134063326" flag="0"/>
			<psa30 value="0.000806254563261257" flag="0"/>
		</comp>
	</station>
	<station code="SFL1" name="SFL1" netid="HI" source="ITSAK Strong Motion Network" insttype="" lat="41.189954" lon="26.304374">
		<comp name="--.HNE" depth="0.0">
			<acc value="0.0446624289056895" flag="0"/>
			<vel value="0.0240868476108531" flag="0"/>
			<psa03 value="0.0878289515916675" flag="0"/>
			<psa10 value="0.0285218144529497" flag="0"/>
			<psa30 value="0.00148991548038845" flag="0"/>
		</comp>
		<comp name="--.HNN" depth="0.0">
			<acc value="0.0333548913959518" flag="0"/>
			<vel value="0.0276005488575868" flag="0"/>
			<psa03 value="0.0846075127151519" flag="0"/>
			<psa10 value="0.0374290929465152" flag="0"/>
			<psa30 value="0.00169170283223685" flag="0"/>
		</comp>
		<comp name="--.HNZ" depth="0.0">
			<acc value="0.0159580509739635" flag="0"/>
			<vel value="0.00940118343762841" flag="0"/>
			<psa03 value="0.0514087954043943" flag="0"/>
			<psa10 value="0.00779185528257203" flag="0"/>
			<psa30 value="0.000620574405795429" flag="0"/>
		</comp>
	</station>
	<station code="SKO1" name="SKO1" netid="HI" source="ITSAK Strong Motion Network" insttype="" lat="39.123383" lon="23.728705">
		<comp name="--.HNE" depth="0.0">
			<acc value="0.0151679992384317" flag="0"/>
			<vel value="0.00598061257227413" flag="0"/>
			<psa03 value="0.0345857257159241" flag="0"/>
			<psa10 value="0.00701468315361265" flag="0"/>
			<psa30 value="0.000943165715513168" flag="0"/>
		</comp>
		<comp name="--.HNN" depth="0.0">
			<acc value="0.00795352094055983" flag="0"/>
			<vel value="0.00457921549857533" flag="0"/>
			<psa03 value="0.023221205234883" flag="0"/>
			<psa10 value="0.00695830797327362" flag="0"/>
			<psa30 value="0.00119819629323732" flag="0"/>
		</comp>
		<comp name="--.HNZ" depth="0.0">
			<acc value="0.0091480211787306" flag="0"/>
			<vel value="0.00425677059644343" flag="0"/>
			<psa03 value="0.0188812111929107" flag="0"/>
			<psa10 value="0.00467913996813886" flag="0"/>
			<psa30 value="0.00129349719333424" flag="0"/>
		</comp>
	</station>
	<station code="SKY1" name="SKY1" netid="HI" source="ITSAK Strong Motion Network" insttype="" lat="38.904483" lon="24.564572">
		<comp name="--.HNE" depth="0.0">
			<acc value="0.0272696391079037" flag="0"/>
			<vel value="0.014701899913445" flag="0"/>
			<psa03 value="0.0990592454528537" flag="0"/>
			<psa10 value="0.022719197676626" flag="0"/>
			<psa30 value="0.00156284527717623" flag="0"/>
		</comp>
		<comp name="--.HNN" depth="0.0">
			<acc value="0.0202229508098125" flag="0"/>
			<vel value="0.0160138441464361" flag="0"/>
			<psa03 value="0.0565094069588772" flag="0"/>
			<psa10 value="0.0195581607790451" flag="0"/>
			<psa30 value="0.00204471884245502" flag="0"/>
		</comp>
		<comp name="--.HNZ" depth="0.0">
			<acc value="0.0139685644685765" flag="0"/>
			<vel value="0.00694746544159068" flag="0"/>
			<psa03 value="0.0443395267587073" flag="0"/>
			<psa10 value="0.00799722201094989" flag="0"/>
			<psa30 value="0.00124830756464978" flag="0"/>
		</comp>
	</station>
	<station code="THS1" name="THS1" netid="HI" source="ITSAK Strong Motion Network" insttype="" lat="40.738476" lon="24.575145">
		<comp name="--.HNE" depth="0.0">
			<acc value="0.199401365617221" flag="0"/>
			<vel value="0.0563091108129695" flag="0"/>
			<psa03 value="0.309974007451387" flag="0"/>
			<psa10 value="0.0480034660586776" flag="0"/>
			<psa30 value="0.0026277097946911" flag="0"/>
		</comp>
		<comp name="--.HNN" depth="0.0">
			<acc value="0.238758165313967" flag="0"/>
			<vel value="0.0870290013190743" flag="0"/>
			<psa03 value="0.476638727104449" flag="0"/>
			<psa10 value="0.0519618090781961" flag="0"/>
			<psa30 value="0.0027028767018098" flag="0"/>
		</comp>
		<comp name="--.HNZ" depth="0.0">
			<acc value="0.107909865253044" flag="0"/>
			<vel value="0.042680562102327" flag="0"/>
			<psa03 value="0.235120295779018" flag="0"/>
			<psa10 value="0.0286063772234582" flag="0"/>
			<psa30 value="0.00204561368658738" flag="0"/>
		</comp>
	</station>
	<station code="EFSA" name="EFSA" netid="HL" source="National Observatory of Athens Seismic Network" insttype="" lat="39.54015" lon="24.98864">
		<comp name="00.HNE" depth="0.0">
			<acc value="0.0354171711555862" flag="0"/>
			<vel value="0.0309627653784653" flag="0"/>
			<psa03 value="0.0689029981921385" flag="0"/>
			<psa10 value="0.04605046873979" flag="0"/>
			<psa30 value="0.00445721862331223" flag="0"/>
		</comp>
		<comp name="00.HNN" depth="0.0">
			<acc value="0.0257207704595895" flag="0"/>
			<vel value="0.0132842806200541" flag="0"/>
			<psa03 value="0.0574937355044792" flag="0"/>
			<psa10 value="0.0135501772743436" flag="0"/>
			<psa30 value="0.00134987237367326" flag="0"/>
		</comp>
		<comp name="00.HNZ" depth="0.0">
			<acc value="0.0184625879342019" flag="0"/>
			<vel value="0.00939630801800903" flag="0"/>
			<psa03 value="0.0517667330573404" flag="0"/>
			<psa10 value="0.0139367499395255" flag="0"/>
			<psa30 value="0.00160669263966214" flag="0"/>
		</comp>
	</station>
	<station code="KYMI" name="KYMI" netid="HL" source="National Observatory of Athens Seismic Network" insttype="" lat="38.633147" lon="24.100138">
		<comp name="--.HNE" depth="1.0">
			<acc value="0.00657060154469951" flag="0"/>
			<vel value="0.00405903633437887" flag="0"/>
			<psa03 value="0.0187469845730559" flag="0"/>
			<psa10 value="0.00457847000324775" flag="0"/>
			<psa30 value="0.000984775967668161" flag="0"/>
		</comp>
		<comp name="--.HNN" depth="1.0">
			<acc value="0.00483946215161246" flag="0"/>
			<vel value="0.00333251536878212" flag="0"/>
			<psa03 value="0.0227290409620821" flag="0"/>
			<psa10 value="0.00382143186726659" flag="0"/>
			<psa30 value="0.00082817824450421" flag="0"/>
		</comp>
		<comp name="--.HNZ" depth="1.0">
			<acc value="0.00263174719100765" flag="0"/>
			<vel value="0.00243624590185265" flag="0"/>
			<psa03 value="0.00899318353027262" flag="0"/>
			<psa10 value="0.00302009894673334" flag="0"/>
			<psa30 value="0.000957483221631015" flag="0"/>
		</comp>
	</station>
	<station code="LIA" name="LIA" netid="HL" source="National Observatory of Athens Seismic Network" insttype="" lat="39.89725" lon="25.18055">
		<comp name="00.HNE" depth="0.0">
			<acc value="0.0487564057528807" flag="0"/>
			<vel value="0.0157101808070373" flag="0"/>
			<psa03 value="0.0889475067571243" flag="0"/>
			<psa10 value="0.00849251823821416" flag="0"/>
			<psa30 value="0.000983433701469613" flag="0"/>
		</comp>
		<comp name="00.HNN" depth="0.0">
			<acc value="0.088970691891641" flag="0"/>
			<vel value="0.0236623963678834" flag="0"/>
			<psa03 value="0.137224347698239" flag="0"/>
			<psa10 value="0.0127126031664496" flag="0"/>
			<psa30 value="0.00104875732313229" flag="0"/>
		</comp>
		<comp name="00.HNZ" depth="0.0">
			<acc value="0.038993968433491" flag="0"/>
			<vel value="0.0133803981224344" flag="0"/>
			<psa03 value="0.0803122608797978" flag="0"/>
			<psa10 value="0.0066120032940482" flag="0"/>
			<psa30 value="0.000764644311106264" flag="0"/>
		</comp>
	</station>
	<station code="PRK" name="PRK" netid="HL" source="National Observatory of Athens Seismic Network" insttype="" lat="39.24565" lon="26.26499">
		<comp name="--.HNE" depth="0.0">
			<acc value="0.00403823723395492" flag="0"/>
			<vel value="0.00355278425520635" flag="0"/>
			<psa03 value="0.0177179138208356" flag="0"/>
			<psa10 value="0.00601603710189282" flag="0"/>
			<psa30 value="0.000711401085230521" flag="0"/>
		</comp>
		<comp name="--.HNN" depth="0.0">
			<acc value="0.00441672963792558" flag="0"/>
			<vel value="0.0061689656397034" flag="0"/>
			<psa03 value="0.0163309054156692" flag="0"/>
			<psa10 value="0.00828715150983629" flag="0"/>
			<psa30 value="0.00117358807959727" flag="0"/>
		</comp>
		<comp name="--.HNZ" depth="0.0">
			<acc value="0.00646209794088792" flag="0"/>
			<vel value="0.00378075583573883" flag="0"/>
			<psa03 value="0.0231317208216465" flag="0"/>
			<psa10 value="0.00529121335467682" flag="0"/>
			<psa30 value="0.000626390892655804" flag="0"/>
		</comp>
	</station>
	<station code="SMTH" name="SMTH" netid="HL" source="National Observatory of Athens Seismic Network" insttype="" lat="40.47094" lon="25.53045">
		<comp name="00.HNE" depth="0.0">
			<acc value="0.0303342260764566" flag="0"/>
			<vel value="0.00863276412084777" flag="0"/>
			<psa03 value="0.03753871135273" flag="0"/>
			<psa10 value="0.00484021191196464" flag="0"/>
			<psa30 value="0.000849654503680981" flag="0"/>
		</comp>
		<comp name="00.HNN" depth="0.0">
			<acc value="0.0257829422143395" flag="0"/>
			<vel value="0.00894861189010797" flag="0"/>
			<psa03 value="0.0385677821049503" flag="0"/>
			<psa10 value="0.00825896391966678" flag="0"/>
			<psa30 value="0.00106933873817669" flag="0"/>
		</comp>
		<comp name="00.HNZ" depth="0.0">
			<acc value="0.0236744404892941" flag="0"/>
			<vel value="0.00682498607823967" flag="0"/>
			<psa03 value="0.029798309607769" flag="0"/>
			<psa10 value="0.00396236981811415" flag="0"/>
			<psa30 value="0.000731535078208743" flag="0"/>
		</comp>
	</station>
</stationlist>
