<?xml version="1.0" encoding="UTF-8" standalone="yes"?>
<!DOCTYPE earthquake SYSTEM "stationlist.dtd">
<stationlist created="" xmlns="ch.ethz.sed.shakemap.usgs.xml">
  <station code="KARS" name="KARS" netid="KO" insttype="CMG-3T" commtype="DIG" lat="40.6152" lon="43.0937">
    <comp name="--.HHZ">
      <acc value="0.0420092534" flag="0"/>
      <vel value="0.0263337638" flag="0"/>
      <psa03 value="0.0757312461" flag="0"/>
      <psa10 value="0.0509011000" flag="0"/>
      <psa30 value="0.0038484471" flag="0"/>
    </comp>
    <comp name="--.HHN">
      <acc value="0.0526048172" flag="0"/>
      <vel value="0.0462703244" flag="0"/>
      <psa03 value="0.0790601479" flag="0"/>
      <psa10 value="0.0552591974" flag="0"/>
      <psa30 value="0.0038918116" flag="0"/>
    </comp>
    <comp name="--.HHE">
      <acc value="0.0849662755" flag="0"/>
      <vel value="0.0596275962" flag="0"/>
      <psa03 value="0.1820451723" flag="0"/>
      <psa10 value="0.0769000579" flag="0"/>
      <psa30 value="0.0046750259" flag="0"/>
    </comp>
  </station>
  <station code="SENK" name="SENK" netid="KO" insttype="CMG-3T" commtype="DIG" lat="40.5614" lon="42.3505">
    <comp name="--.HHE">
      <acc value="0.0333902434" flag="0"/>
      <vel value="0.0149280982" flag="0"/>
      <psa03 value="0.0600884190" flag="0"/>
      <psa10 value="0.0168542044" flag="0"/>
      <psa30 value="0.0011849572" flag="0"/>
    </comp>
    <comp name="--.HHN">
      <acc value="0.0369275296" flag="0"/>
      <vel value="0.0123153610" flag="0"/>
      <psa03 value="0.0711875369" flag="0"/>
      <psa10 value="0.0236031049" flag="0"/>
      <psa30 value="0.0013794829" flag="0"/>
    </comp>
    <comp name="--.HHZ">
      <acc value="0.0225490319" flag="0"/>
      <vel value="0.0091883288" flag="0"/>
      <psa03 value="0.0538691760" flag="0"/>
      <psa10 value="0.0168778671" flag="0"/>
      <psa30 value="0.0006961510" flag="0"/>
    </comp>
  </station>
</stationlist>
