<stationlist created="1777386303">
	<station code="HOPA" name="HOPA" netid="KO" source="Bogazici University Kandilli Observatory And Earthquake Research Institute (KOERI)" insttype="" lat="41.3867" lon="41.4458">
		<comp name="--.HNE" depth="0.0">
			<acc value="0.034962604273917" flag="0"/>
			<vel value="0.00969474312527228" flag="0"/>
			<psa03 value="0.031441739110908" flag="0"/>
			<psa10 value="0.0014995944970258" flag="0"/>
			<psa30 value="0.00027437320191974" flag="0"/>
		</comp>
		<comp name="--.HNN" depth="0.0">
			<acc value="0.0256686704059381" flag="0"/>
			<vel value="0.0070457073453937" flag="0"/>
			<psa03 value="0.0245354638957359" flag="0"/>
			<psa10 value="0.00184649130536187" flag="0"/>
			<psa30 value="0.000578852200284076" flag="0"/>
		</comp>
		<comp name="--.HNZ" depth="0.0">
			<acc value="0.0125517179668661" flag="0"/>
			<vel value="0.00204213815846769" flag="0"/>
			<psa03 value="0.00581688534010599" flag="0"/>
			<psa10 value="0.00167819679730166" flag="0"/>
			<psa30 value="0.000472778090061525" flag="0"/>
		</comp>
	</station>
</stationlist>
