<?xml version="1.0" encoding="UTF-8" standalone="yes"?>
<!DOCTYPE earthquake SYSTEM "stationlist.dtd">
<stationlist created="" xmlns="ch.ethz.sed.shakemap.usgs.xml">
  <station code="SNT1" name="SNT1" netid="HA" insttype="30" lat="36.4159" lon="25.4282">
    <comp name="--.HHN">
      <acc value="0.0645727241" flag="0"/>
      <vel value="0.0211985889" flag="0"/>
      <psa03 value="0.0743910330" flag="0"/>
      <psa10 value="0.0193525339" flag="0"/>
      <psa30 value="0.0025435418" flag="0"/>
    </comp>
    <comp name="--.HHE">
      <acc value="0.0628388448" flag="0"/>
      <vel value="0.0219724964" flag="0"/>
      <psa03 value="0.1123174317" flag="0"/>
      <psa10 value="0.0217932277" flag="0"/>
      <psa30 value="0.0019822214" flag="0"/>
    </comp>
    <comp name="--.HHZ">
      <acc value="0.0539222131" flag="0"/>
      <vel value="0.0109302773" flag="0"/>
      <psa03 value="0.0548220029" flag="0"/>
      <psa10 value="0.0111983525" flag="0"/>
      <psa30 value="0.0011367670" flag="0"/>
    </comp>
  </station>
  <station code="CMBO" name="CMBO" netid="HT" insttype="120P," lat="36.4709" lon="25.4056">
    <comp name="--.HHE">
      <acc value="0.1335102759" flag="0"/>
      <vel value="0.0404573541" flag="0"/>
      <psa03 value="0.1518721480" flag="0"/>
      <psa10 value="0.0202218633" flag="0"/>
      <psa30 value="0.0020114631" flag="0"/>
    </comp>
    <comp name="--.HHN">
      <acc value="0.1708304070" flag="0"/>
      <vel value="0.0519678432" flag="0"/>
      <psa03 value="0.1857904568" flag="0"/>
      <psa10 value="0.0420971965" flag="0"/>
      <psa30 value="0.0025378945" flag="0"/>
    </comp>
    <comp name="--.HHZ">
      <acc value="0.1222989721" flag="0"/>
      <vel value="0.0429859559" flag="0"/>
      <psa03 value="0.2607313805" flag="0"/>
      <psa10 value="0.0153614225" flag="0"/>
      <psa30 value="0.0019176875" flag="0"/>
    </comp>
  </station>
</stationlist>
