<stationlist xmlns:esm="https://esm-db.eu/esmws/shakemap/1/" created="1783994042">
	<station code="IMMV" name="IMMV" netid="GE" source="GEOFON" insttype="" lat="35.4606" lon="23.9811" esm:processing="manual (Paolucci et al 2011)" esm:quality="good">
		<comp name="--.HNE" depth="0.0">
			<acc value="0.00300584138059869" flag="0"/>
			<vel value="0.00295530704030792" flag="0"/>
			<psa03 value="0.00751669071186965" flag="0"/>
			<psa10 value="0.00852875942557496" flag="0"/>
			<psa30 value="0.000976722370476872" flag="0"/>
		</comp>
		<comp name="--.HNN" depth="0.0">
			<acc value="0.00321573586845946" flag="0"/>
			<vel value="0.00332384054448616" flag="0"/>
			<psa03 value="0.0107828717950035" flag="0"/>
			<psa10 value="0.0063945561698834" flag="0"/>
			<psa30 value="0.000706032020436328" flag="0"/>
		</comp>
		<comp name="--.HNZ" depth="0.0">
			<acc value="0.00235481564474748" flag="0"/>
			<vel value="0.00185173881862323" flag="0"/>
			<psa03 value="0.00711401085230521" flag="0"/>
			<psa10 value="0.00306036693268979" flag="0"/>
			<psa30 value="0.000393731418240791" flag="0"/>
		</comp>
	</station>
	<station code="NPS1" name="NPS1" netid="HI" source="ITSAK Strong Motion Network" insttype="" lat="36.51263" lon="23.06248" esm:processing="manual (Paolucci et al 2011)" esm:quality="good">
		<comp name="--.HNE" depth="0.0">
			<acc value="0.0291023496376494" flag="0"/>
			<vel value="0.0191041107818052" flag="0"/>
			<psa03 value="0.0634891911913276" flag="0"/>
			<psa10 value="0.0152937810662577" flag="0"/>
			<psa30 value="0.00127873226515021" flag="0"/>
		</comp>
		<comp name="--.HNN" depth="0.0">
			<acc value="0.0223981275021939" flag="0"/>
			<vel value="0.0164316532543794" flag="0"/>
			<psa03 value="0.0590149705295005" flag="0"/>
			<psa10 value="0.0155917641623353" flag="0"/>
			<psa30 value="0.00101117386957294" flag="0"/>
		</comp>
		<comp name="--.HNZ" depth="0.0">
			<acc value="0.0131206381199136" flag="0"/>
			<vel value="0.00750853047126979" flag="0"/>
			<psa03 value="0.0446974644116535" flag="0"/>
			<psa10 value="0.00494088187685575" flag="0"/>
			<psa30 value="0.000749879382922234" flag="0"/>
		</comp>
	</station>
	<station code="PYL1" name="PYL1" netid="HI" source="ITSAK Strong Motion Network" insttype="" lat="36.914188" lon="21.695161" esm:processing="manual (Paolucci et al 2011)" esm:quality="best">
		<comp name="--.HNE" depth="0.0">
			<acc value="0.02850016136977" flag="0"/>
			<vel value="0.0173208790030106" flag="0"/>
			<psa03 value="0.0652341372494402" flag="0"/>
			<psa10 value="0.0273218284714476" flag="0"/>
			<psa30 value="0.00108186655602981" flag="0"/>
		</comp>
		<comp name="--.HNN" depth="0.0">
			<acc value="0.0489954966903703" flag="0"/>
			<vel value="0.0186574788474218" flag="0"/>
			<psa03 value="0.0670238255141711" flag="0"/>
			<psa10 value="0.019876277868101" flag="0"/>
			<psa30 value="0.000957930643697198" flag="0"/>
		</comp>
		<comp name="--.HNZ" depth="0.0">
			<acc value="0.0412627481727277" flag="0"/>
			<vel value="0.0127089525553053" flag="0"/>
			<psa03 value="0.0263979019047803" flag="0"/>
			<psa10 value="0.0137072224195737" flag="0"/>
			<psa30 value="0.00100669964891111" flag="0"/>
		</comp>
	</station>
	<station code="ANKY" name="ANKY" netid="HL" source="National Observatory of Athens Seismic Network" insttype="" lat="35.86704" lon="23.30117" esm:processing="manual (Paolucci et al 2011)" esm:quality="bad">
		<comp name="00.HNE" depth="0.0">
			<acc value="0.0122164521962704" flag="0"/>
			<vel value="0.0117632619314775" flag="0"/>
			<psa03 value="0.025189862326087" flag="0"/>
			<psa10 value="0.0257392966233594" flag="0"/>
			<psa30 value="0.00141430115120357" flag="0"/>
		</comp>
		<comp name="00.HNN" depth="0.0">
			<acc value="0.00890160756928157" flag="0"/>
			<vel value="0.0108534754102956" flag="0"/>
			<psa03 value="0.0245634714334312" flag="0"/>
			<psa10 value="0.0158051844879045" flag="0"/>
			<psa30 value="0.00171094198108271" flag="0"/>
		</comp>
		<comp name="00.HNZ" depth="0.0">
			<acc value="0.00480988866156349" flag="0"/>
			<vel value="0.00407056444530237" flag="0"/>
			<psa03 value="0.016465132035524" flag="0"/>
			<psa10 value="0.00570194681143255" flag="0"/>
			<psa30 value="0.000660842391751874" flag="0"/>
		</comp>
	</station>
	<station code="IMMV" name="IMMV" netid="HL" source="National Observatory of Athens Seismic Network" insttype="" lat="35.4606" lon="23.9811" esm:processing="manual (Paolucci et al 2011)" esm:quality="good">
		<comp name="--.HNE" depth="0.0">
			<acc value="0.00294485526382339" flag="0"/>
			<vel value="0.00289534766576852" flag="0"/>
			<psa03 value="0.00738246409201484" flag="0"/>
			<psa10 value="0.00835560708596225" flag="0"/>
			<psa30 value="0.000957035799564833" flag="0"/>
		</comp>
		<comp name="--.HNN" depth="0.0">
			<acc value="0.00315050741721932" flag="0"/>
			<vel value="0.00325639847531627" flag="0"/>
			<psa03 value="0.0105591607619121" flag="0"/>
			<psa10 value="0.00626167181622713" flag="0"/>
			<psa30 value="0.000691714514318481" flag="0"/>
		</comp>
		<comp name="--.HNZ" depth="0.0">
			<acc value="0.00230697775154308" flag="0"/>
			<vel value="0.00181415011151331" flag="0"/>
			<psa03 value="0.00697978423245039" flag="0"/>
			<psa10 value="0.00299593815515948" flag="0"/>
			<psa30 value="0.000385677821049502" flag="0"/>
		</comp>
	</station>
	<station code="ITM" name="ITM" netid="HL" source="National Observatory of Athens Seismic Network" insttype="" lat="37.17872" lon="21.92522" esm:processing="manual (Paolucci et al 2011)" esm:quality="good">
		<comp name="--.HNE" depth="0.0">
			<acc value="0.0215965668052532" flag="0"/>
			<vel value="0.0095394912332554" flag="0"/>
			<psa03 value="0.0436605042733001" flag="0"/>
			<psa10 value="0.0077677470751216" flag="0"/>
			<psa30 value="0.000772265585888315" flag="0"/>
		</comp>
		<comp name="--.HNN" depth="0.0">
			<acc value="0.026781967300047" flag="0"/>
			<vel value="0.0139297655364131" flag="0"/>
			<psa03 value="0.0564179665800676" flag="0"/>
			<psa10 value="0.00722645918620546" flag="0"/>
			<psa30 value="0.000608798611170161" flag="0"/>
		</comp>
		<comp name="--.HNZ" depth="0.0">
			<acc value="0.0175290189214032" flag="0"/>
			<vel value="0.00662151421664826" flag="0"/>
			<psa03 value="0.0252913420939569" flag="0"/>
			<psa10 value="0.00597633684048534" flag="0"/>
			<psa30 value="0.000622657498003398" flag="0"/>
		</comp>
	</station>
	<station code="MNVA" name="MNVA" netid="HL" source="National Observatory of Athens Seismic Network" insttype="" lat="36.68709" lon="23.03734" esm:processing="manual (Paolucci et al 2011)" esm:quality="bad">
		<comp name="00.HNE" depth="0.0">
			<acc value="0.00539400491928189" flag="0"/>
			<vel value="0.00440847039721709" flag="0"/>
			<psa03 value="0.0102907075222025" flag="0"/>
			<psa10 value="0.00885493011182216" flag="0"/>
			<psa30 value="0.000430420027667774" flag="0"/>
		</comp>
		<comp name="00.HNN" depth="0.0">
			<acc value="0.00489245532330694" flag="0"/>
			<vel value="0.00442999814132296" flag="0"/>
			<psa03 value="0.0100222542824929" flag="0"/>
			<psa10 value="0.00487242630072979" flag="0"/>
			<psa30 value="0.000424603540807399" flag="0"/>
		</comp>
		<comp name="00.HNZ" depth="0.0">
			<acc value="0.00439946473327311" flag="0"/>
			<vel value="0.00476315366230654" flag="0"/>
			<psa03 value="0.0106486451751487" flag="0"/>
			<psa10 value="0.00488047989792108" flag="0"/>
			<psa30 value="0.000579858997772802" flag="0"/>
		</comp>
	</station>
	<station code="ARS1" name="ARS1" netid="HI" source="ITSAK Strong Motion Network" insttype="" lat="37.6349" lon="22.7293" esm:processing="discarded" esm:quality="bad">
		<comp name="--.HNE" depth="0.0">
			<acc value="0" flag="1"/>
			<vel value="0" flag="1"/>
			<psa03 value="0" flag="1"/>
			<psa10 value="0" flag="1"/>
			<psa30 value="0" flag="1"/>
		</comp>
		<comp name="--.HNN" depth="0.0">
			<acc value="0" flag="1"/>
			<vel value="0" flag="1"/>
			<psa03 value="0" flag="1"/>
			<psa10 value="0" flag="1"/>
			<psa30 value="0" flag="1"/>
		</comp>
		<comp name="--.HNZ" depth="0.0">
			<acc value="0" flag="1"/>
			<vel value="0" flag="1"/>
			<psa03 value="0" flag="1"/>
			<psa10 value="0" flag="1"/>
			<psa30 value="0" flag="1"/>
		</comp>
	</station>
	<station code="CH01" name="CH01" netid="HI" source="ITSAK Strong Motion Network" insttype="" lat="35.517" lon="24.0208" esm:processing="discarded" esm:quality="good">
		<comp name="--.HNE" depth="0.0">
			<acc value="0" flag="1"/>
			<vel value="0" flag="1"/>
			<psa03 value="0" flag="1"/>
			<psa10 value="0" flag="1"/>
			<psa30 value="0" flag="1"/>
		</comp>
		<comp name="--.HNN" depth="0.0">
			<acc value="0" flag="1"/>
			<vel value="0" flag="1"/>
			<psa03 value="0" flag="1"/>
			<psa10 value="0" flag="1"/>
			<psa30 value="0" flag="1"/>
		</comp>
		<comp name="--.HNZ" depth="0.0">
			<acc value="0" flag="1"/>
			<vel value="0" flag="1"/>
			<psa03 value="0" flag="1"/>
			<psa10 value="0" flag="1"/>
			<psa30 value="0" flag="1"/>
		</comp>
	</station>
	<station code="KLV1" name="KLV1" netid="HI" source="ITSAK Strong Motion Network" insttype="" lat="38.03256" lon="22.10797" esm:processing="discarded" esm:quality="bad">
		<comp name="--.HNE" depth="0.0">
			<acc value="0" flag="1"/>
			<vel value="0" flag="1"/>
			<psa03 value="0" flag="1"/>
			<psa10 value="0" flag="1"/>
			<psa30 value="0" flag="1"/>
		</comp>
		<comp name="--.HNN" depth="0.0">
			<acc value="0" flag="1"/>
			<vel value="0" flag="1"/>
			<psa03 value="0" flag="1"/>
			<psa10 value="0" flag="1"/>
			<psa30 value="0" flag="1"/>
		</comp>
		<comp name="--.HNZ" depth="0.0">
			<acc value="0" flag="1"/>
			<vel value="0" flag="1"/>
			<psa03 value="0" flag="1"/>
			<psa10 value="0" flag="1"/>
			<psa30 value="0" flag="1"/>
		</comp>
	</station>
	<station code="KRI1" name="KRI1" netid="HI" source="ITSAK Strong Motion Network" insttype="" lat="37.6621" lon="20.8172" esm:processing="discarded" esm:quality="bad">
		<comp name="--.HNE" depth="0.0">
			<acc value="0" flag="1"/>
			<vel value="0" flag="1"/>
			<psa03 value="0" flag="1"/>
			<psa10 value="0" flag="1"/>
			<psa30 value="0" flag="1"/>
		</comp>
		<comp name="--.HNN" depth="0.0">
			<acc value="0" flag="1"/>
			<vel value="0" flag="1"/>
			<psa03 value="0" flag="1"/>
			<psa10 value="0" flag="1"/>
			<psa30 value="0" flag="1"/>
		</comp>
		<comp name="--.HNZ" depth="0.0">
			<acc value="0" flag="1"/>
			<vel value="0" flag="1"/>
			<psa03 value="0" flag="1"/>
			<psa10 value="0" flag="1"/>
			<psa30 value="0" flag="1"/>
		</comp>
	</station>
	<station code="YDRA" name="YDRA" netid="HL" source="National Observatory of Athens Seismic Network" insttype="" lat="37.34923" lon="23.46525" esm:processing="discarded" esm:quality="good">
		<comp name="00.HNE" depth="0.0">
			<acc value="0" flag="1"/>
			<vel value="0" flag="1"/>
			<psa03 value="0" flag="1"/>
			<psa10 value="0" flag="1"/>
			<psa30 value="0" flag="1"/>
		</comp>
		<comp name="00.HNN" depth="0.0">
			<acc value="0" flag="1"/>
			<vel value="0" flag="1"/>
			<psa03 value="0" flag="1"/>
			<psa10 value="0" flag="1"/>
			<psa30 value="0" flag="1"/>
		</comp>
		<comp name="00.HNZ" depth="0.0">
			<acc value="0" flag="1"/>
			<vel value="0" flag="1"/>
			<psa03 value="0" flag="1"/>
			<psa10 value="0" flag="1"/>
			<psa30 value="0" flag="1"/>
		</comp>
	</station>
</stationlist>
