<?xml version="1.0" encoding="UTF-8" standalone="yes"?>
<!DOCTYPE earthquake SYSTEM "stationlist.dtd">
<stationlist created="" xmlns="ch.ethz.sed.shakemap.usgs.xml">
  <station code="GAZ" name="GAZ" netid="KO" insttype="CMG-3T" lat="37.1721" lon="37.2096">
    <comp name="--.HHN">
      <acc value="0.0139040371" flag="0"/>
      <vel value="0.0081459658" flag="0"/>
      <psa03 value="0.0351843232" flag="0"/>
      <psa10 value="0.0129139768" flag="0"/>
      <psa30 value="0.0010809910" flag="0"/>
    </comp>
    <comp name="--.HHZ">
      <acc value="0.0104646522" flag="0"/>
      <vel value="0.0055941296" flag="0"/>
      <psa03 value="0.0254247368" flag="0"/>
      <psa10 value="0.0066076852" flag="0"/>
      <psa30 value="0.0018258561" flag="0"/>
    </comp>
    <comp name="--.HHE">
      <acc value="0.0222665179" flag="0"/>
      <vel value="0.0080673039" flag="0"/>
      <psa03 value="0.0404700025" flag="0"/>
      <psa10 value="0.0119583971" flag="0"/>
      <psa30 value="0.0016601840" flag="0"/>
    </comp>
  </station>
  <station code="KMRS" name="KMRS" netid="KO" insttype="CMG-3T" lat="37.5053" lon="36.9">
    <comp name="--.HHE">
      <acc value="0.0085038500" flag="0"/>
      <vel value="0.0055813598" flag="0"/>
      <psa03 value="0.0258785530" flag="0"/>
      <psa10 value="0.0088549026" flag="0"/>
      <psa30 value="0.0010456430" flag="0"/>
    </comp>
    <comp name="--.HHN">
      <acc value="0.0141065046" flag="0"/>
      <vel value="0.0074299129" flag="0"/>
      <psa03 value="0.0324967647" flag="0"/>
      <psa10 value="0.0158858928" flag="0"/>
      <psa30 value="0.0011360867" flag="0"/>
    </comp>
    <comp name="--.HHZ">
      <acc value="0.0092037266" flag="0"/>
      <vel value="0.0047114050" flag="0"/>
      <psa03 value="0.0232574009" flag="0"/>
      <psa10 value="0.0046721792" flag="0"/>
      <psa30 value="0.0008629787" flag="0"/>
    </comp>
  </station>
  <station code="URFA" name="URFA" netid="KO" insttype="CMG-3ESP" lat="37.4409" lon="38.8213">
    <comp name="--.HHE">
      <acc value="0.2326265658" flag="0"/>
      <vel value="0.0593243369" flag="0"/>
      <psa03 value="0.2354782559" flag="0"/>
      <psa10 value="0.0358615772" flag="0"/>
      <psa30 value="0.0025282950" flag="0"/>
    </comp>
    <comp name="--.HHZ">
      <acc value="0.1354422576" flag="0"/>
      <vel value="0.0335149708" flag="0"/>
      <psa03 value="0.1325726906" flag="0"/>
      <psa10 value="0.0177619254" flag="0"/>
      <psa30 value="0.0012509623" flag="0"/>
    </comp>
    <comp name="--.HHN">
      <acc value="0.2003731663" flag="0"/>
      <vel value="0.0742337917" flag="0"/>
      <psa03 value="0.2677155047" flag="0"/>
      <psa10 value="0.0455892440" flag="0"/>
      <psa30 value="0.0026637309" flag="0"/>
    </comp>
  </station>
</stationlist>
