<?xml version="1.0" encoding="UTF-8" standalone="yes"?>
<!DOCTYPE earthquake SYSTEM "stationlist.dtd">
<stationlist created="" xmlns="ch.ethz.sed.shakemap.usgs.xml">
  <station code="HPAC" name="HPAC" netid="IV" insttype="" lat="36.7085" lon="15.0372">
    <comp name="--.HHZ">
      <acc value="0.2485447887" flag="0"/>
      <vel value="0.1532966731" flag="0"/>
      <psa03 value="0.7961404103" flag="0"/>
      <psa10 value="0.1510727358" flag="0"/>
      <psa30 value="0.0158853101" flag="0"/>
    </comp>
    <comp name="--.HHE">
      <acc value="0.3632674032" flag="0"/>
      <vel value="0.2288060108" flag="0"/>
      <psa03 value="1.0316134742" flag="0"/>
      <psa10 value="0.4505094194" flag="0"/>
      <psa30 value="0.0628321553" flag="0"/>
    </comp>
    <comp name="--.HHN">
      <acc value="0.2937675084" flag="0"/>
      <vel value="0.1882802026" flag="0"/>
      <psa03 value="0.9291933353" flag="0"/>
      <psa10 value="0.3607813990" flag="0"/>
      <psa30 value="0.0245988638" flag="0"/>
    </comp>
  </station>
  <station code="MSDA" name="MSDA" netid="ML" insttype="" lat="35.9012" lon="14.484">
    <comp name="--.HHE">
      <acc value="0.2237387844" flag="0"/>
      <vel value="0.1243113679" flag="0"/>
      <psa03 value="0.4525102729" flag="0"/>
      <psa10 value="0.1454380825" flag="0"/>
      <psa30 value="0.0205303740" flag="0"/>
    </comp>
    <comp name="--.HHZ">
      <acc value="0.1832276255" flag="0"/>
      <vel value="0.0856423423" flag="0"/>
      <psa03 value="0.3366451211" flag="0"/>
      <psa10 value="0.0834001157" flag="0"/>
      <psa30 value="0.0128303209" flag="0"/>
    </comp>
    <comp name="--.HHN">
      <acc value="0.2904356214" flag="0"/>
      <vel value="0.1264925717" flag="0"/>
      <psa03 value="0.4722113013" flag="0"/>
      <psa10 value="0.1930199973" flag="0"/>
      <psa30 value="0.0222547033" flag="0"/>
    </comp>
  </station>
  <station code="XLND" name="XLND" netid="ML" insttype="" lat="36.0323" lon="14.2201">
    <comp name="--.HHN">
      <acc value="0.0760954098" flag="0"/>
      <vel value="0.0916768354" flag="0"/>
      <psa03 value="0.1627166821" flag="0"/>
      <psa10 value="0.0961883156" flag="0"/>
      <psa30 value="0.0329447877" flag="0"/>
    </comp>
    <comp name="--.HHE">
      <acc value="0.0688594753" flag="0"/>
      <vel value="0.0619274445" flag="0"/>
      <psa03 value="0.2589667875" flag="0"/>
      <psa10 value="0.0957152831" flag="0"/>
      <psa30 value="0.0133318852" flag="0"/>
    </comp>
    <comp name="--.HHZ">
      <acc value="0.0552398253" flag="0"/>
      <vel value="0.0418711771" flag="0"/>
      <psa03 value="0.1615176581" flag="0"/>
      <psa10 value="0.0540949048" flag="0"/>
      <psa30 value="0.0163376468" flag="0"/>
    </comp>
  </station>
  <station code="WDD" name="WDD" netid="MN" insttype="" lat="35.8373" lon="14.5242">
    <comp name="--.HHE">
      <acc value="0.3540767576" flag="0"/>
      <vel value="0.2326563011" flag="0"/>
      <psa03 value="1.1009407834" flag="0"/>
      <psa10 value="0.2872856195" flag="0"/>
      <psa30 value="0.0302827109" flag="0"/>
    </comp>
    <comp name="--.HHN">
      <acc value="0.2396633479" flag="0"/>
      <vel value="0.1321723844" flag="0"/>
      <psa03 value="0.8116456093" flag="0"/>
      <psa10 value="0.1323166941" flag="0"/>
      <psa30 value="0.0245819425" flag="0"/>
    </comp>
    <comp name="--.HHZ">
      <acc value="0.2858695307" flag="0"/>
      <vel value="0.0859624754" flag="0"/>
      <psa03 value="0.6361051576" flag="0"/>
      <psa10 value="0.0956087198" flag="0"/>
      <psa30 value="0.0157455911" flag="0"/>
    </comp>
  </station>
</stationlist>
