<?xml version="1.0" encoding="UTF-8" standalone="yes"?>
<!DOCTYPE earthquake SYSTEM "stationlist.dtd">
<stationlist created="" xmlns="ch.ethz.sed.shakemap.usgs.xml">
  <station code="HPAC" name="HPAC" netid="IV" insttype="" lat="36.7085" lon="15.0372">
    <comp name="--.HHE">
      <acc value="0.3632674036" flag="0"/>
      <vel value="0.2288060693" flag="0"/>
      <psa03 value="1.0316134743" flag="0"/>
      <psa10 value="0.4505094193" flag="0"/>
      <psa30 value="0.0628321374" flag="0"/>
    </comp>
    <comp name="--.HHN">
      <acc value="0.2937675084" flag="0"/>
      <vel value="0.1882804421" flag="0"/>
      <psa03 value="0.9291933350" flag="0"/>
      <psa10 value="0.3607813988" flag="0"/>
      <psa30 value="0.0245988560" flag="0"/>
    </comp>
    <comp name="--.HHZ">
      <acc value="0.2485447888" flag="0"/>
      <vel value="0.1532968637" flag="0"/>
      <psa03 value="0.7961404105" flag="0"/>
      <psa10 value="0.1510727360" flag="0"/>
      <psa30 value="0.0158853107" flag="0"/>
    </comp>
  </station>
  <station code="MSDA" name="MSDA" netid="ML" insttype="" lat="35.9012" lon="14.484">
    <comp name="--.HHE">
      <acc value="0.2237387840" flag="0"/>
      <vel value="0.1243113918" flag="0"/>
      <psa03 value="0.4525102729" flag="0"/>
      <psa10 value="0.1454380825" flag="0"/>
      <psa30 value="0.0205304800" flag="0"/>
    </comp>
    <comp name="--.HHN">
      <acc value="0.2904356212" flag="0"/>
      <vel value="0.1264925854" flag="0"/>
      <psa03 value="0.4722113013" flag="0"/>
      <psa10 value="0.1930199973" flag="0"/>
      <psa30 value="0.0222546160" flag="0"/>
    </comp>
    <comp name="--.HHZ">
      <acc value="0.1832276252" flag="0"/>
      <vel value="0.0856423186" flag="0"/>
      <psa03 value="0.3366451211" flag="0"/>
      <psa10 value="0.0834001157" flag="0"/>
      <psa30 value="0.0128302783" flag="0"/>
    </comp>
  </station>
  <station code="XLND" name="XLND" netid="ML" insttype="" lat="36.0323" lon="14.2201">
    <comp name="--.HHE">
      <acc value="0.0688594753" flag="0"/>
      <vel value="0.0619275321" flag="0"/>
      <psa03 value="0.2589667875" flag="0"/>
      <psa10 value="0.0957152831" flag="0"/>
      <psa30 value="0.0133319622" flag="0"/>
    </comp>
    <comp name="--.HHN">
      <acc value="0.0760954099" flag="0"/>
      <vel value="0.0916768246" flag="0"/>
      <psa03 value="0.1627166821" flag="0"/>
      <psa10 value="0.0961883156" flag="0"/>
      <psa30 value="0.0329447572" flag="0"/>
    </comp>
    <comp name="--.HHZ">
      <acc value="0.0552398254" flag="0"/>
      <vel value="0.0418711824" flag="0"/>
      <psa03 value="0.1615176581" flag="0"/>
      <psa10 value="0.0540949048" flag="0"/>
      <psa30 value="0.0163376723" flag="0"/>
    </comp>
  </station>
  <station code="WDD" name="WDD" netid="MN" insttype="" lat="35.8373" lon="14.5242">
    <comp name="--.HHE">
      <acc value="0.3540767575" flag="0"/>
      <vel value="0.2326562919" flag="0"/>
      <psa03 value="1.1009407834" flag="0"/>
      <psa10 value="0.2872856196" flag="0"/>
      <psa30 value="0.0302824068" flag="0"/>
    </comp>
    <comp name="--.HHN">
      <acc value="0.2396633481" flag="0"/>
      <vel value="0.1321724125" flag="0"/>
      <psa03 value="0.8116456093" flag="0"/>
      <psa10 value="0.1323166942" flag="0"/>
      <psa30 value="0.0245818264" flag="0"/>
    </comp>
    <comp name="--.HHZ">
      <acc value="0.2858695308" flag="0"/>
      <vel value="0.0859628526" flag="0"/>
      <psa03 value="0.6361051577" flag="0"/>
      <psa10 value="0.0956087201" flag="0"/>
      <psa30 value="0.0157455952" flag="0"/>
    </comp>
  </station>
</stationlist>
