<?xml version="1.0" encoding="UTF-8" standalone="yes"?>
<!DOCTYPE earthquake SYSTEM "stationlist.dtd">
<stationlist created="" xmlns="ch.ethz.sed.shakemap.usgs.xml">
  <station code="MSDA" name="MSDA" netid="ML" insttype="" lat="35.9012" lon="14.484">
    <comp name="--.HHN">
      <acc value="0.2902434204" flag="0"/>
      <vel value="0.1206288283" flag="0"/>
      <psa03 value="0.4720162709" flag="0"/>
      <psa10 value="0.1923975378" flag="0"/>
      <psa30 value="0.0209903683" flag="0"/>
    </comp>
    <comp name="--.HHZ">
      <acc value="0.1826042829" flag="0"/>
      <vel value="0.0833477820" flag="0"/>
      <psa03 value="0.3366588251" flag="0"/>
      <psa10 value="0.0834746279" flag="0"/>
      <psa30 value="0.0115409731" flag="0"/>
    </comp>
    <comp name="--.HHE">
      <acc value="0.2230929907" flag="0"/>
      <vel value="0.1160806991" flag="0"/>
      <psa03 value="0.4524442626" flag="0"/>
      <psa10 value="0.1449812177" flag="0"/>
      <psa30 value="0.0176301923" flag="0"/>
    </comp>
  </station>
  <station code="XLND" name="XLND" netid="ML" insttype="" lat="36.0323" lon="14.2201">
    <comp name="--.HHE">
      <acc value="0.0688154337" flag="0"/>
      <vel value="0.0598433647" flag="0"/>
      <psa03 value="0.2587880970" flag="0"/>
      <psa10 value="0.0955333374" flag="0"/>
      <psa30 value="0.0115362874" flag="0"/>
    </comp>
    <comp name="--.HHZ">
      <acc value="0.0554341019" flag="0"/>
      <vel value="0.0408885786" flag="0"/>
      <psa03 value="0.1615524861" flag="0"/>
      <psa10 value="0.0539635722" flag="0"/>
      <psa30 value="0.0145204361" flag="0"/>
    </comp>
    <comp name="--.HHN">
      <acc value="0.0759996643" flag="0"/>
      <vel value="0.0846728421" flag="0"/>
      <psa03 value="0.1619351730" flag="0"/>
      <psa10 value="0.0951143719" flag="0"/>
      <psa30 value="0.0292295782" flag="0"/>
    </comp>
  </station>
  <station code="WDD" name="WDD" netid="MN" insttype="" lat="35.8373" lon="14.5242">
    <comp name="--.HHE">
      <acc value="0.3546081603" flag="0"/>
      <vel value="0.2227819539" flag="0"/>
      <psa03 value="1.0995901645" flag="0"/>
      <psa10 value="0.2859825733" flag="0"/>
      <psa30 value="0.0271131662" flag="0"/>
    </comp>
    <comp name="--.HHN">
      <acc value="0.2400520243" flag="0"/>
      <vel value="0.1344242803" flag="0"/>
      <psa03 value="0.8111206477" flag="0"/>
      <psa10 value="0.1320981799" flag="0"/>
      <psa30 value="0.0224841486" flag="0"/>
    </comp>
    <comp name="--.HHZ">
      <acc value="0.2862232455" flag="0"/>
      <vel value="0.0875617033" flag="0"/>
      <psa03 value="0.6362511597" flag="0"/>
      <psa10 value="0.0953516575" flag="0"/>
      <psa30 value="0.0130155400" flag="0"/>
    </comp>
  </station>
</stationlist>
