<stationlist created="1778065510">
	<station code="SIT2" name="SIT2" netid="HI" source="ITSAK Strong Motion Network" insttype="" lat="35.2059" lon="26.107">
		<comp name="--.HNE" depth="0.0">
			<acc value="0.0206531836179116" flag="0"/>
			<vel value="0.0130281529697356" flag="0"/>
			<psa03 value="0.0752116493253148" flag="0"/>
			<psa10 value="0.0094831106927427" flag="0"/>
			<psa30 value="0.000826835978305662" flag="0"/>
		</comp>
		<comp name="--.HNN" depth="0.0">
			<acc value="0.0222842132345646" flag="0"/>
			<vel value="0.01293279619882" flag="0"/>
			<psa03 value="0.0748089694657504" flag="0"/>
			<psa10 value="0.00724018387496873" flag="0"/>
			<psa30 value="0.000722586636885089" flag="0"/>
		</comp>
		<comp name="--.HNZ" depth="0.0">
			<acc value="0.0102312580565522" flag="0"/>
			<vel value="0.00418838253954306" flag="0"/>
			<psa03 value="0.0216104857966253" flag="0"/>
			<psa10 value="0.00192078293012241" flag="0"/>
			<psa30 value="0.000417892209814658" flag="0"/>
		</comp>
	</station>
</stationlist>
