<?xml version="1.0" encoding="UTF-8" standalone="yes"?>
<!DOCTYPE earthquake SYSTEM "stationlist.dtd">
<stationlist created="" xmlns="ch.ethz.sed.shakemap.usgs.xml">
  <station code="AGRP" name="AGRP" netid="CL" insttype="CMG40-T" commtype="DIG" lat="38.3959" lon="21.7228">
    <comp name="00.HHE">
      <acc value="0.0317850563" flag="0"/>
      <vel value="0.0150257531" flag="0"/>
      <psa03 value="0.0735778985" flag="0"/>
      <psa10 value="0.0170536167" flag="0"/>
      <psa30 value="0.0011825299" flag="0"/>
    </comp>
    <comp name="00.HHN">
      <acc value="0.0227536139" flag="0"/>
      <vel value="0.0123097122" flag="0"/>
      <psa03 value="0.0755790962" flag="0"/>
      <psa10 value="0.0133365993" flag="0"/>
      <psa30 value="0.0012510952" flag="0"/>
    </comp>
    <comp name="00.HHZ">
      <acc value="0.0203353682" flag="0"/>
      <vel value="0.0071791383" flag="0"/>
      <psa03 value="0.0395782656" flag="0"/>
      <psa10 value="0.0107993277" flag="0"/>
      <psa30 value="0.0007542610" flag="0"/>
    </comp>
  </station>
  <station code="MALA" name="MALA" netid="CL" insttype="TRILLIUM-40" commtype="DIG" lat="38.3934" lon="21.8726">
    <comp name="01.HHE">
      <acc value="0.0627590733" flag="0"/>
      <vel value="0.0370894533" flag="0"/>
      <psa03 value="0.0902482562" flag="0"/>
      <psa10 value="0.0511477998" flag="0"/>
      <psa30 value="0.0035426444" flag="0"/>
    </comp>
    <comp name="01.HHN">
      <acc value="0.0701141581" flag="0"/>
      <vel value="0.0301442055" flag="0"/>
      <psa03 value="0.1024350902" flag="0"/>
      <psa10 value="0.0487075019" flag="0"/>
      <psa30 value="0.0023886282" flag="0"/>
    </comp>
    <comp name="01.HHZ">
      <acc value="0.0185013572" flag="0"/>
      <vel value="0.0143113448" flag="0"/>
      <psa03 value="0.0432395107" flag="0"/>
      <psa10 value="0.0125032122" flag="0"/>
      <psa30 value="0.0012140896" flag="0"/>
    </comp>
  </station>
  <station code="MG06" name="MG06" netid="CL" insttype="TRILLIUM-40" commtype="DIG" lat="38.4129" lon="21.9462">
    <comp name="06.HHE">
      <acc value="0.0699659819" flag="0"/>
      <vel value="0.0151584726" flag="0"/>
      <psa03 value="0.0942677906" flag="0"/>
      <psa10 value="0.0129168267" flag="0"/>
      <psa30 value="0.0015867502" flag="0"/>
    </comp>
    <comp name="06.HHZ">
      <acc value="0.0422540321" flag="0"/>
      <vel value="0.0088794615" flag="0"/>
      <psa03 value="0.0516196278" flag="0"/>
      <psa10 value="0.0081627277" flag="0"/>
      <psa30 value="0.0008689216" flag="0"/>
    </comp>
    <comp name="06.HHN">
      <acc value="0.0966665498" flag="0"/>
      <vel value="0.0155821842" flag="0"/>
      <psa03 value="0.0620432207" flag="0"/>
      <psa10 value="0.0097702427" flag="0"/>
      <psa30 value="0.0007687708" flag="0"/>
    </comp>
  </station>
  <station code="PSAM" name="PSAM" netid="CL" insttype="CMG40-T" commtype="DIG" lat="38.3218" lon="22.1842">
    <comp name="00.HHE">
      <acc value="0.0424397369" flag="0"/>
      <vel value="0.0141664570" flag="0"/>
      <psa03 value="0.0657261857" flag="0"/>
      <psa10 value="0.0123690519" flag="0"/>
      <psa30 value="0.0012693239" flag="0"/>
    </comp>
    <comp name="00.HHN">
      <acc value="0.0253746144" flag="0"/>
      <vel value="0.0091064138" flag="0"/>
      <psa03 value="0.0404091501" flag="0"/>
      <psa10 value="0.0085031920" flag="0"/>
      <psa30 value="0.0009464618" flag="0"/>
    </comp>
    <comp name="00.HHZ">
      <acc value="0.0181437374" flag="0"/>
      <vel value="0.0053646960" flag="0"/>
      <psa03 value="0.0207683032" flag="0"/>
      <psa10 value="0.0062147882" flag="0"/>
      <psa30 value="0.0006423734" flag="0"/>
    </comp>
  </station>
  <station code="ROD3" name="ROD3" netid="CL" insttype="CMG40-T" commtype="DIG" lat="38.3081" lon="21.892">
    <comp name="00.HHE">
      <acc value="0.0384600981" flag="0"/>
      <vel value="0.0148762613" flag="0"/>
      <psa03 value="0.1065628580" flag="0"/>
      <psa10 value="0.0146709675" flag="0"/>
      <psa30 value="0.0010555463" flag="0"/>
    </comp>
    <comp name="00.HHN">
      <acc value="0.0362125651" flag="0"/>
      <vel value="0.0148099324" flag="0"/>
      <psa03 value="0.0877205834" flag="0"/>
      <psa10 value="0.0122038410" flag="0"/>
      <psa30 value="0.0010066224" flag="0"/>
    </comp>
    <comp name="00.HHZ">
      <acc value="0.0192264223" flag="0"/>
      <vel value="0.0068283527" flag="0"/>
      <psa03 value="0.0258580090" flag="0"/>
      <psa10 value="0.0071529664" flag="0"/>
      <psa30 value="0.0006790860" flag="0"/>
    </comp>
  </station>
  <station code="TRIZ" name="TRIZ" netid="CL" insttype="STS-2" commtype="DIG" lat="38.3654" lon="22.0727">
    <comp name="00.HH2">
      <acc value="0.0264669916" flag="0"/>
      <vel value="0.0136438141" flag="0"/>
      <psa03 value="0.0826939513" flag="0"/>
      <psa10 value="0.0134331422" flag="0"/>
      <psa30 value="0.0011395803" flag="0"/>
    </comp>
    <comp name="00.HH3">
      <acc value="0.0292406648" flag="0"/>
      <vel value="0.0167996256" flag="0"/>
      <psa03 value="0.1260555872" flag="0"/>
      <psa10 value="0.0160829040" flag="0"/>
      <psa30 value="0.0008440750" flag="0"/>
    </comp>
    <comp name="00.HHZ">
      <acc value="0.0252434869" flag="0"/>
      <vel value="0.0097360119" flag="0"/>
      <psa03 value="0.0332223029" flag="0"/>
      <psa10 value="0.0081726699" flag="0"/>
      <psa30 value="0.0009358624" flag="0"/>
    </comp>
  </station>
  <station code="ZIRI" name="ZIRI" netid="CL" insttype="TRILLIUM-40" commtype="DIG" lat="38.3051" lon="21.9476">
    <comp name="01.HHE">
      <acc value="0.0350054166" flag="0"/>
      <vel value="0.0177934667" flag="0"/>
      <psa03 value="0.0601121454" flag="0"/>
      <psa10 value="0.0131965528" flag="0"/>
      <psa30 value="0.0010728053" flag="0"/>
    </comp>
    <comp name="01.HHZ">
      <acc value="0.0182806670" flag="0"/>
      <vel value="0.0058168284" flag="0"/>
      <psa03 value="0.0426401962" flag="0"/>
      <psa10 value="0.0042736527" flag="0"/>
      <psa30 value="0.0004300394" flag="0"/>
    </comp>
    <comp name="01.HHN">
      <acc value="0.0267148649" flag="0"/>
      <vel value="0.0157385618" flag="0"/>
      <psa03 value="0.0600034016" flag="0"/>
      <psa10 value="0.0124117070" flag="0"/>
      <psa30 value="0.0007877069" flag="0"/>
    </comp>
  </station>
  <station code="AXAR" name="AXAR" netid="HA" insttype="Horizon,120s,1200" commtype="DIG" lat="38.7664" lon="22.659">
    <comp name="--.HHE">
      <acc value="0.0451024597" flag="0"/>
      <vel value="0.0173599992" flag="0"/>
      <psa03 value="0.0852665718" flag="0"/>
      <psa10 value="0.0154895203" flag="0"/>
      <psa30 value="0.0009178868" flag="0"/>
    </comp>
    <comp name="--.HHN">
      <acc value="0.0456359889" flag="0"/>
      <vel value="0.0133737069" flag="0"/>
      <psa03 value="0.0649176095" flag="0"/>
      <psa10 value="0.0107096532" flag="0"/>
      <psa30 value="0.0014928211" flag="0"/>
    </comp>
    <comp name="--.HHZ">
      <acc value="0.0185639144" flag="0"/>
      <vel value="0.0077388850" flag="0"/>
      <psa03 value="0.0228389573" flag="0"/>
      <psa10 value="0.0081178948" flag="0"/>
      <psa30 value="0.0006082725" flag="0"/>
    </comp>
  </station>
  <station code="DOMV" name="DOMV" netid="HA" insttype="60" commtype="DIG" lat="38.2569" lon="22.9795">
    <comp name="--.HHE">
      <acc value="0.0077500337" flag="0"/>
      <vel value="0.0031776036" flag="0"/>
      <psa03 value="0.0117025704" flag="0"/>
      <psa10 value="0.0028677359" flag="0"/>
      <psa30 value="0.0001903635" flag="0"/>
    </comp>
    <comp name="--.HHN">
      <acc value="0.0067360675" flag="0"/>
      <vel value="0.0030968101" flag="0"/>
      <psa03 value="0.0120866400" flag="0"/>
      <psa10 value="0.0037521341" flag="0"/>
      <psa30 value="0.0002401043" flag="0"/>
    </comp>
    <comp name="--.HHZ">
      <acc value="0.0050796337" flag="0"/>
      <vel value="0.0021403677" flag="0"/>
      <psa03 value="0.0085180500" flag="0"/>
      <psa10 value="0.0020854956" flag="0"/>
      <psa30 value="0.0001441631" flag="0"/>
    </comp>
  </station>
  <station code="KALE" name="KALE" netid="HA" insttype="40," commtype="DIG" lat="38.3911" lon="22.1398">
    <comp name="--.HHE">
      <acc value="0.0413207981" flag="0"/>
      <vel value="0.0120705574" flag="0"/>
      <psa03 value="0.0456441959" flag="0"/>
      <psa10 value="0.0127125526" flag="0"/>
      <psa30 value="0.0009434851" flag="0"/>
    </comp>
    <comp name="--.HHN">
      <acc value="0.0525483907" flag="0"/>
      <vel value="0.0100916866" flag="0"/>
      <psa03 value="0.0477209755" flag="0"/>
      <psa10 value="0.0149545795" flag="0"/>
      <psa30 value="0.0009366554" flag="0"/>
    </comp>
    <comp name="--.HHZ">
      <acc value="0.0368154138" flag="0"/>
      <vel value="0.0079487827" flag="0"/>
      <psa03 value="0.0356694346" flag="0"/>
      <psa10 value="0.0063858913" flag="0"/>
      <psa30 value="0.0005465870" flag="0"/>
    </comp>
  </station>
  <station code="LAKA" name="LAKA" netid="HA" insttype="120s," commtype="DIG" lat="38.2401" lon="21.9785">
    <comp name="--.HHE">
      <acc value="0.0066786331" flag="0"/>
      <vel value="0.0016746327" flag="0"/>
      <psa03 value="0.0076094739" flag="0"/>
      <psa10 value="0.0019525622" flag="0"/>
      <psa30 value="0.0004784901" flag="0"/>
    </comp>
    <comp name="--.HHZ">
      <acc value="0.0047751662" flag="0"/>
      <vel value="0.0021102216" flag="0"/>
      <psa03 value="0.0063851167" flag="0"/>
      <psa10 value="0.0029337124" flag="0"/>
      <psa30 value="0.0003455302" flag="0"/>
    </comp>
    <comp name="--.HHN">
      <acc value="0.0062485852" flag="0"/>
      <vel value="0.0025256490" flag="0"/>
      <psa03 value="0.0070191376" flag="0"/>
      <psa10 value="0.0029150797" flag="0"/>
      <psa30 value="0.0003186486" flag="0"/>
    </comp>
  </station>
  <station code="PRDM" name="PRDM" netid="HA" insttype="25" commtype="DIG" lat="38.2804" lon="22.847">
    <comp name="--.HHE">
      <acc value="0.0024426938" flag="0"/>
      <vel value="0.0012261104" flag="0"/>
      <psa03 value="0.0044178478" flag="0"/>
      <psa10 value="0.0018561178" flag="0"/>
      <psa30 value="0.0001292750" flag="0"/>
    </comp>
    <comp name="--.HHN">
      <acc value="0.0034626399" flag="0"/>
      <vel value="0.0009528448" flag="0"/>
      <psa03 value="0.0042798271" flag="0"/>
      <psa10 value="0.0011327716" flag="0"/>
      <psa30 value="0.0000947490" flag="0"/>
    </comp>
    <comp name="--.HHZ">
      <acc value="0.0016015026" flag="0"/>
      <vel value="0.0009216951" flag="0"/>
      <psa03 value="0.0034617368" flag="0"/>
      <psa10 value="0.0009043371" flag="0"/>
      <psa30 value="0.0001154051" flag="0"/>
    </comp>
  </station>
  <station code="AGR3" name="AGR3" netid="HI" insttype="unknown" commtype="DIG" lat="38.5893" lon="21.4162">
    <comp name="--.HNZ">
      <acc value="0.2378121304" flag="0"/>
      <vel value="0.0404802263" flag="0"/>
      <psa03 value="0.2127300940" flag="0"/>
      <psa10 value="0.0318123275" flag="0"/>
      <psa30 value="0.0038692770" flag="0"/>
    </comp>
    <comp name="--.HNE">
      <acc value="0.3072968125" flag="0"/>
      <vel value="0.0737132373" flag="0"/>
      <psa03 value="0.4470265637" flag="0"/>
      <psa10 value="0.0854122294" flag="0"/>
      <psa30 value="0.0055382014" flag="0"/>
    </comp>
    <comp name="--.HNN">
      <acc value="0.2752013328" flag="0"/>
      <vel value="0.0740967215" flag="0"/>
      <psa03 value="0.3127511698" flag="0"/>
      <psa10 value="0.0655871397" flag="0"/>
      <psa30 value="0.0044685746" flag="0"/>
    </comp>
  </station>
  <station code="ART2" name="ART2" netid="HI" insttype="CMG-5TD,ACCELEROMETER,GURALP" commtype="DIG" lat="39.1474" lon="20.9937">
    <comp name="--.HNN">
      <acc value="0.0111913920" flag="0"/>
      <vel value="0.0032287828" flag="0"/>
      <psa03 value="0.0180765120" flag="0"/>
      <psa10 value="0.0018736654" flag="0"/>
      <psa30 value="0.0002429534" flag="0"/>
    </comp>
    <comp name="--.HNZ">
      <acc value="0.0098726201" flag="0"/>
      <vel value="0.0028362012" flag="0"/>
      <psa03 value="0.0111796275" flag="0"/>
      <psa10 value="0.0020320628" flag="0"/>
      <psa30 value="0.0001863724" flag="0"/>
    </comp>
    <comp name="--.HNE">
      <acc value="0.0106143564" flag="0"/>
      <vel value="0.0029673193" flag="0"/>
      <psa03 value="0.0127326178" flag="0"/>
      <psa10 value="0.0015456935" flag="0"/>
      <psa30 value="0.0002625080" flag="0"/>
    </comp>
  </station>
  <station code="FRS1" name="FRS1" netid="HI" insttype="unknown" commtype="DIG" lat="39.2934" lon="22.3844">
    <comp name="--.HNE">
      <acc value="0.0072598905" flag="0"/>
      <vel value="0.0033563825" flag="0"/>
      <psa03 value="0.0192722740" flag="0"/>
      <psa10 value="0.0035135141" flag="0"/>
      <psa30 value="0.0002526286" flag="0"/>
    </comp>
    <comp name="--.HNN">
      <acc value="0.0097138703" flag="0"/>
      <vel value="0.0047617315" flag="0"/>
      <psa03 value="0.0209034684" flag="0"/>
      <psa10 value="0.0047125015" flag="0"/>
      <psa30 value="0.0002614288" flag="0"/>
    </comp>
    <comp name="--.HNZ">
      <acc value="0.0084399426" flag="0"/>
      <vel value="0.0031287000" flag="0"/>
      <psa03 value="0.0152969079" flag="0"/>
      <psa10 value="0.0026438543" flag="0"/>
      <psa30 value="0.0003096341" flag="0"/>
    </comp>
  </station>
  <station code="JAN2" name="JAN2" netid="HI" insttype="unknown" commtype="DIG" lat="39.664" lon="20.8522">
    <comp name="--.HNE">
      <acc value="0.0146593647" flag="0"/>
      <vel value="0.0072072362" flag="0"/>
      <psa03 value="0.0571316919" flag="0"/>
      <psa10 value="0.0062283666" flag="0"/>
      <psa30 value="0.0004529087" flag="0"/>
    </comp>
    <comp name="--.HNN">
      <acc value="0.0164818160" flag="0"/>
      <vel value="0.0075177020" flag="0"/>
      <psa03 value="0.0766541782" flag="0"/>
      <psa10 value="0.0027569203" flag="0"/>
      <psa30 value="0.0002797090" flag="0"/>
    </comp>
    <comp name="--.HNZ">
      <acc value="0.0117584995" flag="0"/>
      <vel value="0.0031427991" flag="0"/>
      <psa03 value="0.0153834927" flag="0"/>
      <psa10 value="0.0019361594" flag="0"/>
      <psa30 value="0.0003292137" flag="0"/>
    </comp>
  </station>
  <station code="KAR2" name="KAR2" netid="HI" insttype="unknown" commtype="DIG" lat="39.3658" lon="21.9193">
    <comp name="--.HNE">
      <acc value="0.0599903525" flag="0"/>
      <vel value="0.0186354911" flag="0"/>
      <psa03 value="0.1162240531" flag="0"/>
      <psa10 value="0.0216682494" flag="0"/>
      <psa30 value="0.0044695429" flag="0"/>
    </comp>
    <comp name="--.HNN">
      <acc value="0.0721064450" flag="0"/>
      <vel value="0.0249974544" flag="0"/>
      <psa03 value="0.1629034640" flag="0"/>
      <psa10 value="0.0217074123" flag="0"/>
      <psa30 value="0.0023617934" flag="0"/>
    </comp>
    <comp name="--.HNZ">
      <acc value="0.0456794671" flag="0"/>
      <vel value="0.0117397884" flag="0"/>
      <psa03 value="0.0422319553" flag="0"/>
      <psa10 value="0.0106655573" flag="0"/>
      <psa30 value="0.0008649542" flag="0"/>
    </comp>
  </station>
  <station code="KLV1" name="KLV1" netid="HI" insttype="CMG-5TD,ACCELEROMETER,GURALP" commtype="DIG" lat="38.0326" lon="22.108">
    <comp name="--.HNE">
      <acc value="0.0077339805" flag="0"/>
      <vel value="0.0043158290" flag="0"/>
      <psa03 value="0.0172865637" flag="0"/>
      <psa10 value="0.0071434687" flag="0"/>
      <psa30 value="0.0004593384" flag="0"/>
    </comp>
    <comp name="--.HNZ">
      <acc value="0.0065335557" flag="0"/>
      <vel value="0.0032832706" flag="0"/>
      <psa03 value="0.0128053029" flag="0"/>
      <psa10 value="0.0055181038" flag="0"/>
      <psa30 value="0.0001951603" flag="0"/>
    </comp>
    <comp name="--.HNN">
      <acc value="0.0093586317" flag="0"/>
      <vel value="0.0043541978" flag="0"/>
      <psa03 value="0.0263992969" flag="0"/>
      <psa10 value="0.0056822697" flag="0"/>
      <psa30 value="0.0003718042" flag="0"/>
    </comp>
  </station>
  <station code="LAM2" name="LAM2" netid="HI" insttype="CMG-5TD,ACCELEROMETER,GURALP" commtype="DIG" lat="38.902" lon="22.4313">
    <comp name="--.HNE">
      <acc value="0.0465952146" flag="0"/>
      <vel value="0.0138993179" flag="0"/>
      <psa03 value="0.0723706834" flag="0"/>
      <psa10 value="0.0074904454" flag="0"/>
      <psa30 value="0.0005815784" flag="0"/>
    </comp>
    <comp name="--.HNN">
      <acc value="0.0589056317" flag="0"/>
      <vel value="0.0134418379" flag="0"/>
      <psa03 value="0.0761967692" flag="0"/>
      <psa10 value="0.0094346702" flag="0"/>
      <psa30 value="0.0008262087" flag="0"/>
    </comp>
    <comp name="--.HNZ">
      <acc value="0.0274989895" flag="0"/>
      <vel value="0.0052294092" flag="0"/>
      <psa03 value="0.0283566502" flag="0"/>
      <psa10 value="0.0037421443" flag="0"/>
      <psa30 value="0.0004660613" flag="0"/>
    </comp>
  </station>
  <station code="LAR4" name="LAR4" netid="HI" insttype="unknown" commtype="DIG" lat="39.6422" lon="22.4219">
    <comp name="--.HNZ">
      <acc value="0.0115106379" flag="0"/>
      <vel value="0.0063121970" flag="0"/>
      <psa03 value="0.0279010288" flag="0"/>
      <psa10 value="0.0086933393" flag="0"/>
      <psa30 value="0.0011303352" flag="0"/>
    </comp>
    <comp name="--.HNE">
      <acc value="0.0209033106" flag="0"/>
      <vel value="0.0149671965" flag="0"/>
      <psa03 value="0.0649539050" flag="0"/>
      <psa10 value="0.0338954721" flag="0"/>
      <psa30 value="0.0020372003" flag="0"/>
    </comp>
    <comp name="--.HNN">
      <acc value="0.0174317579" flag="0"/>
      <vel value="0.0124267552" flag="0"/>
      <psa03 value="0.0745635135" flag="0"/>
      <psa10 value="0.0287993142" flag="0"/>
      <psa30 value="0.0021850399" flag="0"/>
    </comp>
  </station>
  <station code="LEF2" name="LEF2" netid="HI" insttype="unknown" commtype="DIG" lat="38.8301" lon="20.7083">
    <comp name="--.HNE">
      <acc value="0.0610468216" flag="0"/>
      <vel value="0.0437432479" flag="0"/>
      <psa03 value="0.1501717583" flag="0"/>
      <psa10 value="0.0346723832" flag="0"/>
      <psa30 value="0.0020608555" flag="0"/>
    </comp>
    <comp name="--.HNN">
      <acc value="0.0518671405" flag="0"/>
      <vel value="0.0339063388" flag="0"/>
      <psa03 value="0.1419885406" flag="0"/>
      <psa10 value="0.0331393016" flag="0"/>
      <psa30 value="0.0031065047" flag="0"/>
    </comp>
    <comp name="--.HNZ">
      <acc value="0.0202534242" flag="0"/>
      <vel value="0.0150720726" flag="0"/>
      <psa03 value="0.0517661898" flag="0"/>
      <psa10 value="0.0230608498" flag="0"/>
      <psa30 value="0.0012929369" flag="0"/>
    </comp>
  </station>
  <station code="MSL1" name="MSL1" netid="HI" insttype="CMG-5TD,ACCELEROMETER,GURALP" commtype="DIG" lat="38.3727" lon="21.4243">
    <comp name="--.HNE">
      <acc value="0.0381968235" flag="0"/>
      <vel value="0.0333235370" flag="0"/>
      <psa03 value="0.1098108004" flag="0"/>
      <psa10 value="0.0292635459" flag="0"/>
      <psa30 value="0.0035024483" flag="0"/>
    </comp>
    <comp name="--.HNN">
      <acc value="0.0269649307" flag="0"/>
      <vel value="0.0274065937" flag="0"/>
      <psa03 value="0.1200268286" flag="0"/>
      <psa10 value="0.0300526674" flag="0"/>
      <psa30 value="0.0025955914" flag="0"/>
    </comp>
    <comp name="--.HNZ">
      <acc value="0.0173410909" flag="0"/>
      <vel value="0.0147053639" flag="0"/>
      <psa03 value="0.0437169143" flag="0"/>
      <psa10 value="0.0180432967" flag="0"/>
      <psa30 value="0.0011396232" flag="0"/>
    </comp>
  </station>
