<?xml version="1.0" encoding="UTF-8" standalone="yes"?>
<!DOCTYPE earthquake SYSTEM "stationlist.dtd">
<stationlist created="" xmlns="ch.ethz.sed.shakemap.usgs.xml">
  <station code="AGRP" name="AGRP" netid="CL" insttype="CMG40-T" commtype="DIG" lat="38.3959" lon="21.7228">
    <comp name="00.HHE">
      <acc value="0.0317850543" flag="0"/>
      <vel value="0.0150257547" flag="0"/>
      <psa03 value="0.0735778985" flag="0"/>
      <psa10 value="0.0170536169" flag="0"/>
      <psa30 value="0.0011825835" flag="0"/>
    </comp>
    <comp name="00.HHZ">
      <acc value="0.0203353695" flag="0"/>
      <vel value="0.0071791376" flag="0"/>
      <psa03 value="0.0395782656" flag="0"/>
      <psa10 value="0.0107993277" flag="0"/>
      <psa30 value="0.0007542779" flag="0"/>
    </comp>
    <comp name="00.HHN">
      <acc value="0.0227536132" flag="0"/>
      <vel value="0.0123097134" flag="0"/>
      <psa03 value="0.0755790962" flag="0"/>
      <psa10 value="0.0133365993" flag="0"/>
      <psa30 value="0.0012509857" flag="0"/>
    </comp>
  </station>
  <station code="MALA" name="MALA" netid="CL" insttype="TRILLIUM-40" commtype="DIG" lat="38.3934" lon="21.8726">
    <comp name="01.HHZ">
      <acc value="0.0185013564" flag="0"/>
      <vel value="0.0143113456" flag="0"/>
      <psa03 value="0.0432395107" flag="0"/>
      <psa10 value="0.0125032121" flag="0"/>
      <psa30 value="0.0012143227" flag="0"/>
    </comp>
    <comp name="01.HHN">
      <acc value="0.0701141572" flag="0"/>
      <vel value="0.0301442049" flag="0"/>
      <psa03 value="0.1024350902" flag="0"/>
      <psa10 value="0.0487075019" flag="0"/>
      <psa30 value="0.0023884721" flag="0"/>
    </comp>
    <comp name="01.HHE">
      <acc value="0.0627590728" flag="0"/>
      <vel value="0.0370894562" flag="0"/>
      <psa03 value="0.0902482562" flag="0"/>
      <psa10 value="0.0511477998" flag="0"/>
      <psa30 value="0.0035429811" flag="0"/>
    </comp>
  </station>
  <station code="MG06" name="MG06" netid="CL" insttype="TRILLIUM-40" commtype="DIG" lat="38.4129" lon="21.9462">
    <comp name="06.HHE">
      <acc value="0.0699659837" flag="0"/>
      <vel value="0.0151584728" flag="0"/>
      <psa03 value="0.0942677906" flag="0"/>
      <psa10 value="0.0129168267" flag="0"/>
      <psa30 value="0.0015868439" flag="0"/>
    </comp>
    <comp name="06.HHN">
      <acc value="0.0966665501" flag="0"/>
      <vel value="0.0155821843" flag="0"/>
      <psa03 value="0.0620432207" flag="0"/>
      <psa10 value="0.0097702428" flag="0"/>
      <psa30 value="0.0007687718" flag="0"/>
    </comp>
    <comp name="06.HHZ">
      <acc value="0.0422540319" flag="0"/>
      <vel value="0.0088794631" flag="0"/>
      <psa03 value="0.0516196277" flag="0"/>
      <psa10 value="0.0081627277" flag="0"/>
      <psa30 value="0.0008689242" flag="0"/>
    </comp>
  </station>
  <station code="PSAM" name="PSAM" netid="CL" insttype="CMG40-T" commtype="DIG" lat="38.3218" lon="22.1842">
    <comp name="00.HHN">
      <acc value="0.0253746146" flag="0"/>
      <vel value="0.0091064147" flag="0"/>
      <psa03 value="0.0404091501" flag="0"/>
      <psa10 value="0.0085031920" flag="0"/>
      <psa30 value="0.0009465139" flag="0"/>
    </comp>
    <comp name="00.HHE">
      <acc value="0.0424397374" flag="0"/>
      <vel value="0.0141664568" flag="0"/>
      <psa03 value="0.0657261857" flag="0"/>
      <psa10 value="0.0123690519" flag="0"/>
      <psa30 value="0.0012693031" flag="0"/>
    </comp>
    <comp name="00.HHZ">
      <acc value="0.0181437377" flag="0"/>
      <vel value="0.0053646959" flag="0"/>
      <psa03 value="0.0207683032" flag="0"/>
      <psa10 value="0.0062147882" flag="0"/>
      <psa30 value="0.0006423761" flag="0"/>
    </comp>
  </station>
  <station code="ROD3" name="ROD3" netid="CL" insttype="CMG40-T" commtype="DIG" lat="38.3081" lon="21.892">
    <comp name="00.HHN">
      <acc value="0.0362125596" flag="0"/>
      <vel value="0.0148099325" flag="0"/>
      <psa03 value="0.0877205834" flag="0"/>
      <psa10 value="0.0122038410" flag="0"/>
      <psa30 value="0.0010067422" flag="0"/>
    </comp>
    <comp name="00.HHE">
      <acc value="0.0384601019" flag="0"/>
      <vel value="0.0148762623" flag="0"/>
      <psa03 value="0.1065628580" flag="0"/>
      <psa10 value="0.0146709675" flag="0"/>
      <psa30 value="0.0010555630" flag="0"/>
    </comp>
    <comp name="00.HHZ">
      <acc value="0.0192264256" flag="0"/>
      <vel value="0.0068283524" flag="0"/>
      <psa03 value="0.0258580090" flag="0"/>
      <psa10 value="0.0071529664" flag="0"/>
      <psa30 value="0.0006791446" flag="0"/>
    </comp>
  </station>
  <station code="TRIZ" name="TRIZ" netid="CL" insttype="STS-2" commtype="DIG" lat="38.3654" lon="22.0727">
    <comp name="00.HH2">
      <acc value="0.0264669921" flag="0"/>
      <vel value="0.0136438158" flag="0"/>
      <psa03 value="0.0826939513" flag="0"/>
      <psa10 value="0.0134331422" flag="0"/>
      <psa30 value="0.0011395649" flag="0"/>
    </comp>
    <comp name="00.HHZ">
      <acc value="0.0252434869" flag="0"/>
      <vel value="0.0097360114" flag="0"/>
      <psa03 value="0.0332223029" flag="0"/>
      <psa10 value="0.0081726699" flag="0"/>
      <psa30 value="0.0009358463" flag="0"/>
    </comp>
    <comp name="00.HH3">
      <acc value="0.0292406640" flag="0"/>
      <vel value="0.0167996257" flag="0"/>
      <psa03 value="0.1260555872" flag="0"/>
      <psa10 value="0.0160829040" flag="0"/>
      <psa30 value="0.0008440737" flag="0"/>
    </comp>
  </station>
  <station code="ZIRI" name="ZIRI" netid="CL" insttype="TRILLIUM-40" commtype="DIG" lat="38.3051" lon="21.9476">
    <comp name="01.HHN">
      <acc value="0.0267148646" flag="0"/>
      <vel value="0.0157385627" flag="0"/>
      <psa03 value="0.0600034016" flag="0"/>
      <psa10 value="0.0124117071" flag="0"/>
      <psa30 value="0.0007876608" flag="0"/>
    </comp>
    <comp name="01.HHE">
      <acc value="0.0350054163" flag="0"/>
      <vel value="0.0177934670" flag="0"/>
      <psa03 value="0.0601121454" flag="0"/>
      <psa10 value="0.0131965528" flag="0"/>
      <psa30 value="0.0010727612" flag="0"/>
    </comp>
    <comp name="01.HHZ">
      <acc value="0.0182806669" flag="0"/>
      <vel value="0.0058168271" flag="0"/>
      <psa03 value="0.0426401962" flag="0"/>
      <psa10 value="0.0042736527" flag="0"/>
      <psa30 value="0.0004301241" flag="0"/>
    </comp>
  </station>
  <station code="AXAR" name="AXAR" netid="HA" insttype="Horizon,120s,1200" commtype="DIG" lat="38.7664" lon="22.659">
    <comp name="--.HHE">
      <acc value="0.0451024574" flag="0"/>
      <vel value="0.0173599982" flag="0"/>
      <psa03 value="0.0852665718" flag="0"/>
      <psa10 value="0.0154895204" flag="0"/>
      <psa30 value="0.0009178363" flag="0"/>
    </comp>
    <comp name="--.HHN">
      <acc value="0.0456359897" flag="0"/>
      <vel value="0.0133737057" flag="0"/>
      <psa03 value="0.0649176095" flag="0"/>
      <psa10 value="0.0107096531" flag="0"/>
      <psa30 value="0.0014928622" flag="0"/>
    </comp>
    <comp name="--.HHZ">
      <acc value="0.0185639150" flag="0"/>
      <vel value="0.0077388857" flag="0"/>
      <psa03 value="0.0228389573" flag="0"/>
      <psa10 value="0.0081178948" flag="0"/>
      <psa30 value="0.0006082843" flag="0"/>
    </comp>
  </station>
  <station code="KALE" name="KALE" netid="HA" insttype="40," commtype="DIG" lat="38.3911" lon="22.1398">
    <comp name="--.HHN">
      <acc value="0.0525483913" flag="0"/>
      <vel value="0.0100916832" flag="0"/>
      <psa03 value="0.0477209755" flag="0"/>
      <psa10 value="0.0149545795" flag="0"/>
      <psa30 value="0.0009366435" flag="0"/>
    </comp>
    <comp name="--.HHZ">
      <acc value="0.0368154131" flag="0"/>
      <vel value="0.0079487823" flag="0"/>
      <psa03 value="0.0356694346" flag="0"/>
      <psa10 value="0.0063858913" flag="0"/>
      <psa30 value="0.0005465912" flag="0"/>
    </comp>
    <comp name="--.HHE">
      <acc value="0.0413207987" flag="0"/>
      <vel value="0.0120705552" flag="0"/>
      <psa03 value="0.0456441959" flag="0"/>
      <psa10 value="0.0127125526" flag="0"/>
      <psa30 value="0.0009435110" flag="0"/>
    </comp>
  </station>
  <station code="LAKA" name="LAKA" netid="HA" insttype="120s," commtype="DIG" lat="38.2401" lon="21.9785">
    <comp name="--.HHZ">
      <acc value="0.0047751643" flag="0"/>
      <vel value="0.0021102219" flag="0"/>
      <psa03 value="0.0063851167" flag="0"/>
      <psa10 value="0.0029337124" flag="0"/>
      <psa30 value="0.0003455674" flag="0"/>
    </comp>
    <comp name="--.HHN">
      <acc value="0.0062485870" flag="0"/>
      <vel value="0.0025256510" flag="0"/>
      <psa03 value="0.0070191376" flag="0"/>
      <psa10 value="0.0029150797" flag="0"/>
      <psa30 value="0.0003187130" flag="0"/>
    </comp>
    <comp name="--.HHE">
      <acc value="0.0066786333" flag="0"/>
      <vel value="0.0016746324" flag="0"/>
      <psa03 value="0.0076094739" flag="0"/>
      <psa10 value="0.0019525622" flag="0"/>
      <psa30 value="0.0004784902" flag="0"/>
    </comp>
  </station>
  <station code="AGR3" name="AGR3" netid="HI" insttype="unknown" commtype="DIG" lat="38.5893" lon="21.4162">
    <comp name="--.HNN">
      <acc value="0.2752013291" flag="0"/>
      <vel value="0.0740967318" flag="0"/>
      <psa03 value="0.3127511698" flag="0"/>
      <psa10 value="0.0655871397" flag="0"/>
      <psa30 value="0.0044676166" flag="0"/>
    </comp>
    <comp name="--.HNE">
      <acc value="0.3072967989" flag="0"/>
      <vel value="0.0737132399" flag="0"/>
      <psa03 value="0.4470265637" flag="0"/>
      <psa10 value="0.0854122293" flag="0"/>
      <psa30 value="0.0055384127" flag="0"/>
    </comp>
    <comp name="--.HNZ">
      <acc value="0.2378121196" flag="0"/>
      <vel value="0.0404802301" flag="0"/>
      <psa03 value="0.2127300940" flag="0"/>
      <psa10 value="0.0318123270" flag="0"/>
      <psa30 value="0.0038696549" flag="0"/>
    </comp>
  </station>
  <station code="ART2" name="ART2" netid="HI" insttype="CMG-5TD,ACCELEROMETER,GURALP" commtype="DIG" lat="39.1474" lon="20.9937">
    <comp name="--.HNE">
      <acc value="0.0106143455" flag="0"/>
      <vel value="0.0029673200" flag="0"/>
      <psa03 value="0.0127326178" flag="0"/>
      <psa10 value="0.0015456935" flag="0"/>
      <psa30 value="0.0002625137" flag="0"/>
    </comp>
    <comp name="--.HNZ">
      <acc value="0.0098726087" flag="0"/>
      <vel value="0.0028362022" flag="0"/>
      <psa03 value="0.0111796275" flag="0"/>
      <psa10 value="0.0020320628" flag="0"/>
      <psa30 value="0.0001863572" flag="0"/>
    </comp>
    <comp name="--.HNN">
      <acc value="0.0111914015" flag="0"/>
      <vel value="0.0032287813" flag="0"/>
      <psa03 value="0.0180765120" flag="0"/>
      <psa10 value="0.0018736715" flag="0"/>
      <psa30 value="0.0002430173" flag="0"/>
    </comp>
  </station>
  <station code="FRS1" name="FRS1" netid="HI" insttype="unknown" commtype="DIG" lat="39.2934" lon="22.3844">
    <comp name="--.HNE">
      <acc value="0.0072598869" flag="0"/>
      <vel value="0.0033563846" flag="0"/>
      <psa03 value="0.0192722740" flag="0"/>
      <psa10 value="0.0035135141" flag="0"/>
      <psa30 value="0.0002526217" flag="0"/>
    </comp>
    <comp name="--.HNZ">
      <acc value="0.0084399327" flag="0"/>
      <vel value="0.0031286969" flag="0"/>
      <psa03 value="0.0152969079" flag="0"/>
      <psa10 value="0.0026438543" flag="0"/>
      <psa30 value="0.0003097068" flag="0"/>
    </comp>
    <comp name="--.HNN">
      <acc value="0.0097138727" flag="0"/>
      <vel value="0.0047617300" flag="0"/>
      <psa03 value="0.0209034684" flag="0"/>
      <psa10 value="0.0047125014" flag="0"/>
      <psa30 value="0.0002613916" flag="0"/>
    </comp>
  </station>
  <station code="KAR2" name="KAR2" netid="HI" insttype="unknown" commtype="DIG" lat="39.3658" lon="21.9193">
    <comp name="--.HNZ">
      <acc value="0.0456794800" flag="0"/>
      <vel value="0.0117397892" flag="0"/>
      <psa03 value="0.0422319553" flag="0"/>
      <psa10 value="0.0106641069" flag="0"/>
      <psa30 value="0.0008649178" flag="0"/>
    </comp>
    <comp name="--.HNE">
      <acc value="0.0599903402" flag="0"/>
      <vel value="0.0186354941" flag="0"/>
      <psa03 value="0.1162240531" flag="0"/>
      <psa10 value="0.0216682494" flag="0"/>
      <psa30 value="0.0044695018" flag="0"/>
    </comp>
    <comp name="--.HNN">
      <acc value="0.0721064643" flag="0"/>
      <vel value="0.0249974484" flag="0"/>
      <psa03 value="0.1629034640" flag="0"/>
      <psa10 value="0.0217074123" flag="0"/>
      <psa30 value="0.0023613413" flag="0"/>
    </comp>
  </station>
  <station code="KLV1" name="KLV1" netid="HI" insttype="CMG-5TD,ACCELEROMETER,GURALP" commtype="DIG" lat="38.0326" lon="22.108">
    <comp name="--.HNZ">
      <acc value="0.0065335616" flag="0"/>
      <vel value="0.0032832693" flag="0"/>
      <psa03 value="0.0128053029" flag="0"/>
      <psa10 value="0.0055181039" flag="0"/>
      <psa30 value="0.0001952512" flag="0"/>
    </comp>
    <comp name="--.HNE">
      <acc value="0.0077339787" flag="0"/>
      <vel value="0.0043158302" flag="0"/>
      <psa03 value="0.0172865637" flag="0"/>
      <psa10 value="0.0071434687" flag="0"/>
      <psa30 value="0.0004591959" flag="0"/>
    </comp>
    <comp name="--.HNN">
      <acc value="0.0093586527" flag="0"/>
      <vel value="0.0043541986" flag="0"/>
      <psa03 value="0.0263992969" flag="0"/>
      <psa10 value="0.0056822697" flag="0"/>
      <psa30 value="0.0003717836" flag="0"/>
    </comp>
  </station>
  <station code="LAM2" name="LAM2" netid="HI" insttype="CMG-5TD,ACCELEROMETER,GURALP" commtype="DIG" lat="38.902" lon="22.4313">
    <comp name="--.HNN">
      <acc value="0.0589056253" flag="0"/>
      <vel value="0.0134418388" flag="0"/>
      <psa03 value="0.0761967692" flag="0"/>
      <psa10 value="0.0094346702" flag="0"/>
      <psa30 value="0.0008262505" flag="0"/>
    </comp>
    <comp name="--.HNZ">
      <acc value="0.0274990083" flag="0"/>
      <vel value="0.0052294078" flag="0"/>
      <psa03 value="0.0283566502" flag="0"/>
      <psa10 value="0.0037421443" flag="0"/>
      <psa30 value="0.0004661661" flag="0"/>
    </comp>
    <comp name="--.HNE">
      <acc value="0.0465952147" flag="0"/>
      <vel value="0.0138993161" flag="0"/>
      <psa03 value="0.0723706834" flag="0"/>
      <psa10 value="0.0074904454" flag="0"/>
      <psa30 value="0.0005815968" flag="0"/>
    </comp>
  </station>
  <station code="LEF2" name="LEF2" netid="HI" insttype="unknown" commtype="DIG" lat="38.8301" lon="20.7083">
    <comp name="--.HNE">
      <acc value="0.0610468053" flag="0"/>
      <vel value="0.0437432416" flag="0"/>
      <psa03 value="0.1501717583" flag="0"/>
      <psa10 value="0.0346723831" flag="0"/>
      <psa30 value="0.0020613268" flag="0"/>
    </comp>
    <comp name="--.HNN">
      <acc value="0.0518671515" flag="0"/>
      <vel value="0.0339063359" flag="0"/>
      <psa03 value="0.1419885406" flag="0"/>
      <psa10 value="0.0331393016" flag="0"/>
      <psa30 value="0.0031067363" flag="0"/>
    </comp>
    <comp name="--.HNZ">
      <acc value="0.0202534357" flag="0"/>
      <vel value="0.0150720732" flag="0"/>
      <psa03 value="0.0517661898" flag="0"/>
      <psa10 value="0.0230608496" flag="0"/>
      <psa30 value="0.0012927313" flag="0"/>
    </comp>
  </station>
  <station code="MSL1" name="MSL1" netid="HI" insttype="CMG-5TD,ACCELEROMETER,GURALP" commtype="DIG" lat="38.3727" lon="21.4243">
    <comp name="--.HNE">
      <acc value="0.0381968194" flag="0"/>
      <vel value="0.0333235389" flag="0"/>
      <psa03 value="0.1098108004" flag="0"/>
      <psa10 value="0.0292635472" flag="0"/>
      <psa30 value="0.0035025583" flag="0"/>
    </comp>
    <comp name="--.HNZ">
      <acc value="0.0173410830" flag="0"/>
      <vel value="0.0147053643" flag="0"/>
      <psa03 value="0.0437169143" flag="0"/>
      <psa10 value="0.0180432965" flag="0"/>
      <psa30 value="0.0011395672" flag="0"/>
    </comp>
    <comp name="--.HNN">
      <acc value="0.0269649512" flag="0"/>
      <vel value="0.0274065902" flag="0"/>
      <psa03 value="0.1200268286" flag="0"/>
      <psa10 value="0.0300526672" flag="0"/>
      <psa30 value="0.0025955481" flag="0"/>
    </comp>
  </station>
  <station code="PRE2" name="PRE2" netid="HI" insttype="unknown" commtype="DIG" lat="38.9577" lon="20.7548">
    <comp name="--.HNE">
      <acc value="0.0277810272" flag="0"/>
      <vel value="0.0172741006" flag="0"/>
      <psa03 value="0.0915841967" flag="0"/>
      <psa10 value="0.0176184711" flag="0"/>
      <psa30 value="0.0008885748" flag="0"/>
    </comp>
    <comp name="--.HNZ">
      <acc value="0.0139967286" flag="0"/>
      <vel value="0.0066727629" flag="0"/>
      <psa03 value="0.0320666646" flag="0"/>
      <psa10 value="0.0068798644" flag="0"/>
      <psa30 value="0.0004213189" flag="0"/>
    </comp>
    <comp name="--.HNN">
      <acc value="0.0290965820" flag="0"/>
      <vel value="0.0160653129" flag="0"/>
      <psa03 value="0.0954401842" flag="0"/>
      <psa10 value="0.0183965327" flag="0"/>
      <psa30 value="0.0014231933" flag="0"/>
    </comp>
  </station>
  <station code="ARTB" name="ARTB" netid="HL" insttype="CMG-5" commtype="DIG" lat="39.157" lon="20.9785">
    <comp name="00.HNZ">
      <acc value="0.0244747256" flag="0"/>
      <vel value="0.0079359701" flag="0"/>
      <psa03 value="0.0227299232" flag="0"/>
      <psa10 value="0.0023638064" flag="0"/>
      <psa30 value="0.0002491541" flag="0"/>
    </comp>
    <comp name="00.HNE">
      <acc value="0.0349666480" flag="0"/>
      <vel value="0.0121684129" flag="0"/>
      <psa03 value="0.0907851869" flag="0"/>
      <psa10 value="0.0029461563" flag="0"/>
      <psa30 value="0.0003028313" flag="0"/>
    </comp>
    <comp name="00.HNN">
      <acc value="0.0245279681" flag="0"/>
      <vel value="0.0080497436" flag="0"/>
      <psa03 value="0.0673171194" flag="0"/>
      <psa10 value="0.0028214108" flag="0"/>
      <psa30 value="0.0002896892" flag="0"/>
    </comp>
  </station>
  <station code="EVR" name="EVR" netid="HL" insttype="DR24" commtype="DIG" lat="38.9166" lon="21.8105">
    <comp name="--.HHE">
      <acc value="0.8451848510" flag="0"/>
      <vel value="0.2324505695" flag="0"/>
      <psa03 value="1.1453558672" flag="0"/>
      <psa10 value="0.1137703985" flag="0"/>
      <psa30 value="0.0072837993" flag="0"/>
    </comp>
    <comp name="--.HHZ">
      <acc value="0.5023511457" flag="0"/>
      <vel value="0.1873344204" flag="0"/>
      <psa03 value="0.6258347146" flag="0"/>
      <psa10 value="0.1117130832" flag="0"/>
      <psa30 value="0.0060349651" flag="0"/>
    </comp>
    <comp name="--.HHN">
      <acc value="1.2093599636" flag="0"/>
      <vel value="0.3242307274" flag="0"/>
      <psa03 value="1.4987591783" flag="0"/>
      <psa10 value="0.1260405515" flag="0"/>
      <psa30 value="0.0080101521" flag="0"/>
    </comp>
  </station>
  <station code="PATC" name="PATC" netid="HL" insttype="CMG-5" commtype="DIG" lat="38.2693" lon="21.76">
    <comp name="00.HNE">
      <acc value="0.0130901324" flag="0"/>
      <vel value="0.0099828535" flag="0"/>
      <psa03 value="0.0313943276" flag="0"/>
      <psa10 value="0.0185478507" flag="0"/>
      <psa30 value="0.0021356672" flag="0"/>
    </comp>
    <comp name="00.HNZ">
      <acc value="0.0144657354" flag="0"/>
      <vel value="0.0054733606" flag="0"/>
      <psa03 value="0.0295236423" flag="0"/>
      <psa10 value="0.0088521308" flag="0"/>
      <psa30 value="0.0008827633" flag="0"/>
    </comp>
    <comp name="00.HNN">
      <acc value="0.0159441820" flag="0"/>
      <vel value="0.0119656650" flag="0"/>
      <psa03 value="0.0373521793" flag="0"/>
      <psa10 value="0.0153678334" flag="0"/>
      <psa30 value="0.0021895097" flag="0"/>
    </comp>
  </station>
