<?xml version="1.0" encoding="UTF-8" standalone="yes"?>
<!DOCTYPE earthquake SYSTEM "stationlist.dtd">
<stationlist created="" xmlns="ch.ethz.sed.shakemap.usgs.xml">
  <station code="APE" name="APE" netid="GE" insttype="STS-2/N" lat="37.0727" lon="25.523">
    <comp name="--.HHE">
      <acc value="0.6091944155" flag="0"/>
      <vel value="0.1629309072" flag="0"/>
      <psa03 value="0.5757142910" flag="0"/>
      <psa10 value="0.0582532057" flag="0"/>
      <psa30 value="0.0065063116" flag="0"/>
    </comp>
    <comp name="--.HHN">
      <acc value="0.5488129461" flag="0"/>
      <vel value="0.1202343704" flag="0"/>
      <psa03 value="0.3309483074" flag="0"/>
      <psa10 value="0.0402313476" flag="0"/>
      <psa30 value="0.0051742449" flag="0"/>
    </comp>
    <comp name="--.HHZ">
      <acc value="0.1916474282" flag="0"/>
      <vel value="0.0390162016" flag="0"/>
      <psa03 value="0.1976970448" flag="0"/>
      <psa10 value="0.0374983491" flag="0"/>
      <psa30 value="0.0050482941" flag="0"/>
    </comp>
  </station>
  <station code="THERA" name="THERA" netid="GE" insttype="STS-2/N" lat="36.367" lon="25.4753">
    <comp name="--.HHN">
      <acc value="0.0942751702" flag="0"/>
      <vel value="0.0188245271" flag="0"/>
      <psa03 value="0.0725498437" flag="0"/>
      <psa10 value="0.0138420768" flag="0"/>
      <psa30 value="0.0016255378" flag="0"/>
    </comp>
    <comp name="--.HHE">
      <acc value="0.1785946460" flag="0"/>
      <vel value="0.0379127160" flag="0"/>
      <psa03 value="0.1622818887" flag="0"/>
      <psa10 value="0.0230532659" flag="0"/>
      <psa30 value="0.0045459106" flag="0"/>
    </comp>
    <comp name="--.HHZ">
      <acc value="0.1763883204" flag="0"/>
      <vel value="0.0257819047" flag="0"/>
      <psa03 value="0.1062837772" flag="0"/>
      <psa10 value="0.0117125450" flag="0"/>
      <psa30 value="0.0042177220" flag="0"/>
    </comp>
  </station>
</stationlist>
