<?xml version="1.0" encoding="UTF-8" standalone="yes"?>
<!DOCTYPE earthquake SYSTEM "stationlist.dtd">
<stationlist created="" xmlns="ch.ethz.sed.shakemap.usgs.xml">
  <station code="APE" name="APE" netid="GE" insttype="STS-2/N" lat="37.0727" lon="25.523">
    <comp name="--.HHE">
      <acc value="0.6091944155" flag="0"/>
      <vel value="0.1629309072" flag="0"/>
      <psa03 value="0.5757142910" flag="0"/>
      <psa10 value="0.0582532057" flag="0"/>
      <psa30 value="0.0065063116" flag="0"/>
    </comp>
    <comp name="--.HHN">
      <acc value="0.5488129461" flag="0"/>
      <vel value="0.1202343704" flag="0"/>
      <psa03 value="0.3309483074" flag="0"/>
      <psa10 value="0.0402313476" flag="0"/>
      <psa30 value="0.0051742449" flag="0"/>
    </comp>
    <comp name="--.HHZ">
      <acc value="0.1916474282" flag="0"/>
      <vel value="0.0390162016" flag="0"/>
      <psa03 value="0.1976970448" flag="0"/>
      <psa10 value="0.0374983491" flag="0"/>
      <psa30 value="0.0050482941" flag="0"/>
    </comp>
  </station>
  <station code="THERA" name="THERA" netid="GE" insttype="STS-2/N" lat="36.367" lon="25.4753">
    <comp name="--.HHN">
      <acc value="0.0942751702" flag="0"/>
      <vel value="0.0188245271" flag="0"/>
      <psa03 value="0.0725498437" flag="0"/>
      <psa10 value="0.0138420768" flag="0"/>
      <psa30 value="0.0016255378" flag="0"/>
    </comp>
    <comp name="--.HHE">
      <acc value="0.1785946460" flag="0"/>
      <vel value="0.0379127160" flag="0"/>
      <psa03 value="0.1622818887" flag="0"/>
      <psa10 value="0.0230532659" flag="0"/>
      <psa30 value="0.0045459106" flag="0"/>
    </comp>
    <comp name="--.HHZ">
      <acc value="0.1763883204" flag="0"/>
      <vel value="0.0257819047" flag="0"/>
      <psa03 value="0.1062837772" flag="0"/>
      <psa10 value="0.0117125450" flag="0"/>
      <psa30 value="0.0042177220" flag="0"/>
    </comp>
  </station>
  <station code="NAX1" name="NAX1" netid="HI" insttype="CMG-5TD,ACCELEROMETER,GURALP" lat="37.1014" lon="25.3741">
    <comp name="--.HNZ">
      <acc value="0.2230730472" flag="0"/>
      <vel value="0.0720700379" flag="0"/>
      <psa03 value="0.2435349397" flag="0"/>
      <psa10 value="0.0601442279" flag="0"/>
      <psa30 value="0.0038438760" flag="0"/>
    </comp>
    <comp name="--.HNN">
      <acc value="0.5209740243" flag="0"/>
      <vel value="0.0937172133" flag="0"/>
      <psa03 value="0.3382178270" flag="0"/>
      <psa10 value="0.0507591264" flag="0"/>
      <psa30 value="0.0037819164" flag="0"/>
    </comp>
    <comp name="--.HNE">
      <acc value="0.5985429342" flag="0"/>
      <vel value="0.1534748647" flag="0"/>
      <psa03 value="0.2972183919" flag="0"/>
      <psa10 value="0.0631078884" flag="0"/>
      <psa30 value="0.0040755294" flag="0"/>
    </comp>
  </station>
  <station code="APE" name="APE" netid="HL" insttype="120" lat="37.0727" lon="25.523">
    <comp name="--.HHZ">
      <acc value="0.1511784780" flag="0"/>
      <vel value="0.0368881941" flag="0"/>
      <psa03 value="0.1924265264" flag="0"/>
      <psa10 value="0.0370915842" flag="0"/>
      <psa30 value="0.0050412817" flag="0"/>
    </comp>
    <comp name="--.HHN">
      <acc value="0.5129733331" flag="0"/>
      <vel value="0.1155389616" flag="0"/>
      <psa03 value="0.3180925433" flag="0"/>
      <psa10 value="0.0396983512" flag="0"/>
      <psa30 value="0.0051446507" flag="0"/>
    </comp>
    <comp name="--.HHE">
      <acc value="0.5529241229" flag="0"/>
      <vel value="0.1589699422" flag="0"/>
      <psa03 value="0.5563172796" flag="0"/>
      <psa10 value="0.0574500885" flag="0"/>
      <psa30 value="0.0063814924" flag="0"/>
    </comp>
  </station>
  <station code="KLNA" name="KLNA" netid="HL" insttype="CMG-5" lat="36.9571" lon="26.9727">
    <comp name="00.HNN">
      <acc value="0.1086492636" flag="0"/>
      <vel value="0.0425008804" flag="0"/>
      <psa03 value="0.2931154135" flag="0"/>
      <psa10 value="0.0228332826" flag="0"/>
      <psa30 value="0.0026972853" flag="0"/>
    </comp>
    <comp name="00.HNE">
      <acc value="0.1108443473" flag="0"/>
      <vel value="0.0454260164" flag="0"/>
      <psa03 value="0.4336020338" flag="0"/>
      <psa10 value="0.0230621552" flag="0"/>
      <psa30 value="0.0020320904" flag="0"/>
    </comp>
    <comp name="00.HNZ">
      <acc value="0.1010198381" flag="0"/>
      <vel value="0.0345169621" flag="0"/>
      <psa03 value="0.1502817667" flag="0"/>
      <psa10 value="0.0109421435" flag="0"/>
      <psa30 value="0.0014934280" flag="0"/>
    </comp>
  </station>
  <station code="MHLO" name="MHLO" netid="HL" insttype="20" lat="36.6898" lon="24.4017">
    <comp name="--.HHE">
      <acc value="0.1642445280" flag="0"/>
      <vel value="0.0675648486" flag="0"/>
      <psa03 value="0.5657664574" flag="0"/>
      <psa10 value="0.0862316144" flag="0"/>
      <psa30 value="0.0060663420" flag="0"/>
    </comp>
    <comp name="--.HHN">
      <acc value="0.1435034616" flag="0"/>
      <vel value="0.0808665740" flag="0"/>
      <psa03 value="0.3968642038" flag="0"/>
      <psa10 value="0.0795127464" flag="0"/>
      <psa30 value="0.0059016864" flag="0"/>
    </comp>
    <comp name="--.HHZ">
      <acc value="0.0605506416" flag="0"/>
      <vel value="0.0357604676" flag="0"/>
      <psa03 value="0.1746205748" flag="0"/>
      <psa10 value="0.0417848317" flag="0"/>
      <psa30 value="0.0049128068" flag="0"/>
    </comp>
  </station>
  <station code="NISR" name="NISR" netid="HL" insttype="65535" lat="36.6106" lon="27.131">
    <comp name="--.HHE">
      <acc value="0.0000000000" flag="0"/>
      <vel value="-100.0000000000" flag="0"/>
      <psa03 value="0.0000000000" flag="0"/>
      <psa10 value="0.0000000000" flag="0"/>
      <psa30 value="0.0000000000" flag="0"/>
    </comp>
    <comp name="--.HHZ">
      <acc value="0.0427966164" flag="0"/>
      <vel value="0.0236285297" flag="0"/>
      <psa03 value="0.1400069440" flag="0"/>
      <psa10 value="0.0331285189" flag="0"/>
      <psa30 value="0.0015607435" flag="0"/>
    </comp>
    <comp name="--.HHN">
      <acc value="0.1182245944" flag="0"/>
      <vel value="0.0436564050" flag="0"/>
      <psa03 value="0.1867376240" flag="0"/>
      <psa10 value="0.0413190654" flag="0"/>
      <psa30 value="0.0073100877" flag="0"/>
    </comp>
  </station>
  <station code="NISR2" name="NISR2" netid="HL" insttype="120" lat="36.5744" lon="27.1767">
    <comp name="--.HHE">
      <acc value="0.0870517256" flag="0"/>
      <vel value="0.0699951623" flag="0"/>
      <psa03 value="0.2218202312" flag="0"/>
      <psa10 value="0.1283881267" flag="0"/>
      <psa30 value="0.0073037859" flag="0"/>
    </comp>
    <comp name="--.HHN">
      <acc value="0.1250723270" flag="0"/>
      <vel value="0.0744813575" flag="0"/>
      <psa03 value="0.3356975570" flag="0"/>
      <psa10 value="0.1523523187" flag="0"/>
      <psa30 value="0.0086915591" flag="0"/>
    </comp>
  </station>
  <station code="SAP3" name="SAP3" netid="HL" insttype="LE3D20_SMART24" lat="36.4356" lon="25.3454">
    <comp name="--.HHN">
      <acc value="0.5075368287" flag="0"/>
      <vel value="0.1238077676" flag="0"/>
      <psa03 value="0.8692736000" flag="0"/>
      <psa10 value="0.1294539490" flag="0"/>
      <psa30 value="0.0363242344" flag="0"/>
    </comp>
    <comp name="--.HHZ">
      <acc value="0.6554586120" flag="0"/>
      <vel value="0.1591584256" flag="0"/>
      <psa03 value="1.0225975443" flag="0"/>
      <psa10 value="0.0578432502" flag="0"/>
      <psa30 value="0.0099542435" flag="0"/>
    </comp>
    <comp name="--.HHE">
      <acc value="0.5361580414" flag="0"/>
      <vel value="0.1872538515" flag="0"/>
      <psa03 value="0.5790559950" flag="0"/>
      <psa10 value="0.1421900293" flag="0"/>
      <psa30 value="0.0358901137" flag="0"/>
    </comp>
  </station>
  <station code="THERA" name="THERA" netid="HL" insttype="120" lat="36.367" lon="25.4753">
    <comp name="--.HHN">
      <acc value="0.0969997130" flag="0"/>
      <vel value="0.0184222675" flag="0"/>
      <psa03 value="0.0704032039" flag="0"/>
      <psa10 value="0.0137187309" flag="0"/>
      <psa30 value="0.0016253891" flag="0"/>
    </comp>
    <comp name="--.HHE">
      <acc value="0.1836528331" flag="0"/>
      <vel value="0.0370937930" flag="0"/>
      <psa03 value="0.1578814282" flag="0"/>
      <psa10 value="0.0229135775" flag="0"/>
      <psa30 value="0.0045442383" flag="0"/>
    </comp>
    <comp name="--.HHZ">
      <acc value="0.1875107827" flag="0"/>
      <vel value="0.0252063689" flag="0"/>
      <psa03 value="0.1030702957" flag="0"/>
      <psa10 value="0.0116297599" flag="0"/>
      <psa30 value="0.0042139480" flag="0"/>
    </comp>
  </station>
  <station code="TNSA" name="TNSA" netid="HL" insttype="CMG-5" lat="37.5394" lon="25.1631">
    <comp name="00.HNE">
      <acc value="0.1243813132" flag="0"/>
      <vel value="0.0430898429" flag="0"/>
      <psa03 value="0.1545788499" flag="0"/>
      <psa10 value="0.0266522138" flag="0"/>
      <psa30 value="0.0015235372" flag="0"/>
    </comp>
    <comp name="00.HNN">
      <acc value="0.1243592348" flag="0"/>
      <vel value="0.0584487114" flag="0"/>
      <psa03 value="0.1332990079" flag="0"/>
      <psa10 value="0.0547332228" flag="0"/>
      <psa30 value="0.0028114319" flag="0"/>
    </comp>
    <comp name="00.HNZ">
      <acc value="0.1142883042" flag="0"/>
      <vel value="0.0512817986" flag="0"/>
      <psa03 value="0.1956106711" flag="0"/>
      <psa10 value="0.0501375999" flag="0"/>
      <psa30 value="0.0054681004" flag="0"/>
    </comp>
  </station>
  <station code="CMBO" name="CMBO" netid="HT" insttype="120P," lat="36.4709" lon="25.4056">
    <comp name="--.HHE">
      <acc value="0.5602654779" flag="0"/>
      <vel value="0.1788755856" flag="0"/>
      <psa03 value="0.7572501897" flag="0"/>
      <psa10 value="0.1154514456" flag="0"/>
      <psa30 value="0.0185324823" flag="0"/>
    </comp>
    <comp name="--.HHZ">
      <acc value="0.7071381384" flag="0"/>
      <vel value="0.1704954029" flag="0"/>
      <psa03 value="1.2471809004" flag="0"/>
      <psa10 value="0.0678249946" flag="0"/>
      <psa30 value="0.0126417551" flag="0"/>
    </comp>
    <comp name="--.HHN">
      <acc value="0.6461834154" flag="0"/>
      <vel value="0.2646578560" flag="0"/>
      <psa03 value="0.9663340640" flag="0"/>
      <psa10 value="0.1565767712" flag="0"/>
      <psa30 value="0.0181282562" flag="0"/>
    </comp>
  </station>
</stationlist>
