<?xml version="1.0" encoding="UTF-8" standalone="yes"?>
<!DOCTYPE earthquake SYSTEM "stationlist.dtd">
<stationlist created="" xmlns="ch.ethz.sed.shakemap.usgs.xml">
  <station code="MSL1" name="MSL1" netid="HI" insttype="CMG-5TD,ACCELEROMETER,GURALP" lat="38.3727" lon="21.4243">
    <comp name="--.HNE">
      <acc value="0.1291659915" flag="0"/>
      <vel value="0.0758383514" flag="0"/>
      <psa03 value="0.4762856926" flag="0"/>
      <psa10 value="0.0572277516" flag="0"/>
      <psa30 value="0.0027234693" flag="0"/>
    </comp>
    <comp name="--.HNN">
      <acc value="0.1080668562" flag="0"/>
      <vel value="0.0528112074" flag="0"/>
      <psa03 value="0.4572785425" flag="0"/>
      <psa10 value="0.0404526581" flag="0"/>
      <psa30 value="0.0018950595" flag="0"/>
    </comp>
    <comp name="--.HNZ">
      <acc value="0.0541399473" flag="0"/>
      <vel value="0.0212600641" flag="0"/>
      <psa03 value="0.2062512859" flag="0"/>
      <psa10 value="0.0185129286" flag="0"/>
      <psa30 value="0.0007393678" flag="0"/>
    </comp>
  </station>
  <station code="PATC" name="PATC" netid="HL" insttype="CMG-5" lat="38.2693" lon="21.76">
    <comp name="00.HNE">
      <acc value="0.1018691705" flag="0"/>
      <vel value="0.0277907420" flag="0"/>
      <psa03 value="0.1608932252" flag="0"/>
      <psa10 value="0.0173064005" flag="0"/>
      <psa30 value="0.0016025757" flag="0"/>
    </comp>
    <comp name="00.HNZ">
      <acc value="0.0787216264" flag="0"/>
      <vel value="0.0214988751" flag="0"/>
      <psa03 value="0.1264268491" flag="0"/>
      <psa10 value="0.0089503215" flag="0"/>
      <psa30 value="0.0009117179" flag="0"/>
    </comp>
    <comp name="00.HNN">
      <acc value="0.1391488424" flag="0"/>
      <vel value="0.0482763444" flag="0"/>
      <psa03 value="0.2690483799" flag="0"/>
      <psa10 value="0.0134350004" flag="0"/>
      <psa30 value="0.0013427496" flag="0"/>
    </comp>
  </station>
  <station code="RLS" name="RLS" netid="HL" insttype="CMG3ESPC-120s" lat="38.0559" lon="21.4647">
    <comp name="--.HHZ">
      <acc value="0.0178046357" flag="0"/>
      <vel value="0.0044161420" flag="0"/>
      <psa03 value="0.0205206771" flag="0"/>
      <psa10 value="0.0027079962" flag="0"/>
      <psa30 value="0.0003348547" flag="0"/>
    </comp>
    <comp name="--.HHE">
      <acc value="0.0599903271" flag="0"/>
      <vel value="0.0110753741" flag="0"/>
      <psa03 value="0.0378996800" flag="0"/>
      <psa10 value="0.0046175422" flag="0"/>
      <psa30 value="0.0003579924" flag="0"/>
    </comp>
    <comp name="--.HHN">
      <acc value="0.0779223750" flag="0"/>
      <vel value="0.0106592205" flag="0"/>
      <psa03 value="0.0297911824" flag="0"/>
      <psa10 value="0.0026656412" flag="0"/>
      <psa30 value="0.0005114894" flag="0"/>
    </comp>
  </station>
  <station code="VLS" name="VLS" netid="HL" insttype="120P," lat="38.1768" lon="20.5886">
    <comp name="--.HHE">
      <acc value="1.5088955246" flag="0"/>
      <vel value="0.1572061293" flag="0"/>
      <psa03 value="0.2952291732" flag="0"/>
      <psa10 value="0.0521284267" flag="0"/>
      <psa30 value="0.0048797042" flag="0"/>
    </comp>
    <comp name="--.HHN">
      <acc value="0.7363097518" flag="0"/>
      <vel value="0.1013324587" flag="0"/>
      <psa03 value="0.2614628145" flag="0"/>
      <psa10 value="0.0425901743" flag="0"/>
      <psa30 value="0.0026999757" flag="0"/>
    </comp>
    <comp name="--.HHZ">
      <acc value="0.4631442128" flag="0"/>
      <vel value="0.0711613131" flag="0"/>
      <psa03 value="0.2151287133" flag="0"/>
      <psa10 value="0.0409893199" flag="0"/>
      <psa30 value="0.0044083994" flag="0"/>
    </comp>
  </station>
  <station code="AMPL" name="AMPL" netid="HP" insttype="Compact," lat="38.9224" lon="21.2135">
    <comp name="--.HHE">
      <acc value="0.0103735158" flag="0"/>
      <vel value="0.0035313503" flag="0"/>
      <psa03 value="0.0179367478" flag="0"/>
      <psa10 value="0.0030999032" flag="0"/>
      <psa30 value="0.0003691056" flag="0"/>
    </comp>
    <comp name="--.HHZ">
      <acc value="0.0058917921" flag="0"/>
      <vel value="0.0024848619" flag="0"/>
      <psa03 value="0.0078465966" flag="0"/>
      <psa10 value="0.0033673126" flag="0"/>
      <psa30 value="0.0003196851" flag="0"/>
    </comp>
    <comp name="--.HHN">
      <acc value="0.0113382731" flag="0"/>
      <vel value="0.0033416521" flag="0"/>
      <psa03 value="0.0115764848" flag="0"/>
      <psa10 value="0.0029946854" flag="0"/>
      <psa30 value="0.0003344641" flag="0"/>
    </comp>
  </station>
  <station code="AXS" name="AXS" netid="HP" insttype="40," lat="38.1962" lon="21.3763">
    <comp name="--.HHE">
      <acc value="0.0508721276" flag="0"/>
      <vel value="0.0105624470" flag="0"/>
      <psa03 value="0.0308301681" flag="0"/>
      <psa10 value="0.0038406380" flag="0"/>
      <psa30 value="0.0004888728" flag="0"/>
    </comp>
    <comp name="--.HHN">
      <acc value="0.0495313393" flag="0"/>
      <vel value="0.0128868645" flag="0"/>
      <psa03 value="0.0722850052" flag="0"/>
      <psa10 value="0.0059247926" flag="0"/>
      <psa30 value="0.0008652882" flag="0"/>
    </comp>
    <comp name="--.HHZ">
      <acc value="0.0476558527" flag="0"/>
      <vel value="0.0137807240" flag="0"/>
      <psa03 value="0.0384783600" flag="0"/>
      <psa10 value="0.0043264453" flag="0"/>
      <psa30 value="0.0003041556" flag="0"/>
    </comp>
  </station>
  <station code="DRO" name="DRO" netid="HP" insttype="120P," lat="37.952" lon="21.71">
    <comp name="--.HHN">
      <acc value="0.1009159990" flag="0"/>
      <vel value="0.0176733243" flag="0"/>
      <psa03 value="0.0712459083" flag="0"/>
      <psa10 value="0.0047305089" flag="0"/>
      <psa30 value="0.0004947285" flag="0"/>
    </comp>
    <comp name="--.HHE">
      <acc value="0.1195679712" flag="0"/>
      <vel value="0.0259352427" flag="0"/>
      <psa03 value="0.0829864817" flag="0"/>
      <psa10 value="0.0074564855" flag="0"/>
      <psa30 value="0.0003964930" flag="0"/>
    </comp>
    <comp name="--.HHZ">
      <acc value="0.0619697297" flag="0"/>
      <vel value="0.0123885691" flag="0"/>
      <psa03 value="0.0480268500" flag="0"/>
      <psa10 value="0.0029954508" flag="0"/>
      <psa30 value="0.0002930963" flag="0"/>
    </comp>
  </station>
  <station code="FSK" name="FSK" netid="HP" insttype="40," lat="38.4593" lon="20.5623">
    <comp name="--.HHE">
      <acc value="0.1437377865" flag="0"/>
      <vel value="0.0282359174" flag="0"/>
      <psa03 value="0.0938414653" flag="0"/>
      <psa10 value="0.0111863066" flag="0"/>
      <psa30 value="0.0020823179" flag="0"/>
    </comp>
    <comp name="--.HHZ">
      <acc value="0.1023177437" flag="0"/>
      <vel value="0.0179962772" flag="0"/>
      <psa03 value="0.0325916562" flag="0"/>
      <psa10 value="0.0085349763" flag="0"/>
      <psa30 value="0.0007767164" flag="0"/>
    </comp>
    <comp name="--.HHN">
      <acc value="0.0729904976" flag="0"/>
      <vel value="0.0135520566" flag="0"/>
      <psa03 value="0.0513120800" flag="0"/>
      <psa10 value="0.0082411524" flag="0"/>
      <psa30 value="0.0012116429" flag="0"/>
    </comp>
  </station>
  <station code="LTHK" name="LTHK" netid="HP" insttype="40," lat="37.7095" lon="20.8367">
    <comp name="--.HHN">
      <acc value="0.0634209560" flag="0"/>
      <vel value="0.0225648139" flag="0"/>
      <psa03 value="0.1394711562" flag="0"/>
      <psa10 value="0.0077303305" flag="0"/>
      <psa30 value="0.0004802730" flag="0"/>
    </comp>
    <comp name="--.HHZ">
      <acc value="0.0308393538" flag="0"/>
      <vel value="0.0073058959" flag="0"/>
      <psa03 value="0.0411913337" flag="0"/>
      <psa10 value="0.0030644219" flag="0"/>
      <psa30 value="0.0003298536" flag="0"/>
    </comp>
    <comp name="--.HHE">
      <acc value="0.0551350477" flag="0"/>
      <vel value="0.0152204483" flag="0"/>
      <psa03 value="0.0915199774" flag="0"/>
      <psa10 value="0.0078006407" flag="0"/>
      <psa30 value="0.0005433611" flag="0"/>
    </comp>
  </station>
  <station code="PDO" name="PDO" netid="HP" insttype="120s" lat="38.5986" lon="21.1833">
    <comp name="--.HHZ">
      <acc value="0.0240698282" flag="0"/>
      <vel value="0.0092013096" flag="0"/>
      <psa03 value="0.0538132262" flag="0"/>
      <psa10 value="0.0065006820" flag="0"/>
      <psa30 value="0.0007463254" flag="0"/>
    </comp>
    <comp name="--.HHE">
      <acc value="0.0374377528" flag="0"/>
      <vel value="0.0160437971" flag="0"/>
      <psa03 value="0.0597753890" flag="0"/>
      <psa10 value="0.0128877983" flag="0"/>
      <psa30 value="0.0008764208" flag="0"/>
    </comp>
    <comp name="--.HHN">
      <acc value="0.0447678615" flag="0"/>
      <vel value="0.0186906067" flag="0"/>
      <psa03 value="0.1360268363" flag="0"/>
      <psa10 value="0.0108115452" flag="0"/>
      <psa30 value="0.0010478380" flag="0"/>
    </comp>
  </station>
  <station code="PLEV" name="PLEV" netid="HP" insttype="Compact," lat="38.4124" lon="21.4073">
    <comp name="--.HHN">
      <acc value="0.0211117952" flag="0"/>
      <vel value="0.0101319018" flag="0"/>
      <psa03 value="0.0475660116" flag="0"/>
      <psa10 value="0.0072422209" flag="0"/>
      <psa30 value="0.0005273070" flag="0"/>
    </comp>
    <comp name="--.HHE">
      <acc value="0.0324068972" flag="0"/>
      <vel value="0.0134881469" flag="0"/>
      <psa03 value="0.0950084663" flag="0"/>
      <psa10 value="0.0076928914" flag="0"/>
      <psa30 value="0.0005532046" flag="0"/>
    </comp>
    <comp name="--.HHZ">
      <acc value="0.0174057556" flag="0"/>
      <vel value="0.0090230989" flag="0"/>
      <psa03 value="0.0327299101" flag="0"/>
      <psa10 value="0.0056279802" flag="0"/>
      <psa30 value="0.0004971711" flag="0"/>
    </comp>
  </station>
  <station code="PVO" name="PVO" netid="HP" insttype="120P," lat="38.616" lon="21.525">
    <comp name="--.HHN">
      <acc value="0.0487615691" flag="0"/>
      <vel value="0.0234638801" flag="0"/>
      <psa03 value="0.1417438863" flag="0"/>
      <psa10 value="0.0103595316" flag="0"/>
      <psa30 value="0.0006257550" flag="0"/>
    </comp>
    <comp name="--.HHZ">
      <acc value="0.0212951269" flag="0"/>
      <vel value="0.0075787120" flag="0"/>
      <psa03 value="0.0536987860" flag="0"/>
      <psa10 value="0.0086832585" flag="0"/>
      <psa30 value="0.0004352900" flag="0"/>
    </comp>
    <comp name="--.HHE">
      <acc value="0.0644242702" flag="0"/>
      <vel value="0.0364163696" flag="0"/>
      <psa03 value="0.1984591480" flag="0"/>
      <psa10 value="0.0144112727" flag="0"/>
      <psa30 value="0.0010159092" flag="0"/>
    </comp>
  </station>
  <station code="UPR" name="UPR" netid="HP" insttype="120" lat="38.2836" lon="21.7864">
    <comp name="--.HHE">
      <acc value="0.0589801876" flag="0"/>
      <vel value="0.0172987316" flag="0"/>
      <psa03 value="0.0882314958" flag="0"/>
      <psa10 value="0.0134942877" flag="0"/>
      <psa30 value="0.0011281023" flag="0"/>
    </comp>
    <comp name="--.HHN">
      <acc value="0.0506614459" flag="0"/>
      <vel value="0.0215141550" flag="0"/>
      <psa03 value="0.0736233079" flag="0"/>
      <psa10 value="0.0122847528" flag="0"/>
      <psa30 value="0.0011437711" flag="0"/>
    </comp>
    <comp name="--.HHZ">
      <acc value="0.0349461997" flag="0"/>
      <vel value="0.0125398442" flag="0"/>
      <psa03 value="0.0676534588" flag="0"/>
      <psa10 value="0.0119899356" flag="0"/>
      <psa30 value="0.0005888456" flag="0"/>
    </comp>
  </station>
  <station code="VVK" name="VVK" netid="HP" insttype="40," lat="38.4222" lon="21.8115">
    <comp name="--.HHN">
      <acc value="0.0135422926" flag="0"/>
      <vel value="0.0053021853" flag="0"/>
      <psa03 value="0.0336761711" flag="0"/>
      <psa10 value="0.0026661849" flag="0"/>
      <psa30 value="0.0003730333" flag="0"/>
    </comp>
    <comp name="--.HHE">
      <acc value="0.0170697740" flag="0"/>
      <vel value="0.0068578271" flag="0"/>
      <psa03 value="0.0374480210" flag="0"/>
      <psa10 value="0.0043055941" flag="0"/>
      <psa30 value="0.0003676822" flag="0"/>
    </comp>
    <comp name="--.HHZ">
      <acc value="0.0125151043" flag="0"/>
      <vel value="0.0037657522" flag="0"/>
      <psa03 value="0.0183381226" flag="0"/>
      <psa10 value="0.0018561393" flag="0"/>
      <psa30 value="0.0002268539" flag="0"/>
    </comp>
  </station>
  <station code="DMLN" name="DMLN" netid="HT" insttype="1s-100Hz," lat="38.2385" lon="20.3734">
    <comp name="--.HHE">
      <acc value="0.1376997312" flag="0"/>
      <vel value="0.0473373791" flag="0"/>
      <psa03 value="0.1402652655" flag="0"/>
      <psa10 value="0.0512345457" flag="0"/>
      <psa30 value="0.0045885824" flag="0"/>
    </comp>
    <comp name="--.HHZ">
      <acc value="0.1009745021" flag="0"/>
      <vel value="0.0283088735" flag="0"/>
      <psa03 value="0.0851524899" flag="0"/>
      <psa10 value="0.0225472461" flag="0"/>
      <psa30 value="0.0034603452" flag="0"/>
    </comp>
    <comp name="--.HHN">
      <acc value="0.1487088178" flag="0"/>
      <vel value="0.0505788893" flag="0"/>
      <psa03 value="0.1182743774" flag="0"/>
      <psa10 value="0.0222892383" flag="0"/>
      <psa30 value="0.0020835192" flag="0"/>
    </comp>
  </station>
  <station code="DRAG" name="DRAG" netid="HT" insttype="1s-100Hz," lat="38.6839" lon="20.5746">
    <comp name="--.HHN">
      <acc value="0.2355837594" flag="0"/>
      <vel value="0.0395173594" flag="0"/>
      <psa03 value="0.1564408313" flag="0"/>
      <psa10 value="0.0211429674" flag="0"/>
      <psa30 value="0.0007898566" flag="0"/>
    </comp>
    <comp name="--.HHE">
      <acc value="0.2069406402" flag="0"/>
      <vel value="0.0567884927" flag="0"/>
      <psa03 value="0.4173723935" flag="0"/>
      <psa10 value="0.0205957018" flag="0"/>
      <psa30 value="0.0014897054" flag="0"/>
    </comp>
    <comp name="--.HHZ">
      <acc value="0.0915840344" flag="0"/>
      <vel value="0.0163109481" flag="0"/>
      <psa03 value="0.0638778556" flag="0"/>
      <psa10 value="0.0069961983" flag="0"/>
      <psa30 value="0.0006789319" flag="0"/>
    </comp>
  </station>
  <station code="EVGI" name="EVGI" netid="HT" insttype="30" lat="38.621" lon="20.656">
    <comp name="--.HHN">
      <acc value="0.1657754999" flag="0"/>
      <vel value="0.0386408474" flag="0"/>
      <psa03 value="0.1867367394" flag="0"/>
      <psa10 value="0.0098802076" flag="0"/>
      <psa30 value="0.0007642715" flag="0"/>
    </comp>
    <comp name="--.HHZ">
      <acc value="0.1852086145" flag="0"/>
      <vel value="0.0248716837" flag="0"/>
      <psa03 value="0.1094211859" flag="0"/>
      <psa10 value="0.0103362448" flag="0"/>
      <psa30 value="0.0006612823" flag="0"/>
    </comp>
    <comp name="--.HHE">
      <acc value="0.2510075590" flag="0"/>
      <vel value="0.0367683449" flag="0"/>
      <psa03 value="0.0818048655" flag="0"/>
      <psa10 value="0.0088263734" flag="0"/>
      <psa30 value="0.0005138539" flag="0"/>
    </comp>
  </station>
  <station code="LKD2" name="LKD2" netid="HT" insttype="100" lat="38.7889" lon="20.6578">
    <comp name="--.HHE">
      <acc value="0.0409440842" flag="0"/>
      <vel value="0.0106759298" flag="0"/>
      <psa03 value="0.0595190263" flag="0"/>
      <psa10 value="0.0077593364" flag="0"/>
      <psa30 value="0.0006379452" flag="0"/>
    </comp>
    <comp name="--.HHN">
      <acc value="0.0225876991" flag="0"/>
      <vel value="0.0088842014" flag="0"/>
      <psa03 value="0.0432753411" flag="0"/>
      <psa10 value="0.0070764759" flag="0"/>
      <psa30 value="0.0005641824" flag="0"/>
    </comp>
    <comp name="--.HHZ">
      <acc value="0.0177730538" flag="0"/>
      <vel value="0.0044033038" flag="0"/>
      <psa03 value="0.0244525869" flag="0"/>
      <psa10 value="0.0034891385" flag="0"/>
      <psa30 value="0.0003080379" flag="0"/>
    </comp>
  </station>
  <station code="NYDR" name="NYDR" netid="HT" insttype="1s-100Hz," lat="38.7135" lon="20.6983">
    <comp name="--.HHN">
      <acc value="0.0553123230" flag="0"/>
      <vel value="0.0111384122" flag="0"/>
      <psa03 value="0.0534725167" flag="0"/>
      <psa10 value="0.0074787011" flag="0"/>
      <psa30 value="0.0003391188" flag="0"/>
    </comp>
    <comp name="--.HHZ">
      <acc value="0.0223659278" flag="0"/>
      <vel value="0.0051117401" flag="0"/>
      <psa03 value="0.0313722266" flag="0"/>
      <psa10 value="0.0050286540" flag="0"/>
      <psa30 value="0.0003370892" flag="0"/>
    </comp>
    <comp name="--.HHE">
      <acc value="0.0486912366" flag="0"/>
      <vel value="0.0071936329" flag="0"/>
      <psa03 value="0.0367828756" flag="0"/>
      <psa10 value="0.0072607386" flag="0"/>
      <psa30 value="0.0005269204" flag="0"/>
    </comp>
  </station>
  <station code="PSDA" name="PSDA" netid="HT" insttype="30" lat="38.114" lon="20.5841">
    <comp name="--.HHE">
      <acc value="0.6461831635" flag="0"/>
      <vel value="0.0984262321" flag="0"/>
      <psa03 value="0.3670966028" flag="0"/>
      <psa10 value="0.0300669549" flag="0"/>
      <psa30 value="0.0022049118" flag="0"/>
    </comp>
    <comp name="--.HHZ">
      <acc value="0.3445367921" flag="0"/>
      <vel value="0.0558460578" flag="0"/>
      <psa03 value="0.1605747054" flag="0"/>
      <psa10 value="0.0533224335" flag="0"/>
      <psa30 value="0.0043931377" flag="0"/>
    </comp>
    <comp name="--.HHN">
      <acc value="0.4695076697" flag="0"/>
      <vel value="0.0948637823" flag="0"/>
      <psa03 value="0.2714110861" flag="0"/>
      <psa10 value="0.0185700818" flag="0"/>
      <psa30 value="0.0016261153" flag="0"/>
    </comp>
  </station>
  <station code="RTZL" name="RTZL" netid="HT" insttype="Compact," lat="38.076" lon="20.7715">
    <comp name="--.HHZ">
      <acc value="0.2812743562" flag="0"/>
      <vel value="0.0899808903" flag="0"/>
      <psa03 value="0.2779894462" flag="0"/>
      <psa10 value="0.0310667337" flag="0"/>
      <psa30 value="0.0019396843" flag="0"/>
    </comp>
    <comp name="--.HHE">
      <acc value="0.4839422968" flag="0"/>
      <vel value="0.1255924398" flag="0"/>
      <psa03 value="0.3390565594" flag="0"/>
      <psa10 value="0.0419890874" flag="0"/>
      <psa30 value="0.0028448288" flag="0"/>
    </comp>
    <comp name="--.HHN">
      <acc value="0.6868252962" flag="0"/>
      <vel value="0.1329882718" flag="0"/>
      <psa03 value="0.5731992971" flag="0"/>
      <psa10 value="0.0614968310" flag="0"/>
      <psa30 value="0.0043498970" flag="0"/>
    </comp>
  </station>
  <station code="TSLK" name="TSLK" netid="HT" insttype="1s-100Hz," lat="38.8249" lon="20.6554">
    <comp name="--.HHN">
      <acc value="0.0181989760" flag="0"/>
      <vel value="0.0079192714" flag="0"/>
      <psa03 value="0.0690932843" flag="0"/>
      <psa10 value="0.0117423334" flag="0"/>
      <psa30 value="0.0005426102" flag="0"/>
    </comp>
    <comp name="--.HHE">
      <acc value="0.0177138855" flag="0"/>
      <vel value="0.0071005327" flag="0"/>
      <psa03 value="0.0393121442" flag="0"/>
      <psa10 value="0.0105802599" flag="0"/>
      <psa30 value="0.0009428072" flag="0"/>
    </comp>
    <comp name="--.HHZ">
      <acc value="0.0158021650" flag="0"/>
      <vel value="0.0045712237" flag="0"/>
      <psa03 value="0.0238981699" flag="0"/>
      <psa10 value="0.0040951881" flag="0"/>
      <psa30 value="0.0007022821" flag="0"/>
    </comp>
  </station>
</stationlist>
