<?xml version="1.0" encoding="UTF-8" standalone="yes"?>
<!DOCTYPE earthquake SYSTEM "stationlist.dtd">
<stationlist created="" xmlns="ch.ethz.sed.shakemap.usgs.xml">
  <station code="BLKB" name="BLKB" netid="BS" insttype="Seismometer/Basalt" lat="43.6227" lon="22.675">
    <comp name="--.HHE">
      <acc value="0.5164316006" flag="0"/>
      <vel value="0.2170796791" flag="0"/>
      <psa03 value="0.5186240402" flag="0"/>
      <psa10 value="0.2020326353" flag="0"/>
      <psa30 value="0.0378943961" flag="0"/>
    </comp>
    <comp name="--.HHN">
      <acc value="0.4354830616" flag="0"/>
      <vel value="0.1181675936" flag="0"/>
      <psa03 value="0.4806832386" flag="0"/>
      <psa10 value="0.1225028817" flag="0"/>
      <psa30 value="0.0202526759" flag="0"/>
    </comp>
    <comp name="--.HHZ">
      <acc value="0.2867675380" flag="0"/>
      <vel value="0.1028134670" flag="0"/>
      <psa03 value="0.5431375585" flag="0"/>
      <psa10 value="0.1034266742" flag="0"/>
      <psa30 value="0.0227149784" flag="0"/>
    </comp>
  </station>
  <station code="MNNAM" name="MNNAM" netid="BS" insttype="200" lat="43.4111" lon="23.2262">
    <comp name="--.HNZ">
      <acc value="0.2549154340" flag="0"/>
      <vel value="0.1868737341" flag="0"/>
      <psa03 value="0.4549346870" flag="0"/>
      <psa10 value="0.2536935332" flag="0"/>
      <psa30 value="0.0491686471" flag="0"/>
    </comp>
    <comp name="--.HNE">
      <acc value="0.3534209343" flag="0"/>
      <vel value="0.1985934145" flag="0"/>
      <psa03 value="0.8575888725" flag="0"/>
      <psa10 value="0.3404624369" flag="0"/>
      <psa30 value="0.0444253646" flag="0"/>
    </comp>
    <comp name="--.HNN">
      <acc value="0.2988502022" flag="0"/>
      <vel value="0.2514386626" flag="0"/>
      <psa03 value="0.6514027658" flag="0"/>
      <psa10 value="0.3238248002" flag="0"/>
      <psa30 value="0.0583733074" flag="0"/>
    </comp>
  </station>
  <station code="PLVAM" name="PLVAM" netid="BS" insttype="200" lat="43.9523" lon="22.8502">
    <comp name="--.HNE">
      <acc value="1.2742319192" flag="0"/>
      <vel value="0.7174918810" flag="0"/>
      <psa03 value="2.1330520399" flag="0"/>
      <psa10 value="0.6618621712" flag="0"/>
      <psa30 value="0.1926151211" flag="0"/>
    </comp>
    <comp name="--.HNN">
      <acc value="1.0098182394" flag="0"/>
      <vel value="0.7924912462" flag="0"/>
      <psa03 value="3.9446396455" flag="0"/>
      <psa10 value="0.8720360083" flag="0"/>
      <psa30 value="0.1457268264" flag="0"/>
    </comp>
    <comp name="--.HNZ">
      <acc value="0.8473107525" flag="0"/>
      <vel value="0.3376618463" flag="0"/>
      <psa03 value="1.8531014395" flag="0"/>
      <psa10 value="0.2541704364" flag="0"/>
      <psa30 value="0.0616236609" flag="0"/>
    </comp>
  </station>
  <station code="BZS" name="BZS" netid="MN" insttype="" lat="45.6188" lon="21.6401">
    <comp name="--.HHE">
      <acc value="0.8542746668" flag="0"/>
      <vel value="0.3108760909" flag="0"/>
      <psa03 value="2.2919905155" flag="0"/>
      <psa10 value="0.1466390063" flag="0"/>
      <psa30 value="0.0379885480" flag="0"/>
    </comp>
    <comp name="--.HHN">
      <acc value="0.7050347444" flag="0"/>
      <vel value="0.3828595951" flag="0"/>
      <psa03 value="1.5524191343" flag="0"/>
      <psa10 value="0.3294231058" flag="0"/>
      <psa30 value="0.0711277477" flag="0"/>
    </comp>
    <comp name="--.HHZ">
      <acc value="0.8216462250" flag="0"/>
      <vel value="0.4543937468" flag="0"/>
      <psa03 value="1.6947648890" flag="0"/>
      <psa10 value="0.4073141807" flag="0"/>
      <psa30 value="0.0395163563" flag="0"/>
    </comp>
  </station>
  <station code="ARR" name="ARR" netid="RO" insttype="w/attenuator" lat="45.3657" lon="24.6332">
    <comp name="--.HHN">
      <acc value="0.1527506119" flag="0"/>
      <vel value="0.1039346327" flag="0"/>
      <psa03 value="0.4482530716" flag="0"/>
      <psa10 value="0.0860402454" flag="0"/>
      <psa30 value="0.0105480750" flag="0"/>
    </comp>
    <comp name="--.HHZ">
      <acc value="0.0814779983" flag="0"/>
      <vel value="0.0448700524" flag="0"/>
      <psa03 value="0.1855485269" flag="0"/>
      <psa10 value="0.0397248630" flag="0"/>
      <psa30 value="0.0051207596" flag="0"/>
    </comp>
    <comp name="--.HHE">
      <acc value="0.0994907417" flag="0"/>
      <vel value="0.0593869042" flag="0"/>
      <psa03 value="0.2658482652" flag="0"/>
      <psa10 value="0.0829364384" flag="0"/>
      <psa30 value="0.0068365911" flag="0"/>
    </comp>
  </station>
  <station code="BAIL" name="BAIL" netid="RO" insttype="Seismometer/Basalt" lat="44.0201" lon="23.345">
    <comp name="--.HHE">
      <acc value="0.5340587455" flag="0"/>
      <vel value="0.3140922096" flag="0"/>
      <psa03 value="1.6928210062" flag="0"/>
      <psa10 value="0.4611636014" flag="0"/>
      <psa30 value="0.1013908488" flag="0"/>
    </comp>
    <comp name="--.HHN">
      <acc value="0.6021524909" flag="0"/>
      <vel value="0.3882189173" flag="0"/>
      <psa03 value="2.0556436256" flag="0"/>
      <psa10 value="0.3483438872" flag="0"/>
      <psa30 value="0.1315994353" flag="0"/>
    </comp>
    <comp name="--.HHZ">
      <acc value="0.2532095217" flag="0"/>
      <vel value="0.1618461776" flag="0"/>
      <psa03 value="0.4295058356" flag="0"/>
      <psa10 value="0.1306581151" flag="0"/>
      <psa30 value="0.0874518364" flag="0"/>
    </comp>
  </station>
  <station code="BANR" name="BANR" netid="RO" insttype="330" lat="45.3828" lon="21.137">
    <comp name="--.HHE">
      <acc value="3.4236544041" flag="0"/>
      <vel value="5.5389779538" flag="0"/>
      <psa03 value="7.9934737693" flag="0"/>
      <psa10 value="4.9805951562" flag="0"/>
      <psa30 value="1.6167368176" flag="0"/>
    </comp>
    <comp name="--.HHZ">
      <acc value="1.3116169413" flag="0"/>
      <vel value="1.1527132942" flag="0"/>
      <psa03 value="2.2986050794" flag="0"/>
      <psa10 value="1.6325791210" flag="0"/>
      <psa30 value="0.8616041592" flag="0"/>
    </comp>
    <comp name="--.HHN">
      <acc value="3.3374371731" flag="0"/>
      <vel value="3.6668442859" flag="0"/>
      <psa03 value="9.0510537165" flag="0"/>
      <psa10 value="4.4448110504" flag="0"/>
      <psa30 value="1.2592839551" flag="0"/>
    </comp>
  </station>
  <station code="BZS" name="BZS" netid="RO" insttype="w/attenuator" lat="45.6188" lon="21.6401">
    <comp name="--.HHZ">
      <acc value="0.6184257219" flag="0"/>
      <vel value="0.3399171053" flag="0"/>
      <psa03 value="1.2667805717" flag="0"/>
      <psa10 value="0.3041843496" flag="0"/>
      <psa30 value="0.0296947538" flag="0"/>
    </comp>
    <comp name="--.HHE">
      <acc value="0.6450127296" flag="0"/>
      <vel value="0.2321070683" flag="0"/>
      <psa03 value="1.7141248926" flag="0"/>
      <psa10 value="0.1098149231" flag="0"/>
      <psa30 value="0.0286833081" flag="0"/>
    </comp>
    <comp name="--.HHN">
      <acc value="0.5250199593" flag="0"/>
      <vel value="0.2850823570" flag="0"/>
      <psa03 value="1.1683068452" flag="0"/>
      <psa10 value="0.2477136261" flag="0"/>
      <psa30 value="0.0522300659" flag="0"/>
    </comp>
  </station>
  <station code="CBBR" name="CBBR" netid="RO" insttype="200" lat="46.7683" lon="23.5501">
    <comp name="--.HNE">
      <acc value="0.1504660356" flag="0"/>
      <vel value="0.1003873496" flag="0"/>
      <psa03 value="0.2594484230" flag="0"/>
      <psa10 value="0.0816668551" flag="0"/>
      <psa30 value="0.0213102219" flag="0"/>
    </comp>
    <comp name="--.HNN">
      <acc value="0.1844241419" flag="0"/>
      <vel value="0.0821565227" flag="0"/>
      <psa03 value="0.4602962522" flag="0"/>
      <psa10 value="0.0964362353" flag="0"/>
      <psa30 value="0.0114757132" flag="0"/>
    </comp>
    <comp name="--.HNZ">
      <acc value="0.0777057396" flag="0"/>
      <vel value="0.0677881888" flag="0"/>
      <psa03 value="0.1242383567" flag="0"/>
      <psa10 value="0.0668884924" flag="0"/>
      <psa30 value="0.0065861135" flag="0"/>
    </comp>
  </station>
  <station code="CJR" name="CJR" netid="RO" insttype="w/attenuator" lat="46.7133" lon="23.5981">
    <comp name="--.HHE">
      <acc value="0.2717196599" flag="0"/>
      <vel value="0.2092478392" flag="0"/>
      <psa03 value="0.9095172906" flag="0"/>
      <psa10 value="0.1696846472" flag="0"/>
      <psa30 value="0.0483146358" flag="0"/>
    </comp>
    <comp name="--.HHZ">
      <acc value="0.1731725971" flag="0"/>
      <vel value="0.0821515890" flag="0"/>
      <psa03 value="0.5007814256" flag="0"/>
      <psa10 value="0.1461628665" flag="0"/>
      <psa30 value="0.0086658361" flag="0"/>
    </comp>
    <comp name="--.HHN">
      <acc value="0.3619396285" flag="0"/>
      <vel value="0.1710998272" flag="0"/>
      <psa03 value="0.7512385246" flag="0"/>
      <psa10 value="0.1706238597" flag="0"/>
      <psa30 value="0.0504022324" flag="0"/>
    </comp>
  </station>
  <station code="CRAR" name="CRAR" netid="RO" insttype="MBB2/Quanterra" lat="44.325" lon="23.7999">
    <comp name="--.HHE">
      <acc value="0.8570643777" flag="0"/>
      <vel value="0.5933136685" flag="0"/>
      <psa03 value="1.9332946232" flag="0"/>
      <psa10 value="0.5442453349" flag="0"/>
      <psa30 value="0.1562040614" flag="0"/>
    </comp>
    <comp name="--.HHZ">
      <acc value="0.6273831431" flag="0"/>
      <vel value="0.1588889792" flag="0"/>
      <psa03 value="0.5722000925" flag="0"/>
      <psa10 value="0.1787344724" flag="0"/>
      <psa30 value="0.0414304683" flag="0"/>
    </comp>
    <comp name="--.HHN">
      <acc value="0.5698681666" flag="0"/>
      <vel value="0.4049299599" flag="0"/>
      <psa03 value="1.5465959378" flag="0"/>
      <psa10 value="0.2817625219" flag="0"/>
      <psa30 value="0.1269403276" flag="0"/>
    </comp>
  </station>
  <station code="CRBR" name="CRBR" netid="RO" insttype="200" lat="45.4108" lon="22.2383">
    <comp name="--.HNE">
      <acc value="1.1138241778" flag="0"/>
      <vel value="0.5214403293" flag="0"/>
      <psa03 value="1.5823686149" flag="0"/>
      <psa10 value="0.7282674604" flag="0"/>
      <psa30 value="0.1631305259" flag="0"/>
    </comp>
    <comp name="--.HNN">
      <acc value="1.4116665466" flag="0"/>
      <vel value="0.4702714219" flag="0"/>
      <psa03 value="1.7532053075" flag="0"/>
      <psa10 value="0.7278827265" flag="0"/>
      <psa30 value="0.1143521957" flag="0"/>
    </comp>
    <comp name="--.HNZ">
      <acc value="0.5696629457" flag="0"/>
      <vel value="0.3293912445" flag="0"/>
      <psa03 value="0.7199429269" flag="0"/>
      <psa10 value="0.5623783512" flag="0"/>
      <psa30 value="0.0643377397" flag="0"/>
    </comp>
  </station>
  <station code="DEV" name="DEV" netid="RO" insttype="CMG40T.1to100/Quanterra" lat="45.887" lon="22.898">
    <comp name="--.HHE">
      <acc value="1.7860903904" flag="0"/>
      <vel value="0.4473896111" flag="0"/>
      <psa03 value="1.2583365703" flag="0"/>
      <psa10 value="0.3950649921" flag="0"/>
      <psa30 value="0.0199896661" flag="0"/>
    </comp>
    <comp name="--.HHN">
      <acc value="1.9169102600" flag="0"/>
      <vel value="0.6596568070" flag="0"/>
      <psa03 value="2.8782749338" flag="0"/>
      <psa10 value="0.2023429138" flag="0"/>
      <psa30 value="0.0260975355" flag="0"/>
    </comp>
    <comp name="--.HHZ">
      <acc value="1.7351686150" flag="0"/>
      <vel value="0.4467969828" flag="0"/>
      <psa03 value="1.0004433926" flag="0"/>
      <psa10 value="0.2154221191" flag="0"/>
      <psa30 value="0.0195317500" flag="0"/>
    </comp>
  </station>
  <station code="DRGR" name="DRGR" netid="RO" insttype="330" lat="46.7917" lon="22.7111">
    <comp name="--.HHE">
      <acc value="0.1317091666" flag="0"/>
      <vel value="0.0522607332" flag="0"/>
      <psa03 value="0.2656206064" flag="0"/>
      <psa10 value="0.0507928739" flag="0"/>
      <psa30 value="0.0081775052" flag="0"/>
    </comp>
    <comp name="--.HHZ">
      <acc value="0.1174439726" flag="0"/>
      <vel value="0.0503890971" flag="0"/>
      <psa03 value="0.2095563174" flag="0"/>
      <psa10 value="0.0609297002" flag="0"/>
      <psa30 value="0.0169340874" flag="0"/>
    </comp>
    <comp name="--.HHN">
      <acc value="0.0941627482" flag="0"/>
      <vel value="0.0447634783" flag="0"/>
      <psa03 value="0.2800571063" flag="0"/>
      <psa10 value="0.0418640039" flag="0"/>
      <psa30 value="0.0062612078" flag="0"/>
    </comp>
  </station>
  <station code="GZR" name="GZR" netid="RO" insttype="200" lat="45.3933" lon="22.7767">
    <comp name="--.HNZ">
      <acc value="4.9956335918" flag="0"/>
      <vel value="1.7773645797" flag="0"/>
      <psa03 value="5.1005136477" flag="0"/>
      <psa10 value="0.7506026774" flag="0"/>
      <psa30 value="0.1042725768" flag="0"/>
    </comp>
    <comp name="--.HNE">
      <acc value="9.1061916451" flag="0"/>
      <vel value="2.0528445056" flag="0"/>
      <psa03 value="7.4849521723" flag="0"/>
      <psa10 value="0.6854886718" flag="0"/>
      <psa30 value="0.1180455377" flag="0"/>
    </comp>
    <comp name="--.HNN">
      <acc value="10.7463938874" flag="0"/>
      <vel value="3.7456940054" flag="0"/>
      <psa03 value="16.7000169078" flag="0"/>
      <psa10 value="1.2456875698" flag="0"/>
      <psa30 value="0.0842949440" flag="0"/>
    </comp>
  </station>
  <station code="HERR" name="HERR" netid="RO" insttype="CMG40T.1to100/Quanterra" lat="44.881" lon="22.416">
    <comp name="--.HHN">
      <acc value="3.5424433498" flag="0"/>
      <vel value="0.7143645278" flag="0"/>
      <psa03 value="2.7808489065" flag="0"/>
      <psa10 value="0.1795306764" flag="0"/>
      <psa30 value="0.0256812645" flag="0"/>
    </comp>
    <comp name="--.HHE">
      <acc value="2.6607903760" flag="0"/>
      <vel value="0.4927365957" flag="0"/>
      <psa03 value="1.3607306589" flag="0"/>
      <psa10 value="0.2112247739" flag="0"/>
      <psa30 value="0.0442446763" flag="0"/>
    </comp>
    <comp name="--.HHZ">
      <acc value="1.4153717161" flag="0"/>
      <vel value="0.2373455127" flag="0"/>
      <psa03 value="0.5947153568" flag="0"/>
      <psa10 value="0.1411630185" flag="0"/>
      <psa30 value="0.0185639100" flag="0"/>
    </comp>
  </station>
  <station code="HUMR" name="HUMR" netid="RO" insttype="Seismometer/Quanterra" lat="44.5281" lon="24.9804">
    <comp name="--.HHE">
      <acc value="0.2215017792" flag="0"/>
      <vel value="0.1324336590" flag="0"/>
      <psa03 value="0.5236579293" flag="0"/>
      <psa10 value="0.1282419184" flag="0"/>
      <psa30 value="0.0591613704" flag="0"/>
    </comp>
    <comp name="--.HHZ">
      <acc value="0.1602512957" flag="0"/>
      <vel value="0.0576195742" flag="0"/>
      <psa03 value="0.2410741094" flag="0"/>
      <psa10 value="0.0654270450" flag="0"/>
      <psa30 value="0.0166120714" flag="0"/>
    </comp>
    <comp name="--.HHN">
      <acc value="0.4320928120" flag="0"/>
      <vel value="0.1174290620" flag="0"/>
      <psa03 value="0.5448462725" flag="0"/>
      <psa10 value="0.0987049344" flag="0"/>
      <psa30 value="0.0457828229" flag="0"/>
    </comp>
  </station>
  <station code="LOT" name="LOT" netid="RO" insttype="330" lat="45.446" lon="23.7698">
    <comp name="--.HHN">
      <acc value="1.4031337132" flag="0"/>
      <vel value="0.4875549426" flag="0"/>
      <psa03 value="2.6679737653" flag="0"/>
      <psa10 value="0.2578173735" flag="0"/>
      <psa30 value="0.0243593551" flag="0"/>
    </comp>
    <comp name="--.HHE">
      <acc value="1.6009478932" flag="0"/>
      <vel value="0.4691095541" flag="0"/>
      <psa03 value="2.5425189409" flag="0"/>
      <psa10 value="0.1998388401" flag="0"/>
      <psa30 value="0.0267294210" flag="0"/>
    </comp>
    <comp name="--.HHZ">
      <acc value="1.0969235880" flag="0"/>
      <vel value="0.2659351762" flag="0"/>
      <psa03 value="1.2877379953" flag="0"/>
      <psa10 value="0.1179606624" flag="0"/>
      <psa30 value="0.0138154735" flag="0"/>
    </comp>
  </station>
  <station code="MARR" name="MARR" netid="RO" insttype="CMG40T.1to100/obsidian" lat="46.676" lon="23.1189">
    <comp name="--.HHE">
      <acc value="0.2298927821" flag="0"/>
      <vel value="0.0669394070" flag="0"/>
      <psa03 value="0.3692414510" flag="0"/>
      <psa10 value="0.0910180925" flag="0"/>
      <psa30 value="0.0083764173" flag="0"/>
    </comp>
    <comp name="--.HHN">
      <acc value="0.4210481687" flag="0"/>
      <vel value="0.1119928552" flag="0"/>
      <psa03 value="0.5954794775" flag="0"/>
      <psa10 value="0.0491574433" flag="0"/>
      <psa30 value="0.0110987398" flag="0"/>
    </comp>
    <comp name="--.HHZ">
      <acc value="0.1746511508" flag="0"/>
      <vel value="0.1136600721" flag="0"/>
      <psa03 value="0.3391707274" flag="0"/>
      <psa10 value="0.0768175087" flag="0"/>
      <psa30 value="0.0121438777" flag="0"/>
    </comp>
  </station>
  <station code="MDB" name="MDB" netid="RO" insttype="MBB2/Quanterra" lat="46.1497" lon="24.3765">
    <comp name="--.HHE">
      <acc value="0.3340243285" flag="0"/>
      <vel value="0.2108516756" flag="0"/>
      <psa03 value="0.7328253177" flag="0"/>
      <psa10 value="0.2500812282" flag="0"/>
      <psa30 value="0.0384956480" flag="0"/>
    </comp>
    <comp name="--.HHN">
      <acc value="0.3441074855" flag="0"/>
      <vel value="0.2183715471" flag="0"/>
      <psa03 value="1.1762457504" flag="0"/>
      <psa10 value="0.1418873611" flag="0"/>
      <psa30 value="0.0396261386" flag="0"/>
    </comp>
    <comp name="--.HHZ">
      <acc value="0.1763066620" flag="0"/>
      <vel value="0.1228642083" flag="0"/>
      <psa03 value="0.5735018913" flag="0"/>
      <psa10 value="0.1322440613" flag="0"/>
      <psa30 value="0.0213184041" flag="0"/>
    </comp>
  </station>
  <station code="MHISU" name="MHISU" netid="RO" insttype="200" lat="44.6227" lon="22.6535">
    <comp name="--.HNE">
      <acc value="2.4555631659" flag="0"/>
      <vel value="1.3216299656" flag="0"/>
      <psa03 value="5.9155695424" flag="0"/>
      <psa10 value="1.4529025188" flag="0"/>
      <psa30 value="0.4517026258" flag="0"/>
    </comp>
    <comp name="--.HNZ">
      <acc value="1.2403306131" flag="0"/>
      <vel value="0.5068841845" flag="0"/>
      <psa03 value="3.1885607698" flag="0"/>
      <psa10 value="0.6573909994" flag="0"/>
      <psa30 value="0.0657012447" flag="0"/>
    </comp>
    <comp name="--.HNN">
      <acc value="1.7485035508" flag="0"/>
      <vel value="1.1249179961" flag="0"/>
      <psa03 value="6.4940040863" flag="0"/>
      <psa10 value="1.3570781023" flag="0"/>
      <psa30 value="0.1557366601" flag="0"/>
    </comp>
  </station>
  <station code="MTUR" name="MTUR" netid="RO" insttype="200" lat="45.2349" lon="25.0739">
    <comp name="--.HNE">
      <acc value="0.2259345904" flag="0"/>
      <vel value="0.1572978304" flag="0"/>
      <psa03 value="0.5625609077" flag="0"/>
      <psa10 value="0.1379453722" flag="0"/>
      <psa30 value="0.0257561119" flag="0"/>
    </comp>
    <comp name="--.HNN">
      <acc value="0.3380461603" flag="0"/>
      <vel value="0.1968379548" flag="0"/>
      <psa03 value="1.1070252580" flag="0"/>
      <psa10 value="0.2330348778" flag="0"/>
      <psa30 value="0.0235357175" flag="0"/>
    </comp>
    <comp name="--.HNZ">
      <acc value="0.1412596038" flag="0"/>
      <vel value="0.0722310391" flag="0"/>
      <psa03 value="0.4263266705" flag="0"/>
      <psa10 value="0.0869438693" flag="0"/>
      <psa30 value="0.0121610377" flag="0"/>
    </comp>
  </station>
  <station code="OTISU" name="OTISU" netid="RO" insttype="200" lat="44.4278" lon="24.3755">
    <comp name="--.HNE">
      <acc value="0.7515203209" flag="0"/>
      <vel value="0.2843546403" flag="0"/>
      <psa03 value="1.4296419140" flag="0"/>
      <psa10 value="0.2482174071" flag="0"/>
      <psa30 value="0.0517543374" flag="0"/>
    </comp>
    <comp name="--.HNN">
