<stationlist created="1778069636">
	<station code="ARPRA" name="ARPRA" netid="KO" source="Bogazici University Kandilli Observatory And Earthquake Research Institute (KOERI)" insttype="" lat="39.0929" lon="38.3356">
		<comp name="--.HNE" depth="0.0">
			<acc value="0.131484132138531" flag="0"/>
			<vel value="0.206275730343979" flag="0"/>
			<psa03 value="0.231093497183374" flag="0"/>
			<psa10 value="0.170752367649708" flag="0"/>
			<psa30 value="0.0885251403266478" flag="0"/>
		</comp>
		<comp name="--.HNN" depth="0.0">
			<acc value="0.131075924094604" flag="0"/>
			<vel value="0.360533821686904" flag="0"/>
			<psa03 value="0.269079630602286" flag="0"/>
			<psa10 value="0.272171317079609" flag="0"/>
			<psa30 value="0.129918392779542" flag="0"/>
		</comp>
		<comp name="--.HNZ" depth="0.0">
			<acc value="0.0887855606465959" flag="0"/>
			<vel value="0.169260749636888" flag="0"/>
			<psa03 value="0.146620211088077" flag="0"/>
			<psa10 value="0.2245665040819" flag="0"/>
			<psa30 value="0.0688663095827115" flag="0"/>
		</comp>
	</station>
	<station code="CHAY" name="CHAY" netid="KO" source="Bogazici University Kandilli Observatory And Earthquake Research Institute (KOERI)" insttype="" lat="41.0862" lon="40.7253">
		<comp name="--.HNE" depth="0.0">
			<acc value="0.603953200002243" flag="0"/>
			<vel value="1.50032130755596" flag="0"/>
			<psa03 value="0.91699152464148" flag="0"/>
			<psa10 value="1.77004777829165" flag="0"/>
			<psa30 value="0.777816416734683" flag="0"/>
		</comp>
		<comp name="--.HNN" depth="0.0">
			<acc value="0.912750089094753" flag="0"/>
			<vel value="1.45570481549138" flag="0"/>
			<psa03 value="1.51116802853213" flag="0"/>
			<psa10 value="1.87483313134751" flag="0"/>
			<psa30 value="0.217784927824769" flag="0"/>
		</comp>
		<comp name="--.HNZ" depth="0.0">
			<acc value="0.337863644366906" flag="0"/>
			<vel value="0.513088353756368" flag="0"/>
			<psa03 value="0.73292208661391" flag="0"/>
			<psa10 value="0.601881559292381" flag="0"/>
			<psa30 value="0.273404859716075" flag="0"/>
		</comp>
	</station>
	<station code="GUMT" name="GUMT" netid="KO" source="Bogazici University Kandilli Observatory And Earthquake Research Institute (KOERI)" insttype="" lat="40.4665" lon="39.478">
		<comp name="--.HNE" depth="0.0">
			<acc value="0.378795233783211" flag="0"/>
			<vel value="0.623571743262441" flag="0"/>
			<psa03 value="0.665271870207083" flag="0"/>
			<psa10 value="0.757231422313749" flag="0"/>
			<psa30 value="0.226737843369085" flag="0"/>
		</comp>
		<comp name="--.HNN" depth="0.0">
			<acc value="0.244106517797529" flag="0"/>
			<vel value="0.396894637638777" flag="0"/>
			<psa03 value="0.358787754871921" flag="0"/>
			<psa10 value="0.684153081399993" flag="0"/>
			<psa30 value="0.208240072886893" flag="0"/>
		</comp>
		<comp name="--.HNZ" depth="0.0">
			<acc value="0.311948461566068" flag="0"/>
			<vel value="0.479351487659158" flag="0"/>
			<psa03 value="0.473059350574987" flag="0"/>
			<psa10 value="0.779201635451585" flag="0"/>
			<psa30 value="0.168700490054194" flag="0"/>
		</comp>
	</station>
</stationlist>
