<?xml version="1.0" encoding="UTF-8" standalone="yes"?>
<!DOCTYPE earthquake SYSTEM "stationlist.dtd">
<stationlist created="" xmlns="ch.ethz.sed.shakemap.usgs.xml">
  <station code="AGRB" name="AGRB" netid="KO" insttype="120s," lat="39.5755" lon="42.992">
    <comp name="--.HHN">
      <acc value="0.1196076277" flag="0"/>
      <vel value="0.2161438940" flag="0"/>
      <psa03 value="0.1808356644" flag="0"/>
      <psa10 value="0.4085284934" flag="0"/>
      <psa30 value="0.0877783252" flag="0"/>
    </comp>
    <comp name="--.HHZ">
      <acc value="0.0689011949" flag="0"/>
      <vel value="0.1204837348" flag="0"/>
      <psa03 value="0.1159994642" flag="0"/>
      <psa10 value="0.2069003681" flag="0"/>
      <psa30 value="0.0678542768" flag="0"/>
    </comp>
    <comp name="--.HHE">
      <acc value="0.1683781778" flag="0"/>
      <vel value="0.2422008819" flag="0"/>
      <psa03 value="0.2361447223" flag="0"/>
      <psa10 value="0.3369316767" flag="0"/>
      <psa30 value="0.1206388586" flag="0"/>
    </comp>
  </station>
  <station code="CHAY" name="CHAY" netid="KO" insttype="100" lat="41.0918" lon="40.7253">
    <comp name="--.HNE">
      <acc value="0.6210188794" flag="0"/>
      <vel value="1.1071593242" flag="0"/>
      <psa03 value="0.9196390850" flag="0"/>
      <psa10 value="1.7730789819" flag="0"/>
      <psa30 value="0.7628397321" flag="0"/>
    </comp>
    <comp name="--.HNN">
      <acc value="0.9281624401" flag="0"/>
      <vel value="1.3597482546" flag="0"/>
      <psa03 value="1.5405154836" flag="0"/>
      <psa10 value="1.8713883585" flag="0"/>
      <psa30 value="0.2065922836" flag="0"/>
    </comp>
    <comp name="--.HNZ">
      <acc value="0.3390545327" flag="0"/>
      <vel value="0.4751361888" flag="0"/>
      <psa03 value="0.7332434411" flag="0"/>
      <psa10 value="0.6033118378" flag="0"/>
      <psa30 value="0.2617136068" flag="0"/>
    </comp>
  </station>
  <station code="GUMT" name="GUMT" netid="KO" insttype="100" lat="40.4675" lon="39.478">
    <comp name="--.HNE">
      <acc value="0.3763562031" flag="0"/>
      <vel value="0.4875710735" flag="0"/>
      <psa03 value="0.6597927566" flag="0"/>
      <psa10 value="0.7670303724" flag="0"/>
      <psa30 value="0.2118846646" flag="0"/>
    </comp>
    <comp name="--.HNN">
      <acc value="0.2408157397" flag="0"/>
      <vel value="0.4246526191" flag="0"/>
      <psa03 value="0.3586352820" flag="0"/>
      <psa10 value="0.6935071521" flag="0"/>
      <psa30 value="0.1974714279" flag="0"/>
    </comp>
    <comp name="--.HNZ">
      <acc value="0.3115767722" flag="0"/>
      <vel value="0.4602342138" flag="0"/>
      <psa03 value="0.4744874356" flag="0"/>
      <psa10 value="0.7794606105" flag="0"/>
      <psa30 value="0.1633732941" flag="0"/>
    </comp>
  </station>
  <station code="MLAZ" name="MLAZ" netid="KO" insttype="120s," lat="39.141" lon="42.5496">
    <comp name="--.HHE">
      <acc value="0.2230670178" flag="0"/>
      <vel value="0.4526490965" flag="0"/>
      <psa03 value="0.3760232700" flag="0"/>
      <psa10 value="0.5320478069" flag="0"/>
      <psa30 value="0.2142959636" flag="0"/>
    </comp>
    <comp name="--.HHZ">
      <acc value="0.1330576549" flag="0"/>
      <vel value="0.2387571755" flag="0"/>
      <psa03 value="0.2837317412" flag="0"/>
      <psa10 value="0.2976674995" flag="0"/>
      <psa30 value="0.0733762455" flag="0"/>
    </comp>
    <comp name="--.HHN">
      <acc value="0.2784745546" flag="0"/>
      <vel value="0.5841825793" flag="0"/>
      <psa03 value="0.4791431914" flag="0"/>
      <psa10 value="0.6162700250" flag="0"/>
      <psa30 value="0.2620598874" flag="0"/>
    </comp>
  </station>
</stationlist>
