<?xml version="1.0" encoding="UTF-8" standalone="yes"?>
<!DOCTYPE earthquake SYSTEM "stationlist.dtd">
<stationlist created="" xmlns="ch.ethz.sed.shakemap.usgs.xml">
  <station code="RP05B" name="RP05B" netid="5B" insttype="Compact" commtype="DIG" lat="37.6182" lon="21.6541">
    <comp name="--.HHZ">
      <acc value="0.0837384281" flag="0"/>
      <vel value="0.0425276606" flag="0"/>
      <psa03 value="0.2519968486" flag="0"/>
      <psa10 value="0.0395304882" flag="0"/>
      <psa30 value="0.0058676802" flag="0"/>
    </comp>
    <comp name="--.HHE">
      <acc value="0.2258878637" flag="0"/>
      <vel value="0.2529451708" flag="0"/>
      <psa03 value="0.7968694659" flag="0"/>
      <psa10 value="0.1718029027" flag="0"/>
      <psa30 value="0.0470521524" flag="0"/>
    </comp>
    <comp name="--.HHN">
      <acc value="0.2537179213" flag="0"/>
      <vel value="0.1800074267" flag="0"/>
      <psa03 value="0.7916033715" flag="0"/>
      <psa10 value="0.2680679340" flag="0"/>
      <psa30 value="0.0366502032" flag="0"/>
    </comp>
  </station>
  <station code="AGRP" name="AGRP" netid="CL" insttype="CMG40-T" commtype="DIG" lat="38.3959" lon="21.7228">
    <comp name="00.HHE">
      <acc value="0.0360336720" flag="0"/>
      <vel value="0.0325784122" flag="0"/>
      <psa03 value="0.0846462751" flag="0"/>
      <psa10 value="0.0530061692" flag="0"/>
      <psa30 value="0.0091654683" flag="0"/>
    </comp>
    <comp name="00.HHN">
      <acc value="0.0286258958" flag="0"/>
      <vel value="0.0396801067" flag="0"/>
      <psa03 value="0.0731709282" flag="0"/>
      <psa10 value="0.0464327474" flag="0"/>
      <psa30 value="0.0103688831" flag="0"/>
    </comp>
    <comp name="00.HHZ">
      <acc value="0.0201664164" flag="0"/>
      <vel value="0.0226973702" flag="0"/>
      <psa03 value="0.0479748957" flag="0"/>
      <psa10 value="0.0317082322" flag="0"/>
      <psa30 value="0.0118783556" flag="0"/>
    </comp>
  </station>
  <station code="ROD3" name="ROD3" netid="CL" insttype="CMG40-T" commtype="DIG" lat="38.3081" lon="21.892">
    <comp name="00.HHE">
      <acc value="0.0838554168" flag="0"/>
      <vel value="0.0632298015" flag="0"/>
      <psa03 value="0.2463343374" flag="0"/>
      <psa10 value="0.0777388274" flag="0"/>
      <psa30 value="0.0210366877" flag="0"/>
    </comp>
    <comp name="00.HHN">
      <acc value="0.0817714072" flag="0"/>
      <vel value="0.0439834960" flag="0"/>
      <psa03 value="0.3091410269" flag="0"/>
      <psa10 value="0.0895917452" flag="0"/>
      <psa30 value="0.0116850308" flag="0"/>
    </comp>
    <comp name="00.HHZ">
      <acc value="0.0478180815" flag="0"/>
      <vel value="0.0332879944" flag="0"/>
      <psa03 value="0.0922554311" flag="0"/>
      <psa10 value="0.0568463074" flag="0"/>
      <psa30 value="0.0067700013" flag="0"/>
    </comp>
  </station>
  <station code="ATHR" name="ATHR" netid="HA" insttype="GEOtiny," commtype="DIG" lat="38.3172" lon="20.4165">
    <comp name="--.HHE">
      <acc value="0.1073006563" flag="0"/>
      <vel value="0.1215499804" flag="0"/>
      <psa03 value="0.2191120541" flag="0"/>
      <psa10 value="0.2300761630" flag="0"/>
      <psa30 value="0.0167653722" flag="0"/>
    </comp>
    <comp name="--.HHN">
      <acc value="0.1169846526" flag="0"/>
      <vel value="0.1046853241" flag="0"/>
      <psa03 value="0.2261835697" flag="0"/>
      <psa10 value="0.1277625208" flag="0"/>
      <psa30 value="0.0137204985" flag="0"/>
    </comp>
    <comp name="--.HHZ">
      <acc value="0.0436999962" flag="0"/>
      <vel value="0.0459096652" flag="0"/>
      <psa03 value="0.1565171638" flag="0"/>
      <psa10 value="0.0946118343" flag="0"/>
      <psa30 value="0.0073267021" flag="0"/>
    </comp>
  </station>
  <station code="HAVD" name="HAVD" netid="HA" insttype="GEOtiny," commtype="DIG" lat="38.2036" lon="20.3848">
    <comp name="--.HHN">
      <acc value="0.1296524633" flag="0"/>
      <vel value="0.1066914728" flag="0"/>
      <psa03 value="0.3346505226" flag="0"/>
      <psa10 value="0.1964531989" flag="0"/>
      <psa30 value="0.0143560633" flag="0"/>
    </comp>
    <comp name="--.HHZ">
      <acc value="0.0973754277" flag="0"/>
      <vel value="0.0648816340" flag="0"/>
      <psa03 value="0.3129326278" flag="0"/>
      <psa10 value="0.0857035003" flag="0"/>
      <psa30 value="0.0080933947" flag="0"/>
    </comp>
    <comp name="--.HHE">
      <acc value="0.1539557059" flag="0"/>
      <vel value="0.1268232472" flag="0"/>
      <psa03 value="0.3108905889" flag="0"/>
      <psa10 value="0.2295527923" flag="0"/>
      <psa30 value="0.0155445117" flag="0"/>
    </comp>
  </station>
  <station code="LAKA" name="LAKA" netid="HA" insttype="120s," commtype="DIG" lat="38.2401" lon="21.9785">
    <comp name="--.HHN">
      <acc value="0.0156522115" flag="0"/>
      <vel value="0.0356046092" flag="0"/>
      <psa03 value="0.0464674917" flag="0"/>
      <psa10 value="0.0396118970" flag="0"/>
      <psa30 value="0.0229595415" flag="0"/>
    </comp>
    <comp name="--.HHE">
      <acc value="0.0173335346" flag="0"/>
      <vel value="0.0246285807" flag="0"/>
      <psa03 value="0.0341749872" flag="0"/>
      <psa10 value="0.0382493800" flag="0"/>
      <psa30 value="0.0118367094" flag="0"/>
    </comp>
    <comp name="--.HHZ">
      <acc value="0.0134659336" flag="0"/>
      <vel value="0.0168701849" flag="0"/>
      <psa03 value="0.0386543222" flag="0"/>
      <psa10 value="0.0259171337" flag="0"/>
      <psa30 value="0.0049404862" flag="0"/>
    </comp>
  </station>
  <station code="AGR3" name="AGR3" netid="HI" insttype="unknown" commtype="DIG" lat="38.5893" lon="21.4162">
    <comp name="--.HNE">
      <acc value="0.1106133842" flag="0"/>
      <vel value="0.1303301125" flag="0"/>
      <psa03 value="0.2151138717" flag="0"/>
      <psa10 value="0.2048818833" flag="0"/>
      <psa30 value="0.0331245024" flag="0"/>
    </comp>
    <comp name="--.HNZ">
      <acc value="0.0412944289" flag="0"/>
      <vel value="0.0589015921" flag="0"/>
      <psa03 value="0.1059366240" flag="0"/>
      <psa10 value="0.1211732453" flag="0"/>
      <psa30 value="0.0151424905" flag="0"/>
    </comp>
    <comp name="--.HNN">
      <acc value="0.0844450556" flag="0"/>
      <vel value="0.1122257327" flag="0"/>
      <psa03 value="0.2502882606" flag="0"/>
      <psa10 value="0.1820557887" flag="0"/>
      <psa30 value="0.0437458477" flag="0"/>
    </comp>
  </station>
  <station code="ARG2" name="ARG2" netid="HI" insttype="CMG-5TD,ACCELEROMETER,GURALP" commtype="DIG" lat="38.1783" lon="20.4878">
    <comp name="--.HNE">
      <acc value="0.4083183339" flag="0"/>
      <vel value="0.2151901439" flag="0"/>
      <psa03 value="0.9307586005" flag="0"/>
      <psa10 value="0.1363890886" flag="0"/>
      <psa30 value="0.0171341161" flag="0"/>
    </comp>
    <comp name="--.HNN">
      <acc value="0.2509520557" flag="0"/>
      <vel value="0.1806015073" flag="0"/>
      <psa03 value="0.8714401042" flag="0"/>
      <psa10 value="0.1591921331" flag="0"/>
      <psa30 value="0.0140628214" flag="0"/>
    </comp>
    <comp name="--.HNZ">
      <acc value="0.1540223022" flag="0"/>
      <vel value="0.0828078087" flag="0"/>
      <psa03 value="0.5169337363" flag="0"/>
      <psa10 value="0.1160347028" flag="0"/>
      <psa30 value="0.0121162047" flag="0"/>
    </comp>
  </station>
  <station code="AST1" name="AST1" netid="HI" insttype="unknown" commtype="DIG" lat="38.5416" lon="21.0895">
    <comp name="--.HNN">
      <acc value="0.0394630912" flag="0"/>
      <vel value="0.0462369639" flag="0"/>
      <psa03 value="0.1175824365" flag="0"/>
      <psa10 value="0.0615624479" flag="0"/>
      <psa30 value="0.0089247049" flag="0"/>
    </comp>
    <comp name="--.HNZ">
      <acc value="0.0410708562" flag="0"/>
      <vel value="0.0501363043" flag="0"/>
      <psa03 value="0.1251658577" flag="0"/>
      <psa10 value="0.0929332434" flag="0"/>
      <psa30 value="0.0070590129" flag="0"/>
    </comp>
    <comp name="--.HNE">
      <acc value="0.0466672184" flag="0"/>
      <vel value="0.0474103887" flag="0"/>
      <psa03 value="0.1271718451" flag="0"/>
      <psa10 value="0.0828283896" flag="0"/>
      <psa30 value="0.0088998036" flag="0"/>
    </comp>
  </station>
  <station code="KAC1" name="KAC1" netid="HI" insttype="unknown" commtype="DIG" lat="38.1434" lon="21.5497">
    <comp name="--.HNN">
      <acc value="0.1148442864" flag="0"/>
      <vel value="0.1211380781" flag="0"/>
      <psa03 value="0.3771021064" flag="0"/>
      <psa10 value="0.2022551762" flag="0"/>
      <psa30 value="0.0408867340" flag="0"/>
    </comp>
    <comp name="--.HNZ">
      <acc value="0.0623706118" flag="0"/>
      <vel value="0.0686922539" flag="0"/>
      <psa03 value="0.1316069787" flag="0"/>
      <psa10 value="0.1621379513" flag="0"/>
      <psa30 value="0.0385310722" flag="0"/>
    </comp>
  </station>
  <station code="KAL3" name="KAL3" netid="HI" insttype="unknown" commtype="DIG" lat="37.0246" lon="22.103">
    <comp name="--.HNZ">
      <acc value="0.0410875306" flag="0"/>
      <vel value="0.0583800893" flag="0"/>
      <psa03 value="0.1106334957" flag="0"/>
      <psa10 value="0.1697524965" flag="0"/>
      <psa30 value="0.0188727917" flag="0"/>
    </comp>
    <comp name="--.HNN">
      <acc value="0.1059082003" flag="0"/>
      <vel value="0.1477617203" flag="0"/>
      <psa03 value="0.2217233379" flag="0"/>
      <psa10 value="0.2155088616" flag="0"/>
      <psa30 value="0.0573684384" flag="0"/>
    </comp>
    <comp name="--.HNE">
      <acc value="0.1043681280" flag="0"/>
      <vel value="0.2002368640" flag="0"/>
      <psa03 value="0.2238250835" flag="0"/>
      <psa10 value="0.1384200971" flag="0"/>
      <psa30 value="0.0907915677" flag="0"/>
    </comp>
  </station>
  <station code="KLV1" name="KLV1" netid="HI" insttype="CMG-5TD,ACCELEROMETER,GURALP" commtype="DIG" lat="38.0326" lon="22.108">
    <comp name="--.HNE">
      <acc value="0.0437511301" flag="0"/>
      <vel value="0.0406100962" flag="0"/>
      <psa03 value="0.1207722764" flag="0"/>
      <psa10 value="0.0607205688" flag="0"/>
      <psa30 value="0.0114548056" flag="0"/>
    </comp>
    <comp name="--.HNZ">
      <acc value="0.0169725754" flag="0"/>
      <vel value="0.0253835847" flag="0"/>
      <psa03 value="0.0414555784" flag="0"/>
      <psa10 value="0.0395987659" flag="0"/>
      <psa30 value="0.0084867630" flag="0"/>
    </comp>
    <comp name="--.HNN">
      <acc value="0.0326535648" flag="0"/>
      <vel value="0.0386729180" flag="0"/>
      <psa03 value="0.0908151893" flag="0"/>
      <psa10 value="0.0618504897" flag="0"/>
      <psa30 value="0.0143784000" flag="0"/>
    </comp>
  </station>
  <station code="KRI1" name="KRI1" netid="HI" insttype="CMG-5TD,ACCELEROMETER,GURALP" commtype="DIG" lat="37.6621" lon="20.8172">
    <comp name="--.HNE">
      <acc value="0.4410091143" flag="0"/>
      <vel value="0.1614811829" flag="0"/>
      <psa03 value="1.1138473107" flag="0"/>
      <psa10 value="0.2047421188" flag="0"/>
      <psa30 value="0.0378520731" flag="0"/>
    </comp>
    <comp name="--.HNN">
      <acc value="0.4740644461" flag="0"/>
      <vel value="0.3250121061" flag="0"/>
      <psa03 value="1.5090670641" flag="0"/>
      <psa10 value="0.2489875543" flag="0"/>
      <psa30 value="0.0377633925" flag="0"/>
    </comp>
    <comp name="--.HNZ">
      <acc value="0.3128393591" flag="0"/>
      <vel value="0.1200404041" flag="0"/>
      <psa03 value="0.4561381668" flag="0"/>
      <psa10 value="0.1213419264" flag="0"/>
      <psa30 value="0.0205895925" flag="0"/>
    </comp>
  </station>
  <station code="LEF2" name="LEF2" netid="HI" insttype="unknown" commtype="DIG" lat="38.8301" lon="20.7083">
    <comp name="--.HNE">
      <acc value="0.1635639317" flag="0"/>
      <vel value="0.1570954046" flag="0"/>
      <psa03 value="0.4061676807" flag="0"/>
      <psa10 value="0.3705329269" flag="0"/>
      <psa30 value="0.0347663209" flag="0"/>
    </comp>
    <comp name="--.HNZ">
      <acc value="0.1124551727" flag="0"/>
      <vel value="0.1100261180" flag="0"/>
      <psa03 value="0.2797310185" flag="0"/>
      <psa10 value="0.1791527616" flag="0"/>
      <psa30 value="0.0178867824" flag="0"/>
    </comp>
    <comp name="--.HNN">
      <acc value="0.1674176668" flag="0"/>
      <vel value="0.2059455024" flag="0"/>
      <psa03 value="0.4411590738" flag="0"/>
      <psa10 value="0.2539670175" flag="0"/>
      <psa30 value="0.0230370245" flag="0"/>
    </comp>
  </station>
  <station code="MSL1" name="MSL1" netid="HI" insttype="CMG-5TD,ACCELEROMETER,GURALP" commtype="DIG" lat="38.3727" lon="21.4243">
    <comp name="--.HNE">
      <acc value="0.1250999497" flag="0"/>
      <vel value="0.2174853908" flag="0"/>
      <psa03 value="0.2517344699" flag="0"/>
      <psa10 value="0.3752223158" flag="0"/>
      <psa30 value="0.0372171212" flag="0"/>
    </comp>
    <comp name="--.HNN">
      <acc value="0.1133101267" flag="0"/>
      <vel value="0.1705753099" flag="0"/>
      <psa03 value="0.3415159065" flag="0"/>
      <psa10 value="0.3823794090" flag="0"/>
      <psa30 value="0.0291647462" flag="0"/>
    </comp>
    <comp name="--.HNZ">
      <acc value="0.0609105055" flag="0"/>
      <vel value="0.0773531577" flag="0"/>
      <psa03 value="0.0942335835" flag="0"/>
      <psa10 value="0.2135141451" flag="0"/>
      <psa30 value="0.0126123692" flag="0"/>
    </comp>
  </station>
  <station code="PAT5" name="PAT5" netid="HI" insttype="unknown" commtype="DIG" lat="38.2959" lon="21.7951">
    <comp name="--.HNE">
      <acc value="0.0368504978" flag="0"/>
      <vel value="0.0602936791" flag="0"/>
      <psa03 value="0.0889867877" flag="0"/>
      <psa10 value="0.0614705932" flag="0"/>
      <psa30 value="0.0269620878" flag="0"/>
    </comp>
    <comp name="--.HNZ">
      <acc value="0.0334103418" flag="0"/>
      <vel value="0.0197433666" flag="0"/>
      <psa03 value="0.0734980290" flag="0"/>
      <psa10 value="0.0284531733" flag="0"/>
      <psa30 value="0.0044145712" flag="0"/>
    </comp>
    <comp name="--.HNN">
      <acc value="0.0358160931" flag="0"/>
      <vel value="0.0521703857" flag="0"/>
      <psa03 value="0.0970842161" flag="0"/>
      <psa10 value="0.0621926124" flag="0"/>
      <psa30 value="0.0291922542" flag="0"/>
    </comp>
  </station>
  <station code="PET1" name="PET1" netid="HI" insttype="unknown" commtype="DIG" lat="36.9639" lon="21.9254">
    <comp name="--.HNE">
      <acc value="0.0686548071" flag="0"/>
      <vel value="0.0754195622" flag="0"/>
      <psa03 value="0.2177756614" flag="0"/>
      <psa10 value="0.1084387264" flag="0"/>
      <psa30 value="0.0115352872" flag="0"/>
    </comp>
    <comp name="--.HNN">
      <acc value="0.0777246975" flag="0"/>
      <vel value="0.0798347379" flag="0"/>
      <psa03 value="0.2056051088" flag="0"/>
      <psa10 value="0.1049650083" flag="0"/>
      <psa30 value="0.0124110796" flag="0"/>
    </comp>
    <comp name="--.HNZ">
      <acc value="0.0403007431" flag="0"/>
      <vel value="0.0313978035" flag="0"/>
      <psa03 value="0.0931021440" flag="0"/>
      <psa10 value="0.0273980193" flag="0"/>
      <psa30 value="0.0063597607" flag="0"/>
    </comp>
  </station>
  <station code="PYL1" name="PYL1" netid="HI" insttype="unknown" commtype="DIG" lat="36.9142" lon="21.6952">
    <comp name="--.HNE">
      <acc value="0.0481420241" flag="0"/>
      <vel value="0.0390906409" flag="0"/>
      <psa03 value="0.2245336743" flag="0"/>
      <psa10 value="0.0713868033" flag="0"/>
      <psa30 value="0.0092667031" flag="0"/>
    </comp>
    <comp name="--.HNZ">
      <acc value="0.0216517702" flag="0"/>
      <vel value="0.0210160321" flag="0"/>
      <psa03 value="0.0693341258" flag="0"/>
      <psa10 value="0.0314580015" flag="0"/>
      <psa30 value="0.0101818450" flag="0"/>
    </comp>
    <comp name="--.HNN">
      <acc value="0.0469142043" flag="0"/>
      <vel value="0.0497541759" flag="0"/>
      <psa03 value="0.1235664685" flag="0"/>
      <psa10 value="0.0535982043" flag="0"/>
      <psa30 value="0.0104555299" flag="0"/>
    </comp>
  </station>
  <station code="PYR2" name="PYR2" netid="HI" insttype="unknown" commtype="DIG" lat="37.6671" lon="21.4506">
    <comp name="--.HNE">
      <acc value="0.1738762383" flag="0"/>
      <vel value="0.1262698112" flag="0"/>
      <psa03 value="0.4564546824" flag="0"/>
      <psa10 value="0.1277719438" flag="0"/>
      <psa30 value="0.0398846564" flag="0"/>
    </comp>
    <comp name="--.HNN">
      <acc value="0.1264672064" flag="0"/>
      <vel value="0.1099876695" flag="0"/>
      <psa03 value="0.4815495273" flag="0"/>
      <psa10 value="0.1600668672" flag="0"/>
      <psa30 value="0.0428999320" flag="0"/>
    </comp>
    <comp name="--.HNZ">
      <acc value="0.0623908548" flag="0"/>
      <vel value="0.0481713655" flag="0"/>
      <psa03 value="0.1923221737" flag="0"/>
      <psa10 value="0.0709412220" flag="0"/>
      <psa30 value="0.0244974374" flag="0"/>
    </comp>
  </station>
  <station code="VAS2" name="VAS2" netid="HI" insttype="CMG-5TD,ACCELEROMETER,GURALP" commtype="DIG" lat="38.6306" lon="20.6081">
    <comp name="--.HNE">
      <acc value="0.1973018524" flag="0"/>
      <vel value="0.2533639470" flag="0"/>
      <psa03 value="0.5448201762" flag="0"/>
      <psa10 value="0.4427897752" flag="0"/>
      <psa30 value="0.0344511115" flag="0"/>
    </comp>
    <comp name="--.HNZ">
      <acc value="0.1340045089" flag="0"/>
      <vel value="0.1095673421" flag="0"/>
      <psa03 value="0.2938588632" flag="0"/>
      <psa10 value="0.1946015121" flag="0"/>
      <psa30 value="0.0081336412" flag="0"/>
    </comp>
    <comp name="--.HNN">
      <acc value="0.2385583099" flag="0"/>
      <vel value="0.2527756790" flag="0"/>
      <psa03 value="0.7146556668" flag="0"/>
      <psa10 value="0.7824122038" flag="0"/>
      <psa30 value="0.0473165893" flag="0"/>
    </comp>
  </station>
  <station code="VSK1" name="VSK1" netid="HI" insttype="unknown" commtype="DIG" lat="38.4091" lon="20.564">
    <comp name="--.HNZ">
      <acc value="0.0465643007" flag="0"/>
      <vel value="0.0447907344" flag="0"/>
      <psa03 value="0.1537909410" flag="0"/>
      <psa10 value="0.0744974389" flag="0"/>
      <psa30 value="0.0081118022" flag="0"/>
    </comp>
    <comp name="--.HNN">
      <acc value="0.1199332134" flag="0"/>
      <vel value="0.0911215156" flag="0"/>
      <psa03 value="0.3382271548" flag="0"/>
      <psa10 value="0.1570810885" flag="0"/>
      <psa30 value="0.0145403501" flag="0"/>
    </comp>
    <comp name="--.HNE">
      <acc value="0.0828541658" flag="0"/>
      <vel value="0.1043678201" flag="0"/>
      <psa03 value="0.2564752813" flag="0"/>
      <psa10 value="0.0959099069" flag="0"/>
      <psa30 value="0.0121370700" flag="0"/>
    </comp>
  </station>
  <station code="ZAK2" name="ZAK2" netid="HI" insttype="unknown" commtype="DIG" lat="37.7875" lon="20.9">
    <comp name="--.HNN">
      <acc value="0.9462574239" flag="0"/>
      <vel value="0.6398846532" flag="0"/>
      <psa03 value="3.4274675368" flag="0"/>
      <psa10 value="0.9044748069" flag="0"/>
      <psa30 value="0.0670958972" flag="0"/>
    </comp>
    <comp name="--.HNZ">
      <acc value="0.4944060107" flag="0"/>
      <vel value="0.3255733886" flag="0"/>
      <psa03 value="1.3948520345" flag="0"/>
      <psa10 value="0.4186245170" flag="0"/>
      <psa30 value="0.0641332155" flag="0"/>
    </comp>
    <comp name="--.HNE">
      <acc value="1.0328153602" flag="0"/>
      <vel value="0.7664158155" flag="0"/>
      <psa03 value="2.5097694329" flag="0"/>
      <psa10 value="0.9367168405" flag="0"/>
      <psa30 value="0.0865464772" flag="0"/>
    </comp>
  </station>
  <station code="ITM" name="ITM" netid="HL" insttype="DR24" commtype="DIG" lat="37.1787" lon="21.9252">
    <comp name="--.HHE">
      <acc value="0.0305612237" flag="0"/>
      <vel value="0.0356888831" flag="0"/>
      <psa03 value="0.0905675447" flag="0"/>
