<stationlist xmlns:esm="https://esm-db.eu/esmws/shakemap/1/" created="1781488462">
	<station code="AGRP" name="AGRP" netid="CL" source="Corinth Riff Laboratory (CRLNET)" insttype="" lat="38.3959" lon="21.72277" esm:processing="automatic (Paolucci et al 2011)" esm:quality="best">
		<comp name="00.HNE" depth="0.0">
			<acc value="0.0347753126766804" flag="0"/>
			<vel value="0.036608546398251" flag="0"/>
			<psa03 value="0.0808415011860374" flag="0"/>
			<psa10 value="0.0510071477232065" flag="0"/>
			<psa30 value="0.00968218223038841" flag="0"/>
		</comp>
		<comp name="00.HNN" depth="0.0">
			<acc value="0.029329501986694" flag="0"/>
			<vel value="0.0434749644373181" flag="0"/>
			<psa03 value="0.0725816988063334" flag="0"/>
			<psa10 value="0.0466077612854461" flag="0"/>
			<psa30 value="0.0103609338610195" flag="0"/>
		</comp>
		<comp name="00.HNZ" depth="0.0">
			<acc value="0.018749199915023" flag="0"/>
			<vel value="0.0220915558738259" flag="0"/>
			<psa03 value="0.0456579516985558" flag="0"/>
			<psa10 value="0.0310199380436574" flag="0"/>
			<psa30 value="0.0120521792310584" flag="0"/>
		</comp>
	</station>
	<station code="ROD3" name="ROD3" netid="CL" source="Corinth Riff Laboratory (CRLNET)" insttype="" lat="38.30811" lon="21.89204" esm:processing="automatic (Paolucci et al 2011)" esm:quality="best">
		<comp name="00.HNE" depth="0.0">
			<acc value="0.0677496853777959" flag="0"/>
			<vel value="0.0479431162482795" flag="0"/>
			<psa03 value="0.202112659805128" flag="0"/>
			<psa10 value="0.0627797551006683" flag="0"/>
			<psa30 value="0.0173125252031626" flag="0"/>
		</comp>
		<comp name="00.HNN" depth="0.0">
			<acc value="0.0673034678053785" flag="0"/>
			<vel value="0.0416660956680496" flag="0"/>
			<psa03 value="0.248372328447811" flag="0"/>
			<psa10 value="0.0750724956844024" flag="0"/>
			<psa30 value="0.0097945055045874" flag="0"/>
		</comp>
		<comp name="00.HNZ" depth="0.0">
			<acc value="0.037433039959516" flag="0"/>
			<vel value="0.0255016173816909" flag="0"/>
			<psa03 value="0.0730259782376653" flag="0"/>
			<psa10 value="0.0456629161940959" flag="0"/>
			<psa30 value="0.00585779721698371" flag="0"/>
		</comp>
	</station>
	<station code="AIG2" name="AIG2" netid="HI" source="ITSAK Strong Motion Network" insttype="" lat="38.2417" lon="22.0726" esm:processing="automatic (Paolucci et al 2011)" esm:quality="best">
		<comp name="--.HNE" depth="0.0">
			<acc value="0.0251891012647992" flag="0"/>
			<vel value="0.0415269312507797" flag="0"/>
			<psa03 value="0.0620323749654023" flag="0"/>
			<psa10 value="0.0545534013951082" flag="0"/>
			<psa30 value="0.0127430558315758" flag="0"/>
		</comp>
		<comp name="--.HNN" depth="0.0">
			<acc value="0.0295784685355539" flag="0"/>
			<vel value="0.0552726233465936" flag="0"/>
			<psa03 value="0.0537901883359887" flag="0"/>
			<psa10 value="0.0572147614471504" flag="0"/>
			<psa30 value="0.0181957953821437" flag="0"/>
		</comp>
		<comp name="--.HNZ" depth="0.0">
			<acc value="0.0197036860076192" flag="0"/>
			<vel value="0.0312842278188293" flag="0"/>
			<psa03 value="0.0514969530870747" flag="0"/>
			<psa10 value="0.0689759043151447" flag="0"/>
			<psa30 value="0.0106473611687562" flag="0"/>
		</comp>
	</station>
	<station code="AKR1" name="AKR1" netid="HI" source="ITSAK Strong Motion Network" insttype="" lat="38.153583" lon="22.31326" esm:processing="automatic (Paolucci et al 2011)" esm:quality="best">
		<comp name="--.HNE" depth="0.0">
			<acc value="0.032171848132232" flag="0"/>
			<vel value="0.0391936234758246" flag="0"/>
			<psa03 value="0.0922749669303637" flag="0"/>
			<psa10 value="0.0776921567240896" flag="0"/>
			<psa30 value="0.011602716123" flag="0"/>
		</comp>
		<comp name="--.HNN" depth="0.0">
			<acc value="0.029337033535612" flag="0"/>
			<vel value="0.037508607476361" flag="0"/>
			<psa03 value="0.0817919912346717" flag="0"/>
			<psa10 value="0.0775128873483733" flag="0"/>
			<psa30 value="0.00939147547249241" flag="0"/>
		</comp>
		<comp name="--.HNZ" depth="0.0">
			<acc value="0.0138051505963564" flag="0"/>
			<vel value="0.0207478810292662" flag="0"/>
			<psa03 value="0.0397134302990206" flag="0"/>
			<psa10 value="0.0394152798188478" flag="0"/>
			<psa30 value="0.00902217017449554" flag="0"/>
		</comp>
	</station>
	<station code="ARG2" name="ARG2" netid="HI" source="ITSAK Strong Motion Network" insttype="" lat="38.1783" lon="20.4878" esm:processing="automatic (Paolucci et al 2011)" esm:quality="best">
		<comp name="--.HNE" depth="0.0">
			<acc value="0.409352841663487" flag="0"/>
			<vel value="0.216589547058973" flag="0"/>
			<psa03 value="0.935743655091425" flag="0"/>
			<psa10 value="0.136295203888355" flag="0"/>
			<psa30 value="0.017864803455553" flag="0"/>
		</comp>
		<comp name="--.HNN" depth="0.0">
			<acc value="0.251041375784125" flag="0"/>
			<vel value="0.182120583412663" flag="0"/>
			<psa03 value="0.874113905756328" flag="0"/>
			<psa10 value="0.160279287716201" flag="0"/>
			<psa30 value="0.0148555141049024" flag="0"/>
		</comp>
		<comp name="--.HNZ" depth="0.0">
			<acc value="0.154708766647012" flag="0"/>
			<vel value="0.092685115594386" flag="0"/>
			<psa03 value="0.524242561830205" flag="0"/>
			<psa10 value="0.11681492841571" flag="0"/>
			<psa30 value="0.0124892215162982" flag="0"/>
		</comp>
	</station>
	<station code="ART2" name="ART2" netid="HI" source="ITSAK Strong Motion Network" insttype="" lat="39.1474" lon="20.9937" esm:processing="automatic (Paolucci et al 2011)" esm:quality="best">
		<comp name="--.HNE" depth="0.0">
			<acc value="0.0132085754841672" flag="0"/>
			<vel value="0.0227027311827142" flag="0"/>
			<psa03 value="0.0281115601695635" flag="0"/>
			<psa10 value="0.0187288869468436" flag="0"/>
			<psa30 value="0.0048232253483415" flag="0"/>
		</comp>
		<comp name="--.HNN" depth="0.0">
			<acc value="0.0142576902509277" flag="0"/>
			<vel value="0.0175334980467309" flag="0"/>
			<psa03 value="0.0393380721000487" flag="0"/>
			<psa10 value="0.0193447808717935" flag="0"/>
			<psa30 value="0.00462598144856783" flag="0"/>
		</comp>
		<comp name="--.HNZ" depth="0.0">
			<acc value="0.00892603069861352" flag="0"/>
			<vel value="0.0149844579666888" flag="0"/>
			<psa03 value="0.0181307635741056" flag="0"/>
			<psa10 value="0.0132538973806547" flag="0"/>
			<psa30 value="0.00508072365634067" flag="0"/>
		</comp>
	</station>
	<station code="AST1" name="AST1" netid="HI" source="ITSAK Strong Motion Network" insttype="" lat="38.5416" lon="21.0895" esm:processing="automatic (Paolucci et al 2011)" esm:quality="best">
		<comp name="--.HNE" depth="0.0">
			<acc value="0.0471837903899303" flag="0"/>
			<vel value="0.0482919798727702" flag="0"/>
			<psa03 value="0.125828804290748" flag="0"/>
			<psa10 value="0.0829965156118335" flag="0"/>
			<psa30 value="0.00891046110765144" flag="0"/>
		</comp>
		<comp name="--.HNN" depth="0.0">
			<acc value="0.0392220934206891" flag="0"/>
			<vel value="0.043493717463478" flag="0"/>
			<psa03 value="0.118655360335292" flag="0"/>
			<psa10 value="0.0616228034583001" flag="0"/>
			<psa30 value="0.00916615971309581" flag="0"/>
		</comp>
		<comp name="--.HNZ" depth="0.0">
			<acc value="0.0413255530964154" flag="0"/>
			<vel value="0.0532751330726295" flag="0"/>
			<psa03 value="0.125368325869646" flag="0"/>
			<psa10 value="0.0937490029113466" flag="0"/>
			<psa30 value="0.00681799249187495" flag="0"/>
		</comp>
	</station>
	<station code="JAN2" name="JAN2" netid="HI" source="ITSAK Strong Motion Network" insttype="" lat="39.664" lon="20.85222" esm:processing="automatic (Paolucci et al 2011)" esm:quality="best">
		<comp name="--.HNE" depth="0.0">
			<acc value="0.0226548858370705" flag="0"/>
			<vel value="0.0224058285517387" flag="0"/>
			<psa03 value="0.0719541989042112" flag="0"/>
			<psa10 value="0.0356881029116698" flag="0"/>
			<psa30 value="0.00539526407643314" flag="0"/>
		</comp>
		<comp name="--.HNN" depth="0.0">
			<acc value="0.0194839776816265" flag="0"/>
			<vel value="0.018660196005222" flag="0"/>
			<psa03 value="0.0840079036529943" flag="0"/>
			<psa10 value="0.0196262576432482" flag="0"/>
			<psa30 value="0.00513205705692652" flag="0"/>
		</comp>
		<comp name="--.HNZ" depth="0.0">
			<acc value="0.0107558690871049" flag="0"/>
			<vel value="0.0122777195426746" flag="0"/>
			<psa03 value="0.0176958415334882" flag="0"/>
			<psa10 value="0.0129050539589901" flag="0"/>
			<psa30 value="0.00284750154966952" flag="0"/>
		</comp>
	</station>
	<station code="JAN3" name="JAN3" netid="HI" source="ITSAK Strong Motion Network" insttype="" lat="39.684" lon="20.8379" esm:processing="automatic (Paolucci et al 2011)" esm:quality="best">
		<comp name="--.HNE" depth="0.0">
			<acc value="0.0252126554813735" flag="0"/>
			<vel value="0.0230129955773949" flag="0"/>
			<psa03 value="0.0603997563957679" flag="0"/>
			<psa10 value="0.0319196470199616" flag="0"/>
			<psa30 value="0.00500153674392968" flag="0"/>
		</comp>
		<comp name="--.HNN" depth="0.0">
			<acc value="0.0154727247446195" flag="0"/>
			<vel value="0.0158492231004725" flag="0"/>
			<psa03 value="0.0405566293859885" flag="0"/>
			<psa10 value="0.0209784284679292" flag="0"/>
			<psa30 value="0.00271176797465299" flag="0"/>
		</comp>
		<comp name="--.HNZ" depth="0.0">
			<acc value="0.00975219418167601" flag="0"/>
			<vel value="0.0117730779058016" flag="0"/>
			<psa03 value="0.0243365184249082" flag="0"/>
			<psa10 value="0.0138014852181615" flag="0"/>
			<psa30 value="0.00292551525936158" flag="0"/>
		</comp>
	</station>
	<station code="KLV1" name="KLV1" netid="HI" source="ITSAK Strong Motion Network" insttype="" lat="38.03256" lon="22.10797" esm:processing="automatic (Paolucci et al 2011)" esm:quality="best">
		<comp name="--.HNE" depth="0.0">
			<acc value="0.0437971099241902" flag="0"/>
			<vel value="0.0445954750389655" flag="0"/>
			<psa03 value="0.119250931038928" flag="0"/>
			<psa10 value="0.0610625500942643" flag="0"/>
			<psa30 value="0.0117159227890527" flag="0"/>
		</comp>
		<comp name="--.HNN" depth="0.0">
			<acc value="0.0326522511900058" flag="0"/>
			<vel value="0.039014115895247" flag="0"/>
			<psa03 value="0.0911327037610347" flag="0"/>
			<psa10 value="0.062084177772084" flag="0"/>
			<psa30 value="0.0144625780748188" flag="0"/>
		</comp>
		<comp name="--.HNZ" depth="0.0">
			<acc value="0.0168236985232091" flag="0"/>
			<vel value="0.0267514647736035" flag="0"/>
			<psa03 value="0.0415579717616733" flag="0"/>
			<psa10 value="0.0395110874156309" flag="0"/>
			<psa30 value="0.0093057214583765" flag="0"/>
		</comp>
	</station>
	<station code="KYP2" name="KYP2" netid="HI" source="ITSAK Strong Motion Network" insttype="" lat="37.2497" lon="21.667" esm:processing="automatic (Paolucci et al 2011)" esm:quality="best">
		<comp name="--.HNE" depth="0.0">
			<acc value="0.0554671791525956" flag="0"/>
			<vel value="0.0368244998612801" flag="0"/>
			<psa03 value="0.192292321755928" flag="0"/>
			<psa10 value="0.0746143578350183" flag="0"/>
			<psa30 value="0.0123220337742641" flag="0"/>
		</comp>
		<comp name="--.HNN" depth="0.0">
			<acc value="0.054973395541132" flag="0"/>
			<vel value="0.0472518412999312" flag="0"/>
			<psa03 value="0.157315327618391" flag="0"/>
			<psa10 value="0.0475433582641543" flag="0"/>
			<psa30 value="0.0141557810843572" flag="0"/>
		</comp>
		<comp name="--.HNZ" depth="0.0">
			<acc value="0.036499066257006" flag="0"/>
			<vel value="0.0442863735931975" flag="0"/>
			<psa03 value="0.0800982488242161" flag="0"/>
			<psa10 value="0.0416387646138032" flag="0"/>
			<psa30 value="0.0241387624078759" flag="0"/>
		</comp>
	</station>
	<station code="LEO1" name="LEO1" netid="HI" source="ITSAK Strong Motion Network" insttype="" lat="37.1689" lon="22.8637" esm:processing="automatic (Paolucci et al 2011)" esm:quality="best">
		<comp name="--.HNE" depth="0.0">
			<acc value="0.0117196736389508" flag="0"/>
			<vel value="0.0171762284580391" flag="0"/>
			<psa03 value="0.0217051383797277" flag="0"/>
			<psa10 value="0.0142440539111654" flag="0"/>
			<psa30 value="0.00840537681496254" flag="0"/>
		</comp>
		<comp name="--.HNN" depth="0.0">
			<acc value="0.0110279999871283" flag="0"/>
			<vel value="0.0184606390407447" flag="0"/>
			<psa03 value="0.0230596864452226" flag="0"/>
			<psa10 value="0.012997786352056" flag="0"/>
			<psa30 value="0.00737619530340503" flag="0"/>
		</comp>
		<comp name="--.HNZ" depth="0.0">
			<acc value="0.00792427372866212" flag="0"/>
			<vel value="0.0166821483569559" flag="0"/>
			<psa03 value="0.0141154272652814" flag="0"/>
			<psa10 value="0.0106813366486317" flag="0"/>
			<psa30 value="0.00660782190243819" flag="0"/>
		</comp>
	</station>
	<station code="NMA1" name="NMA1" netid="HI" source="ITSAK Strong Motion Network" insttype="" lat="37.81873" lon="22.662702" esm:processing="automatic (Paolucci et al 2011)" esm:quality="best">
		<comp name="--.HNE" depth="0.0">
			<acc value="0.0218744360675925" flag="0"/>
			<vel value="0.0347888928049864" flag="0"/>
			<psa03 value="0.0580025403002998" flag="0"/>
			<psa10 value="0.05251472134256" flag="0"/>
			<psa30 value="0.00644549698254223" flag="0"/>
		</comp>
		<comp name="--.HNN" depth="0.0">
			<acc value="0.0217851874894551" flag="0"/>
			<vel value="0.0265977918745818" flag="0"/>
			<psa03 value="0.0549127470749959" flag="0"/>
			<psa10 value="0.0402822810034213" flag="0"/>
			<psa30 value="0.0117056979450403" flag="0"/>
		</comp>
		<comp name="--.HNZ" depth="0.0">
			<acc value="0.0161822484116233" flag="0"/>
			<vel value="0.0306606312571799" flag="0"/>
			<psa03 value="0.0477449909963332" flag="0"/>
			<psa10 value="0.0326591547587199" flag="0"/>
			<psa30 value="0.00920504478904125" flag="0"/>
		</comp>
	</station>
	<station code="PAT5" name="PAT5" netid="HI" source="ITSAK Strong Motion Network" insttype="" lat="38.29595" lon="21.795083" esm:processing="automatic (Paolucci et al 2011)" esm:quality="best">
		<comp name="--.HNE" depth="0.0">
			<acc value="0.0362363426451146" flag="0"/>
			<vel value="0.0665533414180624" flag="0"/>
			<psa03 value="0.0881114827866392" flag="0"/>
			<psa10 value="0.0614342784694448" flag="0"/>
			<psa30 value="0.0273895777584387" flag="0"/>
		</comp>
		<comp name="--.HNN" depth="0.0">
			<acc value="0.0361242618434468" flag="0"/>
			<vel value="0.0598713041107608" flag="0"/>
			<psa03 value="0.0981853272127259" flag="0"/>
			<psa10 value="0.0622330176319943" flag="0"/>
			<psa30 value="0.0305269722620937" flag="0"/>
		</comp>
		<comp name="--.HNZ" depth="0.0">
			<acc value="0.0329874724594875" flag="0"/>
			<vel value="0.04095261332029" flag="0"/>
			<psa03 value="0.0740373421105584" flag="0"/>
			<psa10 value="0.0618777828494333" flag="0"/>
			<psa30 value="0.0113132352796481" flag="0"/>
		</comp>
	</station>
	<station code="PYL1" name="PYL1" netid="HI" source="ITSAK Strong Motion Network" insttype="" lat="36.914188" lon="21.695161" esm:processing="automatic (Paolucci et al 2011)" esm:quality="best">
		<comp name="--.HNE" depth="0.0">
			<acc value="0.0479634927357014" flag="0"/>
			<vel value="0.0409544221378585" flag="0"/>
			<psa03 value="0.227615411737282" flag="0"/>
			<psa10 value="0.0715541626121034" flag="0"/>
			<psa30 value="0.00947988299572361" flag="0"/>
		</comp>
		<comp name="--.HNN" depth="0.0">
			<acc value="0.0471153767325369" flag="0"/>
			<vel value="0.0505270000804778" flag="0"/>
			<psa03 value="0.12504280430544" flag="0"/>
			<psa10 value="0.0540288653971726" flag="0"/>
			<psa30 value="0.0106251963671136" flag="0"/>
		</comp>
		<comp name="--.HNZ" depth="0.0">
			<acc value="0.0216093835247668" flag="0"/>
			<vel value="0.0212792369762451" flag="0"/>
			<psa03 value="0.0697360363368272" flag="0"/>
			<psa10 value="0.0312942743420908" flag="0"/>
			<psa30 value="0.0104260123388159" flag="0"/>
		</comp>
	</station>
	<station code="PYR2" name="PYR2" netid="HI" source="ITSAK Strong Motion Network" insttype="" lat="37.6671" lon="21.4506" esm:processing="automatic (Paolucci et al 2011)" esm:quality="best">
		<comp name="--.HNE" depth="0.0">
			<acc value="0.173579133589641" flag="0"/>
			<vel value="0.125394595467905" flag="0"/>
			<psa03 value="0.453454914162622" flag="0"/>
			<psa10 value="0.128599649095618" flag="0"/>
			<psa30 value="0.0413522060473712" flag="0"/>
		</comp>
		<comp name="--.HNN" depth="0.0">
			<acc value="0.126609682548204" flag="0"/>
			<vel value="0.112754403294446" flag="0"/>
			<psa03 value="0.478769091102609" flag="0"/>
			<psa10 value="0.160269207048406" flag="0"/>
			<psa30 value="0.0436563453519586" flag="0"/>
		</comp>
		<comp name="--.HNZ" depth="0.0">
			<acc value="0.0628763507130541" flag="0"/>
			<vel value="0.0515007539911746" flag="0"/>
			<psa03 value="0.196580647503129" flag="0"/>
			<psa10 value="0.0711112582718645" flag="0"/>
			<psa30 value="0.0250349801112337" flag="0"/>
		</comp>
	</station>
	<station code="TRP1" name="TRP1" netid="HI" source="ITSAK Strong Motion Network" insttype="" lat="37.511219" lon="22.363399" esm:processing="automatic (Paolucci et al 2011)" esm:quality="best">
		<comp name="--.HNE" depth="0.0">
			<acc value="0.0133542855843104" flag="0"/>
			<vel value="0.0294959224203504" flag="0"/>
			<psa03 value="0.0263076073332081" flag="0"/>
			<psa10 value="0.0214008695775795" flag="0"/>
			<psa30 value="0.0126420433066585" flag="0"/>
		</comp>
		<comp name="--.HNN" depth="0.0">
			<acc value="0.0179570823367999" flag="0"/>
			<vel value="0.0245243337421326" flag="0"/>
			<psa03 value="0.0343336494357743" flag="0"/>
			<psa10 value="0.02714590890824" flag="0"/>
			<psa30 value="0.0111552898165364" flag="0"/>
		</comp>
		<comp name="--.HNZ" depth="0.0">
			<acc value="0.0138721883824926" flag="0"/>
			<vel value="0.0206054514994076" flag="0"/>
			<psa03 value="0.0252268065687951" flag="0"/>
			<psa10 value="0.0230853030380295" flag="0"/>
			<psa30 value="0.011172947652948" flag="0"/>
		</comp>
	</station>
	<station code="VSK1" name="VSK1" netid="HI" source="ITSAK Strong Motion Network" insttype="" lat="38.4091" lon="20.564" esm:processing="automatic (Paolucci et al 2011)" esm:quality="best">
		<comp name="--.HNE" depth="0.0">
			<acc value="0.0828167244411757" flag="0"/>
			<vel value="0.0978365648857957" flag="0"/>
			<psa03 value="0.25755154069224" flag="0"/>
			<psa10 value="0.0963762394528737" flag="0"/>
			<psa30 value="0.0125904298875228" flag="0"/>
		</comp>
		<comp name="--.HNN" depth="0.0">
			<acc value="0.119818093957128" flag="0"/>
			<vel value="0.101468633125271" flag="0"/>
			<psa03 value="0.339647374971689" flag="0"/>
			<psa10 value="0.157593854819451" flag="0"/>
			<psa30 value="0.0146817875963738" flag="0"/>
		</comp>
		<comp name="--.HNZ" depth="0.0">
			<acc value="0.046347751474797" flag="0"/>
			<vel value="0.0471290153556665" flag="0"/>
			<psa03 value="0.154092207852525" flag="0"/>
			<psa10 value="0.0747621401248697" flag="0"/>
			<psa30 value="0.00838609137072984" flag="0"/>
		</comp>
	</station>
	<station code="PATG" name="PATG" netid="HL" source="National Observatory of Athens Seismic Network" insttype="" lat="38.23865" lon="21.72657" esm:processing="automatic (Paolucci et al 2011)" esm:quality="best">
		<comp name="00.HNE" depth="0.0">
			<acc value="0.0711554362847848" flag="0"/>
			<vel value="0.144394345762953" flag="0"/>
			<psa03 value="0.187717602036531" flag="0"/>
			<psa10 value="0.280022140092504" flag="0"/>
			<psa30 value="0.0565748811415538" flag="0"/>
		</comp>
		<comp name="00.HNN" depth="0.0">
			<acc value="0.0961261239821193" flag="0"/>
			<vel value="0.135624819895529" flag="0"/>
			<psa03 value="0.169484477514849" flag="0"/>
			<psa10 value="0.374147345425414" flag="0"/>
			<psa30 value="0.0547368293796453" flag="0"/>
		</comp>
		<comp name="00.HNZ" depth="0.0">
			<acc value="0.0947266949915657" flag="0"/>
			<vel value="0.076897603633079" flag="0"/>
			<psa03 value="0.118758752601189" flag="0"/>
			<psa10 value="0.129011846401667" flag="0"/>
			<psa30 value="0.0332964323919022" flag="0"/>
		</comp>
	</station>
