<stationlist created="1766109611">
	<station code="SRN" name="SRN" netid="AC" source="Albanian Seismological Network (AC)" insttype="" lat="39.880001" lon="20.0005">
		<comp name="01.HNE" depth="0.0">
			<acc value="0.02982476273634" flag="0"/>
			<vel value="0.0598445053178" flag="0"/>
			<psa03 value="0.0556042668429886" flag="0"/>
			<psa10 value="0.0564755912305642" flag="0"/>
			<psa30 value="0.0219628815997711" flag="0"/>
		</comp>
		<comp name="01.HNN" depth="0.0">
			<acc value="0.01985851142241" flag="0"/>
			<vel value="0.0273586741915" flag="0"/>
			<psa03 value="0.0597393480635847" flag="0"/>
			<psa10 value="0.038813158681289" flag="0"/>
			<psa30 value="0.00989089272308278" flag="0"/>
		</comp>
		<comp name="01.HNZ" depth="0.0">
			<acc value="0.028137507715662" flag="0"/>
			<vel value="0.0454278475427" flag="0"/>
			<psa03 value="0.042800538450614" flag="0"/>
			<psa10 value="0.0427105706155976" flag="0"/>
			<psa30 value="0.0128772888905192" flag="0"/>
		</comp>
	</station>
	<station code="AGRP" name="AGRP" netid="CL" source="Corinth Riff Laboratory (CRLNET)" insttype="" lat="38.3959" lon="21.72277">
		<comp name="00.HNE" depth="0.0">
			<acc value="0.034891807419762" flag="0"/>
			<vel value="0.0340713709187" flag="0"/>
			<psa03 value="0.0807338117605176" flag="0"/>
			<psa10 value="0.0509572731691084" flag="0"/>
			<psa30 value="0.00954646407308212" flag="0"/>
		</comp>
		<comp name="00.HNN" depth="0.0">
			<acc value="0.029123855510604" flag="0"/>
			<vel value="0.0400907344857" flag="0"/>
			<psa03 value="0.0724187140509804" flag="0"/>
			<psa10 value="0.0466022071674157" flag="0"/>
			<psa30 value="0.0101913642945191" flag="0"/>
		</comp>
		<comp name="00.HNZ" depth="0.0">
			<acc value="0.01880238453303" flag="0"/>
			<vel value="0.0218638736512" flag="0"/>
			<psa03 value="0.0456357523112197" flag="0"/>
			<psa10 value="0.0311459895189387" flag="0"/>
			<psa30 value="0.0117605524122277" flag="0"/>
		</comp>
	</station>
	<station code="MALA" name="MALA" netid="CL" source="Corinth Riff Laboratory (CRLNET)" insttype="" lat="38.39341" lon="21.87263">
		<comp name="01.HNE" depth="0.0">
			<acc value="0.063364121790192" flag="0"/>
			<vel value="0.108130429713" flag="0"/>
			<psa03 value="0.152239626794752" flag="0"/>
			<psa10 value="0.259077992645392" flag="0"/>
			<psa30 value="0.0379215821186974" flag="0"/>
		</comp>
		<comp name="01.HNN" depth="0.0">
			<acc value="0.056397605278518" flag="0"/>
			<vel value="0.0845576668309" flag="0"/>
			<psa03 value="0.119031781104728" flag="0"/>
			<psa10 value="0.168595238607075" flag="0"/>
			<psa30 value="0.0228724085181482" flag="0"/>
		</comp>
		<comp name="01.HNZ" depth="0.0">
			<acc value="0.023498916512268" flag="0"/>
			<vel value="0.0306135291707" flag="0"/>
			<psa03 value="0.0478521230933658" flag="0"/>
			<psa10 value="0.0553633050470844" flag="0"/>
			<psa30 value="0.013304827212836" flag="0"/>
		</comp>
	</station>
	<station code="ROD3" name="ROD3" netid="CL" source="Corinth Riff Laboratory (CRLNET)" insttype="" lat="38.30811" lon="21.89204">
		<comp name="00.HNE" depth="0.0">
			<acc value="0.067801055871774" flag="0"/>
			<vel value="0.04718366334" flag="0"/>
			<psa03 value="0.202143786867004" flag="0"/>
			<psa10 value="0.0626648474887389" flag="0"/>
			<psa30 value="0.0173188539557601" flag="0"/>
		</comp>
		<comp name="00.HNN" depth="0.0">
			<acc value="0.06728005109106" flag="0"/>
			<vel value="0.0398324278602" flag="0"/>
			<psa03 value="0.248423811024854" flag="0"/>
			<psa10 value="0.0750441063037522" flag="0"/>
			<psa30 value="0.00975582460885267" flag="0"/>
		</comp>
		<comp name="00.HNZ" depth="0.0">
			<acc value="0.037462992430734" flag="0"/>
			<vel value="0.0251408775376" flag="0"/>
			<psa03 value="0.0730201966046432" flag="0"/>
			<psa10 value="0.0457544035047974" flag="0"/>
			<psa30 value="0.00573977439856046" flag="0"/>
		</comp>
	</station>
	<station code="KTHA" name="KTHA" netid="GE" source="GEOFON" insttype="" lat="36.2566" lon="23.0621">
		<comp name="--.HNE" depth="0.0">
			<acc value="0.010940570438388" flag="0"/>
			<vel value="0.0220608474918" flag="0"/>
			<psa03 value="0.0295013814050501" flag="0"/>
			<psa10 value="0.0279759157671297" flag="0"/>
			<psa30 value="0.0120036576834046" flag="0"/>
		</comp>
		<comp name="--.HNN" depth="0.0">
			<acc value="0.0076452017210898" flag="0"/>
			<vel value="0.0190724766416" flag="0"/>
			<psa03 value="0.014545427104844" flag="0"/>
			<psa10 value="0.0206193946837074" flag="0"/>
			<psa30 value="0.00597952361408893" flag="0"/>
		</comp>
		<comp name="--.HNZ" depth="0.0">
			<acc value="0.008764548319875" flag="0"/>
			<vel value="0.0290741306709" flag="0"/>
			<psa03 value="0.015853685645554" flag="0"/>
			<psa10 value="0.014267758293956" flag="0"/>
			<psa30 value="0.00917816634179104" flag="0"/>
		</comp>
	</station>
	<station code="ATHU" name="ATHU" netid="HA" source="Hellenic Seismological Network, University of Athens, Seismological Laboratory (HA)" insttype="" lat="37.9665" lon="23.7845">
		<comp name="--.HNE" depth="0.0">
			<acc value="0.0001815006902334" flag="0"/>
			<vel value="0.000308864010404" flag="0"/>
			<psa03 value="0.000375572324484878" flag="0"/>
			<psa10 value="0.000243191290893414" flag="0"/>
			<psa30 value="0.00015507686162271" flag="0"/>
		</comp>
		<comp name="--.HNN" depth="0.0">
			<acc value="0.00012129484530102" flag="0"/>
			<vel value="0.000387019062617" flag="0"/>
			<psa03 value="0.000174850490864471" flag="0"/>
			<psa10 value="0.000261827022489552" flag="0"/>
			<psa30 value="0.00017445907007785" flag="0"/>
		</comp>
		<comp name="--.HNZ" depth="0.0">
			<acc value="0.00014285412005454" flag="0"/>
			<vel value="0.000351846554272" flag="0"/>
			<psa03 value="0.000297770682063855" flag="0"/>
			<psa10 value="0.00023083083828528" flag="0"/>
			<psa30 value="0.000145792457513779" flag="0"/>
		</comp>
	</station>
	<station code="AGR3" name="AGR3" netid="HI" source="ITSAK Strong Motion Network" insttype="" lat="38.5893" lon="21.4162">
		<comp name="--.HNE" depth="0.0">
			<acc value="0.11056387196004" flag="0"/>
			<vel value="0.132129666313" flag="0"/>
			<psa03 value="0.215641785209974" flag="0"/>
			<psa10 value="0.20488291248736" flag="0"/>
			<psa30 value="0.0331137336223476" flag="0"/>
		</comp>
		<comp name="--.HNN" depth="0.0">
			<acc value="0.08438853811239" flag="0"/>
			<vel value="0.109171962943" flag="0"/>
			<psa03 value="0.245113800086412" flag="0"/>
			<psa10 value="0.182323248020186" flag="0"/>
			<psa30 value="0.0437200795740164" flag="0"/>
		</comp>
		<comp name="--.HNZ" depth="0.0">
			<acc value="0.04112527368846" flag="0"/>
			<vel value="0.0589895151232" flag="0"/>
			<psa03 value="0.105964811315203" flag="0"/>
			<psa10 value="0.1217664339287" flag="0"/>
			<psa30 value="0.0149833025702479" flag="0"/>
		</comp>
	</station>
	<station code="AIG2" name="AIG2" netid="HI" source="ITSAK Strong Motion Network" insttype="" lat="38.2417" lon="22.0726">
		<comp name="--.HNE" depth="0.0">
			<acc value="0.025744899827808" flag="0"/>
			<vel value="0.0411311521944" flag="0"/>
			<psa03 value="0.0619204717192403" flag="0"/>
			<psa10 value="0.0542765093024639" flag="0"/>
			<psa30 value="0.0124815826769144" flag="0"/>
		</comp>
		<comp name="--.HNN" depth="0.0">
			<acc value="0.029590097527638" flag="0"/>
			<vel value="0.0517231085272" flag="0"/>
			<psa03 value="0.0537355597170332" flag="0"/>
			<psa10 value="0.0572659785901068" flag="0"/>
			<psa30 value="0.0178943120770255" flag="0"/>
		</comp>
		<comp name="--.HNZ" depth="0.0">
			<acc value="0.019759118347896" flag="0"/>
			<vel value="0.0285202184258" flag="0"/>
			<psa03 value="0.0514169634132243" flag="0"/>
			<psa10 value="0.0689512276803442" flag="0"/>
			<psa30 value="0.010300056494865" flag="0"/>
		</comp>
	</station>
	<station code="AKR1" name="AKR1" netid="HI" source="ITSAK Strong Motion Network" insttype="" lat="38.153583" lon="22.31326">
		<comp name="--.HNE" depth="0.0">
			<acc value="0.032150236968096" flag="0"/>
			<vel value="0.0411580287939" flag="0"/>
			<psa03 value="0.0919513517425095" flag="0"/>
			<psa10 value="0.0777769873438144" flag="0"/>
			<psa30 value="0.0115376968158097" flag="0"/>
		</comp>
		<comp name="--.HNN" depth="0.0">
			<acc value="0.029432018742822" flag="0"/>
			<vel value="0.0372850028705" flag="0"/>
			<psa03 value="0.0815288904722347" flag="0"/>
			<psa10 value="0.0775580853425518" flag="0"/>
			<psa30 value="0.00942754952888968" flag="0"/>
		</comp>
		<comp name="--.HNZ" depth="0.0">
			<acc value="0.013779233811528" flag="0"/>
			<vel value="0.0171642884214" flag="0"/>
			<psa03 value="0.0396435480654924" flag="0"/>
			<psa10 value="0.0393936558863712" flag="0"/>
			<psa30 value="0.00892654800666518" flag="0"/>
		</comp>
	</station>
	<station code="ARE2" name="ARE2" netid="HI" source="ITSAK Strong Motion Network" insttype="" lat="36.66629" lon="22.382635">
		<comp name="--.HNE" depth="0.0">
			<acc value="0.022464436855428" flag="0"/>
			<vel value="0.0266303876189" flag="0"/>
			<psa03 value="0.0939894034198988" flag="0"/>
			<psa10 value="0.0395652072507943" flag="0"/>
			<psa30 value="0.00924802680307081" flag="0"/>
		</comp>
		<comp name="--.HNN" depth="0.0">
			<acc value="0.03646465420368" flag="0"/>
			<vel value="0.0287052342071" flag="0"/>
			<psa03 value="0.084345399968709" flag="0"/>
			<psa10 value="0.0496872815384477" flag="0"/>
			<psa30 value="0.00734346480184124" flag="0"/>
		</comp>
		<comp name="--.HNZ" depth="0.0">
			<acc value="0.010865110148664" flag="0"/>
			<vel value="0.0152795556286" flag="0"/>
			<psa03 value="0.0316322960052008" flag="0"/>
			<psa10 value="0.020746394971861" flag="0"/>
			<psa30 value="0.0052792588916469" flag="0"/>
		</comp>
	</station>
	<station code="ARG2" name="ARG2" netid="HI" source="ITSAK Strong Motion Network" insttype="" lat="38.1783" lon="20.4878">
		<comp name="--.HNE" depth="0.0">
			<acc value="0.40801169739672" flag="0"/>
			<vel value="0.214467962909" flag="0"/>
			<psa03 value="0.933270407917679" flag="0"/>
			<psa10 value="0.136311644977634" flag="0"/>
			<psa30 value="0.0176537161387264" flag="0"/>
		</comp>
		<comp name="--.HNN" depth="0.0">
			<acc value="0.25073807288976" flag="0"/>
			<vel value="0.181368844086" flag="0"/>
			<psa03 value="0.872141191738264" flag="0"/>
			<psa10 value="0.15990936321052" flag="0"/>
			<psa30 value="0.0147898747566252" flag="0"/>
		</comp>
		<comp name="--.HNZ" depth="0.0">
			<acc value="0.1542790290051" flag="0"/>
			<vel value="0.0860223945888" flag="0"/>
			<psa03 value="0.522984395147334" flag="0"/>
			<psa10 value="0.116465562771948" flag="0"/>
			<psa30 value="0.0121432560977757" flag="0"/>
		</comp>
	</station>
	<station code="ARS1" name="ARS1" netid="HI" source="ITSAK Strong Motion Network" insttype="" lat="37.6349" lon="22.7293">
		<comp name="--.HNE" depth="0.0">
			<acc value="0.029981482842702" flag="0"/>
			<vel value="0.0452146689734" flag="0"/>
			<psa03 value="0.0528203688818703" flag="0"/>
			<psa10 value="0.053268438772655" flag="0"/>
			<psa30 value="0.0143341228986254" flag="0"/>
		</comp>
		<comp name="--.HNN" depth="0.0">
			<acc value="0.029207670080646" flag="0"/>
			<vel value="0.0366725861726" flag="0"/>
			<psa03 value="0.0552533581804114" flag="0"/>
			<psa10 value="0.0548585928624368" flag="0"/>
			<psa30 value="0.00923577432473043" flag="0"/>
		</comp>
		<comp name="--.HNZ" depth="0.0">
			<acc value="0.016498272999204" flag="0"/>
			<vel value="0.0167367507269" flag="0"/>
			<psa03 value="0.043491073778529" flag="0"/>
			<psa10 value="0.0140536706742226" flag="0"/>
			<psa30 value="0.0115980066443667" flag="0"/>
		</comp>
	</station>
	<station code="ART2" name="ART2" netid="HI" source="ITSAK Strong Motion Network" insttype="" lat="39.1474" lon="20.9937">
		<comp name="--.HNE" depth="0.0">
			<acc value="0.01327956891216" flag="0"/>
			<vel value="0.0204456199232" flag="0"/>
			<psa03 value="0.0280760057309173" flag="0"/>
			<psa10 value="0.0186504955037835" flag="0"/>
			<psa30 value="0.0046745409153783" flag="0"/>
		</comp>
		<comp name="--.HNN" depth="0.0">
			<acc value="0.014293926866718" flag="0"/>
			<vel value="0.0174476683557" flag="0"/>
			<psa03 value="0.0392824798756503" flag="0"/>
			<psa10 value="0.0193762754581376" flag="0"/>
			<psa30 value="0.00444957601257251" flag="0"/>
		</comp>
		<comp name="--.HNZ" depth="0.0">
			<acc value="0.0089322845347344" flag="0"/>
			<vel value="0.0130358582947" flag="0"/>
			<psa03 value="0.0181496645657988" flag="0"/>
			<psa10 value="0.0132257789554315" flag="0"/>
			<psa30 value="0.00504280864464851" flag="0"/>
		</comp>
	</station>
	<station code="AST1" name="AST1" netid="HI" source="ITSAK Strong Motion Network" insttype="" lat="38.5416" lon="21.0895">
		<comp name="--.HNE" depth="0.0">
			<acc value="0.046913068731372" flag="0"/>
			<vel value="0.0483196036104" flag="0"/>
			<psa03 value="0.125657542945428" flag="0"/>
			<psa10 value="0.0829219606728051" flag="0"/>
			<psa30 value="0.00892157767739184" flag="0"/>
		</comp>
		<comp name="--.HNN" depth="0.0">
			<acc value="0.039268138241838" flag="0"/>
			<vel value="0.0462512278375" flag="0"/>
			<psa03 value="0.118223498393348" flag="0"/>
			<psa10 value="0.0615963229541601" flag="0"/>
			<psa30 value="0.00907285019847066" flag="0"/>
		</comp>
		<comp name="--.HNZ" depth="0.0">
			<acc value="0.041036908547028" flag="0"/>
			<vel value="0.0526804637004" flag="0"/>
			<psa03 value="0.125381274643996" flag="0"/>
			<psa10 value="0.0934287766979425" flag="0"/>
			<psa30 value="0.00695134674260519" flag="0"/>
		</comp>
	</station>
	<station code="ATH5" name="ATH5" netid="HI" source="ITSAK Strong Motion Network" insttype="" lat="37.975421" lon="23.737098">
		<comp name="--.HNE" depth="0.0">
			<acc value="0.0043808489841696" flag="0"/>
			<vel value="0.0107733679721" flag="0"/>
			<psa03 value="0.0110938833528396" flag="0"/>
			<psa10 value="0.015843507679614" flag="0"/>
			<psa30 value="0.0037630922030583" flag="0"/>
		</comp>
		<comp name="--.HNN" depth="0.0">
			<acc value="0.005224414360107" flag="0"/>
			<vel value="0.00986178244901" flag="0"/>
			<psa03 value="0.0121483503414851" flag="0"/>
			<psa10 value="0.0103961096287289" flag="0"/>
			<psa30 value="0.00471657369986787" flag="0"/>
		</comp>
		<comp name="--.HNZ" depth="0.0">
			<acc value="0.0030607534781616" flag="0"/>
			<vel value="0.00761084078711" flag="0"/>
			<psa03 value="0.00694520357522112" flag="0"/>
			<psa10 value="0.0102298517399563" flag="0"/>
			<psa30 value="0.00365153314614999" flag="0"/>
		</comp>
	</station>
	<station code="FRS1" name="FRS1" netid="HI" source="ITSAK Strong Motion Network" insttype="" lat="39.2934" lon="22.3844">
		<comp name="--.HNE" depth="0.0">
			<acc value="0.0044210613036522" flag="0"/>
			<vel value="0.00959039319248" flag="0"/>
			<psa03 value="0.0111239973269029" flag="0"/>
			<psa10 value="0.0128822205713716" flag="0"/>
			<psa30 value="0.00426467584718032" flag="0"/>
		</comp>
		<comp name="--.HNN" depth="0.0">
			<acc value="0.0056559227983872" flag="0"/>
			<vel value="0.0131541317184" flag="0"/>
			<psa03 value="0.0209705167979834" flag="0"/>
			<psa10 value="0.0131968542268398" flag="0"/>
			<psa30 value="0.00450796946416586" flag="0"/>
		</comp>
		<comp name="--.HNZ" depth="0.0">
			<acc value="0.0052624402206558" flag="0"/>
			<vel value="0.00982345844078" flag="0"/>
			<psa03 value="0.0105581597127118" flag="0"/>
			<psa10 value="0.0120871013361413" flag="0"/>
			<psa30 value="0.00538444085944302" flag="0"/>
		</comp>
	</station>
	<station code="GRE3" name="GRE3" netid="HI" source="ITSAK Strong Motion Network" insttype="" lat="40.08481" lon="21.43829">
		<comp name="--.HNE" depth="0.0">
			<acc value="0.0050706571102914" flag="0"/>
			<vel value="0.010038847986" flag="0"/>
			<psa03 value="0.0112228879924907" flag="0"/>
			<psa10 value="0.016681849465654" flag="0"/>
			<psa30 value="0.00623120361999322" flag="0"/>
		</comp>
		<comp name="--.HNN" depth="0.0">
			<acc value="0.0055448992527192" flag="0"/>
			<vel value="0.00947086344074" flag="0"/>
			<psa03 value="0.0146077307113173" flag="0"/>
			<psa10 value="0.0141492982590802" flag="0"/>
			<psa30 value="0.00279922751841988" flag="0"/>
		</comp>
		<comp name="--.HNZ" depth="0.0">
			<acc value="0.0056528086947108" flag="0"/>
			<vel value="0.0104511848663" flag="0"/>
			<psa03 value="0.0102952165127937" flag="0"/>
			<psa10 value="0.0167194832087198" flag="0"/>
			<psa30 value="0.00343887301679178" flag="0"/>
		</comp>
	</station>
	<station code="GTH2" name="GTH2" netid="HI" source="ITSAK Strong Motion Network" insttype="" lat="36.7603" lon="22.5659">
		<comp name="--.HNE" depth="0.0">
			<acc value="0.04253635268049" flag="0"/>
			<vel value="0.0503509895055" flag="0"/>
			<psa03 value="0.0895563805873041" flag="0"/>
			<psa10 value="0.0788173962656378" flag="0"/>
			<psa30 value="0.0121915142946393" flag="0"/>
		</comp>
		<comp name="--.HNN" depth="0.0">
			<acc value="0.048474832611348" flag="0"/>
			<vel value="0.0480573637536" flag="0"/>
			<psa03 value="0.110886001903528" flag="0"/>
			<psa10 value="0.0469117414227785" flag="0"/>
			<psa30 value="0.0115851524594985" flag="0"/>
		</comp>
		<comp name="--.HNZ" depth="0.0">
			<acc value="0.016578474807888" flag="0"/>
			<vel value="0.0233690949649" flag="0"/>
			<psa03 value="0.035319285041805" flag="0"/>
			<psa10 value="0.0218393973778799" flag="0"/>
			<psa30 value="0.0105388564808561" flag="0"/>
		</comp>
	</station>
	<station code="JAN2" name="JAN2" netid="HI" source="ITSAK Strong Motion Network" insttype="" lat="39.664" lon="20.85222">
		<comp name="--.HNE" depth="0.0">
			<acc value="0.02277572447841" flag="0"/>
			<vel value="0.0212831430012" flag="0"/>
			<psa03 value="0.0718697089321395" flag="0"/>
			<psa10 value="0.0356548682100264" flag="0"/>
			<psa30 value="0.00531777352640852" flag="0"/>
		</comp>
		<comp name="--.HNN" depth="0.0">
			<acc value="0.019469223857604" flag="0"/>
			<vel value="0.0190386302611" flag="0"/>
			<psa03 value="0.0838212506633002" flag="0"/>
			<psa10 value="0.0195604876613116" flag="0"/>
			<psa30 value="0.00510516902571588" flag="0"/>
		</comp>
		<comp name="--.HNZ" depth="0.0">
			<acc value="0.011237650818888" flag="0"/>
			<vel value="0.0125273818848" flag="0"/>
			<psa03 value="0.017686107815756" flag="0"/>
			<psa10 value="0.0128938800937799" flag="0"/>
			<psa30 value="0.00280412950981594" flag="0"/>
		</comp>
	</station>
	<station code="KAR2" name="KAR2" netid="HI" source="ITSAK Strong Motion Network" insttype="" lat="39.365759" lon="21.91933">
		<comp name="--.HNE" depth="0.0">
			<acc value="0.024790933352094" flag="0"/>
			<vel value="0.0491147841363" flag="0"/>
			<psa03 value="0.0816197871186376" flag="0"/>
			<psa10 value="0.0836108138061437" flag="0"/>
			<psa30 value="0.0321393857432365" flag="0"/>
		</comp>
		<comp name="--.HNN" depth="0.0">
			<acc value="0.037165056825624" flag="0"/>
			<vel value="0.0488726745875" flag="0"/>
			<psa03 value="0.0823635863918284" flag="0"/>
			<psa10 value="0.071770176922053" flag="0"/>
			<psa30 value="0.0345880646228734" flag="0"/>
		</comp>
		<comp name="--.HNZ" depth="0.0">
			<acc value="0.03877932370977" flag="0"/>
			<vel value="0.0272333292932" flag="0"/>
			<psa03 value="0.0564892890131388" flag="0"/>
			<psa10 value="0.0503481728195166" flag="0"/>
			<psa30 value="0.00696376798210606" flag="0"/>
		</comp>
	</station>
	<station code="KIF1" name="KIF1" netid="HI" source="ITSAK Strong Motion Network" insttype="" lat="38.077273" lon="23.814551">
		<comp name="--.HNE" depth="0.0">
			<acc value="0.0061889917524192" flag="0"/>
			<vel value="0.0114334444605" flag="0"/>
			<psa03 value="0.0117670477383166" flag="0"/>
			<psa10 value="0.0204307590625308" flag="0"/>
			<psa30 value="0.00350576890665063" flag="0"/>
		</comp>
		<comp name="--.HNN" depth="0.0">
			<acc value="0.0055543303512498" flag="0"/>
			<vel value="0.0112268837157" flag="0"/>
