<stationlist xmlns:esm="https://esm-db.eu/esmws/shakemap/1/" created="1784080743">
	<station code="AGRP" name="AGRP" netid="CL" source="Corinth Riff Laboratory (CRLNET)" insttype="" lat="38.3959" lon="21.72277" esm:processing="automatic (Paolucci et al 2011)" esm:quality="best">
		<comp name="00.HNE" depth="0.0">
			<acc value="0.0347753126766804" flag="0"/>
			<vel value="0.036608546398251" flag="0"/>
			<psa03 value="0.0808415011860374" flag="0"/>
			<psa10 value="0.0510071477232065" flag="0"/>
			<psa30 value="0.00968218223038841" flag="0"/>
		</comp>
		<comp name="00.HNN" depth="0.0">
			<acc value="0.029329501986694" flag="0"/>
			<vel value="0.0434749644373181" flag="0"/>
			<psa03 value="0.0725816988063334" flag="0"/>
			<psa10 value="0.0466077612854461" flag="0"/>
			<psa30 value="0.0103609338610195" flag="0"/>
		</comp>
		<comp name="00.HNZ" depth="0.0">
			<acc value="0.018749199915023" flag="0"/>
			<vel value="0.0220915558738259" flag="0"/>
			<psa03 value="0.0456579516985558" flag="0"/>
			<psa10 value="0.0310199380436574" flag="0"/>
			<psa30 value="0.0120521792310584" flag="0"/>
		</comp>
	</station>
	<station code="MALA" name="MALA" netid="CL" source="Corinth Riff Laboratory (CRLNET)" insttype="" lat="38.39341" lon="21.87263" esm:processing="automatic (Paolucci et al 2011)" esm:quality="good">
		<comp name="01.HNE" depth="0.0">
			<acc value="0.0632174431991474" flag="0"/>
			<vel value="0.108144309830321" flag="0"/>
			<psa03 value="0.152226698855043" flag="0"/>
			<psa10 value="0.259088553345118" flag="0"/>
			<psa30 value="0.0379350296762072" flag="0"/>
		</comp>
		<comp name="01.HNN" depth="0.0">
			<acc value="0.0563282383740001" flag="0"/>
			<vel value="0.0845616966435521" flag="0"/>
			<psa03 value="0.119026145314644" flag="0"/>
			<psa10 value="0.168598928851596" flag="0"/>
			<psa30 value="0.0228842843048583" flag="0"/>
		</comp>
		<comp name="01.HNZ" depth="0.0">
			<acc value="0.0233218997080236" flag="0"/>
			<vel value="0.0306239634077853" flag="0"/>
			<psa03 value="0.0478437839992182" flag="0"/>
			<psa10 value="0.055366057729602" flag="0"/>
			<psa30 value="0.0133110067888727" flag="0"/>
		</comp>
	</station>
	<station code="ROD3" name="ROD3" netid="CL" source="Corinth Riff Laboratory (CRLNET)" insttype="" lat="38.30811" lon="21.89204" esm:processing="automatic (Paolucci et al 2011)" esm:quality="best">
		<comp name="00.HNE" depth="0.0">
			<acc value="0.0677496853777959" flag="0"/>
			<vel value="0.0479431162482795" flag="0"/>
			<psa03 value="0.202112659805128" flag="0"/>
			<psa10 value="0.0627797551006683" flag="0"/>
			<psa30 value="0.0173125252031626" flag="0"/>
		</comp>
		<comp name="00.HNN" depth="0.0">
			<acc value="0.0673034678053785" flag="0"/>
			<vel value="0.0416660956680496" flag="0"/>
			<psa03 value="0.248372328447811" flag="0"/>
			<psa10 value="0.0750724956844024" flag="0"/>
			<psa30 value="0.0097945055045874" flag="0"/>
		</comp>
		<comp name="00.HNZ" depth="0.0">
			<acc value="0.037433039959516" flag="0"/>
			<vel value="0.0255016173816909" flag="0"/>
			<psa03 value="0.0730259782376653" flag="0"/>
			<psa10 value="0.0456629161940959" flag="0"/>
			<psa30 value="0.00585779721698371" flag="0"/>
		</comp>
	</station>
	<station code="TRIZ" name="TRIZ" netid="CL" source="Corinth Riff Laboratory (CRLNET)" insttype="" lat="38.36543" lon="22.07272" esm:processing="automatic (Paolucci et al 2011)" esm:quality="good">
		<comp name="00.HNE" depth="0.0">
			<acc value="0.0195637710917716" flag="0"/>
			<vel value="0.0314560597484959" flag="0"/>
			<psa03 value="0.0484452457181052" flag="0"/>
			<psa10 value="0.0397682307001115" flag="0"/>
			<psa30 value="0.0218035627123567" flag="0"/>
		</comp>
		<comp name="00.HNN" depth="0.0">
			<acc value="0.0314290104563129" flag="0"/>
			<vel value="0.0317769222388853" flag="0"/>
			<psa03 value="0.0950589951085672" flag="0"/>
			<psa10 value="0.0414922574084199" flag="0"/>
			<psa30 value="0.0151040872383192" flag="0"/>
		</comp>
		<comp name="00.HNZ" depth="0.0">
			<acc value="0.0181188530321898" flag="0"/>
			<vel value="0.0255077994248414" flag="0"/>
			<psa03 value="0.0474146461959448" flag="0"/>
			<psa10 value="0.0293668397840107" flag="0"/>
			<psa30 value="0.00766697623288119" flag="0"/>
		</comp>
	</station>
	<station code="AGR3" name="AGR3" netid="HI" source="ITSAK Strong Motion Network" insttype="" lat="38.5893" lon="21.4162" esm:processing="manual (Paolucci et al 2011)" esm:quality="good">
		<comp name="--.HNE" depth="0.0">
			<acc value="0.11088227930442" flag="0"/>
			<vel value="0.130250338750384" flag="0"/>
			<psa03 value="0.215717456889499" flag="0"/>
			<psa10 value="0.205156935640128" flag="0"/>
			<psa30 value="0.0323337486188268" flag="0"/>
		</comp>
		<comp name="--.HNN" depth="0.0">
			<acc value="0.0846730375761734" flag="0"/>
			<vel value="0.110346659370862" flag="0"/>
			<psa03 value="0.245708318636902" flag="0"/>
			<psa10 value="0.182457671925309" flag="0"/>
			<psa30 value="0.0429942081552856" flag="0"/>
		</comp>
		<comp name="--.HNZ" depth="0.0">
			<acc value="0.0411733748880887" flag="0"/>
			<vel value="0.0590132437000597" flag="0"/>
			<psa03 value="0.106096017923829" flag="0"/>
			<psa10 value="0.121522772787294" flag="0"/>
			<psa30 value="0.0148311341565171" flag="0"/>
		</comp>
	</station>
	<station code="AIG2" name="AIG2" netid="HI" source="ITSAK Strong Motion Network" insttype="" lat="38.2417" lon="22.0726" esm:processing="automatic (Paolucci et al 2011)" esm:quality="best">
		<comp name="--.HNE" depth="0.0">
			<acc value="0.0251891012647992" flag="0"/>
			<vel value="0.0415269312507797" flag="0"/>
			<psa03 value="0.0620323749654023" flag="0"/>
			<psa10 value="0.0545534013951082" flag="0"/>
			<psa30 value="0.0127430558315758" flag="0"/>
		</comp>
		<comp name="--.HNN" depth="0.0">
			<acc value="0.0295784685355539" flag="0"/>
			<vel value="0.0552726233465936" flag="0"/>
			<psa03 value="0.0537901883359887" flag="0"/>
			<psa10 value="0.0572147614471504" flag="0"/>
			<psa30 value="0.0181957953821437" flag="0"/>
		</comp>
		<comp name="--.HNZ" depth="0.0">
			<acc value="0.0197036860076192" flag="0"/>
			<vel value="0.0312842278188293" flag="0"/>
			<psa03 value="0.0514969530870747" flag="0"/>
			<psa10 value="0.0689759043151447" flag="0"/>
			<psa30 value="0.0106473611687562" flag="0"/>
		</comp>
	</station>
	<station code="AKR1" name="AKR1" netid="HI" source="ITSAK Strong Motion Network" insttype="" lat="38.153583" lon="22.31326" esm:processing="automatic (Paolucci et al 2011)" esm:quality="best">
		<comp name="--.HNE" depth="0.0">
			<acc value="0.032171848132232" flag="0"/>
			<vel value="0.0391936234758246" flag="0"/>
			<psa03 value="0.0922749669303637" flag="0"/>
			<psa10 value="0.0776921567240896" flag="0"/>
			<psa30 value="0.011602716123" flag="0"/>
		</comp>
		<comp name="--.HNN" depth="0.0">
			<acc value="0.029337033535612" flag="0"/>
			<vel value="0.037508607476361" flag="0"/>
			<psa03 value="0.0817919912346717" flag="0"/>
			<psa10 value="0.0775128873483733" flag="0"/>
			<psa30 value="0.00939147547249241" flag="0"/>
		</comp>
		<comp name="--.HNZ" depth="0.0">
			<acc value="0.0138051505963564" flag="0"/>
			<vel value="0.0207478810292662" flag="0"/>
			<psa03 value="0.0397134302990206" flag="0"/>
			<psa10 value="0.0394152798188478" flag="0"/>
			<psa30 value="0.00902217017449554" flag="0"/>
		</comp>
	</station>
	<station code="ARE2" name="ARE2" netid="HI" source="ITSAK Strong Motion Network" insttype="" lat="36.66629" lon="22.382635" esm:processing="automatic (Paolucci et al 2011)" esm:quality="good">
		<comp name="--.HNE" depth="0.0">
			<acc value="0.022402365727335" flag="0"/>
			<vel value="0.0269863386538636" flag="0"/>
			<psa03 value="0.0942282109065245" flag="0"/>
			<psa10 value="0.0395147439078556" flag="0"/>
			<psa30 value="0.00933718854291642" flag="0"/>
		</comp>
		<comp name="--.HNN" depth="0.0">
			<acc value="0.0366029592635852" flag="0"/>
			<vel value="0.0297720051177097" flag="0"/>
			<psa03 value="0.0844636734288384" flag="0"/>
			<psa10 value="0.0496685265461232" flag="0"/>
			<psa30 value="0.00734457737553914" flag="0"/>
		</comp>
		<comp name="--.HNZ" depth="0.0">
			<acc value="0.0108790456644868" flag="0"/>
			<vel value="0.0149071551104645" flag="0"/>
			<psa03 value="0.0317128247773364" flag="0"/>
			<psa10 value="0.0208377303973725" flag="0"/>
			<psa30 value="0.00534270184444324" flag="0"/>
		</comp>
	</station>
	<station code="ARG2" name="ARG2" netid="HI" source="ITSAK Strong Motion Network" insttype="" lat="38.1783" lon="20.4878" esm:processing="automatic (Paolucci et al 2011)" esm:quality="best">
		<comp name="--.HNE" depth="0.0">
			<acc value="0.409352841663487" flag="0"/>
			<vel value="0.216589547058973" flag="0"/>
			<psa03 value="0.935743655091425" flag="0"/>
			<psa10 value="0.136295203888355" flag="0"/>
			<psa30 value="0.017864803455553" flag="0"/>
		</comp>
		<comp name="--.HNN" depth="0.0">
			<acc value="0.251041375784125" flag="0"/>
			<vel value="0.182120583412663" flag="0"/>
			<psa03 value="0.874113905756328" flag="0"/>
			<psa10 value="0.160279287716201" flag="0"/>
			<psa30 value="0.0148555141049024" flag="0"/>
		</comp>
		<comp name="--.HNZ" depth="0.0">
			<acc value="0.154708766647012" flag="0"/>
			<vel value="0.092685115594386" flag="0"/>
			<psa03 value="0.524242561830205" flag="0"/>
			<psa10 value="0.11681492841571" flag="0"/>
			<psa30 value="0.0124892215162982" flag="0"/>
		</comp>
	</station>
	<station code="ARS1" name="ARS1" netid="HI" source="ITSAK Strong Motion Network" insttype="" lat="37.6349" lon="22.7293" esm:processing="automatic (Paolucci et al 2011)" esm:quality="good">
		<comp name="--.HNE" depth="0.0">
			<acc value="0.0298491900169221" flag="0"/>
			<vel value="0.047875820520657" flag="0"/>
			<psa03 value="0.0529009679711703" flag="0"/>
			<psa10 value="0.0533898305642512" flag="0"/>
			<psa30 value="0.0142927984944215" flag="0"/>
		</comp>
		<comp name="--.HNN" depth="0.0">
			<acc value="0.029016898501222" flag="0"/>
			<vel value="0.0361189481568669" flag="0"/>
			<psa03 value="0.0552569209164905" flag="0"/>
			<psa10 value="0.0549406595490603" flag="0"/>
			<psa30 value="0.00931173268992442" flag="0"/>
		</comp>
		<comp name="--.HNZ" depth="0.0">
			<acc value="0.0135820374115255" flag="0"/>
			<vel value="0.0179537804727573" flag="0"/>
			<psa03 value="0.0435400223336296" flag="0"/>
			<psa10 value="0.0140755055581642" flag="0"/>
			<psa30 value="0.0119000216513655" flag="0"/>
		</comp>
	</station>
	<station code="ART2" name="ART2" netid="HI" source="ITSAK Strong Motion Network" insttype="" lat="39.1474" lon="20.9937" esm:processing="automatic (Paolucci et al 2011)" esm:quality="best">
		<comp name="--.HNE" depth="0.0">
			<acc value="0.0132085754841672" flag="0"/>
			<vel value="0.0227027311827142" flag="0"/>
			<psa03 value="0.0281115601695635" flag="0"/>
			<psa10 value="0.0187288869468436" flag="0"/>
			<psa30 value="0.0048232253483415" flag="0"/>
		</comp>
		<comp name="--.HNN" depth="0.0">
			<acc value="0.0142576902509277" flag="0"/>
			<vel value="0.0175334980467309" flag="0"/>
			<psa03 value="0.0393380721000487" flag="0"/>
			<psa10 value="0.0193447808717935" flag="0"/>
			<psa30 value="0.00462598144856783" flag="0"/>
		</comp>
		<comp name="--.HNZ" depth="0.0">
			<acc value="0.00892603069861352" flag="0"/>
			<vel value="0.0149844579666888" flag="0"/>
			<psa03 value="0.0181307635741056" flag="0"/>
			<psa10 value="0.0132538973806547" flag="0"/>
			<psa30 value="0.00508072365634067" flag="0"/>
		</comp>
	</station>
	<station code="AST1" name="AST1" netid="HI" source="ITSAK Strong Motion Network" insttype="" lat="38.5416" lon="21.0895" esm:processing="automatic (Paolucci et al 2011)" esm:quality="best">
		<comp name="--.HNE" depth="0.0">
			<acc value="0.0471837903899303" flag="0"/>
			<vel value="0.0482919798727702" flag="0"/>
			<psa03 value="0.125828804290748" flag="0"/>
			<psa10 value="0.0829965156118335" flag="0"/>
			<psa30 value="0.00891046110765144" flag="0"/>
		</comp>
		<comp name="--.HNN" depth="0.0">
			<acc value="0.0392220934206891" flag="0"/>
			<vel value="0.043493717463478" flag="0"/>
			<psa03 value="0.118655360335292" flag="0"/>
			<psa10 value="0.0616228034583001" flag="0"/>
			<psa30 value="0.00916615971309581" flag="0"/>
		</comp>
		<comp name="--.HNZ" depth="0.0">
			<acc value="0.0413255530964154" flag="0"/>
			<vel value="0.0532751330726295" flag="0"/>
			<psa03 value="0.125368325869646" flag="0"/>
			<psa10 value="0.0937490029113466" flag="0"/>
			<psa30 value="0.00681799249187495" flag="0"/>
		</comp>
	</station>
	<station code="GTH2" name="GTH2" netid="HI" source="ITSAK Strong Motion Network" insttype="" lat="36.7603" lon="22.5659" esm:processing="automatic (Paolucci et al 2011)" esm:quality="good">
		<comp name="--.HNE" depth="0.0">
			<acc value="0.0424731761762141" flag="0"/>
			<vel value="0.0510561120675504" flag="0"/>
			<psa03 value="0.0895843616076326" flag="0"/>
			<psa10 value="0.0789369016823342" flag="0"/>
			<psa30 value="0.0122600955044911" flag="0"/>
		</comp>
		<comp name="--.HNN" depth="0.0">
			<acc value="0.0484978054277801" flag="0"/>
			<vel value="0.0510206672429682" flag="0"/>
			<psa03 value="0.110913587064141" flag="0"/>
			<psa10 value="0.0469056772709181" flag="0"/>
			<psa30 value="0.0116521252294441" flag="0"/>
		</comp>
		<comp name="--.HNZ" depth="0.0">
			<acc value="0.0165915518892933" flag="0"/>
			<vel value="0.0229859005132508" flag="0"/>
			<psa03 value="0.0353080941962907" flag="0"/>
			<psa10 value="0.0217853112949565" flag="0"/>
			<psa30 value="0.0105234929630955" flag="0"/>
		</comp>
	</station>
	<station code="JAN2" name="JAN2" netid="HI" source="ITSAK Strong Motion Network" insttype="" lat="39.664" lon="20.85222" esm:processing="automatic (Paolucci et al 2011)" esm:quality="best">
		<comp name="--.HNE" depth="0.0">
			<acc value="0.0226548858370705" flag="0"/>
			<vel value="0.0224058285517387" flag="0"/>
			<psa03 value="0.0719541989042112" flag="0"/>
			<psa10 value="0.0356881029116698" flag="0"/>
			<psa30 value="0.00539526407643314" flag="0"/>
		</comp>
		<comp name="--.HNN" depth="0.0">
			<acc value="0.0194839776816265" flag="0"/>
			<vel value="0.018660196005222" flag="0"/>
			<psa03 value="0.0840079036529943" flag="0"/>
			<psa10 value="0.0196262576432482" flag="0"/>
			<psa30 value="0.00513205705692652" flag="0"/>
		</comp>
		<comp name="--.HNZ" depth="0.0">
			<acc value="0.0107558690871049" flag="0"/>
			<vel value="0.0122777195426746" flag="0"/>
			<psa03 value="0.0176958415334882" flag="0"/>
			<psa10 value="0.0129050539589901" flag="0"/>
			<psa30 value="0.00284750154966952" flag="0"/>
		</comp>
	</station>
	<station code="JAN3" name="JAN3" netid="HI" source="ITSAK Strong Motion Network" insttype="" lat="39.684" lon="20.8379" esm:processing="automatic (Paolucci et al 2011)" esm:quality="best">
		<comp name="--.HNE" depth="0.0">
			<acc value="0.0252126554813735" flag="0"/>
			<vel value="0.0230129955773949" flag="0"/>
			<psa03 value="0.0603997563957679" flag="0"/>
			<psa10 value="0.0319196470199616" flag="0"/>
			<psa30 value="0.00500153674392968" flag="0"/>
		</comp>
		<comp name="--.HNN" depth="0.0">
			<acc value="0.0154727247446195" flag="0"/>
			<vel value="0.0158492231004725" flag="0"/>
			<psa03 value="0.0405566293859885" flag="0"/>
			<psa10 value="0.0209784284679292" flag="0"/>
			<psa30 value="0.00271176797465299" flag="0"/>
		</comp>
		<comp name="--.HNZ" depth="0.0">
			<acc value="0.00975219418167601" flag="0"/>
			<vel value="0.0117730779058016" flag="0"/>
			<psa03 value="0.0243365184249082" flag="0"/>
			<psa10 value="0.0138014852181615" flag="0"/>
			<psa30 value="0.00292551525936158" flag="0"/>
		</comp>
	</station>
	<station code="KAL3" name="KAL3" netid="HI" source="ITSAK Strong Motion Network" insttype="" lat="37.0246" lon="22.103" esm:processing="automatic (Paolucci et al 2011)" esm:quality="good">
		<comp name="--.HNE" depth="0.0">
			<acc value="0.104482490687552" flag="0"/>
			<vel value="0.200368868741558" flag="0"/>
			<psa03 value="0.222505531566132" flag="0"/>
			<psa10 value="0.138596326326424" flag="0"/>
			<psa30 value="0.0907314238448763" flag="0"/>
		</comp>
		<comp name="--.HNN" depth="0.0">
			<acc value="0.106000243264229" flag="0"/>
			<vel value="0.149400055562555" flag="0"/>
			<psa03 value="0.223135302452029" flag="0"/>
			<psa10 value="0.215926929099338" flag="0"/>
			<psa30 value="0.0580990821123877" flag="0"/>
		</comp>
		<comp name="--.HNZ" depth="0.0">
			<acc value="0.0412386201998285" flag="0"/>
			<vel value="0.0582190540983116" flag="0"/>
			<psa03 value="0.111073191387144" flag="0"/>
			<psa10 value="0.169961634124132" flag="0"/>
			<psa30 value="0.0187218218954853" flag="0"/>
		</comp>
	</station>
	<station code="KLV1" name="KLV1" netid="HI" source="ITSAK Strong Motion Network" insttype="" lat="38.03256" lon="22.10797" esm:processing="automatic (Paolucci et al 2011)" esm:quality="best">
		<comp name="--.HNE" depth="0.0">
			<acc value="0.0437971099241902" flag="0"/>
			<vel value="0.0445954750389655" flag="0"/>
			<psa03 value="0.119250931038928" flag="0"/>
			<psa10 value="0.0610625500942643" flag="0"/>
			<psa30 value="0.0117159227890527" flag="0"/>
		</comp>
		<comp name="--.HNN" depth="0.0">
			<acc value="0.0326522511900058" flag="0"/>
			<vel value="0.039014115895247" flag="0"/>
			<psa03 value="0.0911327037610347" flag="0"/>
			<psa10 value="0.062084177772084" flag="0"/>
			<psa30 value="0.0144625780748188" flag="0"/>
		</comp>
		<comp name="--.HNZ" depth="0.0">
			<acc value="0.0168236985232091" flag="0"/>
			<vel value="0.0267514647736035" flag="0"/>
			<psa03 value="0.0415579717616733" flag="0"/>
			<psa10 value="0.0395110874156309" flag="0"/>
			<psa30 value="0.0093057214583765" flag="0"/>
		</comp>
	</station>
	<station code="KRI1" name="KRI1" netid="HI" source="ITSAK Strong Motion Network" insttype="" lat="37.6621" lon="20.8172" esm:processing="manual (Paolucci et al 2011)" esm:quality="good">
		<comp name="--.HNE" depth="0.0">
			<acc value="0.437493484353888" flag="0"/>
			<vel value="0.163921768436584" flag="0"/>
			<psa03 value="1.12091817199438" flag="0"/>
			<psa10 value="0.20527427341318" flag="0"/>
			<psa30 value="0.0369817165238895" flag="0"/>
		</comp>
		<comp name="--.HNN" depth="0.0">
			<acc value="0.472582441627947" flag="0"/>
			<vel value="0.326948218603336" flag="0"/>
			<psa03 value="1.49996819886505" flag="0"/>
			<psa10 value="0.249459745483853" flag="0"/>
			<psa30 value="0.0368761861996901" flag="0"/>
		</comp>
		<comp name="--.HNZ" depth="0.0">
			<acc value="0.309346074589477" flag="0"/>
			<vel value="0.121100367857585" flag="0"/>
			<psa03 value="0.468926772430634" flag="0"/>
			<psa10 value="0.12183261831304" flag="0"/>
			<psa30 value="0.0203765481796473" flag="0"/>
		</comp>
	</station>
	<station code="KYP2" name="KYP2" netid="HI" source="ITSAK Strong Motion Network" insttype="" lat="37.2497" lon="21.667" esm:processing="automatic (Paolucci et al 2011)" esm:quality="best">
		<comp name="--.HNE" depth="0.0">
			<acc value="0.0554671791525956" flag="0"/>
			<vel value="0.0368244998612801" flag="0"/>
			<psa03 value="0.192292321755928" flag="0"/>
			<psa10 value="0.0746143578350183" flag="0"/>
			<psa30 value="0.0123220337742641" flag="0"/>
		</comp>
		<comp name="--.HNN" depth="0.0">
			<acc value="0.054973395541132" flag="0"/>
			<vel value="0.0472518412999312" flag="0"/>
			<psa03 value="0.157315327618391" flag="0"/>
			<psa10 value="0.0475433582641543" flag="0"/>
			<psa30 value="0.0141557810843572" flag="0"/>
		</comp>
		<comp name="--.HNZ" depth="0.0">
			<acc value="0.036499066257006" flag="0"/>
			<vel value="0.0442863735931975" flag="0"/>
			<psa03 value="0.0800982488242161" flag="0"/>
			<psa10 value="0.0416387646138032" flag="0"/>
			<psa30 value="0.0241387624078759" flag="0"/>
		</comp>
	</station>
