<?xml version="1.0" encoding="UTF-8" standalone="yes"?>
<!DOCTYPE earthquake SYSTEM "stationlist.dtd">
<stationlist created="" xmlns="ch.ethz.sed.shakemap.usgs.xml">
  <station code="KRL1" name="KRL1" netid="HI" insttype="CMG-5TD,ACCELEROMETER,GURALP" lat="37.7951" lon="26.7065">
    <comp name="--.HNE">
      <acc value="0.5997252137" flag="0"/>
      <vel value="0.2455695599" flag="0"/>
      <psa03 value="1.1506232218" flag="0"/>
      <psa10 value="0.1033715036" flag="0"/>
      <psa30 value="0.0089405784" flag="0"/>
    </comp>
    <comp name="--.HNN">
      <acc value="0.3061124496" flag="0"/>
      <vel value="0.0828061717" flag="0"/>
      <psa03 value="0.4485503881" flag="0"/>
      <psa10 value="0.0735001146" flag="0"/>
      <psa30 value="0.0050207802" flag="0"/>
    </comp>
    <comp name="--.HNZ">
      <acc value="0.1246072163" flag="0"/>
      <vel value="0.0449663740" flag="0"/>
      <psa03 value="0.3067375330" flag="0"/>
      <psa10 value="0.0561523133" flag="0"/>
      <psa30 value="0.0042430262" flag="0"/>
    </comp>
  </station>
  <station code="KLNA" name="KLNA" netid="HL" insttype="CMG-5" lat="36.9571" lon="26.9727">
    <comp name="00.HNE">
      <acc value="0.0748020473" flag="0"/>
      <vel value="0.0336891823" flag="0"/>
      <psa03 value="0.1515578317" flag="0"/>
      <psa10 value="0.0111938371" flag="0"/>
      <psa30 value="0.0011556967" flag="0"/>
    </comp>
    <comp name="00.HNN">
      <acc value="0.0607812425" flag="0"/>
      <vel value="0.0242675237" flag="0"/>
      <psa03 value="0.1206691209" flag="0"/>
      <psa10 value="0.0153543072" flag="0"/>
      <psa30 value="0.0009655608" flag="0"/>
    </comp>
    <comp name="00.HNZ">
      <acc value="0.0508923600" flag="0"/>
      <vel value="0.0157437075" flag="0"/>
      <psa03 value="0.0990230985" flag="0"/>
      <psa10 value="0.0107978478" flag="0"/>
      <psa30 value="0.0008732592" flag="0"/>
    </comp>
  </station>
  <station code="SAM2" name="SAM2" netid="HL" insttype="60" lat="37.7586" lon="26.6107">
    <comp name="--.HHE">
      <acc value="0.1409884387" flag="0"/>
      <vel value="0.0684325488" flag="0"/>
      <psa03 value="0.3027550980" flag="0"/>
      <psa10 value="0.0391820207" flag="0"/>
      <psa30 value="0.0029361715" flag="0"/>
    </comp>
    <comp name="--.HHN">
      <acc value="0.2124898031" flag="0"/>
      <vel value="0.0752207683" flag="0"/>
      <psa03 value="0.6415688521" flag="0"/>
      <psa10 value="0.0414616587" flag="0"/>
      <psa30 value="0.0023258202" flag="0"/>
    </comp>
    <comp name="--.HHZ">
      <acc value="0.0811603105" flag="0"/>
      <vel value="0.0328475479" flag="0"/>
      <psa03 value="0.1739649810" flag="0"/>
      <psa10 value="0.0212409869" flag="0"/>
      <psa30 value="0.0015996662" flag="0"/>
    </comp>
  </station>
  <station code="SMG" name="SMG" netid="HL" insttype="120" lat="37.7043" lon="26.8377">
    <comp name="--.HHE">
      <acc value="0.3238616966" flag="0"/>
      <vel value="0.1319097040" flag="0"/>
      <psa03 value="0.7616564388" flag="0"/>
      <psa10 value="0.0444965541" flag="0"/>
      <psa30 value="0.0054390331" flag="0"/>
    </comp>
    <comp name="--.HHN">
      <acc value="0.4752577762" flag="0"/>
      <vel value="0.1670124648" flag="0"/>
      <psa03 value="0.7687239216" flag="0"/>
      <psa10 value="0.0874641248" flag="0"/>
      <psa30 value="0.0063264447" flag="0"/>
    </comp>
    <comp name="--.HHZ">
      <acc value="0.2674163056" flag="0"/>
      <vel value="0.0902575624" flag="0"/>
      <psa03 value="0.5125794571" flag="0"/>
      <psa10 value="0.0653455027" flag="0"/>
      <psa30 value="0.0083995642" flag="0"/>
    </comp>
  </station>
  <station code="CHOS" name="CHOS" netid="HT" insttype="100" lat="38.3869" lon="26.0506">
    <comp name="--.HHN">
      <acc value="0.0139892853" flag="0"/>
      <vel value="0.0118823018" flag="0"/>
      <psa03 value="0.0307655034" flag="0"/>
      <psa10 value="0.0164071430" flag="0"/>
      <psa30 value="0.0009117112" flag="0"/>
    </comp>
    <comp name="--.HHE">
      <acc value="0.0170778425" flag="0"/>
      <vel value="0.0099659090" flag="0"/>
      <psa03 value="0.0506094859" flag="0"/>
      <psa10 value="0.0174677800" flag="0"/>
      <psa30 value="0.0007095065" flag="0"/>
    </comp>
    <comp name="--.HHZ">
      <acc value="0.0074510169" flag="0"/>
      <vel value="0.0066082060" flag="0"/>
      <psa03 value="0.0148983905" flag="0"/>
      <psa10 value="0.0066482682" flag="0"/>
      <psa30 value="0.0005637864" flag="0"/>
    </comp>
  </station>
  <station code="DIDI" name="DIDI" netid="KO" insttype="CMG-5T" lat="37.3767" lon="27.2398">
    <comp name="--.HNN">
      <acc value="0.0786751700" flag="0"/>
      <vel value="0.0443446522" flag="0"/>
      <psa03 value="0.1948431097" flag="0"/>
      <psa10 value="0.0424605659" flag="0"/>
      <psa30 value="0.0025604680" flag="0"/>
    </comp>
    <comp name="--.HNE">
      <acc value="0.0953753482" flag="0"/>
      <vel value="0.0348179741" flag="0"/>
      <psa03 value="0.1673909914" flag="0"/>
      <psa10 value="0.0162816379" flag="0"/>
      <psa30 value="0.0033291137" flag="0"/>
    </comp>
    <comp name="--.HNZ">
      <acc value="0.1222780082" flag="0"/>
      <vel value="0.0391749907" flag="0"/>
      <psa03 value="0.2167859017" flag="0"/>
      <psa10 value="0.0136402717" flag="0"/>
      <psa30 value="0.0010704052" flag="0"/>
    </comp>
  </station>
  <station code="GMLD" name="GMLD" netid="KO" insttype="CMG-5T" lat="38.0766" lon="26.9157">
    <comp name="--.HNE">
      <acc value="0.1737328028" flag="0"/>
      <vel value="0.0621325042" flag="0"/>
      <psa03 value="0.2498805401" flag="0"/>
      <psa10 value="0.0427045483" flag="0"/>
      <psa30 value="0.0039564858" flag="0"/>
    </comp>
    <comp name="--.HNN">
      <acc value="0.1752528429" flag="0"/>
      <vel value="0.0574785602" flag="0"/>
      <psa03 value="0.1944765199" flag="0"/>
      <psa10 value="0.0374938575" flag="0"/>
      <psa30 value="0.0044808922" flag="0"/>
    </comp>
    <comp name="--.HNZ">
      <acc value="0.1066230845" flag="0"/>
      <vel value="0.0234233495" flag="0"/>
      <psa03 value="0.1358041488" flag="0"/>
      <psa10 value="0.0089251973" flag="0"/>
      <psa30 value="0.0026660151" flag="0"/>
    </comp>
  </station>
  <station code="KUSD" name="KUSD" netid="KO" insttype="CMG-5T" lat="37.8606" lon="27.2868">
    <comp name="--.HNZ">
      <acc value="0.0630758660" flag="0"/>
      <vel value="0.0289070780" flag="0"/>
      <psa03 value="0.1683908299" flag="0"/>
      <psa10 value="0.0152494578" flag="0"/>
      <psa30 value="0.0014068243" flag="0"/>
    </comp>
    <comp name="--.HNE">
      <acc value="0.1404903877" flag="0"/>
      <vel value="0.0670546209" flag="0"/>
      <psa03 value="0.3744450515" flag="0"/>
      <psa10 value="0.0274737500" flag="0"/>
      <psa30 value="0.0019021503" flag="0"/>
    </comp>
    <comp name="--.HNN">
      <acc value="0.0945047453" flag="0"/>
      <vel value="0.0475026340" flag="0"/>
      <psa03 value="0.2854557852" flag="0"/>
      <psa10 value="0.0209973241" flag="0"/>
      <psa30 value="0.0015217017" flag="0"/>
    </comp>
  </station>
  <station code="AYDN" name="AYDN" netid="TU" source="ODC" insttype="T" lat="37.6608" lon="27.8792">
    <comp name="--.HHZ">
      <acc value="0.0239046264" flag="0"/>
      <vel value="0.0075162750" flag="0"/>
      <psa03 value="0.0389855741" flag="0"/>
      <psa10 value="0.0062932372" flag="0"/>
      <psa30 value="0.0007092411" flag="0"/>
    </comp>
    <comp name="--.HHE">
      <acc value="0.0485812542" flag="0"/>
      <vel value="0.0199028895" flag="0"/>
      <psa03 value="0.0841668681" flag="0"/>
      <psa10 value="0.0110581547" flag="0"/>
      <psa30 value="0.0007079113" flag="0"/>
    </comp>
    <comp name="--.HHN">
      <acc value="0.0361890899" flag="0"/>
      <vel value="0.0164586765" flag="0"/>
      <psa03 value="0.0983765368" flag="0"/>
      <psa10 value="0.0097741906" flag="0"/>
      <psa30 value="0.0008875469" flag="0"/>
    </comp>
  </station>
</stationlist>
