<stationlist created="1778136598">
	<station code="KRL1" name="KRL1" netid="HI" source="ITSAK Strong Motion Network" insttype="" lat="37.7951" lon="26.7065">
		<comp name="--.HNE" depth="0.0">
			<acc value="0.601576890490296" flag="0"/>
			<vel value="0.247149757013141" flag="0"/>
			<psa03 value="1.15588832192674" flag="0"/>
			<psa10 value="0.103249837295164" flag="0"/>
			<psa30 value="0.00896723986896734" flag="0"/>
		</comp>
		<comp name="--.HNN" depth="0.0">
			<acc value="0.306389170421079" flag="0"/>
			<vel value="0.083791662792446" flag="0"/>
			<psa03 value="0.448011011866284" flag="0"/>
			<psa10 value="0.0735422743146556" flag="0"/>
			<psa30 value="0.0051041039551605" flag="0"/>
		</comp>
		<comp name="--.HNZ" depth="0.0">
			<acc value="0.12372376390189" flag="0"/>
			<vel value="0.0453866371393775" flag="0"/>
			<psa03 value="0.303996304929849" flag="0"/>
			<psa10 value="0.0562165278190129" flag="0"/>
			<psa30 value="0.00446090092945804" flag="0"/>
		</comp>
	</station>
	<station code="MYT1" name="MYT1" netid="HI" source="ITSAK Strong Motion Network" insttype="" lat="39.085" lon="26.5694">
		<comp name="--.HNE" depth="0.0">
			<acc value="0.00452239043909691" flag="0"/>
			<vel value="0.0043633871451309" flag="0"/>
			<psa03 value="0.0117215421196324" flag="0"/>
			<psa10 value="0.00922323630662511" flag="0"/>
			<psa30 value="0.00109062308176101" flag="0"/>
		</comp>
		<comp name="--.HNN" depth="0.0">
			<acc value="0.00351623261188386" flag="0"/>
			<vel value="0.00448445623012231" flag="0"/>
			<psa03 value="0.00814906587730044" flag="0"/>
			<psa10 value="0.00679977560802154" flag="0"/>
			<psa30 value="0.00140877082415458" flag="0"/>
		</comp>
		<comp name="--.HNZ" depth="0.0">
			<acc value="0.00326865516995509" flag="0"/>
			<vel value="0.00418395983768584" flag="0"/>
			<psa03 value="0.00623069139854981" flag="0"/>
			<psa10 value="0.00698510163496221" flag="0"/>
			<psa30 value="0.000777444001850416" flag="0"/>
		</comp>
	</station>
	<station code="NAX1" name="NAX1" netid="HI" source="ITSAK Strong Motion Network" insttype="" lat="37.101394" lon="25.374103">
		<comp name="--.HNE" depth="0.0">
			<acc value="0.00544162528114018" flag="0"/>
			<vel value="0.00289757569235885" flag="0"/>
			<psa03 value="0.0148307194415269" flag="0"/>
			<psa10 value="0.00197238433265659" flag="0"/>
			<psa30 value="0.000165572973605288" flag="0"/>
		</comp>
		<comp name="--.HNN" depth="0.0">
			<acc value="0.00363778641770036" flag="0"/>
			<vel value="0.00158794865728569" flag="0"/>
			<psa03 value="0.00936943252786991" flag="0"/>
			<psa10 value="0.00169936882484303" flag="0"/>
			<psa30 value="0.000256441727589124" flag="0"/>
		</comp>
		<comp name="--.HNZ" depth="0.0">
			<acc value="0.00324555982966958" flag="0"/>
			<vel value="0.00184567831370962" flag="0"/>
			<psa03 value="0.00992843114732478" flag="0"/>
			<psa10 value="0.00138144667031253" flag="0"/>
			<psa30 value="0.000145004228214216" flag="0"/>
		</comp>
	</station>
	<station code="RDI1" name="RDI1" netid="HI" source="ITSAK Strong Motion Network" insttype="" lat="36.4514" lon="28.224">
		<comp name="--.HNE" depth="0.0">
			<acc value="0.00346403789924423" flag="0"/>
			<vel value="0.00316286646736212" flag="0"/>
			<psa03 value="0.0137118354251467" flag="0"/>
			<psa10 value="0.00560457283792957" flag="0"/>
			<psa30 value="0.000835179441121863" flag="0"/>
		</comp>
		<comp name="--.HNN" depth="0.0">
			<acc value="0.00300624958240227" flag="0"/>
			<vel value="0.00424987984624652" flag="0"/>
			<psa03 value="0.00967638515366024" flag="0"/>
			<psa10 value="0.00404384507240984" flag="0"/>
			<psa30 value="0.000932254465616116" flag="0"/>
		</comp>
		<comp name="--.HNZ" depth="0.0">
			<acc value="0.00209432756758025" flag="0"/>
			<vel value="0.00229187012084159" flag="0"/>
			<psa03 value="0.00564414863671055" flag="0"/>
			<psa10 value="0.00432701789370573" flag="0"/>
			<psa30 value="0.00034996919936693" flag="0"/>
		</comp>
	</station>
	<station code="KLNA" name="KLNA" netid="HL" source="National Observatory of Athens Seismic Network" insttype="" lat="36.95708" lon="26.97274">
		<comp name="00.HNE" depth="0.0">
			<acc value="0.0749582710704038" flag="0"/>
			<vel value="0.0337888306434899" flag="0"/>
			<psa03 value="0.151368131562326" flag="0"/>
			<psa10 value="0.0111919770385477" flag="0"/>
			<psa30 value="0.00117929728932609" flag="0"/>
		</comp>
		<comp name="00.HNN" depth="0.0">
			<acc value="0.0609346719662914" flag="0"/>
			<vel value="0.0243174174456006" flag="0"/>
			<psa03 value="0.121038070261451" flag="0"/>
			<psa10 value="0.0153705797879776" flag="0"/>
			<psa30 value="0.000976184875789559" flag="0"/>
		</comp>
		<comp name="00.HNZ" depth="0.0">
			<acc value="0.0507604933572654" flag="0"/>
			<vel value="0.015796875320202" flag="0"/>
			<psa03 value="0.0992801393219878" flag="0"/>
			<psa10 value="0.0108052861096736" flag="0"/>
			<psa30 value="0.000863676693508285" flag="0"/>
		</comp>
	</station>
	<station code="PRK" name="PRK" netid="HL" source="National Observatory of Athens Seismic Network" insttype="" lat="39.24565" lon="26.26499">
		<comp name="--.HNE" depth="0.0">
			<acc value="0.00507297955751399" flag="0"/>
			<vel value="0.0056699728769267" flag="0"/>
			<psa03 value="0.00932263190154015" flag="0"/>
			<psa10 value="0.00619874766785767" flag="0"/>
			<psa30 value="0.00055071507592078" flag="0"/>
		</comp>
		<comp name="--.HNN" depth="0.0">
			<acc value="0.00374092777153607" flag="0"/>
			<vel value="0.00424470169829968" flag="0"/>
			<psa03 value="0.0129033391578722" flag="0"/>
			<psa10 value="0.00959087691104255" flag="0"/>
			<psa30 value="0.000622176216120763" flag="0"/>
		</comp>
		<comp name="--.HNZ" depth="0.0">
			<acc value="0.00230803140038302" flag="0"/>
			<vel value="0.0019041286899556" flag="0"/>
			<psa03 value="0.00599631259084235" flag="0"/>
			<psa10 value="0.00257656529418215" flag="0"/>
			<psa30 value="0.000317479911694188" flag="0"/>
		</comp>
	</station>
	<station code="SMG" name="SMG" netid="HL" source="National Observatory of Athens Seismic Network" insttype="" lat="37.70425" lon="26.83772">
		<comp name="00.HNE" depth="0.0">
			<acc value="0.330738960099623" flag="0"/>
			<vel value="0.136279068824494" flag="0"/>
			<psa03 value="0.779269456108954" flag="0"/>
			<psa10 value="0.0394142635015346" flag="0"/>
			<psa30 value="0.00575875023893872" flag="0"/>
		</comp>
		<comp name="00.HNN" depth="0.0">
			<acc value="0.417598445305209" flag="0"/>
			<vel value="0.157085560162995" flag="0"/>
			<psa03 value="0.717271182363938" flag="0"/>
			<psa10 value="0.0834328420163899" flag="0"/>
			<psa30 value="0.00611707522619666" flag="0"/>
		</comp>
		<comp name="00.HNZ" depth="0.0">
			<acc value="0.239895214324403" flag="0"/>
			<vel value="0.084990383737262" flag="0"/>
			<psa03 value="0.487043264227518" flag="0"/>
			<psa10 value="0.0647308331001558" flag="0"/>
			<psa30 value="0.00867759568146823" flag="0"/>
		</comp>
	</station>
	<station code="AKS" name="AKS" netid="KO" source="Bogazici University Kandilli Observatory And Earthquake Research Institute (KOERI)" insttype="" lat="38.8785" lon="27.8129">
		<comp name="--.HNE" depth="0.0">
			<acc value="0.00770141891194879" flag="0"/>
			<vel value="0.00363073078931085" flag="0"/>
			<psa03 value="0.0144097423351332" flag="0"/>
			<psa10 value="0.00395864083427829" flag="0"/>
			<psa30 value="0.00055099415690658" flag="0"/>
		</comp>
		<comp name="--.HNN" depth="0.0">
			<acc value="0.00827910179978568" flag="0"/>
			<vel value="0.0033201835683307" flag="0"/>
			<psa03 value="0.0230656451732882" flag="0"/>
			<psa10 value="0.00332998082926051" flag="0"/>
			<psa30 value="0.000581932873111333" flag="0"/>
		</comp>
		<comp name="--.HNZ" depth="0.0">
			<acc value="0.00294215731860575" flag="0"/>
			<vel value="0.00135282266860579" flag="0"/>
			<psa03 value="0.00821541727796309" flag="0"/>
			<psa10 value="0.00167313243837577" flag="0"/>
			<psa30 value="0.000536067699352301" flag="0"/>
		</comp>
	</station>
	<station code="CESE" name="CESE" netid="KO" source="Bogazici University Kandilli Observatory And Earthquake Research Institute (KOERI)" insttype="" lat="38.3306" lon="26.2997">
		<comp name="--.HNE" depth="0.0">
			<acc value="0.0089468197439839" flag="0"/>
			<vel value="0.0075677055423496" flag="0"/>
			<psa03 value="0.00989547909464921" flag="0"/>
			<psa10 value="0.0102392976782242" flag="0"/>
			<psa30 value="0.00048256821777668" flag="0"/>
		</comp>
		<comp name="--.HNN" depth="0.0">
			<acc value="0.0149334846643307" flag="0"/>
			<vel value="0.0153605040562148" flag="0"/>
			<psa03 value="0.029008359161422" flag="0"/>
			<psa10 value="0.0272468262184994" flag="0"/>
			<psa30 value="0.00175687159245586" flag="0"/>
		</comp>
		<comp name="--.HNZ" depth="0.0">
			<acc value="0.00807254619100739" flag="0"/>
			<vel value="0.00554921117172254" flag="0"/>
			<psa03 value="0.00953412377639404" flag="0"/>
			<psa10 value="0.0104450138059163" flag="0"/>
			<psa30 value="0.000501488012787303" flag="0"/>
		</comp>
	</station>
	<station code="DATC" name="DATC" netid="KO" source="Bogazici University Kandilli Observatory And Earthquake Research Institute (KOERI)" insttype="" lat="36.7584" lon="27.6602">
		<comp name="--.HNE" depth="0.0">
			<acc value="0.358057217793291" flag="0"/>
			<vel value="0.029837397548612" flag="0"/>
			<psa03 value="0.036205145809049" flag="0"/>
			<psa10 value="0.0153867761734122" flag="0"/>
			<psa30 value="0.0012947736890707" flag="0"/>
		</comp>
		<comp name="--.HNN" depth="0.0">
			<acc value="0.282211704180542" flag="0"/>
			<vel value="0.0245099139983462" flag="0"/>
			<psa03 value="0.0687614301072653" flag="0"/>
			<psa10 value="0.0126764669412183" flag="0"/>
			<psa30 value="0.00209907717856107" flag="0"/>
		</comp>
		<comp name="--.HNZ" depth="0.0">
			<acc value="0.364454680375105" flag="0"/>
			<vel value="0.0682207760666748" flag="0"/>
			<psa03 value="0.0853722804946144" flag="0"/>
			<psa10 value="0.00723583011949469" flag="0"/>
			<psa30 value="0.000777624222120882" flag="0"/>
		</comp>
	</station>
	<station code="DIDI" name="DIDI" netid="KO" source="Bogazici University Kandilli Observatory And Earthquake Research Institute (KOERI)" insttype="" lat="37.3767" lon="27.2398">
		<comp name="--.HNE" depth="0.0">
			<acc value="0.0938886062463826" flag="0"/>
			<vel value="0.0347241898637347" flag="0"/>
			<psa03 value="0.170449291429236" flag="0"/>
			<psa10 value="0.0163079834488491" flag="0"/>
			<psa30 value="0.00350783987717746" flag="0"/>
		</comp>
		<comp name="--.HNN" depth="0.0">
			<acc value="0.0788642217198945" flag="0"/>
			<vel value="0.0444253316544049" flag="0"/>
			<psa03 value="0.191536375845049" flag="0"/>
			<psa10 value="0.0424337797797325" flag="0"/>
			<psa30 value="0.00271834924396446" flag="0"/>
		</comp>
		<comp name="--.HNZ" depth="0.0">
			<acc value="0.121209685254088" flag="0"/>
			<vel value="0.039421040039768" flag="0"/>
			<psa03 value="0.220414059682936" flag="0"/>
			<psa10 value="0.0136920810956795" flag="0"/>
			<psa30 value="0.00111706035393069" flag="0"/>
		</comp>
	</station>
	<station code="EZNE" name="EZNE" netid="KO" source="Bogazici University Kandilli Observatory And Earthquake Research Institute (KOERI)" insttype="" lat="39.756" lon="26.3655">
		<comp name="--.HNE" depth="0.0">
			<acc value="0.00300121523590753" flag="0"/>
			<vel value="0.00116262124211052" flag="0"/>
			<psa03 value="0.00463855630502011" flag="0"/>
			<psa10 value="0.00113761125959997" flag="0"/>
			<psa30 value="0.000269846782275152" flag="0"/>
		</comp>
		<comp name="--.HNN" depth="0.0">
			<acc value="0.00480564976358218" flag="0"/>
			<vel value="0.00111013704475671" flag="0"/>
			<psa03 value="0.00446258175695424" flag="0"/>
			<psa10 value="0.00217714625650662" flag="0"/>
			<psa30 value="0.000318040547792142" flag="0"/>
		</comp>
		<comp name="--.HNZ" depth="0.0">
			<acc value="0.00497255460574893" flag="0"/>
			<vel value="0.000728560290283837" flag="0"/>
			<psa03 value="0.00274958253697399" flag="0"/>
			<psa10 value="0.0011042344001117" flag="0"/>
			<psa30 value="0.000234185070903177" flag="0"/>
		</comp>
	</station>
	<station code="FOCM" name="FOCM" netid="KO" source="Bogazici University Kandilli Observatory And Earthquake Research Institute (KOERI)" insttype="" lat="38.7131" lon="26.7309">
		<comp name="--.HNE" depth="0.0">
			<acc value="0.0083096607398778" flag="0"/>
			<vel value="0.00451535154821906" flag="0"/>
			<psa03 value="0.0218569401025035" flag="0"/>
			<psa10 value="0.00769129216660718" flag="0"/>
			<psa30 value="0.000680121460959113" flag="0"/>
		</comp>
		<comp name="--.HNN" depth="0.0">
			<acc value="0.00997033535779835" flag="0"/>
			<vel value="0.00480235374530262" flag="0"/>
			<psa03 value="0.0227898821136938" flag="0"/>
			<psa10 value="0.00629512061458507" flag="0"/>
			<psa30 value="0.000730270303905813" flag="0"/>
		</comp>
		<comp name="--.HNZ" depth="0.0">
			<acc value="0.00609221383924365" flag="0"/>
			<vel value="0.00363244148326793" flag="0"/>
			<psa03 value="0.014249559848836" flag="0"/>
			<psa10 value="0.00333101472587894" flag="0"/>
			<psa30 value="0.000594398438479169" flag="0"/>
		</comp>
	</station>
	<station code="GOMA" name="GOMA" netid="KO" source="Bogazici University Kandilli Observatory And Earthquake Research Institute (KOERI)" insttype="" lat="38.7077" lon="27.9175">
		<comp name="--.HNE" depth="0.0">
			<acc value="0.0148398649806784" flag="0"/>
			<vel value="0.00849531041522132" flag="0"/>
			<psa03 value="0.0569387562880912" flag="0"/>
			<psa10 value="0.00537654976379854" flag="0"/>
			<psa30 value="0.000467571859759352" flag="0"/>
		</comp>
		<comp name="--.HNN" depth="0.0">
			<acc value="0.00910714649810024" flag="0"/>
			<vel value="0.00467433684077452" flag="0"/>
			<psa03 value="0.0291136291558856" flag="0"/>
			<psa10 value="0.00417727375512995" flag="0"/>
			<psa30 value="0.000368414067082357" flag="0"/>
		</comp>
		<comp name="--.HNZ" depth="0.0">
			<acc value="0.0103792331023629" flag="0"/>
			<vel value="0.0038211892831487" flag="0"/>
			<psa03 value="0.021379810838803" flag="0"/>
			<psa10 value="0.00265515550039503" flag="0"/>
			<psa30 value="0.000496927137732869" flag="0"/>
		</comp>
	</station>
	<station code="GORD" name="GORD" netid="KO" source="Bogazici University Kandilli Observatory And Earthquake Research Institute (KOERI)" insttype="" lat="38.9088" lon="28.1769">
		<comp name="--.HNE" depth="0.0">
			<acc value="0.00379627602455971" flag="0"/>
			<vel value="0.0041979689249454" flag="0"/>
			<psa03 value="0.0138599572166348" flag="0"/>
			<psa10 value="0.00604013747320609" flag="0"/>
			<psa30 value="0.000793925510334448" flag="0"/>
		</comp>
		<comp name="--.HNN" depth="0.0">
			<acc value="0.00335720510043582" flag="0"/>
			<vel value="0.002328118107835" flag="0"/>
			<psa03 value="0.00974548608542375" flag="0"/>
			<psa10 value="0.00580868526565844" flag="0"/>
			<psa30 value="0.000643685349329599" flag="0"/>
		</comp>
		<comp name="--.HNZ" depth="0.0">
			<acc value="0.00305195888616038" flag="0"/>
			<vel value="0.00248912514558123" flag="0"/>
			<psa03 value="0.00808887959857523" flag="0"/>
			<psa10 value="0.00569983008577134" flag="0"/>
			<psa30 value="0.000298998895750941" flag="0"/>
		</comp>
	</station>
	<station code="KUSD" name="KUSD" netid="KO" source="Bogazici University Kandilli Observatory And Earthquake Research Institute (KOERI)" insttype="" lat="37.8606" lon="27.2868">
		<comp name="--.HNE" depth="0.0">
			<acc value="0.140474607848585" flag="0"/>
			<vel value="0.0671017838522818" flag="0"/>
			<psa03 value="0.376541610700615" flag="0"/>
			<psa10 value="0.0275249427673872" flag="0"/>
			<psa30 value="0.00203343137151682" flag="0"/>
		</comp>
		<comp name="--.HNN" depth="0.0">
			<acc value="0.0893387399065137" flag="0"/>
			<vel value="0.048112354205848" flag="0"/>
			<psa03 value="0.285236103825285" flag="0"/>
			<psa10 value="0.0210857118249076" flag="0"/>
			<psa30 value="0.00161776081454922" flag="0"/>
		</comp>
		<comp name="--.HNZ" depth="0.0">
			<acc value="0.0626861029274788" flag="0"/>
			<vel value="0.0287300249971411" flag="0"/>
			<psa03 value="0.170033795154295" flag="0"/>
			<psa10 value="0.0152534079634218" flag="0"/>
			<psa30 value="0.00148145553499119" flag="0"/>
		</comp>
	</station>
	<station code="NAZL" name="NAZL" netid="KO" source="Bogazici University Kandilli Observatory And Earthquake Research Institute (KOERI)" insttype="" lat="37.9641" lon="28.2922">
		<comp name="--.HNE" depth="0.0">
			<acc value="0.0291469370572032" flag="0"/>
			<vel value="0.0143100622959842" flag="0"/>
			<psa03 value="0.107867156086227" flag="0"/>
			<psa10 value="0.00960059380473574" flag="0"/>
			<psa30 value="0.000453368106330518" flag="0"/>
		</comp>
		<comp name="--.HNN" depth="0.0">
			<acc value="0.0197480848707019" flag="0"/>
			<vel value="0.00977659593320568" flag="0"/>
			<psa03 value="0.0956924224868273" flag="0"/>
			<psa10 value="0.00477989742598101" flag="0"/>
			<psa30 value="0.000707703496466828" flag="0"/>
		</comp>
		<comp name="--.HNZ" depth="0.0">
			<acc value="0.00819833398358942" flag="0"/>
			<vel value="0.00342862327802962" flag="0"/>
			<psa03 value="0.0229999715519111" flag="0"/>
			<psa10 value="0.00304994274686337" flag="0"/>
			<psa30 value="0.000383050401250976" flag="0"/>
		</comp>
	</station>
	<station code="ODEM" name="ODEM" netid="KO" source="Bogazici University Kandilli Observatory And Earthquake Research Institute (KOERI)" insttype="" lat="38.2762" lon="28.0747">
		<comp name="--.HNE" depth="0.0">
			<acc value="0.0072916289503785" flag="0"/>
			<vel value="0.00323344621794536" flag="0"/>
			<psa03 value="0.00971248324810655" flag="0"/>
			<psa10 value="0.00335036389829138" flag="0"/>
			<psa30 value="0.000326392298971472" flag="0"/>
		</comp>
		<comp name="--.HNN" depth="0.0">
			<acc value="0.00674873895541774" flag="0"/>
			<vel value="0.00330943169434628" flag="0"/>
			<psa03 value="0.0125737678462511" flag="0"/>
			<psa10 value="0.00295886538530938" flag="0"/>
			<psa30 value="0.000461710221453291" flag="0"/>
		</comp>
		<comp name="--.HNZ" depth="0.0">
			<acc value="0.00504052673845835" flag="0"/>
			<vel value="0.00311558267138459" flag="0"/>
			<psa03 value="0.00723136185471854" flag="0"/>
			<psa10 value="0.00380731807551074" flag="0"/>
			<psa30 value="0.000471581917069587" flag="0"/>
		</comp>
	</station>
	<station code="SOMA" name="SOMA" netid="KO" source="Bogazici University Kandilli Observatory And Earthquake Research Institute (KOERI)" insttype="" lat="39.1564" lon="27.5341">
		<comp name="--.HNE" depth="0.0">
			<acc value="0.00605864500678003" flag="0"/>
			<vel value="0.00286126258574382" flag="0"/>
			<psa03 value="0.0244723841961899" flag="0"/>
			<psa10 value="0.00397650373635702" flag="0"/>
			<psa30 value="0.000559737965309839" flag="0"/>
		</comp>
		<comp name="--.HNN" depth="0.0">
			<acc value="0.00906287310984211" flag="0"/>
			<vel value="0.00469928927618069" flag="0"/>
			<psa03 value="0.0182454651829215" flag="0"/>
			<psa10 value="0.00277370061905262" flag="0"/>
			<psa30 value="0.000861305494761718" flag="0"/>
		</comp>
		<comp name="--.HNZ" depth="0.0">
			<acc value="0.00479894404196403" flag="0"/>
			<vel value="0.00187059494463201" flag="0"/>
			<psa03 value="0.008609907603714" flag="0"/>
			<psa10 value="0.00176193902450176" flag="0"/>
			<psa30 value="0.000517470790319095" flag="0"/>
		</comp>
	</station>
	<station code="YKAV" name="YKAV" netid="KO" source="Bogazici University Kandilli Observatory And Earthquake Research Institute (KOERI)" insttype="" lat="37.1246" lon="27.2801">
		<comp name="--.HNE" depth="0.0">
			<acc value="0.0337152947251237" flag="0"/>
			<vel value="0.0204409692735303" flag="0"/>
			<psa03 value="0.0604390298306893" flag="0"/>
			<psa10 value="0.0129402912932855" flag="0"/>
			<psa30 value="0.00128512169550525" flag="0"/>
		</comp>
		<comp name="--.HNN" depth="0.0">
