<?xml version="1.0" encoding="UTF-8" standalone="yes"?>
<!DOCTYPE earthquake SYSTEM "stationlist.dtd">
<stationlist created="" xmlns="ch.ethz.sed.shakemap.usgs.xml">
  <station code="CEYT" name="CEYT" netid="KO" insttype="CMG-3ESP" lat="37.0105" lon="35.7478">
    <comp name="--.HHN">
      <acc value="0.0157585511" flag="0"/>
      <vel value="0.0067193561" flag="0"/>
      <psa03 value="0.0407799267" flag="0"/>
      <psa10 value="0.0086116258" flag="0"/>
      <psa30 value="0.0005892355" flag="0"/>
    </comp>
    <comp name="--.HHZ">
      <acc value="0.0103931573" flag="0"/>
      <vel value="0.0051345779" flag="0"/>
      <psa03 value="0.0218377693" flag="0"/>
      <psa10 value="0.0057740686" flag="0"/>
      <psa30 value="0.0006194116" flag="0"/>
    </comp>
    <comp name="--.HHE">
      <acc value="0.0193835727" flag="0"/>
      <vel value="0.0071836049" flag="0"/>
      <psa03 value="0.0531244069" flag="0"/>
      <psa10 value="0.0042796930" flag="0"/>
      <psa30 value="0.0004787072" flag="0"/>
    </comp>
  </station>
  <station code="GAZ" name="GAZ" netid="KO" insttype="CMG-3T" lat="37.1721" lon="37.2096">
    <comp name="--.HHE">
      <acc value="0.1073230497" flag="0"/>
      <vel value="0.0467091050" flag="0"/>
      <psa03 value="0.2357430679" flag="0"/>
      <psa10 value="0.0521591869" flag="0"/>
      <psa30 value="0.0041167638" flag="0"/>
    </comp>
    <comp name="--.HHN">
      <acc value="0.0850276286" flag="0"/>
      <vel value="0.0248842637" flag="0"/>
      <psa03 value="0.1737698235" flag="0"/>
      <psa10 value="0.0365635188" flag="0"/>
      <psa30 value="0.0020239076" flag="0"/>
    </comp>
    <comp name="--.HHZ">
      <acc value="0.0628979329" flag="0"/>
      <vel value="0.0271022028" flag="0"/>
      <psa03 value="0.1161284897" flag="0"/>
      <psa10 value="0.0373204052" flag="0"/>
      <psa30 value="0.0027365557" flag="0"/>
    </comp>
  </station>
  <station code="KHMN" name="KHMN" netid="KO" insttype="CMG-5T" lat="37.3916" lon="37.1574">
    <comp name="--.HNE">
      <acc value="0.1954927111" flag="0"/>
      <vel value="0.0361393241" flag="0"/>
      <psa03 value="0.1489109493" flag="0"/>
      <psa10 value="0.0384645519" flag="0"/>
      <psa30 value="0.0027109376" flag="0"/>
    </comp>
    <comp name="--.HNN">
      <acc value="0.1520772742" flag="0"/>
      <vel value="0.0360689352" flag="0"/>
      <psa03 value="0.0971747798" flag="0"/>
      <psa10 value="0.0352658001" flag="0"/>
      <psa30 value="0.0027301130" flag="0"/>
    </comp>
    <comp name="--.HNZ">
      <acc value="0.1019859366" flag="0"/>
      <vel value="0.0185823472" flag="0"/>
      <psa03 value="0.0599278505" flag="0"/>
      <psa10 value="0.0255011330" flag="0"/>
      <psa30 value="0.0020800282" flag="0"/>
    </comp>
  </station>
  <station code="KMRS" name="KMRS" netid="KO" insttype="CMG-3T" lat="37.5053" lon="36.9">
    <comp name="--.HHN">
      <acc value="0.0578002451" flag="0"/>
      <vel value="0.0325271198" flag="0"/>
      <psa03 value="0.0739406964" flag="0"/>
      <psa10 value="0.0149961754" flag="0"/>
      <psa30 value="0.0015016765" flag="0"/>
    </comp>
    <comp name="--.HHZ">
      <acc value="0.0403093601" flag="0"/>
      <vel value="0.0119541736" flag="0"/>
      <psa03 value="0.0553676335" flag="0"/>
      <psa10 value="0.0118742743" flag="0"/>
      <psa30 value="0.0008725103" flag="0"/>
    </comp>
  </station>
  <station code="ANDN" name="ANDN" netid="TU" insttype="T" lat="37.58" lon="36.3452">
    <comp name="--.HHZ">
      <acc value="0.1147161486" flag="0"/>
      <vel value="0.0503906824" flag="0"/>
      <psa03 value="0.1462760676" flag="0"/>
      <psa10 value="0.0492306824" flag="0"/>
      <psa30 value="0.0029249186" flag="0"/>
    </comp>
    <comp name="--.HHN">
      <acc value="0.2424881904" flag="0"/>
      <vel value="0.0566901683" flag="0"/>
      <psa03 value="0.3085187637" flag="0"/>
      <psa10 value="0.0437951782" flag="0"/>
      <psa30 value="0.0026920767" flag="0"/>
    </comp>
    <comp name="--.HHE">
      <acc value="0.1484900411" flag="0"/>
      <vel value="0.0457032837" flag="0"/>
      <psa03 value="0.2850406547" flag="0"/>
      <psa10 value="0.0354867214" flag="0"/>
      <psa30 value="0.0023791481" flag="0"/>
    </comp>
  </station>
</stationlist>
