<?xml version="1.0" encoding="UTF-8" standalone="yes"?>
<!DOCTYPE earthquake SYSTEM "stationlist.dtd">
<stationlist created="" xmlns="ch.ethz.sed.shakemap.usgs.xml">
  <station code="CEYT" name="CEYT" netid="KO" insttype="CMG-3ESP" lat="37.0105" lon="35.7478">
    <comp name="--.HHN">
      <acc value="0.0157585513" flag="0"/>
      <vel value="0.0067193558" flag="0"/>
      <psa03 value="0.0407799267" flag="0"/>
      <psa10 value="0.0086116258" flag="0"/>
      <psa30 value="0.0005892271" flag="0"/>
    </comp>
    <comp name="--.HHZ">
      <acc value="0.0103931570" flag="0"/>
      <vel value="0.0051345774" flag="0"/>
      <psa03 value="0.0218377693" flag="0"/>
      <psa10 value="0.0057740687" flag="0"/>
      <psa30 value="0.0006194620" flag="0"/>
    </comp>
    <comp name="--.HHE">
      <acc value="0.0193835728" flag="0"/>
      <vel value="0.0071836087" flag="0"/>
      <psa03 value="0.0531244069" flag="0"/>
      <psa10 value="0.0042796927" flag="0"/>
      <psa30 value="0.0004787106" flag="0"/>
    </comp>
  </station>
  <station code="GAZ" name="GAZ" netid="KO" insttype="CMG-3T" lat="37.1721" lon="37.2096">
    <comp name="--.HHZ">
      <acc value="0.0628979329" flag="0"/>
      <vel value="0.0271022028" flag="0"/>
      <psa03 value="0.1161284897" flag="0"/>
      <psa10 value="0.0373204052" flag="0"/>
      <psa30 value="0.0027365565" flag="0"/>
    </comp>
    <comp name="--.HHN">
      <acc value="0.0850276286" flag="0"/>
      <vel value="0.0248842636" flag="0"/>
      <psa03 value="0.1737698235" flag="0"/>
      <psa10 value="0.0365635188" flag="0"/>
      <psa30 value="0.0020239070" flag="0"/>
    </comp>
    <comp name="--.HHE">
      <acc value="0.1073230495" flag="0"/>
      <vel value="0.0467091050" flag="0"/>
      <psa03 value="0.2357430679" flag="0"/>
      <psa10 value="0.0521591869" flag="0"/>
      <psa30 value="0.0041167625" flag="0"/>
    </comp>
  </station>
  <station code="KHMN" name="KHMN" netid="KO" insttype="CMG-5T" lat="37.3916" lon="37.1574">
    <comp name="--.HNE">
      <acc value="0.1954927138" flag="0"/>
      <vel value="0.0361393227" flag="0"/>
      <psa03 value="0.1489109493" flag="0"/>
      <psa10 value="0.0384645502" flag="0"/>
      <psa30 value="0.0027116897" flag="0"/>
    </comp>
    <comp name="--.HNN">
      <acc value="0.1520772764" flag="0"/>
      <vel value="0.0360689390" flag="0"/>
      <psa03 value="0.0971747798" flag="0"/>
      <psa10 value="0.0352657868" flag="0"/>
      <psa30 value="0.0027305651" flag="0"/>
    </comp>
    <comp name="--.HNZ">
      <acc value="0.1019859587" flag="0"/>
      <vel value="0.0185823483" flag="0"/>
      <psa03 value="0.0599278505" flag="0"/>
      <psa10 value="0.0255011328" flag="0"/>
      <psa30 value="0.0020801586" flag="0"/>
    </comp>
  </station>
  <station code="KMRS" name="KMRS" netid="KO" insttype="CMG-3T" lat="37.5053" lon="36.9">
    <comp name="--.HHN">
      <acc value="0.0578002450" flag="0"/>
      <vel value="0.0325271204" flag="0"/>
      <psa03 value="0.0739406964" flag="0"/>
      <psa10 value="0.0149961740" flag="0"/>
      <psa30 value="0.0015013401" flag="0"/>
    </comp>
    <comp name="--.HHZ">
      <acc value="0.0403093602" flag="0"/>
      <vel value="0.0119541736" flag="0"/>
      <psa03 value="0.0553676335" flag="0"/>
      <psa10 value="0.0118742745" flag="0"/>
      <psa30 value="0.0008724210" flag="0"/>
    </comp>
  </station>
  <station code="ANDN" name="ANDN" netid="TU" insttype="T" lat="37.58" lon="36.3452">
    <comp name="--.HHE">
      <acc value="0.1484900411" flag="0"/>
      <vel value="0.0457032857" flag="0"/>
      <psa03 value="0.2850406547" flag="0"/>
      <psa10 value="0.0354867219" flag="0"/>
      <psa30 value="0.0023789089" flag="0"/>
    </comp>
    <comp name="--.HHZ">
      <acc value="0.1147161485" flag="0"/>
      <vel value="0.0503906822" flag="0"/>
      <psa03 value="0.1462760676" flag="0"/>
      <psa10 value="0.0492306816" flag="0"/>
      <psa30 value="0.0029244274" flag="0"/>
    </comp>
    <comp name="--.HHN">
      <acc value="0.2424881904" flag="0"/>
      <vel value="0.0566901676" flag="0"/>
      <psa03 value="0.3085187637" flag="0"/>
      <psa10 value="0.0437951774" flag="0"/>
      <psa30 value="0.0026923195" flag="0"/>
    </comp>
  </station>
</stationlist>
