<?xml version="1.0" encoding="UTF-8" standalone="yes"?>
<!DOCTYPE earthquake SYSTEM "stationlist.dtd">
<stationlist created="" xmlns="ch.ethz.sed.shakemap.usgs.xml">
  <station code="SIVA" name="SIVA" netid="HL" insttype="60" lat="35.0178" lon="24.812">
    <comp name="--.HHZ">
      <acc value="0.0224851192" flag="0"/>
      <vel value="0.0125284589" flag="0"/>
      <psa03 value="0.0594176039" flag="0"/>
      <psa10 value="0.0126903274" flag="0"/>
      <psa30 value="0.0007928845" flag="0"/>
    </comp>
    <comp name="--.HHN">
      <acc value="0.0261615308" flag="0"/>
      <vel value="0.0192223429" flag="0"/>
      <psa03 value="0.0820798697" flag="0"/>
      <psa10 value="0.0180419220" flag="0"/>
      <psa30 value="0.0011001622" flag="0"/>
    </comp>
    <comp name="--.HHE">
      <acc value="0.0386535619" flag="0"/>
      <vel value="0.0227064229" flag="0"/>
      <psa03 value="0.1629767806" flag="0"/>
      <psa10 value="0.0256459928" flag="0"/>
      <psa30 value="0.0011515167" flag="0"/>
    </comp>
  </station>
</stationlist>
