<stationlist created="1631873534">
	<station code="SIVA" name="SIVA" netid="HL" source="National Observatory of Athens Seismic Network" insttype="" lat="35.01777" lon="24.81204">
		<comp name="--.HNE" depth="0.0">
			<acc value="-0.036203982" flag="0"/>
			<vel value="0.021241" flag="0"/>
			<psa03 value="0.153107831048" flag="0"/>
			<psa10 value="0.02399971963" flag="0"/>
			<psa30 value="0.00112795102885" flag="0"/>
		</comp>
		<comp name="--.HNN" depth="0.0">
			<acc value="0.02704479" flag="0"/>
			<vel value="-0.021381" flag="0"/>
			<psa03 value="0.0870235918725" flag="0"/>
			<psa10 value="0.0208185487395" flag="0"/>
			<psa30 value="0.00137269089905" flag="0"/>
		</comp>
		<comp name="--.HNZ" depth="0.0">
			<acc value="-0.021791484" flag="0"/>
			<vel value="-0.012284" flag="0"/>
			<psa03 value="0.0584780640501" flag="0"/>
			<psa10 value="0.012756897951" flag="0"/>
			<psa30 value="0.000910503904682" flag="0"/>
		</comp>
	</station>
</stationlist>
