<?xml version="1.0" encoding="UTF-8" standalone="yes"?>
<!DOCTYPE earthquake SYSTEM "stationlist.dtd">
<stationlist created="" xmlns="ch.ethz.sed.shakemap.usgs.xml">
  <station code="AGRP" name="AGRP" netid="CL" insttype="CMG40-T" commtype="DIG" lat="38.3959" lon="21.7228">
    <comp name="00.HHN">
      <acc value="0.0109538526" flag="0"/>
      <vel value="0.0090661565" flag="0"/>
      <psa03 value="0.0379873346" flag="0"/>
      <psa10 value="0.0195503200" flag="0"/>
      <psa30 value="0.0010980961" flag="0"/>
    </comp>
    <comp name="00.HHZ">
      <acc value="0.0089690813" flag="0"/>
      <vel value="0.0094594982" flag="0"/>
      <psa03 value="0.0176115880" flag="0"/>
      <psa10 value="0.0142923416" flag="0"/>
      <psa30 value="0.0009359810" flag="0"/>
    </comp>
    <comp name="00.HHE">
      <acc value="0.0128927609" flag="0"/>
      <vel value="0.0096267942" flag="0"/>
      <psa03 value="0.0385902942" flag="0"/>
      <psa10 value="0.0147796523" flag="0"/>
      <psa30 value="0.0014100559" flag="0"/>
    </comp>
  </station>
</stationlist>
