<?xml version="1.0" encoding="UTF-8" standalone="yes"?>
<!DOCTYPE earthquake SYSTEM "stationlist.dtd">
<stationlist created="" xmlns="ch.ethz.sed.shakemap.usgs.xml">
  <station code="RP05B" name="RP05B" netid="5B" insttype="Compact" commtype="DIG" lat="37.6182" lon="21.6541">
    <comp name="--.HHE">
      <acc value="0.0998182083" flag="0"/>
      <vel value="0.0714841944" flag="0"/>
      <psa03 value="0.2685564895" flag="0"/>
      <psa10 value="0.0696543714" flag="0"/>
      <psa30 value="0.0060336576" flag="0"/>
    </comp>
    <comp name="--.HHZ">
      <acc value="0.0662129872" flag="0"/>
      <vel value="0.0377684826" flag="0"/>
      <psa03 value="0.1350444250" flag="0"/>
      <psa10 value="0.0656387131" flag="0"/>
      <psa30 value="0.0069660382" flag="0"/>
    </comp>
    <comp name="--.HHN">
      <acc value="0.1415056872" flag="0"/>
      <vel value="0.0643680997" flag="0"/>
      <psa03 value="0.2416577064" flag="0"/>
      <psa10 value="0.1383755844" flag="0"/>
      <psa30 value="0.0082243861" flag="0"/>
    </comp>
  </station>
  <station code="AGRP" name="AGRP" netid="CL" insttype="CMG40-T" commtype="DIG" lat="38.3959" lon="21.7228">
    <comp name="00.HHZ">
      <acc value="0.0089690807" flag="0"/>
      <vel value="0.0094594982" flag="0"/>
      <psa03 value="0.0176115880" flag="0"/>
      <psa10 value="0.0142923416" flag="0"/>
      <psa30 value="0.0009359785" flag="0"/>
    </comp>
    <comp name="00.HHN">
      <acc value="0.0109538525" flag="0"/>
      <vel value="0.0090661575" flag="0"/>
      <psa03 value="0.0379873346" flag="0"/>
      <psa10 value="0.0195503200" flag="0"/>
      <psa30 value="0.0010980968" flag="0"/>
    </comp>
    <comp name="00.HHE">
      <acc value="0.0128927615" flag="0"/>
      <vel value="0.0096267930" flag="0"/>
      <psa03 value="0.0385902942" flag="0"/>
      <psa10 value="0.0147796523" flag="0"/>
      <psa30 value="0.0014100556" flag="0"/>
    </comp>
  </station>
  <station code="ATHR" name="ATHR" netid="HA" insttype="GEOtiny," commtype="DIG" lat="38.3172" lon="20.4165">
    <comp name="--.HHN">
      <acc value="0.1207502295" flag="0"/>
      <vel value="0.0864478442" flag="0"/>
      <psa03 value="0.2986681216" flag="0"/>
      <psa10 value="0.1142273767" flag="0"/>
      <psa30 value="0.0195980716" flag="0"/>
    </comp>
    <comp name="--.HHE">
      <acc value="0.1229485503" flag="0"/>
      <vel value="0.0988353025" flag="0"/>
      <psa03 value="0.3260398454" flag="0"/>
      <psa10 value="0.1163509377" flag="0"/>
      <psa30 value="0.0132515093" flag="0"/>
    </comp>
    <comp name="--.HHZ">
      <acc value="0.1215139711" flag="0"/>
      <vel value="0.0450456887" flag="0"/>
      <psa03 value="0.2287799345" flag="0"/>
      <psa10 value="0.0538942583" flag="0"/>
      <psa30 value="0.0038607654" flag="0"/>
    </comp>
  </station>
  <station code="HAVD" name="HAVD" netid="HA" insttype="GEOtiny," commtype="DIG" lat="38.2036" lon="20.3848">
    <comp name="--.HHE">
      <acc value="0.7798207408" flag="0"/>
      <vel value="0.3672299520" flag="0"/>
      <psa03 value="0.8541089010" flag="0"/>
      <psa10 value="0.3385985613" flag="0"/>
      <psa30 value="0.0199837441" flag="0"/>
    </comp>
    <comp name="--.HHZ">
      <acc value="0.8207540514" flag="0"/>
      <vel value="0.1891008996" flag="0"/>
      <psa03 value="0.7240931462" flag="0"/>
      <psa10 value="0.1382988181" flag="0"/>
      <psa30 value="0.0097636156" flag="0"/>
    </comp>
    <comp name="--.HHN">
      <acc value="1.6172369765" flag="0"/>
      <vel value="0.5023739283" flag="0"/>
      <psa03 value="1.3171767595" flag="0"/>
      <psa10 value="0.3870388219" flag="0"/>
      <psa30 value="0.0359779972" flag="0"/>
    </comp>
  </station>
  <station code="AGR3" name="AGR3" netid="HI" insttype="unknown" commtype="DIG" lat="38.5893" lon="21.4162">
    <comp name="--.HNE">
      <acc value="0.0742501746" flag="0"/>
      <vel value="0.0478914882" flag="0"/>
      <psa03 value="0.1906957816" flag="0"/>
      <psa10 value="0.0735317814" flag="0"/>
      <psa30 value="0.0128141072" flag="0"/>
    </comp>
    <comp name="--.HNN">
      <acc value="0.0454912172" flag="0"/>
      <vel value="0.0364595409" flag="0"/>
      <psa03 value="0.1348388092" flag="0"/>
      <psa10 value="0.0652818810" flag="0"/>
      <psa30 value="0.0114593497" flag="0"/>
    </comp>
    <comp name="--.HNZ">
      <acc value="0.0327938988" flag="0"/>
      <vel value="0.0293462453" flag="0"/>
      <psa03 value="0.0789273309" flag="0"/>
      <psa10 value="0.0605987390" flag="0"/>
      <psa30 value="0.0050875962" flag="0"/>
    </comp>
  </station>
  <station code="AOL1" name="AOL1" netid="HI" insttype="unknown" commtype="DIG" lat="37.6424" lon="21.6246">
    <comp name="--.HNE">
      <acc value="0.0409780321" flag="0"/>
      <vel value="0.0354246833" flag="0"/>
      <psa03 value="0.0843015070" flag="0"/>
      <psa10 value="0.0722504963" flag="0"/>
      <psa30 value="0.0049466656" flag="0"/>
    </comp>
    <comp name="--.HNN">
      <acc value="0.0532059434" flag="0"/>
      <vel value="0.0350059684" flag="0"/>
      <psa03 value="0.1041231992" flag="0"/>
      <psa10 value="0.0528737783" flag="0"/>
      <psa30 value="0.0050112149" flag="0"/>
    </comp>
    <comp name="--.HNZ">
      <acc value="0.0283264474" flag="0"/>
      <vel value="0.0217778958" flag="0"/>
      <psa03 value="0.1016447294" flag="0"/>
      <psa10 value="0.0332050146" flag="0"/>
      <psa30 value="0.0040788687" flag="0"/>
    </comp>
  </station>
  <station code="ARG2" name="ARG2" netid="HI" insttype="CMG-5TD,ACCELEROMETER,GURALP" commtype="DIG" lat="38.1783" lon="20.4878">
    <comp name="--.HNE">
      <acc value="0.9152230735" flag="0"/>
      <vel value="0.4367370948" flag="0"/>
      <psa03 value="1.2452231627" flag="0"/>
      <psa10 value="0.3241202382" flag="0"/>
      <psa30 value="0.0230170274" flag="0"/>
    </comp>
    <comp name="--.HNZ">
      <acc value="0.5009733325" flag="0"/>
      <vel value="0.1387601428" flag="0"/>
      <psa03 value="0.7194528936" flag="0"/>
      <psa10 value="0.1027909008" flag="0"/>
      <psa30 value="0.0110866999" flag="0"/>
    </comp>
    <comp name="--.HNN">
      <acc value="0.9665834165" flag="0"/>
      <vel value="0.4274885761" flag="0"/>
      <psa03 value="1.0238855376" flag="0"/>
      <psa10 value="0.4020312310" flag="0"/>
      <psa30 value="0.0215862177" flag="0"/>
    </comp>
  </station>
  <station code="AST1" name="AST1" netid="HI" insttype="unknown" commtype="DIG" lat="38.5416" lon="21.0895">
    <comp name="--.HNN">
      <acc value="0.0426808024" flag="0"/>
      <vel value="0.0269833367" flag="0"/>
      <psa03 value="0.1059686027" flag="0"/>
      <psa10 value="0.0309265177" flag="0"/>
      <psa30 value="0.0057426574" flag="0"/>
    </comp>
    <comp name="--.HNE">
      <acc value="0.0368800357" flag="0"/>
      <vel value="0.0252488818" flag="0"/>
      <psa03 value="0.0812601331" flag="0"/>
      <psa10 value="0.0262899802" flag="0"/>
      <psa30 value="0.0047848128" flag="0"/>
    </comp>
    <comp name="--.HNZ">
      <acc value="0.0321763636" flag="0"/>
      <vel value="0.0238213813" flag="0"/>
      <psa03 value="0.0574245641" flag="0"/>
      <psa10 value="0.0235131712" flag="0"/>
      <psa30 value="0.0025039711" flag="0"/>
    </comp>
  </station>
  <station code="KAC1" name="KAC1" netid="HI" insttype="unknown" commtype="DIG" lat="38.1434" lon="21.5497">
    <comp name="--.HNZ">
      <acc value="0.0261467158" flag="0"/>
      <vel value="0.0204391648" flag="0"/>
      <psa03 value="0.0553072415" flag="0"/>
      <psa10 value="0.0322942499" flag="0"/>
      <psa30 value="0.0052356002" flag="0"/>
    </comp>
    <comp name="--.HNE">
      <acc value="0.0730970849" flag="0"/>
      <vel value="0.0632086722" flag="0"/>
      <psa03 value="0.3116948793" flag="0"/>
      <psa10 value="0.0775349127" flag="0"/>
      <psa30 value="0.0067313829" flag="0"/>
    </comp>
    <comp name="--.HNN">
      <acc value="0.0803166728" flag="0"/>
      <vel value="0.0582176526" flag="0"/>
      <psa03 value="0.1902445198" flag="0"/>
      <psa10 value="0.1047695334" flag="0"/>
      <psa30 value="0.0066050786" flag="0"/>
    </comp>
  </station>
  <station code="LEF2" name="LEF2" netid="HI" insttype="unknown" commtype="DIG" lat="38.8301" lon="20.7083">
    <comp name="--.HNN">
      <acc value="0.1005597519" flag="0"/>
      <vel value="0.0834737723" flag="0"/>
      <psa03 value="0.2873373471" flag="0"/>
      <psa10 value="0.1292853537" flag="0"/>
      <psa30 value="0.0061804659" flag="0"/>
    </comp>
    <comp name="--.HNE">
      <acc value="0.0892128527" flag="0"/>
      <vel value="0.0553745741" flag="0"/>
      <psa03 value="0.2406502278" flag="0"/>
      <psa10 value="0.1025362571" flag="0"/>
      <psa30 value="0.0097635952" flag="0"/>
    </comp>
    <comp name="--.HNZ">
      <acc value="0.0574187627" flag="0"/>
      <vel value="0.0504373093" flag="0"/>
      <psa03 value="0.1319269860" flag="0"/>
      <psa10 value="0.0797381348" flag="0"/>
      <psa30 value="0.0044446071" flag="0"/>
    </comp>
  </station>
  <station code="LXR2" name="LXR2" netid="HI" insttype="unknown" commtype="DIG" lat="38.2067" lon="20.4364">
    <comp name="--.HNZ">
      <acc value="0.6820034296" flag="0"/>
      <vel value="0.1684831904" flag="0"/>
      <psa03 value="0.6672033621" flag="0"/>
      <psa10 value="0.1150538456" flag="0"/>
      <psa30 value="0.0197423484" flag="0"/>
    </comp>
    <comp name="--.HNN">
      <acc value="1.1918667748" flag="0"/>
      <vel value="0.3721963974" flag="0"/>
      <psa03 value="1.1249076361" flag="0"/>
      <psa10 value="0.2929927562" flag="0"/>
      <psa30 value="0.0305817345" flag="0"/>
    </comp>
    <comp name="--.HNE">
      <acc value="1.6028516628" flag="0"/>
      <vel value="0.6301594187" flag="0"/>
      <psa03 value="2.2400149147" flag="0"/>
      <psa10 value="0.4468678053" flag="0"/>
      <psa30 value="0.0399319512" flag="0"/>
    </comp>
  </station>
  <station code="MSL1" name="MSL1" netid="HI" insttype="CMG-5TD,ACCELEROMETER,GURALP" commtype="DIG" lat="38.3727" lon="21.4243">
    <comp name="--.HNN">
      <acc value="0.0795127629" flag="0"/>
      <vel value="0.0722505857" flag="0"/>
      <psa03 value="0.1866097755" flag="0"/>
      <psa10 value="0.1987644165" flag="0"/>
      <psa30 value="0.0075338619" flag="0"/>
    </comp>
    <comp name="--.HNE">
      <acc value="0.0778593528" flag="0"/>
      <vel value="0.0567566565" flag="0"/>
      <psa03 value="0.2682747824" flag="0"/>
      <psa10 value="0.1024680978" flag="0"/>
      <psa30 value="0.0062111080" flag="0"/>
    </comp>
    <comp name="--.HNZ">
      <acc value="0.0340403039" flag="0"/>
      <vel value="0.0363629320" flag="0"/>
      <psa03 value="0.0908025299" flag="0"/>
      <psa10 value="0.1038425116" flag="0"/>
      <psa30 value="0.0030745927" flag="0"/>
    </comp>
  </station>
  <station code="PRE2" name="PRE2" netid="HI" insttype="unknown" commtype="DIG" lat="38.9577" lon="20.7548">
    <comp name="--.HNE">
      <acc value="0.0545673470" flag="0"/>
      <vel value="0.0457781028" flag="0"/>
      <psa03 value="0.1326796032" flag="0"/>
      <psa10 value="0.0621879297" flag="0"/>
      <psa30 value="0.0115820494" flag="0"/>
    </comp>
    <comp name="--.HNN">
      <acc value="0.0546878527" flag="0"/>
      <vel value="0.0563045331" flag="0"/>
      <psa03 value="0.1658453750" flag="0"/>
      <psa10 value="0.1321176063" flag="0"/>
      <psa30 value="0.0077465699" flag="0"/>
    </comp>
    <comp name="--.HNZ">
      <acc value="0.0338662371" flag="0"/>
      <vel value="0.0286153668" flag="0"/>
      <psa03 value="0.0740006849" flag="0"/>
      <psa10 value="0.0310087513" flag="0"/>
      <psa30 value="0.0032857930" flag="0"/>
    </comp>
  </station>
  <station code="VAS2" name="VAS2" netid="HI" insttype="CMG-5TD,ACCELEROMETER,GURALP" commtype="DIG" lat="38.6306" lon="20.6081">
    <comp name="--.HNZ">
      <acc value="0.1235156367" flag="0"/>
      <vel value="0.0839967669" flag="0"/>
      <psa03 value="0.2012788238" flag="0"/>
      <psa10 value="0.1200674806" flag="0"/>
      <psa30 value="0.0060350228" flag="0"/>
    </comp>
    <comp name="--.HNE">
      <acc value="0.1287724559" flag="0"/>
      <vel value="0.1236246029" flag="0"/>
      <psa03 value="0.3052440248" flag="0"/>
      <psa10 value="0.2221182790" flag="0"/>
      <psa30 value="0.0104536303" flag="0"/>
    </comp>
    <comp name="--.HNN">
      <acc value="0.2046810853" flag="0"/>
      <vel value="0.1395663836" flag="0"/>
      <psa03 value="0.3934140362" flag="0"/>
      <psa10 value="0.2157789732" flag="0"/>
      <psa30 value="0.0120980778" flag="0"/>
    </comp>
  </station>
  <station code="VSK1" name="VSK1" netid="HI" insttype="unknown" commtype="DIG" lat="38.4091" lon="20.564">
    <comp name="--.HNE">
      <acc value="0.1570732933" flag="0"/>
      <vel value="0.0847723735" flag="0"/>
      <psa03 value="0.2110356580" flag="0"/>
      <psa10 value="0.0694425359" flag="0"/>
      <psa30 value="0.0071190292" flag="0"/>
    </comp>
    <comp name="--.HNN">
      <acc value="0.2346756663" flag="0"/>
      <vel value="0.1080881519" flag="0"/>
      <psa03 value="0.3174555302" flag="0"/>
      <psa10 value="0.1159857808" flag="0"/>
      <psa30 value="0.0065041418" flag="0"/>
    </comp>
    <comp name="--.HNZ">
      <acc value="0.1045315614" flag="0"/>
      <vel value="0.0392795160" flag="0"/>
      <psa03 value="0.1347286701" flag="0"/>
      <psa10 value="0.0727937423" flag="0"/>
      <psa30 value="0.0040694166" flag="0"/>
    </comp>
  </station>
  <station code="ZAK2" name="ZAK2" netid="HI" insttype="unknown" commtype="DIG" lat="37.7875" lon="20.9">
    <comp name="--.HNZ">
      <acc value="0.2791881044" flag="0"/>
      <vel value="0.1012537416" flag="0"/>
      <psa03 value="0.7591744283" flag="0"/>
      <psa10 value="0.0945697570" flag="0"/>
      <psa30 value="0.0066338459" flag="0"/>
    </comp>
    <comp name="--.HNE">
      <acc value="0.5623557731" flag="0"/>
      <vel value="0.3014148296" flag="0"/>
      <psa03 value="1.7122849636" flag="0"/>
      <psa10 value="0.2268306852" flag="0"/>
      <psa30 value="0.0167587379" flag="0"/>
    </comp>
    <comp name="--.HNN">
      <acc value="0.7211733976" flag="0"/>
      <vel value="0.4500836042" flag="0"/>
      <psa03 value="2.0856692843" flag="0"/>
      <psa10 value="0.3691689418" flag="0"/>
      <psa30 value="0.0209710962" flag="0"/>
    </comp>
  </station>
  <station code="LXRA" name="LXRA" netid="HL" insttype="CMG-5" commtype="DIG" lat="38.2001" lon="20.4372">
    <comp name="00.HNE">
      <acc value="1.1791814894" flag="0"/>
      <vel value="0.6552826319" flag="0"/>
      <psa03 value="2.0129641992" flag="0"/>
      <psa10 value="0.5886705776" flag="0"/>
      <psa30 value="0.0464441673" flag="0"/>
    </comp>
    <comp name="00.HNN">
      <acc value="1.6193301082" flag="0"/>
      <vel value="0.4365232165" flag="0"/>
      <psa03 value="1.5711536849" flag="0"/>
      <psa10 value="0.4141861698" flag="0"/>
      <psa30 value="0.0302979226" flag="0"/>
    </comp>
    <comp name="00.HNZ">
      <acc value="0.6859841427" flag="0"/>
      <vel value="0.1894917151" flag="0"/>
      <psa03 value="0.6926469859" flag="0"/>
      <psa10 value="0.1530298705" flag="0"/>
      <psa30 value="0.0193400305" flag="0"/>
    </comp>
  </station>
  <station code="ORTH" name="ORTH" netid="HL" insttype="30" commtype="DIG" lat="37.8511" lon="20.6963">
    <comp name="--.HHZ">
      <acc value="0.2968735607" flag="0"/>
      <vel value="0.0819859188" flag="0"/>
      <psa03 value="0.3325116898" flag="0"/>
      <psa10 value="0.0675145785" flag="0"/>
      <psa30 value="0.0032539364" flag="0"/>
    </comp>
    <comp name="--.HHN">
      <acc value="1.0001491419" flag="0"/>
      <vel value="0.2891496157" flag="0"/>
      <psa03 value="1.8133053509" flag="0"/>
      <psa10 value="0.2144445038" flag="0"/>
      <psa30 value="0.0166070934" flag="0"/>
    </comp>
    <comp name="--.HHE">
      <acc value="0.7277251634" flag="0"/>
      <vel value="0.2486637811" flag="0"/>
      <psa03 value="1.3421715675" flag="0"/>
      <psa10 value="0.1363646113" flag="0"/>
      <psa30 value="0.0075533431" flag="0"/>
    </comp>
  </station>
  <station code="PATC" name="PATC" netid="HL" insttype="CMG-5" commtype="DIG" lat="38.2693" lon="21.76">
    <comp name="00.HNN">
      <acc value="0.0315059363" flag="0"/>
      <vel value="0.0353656277" flag="0"/>
      <psa03 value="0.0910120188" flag="0"/>
      <psa10 value="0.0443553936" flag="0"/>
      <psa30 value="0.0050321607" flag="0"/>
    </comp>
    <comp name="00.HNZ">
      <acc value="0.0242253889" flag="0"/>
      <vel value="0.0220237121" flag="0"/>
      <psa03 value="0.0539682575" flag="0"/>
      <psa10 value="0.0279792871" flag="0"/>
      <psa30 value="0.0022037540" flag="0"/>
    </comp>
    <comp name="00.HNE">
      <acc value="0.0278408649" flag="0"/>
      <vel value="0.0314731559" flag="0"/>
      <psa03 value="0.0645655894" flag="0"/>
      <psa10 value="0.0770465869" flag="0"/>
      <psa30 value="0.0041658677" flag="0"/>
    </comp>
  </station>
  <station code="PATG" name="PATG" netid="HL" insttype="CMG-5" commtype="DIG" lat="38.2386" lon="21.7266">
    <comp name="00.HNE">
      <acc value="0.0395461119" flag="0"/>
      <vel value="0.0381509231" flag="0"/>
      <psa03 value="0.1268251311" flag="0"/>
      <psa10 value="0.0906220886" flag="0"/>
      <psa30 value="0.0056863372" flag="0"/>
    </comp>
    <comp name="00.HNN">
      <acc value="0.0490495502" flag="0"/>
      <vel value="0.0512089992" flag="0"/>
      <psa03 value="0.1184063616" flag="0"/>
      <psa10 value="0.1111624549" flag="0"/>
      <psa30 value="0.0076311247" flag="0"/>
    </comp>
    <comp name="00.HNZ">
      <acc value="0.0216316711" flag="0"/>
      <vel value="0.0196227574" flag="0"/>
      <psa03 value="0.0687173763" flag="0"/>
      <psa10 value="0.0561959236" flag="0"/>
      <psa30 value="0.0041642008" flag="0"/>
    </comp>
  </station>
  <station code="RLS" name="RLS" netid="HL" insttype="CMG3ESPC-120s" commtype="DIG" lat="38.0559" lon="21.4647">
    <comp name="--.HHE">
      <acc value="0.0284384476" flag="0"/>
      <vel value="0.0159265656" flag="0"/>
      <psa03 value="0.0588488622" flag="0"/>
      <psa10 value="0.0168453249" flag="0"/>
      <psa30 value="0.0013049914" flag="0"/>
    </comp>
    <comp name="--.HHN">
      <acc value="0.0244288392" flag="0"/>
      <vel value="0.0162964737" flag="0"/>
      <psa03 value="0.0476319400" flag="0"/>
      <psa10 value="0.0233445444" flag="0"/>
      <psa30 value="0.0015841075" flag="0"/>
    </comp>
    <comp name="--.HHZ">
      <acc value="0.0109430057" flag="0"/>
      <vel value="0.0069672517" flag="0"/>
      <psa03 value="0.0273938227" flag="0"/>
      <psa10 value="0.0143753701" flag="0"/>
      <psa30 value="0.0016401946" flag="0"/>
    </comp>
  </station>
  <station code="ZARA" name="ZARA" netid="HL" insttype="CMG-5" commtype="DIG" lat="37.4865" lon="21.6491">
    <comp name="00.HNE">
      <acc value="0.0442548302" flag="0"/>
      <vel value="0.0302488057" flag="0"/>
      <psa03 value="0.1448143088" flag="0"/>
      <psa10 value="0.0496418490" flag="0"/>
      <psa30 value="0.0043655695" flag="0"/>
    </comp>
    <comp name="00.HNN">
      <acc value="0.0516329718" flag="0"/>
      <vel value="0.0415409390" flag="0"/>
      <psa03 value="0.1295433949" flag="0"/>
      <psa10 value="0.0478312678" flag="0"/>
      <psa30 value="0.0057224400" flag="0"/>
    </comp>
    <comp name="00.HNZ">
      <acc value="0.0208507152" flag="0"/>
      <vel value="0.0156845793" flag="0"/>
      <psa03 value="0.0639749134" flag="0"/>
      <psa10 value="0.0316995347" flag="0"/>
      <psa30 value="0.0026560210" flag="0"/>
    </comp>
  </station>
