<stationlist xmlns:esm="https://esm-db.eu/esmws/shakemap/1/" created="1784080681">
	<station code="AGRP" name="AGRP" netid="CL" source="Corinth Riff Laboratory (CRLNET)" insttype="" lat="38.3959" lon="21.72277" esm:processing="manual (Paolucci et al 2011)" esm:quality="bad">
		<comp name="00.HNE" depth="0.0">
			<acc value="0.0123709262882012" flag="0"/>
			<vel value="0.0100197425638546" flag="0"/>
			<psa03 value="0.0365610001118367" flag="0"/>
			<psa10 value="0.0140398425706514" flag="0"/>
			<psa30 value="0.0015688287188692" flag="0"/>
		</comp>
		<comp name="00.HNN" depth="0.0">
			<acc value="0.0110282740725468" flag="0"/>
			<vel value="0.00920982480982447" flag="0"/>
			<psa03 value="0.037124753603574" flag="0"/>
			<psa10 value="0.0194580702516668" flag="0"/>
			<psa30 value="0.00112177972906638" flag="0"/>
		</comp>
		<comp name="00.HNZ" depth="0.0">
			<acc value="0.0082158133272843" flag="0"/>
			<vel value="0.00906542142303764" flag="0"/>
			<psa03 value="0.0162319672152452" flag="0"/>
			<psa10 value="0.0144030494438311" flag="0"/>
			<psa30 value="0.00117129009221914" flag="0"/>
		</comp>
	</station>
	<station code="TRIZ" name="TRIZ" netid="CL" source="Corinth Riff Laboratory (CRLNET)" insttype="" lat="38.36543" lon="22.07272" esm:processing="automatic (Paolucci et al 2011)" esm:quality="good">
		<comp name="00.HNE" depth="0.0">
			<acc value="0.00877463251218735" flag="0"/>
			<vel value="0.00730083878894396" flag="0"/>
			<psa03 value="0.0226199281467394" flag="0"/>
			<psa10 value="0.0110239874725552" flag="0"/>
			<psa30 value="0.0012383607853245" flag="0"/>
		</comp>
		<comp name="00.HNN" depth="0.0">
			<acc value="0.0162168323210113" flag="0"/>
			<vel value="0.0124946793252723" flag="0"/>
			<psa03 value="0.0635799722780067" flag="0"/>
			<psa10 value="0.0136115763876295" flag="0"/>
			<psa30 value="0.0024892844862129" flag="0"/>
		</comp>
		<comp name="00.HNZ" depth="0.0">
			<acc value="0.00789245706712641" flag="0"/>
			<vel value="0.00473702649425326" flag="0"/>
			<psa03 value="0.0173556653526565" flag="0"/>
			<psa10 value="0.00990559494706869" flag="0"/>
			<psa30 value="0.00128360034472319" flag="0"/>
		</comp>
	</station>
	<station code="AGR3" name="AGR3" netid="HI" source="ITSAK Strong Motion Network" insttype="" lat="38.5893" lon="21.4162" esm:processing="manual (Paolucci et al 2011)" esm:quality="good">
		<comp name="--.HNE" depth="0.0">
			<acc value="0.0738740709515423" flag="0"/>
			<vel value="0.0465957746947633" flag="0"/>
			<psa03 value="0.190010316417774" flag="0"/>
			<psa10 value="0.0737410674839883" flag="0"/>
			<psa30 value="0.0149155164131025" flag="0"/>
		</comp>
		<comp name="--.HNN" depth="0.0">
			<acc value="0.0457106869696139" flag="0"/>
			<vel value="0.0359054711596491" flag="0"/>
			<psa03 value="0.134142563369667" flag="0"/>
			<psa10 value="0.065278301867325" flag="0"/>
			<psa30 value="0.0132218067131247" flag="0"/>
		</comp>
		<comp name="--.HNZ" depth="0.0">
			<acc value="0.0328806080268564" flag="0"/>
			<vel value="0.0290703116789306" flag="0"/>
			<psa03 value="0.0801711546955688" flag="0"/>
			<psa10 value="0.0607499743876973" flag="0"/>
			<psa30 value="0.00564179790810963" flag="0"/>
		</comp>
	</station>
	<station code="AKR1" name="AKR1" netid="HI" source="ITSAK Strong Motion Network" insttype="" lat="38.153583" lon="22.31326" esm:processing="automatic (Paolucci et al 2011)" esm:quality="best">
		<comp name="--.HNE" depth="0.0">
			<acc value="0.0139247690121233" flag="0"/>
			<vel value="0.0105169248624492" flag="0"/>
			<psa03 value="0.0307143654051316" flag="0"/>
			<psa10 value="0.0177494233121845" flag="0"/>
			<psa30 value="0.00145869058942394" flag="0"/>
		</comp>
		<comp name="--.HNN" depth="0.0">
			<acc value="0.0148110764981292" flag="0"/>
			<vel value="0.0116005192729552" flag="0"/>
			<psa03 value="0.0740583226671848" flag="0"/>
			<psa10 value="0.0178509219109658" flag="0"/>
			<psa30 value="0.00189585371600417" flag="0"/>
		</comp>
		<comp name="--.HNZ" depth="0.0">
			<acc value="0.00871739849163012" flag="0"/>
			<vel value="0.00618770837486554" flag="0"/>
			<psa03 value="0.0196688211920579" flag="0"/>
			<psa10 value="0.0156639429718516" flag="0"/>
			<psa30 value="0.00162330138991697" flag="0"/>
		</comp>
	</station>
	<station code="AOL1" name="AOL1" netid="HI" source="ITSAK Strong Motion Network" insttype="" lat="37.642378" lon="21.624555" esm:processing="manual (Paolucci et al 2011)" esm:quality="best">
		<comp name="--.HNE" depth="0.0">
			<acc value="0.0410091314676293" flag="0"/>
			<vel value="0.0353552115279685" flag="0"/>
			<psa03 value="0.0843551662407471" flag="0"/>
			<psa10 value="0.0722376603904735" flag="0"/>
			<psa30 value="0.00548807105776099" flag="0"/>
		</comp>
		<comp name="--.HNN" depth="0.0">
			<acc value="0.0531813758298197" flag="0"/>
			<vel value="0.0364159922647933" flag="0"/>
			<psa03 value="0.103394088934414" flag="0"/>
			<psa10 value="0.0530284866269692" flag="0"/>
			<psa30 value="0.00590225891237198" flag="0"/>
		</comp>
		<comp name="--.HNZ" depth="0.0">
			<acc value="0.0283694404150848" flag="0"/>
			<vel value="0.0221495799530905" flag="0"/>
			<psa03 value="0.102089346251423" flag="0"/>
			<psa10 value="0.0332948631212615" flag="0"/>
			<psa30 value="0.004671691559985" flag="0"/>
		</comp>
	</station>
	<station code="ARG2" name="ARG2" netid="HI" source="ITSAK Strong Motion Network" insttype="" lat="38.1783" lon="20.4878" esm:processing="manual (Paolucci et al 2011)" esm:quality="best">
		<comp name="--.HNE" depth="0.0">
			<acc value="0.920197006699514" flag="0"/>
			<vel value="0.444794382578423" flag="0"/>
			<psa03 value="1.25228770791574" flag="0"/>
			<psa10 value="0.32583898523348" flag="0"/>
			<psa30 value="0.022457309353199" flag="0"/>
		</comp>
		<comp name="--.HNN" depth="0.0">
			<acc value="0.960677419059688" flag="0"/>
			<vel value="0.426475498378439" flag="0"/>
			<psa03 value="1.03402349898311" flag="0"/>
			<psa10 value="0.402307090870352" flag="0"/>
			<psa30 value="0.0222551909638308" flag="0"/>
		</comp>
		<comp name="--.HNZ" depth="0.0">
			<acc value="0.484641999528817" flag="0"/>
			<vel value="0.14065411593751" flag="0"/>
			<psa03 value="0.734580579024274" flag="0"/>
			<psa10 value="0.102895903848818" flag="0"/>
			<psa30 value="0.0121883499183624" flag="0"/>
		</comp>
	</station>
	<station code="ART2" name="ART2" netid="HI" source="ITSAK Strong Motion Network" insttype="" lat="39.1474" lon="20.9937" esm:processing="manual (Paolucci et al 2011)" esm:quality="best">
		<comp name="--.HNE" depth="0.0">
			<acc value="0.0120104038010375" flag="0"/>
			<vel value="0.0180212894299489" flag="0"/>
			<psa03 value="0.0209210916488015" flag="0"/>
			<psa10 value="0.020878497473" flag="0"/>
			<psa30 value="0.00307877312027766" flag="0"/>
		</comp>
		<comp name="--.HNN" depth="0.0">
			<acc value="0.0105220763113253" flag="0"/>
			<vel value="0.0093828254150545" flag="0"/>
			<psa03 value="0.0221189704815864" flag="0"/>
			<psa10 value="0.0208367890849982" flag="0"/>
			<psa30 value="0.0019217960595575" flag="0"/>
		</comp>
		<comp name="--.HNZ" depth="0.0">
			<acc value="0.0071039698352464" flag="0"/>
			<vel value="0.00801100165350728" flag="0"/>
			<psa03 value="0.013652108812282" flag="0"/>
			<psa10 value="0.0105090971136033" flag="0"/>
			<psa30 value="0.00215020785738451" flag="0"/>
		</comp>
	</station>
	<station code="AST1" name="AST1" netid="HI" source="ITSAK Strong Motion Network" insttype="" lat="38.5416" lon="21.0895" esm:processing="manual (Paolucci et al 2011)" esm:quality="best">
		<comp name="--.HNE" depth="0.0">
			<acc value="0.0368619970899171" flag="0"/>
			<vel value="0.0252653853387209" flag="0"/>
			<psa03 value="0.0816588574152301" flag="0"/>
			<psa10 value="0.0262761494159562" flag="0"/>
			<psa30 value="0.00534316270828531" flag="0"/>
		</comp>
		<comp name="--.HNN" depth="0.0">
			<acc value="0.0426211581523" flag="0"/>
			<vel value="0.027711817052309" flag="0"/>
			<psa03 value="0.106145521203216" flag="0"/>
			<psa10 value="0.0308283716033131" flag="0"/>
			<psa30 value="0.00652559728878638" flag="0"/>
		</comp>
		<comp name="--.HNZ" depth="0.0">
			<acc value="0.0322918040473746" flag="0"/>
			<vel value="0.0239661711573735" flag="0"/>
			<psa03 value="0.0577659465020796" flag="0"/>
			<psa10 value="0.0235567205171324" flag="0"/>
			<psa30 value="0.00261466987571531" flag="0"/>
		</comp>
	</station>
	<station code="JAN2" name="JAN2" netid="HI" source="ITSAK Strong Motion Network" insttype="" lat="39.664" lon="20.85222" esm:processing="manual (Paolucci et al 2011)" esm:quality="good">
		<comp name="--.HNE" depth="0.0">
			<acc value="0.0166237810229162" flag="0"/>
			<vel value="0.0141500516337804" flag="0"/>
			<psa03 value="0.0492027125632329" flag="0"/>
			<psa10 value="0.0281199515587852" flag="0"/>
			<psa30 value="0.00312792429296668" flag="0"/>
		</comp>
		<comp name="--.HNN" depth="0.0">
			<acc value="0.0191380796636738" flag="0"/>
			<vel value="0.0108651565080828" flag="0"/>
			<psa03 value="0.0615007616236275" flag="0"/>
			<psa10 value="0.0122856685527467" flag="0"/>
			<psa30 value="0.00127223146659087" flag="0"/>
		</comp>
		<comp name="--.HNZ" depth="0.0">
			<acc value="0.00771482196085002" flag="0"/>
			<vel value="0.00720064304175545" flag="0"/>
			<psa03 value="0.0113527116968504" flag="0"/>
			<psa10 value="0.0130472586918557" flag="0"/>
			<psa30 value="0.00144999001305552" flag="0"/>
		</comp>
	</station>
	<station code="KAC1" name="KAC1" netid="HI" source="ITSAK Strong Motion Network" insttype="" lat="38.143412" lon="21.549694" esm:processing="manual (Paolucci et al 2011)" esm:quality="good">
		<comp name="--.HNE" depth="0.0">
			<acc value="0.0730256753508238" flag="0"/>
			<vel value="0.0647374309822641" flag="0"/>
			<psa03 value="0.309053848300663" flag="0"/>
			<psa10 value="0.0776392932220516" flag="0"/>
			<psa30 value="0.00724943773965949" flag="0"/>
		</comp>
		<comp name="--.HNN" depth="0.0">
			<acc value="0.0799029186929043" flag="0"/>
			<vel value="0.0593949082172665" flag="0"/>
			<psa03 value="0.195388547699065" flag="0"/>
			<psa10 value="0.105263645700019" flag="0"/>
			<psa30 value="0.00762527930398518" flag="0"/>
		</comp>
		<comp name="--.HNZ" depth="0.0">
			<acc value="0.0262252027451718" flag="0"/>
			<vel value="0.020856820286562" flag="0"/>
			<psa03 value="0.0561688927882922" flag="0"/>
			<psa10 value="0.0322945406048044" flag="0"/>
			<psa30 value="0.00574754866357873" flag="0"/>
		</comp>
	</station>
	<station code="KAR2" name="KAR2" netid="HI" source="ITSAK Strong Motion Network" insttype="" lat="39.365759" lon="21.91933" esm:processing="manual (Paolucci et al 2011)" esm:quality="good">
		<comp name="--.HNE" depth="0.0">
			<acc value="0.00790831627628379" flag="0"/>
			<vel value="0.0202974683742946" flag="0"/>
			<psa03 value="0.0194561547601837" flag="0"/>
			<psa10 value="0.0236270170489241" flag="0"/>
			<psa30 value="0.0111135028816903" flag="0"/>
		</comp>
		<comp name="--.HNN" depth="0.0">
			<acc value="0.0113458242787338" flag="0"/>
			<vel value="0.0192427593772586" flag="0"/>
			<psa03 value="0.0246564328468353" flag="0"/>
			<psa10 value="0.0264467594680208" flag="0"/>
			<psa30 value="0.00719828935134215" flag="0"/>
		</comp>
		<comp name="--.HNZ" depth="0.0">
			<acc value="0.005843619855315" flag="0"/>
			<vel value="0.00853388840279328" flag="0"/>
			<psa03 value="0.0102274040778267" flag="0"/>
			<psa10 value="0.0116563140485995" flag="0"/>
			<psa30 value="0.00198456375927598" flag="0"/>
		</comp>
	</station>
	<station code="KLV1" name="KLV1" netid="HI" source="ITSAK Strong Motion Network" insttype="" lat="38.03256" lon="22.10797" esm:processing="manual (Paolucci et al 2011)" esm:quality="good">
		<comp name="--.HNE" depth="0.0">
			<acc value="0.0164220871278451" flag="0"/>
			<vel value="0.0199652788634248" flag="0"/>
			<psa03 value="0.0486324508279663" flag="0"/>
			<psa10 value="0.0501802141927868" flag="0"/>
			<psa30 value="0.0023477224000884" flag="0"/>
		</comp>
		<comp name="--.HNN" depth="0.0">
			<acc value="0.0209685319150718" flag="0"/>
			<vel value="0.0186112454566991" flag="0"/>
			<psa03 value="0.048894796331869" flag="0"/>
			<psa10 value="0.0458173401738528" flag="0"/>
			<psa30 value="0.00304058434045654" flag="0"/>
		</comp>
		<comp name="--.HNZ" depth="0.0">
			<acc value="0.0114016677128013" flag="0"/>
			<vel value="0.0102438173947153" flag="0"/>
			<psa03 value="0.023430296933839" flag="0"/>
			<psa10 value="0.0206952565841835" flag="0"/>
			<psa30 value="0.00233448860674662" flag="0"/>
		</comp>
	</station>
	<station code="KRK1" name="KRK1" netid="HI" source="ITSAK Strong Motion Network" insttype="" lat="39.618861" lon="19.9202" esm:processing="automatic (Paolucci et al 2011)" esm:quality="best">
		<comp name="--.HNE" depth="0.0">
			<acc value="0.0483505433261306" flag="0"/>
			<vel value="0.0274722539094317" flag="0"/>
			<psa03 value="0.119615642699142" flag="0"/>
			<psa10 value="0.0251441931794071" flag="0"/>
			<psa30 value="0.00208304840839879" flag="0"/>
		</comp>
		<comp name="--.HNN" depth="0.0">
			<acc value="0.0511552627802026" flag="0"/>
			<vel value="0.0263036979397133" flag="0"/>
			<psa03 value="0.102649747958827" flag="0"/>
			<psa10 value="0.0276204822214087" flag="0"/>
			<psa30 value="0.00189123966034505" flag="0"/>
		</comp>
		<comp name="--.HNZ" depth="0.0">
			<acc value="0.0251647281308044" flag="0"/>
			<vel value="0.0113347760652066" flag="0"/>
			<psa03 value="0.0614137350251787" flag="0"/>
			<psa10 value="0.00819873125070051" flag="0"/>
			<psa30 value="0.00120634428938846" flag="0"/>
		</comp>
	</station>
	<station code="LEF2" name="LEF2" netid="HI" source="ITSAK Strong Motion Network" insttype="" lat="38.830093" lon="20.708346" esm:processing="manual (Paolucci et al 2011)" esm:quality="good">
		<comp name="--.HNE" depth="0.0">
			<acc value="0.0892785976837999" flag="0"/>
			<vel value="0.0573523369602954" flag="0"/>
			<psa03 value="0.244009726946852" flag="0"/>
			<psa10 value="0.102413194371559" flag="0"/>
			<psa30 value="0.0109797965242845" flag="0"/>
		</comp>
		<comp name="--.HNN" depth="0.0">
			<acc value="0.100488504098993" flag="0"/>
			<vel value="0.0850925316114366" flag="0"/>
			<psa03 value="0.292342970453668" flag="0"/>
			<psa10 value="0.129314281436321" flag="0"/>
			<psa30 value="0.00691966131025572" flag="0"/>
		</comp>
		<comp name="--.HNZ" depth="0.0">
			<acc value="0.0573397938265165" flag="0"/>
			<vel value="0.0505604406304001" flag="0"/>
			<psa03 value="0.132484818135809" flag="0"/>
			<psa10 value="0.0796978420910844" flag="0"/>
			<psa30 value="0.00457187703109603" flag="0"/>
		</comp>
	</station>
	<station code="LXR2" name="LXR2" netid="HI" source="ITSAK Strong Motion Network" insttype="" lat="38.206718" lon="20.436386" esm:processing="manual (Paolucci et al 2011)" esm:quality="good">
		<comp name="--.HNE" depth="0.0">
			<acc value="1.5785435151066" flag="0"/>
			<vel value="0.635821444713186" flag="0"/>
			<psa03 value="2.25693501086993" flag="0"/>
			<psa10 value="0.449083609585181" flag="0"/>
			<psa30 value="0.0430166096392644" flag="0"/>
		</comp>
		<comp name="--.HNN" depth="0.0">
			<acc value="1.17863420758863" flag="0"/>
			<vel value="0.381597611891035" flag="0"/>
			<psa03 value="1.13807797541392" flag="0"/>
			<psa10 value="0.293059503753887" flag="0"/>
			<psa30 value="0.0336570362801549" flag="0"/>
		</comp>
		<comp name="--.HNZ" depth="0.0">
			<acc value="0.622784147077983" flag="0"/>
			<vel value="0.170485052299656" flag="0"/>
			<psa03 value="0.675098138604629" flag="0"/>
			<psa10 value="0.114987567361971" flag="0"/>
			<psa30 value="0.0212161237974289" flag="0"/>
		</comp>
	</station>
	<station code="MSL1" name="MSL1" netid="HI" source="ITSAK Strong Motion Network" insttype="" lat="38.3727" lon="21.4243" esm:processing="manual (Paolucci et al 2011)" esm:quality="best">
		<comp name="--.HNE" depth="0.0">
			<acc value="0.0778682202806159" flag="0"/>
			<vel value="0.056041502062709" flag="0"/>
			<psa03 value="0.267711901266305" flag="0"/>
			<psa10 value="0.103022782253711" flag="0"/>
			<psa30 value="0.00656279683640555" flag="0"/>
		</comp>
		<comp name="--.HNN" depth="0.0">
			<acc value="0.0797009668916972" flag="0"/>
			<vel value="0.071950536293301" flag="0"/>
			<psa03 value="0.186582714355966" flag="0"/>
			<psa10 value="0.199169318990107" flag="0"/>
			<psa30 value="0.00787044721182652" flag="0"/>
		</comp>
		<comp name="--.HNZ" depth="0.0">
			<acc value="0.0342195394220313" flag="0"/>
			<vel value="0.0366171378462165" flag="0"/>
			<psa03 value="0.0916383830930847" flag="0"/>
			<psa10 value="0.104097730963979" flag="0"/>
			<psa30 value="0.00325337989544968" flag="0"/>
		</comp>
	</station>
	<station code="NMA1" name="NMA1" netid="HI" source="ITSAK Strong Motion Network" insttype="" lat="37.81873" lon="22.662702" esm:processing="manual (Paolucci et al 2011)" esm:quality="good">
		<comp name="--.HNE" depth="0.0">
			<acc value="0.0195937600616587" flag="0"/>
			<vel value="0.00974103849349208" flag="0"/>
			<psa03 value="0.0333837896372243" flag="0"/>
			<psa10 value="0.0139810246117652" flag="0"/>
			<psa30 value="0.00184793908356174" flag="0"/>
		</comp>
		<comp name="--.HNN" depth="0.0">
			<acc value="0.0155697438809518" flag="0"/>
			<vel value="0.0111110425793584" flag="0"/>
			<psa03 value="0.0432089196705365" flag="0"/>
			<psa10 value="0.0238853210352955" flag="0"/>
			<psa30 value="0.00174792766662953" flag="0"/>
		</comp>
		<comp name="--.HNZ" depth="0.0">
			<acc value="0.00843830374774191" flag="0"/>
			<vel value="0.00800031163124891" flag="0"/>
			<psa03 value="0.028393128301237" flag="0"/>
			<psa10 value="0.0178742690826044" flag="0"/>
			<psa30 value="0.00299722105118504" flag="0"/>
		</comp>
	</station>
	<station code="PET1" name="PET1" netid="HI" source="ITSAK Strong Motion Network" insttype="" lat="36.963862" lon="21.92538" esm:processing="automatic (Paolucci et al 2011)" esm:quality="best">
		<comp name="--.HNE" depth="0.0">
			<acc value="0.0136122490170223" flag="0"/>
			<vel value="0.0141480963436111" flag="0"/>
			<psa03 value="0.0390044067672035" flag="0"/>
			<psa10 value="0.0230642397676885" flag="0"/>
			<psa30 value="0.00175750684286918" flag="0"/>
		</comp>
		<comp name="--.HNN" depth="0.0">
			<acc value="0.0157941334352447" flag="0"/>
			<vel value="0.0170643837764483" flag="0"/>
			<psa03 value="0.0341651773378105" flag="0"/>
			<psa10 value="0.028994680130266" flag="0"/>
			<psa30 value="0.00137400925053769" flag="0"/>
		</comp>
		<comp name="--.HNZ" depth="0.0">
			<acc value="0.0309940087909732" flag="0"/>
			<vel value="0.00746367762511932" flag="0"/>
			<psa03 value="0.0182414297593707" flag="0"/>
			<psa10 value="0.00974944210267625" flag="0"/>
			<psa30 value="0.00225990804114952" flag="0"/>
		</comp>
	</station>
	<station code="PRE2" name="PRE2" netid="HI" source="ITSAK Strong Motion Network" insttype="" lat="38.9577" lon="20.7548" esm:processing="manual (Paolucci et al 2011)" esm:quality="best">
		<comp name="--.HNE" depth="0.0">
			<acc value="0.0544061953322893" flag="0"/>
			<vel value="0.0478425976886183" flag="0"/>
			<psa03 value="0.134596499690845" flag="0"/>
			<psa10 value="0.0623282739424094" flag="0"/>
			<psa30 value="0.0134451348408458" flag="0"/>
		</comp>
		<comp name="--.HNN" depth="0.0">
			<acc value="0.0549533050129571" flag="0"/>
			<vel value="0.0570731603675952" flag="0"/>
			<psa03 value="0.167190585972417" flag="0"/>
			<psa10 value="0.132176321032625" flag="0"/>
			<psa30 value="0.00867681896333844" flag="0"/>
		</comp>
		<comp name="--.HNZ" depth="0.0">
			<acc value="0.0338896183269414" flag="0"/>
			<vel value="0.0286228927120798" flag="0"/>
			<psa03 value="0.0741840705807205" flag="0"/>
			<psa10 value="0.0311145230594495" flag="0"/>
			<psa30 value="0.00369364343575203" flag="0"/>
		</comp>
	</station>
