<stationlist created="1763971863">
	<station code="AGRP" name="AGRP" netid="CL" source="Corinth Riff Laboratory (CRLNET)" insttype="" lat="38.3959" lon="21.72277">
		<comp name="00.HNE" depth="0.0">
			<acc value="0.01237092639216" flag="0"/>
			<vel value="0.010019780364" flag="0"/>
			<psa03 value="0.0365610001118367" flag="0"/>
			<psa10 value="0.0140398425706514" flag="0"/>
			<psa30 value="0.0015688287188692" flag="0"/>
		</comp>
		<comp name="00.HNN" depth="0.0">
			<acc value="0.0110282746392" flag="0"/>
			<vel value="0.00920965380768" flag="0"/>
			<psa03 value="0.037124753603574" flag="0"/>
			<psa10 value="0.0194580702516668" flag="0"/>
			<psa30 value="0.00112177972906638" flag="0"/>
		</comp>
		<comp name="00.HNZ" depth="0.0">
			<acc value="0.008215813969305" flag="0"/>
			<vel value="0.00906546150376" flag="0"/>
			<psa03 value="0.0162319672152452" flag="0"/>
			<psa10 value="0.0144030494438311" flag="0"/>
			<psa30 value="0.00117129009221914" flag="0"/>
		</comp>
	</station>
	<station code="TRIZ" name="TRIZ" netid="CL" source="Corinth Riff Laboratory (CRLNET)" insttype="" lat="38.36543" lon="22.07272">
		<comp name="00.HNE" depth="0.0">
			<acc value="0.0087545156047404" flag="0"/>
			<vel value="0.00739892622723" flag="0"/>
			<psa03 value="0.0226199281467394" flag="0"/>
			<psa10 value="0.0110239874725552" flag="0"/>
			<psa30 value="0.0012383607853245" flag="0"/>
		</comp>
		<comp name="00.HNN" depth="0.0">
			<acc value="0.016203185494806" flag="0"/>
			<vel value="0.0121790633859" flag="0"/>
			<psa03 value="0.0635799722780067" flag="0"/>
			<psa10 value="0.0136115763876295" flag="0"/>
			<psa30 value="0.0024892844862129" flag="0"/>
		</comp>
		<comp name="00.HNZ" depth="0.0">
			<acc value="0.007896694284687" flag="0"/>
			<vel value="0.00497557878198" flag="0"/>
			<psa03 value="0.0173556653526565" flag="0"/>
			<psa10 value="0.00990559494706869" flag="0"/>
			<psa30 value="0.00128360034472319" flag="0"/>
		</comp>
	</station>
	<station code="AGR3" name="AGR3" netid="HI" source="ITSAK Strong Motion Network" insttype="" lat="38.5893" lon="21.4162">
		<comp name="--.HNE" depth="0.0">
			<acc value="0.073639221404754" flag="0"/>
			<vel value="0.046519704128" flag="0"/>
			<psa03 value="0.190010316417774" flag="0"/>
			<psa10 value="0.0737410674839883" flag="0"/>
			<psa30 value="0.0149155164131025" flag="0"/>
		</comp>
		<comp name="--.HNN" depth="0.0">
			<acc value="0.045546417244188" flag="0"/>
			<vel value="0.0358728889647" flag="0"/>
			<psa03 value="0.134142563369667" flag="0"/>
			<psa10 value="0.065278301867325" flag="0"/>
			<psa30 value="0.0132218067131247" flag="0"/>
		</comp>
		<comp name="--.HNZ" depth="0.0">
			<acc value="0.032664891577446" flag="0"/>
			<vel value="0.0290499628827" flag="0"/>
			<psa03 value="0.0801711546955688" flag="0"/>
			<psa10 value="0.0607499743876973" flag="0"/>
			<psa30 value="0.00564179790810963" flag="0"/>
		</comp>
	</station>
	<station code="AKR1" name="AKR1" netid="HI" source="ITSAK Strong Motion Network" insttype="" lat="38.153583" lon="22.31326">
		<comp name="--.HNE" depth="0.0">
			<acc value="0.01378788976215" flag="0"/>
			<vel value="0.0105416944866" flag="0"/>
			<psa03 value="0.0307143654051316" flag="0"/>
			<psa10 value="0.0177494233121845" flag="0"/>
			<psa30 value="0.00145869058942394" flag="0"/>
		</comp>
		<comp name="--.HNN" depth="0.0">
			<acc value="0.014639995854342" flag="0"/>
			<vel value="0.0115010683009" flag="0"/>
			<psa03 value="0.0740583226671848" flag="0"/>
			<psa10 value="0.0178509219109658" flag="0"/>
			<psa30 value="0.00189585371600417" flag="0"/>
		</comp>
		<comp name="--.HNZ" depth="0.0">
			<acc value="0.0087722909112726" flag="0"/>
			<vel value="0.00594363879328" flag="0"/>
			<psa03 value="0.0196688211920579" flag="0"/>
			<psa10 value="0.0156639429718516" flag="0"/>
			<psa30 value="0.00162330138991697" flag="0"/>
		</comp>
	</station>
	<station code="AOL1" name="AOL1" netid="HI" source="ITSAK Strong Motion Network" insttype="" lat="37.642378" lon="21.624555">
		<comp name="--.HNE" depth="0.0">
			<acc value="0.040955343184494" flag="0"/>
			<vel value="0.035336325105" flag="0"/>
			<psa03 value="0.0843551662407471" flag="0"/>
			<psa10 value="0.0722376603904735" flag="0"/>
			<psa30 value="0.00548807105776099" flag="0"/>
		</comp>
		<comp name="--.HNN" depth="0.0">
			<acc value="0.053101558767456" flag="0"/>
			<vel value="0.0363500011141" flag="0"/>
			<psa03 value="0.103394088934414" flag="0"/>
			<psa10 value="0.0530284866269692" flag="0"/>
			<psa30 value="0.00590225891237198" flag="0"/>
		</comp>
		<comp name="--.HNZ" depth="0.0">
			<acc value="0.02834167370628" flag="0"/>
			<vel value="0.022128046403" flag="0"/>
			<psa03 value="0.102089346251423" flag="0"/>
			<psa10 value="0.0332948631212615" flag="0"/>
			<psa30 value="0.004671691559985" flag="0"/>
		</comp>
	</station>
	<station code="ARG2" name="ARG2" netid="HI" source="ITSAK Strong Motion Network" insttype="" lat="38.1783" lon="20.4878">
		<comp name="--.HNE" depth="0.0">
			<acc value="0.91001035294788" flag="0"/>
			<vel value="0.443257147757" flag="0"/>
			<psa03 value="1.25228770791574" flag="0"/>
			<psa10 value="0.32583898523348" flag="0"/>
			<psa30 value="0.022457309353199" flag="0"/>
		</comp>
		<comp name="--.HNN" depth="0.0">
			<acc value="0.95642760826194" flag="0"/>
			<vel value="0.424942337894" flag="0"/>
			<psa03 value="1.03402349898311" flag="0"/>
			<psa10 value="0.402307090870352" flag="0"/>
			<psa30 value="0.0222551909638308" flag="0"/>
		</comp>
		<comp name="--.HNZ" depth="0.0">
			<acc value="0.47792106084402" flag="0"/>
			<vel value="0.140170545409" flag="0"/>
			<psa03 value="0.734580579024274" flag="0"/>
			<psa10 value="0.102895903848818" flag="0"/>
			<psa30 value="0.0121883499183624" flag="0"/>
		</comp>
	</station>
	<station code="ART2" name="ART2" netid="HI" source="ITSAK Strong Motion Network" insttype="" lat="39.1474" lon="20.9937">
		<comp name="--.HNE" depth="0.0">
			<acc value="0.01199363554287" flag="0"/>
			<vel value="0.0180115488081" flag="0"/>
			<psa03 value="0.0209210916488015" flag="0"/>
			<psa10 value="0.020878497473" flag="0"/>
			<psa30 value="0.00307877312027766" flag="0"/>
		</comp>
		<comp name="--.HNN" depth="0.0">
			<acc value="0.010459819930848" flag="0"/>
			<vel value="0.00937580334435" flag="0"/>
			<psa03 value="0.0221189704815864" flag="0"/>
			<psa10 value="0.0208367890849982" flag="0"/>
			<psa30 value="0.0019217960595575" flag="0"/>
		</comp>
		<comp name="--.HNZ" depth="0.0">
			<acc value="0.0070998885671874" flag="0"/>
			<vel value="0.00800905458868" flag="0"/>
			<psa03 value="0.013652108812282" flag="0"/>
			<psa10 value="0.0105090971136033" flag="0"/>
			<psa30 value="0.00215020785738451" flag="0"/>
		</comp>
	</station>
	<station code="AST1" name="AST1" netid="HI" source="ITSAK Strong Motion Network" insttype="" lat="38.5416" lon="21.0895">
		<comp name="--.HNE" depth="0.0">
			<acc value="0.036747952652016" flag="0"/>
			<vel value="0.0252373431693" flag="0"/>
			<psa03 value="0.0816588574152301" flag="0"/>
			<psa10 value="0.0262761494159562" flag="0"/>
			<psa30 value="0.00534316270828531" flag="0"/>
		</comp>
		<comp name="--.HNN" depth="0.0">
			<acc value="0.042488275499874" flag="0"/>
			<vel value="0.0276768849597" flag="0"/>
			<psa03 value="0.106145521203216" flag="0"/>
			<psa10 value="0.0308283716033131" flag="0"/>
			<psa30 value="0.00652559728878638" flag="0"/>
		</comp>
		<comp name="--.HNZ" depth="0.0">
			<acc value="0.032096392892916" flag="0"/>
			<vel value="0.0239638544046" flag="0"/>
			<psa03 value="0.0577659465020796" flag="0"/>
			<psa10 value="0.0235567205171324" flag="0"/>
			<psa30 value="0.00261466987571531" flag="0"/>
		</comp>
	</station>
	<station code="JAN2" name="JAN2" netid="HI" source="ITSAK Strong Motion Network" insttype="" lat="39.664" lon="20.85222">
		<comp name="--.HNE" depth="0.0">
			<acc value="0.017683701220314" flag="0"/>
			<vel value="0.0141719602959" flag="0"/>
			<psa03 value="0.0501872517422953" flag="0"/>
			<psa10 value="0.0280997808475605" flag="0"/>
			<psa30 value="0.00312333294714734" flag="0"/>
		</comp>
		<comp name="--.HNN" depth="0.0">
			<acc value="0.020615454090918" flag="0"/>
			<vel value="0.0109436121171" flag="0"/>
			<psa03 value="0.0626374462981968" flag="0"/>
			<psa10 value="0.0123048754501237" flag="0"/>
			<psa30 value="0.0012705916704607" flag="0"/>
		</comp>
		<comp name="--.HNZ" depth="0.0">
			<acc value="0.035479943860026" flag="0"/>
			<vel value="0.00722576340763" flag="0"/>
			<psa03 value="0.01173523182861" flag="0"/>
			<psa10 value="0.0130514308432377" flag="0"/>
			<psa30 value="0.00144591640986722" flag="0"/>
		</comp>
	</station>
	<station code="KAC1" name="KAC1" netid="HI" source="ITSAK Strong Motion Network" insttype="" lat="38.143412" lon="21.549694">
		<comp name="--.HNE" depth="0.0">
			<acc value="0.0729709243686" flag="0"/>
			<vel value="0.0646564239072" flag="0"/>
			<psa03 value="0.309053848300663" flag="0"/>
			<psa10 value="0.0776392932220516" flag="0"/>
			<psa30 value="0.00724943773965949" flag="0"/>
		</comp>
		<comp name="--.HNN" depth="0.0">
			<acc value="0.079821328191282" flag="0"/>
			<vel value="0.0593273509434" flag="0"/>
			<psa03 value="0.195388547699065" flag="0"/>
			<psa10 value="0.105263645700019" flag="0"/>
			<psa30 value="0.00762527930398518" flag="0"/>
		</comp>
		<comp name="--.HNZ" depth="0.0">
			<acc value="0.02611680181014" flag="0"/>
			<vel value="0.0208426654643" flag="0"/>
			<psa03 value="0.0561688927882922" flag="0"/>
			<psa10 value="0.0322945406048044" flag="0"/>
			<psa30 value="0.00574754866357873" flag="0"/>
		</comp>
	</station>
	<station code="KAR2" name="KAR2" netid="HI" source="ITSAK Strong Motion Network" insttype="" lat="39.365759" lon="21.91933">
		<comp name="--.HNE" depth="0.0">
			<acc value="0.0082052936655288" flag="0"/>
			<vel value="0.0202798403807" flag="0"/>
			<psa03 value="0.0195375781228519" flag="0"/>
			<psa10 value="0.0236203322310937" flag="0"/>
			<psa30 value="0.0110931990366728" flag="0"/>
		</comp>
		<comp name="--.HNN" depth="0.0">
			<acc value="0.011548562621748" flag="0"/>
			<vel value="0.0192315240404" flag="0"/>
			<psa03 value="0.0247103739201478" flag="0"/>
			<psa10 value="0.0264364294086981" flag="0"/>
			<psa30 value="0.00718480012443464" flag="0"/>
		</comp>
		<comp name="--.HNZ" depth="0.0">
			<acc value="0.024022399457442" flag="0"/>
			<vel value="0.00862367046208" flag="0"/>
			<psa03 value="0.0104193367142933" flag="0"/>
			<psa10 value="0.0116537038757085" flag="0"/>
			<psa30 value="0.00198076996628931" flag="0"/>
		</comp>
	</station>
	<station code="KLV1" name="KLV1" netid="HI" source="ITSAK Strong Motion Network" insttype="" lat="38.03256" lon="22.10797">
		<comp name="--.HNE" depth="0.0">
			<acc value="0.016397143103574" flag="0"/>
			<vel value="0.0199522668443" flag="0"/>
			<psa03 value="0.0486324508279663" flag="0"/>
			<psa10 value="0.0501802141927868" flag="0"/>
			<psa30 value="0.0023477224000884" flag="0"/>
		</comp>
		<comp name="--.HNN" depth="0.0">
			<acc value="0.020928302241684" flag="0"/>
			<vel value="0.0185942238627" flag="0"/>
			<psa03 value="0.048894796331869" flag="0"/>
			<psa10 value="0.0458173401738528" flag="0"/>
			<psa30 value="0.00304058434045654" flag="0"/>
		</comp>
		<comp name="--.HNZ" depth="0.0">
			<acc value="0.011388795598926" flag="0"/>
			<vel value="0.0102409220907" flag="0"/>
			<psa03 value="0.023430296933839" flag="0"/>
			<psa10 value="0.0206952565841835" flag="0"/>
			<psa30 value="0.00233448860674662" flag="0"/>
		</comp>
	</station>
	<station code="KRK1" name="KRK1" netid="HI" source="ITSAK Strong Motion Network" insttype="" lat="39.618861" lon="19.9202">
		<comp name="--.HNE" depth="0.0">
			<acc value="0.048396329553096" flag="0"/>
			<vel value="0.0274021249366" flag="0"/>
			<psa03 value="0.119615642699142" flag="0"/>
			<psa10 value="0.0251441931794071" flag="0"/>
			<psa30 value="0.00208304840839879" flag="0"/>
		</comp>
		<comp name="--.HNN" depth="0.0">
			<acc value="0.051239260661112" flag="0"/>
			<vel value="0.0262779187778" flag="0"/>
			<psa03 value="0.102649747958827" flag="0"/>
			<psa10 value="0.0276204822214087" flag="0"/>
			<psa30 value="0.00189123966034505" flag="0"/>
		</comp>
		<comp name="--.HNZ" depth="0.0">
			<acc value="0.025392115574916" flag="0"/>
			<vel value="0.0114212617216" flag="0"/>
			<psa03 value="0.0614137350251787" flag="0"/>
			<psa10 value="0.00819873125070051" flag="0"/>
			<psa30 value="0.00120634428938846" flag="0"/>
		</comp>
	</station>
	<station code="LAM2" name="LAM2" netid="HI" source="ITSAK Strong Motion Network" insttype="" lat="38.90203" lon="22.431301">
		<comp name="--.HNE" depth="0.0">
			<acc value="0.003366178749084" flag="0"/>
			<vel value="0.00368550456635" flag="0"/>
			<psa03 value="0.00692470807689114" flag="0"/>
			<psa10 value="0.0065848137116023" flag="0"/>
			<psa30 value="0.00145874798906211" flag="0"/>
		</comp>
		<comp name="--.HNN" depth="0.0">
			<acc value="0.0043544505428532" flag="0"/>
			<vel value="0.00386203200839" flag="0"/>
			<psa03 value="0.00802599522447937" flag="0"/>
			<psa10 value="0.00807358077258804" flag="0"/>
			<psa30 value="0.00104138659091664" flag="0"/>
		</comp>
		<comp name="--.HNZ" depth="0.0">
			<acc value="0.0082019847960552" flag="0"/>
			<vel value="0.00294850202532" flag="0"/>
			<psa03 value="0.00500644037604299" flag="0"/>
			<psa10 value="0.00460136356774644" flag="0"/>
			<psa30 value="0.00121012610241655" flag="0"/>
		</comp>
	</station>
	<station code="LEF2" name="LEF2" netid="HI" source="ITSAK Strong Motion Network" insttype="" lat="38.830093" lon="20.708346">
		<comp name="--.HNE" depth="0.0">
			<acc value="0.089159454972606" flag="0"/>
			<vel value="0.0572755451096" flag="0"/>
			<psa03 value="0.244009726946852" flag="0"/>
			<psa10 value="0.102413194371559" flag="0"/>
			<psa30 value="0.0109797965242845" flag="0"/>
		</comp>
		<comp name="--.HNN" depth="0.0">
			<acc value="0.100415098088124" flag="0"/>
			<vel value="0.0850154414741" flag="0"/>
			<psa03 value="0.292342970453668" flag="0"/>
			<psa10 value="0.129314281436321" flag="0"/>
			<psa30 value="0.00691966131025572" flag="0"/>
		</comp>
		<comp name="--.HNZ" depth="0.0">
			<acc value="0.05721747503163" flag="0"/>
			<vel value="0.0505501873889" flag="0"/>
			<psa03 value="0.132484818135809" flag="0"/>
			<psa10 value="0.0796978420910844" flag="0"/>
			<psa30 value="0.00457187703109603" flag="0"/>
		</comp>
	</station>
	<station code="LXR2" name="LXR2" netid="HI" source="ITSAK Strong Motion Network" insttype="" lat="38.206718" lon="20.436386">
		<comp name="--.HNE" depth="0.0">
			<acc value="1.5694914697848" flag="0"/>
			<vel value="0.635223450532" flag="0"/>
			<psa03 value="2.25693501086993" flag="0"/>
			<psa10 value="0.449083609585181" flag="0"/>
			<psa30 value="0.0430166096392644" flag="0"/>
		</comp>
		<comp name="--.HNN" depth="0.0">
			<acc value="1.146967607583" flag="0"/>
			<vel value="0.380597273329" flag="0"/>
			<psa03 value="1.13807797541392" flag="0"/>
			<psa10 value="0.293059503753887" flag="0"/>
			<psa30 value="0.0336570362801549" flag="0"/>
		</comp>
		<comp name="--.HNZ" depth="0.0">
			<acc value="0.5957129622894" flag="0"/>
			<vel value="0.169647732122" flag="0"/>
			<psa03 value="0.675098138604629" flag="0"/>
			<psa10 value="0.114987567361971" flag="0"/>
			<psa30 value="0.0212161237974289" flag="0"/>
		</comp>
	</station>
	<station code="MSL1" name="MSL1" netid="HI" source="ITSAK Strong Motion Network" insttype="" lat="38.3727" lon="21.4243">
		<comp name="--.HNE" depth="0.0">
			<acc value="0.077825554899132" flag="0"/>
			<vel value="0.0559576350044" flag="0"/>
			<psa03 value="0.267711901266305" flag="0"/>
			<psa10 value="0.103022782253711" flag="0"/>
			<psa30 value="0.00656279683640555" flag="0"/>
		</comp>
		<comp name="--.HNN" depth="0.0">
			<acc value="0.079573482901314" flag="0"/>
			<vel value="0.0718917550142" flag="0"/>
			<psa03 value="0.186582714355966" flag="0"/>
			<psa10 value="0.199169318990107" flag="0"/>
			<psa30 value="0.00787044721182652" flag="0"/>
		</comp>
		<comp name="--.HNZ" depth="0.0">
			<acc value="0.034138009461438" flag="0"/>
			<vel value="0.0365942769971" flag="0"/>
			<psa03 value="0.0916383830930847" flag="0"/>
			<psa10 value="0.104097730963979" flag="0"/>
			<psa30 value="0.00325337989544968" flag="0"/>
		</comp>
	</station>
	<station code="NMA1" name="NMA1" netid="HI" source="ITSAK Strong Motion Network" insttype="" lat="37.81873" lon="22.662702">
		<comp name="--.HNE" depth="0.0">
			<acc value="0.019605101409936" flag="0"/>
			<vel value="0.00971817790751" flag="0"/>
			<psa03 value="0.0333074746859126" flag="0"/>
			<psa10 value="0.0139775406309594" flag="0"/>
			<psa30 value="0.00184662420479191" flag="0"/>
		</comp>
		<comp name="--.HNN" depth="0.0">
			<acc value="0.015601292784864" flag="0"/>
			<vel value="0.0111020324453" flag="0"/>
			<psa03 value="0.0431262683619657" flag="0"/>
			<psa10 value="0.0238792250064505" flag="0"/>
			<psa30 value="0.00174665049868865" flag="0"/>
		</comp>
		<comp name="--.HNZ" depth="0.0">
			<acc value="0.0085276730041206" flag="0"/>
			<vel value="0.00803897332938" flag="0"/>
			<psa03 value="0.0283443985106174" flag="0"/>
			<psa10 value="0.0178699544217917" flag="0"/>
			<psa30 value="0.00299517779082969" flag="0"/>
		</comp>
	</station>
	<station code="PET1" name="PET1" netid="HI" source="ITSAK Strong Motion Network" insttype="" lat="36.963862" lon="21.92538">
		<comp name="--.HNE" depth="0.0">
			<acc value="0.013611549814518" flag="0"/>
			<vel value="0.0141035859489" flag="0"/>
			<psa03 value="0.0390044067672035" flag="0"/>
			<psa10 value="0.0230642397676885" flag="0"/>
			<psa30 value="0.00175750684286918" flag="0"/>
		</comp>
		<comp name="--.HNN" depth="0.0">
			<acc value="0.015764294469324" flag="0"/>
			<vel value="0.0166769318974" flag="0"/>
			<psa03 value="0.0341651773378105" flag="0"/>
			<psa10 value="0.028994680130266" flag="0"/>
			<psa30 value="0.00137400925053769" flag="0"/>
		</comp>
		<comp name="--.HNZ" depth="0.0">
			<acc value="0.015681126078258" flag="0"/>
			<vel value="0.00724225179612" flag="0"/>
			<psa03 value="0.0182414297593707" flag="0"/>
			<psa10 value="0.00974944210267625" flag="0"/>
			<psa30 value="0.00225990804114952" flag="0"/>
		</comp>
	</station>
	<station code="PRE2" name="PRE2" netid="HI" source="ITSAK Strong Motion Network" insttype="" lat="38.9577" lon="20.7548">
		<comp name="--.HNE" depth="0.0">
			<acc value="0.054355802421684" flag="0"/>
			<vel value="0.0477775136965" flag="0"/>
			<psa03 value="0.134596499690845" flag="0"/>
			<psa10 value="0.0623282739424094" flag="0"/>
			<psa30 value="0.0134451348408458" flag="0"/>
		</comp>
		<comp name="--.HNN" depth="0.0">
			<acc value="0.054861857182248" flag="0"/>
			<vel value="0.057036199312" flag="0"/>
			<psa03 value="0.167190585972417" flag="0"/>
			<psa10 value="0.132176321032625" flag="0"/>
			<psa30 value="0.00867681896333844" flag="0"/>
		</comp>
		<comp name="--.HNZ" depth="0.0">
			<acc value="0.03373902491769" flag="0"/>
			<vel value="0.0286079534719" flag="0"/>
			<psa03 value="0.0741840705807205" flag="0"/>
			<psa10 value="0.0311145230594495" flag="0"/>
			<psa30 value="0.00369364343575203" flag="0"/>
		</comp>
	</station>
	<station code="PYL1" name="PYL1" netid="HI" source="ITSAK Strong Motion Network" insttype="" lat="36.914188" lon="21.695161">
		<comp name="--.HNE" depth="0.0">
			<acc value="0.0061479481372716" flag="0"/>
			<vel value="0.00488157645826" flag="0"/>
			<psa03 value="0.0182709824983349" flag="0"/>
			<psa10 value="0.00755577225156562" flag="0"/>
			<psa30 value="0.00129290502361227" flag="0"/>
		</comp>
		<comp name="--.HNN" depth="0.0">
			<acc value="0.0049806319817322" flag="0"/>
			<vel value="0.00514882396221" flag="0"/>
			<psa03 value="0.0120929456295404" flag="0"/>
