<?xml version="1.0" encoding="UTF-8" standalone="yes"?>
<!DOCTYPE earthquake SYSTEM "stationlist.dtd">
<stationlist created="" xmlns="ch.ethz.sed.shakemap.usgs.xml">
  <station code="APE" name="APE" netid="GE" insttype="STS-2/N" lat="37.0727" lon="25.523">
    <comp name="--.HHN">
      <acc value="0.1576555203" flag="0"/>
      <vel value="0.0231557540" flag="0"/>
      <psa03 value="0.0542575517" flag="0"/>
      <psa10 value="0.0049698113" flag="0"/>
      <psa30 value="0.0007119769" flag="0"/>
    </comp>
    <comp name="--.HHZ">
      <acc value="0.0651918773" flag="0"/>
      <vel value="0.0103903763" flag="0"/>
      <psa03 value="0.0467520833" flag="0"/>
      <psa10 value="0.0032148707" flag="0"/>
      <psa30 value="0.0005223306" flag="0"/>
    </comp>
    <comp name="--.HHE">
      <acc value="0.1316453083" flag="0"/>
      <vel value="0.0211051945" flag="0"/>
      <psa03 value="0.0527534983" flag="0"/>
      <psa10 value="0.0048787088" flag="0"/>
      <psa30 value="0.0006788256" flag="0"/>
    </comp>
  </station>
  <station code="THERA" name="THERA" netid="GE" insttype="STS-2/N" lat="36.367" lon="25.4753">
    <comp name="--.HHN">
      <acc value="0.0709885463" flag="0"/>
      <vel value="0.0171504550" flag="0"/>
      <psa03 value="0.1092255178" flag="0"/>
      <psa10 value="0.0044993676" flag="0"/>
      <psa30 value="0.0006119836" flag="0"/>
    </comp>
    <comp name="--.HHE">
      <acc value="0.1287821022" flag="0"/>
      <vel value="0.0281126799" flag="0"/>
      <psa03 value="0.1233369873" flag="0"/>
      <psa10 value="0.0070388363" flag="0"/>
      <psa30 value="0.0015187470" flag="0"/>
    </comp>
    <comp name="--.HHZ">
      <acc value="0.1162327191" flag="0"/>
      <vel value="0.0260096300" flag="0"/>
      <psa03 value="0.1933536819" flag="0"/>
      <psa10 value="0.0045049295" flag="0"/>
      <psa30 value="0.0008055823" flag="0"/>
    </comp>
  </station>
  <station code="SNT1" name="SNT1" netid="HA" insttype="30" lat="36.4159" lon="25.4282">
    <comp name="--.HHE">
      <acc value="0.0543337835" flag="0"/>
      <vel value="0.0111348813" flag="0"/>
      <psa03 value="0.0668274072" flag="0"/>
      <psa10 value="0.0113845963" flag="0"/>
      <psa30 value="0.0022679114" flag="0"/>
    </comp>
    <comp name="--.HHN">
      <acc value="0.0393630777" flag="0"/>
      <vel value="0.0131506402" flag="0"/>
      <psa03 value="0.0587987199" flag="0"/>
      <psa10 value="0.0072891334" flag="0"/>
      <psa30 value="0.0015695985" flag="0"/>
    </comp>
    <comp name="--.HHZ">
      <acc value="0.0446702803" flag="0"/>
      <vel value="0.0111919357" flag="0"/>
      <psa03 value="0.0565072889" flag="0"/>
      <psa10 value="0.0067282790" flag="0"/>
      <psa30 value="0.0005322737" flag="0"/>
    </comp>
  </station>
  <station code="NAX1" name="NAX1" netid="HI" insttype="CMG-5TD,ACCELEROMETER,GURALP" lat="37.1014" lon="25.3741">
    <comp name="--.HNE">
      <acc value="0.0736424817" flag="0"/>
      <vel value="0.0113262607" flag="0"/>
      <psa03 value="0.0392487038" flag="0"/>
      <psa10 value="0.0031484471" flag="0"/>
      <psa30 value="0.0005192269" flag="0"/>
    </comp>
    <comp name="--.HNZ">
      <acc value="0.0514998498" flag="0"/>
      <vel value="0.0069207039" flag="0"/>
      <psa03 value="0.0308379705" flag="0"/>
      <psa10 value="0.0030781708" flag="0"/>
      <psa30 value="0.0004889185" flag="0"/>
    </comp>
    <comp name="--.HNN">
      <acc value="0.0641648289" flag="0"/>
      <vel value="0.0092187914" flag="0"/>
      <psa03 value="0.0434604220" flag="0"/>
      <psa10 value="0.0033318295" flag="0"/>
      <psa30 value="0.0005534868" flag="0"/>
    </comp>
  </station>
  <station code="SFR2" name="SFR2" netid="HI" insttype="unknown" lat="36.3998" lon="25.4382">
    <comp name="--.HNE">
      <acc value="0.1141708282" flag="0"/>
      <vel value="0.0345094307" flag="0"/>
      <psa03 value="0.2115750633" flag="0"/>
      <psa10 value="0.0189349332" flag="0"/>
      <psa30 value="0.0029241883" flag="0"/>
    </comp>
    <comp name="--.HNZ">
      <acc value="0.1743818882" flag="0"/>
      <vel value="0.0407550927" flag="0"/>
      <psa03 value="0.1507349582" flag="0"/>
      <psa10 value="0.0131918970" flag="0"/>
      <psa30 value="0.0009407034" flag="0"/>
    </comp>
    <comp name="--.HNN">
      <acc value="0.1362310600" flag="0"/>
      <vel value="0.0352286182" flag="0"/>
      <psa03 value="0.1855483000" flag="0"/>
      <psa10 value="0.0248881373" flag="0"/>
      <psa30 value="0.0014970184" flag="0"/>
    </comp>
  </station>
  <station code="AMGA" name="AMGA" netid="HL" insttype="SMART24" lat="36.8316" lon="25.8938">
    <comp name="--.HHE">
      <acc value="1.6593322822" flag="0"/>
      <vel value="0.2976480548" flag="0"/>
      <psa03 value="0.7993435881" flag="0"/>
      <psa10 value="0.1025297821" flag="0"/>
      <psa30 value="0.0137513819" flag="0"/>
    </comp>
    <comp name="--.HHN">
      <acc value="1.9008768711" flag="0"/>
      <vel value="0.2716581636" flag="0"/>
      <psa03 value="0.9607017720" flag="0"/>
      <psa10 value="0.1180971205" flag="0"/>
      <psa30 value="0.0111273286" flag="0"/>
    </comp>
    <comp name="--.HHZ">
      <acc value="1.1314369341" flag="0"/>
      <vel value="0.2206308683" flag="0"/>
      <psa03 value="0.6116181543" flag="0"/>
      <psa10 value="0.0706274935" flag="0"/>
      <psa30 value="0.0064054590" flag="0"/>
    </comp>
  </station>
  <station code="APE" name="APE" netid="HL" insttype="120" lat="37.0727" lon="25.523">
    <comp name="--.HHN">
      <acc value="0.1359151155" flag="0"/>
      <vel value="0.0215881626" flag="0"/>
      <psa03 value="0.0515892726" flag="0"/>
      <psa10 value="0.0048111227" flag="0"/>
      <psa30 value="0.0007042040" flag="0"/>
    </comp>
    <comp name="--.HHE">
      <acc value="0.1248596573" flag="0"/>
      <vel value="0.0189354272" flag="0"/>
      <psa03 value="0.0514570991" flag="0"/>
      <psa10 value="0.0047408060" flag="0"/>
      <psa30 value="0.0006779291" flag="0"/>
    </comp>
    <comp name="--.HHZ">
      <acc value="0.0627074901" flag="0"/>
      <vel value="0.0090309494" flag="0"/>
      <psa03 value="0.0452975259" flag="0"/>
      <psa10 value="0.0031712203" flag="0"/>
      <psa30 value="0.0005188589" flag="0"/>
    </comp>
  </station>
  <station code="NISR2" name="NISR2" netid="HL" insttype="120" lat="36.5744" lon="27.1767">
    <comp name="--.HHN">
      <acc value="0.0860180110" flag="0"/>
      <vel value="0.0629524341" flag="0"/>
      <psa03 value="0.3638204575" flag="0"/>
      <psa10 value="0.0672442812" flag="0"/>
      <psa30 value="0.0032310778" flag="0"/>
    </comp>
    <comp name="--.HHE">
      <acc value="0.0815107403" flag="0"/>
      <vel value="0.0517574404" flag="0"/>
      <psa03 value="0.1993848832" flag="0"/>
      <psa10 value="0.0596101733" flag="0"/>
      <psa30 value="0.0034276718" flag="0"/>
    </comp>
    <comp name="--.HHZ">
      <acc value="0.0294906925" flag="0"/>
      <vel value="0.0191203579" flag="0"/>
      <psa03 value="0.1308183393" flag="0"/>
      <psa10 value="0.0119892090" flag="0"/>
      <psa30 value="0.0014541720" flag="0"/>
    </comp>
  </station>
  <station code="SANT" name="SANT" netid="HL" insttype="30" lat="36.3705" lon="25.4593">
    <comp name="--.HHE">
      <acc value="0.2960353434" flag="0"/>
      <vel value="0.0663994546" flag="0"/>
      <psa03 value="0.5339911997" flag="0"/>
      <psa10 value="0.0147268465" flag="0"/>
      <psa30 value="0.0021918908" flag="0"/>
    </comp>
    <comp name="--.HHN">
      <acc value="0.2421404211" flag="0"/>
      <vel value="0.0409084557" flag="0"/>
      <psa03 value="0.3154587282" flag="0"/>
      <psa10 value="0.0070299978" flag="0"/>
      <psa30 value="0.0011738679" flag="0"/>
    </comp>
    <comp name="--.HHZ">
      <acc value="0.2625445478" flag="0"/>
      <vel value="0.0401109737" flag="0"/>
      <psa03 value="0.2217541460" flag="0"/>
      <psa10 value="0.0062890872" flag="0"/>
      <psa30 value="0.0007604310" flag="0"/>
    </comp>
  </station>
  <station code="SAP3" name="SAP3" netid="HL" insttype="65535" lat="36.4356" lon="25.3454">
    <comp name="--.HHE">
      <acc value="0.0479115260" flag="0"/>
      <vel value="0.0147983128" flag="0"/>
      <psa03 value="0.0605044924" flag="0"/>
      <psa10 value="0.0076609803" flag="0"/>
      <psa30 value="0.0024511322" flag="0"/>
    </comp>
    <comp name="--.HHN">
      <acc value="0.0639180421" flag="0"/>
      <vel value="0.0151686273" flag="0"/>
      <psa03 value="0.0903988215" flag="0"/>
      <psa10 value="0.0082590344" flag="0"/>
      <psa30 value="0.0016027769" flag="0"/>
    </comp>
    <comp name="--.HHZ">
      <acc value="0.0636780493" flag="0"/>
      <vel value="0.0119533117" flag="0"/>
      <psa03 value="0.0570631440" flag="0"/>
      <psa10 value="0.0042046314" flag="0"/>
      <psa30 value="0.0007755894" flag="0"/>
    </comp>
  </station>
  <station code="THERA" name="THERA" netid="HL" insttype="120" lat="36.367" lon="25.4753">
    <comp name="--.HHE">
      <acc value="0.1277419485" flag="0"/>
      <vel value="0.0274915984" flag="0"/>
      <psa03 value="0.1194800482" flag="0"/>
      <psa10 value="0.0068478547" flag="0"/>
      <psa30 value="0.0015084535" flag="0"/>
    </comp>
    <comp name="--.HHN">
      <acc value="0.1440094435" flag="0"/>
      <vel value="0.0329794178" flag="0"/>
      <psa03 value="0.2117429154" flag="0"/>
      <psa10 value="0.0089297012" flag="0"/>
      <psa30 value="0.0012045139" flag="0"/>
    </comp>
    <comp name="--.HHZ">
      <acc value="0.1195127875" flag="0"/>
      <vel value="0.0252141098" flag="0"/>
      <psa03 value="0.1879639740" flag="0"/>
      <psa10 value="0.0043748103" flag="0"/>
      <psa30 value="0.0008053993" flag="0"/>
    </comp>
  </station>
  <station code="THRA" name="THRA" netid="HL" insttype="CMG-5" lat="36.415" lon="25.4324">
    <comp name="00.HNE">
      <acc value="0.2080903592" flag="0"/>
      <vel value="0.0545168756" flag="0"/>
      <psa03 value="0.2977286431" flag="0"/>
      <psa10 value="0.0255858556" flag="0"/>
      <psa30 value="0.0040681560" flag="0"/>
    </comp>
    <comp name="00.HNN">
      <acc value="0.1309101207" flag="0"/>
      <vel value="0.0392481038" flag="0"/>
      <psa03 value="0.3137723043" flag="0"/>
      <psa10 value="0.0253355546" flag="0"/>
      <psa30 value="0.0035771914" flag="0"/>
    </comp>
    <comp name="00.HNZ">
      <acc value="0.1363555321" flag="0"/>
      <vel value="0.0437646101" flag="0"/>
      <psa03 value="0.2694927565" flag="0"/>
      <psa10 value="0.0127108222" flag="0"/>
      <psa30 value="0.0011149404" flag="0"/>
    </comp>
  </station>
  <station code="TNSA" name="TNSA" netid="HL" insttype="CMG-5" lat="37.5394" lon="25.1631">
    <comp name="00.HNE">
      <acc value="0.0298850042" flag="0"/>
      <vel value="0.0061590704" flag="0"/>
      <psa03 value="0.0247891500" flag="0"/>
      <psa10 value="0.0021335214" flag="0"/>
      <psa30 value="0.0003470326" flag="0"/>
    </comp>
    <comp name="00.HNN">
      <acc value="0.0416768039" flag="0"/>
      <vel value="0.0097341801" flag="0"/>
      <psa03 value="0.0271839597" flag="0"/>
      <psa10 value="0.0036235575" flag="0"/>
      <psa30 value="0.0003796600" flag="0"/>
    </comp>
    <comp name="00.HNZ">
      <acc value="0.0356037902" flag="0"/>
      <vel value="0.0071480953" flag="0"/>
      <psa03 value="0.0324369114" flag="0"/>
      <psa10 value="0.0026873060" flag="0"/>
      <psa30 value="0.0003096688" flag="0"/>
    </comp>
  </station>
  <station code="AKRO" name="AKRO" netid="HT" insttype="Compact," lat="36.3584" lon="25.3967">
    <comp name="--.HHE">
      <acc value="0.3337022386" flag="0"/>
      <vel value="0.0967357517" flag="0"/>
      <psa03 value="0.4928133368" flag="0"/>
      <psa10 value="0.0225871277" flag="0"/>
      <psa30 value="0.0028637860" flag="0"/>
    </comp>
    <comp name="--.HHN">
      <acc value="0.2843938485" flag="0"/>
      <vel value="0.0602762300" flag="0"/>
      <psa03 value="0.2605174924" flag="0"/>
      <psa10 value="0.0130248195" flag="0"/>
      <psa30 value="0.0030366223" flag="0"/>
    </comp>
    <comp name="--.HHZ">
      <acc value="0.2605415459" flag="0"/>
      <vel value="0.0374593564" flag="0"/>
      <psa03 value="0.2179778089" flag="0"/>
      <psa10 value="0.0118630094" flag="0"/>
      <psa30 value="0.0008755660" flag="0"/>
    </comp>
  </station>
  <station code="CMBO" name="CMBO" netid="HT" insttype="120P," lat="36.4709" lon="25.4056">
    <comp name="--.HHE">
      <acc value="0.0573628784" flag="0"/>
      <vel value="0.0164562284" flag="0"/>
      <psa03 value="0.1034706155" flag="0"/>
      <psa10 value="0.0104083733" flag="0"/>
      <psa30 value="0.0015811545" flag="0"/>
    </comp>
    <comp name="--.HHN">
      <acc value="0.0717994765" flag="0"/>
      <vel value="0.0368569564" flag="0"/>
      <psa03 value="0.1823936842" flag="0"/>
      <psa10 value="0.0157648069" flag="0"/>
      <psa30 value="0.0011574413" flag="0"/>
    </comp>
    <comp name="--.HHZ">
      <acc value="0.0778955756" flag="0"/>
      <vel value="0.0208800971" flag="0"/>
      <psa03 value="0.1503415915" flag="0"/>
      <psa10 value="0.0043178797" flag="0"/>
      <psa30 value="0.0008781334" flag="0"/>
    </comp>
  </station>
</stationlist>
