<stationlist created="1739289448">
	<station code="ABEA" name="ABEA" netid="HC" source="Seismological Network of Crete (HC)" insttype="" lat="35.5163" lon="24.0113">
		<comp name=".HNE" depth="0.0">
			<acc value="0.0039503007379548" flag="0"/>
			<vel value="0.0018826779965" flag="0"/>
			<psa03 value="0.00174684716536206" flag="0"/>
			<psa10 value="0.00178299467714651" flag="0"/>
			<psa30 value="0.000549559686881374" flag="0"/>
		</comp>
		<comp name=".HNN" depth="0.0">
			<acc value="0.009695834864304" flag="0"/>
			<vel value="0.00178365242789" flag="0"/>
			<psa03 value="0.0027809019945474" flag="0"/>
			<psa10 value="0.00157881052594949" flag="0"/>
			<psa30 value="0.00110770785937649" flag="0"/>
		</comp>
		<comp name=".HNZ" depth="0.0">
			<acc value="0.009459923512728" flag="0"/>
			<vel value="0.0016761453927" flag="0"/>
			<psa03 value="0.0013297716845968" flag="0"/>
			<psa10 value="0.00129400165875819" flag="0"/>
			<psa30 value="0.000644183403157758" flag="0"/>
		</comp>
	</station>
	<station code="ATEI" name="ATEI" netid="HC" source="Seismological Network of Crete (HC)" insttype="" lat="35.5193" lon="24.0432">
		<comp name=".HNE" depth="0.0">
			<acc value="0.00331728834909" flag="0"/>
			<vel value="0.0026273168864" flag="0"/>
			<psa03 value="0.0110228421883508" flag="0"/>
			<psa10 value="0.00177716093131639" flag="0"/>
			<psa30 value="0.00121575262097716" flag="0"/>
		</comp>
		<comp name=".HNN" depth="0.0">
			<acc value="0.0046856810337612" flag="0"/>
			<vel value="0.00202867619282" flag="0"/>
			<psa03 value="0.00940801841732485" flag="0"/>
			<psa10 value="0.00149670610255825" flag="0"/>
			<psa30 value="0.000970246982432492" flag="0"/>
		</comp>
		<comp name=".HNZ" depth="0.0">
			<acc value="0.0090309922554588" flag="0"/>
			<vel value="0.00183597318996" flag="0"/>
			<psa03 value="0.00688489489260147" flag="0"/>
			<psa10 value="0.001328657821747" flag="0"/>
			<psa30 value="0.000723778259259598" flag="0"/>
		</comp>
	</station>
	<station code="G0LD" name="G0LD" netid="HC" source="Seismological Network of Crete (HC)" insttype="" lat="35.4955" lon="24.0306">
		<comp name=".HNE" depth="0.0">
			<acc value="0.016111398436668" flag="0"/>
			<vel value="0.0022444421094" flag="0"/>
			<psa03 value="0.00246472431104521" flag="0"/>
			<psa10 value="0.00199748802690251" flag="0"/>
			<psa30 value="0.00127545251330391" flag="0"/>
		</comp>
		<comp name=".HNN" depth="0.0">
			<acc value="0.011448280395894" flag="0"/>
			<vel value="0.00208226107749" flag="0"/>
			<psa03 value="0.00223159819050225" flag="0"/>
			<psa10 value="0.00174672192269274" flag="0"/>
			<psa30 value="0.00146080572954216" flag="0"/>
		</comp>
		<comp name=".HNZ" depth="0.0">
			<acc value="0.0045406406218458" flag="0"/>
			<vel value="0.00425004307601" flag="0"/>
			<psa03 value="0.00265955801860188" flag="0"/>
			<psa10 value="0.00194783145614905" flag="0"/>
			<psa30 value="0.00170475230647461" flag="0"/>
		</comp>
	</station>
	<station code="ARK1" name="ARK1" netid="HI" source="ITSAK Strong Motion Network" insttype="" lat="35.148777" lon="25.264194">
		<comp name=".HNE" depth="0.0">
			<acc value="0.009616089207474" flag="0"/>
			<vel value="0.00646504237566" flag="0"/>
			<psa03 value="0.0296587954788115" flag="0"/>
			<psa10 value="0.00675892743327252" flag="0"/>
			<psa30 value="0.0012390491642581" flag="0"/>
		</comp>
		<comp name=".HNN" depth="0.0">
			<acc value="0.0096340496144874" flag="0"/>
			<vel value="0.00452361771738" flag="0"/>
			<psa03 value="0.0272719993444349" flag="0"/>
			<psa10 value="0.00433947012484008" flag="0"/>
			<psa30 value="0.00107827549296126" flag="0"/>
		</comp>
		<comp name=".HNZ" depth="0.0">
			<acc value="0.005770473921684" flag="0"/>
			<vel value="0.00331806375328" flag="0"/>
			<psa03 value="0.0137273143151019" flag="0"/>
			<psa10 value="0.00394450849183043" flag="0"/>
			<psa30 value="0.00102002507165673" flag="0"/>
		</comp>
	</station>
	<station code="CH01" name="CH01" netid="HI" source="ITSAK Strong Motion Network" insttype="" lat="35.517" lon="24.0208">
		<comp name=".HNE" depth="0.0">
			<acc value="0.0067045468107822" flag="0"/>
			<vel value="0.00199817436992" flag="0"/>
			<psa03 value="0.00806291368576256" flag="0"/>
			<psa10 value="0.00137300075924796" flag="0"/>
			<psa30 value="0.000914944048054955" flag="0"/>
		</comp>
		<comp name=".HNN" depth="0.0">
			<acc value="0.0073116418432074" flag="0"/>
			<vel value="0.0019014663969" flag="0"/>
			<psa03 value="0.0118796762931693" flag="0"/>
			<psa10 value="0.00257900248688349" flag="0"/>
			<psa30 value="0.000764407044464195" flag="0"/>
		</comp>
		<comp name=".HNZ" depth="0.0">
			<acc value="0.013485926754564" flag="0"/>
			<vel value="0.00151878124175" flag="0"/>
			<psa03 value="0.00502940999665542" flag="0"/>
			<psa10 value="0.00178585705426464" flag="0"/>
			<psa30 value="0.000298846489821761" flag="0"/>
		</comp>
	</station>
	<station code="CH02" name="CH02" netid="HI" source="ITSAK Strong Motion Network" insttype="" lat="35.5145" lon="24.0315">
		<comp name=".HNE" depth="0.0">
			<acc value="0.011214836492148" flag="0"/>
			<vel value="0.0020677492818" flag="0"/>
			<psa03 value="0.0084393897973062" flag="0"/>
			<psa10 value="0.00198445380407718" flag="0"/>
			<psa30 value="0.000816548519416649" flag="0"/>
		</comp>
		<comp name=".HNN" depth="0.0">
			<acc value="0.0066508502711154" flag="0"/>
			<vel value="0.00210729758267" flag="0"/>
			<psa03 value="0.0128957136527268" flag="0"/>
			<psa10 value="0.00196187461300121" flag="0"/>
			<psa30 value="0.000713073904314682" flag="0"/>
		</comp>
		<comp name=".HNZ" depth="0.0">
			<acc value="0.0057238196289096" flag="0"/>
			<vel value="0.00121645396907" flag="0"/>
			<psa03 value="0.00529945783388874" flag="0"/>
			<psa10 value="0.00143346027220715" flag="0"/>
			<psa30 value="0.000290898749781298" flag="0"/>
		</comp>
	</station>
	<station code="CH03" name="CH03" netid="HI" source="ITSAK Strong Motion Network" insttype="" lat="35.53303" lon="24.0705">
		<comp name=".HNE" depth="0.0">
			<acc value="0.0028187374116834" flag="0"/>
			<vel value="0.00185896850199" flag="0"/>
			<psa03 value="0.00787147717590164" flag="0"/>
			<psa10 value="0.00163193256064951" flag="0"/>
			<psa30 value="0.000424954739707749" flag="0"/>
		</comp>
		<comp name=".HNN" depth="0.0">
			<acc value="0.0023480965389264" flag="0"/>
			<vel value="0.00159368617276" flag="0"/>
			<psa03 value="0.00841593251424758" flag="0"/>
			<psa10 value="0.00155947764367695" flag="0"/>
			<psa30 value="0.000370586007837682" flag="0"/>
		</comp>
		<comp name=".HNZ" depth="0.0">
			<acc value="0.0019209669408582" flag="0"/>
			<vel value="0.000976388155971" flag="0"/>
			<psa03 value="0.00502887513046537" flag="0"/>
			<psa10 value="0.000774932292492081" flag="0"/>
			<psa30 value="0.00027014424989761" flag="0"/>
		</comp>
	</station>
	<station code="GOR1" name="GOR1" netid="HI" source="ITSAK Strong Motion Network" insttype="" lat="35.0582" lon="24.9628">
		<comp name=".HNE" depth="0.0">
			<acc value="0.0079443186129552" flag="0"/>
			<vel value="0.00225925156136" flag="0"/>
			<psa03 value="0.0201515575980398" flag="0"/>
			<psa10 value="0.00229031047182912" flag="0"/>
			<psa30 value="0.000587605957262183" flag="0"/>
		</comp>
		<comp name=".HNN" depth="0.0">
			<acc value="0.0053173236735612" flag="0"/>
			<vel value="0.00281189264752" flag="0"/>
			<psa03 value="0.0143352308886794" flag="0"/>
			<psa10 value="0.00241590183851453" flag="0"/>
			<psa30 value="0.00105866419380522" flag="0"/>
		</comp>
		<comp name=".HNZ" depth="0.0">
			<acc value="0.016687892886306" flag="0"/>
			<vel value="0.00190329664627" flag="0"/>
			<psa03 value="0.00742365584328704" flag="0"/>
			<psa10 value="0.00176380406992731" flag="0"/>
			<psa30 value="0.000472913880305723" flag="0"/>
		</comp>
	</station>
	<station code="HER3" name="HER3" netid="HI" source="ITSAK Strong Motion Network" insttype="" lat="35.3296" lon="25.1065">
		<comp name=".HNE" depth="0.0">
			<acc value="0.024279169088082" flag="0"/>
			<vel value="0.00871411989866" flag="0"/>
			<psa03 value="0.0517684866999412" flag="0"/>
			<psa10 value="0.0139060627709056" flag="0"/>
			<psa30 value="0.00114439289374457" flag="0"/>
		</comp>
		<comp name=".HNN" depth="0.0">
			<acc value="0.027259212054714" flag="0"/>
			<vel value="0.0096101172352" flag="0"/>
			<psa03 value="0.0806122985026571" flag="0"/>
			<psa10 value="0.0143114899409525" flag="0"/>
			<psa30 value="0.000914249522875484" flag="0"/>
		</comp>
		<comp name=".HNZ" depth="0.0">
			<acc value="0.0162138014964" flag="0"/>
			<vel value="0.00604827369342" flag="0"/>
			<psa03 value="0.0346722395740646" flag="0"/>
			<psa10 value="0.00783706479207568" flag="0"/>
			<psa30 value="0.000440230048496739" flag="0"/>
		</comp>
	</station>
	<station code="KRL1" name="KRL1" netid="HI" source="ITSAK Strong Motion Network" insttype="" lat="37.7951" lon="26.7065">
		<comp name=".HNE" depth="0.0">
			<acc value="0.02592098623047" flag="0"/>
			<vel value="0.00835552476087" flag="0"/>
			<psa03 value="0.0563936212171044" flag="0"/>
			<psa10 value="0.00601291488860881" flag="0"/>
			<psa30 value="0.000661620391602707" flag="0"/>
		</comp>
		<comp name=".HNN" depth="0.0">
			<acc value="0.024417561846378" flag="0"/>
			<vel value="0.0111558472511" flag="0"/>
			<psa03 value="0.0360186464752469" flag="0"/>
			<psa10 value="0.00635116104574746" flag="0"/>
			<psa30 value="0.00103553182806941" flag="0"/>
		</comp>
		<comp name=".HNZ" depth="0.0">
			<acc value="0.010319005877784" flag="0"/>
			<vel value="0.00432674293623" flag="0"/>
			<psa03 value="0.0188561814211529" flag="0"/>
			<psa10 value="0.00333981679334657" flag="0"/>
			<psa30 value="0.000391160053059011" flag="0"/>
		</comp>
	</station>
	<station code="KTL1" name="KTL1" netid="HI" source="ITSAK Strong Motion Network" insttype="" lat="35.20778" lon="25.34272">
		<comp name=".HNE" depth="0.0">
			<acc value="0.010779839499858" flag="0"/>
			<vel value="0.00532253287056" flag="0"/>
			<psa03 value="0.026498052240932" flag="0"/>
			<psa10 value="0.00320213603204648" flag="0"/>
			<psa30 value="0.000885315210288408" flag="0"/>
		</comp>
		<comp name=".HNN" depth="0.0">
			<acc value="0.011647037552442" flag="0"/>
			<vel value="0.00513173381014" flag="0"/>
			<psa03 value="0.0352726439311957" flag="0"/>
			<psa10 value="0.00535501255581701" flag="0"/>
			<psa30 value="0.000631597048538817" flag="0"/>
		</comp>
		<comp name=".HNZ" depth="0.0">
			<acc value="0.013676559768804" flag="0"/>
			<vel value="0.00260940898833" flag="0"/>
			<psa03 value="0.00991460080406165" flag="0"/>
			<psa10 value="0.00182711998304358" flag="0"/>
			<psa30 value="0.000453238722759231" flag="0"/>
		</comp>
	</station>
	<station code="RKL1" name="RKL1" netid="HI" source="ITSAK Strong Motion Network" insttype="" lat="36.336699" lon="28.171224">
		<comp name=".HNE" depth="0.0">
			<acc value="0.0067685573367648" flag="0"/>
			<vel value="0.00623592738874" flag="0"/>
			<psa03 value="0.0164649644210168" flag="0"/>
			<psa10 value="0.0127692255860211" flag="0"/>
			<psa30 value="0.000835621241222403" flag="0"/>
		</comp>
		<comp name=".HNN" depth="0.0">
			<acc value="0.007433875597824" flag="0"/>
			<vel value="0.00558676339787" flag="0"/>
			<psa03 value="0.0175035462427978" flag="0"/>
			<psa10 value="0.0122771442380589" flag="0"/>
			<psa30 value="0.00102768703755737" flag="0"/>
		</comp>
		<comp name=".HNZ" depth="0.0">
			<acc value="0.010301577410532" flag="0"/>
			<vel value="0.00266913083905" flag="0"/>
			<psa03 value="0.00989212210142786" flag="0"/>
			<psa10 value="0.00287398624686048" flag="0"/>
			<psa30 value="0.00038229904939398" flag="0"/>
		</comp>
	</station>
	<station code="RPN1" name="RPN1" netid="HI" source="ITSAK Strong Motion Network" insttype="" lat="36.448678" lon="28.218047">
		<comp name=".HNE" depth="0.0">
			<acc value="0.0054985568604306" flag="0"/>
			<vel value="0.00473526503176" flag="0"/>
			<psa03 value="0.0102572335278391" flag="0"/>
			<psa10 value="0.00923211314469576" flag="0"/>
			<psa30 value="0.00162704247107638" flag="0"/>
		</comp>
		<comp name=".HNN" depth="0.0">
			<acc value="0.005296107900807" flag="0"/>
			<vel value="0.00673417322738" flag="0"/>
			<psa03 value="0.00961676141221121" flag="0"/>
			<psa10 value="0.00786579450776431" flag="0"/>
			<psa30 value="0.00335094094172473" flag="0"/>
		</comp>
		<comp name=".HNZ" depth="0.0">
			<acc value="0.0062005919445774" flag="0"/>
			<vel value="0.00250174736933" flag="0"/>
			<psa03 value="0.00591537949506763" flag="0"/>
			<psa10 value="0.00423747414938602" flag="0"/>
			<psa30 value="0.00108837189096372" flag="0"/>
		</comp>
	</station>
	<station code="RTH1" name="RTH1" netid="HI" source="ITSAK Strong Motion Network" insttype="" lat="35.365393" lon="24.471773">
		<comp name=".HNE" depth="0.0">
			<acc value="0.0037059143595114" flag="0"/>
			<vel value="0.0014340364836" flag="0"/>
			<psa03 value="0.011421583446768" flag="0"/>
			<psa10 value="0.000879337451009591" flag="0"/>
			<psa30 value="0.000558482309213586" flag="0"/>
		</comp>
		<comp name=".HNN" depth="0.0">
			<acc value="0.006028270219758" flag="0"/>
			<vel value="0.00218295296546" flag="0"/>
			<psa03 value="0.0110044386254481" flag="0"/>
			<psa10 value="0.0010342540611299" flag="0"/>
			<psa30 value="0.0005808490513164" flag="0"/>
		</comp>
		<comp name=".HNZ" depth="0.0">
			<acc value="0.005179013653881" flag="0"/>
			<vel value="0.000920429687847" flag="0"/>
			<psa03 value="0.00769409172708331" flag="0"/>
			<psa10 value="0.000614950854663687" flag="0"/>
			<psa30 value="0.000355768281444502" flag="0"/>
		</comp>
	</station>
	<station code="SFR2" name="SFR2" netid="HI" source="ITSAK Strong Motion Network" insttype="" lat="36.399841" lon="25.438209">
		<comp name=".HNE" depth="0.0">
			<acc value="0.11409856471818" flag="0"/>
			<vel value="0.035430864635" flag="0"/>
			<psa03 value="0.216705793195213" flag="0"/>
			<psa10 value="0.01899410076594" flag="0"/>
			<psa30 value="0.00304632534576917" flag="0"/>
		</comp>
		<comp name=".HNN" depth="0.0">
			<acc value="0.13572729167154" flag="0"/>
			<vel value="0.0356190157164" flag="0"/>
			<psa03 value="0.18789592634986" flag="0"/>
			<psa10 value="0.0249010458220686" flag="0"/>
			<psa30 value="0.00150820147344758" flag="0"/>
		</comp>
		<comp name=".HNZ" depth="0.0">
			<acc value="0.1694809875588" flag="0"/>
			<vel value="0.0410572982233" flag="0"/>
			<psa03 value="0.15115137762022" flag="0"/>
			<psa10 value="0.0132372369019799" flag="0"/>
			<psa30 value="0.000969647567725814" flag="0"/>
		</comp>
	</station>
	<station code="AMGA" name="AMGA" netid="HL" source="National Observatory of Athens Seismic Network" insttype="" lat="36.831561" lon="25.893836">
		<comp name="00.HNE" depth="0.0">
			<acc value="0.92627735734746" flag="0"/>
			<vel value="0.190874168695" flag="0"/>
			<psa03 value="0.5079526077005" flag="0"/>
			<psa10 value="0.0656837037231442" flag="0"/>
			<psa30 value="0.00978071125745028" flag="0"/>
		</comp>
		<comp name="00.HNN" depth="0.0">
			<acc value="1.0834347302706" flag="0"/>
			<vel value="0.164024182692" flag="0"/>
			<psa03 value="0.607378194157794" flag="0"/>
			<psa10 value="0.0684839842280459" flag="0"/>
			<psa30 value="0.00637561401980507" flag="0"/>
		</comp>
		<comp name="00.HNZ" depth="0.0">
			<acc value="0.67642639756842" flag="0"/>
			<vel value="0.139859873482" flag="0"/>
			<psa03 value="0.383534198924873" flag="0"/>
			<psa10 value="0.0442021681767383" flag="0"/>
			<psa30 value="0.00400593662364044" flag="0"/>
		</comp>
	</station>
	<station code="ANAF" name="ANAF" netid="HL" source="National Observatory of Athens Seismic Network" insttype="" lat="36.35675" lon="25.77262">
		<comp name=".HNE" depth="0.0">
			<acc value="1.5889278511416" flag="0"/>
			<vel value="0.332890268674" flag="0"/>
			<psa03 value="1.00332988234905" flag="0"/>
			<psa10 value="0.0579766469181258" flag="0"/>
			<psa30 value="0.00967946955069252" flag="0"/>
		</comp>
		<comp name=".HNN" depth="0.0">
			<acc value="2.0530179262866" flag="0"/>
			<vel value="0.32903822518" flag="0"/>
			<psa03 value="1.38792410982914" flag="0"/>
			<psa10 value="0.0589440010006401" flag="0"/>
			<psa30 value="0.00487343450778839" flag="0"/>
		</comp>
		<comp name=".HNZ" depth="0.0">
			<acc value="1.1167524156084" flag="0"/>
			<vel value="0.153965883159" flag="0"/>
			<psa03 value="0.597441577572849" flag="0"/>
			<psa10 value="0.0240104705758555" flag="0"/>
			<psa30 value="0.00289860556005901" flag="0"/>
		</comp>
	</station>
	<station code="ASTA" name="ASTA" netid="HL" source="National Observatory of Athens Seismic Network" insttype="" lat="36.54552" lon="26.35295">
		<comp name="00.HNE" depth="0.0">
			<acc value="0.12699617277786" flag="0"/>
			<vel value="0.0554439586301" flag="0"/>
			<psa03 value="0.138736826050614" flag="0"/>
			<psa10 value="0.0248450921154233" flag="0"/>
			<psa30 value="0.00222955436370306" flag="0"/>
		</comp>
		<comp name="00.HNN" depth="0.0">
			<acc value="0.1802578768332" flag="0"/>
			<vel value="0.0495880296645" flag="0"/>
			<psa03 value="0.252782328922015" flag="0"/>
			<psa10 value="0.0268246701277625" flag="0"/>
			<psa30 value="0.0029429103700376" flag="0"/>
		</comp>
		<comp name="00.HNZ" depth="0.0">
			<acc value="0.13632947803224" flag="0"/>
			<vel value="0.02801520635" flag="0"/>
			<psa03 value="0.171249063159954" flag="0"/>
			<psa10 value="0.0155191468172979" flag="0"/>
			<psa30 value="0.000872123555156826" flag="0"/>
		</comp>
	</station>
	<station code="CHNB" name="CHNB" netid="HL" source="National Observatory of Athens Seismic Network" insttype="" lat="35.48765" lon="24.06605">
		<comp name="00.HNE" depth="0.0">
			<acc value="0.007170319332006" flag="0"/>
			<vel value="0.00387620498427" flag="0"/>
			<psa03 value="0.0199940028899929" flag="0"/>
			<psa10 value="0.00347766279996859" flag="0"/>
			<psa30 value="0.00064360372933903" flag="0"/>
		</comp>
		<comp name="00.HNN" depth="0.0">
			<acc value="0.007085077823886" flag="0"/>
			<vel value="0.0042253232195" flag="0"/>
			<psa03 value="0.0142155901505992" flag="0"/>
			<psa10 value="0.00423697302243493" flag="0"/>
			<psa30 value="0.00064933374434158" flag="0"/>
		</comp>
		<comp name="00.HNZ" depth="0.0">
			<acc value="0.0082339907131776" flag="0"/>
			<vel value="0.00202976777857" flag="0"/>
			<psa03 value="0.01163276410311" flag="0"/>
			<psa10 value="0.00132338040183252" flag="0"/>
			<psa30 value="0.000241121910643131" flag="0"/>
		</comp>
	</station>
	<station code="HERG" name="HERG" netid="HL" source="National Observatory of Athens Seismic Network" insttype="" lat="35.32622" lon="25.06586">
		<comp name="00.HNE" depth="0.0">
			<acc value="0.011822395218348" flag="0"/>
			<vel value="0.00640577582685" flag="0"/>
			<psa03 value="0.0407809176814903" flag="0"/>
			<psa10 value="0.0070359465656652" flag="0"/>
			<psa30 value="0.00134593624500273" flag="0"/>
		</comp>
		<comp name="00.HNN" depth="0.0">
			<acc value="0.010127276874666" flag="0"/>
			<vel value="0.00643906995641" flag="0"/>
			<psa03 value="0.0330667868664945" flag="0"/>
			<psa10 value="0.00988744561976423" flag="0"/>
			<psa30 value="0.00115140856683293" flag="0"/>
		</comp>
		<comp name="00.HNZ" depth="0.0">
			<acc value="0.010786312234626" flag="0"/>
			<vel value="0.00493090447138" flag="0"/>
			<psa03 value="0.0208029223623458" flag="0"/>
			<psa10 value="0.00590859985322638" flag="0"/>
			<psa30 value="0.000553907631161566" flag="0"/>
		</comp>
	</station>
	<station code="IACM" name="IACM" netid="HL" source="National Observatory of Athens Seismic Network" insttype="" lat="35.3058" lon="25.0709">
		<comp name=".HNE" depth="0.0">
			<acc value="0.019351317475356" flag="0"/>
			<vel value="0.0108267014299" flag="0"/>
			<psa03 value="0.049651591257716" flag="0"/>
			<psa10 value="0.0156115257494493" flag="0"/>
			<psa30 value="0.00164225160361027" flag="0"/>
		</comp>
