<?xml version="1.0" encoding="UTF-8" standalone="yes"?>
<!DOCTYPE earthquake SYSTEM "stationlist.dtd">
<stationlist created="" xmlns="ch.ethz.sed.shakemap.usgs.xml">
  <station code="APE" name="APE" netid="GE" insttype="STS-2/N" lat="37.0727" lon="25.523">
    <comp name="--.HHE">
      <acc value="0.1316453083" flag="0"/>
      <vel value="0.0211051940" flag="0"/>
      <psa03 value="0.0527534983" flag="0"/>
      <psa10 value="0.0048787086" flag="0"/>
      <psa30 value="0.0006788282" flag="0"/>
    </comp>
    <comp name="--.HHN">
      <acc value="0.1576555203" flag="0"/>
      <vel value="0.0231557517" flag="0"/>
      <psa03 value="0.0542575517" flag="0"/>
      <psa10 value="0.0049698115" flag="0"/>
      <psa30 value="0.0007121456" flag="0"/>
    </comp>
    <comp name="--.HHZ">
      <acc value="0.0651918771" flag="0"/>
      <vel value="0.0103903785" flag="0"/>
      <psa03 value="0.0467520833" flag="0"/>
      <psa10 value="0.0032148721" flag="0"/>
      <psa30 value="0.0005222965" flag="0"/>
    </comp>
  </station>
  <station code="THERA" name="THERA" netid="GE" insttype="STS-2/N" lat="36.367" lon="25.4753">
    <comp name="--.HHE">
      <acc value="0.1287821022" flag="0"/>
      <vel value="0.0281126812" flag="0"/>
      <psa03 value="0.1233369873" flag="0"/>
      <psa10 value="0.0070388378" flag="0"/>
      <psa30 value="0.0015189321" flag="0"/>
    </comp>
    <comp name="--.HHN">
      <acc value="0.0709885463" flag="0"/>
      <vel value="0.0171504558" flag="0"/>
      <psa03 value="0.1092255178" flag="0"/>
      <psa10 value="0.0044993673" flag="0"/>
      <psa30 value="0.0006119946" flag="0"/>
    </comp>
    <comp name="--.HHZ">
      <acc value="0.1162327191" flag="0"/>
      <vel value="0.0260096311" flag="0"/>
      <psa03 value="0.1933536819" flag="0"/>
      <psa10 value="0.0045049292" flag="0"/>
      <psa30 value="0.0008054450" flag="0"/>
    </comp>
  </station>
</stationlist>
