<?xml version="1.0" encoding="UTF-8" standalone="yes"?>
<!DOCTYPE earthquake SYSTEM "stationlist.dtd">
<stationlist created="" xmlns="ch.ethz.sed.shakemap.usgs.xml">
  <station code="JMIC" name="JMIC" netid="NO" insttype="STS-2" commtype="DIG" lat="70.9866" lon="-8.5057">
    <comp name="00.HHE">
      <acc value="0.2273231158" flag="0"/>
      <vel value="0.0884616244" flag="0"/>
      <psa03 value="0.2845931140" flag="0"/>
      <psa10 value="0.0417723735" flag="0"/>
      <psa30 value="0.0041268059" flag="0"/>
    </comp>
    <comp name="00.HHZ">
      <acc value="0.1278988338" flag="0"/>
      <vel value="0.0307655064" flag="0"/>
      <psa03 value="0.1345233409" flag="0"/>
      <psa10 value="0.0292023614" flag="0"/>
      <psa30 value="0.0017396918" flag="0"/>
    </comp>
    <comp name="00.HHN">
      <acc value="0.2580659922" flag="0"/>
      <vel value="0.1121007818" flag="0"/>
      <psa03 value="0.2314167555" flag="0"/>
      <psa10 value="0.0826150853" flag="0"/>
      <psa30 value="0.0057178461" flag="0"/>
    </comp>
  </station>
  <station code="JMI" name="JMI" netid="NS" insttype="" commtype="DIG" lat="70.9268" lon="-8.72667">
    <comp name="00.HHN">
      <acc value="0.1536277976" flag="0"/>
      <vel value="0.0461522837" flag="0"/>
      <psa03 value="0.1077210846" flag="0"/>
      <psa10 value="0.0441497915" flag="0"/>
      <psa30 value="0.0027524102" flag="0"/>
    </comp>
    <comp name="00.HHE">
      <acc value="0.1349737283" flag="0"/>
      <vel value="0.0401595386" flag="0"/>
      <psa03 value="0.1200458486" flag="0"/>
      <psa10 value="0.0277377550" flag="0"/>
      <psa30 value="0.0021430654" flag="0"/>
    </comp>
    <comp name="00.HHZ">
      <acc value="0.0519725917" flag="0"/>
      <vel value="0.0230626443" flag="0"/>
      <psa03 value="0.1079551495" flag="0"/>
      <psa10 value="0.0273182143" flag="0"/>
      <psa30 value="0.0012217291" flag="0"/>
    </comp>
  </station>
  <station code="JNE" name="JNE" netid="NS" insttype="" commtype="DIG" lat="70.9883" lon="-8.29267">
    <comp name="00.HHN">
      <acc value="0.3358678301" flag="0"/>
      <vel value="0.2435432041" flag="0"/>
      <psa03 value="0.6616527654" flag="0"/>
      <psa10 value="0.1687400137" flag="0"/>
      <psa30 value="0.0105083654" flag="0"/>
    </comp>
    <comp name="00.HHE">
      <acc value="0.4465206897" flag="0"/>
      <vel value="0.2141539837" flag="0"/>
      <psa03 value="0.6288157151" flag="0"/>
      <psa10 value="0.1479192400" flag="0"/>
      <psa30 value="0.0089603343" flag="0"/>
    </comp>
    <comp name="00.HHZ">
      <acc value="0.2859507143" flag="0"/>
      <vel value="0.0890980678" flag="0"/>
      <psa03 value="0.3892855265" flag="0"/>
      <psa10 value="0.0477897076" flag="0"/>
      <psa30 value="0.0031709102" flag="0"/>
    </comp>
  </station>
</stationlist>
