<?xml version="1.0" encoding="UTF-8" standalone="yes"?>
<!DOCTYPE earthquake SYSTEM "stationlist.dtd">
<stationlist created="" xmlns="ch.ethz.sed.shakemap.usgs.xml">
  <station code="ARG" name="ARG" netid="HL" insttype="LE3D20_DR24" lat="36.2136" lon="28.1212">
    <comp name="--.HHE">
      <acc value="0.0143920344" flag="0"/>
      <vel value="0.0077343232" flag="0"/>
      <psa03 value="0.0298873068" flag="0"/>
      <psa10 value="0.0113878555" flag="0"/>
      <psa30 value="0.0017305687" flag="0"/>
    </comp>
    <comp name="--.HHZ">
      <acc value="0.0075236707" flag="0"/>
      <vel value="0.0041829343" flag="0"/>
      <psa03 value="0.0104849321" flag="0"/>
      <psa10 value="0.0092645115" flag="0"/>
      <psa30 value="0.0008593217" flag="0"/>
    </comp>
    <comp name="--.HHN">
      <acc value="0.0080029840" flag="0"/>
      <vel value="0.0065895586" flag="0"/>
      <psa03 value="0.0182650949" flag="0"/>
      <psa10 value="0.0088609082" flag="0"/>
      <psa30 value="0.0015345925" flag="0"/>
    </comp>
  </station>
  <station code="CAME" name="CAME" netid="KO" insttype="CMG-5T" lat="36.9435" lon="29.3023">
    <comp name="--.HNZ">
      <acc value="0.0057502929" flag="0"/>
      <vel value="0.0041783808" flag="0"/>
      <psa03 value="0.0137229162" flag="0"/>
      <psa10 value="0.0063386221" flag="0"/>
      <psa30 value="0.0006148221" flag="0"/>
    </comp>
    <comp name="--.HNE">
      <acc value="0.0182267542" flag="0"/>
      <vel value="0.0133836591" flag="0"/>
      <psa03 value="0.0433903105" flag="0"/>
      <psa10 value="0.0127392534" flag="0"/>
      <psa30 value="0.0010054848" flag="0"/>
    </comp>
    <comp name="--.HNN">
      <acc value="0.0120719169" flag="0"/>
      <vel value="0.0116728358" flag="0"/>
      <psa03 value="0.0461813446" flag="0"/>
      <psa10 value="0.0145810878" flag="0"/>
      <psa30 value="0.0011530453" flag="0"/>
    </comp>
  </station>
  <station code="DALY" name="DALY" netid="KO" insttype="CMG-3T" lat="36.8162" lon="28.6532">
    <comp name="--.HHN">
      <acc value="0.0202079093" flag="0"/>
      <vel value="0.0110474819" flag="0"/>
      <psa03 value="0.0309570405" flag="0"/>
      <psa10 value="0.0169532209" flag="0"/>
      <psa30 value="0.0010185274" flag="0"/>
    </comp>
    <comp name="--.HHE">
      <acc value="0.0136506656" flag="0"/>
      <vel value="0.0097760745" flag="0"/>
      <psa03 value="0.0250467792" flag="0"/>
      <psa10 value="0.0111373594" flag="0"/>
      <psa30 value="0.0013506165" flag="0"/>
    </comp>
    <comp name="--.HHZ">
      <acc value="0.0082487773" flag="0"/>
      <vel value="0.0060310903" flag="0"/>
      <psa03 value="0.0220639578" flag="0"/>
      <psa10 value="0.0132043927" flag="0"/>
      <psa30 value="0.0009498980" flag="0"/>
    </comp>
  </station>
  <station code="ELL" name="ELL" netid="KO" insttype="CMG-3T" lat="36.7483" lon="29.9085">
    <comp name="--.HHE">
      <acc value="0.0000092196" flag="0"/>
      <vel value="0.0000012031" flag="0"/>
      <psa03 value="0.0000036137" flag="0"/>
      <psa10 value="0.0000015877" flag="0"/>
      <psa30 value="0.0000002308" flag="0"/>
    </comp>
    <comp name="--.HHN">
      <acc value="0.0033880310" flag="0"/>
      <vel value="0.0030026688" flag="0"/>
      <psa03 value="0.0076109128" flag="0"/>
      <psa10 value="0.0062924636" flag="0"/>
      <psa30 value="0.0006884104" flag="0"/>
    </comp>
    <comp name="--.HHZ">
      <acc value="0.0018413704" flag="0"/>
      <vel value="0.0015915519" flag="0"/>
      <psa03 value="0.0038642627" flag="0"/>
      <psa10 value="0.0028564420" flag="0"/>
      <psa30 value="0.0006530954" flag="0"/>
    </comp>
  </station>
  <station code="FETY" name="FETY" netid="KO" insttype="CMG-3ESP" lat="36.6353" lon="29.0835">
    <comp name="--.HHE">
      <acc value="0.0702460020" flag="0"/>
      <vel value="0.0171153623" flag="0"/>
      <psa03 value="0.1162145473" flag="0"/>
      <psa10 value="0.0249741068" flag="0"/>
      <psa30 value="0.0009812163" flag="0"/>
    </comp>
    <comp name="--.HHZ">
      <acc value="0.0523024875" flag="0"/>
      <vel value="0.0220629981" flag="0"/>
      <psa03 value="0.1008538683" flag="0"/>
      <psa10 value="0.0241602233" flag="0"/>
      <psa30 value="0.0008732809" flag="0"/>
    </comp>
  </station>
</stationlist>
