<?xml version="1.0" encoding="UTF-8" standalone="yes"?>
<!DOCTYPE earthquake SYSTEM "stationlist.dtd">
<stationlist created="" xmlns="ch.ethz.sed.shakemap.usgs.xml">
  <station code="CARD" name="CARD" netid="GU" insttype="" commtype="DIG" lat="44.0261" lon="10.4821">
    <comp name="--.HHE">
      <acc value="0.3113970399" flag="0"/>
      <vel value="0.0702355688" flag="0"/>
      <psa03 value="0.2399542609" flag="0"/>
      <psa10 value="0.0176174551" flag="0"/>
      <psa30 value="0.0012769268" flag="0"/>
    </comp>
    <comp name="--.HHN">
      <acc value="0.3643657259" flag="0"/>
      <vel value="0.0542617843" flag="0"/>
      <psa03 value="0.3725385857" flag="0"/>
      <psa10 value="0.0160131609" flag="0"/>
      <psa30 value="0.0013995864" flag="0"/>
    </comp>
    <comp name="--.HHZ">
      <acc value="0.1844473892" flag="0"/>
      <vel value="0.0351536724" flag="0"/>
      <psa03 value="0.2026932222" flag="0"/>
      <psa10 value="0.0079885779" flag="0"/>
      <psa30 value="0.0007876501" flag="0"/>
    </comp>
  </station>
  <station code="EQUI" name="EQUI" netid="GU" insttype="" commtype="DIG" lat="44.166" lon="10.153">
    <comp name="--.HHE">
      <acc value="1.9938657223" flag="0"/>
      <vel value="0.2817378429" flag="0"/>
      <psa03 value="1.2204632409" flag="0"/>
      <psa10 value="0.0911852107" flag="0"/>
      <psa30 value="0.0315723549" flag="0"/>
    </comp>
    <comp name="--.HHN">
      <acc value="2.2588566528" flag="0"/>
      <vel value="0.4967225663" flag="0"/>
      <psa03 value="2.9400019413" flag="0"/>
      <psa10 value="0.1690404965" flag="0"/>
      <psa30 value="0.0193632709" flag="0"/>
    </comp>
    <comp name="--.HHZ">
      <acc value="1.1087420370" flag="0"/>
      <vel value="0.2606500537" flag="0"/>
      <psa03 value="1.1039407757" flag="0"/>
      <psa10 value="0.0679571509" flag="0"/>
      <psa30 value="0.0071666803" flag="0"/>
    </comp>
  </station>
  <station code="FIVI" name="FIVI" netid="GU" insttype="" commtype="DIG" lat="44.2394" lon="10.1271">
    <comp name="--.HNE">
      <acc value="1.0787755682" flag="0"/>
      <vel value="0.2860005492" flag="0"/>
      <psa03 value="1.1615052972" flag="0"/>
      <psa10 value="0.0619509041" flag="0"/>
      <psa30 value="0.0071882647" flag="0"/>
    </comp>
    <comp name="--.HNN">
      <acc value="1.7705040486" flag="0"/>
      <vel value="0.2387294625" flag="0"/>
      <psa03 value="1.3688079344" flag="0"/>
      <psa10 value="0.1124019208" flag="0"/>
      <psa30 value="0.0102366354" flag="0"/>
    </comp>
    <comp name="--.HNZ">
      <acc value="1.3783064307" flag="0"/>
      <vel value="0.2023363716" flag="0"/>
      <psa03 value="0.8451120880" flag="0"/>
      <psa10 value="0.0753545585" flag="0"/>
      <psa30 value="0.0047368789" flag="0"/>
    </comp>
  </station>
  <station code="GORR" name="GORR" netid="GU" insttype="" commtype="DIG" lat="44.6071" lon="9.2926">
    <comp name="--.HHE">
      <acc value="0.0279885852" flag="0"/>
      <vel value="0.0149744956" flag="0"/>
      <psa03 value="0.0520673453" flag="0"/>
      <psa10 value="0.0075671622" flag="0"/>
      <psa30 value="0.0004914173" flag="0"/>
    </comp>
    <comp name="--.HHN">
      <acc value="0.0297415045" flag="0"/>
      <vel value="0.0132081709" flag="0"/>
      <psa03 value="0.0591775038" flag="0"/>
      <psa10 value="0.0084398966" flag="0"/>
      <psa30 value="0.0004431468" flag="0"/>
    </comp>
    <comp name="--.HHZ">
      <acc value="0.0241485116" flag="0"/>
      <vel value="0.0110466679" flag="0"/>
      <psa03 value="0.0443977689" flag="0"/>
      <psa10 value="0.0066392681" flag="0"/>
      <psa30 value="0.0004010593" flag="0"/>
    </comp>
  </station>
  <station code="GRAM" name="GRAM" netid="GU" insttype="" commtype="DIG" lat="44.4904" lon="10.065">
    <comp name="--.HHE">
      <acc value="0.2756886594" flag="0"/>
      <vel value="0.0796690392" flag="0"/>
      <psa03 value="0.3447748547" flag="0"/>
      <psa10 value="0.0668997625" flag="0"/>
      <psa30 value="0.0041547921" flag="0"/>
    </comp>
    <comp name="--.HHN">
      <acc value="0.0000000000" flag="0"/>
      <vel value="-100.0000000000" flag="0"/>
      <psa03 value="0.0000000000" flag="0"/>
      <psa10 value="0.0000000000" flag="0"/>
      <psa30 value="0.0000000000" flag="0"/>
    </comp>
    <comp name="--.HHZ">
      <acc value="0.3102770472" flag="0"/>
      <vel value="0.0460254844" flag="0"/>
      <psa03 value="0.1448591453" flag="0"/>
      <psa10 value="0.0354354565" flag="0"/>
      <psa30 value="0.0020367312" flag="0"/>
    </comp>
  </station>
  <station code="GSCL" name="GSCL" netid="GU" insttype="" commtype="DIG" lat="44.3506" lon="10.588">
    <comp name="--.HHE">
      <acc value="0.1321535471" flag="0"/>
      <vel value="0.0518576457" flag="0"/>
      <psa03 value="0.3304497290" flag="0"/>
      <psa10 value="0.0231642740" flag="0"/>
      <psa30 value="0.0018080808" flag="0"/>
    </comp>
    <comp name="--.HHN">
      <acc value="0.1300378572" flag="0"/>
      <vel value="0.0560937549" flag="0"/>
      <psa03 value="0.3465773825" flag="0"/>
      <psa10 value="0.0237073816" flag="0"/>
      <psa30 value="0.0023421966" flag="0"/>
    </comp>
    <comp name="--.HHZ">
      <acc value="0.0419922164" flag="0"/>
      <vel value="0.0265688268" flag="0"/>
      <psa03 value="0.1147529562" flag="0"/>
      <psa10 value="0.0218975642" flag="0"/>
      <psa30 value="0.0008932011" flag="0"/>
    </comp>
  </station>
  <station code="MAIM" name="MAIM" netid="GU" insttype="" commtype="DIG" lat="43.9142" lon="10.4915">
    <comp name="--.HHE">
      <acc value="0.0685598482" flag="0"/>
      <vel value="0.0177068113" flag="0"/>
      <psa03 value="0.0779755495" flag="0"/>
      <psa10 value="0.0087336220" flag="0"/>
      <psa30 value="0.0008812767" flag="0"/>
    </comp>
    <comp name="--.HHN">
      <acc value="0.0930593092" flag="0"/>
      <vel value="0.0215591666" flag="0"/>
      <psa03 value="0.0563384344" flag="0"/>
      <psa10 value="0.0179884481" flag="0"/>
      <psa30 value="0.0007879487" flag="0"/>
    </comp>
    <comp name="--.HHZ">
      <acc value="0.0423565666" flag="0"/>
      <vel value="0.0118097605" flag="0"/>
      <psa03 value="0.0529150125" flag="0"/>
      <psa10 value="0.0079952980" flag="0"/>
      <psa30 value="0.0005911677" flag="0"/>
    </comp>
  </station>
  <station code="POPM" name="POPM" netid="GU" insttype="" commtype="DIG" lat="44.045" lon="10.757">
    <comp name="--.HHE">
      <acc value="0.0976314023" flag="0"/>
      <vel value="0.0257019663" flag="0"/>
      <psa03 value="0.1363916196" flag="0"/>
      <psa10 value="0.0094818876" flag="0"/>
      <psa30 value="0.0006757682" flag="0"/>
    </comp>
    <comp name="--.HHN">
      <acc value="0.1361513572" flag="0"/>
      <vel value="0.0337166702" flag="0"/>
      <psa03 value="0.0864364026" flag="0"/>
      <psa10 value="0.0103470838" flag="0"/>
      <psa30 value="0.0008049238" flag="0"/>
    </comp>
    <comp name="--.HHZ">
      <acc value="0.0727437616" flag="0"/>
      <vel value="0.0189589330" flag="0"/>
      <psa03 value="0.0924316226" flag="0"/>
      <psa10 value="0.0056957730" flag="0"/>
      <psa30 value="0.0006510988" flag="0"/>
    </comp>
  </station>
  <station code="RNCA" name="RNCA" netid="GU" insttype="" commtype="DIG" lat="44.4711" lon="8.9512">
    <comp name="--.HHZ">
      <acc value="0.8386923352" flag="0"/>
      <vel value="0.1333233122" flag="0"/>
      <psa03 value="0.6889175418" flag="0"/>
      <psa10 value="0.0809720693" flag="0"/>
      <psa30 value="0.0044122677" flag="0"/>
    </comp>
    <comp name="--.HHE">
      <acc value="1.0624894675" flag="0"/>
      <vel value="0.2637249124" flag="0"/>
      <psa03 value="1.0493336781" flag="0"/>
      <psa10 value="0.1015981637" flag="0"/>
      <psa30 value="0.0082120965" flag="0"/>
    </comp>
    <comp name="--.HHN">
      <acc value="0.6095719586" flag="0"/>
      <vel value="0.1483040157" flag="0"/>
      <psa03 value="0.7952758512" flag="0"/>
      <psa10 value="0.0799887457" flag="0"/>
      <psa30 value="0.0067451815" flag="0"/>
    </comp>
  </station>
  <station code="BOSL" name="BOSL" netid="IV" insttype="" commtype="DIG" lat="43.931" lon="11.3743">
    <comp name="--.HHE">
      <acc value="0.0034629645" flag="0"/>
      <vel value="0.0017457865" flag="0"/>
      <psa03 value="0.0088671147" flag="0"/>
      <psa10 value="0.0016301810" flag="0"/>
      <psa30 value="0.0000971773" flag="0"/>
    </comp>
    <comp name="--.HHN">
      <acc value="0.0038202260" flag="0"/>
      <vel value="0.0021247831" flag="0"/>
      <psa03 value="0.0095844189" flag="0"/>
      <psa10 value="0.0019353425" flag="0"/>
      <psa30 value="0.0001302673" flag="0"/>
    </comp>
    <comp name="--.HHZ">
      <acc value="0.0031029685" flag="0"/>
      <vel value="0.0010222746" flag="0"/>
      <psa03 value="0.0054546724" flag="0"/>
      <psa10 value="0.0018422624" flag="0"/>
      <psa30 value="0.0000838782" flag="0"/>
    </comp>
  </station>
  <station code="CAIS" name="CAIS" netid="IV" insttype="" commtype="DIG" lat="43.05" lon="9.84266">
    <comp name="--.HHE">
      <acc value="0.0051330204" flag="0"/>
      <vel value="0.0043805867" flag="0"/>
      <psa03 value="0.0134944700" flag="0"/>
      <psa10 value="0.0054376559" flag="0"/>
      <psa30 value="0.0005673073" flag="0"/>
    </comp>
    <comp name="--.HHN">
      <acc value="0.0042848150" flag="0"/>
      <vel value="0.0041335968" flag="0"/>
      <psa03 value="0.0082917753" flag="0"/>
      <psa10 value="0.0064179702" flag="0"/>
      <psa30 value="0.0006857485" flag="0"/>
    </comp>
    <comp name="--.HHZ">
      <acc value="0.0030213770" flag="0"/>
      <vel value="0.0017433599" flag="0"/>
      <psa03 value="0.0121083936" flag="0"/>
      <psa10 value="0.0029060525" flag="0"/>
      <psa30 value="0.0001756264" flag="0"/>
    </comp>
  </station>
  <station code="CAVE" name="CAVE" netid="IV" insttype="" commtype="DIG" lat="44.8658" lon="11.0031">
    <comp name="--.HHE">
      <acc value="0.0212290909" flag="0"/>
      <vel value="0.0144963527" flag="0"/>
      <psa03 value="0.0479670737" flag="0"/>
      <psa10 value="0.0254299065" flag="0"/>
      <psa30 value="0.0013767258" flag="0"/>
    </comp>
    <comp name="--.HHN">
      <acc value="0.0192588396" flag="0"/>
      <vel value="0.0151921681" flag="0"/>
      <psa03 value="0.0446691111" flag="0"/>
      <psa10 value="0.0245606580" flag="0"/>
      <psa30 value="0.0009701739" flag="0"/>
    </comp>
    <comp name="--.HHZ">
      <acc value="0.0105862432" flag="0"/>
      <vel value="0.0054804052" flag="0"/>
      <psa03 value="0.0284857771" flag="0"/>
      <psa10 value="0.0050858894" flag="0"/>
      <psa30 value="0.0004808436" flag="0"/>
    </comp>
  </station>
  <station code="CRMI" name="CRMI" netid="IV" insttype="" commtype="DIG" lat="43.7956" lon="10.9795">
    <comp name="--.HHN">
      <acc value="0.0107468954" flag="0"/>
      <vel value="0.0052225121" flag="0"/>
      <psa03 value="0.0125969310" flag="0"/>
      <psa10 value="0.0030049780" flag="0"/>
      <psa30 value="0.0003043443" flag="0"/>
    </comp>
    <comp name="--.HHE">
      <acc value="0.0079820126" flag="0"/>
      <vel value="0.0027789596" flag="0"/>
      <psa03 value="0.0145207479" flag="0"/>
      <psa10 value="0.0015508218" flag="0"/>
      <psa30 value="0.0002201410" flag="0"/>
    </comp>
    <comp name="--.HHZ">
      <acc value="0.0063598655" flag="0"/>
      <vel value="0.0021261693" flag="0"/>
      <psa03 value="0.0070573747" flag="0"/>
      <psa10 value="0.0016881533" flag="0"/>
      <psa30 value="0.0002883679" flag="0"/>
    </comp>
  </station>
  <station code="FNVD" name="FNVD" netid="IV" insttype="" commtype="DIG" lat="44.1678" lon="11.1229">
    <comp name="--.HHN">
      <acc value="0.0405424719" flag="0"/>
      <vel value="0.0215206029" flag="0"/>
      <psa03 value="0.0690940052" flag="0"/>
      <psa10 value="0.0472035097" flag="0"/>
      <psa30 value="0.0015201631" flag="0"/>
    </comp>
    <comp name="--.HHE">
      <acc value="0.0346288550" flag="0"/>
      <vel value="0.0273399769" flag="0"/>
      <psa03 value="0.1146303801" flag="0"/>
      <psa10 value="0.0272594437" flag="0"/>
      <psa30 value="0.0014361492" flag="0"/>
    </comp>
    <comp name="--.HHZ">
      <acc value="0.0191231327" flag="0"/>
      <vel value="0.0101808522" flag="0"/>
      <psa03 value="0.0694957966" flag="0"/>
      <psa10 value="0.0100879822" flag="0"/>
      <psa30 value="0.0010534780" flag="0"/>
    </comp>
  </station>
  <station code="MSSA" name="MSSA" netid="IV" insttype="" commtype="DIG" lat="44.3162" lon="9.51739">
    <comp name="--.HHE">
      <acc value="0.0727301866" flag="0"/>
      <vel value="0.0272512272" flag="0"/>
      <psa03 value="0.1181449685" flag="0"/>
      <psa10 value="0.0089314046" flag="0"/>
      <psa30 value="0.0009854599" flag="0"/>
    </comp>
    <comp name="--.HHN">
      <acc value="0.0981418571" flag="0"/>
      <vel value="0.0267663340" flag="0"/>
      <psa03 value="0.0728115549" flag="0"/>
      <psa10 value="0.0137212344" flag="0"/>
      <psa30 value="0.0010804135" flag="0"/>
    </comp>
    <comp name="--.HHZ">
      <acc value="0.0543519376" flag="0"/>
      <vel value="0.0139126777" flag="0"/>
      <psa03 value="0.0532299643" flag="0"/>
      <psa10 value="0.0138307629" flag="0"/>
      <psa30 value="0.0010096237" flag="0"/>
    </comp>
  </station>
  <station code="NEVI" name="NEVI" netid="IV" insttype="LK-307-115 Accelerometers, 80 Hz, +/-20V Single-ended" commtype="DIG" lat="44.5834" lon="10.3163">
    <comp name="--.HNE">
      <acc value="0.0285323966" flag="0"/>
      <vel value="0.0199580919" flag="0"/>
      <psa03 value="0.0831320615" flag="0"/>
      <psa10 value="0.0206593268" flag="0"/>
      <psa30 value="0.0011549176" flag="0"/>
    </comp>
    <comp name="--.HNN">
      <acc value="0.0175959833" flag="0"/>
      <vel value="0.0120657530" flag="0"/>
      <psa03 value="0.0375251691" flag="0"/>
      <psa10 value="0.0227555866" flag="0"/>
      <psa30 value="0.0011072284" flag="0"/>
    </comp>
    <comp name="--.HNZ">
      <acc value="0.0124804712" flag="0"/>
      <vel value="0.0073618192" flag="0"/>
      <psa03 value="0.0298461285" flag="0"/>
      <psa10 value="0.0144761419" flag="0"/>
      <psa30 value="0.0014187317" flag="0"/>
    </comp>
  </station>
  <station code="OSSC" name="OSSC" netid="IV" insttype="" commtype="DIG" lat="43.5236" lon="11.2458">
    <comp name="--.HHE">
      <acc value="0.0064788679" flag="0"/>
      <vel value="0.0044761290" flag="0"/>
      <psa03 value="0.0156125753" flag="0"/>
      <psa10 value="0.0072407810" flag="0"/>
      <psa30 value="0.0005597909" flag="0"/>
    </comp>
    <comp name="--.HHN">
      <acc value="0.0066207765" flag="0"/>
      <vel value="0.0047869526" flag="0"/>
      <psa03 value="0.0159340809" flag="0"/>
      <psa10 value="0.0051289885" flag="0"/>
      <psa30 value="0.0003622708" flag="0"/>
    </comp>
    <comp name="--.HHZ">
      <acc value="0.0064704567" flag="0"/>
      <vel value="0.0031210670" flag="0"/>
      <psa03 value="0.0196639381" flag="0"/>
      <psa10 value="0.0035036434" flag="0"/>
      <psa30 value="0.0003290537" flag="0"/>
    </comp>
  </station>
  <station code="PII" name="PII" netid="IV" insttype="" commtype="DIG" lat="43.7219" lon="10.525">
    <comp name="--.HHN">
      <acc value="0.1031810052" flag="0"/>
      <vel value="0.0255145165" flag="0"/>
      <psa03 value="0.1570432401" flag="0"/>
      <psa10 value="0.0149616719" flag="0"/>
      <psa30 value="0.0009806531" flag="0"/>
    </comp>
    <comp name="--.HHE">
      <acc value="0.1102080976" flag="0"/>
      <vel value="0.0458469729" flag="0"/>
      <psa03 value="0.1674170727" flag="0"/>
      <psa10 value="0.0269959582" flag="0"/>
      <psa30 value="0.0013089203" flag="0"/>
    </comp>
    <comp name="--.HHZ">
      <acc value="0.1545816487" flag="0"/>
      <vel value="0.0319653654" flag="0"/>
      <psa03 value="0.1781027905" flag="0"/>
      <psa10 value="0.0189581369" flag="0"/>
      <psa30 value="0.0010064849" flag="0"/>
    </comp>
  </station>
  <station code="PLMA" name="PLMA" netid="IV" insttype="" commtype="DIG" lat="44.0498" lon="9.85365">
    <comp name="--.HHN">
      <acc value="0.7849669441" flag="0"/>
      <vel value="0.1876570061" flag="0"/>
      <psa03 value="0.8399887798" flag="0"/>
      <psa10 value="0.0489976558" flag="0"/>
      <psa30 value="0.0054976922" flag="0"/>
    </comp>
    <comp name="--.HHE">
      <acc value="1.1763888707" flag="0"/>
      <vel value="0.3227353197" flag="0"/>
      <psa03 value="1.0495615790" flag="0"/>
      <psa10 value="0.0602400311" flag="0"/>
      <psa30 value="0.0046287935" flag="0"/>
    </comp>
    <comp name="--.HHZ">
      <acc value="0.5290188505" flag="0"/>
      <vel value="0.0562717864" flag="0"/>
      <psa03 value="0.2425593424" flag="0"/>
      <psa10 value="0.0294511472" flag="0"/>
      <psa30 value="0.0027578348" flag="0"/>
    </comp>
  </station>
  <station code="PRMA" name="PRMA" netid="IV" insttype="" commtype="DIG" lat="44.7637" lon="10.3131">
    <comp name="--.HHN">
      <acc value="0.0270135486" flag="0"/>
      <vel value="0.0218018363" flag="0"/>
      <psa03 value="0.0632564730" flag="0"/>
      <psa10 value="0.0354370740" flag="0"/>
      <psa30 value="0.0019868471" flag="0"/>
    </comp>
    <comp name="--.HHE">
      <acc value="0.0264156567" flag="0"/>
      <vel value="0.0289857890" flag="0"/>
      <psa03 value="0.0694495540" flag="0"/>
      <psa10 value="0.0309888335" flag="0"/>
      <psa30 value="0.0032395555" flag="0"/>
    </comp>
    <comp name="--.HHZ">
      <acc value="0.0137943137" flag="0"/>
      <vel value="0.0064598752" flag="0"/>
      <psa03 value="0.0211937035" flag="0"/>
      <psa10 value="0.0095899373" flag="0"/>
      <psa30 value="0.0016593760" flag="0"/>
    </comp>
  </station>
  <station code="SBPO" name="SBPO" netid="IV" insttype="" commtype="DIG" lat="45.0511" lon="10.9199">
    <comp name="--.HNE">
      <acc value="0.0599021832" flag="0"/>
      <vel value="0.0092728109" flag="0"/>
      <psa03 value="0.0403553683" flag="0"/>
      <psa10 value="0.0146493621" flag="0"/>
      <psa30 value="0.0008675200" flag="0"/>
    </comp>
    <comp name="--.HNN">
      <acc value="0.0439800637" flag="0"/>
      <vel value="0.0089236441" flag="0"/>
      <psa03 value="0.0230468641" flag="0"/>
      <psa10 value="0.0117153219" flag="0"/>
      <psa30 value="0.0007625080" flag="0"/>
    </comp>
    <comp name="--.HNZ">
      <acc value="0.0159891642" flag="0"/>
      <vel value="0.0028359091" flag="0"/>
      <psa03 value="0.0138620988" flag="0"/>
      <psa10 value="0.0032093897" flag="0"/>
      <psa30 value="0.0002939817" flag="0"/>
    </comp>
  </station>
  <station code="VISG" name="VISG" netid="IV" insttype="" commtype="DIG" lat="44.189" lon="11.4343">
    <comp name="--.HHE">
      <acc value="0.0030854973" flag="0"/>
      <vel value="0.0017683636" flag="0"/>
      <psa03 value="0.0074972006" flag="0"/>
      <psa10 value="0.0023014501" flag="0"/>
      <psa30 value="0.0001107394" flag="0"/>
    </comp>
    <comp name="--.HHN">
      <acc value="0.0025650029" flag="0"/>
      <vel value="0.0018133608" flag="0"/>
      <psa03 value="0.0083063943" flag="0"/>
      <psa10 value="0.0026228996" flag="0"/>
      <psa30 value="0.0001242544" flag="0"/>
    </comp>
    <comp name="--.HHZ">
      <acc value="0.0020110994" flag="0"/>
      <vel value="0.0010793722" flag="0"/>
      <psa03 value="0.0050550645" flag="0"/>
      <psa10 value="0.0015409068" flag="0"/>
      <psa30 value="0.0000917585" flag="0"/>
    </comp>
  </station>
  <station code="VMGN" name="VMGN" netid="IV" insttype="" commtype="DIG" lat="43.9545" lon="11.5327">
    <comp name="--.HHE">
      <acc value="0.0044317113" flag="0"/>
      <vel value="0.0028256414" flag="0"/>
