<stationlist created="1774445141">
	<station code="FIVI" name="FIVI" netid="GU" source="Regional Seismic Network of North Western Italy (RSNI)" insttype="" lat="44.2394" lon="10.1271">
		<comp name="--.HNE" depth="0.0">
			<acc value="1.08825239306308" flag="0"/>
			<vel value="0.284463110668291" flag="0"/>
			<psa03 value="1.17022335488744" flag="0"/>
			<psa10 value="0.062046964056858" flag="0"/>
			<psa30 value="0.00761746461964647" flag="0"/>
		</comp>
		<comp name="--.HNN" depth="0.0">
			<acc value="1.75305486700423" flag="0"/>
			<vel value="0.24221236760069" flag="0"/>
			<psa03 value="1.36969706904203" flag="0"/>
			<psa10 value="0.112753326854539" flag="0"/>
			<psa30 value="0.00994529049335289" flag="0"/>
		</comp>
		<comp name="--.HNZ" depth="0.0">
			<acc value="1.40958824970351" flag="0"/>
			<vel value="0.208343626795926" flag="0"/>
			<psa03 value="0.848455956043082" flag="0"/>
			<psa10 value="0.0753585046310914" flag="0"/>
			<psa30 value="0.00479794575702597" flag="0"/>
		</comp>
	</station>
	<station code="ACQ" name="ACQ" netid="IT" source="Italian Strong Motion Network (RAN)" insttype="" lat="44.6826" lon="8.4624">
		<comp name="--.HNE" depth="0.0">
			<acc value="0.0212370426000558" flag="0"/>
			<vel value="0.00824663271242376" flag="0"/>
			<psa03 value="0.0402900101612734" flag="0"/>
			<psa10 value="0.00390006078176128" flag="0"/>
			<psa30 value="0.00038454646389931" flag="0"/>
		</comp>
		<comp name="--.HNN" depth="0.0">
			<acc value="0.0193251123567389" flag="0"/>
			<vel value="0.00694636947238658" flag="0"/>
			<psa03 value="0.0442229347607263" flag="0"/>
			<psa10 value="0.00365350468300478" flag="0"/>
			<psa30 value="0.000303378326491893" flag="0"/>
		</comp>
		<comp name="--.HNZ" depth="0.0">
			<acc value="0.0123992906063221" flag="0"/>
			<vel value="0.00442927641601617" flag="0"/>
			<psa03 value="0.0238374931794348" flag="0"/>
			<psa10 value="0.00358689534858827" flag="0"/>
			<psa30 value="0.000201469296872991" flag="0"/>
		</comp>
	</station>
	<station code="ALF" name="ALF" netid="IT" source="Italian Strong Motion Network (RAN)" insttype="" lat="44.5022" lon="12.0334">
		<comp name="--.HGE" depth="0.0">
			<acc value="0.0126217431888095" flag="0"/>
			<vel value="0.00618540543851543" flag="0"/>
			<psa03 value="0.0151582997358811" flag="0"/>
			<psa10 value="0.0091154110387452" flag="0"/>
			<psa30 value="0.00129846966307595" flag="0"/>
		</comp>
		<comp name="--.HGN" depth="0.0">
			<acc value="0.0239785561610447" flag="0"/>
			<vel value="0.00844510065694017" flag="0"/>
			<psa03 value="0.0168697633723642" flag="0"/>
			<psa10 value="0.0114569030260979" flag="0"/>
			<psa30 value="0.00129373174504547" flag="0"/>
		</comp>
		<comp name="--.HGZ" depth="0.0">
			<acc value="0.0289888959874093" flag="0"/>
			<vel value="0.00478377080293574" flag="0"/>
			<psa03 value="0.0208124946110422" flag="0"/>
			<psa10 value="0.00237229066823917" flag="0"/>
			<psa30 value="0.000931889441435352" flag="0"/>
		</comp>
	</station>
	<station code="ALSD" name="ALSD" netid="IT" source="Italian Strong Motion Network (RAN)" insttype="" lat="44.9387" lon="8.5684">
		<comp name="--.HNE" depth="0.0">
			<acc value="0.0203112115902884" flag="0"/>
			<vel value="0.00839846694682591" flag="0"/>
			<psa03 value="0.0214276265063447" flag="0"/>
			<psa10 value="0.0119096536436043" flag="0"/>
			<psa30 value="0.00204324077134006" flag="0"/>
		</comp>
		<comp name="--.HNN" depth="0.0">
			<acc value="0.0121107865852116" flag="0"/>
			<vel value="0.00799883546691697" flag="0"/>
			<psa03 value="0.0274735126937163" flag="0"/>
			<psa10 value="0.0147330394290562" flag="0"/>
			<psa30 value="0.00138196592346009" flag="0"/>
		</comp>
		<comp name="--.HNZ" depth="0.0">
			<acc value="0.0300427193554286" flag="0"/>
			<vel value="0.00605368552222054" flag="0"/>
			<psa03 value="0.0231432258334637" flag="0"/>
			<psa10 value="0.00815838139022784" flag="0"/>
			<psa30 value="0.0010687038172163" flag="0"/>
		</comp>
	</station>
	<station code="ARG" name="ARG" netid="IT" source="Italian Strong Motion Network (RAN)" insttype="" lat="44.6306" lon="11.8251">
		<comp name="--.HNE" depth="0.0">
			<acc value="0.143167313269099" flag="0"/>
			<vel value="0.0108654034013205" flag="0"/>
			<psa03 value="0.0241474590256509" flag="0"/>
			<psa10 value="0.00962143112259233" flag="0"/>
			<psa30 value="0.000982517691141758" flag="0"/>
		</comp>
		<comp name="--.HNN" depth="0.0">
			<acc value="0.0977261977782957" flag="0"/>
			<vel value="0.00888521702855835" flag="0"/>
			<psa03 value="0.0196900205130587" flag="0"/>
			<psa10 value="0.0115201594040225" flag="0"/>
			<psa30 value="0.00101222153387556" flag="0"/>
		</comp>
		<comp name="--.HNZ" depth="0.0">
			<acc value="0.0992917660196976" flag="0"/>
			<vel value="0.0165325426842837" flag="0"/>
			<psa03 value="0.02241167216329" flag="0"/>
			<psa10 value="0.00156179283611051" flag="0"/>
			<psa30 value="0.000240434417183481" flag="0"/>
		</comp>
	</station>
	<station code="ARO" name="ARO" netid="IT" source="Italian Strong Motion Network (RAN)" insttype="" lat="43.4662" lon="11.8828">
		<comp name="--.HNE" depth="0.0">
			<acc value="0.00340046498315008" flag="0"/>
			<vel value="0.0014527183389029" flag="0"/>
			<psa03 value="0.00623157231629132" flag="0"/>
			<psa10 value="0.00195433239461728" flag="0"/>
			<psa30 value="0.000201781465990163" flag="0"/>
		</comp>
		<comp name="--.HNN" depth="0.0">
			<acc value="0.00307274969935233" flag="0"/>
			<vel value="0.00172468436586222" flag="0"/>
			<psa03 value="0.00579810805453631" flag="0"/>
			<psa10 value="0.00208614858773065" flag="0"/>
			<psa30 value="0.00025563104888575" flag="0"/>
		</comp>
		<comp name="--.HNZ" depth="0.0">
			<acc value="0.00272575499584945" flag="0"/>
			<vel value="0.00147960898735981" flag="0"/>
			<psa03 value="0.00602268478060058" flag="0"/>
			<psa10 value="0.00219337451904736" flag="0"/>
			<psa30 value="0.000189874843901551" flag="0"/>
		</comp>
	</station>
	<station code="AUL" name="AUL" netid="IT" source="Italian Strong Motion Network (RAN)" insttype="" lat="44.2087" lon="9.9731">
		<comp name="--.HNE" depth="0.0">
			<acc value="4.22417898006131" flag="0"/>
			<vel value="1.82302436928988" flag="0"/>
			<psa03 value="8.45646219911853" flag="0"/>
			<psa10 value="0.487015422381585" flag="0"/>
			<psa30 value="0.0536099580632843" flag="0"/>
		</comp>
		<comp name="--.HNN" depth="0.0">
			<acc value="1.99846989982472" flag="0"/>
			<vel value="0.602332565504727" flag="0"/>
			<psa03 value="2.87375103856933" flag="0"/>
			<psa10 value="0.12104186342941" flag="0"/>
			<psa30 value="0.0117935479313374" flag="0"/>
		</comp>
		<comp name="--.HNZ" depth="0.0">
			<acc value="0.952261304137677" flag="0"/>
			<vel value="0.297885692211469" flag="0"/>
			<psa03 value="1.65977145171294" flag="0"/>
			<psa10 value="0.0971692144835777" flag="0"/>
			<psa30 value="0.00854439102397164" flag="0"/>
		</comp>
	</station>
	<station code="BBN" name="BBN" netid="IT" source="Italian Strong Motion Network (RAN)" insttype="" lat="43.7476" lon="11.8214">
		<comp name="--.HNE" depth="0.0">
			<acc value="0.00247711898629935" flag="0"/>
			<vel value="0.00224454964698445" flag="0"/>
			<psa03 value="0.00641740689254496" flag="0"/>
			<psa10 value="0.00408984936994882" flag="0"/>
			<psa30 value="0.000571104551623709" flag="0"/>
		</comp>
		<comp name="--.HNN" depth="0.0">
			<acc value="0.00234483108884159" flag="0"/>
			<vel value="0.00185128439427003" flag="0"/>
			<psa03 value="0.00515571947079948" flag="0"/>
			<psa10 value="0.00387429704379009" flag="0"/>
			<psa30 value="0.000299097339772533" flag="0"/>
		</comp>
		<comp name="--.HNZ" depth="0.0">
			<acc value="0.00278335919697116" flag="0"/>
			<vel value="0.00385762984517741" flag="0"/>
			<psa03 value="0.00733460111570256" flag="0"/>
			<psa10 value="0.00716519231507593" flag="0"/>
			<psa30 value="0.000387374021002758" flag="0"/>
		</comp>
	</station>
	<station code="BDG" name="BDG" netid="IT" source="Italian Strong Motion Network (RAN)" insttype="" lat="44.5067" lon="9.6229">
		<comp name="--.HGE" depth="0.0">
			<acc value="0.0976130852417107" flag="0"/>
			<vel value="0.0383730788176761" flag="0"/>
			<psa03 value="0.214417558277596" flag="0"/>
			<psa10 value="0.0181765953602365" flag="0"/>
			<psa30 value="0.00210902054559394" flag="0"/>
		</comp>
		<comp name="--.HGN" depth="0.0">
			<acc value="0.100732752578154" flag="0"/>
			<vel value="0.0412508591159316" flag="0"/>
			<psa03 value="0.199083938333861" flag="0"/>
			<psa10 value="0.0137783236838235" flag="0"/>
			<psa30 value="0.00143114157693913" flag="0"/>
		</comp>
		<comp name="--.HGZ" depth="0.0">
			<acc value="0.0649546158825316" flag="0"/>
			<vel value="0.0164857933386798" flag="0"/>
			<psa03 value="0.0734259734853874" flag="0"/>
			<psa10 value="0.0185614308536993" flag="0"/>
			<psa30 value="0.000796065756282799" flag="0"/>
		</comp>
	</station>
	<station code="BGL" name="BGL" netid="IT" source="Italian Strong Motion Network (RAN)" insttype="" lat="43.9958" lon="10.5769">
		<comp name="--.HNE" depth="0.0">
			<acc value="0.0956883763136896" flag="0"/>
			<vel value="0.0328033138249989" flag="0"/>
			<psa03 value="0.189872328109892" flag="0"/>
			<psa10 value="0.0157691365029024" flag="0"/>
			<psa30 value="0.000926665866232464" flag="0"/>
		</comp>
		<comp name="--.HNN" depth="0.0">
			<acc value="0.0882883221188475" flag="0"/>
			<vel value="0.0268371777602154" flag="0"/>
			<psa03 value="0.122385815792991" flag="0"/>
			<psa10 value="0.0102096894668206" flag="0"/>
			<psa30 value="0.000921920031010839" flag="0"/>
		</comp>
		<comp name="--.HNZ" depth="0.0">
			<acc value="0.0551300171140767" flag="0"/>
			<vel value="0.0233055456762224" flag="0"/>
			<psa03 value="0.105324133456937" flag="0"/>
			<psa10 value="0.0120453451324995" flag="0"/>
			<psa30 value="0.000644322579042023" flag="0"/>
		</comp>
	</station>
	<station code="BGN" name="BGN" netid="IT" source="Italian Strong Motion Network (RAN)" insttype="" lat="44.3224" lon="9.9917">
		<comp name="--.HGE" depth="0.0">
			<acc value="2.03579219441702" flag="0"/>
			<vel value="0.424421868224618" flag="0"/>
			<psa03 value="1.8346333687901" flag="0"/>
			<psa10 value="0.101788830510468" flag="0"/>
			<psa30 value="0.0123553968177354" flag="0"/>
		</comp>
		<comp name="--.HGN" depth="0.0">
			<acc value="1.84741202838968" flag="0"/>
			<vel value="0.515254316152197" flag="0"/>
			<psa03 value="1.54969182614466" flag="0"/>
			<psa10 value="0.0820612486549877" flag="0"/>
			<psa30 value="0.00881098951814681" flag="0"/>
		</comp>
		<comp name="--.HGZ" depth="0.0">
			<acc value="1.90783231403006" flag="0"/>
			<vel value="0.321592518835882" flag="0"/>
			<psa03 value="0.810615199278659" flag="0"/>
			<psa10 value="0.063837786440052" flag="0"/>
			<psa30 value="0.00735272458191825" flag="0"/>
		</comp>
	</station>
	<station code="BOZL" name="BOZL" netid="IT" source="Italian Strong Motion Network (RAN)" insttype="" lat="45.0995" lon="10.4798">
		<comp name="--.HNE" depth="0.0">
			<acc value="0.0166224352194645" flag="0"/>
			<vel value="0.0109432452483296" flag="0"/>
			<psa03 value="0.0300005108241072" flag="0"/>
			<psa10 value="0.012564473272191" flag="0"/>
			<psa30 value="0.00167843493807732" flag="0"/>
		</comp>
		<comp name="--.HNN" depth="0.0">
			<acc value="0.0175952629614082" flag="0"/>
			<vel value="0.0119504318745147" flag="0"/>
			<psa03 value="0.0262266748884975" flag="0"/>
			<psa10 value="0.020087234430698" flag="0"/>
			<psa30 value="0.00186041678514823" flag="0"/>
		</comp>
		<comp name="--.HNZ" depth="0.0">
			<acc value="0.0155838085903419" flag="0"/>
			<vel value="0.00339092482047544" flag="0"/>
			<psa03 value="0.0120382206501209" flag="0"/>
			<psa10 value="0.00376933204349896" flag="0"/>
			<psa30 value="0.000876147311292798" flag="0"/>
		</comp>
	</station>
	<station code="BRB" name="BRB" netid="IT" source="Italian Strong Motion Network (RAN)" insttype="" lat="43.9542" lon="11.2128">
		<comp name="--.HNE" depth="0.0">
			<acc value="0.0348580597395419" flag="0"/>
			<vel value="0.0150133402471545" flag="0"/>
			<psa03 value="0.142113893514653" flag="0"/>
			<psa10 value="0.014000860613303" flag="0"/>
			<psa30 value="0.000749995621029105" flag="0"/>
		</comp>
		<comp name="--.HNN" depth="0.0">
			<acc value="0.0338793863207599" flag="0"/>
			<vel value="0.0176029419408552" flag="0"/>
			<psa03 value="0.0789887221985224" flag="0"/>
			<psa10 value="0.0113394452450964" flag="0"/>
			<psa30 value="0.00105996167559232" flag="0"/>
		</comp>
		<comp name="--.HNZ" depth="0.0">
			<acc value="0.0188831575601328" flag="0"/>
			<vel value="0.0112058490939908" flag="0"/>
			<psa03 value="0.0752213840891952" flag="0"/>
			<psa10 value="0.0149015352785793" flag="0"/>
			<psa30 value="0.000751089391402691" flag="0"/>
		</comp>
	</station>
	<station code="BRH" name="BRH" netid="IT" source="Italian Strong Motion Network (RAN)" insttype="" lat="44.2076" lon="11.7639">
		<comp name="--.HGE" depth="0.0">
			<acc value="0.0165342142624328" flag="0"/>
			<vel value="0.00507549947496221" flag="0"/>
			<psa03 value="0.0182648102144543" flag="0"/>
			<psa10 value="0.00965580121194207" flag="0"/>
			<psa30 value="0.000400584818028226" flag="0"/>
		</comp>
		<comp name="--.HGN" depth="0.0">
			<acc value="0.0184397044818737" flag="0"/>
			<vel value="0.00495258785451994" flag="0"/>
			<psa03 value="0.0193429246029915" flag="0"/>
			<psa10 value="0.00707626454904787" flag="0"/>
			<psa30 value="0.00052954627775869" flag="0"/>
		</comp>
		<comp name="--.HGZ" depth="0.0">
			<acc value="0.0278647184992112" flag="0"/>
			<vel value="0.00360173606080439" flag="0"/>
			<psa03 value="0.00956792419260416" flag="0"/>
			<psa10 value="0.00650253701116419" flag="0"/>
			<psa30 value="0.000343506010795708" flag="0"/>
		</comp>
	</station>
	<station code="BRM" name="BRM" netid="IT" source="Italian Strong Motion Network (RAN)" insttype="" lat="44.1293" lon="11.1176">
		<comp name="--.HGE" depth="0.0">
			<acc value="0.0241824188128966" flag="0"/>
			<vel value="0.00607215151673304" flag="0"/>
			<psa03 value="0.0106949024952191" flag="0"/>
			<psa10 value="0.00585308117540244" flag="0"/>
			<psa30 value="0.000353332130477913" flag="0"/>
		</comp>
		<comp name="--.HGN" depth="0.0">
			<acc value="0.0216421808852314" flag="0"/>
			<vel value="0.00515153663517949" flag="0"/>
			<psa03 value="0.013675162422813" flag="0"/>
			<psa10 value="0.00769890001434171" flag="0"/>
			<psa30 value="0.000337857381393399" flag="0"/>
		</comp>
		<comp name="--.HGZ" depth="0.0">
			<acc value="0.00862656660655576" flag="0"/>
			<vel value="0.00377666948426304" flag="0"/>
			<psa03 value="0.0125291190551477" flag="0"/>
			<psa10 value="0.00373123280086111" flag="0"/>
			<psa30 value="0.000326872773508703" flag="0"/>
		</comp>
	</station>
	<station code="BRR" name="BRR" netid="IT" source="Italian Strong Motion Network (RAN)" insttype="" lat="44.5063" lon="9.9872">
		<comp name="--.HGE" depth="0.0">
			<acc value="0.198329607812865" flag="0"/>
			<vel value="0.0967573795473745" flag="0"/>
			<psa03 value="0.267113299111809" flag="0"/>
			<psa10 value="0.0743582533693543" flag="0"/>
			<psa30 value="0.00534202471625349" flag="0"/>
		</comp>
		<comp name="--.HGN" depth="0.0">
			<acc value="0.18009390186833" flag="0"/>
			<vel value="0.0443928207976963" flag="0"/>
			<psa03 value="0.203499522511309" flag="0"/>
			<psa10 value="0.0308117355012608" flag="0"/>
			<psa30 value="0.0017038302662265" flag="0"/>
		</comp>
		<comp name="--.HGZ" depth="0.0">
			<acc value="0.106230832432585" flag="0"/>
			<vel value="0.038031299690791" flag="0"/>
			<psa03 value="0.0997492328971356" flag="0"/>
			<psa10 value="0.027326854645007" flag="0"/>
			<psa30 value="0.00151311481976416" flag="0"/>
		</comp>
	</station>
	<station code="BRSA" name="BRSA" netid="IT" source="Italian Strong Motion Network (RAN)" insttype="" lat="45.5527" lon="10.2255">
		<comp name="--.HGE" depth="0.0">
			<acc value="0.0212038601810173" flag="0"/>
			<vel value="0.00436517412464471" flag="0"/>
			<psa03 value="0.0220893018495055" flag="0"/>
			<psa10 value="0.00474210429738666" flag="0"/>
			<psa30 value="0.000253221071528244" flag="0"/>
		</comp>
		<comp name="--.HGN" depth="0.0">
			<acc value="0.0266251796198681" flag="0"/>
			<vel value="0.003255777708939" flag="0"/>
			<psa03 value="0.012928089495398" flag="0"/>
			<psa10 value="0.00452202518697569" flag="0"/>
			<psa30 value="0.00022233436397712" flag="0"/>
		</comp>
		<comp name="--.HGZ" depth="0.0">
			<acc value="0.021204510671172" flag="0"/>
			<vel value="0.00158827550279605" flag="0"/>
			<psa03 value="0.00718088064601753" flag="0"/>
			<psa10 value="0.00132621851953068" flag="0"/>
			<psa30 value="0.000151670464090553" flag="0"/>
		</comp>
	</station>
	<station code="BSZ" name="BSZ" netid="IT" source="Italian Strong Motion Network (RAN)" insttype="" lat="44.031" lon="11.467">
		<comp name="--.HNE" depth="0.0">
			<acc value="0.00463802425178315" flag="0"/>
			<vel value="0.00300713572698069" flag="0"/>
			<psa03 value="0.0125778358240612" flag="0"/>
			<psa10 value="0.00267009531821068" flag="0"/>
			<psa30 value="0.000197297327792181" flag="0"/>
		</comp>
		<comp name="--.HNN" depth="0.0">
			<acc value="0.00514510049001458" flag="0"/>
			<vel value="0.00348871809653372" flag="0"/>
			<psa03 value="0.0150971303191241" flag="0"/>
			<psa10 value="0.00440432457738795" flag="0"/>
			<psa30 value="0.000434488600445753" flag="0"/>
		</comp>
		<comp name="--.HNZ" depth="0.0">
			<acc value="0.00339591253160632" flag="0"/>
			<vel value="0.00212278998112856" flag="0"/>
			<psa03 value="0.0103016459751547" flag="0"/>
			<psa10 value="0.00370443469749329" flag="0"/>
			<psa30 value="0.00043280161369116" flag="0"/>
		</comp>
	</station>
	<station code="BTTL" name="BTTL" netid="IT" source="Italian Strong Motion Network (RAN)" insttype="" lat="44.7778" lon="9.605">
		<comp name="--.HNE" depth="0.0">
			<acc value="0.0384333106447862" flag="0"/>
			<vel value="0.0107222540994154" flag="0"/>
			<psa03 value="0.0477214790221137" flag="0"/>
			<psa10 value="0.00775421055339347" flag="0"/>
			<psa30 value="0.000855213476612322" flag="0"/>
		</comp>
		<comp name="--.HNN" depth="0.0">
			<acc value="0.0299020223798078" flag="0"/>
			<vel value="0.00973374552180766" flag="0"/>
			<psa03 value="0.0421939618095593" flag="0"/>
			<psa10 value="0.00512206915569375" flag="0"/>
			<psa30 value="0.000523856994621603" flag="0"/>
		</comp>
		<comp name="--.HNZ" depth="0.0">
			<acc value="0.0194818635894617" flag="0"/>
			<vel value="0.00568754750263588" flag="0"/>
			<psa03 value="0.0207902965259447" flag="0"/>
			<psa10 value="0.00749369157653981" flag="0"/>
			<psa30 value="0.000607249602305926" flag="0"/>
		</comp>
	</station>
	<station code="BVT" name="BVT" netid="IT" source="Italian Strong Motion Network (RAN)" insttype="" lat="44.5304" lon="9.7428">
		<comp name="--.HNE" depth="0.0">
			<acc value="0.204619850245731" flag="0"/>
			<vel value="0.0452775368993849" flag="0"/>
			<psa03 value="0.141082158500605" flag="0"/>
			<psa10 value="0.0282006419041246" flag="0"/>
			<psa30 value="0.00176738520559599" flag="0"/>
		</comp>
		<comp name="--.HNN" depth="0.0">
			<acc value="0.117299282701182" flag="0"/>
			<vel value="0.0377736485374011" flag="0"/>
			<psa03 value="0.157798078348258" flag="0"/>
			<psa10 value="0.039444014222361" flag="0"/>
			<psa30 value="0.00225827376622064" flag="0"/>
		</comp>
		<comp name="--.HNZ" depth="0.0">
			<acc value="0.0981957161331513" flag="0"/>
			<vel value="0.0174886534238463" flag="0"/>
			<psa03 value="0.0943094975413651" flag="0"/>
			<psa10 value="0.0233021724045607" flag="0"/>
			<psa30 value="0.00151626659105354" flag="0"/>
		</comp>
	</station>
	<station code="CAR" name="CAR" netid="IT" source="Italian Strong Motion Network (RAN)" insttype="" lat="44.2473" lon="9.6198">
		<comp name="--.HNE" depth="0.0">
