<stationlist created="1774427142">
	<station code="FIVI" name="FIVI" netid="GU" source="Regional Seismic Network of North Western Italy (RSNI)" insttype="" lat="44.2394" lon="10.1271">
		<comp name="--.HNE" depth="0.0">
			<acc value="1.08825239306308" flag="0"/>
			<vel value="0.284463110668291" flag="0"/>
			<psa03 value="1.17022335488744" flag="0"/>
			<psa10 value="0.062046964056858" flag="0"/>
			<psa30 value="0.00761746461964647" flag="0"/>
		</comp>
		<comp name="--.HNN" depth="0.0">
			<acc value="1.75305486700423" flag="0"/>
			<vel value="0.24221236760069" flag="0"/>
			<psa03 value="1.36969706904203" flag="0"/>
			<psa10 value="0.112753326854539" flag="0"/>
			<psa30 value="0.00994529049335289" flag="0"/>
		</comp>
		<comp name="--.HNZ" depth="0.0">
			<acc value="1.40958824970351" flag="0"/>
			<vel value="0.208343626795926" flag="0"/>
			<psa03 value="0.848455956043082" flag="0"/>
			<psa10 value="0.0753585046310914" flag="0"/>
			<psa30 value="0.00479794575702597" flag="0"/>
		</comp>
	</station>
	<station code="ALF" name="ALF" netid="IT" source="Italian Strong Motion Network (RAN)" insttype="" lat="44.5022" lon="12.0334">
		<comp name="--.HGE" depth="0.0">
			<acc value="0.0126217431888095" flag="0"/>
			<vel value="0.00618540543851543" flag="0"/>
			<psa03 value="0.0151582997358811" flag="0"/>
			<psa10 value="0.0091154110387452" flag="0"/>
			<psa30 value="0.00129846966307595" flag="0"/>
		</comp>
		<comp name="--.HGN" depth="0.0">
			<acc value="0.0239785561610447" flag="0"/>
			<vel value="0.00844510065694017" flag="0"/>
			<psa03 value="0.0168697633723642" flag="0"/>
			<psa10 value="0.0114569030260979" flag="0"/>
			<psa30 value="0.00129373174504547" flag="0"/>
		</comp>
		<comp name="--.HGZ" depth="0.0">
			<acc value="0.0289888959874093" flag="0"/>
			<vel value="0.00478377080293574" flag="0"/>
			<psa03 value="0.0208124946110422" flag="0"/>
			<psa10 value="0.00237229066823917" flag="0"/>
			<psa30 value="0.000931889441435352" flag="0"/>
		</comp>
	</station>
	<station code="ALSD" name="ALSD" netid="IT" source="Italian Strong Motion Network (RAN)" insttype="" lat="44.9387" lon="8.5684">
		<comp name="--.HNE" depth="0.0">
			<acc value="0.0203112115902884" flag="0"/>
			<vel value="0.00839846694682591" flag="0"/>
			<psa03 value="0.0214276265063447" flag="0"/>
			<psa10 value="0.0119096536436043" flag="0"/>
			<psa30 value="0.00204324077134006" flag="0"/>
		</comp>
		<comp name="--.HNN" depth="0.0">
			<acc value="0.0121107865852116" flag="0"/>
			<vel value="0.00799883546691697" flag="0"/>
			<psa03 value="0.0274735126937163" flag="0"/>
			<psa10 value="0.0147330394290562" flag="0"/>
			<psa30 value="0.00138196592346009" flag="0"/>
		</comp>
		<comp name="--.HNZ" depth="0.0">
			<acc value="0.0300427193554286" flag="0"/>
			<vel value="0.00605368552222054" flag="0"/>
			<psa03 value="0.0231432258334637" flag="0"/>
			<psa10 value="0.00815838139022784" flag="0"/>
			<psa30 value="0.0010687038172163" flag="0"/>
		</comp>
	</station>
	<station code="ARG" name="ARG" netid="IT" source="Italian Strong Motion Network (RAN)" insttype="" lat="44.6306" lon="11.8251">
		<comp name="--.HNE" depth="0.0">
			<acc value="0.143167313269099" flag="0"/>
			<vel value="0.0108654034013205" flag="0"/>
			<psa03 value="0.0241474590256509" flag="0"/>
			<psa10 value="0.00962143112259233" flag="0"/>
			<psa30 value="0.000982517691141758" flag="0"/>
		</comp>
		<comp name="--.HNN" depth="0.0">
			<acc value="0.0977261977782957" flag="0"/>
			<vel value="0.00888521702855835" flag="0"/>
			<psa03 value="0.0196900205130587" flag="0"/>
			<psa10 value="0.0115201594040225" flag="0"/>
			<psa30 value="0.00101222153387556" flag="0"/>
		</comp>
		<comp name="--.HNZ" depth="0.0">
			<acc value="0.0992917660196976" flag="0"/>
			<vel value="0.0165325426842837" flag="0"/>
			<psa03 value="0.02241167216329" flag="0"/>
			<psa10 value="0.00156179283611051" flag="0"/>
			<psa30 value="0.000240434417183481" flag="0"/>
		</comp>
	</station>
	<station code="ARO" name="ARO" netid="IT" source="Italian Strong Motion Network (RAN)" insttype="" lat="43.4662" lon="11.8828">
		<comp name="--.HNE" depth="0.0">
			<acc value="0.00340046498315008" flag="0"/>
			<vel value="0.0014527183389029" flag="0"/>
			<psa03 value="0.00623157231629132" flag="0"/>
			<psa10 value="0.00195433239461728" flag="0"/>
			<psa30 value="0.000201781465990163" flag="0"/>
		</comp>
		<comp name="--.HNN" depth="0.0">
			<acc value="0.00307274969935233" flag="0"/>
			<vel value="0.00172468436586222" flag="0"/>
			<psa03 value="0.00579810805453631" flag="0"/>
			<psa10 value="0.00208614858773065" flag="0"/>
			<psa30 value="0.00025563104888575" flag="0"/>
		</comp>
		<comp name="--.HNZ" depth="0.0">
			<acc value="0.00272575499584945" flag="0"/>
			<vel value="0.00147960898735981" flag="0"/>
			<psa03 value="0.00602268478060058" flag="0"/>
			<psa10 value="0.00219337451904736" flag="0"/>
			<psa30 value="0.000189874843901551" flag="0"/>
		</comp>
	</station>
	<station code="AUL" name="AUL" netid="IT" source="Italian Strong Motion Network (RAN)" insttype="" lat="44.2087" lon="9.9731">
		<comp name="--.HNE" depth="0.0">
			<acc value="4.22417875774739" flag="0"/>
			<vel value="1.82302081049927" flag="0"/>
			<psa03 value="8.45646419925102" flag="0"/>
			<psa10 value="0.48701440231401" flag="0"/>
			<psa30 value="0.0536089513299265" flag="0"/>
		</comp>
		<comp name="--.HNN" depth="0.0">
			<acc value="1.9984701526471" flag="0"/>
			<vel value="0.602326798398247" flag="0"/>
			<psa03 value="2.87375137192475" flag="0"/>
			<psa10 value="0.121042463469159" flag="0"/>
			<psa30 value="0.0117968789853367" flag="0"/>
		</comp>
		<comp name="--.HNZ" depth="0.0">
			<acc value="0.952261578548099" flag="0"/>
			<vel value="0.297892899552265" flag="0"/>
			<psa03 value="1.65977111835752" flag="0"/>
			<psa10 value="0.0971741273090283" flag="0"/>
			<psa30 value="0.0085351537453806" flag="0"/>
		</comp>
	</station>
	<station code="BBN" name="BBN" netid="IT" source="Italian Strong Motion Network (RAN)" insttype="" lat="43.7476" lon="11.8214">
		<comp name="--.HNE" depth="0.0">
			<acc value="0.00247711898629935" flag="0"/>
			<vel value="0.00224454964698445" flag="0"/>
			<psa03 value="0.00641740689254496" flag="0"/>
			<psa10 value="0.00408984936994882" flag="0"/>
			<psa30 value="0.000571104551623709" flag="0"/>
		</comp>
		<comp name="--.HNN" depth="0.0">
			<acc value="0.00234483108884159" flag="0"/>
			<vel value="0.00185128439427003" flag="0"/>
			<psa03 value="0.00515571947079948" flag="0"/>
			<psa10 value="0.00387429704379009" flag="0"/>
			<psa30 value="0.000299097339772533" flag="0"/>
		</comp>
		<comp name="--.HNZ" depth="0.0">
			<acc value="0.00278335919697116" flag="0"/>
			<vel value="0.00385762984517741" flag="0"/>
			<psa03 value="0.00733460111570256" flag="0"/>
			<psa10 value="0.00716519231507593" flag="0"/>
			<psa30 value="0.000387374021002758" flag="0"/>
		</comp>
	</station>
	<station code="BDG" name="BDG" netid="IT" source="Italian Strong Motion Network (RAN)" insttype="" lat="44.5067" lon="9.6229">
		<comp name="--.HGE" depth="0.0">
			<acc value="0.0976130852417107" flag="0"/>
			<vel value="0.0383730788176761" flag="0"/>
			<psa03 value="0.214417558277596" flag="0"/>
			<psa10 value="0.0181765953602365" flag="0"/>
			<psa30 value="0.00210902054559394" flag="0"/>
		</comp>
		<comp name="--.HGN" depth="0.0">
			<acc value="0.100732752578154" flag="0"/>
			<vel value="0.0412508591159316" flag="0"/>
			<psa03 value="0.199083938333861" flag="0"/>
			<psa10 value="0.0137783236838235" flag="0"/>
			<psa30 value="0.00143114157693913" flag="0"/>
		</comp>
		<comp name="--.HGZ" depth="0.0">
			<acc value="0.0649546158825316" flag="0"/>
			<vel value="0.0164857933386798" flag="0"/>
			<psa03 value="0.0734259734853874" flag="0"/>
			<psa10 value="0.0185614308536993" flag="0"/>
			<psa30 value="0.000796065756282799" flag="0"/>
		</comp>
	</station>
	<station code="BGL" name="BGL" netid="IT" source="Italian Strong Motion Network (RAN)" insttype="" lat="43.9958" lon="10.5769">
		<comp name="--.HNE" depth="0.0">
			<acc value="0.0961913010663974" flag="0"/>
			<vel value="0.032743914691402" flag="0"/>
			<psa03 value="0.189885328971135" flag="0"/>
			<psa10 value="0.015790460415507" flag="0"/>
			<psa30 value="0.000940370836619492" flag="0"/>
		</comp>
		<comp name="--.HNN" depth="0.0">
			<acc value="0.0893108290856751" flag="0"/>
			<vel value="0.0269039670776675" flag="0"/>
			<psa03 value="0.122394087174263" flag="0"/>
			<psa10 value="0.0102146369820692" flag="0"/>
			<psa30 value="0.000953219083586131" flag="0"/>
		</comp>
		<comp name="--.HNZ" depth="0.0">
			<acc value="0.0557472658073971" flag="0"/>
			<vel value="0.0233489832497625" flag="0"/>
			<psa03 value="0.105309569992179" flag="0"/>
			<psa10 value="0.0120688535648178" flag="0"/>
			<psa30 value="0.000654912290975134" flag="0"/>
		</comp>
	</station>
	<station code="BGN" name="BGN" netid="IT" source="Italian Strong Motion Network (RAN)" insttype="" lat="44.3224" lon="9.9917">
		<comp name="--.HGE" depth="0.0">
			<acc value="2.03579219441702" flag="0"/>
			<vel value="0.424421868224618" flag="0"/>
			<psa03 value="1.8346333687901" flag="0"/>
			<psa10 value="0.101788830510468" flag="0"/>
			<psa30 value="0.0123553968177354" flag="0"/>
		</comp>
		<comp name="--.HGN" depth="0.0">
			<acc value="1.84741202838968" flag="0"/>
			<vel value="0.515254316152197" flag="0"/>
			<psa03 value="1.54969182614466" flag="0"/>
			<psa10 value="0.0820612486549877" flag="0"/>
			<psa30 value="0.00881098951814681" flag="0"/>
		</comp>
		<comp name="--.HGZ" depth="0.0">
			<acc value="1.90783231403006" flag="0"/>
			<vel value="0.321592518835882" flag="0"/>
			<psa03 value="0.810615199278659" flag="0"/>
			<psa10 value="0.063837786440052" flag="0"/>
			<psa30 value="0.00735272458191825" flag="0"/>
		</comp>
	</station>
	<station code="BOZL" name="BOZL" netid="IT" source="Italian Strong Motion Network (RAN)" insttype="" lat="45.0995" lon="10.4798">
		<comp name="--.HNE" depth="0.0">
			<acc value="0.0166224352194645" flag="0"/>
			<vel value="0.0109432452483296" flag="0"/>
			<psa03 value="0.0300005108241072" flag="0"/>
			<psa10 value="0.012564473272191" flag="0"/>
			<psa30 value="0.00167843493807732" flag="0"/>
		</comp>
		<comp name="--.HNN" depth="0.0">
			<acc value="0.0175952629614082" flag="0"/>
			<vel value="0.0119504318745147" flag="0"/>
			<psa03 value="0.0262266748884975" flag="0"/>
			<psa10 value="0.020087234430698" flag="0"/>
			<psa30 value="0.00186041678514823" flag="0"/>
		</comp>
		<comp name="--.HNZ" depth="0.0">
			<acc value="0.0155838085903419" flag="0"/>
			<vel value="0.00339092482047544" flag="0"/>
			<psa03 value="0.0120382206501209" flag="0"/>
			<psa10 value="0.00376933204349896" flag="0"/>
			<psa30 value="0.000876147311292798" flag="0"/>
		</comp>
	</station>
	<station code="BRB" name="BRB" netid="IT" source="Italian Strong Motion Network (RAN)" insttype="" lat="43.9542" lon="11.2128">
		<comp name="--.HNE" depth="0.0">
			<acc value="0.034857028158832" flag="0"/>
			<vel value="0.0150354454416613" flag="0"/>
			<psa03 value="0.142112268406998" flag="0"/>
			<psa10 value="0.0140055334228537" flag="0"/>
			<psa30 value="0.000751258517189778" flag="0"/>
		</comp>
		<comp name="--.HNN" depth="0.0">
			<acc value="0.0338777142596437" flag="0"/>
			<vel value="0.0176016979534606" flag="0"/>
			<psa03 value="0.078989560795742" flag="0"/>
			<psa10 value="0.0113417741493749" flag="0"/>
			<psa30 value="0.00106737122893886" flag="0"/>
		</comp>
		<comp name="--.HNZ" depth="0.0">
			<acc value="0.018881598230037" flag="0"/>
			<vel value="0.0112111947788488" flag="0"/>
			<psa03 value="0.0752226914674692" flag="0"/>
			<psa10 value="0.0149038201174386" flag="0"/>
			<psa30 value="0.000751923404985331" flag="0"/>
		</comp>
	</station>
	<station code="BRH" name="BRH" netid="IT" source="Italian Strong Motion Network (RAN)" insttype="" lat="44.2076" lon="11.7639">
		<comp name="--.HGE" depth="0.0">
			<acc value="0.0165342142624328" flag="0"/>
			<vel value="0.00507549947496221" flag="0"/>
			<psa03 value="0.0182648102144543" flag="0"/>
			<psa10 value="0.00965580121194207" flag="0"/>
			<psa30 value="0.000400584818028226" flag="0"/>
		</comp>
		<comp name="--.HGN" depth="0.0">
			<acc value="0.0184397044818737" flag="0"/>
			<vel value="0.00495258785451994" flag="0"/>
			<psa03 value="0.0193429246029915" flag="0"/>
			<psa10 value="0.00707626454904787" flag="0"/>
			<psa30 value="0.00052954627775869" flag="0"/>
		</comp>
		<comp name="--.HGZ" depth="0.0">
			<acc value="0.0278647184992112" flag="0"/>
			<vel value="0.00360173606080439" flag="0"/>
			<psa03 value="0.00956792419260416" flag="0"/>
			<psa10 value="0.00650253701116419" flag="0"/>
			<psa30 value="0.000343506010795708" flag="0"/>
		</comp>
	</station>
	<station code="CADC" name="CADC" netid="IV" source="Italian National Seismic Network (INSN)" insttype="" lat="45.455464" lon="10.128662">
		<comp name="--.HNE" depth="0.0">
			<acc value="0.00611503965540795" flag="0"/>
			<vel value="0.00501289127431768" flag="0"/>
			<psa03 value="0.0156868360509014" flag="0"/>
			<psa10 value="0.00790318073443685" flag="0"/>
			<psa30 value="0.00113451828126821" flag="0"/>
		</comp>
		<comp name="--.HNN" depth="0.0">
			<acc value="0.00676968431961181" flag="0"/>
			<vel value="0.00462510866189262" flag="0"/>
			<psa03 value="0.0140965067410562" flag="0"/>
			<psa10 value="0.00789349759297626" flag="0"/>
			<psa30 value="0.00115318555955045" flag="0"/>
		</comp>
		<comp name="--.HNZ" depth="0.0">
			<acc value="0.00651300137992911" flag="0"/>
			<vel value="0.00212215216439447" flag="0"/>
			<psa03 value="0.00716109092358721" flag="0"/>
			<psa10 value="0.00344290104404728" flag="0"/>
			<psa30 value="0.000538837518257774" flag="0"/>
		</comp>
	</station>
	<station code="CAPR" name="CAPR" netid="IV" source="Italian National Seismic Network (INSN)" insttype="" lat="45.6372" lon="9.9345">
		<comp name="--.HNE" depth="0.0">
			<acc value="0.00248766450975051" flag="0"/>
			<vel value="0.000412867335337345" flag="0"/>
			<psa03 value="0.00143729622293547" flag="0"/>
			<psa10 value="0.00071269123573416" flag="0"/>
			<psa30 value="0.00014600403402987" flag="0"/>
		</comp>
		<comp name="--.HNN" depth="0.0">
			<acc value="0.00799411894257934" flag="0"/>
			<vel value="0.00151990585385491" flag="0"/>
			<psa03 value="0.00497575930713434" flag="0"/>
			<psa10 value="0.00153959968623575" flag="0"/>
			<psa30 value="0.00035739164419244" flag="0"/>
		</comp>
		<comp name="--.HNZ" depth="0.0">
			<acc value="0.0112729474803152" flag="0"/>
			<vel value="0.00174608077744181" flag="0"/>
			<psa03 value="0.00274057673205011" flag="0"/>
			<psa10 value="0.0015704611837835" flag="0"/>
			<psa30 value="0.000504427478344838" flag="0"/>
		</comp>
	</station>
	<station code="CASP" name="CASP" netid="IV" source="Italian National Seismic Network (INSN)" insttype="" lat="42.7908" lon="10.8652">
		<comp name="--.HNE" depth="0.0">
			<acc value="0.00290281129785245" flag="0"/>
			<vel value="0.00157521953772899" flag="0"/>
			<psa03 value="0.00431092229619521" flag="0"/>
			<psa10 value="0.00243139505236455" flag="0"/>
			<psa30 value="0.000278148113447436" flag="0"/>
		</comp>
		<comp name="--.HNN" depth="0.0">
			<acc value="0.00272917836188544" flag="0"/>
			<vel value="0.00116525429252997" flag="0"/>
			<psa03 value="0.00530403300678085" flag="0"/>
			<psa10 value="0.00109747738999095" flag="0"/>
			<psa30 value="0.000211340002842152" flag="0"/>
		</comp>
		<comp name="--.HNZ" depth="0.0">
			<acc value="0.00200613373390708" flag="0"/>
			<vel value="0.00108602936803376" flag="0"/>
			<psa03 value="0.00674151885816369" flag="0"/>
			<psa10 value="0.00146866947964517" flag="0"/>
			<psa30 value="0.000193655758431083" flag="0"/>
		</comp>
	</station>
	<station code="CNCS" name="CNCS" netid="IV" source="Italian National Seismic Network (INSN)" insttype="" lat="45.606" lon="10.217">
		<comp name="--.HNE" depth="0.0">
			<acc value="0.0100761204962131" flag="0"/>
			<vel value="0.0178799053119313" flag="0"/>
			<psa03 value="0.0353899798291453" flag="0"/>
			<psa10 value="0.00899397986952619" flag="0"/>
			<psa30 value="0.00560606012397009" flag="0"/>
		</comp>
		<comp name="--.HNN" depth="0.0">
			<acc value="0.0126400778440419" flag="0"/>
			<vel value="0.0377343038095" flag="0"/>
			<psa03 value="0.0291740654511572" flag="0"/>
			<psa10 value="0.00998126558485948" flag="0"/>
			<psa30 value="0.0144734087923007" flag="0"/>
		</comp>
		<comp name="--.HNZ" depth="0.0">
			<acc value="0.00458696903251721" flag="0"/>
			<vel value="0.00171573112482978" flag="0"/>
			<psa03 value="0.0132877357160284" flag="0"/>
			<psa10 value="0.00188514921782135" flag="0"/>
			<psa30 value="0.000194274041576807" flag="0"/>
		</comp>
	</station>
	<station code="CRMI" name="CRMI" netid="IV" source="Italian National Seismic Network (INSN)" insttype="" lat="43.795597222222" lon="10.979505555556">
		<comp name="--.HNE" depth="0.0">
			<acc value="6.21374170503625e-05" flag="0"/>
			<vel value="4.1816485973986e-05" flag="0"/>
			<psa03 value="8.41313209677831e-05" flag="0"/>
			<psa10 value="4.75041478932221e-05" flag="0"/>
			<psa30 value="2.30156506504631e-05" flag="0"/>
		</comp>
		<comp name="--.HNN" depth="0.0">
			<acc value="5.60486028816875e-05" flag="0"/>
			<vel value="2.78010396324641e-05" flag="0"/>
			<psa03 value="6.84109395631562e-05" flag="0"/>
			<psa10 value="3.87327929082207e-05" flag="0"/>
			<psa30 value="1.68317904792423e-05" flag="0"/>
		</comp>
		<comp name="--.HNZ" depth="0.0">
			<acc value="5.15014535030734e-05" flag="0"/>
			<vel value="3.0784892458988e-05" flag="0"/>
			<psa03 value="7.08681030706013e-05" flag="0"/>
			<psa10 value="3.79616004630842e-05" flag="0"/>
			<psa30 value="1.79207672410041e-05" flag="0"/>
		</comp>
	</station>
	<station code="CTL8" name="CTL8" netid="IV" source="Italian National Seismic Network (INSN)" insttype="" lat="45.2763" lon="9.7622">
		<comp name="--.HNE" depth="0.0">
			<acc value="0.0269269987999222" flag="0"/>
			<vel value="0.0204479923880447" flag="0"/>
			<psa03 value="0.0598709557403197" flag="0"/>
			<psa10 value="0.0169032585079193" flag="0"/>
			<psa30 value="0.00144905047164884" flag="0"/>
		</comp>
		<comp name="--.HNN" depth="0.0">
			<acc value="0.0296897895128165" flag="0"/>
			<vel value="0.0200482528365807" flag="0"/>
			<psa03 value="0.0855710176182898" flag="0"/>
			<psa10 value="0.011386290535867" flag="0"/>
			<psa30 value="0.00176174379021324" flag="0"/>
		</comp>
		<comp name="--.HNZ" depth="0.0">
			<acc value="0.00799349166005446" flag="0"/>
			<vel value="0.0030971556251688" flag="0"/>
			<psa03 value="0.0147053517615507" flag="0"/>
			<psa10 value="0.00280023901771706" flag="0"/>
			<psa30 value="0.000496600709859838" flag="0"/>
		</comp>
	</station>
	<station code="EUCT" name="EUCT" netid="IV" source="Italian National Seismic Network (INSN)" insttype="" lat="45.2026" lon="9.1349">
		<comp name="--.HNE" depth="0.0">
			<acc value="0.0370063566212939" flag="0"/>
			<vel value="0.0122578311690338" flag="0"/>
			<psa03 value="0.02911924150684" flag="0"/>
			<psa10 value="0.0265036169845522" flag="0"/>
			<psa30 value="0.00180487914771898" flag="0"/>
		</comp>
		<comp name="--.HNN" depth="0.0">
			<acc value="0.0241678100696417" flag="0"/>
			<vel value="0.0185543584400057" flag="0"/>
			<psa03 value="0.0348948376534062" flag="0"/>
			<psa10 value="0.0256056593742675" flag="0"/>
			<psa30 value="0.00156493366917529" flag="0"/>
		</comp>
		<comp name="--.HNZ" depth="0.0">
			<acc value="0.0435230420328231" flag="0"/>
			<vel value="0.0086343852331794" flag="0"/>
			<psa03 value="0.0296509147484163" flag="0"/>
			<psa10 value="0.00429758500641522" flag="0"/>
			<psa30 value="0.000309047373913462" flag="0"/>
		</comp>
	</station>
