<?xml version="1.0" encoding="UTF-8" standalone="yes"?>
<!DOCTYPE earthquake SYSTEM "stationlist.dtd">
<stationlist created="" xmlns="ch.ethz.sed.shakemap.usgs.xml">
  <station code="CARD" name="CARD" netid="GU" insttype="" commtype="DIG" lat="44.0261" lon="10.4821">
    <comp name="--.HHE">
      <acc value="0.3113970399" flag="0"/>
      <vel value="0.0702355691" flag="0"/>
      <psa03 value="0.2399542609" flag="0"/>
      <psa10 value="0.0176174559" flag="0"/>
      <psa30 value="0.0012770314" flag="0"/>
    </comp>
    <comp name="--.HHN">
      <acc value="0.3643657258" flag="0"/>
      <vel value="0.0542617842" flag="0"/>
      <psa03 value="0.3725385857" flag="0"/>
      <psa10 value="0.0160131621" flag="0"/>
      <psa30 value="0.0013993607" flag="0"/>
    </comp>
    <comp name="--.HHZ">
      <acc value="0.1844473892" flag="0"/>
      <vel value="0.0351536723" flag="0"/>
      <psa03 value="0.2026932222" flag="0"/>
      <psa10 value="0.0079885672" flag="0"/>
      <psa30 value="0.0007873325" flag="0"/>
    </comp>
  </station>
  <station code="EQUI" name="EQUI" netid="GU" insttype="" commtype="DIG" lat="44.166" lon="10.153">
    <comp name="--.HHZ">
      <acc value="1.1087420362" flag="0"/>
      <vel value="0.2606500536" flag="0"/>
      <psa03 value="1.1039407757" flag="0"/>
      <psa10 value="0.0679571529" flag="0"/>
      <psa30 value="0.0071672315" flag="0"/>
    </comp>
    <comp name="--.HHE">
      <acc value="1.9938657223" flag="0"/>
      <vel value="0.2817377919" flag="0"/>
      <psa03 value="1.2204632409" flag="0"/>
      <psa10 value="0.0911852039" flag="0"/>
      <psa30 value="0.0315723975" flag="0"/>
    </comp>
    <comp name="--.HHN">
      <acc value="2.2588566527" flag="0"/>
      <vel value="0.4967225671" flag="0"/>
      <psa03 value="2.9400019413" flag="0"/>
      <psa10 value="0.1690404925" flag="0"/>
      <psa30 value="0.0193636584" flag="0"/>
    </comp>
  </station>
  <station code="FIVI" name="FIVI" netid="GU" insttype="" commtype="DIG" lat="44.2394" lon="10.1271">
    <comp name="--.HNE">
      <acc value="1.0787755698" flag="0"/>
      <vel value="0.2860005489" flag="0"/>
      <psa03 value="1.1615052972" flag="0"/>
      <psa10 value="0.0619509153" flag="0"/>
      <psa30 value="0.0071888471" flag="0"/>
    </comp>
    <comp name="--.HNN">
      <acc value="1.7705040457" flag="0"/>
      <vel value="0.2387294622" flag="0"/>
      <psa03 value="1.3688079344" flag="0"/>
      <psa10 value="0.1124018897" flag="0"/>
      <psa30 value="0.0102371886" flag="0"/>
    </comp>
    <comp name="--.HNZ">
      <acc value="1.3783064304" flag="0"/>
      <vel value="0.2023363704" flag="0"/>
      <psa03 value="0.8451120880" flag="0"/>
      <psa10 value="0.0753545622" flag="0"/>
      <psa30 value="0.0047375984" flag="0"/>
    </comp>
  </station>
  <station code="GORR" name="GORR" netid="GU" insttype="" commtype="DIG" lat="44.6071" lon="9.2926">
    <comp name="--.HHE">
      <acc value="0.0279885853" flag="0"/>
      <vel value="0.0149744959" flag="0"/>
      <psa03 value="0.0520673453" flag="0"/>
      <psa10 value="0.0075671622" flag="0"/>
      <psa30 value="0.0004916474" flag="0"/>
    </comp>
    <comp name="--.HHN">
      <acc value="0.0297415047" flag="0"/>
      <vel value="0.0132081676" flag="0"/>
      <psa03 value="0.0591775038" flag="0"/>
      <psa10 value="0.0084398964" flag="0"/>
      <psa30 value="0.0004431196" flag="0"/>
    </comp>
    <comp name="--.HHZ">
      <acc value="0.0241485116" flag="0"/>
      <vel value="0.0110466662" flag="0"/>
      <psa03 value="0.0443977689" flag="0"/>
      <psa10 value="0.0066392682" flag="0"/>
      <psa30 value="0.0004011378" flag="0"/>
    </comp>
  </station>
  <station code="GRAM" name="GRAM" netid="GU" insttype="" commtype="DIG" lat="44.4904" lon="10.065">
    <comp name="--.HHE">
      <acc value="0.2756886583" flag="0"/>
      <vel value="0.0796690362" flag="0"/>
      <psa03 value="0.3447748547" flag="0"/>
      <psa10 value="0.0668997433" flag="0"/>
      <psa30 value="0.0041537053" flag="0"/>
    </comp>
    <comp name="--.HHN">
      <acc value="0.0000000000" flag="0"/>
      <vel value="-100.0000000000" flag="0"/>
      <psa03 value="0.0000000000" flag="0"/>
      <psa10 value="0.0000000000" flag="0"/>
      <psa30 value="0.0000000000" flag="0"/>
    </comp>
    <comp name="--.HHZ">
      <acc value="0.3102770465" flag="0"/>
      <vel value="0.0460254838" flag="0"/>
      <psa03 value="0.1448591453" flag="0"/>
      <psa10 value="0.0354354578" flag="0"/>
      <psa30 value="0.0020367364" flag="0"/>
    </comp>
  </station>
  <station code="GSCL" name="GSCL" netid="GU" insttype="" commtype="DIG" lat="44.3506" lon="10.588">
    <comp name="--.HHE">
      <acc value="0.1321535473" flag="0"/>
      <vel value="0.0518576451" flag="0"/>
      <psa03 value="0.3304497290" flag="0"/>
      <psa10 value="0.0231642738" flag="0"/>
      <psa30 value="0.0018076814" flag="0"/>
    </comp>
    <comp name="--.HHN">
      <acc value="0.1300378572" flag="0"/>
      <vel value="0.0560937540" flag="0"/>
      <psa03 value="0.3465773825" flag="0"/>
      <psa10 value="0.0237073810" flag="0"/>
      <psa30 value="0.0023423844" flag="0"/>
    </comp>
    <comp name="--.HHZ">
      <acc value="0.0419922164" flag="0"/>
      <vel value="0.0265688258" flag="0"/>
      <psa03 value="0.1147529562" flag="0"/>
      <psa10 value="0.0218975644" flag="0"/>
      <psa30 value="0.0008927546" flag="0"/>
    </comp>
  </station>
  <station code="MAIM" name="MAIM" netid="GU" insttype="" commtype="DIG" lat="43.9142" lon="10.4915">
    <comp name="--.HHE">
      <acc value="0.0685598480" flag="0"/>
      <vel value="0.0177068112" flag="0"/>
      <psa03 value="0.0779755495" flag="0"/>
      <psa10 value="0.0087336190" flag="0"/>
      <psa30 value="0.0008811595" flag="0"/>
    </comp>
    <comp name="--.HHN">
      <acc value="0.0930593091" flag="0"/>
      <vel value="0.0215591668" flag="0"/>
      <psa03 value="0.0563384344" flag="0"/>
      <psa10 value="0.0179884486" flag="0"/>
      <psa30 value="0.0007878291" flag="0"/>
    </comp>
    <comp name="--.HHZ">
      <acc value="0.0423565666" flag="0"/>
      <vel value="0.0118097615" flag="0"/>
      <psa03 value="0.0529150125" flag="0"/>
      <psa10 value="0.0079952971" flag="0"/>
      <psa30 value="0.0005910133" flag="0"/>
    </comp>
  </station>
  <station code="POPM" name="POPM" netid="GU" insttype="" commtype="DIG" lat="44.045" lon="10.757">
    <comp name="--.HHE">
      <acc value="0.0976314022" flag="0"/>
      <vel value="0.0257019661" flag="0"/>
      <psa03 value="0.1363916196" flag="0"/>
      <psa10 value="0.0094818882" flag="0"/>
      <psa30 value="0.0006755218" flag="0"/>
    </comp>
    <comp name="--.HHN">
      <acc value="0.1361513574" flag="0"/>
      <vel value="0.0337166731" flag="0"/>
      <psa03 value="0.0864364026" flag="0"/>
      <psa10 value="0.0103470842" flag="0"/>
      <psa30 value="0.0008052971" flag="0"/>
    </comp>
    <comp name="--.HHZ">
      <acc value="0.0727437616" flag="0"/>
      <vel value="0.0189589306" flag="0"/>
      <psa03 value="0.0924316226" flag="0"/>
      <psa10 value="0.0056957732" flag="0"/>
      <psa30 value="0.0006513213" flag="0"/>
    </comp>
  </station>
  <station code="RNCA" name="RNCA" netid="GU" insttype="" commtype="DIG" lat="44.4711" lon="8.9512">
    <comp name="--.HHE">
      <acc value="1.0624894668" flag="0"/>
      <vel value="0.2637249131" flag="0"/>
      <psa03 value="1.0493336781" flag="0"/>
      <psa10 value="0.1015981646" flag="0"/>
      <psa30 value="0.0082126147" flag="0"/>
    </comp>
    <comp name="--.HHN">
      <acc value="0.6095719617" flag="0"/>
      <vel value="0.1483040115" flag="0"/>
      <psa03 value="0.7952758512" flag="0"/>
      <psa10 value="0.0799887449" flag="0"/>
      <psa30 value="0.0067441365" flag="0"/>
    </comp>
    <comp name="--.HHZ">
      <acc value="0.8386923366" flag="0"/>
      <vel value="0.1333233332" flag="0"/>
      <psa03 value="0.6889175418" flag="0"/>
      <psa10 value="0.0809720682" flag="0"/>
      <psa30 value="0.0044139516" flag="0"/>
    </comp>
  </station>
  <station code="BOSL" name="BOSL" netid="IV" insttype="" commtype="DIG" lat="43.931" lon="11.3743">
    <comp name="--.HHE">
      <acc value="0.0034629628" flag="0"/>
      <vel value="0.0017457863" flag="0"/>
      <psa03 value="0.0088671147" flag="0"/>
      <psa10 value="0.0016301810" flag="0"/>
      <psa30 value="0.0000971818" flag="0"/>
    </comp>
    <comp name="--.HHN">
      <acc value="0.0038202288" flag="0"/>
      <vel value="0.0021247831" flag="0"/>
      <psa03 value="0.0095844189" flag="0"/>
      <psa10 value="0.0019353426" flag="0"/>
      <psa30 value="0.0001302539" flag="0"/>
    </comp>
    <comp name="--.HHZ">
      <acc value="0.0031029687" flag="0"/>
      <vel value="0.0010222745" flag="0"/>
      <psa03 value="0.0054546724" flag="0"/>
      <psa10 value="0.0018422624" flag="0"/>
      <psa30 value="0.0000838696" flag="0"/>
    </comp>
  </station>
  <station code="CAIS" name="CAIS" netid="IV" insttype="" commtype="DIG" lat="43.05" lon="9.84266">
    <comp name="--.HHE">
      <acc value="0.0051330203" flag="0"/>
      <vel value="0.0043805871" flag="0"/>
      <psa03 value="0.0134944700" flag="0"/>
      <psa10 value="0.0054376559" flag="0"/>
      <psa30 value="0.0005672766" flag="0"/>
    </comp>
    <comp name="--.HHN">
      <acc value="0.0042848148" flag="0"/>
      <vel value="0.0041335972" flag="0"/>
      <psa03 value="0.0082917753" flag="0"/>
      <psa10 value="0.0064179702" flag="0"/>
      <psa30 value="0.0006857659" flag="0"/>
    </comp>
    <comp name="--.HHZ">
      <acc value="0.0030213770" flag="0"/>
      <vel value="0.0017433603" flag="0"/>
      <psa03 value="0.0121083936" flag="0"/>
      <psa10 value="0.0029060525" flag="0"/>
      <psa30 value="0.0001755123" flag="0"/>
    </comp>
  </station>
  <station code="CAVE" name="CAVE" netid="IV" insttype="" commtype="DIG" lat="44.8658" lon="11.0031">
    <comp name="--.HHE">
      <acc value="0.0212290910" flag="0"/>
      <vel value="0.0144963443" flag="0"/>
      <psa03 value="0.0479670737" flag="0"/>
      <psa10 value="0.0254299065" flag="0"/>
      <psa30 value="0.0013766958" flag="0"/>
    </comp>
    <comp name="--.HHN">
      <acc value="0.0192588396" flag="0"/>
      <vel value="0.0151921701" flag="0"/>
      <psa03 value="0.0446691111" flag="0"/>
      <psa10 value="0.0245606580" flag="0"/>
      <psa30 value="0.0009701927" flag="0"/>
    </comp>
    <comp name="--.HHZ">
      <acc value="0.0105862434" flag="0"/>
      <vel value="0.0054804087" flag="0"/>
      <psa03 value="0.0284857771" flag="0"/>
      <psa10 value="0.0050858894" flag="0"/>
      <psa30 value="0.0004803797" flag="0"/>
    </comp>
  </station>
  <station code="CRMI" name="CRMI" netid="IV" insttype="" commtype="DIG" lat="43.7956" lon="10.9795">
    <comp name="--.HHE">
      <acc value="0.0079820124" flag="0"/>
      <vel value="0.0027789599" flag="0"/>
      <psa03 value="0.0145207479" flag="0"/>
      <psa10 value="0.0015508224" flag="0"/>
      <psa30 value="0.0002200858" flag="0"/>
    </comp>
    <comp name="--.HHZ">
      <acc value="0.0063598658" flag="0"/>
      <vel value="0.0021261686" flag="0"/>
      <psa03 value="0.0070573747" flag="0"/>
      <psa10 value="0.0016881533" flag="0"/>
      <psa30 value="0.0002883865" flag="0"/>
    </comp>
    <comp name="--.HHN">
      <acc value="0.0107468955" flag="0"/>
      <vel value="0.0052225115" flag="0"/>
      <psa03 value="0.0125969310" flag="0"/>
      <psa10 value="0.0030049781" flag="0"/>
      <psa30 value="0.0003043455" flag="0"/>
    </comp>
  </station>
  <station code="MSSA" name="MSSA" netid="IV" insttype="" commtype="DIG" lat="44.3162" lon="9.51739">
    <comp name="--.HHE">
      <acc value="0.0727301865" flag="0"/>
      <vel value="0.0272512267" flag="0"/>
      <psa03 value="0.1181449685" flag="0"/>
      <psa10 value="0.0089314045" flag="0"/>
      <psa30 value="0.0009853892" flag="0"/>
    </comp>
    <comp name="--.HHN">
      <acc value="0.0981418571" flag="0"/>
      <vel value="0.0267663341" flag="0"/>
      <psa03 value="0.0728115549" flag="0"/>
      <psa10 value="0.0137212341" flag="0"/>
      <psa30 value="0.0010804778" flag="0"/>
    </comp>
    <comp name="--.HHZ">
      <acc value="0.0543519376" flag="0"/>
      <vel value="0.0139126780" flag="0"/>
      <psa03 value="0.0532299643" flag="0"/>
      <psa10 value="0.0138307627" flag="0"/>
      <psa30 value="0.0010096561" flag="0"/>
    </comp>
  </station>
  <station code="NEVI" name="NEVI" netid="IV" insttype="LK-307-115 Accelerometers, 80 Hz, +/-20V Single-ended" commtype="DIG" lat="44.5834" lon="10.3163">
    <comp name="--.HNE">
      <acc value="0.0285323949" flag="0"/>
      <vel value="0.0199580928" flag="0"/>
      <psa03 value="0.0831320615" flag="0"/>
      <psa10 value="0.0206593268" flag="0"/>
      <psa30 value="0.0011551575" flag="0"/>
    </comp>
    <comp name="--.HNN">
      <acc value="0.0175959888" flag="0"/>
      <vel value="0.0120657497" flag="0"/>
      <psa03 value="0.0375251691" flag="0"/>
      <psa10 value="0.0227555867" flag="0"/>
      <psa30 value="0.0011070555" flag="0"/>
    </comp>
    <comp name="--.HNZ">
      <acc value="0.0124804673" flag="0"/>
      <vel value="0.0073618178" flag="0"/>
      <psa03 value="0.0298461285" flag="0"/>
      <psa10 value="0.0144761409" flag="0"/>
      <psa30 value="0.0014186889" flag="0"/>
    </comp>
  </station>
  <station code="OSSC" name="OSSC" netid="IV" insttype="" commtype="DIG" lat="43.5236" lon="11.2458">
    <comp name="--.HHE">
      <acc value="0.0064788680" flag="0"/>
      <vel value="0.0044761291" flag="0"/>
      <psa03 value="0.0156125753" flag="0"/>
      <psa10 value="0.0072407810" flag="0"/>
      <psa30 value="0.0005597562" flag="0"/>
    </comp>
    <comp name="--.HHN">
      <acc value="0.0066207765" flag="0"/>
      <vel value="0.0047869537" flag="0"/>
      <psa03 value="0.0159340809" flag="0"/>
      <psa10 value="0.0051289885" flag="0"/>
      <psa30 value="0.0003622272" flag="0"/>
    </comp>
    <comp name="--.HHZ">
      <acc value="0.0064704568" flag="0"/>
      <vel value="0.0031210675" flag="0"/>
      <psa03 value="0.0196639381" flag="0"/>
      <psa10 value="0.0035036434" flag="0"/>
      <psa30 value="0.0003290085" flag="0"/>
    </comp>
  </station>
  <station code="PII" name="PII" netid="IV" insttype="" commtype="DIG" lat="43.7219" lon="10.525">
    <comp name="--.HHE">
      <acc value="0.1102080976" flag="0"/>
      <vel value="0.0458469732" flag="0"/>
      <psa03 value="0.1674170727" flag="0"/>
      <psa10 value="0.0269959586" flag="0"/>
      <psa30 value="0.0013090629" flag="0"/>
    </comp>
    <comp name="--.HHN">
      <acc value="0.1031810052" flag="0"/>
      <vel value="0.0255145153" flag="0"/>
      <psa03 value="0.1570432401" flag="0"/>
      <psa10 value="0.0149616720" flag="0"/>
      <psa30 value="0.0009805459" flag="0"/>
    </comp>
    <comp name="--.HHZ">
      <acc value="0.1545816487" flag="0"/>
      <vel value="0.0319653646" flag="0"/>
      <psa03 value="0.1781027905" flag="0"/>
      <psa10 value="0.0189581368" flag="0"/>
      <psa30 value="0.0010063404" flag="0"/>
    </comp>
  </station>
  <station code="PLMA" name="PLMA" netid="IV" insttype="" commtype="DIG" lat="44.0498" lon="9.85365">
    <comp name="--.HHE">
      <acc value="1.1763888707" flag="0"/>
      <vel value="0.3227353198" flag="0"/>
      <psa03 value="1.0495615790" flag="0"/>
      <psa10 value="0.0602400227" flag="0"/>
      <psa30 value="0.0046287688" flag="0"/>
    </comp>
    <comp name="--.HHN">
      <acc value="0.7849669440" flag="0"/>
      <vel value="0.1876570055" flag="0"/>
      <psa03 value="0.8399887798" flag="0"/>
      <psa10 value="0.0489976506" flag="0"/>
      <psa30 value="0.0054980864" flag="0"/>
    </comp>
    <comp name="--.HHZ">
      <acc value="0.5290188504" flag="0"/>
      <vel value="0.0562717857" flag="0"/>
      <psa03 value="0.2425593424" flag="0"/>
      <psa10 value="0.0294511507" flag="0"/>
      <psa30 value="0.0027579542" flag="0"/>
    </comp>
  </station>
  <station code="PRMA" name="PRMA" netid="IV" insttype="" commtype="DIG" lat="44.7637" lon="10.3131">
    <comp name="--.HHE">
      <acc value="0.0264156567" flag="0"/>
      <vel value="0.0289857898" flag="0"/>
      <psa03 value="0.0694495540" flag="0"/>
      <psa10 value="0.0309888350" flag="0"/>
      <psa30 value="0.0032391884" flag="0"/>
    </comp>
    <comp name="--.HHN">
      <acc value="0.0270135491" flag="0"/>
      <vel value="0.0218018382" flag="0"/>
      <psa03 value="0.0632564730" flag="0"/>
      <psa10 value="0.0354370745" flag="0"/>
      <psa30 value="0.0019878105" flag="0"/>
    </comp>
    <comp name="--.HHZ">
      <acc value="0.0137943135" flag="0"/>
      <vel value="0.0064598708" flag="0"/>
      <psa03 value="0.0211937035" flag="0"/>
      <psa10 value="0.0095899373" flag="0"/>
      <psa30 value="0.0016595658" flag="0"/>
    </comp>
  </station>
  <station code="SARZ" name="SARZ" netid="IV" insttype="" commtype="DIG" lat="44.8673" lon="8.9136">
    <comp name="--.HHE">
      <acc value="0.0104744266" flag="0"/>
      <vel value="0.0101548478" flag="0"/>
      <psa03 value="0.0315506726" flag="0"/>
      <psa10 value="0.0138491806" flag="0"/>
      <psa30 value="0.0009314238" flag="0"/>
    </comp>
    <comp name="--.HHN">
      <acc value="0.0151619920" flag="0"/>
      <vel value="0.0112112428" flag="0"/>
      <psa03 value="0.0439226618" flag="0"/>
      <psa10 value="0.0142630102" flag="0"/>
      <psa30 value="0.0008110415" flag="0"/>
    </comp>
    <comp name="--.HHZ">
      <acc value="0.0070745305" flag="0"/>
      <vel value="0.0056973694" flag="0"/>
      <psa03 value="0.0189932887" flag="0"/>
      <psa10 value="0.0083001980" flag="0"/>
      <psa30 value="0.0004891173" flag="0"/>
    </comp>
  </station>
  <station code="VISG" name="VISG" netid="IV" insttype="" commtype="DIG" lat="44.189" lon="11.4343">
    <comp name="--.HHE">
      <acc value="0.0030854978" flag="0"/>
      <vel value="0.0017683625" flag="0"/>
      <psa03 value="0.0074972006" flag="0"/>
      <psa10 value="0.0023014501" flag="0"/>
      <psa30 value="0.0001107542" flag="0"/>
    </comp>
    <comp name="--.HHN">
      <acc value="0.0025649990" flag="0"/>
      <vel value="0.0018133612" flag="0"/>
      <psa03 value="0.0083063943" flag="0"/>
      <psa10 value="0.0026228996" flag="0"/>
      <psa30 value="0.0001242259" flag="0"/>
    </comp>
    <comp name="--.HHZ">
      <acc value="0.0020110993" flag="0"/>
      <vel value="0.0010793728" flag="0"/>
      <psa03 value="0.0050550645" flag="0"/>
      <psa10 value="0.0015409068" flag="0"/>
      <psa30 value="0.0000917592" flag="0"/>
    </comp>
  </station>
  <station code="VMGN" name="VMGN" netid="IV" insttype="" commtype="DIG" lat="43.9545" lon="11.5327">
    <comp name="--.HHE">
      <acc value="0.0044317115" flag="0"/>
      <vel value="0.0028256463" flag="0"/>
      <psa03 value="0.0150131704" flag="0"/>
      <psa10 value="0.0042316065" flag="0"/>
      <psa30 value="0.0003335104" flag="0"/>
    </comp>
    <comp name="--.HHN">
      <acc value="0.0051792900" flag="0"/>
      <vel value="0.0038026097" flag="0"/>
      <psa03 value="0.0114216603" flag="0"/>
      <psa10 value="0.0072339500" flag="0"/>
      <psa30 value="0.0005875084" flag="0"/>
    </comp>
    <comp name="--.HHZ">
      <acc value="0.0060164500" flag="0"/>
      <vel value="0.0031712313" flag="0"/>
      <psa03 value="0.0105125679" flag="0"/>
      <psa10 value="0.0029478220" flag="0"/>
      <psa30 value="0.0004080776" flag="0"/>
    </comp>
  </station>
  <station code="ZCCA" name="ZCCA" netid="IV" insttype="" commtype="DIG" lat="44.3509" lon="10.9765">
    <comp name="--.HHE">
      <acc value="0.0198850707" flag="0"/>
      <vel value="0.0134540009" flag="0"/>
