<?xml version="1.0" encoding="UTF-8" standalone="yes"?>
<!DOCTYPE earthquake SYSTEM "stationlist.dtd">
<stationlist created="" xmlns="ch.ethz.sed.shakemap.usgs.xml">
  <station code="FX01" name="FX01" netid="1J" insttype="" lat="37.0586" lon="15.2964">
    <comp name="--.HHE">
      <acc value="0.1015944784" flag="0"/>
      <vel value="0.0386614897" flag="0"/>
      <psa03 value="0.1281803212" flag="0"/>
      <psa10 value="0.0614155194" flag="0"/>
      <psa30 value="0.0025459597" flag="0"/>
    </comp>
    <comp name="--.HHN">
      <acc value="0.0965175363" flag="0"/>
      <vel value="0.0204728939" flag="0"/>
      <psa03 value="0.1041231684" flag="0"/>
      <psa10 value="0.0145810092" flag="0"/>
      <psa30 value="0.0010712248" flag="0"/>
    </comp>
    <comp name="--.HHZ">
      <acc value="0.0637410770" flag="0"/>
      <vel value="0.0232279872" flag="0"/>
      <psa03 value="0.0513942990" flag="0"/>
      <psa10 value="0.0312504318" flag="0"/>
      <psa30 value="0.0030537475" flag="0"/>
    </comp>
  </station>
  <station code="FX02" name="FX02" netid="1J" insttype="" lat="37.1775" lon="15.1357">
    <comp name="--.HHE">
      <acc value="0.2705184582" flag="0"/>
      <vel value="0.0559093292" flag="0"/>
      <psa03 value="0.1285746840" flag="0"/>
      <psa10 value="0.0270210539" flag="0"/>
      <psa30 value="0.0019918409" flag="0"/>
    </comp>
    <comp name="--.HHZ">
      <acc value="0.2924766407" flag="0"/>
      <vel value="0.0441126070" flag="0"/>
      <psa03 value="0.1169161966" flag="0"/>
      <psa10 value="0.0149288464" flag="0"/>
      <psa30 value="0.0015986045" flag="0"/>
    </comp>
    <comp name="--.HHN">
      <acc value="0.1800484459" flag="0"/>
      <vel value="0.0391093973" flag="0"/>
      <psa03 value="0.1413536374" flag="0"/>
      <psa10 value="0.0186641938" flag="0"/>
      <psa30 value="0.0013212770" flag="0"/>
    </comp>
  </station>
  <station code="FX03" name="FX03" netid="1J" insttype="" lat="37.2992" lon="15.0017">
    <comp name="--.HHE">
      <acc value="0.3753420968" flag="0"/>
      <vel value="0.1169924729" flag="0"/>
      <psa03 value="0.4685528255" flag="0"/>
      <psa10 value="0.0511766035" flag="0"/>
      <psa30 value="0.0042337415" flag="0"/>
    </comp>
    <comp name="--.HHN">
      <acc value="0.7338090684" flag="0"/>
      <vel value="0.2044102294" flag="0"/>
      <psa03 value="0.8429997461" flag="0"/>
      <psa10 value="0.0482066523" flag="0"/>
      <psa30 value="0.0040481960" flag="0"/>
    </comp>
    <comp name="--.HHZ">
      <acc value="0.2933952809" flag="0"/>
      <vel value="0.0515597683" flag="0"/>
      <psa03 value="0.2465342523" flag="0"/>
      <psa10 value="0.0179833086" flag="0"/>
      <psa30 value="0.0013692879" flag="0"/>
    </comp>
  </station>
  <station code="FX04" name="FX04" netid="1J" insttype="" lat="37.4261" lon="15.0431">
    <comp name="--.HHZ">
      <acc value="0.1928648207" flag="0"/>
      <vel value="0.0315302142" flag="0"/>
      <psa03 value="0.1112940347" flag="0"/>
      <psa10 value="0.0258792188" flag="0"/>
      <psa30 value="0.0037279393" flag="0"/>
    </comp>
    <comp name="--.HHE">
      <acc value="0.1880847961" flag="0"/>
      <vel value="0.1031961441" flag="0"/>
      <psa03 value="0.3459668812" flag="0"/>
      <psa10 value="0.0807638650" flag="0"/>
      <psa30 value="0.0063338539" flag="0"/>
    </comp>
    <comp name="--.HHN">
      <acc value="0.1590670773" flag="0"/>
      <vel value="0.0703898271" flag="0"/>
      <psa03 value="0.3008086241" flag="0"/>
      <psa10 value="0.0469247268" flag="0"/>
      <psa30 value="0.0043551349" flag="0"/>
    </comp>
  </station>
  <station code="FX07" name="FX07" netid="1J" insttype="" lat="37.5521" lon="15.1452">
    <comp name="--.HHE">
      <acc value="0.0565220946" flag="0"/>
      <vel value="0.0288935229" flag="0"/>
      <psa03 value="0.1276767538" flag="0"/>
      <psa10 value="0.0316615397" flag="0"/>
      <psa30 value="0.0021882977" flag="0"/>
    </comp>
    <comp name="--.HHZ">
      <acc value="0.0496945222" flag="0"/>
      <vel value="0.0150444340" flag="0"/>
      <psa03 value="0.0836667236" flag="0"/>
      <psa10 value="0.0237767313" flag="0"/>
      <psa30 value="0.0012660741" flag="0"/>
    </comp>
    <comp name="--.HHN">
      <acc value="0.0476604938" flag="0"/>
      <vel value="0.0212569854" flag="0"/>
      <psa03 value="0.1048128717" flag="0"/>
      <psa10 value="0.0236926373" flag="0"/>
      <psa30 value="0.0023385905" flag="0"/>
    </comp>
  </station>
  <station code="FX09" name="FX09" netid="1J" insttype="" lat="37.8203" lon="15.2664">
    <comp name="--.HHZ">
      <acc value="0.0117915645" flag="0"/>
      <vel value="0.0061304824" flag="0"/>
      <psa03 value="0.0447558499" flag="0"/>
      <psa10 value="0.0058374886" flag="0"/>
      <psa30 value="0.0005918963" flag="0"/>
    </comp>
    <comp name="--.HHE">
      <acc value="0.0179319667" flag="0"/>
      <vel value="0.0082658304" flag="0"/>
      <psa03 value="0.0547032566" flag="0"/>
      <psa10 value="0.0097743140" flag="0"/>
      <psa30 value="0.0009325477" flag="0"/>
    </comp>
    <comp name="--.HHN">
      <acc value="0.0192768254" flag="0"/>
      <vel value="0.0067816936" flag="0"/>
      <psa03 value="0.0446110242" flag="0"/>
      <psa10 value="0.0086059994" flag="0"/>
      <psa30 value="0.0010891296" flag="0"/>
    </comp>
  </station>
  <station code="ACATE" name="ACATE" netid="IV" insttype="" lat="37.024" lon="14.5006">
    <comp name="--.HNE">
      <acc value="4.5441079160" flag="0"/>
      <vel value="0.8924482544" flag="0"/>
      <psa03 value="3.3754264298" flag="0"/>
      <psa10 value="0.3914311554" flag="0"/>
      <psa30 value="0.0360909007" flag="0"/>
    </comp>
    <comp name="--.HNN">
      <acc value="3.4736266286" flag="0"/>
      <vel value="1.1898599102" flag="0"/>
      <psa03 value="4.4752647931" flag="0"/>
      <psa10 value="0.4650757008" flag="0"/>
      <psa30 value="0.0535858398" flag="0"/>
    </comp>
    <comp name="--.HNZ">
      <acc value="2.5444576054" flag="0"/>
      <vel value="0.5457075964" flag="0"/>
      <psa03 value="1.2620132523" flag="0"/>
      <psa10 value="0.1519901085" flag="0"/>
      <psa30 value="0.0120486063" flag="0"/>
    </comp>
  </station>
  <station code="AIO" name="AIO" netid="IV" insttype="" lat="37.9712" lon="15.233">
    <comp name="--.HHE">
      <acc value="0.0458606290" flag="0"/>
      <vel value="0.0184563550" flag="0"/>
      <psa03 value="0.0731423762" flag="0"/>
      <psa10 value="0.0114267832" flag="0"/>
      <psa30 value="0.0009089994" flag="0"/>
    </comp>
    <comp name="--.HHN">
      <acc value="0.0446975193" flag="0"/>
      <vel value="0.0178478317" flag="0"/>
      <psa03 value="0.1069925061" flag="0"/>
      <psa10 value="0.0093281858" flag="0"/>
      <psa30 value="0.0006580174" flag="0"/>
    </comp>
    <comp name="--.HHZ">
      <acc value="0.0150075856" flag="0"/>
      <vel value="0.0067039955" flag="0"/>
      <psa03 value="0.0302483104" flag="0"/>
      <psa10 value="0.0055723172" flag="0"/>
      <psa30 value="0.0003541296" flag="0"/>
    </comp>
  </station>
  <station code="ALJA" name="ALJA" netid="IV" insttype="" lat="37.749" lon="13.7537">
    <comp name="--.HHE">
      <acc value="0.0122203153" flag="0"/>
      <vel value="0.0075194521" flag="0"/>
      <psa03 value="0.0378743396" flag="0"/>
      <psa10 value="0.0054173742" flag="0"/>
      <psa30 value="0.0010693562" flag="0"/>
    </comp>
    <comp name="--.HHN">
      <acc value="0.0105085951" flag="0"/>
      <vel value="0.0044993682" flag="0"/>
      <psa03 value="0.0315450060" flag="0"/>
      <psa10 value="0.0029367819" flag="0"/>
      <psa30 value="0.0006215459" flag="0"/>
    </comp>
    <comp name="--.HHZ">
      <acc value="0.0118175997" flag="0"/>
      <vel value="0.0062363877" flag="0"/>
      <psa03 value="0.0233859093" flag="0"/>
      <psa10 value="0.0042442617" flag="0"/>
      <psa30 value="0.0007554017" flag="0"/>
    </comp>
  </station>
  <station code="CLTA" name="CLTA" netid="IV" insttype="" lat="37.158" lon="13.962">
    <comp name="--.HHN">
      <acc value="0.0423696380" flag="0"/>
      <vel value="0.0182405257" flag="0"/>
      <psa03 value="0.0786231828" flag="0"/>
      <psa10 value="0.0087515185" flag="0"/>
      <psa30 value="0.0014149320" flag="0"/>
    </comp>
    <comp name="--.HHZ">
      <acc value="0.0291959810" flag="0"/>
      <vel value="0.0139894700" flag="0"/>
      <psa03 value="0.0611275023" flag="0"/>
      <psa10 value="0.0084982359" flag="0"/>
      <psa30 value="0.0009257428" flag="0"/>
    </comp>
    <comp name="--.HHE">
      <acc value="0.0415095210" flag="0"/>
      <vel value="0.0159171591" flag="0"/>
      <psa03 value="0.0677992845" flag="0"/>
      <psa10 value="0.0093440248" flag="0"/>
      <psa30 value="0.0014992269" flag="0"/>
    </comp>
  </station>
  <station code="CPTP" name="CPTP" netid="IV" insttype="" lat="37.4075" lon="14.1625">
    <comp name="--.HHE">
      <acc value="0.0278451297" flag="0"/>
      <vel value="0.0139346925" flag="0"/>
      <psa03 value="0.0752248814" flag="0"/>
      <psa10 value="0.0206410323" flag="0"/>
      <psa30 value="0.0022603929" flag="0"/>
    </comp>
    <comp name="--.HHN">
      <acc value="0.0325767042" flag="0"/>
      <vel value="0.0221415329" flag="0"/>
      <psa03 value="0.0752812519" flag="0"/>
      <psa10 value="0.0245309423" flag="0"/>
      <psa30 value="0.0033125843" flag="0"/>
    </comp>
    <comp name="--.HHZ">
      <acc value="0.0446291351" flag="0"/>
      <vel value="0.0142384509" flag="0"/>
      <psa03 value="0.0575655950" flag="0"/>
      <psa10 value="0.0140791032" flag="0"/>
      <psa30 value="0.0022473066" flag="0"/>
    </comp>
  </station>
  <station code="CSLB" name="CSLB" netid="IV" insttype="" lat="37.9374" lon="14.0579">
    <comp name="--.HHE">
      <acc value="0.0170940375" flag="0"/>
      <vel value="0.0094662246" flag="0"/>
      <psa03 value="0.0634210201" flag="0"/>
      <psa10 value="0.0050586710" flag="0"/>
      <psa30 value="0.0004712662" flag="0"/>
    </comp>
    <comp name="--.HHN">
      <acc value="0.0104425281" flag="0"/>
      <vel value="0.0058714812" flag="0"/>
      <psa03 value="0.0320129067" flag="0"/>
      <psa10 value="0.0042892964" flag="0"/>
      <psa30 value="0.0003786964" flag="0"/>
    </comp>
    <comp name="--.HHZ">
      <acc value="0.0172660267" flag="0"/>
      <vel value="0.0072043514" flag="0"/>
      <psa03 value="0.0642373071" flag="0"/>
      <psa10 value="0.0035211349" flag="0"/>
      <psa30 value="0.0002155237" flag="0"/>
    </comp>
  </station>
  <station code="ECBD" name="ECBD" netid="IV" insttype="" lat="37.7802" lon="15.0865">
    <comp name="--.HHE">
      <acc value="0.0675030849" flag="0"/>
      <vel value="0.0198888805" flag="0"/>
      <psa03 value="0.0987245620" flag="0"/>
      <psa10 value="0.0162002591" flag="0"/>
      <psa30 value="0.0011107105" flag="0"/>
    </comp>
    <comp name="--.HHZ">
      <acc value="0.0323013220" flag="0"/>
      <vel value="0.0084758039" flag="0"/>
      <psa03 value="0.0438652079" flag="0"/>
      <psa10 value="0.0099129582" flag="0"/>
      <psa30 value="0.0005165492" flag="0"/>
    </comp>
    <comp name="--.HHN">
      <acc value="0.0739450892" flag="0"/>
      <vel value="0.0182072782" flag="0"/>
      <psa03 value="0.0792975859" flag="0"/>
      <psa10 value="0.0138887545" flag="0"/>
      <psa30 value="0.0008453794" flag="0"/>
    </comp>
  </station>
  <station code="ECHR" name="ECHR" netid="IV" insttype="" lat="37.6863" lon="14.9129">
    <comp name="--.HHN">
      <acc value="0.0505593486" flag="0"/>
      <vel value="0.0244104390" flag="0"/>
      <psa03 value="0.1301210984" flag="0"/>
      <psa10 value="0.0236988030" flag="0"/>
      <psa30 value="0.0015735238" flag="0"/>
    </comp>
    <comp name="--.HHE">
      <acc value="0.0512898841" flag="0"/>
      <vel value="0.0339900462" flag="0"/>
      <psa03 value="0.1004062967" flag="0"/>
      <psa10 value="0.0226188901" flag="0"/>
      <psa30 value="0.0019986032" flag="0"/>
    </comp>
    <comp name="--.HHZ">
      <acc value="0.0445775137" flag="0"/>
      <vel value="0.0153218416" flag="0"/>
      <psa03 value="0.0790975679" flag="0"/>
      <psa10 value="0.0092689629" flag="0"/>
      <psa30 value="0.0007769518" flag="0"/>
    </comp>
  </station>
  <station code="ECTS" name="ECTS" netid="IV" insttype="" lat="37.882" lon="15.121">
    <comp name="--.HHN">
      <acc value="0.0370162023" flag="0"/>
      <vel value="0.0136312403" flag="0"/>
      <psa03 value="0.0820482860" flag="0"/>
      <psa10 value="0.0104622498" flag="0"/>
      <psa30 value="0.0007244386" flag="0"/>
    </comp>
    <comp name="--.HHE">
      <acc value="0.0346274669" flag="0"/>
      <vel value="0.0130959541" flag="0"/>
      <psa03 value="0.0878744487" flag="0"/>
      <psa10 value="0.0097053300" flag="0"/>
      <psa30 value="0.0012754786" flag="0"/>
    </comp>
    <comp name="--.HHZ">
      <acc value="0.0176066361" flag="0"/>
      <vel value="0.0064600060" flag="0"/>
      <psa03 value="0.0401430846" flag="0"/>
      <psa10 value="0.0053342664" flag="0"/>
      <psa30 value="0.0002640903" flag="0"/>
    </comp>
  </station>
  <station code="ECZM" name="ECZM" netid="IV" insttype="" lat="37.7313" lon="14.9041">
    <comp name="--.HHE">
      <acc value="0.0527441992" flag="0"/>
      <vel value="0.0300683471" flag="0"/>
      <psa03 value="0.1640562806" flag="0"/>
      <psa10 value="0.0437943098" flag="0"/>
      <psa30 value="0.0021483821" flag="0"/>
    </comp>
    <comp name="--.HHN">
      <acc value="0.0657508032" flag="0"/>
      <vel value="0.0347355012" flag="0"/>
      <psa03 value="0.1825254496" flag="0"/>
      <psa10 value="0.0428279519" flag="0"/>
      <psa30 value="0.0021317878" flag="0"/>
    </comp>
    <comp name="--.HHZ">
      <acc value="0.0604541406" flag="0"/>
      <vel value="0.0198042179" flag="0"/>
      <psa03 value="0.1362578115" flag="0"/>
      <psa10 value="0.0118399444" flag="0"/>
      <psa30 value="0.0009472938" flag="0"/>
    </comp>
  </station>
  <station code="EMCN" name="EMCN" netid="IV" insttype="" lat="37.7912" lon="15.0336">
    <comp name="--.HHN">
      <acc value="0.0814070792" flag="0"/>
      <vel value="0.0170896060" flag="0"/>
      <psa03 value="0.0778572454" flag="0"/>
      <psa10 value="0.0178710578" flag="0"/>
      <psa30 value="0.0008519372" flag="0"/>
    </comp>
    <comp name="--.HHE">
      <acc value="0.0970397427" flag="0"/>
      <vel value="0.0260211076" flag="0"/>
      <psa03 value="0.1083013285" flag="0"/>
      <psa10 value="0.0177501046" flag="0"/>
      <psa30 value="0.0010975734" flag="0"/>
    </comp>
    <comp name="--.HHZ">
      <acc value="0.0693963407" flag="0"/>
      <vel value="0.0132924768" flag="0"/>
      <psa03 value="0.0715346352" flag="0"/>
      <psa10 value="0.0117814257" flag="0"/>
      <psa30 value="0.0004645470" flag="0"/>
    </comp>
  </station>
  <station code="EMFO" name="EMFO" netid="IV" insttype="" lat="37.7357" lon="15.0902">
    <comp name="--.HHE">
      <acc value="0.0695327588" flag="0"/>
      <vel value="0.0185636154" flag="0"/>
      <psa03 value="0.1233556103" flag="0"/>
      <psa10 value="0.0105111165" flag="0"/>
      <psa30 value="0.0010658193" flag="0"/>
    </comp>
    <comp name="--.HHZ">
      <acc value="0.0387127348" flag="0"/>
      <vel value="0.0150756950" flag="0"/>
      <psa03 value="0.0692057753" flag="0"/>
      <psa10 value="0.0057527976" flag="0"/>
      <psa30 value="0.0004972492" flag="0"/>
    </comp>
    <comp name="--.HHN">
      <acc value="0.0519374396" flag="0"/>
      <vel value="0.0173471582" flag="0"/>
      <psa03 value="0.1065219027" flag="0"/>
      <psa10 value="0.0133163203" flag="0"/>
      <psa30 value="0.0008023285" flag="0"/>
    </comp>
  </station>
  <station code="EMFS" name="EMFS" netid="IV" insttype="" lat="37.7196" lon="14.9979">
    <comp name="--.HHN">
      <acc value="0.1096789531" flag="0"/>
      <vel value="0.0310902224" flag="0"/>
      <psa03 value="0.1683175964" flag="0"/>
      <psa10 value="0.0213207038" flag="0"/>
      <psa30 value="0.0017888089" flag="0"/>
    </comp>
    <comp name="--.HHE">
      <acc value="0.0846835697" flag="0"/>
      <vel value="0.0299582156" flag="0"/>
      <psa03 value="0.1993705684" flag="0"/>
      <psa10 value="0.0224092241" flag="0"/>
      <psa30 value="0.0015466852" flag="0"/>
    </comp>
    <comp name="--.HHZ">
      <acc value="0.0675222133" flag="0"/>
      <vel value="0.0193889029" flag="0"/>
      <psa03 value="0.1103273887" flag="0"/>
      <psa10 value="0.0144746488" flag="0"/>
      <psa30 value="0.0010006646" flag="0"/>
    </comp>
  </station>
  <station code="EMNR" name="EMNR" netid="IV" insttype="" lat="37.8168" lon="15.026">
    <comp name="--.HHE">
      <acc value="0.0873508879" flag="0"/>
      <vel value="0.0311459780" flag="0"/>
      <psa03 value="0.1439610489" flag="0"/>
      <psa10 value="0.0201583445" flag="0"/>
      <psa30 value="0.0014786920" flag="0"/>
    </comp>
    <comp name="--.HHN">
      <acc value="0.0640305596" flag="0"/>
      <vel value="0.0211273009" flag="0"/>
      <psa03 value="0.1499407261" flag="0"/>
      <psa10 value="0.0252577936" flag="0"/>
      <psa30 value="0.0013984688" flag="0"/>
    </comp>
    <comp name="--.HHZ">
      <acc value="0.0644569491" flag="0"/>
      <vel value="0.0176305094" flag="0"/>
      <psa03 value="0.0911979304" flag="0"/>
      <psa10 value="0.0106836890" flag="0"/>
      <psa30 value="0.0006492601" flag="0"/>
    </comp>
  </station>
  <station code="EMPL" name="EMPL" netid="IV" insttype="" lat="37.679" lon="14.9703">
    <comp name="--.HHN">
      <acc value="0.2663186271" flag="0"/>
      <vel value="0.0715308305" flag="0"/>
      <psa03 value="0.4420311344" flag="0"/>
      <psa10 value="0.0279810169" flag="0"/>
      <psa30 value="0.0016260733" flag="0"/>
    </comp>
    <comp name="--.HHE">
      <acc value="0.1755814030" flag="0"/>
      <vel value="0.0656374261" flag="0"/>
      <psa03 value="0.3788459289" flag="0"/>
      <psa10 value="0.0187546869" flag="0"/>
      <psa30 value="0.0019980212" flag="0"/>
    </comp>
    <comp name="--.HHZ">
      <acc value="0.2414509330" flag="0"/>
      <vel value="0.0630167369" flag="0"/>
      <psa03 value="0.2405695675" flag="0"/>
      <psa10 value="0.0151136999" flag="0"/>
      <psa30 value="0.0010665101" flag="0"/>
    </comp>
  </station>
  <station code="EMSA" name="EMSA" netid="IV" insttype="" lat="37.498" lon="14.945">
    <comp name="--.HHE">
      <acc value="0.1032096625" flag="0"/>
      <vel value="0.0648242810" flag="0"/>
      <psa03 value="0.2256467223" flag="0"/>
      <psa10 value="0.0817773343" flag="0"/>
      <psa30 value="0.0068356177" flag="0"/>
    </comp>
    <comp name="--.HHN">
      <acc value="0.0939346218" flag="0"/>
      <vel value="0.0553852409" flag="0"/>
      <psa03 value="0.3112898391" flag="0"/>
      <psa10 value="0.0605419308" flag="0"/>
      <psa30 value="0.0048318607" flag="0"/>
    </comp>
    <comp name="--.HHZ">
      <acc value="0.0652426298" flag="0"/>
      <vel value="0.0281778767" flag="0"/>
      <psa03 value="0.1336073590" flag="0"/>
      <psa10 value="0.0348036088" flag="0"/>
      <psa30 value="0.0034949518" flag="0"/>
    </comp>
  </station>
  <station code="EMSG" name="EMSG" netid="IV" insttype="" lat="37.8208" lon="14.9498">
    <comp name="--.HHE">
      <acc value="0.0607228684" flag="0"/>
      <vel value="0.0276232565" flag="0"/>
      <psa03 value="0.1151405007" flag="0"/>
      <psa10 value="0.0142621908" flag="0"/>
      <psa30 value="0.0018394610" flag="0"/>
    </comp>
    <comp name="--.HHN">
      <acc value="0.0672071633" flag="0"/>
      <vel value="0.0234813406" flag="0"/>
      <psa03 value="0.1201894921" flag="0"/>
      <psa10 value="0.0261352164" flag="0"/>
      <psa30 value="0.0016567600" flag="0"/>
    </comp>
