<?xml version="1.0" encoding="UTF-8" standalone="yes"?>
<!DOCTYPE earthquake SYSTEM "stationlist.dtd">
<stationlist created="" xmlns="ch.ethz.sed.shakemap.usgs.xml">
  <station code="CELI" name="CELI" netid="IV" insttype="" lat="39.4027" lon="16.5088">
    <comp name="--.HHN">
      <acc value="0.0014450169" flag="0"/>
      <vel value="0.0011872544" flag="0"/>
      <psa03 value="0.0032432183" flag="0"/>
      <psa10 value="0.0011848574" flag="0"/>
      <psa30 value="0.0000956571" flag="0"/>
    </comp>
    <comp name="--.HHE">
      <acc value="0.0016916050" flag="0"/>
      <vel value="0.0009897686" flag="0"/>
      <psa03 value="0.0020586637" flag="0"/>
      <psa10 value="0.0014416796" flag="0"/>
      <psa30 value="0.0001260010" flag="0"/>
    </comp>
    <comp name="--.HHZ">
      <acc value="0.0068225739" flag="0"/>
      <vel value="0.0017852386" flag="0"/>
      <psa03 value="0.0039947955" flag="0"/>
      <psa10 value="0.0005950895" flag="0"/>
      <psa30 value="0.0000765158" flag="0"/>
    </comp>
  </station>
  <station code="CET2" name="CET2" netid="IV" insttype="" lat="39.5288" lon="15.9546">
    <comp name="--.HHE">
      <acc value="0.0091348977" flag="0"/>
      <vel value="0.0033179701" flag="0"/>
      <psa03 value="0.0044160693" flag="0"/>
      <psa10 value="0.0043205783" flag="0"/>
      <psa30 value="0.0002831402" flag="0"/>
    </comp>
    <comp name="--.HHN">
      <acc value="0.0114429821" flag="0"/>
      <vel value="0.0023501537" flag="0"/>
      <psa03 value="0.0084960802" flag="0"/>
      <psa10 value="0.0029539300" flag="0"/>
      <psa30 value="0.0001081812" flag="0"/>
    </comp>
    <comp name="--.HHZ">
      <acc value="0.0122343107" flag="0"/>
      <vel value="0.0020473200" flag="0"/>
      <psa03 value="0.0092887912" flag="0"/>
      <psa10 value="0.0006356537" flag="0"/>
      <psa30 value="0.0000739220" flag="0"/>
    </comp>
  </station>
  <station code="GIZZ" name="GIZZ" netid="IV" insttype="" lat="38.9798" lon="16.2078">
    <comp name="--.HHE">
      <acc value="0.0110251826" flag="0"/>
      <vel value="0.0023728560" flag="0"/>
      <psa03 value="0.0137245658" flag="0"/>
      <psa10 value="0.0012723542" flag="0"/>
      <psa30 value="0.0001074200" flag="0"/>
    </comp>
    <comp name="--.HHZ">
      <acc value="0.0153907733" flag="0"/>
      <vel value="0.0022667554" flag="0"/>
      <psa03 value="0.0094128750" flag="0"/>
      <psa10 value="0.0005850855" flag="0"/>
      <psa30 value="0.0000489185" flag="0"/>
    </comp>
    <comp name="--.HHN">
      <acc value="0.0136684672" flag="0"/>
      <vel value="0.0027069744" flag="0"/>
      <psa03 value="0.0083314663" flag="0"/>
      <psa10 value="0.0014355756" flag="0"/>
      <psa30 value="0.0001205551" flag="0"/>
    </comp>
  </station>
  <station code="PIPA" name="PIPA" netid="IV" insttype="" lat="39.4851" lon="16.8158">
    <comp name="--.HHZ">
      <acc value="0.0093068392" flag="0"/>
      <vel value="0.0015632874" flag="0"/>
      <psa03 value="0.0041292787" flag="0"/>
      <psa10 value="0.0006698328" flag="0"/>
      <psa30 value="0.0000972706" flag="0"/>
    </comp>
    <comp name="--.HHE">
      <acc value="0.0071543002" flag="0"/>
      <vel value="0.0020232666" flag="0"/>
      <psa03 value="0.0118293355" flag="0"/>
      <psa10 value="0.0010913111" flag="0"/>
      <psa30 value="0.0001503710" flag="0"/>
    </comp>
    <comp name="--.HHN">
      <acc value="0.0103921976" flag="0"/>
      <vel value="0.0022902067" flag="0"/>
      <psa03 value="0.0063308977" flag="0"/>
      <psa10 value="0.0008600739" flag="0"/>
      <psa30 value="0.0001040166" flag="0"/>
    </comp>
  </station>
  <station code="SALB" name="SALB" netid="IV" insttype="" lat="39.8772" lon="16.3459">
    <comp name="--.HHE">
      <acc value="0.0029042068" flag="0"/>
      <vel value="0.0008628050" flag="0"/>
      <psa03 value="0.0045056813" flag="0"/>
      <psa10 value="0.0007860347" flag="0"/>
      <psa30 value="0.0001053556" flag="0"/>
    </comp>
    <comp name="--.HHN">
      <acc value="0.0023141808" flag="0"/>
      <vel value="0.0010006249" flag="0"/>
      <psa03 value="0.0043270423" flag="0"/>
      <psa10 value="0.0006771283" flag="0"/>
      <psa30 value="0.0000687083" flag="0"/>
    </comp>
    <comp name="--.HHZ">
      <acc value="0.0020979630" flag="0"/>
      <vel value="0.0006575903" flag="0"/>
      <psa03 value="0.0029909950" flag="0"/>
      <psa10 value="0.0002890466" flag="0"/>
      <psa30 value="0.0000669666" flag="0"/>
    </comp>
  </station>
  <station code="SELL" name="SELL" netid="IV" insttype="" lat="38.983" lon="16.6279">
    <comp name="--.HHE">
      <acc value="0.0029597140" flag="0"/>
      <vel value="0.0012404349" flag="0"/>
      <psa03 value="0.0085163157" flag="0"/>
      <psa10 value="0.0010039110" flag="0"/>
      <psa30 value="0.0000568089" flag="0"/>
    </comp>
    <comp name="--.HHZ">
      <acc value="0.0066261277" flag="0"/>
      <vel value="0.0017625322" flag="0"/>
      <psa03 value="0.0065009799" flag="0"/>
      <psa10 value="0.0006532622" flag="0"/>
      <psa30 value="0.0000548055" flag="0"/>
    </comp>
    <comp name="--.HHN">
      <acc value="0.0036161844" flag="0"/>
      <vel value="0.0009204603" flag="0"/>
      <psa03 value="0.0079822536" flag="0"/>
      <psa10 value="0.0008253918" flag="0"/>
      <psa30 value="0.0000357232" flag="0"/>
    </comp>
  </station>
  <station code="SERS" name="SERS" netid="IV" insttype="" lat="39.0359" lon="16.6886">
    <comp name="--.HHN">
      <acc value="0.0101624502" flag="0"/>
      <vel value="0.0034223417" flag="0"/>
      <psa03 value="0.0171985385" flag="0"/>
      <psa10 value="0.0009324024" flag="0"/>
      <psa30 value="0.0000780844" flag="0"/>
    </comp>
    <comp name="--.HHE">
      <acc value="0.0058794525" flag="0"/>
      <vel value="0.0019807229" flag="0"/>
      <psa03 value="0.0115173696" flag="0"/>
      <psa10 value="0.0007331262" flag="0"/>
      <psa30 value="0.0001041827" flag="0"/>
    </comp>
    <comp name="--.HHZ">
      <acc value="0.0256577311" flag="0"/>
      <vel value="0.0080413814" flag="0"/>
      <psa03 value="0.0319593710" flag="0"/>
      <psa10 value="0.0017409257" flag="0"/>
      <psa30 value="0.0002072257" flag="0"/>
    </comp>
  </station>
  <station code="SGO" name="SGO" netid="IV" insttype="" lat="40.5605" lon="15.3074">
    <comp name="--.HHE">
      <acc value="0.0008745844" flag="0"/>
      <vel value="0.0001995920" flag="0"/>
      <psa03 value="0.0008426827" flag="0"/>
      <psa10 value="0.0001943183" flag="0"/>
      <psa30 value="0.0000306106" flag="0"/>
    </comp>
    <comp name="--.HHN">
      <acc value="0.0011186399" flag="0"/>
      <vel value="0.0004097736" flag="0"/>
      <psa03 value="0.0017461907" flag="0"/>
      <psa10 value="0.0005285654" flag="0"/>
      <psa30 value="0.0000850646" flag="0"/>
    </comp>
    <comp name="--.HHZ">
      <acc value="0.0009037942" flag="0"/>
      <vel value="0.0005371506" flag="0"/>
      <psa03 value="0.0022949497" flag="0"/>
      <psa10 value="0.0002773062" flag="0"/>
      <psa30 value="0.0000509450" flag="0"/>
    </comp>
  </station>
  <station code="SPS2" name="SPS2" netid="IV" insttype="" lat="39.291" lon="16.3388">
    <comp name="--.HHE">
      <acc value="0.0011724435" flag="0"/>
      <vel value="0.0004510921" flag="0"/>
      <psa03 value="0.0016791066" flag="0"/>
      <psa10 value="0.0003477371" flag="0"/>
      <psa30 value="0.0000222452" flag="0"/>
    </comp>
    <comp name="--.HHN">
      <acc value="0.0016188827" flag="0"/>
      <vel value="0.0004054062" flag="0"/>
      <psa03 value="0.0030770073" flag="0"/>
      <psa10 value="0.0004340743" flag="0"/>
      <psa30 value="0.0000192529" flag="0"/>
    </comp>
    <comp name="--.HHZ">
      <acc value="0.0019285037" flag="0"/>
      <vel value="0.0004527622" flag="0"/>
      <psa03 value="0.0017792514" flag="0"/>
      <psa10 value="0.0001947328" flag="0"/>
      <psa30 value="0.0000199092" flag="0"/>
    </comp>
  </station>
  <station code="TDS" name="TDS" netid="IV" insttype="" lat="39.6601" lon="16.3376">
    <comp name="--.HHE">
      <acc value="0.0015417218" flag="0"/>
      <vel value="0.0003473384" flag="0"/>
      <psa03 value="0.0015601288" flag="0"/>
      <psa10 value="0.0004156923" flag="0"/>
      <psa30 value="0.0000947982" flag="0"/>
    </comp>
    <comp name="--.HHN">
      <acc value="0.0006114274" flag="0"/>
      <vel value="0.0005335022" flag="0"/>
      <psa03 value="0.0009356057" flag="0"/>
      <psa10 value="0.0003862918" flag="0"/>
      <psa30 value="0.0001301382" flag="0"/>
    </comp>
    <comp name="--.HHZ">
      <acc value="0.0019193007" flag="0"/>
      <vel value="0.0006158806" flag="0"/>
      <psa03 value="0.0023344501" flag="0"/>
      <psa10 value="0.0002356912" flag="0"/>
      <psa30 value="0.0000673396" flag="0"/>
    </comp>
  </station>
  <station code="BIDON" name="BIDON" netid="XE" insttype="" lat="39.9457" lon="16.4559">
    <comp name="--.HHE">
      <acc value="0.0029313364" flag="0"/>
      <vel value="0.0015075749" flag="0"/>
      <psa03 value="0.0097546363" flag="0"/>
      <psa10 value="0.0018375920" flag="0"/>
      <psa30 value="0.0000962432" flag="0"/>
    </comp>
    <comp name="--.HHN">
      <acc value="0.0039354468" flag="0"/>
      <vel value="0.0019602623" flag="0"/>
      <psa03 value="0.0088900745" flag="0"/>
      <psa10 value="0.0022593518" flag="0"/>
      <psa30 value="0.0001872563" flag="0"/>
    </comp>
    <comp name="--.HHZ">
      <acc value="0.0016313424" flag="0"/>
      <vel value="0.0006922835" flag="0"/>
      <psa03 value="0.0046538277" flag="0"/>
      <psa10 value="0.0006977968" flag="0"/>
      <psa30 value="0.0000811117" flag="0"/>
    </comp>
  </station>
  <station code="FRASC" name="FRASC" netid="XE" insttype="" lat="39.8381" lon="16.2663">
    <comp name="--.HHE">
      <acc value="0.0016669303" flag="0"/>
      <vel value="0.0008267269" flag="0"/>
      <psa03 value="0.0029526400" flag="0"/>
      <psa10 value="0.0008850871" flag="0"/>
      <psa30 value="0.0001531566" flag="0"/>
    </comp>
    <comp name="--.HHZ">
      <acc value="0.0016557870" flag="0"/>
      <vel value="0.0005808940" flag="0"/>
      <psa03 value="0.0037775973" flag="0"/>
      <psa10 value="0.0003860255" flag="0"/>
      <psa30 value="0.0000733038" flag="0"/>
    </comp>
    <comp name="--.HHN">
      <acc value="0.0025199333" flag="0"/>
      <vel value="0.0008032967" flag="0"/>
      <psa03 value="0.0029070282" flag="0"/>
      <psa10 value="0.0007502110" flag="0"/>
      <psa30 value="0.0000932886" flag="0"/>
    </comp>
  </station>
  <station code="SHEVA" name="SHEVA" netid="XE" insttype="" lat="39.8153" lon="16.1677">
    <comp name="--.HNE">
      <acc value="0.0007913066" flag="0"/>
      <vel value="0.0006332291" flag="0"/>
      <psa03 value="0.0022773785" flag="0"/>
      <psa10 value="0.0004126377" flag="0"/>
      <psa30 value="0.0000494394" flag="0"/>
    </comp>
    <comp name="--.HNN">
      <acc value="0.0009789401" flag="0"/>
      <vel value="0.0004935417" flag="0"/>
      <psa03 value="0.0015438944" flag="0"/>
      <psa10 value="0.0005372419" flag="0"/>
      <psa30 value="0.0000880152" flag="0"/>
    </comp>
    <comp name="--.HNZ">
      <acc value="0.0007732455" flag="0"/>
      <vel value="0.0004178411" flag="0"/>
      <psa03 value="0.0013402240" flag="0"/>
      <psa10 value="0.0003055983" flag="0"/>
      <psa30 value="0.0001272349" flag="0"/>
    </comp>
  </station>
  <station code="ZIDIL" name="ZIDIL" netid="XE" insttype="" lat="39.7822" lon="16.2596">
    <comp name="--.HHE">
      <acc value="0.0028679936" flag="0"/>
      <vel value="0.0010857355" flag="0"/>
      <psa03 value="0.0034931559" flag="0"/>
      <psa10 value="0.0017677598" flag="0"/>
      <psa30 value="0.0001334992" flag="0"/>
    </comp>
    <comp name="--.HHN">
      <acc value="0.0014809661" flag="0"/>
      <vel value="0.0010916992" flag="0"/>
      <psa03 value="0.0040713150" flag="0"/>
      <psa10 value="0.0028802176" flag="0"/>
      <psa30 value="0.0001119344" flag="0"/>
    </comp>
    <comp name="--.HHZ">
      <acc value="0.0029010906" flag="0"/>
      <vel value="0.0006536159" flag="0"/>
      <psa03 value="0.0023094867" flag="0"/>
      <psa10 value="0.0010695951" flag="0"/>
      <psa30 value="0.0001086250" flag="0"/>
    </comp>
  </station>
</stationlist>
