<?xml version="1.0" encoding="UTF-8" standalone="yes"?>
<!DOCTYPE earthquake SYSTEM "stationlist.dtd">
<stationlist created="" xmlns="ch.ethz.sed.shakemap.usgs.xml">
  <station code="KARS" name="KARS" netid="KO" insttype="120s," lat="40.6152" lon="43.0937">
    <comp name="--.HHN">
      <acc value="0.0202207248" flag="0"/>
      <vel value="0.0097647939" flag="0"/>
      <psa03 value="0.0315432913" flag="0"/>
      <psa10 value="0.0108244269" flag="0"/>
      <psa30 value="0.0033703443" flag="0"/>
    </comp>
    <comp name="--.HHE">
      <acc value="0.0307820588" flag="0"/>
      <vel value="0.0135961346" flag="0"/>
      <psa03 value="0.0474361446" flag="0"/>
      <psa10 value="0.0220619046" flag="0"/>
      <psa30 value="0.0024314367" flag="0"/>
    </comp>
    <comp name="--.HHZ">
      <acc value="0.0160879999" flag="0"/>
      <vel value="0.0096829185" flag="0"/>
      <psa03 value="0.0213973078" flag="0"/>
      <psa10 value="0.0239867335" flag="0"/>
      <psa30 value="0.0017552514" flag="0"/>
    </comp>
  </station>
</stationlist>
