<?xml version="1.0" encoding="UTF-8" standalone="yes"?>
<!DOCTYPE earthquake SYSTEM "stationlist.dtd">
<stationlist created="" xmlns="ch.ethz.sed.shakemap.usgs.xml">
  <station code="TASB" name="TASB" netid="KO" insttype="120s," lat="39.9839" lon="44.2384">
    <comp name="--.HHZ">
      <acc value="0.0111259577" flag="0"/>
      <vel value="0.0058901897" flag="0"/>
      <psa03 value="0.0254916175" flag="0"/>
      <psa10 value="0.0050201366" flag="0"/>
      <psa30 value="0.0009192514" flag="0"/>
    </comp>
  </station>
</stationlist>
