<?xml version="1.0" encoding="UTF-8" standalone="yes"?>
<!DOCTYPE earthquake SYSTEM "stationlist.dtd">
<stationlist created="" xmlns="ch.ethz.sed.shakemap.usgs.xml">
  <station code="BORA" name="BORA" netid="TU" insttype="T" commtype="DIG" lat="39.8801" lon="30.4534">
    <comp name="--.HHZ">
      <acc value="0.0188732137" flag="0"/>
      <vel value="0.0045021139" flag="0"/>
      <psa03 value="0.0155364371" flag="0"/>
      <psa10 value="0.0029216978" flag="0"/>
      <psa30 value="0.0004070645" flag="0"/>
    </comp>
    <comp name="--.HHE">
      <acc value="0.0249317198" flag="0"/>
      <vel value="0.0094220608" flag="0"/>
      <psa03 value="0.0508194844" flag="0"/>
      <psa10 value="0.0039712072" flag="0"/>
      <psa30 value="0.0009549186" flag="0"/>
    </comp>
    <comp name="--.HHN">
      <acc value="0.0182629348" flag="0"/>
      <vel value="0.0082312400" flag="0"/>
      <psa03 value="0.0296713436" flag="0"/>
      <psa10 value="0.0064682682" flag="0"/>
      <psa30 value="0.0011206877" flag="0"/>
    </comp>
  </station>
</stationlist>
