<?xml version="1.0" encoding="UTF-8" standalone="yes"?>
<!DOCTYPE earthquake SYSTEM "stationlist.dtd">
<stationlist created="" xmlns="ch.ethz.sed.shakemap.usgs.xml">
  <station code="BAC" name="BAC" netid="RO" insttype="2.5V" lat="46.5669" lon="26.9124">
    <comp name="--.HNE">
      <acc value="0.1554805618" flag="0"/>
      <vel value="0.0677103061" flag="0"/>
      <psa03 value="0.2755138588" flag="0"/>
      <psa10 value="0.0389618086" flag="0"/>
      <psa30 value="0.0029715240" flag="0"/>
    </comp>
    <comp name="--.HNN">
      <acc value="0.2140229763" flag="0"/>
      <vel value="0.0788770627" flag="0"/>
      <psa03 value="0.1966244308" flag="0"/>
      <psa10 value="0.0306921904" flag="0"/>
      <psa30 value="0.0034868989" flag="0"/>
    </comp>
    <comp name="--.HNZ">
      <acc value="0.0843956433" flag="0"/>
      <vel value="0.0178728022" flag="0"/>
      <psa03 value="0.0766989906" flag="0"/>
      <psa10 value="0.0162011572" flag="0"/>
      <psa30 value="0.0008778298" flag="0"/>
    </comp>
  </station>
  <station code="BISRR" name="BISRR" netid="RO" insttype="CMG40T.1to100/Basalt" lat="45.5481" lon="26.7099">
    <comp name="--.HHN">
      <acc value="0.0056019927" flag="0"/>
      <vel value="0.0018052966" flag="0"/>
      <psa03 value="0.0064271785" flag="0"/>
      <psa10 value="0.0017376097" flag="0"/>
      <psa30 value="0.0000759135" flag="0"/>
    </comp>
    <comp name="--.HHE">
      <acc value="0.3729704757" flag="0"/>
      <vel value="0.2358253476" flag="0"/>
      <psa03 value="0.7888787717" flag="0"/>
      <psa10 value="0.1580890771" flag="0"/>
      <psa30 value="0.0115175115" flag="0"/>
    </comp>
    <comp name="--.HHZ">
      <acc value="0.3297505331" flag="0"/>
      <vel value="0.1657959177" flag="0"/>
      <psa03 value="0.5483776426" flag="0"/>
      <psa10 value="0.0850358347" flag="0"/>
      <psa30 value="0.0082564933" flag="0"/>
    </comp>
  </station>
  <station code="MLR" name="MLR" netid="RO" insttype="330HR" lat="45.4909" lon="25.945">
    <comp name="--.HHN">
      <acc value="0.3584519650" flag="0"/>
      <vel value="0.3654166883" flag="0"/>
      <psa03 value="0.9448495172" flag="0"/>
      <psa10 value="0.4931668231" flag="0"/>
      <psa30 value="0.0298574488" flag="0"/>
    </comp>
    <comp name="--.HHE">
      <acc value="0.5228690668" flag="0"/>
      <vel value="0.4955181046" flag="0"/>
      <psa03 value="1.2797382673" flag="0"/>
      <psa10 value="0.4597160308" flag="0"/>
      <psa30 value="0.0395123205" flag="0"/>
    </comp>
    <comp name="--.HHZ">
      <acc value="0.0423618420" flag="0"/>
      <vel value="0.0218592716" flag="0"/>
      <psa03 value="0.0722967104" flag="0"/>
      <psa10 value="0.0178148624" flag="0"/>
      <psa30 value="0.0010190501" flag="0"/>
    </comp>
  </station>
  <station code="PLOR" name="PLOR" netid="RO" insttype="330" lat="45.8512" lon="26.6498">
    <comp name="--.HHE">
      <acc value="0.0750548936" flag="0"/>
      <vel value="0.0310740066" flag="0"/>
      <psa03 value="0.1966255062" flag="0"/>
      <psa10 value="0.0166494998" flag="0"/>
      <psa30 value="0.0011217541" flag="0"/>
    </comp>
    <comp name="--.HHZ">
      <acc value="0.0433079546" flag="0"/>
      <vel value="0.0135410355" flag="0"/>
      <psa03 value="0.0700491525" flag="0"/>
      <psa10 value="0.0084513805" flag="0"/>
      <psa30 value="0.0004360218" flag="0"/>
    </comp>
    <comp name="--.HHN">
      <acc value="0.0571715954" flag="0"/>
      <vel value="0.0336960203" flag="0"/>
      <psa03 value="0.1936509989" flag="0"/>
      <psa10 value="0.0251596462" flag="0"/>
      <psa30 value="0.0017350643" flag="0"/>
    </comp>
  </station>
  <station code="PLOR4" name="PLOR4" netid="RO" insttype="330" lat="45.8512" lon="26.6498">
    <comp name="--.HHN">
      <acc value="0.0571715954" flag="0"/>
      <vel value="0.0336960203" flag="0"/>
      <psa03 value="0.1936509989" flag="0"/>
      <psa10 value="0.0251596462" flag="0"/>
      <psa30 value="0.0017350643" flag="0"/>
    </comp>
    <comp name="--.HHZ">
      <acc value="0.0433079546" flag="0"/>
      <vel value="0.0135410355" flag="0"/>
      <psa03 value="0.0700491525" flag="0"/>
      <psa10 value="0.0084513805" flag="0"/>
      <psa30 value="0.0004360218" flag="0"/>
    </comp>
    <comp name="--.HHE">
      <acc value="0.0750548936" flag="0"/>
      <vel value="0.0310740066" flag="0"/>
      <psa03 value="0.1966255062" flag="0"/>
      <psa10 value="0.0166494998" flag="0"/>
      <psa30 value="0.0011217541" flag="0"/>
    </comp>
  </station>
  <station code="TESR" name="TESR" netid="RO" insttype="330" lat="46.5118" lon="26.6489">
    <comp name="--.HHN">
      <acc value="0.1457960049" flag="0"/>
      <vel value="0.0295406422" flag="0"/>
      <psa03 value="0.1133525113" flag="0"/>
      <psa10 value="0.0161643440" flag="0"/>
      <psa30 value="0.0013727337" flag="0"/>
    </comp>
    <comp name="--.HHE">
      <acc value="0.1375951176" flag="0"/>
      <vel value="0.0385123940" flag="0"/>
      <psa03 value="0.1526960177" flag="0"/>
      <psa10 value="0.0127635941" flag="0"/>
      <psa30 value="0.0013148605" flag="0"/>
    </comp>
    <comp name="--.HHZ">
      <acc value="0.0898907538" flag="0"/>
      <vel value="0.0159124593" flag="0"/>
      <psa03 value="0.0390045691" flag="0"/>
      <psa10 value="0.0076074334" flag="0"/>
      <psa30 value="0.0004622781" flag="0"/>
    </comp>
  </station>
  <station code="VRI" name="VRI" netid="RO" insttype="Linear" lat="45.8657" lon="26.7277">
    <comp name="--.HHN">
      <acc value="0.1301463192" flag="0"/>
      <vel value="0.0508275589" flag="0"/>
      <psa03 value="0.3733557537" flag="0"/>
      <psa10 value="0.0311930956" flag="0"/>
      <psa30 value="0.0026434696" flag="0"/>
    </comp>
    <comp name="--.HHZ">
      <acc value="0.1416898361" flag="0"/>
      <vel value="0.0228333468" flag="0"/>
      <psa03 value="0.0847627172" flag="0"/>
      <psa10 value="0.0234393202" flag="0"/>
      <psa30 value="0.0010726478" flag="0"/>
    </comp>
    <comp name="--.HHE">
      <acc value="0.2263090435" flag="0"/>
      <vel value="0.0899679245" flag="0"/>
      <psa03 value="0.6724011172" flag="0"/>
      <psa10 value="0.0356202469" flag="0"/>
      <psa30 value="0.0024697630" flag="0"/>
    </comp>
  </station>
</stationlist>
