<stationlist created="1778136525">
	<station code="SILAM" name="SILAM" netid="BS" source="National Seismic Network of Bulgaria (BS)" insttype="" lat="44.1046" lon="27.2665">
		<comp name="--.HNE" depth="0.0">
			<acc value="0.00152921543644458" flag="0"/>
			<vel value="0.00134789041744108" flag="0"/>
			<psa03 value="0.00156597723163951" flag="0"/>
			<psa10 value="0.00101878004469805" flag="0"/>
			<psa30 value="0.000417444787748475" flag="0"/>
		</comp>
		<comp name="--.HNN" depth="0.0">
			<acc value="0.000446652074319734" flag="0"/>
			<vel value="0.000107186334627062" flag="0"/>
			<psa03 value="0.236909984043749" flag="0"/>
			<psa10 value="0.00883479611884394" flag="0"/>
			<psa30 value="0.000683660917127192" flag="0"/>
		</comp>
		<comp name="--.HNZ" depth="0.0">
			<acc value="0.00113655095808503" flag="0"/>
			<vel value="0.000204204305394873" flag="0"/>
			<psa03 value="0.00782988615819756" flag="0"/>
			<psa10 value="0.00059596619215538" flag="0"/>
			<psa30 value="4.69793169491853e-05" flag="0"/>
		</comp>
	</station>
	<station code="VRI" name="VRI" netid="EU" source="Generic European Strong Motion Network" insttype="" lat="45.8657" lon="26.7277">
		<comp name="00.HNE" depth="0.0">
			<acc value="0.217889016955447" flag="0"/>
			<vel value="0.0875388516391108" flag="0"/>
			<psa03 value="0.649612097890688" flag="0"/>
			<psa10 value="0.0357660251265141" flag="0"/>
			<psa30 value="0.00230959270563519" flag="0"/>
		</comp>
		<comp name="00.HNN" depth="0.0">
			<acc value="0.128022728224753" flag="0"/>
			<vel value="0.0500292427379971" flag="0"/>
			<psa03 value="0.35829559059912" flag="0"/>
			<psa10 value="0.0309097060201669" flag="0"/>
			<psa30 value="0.00270958803280254" flag="0"/>
		</comp>
		<comp name="00.HNZ" depth="0.0">
			<acc value="0.116411928929658" flag="0"/>
			<vel value="0.0222991700542917" flag="0"/>
			<psa03 value="0.0839811218224961" flag="0"/>
			<psa10 value="0.0233594586533335" flag="0"/>
			<psa30 value="0.00113779431430265" flag="0"/>
		</comp>
	</station>
	<station code="KIS" name="KIS" netid="MD" source="Moldova Digital Seismic Network" insttype="" lat="46.9975" lon="28.8175">
		<comp name="--.HNE" depth="0.0">
			<acc value="0.0369730161303418" flag="0"/>
			<vel value="0.0105360958703603" flag="0"/>
			<psa03 value="0.0429972605601592" flag="0"/>
			<psa10 value="0.0106549090840752" flag="0"/>
			<psa30 value="0.000458160195771103" flag="0"/>
		</comp>
		<comp name="--.HNN" depth="0.0">
			<acc value="0.0342867989069869" flag="0"/>
			<vel value="0.00801613436086686" flag="0"/>
			<psa03 value="0.0376729379725848" flag="0"/>
			<psa10 value="0.00879050133429185" flag="0"/>
			<psa30 value="0.000464871526763843" flag="0"/>
		</comp>
		<comp name="--.HNZ" depth="0.0">
			<acc value="0.0229170340322727" flag="0"/>
			<vel value="0.00435405504103754" flag="0"/>
			<psa03 value="0.0183443047134914" flag="0"/>
			<psa10 value="0.0028348662113337" flag="0"/>
			<psa30 value="0.000152570924568307" flag="0"/>
		</comp>
	</station>
	<station code="ARR" name="ARR" netid="RO" source="Romanian Seismic Network (NIEP)" insttype="" lat="45.3657" lon="24.6332">
		<comp name="--.HNE" depth="0.0">
			<acc value="0.00568635497617117" flag="0"/>
			<vel value="0.00326214869967508" flag="0"/>
			<psa03 value="0.0219411982883823" flag="0"/>
			<psa10 value="0.00369660628827401" flag="0"/>
			<psa30 value="0.000288885465369382" flag="0"/>
		</comp>
		<comp name="--.HNN" depth="0.0">
			<acc value="0.00426101805183792" flag="0"/>
			<vel value="0.00224871596220049" flag="0"/>
			<psa03 value="0.0164570875971072" flag="0"/>
			<psa10 value="0.00410249567643532" flag="0"/>
			<psa30 value="0.000247071054744827" flag="0"/>
		</comp>
		<comp name="--.HNZ" depth="0.0">
			<acc value="0.00291045258558049" flag="0"/>
			<vel value="0.00186494922864275" flag="0"/>
			<psa03 value="0.00789641177038208" flag="0"/>
			<psa10 value="0.00225184979899818" flag="0"/>
			<psa30 value="0.000243652807469483" flag="0"/>
		</comp>
	</station>
	<station code="BISRR" name="BISRR" netid="RO" source="Romanian Seismic Network (NIEP)" insttype="" lat="45.5481" lon="26.7099">
		<comp name="--.HNE" depth="0.0">
			<acc value="0.177595196924231" flag="0"/>
			<vel value="0.113812613472194" flag="0"/>
			<psa03 value="0.349530467178201" flag="0"/>
			<psa10 value="0.110646422282484" flag="0"/>
			<psa30 value="0.00693358639939188" flag="0"/>
		</comp>
		<comp name="--.HNN" depth="0.0">
			<acc value="0.107525741661812" flag="0"/>
			<vel value="0.0793664620959695" flag="0"/>
			<psa03 value="0.345573580053532" flag="0"/>
			<psa10 value="0.14261020222591" flag="0"/>
			<psa30 value="0.00410194923400466" flag="0"/>
		</comp>
		<comp name="--.HNZ" depth="0.0">
			<acc value="0.159958815595883" flag="0"/>
			<vel value="0.0844116647892027" flag="0"/>
			<psa03 value="0.281188231507149" flag="0"/>
			<psa10 value="0.0451818793279148" flag="0"/>
			<psa30 value="0.00396316837378748" flag="0"/>
		</comp>
	</station>
	<station code="HUMR" name="HUMR" netid="RO" source="Romanian Seismic Network (NIEP)" insttype="" lat="44.5281" lon="24.9804">
		<comp name="--.HNE" depth="0.0">
			<acc value="0.0334792441847027" flag="0"/>
			<vel value="0.00765020601709412" flag="0"/>
			<psa03 value="0.0330034128766419" flag="0"/>
			<psa10 value="0.00493243081185139" flag="0"/>
			<psa30 value="0.000601636938825706" flag="0"/>
		</comp>
		<comp name="--.HNN" depth="0.0">
			<acc value="0.0356267516460078" flag="0"/>
			<vel value="0.00941295932212127" flag="0"/>
			<psa03 value="0.041956016359324" flag="0"/>
			<psa10 value="0.00595541420445172" flag="0"/>
			<psa30 value="0.000464199448852341" flag="0"/>
		</comp>
		<comp name="--.HNZ" depth="0.0">
			<acc value="0.0319632918980387" flag="0"/>
			<vel value="0.00528462741236837" flag="0"/>
			<psa03 value="0.0203627942476873" flag="0"/>
			<psa10 value="0.00190513018990059" flag="0"/>
			<psa30 value="0.000251986198057489" flag="0"/>
		</comp>
	</station>
	<station code="MLR" name="MLR" netid="RO" source="Romanian Seismic Network (NIEP)" insttype="" lat="45.4909" lon="25.945">
		<comp name="--.HNE" depth="0.0">
			<acc value="0.0529324931782107" flag="0"/>
			<vel value="0.051428734491463" flag="0"/>
			<psa03 value="0.128379431590684" flag="0"/>
			<psa10 value="0.0477239852299423" flag="0"/>
			<psa30 value="0.00422957185504463" flag="0"/>
		</comp>
		<comp name="--.HNN" depth="0.0">
			<acc value="0.0364127417648531" flag="0"/>
			<vel value="0.0375832619674062" flag="0"/>
			<psa03 value="0.0932547297515101" flag="0"/>
			<psa10 value="0.0480034612438345" flag="0"/>
			<psa30 value="0.00290785054749329" flag="0"/>
		</comp>
		<comp name="--.HNZ" depth="0.0">
			<acc value="0.0410845853626146" flag="0"/>
			<vel value="0.0218287044553733" flag="0"/>
			<psa03 value="0.0711314516930869" flag="0"/>
			<psa10 value="0.017753704220778" flag="0"/>
			<psa30 value="0.000993939072752523" flag="0"/>
		</comp>
	</station>
	<station code="TESR" name="TESR" netid="RO" source="Romanian Seismic Network (NIEP)" insttype="" lat="46.5118" lon="26.6489">
		<comp name="--.HNE" depth="0.0">
			<acc value="0.12834820623615" flag="0"/>
			<vel value="0.0376940832104004" flag="0"/>
			<psa03 value="0.150316874421865" flag="0"/>
			<psa10 value="0.0120950949906906" flag="0"/>
			<psa30 value="0.00138779485126311" flag="0"/>
		</comp>
		<comp name="--.HNN" depth="0.0">
			<acc value="0.132567366836896" flag="0"/>
			<vel value="0.0288997092379045" flag="0"/>
			<psa03 value="0.11519013078104" flag="0"/>
			<psa10 value="0.0166942346611016" flag="0"/>
			<psa30 value="0.00145546402151562" flag="0"/>
		</comp>
		<comp name="--.HNZ" depth="0.0">
			<acc value="0.0881054257922355" flag="0"/>
			<vel value="0.0162012335613407" flag="0"/>
			<psa03 value="0.0377212800996984" flag="0"/>
			<psa10 value="0.00761994322132917" flag="0"/>
			<psa30 value="0.000492299695773758" flag="0"/>
		</comp>
	</station>
</stationlist>
