<?xml version="1.0" encoding="UTF-8" standalone="yes"?>
<!DOCTYPE earthquake SYSTEM "stationlist.dtd">
<stationlist created="" xmlns="ch.ethz.sed.shakemap.usgs.xml">
  <station code="APE" name="APE" netid="GE" insttype="STS-2/N" lat="37.0727" lon="25.523">
    <comp name="--.HHE">
      <acc value="0.0826093125" flag="0"/>
      <vel value="0.0177557548" flag="0"/>
      <psa03 value="0.1363675316" flag="0"/>
      <psa10 value="0.0075865167" flag="0"/>
      <psa30 value="0.0026378774" flag="0"/>
    </comp>
    <comp name="--.HHN">
      <acc value="0.1148374157" flag="0"/>
      <vel value="0.0186365680" flag="0"/>
      <psa03 value="0.0674904240" flag="0"/>
      <psa10 value="0.0091550142" flag="0"/>
      <psa30 value="0.0030415925" flag="0"/>
    </comp>
    <comp name="--.HHZ">
      <acc value="0.0475030983" flag="0"/>
      <vel value="0.0140936313" flag="0"/>
      <psa03 value="0.0396633630" flag="0"/>
      <psa10 value="0.0105547597" flag="0"/>
      <psa30 value="0.0033792186" flag="0"/>
    </comp>
  </station>
  <station code="THERA" name="THERA" netid="GE" insttype="STS-2/N" lat="36.367" lon="25.4753">
    <comp name="--.HHZ">
      <acc value="0.1038207043" flag="0"/>
      <vel value="0.0343979143" flag="0"/>
      <psa03 value="0.1469250979" flag="0"/>
      <psa10 value="0.0174650934" flag="0"/>
      <psa30 value="0.0042685831" flag="0"/>
    </comp>
    <comp name="--.HHE">
      <acc value="0.1132591624" flag="0"/>
      <vel value="0.0270299563" flag="0"/>
      <psa03 value="0.1343268861" flag="0"/>
      <psa10 value="0.0176742547" flag="0"/>
      <psa30 value="0.0049472152" flag="0"/>
    </comp>
    <comp name="--.HHN">
      <acc value="0.0962043316" flag="0"/>
      <vel value="0.0186058289" flag="0"/>
      <psa03 value="0.0972230826" flag="0"/>
      <psa10 value="0.0081348323" flag="0"/>
      <psa30 value="0.0032983703" flag="0"/>
    </comp>
  </station>
  <station code="SERI" name="SERI" netid="HA" insttype="30" lat="37.1609" lon="24.4853">
    <comp name="--.HHE">
      <acc value="0.0368803976" flag="0"/>
      <vel value="0.0097880162" flag="0"/>
      <psa03 value="0.0555084217" flag="0"/>
      <psa10 value="0.0051706637" flag="0"/>
      <psa30 value="0.0008067133" flag="0"/>
    </comp>
    <comp name="--.HHN">
      <acc value="0.0487159086" flag="0"/>
      <vel value="0.0123443204" flag="0"/>
      <psa03 value="0.0515206795" flag="0"/>
      <psa10 value="0.0121499608" flag="0"/>
      <psa30 value="0.0009482550" flag="0"/>
    </comp>
    <comp name="--.HHZ">
      <acc value="0.0290878723" flag="0"/>
      <vel value="0.0101219220" flag="0"/>
      <psa03 value="0.0472237799" flag="0"/>
      <psa10 value="0.0050765123" flag="0"/>
      <psa30 value="0.0018328377" flag="0"/>
    </comp>
  </station>
  <station code="SNT1" name="SNT1" netid="HA" insttype="30" lat="36.4159" lon="25.4282">
    <comp name="--.HHE">
      <acc value="0.1134516374" flag="0"/>
      <vel value="0.0430202228" flag="0"/>
      <psa03 value="0.1567505109" flag="0"/>
      <psa10 value="0.0430539537" flag="0"/>
      <psa30 value="0.0097292205" flag="0"/>
    </comp>
    <comp name="--.HHZ">
      <acc value="0.1126517837" flag="0"/>
      <vel value="0.0282096145" flag="0"/>
      <psa03 value="0.1320533546" flag="0"/>
      <psa10 value="0.0278315301" flag="0"/>
      <psa30 value="0.0033963054" flag="0"/>
    </comp>
    <comp name="--.HHN">
      <acc value="0.0925032151" flag="0"/>
      <vel value="0.0410838429" flag="0"/>
      <psa03 value="0.1394717900" flag="0"/>
      <psa10 value="0.0524762403" flag="0"/>
      <psa30 value="0.0087328559" flag="0"/>
    </comp>
  </station>
  <station code="SFR2" name="SFR2" netid="HI" insttype="unknown" lat="36.3998" lon="25.4382">
    <comp name="--.HNE">
      <acc value="0.2915897437" flag="0"/>
      <vel value="0.1119716995" flag="0"/>
      <psa03 value="0.8794000375" flag="0"/>
      <psa10 value="0.0774337586" flag="0"/>
      <psa30 value="0.0123573193" flag="0"/>
    </comp>
    <comp name="--.HNN">
      <acc value="0.3227601177" flag="0"/>
      <vel value="0.1223050368" flag="0"/>
      <psa03 value="0.6531332026" flag="0"/>
      <psa10 value="0.0950378283" flag="0"/>
      <psa30 value="0.0089875612" flag="0"/>
    </comp>
    <comp name="--.HNZ">
      <acc value="0.3976726112" flag="0"/>
      <vel value="0.0861839648" flag="0"/>
      <psa03 value="0.4104051484" flag="0"/>
      <psa10 value="0.0303116921" flag="0"/>
      <psa30 value="0.0045378856" flag="0"/>
    </comp>
  </station>
  <station code="AMGA" name="AMGA" netid="HL" insttype="SMART24" lat="36.8316" lon="25.8938">
    <comp name="--.HHE">
      <acc value="0.3139729040" flag="0"/>
      <vel value="0.0510035976" flag="0"/>
      <psa03 value="0.1677525065" flag="0"/>
      <psa10 value="0.0176844361" flag="0"/>
      <psa30 value="0.0054544477" flag="0"/>
    </comp>
    <comp name="--.HHN">
      <acc value="0.4239663007" flag="0"/>
      <vel value="0.0773654514" flag="0"/>
      <psa03 value="0.1730892806" flag="0"/>
      <psa10 value="0.0416285855" flag="0"/>
      <psa30 value="0.0066200644" flag="0"/>
    </comp>
    <comp name="--.HHZ">
      <acc value="0.1674817215" flag="0"/>
      <vel value="0.0377841663" flag="0"/>
      <psa03 value="0.1700493069" flag="0"/>
      <psa10 value="0.0300789450" flag="0"/>
      <psa30 value="0.0058486948" flag="0"/>
    </comp>
  </station>
  <station code="APE" name="APE" netid="HL" insttype="120" lat="37.0727" lon="25.523">
    <comp name="--.HHE">
      <acc value="0.0701484522" flag="0"/>
      <vel value="0.0173786269" flag="0"/>
      <psa03 value="0.1323982689" flag="0"/>
      <psa10 value="0.0074948636" flag="0"/>
      <psa30 value="0.0026336014" flag="0"/>
    </comp>
    <comp name="--.HHN">
      <acc value="0.0995112824" flag="0"/>
      <vel value="0.0178550870" flag="0"/>
      <psa03 value="0.0653214848" flag="0"/>
      <psa10 value="0.0090841225" flag="0"/>
      <psa30 value="0.0030372059" flag="0"/>
    </comp>
    <comp name="--.HHZ">
      <acc value="0.0412927020" flag="0"/>
      <vel value="0.0137599951" flag="0"/>
      <psa03 value="0.0385104632" flag="0"/>
      <psa10 value="0.0104746000" flag="0"/>
      <psa30 value="0.0033738947" flag="0"/>
    </comp>
  </station>
  <station code="MHLO" name="MHLO" netid="HL" insttype="20" lat="36.6898" lon="24.4017">
    <comp name="--.HHE">
      <acc value="0.0719786105" flag="0"/>
      <vel value="0.0435586283" flag="0"/>
      <psa03 value="0.1603735476" flag="0"/>
      <psa10 value="0.0361036726" flag="0"/>
      <psa30 value="0.0029114187" flag="0"/>
    </comp>
    <comp name="--.HHN">
      <acc value="0.0623772695" flag="0"/>
      <vel value="0.0295428901" flag="0"/>
      <psa03 value="0.2430023253" flag="0"/>
      <psa10 value="0.0354069061" flag="0"/>
      <psa30 value="0.0023180693" flag="0"/>
    </comp>
    <comp name="--.HHZ">
      <acc value="0.0407246588" flag="0"/>
      <vel value="0.0205836142" flag="0"/>
      <psa03 value="0.1424975914" flag="0"/>
      <psa10 value="0.0198453701" flag="0"/>
      <psa30 value="0.0014112311" flag="0"/>
    </comp>
  </station>
  <station code="MILA" name="MILA" netid="HL" insttype="CMG-5" lat="36.7429" lon="24.4282">
    <comp name="00.HNE">
      <acc value="0.0855098486" flag="0"/>
      <vel value="0.0450718413" flag="0"/>
      <psa03 value="0.3122471137" flag="0"/>
      <psa10 value="0.0267647869" flag="0"/>
      <psa30 value="0.0024811037" flag="0"/>
    </comp>
    <comp name="00.HNZ">
      <acc value="0.0549651889" flag="0"/>
      <vel value="0.0319278901" flag="0"/>
      <psa03 value="0.1678040190" flag="0"/>
      <psa10 value="0.0240112626" flag="0"/>
      <psa30 value="0.0021626245" flag="0"/>
    </comp>
    <comp name="00.HNN">
      <acc value="0.1414898415" flag="0"/>
      <vel value="0.0725379281" flag="0"/>
      <psa03 value="0.2571312451" flag="0"/>
      <psa10 value="0.0392559043" flag="0"/>
      <psa30 value="0.0030395856" flag="0"/>
    </comp>
  </station>
  <station code="SANT" name="SANT" netid="HL" insttype="30" lat="36.3705" lon="25.4593">
    <comp name="--.HHE">
      <acc value="0.4512374789" flag="0"/>
      <vel value="0.0796861193" flag="0"/>
      <psa03 value="0.3395750912" flag="0"/>
      <psa10 value="0.0352588571" flag="0"/>
      <psa30 value="0.0053072866" flag="0"/>
    </comp>
    <comp name="--.HHN">
      <acc value="0.3186593765" flag="0"/>
      <vel value="0.0355021514" flag="0"/>
      <psa03 value="0.1195656124" flag="0"/>
      <psa10 value="0.0341950897" flag="0"/>
      <psa30 value="0.0063058250" flag="0"/>
    </comp>
    <comp name="--.HHZ">
      <acc value="0.3497464548" flag="0"/>
      <vel value="0.0404846809" flag="0"/>
      <psa03 value="0.1726449112" flag="0"/>
      <psa10 value="0.0186260970" flag="0"/>
      <psa30 value="0.0037664053" flag="0"/>
    </comp>
  </station>
  <station code="SAP3" name="SAP3" netid="HL" insttype="65535" lat="36.4356" lon="25.3454">
    <comp name="--.HHE">
      <acc value="0.2014003070" flag="0"/>
      <vel value="0.0774289609" flag="0"/>
      <psa03 value="0.3127236284" flag="0"/>
      <psa10 value="0.0487364560" flag="0"/>
      <psa30 value="0.0096350293" flag="0"/>
    </comp>
    <comp name="--.HHN">
      <acc value="0.2553309717" flag="0"/>
      <vel value="0.0800026495" flag="0"/>
      <psa03 value="0.5044500094" flag="0"/>
      <psa10 value="0.0275728646" flag="0"/>
      <psa30 value="0.0099250161" flag="0"/>
    </comp>
    <comp name="--.HHZ">
      <acc value="0.1970786346" flag="0"/>
      <vel value="0.0424501577" flag="0"/>
      <psa03 value="0.2538336156" flag="0"/>
      <psa10 value="0.0200636039" flag="0"/>
      <psa30 value="0.0034966587" flag="0"/>
    </comp>
  </station>
  <station code="THERA" name="THERA" netid="HL" insttype="120" lat="36.367" lon="25.4753">
    <comp name="--.HHE">
      <acc value="0.1133345439" flag="0"/>
      <vel value="0.0267587564" flag="0"/>
      <psa03 value="0.1302061597" flag="0"/>
      <psa10 value="0.0176435267" flag="0"/>
      <psa30 value="0.0049432050" flag="0"/>
    </comp>
    <comp name="--.HHN">
      <acc value="0.1927079938" flag="0"/>
      <vel value="0.0366493222" flag="0"/>
      <psa03 value="0.1886208005" flag="0"/>
      <psa10 value="0.0159702544" flag="0"/>
      <psa30 value="0.0065924118" flag="0"/>
    </comp>
    <comp name="--.HHZ">
      <acc value="0.1008691079" flag="0"/>
      <vel value="0.0335647468" flag="0"/>
      <psa03 value="0.1427557824" flag="0"/>
      <psa10 value="0.0173881835" flag="0"/>
      <psa30 value="0.0042711419" flag="0"/>
    </comp>
  </station>
  <station code="THRA" name="THRA" netid="HL" insttype="CMG-5" lat="36.415" lon="25.4324">
    <comp name="00.HNE">
      <acc value="0.3395942783" flag="0"/>
      <vel value="0.1534245331" flag="0"/>
      <psa03 value="0.9935710300" flag="0"/>
      <psa10 value="0.1216020375" flag="0"/>
      <psa30 value="0.0163061546" flag="0"/>
    </comp>
    <comp name="00.HNN">
      <acc value="0.3995722347" flag="0"/>
      <vel value="0.1300146599" flag="0"/>
      <psa03 value="0.7045958087" flag="0"/>
      <psa10 value="0.1484814655" flag="0"/>
      <psa30 value="0.0152718857" flag="0"/>
    </comp>
    <comp name="00.HNZ">
      <acc value="0.2215501948" flag="0"/>
      <vel value="0.0697917860" flag="0"/>
      <psa03 value="0.4407875049" flag="0"/>
      <psa10 value="0.0554227592" flag="0"/>
      <psa30 value="0.0053511451" flag="0"/>
    </comp>
  </station>
  <station code="AKRO" name="AKRO" netid="HT" insttype="Compact," lat="36.3584" lon="25.3967">
    <comp name="--.HHE">
      <acc value="0.4387998849" flag="0"/>
      <vel value="0.1464381640" flag="0"/>
      <psa03 value="0.7330880291" flag="0"/>
      <psa10 value="0.0837659947" flag="0"/>
      <psa30 value="0.0060765832" flag="0"/>
    </comp>
    <comp name="--.HHN">
      <acc value="0.3154038900" flag="0"/>
      <vel value="0.0886493208" flag="0"/>
      <psa03 value="0.3995166193" flag="0"/>
      <psa10 value="0.0429294840" flag="0"/>
      <psa30 value="0.0082739705" flag="0"/>
    </comp>
    <comp name="--.HHZ">
      <acc value="0.2986552246" flag="0"/>
      <vel value="0.0670164065" flag="0"/>
      <psa03 value="0.2800785284" flag="0"/>
      <psa10 value="0.0342128401" flag="0"/>
      <psa30 value="0.0042606898" flag="0"/>
    </comp>
  </station>
  <station code="CMBO" name="CMBO" netid="HT" insttype="120P," lat="36.4709" lon="25.4056">
    <comp name="--.HHE">
      <acc value="0.2982569757" flag="0"/>
      <vel value="0.0675602813" flag="0"/>
      <psa03 value="0.3060044148" flag="0"/>
      <psa10 value="0.0621481529" flag="0"/>
      <psa30 value="0.0076743648" flag="0"/>
    </comp>
    <comp name="--.HHN">
      <acc value="0.2766303400" flag="0"/>
      <vel value="0.0959084576" flag="0"/>
      <psa03 value="0.4808686881" flag="0"/>
      <psa10 value="0.0680049932" flag="0"/>
      <psa30 value="0.0074723739" flag="0"/>
    </comp>
    <comp name="--.HHZ">
      <acc value="0.2382740673" flag="0"/>
      <vel value="0.0959170247" flag="0"/>
      <psa03 value="0.6072169400" flag="0"/>
      <psa10 value="0.0264777058" flag="0"/>
      <psa30 value="0.0079064761" flag="0"/>
    </comp>
  </station>
</stationlist>
