<stationlist created="1739419348">
	<station code="ABEA" name="ABEA" netid="HC" source="Seismological Network of Crete (HC)" insttype="" lat="35.5163" lon="24.0113">
		<comp name=".HNE" depth="0.0">
			<acc value="0.0024504147435018" flag="0"/>
			<vel value="0.00164127335518" flag="0"/>
			<psa03 value="0.00153178034662939" flag="0"/>
			<psa10 value="0.00142993855453654" flag="0"/>
			<psa30 value="0.000779909946456583" flag="0"/>
		</comp>
		<comp name=".HNN" depth="0.0">
			<acc value="0.0022097931149436" flag="0"/>
			<vel value="0.00192651568442" flag="0"/>
			<psa03 value="0.00168303792529217" flag="0"/>
			<psa10 value="0.00138627968578776" flag="0"/>
			<psa30 value="0.000943574173824243" flag="0"/>
		</comp>
		<comp name=".HNZ" depth="0.0">
			<acc value="0.0021582389940378" flag="0"/>
			<vel value="0.00168862868682" flag="0"/>
			<psa03 value="0.00169586152870104" flag="0"/>
			<psa10 value="0.00127777902158867" flag="0"/>
			<psa30 value="0.000697920452553138" flag="0"/>
		</comp>
	</station>
	<station code="ATEI" name="ATEI" netid="HC" source="Seismological Network of Crete (HC)" insttype="" lat="35.5193" lon="24.0432">
		<comp name=".HNE" depth="0.0">
			<acc value="0.0052313858122368" flag="0"/>
			<vel value="0.00370067491184" flag="0"/>
			<psa03 value="0.0182937183794856" flag="0"/>
			<psa10 value="0.00369968172638232" flag="0"/>
			<psa30 value="0.00094462278495669" flag="0"/>
		</comp>
		<comp name=".HNN" depth="0.0">
			<acc value="0.0066977082211494" flag="0"/>
			<vel value="0.00459288694581" flag="0"/>
			<psa03 value="0.0243738698575704" flag="0"/>
			<psa10 value="0.00494194566088477" flag="0"/>
			<psa30 value="0.00105478852039712" flag="0"/>
		</comp>
		<comp name=".HNZ" depth="0.0">
			<acc value="0.00498352284522" flag="0"/>
			<vel value="0.00216778501669" flag="0"/>
			<psa03 value="0.00819263321652521" flag="0"/>
			<psa10 value="0.00319144641766045" flag="0"/>
			<psa30 value="0.00101490473245799" flag="0"/>
		</comp>
	</station>
	<station code="G0LD" name="G0LD" netid="HC" source="Seismological Network of Crete (HC)" insttype="" lat="35.4955" lon="24.0306">
		<comp name=".HNE" depth="0.0">
			<acc value="0.005585572358895" flag="0"/>
			<vel value="0.00258700436683" flag="0"/>
			<psa03 value="0.00201588728613061" flag="0"/>
			<psa10 value="0.0019474549077681" flag="0"/>
			<psa30 value="0.00126007201525517" flag="0"/>
		</comp>
		<comp name=".HNN" depth="0.0">
			<acc value="0.0049241530138494" flag="0"/>
			<vel value="0.00228696477929" flag="0"/>
			<psa03 value="0.0017056829801034" flag="0"/>
			<psa10 value="0.00141611279489638" flag="0"/>
			<psa30 value="0.00108328686660522" flag="0"/>
		</comp>
		<comp name=".HNZ" depth="0.0">
			<acc value="0.0061429710840426" flag="0"/>
			<vel value="0.00449367268798" flag="0"/>
			<psa03 value="0.00325588658494451" flag="0"/>
			<psa10 value="0.00239070087220093" flag="0"/>
			<psa30 value="0.00191751431757774" flag="0"/>
		</comp>
	</station>
	<station code="POLY" name="POLY" netid="HC" source="Seismological Network of Crete (HC)" insttype="" lat="35.5226" lon="24.0602">
		<comp name=".HNE" depth="0.0">
			<acc value="0.003468557610183" flag="0"/>
			<vel value="0.00226038202814" flag="0"/>
			<psa03 value="0.001086860817556" flag="0"/>
			<psa10 value="0.00114072795043977" flag="0"/>
			<psa30 value="0.00100325593995112" flag="0"/>
		</comp>
		<comp name=".HNN" depth="0.0">
			<acc value="0.0023968359425268" flag="0"/>
			<vel value="0.00260050145994" flag="0"/>
			<psa03 value="0.00164041905382836" flag="0"/>
			<psa10 value="0.00131384996579869" flag="0"/>
			<psa30 value="0.0013430365737498" flag="0"/>
		</comp>
		<comp name=".HNZ" depth="0.0">
			<acc value="0.012284029109676" flag="0"/>
			<vel value="0.00160061430805" flag="0"/>
			<psa03 value="0.00140039485261748" flag="0"/>
			<psa10 value="0.00107876271273657" flag="0"/>
			<psa30 value="0.000712759143879925" flag="0"/>
		</comp>
	</station>
	<station code="ARK1" name="ARK1" netid="HI" source="ITSAK Strong Motion Network" insttype="" lat="35.148777" lon="25.264194">
		<comp name=".HNE" depth="0.0">
			<acc value="0.01186469787174" flag="0"/>
			<vel value="0.0113121457995" flag="0"/>
			<psa03 value="0.041045739912164" flag="0"/>
			<psa10 value="0.016438522096405" flag="0"/>
			<psa30 value="0.0020409127004494" flag="0"/>
		</comp>
		<comp name=".HNN" depth="0.0">
			<acc value="0.01194166717017" flag="0"/>
			<vel value="0.00689508160495" flag="0"/>
			<psa03 value="0.0352017902791919" flag="0"/>
			<psa10 value="0.0128486717864367" flag="0"/>
			<psa30 value="0.00130809311308103" flag="0"/>
		</comp>
		<comp name=".HNZ" depth="0.0">
			<acc value="0.0070680329921388" flag="0"/>
			<vel value="0.00675645440891" flag="0"/>
			<psa03 value="0.0186994548929612" flag="0"/>
			<psa10 value="0.0106540245268518" flag="0"/>
			<psa30 value="0.00111953072591691" flag="0"/>
		</comp>
	</station>
	<station code="CH01" name="CH01" netid="HI" source="ITSAK Strong Motion Network" insttype="" lat="35.517" lon="24.0208">
		<comp name=".HNE" depth="0.0">
			<acc value="0.0084751126695042" flag="0"/>
			<vel value="0.00448081155756" flag="0"/>
			<psa03 value="0.0211847875027904" flag="0"/>
			<psa10 value="0.00449460102649994" flag="0"/>
			<psa30 value="0.000985506222452602" flag="0"/>
		</comp>
		<comp name=".HNN" depth="0.0">
			<acc value="0.0079690578446292" flag="0"/>
			<vel value="0.00418266372123" flag="0"/>
			<psa03 value="0.0315499389869555" flag="0"/>
			<psa10 value="0.0048720236851782" flag="0"/>
			<psa30 value="0.00108320259018931" flag="0"/>
		</comp>
		<comp name=".HNZ" depth="0.0">
			<acc value="0.01583763594834" flag="0"/>
			<vel value="0.00254936775555" flag="0"/>
			<psa03 value="0.00972564557836819" flag="0"/>
			<psa10 value="0.00583983248522606" flag="0"/>
			<psa30 value="0.000511357729106811" flag="0"/>
		</comp>
	</station>
	<station code="CH02" name="CH02" netid="HI" source="ITSAK Strong Motion Network" insttype="" lat="35.5145" lon="24.0315">
		<comp name=".HNE" depth="0.0">
			<acc value="0.0065219159893332" flag="0"/>
			<vel value="0.00322075403626" flag="0"/>
			<psa03 value="0.0148059300389521" flag="0"/>
			<psa10 value="0.00645441616713619" flag="0"/>
			<psa30 value="0.000928013142980727" flag="0"/>
		</comp>
		<comp name=".HNN" depth="0.0">
			<acc value="0.0075042775747644" flag="0"/>
			<vel value="0.00433458328657" flag="0"/>
			<psa03 value="0.0291043108302476" flag="0"/>
			<psa10 value="0.00591134315998384" flag="0"/>
			<psa30 value="0.00087574499297568" flag="0"/>
		</comp>
		<comp name=".HNZ" depth="0.0">
			<acc value="0.0037002411118308" flag="0"/>
			<vel value="0.00232474809375" flag="0"/>
			<psa03 value="0.00826377985673929" flag="0"/>
			<psa10 value="0.00589569946739459" flag="0"/>
			<psa30 value="0.000492874056737326" flag="0"/>
		</comp>
	</station>
	<station code="CH03" name="CH03" netid="HI" source="ITSAK Strong Motion Network" insttype="" lat="35.53303" lon="24.0705">
		<comp name=".HNE" depth="0.0">
			<acc value="0.004500329453847" flag="0"/>
			<vel value="0.00349832906307" flag="0"/>
			<psa03 value="0.0187053758581089" flag="0"/>
			<psa10 value="0.0045095429538377" flag="0"/>
			<psa30 value="0.00062789591794178" flag="0"/>
		</comp>
		<comp name=".HNN" depth="0.0">
			<acc value="0.0041289045811866" flag="0"/>
			<vel value="0.00285219086001" flag="0"/>
			<psa03 value="0.0143409578305903" flag="0"/>
			<psa10 value="0.00394022102030419" flag="0"/>
			<psa30 value="0.000614366688360081" flag="0"/>
		</comp>
		<comp name=".HNZ" depth="0.0">
			<acc value="0.0035049126865272" flag="0"/>
			<vel value="0.0023904599664" flag="0"/>
			<psa03 value="0.0118102146604294" flag="0"/>
			<psa10 value="0.00185906623995051" flag="0"/>
			<psa30 value="0.000427359456299889" flag="0"/>
		</comp>
	</station>
	<station code="GOR1" name="GOR1" netid="HI" source="ITSAK Strong Motion Network" insttype="" lat="35.0582" lon="24.9628">
		<comp name=".HNE" depth="0.0">
			<acc value="0.0071641688529066" flag="0"/>
			<vel value="0.00472285577447" flag="0"/>
			<psa03 value="0.0113514225489533" flag="0"/>
			<psa10 value="0.00590756572222007" flag="0"/>
			<psa30 value="0.00113713293364426" flag="0"/>
		</comp>
		<comp name=".HNN" depth="0.0">
			<acc value="0.0060946513238442" flag="0"/>
			<vel value="0.00498840617324" flag="0"/>
			<psa03 value="0.0169121945686362" flag="0"/>
			<psa10 value="0.0100105634632063" flag="0"/>
			<psa30 value="0.00139209201092852" flag="0"/>
		</comp>
		<comp name=".HNZ" depth="0.0">
			<acc value="0.010672938474318" flag="0"/>
			<vel value="0.00280862111308" flag="0"/>
			<psa03 value="0.00732562721393748" flag="0"/>
			<psa10 value="0.00604465605380159" flag="0"/>
			<psa30 value="0.000598022793158801" flag="0"/>
		</comp>
	</station>
	<station code="HER3" name="HER3" netid="HI" source="ITSAK Strong Motion Network" insttype="" lat="35.3296" lon="25.1065">
		<comp name=".HNE" depth="0.0">
			<acc value="0.04992056978211" flag="0"/>
			<vel value="0.0160473827452" flag="0"/>
			<psa03 value="0.116624423712566" flag="0"/>
			<psa10 value="0.0432888739253698" flag="0"/>
			<psa30 value="0.00223402424314043" flag="0"/>
		</comp>
		<comp name=".HNN" depth="0.0">
			<acc value="0.03104639117973" flag="0"/>
			<vel value="0.017835694363" flag="0"/>
			<psa03 value="0.0813384924428147" flag="0"/>
			<psa10 value="0.0295430508321469" flag="0"/>
			<psa30 value="0.00156099267893949" flag="0"/>
		</comp>
		<comp name=".HNZ" depth="0.0">
			<acc value="0.035772861684888" flag="0"/>
			<vel value="0.0108676024981" flag="0"/>
			<psa03 value="0.0549643546604167" flag="0"/>
			<psa10 value="0.0175008812224859" flag="0"/>
			<psa30 value="0.000619601410137568" flag="0"/>
		</comp>
	</station>
	<station code="KIS1" name="KIS1" netid="HI" source="ITSAK Strong Motion Network" insttype="" lat="35.493933" lon="23.658993">
		<comp name=".HNE" depth="0.0">
			<acc value="0.0044332839798702" flag="0"/>
			<vel value="0.00343033419671" flag="0"/>
			<psa03 value="0.00947905372201631" flag="0"/>
			<psa10 value="0.00514527897448052" flag="0"/>
			<psa30 value="0.000757409862184433" flag="0"/>
		</comp>
		<comp name=".HNN" depth="0.0">
			<acc value="0.003661544473884" flag="0"/>
			<vel value="0.00284905334183" flag="0"/>
			<psa03 value="0.00713709258901279" flag="0"/>
			<psa10 value="0.00470386348287041" flag="0"/>
			<psa30 value="0.000582241591482447" flag="0"/>
		</comp>
		<comp name=".HNZ" depth="0.0">
			<acc value="0.0057998066047626" flag="0"/>
			<vel value="0.00219585214586" flag="0"/>
			<psa03 value="0.00568023696491749" flag="0"/>
			<psa10 value="0.00234922781231437" flag="0"/>
			<psa30 value="0.000910285406106861" flag="0"/>
		</comp>
	</station>
	<station code="KRL1" name="KRL1" netid="HI" source="ITSAK Strong Motion Network" insttype="" lat="37.7951" lon="26.7065">
		<comp name=".HNE" depth="0.0">
			<acc value="0.01075481082309" flag="0"/>
			<vel value="0.00616526375677" flag="0"/>
			<psa03 value="0.0268922528339155" flag="0"/>
			<psa10 value="0.0126135030826953" flag="0"/>
			<psa30 value="0.00128508752657556" flag="0"/>
		</comp>
		<comp name=".HNN" depth="0.0">
			<acc value="0.0095507808185892" flag="0"/>
			<vel value="0.00564960132064" flag="0"/>
			<psa03 value="0.0174584078359311" flag="0"/>
			<psa10 value="0.0100971398234399" flag="0"/>
			<psa30 value="0.000815590591372474" flag="0"/>
		</comp>
		<comp name=".HNZ" depth="0.0">
			<acc value="0.0059409887932482" flag="0"/>
			<vel value="0.00471559056785" flag="0"/>
			<psa03 value="0.0112153406175287" flag="0"/>
			<psa10 value="0.00437995358793028" flag="0"/>
			<psa30 value="0.000572130296656252" flag="0"/>
		</comp>
	</station>
	<station code="KTL1" name="KTL1" netid="HI" source="ITSAK Strong Motion Network" insttype="" lat="35.20778" lon="25.34272">
		<comp name=".HNE" depth="0.0">
			<acc value="0.0085291124718378" flag="0"/>
			<vel value="0.00679431119114" flag="0"/>
			<psa03 value="0.0207011773409757" flag="0"/>
			<psa10 value="0.00686483304274466" flag="0"/>
			<psa30 value="0.00124962486484916" flag="0"/>
		</comp>
		<comp name=".HNN" depth="0.0">
			<acc value="0.009225317408028" flag="0"/>
			<vel value="0.00682800495006" flag="0"/>
			<psa03 value="0.0235075598646594" flag="0"/>
			<psa10 value="0.0101101128703558" flag="0"/>
			<psa30 value="0.000789515374436273" flag="0"/>
		</comp>
		<comp name=".HNZ" depth="0.0">
			<acc value="0.0078373746647748" flag="0"/>
			<vel value="0.0022682735466" flag="0"/>
			<psa03 value="0.011353005987189" flag="0"/>
			<psa10 value="0.00203146058991889" flag="0"/>
			<psa30 value="0.000490101268888028" flag="0"/>
		</comp>
	</station>
	<station code="RTH1" name="RTH1" netid="HI" source="ITSAK Strong Motion Network" insttype="" lat="35.365393" lon="24.471773">
		<comp name=".HNE" depth="0.0">
			<acc value="0.006096708060759" flag="0"/>
			<vel value="0.00337462588474" flag="0"/>
			<psa03 value="0.0206860630584836" flag="0"/>
			<psa10 value="0.00201616520167678" flag="0"/>
			<psa30 value="0.000950185445122369" flag="0"/>
		</comp>
		<comp name=".HNN" depth="0.0">
			<acc value="0.0059407341496464" flag="0"/>
			<vel value="0.00301572844024" flag="0"/>
			<psa03 value="0.0227092856287071" flag="0"/>
			<psa10 value="0.00309259596305571" flag="0"/>
			<psa30 value="0.000807668972854147" flag="0"/>
		</comp>
		<comp name=".HNZ" depth="0.0">
			<acc value="0.0068844448260564" flag="0"/>
			<vel value="0.00209696285534" flag="0"/>
			<psa03 value="0.00964618263204078" flag="0"/>
			<psa10 value="0.00225693865173433" flag="0"/>
			<psa30 value="0.000681329145128088" flag="0"/>
		</comp>
	</station>
	<station code="SFR2" name="SFR2" netid="HI" source="ITSAK Strong Motion Network" insttype="" lat="36.399841" lon="25.438209">
		<comp name=".HNE" depth="0.0">
			<acc value="0.28530737856888" flag="0"/>
			<vel value="0.113616988061" flag="0"/>
			<psa03 value="0.879731361220374" flag="0"/>
			<psa10 value="0.0773268375235024" flag="0"/>
			<psa30 value="0.0132918546868" flag="0"/>
		</comp>
		<comp name=".HNN" depth="0.0">
			<acc value="0.3188188941966" flag="0"/>
			<vel value="0.122380625546" flag="0"/>
			<psa03 value="0.657485721869027" flag="0"/>
			<psa10 value="0.0949556828479428" flag="0"/>
			<psa30 value="0.00982708349603287" flag="0"/>
		</comp>
		<comp name=".HNZ" depth="0.0">
			<acc value="0.38710059284382" flag="0"/>
			<vel value="0.0877172126631" flag="0"/>
			<psa03 value="0.416270700890812" flag="0"/>
			<psa10 value="0.0306823519302475" flag="0"/>
			<psa30 value="0.00515569820638494" flag="0"/>
		</comp>
	</station>
	<station code="AMGA" name="AMGA" netid="HL" source="National Observatory of Athens Seismic Network" insttype="" lat="36.831561" lon="25.893836">
		<comp name="00.HNE" depth="0.0">
			<acc value="0.18920984072802" flag="0"/>
			<vel value="0.032999966216" flag="0"/>
			<psa03 value="0.103714443489502" flag="0"/>
			<psa10 value="0.0118341555172303" flag="0"/>
			<psa30 value="0.00362644190064499" flag="0"/>
		</comp>
		<comp name="00.HNN" depth="0.0">
			<acc value="0.25001240247918" flag="0"/>
			<vel value="0.0478258146384" flag="0"/>
			<psa03 value="0.108421963672853" flag="0"/>
			<psa10 value="0.0251882567233988" flag="0"/>
			<psa30 value="0.00460096354123396" flag="0"/>
		</comp>
		<comp name="00.HNZ" depth="0.0">
			<acc value="0.099325771877562" flag="0"/>
			<vel value="0.0249905383445" flag="0"/>
			<psa03 value="0.105248795132656" flag="0"/>
			<psa10 value="0.0183409724994168" flag="0"/>
			<psa30 value="0.004221469234954" flag="0"/>
		</comp>
	</station>
	<station code="ANAF" name="ANAF" netid="HL" source="National Observatory of Athens Seismic Network" insttype="" lat="36.35675" lon="25.77262">
		<comp name=".HNE" depth="0.0">
			<acc value="0.8121175192617" flag="0"/>
			<vel value="0.13311190311" flag="0"/>
			<psa03 value="0.395914185704984" flag="0"/>
			<psa10 value="0.0516189520021849" flag="0"/>
			<psa30 value="0.0128466451938747" flag="0"/>
		</comp>
		<comp name=".HNN" depth="0.0">
			<acc value="0.74253498368706" flag="0"/>
			<vel value="0.16913555469" flag="0"/>
			<psa03 value="0.661251221315883" flag="0"/>
			<psa10 value="0.0826822447930841" flag="0"/>
			<psa30 value="0.0205216361243661" flag="0"/>
		</comp>
		<comp name=".HNZ" depth="0.0">
			<acc value="0.51064124264826" flag="0"/>
			<vel value="0.0828128983588" flag="0"/>
			<psa03 value="0.256445404916187" flag="0"/>
			<psa10 value="0.0447065315882791" flag="0"/>
			<psa30 value="0.017581868045812" flag="0"/>
		</comp>
	</station>
	<station code="ASTA" name="ASTA" netid="HL" source="National Observatory of Athens Seismic Network" insttype="" lat="36.54552" lon="26.35295">
		<comp name="00.HNE" depth="0.0">
			<acc value="0.028814876002374" flag="0"/>
			<vel value="0.00918122659661" flag="0"/>
			<psa03 value="0.016995451386079" flag="0"/>
			<psa10 value="0.0114231067247759" flag="0"/>
			<psa30 value="0.0014184367769753" flag="0"/>
		</comp>
		<comp name="00.HNN" depth="0.0">
			<acc value="0.028945064285814" flag="0"/>
			<vel value="0.0113096386818" flag="0"/>
			<psa03 value="0.0318746323713109" flag="0"/>
			<psa10 value="0.010450477917882" flag="0"/>
			<psa30 value="0.00282606033762865" flag="0"/>
		</comp>
		<comp name="00.HNZ" depth="0.0">
			<acc value="0.023367118401078" flag="0"/>
			<vel value="0.0066967806969" flag="0"/>
			<psa03 value="0.0233484477617414" flag="0"/>
			<psa10 value="0.00860714455610438" flag="0"/>
			<psa30 value="0.00248979285322259" flag="0"/>
		</comp>
	</station>
	<station code="CHNB" name="CHNB" netid="HL" source="National Observatory of Athens Seismic Network" insttype="" lat="35.48765" lon="24.06605">
		<comp name="00.HNE" depth="0.0">
			<acc value="0.010009833721899" flag="0"/>
			<vel value="0.00795995363816" flag="0"/>
			<psa03 value="0.0390349166008033" flag="0"/>
			<psa10 value="0.00957698130302508" flag="0"/>
			<psa30 value="0.000797995050757395" flag="0"/>
		</comp>
		<comp name="00.HNN" depth="0.0">
			<acc value="0.011051153500014" flag="0"/>
			<vel value="0.00721926111366" flag="0"/>
			<psa03 value="0.0413090985041868" flag="0"/>
			<psa10 value="0.0154175779013515" flag="0"/>
			<psa30 value="0.000837349376537305" flag="0"/>
		</comp>
		<comp name="00.HNZ" depth="0.0">
			<acc value="0.0099976833353046" flag="0"/>
			<vel value="0.00457016421463" flag="0"/>
			<psa03 value="0.0275225862571134" flag="0"/>
			<psa10 value="0.00323116764274925" flag="0"/>
			<psa30 value="0.000460376695613486" flag="0"/>
		</comp>
	</station>
	<station code="HERG" name="HERG" netid="HL" source="National Observatory of Athens Seismic Network" insttype="" lat="35.32622" lon="25.06586">
		<comp name="00.HNE" depth="0.0">
			<acc value="0.019091226185544" flag="0"/>
			<vel value="0.0169011651267" flag="0"/>
			<psa03 value="0.0483299568306709" flag="0"/>
			<psa10 value="0.0208839334580997" flag="0"/>
			<psa30 value="0.00251403008382295" flag="0"/>
		</comp>
		<comp name="00.HNN" depth="0.0">
			<acc value="0.015643937623368" flag="0"/>
			<vel value="0.0130899580826" flag="0"/>
			<psa03 value="0.0451157647397429" flag="0"/>
			<psa10 value="0.0142707875571312" flag="0"/>
			<psa30 value="0.00297691949797492" flag="0"/>
		</comp>
		<comp name="00.HNZ" depth="0.0">
			<acc value="0.01572556248801" flag="0"/>
			<vel value="0.00909875506575" flag="0"/>
			<psa03 value="0.0330590728138377" flag="0"/>
			<psa10 value="0.00900859552524647" flag="0"/>
			<psa30 value="0.000687626958159689" flag="0"/>
		</comp>
	</station>
	<station code="IACM" name="IACM" netid="HL" source="National Observatory of Athens Seismic Network" insttype="" lat="35.3058" lon="25.0709">
		<comp name=".HNE" depth="0.0">
			<acc value="0.027508088142708" flag="0"/>
			<vel value="0.0200590343606" flag="0"/>
			<psa03 value="0.123000252329864" flag="0"/>
			<psa10 value="0.0493992587085623" flag="0"/>
			<psa30 value="0.00256617332972116" flag="0"/>
		</comp>
