<?xml version="1.0" encoding="UTF-8" standalone="yes"?>
<!DOCTYPE earthquake SYSTEM "stationlist.dtd">
<stationlist created="" xmlns="ch.ethz.sed.shakemap.usgs.xml">
  <station code="DIVS" name="DIVS" netid="MN" insttype="" lat="44.0981" lon="19.9917">
    <comp name="--.HHE">
      <acc value="0.0105091607" flag="0"/>
      <vel value="0.0033367566" flag="0"/>
      <psa03 value="0.0263014184" flag="0"/>
      <psa10 value="0.0014733712" flag="0"/>
      <psa30 value="0.0002153539" flag="0"/>
    </comp>
    <comp name="--.HHZ">
      <acc value="0.0122022869" flag="0"/>
      <vel value="0.0034683800" flag="0"/>
      <psa03 value="0.0216612974" flag="0"/>
      <psa10 value="0.0017739854" flag="0"/>
      <psa30 value="0.0001282325" flag="0"/>
    </comp>
  </station>
</stationlist>
