<stationlist created="1778069593">
	<station code="KARP" name="KARP" netid="GE" source="GEOFON" insttype="" lat="35.5471" lon="27.16106">
		<comp name="--.HNE" depth="0.0">
			<acc value="0.0024451207909348" flag="0"/>
			<vel value="0.00109055042137798" flag="0"/>
			<psa03 value="0.0014317506117847" flag="0"/>
			<psa10 value="0.00298385775937254" flag="0"/>
			<psa30 value="0.000264426441113986" flag="0"/>
		</comp>
		<comp name="--.HNN" depth="0.0">
			<acc value="0.00364634624604961" flag="0"/>
			<vel value="0.00100323127963688" flag="0"/>
			<psa03 value="0.0017449460581126" flag="0"/>
			<psa10 value="0.00140132591128427" flag="0"/>
			<psa30 value="0.000305589271202796" flag="0"/>
		</comp>
		<comp name="--.HNZ" depth="0.0">
			<acc value="0.00147391291403222" flag="0"/>
			<vel value="0.000503178415456428" flag="0"/>
			<psa03 value="0.00152123502502124" flag="0"/>
			<psa10 value="0.000954351267167736" flag="0"/>
			<psa30 value="0.000214315169701522" flag="0"/>
		</comp>
	</station>
	<station code="SIT2" name="SIT2" netid="HI" source="ITSAK Strong Motion Network" insttype="" lat="35.2059" lon="26.107">
		<comp name="--.HNE" depth="0.0">
			<acc value="0.01365736280706" flag="0"/>
			<vel value="0.0116417163621276" flag="0"/>
			<psa03 value="0.0442053001388525" flag="0"/>
			<psa10 value="0.0119354310374902" flag="0"/>
			<psa30 value="0.00101922746676423" flag="0"/>
		</comp>
		<comp name="--.HNN" depth="0.0">
			<acc value="0.0153079615655125" flag="0"/>
			<vel value="0.0128622081955171" flag="0"/>
			<psa03 value="0.0331092328975211" flag="0"/>
			<psa10 value="0.00958780745622945" flag="0"/>
			<psa30 value="0.000957483221631015" flag="0"/>
		</comp>
		<comp name="--.HNZ" depth="0.0">
			<acc value="0.00668189742820641" flag="0"/>
			<vel value="0.00406728772347696" flag="0"/>
			<psa03 value="0.013333177572245" flag="0"/>
			<psa10 value="0.00243218635176925" flag="0"/>
			<psa30 value="0.000871578184923934" flag="0"/>
		</comp>
	</station>
</stationlist>
