<?xml version="1.0" encoding="UTF-8" standalone="yes"?>
<!DOCTYPE earthquake SYSTEM "stationlist.dtd">
<stationlist created="" xmlns="ch.ethz.sed.shakemap.usgs.xml">
  <station code="ZKR" name="ZKR" netid="GE" insttype="STS-2/N" lat="35.1147" lon="26.2169">
    <comp name="--.HHZ">
      <acc value="0.0022966183" flag="0"/>
      <vel value="0.0020471125" flag="0"/>
      <psa03 value="0.0077581689" flag="0"/>
      <psa10 value="0.0036585234" flag="0"/>
      <psa30 value="0.0006133028" flag="0"/>
    </comp>
    <comp name="--.HHE">
      <acc value="0.0030391454" flag="0"/>
      <vel value="0.0037221036" flag="0"/>
      <psa03 value="0.0097416306" flag="0"/>
      <psa10 value="0.0051853996" flag="0"/>
      <psa30 value="0.0012974005" flag="0"/>
    </comp>
    <comp name="--.HHN">
      <acc value="0.0021453342" flag="0"/>
      <vel value="0.0013939072" flag="0"/>
      <psa03 value="0.0080755030" flag="0"/>
      <psa10 value="0.0028706317" flag="0"/>
      <psa30 value="0.0003201236" flag="0"/>
    </comp>
  </station>
  <station code="ZKR" name="ZKR" netid="HL" insttype="120" lat="35.1147" lon="26.2169">
    <comp name="--.HHE">
      <acc value="0.0029955274" flag="0"/>
      <vel value="0.0036785721" flag="0"/>
      <psa03 value="0.0094745977" flag="0"/>
      <psa10 value="0.0051570101" flag="0"/>
      <psa30 value="0.0012985414" flag="0"/>
    </comp>
    <comp name="--.HHN">
      <acc value="0.0020809293" flag="0"/>
      <vel value="0.0013795761" flag="0"/>
      <psa03 value="0.0078571309" flag="0"/>
      <psa10 value="0.0028527721" flag="0"/>
      <psa30 value="0.0003198592" flag="0"/>
    </comp>
    <comp name="--.HHZ">
      <acc value="0.0022389748" flag="0"/>
      <vel value="0.0020317527" flag="0"/>
      <psa03 value="0.0075405230" flag="0"/>
      <psa10 value="0.0036335319" flag="0"/>
      <psa30 value="0.0006138645" flag="0"/>
    </comp>
  </station>
</stationlist>
