<?xml version="1.0" encoding="UTF-8" standalone="yes"?>
<!DOCTYPE earthquake SYSTEM "stationlist.dtd">
<stationlist created="" xmlns="ch.ethz.sed.shakemap.usgs.xml">
  <station code="APE" name="APE" netid="GE" insttype="STS-2/N" lat="37.0727" lon="25.523">
    <comp name="--.HHE">
      <acc value="0.8217925792" flag="0"/>
      <vel value="0.2424015992" flag="0"/>
      <psa03 value="0.7500798054" flag="0"/>
      <psa10 value="0.1293165561" flag="0"/>
      <psa30 value="0.0611987128" flag="0"/>
    </comp>
    <comp name="--.HHN">
      <acc value="1.0478328299" flag="0"/>
      <vel value="0.2465058542" flag="0"/>
      <psa03 value="1.0420352624" flag="0"/>
      <psa10 value="0.1050467323" flag="0"/>
      <psa30 value="0.0514458655" flag="0"/>
    </comp>
    <comp name="--.HHZ">
      <acc value="0.4329243461" flag="0"/>
      <vel value="0.1738425990" flag="0"/>
      <psa03 value="0.4228405287" flag="0"/>
      <psa10 value="0.1104930122" flag="0"/>
      <psa30 value="0.0731149302" flag="0"/>
    </comp>
  </station>
  <station code="THERA" name="THERA" netid="GE" insttype="STS-2/N" lat="36.367" lon="25.4753">
    <comp name="--.HHE">
      <acc value="0.9856028355" flag="0"/>
      <vel value="0.3020910235" flag="0"/>
      <psa03 value="2.8284515289" flag="0"/>
      <psa10 value="0.1761696731" flag="0"/>
      <psa30 value="0.0277828768" flag="0"/>
    </comp>
    <comp name="--.HHN">
      <acc value="1.0104979310" flag="0"/>
      <vel value="0.3826814274" flag="0"/>
      <psa03 value="2.1417124554" flag="0"/>
      <psa10 value="0.1661596965" flag="0"/>
      <psa30 value="0.0160176626" flag="0"/>
    </comp>
    <comp name="--.HHZ">
      <acc value="0.6318100277" flag="0"/>
      <vel value="0.2366320554" flag="0"/>
      <psa03 value="1.0677963856" flag="0"/>
      <psa10 value="0.1055120637" flag="0"/>
      <psa30 value="0.0258481199" flag="0"/>
    </comp>
  </station>
  <station code="SERI" name="SERI" netid="HA" insttype="30" lat="37.1609" lon="24.4853">
    <comp name="--.HHN">
      <acc value="0.2506353009" flag="0"/>
      <vel value="0.1427031622" flag="0"/>
      <psa03 value="0.2521681520" flag="0"/>
      <psa10 value="0.1046381138" flag="0"/>
      <psa30 value="0.0196545251" flag="0"/>
    </comp>
    <comp name="--.HHE">
      <acc value="0.2017289941" flag="0"/>
      <vel value="0.0728880868" flag="0"/>
      <psa03 value="0.3199916420" flag="0"/>
      <psa10 value="0.0397361803" flag="0"/>
      <psa30 value="0.0115303505" flag="0"/>
    </comp>
    <comp name="--.HHZ">
      <acc value="0.1520264375" flag="0"/>
      <vel value="0.0770999421" flag="0"/>
      <psa03 value="0.2560552225" flag="0"/>
      <psa10 value="0.0591220583" flag="0"/>
      <psa30 value="0.0160374323" flag="0"/>
    </comp>
  </station>
  <station code="SNT1" name="SNT1" netid="HA" insttype="30" lat="36.4159" lon="25.4282">
    <comp name="--.HHE">
      <acc value="0.7262678824" flag="0"/>
      <vel value="0.3039418599" flag="0"/>
      <psa03 value="1.3347461179" flag="0"/>
      <psa10 value="0.4726720839" flag="0"/>
      <psa30 value="0.0497179422" flag="0"/>
    </comp>
    <comp name="--.HHN">
      <acc value="0.6140476316" flag="0"/>
      <vel value="0.2587020556" flag="0"/>
      <psa03 value="1.1074494998" flag="0"/>
      <psa10 value="0.3864200048" flag="0"/>
      <psa30 value="0.0548576647" flag="0"/>
    </comp>
    <comp name="--.HHZ">
      <acc value="0.6559959396" flag="0"/>
      <vel value="0.1893454482" flag="0"/>
      <psa03 value="1.0351224938" flag="0"/>
      <psa10 value="0.2768449139" flag="0"/>
      <psa30 value="0.0297509711" flag="0"/>
    </comp>
  </station>
  <station code="KNSS" name="KNSS" netid="HC" insttype="60" lat="35.3042" lon="25.1802">
    <comp name="--.HHE">
      <acc value="0.0000000000" flag="0"/>
      <vel value="-100.0000000000" flag="0"/>
      <psa03 value="0.0000000000" flag="0"/>
      <psa10 value="0.0000000000" flag="0"/>
      <psa30 value="0.0000000000" flag="0"/>
    </comp>
    <comp name="--.HHN">
      <acc value="0.0825491119" flag="0"/>
      <vel value="0.0531147377" flag="0"/>
      <psa03 value="0.2670104228" flag="0"/>
      <psa10 value="0.0877880298" flag="0"/>
      <psa30 value="0.0077673458" flag="0"/>
    </comp>
    <comp name="--.HHZ">
      <acc value="0.0976697694" flag="0"/>
      <vel value="0.0606307608" flag="0"/>
      <psa03 value="0.3107885536" flag="0"/>
      <psa10 value="0.0571933847" flag="0"/>
      <psa30 value="0.0063863204" flag="0"/>
    </comp>
  </station>
  <station code="STIA" name="STIA" netid="HC" insttype="120" lat="35.2021" lon="26.0909">
    <comp name="--.HHE">
      <acc value="0.0733761684" flag="0"/>
      <vel value="0.0535362220" flag="0"/>
      <psa03 value="0.2076225298" flag="0"/>
      <psa10 value="0.0596445233" flag="0"/>
      <psa30 value="0.0079537150" flag="0"/>
    </comp>
    <comp name="--.HHZ">
      <acc value="0.0619307323" flag="0"/>
      <vel value="0.0297683182" flag="0"/>
      <psa03 value="0.1719294617" flag="0"/>
      <psa10 value="0.0334719008" flag="0"/>
      <psa30 value="0.0035866696" flag="0"/>
    </comp>
    <comp name="--.HHN">
      <acc value="0.0644855739" flag="0"/>
      <vel value="0.0399510058" flag="0"/>
      <psa03 value="0.1148652649" flag="0"/>
      <psa10 value="0.0417396087" flag="0"/>
      <psa30 value="0.0069636534" flag="0"/>
    </comp>
  </station>
  <station code="ARK1" name="ARK1" netid="HI" insttype="unknown" lat="35.1488" lon="25.2642">
    <comp name="--.HNE">
      <acc value="0.1402222703" flag="0"/>
      <vel value="0.1775656223" flag="0"/>
      <psa03 value="0.4740502164" flag="0"/>
      <psa10 value="0.2200490582" flag="0"/>
      <psa30 value="0.0182631987" flag="0"/>
    </comp>
    <comp name="--.HNN">
      <acc value="0.1627254418" flag="0"/>
      <vel value="0.1009624344" flag="0"/>
      <psa03 value="0.5423892104" flag="0"/>
      <psa10 value="0.1084351717" flag="0"/>
      <psa30 value="0.0154528006" flag="0"/>
    </comp>
    <comp name="--.HNZ">
      <acc value="0.0784276384" flag="0"/>
      <vel value="0.0592874379" flag="0"/>
      <psa03 value="0.1964026618" flag="0"/>
      <psa10 value="0.1259582270" flag="0"/>
      <psa30 value="0.0120651057" flag="0"/>
    </comp>
  </station>
  <station code="HER1" name="HER1" netid="HI" insttype="unknown" lat="35.3177" lon="25.1022">
    <comp name="--.HNE">
      <acc value="0.1848027369" flag="0"/>
      <vel value="0.2049408675" flag="0"/>
      <psa03 value="0.5423146469" flag="0"/>
      <psa10 value="0.4973632267" flag="0"/>
      <psa30 value="0.0297966063" flag="0"/>
    </comp>
    <comp name="--.HNN">
      <acc value="0.1715329570" flag="0"/>
      <vel value="0.1743463155" flag="0"/>
      <psa03 value="0.4872110272" flag="0"/>
      <psa10 value="0.3230951053" flag="0"/>
      <psa30 value="0.0169231730" flag="0"/>
    </comp>
  </station>
  <station code="NAX1" name="NAX1" netid="HI" insttype="CMG-5TD,ACCELEROMETER,GURALP" lat="37.1014" lon="25.3741">
    <comp name="--.HNN">
      <acc value="0.4851687858" flag="0"/>
      <vel value="0.1738007836" flag="0"/>
      <psa03 value="0.6175845339" flag="0"/>
      <psa10 value="0.0897015710" flag="0"/>
      <psa30 value="0.0444523716" flag="0"/>
    </comp>
    <comp name="--.HNE">
      <acc value="0.5256700616" flag="0"/>
      <vel value="0.2180807983" flag="0"/>
      <psa03 value="0.8795738853" flag="0"/>
      <psa10 value="0.1144356083" flag="0"/>
      <psa30 value="0.0284456231" flag="0"/>
    </comp>
    <comp name="--.HNZ">
      <acc value="0.2994003831" flag="0"/>
      <vel value="0.1433856611" flag="0"/>
      <psa03 value="0.5712278359" flag="0"/>
      <psa10 value="0.0897965342" flag="0"/>
      <psa30 value="0.0642826306" flag="0"/>
    </comp>
  </station>
  <station code="SFR2" name="SFR2" netid="HI" insttype="unknown" lat="36.3998" lon="25.4382">
    <comp name="--.HNE">
      <acc value="2.4539465615" flag="0"/>
      <vel value="0.9875491112" flag="0"/>
      <psa03 value="8.1770839988" flag="0"/>
      <psa10 value="0.7725784465" flag="0"/>
      <psa30 value="0.0733955174" flag="0"/>
    </comp>
    <comp name="--.HNN">
      <acc value="2.1613386587" flag="0"/>
      <vel value="0.8009031455" flag="0"/>
      <psa03 value="4.3482151565" flag="0"/>
      <psa10 value="0.7443299827" flag="0"/>
      <psa30 value="0.0665181318" flag="0"/>
    </comp>
    <comp name="--.HNZ">
      <acc value="2.8429205699" flag="0"/>
      <vel value="0.6975352847" flag="0"/>
      <psa03 value="4.8531771798" flag="0"/>
      <psa10 value="0.3231578136" flag="0"/>
      <psa30 value="0.0380245833" flag="0"/>
    </comp>
  </station>
  <station code="AMGA" name="AMGA" netid="HL" insttype="CMG-5TD" lat="36.8316" lon="25.8938">
    <comp name="00.HNE">
      <acc value="4.5174728057" flag="0"/>
      <vel value="1.3693488759" flag="0"/>
      <psa03 value="4.3755318292" flag="0"/>
      <psa10 value="0.6450125349" flag="0"/>
      <psa30 value="0.0628300803" flag="0"/>
    </comp>
    <comp name="00.HNZ">
      <acc value="4.1440008981" flag="0"/>
      <vel value="1.1702552823" flag="0"/>
      <psa03 value="5.6243825569" flag="0"/>
      <psa10 value="0.3784960837" flag="0"/>
      <psa30 value="0.0745543524" flag="0"/>
    </comp>
    <comp name="00.HNN">
      <acc value="4.5748450784" flag="0"/>
      <vel value="1.2122514630" flag="0"/>
      <psa03 value="2.5739218262" flag="0"/>
      <psa10 value="0.9651511617" flag="0"/>
      <psa30 value="0.0794427978" flag="0"/>
    </comp>
  </station>
  <station code="APE" name="APE" netid="HL" insttype="120" lat="37.0727" lon="25.523">
    <comp name="--.HHE">
      <acc value="0.7765402539" flag="0"/>
      <vel value="0.2364529666" flag="0"/>
      <psa03 value="0.7278548694" flag="0"/>
      <psa10 value="0.1279155345" flag="0"/>
      <psa30 value="0.0610927382" flag="0"/>
    </comp>
    <comp name="--.HHN">
      <acc value="0.9376458019" flag="0"/>
      <vel value="0.2372227982" flag="0"/>
      <psa03 value="1.0085142936" flag="0"/>
      <psa10 value="0.1040235835" flag="0"/>
      <psa30 value="0.0513203276" flag="0"/>
    </comp>
    <comp name="--.HHZ">
      <acc value="0.3750806061" flag="0"/>
      <vel value="0.1695030403" flag="0"/>
      <psa03 value="0.4125726133" flag="0"/>
      <psa10 value="0.1096680679" flag="0"/>
      <psa30 value="0.0730217291" flag="0"/>
    </comp>
  </station>
  <station code="ASTA" name="ASTA" netid="HL" insttype="CMG-5" lat="36.5455" lon="26.3529">
    <comp name="00.HNE">
      <acc value="0.2198271891" flag="0"/>
      <vel value="0.1141747482" flag="0"/>
      <psa03 value="0.3223497248" flag="0"/>
      <psa10 value="0.1493922884" flag="0"/>
      <psa30 value="0.0134177683" flag="0"/>
    </comp>
    <comp name="00.HNZ">
      <acc value="0.1838817905" flag="0"/>
      <vel value="0.0951795025" flag="0"/>
      <psa03 value="0.2541050228" flag="0"/>
      <psa10 value="0.0935511771" flag="0"/>
      <psa30 value="0.0083595866" flag="0"/>
    </comp>
    <comp name="00.HNN">
      <acc value="0.2183429419" flag="0"/>
      <vel value="0.1030919943" flag="0"/>
      <psa03 value="0.3098364991" flag="0"/>
      <psa10 value="0.1246166552" flag="0"/>
      <psa30 value="0.0141637375" flag="0"/>
    </comp>
  </station>
  <station code="HERG" name="HERG" netid="HL" insttype="CMG-5" lat="35.3262" lon="25.0659">
    <comp name="00.HNN">
      <acc value="0.1878762360" flag="0"/>
      <vel value="0.1255991183" flag="0"/>
      <psa03 value="0.3858853887" flag="0"/>
      <psa10 value="0.1954992808" flag="0"/>
      <psa30 value="0.0175195267" flag="0"/>
    </comp>
    <comp name="00.HNE">
      <acc value="0.1559806387" flag="0"/>
      <vel value="0.1829669067" flag="0"/>
      <psa03 value="0.5767844365" flag="0"/>
      <psa10 value="0.2675675450" flag="0"/>
      <psa30 value="0.0299709869" flag="0"/>
    </comp>
    <comp name="00.HNZ">
      <acc value="0.1265815342" flag="0"/>
      <vel value="0.1041250941" flag="0"/>
      <psa03 value="0.2634231120" flag="0"/>
      <psa10 value="0.1131521088" flag="0"/>
      <psa30 value="0.0104066729" flag="0"/>
    </comp>
  </station>
  <station code="IACM" name="IACM" netid="HL" insttype="120" lat="35.3058" lon="25.0709">
    <comp name="--.HHZ">
      <acc value="0.2131471993" flag="0"/>
      <vel value="0.1262811799" flag="0"/>
      <psa03 value="0.6363507800" flag="0"/>
      <psa10 value="0.1139881771" flag="0"/>
      <psa30 value="0.0055107461" flag="0"/>
    </comp>
    <comp name="--.HHN">
      <acc value="0.3052293359" flag="0"/>
      <vel value="0.2170751563" flag="0"/>
      <psa03 value="0.9051209932" flag="0"/>
      <psa10 value="0.3476483128" flag="0"/>
      <psa30 value="0.0201948724" flag="0"/>
    </comp>
    <comp name="--.HHE">
      <acc value="0.2817890594" flag="0"/>
      <vel value="0.2400033902" flag="0"/>
      <psa03 value="0.9457671722" flag="0"/>
      <psa10 value="0.3855369457" flag="0"/>
      <psa30 value="0.0218288493" flag="0"/>
    </comp>
  </station>
  <station code="IDI" name="IDI" netid="HL" insttype="120" lat="35.288" lon="24.89">
    <comp name="--.HHE">
      <acc value="0.0591519753" flag="0"/>
      <vel value="0.0363638398" flag="0"/>
      <psa03 value="0.1212477793" flag="0"/>
      <psa10 value="0.0273526932" flag="0"/>
      <psa30 value="0.0045183188" flag="0"/>
    </comp>
    <comp name="--.HHN">
      <acc value="0.0742224832" flag="0"/>
      <vel value="0.0448983336" flag="0"/>
      <psa03 value="0.1576291236" flag="0"/>
      <psa10 value="0.0318460470" flag="0"/>
      <psa30 value="0.0038195117" flag="0"/>
    </comp>
    <comp name="--.HHZ">
      <acc value="0.0448219813" flag="0"/>
      <vel value="0.0362781172" flag="0"/>
      <psa03 value="0.1098261632" flag="0"/>
      <psa10 value="0.0345523177" flag="0"/>
      <psa30 value="0.0043558069" flag="0"/>
    </comp>
  </station>
  <station code="KLNA" name="KLNA" netid="HL" insttype="CMG-5" lat="36.9571" lon="26.9727">
    <comp name="00.HNN">
      <acc value="0.1524190262" flag="0"/>
      <vel value="0.0598565122" flag="0"/>
      <psa03 value="0.3805847074" flag="0"/>
      <psa10 value="0.0293019076" flag="0"/>
      <psa30 value="0.0120994126" flag="0"/>
    </comp>
    <comp name="00.HNZ">
      <acc value="0.1594631639" flag="0"/>
      <vel value="0.0425623700" flag="0"/>
      <psa03 value="0.1874635331" flag="0"/>
      <psa10 value="0.0446035435" flag="0"/>
      <psa30 value="0.0075419891" flag="0"/>
    </comp>
    <comp name="00.HNE">
      <acc value="0.1800498987" flag="0"/>
      <vel value="0.0661191456" flag="0"/>
      <psa03 value="0.5528228019" flag="0"/>
      <psa10 value="0.0375670732" flag="0"/>
      <psa30 value="0.0051959488" flag="0"/>
    </comp>
  </station>
  <station code="MHLO" name="MHLO" netid="HL" insttype="20" lat="36.6898" lon="24.4017">
    <comp name="--.HHE">
      <acc value="0.9101955919" flag="0"/>
      <vel value="0.5115779604" flag="0"/>
      <psa03 value="3.9227018046" flag="0"/>
      <psa10 value="0.3489151726" flag="0"/>
      <psa30 value="0.0282759649" flag="0"/>
    </comp>
    <comp name="--.HHN">
      <acc value="0.6381752120" flag="0"/>
      <vel value="0.4018560358" flag="0"/>
      <psa03 value="2.3967316877" flag="0"/>
      <psa10 value="0.4366006215" flag="0"/>
      <psa30 value="0.0237453410" flag="0"/>
    </comp>
    <comp name="--.HHZ">
      <acc value="0.3071711840" flag="0"/>
      <vel value="0.1764770801" flag="0"/>
      <psa03 value="1.0218759969" flag="0"/>
      <psa10 value="0.2648903428" flag="0"/>
      <psa30 value="0.0158154291" flag="0"/>
    </comp>
  </station>
  <station code="MILA" name="MILA" netid="HL" insttype="CMG-5" lat="36.7429" lon="24.4282">
    <comp name="00.HNE">
      <acc value="0.6069815915" flag="0"/>
      <vel value="0.4179430847" flag="0"/>
      <psa03 value="1.8340684293" flag="0"/>
      <psa10 value="0.2735840982" flag="0"/>
      <psa30 value="0.0399568485" flag="0"/>
    </comp>
    <comp name="00.HNN">
      <acc value="0.7906570115" flag="0"/>
      <vel value="0.3587500802" flag="0"/>
      <psa03 value="2.5104992818" flag="0"/>
      <psa10 value="0.2595382600" flag="0"/>
      <psa30 value="0.0265168730" flag="0"/>
    </comp>
    <comp name="00.HNZ">
      <acc value="0.4963830009" flag="0"/>
      <vel value="0.3234708894" flag="0"/>
      <psa03 value="1.6180754450" flag="0"/>
      <psa10 value="0.2354630489" flag="0"/>
      <psa30 value="0.0137057603" flag="0"/>
    </comp>
  </station>
  <station code="NISR" name="NISR" netid="HL" insttype="65535" lat="36.6106" lon="27.131">
    <comp name="--.HHE">
      <acc value="0.0000000000" flag="0"/>
      <vel value="-100.0000000000" flag="0"/>
      <psa03 value="0.0000000000" flag="0"/>
      <psa10 value="0.0000000000" flag="0"/>
      <psa30 value="0.0000000000" flag="0"/>
    </comp>
    <comp name="--.HHN">
      <acc value="0.1504742493" flag="0"/>
      <vel value="0.1284287762" flag="0"/>
      <psa03 value="0.2717663368" flag="0"/>
      <psa10 value="0.1139292231" flag="0"/>
      <psa30 value="0.0330343647" flag="0"/>
    </comp>
    <comp name="--.HHZ">
      <acc value="0.0655299799" flag="0"/>
      <vel value="0.0371791183" flag="0"/>
      <psa03 value="0.1845568595" flag="0"/>
      <psa10 value="0.0676595665" flag="0"/>
      <psa30 value="0.0073015303" flag="0"/>
    </comp>
  </station>
  <station code="NISR2" name="NISR2" netid="HL" insttype="120" lat="36.5744" lon="27.1767">
    <comp name="--.HHE">
      <acc value="0.1534963791" flag="0"/>
      <vel value="0.2125658949" flag="0"/>
      <psa03 value="0.3908888925" flag="0"/>
      <psa10 value="0.4251491060" flag="0"/>
      <psa30 value="0.0252072175" flag="0"/>
    </comp>
    <comp name="--.HHN">
      <acc value="0.1625712762" flag="0"/>
      <vel value="0.1948365834" flag="0"/>
      <psa03 value="0.5375719599" flag="0"/>
      <psa10 value="0.3815507671" flag="0"/>
      <psa30 value="0.0271998392" flag="0"/>
    </comp>
    <comp name="--.HHZ">
      <acc value="0.0559711958" flag="0"/>
      <vel value="0.0500369546" flag="0"/>
      <psa03 value="0.1773103474" flag="0"/>
      <psa10 value="0.0488784950" flag="0"/>
      <psa30 value="0.0110756919" flag="0"/>
    </comp>
  </station>
  <station code="NPS" name="NPS" netid="HL" insttype="CMG3ESPC-120s" lat="35.2613" lon="25.6104">
    <comp name="--.HHE">
      <acc value="0.0609053573" flag="0"/>
      <vel value="0.0293467092" flag="0"/>
      <psa03 value="0.1533766801" flag="0"/>
      <psa10 value="0.0282278873" flag="0"/>
      <psa30 value="0.0031066673" flag="0"/>
    </comp>
    <comp name="--.HHN">
      <acc value="0.0947020315" flag="0"/>
      <vel value="0.0600364982" flag="0"/>
      <psa03 value="0.2367814727" flag="0"/>
      <psa10 value="0.1203093188" flag="0"/>
      <psa30 value="0.0088303628" flag="0"/>
    </comp>
    <comp name="--.HHZ">
      <acc value="0.0734273344" flag="0"/>
      <vel value="0.0458735055" flag="0"/>
      <psa03 value="0.2610803628" flag="0"/>
      <psa10 value="0.0639750680" flag="0"/>
      <psa30 value="0.0068038338" flag="0"/>
    </comp>
  </station>
  <station code="SANT" name="SANT" netid="HL" insttype="30" lat="36.3705" lon="25.4593">
    <comp name="--.HHN">
      <acc value="1.4401499223" flag="0"/>
      <vel value="0.3171667916" flag="0"/>
      <psa03 value="1.2885885647" flag="0"/>
      <psa10 value="0.1993684135" flag="0"/>
      <psa30 value="0.0234821243" flag="0"/>
    </comp>
    <comp name="--.HHZ">
      <acc value="1.9009479977" flag="0"/>
      <vel value="0.3930248888" flag="0"/>
      <psa03 value="2.2069746188" flag="0"/>
      <psa10 value="0.1025583849" flag="0"/>
      <psa30 value="0.0245422819" flag="0"/>
    </comp>
    <comp name="--.HHE">
      <acc value="2.4952719015" flag="0"/>
      <vel value="0.6610707170" flag="0"/>
