<stationlist created="1739291552">
	<station code="KTHA" name="KTHA" netid="GE" source="GEOFON" insttype="" lat="36.2566" lon="23.0621">
		<comp name=".HNE" depth="0.0">
			<acc value="0.02579471585934" flag="0"/>
			<vel value="0.0272558697086" flag="0"/>
			<psa03 value="0.064759191020237" flag="0"/>
			<psa10 value="0.0221002665342153" flag="0"/>
			<psa30 value="0.00585658838688936" flag="0"/>
		</comp>
		<comp name=".HNN" depth="0.0">
			<acc value="0.021958171702218" flag="0"/>
			<vel value="0.019580713233" flag="0"/>
			<psa03 value="0.0572382657126467" flag="0"/>
			<psa10 value="0.0254620736124223" flag="0"/>
			<psa30 value="0.00509192814858661" flag="0"/>
		</comp>
		<comp name=".HNZ" depth="0.0">
			<acc value="0.01210487301783" flag="0"/>
			<vel value="0.0244431952223" flag="0"/>
			<psa03 value="0.0390907562374211" flag="0"/>
			<psa10 value="0.0101381712915779" flag="0"/>
			<psa30 value="0.0101792059891278" flag="0"/>
		</comp>
	</station>
	<station code="BODA" name="BODA" netid="KO" source="Bogazici University Kandilli Observatory And Earthquake Research Institute (KOERI)" insttype="" lat="37.0348" lon="27.4304">
		<comp name=".HNE" depth="0.0">
			<acc value="0.049640370038592" flag="0"/>
			<vel value="0.0285046878154" flag="0"/>
			<psa03 value="0.112568863384913" flag="0"/>
			<psa10 value="0.0483875429374453" flag="0"/>
			<psa30 value="0.00334378025903287" flag="0"/>
		</comp>
		<comp name=".HNN" depth="0.0">
			<acc value="0.046255208905194" flag="0"/>
			<vel value="0.0371100926594" flag="0"/>
			<psa03 value="0.17745644311826" flag="0"/>
			<psa10 value="0.0658574152304528" flag="0"/>
			<psa30 value="0.00347128683071714" flag="0"/>
		</comp>
		<comp name=".HNZ" depth="0.0">
			<acc value="0.021188249382954" flag="0"/>
			<vel value="0.0183497502599" flag="0"/>
			<psa03 value="0.0307630092525682" flag="0"/>
			<psa10 value="0.0183568923040288" flag="0"/>
			<psa30 value="0.00402105304169592" flag="0"/>
		</comp>
	</station>
	<station code="BODM" name="BODM" netid="KO" source="Bogazici University Kandilli Observatory And Earthquake Research Institute (KOERI)" insttype="" lat="37.031" lon="27.4247">
		<comp name=".HNE" depth="0.0">
			<acc value="0.065806121427522" flag="0"/>
			<vel value="0.0444728951806" flag="0"/>
			<psa03 value="0.207688966708033" flag="0"/>
			<psa10 value="0.0292354929579239" flag="0"/>
			<psa30 value="0.00335103969826679" flag="0"/>
		</comp>
		<comp name=".HNN" depth="0.0">
			<acc value="0.12749863366614" flag="0"/>
			<vel value="0.0899438910022" flag="0"/>
			<psa03 value="0.309180419185345" flag="0"/>
			<psa10 value="0.100672966590005" flag="0"/>
			<psa30 value="0.00523295290745809" flag="0"/>
		</comp>
		<comp name=".HNZ" depth="0.0">
			<acc value="0.012051677986194" flag="0"/>
			<vel value="0.0170336425581" flag="0"/>
			<psa03 value="0.0348993587862223" flag="0"/>
			<psa10 value="0.0174250568245113" flag="0"/>
			<psa30 value="0.00461820593349585" flag="0"/>
		</comp>
	</station>
	<station code="CAME" name="CAME" netid="KO" source="Bogazici University Kandilli Observatory And Earthquake Research Institute (KOERI)" insttype="" lat="36.9435" lon="29.3023">
		<comp name=".HNE" depth="0.0">
			<acc value="0.0052999746769674" flag="0"/>
			<vel value="0.00931021409146" flag="0"/>
			<psa03 value="0.0135391390890212" flag="0"/>
			<psa10 value="0.00910514192096773" flag="0"/>
			<psa30 value="0.00225386847438962" flag="0"/>
		</comp>
		<comp name=".HNN" depth="0.0">
			<acc value="0.0033142746422694" flag="0"/>
			<vel value="0.00491674732146" flag="0"/>
			<psa03 value="0.0136805065268424" flag="0"/>
			<psa10 value="0.00482487321791971" flag="0"/>
			<psa30 value="0.00156846275712655" flag="0"/>
		</comp>
		<comp name=".HNZ" depth="0.0">
			<acc value="0.0026390069208624" flag="0"/>
			<vel value="0.00779804751231" flag="0"/>
			<psa03 value="0.00700156473075754" flag="0"/>
			<psa10 value="0.00760477815422234" flag="0"/>
			<psa30 value="0.00281362388877526" flag="0"/>
		</comp>
	</station>
	<station code="CESE" name="CESE" netid="KO" source="Bogazici University Kandilli Observatory And Earthquake Research Institute (KOERI)" insttype="" lat="38.3306" lon="26.2997">
		<comp name=".HNE" depth="0.0">
			<acc value="0.026215762865286" flag="0"/>
			<vel value="0.0207730209876" flag="0"/>
			<psa03 value="0.0298161001703161" flag="0"/>
			<psa10 value="0.0210754436447285" flag="0"/>
			<psa30 value="0.00879854369367259" flag="0"/>
		</comp>
		<comp name=".HNN" depth="0.0">
			<acc value="0.028922281726464" flag="0"/>
			<vel value="0.0280459018138" flag="0"/>
			<psa03 value="0.0774474221783408" flag="0"/>
			<psa10 value="0.0382786207707768" flag="0"/>
			<psa30 value="0.00770737724257253" flag="0"/>
		</comp>
		<comp name=".HNZ" depth="0.0">
			<acc value="0.01718985819147" flag="0"/>
			<vel value="0.0233880713463" flag="0"/>
			<psa03 value="0.0395187898008875" flag="0"/>
			<psa10 value="0.0179123303539817" flag="0"/>
			<psa30 value="0.00678211594854478" flag="0"/>
		</comp>
	</station>
	<station code="DATC" name="DATC" netid="KO" source="Bogazici University Kandilli Observatory And Earthquake Research Institute (KOERI)" insttype="" lat="36.7584" lon="27.6602">
		<comp name=".HNE" depth="0.0">
			<acc value="0.026868428827596" flag="0"/>
			<vel value="0.0331376952498" flag="0"/>
			<psa03 value="0.076710873385549" flag="0"/>
			<psa10 value="0.0685008228432798" flag="0"/>
			<psa30 value="0.00788064955434075" flag="0"/>
		</comp>
		<comp name=".HNN" depth="0.0">
			<acc value="0.030282220986858" flag="0"/>
			<vel value="0.0420105459777" flag="0"/>
			<psa03 value="0.0963787700369982" flag="0"/>
			<psa10 value="0.0397123482481832" flag="0"/>
			<psa30 value="0.0122414059330471" flag="0"/>
		</comp>
		<comp name=".HNZ" depth="0.0">
			<acc value="0.04133886746727" flag="0"/>
			<vel value="0.0354385580459" flag="0"/>
			<psa03 value="0.0542971437945169" flag="0"/>
			<psa10 value="0.057942797175982" flag="0"/>
			<psa30 value="0.00814972571267935" flag="0"/>
		</comp>
	</station>
	<station code="DIDI" name="DIDI" netid="KO" source="Bogazici University Kandilli Observatory And Earthquake Research Institute (KOERI)" insttype="" lat="37.3767" lon="27.2398">
		<comp name=".HNE" depth="0.0">
			<acc value="0.15629796473214" flag="0"/>
			<vel value="0.0956836341674" flag="0"/>
			<psa03 value="0.501110446106396" flag="0"/>
			<psa10 value="0.108521644026352" flag="0"/>
			<psa30 value="0.0177502441998789" flag="0"/>
		</comp>
		<comp name=".HNN" depth="0.0">
			<acc value="0.17224392053112" flag="0"/>
			<vel value="0.104973443967" flag="0"/>
			<psa03 value="0.576090079806598" flag="0"/>
			<psa10 value="0.124487914213223" flag="0"/>
			<psa30 value="0.018780134091702" flag="0"/>
		</comp>
		<comp name=".HNZ" depth="0.0">
			<acc value="0.098777669515524" flag="0"/>
			<vel value="0.0556927110975" flag="0"/>
			<psa03 value="0.288193549741529" flag="0"/>
			<psa10 value="0.103116740978078" flag="0"/>
			<psa30 value="0.00920804832133858" flag="0"/>
		</comp>
	</station>
	<station code="FETI" name="FETI" netid="KO" source="Bogazici University Kandilli Observatory And Earthquake Research Institute (KOERI)" insttype="" lat="36.6903" lon="29.096">
		<comp name=".HNE" depth="0.0">
			<acc value="0.006148526017782" flag="0"/>
			<vel value="0.00858525066641" flag="0"/>
			<psa03 value="0.00777016252158443" flag="0"/>
			<psa10 value="0.00624203303531608" flag="0"/>
			<psa30 value="0.00227954205013869" flag="0"/>
		</comp>
		<comp name=".HNN" depth="0.0">
			<acc value="0.026422173585204" flag="0"/>
			<vel value="0.0154154224436" flag="0"/>
			<psa03 value="0.0238051108259196" flag="0"/>
			<psa10 value="0.010475538953033" flag="0"/>
			<psa30 value="0.00619568876732395" flag="0"/>
		</comp>
		<comp name=".HNZ" depth="0.0">
			<acc value="0.0079801453336548" flag="0"/>
			<vel value="0.00762939064611" flag="0"/>
			<psa03 value="0.00733970496943333" flag="0"/>
			<psa10 value="0.00715684613716924" flag="0"/>
			<psa30 value="0.00230197520289297" flag="0"/>
		</comp>
	</station>
	<station code="FOCM" name="FOCM" netid="KO" source="Bogazici University Kandilli Observatory And Earthquake Research Institute (KOERI)" insttype="" lat="38.7131" lon="26.7309">
		<comp name=".HNE" depth="0.0">
			<acc value="0.022843356999168" flag="0"/>
			<vel value="0.0234897074427" flag="0"/>
			<psa03 value="0.088645393155385" flag="0"/>
			<psa10 value="0.0311735163424651" flag="0"/>
			<psa30 value="0.0116956072765686" flag="0"/>
		</comp>
		<comp name=".HNN" depth="0.0">
			<acc value="0.018364149398454" flag="0"/>
			<vel value="0.019213401325" flag="0"/>
			<psa03 value="0.0358718164359613" flag="0"/>
			<psa10 value="0.0254036972452602" flag="0"/>
			<psa30 value="0.0124443627112787" flag="0"/>
		</comp>
		<comp name=".HNZ" depth="0.0">
			<acc value="0.024245884737966" flag="0"/>
			<vel value="0.0148267034345" flag="0"/>
			<psa03 value="0.0603909797727812" flag="0"/>
			<psa10 value="0.015149601086707" flag="0"/>
			<psa30 value="0.00374014568296348" flag="0"/>
		</comp>
	</station>
	<station code="GMLD" name="GMLD" netid="KO" source="Bogazici University Kandilli Observatory And Earthquake Research Institute (KOERI)" insttype="" lat="38.0766" lon="26.9157">
		<comp name=".HNE" depth="0.0">
			<acc value="0.2300182692573" flag="0"/>
			<vel value="0.117151994408" flag="0"/>
			<psa03 value="0.705358393200643" flag="0"/>
			<psa10 value="0.102242603070619" flag="0"/>
			<psa30 value="0.00948040136340933" flag="0"/>
		</comp>
		<comp name=".HNN" depth="0.0">
			<acc value="0.16857984240192" flag="0"/>
			<vel value="0.121883513966" flag="0"/>
			<psa03 value="0.588980933763166" flag="0"/>
			<psa10 value="0.128289728565102" flag="0"/>
			<psa30 value="0.00890611498639726" flag="0"/>
		</comp>
		<comp name=".HNZ" depth="0.0">
			<acc value="0.09944624281419" flag="0"/>
			<vel value="0.0537133964509" flag="0"/>
			<psa03 value="0.335201017922472" flag="0"/>
			<psa10 value="0.0336204559402058" flag="0"/>
			<psa30 value="0.00376534068534138" flag="0"/>
		</comp>
	</station>
	<station code="GOMA" name="GOMA" netid="KO" source="Bogazici University Kandilli Observatory And Earthquake Research Institute (KOERI)" insttype="" lat="38.7077" lon="27.9175">
		<comp name=".HNE" depth="0.0">
			<acc value="0.022145610517608" flag="0"/>
			<vel value="0.013752279649" flag="0"/>
			<psa03 value="0.0872096365854771" flag="0"/>
			<psa10 value="0.0117558231405813" flag="0"/>
			<psa30 value="0.00218622024302896" flag="0"/>
		</comp>
		<comp name=".HNN" depth="0.0">
			<acc value="0.020455056292344" flag="0"/>
			<vel value="0.0157407423073" flag="0"/>
			<psa03 value="0.0755188569203413" flag="0"/>
			<psa10 value="0.0119637819168394" flag="0"/>
			<psa30 value="0.00193915387609514" flag="0"/>
		</comp>
		<comp name=".HNZ" depth="0.0">
			<acc value="0.012298569369408" flag="0"/>
			<vel value="0.00952379687179" flag="0"/>
			<psa03 value="0.0383243877609535" flag="0"/>
			<psa10 value="0.0102104976453705" flag="0"/>
			<psa30 value="0.00310711374770187" flag="0"/>
		</comp>
	</station>
	<station code="GPNR" name="GPNR" netid="KO" source="Bogazici University Kandilli Observatory And Earthquake Research Institute (KOERI)" insttype="" lat="39.456" lon="26.1331">
		<comp name=".HNE" depth="0.0">
			<acc value="0.013201556830296" flag="0"/>
			<vel value="0.0196902037926" flag="0"/>
			<psa03 value="0.0365519760765415" flag="0"/>
			<psa10 value="0.0184181919898186" flag="0"/>
			<psa30 value="0.010596562803631" flag="0"/>
		</comp>
		<comp name=".HNN" depth="0.0">
			<acc value="0.01124408047212" flag="0"/>
			<vel value="0.0119610090175" flag="0"/>
			<psa03 value="0.0270865729983664" flag="0"/>
			<psa10 value="0.0268709144411908" flag="0"/>
			<psa30 value="0.00522357645296903" flag="0"/>
		</comp>
		<comp name=".HNZ" depth="0.0">
			<acc value="0.010988753406774" flag="0"/>
			<vel value="0.00885474031773" flag="0"/>
			<psa03 value="0.0168814125815714" flag="0"/>
			<psa10 value="0.0119332511443253" flag="0"/>
			<psa30 value="0.00238747711697609" flag="0"/>
		</comp>
	</station>
	<station code="KRBN" name="KRBN" netid="KO" source="Bogazici University Kandilli Observatory And Earthquake Research Institute (KOERI)" insttype="" lat="38.5936" lon="26.5537">
		<comp name=".HNE" depth="0.0">
			<acc value="0.042542618771622" flag="0"/>
			<vel value="0.0443440588255" flag="0"/>
			<psa03 value="0.121016475081068" flag="0"/>
			<psa10 value="0.0597413675724756" flag="0"/>
			<psa30 value="0.0151550506144091" flag="0"/>
		</comp>
		<comp name=".HNN" depth="0.0">
			<acc value="0.070643126038182" flag="0"/>
			<vel value="0.0478973802091" flag="0"/>
			<psa03 value="0.202230313432469" flag="0"/>
			<psa10 value="0.0576406959132485" flag="0"/>
			<psa30 value="0.0092100784558324" flag="0"/>
		</comp>
		<comp name=".HNZ" depth="0.0">
			<acc value="0.033448465497456" flag="0"/>
			<vel value="0.028896337855" flag="0"/>
			<psa03 value="0.0861413887361224" flag="0"/>
			<psa10 value="0.037520680560958" flag="0"/>
			<psa30 value="0.00991014566519032" flag="0"/>
		</comp>
	</station>
	<station code="KUSD" name="KUSD" netid="KO" source="Bogazici University Kandilli Observatory And Earthquake Research Institute (KOERI)" insttype="" lat="37.8606" lon="27.2868">
		<comp name=".HNE" depth="0.0">
			<acc value="0.03915456990072" flag="0"/>
			<vel value="0.033294238015" flag="0"/>
			<psa03 value="0.107919836659616" flag="0"/>
			<psa10 value="0.0300793251076766" flag="0"/>
			<psa30 value="0.00497585962626937" flag="0"/>
		</comp>
		<comp name=".HNN" depth="0.0">
			<acc value="0.032526325701894" flag="0"/>
			<vel value="0.0282660205942" flag="0"/>
			<psa03 value="0.147394732927639" flag="0"/>
			<psa10 value="0.0418408842530473" flag="0"/>
			<psa30 value="0.00551031544800903" flag="0"/>
		</comp>
		<comp name=".HNZ" depth="0.0">
			<acc value="0.015077281386768" flag="0"/>
			<vel value="0.0181453860453" flag="0"/>
			<psa03 value="0.0537840837649298" flag="0"/>
			<psa10 value="0.0172513809443033" flag="0"/>
			<psa30 value="0.00652821746238276" flag="0"/>
		</comp>
	</station>
	<station code="NAZL" name="NAZL" netid="KO" source="Bogazici University Kandilli Observatory And Earthquake Research Institute (KOERI)" insttype="" lat="37.9641" lon="28.2922">
		<comp name=".HNE" depth="0.0">
			<acc value="0.034171680371256" flag="0"/>
			<vel value="0.0280391711492" flag="0"/>
			<psa03 value="0.0858235239291305" flag="0"/>
			<psa10 value="0.0271432612328245" flag="0"/>
			<psa30 value="0.00368723926150658" flag="0"/>
		</comp>
		<comp name=".HNN" depth="0.0">
			<acc value="0.019973923017666" flag="0"/>
			<vel value="0.0235210235732" flag="0"/>
			<psa03 value="0.0460477118932489" flag="0"/>
			<psa10 value="0.0236851477748172" flag="0"/>
			<psa30 value="0.00375146809968583" flag="0"/>
		</comp>
		<comp name=".HNZ" depth="0.0">
			<acc value="0.0073366567498428" flag="0"/>
			<vel value="0.0097186054805" flag="0"/>
			<psa03 value="0.023238974363855" flag="0"/>
			<psa10 value="0.0105547601385606" flag="0"/>
			<psa30 value="0.00299040893324746" flag="0"/>
		</comp>
	</station>
	<station code="SOMA" name="SOMA" netid="KO" source="Bogazici University Kandilli Observatory And Earthquake Research Institute (KOERI)" insttype="" lat="39.1564" lon="27.5341">
		<comp name=".HNE" depth="0.0">
			<acc value="0.012767116425588" flag="0"/>
			<vel value="0.0107660889151" flag="0"/>
			<psa03 value="0.0419968289588287" flag="0"/>
			<psa10 value="0.0115850518278106" flag="0"/>
			<psa30 value="0.00545039689537318" flag="0"/>
		</comp>
		<comp name=".HNN" depth="0.0">
			<acc value="0.010420200721404" flag="0"/>
			<vel value="0.0122160240047" flag="0"/>
			<psa03 value="0.0356627062292574" flag="0"/>
			<psa10 value="0.0133471341821494" flag="0"/>
			<psa30 value="0.00394296328529977" flag="0"/>
		</comp>
		<comp name=".HNZ" depth="0.0">
			<acc value="0.0054588462161058" flag="0"/>
			<vel value="0.00616584421305" flag="0"/>
			<psa03 value="0.0197465620190851" flag="0"/>
			<psa10 value="0.00795265963717485" flag="0"/>
			<psa30 value="0.00231754248415117" flag="0"/>
		</comp>
	</station>
	<station code="YKAV" name="YKAV" netid="KO" source="Bogazici University Kandilli Observatory And Earthquake Research Institute (KOERI)" insttype="" lat="37.1246" lon="27.2801">
		<comp name=".HNE" depth="0.0">
			<acc value="0.05265284354802" flag="0"/>
			<vel value="0.0441758131985" flag="0"/>
			<psa03 value="0.117645501770239" flag="0"/>
			<psa10 value="0.0883527104333604" flag="0"/>
			<psa30 value="0.0056505972410186" flag="0"/>
		</comp>
		<comp name=".HNN" depth="0.0">
			<acc value="0.043284551048832" flag="0"/>
			<vel value="0.0330607129552" flag="0"/>
			<psa03 value="0.127506405007021" flag="0"/>
			<psa10 value="0.074516258836356" flag="0"/>
			<psa30 value="0.00714532917632586" flag="0"/>
		</comp>
		<comp name=".HNZ" depth="0.0">
			<acc value="0.031553319474924" flag="0"/>
			<vel value="0.0279158183385" flag="0"/>
			<psa03 value="0.0831054011584487" flag="0"/>
			<psa10 value="0.0339058198441735" flag="0"/>
			<psa30 value="0.00355738899289317" flag="0"/>
		</comp>
	</station>
</stationlist>
