<?xml version="1.0" encoding="UTF-8" standalone="yes"?>
<!DOCTYPE earthquake SYSTEM "stationlist.dtd">
<stationlist created="" xmlns="ch.ethz.sed.shakemap.usgs.xml">
  <station code="ARPRA" name="ARPRA" netid="KO" insttype="CMG-5T" commtype="DIG" lat="39.0929" lon="38.3356">
    <comp name="--.HNE">
      <acc value="0.0283324289" flag="0"/>
      <vel value="0.0099798540" flag="0"/>
      <psa03 value="0.0833636044" flag="0"/>
      <psa10 value="0.0044602091" flag="0"/>
      <psa30 value="0.0007420993" flag="0"/>
    </comp>
    <comp name="--.HNN">
      <acc value="0.0244272856" flag="0"/>
      <vel value="0.0114009129" flag="0"/>
      <psa03 value="0.0736824755" flag="0"/>
      <psa10 value="0.0097026827" flag="0"/>
      <psa30 value="0.0005148420" flag="0"/>
    </comp>
    <comp name="--.HNZ">
      <acc value="0.0150395728" flag="0"/>
      <vel value="0.0056421185" flag="0"/>
      <psa03 value="0.0240384297" flag="0"/>
      <psa10 value="0.0035207837" flag="0"/>
      <psa30 value="0.0004528440" flag="0"/>
    </comp>
  </station>
  <station code="KBAN" name="KBAN" netid="KO" insttype="CMG-6T" commtype="DIG" lat="38.797" lon="38.7278">
    <comp name="--.HHE">
      <acc value="0.0140943926" flag="0"/>
      <vel value="0.0048058023" flag="0"/>
      <psa03 value="0.0268501162" flag="0"/>
      <psa10 value="0.0018228497" flag="0"/>
      <psa30 value="0.0001804108" flag="0"/>
    </comp>
    <comp name="--.HHN">
      <acc value="0.0198890273" flag="0"/>
      <vel value="0.0094212519" flag="0"/>
      <psa03 value="0.0687200824" flag="0"/>
      <psa10 value="0.0040086485" flag="0"/>
      <psa30 value="0.0004495846" flag="0"/>
    </comp>
    <comp name="--.HHZ">
      <acc value="0.0113005455" flag="0"/>
      <vel value="0.0067292078" flag="0"/>
      <psa03 value="0.0297778418" flag="0"/>
      <psa10 value="0.0032060980" flag="0"/>
      <psa30 value="0.0002255386" flag="0"/>
    </comp>
  </station>
  <station code="NURH" name="NURH" netid="KO" insttype="CMG-6T" commtype="DIG" lat="37.9693" lon="37.4363">
    <comp name="--.HHE">
      <acc value="0.0191890031" flag="0"/>
      <vel value="0.0103858588" flag="0"/>
      <psa03 value="0.0509474887" flag="0"/>
      <psa10 value="0.0132366053" flag="0"/>
      <psa30 value="0.0006640727" flag="0"/>
    </comp>
    <comp name="--.HHN">
      <acc value="0.0312655330" flag="0"/>
      <vel value="0.0180278151" flag="0"/>
      <psa03 value="0.0853342157" flag="0"/>
      <psa10 value="0.0130235689" flag="0"/>
      <psa30 value="0.0006857946" flag="0"/>
    </comp>
    <comp name="--.HHZ">
      <acc value="0.0103898576" flag="0"/>
      <vel value="0.0087580081" flag="0"/>
      <psa03 value="0.0237063400" flag="0"/>
      <psa10 value="0.0063178526" flag="0"/>
      <psa30 value="0.0003651811" flag="0"/>
    </comp>
  </station>
  <station code="SARI" name="SARI" netid="KO" insttype="CMG-3T" commtype="DIG" lat="38.4072" lon="36.4181">
    <comp name="--.HHE">
      <acc value="0.0175015371" flag="0"/>
      <vel value="0.0073784693" flag="0"/>
      <psa03 value="0.0621374086" flag="0"/>
      <psa10 value="0.0065120842" flag="0"/>
      <psa30 value="0.0004951266" flag="0"/>
    </comp>
    <comp name="--.HHN">
      <acc value="0.0141630929" flag="0"/>
      <vel value="0.0068706585" flag="0"/>
      <psa03 value="0.0470584994" flag="0"/>
      <psa10 value="0.0054687051" flag="0"/>
      <psa30 value="0.0003405369" flag="0"/>
    </comp>
  </station>
  <station code="SVSK" name="SVSK" netid="KO" insttype="CMG-3T" commtype="DIG" lat="39.9157" lon="36.9925">
    <comp name="--.HHZ">
      <acc value="0.0046244229" flag="0"/>
      <vel value="0.0016615669" flag="0"/>
      <psa03 value="0.0073940084" flag="0"/>
      <psa10 value="0.0010933259" flag="0"/>
      <psa30 value="0.0000861487" flag="0"/>
    </comp>
    <comp name="--.HHN">
      <acc value="0.0064847194" flag="0"/>
      <vel value="0.0020712903" flag="0"/>
      <psa03 value="0.0102036032" flag="0"/>
      <psa10 value="0.0010756238" flag="0"/>
      <psa30 value="0.0000986549" flag="0"/>
    </comp>
    <comp name="--.HHE">
      <acc value="0.0132526641" flag="0"/>
      <vel value="0.0038664809" flag="0"/>
      <psa03 value="0.0170774145" flag="0"/>
      <psa10 value="0.0020515267" flag="0"/>
      <psa30 value="0.0002187304" flag="0"/>
    </comp>
  </station>
  <station code="TUNC" name="TUNC" netid="KO" insttype="CMG-5T" commtype="DIG" lat="39.6942" lon="37.5388">
    <comp name="--.HNZ">
      <acc value="0.0068334054" flag="0"/>
      <vel value="0.0031517135" flag="0"/>
      <psa03 value="0.0141542966" flag="0"/>
      <psa10 value="0.0027531332" flag="0"/>
      <psa30 value="0.0004127807" flag="0"/>
    </comp>
    <comp name="--.HNE">
      <acc value="0.0131224825" flag="0"/>
      <vel value="0.0051993442" flag="0"/>
      <psa03 value="0.0255739304" flag="0"/>
      <psa10 value="0.0038753441" flag="0"/>
      <psa30 value="0.0007030740" flag="0"/>
    </comp>
    <comp name="--.HNN">
      <acc value="0.0142961264" flag="0"/>
      <vel value="0.0065863721" flag="0"/>
      <psa03 value="0.0292330104" flag="0"/>
      <psa10 value="0.0038254302" flag="0"/>
      <psa30 value="0.0005726052" flag="0"/>
    </comp>
  </station>
</stationlist>
