<?xml version="1.0" encoding="UTF-8" standalone="yes"?>
<!DOCTYPE earthquake SYSTEM "stationlist.dtd">
<stationlist created="" xmlns="ch.ethz.sed.shakemap.usgs.xml">
  <station code="ARG" name="ARG" netid="HL" insttype="LE3D20_DR24" lat="36.2136" lon="28.1212">
    <comp name="--.HHE">
      <acc value="0.0477109874" flag="0"/>
      <vel value="0.0299138669" flag="0"/>
      <psa03 value="0.1191322838" flag="0"/>
      <psa10 value="0.0169381591" flag="0"/>
      <psa30 value="0.0015820348" flag="0"/>
    </comp>
    <comp name="--.HHZ">
      <acc value="0.0219360631" flag="0"/>
      <vel value="0.0067892825" flag="0"/>
      <psa03 value="0.0230280188" flag="0"/>
      <psa10 value="0.0079463816" flag="0"/>
      <psa30 value="0.0009609983" flag="0"/>
    </comp>
    <comp name="--.HHN">
      <acc value="0.0247151927" flag="0"/>
      <vel value="0.0118326425" flag="0"/>
      <psa03 value="0.0592952620" flag="0"/>
      <psa10 value="0.0125497097" flag="0"/>
      <psa30 value="0.0011995676" flag="0"/>
    </comp>
  </station>
  <station code="KLNA" name="KLNA" netid="HL" insttype="CMG-5" lat="36.9571" lon="26.9727">
    <comp name="00.HNZ">
      <acc value="0.0324206128" flag="0"/>
      <vel value="0.0085510808" flag="0"/>
      <psa03 value="0.0157250502" flag="0"/>
      <psa10 value="0.0020676895" flag="0"/>
      <psa30 value="0.0002744614" flag="0"/>
    </comp>
    <comp name="00.HNN">
      <acc value="0.0236856790" flag="0"/>
      <vel value="0.0060571264" flag="0"/>
      <psa03 value="0.0402761836" flag="0"/>
      <psa10 value="0.0032068238" flag="0"/>
      <psa30 value="0.0002897909" flag="0"/>
    </comp>
    <comp name="00.HNE">
      <acc value="0.0273757593" flag="0"/>
      <vel value="0.0060369417" flag="0"/>
      <psa03 value="0.0355037895" flag="0"/>
      <psa10 value="0.0031673502" flag="0"/>
      <psa30 value="0.0004112431" flag="0"/>
    </comp>
  </station>
  <station code="NISR" name="NISR" netid="HL" insttype="65535" lat="36.6106" lon="27.131">
    <comp name="--.HHE">
      <acc value="0.3464288346" flag="0"/>
      <vel value="0.1317129863" flag="0"/>
      <psa03 value="0.4645906082" flag="0"/>
      <psa10 value="0.1072105005" flag="0"/>
      <psa30 value="0.0093917699" flag="0"/>
    </comp>
    <comp name="--.HHZ">
      <acc value="0.3027865082" flag="0"/>
      <vel value="0.0429072362" flag="0"/>
      <psa03 value="0.1523529195" flag="0"/>
      <psa10 value="0.0536785985" flag="0"/>
      <psa30 value="0.0024554115" flag="0"/>
    </comp>
    <comp name="--.HHN">
      <acc value="0.3928501467" flag="0"/>
      <vel value="0.0898508564" flag="0"/>
      <psa03 value="0.2390268948" flag="0"/>
      <psa10 value="0.0820891828" flag="0"/>
      <psa30 value="0.0217027898" flag="0"/>
    </comp>
  </station>
</stationlist>
