<?xml version="1.0" encoding="UTF-8" standalone="yes"?>
<!DOCTYPE earthquake SYSTEM "stationlist.dtd">
<stationlist created="" xmlns="ch.ethz.sed.shakemap.usgs.xml">
  <station code="AGRP" name="AGRP" netid="CL" insttype="CMG40-T" lat="38.3959" lon="21.7228">
    <comp name="00.HHE">
      <acc value="0.0918983965" flag="0"/>
      <vel value="0.0261447121" flag="0"/>
      <psa03 value="0.1178653593" flag="0"/>
      <psa10 value="0.0122720987" flag="0"/>
      <psa30 value="0.0014727437" flag="0"/>
    </comp>
    <comp name="00.HHN">
      <acc value="0.1187330340" flag="0"/>
      <vel value="0.0414049591" flag="0"/>
      <psa03 value="0.1942268863" flag="0"/>
      <psa10 value="0.0127227171" flag="0"/>
      <psa30 value="0.0008597431" flag="0"/>
    </comp>
    <comp name="00.HHZ">
      <acc value="0.0943061513" flag="0"/>
      <vel value="0.0188781975" flag="0"/>
      <psa03 value="0.0570212530" flag="0"/>
      <psa10 value="0.0078738131" flag="0"/>
      <psa30 value="0.0007902934" flag="0"/>
    </comp>
  </station>
  <station code="MG00" name="MG00" netid="CL" insttype="TRILLIUM-40" lat="38.4145" lon="21.9467">
    <comp name="00.HHE">
      <acc value="0.1693600211" flag="0"/>
      <vel value="0.0652188748" flag="0"/>
      <psa03 value="0.3319104766" flag="0"/>
      <psa10 value="0.0255819038" flag="0"/>
      <psa30 value="0.0017229971" flag="0"/>
    </comp>
    <comp name="00.HHN">
      <acc value="0.2221787772" flag="0"/>
      <vel value="0.0888806349" flag="0"/>
      <psa03 value="0.3497100990" flag="0"/>
      <psa10 value="0.0451996226" flag="0"/>
      <psa30 value="0.0035739325" flag="0"/>
    </comp>
    <comp name="00.HHZ">
      <acc value="0.2412445856" flag="0"/>
      <vel value="0.0414571091" flag="0"/>
      <psa03 value="0.1126436459" flag="0"/>
      <psa10 value="0.0152437466" flag="0"/>
      <psa30 value="0.0016250703" flag="0"/>
    </comp>
  </station>
  <station code="MG02" name="MG02" netid="CL" insttype="TRILLIUM-40" lat="38.415" lon="21.947">
    <comp name="02.HHE">
      <acc value="0.2266008288" flag="0"/>
      <vel value="0.0589040642" flag="0"/>
      <psa03 value="0.1957325687" flag="0"/>
      <psa10 value="0.0332801985" flag="0"/>
      <psa30 value="0.0020019913" flag="0"/>
    </comp>
    <comp name="02.HHN">
      <acc value="0.1584121045" flag="0"/>
      <vel value="0.0472979451" flag="0"/>
      <psa03 value="0.2417209773" flag="0"/>
      <psa10 value="0.0294104335" flag="0"/>
      <psa30 value="0.0018440414" flag="0"/>
    </comp>
    <comp name="02.HHZ">
      <acc value="0.1355410456" flag="0"/>
      <vel value="0.0552857085" flag="0"/>
      <psa03 value="0.2620674673" flag="0"/>
      <psa10 value="0.0236188409" flag="0"/>
      <psa30 value="0.0015430052" flag="0"/>
    </comp>
  </station>
  <station code="MG03" name="MG03" netid="CL" insttype="TRILLIUM-40" lat="38.4141" lon="21.946">
    <comp name="03.HHE">
      <acc value="0.1988293907" flag="0"/>
      <vel value="0.0567174694" flag="0"/>
      <psa03 value="0.2119775312" flag="0"/>
      <psa10 value="0.0286312677" flag="0"/>
      <psa30 value="0.0016032193" flag="0"/>
    </comp>
    <comp name="03.HHN">
      <acc value="0.0882137885" flag="0"/>
      <vel value="0.0329432926" flag="0"/>
      <psa03 value="0.1551139918" flag="0"/>
      <psa10 value="0.0133866790" flag="0"/>
      <psa30 value="0.0011661212" flag="0"/>
    </comp>
    <comp name="03.HHZ">
      <acc value="0.2689763622" flag="0"/>
      <vel value="0.0398399176" flag="0"/>
      <psa03 value="0.0767354080" flag="0"/>
      <psa10 value="0.0108620539" flag="0"/>
      <psa30 value="0.0013465538" flag="0"/>
    </comp>
  </station>
  <station code="MG04" name="MG04" netid="CL" insttype="TRILLIUM-40" lat="38.4142" lon="21.9481">
    <comp name="04.HHE">
      <acc value="0.1703010602" flag="0"/>
      <vel value="0.0620450212" flag="0"/>
      <psa03 value="0.2513577680" flag="0"/>
      <psa10 value="0.0353348581" flag="0"/>
      <psa30 value="0.0021592427" flag="0"/>
    </comp>
    <comp name="04.HHN">
      <acc value="0.2104028750" flag="0"/>
      <vel value="0.0710679961" flag="0"/>
      <psa03 value="0.2622837920" flag="0"/>
      <psa10 value="0.0308544896" flag="0"/>
      <psa30 value="0.0030278979" flag="0"/>
    </comp>
    <comp name="04.HHZ">
      <acc value="0.2698763233" flag="0"/>
      <vel value="0.0408023826" flag="0"/>
      <psa03 value="0.0956892864" flag="0"/>
      <psa10 value="0.0118953846" flag="0"/>
      <psa30 value="0.0015479908" flag="0"/>
    </comp>
  </station>
  <station code="MG05" name="MG05" netid="CL" insttype="CMG40-T" lat="38.4155" lon="21.9458">
    <comp name="05.HHE">
      <acc value="0.2544099035" flag="0"/>
      <vel value="0.1088716358" flag="0"/>
      <psa03 value="0.4760075059" flag="0"/>
      <psa10 value="0.0444821709" flag="0"/>
      <psa30 value="0.0029787422" flag="0"/>
    </comp>
    <comp name="05.HHN">
      <acc value="0.3201540903" flag="0"/>
      <vel value="0.1174708089" flag="0"/>
      <psa03 value="0.4799378073" flag="0"/>
      <psa10 value="0.0842868357" flag="0"/>
      <psa30 value="0.0063770843" flag="0"/>
    </comp>
    <comp name="05.HHZ">
      <acc value="0.3769099839" flag="0"/>
      <vel value="0.0719201658" flag="0"/>
      <psa03 value="0.4611319878" flag="0"/>
      <psa10 value="0.0413469446" flag="0"/>
      <psa30 value="0.0029676780" flag="0"/>
    </comp>
  </station>
  <station code="MG06" name="MG06" netid="CL" insttype="TRILLIUM-40" lat="38.4129" lon="21.9462">
    <comp name="06.HHE">
      <acc value="0.1578406174" flag="0"/>
      <vel value="0.0385495092" flag="0"/>
      <psa03 value="0.1317976691" flag="0"/>
      <psa10 value="0.0246624089" flag="0"/>
      <psa30 value="0.0019322129" flag="0"/>
    </comp>
    <comp name="06.HHN">
      <acc value="0.1795148031" flag="0"/>
      <vel value="0.0392197240" flag="0"/>
      <psa03 value="0.0833073832" flag="0"/>
      <psa10 value="0.0222629264" flag="0"/>
      <psa30 value="0.0012771598" flag="0"/>
    </comp>
    <comp name="06.HHZ">
      <acc value="0.2127819753" flag="0"/>
      <vel value="0.0281932593" flag="0"/>
      <psa03 value="0.0396934655" flag="0"/>
      <psa10 value="0.0099875976" flag="0"/>
      <psa30 value="0.0015044275" flag="0"/>
    </comp>
  </station>
  <station code="MG07" name="MG07" netid="CL" insttype="TRILLIUM-40" lat="38.4155" lon="21.9488">
    <comp name="07.HHE">
      <acc value="0.1833787533" flag="0"/>
      <vel value="0.0680364448" flag="0"/>
      <psa03 value="0.2123168602" flag="0"/>
      <psa10 value="0.0429462760" flag="0"/>
      <psa30 value="0.0030139213" flag="0"/>
    </comp>
    <comp name="07.HHN">
      <acc value="0.2218163404" flag="0"/>
      <vel value="0.0822844144" flag="0"/>
      <psa03 value="0.3205550655" flag="0"/>
      <psa10 value="0.0519921018" flag="0"/>
      <psa30 value="0.0036083248" flag="0"/>
    </comp>
    <comp name="07.HHZ">
      <acc value="0.1268703342" flag="0"/>
      <vel value="0.0420212827" flag="0"/>
      <psa03 value="0.1225468105" flag="0"/>
      <psa10 value="0.0335339633" flag="0"/>
      <psa30 value="0.0020929828" flag="0"/>
    </comp>
  </station>
  <station code="TRIZ" name="TRIZ" netid="CL" insttype="STS-2" lat="38.3654" lon="22.0727">
    <comp name="00.HH2">
      <acc value="0.0011501807" flag="0"/>
      <vel value="0.0000651009" flag="0"/>
      <psa03 value="0.0001237957" flag="0"/>
      <psa10 value="0.0000052363" flag="0"/>
      <psa30 value="0.0000005172" flag="0"/>
    </comp>
    <comp name="00.HH3">
      <acc value="0.0008696389" flag="0"/>
      <vel value="0.0000730235" flag="0"/>
      <psa03 value="0.0001134162" flag="0"/>
      <psa10 value="0.0000096782" flag="0"/>
      <psa30 value="0.0000009392" flag="0"/>
    </comp>
    <comp name="00.HHZ">
      <acc value="0.0010617070" flag="0"/>
      <vel value="0.0000926034" flag="0"/>
      <psa03 value="0.0001538763" flag="0"/>
      <psa10 value="0.0000092862" flag="0"/>
      <psa30 value="0.0000008116" flag="0"/>
    </comp>
  </station>
  <station code="ACOR" name="ACOR" netid="HA" insttype="30" lat="37.8902" lon="22.8692">
    <comp name="--.HHN">
      <acc value="0.0197545249" flag="0"/>
      <vel value="0.0136741731" flag="0"/>
      <psa03 value="0.0438245778" flag="0"/>
      <psa10 value="0.0165320328" flag="0"/>
      <psa30 value="0.0008731201" flag="0"/>
    </comp>
    <comp name="--.HHZ">
      <acc value="0.0167695270" flag="0"/>
      <vel value="0.0097050810" flag="0"/>
      <psa03 value="0.0392444255" flag="0"/>
      <psa10 value="0.0125992268" flag="0"/>
      <psa30 value="0.0009354657" flag="0"/>
    </comp>
    <comp name="--.HHE">
      <acc value="0.0225772914" flag="0"/>
      <vel value="0.0125684404" flag="0"/>
      <psa03 value="0.0532825034" flag="0"/>
      <psa10 value="0.0105286593" flag="0"/>
      <psa30 value="0.0008342681" flag="0"/>
    </comp>
  </station>
  <station code="ATAL" name="ATAL" netid="HA" insttype="120" lat="38.6926" lon="23.0213">
    <comp name="--.HHE">
      <acc value="0.0101471881" flag="0"/>
      <vel value="0.0063716004" flag="0"/>
      <psa03 value="0.0281511094" flag="0"/>
      <psa10 value="0.0067434673" flag="0"/>
      <psa30 value="0.0003767137" flag="0"/>
    </comp>
    <comp name="--.HHZ">
      <acc value="0.0070534038" flag="0"/>
      <vel value="0.0040126091" flag="0"/>
      <psa03 value="0.0148270066" flag="0"/>
      <psa10 value="0.0044601513" flag="0"/>
      <psa30 value="0.0002882268" flag="0"/>
    </comp>
    <comp name="--.HHN">
      <acc value="0.0091932286" flag="0"/>
      <vel value="0.0045134390" flag="0"/>
      <psa03 value="0.0280852738" flag="0"/>
      <psa10 value="0.0069857840" flag="0"/>
      <psa30 value="0.0003897968" flag="0"/>
    </comp>
  </station>
  <station code="AXAR" name="AXAR" netid="HA" insttype="30" lat="38.7664" lon="22.659">
    <comp name="--.HHN">
      <acc value="0.0360625853" flag="0"/>
      <vel value="0.0172815521" flag="0"/>
      <psa03 value="0.1107509748" flag="0"/>
      <psa10 value="0.0225990885" flag="0"/>
      <psa30 value="0.0010352804" flag="0"/>
    </comp>
    <comp name="--.HHE">
      <acc value="0.0228884717" flag="0"/>
      <vel value="0.0158591221" flag="0"/>
      <psa03 value="0.0769194816" flag="0"/>
      <psa10 value="0.0173217287" flag="0"/>
      <psa30 value="0.0012404734" flag="0"/>
    </comp>
    <comp name="--.HHZ">
      <acc value="0.0178301855" flag="0"/>
      <vel value="0.0067410279" flag="0"/>
      <psa03 value="0.0375679830" flag="0"/>
      <psa10 value="0.0104450369" flag="0"/>
      <psa30 value="0.0005763071" flag="0"/>
    </comp>
  </station>
  <station code="KALE" name="KALE" netid="HA" insttype="40," lat="38.3911" lon="22.1398">
    <comp name="--.HHZ">
      <acc value="0.0766478477" flag="0"/>
      <vel value="0.0230193189" flag="0"/>
      <psa03 value="0.0825474107" flag="0"/>
      <psa10 value="0.0079091760" flag="0"/>
      <psa30 value="0.0007400541" flag="0"/>
    </comp>
    <comp name="--.HHN">
      <acc value="0.1396177398" flag="0"/>
      <vel value="0.0425680443" flag="0"/>
      <psa03 value="0.1513024359" flag="0"/>
      <psa10 value="0.0137722167" flag="0"/>
      <psa30 value="0.0009677249" flag="0"/>
    </comp>
    <comp name="--.HHE">
      <acc value="0.1300190849" flag="0"/>
      <vel value="0.0429677146" flag="0"/>
      <psa03 value="0.1639137496" flag="0"/>
      <psa10 value="0.0252795799" flag="0"/>
      <psa30 value="0.0011369687" flag="0"/>
    </comp>
  </station>
  <station code="LAKA" name="LAKA" netid="HA" insttype="120" lat="38.2401" lon="21.9785">
    <comp name="--.HHE">
      <acc value="0.0638308997" flag="0"/>
      <vel value="0.0130861142" flag="0"/>
      <psa03 value="0.0357542539" flag="0"/>
      <psa10 value="0.0082800311" flag="0"/>
      <psa30 value="0.0009252421" flag="0"/>
    </comp>
    <comp name="--.HHZ">
      <acc value="0.0673923533" flag="0"/>
      <vel value="0.0146767321" flag="0"/>
      <psa03 value="0.0548716053" flag="0"/>
      <psa10 value="0.0070427658" flag="0"/>
      <psa30 value="0.0005870729" flag="0"/>
    </comp>
    <comp name="--.HHN">
      <acc value="0.0994277439" flag="0"/>
      <vel value="0.0103176237" flag="0"/>
      <psa03 value="0.0282473496" flag="0"/>
      <psa10 value="0.0102468737" flag="0"/>
      <psa30 value="0.0005267520" flag="0"/>
    </comp>
  </station>
  <station code="LOUT" name="LOUT" netid="HA" insttype="30" lat="37.9879" lon="22.9743">
    <comp name="--.HHE">
      <acc value="0.0485669046" flag="0"/>
      <vel value="0.0201035088" flag="0"/>
      <psa03 value="0.1124529414" flag="0"/>
      <psa10 value="0.0223098942" flag="0"/>
      <psa30 value="0.0010230352" flag="0"/>
    </comp>
    <comp name="--.HHN">
      <acc value="0.0414593738" flag="0"/>
      <vel value="0.0220040004" flag="0"/>
      <psa03 value="0.0920591079" flag="0"/>
      <psa10 value="0.0183369762" flag="0"/>
      <psa30 value="0.0011371108" flag="0"/>
    </comp>
    <comp name="--.HHZ">
      <acc value="0.0292101414" flag="0"/>
      <vel value="0.0104857765" flag="0"/>
      <psa03 value="0.0685181581" flag="0"/>
      <psa10 value="0.0081130942" flag="0"/>
      <psa30 value="0.0006272448" flag="0"/>
    </comp>
  </station>
  <station code="THAL" name="THAL" netid="HA" insttype="30" lat="38.0357" lon="22.6634">
    <comp name="--.HHN">
      <acc value="0.2451778198" flag="0"/>
      <vel value="0.0696133879" flag="0"/>
      <psa03 value="0.4987003519" flag="0"/>
      <psa10 value="0.0566189803" flag="0"/>
      <psa30 value="0.0033272408" flag="0"/>
    </comp>
    <comp name="--.HHE">
      <acc value="0.2600592368" flag="0"/>
      <vel value="0.0935283144" flag="0"/>
      <psa03 value="0.5532669203" flag="0"/>
      <psa10 value="0.0330850230" flag="0"/>
      <psa30 value="0.0024946043" flag="0"/>
    </comp>
    <comp name="--.HHZ">
      <acc value="0.1597446675" flag="0"/>
      <vel value="0.0510821970" flag="0"/>
      <psa03 value="0.2872905691" flag="0"/>
      <psa10 value="0.0366904079" flag="0"/>
      <psa30 value="0.0014150046" flag="0"/>
    </comp>
  </station>
  <station code="VILL" name="VILL" netid="HA" insttype="30" lat="38.1642" lon="23.3122">
    <comp name="--.HHZ">
      <acc value="0.0078886894" flag="0"/>
      <vel value="0.0042088675" flag="0"/>
      <psa03 value="0.0290590631" flag="0"/>
      <psa10 value="0.0047377208" flag="0"/>
      <psa30 value="0.0003473694" flag="0"/>
    </comp>
    <comp name="--.HHE">
      <acc value="0.0118324296" flag="0"/>
      <vel value="0.0084788602" flag="0"/>
      <psa03 value="0.0423729574" flag="0"/>
      <psa10 value="0.0116240862" flag="0"/>
      <psa30 value="0.0005736634" flag="0"/>
    </comp>
    <comp name="--.HHN">
      <acc value="0.0151863385" flag="0"/>
      <vel value="0.0090306962" flag="0"/>
      <psa03 value="0.0641470638" flag="0"/>
      <psa10 value="0.0076187514" flag="0"/>
      <psa30 value="0.0007857976" flag="0"/>
    </comp>
  </station>
  <station code="ARS1" name="ARS1" netid="HI" insttype="CMG-5TD,ACCELEROMETER,GURALP" lat="37.6349" lon="22.7293">
    <comp name="--.HNE">
      <acc value="0.0693829925" flag="0"/>
      <vel value="0.0398673362" flag="0"/>
      <psa03 value="0.1829478338" flag="0"/>
      <psa10 value="0.0310061572" flag="0"/>
      <psa30 value="0.0017279768" flag="0"/>
    </comp>
    <comp name="--.HNN">
      <acc value="0.0569186067" flag="0"/>
      <vel value="0.0445568214" flag="0"/>
      <psa03 value="0.2449018167" flag="0"/>
      <psa10 value="0.0263195141" flag="0"/>
      <psa30 value="0.0026178114" flag="0"/>
    </comp>
    <comp name="--.HNZ">
      <acc value="0.0412292134" flag="0"/>
      <vel value="0.0151102733" flag="0"/>
      <psa03 value="0.1046393491" flag="0"/>
      <psa10 value="0.0066964162" flag="0"/>
      <psa30 value="0.0009775905" flag="0"/>
    </comp>
  </station>
  <station code="KLV1" name="KLV1" netid="HI" insttype="CMG-5TD,ACCELEROMETER,GURALP" lat="38.0326" lon="22.108">
    <comp name="--.HNE">
      <acc value="1.7173576482" flag="0"/>
      <vel value="0.5940469391" flag="0"/>
      <psa03 value="3.1904561539" flag="0"/>
      <psa10 value="0.1561199398" flag="0"/>
      <psa30 value="0.0106168564" flag="0"/>
    </comp>
    <comp name="--.HNN">
      <acc value="5.6115947467" flag="0"/>
      <vel value="1.5748145769" flag="0"/>
      <psa03 value="4.2462846082" flag="0"/>
      <psa10 value="0.2987989928" flag="0"/>
      <psa30 value="0.0331424391" flag="0"/>
    </comp>
    <comp name="--.HNZ">
      <acc value="2.7837280525" flag="0"/>
      <vel value="0.4837551527" flag="0"/>
      <psa03 value="1.2878333779" flag="0"/>
      <psa10 value="0.1283575199" flag="0"/>
      <psa30 value="0.0087494084" flag="0"/>
    </comp>
  </station>
  <station code="MSL1" name="MSL1" netid="HI" insttype="CMG-5TD,ACCELEROMETER,GURALP" lat="38.3727" lon="21.4243">
    <comp name="--.HNN">
      <acc value="0.0782077496" flag="0"/>
      <vel value="0.0512678845" flag="0"/>
      <psa03 value="0.2225315751" flag="0"/>
      <psa10 value="0.0560433781" flag="0"/>
      <psa30 value="0.0024517673" flag="0"/>
    </comp>
    <comp name="--.HNE">
      <acc value="0.0883445702" flag="0"/>
      <vel value="0.0461547111" flag="0"/>
      <psa03 value="0.3128182857" flag="0"/>
      <psa10 value="0.0584838882" flag="0"/>
      <psa30 value="0.0038353364" flag="0"/>
    </comp>
    <comp name="--.HNZ">
      <acc value="0.0497145835" flag="0"/>
      <vel value="0.0167747092" flag="0"/>
      <psa03 value="0.0867353115" flag="0"/>
      <psa10 value="0.0279136897" flag="0"/>
      <psa30 value="0.0011733027" flag="0"/>
    </comp>
  </station>
  <station code="EVR" name="EVR" netid="HL" insttype="DR24" lat="38.9166" lon="21.8105">
    <comp name="--.HHE">
      <acc value="0.0148143881" flag="0"/>
      <vel value="0.0072519854" flag="0"/>
      <psa03 value="0.0316959628" flag="0"/>
      <psa10 value="0.0107875642" flag="0"/>
      <psa30 value="0.0010035457" flag="0"/>
    </comp>
    <comp name="--.HHN">
      <acc value="0.0186287764" flag="0"/>
      <vel value="0.0112545224" flag="0"/>
      <psa03 value="0.0530257767" flag="0"/>
      <psa10 value="0.0127192507" flag="0"/>
      <psa30 value="0.0006022870" flag="0"/>
    </comp>
    <comp name="--.HHZ">
      <acc value="0.0074238997" flag="0"/>
      <vel value="0.0055824653" flag="0"/>
      <psa03 value="0.0160073897" flag="0"/>
      <psa10 value="0.0058319771" flag="0"/>
      <psa30 value="0.0008838442" flag="0"/>
    </comp>
  </station>
  <station code="ITM" name="ITM" netid="HL" insttype="DR24" lat="37.1787" lon="21.9252">
    <comp name="--.HHZ">
      <acc value="0.0194348515" flag="0"/>
      <vel value="0.0069461392" flag="0"/>
      <psa03 value="0.0374155298" flag="0"/>
      <psa10 value="0.0096308399" flag="0"/>
      <psa30 value="0.0005527621" flag="0"/>
    </comp>
    <comp name="--.HHN">
      <acc value="0.0253443694" flag="0"/>
      <vel value="0.0086293445" flag="0"/>
      <psa03 value="0.0303694089" flag="0"/>
      <psa10 value="0.0081078093" flag="0"/>
      <psa30 value="0.0005141347" flag="0"/>
    </comp>
    <comp name="--.HHE">
      <acc value="0.0206731604" flag="0"/>
      <vel value="0.0096171840" flag="0"/>
      <psa03 value="0.0691327704" flag="0"/>
      <psa10 value="0.0090155233" flag="0"/>
      <psa30 value="0.0007369819" flag="0"/>
    </comp>
  </station>
  <station code="KLV" name="KLV" netid="HL" insttype="120" lat="38.0435" lon="22.1504">
    <comp name="--.HHE">
      <acc value="0.9895566710" flag="0"/>
      <vel value="0.1251816908" flag="0"/>
      <psa03 value="0.3898079464" flag="0"/>
      <psa10 value="0.0697068396" flag="0"/>
      <psa30 value="0.0037983695" flag="0"/>
    </comp>
    <comp name="--.HHN">
      <acc value="1.5838620807" flag="0"/>
