<stationlist created="1778069783">
	<station code="LTRS" name="LTRS" netid="HA" source="Hellenic Seismological Network, University of Athens, Seismological Laboratory (HA)" insttype="" lat="37.97528" lon="22.9765">
		<comp name="--.HNE" depth="0.0">
			<acc value="0.0409106455102712" flag="0"/>
			<vel value="0.0330978623778897" flag="0"/>
			<psa03 value="0.186888197044521" flag="0"/>
			<psa10 value="0.0503953844244904" flag="0"/>
			<psa30 value="0.00309526585385204" flag="0"/>
		</comp>
		<comp name="--.HNN" depth="0.0">
			<acc value="0.0468651840584145" flag="0"/>
			<vel value="0.0285982252199595" flag="0"/>
			<psa03 value="0.137940223004132" flag="0"/>
			<psa10 value="0.0360720618197831" flag="0"/>
			<psa30 value="0.00245634714334312" flag="0"/>
		</comp>
		<comp name="--.HNZ" depth="0.0">
			<acc value="0.0357460242227834" flag="0"/>
			<vel value="0.0213569289214924" flag="0"/>
			<psa03 value="0.0855918412607539" flag="0"/>
			<psa10 value="0.0201621805683918" flag="0"/>
			<psa30 value="0.00140266817748282" flag="0"/>
		</comp>
	</station>
	<station code="XLKS" name="XLKS" netid="HA" source="Hellenic Seismological Network, University of Athens, Seismological Laboratory (HA)" insttype="" lat="38.0772" lon="22.6361">
		<comp name="--.HNE" depth="0.0">
			<acc value="0.203534280849695" flag="0"/>
			<vel value="0.0765340108257782" flag="0"/>
			<psa03 value="0.425990549212565" flag="0"/>
			<psa10 value="0.0782366699147762" flag="0"/>
			<psa30 value="0.00328720992024443" flag="0"/>
		</comp>
		<comp name="--.HNN" depth="0.0">
			<acc value="0.180007852790904" flag="0"/>
			<vel value="0.0653000881105417" flag="0"/>
			<psa03 value="0.376818864139085" flag="0"/>
			<psa10 value="0.0496987482674439" flag="0"/>
			<psa30 value="0.00384246070437718" flag="0"/>
		</comp>
		<comp name="--.HNZ" depth="0.0">
			<acc value="0.135259640304986" flag="0"/>
			<vel value="0.0463679310586707" flag="0"/>
			<psa03 value="0.351450032986525" flag="0"/>
			<psa10 value="0.0285741628346931" flag="0"/>
			<psa30 value="0.00257894078947718" flag="0"/>
		</comp>
	</station>
	<station code="KLV1" name="KLV1" netid="HI" source="ITSAK Strong Motion Network" insttype="" lat="38.03256" lon="22.10797">
		<comp name="--.HNE" depth="0.0">
			<acc value="1.70655199707528" flag="0"/>
			<vel value="0.600874783909472" flag="0"/>
			<psa03 value="3.1945935525446" flag="0"/>
			<psa10 value="0.157161922389408" flag="0"/>
			<psa30 value="0.0108683294096444" flag="0"/>
		</comp>
		<comp name="--.HNN" depth="0.0">
			<acc value="5.54291282596224" flag="0"/>
			<vel value="1.62781606715198" flag="0"/>
			<psa03 value="4.28509535445174" flag="0"/>
			<psa10 value="0.301885063916869" flag="0"/>
			<psa30 value="0.0330761236646236" flag="0"/>
		</comp>
		<comp name="--.HNZ" depth="0.0">
			<acc value="2.82870938699476" flag="0"/>
			<vel value="0.494455674458303" flag="0"/>
			<psa03 value="1.3161814920897" flag="0"/>
			<psa10 value="0.128519303978589" flag="0"/>
			<psa30 value="0.00905492777540584" flag="0"/>
		</comp>
	</station>
	<station code="MSL1" name="MSL1" netid="HI" source="ITSAK Strong Motion Network" insttype="" lat="38.3727" lon="21.4243">
		<comp name="--.HNE" depth="0.0">
			<acc value="0.0883419149003019" flag="0"/>
			<vel value="0.0463303166578714" flag="0"/>
			<psa03 value="0.31377709501394" flag="0"/>
			<psa10 value="0.0584288476228011" flag="0"/>
			<psa30 value="0.00397668732423199" flag="0"/>
		</comp>
		<comp name="--.HNN" depth="0.0">
			<acc value="0.07802899479231" flag="0"/>
			<vel value="0.0515933045817057" flag="0"/>
			<psa03 value="0.222234540272956" flag="0"/>
			<psa10 value="0.0561496796176663" flag="0"/>
			<psa30 value="0.00254404186831493" flag="0"/>
		</comp>
		<comp name="--.HNZ" depth="0.0">
			<acc value="0.0501199403160616" flag="0"/>
			<vel value="0.0167646881102309" flag="0"/>
			<psa03 value="0.0891712177902156" flag="0"/>
			<psa10 value="0.0279419554551769" flag="0"/>
			<psa30 value="0.00127783742101784" flag="0"/>
		</comp>
	</station>
	<station code="VAS2" name="VAS2" netid="HI" source="ITSAK Strong Motion Network" insttype="" lat="38.630558" lon="20.608081">
		<comp name="--.HNE" depth="0.0">
			<acc value="0.0436668700879617" flag="0"/>
			<vel value="0.0365294523849049" flag="0"/>
			<psa03 value="0.082146691351147" flag="0"/>
			<psa10 value="0.0529966963172767" flag="0"/>
			<psa30 value="0.00309034421112403" flag="0"/>
		</comp>
		<comp name="--.HNN" depth="0.0">
			<acc value="0.044117307295787" flag="0"/>
			<vel value="0.0407806635010445" flag="0"/>
			<psa03 value="0.084294317268824" flag="0"/>
			<psa10 value="0.0534074297740324" flag="0"/>
			<psa30 value="0.00479010064055217" flag="0"/>
		</comp>
		<comp name="--.HNZ" depth="0.0">
			<acc value="0.0182254027502106" flag="0"/>
			<vel value="0.0128559593203677" flag="0"/>
			<psa03 value="0.0387914931380416" flag="0"/>
			<psa10 value="0.0182655584298433" flag="0"/>
			<psa30 value="0.000944507981711717" flag="0"/>
		</comp>
	</station>
	<station code="ITM" name="ITM" netid="HL" source="National Observatory of Athens Seismic Network" insttype="" lat="37.17872" lon="21.92522">
		<comp name="--.HNE" depth="0.0">
			<acc value="0.0204577346813024" flag="0"/>
			<vel value="0.0094778753589852" flag="0"/>
			<psa03 value="0.0681423806796279" flag="0"/>
			<psa10 value="0.00879050133429185" flag="0"/>
			<psa30 value="0.000883658580710867" flag="0"/>
		</comp>
		<comp name="--.HNN" depth="0.0">
			<acc value="0.0249759946659685" flag="0"/>
			<vel value="0.0084623527710553" flag="0"/>
			<psa03 value="0.0310063491864623" flag="0"/>
			<psa10 value="0.00798514161516296" flag="0"/>
			<psa30 value="0.000516772486441039" flag="0"/>
		</comp>
		<comp name="--.HNZ" depth="0.0">
			<acc value="0.0188306979844502" flag="0"/>
			<vel value="0.0065118349551228" flag="0"/>
			<psa03 value="0.0345857257159241" flag="0"/>
			<psa10 value="0.00878244773710056" flag="0"/>
			<psa30 value="0.000585228062566994" flag="0"/>
		</comp>
	</station>
	<station code="KYMI" name="KYMI" netid="HL" source="National Observatory of Athens Seismic Network" insttype="" lat="38.633147" lon="24.100138">
		<comp name="--.HNE" depth="1.0">
			<acc value="0.00319476745732189" flag="0"/>
			<vel value="0.00206463768159613" flag="0"/>
			<psa03 value="0.0122146224067882" flag="0"/>
			<psa10 value="0.00253688311525601" flag="0"/>
			<psa30 value="0.000212078059370608" flag="0"/>
		</comp>
		<comp name="--.HNN" depth="1.0">
			<acc value="0.00339834009370564" flag="0"/>
			<vel value="0.00337991349780303" flag="0"/>
			<psa03 value="0.00894844132365435" flag="0"/>
			<psa10 value="0.00496504266842962" flag="0"/>
			<psa30 value="0.000249661512929956" flag="0"/>
		</comp>
		<comp name="--.HNZ" depth="1.0">
			<acc value="0.00152731199380714" flag="0"/>
			<vel value="0.00143889369033432" flag="0"/>
			<psa03 value="0.00550329141404743" flag="0"/>
			<psa10 value="0.00171541620174454" flag="0"/>
			<psa30 value="0.000240713071606302" flag="0"/>
		</comp>
	</station>
	<station code="NOAC" name="NOAC" netid="HL" source="National Observatory of Athens Seismic Network" insttype="" lat="37.97384" lon="23.71767">
		<comp name="00.HNE" depth="0.0">
			<acc value="0.0155920798776227" flag="0"/>
			<vel value="0.00648914504508503" flag="0"/>
			<psa03 value="0.0399100483034984" flag="0"/>
			<psa10 value="0.0065395209193266" flag="0"/>
			<psa30 value="0.000374939691461117" flag="0"/>
		</comp>
		<comp name="00.HNN" depth="0.0">
			<acc value="0.00786630897127541" flag="0"/>
			<vel value="0.0049918126050971" flag="0"/>
			<psa03 value="0.0234449162679744" flag="0"/>
			<psa10 value="0.00575429519317593" flag="0"/>
			<psa30 value="0.000496191071396634" flag="0"/>
		</comp>
		<comp name="00.HNZ" depth="0.0">
			<acc value="0.00624146145859859" flag="0"/>
			<vel value="0.00353475933163444" flag="0"/>
			<psa03 value="0.0146754437707931" flag="0"/>
			<psa10 value="0.00521873097995522" flag="0"/>
			<psa30 value="0.000248319246731408" flag="0"/>
		</comp>
	</station>
	<station code="PATC" name="PATC" netid="HL" source="National Observatory of Athens Seismic Network" insttype="" lat="38.26933" lon="21.76001">
		<comp name="00.HNE" depth="0.0">
			<acc value="0.2900024065201" flag="0"/>
			<vel value="0.133610139640386" flag="0"/>
			<psa03 value="0.758827824245889" flag="0"/>
			<psa10 value="0.128140784910598" flag="0"/>
			<psa30 value="0.0152973604427871" flag="0"/>
		</comp>
		<comp name="00.HNN" depth="0.0">
			<acc value="0.322017193551792" flag="0"/>
			<vel value="0.110765832367963" flag="0"/>
			<psa03 value="0.473640999261025" flag="0"/>
			<psa10 value="0.109335635468938" flag="0"/>
			<psa30 value="0.00671535779133641" flag="0"/>
		</comp>
		<comp name="00.HNZ" depth="0.0">
			<acc value="0.209171764343004" flag="0"/>
			<vel value="0.0620130491478839" flag="0"/>
			<psa03 value="0.26406850346104" flag="0"/>
			<psa10 value="0.0731025017053295" flag="0"/>
			<psa30 value="0.00435296928189166" flag="0"/>
		</comp>
	</station>
	<station code="PATG" name="PATG" netid="HL" source="National Observatory of Athens Seismic Network" insttype="" lat="38.23865" lon="21.72657">
		<comp name="00.HNE" depth="0.0">
			<acc value="0.717243677902441" flag="0"/>
			<vel value="0.230261975953625" flag="0"/>
			<psa03 value="0.726121271207932" flag="0"/>
			<psa10 value="0.124170361495292" flag="0"/>
			<psa30 value="0.0128741225323415" flag="0"/>
		</comp>
		<comp name="00.HNN" depth="0.0">
			<acc value="0.646431311295558" flag="0"/>
			<vel value="0.233606676390965" flag="0"/>
			<psa03 value="1.19828577765055" flag="0"/>
			<psa10 value="0.144332542063684" flag="0"/>
			<psa30 value="0.0153917664987517" flag="0"/>
		</comp>
		<comp name="00.HNZ" depth="0.0">
			<acc value="0.357283968455789" flag="0"/>
			<vel value="0.109498627881683" flag="0"/>
			<psa03 value="0.353552916697583" flag="0"/>
			<psa10 value="0.0934015934259732" flag="0"/>
			<psa30 value="0.00563483350150514" flag="0"/>
		</comp>
	</station>
	<station code="RIOA" name="RIOA" netid="HL" source="National Observatory of Athens Seismic Network" insttype="" lat="38.29585" lon="21.79118">
		<comp name="00.HNE" depth="0.0">
			<acc value="0.260000704951813" flag="0"/>
			<vel value="0.0651342864659493" flag="0"/>
			<psa03 value="0.28813981062167" flag="0"/>
			<psa10 value="0.0448343755639054" flag="0"/>
			<psa30 value="0.00411762527507955" flag="0"/>
		</comp>
		<comp name="00.HNN" depth="0.0">
			<acc value="0.233490071298519" flag="0"/>
			<vel value="0.0782338514775304" flag="0"/>
			<psa03 value="0.421337359724265" flag="0"/>
			<psa10 value="0.0534074297740324" flag="0"/>
			<psa30 value="0.00497085915528999" flag="0"/>
		</comp>
		<comp name="00.HNZ" depth="0.0">
			<acc value="0.238281058406914" flag="0"/>
			<vel value="0.0579149037393233" flag="0"/>
			<psa03 value="0.290690116398912" flag="0"/>
			<psa10 value="0.0275473291928037" flag="0"/>
			<psa30 value="0.00389436166405437" flag="0"/>
		</comp>
	</station>
	<station code="ANX" name="ANX" netid="HP" source="University of Patras, Seismological Laboratory (PSLNET)" insttype="" lat="38.5933" lon="21.9209">
		<comp name="--.HNE" depth="0.0">
			<acc value="0.0991246913889028" flag="0"/>
			<vel value="0.040075355798304" flag="0"/>
			<psa03 value="0.160311326313268" flag="0"/>
			<psa10 value="0.0189863553784636" flag="0"/>
			<psa30 value="0.00128902297267241" flag="0"/>
		</comp>
		<comp name="--.HNN" depth="0.0">
			<acc value="0.0854254506702965" flag="0"/>
			<vel value="0.0321728954597155" flag="0"/>
			<psa03 value="0.12814167975473" flag="0"/>
			<psa10 value="0.0269594165978396" flag="0"/>
			<psa30 value="0.00182548203002549" flag="0"/>
		</comp>
		<comp name="--.HNZ" depth="0.0">
			<acc value="0.0470783391541809" flag="0"/>
			<vel value="0.0161177100996104" flag="0"/>
			<psa03 value="0.0693951624649395" flag="0"/>
			<psa10 value="0.0116293943442212" flag="0"/>
			<psa30 value="0.00142414443665959" flag="0"/>
		</comp>
	</station>
	<station code="GUR" name="GUR" netid="HP" source="University of Patras, Seismological Laboratory (PSLNET)" insttype="" lat="37.9363" lon="22.3423">
		<comp name="--.HNE" depth="0.0">
			<acc value="0.366502515852876" flag="0"/>
			<vel value="0.103073811819388" flag="0"/>
			<psa03 value="0.450419794026142" flag="0"/>
			<psa10 value="0.0366599744147471" flag="0"/>
			<psa30 value="0.0023946028982099" flag="0"/>
		</comp>
		<comp name="--.HNN" depth="0.0">
			<acc value="0.387902432569457" flag="0"/>
			<vel value="0.106675862970834" flag="0"/>
			<psa03 value="0.512566719018921" flag="0"/>
			<psa10 value="0.0476450809836652" flag="0"/>
			<psa30 value="0.00365722796897753" flag="0"/>
		</comp>
		<comp name="--.HNZ" depth="0.0">
			<acc value="0.287274925019915" flag="0"/>
			<vel value="0.0646531752309078" flag="0"/>
			<psa03 value="0.219773718908951" flag="0"/>
			<psa10 value="0.0240319340188061" flag="0"/>
			<psa30 value="0.0016438286711553" flag="0"/>
		</comp>
	</station>
	<station code="PDO" name="PDO" netid="HP" source="University of Patras, Seismological Laboratory (PSLNET)" insttype="" lat="38.5986" lon="21.1833">
		<comp name="--.HNE" depth="0.0">
			<acc value="0.048225549476602" flag="0"/>
			<vel value="0.0171486445814483" flag="0"/>
			<psa03 value="0.0951219312704458" flag="0"/>
			<psa10 value="0.00779588208116767" flag="0"/>
			<psa30 value="0.000668001144810797" flag="0"/>
		</comp>
		<comp name="--.HNN" depth="0.0">
			<acc value="0.0527184789965567" flag="0"/>
			<vel value="0.017599557156429" flag="0"/>
			<psa03 value="0.123577974679667" flag="0"/>
			<psa10 value="0.00787239125448492" flag="0"/>
			<psa30 value="0.000736904143002936" flag="0"/>
		</comp>
		<comp name="--.HNZ" depth="0.0">
			<acc value="0.0345898460080713" flag="0"/>
			<vel value="0.00988530497578237" flag="0"/>
			<psa03 value="0.0424603540807399" flag="0"/>
			<psa10 value="0.00537174932658971" flag="0"/>
			<psa30 value="0.000637576444310372" flag="0"/>
		</comp>
	</station>
	<station code="PVO" name="PVO" netid="HP" source="University of Patras, Seismological Laboratory (PSLNET)" insttype="" lat="38.616" lon="21.525">
		<comp name="--.HNE" depth="0.0">
			<acc value="0.0312912682721548" flag="0"/>
			<vel value="0.0112605173127637" flag="0"/>
			<psa03 value="0.0472030279822767" flag="0"/>
			<psa10 value="0.00573416120019771" flag="0"/>
			<psa30 value="0.000636234178111824" flag="0"/>
		</comp>
		<comp name="--.HNN" depth="0.0">
			<acc value="0.0403750151879672" flag="0"/>
			<vel value="0.0133516520866607" flag="0"/>
			<psa03 value="0.0593729081824466" flag="0"/>
			<psa10 value="0.0107273914587968" flag="0"/>
			<psa30 value="0.000854128724342808" flag="0"/>
		</comp>
		<comp name="--.HNZ" depth="0.0">
			<acc value="0.0277958480202629" flag="0"/>
			<vel value="0.0111838776721467" flag="0"/>
			<psa03 value="0.0480978721146421" flag="0"/>
			<psa10 value="0.00876634054271798" flag="0"/>
			<psa30 value="0.000822361757643835" flag="0"/>
		</comp>
	</station>
	<station code="SERG" name="SERG" netid="HP" source="University of Patras, Seismological Laboratory (PSLNET)" insttype="" lat="38.4133" lon="22.0566">
		<comp name="--.HNE" depth="0.0">
			<acc value="0.139515326913233" flag="0"/>
			<vel value="0.0440509526969899" flag="0"/>
			<psa03 value="0.114808502182485" flag="0"/>
			<psa10 value="0.0139770179254819" flag="0"/>
			<psa30 value="0.00121967255241409" flag="0"/>
		</comp>
		<comp name="--.HNN" depth="0.0">
			<acc value="0.176634735801372" flag="0"/>
			<vel value="0.0543739539636524" flag="0"/>
			<psa03 value="0.178789857646614" flag="0"/>
			<psa10 value="0.030523133354985" flag="0"/>
			<psa30 value="0.0014420413193069" flag="0"/>
		</comp>
		<comp name="--.HNZ" depth="0.0">
			<acc value="0.0861697050974556" flag="0"/>
			<vel value="0.0261222330693346" flag="0"/>
			<psa03 value="0.102907075222025" flag="0"/>
			<psa10 value="0.0135501772743436" flag="0"/>
			<psa30 value="0.00130647243325353" flag="0"/>
		</comp>
	</station>
	<station code="UPR" name="UPR" netid="HP" source="University of Patras, Seismological Laboratory (PSLNET)" insttype="" lat="38.2836" lon="21.7864">
		<comp name="--.HNE" depth="2.0">
			<acc value="0.214539278672576" flag="0"/>
			<vel value="0.074206916767116" flag="0"/>
			<psa03 value="0.318609253328713" flag="0"/>
			<psa10 value="0.0597979591453202" flag="0"/>
			<psa30 value="0.00680305251630822" flag="0"/>
		</comp>
		<comp name="--.HNN" depth="2.0">
			<acc value="0.234612682507645" flag="0"/>
			<vel value="0.0952120814908955" flag="0"/>
			<psa03 value="0.388988744339255" flag="0"/>
			<psa10 value="0.127601193898782" flag="0"/>
			<psa30 value="0.0068630070731767" flag="0"/>
		</comp>
		<comp name="--.HNZ" depth="2.0">
			<acc value="0.23705785252413" flag="0"/>
			<vel value="0.0505577478874716" flag="0"/>
			<psa03 value="0.163085343123601" flag="0"/>
			<psa10 value="0.0879090401415142" flag="0"/>
			<psa30 value="0.00417042107888911" flag="0"/>
		</comp>
	</station>
	<station code="VALY" name="VALY" netid="HP" source="University of Patras, Seismological Laboratory (PSLNET)" insttype="" lat="37.1641" lon="21.9836">
		<comp name="--.HNE" depth="0.0">
			<acc value="0.0324773266492642" flag="0"/>
			<vel value="0.0130561538009308" flag="0"/>
			<psa03 value="0.128231164167967" flag="0"/>
			<psa10 value="0.0100025677115808" flag="0"/>
			<psa30 value="0.000819229803180556" flag="0"/>
		</comp>
		<comp name="--.HNN" depth="0.0">
			<acc value="0.0382800958553095" flag="0"/>
			<vel value="0.0153448730715465" flag="0"/>
			<psa03 value="0.128231164167967" flag="0"/>
			<psa10 value="0.00866567057782687" flag="0"/>
			<psa30 value="0.000594176503890649" flag="0"/>
		</comp>
		<comp name="--.HNZ" depth="0.0">
			<acc value="0.0172009201270755" flag="0"/>
			<vel value="0.0086653745338727" flag="0"/>
			<psa03 value="0.0371807736997838" flag="0"/>
			<psa10 value="0.0116334211428168" flag="0"/>
			<psa30 value="0.000488584896271528" flag="0"/>
		</comp>
	</station>
</stationlist>
