<stationlist created="1778138946">
	<station code="CHAY" name="CHAY" netid="KO" source="Bogazici University Kandilli Observatory And Earthquake Research Institute (KOERI)" insttype="" lat="41.0862" lon="40.7253">
		<comp name="--.HNE" depth="0.0">
			<acc value="0.0161623497290904" flag="0"/>
			<vel value="0.00275036735943591" flag="0"/>
			<psa03 value="0.00852162701596668" flag="0"/>
			<psa10 value="0.00748529852053297" flag="0"/>
			<psa30 value="0.000498391453489948" flag="0"/>
		</comp>
		<comp name="--.HNN" depth="0.0">
			<acc value="0.0167171788438956" flag="0"/>
			<vel value="0.00358493414830315" flag="0"/>
			<psa03 value="0.0184322145333554" flag="0"/>
			<psa10 value="0.00573447019300409" flag="0"/>
			<psa30 value="0.000549600991700855" flag="0"/>
		</comp>
		<comp name="--.HNZ" depth="0.0">
			<acc value="0.0179740063261944" flag="0"/>
			<vel value="0.00242053595002411" flag="0"/>
			<psa03 value="0.00932176270332743" flag="0"/>
			<psa10 value="0.00283221621417342" flag="0"/>
			<psa30 value="0.000328348261877639" flag="0"/>
		</comp>
	</station>
	<station code="RFHY" name="RFHY" netid="KO" source="Bogazici University Kandilli Observatory And Earthquake Research Institute (KOERI)" insttype="" lat="39.927" lon="38.833">
		<comp name="--.HNE" depth="0.0">
			<acc value="0.0153864054773926" flag="0"/>
			<vel value="0.00548845933975678" flag="0"/>
			<psa03 value="0.0151859851636737" flag="0"/>
			<psa10 value="0.00683247777437697" flag="0"/>
			<psa30 value="0.0015671119384731" flag="0"/>
		</comp>
		<comp name="--.HNN" depth="0.0">
			<acc value="0.0208488209711758" flag="0"/>
			<vel value="0.0077909383249801" flag="0"/>
			<psa03 value="0.00973852794219127" flag="0"/>
			<psa10 value="0.00840094464637267" flag="0"/>
			<psa30 value="0.001435969605106" flag="0"/>
		</comp>
		<comp name="--.HNZ" depth="0.0">
			<acc value="0.0049173321703664" flag="0"/>
			<vel value="0.00253337550053279" flag="0"/>
			<psa03 value="0.00642979117647066" flag="0"/>
			<psa10 value="0.00628053589842999" flag="0"/>
			<psa30 value="0.000530835217311512" flag="0"/>
		</comp>
	</station>
</stationlist>
