<?xml version="1.0" encoding="UTF-8" standalone="yes"?>
<!DOCTYPE earthquake SYSTEM "stationlist.dtd">
<stationlist created="" xmlns="ch.ethz.sed.shakemap.usgs.xml">
  <station code="KARO" name="KARO" netid="KO" insttype="120s," lat="39.3089" lon="41.0493">
    <comp name="--.HHZ">
      <acc value="0.2624866781" flag="0"/>
      <vel value="0.1417444003" flag="0"/>
      <psa03 value="0.8093971414" flag="0"/>
      <psa10 value="0.0567781893" flag="0"/>
      <psa30 value="0.0048472439" flag="0"/>
    </comp>
    <comp name="--.HHE">
      <acc value="0.9943504465" flag="0"/>
      <vel value="0.3493283477" flag="0"/>
      <psa03 value="2.5735636030" flag="0"/>
      <psa10 value="0.1653423289" flag="0"/>
      <psa30 value="0.0148976035" flag="0"/>
    </comp>
    <comp name="--.HHN">
      <acc value="0.5937627763" flag="0"/>
      <vel value="0.2958547829" flag="0"/>
      <psa03 value="1.3046486020" flag="0"/>
      <psa10 value="0.1227687394" flag="0"/>
      <psa30 value="0.0086634569" flag="0"/>
    </comp>
  </station>
</stationlist>
