<stationlist created="1778070046">
	<station code="OEM9" name="OEM9" netid="3D" source="INGV temporary network for seismic monitoring of the island of Vulcano to increase volcanic activity (Sicily, Italy) (VITN)" insttype="" lat="38.3879" lon="14.9908">
		<comp name="--.HNE" depth="0.0">
			<acc value="0.0621778970018446" flag="0"/>
			<vel value="0.0243879843195954" flag="0"/>
			<psa03 value="0.085006605228705" flag="0"/>
			<psa10 value="0.0374292870065569" flag="0"/>
			<psa30 value="0.00258456267292416" flag="0"/>
		</comp>
		<comp name="--.HNN" depth="0.0">
			<acc value="0.0477572118357136" flag="0"/>
			<vel value="0.0182066335044292" flag="0"/>
			<psa03 value="0.111931414906893" flag="0"/>
			<psa10 value="0.0317686732687053" flag="0"/>
			<psa30 value="0.00366844885006725" flag="0"/>
		</comp>
		<comp name="--.HNZ" depth="0.0">
			<acc value="0.0388921219909353" flag="0"/>
			<vel value="0.0107273549916602" flag="0"/>
			<psa03 value="0.0405946891989312" flag="0"/>
			<psa10 value="0.0125815340898955" flag="0"/>
			<psa30 value="0.00186553399913636" flag="0"/>
		</comp>
	</station>
	<station code="ACR" name="ACR" netid="IT" source="Italian Strong Motion Network (RAN)" insttype="" lat="39.4889" lon="16.3798">
		<comp name="--.HNE" depth="0.0">
			<acc value="0.12115134294024" flag="0"/>
			<vel value="0.0688538882886" flag="0"/>
			<psa03 value="0.161519866565307" flag="0"/>
			<psa10 value="0.0678867946670949" flag="0"/>
			<psa30 value="0.00432692788773706" flag="0"/>
		</comp>
		<comp name="--.HNN" depth="0.0">
			<acc value="0.12710590721958" flag="0"/>
			<vel value="0.0435823649316" flag="0"/>
			<psa03 value="0.22352622418188" flag="0"/>
			<psa10 value="0.0240712152248809" flag="0"/>
			<psa30 value="0.00185785849067357" flag="0"/>
		</comp>
		<comp name="--.HNZ" depth="0.0">
			<acc value="0.096721194684828" flag="0"/>
			<vel value="0.0622332736727" flag="0"/>
			<psa03 value="0.113852813023565" flag="0"/>
			<psa10 value="0.0312685082601984" flag="0"/>
			<psa30 value="0.00357068695715419" flag="0"/>
		</comp>
	</station>
	<station code="AMN" name="AMN" netid="IT" source="Italian Strong Motion Network (RAN)" insttype="" lat="39.1367" lon="16.0796">
		<comp name="--.HGE" depth="0.0">
			<acc value="1.2337653449418" flag="0"/>
			<vel value="0.334867689088" flag="0"/>
			<psa03 value="2.13048896777172" flag="0"/>
			<psa10 value="0.13753190081348" flag="0"/>
			<psa30 value="0.00929613499000903" flag="0"/>
		</comp>
		<comp name="--.HGN" depth="0.0">
			<acc value="1.3702872854358" flag="0"/>
			<vel value="0.540528963616" flag="0"/>
			<psa03 value="3.07000770627893" flag="0"/>
			<psa10 value="0.223397784006955" flag="0"/>
			<psa30 value="0.0144927050705977" flag="0"/>
		</comp>
		<comp name="--.HGZ" depth="0.0">
			<acc value="1.00767589944654" flag="0"/>
			<vel value="0.216137470169" flag="0"/>
			<psa03 value="0.970045344076667" flag="0"/>
			<psa10 value="0.10585221718997" flag="0"/>
			<psa30 value="0.00747966132418658" flag="0"/>
		</comp>
	</station>
	<station code="BNF" name="BNF" netid="IT" source="Italian Strong Motion Network (RAN)" insttype="" lat="39.5845" lon="15.8909">
		<comp name="--.HGE" depth="0.0">
			<acc value="0.70577822285238" flag="0"/>
			<vel value="0.2274420019" flag="0"/>
			<psa03 value="1.03406708520323" flag="0"/>
			<psa10 value="0.0775422142913166" flag="0"/>
			<psa30 value="0.00624402571937492" flag="0"/>
		</comp>
		<comp name="--.HGN" depth="0.0">
			<acc value="0.80936091377778" flag="0"/>
			<vel value="0.205664403041" flag="0"/>
			<psa03 value="0.638299325865513" flag="0"/>
			<psa10 value="0.109963959572612" flag="0"/>
			<psa30 value="0.00574400842905285" flag="0"/>
		</comp>
		<comp name="--.HGZ" depth="0.0">
			<acc value="0.36265194283044" flag="0"/>
			<vel value="0.0724782343498" flag="0"/>
			<psa03 value="0.286667969512683" flag="0"/>
			<psa10 value="0.0356651813932234" flag="0"/>
			<psa30 value="0.00336773830446967" flag="0"/>
		</comp>
	</station>
	<station code="BRO" name="BRO" netid="IT" source="Italian Strong Motion Network (RAN)" insttype="" lat="38.6021" lon="16.3493">
		<comp name="--.HGE" depth="0.0">
			<acc value="0.2179513248441" flag="0"/>
			<vel value="0.0837193303698" flag="0"/>
			<psa03 value="0.381964553277029" flag="0"/>
			<psa10 value="0.0219280138733004" flag="0"/>
			<psa30 value="0.00398802252025471" flag="0"/>
		</comp>
		<comp name="--.HGN" depth="0.0">
			<acc value="0.1691052021627" flag="0"/>
			<vel value="0.0688542650493" flag="0"/>
			<psa03 value="0.533442962977012" flag="0"/>
			<psa10 value="0.0253537270600027" flag="0"/>
			<psa30 value="0.00437581195940093" flag="0"/>
		</comp>
		<comp name="--.HGZ" depth="0.0">
			<acc value="0.16488224561106" flag="0"/>
			<vel value="0.0428799273624" flag="0"/>
			<psa03 value="0.137392820350239" flag="0"/>
			<psa10 value="0.022882800873257" flag="0"/>
			<psa30 value="0.00436514208590555" flag="0"/>
		</comp>
	</station>
	<station code="BTR" name="BTR" netid="IT" source="Italian Strong Motion Network (RAN)" insttype="" lat="38.9415" lon="16.8589">
		<comp name="--.HGE" depth="0.0">
			<acc value="0.095947621168464" flag="0"/>
			<vel value="0.0621197045714" flag="0"/>
			<psa03 value="0.324176725116929" flag="0"/>
			<psa10 value="0.0347881182920981" flag="0"/>
			<psa30 value="0.00946671128982745" flag="0"/>
		</comp>
		<comp name="--.HGN" depth="0.0">
			<acc value="0.0959614403445" flag="0"/>
			<vel value="0.0467443117961" flag="0"/>
			<psa03 value="0.374569271709247" flag="0"/>
			<psa10 value="0.0460369059691057" flag="0"/>
			<psa30 value="0.00653310945310818" flag="0"/>
		</comp>
		<comp name="--.HGZ" depth="0.0">
			<acc value="0.057565895271642" flag="0"/>
			<vel value="0.0274254199415" flag="0"/>
			<psa03 value="0.127316579931981" flag="0"/>
			<psa10 value="0.0173775168002064" flag="0"/>
			<psa30 value="0.00265480440942765" flag="0"/>
		</comp>
	</station>
	<station code="COR" name="COR" netid="IT" source="Italian Strong Motion Network (RAN)" insttype="" lat="39.1179" lon="16.38">
		<comp name="--.HGE" depth="0.0">
			<acc value="0.23104409834106" flag="0"/>
			<vel value="0.0491710924929" flag="0"/>
			<psa03 value="0.169747515773394" flag="0"/>
			<psa10 value="0.0150759574582091" flag="0"/>
			<psa30 value="0.00148452959280197" flag="0"/>
		</comp>
		<comp name="--.HGN" depth="0.0">
			<acc value="0.39969796281108" flag="0"/>
			<vel value="0.0827004438443" flag="0"/>
			<psa03 value="0.162690506614467" flag="0"/>
			<psa10 value="0.0171591735860267" flag="0"/>
			<psa30 value="0.0015152946516663" flag="0"/>
		</comp>
		<comp name="--.HGZ" depth="0.0">
			<acc value="0.2860567049745" flag="0"/>
			<vel value="0.0399615990842" flag="0"/>
			<psa03 value="0.107252834140722" flag="0"/>
			<psa10 value="0.0104553419901058" flag="0"/>
			<psa30 value="0.00185968569505037" flag="0"/>
		</comp>
	</station>
	<station code="COS" name="COS" netid="IT" source="Italian Strong Motion Network (RAN)" insttype="" lat="39.289" lon="16.2576">
		<comp name="--.HNE" depth="0.0">
			<acc value="0.50969922597204" flag="0"/>
			<vel value="0.120957144347" flag="0"/>
			<psa03 value="0.646485451486204" flag="0"/>
			<psa10 value="0.0613784335199947" flag="0"/>
			<psa30 value="0.0058862953548349" flag="0"/>
		</comp>
		<comp name="--.HNN" depth="0.0">
			<acc value="0.47485440955254" flag="0"/>
			<vel value="0.146056079762" flag="0"/>
			<psa03 value="0.797277732403484" flag="0"/>
			<psa10 value="0.103655839190685" flag="0"/>
			<psa30 value="0.00480352362651597" flag="0"/>
		</comp>
		<comp name="--.HNZ" depth="0.0">
			<acc value="0.32135532062106" flag="0"/>
			<vel value="0.0880234713483" flag="0"/>
			<psa03 value="0.420576236111627" flag="0"/>
			<psa10 value="0.0403103553630867" flag="0"/>
			<psa30 value="0.00308622465557172" flag="0"/>
		</comp>
	</station>
	<station code="CTV" name="CTV" netid="IT" source="Italian Strong Motion Network (RAN)" insttype="" lat="38.3498" lon="16.0804">
		<comp name="--.HNE" depth="0.0">
			<acc value="0.048348850570452" flag="0"/>
			<vel value="0.0203066090363" flag="0"/>
			<psa03 value="0.111197137097862" flag="0"/>
			<psa10 value="0.0218403218141408" flag="0"/>
			<psa30 value="0.00395717881034052" flag="0"/>
		</comp>
		<comp name="--.HNN" depth="0.0">
			<acc value="0.05478228755712" flag="0"/>
			<vel value="0.0284869415811" flag="0"/>
			<psa03 value="0.129321931526503" flag="0"/>
			<psa10 value="0.0215092648832308" flag="0"/>
			<psa30 value="0.00526155355208632" flag="0"/>
		</comp>
		<comp name="--.HNZ" depth="0.0">
			<acc value="0.038122384849242" flag="0"/>
			<vel value="0.0167666749503" flag="0"/>
			<psa03 value="0.100143686111251" flag="0"/>
			<psa10 value="0.018393091577047" flag="0"/>
			<psa30 value="0.00221096271542719" flag="0"/>
		</comp>
	</station>
	<station code="CTZ" name="CTZ" netid="IT" source="Italian Strong Motion Network (RAN)" insttype="" lat="38.9407" lon="16.5851">
		<comp name="--.HGE" depth="0.0">
			<acc value="0.11774880253368" flag="0"/>
			<vel value="0.0400874281341" flag="0"/>
			<psa03 value="0.194440755745874" flag="0"/>
			<psa10 value="0.0418746177378915" flag="0"/>
			<psa30 value="0.00395140759469177" flag="0"/>
		</comp>
		<comp name="--.HGN" depth="0.0">
			<acc value="0.058053601393884" flag="0"/>
			<vel value="0.0319766848295" flag="0"/>
			<psa03 value="0.174292056410148" flag="0"/>
			<psa10 value="0.0497766124564752" flag="0"/>
			<psa30 value="0.00262085028513411" flag="0"/>
		</comp>
		<comp name="--.HGZ" depth="0.0">
			<acc value="0.052746611678412" flag="0"/>
			<vel value="0.0211240559628" flag="0"/>
			<psa03 value="0.0720468821272405" flag="0"/>
			<psa10 value="0.029378234913898" flag="0"/>
			<psa30 value="0.0017694049227278" flag="0"/>
		</comp>
	</station>
	<station code="FDF" name="FDF" netid="IT" source="Italian Strong Motion Network (RAN)" insttype="" lat="38.7891" lon="16.3">
		<comp name="--.HGE" depth="0.0">
			<acc value="2.1765700734678" flag="0"/>
			<vel value="0.426514230277" flag="0"/>
			<psa03 value="1.46865479117209" flag="0"/>
			<psa10 value="0.0963763594609532" flag="0"/>
			<psa30 value="0.00562938500247113" flag="0"/>
		</comp>
		<comp name="--.HGN" depth="0.0">
			<acc value="1.6385200226718" flag="0"/>
			<vel value="0.343930887315" flag="0"/>
			<psa03 value="1.35249184594897" flag="0"/>
			<psa10 value="0.0897043824750475" flag="0"/>
			<psa30 value="0.0133396520198305" flag="0"/>
		</comp>
		<comp name="--.HGZ" depth="0.0">
			<acc value="1.6640399899878" flag="0"/>
			<vel value="0.316633922713" flag="0"/>
			<psa03 value="0.429266353455763" flag="0"/>
			<psa10 value="0.0479565531362548" flag="0"/>
			<psa30 value="0.00668870726070504" flag="0"/>
		</comp>
	</station>
	<station code="FRR" name="FRR" netid="IT" source="Italian Strong Motion Network (RAN)" insttype="" lat="38.0515" lon="16.1325">
		<comp name="--.HGE" depth="0.0">
			<acc value="0.024032114667558" flag="0"/>
			<vel value="0.0140514219981" flag="0"/>
			<psa03 value="0.0684384712130274" flag="0"/>
			<psa10 value="0.015237572539408" flag="0"/>
			<psa30 value="0.00168162275342183" flag="0"/>
		</comp>
		<comp name="--.HGN" depth="0.0">
			<acc value="0.020130558306642" flag="0"/>
			<vel value="0.0105378953199" flag="0"/>
			<psa03 value="0.0638885708460453" flag="0"/>
			<psa10 value="0.0121626744674808" flag="0"/>
			<psa30 value="0.00266468443893316" flag="0"/>
		</comp>
		<comp name="--.HGZ" depth="0.0">
			<acc value="0.0093955907092998" flag="0"/>
			<vel value="0.00546283877135" flag="0"/>
			<psa03 value="0.0329553888619643" flag="0"/>
			<psa10 value="0.00791595408060804" flag="0"/>
			<psa30 value="0.00115295627352633" flag="0"/>
		</comp>
	</station>
	<station code="GMB" name="GMB" netid="IT" source="Italian Strong Motion Network (RAN)" insttype="" lat="38.1666" lon="15.8363">
		<comp name="--.HGE" depth="0.0">
			<acc value="0.02299552057683" flag="0"/>
			<vel value="0.0116420998834" flag="0"/>
			<psa03 value="0.0528533554419279" flag="0"/>
			<psa10 value="0.0115652448907298" flag="0"/>
			<psa30 value="0.00122745464617759" flag="0"/>
		</comp>
		<comp name="--.HGN" depth="0.0">
			<acc value="0.025432369507614" flag="0"/>
			<vel value="0.0126991740728" flag="0"/>
			<psa03 value="0.0447331716864149" flag="0"/>
			<psa10 value="0.0103204868066142" flag="0"/>
			<psa30 value="0.000852259791361773" flag="0"/>
		</comp>
		<comp name="--.HGZ" depth="0.0">
			<acc value="0.0149468612661" flag="0"/>
			<vel value="0.00576017124536" flag="0"/>
			<psa03 value="0.0161197996284302" flag="0"/>
			<psa10 value="0.00555165214469756" flag="0"/>
			<psa30 value="0.000874976192046465" flag="0"/>
		</comp>
	</station>
	<station code="GTR" name="GTR" netid="IT" source="Italian Strong Motion Network (RAN)" insttype="" lat="38.4484" lon="15.918">
		<comp name="--.HGE" depth="0.0">
			<acc value="0.23150065285434" flag="0"/>
			<vel value="0.077090447101" flag="0"/>
			<psa03 value="0.446940732629922" flag="0"/>
			<psa10 value="0.0375813520801398" flag="0"/>
			<psa30 value="0.00912147508630778" flag="0"/>
		</comp>
		<comp name="--.HGN" depth="0.0">
			<acc value="0.22478968209642" flag="0"/>
			<vel value="0.0731343000369" flag="0"/>
			<psa03 value="0.340775491370727" flag="0"/>
			<psa10 value="0.0502679362541731" flag="0"/>
			<psa30 value="0.00543689933457588" flag="0"/>
		</comp>
		<comp name="--.HGZ" depth="0.0">
			<acc value="0.2067807458892" flag="0"/>
			<vel value="0.0507032303414" flag="0"/>
			<psa03 value="0.129919991978309" flag="0"/>
			<psa10 value="0.03678371549064" flag="0"/>
			<psa30 value="0.00311798321775143" flag="0"/>
		</comp>
	</station>
	<station code="LMZ" name="LMZ" netid="IT" source="Italian Strong Motion Network (RAN)" insttype="" lat="38.9187" lon="16.2527">
		<comp name="--.HNE" depth="0.0">
			<acc value="1.1032325356836" flag="0"/>
			<vel value="0.231074957635" flag="0"/>
			<psa03 value="0.851772092388038" flag="0"/>
			<psa10 value="0.143865050353615" flag="0"/>
			<psa30 value="0.0237920677743987" flag="0"/>
		</comp>
		<comp name="--.HNN" depth="0.0">
			<acc value="1.1474973042012" flag="0"/>
			<vel value="0.278675305631" flag="0"/>
			<psa03 value="0.554200504728968" flag="0"/>
			<psa10 value="0.1374665564849" flag="0"/>
			<psa30 value="0.0126209744109259" flag="0"/>
		</comp>
		<comp name="--.HNZ" depth="0.0">
			<acc value="0.71377752241542" flag="0"/>
			<vel value="0.104504041832" flag="0"/>
			<psa03 value="0.388244510960173" flag="0"/>
			<psa10 value="0.0700603411536401" flag="0"/>
			<psa30 value="0.01083911803837" flag="0"/>
		</comp>
	</station>
	<station code="MFG" name="MFG" netid="IT" source="Italian Strong Motion Network (RAN)" insttype="" lat="38.1888" lon="15.5406">
		<comp name="--.HNE" depth="0.0">
			<acc value="0.025524386287296" flag="0"/>
			<vel value="0.0211887388905" flag="0"/>
			<psa03 value="0.0546632409633275" flag="0"/>
			<psa10 value="0.0220104799612558" flag="0"/>
			<psa30 value="0.00142711110160863" flag="0"/>
		</comp>
		<comp name="--.HNN" depth="0.0">
			<acc value="0.030095672541606" flag="0"/>
			<vel value="0.0208346926354" flag="0"/>
			<psa03 value="0.0912976730227747" flag="0"/>
			<psa10 value="0.0314092832108696" flag="0"/>
			<psa30 value="0.00179064007945049" flag="0"/>
		</comp>
		<comp name="--.HNZ" depth="0.0">
			<acc value="0.0170740689864" flag="0"/>
			<vel value="0.00800170817263" flag="0"/>
			<psa03 value="0.0363360164577734" flag="0"/>
			<psa10 value="0.00787517856694306" flag="0"/>
			<psa30 value="0.00133830355187421" flag="0"/>
		</comp>
	</station>
	<station code="MSR" name="MSR" netid="IT" source="Italian Strong Motion Network (RAN)" insttype="" lat="39.0768" lon="16.7897">
		<comp name="--.HGE" depth="0.0">
			<acc value="0.15700760220948" flag="0"/>
			<vel value="0.0362779021012" flag="0"/>
			<psa03 value="0.184486971356566" flag="0"/>
			<psa10 value="0.0124568205157261" flag="0"/>
			<psa30 value="0.00228601747910429" flag="0"/>
		</comp>
		<comp name="--.HGN" depth="0.0">
			<acc value="0.16862196904044" flag="0"/>
			<vel value="0.0489051030543" flag="0"/>
			<psa03 value="0.303052596580406" flag="0"/>
			<psa10 value="0.0121134787085186" flag="0"/>
			<psa30 value="0.00120055015555554" flag="0"/>
		</comp>
		<comp name="--.HGZ" depth="0.0">
			<acc value="0.091055581582542" flag="0"/>
			<vel value="0.0290435900347" flag="0"/>
			<psa03 value="0.20631127127595" flag="0"/>
			<psa10 value="0.0110167729321391" flag="0"/>
			<psa30 value="0.00148831921884393" flag="0"/>
		</comp>
	</station>
	<station code="NCH" name="NCH" netid="IT" source="Italian Strong Motion Network (RAN)" insttype="" lat="38.9621" lon="16.3151">
		<comp name="--.HGE" depth="0.0">
			<acc value="1.1887373710428" flag="0"/>
			<vel value="0.233236081021" flag="0"/>
			<psa03 value="0.324010755789152" flag="0"/>
			<psa10 value="0.0583098302398995" flag="0"/>
			<psa30 value="0.0085852503973577" flag="0"/>
		</comp>
		<comp name="--.HGN" depth="0.0">
			<acc value="0.96787618882782" flag="0"/>
			<vel value="0.169977964769" flag="0"/>
			<psa03 value="0.357191495517087" flag="0"/>
			<psa10 value="0.0547908108722674" flag="0"/>
			<psa30 value="0.00611142110164535" flag="0"/>
		</comp>
		<comp name="--.HGZ" depth="0.0">
			<acc value="0.52914785070096" flag="0"/>
			<vel value="0.0975980317892" flag="0"/>
			<psa03 value="0.344116087668642" flag="0"/>
			<psa10 value="0.0608108971734337" flag="0"/>
			<psa30 value="0.00340530641817243" flag="0"/>
		</comp>
	</station>
	<station code="NCO" name="NCO" netid="IT" source="Italian Strong Motion Network (RAN)" insttype="" lat="38.5531" lon="15.938">
		<comp name="--.HNE" depth="0.0">
			<acc value="0.4079281270617" flag="0"/>
			<vel value="0.0591508945371" flag="0"/>
			<psa03 value="0.1257903121577" flag="0"/>
			<psa10 value="0.0344961802026362" flag="0"/>
			<psa30 value="0.00617224554763571" flag="0"/>
		</comp>
		<comp name="--.HNN" depth="0.0">
			<acc value="0.5157468151755" flag="0"/>
			<vel value="0.0849258711934" flag="0"/>
			<psa03 value="0.218206371768035" flag="0"/>
			<psa10 value="0.0261986899096335" flag="0"/>
			<psa30 value="0.00444823050677422" flag="0"/>
		</comp>
		<comp name="--.HNZ" depth="0.0">
			<acc value="0.3575288164194" flag="0"/>
			<vel value="0.0381811600025" flag="0"/>
			<psa03 value="0.121511466204962" flag="0"/>
			<psa10 value="0.0201534263155736" flag="0"/>
			<psa30 value="0.00345602019437628" flag="0"/>
		</comp>
	</station>
	<station code="PLT" name="PLT" netid="IT" source="Italian Strong Motion Network (RAN)" insttype="" lat="39.0022" lon="16.3192">
		<comp name="--.HGE" depth="0.0">
			<acc value="0.29847655421316" flag="0"/>
			<vel value="0.0782998395639" flag="0"/>
			<psa03 value="0.332801088105284" flag="0"/>
			<psa10 value="0.0287251310239625" flag="0"/>
			<psa30 value="0.00221337641699266" flag="0"/>
		</comp>
		<comp name="--.HGN" depth="0.0">
			<acc value="0.28750834432416" flag="0"/>
			<vel value="0.0611136919918" flag="0"/>
			<psa03 value="0.238839301098335" flag="0"/>
			<psa10 value="0.0284356512223193" flag="0"/>
			<psa30 value="0.00171975350856511" flag="0"/>
		</comp>
		<comp name="--.HGZ" depth="0.0">
			<acc value="0.26905149579336" flag="0"/>
			<vel value="0.0408001534324" flag="0"/>
			<psa03 value="0.152642976431279" flag="0"/>
			<psa10 value="0.0169299584016476" flag="0"/>
			<psa30 value="0.00225468873706217" flag="0"/>
		</comp>
	</station>
	<station code="PNI" name="PNI" netid="IT" source="Italian Strong Motion Network (RAN)" insttype="" lat="39.158" lon="16.4126">
		<comp name="--.HGE" depth="0.0">
			<acc value="0.23479514593284" flag="0"/>
			<vel value="0.0529221209746" flag="0"/>
			<psa03 value="0.47851044897013" flag="0"/>
			<psa10 value="0.0262176624164489" flag="0"/>
			<psa30 value="0.00235728990888691" flag="0"/>
		</comp>
		<comp name="--.HGN" depth="0.0">
			<acc value="0.22381087296552" flag="0"/>
			<vel value="0.0514014251695" flag="0"/>
