<stationlist created="1642764713">
	<station code="FX07" name="FX07" netid="1J" source="FocusX temporary land-network (FXland)" insttype="" lat="37.5521" lon="15.1452">
		<comp name=".HHE" depth="0.0">
			<acc value="0.0173110051048" flag="0"/>
			<vel value="0.00489992601758" flag="0"/>
			<psa03 value="0.00537118426514" flag="0"/>
			<psa10 value="0.00474203398023" flag="0"/>
			<psa30 value="0.00206272331196" flag="0"/>
		</comp>
		<comp name=".HHN" depth="0.0">
			<acc value="0.0107871082748" flag="0"/>
			<vel value="0.00869132938316" flag="0"/>
			<psa03 value="0.00577057628275" flag="0"/>
			<psa10 value="0.00419004569495" flag="0"/>
			<psa30 value="0.00354080456093" flag="0"/>
		</comp>
		<comp name=".HHZ" depth="0.0">
			<acc value="0.0128695317205" flag="0"/>
			<vel value="0.00462157564165" flag="0"/>
			<psa03 value="0.00596880881573" flag="0"/>
			<psa10 value="0.00569511649227" flag="0"/>
			<psa30 value="0.00140996454906" flag="0"/>
		</comp>
	</station>
	<station code="FX08" name="FX08" netid="1J" source="FocusX temporary land-network (FXland)" insttype="" lat="37.7352" lon="15.2006">
		<comp name=".HHE" depth="0.0">
			<acc value="0.00603735482868" flag="0"/>
			<vel value="0.00586892082298" flag="0"/>
			<psa03 value="0.0109581959788" flag="0"/>
			<psa10 value="0.00838302877203" flag="0"/>
			<psa30 value="0.0018286450971" flag="0"/>
		</comp>
		<comp name=".HHN" depth="0.0">
			<acc value="0.00666043968435" flag="0"/>
			<vel value="0.00855859175499" flag="0"/>
			<psa03 value="0.0183314253044" flag="0"/>
			<psa10 value="0.00834081503808" flag="0"/>
			<psa30 value="0.00218063903997" flag="0"/>
		</comp>
		<comp name=".HHZ" depth="0.0">
			<acc value="0.00442269348401" flag="0"/>
			<vel value="0.00405201254044" flag="0"/>
			<psa03 value="0.00940991502734" flag="0"/>
			<psa10 value="0.0084498094459" flag="0"/>
			<psa30 value="0.00107494662661" flag="0"/>
		</comp>
	</station>
	<station code="FX11" name="FX11" netid="1J" source="FocusX temporary land-network (FXland)" insttype="" lat="38.1019" lon="15.4868">
		<comp name=".HHE" depth="0.0">
			<acc value="0.0363082732227" flag="0"/>
			<vel value="0.0158198053325" flag="0"/>
			<psa03 value="0.0721010367563" flag="0"/>
			<psa10 value="0.0184059549292" flag="0"/>
			<psa30 value="0.00114008875445" flag="0"/>
		</comp>
		<comp name=".HHN" depth="0.0">
			<acc value="0.0295523727427" flag="0"/>
			<vel value="0.0101361141049" flag="0"/>
			<psa03 value="0.054639775867" flag="0"/>
			<psa10 value="0.0191021416732" flag="0"/>
			<psa30 value="0.000689221126266" flag="0"/>
		</comp>
		<comp name=".HHZ" depth="0.0">
			<acc value="0.0228720044695" flag="0"/>
			<vel value="0.00766656666387" flag="0"/>
			<psa03 value="0.0374866265342" flag="0"/>
			<psa10 value="0.00667111489737" flag="0"/>
			<psa30 value="0.00104865582247" flag="0"/>
		</comp>
	</station>
	<station code="FX13" name="FX13" netid="1J" source="FocusX temporary land-network (FXland)" insttype="" lat="37.945" lon="15.7075">
		<comp name=".HHE" depth="0.0">
			<acc value="0.0187272230289" flag="0"/>
			<vel value="0.00986637392574" flag="0"/>
			<psa03 value="0.0402330402415" flag="0"/>
			<psa10 value="0.0211031711065" flag="0"/>
			<psa30 value="0.00194044541999" flag="0"/>
		</comp>
		<comp name=".HHN" depth="0.0">
			<acc value="0.0146440798529" flag="0"/>
			<vel value="0.0116640655519" flag="0"/>
			<psa03 value="0.0582534162946" flag="0"/>
			<psa10 value="0.0176711612527" flag="0"/>
			<psa30 value="0.00245540411681" flag="0"/>
		</comp>
		<comp name=".HHZ" depth="0.0">
			<acc value="0.0132245832421" flag="0"/>
			<vel value="0.00656960284971" flag="0"/>
			<psa03 value="0.0466336204986" flag="0"/>
			<psa10 value="0.00742697559442" flag="0"/>
			<psa30 value="0.00153710661744" flag="0"/>
		</comp>
	</station>
	<station code="OEM8" name="OEM8" netid="3D" source="INGV temporary network for seismic monitoring of the island of Vulcano to increase volcanic activity (Sicily, Italy) (VITN)" insttype="" lat="38.4689" lon="14.9168">
		<comp name=".HHE" depth="0.0">
			<acc value="0.0389541050507" flag="0"/>
			<vel value="0.0145717284376" flag="0"/>
			<psa03 value="0.126200151807" flag="0"/>
			<psa10 value="0.0178581523899" flag="0"/>
			<psa30 value="0.00270181544035" flag="0"/>
		</comp>
		<comp name=".HHN" depth="0.0">
			<acc value="0.0378762871753" flag="0"/>
			<vel value="0.0175860288091" flag="0"/>
			<psa03 value="0.108658281411" flag="0"/>
			<psa10 value="0.0142741009016" flag="0"/>
			<psa30 value="0.00303457644246" flag="0"/>
		</comp>
		<comp name=".HHZ" depth="0.0">
			<acc value="0.0155309408646" flag="0"/>
			<vel value="0.00576480388608" flag="0"/>
			<psa03 value="0.032991430312" flag="0"/>
			<psa10 value="0.00397924048015" flag="0"/>
			<psa30 value="0.0006534831338" flag="0"/>
		</comp>
	</station>
	<station code="ACR" name="ACR" netid="IT" source="Italian Strong Motion Network (RAN)" insttype="" lat="39.489059" lon="16.37986">
		<comp name="00.HNE" depth="0.0">
			<acc value="0.12115134294" flag="0"/>
			<vel value="0.0688538882886" flag="0"/>
			<psa03 value="0.161519866565" flag="0"/>
			<psa10 value="0.0678867946671" flag="0"/>
			<psa30 value="0.00432692788774" flag="0"/>
		</comp>
		<comp name="00.HNN" depth="0.0">
			<acc value="0.12710590722" flag="0"/>
			<vel value="0.0435823649316" flag="0"/>
			<psa03 value="0.223526224182" flag="0"/>
			<psa10 value="0.0240712152249" flag="0"/>
			<psa30 value="0.00185785849067" flag="0"/>
		</comp>
		<comp name="00.HNZ" depth="0.0">
			<acc value="0.0967211946848" flag="0"/>
			<vel value="0.0622332736727" flag="0"/>
			<psa03 value="0.113852813024" flag="0"/>
			<psa10 value="0.0312685082602" flag="0"/>
			<psa30 value="0.00357068695715" flag="0"/>
		</comp>
	</station>
	<station code="AMN" name="AMN" netid="IT" source="Italian Strong Motion Network (RAN)" insttype="" lat="39.136726" lon="16.079647">
		<comp name="00.HGE" depth="0.0">
			<acc value="1.23376534494" flag="0"/>
			<vel value="0.334867689088" flag="0"/>
			<psa03 value="2.13048896777" flag="0"/>
			<psa10 value="0.137531900813" flag="0"/>
			<psa30 value="0.00929613499001" flag="0"/>
		</comp>
		<comp name="00.HGN" depth="0.0">
			<acc value="1.37028728544" flag="0"/>
			<vel value="0.540528963616" flag="0"/>
			<psa03 value="3.07000770628" flag="0"/>
			<psa10 value="0.223397784007" flag="0"/>
			<psa30 value="0.0144927050706" flag="0"/>
		</comp>
		<comp name="00.HGZ" depth="0.0">
			<acc value="1.00767589945" flag="0"/>
			<vel value="0.216137470169" flag="0"/>
			<psa03 value="0.970045344077" flag="0"/>
			<psa10 value="0.10585221719" flag="0"/>
			<psa30 value="0.00747966132419" flag="0"/>
		</comp>
	</station>
	<station code="BNF" name="BNF" netid="IT" source="Italian Strong Motion Network (RAN)" insttype="" lat="39.5845" lon="15.8909">
		<comp name="00.HGE" depth="0.0">
			<acc value="0.705749804153" flag="0"/>
			<vel value="0.227457942946" flag="0"/>
			<psa03 value="1.0341359231" flag="0"/>
			<psa10 value="0.077589579929" flag="0"/>
			<psa30 value="0.00643408122631" flag="0"/>
		</comp>
		<comp name="00.HGN" depth="0.0">
			<acc value="0.809293079043" flag="0"/>
			<vel value="0.205938077483" flag="0"/>
			<psa03 value="0.638326244316" flag="0"/>
			<psa10 value="0.109986603573" flag="0"/>
			<psa30 value="0.00575769891927" flag="0"/>
		</comp>
		<comp name="00.HGZ" depth="0.0">
			<acc value="0.362572846028" flag="0"/>
			<vel value="0.0722659135547" flag="0"/>
			<psa03 value="0.286658593892" flag="0"/>
			<psa10 value="0.0356729406572" flag="0"/>
			<psa30 value="0.00348802856477" flag="0"/>
		</comp>
	</station>
	<station code="BRO" name="BRO" netid="IT" source="Italian Strong Motion Network (RAN)" insttype="" lat="38.602146" lon="16.349356">
		<comp name="00.HGE" depth="0.0">
			<acc value="0.217951324844" flag="0"/>
			<vel value="0.0837193303698" flag="0"/>
			<psa03 value="0.381964553277" flag="0"/>
			<psa10 value="0.0219280138733" flag="0"/>
			<psa30 value="0.00398802252025" flag="0"/>
		</comp>
		<comp name="00.HGN" depth="0.0">
			<acc value="0.169105202163" flag="0"/>
			<vel value="0.0688542650493" flag="0"/>
			<psa03 value="0.533442962977" flag="0"/>
			<psa10 value="0.02535372706" flag="0"/>
			<psa30 value="0.0043758119594" flag="0"/>
		</comp>
		<comp name="00.HGZ" depth="0.0">
			<acc value="0.164882245611" flag="0"/>
			<vel value="0.0428799273624" flag="0"/>
			<psa03 value="0.13739282035" flag="0"/>
			<psa10 value="0.0228828008733" flag="0"/>
			<psa30 value="0.00436514208591" flag="0"/>
		</comp>
	</station>
	<station code="BTR" name="BTR" netid="IT" source="Italian Strong Motion Network (RAN)" insttype="" lat="38.9415" lon="16.8589">
		<comp name="00.HGE" depth="0.0">
			<acc value="0.0959476211685" flag="0"/>
			<vel value="0.0621197045714" flag="0"/>
			<psa03 value="0.324176725117" flag="0"/>
			<psa10 value="0.0347881182921" flag="0"/>
			<psa30 value="0.00946671128983" flag="0"/>
		</comp>
		<comp name="00.HGN" depth="0.0">
			<acc value="0.0959614403445" flag="0"/>
			<vel value="0.0467443117961" flag="0"/>
			<psa03 value="0.374569271709" flag="0"/>
			<psa10 value="0.0460369059691" flag="0"/>
			<psa30 value="0.00653310945311" flag="0"/>
		</comp>
		<comp name="00.HGZ" depth="0.0">
			<acc value="0.0575658952716" flag="0"/>
			<vel value="0.0274254199415" flag="0"/>
			<psa03 value="0.127316579932" flag="0"/>
			<psa10 value="0.0173775168002" flag="0"/>
			<psa30 value="0.00265480440943" flag="0"/>
		</comp>
	</station>
	<station code="BVM" name="BVM" netid="IT" source="Italian Strong Motion Network (RAN)" insttype="" lat="37.931145" lon="15.936049">
		<comp name="00.HNE" depth="0.0">
			<acc value="0.0140871471973" flag="0"/>
			<vel value="0.00983494525817" flag="0"/>
			<psa03 value="0.0411814546318" flag="0"/>
			<psa10 value="0.0192026595819" flag="0"/>
			<psa30 value="0.00172185448108" flag="0"/>
		</comp>
		<comp name="00.HNN" depth="0.0">
			<acc value="0.0173228699532" flag="0"/>
			<vel value="0.0100831629572" flag="0"/>
			<psa03 value="0.0427795787288" flag="0"/>
			<psa10 value="0.015647355623" flag="0"/>
			<psa30 value="0.00137602782176" flag="0"/>
		</comp>
		<comp name="00.HNZ" depth="0.0">
			<acc value="0.0102234448315" flag="0"/>
			<vel value="0.00568726597155" flag="0"/>
			<psa03 value="0.0342091932745" flag="0"/>
			<psa10 value="0.00686123749205" flag="0"/>
			<psa30 value="0.00083647687082" flag="0"/>
		</comp>
	</station>
	<station code="COR" name="COR" netid="IT" source="Italian Strong Motion Network (RAN)" insttype="" lat="39.117931" lon="16.380044">
		<comp name="00.HGE" depth="0.0">
			<acc value="0.231044098341" flag="0"/>
			<vel value="0.0491710924929" flag="0"/>
			<psa03 value="0.169747515773" flag="0"/>
			<psa10 value="0.0150759574582" flag="0"/>
			<psa30 value="0.0014845295928" flag="0"/>
		</comp>
		<comp name="00.HGN" depth="0.0">
			<acc value="0.399697962811" flag="0"/>
			<vel value="0.0827004438443" flag="0"/>
			<psa03 value="0.162690506614" flag="0"/>
			<psa10 value="0.017159173586" flag="0"/>
			<psa30 value="0.00151529465167" flag="0"/>
		</comp>
		<comp name="00.HGZ" depth="0.0">
			<acc value="0.286056704974" flag="0"/>
			<vel value="0.0399615990842" flag="0"/>
			<psa03 value="0.107252834141" flag="0"/>
			<psa10 value="0.0104553419901" flag="0"/>
			<psa30 value="0.00185968569505" flag="0"/>
		</comp>
	</station>
	<station code="COS" name="COS" netid="IT" source="Italian Strong Motion Network (RAN)" insttype="" lat="39.28907" lon="16.257683">
		<comp name="00.HNE" depth="0.0">
			<acc value="0.509699225972" flag="0"/>
			<vel value="0.120957144347" flag="0"/>
			<psa03 value="0.646485451486" flag="0"/>
			<psa10 value="0.06137843352" flag="0"/>
			<psa30 value="0.00588629535483" flag="0"/>
		</comp>
		<comp name="00.HNN" depth="0.0">
			<acc value="0.474854409553" flag="0"/>
			<vel value="0.146056079762" flag="0"/>
			<psa03 value="0.797277732403" flag="0"/>
			<psa10 value="0.103655839191" flag="0"/>
			<psa30 value="0.00480352362652" flag="0"/>
		</comp>
		<comp name="00.HNZ" depth="0.0">
			<acc value="0.321355320621" flag="0"/>
			<vel value="0.0880234713483" flag="0"/>
			<psa03 value="0.420576236112" flag="0"/>
			<psa10 value="0.0403103553631" flag="0"/>
			<psa30 value="0.00308622465557" flag="0"/>
		</comp>
	</station>
	<station code="CTV" name="CTV" netid="IT" source="Italian Strong Motion Network (RAN)" insttype="" lat="38.349831" lon="16.080513">
		<comp name="00.HNE" depth="0.0">
			<acc value="0.0483488505705" flag="0"/>
			<vel value="0.0203066090363" flag="0"/>
			<psa03 value="0.111197137098" flag="0"/>
			<psa10 value="0.0218403218141" flag="0"/>
			<psa30 value="0.00395717881034" flag="0"/>
		</comp>
		<comp name="00.HNN" depth="0.0">
			<acc value="0.0547822875571" flag="0"/>
			<vel value="0.0284869415811" flag="0"/>
			<psa03 value="0.129321931527" flag="0"/>
			<psa10 value="0.0215092648832" flag="0"/>
			<psa30 value="0.00526155355209" flag="0"/>
		</comp>
		<comp name="00.HNZ" depth="0.0">
			<acc value="0.0381223848492" flag="0"/>
			<vel value="0.0167666749503" flag="0"/>
			<psa03 value="0.100143686111" flag="0"/>
			<psa10 value="0.018393091577" flag="0"/>
			<psa30 value="0.00221096271543" flag="0"/>
		</comp>
	</station>
	<station code="CTZ" name="CTZ" netid="IT" source="Italian Strong Motion Network (RAN)" insttype="" lat="38.94072" lon="16.585107">
		<comp name="00.HGE" depth="0.0">
			<acc value="0.117748802534" flag="0"/>
			<vel value="0.0400874281341" flag="0"/>
			<psa03 value="0.194440755746" flag="0"/>
			<psa10 value="0.0418746177379" flag="0"/>
			<psa30 value="0.00395140759469" flag="0"/>
		</comp>
		<comp name="00.HGN" depth="0.0">
			<acc value="0.0580536013939" flag="0"/>
			<vel value="0.0319766848295" flag="0"/>
			<psa03 value="0.17429205641" flag="0"/>
			<psa10 value="0.0497766124565" flag="0"/>
			<psa30 value="0.00262085028513" flag="0"/>
		</comp>
		<comp name="00.HGZ" depth="0.0">
			<acc value="0.0527466116784" flag="0"/>
			<vel value="0.0211240559628" flag="0"/>
			<psa03 value="0.0720468821272" flag="0"/>
			<psa10 value="0.0293782349139" flag="0"/>
			<psa30 value="0.00176940492273" flag="0"/>
		</comp>
	</station>
	<station code="FDF" name="FDF" netid="IT" source="Italian Strong Motion Network (RAN)" insttype="" lat="38.789158" lon="16.300062">
		<comp name="00.HGE" depth="0.0">
			<acc value="2.17657007347" flag="0"/>
			<vel value="0.426514230277" flag="0"/>
			<psa03 value="1.46865479117" flag="0"/>
			<psa10 value="0.096376359461" flag="0"/>
			<psa30 value="0.00562938500247" flag="0"/>
		</comp>
		<comp name="00.HGN" depth="0.0">
			<acc value="1.63852002267" flag="0"/>
			<vel value="0.343930887315" flag="0"/>
			<psa03 value="1.35249184595" flag="0"/>
			<psa10 value="0.089704382475" flag="0"/>
			<psa30 value="0.0133396520198" flag="0"/>
		</comp>
		<comp name="00.HGZ" depth="0.0">
			<acc value="1.66403998999" flag="0"/>
			<vel value="0.316633922713" flag="0"/>
			<psa03 value="0.429266353456" flag="0"/>
			<psa10 value="0.0479565531363" flag="0"/>
			<psa30 value="0.00668870726071" flag="0"/>
		</comp>
	</station>
	<station code="FRR" name="FRR" netid="IT" source="Italian Strong Motion Network (RAN)" insttype="" lat="38.051564" lon="16.132511">
		<comp name="00.HGE" depth="0.0">
			<acc value="0.0241046430373" flag="0"/>
			<vel value="0.0140480785406" flag="0"/>
			<psa03 value="0.0684381586923" flag="0"/>
			<psa10 value="0.0152370578178" flag="0"/>
			<psa30 value="0.00168072915256" flag="0"/>
		</comp>
		<comp name="00.HGN" depth="0.0">
			<acc value="0.0201089526033" flag="0"/>
			<vel value="0.0105398831605" flag="0"/>
			<psa03 value="0.0638903730487" flag="0"/>
			<psa10 value="0.0121617247171" flag="0"/>
			<psa30 value="0.00266276327" flag="0"/>
		</comp>
		<comp name="00.HGZ" depth="0.0">
			<acc value="0.00951943773851" flag="0"/>
			<vel value="0.00546336713943" flag="0"/>
			<psa03 value="0.0329551310324" flag="0"/>
			<psa10 value="0.00791574969207" flag="0"/>
			<psa30 value="0.00115217559681" flag="0"/>
		</comp>
	</station>
	<station code="GMB" name="GMB" netid="IT" source="Italian Strong Motion Network (RAN)" insttype="" lat="38.16663" lon="15.83635">
		<comp name="00.HGE" depth="0.0">
			<acc value="0.0229955205768" flag="0"/>
			<vel value="0.0116420998834" flag="0"/>
			<psa03 value="0.0528533554419" flag="0"/>
			<psa10 value="0.0115652448907" flag="0"/>
			<psa30 value="0.00122745464618" flag="0"/>
		</comp>
		<comp name="00.HGN" depth="0.0">
			<acc value="0.0254323695076" flag="0"/>
			<vel value="0.0126991740728" flag="0"/>
			<psa03 value="0.0447331716864" flag="0"/>
			<psa10 value="0.0103204868066" flag="0"/>
			<psa30 value="0.000852259791362" flag="0"/>
		</comp>
		<comp name="00.HGZ" depth="0.0">
			<acc value="0.0149468612661" flag="0"/>
			<vel value="0.00576017124536" flag="0"/>
			<psa03 value="0.0161197996284" flag="0"/>
			<psa10 value="0.0055516521447" flag="0"/>
			<psa30 value="0.000874976192046" flag="0"/>
		</comp>
	</station>
	<station code="GTR" name="GTR" netid="IT" source="Italian Strong Motion Network (RAN)" insttype="" lat="38.448405" lon="15.918019">
		<comp name="00.HGE" depth="0.0">
			<acc value="0.231500652854" flag="0"/>
			<vel value="0.077090447101" flag="0"/>
			<psa03 value="0.44694073263" flag="0"/>
			<psa10 value="0.0375813520801" flag="0"/>
			<psa30 value="0.00912147508631" flag="0"/>
		</comp>
		<comp name="00.HGN" depth="0.0">
			<acc value="0.224789682096" flag="0"/>
			<vel value="0.0731343000369" flag="0"/>
			<psa03 value="0.340775491371" flag="0"/>
			<psa10 value="0.0502679362542" flag="0"/>
			<psa30 value="0.00543689933458" flag="0"/>
		</comp>
		<comp name="00.HGZ" depth="0.0">
			<acc value="0.206780745889" flag="0"/>
			<vel value="0.0507032303414" flag="0"/>
			<psa03 value="0.129919991978" flag="0"/>
			<psa10 value="0.0367837154906" flag="0"/>
			<psa30 value="0.00311798321775" flag="0"/>
		</comp>
	</station>
	<station code="LMZ" name="LMZ" netid="IT" source="Italian Strong Motion Network (RAN)" insttype="" lat="38.918671" lon="16.252811">
		<comp name="00.HNE" depth="0.0">
			<acc value="1.10323253568" flag="0"/>
			<vel value="0.231074957635" flag="0"/>
			<psa03 value="0.851772092388" flag="0"/>
			<psa10 value="0.143865050354" flag="0"/>
			<psa30 value="0.0237920677744" flag="0"/>
		</comp>
		<comp name="00.HNN" depth="0.0">
			<acc value="1.1474973042" flag="0"/>
			<vel value="0.278675305631" flag="0"/>
			<psa03 value="0.554200504729" flag="0"/>
			<psa10 value="0.137466556485" flag="0"/>
			<psa30 value="0.0126209744109" flag="0"/>
		</comp>
		<comp name="00.HNZ" depth="0.0">
			<acc value="0.713777522415" flag="0"/>
			<vel value="0.104504041832" flag="0"/>
			<psa03 value="0.38824451096" flag="0"/>
			<psa10 value="0.0700603411536" flag="0"/>
			<psa30 value="0.0108391180384" flag="0"/>
		</comp>
	</station>
	<station code="MFG" name="MFG" netid="IT" source="Italian Strong Motion Network (RAN)" insttype="" lat="38.188812" lon="15.540627">
		<comp name="00.HNE" depth="0.0">
			<acc value="0.0261284993158" flag="0"/>
			<vel value="0.0211855291008" flag="0"/>
			<psa03 value="0.0546695799246" flag="0"/>
			<psa10 value="0.0220097111604" flag="0"/>
			<psa30 value="0.00142663815361" flag="0"/>
		</comp>
		<comp name="00.HNN" depth="0.0">
			<acc value="0.0304147286151" flag="0"/>
			<vel value="0.0208508125299" flag="0"/>
			<psa03 value="0.0913046630691" flag="0"/>
			<psa10 value="0.0314068061718" flag="0"/>
			<psa30 value="0.00178973793636" flag="0"/>
		</comp>
		<comp name="00.HNZ" depth="0.0">
			<acc value="0.0176463910023" flag="0"/>
			<vel value="0.00799659565758" flag="0"/>
			<psa03 value="0.0363320552579" flag="0"/>
			<psa10 value="0.00787483260651" flag="0"/>
			<psa30 value="0.00133736255204" flag="0"/>
		</comp>
	</station>
	<station code="MSR" name="MSR" netid="IT" source="Italian Strong Motion Network (RAN)" insttype="" lat="39.076855" lon="16.789735">
