<?xml version="1.0" encoding="UTF-8" standalone="yes"?>
<!DOCTYPE earthquake SYSTEM "stationlist.dtd">
<stationlist created="" xmlns="ch.ethz.sed.shakemap.usgs.xml">
  <station code="AIO" name="AIO" netid="IV" insttype="" lat="37.9712" lon="15.233">
    <comp name="--.HHE">
      <acc value="0.0081694989" flag="0"/>
      <vel value="0.0040002227" flag="0"/>
      <psa03 value="0.0214257114" flag="0"/>
      <psa10 value="0.0031293246" flag="0"/>
      <psa30 value="0.0007017327" flag="0"/>
    </comp>
    <comp name="--.HHZ">
      <acc value="0.0049237098" flag="0"/>
      <vel value="0.0031112343" flag="0"/>
      <psa03 value="0.0102274984" flag="0"/>
      <psa10 value="0.0046924206" flag="0"/>
      <psa30 value="0.0004840458" flag="0"/>
    </comp>
    <comp name="--.HHN">
      <acc value="0.0084528510" flag="0"/>
      <vel value="0.0043862705" flag="0"/>
      <psa03 value="0.0172646703" flag="0"/>
      <psa10 value="0.0034488372" flag="0"/>
      <psa30 value="0.0006922346" flag="0"/>
    </comp>
  </station>
  <station code="CAR1" name="CAR1" netid="IV" insttype="" lat="39.2534" lon="16.2114">
    <comp name="--.HHE">
      <acc value="0.8044164868" flag="0"/>
      <vel value="0.1898494524" flag="0"/>
      <psa03 value="0.6536721737" flag="0"/>
      <psa10 value="0.1361120666" flag="0"/>
      <psa30 value="0.0071111964" flag="0"/>
    </comp>
    <comp name="--.HHN">
      <acc value="0.4776192436" flag="0"/>
      <vel value="0.1469630763" flag="0"/>
      <psa03 value="0.7677103633" flag="0"/>
      <psa10 value="0.0751522206" flag="0"/>
      <psa30 value="0.0050676299" flag="0"/>
    </comp>
    <comp name="--.HHZ">
      <acc value="0.2959807349" flag="0"/>
      <vel value="0.0799281136" flag="0"/>
      <psa03 value="0.4006891136" flag="0"/>
      <psa10 value="0.0501208801" flag="0"/>
      <psa30 value="0.0034253757" flag="0"/>
    </comp>
  </station>
  <station code="CELI" name="CELI" netid="IV" insttype="" lat="39.4027" lon="16.5088">
    <comp name="--.HHE">
      <acc value="0.0730514212" flag="0"/>
      <vel value="0.0398569294" flag="0"/>
      <psa03 value="0.1120468820" flag="0"/>
      <psa10 value="0.0472370070" flag="0"/>
      <psa30 value="0.0034626517" flag="0"/>
    </comp>
    <comp name="--.HHN">
      <acc value="0.0950733231" flag="0"/>
      <vel value="0.0584807038" flag="0"/>
      <psa03 value="0.1649731777" flag="0"/>
      <psa10 value="0.0386611351" flag="0"/>
      <psa30 value="0.0027273752" flag="0"/>
    </comp>
    <comp name="--.HHZ">
      <acc value="0.0391339370" flag="0"/>
      <vel value="0.0155783523" flag="0"/>
      <psa03 value="0.0446732258" flag="0"/>
      <psa10 value="0.0150499746" flag="0"/>
      <psa30 value="0.0016758519" flag="0"/>
    </comp>
  </station>
  <station code="CET2" name="CET2" netid="IV" insttype="" lat="39.5288" lon="15.9546">
    <comp name="--.HHE">
      <acc value="0.3824339067" flag="0"/>
      <vel value="0.1241770714" flag="0"/>
      <psa03 value="0.5876666306" flag="0"/>
      <psa10 value="0.0572541919" flag="0"/>
      <psa30 value="0.0049859766" flag="0"/>
    </comp>
    <comp name="--.HHN">
      <acc value="0.8319059853" flag="0"/>
      <vel value="0.2176765822" flag="0"/>
      <psa03 value="1.3750510463" flag="0"/>
      <psa10 value="0.0757121241" flag="0"/>
      <psa30 value="0.0071337397" flag="0"/>
    </comp>
    <comp name="--.HHZ">
      <acc value="0.3038165596" flag="0"/>
      <vel value="0.0956771078" flag="0"/>
      <psa03 value="0.2839692170" flag="0"/>
      <psa10 value="0.0601786937" flag="0"/>
      <psa30 value="0.0045592761" flag="0"/>
    </comp>
  </station>
  <station code="FERC" name="FERC" netid="IV" insttype="" lat="38.4527" lon="16.1281">
    <comp name="00.HHE">
      <acc value="2.8358826462" flag="0"/>
      <vel value="1.4678207708" flag="0"/>
      <psa03 value="8.8975880523" flag="0"/>
      <psa10 value="1.2553989517" flag="0"/>
      <psa30 value="0.4388903517" flag="0"/>
    </comp>
    <comp name="00.HHN">
      <acc value="3.2103054724" flag="0"/>
      <vel value="2.6989353808" flag="0"/>
      <psa03 value="8.9316434933" flag="0"/>
      <psa10 value="1.7444267696" flag="0"/>
      <psa30 value="0.5933379561" flag="0"/>
    </comp>
    <comp name="00.HHZ">
      <acc value="1.3195035845" flag="0"/>
      <vel value="0.9635814890" flag="0"/>
      <psa03 value="3.2974816290" flag="0"/>
      <psa10 value="0.9581192087" flag="0"/>
      <psa30 value="0.3991439971" flag="0"/>
    </comp>
  </station>
  <station code="GIZZ" name="GIZZ" netid="IV" insttype="" lat="38.9798" lon="16.2078">
    <comp name="--.HHE">
      <acc value="1.2699977000" flag="0"/>
      <vel value="0.2322708948" flag="0"/>
      <psa03 value="0.7752426931" flag="0"/>
      <psa10 value="0.0364327727" flag="0"/>
      <psa30 value="0.0050460334" flag="0"/>
    </comp>
    <comp name="--.HHN">
      <acc value="1.7671324668" flag="0"/>
      <vel value="0.2767019208" flag="0"/>
      <psa03 value="1.2521011665" flag="0"/>
      <psa10 value="0.0542717541" flag="0"/>
      <psa30 value="0.0055111944" flag="0"/>
    </comp>
    <comp name="--.HHZ">
      <acc value="1.2475346539" flag="0"/>
      <vel value="0.1489638684" flag="0"/>
      <psa03 value="0.4365842709" flag="0"/>
      <psa10 value="0.0400744261" flag="0"/>
      <psa30 value="0.0027451613" flag="0"/>
    </comp>
  </station>
  <station code="GRIS" name="GRIS" netid="IV" insttype="" lat="39.7405" lon="15.8531">
    <comp name="--.HNE">
      <acc value="0.1168296019" flag="0"/>
      <vel value="0.0529828095" flag="0"/>
      <psa03 value="0.2659362129" flag="0"/>
      <psa10 value="0.0543744760" flag="0"/>
      <psa30 value="0.0024585560" flag="0"/>
    </comp>
    <comp name="--.HNN">
      <acc value="0.2209726553" flag="0"/>
      <vel value="0.0936376743" flag="0"/>
      <psa03 value="0.3036427266" flag="0"/>
      <psa10 value="0.0395786705" flag="0"/>
      <psa30 value="0.0029327493" flag="0"/>
    </comp>
    <comp name="--.HNZ">
      <acc value="0.0768501350" flag="0"/>
      <vel value="0.0308760097" flag="0"/>
      <psa03 value="0.1224052831" flag="0"/>
      <psa10 value="0.0252525340" flag="0"/>
      <psa30 value="0.0025369800" flag="0"/>
    </comp>
  </station>
  <station code="ILOS" name="ILOS" netid="IV" insttype="" lat="38.4457" lon="14.9483">
    <comp name="--.HHE">
      <acc value="0.0647574131" flag="0"/>
      <vel value="0.0393851445" flag="0"/>
      <psa03 value="0.1278274576" flag="0"/>
      <psa10 value="0.0583241441" flag="0"/>
      <psa30 value="0.0089918151" flag="0"/>
    </comp>
    <comp name="--.HHN">
      <acc value="0.0636477461" flag="0"/>
      <vel value="0.0436812234" flag="0"/>
      <psa03 value="0.2054362652" flag="0"/>
      <psa10 value="0.0901281204" flag="0"/>
      <psa30 value="0.0046895436" flag="0"/>
    </comp>
    <comp name="--.HHZ">
      <acc value="0.0414745379" flag="0"/>
      <vel value="0.0182423413" flag="0"/>
      <psa03 value="0.0640079536" flag="0"/>
      <psa10 value="0.0230102959" flag="0"/>
      <psa30 value="0.0021338398" flag="0"/>
    </comp>
  </station>
  <station code="IST3" name="IST3" netid="IV" insttype="" lat="38.7992" lon="15.2304">
    <comp name="--.HHE">
      <acc value="0.3219073687" flag="0"/>
      <vel value="0.0692004153" flag="0"/>
      <psa03 value="0.2596867126" flag="0"/>
      <psa10 value="0.0718529885" flag="0"/>
      <psa30 value="0.0037244875" flag="0"/>
    </comp>
    <comp name="--.HHZ">
      <acc value="0.2494278905" flag="0"/>
      <vel value="0.0377086172" flag="0"/>
      <psa03 value="0.1364635543" flag="0"/>
      <psa10 value="0.0282395438" flag="0"/>
      <psa30 value="0.0023843829" flag="0"/>
    </comp>
    <comp name="--.HHN">
      <acc value="0.3672532548" flag="0"/>
      <vel value="0.0745103123" flag="0"/>
      <psa03 value="0.3357361455" flag="0"/>
      <psa10 value="0.0530278698" flag="0"/>
      <psa30 value="0.0041282496" flag="0"/>
    </comp>
  </station>
  <station code="ISTR" name="ISTR" netid="IV" insttype="" lat="38.7866" lon="15.1918">
    <comp name="--.HHN">
      <acc value="0.0845912109" flag="0"/>
      <vel value="0.0281174963" flag="0"/>
      <psa03 value="0.1261757163" flag="0"/>
      <psa10 value="0.0247264058" flag="0"/>
      <psa30 value="0.0028765221" flag="0"/>
    </comp>
    <comp name="--.HHZ">
      <acc value="0.0569802243" flag="0"/>
      <vel value="0.0133293388" flag="0"/>
      <psa03 value="0.0724189268" flag="0"/>
      <psa10 value="0.0125695031" flag="0"/>
      <psa30 value="0.0015630870" flag="0"/>
    </comp>
    <comp name="--.HHE">
      <acc value="0.0734382228" flag="0"/>
      <vel value="0.0199359721" flag="0"/>
      <psa03 value="0.1088673026" flag="0"/>
      <psa10 value="0.0222871613" flag="0"/>
      <psa30 value="0.0024468404" flag="0"/>
    </comp>
  </station>
  <station code="IVCR" name="IVCR" netid="IV" insttype="" lat="38.4096" lon="14.961">
    <comp name="--.HHE">
      <acc value="0.0284641983" flag="0"/>
      <vel value="0.0103389638" flag="0"/>
      <psa03 value="0.0351415968" flag="0"/>
      <psa10 value="0.0113282887" flag="0"/>
      <psa30 value="0.0014543673" flag="0"/>
    </comp>
    <comp name="--.HHN">
      <acc value="0.0284306971" flag="0"/>
      <vel value="0.0113969591" flag="0"/>
      <psa03 value="0.0376548580" flag="0"/>
      <psa10 value="0.0138762523" flag="0"/>
      <psa30 value="0.0012522766" flag="0"/>
    </comp>
    <comp name="--.HHZ">
      <acc value="0.0157145412" flag="0"/>
      <vel value="0.0067428012" flag="0"/>
      <psa03 value="0.0195861523" flag="0"/>
      <psa10 value="0.0090081810" flag="0"/>
      <psa30 value="0.0021461848" flag="0"/>
    </comp>
  </station>
  <station code="IVGP" name="IVGP" netid="IV" insttype="" lat="38.3968" lon="14.9608">
    <comp name="--.HHE">
      <acc value="0.0247652267" flag="0"/>
      <vel value="0.0074559314" flag="0"/>
      <psa03 value="0.0334092601" flag="0"/>
      <psa10 value="0.0084505228" flag="0"/>
      <psa30 value="0.0009372677" flag="0"/>
    </comp>
    <comp name="--.HHN">
      <acc value="0.0265276140" flag="0"/>
      <vel value="0.0065525189" flag="0"/>
      <psa03 value="0.0275274191" flag="0"/>
      <psa10 value="0.0109768176" flag="0"/>
      <psa30 value="0.0011186284" flag="0"/>
    </comp>
    <comp name="--.HHZ">
      <acc value="0.0143181902" flag="0"/>
      <vel value="0.0054652107" flag="0"/>
      <psa03 value="0.0230414138" flag="0"/>
      <psa10 value="0.0037763062" flag="0"/>
      <psa30 value="0.0013489614" flag="0"/>
    </comp>
  </station>
  <station code="IVLT" name="IVLT" netid="IV" insttype="" lat="38.3961" lon="14.9482">
    <comp name="--.HHE">
      <acc value="0.0134908323" flag="0"/>
      <vel value="0.0130949304" flag="0"/>
      <psa03 value="0.0271461828" flag="0"/>
      <psa10 value="0.0421972305" flag="0"/>
      <psa30 value="0.0019074774" flag="0"/>
    </comp>
    <comp name="--.HHN">
      <acc value="0.0123964802" flag="0"/>
      <vel value="0.0168491288" flag="0"/>
      <psa03 value="0.0252335527" flag="0"/>
      <psa10 value="0.0261786746" flag="0"/>
      <psa30 value="0.0018817363" flag="0"/>
    </comp>
    <comp name="--.HHZ">
      <acc value="0.0083591629" flag="0"/>
      <vel value="0.0060137830" flag="0"/>
      <psa03 value="0.0193913843" flag="0"/>
      <psa10 value="0.0118736879" flag="0"/>
      <psa30 value="0.0011101511" flag="0"/>
    </comp>
  </station>
  <station code="IVPL" name="IVPL" netid="IV" insttype="" lat="38.3763" lon="14.9801">
    <comp name="--.HHE">
      <acc value="0.0212993990" flag="0"/>
      <vel value="0.0126188923" flag="0"/>
      <psa03 value="0.0479287481" flag="0"/>
      <psa10 value="0.0195404170" flag="0"/>
      <psa30 value="0.0019636884" flag="0"/>
    </comp>
    <comp name="--.HHN">
      <acc value="0.0215919091" flag="0"/>
      <vel value="0.0170208714" flag="0"/>
      <psa03 value="0.0506492668" flag="0"/>
      <psa10 value="0.0238665165" flag="0"/>
      <psa30 value="0.0017437393" flag="0"/>
    </comp>
    <comp name="--.HHZ">
      <acc value="0.0145462990" flag="0"/>
      <vel value="0.0067049222" flag="0"/>
      <psa03 value="0.0284065703" flag="0"/>
      <psa10 value="0.0122396153" flag="0"/>
      <psa30 value="0.0010232728" flag="0"/>
    </comp>
  </station>
  <station code="IVUG" name="IVUG" netid="IV" insttype="" lat="38.396" lon="14.986">
    <comp name="--.HHE">
      <acc value="0.0264280999" flag="0"/>
      <vel value="0.0128329059" flag="0"/>
      <psa03 value="0.0547920741" flag="0"/>
      <psa10 value="0.0141556695" flag="0"/>
      <psa30 value="0.0014773921" flag="0"/>
    </comp>
    <comp name="--.HHN">
      <acc value="0.0303919387" flag="0"/>
      <vel value="0.0093004165" flag="0"/>
      <psa03 value="0.0532677493" flag="0"/>
      <psa10 value="0.0136880064" flag="0"/>
      <psa30 value="0.0012487678" flag="0"/>
    </comp>
    <comp name="--.HHZ">
      <acc value="0.0222325142" flag="0"/>
      <vel value="0.0049340397" flag="0"/>
      <psa03 value="0.0229876265" flag="0"/>
      <psa10 value="0.0052047482" flag="0"/>
      <psa30 value="0.0013477636" flag="0"/>
    </comp>
  </station>
  <station code="JOPP" name="JOPP" netid="IV" insttype="" lat="38.6068" lon="15.8856">
    <comp name="--.HHE">
      <acc value="0.2879810388" flag="0"/>
      <vel value="0.0493619697" flag="0"/>
      <psa03 value="0.1324508308" flag="0"/>
      <psa10 value="0.0278565260" flag="0"/>
      <psa30 value="0.0036067772" flag="0"/>
    </comp>
    <comp name="--.HHN">
      <acc value="0.3750012022" flag="0"/>
      <vel value="0.0619659748" flag="0"/>
      <psa03 value="0.2683253529" flag="0"/>
      <psa10 value="0.0198871343" flag="0"/>
      <psa30 value="0.0057890527" flag="0"/>
    </comp>
    <comp name="--.HHZ">
      <acc value="0.1629307504" flag="0"/>
      <vel value="0.0372156460" flag="0"/>
      <psa03 value="0.1072487206" flag="0"/>
      <psa10 value="0.0129212250" flag="0"/>
      <psa30 value="0.0035509462" flag="0"/>
    </comp>
  </station>
  <station code="MILZ" name="MILZ" netid="IV" insttype="" lat="38.2713" lon="15.2313">
    <comp name="--.HHE">
      <acc value="0.0483034274" flag="0"/>
      <vel value="0.0306407299" flag="0"/>
      <psa03 value="0.0990407522" flag="0"/>
      <psa10 value="0.0392763449" flag="0"/>
      <psa30 value="0.0032594614" flag="0"/>
    </comp>
    <comp name="--.HHN">
      <acc value="0.0350423976" flag="0"/>
      <vel value="0.0242451811" flag="0"/>
      <psa03 value="0.0926934247" flag="0"/>
      <psa10 value="0.0250681124" flag="0"/>
      <psa30 value="0.0030333270" flag="0"/>
    </comp>
    <comp name="--.HHZ">
      <acc value="0.0389806292" flag="0"/>
      <vel value="0.0239210539" flag="0"/>
      <psa03 value="0.0871115110" flag="0"/>
      <psa10 value="0.0317831961" flag="0"/>
      <psa30 value="0.0025522141" flag="0"/>
    </comp>
  </station>
  <station code="MMN" name="MMN" netid="IV" insttype="" lat="39.891" lon="15.9904">
    <comp name="--.HHE">
      <acc value="0.1549555844" flag="0"/>
      <vel value="0.0460040667" flag="0"/>
      <psa03 value="0.3418720879" flag="0"/>
      <psa10 value="0.0173315484" flag="0"/>
      <psa30 value="0.0017409409" flag="0"/>
    </comp>
    <comp name="--.HHN">
      <acc value="0.1933788217" flag="0"/>
      <vel value="0.0516657519" flag="0"/>
      <psa03 value="0.2740355573" flag="0"/>
      <psa10 value="0.0342739238" flag="0"/>
      <psa30 value="0.0022078381" flag="0"/>
    </comp>
    <comp name="--.HHZ">
      <acc value="0.0684732152" flag="0"/>
      <vel value="0.0153908483" flag="0"/>
      <psa03 value="0.0803628169" flag="0"/>
      <psa10 value="0.0149298924" flag="0"/>
      <psa30 value="0.0012805895" flag="0"/>
    </comp>
  </station>
  <station code="MPAZ" name="MPAZ" netid="IV" insttype="" lat="37.9531" lon="16.0067">
    <comp name="--.HHE">
      <acc value="0.0191184747" flag="0"/>
      <vel value="0.0103434337" flag="0"/>
      <psa03 value="0.0604799722" flag="0"/>
      <psa10 value="0.0103760622" flag="0"/>
      <psa30 value="0.0008502324" flag="0"/>
    </comp>
    <comp name="--.HHN">
      <acc value="0.0188052434" flag="0"/>
      <vel value="0.0090731625" flag="0"/>
      <psa03 value="0.0744310793" flag="0"/>
      <psa10 value="0.0091438711" flag="0"/>
      <psa30 value="0.0009013959" flag="0"/>
    </comp>
    <comp name="--.HHZ">
      <acc value="0.0155881279" flag="0"/>
      <vel value="0.0064267137" flag="0"/>
      <psa03 value="0.0409547967" flag="0"/>
      <psa10 value="0.0076733999" flag="0"/>
      <psa30 value="0.0006319786" flag="0"/>
    </comp>
  </station>
  <station code="MPNC" name="MPNC" netid="IV" insttype="" lat="38.1465" lon="15.3528">
    <comp name="--.HHE">
      <acc value="0.0390149576" flag="0"/>
      <vel value="0.0216320020" flag="0"/>
      <psa03 value="0.0983767678" flag="0"/>
      <psa10 value="0.0278673043" flag="0"/>
      <psa30 value="0.0019567996" flag="0"/>
    </comp>
    <comp name="--.HHN">
      <acc value="0.0394436329" flag="0"/>
      <vel value="0.0199738166" flag="0"/>
      <psa03 value="0.0804540003" flag="0"/>
      <psa10 value="0.0244220755" flag="0"/>
      <psa30 value="0.0022083120" flag="0"/>
    </comp>
    <comp name="--.HHZ">
      <acc value="0.0223945042" flag="0"/>
      <vel value="0.0094681778" flag="0"/>
      <psa03 value="0.0401545961" flag="0"/>
      <psa10 value="0.0120195143" flag="0"/>
      <psa30 value="0.0006338289" flag="0"/>
    </comp>
  </station>
  <station code="MSRU" name="MSRU" netid="IV" insttype="" lat="38.2639" lon="15.5083">
    <comp name="--.HHE">
      <acc value="0.0451986928" flag="0"/>
      <vel value="0.0294850249" flag="0"/>
      <psa03 value="0.1357040536" flag="0"/>
      <psa10 value="0.0250447684" flag="0"/>
      <psa30 value="0.0026463683" flag="0"/>
    </comp>
    <comp name="--.HHN">
      <acc value="0.0478454700" flag="0"/>
      <vel value="0.0176015816" flag="0"/>
      <psa03 value="0.1135430619" flag="0"/>
      <psa10 value="0.0192523119" flag="0"/>
      <psa30 value="0.0013762061" flag="0"/>
    </comp>
    <comp name="--.HHZ">
      <acc value="0.0401442229" flag="0"/>
      <vel value="0.0136258404" flag="0"/>
      <psa03 value="0.0642062466" flag="0"/>
      <psa10 value="0.0110041608" flag="0"/>
      <psa30 value="0.0012596314" flag="0"/>
    </comp>
  </station>
  <station code="MTTG" name="MTTG" netid="IV" insttype="" lat="38.0031" lon="15.6999">
    <comp name="--.HHE">
      <acc value="0.0082287903" flag="0"/>
      <vel value="0.0064731738" flag="0"/>
      <psa03 value="0.0246510358" flag="0"/>
      <psa10 value="0.0195122677" flag="0"/>
      <psa30 value="0.0011822646" flag="0"/>
    </comp>
    <comp name="--.HHN">
      <acc value="0.0129055000" flag="0"/>
      <vel value="0.0107498582" flag="0"/>
      <psa03 value="0.0350478735" flag="0"/>
      <psa10 value="0.0246356472" flag="0"/>
      <psa30 value="0.0011401103" flag="0"/>
    </comp>
    <comp name="--.HHZ">
      <acc value="0.0092096777" flag="0"/>
      <vel value="0.0089415623" flag="0"/>
      <psa03 value="0.0169782407" flag="0"/>
      <psa10 value="0.0105693854" flag="0"/>
      <psa30 value="0.0014920697" flag="0"/>
    </comp>
  </station>
  <station code="PIPA" name="PIPA" netid="IV" insttype="" lat="39.4851" lon="16.8158">
    <comp name="--.HHE">
      <acc value="0.0476961147" flag="0"/>
      <vel value="0.0237710843" flag="0"/>
      <psa03 value="0.0848741458" flag="0"/>
      <psa10 value="0.0139295963" flag="0"/>
      <psa30 value="0.0012383947" flag="0"/>
    </comp>
    <comp name="--.HHN">
      <acc value="0.0394767174" flag="0"/>
      <vel value="0.0195164314" flag="0"/>
      <psa03 value="0.0608524526" flag="0"/>
      <psa10 value="0.0140644632" flag="0"/>
      <psa30 value="0.0019885468" flag="0"/>
    </comp>
