<stationlist created="1739408577">
	<station code="KTHA" name="KTHA" netid="GE" source="GEOFON" insttype="" lat="36.2566" lon="23.0621">
		<comp name=".HNE" depth="0.0">
			<acc value="0.029834649213126" flag="0"/>
			<vel value="0.0218929624992" flag="0"/>
			<psa03 value="0.0763019556717872" flag="0"/>
			<psa10 value="0.0225892595525915" flag="0"/>
			<psa30 value="0.00758323235192062" flag="0"/>
		</comp>
		<comp name=".HNN" depth="0.0">
			<acc value="0.020526421824708" flag="0"/>
			<vel value="0.0214827110971" flag="0"/>
			<psa03 value="0.0612922582281897" flag="0"/>
			<psa10 value="0.0189067218525451" flag="0"/>
			<psa30 value="0.00558662550320498" flag="0"/>
		</comp>
		<comp name=".HNZ" depth="0.0">
			<acc value="0.011357678494932" flag="0"/>
			<vel value="0.0228093399889" flag="0"/>
			<psa03 value="0.0287445291839888" flag="0"/>
			<psa10 value="0.01207643469204" flag="0"/>
			<psa30 value="0.00906529553133443" flag="0"/>
		</comp>
	</station>
	<station code="ABEA" name="ABEA" netid="HC" source="Seismological Network of Crete (HC)" insttype="" lat="35.5163" lon="24.0113">
		<comp name=".HNE" depth="0.0">
			<acc value="0.001193405251368" flag="0"/>
			<vel value="0.00213001442984" flag="0"/>
			<psa03 value="0.00163964491399955" flag="0"/>
			<psa10 value="0.00125190465128958" flag="0"/>
			<psa30 value="0.000818245350573763" flag="0"/>
		</comp>
		<comp name=".HNN" depth="0.0">
			<acc value="0.0011499369773292" flag="0"/>
			<vel value="0.00213756078389" flag="0"/>
			<psa03 value="0.00161343712317586" flag="0"/>
			<psa10 value="0.00136056856849158" flag="0"/>
			<psa30 value="0.000755330088995338" flag="0"/>
		</comp>
		<comp name=".HNZ" depth="0.0">
			<acc value="0.0016184080640112" flag="0"/>
			<vel value="0.00196871092396" flag="0"/>
			<psa03 value="0.00183796176245825" flag="0"/>
			<psa10 value="0.00134356869233214" flag="0"/>
			<psa30 value="0.000633123191305162" flag="0"/>
		</comp>
	</station>
	<station code="ATEI" name="ATEI" netid="HC" source="Seismological Network of Crete (HC)" insttype="" lat="35.5193" lon="24.0432">
		<comp name=".HNE" depth="0.0">
			<acc value="0.066189853408614" flag="0"/>
			<vel value="0.0390134834152" flag="0"/>
			<psa03 value="0.199905596931253" flag="0"/>
			<psa10 value="0.0497135145262164" flag="0"/>
			<psa30 value="0.00723734777208281" flag="0"/>
		</comp>
		<comp name=".HNN" depth="0.0">
			<acc value="0.05025321424914" flag="0"/>
			<vel value="0.041740577111" flag="0"/>
			<psa03 value="0.173099550329184" flag="0"/>
			<psa10 value="0.0650471815564504" flag="0"/>
			<psa30 value="0.0061595472064503" flag="0"/>
		</comp>
		<comp name=".HNZ" depth="0.0">
			<acc value="0.02898716199081" flag="0"/>
			<vel value="0.0215374505824" flag="0"/>
			<psa03 value="0.0669075000019702" flag="0"/>
			<psa10 value="0.0444046403396023" flag="0"/>
			<psa30 value="0.00434352690400718" flag="0"/>
		</comp>
	</station>
	<station code="G0LD" name="G0LD" netid="HC" source="Seismological Network of Crete (HC)" insttype="" lat="35.4955" lon="24.0306">
		<comp name=".HNE" depth="0.0">
			<acc value="0.002109239756637" flag="0"/>
			<vel value="0.00426503533938" flag="0"/>
			<psa03 value="0.00175207195809671" flag="0"/>
			<psa10 value="0.00163388561971533" flag="0"/>
			<psa30 value="0.00150650667367166" flag="0"/>
		</comp>
		<comp name=".HNN" depth="0.0">
			<acc value="0.0024471451856238" flag="0"/>
			<vel value="0.00310593607327" flag="0"/>
			<psa03 value="0.00213424506164613" flag="0"/>
			<psa10 value="0.00185117196699595" flag="0"/>
			<psa30 value="0.00122481165859269" flag="0"/>
		</comp>
		<comp name=".HNZ" depth="0.0">
			<acc value="0.0027055163367462" flag="0"/>
			<vel value="0.00644410704745" flag="0"/>
			<psa03 value="0.0026069472742859" flag="0"/>
			<psa10 value="0.00196516322929563" flag="0"/>
			<psa30 value="0.00194633518515454" flag="0"/>
		</comp>
	</station>
	<station code="PASK" name="PASK" netid="HC" source="Seismological Network of Crete (HC)" insttype="" lat="35.4996" lon="24.0121">
		<comp name=".HNE" depth="0.0">
			<acc value="0.057958022850804" flag="0"/>
			<vel value="0.0588792654054" flag="0"/>
			<psa03 value="0.160695207768726" flag="0"/>
			<psa10 value="0.104638966817922" flag="0"/>
			<psa30 value="0.0119663418780832" flag="0"/>
		</comp>
		<comp name=".HNN" depth="0.0">
			<acc value="0.06890041644933" flag="0"/>
			<vel value="0.0586108561048" flag="0"/>
			<psa03 value="0.244678458747109" flag="0"/>
			<psa10 value="0.10643966360528" flag="0"/>
			<psa30 value="0.0106372138299002" flag="0"/>
		</comp>
		<comp name=".HNZ" depth="0.0">
			<acc value="0.041043579571632" flag="0"/>
			<vel value="0.037604981344" flag="0"/>
			<psa03 value="0.1712915347233" flag="0"/>
			<psa10 value="0.0564799452693638" flag="0"/>
			<psa30 value="0.00636927484987854" flag="0"/>
		</comp>
	</station>
	<station code="POLY" name="POLY" netid="HC" source="Seismological Network of Crete (HC)" insttype="" lat="35.5226" lon="24.0602">
		<comp name=".HNE" depth="0.0">
			<acc value="0.00100785236754534" flag="0"/>
			<vel value="0.00310301333332" flag="0"/>
			<psa03 value="0.00132620870442613" flag="0"/>
			<psa10 value="0.000999567544568168" flag="0"/>
			<psa30 value="0.000954577506909542" flag="0"/>
		</comp>
		<comp name=".HNN" depth="0.0">
			<acc value="0.0009889164059691" flag="0"/>
			<vel value="0.00321321705958" flag="0"/>
			<psa03 value="0.00171569796646633" flag="0"/>
			<psa10 value="0.00149723230929287" flag="0"/>
			<psa30 value="0.0011489694469201" flag="0"/>
		</comp>
		<comp name=".HNZ" depth="0.0">
			<acc value="0.001180342537524" flag="0"/>
			<vel value="0.00220528193106" flag="0"/>
			<psa03 value="0.00129217869945753" flag="0"/>
			<psa10 value="0.000988804448754665" flag="0"/>
			<psa30 value="0.000963052339157499" flag="0"/>
		</comp>
	</station>
	<station code="ARK1" name="ARK1" netid="HI" source="ITSAK Strong Motion Network" insttype="" lat="35.148777" lon="25.264194">
		<comp name=".HNE" depth="0.0">
			<acc value="0.10632403783356" flag="0"/>
			<vel value="0.145123306363" flag="0"/>
			<psa03 value="0.241282296267905" flag="0"/>
			<psa10 value="0.17273383276878" flag="0"/>
			<psa30 value="0.0270775337537187" flag="0"/>
		</comp>
		<comp name=".HNN" depth="0.0">
			<acc value="0.12777731640966" flag="0"/>
			<vel value="0.0735494494246" flag="0"/>
			<psa03 value="0.245628813370139" flag="0"/>
			<psa10 value="0.147102069790129" flag="0"/>
			<psa30 value="0.0132143928886831" flag="0"/>
		</comp>
		<comp name=".HNZ" depth="0.0">
			<acc value="0.083046129956544" flag="0"/>
			<vel value="0.0719841641665" flag="0"/>
			<psa03 value="0.132429741570277" flag="0"/>
			<psa10 value="0.155096729397322" flag="0"/>
			<psa30 value="0.0122068278091215" flag="0"/>
		</comp>
	</station>
	<station code="ATH5" name="ATH5" netid="HI" source="ITSAK Strong Motion Network" insttype="" lat="37.975421" lon="23.737098">
		<comp name=".HNE" depth="0.0">
			<acc value="0.031454199494496" flag="0"/>
			<vel value="0.0172036715611" flag="0"/>
			<psa03 value="0.0913354255235762" flag="0"/>
			<psa10 value="0.0104410188537406" flag="0"/>
			<psa30 value="0.00413467931887957" flag="0"/>
		</comp>
		<comp name=".HNN" depth="0.0">
			<acc value="0.02928335083725" flag="0"/>
			<vel value="0.0264502804592" flag="0"/>
			<psa03 value="0.1026300279024" flag="0"/>
			<psa10 value="0.0154850420580393" flag="0"/>
			<psa30 value="0.00673210596896913" flag="0"/>
		</comp>
		<comp name=".HNZ" depth="0.0">
			<acc value="0.016180277310114" flag="0"/>
			<vel value="0.0160421972231" flag="0"/>
			<psa03 value="0.0534492542925881" flag="0"/>
			<psa10 value="0.0242193950410738" flag="0"/>
			<psa30 value="0.00744850842713718" flag="0"/>
		</comp>
	</station>
	<station code="CH03" name="CH03" netid="HI" source="ITSAK Strong Motion Network" insttype="" lat="35.53303" lon="24.0705">
		<comp name=".HNE" depth="0.0">
			<acc value="0.043564094073408" flag="0"/>
			<vel value="0.0446162355259" flag="0"/>
			<psa03 value="0.0909373887390769" flag="0"/>
			<psa10 value="0.0699903390166552" flag="0"/>
			<psa30 value="0.00602668048802426" flag="0"/>
		</comp>
		<comp name=".HNN" depth="0.0">
			<acc value="0.05186119123821" flag="0"/>
			<vel value="0.0422443571344" flag="0"/>
			<psa03 value="0.158378314702737" flag="0"/>
			<psa10 value="0.0627054101755478" flag="0"/>
			<psa30 value="0.00575731806072567" flag="0"/>
		</comp>
		<comp name=".HNZ" depth="0.0">
			<acc value="0.021213233322828" flag="0"/>
			<vel value="0.0198217900639" flag="0"/>
			<psa03 value="0.0598042221526913" flag="0"/>
			<psa10 value="0.023675327749255" flag="0"/>
			<psa30 value="0.00505862385899687" flag="0"/>
		</comp>
	</station>
	<station code="KIS1" name="KIS1" netid="HI" source="ITSAK Strong Motion Network" insttype="" lat="35.493933" lon="23.658993">
		<comp name=".HNE" depth="0.0">
			<acc value="0.031583792898942" flag="0"/>
			<vel value="0.0341724395238" flag="0"/>
			<psa03 value="0.0586166434817253" flag="0"/>
			<psa10 value="0.0622613057557531" flag="0"/>
			<psa30 value="0.00531786061550298" flag="0"/>
		</comp>
		<comp name=".HNN" depth="0.0">
			<acc value="0.025149578170332" flag="0"/>
			<vel value="0.0274562066238" flag="0"/>
			<psa03 value="0.0706897818093703" flag="0"/>
			<psa10 value="0.0685214342088021" flag="0"/>
			<psa30 value="0.00479731654869284" flag="0"/>
		</comp>
		<comp name=".HNZ" depth="0.0">
			<acc value="0.017640707666454" flag="0"/>
			<vel value="0.0202148193299" flag="0"/>
			<psa03 value="0.0537550922611093" flag="0"/>
			<psa10 value="0.0252060254004924" flag="0"/>
			<psa30 value="0.00790871641366116" flag="0"/>
		</comp>
	</station>
	<station code="KOR2" name="KOR2" netid="HI" source="ITSAK Strong Motion Network" insttype="" lat="37.9401" lon="22.9495">
		<comp name=".HNE" depth="0.0">
			<acc value="0.01886492071365" flag="0"/>
			<vel value="0.0315344441846" flag="0"/>
			<psa03 value="0.0433379803035105" flag="0"/>
			<psa10 value="0.0216052149894483" flag="0"/>
			<psa30 value="0.0153761202591631" flag="0"/>
		</comp>
		<comp name=".HNN" depth="0.0">
			<acc value="0.022222452888054" flag="0"/>
			<vel value="0.0268764276632" flag="0"/>
			<psa03 value="0.054911835556283" flag="0"/>
			<psa10 value="0.0349020095868435" flag="0"/>
			<psa30 value="0.011764208487727" flag="0"/>
		</comp>
		<comp name=".HNZ" depth="0.0">
			<acc value="0.012465945265014" flag="0"/>
			<vel value="0.0128714182836" flag="0"/>
			<psa03 value="0.0269669400732597" flag="0"/>
			<psa10 value="0.016557898129506" flag="0"/>
			<psa30 value="0.00581908590254071" flag="0"/>
		</comp>
	</station>
	<station code="KRL1" name="KRL1" netid="HI" source="ITSAK Strong Motion Network" insttype="" lat="37.7951" lon="26.7065">
		<comp name=".HNE" depth="0.0">
			<acc value="0.045399808429956" flag="0"/>
			<vel value="0.0322910747538" flag="0"/>
			<psa03 value="0.129508183448207" flag="0"/>
			<psa10 value="0.0703340567862357" flag="0"/>
			<psa30 value="0.00428286621886883" flag="0"/>
		</comp>
		<comp name=".HNN" depth="0.0">
			<acc value="0.035250518082468" flag="0"/>
			<vel value="0.0282600454274" flag="0"/>
			<psa03 value="0.107044049476435" flag="0"/>
			<psa10 value="0.0616656725480298" flag="0"/>
			<psa30 value="0.00262308605824575" flag="0"/>
		</comp>
		<comp name=".HNZ" depth="0.0">
			<acc value="0.020190781146132" flag="0"/>
			<vel value="0.0143306791146" flag="0"/>
			<psa03 value="0.054088536225252" flag="0"/>
			<psa10 value="0.0299908136192039" flag="0"/>
			<psa30 value="0.00283812384510729" flag="0"/>
		</comp>
	</station>
	<station code="KTL1" name="KTL1" netid="HI" source="ITSAK Strong Motion Network" insttype="" lat="35.20778" lon="25.34272">
		<comp name=".HNE" depth="0.0">
			<acc value="0.08645321650086" flag="0"/>
			<vel value="0.0707537703709" flag="0"/>
			<psa03 value="0.285185350463387" flag="0"/>
			<psa10 value="0.0771460455468288" flag="0"/>
			<psa30 value="0.0170820015987837" flag="0"/>
		</comp>
		<comp name=".HNN" depth="0.0">
			<acc value="0.10747958866398" flag="0"/>
			<vel value="0.0862230207128" flag="0"/>
			<psa03 value="0.417501074063633" flag="0"/>
			<psa10 value="0.1541295103237" flag="0"/>
			<psa30 value="0.00891433386420804" flag="0"/>
		</comp>
		<comp name=".HNZ" depth="0.0">
			<acc value="0.042400316794782" flag="0"/>
			<vel value="0.0330319863801" flag="0"/>
			<psa03 value="0.0893123748396222" flag="0"/>
			<psa10 value="0.0570578360517405" flag="0"/>
			<psa30 value="0.00554464230533971" flag="0"/>
		</comp>
	</station>
	<station code="MYT1" name="MYT1" netid="HI" source="ITSAK Strong Motion Network" insttype="" lat="39.085" lon="26.5694">
		<comp name=".HNE" depth="0.0">
			<acc value="0.004852804004292" flag="0"/>
			<vel value="0.00858532614577" flag="0"/>
			<psa03 value="0.00991470042003438" flag="0"/>
			<psa10 value="0.0119202809101283" flag="0"/>
			<psa30 value="0.00238353310570413" flag="0"/>
		</comp>
		<comp name=".HNN" depth="0.0">
			<acc value="0.0044245525292868" flag="0"/>
			<vel value="0.00819673032688" flag="0"/>
			<psa03 value="0.00686048507243793" flag="0"/>
			<psa10 value="0.0143130500443378" flag="0"/>
			<psa30 value="0.00216258721912405" flag="0"/>
		</comp>
		<comp name=".HNZ" depth="0.0">
			<acc value="0.0028652555501964" flag="0"/>
			<vel value="0.00524368280478" flag="0"/>
			<psa03 value="0.00552547150410704" flag="0"/>
			<psa10 value="0.00749457429124521" flag="0"/>
			<psa30 value="0.00173985973633749" flag="0"/>
		</comp>
	</station>
	<station code="NAX1" name="NAX1" netid="HI" source="ITSAK Strong Motion Network" insttype="" lat="37.101394" lon="25.374103">
		<comp name=".HNE" depth="0.0">
			<acc value="0.30468011909424" flag="0"/>
			<vel value="0.134030712424" flag="0"/>
			<psa03 value="0.677032058383521" flag="0"/>
			<psa10 value="0.0513446438306054" flag="0"/>
			<psa30 value="0.0112251352767967" flag="0"/>
		</comp>
		<comp name=".HNN" depth="0.0">
			<acc value="0.34416203847114" flag="0"/>
			<vel value="0.0945467979111" flag="0"/>
			<psa03 value="0.276687058326182" flag="0"/>
			<psa10 value="0.0381069869008746" flag="0"/>
			<psa30 value="0.0145410982763986" flag="0"/>
		</comp>
		<comp name=".HNZ" depth="0.0">
			<acc value="0.26316205887918" flag="0"/>
			<vel value="0.0689536128512" flag="0"/>
			<psa03 value="0.309787834423616" flag="0"/>
			<psa10 value="0.0612896913911962" flag="0"/>
			<psa30 value="0.0168719943534764" flag="0"/>
		</comp>
	</station>
	<station code="PET1" name="PET1" netid="HI" source="ITSAK Strong Motion Network" insttype="" lat="36.963862" lon="21.92538">
		<comp name=".HNE" depth="0.0">
			<acc value="0.007003627460844" flag="0"/>
			<vel value="0.00804834204554" flag="0"/>
			<psa03 value="0.0154746110545229" flag="0"/>
			<psa10 value="0.0123095679484727" flag="0"/>
			<psa30 value="0.0029008861278017" flag="0"/>
		</comp>
		<comp name=".HNN" depth="0.0">
			<acc value="0.0070187632800324" flag="0"/>
			<vel value="0.00781117038129" flag="0"/>
			<psa03 value="0.0129474957288711" flag="0"/>
			<psa10 value="0.0096791746353011" flag="0"/>
			<psa30 value="0.00224441659824922" flag="0"/>
		</comp>
		<comp name=".HNZ" depth="0.0">
			<acc value="0.003013587953268" flag="0"/>
			<vel value="0.00279123868365" flag="0"/>
			<psa03 value="0.00976158285487218" flag="0"/>
			<psa10 value="0.003378020808549" flag="0"/>
			<psa30 value="0.00142051160192242" flag="0"/>
		</comp>
	</station>
	<station code="PIR2" name="PIR2" netid="HI" source="ITSAK Strong Motion Network" insttype="" lat="37.9458" lon="23.6709">
		<comp name=".HNE" depth="0.0">
			<acc value="0.095979809912406" flag="0"/>
			<vel value="0.0552595663632" flag="0"/>
			<psa03 value="0.192305093435192" flag="0"/>
			<psa10 value="0.0663987410905929" flag="0"/>
			<psa30 value="0.00646505744497459" flag="0"/>
		</comp>
		<comp name=".HNN" depth="0.0">
			<acc value="0.08086504913421" flag="0"/>
			<vel value="0.0562541768222" flag="0"/>
			<psa03 value="0.213874168113801" flag="0"/>
			<psa10 value="0.0357136533542654" flag="0"/>
			<psa30 value="0.0121558452650687" flag="0"/>
		</comp>
		<comp name=".HNZ" depth="0.0">
			<acc value="0.048719799424392" flag="0"/>
			<vel value="0.0246947115046" flag="0"/>
			<psa03 value="0.0895423588249349" flag="0"/>
			<psa10 value="0.0213921502499667" flag="0"/>
			<psa30 value="0.00436489498620609" flag="0"/>
		</comp>
	</station>
	<station code="RPN1" name="RPN1" netid="HI" source="ITSAK Strong Motion Network" insttype="" lat="36.448678" lon="28.218047">
		<comp name=".HNE" depth="0.0">
			<acc value="0.010702955263716" flag="0"/>
			<vel value="0.0309320793487" flag="0"/>
			<psa03 value="0.0170864235583558" flag="0"/>
			<psa10 value="0.0347749999230947" flag="0"/>
			<psa30 value="0.0295297662020881" flag="0"/>
		</comp>
		<comp name=".HNN" depth="0.0">
			<acc value="0.010962114361248" flag="0"/>
			<vel value="0.0262024957078" flag="0"/>
			<psa03 value="0.0220367384715899" flag="0"/>
			<psa10 value="0.0250779356651599" flag="0"/>
			<psa30 value="0.0114295779867969" flag="0"/>
		</comp>
		<comp name=".HNZ" depth="0.0">
			<acc value="0.005923071357468" flag="0"/>
			<vel value="0.0133895383669" flag="0"/>
			<psa03 value="0.0117591344537144" flag="0"/>
			<psa10 value="0.0191410711270137" flag="0"/>
			<psa30 value="0.00532433854461388" flag="0"/>
		</comp>
	</station>
	<station code="RTH1" name="RTH1" netid="HI" source="ITSAK Strong Motion Network" insttype="" lat="35.365393" lon="24.471773">
		<comp name=".HNE" depth="0.0">
			<acc value="0.033424098137178" flag="0"/>
			<vel value="0.0269002584914" flag="0"/>
			<psa03 value="0.117128009155745" flag="0"/>
			<psa10 value="0.0322522678044431" flag="0"/>
			<psa30 value="0.0107038357432416" flag="0"/>
		</comp>
		<comp name=".HNN" depth="0.0">
			<acc value="0.035634911499594" flag="0"/>
			<vel value="0.0276900111624" flag="0"/>
			<psa03 value="0.0906899869330819" flag="0"/>
			<psa10 value="0.0328095359707444" flag="0"/>
			<psa30 value="0.00893389432666042" flag="0"/>
		</comp>
		<comp name=".HNZ" depth="0.0">
			<acc value="0.023566747396812" flag="0"/>
			<vel value="0.0198737512605" flag="0"/>
			<psa03 value="0.0417629046083178" flag="0"/>
			<psa10 value="0.0315175078802299" flag="0"/>
			<psa30 value="0.0070026755595703" flag="0"/>
		</comp>
	</station>
	<station code="SFR2" name="SFR2" netid="HI" source="ITSAK Strong Motion Network" insttype="" lat="36.399841" lon="25.438209">
		<comp name=".HNE" depth="0.0">
			<acc value="2.536061724531" flag="0"/>
			<vel value="1.54959633473" flag="0"/>
			<psa03 value="3.82335727865718" flag="0"/>
			<psa10 value="1.03166118248893" flag="0"/>
			<psa30 value="0.139157618509321" flag="0"/>
		</comp>
		<comp name=".HNN" depth="0.0">
			<acc value="2.9672914427316" flag="0"/>
			<vel value="1.68695306655" flag="0"/>
			<psa03 value="4.3194678102117" flag="0"/>
			<psa10 value="1.84202566515913" flag="0"/>
			<psa30 value="0.089061599894062" flag="0"/>
		</comp>
		<comp name=".HNZ" depth="0.0">
			<acc value="1.4314094548254" flag="0"/>
			<vel value="0.716087675981" flag="0"/>
			<psa03 value="3.03914832865963" flag="0"/>
			<psa10 value="0.681069357501239" flag="0"/>
			<psa30 value="0.061148937483702" flag="0"/>
		</comp>
	</station>
	<station code="SKY1" name="SKY1" netid="HI" source="ITSAK Strong Motion Network" insttype="" lat="38.904483" lon="24.564572">
		<comp name=".HNE" depth="0.0">
			<acc value="0.0047794606426416" flag="0"/>
			<vel value="0.00842527133316" flag="0"/>
			<psa03 value="0.0169926855778528" flag="0"/>
			<psa10 value="0.00627984819661152" flag="0"/>
			<psa30 value="0.00268052298815881" flag="0"/>
		</comp>
		<comp name=".HNN" depth="0.0">
			<acc value="0.0050350781101578" flag="0"/>
			<vel value="0.00577932275238" flag="0"/>
			<psa03 value="0.0155121057258532" flag="0"/>
			<psa10 value="0.00742967530452343" flag="0"/>
			<psa30 value="0.00220618010693625" flag="0"/>
		</comp>
