<?xml version="1.0" encoding="UTF-8" standalone="yes"?>
<!DOCTYPE earthquake SYSTEM "stationlist.dtd">
<stationlist created="" xmlns="ch.ethz.sed.shakemap.usgs.xml">
  <station code="IDI" name="IDI" netid="MN" insttype="" lat="35.288" lon="24.89">
    <comp name="--.HHZ">
      <acc value="0.0469915638" flag="0"/>
      <vel value="0.0332741675" flag="0"/>
      <psa03 value="0.0832099968" flag="0"/>
      <psa10 value="0.0610091757" flag="0"/>
      <psa30 value="0.0049326858" flag="0"/>
    </comp>
    <comp name="--.HHE">
      <acc value="0.0582592975" flag="0"/>
      <vel value="0.0365497040" flag="0"/>
      <psa03 value="0.1737025528" flag="0"/>
      <psa10 value="0.0434647097" flag="0"/>
      <psa30 value="0.0078762496" flag="0"/>
    </comp>
    <comp name="--.HHN">
      <acc value="0.0498728448" flag="0"/>
      <vel value="0.0261141692" flag="0"/>
      <psa03 value="0.1166409676" flag="0"/>
      <psa10 value="0.0433029016" flag="0"/>
      <psa30 value="0.0044724626" flag="0"/>
    </comp>
  </station>
</stationlist>
