<?xml version="1.0" encoding="UTF-8" standalone="yes"?>
<!DOCTYPE earthquake SYSTEM "stationlist.dtd">
<stationlist created="" xmlns="ch.ethz.sed.shakemap.usgs.xml">
  <station code="APE" name="APE" netid="GE" insttype="STS-2/N" lat="37.0727" lon="25.523">
    <comp name="--.HHZ">
      <acc value="0.1553160467" flag="0"/>
      <vel value="0.0678095141" flag="0"/>
      <psa03 value="0.1783059190" flag="0"/>
      <psa10 value="0.0616723508" flag="0"/>
      <psa30 value="0.0170198524" flag="0"/>
    </comp>
    <comp name="--.HHE">
      <acc value="0.5056711619" flag="0"/>
      <vel value="0.1047072422" flag="0"/>
      <psa03 value="0.3592479881" flag="0"/>
      <psa10 value="0.0429181974" flag="0"/>
      <psa30 value="0.0180962918" flag="0"/>
    </comp>
    <comp name="--.HHN">
      <acc value="0.4706503201" flag="0"/>
      <vel value="0.0826682251" flag="0"/>
      <psa03 value="0.2324818024" flag="0"/>
      <psa10 value="0.0329798694" flag="0"/>
      <psa30 value="0.0230123990" flag="0"/>
    </comp>
  </station>
  <station code="KARP" name="KARP" netid="GE" insttype="STS-2/N" lat="35.5471" lon="27.1611">
    <comp name="--.HHN">
      <acc value="0.0000410564" flag="0"/>
      <vel value="0.0000044159" flag="0"/>
      <psa03 value="0.0000123068" flag="0"/>
      <psa10 value="0.0000006690" flag="0"/>
      <psa30 value="0.0000000566" flag="0"/>
    </comp>
    <comp name="--.HHZ">
      <acc value="0.0000409300" flag="0"/>
      <vel value="0.0000047046" flag="0"/>
      <psa03 value="0.0000152018" flag="0"/>
      <psa10 value="0.0000009831" flag="0"/>
      <psa30 value="0.0000000704" flag="0"/>
    </comp>
    <comp name="--.HHE">
      <acc value="0.0000248443" flag="0"/>
      <vel value="0.0000023422" flag="0"/>
      <psa03 value="0.0000067546" flag="0"/>
      <psa10 value="0.0000003815" flag="0"/>
      <psa30 value="0.0000000431" flag="0"/>
    </comp>
  </station>
  <station code="THERA" name="THERA" netid="GE" insttype="STS-2/N" lat="36.367" lon="25.4753">
    <comp name="--.HHE">
      <acc value="0.6862601709" flag="0"/>
      <vel value="0.4183716375" flag="0"/>
      <psa03 value="0.6883413290" flag="0"/>
      <psa10 value="0.4180671358" flag="0"/>
      <psa30 value="0.0544884088" flag="0"/>
    </comp>
    <comp name="--.HHN">
      <acc value="0.6694580222" flag="0"/>
      <vel value="0.3356321248" flag="0"/>
      <psa03 value="1.1686039931" flag="0"/>
      <psa10 value="0.2465010339" flag="0"/>
      <psa30 value="0.0312384610" flag="0"/>
    </comp>
    <comp name="--.HHZ">
      <acc value="0.5331074508" flag="0"/>
      <vel value="0.2860507106" flag="0"/>
      <psa03 value="0.6207658113" flag="0"/>
      <psa10 value="0.3941475966" flag="0"/>
      <psa30 value="0.0438134754" flag="0"/>
    </comp>
  </station>
  <station code="ZKR" name="ZKR" netid="GE" insttype="STS-2/N" lat="35.1147" lon="26.2169">
    <comp name="--.HHE">
      <acc value="0.0359396219" flag="0"/>
      <vel value="0.0206937478" flag="0"/>
      <psa03 value="0.1009692942" flag="0"/>
      <psa10 value="0.0234726656" flag="0"/>
      <psa30 value="0.0096231664" flag="0"/>
    </comp>
    <comp name="--.HHN">
      <acc value="0.0161410589" flag="0"/>
      <vel value="0.0124647111" flag="0"/>
      <psa03 value="0.0425415366" flag="0"/>
      <psa10 value="0.0237528098" flag="0"/>
      <psa30 value="0.0041050670" flag="0"/>
    </comp>
    <comp name="--.HHZ">
      <acc value="0.0172724143" flag="0"/>
      <vel value="0.0181415279" flag="0"/>
      <psa03 value="0.0467804736" flag="0"/>
      <psa10 value="0.0202158631" flag="0"/>
      <psa30 value="0.0070006335" flag="0"/>
    </comp>
  </station>
  <station code="IDI" name="IDI" netid="MN" insttype="" lat="35.288" lon="24.89">
    <comp name="--.HHN">
      <acc value="0.0498728448" flag="0"/>
      <vel value="0.0261141693" flag="0"/>
      <psa03 value="0.1166409676" flag="0"/>
      <psa10 value="0.0433029016" flag="0"/>
      <psa30 value="0.0044724538" flag="0"/>
    </comp>
    <comp name="--.HHZ">
      <acc value="0.0469915638" flag="0"/>
      <vel value="0.0332741669" flag="0"/>
      <psa03 value="0.0832099968" flag="0"/>
      <psa10 value="0.0610091757" flag="0"/>
      <psa30 value="0.0049326923" flag="0"/>
    </comp>
    <comp name="--.HHE">
      <acc value="0.0582592975" flag="0"/>
      <vel value="0.0365497024" flag="0"/>
      <psa03 value="0.1737025528" flag="0"/>
      <psa10 value="0.0434647097" flag="0"/>
      <psa30 value="0.0078762538" flag="0"/>
    </comp>
  </station>
</stationlist>
