<?xml version="1.0" encoding="UTF-8" standalone="yes"?>
<!DOCTYPE earthquake SYSTEM "stationlist.dtd">
<stationlist created="" xmlns="ch.ethz.sed.shakemap.usgs.xml">
  <station code="APE" name="APE" netid="GE" insttype="STS-2/N" lat="37.0727" lon="25.523">
    <comp name="--.HHZ">
      <acc value="0.1553160467" flag="0"/>
      <vel value="0.0678095141" flag="0"/>
      <psa03 value="0.1783059190" flag="0"/>
      <psa10 value="0.0616723508" flag="0"/>
      <psa30 value="0.0170198524" flag="0"/>
    </comp>
    <comp name="--.HHE">
      <acc value="0.5056711619" flag="0"/>
      <vel value="0.1047072422" flag="0"/>
      <psa03 value="0.3592479881" flag="0"/>
      <psa10 value="0.0429181974" flag="0"/>
      <psa30 value="0.0180962918" flag="0"/>
    </comp>
    <comp name="--.HHN">
      <acc value="0.4706503201" flag="0"/>
      <vel value="0.0826682251" flag="0"/>
      <psa03 value="0.2324818024" flag="0"/>
      <psa10 value="0.0329798694" flag="0"/>
      <psa30 value="0.0230123990" flag="0"/>
    </comp>
  </station>
  <station code="KARP" name="KARP" netid="GE" insttype="STS-2/N" lat="35.5471" lon="27.1611">
    <comp name="--.HHN">
      <acc value="0.0000410564" flag="0"/>
      <vel value="0.0000044159" flag="0"/>
      <psa03 value="0.0000123068" flag="0"/>
      <psa10 value="0.0000006690" flag="0"/>
      <psa30 value="0.0000000566" flag="0"/>
    </comp>
    <comp name="--.HHZ">
      <acc value="0.0000409300" flag="0"/>
      <vel value="0.0000047046" flag="0"/>
      <psa03 value="0.0000152018" flag="0"/>
      <psa10 value="0.0000009831" flag="0"/>
      <psa30 value="0.0000000704" flag="0"/>
    </comp>
    <comp name="--.HHE">
      <acc value="0.0000248443" flag="0"/>
      <vel value="0.0000023422" flag="0"/>
      <psa03 value="0.0000067546" flag="0"/>
      <psa10 value="0.0000003815" flag="0"/>
      <psa30 value="0.0000000431" flag="0"/>
    </comp>
  </station>
  <station code="THERA" name="THERA" netid="GE" insttype="STS-2/N" lat="36.367" lon="25.4753">
    <comp name="--.HHE">
      <acc value="0.6862601709" flag="0"/>
      <vel value="0.4183716375" flag="0"/>
      <psa03 value="0.6883413290" flag="0"/>
      <psa10 value="0.4180671358" flag="0"/>
      <psa30 value="0.0544884088" flag="0"/>
    </comp>
    <comp name="--.HHN">
      <acc value="0.6694580222" flag="0"/>
      <vel value="0.3356321248" flag="0"/>
      <psa03 value="1.1686039931" flag="0"/>
      <psa10 value="0.2465010339" flag="0"/>
      <psa30 value="0.0312384610" flag="0"/>
    </comp>
    <comp name="--.HHZ">
      <acc value="0.5331074508" flag="0"/>
      <vel value="0.2860507106" flag="0"/>
      <psa03 value="0.6207658113" flag="0"/>
      <psa10 value="0.3941475966" flag="0"/>
      <psa30 value="0.0438134754" flag="0"/>
    </comp>
  </station>
  <station code="ZKR" name="ZKR" netid="GE" insttype="STS-2/N" lat="35.1147" lon="26.2169">
    <comp name="--.HHE">
      <acc value="0.0359396219" flag="0"/>
      <vel value="0.0206937478" flag="0"/>
      <psa03 value="0.1009692942" flag="0"/>
      <psa10 value="0.0234726656" flag="0"/>
      <psa30 value="0.0096231664" flag="0"/>
    </comp>
    <comp name="--.HHN">
      <acc value="0.0161410589" flag="0"/>
      <vel value="0.0124647111" flag="0"/>
      <psa03 value="0.0425415366" flag="0"/>
      <psa10 value="0.0237528098" flag="0"/>
      <psa30 value="0.0041050670" flag="0"/>
    </comp>
    <comp name="--.HHZ">
      <acc value="0.0172724143" flag="0"/>
      <vel value="0.0181415279" flag="0"/>
      <psa03 value="0.0467804736" flag="0"/>
      <psa10 value="0.0202158631" flag="0"/>
      <psa30 value="0.0070006335" flag="0"/>
    </comp>
  </station>
  <station code="SERI" name="SERI" netid="HA" insttype="30" lat="37.1609" lon="24.4853">
    <comp name="--.HHE">
      <acc value="0.1042256018" flag="0"/>
      <vel value="0.0593410503" flag="0"/>
      <psa03 value="0.1417427294" flag="0"/>
      <psa10 value="0.0257693756" flag="0"/>
      <psa30 value="0.0123145734" flag="0"/>
    </comp>
    <comp name="--.HHN">
      <acc value="0.1711227489" flag="0"/>
      <vel value="0.0728266592" flag="0"/>
      <psa03 value="0.2874974449" flag="0"/>
      <psa10 value="0.0476503681" flag="0"/>
      <psa30 value="0.0127901888" flag="0"/>
    </comp>
    <comp name="--.HHZ">
      <acc value="0.1153117403" flag="0"/>
      <vel value="0.0715801711" flag="0"/>
      <psa03 value="0.1920864959" flag="0"/>
      <psa10 value="0.0359940720" flag="0"/>
      <psa30 value="0.0198939000" flag="0"/>
    </comp>
  </station>
  <station code="SNT1" name="SNT1" netid="HA" insttype="30" lat="36.4159" lon="25.4282">
    <comp name="--.HHZ">
      <acc value="0.6842863372" flag="0"/>
      <vel value="0.4881732521" flag="0"/>
      <psa03 value="1.5091321298" flag="0"/>
      <psa10 value="0.4270516896" flag="0"/>
      <psa30 value="0.0520619757" flag="0"/>
    </comp>
    <comp name="--.HHE">
      <acc value="1.0000404344" flag="0"/>
      <vel value="0.6927008530" flag="0"/>
      <psa03 value="2.2585667542" flag="0"/>
      <psa10 value="0.9749356955" flag="0"/>
      <psa30 value="0.1203913441" flag="0"/>
    </comp>
    <comp name="--.HHN">
      <acc value="1.0149183623" flag="0"/>
      <vel value="0.9256044937" flag="0"/>
      <psa03 value="2.3641241613" flag="0"/>
      <psa10 value="1.1482574194" flag="0"/>
      <psa30 value="0.1230353012" flag="0"/>
    </comp>
  </station>
  <station code="IPPL" name="IPPL" netid="HC" insttype="60" lat="35.3486" lon="24.4632">
    <comp name="--.HHE">
      <acc value="0.0000000000" flag="0"/>
      <vel value="-100.0000000000" flag="0"/>
      <psa03 value="0.0000000000" flag="0"/>
      <psa10 value="0.0000000000" flag="0"/>
      <psa30 value="0.0000000000" flag="0"/>
    </comp>
    <comp name="--.HHN">
      <acc value="0.0000000000" flag="0"/>
      <vel value="-100.0000000000" flag="0"/>
      <psa03 value="0.0000000000" flag="0"/>
      <psa10 value="0.0000000000" flag="0"/>
      <psa30 value="0.0000000000" flag="0"/>
    </comp>
    <comp name="--.HHZ">
      <acc value="0.0340751851" flag="0"/>
      <vel value="0.0308854499" flag="0"/>
      <psa03 value="0.0847144628" flag="0"/>
      <psa10 value="0.0397847188" flag="0"/>
      <psa30 value="0.0050397928" flag="0"/>
    </comp>
  </station>
  <station code="KNSS" name="KNSS" netid="HC" insttype="60" lat="35.3042" lon="25.1802">
    <comp name="--.HHN">
      <acc value="0.0718370750" flag="0"/>
      <vel value="0.0597277579" flag="0"/>
      <psa03 value="0.2654206840" flag="0"/>
      <psa10 value="0.0564257768" flag="0"/>
      <psa30 value="0.0115070537" flag="0"/>
    </comp>
    <comp name="--.HHE">
      <acc value="0.0000000000" flag="0"/>
      <vel value="-100.0000000000" flag="0"/>
      <psa03 value="0.0000000000" flag="0"/>
      <psa10 value="0.0000000000" flag="0"/>
      <psa30 value="0.0000000000" flag="0"/>
    </comp>
    <comp name="--.HHZ">
      <acc value="0.0797721065" flag="0"/>
      <vel value="0.0478691727" flag="0"/>
      <psa03 value="0.2400912286" flag="0"/>
      <psa10 value="0.0510659262" flag="0"/>
      <psa30 value="0.0098300787" flag="0"/>
    </comp>
  </station>
  <station code="PFKS" name="PFKS" netid="HC" insttype="120" lat="35.0429" lon="25.4733">
    <comp name="--.HHE">
      <acc value="0.0764846054" flag="0"/>
      <vel value="0.0342117891" flag="0"/>
      <psa03 value="0.1412075416" flag="0"/>
      <psa10 value="0.0700447981" flag="0"/>
      <psa30 value="0.0063568928" flag="0"/>
    </comp>
    <comp name="--.HHN">
      <acc value="0.0932884423" flag="0"/>
      <vel value="0.0426530025" flag="0"/>
      <psa03 value="0.1958219663" flag="0"/>
      <psa10 value="0.0508127420" flag="0"/>
      <psa30 value="0.0067815527" flag="0"/>
    </comp>
    <comp name="--.HHZ">
      <acc value="0.0429201863" flag="0"/>
      <vel value="0.0195261359" flag="0"/>
      <psa03 value="0.0648418379" flag="0"/>
      <psa10 value="0.0321583390" flag="0"/>
      <psa30 value="0.0031246908" flag="0"/>
    </comp>
  </station>
  <station code="STIA" name="STIA" netid="HC" insttype="120" lat="35.2021" lon="26.0909">
    <comp name="--.HHE">
      <acc value="0.0540857708" flag="0"/>
      <vel value="0.0353793836" flag="0"/>
      <psa03 value="0.1318244040" flag="0"/>
      <psa10 value="0.0390647363" flag="0"/>
      <psa30 value="0.0111285003" flag="0"/>
    </comp>
    <comp name="--.HHN">
      <acc value="0.0000000000" flag="0"/>
      <vel value="-100.0000000000" flag="0"/>
      <psa03 value="0.0000000000" flag="0"/>
      <psa10 value="0.0000000000" flag="0"/>
      <psa30 value="0.0000000000" flag="0"/>
    </comp>
    <comp name="--.HHZ">
      <acc value="0.0402459583" flag="0"/>
      <vel value="0.0244375581" flag="0"/>
      <psa03 value="0.1169643518" flag="0"/>
      <psa10 value="0.0178603354" flag="0"/>
      <psa30 value="0.0074136733" flag="0"/>
    </comp>
  </station>
  <station code="ARK1" name="ARK1" netid="HI" insttype="unknown" lat="35.1488" lon="25.2642">
    <comp name="--.HNZ">
      <acc value="0.0835228096" flag="0"/>
      <vel value="0.0717222599" flag="0"/>
      <psa03 value="0.1326892053" flag="0"/>
      <psa10 value="0.1551308458" flag="0"/>
      <psa30 value="0.0118994273" flag="0"/>
    </comp>
    <comp name="--.HNN">
      <acc value="0.1280258955" flag="0"/>
      <vel value="0.0739709147" flag="0"/>
      <psa03 value="0.2453869856" flag="0"/>
      <psa10 value="0.1471214150" flag="0"/>
      <psa30 value="0.0130699914" flag="0"/>
    </comp>
    <comp name="--.HNE">
      <acc value="0.1056008641" flag="0"/>
      <vel value="0.1500348089" flag="0"/>
      <psa03 value="0.2440741370" flag="0"/>
      <psa10 value="0.1730163750" flag="0"/>
      <psa30 value="0.0272868897" flag="0"/>
    </comp>
  </station>
  <station code="HER1" name="HER1" netid="HI" insttype="unknown" lat="35.3177" lon="25.1022">
    <comp name="--.HNE">
      <acc value="0.1551206437" flag="0"/>
      <vel value="0.2342461378" flag="0"/>
      <psa03 value="0.4072156491" flag="0"/>
      <psa10 value="0.4783133806" flag="0"/>
      <psa30 value="0.0309414689" flag="0"/>
    </comp>
    <comp name="--.HNZ">
      <acc value="0.1195901567" flag="0"/>
      <vel value="0.1065319191" flag="0"/>
      <psa03 value="0.2447821156" flag="0"/>
      <psa10 value="0.1830143660" flag="0"/>
      <psa30 value="0.0100060106" flag="0"/>
    </comp>
  </station>
  <station code="HER3" name="HER3" netid="HI" insttype="unknown" lat="35.3296" lon="25.1065">
    <comp name="--.HNE">
      <acc value="0.2599491905" flag="0"/>
      <vel value="0.1920980727" flag="0"/>
      <psa03 value="0.5546354355" flag="0"/>
      <psa10 value="0.5290742635" flag="0"/>
      <psa30 value="0.0296964256" flag="0"/>
    </comp>
    <comp name="--.HNZ">
      <acc value="0.1634609390" flag="0"/>
      <vel value="0.0855860692" flag="0"/>
      <psa03 value="0.2931466304" flag="0"/>
      <psa10 value="0.2320809445" flag="0"/>
      <psa30 value="0.0071020181" flag="0"/>
    </comp>
    <comp name="--.HNN">
      <acc value="0.2457140802" flag="0"/>
      <vel value="0.1848436698" flag="0"/>
      <psa03 value="0.6789740104" flag="0"/>
      <psa10 value="0.3361520709" flag="0"/>
      <psa30 value="0.0180443092" flag="0"/>
    </comp>
  </station>
  <station code="KTL1" name="KTL1" netid="HI" insttype="unknown" lat="35.2078" lon="25.3427">
    <comp name="--.HNE">
      <acc value="0.0873016283" flag="0"/>
      <vel value="0.0670562484" flag="0"/>
      <psa03 value="0.2827508727" flag="0"/>
      <psa10 value="0.0773362444" flag="0"/>
      <psa30 value="0.0166548305" flag="0"/>
    </comp>
    <comp name="--.HNN">
      <acc value="0.1073569037" flag="0"/>
      <vel value="0.0858694280" flag="0"/>
      <psa03 value="0.4146049873" flag="0"/>
      <psa10 value="0.1538174086" flag="0"/>
      <psa30 value="0.0090066635" flag="0"/>
    </comp>
    <comp name="--.HNZ">
      <acc value="0.0425327263" flag="0"/>
      <vel value="0.0327802040" flag="0"/>
      <psa03 value="0.0882181848" flag="0"/>
      <psa10 value="0.0570639681" flag="0"/>
      <psa30 value="0.0055766138" flag="0"/>
    </comp>
  </station>
  <station code="NAX1" name="NAX1" netid="HI" insttype="CMG-5TD,ACCELEROMETER,GURALP" lat="37.1014" lon="25.3741">
    <comp name="--.HNE">
      <acc value="0.3114517831" flag="0"/>
      <vel value="0.1296309913" flag="0"/>
      <psa03 value="0.6551694556" flag="0"/>
      <psa10 value="0.0513184793" flag="0"/>
      <psa30 value="0.0113429448" flag="0"/>
    </comp>
    <comp name="--.HNZ">
      <acc value="0.2657197190" flag="0"/>
      <vel value="0.0676994719" flag="0"/>
      <psa03 value="0.3049343224" flag="0"/>
      <psa10 value="0.0615261096" flag="0"/>
      <psa30 value="0.0168900553" flag="0"/>
    </comp>
    <comp name="--.HNN">
      <acc value="0.3452443312" flag="0"/>
      <vel value="0.0896761318" flag="0"/>
      <psa03 value="0.2725560119" flag="0"/>
      <psa10 value="0.0381174479" flag="0"/>
      <psa30 value="0.0145174048" flag="0"/>
    </comp>
  </station>
  <station code="SFR2" name="SFR2" netid="HI" insttype="unknown" lat="36.3998" lon="25.4382">
    <comp name="--.HNE">
      <acc value="2.5534404518" flag="0"/>
      <vel value="1.5286522967" flag="0"/>
      <psa03 value="3.8283582078" flag="0"/>
      <psa10 value="1.0310079653" flag="0"/>
      <psa30 value="0.1379545743" flag="0"/>
    </comp>
    <comp name="--.HNN">
      <acc value="2.9598414095" flag="0"/>
      <vel value="1.6802072628" flag="0"/>
      <psa03 value="4.3892150143" flag="0"/>
      <psa10 value="1.8409144788" flag="0"/>
      <psa30 value="0.0890168021" flag="0"/>
    </comp>
    <comp name="--.HNZ">
      <acc value="1.4331760646" flag="0"/>
      <vel value="0.7170501963" flag="0"/>
      <psa03 value="3.0753058956" flag="0"/>
      <psa10 value="0.6813315060" flag="0"/>
      <psa30 value="0.0609962610" flag="0"/>
    </comp>
  </station>
  <station code="AMGA" name="AMGA" netid="HL" insttype="SMART24" lat="36.8316" lon="25.8938">
    <comp name="--.HHE">
      <acc value="0.9085511788" flag="0"/>
      <vel value="0.2443175450" flag="0"/>
      <psa03 value="0.5753114865" flag="0"/>
      <psa10 value="0.1715227090" flag="0"/>
      <psa30 value="0.0348809949" flag="0"/>
    </comp>
    <comp name="--.HHZ">
      <acc value="0.8532389692" flag="0"/>
      <vel value="0.1956696672" flag="0"/>
      <psa03 value="0.7817190068" flag="0"/>
      <psa10 value="0.1301807237" flag="0"/>
      <psa30 value="0.0218158538" flag="0"/>
    </comp>
    <comp name="--.HHN">
      <acc value="1.0610940668" flag="0"/>
      <vel value="0.2263167804" flag="0"/>
      <psa03 value="0.8782776829" flag="0"/>
      <psa10 value="0.1345672629" flag="0"/>
      <psa30 value="0.0252021631" flag="0"/>
    </comp>
  </station>
  <station code="APE" name="APE" netid="HL" insttype="120" lat="37.0727" lon="25.523">
    <comp name="--.HHE">
      <acc value="0.4496455313" flag="0"/>
      <vel value="0.0991588496" flag="0"/>
      <psa03 value="0.3469931619" flag="0"/>
      <psa10 value="0.0425581613" flag="0"/>
      <psa30 value="0.0180601257" flag="0"/>
    </comp>
    <comp name="--.HHN">
      <acc value="0.4448921017" flag="0"/>
      <vel value="0.0778299396" flag="0"/>
      <psa03 value="0.2264925600" flag="0"/>
      <psa10 value="0.0326230007" flag="0"/>
      <psa30 value="0.0229780202" flag="0"/>
    </comp>
    <comp name="--.HHZ">
      <acc value="0.1503265698" flag="0"/>
      <vel value="0.0662965070" flag="0"/>
      <psa03 value="0.1742078340" flag="0"/>
      <psa10 value="0.0613979635" flag="0"/>
      <psa30 value="0.0169978540" flag="0"/>
    </comp>
  </station>
  <station code="ASTA" name="ASTA" netid="HL" insttype="CMG-5" lat="36.5455" lon="26.3529">
    <comp name="00.HNE">
      <acc value="0.1263368439" flag="0"/>
      <vel value="0.0615811874" flag="0"/>
      <psa03 value="0.1725086765" flag="0"/>
      <psa10 value="0.0828037835" flag="0"/>
      <psa30 value="0.0060355017" flag="0"/>
    </comp>
    <comp name="00.HNN">
      <acc value="0.1036373044" flag="0"/>
      <vel value="0.0419809004" flag="0"/>
      <psa03 value="0.2330519429" flag="0"/>
      <psa10 value="0.0494153367" flag="0"/>
      <psa30 value="0.0163160386" flag="0"/>
    </comp>
    <comp name="00.HNZ">
      <acc value="0.1339150641" flag="0"/>
      <vel value="0.0574370149" flag="0"/>
      <psa03 value="0.2070392915" flag="0"/>
      <psa10 value="0.0526697549" flag="0"/>
      <psa30 value="0.0141586838" flag="0"/>
    </comp>
  </station>
  <station code="HERG" name="HERG" netid="HL" insttype="CMG-5" lat="35.3262" lon="25.0659">
    <comp name="00.HNN">
      <acc value="0.1367383194" flag="0"/>
      <vel value="0.1754478933" flag="0"/>
      <psa03 value="0.3938676875" flag="0"/>
      <psa10 value="0.2309392833" flag="0"/>
      <psa30 value="0.0397461817" flag="0"/>
    </comp>
    <comp name="00.HNZ">
      <acc value="0.0973469018" flag="0"/>
      <vel value="0.0845052173" flag="0"/>
      <psa03 value="0.2037999059" flag="0"/>
      <psa10 value="0.1296420643" flag="0"/>
      <psa30 value="0.0073972677" flag="0"/>
    </comp>
    <comp name="00.HNE">
      <acc value="0.1495280584" flag="0"/>
      <vel value="0.2170044424" flag="0"/>
      <psa03 value="0.4040213758" flag="0"/>
      <psa10 value="0.2939888906" flag="0"/>
      <psa30 value="0.0329679424" flag="0"/>
    </comp>
  </station>
  <station code="IACM" name="IACM" netid="HL" insttype="120" lat="35.3058" lon="25.0709">
    <comp name="--.HHE">
      <acc value="0.2414681292" flag="0"/>
      <vel value="0.2256330000" flag="0"/>
      <psa03 value="0.7611564158" flag="0"/>
      <psa10 value="0.3284609621" flag="0"/>
      <psa30 value="0.0318220519" flag="0"/>
    </comp>
    <comp name="--.HHN">
      <acc value="0.2686339434" flag="0"/>
      <vel value="0.1822721367" flag="0"/>
      <psa03 value="0.8898829623" flag="0"/>
      <psa10 value="0.4194604053" flag="0"/>
      <psa30 value="0.0181919876" flag="0"/>
    </comp>
    <comp name="--.HHZ">
      <acc value="0.1829380171" flag="0"/>
      <vel value="0.1078868084" flag="0"/>
      <psa03 value="0.3010985431" flag="0"/>
      <psa10 value="0.1339839593" flag="0"/>
      <psa30 value="0.0098613893" flag="0"/>
    </comp>
  </station>
  <station code="IDI" name="IDI" netid="HL" insttype="120" lat="35.288" lon="24.89">
    <comp name="--.HHE">
      <acc value="0.0580494620" flag="0"/>
      <vel value="0.0362682983" flag="0"/>
      <psa03 value="0.1721365850" flag="0"/>
      <psa10 value="0.0438224541" flag="0"/>
      <psa30 value="0.0079743021" flag="0"/>
    </comp>
    <comp name="--.HHZ">
      <acc value="0.0466156274" flag="0"/>
      <vel value="0.0335221373" flag="0"/>
      <psa03 value="0.0824025070" flag="0"/>
      <psa10 value="0.0613468951" flag="0"/>
      <psa30 value="0.0049960131" flag="0"/>
    </comp>
    <comp name="--.HHN">
      <acc value="0.0486627277" flag="0"/>
      <vel value="0.0259111006" flag="0"/>
      <psa03 value="0.1155825671" flag="0"/>
      <psa10 value="0.0436311628" flag="0"/>
      <psa30 value="0.0045254844" flag="0"/>
    </comp>
  </station>
  <station code="KLNA" name="KLNA" netid="HL" insttype="CMG-5" lat="36.9571" lon="26.9727">
    <comp name="00.HNE">
      <acc value="0.0898592871" flag="0"/>
      <vel value="0.0317316156" flag="0"/>
      <psa03 value="0.1621021422" flag="0"/>
      <psa10 value="0.0225288962" flag="0"/>
      <psa30 value="0.0044736493" flag="0"/>
    </comp>
    <comp name="00.HNN">
      <acc value="0.0633586775" flag="0"/>
      <vel value="0.0249220692" flag="0"/>
      <psa03 value="0.1289224344" flag="0"/>
      <psa10 value="0.0244413189" flag="0"/>
      <psa30 value="0.0050785599" flag="0"/>
    </comp>
    <comp name="00.HNZ">
      <acc value="0.0643696282" flag="0"/>
      <vel value="0.0212746020" flag="0"/>
