<?xml version="1.0" encoding="UTF-8" standalone="yes"?>
<!DOCTYPE earthquake SYSTEM "stationlist.dtd">
<stationlist created="" xmlns="ch.ethz.sed.shakemap.usgs.xml">
  <station code="BZK" name="BZK" netid="KO" insttype="CMG-3T" lat="41.96" lon="34.0035">
    <comp name="--.HHZ">
      <acc value="0.0511077218" flag="0"/>
      <vel value="0.0327091136" flag="0"/>
      <psa03 value="0.1240297661" flag="0"/>
      <psa10 value="0.0518711740" flag="0"/>
      <psa30 value="0.0028487157" flag="0"/>
    </comp>
    <comp name="--.HHN">
      <acc value="0.0497371209" flag="0"/>
      <vel value="0.0354914781" flag="0"/>
      <psa03 value="0.1271291613" flag="0"/>
      <psa10 value="0.0517983357" flag="0"/>
      <psa30 value="0.0027706642" flag="0"/>
    </comp>
    <comp name="--.HHE">
      <acc value="0.0548959118" flag="0"/>
      <vel value="0.0431469876" flag="0"/>
      <psa03 value="0.1178011274" flag="0"/>
      <psa10 value="0.0610630968" flag="0"/>
      <psa30 value="0.0042359147" flag="0"/>
    </comp>
  </station>
  <station code="CANT" name="CANT" netid="KO" insttype="CMG-3ESP" lat="40.6062" lon="33.6193">
    <comp name="--.HHZ">
      <acc value="0.0507434210" flag="0"/>
      <vel value="0.0260460681" flag="0"/>
      <psa03 value="0.0812264520" flag="0"/>
      <psa10 value="0.0427168890" flag="0"/>
      <psa30 value="0.0095645943" flag="0"/>
    </comp>
    <comp name="--.HHE">
      <acc value="0.1268649818" flag="0"/>
      <vel value="0.0640505203" flag="0"/>
      <psa03 value="0.1758395580" flag="0"/>
      <psa10 value="0.0693328289" flag="0"/>
      <psa30 value="0.0072769841" flag="0"/>
    </comp>
    <comp name="--.HHN">
      <acc value="0.1006920007" flag="0"/>
      <vel value="0.0530465486" flag="0"/>
      <psa03 value="0.1229951083" flag="0"/>
      <psa10 value="0.0484147561" flag="0"/>
      <psa30 value="0.0066160778" flag="0"/>
    </comp>
  </station>
  <station code="CORM" name="CORM" netid="KO" insttype="CMG-3ESP" lat="40.1785" lon="34.6302">
    <comp name="--.HHZ">
      <acc value="0.0275065584" flag="0"/>
      <vel value="0.0131993326" flag="0"/>
      <psa03 value="0.0714598500" flag="0"/>
      <psa10 value="0.0153960700" flag="0"/>
      <psa30 value="0.0019247223" flag="0"/>
    </comp>
    <comp name="--.HHE">
      <acc value="0.0291764955" flag="0"/>
      <vel value="0.0233279215" flag="0"/>
      <psa03 value="0.0720960704" flag="0"/>
      <psa10 value="0.0202069843" flag="0"/>
      <psa30 value="0.0023358725" flag="0"/>
    </comp>
    <comp name="--.HHN">
      <acc value="0.0323364731" flag="0"/>
      <vel value="0.0261364083" flag="0"/>
      <psa03 value="0.0990335170" flag="0"/>
      <psa10 value="0.0324155629" flag="0"/>
      <psa30 value="0.0032784120" flag="0"/>
    </comp>
  </station>
  <station code="DIKM" name="DIKM" netid="KO" insttype="CMG-3T" lat="41.6497" lon="35.2578">
    <comp name="--.HHE">
      <acc value="0.0315928536" flag="0"/>
      <vel value="0.0178186220" flag="0"/>
      <psa03 value="0.1313361471" flag="0"/>
      <psa10 value="0.0139067905" flag="0"/>
      <psa30 value="0.0014871943" flag="0"/>
    </comp>
    <comp name="--.HHN">
      <acc value="0.0276037358" flag="0"/>
      <vel value="0.0152814853" flag="0"/>
      <psa03 value="0.1043377170" flag="0"/>
      <psa10 value="0.0272216580" flag="0"/>
      <psa30 value="0.0012069511" flag="0"/>
    </comp>
    <comp name="--.HHZ">
      <acc value="0.0155339306" flag="0"/>
      <vel value="0.0171939105" flag="0"/>
      <psa03 value="0.0397835016" flag="0"/>
      <psa10 value="0.0332992706" flag="0"/>
      <psa30 value="0.0024905058" flag="0"/>
    </comp>
  </station>
  <station code="KMON" name="KMON" netid="KO" insttype="CMG-5T" lat="41.3738" lon="33.7839">
    <comp name="--.HNE">
      <acc value="0.1887823411" flag="0"/>
      <vel value="0.1402240626" flag="0"/>
      <psa03 value="0.2202529464" flag="0"/>
      <psa10 value="0.1676978006" flag="0"/>
      <psa30 value="0.0099032495" flag="0"/>
    </comp>
    <comp name="--.HNZ">
      <acc value="0.1212149182" flag="0"/>
      <vel value="0.0692287112" flag="0"/>
      <psa03 value="0.1958282009" flag="0"/>
      <psa10 value="0.0891897776" flag="0"/>
      <psa30 value="0.0138100036" flag="0"/>
    </comp>
    <comp name="--.HNN">
      <acc value="0.2038803580" flag="0"/>
      <vel value="0.1428623868" flag="0"/>
      <psa03 value="0.3098217959" flag="0"/>
      <psa10 value="0.3150988746" flag="0"/>
      <psa30 value="0.0159764204" flag="0"/>
    </comp>
  </station>
  <station code="KURC" name="KURC" netid="KO" insttype="CMG-3T" lat="41.8456" lon="32.743">
    <comp name="--.HHE">
      <acc value="0.0000090496" flag="0"/>
      <vel value="0.0000009579" flag="0"/>
      <psa03 value="0.0000034057" flag="0"/>
      <psa10 value="0.0000006020" flag="0"/>
      <psa30 value="0.0000001338" flag="0"/>
    </comp>
    <comp name="--.HHN">
      <acc value="0.0750562747" flag="0"/>
      <vel value="0.0395844408" flag="0"/>
      <psa03 value="0.2446691473" flag="0"/>
      <psa10 value="0.0470608731" flag="0"/>
      <psa30 value="0.0020490701" flag="0"/>
    </comp>
    <comp name="--.HHZ">
      <acc value="0.0475113405" flag="0"/>
      <vel value="0.0229237841" flag="0"/>
      <psa03 value="0.1046685323" flag="0"/>
      <psa10 value="0.0320984583" flag="0"/>
      <psa30 value="0.0035885332" flag="0"/>
    </comp>
  </station>
  <station code="TOS" name="TOS" netid="KO" insttype="CMG-5T" lat="41.0362" lon="34.0226">
    <comp name="--.HNE">
      <acc value="1.2609008864" flag="0"/>
      <vel value="0.4752754328" flag="0"/>
      <psa03 value="1.5746655820" flag="0"/>
      <psa10 value="0.2056574853" flag="0"/>
      <psa30 value="0.0168151364" flag="0"/>
    </comp>
    <comp name="--.HNN">
      <acc value="0.9278369048" flag="0"/>
      <vel value="0.4232491507" flag="0"/>
      <psa03 value="2.5222627722" flag="0"/>
      <psa10 value="0.1360508265" flag="0"/>
      <psa30 value="0.0182350927" flag="0"/>
    </comp>
    <comp name="--.HNZ">
      <acc value="0.6442659093" flag="0"/>
      <vel value="0.2256341027" flag="0"/>
      <psa03 value="1.1039648457" flag="0"/>
      <psa10 value="0.1508519145" flag="0"/>
      <psa30 value="0.0166267732" flag="0"/>
    </comp>
  </station>
</stationlist>
