<?xml version="1.0" encoding="UTF-8" standalone="yes"?>
<!DOCTYPE earthquake SYSTEM "stationlist.dtd">
<stationlist created="" xmlns="ch.ethz.sed.shakemap.usgs.xml">
  <station code="KEK" name="KEK" netid="MN" insttype="" lat="39.7127" lon="19.7962">
    <comp name="--.HHN">
      <acc value="0.0133771636" flag="0"/>
      <vel value="0.0118358604" flag="0"/>
      <psa03 value="0.0356725589" flag="0"/>
      <psa10 value="0.0118491544" flag="0"/>
      <psa30 value="0.0015538995" flag="0"/>
    </comp>
    <comp name="--.HHE">
      <acc value="0.0130051863" flag="0"/>
      <vel value="0.0075500370" flag="0"/>
      <psa03 value="0.0443296950" flag="0"/>
      <psa10 value="0.0077081924" flag="0"/>
      <psa30 value="0.0014646077" flag="0"/>
    </comp>
  </station>
</stationlist>
