<?xml version="1.0" encoding="UTF-8" standalone="yes"?>
<!DOCTYPE earthquake SYSTEM "stationlist.dtd">
<stationlist created="" xmlns="ch.ethz.sed.shakemap.usgs.xml">
  <station code="MSL1" name="MSL1" netid="HI" source="NOA" insttype="CMG-5TD,ACCELEROMETER,GURALP" lat="38.3727" lon="21.4243">
    <comp name="--.HNE">
      <acc value="0.0244208316" flag="0"/>
      <vel value="0.0291256738" flag="0"/>
      <psa03 value="0.0548268598" flag="0"/>
      <psa10 value="0.0401960838" flag="0"/>
      <psa30 value="0.0022482877" flag="0"/>
    </comp>
    <comp name="--.HNN">
      <acc value="0.0184372399" flag="0"/>
      <vel value="0.0194600504" flag="0"/>
      <psa03 value="0.0539271258" flag="0"/>
      <psa10 value="0.0316563920" flag="0"/>
      <psa30 value="0.0018205971" flag="0"/>
    </comp>
    <comp name="--.HNZ">
      <acc value="0.0094259532" flag="0"/>
      <vel value="0.0077200794" flag="0"/>
      <psa03 value="0.0208278266" flag="0"/>
      <psa10 value="0.0196690458" flag="0"/>
      <psa30 value="0.0008738453" flag="0"/>
    </comp>
  </station>
  <station code="ITM" name="ITM" netid="HL" source="NOA" insttype="DR24" lat="37.1787" lon="21.9252">
    <comp name="--.HHE">
      <acc value="0.0095321151" flag="0"/>
      <vel value="0.0050492398" flag="0"/>
      <psa03 value="0.0246445568" flag="0"/>
      <psa10 value="0.0070407058" flag="0"/>
      <psa30 value="0.0009278231" flag="0"/>
    </comp>
    <comp name="--.HHN">
      <acc value="0.0124769629" flag="0"/>
      <vel value="0.0092545896" flag="0"/>
      <psa03 value="0.0420196838" flag="0"/>
      <psa10 value="0.0073109319" flag="0"/>
      <psa30 value="0.0007787796" flag="0"/>
    </comp>
    <comp name="--.HHZ">
      <acc value="0.0103596602" flag="0"/>
      <vel value="0.0060318583" flag="0"/>
      <psa03 value="0.0242798336" flag="0"/>
      <psa10 value="0.0058621104" flag="0"/>
      <psa30 value="0.0005754982" flag="0"/>
    </comp>
  </station>
  <station code="AMT" name="AMT" netid="HP" source="NOA" insttype="CMG-3T," lat="37.5324" lon="21.7089">
    <comp name="00.HHE">
      <acc value="0.0244796519" flag="0"/>
      <vel value="0.0181882567" flag="0"/>
      <psa03 value="0.0767322392" flag="0"/>
      <psa10 value="0.0329326004" flag="0"/>
      <psa30 value="0.0016623730" flag="0"/>
    </comp>
    <comp name="00.HHN">
      <acc value="0.0269374381" flag="0"/>
      <vel value="0.0189916504" flag="0"/>
      <psa03 value="0.0894928168" flag="0"/>
      <psa10 value="0.0197407953" flag="0"/>
      <psa30 value="0.0009973105" flag="0"/>
    </comp>
    <comp name="00.HHZ">
      <acc value="0.0208329576" flag="0"/>
      <vel value="0.0117537199" flag="0"/>
      <psa03 value="0.0773366534" flag="0"/>
      <psa10 value="0.0112109925" flag="0"/>
      <psa30 value="0.0012348418" flag="0"/>
    </comp>
  </station>
  <station code="FSK" name="FSK" netid="HP" source="NOA" insttype="40," lat="38.4593" lon="20.5623">
    <comp name="--.HHE">
      <acc value="0.0320904383" flag="0"/>
      <vel value="0.0239530227" flag="0"/>
      <psa03 value="0.0360216604" flag="0"/>
      <psa10 value="0.0279167054" flag="0"/>
      <psa30 value="0.0022406987" flag="0"/>
    </comp>
    <comp name="--.HHN">
      <acc value="0.0126727489" flag="0"/>
      <vel value="0.0131393137" flag="0"/>
      <psa03 value="0.0189002921" flag="0"/>
      <psa10 value="0.0119898221" flag="0"/>
      <psa30 value="0.0012503007" flag="0"/>
    </comp>
    <comp name="--.HHZ">
      <acc value="0.0141965002" flag="0"/>
      <vel value="0.0067787585" flag="0"/>
      <psa03 value="0.0213131089" flag="0"/>
      <psa10 value="0.0091024594" flag="0"/>
      <psa30 value="0.0004252559" flag="0"/>
    </comp>
  </station>
  <station code="LTHK" name="LTHK" netid="HP" source="NOA" insttype="40," lat="37.7095" lon="20.8367">
    <comp name="--.HHE">
      <acc value="0.3053357581" flag="0"/>
      <vel value="0.0606341570" flag="0"/>
      <psa03 value="0.2462221840" flag="0"/>
      <psa10 value="0.0421878382" flag="0"/>
      <psa30 value="0.0033543501" flag="0"/>
    </comp>
    <comp name="--.HHN">
      <acc value="0.2515510927" flag="0"/>
      <vel value="0.0599321353" flag="0"/>
      <psa03 value="0.3704970810" flag="0"/>
      <psa10 value="0.0304231279" flag="0"/>
      <psa30 value="0.0044294713" flag="0"/>
    </comp>
    <comp name="--.HHZ">
      <acc value="0.1334732408" flag="0"/>
      <vel value="0.0344598470" flag="0"/>
      <psa03 value="0.1594415659" flag="0"/>
      <psa10 value="0.0180233112" flag="0"/>
      <psa30 value="0.0020861816" flag="0"/>
    </comp>
  </station>
  <station code="DMLN" name="DMLN" netid="HT" source="NOA" insttype="1s-100Hz," lat="38.2385" lon="20.3734">
    <comp name="--.HHE">
      <acc value="0.0475630373" flag="0"/>
      <vel value="0.0237549017" flag="0"/>
      <psa03 value="0.0909731992" flag="0"/>
      <psa10 value="0.0385170641" flag="0"/>
      <psa30 value="0.0015759612" flag="0"/>
    </comp>
    <comp name="--.HHN">
      <acc value="0.0915682275" flag="0"/>
      <vel value="0.0221294431" flag="0"/>
      <psa03 value="0.0974382524" flag="0"/>
      <psa10 value="0.0324962884" flag="0"/>
      <psa30 value="0.0015798190" flag="0"/>
    </comp>
    <comp name="--.HHZ">
      <acc value="0.0400086996" flag="0"/>
      <vel value="0.0136339247" flag="0"/>
      <psa03 value="0.0614916410" flag="0"/>
      <psa10 value="0.0093518578" flag="0"/>
      <psa30 value="0.0007589371" flag="0"/>
    </comp>
  </station>
  <station code="EVGI" name="EVGI" netid="HT" source="NOA" insttype="30" lat="38.621" lon="20.656">
    <comp name="--.HHE">
      <acc value="0.0187460421" flag="0"/>
      <vel value="0.0054881613" flag="0"/>
      <psa03 value="0.0269168820" flag="0"/>
      <psa10 value="0.0062662623" flag="0"/>
      <psa30 value="0.0008370398" flag="0"/>
    </comp>
    <comp name="--.HHN">
      <acc value="nan" flag="0"/>
      <vel value="-100.0000000000" flag="0"/>
      <psa03 value="0.0000000000" flag="0"/>
      <psa10 value="0.0000000000" flag="0"/>
      <psa30 value="0.0000000000" flag="0"/>
    </comp>
    <comp name="--.HHZ">
      <acc value="0.0124775402" flag="0"/>
      <vel value="0.0040261958" flag="0"/>
      <psa03 value="0.0211056169" flag="0"/>
      <psa10 value="0.0044058342" flag="0"/>
      <psa30 value="0.0003300473" flag="0"/>
    </comp>
  </station>
  <station code="PSDA" name="PSDA" netid="HT" source="NOA" insttype="30" lat="38.114" lon="20.5841">
    <comp name="--.HHE">
      <acc value="0.0898779652" flag="0"/>
      <vel value="0.0277560895" flag="0"/>
      <psa03 value="0.1542697312" flag="0"/>
      <psa10 value="0.0196703745" flag="0"/>
      <psa30 value="0.0014721995" flag="0"/>
    </comp>
    <comp name="--.HHN">
      <acc value="0.1160883297" flag="0"/>
      <vel value="0.0256128147" flag="0"/>
      <psa03 value="0.0973479822" flag="0"/>
      <psa10 value="0.0150972858" flag="0"/>
      <psa30 value="0.0008014877" flag="0"/>
    </comp>
    <comp name="--.HHZ">
      <acc value="0.0639319147" flag="0"/>
      <vel value="0.0158178467" flag="0"/>
      <psa03 value="0.0615143382" flag="0"/>
      <psa10 value="0.0065978090" flag="0"/>
      <psa30 value="0.0006109953" flag="0"/>
    </comp>
  </station>
</stationlist>
