<stationlist xmlns:esm="https://esm-db.eu/esmws/shakemap/1/" created="1783994233">
	<station code="ROD3" name="ROD3" netid="CL" source="Corinth Riff Laboratory (CRLNET)" insttype="" lat="38.30811" lon="21.89204" esm:processing="manual (Paolucci et al 2011)" esm:quality="good">
		<comp name="00.HNE" depth="0.0">
			<acc value="0.0172627179626785" flag="0"/>
			<vel value="0.00778901237150901" flag="0"/>
			<psa03 value="0.0668895988943163" flag="0"/>
			<psa10 value="0.0085045986340011" flag="0"/>
			<psa30 value="0.000599545568684841" flag="0"/>
		</comp>
		<comp name="00.HNN" depth="0.0">
			<acc value="0.0150827296564676" flag="0"/>
			<vel value="0.00891165748464706" flag="0"/>
			<psa03 value="0.06420506649722" flag="0"/>
			<psa10 value="0.0081703743505626" flag="0"/>
			<psa30 value="0.000569120868184417" flag="0"/>
		</comp>
		<comp name="00.HNZ" depth="0.0">
			<acc value="0.0113928725712755" flag="0"/>
			<vel value="0.00677878807170025" flag="0"/>
			<psa03 value="0.0238028539209206" flag="0"/>
			<psa10 value="0.00472343475269095" flag="0"/>
			<psa30 value="0.00036062218534327" flag="0"/>
		</comp>
	</station>
	<station code="ARG2" name="ARG2" netid="HI" source="ITSAK Strong Motion Network" insttype="" lat="38.1783" lon="20.4878" esm:processing="manual (Paolucci et al 2011)" esm:quality="best">
		<comp name="--.HNE" depth="0.0">
			<acc value="0.0695573460194209" flag="0"/>
			<vel value="0.0288912272039547" flag="0"/>
			<psa03 value="0.153107831047726" flag="0"/>
			<psa10 value="0.01655819582529" flag="0"/>
			<psa30 value="0.00102146457709514" flag="0"/>
		</comp>
		<comp name="--.HNN" depth="0.0">
			<acc value="0.0457215916120289" flag="0"/>
			<vel value="0.0227307320927045" flag="0"/>
			<psa03 value="0.0826388556239479" flag="0"/>
			<psa10 value="0.0237097901311546" flag="0"/>
			<psa30 value="0.00107470780297089" flag="0"/>
		</comp>
		<comp name="--.HNZ" depth="0.0">
			<acc value="0.0549353835143156" flag="0"/>
			<vel value="0.0147887028117217" flag="0"/>
			<psa03 value="0.132168478350375" flag="0"/>
			<psa10 value="0.0119998598150205" flag="0"/>
			<psa30 value="0.000771355642099005" flag="0"/>
		</comp>
	</station>
	<station code="KLV1" name="KLV1" netid="HI" source="ITSAK Strong Motion Network" insttype="" lat="38.03256" lon="22.10797" esm:processing="manual (Paolucci et al 2011)" esm:quality="bad">
		<comp name="--.HNE" depth="0.0">
			<acc value="0.00866340171394247" flag="0"/>
			<vel value="0.00486023519715378" flag="0"/>
			<psa03 value="0.0289929498886401" flag="0"/>
			<psa10 value="0.00657173530809175" flag="0"/>
			<psa30 value="0.000459055039903468" flag="0"/>
		</comp>
		<comp name="--.HNN" depth="0.0">
			<acc value="0.00761860321292286" flag="0"/>
			<vel value="0.00583196536646278" flag="0"/>
			<psa03 value="0.0238923383341571" flag="0"/>
			<psa10 value="0.00800527560814118" flag="0"/>
			<psa30 value="0.00046755605916094" flag="0"/>
		</comp>
		<comp name="--.HNZ" depth="0.0">
			<acc value="0.00450213614802797" flag="0"/>
			<vel value="0.00303052901848404" flag="0"/>
			<psa03 value="0.00957483221631016" flag="0"/>
			<psa10 value="0.00613684105976215" flag="0"/>
			<psa30 value="0.000424156118741216" flag="0"/>
		</comp>
	</station>
	<station code="MSL1" name="MSL1" netid="HI" source="ITSAK Strong Motion Network" insttype="" lat="38.3727" lon="21.4243" esm:processing="manual (Paolucci et al 2011)" esm:quality="good">
		<comp name="--.HNE" depth="0.0">
			<acc value="0.0243618142961238" flag="0"/>
			<vel value="0.0293866790773644" flag="0"/>
			<psa03 value="0.0549434297272377" flag="0"/>
			<psa10 value="0.0402236911718925" flag="0"/>
			<psa30 value="0.00236194108737857" flag="0"/>
		</comp>
		<comp name="--.HNN" depth="0.0">
			<acc value="0.0184475548016311" flag="0"/>
			<vel value="0.0195373254613315" flag="0"/>
			<psa03 value="0.0536459057353078" flag="0"/>
			<psa10 value="0.0317150657392957" flag="0"/>
			<psa30 value="0.00178208208960576" flag="0"/>
		</comp>
		<comp name="--.HNZ" depth="0.0">
			<acc value="0.00942566718684153" flag="0"/>
			<vel value="0.00783546442606292" flag="0"/>
			<psa03 value="0.0206261572510233" flag="0"/>
			<psa10 value="0.0197031255284883" flag="0"/>
			<psa30 value="0.000903345151622907" flag="0"/>
		</comp>
	</station>
	<station code="PYL1" name="PYL1" netid="HI" source="ITSAK Strong Motion Network" insttype="" lat="36.914188" lon="21.695161" esm:processing="manual (Paolucci et al 2011)" esm:quality="best">
		<comp name="--.HNE" depth="0.0">
			<acc value="0.0246656631067256" flag="0"/>
			<vel value="0.0125579466026148" flag="0"/>
			<psa03 value="0.0676949586134452" flag="0"/>
			<psa10 value="0.00995021932983746" flag="0"/>
			<psa30 value="0.000714085617627617" flag="0"/>
		</comp>
		<comp name="--.HNN" depth="0.0">
			<acc value="0.0179282159533711" flag="0"/>
			<vel value="0.006756344258729" flag="0"/>
			<psa03 value="0.0569568290250599" flag="0"/>
			<psa10 value="0.00649925293337015" flag="0"/>
			<psa30 value="0.000613415652736506" flag="0"/>
		</comp>
		<comp name="--.HNZ" depth="0.0">
			<acc value="0.012059757591221" flag="0"/>
			<vel value="0.00394836050426307" flag="0"/>
			<psa03 value="0.0259057376319793" flag="0"/>
			<psa10 value="0.00391404823496641" flag="0"/>
			<psa30 value="0.000421024164277937" flag="0"/>
		</comp>
	</station>
	<station code="ITM" name="ITM" netid="HL" source="National Observatory of Athens Seismic Network" insttype="" lat="37.17872" lon="21.92522" esm:processing="manual (Paolucci et al 2011)" esm:quality="best">
		<comp name="--.HNE" depth="0.0">
			<acc value="0.00971661457341157" flag="0"/>
			<vel value="0.00506524644247703" flag="0"/>
			<psa03 value="0.024697698053286" flag="0"/>
			<psa10 value="0.00690595959153024" flag="0"/>
			<psa30 value="0.00095658837749865" flag="0"/>
		</comp>
		<comp name="--.HNN" depth="0.0">
			<acc value="0.0123022890671198" flag="0"/>
			<vel value="0.00896273905443372" flag="0"/>
			<psa03 value="0.0404022125762994" flag="0"/>
			<psa10 value="0.0071193799170994" flag="0"/>
			<psa30 value="0.00077225048623137" flag="0"/>
		</comp>
		<comp name="--.HNZ" depth="0.0">
			<acc value="0.00993447538110653" flag="0"/>
			<vel value="0.00555298301361914" flag="0"/>
			<psa03 value="0.0226395565488455" flag="0"/>
			<psa10 value="0.00544423170131131" flag="0"/>
			<psa30 value="0.000582990952236081" flag="0"/>
		</comp>
	</station>
	<station code="PATC" name="PATC" netid="HL" source="National Observatory of Athens Seismic Network" insttype="" lat="38.26933" lon="21.76001" esm:processing="manual (Paolucci et al 2011)" esm:quality="good">
		<comp name="00.HNE" depth="0.0">
			<acc value="0.0169785849057006" flag="0"/>
			<vel value="0.0121328187354364" flag="0"/>
			<psa03 value="0.0450554020645997" flag="0"/>
			<psa10 value="0.0266936478905271" flag="0"/>
			<psa30 value="0.0019753684221967" flag="0"/>
		</comp>
		<comp name="00.HNN" depth="0.0">
			<acc value="0.0183644002154958" flag="0"/>
			<vel value="0.0128042474540808" flag="0"/>
			<psa03 value="0.0559277582728397" flag="0"/>
			<psa10 value="0.0280506790172593" flag="0"/>
			<psa30 value="0.00135703112673218" flag="0"/>
		</comp>
		<comp name="00.HNZ" depth="0.0">
			<acc value="0.00883453137711845" flag="0"/>
			<vel value="0.00685422005933734" flag="0"/>
			<psa03 value="0.0288587232687853" flag="0"/>
			<psa10 value="0.014202518646838" flag="0"/>
			<psa30 value="0.000609388854140861" flag="0"/>
		</comp>
	</station>
	<station code="SMHA" name="SMHA" netid="HL" source="National Observatory of Athens Seismic Network" insttype="" lat="38.25123" lon="20.6477" esm:processing="manual (Paolucci et al 2011)" esm:quality="best">
		<comp name="00.HNE" depth="0.0">
			<acc value="0.071983957961552" flag="0"/>
			<vel value="0.0426047767268642" flag="0"/>
			<psa03 value="0.171194517879938" flag="0"/>
			<psa10 value="0.0434416515463601" flag="0"/>
			<psa30 value="0.00204831881606825" flag="0"/>
		</comp>
		<comp name="00.HNN" depth="0.0">
			<acc value="0.0593120015475917" flag="0"/>
			<vel value="0.0399519469953363" flag="0"/>
			<psa03 value="0.175336844372045" flag="0"/>
			<psa10 value="0.0307900759414162" flag="0"/>
			<psa30 value="0.00203446018966797" flag="0"/>
		</comp>
		<comp name="00.HNZ" depth="0.0">
			<acc value="0.0701060946381558" flag="0"/>
			<vel value="0.021008402044977" flag="0"/>
			<psa03 value="0.0633342528751763" flag="0"/>
			<psa10 value="0.0134786010161641" flag="0"/>
			<psa30 value="0.000805308556071108" flag="0"/>
		</comp>
	</station>
	<station code="ZARA" name="ZARA" netid="HL" source="National Observatory of Athens Seismic Network" insttype="" lat="37.4865" lon="21.6491" esm:processing="manual (Paolucci et al 2011)" esm:quality="best">
		<comp name="00.HNE" depth="0.0">
			<acc value="0.0415093701063341" flag="0"/>
			<vel value="0.0218794632723415" flag="0"/>
			<psa03 value="0.129359423593658" flag="0"/>
			<psa10 value="0.0218427594756099" flag="0"/>
			<psa30 value="0.00174298619344664" flag="0"/>
		</comp>
		<comp name="00.HNN" depth="0.0">
			<acc value="0.0511084972219016" flag="0"/>
			<vel value="0.0327886569760711" flag="0"/>
			<psa03 value="0.151094405096076" flag="0"/>
			<psa10 value="0.0211223236252811" flag="0"/>
			<psa30 value="0.00177982561304471" flag="0"/>
		</comp>
		<comp name="00.HNZ" depth="0.0">
			<acc value="0.0202375658623125" flag="0"/>
			<vel value="0.00991991315298631" flag="0"/>
			<psa03 value="0.0518937554150483" flag="0"/>
			<psa10 value="0.00969850904113705" flag="0"/>
			<psa30 value="0.00174035726929477" flag="0"/>
		</comp>
	</station>
	<station code="ANX" name="ANX" netid="HP" source="University of Patras, Seismological Laboratory (PSLNET)" insttype="" lat="38.5933" lon="21.9209" esm:processing="manual (Paolucci et al 2011)" esm:quality="good">
		<comp name="--.HNE" depth="0.0">
			<acc value="0.00935003353302753" flag="0"/>
			<vel value="0.00793826089047763" flag="0"/>
			<psa03 value="0.0249628437700551" flag="0"/>
			<psa10 value="0.00618767130910671" flag="0"/>
			<psa30 value="0.000567100848898053" flag="0"/>
		</comp>
		<comp name="--.HNN" depth="0.0">
			<acc value="0.00704902359355687" flag="0"/>
			<vel value="0.00658496556446839" flag="0"/>
			<psa03 value="0.0200282512525186" flag="0"/>
			<psa10 value="0.0141080577145848" flag="0"/>
			<psa30 value="0.000659331021194325" flag="0"/>
		</comp>
		<comp name="--.HNZ" depth="0.0">
			<acc value="0.00391172824422845" flag="0"/>
			<vel value="0.0032611539461057" flag="0"/>
			<psa03 value="0.0101945392704861" flag="0"/>
			<psa10 value="0.00509889590182941" flag="0"/>
			<psa30 value="0.00043087731954945" flag="0"/>
		</comp>
	</station>
	<station code="FSK" name="FSK" netid="HP" source="University of Patras, Seismological Laboratory (PSLNET)" insttype="" lat="38.4593" lon="20.5623" esm:processing="manual (Paolucci et al 2011)" esm:quality="good">
		<comp name="--.HNE" depth="0.0">
			<acc value="0.0336855110459988" flag="0"/>
			<vel value="0.0224569623696471" flag="0"/>
			<psa03 value="0.0326294271644127" flag="0"/>
			<psa10 value="0.0265754004898571" flag="0"/>
			<psa30 value="0.00228182303457743" flag="0"/>
		</comp>
		<comp name="--.HNN" depth="0.0">
			<acc value="0.0125662349832694" flag="0"/>
			<vel value="0.0133535766783443" flag="0"/>
			<psa03 value="0.0242771030305966" flag="0"/>
			<psa10 value="0.0163071846459513" flag="0"/>
			<psa30 value="0.0013180383552391" flag="0"/>
		</comp>
		<comp name="--.HNZ" depth="0.0">
			<acc value="0.0147834659403207" flag="0"/>
			<vel value="0.00703630589468047" flag="0"/>
			<psa03 value="0.0222328608387507" flag="0"/>
			<psa10 value="0.00926542941422632" flag="0"/>
			<psa30 value="0.000437377984561604" flag="0"/>
		</comp>
	</station>
	<station code="ARS1" name="ARS1" netid="HI" source="ITSAK Strong Motion Network" insttype="" lat="37.6349" lon="22.7293" esm:processing="discarded" esm:quality="bad">
		<comp name="--.HNE" depth="0.0">
			<acc value="0" flag="1"/>
			<vel value="0" flag="1"/>
			<psa03 value="0" flag="1"/>
			<psa10 value="0" flag="1"/>
			<psa30 value="0" flag="1"/>
		</comp>
		<comp name="--.HNN" depth="0.0">
			<acc value="0" flag="1"/>
			<vel value="0" flag="1"/>
			<psa03 value="0" flag="1"/>
			<psa10 value="0" flag="1"/>
			<psa30 value="0" flag="1"/>
		</comp>
		<comp name="--.HNZ" depth="0.0">
			<acc value="0" flag="1"/>
			<vel value="0" flag="1"/>
			<psa03 value="0" flag="1"/>
			<psa10 value="0" flag="1"/>
			<psa30 value="0" flag="1"/>
		</comp>
	</station>
	<station code="ART2" name="ART2" netid="HI" source="ITSAK Strong Motion Network" insttype="" lat="39.1474" lon="20.9937" esm:processing="discarded" esm:quality="bad">
		<comp name="--.HNE" depth="0.0">
			<acc value="0" flag="1"/>
			<vel value="0" flag="1"/>
			<psa03 value="0" flag="1"/>
			<psa10 value="0" flag="1"/>
			<psa30 value="0" flag="1"/>
		</comp>
		<comp name="--.HNN" depth="0.0">
			<acc value="0" flag="1"/>
			<vel value="0" flag="1"/>
			<psa03 value="0" flag="1"/>
			<psa10 value="0" flag="1"/>
			<psa30 value="0" flag="1"/>
		</comp>
		<comp name="--.HNZ" depth="0.0">
			<acc value="0" flag="1"/>
			<vel value="0" flag="1"/>
			<psa03 value="0" flag="1"/>
			<psa10 value="0" flag="1"/>
			<psa30 value="0" flag="1"/>
		</comp>
	</station>
	<station code="LAM2" name="LAM2" netid="HI" source="ITSAK Strong Motion Network" insttype="" lat="38.90203" lon="22.431301" esm:processing="discarded" esm:quality="bad">
		<comp name="--.HNE" depth="0.0">
			<acc value="0" flag="1"/>
			<vel value="0" flag="1"/>
			<psa03 value="0" flag="1"/>
			<psa10 value="0" flag="1"/>
			<psa30 value="0" flag="1"/>
		</comp>
		<comp name="--.HNN" depth="0.0">
			<acc value="0" flag="1"/>
			<vel value="0" flag="1"/>
			<psa03 value="0" flag="1"/>
			<psa10 value="0" flag="1"/>
			<psa30 value="0" flag="1"/>
		</comp>
		<comp name="--.HNZ" depth="0.0">
			<acc value="0" flag="1"/>
			<vel value="0" flag="1"/>
			<psa03 value="0" flag="1"/>
			<psa10 value="0" flag="1"/>
			<psa30 value="0" flag="1"/>
		</comp>
	</station>
	<station code="ARTB" name="ARTB" netid="HL" source="National Observatory of Athens Seismic Network" insttype="" lat="39.15702" lon="20.9785" esm:processing="discarded" esm:quality="bad">
		<comp name="00.HNE" depth="0.0">
			<acc value="0" flag="1"/>
			<vel value="0" flag="1"/>
			<psa03 value="0" flag="1"/>
			<psa10 value="0" flag="1"/>
			<psa30 value="0" flag="1"/>
		</comp>
		<comp name="00.HNN" depth="0.0">
			<acc value="0" flag="1"/>
			<vel value="0" flag="1"/>
			<psa03 value="0" flag="1"/>
			<psa10 value="0" flag="1"/>
			<psa30 value="0" flag="1"/>
		</comp>
		<comp name="00.HNZ" depth="0.0">
			<acc value="0" flag="1"/>
			<vel value="0" flag="1"/>
			<psa03 value="0" flag="1"/>
			<psa10 value="0" flag="1"/>
			<psa30 value="0" flag="1"/>
		</comp>
	</station>
	<station code="DLFA" name="DLFA" netid="HL" source="National Observatory of Athens Seismic Network" insttype="" lat="38.47836" lon="22.49583" esm:processing="discarded" esm:quality="bad">
		<comp name="00.HNE" depth="0.0">
			<acc value="0" flag="1"/>
			<vel value="0" flag="1"/>
			<psa03 value="0" flag="1"/>
			<psa10 value="0" flag="1"/>
			<psa30 value="0" flag="1"/>
		</comp>
		<comp name="00.HNN" depth="0.0">
			<acc value="0" flag="1"/>
			<vel value="0" flag="1"/>
			<psa03 value="0" flag="1"/>
			<psa10 value="0" flag="1"/>
			<psa30 value="0" flag="1"/>
		</comp>
		<comp name="00.HNZ" depth="0.0">
			<acc value="0" flag="1"/>
			<vel value="0" flag="1"/>
			<psa03 value="0" flag="1"/>
			<psa10 value="0" flag="1"/>
			<psa30 value="0" flag="1"/>
		</comp>
	</station>
	<station code="KIAA" name="KIAA" netid="HL" source="National Observatory of Athens Seismic Network" insttype="" lat="38.0139" lon="22.7495" esm:processing="discarded" esm:quality="bad">
		<comp name="00.HNE" depth="0.0">
			<acc value="0" flag="1"/>
			<vel value="0" flag="1"/>
			<psa03 value="0" flag="1"/>
			<psa10 value="0" flag="1"/>
			<psa30 value="0" flag="1"/>
		</comp>
		<comp name="00.HNN" depth="0.0">
			<acc value="0" flag="1"/>
			<vel value="0" flag="1"/>
			<psa03 value="0" flag="1"/>
			<psa10 value="0" flag="1"/>
			<psa30 value="0" flag="1"/>
		</comp>
		<comp name="00.HNZ" depth="0.0">
			<acc value="0" flag="1"/>
			<vel value="0" flag="1"/>
			<psa03 value="0" flag="1"/>
			<psa10 value="0" flag="1"/>
			<psa30 value="0" flag="1"/>
		</comp>
	</station>
	<station code="MNVA" name="MNVA" netid="HL" source="National Observatory of Athens Seismic Network" insttype="" lat="36.68709" lon="23.03734" esm:processing="discarded" esm:quality="bad">
		<comp name="00.HNE" depth="0.0">
			<acc value="0" flag="1"/>
			<vel value="0" flag="1"/>
			<psa03 value="0" flag="1"/>
			<psa10 value="0" flag="1"/>
			<psa30 value="0" flag="1"/>
		</comp>
		<comp name="00.HNN" depth="0.0">
			<acc value="0" flag="1"/>
			<vel value="0" flag="1"/>
			<psa03 value="0" flag="1"/>
			<psa10 value="0" flag="1"/>
			<psa30 value="0" flag="1"/>
		</comp>
		<comp name="00.HNZ" depth="0.0">
			<acc value="0" flag="1"/>
			<vel value="0" flag="1"/>
			<psa03 value="0" flag="1"/>
			<psa10 value="0" flag="1"/>
			<psa30 value="0" flag="1"/>
		</comp>
	</station>
	<station code="NPLA" name="NPLA" netid="HL" source="National Observatory of Athens Seismic Network" insttype="" lat="37.56561" lon="22.79975" esm:processing="discarded" esm:quality="bad">
		<comp name="00.HNE" depth="0.0">
			<acc value="0" flag="1"/>
			<vel value="0" flag="1"/>
			<psa03 value="0" flag="1"/>
			<psa10 value="0" flag="1"/>
			<psa30 value="0" flag="1"/>
		</comp>
		<comp name="00.HNN" depth="0.0">
			<acc value="0" flag="1"/>
			<vel value="0" flag="1"/>
			<psa03 value="0" flag="1"/>
			<psa10 value="0" flag="1"/>
			<psa30 value="0" flag="1"/>
		</comp>
		<comp name="00.HNZ" depth="0.0">
			<acc value="0" flag="1"/>
			<vel value="0" flag="1"/>
			<psa03 value="0" flag="1"/>
			<psa10 value="0" flag="1"/>
			<psa30 value="0" flag="1"/>
		</comp>
	</station>
	<station code="PATG" name="PATG" netid="HL" source="National Observatory of Athens Seismic Network" insttype="" lat="38.23865" lon="21.72657" esm:processing="discarded" esm:quality="bad">
		<comp name="00.HNE" depth="0.0">
			<acc value="0" flag="1"/>
			<vel value="0" flag="1"/>
			<psa03 value="0" flag="1"/>
			<psa10 value="0" flag="1"/>
			<psa30 value="0" flag="1"/>
		</comp>
		<comp name="00.HNN" depth="0.0">
			<acc value="0" flag="1"/>
			<vel value="0" flag="1"/>
			<psa03 value="0" flag="1"/>
			<psa10 value="0" flag="1"/>
			<psa30 value="0" flag="1"/>
		</comp>
		<comp name="00.HNZ" depth="0.0">
			<acc value="0" flag="1"/>
			<vel value="0" flag="1"/>
			<psa03 value="0" flag="1"/>
			<psa10 value="0" flag="1"/>
			<psa30 value="0" flag="1"/>
		</comp>
	</station>
	<station code="PRGA" name="PRGA" netid="HL" source="National Observatory of Athens Seismic Network" insttype="" lat="39.28557" lon="20.40157" esm:processing="discarded" esm:quality="bad">
		<comp name="00.HNE" depth="0.0">
			<acc value="0" flag="1"/>
			<vel value="0" flag="1"/>
			<psa03 value="0" flag="1"/>
			<psa10 value="0" flag="1"/>
			<psa30 value="0" flag="1"/>
		</comp>
		<comp name="00.HNN" depth="0.0">
			<acc value="0" flag="1"/>
			<vel value="0" flag="1"/>
			<psa03 value="0" flag="1"/>
			<psa10 value="0" flag="1"/>
			<psa30 value="0" flag="1"/>
		</comp>
		<comp name="00.HNZ" depth="0.0">
			<acc value="0" flag="1"/>
			<vel value="0" flag="1"/>
			<psa03 value="0" flag="1"/>
			<psa10 value="0" flag="1"/>
			<psa30 value="0" flag="1"/>
		</comp>
	</station>
	<station code="RIOA" name="RIOA" netid="HL" source="National Observatory of Athens Seismic Network" insttype="" lat="38.29585" lon="21.79118" esm:processing="discarded" esm:quality="bad">
		<comp name="00.HNE" depth="0.0">
			<acc value="0" flag="1"/>
			<vel value="0" flag="1"/>
			<psa03 value="0" flag="1"/>
			<psa10 value="0" flag="1"/>
			<psa30 value="0" flag="1"/>
		</comp>
