<?xml version="1.0" encoding="UTF-8" standalone="yes"?>
<!DOCTYPE earthquake SYSTEM "stationlist.dtd">
<stationlist created="" xmlns="ch.ethz.sed.shakemap.usgs.xml">
  <station code="BNN" name="BNN" netid="KO" insttype="CMG-3T" lat="38.8521" lon="35.8472">
    <comp name="--.HHE">
      <acc value="0.0209383536" flag="0"/>
      <vel value="0.0105070124" flag="0"/>
      <psa03 value="0.0599358925" flag="0"/>
      <psa10 value="0.0153283521" flag="0"/>
      <psa30 value="0.0021217519" flag="0"/>
    </comp>
    <comp name="--.HHN">
      <acc value="0.0129014258" flag="0"/>
      <vel value="0.0079503394" flag="0"/>
      <psa03 value="0.0311100873" flag="0"/>
      <psa10 value="0.0109390670" flag="0"/>
      <psa30 value="0.0024515238" flag="0"/>
    </comp>
    <comp name="--.HHZ">
      <acc value="0.0103949507" flag="0"/>
      <vel value="0.0055519002" flag="0"/>
      <psa03 value="0.0216414049" flag="0"/>
      <psa10 value="0.0059290020" flag="0"/>
      <psa30 value="0.0010898942" flag="0"/>
    </comp>
  </station>
  <station code="DARE" name="DARE" netid="KO" insttype="CMG-3ESP" lat="38.5712" lon="37.4832">
    <comp name="--.HHE">
      <acc value="0.0272627670" flag="0"/>
      <vel value="0.0128038286" flag="0"/>
      <psa03 value="0.0376720499" flag="0"/>
      <psa10 value="0.0176900447" flag="0"/>
      <psa30 value="0.0009512823" flag="0"/>
    </comp>
    <comp name="--.HHN">
      <acc value="0.0281782717" flag="0"/>
      <vel value="0.0138154469" flag="0"/>
      <psa03 value="0.0361173565" flag="0"/>
      <psa10 value="0.0183788044" flag="0"/>
      <psa30 value="0.0011614928" flag="0"/>
    </comp>
    <comp name="--.HHZ">
      <acc value="0.0227581650" flag="0"/>
      <vel value="0.0082675744" flag="0"/>
      <psa03 value="0.0323495145" flag="0"/>
      <psa10 value="0.0082466383" flag="0"/>
      <psa30 value="0.0007277573" flag="0"/>
    </comp>
  </station>
  <station code="GAZ" name="GAZ" netid="KO" insttype="CMG-3T" lat="37.1721" lon="37.2096">
    <comp name="--.HHE">
      <acc value="0.0598169026" flag="0"/>
      <vel value="0.0349059365" flag="0"/>
      <psa03 value="0.1074838361" flag="0"/>
      <psa10 value="0.0226603497" flag="0"/>
      <psa30 value="0.0024390677" flag="0"/>
    </comp>
    <comp name="--.HHN">
      <acc value="0.0430731828" flag="0"/>
      <vel value="0.0157861484" flag="0"/>
      <psa03 value="0.0812192295" flag="0"/>
      <psa10 value="0.0203114970" flag="0"/>
      <psa30 value="0.0015610858" flag="0"/>
    </comp>
    <comp name="--.HHZ">
      <acc value="0.0367483040" flag="0"/>
      <vel value="0.0154622567" flag="0"/>
      <psa03 value="0.0896062951" flag="0"/>
      <psa10 value="0.0118010601" flag="0"/>
      <psa30 value="0.0019773398" flag="0"/>
    </comp>
  </station>
  <station code="KHMN" name="KHMN" netid="KO" insttype="CMG-5T" lat="37.3916" lon="37.1574">
    <comp name="--.HNE">
      <acc value="0.0950461173" flag="0"/>
      <vel value="0.0255648256" flag="0"/>
      <psa03 value="0.1976099890" flag="0"/>
      <psa10 value="0.0211569691" flag="0"/>
      <psa30 value="0.0027011593" flag="0"/>
    </comp>
    <comp name="--.HNN">
      <acc value="0.0998957683" flag="0"/>
      <vel value="0.0264073536" flag="0"/>
      <psa03 value="0.1152869304" flag="0"/>
      <psa10 value="0.0150578400" flag="0"/>
      <psa30 value="0.0029331682" flag="0"/>
    </comp>
    <comp name="--.HNZ">
      <acc value="0.0474955166" flag="0"/>
      <vel value="0.0159821733" flag="0"/>
      <psa03 value="0.0831352197" flag="0"/>
      <psa10 value="0.0127578238" flag="0"/>
      <psa30 value="0.0022087551" flag="0"/>
    </comp>
  </station>
  <station code="SARI" name="SARI" netid="KO" insttype="CMG-3T" lat="38.4072" lon="36.4181">
    <comp name="--.HHN">
      <acc value="0.3525995186" flag="0"/>
      <vel value="0.0701734359" flag="0"/>
      <psa03 value="0.3299189189" flag="0"/>
      <psa10 value="0.0404541824" flag="0"/>
      <psa30 value="0.0031113058" flag="0"/>
    </comp>
    <comp name="--.HHE">
      <acc value="0.4372028238" flag="0"/>
      <vel value="0.0865795207" flag="0"/>
      <psa03 value="0.2458364878" flag="0"/>
      <psa10 value="0.0495912739" flag="0"/>
      <psa30 value="0.0034529525" flag="0"/>
    </comp>
    <comp name="--.HHZ">
      <acc value="0.2080934832" flag="0"/>
      <vel value="0.0501474821" flag="0"/>
      <psa03 value="0.1873372277" flag="0"/>
      <psa10 value="0.0430856364" flag="0"/>
      <psa30 value="0.0028643603" flag="0"/>
    </comp>
  </station>
  <station code="ANDN" name="ANDN" netid="TU" insttype="T" lat="37.58" lon="36.3452">
    <comp name="--.HHZ">
      <acc value="0.4130894423" flag="0"/>
      <vel value="0.1933298447" flag="0"/>
      <psa03 value="1.0682131257" flag="0"/>
      <psa10 value="0.2395584977" flag="0"/>
      <psa30 value="0.0076438849" flag="0"/>
    </comp>
    <comp name="--.HHE">
      <acc value="0.8983276143" flag="0"/>
      <vel value="0.3245670090" flag="0"/>
      <psa03 value="1.8156175932" flag="0"/>
      <psa10 value="0.2607943043" flag="0"/>
      <psa30 value="0.0214012838" flag="0"/>
    </comp>
    <comp name="--.HHN">
      <acc value="0.9951398813" flag="0"/>
      <vel value="0.3934857990" flag="0"/>
      <psa03 value="1.9101583056" flag="0"/>
      <psa10 value="0.3111523155" flag="0"/>
      <psa30 value="0.0111380149" flag="0"/>
    </comp>
  </station>
</stationlist>
