<?xml version="1.0" encoding="UTF-8" standalone="yes"?>
<!DOCTYPE earthquake SYSTEM "stationlist.dtd">
<stationlist created="" xmlns="ch.ethz.sed.shakemap.usgs.xml">
  <station code="KLV" name="KLV" netid="MN" insttype="" lat="38.0437" lon="22.1504">
    <comp name="--.HHE">
      <acc value="0.0021823858" flag="0"/>
      <vel value="0.0018705085" flag="0"/>
      <psa03 value="0.0068993414" flag="0"/>
      <psa10 value="0.0033133877" flag="0"/>
      <psa30 value="0.0003201610" flag="0"/>
    </comp>
    <comp name="--.HHN">
      <acc value="0.0021866995" flag="0"/>
      <vel value="0.0020767216" flag="0"/>
      <psa03 value="0.0051004877" flag="0"/>
      <psa10 value="0.0045064395" flag="0"/>
      <psa30 value="0.0003769641" flag="0"/>
    </comp>
    <comp name="--.HHZ">
      <acc value="0.0018819357" flag="0"/>
      <vel value="0.0014187837" flag="0"/>
      <psa03 value="0.0049620487" flag="0"/>
      <psa10 value="0.0030810484" flag="0"/>
      <psa30 value="0.0004425787" flag="0"/>
    </comp>
  </station>
</stationlist>
