<stationlist created="1778136539">
	<station code="ABEA" name="ABEA" netid="HC" source="Seismological Network of Crete (HC)" insttype="" lat="35.5163" lon="24.0113">
		<comp name="--.HNE" depth="0.0">
			<acc value="0.0146362778179309" flag="0"/>
			<vel value="0.0214379067447584" flag="0"/>
			<psa03 value="0.0433863871560424" flag="0"/>
			<psa10 value="0.0478988593142734" flag="0"/>
			<psa30 value="0.0107955826543872" flag="0"/>
		</comp>
		<comp name="--.HNN" depth="0.0">
			<acc value="0.013568997623678" flag="0"/>
			<vel value="0.0191420546322926" flag="0"/>
			<psa03 value="0.0311338515273772" flag="0"/>
			<psa10 value="0.0299853870097396" flag="0"/>
			<psa30 value="0.00936918732934734" flag="0"/>
		</comp>
		<comp name="--.HNZ" depth="0.0">
			<acc value="0.00917176305513832" flag="0"/>
			<vel value="0.0124968868858593" flag="0"/>
			<psa03 value="0.015552808943101" flag="0"/>
			<psa10 value="0.0252979458647514" flag="0"/>
			<psa30 value="0.00487621760883264" flag="0"/>
		</comp>
	</station>
	<station code="ATEI" name="ATEI" netid="HC" source="Seismological Network of Crete (HC)" insttype="" lat="35.5193" lon="24.0432">
		<comp name="--.HNE" depth="0.0">
			<acc value="0.0116821890377013" flag="0"/>
			<vel value="0.0160527226318386" flag="0"/>
			<psa03 value="0.0306947104572505" flag="0"/>
			<psa10 value="0.0190764918489731" flag="0"/>
			<psa30 value="0.00747454515191903" flag="0"/>
		</comp>
		<comp name="--.HNN" depth="0.0">
			<acc value="0.011650963719729" flag="0"/>
			<vel value="0.0174143962498495" flag="0"/>
			<psa03 value="0.0274200299841019" flag="0"/>
			<psa10 value="0.0246167601145254" flag="0"/>
			<psa30 value="0.00832918760113287" flag="0"/>
		</comp>
		<comp name="--.HNZ" depth="0.0">
			<acc value="0.00869277810802973" flag="0"/>
			<vel value="0.0102581978001413" flag="0"/>
			<psa03 value="0.016763706867463" flag="0"/>
			<psa10 value="0.022033266470777" flag="0"/>
			<psa30 value="0.00364982261616857" flag="0"/>
		</comp>
	</station>
	<station code="DEYA" name="DEYA" netid="HC" source="Seismological Network of Crete (HC)" insttype="" lat="35.4825" lon="24.014">
		<comp name="--.HNE" depth="0.0">
			<acc value="0.0213246862074127" flag="0"/>
			<vel value="0.0366213697153401" flag="0"/>
			<psa03 value="0.0594343903617375" flag="0"/>
			<psa10 value="0.0740938008505285" flag="0"/>
			<psa30 value="0.0135660561846369" flag="0"/>
		</comp>
		<comp name="--.HNN" depth="0.0">
			<acc value="0.0216217920259235" flag="0"/>
			<vel value="0.0236775495562161" flag="0"/>
			<psa03 value="0.0402110726403788" flag="0"/>
			<psa10 value="0.0654292793688078" flag="0"/>
			<psa30 value="0.00931149767434193" flag="0"/>
		</comp>
		<comp name="--.HNZ" depth="0.0">
			<acc value="0.011892750268637" flag="0"/>
			<vel value="0.0139583952517833" flag="0"/>
			<psa03 value="0.0274673221794542" flag="0"/>
			<psa10 value="0.023149736056419" flag="0"/>
			<psa30 value="0.00383548533207976" flag="0"/>
		</comp>
	</station>
	<station code="G0LD" name="G0LD" netid="HC" source="Seismological Network of Crete (HC)" insttype="" lat="35.4955" lon="24.0306">
		<comp name="--.HNE" depth="0.0">
			<acc value="0.0359187487142827" flag="0"/>
			<vel value="0.0575765248968513" flag="0"/>
			<psa03 value="0.0653485738141333" flag="0"/>
			<psa10 value="0.0991261016175972" flag="0"/>
			<psa30 value="0.016412607254678" flag="0"/>
		</comp>
		<comp name="--.HNN" depth="0.0">
			<acc value="0.033153204976293" flag="0"/>
			<vel value="0.0501431029578381" flag="0"/>
			<psa03 value="0.0760374068965319" flag="0"/>
			<psa10 value="0.0803951632850946" flag="0"/>
			<psa30 value="0.0152999018767664" flag="0"/>
		</comp>
		<comp name="--.HNZ" depth="0.0">
			<acc value="0.0274843003707641" flag="0"/>
			<vel value="0.0268536777251476" flag="0"/>
			<psa03 value="0.0621845152520759" flag="0"/>
			<psa10 value="0.0440179034700299" flag="0"/>
			<psa30 value="0.00474530393644975" flag="0"/>
		</comp>
	</station>
	<station code="LENT" name="LENT" netid="HC" source="Seismological Network of Crete (HC)" insttype="" lat="35.5074" lon="24.0402">
		<comp name="--.HNE" depth="0.0">
			<acc value="0.0132533973871066" flag="0"/>
			<vel value="0.0177547708261471" flag="0"/>
			<psa03 value="0.0217307116884065" flag="0"/>
			<psa10 value="0.0205545097603784" flag="0"/>
			<psa30 value="0.0109622003586611" flag="0"/>
		</comp>
		<comp name="--.HNN" depth="0.0">
			<acc value="0.019039595931307" flag="0"/>
			<vel value="0.0273496927130803" flag="0"/>
			<psa03 value="0.0376468949637153" flag="0"/>
			<psa10 value="0.0438691836181459" flag="0"/>
			<psa30 value="0.00939049374079914" flag="0"/>
		</comp>
		<comp name="--.HNZ" depth="0.0">
			<acc value="0.00908338066321267" flag="0"/>
			<vel value="0.0122792959995725" flag="0"/>
			<psa03 value="0.0224117867542209" flag="0"/>
			<psa10 value="0.027905182331386" flag="0"/>
			<psa30 value="0.00415582946997339" flag="0"/>
		</comp>
	</station>
	<station code="MULT" name="MULT" netid="HC" source="Seismological Network of Crete (HC)" insttype="" lat="35.5091" lon="24.0118">
		<comp name="--.HNE" depth="0.0">
			<acc value="0.0196246488156457" flag="0"/>
			<vel value="0.0292814778509401" flag="0"/>
			<psa03 value="0.0374559448141681" flag="0"/>
			<psa10 value="0.0404077530652655" flag="0"/>
			<psa30 value="0.00943208899626132" flag="0"/>
		</comp>
		<comp name="--.HNN" depth="0.0">
			<acc value="0.0151812451561139" flag="0"/>
			<vel value="0.0227551491345636" flag="0"/>
			<psa03 value="0.0387805403746295" flag="0"/>
			<psa10 value="0.0220275492170169" flag="0"/>
			<psa30 value="0.0118438204283317" flag="0"/>
		</comp>
		<comp name="--.HNZ" depth="0.0">
			<acc value="0.0170007343617475" flag="0"/>
			<vel value="0.0154732065756426" flag="0"/>
			<psa03 value="0.019243700581989" flag="0"/>
			<psa10 value="0.0241674953529746" flag="0"/>
			<psa30 value="0.00584706483935358" flag="0"/>
		</comp>
	</station>
	<station code="NERO" name="NERO" netid="HC" source="Seismological Network of Crete (HC)" insttype="" lat="35.474" lon="24.0423">
		<comp name="--.HNE" depth="0.0">
			<acc value="0.0090825246563829" flag="0"/>
			<vel value="0.0133581938157723" flag="0"/>
			<psa03 value="0.0188021804480219" flag="0"/>
			<psa10 value="0.0183676405160497" flag="0"/>
			<psa30 value="0.0123692444017579" flag="0"/>
		</comp>
		<comp name="--.HNN" depth="0.0">
			<acc value="0.0110872938336525" flag="0"/>
			<vel value="0.0196508750699548" flag="0"/>
			<psa03 value="0.0259811768546193" flag="0"/>
			<psa10 value="0.0246635725906317" flag="0"/>
			<psa30 value="0.00708699697875965" flag="0"/>
		</comp>
		<comp name="--.HNZ" depth="0.0">
			<acc value="0.00590597352441978" flag="0"/>
			<vel value="0.00861297754735104" flag="0"/>
			<psa03 value="0.0140687158375579" flag="0"/>
			<psa10 value="0.0174861839988667" flag="0"/>
			<psa30 value="0.00364868212394842" flag="0"/>
		</comp>
	</station>
	<station code="POLY" name="POLY" netid="HC" source="Seismological Network of Crete (HC)" insttype="" lat="35.5226" lon="24.0602">
		<comp name="--.HNE" depth="0.0">
			<acc value="0.0117849446996772" flag="0"/>
			<vel value="0.0145022313143677" flag="0"/>
			<psa03 value="0.0279747880882632" flag="0"/>
			<psa10 value="0.026772356037189" flag="0"/>
			<psa30 value="0.00661769463977542" flag="0"/>
		</comp>
		<comp name="--.HNN" depth="0.0">
			<acc value="0.0137097858933644" flag="0"/>
			<vel value="0.013749409128925" flag="0"/>
			<psa03 value="0.0285744476044312" flag="0"/>
			<psa10 value="0.0221634263432411" flag="0"/>
			<psa30 value="0.00769593981824518" flag="0"/>
		</comp>
		<comp name="--.HNZ" depth="0.0">
			<acc value="0.00873284552815039" flag="0"/>
			<vel value="0.0109772125753806" flag="0"/>
			<psa03 value="0.0157358744557202" flag="0"/>
			<psa10 value="0.00939297255082996" flag="0"/>
			<psa30 value="0.00379634232238155" flag="0"/>
		</comp>
	</station>
	<station code="SOUD" name="SOUD" netid="HC" source="Seismological Network of Crete (HC)" insttype="" lat="35.4878" lon="24.0678">
		<comp name="--.HNE" depth="0.0">
			<acc value="0.0290768475161626" flag="0"/>
			<vel value="0.0415405234727943" flag="0"/>
			<psa03 value="0.0482057715208044" flag="0"/>
			<psa10 value="0.0493853565375477" flag="0"/>
			<psa30 value="0.0104213820320997" flag="0"/>
		</comp>
		<comp name="--.HNN" depth="0.0">
			<acc value="0.0288075806266225" flag="0"/>
			<vel value="0.037662926766846" flag="0"/>
			<psa03 value="0.0437003845193556" flag="0"/>
			<psa10 value="0.0379861726475283" flag="0"/>
			<psa30 value="0.014254460954757" flag="0"/>
		</comp>
		<comp name="--.HNZ" depth="0.0">
			<acc value="0.00734129568748992" flag="0"/>
			<vel value="0.00801646862304385" flag="0"/>
			<psa03 value="0.00710950352178409" flag="0"/>
			<psa10 value="0.00497012971544458" flag="0"/>
			<psa30 value="0.00399311869118098" flag="0"/>
		</comp>
	</station>
	<station code="CH01" name="CH01" netid="HI" source="ITSAK Strong Motion Network" insttype="" lat="35.517" lon="24.0208">
		<comp name="--.HNE" depth="0.0">
			<acc value="0.014031730146582" flag="0"/>
			<vel value="0.0197257873031135" flag="0"/>
			<psa03 value="0.0235360252919858" flag="0"/>
			<psa10 value="0.027257645685245" flag="0"/>
			<psa30 value="0.00995363021249637" flag="0"/>
		</comp>
		<comp name="--.HNN" depth="0.0">
			<acc value="0.0142389240311124" flag="0"/>
			<vel value="0.0281877327686638" flag="0"/>
			<psa03 value="0.0233546877584641" flag="0"/>
			<psa10 value="0.032955360630907" flag="0"/>
			<psa30 value="0.00828589473319832" flag="0"/>
		</comp>
		<comp name="--.HNZ" depth="0.0">
			<acc value="0.00836030062922807" flag="0"/>
			<vel value="0.0136760714655746" flag="0"/>
			<psa03 value="0.0150133174752672" flag="0"/>
			<psa10 value="0.028928921399051" flag="0"/>
			<psa30 value="0.00485650296947893" flag="0"/>
		</comp>
	</station>
	<station code="KRL1" name="KRL1" netid="HI" source="ITSAK Strong Motion Network" insttype="" lat="37.7951" lon="26.7065">
		<comp name="--.HNE" depth="0.0">
			<acc value="0.0687281069192508" flag="0"/>
			<vel value="0.0847024425308623" flag="0"/>
			<psa03 value="0.135345175020272" flag="0"/>
			<psa10 value="0.0966834342814234" flag="0"/>
			<psa30 value="0.0417762457415465" flag="0"/>
		</comp>
		<comp name="--.HNN" depth="0.0">
			<acc value="0.0466293600444305" flag="0"/>
			<vel value="0.0789108442195787" flag="0"/>
			<psa03 value="0.100267285031547" flag="0"/>
			<psa10 value="0.156433071843596" flag="0"/>
			<psa30 value="0.0209823052157047" flag="0"/>
		</comp>
		<comp name="--.HNZ" depth="0.0">
			<acc value="0.0419181541007215" flag="0"/>
			<vel value="0.0362927961300503" flag="0"/>
			<psa03 value="0.0638023866376555" flag="0"/>
			<psa10 value="0.045744432046521" flag="0"/>
			<psa30 value="0.017304943253749" flag="0"/>
		</comp>
	</station>
	<station code="KSS1" name="KSS1" netid="HI" source="ITSAK Strong Motion Network" insttype="" lat="35.4189" lon="26.9207">
		<comp name="--.HNE" depth="0.0">
			<acc value="0.0555200644223774" flag="0"/>
			<vel value="0.0440551269944689" flag="0"/>
			<psa03 value="0.201742609641787" flag="0"/>
			<psa10 value="0.0358989094801703" flag="0"/>
			<psa30 value="0.0149564248283559" flag="0"/>
		</comp>
		<comp name="--.HNN" depth="0.0">
			<acc value="0.0462466494701652" flag="0"/>
			<vel value="0.0333312091791059" flag="0"/>
			<psa03 value="0.129931368019461" flag="0"/>
			<psa10 value="0.0459497987748989" flag="0"/>
			<psa30 value="0.00905269066507492" flag="0"/>
		</comp>
		<comp name="--.HNZ" depth="0.0">
			<acc value="0.0349964407938343" flag="0"/>
			<vel value="0.0293253653254184" flag="0"/>
			<psa03 value="0.052348381743378" flag="0"/>
			<psa10 value="0.0348640222410897" flag="0"/>
			<psa30 value="0.0100513367167947" flag="0"/>
		</comp>
	</station>
	<station code="MYT1" name="MYT1" netid="HI" source="ITSAK Strong Motion Network" insttype="" lat="39.085" lon="26.5694">
		<comp name="--.HNE" depth="0.0">
			<acc value="0.00832339439177321" flag="0"/>
			<vel value="0.0278023330121058" flag="0"/>
			<psa03 value="0.0094091760461278" flag="0"/>
			<psa10 value="0.0280952167952277" flag="0"/>
			<psa30 value="0.0139975289342795" flag="0"/>
		</comp>
		<comp name="--.HNN" depth="0.0">
			<acc value="0.00575018845771422" flag="0"/>
			<vel value="0.0161649745367521" flag="0"/>
			<psa03 value="0.00816008027882915" flag="0"/>
			<psa10 value="0.0226670340797575" flag="0"/>
			<psa30 value="0.0068182875114393" flag="0"/>
		</comp>
		<comp name="--.HNZ" depth="0.0">
			<acc value="0.00452309198079173" flag="0"/>
			<vel value="0.013448530887838" flag="0"/>
			<psa03 value="0.00557448061009546" flag="0"/>
			<psa10 value="0.0116861032094943" flag="0"/>
			<psa30 value="0.00681274922786133" flag="0"/>
		</comp>
	</station>
	<station code="RDI1" name="RDI1" netid="HI" source="ITSAK Strong Motion Network" insttype="" lat="36.4514" lon="28.224">
		<comp name="--.HNE" depth="0.0">
			<acc value="0.124040947609738" flag="0"/>
			<vel value="0.250804231671629" flag="0"/>
			<psa03 value="0.278251782959032" flag="0"/>
			<psa10 value="0.322284825602404" flag="0"/>
			<psa30 value="0.0726671600349337" flag="0"/>
		</comp>
		<comp name="--.HNN" depth="0.0">
			<acc value="0.120993529311823" flag="0"/>
			<vel value="0.271998301914227" flag="0"/>
			<psa03 value="0.254314702418257" flag="0"/>
			<psa10 value="0.408095903675588" flag="0"/>
			<psa30 value="0.0713392113425034" flag="0"/>
		</comp>
		<comp name="--.HNZ" depth="0.0">
			<acc value="0.0790254756671201" flag="0"/>
			<vel value="0.0783713985774471" flag="0"/>
			<psa03 value="0.270600865627308" flag="0"/>
			<psa10 value="0.171960407228401" flag="0"/>
			<psa30 value="0.0295110646412797" flag="0"/>
		</comp>
	</station>
	<station code="SIT2" name="SIT2" netid="HI" source="ITSAK Strong Motion Network" insttype="" lat="35.2059" lon="26.107">
		<comp name="--.HNE" depth="0.0">
			<acc value="0.131196399101193" flag="0"/>
			<vel value="0.101602758586694" flag="0"/>
			<psa03 value="0.441739805942197" flag="0"/>
			<psa10 value="0.105622927163754" flag="0"/>
			<psa30 value="0.0136852987383308" flag="0"/>
		</comp>
		<comp name="--.HNN" depth="0.0">
			<acc value="0.147558443092194" flag="0"/>
			<vel value="0.119504895545321" flag="0"/>
			<psa03 value="0.392791831901808" flag="0"/>
			<psa10 value="0.133552802223144" flag="0"/>
			<psa30 value="0.0102839961912098" flag="0"/>
		</comp>
		<comp name="--.HNZ" depth="0.0">
			<acc value="0.0575264064419047" flag="0"/>
			<vel value="0.0330742370120211" flag="0"/>
			<psa03 value="0.199639725930729" flag="0"/>
			<psa10 value="0.0308694380342104" flag="0"/>
			<psa30 value="0.00794084683061087" flag="0"/>
		</comp>
	</station>
	<station code="KARP" name="KARP" netid="HL" source="National Observatory of Athens Seismic Network" insttype="" lat="35.5471" lon="27.16106">
		<comp name="--.HNE" depth="0.0">
			<acc value="0.137158962286638" flag="0"/>
			<vel value="0.104478302800436" flag="0"/>
			<psa03 value="0.237894312589351" flag="0"/>
			<psa10 value="0.160693424757788" flag="0"/>
			<psa30 value="0.0266242974702688" flag="0"/>
		</comp>
		<comp name="--.HNN" depth="0.0">
			<acc value="0.144588049838708" flag="0"/>
			<vel value="0.146656215640541" flag="0"/>
			<psa03 value="0.183443047134914" flag="0"/>
			<psa10 value="0.306866213779682" flag="0"/>
			<psa30 value="0.0182422924824018" flag="0"/>
		</comp>
		<comp name="--.HNZ" depth="0.0">
			<acc value="0.110214875151966" flag="0"/>
			<vel value="0.0602976790095617" flag="0"/>
			<psa03 value="0.153063088841108" flag="0"/>
			<psa10 value="0.093381459432995" flag="0"/>
			<psa30 value="0.0112723515354074" flag="0"/>
		</comp>
	</station>
	<station code="KLNA" name="KLNA" netid="HL" source="National Observatory of Athens Seismic Network" insttype="" lat="36.95708" lon="26.97274">
		<comp name="00.HNE" depth="0.0">
			<acc value="0.384264754192734" flag="0"/>
			<vel value="0.151145748416044" flag="0"/>
			<psa03 value="0.968668773285584" flag="0"/>
			<psa10 value="0.139001060723051" flag="0"/>
			<psa30 value="0.032180832110192" flag="0"/>
		</comp>
		<comp name="00.HNN" depth="0.0">
			<acc value="0.256945447231847" flag="0"/>
			<vel value="0.0934194906224138" flag="0"/>
			<psa03 value="0.584154249608156" flag="0"/>
			<psa10 value="0.0718703013350623" flag="0"/>
			<psa30 value="0.0102746003278199" flag="0"/>
		</comp>
		<comp name="00.HNZ" depth="0.0">
			<acc value="0.238023077578655" flag="0"/>
			<vel value="0.0765895016327476" flag="0"/>
			<psa03 value="0.304068036177775" flag="0"/>
			<psa10 value="0.0599791650821242" flag="0"/>
			<psa30 value="0.0172114320419168" flag="0"/>
		</comp>
	</station>
	<station code="MILA" name="MILA" netid="HL" source="National Observatory of Athens Seismic Network" insttype="" lat="36.74288" lon="24.4282">
		<comp name="00.HNE" depth="0.0">
			<acc value="0.0419665637700423" flag="0"/>
			<vel value="0.0483309513787979" flag="0"/>
			<psa03 value="0.120217609660121" flag="0"/>
			<psa10 value="0.0948808053877783" flag="0"/>
			<psa30 value="0.0164426692461271" flag="0"/>
		</comp>
		<comp name="00.HNN" depth="0.0">
			<acc value="0.0886600588214047" flag="0"/>
			<vel value="0.0650358175023019" flag="0"/>
			<psa03 value="0.183192823125647" flag="0"/>
			<psa10 value="0.117991516358983" flag="0"/>
			<psa30 value="0.0137302020585031" flag="0"/>
		</comp>
		<comp name="00.HNZ" depth="0.0">
			<acc value="0.0407068556008037" flag="0"/>
			<vel value="0.0473002526882523" flag="0"/>
			<psa03 value="0.0859017895302509" flag="0"/>
			<psa10 value="0.0784387111795867" flag="0"/>
			<psa30 value="0.00958062550277042" flag="0"/>
		</comp>
	</station>
	<station code="NISR" name="NISR" netid="HL" source="National Observatory of Athens Seismic Network" insttype="" lat="36.6106" lon="27.131">
		<comp name="--.HNE" depth="0.0">
			<acc value="4.97959925635148" flag="0"/>
			<vel value="2.98431569984535" flag="0"/>
			<psa03 value="7.14890977346746" flag="0"/>
			<psa10 value="4.32909036621949" flag="0"/>
			<psa30 value="0.811484927214933" flag="0"/>
		</comp>
		<comp name="--.HNN" depth="0.0">
			<acc value="4.19515970007282" flag="0"/>
			<vel value="2.06186107141064" flag="0"/>
			<psa03 value="5.08857590090266" flag="0"/>
			<psa10 value="1.18984247583962" flag="0"/>
			<psa30 value="0.451104349787401" flag="0"/>
		</comp>
		<comp name="--.HNZ" depth="0.0">
			<acc value="2.48016096970039" flag="0"/>
			<vel value="0.856619982433385" flag="0"/>
			<psa03 value="2.44023994896054" flag="0"/>
			<psa10 value="1.66170273527724" flag="0"/>
			<psa30 value="0.222762050888985" flag="0"/>
		</comp>
	</station>
	<station code="RODB" name="RODB" netid="HL" source="National Observatory of Athens Seismic Network" insttype="" lat="36.4471" lon="28.22116">
		<comp name="00.HNE" depth="0.0">
			<acc value="0.11790058030332" flag="0"/>
			<vel value="0.264612112859713" flag="0"/>
			<psa03 value="0.376058246626574" flag="0"/>
			<psa10 value="0.331337068845413" flag="0"/>
			<psa30 value="0.0756322260675266" flag="0"/>
		</comp>
		<comp name="00.HNN" depth="0.0">
			<acc value="0.12562487084272" flag="0"/>
			<vel value="0.180690207435293" flag="0"/>
			<psa03 value="0.454222881588695" flag="0"/>
			<psa10 value="0.253470864401436" flag="0"/>
			<psa30 value="0.0590802941511631" flag="0"/>
		</comp>
		<comp name="00.HNZ" depth="0.0">
			<acc value="0.0744379459803649" flag="0"/>
			<vel value="0.0893087123356968" flag="0"/>
			<psa03 value="0.244471416962237" flag="0"/>
			<psa10 value="0.14121177315206" flag="0"/>
			<psa30 value="0.0208959527569315" flag="0"/>
		</comp>
	</station>
	<station code="SMG" name="SMG" netid="HL" source="National Observatory of Athens Seismic Network" insttype="" lat="37.70425" lon="26.83772">
		<comp name="00.HNE" depth="0.0">
			<acc value="0.0536120613414945" flag="0"/>
			<vel value="0.0654971891289677" flag="0"/>
