<?xml version="1.0" encoding="UTF-8" standalone="yes"?>
<!DOCTYPE earthquake SYSTEM "stationlist.dtd">
<stationlist created="" xmlns="ch.ethz.sed.shakemap.usgs.xml">
  <station code="APE" name="APE" netid="GE" insttype="STS-2/N" lat="37.0727" lon="25.523">
    <comp name="--.HHE">
      <acc value="0.0351349097" flag="0"/>
      <vel value="0.0227584417" flag="0"/>
      <psa03 value="0.0555686124" flag="0"/>
      <psa10 value="0.0137176286" flag="0"/>
      <psa30 value="0.0100566463" flag="0"/>
    </comp>
    <comp name="--.HHN">
      <acc value="0.0600220482" flag="0"/>
      <vel value="0.0262901580" flag="0"/>
      <psa03 value="0.0712006458" flag="0"/>
      <psa10 value="0.0319693766" flag="0"/>
      <psa30 value="0.0132841006" flag="0"/>
    </comp>
    <comp name="--.HHZ">
      <acc value="0.0264019180" flag="0"/>
      <vel value="0.0187996829" flag="0"/>
      <psa03 value="0.0417287135" flag="0"/>
      <psa10 value="0.0174771826" flag="0"/>
      <psa30 value="0.0081783640" flag="0"/>
    </comp>
  </station>
  <station code="KARP" name="KARP" netid="GE" insttype="STS-2/N" lat="35.5471" lon="27.1611">
    <comp name="--.HHE">
      <acc value="0.1630653412" flag="0"/>
      <vel value="0.1052570019" flag="0"/>
      <psa03 value="0.2958572464" flag="0"/>
      <psa10 value="0.1658397533" flag="0"/>
      <psa30 value="0.0319071952" flag="0"/>
    </comp>
    <comp name="--.HHN">
      <acc value="0.1930047062" flag="0"/>
      <vel value="0.1794356725" flag="0"/>
      <psa03 value="0.2117385559" flag="0"/>
      <psa10 value="0.3767759855" flag="0"/>
      <psa30 value="0.0196567066" flag="0"/>
    </comp>
    <comp name="--.HHZ">
      <acc value="0.1391691648" flag="0"/>
      <vel value="0.0751797293" flag="0"/>
      <psa03 value="0.1956113477" flag="0"/>
      <psa10 value="0.1171319545" flag="0"/>
      <psa30 value="0.0137214213" flag="0"/>
    </comp>
  </station>
  <station code="THERA" name="THERA" netid="GE" insttype="STS-2/N" lat="36.367" lon="25.4753">
    <comp name="--.HHZ">
      <acc value="0.0445789740" flag="0"/>
      <vel value="0.0316261332" flag="0"/>
      <psa03 value="0.1365490514" flag="0"/>
      <psa10 value="0.0326815239" flag="0"/>
      <psa30 value="0.0137860836" flag="0"/>
    </comp>
    <comp name="--.HHE">
      <acc value="0.0738465535" flag="0"/>
      <vel value="0.0445691117" flag="0"/>
      <psa03 value="0.1695929423" flag="0"/>
      <psa10 value="0.0394561429" flag="0"/>
      <psa30 value="0.0151713525" flag="0"/>
    </comp>
    <comp name="--.HHN">
      <acc value="0.0421266057" flag="0"/>
      <vel value="0.0299237528" flag="0"/>
      <psa03 value="0.1499630365" flag="0"/>
      <psa10 value="0.0501245326" flag="0"/>
      <psa30 value="0.0111934994" flag="0"/>
    </comp>
  </station>
  <station code="ZKR" name="ZKR" netid="GE" insttype="STS-2/N" lat="35.1147" lon="26.2169">
    <comp name="--.HHE">
      <acc value="0.0435074296" flag="0"/>
      <vel value="0.0338596659" flag="0"/>
      <psa03 value="0.1270932236" flag="0"/>
      <psa10 value="0.0690457048" flag="0"/>
      <psa30 value="0.0094251827" flag="0"/>
    </comp>
    <comp name="--.HHN">
      <acc value="0.0212836179" flag="0"/>
      <vel value="0.0172832038" flag="0"/>
      <psa03 value="0.0522441077" flag="0"/>
      <psa10 value="0.0303044417" flag="0"/>
      <psa30 value="0.0031976387" flag="0"/>
    </comp>
    <comp name="--.HHZ">
      <acc value="0.0295602686" flag="0"/>
      <vel value="0.0138929781" flag="0"/>
      <psa03 value="0.0504949917" flag="0"/>
      <psa10 value="0.0139157763" flag="0"/>
      <psa30 value="0.0042213628" flag="0"/>
    </comp>
  </station>
  <station code="DATC" name="DATC" netid="KO" insttype="CMG-5T" lat="36.7584" lon="27.6602">
    <comp name="--.HNE">
      <acc value="0.5873608426" flag="0"/>
      <vel value="0.3684481298" flag="0"/>
      <psa03 value="1.3159091437" flag="0"/>
      <psa10 value="0.5907433367" flag="0"/>
      <psa30 value="0.1068099839" flag="0"/>
    </comp>
    <comp name="--.HNN">
      <acc value="0.5049025346" flag="0"/>
      <vel value="0.2431853236" flag="0"/>
      <psa03 value="0.9153763109" flag="0"/>
      <psa10 value="0.3065962331" flag="0"/>
      <psa30 value="0.0724052818" flag="0"/>
    </comp>
    <comp name="--.HNZ">
      <acc value="0.7580275787" flag="0"/>
      <vel value="0.2285898644" flag="0"/>
      <psa03 value="0.9995628319" flag="0"/>
      <psa10 value="0.3495008491" flag="0"/>
      <psa30 value="0.0378181039" flag="0"/>
    </comp>
  </station>
  <station code="FETI" name="FETI" netid="KO" insttype="CMG-5T" lat="36.6903" lon="29.096">
    <comp name="--.HNN">
      <acc value="0.0067537002" flag="0"/>
      <vel value="0.0383786692" flag="0"/>
      <psa03 value="0.0058066852" flag="0"/>
      <psa10 value="0.0062285169" flag="0"/>
      <psa30 value="0.0084627421" flag="0"/>
    </comp>
    <comp name="--.HNE">
      <acc value="0.0256543731" flag="0"/>
      <vel value="0.0196778691" flag="0"/>
      <psa03 value="0.0595913959" flag="0"/>
      <psa10 value="0.0299770129" flag="0"/>
      <psa30 value="0.0093982423" flag="0"/>
    </comp>
    <comp name="--.HNZ">
      <acc value="0.0200608964" flag="0"/>
      <vel value="0.0223314281" flag="0"/>
      <psa03 value="0.0611590021" flag="0"/>
      <psa10 value="0.0282467429" flag="0"/>
      <psa30 value="0.0148399773" flag="0"/>
    </comp>
  </station>
  <station code="FETY" name="FETY" netid="KO" insttype="120s," lat="36.6353" lon="29.0835">
    <comp name="--.HHE">
      <acc value="0.0184282404" flag="0"/>
      <vel value="0.0115105948" flag="0"/>
      <psa03 value="0.0350275963" flag="0"/>
      <psa10 value="0.0097442137" flag="0"/>
      <psa30 value="0.0036864862" flag="0"/>
    </comp>
    <comp name="--.HHZ">
      <acc value="0.0171995823" flag="0"/>
      <vel value="0.0192624092" flag="0"/>
      <psa03 value="0.0376579536" flag="0"/>
      <psa10 value="0.0431532139" flag="0"/>
      <psa30 value="0.0084798267" flag="0"/>
    </comp>
    <comp name="--.HHN">
      <acc value="0.0202705900" flag="0"/>
      <vel value="0.0298076948" flag="0"/>
      <psa03 value="0.0679037205" flag="0"/>
      <psa10 value="0.0505349414" flag="0"/>
      <psa30 value="0.0069044933" flag="0"/>
    </comp>
  </station>
  <station code="YKAV" name="YKAV" netid="KO" insttype="CMG-5T" lat="37.1246" lon="27.2801">
    <comp name="--.HNE">
      <acc value="0.1519938362" flag="0"/>
      <vel value="0.1858512711" flag="0"/>
      <psa03 value="0.4724790894" flag="0"/>
      <psa10 value="0.2331979789" flag="0"/>
      <psa30 value="0.0329744940" flag="0"/>
    </comp>
    <comp name="--.HNN">
      <acc value="0.1063332143" flag="0"/>
      <vel value="0.0747852232" flag="0"/>
      <psa03 value="0.1940942339" flag="0"/>
      <psa10 value="0.1115346695" flag="0"/>
      <psa30 value="0.0144499708" flag="0"/>
    </comp>
    <comp name="--.HNZ">
      <acc value="0.0847343200" flag="0"/>
      <vel value="0.0718982959" flag="0"/>
      <psa03 value="0.1973128383" flag="0"/>
      <psa10 value="0.1404537012" flag="0"/>
      <psa30 value="0.0096095337" flag="0"/>
    </comp>
  </station>
  <station code="AYDN" name="AYDN" netid="TU" source="ODC" insttype="T" lat="37.6608" lon="27.8792">
    <comp name="--.HHE">
      <acc value="0.0665831305" flag="0"/>
      <vel value="0.0513176722" flag="0"/>
      <psa03 value="0.2828764487" flag="0"/>
      <psa10 value="0.0499284128" flag="0"/>
      <psa30 value="0.0064637452" flag="0"/>
    </comp>
    <comp name="--.HHZ">
      <acc value="0.0938393227" flag="0"/>
      <vel value="0.0990680797" flag="0"/>
      <psa03 value="0.3636931267" flag="0"/>
      <psa10 value="0.0922201032" flag="0"/>
      <psa30 value="0.0135178739" flag="0"/>
    </comp>
    <comp name="--.HHN">
      <acc value="0.0838743409" flag="0"/>
      <vel value="0.0948164760" flag="0"/>
      <psa03 value="0.2028238332" flag="0"/>
      <psa10 value="0.1102522442" flag="0"/>
      <psa30 value="0.0243209444" flag="0"/>
    </comp>
  </station>
</stationlist>
