<stationlist created="1778136320">
	<station code="MALA" name="MALA" netid="CL" source="Corinth Riff Laboratory (CRLNET)" insttype="" lat="38.39341" lon="21.87263">
		<comp name="01.HNE" depth="0.0">
			<acc value="0.046731452728985" flag="0"/>
			<vel value="0.0516783559558654" flag="0"/>
			<psa03 value="0.0531984836691251" flag="0"/>
			<psa10 value="0.1202804740519" flag="0"/>
			<psa30 value="0.0143300339357001" flag="0"/>
		</comp>
		<comp name="01.HNN" depth="0.0">
			<acc value="0.048550824119832" flag="0"/>
			<vel value="0.0438633940559554" flag="0"/>
			<psa03 value="0.0527958038095607" flag="0"/>
			<psa10 value="0.103210874804963" flag="0"/>
			<psa30 value="0.00858110780731834" flag="0"/>
		</comp>
		<comp name="01.HNZ" depth="0.0">
			<acc value="0.0388148826384991" flag="0"/>
			<vel value="0.0244636874879153" flag="0"/>
			<psa03 value="0.0252346045327053" flag="0"/>
			<psa10 value="0.0351740857329543" flag="0"/>
			<psa30 value="0.00872875708915863" flag="0"/>
		</comp>
	</station>
	<station code="ROD3" name="ROD3" netid="CL" source="Corinth Riff Laboratory (CRLNET)" insttype="" lat="38.30811" lon="21.89204">
		<comp name="00.HNE" depth="0.0">
			<acc value="0.01514405091951" flag="0"/>
			<vel value="0.0137808376168888" flag="0"/>
			<psa03 value="0.0429525183535409" flag="0"/>
			<psa10 value="0.0182172368466955" flag="0"/>
			<psa30 value="0.00293553617622481" flag="0"/>
		</comp>
		<comp name="00.HNN" depth="0.0">
			<acc value="0.0148220670575001" flag="0"/>
			<vel value="0.0116034271658736" flag="0"/>
			<psa03 value="0.0471135435690402" flag="0"/>
			<psa10 value="0.0229567787937691" flag="0"/>
			<psa30 value="0.00262323557402927" flag="0"/>
		</comp>
		<comp name="00.HNZ" depth="0.0">
			<acc value="0.00686193285204141" flag="0"/>
			<vel value="0.00779857877442249" flag="0"/>
			<psa03 value="0.0126173022663526" flag="0"/>
			<psa10 value="0.0120642885925508" flag="0"/>
			<psa30 value="0.00247155949359333" flag="0"/>
		</comp>
	</station>
	<station code="STC" name="STC" netid="EG" source="EUROSEISTEST Strong Motion Network" insttype="" lat="40.64865" lon="23.304856">
		<comp name="--.EN1" depth="0.0">
			<acc value="0.0281993397661775" flag="0"/>
			<vel value="0.0295819314092317" flag="0"/>
			<psa03 value="0.0567088035547623" flag="0"/>
			<psa10 value="0.0665614643701609" flag="0"/>
			<psa30 value="0.0034000139842414" flag="0"/>
		</comp>
		<comp name="--.EN2" depth="0.0">
			<acc value="0.0369655333232654" flag="0"/>
			<vel value="0.0297730319418184" flag="0"/>
			<psa03 value="0.0592618424727816" flag="0"/>
			<psa10 value="0.0319930806345926" flag="0"/>
			<psa30 value="0.00359028950572789" flag="0"/>
		</comp>
		<comp name="--.EN3" depth="0.0">
			<acc value="0.0217286085520487" flag="0"/>
			<vel value="0.0246393855669148" flag="0"/>
			<psa03 value="0.0355223427642265" flag="0"/>
			<psa10 value="0.0368029205128599" flag="0"/>
			<psa30 value="0.00373807262896659" flag="0"/>
		</comp>
	</station>
	<station code="TST" name="TST" netid="EG" source="EUROSEISTEST Strong Motion Network" insttype="" lat="40.6638" lon="23.2906">
		<comp name="00.EN1" depth="0.0">
			<acc value="0.0202049857038843" flag="0"/>
			<vel value="0.0223156814582456" flag="0"/>
			<psa03 value="0.04650741422134" flag="0"/>
			<psa10 value="0.0398518762412337" flag="0"/>
			<psa30 value="0.00271082207865907" flag="0"/>
		</comp>
		<comp name="00.EN2" depth="0.0">
			<acc value="0.0104079191995222" flag="0"/>
			<vel value="0.0106677175097157" flag="0"/>
			<psa03 value="0.0203028644963904" flag="0"/>
			<psa10 value="0.0193072952635631" flag="0"/>
			<psa30 value="0.00212959565859234" flag="0"/>
		</comp>
		<comp name="00.EN3" depth="0.0">
			<acc value="0.0216850408773204" flag="0"/>
			<vel value="0.0288971884626823" flag="0"/>
			<psa03 value="0.0370143738956042" flag="0"/>
			<psa10 value="0.0558811581026469" flag="0"/>
			<psa30 value="0.00315274781240238" flag="0"/>
		</comp>
	</station>
	<station code="KLV1" name="KLV1" netid="HI" source="ITSAK Strong Motion Network" insttype="" lat="38.03256" lon="22.10797">
		<comp name="--.HNE" depth="0.0">
			<acc value="0.0168666739852363" flag="0"/>
			<vel value="0.0168812102162135" flag="0"/>
			<psa03 value="0.0450554020645997" flag="0"/>
			<psa10 value="0.0306600445072369" flag="0"/>
			<psa30 value="0.00196015607194649" flag="0"/>
		</comp>
		<comp name="--.HNN" depth="0.0">
			<acc value="0.0163782432813217" flag="0"/>
			<vel value="0.0090811435659076" flag="0"/>
			<psa03 value="0.0372702581130204" flag="0"/>
			<psa10 value="0.0118710022599599" flag="0"/>
			<psa30 value="0.00227782573893621" flag="0"/>
		</comp>
		<comp name="--.HNZ" depth="0.0">
			<acc value="0.0104728387720791" flag="0"/>
			<vel value="0.00552810682943386" flag="0"/>
			<psa03 value="0.010380191935439" flag="0"/>
			<psa10 value="0.00847641104383158" flag="0"/>
			<psa30 value="0.00118656331951657" flag="0"/>
		</comp>
	</station>
	<station code="LAM2" name="LAM2" netid="HI" source="ITSAK Strong Motion Network" insttype="" lat="38.90203" lon="22.431301">
		<comp name="--.HNE" depth="0.0">
			<acc value="0.0338871065925482" flag="0"/>
			<vel value="0.0305370982416665" flag="0"/>
			<psa03 value="0.0952114156836823" flag="0"/>
			<psa10 value="0.0231097971404035" flag="0"/>
			<psa30 value="0.00425453642733146" flag="0"/>
		</comp>
		<comp name="--.HNN" depth="0.0">
			<acc value="0.0437067283062802" flag="0"/>
			<vel value="0.0404433761821147" flag="0"/>
			<psa03 value="0.152078760295506" flag="0"/>
			<psa10 value="0.0380613003260314" flag="0"/>
			<psa30 value="0.00483707995750136" flag="0"/>
		</comp>
		<comp name="--.HNZ" depth="0.0">
			<acc value="0.0229956319569194" flag="0"/>
			<vel value="0.0253206796763403" flag="0"/>
			<psa03 value="0.0455475663374007" flag="0"/>
			<psa10 value="0.0191756149124589" flag="0"/>
			<psa30 value="0.00510463835307862" flag="0"/>
		</comp>
	</station>
	<station code="MSL1" name="MSL1" netid="HI" source="ITSAK Strong Motion Network" insttype="" lat="38.3727" lon="21.4243">
		<comp name="--.HNE" depth="0.0">
			<acc value="0.0203857033621114" flag="0"/>
			<vel value="0.0350726207311559" flag="0"/>
			<psa03 value="0.0427735495270678" flag="0"/>
			<psa10 value="0.0528758923594074" flag="0"/>
			<psa30 value="0.0070598727822971" flag="0"/>
		</comp>
		<comp name="--.HNN" depth="0.0">
			<acc value="0.022225122264488" flag="0"/>
			<vel value="0.0385259809153824" flag="0"/>
			<psa03 value="0.0330644906909028" flag="0"/>
			<psa10 value="0.0465054969810978" flag="0"/>
			<psa30 value="0.00714085617627617" flag="0"/>
		</comp>
		<comp name="--.HNZ" depth="0.0">
			<acc value="0.0152537123260323" flag="0"/>
			<vel value="0.0130494143710326" flag="0"/>
			<psa03 value="0.0151676080435941" flag="0"/>
			<psa10 value="0.0262829144337714" flag="0"/>
			<psa30 value="0.00527063193963241" flag="0"/>
		</comp>
	</station>
	<station code="SKO1" name="SKO1" netid="HI" source="ITSAK Strong Motion Network" insttype="" lat="39.123383" lon="23.728705">
		<comp name="--.HNE" depth="0.0">
			<acc value="0.0095418786714733" flag="0"/>
			<vel value="0.00680309568201628" flag="0"/>
			<psa03 value="0.0272480038305275" flag="0"/>
			<psa10 value="0.00848446464102287" flag="0"/>
			<psa30 value="0.000842048328555874" flag="0"/>
		</comp>
		<comp name="--.HNN" depth="0.0">
			<acc value="0.00726006284262535" flag="0"/>
			<vel value="0.0064863398053565" flag="0"/>
			<psa03 value="0.0184785313333462" flag="0"/>
			<psa10 value="0.00925358317279096" flag="0"/>
			<psa30 value="0.000672922787538807" flag="0"/>
		</comp>
		<comp name="--.HNZ" depth="0.0">
			<acc value="0.00732995897277198" flag="0"/>
			<vel value="0.0067765971801158" flag="0"/>
			<psa03 value="0.0188812111929107" flag="0"/>
			<psa10 value="0.00917304720087807" flag="0"/>
			<psa30 value="0.000805807141195074" flag="0"/>
		</comp>
	</station>
	<station code="VAS2" name="VAS2" netid="HI" source="ITSAK Strong Motion Network" insttype="" lat="38.630558" lon="20.608081">
		<comp name="--.HNE" depth="0.0">
			<acc value="0.0284757989492722" flag="0"/>
			<vel value="0.0396674987804732" flag="0"/>
			<psa03 value="0.045771277370492" flag="0"/>
			<psa10 value="0.119761017033062" flag="0"/>
			<psa30 value="0.00495340969470886" flag="0"/>
		</comp>
		<comp name="--.HNN" depth="0.0">
			<acc value="0.0330434736591818" flag="0"/>
			<vel value="0.0456512620933693" flag="0"/>
			<psa03 value="0.0555250784132752" flag="0"/>
			<psa10 value="0.0925962337068443" flag="0"/>
			<psa30 value="0.00865940666890031" flag="0"/>
		</comp>
		<comp name="--.HNZ" depth="0.0">
			<acc value="0.0143089688650767" flag="0"/>
			<vel value="0.0163783214560445" flag="0"/>
			<psa03 value="0.02304223640841" flag="0"/>
			<psa10 value="0.046650461730541" flag="0"/>
			<psa30 value="0.00312300602195537" flag="0"/>
		</comp>
	</station>
	<station code="VOL2" name="VOL2" netid="HI" source="ITSAK Strong Motion Network" insttype="" lat="39.366" lon="22.9506">
		<comp name="--.HNE" depth="0.0">
			<acc value="0.0564373993344261" flag="0"/>
			<vel value="0.0284660141436718" flag="0"/>
			<psa03 value="0.141047885396834" flag="0"/>
			<psa10 value="0.0281490928642653" flag="0"/>
			<psa30 value="0.00248538381114609" flag="0"/>
		</comp>
		<comp name="--.HNN" depth="0.0">
			<acc value="0.0615396869891611" flag="0"/>
			<vel value="0.0543272646755065" flag="0"/>
			<psa03 value="0.144593245259703" flag="0"/>
			<psa10 value="0.0471612529515545" flag="0"/>
			<psa30 value="0.00378389441443607" flag="0"/>
		</comp>
		<comp name="--.HNZ" depth="0.0">
			<acc value="0.039078412677434" flag="0"/>
			<vel value="0.0164754324181429" flag="0"/>
			<psa03 value="0.0417561281177283" flag="0"/>
			<psa10 value="0.0172309402152171" flag="0"/>
			<psa30 value="0.00293699914511172" flag="0"/>
		</comp>
	</station>
	<station code="DLFA" name="DLFA" netid="HL" source="National Observatory of Athens Seismic Network" insttype="" lat="38.47836" lon="22.49583">
		<comp name="00.HNE" depth="0.0">
			<acc value="0.011659221990254" flag="0"/>
			<vel value="0.0149984919250477" flag="0"/>
			<psa03 value="0.0255771006073856" flag="0"/>
			<psa10 value="0.0325879600424105" flag="0"/>
			<psa30 value="0.0034211201740904" flag="0"/>
		</comp>
		<comp name="00.HNN" depth="0.0">
			<acc value="0.0115751560689623" flag="0"/>
			<vel value="0.0164894652025616" flag="0"/>
			<psa03 value="0.0191810727352766" flag="0"/>
			<psa10 value="0.0284376444793692" flag="0"/>
			<psa30 value="0.00219244419699946" flag="0"/>
		</comp>
		<comp name="00.HNZ" depth="0.0">
			<acc value="0.00748189623102712" flag="0"/>
			<vel value="0.00766320622642125" flag="0"/>
			<psa03 value="0.0185460163429582" flag="0"/>
			<psa10 value="0.00695289497016051" flag="0"/>
			<psa30 value="0.00159121832707178" flag="0"/>
		</comp>
	</station>
	<station code="KYMI" name="KYMI" netid="HL" source="National Observatory of Athens Seismic Network" insttype="" lat="38.633147" lon="24.100138">
		<comp name="--.HNE" depth="1.0">
			<acc value="0.00142400858996915" flag="0"/>
			<vel value="0.00205357868532831" flag="0"/>
			<psa03 value="0.0037785563003944" flag="0"/>
			<psa10 value="0.00325712428412347" flag="0"/>
			<psa30 value="0.000921123624087513" flag="0"/>
		</comp>
		<comp name="--.HNN" depth="1.0">
			<acc value="0.00135767528384671" flag="0"/>
			<vel value="0.00190164084254833" flag="0"/>
			<psa03 value="0.003608330831086" flag="0"/>
			<psa10 value="0.00346075363294409" flag="0"/>
			<psa30 value="0.000788093457324823" flag="0"/>
		</comp>
		<comp name="--.HNZ" depth="1.0">
			<acc value="0.000962530515575075" flag="0"/>
			<vel value="0.00164238492201074" flag="0"/>
			<psa03 value="0.00243926526773848" flag="0"/>
			<psa10 value="0.00258844608122445" flag="0"/>
			<psa30 value="0.000726885027565206" flag="0"/>
		</comp>
	</station>
	<station code="PATG" name="PATG" netid="HL" source="National Observatory of Athens Seismic Network" insttype="" lat="38.23865" lon="21.72657">
		<comp name="00.HNE" depth="0.0">
			<acc value="0.0149134754184561" flag="0"/>
			<vel value="0.0189344558280464" flag="0"/>
			<psa03 value="0.0282966349298547" flag="0"/>
			<psa10 value="0.0229989460673228" flag="0"/>
			<psa30 value="0.0100292652229162" flag="0"/>
		</comp>
		<comp name="00.HNN" depth="0.0">
			<acc value="0.0216897152925523" flag="0"/>
			<vel value="0.0181709349334662" flag="0"/>
			<psa03 value="0.0303894376302704" flag="0"/>
			<psa10 value="0.0293604737372806" flag="0"/>
			<psa30 value="0.0117404935834274" flag="0"/>
		</comp>
		<comp name="00.HNZ" depth="0.0">
			<acc value="0.0828902047188632" flag="0"/>
			<vel value="0.0129383179827048" flag="0"/>
			<psa03 value="0.0150337185663332" flag="0"/>
			<psa10 value="0.0244333354635603" flag="0"/>
			<psa30 value="0.00534828096401845" flag="0"/>
		</comp>
	</station>
	<station code="ANX" name="ANX" netid="HP" source="University of Patras, Seismological Laboratory (PSLNET)" insttype="" lat="38.5933" lon="21.9209">
		<comp name="--.HNE" depth="0.0">
			<acc value="0.039849022605827" flag="0"/>
			<vel value="0.038237298975489" flag="0"/>
			<psa03 value="0.10431282687937" flag="0"/>
			<psa10 value="0.0670229249398148" flag="0"/>
			<psa30 value="0.00429726550608498" flag="0"/>
		</comp>
		<comp name="--.HNN" depth="0.0">
			<acc value="0.0562323382740979" flag="0"/>
			<vel value="0.0405537748738133" flag="0"/>
			<psa03 value="0.232403874782639" flag="0"/>
			<psa10 value="0.0549651786732513" flag="0"/>
			<psa30 value="0.00517084754327733" flag="0"/>
		</comp>
		<comp name="--.HNZ" depth="0.0">
			<acc value="0.0242714358659118" flag="0"/>
			<vel value="0.0231918263882284" flag="0"/>
			<psa03 value="0.0458751379611968" flag="0"/>
			<psa10 value="0.0287536741647838" flag="0"/>
			<psa30 value="0.00330846354447397" flag="0"/>
		</comp>
	</station>
	<station code="GUR" name="GUR" netid="HP" source="University of Patras, Seismological Laboratory (PSLNET)" insttype="" lat="37.9363" lon="22.3423">
		<comp name="--.HNE" depth="0.0">
			<acc value="0.00563774955081165" flag="0"/>
			<vel value="0.00497753915566717" flag="0"/>
			<psa03 value="0.0197393401864946" flag="0"/>
			<psa10 value="0.00888653900207699" flag="0"/>
			<psa30 value="0.000694043789496642" flag="0"/>
		</comp>
		<comp name="--.HNN" depth="0.0">
			<acc value="0.00706867223783818" flag="0"/>
			<vel value="0.00618593772178565" flag="0"/>
			<psa03 value="0.0215861656546087" flag="0"/>
			<psa10 value="0.0103550594093604" flag="0"/>
			<psa30 value="0.000745285465256049" flag="0"/>
		</comp>
		<comp name="--.HNZ" depth="0.0">
			<acc value="0.00373286893188058" flag="0"/>
			<vel value="0.00346773533870876" flag="0"/>
			<psa03 value="0.00804758714959797" flag="0"/>
			<psa10 value="0.00710933752120881" flag="0"/>
			<psa30 value="0.000425019431492945" flag="0"/>
		</comp>
	</station>
	<station code="LTK" name="LTK" netid="HP" source="University of Patras, Seismological Laboratory (PSLNET)" insttype="" lat="38.0228" lon="22.9673">
		<comp name="--.HNE" depth="0.0">
			<acc value="0.00269883242998266" flag="0"/>
			<vel value="0.00339146771997454" flag="0"/>
			<psa03 value="0.00777396029923139" flag="0"/>
			<psa10 value="0.0049312532338363" flag="0"/>
			<psa30 value="0.000752015077726497" flag="0"/>
		</comp>
		<comp name="--.HNN" depth="0.0">
			<acc value="0.00321824490635295" flag="0"/>
			<vel value="0.00357058596767013" flag="0"/>
			<psa03 value="0.00863106460420431" flag="0"/>
			<psa10 value="0.00666747434370115" flag="0"/>
			<psa30 value="0.000803241492057927" flag="0"/>
		</comp>
		<comp name="--.HNZ" depth="0.0">
			<acc value="0.00225521749559493" flag="0"/>
			<vel value="0.00204828256867553" flag="0"/>
			<psa03 value="0.00732620407507318" flag="0"/>
			<psa10 value="0.00336709656924754" flag="0"/>
			<psa30 value="0.000851653344938582" flag="0"/>
		</comp>
	</station>
	<station code="PDO" name="PDO" netid="HP" source="University of Patras, Seismological Laboratory (PSLNET)" insttype="" lat="38.5986" lon="21.1833">
		<comp name="--.HNE" depth="0.0">
			<acc value="0.011367076427164" flag="0"/>
			<vel value="0.0118472964242691" flag="0"/>
			<psa03 value="0.0297873951437305" flag="0"/>
			<psa10 value="0.0110449926140411" flag="0"/>
			<psa30 value="0.00410532237412463" flag="0"/>
		</comp>
		<comp name="--.HNN" depth="0.0">
			<acc value="0.0122766245557262" flag="0"/>
			<vel value="0.0110760086853177" flag="0"/>
			<psa03 value="0.0289864384384443" flag="0"/>
			<psa10 value="0.0152475857027139" flag="0"/>
			<psa30 value="0.00206070276144551" flag="0"/>
		</comp>
		<comp name="--.HNZ" depth="0.0">
			<acc value="0.00683635053006341" flag="0"/>
			<vel value="0.00621389209307854" flag="0"/>
			<psa03 value="0.0176877094843828" flag="0"/>
			<psa10 value="0.00729112050094952" flag="0"/>
			<psa30 value="0.00214500417933385" flag="0"/>
		</comp>
	</station>
	<station code="PVO" name="PVO" netid="HP" source="University of Patras, Seismological Laboratory (PSLNET)" insttype="" lat="38.616" lon="21.525">
		<comp name="--.HNE" depth="0.0">
			<acc value="0.00841102310711904" flag="0"/>
			<vel value="0.00712636421781351" flag="0"/>
			<psa03 value="0.0303843409384464" flag="0"/>
			<psa10 value="0.00912456352004011" flag="0"/>
			<psa30 value="0.00303688242855767" flag="0"/>
		</comp>
		<comp name="--.HNN" depth="0.0">
			<acc value="0.00723873798083829" flag="0"/>
			<vel value="0.00592533088762457" flag="0"/>
			<psa03 value="0.0208585510474682" flag="0"/>
			<psa10 value="0.00686184315718993" flag="0"/>
			<psa30 value="0.00222731379860714" flag="0"/>
		</comp>
		<comp name="--.HNZ" depth="0.0">
			<acc value="0.00526762517773475" flag="0"/>
			<vel value="0.00826330251094327" flag="0"/>
			<psa03 value="0.0115163787890126" flag="0"/>
			<psa10 value="0.0121204260437476" flag="0"/>
			<psa30 value="0.00572166528224039" flag="0"/>
		</comp>
	</station>
	<station code="SERG" name="SERG" netid="HP" source="University of Patras, Seismological Laboratory (PSLNET)" insttype="" lat="38.4133" lon="22.0566">
		<comp name="--.HNE" depth="0.0">
			<acc value="0.0310823060550576" flag="0"/>
			<vel value="0.0305127885278534" flag="0"/>
			<psa03 value="0.0963190890004243" flag="0"/>
			<psa10 value="0.0583037810892247" flag="0"/>
			<psa30 value="0.00254307367448464" flag="0"/>
		</comp>
		<comp name="--.HNN" depth="0.0">
			<acc value="0.0270813769800256" flag="0"/>
			<vel value="0.0304880423605273" flag="0"/>
			<psa03 value="0.111002999237411" flag="0"/>
			<psa10 value="0.0307155603801112" flag="0"/>
			<psa30 value="0.00620487812605687" flag="0"/>
		</comp>
		<comp name="--.HNZ" depth="0.0">
			<acc value="0.0226883213353555" flag="0"/>
			<vel value="0.0253631949241837" flag="0"/>
			<psa03 value="0.0588811193352375" flag="0"/>
			<psa10 value="0.0373611899954636" flag="0"/>
			<psa30 value="0.00586805039620915" flag="0"/>
		</comp>
	</station>
	<station code="UPR" name="UPR" netid="HP" source="University of Patras, Seismological Laboratory (PSLNET)" insttype="" lat="38.2836" lon="21.7864">
		<comp name="--.HNE" depth="2.0">
			<acc value="0.00956166830539951" flag="0"/>
			<vel value="0.0156570750474131" flag="0"/>
			<psa03 value="0.0175355379453948" flag="0"/>
			<psa10 value="0.0270009543057146" flag="0"/>
			<psa30 value="0.00541847978103229" flag="0"/>
		</comp>
		<comp name="--.HNN" depth="2.0">
			<acc value="0.0136838929306876" flag="0"/>
			<vel value="0.0184728100437255" flag="0"/>
			<psa03 value="0.0214347663022599" flag="0"/>
			<psa10 value="0.0405926103113604" flag="0"/>
			<psa30 value="0.00553354782040652" flag="0"/>
		</comp>
		<comp name="--.HNZ" depth="2.0">
			<acc value="0.0101014395356943" flag="0"/>
			<vel value="0.0121304826937708" flag="0"/>
			<psa03 value="0.0144953873316119" flag="0"/>
			<psa10 value="0.0220389668483853" flag="0"/>
			<psa30 value="0.0028474969660335" flag="0"/>
		</comp>
	</station>
</stationlist>
