<?xml version="1.0" encoding="UTF-8" standalone="yes"?>
<!DOCTYPE earthquake SYSTEM "stationlist.dtd">
<stationlist created="" xmlns="ch.ethz.sed.shakemap.usgs.xml">
  <station code="KBN" name="KBN" netid="AC" insttype="" lat="40.6236" lon="20.7874">
    <comp name="--.HHN">
      <acc value="0.0081830413" flag="0"/>
      <vel value="0.0111293559" flag="0"/>
      <psa03 value="0.0146831855" flag="0"/>
      <psa10 value="0.0127324786" flag="0"/>
      <psa30 value="0.0019271796" flag="0"/>
    </comp>
    <comp name="--.HHZ">
      <acc value="0.0032867824" flag="0"/>
      <vel value="0.0048228680" flag="0"/>
      <psa03 value="0.0064918834" flag="0"/>
      <psa10 value="0.0077015122" flag="0"/>
      <psa30 value="0.0023968994" flag="0"/>
    </comp>
    <comp name="--.HHE">
      <acc value="0.0045708179" flag="0"/>
      <vel value="0.0071522063" flag="0"/>
      <psa03 value="0.0083310106" flag="0"/>
      <psa10 value="0.0128393252" flag="0"/>
      <psa30 value="0.0018048895" flag="0"/>
    </comp>
  </station>
  <station code="EVR" name="EVR" netid="HL" insttype="DR24" lat="38.9166" lon="21.8105">
    <comp name="--.HHN">
      <acc value="0.0426317770" flag="0"/>
      <vel value="0.0351192001" flag="0"/>
      <psa03 value="0.0971034397" flag="0"/>
      <psa10 value="0.0276195280" flag="0"/>
      <psa30 value="0.0055157297" flag="0"/>
    </comp>
    <comp name="--.HHE">
      <acc value="0.0210577955" flag="0"/>
      <vel value="0.0142810651" flag="0"/>
      <psa03 value="0.0389910448" flag="0"/>
      <psa10 value="0.0241796715" flag="0"/>
      <psa30 value="0.0029185952" flag="0"/>
    </comp>
    <comp name="--.HHZ">
      <acc value="0.0263437839" flag="0"/>
      <vel value="0.0207630943" flag="0"/>
      <psa03 value="0.0643972540" flag="0"/>
      <psa10 value="0.0313946429" flag="0"/>
      <psa30 value="0.0028542620" flag="0"/>
    </comp>
  </station>
  <station code="JAN" name="JAN" netid="HL" insttype="CMG3EPSC60_DR24" lat="39.6562" lon="20.8487">
    <comp name="--.HHN">
      <acc value="0.0099594786" flag="0"/>
      <vel value="0.0073485432" flag="0"/>
      <psa03 value="0.0227896273" flag="0"/>
      <psa10 value="0.0069457718" flag="0"/>
      <psa30 value="0.0023787609" flag="0"/>
    </comp>
    <comp name="--.HHE">
      <acc value="0.0100211315" flag="0"/>
      <vel value="0.0063926780" flag="0"/>
      <psa03 value="0.0230229829" flag="0"/>
      <psa10 value="0.0095796107" flag="0"/>
      <psa30 value="0.0030155273" flag="0"/>
    </comp>
    <comp name="--.HHZ">
      <acc value="0.0058871801" flag="0"/>
      <vel value="0.0046137649" flag="0"/>
      <psa03 value="0.0107052641" flag="0"/>
      <psa10 value="0.0050254448" flag="0"/>
      <psa30 value="0.0023855691" flag="0"/>
    </comp>
  </station>
  <station code="KZN" name="KZN" netid="HL" insttype="120" lat="40.3033" lon="21.7821">
    <comp name="--.HHE">
      <acc value="0.0554917505" flag="0"/>
      <vel value="0.0262056050" flag="0"/>
      <psa03 value="0.1491249222" flag="0"/>
      <psa10 value="0.0201236941" flag="0"/>
      <psa30 value="0.0022903729" flag="0"/>
    </comp>
    <comp name="--.HHN">
      <acc value="0.0285986059" flag="0"/>
      <vel value="0.0202356852" flag="0"/>
      <psa03 value="0.0588774035" flag="0"/>
      <psa10 value="0.0160795468" flag="0"/>
      <psa30 value="0.0047569806" flag="0"/>
    </comp>
    <comp name="--.HHZ">
      <acc value="0.0139636260" flag="0"/>
      <vel value="0.0074634577" flag="0"/>
      <psa03 value="0.0230121787" flag="0"/>
      <psa10 value="0.0124674445" flag="0"/>
      <psa30 value="0.0024303580" flag="0"/>
    </comp>
  </station>
  <station code="LKR" name="LKR" netid="HL" insttype="30" lat="38.6496" lon="22.9989">
    <comp name="--.HHE">
      <acc value="0.0043403476" flag="0"/>
      <vel value="0.0035383473" flag="0"/>
      <psa03 value="0.0083330702" flag="0"/>
      <psa10 value="0.0050434083" flag="0"/>
      <psa30 value="0.0009600663" flag="0"/>
    </comp>
    <comp name="--.HHN">
      <acc value="0.0037596294" flag="0"/>
      <vel value="0.0038760765" flag="0"/>
      <psa03 value="0.0108016078" flag="0"/>
      <psa10 value="0.0056559959" flag="0"/>
      <psa30 value="0.0014513055" flag="0"/>
    </comp>
    <comp name="--.HHZ">
      <acc value="0.0020932368" flag="0"/>
      <vel value="0.0027953599" flag="0"/>
      <psa03 value="0.0057252978" flag="0"/>
      <psa10 value="0.0035989996" flag="0"/>
      <psa30 value="0.0012391164" flag="0"/>
    </comp>
  </station>
  <station code="NEO" name="NEO" netid="HL" insttype="120" lat="39.3057" lon="23.2219">
    <comp name="--.HHE">
      <acc value="0.0621004656" flag="0"/>
      <vel value="0.0373640504" flag="0"/>
      <psa03 value="0.1743022636" flag="0"/>
      <psa10 value="0.0314772631" flag="0"/>
      <psa30 value="0.0022232551" flag="0"/>
    </comp>
    <comp name="--.HHN">
      <acc value="0.0602202110" flag="0"/>
      <vel value="0.0388803874" flag="0"/>
      <psa03 value="0.1264669810" flag="0"/>
      <psa10 value="0.0760932441" flag="0"/>
      <psa30 value="0.0031542701" flag="0"/>
    </comp>
    <comp name="--.HHZ">
      <acc value="0.0188684678" flag="0"/>
      <vel value="0.0188007395" flag="0"/>
      <psa03 value="0.0290037263" flag="0"/>
      <psa10 value="0.0313394390" flag="0"/>
      <psa30 value="0.0029783649" flag="0"/>
    </comp>
  </station>
  <station code="PENT" name="PENT" netid="HL" insttype="30" lat="40.1959" lon="21.1384">
    <comp name="--.HHZ">
      <acc value="0.0048558449" flag="0"/>
      <vel value="0.0046277790" flag="0"/>
      <psa03 value="0.0143991424" flag="0"/>
      <psa10 value="0.0057909742" flag="0"/>
      <psa30 value="0.0037504713" flag="0"/>
    </comp>
    <comp name="--.HHN">
      <acc value="0.0004360159" flag="0"/>
      <vel value="0.0002358244" flag="0"/>
      <psa03 value="0.0008160126" flag="0"/>
      <psa10 value="0.0003708267" flag="0"/>
      <psa30 value="0.0001338877" flag="0"/>
    </comp>
    <comp name="--.HHE">
      <acc value="0.0057477816" flag="0"/>
      <vel value="0.0045169252" flag="0"/>
      <psa03 value="0.0163790554" flag="0"/>
      <psa10 value="0.0081635074" flag="0"/>
      <psa30 value="0.0024338268" flag="0"/>
    </comp>
  </station>
  <station code="PLG" name="PLG" netid="HL" insttype="CMG3ESPC-120s" lat="40.3733" lon="23.4444">
    <comp name="--.HHZ">
      <acc value="0.0084465754" flag="0"/>
      <vel value="0.0091465392" flag="0"/>
      <psa03 value="0.0164846438" flag="0"/>
      <psa10 value="0.0100781154" flag="0"/>
      <psa30 value="0.0032353974" flag="0"/>
    </comp>
  </station>
  <station code="TETR" name="TETR" netid="HL" insttype="60" lat="39.3445" lon="21.2747">
    <comp name="--.HHE">
      <acc value="0.1053610936" flag="0"/>
      <vel value="0.0296082565" flag="0"/>
      <psa03 value="0.1689870390" flag="0"/>
      <psa10 value="0.0276535653" flag="0"/>
      <psa30 value="0.0029602425" flag="0"/>
    </comp>
    <comp name="--.HHZ">
      <acc value="0.0343737028" flag="0"/>
      <vel value="0.0164641530" flag="0"/>
      <psa03 value="0.0994528118" flag="0"/>
      <psa10 value="0.0151904035" flag="0"/>
      <psa30 value="0.0020160652" flag="0"/>
    </comp>
    <comp name="--.HHN">
      <acc value="0.1019110521" flag="0"/>
      <vel value="0.0280645645" flag="0"/>
      <psa03 value="0.1866300146" flag="0"/>
      <psa10 value="0.0203676715" flag="0"/>
      <psa30 value="0.0037865821" flag="0"/>
    </comp>
  </station>
  <station code="THL" name="THL" netid="HL" insttype="120" lat="39.5647" lon="22.0144">
    <comp name="--.HHE">
      <acc value="0.1436749245" flag="0"/>
      <vel value="0.0535452282" flag="0"/>
      <psa03 value="0.1299445839" flag="0"/>
      <psa10 value="0.0381180162" flag="0"/>
      <psa30 value="0.0098192902" flag="0"/>
    </comp>
    <comp name="--.HHN">
      <acc value="0.1511682741" flag="0"/>
      <vel value="0.0629495172" flag="0"/>
      <psa03 value="0.2035363977" flag="0"/>
      <psa10 value="0.0509744008" flag="0"/>
      <psa30 value="0.0165780574" flag="0"/>
    </comp>
    <comp name="--.HHZ">
      <acc value="0.1164998153" flag="0"/>
      <vel value="0.0594604182" flag="0"/>
      <psa03 value="0.1291351947" flag="0"/>
      <psa10 value="0.0645127361" flag="0"/>
      <psa30 value="0.0168732012" flag="0"/>
    </comp>
  </station>
  <station code="AMPL" name="AMPL" netid="HP" insttype="Compact," lat="38.9224" lon="21.2135">
    <comp name="--.HHN">
      <acc value="0.0078073078" flag="0"/>
      <vel value="0.0085495125" flag="0"/>
      <psa03 value="0.0174088839" flag="0"/>
      <psa10 value="0.0085748879" flag="0"/>
      <psa30 value="0.0022939221" flag="0"/>
    </comp>
    <comp name="--.HHE">
      <acc value="0.0081011094" flag="0"/>
      <vel value="0.0086914127" flag="0"/>
      <psa03 value="0.0222697304" flag="0"/>
      <psa10 value="0.0131550775" flag="0"/>
      <psa30 value="0.0014373509" flag="0"/>
    </comp>
    <comp name="--.HHZ">
      <acc value="0.0046055459" flag="0"/>
      <vel value="0.0047673593" flag="0"/>
      <psa03 value="0.0097242633" flag="0"/>
      <psa10 value="0.0045792465" flag="0"/>
      <psa30 value="0.0009988081" flag="0"/>
    </comp>
  </station>
  <station code="ANX" name="ANX" netid="HP" insttype="120" lat="38.5933" lon="21.9209">
    <comp name="--.HHE">
      <acc value="0.0326867560" flag="0"/>
      <vel value="0.0320001751" flag="0"/>
      <psa03 value="0.0901296007" flag="0"/>
      <psa10 value="0.0555471462" flag="0"/>
      <psa30 value="0.0032208561" flag="0"/>
    </comp>
    <comp name="--.HHN">
      <acc value="0.0444577603" flag="0"/>
      <vel value="0.0320950917" flag="0"/>
      <psa03 value="0.1877118165" flag="0"/>
      <psa10 value="0.0422725108" flag="0"/>
      <psa30 value="0.0038948358" flag="0"/>
    </comp>
    <comp name="--.HHZ">
      <acc value="0.0201117692" flag="0"/>
      <vel value="0.0188884128" flag="0"/>
      <psa03 value="0.0378295611" flag="0"/>
      <psa10 value="0.0232202858" flag="0"/>
      <psa30 value="0.0023896740" flag="0"/>
    </comp>
  </station>
  <station code="PRMD" name="PRMD" netid="HP" insttype="120P," lat="39.5299" lon="21.0965">
    <comp name="--.HHE">
      <acc value="0.0170931024" flag="0"/>
      <vel value="0.0137243720" flag="0"/>
      <psa03 value="0.0418441194" flag="0"/>
      <psa10 value="0.0163447309" flag="0"/>
      <psa30 value="0.0025275308" flag="0"/>
    </comp>
    <comp name="--.HHZ">
      <acc value="0.0153722138" flag="0"/>
      <vel value="0.0111844587" flag="0"/>
      <psa03 value="0.0487857929" flag="0"/>
      <psa10 value="0.0150797436" flag="0"/>
      <psa30 value="0.0024528975" flag="0"/>
    </comp>
    <comp name="--.HHN">
      <acc value="0.0207672864" flag="0"/>
      <vel value="0.0124979850" flag="0"/>
      <psa03 value="0.0578076067" flag="0"/>
      <psa10 value="0.0179300617" flag="0"/>
      <psa30 value="0.0025713947" flag="0"/>
    </comp>
  </station>
  <station code="PVO" name="PVO" netid="HP" insttype="120P," lat="38.616" lon="21.525">
    <comp name="--.HHZ">
      <acc value="0.0054984318" flag="0"/>
      <vel value="0.0080374653" flag="0"/>
      <psa03 value="0.0112964416" flag="0"/>
      <psa10 value="0.0126754251" flag="0"/>
      <psa30 value="0.0050597233" flag="0"/>
    </comp>
    <comp name="--.HHN">
      <acc value="0.0074219963" flag="0"/>
      <vel value="0.0058187315" flag="0"/>
      <psa03 value="0.0201013246" flag="0"/>
      <psa10 value="0.0066615878" flag="0"/>
      <psa30 value="0.0019452056" flag="0"/>
    </comp>
    <comp name="--.HHE">
      <acc value="0.0084714295" flag="0"/>
      <vel value="0.0068252994" flag="0"/>
      <psa03 value="0.0306929988" flag="0"/>
      <psa10 value="0.0091163968" flag="0"/>
      <psa30 value="0.0028100214" flag="0"/>
    </comp>
  </station>
  <station code="AGG" name="AGG" netid="HT" insttype="120P," lat="39.0211" lon="22.336">
    <comp name="--.HHN">
      <acc value="0.0478772469" flag="0"/>
      <vel value="0.0294034103" flag="0"/>
      <psa03 value="0.1163325237" flag="0"/>
      <psa10 value="0.0318353766" flag="0"/>
      <psa30 value="0.0043040790" flag="0"/>
    </comp>
    <comp name="--.HHE">
      <acc value="0.0533675997" flag="0"/>
      <vel value="0.0280169001" flag="0"/>
      <psa03 value="0.1418483218" flag="0"/>
      <psa10 value="0.0461427882" flag="0"/>
      <psa30 value="0.0031161965" flag="0"/>
    </comp>
    <comp name="--.HHZ">
      <acc value="0.0318387771" flag="0"/>
      <vel value="0.0185518110" flag="0"/>
      <psa03 value="0.0517339208" flag="0"/>
      <psa10 value="0.0361734042" flag="0"/>
      <psa30 value="0.0044902513" flag="0"/>
    </comp>
  </station>
  <station code="GRG" name="GRG" netid="HT" insttype="100" lat="40.957" lon="22.401">
    <comp name="--.HHE">
      <acc value="0.0153881287" flag="0"/>
      <vel value="0.0143822882" flag="0"/>
      <psa03 value="0.0198654516" flag="0"/>
      <psa10 value="0.0373070244" flag="0"/>
      <psa30 value="0.0050341255" flag="0"/>
    </comp>
    <comp name="--.HHZ">
      <acc value="0.0082101494" flag="0"/>
      <vel value="0.0073455393" flag="0"/>
      <psa03 value="0.0179415557" flag="0"/>
      <psa10 value="0.0097176475" flag="0"/>
      <psa30 value="0.0010616061" flag="0"/>
    </comp>
    <comp name="--.HHN">
      <acc value="0.0188666304" flag="0"/>
      <vel value="0.0233461724" flag="0"/>
      <psa03 value="0.0294956103" flag="0"/>
      <psa10 value="0.0242198693" flag="0"/>
      <psa30 value="0.0054021622" flag="0"/>
    </comp>
  </station>
  <station code="KPRO" name="KPRO" netid="HT" insttype="100" lat="39.9549" lon="21.3632">
    <comp name="--.HHN">
      <acc value="0.0258718007" flag="0"/>
      <vel value="0.0203947084" flag="0"/>
      <psa03 value="0.1179041559" flag="0"/>
      <psa10 value="0.0272305128" flag="0"/>
      <psa30 value="0.0078749809" flag="0"/>
    </comp>
    <comp name="--.HHE">
      <acc value="0.0224859403" flag="0"/>
      <vel value="0.0166714496" flag="0"/>
      <psa03 value="0.0788611462" flag="0"/>
      <psa10 value="0.0233792588" flag="0"/>
      <psa30 value="0.0040831087" flag="0"/>
    </comp>
    <comp name="--.HHZ">
      <acc value="0.0143031816" flag="0"/>
      <vel value="0.0121274268" flag="0"/>
      <psa03 value="0.0361925566" flag="0"/>
      <psa10 value="0.0236189209" flag="0"/>
      <psa30 value="0.0020496562" flag="0"/>
    </comp>
  </station>
  <station code="LIT" name="LIT" netid="HT" insttype="100" lat="40.1033" lon="22.4892">
    <comp name="--.HHN">
      <acc value="0.0902177997" flag="0"/>
      <vel value="0.0489875422" flag="0"/>
      <psa03 value="0.1660290718" flag="0"/>
      <psa10 value="0.0446252495" flag="0"/>
      <psa30 value="0.0101057596" flag="0"/>
    </comp>
    <comp name="--.HHE">
      <acc value="0.1370460082" flag="0"/>
      <vel value="0.0569694557" flag="0"/>
      <psa03 value="0.1210823071" flag="0"/>
      <psa10 value="0.0678591633" flag="0"/>
      <psa30 value="0.0072541146" flag="0"/>
    </comp>
    <comp name="--.HHZ">
      <acc value="0.0676754013" flag="0"/>
      <vel value="0.0374963477" flag="0"/>
      <psa03 value="0.1062057639" flag="0"/>
      <psa10 value="0.0575346002" flag="0"/>
      <psa30 value="0.0113391938" flag="0"/>
    </comp>
  </station>
  <station code="PAIG" name="PAIG" netid="HT" insttype="100" lat="39.9363" lon="23.6768">
    <comp name="--.HHE">
      <acc value="0.0038376011" flag="0"/>
      <vel value="0.0026566518" flag="0"/>
      <psa03 value="0.0074860470" flag="0"/>
      <psa10 value="0.0038628343" flag="0"/>
      <psa30 value="0.0004229045" flag="0"/>
    </comp>
    <comp name="--.HHN">
      <acc value="0.0021585464" flag="0"/>
      <vel value="0.0020681165" flag="0"/>
      <psa03 value="0.0064704711" flag="0"/>
      <psa10 value="0.0029930887" flag="0"/>
      <psa30 value="0.0006292788" flag="0"/>
    </comp>
    <comp name="--.HHZ">
      <acc value="0.0018116191" flag="0"/>
      <vel value="0.0015086527" flag="0"/>
      <psa03 value="0.0040593081" flag="0"/>
      <psa10 value="0.0030742572" flag="0"/>
      <psa30 value="0.0002359567" flag="0"/>
    </comp>
  </station>
  <station code="THE" name="THE" netid="HT" insttype="30s-100Hz," lat="40.6319" lon="22.9628">
    <comp name="--.HHE">
      <acc value="0.0064015744" flag="0"/>
      <vel value="0.0068142346" flag="0"/>
      <psa03 value="0.0081367368" flag="0"/>
      <psa10 value="0.0126219419" flag="0"/>
      <psa30 value="0.0008766275" flag="0"/>
    </comp>
    <comp name="--.HHZ">
      <acc value="0.0035852917" flag="0"/>
      <vel value="0.0051263266" flag="0"/>
      <psa03 value="0.0047370467" flag="0"/>
      <psa10 value="0.0072973156" flag="0"/>
      <psa30 value="0.0020028896" flag="0"/>
    </comp>
    <comp name="--.HHN">
      <acc value="0.0069310828" flag="0"/>
      <vel value="0.0072715170" flag="0"/>
      <psa03 value="0.0094821165" flag="0"/>
      <psa10 value="0.0146646972" flag="0"/>
      <psa30 value="0.0017589921" flag="0"/>
    </comp>
  </station>
  <station code="TYRN" name="TYRN" netid="HT" insttype="120P," lat="39.711" lon="22.2325">
    <comp name="--.HHZ">
      <acc value="0.4372382516" flag="0"/>
      <vel value="0.2324432927" flag="0"/>
      <psa03 value="0.9861180468" flag="0"/>
      <psa10 value="0.1889458609" flag="0"/>
      <psa30 value="0.0151438519" flag="0"/>
    </comp>
    <comp name="--.HHE">
      <acc value="0.6101779005" flag="0"/>
      <vel value="0.5188234613" flag="0"/>
      <psa03 value="1.3322313512" flag="0"/>
      <psa10 value="0.4586011579" flag="0"/>
      <psa30 value="0.0298024310" flag="0"/>
    </comp>
    <comp name="--.HHN">
      <acc value="0.5511531214" flag="0"/>
      <vel value="0.2736666854" flag="0"/>
      <psa03 value="1.0330911750" flag="0"/>
      <psa10 value="0.2057922575" flag="0"/>
      <psa30 value="0.0136660664" flag="0"/>
    </comp>
  </station>
  <station code="XOR" name="XOR" netid="HT" insttype="Compact," lat="39.366" lon="23.1918">
    <comp name="--.HHE">
      <acc value="0.0496863019" flag="0"/>
      <vel value="0.0424175015" flag="0"/>
      <psa03 value="0.1363635873" flag="0"/>
      <psa10 value="0.0534445194" flag="0"/>
      <psa30 value="0.0079835443" flag="0"/>
    </comp>
    <comp name="--.HHN">
      <acc value="0.0757283433" flag="0"/>
      <vel value="0.0546806508" flag="0"/>
      <psa03 value="0.2408394767" flag="0"/>
      <psa10 value="0.0902121563" flag="0"/>
      <psa30 value="0.0060401104" flag="0"/>
    </comp>
    <comp name="--.HHZ">
      <acc value="0.0347590652" flag="0"/>
      <vel value="0.0385925317" flag="0"/>
      <psa03 value="0.0969704378" flag="0"/>
      <psa10 value="0.0331964391" flag="0"/>
      <psa30 value="0.0075677460" flag="0"/>
    </comp>
  </station>
  <station code="THL" name="THL" netid="MN" insttype="" lat="39.5647" lon="22.0144">
    <comp name="--.HHE">
      <acc value="0.1436749245" flag="0"/>
      <vel value="0.0535452282" flag="0"/>
      <psa03 value="0.1299445839" flag="0"/>
      <psa10 value="0.0381180162" flag="0"/>
      <psa30 value="0.0098192902" flag="0"/>
    </comp>
    <comp name="--.HHN">
      <acc value="0.1511682741" flag="0"/>
      <vel value="0.0629495172" flag="0"/>
      <psa03 value="0.2035363977" flag="0"/>
      <psa10 value="0.0509744008" flag="0"/>
      <psa30 value="0.0165780574" flag="0"/>
    </comp>
    <comp name="--.HHZ">
      <acc value="0.1164998153" flag="0"/>
      <vel value="0.0594604182" flag="0"/>
      <psa03 value="0.1291351947" flag="0"/>
      <psa10 value="0.0645127361" flag="0"/>
      <psa30 value="0.0168732012" flag="0"/>
    </comp>
  </station>
</stationlist>
