<?xml version="1.0" encoding="UTF-8" standalone="yes"?>
<!DOCTYPE earthquake SYSTEM "stationlist.dtd">
<stationlist created="" xmlns="ch.ethz.sed.shakemap.usgs.xml">
  <station code="BISRR" name="BISRR" netid="RO" insttype="CMG40T.1to100/Basalt" lat="45.5481" lon="26.7099">
    <comp name="--.HHE">
      <acc value="0.0565120007" flag="0"/>
      <vel value="0.0194164590" flag="0"/>
      <psa03 value="0.1196959838" flag="0"/>
      <psa10 value="0.0143557673" flag="0"/>
      <psa30 value="0.0007361176" flag="0"/>
    </comp>
    <comp name="--.HHN">
      <acc value="0.0015574518" flag="0"/>
      <vel value="0.0003863461" flag="0"/>
      <psa03 value="0.0012025660" flag="0"/>
      <psa10 value="0.0000858444" flag="0"/>
      <psa30 value="0.0000133949" flag="0"/>
    </comp>
    <comp name="--.HHZ">
      <acc value="0.0334512457" flag="0"/>
      <vel value="0.0121818072" flag="0"/>
      <psa03 value="0.0669678622" flag="0"/>
      <psa10 value="0.0061470882" flag="0"/>
      <psa30 value="0.0004273990" flag="0"/>
    </comp>
  </station>
  <station code="GHRR" name="GHRR" netid="RO" insttype="w/attenuator" lat="46.0605" lon="27.408">
    <comp name="--.HHE">
      <acc value="0.1525190027" flag="0"/>
      <vel value="0.0445144784" flag="0"/>
      <psa03 value="0.3353891163" flag="0"/>
      <psa10 value="0.0188379577" flag="0"/>
      <psa30 value="0.0013888480" flag="0"/>
    </comp>
    <comp name="--.HHN">
      <acc value="0.1743405460" flag="0"/>
      <vel value="0.0650833180" flag="0"/>
      <psa03 value="0.2287467583" flag="0"/>
      <psa10 value="0.0148061562" flag="0"/>
      <psa30 value="0.0011599299" flag="0"/>
    </comp>
    <comp name="--.HHZ">
      <acc value="0.0634226680" flag="0"/>
      <vel value="0.0201452338" flag="0"/>
      <psa03 value="0.1303058857" flag="0"/>
      <psa10 value="0.0035188017" flag="0"/>
      <psa30 value="0.0004075236" flag="0"/>
    </comp>
  </station>
  <station code="MLR" name="MLR" netid="RO" insttype="330HR" lat="45.4909" lon="25.945">
    <comp name="--.HHN">
      <acc value="0.0814098267" flag="0"/>
      <vel value="0.0332565232" flag="0"/>
      <psa03 value="0.1423577671" flag="0"/>
      <psa10 value="0.0140965233" flag="0"/>
      <psa30 value="0.0011952778" flag="0"/>
    </comp>
    <comp name="--.HHE">
      <acc value="0.0966217528" flag="0"/>
      <vel value="0.0383789828" flag="0"/>
      <psa03 value="0.1738552661" flag="0"/>
      <psa10 value="0.0293490758" flag="0"/>
      <psa30 value="0.0023876506" flag="0"/>
    </comp>
    <comp name="--.HHZ">
      <acc value="0.0178877547" flag="0"/>
      <vel value="0.0047768114" flag="0"/>
      <psa03 value="0.0158903671" flag="0"/>
      <psa10 value="0.0018316051" flag="0"/>
      <psa30 value="0.0001520220" flag="0"/>
    </comp>
  </station>
  <station code="PLOR" name="PLOR" netid="RO" insttype="330" lat="45.8512" lon="26.6498">
    <comp name="--.HHE">
      <acc value="0.0149409905" flag="0"/>
      <vel value="0.0058598375" flag="0"/>
      <psa03 value="0.0455661804" flag="0"/>
      <psa10 value="0.0023623141" flag="0"/>
      <psa30 value="0.0001976179" flag="0"/>
    </comp>
    <comp name="--.HHZ">
      <acc value="0.0094896588" flag="0"/>
      <vel value="0.0028457505" flag="0"/>
      <psa03 value="0.0181863888" flag="0"/>
      <psa10 value="0.0007201452" flag="0"/>
      <psa30 value="0.0000803315" flag="0"/>
    </comp>
    <comp name="--.HHN">
      <acc value="0.0178345161" flag="0"/>
      <vel value="0.0060791399" flag="0"/>
      <psa03 value="0.0363519636" flag="0"/>
      <psa10 value="0.0024672659" flag="0"/>
      <psa30 value="0.0001846886" flag="0"/>
    </comp>
  </station>
  <station code="PLOR4" name="PLOR4" netid="RO" insttype="330" lat="45.8512" lon="26.6498">
    <comp name="--.HHN">
      <acc value="0.0178345161" flag="0"/>
      <vel value="0.0060791399" flag="0"/>
      <psa03 value="0.0363519636" flag="0"/>
      <psa10 value="0.0024672659" flag="0"/>
      <psa30 value="0.0001846886" flag="0"/>
    </comp>
    <comp name="--.HHZ">
      <acc value="0.0094896588" flag="0"/>
      <vel value="0.0028457505" flag="0"/>
      <psa03 value="0.0181863888" flag="0"/>
      <psa10 value="0.0007201452" flag="0"/>
      <psa30 value="0.0000803315" flag="0"/>
    </comp>
    <comp name="--.HHE">
      <acc value="0.0149409905" flag="0"/>
      <vel value="0.0058598375" flag="0"/>
      <psa03 value="0.0455661804" flag="0"/>
      <psa10 value="0.0023623141" flag="0"/>
      <psa30 value="0.0001976179" flag="0"/>
    </comp>
  </station>
  <station code="VRI" name="VRI" netid="RO" insttype="Linear" lat="45.8657" lon="26.7277">
    <comp name="--.HHE">
      <acc value="0.0561317262" flag="0"/>
      <vel value="0.0213361224" flag="0"/>
      <psa03 value="0.2233027631" flag="0"/>
      <psa10 value="0.0057660080" flag="0"/>
      <psa30 value="0.0006038456" flag="0"/>
    </comp>
    <comp name="--.HHN">
      <acc value="0.0382858826" flag="0"/>
      <vel value="0.0143566415" flag="0"/>
      <psa03 value="0.1221266376" flag="0"/>
      <psa10 value="0.0049227362" flag="0"/>
      <psa30 value="0.0003159917" flag="0"/>
    </comp>
    <comp name="--.HHZ">
      <acc value="0.0160700081" flag="0"/>
      <vel value="0.0042103706" flag="0"/>
      <psa03 value="0.0300904133" flag="0"/>
      <psa10 value="0.0020437315" flag="0"/>
      <psa30 value="0.0001342194" flag="0"/>
    </comp>
  </station>
</stationlist>
