<?xml version="1.0" encoding="UTF-8" standalone="yes"?>
<!DOCTYPE earthquake SYSTEM "stationlist.dtd">
<stationlist created="" xmlns="ch.ethz.sed.shakemap.usgs.xml">
  <station code="BIR" name="BIR" netid="RO" insttype="MBB2/Quanterra" lat="46.2334" lon="27.6436">
    <comp name="--.HHE">
      <acc value="0.1573423923" flag="0"/>
      <vel value="0.0494359263" flag="0"/>
      <psa03 value="0.1740091886" flag="0"/>
      <psa10 value="0.0105770703" flag="0"/>
      <psa30 value="0.0007520102" flag="0"/>
    </comp>
    <comp name="--.HHZ">
      <acc value="0.0809311520" flag="0"/>
      <vel value="0.0212709089" flag="0"/>
      <psa03 value="0.1604094942" flag="0"/>
      <psa10 value="0.0048491961" flag="0"/>
      <psa30 value="0.0004738462" flag="0"/>
    </comp>
    <comp name="--.HHN">
      <acc value="0.1125862885" flag="0"/>
      <vel value="0.0336675404" flag="0"/>
      <psa03 value="0.1069294678" flag="0"/>
      <psa10 value="0.0139497405" flag="0"/>
      <psa30 value="0.0010542923" flag="0"/>
    </comp>
  </station>
  <station code="BISRR" name="BISRR" netid="RO" insttype="CMG40T.1to100/Basalt" lat="45.5481" lon="26.7099">
    <comp name="--.HHZ">
      <acc value="0.0408949114" flag="0"/>
      <vel value="0.0136485918" flag="0"/>
      <psa03 value="0.1126893277" flag="0"/>
      <psa10 value="0.0154445416" flag="0"/>
      <psa30 value="0.0005768634" flag="0"/>
    </comp>
    <comp name="--.HHN">
      <acc value="0.0740324299" flag="0"/>
      <vel value="0.0312620877" flag="0"/>
      <psa03 value="0.1557290372" flag="0"/>
      <psa10 value="0.0230943531" flag="0"/>
      <psa30 value="0.0010983383" flag="0"/>
    </comp>
    <comp name="--.HHE">
      <acc value="0.0590740415" flag="0"/>
      <vel value="0.0303070199" flag="0"/>
      <psa03 value="0.1738865856" flag="0"/>
      <psa10 value="0.0224728766" flag="0"/>
      <psa30 value="0.0014960141" flag="0"/>
    </comp>
  </station>
  <station code="BOSR" name="BOSR" netid="RO" insttype="Seismometer/Basalt" lat="46.0749" lon="25.6611">
    <comp name="--.HHZ">
      <acc value="0.0307257166" flag="0"/>
      <vel value="0.0078378435" flag="0"/>
      <psa03 value="0.0249716442" flag="0"/>
      <psa10 value="0.0012656316" flag="0"/>
      <psa30 value="0.0001352719" flag="0"/>
    </comp>
    <comp name="--.HHN">
      <acc value="0.0215873587" flag="0"/>
      <vel value="0.0062505137" flag="0"/>
      <psa03 value="0.0361771563" flag="0"/>
      <psa10 value="0.0032037015" flag="0"/>
      <psa30 value="0.0001828538" flag="0"/>
    </comp>
    <comp name="--.HHE">
      <acc value="0.0158208700" flag="0"/>
      <vel value="0.0049754760" flag="0"/>
      <psa03 value="0.0343790385" flag="0"/>
      <psa10 value="0.0026147865" flag="0"/>
      <psa30 value="0.0001896810" flag="0"/>
    </comp>
  </station>
  <station code="COPR" name="COPR" netid="RO" insttype="200" lat="45.8442" lon="26.1687">
    <comp name="--.HNE">
      <acc value="0.0205175452" flag="0"/>
      <vel value="0.0099226297" flag="0"/>
      <psa03 value="0.0533955838" flag="0"/>
      <psa10 value="0.0067678899" flag="0"/>
      <psa30 value="0.0004160026" flag="0"/>
    </comp>
    <comp name="--.HNN">
      <acc value="0.0312540909" flag="0"/>
      <vel value="0.0123041390" flag="0"/>
      <psa03 value="0.0868050953" flag="0"/>
      <psa10 value="0.0050638463" flag="0"/>
      <psa30 value="0.0002764719" flag="0"/>
    </comp>
    <comp name="--.HNZ">
      <acc value="0.0319949229" flag="0"/>
      <vel value="0.0102222680" flag="0"/>
      <psa03 value="0.0564786885" flag="0"/>
      <psa10 value="0.0027816164" flag="0"/>
      <psa30 value="0.0003662936" flag="0"/>
    </comp>
  </station>
  <station code="DOPR" name="DOPR" netid="RO" insttype="330" lat="45.9675" lon="25.3886">
    <comp name="--.HHZ">
      <acc value="0.0328692953" flag="0"/>
      <vel value="0.0115316676" flag="0"/>
      <psa03 value="0.0330588690" flag="0"/>
      <psa10 value="0.0018792037" flag="0"/>
      <psa30 value="0.0002228879" flag="0"/>
    </comp>
    <comp name="--.HHN">
      <acc value="0.0325905595" flag="0"/>
      <vel value="0.0076587123" flag="0"/>
      <psa03 value="0.0278292266" flag="0"/>
      <psa10 value="0.0009368068" flag="0"/>
      <psa30 value="0.0001069991" flag="0"/>
    </comp>
    <comp name="--.HHE">
      <acc value="0.0354937934" flag="0"/>
      <vel value="0.0074849641" flag="0"/>
      <psa03 value="0.0257123327" flag="0"/>
      <psa10 value="0.0023091350" flag="0"/>
      <psa30 value="0.0001566833" flag="0"/>
    </comp>
  </station>
  <station code="GISR" name="GISR" netid="RO" insttype="2.5V" lat="45.4411" lon="28.0541">
    <comp name="--.HNN">
      <acc value="0.0502467193" flag="0"/>
      <vel value="0.0123299096" flag="0"/>
      <psa03 value="0.0570489671" flag="0"/>
      <psa10 value="0.0032607880" flag="0"/>
      <psa30 value="0.0006778611" flag="0"/>
    </comp>
    <comp name="--.HNZ">
      <acc value="0.0647492097" flag="0"/>
      <vel value="0.0107137836" flag="0"/>
      <psa03 value="0.0463233557" flag="0"/>
      <psa10 value="0.0026442643" flag="0"/>
      <psa30 value="0.0004035949" flag="0"/>
    </comp>
    <comp name="--.HNE">
      <acc value="0.0777964924" flag="0"/>
      <vel value="0.0142435862" flag="0"/>
      <psa03 value="0.0560582429" flag="0"/>
      <psa10 value="0.0064622952" flag="0"/>
      <psa30 value="0.0007340176" flag="0"/>
    </comp>
  </station>
  <station code="ISR" name="ISR" netid="RO" insttype="CMG3ESP/Quanterra" lat="45.1187" lon="26.5432">
    <comp name="--.HHN">
      <acc value="0.0447525765" flag="0"/>
      <vel value="0.0109550249" flag="0"/>
      <psa03 value="0.0876962931" flag="0"/>
      <psa10 value="0.0065689376" flag="0"/>
      <psa30 value="0.0004735100" flag="0"/>
    </comp>
    <comp name="--.HHE">
      <acc value="0.0504363831" flag="0"/>
      <vel value="0.0089417693" flag="0"/>
      <psa03 value="0.0697015249" flag="0"/>
      <psa10 value="0.0058884236" flag="0"/>
      <psa30 value="0.0003981544" flag="0"/>
    </comp>
    <comp name="--.HHZ">
      <acc value="0.0251363531" flag="0"/>
      <vel value="0.0061375843" flag="0"/>
      <psa03 value="0.0436903097" flag="0"/>
      <psa10 value="0.0040222828" flag="0"/>
      <psa30 value="0.0001899224" flag="0"/>
    </comp>
  </station>
  <station code="IZVR" name="IZVR" netid="RO" insttype="CMG40T.1to100/Quanterra" lat="45.5442" lon="27.7655">
    <comp name="--.HHE">
      <acc value="0.0779488245" flag="0"/>
      <vel value="0.0193052022" flag="0"/>
      <psa03 value="0.0863838291" flag="0"/>
      <psa10 value="0.0040365058" flag="0"/>
      <psa30 value="0.0002619303" flag="0"/>
    </comp>
    <comp name="--.HHN">
      <acc value="0.0996252815" flag="0"/>
      <vel value="0.0247314728" flag="0"/>
      <psa03 value="0.0700494469" flag="0"/>
      <psa10 value="0.0056721021" flag="0"/>
      <psa30 value="0.0003843791" flag="0"/>
    </comp>
    <comp name="--.HHZ">
      <acc value="0.0367180258" flag="0"/>
      <vel value="0.0051373556" flag="0"/>
      <psa03 value="0.0286421286" flag="0"/>
      <psa10 value="0.0010271126" flag="0"/>
      <psa30 value="0.0000740561" flag="0"/>
    </comp>
  </station>
  <station code="MLR" name="MLR" netid="RO" insttype="330HR" lat="45.4909" lon="25.945">
    <comp name="--.HHN">
      <acc value="0.0075418239" flag="0"/>
      <vel value="0.0054021026" flag="0"/>
      <psa03 value="0.0267106796" flag="0"/>
      <psa10 value="0.0034980223" flag="0"/>
      <psa30 value="0.0005414390" flag="0"/>
    </comp>
    <comp name="--.HHZ">
      <acc value="0.0061380664" flag="0"/>
      <vel value="0.0030407933" flag="0"/>
      <psa03 value="0.0127297066" flag="0"/>
      <psa10 value="0.0025299944" flag="0"/>
      <psa30 value="0.0002125549" flag="0"/>
    </comp>
    <comp name="--.HHE">
      <acc value="0.0110586179" flag="0"/>
      <vel value="0.0064076978" flag="0"/>
      <psa03 value="0.0295604219" flag="0"/>
      <psa10 value="0.0045794795" flag="0"/>
      <psa30 value="0.0003001074" flag="0"/>
    </comp>
  </station>
  <station code="NARR" name="NARR" netid="RO" insttype="OBS-SIO/Centaur" lat="45.8165" lon="26.7368">
    <comp name="--.HHE">
      <acc value="0.0740651350" flag="0"/>
      <vel value="0.0226067908" flag="0"/>
      <psa03 value="0.1388813176" flag="0"/>
      <psa10 value="0.0091689599" flag="0"/>
      <psa30 value="0.0008088072" flag="0"/>
    </comp>
    <comp name="--.HHN">
      <acc value="0.0682829769" flag="0"/>
      <vel value="0.0337475732" flag="0"/>
      <psa03 value="0.1457588307" flag="0"/>
      <psa10 value="0.0101812780" flag="0"/>
      <psa30 value="0.0008597093" flag="0"/>
    </comp>
    <comp name="--.HHZ">
      <acc value="0.0394950240" flag="0"/>
      <vel value="0.0129568110" flag="0"/>
      <psa03 value="0.0914068501" flag="0"/>
      <psa10 value="0.0045921498" flag="0"/>
      <psa30 value="0.0002609862" flag="0"/>
    </comp>
  </station>
  <station code="NEGRR" name="NEGRR" netid="RO" insttype="CMG40T.1to100/Quanterra" lat="45.5373" lon="27.8771">
    <comp name="--.HHE">
      <acc value="0.0813121431" flag="0"/>
      <vel value="0.0156337566" flag="0"/>
      <psa03 value="0.0611739644" flag="0"/>
      <psa10 value="0.0021287462" flag="0"/>
      <psa30 value="0.0001879777" flag="0"/>
    </comp>
    <comp name="--.HHN">
      <acc value="0.0670343431" flag="0"/>
      <vel value="0.0132289411" flag="0"/>
      <psa03 value="0.0436465104" flag="0"/>
      <psa10 value="0.0031963649" flag="0"/>
      <psa30 value="0.0002609550" flag="0"/>
    </comp>
    <comp name="--.HHZ">
      <acc value="0.0531356384" flag="0"/>
      <vel value="0.0082258093" flag="0"/>
      <psa03 value="0.0338851421" flag="0"/>
      <psa10 value="0.0012465147" flag="0"/>
      <psa30 value="0.0001032008" flag="0"/>
    </comp>
  </station>
  <station code="ODBI" name="ODBI" netid="RO" insttype="200" lat="45.7633" lon="27.0558">
    <comp name="--.HNE">
      <acc value="0.0585229683" flag="0"/>
      <vel value="0.0184982168" flag="0"/>
      <psa03 value="0.0786918692" flag="0"/>
      <psa10 value="0.0055308205" flag="0"/>
      <psa30 value="0.0004957252" flag="0"/>
    </comp>
    <comp name="--.HNN">
      <acc value="0.0371268424" flag="0"/>
      <vel value="0.0110485716" flag="0"/>
      <psa03 value="0.0525940380" flag="0"/>
      <psa10 value="0.0062186205" flag="0"/>
      <psa30 value="0.0006169434" flag="0"/>
    </comp>
    <comp name="--.HNZ">
      <acc value="0.0727657884" flag="0"/>
      <vel value="0.0080741517" flag="0"/>
      <psa03 value="0.0703342547" flag="0"/>
      <psa10 value="0.0029710022" flag="0"/>
      <psa30 value="0.0001582456" flag="0"/>
    </comp>
  </station>
  <station code="ONER" name="ONER" netid="RO" insttype="CMG40T.1to100/obsidian" lat="46.3349" lon="26.394">
    <comp name="--.HHE">
      <acc value="0.0072626275" flag="0"/>
      <vel value="0.0011048586" flag="0"/>
      <psa03 value="0.0055248985" flag="0"/>
      <psa10 value="0.0007956349" flag="0"/>
      <psa30 value="0.0000563522" flag="0"/>
    </comp>
    <comp name="--.HHN">
      <acc value="0.0082150300" flag="0"/>
      <vel value="0.0012254041" flag="0"/>
      <psa03 value="0.0045173933" flag="0"/>
      <psa10 value="0.0006109260" flag="0"/>
      <psa30 value="0.0000344936" flag="0"/>
    </comp>
    <comp name="--.HHZ">
      <acc value="0.0115703763" flag="0"/>
      <vel value="0.0029677666" flag="0"/>
      <psa03 value="0.0098321714" flag="0"/>
      <psa10 value="0.0007288135" flag="0"/>
      <psa30 value="0.0000665744" flag="0"/>
    </comp>
  </station>
  <station code="PANC" name="PANC" netid="RO" insttype="Seismometer/Basalt" lat="45.8723" lon="27.1477">
    <comp name="--.HHE">
      <acc value="0.1156495639" flag="0"/>
      <vel value="0.0218859242" flag="0"/>
      <psa03 value="0.1323599095" flag="0"/>
      <psa10 value="0.0069398084" flag="0"/>
      <psa30 value="0.0004441698" flag="0"/>
    </comp>
    <comp name="--.HHZ">
      <acc value="0.1124121714" flag="0"/>
      <vel value="0.0134935426" flag="0"/>
      <psa03 value="0.0393878901" flag="0"/>
      <psa10 value="0.0018061817" flag="0"/>
      <psa30 value="0.0001553447" flag="0"/>
    </comp>
    <comp name="--.HHN">
      <acc value="0.1864560937" flag="0"/>
      <vel value="0.0461789906" flag="0"/>
      <psa03 value="0.1325391816" flag="0"/>
      <psa10 value="0.0085519534" flag="0"/>
      <psa30 value="0.0006932406" flag="0"/>
    </comp>
  </station>
  <station code="PGOR" name="PGOR" netid="RO" insttype="CMG40T.1to100/Quanterra" lat="44.9199" lon="26.9768">
    <comp name="--.HHE">
      <acc value="0.0536139855" flag="0"/>
      <vel value="0.0124028625" flag="0"/>
      <psa03 value="0.0376012148" flag="0"/>
      <psa10 value="0.0048960526" flag="0"/>
      <psa30 value="0.0005974619" flag="0"/>
    </comp>
    <comp name="--.HHZ">
      <acc value="0.2288211590" flag="0"/>
      <vel value="0.0208309619" flag="0"/>
      <psa03 value="0.0220025475" flag="0"/>
      <psa10 value="0.0012964017" flag="0"/>
      <psa30 value="0.0001474157" flag="0"/>
    </comp>
    <comp name="--.HHN">
      <acc value="0.0544531965" flag="0"/>
      <vel value="0.0148515813" flag="0"/>
      <psa03 value="0.0989328496" flag="0"/>
      <psa10 value="0.0034698388" flag="0"/>
      <psa30 value="0.0003204199" flag="0"/>
    </comp>
  </station>
  <station code="PLOR" name="PLOR" netid="RO" insttype="MBB2/Quanterra" lat="45.8512" lon="26.6498">
    <comp name="--.HHE">
      <acc value="0.0465283285" flag="0"/>
      <vel value="0.0188541660" flag="0"/>
      <psa03 value="0.1330359405" flag="0"/>
      <psa10 value="0.0096786338" flag="0"/>
      <psa30 value="0.0006066852" flag="0"/>
    </comp>
    <comp name="--.HHZ">
      <acc value="0.0269055770" flag="0"/>
      <vel value="0.0072542598" flag="0"/>
      <psa03 value="0.0451519558" flag="0"/>
      <psa10 value="0.0033173745" flag="0"/>
      <psa30 value="0.0002056689" flag="0"/>
    </comp>
    <comp name="--.HHN">
      <acc value="0.0542487331" flag="0"/>
      <vel value="0.0199831897" flag="0"/>
      <psa03 value="0.1199207169" flag="0"/>
      <psa10 value="0.0098949621" flag="0"/>
      <psa30 value="0.0007189302" flag="0"/>
    </comp>
  </station>
  <station code="PLOR4" name="PLOR4" netid="RO" insttype="MBB2/Quanterra" lat="45.8512" lon="26.6498">
    <comp name="--.HHZ">
      <acc value="0.0269055770" flag="0"/>
      <vel value="0.0072542598" flag="0"/>
      <psa03 value="0.0451519558" flag="0"/>
      <psa10 value="0.0033173745" flag="0"/>
      <psa30 value="0.0002056689" flag="0"/>
    </comp>
    <comp name="--.HHN">
      <acc value="0.0542487331" flag="0"/>
      <vel value="0.0199831897" flag="0"/>
      <psa03 value="0.1199207169" flag="0"/>
      <psa10 value="0.0098949621" flag="0"/>
      <psa30 value="0.0007189302" flag="0"/>
    </comp>
    <comp name="--.HHE">
      <acc value="0.0465283285" flag="0"/>
      <vel value="0.0188541660" flag="0"/>
      <psa03 value="0.1330359405" flag="0"/>
      <psa10 value="0.0096786338" flag="0"/>
      <psa30 value="0.0006066852" flag="0"/>
    </comp>
  </station>
  <station code="SCHLR" name="SCHLR" netid="RO" insttype="CMG40T.1to100/Quanterra" lat="45.4702" lon="27.8314">
    <comp name="--.HHE">
      <acc value="0.0512982493" flag="0"/>
      <vel value="0.0087026239" flag="0"/>
      <psa03 value="0.0369148583" flag="0"/>
      <psa10 value="0.0026088986" flag="0"/>
      <psa30 value="0.0001825312" flag="0"/>
    </comp>
    <comp name="--.HHN">
      <acc value="0.0475553705" flag="0"/>
      <vel value="0.0085782137" flag="0"/>
      <psa03 value="0.0416035517" flag="0"/>
      <psa10 value="0.0032851772" flag="0"/>
      <psa30 value="0.0002117919" flag="0"/>
    </comp>
    <comp name="--.HHZ">
      <acc value="0.0509391636" flag="0"/>
      <vel value="0.0057253892" flag="0"/>
      <psa03 value="0.0125978256" flag="0"/>
      <psa10 value="0.0007729337" flag="0"/>
      <psa30 value="0.0000583905" flag="0"/>
    </comp>
  </station>
  <station code="SCTR" name="SCTR" netid="RO" insttype="MBB2/Basalt" lat="45.6741" lon="27.9949">
    <comp name="--.HHN">
      <acc value="0.0722622339" flag="0"/>
      <vel value="0.0139232753" flag="0"/>
      <psa03 value="0.0792829981" flag="0"/>
      <psa10 value="0.0147879069" flag="0"/>
      <psa30 value="0.0006925795" flag="0"/>
    </comp>
    <comp name="--.HHZ">
      <acc value="0.0482979357" flag="0"/>
      <vel value="0.0099149103" flag="0"/>
      <psa03 value="0.0520448362" flag="0"/>
      <psa10 value="0.0049191849" flag="0"/>
      <psa30 value="0.0002579239" flag="0"/>
    </comp>
    <comp name="--.HHE">
      <acc value="0.0664465903" flag="0"/>
      <vel value="0.0149732005" flag="0"/>
      <psa03 value="0.0741163159" flag="0"/>
      <psa10 value="0.0070297890" flag="0"/>
      <psa30 value="0.0005675734" flag="0"/>
    </comp>
  </station>
  <station code="SULR" name="SULR" netid="RO" insttype="330" lat="44.6777" lon="26.2526">
    <comp name="--.HHE">
      <acc value="0.0708319992" flag="0"/>
      <vel value="0.0229061762" flag="0"/>
      <psa03 value="0.0665864843" flag="0"/>
      <psa10 value="0.0089685557" flag="0"/>
      <psa30 value="0.0007712801" flag="0"/>
    </comp>
    <comp name="--.HHN">
      <acc value="0.0698461248" flag="0"/>
      <vel value="0.0216643963" flag="0"/>
      <psa03 value="0.1369773650" flag="0"/>
      <psa10 value="0.0098327261" flag="0"/>
      <psa30 value="0.0007999450" flag="0"/>
    </comp>
    <comp name="--.HHZ">
      <acc value="0.0742048656" flag="0"/>
      <vel value="0.0100185859" flag="0"/>
      <psa03 value="0.0475814880" flag="0"/>
      <psa10 value="0.0021534759" flag="0"/>
      <psa30 value="0.0002192036" flag="0"/>
    </comp>
  </station>
  <station code="TESR" name="TESR" netid="RO" insttype="330" lat="46.5118" lon="26.6489">
    <comp name="--.HHE">
      <acc value="0.0319549758" flag="0"/>
      <vel value="0.0067562086" flag="0"/>
      <psa03 value="0.0208044445" flag="0"/>
      <psa10 value="0.0017148588" flag="0"/>
      <psa30 value="0.0002216849" flag="0"/>
    </comp>
    <comp name="--.HHN">
      <acc value="0.0271689707" flag="0"/>
      <vel value="0.0091062136" flag="0"/>
      <psa03 value="0.0299700277" flag="0"/>
      <psa10 value="0.0015298859" flag="0"/>
      <psa30 value="0.0001631790" flag="0"/>
    </comp>
    <comp name="--.HHZ">
      <acc value="0.0474309353" flag="0"/>
      <vel value="0.0069622189" flag="0"/>
      <psa03 value="0.0113542427" flag="0"/>
      <psa10 value="0.0005518954" flag="0"/>
      <psa30 value="0.0000628896" flag="0"/>
    </comp>
  </station>
  <station code="TUDR" name="TUDR" netid="RO" insttype="CMG40T.1to100/Quanterra" lat="45.5939" lon="27.6687">
    <comp name="--.HHE">
      <acc value="0.0891022161" flag="0"/>
      <vel value="0.0247617593" flag="0"/>
      <psa03 value="0.1543589303" flag="0"/>
      <psa10 value="0.0066575733" flag="0"/>
      <psa30 value="0.0004702063" flag="0"/>
    </comp>
    <comp name="--.HHZ">
      <acc value="0.1871885256" flag="0"/>
      <vel value="0.0156240536" flag="0"/>
      <psa03 value="0.0275516625" flag="0"/>
      <psa10 value="0.0015678473" flag="0"/>
      <psa30 value="0.0001729530" flag="0"/>
    </comp>
    <comp name="--.HHN">
      <acc value="0.1002611416" flag="0"/>
      <vel value="0.0233924206" flag="0"/>
      <psa03 value="0.0839148166" flag="0"/>
      <psa10 value="0.0102739342" flag="0"/>
      <psa30 value="0.0006359228" flag="0"/>
    </comp>
  </station>
  <station code="VOIR" name="VOIR" netid="RO" insttype="330" lat="45.4371" lon="25.0495">
    <comp name="--.HHE">
      <acc value="0.0023320916" flag="0"/>
      <vel value="0.0007740996" flag="0"/>
      <psa03 value="0.0044830200" flag="0"/>
      <psa10 value="0.0004915472" flag="0"/>
