<?xml version="1.0" encoding="UTF-8" standalone="yes"?>
<!DOCTYPE earthquake SYSTEM "stationlist.dtd">
<stationlist created="" xmlns="ch.ethz.sed.shakemap.usgs.xml">
  <station code="BIR" name="BIR" netid="RO" insttype="MBB2/Quanterra" lat="46.2334" lon="27.6436">
    <comp name="--.HHE">
      <acc value="0.1573423923" flag="0"/>
      <vel value="0.0494359252" flag="0"/>
      <psa03 value="0.1740091886" flag="0"/>
      <psa10 value="0.0105770703" flag="0"/>
      <psa30 value="0.0007520217" flag="0"/>
    </comp>
    <comp name="--.HHN">
      <acc value="0.1125862885" flag="0"/>
      <vel value="0.0336675407" flag="0"/>
      <psa03 value="0.1069294678" flag="0"/>
      <psa10 value="0.0139497405" flag="0"/>
      <psa30 value="0.0010543404" flag="0"/>
    </comp>
    <comp name="--.HHZ">
      <acc value="0.0809311520" flag="0"/>
      <vel value="0.0212709087" flag="0"/>
      <psa03 value="0.1604094942" flag="0"/>
      <psa10 value="0.0048491960" flag="0"/>
      <psa30 value="0.0004738435" flag="0"/>
    </comp>
  </station>
  <station code="BISRR" name="BISRR" netid="RO" insttype="CMG40T.1to100/Basalt" lat="45.5481" lon="26.7099">
    <comp name="--.HHE">
      <acc value="0.0590740417" flag="0"/>
      <vel value="0.0303069975" flag="0"/>
      <psa03 value="0.1738865856" flag="0"/>
      <psa10 value="0.0224728772" flag="0"/>
      <psa30 value="0.0014963996" flag="0"/>
    </comp>
    <comp name="--.HHZ">
      <acc value="0.0408949114" flag="0"/>
      <vel value="0.0136485910" flag="0"/>
      <psa03 value="0.1126893277" flag="0"/>
      <psa10 value="0.0154445417" flag="0"/>
      <psa30 value="0.0005767580" flag="0"/>
    </comp>
    <comp name="--.HHN">
      <acc value="0.0740324301" flag="0"/>
      <vel value="0.0312620587" flag="0"/>
      <psa03 value="0.1557290373" flag="0"/>
      <psa10 value="0.0230943531" flag="0"/>
      <psa30 value="0.0010985405" flag="0"/>
    </comp>
  </station>
  <station code="BOSR" name="BOSR" netid="RO" insttype="Seismometer/Basalt" lat="46.0749" lon="25.6611">
    <comp name="--.HHN">
      <acc value="0.0215873587" flag="0"/>
      <vel value="0.0062505140" flag="0"/>
      <psa03 value="0.0361771563" flag="0"/>
      <psa10 value="0.0032037015" flag="0"/>
      <psa30 value="0.0001828578" flag="0"/>
    </comp>
    <comp name="--.HHZ">
      <acc value="0.0307257166" flag="0"/>
      <vel value="0.0078378435" flag="0"/>
      <psa03 value="0.0249716442" flag="0"/>
      <psa10 value="0.0012656318" flag="0"/>
      <psa30 value="0.0001352663" flag="0"/>
    </comp>
    <comp name="--.HHE">
      <acc value="0.0158208700" flag="0"/>
      <vel value="0.0049754758" flag="0"/>
      <psa03 value="0.0343790385" flag="0"/>
      <psa10 value="0.0026147865" flag="0"/>
      <psa30 value="0.0001896764" flag="0"/>
    </comp>
  </station>
  <station code="COPR" name="COPR" netid="RO" insttype="200" lat="45.8442" lon="26.1687">
    <comp name="--.HNE">
      <acc value="0.0205175455" flag="0"/>
      <vel value="0.0099226298" flag="0"/>
      <psa03 value="0.0533955838" flag="0"/>
      <psa10 value="0.0067678902" flag="0"/>
      <psa30 value="0.0004163152" flag="0"/>
    </comp>
    <comp name="--.HNZ">
      <acc value="0.0319949232" flag="0"/>
      <vel value="0.0102222663" flag="0"/>
      <psa03 value="0.0564786885" flag="0"/>
      <psa10 value="0.0027816424" flag="0"/>
      <psa30 value="0.0003648566" flag="0"/>
    </comp>
    <comp name="--.HNN">
      <acc value="0.0312540908" flag="0"/>
      <vel value="0.0123041388" flag="0"/>
      <psa03 value="0.0868050953" flag="0"/>
      <psa10 value="0.0050638806" flag="0"/>
      <psa30 value="0.0002765142" flag="0"/>
    </comp>
  </station>
  <station code="DOPR" name="DOPR" netid="RO" insttype="330" lat="45.9675" lon="25.3886">
    <comp name="--.HHZ">
      <acc value="0.0328692953" flag="0"/>
      <vel value="0.0115316681" flag="0"/>
      <psa03 value="0.0330588690" flag="0"/>
      <psa10 value="0.0018792031" flag="0"/>
      <psa30 value="0.0002230320" flag="0"/>
    </comp>
    <comp name="--.HHN">
      <acc value="0.0325905595" flag="0"/>
      <vel value="0.0076587121" flag="0"/>
      <psa03 value="0.0278292266" flag="0"/>
      <psa10 value="0.0009368071" flag="0"/>
      <psa30 value="0.0001070573" flag="0"/>
    </comp>
    <comp name="--.HHE">
      <acc value="0.0354937934" flag="0"/>
      <vel value="0.0074849644" flag="0"/>
      <psa03 value="0.0257123327" flag="0"/>
      <psa10 value="0.0023091350" flag="0"/>
      <psa30 value="0.0001566879" flag="0"/>
    </comp>
  </station>
  <station code="GISR" name="GISR" netid="RO" insttype="2.5V" lat="45.4411" lon="28.0541">
    <comp name="--.HNE">
      <acc value="0.0777964929" flag="0"/>
      <vel value="0.0142435808" flag="0"/>
      <psa03 value="0.0560582429" flag="0"/>
      <psa10 value="0.0064622953" flag="0"/>
      <psa30 value="0.0007340858" flag="0"/>
    </comp>
    <comp name="--.HNN">
      <acc value="0.0502467201" flag="0"/>
      <vel value="0.0123299115" flag="0"/>
      <psa03 value="0.0570489671" flag="0"/>
      <psa10 value="0.0032607880" flag="0"/>
      <psa30 value="0.0006779481" flag="0"/>
    </comp>
    <comp name="--.HNZ">
      <acc value="0.0647492111" flag="0"/>
      <vel value="0.0107137793" flag="0"/>
      <psa03 value="0.0463233557" flag="0"/>
      <psa10 value="0.0026443237" flag="0"/>
      <psa30 value="0.0004034121" flag="0"/>
    </comp>
  </station>
  <station code="ISR" name="ISR" netid="RO" insttype="CMG3ESP/Quanterra" lat="45.1187" lon="26.5432">
    <comp name="--.HHE">
      <acc value="0.0504363830" flag="0"/>
      <vel value="0.0089417642" flag="0"/>
      <psa03 value="0.0697015249" flag="0"/>
      <psa10 value="0.0058884236" flag="0"/>
      <psa30 value="0.0003981888" flag="0"/>
    </comp>
    <comp name="--.HHN">
      <acc value="0.0447525765" flag="0"/>
      <vel value="0.0109550278" flag="0"/>
      <psa03 value="0.0876962931" flag="0"/>
      <psa10 value="0.0065689376" flag="0"/>
      <psa30 value="0.0004735314" flag="0"/>
    </comp>
    <comp name="--.HHZ">
      <acc value="0.0251363532" flag="0"/>
      <vel value="0.0061375846" flag="0"/>
      <psa03 value="0.0436903097" flag="0"/>
      <psa10 value="0.0040222828" flag="0"/>
      <psa30 value="0.0001899209" flag="0"/>
    </comp>
  </station>
  <station code="IZVR" name="IZVR" netid="RO" insttype="CMG40T.1to100/Quanterra" lat="45.5442" lon="27.7655">
    <comp name="--.HHE">
      <acc value="0.0779488244" flag="0"/>
      <vel value="0.0193052099" flag="0"/>
      <psa03 value="0.0863838291" flag="0"/>
      <psa10 value="0.0040365058" flag="0"/>
      <psa30 value="0.0002620020" flag="0"/>
    </comp>
    <comp name="--.HHN">
      <acc value="0.0996252815" flag="0"/>
      <vel value="0.0247314704" flag="0"/>
      <psa03 value="0.0700494469" flag="0"/>
      <psa10 value="0.0056721021" flag="0"/>
      <psa30 value="0.0003843935" flag="0"/>
    </comp>
    <comp name="--.HHZ">
      <acc value="0.0367180258" flag="0"/>
      <vel value="0.0051373549" flag="0"/>
      <psa03 value="0.0286421286" flag="0"/>
      <psa10 value="0.0010271126" flag="0"/>
      <psa30 value="0.0000740624" flag="0"/>
    </comp>
  </station>
  <station code="MLR" name="MLR" netid="RO" insttype="330HR" lat="45.4909" lon="25.945">
    <comp name="--.HHE">
      <acc value="0.0110586177" flag="0"/>
      <vel value="0.0064076976" flag="0"/>
      <psa03 value="0.0295604219" flag="0"/>
      <psa10 value="0.0045794795" flag="0"/>
      <psa30 value="0.0003000927" flag="0"/>
    </comp>
    <comp name="--.HHZ">
      <acc value="0.0061380666" flag="0"/>
      <vel value="0.0030407934" flag="0"/>
      <psa03 value="0.0127297066" flag="0"/>
      <psa10 value="0.0025299944" flag="0"/>
      <psa30 value="0.0002125787" flag="0"/>
    </comp>
    <comp name="--.HHN">
      <acc value="0.0075418237" flag="0"/>
      <vel value="0.0054021030" flag="0"/>
      <psa03 value="0.0267106796" flag="0"/>
      <psa10 value="0.0034980224" flag="0"/>
      <psa30 value="0.0005414467" flag="0"/>
    </comp>
  </station>
  <station code="NARR" name="NARR" netid="RO" insttype="OBS-SIO/Centaur" lat="45.8165" lon="26.7368">
    <comp name="--.HHE">
      <acc value="0.0740651348" flag="0"/>
      <vel value="0.0226067917" flag="0"/>
      <psa03 value="0.1388813176" flag="0"/>
      <psa10 value="0.0091689599" flag="0"/>
      <psa30 value="0.0008087454" flag="0"/>
    </comp>
    <comp name="--.HHN">
      <acc value="0.0682829766" flag="0"/>
      <vel value="0.0337475726" flag="0"/>
      <psa03 value="0.1457588307" flag="0"/>
      <psa10 value="0.0101812779" flag="0"/>
      <psa30 value="0.0008597344" flag="0"/>
    </comp>
    <comp name="--.HHZ">
      <acc value="0.0394950238" flag="0"/>
      <vel value="0.0129568091" flag="0"/>
      <psa03 value="0.0914068501" flag="0"/>
      <psa10 value="0.0045921498" flag="0"/>
      <psa30 value="0.0002610095" flag="0"/>
    </comp>
  </station>
  <station code="NEGRR" name="NEGRR" netid="RO" insttype="CMG40T.1to100/Quanterra" lat="45.5373" lon="27.8771">
    <comp name="--.HHE">
      <acc value="0.0813121431" flag="0"/>
      <vel value="0.0156337566" flag="0"/>
      <psa03 value="0.0611739644" flag="0"/>
      <psa10 value="0.0021287462" flag="0"/>
      <psa30 value="0.0001879770" flag="0"/>
    </comp>
    <comp name="--.HHZ">
      <acc value="0.0531356384" flag="0"/>
      <vel value="0.0082258093" flag="0"/>
      <psa03 value="0.0338851421" flag="0"/>
      <psa10 value="0.0012465147" flag="0"/>
      <psa30 value="0.0001032001" flag="0"/>
    </comp>
    <comp name="--.HHN">
      <acc value="0.0670343431" flag="0"/>
      <vel value="0.0132289411" flag="0"/>
      <psa03 value="0.0436465104" flag="0"/>
      <psa10 value="0.0031963649" flag="0"/>
      <psa30 value="0.0002609572" flag="0"/>
    </comp>
  </station>
  <station code="ODBI" name="ODBI" netid="RO" insttype="200" lat="45.7633" lon="27.0558">
    <comp name="--.HNN">
      <acc value="0.0371268411" flag="0"/>
      <vel value="0.0110485763" flag="0"/>
      <psa03 value="0.0525940380" flag="0"/>
      <psa10 value="0.0062186205" flag="0"/>
      <psa30 value="0.0006172593" flag="0"/>
    </comp>
    <comp name="--.HNE">
      <acc value="0.0585229694" flag="0"/>
      <vel value="0.0184982172" flag="0"/>
      <psa03 value="0.0786918692" flag="0"/>
      <psa10 value="0.0055308206" flag="0"/>
      <psa30 value="0.0004955900" flag="0"/>
    </comp>
    <comp name="--.HNZ">
      <acc value="0.0727657883" flag="0"/>
      <vel value="0.0080741506" flag="0"/>
      <psa03 value="0.0703342547" flag="0"/>
      <psa10 value="0.0029710022" flag="0"/>
      <psa30 value="0.0001585817" flag="0"/>
    </comp>
  </station>
  <station code="ONER" name="ONER" netid="RO" insttype="CMG40T.1to100/obsidian" lat="46.3349" lon="26.394">
    <comp name="--.HHE">
      <acc value="0.0072626276" flag="0"/>
      <vel value="0.0011048591" flag="0"/>
      <psa03 value="0.0055248985" flag="0"/>
      <psa10 value="0.0007956349" flag="0"/>
      <psa30 value="0.0000563528" flag="0"/>
    </comp>
    <comp name="--.HHZ">
      <acc value="0.0115703763" flag="0"/>
      <vel value="0.0029677659" flag="0"/>
      <psa03 value="0.0098321714" flag="0"/>
      <psa10 value="0.0007288135" flag="0"/>
      <psa30 value="0.0000665714" flag="0"/>
    </comp>
    <comp name="--.HHN">
      <acc value="0.0082150298" flag="0"/>
      <vel value="0.0012254059" flag="0"/>
      <psa03 value="0.0045173933" flag="0"/>
      <psa10 value="0.0006109260" flag="0"/>
      <psa30 value="0.0000344708" flag="0"/>
    </comp>
  </station>
  <station code="PANC" name="PANC" netid="RO" insttype="Seismometer/Basalt" lat="45.8723" lon="27.1477">
    <comp name="--.HHZ">
      <acc value="0.1124121710" flag="0"/>
      <vel value="0.0134935427" flag="0"/>
      <psa03 value="0.0393878901" flag="0"/>
      <psa10 value="0.0018061817" flag="0"/>
      <psa30 value="0.0001552388" flag="0"/>
    </comp>
    <comp name="--.HHN">
      <acc value="0.1864560935" flag="0"/>
      <vel value="0.0461789885" flag="0"/>
      <psa03 value="0.1325391816" flag="0"/>
      <psa10 value="0.0085519532" flag="0"/>
      <psa30 value="0.0006933939" flag="0"/>
    </comp>
    <comp name="--.HHE">
      <acc value="0.1156495638" flag="0"/>
      <vel value="0.0218859228" flag="0"/>
      <psa03 value="0.1323599095" flag="0"/>
      <psa10 value="0.0069398084" flag="0"/>
      <psa30 value="0.0004442993" flag="0"/>
    </comp>
  </station>
  <station code="PGOR" name="PGOR" netid="RO" insttype="CMG40T.1to100/Quanterra" lat="44.9199" lon="26.9768">
    <comp name="--.HHE">
      <acc value="0.0536139855" flag="0"/>
      <vel value="0.0124028714" flag="0"/>
      <psa03 value="0.0376012148" flag="0"/>
      <psa10 value="0.0048960526" flag="0"/>
      <psa30 value="0.0005975695" flag="0"/>
    </comp>
    <comp name="--.HHN">
      <acc value="0.0544531965" flag="0"/>
      <vel value="0.0148515813" flag="0"/>
      <psa03 value="0.0989328496" flag="0"/>
      <psa10 value="0.0034698388" flag="0"/>
      <psa30 value="0.0003203872" flag="0"/>
    </comp>
    <comp name="--.HHZ">
      <acc value="0.2288211590" flag="0"/>
      <vel value="0.0208309598" flag="0"/>
      <psa03 value="0.0220025475" flag="0"/>
      <psa10 value="0.0012964016" flag="0"/>
      <psa30 value="0.0001474066" flag="0"/>
    </comp>
  </station>
  <station code="PLOR" name="PLOR" netid="RO" insttype="MBB2/Quanterra" lat="45.8512" lon="26.6498">
    <comp name="--.HHZ">
      <acc value="0.0269055770" flag="0"/>
      <vel value="0.0072542600" flag="0"/>
      <psa03 value="0.0451519558" flag="0"/>
      <psa10 value="0.0033173746" flag="0"/>
      <psa30 value="0.0002056299" flag="0"/>
    </comp>
    <comp name="--.HHE">
      <acc value="0.0465283286" flag="0"/>
      <vel value="0.0188541667" flag="0"/>
      <psa03 value="0.1330359405" flag="0"/>
      <psa10 value="0.0096786339" flag="0"/>
      <psa30 value="0.0006067599" flag="0"/>
    </comp>
    <comp name="--.HHN">
      <acc value="0.0542487326" flag="0"/>
      <vel value="0.0199831907" flag="0"/>
      <psa03 value="0.1199207169" flag="0"/>
      <psa10 value="0.0098949621" flag="0"/>
      <psa30 value="0.0007188408" flag="0"/>
    </comp>
  </station>
  <station code="PLOR4" name="PLOR4" netid="RO" insttype="MBB2/Quanterra" lat="45.8512" lon="26.6498">
    <comp name="--.HHN">
      <acc value="0.0542487326" flag="0"/>
      <vel value="0.0199831907" flag="0"/>
      <psa03 value="0.1199207169" flag="0"/>
      <psa10 value="0.0098949621" flag="0"/>
      <psa30 value="0.0007188408" flag="0"/>
    </comp>
    <comp name="--.HHE">
      <acc value="0.0465283286" flag="0"/>
      <vel value="0.0188541667" flag="0"/>
      <psa03 value="0.1330359405" flag="0"/>
      <psa10 value="0.0096786339" flag="0"/>
      <psa30 value="0.0006067599" flag="0"/>
    </comp>
    <comp name="--.HHZ">
      <acc value="0.0269055770" flag="0"/>
      <vel value="0.0072542600" flag="0"/>
      <psa03 value="0.0451519558" flag="0"/>
      <psa10 value="0.0033173746" flag="0"/>
      <psa30 value="0.0002056299" flag="0"/>
    </comp>
  </station>
  <station code="SCHLR" name="SCHLR" netid="RO" insttype="CMG40T.1to100/Quanterra" lat="45.4702" lon="27.8314">
    <comp name="--.HHE">
      <acc value="0.0512982493" flag="0"/>
      <vel value="0.0087026224" flag="0"/>
      <psa03 value="0.0369148583" flag="0"/>
      <psa10 value="0.0026088986" flag="0"/>
      <psa30 value="0.0001825268" flag="0"/>
    </comp>
    <comp name="--.HHN">
      <acc value="0.0475553705" flag="0"/>
      <vel value="0.0085782137" flag="0"/>
      <psa03 value="0.0416035517" flag="0"/>
      <psa10 value="0.0032851772" flag="0"/>
      <psa30 value="0.0002117921" flag="0"/>
    </comp>
    <comp name="--.HHZ">
      <acc value="0.0509391636" flag="0"/>
      <vel value="0.0057253899" flag="0"/>
      <psa03 value="0.0125978256" flag="0"/>
      <psa10 value="0.0007729337" flag="0"/>
      <psa30 value="0.0000583934" flag="0"/>
    </comp>
  </station>
  <station code="SCTR" name="SCTR" netid="RO" insttype="MBB2/Basalt" lat="45.6741" lon="27.9949">
    <comp name="--.HHE">
      <acc value="0.0664465903" flag="0"/>
      <vel value="0.0149731997" flag="0"/>
      <psa03 value="0.0741163159" flag="0"/>
      <psa10 value="0.0070297890" flag="0"/>
      <psa30 value="0.0005675735" flag="0"/>
    </comp>
    <comp name="--.HHN">
      <acc value="0.0722622339" flag="0"/>
      <vel value="0.0139232754" flag="0"/>
      <psa03 value="0.0792829981" flag="0"/>
      <psa10 value="0.0147879069" flag="0"/>
      <psa30 value="0.0006925670" flag="0"/>
    </comp>
    <comp name="--.HHZ">
      <acc value="0.0482979357" flag="0"/>
      <vel value="0.0099149098" flag="0"/>
      <psa03 value="0.0520448362" flag="0"/>
      <psa10 value="0.0049191849" flag="0"/>
      <psa30 value="0.0002579345" flag="0"/>
    </comp>
  </station>
  <station code="SULR" name="SULR" netid="RO" insttype="330" lat="44.6777" lon="26.2526">
    <comp name="--.HHE">
      <acc value="0.0708319992" flag="0"/>
      <vel value="0.0229061758" flag="0"/>
      <psa03 value="0.0665864843" flag="0"/>
      <psa10 value="0.0089685556" flag="0"/>
      <psa30 value="0.0007713421" flag="0"/>
    </comp>
    <comp name="--.HHN">
      <acc value="0.0698461249" flag="0"/>
      <vel value="0.0216643911" flag="0"/>
      <psa03 value="0.1369773650" flag="0"/>
      <psa10 value="0.0098327261" flag="0"/>
      <psa30 value="0.0007995744" flag="0"/>
    </comp>
    <comp name="--.HHZ">
      <acc value="0.0742048656" flag="0"/>
      <vel value="0.0100185890" flag="0"/>
      <psa03 value="0.0475814880" flag="0"/>
      <psa10 value="0.0021534759" flag="0"/>
      <psa30 value="0.0002192036" flag="0"/>
    </comp>
  </station>
  <station code="TESR" name="TESR" netid="RO" insttype="330" lat="46.5118" lon="26.6489">
    <comp name="--.HHE">
      <acc value="0.0319549757" flag="0"/>
      <vel value="0.0067562085" flag="0"/>
      <psa03 value="0.0208044445" flag="0"/>
      <psa10 value="0.0017148588" flag="0"/>
      <psa30 value="0.0002216887" flag="0"/>
    </comp>
    <comp name="--.HHN">
      <acc value="0.0271689707" flag="0"/>
      <vel value="0.0091062138" flag="0"/>
      <psa03 value="0.0299700277" flag="0"/>
      <psa10 value="0.0015298859" flag="0"/>
      <psa30 value="0.0001631851" flag="0"/>
    </comp>
    <comp name="--.HHZ">
      <acc value="0.0474309354" flag="0"/>
      <vel value="0.0069622190" flag="0"/>
      <psa03 value="0.0113542427" flag="0"/>
      <psa10 value="0.0005518956" flag="0"/>
      <psa30 value="0.0000629218" flag="0"/>
    </comp>
  </station>
  <station code="TUDR" name="TUDR" netid="RO" insttype="CMG40T.1to100/Quanterra" lat="45.5939" lon="27.6687">
    <comp name="--.HHN">
      <acc value="0.1002611416" flag="0"/>
      <vel value="0.0233924246" flag="0"/>
      <psa03 value="0.0839148166" flag="0"/>
      <psa10 value="0.0102739341" flag="0"/>
      <psa30 value="0.0006359458" flag="0"/>
    </comp>
    <comp name="--.HHE">
      <acc value="0.0891022161" flag="0"/>
      <vel value="0.0247617630" flag="0"/>
      <psa03 value="0.1543589303" flag="0"/>
      <psa10 value="0.0066575732" flag="0"/>
      <psa30 value="0.0004702644" flag="0"/>
    </comp>
    <comp name="--.HHZ">
      <acc value="0.1871885256" flag="0"/>
      <vel value="0.0156240538" flag="0"/>
      <psa03 value="0.0275516625" flag="0"/>
      <psa10 value="0.0015678472" flag="0"/>
      <psa30 value="0.0001729068" flag="0"/>
    </comp>
  </station>
  <station code="VOIR" name="VOIR" netid="RO" insttype="330" lat="45.4371" lon="25.0495">
    <comp name="--.HHE">
      <acc value="0.0023320920" flag="0"/>
      <vel value="0.0007740999" flag="0"/>
      <psa03 value="0.0044830200" flag="0"/>
      <psa10 value="0.0004915472" flag="0"/>
