<stationlist created="1675692193">
	<station code="CMRD" name="CMRD" netid="KO" source="Bogazici University Kandilli Observatory And Earthquake Research Institute (KOERI)" insttype="" lat="37.6623" lon="34.9902">
		<comp name=".HNE" depth="0.0">
			<acc value="0.0160346319432" flag="0"/>
			<vel value="0.0135547690546" flag="0"/>
			<psa03 value="0.0483334101845" flag="0"/>
			<psa10 value="0.0187422828343" flag="0"/>
			<psa30 value="0.000790300374353" flag="0"/>
		</comp>
		<comp name=".HNN" depth="0.0">
			<acc value="0.0329425337458" flag="0"/>
			<vel value="0.0136912636043" flag="0"/>
			<psa03 value="0.0883401750199" flag="0"/>
			<psa10 value="0.0116934208817" flag="0"/>
			<psa30 value="0.00133772663866" flag="0"/>
		</comp>
		<comp name=".HNZ" depth="0.0">
			<acc value="0.0142464654543" flag="0"/>
			<vel value="0.00948430941207" flag="0"/>
			<psa03 value="0.0364991262213" flag="0"/>
			<psa10 value="0.017166810967" flag="0"/>
			<psa30 value="0.000858135128492" flag="0"/>
		</comp>
	</station>
</stationlist>
