<?xml version="1.0" encoding="UTF-8" standalone="yes"?>
<!DOCTYPE earthquake SYSTEM "stationlist.dtd">
<stationlist created="" xmlns="ch.ethz.sed.shakemap.usgs.xml">
  <station code="AGRB" name="AGRB" netid="KO" insttype="CMG-3T" commtype="DIG" lat="39.5755" lon="42.992">
    <comp name="--.HHE">
      <acc value="0.0246829744" flag="0"/>
      <vel value="0.0195135405" flag="0"/>
      <psa03 value="0.0598706965" flag="0"/>
      <psa10 value="0.0331643324" flag="0"/>
      <psa30 value="0.0027924119" flag="0"/>
    </comp>
    <comp name="--.HHZ">
      <acc value="0.0251870410" flag="0"/>
      <vel value="0.0138147494" flag="0"/>
      <psa03 value="0.0440338605" flag="0"/>
      <psa10 value="0.0318452837" flag="0"/>
      <psa30 value="0.0031563985" flag="0"/>
    </comp>
    <comp name="--.HHN">
      <acc value="0.0173986725" flag="0"/>
      <vel value="0.0142314192" flag="0"/>
      <psa03 value="0.0534493707" flag="0"/>
      <psa10 value="0.0236546174" flag="0"/>
      <psa30 value="0.0023338990" flag="0"/>
    </comp>
  </station>
  <station code="CLDR" name="CLDR" netid="KO" insttype="CMG-3ESP" commtype="DIG" lat="39.144" lon="43.9172">
    <comp name="--.HHN">
      <acc value="0.6444339551" flag="0"/>
      <vel value="0.2392216262" flag="0"/>
      <psa03 value="1.7307736784" flag="0"/>
      <psa10 value="0.1353967128" flag="0"/>
      <psa30 value="0.0138405459" flag="0"/>
    </comp>
    <comp name="--.HHE">
      <acc value="0.4814590775" flag="0"/>
      <vel value="0.2170361947" flag="0"/>
      <psa03 value="2.2279513911" flag="0"/>
      <psa10 value="0.1434814695" flag="0"/>
      <psa30 value="0.0106169461" flag="0"/>
    </comp>
    <comp name="--.HHZ">
      <acc value="0.1884505158" flag="0"/>
      <vel value="0.0864495715" flag="0"/>
      <psa03 value="0.3872826622" flag="0"/>
      <psa10 value="0.0581811295" flag="0"/>
      <psa30 value="0.0077822892" flag="0"/>
    </comp>
  </station>
  <station code="GURO" name="GURO" netid="KO" insttype="CMG-3T" commtype="DIG" lat="38.5509" lon="42.0322">
    <comp name="--.HHE">
      <acc value="0.0214991560" flag="0"/>
      <vel value="0.0127634016" flag="0"/>
      <psa03 value="0.0624649644" flag="0"/>
      <psa10 value="0.0159712721" flag="0"/>
      <psa30 value="0.0008460603" flag="0"/>
    </comp>
    <comp name="--.HHN">
      <acc value="0.0136823413" flag="0"/>
      <vel value="0.0088132394" flag="0"/>
      <psa03 value="0.0513555077" flag="0"/>
      <psa10 value="0.0110492673" flag="0"/>
      <psa30 value="0.0006039957" flag="0"/>
    </comp>
    <comp name="--.HHZ">
      <acc value="0.0203456402" flag="0"/>
      <vel value="0.0150030178" flag="0"/>
      <psa03 value="0.0721616971" flag="0"/>
      <psa10 value="0.0192661719" flag="0"/>
      <psa30 value="0.0007548741" flag="0"/>
    </comp>
  </station>
  <station code="MLAZ" name="MLAZ" netid="KO" insttype="CMG-3T" commtype="DIG" lat="39.141" lon="42.5496">
    <comp name="--.HHE">
      <acc value="0.0329390158" flag="0"/>
      <vel value="0.0506129147" flag="0"/>
      <psa03 value="0.0894249471" flag="0"/>
      <psa10 value="0.0715152805" flag="0"/>
      <psa30 value="0.0112204286" flag="0"/>
    </comp>
    <comp name="--.HHN">
      <acc value="0.0366073613" flag="0"/>
      <vel value="0.0573054755" flag="0"/>
      <psa03 value="0.0950476824" flag="0"/>
      <psa10 value="0.0925654308" flag="0"/>
      <psa30 value="0.0120870416" flag="0"/>
    </comp>
    <comp name="--.HHZ">
      <acc value="0.0258322850" flag="0"/>
      <vel value="0.0322753564" flag="0"/>
      <psa03 value="0.0635186703" flag="0"/>
      <psa10 value="0.0557207270" flag="0"/>
      <psa30 value="0.0063260814" flag="0"/>
    </comp>
  </station>
  <station code="TASB" name="TASB" netid="KO" insttype="CMG-3T" commtype="DIG" lat="39.9838" lon="44.2384">
    <comp name="--.HHE">
      <acc value="0.0068157045" flag="0"/>
      <vel value="0.0118528037" flag="0"/>
      <psa03 value="0.0134924225" flag="0"/>
      <psa10 value="0.0166036598" flag="0"/>
      <psa30 value="0.0031309216" flag="0"/>
    </comp>
    <comp name="--.HHN">
      <acc value="0.0072720148" flag="0"/>
      <vel value="0.0114949451" flag="0"/>
      <psa03 value="0.0155838148" flag="0"/>
      <psa10 value="0.0150819324" flag="0"/>
      <psa30 value="0.0023262505" flag="0"/>
    </comp>
    <comp name="--.HHZ">
      <acc value="0.0057613447" flag="0"/>
      <vel value="0.0057564443" flag="0"/>
      <psa03 value="0.0133228119" flag="0"/>
      <psa10 value="0.0081691625" flag="0"/>
      <psa30 value="0.0018615582" flag="0"/>
    </comp>
  </station>
</stationlist>
