<?xml version="1.0" encoding="UTF-8" standalone="yes"?>
<!DOCTYPE earthquake SYSTEM "stationlist.dtd">
<stationlist created="" xmlns="ch.ethz.sed.shakemap.usgs.xml">
  <station code="AGRB" name="AGRB" netid="KO" insttype="CMG-3T" commtype="DIG" lat="39.5755" lon="42.992">
    <comp name="--.HHN">
      <acc value="0.0173986725" flag="0"/>
      <vel value="0.0142314189" flag="0"/>
      <psa03 value="0.0534493707" flag="0"/>
      <psa10 value="0.0236546174" flag="0"/>
      <psa30 value="0.0023338912" flag="0"/>
    </comp>
    <comp name="--.HHE">
      <acc value="0.0246829744" flag="0"/>
      <vel value="0.0195135413" flag="0"/>
      <psa03 value="0.0598706965" flag="0"/>
      <psa10 value="0.0331643324" flag="0"/>
      <psa30 value="0.0027924118" flag="0"/>
    </comp>
    <comp name="--.HHZ">
      <acc value="0.0251870412" flag="0"/>
      <vel value="0.0138147493" flag="0"/>
      <psa03 value="0.0440338605" flag="0"/>
      <psa10 value="0.0318452837" flag="0"/>
      <psa30 value="0.0031563972" flag="0"/>
    </comp>
  </station>
  <station code="CLDR" name="CLDR" netid="KO" insttype="CMG-3ESP" commtype="DIG" lat="39.144" lon="43.9172">
    <comp name="--.HHE">
      <acc value="0.4814590775" flag="0"/>
      <vel value="0.2170361983" flag="0"/>
      <psa03 value="2.2279513911" flag="0"/>
      <psa10 value="0.1434814696" flag="0"/>
      <psa30 value="0.0106169388" flag="0"/>
    </comp>
    <comp name="--.HHN">
      <acc value="0.6444339552" flag="0"/>
      <vel value="0.2392216248" flag="0"/>
      <psa03 value="1.7307736784" flag="0"/>
      <psa10 value="0.1353967129" flag="0"/>
      <psa30 value="0.0138404659" flag="0"/>
    </comp>
    <comp name="--.HHZ">
      <acc value="0.1884505158" flag="0"/>
      <vel value="0.0864495730" flag="0"/>
      <psa03 value="0.3872826622" flag="0"/>
      <psa10 value="0.0581811295" flag="0"/>
      <psa30 value="0.0077822872" flag="0"/>
    </comp>
  </station>
  <station code="GURO" name="GURO" netid="KO" insttype="CMG-3T" commtype="DIG" lat="38.5509" lon="42.0322">
    <comp name="--.HHN">
      <acc value="0.0136823407" flag="0"/>
      <vel value="0.0088132386" flag="0"/>
      <psa03 value="0.0513555077" flag="0"/>
      <psa10 value="0.0110492673" flag="0"/>
      <psa30 value="0.0006039939" flag="0"/>
    </comp>
    <comp name="--.HHE">
      <acc value="0.0214991564" flag="0"/>
      <vel value="0.0127634014" flag="0"/>
      <psa03 value="0.0624649644" flag="0"/>
      <psa10 value="0.0159712721" flag="0"/>
      <psa30 value="0.0008460620" flag="0"/>
    </comp>
    <comp name="--.HHZ">
      <acc value="0.0203456408" flag="0"/>
      <vel value="0.0150030177" flag="0"/>
      <psa03 value="0.0721616971" flag="0"/>
      <psa10 value="0.0192661719" flag="0"/>
      <psa30 value="0.0007548975" flag="0"/>
    </comp>
  </station>
  <station code="MLAZ" name="MLAZ" netid="KO" insttype="CMG-3T" commtype="DIG" lat="39.141" lon="42.5496">
    <comp name="--.HHE">
      <acc value="0.0329390159" flag="0"/>
      <vel value="0.0506129145" flag="0"/>
      <psa03 value="0.0894249471" flag="0"/>
      <psa10 value="0.0715152806" flag="0"/>
      <psa30 value="0.0112204292" flag="0"/>
    </comp>
    <comp name="--.HHZ">
      <acc value="0.0258322849" flag="0"/>
      <vel value="0.0322753562" flag="0"/>
      <psa03 value="0.0635186703" flag="0"/>
      <psa10 value="0.0557207270" flag="0"/>
      <psa30 value="0.0063260433" flag="0"/>
    </comp>
    <comp name="--.HHN">
      <acc value="0.0366073611" flag="0"/>
      <vel value="0.0573054748" flag="0"/>
      <psa03 value="0.0950476824" flag="0"/>
      <psa10 value="0.0925654308" flag="0"/>
      <psa30 value="0.0120870412" flag="0"/>
    </comp>
  </station>
  <station code="TASB" name="TASB" netid="KO" insttype="CMG-3T" commtype="DIG" lat="39.9838" lon="44.2384">
    <comp name="--.HHE">
      <acc value="0.0068157044" flag="0"/>
      <vel value="0.0118528045" flag="0"/>
      <psa03 value="0.0134924225" flag="0"/>
      <psa10 value="0.0166036598" flag="0"/>
      <psa30 value="0.0031309255" flag="0"/>
    </comp>
    <comp name="--.HHN">
      <acc value="0.0072720147" flag="0"/>
      <vel value="0.0114949448" flag="0"/>
      <psa03 value="0.0155838148" flag="0"/>
      <psa10 value="0.0150819324" flag="0"/>
      <psa30 value="0.0023262497" flag="0"/>
    </comp>
    <comp name="--.HHZ">
      <acc value="0.0057613446" flag="0"/>
      <vel value="0.0057564436" flag="0"/>
      <psa03 value="0.0133228119" flag="0"/>
      <psa10 value="0.0081691626" flag="0"/>
      <psa30 value="0.0018615659" flag="0"/>
    </comp>
  </station>
</stationlist>
