<?xml version="1.0" encoding="UTF-8" standalone="yes"?>
<!DOCTYPE earthquake SYSTEM "stationlist.dtd">
<stationlist created="" xmlns="ch.ethz.sed.shakemap.usgs.xml">
  <station code="AGRB" name="AGRB" netid="KO" insttype="CMG-3T" commtype="DIG" lat="39.5755" lon="42.992">
    <comp name="--.HHE">
      <acc value="0.0246829742" flag="0"/>
      <vel value="0.0195135403" flag="0"/>
      <psa03 value="0.0598706965" flag="0"/>
      <psa10 value="0.0331643324" flag="0"/>
      <psa30 value="0.0027922591" flag="0"/>
    </comp>
    <comp name="--.HHN">
      <acc value="0.0173986726" flag="0"/>
      <vel value="0.0142314192" flag="0"/>
      <psa03 value="0.0534493707" flag="0"/>
      <psa10 value="0.0236546174" flag="0"/>
      <psa30 value="0.0023339038" flag="0"/>
    </comp>
    <comp name="--.HHZ">
      <acc value="0.0251870407" flag="0"/>
      <vel value="0.0138147492" flag="0"/>
      <psa03 value="0.0440338605" flag="0"/>
      <psa10 value="0.0318452837" flag="0"/>
      <psa30 value="0.0031563990" flag="0"/>
    </comp>
  </station>
  <station code="CLDR" name="CLDR" netid="KO" insttype="CMG-3ESP" commtype="DIG" lat="39.144" lon="43.9172">
    <comp name="--.HHZ">
      <acc value="0.1884505154" flag="0"/>
      <vel value="0.0864495720" flag="0"/>
      <psa03 value="0.3872826622" flag="0"/>
      <psa10 value="0.0581811295" flag="0"/>
      <psa30 value="0.0077822900" flag="0"/>
    </comp>
    <comp name="--.HHN">
      <acc value="0.6444339549" flag="0"/>
      <vel value="0.2392216263" flag="0"/>
      <psa03 value="1.7307736784" flag="0"/>
      <psa10 value="0.1353967128" flag="0"/>
      <psa30 value="0.0138405876" flag="0"/>
    </comp>
    <comp name="--.HHE">
      <acc value="0.4814590780" flag="0"/>
      <vel value="0.2170361971" flag="0"/>
      <psa03 value="2.2279513911" flag="0"/>
      <psa10 value="0.1434814695" flag="0"/>
      <psa30 value="0.0106169446" flag="0"/>
    </comp>
  </station>
  <station code="MLAZ" name="MLAZ" netid="KO" insttype="CMG-3T" commtype="DIG" lat="39.141" lon="42.5496">
    <comp name="--.HHE">
      <acc value="0.0329390168" flag="0"/>
      <vel value="0.0506129144" flag="0"/>
      <psa03 value="0.0894249471" flag="0"/>
      <psa10 value="0.0715152805" flag="0"/>
      <psa30 value="0.0109296940" flag="0"/>
    </comp>
    <comp name="--.HHN">
      <acc value="0.0366073631" flag="0"/>
      <vel value="0.0573054752" flag="0"/>
      <psa03 value="0.0950476824" flag="0"/>
      <psa10 value="0.0925654308" flag="0"/>
      <psa30 value="0.0120870409" flag="0"/>
    </comp>
    <comp name="--.HHZ">
      <acc value="0.0258322814" flag="0"/>
      <vel value="0.0322753564" flag="0"/>
      <psa03 value="0.0635186703" flag="0"/>
      <psa10 value="0.0557207270" flag="0"/>
      <psa30 value="0.0063260925" flag="0"/>
    </comp>
  </station>
</stationlist>
