<?xml version="1.0" encoding="UTF-8" standalone="yes"?>
<!DOCTYPE earthquake SYSTEM "stationlist.dtd">
<stationlist created="" xmlns="ch.ethz.sed.shakemap.usgs.xml">
  <station code="IT07A" name="IT07A" netid="4P" insttype="" lat="44.8739" lon="9.83696">
    <comp name="--.HHE">
      <acc value="0.0282912372" flag="0"/>
      <vel value="0.0179351907" flag="0"/>
      <psa03 value="0.0995859857" flag="0"/>
      <psa10 value="0.0310204664" flag="0"/>
      <psa30 value="0.0018071906" flag="0"/>
    </comp>
    <comp name="--.HHN">
      <acc value="0.0375322283" flag="0"/>
      <vel value="0.0281564086" flag="0"/>
      <psa03 value="0.0747724087" flag="0"/>
      <psa10 value="0.0224494375" flag="0"/>
      <psa30 value="0.0027753464" flag="0"/>
    </comp>
    <comp name="--.HHZ">
      <acc value="0.0138195540" flag="0"/>
      <vel value="0.0096658845" flag="0"/>
      <psa03 value="0.0401146950" flag="0"/>
      <psa10 value="0.0166913121" flag="0"/>
      <psa30 value="0.0010024076" flag="0"/>
    </comp>
  </station>
  <station code="EQUI" name="EQUI" netid="GU" insttype="" lat="44.166" lon="10.153">
    <comp name="--.HHE">
      <acc value="0.0063760384" flag="0"/>
      <vel value="0.0032123831" flag="0"/>
      <psa03 value="0.0135103632" flag="0"/>
      <psa10 value="0.0038953187" flag="0"/>
      <psa30 value="0.0002304400" flag="0"/>
    </comp>
    <comp name="--.HHN">
      <acc value="0.0080762204" flag="0"/>
      <vel value="0.0041730057" flag="0"/>
      <psa03 value="0.0279541901" flag="0"/>
      <psa10 value="0.0047430049" flag="0"/>
      <psa30 value="0.0003261846" flag="0"/>
    </comp>
    <comp name="--.HHZ">
      <acc value="0.0050129136" flag="0"/>
      <vel value="0.0029502660" flag="0"/>
      <psa03 value="0.0129935595" flag="0"/>
      <psa10 value="0.0036188071" flag="0"/>
      <psa30 value="0.0005386627" flag="0"/>
    </comp>
  </station>
  <station code="GRAM" name="GRAM" netid="GU" insttype="" lat="44.4904" lon="10.065">
    <comp name="--.HHE">
      <acc value="0.6254540951" flag="0"/>
      <vel value="0.2286447001" flag="0"/>
      <psa03 value="1.3775689868" flag="0"/>
      <psa10 value="0.0655573874" flag="0"/>
      <psa30 value="0.0044813974" flag="0"/>
    </comp>
    <comp name="--.HHN">
      <acc value="0.6513103206" flag="0"/>
      <vel value="0.2565160126" flag="0"/>
      <psa03 value="1.2693392129" flag="0"/>
      <psa10 value="0.1367121739" flag="0"/>
      <psa30 value="0.0109954426" flag="0"/>
    </comp>
    <comp name="--.HHZ">
      <acc value="0.4568242822" flag="0"/>
      <vel value="0.0950062296" flag="0"/>
      <psa03 value="0.3626610967" flag="0"/>
      <psa10 value="0.0579710190" flag="0"/>
      <psa30 value="0.0037133353" flag="0"/>
    </comp>
  </station>
  <station code="GSCL" name="GSCL" netid="GU" insttype="" lat="44.3506" lon="10.588">
    <comp name="--.HHE">
      <acc value="0.0138576990" flag="0"/>
      <vel value="0.0070050146" flag="0"/>
      <psa03 value="0.0304776376" flag="0"/>
      <psa10 value="0.0089439672" flag="0"/>
      <psa30 value="0.0008581974" flag="0"/>
    </comp>
    <comp name="--.HHN">
      <acc value="0.0118365950" flag="0"/>
      <vel value="0.0067041443" flag="0"/>
      <psa03 value="0.0329945932" flag="0"/>
      <psa10 value="0.0107425374" flag="0"/>
      <psa30 value="0.0008254609" flag="0"/>
    </comp>
    <comp name="--.HHZ">
      <acc value="0.0054410158" flag="0"/>
      <vel value="0.0026920149" flag="0"/>
      <psa03 value="0.0153797316" flag="0"/>
      <psa10 value="0.0051004811" flag="0"/>
      <psa30 value="0.0004800991" flag="0"/>
    </comp>
  </station>
  <station code="POPM" name="POPM" netid="GU" insttype="" lat="44.045" lon="10.757">
    <comp name="--.HHE">
      <acc value="0.0230865268" flag="0"/>
      <vel value="0.0088541332" flag="0"/>
      <psa03 value="0.0631524880" flag="0"/>
      <psa10 value="0.0055754042" flag="0"/>
      <psa30 value="0.0004081991" flag="0"/>
    </comp>
    <comp name="--.HHN">
      <acc value="0.0132354619" flag="0"/>
      <vel value="0.0072776219" flag="0"/>
      <psa03 value="0.0476011542" flag="0"/>
      <psa10 value="0.0046808403" flag="0"/>
      <psa30 value="0.0003865656" flag="0"/>
    </comp>
    <comp name="--.HHZ">
      <acc value="0.0141138841" flag="0"/>
      <vel value="0.0062355277" flag="0"/>
      <psa03 value="0.0424968172" flag="0"/>
      <psa10 value="0.0036107248" flag="0"/>
      <psa30 value="0.0002143878" flag="0"/>
    </comp>
  </station>
  <station code="BDI" name="BDI" netid="IV" insttype="" lat="44.0624" lon="10.597">
    <comp name="--.HHE">
      <acc value="0.0185088547" flag="0"/>
      <vel value="0.0100472390" flag="0"/>
      <psa03 value="0.0523472783" flag="0"/>
      <psa10 value="0.0062832797" flag="0"/>
      <psa30 value="0.0003734159" flag="0"/>
    </comp>
    <comp name="--.HHN">
      <acc value="0.0325271041" flag="0"/>
      <vel value="0.0163871006" flag="0"/>
      <psa03 value="0.0978466715" flag="0"/>
      <psa10 value="0.0072883518" flag="0"/>
      <psa30 value="0.0004864737" flag="0"/>
    </comp>
    <comp name="--.HHZ">
      <acc value="0.0118868377" flag="0"/>
      <vel value="0.0059331304" flag="0"/>
      <psa03 value="0.0452309657" flag="0"/>
      <psa10 value="0.0028987923" flag="0"/>
      <psa30 value="0.0002741353" flag="0"/>
    </comp>
  </station>
  <station code="BOSL" name="BOSL" netid="IV" insttype="" lat="43.931" lon="11.3743">
    <comp name="--.HHN">
      <acc value="0.0007787166" flag="0"/>
      <vel value="0.0004720243" flag="0"/>
      <psa03 value="0.0018390051" flag="0"/>
      <psa10 value="0.0005957960" flag="0"/>
      <psa30 value="0.0000616336" flag="0"/>
    </comp>
    <comp name="--.HHE">
      <acc value="0.0008813587" flag="0"/>
      <vel value="0.0004722904" flag="0"/>
      <psa03 value="0.0029298688" flag="0"/>
      <psa10 value="0.0005304469" flag="0"/>
      <psa30 value="0.0000628481" flag="0"/>
    </comp>
    <comp name="--.HHZ">
      <acc value="0.0007603898" flag="0"/>
      <vel value="0.0003618567" flag="0"/>
      <psa03 value="0.0016875530" flag="0"/>
      <psa10 value="0.0004645909" flag="0"/>
      <psa30 value="0.0000493310" flag="0"/>
    </comp>
  </station>
  <station code="CAVE" name="CAVE" netid="IV" insttype="" lat="44.8658" lon="11.0031">
    <comp name="--.HHN">
      <acc value="0.0225361202" flag="0"/>
      <vel value="0.0077640072" flag="0"/>
      <psa03 value="0.0539904062" flag="0"/>
      <psa10 value="0.0075088206" flag="0"/>
      <psa30 value="0.0007380896" flag="0"/>
    </comp>
    <comp name="--.HHE">
      <acc value="0.0217777787" flag="0"/>
      <vel value="0.0076012390" flag="0"/>
      <psa03 value="0.0450368485" flag="0"/>
      <psa10 value="0.0093987031" flag="0"/>
      <psa30 value="0.0008427535" flag="0"/>
    </comp>
    <comp name="--.HHZ">
      <acc value="0.0095028442" flag="0"/>
      <vel value="0.0025767320" flag="0"/>
      <psa03 value="0.0136295605" flag="0"/>
      <psa10 value="0.0027793798" flag="0"/>
      <psa30 value="0.0002725128" flag="0"/>
    </comp>
  </station>
  <station code="FNVD" name="FNVD" netid="IV" insttype="" lat="44.1678" lon="11.1229">
    <comp name="--.HHE">
      <acc value="0.0000086127" flag="0"/>
      <vel value="0.0000006539" flag="0"/>
      <psa03 value="0.0000014109" flag="0"/>
      <psa10 value="0.0000002076" flag="0"/>
      <psa30 value="0.0000000385" flag="0"/>
    </comp>
    <comp name="--.HHN">
      <acc value="0.0000104668" flag="0"/>
      <vel value="0.0000006077" flag="0"/>
      <psa03 value="0.0000016403" flag="0"/>
      <psa10 value="0.0000002831" flag="0"/>
      <psa30 value="0.0000000427" flag="0"/>
    </comp>
    <comp name="--.HHZ">
      <acc value="0.0026460090" flag="0"/>
      <vel value="0.0011973068" flag="0"/>
      <psa03 value="0.0073469384" flag="0"/>
      <psa10 value="0.0011764377" flag="0"/>
      <psa30 value="0.0000494215" flag="0"/>
    </comp>
  </station>
  <station code="MAGA" name="MAGA" netid="IV" insttype="" lat="45.7753" lon="10.6286">
    <comp name="--.HHE">
      <acc value="0.0252525343" flag="0"/>
      <vel value="0.0123076478" flag="0"/>
      <psa03 value="0.0628520975" flag="0"/>
      <psa10 value="0.0146426792" flag="0"/>
      <psa30 value="0.0005062899" flag="0"/>
    </comp>
    <comp name="--.HHN">
      <acc value="0.0275680568" flag="0"/>
      <vel value="0.0102950113" flag="0"/>
      <psa03 value="0.0600852778" flag="0"/>
      <psa10 value="0.0043247073" flag="0"/>
      <psa30 value="0.0004347417" flag="0"/>
    </comp>
    <comp name="--.HHZ">
      <acc value="0.0081849647" flag="0"/>
      <vel value="0.0041186171" flag="0"/>
      <psa03 value="0.0294686056" flag="0"/>
      <psa10 value="0.0030978994" flag="0"/>
      <psa30 value="0.0003802150" flag="0"/>
    </comp>
  </station>
  <station code="MBAL" name="MBAL" netid="IV" insttype="" lat="45.6975" lon="10.8589">
    <comp name="--.HHE">
      <acc value="0.0409334465" flag="0"/>
      <vel value="0.0087651769" flag="0"/>
      <psa03 value="0.0526097297" flag="0"/>
      <psa10 value="0.0058831105" flag="0"/>
      <psa30 value="0.0004878794" flag="0"/>
    </comp>
    <comp name="--.HHN">
      <acc value="0.0431637723" flag="0"/>
      <vel value="0.0084387604" flag="0"/>
      <psa03 value="0.0315604178" flag="0"/>
      <psa10 value="0.0060261483" flag="0"/>
      <psa30 value="0.0002290901" flag="0"/>
    </comp>
    <comp name="--.HHZ">
      <acc value="0.0091541194" flag="0"/>
      <vel value="0.0052525830" flag="0"/>
      <psa03 value="0.0128826202" flag="0"/>
      <psa10 value="0.0072171190" flag="0"/>
      <psa30 value="0.0004486567" flag="0"/>
    </comp>
  </station>
  <station code="NEVI" name="NEVI" netid="IV" insttype="" lat="44.5834" lon="10.3163">
    <comp name="--.HNE">
      <acc value="0.2420052915" flag="0"/>
      <vel value="0.1091521620" flag="0"/>
      <psa03 value="0.5105824117" flag="0"/>
      <psa10 value="0.0645540577" flag="0"/>
      <psa30 value="0.0058961321" flag="0"/>
    </comp>
    <comp name="--.HNZ">
      <acc value="0.0615448082" flag="0"/>
      <vel value="0.0398998450" flag="0"/>
      <psa03 value="0.1501680357" flag="0"/>
      <psa10 value="0.0636119138" flag="0"/>
      <psa30 value="0.0035328963" flag="0"/>
    </comp>
  </station>
  <station code="PII" name="PII" netid="IV" insttype="" lat="43.7219" lon="10.525">
    <comp name="--.HHE">
      <acc value="0.0087223241" flag="0"/>
      <vel value="0.0050870007" flag="0"/>
      <psa03 value="0.0238575589" flag="0"/>
      <psa10 value="0.0030364073" flag="0"/>
      <psa30 value="0.0001933406" flag="0"/>
    </comp>
    <comp name="--.HHN">
      <acc value="0.0084197796" flag="0"/>
      <vel value="0.0042061958" flag="0"/>
      <psa03 value="0.0194061353" flag="0"/>
      <psa10 value="0.0024587168" flag="0"/>
      <psa30 value="0.0002336358" flag="0"/>
    </comp>
    <comp name="--.HHZ">
      <acc value="0.0069400250" flag="0"/>
      <vel value="0.0025701089" flag="0"/>
      <psa03 value="0.0240340230" flag="0"/>
      <psa10 value="0.0023353965" flag="0"/>
      <psa30 value="0.0002035869" flag="0"/>
    </comp>
  </station>
  <station code="PRMA" name="PRMA" netid="IV" insttype="" lat="44.7637" lon="10.3131">
    <comp name="--.HHE">
      <acc value="0.3257183240" flag="0"/>
      <vel value="0.1112659127" flag="0"/>
      <psa03 value="0.5724127498" flag="0"/>
      <psa10 value="0.0456086378" flag="0"/>
      <psa30 value="0.0030210317" flag="0"/>
    </comp>
    <comp name="--.HHN">
      <acc value="0.3600236113" flag="0"/>
      <vel value="0.1297209464" flag="0"/>
      <psa03 value="0.6236410511" flag="0"/>
      <psa10 value="0.0463882934" flag="0"/>
      <psa30 value="0.0045458898" flag="0"/>
    </comp>
    <comp name="--.HHZ">
      <acc value="0.3251015867" flag="0"/>
      <vel value="0.0691521634" flag="0"/>
      <psa03 value="0.1913782940" flag="0"/>
      <psa10 value="0.0267488772" flag="0"/>
      <psa30 value="0.0031544462" flag="0"/>
    </comp>
  </station>
  <station code="SBPO" name="SBPO" netid="IV" insttype="" lat="45.0511" lon="10.9199">
    <comp name="--.HNE">
      <acc value="0.1027684146" flag="0"/>
      <vel value="0.0157629223" flag="0"/>
      <psa03 value="0.0648619511" flag="0"/>
      <psa10 value="0.0167310656" flag="0"/>
      <psa30 value="0.0023762446" flag="0"/>
    </comp>
    <comp name="--.HNN">
      <acc value="0.0837714557" flag="0"/>
      <vel value="0.0198963446" flag="0"/>
      <psa03 value="0.1002579279" flag="0"/>
      <psa10 value="0.0298195453" flag="0"/>
      <psa30 value="0.0025198735" flag="0"/>
    </comp>
    <comp name="--.HNZ">
      <acc value="0.0254189160" flag="0"/>
      <vel value="0.0041976927" flag="0"/>
      <psa03 value="0.0252078435" flag="0"/>
      <psa10 value="0.0079096591" flag="0"/>
      <psa30 value="0.0004313657" flag="0"/>
    </comp>
  </station>
  <station code="SERM" name="SERM" netid="IV" insttype="" lat="45.01" lon="11.2958">
    <comp name="--.HNE">
      <acc value="0.0770091445" flag="0"/>
      <vel value="0.0290617986" flag="0"/>
      <psa03 value="0.1864083757" flag="0"/>
      <psa10 value="0.0234956415" flag="0"/>
      <psa30 value="0.0011132647" flag="0"/>
    </comp>
    <comp name="--.HNZ">
      <acc value="0.0208520031" flag="0"/>
      <vel value="0.0051637868" flag="0"/>
      <psa03 value="0.0304392050" flag="0"/>
      <psa10 value="0.0033996211" flag="0"/>
      <psa30 value="0.0004081102" flag="0"/>
    </comp>
    <comp name="--.HNN">
      <acc value="0.0449645388" flag="0"/>
      <vel value="0.0196465285" flag="0"/>
      <psa03 value="0.0981663506" flag="0"/>
      <psa10 value="0.0142915679" flag="0"/>
      <psa30 value="0.0010869009" flag="0"/>
    </comp>
  </station>
  <station code="TREG" name="TREG" netid="IV" insttype="" lat="45.523" lon="11.1606">
    <comp name="--.HNE">
      <acc value="0.0426565317" flag="0"/>
      <vel value="0.0135102687" flag="0"/>
      <psa03 value="0.0708211031" flag="0"/>
      <psa10 value="0.0044396519" flag="0"/>
      <psa30 value="0.0002859878" flag="0"/>
    </comp>
    <comp name="--.HNN">
      <acc value="0.0344793591" flag="0"/>
      <vel value="0.0154295667" flag="0"/>
      <psa03 value="0.0429736046" flag="0"/>
      <psa10 value="0.0116218463" flag="0"/>
      <psa30 value="0.0006246008" flag="0"/>
    </comp>
    <comp name="--.HNZ">
      <acc value="0.0233086843" flag="0"/>
      <vel value="0.0065210656" flag="0"/>
      <psa03 value="0.0357075028" flag="0"/>
      <psa10 value="0.0045962978" flag="0"/>
      <psa30 value="0.0004131159" flag="0"/>
    </comp>
  </station>
  <station code="VLC" name="VLC" netid="MN" insttype="" lat="44.1594" lon="10.3864">
    <comp name="--.HHE">
      <acc value="0.0145958108" flag="0"/>
      <vel value="0.0051676327" flag="0"/>
      <psa03 value="0.0352019348" flag="0"/>
      <psa10 value="0.0041446507" flag="0"/>
      <psa30 value="0.0005183358" flag="0"/>
    </comp>
    <comp name="--.HHN">
      <acc value="0.0129757858" flag="0"/>
      <vel value="0.0113943824" flag="0"/>
      <psa03 value="0.0217641687" flag="0"/>
      <psa10 value="0.0155674051" flag="0"/>
      <psa30 value="0.0006968412" flag="0"/>
    </comp>
    <comp name="--.HHZ">
      <acc value="0.0069300168" flag="0"/>
      <vel value="0.0051711020" flag="0"/>
      <psa03 value="0.0113840175" flag="0"/>
      <psa10 value="0.0084672389" flag="0"/>
      <psa30 value="0.0006099054" flag="0"/>
    </comp>
  </station>
  <station code="BALD" name="BALD" netid="OX" insttype="" lat="45.683" lon="10.8187">
    <comp name="--.HHE">
      <acc value="0.0396915245" flag="0"/>
      <vel value="0.0166390445" flag="0"/>
      <psa03 value="0.1341160592" flag="0"/>
      <psa10 value="0.0092138537" flag="0"/>
      <psa30 value="0.0005726811" flag="0"/>
    </comp>
    <comp name="--.HHN">
      <acc value="0.0394134076" flag="0"/>
      <vel value="0.0145884045" flag="0"/>
      <psa03 value="0.1136430219" flag="0"/>
      <psa10 value="0.0175801993" flag="0"/>
      <psa30 value="0.0007997732" flag="0"/>
    </comp>
    <comp name="--.HHZ">
      <acc value="0.0151442785" flag="0"/>
      <vel value="0.0064734307" flag="0"/>
      <psa03 value="0.0305871977" flag="0"/>
      <psa10 value="0.0130414722" flag="0"/>
      <psa30 value="0.0006941343" flag="0"/>
    </comp>
  </station>
</stationlist>
