<stationlist xmlns:esm="https://esm-db.eu/esmws/shakemap/1/" created="1781229290">
	<station code="GTH2" name="GTH2" netid="HI" source="ITSAK Strong Motion Network" insttype="" lat="36.7603" lon="22.5659" esm:processing="manual (Paolucci et al 2011)" esm:quality="good">
		<comp name="--.HNE" depth="0.0">
			<acc value="0.0206713772517317" flag="0"/>
			<vel value="0.01905120225584" flag="0"/>
			<psa03 value="0.0612735538638951" flag="0"/>
			<psa10 value="0.0142015964110644" flag="0"/>
			<psa30 value="0.000773322843426438" flag="0"/>
		</comp>
		<comp name="--.HNN" depth="0.0">
			<acc value="0.0261786849815034" flag="0"/>
			<vel value="0.0172251314043774" flag="0"/>
			<psa03 value="0.0807601676730913" flag="0"/>
			<psa10 value="0.00773339808091931" flag="0"/>
			<psa30 value="0.000807777730060249" flag="0"/>
		</comp>
		<comp name="--.HNZ" depth="0.0">
			<acc value="0.0133869566671186" flag="0"/>
			<vel value="0.00678145857421326" flag="0"/>
			<psa03 value="0.0267248016369499" flag="0"/>
			<psa10 value="0.00619453004471428" flag="0"/>
			<psa30 value="0.000556053450395453" flag="0"/>
		</comp>
	</station>
	<station code="KAL3" name="KAL3" netid="HI" source="ITSAK Strong Motion Network" insttype="" lat="37.0246" lon="22.103" esm:processing="automatic (Paolucci et al 2011)" esm:quality="best">
		<comp name="--.HNE" depth="0.0">
			<acc value="0.0468140182788881" flag="0"/>
			<vel value="0.0239514855113646" flag="0"/>
			<psa03 value="0.212513452973298" flag="0"/>
			<psa10 value="0.0176719319287609" flag="0"/>
			<psa30 value="0.00142939771141659" flag="0"/>
		</comp>
		<comp name="--.HNN" depth="0.0">
			<acc value="0.0474755745564817" flag="0"/>
			<vel value="0.0295463074639979" flag="0"/>
			<psa03 value="0.142771968358882" flag="0"/>
			<psa10 value="0.0213310812044423" flag="0"/>
			<psa30 value="0.00122799353604508" flag="0"/>
		</comp>
		<comp name="--.HNZ" depth="0.0">
			<acc value="0.0358481866305095" flag="0"/>
			<vel value="0.0112989794836959" flag="0"/>
			<psa03 value="0.0667047730305099" flag="0"/>
			<psa10 value="0.00859857523840992" flag="0"/>
			<psa30 value="0.000564459736437314" flag="0"/>
		</comp>
	</station>
	<station code="PET1" name="PET1" netid="HI" source="ITSAK Strong Motion Network" insttype="" lat="36.963862" lon="21.92538" esm:processing="automatic (Paolucci et al 2011)" esm:quality="best">
		<comp name="--.HNE" depth="0.0">
			<acc value="0.0877889243351971" flag="0"/>
			<vel value="0.0382033006153441" flag="0"/>
			<psa03 value="0.169317216434623" flag="0"/>
			<psa10 value="0.0213115630364594" flag="0"/>
			<psa30 value="0.0011302767502876" flag="0"/>
		</comp>
		<comp name="--.HNN" depth="0.0">
			<acc value="0.0776738082453373" flag="0"/>
			<vel value="0.0411033205667911" flag="0"/>
			<psa03 value="0.172877379361278" flag="0"/>
			<psa10 value="0.0200279392526835" flag="0"/>
			<psa30 value="0.0013472633120824" flag="0"/>
		</comp>
		<comp name="--.HNZ" depth="0.0">
			<acc value="0.0334061115460991" flag="0"/>
			<vel value="0.0125947729604444" flag="0"/>
			<psa03 value="0.108960634773969" flag="0"/>
			<psa10 value="0.00562181038609766" flag="0"/>
			<psa30 value="0.000392478916468696" flag="0"/>
		</comp>
	</station>
	<station code="PYL1" name="PYL1" netid="HI" source="ITSAK Strong Motion Network" insttype="" lat="36.914188" lon="21.695161" esm:processing="automatic (Paolucci et al 2011)" esm:quality="best">
		<comp name="--.HNE" depth="0.0">
			<acc value="0.0345891775391782" flag="0"/>
			<vel value="0.0131514389235444" flag="0"/>
			<psa03 value="0.11133436493861" flag="0"/>
			<psa10 value="0.00883107376529629" flag="0"/>
			<psa30 value="0.000636035884255829" flag="0"/>
		</comp>
		<comp name="--.HNN" depth="0.0">
			<acc value="0.0467915977620591" flag="0"/>
			<vel value="0.019738262918534" flag="0"/>
			<psa03 value="0.0921030076222368" flag="0"/>
			<psa10 value="0.0102346989360752" flag="0"/>
			<psa30 value="0.000644318099578614" flag="0"/>
		</comp>
		<comp name="--.HNZ" depth="0.0">
			<acc value="0.0319606930673657" flag="0"/>
			<vel value="0.0106866365873547" flag="0"/>
			<psa03 value="0.063961950706992" flag="0"/>
			<psa10 value="0.00417679231699237" flag="0"/>
			<psa30 value="0.00032033577796483" flag="0"/>
		</comp>
	</station>
</stationlist>
