<?xml version="1.0" encoding="UTF-8" standalone="yes"?>
<!DOCTYPE earthquake SYSTEM "stationlist.dtd">
<stationlist created="" xmlns="ch.ethz.sed.shakemap.usgs.xml">
  <station code="PYL1" name="PYL1" netid="HI" source="NOA" insttype="CMG-5TD,ACCELEROMETER,GURALP" lat="36.9142" lon="21.6952">
    <comp name="--.HNE">
      <acc value="0.0348415833" flag="0"/>
      <vel value="0.0129467719" flag="0"/>
      <psa03 value="0.1079038193" flag="0"/>
      <psa10 value="0.0087854867" flag="0"/>
      <psa30 value="0.0006321014" flag="0"/>
    </comp>
    <comp name="--.HNN">
      <acc value="0.0466034648" flag="0"/>
      <vel value="0.0196169269" flag="0"/>
      <psa03 value="0.0929181756" flag="0"/>
      <psa10 value="0.0101337846" flag="0"/>
      <psa30 value="0.0006464338" flag="0"/>
    </comp>
    <comp name="--.HNZ">
      <acc value="0.0319590384" flag="0"/>
      <vel value="0.0105622811" flag="0"/>
      <psa03 value="0.0637434258" flag="0"/>
      <psa10 value="0.0041436743" flag="0"/>
      <psa30 value="0.0003175960" flag="0"/>
    </comp>
  </station>
  <station code="ITM" name="ITM" netid="HL" source="NOA" insttype="DR24" lat="37.1787" lon="21.9252">
    <comp name="--.HHE">
      <acc value="0.0117431861" flag="0"/>
      <vel value="0.0046225641" flag="0"/>
      <psa03 value="0.0251645116" flag="0"/>
      <psa10 value="0.0050362988" flag="0"/>
      <psa30 value="0.0002797848" flag="0"/>
    </comp>
    <comp name="--.HHN">
      <acc value="0.0187098235" flag="0"/>
      <vel value="0.0064224433" flag="0"/>
      <psa03 value="0.0521660298" flag="0"/>
      <psa10 value="0.0040472292" flag="0"/>
      <psa30 value="0.0003727492" flag="0"/>
    </comp>
    <comp name="--.HHZ">
      <acc value="0.0091607542" flag="0"/>
      <vel value="0.0041128821" flag="0"/>
      <psa03 value="0.0190016938" flag="0"/>
      <psa10 value="0.0043746566" flag="0"/>
      <psa30 value="0.0002816643" flag="0"/>
    </comp>
  </station>
  <station code="PYL" name="PYL" netid="HP" source="NOA" insttype="120s" lat="36.8955" lon="21.742">
    <comp name="--.HHE">
      <acc value="0.0609828657" flag="0"/>
      <vel value="0.0183445846" flag="0"/>
      <psa03 value="0.1845265934" flag="0"/>
      <psa10 value="0.0054260431" flag="0"/>
      <psa30 value="0.0005614855" flag="0"/>
    </comp>
    <comp name="--.HHN">
      <acc value="0.0020733761" flag="0"/>
      <vel value="0.0009937899" flag="0"/>
      <psa03 value="0.0029309815" flag="0"/>
      <psa10 value="0.0006404612" flag="0"/>
      <psa30 value="0.0000312514" flag="0"/>
    </comp>
    <comp name="--.HHZ">
      <acc value="0.0016963128" flag="0"/>
      <vel value="0.0006763536" flag="0"/>
      <psa03 value="0.0057377771" flag="0"/>
      <psa10 value="0.0002177833" flag="0"/>
      <psa30 value="0.0000200383" flag="0"/>
    </comp>
  </station>
</stationlist>
