<stationlist xmlns:esm="https://esm-db.eu/esmws/shakemap/1/" created="1780538091">
	<station code="AGR3" name="AGR3" netid="HI" source="ITSAK Strong Motion Network" insttype="" lat="38.5893" lon="21.4162" esm:processing="manual (Paolucci et al 2011)" esm:quality="good">
		<comp name="--.HNE" depth="0.0">
			<acc value="0.0194639421476752" flag="0"/>
			<vel value="0.0271206568452155" flag="0"/>
			<psa03 value="0.065105437915741" flag="0"/>
			<psa10 value="0.0331425055283363" flag="0"/>
			<psa30 value="0.00615304885928933" flag="0"/>
		</comp>
		<comp name="--.HNN" depth="0.0">
			<acc value="0.0203761239912772" flag="0"/>
			<vel value="0.0235918337827545" flag="0"/>
			<psa03 value="0.0540342982570729" flag="0"/>
			<psa10 value="0.0334268981179496" flag="0"/>
			<psa30 value="0.00681145414207469" flag="0"/>
		</comp>
		<comp name="--.HNZ" depth="0.0">
			<acc value="0.0121959111357182" flag="0"/>
			<vel value="0.0135034584037057" flag="0"/>
			<psa03 value="0.0285571521878479" flag="0"/>
			<psa10 value="0.0286542457031501" flag="0"/>
			<psa30 value="0.00333023707019528" flag="0"/>
		</comp>
	</station>
	<station code="AKR1" name="AKR1" netid="HI" source="ITSAK Strong Motion Network" insttype="" lat="38.153583" lon="22.31326" esm:processing="manual (Paolucci et al 2011)" esm:quality="good">
		<comp name="--.HNE" depth="0.0">
			<acc value="0.0124778223161671" flag="0"/>
			<vel value="0.0108900780916239" flag="0"/>
			<psa03 value="0.0447845813420559" flag="0"/>
			<psa10 value="0.0253524632262653" flag="0"/>
			<psa30 value="0.00252756993910379" flag="0"/>
		</comp>
		<comp name="--.HNN" depth="0.0">
			<acc value="0.0109668745370444" flag="0"/>
			<vel value="0.0094624857648941" flag="0"/>
			<psa03 value="0.0365793034076622" flag="0"/>
			<psa10 value="0.0141949575337714" flag="0"/>
			<psa30 value="0.00164363284094251" flag="0"/>
		</comp>
		<comp name="--.HNZ" depth="0.0">
			<acc value="0.00585038099196696" flag="0"/>
			<vel value="0.00561496150519078" flag="0"/>
			<psa03 value="0.0171702637477893" flag="0"/>
			<psa10 value="0.0108237063924285" flag="0"/>
			<psa30 value="0.00128830628146847" flag="0"/>
		</comp>
	</station>
	<station code="AOL1" name="AOL1" netid="HI" source="ITSAK Strong Motion Network" insttype="" lat="37.642378" lon="21.624555" esm:processing="automatic (Paolucci et al 2011)" esm:quality="best">
		<comp name="--.HNE" depth="0.0">
			<acc value="0.0628669225447569" flag="0"/>
			<vel value="0.0557825697821393" flag="0"/>
			<psa03 value="0.208495395130018" flag="0"/>
			<psa10 value="0.0736181493410947" flag="0"/>
			<psa30 value="0.0102579003688896" flag="0"/>
		</comp>
		<comp name="--.HNN" depth="0.0">
			<acc value="0.0772954727004266" flag="0"/>
			<vel value="0.0626599849893258" flag="0"/>
			<psa03 value="0.152355394880523" flag="0"/>
			<psa10 value="0.0759858461893908" flag="0"/>
			<psa30 value="0.0164742680060705" flag="0"/>
		</comp>
		<comp name="--.HNZ" depth="0.0">
			<acc value="0.0537831148987631" flag="0"/>
			<vel value="0.0324475903666427" flag="0"/>
			<psa03 value="0.142102726108201" flag="0"/>
			<psa10 value="0.0397009324919355" flag="0"/>
			<psa30 value="0.00473293270023003" flag="0"/>
		</comp>
	</station>
	<station code="ARG2" name="ARG2" netid="HI" source="ITSAK Strong Motion Network" insttype="" lat="38.1783" lon="20.4878" esm:processing="manual (Paolucci et al 2011)" esm:quality="best">
		<comp name="--.HNE" depth="0.0">
			<acc value="0.0914521140441133" flag="0"/>
			<vel value="0.0392284023669683" flag="0"/>
			<psa03 value="0.164696062561858" flag="0"/>
			<psa10 value="0.0568060477887564" flag="0"/>
			<psa30 value="0.00521112480483011" flag="0"/>
		</comp>
		<comp name="--.HNN" depth="0.0">
			<acc value="0.0682020051010801" flag="0"/>
			<vel value="0.0322883801746134" flag="0"/>
			<psa03 value="0.122996325993629" flag="0"/>
			<psa10 value="0.0382465330614311" flag="0"/>
			<psa30 value="0.00392568120868716" flag="0"/>
		</comp>
		<comp name="--.HNZ" depth="0.0">
			<acc value="0.0460723273588103" flag="0"/>
			<vel value="0.018340535274465" flag="0"/>
			<psa03 value="0.0990592454528537" flag="0"/>
			<psa10 value="0.014870967213715" flag="0"/>
			<psa30 value="0.00263173659328674" flag="0"/>
		</comp>
	</station>
	<station code="AST1" name="AST1" netid="HI" source="ITSAK Strong Motion Network" insttype="" lat="38.5416" lon="21.0895" esm:processing="automatic (Paolucci et al 2011)" esm:quality="best">
		<comp name="--.HNE" depth="0.0">
			<acc value="0.0146666562147993" flag="0"/>
			<vel value="0.0126075649030756" flag="0"/>
			<psa03 value="0.042548875945879" flag="0"/>
			<psa10 value="0.0194080813151372" flag="0"/>
			<psa30 value="0.00393351390932514" flag="0"/>
		</comp>
		<comp name="--.HNN" depth="0.0">
			<acc value="0.0179075894679094" flag="0"/>
			<vel value="0.0120597446796361" flag="0"/>
			<psa03 value="0.0411187134963023" flag="0"/>
			<psa10 value="0.0133072634158926" flag="0"/>
			<psa30 value="0.00181512857669335" flag="0"/>
		</comp>
		<comp name="--.HNZ" depth="0.0">
			<acc value="0.0109786000137982" flag="0"/>
			<vel value="0.00890344823021326" flag="0"/>
			<psa03 value="0.031119103154526" flag="0"/>
			<psa10 value="0.0164705548434251" flag="0"/>
			<psa30 value="0.00181983576352138" flag="0"/>
		</comp>
	</station>
	<station code="KAC1" name="KAC1" netid="HI" source="ITSAK Strong Motion Network" insttype="" lat="38.143412" lon="21.549694" esm:processing="automatic (Paolucci et al 2011)" esm:quality="best">
		<comp name="--.HNE" depth="0.0">
			<acc value="0.0380714658156994" flag="0"/>
			<vel value="0.047210572025489" flag="0"/>
			<psa03 value="0.158055387060364" flag="0"/>
			<psa10 value="0.042917246806974" flag="0"/>
			<psa30 value="0.0115695630934411" flag="0"/>
		</comp>
		<comp name="--.HNN" depth="0.0">
			<acc value="0.0464832615033903" flag="0"/>
			<vel value="0.035519448698741" flag="0"/>
			<psa03 value="0.137250779690563" flag="0"/>
			<psa10 value="0.0431932088381042" flag="0"/>
			<psa30 value="0.00613723156147097" flag="0"/>
		</comp>
		<comp name="--.HNZ" depth="0.0">
			<acc value="0.0153460537694502" flag="0"/>
			<vel value="0.024895181390245" flag="0"/>
			<psa03 value="0.0504703798733042" flag="0"/>
			<psa10 value="0.0417555736018254" flag="0"/>
			<psa30 value="0.00427355101844814" flag="0"/>
		</comp>
	</station>
	<station code="KLV1" name="KLV1" netid="HI" source="ITSAK Strong Motion Network" insttype="" lat="38.03256" lon="22.10797" esm:processing="manual (Paolucci et al 2011)" esm:quality="good">
		<comp name="--.HNE" depth="0.0">
			<acc value="0.0147324313777183" flag="0"/>
			<vel value="0.0105449279714927" flag="0"/>
			<psa03 value="0.0583438374302264" flag="0"/>
			<psa10 value="0.0157608897033524" flag="0"/>
			<psa30 value="0.00253822538145456" flag="0"/>
		</comp>
		<comp name="--.HNN" depth="0.0">
			<acc value="0.0142571998755269" flag="0"/>
			<vel value="0.010431642567116" flag="0"/>
			<psa03 value="0.0613863074802689" flag="0"/>
			<psa10 value="0.0171501352188497" flag="0"/>
			<psa30 value="0.00224426908397251" flag="0"/>
		</comp>
		<comp name="--.HNZ" depth="0.0">
			<acc value="0.00850110913505037" flag="0"/>
			<vel value="0.00641436506854528" flag="0"/>
			<psa03 value="0.0227290409620821" flag="0"/>
			<psa10 value="0.0157488093075655" flag="0"/>
			<psa30 value="0.00201429414195459" flag="0"/>
		</comp>
	</station>
	<station code="KRI1" name="KRI1" netid="HI" source="ITSAK Strong Motion Network" insttype="" lat="37.6621" lon="20.8172" esm:processing="manual (Paolucci et al 2011)" esm:quality="best">
		<comp name="--.HNE" depth="0.0">
			<acc value="0.243665419480854" flag="0"/>
			<vel value="0.109199484722913" flag="0"/>
			<psa03 value="0.582856725616226" flag="0"/>
			<psa10 value="0.0796138350344866" flag="0"/>
			<psa30 value="0.00790236853291916" flag="0"/>
		</comp>
		<comp name="--.HNN" depth="0.0">
			<acc value="0.246432549249811" flag="0"/>
			<vel value="0.131385978193301" flag="0"/>
			<psa03 value="0.987505242271876" flag="0"/>
			<psa10 value="0.134052125249004" flag="0"/>
			<psa30 value="0.0127466072434794" flag="0"/>
		</comp>
		<comp name="--.HNZ" depth="0.0">
			<acc value="0.14455378752933" flag="0"/>
			<vel value="0.0446325983045164" flag="0"/>
			<psa03 value="0.251764396641015" flag="0"/>
			<psa10 value="0.0353834792599278" flag="0"/>
			<psa30 value="0.00491493139701715" flag="0"/>
		</comp>
	</station>
	<station code="KYP2" name="KYP2" netid="HI" source="ITSAK Strong Motion Network" insttype="" lat="37.2497" lon="21.667" esm:processing="manual (Paolucci et al 2011)" esm:quality="good">
		<comp name="--.HNE" depth="0.0">
			<acc value="0.0891077855936541" flag="0"/>
			<vel value="0.0250744329107986" flag="0"/>
			<psa03 value="0.141188561382607" flag="0"/>
			<psa10 value="0.0222920242372021" flag="0"/>
			<psa30 value="0.00305281869258926" flag="0"/>
		</comp>
		<comp name="--.HNN" depth="0.0">
			<acc value="0.104176553936718" flag="0"/>
			<vel value="0.0454313523881959" flag="0"/>
			<psa03 value="0.170952783116222" flag="0"/>
			<psa10 value="0.0539723379025035" flag="0"/>
			<psa30 value="0.00555120065646628" flag="0"/>
		</comp>
		<comp name="--.HNZ" depth="0.0">
			<acc value="0.0670849541341123" flag="0"/>
			<vel value="0.0204311169531215" flag="0"/>
			<psa03 value="0.0540108956650994" flag="0"/>
			<psa10 value="0.0198531382979781" flag="0"/>
			<psa30 value="0.00268136596066876" flag="0"/>
		</comp>
	</station>
	<station code="LEF2" name="LEF2" netid="HI" source="ITSAK Strong Motion Network" insttype="" lat="38.830093" lon="20.708346" esm:processing="manual (Paolucci et al 2011)" esm:quality="good">
		<comp name="--.HNE" depth="0.0">
			<acc value="0.0446344065811739" flag="0"/>
			<vel value="0.0388790969552751" flag="0"/>
			<psa03 value="0.0945521386151454" flag="0"/>
			<psa10 value="0.0598106384112593" flag="0"/>
			<psa30 value="0.00986342423678184" flag="0"/>
		</comp>
		<comp name="--.HNN" depth="0.0">
			<acc value="0.0387235835016476" flag="0"/>
			<vel value="0.0360133116323928" flag="0"/>
			<psa03 value="0.0748797572914298" flag="0"/>
			<psa10 value="0.0656918492626147" flag="0"/>
			<psa30 value="0.00772139150429253" flag="0"/>
		</comp>
		<comp name="--.HNZ" depth="0.0">
			<acc value="0.029651106439856" flag="0"/>
			<vel value="0.0284853275907338" flag="0"/>
			<psa03 value="0.0539404691246867" flag="0"/>
			<psa10 value="0.0322541204271833" flag="0"/>
			<psa30 value="0.0039665431806856" flag="0"/>
		</comp>
	</station>
	<station code="LEO1" name="LEO1" netid="HI" source="ITSAK Strong Motion Network" insttype="" lat="37.1689" lon="22.8637" esm:processing="automatic (Paolucci et al 2011)" esm:quality="best">
		<comp name="--.HNE" depth="0.0">
			<acc value="0.00517602124359474" flag="0"/>
			<vel value="0.00392987803387116" flag="0"/>
			<psa03 value="0.0116468223260695" flag="0"/>
			<psa10 value="0.00643078444540885" flag="0"/>
			<psa30 value="0.00124899888587975" flag="0"/>
		</comp>
		<comp name="--.HNN" depth="0.0">
			<acc value="0.00450809927794403" flag="0"/>
			<vel value="0.00411641842142148" flag="0"/>
			<psa03 value="0.0112901997432402" flag="0"/>
			<psa10 value="0.00552446331233178" flag="0"/>
			<psa30 value="0.00147086337497997" flag="0"/>
		</comp>
		<comp name="--.HNZ" depth="0.0">
			<acc value="0.00532315790054082" flag="0"/>
			<vel value="0.0027792347443583" flag="0"/>
			<psa03 value="0.00963431075184623" flag="0"/>
			<psa10 value="0.00486502525279669" flag="0"/>
			<psa30 value="0.00164395442474586" flag="0"/>
		</comp>
	</station>
	<station code="LXR1" name="LXR1" netid="HI" source="ITSAK Strong Motion Network" insttype="" lat="38.201" lon="20.4374" esm:processing="automatic (Paolucci et al 2011)" esm:quality="best">
		<comp name="--.HNE" depth="0.0">
			<acc value="0.126599336986625" flag="0"/>
			<vel value="0.0954654488539639" flag="0"/>
			<psa03 value="0.41292689604699" flag="0"/>
			<psa10 value="0.103413520638215" flag="0"/>
			<psa30 value="0.0129265838227379" flag="0"/>
		</comp>
		<comp name="--.HNN" depth="0.0">
			<acc value="0.141140503592505" flag="0"/>
			<vel value="0.107487549868879" flag="0"/>
			<psa03 value="0.360674934610984" flag="0"/>
			<psa10 value="0.117157618617254" flag="0"/>
			<psa30 value="0.0124976887438771" flag="0"/>
		</comp>
		<comp name="--.HNZ" depth="0.0">
			<acc value="0.106431510613208" flag="0"/>
			<vel value="0.0479428610868336" flag="0"/>
			<psa03 value="0.218159722844299" flag="0"/>
			<psa10 value="0.0506495540343796" flag="0"/>
			<psa30 value="0.00540086528081878" flag="0"/>
		</comp>
	</station>
	<station code="MSL1" name="MSL1" netid="HI" source="ITSAK Strong Motion Network" insttype="" lat="38.3727" lon="21.4243" esm:processing="manual (Paolucci et al 2011)" esm:quality="good">
		<comp name="--.HNE" depth="0.0">
			<acc value="0.0261136930102379" flag="0"/>
			<vel value="0.0401908408230749" flag="0"/>
			<psa03 value="0.0607151743809948" flag="0"/>
			<psa10 value="0.0590449478079347" flag="0"/>
			<psa30 value="0.00979854324940151" flag="0"/>
		</comp>
		<comp name="--.HNN" depth="0.0">
			<acc value="0.0290130206347811" flag="0"/>
			<vel value="0.0343077384766409" flag="0"/>
			<psa03 value="0.0871130762857751" flag="0"/>
			<psa10 value="0.0560691436457534" flag="0"/>
			<psa30 value="0.007373068228625" flag="0"/>
		</comp>
		<comp name="--.HNZ" depth="0.0">
			<acc value="0.0169493507136506" flag="0"/>
			<vel value="0.0151516187158642" flag="0"/>
			<psa03 value="0.0268453239709631" flag="0"/>
			<psa10 value="0.0328023013601198" flag="0"/>
			<psa30 value="0.00248095535698317" flag="0"/>
		</comp>
	</station>
	<station code="NMA1" name="NMA1" netid="HI" source="ITSAK Strong Motion Network" insttype="" lat="37.81873" lon="22.662702" esm:processing="manual (Paolucci et al 2011)" esm:quality="good">
		<comp name="--.HNE" depth="0.0">
			<acc value="0.0166557530971553" flag="0"/>
			<vel value="0.0110777996032111" flag="0"/>
			<psa03 value="0.0333105243670931" flag="0"/>
			<psa10 value="0.0179340067899343" flag="0"/>
			<psa30 value="0.0036288120576562" flag="0"/>
		</comp>
		<comp name="--.HNN" depth="0.0">
			<acc value="0.0119131479660172" flag="0"/>
			<vel value="0.0117386413265989" flag="0"/>
			<psa03 value="0.024162186563778" flag="0"/>
			<psa10 value="0.0215318207524521" flag="0"/>
			<psa30 value="0.00286635071500088" flag="0"/>
		</comp>
		<comp name="--.HNZ" depth="0.0">
			<acc value="0.00772737536223512" flag="0"/>
			<vel value="0.00694104116545715" flag="0"/>
			<psa03 value="0.0180336881329174" flag="0"/>
			<psa10 value="0.0136267320791237" flag="0"/>
			<psa30 value="0.00140631201543587" flag="0"/>
		</comp>
	</station>
	<station code="PET1" name="PET1" netid="HI" source="ITSAK Strong Motion Network" insttype="" lat="36.963862" lon="21.92538" esm:processing="automatic (Paolucci et al 2011)" esm:quality="best">
		<comp name="--.HNE" depth="0.0">
			<acc value="0.0332317791002446" flag="0"/>
			<vel value="0.025703943000785" flag="0"/>
			<psa03 value="0.0974522265650725" flag="0"/>
			<psa10 value="0.0541118846467905" flag="0"/>
			<psa30 value="0.00362825993774763" flag="0"/>
		</comp>
		<comp name="--.HNN" depth="0.0">
			<acc value="0.0341200381993919" flag="0"/>
			<vel value="0.0285068693791875" flag="0"/>
			<psa03 value="0.0891053194567744" flag="0"/>
			<psa10 value="0.0340421563757896" flag="0"/>
			<psa30 value="0.00352662237142434" flag="0"/>
		</comp>
		<comp name="--.HNZ" depth="0.0">
			<acc value="0.01864874697071" flag="0"/>
			<vel value="0.0121834329336372" flag="0"/>
			<psa03 value="0.0679179211039493" flag="0"/>
			<psa10 value="0.0169848376621379" flag="0"/>
			<psa30 value="0.00151148960793519" flag="0"/>
		</comp>
	</station>
	<station code="PYL1" name="PYL1" netid="HI" source="ITSAK Strong Motion Network" insttype="" lat="36.914188" lon="21.695161" esm:processing="manual (Paolucci et al 2011)" esm:quality="best">
		<comp name="--.HNE" depth="0.0">
			<acc value="0.0309661820856127" flag="0"/>
			<vel value="0.0156240982038823" flag="0"/>
			<psa03 value="0.127246835622365" flag="0"/>
			<psa10 value="0.0199125190554618" flag="0"/>
			<psa30 value="0.00243755541656344" flag="0"/>
		</comp>
		<comp name="--.HNN" depth="0.0">
			<acc value="0.02788979347263" flag="0"/>
			<vel value="0.0164173974151555" flag="0"/>
			<psa03 value="0.0635339333979459" flag="0"/>
			<psa10 value="0.0171300012258715" flag="0"/>
			<psa30 value="0.00169930900736196" flag="0"/>
		</comp>
		<comp name="--.HNZ" depth="0.0">
			<acc value="0.015947615993445" flag="0"/>
			<vel value="0.00608113991006141" flag="0"/>
			<psa03 value="0.0458160195771103" flag="0"/>
			<psa10 value="0.0156884073286308" flag="0"/>
			<psa30 value="0.00170378322802379" flag="0"/>
		</comp>
	</station>
	<station code="PYR2" name="PYR2" netid="HI" source="ITSAK Strong Motion Network" insttype="" lat="37.6671" lon="21.4506" esm:processing="manual (Paolucci et al 2011)" esm:quality="good">
		<comp name="--.HNE" depth="0.0">
			<acc value="0.14844393928226" flag="0"/>
			<vel value="0.0726789937029366" flag="0"/>
			<psa03 value="0.407112927566778" flag="0"/>
			<psa10 value="0.0628760352287543" flag="0"/>
			<psa30 value="0.0081200312455523" flag="0"/>
		</comp>
		<comp name="--.HNN" depth="0.0">
			<acc value="0.0780377350055344" flag="0"/>
			<vel value="0.0481266768628658" flag="0"/>
			<psa03 value="0.182342704309269" flag="0"/>
			<psa10 value="0.068695400733159" flag="0"/>
			<psa30 value="0.00789158777896045" flag="0"/>
		</comp>
		<comp name="--.HNZ" depth="0.0">
			<acc value="0.0962276728584121" flag="0"/>
			<vel value="0.0260017645028482" flag="0"/>
			<psa03 value="0.105734473139928" flag="0"/>
			<psa10 value="0.0358871961006164" flag="0"/>
			<psa30 value="0.00414155977467602" flag="0"/>
		</comp>
	</station>
	<station code="PYR3" name="PYR3" netid="HI" source="ITSAK Strong Motion Network" insttype="" lat="37.6788" lon="21.46209" esm:processing="automatic (Paolucci et al 2011)" esm:quality="best">
		<comp name="--.HNE" depth="0.0">
			<acc value="0.216023683827022" flag="0"/>
			<vel value="0.103738660036411" flag="0"/>
			<psa03 value="0.452421054007794" flag="0"/>
			<psa10 value="0.0596777671091877" flag="0"/>
			<psa30 value="0.00865356908981602" flag="0"/>
		</comp>
		<comp name="--.HNN" depth="0.0">
			<acc value="0.149234654367997" flag="0"/>
			<vel value="0.0773352826765938" flag="0"/>
			<psa03 value="0.434136801099107" flag="0"/>
			<psa10 value="0.0661263680473517" flag="0"/>
			<psa30 value="0.0111754811541134" flag="0"/>
		</comp>
		<comp name="--.HNZ" depth="0.0">
			<acc value="0.126459331230633" flag="0"/>
			<vel value="0.0384215805751945" flag="0"/>
			<psa03 value="0.234454093933082" flag="0"/>
			<psa10 value="0.0293830521079976" flag="0"/>
			<psa30 value="0.00530589357274255" flag="0"/>
		</comp>
	</station>
	<station code="TRP1" name="TRP1" netid="HI" source="ITSAK Strong Motion Network" insttype="" lat="37.511219" lon="22.363399" esm:processing="manual (Paolucci et al 2011)" esm:quality="good">
		<comp name="--.HNE" depth="0.0">
			<acc value="0.00786193200149088" flag="0"/>
			<vel value="0.00774329688268179" flag="0"/>
			<psa03 value="0.0156172272729948" flag="0"/>
			<psa10 value="0.0182483563640508" flag="0"/>
			<psa30 value="0.00174739002684687" flag="0"/>
		</comp>
		<comp name="--.HNN" depth="0.0">
			<acc value="0.00831544962816076" flag="0"/>
			<vel value="0.00971881471714042" flag="0"/>
			<psa03 value="0.0214094625426546" flag="0"/>
			<psa10 value="0.0128090222848629" flag="0"/>
			<psa30 value="0.00194917474826102" flag="0"/>
		</comp>
		<comp name="--.HNZ" depth="0.0">
			<acc value="0.00510256229213872" flag="0"/>
			<vel value="0.00568529641054583" flag="0"/>
			<psa03 value="0.0120134833343118" flag="0"/>
			<psa10 value="0.00661252710996843" flag="0"/>
			<psa30 value="0.00211875848235113" flag="0"/>
		</comp>
	</station>
