<?xml version="1.0" encoding="UTF-8" standalone="yes"?>
<!DOCTYPE earthquake SYSTEM "stationlist.dtd">
<stationlist created="" xmlns="ch.ethz.sed.shakemap.usgs.xml">
  <station code="KRI1" name="KRI1" netid="HI" source="NOA" insttype="CMG-5TD,ACCELEROMETER,GURALP" lat="37.6621" lon="20.8172">
    <comp name="--.HNE">
      <acc value="0.2464733517" flag="0"/>
      <vel value="0.1095031104" flag="0"/>
      <psa03 value="0.5947899829" flag="0"/>
      <psa10 value="0.0795070992" flag="0"/>
      <psa30 value="0.0056511143" flag="0"/>
    </comp>
    <comp name="--.HNN">
      <acc value="0.2459501822" flag="0"/>
      <vel value="0.1342984984" flag="0"/>
      <psa03 value="0.9752094528" flag="0"/>
      <psa10 value="0.1337695288" flag="0"/>
      <psa30 value="0.0115307346" flag="0"/>
    </comp>
    <comp name="--.HNZ">
      <acc value="0.1472185637" flag="0"/>
      <vel value="0.0435162026" flag="0"/>
      <psa03 value="0.2484047231" flag="0"/>
      <psa10 value="0.0352631973" flag="0"/>
      <psa30 value="0.0046106369" flag="0"/>
    </comp>
  </station>
  <station code="PYL1" name="PYL1" netid="HI" source="NOA" insttype="CMG-5TD,ACCELEROMETER,GURALP" lat="36.9142" lon="21.6952">
    <comp name="--.HNE">
      <acc value="0.0310670255" flag="0"/>
      <vel value="0.0156117976" flag="0"/>
      <psa03 value="0.1244806901" flag="0"/>
      <psa10 value="0.0198884155" flag="0"/>
      <psa30 value="0.0022586164" flag="0"/>
    </comp>
    <comp name="--.HNN">
      <acc value="0.0280317957" flag="0"/>
      <vel value="0.0156302933" flag="0"/>
      <psa03 value="0.0626924377" flag="0"/>
      <psa10 value="0.0171774963" flag="0"/>
      <psa30 value="0.0015049737" flag="0"/>
    </comp>
    <comp name="--.HNZ">
      <acc value="0.0160559816" flag="0"/>
      <vel value="0.0062977563" flag="0"/>
      <psa03 value="0.0448088138" flag="0"/>
      <psa10 value="0.0156542319" flag="0"/>
      <psa30 value="0.0015071037" flag="0"/>
    </comp>
  </station>
  <station code="ITM" name="ITM" netid="HL" source="NOA" insttype="DR24" lat="37.1787" lon="21.9252">
    <comp name="--.HHE">
      <acc value="0.0230925154" flag="0"/>
      <vel value="0.0177837602" flag="0"/>
      <psa03 value="0.0507677329" flag="0"/>
      <psa10 value="0.0150745339" flag="0"/>
      <psa30 value="0.0031537009" flag="0"/>
    </comp>
    <comp name="--.HHN">
      <acc value="0.0321099476" flag="0"/>
      <vel value="0.0254145007" flag="0"/>
      <psa03 value="0.0719846751" flag="0"/>
      <psa10 value="0.0287156911" flag="0"/>
      <psa30 value="0.0055074905" flag="0"/>
    </comp>
    <comp name="--.HHZ">
      <acc value="0.0160558199" flag="0"/>
      <vel value="0.0125153371" flag="0"/>
      <psa03 value="0.0283788573" flag="0"/>
      <psa10 value="0.0213072138" flag="0"/>
      <psa30 value="0.0020051008" flag="0"/>
    </comp>
  </station>
  <station code="RLS" name="RLS" netid="HL" source="NOA" insttype="120" lat="38.0559" lon="21.4647">
    <comp name="--.HHE">
      <acc value="0.0157551078" flag="0"/>
      <vel value="0.0111046684" flag="0"/>
      <psa03 value="0.0387020569" flag="0"/>
      <psa10 value="0.0137644265" flag="0"/>
      <psa30 value="0.0028371597" flag="0"/>
    </comp>
    <comp name="--.HHN">
      <acc value="0.0172246349" flag="0"/>
      <vel value="0.0089011854" flag="0"/>
      <psa03 value="0.0473596298" flag="0"/>
      <psa10 value="0.0160467668" flag="0"/>
      <psa30 value="0.0017574514" flag="0"/>
    </comp>
    <comp name="--.HHZ">
      <acc value="0.0107396846" flag="0"/>
      <vel value="0.0060157288" flag="0"/>
      <psa03 value="0.0255914195" flag="0"/>
      <psa10 value="0.0119715668" flag="0"/>
      <psa30 value="0.0020120675" flag="0"/>
    </comp>
  </station>
  <station code="VLS" name="VLS" netid="HL" source="NOA" insttype="120P," lat="38.1768" lon="20.5886">
    <comp name="--.HHE">
      <acc value="0.1147877826" flag="0"/>
      <vel value="0.0217541889" flag="0"/>
      <psa03 value="0.0823542308" flag="0"/>
      <psa10 value="0.0149410105" flag="0"/>
      <psa30 value="0.0037402194" flag="0"/>
    </comp>
    <comp name="--.HHN">
      <acc value="0.0784015008" flag="0"/>
      <vel value="0.0198211454" flag="0"/>
      <psa03 value="0.0825990837" flag="0"/>
      <psa10 value="0.0229558794" flag="0"/>
      <psa30 value="0.0014017780" flag="0"/>
    </comp>
    <comp name="--.HHZ">
      <acc value="0.0469911565" flag="0"/>
      <vel value="0.0128813627" flag="0"/>
      <psa03 value="0.0693320091" flag="0"/>
      <psa10 value="0.0196797315" flag="0"/>
      <psa30 value="0.0013255385" flag="0"/>
    </comp>
  </station>
  <station code="AMT" name="AMT" netid="HP" source="NOA" insttype="CMG-3T," lat="37.5324" lon="21.7089">
    <comp name="00.HHE">
      <acc value="0.0631081156" flag="0"/>
      <vel value="0.0498301189" flag="0"/>
      <psa03 value="0.1529968375" flag="0"/>
      <psa10 value="0.0856741487" flag="0"/>
      <psa30 value="0.0059680178" flag="0"/>
    </comp>
    <comp name="00.HHN">
      <acc value="0.0568391438" flag="0"/>
      <vel value="0.0486999119" flag="0"/>
      <psa03 value="0.2038044376" flag="0"/>
      <psa10 value="0.0664582869" flag="0"/>
      <psa30 value="0.0068462732" flag="0"/>
    </comp>
    <comp name="00.HHZ">
      <acc value="0.0369789544" flag="0"/>
      <vel value="0.0261318831" flag="0"/>
      <psa03 value="0.1122180926" flag="0"/>
      <psa10 value="0.0415999017" flag="0"/>
      <psa30 value="0.0030058192" flag="0"/>
    </comp>
  </station>
  <station code="AXS" name="AXS" netid="HP" source="NOA" insttype="40," lat="38.1962" lon="21.3763">
    <comp name="--.HHE">
      <acc value="0.0108425264" flag="0"/>
      <vel value="0.0063643086" flag="0"/>
      <psa03 value="0.0261801184" flag="0"/>
      <psa10 value="0.0088041920" flag="0"/>
      <psa30 value="0.0008296856" flag="0"/>
    </comp>
    <comp name="--.HHE">
      <acc value="0.0108425264" flag="0"/>
      <vel value="0.0063643086" flag="0"/>
      <psa03 value="0.0261801184" flag="0"/>
      <psa10 value="0.0088041920" flag="0"/>
      <psa30 value="0.0008296856" flag="0"/>
    </comp>
    <comp name="--.HHN">
      <acc value="0.0180837197" flag="0"/>
      <vel value="0.0130715250" flag="0"/>
      <psa03 value="0.0335380929" flag="0"/>
      <psa10 value="0.0091833378" flag="0"/>
      <psa30 value="0.0010627961" flag="0"/>
    </comp>
    <comp name="--.HHN">
      <acc value="0.0180837197" flag="0"/>
      <vel value="0.0130715250" flag="0"/>
      <psa03 value="0.0335380929" flag="0"/>
      <psa10 value="0.0091833378" flag="0"/>
      <psa30 value="0.0010627961" flag="0"/>
    </comp>
    <comp name="--.HHZ">
      <acc value="0.0061916952" flag="0"/>
      <vel value="0.0051134766" flag="0"/>
      <psa03 value="0.0166238234" flag="0"/>
      <psa10 value="0.0074283326" flag="0"/>
      <psa30 value="0.0008814089" flag="0"/>
    </comp>
    <comp name="--.HHZ">
      <acc value="0.0061916952" flag="0"/>
      <vel value="0.0051134766" flag="0"/>
      <psa03 value="0.0166238234" flag="0"/>
      <psa10 value="0.0074283326" flag="0"/>
      <psa30 value="0.0008814089" flag="0"/>
    </comp>
  </station>
  <station code="DRO" name="DRO" netid="HP" source="NOA" insttype="120P," lat="37.952" lon="21.71">
    <comp name="--.HHE">
      <acc value="0.0466337174" flag="0"/>
      <vel value="0.0238543510" flag="0"/>
      <psa03 value="0.1696555606" flag="0"/>
      <psa10 value="0.0408411488" flag="0"/>
      <psa30 value="0.0048808345" flag="0"/>
    </comp>
    <comp name="--.HHN">
      <acc value="0.0447101745" flag="0"/>
      <vel value="0.0298622508" flag="0"/>
      <psa03 value="0.1496267752" flag="0"/>
      <psa10 value="0.0314147058" flag="0"/>
      <psa30 value="0.0035995600" flag="0"/>
    </comp>
    <comp name="--.HHZ">
      <acc value="0.0158824948" flag="0"/>
      <vel value="0.0121768923" flag="0"/>
      <psa03 value="0.0450871159" flag="0"/>
      <psa10 value="0.0136566018" flag="0"/>
      <psa30 value="0.0022824156" flag="0"/>
    </comp>
  </station>
  <station code="FSK" name="FSK" netid="HP" source="NOA" insttype="40," lat="38.4593" lon="20.5623">
    <comp name="--.HHE">
      <acc value="0.0478489938" flag="0"/>
      <vel value="0.0212023795" flag="0"/>
      <psa03 value="0.0437861421" flag="0"/>
      <psa10 value="0.0243505123" flag="0"/>
      <psa30 value="0.0037883350" flag="0"/>
    </comp>
    <comp name="--.HHN">
      <acc value="0.0264448161" flag="0"/>
      <vel value="0.0131058380" flag="0"/>
      <psa03 value="0.0257379291" flag="0"/>
      <psa10 value="0.0285196475" flag="0"/>
      <psa30 value="0.0022924941" flag="0"/>
    </comp>
    <comp name="--.HHZ">
      <acc value="0.0227341356" flag="0"/>
      <vel value="0.0099932171" flag="0"/>
      <psa03 value="0.0241590295" flag="0"/>
      <psa10 value="0.0143541263" flag="0"/>
      <psa30 value="0.0016521981" flag="0"/>
    </comp>
  </station>
  <station code="LTHK" name="LTHK" netid="HP" source="NOA" insttype="40," lat="37.7095" lon="20.8367">
    <comp name="--.HHE">
      <acc value="0.7072436151" flag="0"/>
      <vel value="0.1414335417" flag="0"/>
      <psa03 value="0.5919724844" flag="0"/>
      <psa10 value="0.0882701881" flag="0"/>
      <psa30 value="0.0058801367" flag="0"/>
    </comp>
    <comp name="--.HHN">
      <acc value="0.5183861982" flag="0"/>
      <vel value="0.2061733524" flag="0"/>
      <psa03 value="0.9141430687" flag="0"/>
      <psa10 value="0.1008438659" flag="0"/>
      <psa30 value="0.0056555248" flag="0"/>
    </comp>
    <comp name="--.HHZ">
      <acc value="0.2610842270" flag="0"/>
      <vel value="0.0687682088" flag="0"/>
      <psa03 value="0.4738372392" flag="0"/>
      <psa10 value="0.0284866446" flag="0"/>
      <psa30 value="0.0037342783" flag="0"/>
    </comp>
  </station>
  <station code="PYL" name="PYL" netid="HP" source="NOA" insttype="120s" lat="36.8955" lon="21.742">
    <comp name="--.HHZ">
      <acc value="0.0007838800" flag="0"/>
      <vel value="0.0003751526" flag="0"/>
      <psa03 value="0.0016105217" flag="0"/>
      <psa10 value="0.0003976414" flag="0"/>
      <psa30 value="0.0000869164" flag="0"/>
    </comp>
  </station>
  <station code="DMLN" name="DMLN" netid="HT" source="NOA" insttype="1s-100Hz," lat="38.2385" lon="20.3734">
    <comp name="--.HHE">
      <acc value="0.0864183966" flag="0"/>
      <vel value="0.0863525836" flag="0"/>
      <psa03 value="0.1110298697" flag="0"/>
      <psa10 value="0.0985526208" flag="0"/>
      <psa30 value="0.0064206337" flag="0"/>
    </comp>
    <comp name="--.HHN">
      <acc value="0.0774397316" flag="0"/>
      <vel value="0.0450885026" flag="0"/>
      <psa03 value="0.1370233169" flag="0"/>
      <psa10 value="0.0641731390" flag="0"/>
      <psa30 value="0.0046751943" flag="0"/>
    </comp>
    <comp name="--.HHZ">
      <acc value="0.0510033326" flag="0"/>
      <vel value="0.0239227488" flag="0"/>
      <psa03 value="0.0701961373" flag="0"/>
      <psa10 value="0.0244934878" flag="0"/>
      <psa30 value="0.0024498772" flag="0"/>
    </comp>
  </station>
  <station code="PSDA" name="PSDA" netid="HT" source="NOA" insttype="30" lat="38.114" lon="20.5841">
    <comp name="--.HHE">
      <acc value="0.1093484237" flag="0"/>
      <vel value="0.0444518217" flag="0"/>
      <psa03 value="0.1438987906" flag="0"/>
      <psa10 value="0.0404545279" flag="0"/>
      <psa30 value="0.0065150352" flag="0"/>
    </comp>
    <comp name="--.HHN">
      <acc value="0.1199699801" flag="0"/>
      <vel value="0.0298463146" flag="0"/>
      <psa03 value="0.1781128821" flag="0"/>
      <psa10 value="0.0252419226" flag="0"/>
      <psa30 value="0.0031114736" flag="0"/>
    </comp>
    <comp name="--.HHZ">
      <acc value="0.0873749286" flag="0"/>
      <vel value="0.0258333131" flag="0"/>
      <psa03 value="0.0884929486" flag="0"/>
      <psa10 value="0.0147746870" flag="0"/>
      <psa30 value="0.0026943687" flag="0"/>
    </comp>
  </station>
</stationlist>
