<?xml version="1.0" encoding="UTF-8" standalone="yes"?>
<!DOCTYPE earthquake SYSTEM "stationlist.dtd">
<stationlist created="" xmlns="ch.ethz.sed.shakemap.usgs.xml">
  <station code="APE" name="APE" netid="GE" insttype="STS-2/N" commtype="DIG" lat="37.0727" lon="25.523">
    <comp name="--.HHN">
      <acc value="0.1324792783" flag="0"/>
      <vel value="0.0244204136" flag="0"/>
      <psa03 value="0.0581023021" flag="0"/>
      <psa10 value="0.0102567323" flag="0"/>
      <psa30 value="0.0022194665" flag="0"/>
    </comp>
    <comp name="--.HHE">
      <acc value="0.1373491026" flag="0"/>
      <vel value="0.0203904074" flag="0"/>
      <psa03 value="0.0583027118" flag="0"/>
      <psa10 value="0.0083739315" flag="0"/>
      <psa30 value="0.0019440912" flag="0"/>
    </comp>
    <comp name="--.HHZ">
      <acc value="0.0559323799" flag="0"/>
      <vel value="0.0102629087" flag="0"/>
      <psa03 value="0.0442811884" flag="0"/>
      <psa10 value="0.0088985147" flag="0"/>
      <psa30 value="0.0035556229" flag="0"/>
    </comp>
  </station>
  <station code="THERA" name="THERA" netid="GE" insttype="STS-2/N" commtype="DIG" lat="36.367" lon="25.4753">
    <comp name="--.HHE">
      <acc value="0.0929023673" flag="0"/>
      <vel value="0.0319711841" flag="0"/>
      <psa03 value="0.1454545517" flag="0"/>
      <psa10 value="0.0103219861" flag="0"/>
      <psa30 value="0.0014646703" flag="0"/>
    </comp>
    <comp name="--.HHZ">
      <acc value="0.0756852065" flag="0"/>
      <vel value="0.0178833709" flag="0"/>
      <psa03 value="0.0889584323" flag="0"/>
      <psa10 value="0.0070990536" flag="0"/>
      <psa30 value="0.0007447613" flag="0"/>
    </comp>
    <comp name="--.HHN">
      <acc value="0.0876274007" flag="0"/>
      <vel value="0.0182310142" flag="0"/>
      <psa03 value="0.0906218157" flag="0"/>
      <psa10 value="0.0060717971" flag="0"/>
      <psa30 value="0.0006277427" flag="0"/>
    </comp>
  </station>
  <station code="IOSI" name="IOSI" netid="HA" insttype="60s," commtype="DIG" lat="36.7225" lon="25.2887">
    <comp name="--.HHZ">
      <acc value="0.1457298355" flag="0"/>
      <vel value="0.0171178960" flag="0"/>
      <psa03 value="0.0478016855" flag="0"/>
      <psa10 value="0.0108276321" flag="0"/>
      <psa30 value="0.0017802692" flag="0"/>
    </comp>
    <comp name="--.HHN">
      <acc value="0.1326726664" flag="0"/>
      <vel value="0.0207818343" flag="0"/>
      <psa03 value="0.0585492809" flag="0"/>
      <psa10 value="0.0080033501" flag="0"/>
      <psa30 value="0.0013318075" flag="0"/>
    </comp>
    <comp name="--.HHE">
      <acc value="0.1903754787" flag="0"/>
      <vel value="0.0300193717" flag="0"/>
      <psa03 value="0.0614591232" flag="0"/>
      <psa10 value="0.0175377268" flag="0"/>
      <psa30 value="0.0015831740" flag="0"/>
    </comp>
  </station>
  <station code="SERI" name="SERI" netid="HA" insttype="30" commtype="DIG" lat="37.1609" lon="24.4853">
    <comp name="--.HHN">
      <acc value="0.0192484059" flag="0"/>
      <vel value="0.0062237133" flag="0"/>
      <psa03 value="0.0131683316" flag="0"/>
      <psa10 value="0.0041342608" flag="0"/>
      <psa30 value="0.0009696378" flag="0"/>
    </comp>
    <comp name="--.HHE">
      <acc value="0.0174867914" flag="0"/>
      <vel value="0.0042855667" flag="0"/>
      <psa03 value="0.0109640841" flag="0"/>
      <psa10 value="0.0025025299" flag="0"/>
      <psa30 value="0.0004177420" flag="0"/>
    </comp>
    <comp name="--.HHZ">
      <acc value="0.0117172814" flag="0"/>
      <vel value="0.0033727468" flag="0"/>
      <psa03 value="0.0059362733" flag="0"/>
      <psa10 value="0.0031182690" flag="0"/>
      <psa30 value="0.0006555637" flag="0"/>
    </comp>
  </station>
  <station code="SNT1" name="SNT1" netid="HA" insttype="30" commtype="DIG" lat="36.4159" lon="25.4282">
    <comp name="--.HHN">
      <acc value="0.0403194432" flag="0"/>
      <vel value="0.0158556892" flag="0"/>
      <psa03 value="0.0602152625" flag="0"/>
      <psa10 value="0.0192774652" flag="0"/>
      <psa30 value="0.0028006425" flag="0"/>
    </comp>
    <comp name="--.HHZ">
      <acc value="0.0404224367" flag="0"/>
      <vel value="0.0129174891" flag="0"/>
      <psa03 value="0.0625569761" flag="0"/>
      <psa10 value="0.0129946149" flag="0"/>
      <psa30 value="0.0009880635" flag="0"/>
    </comp>
    <comp name="--.HHE">
      <acc value="0.0467091817" flag="0"/>
      <vel value="0.0170127654" flag="0"/>
      <psa03 value="0.0645334470" flag="0"/>
      <psa10 value="0.0280954768" flag="0"/>
      <psa30 value="0.0031619984" flag="0"/>
    </comp>
  </station>
  <station code="SNT5" name="SNT5" netid="HA" insttype="1s-100Hz," commtype="DIG" lat="36.4037" lon="25.3953">
    <comp name="--.HHZ">
      <acc value="0.0934044972" flag="0"/>
      <vel value="0.0150801005" flag="0"/>
      <psa03 value="0.0546291838" flag="0"/>
      <psa10 value="0.0082866864" flag="0"/>
      <psa30 value="0.0012138714" flag="0"/>
    </comp>
    <comp name="--.HHE">
      <acc value="0.2734544493" flag="0"/>
      <vel value="0.0623598744" flag="0"/>
      <psa03 value="0.2002275121" flag="0"/>
      <psa10 value="0.0242477428" flag="0"/>
      <psa30 value="0.0049168576" flag="0"/>
    </comp>
    <comp name="--.HHN">
      <acc value="0.1978143534" flag="0"/>
      <vel value="0.0451677421" flag="0"/>
      <psa03 value="0.1445610791" flag="0"/>
      <psa10 value="0.0117479658" flag="0"/>
      <psa30 value="0.0033530404" flag="0"/>
    </comp>
  </station>
  <station code="NAX1" name="NAX1" netid="HI" insttype="CMG-5TD,ACCELEROMETER,GURALP" commtype="DIG" lat="37.1014" lon="25.3741">
    <comp name="--.HNE">
      <acc value="0.0857683123" flag="0"/>
      <vel value="0.0172422432" flag="0"/>
      <psa03 value="0.0502134064" flag="0"/>
      <psa10 value="0.0070665002" flag="0"/>
      <psa30 value="0.0017443513" flag="0"/>
    </comp>
    <comp name="--.HNZ">
      <acc value="0.0525912374" flag="0"/>
      <vel value="0.0091193283" flag="0"/>
      <psa03 value="0.0248793609" flag="0"/>
      <psa10 value="0.0113392280" flag="0"/>
      <psa30 value="0.0024798521" flag="0"/>
    </comp>
    <comp name="--.HNN">
      <acc value="0.0852680756" flag="0"/>
      <vel value="0.0190339979" flag="0"/>
      <psa03 value="0.0356356694" flag="0"/>
      <psa10 value="0.0094517957" flag="0"/>
      <psa30 value="0.0017060671" flag="0"/>
    </comp>
  </station>
  <station code="AMGA" name="AMGA" netid="HL" insttype="LE3D20_SMART24" commtype="DIG" lat="36.8316" lon="25.8938">
    <comp name="--.HHN">
      <acc value="0.9094184552" flag="0"/>
      <vel value="0.2202018589" flag="0"/>
      <psa03 value="0.4771478395" flag="0"/>
      <psa10 value="0.1227559530" flag="0"/>
      <psa30 value="0.0105445056" flag="0"/>
    </comp>
    <comp name="--.HHE">
      <acc value="0.7442397337" flag="0"/>
      <vel value="0.2562014406" flag="0"/>
      <psa03 value="1.0371751661" flag="0"/>
      <psa10 value="0.0907026731" flag="0"/>
      <psa30 value="0.0100214161" flag="0"/>
    </comp>
    <comp name="--.HHZ">
      <acc value="0.7005872458" flag="0"/>
      <vel value="0.1839027074" flag="0"/>
      <psa03 value="0.7889798613" flag="0"/>
      <psa10 value="0.0528974421" flag="0"/>
      <psa30 value="0.0090567468" flag="0"/>
    </comp>
  </station>
  <station code="APE" name="APE" netid="HL" insttype="120" commtype="DIG" lat="37.0727" lon="25.523">
    <comp name="--.HHZ">
      <acc value="0.0506308960" flag="0"/>
      <vel value="0.0098694787" flag="0"/>
      <psa03 value="0.0430328781" flag="0"/>
      <psa10 value="0.0088144748" flag="0"/>
      <psa30 value="0.0035515393" flag="0"/>
    </comp>
    <comp name="--.HHN">
      <acc value="0.1191006467" flag="0"/>
      <vel value="0.0234943038" flag="0"/>
      <psa03 value="0.0557479563" flag="0"/>
      <psa10 value="0.0101309230" flag="0"/>
      <psa30 value="0.0022154608" flag="0"/>
    </comp>
    <comp name="--.HHE">
      <acc value="0.1159508340" flag="0"/>
      <vel value="0.0193723075" flag="0"/>
      <psa03 value="0.0565199202" flag="0"/>
      <psa10 value="0.0083304349" flag="0"/>
      <psa30 value="0.0019397513" flag="0"/>
    </comp>
  </station>
  <station code="ASTA" name="ASTA" netid="HL" insttype="LE3D20_SMART24" commtype="DIG" lat="36.5475" lon="26.3471">
    <comp name="--.HHN">
      <acc value="0.0664872016" flag="0"/>
      <vel value="0.0132664297" flag="0"/>
      <psa03 value="0.0475999715" flag="0"/>
      <psa10 value="0.0070068926" flag="0"/>
      <psa30 value="0.0007879570" flag="0"/>
    </comp>
    <comp name="--.HHZ">
      <acc value="0.0438250138" flag="0"/>
      <vel value="0.0079583514" flag="0"/>
      <psa03 value="0.0268919802" flag="0"/>
      <psa10 value="0.0061113077" flag="0"/>
      <psa30 value="0.0006869408" flag="0"/>
    </comp>
    <comp name="--.HHE">
      <acc value="0.0591133808" flag="0"/>
      <vel value="0.0093384540" flag="0"/>
      <psa03 value="0.0452950006" flag="0"/>
      <psa10 value="0.0089227467" flag="0"/>
      <psa30 value="0.0005790985" flag="0"/>
    </comp>
  </station>
  <station code="DILO" name="DILO" netid="HL" insttype="120s," commtype="DIG" lat="37.4011" lon="25.2692">
    <comp name="00.HHN">
      <acc value="0.0619302111" flag="0"/>
      <vel value="0.0093087673" flag="0"/>
      <psa03 value="0.0213188465" flag="0"/>
      <psa10 value="0.0061404189" flag="0"/>
      <psa30 value="0.0008542879" flag="0"/>
    </comp>
    <comp name="00.HHE">
      <acc value="0.0532816858" flag="0"/>
      <vel value="0.0104161263" flag="0"/>
      <psa03 value="0.0306708166" flag="0"/>
      <psa10 value="0.0065865116" flag="0"/>
      <psa30 value="0.0006532655" flag="0"/>
    </comp>
    <comp name="00.HHZ">
      <acc value="0.0460221944" flag="0"/>
      <vel value="0.0122274110" flag="0"/>
      <psa03 value="0.0176036927" flag="0"/>
      <psa10 value="0.0122395429" flag="0"/>
      <psa30 value="0.0010651954" flag="0"/>
    </comp>
  </station>
  <station code="MHLO" name="MHLO" netid="HL" insttype="20" commtype="DIG" lat="36.6898" lon="24.4017">
    <comp name="--.HHZ">
      <acc value="0.0096641205" flag="0"/>
      <vel value="0.0066097651" flag="0"/>
      <psa03 value="0.0178676147" flag="0"/>
      <psa10 value="0.0108129690" flag="0"/>
      <psa30 value="0.0008190173" flag="0"/>
    </comp>
    <comp name="--.HHE">
      <acc value="0.0243550828" flag="0"/>
      <vel value="0.0123798397" flag="0"/>
      <psa03 value="0.0817864650" flag="0"/>
      <psa10 value="0.0269319909" flag="0"/>
      <psa30 value="0.0014549201" flag="0"/>
    </comp>
    <comp name="--.HHN">
      <acc value="0.0259828913" flag="0"/>
      <vel value="0.0106232398" flag="0"/>
      <psa03 value="0.0610861911" flag="0"/>
      <psa10 value="0.0166191936" flag="0"/>
      <psa30 value="0.0010793461" flag="0"/>
    </comp>
  </station>
  <station code="MILA" name="MILA" netid="HL" insttype="CMG-5" commtype="DIG" lat="36.7429" lon="24.4282">
    <comp name="00.HNE">
      <acc value="0.0279861465" flag="0"/>
      <vel value="0.0117238717" flag="0"/>
      <psa03 value="0.0333500398" flag="0"/>
      <psa10 value="0.0124977435" flag="0"/>
      <psa30 value="0.0025454859" flag="0"/>
    </comp>
    <comp name="00.HNN">
      <acc value="0.0475288351" flag="0"/>
      <vel value="0.0181268968" flag="0"/>
      <psa03 value="0.0593476930" flag="0"/>
      <psa10 value="0.0163018412" flag="0"/>
      <psa30 value="0.0015599087" flag="0"/>
    </comp>
    <comp name="00.HNZ">
      <acc value="0.0218271120" flag="0"/>
      <vel value="0.0088991234" flag="0"/>
      <psa03 value="0.0276395607" flag="0"/>
      <psa10 value="0.0123845168" flag="0"/>
      <psa30 value="0.0006671014" flag="0"/>
    </comp>
  </station>
  <station code="NISR" name="NISR" netid="HL" insttype="65535" commtype="DIG" lat="36.6106" lon="27.131">
    <comp name="--.HHE">
      <acc value="0.0000000000" flag="0"/>
      <vel value="-100.0000000000" flag="0"/>
      <psa03 value="0.0000000000" flag="0"/>
      <psa10 value="0.0000000000" flag="0"/>
      <psa30 value="0.0000000000" flag="0"/>
    </comp>
    <comp name="--.HHN">
      <acc value="0.0121808132" flag="0"/>
      <vel value="0.0055381912" flag="0"/>
      <psa03 value="0.0211095325" flag="0"/>
      <psa10 value="0.0072358235" flag="0"/>
      <psa30 value="0.0003143547" flag="0"/>
    </comp>
    <comp name="--.HHZ">
      <acc value="0.0077107051" flag="0"/>
      <vel value="0.0041826449" flag="0"/>
      <psa03 value="0.0100384142" flag="0"/>
      <psa10 value="0.0083929847" flag="0"/>
      <psa30 value="0.0004839388" flag="0"/>
    </comp>
  </station>
  <station code="SANT" name="SANT" netid="HL" insttype="30" commtype="DIG" lat="36.3705" lon="25.4593">
    <comp name="--.HHZ">
      <acc value="0.1931843825" flag="0"/>
      <vel value="0.0342640620" flag="0"/>
      <psa03 value="0.0992707178" flag="0"/>
      <psa10 value="0.0058080127" flag="0"/>
      <psa30 value="0.0009605941" flag="0"/>
    </comp>
    <comp name="--.HHE">
      <acc value="0.1941997600" flag="0"/>
      <vel value="0.0364740450" flag="0"/>
      <psa03 value="0.1426916480" flag="0"/>
      <psa10 value="0.0192731293" flag="0"/>
      <psa30 value="0.0018329253" flag="0"/>
    </comp>
    <comp name="--.HHN">
      <acc value="0.1759273680" flag="0"/>
      <vel value="0.0204890484" flag="0"/>
      <psa03 value="0.0808508256" flag="0"/>
      <psa10 value="0.0062031449" flag="0"/>
      <psa30 value="0.0011722813" flag="0"/>
    </comp>
  </station>
  <station code="SAP3" name="SAP3" netid="HL" insttype="65535" commtype="DIG" lat="36.4356" lon="25.3454">
    <comp name="--.HHN">
      <acc value="0.0529852434" flag="0"/>
      <vel value="0.0192903596" flag="0"/>
      <psa03 value="0.0648508331" flag="0"/>
      <psa10 value="0.0174228509" flag="0"/>
      <psa30 value="0.0030702894" flag="0"/>
    </comp>
    <comp name="--.HHE">
      <acc value="0.0718645417" flag="0"/>
      <vel value="0.0206209231" flag="0"/>
      <psa03 value="0.0948638278" flag="0"/>
      <psa10 value="0.0198850089" flag="0"/>
      <psa30 value="0.0040102606" flag="0"/>
    </comp>
    <comp name="--.HHZ">
      <acc value="0.0810942651" flag="0"/>
      <vel value="0.0196337835" flag="0"/>
      <psa03 value="0.0594328380" flag="0"/>
      <psa10 value="0.0061846169" flag="0"/>
      <psa30 value="0.0009627916" flag="0"/>
    </comp>
  </station>
  <station code="THERA" name="THERA" netid="HL" insttype="120" commtype="DIG" lat="36.367" lon="25.4753">
    <comp name="--.HHN">
      <acc value="0.1762667995" flag="0"/>
      <vel value="0.0354477052" flag="0"/>
      <psa03 value="0.1756785963" flag="0"/>
      <psa10 value="0.0120434347" flag="0"/>
      <psa30 value="0.0012546834" flag="0"/>
    </comp>
    <comp name="--.HHE">
      <acc value="0.0903126647" flag="0"/>
      <vel value="0.0310117096" flag="0"/>
      <psa03 value="0.1410168198" flag="0"/>
      <psa10 value="0.0100822928" flag="0"/>
      <psa30 value="0.0014631648" flag="0"/>
    </comp>
    <comp name="--.HHZ">
      <acc value="0.0736763637" flag="0"/>
      <vel value="0.0174127258" flag="0"/>
      <psa03 value="0.0864838277" flag="0"/>
      <psa10 value="0.0070434273" flag="0"/>
      <psa30 value="0.0007447667" flag="0"/>
    </comp>
  </station>
  <station code="TNSA" name="TNSA" netid="HL" insttype="CMG-5" commtype="DIG" lat="37.5394" lon="25.1631">
    <comp name="00.HNZ">
      <acc value="0.0315603796" flag="0"/>
      <vel value="0.0083232691" flag="0"/>
      <psa03 value="0.0232453976" flag="0"/>
      <psa10 value="0.0104686728" flag="0"/>
      <psa30 value="0.0010741366" flag="0"/>
    </comp>
    <comp name="00.HNE">
      <acc value="0.0398441626" flag="0"/>
      <vel value="0.0080528132" flag="0"/>
      <psa03 value="0.0337380836" flag="0"/>
      <psa10 value="0.0045377638" flag="0"/>
      <psa30 value="0.0005821991" flag="0"/>
    </comp>
    <comp name="00.HNN">
      <acc value="0.0308723513" flag="0"/>
      <vel value="0.0080864128" flag="0"/>
      <psa03 value="0.0317167919" flag="0"/>
      <psa10 value="0.0083614059" flag="0"/>
      <psa30 value="0.0004670928" flag="0"/>
    </comp>
  </station>
  <station code="AKRO" name="AKRO" netid="HT" insttype="Compact," commtype="DIG" lat="36.3584" lon="25.3967">
    <comp name="--.HHE">
      <acc value="0.2175528134" flag="0"/>
      <vel value="0.0569841934" flag="0"/>
      <psa03 value="0.2928124470" flag="0"/>
      <psa10 value="0.0311287824" flag="0"/>
      <psa30 value="0.0023716750" flag="0"/>
    </comp>
    <comp name="--.HHN">
      <acc value="0.2178693229" flag="0"/>
      <vel value="0.0448917102" flag="0"/>
      <psa03 value="0.1811345233" flag="0"/>
      <psa10 value="0.0321885654" flag="0"/>
      <psa30 value="0.0022909618" flag="0"/>
    </comp>
    <comp name="--.HHZ">
      <acc value="0.1108161899" flag="0"/>
      <vel value="0.0304965616" flag="0"/>
      <psa03 value="0.0972817954" flag="0"/>
      <psa10 value="0.0117641426" flag="0"/>
      <psa30 value="0.0012795188" flag="0"/>
    </comp>
  </station>
  <station code="GVRL" name="GVRL" netid="HT" insttype="" commtype="DIG" lat="36.3456" lon="25.4383">
    <comp name="--.HHE">
      <acc value="0.0988853908" flag="0"/>
      <vel value="0.0272069290" flag="0"/>
      <psa03 value="0.1514090393" flag="0"/>
      <psa10 value="0.0189527755" flag="0"/>
      <psa30 value="0.0012883794" flag="0"/>
    </comp>
    <comp name="--.HHZ">
      <acc value="0.0376580011" flag="0"/>
      <vel value="0.0096985844" flag="0"/>
      <psa03 value="0.0275592638" flag="0"/>
      <psa10 value="0.0075572621" flag="0"/>
      <psa30 value="0.0008560947" flag="0"/>
    </comp>
    <comp name="--.HHN">
      <acc value="0.0530147188" flag="0"/>
      <vel value="0.0141837317" flag="0"/>
      <psa03 value="0.0674613373" flag="0"/>
      <psa10 value="0.0141351963" flag="0"/>
      <psa30 value="0.0008240158" flag="0"/>
    </comp>
  </station>
  <station code="THR3" name="THR3" netid="HT" insttype="" commtype="DIG" lat="36.4091" lon="25.4008">
    <comp name="--.HHZ">
      <acc value="0.0449239154" flag="0"/>
      <vel value="0.0127138734" flag="0"/>
      <psa03 value="0.0388119487" flag="0"/>
      <psa10 value="0.0085174843" flag="0"/>
      <psa30 value="0.0009664393" flag="0"/>
    </comp>
    <comp name="--.HHE">
      <acc value="0.0991824467" flag="0"/>
      <vel value="0.0319754245" flag="0"/>
      <psa03 value="0.1234290365" flag="0"/>
      <psa10 value="0.0127150706" flag="0"/>
      <psa30 value="0.0037773701" flag="0"/>
    </comp>
    <comp name="--.HHN">
      <acc value="0.1624649063" flag="0"/>
      <vel value="0.0444926374" flag="0"/>
      <psa03 value="0.2103036192" flag="0"/>
      <psa10 value="0.0237052966" flag="0"/>
      <psa30 value="0.0025389849" flag="0"/>
    </comp>
  </station>
  <station code="THR5" name="THR5" netid="HT" insttype="" commtype="DIG" lat="36.4172" lon="25.3479">
    <comp name="--.HHN">
      <acc value="0.0485710109" flag="0"/>
      <vel value="0.0155873196" flag="0"/>
      <psa03 value="0.0707500573" flag="0"/>
      <psa10 value="0.0106618495" flag="0"/>
      <psa30 value="0.0022259068" flag="0"/>
    </comp>
    <comp name="--.HHZ">
      <acc value="0.0365756315" flag="0"/>
      <vel value="0.0106827430" flag="0"/>
      <psa03 value="0.0632501435" flag="0"/>
      <psa10 value="0.0059022207" flag="0"/>
      <psa30 value="0.0007485863" flag="0"/>
    </comp>
    <comp name="--.HHE">
      <acc value="0.0619275505" flag="0"/>
      <vel value="0.0251694235" flag="0"/>
      <psa03 value="0.1274156289" flag="0"/>
      <psa10 value="0.0153842495" flag="0"/>
      <psa30 value="0.0016270690" flag="0"/>
    </comp>
  </station>
  <station code="THR8" name="THR8" netid="HT" insttype="" commtype="DIG" lat="36.407" lon="25.4788">
    <comp name="--.HHE">
