<?xml version="1.0" encoding="UTF-8" standalone="yes"?>
<!DOCTYPE earthquake SYSTEM "stationlist.dtd">
<stationlist created="" xmlns="ch.ethz.sed.shakemap.usgs.xml">
  <station code="APE" name="APE" netid="GE" insttype="STS-2/N" commtype="DIG" lat="37.0727" lon="25.523">
    <comp name="--.HHE">
      <acc value="0.1373491025" flag="0"/>
      <vel value="0.0203904074" flag="0"/>
      <psa03 value="0.0583027118" flag="0"/>
      <psa10 value="0.0083739315" flag="0"/>
      <psa30 value="0.0019440950" flag="0"/>
    </comp>
    <comp name="--.HHZ">
      <acc value="0.0559323800" flag="0"/>
      <vel value="0.0102629085" flag="0"/>
      <psa03 value="0.0442811884" flag="0"/>
      <psa10 value="0.0088985148" flag="0"/>
      <psa30 value="0.0035555862" flag="0"/>
    </comp>
    <comp name="--.HHN">
      <acc value="0.1324792781" flag="0"/>
      <vel value="0.0244204134" flag="0"/>
      <psa03 value="0.0581023021" flag="0"/>
      <psa10 value="0.0102567322" flag="0"/>
      <psa30 value="0.0022194610" flag="0"/>
    </comp>
  </station>
  <station code="THERA" name="THERA" netid="GE" insttype="STS-2/N" commtype="DIG" lat="36.367" lon="25.4753">
    <comp name="--.HHE">
      <acc value="0.0929023673" flag="0"/>
      <vel value="0.0319711843" flag="0"/>
      <psa03 value="0.1454545517" flag="0"/>
      <psa10 value="0.0103219863" flag="0"/>
      <psa30 value="0.0014646867" flag="0"/>
    </comp>
    <comp name="--.HHN">
      <acc value="0.0876274007" flag="0"/>
      <vel value="0.0182310141" flag="0"/>
      <psa03 value="0.0906218157" flag="0"/>
      <psa10 value="0.0060717971" flag="0"/>
      <psa30 value="0.0006277421" flag="0"/>
    </comp>
    <comp name="--.HHZ">
      <acc value="0.0756852065" flag="0"/>
      <vel value="0.0178833709" flag="0"/>
      <psa03 value="0.0889584323" flag="0"/>
      <psa10 value="0.0070990536" flag="0"/>
      <psa30 value="0.0007447585" flag="0"/>
    </comp>
  </station>
  <station code="IOSI" name="IOSI" netid="HA" insttype="60s," commtype="DIG" lat="36.7225" lon="25.2887">
    <comp name="--.HHN">
      <acc value="0.1326726664" flag="0"/>
      <vel value="0.0207818342" flag="0"/>
      <psa03 value="0.0585492809" flag="0"/>
      <psa10 value="0.0080033508" flag="0"/>
      <psa30 value="0.0013318427" flag="0"/>
    </comp>
    <comp name="--.HHZ">
      <acc value="0.1457298356" flag="0"/>
      <vel value="0.0171178958" flag="0"/>
      <psa03 value="0.0478016855" flag="0"/>
      <psa10 value="0.0108276321" flag="0"/>
      <psa30 value="0.0017802806" flag="0"/>
    </comp>
    <comp name="--.HHE">
      <acc value="0.1903754787" flag="0"/>
      <vel value="0.0300193719" flag="0"/>
      <psa03 value="0.0614591232" flag="0"/>
      <psa10 value="0.0175377267" flag="0"/>
      <psa30 value="0.0015831706" flag="0"/>
    </comp>
  </station>
  <station code="SERI" name="SERI" netid="HA" insttype="30" commtype="DIG" lat="37.1609" lon="24.4853">
    <comp name="--.HHZ">
      <acc value="0.0117172814" flag="0"/>
      <vel value="0.0033727479" flag="0"/>
      <psa03 value="0.0059362733" flag="0"/>
      <psa10 value="0.0031182690" flag="0"/>
      <psa30 value="0.0006555644" flag="0"/>
    </comp>
    <comp name="--.HHE">
      <acc value="0.0174867914" flag="0"/>
      <vel value="0.0042855665" flag="0"/>
      <psa03 value="0.0109640841" flag="0"/>
      <psa10 value="0.0025025299" flag="0"/>
      <psa30 value="0.0004177406" flag="0"/>
    </comp>
    <comp name="--.HHN">
      <acc value="0.0192484059" flag="0"/>
      <vel value="0.0062237209" flag="0"/>
      <psa03 value="0.0131683316" flag="0"/>
      <psa10 value="0.0041342608" flag="0"/>
      <psa30 value="0.0009696299" flag="0"/>
    </comp>
  </station>
  <station code="SNT1" name="SNT1" netid="HA" insttype="30" commtype="DIG" lat="36.4159" lon="25.4282">
    <comp name="--.HHE">
      <acc value="0.0467091817" flag="0"/>
      <vel value="0.0170127654" flag="0"/>
      <psa03 value="0.0645334470" flag="0"/>
      <psa10 value="0.0280954768" flag="0"/>
      <psa30 value="0.0031619978" flag="0"/>
    </comp>
    <comp name="--.HHN">
      <acc value="0.0403194432" flag="0"/>
      <vel value="0.0158556895" flag="0"/>
      <psa03 value="0.0602152625" flag="0"/>
      <psa10 value="0.0192774652" flag="0"/>
      <psa30 value="0.0028006422" flag="0"/>
    </comp>
    <comp name="--.HHZ">
      <acc value="0.0404224367" flag="0"/>
      <vel value="0.0129174890" flag="0"/>
      <psa03 value="0.0625569761" flag="0"/>
      <psa10 value="0.0129946151" flag="0"/>
      <psa30 value="0.0009880604" flag="0"/>
    </comp>
  </station>
  <station code="SNT5" name="SNT5" netid="HA" insttype="1s-100Hz," commtype="DIG" lat="36.4037" lon="25.3953">
    <comp name="--.HHE">
      <acc value="0.2734544556" flag="0"/>
      <vel value="0.0623615594" flag="0"/>
      <psa03 value="0.2002275059" flag="0"/>
      <psa10 value="0.0242477490" flag="0"/>
      <psa30 value="0.0049168611" flag="0"/>
    </comp>
    <comp name="--.HHZ">
      <acc value="0.0934044971" flag="0"/>
      <vel value="0.0150801095" flag="0"/>
      <psa03 value="0.0546291838" flag="0"/>
      <psa10 value="0.0082866864" flag="0"/>
      <psa30 value="0.0012138484" flag="0"/>
    </comp>
    <comp name="--.HHN">
      <acc value="0.1978143544" flag="0"/>
      <vel value="0.0451679685" flag="0"/>
      <psa03 value="0.1445610782" flag="0"/>
      <psa10 value="0.0117479649" flag="0"/>
      <psa30 value="0.0033530317" flag="0"/>
    </comp>
  </station>
  <station code="NAX1" name="NAX1" netid="HI" insttype="CMG-5TD,ACCELEROMETER,GURALP" commtype="DIG" lat="37.1014" lon="25.3741">
    <comp name="--.HNE">
      <acc value="0.0857683123" flag="0"/>
      <vel value="0.0172422431" flag="0"/>
      <psa03 value="0.0502134064" flag="0"/>
      <psa10 value="0.0070665002" flag="0"/>
      <psa30 value="0.0017443526" flag="0"/>
    </comp>
    <comp name="--.HNN">
      <acc value="0.0852680755" flag="0"/>
      <vel value="0.0190339979" flag="0"/>
      <psa03 value="0.0356356694" flag="0"/>
      <psa10 value="0.0094517957" flag="0"/>
      <psa30 value="0.0017060680" flag="0"/>
    </comp>
    <comp name="--.HNZ">
      <acc value="0.0525912373" flag="0"/>
      <vel value="0.0091193283" flag="0"/>
      <psa03 value="0.0248793609" flag="0"/>
      <psa10 value="0.0113392280" flag="0"/>
      <psa30 value="0.0024798509" flag="0"/>
    </comp>
  </station>
  <station code="AMGA" name="AMGA" netid="HL" insttype="LE3D20_SMART24" commtype="DIG" lat="36.8316" lon="25.8938">
    <comp name="--.HHE">
      <acc value="0.7442397335" flag="0"/>
      <vel value="0.2562014368" flag="0"/>
      <psa03 value="1.0371751661" flag="0"/>
      <psa10 value="0.0907026719" flag="0"/>
      <psa30 value="0.0100214698" flag="0"/>
    </comp>
    <comp name="--.HHN">
      <acc value="0.9094184554" flag="0"/>
      <vel value="0.2202018595" flag="0"/>
      <psa03 value="0.4771478395" flag="0"/>
      <psa10 value="0.1227559451" flag="0"/>
      <psa30 value="0.0105442442" flag="0"/>
    </comp>
    <comp name="--.HHZ">
      <acc value="0.7005872458" flag="0"/>
      <vel value="0.1839027061" flag="0"/>
      <psa03 value="0.7889798613" flag="0"/>
      <psa10 value="0.0528974403" flag="0"/>
      <psa30 value="0.0090566442" flag="0"/>
    </comp>
  </station>
  <station code="APE" name="APE" netid="HL" insttype="120" commtype="DIG" lat="37.0727" lon="25.523">
    <comp name="--.HHE">
      <acc value="0.1159508340" flag="0"/>
      <vel value="0.0193723074" flag="0"/>
      <psa03 value="0.0565199202" flag="0"/>
      <psa10 value="0.0083304349" flag="0"/>
      <psa30 value="0.0019397512" flag="0"/>
    </comp>
    <comp name="--.HHN">
      <acc value="0.1191006467" flag="0"/>
      <vel value="0.0234943037" flag="0"/>
      <psa03 value="0.0557479563" flag="0"/>
      <psa10 value="0.0101309230" flag="0"/>
      <psa30 value="0.0022154577" flag="0"/>
    </comp>
    <comp name="--.HHZ">
      <acc value="0.0506308960" flag="0"/>
      <vel value="0.0098694786" flag="0"/>
      <psa03 value="0.0430328781" flag="0"/>
      <psa10 value="0.0088144748" flag="0"/>
      <psa30 value="0.0035515300" flag="0"/>
    </comp>
  </station>
  <station code="ASTA" name="ASTA" netid="HL" insttype="LE3D20_SMART24" commtype="DIG" lat="36.5475" lon="26.3471">
    <comp name="--.HHE">
      <acc value="0.0591133811" flag="0"/>
      <vel value="0.0093384538" flag="0"/>
      <psa03 value="0.0452950006" flag="0"/>
      <psa10 value="0.0089227484" flag="0"/>
      <psa30 value="0.0005792556" flag="0"/>
    </comp>
    <comp name="--.HHN">
      <acc value="0.0664872012" flag="0"/>
      <vel value="0.0132664191" flag="0"/>
      <psa03 value="0.0475999715" flag="0"/>
      <psa10 value="0.0070068947" flag="0"/>
      <psa30 value="0.0007884508" flag="0"/>
    </comp>
    <comp name="--.HHZ">
      <acc value="0.0438250138" flag="0"/>
      <vel value="0.0079583438" flag="0"/>
      <psa03 value="0.0268919801" flag="0"/>
      <psa10 value="0.0061113077" flag="0"/>
      <psa30 value="0.0006870127" flag="0"/>
    </comp>
  </station>
  <station code="DILO" name="DILO" netid="HL" insttype="120s," commtype="DIG" lat="37.4011" lon="25.2692">
    <comp name="00.HHE">
      <acc value="0.0532816859" flag="0"/>
      <vel value="0.0104161264" flag="0"/>
      <psa03 value="0.0306708166" flag="0"/>
      <psa10 value="0.0065865116" flag="0"/>
      <psa30 value="0.0006532657" flag="0"/>
    </comp>
    <comp name="00.HHN">
      <acc value="0.0619302112" flag="0"/>
      <vel value="0.0093087671" flag="0"/>
      <psa03 value="0.0213188465" flag="0"/>
      <psa10 value="0.0061404189" flag="0"/>
      <psa30 value="0.0008542901" flag="0"/>
    </comp>
    <comp name="00.HHZ">
      <acc value="0.0460221944" flag="0"/>
      <vel value="0.0122274109" flag="0"/>
      <psa03 value="0.0176036927" flag="0"/>
      <psa10 value="0.0122395428" flag="0"/>
      <psa30 value="0.0010651982" flag="0"/>
    </comp>
  </station>
  <station code="MHLO" name="MHLO" netid="HL" insttype="20" commtype="DIG" lat="36.6898" lon="24.4017">
    <comp name="--.HHN">
      <acc value="0.0259828913" flag="0"/>
      <vel value="0.0106232402" flag="0"/>
      <psa03 value="0.0610861911" flag="0"/>
      <psa10 value="0.0166191936" flag="0"/>
      <psa30 value="0.0010793549" flag="0"/>
    </comp>
    <comp name="--.HHE">
      <acc value="0.0243550828" flag="0"/>
      <vel value="0.0123798295" flag="0"/>
      <psa03 value="0.0817864651" flag="0"/>
      <psa10 value="0.0269319910" flag="0"/>
      <psa30 value="0.0014548663" flag="0"/>
    </comp>
    <comp name="--.HHZ">
      <acc value="0.0096641205" flag="0"/>
      <vel value="0.0066097671" flag="0"/>
      <psa03 value="0.0178676147" flag="0"/>
      <psa10 value="0.0108129690" flag="0"/>
      <psa30 value="0.0008190092" flag="0"/>
    </comp>
  </station>
  <station code="MILA" name="MILA" netid="HL" insttype="CMG-5" commtype="DIG" lat="36.7429" lon="24.4282">
    <comp name="00.HNZ">
      <acc value="0.0218271120" flag="0"/>
      <vel value="0.0088991227" flag="0"/>
      <psa03 value="0.0276395607" flag="0"/>
      <psa10 value="0.0123845168" flag="0"/>
      <psa30 value="0.0006671564" flag="0"/>
    </comp>
    <comp name="00.HNE">
      <acc value="0.0279861467" flag="0"/>
      <vel value="0.0117238711" flag="0"/>
      <psa03 value="0.0333500398" flag="0"/>
      <psa10 value="0.0124977435" flag="0"/>
      <psa30 value="0.0025455245" flag="0"/>
    </comp>
    <comp name="00.HNN">
      <acc value="0.0475288352" flag="0"/>
      <vel value="0.0181268972" flag="0"/>
      <psa03 value="0.0593476930" flag="0"/>
      <psa10 value="0.0163018412" flag="0"/>
      <psa30 value="0.0015598655" flag="0"/>
    </comp>
  </station>
  <station code="NISR" name="NISR" netid="HL" insttype="65535" commtype="DIG" lat="36.6106" lon="27.131">
    <comp name="--.HHE">
      <acc value="0.0000000000" flag="0"/>
      <vel value="-100.0000000000" flag="0"/>
      <psa03 value="0.0000000000" flag="0"/>
      <psa10 value="0.0000000000" flag="0"/>
      <psa30 value="0.0000000000" flag="0"/>
    </comp>
    <comp name="--.HHN">
      <acc value="0.0121808134" flag="0"/>
      <vel value="0.0055381896" flag="0"/>
      <psa03 value="0.0211095325" flag="0"/>
      <psa10 value="0.0072358234" flag="0"/>
      <psa30 value="0.0003143724" flag="0"/>
    </comp>
    <comp name="--.HHZ">
      <acc value="0.0077107045" flag="0"/>
      <vel value="0.0041826437" flag="0"/>
      <psa03 value="0.0100384142" flag="0"/>
      <psa10 value="0.0083929852" flag="0"/>
      <psa30 value="0.0004840479" flag="0"/>
    </comp>
  </station>
  <station code="SANT" name="SANT" netid="HL" insttype="30" commtype="DIG" lat="36.3705" lon="25.4593">
    <comp name="--.HHE">
      <acc value="0.1941997600" flag="0"/>
      <vel value="0.0364740451" flag="0"/>
      <psa03 value="0.1426916480" flag="0"/>
      <psa10 value="0.0192731293" flag="0"/>
      <psa30 value="0.0018329385" flag="0"/>
    </comp>
    <comp name="--.HHZ">
      <acc value="0.1931843826" flag="0"/>
      <vel value="0.0342640363" flag="0"/>
      <psa03 value="0.0992707177" flag="0"/>
      <psa10 value="0.0058080126" flag="0"/>
      <psa30 value="0.0009605702" flag="0"/>
    </comp>
    <comp name="--.HHN">
      <acc value="0.1759273680" flag="0"/>
      <vel value="0.0204890484" flag="0"/>
      <psa03 value="0.0808508256" flag="0"/>
      <psa10 value="0.0062031449" flag="0"/>
      <psa30 value="0.0011722772" flag="0"/>
    </comp>
  </station>
  <station code="SAP3" name="SAP3" netid="HL" insttype="65535" commtype="DIG" lat="36.4356" lon="25.3454">
    <comp name="--.HHE">
      <acc value="0.0718645417" flag="0"/>
      <vel value="0.0206209237" flag="0"/>
      <psa03 value="0.0948638278" flag="0"/>
      <psa10 value="0.0198850089" flag="0"/>
      <psa30 value="0.0040102494" flag="0"/>
    </comp>
    <comp name="--.HHN">
      <acc value="0.0529852433" flag="0"/>
      <vel value="0.0192903601" flag="0"/>
      <psa03 value="0.0648508331" flag="0"/>
      <psa10 value="0.0174228509" flag="0"/>
      <psa30 value="0.0030702936" flag="0"/>
    </comp>
    <comp name="--.HHZ">
      <acc value="0.0810942651" flag="0"/>
      <vel value="0.0196337831" flag="0"/>
      <psa03 value="0.0594328380" flag="0"/>
      <psa10 value="0.0061846168" flag="0"/>
      <psa30 value="0.0009627837" flag="0"/>
    </comp>
  </station>
  <station code="THERA" name="THERA" netid="HL" insttype="120" commtype="DIG" lat="36.367" lon="25.4753">
    <comp name="--.HHE">
      <acc value="0.0903126647" flag="0"/>
      <vel value="0.0310117097" flag="0"/>
      <psa03 value="0.1410168198" flag="0"/>
      <psa10 value="0.0100822930" flag="0"/>
      <psa30 value="0.0014631812" flag="0"/>
    </comp>
    <comp name="--.HHN">
      <acc value="0.1762667995" flag="0"/>
      <vel value="0.0354477050" flag="0"/>
      <psa03 value="0.1756785963" flag="0"/>
      <psa10 value="0.0120434346" flag="0"/>
      <psa30 value="0.0012546821" flag="0"/>
    </comp>
    <comp name="--.HHZ">
      <acc value="0.0736763637" flag="0"/>
      <vel value="0.0174127257" flag="0"/>
      <psa03 value="0.0864838277" flag="0"/>
      <psa10 value="0.0070434273" flag="0"/>
      <psa30 value="0.0007447639" flag="0"/>
    </comp>
  </station>
  <station code="TNSA" name="TNSA" netid="HL" insttype="CMG-5" commtype="DIG" lat="37.5394" lon="25.1631">
    <comp name="00.HNN">
      <acc value="0.0308723516" flag="0"/>
      <vel value="0.0080864128" flag="0"/>
      <psa03 value="0.0317167919" flag="0"/>
      <psa10 value="0.0083614059" flag="0"/>
      <psa30 value="0.0004670926" flag="0"/>
    </comp>
    <comp name="00.HNE">
      <acc value="0.0398441628" flag="0"/>
      <vel value="0.0080528130" flag="0"/>
      <psa03 value="0.0337380836" flag="0"/>
      <psa10 value="0.0045377637" flag="0"/>
      <psa30 value="0.0005821986" flag="0"/>
    </comp>
    <comp name="00.HNZ">
      <acc value="0.0315603797" flag="0"/>
      <vel value="0.0083232694" flag="0"/>
      <psa03 value="0.0232453976" flag="0"/>
      <psa10 value="0.0104686728" flag="0"/>
      <psa30 value="0.0010741019" flag="0"/>
    </comp>
  </station>
  <station code="AKRO" name="AKRO" netid="HT" insttype="Compact," commtype="DIG" lat="36.3584" lon="25.3967">
    <comp name="--.HHE">
      <acc value="0.2175528134" flag="0"/>
      <vel value="0.0569841928" flag="0"/>
      <psa03 value="0.2928124470" flag="0"/>
      <psa10 value="0.0311287834" flag="0"/>
      <psa30 value="0.0023717223" flag="0"/>
    </comp>
    <comp name="--.HHN">
      <acc value="0.2178693229" flag="0"/>
      <vel value="0.0448917081" flag="0"/>
      <psa03 value="0.1811345233" flag="0"/>
      <psa10 value="0.0321885654" flag="0"/>
      <psa30 value="0.0022909511" flag="0"/>
    </comp>
    <comp name="--.HHZ">
      <acc value="0.1108161898" flag="0"/>
      <vel value="0.0304965641" flag="0"/>
      <psa03 value="0.0972817954" flag="0"/>
      <psa10 value="0.0117641429" flag="0"/>
      <psa30 value="0.0012795208" flag="0"/>
    </comp>
  </station>
  <station code="GVRL" name="GVRL" netid="HT" insttype="" commtype="DIG" lat="36.3456" lon="25.4383">
    <comp name="--.HHZ">
      <acc value="0.0376580009" flag="0"/>
      <vel value="0.0096984537" flag="0"/>
      <psa03 value="0.0275592638" flag="0"/>
      <psa10 value="0.0075572621" flag="0"/>
      <psa30 value="0.0008561037" flag="0"/>
    </comp>
    <comp name="--.HHN">
      <acc value="0.0530147189" flag="0"/>
      <vel value="0.0141837272" flag="0"/>
      <psa03 value="0.0674613373" flag="0"/>
      <psa10 value="0.0141351964" flag="0"/>
      <psa30 value="0.0008239990" flag="0"/>
    </comp>
    <comp name="--.HHE">
      <acc value="0.0988853910" flag="0"/>
      <vel value="0.0272070995" flag="0"/>
      <psa03 value="0.1514090393" flag="0"/>
      <psa10 value="0.0189527753" flag="0"/>
      <psa30 value="0.0012883568" flag="0"/>
    </comp>
  </station>
  <station code="THR3" name="THR3" netid="HT" insttype="" commtype="DIG" lat="36.4091" lon="25.4008">
    <comp name="--.HHE">
      <acc value="0.0991824525" flag="0"/>
      <vel value="0.0319754369" flag="0"/>
      <psa03 value="0.1234290365" flag="0"/>
      <psa10 value="0.0127150706" flag="0"/>
      <psa30 value="0.0037773849" flag="0"/>
    </comp>
    <comp name="--.HHZ">
      <acc value="0.0449239163" flag="0"/>
      <vel value="0.0127138773" flag="0"/>
      <psa03 value="0.0388119487" flag="0"/>
      <psa10 value="0.0085174843" flag="0"/>
      <psa30 value="0.0009664373" flag="0"/>
    </comp>
    <comp name="--.HHN">
      <acc value="0.1624649055" flag="0"/>
      <vel value="0.0444928540" flag="0"/>
      <psa03 value="0.2103036191" flag="0"/>
      <psa10 value="0.0237052966" flag="0"/>
      <psa30 value="0.0025389777" flag="0"/>
    </comp>
  </station>
  <station code="THR5" name="THR5" netid="HT" insttype="" commtype="DIG" lat="36.4172" lon="25.3479">
    <comp name="--.HHE">
      <acc value="0.0619275449" flag="0"/>
      <vel value="0.0251647230" flag="0"/>
      <psa03 value="0.1274156294" flag="0"/>
      <psa10 value="0.0153842495" flag="0"/>
      <psa30 value="0.0016270331" flag="0"/>
    </comp>
    <comp name="--.HHN">
      <acc value="0.0485710213" flag="0"/>
      <vel value="0.0155961246" flag="0"/>
      <psa03 value="0.0707500574" flag="0"/>
      <psa10 value="0.0106618468" flag="0"/>
      <psa30 value="0.0022258992" flag="0"/>
    </comp>
    <comp name="--.HHZ">
      <acc value="0.0365756312" flag="0"/>
      <vel value="0.0106830018" flag="0"/>
      <psa03 value="0.0632501435" flag="0"/>
      <psa10 value="0.0059022208" flag="0"/>
      <psa30 value="0.0007485925" flag="0"/>
    </comp>
  </station>
  <station code="THR8" name="THR8" netid="HT" insttype="" commtype="DIG" lat="36.407" lon="25.4788">
    <comp name="--.HHE">
