<?xml version="1.0" encoding="UTF-8" standalone="yes"?>
<!DOCTYPE earthquake SYSTEM "stationlist.dtd">
<stationlist created="" xmlns="ch.ethz.sed.shakemap.usgs.xml">
  <station code="KBN" name="KBN" netid="AC" insttype="" lat="40.6236" lon="20.7874">
    <comp name="--.HHZ">
      <acc value="0.4873540360" flag="0"/>
      <vel value="0.1052130495" flag="0"/>
      <psa03 value="0.4548733816" flag="0"/>
      <psa10 value="0.0424557083" flag="0"/>
      <psa30 value="0.0038929625" flag="0"/>
    </comp>
    <comp name="--.HHE">
      <acc value="0.5942093752" flag="0"/>
      <vel value="0.2016643906" flag="0"/>
      <psa03 value="1.0648029120" flag="0"/>
      <psa10 value="0.0727160208" flag="0"/>
      <psa30 value="0.0078198155" flag="0"/>
    </comp>
    <comp name="--.HHN">
      <acc value="0.3291375839" flag="0"/>
      <vel value="0.0927081960" flag="0"/>
      <psa03 value="0.6334501149" flag="0"/>
      <psa10 value="0.0455721177" flag="0"/>
      <psa30 value="0.0035590990" flag="0"/>
    </comp>
  </station>
  <station code="LSK" name="LSK" netid="AC" insttype="" lat="40.1499" lon="20.5987">
    <comp name="--.HHZ">
      <acc value="0.0152242701" flag="0"/>
      <vel value="0.0063169147" flag="0"/>
      <psa03 value="0.0218198964" flag="0"/>
      <psa10 value="0.0102545692" flag="0"/>
      <psa30 value="0.0007766217" flag="0"/>
    </comp>
    <comp name="--.HHE">
      <acc value="17.8094153052" flag="0"/>
      <vel value="0.5297499052" flag="0"/>
      <psa03 value="0.4050418926" flag="0"/>
      <psa10 value="0.0462645929" flag="0"/>
      <psa30 value="0.0049849279" flag="0"/>
    </comp>
    <comp name="--.HHN">
      <acc value="0.0259637711" flag="0"/>
      <vel value="0.0099490275" flag="0"/>
      <psa03 value="0.0332161003" flag="0"/>
      <psa10 value="0.0185208470" flag="0"/>
      <psa30 value="0.0008156766" flag="0"/>
    </comp>
  </station>
  <station code="LMS2" name="LMS2" netid="HI" insttype="CMG-5TD,ACCELEROMETER,GURALP" lat="40.835" lon="21.1418">
    <comp name="--.HNN">
      <acc value="0.2888514593" flag="0"/>
      <vel value="0.0628391573" flag="0"/>
      <psa03 value="0.1122867721" flag="0"/>
      <psa10 value="0.0074416986" flag="0"/>
      <psa30 value="0.0008530800" flag="0"/>
    </comp>
    <comp name="--.HNE">
      <acc value="0.2373657992" flag="0"/>
      <vel value="0.0541612521" flag="0"/>
      <psa03 value="0.1368353847" flag="0"/>
      <psa10 value="0.0073482085" flag="0"/>
      <psa30 value="0.0005969274" flag="0"/>
    </comp>
    <comp name="--.HNZ">
      <acc value="0.1231090927" flag="0"/>
      <vel value="0.0205569832" flag="0"/>
      <psa03 value="0.0705700525" flag="0"/>
      <psa10 value="0.0023765273" flag="0"/>
      <psa30 value="0.0002326731" flag="0"/>
    </comp>
  </station>
  <station code="KZN" name="KZN" netid="HL" insttype="120" lat="40.3033" lon="21.7821">
    <comp name="--.HHZ">
      <acc value="0.0106036828" flag="0"/>
      <vel value="0.0027002020" flag="0"/>
      <psa03 value="0.0150302852" flag="0"/>
      <psa10 value="0.0022486243" flag="0"/>
      <psa30 value="0.0001139249" flag="0"/>
    </comp>
    <comp name="--.HHE">
      <acc value="0.0196918857" flag="0"/>
      <vel value="0.0043934212" flag="0"/>
      <psa03 value="0.0183926766" flag="0"/>
      <psa10 value="0.0030954819" flag="0"/>
      <psa30 value="0.0001490171" flag="0"/>
    </comp>
    <comp name="--.HHN">
      <acc value="0.0169088069" flag="0"/>
      <vel value="0.0049025578" flag="0"/>
      <psa03 value="0.0249235235" flag="0"/>
      <psa10 value="0.0029536828" flag="0"/>
      <psa30 value="0.0001290684" flag="0"/>
    </comp>
  </station>
  <station code="PENT" name="PENT" netid="HL" insttype="30s-100Hz," lat="40.1959" lon="21.1384">
    <comp name="--.HHN">
      <acc value="0.0170154192" flag="0"/>
      <vel value="0.0042533203" flag="0"/>
      <psa03 value="0.0212328726" flag="0"/>
      <psa10 value="0.0033358175" flag="0"/>
      <psa30 value="0.0003321102" flag="0"/>
    </comp>
    <comp name="--.HHZ">
      <acc value="0.0117456639" flag="0"/>
      <vel value="0.0038902901" flag="0"/>
      <psa03 value="0.0182447196" flag="0"/>
      <psa10 value="0.0052852590" flag="0"/>
      <psa30 value="0.0002558613" flag="0"/>
    </comp>
    <comp name="--.HHE">
      <acc value="0.0160157097" flag="0"/>
      <vel value="0.0055782629" flag="0"/>
      <psa03 value="0.0235235932" flag="0"/>
      <psa10 value="0.0041681992" flag="0"/>
      <psa30 value="0.0003047227" flag="0"/>
    </comp>
  </station>
  <station code="KPRO" name="KPRO" netid="HT" insttype="100" lat="39.9549" lon="21.3632">
    <comp name="--.HHN">
      <acc value="0.0164802998" flag="0"/>
      <vel value="0.0036673123" flag="0"/>
      <psa03 value="0.0149858009" flag="0"/>
      <psa10 value="0.0034438381" flag="0"/>
      <psa30 value="0.0003101415" flag="0"/>
    </comp>
    <comp name="--.HHE">
      <acc value="0.0292651718" flag="0"/>
      <vel value="0.0064138073" flag="0"/>
      <psa03 value="0.0144543259" flag="0"/>
      <psa10 value="0.0036704117" flag="0"/>
      <psa30 value="0.0003224767" flag="0"/>
    </comp>
    <comp name="--.HHZ">
      <acc value="0.0083945145" flag="0"/>
      <vel value="0.0022444595" flag="0"/>
      <psa03 value="0.0062836305" flag="0"/>
      <psa10 value="0.0023000340" flag="0"/>
      <psa30 value="0.0003709064" flag="0"/>
    </comp>
  </station>
</stationlist>
