<stationlist created="1675762336">
	<station code="ARPRA" name="ARPRA" netid="KO" source="Bogazici University Kandilli Observatory And Earthquake Research Institute (KOERI)" insttype="" lat="39.0929" lon="38.3356">
		<comp name=".HNE" depth="0.0">
			<acc value="0.0391938469345" flag="0"/>
			<vel value="0.0143941498469" flag="0"/>
			<psa03 value="0.0623766008935" flag="0"/>
			<psa10 value="0.0180313144861" flag="0"/>
			<psa30 value="0.00190349693067" flag="0"/>
		</comp>
		<comp name=".HNN" depth="0.0">
			<acc value="0.0330385458596" flag="0"/>
			<vel value="0.0167950460322" flag="0"/>
			<psa03 value="0.0796770282121" flag="0"/>
			<psa10 value="0.0260340727546" flag="0"/>
			<psa30 value="0.0013078357002" flag="0"/>
		</comp>
		<comp name=".HNZ" depth="0.0">
			<acc value="0.0192614750221" flag="0"/>
			<vel value="0.00726138767677" flag="0"/>
			<psa03 value="0.038591309089" flag="0"/>
			<psa10 value="0.00982107091026" flag="0"/>
			<psa30 value="0.00172011290737" flag="0"/>
		</comp>
	</station>
	<station code="RFHY" name="RFHY" netid="KO" source="Bogazici University Kandilli Observatory And Earthquake Research Institute (KOERI)" insttype="" lat="39.927" lon="38.833">
		<comp name=".HNE" depth="0.0">
			<acc value="0.00168310146215" flag="0"/>
			<vel value="0.00455359294212" flag="0"/>
			<psa03 value="0.00170065025739" flag="0"/>
			<psa10 value="0.00136693063057" flag="0"/>
			<psa30 value="0.00115247686677" flag="0"/>
		</comp>
		<comp name=".HNN" depth="0.0">
			<acc value="0.00392345834122" flag="0"/>
			<vel value="0.00495264633723" flag="0"/>
			<psa03 value="0.0117461153621" flag="0"/>
			<psa10 value="0.00899848016763" flag="0"/>
			<psa30 value="0.00181148625207" flag="0"/>
		</comp>
		<comp name=".HNZ" depth="0.0">
			<acc value="0.00275760909886" flag="0"/>
			<vel value="0.00421193504682" flag="0"/>
			<psa03 value="0.00851266483373" flag="0"/>
			<psa10 value="0.00596917339718" flag="0"/>
			<psa30 value="0.000956855053618" flag="0"/>
		</comp>
	</station>
	<station code="TUNC" name="TUNC" netid="KO" source="Bogazici University Kandilli Observatory And Earthquake Research Institute (KOERI)" insttype="" lat="39.6942" lon="37.5388">
		<comp name=".HNE" depth="0.0">
			<acc value="0.00810753957994" flag="0"/>
			<vel value="0.0048659850291" flag="0"/>
			<psa03 value="0.0175320611526" flag="0"/>
			<psa10 value="0.00770114360047" flag="0"/>
			<psa30 value="0.00157079853686" flag="0"/>
		</comp>
		<comp name=".HNN" depth="0.0">
			<acc value="0.0117071978243" flag="0"/>
			<vel value="0.00554255084362" flag="0"/>
			<psa03 value="0.0149755975286" flag="0"/>
			<psa10 value="0.00898886359309" flag="0"/>
			<psa30 value="0.00143416354796" flag="0"/>
		</comp>
		<comp name=".HNZ" depth="0.0">
			<acc value="0.00526190327974" flag="0"/>
			<vel value="0.00523753164126" flag="0"/>
			<psa03 value="0.0120478280574" flag="0"/>
			<psa10 value="0.00564476096897" flag="0"/>
			<psa30 value="0.00138347039812" flag="0"/>
		</comp>
	</station>
</stationlist>
