<?xml version="1.0" encoding="UTF-8" standalone="yes"?>
<!DOCTYPE earthquake SYSTEM "stationlist.dtd">
<stationlist created="" xmlns="ch.ethz.sed.shakemap.usgs.xml">
  <station code="SKY1" name="SKY1" netid="HI" insttype="CMG-5TD,ACCELEROMETER,GURALP" lat="38.9045" lon="24.5646">
    <comp name="--.HNZ">
      <acc value="0.0189282694" flag="0"/>
      <vel value="0.0129170252" flag="0"/>
      <psa03 value="0.0359273805" flag="0"/>
      <psa10 value="0.0115679762" flag="0"/>
      <psa30 value="0.0010208536" flag="0"/>
    </comp>
    <comp name="--.HNE">
      <acc value="0.0264746220" flag="0"/>
      <vel value="0.0174575339" flag="0"/>
      <psa03 value="0.0726754995" flag="0"/>
      <psa10 value="0.0262192144" flag="0"/>
      <psa30 value="0.0016463661" flag="0"/>
    </comp>
    <comp name="--.HNN">
      <acc value="0.0312956363" flag="0"/>
      <vel value="0.0220077636" flag="0"/>
      <psa03 value="0.1446891535" flag="0"/>
      <psa10 value="0.0317490671" flag="0"/>
      <psa30 value="0.0015261403" flag="0"/>
    </comp>
  </station>
  <station code="EFSA" name="EFSA" netid="HL" insttype="CMG-5" lat="39.5401" lon="24.9886">
    <comp name="00.HNE">
      <acc value="0.0521907970" flag="0"/>
      <vel value="0.0538949820" flag="0"/>
      <psa03 value="0.1083845927" flag="0"/>
      <psa10 value="0.0828058436" flag="0"/>
      <psa30 value="0.0059998379" flag="0"/>
    </comp>
    <comp name="00.HNN">
      <acc value="0.0377536307" flag="0"/>
      <vel value="0.0230859888" flag="0"/>
      <psa03 value="0.0981930380" flag="0"/>
      <psa10 value="0.0315196434" flag="0"/>
      <psa30 value="0.0028559747" flag="0"/>
    </comp>
    <comp name="00.HNZ">
      <acc value="0.0268217345" flag="0"/>
      <vel value="0.0202373598" flag="0"/>
      <psa03 value="0.0715362911" flag="0"/>
      <psa10 value="0.0274777081" flag="0"/>
      <psa30 value="0.0016594577" flag="0"/>
    </comp>
  </station>
  <station code="KVLA" name="KVLA" netid="HL" insttype="CMG-5" lat="40.937" lon="24.3859">
    <comp name="00.HNE">
      <acc value="0.1373893308" flag="0"/>
      <vel value="0.0996939037" flag="0"/>
      <psa03 value="0.4035695303" flag="0"/>
      <psa10 value="0.0835406487" flag="0"/>
      <psa30 value="0.0062210230" flag="0"/>
    </comp>
    <comp name="00.HNN">
      <acc value="0.0702515805" flag="0"/>
      <vel value="0.0414961265" flag="0"/>
      <psa03 value="0.2535717127" flag="0"/>
      <psa10 value="0.0398787952" flag="0"/>
      <psa30 value="0.0031781343" flag="0"/>
    </comp>
    <comp name="00.HNZ">
      <acc value="0.0649169041" flag="0"/>
      <vel value="0.0417687366" flag="0"/>
      <psa03 value="0.1668023716" flag="0"/>
      <psa10 value="0.0318028529" flag="0"/>
      <psa30 value="0.0025346149" flag="0"/>
    </comp>
  </station>
  <station code="LIA" name="LIA" netid="HL" insttype="P6C" lat="39.8972" lon="25.1806">
    <comp name="--.HHE">
      <acc value="0.1606736566" flag="0"/>
      <vel value="0.0948707228" flag="0"/>
      <psa03 value="0.4465411149" flag="0"/>
      <psa10 value="0.0911257085" flag="0"/>
      <psa30 value="0.0056493005" flag="0"/>
    </comp>
    <comp name="--.HHZ">
      <acc value="0.1638414477" flag="0"/>
      <vel value="0.0963600321" flag="0"/>
      <psa03 value="0.3559417196" flag="0"/>
      <psa10 value="0.0751639300" flag="0"/>
      <psa30 value="0.0044212184" flag="0"/>
    </comp>
    <comp name="--.HHN">
      <acc value="0.2507884473" flag="0"/>
      <vel value="0.1327679739" flag="0"/>
      <psa03 value="0.6082434455" flag="0"/>
      <psa10 value="0.0865140038" flag="0"/>
      <psa30 value="0.0066765302" flag="0"/>
    </comp>
  </station>
  <station code="NEO" name="NEO" netid="HL" insttype="120" lat="39.3057" lon="23.2219">
    <comp name="--.HHE">
      <acc value="0.0150001394" flag="0"/>
      <vel value="0.0108956058" flag="0"/>
      <psa03 value="0.0523729884" flag="0"/>
      <psa10 value="0.0114405929" flag="0"/>
      <psa30 value="0.0008487006" flag="0"/>
    </comp>
    <comp name="--.HHN">
      <acc value="0.0173102959" flag="0"/>
      <vel value="0.0123300825" flag="0"/>
      <psa03 value="0.0606512022" flag="0"/>
      <psa10 value="0.0142305609" flag="0"/>
      <psa30 value="0.0012139974" flag="0"/>
    </comp>
    <comp name="--.HHZ">
      <acc value="0.0137609817" flag="0"/>
      <vel value="0.0083121930" flag="0"/>
      <psa03 value="0.0350292171" flag="0"/>
      <psa10 value="0.0131142082" flag="0"/>
      <psa30 value="0.0007280900" flag="0"/>
    </comp>
  </station>
  <station code="PLG" name="PLG" netid="HL" insttype="120" lat="40.3733" lon="23.4444">
    <comp name="--.HHE">
      <acc value="0.0459430820" flag="0"/>
      <vel value="0.0183083508" flag="0"/>
      <psa03 value="0.0774771275" flag="0"/>
      <psa10 value="0.0124913762" flag="0"/>
      <psa30 value="0.0016718471" flag="0"/>
    </comp>
    <comp name="--.HHN">
      <acc value="0.0529619613" flag="0"/>
      <vel value="0.0249537823" flag="0"/>
      <psa03 value="0.0791867824" flag="0"/>
      <psa10 value="0.0183449226" flag="0"/>
      <psa30 value="0.0013288358" flag="0"/>
    </comp>
    <comp name="--.HHZ">
      <acc value="0.0324755110" flag="0"/>
      <vel value="0.0128536914" flag="0"/>
      <psa03 value="0.0600718243" flag="0"/>
      <psa10 value="0.0135838864" flag="0"/>
      <psa30 value="0.0012927384" flag="0"/>
    </comp>
  </station>
  <station code="SMTH" name="SMTH" netid="HL" insttype="CMG3ESPC60_P6C" lat="40.4709" lon="25.5304">
    <comp name="--.HHE">
      <acc value="0.0323579503" flag="0"/>
      <vel value="0.0143993723" flag="0"/>
      <psa03 value="0.0656295758" flag="0"/>
      <psa10 value="0.0171161300" flag="0"/>
      <psa30 value="0.0009602415" flag="0"/>
    </comp>
    <comp name="--.HHZ">
      <acc value="0.0224907180" flag="0"/>
      <vel value="0.0091846659" flag="0"/>
      <psa03 value="0.0413564628" flag="0"/>
      <psa10 value="0.0107897016" flag="0"/>
      <psa30 value="0.0004928020" flag="0"/>
    </comp>
    <comp name="--.HHN">
      <acc value="0.0439188464" flag="0"/>
      <vel value="0.0172842914" flag="0"/>
      <psa03 value="0.0877279406" flag="0"/>
      <psa10 value="0.0081258843" flag="0"/>
      <psa30 value="0.0009779455" flag="0"/>
    </comp>
  </station>
  <station code="AOS2" name="AOS2" netid="HT" insttype="100" lat="39.1478" lon="23.8436">
    <comp name="--.HHN">
      <acc value="0.0257452508" flag="0"/>
      <vel value="0.0162496348" flag="0"/>
      <psa03 value="0.0716379990" flag="0"/>
      <psa10 value="0.0155075378" flag="0"/>
      <psa30 value="0.0015451598" flag="0"/>
    </comp>
    <comp name="--.HHE">
      <acc value="0.0283535402" flag="0"/>
      <vel value="0.0171355119" flag="0"/>
      <psa03 value="0.0875143097" flag="0"/>
      <psa10 value="0.0273822152" flag="0"/>
      <psa30 value="0.0021918112" flag="0"/>
    </comp>
    <comp name="--.HHZ">
      <acc value="0.0193654666" flag="0"/>
      <vel value="0.0108036549" flag="0"/>
      <psa03 value="0.0525109834" flag="0"/>
      <psa10 value="0.0082430453" flag="0"/>
      <psa30 value="0.0011055252" flag="0"/>
    </comp>
  </station>
  <station code="KAVA" name="KAVA" netid="HT" insttype="Compact," lat="40.9967" lon="24.5137">
    <comp name="--.HHN">
      <acc value="0.1172526843" flag="0"/>
      <vel value="0.0500063238" flag="0"/>
      <psa03 value="0.1998428300" flag="0"/>
      <psa10 value="0.0402665189" flag="0"/>
      <psa30 value="0.0019202614" flag="0"/>
    </comp>
    <comp name="--.HHE">
      <acc value="0.1413728542" flag="0"/>
      <vel value="0.0489147850" flag="0"/>
      <psa03 value="0.1936709661" flag="0"/>
      <psa10 value="0.0394314420" flag="0"/>
      <psa30 value="0.0063503259" flag="0"/>
    </comp>
    <comp name="--.HHZ">
      <acc value="0.0947864257" flag="0"/>
      <vel value="0.0320929515" flag="0"/>
      <psa03 value="0.1449002837" flag="0"/>
      <psa10 value="0.0292497483" flag="0"/>
      <psa30 value="0.0029014458" flag="0"/>
    </comp>
  </station>
  <station code="OUR" name="OUR" netid="HT" insttype="100" lat="40.3325" lon="23.9791">
    <comp name="--.HHE">
      <acc value="0.1649375282" flag="0"/>
      <vel value="0.0607465527" flag="0"/>
      <psa03 value="0.2634750798" flag="0"/>
      <psa10 value="0.0460553793" flag="0"/>
      <psa30 value="0.0027739045" flag="0"/>
    </comp>
    <comp name="--.HHN">
      <acc value="0.1766079190" flag="0"/>
      <vel value="0.0462465510" flag="0"/>
      <psa03 value="0.1328203719" flag="0"/>
      <psa10 value="0.0515887826" flag="0"/>
      <psa30 value="0.0029910976" flag="0"/>
    </comp>
    <comp name="--.HHZ">
      <acc value="0.1259890123" flag="0"/>
      <vel value="0.0344246610" flag="0"/>
      <psa03 value="0.1018858268" flag="0"/>
      <psa10 value="0.0263167193" flag="0"/>
      <psa30 value="0.0023664552" flag="0"/>
    </comp>
  </station>
  <station code="PAIG" name="PAIG" netid="HT" insttype="100" lat="39.9363" lon="23.6768">
    <comp name="--.HHE">
      <acc value="0.0984598647" flag="0"/>
      <vel value="0.0297905339" flag="0"/>
      <psa03 value="0.1269875660" flag="0"/>
      <psa10 value="0.0324267142" flag="0"/>
      <psa30 value="0.0022225479" flag="0"/>
    </comp>
    <comp name="--.HHZ">
      <acc value="0.0294971886" flag="0"/>
      <vel value="0.0106741141" flag="0"/>
      <psa03 value="0.0432434566" flag="0"/>
      <psa10 value="0.0124222878" flag="0"/>
      <psa30 value="0.0012674476" flag="0"/>
    </comp>
    <comp name="--.HHN">
      <acc value="0.0876086008" flag="0"/>
      <vel value="0.0387030221" flag="0"/>
      <psa03 value="0.1814036195" flag="0"/>
      <psa10 value="0.0390550441" flag="0"/>
      <psa30 value="0.0035340877" flag="0"/>
    </comp>
  </station>
  <station code="SOH" name="SOH" netid="HT" insttype="120P," lat="40.8217" lon="23.3539">
    <comp name="--.HHE">
      <acc value="0.0267141980" flag="0"/>
      <vel value="0.0162343084" flag="0"/>
      <psa03 value="0.0640748946" flag="0"/>
      <psa10 value="0.0238153838" flag="0"/>
      <psa30 value="0.0011083914" flag="0"/>
    </comp>
    <comp name="--.HHN">
      <acc value="0.0270303396" flag="0"/>
      <vel value="0.0150313630" flag="0"/>
      <psa03 value="0.0676554734" flag="0"/>
      <psa10 value="0.0141699980" flag="0"/>
      <psa30 value="0.0022862503" flag="0"/>
    </comp>
    <comp name="--.HHZ">
      <acc value="0.0283014252" flag="0"/>
      <vel value="0.0111072252" flag="0"/>
      <psa03 value="0.0406142184" flag="0"/>
      <psa10 value="0.0104766823" flag="0"/>
      <psa30 value="0.0020238014" flag="0"/>
    </comp>
  </station>
  <station code="SRS" name="SRS" netid="HT" insttype="100" lat="41.1087" lon="23.595">
    <comp name="--.HHN">
      <acc value="0.0277395669" flag="0"/>
      <vel value="0.0086669800" flag="0"/>
      <psa03 value="0.0390346613" flag="0"/>
      <psa10 value="0.0067569055" flag="0"/>
      <psa30 value="0.0011244532" flag="0"/>
    </comp>
    <comp name="--.HHE">
      <acc value="0.0212549763" flag="0"/>
      <vel value="0.0084570872" flag="0"/>
      <psa03 value="0.0345661789" flag="0"/>
      <psa10 value="0.0077242415" flag="0"/>
      <psa30 value="0.0022685198" flag="0"/>
    </comp>
    <comp name="--.HHZ">
      <acc value="0.0172534333" flag="0"/>
      <vel value="0.0049218703" flag="0"/>
      <psa03 value="0.0362764777" flag="0"/>
      <psa10 value="0.0071879221" flag="0"/>
      <psa30 value="0.0015632671" flag="0"/>
    </comp>
  </station>
  <station code="THAS" name="THAS" netid="HT" insttype="100" lat="40.6064" lon="24.7194">
    <comp name="--.HHN">
      <acc value="0.1581053441" flag="0"/>
      <vel value="0.0688337251" flag="0"/>
      <psa03 value="0.3829453915" flag="0"/>
      <psa10 value="0.0474610253" flag="0"/>
      <psa30 value="0.0029701375" flag="0"/>
    </comp>
    <comp name="--.HHE">
      <acc value="0.2974140431" flag="0"/>
      <vel value="0.1242087981" flag="0"/>
      <psa03 value="0.6371747923" flag="0"/>
      <psa10 value="0.0758943884" flag="0"/>
      <psa30 value="0.0068354114" flag="0"/>
    </comp>
    <comp name="--.HHZ">
      <acc value="0.1316037047" flag="0"/>
      <vel value="0.0844249533" flag="0"/>
      <psa03 value="0.3078298601" flag="0"/>
      <psa10 value="0.0654090989" flag="0"/>
      <psa30 value="0.0043083466" flag="0"/>
    </comp>
  </station>
  <station code="THE" name="THE" netid="HT" insttype="30s-100Hz," lat="40.6319" lon="22.9628">
    <comp name="--.HHE">
      <acc value="0.0064210759" flag="0"/>
      <vel value="0.0038074258" flag="0"/>
      <psa03 value="0.0131201933" flag="0"/>
      <psa10 value="0.0072771617" flag="0"/>
      <psa30 value="0.0006449526" flag="0"/>
    </comp>
    <comp name="--.HHZ">
      <acc value="0.0057264283" flag="0"/>
      <vel value="0.0031697253" flag="0"/>
      <psa03 value="0.0106357800" flag="0"/>
      <psa10 value="0.0060005055" flag="0"/>
      <psa30 value="0.0007731262" flag="0"/>
    </comp>
    <comp name="--.HHN">
      <acc value="0.0064863480" flag="0"/>
      <vel value="0.0040584216" flag="0"/>
      <psa03 value="0.0108267046" flag="0"/>
      <psa10 value="0.0089439628" flag="0"/>
      <psa30 value="0.0008157730" flag="0"/>
    </comp>
  </station>
  <station code="XOR" name="XOR" netid="HT" insttype="Compact," lat="39.366" lon="23.1918">
    <comp name="--.HHE">
      <acc value="0.0282140432" flag="0"/>
      <vel value="0.0193116965" flag="0"/>
      <psa03 value="0.1447077227" flag="0"/>
      <psa10 value="0.0262085838" flag="0"/>
      <psa30 value="0.0019250746" flag="0"/>
    </comp>
    <comp name="--.HHZ">
      <acc value="0.0261767222" flag="0"/>
      <vel value="0.0150343511" flag="0"/>
      <psa03 value="0.0795961622" flag="0"/>
      <psa10 value="0.0214402514" flag="0"/>
      <psa30 value="0.0015326624" flag="0"/>
    </comp>
    <comp name="--.HHN">
      <acc value="0.0382897798" flag="0"/>
      <vel value="0.0219711555" flag="0"/>
      <psa03 value="0.1151571597" flag="0"/>
      <psa10 value="0.0254268913" flag="0"/>
      <psa30 value="0.0024349863" flag="0"/>
    </comp>
  </station>
</stationlist>
