<stationlist created="1775820700">
	<station code="E02" name="E02" netid="EG" source="EUROSEISTEST Strong Motion Network" insttype="" lat="40.674206" lon="23.315498">
		<comp name="--.EN1" depth="0.0">
			<acc value="0.0558552119503737" flag="0"/>
			<vel value="0.0521501408791305" flag="0"/>
			<psa03 value="0.142932635252153" flag="0"/>
			<psa10 value="0.0657326069624499" flag="0"/>
			<psa30 value="0.0107227019930433" flag="0"/>
		</comp>
		<comp name="--.EN2" depth="0.0">
			<acc value="0.0744837319433535" flag="0"/>
			<vel value="0.0757717118935203" flag="0"/>
			<psa03 value="0.232396957658077" flag="0"/>
			<psa10 value="0.136326390954227" flag="0"/>
			<psa30 value="0.0113990726326078" flag="0"/>
		</comp>
		<comp name="--.EN3" depth="0.0">
			<acc value="0.0469734336458434" flag="0"/>
			<vel value="0.0278620852818406" flag="0"/>
			<psa03 value="0.0848704347496796" flag="0"/>
			<psa10 value="0.0385552915988626" flag="0"/>
			<psa30 value="0.00530608025178148" flag="0"/>
		</comp>
	</station>
	<station code="E03" name="E03" netid="EG" source="EUROSEISTEST Strong Motion Network" insttype="" lat="40.676239" lon="23.324046">
		<comp name="--.EN1" depth="0.0">
			<acc value="0.0434270317245412" flag="0"/>
			<vel value="0.0520286165020235" flag="0"/>
			<psa03 value="0.106796908104534" flag="0"/>
			<psa10 value="0.0819530239855576" flag="0"/>
			<psa30 value="0.0102972104729898" flag="0"/>
		</comp>
		<comp name="--.EN2" depth="0.0">
			<acc value="0.0445639528867707" flag="0"/>
			<vel value="0.0467420311695364" flag="0"/>
			<psa03 value="0.101727020165627" flag="0"/>
			<psa10 value="0.0767833515202754" flag="0"/>
			<psa30 value="0.00662851243975299" flag="0"/>
		</comp>
		<comp name="--.EN3" depth="0.0">
			<acc value="0.0309027356175819" flag="0"/>
			<vel value="0.0230520303672129" flag="0"/>
			<psa03 value="0.0667483592512437" flag="0"/>
			<psa10 value="0.034262584728073" flag="0"/>
			<psa30 value="0.00353930071130062" flag="0"/>
		</comp>
	</station>
	<station code="PRR" name="PRR" netid="EG" source="EUROSEISTEST Strong Motion Network" insttype="" lat="40.682635" lon="23.300668">
		<comp name="--.EN1" depth="0.0">
			<acc value="0.0250042661382966" flag="0"/>
			<vel value="0.0138497628050296" flag="0"/>
			<psa03 value="0.034803750890204" flag="0"/>
			<psa10 value="0.0153040241289986" flag="0"/>
			<psa30 value="0.00524603085713948" flag="0"/>
		</comp>
		<comp name="--.EN2" depth="0.0">
			<acc value="0.0249728147877596" flag="0"/>
			<vel value="0.0127977527702904" flag="0"/>
			<psa03 value="0.0491113106749844" flag="0"/>
			<psa10 value="0.0223123843359673" flag="0"/>
			<psa30 value="0.00423333918794657" flag="0"/>
		</comp>
		<comp name="--.EN3" depth="0.0">
			<acc value="0.0167734574402921" flag="0"/>
			<vel value="0.00933391167400899" flag="0"/>
			<psa03 value="0.0226894900465406" flag="0"/>
			<psa10 value="0.0118614798273372" flag="0"/>
			<psa30 value="0.00400366980681093" flag="0"/>
		</comp>
	</station>
	<station code="STC" name="STC" netid="EG" source="EUROSEISTEST Strong Motion Network" insttype="" lat="40.64865" lon="23.304856">
		<comp name="--.EN1" depth="0.0">
			<acc value="0.0420972196276566" flag="0"/>
			<vel value="0.0364644359132499" flag="0"/>
			<psa03 value="0.130917599731644" flag="0"/>
			<psa10 value="0.0430114943002757" flag="0"/>
			<psa30 value="0.00650409919796309" flag="0"/>
		</comp>
		<comp name="--.EN2" depth="0.0">
			<acc value="0.0541003524734818" flag="0"/>
			<vel value="0.033672150506097" flag="0"/>
			<psa03 value="0.108484374057408" flag="0"/>
			<psa10 value="0.0528255981865522" flag="0"/>
			<psa30 value="0.00784000519519729" flag="0"/>
		</comp>
		<comp name="--.EN3" depth="0.0">
			<acc value="0.0399852074764896" flag="0"/>
			<vel value="0.0207826437852492" flag="0"/>
			<psa03 value="0.088810060314034" flag="0"/>
			<psa10 value="0.0265780894179695" flag="0"/>
			<psa30 value="0.00542236545510208" flag="0"/>
		</comp>
	</station>
	<station code="TST" name="TST" netid="EG" source="EUROSEISTEST Strong Motion Network" insttype="" lat="40.6638" lon="23.2906">
		<comp name="00.EN1" depth="0.0">
			<acc value="0.0576992012487702" flag="0"/>
			<vel value="0.0622004242023899" flag="0"/>
			<psa03 value="0.106274373488987" flag="0"/>
			<psa10 value="0.0781633454382143" flag="0"/>
			<psa30 value="0.00969996757525697" flag="0"/>
		</comp>
		<comp name="00.EN2" depth="0.0">
			<acc value="0.0239390849751392" flag="0"/>
			<vel value="0.0240011851027041" flag="0"/>
			<psa03 value="0.0668330159011924" flag="0"/>
			<psa10 value="0.0258165864721606" flag="0"/>
			<psa30 value="0.00328823157920404" flag="0"/>
		</comp>
		<comp name="00.EN3" depth="0.0">
			<acc value="0.0473323081333063" flag="0"/>
			<vel value="0.033844107474843" flag="0"/>
			<psa03 value="0.102809268942695" flag="0"/>
			<psa10 value="0.0504100669194092" flag="0"/>
			<psa30 value="0.00793399225471437" flag="0"/>
		</comp>
	</station>
	<station code="W01" name="W01" netid="EG" source="EUROSEISTEST Strong Motion Network" insttype="" lat="40.664956" lon="23.273878">
		<comp name="--.EN1" depth="0.0">
			<acc value="0.0212452559169869" flag="0"/>
			<vel value="0.0245844061202616" flag="0"/>
			<psa03 value="0.0509233317539863" flag="0"/>
			<psa10 value="0.0279498327892461" flag="0"/>
			<psa30 value="0.00351750426739452" flag="0"/>
		</comp>
		<comp name="--.EN2" depth="0.0">
			<acc value="0.0473234163498792" flag="0"/>
			<vel value="0.0316976901260563" flag="0"/>
			<psa03 value="0.0951181136081094" flag="0"/>
			<psa10 value="0.0771568012595675" flag="0"/>
			<psa30 value="0.0103477379868774" flag="0"/>
		</comp>
		<comp name="--.EN3" depth="0.0">
			<acc value="0.0860266759549465" flag="0"/>
			<vel value="0.0572114751768525" flag="0"/>
			<psa03 value="0.152768713927487" flag="0"/>
			<psa10 value="0.118948639763699" flag="0"/>
			<psa30 value="0.0102469663112282" flag="0"/>
		</comp>
	</station>
	<station code="DRA2" name="DRA2" netid="HI" source="ITSAK Strong Motion Network" insttype="" lat="41.1593" lon="24.1485">
		<comp name="--.HNE" depth="0.0">
			<acc value="0.0556495707420792" flag="0"/>
			<vel value="0.0387502309660202" flag="0"/>
			<psa03 value="0.127893868174551" flag="0"/>
			<psa10 value="0.0190731503775928" flag="0"/>
			<psa30 value="0.00297789331248228" flag="0"/>
		</comp>
		<comp name="--.HNN" depth="0.0">
			<acc value="0.0615018690127423" flag="0"/>
			<vel value="0.0252025925181972" flag="0"/>
			<psa03 value="0.10564078985038" flag="0"/>
			<psa10 value="0.0148316184594226" flag="0"/>
			<psa30 value="0.00202388615585833" flag="0"/>
		</comp>
		<comp name="--.HNZ" depth="0.0">
			<acc value="0.0554310301801218" flag="0"/>
			<vel value="0.0175729341321514" flag="0"/>
			<psa03 value="0.079338813098807" flag="0"/>
			<psa10 value="0.0134848451798224" flag="0"/>
			<psa30 value="0.00186398306306234" flag="0"/>
		</comp>
	</station>
	<station code="MYT1" name="MYT1" netid="HI" source="ITSAK Strong Motion Network" insttype="" lat="39.085" lon="26.5694">
		<comp name="--.HNE" depth="0.0">
			<acc value="0.00769655324194499" flag="0"/>
			<vel value="0.00889968274650677" flag="0"/>
			<psa03 value="0.0173247987245671" flag="0"/>
			<psa10 value="0.0107271778103934" flag="0"/>
			<psa30 value="0.000926058117640788" flag="0"/>
		</comp>
		<comp name="--.HNN" depth="0.0">
			<acc value="0.0101275342928525" flag="0"/>
			<vel value="0.00966382191836556" flag="0"/>
			<psa03 value="0.0171397356837846" flag="0"/>
			<psa10 value="0.0178598400017358" flag="0"/>
			<psa30 value="0.00161837637615899" flag="0"/>
		</comp>
		<comp name="--.HNZ" depth="0.0">
			<acc value="0.00591930683076417" flag="0"/>
			<vel value="0.0079056169014223" flag="0"/>
			<psa03 value="0.0128409691407652" flag="0"/>
			<psa10 value="0.0136123873788668" flag="0"/>
			<psa30 value="0.0011388490889962" flag="0"/>
		</comp>
	</station>
	<station code="SFL1" name="SFL1" netid="HI" source="ITSAK Strong Motion Network" insttype="" lat="41.189954" lon="26.304374">
		<comp name="--.HNE" depth="0.0">
			<acc value="0.0905467372453466" flag="0"/>
			<vel value="0.0767684399164979" flag="0"/>
			<psa03 value="0.202545646821606" flag="0"/>
			<psa10 value="0.0465518938346502" flag="0"/>
			<psa30 value="0.00349429147966309" flag="0"/>
		</comp>
		<comp name="--.HNN" depth="0.0">
			<acc value="0.0826857543351786" flag="0"/>
			<vel value="0.0554614423737669" flag="0"/>
			<psa03 value="0.199470297261709" flag="0"/>
			<psa10 value="0.0393091665393808" flag="0"/>
			<psa30 value="0.00254561009250914" flag="0"/>
		</comp>
		<comp name="--.HNZ" depth="0.0">
			<acc value="0.0389834693527751" flag="0"/>
			<vel value="0.0229906344298396" flag="0"/>
			<psa03 value="0.117624989995097" flag="0"/>
			<psa10 value="0.0105489116261056" flag="0"/>
			<psa30 value="0.00084267087489389" flag="0"/>
		</comp>
	</station>
	<station code="SKO1" name="SKO1" netid="HI" source="ITSAK Strong Motion Network" insttype="" lat="39.123383" lon="23.728705">
		<comp name="--.HNE" depth="0.0">
			<acc value="0.0115088037871424" flag="0"/>
			<vel value="0.00967086583701863" flag="0"/>
			<psa03 value="0.0378664694052655" flag="0"/>
			<psa10 value="0.0120463333229525" flag="0"/>
			<psa30 value="0.0013541272042806" flag="0"/>
		</comp>
		<comp name="--.HNN" depth="0.0">
			<acc value="0.0117816819551109" flag="0"/>
			<vel value="0.00754867007280219" flag="0"/>
			<psa03 value="0.0318576859361733" flag="0"/>
			<psa10 value="0.0099507526260369" flag="0"/>
			<psa30 value="0.00140533163799185" flag="0"/>
		</comp>
		<comp name="--.HNZ" depth="0.0">
			<acc value="0.0104073322994543" flag="0"/>
			<vel value="0.007570360393082" flag="0"/>
			<psa03 value="0.0274791667141039" flag="0"/>
			<psa10 value="0.00782377766187602" flag="0"/>
			<psa30 value="0.00126014431170813" flag="0"/>
		</comp>
	</station>
	<station code="SKY1" name="SKY1" netid="HI" source="ITSAK Strong Motion Network" insttype="" lat="38.904483" lon="24.564572">
		<comp name="--.HNE" depth="0.0">
			<acc value="0.0264039520137879" flag="0"/>
			<vel value="0.0173376697447524" flag="0"/>
			<psa03 value="0.0724834266712798" flag="0"/>
			<psa10 value="0.0262286956473684" flag="0"/>
			<psa30 value="0.00181583216496761" flag="0"/>
		</comp>
		<comp name="--.HNN" depth="0.0">
			<acc value="0.0313271365406791" flag="0"/>
			<vel value="0.0219381169375417" flag="0"/>
			<psa03 value="0.142560225165145" flag="0"/>
			<psa10 value="0.0317627178741836" flag="0"/>
			<psa30 value="0.0016186601449558" flag="0"/>
		</comp>
		<comp name="--.HNZ" depth="0.0">
			<acc value="0.0189878731059827" flag="0"/>
			<vel value="0.0130610414217493" flag="0"/>
			<psa03 value="0.0366111961453909" flag="0"/>
			<psa10 value="0.0115728916472913" flag="0"/>
			<psa30 value="0.00110819924609686" flag="0"/>
		</comp>
	</station>
	<station code="EFSA" name="EFSA" netid="HL" source="National Observatory of Athens Seismic Network" insttype="" lat="39.54015" lon="24.98864">
		<comp name="00.HNE" depth="0.0">
			<acc value="0.0517217075858382" flag="0"/>
			<vel value="0.0552666472929795" flag="0"/>
			<psa03 value="0.108438558522389" flag="0"/>
			<psa10 value="0.0829642409736425" flag="0"/>
			<psa30 value="0.00620577318535451" flag="0"/>
		</comp>
		<comp name="00.HNN" depth="0.0">
			<acc value="0.0374131348103152" flag="0"/>
			<vel value="0.0229250120556339" flag="0"/>
			<psa03 value="0.0983836945201785" flag="0"/>
			<psa10 value="0.0315336076967523" flag="0"/>
			<psa30 value="0.00297734660960276" flag="0"/>
		</comp>
		<comp name="00.HNZ" depth="0.0">
			<acc value="0.0263426306852597" flag="0"/>
			<vel value="0.0203107243714847" flag="0"/>
			<psa03 value="0.0715339627322522" flag="0"/>
			<psa10 value="0.027511974408269" flag="0"/>
			<psa30 value="0.00186870295906443" flag="0"/>
		</comp>
	</station>
	<station code="KVLA" name="KVLA" netid="HL" source="National Observatory of Athens Seismic Network" insttype="" lat="40.93704" lon="24.38591">
		<comp name="00.HNE" depth="0.0">
			<acc value="0.136627643143917" flag="0"/>
			<vel value="0.0994607173754837" flag="0"/>
			<psa03 value="0.404608761678018" flag="0"/>
			<psa10 value="0.0837323068543522" flag="0"/>
			<psa30 value="0.00627235176251312" flag="0"/>
		</comp>
		<comp name="00.HNN" depth="0.0">
			<acc value="0.0699192365503496" flag="0"/>
			<vel value="0.0412091887331943" flag="0"/>
			<psa03 value="0.252759431572057" flag="0"/>
			<psa10 value="0.0399537892424491" flag="0"/>
			<psa30 value="0.00340390007500879" flag="0"/>
		</comp>
		<comp name="00.HNZ" depth="0.0">
			<acc value="0.0648758833914029" flag="0"/>
			<vel value="0.0419863466992963" flag="0"/>
			<psa03 value="0.16696422722708" flag="0"/>
			<psa10 value="0.0318702862500698" flag="0"/>
			<psa30 value="0.00248307386645799" flag="0"/>
		</comp>
	</station>
	<station code="LIA" name="LIA" netid="HL" source="National Observatory of Athens Seismic Network" insttype="" lat="39.89725" lon="25.18055">
		<comp name="00.HNE" depth="0.0">
			<acc value="0.171806903415132" flag="0"/>
			<vel value="0.116567856373956" flag="0"/>
			<psa03 value="0.439708128505331" flag="0"/>
			<psa10 value="0.0929414469146595" flag="0"/>
			<psa30 value="0.0065025986819354" flag="0"/>
		</comp>
		<comp name="00.HNN" depth="0.0">
			<acc value="0.257460420810185" flag="0"/>
			<vel value="0.111095138315378" flag="0"/>
			<psa03 value="0.626092058858256" flag="0"/>
			<psa10 value="0.0818924049698296" flag="0"/>
			<psa30 value="0.0061768087665867" flag="0"/>
		</comp>
		<comp name="00.HNZ" depth="0.0">
			<acc value="0.15942346576259" flag="0"/>
			<vel value="0.0948888893247336" flag="0"/>
			<psa03 value="0.353095182489677" flag="0"/>
			<psa10 value="0.0737640115038707" flag="0"/>
			<psa30 value="0.00421590928329807" flag="0"/>
		</comp>
	</station>
	<station code="PLG" name="PLG" netid="HL" source="National Observatory of Athens Seismic Network" insttype="" lat="40.37328" lon="23.44443">
		<comp name="--.HNE" depth="0.0">
			<acc value="0.0425863979771627" flag="0"/>
			<vel value="0.0179009677896659" flag="0"/>
			<psa03 value="0.0748071326885503" flag="0"/>
			<psa10 value="0.0120158250519473" flag="0"/>
			<psa30 value="0.00177810966603933" flag="0"/>
		</comp>
		<comp name="--.HNN" depth="0.0">
			<acc value="0.0496368554005825" flag="0"/>
			<vel value="0.0242886212064205" flag="0"/>
			<psa03 value="0.073803191182362" flag="0"/>
			<psa10 value="0.0177866032751555" flag="0"/>
			<psa30 value="0.00155639945799448" flag="0"/>
		</comp>
		<comp name="--.HNZ" depth="0.0">
			<acc value="0.0303544586886978" flag="0"/>
			<vel value="0.0118303961361628" flag="0"/>
			<psa03 value="0.0565337138310712" flag="0"/>
			<psa10 value="0.0130461054904429" flag="0"/>
			<psa30 value="0.00156341471438524" flag="0"/>
		</comp>
	</station>
	<station code="PRK" name="PRK" netid="HL" source="National Observatory of Athens Seismic Network" insttype="" lat="39.24565" lon="26.26499">
		<comp name="--.HNE" depth="0.0">
			<acc value="0.0114374868514121" flag="0"/>
			<vel value="0.0106288288750337" flag="0"/>
			<psa03 value="0.0266662951570028" flag="0"/>
			<psa10 value="0.0150037107972171" flag="0"/>
			<psa30 value="0.00138304057798477" flag="0"/>
		</comp>
		<comp name="--.HNN" depth="0.0">
			<acc value="0.0118765416951967" flag="0"/>
			<vel value="0.0107181911662283" flag="0"/>
			<psa03 value="0.0309798283032649" flag="0"/>
			<psa10 value="0.0281588641365715" flag="0"/>
			<psa30 value="0.00226059412826649" flag="0"/>
		</comp>
		<comp name="--.HNZ" depth="0.0">
			<acc value="0.0132228831588773" flag="0"/>
			<vel value="0.0100775584140897" flag="0"/>
			<psa03 value="0.0255961539528987" flag="0"/>
			<psa10 value="0.00909522907677174" flag="0"/>
			<psa30 value="0.00116663363791887" flag="0"/>
		</comp>
	</station>
	<station code="ENZZ" name="ENZZ" netid="KO" source="Bogazici University Kandilli Observatory And Earthquake Research Institute (KOERI)" insttype="" lat="40.607" lon="26.1406">
		<comp name="--.HNE" depth="0.0">
			<acc value="0.0625936438271856" flag="0"/>
			<vel value="0.041725073331475" flag="0"/>
			<psa03 value="0.192948615231971" flag="0"/>
			<psa10 value="0.0447244690266495" flag="0"/>
			<psa30 value="0.00462595936376869" flag="0"/>
		</comp>
		<comp name="--.HNN" depth="0.0">
			<acc value="0.0820849038863847" flag="0"/>
			<vel value="0.0669282310881569" flag="0"/>
			<psa03 value="0.264787540874958" flag="0"/>
			<psa10 value="0.0466612398282531" flag="0"/>
			<psa30 value="0.00374811121063776" flag="0"/>
		</comp>
		<comp name="--.HNZ" depth="0.0">
			<acc value="0.0307026353262413" flag="0"/>
			<vel value="0.0187512839910209" flag="0"/>
			<psa03 value="0.0894588845455135" flag="0"/>
			<psa10 value="0.0200153196666972" flag="0"/>
			<psa30 value="0.00195091111328592" flag="0"/>
		</comp>
	</station>
	<station code="EZNE" name="EZNE" netid="KO" source="Bogazici University Kandilli Observatory And Earthquake Research Institute (KOERI)" insttype="" lat="39.756" lon="26.3655">
		<comp name="--.HNE" depth="0.0">
			<acc value="0.024778214059513" flag="0"/>
			<vel value="0.0190709890039432" flag="0"/>
			<psa03 value="0.0548584101419316" flag="0"/>
			<psa10 value="0.0259572451650893" flag="0"/>
			<psa30 value="0.00102674791284162" flag="0"/>
		</comp>
		<comp name="--.HNN" depth="0.0">
			<acc value="0.0359964688163991" flag="0"/>
			<vel value="0.0202091691139035" flag="0"/>
			<psa03 value="0.110303202879251" flag="0"/>
			<psa10 value="0.0287703140171182" flag="0"/>
			<psa30 value="0.00242116330685159" flag="0"/>
		</comp>
		<comp name="--.HNZ" depth="0.0">
			<acc value="0.0125142376009291" flag="0"/>
			<vel value="0.0105598303435188" flag="0"/>
			<psa03 value="0.0420794490152987" flag="0"/>
			<psa10 value="0.0167712797649902" flag="0"/>
			<psa30 value="0.00111784571846059" flag="0"/>
		</comp>
	</station>
	<station code="GPNR" name="GPNR" netid="KO" source="Bogazici University Kandilli Observatory And Earthquake Research Institute (KOERI)" insttype="" lat="39.456" lon="26.1331">
		<comp name="--.HNE" depth="0.0">
			<acc value="0.0347476112285427" flag="0"/>
			<vel value="0.0139770793942506" flag="0"/>
			<psa03 value="0.0452181048524608" flag="0"/>
			<psa10 value="0.0113425842030548" flag="0"/>
			<psa30 value="0.00216691729763532" flag="0"/>
		</comp>
		<comp name="--.HNN" depth="0.0">
			<acc value="0.0240106619199115" flag="0"/>
			<vel value="0.013333833410251" flag="0"/>
			<psa03 value="0.0858597607044623" flag="0"/>
			<psa10 value="0.0133297489679452" flag="0"/>
			<psa30 value="0.00176442105090126" flag="0"/>
		</comp>
		<comp name="--.HNZ" depth="0.0">
			<acc value="0.0262099055914461" flag="0"/>
			<vel value="0.00652010848323575" flag="0"/>
			<psa03 value="0.0304195047262236" flag="0"/>
			<psa10 value="0.00856959331851767" flag="0"/>
			<psa30 value="0.000693522713311037" flag="0"/>
		</comp>
	</station>
</stationlist>
