<stationlist created="1741951613">
	<station code="ABEA" name="ABEA" netid="HC" source="Seismological Network of Crete (HC)" insttype="" lat="35.5163" lon="24.0113">
		<comp name=".HNE" depth="0.0">
			<acc value="0.001701164569887" flag="0"/>
			<vel value="0.00234235168698" flag="0"/>
			<psa03 value="0.00171991829812546" flag="0"/>
			<psa10 value="0.00151334220461839" flag="0"/>
			<psa30 value="0.00122790332173696" flag="0"/>
		</comp>
		<comp name=".HNN" depth="0.0">
			<acc value="0.0017568822582096" flag="0"/>
			<vel value="0.00191786233324" flag="0"/>
			<psa03 value="0.00214544713836492" flag="0"/>
			<psa10 value="0.00171265572066288" flag="0"/>
			<psa30 value="0.000890982356539945" flag="0"/>
		</comp>
		<comp name=".HNZ" depth="0.0">
			<acc value="0.0024033192784302" flag="0"/>
			<vel value="0.00149042986093" flag="0"/>
			<psa03 value="0.00137398229562663" flag="0"/>
			<psa10 value="0.001217916384109" flag="0"/>
			<psa30 value="0.000718846265869509" flag="0"/>
		</comp>
	</station>
	<station code="ATEI" name="ATEI" netid="HC" source="Seismological Network of Crete (HC)" insttype="" lat="35.5193" lon="24.0432">
		<comp name=".HNE" depth="0.0">
			<acc value="0.0045527290177566" flag="0"/>
			<vel value="0.00238428862105" flag="0"/>
			<psa03 value="0.0123676461187739" flag="0"/>
			<psa10 value="0.0044361576236512" flag="0"/>
			<psa30 value="0.000773529627959299" flag="0"/>
		</comp>
		<comp name=".HNN" depth="0.0">
			<acc value="0.0041887244482464" flag="0"/>
			<vel value="0.0031619227419" flag="0"/>
			<psa03 value="0.00804366241043644" flag="0"/>
			<psa10 value="0.00293615575591023" flag="0"/>
			<psa30 value="0.000882907967488643" flag="0"/>
		</comp>
		<comp name=".HNZ" depth="0.0">
			<acc value="0.0067149732411024" flag="0"/>
			<vel value="0.00205408162951" flag="0"/>
			<psa03 value="0.00975780851628026" flag="0"/>
			<psa10 value="0.0017467075076759" flag="0"/>
			<psa30 value="0.000567623279339531" flag="0"/>
		</comp>
	</station>
	<station code="G0LD" name="G0LD" netid="HC" source="Seismological Network of Crete (HC)" insttype="" lat="35.4955" lon="24.0306">
		<comp name=".HNE" depth="0.0">
			<acc value="0.0021725215666104" flag="0"/>
			<vel value="0.00289842031468" flag="0"/>
			<psa03 value="0.00224783705921682" flag="0"/>
			<psa10 value="0.0024673840770851" flag="0"/>
			<psa30 value="0.00217636438179144" flag="0"/>
		</comp>
		<comp name=".HNN" depth="0.0">
			<acc value="0.002506317717711" flag="0"/>
			<vel value="0.00213787851245" flag="0"/>
			<psa03 value="0.00161376445605882" flag="0"/>
			<psa10 value="0.00170271334327767" flag="0"/>
			<psa30 value="0.00103648689133721" flag="0"/>
		</comp>
		<comp name=".HNZ" depth="0.0">
			<acc value="0.0032357211903258" flag="0"/>
			<vel value="0.00461411671558" flag="0"/>
			<psa03 value="0.00262714343639914" flag="0"/>
			<psa10 value="0.00205721917129951" flag="0"/>
			<psa30 value="0.00185814246782141" flag="0"/>
		</comp>
	</station>
	<station code="PASK" name="PASK" netid="HC" source="Seismological Network of Crete (HC)" insttype="" lat="35.4996" lon="24.0121">
		<comp name=".HNE" depth="0.0">
			<acc value="0.0041380187057514" flag="0"/>
			<vel value="0.00247746342028" flag="0"/>
			<psa03 value="0.00855240314327889" flag="0"/>
			<psa10 value="0.00224878678358771" flag="0"/>
			<psa30 value="0.0011699884434924" flag="0"/>
		</comp>
		<comp name=".HNN" depth="0.0">
			<acc value="0.004189701631635" flag="0"/>
			<vel value="0.00302015537733" flag="0"/>
			<psa03 value="0.0108621961297063" flag="0"/>
			<psa10 value="0.00176201988923359" flag="0"/>
			<psa30 value="0.0013094807050051" flag="0"/>
		</comp>
		<comp name=".HNZ" depth="0.0">
			<acc value="0.006781141325961" flag="0"/>
			<vel value="0.00361113971131" flag="0"/>
			<psa03 value="0.0095932813411414" flag="0"/>
			<psa10 value="0.00248466522187683" flag="0"/>
			<psa30 value="0.00108184385434423" flag="0"/>
		</comp>
	</station>
	<station code="POLY" name="POLY" netid="HC" source="Seismological Network of Crete (HC)" insttype="" lat="35.5226" lon="24.0602">
		<comp name=".HNE" depth="0.0">
			<acc value="0.0010906997383188" flag="0"/>
			<vel value="0.00201722645088" flag="0"/>
			<psa03 value="0.00127776229847709" flag="0"/>
			<psa10 value="0.00123780008411992" flag="0"/>
			<psa30 value="0.000816703321335289" flag="0"/>
		</comp>
		<comp name=".HNN" depth="0.0">
			<acc value="0.0011400060169458" flag="0"/>
			<vel value="0.00254706578645" flag="0"/>
			<psa03 value="0.00145134354022022" flag="0"/>
			<psa10 value="0.00143195548502264" flag="0"/>
			<psa30 value="0.000960581550478168" flag="0"/>
		</comp>
		<comp name=".HNZ" depth="0.0">
			<acc value="0.0015705164267808" flag="0"/>
			<vel value="0.00169536527463" flag="0"/>
			<psa03 value="0.00163928958447273" flag="0"/>
			<psa10 value="0.00125208056137818" flag="0"/>
			<psa30 value="0.000769175797873145" flag="0"/>
		</comp>
	</station>
	<station code="ARK1" name="ARK1" netid="HI" source="ITSAK Strong Motion Network" insttype="" lat="35.148777" lon="25.264194">
		<comp name=".HNE" depth="0.0">
			<acc value="0.0061488038552862" flag="0"/>
			<vel value="0.00286229307318" flag="0"/>
			<psa03 value="0.0133203485535705" flag="0"/>
			<psa10 value="0.00294570037256902" flag="0"/>
			<psa30 value="0.000679926760562504" flag="0"/>
		</comp>
		<comp name=".HNN" depth="0.0">
			<acc value="0.0059862778041498" flag="0"/>
			<vel value="0.00261434801648" flag="0"/>
			<psa03 value="0.0165510612703377" flag="0"/>
			<psa10 value="0.00284789951874287" flag="0"/>
			<psa30 value="0.000811621786792843" flag="0"/>
		</comp>
		<comp name=".HNZ" depth="0.0">
			<acc value="0.0062289352988724" flag="0"/>
			<vel value="0.00253005926034" flag="0"/>
			<psa03 value="0.0130297602930734" flag="0"/>
			<psa10 value="0.00524082405385911" flag="0"/>
			<psa30 value="0.000315797638793847" flag="0"/>
		</comp>
	</station>
	<station code="CH01" name="CH01" netid="HI" source="ITSAK Strong Motion Network" insttype="" lat="35.517" lon="24.0208">
		<comp name=".HNE" depth="0.0">
			<acc value="0.0047661109029498" flag="0"/>
			<vel value="0.0025752906109" flag="0"/>
			<psa03 value="0.00855291489591345" flag="0"/>
			<psa10 value="0.00335795721381146" flag="0"/>
			<psa30 value="0.000628686439055733" flag="0"/>
		</comp>
		<comp name=".HNN" depth="0.0">
			<acc value="0.004645926746064" flag="0"/>
			<vel value="0.00255645925724" flag="0"/>
			<psa03 value="0.0138410184620425" flag="0"/>
			<psa10 value="0.0029459828131527" flag="0"/>
			<psa30 value="0.00061867150478616" flag="0"/>
		</comp>
		<comp name=".HNZ" depth="0.0">
			<acc value="0.0060355916796144" flag="0"/>
			<vel value="0.00218470885119" flag="0"/>
			<psa03 value="0.00747812820178365" flag="0"/>
			<psa10 value="0.00213077584094077" flag="0"/>
			<psa30 value="0.00029387894720446" flag="0"/>
		</comp>
	</station>
	<station code="CH02" name="CH02" netid="HI" source="ITSAK Strong Motion Network" insttype="" lat="35.5145" lon="24.0315">
		<comp name=".HNE" depth="0.0">
			<acc value="0.0039186495775056" flag="0"/>
			<vel value="0.00194768503688" flag="0"/>
			<psa03 value="0.0112518143878995" flag="0"/>
			<psa10 value="0.00296421347396875" flag="0"/>
			<psa30 value="0.000650835458404492" flag="0"/>
		</comp>
		<comp name=".HNN" depth="0.0">
			<acc value="0.0048973317150396" flag="0"/>
			<vel value="0.00236257954052" flag="0"/>
			<psa03 value="0.014061022619557" flag="0"/>
			<psa10 value="0.00298118452009452" flag="0"/>
			<psa30 value="0.000562694359072378" flag="0"/>
		</comp>
		<comp name=".HNZ" depth="0.0">
			<acc value="0.003857626006059" flag="0"/>
			<vel value="0.00156652048218" flag="0"/>
			<psa03 value="0.007348529772783" flag="0"/>
			<psa10 value="0.00313544278581985" flag="0"/>
			<psa30 value="0.000258193953040497" flag="0"/>
		</comp>
	</station>
	<station code="CH03" name="CH03" netid="HI" source="ITSAK Strong Motion Network" insttype="" lat="35.53303" lon="24.0705">
		<comp name=".HNE" depth="0.0">
			<acc value="0.0026196201171666" flag="0"/>
			<vel value="0.00189384975691" flag="0"/>
			<psa03 value="0.00743667037728868" flag="0"/>
			<psa10 value="0.00199817221285064" flag="0"/>
			<psa30 value="0.000498714079027454" flag="0"/>
		</comp>
		<comp name=".HNN" depth="0.0">
			<acc value="0.003108678711489" flag="0"/>
			<vel value="0.00220493903335" flag="0"/>
			<psa03 value="0.0179536229331364" flag="0"/>
			<psa10 value="0.00257087663608393" flag="0"/>
			<psa30 value="0.000364334760389609" flag="0"/>
		</comp>
		<comp name=".HNZ" depth="0.0">
			<acc value="0.0044237084467284" flag="0"/>
			<vel value="0.00213038679492" flag="0"/>
			<psa03 value="0.0129694255670444" flag="0"/>
			<psa10 value="0.00130822412436529" flag="0"/>
			<psa30 value="0.000291958585615277" flag="0"/>
		</comp>
	</station>
	<station code="GOR1" name="GOR1" netid="HI" source="ITSAK Strong Motion Network" insttype="" lat="35.0582" lon="24.9628">
		<comp name=".HNE" depth="0.0">
			<acc value="0.0032092272450528" flag="0"/>
			<vel value="0.00199835229594" flag="0"/>
			<psa03 value="0.0123695433798759" flag="0"/>
			<psa10 value="0.00235217667953755" flag="0"/>
			<psa30 value="0.000484941031211318" flag="0"/>
		</comp>
		<comp name=".HNN" depth="0.0">
			<acc value="0.003387581447997" flag="0"/>
			<vel value="0.00157960062816" flag="0"/>
			<psa03 value="0.00838498319835457" flag="0"/>
			<psa10 value="0.00279948287387748" flag="0"/>
			<psa30 value="0.000360348636953687" flag="0"/>
		</comp>
		<comp name=".HNZ" depth="0.0">
			<acc value="0.0042896297803398" flag="0"/>
			<vel value="0.00201122446966" flag="0"/>
			<psa03 value="0.013587048512778" flag="0"/>
			<psa10 value="0.00147906798099587" flag="0"/>
			<psa30 value="0.000171614558726397" flag="0"/>
		</comp>
	</station>
	<station code="HER3" name="HER3" netid="HI" source="ITSAK Strong Motion Network" insttype="" lat="35.3296" lon="25.1065">
		<comp name=".HNE" depth="0.0">
			<acc value="0.017597646939984" flag="0"/>
			<vel value="0.00574016482027" flag="0"/>
			<psa03 value="0.0365855199653009" flag="0"/>
			<psa10 value="0.00332265096869356" flag="0"/>
			<psa30 value="0.000399304811358938" flag="0"/>
		</comp>
		<comp name=".HNN" depth="0.0">
			<acc value="0.015308500416432" flag="0"/>
			<vel value="0.00875963464084" flag="0"/>
			<psa03 value="0.0389145258130066" flag="0"/>
			<psa10 value="0.00954070890012291" flag="0"/>
			<psa30 value="0.000672864417715103" flag="0"/>
		</comp>
		<comp name=".HNZ" depth="0.0">
			<acc value="0.016730118822948" flag="0"/>
			<vel value="0.00707607325182" flag="0"/>
			<psa03 value="0.0396400738769959" flag="0"/>
			<psa10 value="0.00314481864130248" flag="0"/>
			<psa30 value="0.000437079423116902" flag="0"/>
		</comp>
	</station>
	<station code="KIS1" name="KIS1" netid="HI" source="ITSAK Strong Motion Network" insttype="" lat="35.493933" lon="23.658993">
		<comp name=".HNE" depth="0.0">
			<acc value="0.0029667626356962" flag="0"/>
			<vel value="0.00173092009865" flag="0"/>
			<psa03 value="0.00639113952747074" flag="0"/>
			<psa10 value="0.00215911201494898" flag="0"/>
			<psa30 value="0.000589154028564301" flag="0"/>
		</comp>
		<comp name=".HNN" depth="0.0">
			<acc value="0.0043073073106818" flag="0"/>
			<vel value="0.00178336370073" flag="0"/>
			<psa03 value="0.00841160084704345" flag="0"/>
			<psa10 value="0.00196022462088483" flag="0"/>
			<psa30 value="0.000432129694179641" flag="0"/>
		</comp>
		<comp name=".HNZ" depth="0.0">
			<acc value="0.0040355719929468" flag="0"/>
			<vel value="0.00158256878912" flag="0"/>
			<psa03 value="0.00670509326807207" flag="0"/>
			<psa10 value="0.00173619286581896" flag="0"/>
			<psa30 value="0.000262708601072101" flag="0"/>
		</comp>
	</station>
	<station code="KRL1" name="KRL1" netid="HI" source="ITSAK Strong Motion Network" insttype="" lat="37.7951" lon="26.7065">
		<comp name=".HNE" depth="0.0">
			<acc value="0.0053618844698448" flag="0"/>
			<vel value="0.00142520095631" flag="0"/>
			<psa03 value="0.0064455851915141" flag="0"/>
			<psa10 value="0.000618705790910454" flag="0"/>
			<psa30 value="0.000398289197204772" flag="0"/>
		</comp>
		<comp name=".HNN" depth="0.0">
			<acc value="0.0049413995415492" flag="0"/>
			<vel value="0.00102349473433" flag="0"/>
			<psa03 value="0.00611047835690926" flag="0"/>
			<psa10 value="0.000788777623738506" flag="0"/>
			<psa30 value="0.0003694169981046" flag="0"/>
		</comp>
		<comp name=".HNZ" depth="0.0">
			<acc value="0.0045349904601618" flag="0"/>
			<vel value="0.00144828203617" flag="0"/>
			<psa03 value="0.00810203802235006" flag="0"/>
			<psa10 value="0.00105561254633622" flag="0"/>
			<psa30 value="0.000195197969970179" flag="0"/>
		</comp>
	</station>
	<station code="KTL1" name="KTL1" netid="HI" source="ITSAK Strong Motion Network" insttype="" lat="35.20778" lon="25.34272">
		<comp name=".HNE" depth="0.0">
			<acc value="0.004525167075384" flag="0"/>
			<vel value="0.00239092145784" flag="0"/>
			<psa03 value="0.0179809606816456" flag="0"/>
			<psa10 value="0.00261045324221656" flag="0"/>
			<psa30 value="0.000230181472351046" flag="0"/>
		</comp>
		<comp name=".HNN" depth="0.0">
			<acc value="0.0062830613361102" flag="0"/>
			<vel value="0.00381256787063" flag="0"/>
			<psa03 value="0.0195704579051413" flag="0"/>
			<psa10 value="0.00407847486644764" flag="0"/>
			<psa30 value="0.000304196453605539" flag="0"/>
		</comp>
		<comp name=".HNZ" depth="0.0">
			<acc value="0.0038570022516912" flag="0"/>
			<vel value="0.00196550801023" flag="0"/>
			<psa03 value="0.00874129651591417" flag="0"/>
			<psa10 value="0.00320034411646459" flag="0"/>
			<psa30 value="0.000319704147580873" flag="0"/>
		</comp>
	</station>
	<station code="NAX1" name="NAX1" netid="HI" source="ITSAK Strong Motion Network" insttype="" lat="37.101394" lon="25.374103">
		<comp name=".HNE" depth="0.0">
			<acc value="0.036887876573928" flag="0"/>
			<vel value="0.00573949782533" flag="0"/>
			<psa03 value="0.0105368008759216" flag="0"/>
			<psa10 value="0.00360970131249542" flag="0"/>
			<psa30 value="0.000400382617133324" flag="0"/>
		</comp>
		<comp name=".HNN" depth="0.0">
			<acc value="0.04641210851544" flag="0"/>
			<vel value="0.00706807464453" flag="0"/>
			<psa03 value="0.012591697419389" flag="0"/>
			<psa10 value="0.00447568477341662" flag="0"/>
			<psa30 value="0.000839505300604126" flag="0"/>
		</comp>
		<comp name=".HNZ" depth="0.0">
			<acc value="0.05875271388168" flag="0"/>
			<vel value="0.0076372697961" flag="0"/>
			<psa03 value="0.0170832475667336" flag="0"/>
			<psa10 value="0.00360208666743794" flag="0"/>
			<psa30 value="0.000434282362824985" flag="0"/>
		</comp>
	</station>
	<station code="RKL1" name="RKL1" netid="HI" source="ITSAK Strong Motion Network" insttype="" lat="36.336699" lon="28.171224">
		<comp name=".HNE" depth="0.0">
			<acc value="0.001199393070486" flag="0"/>
			<vel value="0.00073393585322" flag="0"/>
			<psa03 value="0.00282953086701358" flag="0"/>
			<psa10 value="0.00147031384638841" flag="0"/>
			<psa30 value="0.000124234505967867" flag="0"/>
		</comp>
		<comp name=".HNN" depth="0.0">
			<acc value="0.00118451450358" flag="0"/>
			<vel value="0.000542520379774" flag="0"/>
			<psa03 value="0.00253800488166807" flag="0"/>
			<psa10 value="0.000923427891313975" flag="0"/>
			<psa30 value="9.81594518006809e-05" flag="0"/>
		</comp>
		<comp name=".HNZ" depth="0.0">
			<acc value="0.0011679975372348" flag="0"/>
			<vel value="0.000498688355698" flag="0"/>
			<psa03 value="0.0020757703220986" flag="0"/>
			<psa10 value="0.000430911250833001" flag="0"/>
			<psa30 value="0.000166565943030259" flag="0"/>
		</comp>
	</station>
	<station code="RTH1" name="RTH1" netid="HI" source="ITSAK Strong Motion Network" insttype="" lat="35.365393" lon="24.471773">
		<comp name=".HNE" depth="0.0">
			<acc value="0.003717007092306" flag="0"/>
			<vel value="0.00213714984884" flag="0"/>
			<psa03 value="0.0167000594219683" flag="0"/>
			<psa10 value="0.00145096420519621" flag="0"/>
			<psa30 value="0.000335958792079385" flag="0"/>
		</comp>
		<comp name=".HNN" depth="0.0">
			<acc value="0.003945626216175" flag="0"/>
			<vel value="0.00171391252516" flag="0"/>
			<psa03 value="0.0145255533924493" flag="0"/>
			<psa10 value="0.0011618182928833" flag="0"/>
			<psa30 value="0.000391460072933532" flag="0"/>
		</comp>
		<comp name=".HNZ" depth="0.0">
			<acc value="0.0053090012749242" flag="0"/>
			<vel value="0.00169914832778" flag="0"/>
			<psa03 value="0.00748899024947697" flag="0"/>
			<psa10 value="0.0013889008750537" flag="0"/>
			<psa30 value="0.000264556900596194" flag="0"/>
		</comp>
	</station>
	<station code="SFR2" name="SFR2" netid="HI" source="ITSAK Strong Motion Network" insttype="" lat="36.399841" lon="25.438209">
		<comp name=".HNE" depth="0.0">
			<acc value="0.0071268250140318" flag="0"/>
			<vel value="0.00144506186912" flag="0"/>
			<psa03 value="0.0122043605623293" flag="0"/>
			<psa10 value="0.00100095466771114" flag="0"/>
			<psa30 value="0.000394395501766492" flag="0"/>
		</comp>
		<comp name=".HNN" depth="0.0">
			<acc value="0.0093918040841274" flag="0"/>
			<vel value="0.00219427074278" flag="0"/>
			<psa03 value="0.0197323293053995" flag="0"/>
			<psa10 value="0.00101840410489925" flag="0"/>
			<psa30 value="0.000583312495754907" flag="0"/>
		</comp>
		<comp name=".HNZ" depth="0.0">
			<acc value="0.012111949580256" flag="0"/>
			<vel value="0.00211703703699" flag="0"/>
			<psa03 value="0.0284977211675223" flag="0"/>
			<psa10 value="0.00127559110321149" flag="0"/>
			<psa30 value="0.000209452586143525" flag="0"/>
		</comp>
	</station>
	<station code="AMGA" name="AMGA" netid="HL" source="National Observatory of Athens Seismic Network" insttype="" lat="36.831561" lon="25.893836">
		<comp name="00.HNE" depth="0.0">
			<acc value="0.012030677661624" flag="0"/>
			<vel value="0.00231908172091" flag="0"/>
			<psa03 value="0.00607275906131269" flag="0"/>
			<psa10 value="0.000354372606305415" flag="0"/>
			<psa30 value="0.000556435402781475" flag="0"/>
		</comp>
		<comp name="00.HNN" depth="0.0">
			<acc value="0.010581463638894" flag="0"/>
			<vel value="0.00195541605772" flag="0"/>
			<psa03 value="0.00636529601859725" flag="0"/>
			<psa10 value="0.000421500852050554" flag="0"/>
			<psa30 value="0.000523710370326289" flag="0"/>
		</comp>
		<comp name="00.HNZ" depth="0.0">
			<acc value="0.007773372937149" flag="0"/>
			<vel value="0.00170686029568" flag="0"/>
			<psa03 value="0.0101907161005702" flag="0"/>
			<psa10 value="0.000568010694326864" flag="0"/>
			<psa30 value="0.000407025348848262" flag="0"/>
		</comp>
	</station>
	<station code="ANAF" name="ANAF" netid="HL" source="National Observatory of Athens Seismic Network" insttype="" lat="36.35675" lon="25.77262">
		<comp name=".HNE" depth="0.0">
			<acc value="0.084707460100098" flag="0"/>
			<vel value="0.0095906016519" flag="0"/>
			<psa03 value="0.0157490068360856" flag="0"/>
			<psa10 value="0.000967495537143709" flag="0"/>
			<psa30 value="0.000499187912498739" flag="0"/>
		</comp>
		<comp name=".HNN" depth="0.0">
			<acc value="0.083437173528564" flag="0"/>
			<vel value="0.0107117473597" flag="0"/>
			<psa03 value="0.0234621870672422" flag="0"/>
			<psa10 value="0.00212757336316757" flag="0"/>
			<psa30 value="0.000503280162759293" flag="0"/>
		</comp>
		<comp name=".HNZ" depth="0.0">
			<acc value="0.056216438661102" flag="0"/>
			<vel value="0.00679172707553" flag="0"/>
			<psa03 value="0.017837793645474" flag="0"/>
			<psa10 value="0.00171831086090971" flag="0"/>
			<psa30 value="0.000470159687438299" flag="0"/>
		</comp>
	</station>
	<station code="CHNB" name="CHNB" netid="HL" source="National Observatory of Athens Seismic Network" insttype="" lat="35.48765" lon="24.06605">
		<comp name="00.HNE" depth="0.0">
			<acc value="0.0059458870232232" flag="0"/>
			<vel value="0.00401990509875" flag="0"/>
			<psa03 value="0.0199715092123662" flag="0"/>
			<psa10 value="0.010558509449418" flag="0"/>
