<?xml version="1.0" encoding="UTF-8" standalone="yes"?>
<!DOCTYPE earthquake SYSTEM "stationlist.dtd">
<stationlist created="" xmlns="ch.ethz.sed.shakemap.usgs.xml">
  <station code="AMGA" name="AMGA" netid="HL" insttype="CMG-5TD" lat="36.8316" lon="25.8938">
    <comp name="00.HNN">
      <acc value="0.0107205873" flag="0"/>
      <vel value="0.0018986283" flag="0"/>
      <psa03 value="0.0034944332" flag="0"/>
      <psa10 value="0.0003972586" flag="0"/>
      <psa30 value="0.0002594387" flag="0"/>
    </comp>
    <comp name="00.HNZ">
      <acc value="0.0077237600" flag="0"/>
      <vel value="0.0015297743" flag="0"/>
      <psa03 value="0.0036397639" flag="0"/>
      <psa10 value="0.0002942280" flag="0"/>
      <psa30 value="0.0003160483" flag="0"/>
    </comp>
    <comp name="00.HNE">
      <acc value="0.0123595365" flag="0"/>
      <vel value="0.0022408726" flag="0"/>
      <psa03 value="0.0060523063" flag="0"/>
      <psa10 value="0.0003633435" flag="0"/>
      <psa30 value="0.0004742743" flag="0"/>
    </comp>
  </station>
</stationlist>
