<?xml version="1.0" encoding="UTF-8" standalone="yes"?>
<!DOCTYPE earthquake SYSTEM "stationlist.dtd">
<stationlist created="" xmlns="ch.ethz.sed.shakemap.usgs.xml">
  <station code="APE" name="APE" netid="GE" insttype="STS-2/N" lat="37.0727" lon="25.523">
    <comp name="--.HHE">
      <acc value="0.2289201756" flag="0"/>
      <vel value="0.0442552128" flag="0"/>
      <psa03 value="0.1857012950" flag="0"/>
      <psa10 value="0.0233161871" flag="0"/>
      <psa30 value="0.0058407253" flag="0"/>
    </comp>
    <comp name="--.HHN">
      <acc value="0.2244993705" flag="0"/>
      <vel value="0.0466363321" flag="0"/>
      <psa03 value="0.1464322646" flag="0"/>
      <psa10 value="0.0303164038" flag="0"/>
      <psa30 value="0.0069700997" flag="0"/>
    </comp>
    <comp name="--.HHZ">
      <acc value="0.1020499173" flag="0"/>
      <vel value="0.0239410429" flag="0"/>
      <psa03 value="0.1154546532" flag="0"/>
      <psa10 value="0.0225090160" flag="0"/>
      <psa30 value="0.0067556304" flag="0"/>
    </comp>
  </station>
  <station code="THERA" name="THERA" netid="GE" insttype="STS-2/N" lat="36.367" lon="25.4753">
    <comp name="--.HHE">
      <acc value="0.2156539097" flag="0"/>
      <vel value="0.0803212817" flag="0"/>
      <psa03 value="0.2927250828" flag="0"/>
      <psa10 value="0.0387348240" flag="0"/>
      <psa30 value="0.0056771661" flag="0"/>
    </comp>
    <comp name="--.HHN">
      <acc value="0.1280909174" flag="0"/>
      <vel value="0.0256332563" flag="0"/>
      <psa03 value="0.1932731815" flag="0"/>
      <psa10 value="0.0223593395" flag="0"/>
      <psa30 value="0.0026437396" flag="0"/>
    </comp>
    <comp name="--.HHZ">
      <acc value="0.1623986519" flag="0"/>
      <vel value="0.0387225368" flag="0"/>
      <psa03 value="0.1949814514" flag="0"/>
      <psa10 value="0.0192537776" flag="0"/>
      <psa30 value="0.0041597359" flag="0"/>
    </comp>
  </station>
</stationlist>
