<?xml version="1.0" encoding="UTF-8" standalone="yes"?>
<!DOCTYPE earthquake SYSTEM "stationlist.dtd">
<stationlist created="" xmlns="ch.ethz.sed.shakemap.usgs.xml">
  <station code="APE" name="APE" netid="GE" insttype="STS-2/N" lat="37.0727" lon="25.523">
    <comp name="--.HHN">
      <acc value="0.2244993704" flag="0"/>
      <vel value="0.0466363409" flag="0"/>
      <psa03 value="0.1464322646" flag="0"/>
      <psa10 value="0.0303163990" flag="0"/>
      <psa30 value="0.0069702006" flag="0"/>
    </comp>
    <comp name="--.HHE">
      <acc value="0.2289201753" flag="0"/>
      <vel value="0.0442552131" flag="0"/>
      <psa03 value="0.1857012950" flag="0"/>
      <psa10 value="0.0233161876" flag="0"/>
      <psa30 value="0.0058407369" flag="0"/>
    </comp>
    <comp name="--.HHZ">
      <acc value="0.1020499174" flag="0"/>
      <vel value="0.0239410371" flag="0"/>
      <psa03 value="0.1154546532" flag="0"/>
      <psa10 value="0.0225090271" flag="0"/>
      <psa30 value="0.0067559344" flag="0"/>
    </comp>
  </station>
  <station code="THERA" name="THERA" netid="GE" insttype="STS-2/N" lat="36.367" lon="25.4753">
    <comp name="--.HHE">
      <acc value="0.2156539093" flag="0"/>
      <vel value="0.0803212859" flag="0"/>
      <psa03 value="0.2927250828" flag="0"/>
      <psa10 value="0.0387348218" flag="0"/>
      <psa30 value="0.0056774400" flag="0"/>
    </comp>
    <comp name="--.HHN">
      <acc value="0.1280909175" flag="0"/>
      <vel value="0.0256332495" flag="0"/>
      <psa03 value="0.1932731815" flag="0"/>
      <psa10 value="0.0223593412" flag="0"/>
      <psa30 value="0.0026430026" flag="0"/>
    </comp>
    <comp name="--.HHZ">
      <acc value="0.1623986519" flag="0"/>
      <vel value="0.0387225380" flag="0"/>
      <psa03 value="0.1949814514" flag="0"/>
      <psa10 value="0.0192537798" flag="0"/>
      <psa30 value="0.0041591716" flag="0"/>
    </comp>
  </station>
</stationlist>
