<?xml version="1.0" encoding="UTF-8" standalone="yes"?>
<!DOCTYPE earthquake SYSTEM "stationlist.dtd">
<stationlist created="" xmlns="ch.ethz.sed.shakemap.usgs.xml">
  <station code="APE" name="APE" netid="GE" insttype="STS-2/N" lat="37.0727" lon="25.523">
    <comp name="--.HHN">
      <acc value="0.4174365371" flag="0"/>
      <vel value="0.0943900308" flag="0"/>
      <psa03 value="0.4732397557" flag="0"/>
      <psa10 value="0.0278934705" flag="0"/>
      <psa30 value="0.0018565034" flag="0"/>
    </comp>
    <comp name="--.HHE">
      <acc value="0.3204890341" flag="0"/>
      <vel value="0.0712426386" flag="0"/>
      <psa03 value="0.4595567427" flag="0"/>
      <psa10 value="0.0223739770" flag="0"/>
      <psa30 value="0.0022298716" flag="0"/>
    </comp>
    <comp name="--.HHZ">
      <acc value="0.1951986960" flag="0"/>
      <vel value="0.0392911901" flag="0"/>
      <psa03 value="0.3002284708" flag="0"/>
      <psa10 value="0.0157207532" flag="0"/>
      <psa30 value="0.0019602743" flag="0"/>
    </comp>
  </station>
  <station code="THERA" name="THERA" netid="GE" insttype="STS-2/N" lat="36.367" lon="25.4753">
    <comp name="--.HHZ">
      <acc value="0.2400783923" flag="0"/>
      <vel value="0.0798622527" flag="0"/>
      <psa03 value="0.3646870871" flag="0"/>
      <psa10 value="0.0314848036" flag="0"/>
      <psa30 value="0.0020049020" flag="0"/>
    </comp>
    <comp name="--.HHE">
      <acc value="0.2619935733" flag="0"/>
      <vel value="0.1156075177" flag="0"/>
      <psa03 value="0.4740206774" flag="0"/>
      <psa10 value="0.0461679920" flag="0"/>
      <psa30 value="0.0050643583" flag="0"/>
    </comp>
    <comp name="--.HHN">
      <acc value="0.2857659934" flag="0"/>
      <vel value="0.0607219633" flag="0"/>
      <psa03 value="0.2791254617" flag="0"/>
      <psa10 value="0.0269120539" flag="0"/>
      <psa30 value="0.0027153842" flag="0"/>
    </comp>
  </station>
  <station code="SERI" name="SERI" netid="HA" insttype="30" lat="37.1609" lon="24.4853">
    <comp name="--.HHN">
      <acc value="0.0407940601" flag="0"/>
      <vel value="0.0102658475" flag="0"/>
      <psa03 value="0.0421630704" flag="0"/>
      <psa10 value="0.0135441384" flag="0"/>
      <psa30 value="0.0021782249" flag="0"/>
    </comp>
    <comp name="--.HHE">
      <acc value="0.0286260092" flag="0"/>
      <vel value="0.0087935139" flag="0"/>
      <psa03 value="0.0538808633" flag="0"/>
      <psa10 value="0.0074527391" flag="0"/>
      <psa30 value="0.0005174063" flag="0"/>
    </comp>
    <comp name="--.HHZ">
      <acc value="0.0469992609" flag="0"/>
      <vel value="0.0100082004" flag="0"/>
      <psa03 value="0.0251196323" flag="0"/>
      <psa10 value="0.0072200457" flag="0"/>
      <psa30 value="0.0009241836" flag="0"/>
    </comp>
  </station>
  <station code="SNT1" name="SNT1" netid="HA" insttype="30" lat="36.4159" lon="25.4282">
    <comp name="--.HHE">
      <acc value="0.1284492683" flag="0"/>
      <vel value="0.0481055320" flag="0"/>
      <psa03 value="0.2390717812" flag="0"/>
      <psa10 value="0.0600679737" flag="0"/>
      <psa30 value="0.0064018888" flag="0"/>
    </comp>
    <comp name="--.HHN">
      <acc value="0.1551739820" flag="0"/>
      <vel value="0.0371552538" flag="0"/>
      <psa03 value="0.1909702463" flag="0"/>
      <psa10 value="0.0358343354" flag="0"/>
      <psa30 value="0.0044555421" flag="0"/>
    </comp>
    <comp name="--.HHZ">
      <acc value="0.1126110365" flag="0"/>
      <vel value="0.0366297146" flag="0"/>
      <psa03 value="0.1379620006" flag="0"/>
      <psa10 value="0.0306918638" flag="0"/>
      <psa30 value="0.0022899375" flag="0"/>
    </comp>
  </station>
  <station code="NAX1" name="NAX1" netid="HI" insttype="CMG-5TD,ACCELEROMETER,GURALP" lat="37.1014" lon="25.3741">
    <comp name="--.HNE">
      <acc value="0.2242868909" flag="0"/>
      <vel value="0.0512383983" flag="0"/>
      <psa03 value="0.1896525954" flag="0"/>
      <psa10 value="0.0279599197" flag="0"/>
      <psa30 value="0.0016058735" flag="0"/>
    </comp>
    <comp name="--.HNZ">
      <acc value="0.1279639555" flag="0"/>
      <vel value="0.0435716486" flag="0"/>
      <psa03 value="0.1527936308" flag="0"/>
      <psa10 value="0.0260646500" flag="0"/>
      <psa30 value="0.0023331138" flag="0"/>
    </comp>
    <comp name="--.HNN">
      <acc value="0.1577050301" flag="0"/>
      <vel value="0.0420424656" flag="0"/>
      <psa03 value="0.1618187104" flag="0"/>
      <psa10 value="0.0219580730" flag="0"/>
      <psa30 value="0.0027846361" flag="0"/>
    </comp>
  </station>
  <station code="SFR2" name="SFR2" netid="HI" insttype="unknown" lat="36.3998" lon="25.4382">
    <comp name="--.HNN">
      <acc value="0.4163848410" flag="0"/>
      <vel value="0.1715064318" flag="0"/>
      <psa03 value="0.7084724731" flag="0"/>
      <psa10 value="0.1082552618" flag="0"/>
      <psa30 value="0.0052188907" flag="0"/>
    </comp>
    <comp name="--.HNE">
      <acc value="0.3815977353" flag="0"/>
      <vel value="0.1439557488" flag="0"/>
      <psa03 value="0.5874796137" flag="0"/>
      <psa10 value="0.0991814096" flag="0"/>
      <psa30 value="0.0062807751" flag="0"/>
    </comp>
    <comp name="--.HNZ">
      <acc value="0.4002418202" flag="0"/>
      <vel value="0.1160100878" flag="0"/>
      <psa03 value="0.4772376992" flag="0"/>
      <psa10 value="0.0758061586" flag="0"/>
      <psa30 value="0.0039942019" flag="0"/>
    </comp>
  </station>
  <station code="AMGA" name="AMGA" netid="HL" insttype="SMART24" lat="36.8316" lon="25.8938">
    <comp name="--.HHE">
      <acc value="2.6526801323" flag="0"/>
      <vel value="0.7342399656" flag="0"/>
      <psa03 value="2.8566765156" flag="0"/>
      <psa10 value="0.4143313866" flag="0"/>
      <psa30 value="0.0302565572" flag="0"/>
    </comp>
    <comp name="--.HHN">
      <acc value="2.6689931031" flag="0"/>
      <vel value="0.5442277710" flag="0"/>
      <psa03 value="1.3020108019" flag="0"/>
      <psa10 value="0.2240563797" flag="0"/>
      <psa30 value="0.0238521314" flag="0"/>
    </comp>
    <comp name="--.HHZ">
      <acc value="1.5657293821" flag="0"/>
      <vel value="0.3212518488" flag="0"/>
      <psa03 value="0.6641083550" flag="0"/>
      <psa10 value="0.1295973269" flag="0"/>
      <psa30 value="0.0106921445" flag="0"/>
    </comp>
  </station>
  <station code="APE" name="APE" netid="HL" insttype="120" lat="37.0727" lon="25.523">
    <comp name="--.HHE">
      <acc value="0.2864956903" flag="0"/>
      <vel value="0.0682048860" flag="0"/>
      <psa03 value="0.4487690891" flag="0"/>
      <psa10 value="0.0219475524" flag="0"/>
      <psa30 value="0.0022031397" flag="0"/>
    </comp>
    <comp name="--.HHN">
      <acc value="0.3901209164" flag="0"/>
      <vel value="0.0913681687" flag="0"/>
      <psa03 value="0.4604348987" flag="0"/>
      <psa10 value="0.0274680968" flag="0"/>
      <psa30 value="0.0018175374" flag="0"/>
    </comp>
  </station>
  <station code="MHLO" name="MHLO" netid="HL" insttype="20" lat="36.6898" lon="24.4017">
    <comp name="--.HHE">
      <acc value="0.0718770386" flag="0"/>
      <vel value="0.0403312409" flag="0"/>
      <psa03 value="0.1697112990" flag="0"/>
      <psa10 value="0.0555252426" flag="0"/>
      <psa30 value="0.0024683776" flag="0"/>
    </comp>
    <comp name="--.HHN">
      <acc value="0.0533799092" flag="0"/>
      <vel value="0.0338026384" flag="0"/>
      <psa03 value="0.1810180575" flag="0"/>
      <psa10 value="0.0560176688" flag="0"/>
      <psa30 value="0.0027693632" flag="0"/>
    </comp>
    <comp name="--.HHZ">
      <acc value="0.0424340876" flag="0"/>
      <vel value="0.0257526023" flag="0"/>
      <psa03 value="0.1487726631" flag="0"/>
      <psa10 value="0.0310560498" flag="0"/>
      <psa30 value="0.0019514960" flag="0"/>
    </comp>
  </station>
  <station code="MILA" name="MILA" netid="HL" insttype="CMG-5" lat="36.7429" lon="24.4282">
    <comp name="00.HNE">
      <acc value="0.0730220121" flag="0"/>
      <vel value="0.0302876813" flag="0"/>
      <psa03 value="0.1926413604" flag="0"/>
      <psa10 value="0.0293398108" flag="0"/>
      <psa30 value="0.0021757722" flag="0"/>
    </comp>
    <comp name="00.HNN">
      <acc value="0.1283155736" flag="0"/>
      <vel value="0.0622947606" flag="0"/>
      <psa03 value="0.3800467040" flag="0"/>
      <psa10 value="0.0336486617" flag="0"/>
      <psa30 value="0.0031235564" flag="0"/>
    </comp>
    <comp name="00.HNZ">
      <acc value="0.0821376109" flag="0"/>
      <vel value="0.0283022921" flag="0"/>
      <psa03 value="0.2157678390" flag="0"/>
      <psa10 value="0.0339882015" flag="0"/>
      <psa30 value="0.0019254048" flag="0"/>
    </comp>
  </station>
  <station code="NISR" name="NISR" netid="HL" insttype="65535" lat="36.6106" lon="27.131">
    <comp name="--.HHN">
      <acc value="0.1024666734" flag="0"/>
      <vel value="0.0438243781" flag="0"/>
      <psa03 value="0.2033244341" flag="0"/>
      <psa10 value="0.0321713484" flag="0"/>
      <psa30 value="0.0040141563" flag="0"/>
    </comp>
    <comp name="--.HHE">
      <acc value="0.0000000000" flag="0"/>
      <vel value="-100.0000000000" flag="0"/>
      <psa03 value="0.0000000000" flag="0"/>
      <psa10 value="0.0000000000" flag="0"/>
      <psa30 value="0.0000000000" flag="0"/>
    </comp>
    <comp name="--.HHZ">
      <acc value="0.0530047851" flag="0"/>
      <vel value="0.0221911821" flag="0"/>
      <psa03 value="0.1053666766" flag="0"/>
      <psa10 value="0.0198634289" flag="0"/>
      <psa30 value="0.0011404796" flag="0"/>
    </comp>
  </station>
  <station code="NISR2" name="NISR2" netid="HL" insttype="120" lat="36.5744" lon="27.1767">
    <comp name="--.HHE">
      <acc value="0.0776185725" flag="0"/>
      <vel value="0.0599935749" flag="0"/>
      <psa03 value="0.2384558923" flag="0"/>
      <psa10 value="0.0963833492" flag="0"/>
      <psa30 value="0.0044151810" flag="0"/>
    </comp>
    <comp name="--.HHN">
      <acc value="0.1203659673" flag="0"/>
      <vel value="0.0755355264" flag="0"/>
      <psa03 value="0.3473155195" flag="0"/>
      <psa10 value="0.0707256938" flag="0"/>
      <psa30 value="0.0036425795" flag="0"/>
    </comp>
    <comp name="--.HHZ">
      <acc value="0.0350466616" flag="0"/>
      <vel value="0.0186494899" flag="0"/>
      <psa03 value="0.1122810614" flag="0"/>
      <psa10 value="0.0186410747" flag="0"/>
      <psa30 value="0.0012558143" flag="0"/>
    </comp>
  </station>
  <station code="SANT" name="SANT" netid="HL" insttype="30" lat="36.3705" lon="25.4593">
    <comp name="--.HHE">
      <acc value="0.7143817675" flag="0"/>
      <vel value="0.1731897066" flag="0"/>
      <psa03 value="0.9748812680" flag="0"/>
      <psa10 value="0.0429727426" flag="0"/>
      <psa30 value="0.0055091715" flag="0"/>
    </comp>
    <comp name="--.HHZ">
      <acc value="0.4919969837" flag="0"/>
      <vel value="0.1092849781" flag="0"/>
      <psa03 value="0.6729958318" flag="0"/>
      <psa10 value="0.0221613268" flag="0"/>
      <psa30 value="0.0021800618" flag="0"/>
    </comp>
    <comp name="--.HHN">
      <acc value="0.5428250010" flag="0"/>
      <vel value="0.0938380549" flag="0"/>
      <psa03 value="0.5813287596" flag="0"/>
      <psa10 value="0.0442941264" flag="0"/>
      <psa30 value="0.0028022545" flag="0"/>
    </comp>
  </station>
  <station code="SAP3" name="SAP3" netid="HL" insttype="65535" lat="36.4356" lon="25.3454">
    <comp name="--.HHN">
      <acc value="0.1415827141" flag="0"/>
      <vel value="0.0527726469" flag="0"/>
      <psa03 value="0.2804973003" flag="0"/>
      <psa10 value="0.0434579445" flag="0"/>
      <psa30 value="0.0041384335" flag="0"/>
    </comp>
    <comp name="--.HHE">
      <acc value="0.1331144108" flag="0"/>
      <vel value="0.0477295049" flag="0"/>
      <psa03 value="0.2701011417" flag="0"/>
      <psa10 value="0.0414498772" flag="0"/>
      <psa30 value="0.0058155259" flag="0"/>
    </comp>
    <comp name="--.HHZ">
      <acc value="0.1323581017" flag="0"/>
      <vel value="0.0345501586" flag="0"/>
      <psa03 value="0.2320985736" flag="0"/>
      <psa10 value="0.0141024705" flag="0"/>
      <psa30 value="0.0020539985" flag="0"/>
    </comp>
  </station>
  <station code="SMG" name="SMG" netid="HL" insttype="120" lat="37.7043" lon="26.8377">
    <comp name="--.HHE">
      <acc value="0.0326832254" flag="0"/>
      <vel value="0.0220390220" flag="0"/>
      <psa03 value="0.1510262329" flag="0"/>
      <psa10 value="0.0176509627" flag="0"/>
      <psa30 value="0.0018477540" flag="0"/>
    </comp>
    <comp name="--.HHZ">
      <acc value="0.0185341564" flag="0"/>
      <vel value="0.0089568110" flag="0"/>
      <psa03 value="0.0396735484" flag="0"/>
      <psa10 value="0.0067695786" flag="0"/>
      <psa30 value="0.0008028064" flag="0"/>
    </comp>
    <comp name="--.HHN">
      <acc value="0.0303322777" flag="0"/>
      <vel value="0.0144196708" flag="0"/>
      <psa03 value="0.0743929725" flag="0"/>
      <psa10 value="0.0096360935" flag="0"/>
      <psa30 value="0.0011878476" flag="0"/>
    </comp>
  </station>
  <station code="THERA" name="THERA" netid="HL" insttype="120" lat="36.367" lon="25.4753">
    <comp name="--.HHE">
      <acc value="0.2666209061" flag="0"/>
      <vel value="0.1137714640" flag="0"/>
      <psa03 value="0.4599990286" flag="0"/>
      <psa10 value="0.0454121005" flag="0"/>
      <psa30 value="0.0050017778" flag="0"/>
    </comp>
    <comp name="--.HHN">
      <acc value="0.5589489305" flag="0"/>
      <vel value="0.1197353758" flag="0"/>
      <psa03 value="0.5434274249" flag="0"/>
      <psa10 value="0.0531233749" flag="0"/>
      <psa30 value="0.0053390490" flag="0"/>
    </comp>
    <comp name="--.HHZ">
      <acc value="0.2323124210" flag="0"/>
      <vel value="0.0772348214" flag="0"/>
      <psa03 value="0.3544504561" flag="0"/>
      <psa10 value="0.0311000795" flag="0"/>
      <psa30 value="0.0019995481" flag="0"/>
    </comp>
  </station>
  <station code="THRA" name="THRA" netid="HL" insttype="CMG-5" lat="36.415" lon="25.4324">
    <comp name="00.HNE">
      <acc value="0.6049502277" flag="0"/>
      <vel value="0.1615034030" flag="0"/>
      <psa03 value="1.1136508368" flag="0"/>
      <psa10 value="0.1946445841" flag="0"/>
      <psa30 value="0.0104072060" flag="0"/>
    </comp>
    <comp name="00.HNN">
      <acc value="0.4927412878" flag="0"/>
      <vel value="0.1651151537" flag="0"/>
      <psa03 value="0.7779025206" flag="0"/>
      <psa10 value="0.1221671905" flag="0"/>
      <psa30 value="0.0110570934" flag="0"/>
    </comp>
    <comp name="00.HNZ">
      <acc value="0.4424827499" flag="0"/>
      <vel value="0.1160350339" flag="0"/>
      <psa03 value="0.5293419465" flag="0"/>
      <psa10 value="0.0609256976" flag="0"/>
      <psa30 value="0.0048452610" flag="0"/>
    </comp>
  </station>
  <station code="TNSA" name="TNSA" netid="HL" insttype="CMG-5" lat="37.5394" lon="25.1631">
    <comp name="00.HNE">
      <acc value="0.0795555235" flag="0"/>
      <vel value="0.0355236857" flag="0"/>
      <psa03 value="0.0945333843" flag="0"/>
      <psa10 value="0.0271767933" flag="0"/>
      <psa30 value="0.0015914782" flag="0"/>
    </comp>
    <comp name="00.HNN">
      <acc value="0.1221652607" flag="0"/>
      <vel value="0.0385662298" flag="0"/>
      <psa03 value="0.1211954923" flag="0"/>
      <psa10 value="0.0273589850" flag="0"/>
      <psa30 value="0.0014192465" flag="0"/>
    </comp>
    <comp name="00.HNZ">
      <acc value="0.1136610197" flag="0"/>
      <vel value="0.0346660928" flag="0"/>
      <psa03 value="0.1187478687" flag="0"/>
      <psa10 value="0.0318029438" flag="0"/>
      <psa30 value="0.0031541165" flag="0"/>
    </comp>
  </station>
  <station code="AKRO" name="AKRO" netid="HT" insttype="Compact," lat="36.3584" lon="25.3967">
    <comp name="--.HHN">
      <acc value="0.8761758398" flag="0"/>
      <vel value="0.2151677073" flag="0"/>
      <psa03 value="1.1356601042" flag="0"/>
      <psa10 value="0.0871690337" flag="0"/>
      <psa30 value="0.0067830332" flag="0"/>
    </comp>
    <comp name="--.HHZ">
      <acc value="0.5668060245" flag="0"/>
      <vel value="0.1474166401" flag="0"/>
      <psa03 value="1.1112275881" flag="0"/>
      <psa10 value="0.0525247215" flag="0"/>
      <psa30 value="0.0048175113" flag="0"/>
    </comp>
  </station>
  <station code="CMBO" name="CMBO" netid="HT" insttype="120P," lat="36.4709" lon="25.4056">
    <comp name="--.HHN">
      <acc value="0.2902256440" flag="0"/>
      <vel value="0.1071229916" flag="0"/>
      <psa03 value="0.2756891523" flag="0"/>
      <psa10 value="0.0696096142" flag="0"/>
      <psa30 value="0.0039663146" flag="0"/>
    </comp>
    <comp name="--.HHE">
      <acc value="0.1970589436" flag="0"/>
      <vel value="0.0658331749" flag="0"/>
      <psa03 value="0.3719864466" flag="0"/>
      <psa10 value="0.0414657283" flag="0"/>
      <psa30 value="0.0045290207" flag="0"/>
    </comp>
    <comp name="--.HHZ">
      <acc value="0.2100742476" flag="0"/>
      <vel value="0.0492451338" flag="0"/>
      <psa03 value="0.4219264577" flag="0"/>
      <psa10 value="0.0248565480" flag="0"/>
      <psa30 value="0.0030898835" flag="0"/>
    </comp>
  </station>
</stationlist>
