<stationlist created="1739289452">
	<station code="ABEA" name="ABEA" netid="HC" source="Seismological Network of Crete (HC)" insttype="" lat="35.5163" lon="24.0113">
		<comp name=".HNE" depth="0.0">
			<acc value="0.0034834915862634" flag="0"/>
			<vel value="0.00268688668678" flag="0"/>
			<psa03 value="0.001500129812436" flag="0"/>
			<psa10 value="0.00148833449329278" flag="0"/>
			<psa30 value="0.00128656241594513" flag="0"/>
		</comp>
		<comp name=".HNN" depth="0.0">
			<acc value="0.0036362715624" flag="0"/>
			<vel value="0.00254624445924" flag="0"/>
			<psa03 value="0.00160849294799072" flag="0"/>
			<psa10 value="0.00161026901617072" flag="0"/>
			<psa30 value="0.00124804923963627" flag="0"/>
		</comp>
		<comp name=".HNZ" depth="0.0">
			<acc value="0.0052707174021216" flag="0"/>
			<vel value="0.00194706585545" flag="0"/>
			<psa03 value="0.00127655844268398" flag="0"/>
			<psa10 value="0.0012020343163743" flag="0"/>
			<psa30 value="0.00063755020332386" flag="0"/>
		</comp>
	</station>
	<station code="ATEI" name="ATEI" netid="HC" source="Seismological Network of Crete (HC)" insttype="" lat="35.5193" lon="24.0432">
		<comp name=".HNE" depth="0.0">
			<acc value="0.0075593583227814" flag="0"/>
			<vel value="0.00729716031732" flag="0"/>
			<psa03 value="0.0261801431601844" flag="0"/>
			<psa10 value="0.00732231741133262" flag="0"/>
			<psa30 value="0.00143210372400856" flag="0"/>
		</comp>
		<comp name=".HNN" depth="0.0">
			<acc value="0.009934327264017" flag="0"/>
			<vel value="0.00590982737357" flag="0"/>
			<psa03 value="0.0356476349183439" flag="0"/>
			<psa10 value="0.00825730356832511" flag="0"/>
			<psa30 value="0.00109736102811621" flag="0"/>
		</comp>
		<comp name=".HNZ" depth="0.0">
			<acc value="0.0053517528962592" flag="0"/>
			<vel value="0.00477210414422" flag="0"/>
			<psa03 value="0.0118658928280163" flag="0"/>
			<psa10 value="0.005721650906292" flag="0"/>
			<psa30 value="0.00107315515376252" flag="0"/>
		</comp>
	</station>
	<station code="G0LD" name="G0LD" netid="HC" source="Seismological Network of Crete (HC)" insttype="" lat="35.4955" lon="24.0306">
		<comp name=".HNE" depth="0.0">
			<acc value="0.0037335253350486" flag="0"/>
			<vel value="0.00391069884084" flag="0"/>
			<psa03 value="0.0022054948987844" flag="0"/>
			<psa10 value="0.00182268074365274" flag="0"/>
			<psa30 value="0.00175280340629002" flag="0"/>
		</comp>
		<comp name=".HNN" depth="0.0">
			<acc value="0.0054210451193706" flag="0"/>
			<vel value="0.00241198668327" flag="0"/>
			<psa03 value="0.00153228982048073" flag="0"/>
			<psa10 value="0.001207196533346" flag="0"/>
			<psa30 value="0.00106902967213626" flag="0"/>
		</comp>
		<comp name=".HNZ" depth="0.0">
			<acc value="0.0037423209408984" flag="0"/>
			<vel value="0.00703889458123" flag="0"/>
			<psa03 value="0.00206885547600238" flag="0"/>
			<psa10 value="0.00179811626481497" flag="0"/>
			<psa30 value="0.00188390584118364" flag="0"/>
		</comp>
	</station>
	<station code="PASK" name="PASK" netid="HC" source="Seismological Network of Crete (HC)" insttype="" lat="35.4996" lon="24.0121">
		<comp name=".HNE" depth="0.0">
			<acc value="0.030886960302192" flag="0"/>
			<vel value="0.0135185194153" flag="0"/>
			<psa03 value="0.0325341317890426" flag="0"/>
			<psa10 value="0.0165100487097148" flag="0"/>
			<psa30 value="0.00228221701900992" flag="0"/>
		</comp>
		<comp name=".HNN" depth="0.0">
			<acc value="0.049456706616726" flag="0"/>
			<vel value="0.0124586003646" flag="0"/>
			<psa03 value="0.0250830548584436" flag="0"/>
			<psa10 value="0.0172754800407724" flag="0"/>
			<psa30 value="0.00154384404292461" flag="0"/>
		</comp>
		<comp name=".HNZ" depth="0.0">
			<acc value="0.060795430154634" flag="0"/>
			<vel value="0.00619495580626" flag="0"/>
			<psa03 value="0.0267317474095566" flag="0"/>
			<psa10 value="0.00852522600439678" flag="0"/>
			<psa30 value="0.0015773208439308" flag="0"/>
		</comp>
	</station>
	<station code="POLY" name="POLY" netid="HC" source="Seismological Network of Crete (HC)" insttype="" lat="35.5226" lon="24.0602">
		<comp name=".HNE" depth="0.0">
			<acc value="0.0013050654001092" flag="0"/>
			<vel value="0.00319108188802" flag="0"/>
			<psa03 value="0.00126987277843837" flag="0"/>
			<psa10 value="0.00111823208519843" flag="0"/>
			<psa30 value="0.00084661337564658" flag="0"/>
		</comp>
		<comp name=".HNN" depth="0.0">
			<acc value="0.0014089832856684" flag="0"/>
			<vel value="0.00282374845352" flag="0"/>
			<psa03 value="0.00170723077144011" flag="0"/>
			<psa10 value="0.00150970610436859" flag="0"/>
			<psa30 value="0.000984276140965859" flag="0"/>
		</comp>
		<comp name=".HNZ" depth="0.0">
			<acc value="0.0020561009706774" flag="0"/>
			<vel value="0.00210783498126" flag="0"/>
			<psa03 value="0.00139988342550931" flag="0"/>
			<psa10 value="0.000811180611736008" flag="0"/>
			<psa30 value="0.000759225034513869" flag="0"/>
		</comp>
	</station>
	<station code="ARK1" name="ARK1" netid="HI" source="ITSAK Strong Motion Network" insttype="" lat="35.148777" lon="25.264194">
		<comp name=".HNE" depth="0.0">
			<acc value="0.030917227538004" flag="0"/>
			<vel value="0.0207114681741" flag="0"/>
			<psa03 value="0.14236516015982" flag="0"/>
			<psa10 value="0.0296440844001192" flag="0"/>
			<psa30 value="0.00238680394738159" flag="0"/>
		</comp>
		<comp name=".HNN" depth="0.0">
			<acc value="0.036286219439208" flag="0"/>
			<vel value="0.0235581550069" flag="0"/>
			<psa03 value="0.0947142951904812" flag="0"/>
			<psa10 value="0.0274311284276287" flag="0"/>
			<psa30 value="0.00207106553126233" flag="0"/>
		</comp>
		<comp name=".HNZ" depth="0.0">
			<acc value="0.025311404653428" flag="0"/>
			<vel value="0.0163542686582" flag="0"/>
			<psa03 value="0.0795308154012081" flag="0"/>
			<psa10 value="0.0213560353575466" flag="0"/>
			<psa30 value="0.00211064023622164" flag="0"/>
		</comp>
	</station>
	<station code="CH01" name="CH01" netid="HI" source="ITSAK Strong Motion Network" insttype="" lat="35.517" lon="24.0208">
		<comp name=".HNE" depth="0.0">
			<acc value="0.0089168396705196" flag="0"/>
			<vel value="0.00792763284725" flag="0"/>
			<psa03 value="0.0206939359758617" flag="0"/>
			<psa10 value="0.0100038805204859" flag="0"/>
			<psa30 value="0.00184460657113192" flag="0"/>
		</comp>
		<comp name=".HNN" depth="0.0">
			<acc value="0.0095185067047884" flag="0"/>
			<vel value="0.00679435638166" flag="0"/>
			<psa03 value="0.036886045081973" flag="0"/>
			<psa10 value="0.00924054557830704" flag="0"/>
			<psa30 value="0.00105839167575394" flag="0"/>
		</comp>
		<comp name=".HNZ" depth="0.0">
			<acc value="0.01028786215689" flag="0"/>
			<vel value="0.00441800664744" flag="0"/>
			<psa03 value="0.012184415230637" flag="0"/>
			<psa10 value="0.0106301832599747" flag="0"/>
			<psa30 value="0.000517971813092436" flag="0"/>
		</comp>
	</station>
	<station code="CH02" name="CH02" netid="HI" source="ITSAK Strong Motion Network" insttype="" lat="35.5145" lon="24.0315">
		<comp name=".HNE" depth="0.0">
			<acc value="0.0093392377805016" flag="0"/>
			<vel value="0.00765174487051" flag="0"/>
			<psa03 value="0.0330682166487177" flag="0"/>
			<psa10 value="0.00984871399148388" flag="0"/>
			<psa30 value="0.00167152541785538" flag="0"/>
		</comp>
		<comp name=".HNN" depth="0.0">
			<acc value="0.011555099420574" flag="0"/>
			<vel value="0.00769874132503" flag="0"/>
			<psa03 value="0.0342083963466974" flag="0"/>
			<psa10 value="0.00875836582374616" flag="0"/>
			<psa30 value="0.000980984672920862" flag="0"/>
		</comp>
		<comp name=".HNZ" depth="0.0">
			<acc value="0.005878465824066" flag="0"/>
			<vel value="0.00400516796289" flag="0"/>
			<psa03 value="0.0177976178068975" flag="0"/>
			<psa10 value="0.00672433467293632" flag="0"/>
			<psa30 value="0.000649458440101859" flag="0"/>
		</comp>
	</station>
	<station code="CH03" name="CH03" netid="HI" source="ITSAK Strong Motion Network" insttype="" lat="35.53303" lon="24.0705">
		<comp name=".HNE" depth="0.0">
			<acc value="0.010769233285572" flag="0"/>
			<vel value="0.00880671010062" flag="0"/>
			<psa03 value="0.0214865444718727" flag="0"/>
			<psa10 value="0.0123559313323221" flag="0"/>
			<psa30 value="0.00102015435105026" flag="0"/>
		</comp>
		<comp name=".HNN" depth="0.0">
			<acc value="0.0079991859242892" flag="0"/>
			<vel value="0.00594334013225" flag="0"/>
			<psa03 value="0.0267976189607466" flag="0"/>
			<psa10 value="0.00840778322437553" flag="0"/>
			<psa30 value="0.00062940726805767" flag="0"/>
		</comp>
		<comp name=".HNZ" depth="0.0">
			<acc value="0.007825675957722" flag="0"/>
			<vel value="0.00381199852492" flag="0"/>
			<psa03 value="0.013245676940263" flag="0"/>
			<psa10 value="0.00563732516386009" flag="0"/>
			<psa30 value="0.000455414387718477" flag="0"/>
		</comp>
	</station>
	<station code="GOR1" name="GOR1" netid="HI" source="ITSAK Strong Motion Network" insttype="" lat="35.0582" lon="24.9628">
		<comp name=".HNE" depth="0.0">
			<acc value="0.019060323704544" flag="0"/>
			<vel value="0.0098321372923" flag="0"/>
			<psa03 value="0.0706233242819385" flag="0"/>
			<psa10 value="0.0147504396442276" flag="0"/>
			<psa30 value="0.00129907293220619" flag="0"/>
		</comp>
		<comp name=".HNN" depth="0.0">
			<acc value="0.01546393060968" flag="0"/>
			<vel value="0.0127062573524" flag="0"/>
			<psa03 value="0.0515855162454957" flag="0"/>
			<psa10 value="0.0137522397683961" flag="0"/>
			<psa30 value="0.00196431762640412" flag="0"/>
		</comp>
		<comp name=".HNZ" depth="0.0">
			<acc value="0.012943298820246" flag="0"/>
			<vel value="0.00784997061082" flag="0"/>
			<psa03 value="0.0272736192434079" flag="0"/>
			<psa10 value="0.0106756587725051" flag="0"/>
			<psa30 value="0.000860153126756371" flag="0"/>
		</comp>
	</station>
	<station code="HER3" name="HER3" netid="HI" source="ITSAK Strong Motion Network" insttype="" lat="35.3296" lon="25.1065">
		<comp name=".HNE" depth="0.0">
			<acc value="0.063164116813482" flag="0"/>
			<vel value="0.0428765826128" flag="0"/>
			<psa03 value="0.244809779946319" flag="0"/>
			<psa10 value="0.0726286387908981" flag="0"/>
			<psa30 value="0.00308039510272529" flag="0"/>
		</comp>
		<comp name=".HNN" depth="0.0">
			<acc value="0.067731160745502" flag="0"/>
			<vel value="0.042747491752" flag="0"/>
			<psa03 value="0.224554688146111" flag="0"/>
			<psa10 value="0.0704437815546083" flag="0"/>
			<psa30 value="0.00277686145344115" flag="0"/>
		</comp>
		<comp name=".HNZ" depth="0.0">
			<acc value="0.056733987501174" flag="0"/>
			<vel value="0.0293781854949" flag="0"/>
			<psa03 value="0.11937119942279" flag="0"/>
			<psa10 value="0.0425608907000299" flag="0"/>
			<psa30 value="0.00165312878250043" flag="0"/>
		</comp>
	</station>
	<station code="KRL1" name="KRL1" netid="HI" source="ITSAK Strong Motion Network" insttype="" lat="37.7951" lon="26.7065">
		<comp name=".HNE" depth="0.0">
			<acc value="0.03371040624219" flag="0"/>
			<vel value="0.0172041619199" flag="0"/>
			<psa03 value="0.0928869345537666" flag="0"/>
			<psa10 value="0.025085432411796" flag="0"/>
			<psa30 value="0.00111330250082852" flag="0"/>
		</comp>
		<comp name=".HNN" depth="0.0">
			<acc value="0.028738665823746" flag="0"/>
			<vel value="0.0136220783147" flag="0"/>
			<psa03 value="0.0763370673725666" flag="0"/>
			<psa10 value="0.0357283318266541" flag="0"/>
			<psa30 value="0.00154703665025427" flag="0"/>
		</comp>
		<comp name=".HNZ" depth="0.0">
			<acc value="0.01513170522342" flag="0"/>
			<vel value="0.00837815220623" flag="0"/>
			<psa03 value="0.0372678177683747" flag="0"/>
			<psa10 value="0.013352582355563" flag="0"/>
			<psa30 value="0.000934753276983741" flag="0"/>
		</comp>
	</station>
	<station code="KTL1" name="KTL1" netid="HI" source="ITSAK Strong Motion Network" insttype="" lat="35.20778" lon="25.34272">
		<comp name=".HNE" depth="0.0">
			<acc value="0.02602637887389" flag="0"/>
			<vel value="0.0175191363179" flag="0"/>
			<psa03 value="0.107854311485498" flag="0"/>
			<psa10 value="0.0146624091251562" flag="0"/>
			<psa30 value="0.00106272404608632" flag="0"/>
		</comp>
		<comp name=".HNN" depth="0.0">
			<acc value="0.04618159116489" flag="0"/>
			<vel value="0.0253023443768" flag="0"/>
			<psa03 value="0.148244966334624" flag="0"/>
			<psa10 value="0.0232055378779796" flag="0"/>
			<psa30 value="0.00125276038506049" flag="0"/>
		</comp>
		<comp name=".HNZ" depth="0.0">
			<acc value="0.015182425425588" flag="0"/>
			<vel value="0.00839083364745" flag="0"/>
			<psa03 value="0.0509647303298669" flag="0"/>
			<psa10 value="0.00998893296779106" flag="0"/>
			<psa30 value="0.00101554737919653" flag="0"/>
		</comp>
	</station>
	<station code="NAX1" name="NAX1" netid="HI" source="ITSAK Strong Motion Network" insttype="" lat="37.101394" lon="25.374103">
		<comp name=".HNE" depth="0.0">
			<acc value="0.21551870880846" flag="0"/>
			<vel value="0.0530194289214" flag="0"/>
			<psa03 value="0.192171626260604" flag="0"/>
			<psa10 value="0.0279773596127724" flag="0"/>
			<psa30 value="0.00169211876123023" flag="0"/>
		</comp>
		<comp name=".HNN" depth="0.0">
			<acc value="0.15521779735566" flag="0"/>
			<vel value="0.0442288329049" flag="0"/>
			<psa03 value="0.161365970953753" flag="0"/>
			<psa10 value="0.0222260798687184" flag="0"/>
			<psa30 value="0.00274121596710335" flag="0"/>
		</comp>
		<comp name=".HNZ" depth="0.0">
			<acc value="0.12086229346854" flag="0"/>
			<vel value="0.0449767583265" flag="0"/>
			<psa03 value="0.152700730257257" flag="0"/>
			<psa10 value="0.026021325660138" flag="0"/>
			<psa30 value="0.00268142658968328" flag="0"/>
		</comp>
	</station>
	<station code="RDI1" name="RDI1" netid="HI" source="ITSAK Strong Motion Network" insttype="" lat="36.4514" lon="28.224">
		<comp name=".HNE" depth="0.0">
			<acc value="0.004555733586744" flag="0"/>
			<vel value="0.00637715237235" flag="0"/>
			<psa03 value="0.014320739043256" flag="0"/>
			<psa10 value="0.0101854075457537" flag="0"/>
			<psa30 value="0.00280170247403935" flag="0"/>
		</comp>
		<comp name=".HNN" depth="0.0">
			<acc value="0.0049513807212144" flag="0"/>
			<vel value="0.00716034735886" flag="0"/>
			<psa03 value="0.0121472838645927" flag="0"/>
			<psa10 value="0.00669615249349554" flag="0"/>
			<psa30 value="0.00323819180598092" flag="0"/>
		</comp>
		<comp name=".HNZ" depth="0.0">
			<acc value="0.0055330451565918" flag="0"/>
			<vel value="0.00359540004382" flag="0"/>
			<psa03 value="0.00830246340890118" flag="0"/>
			<psa10 value="0.00630202575951497" flag="0"/>
			<psa30 value="0.00109392413377011" flag="0"/>
		</comp>
	</station>
	<station code="RKL1" name="RKL1" netid="HI" source="ITSAK Strong Motion Network" insttype="" lat="36.336699" lon="28.171224">
		<comp name=".HNE" depth="0.0">
			<acc value="0.010503870806814" flag="0"/>
			<vel value="0.0105144564526" flag="0"/>
			<psa03 value="0.0254934362108564" flag="0"/>
			<psa10 value="0.0195840448468497" flag="0"/>
			<psa30 value="0.00109392715480417" flag="0"/>
		</comp>
		<comp name=".HNN" depth="0.0">
			<acc value="0.0071963737589016" flag="0"/>
			<vel value="0.00681693484731" flag="0"/>
			<psa03 value="0.0187102967569977" flag="0"/>
			<psa10 value="0.0094639591283278" flag="0"/>
			<psa30 value="0.000985677587967451" flag="0"/>
		</comp>
		<comp name=".HNZ" depth="0.0">
			<acc value="0.016303894686132" flag="0"/>
			<vel value="0.00312257564006" flag="0"/>
			<psa03 value="0.0137800404641995" flag="0"/>
			<psa10 value="0.00317719594238728" flag="0"/>
			<psa30 value="0.000483499529469601" flag="0"/>
		</comp>
	</station>
	<station code="RPN1" name="RPN1" netid="HI" source="ITSAK Strong Motion Network" insttype="" lat="36.448678" lon="28.218047">
		<comp name=".HNE" depth="0.0">
			<acc value="0.0053841283238958" flag="0"/>
			<vel value="0.00742347992747" flag="0"/>
			<psa03 value="0.0126299408382587" flag="0"/>
			<psa10 value="0.00903635673929633" flag="0"/>
			<psa30 value="0.0023927412156945" flag="0"/>
		</comp>
		<comp name=".HNN" depth="0.0">
			<acc value="0.0058704647327832" flag="0"/>
			<vel value="0.00824896462581" flag="0"/>
			<psa03 value="0.0167692632251475" flag="0"/>
			<psa10 value="0.0120419342815377" flag="0"/>
			<psa30 value="0.00318191807812114" flag="0"/>
		</comp>
		<comp name=".HNZ" depth="0.0">
			<acc value="0.0085608934991562" flag="0"/>
			<vel value="0.0032505961445" flag="0"/>
			<psa03 value="0.00828392376928843" flag="0"/>
			<psa10 value="0.00598648876301584" flag="0"/>
			<psa30 value="0.00106391099971447" flag="0"/>
		</comp>
	</station>
	<station code="RTH1" name="RTH1" netid="HI" source="ITSAK Strong Motion Network" insttype="" lat="35.365393" lon="24.471773">
		<comp name=".HNE" depth="0.0">
			<acc value="0.0095516015680662" flag="0"/>
			<vel value="0.00527234992629" flag="0"/>
			<psa03 value="0.0286950180916052" flag="0"/>
			<psa10 value="0.00378997223893517" flag="0"/>
			<psa30 value="0.000988112749286703" flag="0"/>
		</comp>
		<comp name=".HNN" depth="0.0">
			<acc value="0.010833883040424" flag="0"/>
			<vel value="0.005407550869" flag="0"/>
			<psa03 value="0.024608614574963" flag="0"/>
			<psa10 value="0.00446496187554291" flag="0"/>
			<psa30 value="0.000898468581634566" flag="0"/>
		</comp>
		<comp name=".HNZ" depth="0.0">
			<acc value="0.0092205927243312" flag="0"/>
			<vel value="0.0037952362204" flag="0"/>
			<psa03 value="0.0155232770388374" flag="0"/>
			<psa10 value="0.00385854365645683" flag="0"/>
			<psa30 value="0.000661790194518361" flag="0"/>
		</comp>
	</station>
	<station code="SFR2" name="SFR2" netid="HI" source="ITSAK Strong Motion Network" insttype="" lat="36.399841" lon="25.438209">
		<comp name=".HNE" depth="0.0">
			<acc value="0.37992241674792" flag="0"/>
			<vel value="0.145951375935" flag="0"/>
			<psa03 value="0.591580814325917" flag="0"/>
			<psa10 value="0.0994271715620432" flag="0"/>
			<psa30 value="0.0070377862187959" flag="0"/>
		</comp>
		<comp name=".HNN" depth="0.0">
			<acc value="0.41267835054054" flag="0"/>
			<vel value="0.173985641613" flag="0"/>
			<psa03 value="0.706871160078506" flag="0"/>
			<psa10 value="0.108046810070781" flag="0"/>
			<psa30 value="0.00554809711755255" flag="0"/>
		</comp>
		<comp name=".HNZ" depth="0.0">
			<acc value="0.3966570898572" flag="0"/>
			<vel value="0.117244835414" flag="0"/>
			<psa03 value="0.483166882433956" flag="0"/>
			<psa10 value="0.0758726786926453" flag="0"/>
			<psa30 value="0.00432837673371513" flag="0"/>
		</comp>
	</station>
	<station code="AMGA" name="AMGA" netid="HL" source="National Observatory of Athens Seismic Network" insttype="" lat="36.831561" lon="25.893836">
		<comp name="00.HNE" depth="0.0">
			<acc value="1.8076211419122" flag="0"/>
			<vel value="0.466308497058" flag="0"/>
			<psa03 value="1.75164603795383" flag="0"/>
			<psa10 value="0.269266397577257" flag="0"/>
			<psa30 value="0.0173346033323989" flag="0"/>
		</comp>
		<comp name="00.HNN" depth="0.0">
			<acc value="1.8785396535336" flag="0"/>
			<vel value="0.374175070208" flag="0"/>
			<psa03 value="0.863210600134497" flag="0"/>
			<psa10 value="0.134171213184236" flag="0"/>
			<psa30 value="0.0137052495721959" flag="0"/>
		</comp>
		<comp name="00.HNZ" depth="0.0">
			<acc value="0.9878072896911" flag="0"/>
			<vel value="0.205513513082" flag="0"/>
			<psa03 value="0.399363330860535" flag="0"/>
			<psa10 value="0.0800314341896934" flag="0"/>
			<psa30 value="0.00680397281311863" flag="0"/>
		</comp>
	</station>
	<station code="ANAF" name="ANAF" netid="HL" source="National Observatory of Athens Seismic Network" insttype="" lat="36.35675" lon="25.77262">
		<comp name=".HNE" depth="0.0">
			<acc value="2.9533602351792" flag="0"/>
			<vel value="0.588768117887" flag="0"/>
			<psa03 value="3.03810659298602" flag="0"/>
			<psa10 value="0.142577215040938" flag="0"/>
			<psa30 value="0.0195002467956537" flag="0"/>
		</comp>
		<comp name=".HNN" depth="0.0">
			<acc value="3.4336884705018" flag="0"/>
			<vel value="0.734850481677" flag="0"/>
