<?xml version="1.0" encoding="UTF-8" standalone="yes"?>
<!DOCTYPE earthquake SYSTEM "stationlist.dtd">
<stationlist created="" xmlns="ch.ethz.sed.shakemap.usgs.xml">
  <station code="AGRP" name="AGRP" netid="CL" insttype="CMG40-T" lat="38.3959" lon="21.7228">
    <comp name="00.HHE">
      <acc value="0.0215875878" flag="0"/>
      <vel value="0.0166556645" flag="0"/>
      <psa03 value="0.0468975526" flag="0"/>
      <psa10 value="0.0295753435" flag="0"/>
      <psa30 value="0.0064240263" flag="0"/>
    </comp>
    <comp name="00.HHN">
      <acc value="0.0231234106" flag="0"/>
      <vel value="0.0254579309" flag="0"/>
      <psa03 value="0.0520990994" flag="0"/>
      <psa10 value="0.0361505727" flag="0"/>
      <psa30 value="0.0066156496" flag="0"/>
    </comp>
    <comp name="00.HHZ">
      <acc value="0.0156606750" flag="0"/>
      <vel value="0.0162432221" flag="0"/>
      <psa03 value="0.0292189912" flag="0"/>
      <psa10 value="0.0223923477" flag="0"/>
      <psa30 value="0.0053894681" flag="0"/>
    </comp>
  </station>
  <station code="PSAM" name="PSAM" netid="CL" insttype="CMG40-T" lat="38.3218" lon="22.1842">
    <comp name="00.HHN">
      <acc value="0.0601279011" flag="0"/>
      <vel value="0.0837088027" flag="0"/>
      <psa03 value="0.1251727531" flag="0"/>
      <psa10 value="0.1571199216" flag="0"/>
      <psa30 value="0.0127829264" flag="0"/>
    </comp>
    <comp name="00.HHZ">
      <acc value="0.0256121861" flag="0"/>
      <vel value="0.0349325400" flag="0"/>
      <psa03 value="0.0517508061" flag="0"/>
      <psa10 value="0.0592842533" flag="0"/>
      <psa30 value="0.0096673831" flag="0"/>
    </comp>
    <comp name="00.HHE">
      <acc value="0.0737948210" flag="0"/>
      <vel value="0.0788306097" flag="0"/>
      <psa03 value="0.1307445618" flag="0"/>
      <psa10 value="0.1439007184" flag="0"/>
      <psa30 value="0.0185873451" flag="0"/>
    </comp>
  </station>
  <station code="ROD3" name="ROD3" netid="CL" insttype="CMG40-T" lat="38.3081" lon="21.892">
    <comp name="00.HHN">
      <acc value="0.0573443531" flag="0"/>
      <vel value="0.0587214972" flag="0"/>
      <psa03 value="0.2054781323" flag="0"/>
      <psa10 value="0.0692135528" flag="0"/>
      <psa30 value="0.0100511248" flag="0"/>
    </comp>
    <comp name="00.HHE">
      <acc value="0.0523330747" flag="0"/>
      <vel value="0.0517885973" flag="0"/>
      <psa03 value="0.1794807076" flag="0"/>
      <psa10 value="0.0995310135" flag="0"/>
      <psa30 value="0.0076247482" flag="0"/>
    </comp>
    <comp name="00.HHZ">
      <acc value="0.0238203988" flag="0"/>
      <vel value="0.0257143363" flag="0"/>
      <psa03 value="0.0551077601" flag="0"/>
      <psa10 value="0.0525068053" flag="0"/>
      <psa30 value="0.0060293883" flag="0"/>
    </comp>
  </station>
  <station code="TRIZ" name="TRIZ" netid="CL" insttype="STS-2" lat="38.3654" lon="22.0727">
    <comp name="00.HH2">
      <acc value="0.0559641612" flag="0"/>
      <vel value="0.0431661480" flag="0"/>
      <psa03 value="0.1824252776" flag="0"/>
      <psa10 value="0.0537098466" flag="0"/>
      <psa30 value="0.0094391852" flag="0"/>
    </comp>
    <comp name="00.HH3">
      <acc value="0.0638972281" flag="0"/>
      <vel value="0.0550443031" flag="0"/>
      <psa03 value="0.2397674434" flag="0"/>
      <psa10 value="0.0695894663" flag="0"/>
      <psa30 value="0.0106897096" flag="0"/>
    </comp>
    <comp name="00.HHZ">
      <acc value="0.0310759222" flag="0"/>
      <vel value="0.0371210974" flag="0"/>
      <psa03 value="0.1259402436" flag="0"/>
      <psa10 value="0.0502145655" flag="0"/>
      <psa30 value="0.0089735952" flag="0"/>
    </comp>
  </station>
  <station code="ZIRI" name="ZIRI" netid="CL" insttype="TRILLIUM-40" lat="38.3051" lon="21.9476">
    <comp name="01.HHE">
      <acc value="0.0867675305" flag="0"/>
      <vel value="0.0588953526" flag="0"/>
      <psa03 value="0.1760176398" flag="0"/>
      <psa10 value="0.0709429854" flag="0"/>
      <psa30 value="0.0097885254" flag="0"/>
    </comp>
    <comp name="01.HHZ">
      <acc value="0.0343711229" flag="0"/>
      <vel value="0.0231753646" flag="0"/>
      <psa03 value="0.1063276875" flag="0"/>
      <psa10 value="0.0264444633" flag="0"/>
      <psa30 value="0.0076026721" flag="0"/>
    </comp>
    <comp name="01.HHN">
      <acc value="0.0871779763" flag="0"/>
      <vel value="0.0578903302" flag="0"/>
      <psa03 value="0.2772872986" flag="0"/>
      <psa10 value="0.0961793020" flag="0"/>
      <psa30 value="0.0092198732" flag="0"/>
    </comp>
  </station>
  <station code="ACOR" name="ACOR" netid="HA" insttype="Horizon,120s,1200" lat="37.8905" lon="22.8694">
    <comp name="--.HHE">
      <acc value="0.1454411322" flag="0"/>
      <vel value="0.1688923337" flag="0"/>
      <psa03 value="0.3294195383" flag="0"/>
      <psa10 value="0.2216129642" flag="0"/>
      <psa30 value="0.0332424992" flag="0"/>
    </comp>
    <comp name="--.HHN">
      <acc value="0.1166711451" flag="0"/>
      <vel value="0.1589337353" flag="0"/>
      <psa03 value="0.2748597193" flag="0"/>
      <psa10 value="0.2537263598" flag="0"/>
      <psa30 value="0.0201748382" flag="0"/>
    </comp>
    <comp name="--.HHZ">
      <acc value="0.0979954038" flag="0"/>
      <vel value="0.0870907693" flag="0"/>
      <psa03 value="0.3103916358" flag="0"/>
      <psa10 value="0.0841938996" flag="0"/>
      <psa30 value="0.0106337321" flag="0"/>
    </comp>
  </station>
  <station code="AIGS" name="AIGS" netid="HA" insttype="DC" lat="38.25" lon="22.0878">
    <comp name="--.HNE">
      <acc value="0.0645084420" flag="0"/>
      <vel value="0.0542155677" flag="0"/>
      <psa03 value="0.1908024127" flag="0"/>
      <psa10 value="0.0536555270" flag="0"/>
      <psa30 value="0.0135211434" flag="0"/>
    </comp>
    <comp name="--.HNZ">
      <acc value="0.0308921606" flag="0"/>
      <vel value="0.0344073345" flag="0"/>
      <psa03 value="0.0864504430" flag="0"/>
      <psa10 value="0.0416223151" flag="0"/>
      <psa30 value="0.0089626262" flag="0"/>
    </comp>
    <comp name="--.HNN">
      <acc value="0.0558095746" flag="0"/>
      <vel value="0.0617638544" flag="0"/>
      <psa03 value="0.2145733653" flag="0"/>
      <psa10 value="0.0704540348" flag="0"/>
      <psa30 value="0.0160043210" flag="0"/>
    </comp>
  </station>
  <station code="AMPE" name="AMPE" netid="HA" insttype="1s-100Hz," lat="38.3015" lon="23.2688">
    <comp name="--.HHN">
      <acc value="0.5806817263" flag="0"/>
      <vel value="0.4085680226" flag="0"/>
      <psa03 value="1.1380265308" flag="0"/>
      <psa10 value="0.3902758348" flag="0"/>
      <psa30 value="0.0336908999" flag="0"/>
    </comp>
    <comp name="--.HHE">
      <acc value="0.7172077640" flag="0"/>
      <vel value="0.5189753425" flag="0"/>
      <psa03 value="1.6835505898" flag="0"/>
      <psa10 value="0.3406079098" flag="0"/>
      <psa30 value="0.0568232754" flag="0"/>
    </comp>
    <comp name="--.HHZ">
      <acc value="0.3233393638" flag="0"/>
      <vel value="0.1336946676" flag="0"/>
      <psa03 value="0.4727941648" flag="0"/>
      <psa10 value="0.1409343854" flag="0"/>
      <psa30 value="0.0181299556" flag="0"/>
    </comp>
  </station>
  <station code="ATAL" name="ATAL" netid="HA" insttype="120s," lat="38.6926" lon="23.0213">
    <comp name="--.HHZ">
      <acc value="0.3937581539" flag="0"/>
      <vel value="0.1659400196" flag="0"/>
      <psa03 value="0.4429656726" flag="0"/>
      <psa10 value="0.0670835367" flag="0"/>
      <psa30 value="0.0565430782" flag="0"/>
    </comp>
    <comp name="--.HHN">
      <acc value="0.4681523996" flag="0"/>
      <vel value="0.2028743060" flag="0"/>
      <psa03 value="1.1806382725" flag="0"/>
      <psa10 value="0.1182369704" flag="0"/>
      <psa30 value="0.0120871202" flag="0"/>
    </comp>
    <comp name="--.HHE">
      <acc value="0.4186600824" flag="0"/>
      <vel value="0.1223522728" flag="0"/>
      <psa03 value="0.8134454954" flag="0"/>
      <psa10 value="0.0768632031" flag="0"/>
      <psa30 value="0.0139386292" flag="0"/>
    </comp>
  </station>
  <station code="ATHU" name="ATHU" netid="HA" insttype="60s," lat="37.9665" lon="23.7845">
    <comp name="--.HHN">
      <acc value="0.1497678213" flag="0"/>
      <vel value="0.0775944387" flag="0"/>
      <psa03 value="0.2834125849" flag="0"/>
      <psa10 value="0.0870790924" flag="0"/>
      <psa30 value="0.0087049087" flag="0"/>
    </comp>
    <comp name="--.HHZ">
      <acc value="0.1160994625" flag="0"/>
      <vel value="0.0619464076" flag="0"/>
      <psa03 value="0.2278761256" flag="0"/>
      <psa10 value="0.1075848229" flag="0"/>
      <psa30 value="0.0113081098" flag="0"/>
    </comp>
    <comp name="--.HHE">
      <acc value="0.1676583807" flag="0"/>
      <vel value="0.0855481903" flag="0"/>
      <psa03 value="0.2671395317" flag="0"/>
      <psa10 value="0.1373695710" flag="0"/>
      <psa30 value="0.0153280626" flag="0"/>
    </comp>
  </station>
  <station code="AXAR" name="AXAR" netid="HA" insttype="Horizon,120s,1200" lat="38.7664" lon="22.659">
    <comp name="--.HHE">
      <acc value="0.3086822153" flag="0"/>
      <vel value="0.2052842027" flag="0"/>
      <psa03 value="0.9885876843" flag="0"/>
      <psa10 value="0.3464422725" flag="0"/>
      <psa30 value="0.0296616586" flag="0"/>
    </comp>
    <comp name="--.HHZ">
      <acc value="0.1783800534" flag="0"/>
      <vel value="0.1061426717" flag="0"/>
      <psa03 value="0.3669717204" flag="0"/>
      <psa10 value="0.1509469106" flag="0"/>
      <psa30 value="0.0110365484" flag="0"/>
    </comp>
    <comp name="--.HHN">
      <acc value="0.2901056587" flag="0"/>
      <vel value="0.1697873313" flag="0"/>
      <psa03 value="1.0942643760" flag="0"/>
      <psa10 value="0.2045354388" flag="0"/>
      <psa30 value="0.0216558008" flag="0"/>
    </comp>
  </station>
  <station code="DOMV" name="DOMV" netid="HA" insttype="60" lat="38.2569" lon="22.9795">
    <comp name="--.HHN">
      <acc value="1.6589419604" flag="0"/>
      <vel value="0.5297649998" flag="0"/>
      <psa03 value="2.4871144971" flag="0"/>
      <psa10 value="0.6726381221" flag="0"/>
      <psa30 value="0.0314712208" flag="0"/>
    </comp>
    <comp name="--.HHZ">
      <acc value="0.9365404926" flag="0"/>
      <vel value="0.3307362207" flag="0"/>
      <psa03 value="1.6128177856" flag="0"/>
      <psa10 value="0.3213465259" flag="0"/>
      <psa30 value="0.0107361382" flag="0"/>
    </comp>
    <comp name="--.HHE">
      <acc value="1.3342507654" flag="0"/>
      <vel value="0.5347495794" flag="0"/>
      <psa03 value="1.8883512503" flag="0"/>
      <psa10 value="0.5873611686" flag="0"/>
      <psa30 value="0.0366069209" flag="0"/>
    </comp>
  </station>
  <station code="DRES" name="DRES" netid="HA" insttype="DC" lat="38.3197" lon="21.8532">
    <comp name="--.HNN">
      <acc value="0.0239327931" flag="0"/>
      <vel value="0.0261967153" flag="0"/>
      <psa03 value="0.0827574809" flag="0"/>
      <psa10 value="0.0605239976" flag="0"/>
      <psa30 value="0.0088397597" flag="0"/>
    </comp>
    <comp name="--.HNE">
      <acc value="0.0306220736" flag="0"/>
      <vel value="0.0380731890" flag="0"/>
      <psa03 value="0.0619444943" flag="0"/>
      <psa10 value="0.0721147114" flag="0"/>
      <psa30 value="0.0071909856" flag="0"/>
    </comp>
    <comp name="--.HNZ">
      <acc value="0.0124624067" flag="0"/>
      <vel value="0.0098164635" flag="0"/>
      <psa03 value="0.0286516603" flag="0"/>
      <psa10 value="0.0236648571" flag="0"/>
      <psa30 value="0.0024588755" flag="0"/>
    </comp>
  </station>
  <station code="EPID" name="EPID" netid="HA" insttype="30" lat="37.6144" lon="23.1189">
    <comp name="--.HHZ">
      <acc value="0.1587477602" flag="0"/>
      <vel value="0.1190879706" flag="0"/>
      <psa03 value="0.3559282028" flag="0"/>
      <psa10 value="0.1244982612" flag="0"/>
      <psa30 value="0.0101840525" flag="0"/>
    </comp>
    <comp name="--.HHN">
      <acc value="0.2317933603" flag="0"/>
      <vel value="0.1355822267" flag="0"/>
      <psa03 value="0.3610675336" flag="0"/>
      <psa10 value="0.1589922468" flag="0"/>
      <psa30 value="0.0113412300" flag="0"/>
    </comp>
    <comp name="--.HHE">
      <acc value="0.2170560287" flag="0"/>
      <vel value="0.1950703743" flag="0"/>
      <psa03 value="0.5576150310" flag="0"/>
      <psa10 value="0.1962163176" flag="0"/>
      <psa30 value="0.0280704781" flag="0"/>
    </comp>
  </station>
  <station code="ERTR" name="ERTR" netid="HA" insttype="Horizon,120s,1200" lat="38.4066" lon="23.7865">
    <comp name="--.HHZ">
      <acc value="0.3313257950" flag="0"/>
      <vel value="0.1355611952" flag="0"/>
      <psa03 value="0.5982859404" flag="0"/>
      <psa10 value="0.1288529363" flag="0"/>
      <psa30 value="0.0216444541" flag="0"/>
    </comp>
    <comp name="--.HHN">
      <acc value="0.7099474084" flag="0"/>
      <vel value="0.1995960213" flag="0"/>
      <psa03 value="1.1694033680" flag="0"/>
      <psa10 value="0.0987344329" flag="0"/>
      <psa30 value="0.0248343242" flag="0"/>
    </comp>
    <comp name="--.HHE">
      <acc value="0.5135507890" flag="0"/>
      <vel value="0.1797425764" flag="0"/>
      <psa03 value="0.9948576468" flag="0"/>
      <psa10 value="0.2166450316" flag="0"/>
      <psa30 value="0.0211552576" flag="0"/>
    </comp>
  </station>
  <station code="KALE" name="KALE" netid="HA" insttype="40," lat="38.3911" lon="22.1398">
    <comp name="--.HHE">
      <acc value="0.0494208542" flag="0"/>
      <vel value="0.0442422595" flag="0"/>
      <psa03 value="0.2428319559" flag="0"/>
      <psa10 value="0.0673242067" flag="0"/>
      <psa30 value="0.0076216241" flag="0"/>
    </comp>
    <comp name="--.HHN">
      <acc value="0.0541050259" flag="0"/>
      <vel value="0.0406721558" flag="0"/>
      <psa03 value="0.1531292343" flag="0"/>
      <psa10 value="0.0416481446" flag="0"/>
      <psa30 value="0.0094065072" flag="0"/>
    </comp>
    <comp name="--.HHZ">
      <acc value="0.0360182091" flag="0"/>
      <vel value="0.0393197509" flag="0"/>
      <psa03 value="0.1263117011" flag="0"/>
      <psa10 value="0.0569798800" flag="0"/>
      <psa30 value="0.0080745583" flag="0"/>
    </comp>
  </station>
  <station code="KARY" name="KARY" netid="HA" insttype="60" lat="38.0321" lon="24.437">
    <comp name="--.HHN">
      <acc value="0.1954702066" flag="0"/>
      <vel value="0.1032813420" flag="0"/>
      <psa03 value="0.1896668712" flag="0"/>
      <psa10 value="0.1460138420" flag="0"/>
      <psa30 value="0.0165222309" flag="0"/>
    </comp>
    <comp name="--.HHE">
      <acc value="0.1368298812" flag="0"/>
      <vel value="0.0562774201" flag="0"/>
      <psa03 value="0.2691366976" flag="0"/>
      <psa10 value="0.0755906843" flag="0"/>
      <psa30 value="0.0074442423" flag="0"/>
    </comp>
    <comp name="--.HHZ">
      <acc value="0.1314171062" flag="0"/>
      <vel value="0.1020914275" flag="0"/>
      <psa03 value="0.2311485973" flag="0"/>
      <psa10 value="0.1254154049" flag="0"/>
      <psa30 value="0.0079426031" flag="0"/>
    </comp>
  </station>
  <station code="KIAS" name="KIAS" netid="HA" insttype="DC" lat="37.9875" lon="22.7543">
    <comp name="--.HNE">
      <acc value="0.6201952093" flag="0"/>
      <vel value="0.5231292659" flag="0"/>
      <psa03 value="1.1661241539" flag="0"/>
      <psa10 value="0.8734128370" flag="0"/>
      <psa30 value="0.0767363240" flag="0"/>
    </comp>
    <comp name="--.HNN">
      <acc value="0.5687994335" flag="0"/>
      <vel value="0.7322561329" flag="0"/>
      <psa03 value="1.5300338007" flag="0"/>
      <psa10 value="0.9339066323" flag="0"/>
      <psa30 value="0.0916533807" flag="0"/>
    </comp>
    <comp name="--.HNZ">
      <acc value="0.1626721674" flag="0"/>
      <vel value="0.1495966479" flag="0"/>
      <psa03 value="0.3758073510" flag="0"/>
      <psa10 value="0.2637655186" flag="0"/>
      <psa30 value="0.0458877373" flag="0"/>
    </comp>
  </station>
  <station code="LAKA" name="LAKA" netid="HA" insttype="120s," lat="38.2401" lon="21.9785">
    <comp name="--.HHZ">
      <acc value="0.0159267143" flag="0"/>
      <vel value="0.0211499104" flag="0"/>
      <psa03 value="0.0295799833" flag="0"/>
      <psa10 value="0.0318783342" flag="0"/>
      <psa30 value="0.0096805518" flag="0"/>
    </comp>
    <comp name="--.HHE">
      <acc value="0.0124659181" flag="0"/>
      <vel value="0.0191353639" flag="0"/>
      <psa03 value="0.0386928972" flag="0"/>
      <psa10 value="0.0167642655" flag="0"/>
      <psa30 value="0.0042427578" flag="0"/>
    </comp>
    <comp name="--.HHN">
      <acc value="0.0150701589" flag="0"/>
      <vel value="0.0188483100" flag="0"/>
      <psa03 value="0.0347891235" flag="0"/>
      <psa10 value="0.0470886164" flag="0"/>
      <psa30 value="0.0105758342" flag="0"/>
    </comp>
  </station>
  <station code="LOUT" name="LOUT" netid="HA" insttype="30" lat="37.9879" lon="22.9743">
    <comp name="--.HHE">
      <acc value="0.5177122358" flag="0"/>
      <vel value="0.3312501684" flag="0"/>
      <psa03 value="1.1276070855" flag="0"/>
      <psa10 value="0.4269498770" flag="0"/>
      <psa30 value="0.0343226404" flag="0"/>
    </comp>
    <comp name="--.HHN">
      <acc value="0.4641280627" flag="0"/>
      <vel value="0.2905228772" flag="0"/>
      <psa03 value="1.0470451297" flag="0"/>
      <psa10 value="0.2437027663" flag="0"/>
      <psa30 value="0.0273492782" flag="0"/>
    </comp>
    <comp name="--.HHZ">
      <acc value="0.3346747961" flag="0"/>
      <vel value="0.2282441254" flag="0"/>
      <psa03 value="0.7708791612" flag="0"/>
      <psa10 value="0.1978211317" flag="0"/>
      <psa30 value="0.0158171471" flag="0"/>
    </comp>
  </station>
  <station code="MDRA" name="MDRA" netid="HA" insttype="60" lat="38.0606" lon="23.4662">
    <comp name="--.HHZ">
      <acc value="0.1766998695" flag="0"/>
      <vel value="0.1089354673" flag="0"/>
      <psa03 value="0.3302216102" flag="0"/>
      <psa10 value="0.1949416031" flag="0"/>
      <psa30 value="0.0139754144" flag="0"/>
    </comp>
    <comp name="--.HHE">
      <acc value="0.2073848975" flag="0"/>
      <vel value="0.1430831970" flag="0"/>
      <psa03 value="0.3162514523" flag="0"/>
      <psa10 value="0.1411179388" flag="0"/>
      <psa30 value="0.0145848496" flag="0"/>
    </comp>
    <comp name="--.HHN">
      <acc value="0.2546897631" flag="0"/>
      <vel value="0.1533275683" flag="0"/>
      <psa03 value="0.5527215334" flag="0"/>
      <psa10 value="0.1430247217" flag="0"/>
      <psa30 value="0.0184569198" flag="0"/>
    </comp>
  </station>
  <station code="MRTH" name="MRTH" netid="HA" insttype="S100," lat="38.1225" lon="23.9409">
    <comp name="--.HHE">
      <acc value="0.3756976985" flag="0"/>
      <vel value="0.2250706544" flag="0"/>
      <psa03 value="0.8777103382" flag="0"/>
      <psa10 value="0.3507024486" flag="0"/>
      <psa30 value="0.0222948549" flag="0"/>
    </comp>
    <comp name="--.HHN">
      <acc value="0.3622465171" flag="0"/>
      <vel value="0.3317224152" flag="0"/>
      <psa03 value="0.5967047496" flag="0"/>
      <psa10 value="0.4889258348" flag="0"/>
      <psa30 value="0.0337679078" flag="0"/>
    </comp>
    <comp name="--.HHZ">
      <acc value="0.3664271593" flag="0"/>
      <vel value="0.1989717962" flag="0"/>
      <psa03 value="0.9201513838" flag="0"/>
      <psa10 value="0.2638678009" flag="0"/>
      <psa30 value="0.0114944190" flag="0"/>
    </comp>
  </station>
  <station code="PSAH" name="PSAH" netid="HA" insttype="25" lat="38.5694" lon="23.6473">
    <comp name="--.HHE">
      <acc value="0.6434384513" flag="0"/>
      <vel value="0.2678889807" flag="0"/>
      <psa03 value="0.7868817625" flag="0"/>
      <psa10 value="0.3643620493" flag="0"/>
      <psa30 value="0.0583689758" flag="0"/>
    </comp>
    <comp name="--.HHZ">
      <acc value="0.4652901209" flag="0"/>
      <vel value="0.1626514087" flag="0"/>
