<?xml version="1.0" encoding="UTF-8" standalone="yes"?>
<!DOCTYPE earthquake SYSTEM "stationlist.dtd">
<stationlist created="" xmlns="ch.ethz.sed.shakemap.usgs.xml">
  <station code="AGRP" name="AGRP" netid="CL" insttype="CMG40-T" lat="38.3959" lon="21.7228">
    <comp name="00.HHE">
      <acc value="0.0215875878" flag="0"/>
      <vel value="0.0166556645" flag="0"/>
      <psa03 value="0.0468975526" flag="0"/>
      <psa10 value="0.0295753435" flag="0"/>
      <psa30 value="0.0064240263" flag="0"/>
    </comp>
    <comp name="00.HHN">
      <acc value="0.0231234106" flag="0"/>
      <vel value="0.0254579309" flag="0"/>
      <psa03 value="0.0520990994" flag="0"/>
      <psa10 value="0.0361505727" flag="0"/>
      <psa30 value="0.0066156496" flag="0"/>
    </comp>
    <comp name="00.HHZ">
      <acc value="0.0156606750" flag="0"/>
      <vel value="0.0162432221" flag="0"/>
      <psa03 value="0.0292189912" flag="0"/>
      <psa10 value="0.0223923477" flag="0"/>
      <psa30 value="0.0053894681" flag="0"/>
    </comp>
  </station>
  <station code="PSAM" name="PSAM" netid="CL" insttype="CMG40-T" lat="38.3218" lon="22.1842">
    <comp name="00.HHN">
      <acc value="0.0601279011" flag="0"/>
      <vel value="0.0837088027" flag="0"/>
      <psa03 value="0.1251727531" flag="0"/>
      <psa10 value="0.1571199216" flag="0"/>
      <psa30 value="0.0127829264" flag="0"/>
    </comp>
    <comp name="00.HHZ">
      <acc value="0.0256121861" flag="0"/>
      <vel value="0.0349325400" flag="0"/>
      <psa03 value="0.0517508061" flag="0"/>
      <psa10 value="0.0592842533" flag="0"/>
      <psa30 value="0.0096673831" flag="0"/>
    </comp>
    <comp name="00.HHE">
      <acc value="0.0737948210" flag="0"/>
      <vel value="0.0788306097" flag="0"/>
      <psa03 value="0.1307445618" flag="0"/>
      <psa10 value="0.1439007184" flag="0"/>
      <psa30 value="0.0185873451" flag="0"/>
    </comp>
  </station>
  <station code="ROD3" name="ROD3" netid="CL" insttype="CMG40-T" lat="38.3081" lon="21.892">
    <comp name="00.HHN">
      <acc value="0.0573443531" flag="0"/>
      <vel value="0.0587214972" flag="0"/>
      <psa03 value="0.2054781323" flag="0"/>
      <psa10 value="0.0692135528" flag="0"/>
      <psa30 value="0.0100511248" flag="0"/>
    </comp>
    <comp name="00.HHE">
      <acc value="0.0523330747" flag="0"/>
      <vel value="0.0517885973" flag="0"/>
      <psa03 value="0.1794807076" flag="0"/>
      <psa10 value="0.0995310135" flag="0"/>
      <psa30 value="0.0076247482" flag="0"/>
    </comp>
    <comp name="00.HHZ">
      <acc value="0.0238203988" flag="0"/>
      <vel value="0.0257143363" flag="0"/>
      <psa03 value="0.0551077601" flag="0"/>
      <psa10 value="0.0525068053" flag="0"/>
      <psa30 value="0.0060293883" flag="0"/>
    </comp>
  </station>
  <station code="TRIZ" name="TRIZ" netid="CL" insttype="STS-2" lat="38.3654" lon="22.0727">
    <comp name="00.HH2">
      <acc value="0.0559641612" flag="0"/>
      <vel value="0.0431661480" flag="0"/>
      <psa03 value="0.1824252776" flag="0"/>
      <psa10 value="0.0537098466" flag="0"/>
      <psa30 value="0.0094391852" flag="0"/>
    </comp>
    <comp name="00.HH3">
      <acc value="0.0638972281" flag="0"/>
      <vel value="0.0550443031" flag="0"/>
      <psa03 value="0.2397674434" flag="0"/>
      <psa10 value="0.0695894663" flag="0"/>
      <psa30 value="0.0106897096" flag="0"/>
    </comp>
    <comp name="00.HHZ">
      <acc value="0.0310759222" flag="0"/>
      <vel value="0.0371210974" flag="0"/>
      <psa03 value="0.1259402436" flag="0"/>
      <psa10 value="0.0502145655" flag="0"/>
      <psa30 value="0.0089735952" flag="0"/>
    </comp>
  </station>
  <station code="ZIRI" name="ZIRI" netid="CL" insttype="TRILLIUM-40" lat="38.3051" lon="21.9476">
    <comp name="01.HHE">
      <acc value="0.0867675305" flag="0"/>
      <vel value="0.0588953526" flag="0"/>
      <psa03 value="0.1760176398" flag="0"/>
      <psa10 value="0.0709429854" flag="0"/>
      <psa30 value="0.0097885254" flag="0"/>
    </comp>
    <comp name="01.HHZ">
      <acc value="0.0343711229" flag="0"/>
      <vel value="0.0231753646" flag="0"/>
      <psa03 value="0.1063276875" flag="0"/>
      <psa10 value="0.0264444633" flag="0"/>
      <psa30 value="0.0076026721" flag="0"/>
    </comp>
    <comp name="01.HHN">
      <acc value="0.0871779763" flag="0"/>
      <vel value="0.0578903302" flag="0"/>
      <psa03 value="0.2772872986" flag="0"/>
      <psa10 value="0.0961793020" flag="0"/>
      <psa30 value="0.0092198732" flag="0"/>
    </comp>
  </station>
  <station code="KLV" name="KLV" netid="MN" insttype="" lat="38.0437" lon="22.1504">
    <comp name="--.HHN">
      <acc value="0.0453865075" flag="0"/>
      <vel value="0.0450701941" flag="0"/>
      <psa03 value="0.0816162855" flag="0"/>
      <psa10 value="0.0678400377" flag="0"/>
      <psa30 value="0.0107351501" flag="0"/>
    </comp>
    <comp name="--.HHE">
      <acc value="0.0286636026" flag="0"/>
      <vel value="0.0473394949" flag="0"/>
      <psa03 value="0.0784802283" flag="0"/>
      <psa10 value="0.0691035093" flag="0"/>
      <psa30 value="0.0116845366" flag="0"/>
    </comp>
    <comp name="--.HHZ">
      <acc value="0.0434311320" flag="0"/>
      <vel value="0.0445277530" flag="0"/>
      <psa03 value="0.0617005614" flag="0"/>
      <psa10 value="0.1019209279" flag="0"/>
      <psa30 value="0.0077133446" flag="0"/>
    </comp>
  </station>
  <station code="THL" name="THL" netid="MN" insttype="" lat="39.5647" lon="22.0144">
    <comp name="--.HHE">
      <acc value="0.0228046707" flag="0"/>
      <vel value="0.0311401954" flag="0"/>
      <psa03 value="0.0275752019" flag="0"/>
      <psa10 value="0.0423057739" flag="0"/>
      <psa30 value="0.0054157079" flag="0"/>
    </comp>
    <comp name="--.HHN">
      <acc value="0.0193735985" flag="0"/>
      <vel value="0.0250054862" flag="0"/>
      <psa03 value="0.0370117892" flag="0"/>
      <psa10 value="0.0303886592" flag="0"/>
      <psa30 value="0.0090096270" flag="0"/>
    </comp>
    <comp name="--.HHZ">
      <acc value="0.0167869898" flag="0"/>
      <vel value="0.0325772652" flag="0"/>
      <psa03 value="0.0268219528" flag="0"/>
      <psa10 value="0.0507237379" flag="0"/>
      <psa30 value="0.0047542155" flag="0"/>
    </comp>
  </station>
</stationlist>
