<stationlist created="1778069578">
	<station code="PRK" name="PRK" netid="HL" source="National Observatory of Athens Seismic Network" insttype="" lat="39.24565" lon="26.26499">
		<comp name="--.HNE" depth="0.0">
			<acc value="0.00992048897125715" flag="0"/>
			<vel value="0.00792617891921872" flag="0"/>
			<psa03 value="0.0177626560274539" flag="0"/>
			<psa10 value="0.0102602828217021" flag="0"/>
			<psa30 value="0.000505586934786471" flag="0"/>
		</comp>
		<comp name="--.HNN" depth="0.0">
			<acc value="0.013594467623577" flag="0"/>
			<vel value="0.00895281016738365" flag="0"/>
			<psa03 value="0.0183443047134914" flag="0"/>
			<psa10 value="0.013477694899622" flag="0"/>
			<psa30 value="0.000923479144601129" flag="0"/>
		</comp>
		<comp name="--.HNZ" depth="0.0">
			<acc value="0.0101475396797345" flag="0"/>
			<vel value="0.00650067918092307" flag="0"/>
			<psa03 value="0.0125278178531161" flag="0"/>
			<psa10 value="0.0067932092308522" flag="0"/>
			<psa30 value="0.000407154080226273" flag="0"/>
		</comp>
	</station>
	<station code="AKS" name="AKS" netid="KO" source="Bogazici University Kandilli Observatory And Earthquake Research Institute (KOERI)" insttype="" lat="38.8785" lon="27.8129">
		<comp name="--.HNE" depth="0.0">
			<acc value="1.08759470966293" flag="0"/>
			<vel value="0.285705740563079" flag="0"/>
			<psa03 value="0.906298137259713" flag="0"/>
			<psa10 value="0.133552802223144" flag="0"/>
			<psa30 value="0.0105103917566982" flag="0"/>
		</comp>
		<comp name="--.HNN" depth="0.0">
			<acc value="1.36089152271852" flag="0"/>
			<vel value="0.430241026815788" flag="0"/>
			<psa03 value="2.37764560190158" flag="0"/>
			<psa10 value="0.120848252653886" flag="0"/>
			<psa30 value="0.00933904078743186" flag="0"/>
		</comp>
		<comp name="--.HNZ" depth="0.0">
			<acc value="0.511599324222773" flag="0"/>
			<vel value="0.126041976381821" flag="0"/>
			<psa03 value="0.449614434307013" flag="0"/>
			<psa10 value="0.0444598832945105" flag="0"/>
			<psa30 value="0.00382456382172987" flag="0"/>
		</comp>
	</station>
	<station code="ALT" name="ALT" netid="KO" source="Bogazici University Kandilli Observatory And Earthquake Research Institute (KOERI)" insttype="" lat="39.0541" lon="30.1104">
		<comp name="--.HNE" depth="0.0">
			<acc value="0.00507019784712109" flag="0"/>
			<vel value="0.00298470925126336" flag="0"/>
			<psa03 value="0.00827730822438028" flag="0"/>
			<psa10 value="0.00467913996813886" flag="0"/>
			<psa30 value="0.00140356302161518" flag="0"/>
		</comp>
		<comp name="--.HNN" depth="0.0">
			<acc value="0.00544915811295969" flag="0"/>
			<vel value="0.0043092590916422" flag="0"/>
			<psa03 value="0.0192838910524751" flag="0"/>
			<psa10 value="0.0043207548931265" flag="0"/>
			<psa30 value="0.00214494138527995" flag="0"/>
		</comp>
		<comp name="--.HNZ" depth="0.0">
			<acc value="0.00414315798368901" flag="0"/>
			<vel value="0.00430691339863075" flag="0"/>
			<psa03 value="0.00563751803390224" flag="0"/>
			<psa10 value="0.00454222881588695" flag="0"/>
			<psa30 value="0.00216954959892" flag="0"/>
		</comp>
	</station>
	<station code="BIGA" name="BIGA" netid="KO" source="Bogazici University Kandilli Observatory And Earthquake Research Institute (KOERI)" insttype="" lat="40.28134" lon="27.15048">
		<comp name="--.HNE" depth="0.0">
			<acc value="0.0517937658532694" flag="0"/>
			<vel value="0.0191957690767966" flag="0"/>
			<psa03 value="0.13798496521075" flag="0"/>
			<psa10 value="0.0264399595790015" flag="0"/>
			<psa30 value="0.0019521024747552" flag="0"/>
		</comp>
		<comp name="--.HNN" depth="0.0">
			<acc value="0.0684459404950462" flag="0"/>
			<vel value="0.0265637840111693" flag="0"/>
			<psa03 value="0.178163466753958" flag="0"/>
			<psa10 value="0.0183380408045649" flag="0"/>
			<psa30 value="0.00322501825304503" flag="0"/>
		</comp>
		<comp name="--.HNZ" depth="0.0">
			<acc value="0.0239530820117496" flag="0"/>
			<vel value="0.00846226642209805" flag="0"/>
			<psa03 value="0.0417444787748475" flag="0"/>
			<psa10 value="0.00870191176518767" flag="0"/>
			<psa30 value="0.00115569119694996" flag="0"/>
		</comp>
	</station>
	<station code="BOTS" name="BOTS" netid="KO" source="Bogazici University Kandilli Observatory And Earthquake Research Institute (KOERI)" insttype="" lat="40.9902" lon="27.981">
		<comp name="--.HNE" depth="0.0">
			<acc value="0.00296977873818572" flag="0"/>
			<vel value="0.00209802071901334" flag="0"/>
			<psa03 value="0.0072929796787783" flag="0"/>
			<psa10 value="0.00405095938721832" flag="0"/>
			<psa30 value="0.00047739934461696" flag="0"/>
		</comp>
		<comp name="--.HNN" depth="0.0">
			<acc value="0.00220630821604456" flag="0"/>
			<vel value="0.00150848121291143" flag="0"/>
			<psa03 value="0.00456370507506372" flag="0"/>
			<psa10 value="0.00234359678266507" flag="0"/>
			<psa30 value="0.00035570054261526" flag="0"/>
		</comp>
		<comp name="--.HNZ" depth="0.0">
			<acc value="0.00135945177754669" flag="0"/>
			<vel value="0.000841794608350444" flag="0"/>
			<psa03 value="0.00201339929782223" flag="0"/>
			<psa10 value="0.00077717212895938" flag="0"/>
			<psa30 value="0.000345857257159241" flag="0"/>
		</comp>
	</station>
	<station code="CANM" name="CANM" netid="KO" source="Bogazici University Kandilli Observatory And Earthquake Research Institute (KOERI)" insttype="" lat="40.0113" lon="27.0529">
		<comp name="--.HNE" depth="0.0">
			<acc value="0.0606468158393591" flag="0"/>
			<vel value="0.0319278938656216" flag="0"/>
			<psa03 value="0.0648314573898758" flag="0"/>
			<psa10 value="0.0407713357809001" flag="0"/>
			<psa30 value="0.00274538179809715" flag="0"/>
		</comp>
		<comp name="--.HNN" depth="0.0">
			<acc value="0.0657493602437679" flag="0"/>
			<vel value="0.0381257708517007" flag="0"/>
			<psa03 value="0.099775120758746" flag="0"/>
			<psa10 value="0.0458249680184339" flag="0"/>
			<psa30 value="0.00285052598365009" flag="0"/>
		</comp>
		<comp name="--.HNZ" depth="0.0">
			<acc value="0.0640382316104973" flag="0"/>
			<vel value="0.0265795081513379" flag="0"/>
			<psa03 value="0.111363352272878" flag="0"/>
			<psa10 value="0.0193689012450498" flag="0"/>
			<psa30 value="0.0016438286711553" flag="0"/>
		</comp>
	</station>
	<station code="EZNE" name="EZNE" netid="KO" source="Bogazici University Kandilli Observatory And Earthquake Research Institute (KOERI)" insttype="" lat="39.756" lon="26.3655">
		<comp name="--.HNE" depth="0.0">
			<acc value="0.0289420003453683" flag="0"/>
			<vel value="0.0106867143827017" flag="0"/>
			<psa03 value="0.0402679859564446" flag="0"/>
			<psa10 value="0.0127166299650452" flag="0"/>
			<psa30 value="0.00118477363125184" flag="0"/>
		</comp>
		<comp name="--.HNN" depth="0.0">
			<acc value="0.0468043152709203" flag="0"/>
			<vel value="0.0147809908181738" flag="0"/>
			<psa03 value="0.0450106598579814" flag="0"/>
			<psa10 value="0.0136830616279999" flag="0"/>
			<psa30 value="0.00178476662200286" flag="0"/>
		</comp>
		<comp name="--.HNZ" depth="0.0">
			<acc value="0.0239920158331866" flag="0"/>
			<vel value="0.0127681301542307" flag="0"/>
			<psa03 value="0.031274802426172" flag="0"/>
			<psa10 value="0.010634775091097" flag="0"/>
			<psa30 value="0.001403115599549" flag="0"/>
		</comp>
	</station>
	<station code="GONE" name="GONE" netid="KO" source="Bogazici University Kandilli Observatory And Earthquake Research Institute (KOERI)" insttype="" lat="40.0466" lon="27.686">
		<comp name="--.HNE" depth="0.0">
			<acc value="0.0295438329543803" flag="0"/>
			<vel value="0.0167270640614429" flag="0"/>
			<psa03 value="0.0417892209814658" flag="0"/>
			<psa10 value="0.0196910451327014" flag="0"/>
			<psa30 value="0.0026509757421326" flag="0"/>
		</comp>
		<comp name="--.HNN" depth="0.0">
			<acc value="0.0388824320107865" flag="0"/>
			<vel value="0.0165401202755856" flag="0"/>
			<psa03 value="0.0691267092252299" flag="0"/>
			<psa10 value="0.0160669263966214" flag="0"/>
			<psa30 value="0.00189572729441617" flag="0"/>
		</comp>
		<comp name="--.HNZ" depth="0.0">
			<acc value="0.0344478787483728" flag="0"/>
			<vel value="0.00894365127390758" flag="0"/>
			<psa03 value="0.0295745985746776" flag="0"/>
			<psa10 value="0.00962404864359026" flag="0"/>
			<psa30 value="0.00109126241941965" flag="0"/>
		</comp>
	</station>
	<station code="GORD" name="GORD" netid="KO" source="Bogazici University Kandilli Observatory And Earthquake Research Institute (KOERI)" insttype="" lat="38.9088" lon="28.1769">
		<comp name="--.HNE" depth="0.0">
			<acc value="0.0990904175993815" flag="0"/>
			<vel value="0.0485057285045153" flag="0"/>
			<psa03 value="0.210601566552205" flag="0"/>
			<psa10 value="0.0747655695253306" flag="0"/>
			<psa30 value="0.00650104262163488" flag="0"/>
		</comp>
		<comp name="--.HNN" depth="0.0">
			<acc value="0.112799653144196" flag="0"/>
			<vel value="0.0797246079495942" flag="0"/>
			<psa03 value="0.156508238750715" flag="0"/>
			<psa10 value="0.0927492520534788" flag="0"/>
			<psa30 value="0.00578964153640436" flag="0"/>
		</comp>
		<comp name="--.HNZ" depth="0.0">
			<acc value="0.10554089111311" flag="0"/>
			<vel value="0.0553354189512239" flag="0"/>
			<psa03 value="0.162011530164762" flag="0"/>
			<psa10 value="0.0841882782391387" flag="0"/>
			<psa30 value="0.0045046453623276" flag="0"/>
		</comp>
	</station>
	<station code="NAZL" name="NAZL" netid="KO" source="Bogazici University Kandilli Observatory And Earthquake Research Institute (KOERI)" insttype="" lat="37.9641" lon="28.2922">
		<comp name="--.HNE" depth="0.0">
			<acc value="0.0510571879466061" flag="0"/>
			<vel value="0.0276181820354799" flag="0"/>
			<psa03 value="0.157492567296317" flag="0"/>
			<psa10 value="0.0398653060968801" flag="0"/>
			<psa30 value="0.00224829588256816" flag="0"/>
		</comp>
		<comp name="--.HNN" depth="0.0">
			<acc value="0.0601381988301245" flag="0"/>
			<vel value="0.0299545241076321" flag="0"/>
			<psa03 value="0.22004217214866" flag="0"/>
			<psa10 value="0.0206373428026778" flag="0"/>
			<psa30 value="0.00124964983084833" flag="0"/>
		</comp>
		<comp name="--.HNZ" depth="0.0">
			<acc value="0.0303618455168229" flag="0"/>
			<vel value="0.011709542433969" flag="0"/>
			<psa03 value="0.0561962115125493" flag="0"/>
			<psa10 value="0.0146051985064024" flag="0"/>
			<psa30 value="0.000961062598160477" flag="0"/>
		</comp>
	</station>
	<station code="ODEM" name="ODEM" netid="KO" source="Bogazici University Kandilli Observatory And Earthquake Research Institute (KOERI)" insttype="" lat="38.2762" lon="28.0747">
		<comp name="--.HNE" depth="0.0">
			<acc value="0.0651705655323958" flag="0"/>
			<vel value="0.0256070502765487" flag="0"/>
			<psa03 value="0.149081032452081" flag="0"/>
			<psa10 value="0.0173796627388015" flag="0"/>
			<psa30 value="0.00134539815301143" flag="0"/>
		</comp>
		<comp name="--.HNN" depth="0.0">
			<acc value="0.0779316040463976" flag="0"/>
			<vel value="0.0213938954482425" flag="0"/>
			<psa03 value="0.153734221940382" flag="0"/>
			<psa10 value="0.0148468064221411" flag="0"/>
			<psa30 value="0.00141653826153448" flag="0"/>
		</comp>
		<comp name="--.HNZ" depth="0.0">
			<acc value="0.0443026369659598" flag="0"/>
			<vel value="0.0145639619121723" flag="0"/>
			<psa03 value="0.0744510318128042" flag="0"/>
			<psa10 value="0.0111018837281918" flag="0"/>
			<psa30 value="0.00104204599213955" flag="0"/>
		</comp>
	</station>
	<station code="SHAP" name="SHAP" netid="KO" source="Bogazici University Kandilli Observatory And Earthquake Research Institute (KOERI)" insttype="" lat="39.0231" lon="29.222">
		<comp name="--.HNE" depth="0.0">
			<acc value="0.112729481874652" flag="0"/>
			<vel value="0.040646165239599" flag="0"/>
			<psa03 value="0.251853881054252" flag="0"/>
			<psa10 value="0.0211044514397726" flag="0"/>
			<psa30 value="0.00146888664327786" flag="0"/>
		</comp>
		<comp name="--.HNN" depth="0.0">
			<acc value="0.0918151637793588" flag="0"/>
			<vel value="0.0280445985078211" flag="0"/>
			<psa03 value="0.17346553505904" flag="0"/>
			<psa10 value="0.0249218565084435" flag="0"/>
			<psa30 value="0.00240936782639393" flag="0"/>
		</comp>
		<comp name="--.HNZ" depth="0.0">
			<acc value="0.0416738076058972" flag="0"/>
			<vel value="0.0110298289205553" flag="0"/>
			<psa03 value="0.0670685677207894" flag="0"/>
			<psa10 value="0.00697038836906056" flag="0"/>
			<psa30 value="0.00162951116503746" flag="0"/>
		</comp>
	</station>
	<station code="SINB" name="SINB" netid="KO" source="Bogazici University Kandilli Observatory And Earthquake Research Institute (KOERI)" insttype="" lat="40.9998" lon="28.5392">
		<comp name="--.HNE" depth="0.0">
			<acc value="0.00520735698726549" flag="0"/>
			<vel value="0.00462049534241955" flag="0"/>
			<psa03 value="0.014809670390648" flag="0"/>
			<psa10 value="0.00516638259821184" flag="0"/>
			<psa30 value="0.000512298265779211" flag="0"/>
		</comp>
		<comp name="--.HNN" depth="0.0">
			<acc value="0.00393832222174047" flag="0"/>
			<vel value="0.00328349152862628" flag="0"/>
			<psa03 value="0.00859050367070818" flag="0"/>
			<psa10 value="0.00454222881588695" flag="0"/>
			<psa30 value="0.000523483817433779" flag="0"/>
		</comp>
		<comp name="--.HNZ" depth="0.0">
			<acc value="0.00437069737427498" flag="0"/>
			<vel value="0.00104234903068023" flag="0"/>
			<psa03 value="0.00272927460371458" flag="0"/>
			<psa10 value="0.0015583710565144" flag="0"/>
			<psa30 value="0.00050871888924975" flag="0"/>
		</comp>
	</station>
	<station code="SMAA" name="SMAA" netid="KO" source="Bogazici University Kandilli Observatory And Earthquake Research Institute (KOERI)" insttype="" lat="39.1005" lon="28.9805">
		<comp name="--.HNE" depth="0.0">
			<acc value="0.10098344188838" flag="0"/>
			<vel value="0.0787962674921149" flag="0"/>
			<psa03 value="0.319101417601514" flag="0"/>
			<psa10 value="0.168034278597648" flag="0"/>
			<psa30 value="0.00569792001283691" flag="0"/>
		</comp>
		<comp name="--.HNN" depth="0.0">
			<acc value="0.114027490362787" flag="0"/>
			<vel value="0.0800808276781316" flag="0"/>
			<psa03 value="0.199550241517492" flag="0"/>
			<psa10 value="0.107213512609034" flag="0"/>
			<psa30 value="0.011743934393164" flag="0"/>
		</comp>
		<comp name="--.HNZ" depth="0.0">
			<acc value="0.0415085898105356" flag="0"/>
			<vel value="0.0361216982525727" flag="0"/>
			<psa03 value="0.0484558097675883" flag="0"/>
			<psa10 value="0.0756152240290116" flag="0"/>
			<psa30 value="0.00404469547829177" flag="0"/>
		</comp>
	</station>
	<station code="SOMA" name="SOMA" netid="KO" source="Bogazici University Kandilli Observatory And Earthquake Research Institute (KOERI)" insttype="" lat="39.1564" lon="27.5341">
		<comp name="--.HNE" depth="0.0">
			<acc value="1.70954315861521" flag="0"/>
			<vel value="0.62183432133326" flag="0"/>
			<psa03 value="2.52663714994042" flag="0"/>
			<psa10 value="0.225049719913377" flag="0"/>
			<psa30 value="0.0189559306779632" flag="0"/>
		</comp>
		<comp name="--.HNN" depth="0.0">
			<acc value="2.08030706336803" flag="0"/>
			<vel value="0.668724641897046" flag="0"/>
			<psa03 value="1.65568535590915" flag="0"/>
			<psa10 value="0.298595169464228" flag="0"/>
			<psa30 value="0.0250766645433428" flag="0"/>
		</comp>
		<comp name="--.HNZ" depth="0.0">
			<acc value="1.86684826535781" flag="0"/>
			<vel value="0.619572814047632" flag="0"/>
			<psa03 value="1.5253065658235" flag="0"/>
			<psa10 value="0.202874140047163" flag="0"/>
			<psa30 value="0.017557289299076" flag="0"/>
		</comp>
	</station>
	<station code="SUSR" name="SUSR" netid="KO" source="Bogazici University Kandilli Observatory And Earthquake Research Institute (KOERI)" insttype="" lat="39.9627" lon="28.0835">
		<comp name="--.HNE" depth="0.0">
			<acc value="0.0586369379334048" flag="0"/>
			<vel value="0.0151545074409659" flag="0"/>
			<psa03 value="0.0522141551235231" flag="0"/>
			<psa10 value="0.0132763549698398" flag="0"/>
			<psa30 value="0.000897528664762531" flag="0"/>
		</comp>
		<comp name="--.HNN" depth="0.0">
			<acc value="0.0583144002678602" flag="0"/>
			<vel value="0.0219069819114286" flag="0"/>
			<psa03 value="0.105949545272068" flag="0"/>
			<psa10 value="0.0111985268944872" flag="0"/>
			<psa30 value="0.00104965216726466" flag="0"/>
		</comp>
		<comp name="--.HNZ" depth="0.0">
			<acc value="0.0501204341595556" flag="0"/>
			<vel value="0.014746413965124" flag="0"/>
			<psa03 value="0.0520351862970501" flag="0"/>
			<psa10 value="0.00923344917981274" flag="0"/>
			<psa30 value="0.00108634077669164" flag="0"/>
		</comp>
	</station>
	<station code="YENI" name="YENI" netid="KO" source="Bogazici University Kandilli Observatory And Earthquake Research Institute (KOERI)" insttype="" lat="39.9364" lon="27.24216">
		<comp name="--.HNE" depth="0.0">
			<acc value="0.115534900890911" flag="0"/>
			<vel value="0.0402069608799781" flag="0"/>
			<psa03 value="0.215165271627269" flag="0"/>
			<psa10 value="0.022787653252752" flag="0"/>
			<psa30 value="0.00179550475159125" flag="0"/>
		</comp>
		<comp name="--.HNN" depth="0.0">
			<acc value="0.0906576227327996" flag="0"/>
			<vel value="0.0283305055176504" flag="0"/>
			<psa03 value="0.111631805512588" flag="0"/>
			<psa10 value="0.0205487532335737" flag="0"/>
			<psa30 value="0.00267871591023593" flag="0"/>
		</comp>
		<comp name="--.HNZ" depth="0.0">
			<acc value="0.0633432837914019" flag="0"/>
			<vel value="0.0132856389181722" flag="0"/>
			<psa03 value="0.0485005519742066" flag="0"/>
			<psa10 value="0.00674488764770447" flag="0"/>
			<psa30 value="0.00181295421217237" flag="0"/>
		</comp>
	</station>
</stationlist>
