<?xml version="1.0" encoding="UTF-8" standalone="yes"?>
<!DOCTYPE earthquake SYSTEM "stationlist.dtd">
<stationlist created="" xmlns="ch.ethz.sed.shakemap.usgs.xml">
  <station code="AKS" name="AKS" netid="KO" insttype="100" lat="38.8785" lon="27.8129">
    <comp name="--.HNE">
      <acc value="1.0889413620" flag="0"/>
      <vel value="0.2748841947" flag="0"/>
      <psa03 value="0.8931773199" flag="0"/>
      <psa10 value="0.1273279122" flag="0"/>
      <psa30 value="0.0106677193" flag="0"/>
    </comp>
    <comp name="--.HNN">
      <acc value="1.3698090787" flag="0"/>
      <vel value="0.4238022262" flag="0"/>
      <psa03 value="2.3420987371" flag="0"/>
      <psa10 value="0.1205731862" flag="0"/>
      <psa30 value="0.0088623794" flag="0"/>
    </comp>
    <comp name="--.HNZ">
      <acc value="0.5200045202" flag="0"/>
      <vel value="0.1225106704" flag="0"/>
      <psa03 value="0.4427890147" flag="0"/>
      <psa10 value="0.0444188155" flag="0"/>
      <psa30 value="0.0034835711" flag="0"/>
    </comp>
  </station>
  <station code="BALB" name="BALB" netid="KO" insttype="120s," lat="39.64" lon="27.88">
    <comp name="--.HHE">
      <acc value="0.0220219958" flag="0"/>
      <vel value="0.0110197361" flag="0"/>
      <psa03 value="0.0376079203" flag="0"/>
      <psa10 value="0.0111934794" flag="0"/>
      <psa30 value="0.0015086430" flag="0"/>
    </comp>
    <comp name="--.HHN">
      <acc value="0.0173166028" flag="0"/>
      <vel value="0.0076513619" flag="0"/>
      <psa03 value="0.0333299165" flag="0"/>
      <psa10 value="0.0168897080" flag="0"/>
      <psa30 value="0.0007724194" flag="0"/>
    </comp>
    <comp name="--.HHZ">
      <acc value="0.0176251140" flag="0"/>
      <vel value="0.0062908961" flag="0"/>
      <psa03 value="0.0283725976" flag="0"/>
      <psa10 value="0.0102823605" flag="0"/>
      <psa30 value="0.0005580043" flag="0"/>
    </comp>
  </station>
  <station code="GOMA" name="GOMA" netid="KO" insttype="100" lat="38.7077" lon="27.9175">
    <comp name="--.HNE">
      <acc value="0.1846963791" flag="0"/>
      <vel value="0.0697252289" flag="0"/>
      <psa03 value="0.4241969154" flag="0"/>
      <psa10 value="0.0689093596" flag="0"/>
      <psa30 value="0.0033104775" flag="0"/>
    </comp>
    <comp name="--.HNN">
      <acc value="0.1598059083" flag="0"/>
      <vel value="0.0510481763" flag="0"/>
      <psa03 value="0.2670643858" flag="0"/>
      <psa10 value="0.0268873677" flag="0"/>
      <psa30 value="0.0040568397" flag="0"/>
    </comp>
    <comp name="--.HNZ">
      <acc value="0.1711733627" flag="0"/>
      <vel value="0.0451508049" flag="0"/>
      <psa03 value="0.1817654065" flag="0"/>
      <psa10 value="0.0180044254" flag="0"/>
      <psa30 value="0.0025007368" flag="0"/>
    </comp>
  </station>
  <station code="GONE" name="GONE" netid="KO" insttype="100" lat="40.0466" lon="27.686">
    <comp name="--.HNN">
      <acc value="0.0390032502" flag="0"/>
      <vel value="0.0163132605" flag="0"/>
      <psa03 value="0.0701865093" flag="0"/>
      <psa10 value="0.0160008535" flag="0"/>
      <psa30 value="0.0018863770" flag="0"/>
    </comp>
    <comp name="--.HNE">
      <acc value="0.0297077634" flag="0"/>
      <vel value="0.0165573099" flag="0"/>
      <psa03 value="0.0417811760" flag="0"/>
      <psa10 value="0.0196286790" flag="0"/>
      <psa30 value="0.0026492307" flag="0"/>
    </comp>
    <comp name="--.HNZ">
      <acc value="0.0347376084" flag="0"/>
      <vel value="0.0089666754" flag="0"/>
      <psa03 value="0.0291347216" flag="0"/>
      <psa10 value="0.0096075293" flag="0"/>
      <psa30 value="0.0009689311" flag="0"/>
    </comp>
  </station>
  <station code="SHAP" name="SHAP" netid="KO" insttype="100" lat="39.0231" lon="29.222">
    <comp name="--.HNE">
      <acc value="0.1130231691" flag="0"/>
      <vel value="0.0402731802" flag="0"/>
      <psa03 value="0.2480496688" flag="0"/>
      <psa10 value="0.0210195611" flag="0"/>
      <psa30 value="0.0014369845" flag="0"/>
    </comp>
    <comp name="--.HNZ">
      <acc value="0.0412093078" flag="0"/>
      <vel value="0.0110810093" flag="0"/>
      <psa03 value="0.0657087146" flag="0"/>
      <psa10 value="0.0069645956" flag="0"/>
      <psa30 value="0.0014706778" flag="0"/>
    </comp>
    <comp name="--.HNN">
      <acc value="0.0913980975" flag="0"/>
      <vel value="0.0274624114" flag="0"/>
      <psa03 value="0.1720790089" flag="0"/>
      <psa10 value="0.0247635172" flag="0"/>
      <psa30 value="0.0021045301" flag="0"/>
    </comp>
  </station>
  <station code="SMAA" name="SMAA" netid="KO" insttype="100" lat="39.1005" lon="28.9805">
    <comp name="--.HNN">
      <acc value="0.1139704699" flag="0"/>
      <vel value="0.0789671058" flag="0"/>
      <psa03 value="0.1992519931" flag="0"/>
      <psa10 value="0.1070690761" flag="0"/>
      <psa30 value="0.0117018975" flag="0"/>
    </comp>
    <comp name="--.HNZ">
      <acc value="0.0410827745" flag="0"/>
      <vel value="0.0365149594" flag="0"/>
      <psa03 value="0.0479002899" flag="0"/>
      <psa10 value="0.0753956014" flag="0"/>
      <psa30 value="0.0038578034" flag="0"/>
    </comp>
    <comp name="--.HNE">
      <acc value="0.1010925572" flag="0"/>
      <vel value="0.0792603488" flag="0"/>
      <psa03 value="0.3208924537" flag="0"/>
      <psa10 value="0.1679517559" flag="0"/>
      <psa30 value="0.0056683532" flag="0"/>
    </comp>
  </station>
</stationlist>
