<?xml version="1.0" encoding="UTF-8" standalone="yes"?>
<!DOCTYPE earthquake SYSTEM "stationlist.dtd">
<stationlist created="" xmlns="ch.ethz.sed.shakemap.usgs.xml">
  <station code="DYBB" name="DYBB" netid="KO" insttype="CMG-3T" lat="37.9532" lon="40.1393">
    <comp name="--.HHE">
      <acc value="0.0027792627" flag="0"/>
      <vel value="0.0013215309" flag="0"/>
      <psa03 value="0.0056607588" flag="0"/>
      <psa10 value="0.0017239323" flag="0"/>
      <psa30 value="0.0004179424" flag="0"/>
    </comp>
    <comp name="--.HHZ">
      <acc value="0.0018620258" flag="0"/>
      <vel value="0.0007773452" flag="0"/>
      <psa03 value="0.0039004244" flag="0"/>
      <psa10 value="0.0014592310" flag="0"/>
      <psa30 value="0.0001754168" flag="0"/>
    </comp>
    <comp name="--.HHN">
      <acc value="0.0034693639" flag="0"/>
      <vel value="0.0016692402" flag="0"/>
      <psa03 value="0.0070672620" flag="0"/>
      <psa10 value="0.0023310779" flag="0"/>
      <psa30 value="0.0002346479" flag="0"/>
    </comp>
  </station>
  <station code="SVAN" name="SVAN" netid="KO" insttype="CMG-3T" lat="38.1511" lon="41.1984">
    <comp name="--.HHE">
      <acc value="0.0016380776" flag="0"/>
      <vel value="0.0006971080" flag="0"/>
      <psa03 value="0.0019903039" flag="0"/>
      <psa10 value="0.0012672535" flag="0"/>
      <psa30 value="0.0002161053" flag="0"/>
    </comp>
    <comp name="--.HHN">
      <acc value="0.0015460395" flag="0"/>
      <vel value="0.0007513095" flag="0"/>
      <psa03 value="0.0040882016" flag="0"/>
      <psa10 value="0.0010393057" flag="0"/>
      <psa30 value="0.0001232592" flag="0"/>
    </comp>
    <comp name="--.HHZ">
      <acc value="0.0012246896" flag="0"/>
      <vel value="0.0006454269" flag="0"/>
      <psa03 value="0.0027232663" flag="0"/>
      <psa10 value="0.0008621387" flag="0"/>
      <psa30 value="0.0004939883" flag="0"/>
    </comp>
  </station>
  <station code="SVRC" name="SVRC" netid="KO" insttype="CMG-3T" lat="38.3775" lon="39.306">
    <comp name="--.HHN">
      <acc value="0.0028120767" flag="0"/>
      <vel value="0.0017299526" flag="0"/>
      <psa03 value="0.0096668668" flag="0"/>
      <psa10 value="0.0022252356" flag="0"/>
      <psa30 value="0.0003587109" flag="0"/>
    </comp>
    <comp name="--.HHE">
      <acc value="0.0041428003" flag="0"/>
      <vel value="0.0028021969" flag="0"/>
      <psa03 value="0.0188362265" flag="0"/>
      <psa10 value="0.0027826324" flag="0"/>
      <psa30 value="0.0003636729" flag="0"/>
    </comp>
    <comp name="--.HHZ">
      <acc value="0.0024356682" flag="0"/>
      <vel value="0.0016211388" flag="0"/>
      <psa03 value="0.0070502540" flag="0"/>
      <psa10 value="0.0016997669" flag="0"/>
      <psa30 value="0.0003988119" flag="0"/>
    </comp>
  </station>
</stationlist>
