<?xml version="1.0" encoding="UTF-8" standalone="yes"?>
<!DOCTYPE earthquake SYSTEM "stationlist.dtd">
<stationlist created="" xmlns="ch.ethz.sed.shakemap.usgs.xml">
  <station code="APE" name="APE" netid="GE" insttype="STS-2/N" lat="37.0727" lon="25.523">
    <comp name="--.HHE">
      <acc value="0.0019201137" flag="0"/>
      <vel value="0.0010051116" flag="0"/>
      <psa03 value="0.0018815466" flag="0"/>
      <psa10 value="0.0016595449" flag="0"/>
      <psa30 value="0.0001706538" flag="0"/>
    </comp>
    <comp name="--.HHZ">
      <acc value="0.0010897231" flag="0"/>
      <vel value="0.0006330494" flag="0"/>
      <psa03 value="0.0019761670" flag="0"/>
      <psa10 value="0.0005988242" flag="0"/>
      <psa30 value="0.0000883831" flag="0"/>
    </comp>
    <comp name="--.HHN">
      <acc value="0.0020876260" flag="0"/>
      <vel value="0.0018800082" flag="0"/>
      <psa03 value="0.0024097961" flag="0"/>
      <psa10 value="0.0020621022" flag="0"/>
      <psa30 value="0.0002416746" flag="0"/>
    </comp>
  </station>
  <station code="KARP" name="KARP" netid="GE" insttype="STS-2/N" lat="35.5471" lon="27.1611">
    <comp name="--.HHZ">
      <acc value="0.0003583131" flag="0"/>
      <vel value="0.0000492444" flag="0"/>
      <psa03 value="0.0001060177" flag="0"/>
      <psa10 value="0.0000049394" flag="0"/>
      <psa30 value="0.0000004990" flag="0"/>
    </comp>
    <comp name="--.HHN">
      <acc value="0.0004057978" flag="0"/>
      <vel value="0.0000426717" flag="0"/>
      <psa03 value="0.0000820949" flag="0"/>
      <psa10 value="0.0000044369" flag="0"/>
      <psa30 value="0.0000003897" flag="0"/>
    </comp>
    <comp name="--.HHE">
      <acc value="0.0003558417" flag="0"/>
      <vel value="0.0000240182" flag="0"/>
      <psa03 value="0.0000508504" flag="0"/>
      <psa10 value="0.0000025738" flag="0"/>
      <psa30 value="0.0000002210" flag="0"/>
    </comp>
  </station>
  <station code="THERA" name="THERA" netid="GE" insttype="STS-2/N" lat="36.367" lon="25.4753">
    <comp name="--.HHE">
      <acc value="0.0037426245" flag="0"/>
      <vel value="0.0018373817" flag="0"/>
      <psa03 value="0.0090132680" flag="0"/>
      <psa10 value="0.0012862903" flag="0"/>
      <psa30 value="0.0001297992" flag="0"/>
    </comp>
    <comp name="--.HHN">
      <acc value="0.0024660362" flag="0"/>
      <vel value="0.0013286084" flag="0"/>
      <psa03 value="0.0076020094" flag="0"/>
      <psa10 value="0.0014087079" flag="0"/>
      <psa30 value="0.0001491530" flag="0"/>
    </comp>
    <comp name="--.HHZ">
      <acc value="0.0057563245" flag="0"/>
      <vel value="0.0028574724" flag="0"/>
      <psa03 value="0.0151858628" flag="0"/>
      <psa10 value="0.0013011927" flag="0"/>
      <psa30 value="0.0001385555" flag="0"/>
    </comp>
  </station>
  <station code="APE" name="APE" netid="HL" insttype="120" lat="37.0727" lon="25.523">
    <comp name="--.HHE">
      <acc value="0.0015494225" flag="0"/>
      <vel value="0.0009959341" flag="0"/>
      <psa03 value="0.0018411556" flag="0"/>
      <psa10 value="0.0016479089" flag="0"/>
      <psa30 value="0.0001702693" flag="0"/>
    </comp>
    <comp name="--.HHZ">
      <acc value="0.0010554012" flag="0"/>
      <vel value="0.0006179905" flag="0"/>
      <psa03 value="0.0019128067" flag="0"/>
      <psa10 value="0.0005962390" flag="0"/>
      <psa30 value="0.0000881472" flag="0"/>
    </comp>
    <comp name="--.HHN">
      <acc value="0.0016760196" flag="0"/>
      <vel value="0.0018592394" flag="0"/>
      <psa03 value="0.0023634728" flag="0"/>
      <psa10 value="0.0020501052" flag="0"/>
      <psa30 value="0.0002405900" flag="0"/>
    </comp>
  </station>
  <station code="ARG" name="ARG" netid="HL" insttype="LE3D20_DR24" lat="36.2136" lon="28.1212">
    <comp name="--.HHE">
      <acc value="0.0324150603" flag="0"/>
      <vel value="0.0167888220" flag="0"/>
      <psa03 value="0.0772174674" flag="0"/>
      <psa10 value="0.0131960591" flag="0"/>
      <psa30 value="0.0009225375" flag="0"/>
    </comp>
    <comp name="--.HHZ">
      <acc value="0.0142184681" flag="0"/>
      <vel value="0.0043105865" flag="0"/>
      <psa03 value="0.0245301513" flag="0"/>
      <psa10 value="0.0059588161" flag="0"/>
      <psa30 value="0.0002580915" flag="0"/>
    </comp>
    <comp name="--.HHN">
      <acc value="0.0226306089" flag="0"/>
      <vel value="0.0075609494" flag="0"/>
      <psa03 value="0.0346415057" flag="0"/>
      <psa10 value="0.0085748682" flag="0"/>
      <psa30 value="0.0006504268" flag="0"/>
    </comp>
  </station>
  <station code="KARP" name="KARP" netid="HL" insttype="120" lat="35.5471" lon="27.1611">
    <comp name="--.HHE">
      <acc value="0.0003081136" flag="0"/>
      <vel value="0.0000209573" flag="0"/>
      <psa03 value="0.0000487461" flag="0"/>
      <psa10 value="0.0000024629" flag="0"/>
      <psa30 value="0.0000002098" flag="0"/>
    </comp>
    <comp name="--.HHZ">
      <acc value="0.0002840454" flag="0"/>
      <vel value="0.0000447571" flag="0"/>
      <psa03 value="0.0001020760" flag="0"/>
      <psa10 value="0.0000047168" flag="0"/>
      <psa30 value="0.0000004751" flag="0"/>
    </comp>
    <comp name="--.HHN">
      <acc value="0.0003115564" flag="0"/>
      <vel value="0.0000401719" flag="0"/>
      <psa03 value="0.0000794608" flag="0"/>
      <psa10 value="0.0000042884" flag="0"/>
      <psa30 value="0.0000003670" flag="0"/>
    </comp>
  </station>
  <station code="NISR" name="NISR" netid="HL" insttype="65535" lat="36.6106" lon="27.131">
    <comp name="--.HHE">
      <acc value="0.0001656742" flag="0"/>
      <vel value="0.0001006437" flag="0"/>
      <psa03 value="0.0002383598" flag="0"/>
      <psa10 value="0.0001219800" flag="0"/>
      <psa30 value="0.0000329082" flag="0"/>
    </comp>
    <comp name="--.HHZ">
      <acc value="0.0023708984" flag="0"/>
      <vel value="0.0014891871" flag="0"/>
      <psa03 value="0.0041825030" flag="0"/>
      <psa10 value="0.0025501635" flag="0"/>
      <psa30 value="0.0001910534" flag="0"/>
    </comp>
    <comp name="--.HHN">
      <acc value="0.0040350583" flag="0"/>
      <vel value="0.0044553179" flag="0"/>
      <psa03 value="0.0066286932" flag="0"/>
      <psa10 value="0.0037828498" flag="0"/>
      <psa30 value="0.0005465924" flag="0"/>
    </comp>
  </station>
  <station code="SMG" name="SMG" netid="HL" insttype="120" lat="37.7043" lon="26.8377">
    <comp name="--.HHE">
      <acc value="0.0020138786" flag="0"/>
      <vel value="0.0017543231" flag="0"/>
      <psa03 value="0.0095667299" flag="0"/>
      <psa10 value="0.0019233745" flag="0"/>
      <psa30 value="0.0002563562" flag="0"/>
    </comp>
    <comp name="--.HHN">
      <acc value="0.0025442331" flag="0"/>
      <vel value="0.0016871695" flag="0"/>
      <psa03 value="0.0080714094" flag="0"/>
      <psa10 value="0.0017555273" flag="0"/>
      <psa30 value="0.0001330913" flag="0"/>
    </comp>
    <comp name="--.HHZ">
      <acc value="0.0045222563" flag="0"/>
      <vel value="0.0019137050" flag="0"/>
      <psa03 value="0.0084387426" flag="0"/>
      <psa10 value="0.0011640561" flag="0"/>
      <psa30 value="0.0001054178" flag="0"/>
    </comp>
  </station>
  <station code="THERA" name="THERA" netid="HL" insttype="120" lat="36.367" lon="25.4753">
    <comp name="--.HHE">
      <acc value="0.0036749481" flag="0"/>
      <vel value="0.0017970223" flag="0"/>
      <psa03 value="0.0087730535" flag="0"/>
      <psa10 value="0.0012800611" flag="0"/>
      <psa30 value="0.0001290858" flag="0"/>
    </comp>
    <comp name="--.HHN">
      <acc value="0.0024088778" flag="0"/>
      <vel value="0.0012972669" flag="0"/>
      <psa03 value="0.0073969319" flag="0"/>
      <psa10 value="0.0014001764" flag="0"/>
      <psa30 value="0.0001486417" flag="0"/>
    </comp>
    <comp name="--.HHZ">
      <acc value="0.0056128567" flag="0"/>
      <vel value="0.0028023678" flag="0"/>
      <psa03 value="0.0147944873" flag="0"/>
      <psa10 value="0.0012847177" flag="0"/>
      <psa30 value="0.0001367331" flag="0"/>
    </comp>
  </station>
  <station code="BODT" name="BODT" netid="KO" insttype="CMG-3ESP" lat="37.0622" lon="27.3103">
    <comp name="--.HHE">
      <acc value="0.0033825442" flag="0"/>
      <vel value="0.0028806630" flag="0"/>
      <psa03 value="0.0081411315" flag="0"/>
      <psa10 value="0.0034793794" flag="0"/>
      <psa30 value="0.0003516181" flag="0"/>
    </comp>
    <comp name="--.HHZ">
      <acc value="0.0039373329" flag="0"/>
      <vel value="0.0024395649" flag="0"/>
      <psa03 value="0.0066556519" flag="0"/>
      <psa10 value="0.0022473785" flag="0"/>
      <psa30 value="0.0001669935" flag="0"/>
    </comp>
    <comp name="--.HHN">
      <acc value="0.0058697293" flag="0"/>
      <vel value="0.0060210580" flag="0"/>
      <psa03 value="0.0126538670" flag="0"/>
      <psa10 value="0.0064625279" flag="0"/>
      <psa30 value="0.0005889117" flag="0"/>
    </comp>
  </station>
  <station code="DAT" name="DAT" netid="KO" insttype="CMG-3T" lat="36.7308" lon="27.5767">
    <comp name="--.HHE">
      <acc value="0.0054734635" flag="0"/>
      <vel value="0.0035192651" flag="0"/>
      <psa03 value="0.0123077821" flag="0"/>
      <psa10 value="0.0054072876" flag="0"/>
      <psa30 value="0.0003035046" flag="0"/>
    </comp>
    <comp name="--.HHN">
      <acc value="0.0065026911" flag="0"/>
      <vel value="0.0066090398" flag="0"/>
      <psa03 value="0.0138152722" flag="0"/>
      <psa10 value="0.0095977604" flag="0"/>
      <psa30 value="0.0009154098" flag="0"/>
    </comp>
    <comp name="--.HHZ">
      <acc value="0.0000308805" flag="0"/>
      <vel value="0.0000031901" flag="0"/>
      <psa03 value="0.0000117941" flag="0"/>
      <psa10 value="0.0000030351" flag="0"/>
      <psa30 value="0.0000008544" flag="0"/>
    </comp>
  </station>
  <station code="MLSB" name="MLSB" netid="KO" insttype="CMG-3ESP" lat="37.2953" lon="27.7767">
    <comp name="--.HHN">
      <acc value="0.0015014143" flag="0"/>
      <vel value="0.0015408662" flag="0"/>
      <psa03 value="0.0038740496" flag="0"/>
      <psa10 value="0.0025303453" flag="0"/>
      <psa30 value="0.0002058344" flag="0"/>
    </comp>
    <comp name="--.HHE">
      <acc value="0.0022669157" flag="0"/>
      <vel value="0.0019381891" flag="0"/>
      <psa03 value="0.0054284476" flag="0"/>
      <psa10 value="0.0041169103" flag="0"/>
      <psa30 value="0.0003704915" flag="0"/>
    </comp>
  </station>
</stationlist>
