<?xml version="1.0" encoding="UTF-8" standalone="yes"?>
<!DOCTYPE earthquake SYSTEM "stationlist.dtd">
<stationlist created="" xmlns="ch.ethz.sed.shakemap.usgs.xml">
  <station code="APE" name="APE" netid="GE" insttype="STS-2/N" lat="37.0727" lon="25.523">
    <comp name="--.HHZ">
      <acc value="0.0010897227" flag="0"/>
      <vel value="0.0006330498" flag="0"/>
      <psa03 value="0.0019761670" flag="0"/>
      <psa10 value="0.0005988242" flag="0"/>
      <psa30 value="0.0000883969" flag="0"/>
    </comp>
    <comp name="--.HHN">
      <acc value="0.0020876260" flag="0"/>
      <vel value="0.0018800093" flag="0"/>
      <psa03 value="0.0024097961" flag="0"/>
      <psa10 value="0.0020621022" flag="0"/>
      <psa30 value="0.0002415561" flag="0"/>
    </comp>
    <comp name="--.HHE">
      <acc value="0.0019201145" flag="0"/>
      <vel value="0.0010051108" flag="0"/>
      <psa03 value="0.0018815466" flag="0"/>
      <psa10 value="0.0016595449" flag="0"/>
      <psa30 value="0.0001705223" flag="0"/>
    </comp>
  </station>
  <station code="KARP" name="KARP" netid="GE" insttype="STS-2/N" lat="35.5471" lon="27.1611">
    <comp name="--.HHE">
      <acc value="0.0003558416" flag="0"/>
      <vel value="0.0000240182" flag="0"/>
      <psa03 value="0.0000508504" flag="0"/>
      <psa10 value="0.0000025738" flag="0"/>
      <psa30 value="0.0000002210" flag="0"/>
    </comp>
    <comp name="--.HHN">
      <acc value="0.0004057977" flag="0"/>
      <vel value="0.0000426717" flag="0"/>
      <psa03 value="0.0000820949" flag="0"/>
      <psa10 value="0.0000044369" flag="0"/>
      <psa30 value="0.0000003897" flag="0"/>
    </comp>
    <comp name="--.HHZ">
      <acc value="0.0003583132" flag="0"/>
      <vel value="0.0000492444" flag="0"/>
      <psa03 value="0.0001060177" flag="0"/>
      <psa10 value="0.0000049394" flag="0"/>
      <psa30 value="0.0000004990" flag="0"/>
    </comp>
  </station>
  <station code="THERA" name="THERA" netid="GE" insttype="STS-2/N" lat="36.367" lon="25.4753">
    <comp name="--.HHE">
      <acc value="0.0037426245" flag="0"/>
      <vel value="0.0018373831" flag="0"/>
      <psa03 value="0.0090132680" flag="0"/>
      <psa10 value="0.0012862903" flag="0"/>
      <psa30 value="0.0001298213" flag="0"/>
    </comp>
    <comp name="--.HHN">
      <acc value="0.0024660360" flag="0"/>
      <vel value="0.0013286078" flag="0"/>
      <psa03 value="0.0076020094" flag="0"/>
      <psa10 value="0.0014087079" flag="0"/>
      <psa30 value="0.0001491944" flag="0"/>
    </comp>
    <comp name="--.HHZ">
      <acc value="0.0057563256" flag="0"/>
      <vel value="0.0028574728" flag="0"/>
      <psa03 value="0.0151858628" flag="0"/>
      <psa10 value="0.0013012102" flag="0"/>
      <psa30 value="0.0001385805" flag="0"/>
    </comp>
  </station>
  <station code="BODT" name="BODT" netid="KO" insttype="CMG-3ESP" lat="37.0622" lon="27.3103">
    <comp name="--.HHE">
      <acc value="0.0033825442" flag="0"/>
      <vel value="0.0028806610" flag="0"/>
      <psa03 value="0.0081411315" flag="0"/>
      <psa10 value="0.0034793794" flag="0"/>
      <psa30 value="0.0003516208" flag="0"/>
    </comp>
    <comp name="--.HHN">
      <acc value="0.0058697293" flag="0"/>
      <vel value="0.0060210573" flag="0"/>
      <psa03 value="0.0126538670" flag="0"/>
      <psa10 value="0.0064625279" flag="0"/>
      <psa30 value="0.0005889344" flag="0"/>
    </comp>
    <comp name="--.HHZ">
      <acc value="0.0039373329" flag="0"/>
      <vel value="0.0024395650" flag="0"/>
      <psa03 value="0.0066556519" flag="0"/>
      <psa10 value="0.0022473784" flag="0"/>
      <psa30 value="0.0001669957" flag="0"/>
    </comp>
  </station>
  <station code="DAT" name="DAT" netid="KO" insttype="CMG-3T" lat="36.7308" lon="27.5767">
    <comp name="--.HHE">
      <acc value="0.0054734635" flag="0"/>
      <vel value="0.0035192646" flag="0"/>
      <psa03 value="0.0123077821" flag="0"/>
      <psa10 value="0.0054072876" flag="0"/>
      <psa30 value="0.0003034856" flag="0"/>
    </comp>
    <comp name="--.HHN">
      <acc value="0.0065026910" flag="0"/>
      <vel value="0.0066090399" flag="0"/>
      <psa03 value="0.0138152722" flag="0"/>
      <psa10 value="0.0095977603" flag="0"/>
      <psa30 value="0.0009153922" flag="0"/>
    </comp>
    <comp name="--.HHZ">
      <acc value="0.0000308805" flag="0"/>
      <vel value="0.0000031901" flag="0"/>
      <psa03 value="0.0000118039" flag="0"/>
      <psa10 value="0.0000030304" flag="0"/>
      <psa30 value="0.0000008533" flag="0"/>
    </comp>
  </station>
  <station code="MLSB" name="MLSB" netid="KO" insttype="CMG-3ESP" lat="37.2953" lon="27.7767">
    <comp name="--.HHE">
      <acc value="0.0022669157" flag="0"/>
      <vel value="0.0019381876" flag="0"/>
      <psa03 value="0.0054284476" flag="0"/>
      <psa10 value="0.0041169103" flag="0"/>
      <psa30 value="0.0003704882" flag="0"/>
    </comp>
    <comp name="--.HHN">
      <acc value="0.0015014143" flag="0"/>
      <vel value="0.0015408662" flag="0"/>
      <psa03 value="0.0038740496" flag="0"/>
      <psa10 value="0.0025303454" flag="0"/>
      <psa30 value="0.0002058281" flag="0"/>
    </comp>
  </station>
  <station code="YER" name="YER" netid="KO" insttype="CMG-3T" lat="37.1336" lon="28.284">
    <comp name="--.HHE">
      <acc value="0.0070852334" flag="0"/>
      <vel value="0.0039235142" flag="0"/>
      <psa03 value="0.0195684488" flag="0"/>
      <psa10 value="0.0048415648" flag="0"/>
      <psa30 value="0.0004055255" flag="0"/>
    </comp>
    <comp name="--.HHN">
      <acc value="0.0069429072" flag="0"/>
      <vel value="0.0041636730" flag="0"/>
      <psa03 value="0.0192559030" flag="0"/>
      <psa10 value="0.0059461637" flag="0"/>
      <psa30 value="0.0008097287" flag="0"/>
    </comp>
    <comp name="--.HHZ">
      <acc value="0.0042126334" flag="0"/>
      <vel value="0.0020197306" flag="0"/>
      <psa03 value="0.0120511141" flag="0"/>
      <psa10 value="0.0028870624" flag="0"/>
      <psa30 value="0.0003595463" flag="0"/>
    </comp>
  </station>
</stationlist>
