<?xml version="1.0" encoding="UTF-8" standalone="yes"?>
<!DOCTYPE earthquake SYSTEM "stationlist.dtd">
<stationlist created="" xmlns="ch.ethz.sed.shakemap.usgs.xml">
  <station code="APE" name="APE" netid="GE" insttype="STS-2/N" lat="37.0727" lon="25.523">
    <comp name="--.HHZ">
      <acc value="0.0010897227" flag="0"/>
      <vel value="0.0006330498" flag="0"/>
      <psa03 value="0.0019761670" flag="0"/>
      <psa10 value="0.0005988242" flag="0"/>
      <psa30 value="0.0000883969" flag="0"/>
    </comp>
    <comp name="--.HHN">
      <acc value="0.0020876260" flag="0"/>
      <vel value="0.0018800093" flag="0"/>
      <psa03 value="0.0024097961" flag="0"/>
      <psa10 value="0.0020621022" flag="0"/>
      <psa30 value="0.0002415561" flag="0"/>
    </comp>
    <comp name="--.HHE">
      <acc value="0.0019201145" flag="0"/>
      <vel value="0.0010051108" flag="0"/>
      <psa03 value="0.0018815466" flag="0"/>
      <psa10 value="0.0016595449" flag="0"/>
      <psa30 value="0.0001705223" flag="0"/>
    </comp>
  </station>
  <station code="KARP" name="KARP" netid="GE" insttype="STS-2/N" lat="35.5471" lon="27.1611">
    <comp name="--.HHE">
      <acc value="0.0003558416" flag="0"/>
      <vel value="0.0000240182" flag="0"/>
      <psa03 value="0.0000508504" flag="0"/>
      <psa10 value="0.0000025738" flag="0"/>
      <psa30 value="0.0000002210" flag="0"/>
    </comp>
    <comp name="--.HHN">
      <acc value="0.0004057977" flag="0"/>
      <vel value="0.0000426717" flag="0"/>
      <psa03 value="0.0000820949" flag="0"/>
      <psa10 value="0.0000044369" flag="0"/>
      <psa30 value="0.0000003897" flag="0"/>
    </comp>
    <comp name="--.HHZ">
      <acc value="0.0003583132" flag="0"/>
      <vel value="0.0000492444" flag="0"/>
      <psa03 value="0.0001060177" flag="0"/>
      <psa10 value="0.0000049394" flag="0"/>
      <psa30 value="0.0000004990" flag="0"/>
    </comp>
  </station>
  <station code="THERA" name="THERA" netid="GE" insttype="STS-2/N" lat="36.367" lon="25.4753">
    <comp name="--.HHE">
      <acc value="0.0037426245" flag="0"/>
      <vel value="0.0018373831" flag="0"/>
      <psa03 value="0.0090132680" flag="0"/>
      <psa10 value="0.0012862903" flag="0"/>
      <psa30 value="0.0001298213" flag="0"/>
    </comp>
    <comp name="--.HHN">
      <acc value="0.0024660360" flag="0"/>
      <vel value="0.0013286078" flag="0"/>
      <psa03 value="0.0076020094" flag="0"/>
      <psa10 value="0.0014087079" flag="0"/>
      <psa30 value="0.0001491944" flag="0"/>
    </comp>
    <comp name="--.HHZ">
      <acc value="0.0057563256" flag="0"/>
      <vel value="0.0028574728" flag="0"/>
      <psa03 value="0.0151858628" flag="0"/>
      <psa10 value="0.0013012102" flag="0"/>
      <psa30 value="0.0001385805" flag="0"/>
    </comp>
  </station>
  <station code="APE" name="APE" netid="HL" insttype="120" lat="37.0727" lon="25.523">
    <comp name="--.HHE">
      <acc value="0.0015494222" flag="0"/>
      <vel value="0.0009959333" flag="0"/>
      <psa03 value="0.0018411556" flag="0"/>
      <psa10 value="0.0016479089" flag="0"/>
      <psa30 value="0.0001701375" flag="0"/>
    </comp>
    <comp name="--.HHZ">
      <acc value="0.0010554015" flag="0"/>
      <vel value="0.0006179910" flag="0"/>
      <psa03 value="0.0019128067" flag="0"/>
      <psa10 value="0.0005962390" flag="0"/>
      <psa30 value="0.0000881606" flag="0"/>
    </comp>
    <comp name="--.HHN">
      <acc value="0.0016760196" flag="0"/>
      <vel value="0.0018592405" flag="0"/>
      <psa03 value="0.0023634728" flag="0"/>
      <psa10 value="0.0020501052" flag="0"/>
      <psa30 value="0.0002404715" flag="0"/>
    </comp>
  </station>
  <station code="ARG" name="ARG" netid="HL" insttype="LE3D20_DR24" lat="36.2136" lon="28.1212">
    <comp name="--.HHZ">
      <acc value="0.0142184682" flag="0"/>
      <vel value="0.0043105818" flag="0"/>
      <psa03 value="0.0245301514" flag="0"/>
      <psa10 value="0.0059588161" flag="0"/>
      <psa30 value="0.0002580579" flag="0"/>
    </comp>
    <comp name="--.HHE">
      <acc value="0.0324150597" flag="0"/>
      <vel value="0.0167888207" flag="0"/>
      <psa03 value="0.0772174674" flag="0"/>
      <psa10 value="0.0131960591" flag="0"/>
      <psa30 value="0.0009225869" flag="0"/>
    </comp>
    <comp name="--.HHN">
      <acc value="0.0226306089" flag="0"/>
      <vel value="0.0075609319" flag="0"/>
      <psa03 value="0.0346415056" flag="0"/>
      <psa10 value="0.0085748682" flag="0"/>
      <psa30 value="0.0006505086" flag="0"/>
    </comp>
  </station>
  <station code="KARP" name="KARP" netid="HL" insttype="120" lat="35.5471" lon="27.1611">
    <comp name="--.HHZ">
      <acc value="0.0002840454" flag="0"/>
      <vel value="0.0000447571" flag="0"/>
      <psa03 value="0.0001020760" flag="0"/>
      <psa10 value="0.0000047168" flag="0"/>
      <psa30 value="0.0000004751" flag="0"/>
    </comp>
    <comp name="--.HHE">
      <acc value="0.0003081136" flag="0"/>
      <vel value="0.0000209573" flag="0"/>
      <psa03 value="0.0000487461" flag="0"/>
      <psa10 value="0.0000024629" flag="0"/>
      <psa30 value="0.0000002098" flag="0"/>
    </comp>
    <comp name="--.HHN">
      <acc value="0.0003115563" flag="0"/>
      <vel value="0.0000401719" flag="0"/>
      <psa03 value="0.0000794608" flag="0"/>
      <psa10 value="0.0000042884" flag="0"/>
      <psa30 value="0.0000003670" flag="0"/>
    </comp>
  </station>
  <station code="NISR" name="NISR" netid="HL" insttype="65535" lat="36.6106" lon="27.131">
    <comp name="--.HHN">
      <acc value="0.0040350583" flag="0"/>
      <vel value="0.0044553218" flag="0"/>
      <psa03 value="0.0066286932" flag="0"/>
      <psa10 value="0.0037828497" flag="0"/>
      <psa30 value="0.0005465844" flag="0"/>
    </comp>
    <comp name="--.HHE">
      <acc value="0.0001656743" flag="0"/>
      <vel value="0.0001006436" flag="0"/>
      <psa03 value="0.0002383598" flag="0"/>
      <psa10 value="0.0001219800" flag="0"/>
      <psa30 value="0.0000330304" flag="0"/>
    </comp>
    <comp name="--.HHZ">
      <acc value="0.0023708984" flag="0"/>
      <vel value="0.0014891875" flag="0"/>
      <psa03 value="0.0041825030" flag="0"/>
      <psa10 value="0.0025501635" flag="0"/>
      <psa30 value="0.0001910549" flag="0"/>
    </comp>
  </station>
  <station code="SMG" name="SMG" netid="HL" insttype="120" lat="37.7043" lon="26.8377">
    <comp name="--.HHZ">
      <acc value="0.0045222562" flag="0"/>
      <vel value="0.0019137064" flag="0"/>
      <psa03 value="0.0084387426" flag="0"/>
      <psa10 value="0.0011640561" flag="0"/>
      <psa30 value="0.0001048964" flag="0"/>
    </comp>
    <comp name="--.HHN">
      <acc value="0.0025442335" flag="0"/>
      <vel value="0.0016871689" flag="0"/>
      <psa03 value="0.0080714094" flag="0"/>
      <psa10 value="0.0017555273" flag="0"/>
      <psa30 value="0.0001330720" flag="0"/>
    </comp>
    <comp name="--.HHE">
      <acc value="0.0020138788" flag="0"/>
      <vel value="0.0017543233" flag="0"/>
      <psa03 value="0.0095667299" flag="0"/>
      <psa10 value="0.0019233745" flag="0"/>
      <psa30 value="0.0002563909" flag="0"/>
    </comp>
  </station>
  <station code="THERA" name="THERA" netid="HL" insttype="120" lat="36.367" lon="25.4753">
    <comp name="--.HHN">
      <acc value="0.0024088776" flag="0"/>
      <vel value="0.0012972662" flag="0"/>
      <psa03 value="0.0073969319" flag="0"/>
      <psa10 value="0.0014001763" flag="0"/>
      <psa30 value="0.0001486825" flag="0"/>
    </comp>
    <comp name="--.HHE">
      <acc value="0.0036749482" flag="0"/>
      <vel value="0.0017970237" flag="0"/>
      <psa03 value="0.0087730535" flag="0"/>
      <psa10 value="0.0012800611" flag="0"/>
      <psa30 value="0.0001291074" flag="0"/>
    </comp>
    <comp name="--.HHZ">
      <acc value="0.0056128581" flag="0"/>
      <vel value="0.0028023681" flag="0"/>
      <psa03 value="0.0147944873" flag="0"/>
      <psa10 value="0.0012847350" flag="0"/>
      <psa30 value="0.0001367577" flag="0"/>
    </comp>
  </station>
  <station code="BODT" name="BODT" netid="KO" insttype="CMG-3ESP" lat="37.0622" lon="27.3103">
    <comp name="--.HHE">
      <acc value="0.0033825442" flag="0"/>
      <vel value="0.0028806610" flag="0"/>
      <psa03 value="0.0081411315" flag="0"/>
      <psa10 value="0.0034793794" flag="0"/>
      <psa30 value="0.0003516208" flag="0"/>
    </comp>
    <comp name="--.HHN">
      <acc value="0.0058697293" flag="0"/>
      <vel value="0.0060210573" flag="0"/>
      <psa03 value="0.0126538670" flag="0"/>
      <psa10 value="0.0064625279" flag="0"/>
      <psa30 value="0.0005889344" flag="0"/>
    </comp>
    <comp name="--.HHZ">
      <acc value="0.0039373329" flag="0"/>
      <vel value="0.0024395650" flag="0"/>
      <psa03 value="0.0066556519" flag="0"/>
      <psa10 value="0.0022473784" flag="0"/>
      <psa30 value="0.0001669957" flag="0"/>
    </comp>
  </station>
  <station code="DAT" name="DAT" netid="KO" insttype="CMG-3T" lat="36.7308" lon="27.5767">
    <comp name="--.HHE">
      <acc value="0.0054734635" flag="0"/>
      <vel value="0.0035192646" flag="0"/>
      <psa03 value="0.0123077821" flag="0"/>
      <psa10 value="0.0054072876" flag="0"/>
      <psa30 value="0.0003034856" flag="0"/>
    </comp>
    <comp name="--.HHN">
      <acc value="0.0065026910" flag="0"/>
      <vel value="0.0066090399" flag="0"/>
      <psa03 value="0.0138152722" flag="0"/>
      <psa10 value="0.0095977603" flag="0"/>
      <psa30 value="0.0009153922" flag="0"/>
    </comp>
    <comp name="--.HHZ">
      <acc value="0.0000308805" flag="0"/>
      <vel value="0.0000031901" flag="0"/>
      <psa03 value="0.0000118039" flag="0"/>
      <psa10 value="0.0000030304" flag="0"/>
      <psa30 value="0.0000008533" flag="0"/>
    </comp>
  </station>
  <station code="MLSB" name="MLSB" netid="KO" insttype="CMG-3ESP" lat="37.2953" lon="27.7767">
    <comp name="--.HHE">
      <acc value="0.0022669157" flag="0"/>
      <vel value="0.0019381876" flag="0"/>
      <psa03 value="0.0054284476" flag="0"/>
      <psa10 value="0.0041169103" flag="0"/>
      <psa30 value="0.0003704882" flag="0"/>
    </comp>
    <comp name="--.HHN">
      <acc value="0.0015014143" flag="0"/>
      <vel value="0.0015408662" flag="0"/>
      <psa03 value="0.0038740496" flag="0"/>
      <psa10 value="0.0025303454" flag="0"/>
      <psa30 value="0.0002058281" flag="0"/>
    </comp>
  </station>
  <station code="YER" name="YER" netid="KO" insttype="CMG-3T" lat="37.1336" lon="28.284">
    <comp name="--.HHE">
      <acc value="0.0070852334" flag="0"/>
      <vel value="0.0039235142" flag="0"/>
      <psa03 value="0.0195684488" flag="0"/>
      <psa10 value="0.0048415648" flag="0"/>
      <psa30 value="0.0004055255" flag="0"/>
    </comp>
    <comp name="--.HHN">
      <acc value="0.0069429072" flag="0"/>
      <vel value="0.0041636730" flag="0"/>
      <psa03 value="0.0192559030" flag="0"/>
      <psa10 value="0.0059461637" flag="0"/>
      <psa30 value="0.0008097287" flag="0"/>
    </comp>
    <comp name="--.HHZ">
      <acc value="0.0042126334" flag="0"/>
      <vel value="0.0020197306" flag="0"/>
      <psa03 value="0.0120511141" flag="0"/>
      <psa10 value="0.0028870624" flag="0"/>
      <psa30 value="0.0003595463" flag="0"/>
    </comp>
  </station>
</stationlist>
