<stationlist created="1778136113">
	<station code="KRL1" name="KRL1" netid="HI" source="ITSAK Strong Motion Network" insttype="" lat="37.7951" lon="26.7065">
		<comp name="--.HNE" depth="0.0">
			<acc value="0.0204012859869329" flag="0"/>
			<vel value="0.0111515071614981" flag="0"/>
			<psa03 value="0.0551223985537108" flag="0"/>
			<psa10 value="0.019038703760207" flag="0"/>
			<psa30 value="0.00326797077139857" flag="0"/>
		</comp>
		<comp name="--.HNN" depth="0.0">
			<acc value="0.0125020443039622" flag="0"/>
			<vel value="0.0149608967244218" flag="0"/>
			<psa03 value="0.0259504798385976" flag="0"/>
			<psa10 value="0.0358787754871921" flag="0"/>
			<psa30 value="0.00336461393769404" flag="0"/>
		</comp>
		<comp name="--.HNZ" depth="0.0">
			<acc value="0.0116945588835684" flag="0"/>
			<vel value="0.00904866455816866" flag="0"/>
			<psa03 value="0.0218789390363349" flag="0"/>
			<psa10 value="0.0163085343123601" flag="0"/>
			<psa30 value="0.00171989042240637" flag="0"/>
		</comp>
	</station>
	<station code="LMN1" name="LMN1" netid="HI" source="ITSAK Strong Motion Network" insttype="" lat="39.875" lon="25.0588">
		<comp name="--.HNE" depth="0.0">
			<acc value="0.0894278469920878" flag="0"/>
			<vel value="0.0456129896778058" flag="0"/>
			<psa03 value="0.193062621557843" flag="0"/>
			<psa10 value="0.0288077171532404" flag="0"/>
			<psa30 value="0.00477667797856669" flag="0"/>
		</comp>
		<comp name="--.HNN" depth="0.0">
			<acc value="0.0790589333068591" flag="0"/>
			<vel value="0.0500756500859722" flag="0"/>
			<psa03 value="0.246529558466677" flag="0"/>
			<psa10 value="0.0556463297932108" flag="0"/>
			<psa30 value="0.00578069309508071" flag="0"/>
		</comp>
		<comp name="--.HNZ" depth="0.0">
			<acc value="0.0521820363386393" flag="0"/>
			<vel value="0.0181243241944288" flag="0"/>
			<psa03 value="0.054988171933856" flag="0"/>
			<psa10 value="0.0148629136165237" flag="0"/>
			<psa30 value="0.00430554254287629" flag="0"/>
		</comp>
	</station>
	<station code="MYT1" name="MYT1" netid="HI" source="ITSAK Strong Motion Network" insttype="" lat="39.085" lon="26.5694">
		<comp name="--.HNE" depth="0.0">
			<acc value="0.178784469922918" flag="0"/>
			<vel value="0.0911891906647464" flag="0"/>
			<psa03 value="0.359906310037378" flag="0"/>
			<psa10 value="0.0849251823821416" flag="0"/>
			<psa30 value="0.0128454875201058" flag="0"/>
		</comp>
		<comp name="--.HNN" depth="0.0">
			<acc value="0.152073114394272" flag="0"/>
			<vel value="0.0805256645871604" flag="0"/>
			<psa03 value="0.405140680928451" flag="0"/>
			<psa10 value="0.0873452883381239" flag="0"/>
			<psa30 value="0.0140387621706151" flag="0"/>
		</comp>
		<comp name="--.HNZ" depth="0.0">
			<acc value="0.120382565566704" flag="0"/>
			<vel value="0.0796362150890813" flag="0"/>
			<psa03 value="0.247334918185806" flag="0"/>
			<psa10 value="0.0831453374028668" flag="0"/>
			<psa30 value="0.00614534207901962" flag="0"/>
		</comp>
	</station>
	<station code="SFL1" name="SFL1" netid="HI" source="ITSAK Strong Motion Network" insttype="" lat="41.189954" lon="26.304374">
		<comp name="--.HNE" depth="0.0">
			<acc value="0.064020797530518" flag="0"/>
			<vel value="0.0493227021247607" flag="0"/>
			<psa03 value="0.1356583704666" flag="0"/>
			<psa10 value="0.0466867029179018" flag="0"/>
			<psa30 value="0.00301294019367442" flag="0"/>
		</comp>
		<comp name="--.HNN" depth="0.0">
			<acc value="0.0516410794137885" flag="0"/>
			<vel value="0.0402238031590901" flag="0"/>
			<psa03 value="0.155613394618349" flag="0"/>
			<psa10 value="0.0424464839966882" flag="0"/>
			<psa30 value="0.00279773017984053" flag="0"/>
		</comp>
		<comp name="--.HNZ" depth="0.0">
			<acc value="0.0248945374137188" flag="0"/>
			<vel value="0.0162211565594799" flag="0"/>
			<psa03 value="0.050379724652174" flag="0"/>
			<psa10 value="0.012334084098459" flag="0"/>
			<psa30 value="0.000919452346005484" flag="0"/>
		</comp>
	</station>
	<station code="SKY1" name="SKY1" netid="HI" source="ITSAK Strong Motion Network" insttype="" lat="38.904483" lon="24.564572">
		<comp name="--.HNE" depth="0.0">
			<acc value="0.0251325464467659" flag="0"/>
			<vel value="0.0179908108120381" flag="0"/>
			<psa03 value="0.0827283400371845" flag="0"/>
			<psa10 value="0.0226829564892652" flag="0"/>
			<psa30 value="0.00160356068519886" flag="0"/>
		</comp>
		<comp name="--.HNN" depth="0.0">
			<acc value="0.0207750995104202" flag="0"/>
			<vel value="0.0168568328686099" flag="0"/>
			<psa03 value="0.0680528962663913" flag="0"/>
			<psa10 value="0.0155676033707615" flag="0"/>
			<psa30 value="0.00172973370786239" flag="0"/>
		</comp>
		<comp name="--.HNZ" depth="0.0">
			<acc value="0.0141714781843642" flag="0"/>
			<vel value="0.0102901766183967" flag="0"/>
			<psa03 value="0.0444290111719439" flag="0"/>
			<psa10 value="0.0165420886309074" flag="0"/>
			<psa30 value="0.0017914779529956" flag="0"/>
		</comp>
	</station>
	<station code="THS1" name="THS1" netid="HI" source="ITSAK Strong Motion Network" insttype="" lat="40.738476" lon="24.575145">
		<comp name="--.HNE" depth="0.0">
			<acc value="0.0110504327618549" flag="0"/>
			<vel value="0.00858080100297324" flag="0"/>
			<psa03 value="0.0327065530379567" flag="0"/>
			<psa10 value="0.0136266864476608" flag="0"/>
			<psa30 value="0.00118656331951657" flag="0"/>
		</comp>
		<comp name="--.HNN" depth="0.0">
			<acc value="0.0191884424510251" flag="0"/>
			<vel value="0.0142404017752087" flag="0"/>
			<psa03 value="0.0465318948830026" flag="0"/>
			<psa10 value="0.0107354450559881" flag="0"/>
			<psa30 value="0.000855470990541356" flag="0"/>
		</comp>
		<comp name="--.HNZ" depth="0.0">
			<acc value="0.00772748983147979" flag="0"/>
			<vel value="0.0061150029679676" flag="0"/>
			<psa03 value="0.0153465768700672" flag="0"/>
			<psa10 value="0.0110736961380223" flag="0"/>
			<psa30 value="0.000937796650718976" flag="0"/>
		</comp>
	</station>
	<station code="EFSA" name="EFSA" netid="HL" source="National Observatory of Athens Seismic Network" insttype="" lat="39.54015" lon="24.98864">
		<comp name="00.HNE" depth="0.0">
			<acc value="0.0409214450715746" flag="0"/>
			<vel value="0.0463630336245355" flag="0"/>
			<psa03 value="0.0669343411009345" flag="0"/>
			<psa10 value="0.0479430640797429" flag="0"/>
			<psa30 value="0.00716367470165149" flag="0"/>
		</comp>
		<comp name="00.HNN" depth="0.0">
			<acc value="0.0243711324879259" flag="0"/>
			<vel value="0.0232954668839696" flag="0"/>
			<psa03 value="0.0593729081824466" flag="0"/>
			<psa10 value="0.0231943599109121" flag="0"/>
			<psa30 value="0.00424558798600781" flag="0"/>
		</comp>
		<comp name="00.HNZ" depth="0.0">
			<acc value="0.0204485581041675" flag="0"/>
			<vel value="0.0169379157902761" flag="0"/>
			<psa03 value="0.0478294188749325" flag="0"/>
			<psa10 value="0.027442632429317" flag="0"/>
			<psa30 value="0.00246171620813731" flag="0"/>
		</comp>
	</station>
	<station code="KYMI" name="KYMI" netid="HL" source="National Observatory of Athens Seismic Network" insttype="" lat="38.633147" lon="24.100138">
		<comp name="--.HNE" depth="1.0">
			<acc value="0.00501225716183147" flag="0"/>
			<vel value="0.00578472634161801" flag="0"/>
			<psa03 value="0.00778514395157929" flag="0"/>
			<psa10 value="0.0149192887968627" flag="0"/>
			<psa30 value="0.00165993586553788" flag="0"/>
		</comp>
		<comp name="--.HNN" depth="1.0">
			<acc value="0.00439705312809248" flag="0"/>
			<vel value="0.00504528094368789" flag="0"/>
			<psa03 value="0.00774040174496101" flag="0"/>
			<psa10 value="0.00883882291743958" flag="0"/>
			<psa30 value="0.00178208208960576" flag="0"/>
		</comp>
		<comp name="--.HNZ" depth="1.0">
			<acc value="0.0028902979683454" flag="0"/>
			<vel value="0.00392674832869755" flag="0"/>
			<psa03 value="0.00653236216626768" flag="0"/>
			<psa10 value="0.00594758152576686" flag="0"/>
			<psa30 value="0.00106620678371342" flag="0"/>
		</comp>
	</station>
	<station code="LIA" name="LIA" netid="HL" source="National Observatory of Athens Seismic Network" insttype="" lat="39.89725" lon="25.18055">
		<comp name="00.HNE" depth="0.0">
			<acc value="0.0493676154482138" flag="0"/>
			<vel value="0.0378933773447479" flag="0"/>
			<psa03 value="0.138387645070315" flag="0"/>
			<psa10 value="0.0477457509485563" flag="0"/>
			<psa30 value="0.00398026670076145" flag="0"/>
		</comp>
		<comp name="00.HNN" depth="0.0">
			<acc value="0.0608021461228778" flag="0"/>
			<vel value="0.0520668837728594" flag="0"/>
			<psa03 value="0.171541620174454" flag="0"/>
			<psa10 value="0.0486880218199371" flag="0"/>
			<psa30 value="0.00894530936919107" flag="0"/>
		</comp>
		<comp name="00.HNZ" depth="0.0">
			<acc value="0.0329687435713943" flag="0"/>
			<vel value="0.0243232151771248" flag="0"/>
			<psa03 value="0.0982986279403431" flag="0"/>
			<psa10 value="0.0396317517783328" flag="0"/>
			<psa30 value="0.00423306016815469" flag="0"/>
		</comp>
	</station>
	<station code="PRK" name="PRK" netid="HL" source="National Observatory of Athens Seismic Network" insttype="" lat="39.24565" lon="26.26499">
		<comp name="--.HNE" depth="0.0">
			<acc value="0.292715652795193" flag="0"/>
			<vel value="0.208539194944716" flag="0"/>
			<psa03 value="0.840482351324235" flag="0"/>
			<psa10 value="0.358191788679766" flag="0"/>
			<psa30 value="0.0145340583978794" flag="0"/>
		</comp>
		<comp name="--.HNN" depth="0.0">
			<acc value="0.613342267062049" flag="0"/>
			<vel value="0.263832477714588" flag="0"/>
			<psa03 value="1.49998247687756" flag="0"/>
			<psa10 value="0.401983223407399" flag="0"/>
			<psa30 value="0.0262046155721894" flag="0"/>
		</comp>
		<comp name="--.HNZ" depth="0.0">
			<acc value="0.313546146861817" flag="0"/>
			<vel value="0.11501017506666" flag="0"/>
			<psa03 value="0.871443958304079" flag="0"/>
			<psa10 value="0.153851893943788" flag="0"/>
			<psa30 value="0.0109153087265936" flag="0"/>
		</comp>
	</station>
	<station code="SMG" name="SMG" netid="HL" source="National Observatory of Athens Seismic Network" insttype="" lat="37.70425" lon="26.83772">
		<comp name="00.HNE" depth="0.0">
			<acc value="0.0239575788285739" flag="0"/>
			<vel value="0.00994855463493043" flag="0"/>
			<psa03 value="0.0449659176513631" flag="0"/>
			<psa10 value="0.0160588727994301" flag="0"/>
			<psa30 value="0.00233017412067959" flag="0"/>
		</comp>
		<comp name="00.HNN" depth="0.0">
			<acc value="0.0187741586210381" flag="0"/>
			<vel value="0.00849535912272606" flag="0"/>
			<psa03 value="0.0359727341210905" flag="0"/>
			<psa10 value="0.00951129828291221" flag="0"/>
			<psa30 value="0.00117358807959727" flag="0"/>
		</comp>
		<comp name="00.HNZ" depth="0.0">
			<acc value="0.00884621754447174" flag="0"/>
			<vel value="0.00515290169967137" flag="0"/>
			<psa03 value="0.0193733754657117" flag="0"/>
			<psa10 value="0.00907640403458261" flag="0"/>
			<psa30 value="0.00119327465050931" flag="0"/>
		</comp>
	</station>
	<station code="LTK" name="LTK" netid="HP" source="University of Patras, Seismological Laboratory (PSLNET)" insttype="" lat="38.0228" lon="22.9673">
		<comp name="--.HNE" depth="0.0">
			<acc value="0.0038970332952224" flag="0"/>
			<vel value="0.00368528471237128" flag="0"/>
			<psa03 value="0.00850101925747163" flag="0"/>
			<psa10 value="0.00826299071826243" flag="0"/>
			<psa30 value="0.000776277284827015" flag="0"/>
		</comp>
		<comp name="--.HNN" depth="0.0">
			<acc value="0.0028160304523487" flag="0"/>
			<vel value="0.00360913123074553" flag="0"/>
			<psa03 value="0.0052348381743378" flag="0"/>
			<psa10 value="0.00449793403133486" flag="0"/>
			<psa30 value="0.000945402825844082" flag="0"/>
		</comp>
		<comp name="--.HNZ" depth="0.0">
			<acc value="0.00167885519022449" flag="0"/>
			<vel value="0.0023141828274078" flag="0"/>
			<psa03 value="0.00398205638902619" flag="0"/>
			<psa10 value="0.00312882250881574" flag="0"/>
			<psa30 value="0.000746747428458955" flag="0"/>
		</comp>
	</station>
	<station code="BIGA" name="BIGA" netid="KO" source="Bogazici University Kandilli Observatory And Earthquake Research Institute (KOERI)" insttype="" lat="40.28134" lon="27.15048">
		<comp name="--.HNE" depth="0.0">
			<acc value="0.126150319947341" flag="0"/>
			<vel value="0.103617727660751" flag="0"/>
			<psa03 value="0.329884289396518" flag="0"/>
			<psa10 value="0.124987801610208" flag="0"/>
			<psa30 value="0.0163112188447571" flag="0"/>
		</comp>
		<comp name="--.HNN" depth="0.0">
			<acc value="0.164665245280708" flag="0"/>
			<vel value="0.0946685052828692" flag="0"/>
			<psa03 value="0.483707995750136" flag="0"/>
			<psa10 value="0.0740689333682842" flag="0"/>
			<psa30 value="0.00986744624759365" flag="0"/>
		</comp>
		<comp name="--.HNZ" depth="0.0">
			<acc value="0.0681746178798406" flag="0"/>
			<vel value="0.0446490248890546" flag="0"/>
			<psa03 value="0.240892040432775" flag="0"/>
			<psa10 value="0.073424645592981" flag="0"/>
			<psa30 value="0.00714846235140128" flag="0"/>
		</comp>
	</station>
	<station code="ENZZ" name="ENZZ" netid="KO" source="Bogazici University Kandilli Observatory And Earthquake Research Institute (KOERI)" insttype="" lat="40.607" lon="26.1406">
		<comp name="--.HNE" depth="0.0">
			<acc value="0.395293695381639" flag="0"/>
			<vel value="0.314676123692875" flag="0"/>
			<psa03 value="0.74093094159858" flag="0"/>
			<psa10 value="0.368669518625633" flag="0"/>
			<psa30 value="0.0342523962766179" flag="0"/>
		</comp>
		<comp name="--.HNN" depth="0.0">
			<acc value="0.326349483609414" flag="0"/>
			<vel value="0.221288685582816" flag="0"/>
			<psa03 value="0.562722732638004" flag="0"/>
			<psa10 value="0.412694507671813" flag="0"/>
			<psa30 value="0.0367566175810426" flag="0"/>
		</comp>
		<comp name="--.HNZ" depth="0.0">
			<acc value="0.115312132365906" flag="0"/>
			<vel value="0.0847886983110026" flag="0"/>
			<psa03 value="0.3163721429978" flag="0"/>
			<psa10 value="0.0957814313959991" flag="0"/>
			<psa30 value="0.0203845493352846" flag="0"/>
		</comp>
	</station>
	<station code="EZNE" name="EZNE" netid="KO" source="Bogazici University Kandilli Observatory And Earthquake Research Institute (KOERI)" insttype="" lat="39.756" lon="26.3655">
		<comp name="--.HNE" depth="0.0">
			<acc value="0.907181321441993" flag="0"/>
			<vel value="0.464430694411301" flag="0"/>
			<psa03 value="2.3796590011994" flag="0"/>
			<psa10 value="0.412464980151862" flag="0"/>
			<psa30 value="0.0234668399492174" flag="0"/>
		</comp>
		<comp name="--.HNN" depth="0.0">
			<acc value="1.39872809383143" flag="0"/>
			<vel value="0.910392642217775" flag="0"/>
			<psa03 value="2.4971967779856" flag="0"/>
			<psa10 value="1.04023885441424" flag="0"/>
			<psa30 value="0.0798863150727918" flag="0"/>
		</comp>
		<comp name="--.HNZ" depth="0.0">
			<acc value="0.519293237572974" flag="0"/>
			<vel value="0.297056505399224" flag="0"/>
			<psa03 value="1.24249107778941" flag="0"/>
			<psa10 value="0.298349534749894" flag="0"/>
			<psa30 value="0.0291535744103997" flag="0"/>
		</comp>
	</station>
	<station code="GONE" name="GONE" netid="KO" source="Bogazici University Kandilli Observatory And Earthquake Research Institute (KOERI)" insttype="" lat="40.0466" lon="27.686">
		<comp name="--.HNE" depth="0.0">
			<acc value="0.0783888466069524" flag="0"/>
			<vel value="0.0819097860286133" flag="0"/>
			<psa03 value="0.165993586553788" flag="0"/>
			<psa10 value="0.138485630502809" flag="0"/>
			<psa30 value="0.013235192139751" flag="0"/>
		</comp>
		<comp name="--.HNN" depth="0.0">
			<acc value="0.119791554909762" flag="0"/>
			<vel value="0.147956255873407" flag="0"/>
			<psa03 value="0.320935848072863" flag="0"/>
			<psa10 value="0.202185557487308" flag="0"/>
			<psa30 value="0.0182727171829022" flag="0"/>
		</comp>
		<comp name="--.HNZ" depth="0.0">
			<acc value="0.0442646873163953" flag="0"/>
			<vel value="0.0499938315180787" flag="0"/>
			<psa03 value="0.109707890628002" flag="0"/>
			<psa10 value="0.0873452883381239" flag="0"/>
			<psa30 value="0.00968534546665729" flag="0"/>
		</comp>
	</station>
	<station code="GORD" name="GORD" netid="KO" source="Bogazici University Kandilli Observatory And Earthquake Research Institute (KOERI)" insttype="" lat="38.9088" lon="28.1769">
		<comp name="--.HNE" depth="0.0">
			<acc value="0.0347047436448032" flag="0"/>
			<vel value="0.0418017621194502" flag="0"/>
			<psa03 value="0.0720796948620358" flag="0"/>
			<psa10 value="0.141131237180147" flag="0"/>
			<psa30 value="0.0105184453538895" flag="0"/>
		</comp>
		<comp name="--.HNN" depth="0.0">
			<acc value="0.0293935476715065" flag="0"/>
			<vel value="0.0443659955643993" flag="0"/>
			<psa03 value="0.0706032020436328" flag="0"/>
			<psa10 value="0.106460501271648" flag="0"/>
			<psa30 value="0.00776366769240251" flag="0"/>
		</comp>
		<comp name="--.HNZ" depth="0.0">
			<acc value="0.0219840609866829" flag="0"/>
			<vel value="0.0289246466557144" flag="0"/>
			<psa03 value="0.0459502461969651" flag="0"/>
			<psa10 value="0.0504759203964033" flag="0"/>
			<psa30 value="0.00856768514533286" flag="0"/>
		</comp>
	</station>
	<station code="ODEM" name="ODEM" netid="KO" source="Bogazici University Kandilli Observatory And Earthquake Research Institute (KOERI)" insttype="" lat="38.2762" lon="28.0747">
		<comp name="--.HNE" depth="0.0">
			<acc value="0.0237070833222432" flag="0"/>
			<vel value="0.0241566706022873" flag="0"/>
			<psa03 value="0.0887237957240329" flag="0"/>
			<psa10 value="0.0354922028220103" flag="0"/>
			<psa30 value="0.00845761931705191" flag="0"/>
		</comp>
		<comp name="--.HNN" depth="0.0">
			<acc value="0.0277353366315307" flag="0"/>
			<vel value="0.0379480152245417" flag="0"/>
			<psa03 value="0.0910951326748013" flag="0"/>
			<psa10 value="0.0521389882164044" flag="0"/>
			<psa30 value="0.015931357510568" flag="0"/>
		</comp>
		<comp name="--.HNZ" depth="0.0">
			<acc value="0.0202710881548224" flag="0"/>
			<vel value="0.0224503670945958" flag="0"/>
			<psa03 value="0.0427735495270678" flag="0"/>
			<psa10 value="0.0272533728953217" flag="0"/>
			<psa30 value="0.00677933914680053" flag="0"/>
		</comp>
	</station>
	<station code="SOMA" name="SOMA" netid="KO" source="Bogazici University Kandilli Observatory And Earthquake Research Institute (KOERI)" insttype="" lat="39.1564" lon="27.5341">
		<comp name="--.HNE" depth="0.0">
			<acc value="0.0739945784736869" flag="0"/>
			<vel value="0.0731140871130979" flag="0"/>
			<psa03 value="0.188677885309252" flag="0"/>
			<psa10 value="0.159284045249312" flag="0"/>
			<psa30 value="0.0127305000490969" flag="0"/>
		</comp>
		<comp name="--.HNN" depth="0.0">
			<acc value="0.0786174890600132" flag="0"/>
			<vel value="0.0586567821088544" flag="0"/>
			<psa03 value="0.239102352168044" flag="0"/>
			<psa10 value="0.105260515290146" flag="0"/>
			<psa30 value="0.00919273377179011" flag="0"/>
		</comp>
		<comp name="--.HNZ" depth="0.0">
			<acc value="0.0769985296850665" flag="0"/>
			<vel value="0.0504137431882334" flag="0"/>
			<psa03 value="0.134718784127616" flag="0"/>
			<psa10 value="0.0810433485359404" flag="0"/>
			<psa30 value="0.0082222753102398" flag="0"/>
		</comp>
	</station>
	<station code="SUSR" name="SUSR" netid="KO" source="Bogazici University Kandilli Observatory And Earthquake Research Institute (KOERI)" insttype="" lat="39.9627" lon="28.0835">
		<comp name="--.HNE" depth="0.0">
			<acc value="0.066601314683212" flag="0"/>
			<vel value="0.0428519672940669" flag="0"/>
			<psa03 value="0.234449162679744" flag="0"/>
			<psa10 value="0.0755105272655249" flag="0"/>
			<psa30 value="0.00924150277700403" flag="0"/>
		</comp>
		<comp name="--.HNN" depth="0.0">
			<acc value="0.0894219025531556" flag="0"/>
			<vel value="0.058967106898611" flag="0"/>
			<psa03 value="0.307378959467527" flag="0"/>
			<psa10 value="0.0423095728444363" flag="0"/>
			<psa30 value="0.00773369041396827" flag="0"/>
		</comp>
		<comp name="--.HNZ" depth="0.0">
			<acc value="0.0595059171453193" flag="0"/>
			<vel value="0.043568108837154" flag="0"/>
