<?xml version="1.0" encoding="UTF-8" standalone="yes"?>
<!DOCTYPE earthquake SYSTEM "stationlist.dtd">
<stationlist created="" xmlns="ch.ethz.sed.shakemap.usgs.xml">
  <station code="LMN1" name="LMN1" netid="HI" insttype="CMG-5TD,ACCELEROMETER,GURALP" lat="39.875" lon="25.0588">
    <comp name="--.HNZ">
      <acc value="0.0519752152" flag="0"/>
      <vel value="0.0173426084" flag="0"/>
      <psa03 value="0.0536947599" flag="0"/>
      <psa10 value="0.0147408923" flag="0"/>
      <psa30 value="0.0037584273" flag="0"/>
    </comp>
    <comp name="--.HNN">
      <acc value="0.0788226254" flag="0"/>
      <vel value="0.0488137998" flag="0"/>
      <psa03 value="0.2489402145" flag="0"/>
      <psa10 value="0.0557496975" flag="0"/>
      <psa30 value="0.0049677039" flag="0"/>
    </comp>
    <comp name="--.HNE">
      <acc value="0.0897322757" flag="0"/>
      <vel value="0.0437040869" flag="0"/>
      <psa03 value="0.1945924166" flag="0"/>
      <psa10 value="0.0290404244" flag="0"/>
      <psa30 value="0.0038950748" flag="0"/>
    </comp>
  </station>
  <station code="MYT1" name="MYT1" netid="HI" insttype="CMG-5TD,ACCELEROMETER,GURALP" lat="39.085" lon="26.5694">
    <comp name="--.HNN">
      <acc value="0.1529775436" flag="0"/>
      <vel value="0.0791835528" flag="0"/>
      <psa03 value="0.4057099827" flag="0"/>
      <psa10 value="0.0874875019" flag="0"/>
      <psa30 value="0.0116448554" flag="0"/>
    </comp>
    <comp name="--.HNZ">
      <acc value="0.1216314254" flag="0"/>
      <vel value="0.0793164921" flag="0"/>
      <psa03 value="0.2461046139" flag="0"/>
      <psa10 value="0.0829464009" flag="0"/>
      <psa30 value="0.0055255655" flag="0"/>
    </comp>
    <comp name="--.HNE">
      <acc value="0.1777408201" flag="0"/>
      <vel value="0.0903960339" flag="0"/>
      <psa03 value="0.3520382848" flag="0"/>
      <psa10 value="0.0844512816" flag="0"/>
      <psa30 value="0.0112357426" flag="0"/>
    </comp>
  </station>
  <station code="SKY1" name="SKY1" netid="HI" insttype="CMG-5TD,ACCELEROMETER,GURALP" lat="38.9045" lon="24.5646">
    <comp name="--.HNN">
      <acc value="0.0208216776" flag="0"/>
      <vel value="0.0171797686" flag="0"/>
      <psa03 value="0.0666481338" flag="0"/>
      <psa10 value="0.0154934316" flag="0"/>
      <psa30 value="0.0015704545" flag="0"/>
    </comp>
    <comp name="--.HNZ">
      <acc value="0.0044621431" flag="0"/>
      <vel value="0.0030821694" flag="0"/>
      <psa03 value="0.0168485040" flag="0"/>
      <psa10 value="0.0023640655" flag="0"/>
      <psa30 value="0.0002864787" flag="0"/>
    </comp>
    <comp name="--.HNE">
      <acc value="0.0252183096" flag="0"/>
      <vel value="0.0180362976" flag="0"/>
      <psa03 value="0.0838348994" flag="0"/>
      <psa10 value="0.0227638361" flag="0"/>
      <psa30 value="0.0016148822" flag="0"/>
    </comp>
  </station>
  <station code="EFSA" name="EFSA" netid="HL" insttype="CMG-5" lat="39.5401" lon="24.9886">
    <comp name="00.HNE">
      <acc value="0.0411486942" flag="0"/>
      <vel value="0.0450064033" flag="0"/>
      <psa03 value="0.0666603335" flag="0"/>
      <psa10 value="0.0478296964" flag="0"/>
      <psa30 value="0.0062668145" flag="0"/>
    </comp>
    <comp name="00.HNN">
      <acc value="0.0243379399" flag="0"/>
      <vel value="0.0225930145" flag="0"/>
      <psa03 value="0.0591907596" flag="0"/>
      <psa10 value="0.0231809432" flag="0"/>
      <psa30 value="0.0040176452" flag="0"/>
    </comp>
    <comp name="00.HNZ">
      <acc value="0.0204669750" flag="0"/>
      <vel value="0.0166835785" flag="0"/>
      <psa03 value="0.0476158909" flag="0"/>
      <psa10 value="0.0274366312" flag="0"/>
      <psa30 value="0.0022645676" flag="0"/>
    </comp>
  </station>
  <station code="LIA" name="LIA" netid="HL" insttype="P6C" lat="39.8972" lon="25.1806">
    <comp name="--.HHE">
      <acc value="0.0546513741" flag="0"/>
      <vel value="0.0376921586" flag="0"/>
      <psa03 value="0.1588100704" flag="0"/>
      <psa10 value="0.0464050100" flag="0"/>
      <psa30 value="0.0045293413" flag="0"/>
    </comp>
    <comp name="--.HHN">
      <acc value="0.0633058750" flag="0"/>
      <vel value="0.0480234258" flag="0"/>
      <psa03 value="0.1396919709" flag="0"/>
      <psa10 value="0.0438120406" flag="0"/>
      <psa30 value="0.0076886726" flag="0"/>
    </comp>
    <comp name="--.HHZ">
      <acc value="0.0336751107" flag="0"/>
      <vel value="0.0264569481" flag="0"/>
      <psa03 value="0.1005591082" flag="0"/>
      <psa10 value="0.0399885956" flag="0"/>
      <psa30 value="0.0038473923" flag="0"/>
    </comp>
  </station>
  <station code="PRK" name="PRK" netid="HL" insttype="120" lat="39.2456" lon="26.265">
    <comp name="--.HHE">
      <acc value="0.3509384596" flag="0"/>
      <vel value="0.2458492767" flag="0"/>
      <psa03 value="1.1234293702" flag="0"/>
      <psa10 value="0.4117110491" flag="0"/>
      <psa30 value="0.0156454099" flag="0"/>
    </comp>
    <comp name="--.HHN">
      <acc value="0.4995040720" flag="0"/>
      <vel value="0.2121851266" flag="0"/>
      <psa03 value="1.1530896529" flag="0"/>
      <psa10 value="0.3099337561" flag="0"/>
      <psa30 value="0.0183625825" flag="0"/>
    </comp>
    <comp name="--.HHZ">
      <acc value="0.3136791940" flag="0"/>
      <vel value="0.1146212936" flag="0"/>
      <psa03 value="0.8738498891" flag="0"/>
      <psa10 value="0.1515846029" flag="0"/>
      <psa30 value="0.0086102058" flag="0"/>
    </comp>
  </station>
  <station code="SKY" name="SKY" netid="HL" insttype="120" lat="38.8831" lon="24.5482">
    <comp name="--.HHE">
      <acc value="0.0386126824" flag="0"/>
      <vel value="0.0213452533" flag="0"/>
      <psa03 value="0.0670566295" flag="0"/>
      <psa10 value="0.0111144662" flag="0"/>
      <psa30 value="0.0014642064" flag="0"/>
    </comp>
    <comp name="--.HHN">
      <acc value="0.0336836279" flag="0"/>
      <vel value="0.0122980136" flag="0"/>
      <psa03 value="0.0847941603" flag="0"/>
      <psa10 value="0.0231083189" flag="0"/>
      <psa30 value="0.0015623783" flag="0"/>
    </comp>
    <comp name="--.HHZ">
      <acc value="0.0117038213" flag="0"/>
      <vel value="0.0072420736" flag="0"/>
      <psa03 value="0.0236925928" flag="0"/>
      <psa10 value="0.0090364192" flag="0"/>
      <psa30 value="0.0014824255" flag="0"/>
    </comp>
  </station>
  <station code="CHOS" name="CHOS" netid="HT" insttype="100" lat="38.3869" lon="26.0506">
    <comp name="--.HHE">
      <acc value="0.2992858026" flag="0"/>
      <vel value="0.0849784858" flag="0"/>
      <psa03 value="0.2984771105" flag="0"/>
      <psa10 value="0.0580639674" flag="0"/>
      <psa30 value="0.0042610079" flag="0"/>
    </comp>
    <comp name="--.HHN">
      <acc value="0.1902394895" flag="0"/>
      <vel value="0.0502552241" flag="0"/>
      <psa03 value="0.1667120820" flag="0"/>
      <psa10 value="0.0460818641" flag="0"/>
      <psa30 value="0.0041123265" flag="0"/>
    </comp>
    <comp name="--.HHZ">
      <acc value="0.0960589420" flag="0"/>
      <vel value="0.0297390652" flag="0"/>
      <psa03 value="0.1051522452" flag="0"/>
      <psa10 value="0.0303706907" flag="0"/>
      <psa30 value="0.0039987615" flag="0"/>
    </comp>
  </station>
  <station code="EZN" name="EZN" netid="KO" insttype="120s," lat="39.8255" lon="26.3247">
    <comp name="--.HHN">
      <acc value="0.1087463589" flag="0"/>
      <vel value="0.1102838289" flag="0"/>
      <psa03 value="0.2261035454" flag="0"/>
      <psa10 value="0.1601355835" flag="0"/>
      <psa30 value="0.0110989745" flag="0"/>
    </comp>
    <comp name="--.HHZ">
      <acc value="0.0690262804" flag="0"/>
      <vel value="0.0505307564" flag="0"/>
      <psa03 value="0.1541439224" flag="0"/>
      <psa10 value="0.0773891406" flag="0"/>
      <psa30 value="0.0059942799" flag="0"/>
    </comp>
  </station>
</stationlist>
