<?xml version="1.0" encoding="UTF-8" standalone="yes"?>
<!DOCTYPE earthquake SYSTEM "stationlist.dtd">
<stationlist created="" xmlns="ch.ethz.sed.shakemap.usgs.xml">
  <station code="BALB" name="BALB" netid="KO" insttype="CMG-5T" commtype="DIG" lat="39.6507" lon="27.8642">
    <comp name="--.HNN">
      <acc value="0.0741234278" flag="0"/>
      <vel value="0.0216005896" flag="0"/>
      <psa03 value="0.0915199698" flag="0"/>
      <psa10 value="0.0094633204" flag="0"/>
      <psa30 value="0.0009329920" flag="0"/>
    </comp>
    <comp name="--.HNE">
      <acc value="0.0637428743" flag="0"/>
      <vel value="0.0187617926" flag="0"/>
      <psa03 value="0.0777856664" flag="0"/>
      <psa10 value="0.0152456450" flag="0"/>
      <psa30 value="0.0009584752" flag="0"/>
    </comp>
    <comp name="--.HNZ">
      <acc value="0.0482609042" flag="0"/>
      <vel value="0.0107387199" flag="0"/>
      <psa03 value="0.0390954201" flag="0"/>
      <psa10 value="0.0062836535" flag="0"/>
      <psa30 value="0.0005549294" flag="0"/>
    </comp>
  </station>
  <station code="YENI" name="YENI" netid="KO" insttype="CMG-5T" commtype="DIG" lat="39.9364" lon="27.2422">
    <comp name="--.HNE">
      <acc value="0.0446082323" flag="0"/>
      <vel value="0.0128057342" flag="0"/>
      <psa03 value="0.0376108100" flag="0"/>
      <psa10 value="0.0044101068" flag="0"/>
      <psa30 value="0.0005805473" flag="0"/>
    </comp>
    <comp name="--.HNZ">
      <acc value="0.0191901214" flag="0"/>
      <vel value="0.0051714803" flag="0"/>
      <psa03 value="0.0251313729" flag="0"/>
      <psa10 value="0.0017752759" flag="0"/>
      <psa30 value="0.0002906546" flag="0"/>
    </comp>
    <comp name="--.HNN">
      <acc value="0.0957233301" flag="0"/>
      <vel value="0.0254494458" flag="0"/>
      <psa03 value="0.0619613554" flag="0"/>
      <psa10 value="0.0059662324" flag="0"/>
      <psa30 value="0.0006524338" flag="0"/>
    </comp>
  </station>
</stationlist>
