<?xml version="1.0" encoding="UTF-8" standalone="yes"?>
<!DOCTYPE earthquake SYSTEM "stationlist.dtd">
<stationlist created="" xmlns="ch.ethz.sed.shakemap.usgs.xml">
  <station code="APE" name="APE" netid="GE" insttype="STS-2/N" commtype="DIG" lat="37.0727" lon="25.523">
    <comp name="--.HHE">
      <acc value="0.1718552981" flag="0"/>
      <vel value="0.0429058483" flag="0"/>
      <psa03 value="0.2764215471" flag="0"/>
      <psa10 value="0.0089303714" flag="0"/>
      <psa30 value="0.0009658764" flag="0"/>
    </comp>
    <comp name="--.HHZ">
      <acc value="0.1093646047" flag="0"/>
      <vel value="0.0290949729" flag="0"/>
      <psa03 value="0.1585215572" flag="0"/>
      <psa10 value="0.0087770786" flag="0"/>
      <psa30 value="0.0006415007" flag="0"/>
    </comp>
    <comp name="--.HHN">
      <acc value="0.1929183694" flag="0"/>
      <vel value="0.0557886622" flag="0"/>
      <psa03 value="0.2761606830" flag="0"/>
      <psa10 value="0.0121637435" flag="0"/>
      <psa30 value="0.0010987501" flag="0"/>
    </comp>
  </station>
</stationlist>
