<?xml version="1.0" encoding="UTF-8" standalone="yes"?>
<!DOCTYPE earthquake SYSTEM "stationlist.dtd">
<stationlist created="" xmlns="ch.ethz.sed.shakemap.usgs.xml">
  <station code="APE" name="APE" netid="GE" insttype="STS-2/N" commtype="DIG" lat="37.0727" lon="25.523">
    <comp name="--.HHN">
      <acc value="0.1929183704" flag="0"/>
      <vel value="0.0557886622" flag="0"/>
      <psa03 value="0.2761606830" flag="0"/>
      <psa10 value="0.0121637436" flag="0"/>
      <psa30 value="0.0010987578" flag="0"/>
    </comp>
    <comp name="--.HHZ">
      <acc value="0.1093646052" flag="0"/>
      <vel value="0.0290949728" flag="0"/>
      <psa03 value="0.1585215572" flag="0"/>
      <psa10 value="0.0087770785" flag="0"/>
      <psa30 value="0.0006414888" flag="0"/>
    </comp>
    <comp name="--.HHE">
      <acc value="0.1718552974" flag="0"/>
      <vel value="0.0429058482" flag="0"/>
      <psa03 value="0.2764215471" flag="0"/>
      <psa10 value="0.0089303714" flag="0"/>
      <psa30 value="0.0009658921" flag="0"/>
    </comp>
  </station>
  <station code="IOSI" name="IOSI" netid="HA" insttype="60s," commtype="DIG" lat="36.7225" lon="25.2887">
    <comp name="--.HHE">
      <acc value="0.0960721408" flag="0"/>
      <vel value="0.0228832241" flag="0"/>
      <psa03 value="0.0994761400" flag="0"/>
      <psa10 value="0.0069835102" flag="0"/>
      <psa30 value="0.0004473154" flag="0"/>
    </comp>
    <comp name="--.HHZ">
      <acc value="0.0804878660" flag="0"/>
      <vel value="0.0150000339" flag="0"/>
      <psa03 value="0.0762695135" flag="0"/>
      <psa10 value="0.0050059388" flag="0"/>
      <psa30 value="0.0004947213" flag="0"/>
    </comp>
    <comp name="--.HHN">
      <acc value="0.0916454715" flag="0"/>
      <vel value="0.0227590098" flag="0"/>
      <psa03 value="0.1720769211" flag="0"/>
      <psa10 value="0.0079793888" flag="0"/>
      <psa30 value="0.0007160528" flag="0"/>
    </comp>
  </station>
  <station code="SNT1" name="SNT1" netid="HA" insttype="30" commtype="DIG" lat="36.4159" lon="25.4282">
    <comp name="--.HHN">
      <acc value="0.0395746909" flag="0"/>
      <vel value="0.0106131500" flag="0"/>
      <psa03 value="0.0372197627" flag="0"/>
      <psa10 value="0.0104563041" flag="0"/>
      <psa30 value="0.0008292629" flag="0"/>
    </comp>
    <comp name="--.HHE">
      <acc value="0.0308546943" flag="0"/>
      <vel value="0.0116913056" flag="0"/>
      <psa03 value="0.0373383577" flag="0"/>
      <psa10 value="0.0142093024" flag="0"/>
      <psa30 value="0.0010231753" flag="0"/>
    </comp>
    <comp name="--.HHZ">
      <acc value="0.0399398655" flag="0"/>
      <vel value="0.0090236680" flag="0"/>
      <psa03 value="0.0415738122" flag="0"/>
      <psa10 value="0.0062328405" flag="0"/>
      <psa30 value="0.0003901948" flag="0"/>
    </comp>
  </station>
  <station code="SNT5" name="SNT5" netid="HA" insttype="1s-100Hz," commtype="DIG" lat="36.4037" lon="25.3953">
    <comp name="--.HHN">
      <acc value="0.1169583007" flag="0"/>
      <vel value="0.0194474512" flag="0"/>
      <psa03 value="0.1007211300" flag="0"/>
      <psa10 value="0.0059080918" flag="0"/>
      <psa30 value="0.0008505567" flag="0"/>
    </comp>
    <comp name="--.HHE">
      <acc value="0.2176447918" flag="0"/>
      <vel value="0.0298341050" flag="0"/>
      <psa03 value="0.1093814805" flag="0"/>
      <psa10 value="0.0115758511" flag="0"/>
      <psa30 value="0.0011215130" flag="0"/>
    </comp>
    <comp name="--.HHZ">
      <acc value="0.0981562106" flag="0"/>
      <vel value="0.0144849817" flag="0"/>
      <psa03 value="0.0432679441" flag="0"/>
      <psa10 value="0.0044237123" flag="0"/>
      <psa30 value="0.0003654148" flag="0"/>
    </comp>
  </station>
  <station code="NAX1" name="NAX1" netid="HI" insttype="CMG-5TD,ACCELEROMETER,GURALP" commtype="DIG" lat="37.1014" lon="25.3741">
    <comp name="--.HNE">
      <acc value="0.0621513623" flag="0"/>
      <vel value="0.0184848479" flag="0"/>
      <psa03 value="0.1034041246" flag="0"/>
      <psa10 value="0.0066950405" flag="0"/>
      <psa30 value="0.0006517974" flag="0"/>
    </comp>
    <comp name="--.HNN">
      <acc value="0.0820623328" flag="0"/>
      <vel value="0.0190064185" flag="0"/>
      <psa03 value="0.0636666128" flag="0"/>
      <psa10 value="0.0104813128" flag="0"/>
      <psa30 value="0.0006989518" flag="0"/>
    </comp>
    <comp name="--.HNZ">
      <acc value="0.0494258862" flag="0"/>
      <vel value="0.0155868011" flag="0"/>
      <psa03 value="0.0602991951" flag="0"/>
      <psa10 value="0.0078071114" flag="0"/>
      <psa30 value="0.0005944043" flag="0"/>
    </comp>
  </station>
  <station code="AMGA" name="AMGA" netid="HL" insttype="LE3D20_SMART24" commtype="DIG" lat="36.8316" lon="25.8938">
    <comp name="--.HHE">
      <acc value="1.8775386000" flag="0"/>
      <vel value="0.3831825334" flag="0"/>
      <psa03 value="1.0422906544" flag="0"/>
      <psa10 value="0.1457324733" flag="0"/>
      <psa30 value="0.0128958788" flag="0"/>
    </comp>
    <comp name="--.HHZ">
      <acc value="1.2310745189" flag="0"/>
      <vel value="0.2911038212" flag="0"/>
      <psa03 value="1.3313907042" flag="0"/>
      <psa10 value="0.0518157780" flag="0"/>
      <psa30 value="0.0055899923" flag="0"/>
    </comp>
    <comp name="--.HHN">
      <acc value="1.4844359001" flag="0"/>
      <vel value="0.2361840311" flag="0"/>
      <psa03 value="0.7277981234" flag="0"/>
      <psa10 value="0.0646952803" flag="0"/>
      <psa30 value="0.0047907264" flag="0"/>
    </comp>
  </station>
  <station code="APE" name="APE" netid="HL" insttype="120" commtype="DIG" lat="37.0727" lon="25.523">
    <comp name="--.HHE">
      <acc value="0.1669184233" flag="0"/>
      <vel value="0.0414708920" flag="0"/>
      <psa03 value="0.2672020991" flag="0"/>
      <psa10 value="0.0087988847" flag="0"/>
      <psa30 value="0.0009434093" flag="0"/>
    </comp>
    <comp name="--.HHZ">
      <acc value="0.0996608314" flag="0"/>
      <vel value="0.0280174249" flag="0"/>
      <psa03 value="0.1539223814" flag="0"/>
      <psa10 value="0.0085958457" flag="0"/>
      <psa30 value="0.0006246975" flag="0"/>
    </comp>
    <comp name="--.HHN">
      <acc value="0.1797235338" flag="0"/>
      <vel value="0.0530520109" flag="0"/>
      <psa03 value="0.2693781368" flag="0"/>
      <psa10 value="0.0118875534" flag="0"/>
      <psa30 value="0.0010798016" flag="0"/>
    </comp>
  </station>
  <station code="ASTA" name="ASTA" netid="HL" insttype="LE3D20_SMART24" commtype="DIG" lat="36.5475" lon="26.3471">
    <comp name="--.HHE">
      <acc value="0.0910553976" flag="0"/>
      <vel value="0.0225870352" flag="0"/>
      <psa03 value="0.1019908849" flag="0"/>
      <psa10 value="0.0096720004" flag="0"/>
      <psa30 value="0.0005262769" flag="0"/>
    </comp>
    <comp name="--.HHZ">
      <acc value="0.0508857294" flag="0"/>
      <vel value="0.0117498354" flag="0"/>
      <psa03 value="0.0597630075" flag="0"/>
      <psa10 value="0.0044915524" flag="0"/>
      <psa30 value="0.0004557820" flag="0"/>
    </comp>
    <comp name="--.HHN">
      <acc value="0.0834966527" flag="0"/>
      <vel value="0.0192493148" flag="0"/>
      <psa03 value="0.1122313185" flag="0"/>
      <psa10 value="0.0083858792" flag="0"/>
      <psa30 value="0.0006988503" flag="0"/>
    </comp>
  </station>
  <station code="DILO" name="DILO" netid="HL" insttype="120s," commtype="DIG" lat="37.4011" lon="25.2692">
    <comp name="00.HHN">
      <acc value="0.0506337353" flag="0"/>
      <vel value="0.0124519917" flag="0"/>
      <psa03 value="0.0493218278" flag="0"/>
      <psa10 value="0.0058591128" flag="0"/>
      <psa30 value="0.0004546815" flag="0"/>
    </comp>
    <comp name="00.HHZ">
      <acc value="0.0477568339" flag="0"/>
      <vel value="0.0145393829" flag="0"/>
      <psa03 value="0.0667867013" flag="0"/>
      <psa10 value="0.0067255933" flag="0"/>
      <psa30 value="0.0005241064" flag="0"/>
    </comp>
    <comp name="00.HHE">
      <acc value="0.0567804925" flag="0"/>
      <vel value="0.0106981766" flag="0"/>
      <psa03 value="0.0462730422" flag="0"/>
      <psa10 value="0.0041766747" flag="0"/>
      <psa30 value="0.0003482393" flag="0"/>
    </comp>
  </station>
  <station code="SANT" name="SANT" netid="HL" insttype="30" commtype="DIG" lat="36.3705" lon="25.4593">
    <comp name="--.HHN">
      <acc value="0.1733652150" flag="0"/>
      <vel value="0.0180425360" flag="0"/>
      <psa03 value="0.0452789712" flag="0"/>
      <psa10 value="0.0050291846" flag="0"/>
      <psa30 value="0.0004772469" flag="0"/>
    </comp>
    <comp name="--.HHE">
      <acc value="0.1759774253" flag="0"/>
      <vel value="0.0292030689" flag="0"/>
      <psa03 value="0.1066179853" flag="0"/>
      <psa10 value="0.0093309922" flag="0"/>
      <psa30 value="0.0006138249" flag="0"/>
    </comp>
    <comp name="--.HHZ">
      <acc value="0.1419110544" flag="0"/>
      <vel value="0.0185379292" flag="0"/>
      <psa03 value="0.0854120842" flag="0"/>
      <psa10 value="0.0050170222" flag="0"/>
      <psa30 value="0.0003604199" flag="0"/>
    </comp>
  </station>
  <station code="SAP3" name="SAP3" netid="HL" insttype="65535" commtype="DIG" lat="36.4356" lon="25.3454">
    <comp name="--.HHN">
      <acc value="0.0394585699" flag="0"/>
      <vel value="0.0114948443" flag="0"/>
      <psa03 value="0.1160093843" flag="0"/>
      <psa10 value="0.0086680217" flag="0"/>
      <psa30 value="0.0006971541" flag="0"/>
    </comp>
    <comp name="--.HHE">
      <acc value="0.0354255176" flag="0"/>
      <vel value="0.0138006851" flag="0"/>
      <psa03 value="0.0947005505" flag="0"/>
      <psa10 value="0.0102172289" flag="0"/>
      <psa30 value="0.0011577834" flag="0"/>
    </comp>
    <comp name="--.HHZ">
      <acc value="0.0571820766" flag="0"/>
      <vel value="0.0116954879" flag="0"/>
      <psa03 value="0.0590398107" flag="0"/>
      <psa10 value="0.0056639092" flag="0"/>
      <psa30 value="0.0005401560" flag="0"/>
    </comp>
  </station>
  <station code="AKRO" name="AKRO" netid="HT" insttype="Compact," commtype="DIG" lat="36.3584" lon="25.3967">
    <comp name="--.HHN">
      <acc value="0.1543419521" flag="0"/>
      <vel value="0.0358367507" flag="0"/>
      <psa03 value="0.1649615079" flag="0"/>
      <psa10 value="0.0223859262" flag="0"/>
      <psa30 value="0.0011074079" flag="0"/>
    </comp>
    <comp name="--.HHZ">
      <acc value="0.1204281353" flag="0"/>
      <vel value="0.0167442893" flag="0"/>
      <psa03 value="0.0715987693" flag="0"/>
      <psa10 value="0.0109056208" flag="0"/>
      <psa30 value="0.0006310436" flag="0"/>
    </comp>
    <comp name="--.HHE">
      <acc value="0.1821936584" flag="0"/>
      <vel value="0.0421261710" flag="0"/>
      <psa03 value="0.2451211197" flag="0"/>
      <psa10 value="0.0164791572" flag="0"/>
      <psa30 value="0.0013008071" flag="0"/>
    </comp>
  </station>
  <station code="GVRL" name="GVRL" netid="HT" insttype="" commtype="DIG" lat="36.3456" lon="25.4383">
    <comp name="--.HHE">
      <acc value="0.0440724817" flag="0"/>
      <vel value="0.0146192463" flag="0"/>
      <psa03 value="0.0688502671" flag="0"/>
      <psa10 value="0.0122168374" flag="0"/>
      <psa30 value="0.0005123149" flag="0"/>
    </comp>
    <comp name="--.HHZ">
      <acc value="0.0251954088" flag="0"/>
      <vel value="0.0058879322" flag="0"/>
      <psa03 value="0.0257485145" flag="0"/>
      <psa10 value="0.0020760864" flag="0"/>
      <psa30 value="0.0003140515" flag="0"/>
    </comp>
    <comp name="--.HHN">
      <acc value="0.0306879172" flag="0"/>
      <vel value="0.0065227910" flag="0"/>
      <psa03 value="0.0334256375" flag="0"/>
      <psa10 value="0.0067924890" flag="0"/>
      <psa30 value="0.0004268257" flag="0"/>
    </comp>
  </station>
  <station code="THR3" name="THR3" netid="HT" insttype="" commtype="DIG" lat="36.4091" lon="25.4008">
    <comp name="--.HHN">
      <acc value="0.1154293517" flag="0"/>
      <vel value="0.0253941442" flag="0"/>
      <psa03 value="0.1392376401" flag="0"/>
      <psa10 value="0.0121540885" flag="0"/>
      <psa30 value="0.0010558940" flag="0"/>
    </comp>
    <comp name="--.HHZ">
      <acc value="0.0431913268" flag="0"/>
      <vel value="0.0104285194" flag="0"/>
      <psa03 value="0.0280911195" flag="0"/>
      <psa10 value="0.0047404707" flag="0"/>
      <psa30 value="0.0003169025" flag="0"/>
    </comp>
    <comp name="--.HHE">
      <acc value="0.0777148338" flag="0"/>
      <vel value="0.0154615938" flag="0"/>
      <psa03 value="0.0690761325" flag="0"/>
      <psa10 value="0.0081645036" flag="0"/>
      <psa30 value="0.0011520567" flag="0"/>
    </comp>
  </station>
  <station code="THR5" name="THR5" netid="HT" insttype="" commtype="DIG" lat="36.4172" lon="25.3479">
    <comp name="--.HHE">
      <acc value="0.0466286194" flag="0"/>
      <vel value="0.0227318814" flag="0"/>
      <psa03 value="0.1826285554" flag="0"/>
      <psa10 value="0.0087973022" flag="0"/>
      <psa30 value="0.0007532526" flag="0"/>
    </comp>
    <comp name="--.HHN">
      <acc value="0.0301779619" flag="0"/>
      <vel value="0.0108670860" flag="0"/>
      <psa03 value="0.0840170683" flag="0"/>
      <psa10 value="0.0098776795" flag="0"/>
      <psa30 value="0.0007210159" flag="0"/>
    </comp>
    <comp name="--.HHZ">
      <acc value="0.0228208968" flag="0"/>
      <vel value="0.0073443096" flag="0"/>
      <psa03 value="0.0377961286" flag="0"/>
      <psa10 value="0.0048009389" flag="0"/>
      <psa30 value="0.0002726204" flag="0"/>
    </comp>
  </station>
  <station code="THR8" name="THR8" netid="HT" insttype="" commtype="DIG" lat="36.407" lon="25.4788">
    <comp name="--.HHE">
      <acc value="0.0266391342" flag="0"/>
      <vel value="0.0058134155" flag="0"/>
      <psa03 value="0.0296732448" flag="0"/>
      <psa10 value="0.0049114909" flag="0"/>
      <psa30 value="0.0005430078" flag="0"/>
    </comp>
    <comp name="--.HHN">
      <acc value="0.0235733635" flag="0"/>
      <vel value="0.0054744736" flag="0"/>
      <psa03 value="0.0219661512" flag="0"/>
      <psa10 value="0.0056053391" flag="0"/>
      <psa30 value="0.0003788736" flag="0"/>
    </comp>
    <comp name="--.HHZ">
      <acc value="0.0236341203" flag="0"/>
      <vel value="0.0045642996" flag="0"/>
      <psa03 value="0.0232108766" flag="0"/>
      <psa10 value="0.0019662440" flag="0"/>
      <psa30 value="0.0002617475" flag="0"/>
    </comp>
  </station>
</stationlist>
