<?xml version="1.0" encoding="UTF-8" standalone="yes"?>
<!DOCTYPE earthquake SYSTEM "stationlist.dtd">
<stationlist created="" xmlns="ch.ethz.sed.shakemap.usgs.xml">
  <station code="APE" name="APE" netid="GE" insttype="STS-2/N" lat="37.0727" lon="25.523">
    <comp name="--.HHN">
      <acc value="0.0773884439" flag="0"/>
      <vel value="0.0141571804" flag="0"/>
      <psa03 value="0.0354376119" flag="0"/>
      <psa10 value="0.0046383023" flag="0"/>
      <psa30 value="0.0007754294" flag="0"/>
    </comp>
    <comp name="--.HHE">
      <acc value="0.0531699285" flag="0"/>
      <vel value="0.0106285275" flag="0"/>
      <psa03 value="0.0408715411" flag="0"/>
      <psa10 value="0.0036423465" flag="0"/>
      <psa30 value="0.0007035209" flag="0"/>
    </comp>
    <comp name="--.HHZ">
      <acc value="0.0271296682" flag="0"/>
      <vel value="0.0069713606" flag="0"/>
      <psa03 value="0.0178277814" flag="0"/>
      <psa10 value="0.0039043827" flag="0"/>
      <psa30 value="0.0008538730" flag="0"/>
    </comp>
  </station>
  <station code="THERA" name="THERA" netid="GE" insttype="STS-2/N" lat="36.367" lon="25.4753">
    <comp name="--.HHN">
      <acc value="0.1367264374" flag="0"/>
      <vel value="0.0301359239" flag="0"/>
      <psa03 value="0.1803712076" flag="0"/>
      <psa10 value="0.0078168592" flag="0"/>
      <psa30 value="0.0007277036" flag="0"/>
    </comp>
    <comp name="--.HHZ">
      <acc value="0.1347469482" flag="0"/>
      <vel value="0.0398964692" flag="0"/>
      <psa03 value="0.1304169078" flag="0"/>
      <psa10 value="0.0152486586" flag="0"/>
      <psa30 value="0.0011398123" flag="0"/>
    </comp>
    <comp name="--.HHE">
      <acc value="0.1462234592" flag="0"/>
      <vel value="0.0320480279" flag="0"/>
      <psa03 value="0.1701065960" flag="0"/>
      <psa10 value="0.0092909890" flag="0"/>
      <psa30 value="0.0014175199" flag="0"/>
    </comp>
  </station>
  <station code="SERI" name="SERI" netid="HA" insttype="30" lat="37.1609" lon="24.4853">
    <comp name="--.HHN">
      <acc value="0.0292482157" flag="0"/>
      <vel value="0.0069783909" flag="0"/>
      <psa03 value="0.0338707917" flag="0"/>
      <psa10 value="0.0051005042" flag="0"/>
      <psa30 value="0.0004097761" flag="0"/>
    </comp>
    <comp name="--.HHZ">
      <acc value="0.0147859825" flag="0"/>
      <vel value="0.0063346465" flag="0"/>
      <psa03 value="0.0243870176" flag="0"/>
      <psa10 value="0.0036563539" flag="0"/>
      <psa30 value="0.0004146301" flag="0"/>
    </comp>
    <comp name="--.HHE">
      <acc value="0.0190469348" flag="0"/>
      <vel value="0.0063245026" flag="0"/>
      <psa03 value="0.0378127638" flag="0"/>
      <psa10 value="0.0022320811" flag="0"/>
      <psa30 value="0.0003196396" flag="0"/>
    </comp>
  </station>
  <station code="SNT1" name="SNT1" netid="HA" insttype="30" lat="36.4159" lon="25.4282">
    <comp name="--.HHN">
      <acc value="0.1042022950" flag="0"/>
      <vel value="0.0517498968" flag="0"/>
      <psa03 value="0.1660564756" flag="0"/>
      <psa10 value="0.0382342418" flag="0"/>
      <psa30 value="0.0030628108" flag="0"/>
    </comp>
    <comp name="--.HHE">
      <acc value="0.0903905665" flag="0"/>
      <vel value="0.0326813962" flag="0"/>
      <psa03 value="0.1643585543" flag="0"/>
      <psa10 value="0.0266474167" flag="0"/>
      <psa30 value="0.0029204204" flag="0"/>
    </comp>
    <comp name="--.HHZ">
      <acc value="0.0774188732" flag="0"/>
      <vel value="0.0284974313" flag="0"/>
      <psa03 value="0.1977968033" flag="0"/>
      <psa10 value="0.0136123535" flag="0"/>
      <psa30 value="0.0014462946" flag="0"/>
    </comp>
  </station>
  <station code="NAX1" name="NAX1" netid="HI" insttype="CMG-5TD,ACCELEROMETER,GURALP" lat="37.1014" lon="25.3741">
    <comp name="--.HNE">
      <acc value="0.0551775185" flag="0"/>
      <vel value="0.0138947660" flag="0"/>
      <psa03 value="0.0891106590" flag="0"/>
      <psa10 value="0.0045634259" flag="0"/>
      <psa30 value="0.0006691062" flag="0"/>
    </comp>
    <comp name="--.HNZ">
      <acc value="0.0383466979" flag="0"/>
      <vel value="0.0068618158" flag="0"/>
      <psa03 value="0.0320984155" flag="0"/>
      <psa10 value="0.0061523939" flag="0"/>
      <psa30 value="0.0007757076" flag="0"/>
    </comp>
    <comp name="--.HNN">
      <acc value="0.0573111382" flag="0"/>
      <vel value="0.0135652769" flag="0"/>
      <psa03 value="0.0458085588" flag="0"/>
      <psa10 value="0.0041552585" flag="0"/>
      <psa30 value="0.0006749478" flag="0"/>
    </comp>
  </station>
  <station code="SFR2" name="SFR2" netid="HI" insttype="unknown" lat="36.3998" lon="25.4382">
    <comp name="--.HNE">
      <acc value="0.2809511930" flag="0"/>
      <vel value="0.1178977571" flag="0"/>
      <psa03 value="0.7769220884" flag="0"/>
      <psa10 value="0.0329776084" flag="0"/>
      <psa30 value="0.0041326871" flag="0"/>
    </comp>
    <comp name="--.HNZ">
      <acc value="0.2349804700" flag="0"/>
      <vel value="0.0859283233" flag="0"/>
      <psa03 value="0.3822419011" flag="0"/>
      <psa10 value="0.0273943225" flag="0"/>
      <psa30 value="0.0025762489" flag="0"/>
    </comp>
    <comp name="--.HNN">
      <acc value="0.3818431290" flag="0"/>
      <vel value="0.1320621517" flag="0"/>
      <psa03 value="0.8148697525" flag="0"/>
      <psa10 value="0.0663113596" flag="0"/>
      <psa30 value="0.0042163139" flag="0"/>
    </comp>
  </station>
  <station code="APE" name="APE" netid="HL" insttype="120" lat="37.0727" lon="25.523">
    <comp name="--.HHN">
      <acc value="0.0687963238" flag="0"/>
      <vel value="0.0136963692" flag="0"/>
      <psa03 value="0.0345130256" flag="0"/>
      <psa10 value="0.0045623104" flag="0"/>
      <psa30 value="0.0007720632" flag="0"/>
    </comp>
    <comp name="--.HHE">
      <acc value="0.0433758099" flag="0"/>
      <vel value="0.0099334374" flag="0"/>
      <psa03 value="0.0399285208" flag="0"/>
      <psa10 value="0.0035683949" flag="0"/>
      <psa30 value="0.0007005967" flag="0"/>
    </comp>
    <comp name="--.HHZ">
      <acc value="0.0241150275" flag="0"/>
      <vel value="0.0067696991" flag="0"/>
      <psa03 value="0.0173764471" flag="0"/>
      <psa10 value="0.0038632157" flag="0"/>
      <psa30 value="0.0008522009" flag="0"/>
    </comp>
  </station>
  <station code="MHLO" name="MHLO" netid="HL" insttype="20" lat="36.6898" lon="24.4017">
    <comp name="--.HHE">
      <acc value="0.0912830700" flag="0"/>
      <vel value="0.0416495459" flag="0"/>
      <psa03 value="0.3008798807" flag="0"/>
      <psa10 value="0.0359437935" flag="0"/>
      <psa30 value="0.0015506807" flag="0"/>
    </comp>
    <comp name="--.HHN">
      <acc value="0.0796466295" flag="0"/>
      <vel value="0.0331964253" flag="0"/>
      <psa03 value="0.2845021987" flag="0"/>
      <psa10 value="0.0436759244" flag="0"/>
      <psa30 value="0.0017997008" flag="0"/>
    </comp>
    <comp name="--.HHZ">
      <acc value="0.0360453870" flag="0"/>
      <vel value="0.0151147417" flag="0"/>
      <psa03 value="0.0793086666" flag="0"/>
      <psa10 value="0.0146803395" flag="0"/>
      <psa30 value="0.0010212818" flag="0"/>
    </comp>
  </station>
  <station code="MILA" name="MILA" netid="HL" insttype="CMG-5" lat="36.7429" lon="24.4282">
    <comp name="00.HNZ">
      <acc value="0.0666303628" flag="0"/>
      <vel value="0.0308850481" flag="0"/>
      <psa03 value="0.1729269297" flag="0"/>
      <psa10 value="0.0181908029" flag="0"/>
      <psa30 value="0.0012230778" flag="0"/>
    </comp>
    <comp name="00.HNN">
      <acc value="0.1293439739" flag="0"/>
      <vel value="0.0658259892" flag="0"/>
      <psa03 value="0.2863454541" flag="0"/>
      <psa10 value="0.0277309316" flag="0"/>
      <psa30 value="0.0022166216" flag="0"/>
    </comp>
    <comp name="00.HNE">
      <acc value="0.1071504739" flag="0"/>
      <vel value="0.0449159100" flag="0"/>
      <psa03 value="0.2544429765" flag="0"/>
      <psa10 value="0.0216954195" flag="0"/>
      <psa30 value="0.0016236323" flag="0"/>
    </comp>
  </station>
  <station code="SANT" name="SANT" netid="HL" insttype="30" lat="36.3705" lon="25.4593">
    <comp name="--.HHE">
      <acc value="0.3274465038" flag="0"/>
      <vel value="0.0869465284" flag="0"/>
      <psa03 value="0.5143409504" flag="0"/>
      <psa10 value="0.0195277920" flag="0"/>
      <psa30 value="0.0022921757" flag="0"/>
    </comp>
    <comp name="--.HHZ">
      <acc value="0.2529167770" flag="0"/>
      <vel value="0.0372094994" flag="0"/>
      <psa03 value="0.1657065840" flag="0"/>
      <psa10 value="0.0125899806" flag="0"/>
      <psa30 value="0.0012599457" flag="0"/>
    </comp>
    <comp name="--.HHN">
      <acc value="0.2859110528" flag="0"/>
      <vel value="0.0409714652" flag="0"/>
      <psa03 value="0.2310285257" flag="0"/>
      <psa10 value="0.0194658059" flag="0"/>
      <psa30 value="0.0015267630" flag="0"/>
    </comp>
  </station>
  <station code="SAP3" name="SAP3" netid="HL" insttype="65535" lat="36.4356" lon="25.3454">
    <comp name="--.HHE">
      <acc value="0.3670446245" flag="0"/>
      <vel value="0.1162645175" flag="0"/>
      <psa03 value="0.4185707755" flag="0"/>
      <psa10 value="0.0299181030" flag="0"/>
      <psa30 value="0.0031706415" flag="0"/>
    </comp>
    <comp name="--.HHN">
      <acc value="0.2799969232" flag="0"/>
      <vel value="0.1060518480" flag="0"/>
      <psa03 value="0.6076730745" flag="0"/>
      <psa10 value="0.0236990257" flag="0"/>
      <psa30 value="0.0025186592" flag="0"/>
    </comp>
    <comp name="--.HHZ">
      <acc value="0.2253204476" flag="0"/>
      <vel value="0.0555522809" flag="0"/>
      <psa03 value="0.3785369630" flag="0"/>
      <psa10 value="0.0120115154" flag="0"/>
      <psa30 value="0.0013087074" flag="0"/>
    </comp>
  </station>
  <station code="THERA" name="THERA" netid="HL" insttype="120" lat="36.367" lon="25.4753">
    <comp name="--.HHZ">
      <acc value="0.1308681982" flag="0"/>
      <vel value="0.0384476952" flag="0"/>
      <psa03 value="0.1266587904" flag="0"/>
      <psa10 value="0.0151408117" flag="0"/>
      <psa30 value="0.0011143360" flag="0"/>
    </comp>
    <comp name="--.HHN">
      <acc value="0.2650220495" flag="0"/>
      <vel value="0.0578098810" flag="0"/>
      <psa03 value="0.3496921222" flag="0"/>
      <psa10 value="0.0154877364" flag="0"/>
      <psa30 value="0.0014480094" flag="0"/>
    </comp>
    <comp name="--.HHE">
      <acc value="0.1453921234" flag="0"/>
      <vel value="0.0317039734" flag="0"/>
      <psa03 value="0.1654911680" flag="0"/>
      <psa10 value="0.0090741732" flag="0"/>
      <psa30 value="0.0014135011" flag="0"/>
    </comp>
  </station>
  <station code="THRA" name="THRA" netid="HL" insttype="CMG-5" lat="36.415" lon="25.4324">
    <comp name="00.HNE">
      <acc value="0.3927655665" flag="0"/>
      <vel value="0.1294883575" flag="0"/>
      <psa03 value="0.9487640408" flag="0"/>
      <psa10 value="0.0650968360" flag="0"/>
      <psa30 value="0.0072878855" flag="0"/>
    </comp>
    <comp name="00.HNZ">
      <acc value="0.2777068899" flag="0"/>
      <vel value="0.0900960346" flag="0"/>
      <psa03 value="0.5152979547" flag="0"/>
      <psa10 value="0.0336449049" flag="0"/>
      <psa30 value="0.0032343145" flag="0"/>
    </comp>
    <comp name="00.HNN">
      <acc value="0.2971392876" flag="0"/>
      <vel value="0.1067194421" flag="0"/>
      <psa03 value="0.8024014164" flag="0"/>
      <psa10 value="0.1187660098" flag="0"/>
      <psa30 value="0.0053156914" flag="0"/>
    </comp>
  </station>
  <station code="AKRO" name="AKRO" netid="HT" insttype="Compact," lat="36.3584" lon="25.3967">
    <comp name="--.HHN">
      <acc value="0.3892260118" flag="0"/>
      <vel value="0.0980769458" flag="0"/>
      <psa03 value="0.3527859490" flag="0"/>
      <psa10 value="0.0331183999" flag="0"/>
      <psa30 value="0.0020259780" flag="0"/>
    </comp>
    <comp name="--.HHE">
      <acc value="0.4973992869" flag="0"/>
      <vel value="0.1399282206" flag="0"/>
      <psa03 value="0.6140563489" flag="0"/>
      <psa10 value="0.0625369552" flag="0"/>
      <psa30 value="0.0041657314" flag="0"/>
    </comp>
    <comp name="--.HHZ">
      <acc value="0.2524623354" flag="0"/>
      <vel value="0.0734924052" flag="0"/>
      <psa03 value="0.2533834559" flag="0"/>
      <psa10 value="0.0241672850" flag="0"/>
      <psa30 value="0.0026954677" flag="0"/>
    </comp>
  </station>
  <station code="CMBO" name="CMBO" netid="HT" insttype="120P," lat="36.4709" lon="25.4056">
    <comp name="--.HHN">
      <acc value="0.3000881030" flag="0"/>
      <vel value="0.1160978120" flag="0"/>
      <psa03 value="0.2819178817" flag="0"/>
      <psa10 value="0.0638403871" flag="0"/>
      <psa30 value="0.0039380345" flag="0"/>
    </comp>
    <comp name="--.HHE">
      <acc value="0.2248664437" flag="0"/>
      <vel value="0.0580240934" flag="0"/>
      <psa03 value="0.2478084695" flag="0"/>
      <psa10 value="0.0357181470" flag="0"/>
      <psa30 value="0.0028988633" flag="0"/>
    </comp>
    <comp name="--.HHZ">
      <acc value="0.2186502097" flag="0"/>
      <vel value="0.0610912778" flag="0"/>
      <psa03 value="0.4184710898" flag="0"/>
      <psa10 value="0.0212457375" flag="0"/>
      <psa30 value="0.0027790396" flag="0"/>
    </comp>
  </station>
</stationlist>
