<stationlist created="1778135653">
	<station code="S2114" name="S2114" netid="S2" source="IceSMN Icelandic Strong Motion Network (IceSMN)" insttype="" lat="63.7515" lon="-20.2168">
		<comp name="00.HN1" depth="0.0">
			<acc value="0.0200421483017993" flag="0"/>
			<vel value="0.0394864407104023" flag="0"/>
			<psa03 value="0.050683920060913" flag="0"/>
			<psa10 value="0.0522446096991555" flag="0"/>
			<psa30 value="0.0163798534182551" flag="0"/>
		</comp>
		<comp name="00.HN2" depth="0.0">
			<acc value="0.0187188451266967" flag="0"/>
			<vel value="0.0599848131057637" flag="0"/>
			<psa03 value="0.0395672357185111" flag="0"/>
			<psa10 value="0.0515376241148254" flag="0"/>
			<psa30 value="0.0245405306897074" flag="0"/>
		</comp>
		<comp name="00.HNZ" depth="0.0">
			<acc value="0.0153184437712191" flag="0"/>
			<vel value="0.0240107781362892" flag="0"/>
			<psa03 value="0.0221335495723889" flag="0"/>
			<psa10 value="0.0243336332337666" flag="0"/>
			<psa30 value="0.0193788704217421" flag="0"/>
		</comp>
	</station>
	<station code="S2405" name="S2405" netid="S2" source="IceSMN Icelandic Strong Motion Network (IceSMN)" insttype="" lat="64.0447" lon="-21.9848">
		<comp name="00.HN1" depth="0.0">
			<acc value="0.150513135363591" flag="0"/>
			<vel value="0.167225037129291" flag="0"/>
			<psa03 value="0.236121225205853" flag="0"/>
			<psa10 value="0.211835288048058" flag="0"/>
			<psa30 value="0.022133377894305" flag="0"/>
		</comp>
		<comp name="00.HN2" depth="0.0">
			<acc value="0.132965144773066" flag="0"/>
			<vel value="0.173909902737194" flag="0"/>
			<psa03 value="0.239589892487704" flag="0"/>
			<psa10 value="0.265886313663329" flag="0"/>
			<psa30 value="0.0240890974511447" flag="0"/>
		</comp>
		<comp name="00.HNZ" depth="0.0">
			<acc value="0.0488660999264163" flag="0"/>
			<vel value="0.0518017675525437" flag="0"/>
			<psa03 value="0.122418307528717" flag="0"/>
			<psa10 value="0.0841786464223979" flag="0"/>
			<psa30 value="0.0161676810295167" flag="0"/>
		</comp>
	</station>
	<station code="S2602" name="S2602" netid="S2" source="IceSMN Icelandic Strong Motion Network (IceSMN)" insttype="" lat="63.8464" lon="-22.4268">
		<comp name="00.HN1" depth="0.0">
			<acc value="0.0765644243281097" flag="0"/>
			<vel value="0.13605532825593" flag="0"/>
			<psa03 value="0.105177571664481" flag="0"/>
			<psa10 value="0.202019357791171" flag="0"/>
			<psa30 value="0.0432599790946481" flag="0"/>
		</comp>
		<comp name="00.HN2" depth="0.0">
			<acc value="0.0712429069272059" flag="0"/>
			<vel value="0.0848814342975112" flag="0"/>
			<psa03 value="0.149224562478241" flag="0"/>
			<psa10 value="0.153845541511958" flag="0"/>
			<psa30 value="0.0225034407425147" flag="0"/>
		</comp>
		<comp name="00.HNZ" depth="0.0">
			<acc value="0.0236275395625564" flag="0"/>
			<vel value="0.0502194624536293" flag="0"/>
			<psa03 value="0.0463354184525561" flag="0"/>
			<psa10 value="0.0519360767600147" flag="0"/>
			<psa30 value="0.0280744131254061" flag="0"/>
		</comp>
	</station>
	<station code="S2604" name="S2604" netid="S2" source="IceSMN Icelandic Strong Motion Network (IceSMN)" insttype="" lat="63.9843" lon="-21.6486">
		<comp name="00.HN1" depth="0.0">
			<acc value="0.129729234307894" flag="0"/>
			<vel value="0.132384153298562" flag="0"/>
			<psa03 value="0.333575910267066" flag="0"/>
			<psa10 value="0.218329323246275" flag="0"/>
			<psa30 value="0.0256951755126173" flag="0"/>
		</comp>
		<comp name="00.HN2" depth="0.0">
			<acc value="0.0670038895362569" flag="0"/>
			<vel value="0.116163746530785" flag="0"/>
			<psa03 value="0.223904999274173" flag="0"/>
			<psa10 value="0.175096279269091" flag="0"/>
			<psa30 value="0.0307239186421639" flag="0"/>
		</comp>
		<comp name="00.HNZ" depth="0.0">
			<acc value="0.0489575803033957" flag="0"/>
			<vel value="0.0553375724159262" flag="0"/>
			<psa03 value="0.190659088562166" flag="0"/>
			<psa10 value="0.0650265176875147" flag="0"/>
			<psa30 value="0.0276791469409785" flag="0"/>
		</comp>
	</station>
</stationlist>
