<?xml version="1.0" encoding="UTF-8" standalone="yes"?>
<!DOCTYPE earthquake SYSTEM "stationlist.dtd">
<stationlist created="" xmlns="ch.ethz.sed.shakemap.usgs.xml">
  <station code="ADA" name="ADA" netid="VI" source="ODC" insttype="CMG-3ESP" lat="65.0188" lon="-15.5745">
    <comp name="--.HHE">
      <acc value="0.0300073824" flag="0"/>
      <vel value="0.0471746094" flag="0"/>
      <psa03 value="0.0586381310" flag="0"/>
      <psa10 value="0.0787247505" flag="0"/>
      <psa30 value="0.0504050508" flag="0"/>
    </comp>
    <comp name="--.HHZ">
      <acc value="0.0209035753" flag="0"/>
      <vel value="0.0380914960" flag="0"/>
      <psa03 value="0.0534438745" flag="0"/>
      <psa10 value="0.0328099770" flag="0"/>
      <psa30 value="0.0249271585" flag="0"/>
    </comp>
    <comp name="--.HHN">
      <acc value="0.0301663359" flag="0"/>
      <vel value="0.0456463254" flag="0"/>
      <psa03 value="0.0485630512" flag="0"/>
      <psa10 value="0.0606477311" flag="0"/>
      <psa30 value="0.0434350229" flag="0"/>
    </comp>
  </station>
  <station code="GIL" name="GIL" netid="VI" source="ODC" insttype="CMG-3ESP" lat="66.0773" lon="-16.3513">
    <comp name="--.HHZ">
      <acc value="0.8182968859" flag="0"/>
      <vel value="0.3482932851" flag="0"/>
      <psa03 value="0.6133525993" flag="0"/>
      <psa10 value="0.1988962726" flag="0"/>
      <psa30 value="0.0567552417" flag="0"/>
    </comp>
    <comp name="--.HHN">
      <acc value="1.2351735644" flag="0"/>
      <vel value="0.7271278264" flag="0"/>
      <psa03 value="1.4739118076" flag="0"/>
      <psa10 value="0.6925053546" flag="0"/>
      <psa30 value="0.0997186310" flag="0"/>
    </comp>
    <comp name="--.HHE">
      <acc value="0.6559800685" flag="0"/>
      <vel value="0.3412045989" flag="0"/>
      <psa03 value="1.1948039798" flag="0"/>
      <psa10 value="0.5009998210" flag="0"/>
      <psa30 value="0.0746387669" flag="0"/>
    </comp>
  </station>
  <station code="SKR" name="SKR" netid="VI" source="ODC" insttype="LE-3D/5s" lat="64.5601" lon="-18.3865">
    <comp name="--.HHN">
      <acc value="0.1757173292" flag="0"/>
      <vel value="0.2956708653" flag="0"/>
      <psa03 value="0.3770659734" flag="0"/>
      <psa10 value="0.4453430620" flag="0"/>
      <psa30 value="0.0548302853" flag="0"/>
    </comp>
    <comp name="--.HHZ">
      <acc value="0.2156093476" flag="0"/>
      <vel value="0.1637235443" flag="0"/>
      <psa03 value="0.5822367204" flag="0"/>
      <psa10 value="0.2303612553" flag="0"/>
      <psa30 value="0.0386817097" flag="0"/>
    </comp>
    <comp name="--.HHE">
      <acc value="0.1999773500" flag="0"/>
      <vel value="0.4182907390" flag="0"/>
      <psa03 value="0.5499514209" flag="0"/>
      <psa10 value="0.6162958780" flag="0"/>
      <psa30 value="0.1237232299" flag="0"/>
    </comp>
  </station>
</stationlist>
