<?xml version="1.0" encoding="UTF-8" standalone="yes"?>
<!DOCTYPE earthquake SYSTEM "stationlist.dtd">
<stationlist created="" xmlns="ch.ethz.sed.shakemap.usgs.xml">
  <station code="AKYT" name="AKYT" netid="Z3" source="GFZ" insttype="CMG-3ESP/60" lat="35.8686" lon="23.2999">
    <comp name="--.HHE">
      <acc value="0.0052097892" flag="0"/>
      <vel value="0.0057824759" flag="0"/>
      <psa03 value="0.0126114167" flag="0"/>
      <psa10 value="0.0110723081" flag="0"/>
      <psa30 value="0.0013339869" flag="0"/>
    </comp>
    <comp name="--.HHN">
      <acc value="0.0043275326" flag="0"/>
      <vel value="0.0039813301" flag="0"/>
      <psa03 value="0.0112576121" flag="0"/>
      <psa10 value="0.0089801095" flag="0"/>
      <psa30 value="0.0013165945" flag="0"/>
    </comp>
    <comp name="--.HHZ">
      <acc value="0.0029099926" flag="0"/>
      <vel value="0.0038202596" flag="0"/>
      <psa03 value="0.0096238138" flag="0"/>
      <psa10 value="0.0038346406" flag="0"/>
      <psa30 value="0.0010421134" flag="0"/>
    </comp>
  </station>
  <station code="RETH" name="RETH" netid="Z3" source="GFZ" insttype="CMG-3ESP/60" lat="35.2934" lon="24.4948">
    <comp name="--.HHE">
      <acc value="0.0028625009" flag="0"/>
      <vel value="0.0027255634" flag="0"/>
      <psa03 value="0.0067608971" flag="0"/>
      <psa10 value="0.0042716226" flag="0"/>
      <psa30 value="0.0008619820" flag="0"/>
    </comp>
    <comp name="--.HHN">
      <acc value="0.0027087105" flag="0"/>
      <vel value="0.0026468987" flag="0"/>
      <psa03 value="0.0092728273" flag="0"/>
      <psa10 value="0.0060421871" flag="0"/>
      <psa30 value="0.0005864116" flag="0"/>
    </comp>
    <comp name="--.HHZ">
      <acc value="0.0012729534" flag="0"/>
      <vel value="0.0012807614" flag="0"/>
      <psa03 value="0.0039098233" flag="0"/>
      <psa10 value="0.0018997928" flag="0"/>
      <psa30 value="0.0002476318" flag="0"/>
    </comp>
  </station>
</stationlist>
