<?xml version="1.0" encoding="UTF-8" standalone="yes"?>
<!DOCTYPE earthquake SYSTEM "stationlist.dtd">
<stationlist created="" xmlns="ch.ethz.sed.shakemap.usgs.xml">
  <station code="PFKS" name="PFKS" netid="HC" insttype="120" lat="35.0429" lon="25.4733">
    <comp name="--.HHE">
      <acc value="0.0028656963" flag="0"/>
      <vel value="0.0015728867" flag="0"/>
      <psa03 value="0.0072891485" flag="0"/>
      <psa10 value="0.0015926269" flag="0"/>
      <psa30 value="0.0001278181" flag="0"/>
    </comp>
    <comp name="--.HHN">
      <acc value="0.0029666760" flag="0"/>
      <vel value="0.0019493184" flag="0"/>
      <psa03 value="0.0063925702" flag="0"/>
      <psa10 value="0.0017766643" flag="0"/>
      <psa30 value="0.0000814923" flag="0"/>
    </comp>
    <comp name="--.HHZ">
      <acc value="0.0015363779" flag="0"/>
      <vel value="0.0007614039" flag="0"/>
      <psa03 value="0.0046540153" flag="0"/>
      <psa10 value="0.0008351956" flag="0"/>
      <psa30 value="0.0000924492" flag="0"/>
    </comp>
  </station>
</stationlist>
