<?xml version="1.0" encoding="UTF-8" standalone="yes"?>
<!DOCTYPE earthquake SYSTEM "stationlist.dtd">
<stationlist created="" xmlns="ch.ethz.sed.shakemap.usgs.xml">
  <station code="APE" name="APE" netid="GE" insttype="STS-2/N" lat="37.0727" lon="25.523">
    <comp name="--.HHE">
      <acc value="0.0763231830" flag="0"/>
      <vel value="0.0117573481" flag="0"/>
      <psa03 value="0.0374206009" flag="0"/>
      <psa10 value="0.0046382551" flag="0"/>
      <psa30 value="0.0010624945" flag="0"/>
    </comp>
    <comp name="--.HHN">
      <acc value="0.0852710062" flag="0"/>
      <vel value="0.0139019790" flag="0"/>
      <psa03 value="0.0343787767" flag="0"/>
      <psa10 value="0.0054954080" flag="0"/>
      <psa30 value="0.0008612710" flag="0"/>
    </comp>
    <comp name="--.HHZ">
      <acc value="0.0345500019" flag="0"/>
      <vel value="0.0065158635" flag="0"/>
      <psa03 value="0.0181970782" flag="0"/>
      <psa10 value="0.0070290543" flag="0"/>
      <psa30 value="0.0008237224" flag="0"/>
    </comp>
  </station>
  <station code="THERA" name="THERA" netid="GE" insttype="STS-2/N" lat="36.367" lon="25.4753">
    <comp name="--.HHN">
      <acc value="0.1243257590" flag="0"/>
      <vel value="0.0283011227" flag="0"/>
      <psa03 value="0.1349490059" flag="0"/>
      <psa10 value="0.0097947682" flag="0"/>
      <psa30 value="0.0006343223" flag="0"/>
    </comp>
    <comp name="--.HHZ">
      <acc value="0.1513924555" flag="0"/>
      <vel value="0.0472426234" flag="0"/>
      <psa03 value="0.1081321149" flag="0"/>
      <psa10 value="0.0239912773" flag="0"/>
      <psa30 value="0.0014137482" flag="0"/>
    </comp>
    <comp name="--.HHE">
      <acc value="0.1375885852" flag="0"/>
      <vel value="0.0374763704" flag="0"/>
      <psa03 value="0.1750103423" flag="0"/>
      <psa10 value="0.0176543351" flag="0"/>
      <psa30 value="0.0015461051" flag="0"/>
    </comp>
  </station>
</stationlist>
