<?xml version="1.0" encoding="UTF-8" standalone="yes"?>
<!DOCTYPE earthquake SYSTEM "stationlist.dtd">
<stationlist created="" xmlns="ch.ethz.sed.shakemap.usgs.xml">
  <station code="APE" name="APE" netid="GE" insttype="STS-2/N" lat="37.0727" lon="25.523">
    <comp name="--.HHE">
      <acc value="0.0763231829" flag="0"/>
      <vel value="0.0117573480" flag="0"/>
      <psa03 value="0.0374206009" flag="0"/>
      <psa10 value="0.0046382552" flag="0"/>
      <psa30 value="0.0010624711" flag="0"/>
    </comp>
    <comp name="--.HHZ">
      <acc value="0.0345500020" flag="0"/>
      <vel value="0.0065158634" flag="0"/>
      <psa03 value="0.0181970782" flag="0"/>
      <psa10 value="0.0070290545" flag="0"/>
      <psa30 value="0.0008237367" flag="0"/>
    </comp>
    <comp name="--.HHN">
      <acc value="0.0852710057" flag="0"/>
      <vel value="0.0139019788" flag="0"/>
      <psa03 value="0.0343787767" flag="0"/>
      <psa10 value="0.0054954080" flag="0"/>
      <psa30 value="0.0008612816" flag="0"/>
    </comp>
  </station>
  <station code="THERA" name="THERA" netid="GE" insttype="STS-2/N" lat="36.367" lon="25.4753">
    <comp name="--.HHE">
      <acc value="0.1375885851" flag="0"/>
      <vel value="0.0374763702" flag="0"/>
      <psa03 value="0.1750103423" flag="0"/>
      <psa10 value="0.0176543346" flag="0"/>
      <psa30 value="0.0015459800" flag="0"/>
    </comp>
    <comp name="--.HHN">
      <acc value="0.1243257589" flag="0"/>
      <vel value="0.0283011226" flag="0"/>
      <psa03 value="0.1349490059" flag="0"/>
      <psa10 value="0.0097947682" flag="0"/>
      <psa30 value="0.0006343206" flag="0"/>
    </comp>
    <comp name="--.HHZ">
      <acc value="0.1513924554" flag="0"/>
      <vel value="0.0472426244" flag="0"/>
      <psa03 value="0.1081321149" flag="0"/>
      <psa10 value="0.0239912755" flag="0"/>
      <psa30 value="0.0014137450" flag="0"/>
    </comp>
  </station>
  <station code="SNT1" name="SNT1" netid="HA" insttype="30" lat="36.4159" lon="25.4282">
    <comp name="--.HHN">
      <acc value="0.1231714604" flag="0"/>
      <vel value="0.0680455031" flag="0"/>
      <psa03 value="0.2309306355" flag="0"/>
      <psa10 value="0.0560282637" flag="0"/>
      <psa30 value="0.0026360663" flag="0"/>
    </comp>
    <comp name="--.HHE">
      <acc value="0.2155146802" flag="0"/>
      <vel value="0.0763463305" flag="0"/>
      <psa03 value="0.1956847032" flag="0"/>
      <psa10 value="0.0411400515" flag="0"/>
      <psa30 value="0.0033416856" flag="0"/>
    </comp>
    <comp name="--.HHZ">
      <acc value="0.1093221581" flag="0"/>
      <vel value="0.0369464081" flag="0"/>
      <psa03 value="0.1442609884" flag="0"/>
      <psa10 value="0.0131215980" flag="0"/>
      <psa30 value="0.0012816124" flag="0"/>
    </comp>
  </station>
  <station code="NAX1" name="NAX1" netid="HI" insttype="CMG-5TD,ACCELEROMETER,GURALP" lat="37.1014" lon="25.3741">
    <comp name="--.HNN">
      <acc value="0.0618906298" flag="0"/>
      <vel value="0.0116693284" flag="0"/>
      <psa03 value="0.0249294861" flag="0"/>
      <psa10 value="0.0053890521" flag="0"/>
      <psa30 value="0.0006145587" flag="0"/>
    </comp>
    <comp name="--.HNE">
      <acc value="0.0564148853" flag="0"/>
      <vel value="0.0130588480" flag="0"/>
      <psa03 value="0.0457676062" flag="0"/>
      <psa10 value="0.0059970577" flag="0"/>
      <psa30 value="0.0005788813" flag="0"/>
    </comp>
    <comp name="--.HNZ">
      <acc value="0.0377510035" flag="0"/>
      <vel value="0.0062605051" flag="0"/>
      <psa03 value="0.0178653065" flag="0"/>
      <psa10 value="0.0048722859" flag="0"/>
      <psa30 value="0.0007684926" flag="0"/>
    </comp>
  </station>
  <station code="APE" name="APE" netid="HL" insttype="120" lat="37.0727" lon="25.523">
    <comp name="--.HHE">
      <acc value="0.0563205093" flag="0"/>
      <vel value="0.0108388416" flag="0"/>
      <psa03 value="0.0364088962" flag="0"/>
      <psa10 value="0.0046002557" flag="0"/>
      <psa30 value="0.0010597663" flag="0"/>
    </comp>
    <comp name="--.HHZ">
      <acc value="0.0293252558" flag="0"/>
      <vel value="0.0063488413" flag="0"/>
      <psa03 value="0.0178418498" flag="0"/>
      <psa10 value="0.0069663037" flag="0"/>
      <psa30 value="0.0008225525" flag="0"/>
    </comp>
    <comp name="--.HHN">
      <acc value="0.0742312394" flag="0"/>
      <vel value="0.0134171639" flag="0"/>
      <psa03 value="0.0332319798" flag="0"/>
      <psa10 value="0.0054230997" flag="0"/>
      <psa30 value="0.0008590867" flag="0"/>
    </comp>
  </station>
  <station code="MHLO" name="MHLO" netid="HL" insttype="20" lat="36.6898" lon="24.4017">
    <comp name="--.HHN">
      <acc value="0.0599055056" flag="0"/>
      <vel value="0.0355853806" flag="0"/>
      <psa03 value="0.1225113127" flag="0"/>
      <psa10 value="0.0448097629" flag="0"/>
      <psa30 value="0.0021205731" flag="0"/>
    </comp>
    <comp name="--.HHE">
      <acc value="0.0729653754" flag="0"/>
      <vel value="0.0314079950" flag="0"/>
      <psa03 value="0.1635980598" flag="0"/>
      <psa10 value="0.0448469583" flag="0"/>
      <psa30 value="0.0022220806" flag="0"/>
    </comp>
    <comp name="--.HHZ">
      <acc value="0.0297108573" flag="0"/>
      <vel value="0.0119791884" flag="0"/>
      <psa03 value="0.0451249480" flag="0"/>
      <psa10 value="0.0213618256" flag="0"/>
      <psa30 value="0.0012429261" flag="0"/>
    </comp>
  </station>
  <station code="SAP3" name="SAP3" netid="HL" insttype="LE3D20_SMART24" lat="36.4356" lon="25.3454">
    <comp name="--.HHE">
      <acc value="0.8148997951" flag="0"/>
      <vel value="0.2100743999" flag="0"/>
      <psa03 value="0.7777321647" flag="0"/>
      <psa10 value="0.0881576384" flag="0"/>
      <psa30 value="0.0091664018" flag="0"/>
    </comp>
    <comp name="--.HHN">
      <acc value="0.7119516578" flag="0"/>
      <vel value="0.2127338852" flag="0"/>
      <psa03 value="0.7665613427" flag="0"/>
      <psa10 value="0.0904890843" flag="0"/>
      <psa30 value="0.0078457375" flag="0"/>
    </comp>
    <comp name="--.HHZ">
      <acc value="0.5917218940" flag="0"/>
      <vel value="0.1589866410" flag="0"/>
      <psa03 value="0.7810497709" flag="0"/>
      <psa10 value="0.0333759134" flag="0"/>
      <psa30 value="0.0036241448" flag="0"/>
    </comp>
  </station>
  <station code="THERA" name="THERA" netid="HL" insttype="120" lat="36.367" lon="25.4753">
    <comp name="--.HHE">
      <acc value="0.1367821979" flag="0"/>
      <vel value="0.0364149925" flag="0"/>
      <psa03 value="0.1700344542" flag="0"/>
      <psa10 value="0.0174787408" flag="0"/>
      <psa30 value="0.0015309533" flag="0"/>
    </comp>
    <comp name="--.HHZ">
      <acc value="0.1510424366" flag="0"/>
      <vel value="0.0460176461" flag="0"/>
      <psa03 value="0.1050844442" flag="0"/>
      <psa10 value="0.0237557718" flag="0"/>
      <psa30 value="0.0013933626" flag="0"/>
    </comp>
    <comp name="--.HHN">
      <acc value="0.1235366331" flag="0"/>
      <vel value="0.0271362120" flag="0"/>
      <psa03 value="0.1307610712" flag="0"/>
      <psa10 value="0.0097453235" flag="0"/>
      <psa30 value="0.0006292509" flag="0"/>
    </comp>
  </station>
  <station code="THRA" name="THRA" netid="HL" insttype="CMG-5" lat="36.415" lon="25.4324">
    <comp name="00.HNE">
      <acc value="0.5300719049" flag="0"/>
      <vel value="0.1762767724" flag="0"/>
      <psa03 value="0.8709357889" flag="0"/>
      <psa10 value="0.0830379349" flag="0"/>
      <psa30 value="0.0069568478" flag="0"/>
    </comp>
    <comp name="00.HNN">
      <acc value="0.4073499098" flag="0"/>
      <vel value="0.1790935579" flag="0"/>
      <psa03 value="0.7870689879" flag="0"/>
      <psa10 value="0.1972988062" flag="0"/>
      <psa30 value="0.0074123632" flag="0"/>
    </comp>
    <comp name="00.HNZ">
      <acc value="0.3582657193" flag="0"/>
      <vel value="0.1234084910" flag="0"/>
      <psa03 value="0.6629029248" flag="0"/>
      <psa10 value="0.0486224262" flag="0"/>
      <psa30 value="0.0032524862" flag="0"/>
    </comp>
  </station>
</stationlist>
