<?xml version="1.0" encoding="UTF-8" standalone="yes"?>
<!DOCTYPE earthquake SYSTEM "stationlist.dtd">
<stationlist created="" xmlns="ch.ethz.sed.shakemap.usgs.xml">
  <station code="APE" name="APE" netid="GE" insttype="STS-2/N" lat="37.0727" lon="25.523">
    <comp name="--.HHE">
      <acc value="0.0763231829" flag="0"/>
      <vel value="0.0117573480" flag="0"/>
      <psa03 value="0.0374206009" flag="0"/>
      <psa10 value="0.0046382552" flag="0"/>
      <psa30 value="0.0010624711" flag="0"/>
    </comp>
    <comp name="--.HHZ">
      <acc value="0.0345500020" flag="0"/>
      <vel value="0.0065158634" flag="0"/>
      <psa03 value="0.0181970782" flag="0"/>
      <psa10 value="0.0070290545" flag="0"/>
      <psa30 value="0.0008237367" flag="0"/>
    </comp>
    <comp name="--.HHN">
      <acc value="0.0852710057" flag="0"/>
      <vel value="0.0139019788" flag="0"/>
      <psa03 value="0.0343787767" flag="0"/>
      <psa10 value="0.0054954080" flag="0"/>
      <psa30 value="0.0008612816" flag="0"/>
    </comp>
  </station>
  <station code="THERA" name="THERA" netid="GE" insttype="STS-2/N" lat="36.367" lon="25.4753">
    <comp name="--.HHE">
      <acc value="0.1375885851" flag="0"/>
      <vel value="0.0374763702" flag="0"/>
      <psa03 value="0.1750103423" flag="0"/>
      <psa10 value="0.0176543346" flag="0"/>
      <psa30 value="0.0015459800" flag="0"/>
    </comp>
    <comp name="--.HHN">
      <acc value="0.1243257589" flag="0"/>
      <vel value="0.0283011226" flag="0"/>
      <psa03 value="0.1349490059" flag="0"/>
      <psa10 value="0.0097947682" flag="0"/>
      <psa30 value="0.0006343206" flag="0"/>
    </comp>
    <comp name="--.HHZ">
      <acc value="0.1513924554" flag="0"/>
      <vel value="0.0472426244" flag="0"/>
      <psa03 value="0.1081321149" flag="0"/>
      <psa10 value="0.0239912755" flag="0"/>
      <psa30 value="0.0014137450" flag="0"/>
    </comp>
  </station>
</stationlist>
