<?xml version="1.0" encoding="UTF-8" standalone="yes"?>
<!DOCTYPE earthquake SYSTEM "stationlist.dtd">
<stationlist created="" xmlns="ch.ethz.sed.shakemap.usgs.xml">
  <station code="APE" name="APE" netid="GE" insttype="STS-2/N" lat="37.0727" lon="25.523">
    <comp name="--.HHE">
      <acc value="0.0763231830" flag="0"/>
      <vel value="0.0117573481" flag="0"/>
      <psa03 value="0.0374206009" flag="0"/>
      <psa10 value="0.0046382551" flag="0"/>
      <psa30 value="0.0010624945" flag="0"/>
    </comp>
    <comp name="--.HHN">
      <acc value="0.0852710062" flag="0"/>
      <vel value="0.0139019790" flag="0"/>
      <psa03 value="0.0343787767" flag="0"/>
      <psa10 value="0.0054954080" flag="0"/>
      <psa30 value="0.0008612710" flag="0"/>
    </comp>
    <comp name="--.HHZ">
      <acc value="0.0345500019" flag="0"/>
      <vel value="0.0065158635" flag="0"/>
      <psa03 value="0.0181970782" flag="0"/>
      <psa10 value="0.0070290543" flag="0"/>
      <psa30 value="0.0008237224" flag="0"/>
    </comp>
  </station>
  <station code="THERA" name="THERA" netid="GE" insttype="STS-2/N" lat="36.367" lon="25.4753">
    <comp name="--.HHN">
      <acc value="0.1243257590" flag="0"/>
      <vel value="0.0283011227" flag="0"/>
      <psa03 value="0.1349490059" flag="0"/>
      <psa10 value="0.0097947682" flag="0"/>
      <psa30 value="0.0006343223" flag="0"/>
    </comp>
    <comp name="--.HHZ">
      <acc value="0.1513924555" flag="0"/>
      <vel value="0.0472426234" flag="0"/>
      <psa03 value="0.1081321149" flag="0"/>
      <psa10 value="0.0239912773" flag="0"/>
      <psa30 value="0.0014137482" flag="0"/>
    </comp>
    <comp name="--.HHE">
      <acc value="0.1375885852" flag="0"/>
      <vel value="0.0374763704" flag="0"/>
      <psa03 value="0.1750103423" flag="0"/>
      <psa10 value="0.0176543351" flag="0"/>
      <psa30 value="0.0015461051" flag="0"/>
    </comp>
  </station>
  <station code="SNT1" name="SNT1" netid="HA" insttype="30" lat="36.4159" lon="25.4282">
    <comp name="--.HHE">
      <acc value="0.2155146793" flag="0"/>
      <vel value="0.0763463269" flag="0"/>
      <psa03 value="0.1956847032" flag="0"/>
      <psa10 value="0.0411400451" flag="0"/>
      <psa30 value="0.0033415787" flag="0"/>
    </comp>
    <comp name="--.HHN">
      <acc value="0.1231714607" flag="0"/>
      <vel value="0.0680455010" flag="0"/>
      <psa03 value="0.2309306355" flag="0"/>
      <psa10 value="0.0560282704" flag="0"/>
      <psa30 value="0.0026355150" flag="0"/>
    </comp>
    <comp name="--.HHZ">
      <acc value="0.1093221580" flag="0"/>
      <vel value="0.0369464048" flag="0"/>
      <psa03 value="0.1442609884" flag="0"/>
      <psa10 value="0.0131215966" flag="0"/>
      <psa30 value="0.0012817029" flag="0"/>
    </comp>
  </station>
  <station code="NAX1" name="NAX1" netid="HI" insttype="CMG-5TD,ACCELEROMETER,GURALP" lat="37.1014" lon="25.3741">
    <comp name="--.HNE">
      <acc value="0.0564148853" flag="0"/>
      <vel value="0.0130588482" flag="0"/>
      <psa03 value="0.0457676062" flag="0"/>
      <psa10 value="0.0059970577" flag="0"/>
      <psa30 value="0.0005788810" flag="0"/>
    </comp>
    <comp name="--.HNZ">
      <acc value="0.0377510031" flag="0"/>
      <vel value="0.0062605052" flag="0"/>
      <psa03 value="0.0178653065" flag="0"/>
      <psa10 value="0.0048722858" flag="0"/>
      <psa30 value="0.0007684329" flag="0"/>
    </comp>
    <comp name="--.HNN">
      <acc value="0.0618906297" flag="0"/>
      <vel value="0.0116693284" flag="0"/>
      <psa03 value="0.0249294861" flag="0"/>
      <psa10 value="0.0053890522" flag="0"/>
      <psa30 value="0.0006145951" flag="0"/>
    </comp>
  </station>
  <station code="APE" name="APE" netid="HL" insttype="120" lat="37.0727" lon="25.523">
    <comp name="--.HHN">
      <acc value="0.0742312396" flag="0"/>
      <vel value="0.0134171641" flag="0"/>
      <psa03 value="0.0332319798" flag="0"/>
      <psa10 value="0.0054230997" flag="0"/>
      <psa30 value="0.0008590759" flag="0"/>
    </comp>
    <comp name="--.HHZ">
      <acc value="0.0293252558" flag="0"/>
      <vel value="0.0063488413" flag="0"/>
      <psa03 value="0.0178418498" flag="0"/>
      <psa10 value="0.0069663035" flag="0"/>
      <psa30 value="0.0008225383" flag="0"/>
    </comp>
    <comp name="--.HHE">
      <acc value="0.0563205094" flag="0"/>
      <vel value="0.0108388416" flag="0"/>
      <psa03 value="0.0364088962" flag="0"/>
      <psa10 value="0.0046002556" flag="0"/>
      <psa30 value="0.0010597896" flag="0"/>
    </comp>
  </station>
  <station code="MHLO" name="MHLO" netid="HL" insttype="20" lat="36.6898" lon="24.4017">
    <comp name="--.HHE">
      <acc value="0.0729653759" flag="0"/>
      <vel value="0.0314079845" flag="0"/>
      <psa03 value="0.1635980597" flag="0"/>
      <psa10 value="0.0448469581" flag="0"/>
      <psa30 value="0.0022220126" flag="0"/>
    </comp>
    <comp name="--.HHZ">
      <acc value="0.0297108575" flag="0"/>
      <vel value="0.0119791888" flag="0"/>
      <psa03 value="0.0451249480" flag="0"/>
      <psa10 value="0.0213618253" flag="0"/>
      <psa30 value="0.0012427839" flag="0"/>
    </comp>
    <comp name="--.HHN">
      <acc value="0.0599055061" flag="0"/>
      <vel value="0.0355853957" flag="0"/>
      <psa03 value="0.1225113127" flag="0"/>
      <psa10 value="0.0448097629" flag="0"/>
      <psa30 value="0.0021205073" flag="0"/>
    </comp>
  </station>
  <station code="SAP3" name="SAP3" netid="HL" insttype="LE3D20_SMART24" lat="36.4356" lon="25.3454">
    <comp name="--.HHN">
      <acc value="0.7119516581" flag="0"/>
      <vel value="0.2127338861" flag="0"/>
      <psa03 value="0.7665613427" flag="0"/>
      <psa10 value="0.0904890814" flag="0"/>
      <psa30 value="0.0078446688" flag="0"/>
    </comp>
    <comp name="--.HHZ">
      <acc value="0.5917218940" flag="0"/>
      <vel value="0.1589866221" flag="0"/>
      <psa03 value="0.7810497708" flag="0"/>
      <psa10 value="0.0333759147" flag="0"/>
      <psa30 value="0.0036233792" flag="0"/>
    </comp>
    <comp name="--.HHE">
      <acc value="0.8148997953" flag="0"/>
      <vel value="0.2100744294" flag="0"/>
      <psa03 value="0.7777321646" flag="0"/>
      <psa10 value="0.0881576388" flag="0"/>
      <psa30 value="0.0091674555" flag="0"/>
    </comp>
  </station>
  <station code="THERA" name="THERA" netid="HL" insttype="120" lat="36.367" lon="25.4753">
    <comp name="--.HHN">
      <acc value="0.1235366333" flag="0"/>
      <vel value="0.0271362120" flag="0"/>
      <psa03 value="0.1307610712" flag="0"/>
      <psa10 value="0.0097453235" flag="0"/>
      <psa30 value="0.0006292525" flag="0"/>
    </comp>
    <comp name="--.HHE">
      <acc value="0.1367821978" flag="0"/>
      <vel value="0.0364149927" flag="0"/>
      <psa03 value="0.1700344542" flag="0"/>
      <psa10 value="0.0174787413" flag="0"/>
      <psa30 value="0.0015310789" flag="0"/>
    </comp>
    <comp name="--.HHZ">
      <acc value="0.1510424367" flag="0"/>
      <vel value="0.0460176452" flag="0"/>
      <psa03 value="0.1050844442" flag="0"/>
      <psa10 value="0.0237557736" flag="0"/>
      <psa30 value="0.0013933660" flag="0"/>
    </comp>
  </station>
  <station code="THRA" name="THRA" netid="HL" insttype="CMG-5" lat="36.415" lon="25.4324">
    <comp name="00.HNE">
      <acc value="0.5300719025" flag="0"/>
      <vel value="0.1762767694" flag="0"/>
      <psa03 value="0.8709357889" flag="0"/>
      <psa10 value="0.0830379349" flag="0"/>
      <psa30 value="0.0069565323" flag="0"/>
    </comp>
    <comp name="00.HNN">
      <acc value="0.4073499083" flag="0"/>
      <vel value="0.1790935541" flag="0"/>
      <psa03 value="0.7870689879" flag="0"/>
      <psa10 value="0.1972988131" flag="0"/>
      <psa30 value="0.0074127993" flag="0"/>
    </comp>
    <comp name="00.HNZ">
      <acc value="0.3582657179" flag="0"/>
      <vel value="0.1234084919" flag="0"/>
      <psa03 value="0.6629029248" flag="0"/>
      <psa10 value="0.0486224270" flag="0"/>
      <psa30 value="0.0032527475" flag="0"/>
    </comp>
  </station>
  <station code="CMBO" name="CMBO" netid="HT" insttype="120P," lat="36.4709" lon="25.4056">
    <comp name="--.HHE">
      <acc value="0.5994975694" flag="0"/>
      <vel value="0.1872473158" flag="0"/>
      <psa03 value="0.7967430232" flag="0"/>
      <psa10 value="0.1040891809" flag="0"/>
      <psa30 value="0.0074387878" flag="0"/>
    </comp>
    <comp name="--.HHN">
      <acc value="0.9479600555" flag="0"/>
      <vel value="0.3973844249" flag="0"/>
      <psa03 value="1.0489436661" flag="0"/>
      <psa10 value="0.1533989991" flag="0"/>
      <psa30 value="0.0106341500" flag="0"/>
    </comp>
    <comp name="--.HHZ">
      <acc value="0.7470773861" flag="0"/>
      <vel value="0.2201850112" flag="0"/>
      <psa03 value="0.7812753794" flag="0"/>
      <psa10 value="0.0583553998" flag="0"/>
      <psa30 value="0.0048466152" flag="0"/>
    </comp>
  </station>
</stationlist>
