<?xml version="1.0" encoding="UTF-8" standalone="yes"?>
<!DOCTYPE earthquake SYSTEM "stationlist.dtd">
<stationlist created="" xmlns="ch.ethz.sed.shakemap.usgs.xml">
  <station code="BIR" name="BIR" netid="RO" insttype="MBB2/Quanterra" commtype="DIG" lat="46.2334" lon="27.6436">
    <comp name="--.HHE">
      <acc value="0.0599880094" flag="0"/>
      <vel value="0.0145082187" flag="0"/>
      <psa03 value="0.0395819125" flag="0"/>
      <psa10 value="0.0022536122" flag="0"/>
      <psa30 value="0.0002113761" flag="0"/>
    </comp>
    <comp name="--.HHN">
      <acc value="0.0399476857" flag="0"/>
      <vel value="0.0084039160" flag="0"/>
      <psa03 value="0.0438518788" flag="0"/>
      <psa10 value="0.0023947448" flag="0"/>
      <psa30 value="0.0002718500" flag="0"/>
    </comp>
    <comp name="--.HHZ">
      <acc value="0.0242660286" flag="0"/>
      <vel value="0.0050207864" flag="0"/>
      <psa03 value="0.0289793797" flag="0"/>
      <psa10 value="0.0006870019" flag="0"/>
      <psa30 value="0.0000891990" flag="0"/>
    </comp>
  </station>
  <station code="IZVR" name="IZVR" netid="RO" insttype="CMG40T.1to100/Quanterra" commtype="DIG" lat="45.5442" lon="27.7655">
    <comp name="--.HHE">
      <acc value="0.0170023165" flag="0"/>
      <vel value="0.0032784443" flag="0"/>
      <psa03 value="0.0209437885" flag="0"/>
      <psa10 value="0.0014194871" flag="0"/>
      <psa30 value="0.0001035532" flag="0"/>
    </comp>
    <comp name="--.HHN">
      <acc value="0.0136842698" flag="0"/>
      <vel value="0.0035086648" flag="0"/>
      <psa03 value="0.0104544732" flag="0"/>
      <psa10 value="0.0017272303" flag="0"/>
      <psa30 value="0.0001160343" flag="0"/>
    </comp>
    <comp name="--.HHZ">
      <acc value="0.0107874048" flag="0"/>
      <vel value="0.0012657454" flag="0"/>
      <psa03 value="0.0058943497" flag="0"/>
      <psa10 value="0.0002832645" flag="0"/>
      <psa30 value="0.0000477348" flag="0"/>
    </comp>
  </station>
  <station code="NARR" name="NARR" netid="RO" insttype="OBS-SIO/Centaur" commtype="DIG" lat="45.8165" lon="26.7368">
    <comp name="--.HHN">
      <acc value="0.0189931978" flag="0"/>
      <vel value="0.0059725775" flag="0"/>
      <psa03 value="0.0295060707" flag="0"/>
      <psa10 value="0.0024934864" flag="0"/>
      <psa30 value="0.0001595493" flag="0"/>
    </comp>
    <comp name="--.HHZ">
      <acc value="0.0102131999" flag="0"/>
      <vel value="0.0021476655" flag="0"/>
      <psa03 value="0.0180744875" flag="0"/>
      <psa10 value="0.0005931626" flag="0"/>
      <psa30 value="0.0000440244" flag="0"/>
    </comp>
    <comp name="--.HHE">
      <acc value="0.0152641819" flag="0"/>
      <vel value="0.0066822150" flag="0"/>
      <psa03 value="0.0398819505" flag="0"/>
      <psa10 value="0.0020108786" flag="0"/>
      <psa30 value="0.0001663484" flag="0"/>
    </comp>
  </station>
  <station code="NEGRR" name="NEGRR" netid="RO" insttype="CMG40T.1to100/Quanterra" commtype="DIG" lat="45.5373" lon="27.8771">
    <comp name="--.HHE">
      <acc value="0.0373861217" flag="0"/>
      <vel value="0.0072026817" flag="0"/>
      <psa03 value="0.0241049480" flag="0"/>
      <psa10 value="0.0015156229" flag="0"/>
      <psa30 value="0.0001407564" flag="0"/>
    </comp>
    <comp name="--.HHZ">
      <acc value="0.0177376550" flag="0"/>
      <vel value="0.0023256270" flag="0"/>
      <psa03 value="0.0121282747" flag="0"/>
      <psa10 value="0.0005267201" flag="0"/>
      <psa30 value="0.0000334850" flag="0"/>
    </comp>
    <comp name="--.HHN">
      <acc value="0.0216116997" flag="0"/>
      <vel value="0.0052841885" flag="0"/>
      <psa03 value="0.0139864110" flag="0"/>
      <psa10 value="0.0018952308" flag="0"/>
      <psa30 value="0.0001190673" flag="0"/>
    </comp>
  </station>
  <station code="ODBI" name="ODBI" netid="RO" insttype="200" commtype="DIG" lat="45.7633" lon="27.0558">
    <comp name="--.HNE">
      <acc value="0.0315154873" flag="0"/>
      <vel value="0.0050273099" flag="0"/>
      <psa03 value="0.0314587641" flag="0"/>
      <psa10 value="0.0017510791" flag="0"/>
      <psa30 value="0.0001549790" flag="0"/>
    </comp>
    <comp name="--.HNN">
      <acc value="0.0169289229" flag="0"/>
      <vel value="0.0032498837" flag="0"/>
      <psa03 value="0.0156883002" flag="0"/>
      <psa10 value="0.0018622599" flag="0"/>
      <psa30 value="0.0001494399" flag="0"/>
    </comp>
    <comp name="--.HNZ">
      <acc value="0.0325469343" flag="0"/>
      <vel value="0.0039934771" flag="0"/>
      <psa03 value="0.0141568122" flag="0"/>
      <psa10 value="0.0006923976" flag="0"/>
      <psa30 value="0.0000651472" flag="0"/>
    </comp>
  </station>
  <station code="PLOR" name="PLOR" netid="RO" insttype="MBB2/Quanterra" commtype="DIG" lat="45.8512" lon="26.6498">
    <comp name="--.HHN">
      <acc value="0.0099424481" flag="0"/>
      <vel value="0.0042835816" flag="0"/>
      <psa03 value="0.0292399276" flag="0"/>
      <psa10 value="0.0014239338" flag="0"/>
      <psa30 value="0.0001151099" flag="0"/>
    </comp>
    <comp name="--.HHZ">
      <acc value="0.0058719046" flag="0"/>
      <vel value="0.0013472390" flag="0"/>
      <psa03 value="0.0081959057" flag="0"/>
      <psa10 value="0.0004656590" flag="0"/>
      <psa30 value="0.0000417383" flag="0"/>
    </comp>
    <comp name="--.HHE">
      <acc value="0.0075792243" flag="0"/>
      <vel value="0.0037550892" flag="0"/>
      <psa03 value="0.0232062110" flag="0"/>
      <psa10 value="0.0015947799" flag="0"/>
      <psa30 value="0.0001219819" flag="0"/>
    </comp>
  </station>
  <station code="PLOR4" name="PLOR4" netid="RO" insttype="MBB2/Quanterra" commtype="DIG" lat="45.8512" lon="26.6498">
    <comp name="--.HHN">
      <acc value="0.0099424481" flag="0"/>
      <vel value="0.0042835816" flag="0"/>
      <psa03 value="0.0292399276" flag="0"/>
      <psa10 value="0.0014239338" flag="0"/>
      <psa30 value="0.0001151099" flag="0"/>
    </comp>
    <comp name="--.HHZ">
      <acc value="0.0058719046" flag="0"/>
      <vel value="0.0013472390" flag="0"/>
      <psa03 value="0.0081959057" flag="0"/>
      <psa10 value="0.0004656590" flag="0"/>
      <psa30 value="0.0000417383" flag="0"/>
    </comp>
    <comp name="--.HHE">
      <acc value="0.0075792243" flag="0"/>
      <vel value="0.0037550892" flag="0"/>
      <psa03 value="0.0232062110" flag="0"/>
      <psa10 value="0.0015947799" flag="0"/>
      <psa30 value="0.0001219819" flag="0"/>
    </comp>
  </station>
  <station code="SCHL" name="SCHL" netid="RO" insttype="200" commtype="DIG" lat="45.5007" lon="27.8302">
    <comp name="--.HNE">
      <acc value="0.0261473374" flag="0"/>
      <vel value="0.0083441402" flag="0"/>
      <psa03 value="0.0313708259" flag="0"/>
      <psa10 value="0.0026116729" flag="0"/>
      <psa30 value="0.0001651422" flag="0"/>
    </comp>
    <comp name="--.HNN">
      <acc value="0.0161441067" flag="0"/>
      <vel value="0.0066057763" flag="0"/>
      <psa03 value="0.0252875882" flag="0"/>
      <psa10 value="0.0037417892" flag="0"/>
      <psa30 value="0.0002554057" flag="0"/>
    </comp>
    <comp name="--.HNZ">
      <acc value="0.0265417486" flag="0"/>
      <vel value="0.0028824798" flag="0"/>
      <psa03 value="0.0074765910" flag="0"/>
      <psa10 value="0.0006468457" flag="0"/>
      <psa30 value="0.0000729461" flag="0"/>
    </comp>
  </station>
  <station code="SCHLR" name="SCHLR" netid="RO" insttype="CMG40T.1to100/Quanterra" commtype="DIG" lat="45.4702" lon="27.8314">
    <comp name="--.HHE">
      <acc value="0.0162371429" flag="0"/>
      <vel value="0.0036874863" flag="0"/>
      <psa03 value="0.0122934497" flag="0"/>
      <psa10 value="0.0012624188" flag="0"/>
      <psa30 value="0.0001265770" flag="0"/>
    </comp>
    <comp name="--.HHN">
      <acc value="0.0243080430" flag="0"/>
      <vel value="0.0043306979" flag="0"/>
      <psa03 value="0.0257315791" flag="0"/>
      <psa10 value="0.0017899364" flag="0"/>
      <psa30 value="0.0001528215" flag="0"/>
    </comp>
    <comp name="--.HHZ">
      <acc value="0.0159873296" flag="0"/>
      <vel value="0.0019152443" flag="0"/>
      <psa03 value="0.0053655640" flag="0"/>
      <psa10 value="0.0003412433" flag="0"/>
      <psa30 value="0.0000364688" flag="0"/>
    </comp>
  </station>
  <station code="SCTR" name="SCTR" netid="RO" insttype="2.5V" commtype="DIG" lat="45.6741" lon="27.9949">
    <comp name="--.HNN">
      <acc value="0.0240555229" flag="0"/>
      <vel value="0.0068181755" flag="0"/>
      <psa03 value="0.0422213098" flag="0"/>
      <psa10 value="0.0029008415" flag="0"/>
      <psa30 value="0.0002118971" flag="0"/>
    </comp>
    <comp name="--.HNE">
      <acc value="0.0206069899" flag="0"/>
      <vel value="0.0050137032" flag="0"/>
      <psa03 value="0.0202038426" flag="0"/>
      <psa10 value="0.0016906159" flag="0"/>
      <psa30 value="0.0001374698" flag="0"/>
    </comp>
    <comp name="--.HNZ">
      <acc value="0.0133006358" flag="0"/>
      <vel value="0.0026571065" flag="0"/>
      <psa03 value="0.0136489606" flag="0"/>
      <psa10 value="0.0009376638" flag="0"/>
      <psa30 value="0.0000951861" flag="0"/>
    </comp>
  </station>
  <station code="TESR" name="TESR" netid="RO" insttype="330" commtype="DIG" lat="46.5118" lon="26.6489">
    <comp name="--.HHE">
      <acc value="0.0046181784" flag="0"/>
      <vel value="0.0010018921" flag="0"/>
      <psa03 value="0.0036636091" flag="0"/>
      <psa10 value="0.0002821185" flag="0"/>
      <psa30 value="0.0000399992" flag="0"/>
    </comp>
    <comp name="--.HHZ">
      <acc value="0.0041800527" flag="0"/>
      <vel value="0.0008333306" flag="0"/>
      <psa03 value="0.0017617926" flag="0"/>
      <psa10 value="0.0001795484" flag="0"/>
      <psa30 value="0.0000338473" flag="0"/>
    </comp>
    <comp name="--.HHN">
      <acc value="0.0042776402" flag="0"/>
      <vel value="0.0013721812" flag="0"/>
      <psa03 value="0.0030608618" flag="0"/>
      <psa10 value="0.0005130094" flag="0"/>
      <psa30 value="0.0000381956" flag="0"/>
    </comp>
  </station>
  <station code="TUDR" name="TUDR" netid="RO" insttype="CMG40T.1to100/Quanterra" commtype="DIG" lat="45.5939" lon="27.6687">
    <comp name="--.HHE">
      <acc value="0.0338845265" flag="0"/>
      <vel value="0.0086389125" flag="0"/>
      <psa03 value="0.0250721767" flag="0"/>
      <psa10 value="0.0027081585" flag="0"/>
      <psa30 value="0.0001795877" flag="0"/>
    </comp>
    <comp name="--.HHZ">
      <acc value="0.0408526070" flag="0"/>
      <vel value="0.0042360514" flag="0"/>
      <psa03 value="0.0088360760" flag="0"/>
      <psa10 value="0.0006238205" flag="0"/>
      <psa30 value="0.0000904041" flag="0"/>
    </comp>
    <comp name="--.HHN">
      <acc value="0.0325403408" flag="0"/>
      <vel value="0.0069310683" flag="0"/>
      <psa03 value="0.0388101558" flag="0"/>
      <psa10 value="0.0019555623" flag="0"/>
      <psa30 value="0.0003326287" flag="0"/>
    </comp>
  </station>
  <station code="VARL" name="VARL" netid="RO" insttype="MBB2/Quanterra" commtype="DIG" lat="45.8996" lon="27.8487">
    <comp name="--.HHN">
      <acc value="0.0293659745" flag="0"/>
      <vel value="0.0077203139" flag="0"/>
      <psa03 value="0.0301744124" flag="0"/>
      <psa10 value="0.0022559726" flag="0"/>
      <psa30 value="0.0001585303" flag="0"/>
    </comp>
    <comp name="--.HHE">
      <acc value="0.0393632134" flag="0"/>
      <vel value="0.0069889567" flag="0"/>
      <psa03 value="0.0215529195" flag="0"/>
      <psa10 value="0.0029450691" flag="0"/>
      <psa30 value="0.0002099189" flag="0"/>
    </comp>
    <comp name="--.HHZ">
      <acc value="0.0224991888" flag="0"/>
      <vel value="0.0036593437" flag="0"/>
      <psa03 value="0.0154986884" flag="0"/>
      <psa10 value="0.0006520499" flag="0"/>
      <psa30 value="0.0000755679" flag="0"/>
    </comp>
  </station>
  <station code="VLDR" name="VLDR" netid="RO" insttype="MBB2/Basalt" commtype="DIG" lat="45.8443" lon="28.0808">
    <comp name="--.HHN">
      <acc value="0.0977816577" flag="0"/>
      <vel value="0.0270175625" flag="0"/>
      <psa03 value="0.0884239581" flag="0"/>
      <psa10 value="0.0037495934" flag="0"/>
      <psa30 value="0.0003813476" flag="0"/>
    </comp>
    <comp name="--.HHE">
      <acc value="0.1371160709" flag="0"/>
      <vel value="0.0267209578" flag="0"/>
      <psa03 value="0.0851123036" flag="0"/>
      <psa10 value="0.0033880292" flag="0"/>
      <psa30 value="0.0003432814" flag="0"/>
    </comp>
    <comp name="--.HHZ">
      <acc value="0.1679142043" flag="0"/>
      <vel value="0.0180431867" flag="0"/>
      <psa03 value="0.0679872877" flag="0"/>
      <psa10 value="0.0016175635" flag="0"/>
      <psa30 value="0.0001656817" flag="0"/>
    </comp>
  </station>
  <station code="VRI" name="VRI" netid="RO" insttype="Linear" commtype="DIG" lat="45.8657" lon="26.7277">
    <comp name="--.HHZ">
      <acc value="0.0085919679" flag="0"/>
      <vel value="0.0012760139" flag="0"/>
      <psa03 value="0.0098630686" flag="0"/>
      <psa10 value="0.0004960357" flag="0"/>
      <psa30 value="0.0000375189" flag="0"/>
    </comp>
    <comp name="--.HHN">
      <acc value="0.0064520091" flag="0"/>
      <vel value="0.0032127724" flag="0"/>
      <psa03 value="0.0223284188" flag="0"/>
      <psa10 value="0.0013654485" flag="0"/>
      <psa30 value="0.0001485739" flag="0"/>
    </comp>
    <comp name="--.HHE">
      <acc value="0.0142660327" flag="0"/>
      <vel value="0.0065260613" flag="0"/>
      <psa03 value="0.0577329143" flag="0"/>
      <psa10 value="0.0021347292" flag="0"/>
      <psa30 value="0.0001486172" flag="0"/>
    </comp>
  </station>
</stationlist>
