<?xml version="1.0" encoding="UTF-8" standalone="yes"?>
<!DOCTYPE earthquake SYSTEM "stationlist.dtd">
<stationlist created="" xmlns="ch.ethz.sed.shakemap.usgs.xml">
  <station code="CHVC" name="CHVC" netid="CZ" insttype="" lat="50.5881" lon="16.0547">
    <comp name="--.HHZ">
      <acc value="0.0089430891" flag="0"/>
      <vel value="0.0175423110" flag="0"/>
      <psa03 value="0.0171224043" flag="0"/>
      <psa10 value="0.0085091662" flag="0"/>
      <psa30 value="0.0062143257" flag="0"/>
    </comp>
    <comp name="--.HHN">
      <acc value="0.0109185579" flag="0"/>
      <vel value="0.0117510608" flag="0"/>
      <psa03 value="0.0428227385" flag="0"/>
      <psa10 value="0.0061260131" flag="0"/>
      <psa30 value="0.0043321456" flag="0"/>
    </comp>
    <comp name="--.HHE">
      <acc value="0.0131804048" flag="0"/>
      <vel value="0.0078349283" flag="0"/>
      <psa03 value="0.0246038724" flag="0"/>
      <psa10 value="0.0050786083" flag="0"/>
      <psa30 value="0.0035316912" flag="0"/>
    </comp>
  </station>
  <station code="UPC" name="UPC" netid="CZ" insttype="" lat="50.5074" lon="16.0121">
    <comp name="--.HHN">
      <acc value="0.0135087422" flag="0"/>
      <vel value="0.0053810084" flag="0"/>
      <psa03 value="0.0466492179" flag="0"/>
      <psa10 value="0.0038153750" flag="0"/>
      <psa30 value="0.0005638916" flag="0"/>
    </comp>
    <comp name="--.HHE">
      <acc value="0.0073454405" flag="0"/>
      <vel value="0.0041133868" flag="0"/>
      <psa03 value="0.0257211188" flag="0"/>
      <psa10 value="0.0048942747" flag="0"/>
      <psa30 value="0.0006575550" flag="0"/>
    </comp>
    <comp name="--.HHZ">
      <acc value="0.0051390414" flag="0"/>
      <vel value="0.0021699004" flag="0"/>
      <psa03 value="0.0102609408" flag="0"/>
      <psa10 value="0.0017071535" flag="0"/>
      <psa30 value="0.0003690630" flag="0"/>
    </comp>
  </station>
</stationlist>
