<?xml version="1.0" encoding="UTF-8" standalone="yes"?>
<!DOCTYPE earthquake SYSTEM "stationlist.dtd">
<stationlist created="" xmlns="ch.ethz.sed.shakemap.usgs.xml">
  <station code="PUK" name="PUK" netid="AC" source="INGV" insttype="" lat="42.0426" lon="19.8926">
    <comp name="--.HHE">
      <acc value="0.4578198676" flag="0"/>
      <vel value="0.1446584584" flag="0"/>
      <psa03 value="1.2609457102" flag="0"/>
      <psa10 value="0.0404732095" flag="0"/>
      <psa30 value="0.0041221451" flag="0"/>
    </comp>
    <comp name="--.HHN">
      <acc value="0.2925506051" flag="0"/>
      <vel value="0.0609377334" flag="0"/>
      <psa03 value="0.4243150644" flag="0"/>
      <psa10 value="0.0261906605" flag="0"/>
      <psa30 value="0.0015280313" flag="0"/>
    </comp>
    <comp name="--.HHZ">
      <acc value="0.2151890382" flag="0"/>
      <vel value="0.0470682188" flag="0"/>
      <psa03 value="0.4173089340" flag="0"/>
      <psa10 value="0.0150781545" flag="0"/>
      <psa30 value="0.0015132427" flag="0"/>
    </comp>
  </station>
</stationlist>
