<?xml version="1.0" encoding="UTF-8" standalone="yes"?>
<!DOCTYPE earthquake SYSTEM "stationlist.dtd">
<stationlist created="" xmlns="ch.ethz.sed.shakemap.usgs.xml">
  <station code="CQUE" name="CQUE" netid="IV" insttype="" lat="40.8854" lon="14.1554">
    <comp name="--.HNE">
      <acc value="0.0287853848" flag="0"/>
      <vel value="0.0025711334" flag="0"/>
      <psa03 value="0.0020521445" flag="0"/>
      <psa10 value="0.0006230933" flag="0"/>
      <psa30 value="0.0002413905" flag="0"/>
    </comp>
    <comp name="--.HNN">
      <acc value="0.0247742315" flag="0"/>
      <vel value="0.0014264162" flag="0"/>
      <psa03 value="0.0019368801" flag="0"/>
      <psa10 value="0.0008171279" flag="0"/>
      <psa30 value="0.0003225361" flag="0"/>
    </comp>
    <comp name="--.HNZ">
      <acc value="0.0478548767" flag="0"/>
      <vel value="0.0040425744" flag="0"/>
      <psa03 value="0.0026457763" flag="0"/>
      <psa10 value="0.0005857746" flag="0"/>
      <psa30 value="0.0003816786" flag="0"/>
    </comp>
  </station>
  <station code="PTRJ" name="PTRJ" netid="IV" insttype="" lat="41.3641" lon="14.529">
    <comp name="--.HHE">
      <acc value="0.0002542576" flag="0"/>
      <vel value="0.0001133899" flag="0"/>
      <psa03 value="0.0003134757" flag="0"/>
      <psa10 value="0.0001901330" flag="0"/>
      <psa30 value="0.0000079344" flag="0"/>
    </comp>
    <comp name="--.HHZ">
      <acc value="0.0002314759" flag="0"/>
      <vel value="0.0001441309" flag="0"/>
      <psa03 value="0.0003873083" flag="0"/>
      <psa10 value="0.0001446451" flag="0"/>
      <psa30 value="0.0000102972" flag="0"/>
    </comp>
    <comp name="--.HHN">
      <acc value="0.0002336197" flag="0"/>
      <vel value="0.0001526918" flag="0"/>
      <psa03 value="0.0004085857" flag="0"/>
      <psa10 value="0.0002593190" flag="0"/>
      <psa30 value="0.0000112195" flag="0"/>
    </comp>
  </station>
</stationlist>
