<?xml version="1.0" encoding="UTF-8" standalone="yes"?>
<!DOCTYPE earthquake SYSTEM "stationlist.dtd">
<stationlist created="" xmlns="ch.ethz.sed.shakemap.usgs.xml">
  <station code="SVRC" name="SVRC" netid="KO" insttype="CMG-3T" lat="38.3775" lon="39.306">
    <comp name="--.HHE">
      <acc value="0.0332820610" flag="0"/>
      <vel value="0.0116044285" flag="0"/>
      <psa03 value="0.0653634724" flag="0"/>
      <psa10 value="0.0039647040" flag="0"/>
      <psa30 value="0.0003056830" flag="0"/>
    </comp>
    <comp name="--.HHZ">
      <acc value="0.0218069091" flag="0"/>
      <vel value="0.0065802185" flag="0"/>
      <psa03 value="0.0243045806" flag="0"/>
      <psa10 value="0.0023529422" flag="0"/>
      <psa30 value="0.0002107595" flag="0"/>
    </comp>
    <comp name="--.HHN">
      <acc value="0.0227839919" flag="0"/>
      <vel value="0.0078754047" flag="0"/>
      <psa03 value="0.0455693870" flag="0"/>
      <psa10 value="0.0033290026" flag="0"/>
      <psa30 value="0.0003496058" flag="0"/>
    </comp>
  </station>
  <station code="URFA" name="URFA" netid="KO" insttype="CMG-3ESP" lat="37.4409" lon="38.8213">
    <comp name="--.HHE">
      <acc value="0.0365363309" flag="0"/>
      <vel value="0.0084078349" flag="0"/>
      <psa03 value="0.0371754271" flag="0"/>
      <psa10 value="0.0046139709" flag="0"/>
      <psa30 value="0.0003000160" flag="0"/>
    </comp>
    <comp name="--.HHN">
      <acc value="0.0493059022" flag="0"/>
      <vel value="0.0111817562" flag="0"/>
      <psa03 value="0.0348663064" flag="0"/>
      <psa10 value="0.0039044087" flag="0"/>
      <psa30 value="0.0003630377" flag="0"/>
    </comp>
    <comp name="--.HHZ">
      <acc value="0.0255000341" flag="0"/>
      <vel value="0.0057202517" flag="0"/>
      <psa03 value="0.0213785066" flag="0"/>
      <psa10 value="0.0030149492" flag="0"/>
      <psa30 value="0.0003445615" flag="0"/>
    </comp>
  </station>
</stationlist>
