<?xml version="1.0" encoding="UTF-8" standalone="yes"?>
<!DOCTYPE earthquake SYSTEM "stationlist.dtd">
<stationlist created="" xmlns="ch.ethz.sed.shakemap.usgs.xml">
  <station code="BNN" name="BNN" netid="KO" insttype="CMG-3T" lat="38.8521" lon="35.8472">
    <comp name="--.HHE">
      <acc value="0.0126480634" flag="0"/>
      <vel value="0.0114971613" flag="0"/>
      <psa03 value="0.0354361125" flag="0"/>
      <psa10 value="0.0239223583" flag="0"/>
      <psa30 value="0.0012503906" flag="0"/>
    </comp>
    <comp name="--.HHZ">
      <acc value="0.0062653468" flag="0"/>
      <vel value="0.0069773442" flag="0"/>
      <psa03 value="0.0246769806" flag="0"/>
      <psa10 value="0.0138564140" flag="0"/>
      <psa30 value="0.0013164980" flag="0"/>
    </comp>
    <comp name="--.HHN">
      <acc value="0.0089467812" flag="0"/>
      <vel value="0.0101801081" flag="0"/>
      <psa03 value="0.0273067558" flag="0"/>
      <psa10 value="0.0155287458" flag="0"/>
      <psa30 value="0.0017552536" flag="0"/>
    </comp>
  </station>
  <station code="CEYT" name="CEYT" netid="KO" insttype="CMG-3ESP" lat="37.0105" lon="35.7478">
    <comp name="--.HHE">
      <acc value="0.0126571285" flag="0"/>
      <vel value="0.0063723935" flag="0"/>
      <psa03 value="0.0264524909" flag="0"/>
      <psa10 value="0.0122529627" flag="0"/>
      <psa30 value="0.0016212191" flag="0"/>
    </comp>
    <comp name="--.HHN">
      <acc value="0.0079489071" flag="0"/>
      <vel value="0.0054734394" flag="0"/>
      <psa03 value="0.0175211105" flag="0"/>
      <psa10 value="0.0128237208" flag="0"/>
      <psa30 value="0.0012488372" flag="0"/>
    </comp>
    <comp name="--.HHZ">
      <acc value="0.0063431073" flag="0"/>
      <vel value="0.0052285121" flag="0"/>
      <psa03 value="0.0118313478" flag="0"/>
      <psa10 value="0.0086184115" flag="0"/>
      <psa30 value="0.0010779222" flag="0"/>
    </comp>
  </station>
  <station code="DARE" name="DARE" netid="KO" insttype="CMG-3ESP" lat="38.5712" lon="37.4832">
    <comp name="--.HHE">
      <acc value="0.0086053805" flag="0"/>
      <vel value="0.0072755709" flag="0"/>
      <psa03 value="0.0278878377" flag="0"/>
      <psa10 value="0.0076744876" flag="0"/>
      <psa30 value="0.0009145545" flag="0"/>
    </comp>
    <comp name="--.HHN">
      <acc value="0.0100641724" flag="0"/>
      <vel value="0.0075962844" flag="0"/>
      <psa03 value="0.0217570703" flag="0"/>
      <psa10 value="0.0137176976" flag="0"/>
      <psa30 value="0.0009983084" flag="0"/>
    </comp>
    <comp name="--.HHZ">
      <acc value="0.0082486069" flag="0"/>
      <vel value="0.0052294638" flag="0"/>
      <psa03 value="0.0250183356" flag="0"/>
      <psa10 value="0.0079574581" flag="0"/>
      <psa30 value="0.0008122331" flag="0"/>
    </comp>
  </station>
  <station code="KMRS" name="KMRS" netid="KO" insttype="CMG-3T" lat="37.5053" lon="36.9">
    <comp name="--.HHZ">
      <acc value="0.1233445562" flag="0"/>
      <vel value="0.0639196943" flag="0"/>
      <psa03 value="0.3546451471" flag="0"/>
      <psa10 value="0.0265220321" flag="0"/>
      <psa30 value="0.0059624744" flag="0"/>
    </comp>
  </station>
  <station code="SARI" name="SARI" netid="KO" insttype="CMG-3T" lat="38.4072" lon="36.4181">
    <comp name="--.HHZ">
      <acc value="0.0530222915" flag="0"/>
      <vel value="0.0182132980" flag="0"/>
      <psa03 value="0.1248780316" flag="0"/>
      <psa10 value="0.0246333584" flag="0"/>
      <psa30 value="0.0017844446" flag="0"/>
    </comp>
    <comp name="--.HHN">
      <acc value="0.0612016857" flag="0"/>
      <vel value="0.0261929264" flag="0"/>
      <psa03 value="0.1067619470" flag="0"/>
      <psa10 value="0.0318095563" flag="0"/>
      <psa30 value="0.0019493483" flag="0"/>
    </comp>
  </station>
  <station code="ANDN" name="ANDN" netid="TU" insttype="T" lat="37.58" lon="36.3452">
    <comp name="--.HHZ">
      <acc value="0.1334539813" flag="0"/>
      <vel value="0.1139979169" flag="0"/>
      <psa03 value="0.4122070315" flag="0"/>
      <psa10 value="0.1652541953" flag="0"/>
      <psa30 value="0.0106786619" flag="0"/>
    </comp>
    <comp name="--.HHE">
      <acc value="0.2208917047" flag="0"/>
      <vel value="0.1481543432" flag="0"/>
      <psa03 value="0.5027555345" flag="0"/>
      <psa10 value="0.1604551360" flag="0"/>
      <psa30 value="0.0164619704" flag="0"/>
    </comp>
    <comp name="--.HHN">
      <acc value="0.2452690566" flag="0"/>
      <vel value="0.1352447582" flag="0"/>
      <psa03 value="0.4732086624" flag="0"/>
      <psa10 value="0.1708701983" flag="0"/>
      <psa30 value="0.0170692251" flag="0"/>
    </comp>
  </station>
</stationlist>
