<?xml version="1.0" encoding="UTF-8" standalone="yes"?>
<!DOCTYPE earthquake SYSTEM "stationlist.dtd">
<stationlist created="" xmlns="ch.ethz.sed.shakemap.usgs.xml">
  <station code="DARE" name="DARE" netid="KO" insttype="CMG-3ESP" lat="38.5712" lon="37.4832">
    <comp name="--.HHE">
      <acc value="0.0086053803" flag="0"/>
      <vel value="0.0072755727" flag="0"/>
      <psa03 value="0.0278878377" flag="0"/>
      <psa10 value="0.0076744876" flag="0"/>
      <psa30 value="0.0009145605" flag="0"/>
    </comp>
    <comp name="--.HHN">
      <acc value="0.0100641722" flag="0"/>
      <vel value="0.0075962838" flag="0"/>
      <psa03 value="0.0217570703" flag="0"/>
      <psa10 value="0.0137176976" flag="0"/>
      <psa30 value="0.0009983179" flag="0"/>
    </comp>
    <comp name="--.HHZ">
      <acc value="0.0082486072" flag="0"/>
      <vel value="0.0052294631" flag="0"/>
      <psa03 value="0.0250183356" flag="0"/>
      <psa10 value="0.0079574581" flag="0"/>
      <psa30 value="0.0008122358" flag="0"/>
    </comp>
  </station>
  <station code="GAZ" name="GAZ" netid="KO" insttype="CMG-3T" lat="37.1721" lon="37.2096">
    <comp name="--.HHN">
      <acc value="0.0464575941" flag="0"/>
      <vel value="0.0389848747" flag="0"/>
      <psa03 value="0.1261138132" flag="0"/>
      <psa10 value="0.0374925797" flag="0"/>
      <psa30 value="0.0025329700" flag="0"/>
    </comp>
    <comp name="--.HHZ">
      <acc value="0.0300062580" flag="0"/>
      <vel value="0.0206160505" flag="0"/>
      <psa03 value="0.0673748786" flag="0"/>
      <psa10 value="0.0224966671" flag="0"/>
      <psa30 value="0.0032357444" flag="0"/>
    </comp>
  </station>
  <station code="KMRS" name="KMRS" netid="KO" insttype="CMG-3T" lat="37.5053" lon="36.9">
    <comp name="--.HHZ">
      <acc value="0.1233445560" flag="0"/>
      <vel value="0.0639196952" flag="0"/>
      <psa03 value="0.3546451471" flag="0"/>
      <psa10 value="0.0265220321" flag="0"/>
      <psa30 value="0.0059624137" flag="0"/>
    </comp>
  </station>
  <station code="SARI" name="SARI" netid="KO" insttype="CMG-3T" lat="38.4072" lon="36.4181">
    <comp name="--.HHN">
      <acc value="0.0612016855" flag="0"/>
      <vel value="0.0261929277" flag="0"/>
      <psa03 value="0.1067619470" flag="0"/>
      <psa10 value="0.0318095534" flag="0"/>
      <psa30 value="0.0019492915" flag="0"/>
    </comp>
    <comp name="--.HHZ">
      <acc value="0.0530222921" flag="0"/>
      <vel value="0.0182133192" flag="0"/>
      <psa03 value="0.1248780316" flag="0"/>
      <psa10 value="0.0246333538" flag="0"/>
      <psa30 value="0.0017847849" flag="0"/>
    </comp>
  </station>
  <station code="ANDN" name="ANDN" netid="TU" insttype="T" lat="37.58" lon="36.3452">
    <comp name="--.HHE">
      <acc value="0.2208917052" flag="0"/>
      <vel value="0.1481543445" flag="0"/>
      <psa03 value="0.5027555345" flag="0"/>
      <psa10 value="0.1604551377" flag="0"/>
      <psa30 value="0.0164624036" flag="0"/>
    </comp>
    <comp name="--.HHN">
      <acc value="0.2452690565" flag="0"/>
      <vel value="0.1352447485" flag="0"/>
      <psa03 value="0.4732086624" flag="0"/>
      <psa10 value="0.1708701988" flag="0"/>
      <psa30 value="0.0170685700" flag="0"/>
    </comp>
    <comp name="--.HHZ">
      <acc value="0.1334539805" flag="0"/>
      <vel value="0.1139979239" flag="0"/>
      <psa03 value="0.4122070315" flag="0"/>
      <psa10 value="0.1652541976" flag="0"/>
      <psa30 value="0.0106788481" flag="0"/>
    </comp>
  </station>
</stationlist>
