<?xml version="1.0" encoding="UTF-8" standalone="yes"?>
<!DOCTYPE earthquake SYSTEM "stationlist.dtd">
<stationlist created="" xmlns="ch.ethz.sed.shakemap.usgs.xml">
  <station code="GVD" name="GVD" netid="GE" insttype="STS-2/N" lat="34.8391" lon="24.0874">
    <comp name="--.HHE">
      <acc value="0.1234328260" flag="0"/>
      <vel value="0.2473410686" flag="0"/>
      <psa03 value="0.2251919758" flag="0"/>
      <psa10 value="0.2628848474" flag="0"/>
      <psa30 value="0.1315873987" flag="0"/>
    </comp>
    <comp name="--.HHN">
      <acc value="0.1288588848" flag="0"/>
      <vel value="0.4743766106" flag="0"/>
      <psa03 value="0.3905841175" flag="0"/>
      <psa10 value="0.2552399361" flag="0"/>
      <psa30 value="0.1537316801" flag="0"/>
    </comp>
    <comp name="--.HHZ">
      <acc value="0.0588521491" flag="0"/>
      <vel value="0.2206533343" flag="0"/>
      <psa03 value="0.1929030044" flag="0"/>
      <psa10 value="0.1573069147" flag="0"/>
      <psa30 value="0.0708444203" flag="0"/>
    </comp>
  </station>
  <station code="IMMV" name="IMMV" netid="GE" insttype="STS-2/N" lat="35.4606" lon="23.9811">
    <comp name="--.HHN">
      <acc value="0.0762435535" flag="0"/>
      <vel value="0.2379323167" flag="0"/>
      <psa03 value="0.1263843480" flag="0"/>
      <psa10 value="0.1720822464" flag="0"/>
      <psa30 value="0.0928289111" flag="0"/>
    </comp>
    <comp name="--.HHE">
      <acc value="0.1060440100" flag="0"/>
      <vel value="0.3079497737" flag="0"/>
      <psa03 value="0.1137294722" flag="0"/>
      <psa10 value="0.2050375465" flag="0"/>
      <psa30 value="0.1453747760" flag="0"/>
    </comp>
    <comp name="--.HHZ">
      <acc value="0.0518862221" flag="0"/>
      <vel value="0.1492305594" flag="0"/>
      <psa03 value="0.0780904787" flag="0"/>
      <psa10 value="0.1331079817" flag="0"/>
      <psa30 value="0.0626211626" flag="0"/>
    </comp>
  </station>
  <station code="KARP" name="KARP" netid="GE" insttype="STS-2/N" lat="35.5471" lon="27.1611">
    <comp name="--.HHE">
      <acc value="0.0845164142" flag="0"/>
      <vel value="0.4292301381" flag="0"/>
      <psa03 value="0.1129727790" flag="0"/>
      <psa10 value="0.2588164448" flag="0"/>
      <psa30 value="0.1092522696" flag="0"/>
    </comp>
    <comp name="--.HHZ">
      <acc value="0.0585465505" flag="0"/>
      <vel value="0.3496350841" flag="0"/>
      <psa03 value="0.0934159736" flag="0"/>
      <psa10 value="0.1174834340" flag="0"/>
      <psa30 value="0.1091167429" flag="0"/>
    </comp>
    <comp name="--.HHN">
      <acc value="0.0943697947" flag="0"/>
      <vel value="0.4174345540" flag="0"/>
      <psa03 value="0.1353596792" flag="0"/>
      <psa10 value="0.2434204307" flag="0"/>
      <psa30 value="0.0989947796" flag="0"/>
    </comp>
  </station>
  <station code="THERA" name="THERA" netid="GE" insttype="STS-2/N" lat="36.367" lon="25.4753">
    <comp name="--.HHE">
      <acc value="0.0364055980" flag="0"/>
      <vel value="0.2082404658" flag="0"/>
      <psa03 value="0.0401155946" flag="0"/>
      <psa10 value="0.0674365946" flag="0"/>
      <psa30 value="0.0889773588" flag="0"/>
    </comp>
    <comp name="--.HHN">
      <acc value="0.0356371631" flag="0"/>
      <vel value="0.2264232242" flag="0"/>
      <psa03 value="0.0514741536" flag="0"/>
      <psa10 value="0.0411226359" flag="0"/>
      <psa30 value="0.0821232025" flag="0"/>
    </comp>
    <comp name="--.HHZ">
      <acc value="0.0282936134" flag="0"/>
      <vel value="0.1794277044" flag="0"/>
      <psa03 value="0.0410435942" flag="0"/>
      <psa10 value="0.0522993188" flag="0"/>
      <psa30 value="0.0773729961" flag="0"/>
    </comp>
  </station>
  <station code="ZKR" name="ZKR" netid="GE" insttype="STS-2/N" lat="35.1147" lon="26.2169">
    <comp name="--.HHE">
      <acc value="0.2460118187" flag="0"/>
      <vel value="0.8400656153" flag="0"/>
      <psa03 value="0.4568959107" flag="0"/>
      <psa10 value="0.4894102628" flag="0"/>
      <psa30 value="0.3008205431" flag="0"/>
    </comp>
    <comp name="--.HHZ">
      <acc value="0.1393600054" flag="0"/>
      <vel value="0.5286880475" flag="0"/>
      <psa03 value="0.2427244112" flag="0"/>
      <psa10 value="0.3411088413" flag="0"/>
      <psa30 value="0.1613465275" flag="0"/>
    </comp>
    <comp name="--.HHN">
      <acc value="0.0899357591" flag="0"/>
      <vel value="0.2584806612" flag="0"/>
      <psa03 value="0.2139555448" flag="0"/>
      <psa10 value="0.1441063128" flag="0"/>
      <psa30 value="0.1082491780" flag="0"/>
    </comp>
  </station>
  <station code="SIT2" name="SIT2" netid="HI" insttype="CMG-5TD,ACCELEROMETER,GURALP" lat="35.2059" lon="26.107">
    <comp name="--.HNE">
      <acc value="0.5774507877" flag="0"/>
      <vel value="0.9711674811" flag="0"/>
      <psa03 value="1.2946930133" flag="0"/>
      <psa10 value="0.5949914436" flag="0"/>
      <psa30 value="0.2211065956" flag="0"/>
    </comp>
    <comp name="--.HNN">
      <acc value="0.6094206181" flag="0"/>
      <vel value="0.7026593719" flag="0"/>
      <psa03 value="1.0902126983" flag="0"/>
      <psa10 value="0.5431676644" flag="0"/>
      <psa30 value="0.1339704825" flag="0"/>
    </comp>
    <comp name="--.HNZ">
      <acc value="0.2190650901" flag="0"/>
      <vel value="0.6908030020" flag="0"/>
      <psa03 value="0.5467104217" flag="0"/>
      <psa10 value="0.3287958569" flag="0"/>
      <psa30 value="0.2456373043" flag="0"/>
    </comp>
  </station>
  <station code="GVD" name="GVD" netid="HL" insttype="120" lat="34.8391" lon="24.0874">
    <comp name="--.HHE">
      <acc value="0.1207554078" flag="0"/>
      <vel value="0.2466678903" flag="0"/>
      <psa03 value="0.2190364565" flag="0"/>
      <psa10 value="0.2616839139" flag="0"/>
      <psa30 value="0.1316896857" flag="0"/>
    </comp>
    <comp name="--.HHN">
      <acc value="0.1269696788" flag="0"/>
      <vel value="0.4746346531" flag="0"/>
      <psa03 value="0.3812121219" flag="0"/>
      <psa10 value="0.2535571105" flag="0"/>
      <psa30 value="0.1538778938" flag="0"/>
    </comp>
    <comp name="--.HHZ">
      <acc value="0.0582027302" flag="0"/>
      <vel value="0.2204554032" flag="0"/>
      <psa03 value="0.1878679156" flag="0"/>
      <psa10 value="0.1566204303" flag="0"/>
      <psa30 value="0.0709137653" flag="0"/>
    </comp>
  </station>
  <station code="IACM" name="IACM" netid="HL" insttype="120" lat="35.3058" lon="25.0709">
    <comp name="--.HHE">
      <acc value="0.6473850504" flag="0"/>
      <vel value="1.0705945980" flag="0"/>
      <psa03 value="0.8802577605" flag="0"/>
      <psa10 value="1.8233156253" flag="0"/>
      <psa30 value="0.3222398305" flag="0"/>
    </comp>
    <comp name="--.HHN">
      <acc value="0.3794752776" flag="0"/>
      <vel value="0.8166366748" flag="0"/>
      <psa03 value="0.7998142433" flag="0"/>
      <psa10 value="1.1510729629" flag="0"/>
      <psa30 value="0.2869465065" flag="0"/>
    </comp>
    <comp name="--.HHZ">
      <acc value="0.1837152319" flag="0"/>
      <vel value="0.3996229645" flag="0"/>
      <psa03 value="0.3476837505" flag="0"/>
      <psa10 value="0.4199042031" flag="0"/>
      <psa30 value="0.1476987456" flag="0"/>
    </comp>
  </station>
  <station code="IMMV" name="IMMV" netid="HL" insttype="120" lat="35.4606" lon="23.9811">
    <comp name="--.HHE">
      <acc value="0.1054645549" flag="0"/>
      <vel value="0.3076333924" flag="0"/>
      <psa03 value="0.1128015258" flag="0"/>
      <psa10 value="0.2040169904" flag="0"/>
      <psa30 value="0.1455026591" flag="0"/>
    </comp>
    <comp name="--.HHZ">
      <acc value="0.0513930412" flag="0"/>
      <vel value="0.1492247692" flag="0"/>
      <psa03 value="0.0760511383" flag="0"/>
      <psa10 value="0.1324355139" flag="0"/>
      <psa30 value="0.0626562071" flag="0"/>
    </comp>
    <comp name="--.HHN">
      <acc value="0.0753143067" flag="0"/>
      <vel value="0.2380986648" flag="0"/>
      <psa03 value="0.1235044674" flag="0"/>
      <psa10 value="0.1713375207" flag="0"/>
      <psa30 value="0.0929203001" flag="0"/>
    </comp>
  </station>
  <station code="KARP" name="KARP" netid="HL" insttype="120" lat="35.5471" lon="27.1611">
    <comp name="--.HHE">
      <acc value="0.0820733543" flag="0"/>
      <vel value="0.4286638804" flag="0"/>
      <psa03 value="0.1114458966" flag="0"/>
      <psa10 value="0.2572575151" flag="0"/>
      <psa30 value="0.1091101708" flag="0"/>
    </comp>
    <comp name="--.HHN">
      <acc value="0.0927611444" flag="0"/>
      <vel value="0.4170564652" flag="0"/>
      <psa03 value="0.1336827143" flag="0"/>
      <psa10 value="0.2420247246" flag="0"/>
      <psa30 value="0.0988612378" flag="0"/>
    </comp>
    <comp name="--.HHZ">
      <acc value="0.0581867022" flag="0"/>
      <vel value="0.3492237027" flag="0"/>
      <psa03 value="0.0914967044" flag="0"/>
      <psa10 value="0.1170832223" flag="0"/>
      <psa30 value="0.1089910054" flag="0"/>
    </comp>
  </station>
  <station code="NPS" name="NPS" netid="HL" insttype="CMG3ESPC-120s" lat="35.2613" lon="25.6104">
    <comp name="--.HHE">
      <acc value="0.0469007898" flag="0"/>
      <vel value="0.1548983129" flag="0"/>
      <psa03 value="0.1226292227" flag="0"/>
      <psa10 value="0.1495502495" flag="0"/>
      <psa30 value="0.0436618152" flag="0"/>
    </comp>
    <comp name="--.HHN">
      <acc value="0.1138094529" flag="0"/>
      <vel value="0.2927180397" flag="0"/>
      <psa03 value="0.1707442118" flag="0"/>
      <psa10 value="0.2810894839" flag="0"/>
      <psa30 value="0.1479579310" flag="0"/>
    </comp>
    <comp name="--.HHZ">
      <acc value="0.0914229204" flag="0"/>
      <vel value="0.2996508169" flag="0"/>
      <psa03 value="0.1388155985" flag="0"/>
      <psa10 value="0.1770039895" flag="0"/>
      <psa30 value="0.1164997512" flag="0"/>
    </comp>
  </station>
  <station code="THERA" name="THERA" netid="HL" insttype="120" lat="36.367" lon="25.4753">
    <comp name="--.HHE">
      <acc value="0.0364157918" flag="0"/>
      <vel value="0.2084515227" flag="0"/>
      <psa03 value="0.0398022505" flag="0"/>
      <psa10 value="0.0672201671" flag="0"/>
      <psa30 value="0.0890539582" flag="0"/>
    </comp>
    <comp name="--.HHZ">
      <acc value="0.0282379070" flag="0"/>
      <vel value="0.1796217654" flag="0"/>
      <psa03 value="0.0403517577" flag="0"/>
      <psa10 value="0.0521342461" flag="0"/>
      <psa30 value="0.0774260798" flag="0"/>
    </comp>
    <comp name="--.HHN">
      <acc value="0.0355635895" flag="0"/>
      <vel value="0.2267743346" flag="0"/>
      <psa03 value="0.0504444873" flag="0"/>
      <psa10 value="0.0410870419" flag="0"/>
      <psa30 value="0.0822014741" flag="0"/>
    </comp>
  </station>
  <station code="VAM" name="VAM" netid="HL" insttype="CMG3ESPC-120s" lat="35.407" lon="24.1997">
    <comp name="--.HHE">
      <acc value="0.0750534677" flag="0"/>
      <vel value="0.2668179979" flag="0"/>
      <psa03 value="0.1442906885" flag="0"/>
      <psa10 value="0.2390340101" flag="0"/>
      <psa30 value="0.0874688355" flag="0"/>
    </comp>
    <comp name="--.HHN">
      <acc value="0.0891501515" flag="0"/>
      <vel value="0.4124715141" flag="0"/>
      <psa03 value="0.1732084149" flag="0"/>
      <psa10 value="0.2024408865" flag="0"/>
      <psa30 value="0.0909109141" flag="0"/>
    </comp>
    <comp name="--.HHZ">
      <acc value="0.0508144564" flag="0"/>
      <vel value="0.2492104210" flag="0"/>
      <psa03 value="0.0836344321" flag="0"/>
      <psa10 value="0.1212896283" flag="0"/>
      <psa30 value="0.0956296825" flag="0"/>
    </comp>
  </station>
  <station code="ZKR" name="ZKR" netid="HL" insttype="120" lat="35.1147" lon="26.2169">
    <comp name="--.HHN">
      <acc value="0.0882385363" flag="0"/>
      <vel value="0.2583121680" flag="0"/>
      <psa03 value="0.2090644209" flag="0"/>
      <psa10 value="0.1433422909" flag="0"/>
      <psa30 value="0.1083050306" flag="0"/>
    </comp>
    <comp name="--.HHZ">
      <acc value="0.1378446035" flag="0"/>
      <vel value="0.5286940470" flag="0"/>
      <psa03 value="0.2369143521" flag="0"/>
      <psa10 value="0.3396041242" flag="0"/>
      <psa30 value="0.1614796652" flag="0"/>
    </comp>
    <comp name="--.HHE">
      <acc value="0.2439453355" flag="0"/>
      <vel value="0.8400244086" flag="0"/>
      <psa03 value="0.4462033852" flag="0"/>
      <psa10 value="0.4874385043" flag="0"/>
      <psa30 value="0.3010369232" flag="0"/>
    </comp>
  </station>
</stationlist>
