<stationlist created="1778069387">
	<station code="IMMV" name="IMMV" netid="GE" source="GEOFON" insttype="" lat="35.4606" lon="23.9811">
		<comp name="--.HNE" depth="0.0">
			<acc value="0.106082979117632" flag="0"/>
			<vel value="0.338429198418135" flag="0"/>
			<psa03 value="0.111855516545679" flag="0"/>
			<psa10 value="0.205435183953993" flag="0"/>
			<psa30 value="0.146486879312354" flag="0"/>
		</comp>
		<comp name="--.HNN" depth="0.0">
			<acc value="0.0773843311496902" flag="0"/>
			<vel value="0.275888941959182" flag="0"/>
			<psa03 value="0.124383334398795" flag="0"/>
			<psa10 value="0.172540266226174" flag="0"/>
			<psa30 value="0.095166673477064" flag="0"/>
		</comp>
		<comp name="--.HNZ" depth="0.0">
			<acc value="0.0511352193980946" flag="0"/>
			<vel value="0.166014420897354" flag="0"/>
			<psa03 value="0.0753906181517879" flag="0"/>
			<psa10 value="0.135066878495106" flag="0"/>
			<psa30 value="0.0630023959833208" flag="0"/>
		</comp>
	</station>
	<station code="KARP" name="KARP" netid="GE" source="GEOFON" insttype="" lat="35.5471" lon="27.16106">
		<comp name="--.HNE" depth="0.0">
			<acc value="0.0719228199593402" flag="0"/>
			<vel value="0.528625341817218" flag="0"/>
			<psa03 value="0.103220270668353" flag="0"/>
			<psa10 value="0.217471284956375" flag="0"/>
			<psa30 value="0.0930883979796453" flag="0"/>
		</comp>
		<comp name="--.HNN" depth="0.0">
			<acc value="0.0844647433514933" flag="0"/>
			<vel value="0.614491651411964" flag="0"/>
			<psa03 value="0.118387878711947" flag="0"/>
			<psa10 value="0.208737158802422" flag="0"/>
			<psa30 value="0.0984077989244916" flag="0"/>
		</comp>
		<comp name="--.HNZ" depth="0.0">
			<acc value="0.0547170422893917" flag="0"/>
			<vel value="0.407275504748428" flag="0"/>
			<psa03 value="0.0770908220032822" flag="0"/>
			<psa10 value="0.10503501456879" flag="0"/>
			<psa30 value="0.0850397224310844" flag="0"/>
		</comp>
	</station>
	<station code="KTHA" name="KTHA" netid="GE" source="GEOFON" insttype="" lat="36.2566" lon="23.0621">
		<comp name="--.HNE" depth="0.0">
			<acc value="0.0313756123895681" flag="0"/>
			<vel value="0.168978607512296" flag="0"/>
			<psa03 value="0.0655920749023864" flag="0"/>
			<psa10 value="0.0608288195858052" flag="0"/>
			<psa30 value="0.0721101195625362" flag="0"/>
		</comp>
		<comp name="--.HNN" depth="0.0">
			<acc value="0.0209937535256766" flag="0"/>
			<vel value="0.096017168505632" flag="0"/>
			<psa03 value="0.0387914931380416" flag="0"/>
			<psa10 value="0.0321459331890297" flag="0"/>
			<psa30 value="0.0435708556490054" flag="0"/>
		</comp>
		<comp name="--.HNZ" depth="0.0">
			<acc value="0.0198749747575255" flag="0"/>
			<vel value="0.14998272608196" flag="0"/>
			<psa03 value="0.0222368766892811" flag="0"/>
			<psa10 value="0.0311754747274794" flag="0"/>
			<psa30 value="0.0542450038819265" flag="0"/>
		</comp>
	</station>
	<station code="CH01" name="CH01" netid="HI" source="ITSAK Strong Motion Network" insttype="" lat="35.517" lon="24.0208">
		<comp name="--.HNE" depth="0.0">
			<acc value="0.0931950813455873" flag="0"/>
			<vel value="0.414463236504248" flag="0"/>
			<psa03 value="0.115837572934706" flag="0"/>
			<psa10 value="0.232781173217015" flag="0"/>
			<psa30 value="0.204915279513089" flag="0"/>
		</comp>
		<comp name="--.HNN" depth="0.0">
			<acc value="0.0848071335428491" flag="0"/>
			<vel value="0.328802849694515" flag="0"/>
			<psa03 value="0.123175294820102" flag="0"/>
			<psa10 value="0.19704333568067" flag="0"/>
			<psa30 value="0.285737601548335" flag="0"/>
		</comp>
		<comp name="--.HNZ" depth="0.0">
			<acc value="0.0575128764632508" flag="0"/>
			<vel value="0.295994197931672" flag="0"/>
			<psa03 value="0.0761959778709168" flag="0"/>
			<psa10 value="0.140249368287701" flag="0"/>
			<psa30 value="0.107494941088663" flag="0"/>
		</comp>
	</station>
	<station code="SIT2" name="SIT2" netid="HI" source="ITSAK Strong Motion Network" insttype="" lat="35.2059" lon="26.107">
		<comp name="--.HNE" depth="0.0">
			<acc value="0.578775033338787" flag="0"/>
			<vel value="0.976320138980086" flag="0"/>
			<psa03 value="1.29412358422689" flag="0"/>
			<psa10 value="0.598462807284679" flag="0"/>
			<psa30 value="0.221309718862156" flag="0"/>
		</comp>
		<comp name="--.HNN" depth="0.0">
			<acc value="0.603019807982328" flag="0"/>
			<vel value="0.805519734606419" flag="0"/>
			<psa03 value="1.08441686180705" flag="0"/>
			<psa10 value="0.552758643224115" flag="0"/>
			<psa30 value="0.134171586940675" flag="0"/>
		</comp>
		<comp name="--.HNZ" depth="0.0">
			<acc value="0.211239061554416" flag="0"/>
			<vel value="0.73921630934356" flag="0"/>
			<psa03 value="0.538338230031046" flag="0"/>
			<psa10 value="0.338480609554086" flag="0"/>
			<psa30 value="0.255900366220808" flag="0"/>
		</comp>
	</station>
	<station code="IACM" name="IACM" netid="HL" source="National Observatory of Athens Seismic Network" insttype="" lat="35.3058" lon="25.0709">
		<comp name="--.HNE" depth="0.0">
			<acc value="0.652516227278501" flag="0"/>
			<vel value="1.09716564026933" flag="0"/>
			<psa03 value="0.860347891062748" flag="0"/>
			<psa10 value="1.82395855789014" flag="0"/>
			<psa30 value="0.324011874777869" flag="0"/>
		</comp>
		<comp name="--.HNN" depth="0.0">
			<acc value="0.388058400854152" flag="0"/>
			<vel value="0.876990381585208" flag="0"/>
			<psa03 value="0.833457824885166" flag="0"/>
			<psa10 value="1.15116507532846" flag="0"/>
			<psa30 value="0.299907010962276" flag="0"/>
		</comp>
		<comp name="--.HNZ" depth="0.0">
			<acc value="0.189240951440932" flag="0"/>
			<vel value="0.453468069007174" flag="0"/>
			<psa03 value="0.341919942976833" flag="0"/>
			<psa10 value="0.420321264211964" flag="0"/>
			<psa30 value="0.145277050045396" flag="0"/>
		</comp>
	</station>
	<station code="IMMV" name="IMMV" netid="HL" source="National Observatory of Athens Seismic Network" insttype="" lat="35.4606" lon="23.9811">
		<comp name="--.HNE" depth="0.0">
			<acc value="0.103930323575518" flag="0"/>
			<vel value="0.331577070056577" flag="0"/>
			<psa03 value="0.109573664008148" flag="0"/>
			<psa10 value="0.201267447407501" flag="0"/>
			<psa30 value="0.143514207104636" flag="0"/>
		</comp>
		<comp name="--.HNN" depth="0.0">
			<acc value="0.0758144460761656" flag="0"/>
			<vel value="0.27028040559323" flag="0"/>
			<psa03 value="0.121877770828172" flag="0"/>
			<psa10 value="0.169040978246559" flag="0"/>
			<psa30 value="0.0932355998394194" flag="0"/>
		</comp>
		<comp name="--.HNZ" depth="0.0">
			<acc value="0.050097317317862" flag="0"/>
			<vel value="0.162656402677994" flag="0"/>
			<psa03 value="0.0738693831267667" flag="0"/>
			<psa10 value="0.132324628651473" flag="0"/>
			<psa30 value="0.0617241111402368" flag="0"/>
		</comp>
	</station>
</stationlist>
