<stationlist xmlns:esm="https://esm-db.eu/esmws/shakemap/1/" created="1783994038">
	<station code="IMMV" name="IMMV" netid="GE" source="GEOFON" insttype="" lat="35.4606" lon="23.9811" esm:processing="manual (Paolucci et al 2011)" esm:quality="best">
		<comp name="--.HNE" depth="0.0">
			<acc value="0.0810073609094692" flag="0"/>
			<vel value="0.0292785444382884" flag="0"/>
			<psa03 value="0.15507648813893" flag="0"/>
			<psa10 value="0.00681334322383042" flag="0"/>
			<psa30 value="0.000650999106295854" flag="0"/>
		</comp>
		<comp name="--.HNN" depth="0.0">
			<acc value="0.0681318331982941" flag="0"/>
			<vel value="0.0226093682617041" flag="0"/>
			<psa03 value="0.136240019152638" flag="0"/>
			<psa10 value="0.0074455506033466" flag="0"/>
			<psa30 value="0.000739141253333849" flag="0"/>
		</comp>
		<comp name="--.HNZ" depth="0.0">
			<acc value="0.113975240450331" flag="0"/>
			<vel value="0.0227350979827998" flag="0"/>
			<psa03 value="0.108678819875782" flag="0"/>
			<psa10 value="0.00687374520276509" flag="0"/>
			<psa30 value="0.000522588973301414" flag="0"/>
		</comp>
	</station>
	<station code="CH01" name="CH01" netid="HI" source="ITSAK Strong Motion Network" insttype="" lat="35.517" lon="24.0208" esm:processing="manual (Paolucci et al 2011)" esm:quality="best">
		<comp name="--.HNE" depth="0.0">
			<acc value="0.367221772793777" flag="0"/>
			<vel value="0.0852138969598547" flag="0"/>
			<psa03 value="0.247379660392425" flag="0"/>
			<psa10 value="0.0177380478138138" flag="0"/>
			<psa30 value="0.00136463730185729" flag="0"/>
		</comp>
		<comp name="--.HNN" depth="0.0">
			<acc value="0.307803518960501" flag="0"/>
			<vel value="0.0771206252631469" flag="0"/>
			<psa03 value="0.237044210663604" flag="0"/>
			<psa10 value="0.0182011296523129" flag="0"/>
			<psa30 value="0.00149707423344737" flag="0"/>
		</comp>
		<comp name="--.HNZ" depth="0.0">
			<acc value="0.194688895793368" flag="0"/>
			<vel value="0.0316054588771409" flag="0"/>
			<psa03 value="0.0979406902873969" flag="0"/>
			<psa10 value="0.00839587507191869" flag="0"/>
			<psa30 value="0.000432657137998688" flag="0"/>
		</comp>
	</station>
	<station code="NPS1" name="NPS1" netid="HI" source="ITSAK Strong Motion Network" insttype="" lat="36.51263" lon="23.06248" esm:processing="manual (Paolucci et al 2011)" esm:quality="bad">
		<comp name="--.HNE" depth="0.0">
			<acc value="0.0456579886329595" flag="0"/>
			<vel value="0.0194367936087872" flag="0"/>
			<psa03 value="0.0736904143002936" flag="0"/>
			<psa10 value="0.00506168583472508" flag="0"/>
			<psa30 value="0.000588360017030273" flag="0"/>
		</comp>
		<comp name="--.HNN" depth="0.0">
			<acc value="0.0422955604605652" flag="0"/>
			<vel value="0.0169640902464701" flag="0"/>
			<psa03 value="0.123980654539231" flag="0"/>
			<psa10 value="0.0089394928823307" flag="0"/>
			<psa30 value="0.000518114752639587" flag="0"/>
		</comp>
		<comp name="--.HNZ" depth="0.0">
			<acc value="0.0251144898416764" flag="0"/>
			<vel value="0.00839304006699811" flag="0"/>
			<psa03 value="0.050379724652174" flag="0"/>
			<psa10 value="0.00257715110121245" flag="0"/>
			<psa30 value="0.000154360612833038" flag="0"/>
		</comp>
	</station>
	<station code="SIT2" name="SIT2" netid="HI" source="ITSAK Strong Motion Network" insttype="" lat="35.2059" lon="26.107" esm:processing="manual (Paolucci et al 2011)" esm:quality="good">
		<comp name="--.HNE" depth="0.0">
			<acc value="0.00934895033989113" flag="0"/>
			<vel value="0.00543021565345757" flag="0"/>
			<psa03 value="0.0381662132201477" flag="0"/>
			<psa10 value="0.00271785801350402" flag="0"/>
			<psa30 value="0.000204007798369515" flag="0"/>
		</comp>
		<comp name="--.HNN" depth="0.0">
			<acc value="0.0152978295272187" flag="0"/>
			<vel value="0.00793347647152842" flag="0"/>
			<psa03 value="0.0528969781233697" flag="0"/>
			<psa10 value="0.00317516940188996" flag="0"/>
			<psa30 value="0.000226948237331798" flag="0"/>
		</comp>
		<comp name="--.HNZ" depth="0.0">
			<acc value="0.0112299091060434" flag="0"/>
			<vel value="0.00362343504309528" flag="0"/>
			<psa03 value="0.0234089543741741" flag="0"/>
			<psa10 value="0.000838739077974546" flag="0"/>
			<psa30 value="0.000135259897804419" flag="0"/>
		</comp>
	</station>
	<station code="AGNA" name="AGNA" netid="HL" source="National Observatory of Athens Seismic Network" insttype="" lat="35.1895" lon="25.71853" esm:processing="manual (Paolucci et al 2011)" esm:quality="good">
		<comp name="00.HNE" depth="0.0">
			<acc value="0.00777589620347426" flag="0"/>
			<vel value="0.00312087228527928" flag="0"/>
			<psa03 value="0.0242369363072483" flag="0"/>
			<psa10 value="0.00191802858341795" flag="0"/>
			<psa30 value="0.000136286684573993" flag="0"/>
		</comp>
		<comp name="00.HNN" depth="0.0">
			<acc value="0.00964129465425468" flag="0"/>
			<vel value="0.00398768167262621" flag="0"/>
			<psa03 value="0.0194018998639797" flag="0"/>
			<psa10 value="0.00188966522010934" flag="0"/>
			<psa30 value="0.000142234422332429" flag="0"/>
		</comp>
		<comp name="00.HNZ" depth="0.0">
			<acc value="0.00679607562153509" flag="0"/>
			<vel value="0.00263234684412677" flag="0"/>
			<psa03 value="0.0165836623883282" flag="0"/>
			<psa10 value="0.00095718944425929" flag="0"/>
			<psa30 value="9.88984851330214e-05" flag="0"/>
		</comp>
	</station>
	<station code="ANKY" name="ANKY" netid="HL" source="National Observatory of Athens Seismic Network" insttype="" lat="35.86704" lon="23.30117" esm:processing="manual (Paolucci et al 2011)" esm:quality="good">
		<comp name="00.HNE" depth="0.0">
			<acc value="0.0410640385401856" flag="0"/>
			<vel value="0.00876102688981304" flag="0"/>
			<psa03 value="0.0557040472397483" flag="0"/>
			<psa10 value="0.00477578313443433" flag="0"/>
			<psa30 value="0.000320354199386826" flag="0"/>
		</comp>
		<comp name="00.HNN" depth="0.0">
			<acc value="0.0362566419520983" flag="0"/>
			<vel value="0.00935017808997685" flag="0"/>
			<psa03 value="0.0574042510912427" flag="0"/>
			<psa10 value="0.00396236981811415" flag="0"/>
			<psa30 value="0.000331539751041394" flag="0"/>
		</comp>
		<comp name="00.HNZ" depth="0.0">
			<acc value="0.0322306727078988" flag="0"/>
			<vel value="0.00895286517114642" flag="0"/>
			<psa03 value="0.0582096108103716" flag="0"/>
			<psa10 value="0.00291942898184223" flag="0"/>
			<psa30 value="0.000183890469201097" flag="0"/>
		</comp>
	</station>
	<station code="HERG" name="HERG" netid="HL" source="National Observatory of Athens Seismic Network" insttype="" lat="35.32622" lon="25.06586" esm:processing="manual (Paolucci et al 2011)" esm:quality="good">
		<comp name="00.HNE" depth="0.0">
			<acc value="0.0668889331459548" flag="0"/>
			<vel value="0.0197435928787787" flag="0"/>
			<psa03 value="0.126588677545289" flag="0"/>
			<psa10 value="0.0198218405996592" flag="0"/>
			<psa30 value="0.000921808252772746" flag="0"/>
		</comp>
		<comp name="00.HNN" depth="0.0">
			<acc value="0.0600111607703625" flag="0"/>
			<vel value="0.0243510189383482" flag="0"/>
			<psa03 value="0.123981515250249" flag="0"/>
			<psa10 value="0.0162358005421047" flag="0"/>
			<psa30 value="0.000896968273912721" flag="0"/>
		</comp>
		<comp name="00.HNZ" depth="0.0">
			<acc value="0.0567534655200625" flag="0"/>
			<vel value="0.020318909419311" flag="0"/>
			<psa03 value="0.0941139741722348" flag="0"/>
			<psa10 value="0.0126161573210056" flag="0"/>
			<psa30 value="0.000619752670156143" flag="0"/>
		</comp>
	</station>
	<station code="IACM" name="IACM" netid="HL" source="National Observatory of Athens Seismic Network" insttype="" lat="35.3058" lon="25.0709" esm:processing="manual (Paolucci et al 2011)" esm:quality="best">
		<comp name="--.HNE" depth="0.0">
			<acc value="0.126826177145112" flag="0"/>
			<vel value="0.0432410934489758" flag="0"/>
			<psa03 value="0.298296291524018" flag="0"/>
			<psa10 value="0.0223044374212747" flag="0"/>
			<psa30 value="0.00129841883606225" flag="0"/>
		</comp>
		<comp name="--.HNN" depth="0.0">
			<acc value="0.104887804846287" flag="0"/>
			<vel value="0.0351972250378015" flag="0"/>
			<psa03 value="0.199281788277782" flag="0"/>
			<psa10 value="0.0201460733740092" flag="0"/>
			<psa30 value="0.00105278412172793" flag="0"/>
		</comp>
		<comp name="--.HNZ" depth="0.0">
			<acc value="0.123099233877071" flag="0"/>
			<vel value="0.0275834186914368" flag="0"/>
			<psa03 value="0.119953855943587" flag="0"/>
			<psa10 value="0.0108924902012183" flag="0"/>
			<psa30 value="0.0007507742270546" flag="0"/>
		</comp>
	</station>
	<station code="IMMV" name="IMMV" netid="HL" source="National Observatory of Athens Seismic Network" insttype="" lat="35.4606" lon="23.9811" esm:processing="manual (Paolucci et al 2011)" esm:quality="best">
		<comp name="--.HNE" depth="0.0">
			<acc value="0.0793637335723718" flag="0"/>
			<vel value="0.0286843680609129" flag="0"/>
			<psa03 value="0.151944533675651" flag="0"/>
			<psa10 value="0.00667240527298287" flag="0"/>
			<psa30 value="0.000638023866376555" flag="0"/>
		</comp>
		<comp name="--.HNN" depth="0.0">
			<acc value="0.0667494532512033" flag="0"/>
			<vel value="0.0221504717886373" flag="0"/>
			<psa03 value="0.133466002342305" flag="0"/>
			<psa10 value="0.00729253225671211" flag="0"/>
			<psa30 value="0.000723928903083637" flag="0"/>
		</comp>
		<comp name="--.HNZ" depth="0.0">
			<acc value="0.111662589285861" flag="0"/>
			<vel value="0.0222738643260761" flag="0"/>
			<psa03 value="0.106486451751487" flag="0"/>
			<psa10 value="0.00673280725191753" flag="0"/>
			<psa30 value="0.000511850843713029" flag="0"/>
		</comp>
	</station>
	<station code="MILA" name="MILA" netid="HL" source="National Observatory of Athens Seismic Network" insttype="" lat="36.74288" lon="24.4282" esm:processing="manual (Paolucci et al 2011)" esm:quality="good">
		<comp name="00.HNE" depth="0.0">
			<acc value="0.0307337085301746" flag="0"/>
			<vel value="0.0140916218993614" flag="0"/>
			<psa03 value="0.0632426165963042" flag="0"/>
			<psa10 value="0.00483176383064071" flag="0"/>
			<psa30 value="0.00037298038520336" flag="0"/>
		</comp>
		<comp name="00.HNN" depth="0.0">
			<acc value="0.0380794673561115" flag="0"/>
			<vel value="0.0180439804261837" flag="0"/>
			<psa03 value="0.109599625020604" flag="0"/>
			<psa10 value="0.00580414043331846" flag="0"/>
			<psa30 value="0.000538824756995736" flag="0"/>
		</comp>
		<comp name="00.HNZ" depth="0.0">
			<acc value="0.0283554461128208" flag="0"/>
			<vel value="0.0128879021273628" flag="0"/>
			<psa03 value="0.0548088287325824" flag="0"/>
			<psa10 value="0.00454467621874538" flag="0"/>
			<psa30 value="0.000369949793816554" flag="0"/>
		</comp>
	</station>
	<station code="MNVA" name="MNVA" netid="HL" source="National Observatory of Athens Seismic Network" insttype="" lat="36.68709" lon="23.03734" esm:processing="manual (Paolucci et al 2011)" esm:quality="best">
		<comp name="00.HNE" depth="0.0">
			<acc value="0.014017507913584" flag="0"/>
			<vel value="0.00704329270512963" flag="0"/>
			<psa03 value="0.0480083877014056" flag="0"/>
			<psa10 value="0.00372478870097112" flag="0"/>
			<psa30 value="0.000217894546230983" flag="0"/>
		</comp>
		<comp name="00.HNN" depth="0.0">
			<acc value="0.0151834264034175" flag="0"/>
			<vel value="0.00566668124647134" flag="0"/>
			<psa03 value="0.0231764630282648" flag="0"/>
			<psa10 value="0.00202950649220481" flag="0"/>
			<psa30 value="0.000145859593575566" flag="0"/>
		</comp>
		<comp name="00.HNZ" depth="0.0">
			<acc value="0.0134327168441524" flag="0"/>
			<vel value="0.00676826582801114" flag="0"/>
			<psa03 value="0.0336908815835586" flag="0"/>
			<psa10 value="0.00221473922760445" flag="0"/>
			<psa30 value="0.000199102819451309" flag="0"/>
		</comp>
	</station>
	<station code="YDRA" name="YDRA" netid="HL" source="National Observatory of Athens Seismic Network" insttype="" lat="37.34923" lon="23.46525" esm:processing="manual (Paolucci et al 2011)" esm:quality="good">
		<comp name="00.HNE" depth="0.0">
			<acc value="0.0101568372926872" flag="0"/>
			<vel value="0.00478114078206962" flag="0"/>
			<psa03 value="0.0192391488458569" flag="0"/>
			<psa10 value="0.00369257431220597" flag="0"/>
			<psa30 value="0.000249661512929956" flag="0"/>
		</comp>
		<comp name="00.HNN" depth="0.0">
			<acc value="0.0130373689847157" flag="0"/>
			<vel value="0.00387364841194755" flag="0"/>
			<psa03 value="0.0244292448135764" flag="0"/>
			<psa10 value="0.00277849103099468" flag="0"/>
			<psa30 value="0.000191496644326203" flag="0"/>
		</comp>
		<comp name="00.HNZ" depth="0.0">
			<acc value="0.0129689436411232" flag="0"/>
			<vel value="0.00553445484448954" flag="0"/>
			<psa03 value="0.0178968826473087" flag="0"/>
			<psa10 value="0.00200937249922658" flag="0"/>
			<psa30 value="0.000195076020855665" flag="0"/>
		</comp>
	</station>
	<station code="NAX1" name="NAX1" netid="HI" source="ITSAK Strong Motion Network" insttype="" lat="37.101394" lon="25.374103" esm:processing="discarded" esm:quality="bad">
		<comp name="--.HNE" depth="0.0">
			<acc value="0" flag="1"/>
			<vel value="0" flag="1"/>
			<psa03 value="0" flag="1"/>
			<psa10 value="0" flag="1"/>
			<psa30 value="0" flag="1"/>
		</comp>
		<comp name="--.HNN" depth="0.0">
			<acc value="0" flag="1"/>
			<vel value="0" flag="1"/>
			<psa03 value="0" flag="1"/>
			<psa10 value="0" flag="1"/>
			<psa30 value="0" flag="1"/>
		</comp>
		<comp name="--.HNZ" depth="0.0">
			<acc value="0" flag="1"/>
			<vel value="0" flag="1"/>
			<psa03 value="0" flag="1"/>
			<psa10 value="0" flag="1"/>
			<psa30 value="0" flag="1"/>
		</comp>
	</station>
	<station code="AMGA" name="AMGA" netid="HL" source="National Observatory of Athens Seismic Network" insttype="" lat="36.831561" lon="25.893836" esm:processing="discarded" esm:quality="bad">
		<comp name="00.HNE" depth="0.0">
			<acc value="0" flag="1"/>
			<vel value="0" flag="1"/>
			<psa03 value="0" flag="1"/>
			<psa10 value="0" flag="1"/>
			<psa30 value="0" flag="1"/>
		</comp>
		<comp name="00.HNN" depth="0.0">
			<acc value="0" flag="1"/>
			<vel value="0" flag="1"/>
			<psa03 value="0" flag="1"/>
			<psa10 value="0" flag="1"/>
			<psa30 value="0" flag="1"/>
		</comp>
		<comp name="00.HNZ" depth="0.0">
			<acc value="0" flag="1"/>
			<vel value="0" flag="1"/>
			<psa03 value="0" flag="1"/>
			<psa10 value="0" flag="1"/>
			<psa30 value="0" flag="1"/>
		</comp>
	</station>
	<station code="ASTA" name="ASTA" netid="HL" source="National Observatory of Athens Seismic Network" insttype="" lat="36.54552" lon="26.35295" esm:processing="automatic (Paolucci et al 2011)" esm:quality="bad">
		<comp name="00.HNE" depth="0.0">
			<acc value="0" flag="1"/>
			<vel value="0" flag="1"/>
			<psa03 value="0" flag="1"/>
			<psa10 value="0" flag="1"/>
			<psa30 value="0" flag="1"/>
		</comp>
		<comp name="00.HNN" depth="0.0">
			<acc value="0" flag="1"/>
			<vel value="0" flag="1"/>
			<psa03 value="0" flag="1"/>
			<psa10 value="0" flag="1"/>
			<psa30 value="0" flag="1"/>
		</comp>
		<comp name="00.HNZ" depth="0.0">
			<acc value="0" flag="1"/>
			<vel value="0" flag="1"/>
			<psa03 value="0" flag="1"/>
			<psa10 value="0" flag="1"/>
			<psa30 value="0" flag="1"/>
		</comp>
	</station>
	<station code="LVRA" name="LVRA" netid="HL" source="National Observatory of Athens Seismic Network" insttype="" lat="37.71196" lon="24.05518" esm:processing="automatic (Paolucci et al 2011)" esm:quality="bad">
		<comp name="00.HNE" depth="0.0">
			<acc value="0" flag="1"/>
			<vel value="0" flag="1"/>
			<psa03 value="0" flag="1"/>
			<psa10 value="0" flag="1"/>
			<psa30 value="0" flag="1"/>
		</comp>
		<comp name="00.HNN" depth="0.0">
			<acc value="0" flag="1"/>
			<vel value="0" flag="1"/>
			<psa03 value="0" flag="1"/>
			<psa10 value="0" flag="1"/>
			<psa30 value="0" flag="1"/>
		</comp>
		<comp name="00.HNZ" depth="0.0">
			<acc value="0" flag="1"/>
			<vel value="0" flag="1"/>
			<psa03 value="0" flag="1"/>
			<psa10 value="0" flag="1"/>
			<psa30 value="0" flag="1"/>
		</comp>
	</station>
	<station code="THRA" name="THRA" netid="HL" source="National Observatory of Athens Seismic Network" insttype="" lat="36.41502" lon="25.43244" esm:processing="automatic (Paolucci et al 2011)" esm:quality="bad">
		<comp name="00.HNE" depth="0.0">
			<acc value="0" flag="1"/>
			<vel value="0" flag="1"/>
			<psa03 value="0" flag="1"/>
			<psa10 value="0" flag="1"/>
			<psa30 value="0" flag="1"/>
		</comp>
		<comp name="00.HNN" depth="0.0">
			<acc value="0" flag="1"/>
			<vel value="0" flag="1"/>
			<psa03 value="0" flag="1"/>
			<psa10 value="0" flag="1"/>
			<psa30 value="0" flag="1"/>
		</comp>
		<comp name="00.HNZ" depth="0.0">
			<acc value="0" flag="1"/>
			<vel value="0" flag="1"/>
			<psa03 value="0" flag="1"/>
			<psa10 value="0" flag="1"/>
			<psa30 value="0" flag="1"/>
		</comp>
	</station>
	<station code="TNSA" name="TNSA" netid="HL" source="National Observatory of Athens Seismic Network" insttype="" lat="37.53942" lon="25.1631" esm:processing="discarded" esm:quality="bad">
		<comp name="00.HNE" depth="0.0">
			<acc value="0" flag="1"/>
			<vel value="0" flag="1"/>
			<psa03 value="0" flag="1"/>
			<psa10 value="0" flag="1"/>
			<psa30 value="0" flag="1"/>
		</comp>
		<comp name="00.HNN" depth="0.0">
			<acc value="0" flag="1"/>
			<vel value="0" flag="1"/>
			<psa03 value="0" flag="1"/>
			<psa10 value="0" flag="1"/>
			<psa30 value="0" flag="1"/>
		</comp>
		<comp name="00.HNZ" depth="0.0">
			<acc value="0" flag="1"/>
			<vel value="0" flag="1"/>
			<psa03 value="0" flag="1"/>
			<psa10 value="0" flag="1"/>
			<psa30 value="0" flag="1"/>
		</comp>
	</station>
	<station code="ZKR" name="ZKR" netid="HL" source="National Observatory of Athens Seismic Network" insttype="" lat="35.1147" lon="26.21691" esm:processing="discarded" esm:quality="bad">
		<comp name="00.HNE" depth="0.0">
			<acc value="0" flag="1"/>
			<vel value="0" flag="1"/>
			<psa03 value="0" flag="1"/>
			<psa10 value="0" flag="1"/>
			<psa30 value="0" flag="1"/>
		</comp>
		<comp name="00.HNN" depth="0.0">
			<acc value="0" flag="1"/>
			<vel value="0" flag="1"/>
			<psa03 value="0" flag="1"/>
			<psa10 value="0" flag="1"/>
			<psa30 value="0" flag="1"/>
		</comp>
		<comp name="00.HNZ" depth="0.0">
			<acc value="0" flag="1"/>
			<vel value="0" flag="1"/>
			<psa03 value="0" flag="1"/>
			<psa10 value="0" flag="1"/>
			<psa30 value="0" flag="1"/>
		</comp>
	</station>
</stationlist>
