<?xml version="1.0" encoding="UTF-8" standalone="yes"?>
<!DOCTYPE earthquake SYSTEM "stationlist.dtd">
<stationlist created="" xmlns="ch.ethz.sed.shakemap.usgs.xml">
  <station code="GVD" name="GVD" netid="GE" source="GFZ" insttype="STS-2/N" lat="34.8391" lon="24.0874">
    <comp name="--.HHE">
      <acc value="0.0221310551" flag="0"/>
      <vel value="0.0060844756" flag="0"/>
      <psa03 value="0.0459109084" flag="0"/>
      <psa10 value="0.0019826955" flag="0"/>
      <psa30 value="0.0002325129" flag="0"/>
    </comp>
    <comp name="--.HHN">
      <acc value="0.0233461230" flag="0"/>
      <vel value="0.0070934626" flag="0"/>
      <psa03 value="0.0409932359" flag="0"/>
      <psa10 value="0.0023695371" flag="0"/>
      <psa30 value="0.0001976065" flag="0"/>
    </comp>
    <comp name="--.HHZ">
      <acc value="0.0185347732" flag="0"/>
      <vel value="0.0046812477" flag="0"/>
      <psa03 value="0.0210554780" flag="0"/>
      <psa10 value="0.0017740319" flag="0"/>
      <psa30 value="0.0002022359" flag="0"/>
    </comp>
  </station>
  <station code="IMMV" name="IMMV" netid="GE" source="GFZ" insttype="STS-2/N" lat="35.4606" lon="23.9811">
    <comp name="--.HHE">
      <acc value="0.0828434458" flag="0"/>
      <vel value="0.0296013911" flag="0"/>
      <psa03 value="0.1586685017" flag="0"/>
      <psa10 value="0.0068331940" flag="0"/>
      <psa30 value="0.0006346882" flag="0"/>
    </comp>
    <comp name="--.HHN">
      <acc value="0.0736321159" flag="0"/>
      <vel value="0.0231887058" flag="0"/>
      <psa03 value="0.1363726333" flag="0"/>
      <psa10 value="0.0074915321" flag="0"/>
      <psa30 value="0.0007069004" flag="0"/>
    </comp>
    <comp name="--.HHZ">
      <acc value="0.1175047290" flag="0"/>
      <vel value="0.0225858259" flag="0"/>
      <psa03 value="0.1132137539" flag="0"/>
      <psa10 value="0.0069266054" flag="0"/>
      <psa30 value="0.0005158888" flag="0"/>
    </comp>
  </station>
  <station code="CHAN" name="CHAN" netid="HC" source="NOA" insttype="120" lat="35.5193" lon="24.0428">
    <comp name="--.HHE">
      <acc value="0.5201667228" flag="0"/>
      <vel value="0.1436026271" flag="0"/>
      <psa03 value="0.3560863565" flag="0"/>
      <psa10 value="0.0253832725" flag="0"/>
      <psa30 value="0.0028558458" flag="0"/>
    </comp>
    <comp name="--.HHN">
      <acc value="0.4132462491" flag="0"/>
      <vel value="0.0996286652" flag="0"/>
      <psa03 value="0.3478228418" flag="0"/>
      <psa10 value="0.0338794034" flag="0"/>
      <psa30 value="0.0025170063" flag="0"/>
    </comp>
    <comp name="--.HHZ">
      <acc value="0.3361873322" flag="0"/>
      <vel value="0.0628336943" flag="0"/>
      <psa03 value="0.1805161818" flag="0"/>
      <psa10 value="0.0111146449" flag="0"/>
      <psa30 value="0.0007995407" flag="0"/>
    </comp>
  </station>
  <station code="RODP" name="RODP" netid="HC" source="NOA" insttype="1s-100Hz," lat="35.5604" lon="23.7577">
    <comp name="--.HHE">
      <acc value="0.0694931516" flag="0"/>
      <vel value="0.0141262832" flag="0"/>
      <psa03 value="0.0581362305" flag="0"/>
      <psa10 value="0.0026429349" flag="0"/>
      <psa30 value="0.0002587207" flag="0"/>
    </comp>
    <comp name="--.HHN">
      <acc value="0.1004655792" flag="0"/>
      <vel value="0.0235006199" flag="0"/>
      <psa03 value="0.0982446505" flag="0"/>
      <psa10 value="0.0053315485" flag="0"/>
      <psa30 value="0.0005469060" flag="0"/>
    </comp>
    <comp name="--.HHZ">
      <acc value="0.0575242282" flag="0"/>
      <vel value="0.0171011959" flag="0"/>
      <psa03 value="0.1428540453" flag="0"/>
      <psa10 value="0.0057671960" flag="0"/>
      <psa30 value="0.0006002044" flag="0"/>
    </comp>
  </station>
  <station code="TMBK" name="TMBK" netid="HC" source="NOA" insttype="120" lat="35.0724" lon="24.7662">
    <comp name="--.HHE">
      <acc value="0.0510312649" flag="0"/>
      <vel value="0.0211633885" flag="0"/>
      <psa03 value="0.1101788194" flag="0"/>
      <psa10 value="0.0160292304" flag="0"/>
      <psa30 value="0.0018131423" flag="0"/>
    </comp>
    <comp name="--.HHN">
      <acc value="0.0000000000" flag="0"/>
      <vel value="-100.0000000000" flag="0"/>
      <psa03 value="0.0000000000" flag="0"/>
      <psa10 value="0.0000000000" flag="0"/>
      <psa30 value="0.0000000000" flag="0"/>
    </comp>
    <comp name="--.HHZ">
      <acc value="0.1022704022" flag="0"/>
      <vel value="0.0332416785" flag="0"/>
      <psa03 value="0.1284696620" flag="0"/>
      <psa10 value="0.0093601487" flag="0"/>
      <psa30 value="0.0011097549" flag="0"/>
    </comp>
  </station>
  <station code="ANKY" name="ANKY" netid="HL" source="NOA" insttype="60" lat="35.867" lon="23.3012">
    <comp name="--.HHE">
      <acc value="0.0354468575" flag="0"/>
      <vel value="0.0088741894" flag="0"/>
      <psa03 value="0.0458045661" flag="0"/>
      <psa10 value="0.0053984508" flag="0"/>
      <psa30 value="0.0003969813" flag="0"/>
    </comp>
    <comp name="--.HHN">
      <acc value="0.0327157611" flag="0"/>
      <vel value="0.0080925190" flag="0"/>
      <psa03 value="0.0612928133" flag="0"/>
      <psa10 value="0.0040122240" flag="0"/>
      <psa30 value="0.0003681995" flag="0"/>
    </comp>
    <comp name="--.HHZ">
      <acc value="0.0326773014" flag="0"/>
      <vel value="0.0087262740" flag="0"/>
      <psa03 value="0.0550088102" flag="0"/>
      <psa10 value="0.0029465741" flag="0"/>
      <psa30 value="0.0002193986" flag="0"/>
    </comp>
  </station>
  <station code="GVD" name="GVD" netid="HL" source="NOA" insttype="120" lat="34.8391" lon="24.0874">
    <comp name="--.HHE">
      <acc value="0.0213902353" flag="0"/>
      <vel value="0.0058965134" flag="0"/>
      <psa03 value="0.0445435322" flag="0"/>
      <psa10 value="0.0019519572" flag="0"/>
      <psa30 value="0.0002299069" flag="0"/>
    </comp>
    <comp name="--.HHN">
      <acc value="0.0233880689" flag="0"/>
      <vel value="0.0069261311" flag="0"/>
      <psa03 value="0.0399151857" flag="0"/>
      <psa10 value="0.0023497179" flag="0"/>
      <psa30 value="0.0001961721" flag="0"/>
    </comp>
    <comp name="--.HHZ">
      <acc value="0.0181925235" flag="0"/>
      <vel value="0.0045480756" flag="0"/>
      <psa03 value="0.0204721727" flag="0"/>
      <psa10 value="0.0017609603" flag="0"/>
      <psa30 value="0.0002014962" flag="0"/>
    </comp>
  </station>
  <station code="IDI" name="IDI" netid="HL" source="NOA" insttype="120" lat="35.288" lon="24.89">
    <comp name="--.HHE">
      <acc value="0.0344121644" flag="0"/>
      <vel value="0.0087001168" flag="0"/>
      <psa03 value="0.0409922999" flag="0"/>
      <psa10 value="0.0022245375" flag="0"/>
      <psa30 value="0.0002214071" flag="0"/>
    </comp>
    <comp name="--.HHN">
      <acc value="0.0454650711" flag="0"/>
      <vel value="0.0076030385" flag="0"/>
      <psa03 value="0.0350660900" flag="0"/>
      <psa10 value="0.0015569074" flag="0"/>
      <psa30 value="0.0001892151" flag="0"/>
    </comp>
    <comp name="--.HHZ">
      <acc value="0.0285959550" flag="0"/>
      <vel value="0.0043294189" flag="0"/>
      <psa03 value="0.0285598541" flag="0"/>
      <psa10 value="0.0016943755" flag="0"/>
      <psa30 value="0.0001147850" flag="0"/>
    </comp>
  </station>
  <station code="IMMV" name="IMMV" netid="HL" source="NOA" insttype="120" lat="35.4606" lon="23.9811">
    <comp name="--.HHE">
      <acc value="0.0827424664" flag="0"/>
      <vel value="0.0288835038" flag="0"/>
      <psa03 value="0.1544247441" flag="0"/>
      <psa10 value="0.0066912667" flag="0"/>
      <psa30 value="0.0006175676" flag="0"/>
    </comp>
    <comp name="--.HHN">
      <acc value="0.0735721801" flag="0"/>
      <vel value="0.0224501839" flag="0"/>
      <psa03 value="0.1326153187" flag="0"/>
      <psa10 value="0.0073650700" flag="0"/>
      <psa30 value="0.0006943516" flag="0"/>
    </comp>
    <comp name="--.HHZ">
      <acc value="0.1169651199" flag="0"/>
      <vel value="0.0220288207" flag="0"/>
      <psa03 value="0.1100409262" flag="0"/>
      <psa10 value="0.0067675972" flag="0"/>
      <psa30 value="0.0005035265" flag="0"/>
    </comp>
  </station>
  <station code="IDI" name="IDI" netid="MN" source="INGV" insttype="" lat="35.288" lon="24.89">
    <comp name="--.HHE">
      <acc value="0.0402508355" flag="0"/>
      <vel value="0.0084241633" flag="0"/>
      <psa03 value="0.0390787241" flag="0"/>
      <psa10 value="0.0021369223" flag="0"/>
      <psa30 value="0.0002148030" flag="0"/>
    </comp>
    <comp name="--.HHN">
      <acc value="0.0528765950" flag="0"/>
      <vel value="0.0076395684" flag="0"/>
      <psa03 value="0.0344059977" flag="0"/>
      <psa10 value="0.0014852939" flag="0"/>
      <psa30 value="0.0001832042" flag="0"/>
    </comp>
    <comp name="--.HHZ">
      <acc value="0.0303427479" flag="0"/>
      <vel value="0.0042749518" flag="0"/>
      <psa03 value="0.0277120130" flag="0"/>
      <psa10 value="0.0016219382" flag="0"/>
      <psa30 value="0.0001097427" flag="0"/>
    </comp>
  </station>
</stationlist>
