<?xml version="1.0" encoding="UTF-8" standalone="yes"?>
<!DOCTYPE earthquake SYSTEM "stationlist.dtd">
<stationlist created="" xmlns="ch.ethz.sed.shakemap.usgs.xml">
  <station code="ARR" name="ARR" netid="RO" insttype="200" lat="45.3657" lon="24.6332">
    <comp name="--.HNE">
      <acc value="0.0020974497" flag="0"/>
      <vel value="0.0009347591" flag="0"/>
      <psa03 value="0.0037893524" flag="0"/>
      <psa10 value="0.0009411207" flag="0"/>
      <psa30 value="0.0000488373" flag="0"/>
    </comp>
    <comp name="--.HNN">
      <acc value="0.0017717645" flag="0"/>
      <vel value="0.0007146988" flag="0"/>
      <psa03 value="0.0048953032" flag="0"/>
      <psa10 value="0.0008294261" flag="0"/>
      <psa30 value="0.0001028178" flag="0"/>
    </comp>
    <comp name="--.HNZ">
      <acc value="0.0020459721" flag="0"/>
      <vel value="0.0006133616" flag="0"/>
      <psa03 value="0.0030055151" flag="0"/>
      <psa10 value="0.0005152804" flag="0"/>
      <psa30 value="0.0000569063" flag="0"/>
    </comp>
  </station>
  <station code="BAIL" name="BAIL" netid="RO" insttype="200" lat="44.0201" lon="23.345">
    <comp name="--.HNZ">
      <acc value="0.1682931751" flag="0"/>
      <vel value="0.0368882652" flag="0"/>
      <psa03 value="0.1946259817" flag="0"/>
      <psa10 value="0.0125982250" flag="0"/>
      <psa30 value="0.0007122813" flag="0"/>
    </comp>
    <comp name="--.HNN">
      <acc value="0.3041172410" flag="0"/>
      <vel value="0.0698376997" flag="0"/>
      <psa03 value="0.2852851471" flag="0"/>
      <psa10 value="0.0406396918" flag="0"/>
      <psa30 value="0.0025701652" flag="0"/>
    </comp>
  </station>
  <station code="CRAR" name="CRAR" netid="RO" insttype="MBB2/Quanterra" lat="44.325" lon="23.7999">
    <comp name="--.HHE">
      <acc value="0.0281147887" flag="0"/>
      <vel value="0.0091700378" flag="0"/>
      <psa03 value="0.0528019190" flag="0"/>
      <psa10 value="0.0042598123" flag="0"/>
      <psa30 value="0.0004867168" flag="0"/>
    </comp>
    <comp name="--.HHN">
      <acc value="0.0240645403" flag="0"/>
      <vel value="0.0066187628" flag="0"/>
      <psa03 value="0.0311601452" flag="0"/>
      <psa10 value="0.0036392908" flag="0"/>
      <psa30 value="0.0004115441" flag="0"/>
    </comp>
    <comp name="--.HHZ">
      <acc value="0.0212347296" flag="0"/>
      <vel value="0.0047362289" flag="0"/>
      <psa03 value="0.0170074369" flag="0"/>
      <psa10 value="0.0016421901" flag="0"/>
      <psa30 value="0.0001431900" flag="0"/>
    </comp>
  </station>
  <station code="CRBR" name="CRBR" netid="RO" insttype="200" lat="45.4108" lon="22.2383">
    <comp name="--.HNE">
      <acc value="0.0700903392" flag="0"/>
      <vel value="0.0101257924" flag="0"/>
      <psa03 value="0.0341047362" flag="0"/>
      <psa10 value="0.0028291427" flag="0"/>
      <psa30 value="0.0006638607" flag="0"/>
    </comp>
    <comp name="--.HNN">
      <acc value="0.0942284984" flag="0"/>
      <vel value="0.0143513806" flag="0"/>
      <psa03 value="0.0332452528" flag="0"/>
      <psa10 value="0.0042110309" flag="0"/>
      <psa30 value="0.0002574838" flag="0"/>
    </comp>
    <comp name="--.HNZ">
      <acc value="0.0455176685" flag="0"/>
      <vel value="0.0057375699" flag="0"/>
      <psa03 value="0.0172237061" flag="0"/>
      <psa10 value="0.0028230543" flag="0"/>
      <psa30 value="0.0001175979" flag="0"/>
    </comp>
  </station>
  <station code="DEV" name="DEV" netid="RO" insttype="CMG40T.1to100/Quanterra" lat="45.887" lon="22.898">
    <comp name="--.HHE">
      <acc value="0.1361801611" flag="0"/>
      <vel value="0.0272679155" flag="0"/>
      <psa03 value="0.1098492044" flag="0"/>
      <psa10 value="0.0053866036" flag="0"/>
      <psa30 value="0.0004174861" flag="0"/>
    </comp>
    <comp name="--.HHN">
      <acc value="0.1146162916" flag="0"/>
      <vel value="0.0261734209" flag="0"/>
      <psa03 value="0.1340680235" flag="0"/>
      <psa10 value="0.0053350738" flag="0"/>
      <psa30 value="0.0004587727" flag="0"/>
    </comp>
    <comp name="--.HHZ">
      <acc value="0.1121121723" flag="0"/>
      <vel value="0.0257457995" flag="0"/>
      <psa03 value="0.0688016010" flag="0"/>
      <psa10 value="0.0053215804" flag="0"/>
      <psa30 value="0.0004104539" flag="0"/>
    </comp>
  </station>
  <station code="GZR" name="GZR" netid="RO" insttype="330" lat="45.3933" lon="22.7767">
    <comp name="--.HHN">
      <acc value="0.6387651759" flag="0"/>
      <vel value="0.1387193297" flag="0"/>
      <psa03 value="0.4883007027" flag="0"/>
      <psa10 value="0.0232766464" flag="0"/>
      <psa30 value="0.0021445673" flag="0"/>
    </comp>
    <comp name="--.HHZ">
      <acc value="0.3936557899" flag="0"/>
      <vel value="0.0552783917" flag="0"/>
      <psa03 value="0.1365747196" flag="0"/>
      <psa10 value="0.0092842369" flag="0"/>
      <psa30 value="0.0008517899" flag="0"/>
    </comp>
    <comp name="--.HHE">
      <acc value="0.7715572259" flag="0"/>
      <vel value="0.1291724066" flag="0"/>
      <psa03 value="0.3847258028" flag="0"/>
      <psa10 value="0.0136315347" flag="0"/>
      <psa30 value="0.0015856044" flag="0"/>
    </comp>
  </station>
  <station code="HERR" name="HERR" netid="RO" insttype="CMG40T.1to100/Quanterra" lat="44.881" lon="22.416">
    <comp name="--.HHN">
      <acc value="0.2607037636" flag="0"/>
      <vel value="0.0429887100" flag="0"/>
      <psa03 value="0.0721983383" flag="0"/>
      <psa10 value="0.0031197744" flag="0"/>
      <psa30 value="0.0004150339" flag="0"/>
    </comp>
    <comp name="--.HHE">
      <acc value="0.2189615166" flag="0"/>
      <vel value="0.0308212409" flag="0"/>
      <psa03 value="0.0643976012" flag="0"/>
      <psa10 value="0.0032070270" flag="0"/>
      <psa30 value="0.0003339875" flag="0"/>
    </comp>
    <comp name="--.HHZ">
      <acc value="0.0987819572" flag="0"/>
      <vel value="0.0116167276" flag="0"/>
      <psa03 value="0.0187133337" flag="0"/>
      <psa10 value="0.0015043236" flag="0"/>
      <psa30 value="0.0001406039" flag="0"/>
    </comp>
  </station>
  <station code="LOT" name="LOT" netid="RO" insttype="330" lat="45.446" lon="23.7698">
    <comp name="--.HHE">
      <acc value="0.0698639260" flag="0"/>
      <vel value="0.0142900199" flag="0"/>
      <psa03 value="0.0858160899" flag="0"/>
      <psa10 value="0.0032474132" flag="0"/>
      <psa30 value="0.0002510648" flag="0"/>
    </comp>
    <comp name="--.HHZ">
      <acc value="0.0464347435" flag="0"/>
      <vel value="0.0076533041" flag="0"/>
      <psa03 value="0.0323238374" flag="0"/>
      <psa10 value="0.0018144796" flag="0"/>
      <psa30 value="0.0001236209" flag="0"/>
    </comp>
    <comp name="--.HHN">
      <acc value="0.0826899448" flag="0"/>
      <vel value="0.0116621876" flag="0"/>
      <psa03 value="0.0737681290" flag="0"/>
      <psa10 value="0.0032494756" flag="0"/>
      <psa30 value="0.0002240461" flag="0"/>
    </comp>
  </station>
  <station code="MDVR" name="MDVR" netid="RO" insttype="CMG40T.1to100/Quanterra" lat="44.7815" lon="21.7128">
    <comp name="--.HHN">
      <acc value="0.0501638061" flag="0"/>
      <vel value="0.0087417645" flag="0"/>
      <psa03 value="0.0288570644" flag="0"/>
      <psa10 value="0.0034112616" flag="0"/>
      <psa30 value="0.0001459532" flag="0"/>
    </comp>
    <comp name="--.HHZ">
      <acc value="0.0253299823" flag="0"/>
      <vel value="0.0061690985" flag="0"/>
      <psa03 value="0.0219371487" flag="0"/>
      <psa10 value="0.0011723057" flag="0"/>
      <psa30 value="0.0001143634" flag="0"/>
    </comp>
    <comp name="--.HHE">
      <acc value="0.0447225678" flag="0"/>
      <vel value="0.0084523878" flag="0"/>
      <psa03 value="0.0362142781" flag="0"/>
      <psa10 value="0.0018578538" flag="0"/>
      <psa30 value="0.0001173625" flag="0"/>
    </comp>
  </station>
  <station code="MHISU" name="MHISU" netid="RO" insttype="200" lat="44.6227" lon="22.6535">
    <comp name="--.HNE">
      <acc value="0.0403564788" flag="0"/>
      <vel value="0.0114370372" flag="0"/>
      <psa03 value="0.0784552439" flag="0"/>
      <psa10 value="0.0059881259" flag="0"/>
      <psa30 value="0.0003863925" flag="0"/>
    </comp>
    <comp name="--.HNN">
      <acc value="0.0656335926" flag="0"/>
      <vel value="0.0265511376" flag="0"/>
      <psa03 value="0.1557328613" flag="0"/>
      <psa10 value="0.0069480018" flag="0"/>
      <psa30 value="0.0008642502" flag="0"/>
    </comp>
    <comp name="--.HNZ">
      <acc value="0.0415985437" flag="0"/>
      <vel value="0.0080717115" flag="0"/>
      <psa03 value="0.0646714918" flag="0"/>
      <psa10 value="0.0028737825" flag="0"/>
      <psa30 value="0.0002442458" flag="0"/>
    </comp>
  </station>
  <station code="RMGR" name="RMGR" netid="RO" insttype="MBB2/Quanterra" lat="44.6627" lon="22.6922">
    <comp name="--.HHN">
      <acc value="0.1100556166" flag="0"/>
      <vel value="0.0311715483" flag="0"/>
      <psa03 value="0.2013713292" flag="0"/>
      <psa10 value="0.0122048493" flag="0"/>
      <psa30 value="0.0009126333" flag="0"/>
    </comp>
    <comp name="--.HHZ">
      <acc value="0.1322691533" flag="0"/>
      <vel value="0.0179949336" flag="0"/>
      <psa03 value="0.0420783649" flag="0"/>
      <psa10 value="0.0055891506" flag="0"/>
      <psa30 value="0.0003895455" flag="0"/>
    </comp>
    <comp name="--.HHE">
      <acc value="0.1012799072" flag="0"/>
      <vel value="0.0252727447" flag="0"/>
      <psa03 value="0.1071800684" flag="0"/>
      <psa10 value="0.0108269895" flag="0"/>
      <psa30 value="0.0007722295" flag="0"/>
    </comp>
  </station>
  <station code="SRE" name="SRE" netid="RO" insttype="Seismometer/Quanterra" lat="44.6609" lon="23.2038">
    <comp name="--.HHE">
      <acc value="0.1989129629" flag="0"/>
      <vel value="0.0815841022" flag="0"/>
      <psa03 value="0.4093952516" flag="0"/>
      <psa10 value="0.0239895965" flag="0"/>
      <psa30 value="0.0022784800" flag="0"/>
    </comp>
    <comp name="--.HHN">
      <acc value="0.0956321561" flag="0"/>
      <vel value="0.0365636605" flag="0"/>
      <psa03 value="0.1820010475" flag="0"/>
      <psa10 value="0.0204108224" flag="0"/>
      <psa30 value="0.0011957873" flag="0"/>
    </comp>
    <comp name="--.HHZ">
      <acc value="0.0360596399" flag="0"/>
      <vel value="0.0142133746" flag="0"/>
      <psa03 value="0.0595409695" flag="0"/>
      <psa10 value="0.0071312679" flag="0"/>
      <psa30 value="0.0005385422" flag="0"/>
    </comp>
  </station>
  <station code="SURR" name="SURR" netid="RO" insttype="Linear" lat="45.754" lon="22.1246">
    <comp name="--.HHN">
      <acc value="0.1521708347" flag="0"/>
      <vel value="0.0192237643" flag="0"/>
      <psa03 value="0.0443838894" flag="0"/>
      <psa10 value="0.0023641962" flag="0"/>
      <psa30 value="0.0001812655" flag="0"/>
    </comp>
    <comp name="--.HHE">
      <acc value="0.1605629388" flag="0"/>
      <vel value="0.0168358013" flag="0"/>
      <psa03 value="0.0204529496" flag="0"/>
      <psa10 value="0.0015535301" flag="0"/>
      <psa30 value="0.0001369490" flag="0"/>
    </comp>
    <comp name="--.HHZ">
      <acc value="0.0792452170" flag="0"/>
      <vel value="0.0099513953" flag="0"/>
      <psa03 value="0.0173643335" flag="0"/>
      <psa10 value="0.0008681075" flag="0"/>
      <psa30 value="0.0001304022" flag="0"/>
    </comp>
  </station>
</stationlist>
