<?xml version="1.0" encoding="UTF-8" standalone="yes"?>
<!DOCTYPE earthquake SYSTEM "stationlist.dtd">
<stationlist created="" xmlns="ch.ethz.sed.shakemap.usgs.xml">
  <station code="ZKR" name="ZKR" netid="GE" insttype="STS-2/N" lat="35.1147" lon="26.2169">
    <comp name="--.HHN">
      <acc value="0.0058544573" flag="0"/>
      <vel value="0.0038501198" flag="0"/>
      <psa03 value="0.0179539846" flag="0"/>
      <psa10 value="0.0050316294" flag="0"/>
      <psa30 value="0.0005992300" flag="0"/>
    </comp>
    <comp name="--.HHE">
      <acc value="0.0135754662" flag="0"/>
      <vel value="0.0096277779" flag="0"/>
      <psa03 value="0.0335489862" flag="0"/>
      <psa10 value="0.0091185909" flag="0"/>
      <psa30 value="0.0014755586" flag="0"/>
    </comp>
    <comp name="--.HHZ">
      <acc value="0.0092612949" flag="0"/>
      <vel value="0.0056800256" flag="0"/>
      <psa03 value="0.0195240522" flag="0"/>
      <psa10 value="0.0091632286" flag="0"/>
      <psa30 value="0.0010408565" flag="0"/>
    </comp>
  </station>
</stationlist>
