<stationlist created="1778138902">
	<station code="SIT2" name="SIT2" netid="HI" source="ITSAK Strong Motion Network" insttype="" lat="35.2059" lon="26.107">
		<comp name="--.HNE" depth="0.0">
			<acc value="0.0411951200429093" flag="0"/>
			<vel value="0.0298797290794569" flag="0"/>
			<psa03 value="0.133829636390002" flag="0"/>
			<psa10 value="0.0416907543077034" flag="0"/>
			<psa30 value="0.00260118544076915" flag="0"/>
		</comp>
		<comp name="--.HNN" depth="0.0">
			<acc value="0.0423213705839858" flag="0"/>
			<vel value="0.0279866968923574" flag="0"/>
			<psa03 value="0.0865712557541432" flag="0"/>
			<psa10 value="0.0336719205994811" flag="0"/>
			<psa30 value="0.00198414123128577" flag="0"/>
		</comp>
		<comp name="--.HNZ" depth="0.0">
			<acc value="0.0282702917631234" flag="0"/>
			<vel value="0.00951680218851324" flag="0"/>
			<psa03 value="0.0533190529590424" flag="0"/>
			<psa10 value="0.00558157678331275" flag="0"/>
			<psa30 value="0.0014273647642426" flag="0"/>
		</comp>
	</station>
	<station code="SIVA" name="SIVA" netid="HL" source="National Observatory of Athens Seismic Network" insttype="" lat="35.01777" lon="24.81204">
		<comp name="00.HNE" depth="0.0">
			<acc value="0.00764993807118066" flag="0"/>
			<vel value="0.00717655468147335" flag="0"/>
			<psa03 value="0.0164105428470723" flag="0"/>
			<psa10 value="0.00852941878215409" flag="0"/>
			<psa30 value="0.000805480598718987" flag="0"/>
		</comp>
		<comp name="00.HNN" depth="0.0">
			<acc value="0.00724073441481048" flag="0"/>
			<vel value="0.00885130607082968" flag="0"/>
			<psa03 value="0.0125947666331535" flag="0"/>
			<psa10 value="0.0101477409880242" flag="0"/>
			<psa30 value="0.000771171815512726" flag="0"/>
		</comp>
		<comp name="00.HNZ" depth="0.0">
			<acc value="0.00416113076314363" flag="0"/>
			<vel value="0.00301721639066009" flag="0"/>
			<psa03 value="0.0125832463387428" flag="0"/>
			<psa10 value="0.00404647493410333" flag="0"/>
			<psa30 value="0.000658651705361847" flag="0"/>
		</comp>
	</station>
</stationlist>
