<?xml version="1.0" encoding="UTF-8" standalone="yes"?>
<!DOCTYPE earthquake SYSTEM "stationlist.dtd">
<stationlist created="" xmlns="ch.ethz.sed.shakemap.usgs.xml">
  <station code="ZKR" name="ZKR" netid="GE" insttype="STS-2/N" lat="35.1147" lon="26.2169">
    <comp name="--.HHN">
      <acc value="0.0058544573" flag="0"/>
      <vel value="0.0038501198" flag="0"/>
      <psa03 value="0.0179539846" flag="0"/>
      <psa10 value="0.0050316294" flag="0"/>
      <psa30 value="0.0005992300" flag="0"/>
    </comp>
    <comp name="--.HHE">
      <acc value="0.0135754662" flag="0"/>
      <vel value="0.0096277779" flag="0"/>
      <psa03 value="0.0335489862" flag="0"/>
      <psa10 value="0.0091185909" flag="0"/>
      <psa30 value="0.0014755586" flag="0"/>
    </comp>
    <comp name="--.HHZ">
      <acc value="0.0092612949" flag="0"/>
      <vel value="0.0056800256" flag="0"/>
      <psa03 value="0.0195240522" flag="0"/>
      <psa10 value="0.0091632286" flag="0"/>
      <psa30 value="0.0010408565" flag="0"/>
    </comp>
  </station>
  <station code="PFKS" name="PFKS" netid="HC" insttype="120" lat="35.0429" lon="25.4733">
    <comp name="--.HHE">
      <acc value="0.0151321018" flag="0"/>
      <vel value="0.0101119617" flag="0"/>
      <psa03 value="0.0535319163" flag="0"/>
      <psa10 value="0.0112517240" flag="0"/>
      <psa30 value="0.0009095767" flag="0"/>
    </comp>
    <comp name="--.HHN">
      <acc value="0.0140449706" flag="0"/>
      <vel value="0.0087057376" flag="0"/>
      <psa03 value="0.0308357340" flag="0"/>
      <psa10 value="0.0157097022" flag="0"/>
      <psa30 value="0.0007819154" flag="0"/>
    </comp>
    <comp name="--.HHZ">
      <acc value="0.0081646425" flag="0"/>
      <vel value="0.0052523052" flag="0"/>
      <psa03 value="0.0229605139" flag="0"/>
      <psa10 value="0.0095178081" flag="0"/>
      <psa30 value="0.0009693423" flag="0"/>
    </comp>
  </station>
  <station code="STIA" name="STIA" netid="HC" insttype="120" lat="35.2021" lon="26.0909">
    <comp name="--.HHE">
      <acc value="0.0114186225" flag="0"/>
      <vel value="0.0095186049" flag="0"/>
      <psa03 value="0.0339614964" flag="0"/>
      <psa10 value="0.0135698495" flag="0"/>
      <psa30 value="0.0021991539" flag="0"/>
    </comp>
    <comp name="--.HHZ">
      <acc value="0.0104862007" flag="0"/>
      <vel value="0.0058911510" flag="0"/>
      <psa03 value="0.0246551282" flag="0"/>
      <psa10 value="0.0102798938" flag="0"/>
      <psa30 value="0.0011039415" flag="0"/>
    </comp>
    <comp name="--.HHN">
      <acc value="0.0115650364" flag="0"/>
      <vel value="0.0099203915" flag="0"/>
      <psa03 value="0.0279235073" flag="0"/>
      <psa10 value="0.0130867227" flag="0"/>
      <psa30 value="0.0010576178" flag="0"/>
    </comp>
  </station>
  <station code="ZKR" name="ZKR" netid="HL" insttype="120" lat="35.1147" lon="26.2169">
    <comp name="--.HHN">
      <acc value="0.0057466676" flag="0"/>
      <vel value="0.0038012204" flag="0"/>
      <psa03 value="0.0174764458" flag="0"/>
      <psa10 value="0.0049962406" flag="0"/>
      <psa30 value="0.0005987211" flag="0"/>
    </comp>
    <comp name="--.HHZ">
      <acc value="0.0091565845" flag="0"/>
      <vel value="0.0056381932" flag="0"/>
      <psa03 value="0.0190413705" flag="0"/>
      <psa10 value="0.0091058525" flag="0"/>
      <psa30 value="0.0010393296" flag="0"/>
    </comp>
    <comp name="--.HHE">
      <acc value="0.0133459591" flag="0"/>
      <vel value="0.0095062348" flag="0"/>
      <psa03 value="0.0325990516" flag="0"/>
      <psa10 value="0.0090719189" flag="0"/>
      <psa30 value="0.0014742738" flag="0"/>
    </comp>
  </station>
</stationlist>
