<stationlist created="1675762340">
	<station code="CMRD" name="CMRD" netid="KO" source="Bogazici University Kandilli Observatory And Earthquake Research Institute (KOERI)" insttype="" lat="37.6623" lon="34.9902">
		<comp name=".HNE" depth="0.0">
			<acc value="0.00129359959459" flag="0"/>
			<vel value="0.00127055079495" flag="0"/>
			<psa03 value="0.00363871174992" flag="0"/>
			<psa10 value="0.00169324795062" flag="0"/>
			<psa30 value="0.000295119055397" flag="0"/>
		</comp>
		<comp name=".HNN" depth="0.0">
			<acc value="0.00169679195033" flag="0"/>
			<vel value="0.00153566761405" flag="0"/>
			<psa03 value="0.00570228725376" flag="0"/>
			<psa10 value="0.00324599776579" flag="0"/>
			<psa30 value="0.000265584859318" flag="0"/>
		</comp>
		<comp name=".HNZ" depth="0.0">
			<acc value="0.00212282373654" flag="0"/>
			<vel value="0.0010719353712" flag="0"/>
			<psa03 value="0.00474429833594" flag="0"/>
			<psa10 value="0.00132582005563" flag="0"/>
			<psa30 value="0.000287969336972" flag="0"/>
		</comp>
	</station>
	<station code="TUNC" name="TUNC" netid="KO" source="Bogazici University Kandilli Observatory And Earthquake Research Institute (KOERI)" insttype="" lat="39.6942" lon="37.5388">
		<comp name=".HNE" depth="0.0">
			<acc value="0.0174985089208" flag="0"/>
			<vel value="0.0134079111274" flag="0"/>
			<psa03 value="0.0648069285574" flag="0"/>
			<psa10 value="0.0112811870108" flag="0"/>
			<psa30 value="0.000685725530118" flag="0"/>
		</comp>
		<comp name=".HNN" depth="0.0">
			<acc value="0.0186997634188" flag="0"/>
			<vel value="0.0108056239343" flag="0"/>
			<psa03 value="0.0387726336009" flag="0"/>
			<psa10 value="0.00853572482486" flag="0"/>
			<psa30 value="0.000872575043399" flag="0"/>
		</comp>
		<comp name=".HNZ" depth="0.0">
			<acc value="0.00690616821266" flag="0"/>
			<vel value="0.0058041570141" flag="0"/>
			<psa03 value="0.0192034192677" flag="0"/>
			<psa10 value="0.00884785893973" flag="0"/>
			<psa30 value="0.000517402348282" flag="0"/>
		</comp>
	</station>
</stationlist>
