<?xml version="1.0" encoding="UTF-8" standalone="yes"?>
<!DOCTYPE earthquake SYSTEM "stationlist.dtd">
<stationlist created="" xmlns="ch.ethz.sed.shakemap.usgs.xml">
  <station code="MCDA" name="MCDA" netid="IY" insttype="SS08" commtype="DIG" lat="39.0216" lon="16.8403">
    <comp name="00.HHN">
      <acc value="0.0049117155" flag="0"/>
      <vel value="0.0040402312" flag="0"/>
      <psa03 value="0.0153225024" flag="0"/>
      <psa10 value="0.0078926934" flag="0"/>
      <psa30 value="0.0007756072" flag="0"/>
    </comp>
    <comp name="00.HHZ">
      <acc value="0.0031147971" flag="0"/>
      <vel value="0.0034585840" flag="0"/>
      <psa03 value="0.0108339596" flag="0"/>
      <psa10 value="0.0032148182" flag="0"/>
      <psa30 value="0.0004001233" flag="0"/>
    </comp>
    <comp name="00.HHE">
      <acc value="0.0048131424" flag="0"/>
      <vel value="0.0044309511" flag="0"/>
      <psa03 value="0.0123965133" flag="0"/>
      <psa10 value="0.0072673405" flag="0"/>
      <psa30 value="0.0007138385" flag="0"/>
    </comp>
  </station>
</stationlist>
