<stationlist created="1775808497">
	<station code="CRN" name="CRN" netid="IT" source="Italian Strong Motion Network (RAN)" insttype="" lat="39.0777" lon="17.1113">
		<comp name="--.HGE" depth="0.0">
			<acc value="0.00802698042432201" flag="0"/>
			<vel value="0.00480007421195591" flag="0"/>
			<psa03 value="0.0128669213808106" flag="0"/>
			<psa10 value="0.00901821303735463" flag="0"/>
			<psa30 value="0.00110338809404608" flag="0"/>
		</comp>
		<comp name="--.HGN" depth="0.0">
			<acc value="0.00574708682369067" flag="0"/>
			<vel value="0.00438489146408792" flag="0"/>
			<psa03 value="0.00929440802662551" flag="0"/>
			<psa10 value="0.00685848996630054" flag="0"/>
			<psa30 value="0.00197302716169968" flag="0"/>
		</comp>
		<comp name="--.HGZ" depth="0.0">
			<acc value="0.00645086702752176" flag="0"/>
			<vel value="0.00259164791147687" flag="0"/>
			<psa03 value="0.00729383995193384" flag="0"/>
			<psa10 value="0.00461289464413126" flag="0"/>
			<psa30 value="0.000583223635703552" flag="0"/>
		</comp>
	</station>
</stationlist>
