<?xml version="1.0" encoding="UTF-8" standalone="yes"?>
<!DOCTYPE earthquake SYSTEM "stationlist.dtd">
<stationlist created="" xmlns="ch.ethz.sed.shakemap.usgs.xml">
  <station code="MYT1" name="MYT1" netid="HI" insttype="CMG-5TD,ACCELEROMETER,GURALP" commtype="DIG" lat="39.085" lon="26.5694">
    <comp name="--.HNE">
      <acc value="0.0463812813" flag="0"/>
      <vel value="0.0306720810" flag="0"/>
      <psa03 value="0.1335957136" flag="0"/>
      <psa10 value="0.0552286525" flag="0"/>
      <psa30 value="0.0041733757" flag="0"/>
    </comp>
    <comp name="--.HNN">
      <acc value="0.0335003074" flag="0"/>
      <vel value="0.0346271100" flag="0"/>
      <psa03 value="0.1070372025" flag="0"/>
      <psa10 value="0.0874289045" flag="0"/>
      <psa30 value="0.0068017242" flag="0"/>
    </comp>
    <comp name="--.HNZ">
      <acc value="0.0263147567" flag="0"/>
      <vel value="0.0190679637" flag="0"/>
      <psa03 value="0.0835760579" flag="0"/>
      <psa10 value="0.0425242542" flag="0"/>
      <psa30 value="0.0022081756" flag="0"/>
    </comp>
  </station>
  <station code="AKS" name="AKS" netid="KO" insttype="CMG-5T" commtype="DIG" lat="38.8785" lon="27.8129">
    <comp name="--.HNZ">
      <acc value="0.1290652269" flag="0"/>
      <vel value="0.0333372312" flag="0"/>
      <psa03 value="0.1310644784" flag="0"/>
      <psa10 value="0.0246970512" flag="0"/>
      <psa30 value="0.0064333201" flag="0"/>
    </comp>
    <comp name="--.HNE">
      <acc value="0.2062641633" flag="0"/>
      <vel value="0.0640479151" flag="0"/>
      <psa03 value="0.3997815747" flag="0"/>
      <psa10 value="0.0419433097" flag="0"/>
      <psa30 value="0.0047370232" flag="0"/>
    </comp>
    <comp name="--.HNN">
      <acc value="0.2722956790" flag="0"/>
      <vel value="0.1138445039" flag="0"/>
      <psa03 value="0.4438169871" flag="0"/>
      <psa10 value="0.0536366088" flag="0"/>
      <psa30 value="0.0076838720" flag="0"/>
    </comp>
  </station>
  <station code="AYDB" name="AYDB" netid="KO" insttype="CMG-3ESPC" commtype="DIG" lat="37.9467" lon="27.8908">
    <comp name="--.HHN">
      <acc value="0.0455133866" flag="0"/>
      <vel value="0.0257718773" flag="0"/>
      <psa03 value="0.1764012186" flag="0"/>
      <psa10 value="0.0160223438" flag="0"/>
      <psa30 value="0.0014740993" flag="0"/>
    </comp>
    <comp name="--.HHE">
      <acc value="0.1823567035" flag="0"/>
      <vel value="0.0235448980" flag="0"/>
      <psa03 value="0.1460029378" flag="0"/>
      <psa10 value="0.0166352558" flag="0"/>
      <psa30 value="0.0018281344" flag="0"/>
    </comp>
  </station>
  <station code="AYVL" name="AYVL" netid="KO" insttype="CMG-6T" commtype="DIG" lat="39.2907" lon="26.69">
    <comp name="--.HHE">
      <acc value="0.1154947172" flag="0"/>
      <vel value="0.0504099932" flag="0"/>
      <psa03 value="0.2977685363" flag="0"/>
      <psa10 value="0.0303099618" flag="0"/>
      <psa30 value="0.0014172460" flag="0"/>
    </comp>
    <comp name="--.HHN">
      <acc value="0.1755889330" flag="0"/>
      <vel value="0.0568988402" flag="0"/>
      <psa03 value="0.2862543852" flag="0"/>
      <psa10 value="0.0286768881" flag="0"/>
      <psa30 value="0.0024770817" flag="0"/>
    </comp>
    <comp name="--.HHZ">
      <acc value="0.0523442309" flag="0"/>
      <vel value="0.0185408437" flag="0"/>
      <psa03 value="0.1342749054" flag="0"/>
      <psa10 value="0.0137120586" flag="0"/>
      <psa30 value="0.0005577121" flag="0"/>
    </comp>
  </station>
  <station code="BALB" name="BALB" netid="KO" insttype="CMG-5T" commtype="DIG" lat="39.6507" lon="27.8642">
    <comp name="--.HNE">
      <acc value="0.2126280174" flag="0"/>
      <vel value="0.0953317717" flag="0"/>
      <psa03 value="0.6934926516" flag="0"/>
      <psa10 value="0.0708730011" flag="0"/>
      <psa30 value="0.0072020693" flag="0"/>
    </comp>
    <comp name="--.HNZ">
      <acc value="0.1371435029" flag="0"/>
      <vel value="0.0617319673" flag="0"/>
      <psa03 value="0.3269835633" flag="0"/>
      <psa10 value="0.0484749502" flag="0"/>
      <psa30 value="0.0066203073" flag="0"/>
    </comp>
    <comp name="--.HNN">
      <acc value="0.1951683331" flag="0"/>
      <vel value="0.1300176281" flag="0"/>
      <psa03 value="0.5966970431" flag="0"/>
      <psa10 value="0.1632773689" flag="0"/>
      <psa30 value="0.0078591404" flag="0"/>
    </comp>
  </station>
  <station code="BLCB" name="BLCB" netid="KO" insttype="CMG-3T" commtype="DIG" lat="38.3853" lon="27.042">
    <comp name="--.HHE">
      <acc value="0.0673850067" flag="0"/>
      <vel value="0.0508596960" flag="0"/>
      <psa03 value="0.2799359173" flag="0"/>
      <psa10 value="0.0385942419" flag="0"/>
      <psa30 value="0.0053562121" flag="0"/>
    </comp>
    <comp name="--.HHN">
      <acc value="0.0000660423" flag="0"/>
      <vel value="0.0000311770" flag="0"/>
      <psa03 value="0.0001362692" flag="0"/>
      <psa10 value="0.0000219158" flag="0"/>
      <psa30 value="0.0000029106" flag="0"/>
    </comp>
    <comp name="--.HHZ">
      <acc value="0.0598122051" flag="0"/>
      <vel value="0.0192669266" flag="0"/>
      <psa03 value="0.1798626288" flag="0"/>
      <psa10 value="0.0141297024" flag="0"/>
      <psa30 value="0.0016770560" flag="0"/>
    </comp>
  </station>
  <station code="CANM" name="CANM" netid="KO" insttype="CMG-5T" commtype="DIG" lat="40.0113" lon="27.0529">
    <comp name="--.HNN">
      <acc value="0.0899121521" flag="0"/>
      <vel value="0.0804850732" flag="0"/>
      <psa03 value="0.2364196890" flag="0"/>
      <psa10 value="0.0846798018" flag="0"/>
      <psa30 value="0.0059428808" flag="0"/>
    </comp>
    <comp name="--.HNE">
      <acc value="0.1127290205" flag="0"/>
      <vel value="0.0457507086" flag="0"/>
      <psa03 value="0.2025085762" flag="0"/>
      <psa10 value="0.0642294867" flag="0"/>
      <psa30 value="0.0035040706" flag="0"/>
    </comp>
    <comp name="--.HNZ">
      <acc value="0.0702326098" flag="0"/>
      <vel value="0.0309164162" flag="0"/>
      <psa03 value="0.1436582461" flag="0"/>
      <psa10 value="0.0326978845" flag="0"/>
      <psa30 value="0.0038568198" flag="0"/>
    </comp>
  </station>
  <station code="EDC" name="EDC" netid="KO" insttype="CMG-3T" commtype="DIG" lat="40.3465" lon="27.8618">
    <comp name="--.HHZ">
      <acc value="0.0438948493" flag="0"/>
      <vel value="0.0237667564" flag="0"/>
      <psa03 value="0.1130919625" flag="0"/>
      <psa10 value="0.0234287198" flag="0"/>
      <psa30 value="0.0033916985" flag="0"/>
    </comp>
    <comp name="--.HHE">
      <acc value="0.0743612032" flag="0"/>
      <vel value="0.0597574239" flag="0"/>
      <psa03 value="0.2400452302" flag="0"/>
      <psa10 value="0.0978285602" flag="0"/>
      <psa30 value="0.0043463380" flag="0"/>
    </comp>
    <comp name="--.HHN">
      <acc value="0.1278924837" flag="0"/>
      <vel value="0.0827264932" flag="0"/>
      <psa03 value="0.3788634579" flag="0"/>
      <psa10 value="0.0500788885" flag="0"/>
      <psa30 value="0.0055835185" flag="0"/>
    </comp>
  </station>
  <station code="GOMA" name="GOMA" netid="KO" insttype="CMG-5T" commtype="DIG" lat="38.7077" lon="27.9175">
    <comp name="--.HNE">
      <acc value="0.1958750485" flag="0"/>
      <vel value="0.0741116752" flag="0"/>
      <psa03 value="0.3529063248" flag="0"/>
      <psa10 value="0.0457692306" flag="0"/>
      <psa30 value="0.0027564059" flag="0"/>
    </comp>
    <comp name="--.HNZ">
      <acc value="0.1697068847" flag="0"/>
      <vel value="0.0536475472" flag="0"/>
      <psa03 value="0.2042259105" flag="0"/>
      <psa10 value="0.0139969992" flag="0"/>
      <psa30 value="0.0036161257" flag="0"/>
    </comp>
    <comp name="--.HNN">
      <acc value="0.2148972648" flag="0"/>
      <vel value="0.1010869083" flag="0"/>
      <psa03 value="0.4405830784" flag="0"/>
      <psa10 value="0.0366614105" flag="0"/>
      <psa30 value="0.0049656622" flag="0"/>
    </comp>
  </station>
  <station code="GONE" name="GONE" netid="KO" insttype="CMG-5T" commtype="DIG" lat="40.0466" lon="27.686">
    <comp name="--.HNE">
      <acc value="0.1547329642" flag="0"/>
      <vel value="0.1142499517" flag="0"/>
      <psa03 value="0.4113688240" flag="0"/>
      <psa10 value="0.1513364088" flag="0"/>
      <psa30 value="0.0067601874" flag="0"/>
    </comp>
    <comp name="--.HNZ">
      <acc value="0.0647553071" flag="0"/>
      <vel value="0.0294257381" flag="0"/>
      <psa03 value="0.1956422558" flag="0"/>
      <psa10 value="0.0441972301" flag="0"/>
      <psa30 value="0.0029479543" flag="0"/>
    </comp>
    <comp name="--.HNN">
      <acc value="0.3236712482" flag="0"/>
      <vel value="0.1213323292" flag="0"/>
      <psa03 value="0.6660342337" flag="0"/>
      <psa10 value="0.1339971922" flag="0"/>
      <psa30 value="0.0089455024" flag="0"/>
    </comp>
  </station>
  <station code="GORD" name="GORD" netid="KO" insttype="CMG-5T" commtype="DIG" lat="38.9088" lon="28.1769">
    <comp name="--.HNE">
      <acc value="0.1647865228" flag="0"/>
      <vel value="0.1125082310" flag="0"/>
      <psa03 value="0.2120984606" flag="0"/>
      <psa10 value="0.1142920015" flag="0"/>
      <psa30 value="0.0130958548" flag="0"/>
    </comp>
    <comp name="--.HNN">
      <acc value="0.1103781386" flag="0"/>
      <vel value="0.0674733388" flag="0"/>
      <psa03 value="0.2685196463" flag="0"/>
      <psa10 value="0.0774311975" flag="0"/>
      <psa30 value="0.0101834156" flag="0"/>
    </comp>
    <comp name="--.HNZ">
      <acc value="0.1605945964" flag="0"/>
      <vel value="0.0576981499" flag="0"/>
      <psa03 value="0.2083799438" flag="0"/>
      <psa10 value="0.0803488853" flag="0"/>
      <psa30 value="0.0152737714" flag="0"/>
    </comp>
  </station>
  <station code="KCTX" name="KCTX" netid="KO" insttype="CMG-3ESP" commtype="DIG" lat="40.2626" lon="28.3353">
    <comp name="--.HHE">
      <acc value="0.0744040601" flag="0"/>
      <vel value="0.0617244315" flag="0"/>
      <psa03 value="0.1451454341" flag="0"/>
      <psa10 value="0.1037314433" flag="0"/>
      <psa30 value="0.0059007369" flag="0"/>
    </comp>
    <comp name="--.HHN">
      <acc value="0.0870055795" flag="0"/>
      <vel value="0.0491610729" flag="0"/>
      <psa03 value="0.2922064091" flag="0"/>
      <psa10 value="0.0600705539" flag="0"/>
      <psa30 value="0.0035752266" flag="0"/>
    </comp>
    <comp name="--.HHZ">
      <acc value="0.0590354293" flag="0"/>
      <vel value="0.0244516472" flag="0"/>
      <psa03 value="0.0987907887" flag="0"/>
      <psa10 value="0.0304120791" flag="0"/>
      <psa30 value="0.0028623067" flag="0"/>
    </comp>
  </station>
  <station code="MDNY" name="MDNY" netid="KO" insttype="CMG-5T" commtype="DIG" lat="40.3709" lon="28.8846">
    <comp name="--.HNN">
      <acc value="0.2552188958" flag="0"/>
      <vel value="0.1301746761" flag="0"/>
      <psa03 value="0.7664175281" flag="0"/>
      <psa10 value="0.1008293715" flag="0"/>
      <psa30 value="0.0072339527" flag="0"/>
    </comp>
    <comp name="--.HNZ">
      <acc value="0.0709133030" flag="0"/>
      <vel value="0.0450429505" flag="0"/>
      <psa03 value="0.1122362882" flag="0"/>
      <psa10 value="0.0248662652" flag="0"/>
      <psa30 value="0.0047497649" flag="0"/>
    </comp>
    <comp name="--.HNE">
      <acc value="0.1455602693" flag="0"/>
      <vel value="0.0632678869" flag="0"/>
      <psa03 value="0.3210766507" flag="0"/>
      <psa10 value="0.0431895645" flag="0"/>
      <psa30 value="0.0040175960" flag="0"/>
    </comp>
  </station>
  <station code="ORLT" name="ORLT" netid="KO" insttype="CMG-5T" commtype="DIG" lat="40.0452" lon="28.8914">
    <comp name="--.HNN">
      <acc value="0.2319651522" flag="0"/>
      <vel value="0.1172683618" flag="0"/>
      <psa03 value="0.5391625865" flag="0"/>
      <psa10 value="0.1558698637" flag="0"/>
      <psa30 value="0.0065458374" flag="0"/>
    </comp>
    <comp name="--.HNE">
      <acc value="0.1679450894" flag="0"/>
      <vel value="0.0893337841" flag="0"/>
      <psa03 value="0.3459663421" flag="0"/>
      <psa10 value="0.1156559678" flag="0"/>
      <psa30 value="0.0057971331" flag="0"/>
    </comp>
    <comp name="--.HNZ">
      <acc value="0.0804447933" flag="0"/>
      <vel value="0.0611943931" flag="0"/>
      <psa03 value="0.1342141124" flag="0"/>
      <psa10 value="0.1115704948" flag="0"/>
      <psa30 value="0.0055440917" flag="0"/>
    </comp>
  </station>
  <station code="SHAP" name="SHAP" netid="KO" insttype="CMG-5T" commtype="DIG" lat="39.0231" lon="29.222">
    <comp name="--.HNE">
      <acc value="0.1298425674" flag="0"/>
      <vel value="0.0401015167" flag="0"/>
      <psa03 value="0.2239551186" flag="0"/>
      <psa10 value="0.0091754061" flag="0"/>
      <psa30 value="0.0011781527" flag="0"/>
    </comp>
    <comp name="--.HNZ">
      <acc value="0.1513390342" flag="0"/>
      <vel value="0.0341935478" flag="0"/>
      <psa03 value="0.1012914140" flag="0"/>
      <psa10 value="0.0069386504" flag="0"/>
      <psa30 value="0.0008678759" flag="0"/>
    </comp>
    <comp name="--.HNN">
      <acc value="0.1797946242" flag="0"/>
      <vel value="0.0425310867" flag="0"/>
      <psa03 value="0.1824318478" flag="0"/>
      <psa10 value="0.0157171684" flag="0"/>
      <psa30 value="0.0017244452" flag="0"/>
    </comp>
  </station>
  <station code="SIMA" name="SIMA" netid="KO" insttype="CMG-6T" commtype="DIG" lat="39.0833" lon="28.9825">
    <comp name="--.HHE">
      <acc value="0.1250549765" flag="0"/>
      <vel value="0.0279237176" flag="0"/>
      <psa03 value="0.1910753744" flag="0"/>
      <psa10 value="0.0133123171" flag="0"/>
      <psa30 value="0.0017140591" flag="0"/>
    </comp>
    <comp name="--.HHN">
      <acc value="0.0825235857" flag="0"/>
      <vel value="0.0330895078" flag="0"/>
      <psa03 value="0.2404046585" flag="0"/>
      <psa10 value="0.0168699271" flag="0"/>
      <psa30 value="0.0013844781" flag="0"/>
    </comp>
    <comp name="--.HHZ">
      <acc value="0.0803281437" flag="0"/>
      <vel value="0.0182569079" flag="0"/>
      <psa03 value="0.0909923364" flag="0"/>
      <psa10 value="0.0095345729" flag="0"/>
      <psa30 value="0.0014861312" flag="0"/>
    </comp>
  </station>
  <station code="SMAA" name="SMAA" netid="KO" insttype="CMG-5T" commtype="DIG" lat="39.1005" lon="28.9805">
    <comp name="--.HNE">
      <acc value="0.1026846747" flag="0"/>
      <vel value="0.0762173906" flag="0"/>
      <psa03 value="0.2977600750" flag="0"/>
      <psa10 value="0.0920796064" flag="0"/>
      <psa30 value="0.0099279478" flag="0"/>
    </comp>
    <comp name="--.HNN">
      <acc value="0.1252431693" flag="0"/>
      <vel value="0.0515657017" flag="0"/>
      <psa03 value="0.2024861020" flag="0"/>
      <psa10 value="0.1050112554" flag="0"/>
      <psa30 value="0.0087178669" flag="0"/>
    </comp>
    <comp name="--.HNZ">
      <acc value="0.0609111152" flag="0"/>
      <vel value="0.0248897166" flag="0"/>
      <psa03 value="0.0542742201" flag="0"/>
      <psa10 value="0.0547606522" flag="0"/>
      <psa30 value="0.0029331577" flag="0"/>
    </comp>
  </station>
  <station code="SOMA" name="SOMA" netid="KO" insttype="CMG-5T" commtype="DIG" lat="39.1564" lon="27.5341">
    <comp name="--.HNE">
      <acc value="0.2715520371" flag="0"/>
      <vel value="0.0570309206" flag="0"/>
      <psa03 value="0.2502985344" flag="0"/>
      <psa10 value="0.0467988182" flag="0"/>
      <psa30 value="0.0032098235" flag="0"/>
    </comp>
    <comp name="--.HNZ">
      <acc value="0.1652976038" flag="0"/>
      <vel value="0.0395862400" flag="0"/>
      <psa03 value="0.2283259200" flag="0"/>
      <psa10 value="0.0400003707" flag="0"/>
      <psa30 value="0.0030475129" flag="0"/>
    </comp>
    <comp name="--.HNN">
      <acc value="0.2397856413" flag="0"/>
      <vel value="0.0854976256" flag="0"/>
      <psa03 value="0.6620990844" flag="0"/>
      <psa10 value="0.0689042512" flag="0"/>
      <psa30 value="0.0049522000" flag="0"/>
    </comp>
  </station>
  <station code="SUSR" name="SUSR" netid="KO" insttype="CMG-5T" commtype="DIG" lat="39.9627" lon="28.0835">
    <comp name="--.HNE">
      <acc value="0.1091904635" flag="0"/>
      <vel value="0.0461590126" flag="0"/>
      <psa03 value="0.3230796874" flag="0"/>
      <psa10 value="0.0352538934" flag="0"/>
      <psa30 value="0.0019369822" flag="0"/>
    </comp>
    <comp name="--.HNN">
      <acc value="0.1775178795" flag="0"/>
      <vel value="0.0550583309" flag="0"/>
      <psa03 value="0.4204794687" flag="0"/>
      <psa10 value="0.0187166415" flag="0"/>
      <psa30 value="0.0023491741" flag="0"/>
    </comp>
    <comp name="--.HNZ">
      <acc value="0.1091489193" flag="0"/>
      <vel value="0.0318464997" flag="0"/>
      <psa03 value="0.1981319697" flag="0"/>
      <psa10 value="0.0195767476" flag="0"/>
      <psa30 value="0.0028386001" flag="0"/>
    </comp>
  </station>
  <station code="TVSB" name="TVSB" netid="KO" insttype="CMG-3T" commtype="DIG" lat="39.4497" lon="29.4615">
    <comp name="--.HHE">
      <acc value="0.0512746762" flag="0"/>
      <vel value="0.0226018897" flag="0"/>
      <psa03 value="0.1227909354" flag="0"/>
      <psa10 value="0.0168495076" flag="0"/>
      <psa30 value="0.0013825430" flag="0"/>
    </comp>
    <comp name="--.HHN">
      <acc value="0.0595622770" flag="0"/>
      <vel value="0.0227944353" flag="0"/>
      <psa03 value="0.0668162883" flag="0"/>
      <psa10 value="0.0179947118" flag="0"/>
      <psa30 value="0.0021097333" flag="0"/>
    </comp>
    <comp name="--.HHZ">
      <acc value="0.0276634639" flag="0"/>
      <vel value="0.0126233066" flag="0"/>
      <psa03 value="0.0411214803" flag="0"/>
      <psa10 value="0.0132411529" flag="0"/>
      <psa30 value="0.0013563945" flag="0"/>
    </comp>
  </station>
  <station code="YAYO" name="YAYO" netid="KO" insttype="CMG-6T" commtype="DIG" lat="39.6113" lon="27.0726">
    <comp name="--.HHN">
      <acc value="0.0813976512" flag="0"/>
      <vel value="0.0508311284" flag="0"/>
      <psa03 value="0.3147265939" flag="0"/>
      <psa10 value="0.0246258111" flag="0"/>
      <psa30 value="0.0019563504" flag="0"/>
    </comp>
    <comp name="--.HHE">
      <acc value="0.1371099533" flag="0"/>
      <vel value="0.0792777265" flag="0"/>
      <psa03 value="0.2882788088" flag="0"/>
      <psa10 value="0.0771808312" flag="0"/>
      <psa30 value="0.0051767150" flag="0"/>
    </comp>
    <comp name="--.HHZ">
      <acc value="0.0558914899" flag="0"/>
      <vel value="0.0393035653" flag="0"/>
      <psa03 value="0.1511802546" flag="0"/>
      <psa10 value="0.0349358888" flag="0"/>
      <psa30 value="0.0025169165" flag="0"/>
    </comp>
  </station>
  <station code="YENI" name="YENI" netid="KO" insttype="CMG-5T" commtype="DIG" lat="39.9364" lon="27.2422">
    <comp name="--.HNZ">
      <acc value="0.0930272625" flag="0"/>
      <vel value="0.0305607326" flag="0"/>
      <psa03 value="0.1310588678" flag="0"/>
      <psa10 value="0.0400743803" flag="0"/>
      <psa30 value="0.0025079815" flag="0"/>
    </comp>
    <comp name="--.HNN">
      <acc value="0.5336157709" flag="0"/>
      <vel value="0.1637296567" flag="0"/>
      <psa03 value="0.6138596315" flag="0"/>
      <psa10 value="0.1243694806" flag="0"/>
      <psa30 value="0.0060479425" flag="0"/>
    </comp>
    <comp name="--.HNE">
      <acc value="0.2081189720" flag="0"/>
      <vel value="0.0757638661" flag="0"/>
      <psa03 value="0.2796073014" flag="0"/>
      <psa10 value="0.0866817245" flag="0"/>
      <psa30 value="0.0043684354" flag="0"/>
    </comp>
  </station>
</stationlist>
