<?xml version="1.0" encoding="UTF-8" standalone="yes"?>
<!DOCTYPE earthquake SYSTEM "stationlist.dtd">
<stationlist created="" xmlns="ch.ethz.sed.shakemap.usgs.xml">
  <station code="KRI1" name="KRI1" netid="HI" insttype="CMG-5TD,ACCELEROMETER,GURALP" lat="37.6621" lon="20.8172">
    <comp name="--.HNZ">
      <acc value="0.0264627301" flag="0"/>
      <vel value="0.0124568590" flag="0"/>
      <psa03 value="0.0841607621" flag="0"/>
      <psa10 value="0.0181955084" flag="0"/>
      <psa30 value="0.0020518229" flag="0"/>
    </comp>
    <comp name="--.HNE">
      <acc value="0.0386480797" flag="0"/>
      <vel value="0.0234057378" flag="0"/>
      <psa03 value="0.1367645286" flag="0"/>
      <psa10 value="0.0304869657" flag="0"/>
      <psa30 value="0.0027317186" flag="0"/>
    </comp>
    <comp name="--.HNN">
      <acc value="0.0636654006" flag="0"/>
      <vel value="0.0370827600" flag="0"/>
      <psa03 value="0.2592034439" flag="0"/>
      <psa10 value="0.0515190467" flag="0"/>
      <psa30 value="0.0040778712" flag="0"/>
    </comp>
  </station>
  <station code="PYL1" name="PYL1" netid="HI" insttype="CMG-5TD,ACCELEROMETER,GURALP" lat="36.9142" lon="21.6952">
    <comp name="--.HNN">
      <acc value="0.0970223869" flag="0"/>
      <vel value="0.0268807088" flag="0"/>
      <psa03 value="0.0485682208" flag="0"/>
      <psa10 value="0.0130433663" flag="0"/>
      <psa30 value="0.0027480539" flag="0"/>
    </comp>
    <comp name="--.HNZ">
      <acc value="0.0781694706" flag="0"/>
      <vel value="0.0152838498" flag="0"/>
      <psa03 value="0.0382583198" flag="0"/>
      <psa10 value="0.0094061087" flag="0"/>
      <psa30 value="0.0008386733" flag="0"/>
    </comp>
    <comp name="--.HNE">
      <acc value="0.0767068000" flag="0"/>
      <vel value="0.0222149341" flag="0"/>
      <psa03 value="0.0702713507" flag="0"/>
      <psa10 value="0.0131169486" flag="0"/>
      <psa30 value="0.0012751265" flag="0"/>
    </comp>
  </station>
  <station code="ITM" name="ITM" netid="HL" insttype="DR24" lat="37.1787" lon="21.9252">
    <comp name="--.HHZ">
      <acc value="0.0698712415" flag="0"/>
      <vel value="0.0182360085" flag="0"/>
      <psa03 value="0.0483113603" flag="0"/>
      <psa10 value="0.0125952500" flag="0"/>
      <psa30 value="0.0019032637" flag="0"/>
    </comp>
    <comp name="--.HHN">
      <acc value="0.0832048749" flag="0"/>
      <vel value="0.0194498460" flag="0"/>
      <psa03 value="0.0956450545" flag="0"/>
      <psa10 value="0.0084204934" flag="0"/>
      <psa30 value="0.0027165399" flag="0"/>
    </comp>
    <comp name="--.HHE">
      <acc value="0.0683879052" flag="0"/>
      <vel value="0.0305508098" flag="0"/>
      <psa03 value="0.1208492577" flag="0"/>
      <psa10 value="0.0176167997" flag="0"/>
      <psa30 value="0.0042267336" flag="0"/>
    </comp>
  </station>
  <station code="AMT" name="AMT" netid="HP" insttype="CMG-3T," lat="37.5324" lon="21.7089">
    <comp name="00.HHE">
      <acc value="0.1456852721" flag="0"/>
      <vel value="0.1023199642" flag="0"/>
      <psa03 value="0.3988436056" flag="0"/>
      <psa10 value="0.1406012031" flag="0"/>
      <psa30 value="0.0095647145" flag="0"/>
    </comp>
    <comp name="00.HHN">
      <acc value="0.1840986208" flag="0"/>
      <vel value="0.0819728499" flag="0"/>
      <psa03 value="0.5165976971" flag="0"/>
      <psa10 value="0.1227897771" flag="0"/>
      <psa30 value="0.0051156977" flag="0"/>
    </comp>
    <comp name="00.HHZ">
      <acc value="0.0980114009" flag="0"/>
      <vel value="0.0469975425" flag="0"/>
      <psa03 value="0.2011662995" flag="0"/>
      <psa10 value="0.0282868541" flag="0"/>
      <psa30 value="0.0018667413" flag="0"/>
    </comp>
  </station>
  <station code="LTHK" name="LTHK" netid="HP" insttype="DC_100" lat="37.7095" lon="20.8367">
    <comp name="--.HNZ">
      <acc value="0.0311851764" flag="0"/>
      <vel value="0.0153295620" flag="0"/>
      <psa03 value="0.0805125162" flag="0"/>
      <psa10 value="0.0196193198" flag="0"/>
      <psa30 value="0.0009026335" flag="0"/>
    </comp>
  </station>
  <station code="PYL" name="PYL" netid="HP" insttype="" lat="0" lon="0">
    <comp name="--.HHE">
      <acc value="0.1883678489" flag="0"/>
      <vel value="0.0665700575" flag="0"/>
      <psa03 value="0.1503270025" flag="0"/>
      <psa10 value="0.0254136748" flag="0"/>
      <psa30 value="0.0025212101" flag="0"/>
    </comp>
  </station>
  <station code="VALY" name="VALY" netid="HP" insttype="DC_100" lat="37.1641" lon="21.9836">
    <comp name="--.HNE">
      <acc value="0.0856384471" flag="0"/>
      <vel value="0.0239276873" flag="0"/>
      <psa03 value="0.1679371623" flag="0"/>
      <psa10 value="0.0063736479" flag="0"/>
      <psa30 value="0.0016115431" flag="0"/>
    </comp>
    <comp name="--.HNZ">
      <acc value="0.0527617212" flag="0"/>
      <vel value="0.0082379576" flag="0"/>
      <psa03 value="0.0250798017" flag="0"/>
      <psa10 value="0.0063161579" flag="0"/>
      <psa30 value="0.0016521372" flag="0"/>
    </comp>
    <comp name="--.HNN">
      <acc value="0.1093082057" flag="0"/>
      <vel value="0.0166727061" flag="0"/>
      <psa03 value="0.0508173577" flag="0"/>
      <psa10 value="0.0097433456" flag="0"/>
      <psa30 value="0.0017773627" flag="0"/>
    </comp>
  </station>
  <station code="VLX" name="VLX" netid="HP" insttype="40," lat="37.3703" lon="22.3793">
    <comp name="--.HHE">
      <acc value="0.0227580134" flag="0"/>
      <vel value="0.0118606746" flag="0"/>
      <psa03 value="0.0426383312" flag="0"/>
      <psa10 value="0.0074019577" flag="0"/>
      <psa30 value="0.0006319548" flag="0"/>
    </comp>
    <comp name="--.HHN">
      <acc value="0.0215644541" flag="0"/>
      <vel value="0.0171016350" flag="0"/>
      <psa03 value="0.0328132994" flag="0"/>
      <psa10 value="0.0089665372" flag="0"/>
      <psa30 value="0.0009191855" flag="0"/>
    </comp>
    <comp name="--.HHZ">
      <acc value="0.0110761587" flag="0"/>
      <vel value="0.0071276939" flag="0"/>
      <psa03 value="0.0276397233" flag="0"/>
      <psa10 value="0.0054509751" flag="0"/>
      <psa30 value="0.0007371783" flag="0"/>
    </comp>
  </station>
</stationlist>
