<stationlist xmlns:esm="https://esm-db.eu/esmws/shakemap/1/" created="1783994409">
	<station code="ROD3" name="ROD3" netid="CL" source="Corinth Riff Laboratory (CRLNET)" insttype="" lat="38.30811" lon="21.89204" esm:processing="automatic (Paolucci et al 2011)" esm:quality="good">
		<comp name="00.HNE" depth="0.0">
			<acc value="0.030528754571262" flag="0"/>
			<vel value="0.0142342490774197" flag="0"/>
			<psa03 value="0.128517294890202" flag="0"/>
			<psa10 value="0.0118588846554264" flag="0"/>
			<psa30 value="0.00135399459132869" flag="0"/>
		</comp>
		<comp name="00.HNN" depth="0.0">
			<acc value="0.0305311405919557" flag="0"/>
			<vel value="0.0188096665939118" flag="0"/>
			<psa03 value="0.129421021423947" flag="0"/>
			<psa10 value="0.01115686346243" flag="0"/>
			<psa30 value="0.00135258376870509" flag="0"/>
		</comp>
		<comp name="00.HNZ" depth="0.0">
			<acc value="0.0108546956813648" flag="0"/>
			<vel value="0.00618223326163577" flag="0"/>
			<psa03 value="0.0277850541651342" flag="0"/>
			<psa10 value="0.00599526856337448" flag="0"/>
			<psa30 value="0.00095830629559063" flag="0"/>
		</comp>
	</station>
	<station code="CORS" name="CORS" netid="HA" source="Hellenic Seismological Network, University of Athens, Seismological Laboratory (HA)" insttype="" lat="38.2562" lon="22.0748" esm:processing="manual (Paolucci et al 2011)" esm:quality="good">
		<comp name="00.HNE" depth="0.0">
			<acc value="0.013915596175987" flag="0"/>
			<vel value="0.0103665445198927" flag="0"/>
			<psa03 value="0.0494357123733268" flag="0"/>
			<psa10 value="0.0167941244033204" flag="0"/>
			<psa30 value="0.00111353022424577" flag="0"/>
		</comp>
		<comp name="00.HNN" depth="0.0">
			<acc value="0.0127676490822298" flag="0"/>
			<vel value="0.0100551445158787" flag="0"/>
			<psa03 value="0.041459582431363" flag="0"/>
			<psa10 value="0.0128521463916234" flag="0"/>
			<psa30 value="0.00104111459373231" flag="0"/>
		</comp>
		<comp name="00.HNZ" depth="0.0">
			<acc value="0.0148096429682975" flag="0"/>
			<vel value="0.0063175591524085" flag="0"/>
			<psa03 value="0.0486065584876178" flag="0"/>
			<psa10 value="0.00532137376489597" flag="0"/>
			<psa30 value="0.000419029815960482" flag="0"/>
		</comp>
	</station>
	<station code="ARG2" name="ARG2" netid="HI" source="ITSAK Strong Motion Network" insttype="" lat="38.1783" lon="20.4878" esm:processing="manual (Paolucci et al 2011)" esm:quality="best">
		<comp name="--.HNE" depth="0.0">
			<acc value="0.0278996168271816" flag="0"/>
			<vel value="0.0154693846863369" flag="0"/>
			<psa03 value="0.0782269998630906" flag="0"/>
			<psa10 value="0.0159549519372549" flag="0"/>
			<psa30 value="0.000957289040700374" flag="0"/>
		</comp>
		<comp name="--.HNN" depth="0.0">
			<acc value="0.028092886955157" flag="0"/>
			<vel value="0.0167214280535611" flag="0"/>
			<psa03 value="0.0735476325861978" flag="0"/>
			<psa10 value="0.019774778732024" flag="0"/>
			<psa30 value="0.00128705786543235" flag="0"/>
		</comp>
		<comp name="--.HNZ" depth="0.0">
			<acc value="0.0116358392160542" flag="0"/>
			<vel value="0.00745658769942801" flag="0"/>
			<psa03 value="0.0426290062541326" flag="0"/>
			<psa10 value="0.00996036545034182" flag="0"/>
			<psa30 value="0.000525407461914365" flag="0"/>
		</comp>
	</station>
	<station code="KLV1" name="KLV1" netid="HI" source="ITSAK Strong Motion Network" insttype="" lat="38.03256" lon="22.10797" esm:processing="manual (Paolucci et al 2011)" esm:quality="good">
		<comp name="--.HNE" depth="0.0">
			<acc value="0.0198139889478101" flag="0"/>
			<vel value="0.0104010176776925" flag="0"/>
			<psa03 value="0.0893421580630527" flag="0"/>
			<psa10 value="0.0118755207574825" flag="0"/>
			<psa30 value="0.000869127106654161" flag="0"/>
		</comp>
		<comp name="--.HNN" depth="0.0">
			<acc value="0.0242721176577165" flag="0"/>
			<vel value="0.0100560825958876" flag="0"/>
			<psa03 value="0.0783438721885903" flag="0"/>
			<psa10 value="0.0097455559077669" flag="0"/>
			<psa30 value="0.00082573912824682" flag="0"/>
		</comp>
		<comp name="--.HNZ" depth="0.0">
			<acc value="0.00796908714026035" flag="0"/>
			<vel value="0.00488659238249908" flag="0"/>
			<psa03 value="0.0182793450314697" flag="0"/>
			<psa10 value="0.00931369323645128" flag="0"/>
			<psa30 value="0.000728231887620602" flag="0"/>
		</comp>
	</station>
	<station code="KRI1" name="KRI1" netid="HI" source="ITSAK Strong Motion Network" insttype="" lat="37.6621" lon="20.8172" esm:processing="manual (Paolucci et al 2011)" esm:quality="best">
		<comp name="--.HNE" depth="0.0">
			<acc value="0.0387573477578441" flag="0"/>
			<vel value="0.0234354506021739" flag="0"/>
			<psa03 value="0.135497361451793" flag="0"/>
			<psa10 value="0.0305022368734781" flag="0"/>
			<psa30 value="0.00268455721374151" flag="0"/>
		</comp>
		<comp name="--.HNN" depth="0.0">
			<acc value="0.0638405378871276" flag="0"/>
			<vel value="0.0374106130223009" flag="0"/>
			<psa03 value="0.256189637973016" flag="0"/>
			<psa10 value="0.0515934353118201" flag="0"/>
			<psa30 value="0.00417502574163335" flag="0"/>
		</comp>
		<comp name="--.HNZ" depth="0.0">
			<acc value="0.0264254192988666" flag="0"/>
			<vel value="0.0125519731546564" flag="0"/>
			<psa03 value="0.0869616722424296" flag="0"/>
			<psa10 value="0.0181871954374445" flag="0"/>
			<psa30 value="0.00212319752641502" flag="0"/>
		</comp>
	</station>
	<station code="NPS1" name="NPS1" netid="HI" source="ITSAK Strong Motion Network" insttype="" lat="36.51263" lon="23.06248" esm:processing="manual (Paolucci et al 2011)" esm:quality="bad">
		<comp name="--.HNE" depth="0.0">
			<acc value="0.00721016453233251" flag="0"/>
			<vel value="0.00478327400180184" flag="0"/>
			<psa03 value="0.026201131529714" flag="0"/>
			<psa10 value="0.00372230088103841" flag="0"/>
			<psa30 value="0.000472497446468133" flag="0"/>
		</comp>
		<comp name="--.HNN" depth="0.0">
			<acc value="0.00985262507564899" flag="0"/>
			<vel value="0.00652341733933349" flag="0"/>
			<psa03 value="0.0201707086063046" flag="0"/>
			<psa10 value="0.00411836579027209" flag="0"/>
			<psa30 value="0.000368172436492162" flag="0"/>
		</comp>
		<comp name="--.HNZ" depth="0.0">
			<acc value="0.00289455229526407" flag="0"/>
			<vel value="0.00218663944735344" flag="0"/>
			<psa03 value="0.0111367963518338" flag="0"/>
			<psa10 value="0.00133296966988511" flag="0"/>
			<psa30 value="0.000345261387497501" flag="0"/>
		</comp>
	</station>
	<station code="PYL1" name="PYL1" netid="HI" source="ITSAK Strong Motion Network" insttype="" lat="36.914188" lon="21.695161" esm:processing="manual (Paolucci et al 2011)" esm:quality="best">
		<comp name="--.HNE" depth="0.0">
			<acc value="0.0786915312740629" flag="0"/>
			<vel value="0.022872640603023" flag="0"/>
			<psa03 value="0.0702671496455329" flag="0"/>
			<psa10 value="0.013173529556666" flag="0"/>
			<psa30 value="0.00136359876922455" flag="0"/>
		</comp>
		<comp name="--.HNN" depth="0.0">
			<acc value="0.0992105916689786" flag="0"/>
			<vel value="0.0283056929512869" flag="0"/>
			<psa03 value="0.0492141247776908" flag="0"/>
			<psa10 value="0.0132561775316912" flag="0"/>
			<psa30 value="0.00309707599941693" flag="0"/>
		</comp>
		<comp name="--.HNZ" depth="0.0">
			<acc value="0.079304380241311" flag="0"/>
			<vel value="0.0157948523052708" flag="0"/>
			<psa03 value="0.0383224397152099" flag="0"/>
			<psa10 value="0.00942588473112121" flag="0"/>
			<psa30 value="0.000918244579197654" flag="0"/>
		</comp>
	</station>
	<station code="VAS2" name="VAS2" netid="HI" source="ITSAK Strong Motion Network" insttype="" lat="38.630558" lon="20.608081" esm:processing="manual (Paolucci et al 2011)" esm:quality="good">
		<comp name="--.HNE" depth="0.0">
			<acc value="0.0172847997600921" flag="0"/>
			<vel value="0.0185434842624838" flag="0"/>
			<psa03 value="0.091876534286342" flag="0"/>
			<psa10 value="0.0525622294898599" flag="0"/>
			<psa30 value="0.0027679621139063" flag="0"/>
		</comp>
		<comp name="--.HNN" depth="0.0">
			<acc value="0.0205718835701447" flag="0"/>
			<vel value="0.0246079269221616" flag="0"/>
			<psa03 value="0.065720739093263" flag="0"/>
			<psa10 value="0.05889603157311" flag="0"/>
			<psa30 value="0.0030323529618343" flag="0"/>
		</comp>
		<comp name="--.HNZ" depth="0.0">
			<acc value="0.013068061335686" flag="0"/>
			<vel value="0.0110595519876906" flag="0"/>
			<psa03 value="0.0326695600313698" flag="0"/>
			<psa10 value="0.0145424414903892" flag="0"/>
			<psa30 value="0.00151474867799974" flag="0"/>
		</comp>
	</station>
	<station code="ITM" name="ITM" netid="HL" source="National Observatory of Athens Seismic Network" insttype="" lat="37.17872" lon="21.92522" esm:processing="manual (Paolucci et al 2011)" esm:quality="best">
		<comp name="--.HNE" depth="0.0">
			<acc value="0.0704462590890684" flag="0"/>
			<vel value="0.0298798414640321" flag="0"/>
			<psa03 value="0.120489815192461" flag="0"/>
			<psa10 value="0.017274568730385" flag="0"/>
			<psa30 value="0.00446163514476444" flag="0"/>
		</comp>
		<comp name="--.HNN" depth="0.0">
			<acc value="0.0812865349129383" flag="0"/>
			<vel value="0.0198622928540597" flag="0"/>
			<psa03 value="0.0954342282990813" flag="0"/>
			<psa10 value="0.00828112045857423" flag="0"/>
			<psa30 value="0.00285632692597618" flag="0"/>
		</comp>
		<comp name="--.HNZ" depth="0.0">
			<acc value="0.069225710811788" flag="0"/>
			<vel value="0.0178946244597175" flag="0"/>
			<psa03 value="0.0447959258435085" flag="0"/>
			<psa10 value="0.0117401658533589" flag="0"/>
			<psa30 value="0.00189203179615602" flag="0"/>
		</comp>
	</station>
	<station code="PATC" name="PATC" netid="HL" source="National Observatory of Athens Seismic Network" insttype="" lat="38.26933" lon="21.76001" esm:processing="manual (Paolucci et al 2011)" esm:quality="good">
		<comp name="00.HNE" depth="0.0">
			<acc value="0.0306502995386638" flag="0"/>
			<vel value="0.0234479707530081" flag="0"/>
			<psa03 value="0.148804117959093" flag="0"/>
			<psa10 value="0.0287375312204027" flag="0"/>
			<psa30 value="0.0054981817275654" flag="0"/>
		</comp>
		<comp name="00.HNN" depth="0.0">
			<acc value="0.0242577561931972" flag="0"/>
			<vel value="0.0186480015138984" flag="0"/>
			<psa03 value="0.117035159254756" flag="0"/>
			<psa10 value="0.0316736982270433" flag="0"/>
			<psa30 value="0.00615077870888581" flag="0"/>
		</comp>
		<comp name="00.HNZ" depth="0.0">
			<acc value="0.0142232524371245" flag="0"/>
			<vel value="0.00952123848402363" flag="0"/>
			<psa03 value="0.0623239307379351" flag="0"/>
			<psa10 value="0.0207574882067103" flag="0"/>
			<psa30 value="0.00239193699575177" flag="0"/>
		</comp>
	</station>
	<station code="ANX" name="ANX" netid="HP" source="University of Patras, Seismological Laboratory (PSLNET)" insttype="" lat="38.5933" lon="21.9209" esm:processing="manual (Paolucci et al 2011)" esm:quality="best">
		<comp name="--.HNE" depth="0.0">
			<acc value="0.00670708179058097" flag="0"/>
			<vel value="0.00608342962859877" flag="0"/>
			<psa03 value="0.0276541444513628" flag="0"/>
			<psa10 value="0.0097268637319719" flag="0"/>
			<psa30 value="0.000957541349081712" flag="0"/>
		</comp>
		<comp name="--.HNN" depth="0.0">
			<acc value="0.00915024852783505" flag="0"/>
			<vel value="0.00737727385171651" flag="0"/>
			<psa03 value="0.0225165410895184" flag="0"/>
			<psa10 value="0.0093101229999448" flag="0"/>
			<psa30 value="0.000487944250995059" flag="0"/>
		</comp>
		<comp name="--.HNZ" depth="0.0">
			<acc value="0.00338265570362674" flag="0"/>
			<vel value="0.00305270209391748" flag="0"/>
			<psa03 value="0.0146052448695297" flag="0"/>
			<psa10 value="0.00456154014840855" flag="0"/>
			<psa30 value="0.000598724766743427" flag="0"/>
		</comp>
	</station>
	<station code="FSK" name="FSK" netid="HP" source="University of Patras, Seismological Laboratory (PSLNET)" insttype="" lat="38.4593" lon="20.5623" esm:processing="manual (Paolucci et al 2011)" esm:quality="best">
		<comp name="--.HNE" depth="0.0">
			<acc value="0.00533971220752463" flag="0"/>
			<vel value="0.00404217717980863" flag="0"/>
			<psa03 value="0.0153173324064278" flag="0"/>
			<psa10 value="0.00830722968820481" flag="0"/>
			<psa30 value="0.000709215732062307" flag="0"/>
		</comp>
		<comp name="--.HNN" depth="0.0">
			<acc value="0.00372592145329873" flag="0"/>
			<vel value="0.00374880539555877" flag="0"/>
			<psa03 value="0.00994920596104945" flag="0"/>
			<psa10 value="0.00718157668172471" flag="0"/>
			<psa30 value="0.000833956860133627" flag="0"/>
		</comp>
		<comp name="--.HNZ" depth="0.0">
			<acc value="0.00267647107251622" flag="0"/>
			<vel value="0.00242332188017174" flag="0"/>
			<psa03 value="0.00763848517883879" flag="0"/>
			<psa10 value="0.0041408907199229" flag="0"/>
			<psa30 value="0.000423447400270284" flag="0"/>
		</comp>
	</station>
	<station code="GUR" name="GUR" netid="HP" source="University of Patras, Seismological Laboratory (PSLNET)" insttype="" lat="37.9363" lon="22.3423" esm:processing="manual (Paolucci et al 2011)" esm:quality="best">
		<comp name="--.HNE" depth="0.0">
			<acc value="0.0190435235883213" flag="0"/>
			<vel value="0.0127427164224975" flag="0"/>
			<psa03 value="0.0656440465126924" flag="0"/>
			<psa10 value="0.0073356884533708" flag="0"/>
			<psa30 value="0.00121388468473616" flag="0"/>
		</comp>
		<comp name="--.HNN" depth="0.0">
			<acc value="0.0173127487620407" flag="0"/>
			<vel value="0.00911316111716489" flag="0"/>
			<psa03 value="0.0702744313779158" flag="0"/>
			<psa10 value="0.00676966251941995" flag="0"/>
			<psa30 value="0.000634957166963033" flag="0"/>
		</comp>
		<comp name="--.HNZ" depth="0.0">
			<acc value="0.0107899803917615" flag="0"/>
			<vel value="0.00571802031493835" flag="0"/>
			<psa03 value="0.0350339041575659" flag="0"/>
			<psa10 value="0.00458041186731415" flag="0"/>
			<psa30 value="0.000497130276191976" flag="0"/>
		</comp>
	</station>
	<station code="LTK" name="LTK" netid="HP" source="University of Patras, Seismological Laboratory (PSLNET)" insttype="" lat="38.0228" lon="22.9673" esm:processing="manual (Paolucci et al 2011)" esm:quality="best">
		<comp name="--.HNE" depth="0.0">
			<acc value="0.00202552231134025" flag="0"/>
			<vel value="0.00189194564592673" flag="0"/>
			<psa03 value="0.00706540294409076" flag="0"/>
			<psa10 value="0.00269127906527891" flag="0"/>
			<psa30 value="0.000440540173207575" flag="0"/>
		</comp>
		<comp name="--.HNN" depth="0.0">
			<acc value="0.00318222425931346" flag="0"/>
			<vel value="0.00184059339503426" flag="0"/>
			<psa03 value="0.00749047797822676" flag="0"/>
			<psa10 value="0.00216851318460703" flag="0"/>
			<psa30 value="0.000690152958829369" flag="0"/>
		</comp>
		<comp name="--.HNZ" depth="0.0">
			<acc value="0.00206918252262638" flag="0"/>
			<vel value="0.00128530576147751" flag="0"/>
			<psa03 value="0.00631817570960389" flag="0"/>
			<psa10 value="0.00165484739895472" flag="0"/>
			<psa30 value="0.000231383713452064" flag="0"/>
		</comp>
	</station>
	<station code="PDO" name="PDO" netid="HP" source="University of Patras, Seismological Laboratory (PSLNET)" insttype="" lat="38.5986" lon="21.1833" esm:processing="manual (Paolucci et al 2011)" esm:quality="best">
		<comp name="--.HNE" depth="0.0">
			<acc value="0.00869432248323948" flag="0"/>
			<vel value="0.00723282515143264" flag="0"/>
			<psa03 value="0.0376738889394173" flag="0"/>
			<psa10 value="0.00761380172073995" flag="0"/>
			<psa30 value="0.00112142251790607" flag="0"/>
		</comp>
		<comp name="--.HNN" depth="0.0">
			<acc value="0.0110476180769012" flag="0"/>
			<vel value="0.00842807456787591" flag="0"/>
			<psa03 value="0.0418205907213959" flag="0"/>
			<psa10 value="0.0107843522229124" flag="0"/>
			<psa30 value="0.000841932284296316" flag="0"/>
		</comp>
		<comp name="--.HNZ" depth="0.0">
			<acc value="0.00646736367623784" flag="0"/>
			<vel value="0.00435202610338503" flag="0"/>
			<psa03 value="0.0162308356298517" flag="0"/>
			<psa10 value="0.00473949037421292" flag="0"/>
			<psa30 value="0.000624415947825975" flag="0"/>
		</comp>
	</station>
	<station code="PVO" name="PVO" netid="HP" source="University of Patras, Seismological Laboratory (PSLNET)" insttype="" lat="38.616" lon="21.525" esm:processing="manual (Paolucci et al 2011)" esm:quality="good">
		<comp name="--.HNE" depth="0.0">
			<acc value="0.0063996720760884" flag="0"/>
			<vel value="0.00419605233404581" flag="0"/>
			<psa03 value="0.0233373194203805" flag="0"/>
			<psa10 value="0.00471124537812344" flag="0"/>
			<psa30 value="0.000717582067541953" flag="0"/>
		</comp>
		<comp name="--.HNN" depth="0.0">
			<acc value="0.00480837282112936" flag="0"/>
			<vel value="0.00350670548348113" flag="0"/>
			<psa03 value="0.0163300948094789" flag="0"/>
			<psa10 value="0.00446020374786665" flag="0"/>
			<psa30 value="0.000717005310584004" flag="0"/>
		</comp>
		<comp name="--.HNZ" depth="0.0">
			<acc value="0.00350726933959376" flag="0"/>
			<vel value="0.00275114561178954" flag="0"/>
			<psa03 value="0.0115300645914587" flag="0"/>
			<psa10 value="0.00467118850582152" flag="0"/>
			<psa30 value="0.000746193129547372" flag="0"/>
		</comp>
	</station>
	<station code="PYL" name="PYL" netid="HP" source="University of Patras, Seismological Laboratory (PSLNET)" insttype="" lat="36.8955" lon="21.742" esm:processing="manual (Paolucci et al 2011)" esm:quality="best">
		<comp name="--.HNE" depth="0.0">
			<acc value="0.273665424451159" flag="0"/>
			<vel value="0.0779901975362967" flag="0"/>
			<psa03 value="0.149760952178015" flag="0"/>
			<psa10 value="0.0253669804379792" flag="0"/>
			<psa30 value="0.00255566930054785" flag="0"/>
		</comp>
		<comp name="--.HNN" depth="0.0">
			<acc value="0.337063182746971" flag="0"/>
			<vel value="0.0617541746834388" flag="0"/>
			<psa03 value="0.0888138209797208" flag="0"/>
			<psa10 value="0.0154200896302639" flag="0"/>
			<psa30 value="0.00191955216091215" flag="0"/>
		</comp>
		<comp name="--.HNZ" depth="0.0">
			<acc value="0.267687222535579" flag="0"/>
			<vel value="0.0290922511919118" flag="0"/>
			<psa03 value="0.0447540897389584" flag="0"/>
			<psa10 value="0.00749075513202254" flag="0"/>
			<psa30 value="0.000660815390358138" flag="0"/>
		</comp>
	</station>
	<station code="SERG" name="SERG" netid="HP" source="University of Patras, Seismological Laboratory (PSLNET)" insttype="" lat="38.4133" lon="22.0566" esm:processing="manual (Paolucci et al 2011)" esm:quality="best">
		<comp name="--.HNE" depth="0.0">
			<acc value="0.00836009257307668" flag="0"/>
			<vel value="0.00374977911476091" flag="0"/>
			<psa03 value="0.0313633875663346" flag="0"/>
			<psa10 value="0.00327881079887486" flag="0"/>
			<psa30 value="0.000566443669947726" flag="0"/>
		</comp>
		<comp name="--.HNN" depth="0.0">
			<acc value="0.00922830959999223" flag="0"/>
			<vel value="0.00428425795566431" flag="0"/>
			<psa03 value="0.0259563054153294" flag="0"/>
			<psa10 value="0.00500028218166669" flag="0"/>
			<psa30 value="0.00055270770792206" flag="0"/>
		</comp>
		<comp name="--.HNZ" depth="0.0">
			<acc value="0.00342568665815221" flag="0"/>
			<vel value="0.00260444463532498" flag="0"/>
			<psa03 value="0.00979132245518818" flag="0"/>
			<psa10 value="0.00267082146006509" flag="0"/>
			<psa30 value="0.000613037069029449" flag="0"/>
		</comp>
	</station>
	<station code="UPR" name="UPR" netid="HP" source="University of Patras, Seismological Laboratory (PSLNET)" insttype="" lat="38.2836" lon="21.7864" esm:processing="manual (Paolucci et al 2011)" esm:quality="bad">
		<comp name="--.HNE" depth="0.0">
			<acc value="0.0109567595357121" flag="0"/>
			<vel value="0.0122069954451105" flag="0"/>
			<psa03 value="0.0331063363614709" flag="0"/>
			<psa10 value="0.0181937039936114" flag="0"/>
			<psa30 value="0.00438006140757003" flag="0"/>
		</comp>
		<comp name="--.HNN" depth="0.0">
			<acc value="0.0129562946776578" flag="0"/>
			<vel value="0.0157772553029847" flag="0"/>
			<psa03 value="0.0323862756401335" flag="0"/>
