<stationlist created="1678386638">
	<station code="0REN" name="0REN" netid="IT" source="Italian Strong Motion Network (RAN)" insttype="" lat="43.5461997986" lon="12.263999939">
		<comp name="00.HNE" depth="0.0">
			<acc value="0.165282678617" flag="0"/>
			<vel value="0.0587192961569" flag="0"/>
			<psa03 value="0.229183369774" flag="0"/>
			<psa10 value="0.0689550154313" flag="0"/>
			<psa30 value="0.00980119428103" flag="0"/>
		</comp>
		<comp name="00.HNN" depth="0.0">
			<acc value="0.121957497679" flag="0"/>
			<vel value="0.0712917619692" flag="0"/>
			<psa03 value="0.201484826548" flag="0"/>
			<psa10 value="0.0858245029522" flag="0"/>
			<psa30 value="0.0105311084676" flag="0"/>
		</comp>
		<comp name="00.HNZ" depth="0.0">
			<acc value="0.145149018495" flag="0"/>
			<vel value="0.0874545451694" flag="0"/>
			<psa03 value="0.185653819488" flag="0"/>
			<psa10 value="0.0943336141391" flag="0"/>
			<psa30 value="0.01989546131" flag="0"/>
		</comp>
	</station>
	<station code="AME" name="AME" netid="IT" source="Italian Strong Motion Network (RAN)" insttype="" lat="42.559666" lon="12.413994">
		<comp name="00.HNE" depth="0.0">
			<acc value="0.0331934170293" flag="0"/>
			<vel value="0.0224081007096" flag="0"/>
			<psa03 value="0.128071963306" flag="0"/>
			<psa10 value="0.023709198118" flag="0"/>
			<psa30 value="0.00300972375443" flag="0"/>
		</comp>
		<comp name="00.HNN" depth="0.0">
			<acc value="0.0603573691056" flag="0"/>
			<vel value="0.0332811181131" flag="0"/>
			<psa03 value="0.223192285394" flag="0"/>
			<psa10 value="0.0376476714735" flag="0"/>
			<psa30 value="0.00498351888368" flag="0"/>
		</comp>
		<comp name="00.HNZ" depth="0.0">
			<acc value="0.0311622671" flag="0"/>
			<vel value="0.0178547412213" flag="0"/>
			<psa03 value="0.0774972327696" flag="0"/>
			<psa10 value="0.0197907079123" flag="0"/>
			<psa30 value="0.00361266473798" flag="0"/>
		</comp>
	</station>
	<station code="APNO" name="APNO" netid="IT" source="Italian Strong Motion Network (RAN)" insttype="" lat="43.3638000488" lon="13.3451004028">
		<comp name="00.HNE" depth="0.0">
			<acc value="0.081521773994" flag="0"/>
			<vel value="0.0485800886083" flag="0"/>
			<psa03 value="0.197376512725" flag="0"/>
			<psa10 value="0.0612935166445" flag="0"/>
			<psa30 value="0.022115928405" flag="0"/>
		</comp>
		<comp name="00.HNN" depth="0.0">
			<acc value="0.108016821086" flag="0"/>
			<vel value="0.0507237296225" flag="0"/>
			<psa03 value="0.144773913478" flag="0"/>
			<psa10 value="0.0799305150042" flag="0"/>
			<psa30 value="0.0117444921816" flag="0"/>
		</comp>
		<comp name="00.HNZ" depth="0.0">
			<acc value="0.0360511749725" flag="0"/>
			<vel value="0.0323789780114" flag="0"/>
			<psa03 value="0.0686689187706" flag="0"/>
			<psa10 value="0.0370637577921" flag="0"/>
			<psa30 value="0.0175899352469" flag="0"/>
		</comp>
	</station>
	<station code="ARO" name="ARO" netid="IT" source="Italian Strong Motion Network (RAN)" insttype="" lat="43.466301" lon="11.882868">
		<comp name="00.HNE" depth="0.0">
			<acc value="0.114502579245" flag="0"/>
			<vel value="0.0472055251569" flag="0"/>
			<psa03 value="0.279918814081" flag="0"/>
			<psa10 value="0.0481953352046" flag="0"/>
			<psa30 value="0.0122588512554" flag="0"/>
		</comp>
		<comp name="00.HNN" depth="0.0">
			<acc value="0.120795363941" flag="0"/>
			<vel value="0.0600004085208" flag="0"/>
			<psa03 value="0.24595466829" flag="0"/>
			<psa10 value="0.109880996577" flag="0"/>
			<psa30 value="0.00821394496689" flag="0"/>
		</comp>
		<comp name="00.HNZ" depth="0.0">
			<acc value="0.0758469464886" flag="0"/>
			<vel value="0.054761332111" flag="0"/>
			<psa03 value="0.141481507872" flag="0"/>
			<psa10 value="0.0980807723699" flag="0"/>
			<psa30 value="0.015265311252" flag="0"/>
		</comp>
	</station>
	<station code="ASS" name="ASS" netid="IT" source="Italian Strong Motion Network (RAN)" insttype="" lat="43.074982" lon="12.604141">
		<comp name="00.HNE" depth="0.0">
			<acc value="0.702717566128" flag="0"/>
			<vel value="0.222091921449" flag="0"/>
			<psa03 value="1.22090879588" flag="0"/>
			<psa10 value="0.1113833386" flag="0"/>
			<psa30 value="0.0150858193615" flag="0"/>
		</comp>
		<comp name="00.HNN" depth="0.0">
			<acc value="0.50476720642" flag="0"/>
			<vel value="0.142980933316" flag="0"/>
			<psa03 value="0.800213426878" flag="0"/>
			<psa10 value="0.0751101556793" flag="0"/>
			<psa30 value="0.0122195669863" flag="0"/>
		</comp>
		<comp name="00.HNZ" depth="0.0">
			<acc value="0.296029922833" flag="0"/>
			<vel value="0.0970310793421" flag="0"/>
			<psa03 value="0.302409074784" flag="0"/>
			<psa10 value="0.073645031122" flag="0"/>
			<psa30 value="0.0104509573246" flag="0"/>
		</comp>
	</station>
	<station code="BBN" name="BBN" netid="IT" source="Italian Strong Motion Network (RAN)" insttype="" lat="43.747646" lon="11.821428">
		<comp name="00.HNE" depth="0.0">
			<acc value="0.0200254308338" flag="0"/>
			<vel value="0.0409401306037" flag="0"/>
			<psa03 value="0.0517135143081" flag="0"/>
			<psa10 value="0.0721898897257" flag="0"/>
			<psa30 value="0.0148029389554" flag="0"/>
		</comp>
		<comp name="00.HNN" depth="0.0">
			<acc value="0.0184629674028" flag="0"/>
			<vel value="0.0338485297657" flag="0"/>
			<psa03 value="0.0504760573326" flag="0"/>
			<psa10 value="0.0591061017392" flag="0"/>
			<psa30 value="0.0120885966435" flag="0"/>
		</comp>
		<comp name="00.HNZ" depth="0.0">
			<acc value="0.0264725913352" flag="0"/>
			<vel value="0.0358760012861" flag="0"/>
			<psa03 value="0.0578319665008" flag="0"/>
			<psa10 value="0.0538788817117" flag="0"/>
			<psa30 value="0.0154039070999" flag="0"/>
		</comp>
	</station>
	<station code="BDT" name="BDT" netid="IT" source="Italian Strong Motion Network (RAN)" insttype="" lat="43.706772" lon="12.188036">
		<comp name="00.HNE" depth="0.0">
			<acc value="0.12766872564" flag="0"/>
			<vel value="0.0812375726948" flag="0"/>
			<psa03 value="0.361818177012" flag="0"/>
			<psa10 value="0.0884322307013" flag="0"/>
			<psa30 value="0.0120740623474" flag="0"/>
		</comp>
		<comp name="00.HNN" depth="0.0">
			<acc value="0.147218059652" flag="0"/>
			<vel value="0.0818405800329" flag="0"/>
			<psa03 value="0.372871117548" flag="0"/>
			<psa10 value="0.133021582027" flag="0"/>
			<psa30 value="0.0250979492827" flag="0"/>
		</comp>
		<comp name="00.HNZ" depth="0.0">
			<acc value="0.0693213087627" flag="0"/>
			<vel value="0.0484481473411" flag="0"/>
			<psa03 value="0.142101486443" flag="0"/>
			<psa10 value="0.073964829807" flag="0"/>
			<psa30 value="0.0153741817974" flag="0"/>
		</comp>
	</station>
	<station code="BGR" name="BGR" netid="IT" source="Italian Strong Motion Network (RAN)" insttype="" lat="43.889511" lon="11.991291">
		<comp name="00.HGE" depth="0.0">
			<acc value="0.0399048375807" flag="0"/>
			<vel value="0.0216266748028" flag="0"/>
			<psa03 value="0.117263632723" flag="0"/>
			<psa10 value="0.0331669946506" flag="0"/>
			<psa30 value="0.00870139559144" flag="0"/>
		</comp>
		<comp name="00.HGN" depth="0.0">
			<acc value="0.0364097413058" flag="0"/>
			<vel value="0.0292363711471" flag="0"/>
			<psa03 value="0.110991383885" flag="0"/>
			<psa10 value="0.0323710006699" flag="0"/>
			<psa30 value="0.00646816848442" flag="0"/>
		</comp>
		<comp name="00.HGZ" depth="0.0">
			<acc value="0.0179544834189" flag="0"/>
			<vel value="0.0179651625053" flag="0"/>
			<psa03 value="0.0473544807521" flag="0"/>
			<psa10 value="0.0327436366052" flag="0"/>
			<psa30 value="0.00828690063317" flag="0"/>
		</comp>
	</station>
	<station code="BVG" name="BVG" netid="IT" source="Italian Strong Motion Network (RAN)" insttype="" lat="42.932367" lon="12.611065">
		<comp name="00.HGE" depth="0.0">
			<acc value="0.223698488315" flag="0"/>
			<vel value="0.171574707743" flag="0"/>
			<psa03 value="0.616221905009" flag="0"/>
			<psa10 value="0.226295660977" flag="0"/>
			<psa30 value="0.0669107858446" flag="0"/>
		</comp>
		<comp name="00.HGN" depth="0.0">
			<acc value="0.295499149661" flag="0"/>
			<vel value="0.194840161443" flag="0"/>
			<psa03 value="0.653658384992" flag="0"/>
			<psa10 value="0.223589181686" flag="0"/>
			<psa30 value="0.0452051312846" flag="0"/>
		</comp>
		<comp name="00.HGZ" depth="0.0">
			<acc value="0.216343705877" flag="0"/>
			<vel value="0.113920470605" flag="0"/>
			<psa03 value="0.943347075448" flag="0"/>
			<psa10 value="0.0754430802337" flag="0"/>
			<psa30 value="0.0146155615426" flag="0"/>
		</comp>
	</station>
	<station code="CDCT" name="CDCT" netid="IT" source="Italian Strong Motion Network (RAN)" insttype="" lat="43.366001" lon="12.2363">
		<comp name="00.HNE" depth="0.0">
			<acc value="0.996223485861" flag="0"/>
			<vel value="0.574301523209" flag="0"/>
			<psa03 value="2.65473869674" flag="0"/>
			<psa10 value="0.721764893381" flag="0"/>
			<psa30 value="0.0882853884738" flag="0"/>
		</comp>
		<comp name="00.HNN" depth="0.0">
			<acc value="0.812704992808" flag="0"/>
			<vel value="0.598484402075" flag="0"/>
			<psa03 value="1.45145781863" flag="0"/>
			<psa10 value="0.910551379562" flag="0"/>
			<psa30 value="0.0739532057037" flag="0"/>
		</comp>
		<comp name="00.HNZ" depth="0.0">
			<acc value="0.516325958755" flag="0"/>
			<vel value="0.33887058386" flag="0"/>
			<psa03 value="0.995415774745" flag="0"/>
			<psa10 value="0.612790174341" flag="0"/>
			<psa30 value="0.0485138338034" flag="0"/>
		</comp>
	</station>
	<station code="CLF" name="CLF" netid="IT" source="Italian Strong Motion Network (RAN)" insttype="" lat="43.036714" lon="12.920428">
		<comp name="00.HGE" depth="0.0">
			<acc value="0.119058552868" flag="0"/>
			<vel value="0.0765666863158" flag="0"/>
			<psa03 value="0.309573486891" flag="0"/>
			<psa10 value="0.144773405528" flag="0"/>
			<psa30 value="0.00762151905489" flag="0"/>
		</comp>
		<comp name="00.HGN" depth="0.0">
			<acc value="0.192574041613" flag="0"/>
			<vel value="0.0898999401334" flag="0"/>
			<psa03 value="0.627861426072" flag="0"/>
			<psa10 value="0.264139327934" flag="0"/>
			<psa30 value="0.0138553670167" flag="0"/>
		</comp>
		<comp name="00.HGZ" depth="0.0">
			<acc value="0.113187674643" flag="0"/>
			<vel value="0.0789867238658" flag="0"/>
			<psa03 value="0.322165425212" flag="0"/>
			<psa10 value="0.0462695226287" flag="0"/>
			<psa30 value="0.00714870106638" flag="0"/>
		</comp>
	</station>
	<station code="CMRN" name="CMRN" netid="IT" source="Italian Strong Motion Network (RAN)" insttype="" lat="43.139198" lon="13.0718">
		<comp name="00.HNE" depth="0.0">
			<acc value="0.165063336933" flag="0"/>
			<vel value="0.0785168531967" flag="0"/>
			<psa03 value="0.431542129215" flag="0"/>
			<psa10 value="0.10432395345" flag="0"/>
			<psa30 value="0.015711790829" flag="0"/>
		</comp>
		<comp name="00.HNN" depth="0.0">
			<acc value="0.161985693796" flag="0"/>
			<vel value="0.125750521914" flag="0"/>
			<psa03 value="0.373563413409" flag="0"/>
			<psa10 value="0.133665079656" flag="0"/>
			<psa30 value="0.0215349149157" flag="0"/>
		</comp>
		<comp name="00.HNZ" depth="0.0">
			<acc value="0.0771363762594" flag="0"/>
			<vel value="0.0378931030988" flag="0"/>
			<psa03 value="0.193787274956" flag="0"/>
			<psa10 value="0.0527077803817" flag="0"/>
			<psa30 value="0.0153105725836" flag="0"/>
		</comp>
	</station>
	<station code="CNTN" name="CNTN" netid="IT" source="Italian Strong Motion Network (RAN)" insttype="" lat="43.4729" lon="12.6303">
		<comp name="00.HNE" depth="0.0">
			<acc value="0.894235055584" flag="0"/>
			<vel value="0.179378273226" flag="0"/>
			<psa03 value="0.683361352667" flag="0"/>
			<psa10 value="0.089121713876" flag="0"/>
			<psa30 value="0.0194309405378" flag="0"/>
		</comp>
		<comp name="00.HNN" depth="0.0">
			<acc value="1.42212734342" flag="0"/>
			<vel value="0.241036199235" flag="0"/>
			<psa03 value="0.531936113158" flag="0"/>
			<psa10 value="0.0622632558852" flag="0"/>
			<psa30 value="0.0160977613977" flag="0"/>
		</comp>
		<comp name="00.HNZ" depth="0.0">
			<acc value="0.469487261905" flag="0"/>
			<vel value="0.144488392359" flag="0"/>
			<psa03 value="0.445554057437" flag="0"/>
			<psa10 value="0.100786599118" flag="0"/>
			<psa30 value="0.0230832941549" flag="0"/>
		</comp>
	</station>
	<station code="CPT" name="CPT" netid="IT" source="Italian Strong Motion Network (RAN)" insttype="" lat="42.8274" lon="12.9251">
		<comp name="00.HNE" depth="0.0">
			<acc value="0.0972517124478" flag="0"/>
			<vel value="0.0416559427308" flag="0"/>
			<psa03 value="0.20341526693" flag="0"/>
			<psa10 value="0.0457745348385" flag="0"/>
			<psa30 value="0.00531750850883" flag="0"/>
		</comp>
		<comp name="00.HNN" depth="0.0">
			<acc value="0.0849058168878" flag="0"/>
			<vel value="0.0444955092518" flag="0"/>
			<psa03 value="0.15196577532" flag="0"/>
			<psa10 value="0.0261202572138" flag="0"/>
			<psa30 value="0.0042813944547" flag="0"/>
		</comp>
		<comp name="00.HNZ" depth="0.0">
			<acc value="0.0620087310968" flag="0"/>
			<vel value="0.0268257727229" flag="0"/>
			<psa03 value="0.144050771823" flag="0"/>
			<psa10 value="0.0232785439643" flag="0"/>
			<psa30 value="0.00477456504151" flag="0"/>
		</comp>
	</station>
	<station code="CRO" name="CRO" netid="IT" source="Italian Strong Motion Network (RAN)" insttype="" lat="43.267841" lon="11.98055">
		<comp name="00.HNE" depth="0.0">
			<acc value="0.267411375261" flag="0"/>
			<vel value="0.109011923017" flag="0"/>
			<psa03 value="0.654291051906" flag="0"/>
			<psa10 value="0.0918658006586" flag="0"/>
			<psa30 value="0.016449526367" flag="0"/>
		</comp>
		<comp name="00.HNN" depth="0.0">
			<acc value="0.542552975066" flag="0"/>
			<vel value="0.186854046431" flag="0"/>
			<psa03 value="1.02423826743" flag="0"/>
			<psa10 value="0.0653049961353" flag="0"/>
			<psa30 value="0.00966401852712" flag="0"/>
		</comp>
		<comp name="00.HNZ" depth="0.0">
			<acc value="0.190746701126" flag="0"/>
			<vel value="0.109455876941" flag="0"/>
			<psa03 value="0.363975069895" flag="0"/>
			<psa10 value="0.15212522755" flag="0"/>
			<psa30 value="0.0215022777537" flag="0"/>
		</comp>
	</station>
	<station code="CSA" name="CSA" netid="IT" source="Italian Strong Motion Network (RAN)" insttype="" lat="43.008015" lon="12.590602">
		<comp name="00.HGE" depth="0.0">
			<acc value="0.320465832656" flag="0"/>
			<vel value="0.297581358378" flag="0"/>
			<psa03 value="0.711577721865" flag="0"/>
			<psa10 value="0.551243677187" flag="0"/>
			<psa30 value="0.160257616281" flag="0"/>
		</comp>
		<comp name="00.HGN" depth="0.0">
			<acc value="0.397158357665" flag="0"/>
			<vel value="0.294565404867" flag="0"/>
			<psa03 value="1.02957353753" flag="0"/>
			<psa10 value="0.375333594009" flag="0"/>
			<psa30 value="0.167200116187" flag="0"/>
		</comp>
		<comp name="00.HGZ" depth="0.0">
			<acc value="0.146156250314" flag="0"/>
			<vel value="0.144406994749" flag="0"/>
			<psa03 value="0.451474324624" flag="0"/>
			<psa10 value="0.19792500156" flag="0"/>
			<psa30 value="0.0472772418853" flag="0"/>
		</comp>
	</station>
	<station code="CSAN" name="CSAN" netid="IT" source="Italian Strong Motion Network (RAN)" insttype="" lat="42.900299" lon="13.1453">
		<comp name="00.HGE" depth="0.0">
			<acc value="0.0629681840658" flag="0"/>
			<vel value="0.0291435894543" flag="0"/>
			<psa03 value="0.192570798537" flag="0"/>
			<psa10 value="0.0246185227313" flag="0"/>
			<psa30 value="0.00544702042171" flag="0"/>
		</comp>
		<comp name="00.HGN" depth="0.0">
			<acc value="0.0662368172102" flag="0"/>
			<vel value="0.0285269587204" flag="0"/>
			<psa03 value="0.134158408169" flag="0"/>
			<psa10 value="0.0289428216949" flag="0"/>
			<psa30 value="0.00356997982698" flag="0"/>
		</comp>
		<comp name="00.HGZ" depth="0.0">
			<acc value="0.0354567117795" flag="0"/>
			<vel value="0.0144455462452" flag="0"/>
			<psa03 value="0.0693182847044" flag="0"/>
			<psa10 value="0.0147854407129" flag="0"/>
			<psa30 value="0.0076227199678" flag="0"/>
		</comp>
	</station>
	<station code="CSC" name="CSC" netid="IT" source="Italian Strong Motion Network (RAN)" insttype="" lat="42.719097" lon="13.01228">
		<comp name="00.HGE" depth="0.0">
			<acc value="0.0520758312647" flag="0"/>
			<vel value="0.0353671442573" flag="0"/>
			<psa03 value="0.116293568461" flag="0"/>
			<psa10 value="0.0303106704332" flag="0"/>
			<psa30 value="0.00435064695901" flag="0"/>
		</comp>
		<comp name="00.HGN" depth="0.0">
			<acc value="0.0561176158153" flag="0"/>
			<vel value="0.038155684368" flag="0"/>
			<psa03 value="0.156925072599" flag="0"/>
			<psa10 value="0.0503047599433" flag="0"/>
			<psa30 value="0.00336358011234" flag="0"/>
		</comp>
		<comp name="00.HGZ" depth="0.0">
			<acc value="0.0358738558066" flag="0"/>
			<vel value="0.0264703575176" flag="0"/>
			<psa03 value="0.0831620194921" flag="0"/>
			<psa10 value="0.0300632965458" flag="0"/>
			<psa30 value="0.00340373131383" flag="0"/>
		</comp>
	</station>
	<station code="CSD" name="CSD" netid="IT" source="Italian Strong Motion Network (RAN)" insttype="" lat="42.754048" lon="12.003539">
		<comp name="00.HGE" depth="0.0">
			<acc value="0.198321370289" flag="0"/>
			<vel value="0.093584265452" flag="0"/>
			<psa03 value="0.631747308493" flag="0"/>
			<psa10 value="0.0465977818744" flag="0"/>
			<psa30 value="0.0108061216859" flag="0"/>
		</comp>
		<comp name="00.HGN" depth="0.0">
			<acc value="0.327384375285" flag="0"/>
			<vel value="0.115501921925" flag="0"/>
			<psa03 value="0.629275228061" flag="0"/>
			<psa10 value="0.0646658937983" flag="0"/>
			<psa30 value="0.010723401206" flag="0"/>
		</comp>
		<comp name="00.HGZ" depth="0.0">
			<acc value="0.104831930059" flag="0"/>
			<vel value="0.0476493811799" flag="0"/>
			<psa03 value="0.190222893" flag="0"/>
			<psa10 value="0.0496771671184" flag="0"/>
			<psa30 value="0.0061919514364" flag="0"/>
		</comp>
	</station>
	<station code="CSN" name="CSN" netid="IT" source="Italian Strong Motion Network (RAN)" insttype="" lat="44.137005" lon="12.241408">
		<comp name="00.HNE" depth="0.0">
			<acc value="0.0488337159271" flag="0"/>
			<vel value="0.0345032422457" flag="0"/>
			<psa03 value="0.145586321463" flag="0"/>
			<psa10 value="0.0365189254496" flag="0"/>
			<psa30 value="0.0108103427988" flag="0"/>
		</comp>
		<comp name="00.HNN" depth="0.0">
			<acc value="0.0436478002827" flag="0"/>
			<vel value="0.035443600325" flag="0"/>
			<psa03 value="0.122105224289" flag="0"/>
			<psa10 value="0.05005351955" flag="0"/>
			<psa30 value="0.00532947346812" flag="0"/>
		</comp>
		<comp name="00.HNZ" depth="0.0">
			<acc value="0.0324997761621" flag="0"/>
			<vel value="0.0199775365688" flag="0"/>
			<psa03 value="0.122191500837" flag="0"/>
			<psa10 value="0.0263896113072" flag="0"/>
			<psa30 value="0.00827323722805" flag="0"/>
		</comp>
	</station>
	<station code="CTL" name="CTL" netid="IT" source="Italian Strong Motion Network (RAN)" insttype="" lat="43.955116" lon="12.735809">
		<comp name="00.HNE" depth="0.0">
			<acc value="0.0603301599319" flag="0"/>
			<vel value="0.043318224021" flag="0"/>
			<psa03 value="0.119431120059" flag="0"/>
			<psa10 value="0.100826216742" flag="0"/>
			<psa30 value="0.0140654834359" flag="0"/>
		</comp>
		<comp name="00.HNN" depth="0.0">
			<acc value="0.0549150436223" flag="0"/>
			<vel value="0.0473284568032" flag="0"/>
			<psa03 value="0.119520313467" flag="0"/>
			<psa10 value="0.109679833251" flag="0"/>
			<psa30 value="0.00757692610085" flag="0"/>
		</comp>
		<comp name="00.HNZ" depth="0.0">
			<acc value="0.0281717742983" flag="0"/>
			<vel value="0.0252765094524" flag="0"/>
			<psa03 value="0.0542909402585" flag="0"/>
			<psa10 value="0.029111967275" flag="0"/>
			<psa30 value="0.0119547819456" flag="0"/>
		</comp>
	</station>
	<station code="CTRL" name="CTRL" netid="IT" source="Italian Strong Motion Network (RAN)" insttype="" lat="42.597801" lon="13.1626">
		<comp name="00.HNE" depth="0.0">
			<acc value="0.0480839281381" flag="0"/>
			<vel value="0.0362258373492" flag="0"/>
			<psa03 value="0.153029220768" flag="0"/>
