<?xml version="1.0" encoding="UTF-8" standalone="yes"?>
<!DOCTYPE earthquake SYSTEM "stationlist.dtd">
<stationlist created="" xmlns="ch.ethz.sed.shakemap.usgs.xml">
  <station code="AOI" name="AOI" netid="IV" insttype="" lat="43.5502" lon="13.602">
    <comp name="--.HHE">
      <acc value="0.0118515045" flag="0"/>
      <vel value="0.0066640613" flag="0"/>
      <psa03 value="0.0336409640" flag="0"/>
      <psa10 value="0.0079588998" flag="0"/>
      <psa30 value="0.0018921889" flag="0"/>
    </comp>
    <comp name="--.HHZ">
      <acc value="0.0078028042" flag="0"/>
      <vel value="0.0051036661" flag="0"/>
      <psa03 value="0.0194493441" flag="0"/>
      <psa10 value="0.0089951250" flag="0"/>
      <psa30 value="0.0012188979" flag="0"/>
    </comp>
    <comp name="--.HHN">
      <acc value="0.0175842218" flag="0"/>
      <vel value="0.0093848656" flag="0"/>
      <psa03 value="0.0375030614" flag="0"/>
      <psa10 value="0.0130398309" flag="0"/>
      <psa30 value="0.0020845759" flag="0"/>
    </comp>
  </station>
  <station code="APEC" name="APEC" netid="IV" insttype="" lat="43.5585" lon="12.4199">
    <comp name="--.HHE">
      <acc value="0.2067833938" flag="0"/>
      <vel value="0.1424070832" flag="0"/>
      <psa03 value="0.5150597148" flag="0"/>
      <psa10 value="0.1611520982" flag="0"/>
      <psa30 value="0.0161661057" flag="0"/>
    </comp>
    <comp name="--.HHN">
      <acc value="0.1996759078" flag="0"/>
      <vel value="0.1605875574" flag="0"/>
      <psa03 value="0.5453688070" flag="0"/>
      <psa10 value="0.1739236230" flag="0"/>
      <psa30 value="0.0349423745" flag="0"/>
    </comp>
    <comp name="--.HHZ">
      <acc value="0.1785041227" flag="0"/>
      <vel value="0.1117126649" flag="0"/>
      <psa03 value="0.4415034742" flag="0"/>
      <psa10 value="0.1168670795" flag="0"/>
      <psa30 value="0.0280081524" flag="0"/>
    </comp>
  </station>
  <station code="ARCI" name="ARCI" netid="IV" insttype="" lat="42.8519" lon="11.4754">
    <comp name="--.HHN">
      <acc value="0.0195418237" flag="0"/>
      <vel value="0.0102981305" flag="0"/>
      <psa03 value="0.0367757086" flag="0"/>
      <psa10 value="0.0261485332" flag="0"/>
      <psa30 value="0.0022960323" flag="0"/>
    </comp>
    <comp name="--.HHE">
      <acc value="0.0137201881" flag="0"/>
      <vel value="0.0091574187" flag="0"/>
      <psa03 value="0.0450388903" flag="0"/>
      <psa10 value="0.0193022245" flag="0"/>
      <psa30 value="0.0024722666" flag="0"/>
    </comp>
    <comp name="--.HHZ">
      <acc value="0.0097395381" flag="0"/>
      <vel value="0.0050520577" flag="0"/>
      <psa03 value="0.0230879835" flag="0"/>
      <psa10 value="0.0078841753" flag="0"/>
      <psa30 value="0.0010973014" flag="0"/>
    </comp>
  </station>
  <station code="ARVD" name="ARVD" netid="IV" insttype="" lat="43.4981" lon="12.9415">
    <comp name="--.HHE">
      <acc value="0.1063875049" flag="0"/>
      <vel value="0.0395437577" flag="0"/>
      <psa03 value="0.1421082930" flag="0"/>
      <psa10 value="0.0418318818" flag="0"/>
      <psa30 value="0.0117719713" flag="0"/>
    </comp>
    <comp name="--.HHN">
      <acc value="0.0732607878" flag="0"/>
      <vel value="0.0261500178" flag="0"/>
      <psa03 value="0.1321327200" flag="0"/>
      <psa10 value="0.0268932138" flag="0"/>
      <psa30 value="0.0067719950" flag="0"/>
    </comp>
    <comp name="--.HHZ">
      <acc value="0.0924828783" flag="0"/>
      <vel value="0.0274004024" flag="0"/>
      <psa03 value="0.1761351282" flag="0"/>
      <psa10 value="0.0247125896" flag="0"/>
      <psa30 value="0.0137536793" flag="0"/>
    </comp>
  </station>
  <station code="ATBU" name="ATBU" netid="IV" insttype="" lat="43.4757" lon="12.5483">
    <comp name="--.HNE">
      <acc value="0.6465050479" flag="0"/>
      <vel value="0.3160545273" flag="0"/>
      <psa03 value="1.0743022612" flag="0"/>
      <psa10 value="0.4915301804" flag="0"/>
      <psa30 value="0.0270282227" flag="0"/>
    </comp>
    <comp name="--.HNN">
      <acc value="0.8308157326" flag="0"/>
      <vel value="0.3689540487" flag="0"/>
      <psa03 value="1.4407676163" flag="0"/>
      <psa10 value="0.5001582717" flag="0"/>
      <psa30 value="0.0492681664" flag="0"/>
    </comp>
    <comp name="--.HNZ">
      <acc value="0.5481698445" flag="0"/>
      <vel value="0.2087695682" flag="0"/>
      <psa03 value="0.6610356988" flag="0"/>
      <psa10 value="0.2276786971" flag="0"/>
      <psa30 value="0.0392917709" flag="0"/>
    </comp>
  </station>
  <station code="ATCC" name="ATCC" netid="IV" insttype="" lat="43.1851" lon="12.6399">
    <comp name="--.HNN">
      <acc value="1.2790595123" flag="0"/>
      <vel value="0.2783834120" flag="0"/>
      <psa03 value="1.4160083803" flag="0"/>
      <psa10 value="0.2654661439" flag="0"/>
      <psa30 value="0.0372197315" flag="0"/>
    </comp>
    <comp name="--.HNE">
      <acc value="1.2827879326" flag="0"/>
      <vel value="0.4373825242" flag="0"/>
      <psa03 value="1.7705813672" flag="0"/>
      <psa10 value="0.4470384150" flag="0"/>
      <psa30 value="0.0384674672" flag="0"/>
    </comp>
    <comp name="--.HNZ">
      <acc value="0.5277419249" flag="0"/>
      <vel value="0.2791674418" flag="0"/>
      <psa03 value="1.2127720029" flag="0"/>
      <psa10 value="0.2885924779" flag="0"/>
      <psa30 value="0.0231372913" flag="0"/>
    </comp>
  </station>
  <station code="ATFO" name="ATFO" netid="IV" insttype="" lat="43.3666" lon="12.5715">
    <comp name="--.HHE">
      <acc value="1.4381214374" flag="0"/>
      <vel value="0.4383740529" flag="0"/>
      <psa03 value="2.5194624807" flag="0"/>
      <psa10 value="0.3216396013" flag="0"/>
      <psa30 value="0.0483004778" flag="0"/>
    </comp>
    <comp name="--.HHN">
      <acc value="1.0320262809" flag="0"/>
      <vel value="0.4059771300" flag="0"/>
      <psa03 value="1.5541116992" flag="0"/>
      <psa10 value="0.2234048565" flag="0"/>
      <psa30 value="0.0407789495" flag="0"/>
    </comp>
    <comp name="--.HHZ">
      <acc value="0.6905582153" flag="0"/>
      <vel value="0.2730279642" flag="0"/>
      <psa03 value="1.1942767769" flag="0"/>
      <psa10 value="0.2410566328" flag="0"/>
      <psa30 value="0.0501471681" flag="0"/>
    </comp>
  </station>
  <station code="ATLO" name="ATLO" netid="IV" insttype="" lat="43.3152" lon="12.4073">
    <comp name="--.HNE">
      <acc value="8.9571570262" flag="0"/>
      <vel value="1.6704776031" flag="0"/>
      <psa03 value="10.5807994792" flag="0"/>
      <psa10 value="0.9672446508" flag="0"/>
      <psa30 value="0.0953255644" flag="0"/>
    </comp>
    <comp name="--.HNN">
      <acc value="6.5766579138" flag="0"/>
      <vel value="1.3933321069" flag="0"/>
      <psa03 value="4.4134724885" flag="0"/>
      <psa10 value="1.0044730796" flag="0"/>
      <psa30 value="0.1088211700" flag="0"/>
    </comp>
    <comp name="--.HNZ">
      <acc value="1.8895178288" flag="0"/>
      <vel value="0.3959537151" flag="0"/>
      <psa03 value="1.2951770406" flag="0"/>
      <psa10 value="0.1544590284" flag="0"/>
      <psa30 value="0.0351971825" flag="0"/>
    </comp>
  </station>
  <station code="ATPC" name="ATPC" netid="IV" insttype="" lat="43.4807" lon="12.457">
    <comp name="--.HHE">
      <acc value="0.9770616818" flag="0"/>
      <vel value="0.5337875020" flag="0"/>
      <psa03 value="1.8549448309" flag="0"/>
      <psa10 value="0.5969763927" flag="0"/>
      <psa30 value="0.0368664556" flag="0"/>
    </comp>
    <comp name="--.HHZ">
      <acc value="0.3373516459" flag="0"/>
      <vel value="0.1777325416" flag="0"/>
      <psa03 value="0.5871150370" flag="0"/>
      <psa10 value="0.2663430347" flag="0"/>
      <psa30 value="0.0539870901" flag="0"/>
    </comp>
    <comp name="--.HHN">
      <acc value="0.7307413363" flag="0"/>
      <vel value="0.2617252255" flag="0"/>
      <psa03 value="0.9743925907" flag="0"/>
      <psa10 value="0.2928209725" flag="0"/>
      <psa30 value="0.0397213101" flag="0"/>
    </comp>
  </station>
  <station code="ATPI" name="ATPI" netid="IV" insttype="" lat="43.4507" lon="12.4022">
    <comp name="--.HNE">
      <acc value="0.7660036393" flag="0"/>
      <vel value="0.3859144045" flag="0"/>
      <psa03 value="1.5035892896" flag="0"/>
      <psa10 value="0.5732350544" flag="0"/>
      <psa30 value="0.0302659290" flag="0"/>
    </comp>
    <comp name="--.HNN">
      <acc value="0.5338838844" flag="0"/>
      <vel value="0.2519993200" flag="0"/>
      <psa03 value="1.3384322731" flag="0"/>
      <psa10 value="0.2237704900" flag="0"/>
      <psa30 value="0.0335172836" flag="0"/>
    </comp>
    <comp name="--.HNZ">
      <acc value="0.3063598833" flag="0"/>
      <vel value="0.2499984760" flag="0"/>
      <psa03 value="1.1033828514" flag="0"/>
      <psa10 value="0.3458199183" flag="0"/>
      <psa30 value="0.0536357402" flag="0"/>
    </comp>
  </station>
  <station code="ATVO" name="ATVO" netid="IV" insttype="" lat="43.3821" lon="12.4066">
    <comp name="--.HNE">
      <acc value="1.2326093252" flag="0"/>
      <vel value="0.5161355892" flag="0"/>
      <psa03 value="1.8751047028" flag="0"/>
      <psa10 value="0.5942172257" flag="0"/>
      <psa30 value="0.0539454347" flag="0"/>
    </comp>
    <comp name="--.HNN">
      <acc value="0.7605001199" flag="0"/>
      <vel value="0.3812457970" flag="0"/>
      <psa03 value="1.8192510185" flag="0"/>
      <psa10 value="0.4473744919" flag="0"/>
      <psa30 value="0.0682864353" flag="0"/>
    </comp>
    <comp name="--.HNZ">
      <acc value="0.8491572672" flag="0"/>
      <vel value="0.3525219393" flag="0"/>
      <psa03 value="0.9685396471" flag="0"/>
      <psa10 value="0.4896392308" flag="0"/>
      <psa30 value="0.0501448966" flag="0"/>
    </comp>
  </station>
  <station code="BARO" name="BARO" netid="IV" insttype="" lat="42.248" lon="12.0512">
    <comp name="--.HNE">
      <acc value="0.0122142934" flag="0"/>
      <vel value="0.0147242468" flag="0"/>
      <psa03 value="0.0475181153" flag="0"/>
      <psa10 value="0.0242537322" flag="0"/>
      <psa30 value="0.0026952564" flag="0"/>
    </comp>
    <comp name="--.HNZ">
      <acc value="0.0096949305" flag="0"/>
      <vel value="0.0095901976" flag="0"/>
      <psa03 value="0.0299998162" flag="0"/>
      <psa10 value="0.0181070958" flag="0"/>
      <psa30 value="0.0015634201" flag="0"/>
    </comp>
    <comp name="--.HNN">
      <acc value="0.0170956864" flag="0"/>
      <vel value="0.0174419794" flag="0"/>
      <psa03 value="0.0423762768" flag="0"/>
      <psa10 value="0.0372995936" flag="0"/>
      <psa30 value="0.0028105067" flag="0"/>
    </comp>
  </station>
  <station code="BOSL" name="BOSL" netid="IV" insttype="" lat="43.931" lon="11.3743">
    <comp name="--.HHE">
      <acc value="0.0072706353" flag="0"/>
      <vel value="0.0058835899" flag="0"/>
      <psa03 value="0.0157076320" flag="0"/>
      <psa10 value="0.0123461373" flag="0"/>
      <psa30 value="0.0009992166" flag="0"/>
    </comp>
    <comp name="--.HHN">
      <acc value="0.0069325702" flag="0"/>
      <vel value="0.0036933519" flag="0"/>
      <psa03 value="0.0206526755" flag="0"/>
      <psa10 value="0.0068151443" flag="0"/>
      <psa30 value="0.0011251283" flag="0"/>
    </comp>
    <comp name="--.HHZ">
      <acc value="0.0047994131" flag="0"/>
      <vel value="0.0038198578" flag="0"/>
      <psa03 value="0.0125621133" flag="0"/>
      <psa10 value="0.0043995777" flag="0"/>
      <psa30 value="0.0009274993" flag="0"/>
    </comp>
  </station>
  <station code="BRIS" name="BRIS" netid="IV" insttype="" lat="44.2245" lon="11.7666">
    <comp name="--.HHE">
      <acc value="0.0054994130" flag="0"/>
      <vel value="0.0054810836" flag="0"/>
      <psa03 value="0.0181906772" flag="0"/>
      <psa10 value="0.0094272416" flag="0"/>
      <psa30 value="0.0020095440" flag="0"/>
    </comp>
    <comp name="--.HHN">
      <acc value="0.0058273736" flag="0"/>
      <vel value="0.0048116777" flag="0"/>
      <psa03 value="0.0164180858" flag="0"/>
      <psa10 value="0.0055419907" flag="0"/>
      <psa30 value="0.0020241458" flag="0"/>
    </comp>
    <comp name="--.HHZ">
      <acc value="0.0037689588" flag="0"/>
      <vel value="0.0046259277" flag="0"/>
      <psa03 value="0.0104598905" flag="0"/>
      <psa10 value="0.0081889344" flag="0"/>
      <psa30 value="0.0014063143" flag="0"/>
    </comp>
  </station>
  <station code="CAFI" name="CAFI" netid="IV" insttype="" lat="43.3292" lon="11.9663">
    <comp name="--.HHE">
      <acc value="0.4452089477" flag="0"/>
      <vel value="0.1331885763" flag="0"/>
      <psa03 value="0.6369634415" flag="0"/>
      <psa10 value="0.0614930355" flag="0"/>
      <psa30 value="0.0198508797" flag="0"/>
    </comp>
    <comp name="--.HHN">
      <acc value="0.3381937515" flag="0"/>
      <vel value="0.1238830889" flag="0"/>
      <psa03 value="0.6090871151" flag="0"/>
      <psa10 value="0.1071688445" flag="0"/>
      <psa30 value="0.0106826254" flag="0"/>
    </comp>
    <comp name="--.HHZ">
      <acc value="0.3572102652" flag="0"/>
      <vel value="0.2035985974" flag="0"/>
      <psa03 value="0.7187432377" flag="0"/>
      <psa10 value="0.1500472833" flag="0"/>
      <psa30 value="0.0204169674" flag="0"/>
    </comp>
  </station>
  <station code="CAMP" name="CAMP" netid="IV" insttype="" lat="42.5358" lon="13.409">
    <comp name="--.HHE">
      <acc value="0.0079146948" flag="0"/>
      <vel value="0.0106967924" flag="0"/>
      <psa03 value="0.0260792419" flag="0"/>
      <psa10 value="0.0208503390" flag="0"/>
      <psa30 value="0.0052857484" flag="0"/>
    </comp>
    <comp name="--.HHN">
      <acc value="0.0093197014" flag="0"/>
      <vel value="0.0071156114" flag="0"/>
      <psa03 value="0.0191954630" flag="0"/>
      <psa10 value="0.0117643278" flag="0"/>
      <psa30 value="0.0026260296" flag="0"/>
    </comp>
    <comp name="--.HHZ">
      <acc value="0.0055105385" flag="0"/>
      <vel value="0.0062669348" flag="0"/>
      <psa03 value="0.0239120871" flag="0"/>
      <psa10 value="0.0102930266" flag="0"/>
      <psa30 value="0.0034380299" flag="0"/>
    </comp>
  </station>
  <station code="CASP" name="CASP" netid="IV" insttype="" lat="42.7908" lon="10.8652">
    <comp name="--.HHN">
      <acc value="0.0033563088" flag="0"/>
      <vel value="0.0021268263" flag="0"/>
      <psa03 value="0.0129772072" flag="0"/>
      <psa10 value="0.0024665819" flag="0"/>
      <psa30 value="0.0002687693" flag="0"/>
    </comp>
    <comp name="--.HHZ">
      <acc value="0.0038269909" flag="0"/>
      <vel value="0.0029198697" flag="0"/>
      <psa03 value="0.0134743486" flag="0"/>
      <psa10 value="0.0042090210" flag="0"/>
      <psa30 value="0.0003842449" flag="0"/>
    </comp>
  </station>
  <station code="CDCA" name="CDCA" netid="IV" insttype="" lat="43.4584" lon="12.2336">
    <comp name="--.HNE">
      <acc value="1.2212411949" flag="0"/>
      <vel value="0.3058884227" flag="0"/>
      <psa03 value="0.9190037770" flag="0"/>
      <psa10 value="0.4190753908" flag="0"/>
      <psa30 value="0.0447189436" flag="0"/>
    </comp>
    <comp name="--.HNN">
      <acc value="1.5647915308" flag="0"/>
      <vel value="0.5825209534" flag="0"/>
      <psa03 value="2.4324437577" flag="0"/>
      <psa10 value="0.7427996669" flag="0"/>
      <psa30 value="0.1103973212" flag="0"/>
    </comp>
    <comp name="--.HNZ">
      <acc value="0.7461581696" flag="0"/>
      <vel value="0.3539816352" flag="0"/>
      <psa03 value="1.5855114028" flag="0"/>
      <psa10 value="0.2986588705" flag="0"/>
      <psa30 value="0.0232788934" flag="0"/>
    </comp>
  </station>
  <station code="CESI" name="CESI" netid="IV" insttype="" lat="43.0049" lon="12.9046">
    <comp name="--.HHN">
      <acc value="0.1107990810" flag="0"/>
      <vel value="0.0436728566" flag="0"/>
      <psa03 value="0.2991318531" flag="0"/>
      <psa10 value="0.0318056758" flag="0"/>
      <psa30 value="0.0045500624" flag="0"/>
    </comp>
    <comp name="--.HHE">
      <acc value="0.1211309886" flag="0"/>
      <vel value="0.0391782193" flag="0"/>
      <psa03 value="0.3620130872" flag="0"/>
      <psa10 value="0.0438067517" flag="0"/>
      <psa30 value="0.0090569273" flag="0"/>
    </comp>
    <comp name="--.HHZ">
      <acc value="0.0786901992" flag="0"/>
      <vel value="0.0346516254" flag="0"/>
      <psa03 value="0.1825101041" flag="0"/>
      <psa10 value="0.0329716104" flag="0"/>
      <psa30 value="0.0047983953" flag="0"/>
    </comp>
  </station>
  <station code="CESX" name="CESX" netid="IV" insttype="" lat="42.6085" lon="12.5868">
    <comp name="--.HHE">
      <acc value="0.0549136937" flag="0"/>
      <vel value="0.0345076262" flag="0"/>
      <psa03 value="0.1988148861" flag="0"/>
      <psa10 value="0.0615097386" flag="0"/>
      <psa30 value="0.0039056307" flag="0"/>
    </comp>
    <comp name="--.HHN">
      <acc value="0.0641012295" flag="0"/>
      <vel value="0.0386081906" flag="0"/>
      <psa03 value="0.1765709153" flag="0"/>
      <psa10 value="0.0785151186" flag="0"/>
      <psa30 value="0.0038123760" flag="0"/>
    </comp>
    <comp name="--.HHZ">
      <acc value="0.0220934617" flag="0"/>
      <vel value="0.0115627220" flag="0"/>
      <psa03 value="0.0800782284" flag="0"/>
      <psa10 value="0.0213426722" flag="0"/>
      <psa30 value="0.0020742540" flag="0"/>
    </comp>
  </station>
  <station code="CING" name="CING" netid="IV" insttype="" lat="43.3756" lon="13.1954">
    <comp name="--.HHE">
      <acc value="0.0717902990" flag="0"/>
      <vel value="0.0188200125" flag="0"/>
      <psa03 value="0.0746030534" flag="0"/>
      <psa10 value="0.0166195013" flag="0"/>
      <psa30 value="0.0100903187" flag="0"/>
    </comp>
    <comp name="--.HHN">
      <acc value="0.0850326719" flag="0"/>
      <vel value="0.0361241488" flag="0"/>
      <psa03 value="0.1243494629" flag="0"/>
      <psa10 value="0.0229340545" flag="0"/>
      <psa30 value="0.0033591849" flag="0"/>
    </comp>
    <comp name="--.HHZ">
      <acc value="0.0440286244" flag="0"/>
      <vel value="0.0173623365" flag="0"/>
      <psa03 value="0.1084419254" flag="0"/>
      <psa10 value="0.0154023277" flag="0"/>
      <psa30 value="0.0085718074" flag="0"/>
    </comp>
  </station>
  <station code="COR1" name="COR1" netid="IV" insttype="" lat="43.6318" lon="13.0003">
    <comp name="--.HNE">
      <acc value="0.1169041591" flag="0"/>
      <vel value="0.0683705850" flag="0"/>
      <psa03 value="0.4036817750" flag="0"/>
      <psa10 value="0.0926712337" flag="0"/>
      <psa30 value="0.0239668312" flag="0"/>
    </comp>
    <comp name="--.HNN">
      <acc value="0.0812863357" flag="0"/>
      <vel value="0.0510425640" flag="0"/>
      <psa03 value="0.3086618792" flag="0"/>
      <psa10 value="0.0996821644" flag="0"/>
      <psa30 value="0.0176423438" flag="0"/>
    </comp>
    <comp name="--.HNZ">
      <acc value="0.1455893613" flag="0"/>
      <vel value="0.0588305296" flag="0"/>
      <psa03 value="0.4115022106" flag="0"/>
      <psa10 value="0.0457674357" flag="0"/>
      <psa30 value="0.0330500596" flag="0"/>
    </comp>
  </station>
  <station code="CRMI" name="CRMI" netid="IV" insttype="" lat="43.7956" lon="10.9795">
    <comp name="--.HHZ">
      <acc value="0.0045502938" flag="0"/>
      <vel value="0.0042550428" flag="0"/>
      <psa03 value="0.0142969587" flag="0"/>
      <psa10 value="0.0061177825" flag="0"/>
      <psa30 value="0.0029141479" flag="0"/>
    </comp>
    <comp name="--.HHN">
      <acc value="0.0057424028" flag="0"/>
      <vel value="0.0083313318" flag="0"/>
      <psa03 value="0.0167878901" flag="0"/>
      <psa10 value="0.0171263083" flag="0"/>
      <psa30 value="0.0023614725" flag="0"/>
    </comp>
    <comp name="--.HHE">
      <acc value="0.0049190686" flag="0"/>
      <vel value="0.0050906628" flag="0"/>
      <psa03 value="0.0117774868" flag="0"/>
      <psa10 value="0.0068244799" flag="0"/>
      <psa30 value="0.0019535508" flag="0"/>
    </comp>
