<?xml version="1.0" encoding="UTF-8" standalone="yes"?>
<!DOCTYPE earthquake SYSTEM "stationlist.dtd">
<stationlist created="" xmlns="ch.ethz.sed.shakemap.usgs.xml">
  <station code="ORLT" name="ORLT" netid="KO" insttype="CMG-5T" commtype="DIG" lat="40.0452" lon="28.8914">
    <comp name="--.HNZ">
      <acc value="0.0378755406" flag="0"/>
      <vel value="0.0195393717" flag="0"/>
      <psa03 value="0.1064180664" flag="0"/>
      <psa10 value="0.0170870935" flag="0"/>
      <psa30 value="0.0010436778" flag="0"/>
    </comp>
    <comp name="--.HNE">
      <acc value="0.1123041549" flag="0"/>
      <vel value="0.0423414992" flag="0"/>
      <psa03 value="0.2649687430" flag="0"/>
      <psa10 value="0.0202699863" flag="0"/>
      <psa30 value="0.0012818707" flag="0"/>
    </comp>
    <comp name="--.HNN">
      <acc value="0.0985785468" flag="0"/>
      <vel value="0.0441877765" flag="0"/>
      <psa03 value="0.4011724328" flag="0"/>
      <psa10 value="0.0334637209" flag="0"/>
      <psa30 value="0.0020567909" flag="0"/>
    </comp>
  </station>
</stationlist>
