<stationlist created="1641587240">
	<station code="ASTA" name="ASTA" netid="HL" source="National Observatory of Athens Seismic Network" insttype="" lat="36.54543" lon="26.3528">
		<comp name="00.HNE" depth="0.0">
			<acc value="0.00383724" flag="0"/>
			<vel value="0.006115" flag="0"/>
			<psa03 value="0.00818782381114" flag="0"/>
			<psa10 value="0.00209393526974" flag="0"/>
			<psa30 value="0.00172212753274" flag="0"/>
		</comp>
		<comp name="00.HNN" depth="0.0">
			<acc value="0.003319692" flag="0"/>
			<vel value="0.008764" flag="0"/>
			<psa03 value="0.00823256601776" flag="0"/>
			<psa10 value="0.00280265182257" flag="0"/>
			<psa30 value="0.00233509576341" flag="0"/>
		</comp>
		<comp name="00.HNZ" depth="0.0">
			<acc value="0.004770132" flag="0"/>
			<vel value="0.005891" flag="0"/>
			<psa03 value="0.00850101925747" flag="0"/>
			<psa10 value="0.00347110038945" flag="0"/>
			<psa30 value="0.00102638621982" flag="0"/>
		</comp>
	</station>
	<station code="PRK" name="PRK" netid="HL" source="National Observatory of Athens Seismic Network" insttype="" lat="39.24565" lon="26.26499">
		<comp name=".HNE" depth="0.0">
			<acc value="0.01377459" flag="0"/>
			<vel value="0.013992" flag="0"/>
			<psa03 value="0.0378519067991" flag="0"/>
			<psa10 value="0.0139770179255" flag="0"/>
			<psa30 value="0.00202682195981" flag="0"/>
		</comp>
		<comp name=".HNN" depth="0.0">
			<acc value="0.015080904" flag="0"/>
			<vel value="0.013457" flag="0"/>
			<psa03 value="0.0580753841905" flag="0"/>
			<psa10 value="0.00918110079807" flag="0"/>
			<psa30 value="0.00253822538145" flag="0"/>
		</comp>
		<comp name=".HNZ" depth="0.0">
			<acc value="0.01074009" flag="0"/>
			<vel value="0.011552" flag="0"/>
			<psa03 value="0.0276506836901" flag="0"/>
			<psa10 value="0.00571805400582" flag="0"/>
			<psa30 value="0.0020044508565" flag="0"/>
		</comp>
	</station>
	<station code="RODB" name="RODB" netid="HL" source="National Observatory of Athens Seismic Network" insttype="" lat="36.4471" lon="28.22116">
		<comp name="00.HNE" depth="0.0">
			<acc value="0.009257418" flag="0"/>
			<vel value="0.028277" flag="0"/>
			<psa03 value="0.0073377218854" flag="0"/>
			<psa10 value="0.00809789197584" flag="0"/>
			<psa30 value="0.00859408304724" flag="0"/>
		</comp>
		<comp name="00.HNN" depth="0.0">
			<acc value="0.006568086" flag="0"/>
			<vel value="0.021144" flag="0"/>
			<psa03 value="0.00854576146409" flag="0"/>
			<psa10 value="0.0085972150017" flag="0"/>
			<psa30 value="0.00717217572091" flag="0"/>
		</comp>
		<comp name="00.HNZ" depth="0.0">
			<acc value="0.018611838" flag="0"/>
			<vel value="0.008612" flag="0"/>
			<psa03 value="0.00599545568685" flag="0"/>
			<psa10 value="0.0034227788063" flag="0"/>
			<psa30 value="0.00263710565808" flag="0"/>
		</comp>
	</station>
	<station code="THRA" name="THRA" netid="HL" source="National Observatory of Athens Seismic Network" insttype="" lat="36.41502" lon="25.43244">
		<comp name="00.HNE" depth="0.0">
			<acc value="0.01862367" flag="0"/>
			<vel value="0.017502" flag="0"/>
			<psa03 value="0.0229974942018" flag="0"/>
			<psa10 value="0.00769118531768" flag="0"/>
			<psa30 value="0.00555563979579" flag="0"/>
		</comp>
		<comp name="00.HNN" depth="0.0">
			<acc value="0.012416256" flag="0"/>
			<vel value="0.016699" flag="0"/>
			<psa03 value="0.0191944066392" flag="0"/>
			<psa10 value="0.00943881590819" flag="0"/>
			<psa30 value="0.00549792234925" flag="0"/>
		</comp>
		<comp name="00.HNZ" depth="0.0">
			<acc value="0.0254235" flag="0"/>
			<vel value="0.010745" flag="0"/>
			<psa03 value="0.0165546164488" flag="0"/>
			<psa10 value="0.00271003545487" flag="0"/>
			<psa30 value="0.00228677418026" flag="0"/>
		</comp>
	</station>
	<station code="TNSA" name="TNSA" netid="HL" source="National Observatory of Athens Seismic Network" insttype="" lat="37.53942" lon="25.1631">
		<comp name="00.HNE" depth="0.0">
			<acc value="0.005360814" flag="0"/>
			<vel value="0.006194" flag="0"/>
			<psa03 value="0.00809833939791" flag="0"/>
			<psa10 value="0.00126441475903" flag="0"/>
			<psa30 value="0.00131005180978" flag="0"/>
		</comp>
		<comp name="00.HNN" depth="0.0">
			<acc value="0.006798402" flag="0"/>
			<vel value="0.007056" flag="0"/>
			<psa03 value="0.0102459653156" flag="0"/>
			<psa10 value="0.00126038796044" flag="0"/>
			<psa30 value="0.00123935912333" flag="0"/>
		</comp>
		<comp name="00.HNZ" depth="0.0">
			<acc value="0.00683808" flag="0"/>
			<vel value="0.0072" flag="0"/>
			<psa03 value="0.0046531894883" flag="0"/>
			<psa10 value="0.00118387878712" flag="0"/>
			<psa30 value="0.00177447591448" flag="0"/>
		</comp>
	</station>
	<station code="CESE" name="CESE" netid="KO" source="Bogazici University Kandilli Observatory And Earthquake Research Institute (KOERI)" insttype="" lat="38.3306" lon="26.2997">
		<comp name=".HNE" depth="0.0">
			<acc value="0.017212398" flag="0"/>
			<vel value="0.010633" flag="0"/>
			<psa03 value="0.0217894546231" flag="0"/>
			<psa10 value="0.00732877344407" flag="0"/>
			<psa30 value="0.00155658136825" flag="0"/>
		</comp>
		<comp name=".HNN" depth="0.0">
			<acc value="0.028259202" flag="0"/>
			<vel value="0.016908" flag="0"/>
			<psa03 value="0.059193939356" flag="0"/>
			<psa10 value="0.00775561409521" flag="0"/>
			<psa30 value="0.00223353095438" flag="0"/>
		</comp>
		<comp name=".HNZ" depth="0.0">
			<acc value="0.02335749" flag="0"/>
			<vel value="0.01377" flag="0"/>
			<psa03 value="0.0352121166086" flag="0"/>
			<psa10 value="0.00820661553792" flag="0"/>
			<psa30 value="0.00199058077245" flag="0"/>
		</comp>
	</station>
	<station code="EZNE" name="EZNE" netid="KO" source="Bogazici University Kandilli Observatory And Earthquake Research Institute (KOERI)" insttype="" lat="39.756" lon="26.3655">
		<comp name=".HNE" depth="0.0">
			<acc value="0.019641936" flag="0"/>
			<vel value="0.043838" flag="0"/>
			<psa03 value="0.0522141551235" flag="0"/>
			<psa10 value="0.0166669193874" flag="0"/>
			<psa30 value="0.00870683340792" flag="0"/>
		</comp>
		<comp name=".HNN" depth="0.0">
			<acc value="0.020514444" flag="0"/>
			<vel value="0.024689" flag="0"/>
			<psa03 value="0.0621469249928" flag="0"/>
			<psa10 value="0.0182051564509" flag="0"/>
			<psa30 value="0.00620798116829" flag="0"/>
		</comp>
		<comp name=".HNZ" depth="0.0">
			<acc value="0.0112404" flag="0"/>
			<vel value="0.037217" flag="0"/>
			<psa03 value="0.0386572665182" flag="0"/>
			<psa10 value="0.00801735600393" flag="0"/>
			<psa30 value="0.00592744753279" flag="0"/>
		</comp>
	</station>
	<station code="GOMA" name="GOMA" netid="KO" source="Bogazici University Kandilli Observatory And Earthquake Research Institute (KOERI)" insttype="" lat="38.7077" lon="27.9175">
		<comp name=".HNE" depth="0.0">
			<acc value="0.048105852" flag="0"/>
			<vel value="0.028178" flag="0"/>
			<psa03 value="0.178387177787" flag="0"/>
			<psa10 value="0.00847641104383" flag="0"/>
			<psa30 value="0.00142414443666" flag="0"/>
		</comp>
		<comp name=".HNN" depth="0.0">
			<acc value="0.043051854" flag="0"/>
			<vel value="0.021549" flag="0"/>
			<psa03 value="0.148946805832" flag="0"/>
			<psa10 value="0.0105783999108" flag="0"/>
			<psa30 value="0.00139685169062" flag="0"/>
		</comp>
		<comp name=".HNZ" depth="0.0">
			<acc value="0.029971884" flag="0"/>
			<vel value="0.012729" flag="0"/>
			<psa03 value="0.0673370209605" flag="0"/>
			<psa10 value="0.00729253225671" flag="0"/>
			<psa30 value="0.0011100541462" flag="0"/>
		</comp>
	</station>
	<station code="GORD" name="GORD" netid="KO" source="Bogazici University Kandilli Observatory And Earthquake Research Institute (KOERI)" insttype="" lat="38.9088" lon="28.1769">
		<comp name=".HNE" depth="0.0">
			<acc value="0.057800136" flag="0"/>
			<vel value="0.062834" flag="0"/>
			<psa03 value="0.187201392491" flag="0"/>
			<psa10 value="0.061026132717" flag="0"/>
			<psa30 value="0.00961286309194" flag="0"/>
		</comp>
		<comp name=".HNN" depth="0.0">
			<acc value="0.04961229" flag="0"/>
			<vel value="0.063183" flag="0"/>
			<psa03 value="0.183845726994" flag="0"/>
			<psa10 value="0.0368895019347" flag="0"/>
			<psa30 value="0.00828357213331" flag="0"/>
		</comp>
		<comp name=".HNZ" depth="0.0">
			<acc value="0.046334316" flag="0"/>
			<vel value="0.048763" flag="0"/>
			<psa03 value="0.133600228962" flag="0"/>
			<psa10 value="0.0336358486694" flag="0"/>
			<psa30 value="0.0059775588042" flag="0"/>
		</comp>
	</station>
	<station code="NAZL" name="NAZL" netid="KO" source="Bogazici University Kandilli Observatory And Earthquake Research Institute (KOERI)" insttype="" lat="37.9641" lon="28.2922">
		<comp name=".HNE" depth="0.0">
			<acc value="0.14363589" flag="0"/>
			<vel value="0.065674" flag="0"/>
			<psa03 value="0.633370676888" flag="0"/>
			<psa10 value="0.0392814203005" flag="0"/>
			<psa30 value="0.0057672704331" flag="0"/>
		</comp>
		<comp name=".HNN" depth="0.0">
			<acc value="0.12132543" flag="0"/>
			<vel value="0.06345" flag="0"/>
			<psa03 value="0.365633312485" flag="0"/>
			<psa10 value="0.0495175423306" flag="0"/>
			<psa30 value="0.00754622056824" flag="0"/>
		</comp>
		<comp name=".HNZ" depth="0.0">
			<acc value="0.053180556" flag="0"/>
			<vel value="0.050204" flag="0"/>
			<psa03 value="0.14764928184" flag="0"/>
			<psa10 value="0.0167877233452" flag="0"/>
			<psa30 value="0.006348024275" flag="0"/>
		</comp>
	</station>
	<station code="SOMA" name="SOMA" netid="KO" source="Bogazici University Kandilli Observatory And Earthquake Research Institute (KOERI)" insttype="" lat="39.1564" lon="27.5341">
		<comp name=".HNE" depth="0.0">
			<acc value="0.109036878" flag="0"/>
			<vel value="0.08313" flag="0"/>
			<psa03 value="0.324067802536" flag="0"/>
			<psa10 value="0.0412505248138" flag="0"/>
			<psa30 value="0.00740707230565" flag="0"/>
		</comp>
		<comp name=".HNN" depth="0.0">
			<acc value="0.114461238" flag="0"/>
			<vel value="0.068418" flag="0"/>
			<psa03 value="0.223218868819" flag="0"/>
			<psa10 value="0.0359270970703" flag="0"/>
			<psa30 value="0.00830236386009" flag="0"/>
		</comp>
		<comp name=".HNZ" depth="0.0">
			<acc value="0.081953532" flag="0"/>
			<vel value="0.041542" flag="0"/>
			<psa03 value="0.205948377064" flag="0"/>
			<psa10 value="0.0213541129527" flag="0"/>
			<psa30 value="0.0051426692287" flag="0"/>
		</comp>
	</station>
	<station code="YKAV" name="YKAV" netid="KO" source="Bogazici University Kandilli Observatory And Earthquake Research Institute (KOERI)" insttype="" lat="37.1246" lon="27.2801">
		<comp name=".HNE" depth="0.0">
			<acc value="0.022092486" flag="0"/>
			<vel value="0.010405" flag="0"/>
			<psa03 value="0.0425945807006" flag="0"/>
			<psa10 value="0.0152494862817" flag="0"/>
			<psa30 value="0.00172883886373" flag="0"/>
		</comp>
		<comp name=".HNN" depth="0.0">
			<acc value="0.015502062" flag="0"/>
			<vel value="0.014191" flag="0"/>
			<psa03 value="0.0364201561873" flag="0"/>
			<psa10 value="0.0162843735208" flag="0"/>
			<psa30 value="0.0016062452176" flag="0"/>
		</comp>
		<comp name=".HNZ" depth="0.0">
			<acc value="0.015119664" flag="0"/>
			<vel value="0.009164" flag="0"/>
			<psa03 value="0.023086978615" flag="0"/>
			<psa10 value="0.00676099484209" flag="0"/>
			<psa30 value="0.00145322687096" flag="0"/>
		</comp>
	</station>
</stationlist>
