<?xml version="1.0" encoding="UTF-8" standalone="yes"?>
<!DOCTYPE earthquake SYSTEM "stationlist.dtd">
<stationlist created="" xmlns="ch.ethz.sed.shakemap.usgs.xml">
  <station code="AGRP" name="AGRP" netid="CL" insttype="CMG40-T" lat="38.3959" lon="21.7228">
    <comp name="00.HHZ">
      <acc value="0.0041284026" flag="0"/>
      <vel value="0.0025302666" flag="0"/>
      <psa03 value="0.0074299619" flag="0"/>
      <psa10 value="0.0037761319" flag="0"/>
      <psa30 value="0.0006006767" flag="0"/>
    </comp>
    <comp name="00.HHN">
      <acc value="0.0086689714" flag="0"/>
      <vel value="0.0065661684" flag="0"/>
      <psa03 value="0.0144202382" flag="0"/>
      <psa10 value="0.0083402137" flag="0"/>
      <psa30 value="0.0006730718" flag="0"/>
    </comp>
    <comp name="00.HHE">
      <acc value="0.0074395208" flag="0"/>
      <vel value="0.0040136499" flag="0"/>
      <psa03 value="0.0172007477" flag="0"/>
      <psa10 value="0.0039046648" flag="0"/>
      <psa30 value="0.0007824026" flag="0"/>
    </comp>
  </station>
  <station code="PSAM" name="PSAM" netid="CL" insttype="CMG40-T" lat="38.3218" lon="22.1842">
    <comp name="00.HHE">
      <acc value="0.0186015198" flag="0"/>
      <vel value="0.0100636808" flag="0"/>
      <psa03 value="0.0301468771" flag="0"/>
      <psa10 value="0.0216911221" flag="0"/>
      <psa30 value="0.0023734848" flag="0"/>
    </comp>
    <comp name="00.HHN">
      <acc value="0.0133381821" flag="0"/>
      <vel value="0.0125804248" flag="0"/>
      <psa03 value="0.0247931161" flag="0"/>
      <psa10 value="0.0307380350" flag="0"/>
      <psa30 value="0.0049936254" flag="0"/>
    </comp>
    <comp name="00.HHZ">
      <acc value="0.0142577407" flag="0"/>
      <vel value="0.0055693708" flag="0"/>
      <psa03 value="0.0177338621" flag="0"/>
      <psa10 value="0.0074670891" flag="0"/>
      <psa30 value="0.0026634560" flag="0"/>
    </comp>
  </station>
  <station code="ROD3" name="ROD3" netid="CL" insttype="CMG40-T" lat="38.3081" lon="21.892">
    <comp name="00.HHE">
      <acc value="0.0242840338" flag="0"/>
      <vel value="0.0086078086" flag="0"/>
      <psa03 value="0.0554971376" flag="0"/>
      <psa10 value="0.0092988715" flag="0"/>
      <psa30 value="0.0011843865" flag="0"/>
    </comp>
    <comp name="00.HHN">
      <acc value="0.0175833842" flag="0"/>
      <vel value="0.0088778045" flag="0"/>
      <psa03 value="0.0660422490" flag="0"/>
      <psa10 value="0.0102979056" flag="0"/>
      <psa30 value="0.0011325004" flag="0"/>
    </comp>
    <comp name="00.HHZ">
      <acc value="0.0134423150" flag="0"/>
      <vel value="0.0046479807" flag="0"/>
      <psa03 value="0.0213078980" flag="0"/>
      <psa10 value="0.0063828336" flag="0"/>
      <psa30 value="0.0010798464" flag="0"/>
    </comp>
  </station>
  <station code="TRIZ" name="TRIZ" netid="CL" insttype="STS-2" lat="38.3654" lon="22.0727">
    <comp name="00.HH2">
      <acc value="0.0110464715" flag="0"/>
      <vel value="0.0059640941" flag="0"/>
      <psa03 value="0.0262634259" flag="0"/>
      <psa10 value="0.0082147395" flag="0"/>
      <psa30 value="0.0023036204" flag="0"/>
    </comp>
    <comp name="00.HHZ">
      <acc value="0.0147792251" flag="0"/>
      <vel value="0.0057198867" flag="0"/>
      <psa03 value="0.0181475700" flag="0"/>
      <psa10 value="0.0087297611" flag="0"/>
      <psa30 value="0.0014924530" flag="0"/>
    </comp>
    <comp name="00.HH3">
      <acc value="0.0180706081" flag="0"/>
      <vel value="0.0094584698" flag="0"/>
      <psa03 value="0.0693661105" flag="0"/>
      <psa10 value="0.0123819617" flag="0"/>
      <psa30 value="0.0022691481" flag="0"/>
    </comp>
  </station>
  <station code="ZIRI" name="ZIRI" netid="CL" insttype="TRILLIUM-40" lat="38.3051" lon="21.9476">
    <comp name="01.HHZ">
      <acc value="0.0161310484" flag="0"/>
      <vel value="0.0052991841" flag="0"/>
      <psa03 value="0.0484291619" flag="0"/>
      <psa10 value="0.0047131827" flag="0"/>
      <psa30 value="0.0009771312" flag="0"/>
    </comp>
    <comp name="01.HHN">
      <acc value="0.0286643917" flag="0"/>
      <vel value="0.0113353763" flag="0"/>
      <psa03 value="0.0785169147" flag="0"/>
      <psa10 value="0.0107936368" flag="0"/>
      <psa30 value="0.0010182688" flag="0"/>
    </comp>
    <comp name="01.HHE">
      <acc value="0.0245107701" flag="0"/>
      <vel value="0.0143642968" flag="0"/>
      <psa03 value="0.0506928745" flag="0"/>
      <psa10 value="0.0143860848" flag="0"/>
      <psa30 value="0.0017007713" flag="0"/>
    </comp>
  </station>
  <station code="ACOR" name="ACOR" netid="HA" insttype="Horizon,120s,1200" lat="37.8905" lon="22.8694">
    <comp name="--.HHE">
      <acc value="0.0231692307" flag="0"/>
      <vel value="0.0098608836" flag="0"/>
      <psa03 value="0.0563582669" flag="0"/>
      <psa10 value="0.0198438593" flag="0"/>
      <psa30 value="0.0031445213" flag="0"/>
    </comp>
    <comp name="--.HHZ">
      <acc value="0.0199187909" flag="0"/>
      <vel value="0.0135489110" flag="0"/>
      <psa03 value="0.0639023185" flag="0"/>
      <psa10 value="0.0138309342" flag="0"/>
      <psa30 value="0.0055815696" flag="0"/>
    </comp>
    <comp name="--.HHN">
      <acc value="0.0210084559" flag="0"/>
      <vel value="0.0171996506" flag="0"/>
      <psa03 value="0.0797301852" flag="0"/>
      <psa10 value="0.0228573954" flag="0"/>
      <psa30 value="0.0078078226" flag="0"/>
    </comp>
  </station>
  <station code="AMPE" name="AMPE" netid="HA" insttype="1s-100Hz," lat="38.3015" lon="23.2688">
    <comp name="--.HHE">
      <acc value="0.0522903473" flag="0"/>
      <vel value="0.0287216316" flag="0"/>
      <psa03 value="0.1128647003" flag="0"/>
      <psa10 value="0.0439224223" flag="0"/>
      <psa30 value="0.0026504623" flag="0"/>
    </comp>
    <comp name="--.HHN">
      <acc value="0.0425012578" flag="0"/>
      <vel value="0.0274787579" flag="0"/>
      <psa03 value="0.0855158635" flag="0"/>
      <psa10 value="0.0636669448" flag="0"/>
      <psa30 value="0.0030861286" flag="0"/>
    </comp>
    <comp name="--.HHZ">
      <acc value="0.0249174516" flag="0"/>
      <vel value="0.0160234638" flag="0"/>
      <psa03 value="0.0495905367" flag="0"/>
      <psa10 value="0.0259319534" flag="0"/>
      <psa30 value="0.0015317551" flag="0"/>
    </comp>
  </station>
  <station code="ATAL" name="ATAL" netid="HA" insttype="120s," lat="38.6926" lon="23.0213">
    <comp name="--.HHZ">
      <acc value="0.0110624292" flag="0"/>
      <vel value="0.0068629110" flag="0"/>
      <psa03 value="0.0230311329" flag="0"/>
      <psa10 value="0.0120589094" flag="0"/>
      <psa30 value="0.0011110053" flag="0"/>
    </comp>
    <comp name="--.HHN">
      <acc value="0.0217927589" flag="0"/>
      <vel value="0.0107878210" flag="0"/>
      <psa03 value="0.0497622684" flag="0"/>
      <psa10 value="0.0146711975" flag="0"/>
      <psa30 value="0.0019121385" flag="0"/>
    </comp>
    <comp name="--.HHE">
      <acc value="0.0170600519" flag="0"/>
      <vel value="0.0088634049" flag="0"/>
      <psa03 value="0.0319201212" flag="0"/>
      <psa10 value="0.0112599882" flag="0"/>
      <psa30 value="0.0008444717" flag="0"/>
    </comp>
  </station>
  <station code="ATHU" name="ATHU" netid="HA" insttype="60s," lat="37.9665" lon="23.7845">
    <comp name="--.HHE">
      <acc value="0.0100112562" flag="0"/>
      <vel value="0.0062329217" flag="0"/>
      <psa03 value="0.0215282120" flag="0"/>
      <psa10 value="0.0042493084" flag="0"/>
      <psa30 value="0.0008934320" flag="0"/>
    </comp>
    <comp name="--.HHZ">
      <acc value="0.0060766745" flag="0"/>
      <vel value="0.0029322704" flag="0"/>
      <psa03 value="0.0134351724" flag="0"/>
      <psa10 value="0.0035339116" flag="0"/>
      <psa30 value="0.0007896520" flag="0"/>
    </comp>
    <comp name="--.HHN">
      <acc value="0.0143668058" flag="0"/>
      <vel value="0.0075038306" flag="0"/>
      <psa03 value="0.0337948169" flag="0"/>
      <psa10 value="0.0057224893" flag="0"/>
      <psa30 value="0.0007473294" flag="0"/>
    </comp>
  </station>
  <station code="AXAR" name="AXAR" netid="HA" insttype="Horizon,120s,1200" lat="38.7664" lon="22.659">
    <comp name="--.HHN">
      <acc value="0.0681658455" flag="0"/>
      <vel value="0.0362865097" flag="0"/>
      <psa03 value="0.1699159488" flag="0"/>
      <psa10 value="0.0302849388" flag="0"/>
      <psa30 value="0.0040578131" flag="0"/>
    </comp>
    <comp name="--.HHE">
      <acc value="0.0911276588" flag="0"/>
      <vel value="0.0467804840" flag="0"/>
      <psa03 value="0.2645650113" flag="0"/>
      <psa10 value="0.0270744156" flag="0"/>
      <psa30 value="0.0045530343" flag="0"/>
    </comp>
    <comp name="--.HHZ">
      <acc value="0.0295461926" flag="0"/>
      <vel value="0.0156191458" flag="0"/>
      <psa03 value="0.0938001272" flag="0"/>
      <psa10 value="0.0168242820" flag="0"/>
      <psa30 value="0.0017739675" flag="0"/>
    </comp>
  </station>
  <station code="DOMV" name="DOMV" netid="HA" insttype="60" lat="38.2569" lon="22.9795">
    <comp name="--.HHE">
      <acc value="0.3687452030" flag="0"/>
      <vel value="0.0809397539" flag="0"/>
      <psa03 value="0.4845895125" flag="0"/>
      <psa10 value="0.0319249868" flag="0"/>
      <psa30 value="0.0034969336" flag="0"/>
    </comp>
    <comp name="--.HHN">
      <acc value="0.3729283762" flag="0"/>
      <vel value="0.1387583160" flag="0"/>
      <psa03 value="0.7367808648" flag="0"/>
      <psa10 value="0.0616827558" flag="0"/>
      <psa30 value="0.0047841170" flag="0"/>
    </comp>
    <comp name="--.HHZ">
      <acc value="0.2317757288" flag="0"/>
      <vel value="0.0565503203" flag="0"/>
      <psa03 value="0.2782693981" flag="0"/>
      <psa10 value="0.0211615435" flag="0"/>
      <psa30 value="0.0041363132" flag="0"/>
    </comp>
  </station>
  <station code="EPID" name="EPID" netid="HA" insttype="30" lat="37.6144" lon="23.1189">
    <comp name="--.HHE">
      <acc value="0.0171177208" flag="0"/>
      <vel value="0.0086384166" flag="0"/>
      <psa03 value="0.0379903173" flag="0"/>
      <psa10 value="0.0070635177" flag="0"/>
      <psa30 value="0.0011237612" flag="0"/>
    </comp>
    <comp name="--.HHZ">
      <acc value="0.0101323758" flag="0"/>
      <vel value="0.0060842328" flag="0"/>
      <psa03 value="0.0202621156" flag="0"/>
      <psa10 value="0.0067038491" flag="0"/>
      <psa30 value="0.0022547133" flag="0"/>
    </comp>
    <comp name="--.HHN">
      <acc value="0.0174806313" flag="0"/>
      <vel value="0.0065784453" flag="0"/>
      <psa03 value="0.0347852004" flag="0"/>
      <psa10 value="0.0042399996" flag="0"/>
      <psa30 value="0.0024793501" flag="0"/>
    </comp>
  </station>
  <station code="ERTR" name="ERTR" netid="HA" insttype="Horizon,120s,1200" lat="38.4066" lon="23.7865">
    <comp name="--.HHE">
      <acc value="0.0114919397" flag="0"/>
      <vel value="0.0095293381" flag="0"/>
      <psa03 value="0.0272759164" flag="0"/>
      <psa10 value="0.0101228318" flag="0"/>
      <psa30 value="0.0005875225" flag="0"/>
    </comp>
    <comp name="--.HHN">
      <acc value="0.0156072698" flag="0"/>
      <vel value="0.0140574363" flag="0"/>
      <psa03 value="0.0397407822" flag="0"/>
      <psa10 value="0.0140951229" flag="0"/>
      <psa30 value="0.0007639981" flag="0"/>
    </comp>
    <comp name="--.HHZ">
      <acc value="0.0120237050" flag="0"/>
      <vel value="0.0065509601" flag="0"/>
      <psa03 value="0.0313263840" flag="0"/>
      <psa10 value="0.0078577524" flag="0"/>
      <psa30 value="0.0005579094" flag="0"/>
    </comp>
  </station>
  <station code="KALE" name="KALE" netid="HA" insttype="40," lat="38.3911" lon="22.1398">
    <comp name="--.HHN">
      <acc value="0.0215426786" flag="0"/>
      <vel value="0.0122397431" flag="0"/>
      <psa03 value="0.0442643352" flag="0"/>
      <psa10 value="0.0248684709" flag="0"/>
      <psa30 value="0.0025708076" flag="0"/>
    </comp>
    <comp name="--.HHZ">
      <acc value="0.0129147330" flag="0"/>
      <vel value="0.0062510058" flag="0"/>
      <psa03 value="0.0166656834" flag="0"/>
      <psa10 value="0.0085005828" flag="0"/>
      <psa30 value="0.0021899203" flag="0"/>
    </comp>
    <comp name="--.HHE">
      <acc value="0.0147158808" flag="0"/>
      <vel value="0.0093908659" flag="0"/>
      <psa03 value="0.0264011160" flag="0"/>
      <psa10 value="0.0209530824" flag="0"/>
      <psa30 value="0.0019155248" flag="0"/>
    </comp>
  </station>
  <station code="KIAS" name="KIAS" netid="HA" insttype="DC" lat="37.9875" lon="22.7543">
    <comp name="--.HNZ">
      <acc value="0.4381074705" flag="0"/>
      <vel value="0.0651294403" flag="0"/>
      <psa03 value="0.2902771925" flag="0"/>
      <psa10 value="0.0889321023" flag="0"/>
      <psa30 value="0.0095606921" flag="0"/>
    </comp>
    <comp name="--.HNN">
      <acc value="0.4493689968" flag="0"/>
      <vel value="0.2065814409" flag="0"/>
      <psa03 value="0.8143724352" flag="0"/>
      <psa10 value="0.1204914576" flag="0"/>
      <psa30 value="0.0171085056" flag="0"/>
    </comp>
    <comp name="--.HNE">
      <acc value="0.9708341479" flag="0"/>
      <vel value="0.2517097614" flag="0"/>
      <psa03 value="1.0856890028" flag="0"/>
      <psa10 value="0.1388599568" flag="0"/>
      <psa30 value="0.0199937327" flag="0"/>
    </comp>
  </station>
  <station code="LAKA" name="LAKA" netid="HA" insttype="120s," lat="38.2401" lon="21.9785">
    <comp name="--.HHE">
      <acc value="0.0047446686" flag="0"/>
      <vel value="0.0021190049" flag="0"/>
      <psa03 value="0.0076095970" flag="0"/>
      <psa10 value="0.0032148011" flag="0"/>
      <psa30 value="0.0007624788" flag="0"/>
    </comp>
    <comp name="--.HHN">
      <acc value="0.0045992662" flag="0"/>
      <vel value="0.0021231710" flag="0"/>
      <psa03 value="0.0084060878" flag="0"/>
      <psa10 value="0.0036860730" flag="0"/>
      <psa30 value="0.0005795521" flag="0"/>
    </comp>
    <comp name="--.HHZ">
      <acc value="0.0052438319" flag="0"/>
      <vel value="0.0021463218" flag="0"/>
      <psa03 value="0.0077001150" flag="0"/>
      <psa10 value="0.0048695556" flag="0"/>
      <psa30 value="0.0009656774" flag="0"/>
    </comp>
  </station>
  <station code="LOUT" name="LOUT" netid="HA" insttype="30" lat="37.9879" lon="22.9743">
    <comp name="--.HHE">
      <acc value="0.1254545761" flag="0"/>
      <vel value="0.0819537253" flag="0"/>
      <psa03 value="0.3759840427" flag="0"/>
      <psa10 value="0.0659295718" flag="0"/>
      <psa30 value="0.0046391197" flag="0"/>
    </comp>
    <comp name="--.HHN">
      <acc value="0.1471868610" flag="0"/>
      <vel value="0.0595237632" flag="0"/>
      <psa03 value="0.3113670417" flag="0"/>
      <psa10 value="0.0436337426" flag="0"/>
      <psa30 value="0.0047670263" flag="0"/>
    </comp>
    <comp name="--.HHZ">
      <acc value="0.0680477255" flag="0"/>
      <vel value="0.0294817319" flag="0"/>
      <psa03 value="0.1387687572" flag="0"/>
      <psa10 value="0.0332968608" flag="0"/>
      <psa30 value="0.0031637070" flag="0"/>
    </comp>
  </station>
  <station code="MDRA" name="MDRA" netid="HA" insttype="60" lat="38.0606" lon="23.4662">
    <comp name="--.HHE">
      <acc value="0.0170532373" flag="0"/>
      <vel value="0.0068512934" flag="0"/>
      <psa03 value="0.0340438331" flag="0"/>
      <psa10 value="0.0074144832" flag="0"/>
      <psa30 value="0.0013241046" flag="0"/>
    </comp>
    <comp name="--.HHZ">
      <acc value="0.0186831826" flag="0"/>
      <vel value="0.0078894531" flag="0"/>
      <psa03 value="0.0489236231" flag="0"/>
      <psa10 value="0.0079374851" flag="0"/>
      <psa30 value="0.0021238776" flag="0"/>
    </comp>
    <comp name="--.HHN">
      <acc value="0.0221245731" flag="0"/>
      <vel value="0.0136992676" flag="0"/>
      <psa03 value="0.0680530929" flag="0"/>
      <psa10 value="0.0116758648" flag="0"/>
      <psa30 value="0.0010278572" flag="0"/>
    </comp>
  </station>
  <station code="MRKA" name="MRKA" netid="HA" insttype="Horizon,120s,1200" lat="38.7047" lon="23.5863">
    <comp name="--.HHN">
      <acc value="0.0099664177" flag="0"/>
      <vel value="0.0065079057" flag="0"/>
      <psa03 value="0.0235819091" flag="0"/>
      <psa10 value="0.0107016876" flag="0"/>
      <psa30 value="0.0005709565" flag="0"/>
    </comp>
    <comp name="--.HHE">
      <acc value="0.0148743017" flag="0"/>
      <vel value="0.0060303759" flag="0"/>
      <psa03 value="0.0233326803" flag="0"/>
      <psa10 value="0.0116122350" flag="0"/>
      <psa30 value="0.0006200812" flag="0"/>
    </comp>
    <comp name="--.HHZ">
      <acc value="0.0073109455" flag="0"/>
      <vel value="0.0053389531" flag="0"/>
      <psa03 value="0.0151868165" flag="0"/>
      <psa10 value="0.0077337317" flag="0"/>
      <psa30 value="0.0006051106" flag="0"/>
    </comp>
  </station>
  <station code="MRTH" name="MRTH" netid="HA" insttype="S100," lat="38.1225" lon="23.9409">
    <comp name="--.HHN">
      <acc value="0.0265867198" flag="0"/>
      <vel value="0.0149157043" flag="0"/>
      <psa03 value="0.0715583298" flag="0"/>
      <psa10 value="0.0176108573" flag="0"/>
      <psa30 value="0.0008630227" flag="0"/>
    </comp>
    <comp name="--.HHE">
      <acc value="0.0249962650" flag="0"/>
      <vel value="0.0155850751" flag="0"/>
      <psa03 value="0.0455454677" flag="0"/>
      <psa10 value="0.0154838555" flag="0"/>
      <psa30 value="0.0009176911" flag="0"/>
    </comp>
    <comp name="--.HHZ">
      <acc value="0.0160875215" flag="0"/>
      <vel value="0.0084787027" flag="0"/>
      <psa03 value="0.0403684778" flag="0"/>
      <psa10 value="0.0056242330" flag="0"/>
      <psa30 value="0.0013681048" flag="0"/>
    </comp>
  </station>
  <station code="PSAH" name="PSAH" netid="HA" insttype="25" lat="38.5694" lon="23.6473">
    <comp name="--.HHE">
      <acc value="0.0055317802" flag="0"/>
      <vel value="0.0036055476" flag="0"/>
      <psa03 value="0.0123920453" flag="0"/>
      <psa10 value="0.0053194895" flag="0"/>
      <psa30 value="0.0003723516" flag="0"/>
    </comp>
    <comp name="--.HHN">
      <acc value="0.0079933293" flag="0"/>
      <vel value="0.0048843882" flag="0"/>
      <psa03 value="0.0148193224" flag="0"/>
      <psa10 value="0.0028507741" flag="0"/>
      <psa30 value="0.0003378711" flag="0"/>
    </comp>
    <comp name="--.HHZ">
      <acc value="0.0036950191" flag="0"/>
      <vel value="0.0025229772" flag="0"/>
      <psa03 value="0.0068278657" flag="0"/>
      <psa10 value="0.0038057947" flag="0"/>
      <psa30 value="0.0006221218" flag="0"/>
    </comp>
  </station>
  <station code="STFN" name="STFN" netid="HA" insttype="1s-100Hz," lat="38.1766" lon="23.544">
    <comp name="--.HHE">
      <acc value="0.0547459773" flag="0"/>
      <vel value="0.0122377839" flag="0"/>
      <psa03 value="0.0526654778" flag="0"/>
      <psa10 value="0.0186052769" flag="0"/>
      <psa30 value="0.0019491874" flag="0"/>
    </comp>
    <comp name="--.HHN">
      <acc value="0.0245519624" flag="0"/>
      <vel value="0.0096295021" flag="0"/>
      <psa03 value="0.0726961621" flag="0"/>
      <psa10 value="0.0152682496" flag="0"/>
      <psa30 value="0.0021350380" flag="0"/>
    </comp>
    <comp name="--.HHZ">
      <acc value="0.0385586490" flag="0"/>
      <vel value="0.0065320098" flag="0"/>
      <psa03 value="0.0336893627" flag="0"/>
      <psa10 value="0.0100392922" flag="0"/>
      <psa30 value="0.0014974210" flag="0"/>
    </comp>
  </station>
  <station code="THAL" name="THAL" netid="HA" insttype="30" lat="38.0357" lon="22.6634">
    <comp name="--.HHZ">
      <acc value="0.8191125445" flag="0"/>
      <vel value="0.3080788042" flag="0"/>
      <psa03 value="2.9610915051" flag="0"/>
      <psa10 value="0.0688427882" flag="0"/>
      <psa30 value="0.0078648787" flag="0"/>
    </comp>
    <comp name="--.HHE">
      <acc value="2.0333436407" flag="0"/>
