<stationlist xmlns:esm="https://esm-db.eu/esmws/shakemap/1/" created="1783475685">
	<station code="IMMV" name="IMMV" netid="GE" source="GEOFON" insttype="" lat="35.4606" lon="23.9811" esm:processing="manual (Paolucci et al 2011)" esm:quality="best">
		<comp name="--.HNE" depth="0.0">
			<acc value="0.0941358554816551" flag="0"/>
			<vel value="0.038420624605476" flag="0"/>
			<psa03 value="0.152436697948452" flag="0"/>
			<psa10 value="0.070775012117047" flag="0"/>
			<psa30 value="0.00564915100762299" flag="0"/>
		</comp>
		<comp name="--.HNN" depth="0.0">
			<acc value="0.0569593161705179" flag="0"/>
			<vel value="0.0250069767759589" flag="0"/>
			<psa03 value="0.166619977446444" flag="0"/>
			<psa10 value="0.0230131539741081" flag="0"/>
			<psa30 value="0.00321651723378756" flag="0"/>
		</comp>
		<comp name="--.HNZ" depth="0.0">
			<acc value="0.086932131666528" flag="0"/>
			<vel value="0.0326368557502328" flag="0"/>
			<psa03 value="0.123935912332613" flag="0"/>
			<psa10 value="0.0255419834921728" flag="0"/>
			<psa30 value="0.0015896906011472" flag="0"/>
		</comp>
	</station>
	<station code="KTHA" name="KTHA" netid="GE" source="GEOFON" insttype="" lat="36.2566" lon="23.0621" esm:processing="manual (Paolucci et al 2011)" esm:quality="best">
		<comp name="--.HNE" depth="0.0">
			<acc value="0.00445787584348329" flag="0"/>
			<vel value="0.00350726221609693" flag="0"/>
			<psa03 value="0.0163309054156692" flag="0"/>
			<psa10 value="0.00477980993302997" flag="0"/>
			<psa30 value="0.000524378661566145" flag="0"/>
		</comp>
		<comp name="--.HNN" depth="0.0">
			<acc value="0.00330438540716271" flag="0"/>
			<vel value="0.00227700092428169" flag="0"/>
			<psa03 value="0.0140490528781373" flag="0"/>
			<psa10 value="0.00455430921167388" flag="0"/>
			<psa30 value="0.0003029047388057" flag="0"/>
		</comp>
		<comp name="--.HNZ" depth="0.0">
			<acc value="0.0031356190180261" flag="0"/>
			<vel value="0.0016354980998261" flag="0"/>
			<psa03 value="0.0109170984148583" flag="0"/>
			<psa10 value="0.00240399876159974" flag="0"/>
			<psa30 value="0.000354358276416712" flag="0"/>
		</comp>
	</station>
	<station code="CH01" name="CH01" netid="HI" source="ITSAK Strong Motion Network" insttype="" lat="35.517" lon="24.0208" esm:processing="manual (Paolucci et al 2011)" esm:quality="best">
		<comp name="--.HNE" depth="0.0">
			<acc value="0.0660389614842995" flag="0"/>
			<vel value="0.0465668983450889" flag="0"/>
			<psa03 value="0.146351757848367" flag="0"/>
			<psa10 value="0.0686247016669728" flag="0"/>
			<psa30 value="0.00675294124489575" flag="0"/>
		</comp>
		<comp name="--.HNN" depth="0.0">
			<acc value="0.0662170438517807" flag="0"/>
			<vel value="0.04327764981734" flag="0"/>
			<psa03 value="0.15145236940285" flag="0"/>
			<psa10 value="0.0549658008305468" flag="0"/>
			<psa30 value="0.00305365560169705" flag="0"/>
		</comp>
		<comp name="--.HNZ" depth="0.0">
			<acc value="0.0309656822808408" flag="0"/>
			<vel value="0.0216069481238714" flag="0"/>
			<psa03 value="0.0793279323341958" flag="0"/>
			<psa10 value="0.0428652710506352" flag="0"/>
			<psa30 value="0.00164159156082439" flag="0"/>
		</comp>
	</station>
	<station code="CHNB" name="CHNB" netid="HL" source="National Observatory of Athens Seismic Network" insttype="" lat="35.48765" lon="24.06605" esm:processing="manual (Paolucci et al 2011)" esm:quality="good">
		<comp name="00.HNE" depth="0.0">
			<acc value="0.0968593289210883" flag="0"/>
			<vel value="0.0805111894277646" flag="0"/>
			<psa03 value="0.310581491166201" flag="0"/>
			<psa10 value="0.14620649546278" flag="0"/>
			<psa30 value="0.00438035226017291" flag="0"/>
		</comp>
		<comp name="00.HNN" depth="0.0">
			<acc value="0.120557005062767" flag="0"/>
			<vel value="0.100794101523862" flag="0"/>
			<psa03 value="0.401162741729502" flag="0"/>
			<psa10 value="0.149447895189604" flag="0"/>
			<psa30 value="0.0105496921986663" flag="0"/>
		</comp>
		<comp name="00.HNZ" depth="0.0">
			<acc value="0.0927752178104811" flag="0"/>
			<vel value="0.0347321721302747" flag="0"/>
			<psa03 value="0.295159782053659" flag="0"/>
			<psa10 value="0.0310572230136037" flag="0"/>
			<psa30 value="0.00149748065907774" flag="0"/>
		</comp>
	</station>
	<station code="GVD" name="GVD" netid="HL" source="National Observatory of Athens Seismic Network" insttype="" lat="34.83914" lon="24.08738" esm:processing="manual (Paolucci et al 2011)" esm:quality="best">
		<comp name="00.HNE" depth="1.0">
			<acc value="0.268664359310607" flag="0"/>
			<vel value="0.0773782681733451" flag="0"/>
			<psa03 value="0.639948560120051" flag="0"/>
			<psa10 value="0.0329474476067178" flag="0"/>
			<psa30 value="0.00281851525446995" flag="0"/>
		</comp>
		<comp name="00.HNN" depth="1.0">
			<acc value="0.248318867649973" flag="0"/>
			<vel value="0.091126297140775" flag="0"/>
			<psa03 value="0.624284980814573" flag="0"/>
			<psa10 value="0.046338842220881" flag="0"/>
			<psa30 value="0.00284172991732936" flag="0"/>
		</comp>
		<comp name="00.HNZ" depth="1.0">
			<acc value="0.46373758701515" flag="0"/>
			<vel value="0.0644562575286134" flag="0"/>
			<psa03 value="0.257259229661258" flag="0"/>
			<psa10 value="0.0251126048368182" flag="0"/>
			<psa30 value="0.00171927566440689" flag="0"/>
		</comp>
	</station>
	<station code="HERG" name="HERG" netid="HL" source="National Observatory of Athens Seismic Network" insttype="" lat="35.32622" lon="25.06586" esm:processing="automatic (Paolucci et al 2011)" esm:quality="best">
		<comp name="00.HNE" depth="0.0">
			<acc value="0.0594749313227598" flag="0"/>
			<vel value="0.0520819302474557" flag="0"/>
			<psa03 value="0.216811841886978" flag="0"/>
			<psa10 value="0.103149533150429" flag="0"/>
			<psa30 value="0.00667259994368407" flag="0"/>
		</comp>
		<comp name="00.HNN" depth="0.0">
			<acc value="0.0603047817094504" flag="0"/>
			<vel value="0.0593525967698531" flag="0"/>
			<psa03 value="0.224591628093094" flag="0"/>
			<psa10 value="0.0890176219807522" flag="0"/>
			<psa30 value="0.006226702905189" flag="0"/>
		</comp>
		<comp name="00.HNZ" depth="0.0">
			<acc value="0.0495114757421958" flag="0"/>
			<vel value="0.0419299030158145" flag="0"/>
			<psa03 value="0.104648401193122" flag="0"/>
			<psa10 value="0.0613295002782206" flag="0"/>
			<psa30 value="0.00230308527643044" flag="0"/>
		</comp>
	</station>
	<station code="IACM" name="IACM" netid="HL" source="National Observatory of Athens Seismic Network" insttype="" lat="35.3058" lon="25.0709" esm:processing="manual (Paolucci et al 2011)" esm:quality="good">
		<comp name="--.HNE" depth="0.0">
			<acc value="0.151047026300656" flag="0"/>
			<vel value="0.0938220466890621" flag="0"/>
			<psa03 value="0.423082305782378" flag="0"/>
			<psa10 value="0.0995062200969702" flag="0"/>
			<psa30 value="0.00618247811051279" flag="0"/>
		</comp>
		<comp name="--.HNN" depth="0.0">
			<acc value="0.119163055831163" flag="0"/>
			<vel value="0.130080310962383" flag="0"/>
			<psa03 value="0.494356640925285" flag="0"/>
			<psa10 value="0.130423979714328" flag="0"/>
			<psa30 value="0.00916991524641479" flag="0"/>
		</comp>
		<comp name="--.HNZ" depth="0.0">
			<acc value="0.0810630962801081" flag="0"/>
			<vel value="0.0478361356289046" flag="0"/>
			<psa03 value="0.232301536762067" flag="0"/>
			<psa10 value="0.0463645590302503" flag="0"/>
			<psa30 value="0.00210333113312496" flag="0"/>
		</comp>
	</station>
	<station code="IMMV" name="IMMV" netid="HL" source="National Observatory of Athens Seismic Network" insttype="" lat="35.4606" lon="23.9811" esm:processing="manual (Paolucci et al 2011)" esm:quality="best">
		<comp name="--.HNE" depth="0.0">
			<acc value="0.0941358554816551" flag="0"/>
			<vel value="0.038420624605476" flag="0"/>
			<psa03 value="0.152436697948452" flag="0"/>
			<psa10 value="0.070775012117047" flag="0"/>
			<psa30 value="0.00564915100762299" flag="0"/>
		</comp>
		<comp name="--.HNN" depth="0.0">
			<acc value="0.0569593161705179" flag="0"/>
			<vel value="0.0250069767759589" flag="0"/>
			<psa03 value="0.166619977446444" flag="0"/>
			<psa10 value="0.0230131539741081" flag="0"/>
			<psa30 value="0.00321651723378756" flag="0"/>
		</comp>
		<comp name="--.HNZ" depth="0.0">
			<acc value="0.086932131666528" flag="0"/>
			<vel value="0.0326368557502328" flag="0"/>
			<psa03 value="0.123935912332613" flag="0"/>
			<psa10 value="0.0255419834921728" flag="0"/>
			<psa30 value="0.0015896906011472" flag="0"/>
		</comp>
	</station>
	<station code="KTHA" name="KTHA" netid="HL" source="National Observatory of Athens Seismic Network" insttype="" lat="36.2566" lon="23.0621" esm:processing="manual (Paolucci et al 2011)" esm:quality="best">
		<comp name="--.HNE" depth="0.0">
			<acc value="0.00437263999445002" flag="0"/>
			<vel value="0.00343834029929907" flag="0"/>
			<psa03 value="0.0160177099693413" flag="0"/>
			<psa10 value="0.0046831667667345" flag="0"/>
			<psa30 value="0.000501112714124643" flag="0"/>
		</comp>
		<comp name="--.HNN" depth="0.0">
			<acc value="0.0032376492527875" flag="0"/>
			<vel value="0.00224272155811061" flag="0"/>
			<psa03 value="0.0137805996384277" flag="0"/>
			<psa10 value="0.00445766604537841" flag="0"/>
			<psa30 value="0.000290376920952584" flag="0"/>
		</comp>
		<comp name="--.HNZ" depth="0.0">
			<acc value="0.00307092552018451" flag="0"/>
			<vel value="0.00163717913426016" flag="0"/>
			<psa03 value="0.010693387381767" flag="0"/>
			<psa10 value="0.00235567717845201" flag="0"/>
			<psa30 value="0.000338698504100317" flag="0"/>
		</comp>
	</station>
	<station code="ZKR" name="ZKR" netid="HL" source="National Observatory of Athens Seismic Network" insttype="" lat="35.1147" lon="26.21691" esm:processing="manual (Paolucci et al 2011)" esm:quality="bad">
		<comp name="00.HNE" depth="0.0">
			<acc value="0.00301545273945353" flag="0"/>
			<vel value="0.00314102257026872" flag="0"/>
			<psa03 value="0.00805359719128892" flag="0"/>
			<psa10 value="0.00531940094484633" flag="0"/>
			<psa30 value="0.000570015712316782" flag="0"/>
		</comp>
		<comp name="00.HNN" depth="0.0">
			<acc value="0.00216996296085728" flag="0"/>
			<vel value="0.0019337917380393" flag="0"/>
			<psa03 value="0.00635339333979459" flag="0"/>
			<psa10 value="0.00355566315995406" flag="0"/>
			<psa30 value="0.000372255159064021" flag="0"/>
		</comp>
		<comp name="00.HNZ" depth="0.0">
			<acc value="0.00148771164622787" flag="0"/>
			<vel value="0.00185706808881511" flag="0"/>
			<psa03 value="0.00505586934786471" flag="0"/>
			<psa10 value="0.00234359678266507" flag="0"/>
			<psa30 value="0.000494848805198085" flag="0"/>
		</comp>
	</station>
	<station code="NPS1" name="NPS1" netid="HI" source="ITSAK Strong Motion Network" insttype="" lat="36.51263" lon="23.06248" esm:processing="discarded" esm:quality="bad">
		<comp name="--.HNE" depth="0.0">
			<acc value="0" flag="1"/>
			<vel value="0" flag="1"/>
			<psa03 value="0" flag="1"/>
			<psa10 value="0" flag="1"/>
			<psa30 value="0" flag="1"/>
		</comp>
		<comp name="--.HNN" depth="0.0">
			<acc value="0" flag="1"/>
			<vel value="0" flag="1"/>
			<psa03 value="0" flag="1"/>
			<psa10 value="0" flag="1"/>
			<psa30 value="0" flag="1"/>
		</comp>
		<comp name="--.HNZ" depth="0.0">
			<acc value="0" flag="1"/>
			<vel value="0" flag="1"/>
			<psa03 value="0" flag="1"/>
			<psa10 value="0" flag="1"/>
			<psa30 value="0" flag="1"/>
		</comp>
	</station>
	<station code="SIT2" name="SIT2" netid="HI" source="ITSAK Strong Motion Network" insttype="" lat="35.2059" lon="26.107" esm:processing="discarded" esm:quality="bad">
		<comp name="--.HNE" depth="0.0">
			<acc value="0" flag="1"/>
			<vel value="0" flag="1"/>
			<psa03 value="0" flag="1"/>
			<psa10 value="0" flag="1"/>
			<psa30 value="0" flag="1"/>
		</comp>
		<comp name="--.HNN" depth="0.0">
			<acc value="0" flag="1"/>
			<vel value="0" flag="1"/>
			<psa03 value="0" flag="1"/>
			<psa10 value="0" flag="1"/>
			<psa30 value="0" flag="1"/>
		</comp>
		<comp name="--.HNZ" depth="0.0">
			<acc value="0" flag="1"/>
			<vel value="0" flag="1"/>
			<psa03 value="0" flag="1"/>
			<psa10 value="0" flag="1"/>
			<psa30 value="0" flag="1"/>
		</comp>
	</station>
	<station code="AGNA" name="AGNA" netid="HL" source="National Observatory of Athens Seismic Network" insttype="" lat="35.1895" lon="25.71853" esm:processing="automatic (Paolucci et al 2011)" esm:quality="bad">
		<comp name="00.HNE" depth="0.0">
			<acc value="0" flag="1"/>
			<vel value="0" flag="1"/>
			<psa03 value="0" flag="1"/>
			<psa10 value="0" flag="1"/>
			<psa30 value="0" flag="1"/>
		</comp>
		<comp name="00.HNN" depth="0.0">
			<acc value="0" flag="1"/>
			<vel value="0" flag="1"/>
			<psa03 value="0" flag="1"/>
			<psa10 value="0" flag="1"/>
			<psa30 value="0" flag="1"/>
		</comp>
		<comp name="00.HNZ" depth="0.0">
			<acc value="0" flag="1"/>
			<vel value="0" flag="1"/>
			<psa03 value="0" flag="1"/>
			<psa10 value="0" flag="1"/>
			<psa30 value="0" flag="1"/>
		</comp>
	</station>
	<station code="ANKY" name="ANKY" netid="HL" source="National Observatory of Athens Seismic Network" insttype="" lat="35.86704" lon="23.30117" esm:processing="discarded" esm:quality="bad">
		<comp name="00.HNE" depth="0.0">
			<acc value="0" flag="1"/>
			<vel value="0" flag="1"/>
			<psa03 value="0" flag="1"/>
			<psa10 value="0" flag="1"/>
			<psa30 value="0" flag="1"/>
		</comp>
		<comp name="00.HNN" depth="0.0">
			<acc value="0" flag="1"/>
			<vel value="0" flag="1"/>
			<psa03 value="0" flag="1"/>
			<psa10 value="0" flag="1"/>
			<psa30 value="0" flag="1"/>
		</comp>
		<comp name="00.HNZ" depth="0.0">
			<acc value="0" flag="1"/>
			<vel value="0" flag="1"/>
			<psa03 value="0" flag="1"/>
			<psa10 value="0" flag="1"/>
			<psa30 value="0" flag="1"/>
		</comp>
	</station>
	<station code="MNVA" name="MNVA" netid="HL" source="National Observatory of Athens Seismic Network" insttype="" lat="36.68709" lon="23.03734" esm:processing="automatic (Paolucci et al 2011)" esm:quality="bad">
		<comp name="00.HNE" depth="0.0">
			<acc value="0" flag="1"/>
			<vel value="0" flag="1"/>
			<psa03 value="0" flag="1"/>
			<psa10 value="0" flag="1"/>
			<psa30 value="0" flag="1"/>
		</comp>
		<comp name="00.HNN" depth="0.0">
			<acc value="0" flag="1"/>
			<vel value="0" flag="1"/>
			<psa03 value="0" flag="1"/>
			<psa10 value="0" flag="1"/>
			<psa30 value="0" flag="1"/>
		</comp>
		<comp name="00.HNZ" depth="0.0">
			<acc value="0" flag="1"/>
			<vel value="0" flag="1"/>
			<psa03 value="0" flag="1"/>
			<psa10 value="0" flag="1"/>
			<psa30 value="0" flag="1"/>
		</comp>
	</station>
	<station code="THRA" name="THRA" netid="HL" source="National Observatory of Athens Seismic Network" insttype="" lat="36.41502" lon="25.43244" esm:processing="automatic (Paolucci et al 2011)" esm:quality="bad">
		<comp name="00.HNE" depth="0.0">
			<acc value="0" flag="1"/>
			<vel value="0" flag="1"/>
			<psa03 value="0" flag="1"/>
			<psa10 value="0" flag="1"/>
			<psa30 value="0" flag="1"/>
		</comp>
		<comp name="00.HNN" depth="0.0">
			<acc value="0" flag="1"/>
			<vel value="0" flag="1"/>
			<psa03 value="0" flag="1"/>
			<psa10 value="0" flag="1"/>
			<psa30 value="0" flag="1"/>
		</comp>
		<comp name="00.HNZ" depth="0.0">
			<acc value="0" flag="1"/>
			<vel value="0" flag="1"/>
			<psa03 value="0" flag="1"/>
			<psa10 value="0" flag="1"/>
			<psa30 value="0" flag="1"/>
		</comp>
	</station>
</stationlist>
