<?xml version="1.0" encoding="UTF-8" standalone="yes"?>
<!DOCTYPE earthquake SYSTEM "stationlist.dtd">
<stationlist created="" xmlns="ch.ethz.sed.shakemap.usgs.xml">
  <station code="GVD" name="GVD" netid="GE" source="GFZ" insttype="STS-2/N" lat="34.8391" lon="24.0874">
    <comp name="--.HHE">
      <acc value="0.2840488803" flag="0"/>
      <vel value="0.0795699686" flag="0"/>
      <psa03 value="0.6613724057" flag="0"/>
      <psa10 value="0.0333613146" flag="0"/>
      <psa30 value="0.0027564626" flag="0"/>
    </comp>
    <comp name="--.HHN">
      <acc value="0.2659623935" flag="0"/>
      <vel value="0.0944668410" flag="0"/>
      <psa03 value="0.6417863358" flag="0"/>
      <psa10 value="0.0478445719" flag="0"/>
      <psa30 value="0.0028664883" flag="0"/>
    </comp>
    <comp name="--.HHZ">
      <acc value="0.4648478084" flag="0"/>
      <vel value="0.0670615070" flag="0"/>
      <psa03 value="0.2755181033" flag="0"/>
      <psa10 value="0.0260568223" flag="0"/>
      <psa30 value="0.0017969347" flag="0"/>
    </comp>
  </station>
  <station code="IMMV" name="IMMV" netid="GE" source="GFZ" insttype="STS-2/N" lat="35.4606" lon="23.9811">
    <comp name="--.HHE">
      <acc value="0.0962745415" flag="0"/>
      <vel value="0.0379960989" flag="0"/>
      <psa03 value="0.1589468129" flag="0"/>
      <psa10 value="0.0715304886" flag="0"/>
      <psa30 value="0.0052047524" flag="0"/>
    </comp>
    <comp name="--.HHN">
      <acc value="0.0583186034" flag="0"/>
      <vel value="0.0254773629" flag="0"/>
      <psa03 value="0.1682291619" flag="0"/>
      <psa10 value="0.0231329715" flag="0"/>
      <psa30 value="0.0029952737" flag="0"/>
    </comp>
    <comp name="--.HHZ">
      <acc value="0.0875600091" flag="0"/>
      <vel value="0.0329823344" flag="0"/>
      <psa03 value="0.1264691106" flag="0"/>
      <psa10 value="0.0255646659" flag="0"/>
      <psa30 value="0.0015639924" flag="0"/>
    </comp>
  </station>
  <station code="CHAN" name="CHAN" netid="HC" source="NOA" insttype="120" lat="35.5193" lon="24.0428">
    <comp name="--.HHE">
      <acc value="0.0764935859" flag="0"/>
      <vel value="0.0589973612" flag="0"/>
      <psa03 value="0.2488174079" flag="0"/>
      <psa10 value="0.0867314877" flag="0"/>
      <psa30 value="0.0081841612" flag="0"/>
    </comp>
    <comp name="--.HHN">
      <acc value="0.0711465922" flag="0"/>
      <vel value="0.0553623586" flag="0"/>
      <psa03 value="0.2286652477" flag="0"/>
      <psa10 value="0.0671211017" flag="0"/>
      <psa30 value="0.0048355929" flag="0"/>
    </comp>
    <comp name="--.HHZ">
      <acc value="0.0801077083" flag="0"/>
      <vel value="0.0301828862" flag="0"/>
      <psa03 value="0.2522008883" flag="0"/>
      <psa10 value="0.0416573747" flag="0"/>
      <psa30 value="0.0024671461" flag="0"/>
    </comp>
  </station>
  <station code="HRKL" name="HRKL" netid="HC" source="NOA" insttype="120" lat="35.3115" lon="25.1016">
    <comp name="--.HHE">
      <acc value="0.0977672768" flag="0"/>
      <vel value="0.0847030445" flag="0"/>
      <psa03 value="0.3330026993" flag="0"/>
      <psa10 value="0.1122957344" flag="0"/>
      <psa30 value="0.0064625552" flag="0"/>
    </comp>
    <comp name="--.HHN">
      <acc value="0.1015273428" flag="0"/>
      <vel value="0.0850998643" flag="0"/>
      <psa03 value="0.2830074617" flag="0"/>
      <psa10 value="0.0837293740" flag="0"/>
      <psa30 value="0.0061424477" flag="0"/>
    </comp>
    <comp name="--.HHZ">
      <acc value="0.0761022040" flag="0"/>
      <vel value="0.0552738241" flag="0"/>
      <psa03 value="0.2771994171" flag="0"/>
      <psa10 value="0.0621017600" flag="0"/>
      <psa30 value="0.0026110202" flag="0"/>
    </comp>
  </station>
  <station code="KNDR" name="KNDR" netid="HC" source="NOA" insttype="60" lat="35.2348" lon="23.6248">
    <comp name="--.HHE">
      <acc value="0.0633571232" flag="0"/>
      <vel value="0.0301643361" flag="0"/>
      <psa03 value="0.1940109303" flag="0"/>
      <psa10 value="0.0201948849" flag="0"/>
      <psa30 value="0.0011397970" flag="0"/>
    </comp>
    <comp name="--.HHN">
      <acc value="0.0793117648" flag="0"/>
      <vel value="0.0384459354" flag="0"/>
      <psa03 value="0.1644307642" flag="0"/>
      <psa10 value="0.0218766573" flag="0"/>
      <psa30 value="0.0013048195" flag="0"/>
    </comp>
    <comp name="--.HHZ">
      <acc value="0.0601888943" flag="0"/>
      <vel value="0.0240205034" flag="0"/>
      <psa03 value="0.1141400207" flag="0"/>
      <psa10 value="0.0134648490" flag="0"/>
      <psa30 value="0.0008577506" flag="0"/>
    </comp>
  </station>
  <station code="KSTL" name="KSTL" netid="HC" source="NOA" insttype="1s-100Hz," lat="35.2092" lon="25.3374">
    <comp name="--.HHE">
      <acc value="0.0159697972" flag="0"/>
      <vel value="0.0114554141" flag="0"/>
      <psa03 value="0.0579727557" flag="0"/>
      <psa10 value="0.0124177841" flag="0"/>
      <psa30 value="0.0008773709" flag="0"/>
    </comp>
    <comp name="--.HHN">
      <acc value="0.0184158709" flag="0"/>
      <vel value="0.0132383677" flag="0"/>
      <psa03 value="0.0695045187" flag="0"/>
      <psa10 value="0.0156086820" flag="0"/>
      <psa30 value="0.0013815643" flag="0"/>
    </comp>
    <comp name="--.HHZ">
      <acc value="0.0183931431" flag="0"/>
      <vel value="0.0073598932" flag="0"/>
      <psa03 value="0.0377697278" flag="0"/>
      <psa10 value="0.0080349855" flag="0"/>
      <psa30 value="0.0007809524" flag="0"/>
    </comp>
  </station>
  <station code="PRNS" name="PRNS" netid="HC" source="NOA" insttype="1s-100Hz," lat="35.3445" lon="24.4266">
    <comp name="--.HHE">
      <acc value="0.2474700689" flag="0"/>
      <vel value="0.0989890551" flag="0"/>
      <psa03 value="0.6735946934" flag="0"/>
      <psa10 value="0.0475386696" flag="0"/>
      <psa30 value="0.0044141618" flag="0"/>
    </comp>
    <comp name="--.HHN">
      <acc value="0.1289402954" flag="0"/>
      <vel value="0.0660140201" flag="0"/>
      <psa03 value="0.7653915541" flag="0"/>
      <psa10 value="0.0436622716" flag="0"/>
      <psa30 value="0.0044718451" flag="0"/>
    </comp>
    <comp name="--.HHZ">
      <acc value="0.1752023635" flag="0"/>
      <vel value="0.0709990987" flag="0"/>
      <psa03 value="0.5505550154" flag="0"/>
      <psa10 value="0.0337739037" flag="0"/>
      <psa30 value="0.0036432123" flag="0"/>
    </comp>
  </station>
  <station code="TMBK" name="TMBK" netid="HC" source="NOA" insttype="120" lat="35.0724" lon="24.7662">
    <comp name="--.HHE">
      <acc value="1.5088148317" flag="0"/>
      <vel value="0.6914399386" flag="0"/>
      <psa03 value="3.8144459349" flag="0"/>
      <psa10 value="0.1821491786" flag="0"/>
      <psa30 value="0.0156871225" flag="0"/>
    </comp>
    <comp name="--.HHN">
      <acc value="1.2531573679" flag="0"/>
      <vel value="0.7054177501" flag="0"/>
      <psa03 value="4.2708204362" flag="0"/>
      <psa10 value="0.1862905045" flag="0"/>
      <psa30 value="0.0215645264" flag="0"/>
    </comp>
    <comp name="--.HHZ">
      <acc value="0.4395917712" flag="0"/>
      <vel value="0.1236890728" flag="0"/>
      <psa03 value="0.7795548432" flag="0"/>
      <psa10 value="0.0868112970" flag="0"/>
      <psa30 value="0.0075185214" flag="0"/>
    </comp>
  </station>
  <station code="GVD" name="GVD" netid="HL" source="NOA" insttype="120" lat="34.8391" lon="24.0874">
    <comp name="--.HHE">
      <acc value="0.2781651011" flag="0"/>
      <vel value="0.0773646683" flag="0"/>
      <psa03 value="0.6418810248" flag="0"/>
      <psa10 value="0.0328885965" flag="0"/>
      <psa30 value="0.0026966662" flag="0"/>
    </comp>
    <comp name="--.HHN">
      <acc value="0.2618186619" flag="0"/>
      <vel value="0.0929179427" flag="0"/>
      <psa03 value="0.6221817432" flag="0"/>
      <psa10 value="0.0471073663" flag="0"/>
      <psa30 value="0.0028314681" flag="0"/>
    </comp>
    <comp name="--.HHZ">
      <acc value="0.4631798818" flag="0"/>
      <vel value="0.0653583031" flag="0"/>
      <psa03 value="0.2667824001" flag="0"/>
      <psa10 value="0.0258328137" flag="0"/>
      <psa30 value="0.0017725236" flag="0"/>
    </comp>
  </station>
  <station code="IDI" name="IDI" netid="HL" source="NOA" insttype="120" lat="35.288" lon="24.89">
    <comp name="--.HHE">
      <acc value="0.0501837702" flag="0"/>
      <vel value="0.0225383107" flag="0"/>
      <psa03 value="0.1942937264" flag="0"/>
      <psa10 value="0.0106993878" flag="0"/>
      <psa30 value="0.0011777384" flag="0"/>
    </comp>
    <comp name="--.HHN">
      <acc value="0.0365574104" flag="0"/>
      <vel value="0.0204523955" flag="0"/>
      <psa03 value="0.1327086958" flag="0"/>
      <psa10 value="0.0200960430" flag="0"/>
      <psa30 value="0.0025584588" flag="0"/>
    </comp>
    <comp name="--.HHZ">
      <acc value="0.0457974841" flag="0"/>
      <vel value="0.0208763417" flag="0"/>
      <psa03 value="0.1447870014" flag="0"/>
      <psa10 value="0.0194309912" flag="0"/>
      <psa30 value="0.0008775870" flag="0"/>
    </comp>
  </station>
  <station code="IMMV" name="IMMV" netid="HL" source="NOA" insttype="120" lat="35.4606" lon="23.9811">
    <comp name="--.HHE">
      <acc value="0.0944706735" flag="0"/>
      <vel value="0.0378402308" flag="0"/>
      <psa03 value="0.1546419660" flag="0"/>
      <psa10 value="0.0710405086" flag="0"/>
      <psa30 value="0.0051864539" flag="0"/>
    </comp>
    <comp name="--.HHN">
      <acc value="0.0568989365" flag="0"/>
      <vel value="0.0248911742" flag="0"/>
      <psa03 value="0.1635221692" flag="0"/>
      <psa10 value="0.0229228489" flag="0"/>
      <psa30 value="0.0029848890" flag="0"/>
    </comp>
    <comp name="--.HHZ">
      <acc value="0.0850176255" flag="0"/>
      <vel value="0.0324032344" flag="0"/>
      <psa03 value="0.1229957020" flag="0"/>
      <psa10 value="0.0254103190" flag="0"/>
      <psa30 value="0.0015387004" flag="0"/>
    </comp>
  </station>
  <station code="LAST" name="LAST" netid="HL" source="NOA" insttype="30" lat="35.1615" lon="25.4782">
    <comp name="--.HHE">
      <acc value="0.0055583154" flag="0"/>
      <vel value="0.0041932954" flag="0"/>
      <psa03 value="0.0178766631" flag="0"/>
      <psa10 value="0.0054519181" flag="0"/>
      <psa30 value="0.0007515836" flag="0"/>
    </comp>
    <comp name="--.HHN">
      <acc value="0.0060692839" flag="0"/>
      <vel value="0.0045185243" flag="0"/>
      <psa03 value="0.0212047061" flag="0"/>
      <psa10 value="0.0054829999" flag="0"/>
      <psa30 value="0.0007099398" flag="0"/>
    </comp>
    <comp name="--.HHZ">
      <acc value="0.0037125322" flag="0"/>
      <vel value="0.0027312536" flag="0"/>
      <psa03 value="0.0093166464" flag="0"/>
      <psa10 value="0.0047181031" flag="0"/>
      <psa30 value="0.0003807343" flag="0"/>
    </comp>
  </station>
  <station code="SIVA" name="SIVA" netid="HL" source="NOA" insttype="60" lat="35.0178" lon="24.812">
    <comp name="--.HHE">
      <acc value="0.1959747357" flag="0"/>
      <vel value="0.0785470263" flag="0"/>
      <psa03 value="0.5283520546" flag="0"/>
      <psa10 value="0.0423957813" flag="0"/>
      <psa30 value="0.0024591917" flag="0"/>
    </comp>
    <comp name="--.HHN">
      <acc value="0.2850682997" flag="0"/>
      <vel value="0.0748656027" flag="0"/>
      <psa03 value="0.4090658180" flag="0"/>
      <psa10 value="0.0545092479" flag="0"/>
      <psa30 value="0.0042212881" flag="0"/>
    </comp>
    <comp name="--.HHZ">
      <acc value="0.0493208421" flag="0"/>
      <vel value="0.0162190882" flag="0"/>
      <psa03 value="0.0935397566" flag="0"/>
      <psa10 value="0.0108706939" flag="0"/>
      <psa30 value="0.0006004006" flag="0"/>
    </comp>
  </station>
  <station code="VAM" name="VAM" netid="HL" source="NOA" insttype="120" lat="35.407" lon="24.1997">
    <comp name="--.HHE">
      <acc value="0.4321437512" flag="0"/>
      <vel value="0.1848686929" flag="0"/>
      <psa03 value="0.7587825096" flag="0"/>
      <psa10 value="0.0401560369" flag="0"/>
      <psa30 value="0.0080901622" flag="0"/>
    </comp>
    <comp name="--.HHN">
      <acc value="0.2828991858" flag="0"/>
      <vel value="0.1123291089" flag="0"/>
      <psa03 value="0.9074323402" flag="0"/>
      <psa10 value="0.0484745743" flag="0"/>
      <psa30 value="0.0033181564" flag="0"/>
    </comp>
    <comp name="--.HHZ">
      <acc value="0.1212993685" flag="0"/>
      <vel value="0.0521611507" flag="0"/>
      <psa03 value="0.3076726193" flag="0"/>
      <psa10 value="0.0214003121" flag="0"/>
      <psa30 value="0.0029933307" flag="0"/>
    </comp>
  </station>
  <station code="IDI" name="IDI" netid="MN" source="INGV" insttype="" lat="35.288" lon="24.89">
    <comp name="--.HHE">
      <acc value="0.0481551490" flag="0"/>
      <vel value="0.0215913549" flag="0"/>
      <psa03 value="0.1875139076" flag="0"/>
      <psa10 value="0.0101159354" flag="0"/>
      <psa30 value="0.0011074127" flag="0"/>
    </comp>
    <comp name="--.HHN">
      <acc value="0.0352014801" flag="0"/>
      <vel value="0.0197002796" flag="0"/>
      <psa03 value="0.1290168416" flag="0"/>
      <psa10 value="0.0191692754" flag="0"/>
      <psa30 value="0.0024287252" flag="0"/>
    </comp>
    <comp name="--.HHZ">
      <acc value="0.0454026452" flag="0"/>
      <vel value="0.0203132399" flag="0"/>
      <psa03 value="0.1401341694" flag="0"/>
      <psa10 value="0.0185973256" flag="0"/>
      <psa30 value="0.0008403684" flag="0"/>
    </comp>
  </station>
</stationlist>
