<?xml version="1.0" encoding="UTF-8" standalone="yes"?>
<!DOCTYPE earthquake SYSTEM "stationlist.dtd">
<stationlist created="" xmlns="ch.ethz.sed.shakemap.usgs.xml">
  <station code="ADVT" name="ADVT" netid="KO" insttype="CMG-3ESP" commtype="DIG" lat="40.4332" lon="29.7383">
    <comp name="--.HHZ">
      <acc value="0.0667131644" flag="0"/>
      <vel value="0.0181822736" flag="0"/>
      <psa03 value="0.0623141518" flag="0"/>
      <psa10 value="0.0085046827" flag="0"/>
      <psa30 value="0.0005114699" flag="0"/>
    </comp>
  </station>
  <station code="ARMU" name="ARMU" netid="KO" insttype="SA10" commtype="DIG" lat="40.5088" lon="28.838">
    <comp name="--.HNN">
      <acc value="1.0530447828" flag="0"/>
      <vel value="0.4227264741" flag="0"/>
      <psa03 value="2.5820416073" flag="0"/>
      <psa10 value="0.1207905276" flag="0"/>
      <psa30 value="0.0098471075" flag="0"/>
    </comp>
    <comp name="--.HNE">
      <acc value="1.0082873069" flag="0"/>
      <vel value="0.2061774558" flag="0"/>
      <psa03 value="2.3180348078" flag="0"/>
      <psa10 value="0.0584417069" flag="0"/>
      <psa30 value="0.0045372985" flag="0"/>
    </comp>
    <comp name="--.HNZ">
      <acc value="1.0619612051" flag="0"/>
      <vel value="0.0893122788" flag="0"/>
      <psa03 value="0.4917752008" flag="0"/>
      <psa10 value="0.0148717640" flag="0"/>
      <psa30 value="0.0018196873" flag="0"/>
    </comp>
  </station>
  <station code="ATAM" name="ATAM" netid="KO" insttype="SA10" commtype="DIG" lat="40.9688" lon="28.875">
    <comp name="--.HNE">
      <acc value="0.0468708201" flag="0"/>
      <vel value="0.0248974734" flag="0"/>
      <psa03 value="0.1593035911" flag="0"/>
      <psa10 value="0.0145008815" flag="0"/>
      <psa30 value="0.0013628948" flag="0"/>
    </comp>
    <comp name="--.HNN">
      <acc value="0.0382293066" flag="0"/>
      <vel value="0.0139797488" flag="0"/>
      <psa03 value="0.0858547733" flag="0"/>
      <psa10 value="0.0153289632" flag="0"/>
      <psa30 value="0.0015756502" flag="0"/>
    </comp>
    <comp name="--.HNZ">
      <acc value="0.0312526361" flag="0"/>
      <vel value="0.0086795267" flag="0"/>
      <psa03 value="0.0254653515" flag="0"/>
      <psa10 value="0.0097511316" flag="0"/>
      <psa30 value="0.0004215179" flag="0"/>
    </comp>
  </station>
  <station code="BGKT" name="BGKT" netid="KO" insttype="CMG-3ESP" commtype="DIG" lat="41.181" lon="28.773">
    <comp name="--.HHZ">
      <acc value="0.0040284532" flag="0"/>
      <vel value="0.0000842339" flag="0"/>
      <psa03 value="0.0001860744" flag="0"/>
      <psa10 value="0.0000188282" flag="0"/>
      <psa30 value="0.0000040743" flag="0"/>
    </comp>
    <comp name="--.HHE">
      <acc value="0.0699808328" flag="0"/>
      <vel value="0.0070486976" flag="0"/>
      <psa03 value="0.0270844486" flag="0"/>
      <psa10 value="0.0028081939" flag="0"/>
      <psa30 value="0.0003244651" flag="0"/>
    </comp>
    <comp name="--.HHN">
      <acc value="0.0370269803" flag="0"/>
      <vel value="0.0047736214" flag="0"/>
      <psa03 value="0.0253469168" flag="0"/>
      <psa10 value="0.0023902959" flag="0"/>
      <psa30 value="0.0002911605" flag="0"/>
    </comp>
  </station>
  <station code="BOTS" name="BOTS" netid="KO" insttype="CMG-6T" commtype="DIG" lat="40.9902" lon="27.981">
    <comp name="--.HHN">
      <acc value="0.0419376794" flag="0"/>
      <vel value="0.0245333589" flag="0"/>
      <psa03 value="0.0822874301" flag="0"/>
      <psa10 value="0.0266735292" flag="0"/>
      <psa30 value="0.0022676754" flag="0"/>
    </comp>
    <comp name="--.HHZ">
      <acc value="0.0129602012" flag="0"/>
      <vel value="0.0034688975" flag="0"/>
      <psa03 value="0.0220586375" flag="0"/>
      <psa10 value="0.0029057677" flag="0"/>
      <psa30 value="0.0002670309" flag="0"/>
    </comp>
    <comp name="--.HHE">
      <acc value="0.0183967383" flag="0"/>
      <vel value="0.0058246722" flag="0"/>
      <psa03 value="0.0336949570" flag="0"/>
      <psa10 value="0.0042037088" flag="0"/>
      <psa30 value="0.0003588967" flag="0"/>
    </comp>
  </station>
  <station code="BRGA" name="BRGA" netid="KO" insttype="CMG-5T" commtype="DIG" lat="40.8846" lon="29.065">
    <comp name="--.HNE">
      <acc value="0.0673681760" flag="0"/>
      <vel value="0.0165109229" flag="0"/>
      <psa03 value="0.0781868229" flag="0"/>
      <psa10 value="0.0166094141" flag="0"/>
      <psa30 value="0.0008851873" flag="0"/>
    </comp>
    <comp name="--.HNN">
      <acc value="0.0866765219" flag="0"/>
      <vel value="0.0238088914" flag="0"/>
      <psa03 value="0.1153680996" flag="0"/>
      <psa10 value="0.0201606183" flag="0"/>
      <psa30 value="0.0008837320" flag="0"/>
    </comp>
    <comp name="--.HNZ">
      <acc value="0.0932732834" flag="0"/>
      <vel value="0.0146089501" flag="0"/>
      <psa03 value="0.0778019688" flag="0"/>
      <psa10 value="0.0078613097" flag="0"/>
      <psa30 value="0.0006438522" flag="0"/>
    </comp>
  </station>
  <station code="CADB" name="CADB" netid="KO" insttype="SA10" commtype="DIG" lat="40.9534" lon="29.083">
    <comp name="--.HNE">
      <acc value="0.3392288476" flag="0"/>
      <vel value="0.0565228845" flag="0"/>
      <psa03 value="0.0566126796" flag="0"/>
      <psa10 value="0.0101852219" flag="0"/>
      <psa30 value="0.0007551102" flag="0"/>
    </comp>
    <comp name="--.HNN">
      <acc value="0.2837494106" flag="0"/>
      <vel value="0.0471419329" flag="0"/>
      <psa03 value="0.0529838091" flag="0"/>
      <psa10 value="0.0066349056" flag="0"/>
      <psa30 value="0.0008574732" flag="0"/>
    </comp>
    <comp name="--.HNZ">
      <acc value="0.1312983537" flag="0"/>
      <vel value="0.0102928158" flag="0"/>
      <psa03 value="0.0211621503" flag="0"/>
      <psa10 value="0.0062355550" flag="0"/>
      <psa30 value="0.0003327513" flag="0"/>
    </comp>
  </station>
  <station code="CYAG" name="CYAG" netid="KO" insttype="SA10" commtype="DIG" lat="40.4924" lon="27.9761">
    <comp name="--.HNN">
      <acc value="0.0713095128" flag="0"/>
      <vel value="0.0115837622" flag="0"/>
      <psa03 value="0.0350359396" flag="0"/>
      <psa10 value="0.0028277104" flag="0"/>
      <psa30 value="0.0003629501" flag="0"/>
    </comp>
    <comp name="--.HNZ">
      <acc value="0.0456627684" flag="0"/>
      <vel value="0.0074475940" flag="0"/>
      <psa03 value="0.0248287576" flag="0"/>
      <psa10 value="0.0017092302" flag="0"/>
      <psa30 value="0.0003116814" flag="0"/>
    </comp>
    <comp name="--.HNE">
      <acc value="0.0789327737" flag="0"/>
      <vel value="0.0124983672" flag="0"/>
      <psa03 value="0.0541590938" flag="0"/>
      <psa10 value="0.0028176983" flag="0"/>
      <psa30 value="0.0002457105" flag="0"/>
    </comp>
  </station>
  <station code="DGNL" name="DGNL" netid="KO" insttype="SA10" commtype="DIG" lat="40.5209" lon="27.7484">
    <comp name="--.HNZ">
      <acc value="0.0148027727" flag="0"/>
      <vel value="0.0034717217" flag="0"/>
      <psa03 value="0.0099162201" flag="0"/>
      <psa10 value="0.0041604065" flag="0"/>
      <psa30 value="0.0003220868" flag="0"/>
    </comp>
    <comp name="--.HNE">
      <acc value="0.0418222252" flag="0"/>
      <vel value="0.0070614601" flag="0"/>
      <psa03 value="0.0245665737" flag="0"/>
      <psa10 value="0.0033080835" flag="0"/>
      <psa30 value="0.0002013539" flag="0"/>
    </comp>
    <comp name="--.HNN">
      <acc value="0.0456774551" flag="0"/>
      <vel value="0.0068759124" flag="0"/>
      <psa03 value="0.0239982053" flag="0"/>
      <psa10 value="0.0031889768" flag="0"/>
      <psa30 value="0.0008159635" flag="0"/>
    </comp>
  </station>
  <station code="DST" name="DST" netid="KO" insttype="CMG-5T" commtype="DIG" lat="39.6041" lon="28.6267">
    <comp name="--.HNE">
      <acc value="0.0612690258" flag="0"/>
      <vel value="0.0207766049" flag="0"/>
      <psa03 value="0.1074297324" flag="0"/>
      <psa10 value="0.0219823822" flag="0"/>
      <psa30 value="0.0010571293" flag="0"/>
    </comp>
    <comp name="--.HNZ">
      <acc value="0.0461808626" flag="0"/>
      <vel value="0.0222488489" flag="0"/>
      <psa03 value="0.1122355535" flag="0"/>
      <psa10 value="0.0105334145" flag="0"/>
      <psa30 value="0.0005223527" flag="0"/>
    </comp>
    <comp name="--.HNN">
      <acc value="0.0494617595" flag="0"/>
      <vel value="0.0241662567" flag="0"/>
      <psa03 value="0.0931957614" flag="0"/>
      <psa10 value="0.0268045686" flag="0"/>
      <psa30 value="0.0010476919" flag="0"/>
    </comp>
  </station>
  <station code="EDC" name="EDC" netid="KO" insttype="CMG-3T" commtype="DIG" lat="40.3465" lon="27.8618">
    <comp name="--.HHE">
      <acc value="0.0402221311" flag="0"/>
      <vel value="0.0142257102" flag="0"/>
      <psa03 value="0.0529799578" flag="0"/>
      <psa10 value="0.0171480249" flag="0"/>
      <psa30 value="0.0004426259" flag="0"/>
    </comp>
    <comp name="--.HHN">
      <acc value="0.0497053550" flag="0"/>
      <vel value="0.0143415308" flag="0"/>
      <psa03 value="0.0675733669" flag="0"/>
      <psa10 value="0.0163899325" flag="0"/>
      <psa30 value="0.0006039870" flag="0"/>
    </comp>
    <comp name="--.HHZ">
      <acc value="0.0273237777" flag="0"/>
      <vel value="0.0061503338" flag="0"/>
      <psa03 value="0.0222930676" flag="0"/>
      <psa10 value="0.0045425517" flag="0"/>
      <psa30 value="0.0002412647" flag="0"/>
    </comp>
  </station>
  <station code="ESKY" name="ESKY" netid="KO" insttype="CMG-5T" commtype="DIG" lat="40.5918" lon="28.9071">
    <comp name="--.HNN">
      <acc value="0.9118512698" flag="0"/>
      <vel value="0.2764334109" flag="0"/>
      <psa03 value="0.9054015045" flag="0"/>
      <psa10 value="0.1555196759" flag="0"/>
      <psa30 value="0.0114601168" flag="0"/>
    </comp>
    <comp name="--.HNZ">
      <acc value="0.4074896159" flag="0"/>
      <vel value="0.1362576201" flag="0"/>
      <psa03 value="0.9607357698" flag="0"/>
      <psa10 value="0.0700324229" flag="0"/>
      <psa30 value="0.0047045215" flag="0"/>
    </comp>
    <comp name="--.HNE">
      <acc value="0.7270168851" flag="0"/>
      <vel value="0.3224835173" flag="0"/>
      <psa03 value="1.0056502520" flag="0"/>
      <psa10 value="0.1527539942" flag="0"/>
      <psa30 value="0.0109310892" flag="0"/>
    </comp>
  </station>
  <station code="ESNS" name="ESNS" netid="KO" insttype="SA10" commtype="DIG" lat="40.6183" lon="28.9532">
    <comp name="--.HNE">
      <acc value="0.5513112912" flag="0"/>
      <vel value="0.2382459283" flag="0"/>
      <psa03 value="0.8602459430" flag="0"/>
      <psa10 value="0.1605463436" flag="0"/>
      <psa30 value="0.0086147606" flag="0"/>
    </comp>
    <comp name="--.HNN">
      <acc value="0.4678318684" flag="0"/>
      <vel value="0.2761878893" flag="0"/>
      <psa03 value="1.1356327678" flag="0"/>
      <psa10 value="0.1913990805" flag="0"/>
      <psa30 value="0.0113519917" flag="0"/>
    </comp>
    <comp name="--.HNZ">
      <acc value="0.4044143734" flag="0"/>
      <vel value="0.1402384615" flag="0"/>
      <psa03 value="0.8203081737" flag="0"/>
      <psa10 value="0.0431980830" flag="0"/>
      <psa30 value="0.0030429430" flag="0"/>
    </comp>
  </station>
  <station code="GEMS" name="GEMS" netid="KO" insttype="SA10" commtype="DIG" lat="40.4231" lon="29.1526">
    <comp name="--.HNZ">
      <acc value="0.9567340883" flag="0"/>
      <vel value="0.2126466422" flag="0"/>
      <psa03 value="0.7994933133" flag="0"/>
      <psa10 value="0.0730833842" flag="0"/>
      <psa30 value="0.0050618831" flag="0"/>
    </comp>
    <comp name="--.HNN">
      <acc value="1.3984815607" flag="0"/>
      <vel value="0.5574140494" flag="0"/>
      <psa03 value="5.4351192110" flag="0"/>
      <psa10 value="0.1445649389" flag="0"/>
      <psa30 value="0.0130823174" flag="0"/>
    </comp>
  </station>
  <station code="GPA" name="GPA" netid="KO" insttype="CMG-5T" commtype="DIG" lat="40.2911" lon="30.3171">
    <comp name="--.HNE">
      <acc value="0.0401604137" flag="0"/>
      <vel value="0.0188317761" flag="0"/>
      <psa03 value="0.1158117678" flag="0"/>
      <psa10 value="0.0094021834" flag="0"/>
      <psa30 value="0.0008038648" flag="0"/>
    </comp>
    <comp name="--.HNN">
      <acc value="0.0439117002" flag="0"/>
      <vel value="0.0162215968" flag="0"/>
      <psa03 value="0.0771707771" flag="0"/>
      <psa10 value="0.0080527774" flag="0"/>
      <psa30 value="0.0015283292" flag="0"/>
    </comp>
    <comp name="--.HNZ">
      <acc value="0.0217834412" flag="0"/>
      <vel value="0.0092335213" flag="0"/>
      <psa03 value="0.0485821323" flag="0"/>
      <psa10 value="0.0083782531" flag="0"/>
      <psa30 value="0.0006231907" flag="0"/>
    </comp>
  </station>
  <station code="GUZE" name="GUZE" netid="KO" insttype="SA10" commtype="DIG" lat="40.9998" lon="28.5074">
    <comp name="--.HNN">
      <acc value="0.0880449546" flag="0"/>
      <vel value="0.0237585236" flag="0"/>
      <psa03 value="0.1151417242" flag="0"/>
      <psa10 value="0.0130121925" flag="0"/>
      <psa30 value="0.0010926412" flag="0"/>
    </comp>
    <comp name="--.HNZ">
      <acc value="0.0517213873" flag="0"/>
      <vel value="0.0090272642" flag="0"/>
      <psa03 value="0.0305766599" flag="0"/>
      <psa10 value="0.0039672917" flag="0"/>
      <psa30 value="0.0004440012" flag="0"/>
    </comp>
    <comp name="--.HNE">
      <acc value="0.0933650197" flag="0"/>
      <vel value="0.0238700895" flag="0"/>
      <psa03 value="0.1607150694" flag="0"/>
      <psa10 value="0.0135530914" flag="0"/>
      <psa30 value="0.0010085775" flag="0"/>
    </comp>
  </station>
  <station code="HPSA" name="HPSA" netid="KO" insttype="SA10" commtype="DIG" lat="41.0109" lon="29.0072">
    <comp name="--.HNN">
      <acc value="0.1583085453" flag="0"/>
      <vel value="0.0769882482" flag="0"/>
      <psa03 value="0.7611228664" flag="0"/>
      <psa10 value="0.0181355410" flag="0"/>
      <psa30 value="0.0028109472" flag="0"/>
    </comp>
    <comp name="--.HNE">
      <acc value="0.1842871497" flag="0"/>
      <vel value="0.0751461980" flag="0"/>
      <psa03 value="0.8227251009" flag="0"/>
      <psa10 value="0.0203130293" flag="0"/>
      <psa30 value="0.0025416892" flag="0"/>
    </comp>
    <comp name="--.HNZ">
      <acc value="0.0649162579" flag="0"/>
      <vel value="0.0154269875" flag="0"/>
      <psa03 value="0.0765788938" flag="0"/>
      <psa10 value="0.0052664742" flag="0"/>
      <psa30 value="0.0005010236" flag="0"/>
    </comp>
  </station>
  <station code="HRTX" name="HRTX" netid="KO" insttype="CMG-3ESP" commtype="DIG" lat="40.8009" lon="29.6729">
    <comp name="--.HHE">
      <acc value="0.0536295120" flag="0"/>
      <vel value="0.0212941444" flag="0"/>
      <psa03 value="0.0702979805" flag="0"/>
      <psa10 value="0.0105979279" flag="0"/>
      <psa30 value="0.0009047448" flag="0"/>
    </comp>
  </station>
  <station code="IMRL" name="IMRL" netid="KO" insttype="SA10" commtype="DIG" lat="40.5554" lon="28.527">
    <comp name="--.HNN">
      <acc value="0.2868195777" flag="0"/>
      <vel value="0.0980961869" flag="0"/>
      <psa03 value="0.5261950452" flag="0"/>
      <psa10 value="0.0408190605" flag="0"/>
      <psa30 value="0.0029424398" flag="0"/>
    </comp>
    <comp name="--.HNE">
      <acc value="0.3556555020" flag="0"/>
      <vel value="0.1079397526" flag="0"/>
      <psa03 value="0.4240394845" flag="0"/>
      <psa10 value="0.0363123415" flag="0"/>
      <psa30 value="0.0025339070" flag="0"/>
    </comp>
    <comp name="--.HNZ">
      <acc value="0.2539168441" flag="0"/>
      <vel value="0.0378826246" flag="0"/>
      <psa03 value="0.1173168622" flag="0"/>
      <psa10 value="0.0105352241" flag="0"/>
      <psa30 value="0.0009313895" flag="0"/>
    </comp>
  </station>
  <station code="ISK" name="ISK" netid="KO" insttype="CMG-3T" commtype="DIG" lat="41.0615" lon="29.0592">
    <comp name="--.HHE">
      <acc value="0.0367259672" flag="0"/>
      <vel value="0.0081520005" flag="0"/>
      <psa03 value="0.0229120194" flag="0"/>
      <psa10 value="0.0052949188" flag="0"/>
      <psa30 value="0.0004291780" flag="0"/>
    </comp>
    <comp name="--.HHN">
      <acc value="0.0302294808" flag="0"/>
      <vel value="0.0081445247" flag="0"/>
      <psa03 value="0.0338960037" flag="0"/>
      <psa10 value="0.0039693016" flag="0"/>
      <psa30 value="0.0002892383" flag="0"/>
    </comp>
    <comp name="--.HHZ">
      <acc value="0.0404117482" flag="0"/>
      <vel value="0.0139968646" flag="0"/>
      <psa03 value="0.0450512342" flag="0"/>
      <psa10 value="0.0066622529" flag="0"/>
      <psa30 value="0.0005322608" flag="0"/>
    </comp>
  </station>
  <station code="IZI" name="IZI" netid="KO" insttype="CMG-5T" commtype="DIG" lat="40.3483" lon="29.4612">
    <comp name="--.HNE">
      <acc value="0.4841678081" flag="0"/>
      <vel value="0.1467352982" flag="0"/>
      <psa03 value="0.7049180073" flag="0"/>
      <psa10 value="0.0497152851" flag="0"/>
      <psa30 value="0.0037197636" flag="0"/>
    </comp>
    <comp name="--.HNN">
      <acc value="0.9609700358" flag="0"/>
      <vel value="0.2389202053" flag="0"/>
      <psa03 value="0.9958465641" flag="0"/>
      <psa10 value="0.1253118835" flag="0"/>
      <psa30 value="0.0086859687" flag="0"/>
    </comp>
    <comp name="--.HNZ">
      <acc value="0.5387045518" flag="0"/>
      <vel value="0.1383088555" flag="0"/>
      <psa03 value="0.5625590083" flag="0"/>
      <psa10 value="0.0512861368" flag="0"/>
      <psa30 value="0.0037218381" flag="0"/>
    </comp>
  </station>
  <station code="KAVV" name="KAVV" netid="KO" insttype="CMG-3ESPC" commtype="DIG" lat="41.0638" lon="29.06">
    <comp name="--.HHE">
      <acc value="0.1011939616" flag="0"/>
      <vel value="0.0358693491" flag="0"/>
      <psa03 value="0.1006911528" flag="0"/>
      <psa10 value="0.0087950100" flag="0"/>
      <psa30 value="0.0007858755" flag="0"/>
    </comp>
    <comp name="--.HHN">
      <acc value="0.0847265950" flag="0"/>
      <vel value="0.0238605738" flag="0"/>
      <psa03 value="0.0950634789" flag="0"/>
      <psa10 value="0.0047796718" flag="0"/>
      <psa30 value="0.0004733286" flag="0"/>
    </comp>
    <comp name="--.HHZ">
      <acc value="0.0703974677" flag="0"/>
      <vel value="0.0198432506" flag="0"/>
      <psa03 value="0.0912605414" flag="0"/>
      <psa10 value="0.0086900027" flag="0"/>
      <psa30 value="0.0006752620" flag="0"/>
    </comp>
  </station>
  <station code="KCTX" name="KCTX" netid="KO" insttype="CMG-3ESP" commtype="DIG" lat="40.2626" lon="28.3353">
    <comp name="--.HHZ">
      <acc value="0.0341480629" flag="0"/>
      <vel value="0.0052410873" flag="0"/>
      <psa03 value="0.0179797227" flag="0"/>
      <psa10 value="0.0034560833" flag="0"/>
      <psa30 value="0.0002145660" flag="0"/>
    </comp>
    <comp name="--.HHN">
      <acc value="0.0309982376" flag="0"/>
      <vel value="0.0086068337" flag="0"/>
      <psa03 value="0.0553880495" flag="0"/>
      <psa10 value="0.0048207318" flag="0"/>
      <psa30 value="0.0004385515" flag="0"/>
    </comp>
  </station>
  <station code="KRTA" name="KRTA" netid="KO" insttype="SA10" commtype="DIG" lat="40.9003" lon="29.1544">
    <comp name="--.HNN">
      <acc value="0.4301806025" flag="0"/>
      <vel value="0.0807025889" flag="0"/>
      <psa03 value="0.3520424561" flag="0"/>
      <psa10 value="0.0202564845" flag="0"/>
      <psa30 value="0.0017994087" flag="0"/>
    </comp>
    <comp name="--.HNE">
      <acc value="0.3234690724" flag="0"/>
      <vel value="0.0746913063" flag="0"/>
      <psa03 value="0.9135258821" flag="0"/>
      <psa10 value="0.0275809878" flag="0"/>
      <psa30 value="0.0021160440" flag="0"/>
    </comp>
    <comp name="--.HNZ">
      <acc value="0.1883207269" flag="0"/>
      <vel value="0.0277225995" flag="0"/>
      <psa03 value="0.0543324188" flag="0"/>
      <psa10 value="0.0097343102" flag="0"/>
