<?xml version="1.0" encoding="UTF-8" standalone="yes"?>
<!DOCTYPE earthquake SYSTEM "stationlist.dtd">
<stationlist created="" xmlns="ch.ethz.sed.shakemap.usgs.xml">
  <station code="ADVT" name="ADVT" netid="KO" insttype="CMG-3ESP" commtype="DIG" lat="40.4332" lon="29.7383">
    <comp name="--.HHZ">
      <acc value="0.0667131644" flag="0"/>
      <vel value="0.0181822734" flag="0"/>
      <psa03 value="0.0623141518" flag="0"/>
      <psa10 value="0.0085046828" flag="0"/>
      <psa30 value="0.0005114675" flag="0"/>
    </comp>
  </station>
  <station code="ARMU" name="ARMU" netid="KO" insttype="SA10" commtype="DIG" lat="40.5088" lon="28.838">
    <comp name="--.HNE">
      <acc value="1.0082873074" flag="0"/>
      <vel value="0.2061774540" flag="0"/>
      <psa03 value="2.3180348078" flag="0"/>
      <psa10 value="0.0584417776" flag="0"/>
      <psa30 value="0.0045381277" flag="0"/>
    </comp>
    <comp name="--.HNZ">
      <acc value="1.0619612064" flag="0"/>
      <vel value="0.0893122801" flag="0"/>
      <psa03 value="0.4917752008" flag="0"/>
      <psa10 value="0.0148717596" flag="0"/>
      <psa30 value="0.0018178277" flag="0"/>
    </comp>
    <comp name="--.HNN">
      <acc value="1.0530447835" flag="0"/>
      <vel value="0.4227264739" flag="0"/>
      <psa03 value="2.5820416073" flag="0"/>
      <psa10 value="0.1207905693" flag="0"/>
      <psa30 value="0.0098446400" flag="0"/>
    </comp>
  </station>
  <station code="ATAM" name="ATAM" netid="KO" insttype="SA10" commtype="DIG" lat="40.9688" lon="28.875">
    <comp name="--.HNE">
      <acc value="0.0468708176" flag="0"/>
      <vel value="0.0248974701" flag="0"/>
      <psa03 value="0.1593035911" flag="0"/>
      <psa10 value="0.0145008813" flag="0"/>
      <psa30 value="0.0013629212" flag="0"/>
    </comp>
    <comp name="--.HNN">
      <acc value="0.0382293075" flag="0"/>
      <vel value="0.0139797543" flag="0"/>
      <psa03 value="0.0858547733" flag="0"/>
      <psa10 value="0.0153289630" flag="0"/>
      <psa30 value="0.0015757255" flag="0"/>
    </comp>
    <comp name="--.HNZ">
      <acc value="0.0312526356" flag="0"/>
      <vel value="0.0086795301" flag="0"/>
      <psa03 value="0.0254653515" flag="0"/>
      <psa10 value="0.0097511316" flag="0"/>
      <psa30 value="0.0004208950" flag="0"/>
    </comp>
  </station>
  <station code="BGKT" name="BGKT" netid="KO" insttype="CMG-3ESP" commtype="DIG" lat="41.181" lon="28.773">
    <comp name="--.HHZ">
      <acc value="0.0040284395" flag="0"/>
      <vel value="0.0000842445" flag="0"/>
      <psa03 value="0.0001860583" flag="0"/>
      <psa10 value="0.0000186818" flag="0"/>
      <psa30 value="0.0000045781" flag="0"/>
    </comp>
    <comp name="--.HHE">
      <acc value="0.0699808245" flag="0"/>
      <vel value="0.0070489169" flag="0"/>
      <psa03 value="0.0270844489" flag="0"/>
      <psa10 value="0.0028081935" flag="0"/>
      <psa30 value="0.0003242970" flag="0"/>
    </comp>
    <comp name="--.HHN">
      <acc value="0.0370269901" flag="0"/>
      <vel value="0.0047736215" flag="0"/>
      <psa03 value="0.0253469168" flag="0"/>
      <psa10 value="0.0023902960" flag="0"/>
      <psa30 value="0.0002911555" flag="0"/>
    </comp>
  </station>
  <station code="BOTS" name="BOTS" netid="KO" insttype="CMG-6T" commtype="DIG" lat="40.9902" lon="27.981">
    <comp name="--.HHN">
      <acc value="0.0419376836" flag="0"/>
      <vel value="0.0245333622" flag="0"/>
      <psa03 value="0.0822874301" flag="0"/>
      <psa10 value="0.0266735292" flag="0"/>
      <psa30 value="0.0022676647" flag="0"/>
    </comp>
    <comp name="--.HHZ">
      <acc value="0.0129602076" flag="0"/>
      <vel value="0.0034688969" flag="0"/>
      <psa03 value="0.0220586375" flag="0"/>
      <psa10 value="0.0029057677" flag="0"/>
      <psa30 value="0.0002669955" flag="0"/>
    </comp>
    <comp name="--.HHE">
      <acc value="0.0183967397" flag="0"/>
      <vel value="0.0058246690" flag="0"/>
      <psa03 value="0.0336949570" flag="0"/>
      <psa10 value="0.0042037087" flag="0"/>
      <psa30 value="0.0003588874" flag="0"/>
    </comp>
  </station>
  <station code="BRGA" name="BRGA" netid="KO" insttype="CMG-5T" commtype="DIG" lat="40.8846" lon="29.065">
    <comp name="--.HNN">
      <acc value="0.0866765107" flag="0"/>
      <vel value="0.0238088973" flag="0"/>
      <psa03 value="0.1153680996" flag="0"/>
      <psa10 value="0.0201606062" flag="0"/>
      <psa30 value="0.0008826769" flag="0"/>
    </comp>
    <comp name="--.HNE">
      <acc value="0.0673681914" flag="0"/>
      <vel value="0.0165109140" flag="0"/>
      <psa03 value="0.0781868229" flag="0"/>
      <psa10 value="0.0166094057" flag="0"/>
      <psa30 value="0.0008895365" flag="0"/>
    </comp>
    <comp name="--.HNZ">
      <acc value="0.0932732921" flag="0"/>
      <vel value="0.0146089515" flag="0"/>
      <psa03 value="0.0778019688" flag="0"/>
      <psa10 value="0.0078613029" flag="0"/>
      <psa30 value="0.0006396005" flag="0"/>
    </comp>
  </station>
  <station code="CADB" name="CADB" netid="KO" insttype="SA10" commtype="DIG" lat="40.9534" lon="29.083">
    <comp name="--.HNN">
      <acc value="0.2837494099" flag="0"/>
      <vel value="0.0471419271" flag="0"/>
      <psa03 value="0.0529838091" flag="0"/>
      <psa10 value="0.0066349019" flag="0"/>
      <psa30 value="0.0008552870" flag="0"/>
    </comp>
    <comp name="--.HNE">
      <acc value="0.3392288483" flag="0"/>
      <vel value="0.0565228842" flag="0"/>
      <psa03 value="0.0566126796" flag="0"/>
      <psa10 value="0.0101852238" flag="0"/>
      <psa30 value="0.0007553047" flag="0"/>
    </comp>
    <comp name="--.HNZ">
      <acc value="0.1312983538" flag="0"/>
      <vel value="0.0102928134" flag="0"/>
      <psa03 value="0.0211621503" flag="0"/>
      <psa10 value="0.0062355577" flag="0"/>
      <psa30 value="0.0003312034" flag="0"/>
    </comp>
  </station>
  <station code="CYAG" name="CYAG" netid="KO" insttype="SA10" commtype="DIG" lat="40.4924" lon="27.9761">
    <comp name="--.HNZ">
      <acc value="0.0456627685" flag="0"/>
      <vel value="0.0074475930" flag="0"/>
      <psa03 value="0.0248287576" flag="0"/>
      <psa10 value="0.0017092302" flag="0"/>
      <psa30 value="0.0003126629" flag="0"/>
    </comp>
    <comp name="--.HNN">
      <acc value="0.0713095139" flag="0"/>
      <vel value="0.0115837634" flag="0"/>
      <psa03 value="0.0350359396" flag="0"/>
      <psa10 value="0.0028277105" flag="0"/>
      <psa30 value="0.0003628843" flag="0"/>
    </comp>
    <comp name="--.HNE">
      <acc value="0.0789327751" flag="0"/>
      <vel value="0.0124983645" flag="0"/>
      <psa03 value="0.0541590938" flag="0"/>
      <psa10 value="0.0028176984" flag="0"/>
      <psa30 value="0.0002459669" flag="0"/>
    </comp>
  </station>
  <station code="DGNL" name="DGNL" netid="KO" insttype="SA10" commtype="DIG" lat="40.5209" lon="27.7484">
    <comp name="--.HNE">
      <acc value="0.0418222246" flag="0"/>
      <vel value="0.0070614629" flag="0"/>
      <psa03 value="0.0245665737" flag="0"/>
      <psa10 value="0.0033080835" flag="0"/>
      <psa30 value="0.0002026413" flag="0"/>
    </comp>
    <comp name="--.HNN">
      <acc value="0.0456774539" flag="0"/>
      <vel value="0.0068759142" flag="0"/>
      <psa03 value="0.0239982053" flag="0"/>
      <psa10 value="0.0031889767" flag="0"/>
      <psa30 value="0.0008158355" flag="0"/>
    </comp>
    <comp name="--.HNZ">
      <acc value="0.0148027728" flag="0"/>
      <vel value="0.0034717183" flag="0"/>
      <psa03 value="0.0099162201" flag="0"/>
      <psa10 value="0.0041604065" flag="0"/>
      <psa30 value="0.0003220105" flag="0"/>
    </comp>
  </station>
  <station code="DST" name="DST" netid="KO" insttype="CMG-5T" commtype="DIG" lat="39.6041" lon="28.6267">
    <comp name="--.HNE">
      <acc value="0.0612690306" flag="0"/>
      <vel value="0.0207766034" flag="0"/>
      <psa03 value="0.1074297324" flag="0"/>
      <psa10 value="0.0219823824" flag="0"/>
      <psa30 value="0.0010569520" flag="0"/>
    </comp>
    <comp name="--.HNN">
      <acc value="0.0494617526" flag="0"/>
      <vel value="0.0241662655" flag="0"/>
      <psa03 value="0.0931957614" flag="0"/>
      <psa10 value="0.0268045670" flag="0"/>
      <psa30 value="0.0010513775" flag="0"/>
    </comp>
    <comp name="--.HNZ">
      <acc value="0.0461808666" flag="0"/>
      <vel value="0.0222488588" flag="0"/>
      <psa03 value="0.1122355535" flag="0"/>
      <psa10 value="0.0105334148" flag="0"/>
      <psa30 value="0.0005209701" flag="0"/>
    </comp>
  </station>
  <station code="EDC" name="EDC" netid="KO" insttype="CMG-3T" commtype="DIG" lat="40.3465" lon="27.8618">
    <comp name="--.HHE">
      <acc value="0.0402221307" flag="0"/>
      <vel value="0.0142257100" flag="0"/>
      <psa03 value="0.0529799578" flag="0"/>
      <psa10 value="0.0171480249" flag="0"/>
      <psa30 value="0.0004426271" flag="0"/>
    </comp>
    <comp name="--.HHN">
      <acc value="0.0497053549" flag="0"/>
      <vel value="0.0143415312" flag="0"/>
      <psa03 value="0.0675733669" flag="0"/>
      <psa10 value="0.0163899325" flag="0"/>
      <psa30 value="0.0006040031" flag="0"/>
    </comp>
    <comp name="--.HHZ">
      <acc value="0.0273237778" flag="0"/>
      <vel value="0.0061503340" flag="0"/>
      <psa03 value="0.0222930676" flag="0"/>
      <psa10 value="0.0045425517" flag="0"/>
      <psa30 value="0.0002412550" flag="0"/>
    </comp>
  </station>
  <station code="ESKY" name="ESKY" netid="KO" insttype="CMG-5T" commtype="DIG" lat="40.5918" lon="28.9071">
    <comp name="--.HNE">
      <acc value="0.7270168475" flag="0"/>
      <vel value="0.3224835236" flag="0"/>
      <psa03 value="1.0056502520" flag="0"/>
      <psa10 value="0.1527539666" flag="0"/>
      <psa30 value="0.0109265579" flag="0"/>
    </comp>
    <comp name="--.HNZ">
      <acc value="0.4074895747" flag="0"/>
      <vel value="0.1362576341" flag="0"/>
      <psa03 value="0.9607357698" flag="0"/>
      <psa10 value="0.0700323867" flag="0"/>
      <psa30 value="0.0047000945" flag="0"/>
    </comp>
    <comp name="--.HNN">
      <acc value="0.9118513450" flag="0"/>
      <vel value="0.2764333985" flag="0"/>
      <psa03 value="0.9054015045" flag="0"/>
      <psa10 value="0.1555196921" flag="0"/>
      <psa30 value="0.0114507545" flag="0"/>
    </comp>
  </station>
  <station code="ESNS" name="ESNS" netid="KO" insttype="SA10" commtype="DIG" lat="40.6183" lon="28.9532">
    <comp name="--.HNE">
      <acc value="0.5513112924" flag="0"/>
      <vel value="0.2382459276" flag="0"/>
      <psa03 value="0.8602459430" flag="0"/>
      <psa10 value="0.1605463595" flag="0"/>
      <psa30 value="0.0086151280" flag="0"/>
    </comp>
    <comp name="--.HNN">
      <acc value="0.4678318685" flag="0"/>
      <vel value="0.2761878848" flag="0"/>
      <psa03 value="1.1356327678" flag="0"/>
      <psa10 value="0.1913990612" flag="0"/>
      <psa30 value="0.0113505587" flag="0"/>
    </comp>
    <comp name="--.HNZ">
      <acc value="0.4044143726" flag="0"/>
      <vel value="0.1402384597" flag="0"/>
      <psa03 value="0.8203081737" flag="0"/>
      <psa10 value="0.0431980804" flag="0"/>
      <psa30 value="0.0030415187" flag="0"/>
    </comp>
  </station>
  <station code="GEMS" name="GEMS" netid="KO" insttype="SA10" commtype="DIG" lat="40.4231" lon="29.1526">
    <comp name="--.HNZ">
      <acc value="0.9567340879" flag="0"/>
      <vel value="0.2126466439" flag="0"/>
      <psa03 value="0.7994933132" flag="0"/>
      <psa10 value="0.0730834083" flag="0"/>
      <psa30 value="0.0050618519" flag="0"/>
    </comp>
    <comp name="--.HNN">
      <acc value="1.3984815613" flag="0"/>
      <vel value="0.5574140478" flag="0"/>
      <psa03 value="5.4351192110" flag="0"/>
      <psa10 value="0.1445649116" flag="0"/>
      <psa30 value="0.0130849599" flag="0"/>
    </comp>
  </station>
  <station code="GPA" name="GPA" netid="KO" insttype="CMG-5T" commtype="DIG" lat="40.2911" lon="30.3171">
    <comp name="--.HNN">
      <acc value="0.0439117040" flag="0"/>
      <vel value="0.0162215905" flag="0"/>
      <psa03 value="0.0771707771" flag="0"/>
      <psa10 value="0.0080527773" flag="0"/>
      <psa30 value="0.0015290933" flag="0"/>
    </comp>
    <comp name="--.HNZ">
      <acc value="0.0217834462" flag="0"/>
      <vel value="0.0092335393" flag="0"/>
      <psa03 value="0.0485821323" flag="0"/>
      <psa10 value="0.0083782545" flag="0"/>
      <psa30 value="0.0006236301" flag="0"/>
    </comp>
    <comp name="--.HNE">
      <acc value="0.0401604161" flag="0"/>
      <vel value="0.0188317987" flag="0"/>
      <psa03 value="0.1158117678" flag="0"/>
      <psa10 value="0.0094021908" flag="0"/>
      <psa30 value="0.0008031359" flag="0"/>
    </comp>
  </station>
  <station code="GUZE" name="GUZE" netid="KO" insttype="SA10" commtype="DIG" lat="40.9998" lon="28.5074">
    <comp name="--.HNE">
      <acc value="0.0933650213" flag="0"/>
      <vel value="0.0238700892" flag="0"/>
      <psa03 value="0.1607150694" flag="0"/>
      <psa10 value="0.0135530915" flag="0"/>
      <psa30 value="0.0010083110" flag="0"/>
    </comp>
    <comp name="--.HNZ">
      <acc value="0.0517213877" flag="0"/>
      <vel value="0.0090272630" flag="0"/>
      <psa03 value="0.0305766599" flag="0"/>
      <psa10 value="0.0039672917" flag="0"/>
      <psa30 value="0.0004440193" flag="0"/>
    </comp>
    <comp name="--.HNN">
      <acc value="0.0880449538" flag="0"/>
      <vel value="0.0237585226" flag="0"/>
      <psa03 value="0.1151417242" flag="0"/>
      <psa10 value="0.0130121918" flag="0"/>
      <psa30 value="0.0010927716" flag="0"/>
    </comp>
  </station>
  <station code="HPSA" name="HPSA" netid="KO" insttype="SA10" commtype="DIG" lat="41.0109" lon="29.0072">
    <comp name="--.HNN">
      <acc value="0.1583085454" flag="0"/>
      <vel value="0.0769882342" flag="0"/>
      <psa03 value="0.7611228664" flag="0"/>
      <psa10 value="0.0181355413" flag="0"/>
      <psa30 value="0.0028110413" flag="0"/>
    </comp>
    <comp name="--.HNE">
      <acc value="0.1842871496" flag="0"/>
      <vel value="0.0751461965" flag="0"/>
      <psa03 value="0.8227251009" flag="0"/>
      <psa10 value="0.0203130163" flag="0"/>
      <psa30 value="0.0025422032" flag="0"/>
    </comp>
    <comp name="--.HNZ">
      <acc value="0.0649162598" flag="0"/>
      <vel value="0.0154269870" flag="0"/>
      <psa03 value="0.0765788938" flag="0"/>
      <psa10 value="0.0052664819" flag="0"/>
      <psa30 value="0.0005012300" flag="0"/>
    </comp>
  </station>
  <station code="HRTX" name="HRTX" netid="KO" insttype="CMG-3ESP" commtype="DIG" lat="40.8009" lon="29.6729">
    <comp name="--.HHE">
      <acc value="0.0536295119" flag="0"/>
      <vel value="0.0212941430" flag="0"/>
      <psa03 value="0.0702979805" flag="0"/>
      <psa10 value="0.0105979282" flag="0"/>
      <psa30 value="0.0009047702" flag="0"/>
    </comp>
  </station>
  <station code="IMRL" name="IMRL" netid="KO" insttype="SA10" commtype="DIG" lat="40.5554" lon="28.527">
    <comp name="--.HNE">
      <acc value="0.3556555016" flag="0"/>
      <vel value="0.1079397523" flag="0"/>
      <psa03 value="0.4240394845" flag="0"/>
      <psa10 value="0.0363123412" flag="0"/>
      <psa30 value="0.0025323393" flag="0"/>
    </comp>
    <comp name="--.HNN">
      <acc value="0.2868195790" flag="0"/>
      <vel value="0.0980961864" flag="0"/>
      <psa03 value="0.5261950452" flag="0"/>
      <psa10 value="0.0408190620" flag="0"/>
      <psa30 value="0.0029408101" flag="0"/>
    </comp>
    <comp name="--.HNZ">
      <acc value="0.2539168442" flag="0"/>
      <vel value="0.0378826230" flag="0"/>
      <psa03 value="0.1173168622" flag="0"/>
      <psa10 value="0.0105352236" flag="0"/>
      <psa30 value="0.0009300107" flag="0"/>
    </comp>
  </station>
  <station code="ISK" name="ISK" netid="KO" insttype="CMG-3T" commtype="DIG" lat="41.0615" lon="29.0592">
    <comp name="--.HHE">
      <acc value="0.0367259673" flag="0"/>
      <vel value="0.0081520005" flag="0"/>
      <psa03 value="0.0229120194" flag="0"/>
      <psa10 value="0.0052949187" flag="0"/>
      <psa30 value="0.0004291838" flag="0"/>
    </comp>
    <comp name="--.HHN">
      <acc value="0.0302294808" flag="0"/>
      <vel value="0.0081445246" flag="0"/>
      <psa03 value="0.0338960037" flag="0"/>
      <psa10 value="0.0039693014" flag="0"/>
      <psa30 value="0.0002892424" flag="0"/>
    </comp>
    <comp name="--.HHZ">
      <acc value="0.0404117483" flag="0"/>
      <vel value="0.0139968649" flag="0"/>
      <psa03 value="0.0450512342" flag="0"/>
      <psa10 value="0.0066622524" flag="0"/>
      <psa30 value="0.0005322634" flag="0"/>
    </comp>
  </station>
  <station code="IZI" name="IZI" netid="KO" insttype="CMG-5T" commtype="DIG" lat="40.3483" lon="29.4612">
    <comp name="--.HNE">
      <acc value="0.4841678086" flag="0"/>
      <vel value="0.1467353131" flag="0"/>
      <psa03 value="0.7049180073" flag="0"/>
      <psa10 value="0.0497152806" flag="0"/>
      <psa30 value="0.0037191846" flag="0"/>
    </comp>
    <comp name="--.HNZ">
      <acc value="0.5387045528" flag="0"/>
      <vel value="0.1383088537" flag="0"/>
      <psa03 value="0.5625590083" flag="0"/>
      <psa10 value="0.0512861454" flag="0"/>
      <psa30 value="0.0037217723" flag="0"/>
    </comp>
    <comp name="--.HNN">
      <acc value="0.9609700387" flag="0"/>
      <vel value="0.2389202092" flag="0"/>
      <psa03 value="0.9958465641" flag="0"/>
      <psa10 value="0.1253119306" flag="0"/>
      <psa30 value="0.0086851562" flag="0"/>
    </comp>
  </station>
  <station code="KAVV" name="KAVV" netid="KO" insttype="CMG-3ESPC" commtype="DIG" lat="41.0638" lon="29.06">
    <comp name="--.HHZ">
      <acc value="0.0703974675" flag="0"/>
      <vel value="0.0198432504" flag="0"/>
      <psa03 value="0.0912605414" flag="0"/>
      <psa10 value="0.0086900022" flag="0"/>
      <psa30 value="0.0006752591" flag="0"/>
    </comp>
    <comp name="--.HHE">
      <acc value="0.1011939618" flag="0"/>
      <vel value="0.0358693498" flag="0"/>
      <psa03 value="0.1006911528" flag="0"/>
      <psa10 value="0.0087950100" flag="0"/>
      <psa30 value="0.0007858852" flag="0"/>
    </comp>
    <comp name="--.HHN">
      <acc value="0.0847265949" flag="0"/>
      <vel value="0.0238605740" flag="0"/>
      <psa03 value="0.0950634789" flag="0"/>
      <psa10 value="0.0047796708" flag="0"/>
      <psa30 value="0.0004733392" flag="0"/>
    </comp>
  </station>
  <station code="KCTX" name="KCTX" netid="KO" insttype="CMG-3ESP" commtype="DIG" lat="40.2626" lon="28.3353">
    <comp name="--.HHN">
      <acc value="0.0309982374" flag="0"/>
      <vel value="0.0086068330" flag="0"/>
      <psa03 value="0.0553880495" flag="0"/>
      <psa10 value="0.0048207315" flag="0"/>
      <psa30 value="0.0004385511" flag="0"/>
    </comp>
    <comp name="--.HHZ">
      <acc value="0.0341480629" flag="0"/>
      <vel value="0.0052410871" flag="0"/>
      <psa03 value="0.0179797227" flag="0"/>
      <psa10 value="0.0034560834" flag="0"/>
      <psa30 value="0.0002145717" flag="0"/>
    </comp>
    <comp name="--.HHE">
      <acc value="0.0236968397" flag="0"/>
      <vel value="0.0059941565" flag="0"/>
      <psa03 value="0.0266982642" flag="0"/>
      <psa10 value="0.0043235809" flag="0"/>
      <psa30 value="0.0003430489" flag="0"/>
    </comp>
  </station>
  <station code="KRTA" name="KRTA" netid="KO" insttype="SA10" commtype="DIG" lat="40.9003" lon="29.1544">
    <comp name="--.HNN">
      <acc value="0.4301806030" flag="0"/>
      <vel value="0.0807025912" flag="0"/>
      <psa03 value="0.3520424561" flag="0"/>
      <psa10 value="0.0202564665" flag="0"/>
      <psa30 value="0.0018011016" flag="0"/>
    </comp>
    <comp name="--.HNZ">
      <acc value="0.1883207282" flag="0"/>
      <vel value="0.0277225979" flag="0"/>
      <psa03 value="0.0543324188" flag="0"/>
      <psa10 value="0.0097343128" flag="0"/>
