<?xml version="1.0" encoding="UTF-8" standalone="yes"?>
<!DOCTYPE earthquake SYSTEM "stationlist.dtd">
<stationlist created="" xmlns="ch.ethz.sed.shakemap.usgs.xml">
  <station code="LINA" name="LINA" netid="IV" insttype="" lat="35.8613" lon="12.8643">
    <comp name="--.HHE">
      <acc value="0.0467769976" flag="0"/>
      <vel value="0.0748410655" flag="0"/>
      <psa03 value="0.1331358171" flag="0"/>
      <psa10 value="0.1077368398" flag="0"/>
      <psa30 value="0.0357700851" flag="0"/>
    </comp>
    <comp name="--.HHZ">
      <acc value="0.0437024896" flag="0"/>
      <vel value="0.0381665935" flag="0"/>
      <psa03 value="0.1588886677" flag="0"/>
      <psa10 value="0.0534599211" flag="0"/>
      <psa30 value="0.0243827965" flag="0"/>
    </comp>
    <comp name="--.HHN">
      <acc value="0.0608060681" flag="0"/>
      <vel value="0.0800401020" flag="0"/>
      <psa03 value="0.2032609107" flag="0"/>
      <psa10 value="0.0946822419" flag="0"/>
      <psa30 value="0.0363080344" flag="0"/>
    </comp>
  </station>
  <station code="LPDG" name="LPDG" netid="IV" insttype="" lat="35.5183" lon="12.6302">
    <comp name="--.HHE">
      <acc value="0.0620777081" flag="0"/>
      <vel value="0.0792806965" flag="0"/>
      <psa03 value="0.1678792007" flag="0"/>
      <psa10 value="0.0727675040" flag="0"/>
      <psa30 value="0.0391585306" flag="0"/>
    </comp>
    <comp name="--.HHN">
      <acc value="0.0786811264" flag="0"/>
      <vel value="0.0752454503" flag="0"/>
      <psa03 value="0.2996841582" flag="0"/>
      <psa10 value="0.0996731804" flag="0"/>
      <psa30 value="0.0225530443" flag="0"/>
    </comp>
    <comp name="--.HHZ">
      <acc value="0.0387209233" flag="0"/>
      <vel value="0.0393409653" flag="0"/>
      <psa03 value="0.1003214357" flag="0"/>
      <psa10 value="0.0378084830" flag="0"/>
      <psa30 value="0.0179733717" flag="0"/>
    </comp>
  </station>
  <station code="XLND" name="XLND" netid="ML" insttype="" lat="36.0323" lon="14.2201">
    <comp name="--.HHE">
      <acc value="0.0593980194" flag="0"/>
      <vel value="0.0409246461" flag="0"/>
      <psa03 value="0.1711583205" flag="0"/>
      <psa10 value="0.0539061886" flag="0"/>
      <psa30 value="0.0227274956" flag="0"/>
    </comp>
    <comp name="--.HHN">
      <acc value="0.0520304059" flag="0"/>
      <vel value="0.0546095717" flag="0"/>
      <psa03 value="0.1424224715" flag="0"/>
      <psa10 value="0.0451991022" flag="0"/>
      <psa30 value="0.0261887058" flag="0"/>
    </comp>
    <comp name="--.HHZ">
      <acc value="0.0358883268" flag="0"/>
      <vel value="0.0576493040" flag="0"/>
      <psa03 value="0.1110725405" flag="0"/>
      <psa10 value="0.0279118306" flag="0"/>
      <psa30 value="0.0346725466" flag="0"/>
    </comp>
  </station>
</stationlist>
