<?xml version="1.0" encoding="UTF-8" standalone="yes"?>
<!DOCTYPE earthquake SYSTEM "stationlist.dtd">
<stationlist created="" xmlns="ch.ethz.sed.shakemap.usgs.xml">
  <station code="ARPRA" name="ARPRA" netid="KO" insttype="CMG-5T" lat="39.0929" lon="38.3356">
    <comp name="--.HNE">
      <acc value="0.0471323410" flag="0"/>
      <vel value="0.0270935105" flag="0"/>
      <psa03 value="0.1049018652" flag="0"/>
      <psa10 value="0.0322020795" flag="0"/>
      <psa30 value="0.0021232186" flag="0"/>
    </comp>
    <comp name="--.HNZ">
      <acc value="0.0192380851" flag="0"/>
      <vel value="0.0109271162" flag="0"/>
      <psa03 value="0.0282427742" flag="0"/>
      <psa10 value="0.0119301675" flag="0"/>
      <psa30 value="0.0006863819" flag="0"/>
    </comp>
    <comp name="--.HNN">
      <acc value="0.0402158579" flag="0"/>
      <vel value="0.0192299076" flag="0"/>
      <psa03 value="0.0855277316" flag="0"/>
      <psa10 value="0.0306063302" flag="0"/>
      <psa30 value="0.0011281539" flag="0"/>
    </comp>
  </station>
  <station code="DARE" name="DARE" netid="KO" insttype="CMG-3ESP" lat="38.5712" lon="37.4832">
    <comp name="--.HHZ">
      <acc value="0.0031927123" flag="0"/>
      <vel value="0.0025192752" flag="0"/>
      <psa03 value="0.0097893904" flag="0"/>
      <psa10 value="0.0040508781" flag="0"/>
      <psa30 value="0.0006211358" flag="0"/>
    </comp>
    <comp name="--.HHN">
      <acc value="0.0046104386" flag="0"/>
      <vel value="0.0029096546" flag="0"/>
      <psa03 value="0.0118322949" flag="0"/>
      <psa10 value="0.0047506781" flag="0"/>
      <psa30 value="0.0005909491" flag="0"/>
    </comp>
    <comp name="--.HHE">
      <acc value="0.0046973396" flag="0"/>
      <vel value="0.0025173172" flag="0"/>
      <psa03 value="0.0077549332" flag="0"/>
      <psa10 value="0.0036533189" flag="0"/>
      <psa30 value="0.0007176330" flag="0"/>
    </comp>
  </station>
  <station code="SVRC" name="SVRC" netid="KO" insttype="CMG-3T" lat="38.3775" lon="39.306">
    <comp name="--.HHN">
      <acc value="0.0152543661" flag="0"/>
      <vel value="0.0091016903" flag="0"/>
      <psa03 value="0.0337323836" flag="0"/>
      <psa10 value="0.0087162252" flag="0"/>
      <psa30 value="0.0014400913" flag="0"/>
    </comp>
    <comp name="--.HHE">
      <acc value="0.0180794935" flag="0"/>
      <vel value="0.0107884210" flag="0"/>
      <psa03 value="0.0477007192" flag="0"/>
      <psa10 value="0.0085712967" flag="0"/>
      <psa30 value="0.0030409937" flag="0"/>
    </comp>
    <comp name="--.HHZ">
      <acc value="0.0139895991" flag="0"/>
      <vel value="0.0068590014" flag="0"/>
      <psa03 value="0.0263002889" flag="0"/>
      <psa10 value="0.0078721151" flag="0"/>
      <psa30 value="0.0014755815" flag="0"/>
    </comp>
  </station>
  <station code="URFA" name="URFA" netid="KO" insttype="CMG-3ESP" lat="37.4409" lon="38.8213">
    <comp name="--.HHE">
      <acc value="0.0358317066" flag="0"/>
      <vel value="0.0128355818" flag="0"/>
      <psa03 value="0.0400633565" flag="0"/>
      <psa10 value="0.0129893946" flag="0"/>
      <psa30 value="0.0056476350" flag="0"/>
    </comp>
    <comp name="--.HHZ">
      <acc value="0.0173622348" flag="0"/>
      <vel value="0.0060259068" flag="0"/>
      <psa03 value="0.0185355407" flag="0"/>
      <psa10 value="0.0084047580" flag="0"/>
      <psa30 value="0.0014751524" flag="0"/>
    </comp>
  </station>
</stationlist>
