<stationlist xmlns:esm="https://esm-db.eu/esmws/shakemap/1/" created="1784080703">
	<station code="OEM9" name="OEM9" netid="3D" source="INGV temporary network for seismic monitoring of the island of Vulcano to increase volcanic activity (Sicily, Italy) (VITN)" insttype="" lat="38.3879" lon="14.9908" esm:processing="automatic (Paolucci et al 2011)" esm:quality="good">
		<comp name="--.HNE" depth="0.0">
			<acc value="0.00678010940763465" flag="0"/>
			<vel value="0.00238363343976416" flag="0"/>
			<psa03 value="0.015631948300278" flag="0"/>
			<psa10 value="0.00364441033054998" flag="0"/>
			<psa30 value="0.000412593842733709" flag="0"/>
		</comp>
		<comp name="--.HNN" depth="0.0">
			<acc value="0.00980965734551456" flag="0"/>
			<vel value="0.00322940009992413" flag="0"/>
			<psa03 value="0.0203780869274242" flag="0"/>
			<psa10 value="0.00226367409792454" flag="0"/>
			<psa30 value="0.000338581257471808" flag="0"/>
		</comp>
		<comp name="--.HNZ" depth="0.0">
			<acc value="0.00481487609613603" flag="0"/>
			<vel value="0.00160620782719187" flag="0"/>
			<psa03 value="0.00880234287765658" flag="0"/>
			<psa10 value="0.00145592402594444" flag="0"/>
			<psa30 value="0.000216342209213598" flag="0"/>
		</comp>
	</station>
	<station code="GALF" name="GALF" netid="IV" source="Italian National Seismic Network (INSN)" insttype="" lat="37.7107" lon="14.5665" esm:processing="manual (Paolucci et al 2011)" esm:quality="good">
		<comp name="--.HNE" depth="0.0">
			<acc value="0.00145031748493795" flag="0"/>
			<vel value="0.0013265663438292" flag="0"/>
			<psa03 value="0.00246797745623802" flag="0"/>
			<psa10 value="0.00138695297257762" flag="0"/>
			<psa30 value="7.10747604373954e-05" flag="0"/>
		</comp>
		<comp name="--.HNN" depth="0.0">
			<acc value="0.000894884496915817" flag="0"/>
			<vel value="0.000962455770687943" flag="0"/>
			<psa03 value="0.00204087722283949" flag="0"/>
			<psa10 value="0.00126135762125199" flag="0"/>
			<psa30 value="6.1869827739113e-05" flag="0"/>
		</comp>
		<comp name="--.HNZ" depth="0.0">
			<acc value="0.000711415786642863" flag="0"/>
			<vel value="0.000463413917032412" flag="0"/>
			<psa03 value="0.00229024318872549" flag="0"/>
			<psa10 value="0.000724501822815091" flag="0"/>
			<psa30 value="3.32436963723581e-05" flag="0"/>
		</comp>
	</station>
	<station code="GMB1" name="GMB1" netid="IV" source="Italian National Seismic Network (INSN)" insttype="" lat="38.1723" lon="15.8179" esm:processing="manual (Paolucci et al 2011)" esm:quality="good">
		<comp name="--.HNE" depth="0.0">
			<acc value="0.0185549282496931" flag="0"/>
			<vel value="0.00564864164465231" flag="0"/>
			<psa03 value="0.0456374503404414" flag="0"/>
			<psa10 value="0.00702858482800035" flag="0"/>
			<psa30 value="0.000254235852294156" flag="0"/>
		</comp>
		<comp name="--.HNN" depth="0.0">
			<acc value="0.0230457679268745" flag="0"/>
			<vel value="0.00761638511613494" flag="0"/>
			<psa03 value="0.0154476157766489" flag="0"/>
			<psa10 value="0.0073936621375804" flag="0"/>
			<psa30 value="0.000374865041302577" flag="0"/>
		</comp>
		<comp name="--.HNZ" depth="0.0">
			<acc value="0.00958771479650163" flag="0"/>
			<vel value="0.00331250522366911" flag="0"/>
			<psa03 value="0.0121657681620176" flag="0"/>
			<psa10 value="0.00282386183261261" flag="0"/>
			<psa30 value="0.000149948006236173" flag="0"/>
		</comp>
	</station>
	<station code="MPAZ" name="MPAZ" netid="IV" source="Italian National Seismic Network (INSN)" insttype="" lat="37.9531" lon="16.0067" esm:processing="manual (Paolucci et al 2011)" esm:quality="good">
		<comp name="--.HNE" depth="0.0">
			<acc value="0.0066539419040392" flag="0"/>
			<vel value="0.00257079194144614" flag="0"/>
			<psa03 value="0.0165869165101478" flag="0"/>
			<psa10 value="0.00260327479792915" flag="0"/>
			<psa30 value="0.000167862317971407" flag="0"/>
		</comp>
		<comp name="--.HNN" depth="0.0">
			<acc value="0.0132652111909668" flag="0"/>
			<vel value="0.00679334095450711" flag="0"/>
			<psa03 value="0.0488657631586552" flag="0"/>
			<psa10 value="0.00453082702005393" flag="0"/>
			<psa30 value="0.000345285243244459" flag="0"/>
		</comp>
		<comp name="--.HNZ" depth="0.0">
			<acc value="0.00892426380425679" flag="0"/>
			<vel value="0.00523739555372591" flag="0"/>
			<psa03 value="0.0328710525459084" flag="0"/>
			<psa10 value="0.00520644412012105" flag="0"/>
			<psa30 value="0.000230646815677916" flag="0"/>
		</comp>
	</station>
	<station code="MSRU" name="MSRU" netid="IV" source="Italian National Seismic Network (INSN)" insttype="" lat="38.2639" lon="15.5083" esm:processing="manual (Paolucci et al 2011)" esm:quality="good">
		<comp name="--.HNE" depth="0.0">
			<acc value="0.0155695557630981" flag="0"/>
			<vel value="0.0081486086338694" flag="0"/>
			<psa03 value="0.040924265719258" flag="0"/>
			<psa10 value="0.00599099093624727" flag="0"/>
			<psa30 value="0.000337991088167483" flag="0"/>
		</comp>
		<comp name="--.HNN" depth="0.0">
			<acc value="0.0167622582169499" flag="0"/>
			<vel value="0.0085127677167897" flag="0"/>
			<psa03 value="0.0392973402350959" flag="0"/>
			<psa10 value="0.00631140325574093" flag="0"/>
			<psa30 value="0.000355506154704682" flag="0"/>
		</comp>
		<comp name="--.HNZ" depth="0.0">
			<acc value="0.00906147541835035" flag="0"/>
			<vel value="0.00421357376349894" flag="0"/>
			<psa03 value="0.0197617648491022" flag="0"/>
			<psa10 value="0.00181835530086466" flag="0"/>
			<psa30 value="0.000133419710796884" flag="0"/>
		</comp>
	</station>
	<station code="PIPA" name="PIPA" netid="IV" source="Italian National Seismic Network (INSN)" insttype="" lat="39.48514" lon="16.8158" esm:processing="manual (Paolucci et al 2011)" esm:quality="good">
		<comp name="--.HNE" depth="0.0">
			<acc value="0.00753170698239664" flag="0"/>
			<vel value="0.00241054931052884" flag="0"/>
			<psa03 value="0.0113198709796474" flag="0"/>
			<psa10 value="0.000922421066806168" flag="0"/>
			<psa30 value="8.13121313213074e-05" flag="0"/>
		</comp>
		<comp name="--.HNN" depth="0.0">
			<acc value="0.0060381799709025" flag="0"/>
			<vel value="0.0031972301357117" flag="0"/>
			<psa03 value="0.0206798842637575" flag="0"/>
			<psa10 value="0.0014335754751521" flag="0"/>
			<psa30 value="8.40911695856203e-05" flag="0"/>
		</comp>
		<comp name="--.HNZ" depth="0.0">
			<acc value="0.00569831004829802" flag="0"/>
			<vel value="0.00143435348826875" flag="0"/>
			<psa03 value="0.00634252497886068" flag="0"/>
			<psa10 value="0.000952459209029421" flag="0"/>
			<psa30 value="5.92988240894057e-05" flag="0"/>
		</comp>
	</station>
	<station code="SERS" name="SERS" netid="IV" source="Italian National Seismic Network (INSN)" insttype="" lat="39.0359" lon="16.6886" esm:processing="automatic (Paolucci et al 2011)" esm:quality="best">
		<comp name="--.HNE" depth="0.0">
			<acc value="0.0067338548864939" flag="0"/>
			<vel value="0.00325466542725177" flag="0"/>
			<psa03 value="0.0184874473588965" flag="0"/>
			<psa10 value="0.00162009490146178" flag="0"/>
			<psa30 value="0.000107366148938654" flag="0"/>
		</comp>
		<comp name="--.HNN" depth="0.0">
			<acc value="0.00526498979583171" flag="0"/>
			<vel value="0.0020550981622006" flag="0"/>
			<psa03 value="0.015230744639173" flag="0"/>
			<psa10 value="0.00139913389669052" flag="0"/>
			<psa30 value="0.000157444544511915" flag="0"/>
		</comp>
		<comp name="--.HNZ" depth="0.0">
			<acc value="0.0097577155067615" flag="0"/>
			<vel value="0.00357778589562581" flag="0"/>
			<psa03 value="0.0126865682874627" flag="0"/>
			<psa10 value="0.000938347785934633" flag="0"/>
			<psa30 value="7.97013865964776e-05" flag="0"/>
		</comp>
	</station>
	<station code="SOI" name="SOI" netid="IV" source="Italian National Seismic Network (INSN)" insttype="" lat="38.07323" lon="16.05424" esm:processing="manual (Paolucci et al 2011)" esm:quality="good">
		<comp name="--.HNE" depth="0.0">
			<acc value="0.00551950333060266" flag="0"/>
			<vel value="0.00251133365101169" flag="0"/>
			<psa03 value="0.0119850452525118" flag="0"/>
			<psa10 value="0.00355129424018956" flag="0"/>
			<psa30 value="0.000130252808296802" flag="0"/>
		</comp>
		<comp name="--.HNN" depth="0.0">
			<acc value="0.0051092764129134" flag="0"/>
			<vel value="0.00260931556532422" flag="0"/>
			<psa03 value="0.012912037650792" flag="0"/>
			<psa10 value="0.0038670576579663" flag="0"/>
			<psa30 value="0.000231703526304809" flag="0"/>
		</comp>
		<comp name="--.HNZ" depth="0.0">
			<acc value="0.0064414401991142" flag="0"/>
			<vel value="0.00377680638070558" flag="0"/>
			<psa03 value="0.0156885614256156" flag="0"/>
			<psa10 value="0.00232277871644036" flag="0"/>
			<psa30 value="0.000127554543612509" flag="0"/>
		</comp>
	</station>
	<station code="BIDON" name="BIDON" netid="XE" source="POLLINO - Near Fault Observatories (POLLINO-NFO)" insttype="" lat="39.9457" lon="16.4559" esm:processing="automatic (Paolucci et al 2011)" esm:quality="best">
		<comp name="--.HNE" depth="1.0">
			<acc value="0.00470777929596385" flag="0"/>
			<vel value="0.00275336173685957" flag="0"/>
			<psa03 value="0.0134055403950299" flag="0"/>
			<psa10 value="0.00449643864822707" flag="0"/>
			<psa30 value="0.000242119242336603" flag="0"/>
		</comp>
		<comp name="--.HNN" depth="1.0">
			<acc value="0.00453309467815066" flag="0"/>
			<vel value="0.00259296007672002" flag="0"/>
			<psa03 value="0.0104490886852031" flag="0"/>
			<psa10 value="0.00243959637691245" flag="0"/>
			<psa30 value="0.00016794652927913" flag="0"/>
		</comp>
		<comp name="--.HNZ" depth="1.0">
			<acc value="0.00246910265346533" flag="0"/>
			<vel value="0.00123459426672339" flag="0"/>
			<psa03 value="0.00525039891993632" flag="0"/>
			<psa10 value="0.00111032749906099" flag="0"/>
			<psa30 value="0.000144344340750011" flag="0"/>
		</comp>
	</station>
	<station code="CNESE" name="CNESE" netid="XE" source="POLLINO - Near Fault Observatories (POLLINO-NFO)" insttype="" lat="39.8941" lon="16.0843" esm:processing="automatic (Paolucci et al 2011)" esm:quality="best">
		<comp name="--.HNE" depth="1.0">
			<acc value="0.00293550223487166" flag="0"/>
			<vel value="0.00127126219116871" flag="0"/>
			<psa03 value="0.00443605428349379" flag="0"/>
			<psa10 value="0.000985514426120971" flag="0"/>
			<psa30 value="0.000250534357088458" flag="0"/>
		</comp>
		<comp name="--.HNN" depth="1.0">
			<acc value="0.00197367600233901" flag="0"/>
			<vel value="0.000919969171080963" flag="0"/>
			<psa03 value="0.00321848762307329" flag="0"/>
			<psa10 value="0.00168663462189267" flag="0"/>
			<psa30 value="0.000126842660516286" flag="0"/>
		</comp>
		<comp name="--.HNZ" depth="1.0">
			<acc value="0.00189497901995148" flag="0"/>
			<vel value="0.000690366849434409" flag="0"/>
			<psa03 value="0.00347874347051532" flag="0"/>
			<psa10 value="0.000459640527052941" flag="0"/>
			<psa30 value="5.57979281099019e-05" flag="0"/>
		</comp>
	</station>
	<station code="LAICA" name="LAICA" netid="XE" source="POLLINO - Near Fault Observatories (POLLINO-NFO)" insttype="" lat="39.948489" lon="15.975058" esm:processing="automatic (Paolucci et al 2011)" esm:quality="good">
		<comp name="--.HNE" depth="1.0">
			<acc value="0.000393824637545289" flag="0"/>
			<vel value="0.000285593359894747" flag="0"/>
			<psa03 value="0.00100338360790934" flag="0"/>
			<psa10 value="0.000579034725396762" flag="0"/>
			<psa30 value="7.80888969645819e-05" flag="0"/>
		</comp>
		<comp name="--.HNN" depth="1.0">
			<acc value="0.000586443858431119" flag="0"/>
			<vel value="0.000240366315665558" flag="0"/>
			<psa03 value="0.00107612402230997" flag="0"/>
			<psa10 value="0.000417346836631017" flag="0"/>
			<psa30 value="8.75811338513816e-05" flag="0"/>
		</comp>
		<comp name="--.HNZ" depth="1.0">
			<acc value="0.000639401109302226" flag="0"/>
			<vel value="0.000271416623493181" flag="0"/>
			<psa03 value="0.00103700326668735" flag="0"/>
			<psa10 value="0.000555331397355217" flag="0"/>
			<psa30 value="3.49058084322632e-05" flag="0"/>
		</comp>
	</station>
	<station code="MORMA" name="MORMA" netid="XE" source="POLLINO - Near Fault Observatories (POLLINO-NFO)" insttype="" lat="39.8699" lon="15.9721" esm:processing="automatic (Paolucci et al 2011)" esm:quality="best">
		<comp name="--.HNE" depth="1.0">
			<acc value="0.00200670073492718" flag="0"/>
			<vel value="0.000960534921318733" flag="0"/>
			<psa03 value="0.00601902438184935" flag="0"/>
			<psa10 value="0.00127583322862723" flag="0"/>
			<psa30 value="0.00013598663865586" flag="0"/>
		</comp>
		<comp name="--.HNN" depth="1.0">
			<acc value="0.00169754502779953" flag="0"/>
			<vel value="0.000692471781539042" flag="0"/>
			<psa03 value="0.00349749764257488" flag="0"/>
			<psa10 value="0.00121981565054954" flag="0"/>
			<psa30 value="0.000116523383164979" flag="0"/>
		</comp>
		<comp name="--.HNZ" depth="1.0">
			<acc value="0.00100059690839512" flag="0"/>
			<vel value="0.00034472377015313" flag="0"/>
			<psa03 value="0.00171391659845786" flag="0"/>
			<psa10 value="0.000485772814828917" flag="0"/>
			<psa30 value="5.59730178335931e-05" flag="0"/>
		</comp>
	</station>
	<station code="SHEVA" name="SHEVA" netid="XE" source="POLLINO - Near Fault Observatories (POLLINO-NFO)" insttype="" lat="39.8153" lon="16.16773" esm:processing="automatic (Paolucci et al 2011)" esm:quality="best">
		<comp name="--.HNE" depth="1.0">
			<acc value="0.000834761433741171" flag="0"/>
			<vel value="0.000554258954592165" flag="0"/>
			<psa03 value="0.00314066345718519" flag="0"/>
			<psa10 value="0.00102771620615353" flag="0"/>
			<psa30 value="5.17435807528666e-05" flag="0"/>
		</comp>
		<comp name="--.HNN" depth="1.0">
			<acc value="0.000928327547387755" flag="0"/>
			<vel value="0.000585138793177773" flag="0"/>
			<psa03 value="0.00239583579569507" flag="0"/>
			<psa10 value="0.00095585347685081" flag="0"/>
			<psa30 value="5.9058834232735e-05" flag="0"/>
		</comp>
		<comp name="--.HNZ" depth="1.0">
			<acc value="0.00103690578674193" flag="0"/>
			<vel value="0.000382087623005419" flag="0"/>
			<psa03 value="0.00203964341714769" flag="0"/>
			<psa10 value="0.000431937910642022" flag="0"/>
			<psa30 value="5.04464147442267e-05" flag="0"/>
		</comp>
	</station>
	<station code="TNOVA" name="TNOVA" netid="XE" source="POLLINO - Near Fault Observatories (POLLINO-NFO)" insttype="" lat="39.9747" lon="16.2611" esm:processing="automatic (Paolucci et al 2011)" esm:quality="good">
		<comp name="--.HNE" depth="0.0">
			<acc value="0.0396860196724554" flag="0"/>
			<vel value="0.019443963507732" flag="0"/>
			<psa03 value="0.0580717167577453" flag="0"/>
			<psa10 value="0.0193362790586057" flag="0"/>
			<psa30 value="0.00564740077925522" flag="0"/>
		</comp>
		<comp name="--.HNN" depth="0.0">
			<acc value="0.0336459287388752" flag="0"/>
			<vel value="0.0162354846680093" flag="0"/>
			<psa03 value="0.0454041744702538" flag="0"/>
			<psa10 value="0.0273321574963119" flag="0"/>
			<psa30 value="0.00155157997205963" flag="0"/>
		</comp>
		<comp name="--.HNZ" depth="0.0">
			<acc value="0.0212701664231188" flag="0"/>
			<vel value="0.00878853456252871" flag="0"/>
			<psa03 value="0.0684331219001278" flag="0"/>
			<psa10 value="0.0128385564288616" flag="0"/>
			<psa30 value="0.00131794605745777" flag="0"/>
		</comp>
	</station>
	<station code="ZIDIL" name="ZIDIL" netid="XE" source="POLLINO - Near Fault Observatories (POLLINO-NFO)" insttype="" lat="39.78218" lon="16.25963" esm:processing="automatic (Paolucci et al 2011)" esm:quality="good">
		<comp name="--.HNE" depth="1.0">
			<acc value="0.00121994440663117" flag="0"/>
			<vel value="0.00110310981671869" flag="0"/>
			<psa03 value="0.00318715416717572" flag="0"/>
			<psa10 value="0.00170078934863339" flag="0"/>
			<psa30 value="0.00019375047824743" flag="0"/>
		</comp>
		<comp name="--.HNN" depth="1.0">
			<acc value="0.00161524404427611" flag="0"/>
			<vel value="0.00136007116905349" flag="0"/>
			<psa03 value="0.0038036917545552" flag="0"/>
			<psa10 value="0.0023020902365536" flag="0"/>
			<psa30 value="0.000192605493543749" flag="0"/>
		</comp>
		<comp name="--.HNZ" depth="1.0">
			<acc value="0.00146895771325991" flag="0"/>
			<vel value="0.000719851410486489" flag="0"/>
			<psa03 value="0.00211334263529592" flag="0"/>
			<psa10 value="0.00112592349315377" flag="0"/>
			<psa30 value="8.6849275473594e-05" flag="0"/>
		</comp>
	</station>
	<station code="CSMBE" name="CSMBE" netid="7C" source="Urban Seismic Network (RUSN-CAL-INGV)" insttype="" lat="39.2895" lon="16.2642" esm:processing="automatic (Paolucci et al 2011)" esm:quality="bad">
		<comp name="--.HNE" depth="0.0">
			<acc value="0" flag="1"/>
			<vel value="0" flag="1"/>
			<psa03 value="0" flag="1"/>
			<psa10 value="0" flag="1"/>
			<psa30 value="0" flag="1"/>
		</comp>
		<comp name="--.HNN" depth="0.0">
			<acc value="0" flag="1"/>
			<vel value="0" flag="1"/>
			<psa03 value="0" flag="1"/>
			<psa10 value="0" flag="1"/>
			<psa30 value="0" flag="1"/>
		</comp>
		<comp name="--.HNZ" depth="0.0">
			<acc value="0" flag="1"/>
			<vel value="0" flag="1"/>
			<psa03 value="0" flag="1"/>
			<psa10 value="0" flag="1"/>
			<psa30 value="0" flag="1"/>
		</comp>
	</station>
	<station code="MARCO" name="MARCO" netid="GE" source="GEOFON" insttype="" lat="40.29724" lon="15.80632" esm:processing="automatic (Paolucci et al 2011)" esm:quality="bad">
		<comp name="--.HLE" depth="1.0">
			<acc value="0" flag="1"/>
			<vel value="0" flag="1"/>
			<psa03 value="0" flag="1"/>
			<psa10 value="0" flag="1"/>
			<psa30 value="0" flag="1"/>
		</comp>
		<comp name="--.HLN" depth="1.0">
			<acc value="0" flag="1"/>
			<vel value="0" flag="1"/>
			<psa03 value="0" flag="1"/>
			<psa10 value="0" flag="1"/>
			<psa30 value="0" flag="1"/>
		</comp>
		<comp name="--.HLZ" depth="1.0">
			<acc value="0" flag="1"/>
			<vel value="0" flag="1"/>
			<psa03 value="0" flag="1"/>
			<psa10 value="0" flag="1"/>
			<psa30 value="0" flag="1"/>
		</comp>
	</station>
	<station code="ACER" name="ACER" netid="IV" source="Italian National Seismic Network (INSN)" insttype="" lat="40.7867" lon="15.9427" esm:processing="automatic (Paolucci et al 2011)" esm:quality="bad">
		<comp name="--.HNE" depth="1.0">
			<acc value="0" flag="1"/>
			<vel value="0" flag="1"/>
			<psa03 value="0" flag="1"/>
			<psa10 value="0" flag="1"/>
			<psa30 value="0" flag="1"/>
		</comp>
		<comp name="--.HNN" depth="1.0">
			<acc value="0" flag="1"/>
			<vel value="0" flag="1"/>
			<psa03 value="0" flag="1"/>
			<psa10 value="0" flag="1"/>
			<psa30 value="0" flag="1"/>
		</comp>
		<comp name="--.HNZ" depth="1.0">
			<acc value="0" flag="1"/>
			<vel value="0" flag="1"/>
			<psa03 value="0" flag="1"/>
			<psa10 value="0" flag="1"/>
			<psa30 value="0" flag="1"/>
		</comp>
	</station>
	<station code="AMUR" name="AMUR" netid="IV" source="Italian National Seismic Network (INSN)" insttype="" lat="40.9071" lon="16.6041" esm:processing="automatic (Paolucci et al 2011)" esm:quality="bad">
		<comp name="--.HNE" depth="0.0">
			<acc value="0" flag="1"/>
			<vel value="0" flag="1"/>
			<psa03 value="0" flag="1"/>
			<psa10 value="0" flag="1"/>
			<psa30 value="0" flag="1"/>
		</comp>
		<comp name="--.HNN" depth="0.0">
			<acc value="0" flag="1"/>
			<vel value="0" flag="1"/>
			<psa03 value="0" flag="1"/>
			<psa10 value="0" flag="1"/>
			<psa30 value="0" flag="1"/>
		</comp>
		<comp name="--.HNZ" depth="0.0">
			<acc value="0" flag="1"/>
			<vel value="0" flag="1"/>
			<psa03 value="0" flag="1"/>
			<psa10 value="0" flag="1"/>
			<psa30 value="0" flag="1"/>
		</comp>
	</station>
	<station code="BULG" name="BULG" netid="IV" source="Italian National Seismic Network (INSN)" insttype="" lat="40.0783" lon="15.3776" esm:processing="automatic (Paolucci et al 2011)" esm:quality="bad">
		<comp name="--.HNE" depth="1.0">
			<acc value="0" flag="1"/>
			<vel value="0" flag="1"/>
			<psa03 value="0" flag="1"/>
			<psa10 value="0" flag="1"/>
			<psa30 value="0" flag="1"/>
		</comp>
		<comp name="--.HNN" depth="1.0">
			<acc value="0" flag="1"/>
