<?xml version="1.0" encoding="UTF-8" standalone="yes"?>
<!DOCTYPE earthquake SYSTEM "stationlist.dtd">
<stationlist created="" xmlns="ch.ethz.sed.shakemap.usgs.xml">
  <station code="OEM9" name="OEM9" netid="3D" insttype="" lat="38.3879" lon="14.9908">
    <comp name="--.HHE">
      <acc value="0.0041459467" flag="0"/>
      <vel value="0.0013050673" flag="0"/>
      <psa03 value="0.0083807112" flag="0"/>
      <psa10 value="0.0017643780" flag="0"/>
      <psa30 value="0.0001630440" flag="0"/>
    </comp>
    <comp name="--.HHN">
      <acc value="0.0044475785" flag="0"/>
      <vel value="0.0016301633" flag="0"/>
      <psa03 value="0.0086482848" flag="0"/>
      <psa10 value="0.0011916325" flag="0"/>
      <psa30 value="0.0001191609" flag="0"/>
    </comp>
    <comp name="--.HHZ">
      <acc value="0.0024824961" flag="0"/>
      <vel value="0.0008093773" flag="0"/>
      <psa03 value="0.0043582067" flag="0"/>
      <psa10 value="0.0006051903" flag="0"/>
      <psa30 value="0.0000468633" flag="0"/>
    </comp>
  </station>
  <station code="BULG" name="BULG" netid="IV" insttype="" lat="40.0783" lon="15.3776">
    <comp name="--.HNE">
      <acc value="0.0006334438" flag="0"/>
      <vel value="0.0004855444" flag="0"/>
      <psa03 value="0.0014666490" flag="0"/>
      <psa10 value="0.0004020591" flag="0"/>
      <psa30 value="0.0001734195" flag="0"/>
    </comp>
    <comp name="--.HNN">
      <acc value="0.0011489059" flag="0"/>
      <vel value="0.0005450838" flag="0"/>
      <psa03 value="0.0026435155" flag="0"/>
      <psa10 value="0.0006157455" flag="0"/>
      <psa30 value="0.0001264909" flag="0"/>
    </comp>
    <comp name="--.HNZ">
      <acc value="0.0005082352" flag="0"/>
      <vel value="0.0003032125" flag="0"/>
      <psa03 value="0.0009950639" flag="0"/>
      <psa10 value="0.0004422479" flag="0"/>
      <psa30 value="0.0000731901" flag="0"/>
    </comp>
  </station>
  <station code="CELI" name="CELI" netid="IV" insttype="" lat="39.4027" lon="16.5088">
    <comp name="--.HHE">
      <acc value="0.0022142309" flag="0"/>
      <vel value="0.0015598434" flag="0"/>
      <psa03 value="0.0074799398" flag="0"/>
      <psa10 value="0.0013111166" flag="0"/>
      <psa30 value="0.0001677762" flag="0"/>
    </comp>
    <comp name="--.HHZ">
      <acc value="0.0049442395" flag="0"/>
      <vel value="0.0018819668" flag="0"/>
      <psa03 value="0.0092350741" flag="0"/>
      <psa10 value="0.0008383974" flag="0"/>
      <psa30 value="0.0000818301" flag="0"/>
    </comp>
    <comp name="--.HHN">
      <acc value="0.0022085343" flag="0"/>
      <vel value="0.0017867652" flag="0"/>
      <psa03 value="0.0083621066" flag="0"/>
      <psa10 value="0.0017350306" flag="0"/>
      <psa30 value="0.0002265149" flag="0"/>
    </comp>
  </station>
  <station code="CET2" name="CET2" netid="IV" insttype="" lat="39.5288" lon="15.9546">
    <comp name="--.HHE">
      <acc value="0.0111585892" flag="0"/>
      <vel value="0.0033130562" flag="0"/>
      <psa03 value="0.0097139928" flag="0"/>
      <psa10 value="0.0032998666" flag="0"/>
      <psa30 value="0.0002595815" flag="0"/>
    </comp>
    <comp name="--.HHZ">
      <acc value="0.0129422134" flag="0"/>
      <vel value="0.0026779936" flag="0"/>
      <psa03 value="0.0126140713" flag="0"/>
      <psa10 value="0.0007377754" flag="0"/>
      <psa30 value="0.0000804471" flag="0"/>
    </comp>
    <comp name="--.HHN">
      <acc value="0.0138181736" flag="0"/>
      <vel value="0.0065657816" flag="0"/>
      <psa03 value="0.0177111659" flag="0"/>
      <psa10 value="0.0046759436" flag="0"/>
      <psa30 value="0.0002278179" flag="0"/>
    </comp>
  </station>
  <station code="CMPR" name="CMPR" netid="IV" insttype="" lat="40.3181" lon="15.303">
    <comp name="--.HHE">
      <acc value="0.0004190660" flag="0"/>
      <vel value="0.0003637735" flag="0"/>
      <psa03 value="0.0012850055" flag="0"/>
      <psa10 value="0.0003307537" flag="0"/>
      <psa30 value="0.0001279882" flag="0"/>
    </comp>
    <comp name="--.HHN">
      <acc value="0.0006994717" flag="0"/>
      <vel value="0.0005543886" flag="0"/>
      <psa03 value="0.0011637176" flag="0"/>
      <psa10 value="0.0008515250" flag="0"/>
      <psa30 value="0.0000778169" flag="0"/>
    </comp>
    <comp name="--.HHZ">
      <acc value="0.0007367637" flag="0"/>
      <vel value="0.0003169759" flag="0"/>
      <psa03 value="0.0011865497" flag="0"/>
      <psa10 value="0.0001983555" flag="0"/>
      <psa30 value="0.0000386424" flag="0"/>
    </comp>
  </station>
  <station code="GMB1" name="GMB1" netid="IV" insttype="" lat="38.1723" lon="15.8179">
    <comp name="--.HHE">
      <acc value="0.0145976394" flag="0"/>
      <vel value="0.0054158826" flag="0"/>
      <psa03 value="0.0410780809" flag="0"/>
      <psa10 value="0.0096374400" flag="0"/>
      <psa30 value="0.0003302129" flag="0"/>
    </comp>
    <comp name="--.HHN">
      <acc value="0.0084431477" flag="0"/>
      <vel value="0.0017951032" flag="0"/>
      <psa03 value="0.0046726654" flag="0"/>
      <psa10 value="0.0005657360" flag="0"/>
      <psa30 value="0.0000358896" flag="0"/>
    </comp>
    <comp name="--.HHZ">
      <acc value="0.0107887288" flag="0"/>
      <vel value="0.0032761949" flag="0"/>
      <psa03 value="0.0119572505" flag="0"/>
      <psa10 value="0.0027518426" flag="0"/>
      <psa30 value="0.0001377836" flag="0"/>
    </comp>
  </station>
  <station code="IACL" name="IACL" netid="IV" insttype="" lat="38.533" lon="14.355">
    <comp name="--.HHN">
      <acc value="0.0014169972" flag="0"/>
      <vel value="0.0006301414" flag="0"/>
      <psa03 value="0.0020343596" flag="0"/>
      <psa10 value="0.0007769388" flag="0"/>
      <psa30 value="0.0001724671" flag="0"/>
    </comp>
    <comp name="--.HHZ">
      <acc value="0.0014441830" flag="0"/>
      <vel value="0.0009825509" flag="0"/>
      <psa03 value="0.0029569477" flag="0"/>
      <psa10 value="0.0006463380" flag="0"/>
      <psa30 value="0.0000719385" flag="0"/>
    </comp>
    <comp name="--.HHE">
      <acc value="0.0011040062" flag="0"/>
      <vel value="0.0004523432" flag="0"/>
      <psa03 value="0.0018895056" flag="0"/>
      <psa10 value="0.0005659793" flag="0"/>
      <psa30 value="0.0001193494" flag="0"/>
    </comp>
  </station>
  <station code="IST3" name="IST3" netid="IV" insttype="" lat="38.7992" lon="15.2304">
    <comp name="--.HHE">
      <acc value="0.0145102834" flag="0"/>
      <vel value="0.0028364498" flag="0"/>
      <psa03 value="0.0076966290" flag="0"/>
      <psa10 value="0.0012102003" flag="0"/>
      <psa30 value="0.0002500054" flag="0"/>
    </comp>
    <comp name="--.HHN">
      <acc value="0.0167445892" flag="0"/>
      <vel value="0.0032245797" flag="0"/>
      <psa03 value="0.0117958526" flag="0"/>
      <psa10 value="0.0011833097" flag="0"/>
      <psa30 value="0.0002077787" flag="0"/>
    </comp>
    <comp name="--.HHZ">
      <acc value="0.0088218493" flag="0"/>
      <vel value="0.0024112093" flag="0"/>
      <psa03 value="0.0091599757" flag="0"/>
      <psa10 value="0.0007493586" flag="0"/>
      <psa30 value="0.0001367851" flag="0"/>
    </comp>
  </station>
  <station code="IVPL" name="IVPL" netid="IV" insttype="" lat="38.3763" lon="14.9801">
    <comp name="--.HHN">
      <acc value="0.0059394872" flag="0"/>
      <vel value="0.0025322855" flag="0"/>
      <psa03 value="0.0116659060" flag="0"/>
      <psa10 value="0.0023565755" flag="0"/>
      <psa30 value="0.0001672761" flag="0"/>
    </comp>
    <comp name="--.HHE">
      <acc value="0.0053133618" flag="0"/>
      <vel value="0.0024969524" flag="0"/>
      <psa03 value="0.0129117917" flag="0"/>
      <psa10 value="0.0015629890" flag="0"/>
      <psa30 value="0.0001723958" flag="0"/>
    </comp>
    <comp name="--.HHZ">
      <acc value="0.0041585418" flag="0"/>
      <vel value="0.0013737251" flag="0"/>
      <psa03 value="0.0062762314" flag="0"/>
      <psa10 value="0.0008000638" flag="0"/>
      <psa30 value="0.0000673262" flag="0"/>
    </comp>
  </station>
  <station code="MPNC" name="MPNC" netid="IV" insttype="" lat="38.1465" lon="15.3528">
    <comp name="--.HHE">
      <acc value="0.0093859141" flag="0"/>
      <vel value="0.0050037087" flag="0"/>
      <psa03 value="0.0183554888" flag="0"/>
      <psa10 value="0.0049812400" flag="0"/>
      <psa30 value="0.0002638542" flag="0"/>
    </comp>
    <comp name="--.HHN">
      <acc value="0.0115348287" flag="0"/>
      <vel value="0.0067288338" flag="0"/>
      <psa03 value="0.0293374790" flag="0"/>
      <psa10 value="0.0042911420" flag="0"/>
      <psa30 value="0.0003669067" flag="0"/>
    </comp>
    <comp name="--.HHZ">
      <acc value="0.0052945329" flag="0"/>
      <vel value="0.0026060152" flag="0"/>
      <psa03 value="0.0092326993" flag="0"/>
      <psa10 value="0.0014669131" flag="0"/>
      <psa30 value="0.0000983401" flag="0"/>
    </comp>
  </station>
  <station code="MRCB" name="MRCB" netid="IV" insttype="" lat="38.162" lon="15.703">
    <comp name="--.HHE">
      <acc value="0.0090780539" flag="0"/>
      <vel value="0.0063083350" flag="0"/>
      <psa03 value="0.0280150813" flag="0"/>
      <psa10 value="0.0091340762" flag="0"/>
      <psa30 value="0.0004412713" flag="0"/>
    </comp>
    <comp name="--.HHN">
      <acc value="0.0110509568" flag="0"/>
      <vel value="0.0045735390" flag="0"/>
      <psa03 value="0.0233294696" flag="0"/>
      <psa10 value="0.0041770143" flag="0"/>
      <psa30 value="0.0002454826" flag="0"/>
    </comp>
    <comp name="--.HHZ">
      <acc value="0.0055997245" flag="0"/>
      <vel value="0.0040620678" flag="0"/>
      <psa03 value="0.0103404046" flag="0"/>
      <psa10 value="0.0048493331" flag="0"/>
      <psa30 value="0.0002378864" flag="0"/>
    </comp>
  </station>
  <station code="MSRU" name="MSRU" netid="IV" insttype="" lat="38.2639" lon="15.5083">
    <comp name="--.HHE">
      <acc value="0.0156539149" flag="0"/>
      <vel value="0.0081148410" flag="0"/>
      <psa03 value="0.0394062396" flag="0"/>
      <psa10 value="0.0060862142" flag="0"/>
      <psa30 value="0.0003100670" flag="0"/>
    </comp>
    <comp name="--.HHZ">
      <acc value="0.0094092856" flag="0"/>
      <vel value="0.0041763124" flag="0"/>
      <psa03 value="0.0196451104" flag="0"/>
      <psa10 value="0.0018412854" flag="0"/>
      <psa30 value="0.0001340736" flag="0"/>
    </comp>
    <comp name="--.HHN">
      <acc value="0.0189517520" flag="0"/>
      <vel value="0.0088079271" flag="0"/>
      <psa03 value="0.0399945523" flag="0"/>
      <psa10 value="0.0061679703" flag="0"/>
      <psa30 value="0.0004119983" flag="0"/>
    </comp>
  </station>
  <station code="SALB" name="SALB" netid="IV" insttype="" lat="39.8772" lon="16.3459">
    <comp name="--.HHE">
      <acc value="0.0040855601" flag="0"/>
      <vel value="0.0019735736" flag="0"/>
      <psa03 value="0.0192586002" flag="0"/>
      <psa10 value="0.0017263555" flag="0"/>
      <psa30 value="0.0001997057" flag="0"/>
    </comp>
    <comp name="--.HHN">
      <acc value="0.0024078729" flag="0"/>
      <vel value="0.0010511980" flag="0"/>
      <psa03 value="0.0060873584" flag="0"/>
      <psa10 value="0.0010606080" flag="0"/>
      <psa30 value="0.0000875197" flag="0"/>
    </comp>
    <comp name="--.HHZ">
      <acc value="0.0029937269" flag="0"/>
      <vel value="0.0007710579" flag="0"/>
      <psa03 value="0.0045740263" flag="0"/>
      <psa10 value="0.0007372320" flag="0"/>
      <psa30 value="0.0000491408" flag="0"/>
    </comp>
  </station>
  <station code="SELL" name="SELL" netid="IV" insttype="" lat="38.983" lon="16.6279">
    <comp name="--.HHE">
      <acc value="0.0029004963" flag="0"/>
      <vel value="0.0015596867" flag="0"/>
      <psa03 value="0.0151538104" flag="0"/>
      <psa10 value="0.0016411838" flag="0"/>
      <psa30 value="0.0001202145" flag="0"/>
    </comp>
    <comp name="--.HHN">
      <acc value="0.0018573695" flag="0"/>
      <vel value="0.0004689001" flag="0"/>
      <psa03 value="0.0035970960" flag="0"/>
      <psa10 value="0.0002874573" flag="0"/>
      <psa30 value="0.0000156395" flag="0"/>
    </comp>
    <comp name="--.HHZ">
      <acc value="0.0027597589" flag="0"/>
      <vel value="0.0011346032" flag="0"/>
      <psa03 value="0.0086789369" flag="0"/>
      <psa10 value="0.0007208165" flag="0"/>
      <psa30 value="0.0000438740" flag="0"/>
    </comp>
  </station>
  <station code="SERS" name="SERS" netid="IV" insttype="" lat="39.0359" lon="16.6886">
    <comp name="--.HHE">
      <acc value="0.0032905629" flag="0"/>
      <vel value="0.0009576602" flag="0"/>
      <psa03 value="0.0052097770" flag="0"/>
      <psa10 value="0.0003495226" flag="0"/>
      <psa30 value="0.0000314428" flag="0"/>
    </comp>
    <comp name="--.HHN">
      <acc value="0.0043756166" flag="0"/>
      <vel value="0.0015578444" flag="0"/>
      <psa03 value="0.0073728372" flag="0"/>
      <psa10 value="0.0002896503" flag="0"/>
      <psa30 value="0.0000280781" flag="0"/>
    </comp>
    <comp name="--.HHZ">
      <acc value="0.0103405985" flag="0"/>
      <vel value="0.0037036719" flag="0"/>
      <psa03 value="0.0134660680" flag="0"/>
      <psa10 value="0.0009715906" flag="0"/>
      <psa30 value="0.0000946081" flag="0"/>
    </comp>
  </station>
  <station code="SIRI" name="SIRI" netid="IV" insttype="" lat="40.1821" lon="15.8675">
    <comp name="--.HHE">
      <acc value="0.0014448731" flag="0"/>
      <vel value="0.0007156057" flag="0"/>
      <psa03 value="0.0042366332" flag="0"/>
      <psa10 value="0.0006051658" flag="0"/>
      <psa30 value="0.0000602087" flag="0"/>
    </comp>
    <comp name="--.HHN">
      <acc value="0.0013034006" flag="0"/>
      <vel value="0.0007139790" flag="0"/>
      <psa03 value="0.0041223084" flag="0"/>
      <psa10 value="0.0009380617" flag="0"/>
      <psa30 value="0.0000654918" flag="0"/>
    </comp>
    <comp name="--.HHZ">
      <acc value="0.0007020597" flag="0"/>
      <vel value="0.0003601468" flag="0"/>
      <psa03 value="0.0014242256" flag="0"/>
      <psa10 value="0.0003027317" flag="0"/>
      <psa30 value="0.0000526897" flag="0"/>
    </comp>
  </station>
  <station code="SPS2" name="SPS2" netid="IV" insttype="" lat="39.291" lon="16.3388">
    <comp name="--.HHE">
      <acc value="0.0022651194" flag="0"/>
      <vel value="0.0008787547" flag="0"/>
      <psa03 value="0.0065293394" flag="0"/>
      <psa10 value="0.0005055632" flag="0"/>
      <psa30 value="0.0000405562" flag="0"/>
    </comp>
    <comp name="--.HHN">
      <acc value="0.0026299400" flag="0"/>
      <vel value="0.0011723128" flag="0"/>
      <psa03 value="0.0086835733" flag="0"/>
      <psa10 value="0.0005413892" flag="0"/>
      <psa30 value="0.0000331615" flag="0"/>
    </comp>
    <comp name="--.HHZ">
      <acc value="0.0020223578" flag="0"/>
      <vel value="0.0007918410" flag="0"/>
      <psa03 value="0.0035032843" flag="0"/>
      <psa10 value="0.0002998642" flag="0"/>
      <psa30 value="0.0000217554" flag="0"/>
    </comp>
  </station>
  <station code="TDS" name="TDS" netid="IV" insttype="" lat="39.6601" lon="16.3376">
    <comp name="--.HHE">
      <acc value="0.0007892152" flag="0"/>
      <vel value="0.0001845798" flag="0"/>
      <psa03 value="0.0009569785" flag="0"/>
      <psa10 value="0.0003235545" flag="0"/>
      <psa30 value="0.0000234896" flag="0"/>
    </comp>
    <comp name="--.HHN">
      <acc value="0.0004763993" flag="0"/>
      <vel value="0.0001941169" flag="0"/>
      <psa03 value="0.0009740299" flag="0"/>
      <psa10 value="0.0002096149" flag="0"/>
      <psa30 value="0.0000136684" flag="0"/>
    </comp>
    <comp name="--.HHZ">
      <acc value="0.0018573056" flag="0"/>
      <vel value="0.0008072652" flag="0"/>
      <psa03 value="0.0032599134" flag="0"/>
      <psa10 value="0.0007966283" flag="0"/>
      <psa30 value="0.0000684165" flag="0"/>
    </comp>
  </station>
  <station code="CHCE" name="CHCE" netid="IY" insttype="" lat="38.684" lon="16.4142">
    <comp name="00.HHE">
      <acc value="0.0104966827" flag="0"/>
      <vel value="0.0028079276" flag="0"/>
      <psa03 value="0.0240464613" flag="0"/>
      <psa10 value="0.0007501853" flag="0"/>
      <psa30 value="0.0000698675" flag="0"/>
    </comp>
    <comp name="00.HHZ">
      <acc value="0.0140411730" flag="0"/>
      <vel value="0.0034014732" flag="0"/>
      <psa03 value="0.0278890567" flag="0"/>
      <psa10 value="0.0007815602" flag="0"/>
      <psa30 value="0.0000829514" flag="0"/>
    </comp>
    <comp name="00.HHN">
      <acc value="0.0369923800" flag="0"/>
      <vel value="0.0156526107" flag="0"/>
      <psa03 value="0.1169042294" flag="0"/>
      <psa10 value="0.0048176942" flag="0"/>
      <psa30 value="0.0004250636" flag="0"/>
    </comp>
  </station>
  <station code="OPPI" name="OPPI" netid="IY" insttype="" lat="38.2673" lon="16.0099">
    <comp name="--.HHE">
      <acc value="0.0010938315" flag="0"/>
      <vel value="0.0004903727" flag="0"/>
      <psa03 value="0.0030755868" flag="0"/>
      <psa10 value="0.0001626746" flag="0"/>
      <psa30 value="0.0000136819" flag="0"/>
    </comp>
    <comp name="--.HHN">
      <acc value="0.0009339266" flag="0"/>
      <vel value="0.0003978003" flag="0"/>
      <psa03 value="0.0033798701" flag="0"/>
      <psa10 value="0.0001007416" flag="0"/>
      <psa30 value="0.0000136461" flag="0"/>
    </comp>
    <comp name="--.HHZ">
      <acc value="0.0013759852" flag="0"/>
      <vel value="0.0005389470" flag="0"/>
      <psa03 value="0.0020900348" flag="0"/>
      <psa10 value="0.0003255362" flag="0"/>
      <psa30 value="0.0000311169" flag="0"/>
    </comp>
  </station>
  <station code="SPDC" name="SPDC" netid="IY" insttype="" lat="38.5264" lon="16.1322">
    <comp name="--.HHE">
      <acc value="0.0227050755" flag="0"/>
      <vel value="0.0100464581" flag="0"/>
      <psa03 value="0.0702533783" flag="0"/>
      <psa10 value="0.0078176352" flag="0"/>
      <psa30 value="0.0004335561" flag="0"/>
    </comp>
    <comp name="--.HHZ">
      <acc value="0.0141747948" flag="0"/>
      <vel value="0.0040121275" flag="0"/>
      <psa03 value="0.0263763271" flag="0"/>
      <psa10 value="0.0012727127" flag="0"/>
      <psa30 value="0.0000962106" flag="0"/>
    </comp>
    <comp name="--.HHN">
      <acc value="0.0203643247" flag="0"/>
      <vel value="0.0094274523" flag="0"/>
      <psa03 value="0.0472203688" flag="0"/>
      <psa10 value="0.0072194952" flag="0"/>
      <psa30 value="0.0003743887" flag="0"/>
    </comp>
  </station>
  <station code="CNESE" name="CNESE" netid="XE" insttype="" lat="39.8941" lon="16.0843">
    <comp name="--.HHE">
      <acc value="0.0023851835" flag="0"/>
      <vel value="0.0010653055" flag="0"/>
      <psa03 value="0.0034017454" flag="0"/>
      <psa10 value="0.0007953689" flag="0"/>
      <psa30 value="0.0001716408" flag="0"/>
    </comp>
    <comp name="--.HHN">
      <acc value="0.0018569172" flag="0"/>
      <vel value="0.0004767216" flag="0"/>
      <psa03 value="0.0026428874" flag="0"/>
      <psa10 value="0.0007916464" flag="0"/>
      <psa30 value="0.0000804516" flag="0"/>
    </comp>
    <comp name="--.HHZ">
      <acc value="0.0017560080" flag="0"/>
      <vel value="0.0006376704" flag="0"/>
      <psa03 value="0.0022001636" flag="0"/>
      <psa10 value="0.0007375354" flag="0"/>
      <psa30 value="0.0000727858" flag="0"/>
    </comp>
  </station>
  <station code="FRASC" name="FRASC" netid="XE" insttype="" lat="39.8381" lon="16.2663">
    <comp name="--.HHE">
      <acc value="0.0019993743" flag="0"/>
      <vel value="0.0009525375" flag="0"/>
      <psa03 value="0.0043557094" flag="0"/>
      <psa10 value="0.0019949247" flag="0"/>
      <psa30 value="0.0001069856" flag="0"/>
    </comp>
    <comp name="--.HHN">
      <acc value="0.0019732470" flag="0"/>
      <vel value="0.0007112968" flag="0"/>
      <psa03 value="0.0055714537" flag="0"/>
      <psa10 value="0.0005073094" flag="0"/>
      <psa30 value="0.0000300469" flag="0"/>
    </comp>
