<?xml version="1.0" encoding="UTF-8" standalone="yes"?>
<!DOCTYPE earthquake SYSTEM "stationlist.dtd">
<stationlist created="" xmlns="ch.ethz.sed.shakemap.usgs.xml">
  <station code="ARPRA" name="ARPRA" netid="KO" insttype="CMG-5T" lat="39.0929" lon="38.3356">
    <comp name="--.HNE">
      <acc value="0.0470405209" flag="0"/>
      <vel value="0.0157388550" flag="0"/>
      <psa03 value="0.0740709974" flag="0"/>
      <psa10 value="0.0086325343" flag="0"/>
      <psa30 value="0.0009485946" flag="0"/>
    </comp>
    <comp name="--.HNN">
      <acc value="0.0325253643" flag="0"/>
      <vel value="0.0129163729" flag="0"/>
      <psa03 value="0.0868711885" flag="0"/>
      <psa10 value="0.0115363284" flag="0"/>
      <psa30 value="0.0006925171" flag="0"/>
    </comp>
    <comp name="--.HNZ">
      <acc value="0.0211125074" flag="0"/>
      <vel value="0.0074994430" flag="0"/>
      <psa03 value="0.0288384796" flag="0"/>
      <psa10 value="0.0049701483" flag="0"/>
      <psa30 value="0.0005067133" flag="0"/>
    </comp>
  </station>
  <station code="DARE" name="DARE" netid="KO" insttype="CMG-3ESP" lat="38.5712" lon="37.4832">
    <comp name="--.HHN">
      <acc value="0.0180130983" flag="0"/>
      <vel value="0.0125572696" flag="0"/>
      <psa03 value="0.0261085067" flag="0"/>
      <psa10 value="0.0150581309" flag="0"/>
      <psa30 value="0.0007842500" flag="0"/>
    </comp>
    <comp name="--.HHE">
      <acc value="0.0144819451" flag="0"/>
      <vel value="0.0065857098" flag="0"/>
      <psa03 value="0.0241853781" flag="0"/>
      <psa10 value="0.0052500036" flag="0"/>
      <psa30 value="0.0004740859" flag="0"/>
    </comp>
    <comp name="--.HHZ">
      <acc value="0.0159364933" flag="0"/>
      <vel value="0.0049526481" flag="0"/>
      <psa03 value="0.0290994965" flag="0"/>
      <psa10 value="0.0044815828" flag="0"/>
      <psa30 value="0.0005611822" flag="0"/>
    </comp>
  </station>
  <station code="SVRC" name="SVRC" netid="KO" insttype="CMG-3T" lat="38.3775" lon="39.306">
    <comp name="--.HHN">
      <acc value="0.0044379026" flag="0"/>
      <vel value="0.0023415813" flag="0"/>
      <psa03 value="0.0166576239" flag="0"/>
      <psa10 value="0.0015454770" flag="0"/>
      <psa30 value="0.0001385369" flag="0"/>
    </comp>
    <comp name="--.HHE">
      <acc value="0.0044112921" flag="0"/>
      <vel value="0.0026829803" flag="0"/>
      <psa03 value="0.0167887574" flag="0"/>
      <psa10 value="0.0017419385" flag="0"/>
      <psa30 value="0.0001860981" flag="0"/>
    </comp>
    <comp name="--.HHZ">
      <acc value="0.0029671908" flag="0"/>
      <vel value="0.0015036742" flag="0"/>
      <psa03 value="0.0086048988" flag="0"/>
      <psa10 value="0.0012988909" flag="0"/>
      <psa30 value="0.0001797652" flag="0"/>
    </comp>
  </station>
</stationlist>
