<?xml version="1.0" encoding="UTF-8" standalone="yes"?>
<!DOCTYPE earthquake SYSTEM "stationlist.dtd">
<stationlist created="" xmlns="ch.ethz.sed.shakemap.usgs.xml">
  <station code="GAZ" name="GAZ" netid="KO" insttype="CMG-3T" lat="37.1721" lon="37.2096">
    <comp name="--.HHZ">
      <acc value="0.0644403568" flag="0"/>
      <vel value="0.0363431161" flag="0"/>
      <psa03 value="0.1453009687" flag="0"/>
      <psa10 value="0.0511011274" flag="0"/>
      <psa30 value="0.0057240684" flag="0"/>
    </comp>
    <comp name="--.HHN">
      <acc value="0.1245326823" flag="0"/>
      <vel value="0.0492116894" flag="0"/>
      <psa03 value="0.2140877515" flag="0"/>
      <psa10 value="0.0496097704" flag="0"/>
      <psa30 value="0.0062867222" flag="0"/>
    </comp>
  </station>
  <station code="ANDN" name="ANDN" netid="TU" insttype="T" lat="37.58" lon="36.3452">
    <comp name="--.HHE">
      <acc value="0.1600044912" flag="0"/>
      <vel value="0.0700593842" flag="0"/>
      <psa03 value="0.2388057857" flag="0"/>
      <psa10 value="0.0812929395" flag="0"/>
      <psa30 value="0.0053873750" flag="0"/>
    </comp>
    <comp name="--.HHN">
      <acc value="0.2941011663" flag="0"/>
      <vel value="0.1112997359" flag="0"/>
      <psa03 value="0.5123413184" flag="0"/>
      <psa10 value="0.0952629733" flag="0"/>
      <psa30 value="0.0052695431" flag="0"/>
    </comp>
    <comp name="--.HHZ">
      <acc value="0.1179917549" flag="0"/>
      <vel value="0.0686011308" flag="0"/>
      <psa03 value="0.1144836611" flag="0"/>
      <psa10 value="0.0891947051" flag="0"/>
      <psa30 value="0.0046144229" flag="0"/>
    </comp>
  </station>
</stationlist>
