<?xml version="1.0" encoding="UTF-8" standalone="yes"?>
<!DOCTYPE earthquake SYSTEM "stationlist.dtd">
<stationlist created="" xmlns="ch.ethz.sed.shakemap.usgs.xml">
  <station code="LMN1" name="LMN1" netid="HI" insttype="CMG-5TD,ACCELEROMETER,GURALP" lat="39.875" lon="25.0588">
    <comp name="--.HNZ">
      <acc value="1.5400701012" flag="0"/>
      <vel value="0.1922326075" flag="0"/>
      <psa03 value="0.1765930963" flag="0"/>
      <psa10 value="0.0148768342" flag="0"/>
      <psa30 value="0.0015642950" flag="0"/>
    </comp>
    <comp name="--.HNE">
      <acc value="0.4894616212" flag="0"/>
      <vel value="0.1030621471" flag="0"/>
      <psa03 value="0.2426399010" flag="0"/>
      <psa10 value="0.0178882494" flag="0"/>
      <psa30 value="0.0011022829" flag="0"/>
    </comp>
    <comp name="--.HNN">
      <acc value="0.5071004489" flag="0"/>
      <vel value="0.1002936971" flag="0"/>
      <psa03 value="0.2833641928" flag="0"/>
      <psa10 value="0.0183099206" flag="0"/>
      <psa30 value="0.0019507797" flag="0"/>
    </comp>
  </station>
  <station code="THS1" name="THS1" netid="HI" insttype="CMG-5TD,ACCELEROMETER,GURALP" lat="40.7385" lon="24.5751">
    <comp name="--.HNZ">
      <acc value="0.1750044443" flag="0"/>
      <vel value="0.0357204748" flag="0"/>
      <psa03 value="0.0650409198" flag="0"/>
      <psa10 value="0.0124192134" flag="0"/>
      <psa30 value="0.0007854139" flag="0"/>
    </comp>
    <comp name="--.HNE">
      <acc value="0.2134242448" flag="0"/>
      <vel value="0.0492474037" flag="0"/>
      <psa03 value="0.1990452217" flag="0"/>
      <psa10 value="0.0133308092" flag="0"/>
      <psa30 value="0.0010659223" flag="0"/>
    </comp>
    <comp name="--.HNN">
      <acc value="0.1741853178" flag="0"/>
      <vel value="0.0604129935" flag="0"/>
      <psa03 value="0.3407409289" flag="0"/>
      <psa10 value="0.0274527393" flag="0"/>
      <psa30 value="0.0020037233" flag="0"/>
    </comp>
  </station>
  <station code="EFSA" name="EFSA" netid="HL" insttype="CMG-5" lat="39.5401" lon="24.9886">
    <comp name="00.HNE">
      <acc value="0.0323096538" flag="0"/>
      <vel value="0.0110811876" flag="0"/>
      <psa03 value="0.0374233589" flag="0"/>
      <psa10 value="0.0095853776" flag="0"/>
      <psa30 value="0.0007315769" flag="0"/>
    </comp>
    <comp name="00.HNN">
      <acc value="0.0284561607" flag="0"/>
      <vel value="0.0070798730" flag="0"/>
      <psa03 value="0.0267014487" flag="0"/>
      <psa10 value="0.0046299048" flag="0"/>
      <psa30 value="0.0005974096" flag="0"/>
    </comp>
    <comp name="00.HNZ">
      <acc value="0.0297822801" flag="0"/>
      <vel value="0.0078037322" flag="0"/>
      <psa03 value="0.0267901746" flag="0"/>
      <psa10 value="0.0047143522" flag="0"/>
      <psa30 value="0.0004106603" flag="0"/>
    </comp>
  </station>
  <station code="LIA" name="LIA" netid="HL" insttype="P6C" lat="39.8972" lon="25.1806">
    <comp name="--.HHE">
      <acc value="0.4898405075" flag="0"/>
      <vel value="0.1355019976" flag="0"/>
      <psa03 value="0.4764089431" flag="0"/>
      <psa10 value="0.0432209554" flag="0"/>
      <psa30 value="0.0047194347" flag="0"/>
    </comp>
    <comp name="--.HHN">
      <acc value="0.4024656800" flag="0"/>
      <vel value="0.0888187718" flag="0"/>
      <psa03 value="0.4549467403" flag="0"/>
      <psa10 value="0.0354887589" flag="0"/>
      <psa30 value="0.0030569483" flag="0"/>
    </comp>
    <comp name="--.HHZ">
      <acc value="0.3049377512" flag="0"/>
      <vel value="0.0546418119" flag="0"/>
      <psa03 value="0.3533361927" flag="0"/>
      <psa10 value="0.0181865904" flag="0"/>
      <psa30 value="0.0011127348" flag="0"/>
    </comp>
  </station>
  <station code="SMTH" name="SMTH" netid="HL" insttype="CMG3ESPC60_P6C" lat="40.4709" lon="25.5304">
    <comp name="--.HHZ">
      <acc value="0.0991318021" flag="0"/>
      <vel value="0.0152018668" flag="0"/>
      <psa03 value="0.0246818924" flag="0"/>
      <psa10 value="0.0022650411" flag="0"/>
      <psa30 value="0.0002596591" flag="0"/>
    </comp>
    <comp name="--.HHE">
      <acc value="0.0894350062" flag="0"/>
      <vel value="0.0154799782" flag="0"/>
      <psa03 value="0.0519535287" flag="0"/>
      <psa10 value="0.0031937596" flag="0"/>
      <psa30 value="0.0002763591" flag="0"/>
    </comp>
    <comp name="--.HHN">
      <acc value="0.0744613727" flag="0"/>
      <vel value="0.0140029422" flag="0"/>
      <psa03 value="0.0454858064" flag="0"/>
      <psa10 value="0.0028449259" flag="0"/>
      <psa30 value="0.0002589650" flag="0"/>
    </comp>
  </station>
  <station code="OUR" name="OUR" netid="HT" insttype="100" lat="40.3325" lon="23.9791">
    <comp name="--.HHE">
      <acc value="0.0260663219" flag="0"/>
      <vel value="0.0069052417" flag="0"/>
      <psa03 value="0.0348396943" flag="0"/>
      <psa10 value="0.0028505768" flag="0"/>
      <psa30 value="0.0002336586" flag="0"/>
    </comp>
    <comp name="--.HHN">
      <acc value="0.0166058219" flag="0"/>
      <vel value="0.0046236372" flag="0"/>
      <psa03 value="0.0164926096" flag="0"/>
      <psa10 value="0.0025224790" flag="0"/>
      <psa30 value="0.0002334875" flag="0"/>
    </comp>
    <comp name="--.HHZ">
      <acc value="0.0250707140" flag="0"/>
      <vel value="0.0057823644" flag="0"/>
      <psa03 value="0.0217180092" flag="0"/>
      <psa10 value="0.0018171240" flag="0"/>
      <psa30 value="0.0001872592" flag="0"/>
    </comp>
  </station>
  <station code="THAS" name="THAS" netid="HT" insttype="100" lat="40.6064" lon="24.7194">
    <comp name="--.HHE">
      <acc value="0.1515976222" flag="0"/>
      <vel value="0.0288209740" flag="0"/>
      <psa03 value="0.1282697718" flag="0"/>
      <psa10 value="0.0068832430" flag="0"/>
      <psa30 value="0.0004424915" flag="0"/>
    </comp>
    <comp name="--.HHN">
      <acc value="0.2104271473" flag="0"/>
      <vel value="0.0410334501" flag="0"/>
      <psa03 value="0.1143527756" flag="0"/>
      <psa10 value="0.0136315874" flag="0"/>
      <psa30 value="0.0008078206" flag="0"/>
    </comp>
    <comp name="--.HHZ">
      <acc value="0.0741209453" flag="0"/>
      <vel value="0.0141534287" flag="0"/>
      <psa03 value="0.0495172665" flag="0"/>
      <psa10 value="0.0064604363" flag="0"/>
      <psa30 value="0.0002814340" flag="0"/>
    </comp>
  </station>
</stationlist>
