<?xml version="1.0" encoding="UTF-8" standalone="yes"?>
<!DOCTYPE earthquake SYSTEM "stationlist.dtd">
<stationlist created="" xmlns="ch.ethz.sed.shakemap.usgs.xml">
  <station code="KARP" name="KARP" netid="GE" insttype="STS-2/N" lat="35.5471" lon="27.1611">
    <comp name="--.HHE">
      <acc value="0.0381874069" flag="0"/>
      <vel value="0.0223636721" flag="0"/>
      <psa03 value="0.0871913180" flag="0"/>
      <psa10 value="0.0329790127" flag="0"/>
      <psa30 value="0.0011572603" flag="0"/>
    </comp>
    <comp name="--.HHN">
      <acc value="0.0405898846" flag="0"/>
      <vel value="0.0262387979" flag="0"/>
      <psa03 value="0.0565275413" flag="0"/>
      <psa10 value="0.0510878085" flag="0"/>
      <psa30 value="0.0021844854" flag="0"/>
    </comp>
    <comp name="--.HHZ">
      <acc value="0.0288781968" flag="0"/>
      <vel value="0.0175868576" flag="0"/>
      <psa03 value="0.0582290076" flag="0"/>
      <psa10 value="0.0204770565" flag="0"/>
      <psa30 value="0.0010334316" flag="0"/>
    </comp>
  </station>
  <station code="RDI1" name="RDI1" netid="HI" insttype="CMG-5TD,ACCELEROMETER,GURALP" lat="36.4514" lon="28.224">
    <comp name="--.HNE">
      <acc value="0.0186956135" flag="0"/>
      <vel value="0.0199278579" flag="0"/>
      <psa03 value="0.0340377269" flag="0"/>
      <psa10 value="0.0262287572" flag="0"/>
      <psa30 value="0.0057027444" flag="0"/>
    </comp>
    <comp name="--.HNZ">
      <acc value="0.0151058112" flag="0"/>
      <vel value="0.0122597461" flag="0"/>
      <psa03 value="0.0406306081" flag="0"/>
      <psa10 value="0.0194726482" flag="0"/>
      <psa30 value="0.0012993378" flag="0"/>
    </comp>
    <comp name="--.HNN">
      <acc value="0.0157281706" flag="0"/>
      <vel value="0.0160539042" flag="0"/>
      <psa03 value="0.0619552165" flag="0"/>
      <psa10 value="0.0370887047" flag="0"/>
      <psa30 value="0.0040978268" flag="0"/>
    </comp>
  </station>
  <station code="ARG" name="ARG" netid="HL" insttype="LE3D20_DR24" lat="36.2136" lon="28.1212">
    <comp name="--.HHE">
      <acc value="0.0686211758" flag="0"/>
      <vel value="0.0551826793" flag="0"/>
      <psa03 value="0.1858569861" flag="0"/>
      <psa10 value="0.0416674955" flag="0"/>
      <psa30 value="0.0056363327" flag="0"/>
    </comp>
    <comp name="--.HHN">
      <acc value="0.0686810210" flag="0"/>
      <vel value="0.0283237950" flag="0"/>
      <psa03 value="0.1884464001" flag="0"/>
      <psa10 value="0.0189648322" flag="0"/>
      <psa30 value="0.0012704608" flag="0"/>
    </comp>
    <comp name="--.HHZ">
      <acc value="0.0327204132" flag="0"/>
      <vel value="0.0141321253" flag="0"/>
      <psa03 value="0.0664409502" flag="0"/>
      <psa10 value="0.0324559658" flag="0"/>
      <psa30 value="0.0019412257" flag="0"/>
    </comp>
  </station>
  <station code="KARP" name="KARP" netid="HL" insttype="120" lat="35.5471" lon="27.1611">
    <comp name="--.HHE">
      <acc value="0.0353625502" flag="0"/>
      <vel value="0.0216675067" flag="0"/>
      <psa03 value="0.0851139561" flag="0"/>
      <psa10 value="0.0327885380" flag="0"/>
      <psa30 value="0.0011477108" flag="0"/>
    </comp>
    <comp name="--.HHZ">
      <acc value="0.0270257181" flag="0"/>
      <vel value="0.0173605978" flag="0"/>
      <psa03 value="0.0563958360" flag="0"/>
      <psa10 value="0.0203562568" flag="0"/>
      <psa30 value="0.0010313813" flag="0"/>
    </comp>
    <comp name="--.HHN">
      <acc value="0.0393852937" flag="0"/>
      <vel value="0.0260056288" flag="0"/>
      <psa03 value="0.0550518117" flag="0"/>
      <psa10 value="0.0507612497" flag="0"/>
      <psa30 value="0.0021746816" flag="0"/>
    </comp>
  </station>
  <station code="KLNA" name="KLNA" netid="HL" insttype="CMG-5" lat="36.9571" lon="26.9727">
    <comp name="00.HNN">
      <acc value="0.0543146848" flag="0"/>
      <vel value="0.0177055590" flag="0"/>
      <psa03 value="0.1321173068" flag="0"/>
      <psa10 value="0.0091902903" flag="0"/>
      <psa30 value="0.0009002766" flag="0"/>
    </comp>
    <comp name="00.HNZ">
      <acc value="0.0481223191" flag="0"/>
      <vel value="0.0123203183" flag="0"/>
      <psa03 value="0.0424447457" flag="0"/>
      <psa10 value="0.0050069810" flag="0"/>
      <psa30 value="0.0007413111" flag="0"/>
    </comp>
    <comp name="00.HNE">
      <acc value="0.0545650161" flag="0"/>
      <vel value="0.0226125445" flag="0"/>
      <psa03 value="0.1919255000" flag="0"/>
      <psa10 value="0.0110166055" flag="0"/>
      <psa30 value="0.0012415849" flag="0"/>
    </comp>
  </station>
  <station code="NISR" name="NISR" netid="HL" insttype="65535" lat="36.6106" lon="27.131">
    <comp name="--.HHE">
      <acc value="1.0007419521" flag="0"/>
      <vel value="0.2325092798" flag="0"/>
      <psa03 value="0.8879037328" flag="0"/>
      <psa10 value="0.0601945713" flag="0"/>
      <psa30 value="0.0067049283" flag="0"/>
    </comp>
    <comp name="--.HHN">
      <acc value="0.7510852833" flag="0"/>
      <vel value="0.1605332453" flag="0"/>
      <psa03 value="0.5242122068" flag="0"/>
      <psa10 value="0.0591843946" flag="0"/>
      <psa30 value="0.0253439231" flag="0"/>
    </comp>
    <comp name="--.HHZ">
      <acc value="0.3707540494" flag="0"/>
      <vel value="0.0631961278" flag="0"/>
      <psa03 value="0.2996326467" flag="0"/>
      <psa10 value="0.0282526219" flag="0"/>
      <psa30 value="0.0023651681" flag="0"/>
    </comp>
  </station>
</stationlist>
