<stationlist created="1778136876">
	<station code="KRL1" name="KRL1" netid="HI" source="ITSAK Strong Motion Network" insttype="" lat="37.7951" lon="26.7065">
		<comp name="--.HNE" depth="0.0">
			<acc value="0.0152554113993086" flag="0"/>
			<vel value="0.0128928795748976" flag="0"/>
			<psa03 value="0.0330421732568101" flag="0"/>
			<psa10 value="0.0145188177379241" flag="0"/>
			<psa30 value="0.00123755000244725" flag="0"/>
		</comp>
		<comp name="--.HNN" depth="0.0">
			<acc value="0.00827001348664405" flag="0"/>
			<vel value="0.010621328716159" flag="0"/>
			<psa03 value="0.0194287323706533" flag="0"/>
			<psa10 value="0.0142363274618089" flag="0"/>
			<psa30 value="0.000893696182151879" flag="0"/>
		</comp>
		<comp name="--.HNZ" depth="0.0">
			<acc value="0.00749503863283918" flag="0"/>
			<vel value="0.00628343118714753" flag="0"/>
			<psa03 value="0.0123565008491991" flag="0"/>
			<psa10 value="0.0083618717454617" flag="0"/>
			<psa30 value="0.000639002695375666" flag="0"/>
		</comp>
	</station>
	<station code="KSS1" name="KSS1" netid="HI" source="ITSAK Strong Motion Network" insttype="" lat="35.4189" lon="26.9207">
		<comp name="--.HNE" depth="0.0">
			<acc value="0.0125941289669238" flag="0"/>
			<vel value="0.00652838892057083" flag="0"/>
			<psa03 value="0.0517516730860707" flag="0"/>
			<psa10 value="0.00399013260795097" flag="0"/>
			<psa30 value="0.0003315106067841" flag="0"/>
		</comp>
		<comp name="--.HNN" depth="0.0">
			<acc value="0.0117795372481802" flag="0"/>
			<vel value="0.00448020234959893" flag="0"/>
			<psa03 value="0.0360932061019432" flag="0"/>
			<psa10 value="0.00510607997147222" flag="0"/>
			<psa30 value="0.000426542605312766" flag="0"/>
		</comp>
		<comp name="--.HNZ" depth="0.0">
			<acc value="0.0063766545233806" flag="0"/>
			<vel value="0.00253967851610359" flag="0"/>
			<psa03 value="0.0114945049441449" flag="0"/>
			<psa10 value="0.00455562741294551" flag="0"/>
			<psa30 value="0.000374579501553498" flag="0"/>
		</comp>
	</station>
	<station code="NAX1" name="NAX1" netid="HI" source="ITSAK Strong Motion Network" insttype="" lat="37.101394" lon="25.374103">
		<comp name="--.HNE" depth="0.0">
			<acc value="0.0025894890042009" flag="0"/>
			<vel value="0.00219756623494801" flag="0"/>
			<psa03 value="0.00799147275520568" flag="0"/>
			<psa10 value="0.0036346146816359" flag="0"/>
			<psa30 value="0.000335464202023737" flag="0"/>
		</comp>
		<comp name="--.HNN" depth="0.0">
			<acc value="0.00432631143632295" flag="0"/>
			<vel value="0.00301804753785372" flag="0"/>
			<psa03 value="0.0148089067986288" flag="0"/>
			<psa10 value="0.00275254101420749" flag="0"/>
			<psa30 value="0.000342913471542922" flag="0"/>
		</comp>
		<comp name="--.HNZ" depth="0.0">
			<acc value="0.00259931342787239" flag="0"/>
			<vel value="0.00168577065140739" flag="0"/>
			<psa03 value="0.00843294145348727" flag="0"/>
			<psa10 value="0.00282685124939845" flag="0"/>
			<psa30 value="0.000553367334954408" flag="0"/>
		</comp>
	</station>
	<station code="RDI1" name="RDI1" netid="HI" source="ITSAK Strong Motion Network" insttype="" lat="36.4514" lon="28.224">
		<comp name="--.HNE" depth="0.0">
			<acc value="0.0187057377945736" flag="0"/>
			<vel value="0.0204935394643867" flag="0"/>
			<psa03 value="0.0334964273072517" flag="0"/>
			<psa10 value="0.0260520589460312" flag="0"/>
			<psa30 value="0.00612788385889877" flag="0"/>
		</comp>
		<comp name="--.HNN" depth="0.0">
			<acc value="0.0158396941418431" flag="0"/>
			<vel value="0.0156353437420014" flag="0"/>
			<psa03 value="0.0611425243505679" flag="0"/>
			<psa10 value="0.0371711236545178" flag="0"/>
			<psa30 value="0.004692295424879" flag="0"/>
		</comp>
		<comp name="--.HNZ" depth="0.0">
			<acc value="0.0150003084102214" flag="0"/>
			<vel value="0.0127853399513923" flag="0"/>
			<psa03 value="0.040740756166818" flag="0"/>
			<psa10 value="0.0196252825786452" flag="0"/>
			<psa30 value="0.00149542521041632" flag="0"/>
		</comp>
	</station>
	<station code="SIT2" name="SIT2" netid="HI" source="ITSAK Strong Motion Network" insttype="" lat="35.2059" lon="26.107">
		<comp name="--.HNE" depth="0.0">
			<acc value="0.018684591181087" flag="0"/>
			<vel value="0.0169045977265909" flag="0"/>
			<psa03 value="0.0524654391195123" flag="0"/>
			<psa10 value="0.0110865041139806" flag="0"/>
			<psa30 value="0.000921247069763962" flag="0"/>
		</comp>
		<comp name="--.HNN" depth="0.0">
			<acc value="0.0261511986743639" flag="0"/>
			<vel value="0.0208813610535239" flag="0"/>
			<psa03 value="0.0816609669297361" flag="0"/>
			<psa10 value="0.0146541079502397" flag="0"/>
			<psa30 value="0.000818022210791269" flag="0"/>
		</comp>
		<comp name="--.HNZ" depth="0.0">
			<acc value="0.0140698332710188" flag="0"/>
			<vel value="0.00737682380646907" flag="0"/>
			<psa03 value="0.0371462576322698" flag="0"/>
			<psa10 value="0.00368853528485922" flag="0"/>
			<psa30 value="0.000443212693999132" flag="0"/>
		</comp>
	</station>
	<station code="AGNA" name="AGNA" netid="HL" source="National Observatory of Athens Seismic Network" insttype="" lat="35.1895" lon="25.71853">
		<comp name="00.HNE" depth="0.0">
			<acc value="0.00554660407263771" flag="0"/>
			<vel value="0.00431495569383056" flag="0"/>
			<psa03 value="0.0106343672350563" flag="0"/>
			<psa10 value="0.00380538669756614" flag="0"/>
			<psa30 value="0.000477246302726976" flag="0"/>
		</comp>
		<comp name="00.HNN" depth="0.0">
			<acc value="0.0092282150116801" flag="0"/>
			<vel value="0.00818832948220386" flag="0"/>
			<psa03 value="0.0163552436108529" flag="0"/>
			<psa10 value="0.0130422689863088" flag="0"/>
			<psa30 value="0.00129828527585966" flag="0"/>
		</comp>
		<comp name="00.HNZ" depth="0.0">
			<acc value="0.0141750139991364" flag="0"/>
			<vel value="0.0023018474046368" flag="0"/>
			<psa03 value="0.00587826961485733" flag="0"/>
			<psa10 value="0.0028928933587365" flag="0"/>
			<psa30 value="0.000377149984335296" flag="0"/>
		</comp>
	</station>
	<station code="KARP" name="KARP" netid="HL" source="National Observatory of Athens Seismic Network" insttype="" lat="35.5471" lon="27.16106">
		<comp name="--.HNE" depth="0.0">
			<acc value="0.0280535692811329" flag="0"/>
			<vel value="0.0181909000457299" flag="0"/>
			<psa03 value="0.0730142222507233" flag="0"/>
			<psa10 value="0.0250761242951798" flag="0"/>
			<psa30 value="0.00081319058863578" flag="0"/>
		</comp>
		<comp name="--.HNN" depth="0.0">
			<acc value="0.0325543797230863" flag="0"/>
			<vel value="0.0236950804338527" flag="0"/>
			<psa03 value="0.044910730323814" flag="0"/>
			<psa10 value="0.0467711146069539" flag="0"/>
			<psa30 value="0.00197139497023959" flag="0"/>
		</comp>
		<comp name="--.HNZ" depth="0.0">
			<acc value="0.0222651297845799" flag="0"/>
			<vel value="0.0140978794423612" flag="0"/>
			<psa03 value="0.0469017684703361" flag="0"/>
			<psa10 value="0.0163066877380529" flag="0"/>
			<psa30 value="0.000862385149616516" flag="0"/>
		</comp>
	</station>
	<station code="KLNA" name="KLNA" netid="HL" source="National Observatory of Athens Seismic Network" insttype="" lat="36.95708" lon="26.97274">
		<comp name="00.HNE" depth="0.0">
			<acc value="0.0539957531166628" flag="0"/>
			<vel value="0.0229857103608835" flag="0"/>
			<psa03 value="0.193398832556774" flag="0"/>
			<psa10 value="0.0110311832617408" flag="0"/>
			<psa30 value="0.00133137663466622" flag="0"/>
		</comp>
		<comp name="00.HNN" depth="0.0">
			<acc value="0.0533870191659039" flag="0"/>
			<vel value="0.0179498561878951" flag="0"/>
			<psa03 value="0.133094806461246" flag="0"/>
			<psa10 value="0.00917838802314314" flag="0"/>
			<psa30 value="0.000982500710852234" flag="0"/>
		</comp>
		<comp name="00.HNZ" depth="0.0">
			<acc value="0.0481784500015016" flag="0"/>
			<vel value="0.0120090247927323" flag="0"/>
			<psa03 value="0.0427446962096866" flag="0"/>
			<psa10 value="0.00505552943526293" flag="0"/>
			<psa30 value="0.000770847314851712" flag="0"/>
		</comp>
	</station>
	<station code="NISR" name="NISR" netid="HL" source="National Observatory of Athens Seismic Network" insttype="" lat="36.6106" lon="27.131">
		<comp name="--.HNE" depth="0.0">
			<acc value="0.854408700968511" flag="0"/>
			<vel value="0.205023728687823" flag="0"/>
			<psa03 value="0.826553755128382" flag="0"/>
			<psa10 value="0.0632546228082509" flag="0"/>
			<psa30 value="0.00823219700932116" flag="0"/>
		</comp>
		<comp name="--.HNN" depth="0.0">
			<acc value="0.708598584671386" flag="0"/>
			<vel value="0.165715212596464" flag="0"/>
			<psa03 value="0.462443884636393" flag="0"/>
			<psa10 value="0.0346047123923637" flag="0"/>
			<psa30 value="0.00666950682210047" flag="0"/>
		</comp>
		<comp name="--.HNZ" depth="0.0">
			<acc value="0.331739493894563" flag="0"/>
			<vel value="0.057575482204506" flag="0"/>
			<psa03 value="0.25616394877111" flag="0"/>
			<psa10 value="0.0281935858116836" flag="0"/>
			<psa30 value="0.00270093079840804" flag="0"/>
		</comp>
	</station>
	<station code="RODB" name="RODB" netid="HL" source="National Observatory of Athens Seismic Network" insttype="" lat="36.4471" lon="28.22116">
		<comp name="00.HNE" depth="0.0">
			<acc value="0.0159159030741822" flag="0"/>
			<vel value="0.0234444879490323" flag="0"/>
			<psa03 value="0.0410484171728339" flag="0"/>
			<psa10 value="0.0256012453318496" flag="0"/>
			<psa30 value="0.00408849709286916" flag="0"/>
		</comp>
		<comp name="00.HNN" depth="0.0">
			<acc value="0.028839933715167" flag="0"/>
			<vel value="0.0222755613210907" flag="0"/>
			<psa03 value="0.0787527169810564" flag="0"/>
			<psa10 value="0.0349130540684771" flag="0"/>
			<psa30 value="0.00517515032831327" flag="0"/>
		</comp>
		<comp name="00.HNZ" depth="0.0">
			<acc value="0.0144098596841004" flag="0"/>
			<vel value="0.011759646993142" flag="0"/>
			<psa03 value="0.0247146268060799" flag="0"/>
			<psa10 value="0.0179749407516003" flag="0"/>
			<psa30 value="0.00152877158611395" flag="0"/>
		</comp>
	</station>
	<station code="THRA" name="THRA" netid="HL" source="National Observatory of Athens Seismic Network" insttype="" lat="36.41502" lon="25.43244">
		<comp name="00.HNE" depth="0.0">
			<acc value="0.0222203632161702" flag="0"/>
			<vel value="0.0189839235557223" flag="0"/>
			<psa03 value="0.0663766940051987" flag="0"/>
			<psa10 value="0.0209640856428048" flag="0"/>
			<psa30 value="0.00300623873189524" flag="0"/>
		</comp>
		<comp name="00.HNN" depth="0.0">
			<acc value="0.0221154212834964" flag="0"/>
			<vel value="0.0199737821009103" flag="0"/>
			<psa03 value="0.0569774463510942" flag="0"/>
			<psa10 value="0.0214204683758999" flag="0"/>
			<psa30 value="0.00230196166033082" flag="0"/>
		</comp>
		<comp name="00.HNZ" depth="0.0">
			<acc value="0.0186959790155187" flag="0"/>
			<vel value="0.0125519938886094" flag="0"/>
			<psa03 value="0.0766501454041588" flag="0"/>
			<psa10 value="0.00950334329984406" flag="0"/>
			<psa30 value="0.00093011171950273" flag="0"/>
		</comp>
	</station>
	<station code="CAME" name="CAME" netid="KO" source="Bogazici University Kandilli Observatory And Earthquake Research Institute (KOERI)" insttype="" lat="36.9435" lon="29.3023">
		<comp name="--.HNE" depth="0.0">
			<acc value="0.00405696266169931" flag="0"/>
			<vel value="0.00318595777988263" flag="0"/>
			<psa03 value="0.0110822575826588" flag="0"/>
			<psa10 value="0.00377467802264446" flag="0"/>
			<psa30 value="0.000375755725306108" flag="0"/>
		</comp>
		<comp name="--.HNN" depth="0.0">
			<acc value="0.0037322623014347" flag="0"/>
			<vel value="0.00323327554537063" flag="0"/>
			<psa03 value="0.0161484408486918" flag="0"/>
			<psa10 value="0.00300406080115889" flag="0"/>
			<psa30 value="0.00026304286800739" flag="0"/>
		</comp>
		<comp name="--.HNZ" depth="0.0">
			<acc value="0.00218419664516527" flag="0"/>
			<vel value="0.00245547482746711" flag="0"/>
			<psa03 value="0.00685140634601437" flag="0"/>
			<psa10 value="0.00227680559282157" flag="0"/>
			<psa30 value="0.000337231037818075" flag="0"/>
		</comp>
	</station>
</stationlist>
