<?xml version="1.0" encoding="UTF-8" standalone="yes"?>
<!DOCTYPE earthquake SYSTEM "stationlist.dtd">
<stationlist created="" xmlns="ch.ethz.sed.shakemap.usgs.xml">
  <station code="AKS" name="AKS" netid="KO" insttype="CMG-5T" commtype="DIG" lat="38.8785" lon="27.8129">
    <comp name="--.HNN">
      <acc value="0.1260815467" flag="0"/>
      <vel value="0.0435777553" flag="0"/>
      <psa03 value="0.1691588535" flag="0"/>
      <psa10 value="0.0287373983" flag="0"/>
      <psa30 value="0.0042632376" flag="0"/>
    </comp>
    <comp name="--.HNZ">
      <acc value="0.1097758944" flag="0"/>
      <vel value="0.0250961565" flag="0"/>
      <psa03 value="0.0832611800" flag="0"/>
      <psa10 value="0.0120415425" flag="0"/>
      <psa30 value="0.0032925993" flag="0"/>
    </comp>
    <comp name="--.HNE">
      <acc value="0.1219630796" flag="0"/>
      <vel value="0.0389599272" flag="0"/>
      <psa03 value="0.1410840209" flag="0"/>
      <psa10 value="0.0364830220" flag="0"/>
      <psa30 value="0.0023498402" flag="0"/>
    </comp>
  </station>
  <station code="BALB" name="BALB" netid="KO" insttype="CMG-5T" commtype="DIG" lat="39.6507" lon="27.8642">
    <comp name="--.HNN">
      <acc value="0.0490000167" flag="0"/>
      <vel value="0.0226495192" flag="0"/>
      <psa03 value="0.1101974160" flag="0"/>
      <psa10 value="0.0170401188" flag="0"/>
      <psa30 value="0.0028163561" flag="0"/>
    </comp>
    <comp name="--.HNE">
      <acc value="0.0530721618" flag="0"/>
      <vel value="0.0183442371" flag="0"/>
      <psa03 value="0.0867756292" flag="0"/>
      <psa10 value="0.0151411622" flag="0"/>
      <psa30 value="0.0025274681" flag="0"/>
    </comp>
    <comp name="--.HNZ">
      <acc value="0.0544222922" flag="0"/>
      <vel value="0.0151135732" flag="0"/>
      <psa03 value="0.0447805687" flag="0"/>
      <psa10 value="0.0119254417" flag="0"/>
      <psa30 value="0.0020742143" flag="0"/>
    </comp>
  </station>
  <station code="DKL" name="DKL" netid="KO" insttype="CMG-3ESPC" commtype="DIG" lat="39.0713" lon="26.9053">
    <comp name="--.HHZ">
      <acc value="0.0193587582" flag="0"/>
      <vel value="0.0040083311" flag="0"/>
      <psa03 value="0.0172367373" flag="0"/>
      <psa10 value="0.0056127590" flag="0"/>
      <psa30 value="0.0014100413" flag="0"/>
    </comp>
    <comp name="--.HHE">
      <acc value="0.0026892457" flag="0"/>
      <vel value="0.0010947629" flag="0"/>
      <psa03 value="0.0043407747" flag="0"/>
      <psa10 value="0.0018341480" flag="0"/>
      <psa30 value="0.0002242966" flag="0"/>
    </comp>
    <comp name="--.HHN">
      <acc value="0.0022301074" flag="0"/>
      <vel value="0.0009677772" flag="0"/>
      <psa03 value="0.0049729012" flag="0"/>
      <psa10 value="0.0014996915" flag="0"/>
      <psa30 value="0.0001137193" flag="0"/>
    </comp>
  </station>
  <station code="DST" name="DST" netid="KO" insttype="CMG-5T" commtype="DIG" lat="39.6041" lon="28.6267">
    <comp name="--.HNE">
      <acc value="0.0414588353" flag="0"/>
      <vel value="0.0129132414" flag="0"/>
      <psa03 value="0.0580265142" flag="0"/>
      <psa10 value="0.0158556222" flag="0"/>
      <psa30 value="0.0027455006" flag="0"/>
    </comp>
    <comp name="--.HNN">
      <acc value="0.0469453985" flag="0"/>
      <vel value="0.0151850747" flag="0"/>
      <psa03 value="0.0439632734" flag="0"/>
      <psa10 value="0.0162399799" flag="0"/>
      <psa30 value="0.0028583240" flag="0"/>
    </comp>
    <comp name="--.HNZ">
      <acc value="0.0569664660" flag="0"/>
      <vel value="0.0145849130" flag="0"/>
      <psa03 value="0.0520303940" flag="0"/>
      <psa10 value="0.0140282679" flag="0"/>
      <psa30 value="0.0024203878" flag="0"/>
    </comp>
  </station>
  <station code="GEDZ" name="GEDZ" netid="KO" insttype="CMG-6T" commtype="DIG" lat="39.0445" lon="29.4105">
    <comp name="--.HHE">
      <acc value="0.0944957721" flag="0"/>
      <vel value="0.0352313111" flag="0"/>
      <psa03 value="0.1181574392" flag="0"/>
      <psa10 value="0.0682361537" flag="0"/>
      <psa30 value="0.0033965658" flag="0"/>
    </comp>
    <comp name="--.HHN">
      <acc value="0.1273996885" flag="0"/>
      <vel value="0.0552773541" flag="0"/>
      <psa03 value="0.1840793141" flag="0"/>
      <psa10 value="0.0814515236" flag="0"/>
      <psa30 value="0.0054696623" flag="0"/>
    </comp>
    <comp name="--.HHZ">
      <acc value="0.0425972656" flag="0"/>
      <vel value="0.0181759455" flag="0"/>
      <psa03 value="0.0368437269" flag="0"/>
      <psa10 value="0.0257857017" flag="0"/>
      <psa30 value="0.0015272687" flag="0"/>
    </comp>
  </station>
  <station code="GOMA" name="GOMA" netid="KO" insttype="CMG-5T" commtype="DIG" lat="38.7077" lon="27.9175">
    <comp name="--.HNE">
      <acc value="0.0996371508" flag="0"/>
      <vel value="0.0597800185" flag="0"/>
      <psa03 value="0.2427017533" flag="0"/>
      <psa10 value="0.0219755026" flag="0"/>
      <psa30 value="0.0017574941" flag="0"/>
    </comp>
    <comp name="--.HNN">
      <acc value="0.1208035531" flag="0"/>
      <vel value="0.0651207909" flag="0"/>
      <psa03 value="0.3749591898" flag="0"/>
      <psa10 value="0.0330959016" flag="0"/>
      <psa30 value="0.0030325153" flag="0"/>
    </comp>
    <comp name="--.HNZ">
      <acc value="0.0714721098" flag="0"/>
      <vel value="0.0282979781" flag="0"/>
      <psa03 value="0.1589732881" flag="0"/>
      <psa10 value="0.0097486326" flag="0"/>
      <psa30 value="0.0023100841" flag="0"/>
    </comp>
  </station>
  <station code="GONE" name="GONE" netid="KO" insttype="CMG-5T" commtype="DIG" lat="40.0466" lon="27.686">
    <comp name="--.HNZ">
      <acc value="0.0191141501" flag="0"/>
      <vel value="0.0050965121" flag="0"/>
      <psa03 value="0.0323501269" flag="0"/>
      <psa10 value="0.0061926992" flag="0"/>
      <psa30 value="0.0012481898" flag="0"/>
    </comp>
    <comp name="--.HNN">
      <acc value="0.0421831430" flag="0"/>
      <vel value="0.0201771788" flag="0"/>
      <psa03 value="0.0649956976" flag="0"/>
      <psa10 value="0.0164338711" flag="0"/>
      <psa30 value="0.0018184158" flag="0"/>
    </comp>
    <comp name="--.HNE">
      <acc value="0.0305069762" flag="0"/>
      <vel value="0.0118753558" flag="0"/>
      <psa03 value="0.0558620384" flag="0"/>
      <psa10 value="0.0131616436" flag="0"/>
      <psa30 value="0.0016595887" flag="0"/>
    </comp>
  </station>
  <station code="GORD" name="GORD" netid="KO" insttype="CMG-5T" commtype="DIG" lat="38.9088" lon="28.1769">
    <comp name="--.HNE">
      <acc value="0.1053343489" flag="0"/>
      <vel value="0.0653553413" flag="0"/>
      <psa03 value="0.1996853130" flag="0"/>
      <psa10 value="0.1183407250" flag="0"/>
      <psa30 value="0.0071532657" flag="0"/>
    </comp>
    <comp name="--.HNN">
      <acc value="0.1476570189" flag="0"/>
      <vel value="0.1169948958" flag="0"/>
      <psa03 value="0.2569812173" flag="0"/>
      <psa10 value="0.1285614086" flag="0"/>
      <psa30 value="0.0076952655" flag="0"/>
    </comp>
    <comp name="--.HNZ">
      <acc value="0.0996920747" flag="0"/>
      <vel value="0.0497407216" flag="0"/>
      <psa03 value="0.1368320210" flag="0"/>
      <psa10 value="0.0324939236" flag="0"/>
      <psa30 value="0.0073636532" flag="0"/>
    </comp>
  </station>
  <station code="KCTX" name="KCTX" netid="KO" insttype="CMG-3ESP" commtype="DIG" lat="40.2626" lon="28.3353">
    <comp name="--.HHN">
      <acc value="0.0275733139" flag="0"/>
      <vel value="0.0096747151" flag="0"/>
      <psa03 value="0.0340571503" flag="0"/>
      <psa10 value="0.0109029255" flag="0"/>
      <psa30 value="0.0011423309" flag="0"/>
    </comp>
    <comp name="--.HHZ">
      <acc value="0.0207443641" flag="0"/>
      <vel value="0.0078817453" flag="0"/>
      <psa03 value="0.0206886891" flag="0"/>
      <psa10 value="0.0082421735" flag="0"/>
      <psa30 value="0.0011619754" flag="0"/>
    </comp>
    <comp name="--.HHE">
      <acc value="0.0195472648" flag="0"/>
      <vel value="0.0171580399" flag="0"/>
      <psa03 value="0.0299779509" flag="0"/>
      <psa10 value="0.0226985970" flag="0"/>
      <psa30 value="0.0021029242" flag="0"/>
    </comp>
  </station>
  <station code="KULA" name="KULA" netid="KO" insttype="CMG-3T" commtype="DIG" lat="38.5145" lon="28.6607">
    <comp name="--.HHZ">
      <acc value="0.0267858487" flag="0"/>
      <vel value="0.0154525619" flag="0"/>
      <psa03 value="0.0392946317" flag="0"/>
      <psa10 value="0.0091116993" flag="0"/>
      <psa30 value="0.0011079560" flag="0"/>
    </comp>
    <comp name="--.HHN">
      <acc value="0.0471931783" flag="0"/>
      <vel value="0.0124749751" flag="0"/>
      <psa03 value="0.0440070568" flag="0"/>
      <psa10 value="0.0084408206" flag="0"/>
      <psa30 value="0.0007052281" flag="0"/>
    </comp>
    <comp name="--.HHE">
      <acc value="0.0553260285" flag="0"/>
      <vel value="0.0220834571" flag="0"/>
      <psa03 value="0.0804558443" flag="0"/>
      <psa10 value="0.0191408261" flag="0"/>
      <psa30 value="0.0012927348" flag="0"/>
    </comp>
  </station>
  <station code="ORLT" name="ORLT" netid="KO" insttype="CMG-5T" commtype="DIG" lat="40.0452" lon="28.8914">
    <comp name="--.HNE">
      <acc value="0.0334118943" flag="0"/>
      <vel value="0.0216692725" flag="0"/>
      <psa03 value="0.0789630886" flag="0"/>
      <psa10 value="0.0452830838" flag="0"/>
      <psa30 value="0.0023013426" flag="0"/>
    </comp>
    <comp name="--.HNZ">
      <acc value="0.0202368062" flag="0"/>
      <vel value="0.0188557886" flag="0"/>
      <psa03 value="0.0280731111" flag="0"/>
      <psa10 value="0.0381466328" flag="0"/>
      <psa30 value="0.0022012782" flag="0"/>
    </comp>
    <comp name="--.HNN">
      <acc value="0.0374996065" flag="0"/>
      <vel value="0.0274640185" flag="0"/>
      <psa03 value="0.0844562439" flag="0"/>
      <psa10 value="0.0644516264" flag="0"/>
      <psa30 value="0.0029823626" flag="0"/>
    </comp>
  </station>
  <station code="SIMA" name="SIMA" netid="KO" insttype="CMG-6T" commtype="DIG" lat="39.0833" lon="28.9825">
    <comp name="--.HHE">
      <acc value="0.1101014536" flag="0"/>
      <vel value="0.0263063049" flag="0"/>
      <psa03 value="0.1246273337" flag="0"/>
      <psa10 value="0.0091952108" flag="0"/>
      <psa30 value="0.0010066857" flag="0"/>
    </comp>
    <comp name="--.HHN">
      <acc value="0.0747661911" flag="0"/>
      <vel value="0.0236587935" flag="0"/>
      <psa03 value="0.1577785043" flag="0"/>
      <psa10 value="0.0193855148" flag="0"/>
      <psa30 value="0.0015823336" flag="0"/>
    </comp>
    <comp name="--.HHZ">
      <acc value="0.0675910865" flag="0"/>
      <vel value="0.0115389496" flag="0"/>
      <psa03 value="0.0638476087" flag="0"/>
      <psa10 value="0.0095103354" flag="0"/>
      <psa30 value="0.0009142083" flag="0"/>
    </comp>
  </station>
  <station code="SOMA" name="SOMA" netid="KO" insttype="CMG-5T" commtype="DIG" lat="39.1564" lon="27.5341">
    <comp name="--.HNE">
      <acc value="0.0953407442" flag="0"/>
      <vel value="0.0351420865" flag="0"/>
      <psa03 value="0.2423922416" flag="0"/>
      <psa10 value="0.0356891497" flag="0"/>
      <psa30 value="0.0025787167" flag="0"/>
    </comp>
    <comp name="--.HNN">
      <acc value="0.0745582640" flag="0"/>
      <vel value="0.0321185517" flag="0"/>
      <psa03 value="0.2234645040" flag="0"/>
      <psa10 value="0.0268657871" flag="0"/>
      <psa30 value="0.0029203529" flag="0"/>
    </comp>
    <comp name="--.HNZ">
      <acc value="0.0560597498" flag="0"/>
      <vel value="0.0178505405" flag="0"/>
      <psa03 value="0.1411093406" flag="0"/>
      <psa10 value="0.0176640861" flag="0"/>
      <psa30 value="0.0021660612" flag="0"/>
    </comp>
  </station>
  <station code="SUSR" name="SUSR" netid="KO" insttype="CMG-5T" commtype="DIG" lat="39.9627" lon="28.0835">
    <comp name="--.HNN">
      <acc value="0.0380495512" flag="0"/>
      <vel value="0.0103387326" flag="0"/>
      <psa03 value="0.0345204419" flag="0"/>
      <psa10 value="0.0054651154" flag="0"/>
      <psa30 value="0.0010254298" flag="0"/>
    </comp>
    <comp name="--.HNZ">
      <acc value="0.0383180020" flag="0"/>
      <vel value="0.0078706123" flag="0"/>
      <psa03 value="0.0265014307" flag="0"/>
      <psa10 value="0.0037266325" flag="0"/>
      <psa30 value="0.0008196564" flag="0"/>
    </comp>
    <comp name="--.HNE">
      <acc value="0.0417935538" flag="0"/>
      <vel value="0.0113362723" flag="0"/>
      <psa03 value="0.0445175074" flag="0"/>
      <psa10 value="0.0048428767" flag="0"/>
      <psa30 value="0.0008275020" flag="0"/>
    </comp>
  </station>
  <station code="TVSB" name="TVSB" netid="KO" insttype="CMG-3T" commtype="DIG" lat="39.4497" lon="29.4615">
    <comp name="--.HHE">
      <acc value="0.0506314747" flag="0"/>
      <vel value="0.0330702283" flag="0"/>
      <psa03 value="0.0950021866" flag="0"/>
      <psa10 value="0.0303314015" flag="0"/>
      <psa30 value="0.0016954214" flag="0"/>
    </comp>
    <comp name="--.HHN">
      <acc value="0.0401359369" flag="0"/>
      <vel value="0.0135058358" flag="0"/>
      <psa03 value="0.0513852862" flag="0"/>
      <psa10 value="0.0124273124" flag="0"/>
      <psa30 value="0.0013761281" flag="0"/>
    </comp>
    <comp name="--.HHZ">
      <acc value="0.0232703825" flag="0"/>
      <vel value="0.0079970217" flag="0"/>
      <psa03 value="0.0201456579" flag="0"/>
      <psa10 value="0.0130160347" flag="0"/>
      <psa30 value="0.0011995611" flag="0"/>
    </comp>
  </station>
  <station code="YAYO" name="YAYO" netid="KO" insttype="CMG-6T" commtype="DIG" lat="39.6113" lon="27.0726">
    <comp name="--.HHN">
      <acc value="0.0208363874" flag="0"/>
      <vel value="0.0113896752" flag="0"/>
      <psa03 value="0.0641430023" flag="0"/>
      <psa10 value="0.0138255006" flag="0"/>
      <psa30 value="0.0009661405" flag="0"/>
    </comp>
    <comp name="--.HHE">
      <acc value="0.0228773246" flag="0"/>
      <vel value="0.0150845860" flag="0"/>
      <psa03 value="0.0513192096" flag="0"/>
      <psa10 value="0.0090502232" flag="0"/>
      <psa30 value="0.0008049780" flag="0"/>
    </comp>
    <comp name="--.HHZ">
      <acc value="0.0209580133" flag="0"/>
      <vel value="0.0088209557" flag="0"/>
      <psa03 value="0.0429734896" flag="0"/>
      <psa10 value="0.0065980500" flag="0"/>
      <psa30 value="0.0007151711" flag="0"/>
    </comp>
  </station>
  <station code="YENI" name="YENI" netid="KO" insttype="CMG-5T" commtype="DIG" lat="39.9364" lon="27.2422">
    <comp name="--.HNE">
      <acc value="0.0353038977" flag="0"/>
      <vel value="0.0117781303" flag="0"/>
      <psa03 value="0.0627784697" flag="0"/>
      <psa10 value="0.0098952246" flag="0"/>
      <psa30 value="0.0011450292" flag="0"/>
    </comp>
    <comp name="--.HNN">
      <acc value="0.0490293162" flag="0"/>
      <vel value="0.0171769464" flag="0"/>
      <psa03 value="0.0575824954" flag="0"/>
      <psa10 value="0.0106028341" flag="0"/>
      <psa30 value="0.0010329210" flag="0"/>
    </comp>
    <comp name="--.HNZ">
      <acc value="0.0180433110" flag="0"/>
      <vel value="0.0046620358" flag="0"/>
      <psa03 value="0.0175833011" flag="0"/>
      <psa10 value="0.0044640218" flag="0"/>
      <psa30 value="0.0008458097" flag="0"/>
    </comp>
  </station>
</stationlist>
