<?xml version="1.0" encoding="UTF-8" standalone="yes"?>
<!DOCTYPE earthquake SYSTEM "stationlist.dtd">
<stationlist created="" xmlns="ch.ethz.sed.shakemap.usgs.xml">
  <station code="AKS" name="AKS" netid="KO" insttype="CMG-5T" commtype="DIG" lat="38.8785" lon="27.8129">
    <comp name="--.HNE">
      <acc value="0.1219631363" flag="0"/>
      <vel value="0.0389599452" flag="0"/>
      <psa03 value="0.1410840209" flag="0"/>
      <psa10 value="0.0364830515" flag="0"/>
      <psa30 value="0.0023491574" flag="0"/>
    </comp>
    <comp name="--.HNN">
      <acc value="0.1260814436" flag="0"/>
      <vel value="0.0435777486" flag="0"/>
      <psa03 value="0.1691588536" flag="0"/>
      <psa10 value="0.0287373656" flag="0"/>
      <psa30 value="0.0042655080" flag="0"/>
    </comp>
    <comp name="--.HNZ">
      <acc value="0.1097759245" flag="0"/>
      <vel value="0.0250961785" flag="0"/>
      <psa03 value="0.0832611800" flag="0"/>
      <psa10 value="0.0120415426" flag="0"/>
      <psa30 value="0.0032888431" flag="0"/>
    </comp>
  </station>
  <station code="AYVL" name="AYVL" netid="KO" insttype="CMG-6T" commtype="DIG" lat="39.2907" lon="26.69">
    <comp name="--.HHE">
      <acc value="0.0302277542" flag="0"/>
      <vel value="0.0137961186" flag="0"/>
      <psa03 value="0.0601261730" flag="0"/>
      <psa10 value="0.0064522055" flag="0"/>
      <psa30 value="0.0004593597" flag="0"/>
    </comp>
    <comp name="--.HHN">
      <acc value="0.0436013321" flag="0"/>
      <vel value="0.0188343412" flag="0"/>
      <psa03 value="0.1102269444" flag="0"/>
      <psa10 value="0.0080661356" flag="0"/>
      <psa30 value="0.0006571364" flag="0"/>
    </comp>
    <comp name="--.HHZ">
      <acc value="0.0146133833" flag="0"/>
      <vel value="0.0058486353" flag="0"/>
      <psa03 value="0.0332819980" flag="0"/>
      <psa10 value="0.0037119515" flag="0"/>
      <psa30 value="0.0002395490" flag="0"/>
    </comp>
  </station>
  <station code="BALB" name="BALB" netid="KO" insttype="CMG-5T" commtype="DIG" lat="39.6507" lon="27.8642">
    <comp name="--.HNE">
      <acc value="0.0530721729" flag="0"/>
      <vel value="0.0183442362" flag="0"/>
      <psa03 value="0.0867756292" flag="0"/>
      <psa10 value="0.0151411631" flag="0"/>
      <psa30 value="0.0025275269" flag="0"/>
    </comp>
    <comp name="--.HNZ">
      <acc value="0.0544222808" flag="0"/>
      <vel value="0.0151135704" flag="0"/>
      <psa03 value="0.0447805687" flag="0"/>
      <psa10 value="0.0119254416" flag="0"/>
      <psa30 value="0.0020741682" flag="0"/>
    </comp>
    <comp name="--.HNN">
      <acc value="0.0490000156" flag="0"/>
      <vel value="0.0226495199" flag="0"/>
      <psa03 value="0.1101974160" flag="0"/>
      <psa10 value="0.0170401187" flag="0"/>
      <psa30 value="0.0028160644" flag="0"/>
    </comp>
  </station>
  <station code="BLCB" name="BLCB" netid="KO" insttype="CMG-3T" commtype="DIG" lat="38.3853" lon="27.042">
    <comp name="--.HHZ">
      <acc value="0.0317484835" flag="0"/>
      <vel value="0.0114754003" flag="0"/>
      <psa03 value="0.0378386665" flag="0"/>
      <psa10 value="0.0144181568" flag="0"/>
      <psa30 value="0.0014662313" flag="0"/>
    </comp>
    <comp name="--.HHN">
      <acc value="0.0000471735" flag="0"/>
      <vel value="0.0000120291" flag="0"/>
      <psa03 value="0.0000481284" flag="0"/>
      <psa10 value="0.0000178287" flag="0"/>
      <psa30 value="0.0000016897" flag="0"/>
    </comp>
    <comp name="--.HHE">
      <acc value="0.0360509475" flag="0"/>
      <vel value="0.0224656046" flag="0"/>
      <psa03 value="0.0616138577" flag="0"/>
      <psa10 value="0.0227734917" flag="0"/>
      <psa30 value="0.0027062533" flag="0"/>
    </comp>
  </station>
  <station code="CANM" name="CANM" netid="KO" insttype="CMG-5T" commtype="DIG" lat="40.0113" lon="27.0529">
    <comp name="--.HNZ">
      <acc value="0.0147267222" flag="0"/>
      <vel value="0.0076148047" flag="0"/>
      <psa03 value="0.0195221905" flag="0"/>
      <psa10 value="0.0046635697" flag="0"/>
      <psa30 value="0.0013846894" flag="0"/>
    </comp>
    <comp name="--.HNE">
      <acc value="0.0150455444" flag="0"/>
      <vel value="0.0104868132" flag="0"/>
      <psa03 value="0.0290226384" flag="0"/>
      <psa10 value="0.0094250029" flag="0"/>
      <psa30 value="0.0011209012" flag="0"/>
    </comp>
    <comp name="--.HNN">
      <acc value="0.0197266632" flag="0"/>
      <vel value="0.0087992772" flag="0"/>
      <psa03 value="0.0370409976" flag="0"/>
      <psa10 value="0.0116415807" flag="0"/>
      <psa30 value="0.0013110876" flag="0"/>
    </comp>
  </station>
  <station code="DKL" name="DKL" netid="KO" insttype="CMG-3ESPC" commtype="DIG" lat="39.0713" lon="26.9053">
    <comp name="--.HHZ">
      <acc value="0.0193587674" flag="0"/>
      <vel value="0.0040083319" flag="0"/>
      <psa03 value="0.0172367373" flag="0"/>
      <psa10 value="0.0056127590" flag="0"/>
      <psa30 value="0.0014100452" flag="0"/>
    </comp>
    <comp name="--.HHE">
      <acc value="0.0026892461" flag="0"/>
      <vel value="0.0010947636" flag="0"/>
      <psa03 value="0.0043407747" flag="0"/>
      <psa10 value="0.0018341577" flag="0"/>
      <psa30 value="0.0002241654" flag="0"/>
    </comp>
  </station>
  <station code="DST" name="DST" netid="KO" insttype="CMG-5T" commtype="DIG" lat="39.6041" lon="28.6267">
    <comp name="--.HNE">
      <acc value="0.0414588178" flag="0"/>
      <vel value="0.0129132374" flag="0"/>
      <psa03 value="0.0580265142" flag="0"/>
      <psa10 value="0.0158556186" flag="0"/>
      <psa30 value="0.0027468293" flag="0"/>
    </comp>
    <comp name="--.HNN">
      <acc value="0.0469454196" flag="0"/>
      <vel value="0.0151851063" flag="0"/>
      <psa03 value="0.0439632734" flag="0"/>
      <psa10 value="0.0162399773" flag="0"/>
      <psa30 value="0.0028558869" flag="0"/>
    </comp>
    <comp name="--.HNZ">
      <acc value="0.0569664752" flag="0"/>
      <vel value="0.0145849325" flag="0"/>
      <psa03 value="0.0520303940" flag="0"/>
      <psa10 value="0.0140282660" flag="0"/>
      <psa30 value="0.0024157902" flag="0"/>
    </comp>
  </station>
  <station code="EDC" name="EDC" netid="KO" insttype="CMG-3T" commtype="DIG" lat="40.3465" lon="27.8618">
    <comp name="--.HHE">
      <acc value="0.0236894008" flag="0"/>
      <vel value="0.0108326567" flag="0"/>
      <psa03 value="0.0517489312" flag="0"/>
      <psa10 value="0.0118118484" flag="0"/>
      <psa30 value="0.0021828039" flag="0"/>
    </comp>
    <comp name="--.HHZ">
      <acc value="0.0117339255" flag="0"/>
      <vel value="0.0055782846" flag="0"/>
      <psa03 value="0.0166506887" flag="0"/>
      <psa10 value="0.0057035944" flag="0"/>
      <psa30 value="0.0009888113" flag="0"/>
    </comp>
    <comp name="--.HHN">
      <acc value="0.0177361786" flag="0"/>
      <vel value="0.0118963428" flag="0"/>
      <psa03 value="0.0419484767" flag="0"/>
      <psa10 value="0.0105607436" flag="0"/>
      <psa30 value="0.0014616187" flag="0"/>
    </comp>
  </station>
  <station code="GEDZ" name="GEDZ" netid="KO" insttype="CMG-6T" commtype="DIG" lat="39.0445" lon="29.4105">
    <comp name="--.HHE">
      <acc value="0.0944957877" flag="0"/>
      <vel value="0.0352312200" flag="0"/>
      <psa03 value="0.1181574393" flag="0"/>
      <psa10 value="0.0682361537" flag="0"/>
      <psa30 value="0.0033966907" flag="0"/>
    </comp>
    <comp name="--.HHZ">
      <acc value="0.0425972012" flag="0"/>
      <vel value="0.0181759872" flag="0"/>
      <psa03 value="0.0368437270" flag="0"/>
      <psa10 value="0.0257857017" flag="0"/>
      <psa30 value="0.0015271237" flag="0"/>
    </comp>
    <comp name="--.HHN">
      <acc value="0.1273996968" flag="0"/>
      <vel value="0.0552773230" flag="0"/>
      <psa03 value="0.1840793141" flag="0"/>
      <psa10 value="0.0814515255" flag="0"/>
      <psa30 value="0.0054676210" flag="0"/>
    </comp>
  </station>
  <station code="GOMA" name="GOMA" netid="KO" insttype="CMG-5T" commtype="DIG" lat="38.7077" lon="27.9175">
    <comp name="--.HNN">
      <acc value="0.1208035498" flag="0"/>
      <vel value="0.0651207887" flag="0"/>
      <psa03 value="0.3749591898" flag="0"/>
      <psa10 value="0.0330959002" flag="0"/>
      <psa30 value="0.0030314308" flag="0"/>
    </comp>
    <comp name="--.HNE">
      <acc value="0.0996371370" flag="0"/>
      <vel value="0.0597800037" flag="0"/>
      <psa03 value="0.2427017533" flag="0"/>
      <psa10 value="0.0219755075" flag="0"/>
      <psa30 value="0.0017596416" flag="0"/>
    </comp>
    <comp name="--.HNZ">
      <acc value="0.0714721045" flag="0"/>
      <vel value="0.0282979806" flag="0"/>
      <psa03 value="0.1589732881" flag="0"/>
      <psa10 value="0.0097486336" flag="0"/>
      <psa30 value="0.0023097668" flag="0"/>
    </comp>
  </station>
  <station code="GONE" name="GONE" netid="KO" insttype="CMG-5T" commtype="DIG" lat="40.0466" lon="27.686">
    <comp name="--.HNE">
      <acc value="0.0305069769" flag="0"/>
      <vel value="0.0118753574" flag="0"/>
      <psa03 value="0.0558620384" flag="0"/>
      <psa10 value="0.0131616436" flag="0"/>
      <psa30 value="0.0016602522" flag="0"/>
    </comp>
    <comp name="--.HNZ">
      <acc value="0.0191141587" flag="0"/>
      <vel value="0.0050965074" flag="0"/>
      <psa03 value="0.0323501269" flag="0"/>
      <psa10 value="0.0061926992" flag="0"/>
      <psa30 value="0.0012482350" flag="0"/>
    </comp>
    <comp name="--.HNN">
      <acc value="0.0421831457" flag="0"/>
      <vel value="0.0201771793" flag="0"/>
      <psa03 value="0.0649956976" flag="0"/>
      <psa10 value="0.0164338713" flag="0"/>
      <psa30 value="0.0018186073" flag="0"/>
    </comp>
  </station>
  <station code="GORD" name="GORD" netid="KO" insttype="CMG-5T" commtype="DIG" lat="38.9088" lon="28.1769">
    <comp name="--.HNN">
      <acc value="0.1476570156" flag="0"/>
      <vel value="0.1169948962" flag="0"/>
      <psa03 value="0.2569812173" flag="0"/>
      <psa10 value="0.1285614102" flag="0"/>
      <psa30 value="0.0076953686" flag="0"/>
    </comp>
    <comp name="--.HNZ">
      <acc value="0.0996920820" flag="0"/>
      <vel value="0.0497407224" flag="0"/>
      <psa03 value="0.1368320210" flag="0"/>
      <psa10 value="0.0324939218" flag="0"/>
      <psa30 value="0.0073633268" flag="0"/>
    </comp>
    <comp name="--.HNE">
      <acc value="0.1053343523" flag="0"/>
      <vel value="0.0653553404" flag="0"/>
      <psa03 value="0.1996853130" flag="0"/>
      <psa10 value="0.1183407067" flag="0"/>
      <psa30 value="0.0071537335" flag="0"/>
    </comp>
  </station>
  <station code="KCTX" name="KCTX" netid="KO" insttype="CMG-3ESP" commtype="DIG" lat="40.2626" lon="28.3353">
    <comp name="--.HHE">
      <acc value="0.0195472650" flag="0"/>
      <vel value="0.0171580432" flag="0"/>
      <psa03 value="0.0299779509" flag="0"/>
      <psa10 value="0.0226985969" flag="0"/>
      <psa30 value="0.0021029626" flag="0"/>
    </comp>
    <comp name="--.HHN">
      <acc value="0.0275733141" flag="0"/>
      <vel value="0.0096747057" flag="0"/>
      <psa03 value="0.0340571503" flag="0"/>
      <psa10 value="0.0109029256" flag="0"/>
      <psa30 value="0.0011422623" flag="0"/>
    </comp>
    <comp name="--.HHZ">
      <acc value="0.0207443642" flag="0"/>
      <vel value="0.0078817452" flag="0"/>
      <psa03 value="0.0206886891" flag="0"/>
      <psa10 value="0.0082421734" flag="0"/>
      <psa30 value="0.0011620525" flag="0"/>
    </comp>
  </station>
  <station code="KULA" name="KULA" netid="KO" insttype="CMG-3T" commtype="DIG" lat="38.5145" lon="28.6607">
    <comp name="--.HHN">
      <acc value="0.0471931779" flag="0"/>
      <vel value="0.0124749749" flag="0"/>
      <psa03 value="0.0440070568" flag="0"/>
      <psa10 value="0.0084408206" flag="0"/>
      <psa30 value="0.0007052375" flag="0"/>
    </comp>
    <comp name="--.HHZ">
      <acc value="0.0267858483" flag="0"/>
      <vel value="0.0154525621" flag="0"/>
      <psa03 value="0.0392946317" flag="0"/>
      <psa10 value="0.0091116992" flag="0"/>
      <psa30 value="0.0011079906" flag="0"/>
    </comp>
  </station>
  <station code="MDNY" name="MDNY" netid="KO" insttype="CMG-5T" commtype="DIG" lat="40.3709" lon="28.8846">
    <comp name="--.HNE">
      <acc value="0.0523548349" flag="0"/>
      <vel value="0.0156922371" flag="0"/>
      <psa03 value="0.0488860533" flag="0"/>
      <psa10 value="0.0111523521" flag="0"/>
      <psa30 value="0.0009159451" flag="0"/>
    </comp>
    <comp name="--.HNN">
      <acc value="0.0459722108" flag="0"/>
      <vel value="0.0227706977" flag="0"/>
      <psa03 value="0.0855328068" flag="0"/>
      <psa10 value="0.0194296544" flag="0"/>
      <psa30 value="0.0016715002" flag="0"/>
    </comp>
    <comp name="--.HNZ">
      <acc value="0.0235948926" flag="0"/>
      <vel value="0.0094748541" flag="0"/>
      <psa03 value="0.0174502345" flag="0"/>
      <psa10 value="0.0082891233" flag="0"/>
      <psa30 value="0.0018299970" flag="0"/>
    </comp>
  </station>
  <station code="ORLT" name="ORLT" netid="KO" insttype="CMG-5T" commtype="DIG" lat="40.0452" lon="28.8914">
    <comp name="--.HNE">
      <acc value="0.0334118285" flag="0"/>
      <vel value="0.0216692860" flag="0"/>
      <psa03 value="0.0789630886" flag="0"/>
      <psa10 value="0.0452830846" flag="0"/>
      <psa30 value="0.0023010079" flag="0"/>
    </comp>
    <comp name="--.HNN">
      <acc value="0.0374996181" flag="0"/>
      <vel value="0.0274640071" flag="0"/>
      <psa03 value="0.0844562439" flag="0"/>
      <psa10 value="0.0644516271" flag="0"/>
      <psa30 value="0.0029823751" flag="0"/>
    </comp>
    <comp name="--.HNZ">
      <acc value="0.0202368045" flag="0"/>
      <vel value="0.0188557921" flag="0"/>
      <psa03 value="0.0280731111" flag="0"/>
      <psa10 value="0.0381466329" flag="0"/>
      <psa30 value="0.0022014690" flag="0"/>
    </comp>
  </station>
  <station code="SIMA" name="SIMA" netid="KO" insttype="CMG-6T" commtype="DIG" lat="39.0833" lon="28.9825">
    <comp name="--.HHE">
      <acc value="0.1101014562" flag="0"/>
      <vel value="0.0263063048" flag="0"/>
      <psa03 value="0.1246273337" flag="0"/>
      <psa10 value="0.0091952107" flag="0"/>
      <psa30 value="0.0010066402" flag="0"/>
    </comp>
    <comp name="--.HHN">
      <acc value="0.0747661729" flag="0"/>
      <vel value="0.0236587904" flag="0"/>
      <psa03 value="0.1577785043" flag="0"/>
      <psa10 value="0.0193855149" flag="0"/>
      <psa30 value="0.0015823496" flag="0"/>
    </comp>
    <comp name="--.HHZ">
      <acc value="0.0675910835" flag="0"/>
      <vel value="0.0115389506" flag="0"/>
      <psa03 value="0.0638476087" flag="0"/>
      <psa10 value="0.0095103354" flag="0"/>
      <psa30 value="0.0009142500" flag="0"/>
    </comp>
  </station>
  <station code="SOMA" name="SOMA" netid="KO" insttype="CMG-5T" commtype="DIG" lat="39.1564" lon="27.5341">
    <comp name="--.HNE">
      <acc value="0.0953407401" flag="0"/>
      <vel value="0.0351420859" flag="0"/>
      <psa03 value="0.2423922416" flag="0"/>
      <psa10 value="0.0356891504" flag="0"/>
      <psa30 value="0.0025788011" flag="0"/>
    </comp>
    <comp name="--.HNN">
      <acc value="0.0745582500" flag="0"/>
      <vel value="0.0321185520" flag="0"/>
      <psa03 value="0.2234645040" flag="0"/>
      <psa10 value="0.0268657861" flag="0"/>
      <psa30 value="0.0029195235" flag="0"/>
    </comp>
    <comp name="--.HNZ">
      <acc value="0.0560597430" flag="0"/>
      <vel value="0.0178505378" flag="0"/>
      <psa03 value="0.1411093406" flag="0"/>
      <psa10 value="0.0176640853" flag="0"/>
      <psa30 value="0.0021659523" flag="0"/>
    </comp>
  </station>
  <station code="SUSR" name="SUSR" netid="KO" insttype="CMG-5T" commtype="DIG" lat="39.9627" lon="28.0835">
    <comp name="--.HNE">
      <acc value="0.0417935418" flag="0"/>
      <vel value="0.0113362726" flag="0"/>
      <psa03 value="0.0445175074" flag="0"/>
      <psa10 value="0.0048428773" flag="0"/>
      <psa30 value="0.0008275775" flag="0"/>
    </comp>
    <comp name="--.HNZ">
      <acc value="0.0383180106" flag="0"/>
      <vel value="0.0078706111" flag="0"/>
      <psa03 value="0.0265014307" flag="0"/>
      <psa10 value="0.0037266323" flag="0"/>
      <psa30 value="0.0008197011" flag="0"/>
    </comp>
    <comp name="--.HNN">
      <acc value="0.0380495569" flag="0"/>
      <vel value="0.0103387327" flag="0"/>
      <psa03 value="0.0345204419" flag="0"/>
      <psa10 value="0.0054651160" flag="0"/>
      <psa30 value="0.0010253370" flag="0"/>
    </comp>
  </station>
  <station code="TVSB" name="TVSB" netid="KO" insttype="CMG-3T" commtype="DIG" lat="39.4497" lon="29.4615">
    <comp name="--.HHE">
      <acc value="0.0506314766" flag="0"/>
      <vel value="0.0330702284" flag="0"/>
      <psa03 value="0.0950021866" flag="0"/>
      <psa10 value="0.0303314016" flag="0"/>
      <psa30 value="0.0016953878" flag="0"/>
    </comp>
    <comp name="--.HHZ">
      <acc value="0.0232703830" flag="0"/>
      <vel value="0.0079970222" flag="0"/>
      <psa03 value="0.0201456579" flag="0"/>
      <psa10 value="0.0130160347" flag="0"/>
      <psa30 value="0.0011995622" flag="0"/>
    </comp>
    <comp name="--.HHN">
      <acc value="0.0401359354" flag="0"/>
      <vel value="0.0135058355" flag="0"/>
      <psa03 value="0.0513852862" flag="0"/>
      <psa10 value="0.0124273123" flag="0"/>
      <psa30 value="0.0013761412" flag="0"/>
    </comp>
  </station>
  <station code="YAYO" name="YAYO" netid="KO" insttype="CMG-6T" commtype="DIG" lat="39.6113" lon="27.0726">
    <comp name="--.HHN">
      <acc value="0.0208363866" flag="0"/>
      <vel value="0.0113896771" flag="0"/>
      <psa03 value="0.0641430023" flag="0"/>
      <psa10 value="0.0138255006" flag="0"/>
      <psa30 value="0.0009661658" flag="0"/>
    </comp>
    <comp name="--.HHE">
      <acc value="0.0228773217" flag="0"/>
      <vel value="0.0150845867" flag="0"/>
      <psa03 value="0.0513192096" flag="0"/>
      <psa10 value="0.0090502233" flag="0"/>
      <psa30 value="0.0008049679" flag="0"/>
    </comp>
    <comp name="--.HHZ">
      <acc value="0.0209580165" flag="0"/>
      <vel value="0.0088209556" flag="0"/>
      <psa03 value="0.0429734896" flag="0"/>
      <psa10 value="0.0065980500" flag="0"/>
      <psa30 value="0.0007151756" flag="0"/>
    </comp>
  </station>
  <station code="YENI" name="YENI" netid="KO" insttype="CMG-5T" commtype="DIG" lat="39.9364" lon="27.2422">
    <comp name="--.HNE">
      <acc value="0.0353038782" flag="0"/>
      <vel value="0.0117781061" flag="0"/>
      <psa03 value="0.0627784697" flag="0"/>
      <psa10 value="0.0098952247" flag="0"/>
      <psa30 value="0.0011448130" flag="0"/>
    </comp>
    <comp name="--.HNN">
      <acc value="0.0490293074" flag="0"/>
      <vel value="0.0171769427" flag="0"/>
      <psa03 value="0.0575824954" flag="0"/>
      <psa10 value="0.0106028326" flag="0"/>
      <psa30 value="0.0010334186" flag="0"/>
    </comp>
    <comp name="--.HNZ">
      <acc value="0.0180433099" flag="0"/>
      <vel value="0.0046620370" flag="0"/>
      <psa03 value="0.0175833011" flag="0"/>
      <psa10 value="0.0044640211" flag="0"/>
      <psa30 value="0.0008457467" flag="0"/>
    </comp>
  </station>
</stationlist>
