<?xml version="1.0" encoding="UTF-8" standalone="yes"?>
<!DOCTYPE earthquake SYSTEM "stationlist.dtd">
<stationlist created="" xmlns="ch.ethz.sed.shakemap.usgs.xml">
  <station code="GAZ" name="GAZ" netid="KO" insttype="CMG-3T" lat="37.1721" lon="37.2096">
    <comp name="--.HHN">
      <acc value="0.0216926748" flag="0"/>
      <vel value="0.0093469630" flag="0"/>
      <psa03 value="0.0475677645" flag="0"/>
      <psa10 value="0.0115283335" flag="0"/>
      <psa30 value="0.0015772451" flag="0"/>
    </comp>
    <comp name="--.HHE">
      <acc value="0.0387020197" flag="0"/>
      <vel value="0.0162198811" flag="0"/>
      <psa03 value="0.0989622003" flag="0"/>
      <psa10 value="0.0127813377" flag="0"/>
      <psa30 value="0.0018073328" flag="0"/>
    </comp>
  </station>
  <station code="KMRS" name="KMRS" netid="KO" insttype="CMG-3T" lat="37.5053" lon="36.9">
    <comp name="--.HHN">
      <acc value="0.0488751987" flag="0"/>
      <vel value="0.0337736039" flag="0"/>
      <psa03 value="0.1330977553" flag="0"/>
      <psa10 value="0.0274010396" flag="0"/>
      <psa30 value="0.0035293617" flag="0"/>
    </comp>
    <comp name="--.HHE">
      <acc value="0.0293379176" flag="0"/>
      <vel value="0.0199559018" flag="0"/>
      <psa03 value="0.0934988340" flag="0"/>
      <psa10 value="0.0179144803" flag="0"/>
      <psa30 value="0.0021647549" flag="0"/>
    </comp>
    <comp name="--.HHZ">
      <acc value="0.0243299744" flag="0"/>
      <vel value="0.0134783823" flag="0"/>
      <psa03 value="0.0578492886" flag="0"/>
      <psa10 value="0.0145547543" flag="0"/>
      <psa30 value="0.0020390102" flag="0"/>
    </comp>
  </station>
  <station code="URFA" name="URFA" netid="KO" insttype="CMG-3ESP" lat="37.4409" lon="38.8213">
    <comp name="--.HHZ">
      <acc value="0.0469324767" flag="0"/>
      <vel value="0.0259218084" flag="0"/>
      <psa03 value="0.1168053456" flag="0"/>
      <psa10 value="0.0116889706" flag="0"/>
      <psa30 value="0.0009179283" flag="0"/>
    </comp>
  </station>
  <station code="ANDN" name="ANDN" netid="TU" insttype="T" lat="37.58" lon="36.3452">
    <comp name="--.HHN">
      <acc value="0.0981513361" flag="0"/>
      <vel value="0.0646114908" flag="0"/>
      <psa03 value="0.3222350820" flag="0"/>
      <psa10 value="0.0873615921" flag="0"/>
      <psa30 value="0.0031320194" flag="0"/>
    </comp>
    <comp name="--.HHZ">
      <acc value="0.0396355455" flag="0"/>
      <vel value="0.0293687387" flag="0"/>
      <psa03 value="0.1242573674" flag="0"/>
      <psa10 value="0.0559388038" flag="0"/>
      <psa30 value="0.0025248031" flag="0"/>
    </comp>
    <comp name="--.HHE">
      <acc value="0.0592888093" flag="0"/>
      <vel value="0.0397665991" flag="0"/>
      <psa03 value="0.1626143701" flag="0"/>
      <psa10 value="0.0522563014" flag="0"/>
      <psa30 value="0.0028283448" flag="0"/>
    </comp>
  </station>
</stationlist>
