<?xml version="1.0" encoding="UTF-8" standalone="yes"?>
<!DOCTYPE earthquake SYSTEM "stationlist.dtd">
<stationlist created="" xmlns="ch.ethz.sed.shakemap.usgs.xml">
  <station code="DARE" name="DARE" netid="KO" insttype="CMG-3ESP" lat="38.5712" lon="37.4832">
    <comp name="--.HHE">
      <acc value="0.0417946278" flag="0"/>
      <vel value="0.0334370840" flag="0"/>
      <psa03 value="0.0776987237" flag="0"/>
      <psa10 value="0.0266580471" flag="0"/>
      <psa30 value="0.0025852719" flag="0"/>
    </comp>
    <comp name="--.HHN">
      <acc value="0.0347423550" flag="0"/>
      <vel value="0.0203096751" flag="0"/>
      <psa03 value="0.0542389929" flag="0"/>
      <psa10 value="0.0220025622" flag="0"/>
      <psa30 value="0.0028076755" flag="0"/>
    </comp>
    <comp name="--.HHZ">
      <acc value="0.0294521042" flag="0"/>
      <vel value="0.0161275698" flag="0"/>
      <psa03 value="0.0387550912" flag="0"/>
      <psa10 value="0.0354705001" flag="0"/>
      <psa30 value="0.0027112443" flag="0"/>
    </comp>
  </station>
  <station code="GAZ" name="GAZ" netid="KO" insttype="CMG-3T" lat="37.1721" lon="37.2096">
    <comp name="--.HHE">
      <acc value="0.0387020198" flag="0"/>
      <vel value="0.0162198804" flag="0"/>
      <psa03 value="0.0989622003" flag="0"/>
      <psa10 value="0.0127813378" flag="0"/>
      <psa30 value="0.0018073424" flag="0"/>
    </comp>
    <comp name="--.HHN">
      <acc value="0.0216926751" flag="0"/>
      <vel value="0.0093469653" flag="0"/>
      <psa03 value="0.0475677645" flag="0"/>
      <psa10 value="0.0115283335" flag="0"/>
      <psa30 value="0.0015772540" flag="0"/>
    </comp>
    <comp name="--.HHZ">
      <acc value="0.0157208485" flag="0"/>
      <vel value="0.0092773867" flag="0"/>
      <psa03 value="0.0524143366" flag="0"/>
      <psa10 value="0.0105541839" flag="0"/>
      <psa30 value="0.0032380028" flag="0"/>
    </comp>
  </station>
  <station code="URFA" name="URFA" netid="KO" insttype="CMG-3ESP" lat="37.4409" lon="38.8213">
    <comp name="--.HHZ">
      <acc value="0.0469324769" flag="0"/>
      <vel value="0.0259218077" flag="0"/>
      <psa03 value="0.1168053456" flag="0"/>
      <psa10 value="0.0116889706" flag="0"/>
      <psa30 value="0.0009179777" flag="0"/>
    </comp>
    <comp name="--.HHE">
      <acc value="0.0672666350" flag="0"/>
      <vel value="0.0230351169" flag="0"/>
      <psa03 value="0.1182707616" flag="0"/>
      <psa10 value="0.0261649980" flag="0"/>
      <psa30 value="0.0009011025" flag="0"/>
    </comp>
    <comp name="--.HHN">
      <acc value="0.0905441581" flag="0"/>
      <vel value="0.0258167576" flag="0"/>
      <psa03 value="0.1314151610" flag="0"/>
      <psa10 value="0.0234546475" flag="0"/>
      <psa30 value="0.0014165622" flag="0"/>
    </comp>
  </station>
  <station code="ANDN" name="ANDN" netid="TU" insttype="T" lat="37.58" lon="36.3452">
    <comp name="--.HHZ">
      <acc value="0.0396355456" flag="0"/>
      <vel value="0.0293687318" flag="0"/>
      <psa03 value="0.1242573674" flag="0"/>
      <psa10 value="0.0559388030" flag="0"/>
      <psa30 value="0.0025247309" flag="0"/>
    </comp>
    <comp name="--.HHN">
      <acc value="0.0981513361" flag="0"/>
      <vel value="0.0646114917" flag="0"/>
      <psa03 value="0.3222350820" flag="0"/>
      <psa10 value="0.0873615927" flag="0"/>
      <psa30 value="0.0031320911" flag="0"/>
    </comp>
    <comp name="--.HHE">
      <acc value="0.0592888094" flag="0"/>
      <vel value="0.0397665976" flag="0"/>
      <psa03 value="0.1626143701" flag="0"/>
      <psa10 value="0.0522563013" flag="0"/>
      <psa30 value="0.0028282446" flag="0"/>
    </comp>
  </station>
</stationlist>
