<?xml version="1.0" encoding="UTF-8" standalone="yes"?>
<!DOCTYPE earthquake SYSTEM "stationlist.dtd">
<stationlist created="" xmlns="ch.ethz.sed.shakemap.usgs.xml">
  <station code="ATHR" name="ATHR" netid="HA" insttype="GEOtiny," lat="38.3172" lon="20.4165">
    <comp name="--.HHE">
      <acc value="0.0174176967" flag="0"/>
      <vel value="0.0136716803" flag="0"/>
      <psa03 value="0.0524271881" flag="0"/>
      <psa10 value="0.0191319599" flag="0"/>
      <psa30 value="0.0016721230" flag="0"/>
    </comp>
    <comp name="--.HHN">
      <acc value="0.0203045174" flag="0"/>
      <vel value="0.0168817922" flag="0"/>
      <psa03 value="0.0628551684" flag="0"/>
      <psa10 value="0.0295254486" flag="0"/>
      <psa30 value="0.0022779937" flag="0"/>
    </comp>
    <comp name="--.HHZ">
      <acc value="0.0131795435" flag="0"/>
      <vel value="0.0087207778" flag="0"/>
      <psa03 value="0.0362693531" flag="0"/>
      <psa10 value="0.0103552914" flag="0"/>
      <psa30 value="0.0006744871" flag="0"/>
    </comp>
  </station>
  <station code="HAVD" name="HAVD" netid="HA" insttype="GEOtiny," lat="38.2036" lon="20.3848">
    <comp name="--.HHN">
      <acc value="0.0411013962" flag="0"/>
      <vel value="0.0286095119" flag="0"/>
      <psa03 value="0.0761972317" flag="0"/>
      <psa10 value="0.0308639794" flag="0"/>
      <psa30 value="0.0018591861" flag="0"/>
    </comp>
    <comp name="--.HHE">
      <acc value="0.0416998898" flag="0"/>
      <vel value="0.0177229786" flag="0"/>
      <psa03 value="0.0944501309" flag="0"/>
      <psa10 value="0.0150809653" flag="0"/>
      <psa30 value="0.0015069796" flag="0"/>
    </comp>
    <comp name="--.HHZ">
      <acc value="0.0303037767" flag="0"/>
      <vel value="0.0148003947" flag="0"/>
      <psa03 value="0.0767968732" flag="0"/>
      <psa10 value="0.0147459055" flag="0"/>
      <psa30 value="0.0010640841" flag="0"/>
    </comp>
  </station>
  <station code="ARG2" name="ARG2" netid="HI" insttype="CMG-5TD,ACCELEROMETER,GURALP" lat="38.1783" lon="20.4878">
    <comp name="--.HNZ">
      <acc value="0.0479930584" flag="0"/>
      <vel value="0.0166118439" flag="0"/>
      <psa03 value="0.1239065298" flag="0"/>
      <psa10 value="0.0091093954" flag="0"/>
      <psa30 value="0.0010611339" flag="0"/>
    </comp>
    <comp name="--.HNN">
      <acc value="0.0994257748" flag="0"/>
      <vel value="0.0548777276" flag="0"/>
      <psa03 value="0.1842811501" flag="0"/>
      <psa10 value="0.0465622438" flag="0"/>
      <psa30 value="0.0016604829" flag="0"/>
    </comp>
    <comp name="--.HNE">
      <acc value="0.1115587551" flag="0"/>
      <vel value="0.0435910474" flag="0"/>
      <psa03 value="0.2246574781" flag="0"/>
      <psa10 value="0.0228941960" flag="0"/>
      <psa30 value="0.0018487435" flag="0"/>
    </comp>
  </station>
  <station code="VAS2" name="VAS2" netid="HI" insttype="CMG-5TD,ACCELEROMETER,GURALP" lat="38.6306" lon="20.6081">
    <comp name="--.HNN">
      <acc value="0.0671932263" flag="0"/>
      <vel value="0.0584935727" flag="0"/>
      <psa03 value="0.1765010518" flag="0"/>
      <psa10 value="0.0741322320" flag="0"/>
      <psa30 value="0.0049966568" flag="0"/>
    </comp>
    <comp name="--.HNZ">
      <acc value="0.0479458707" flag="0"/>
      <vel value="0.0293486031" flag="0"/>
      <psa03 value="0.1206539028" flag="0"/>
      <psa10 value="0.0273210171" flag="0"/>
      <psa30 value="0.0019395521" flag="0"/>
    </comp>
    <comp name="--.HNE">
      <acc value="0.0614915392" flag="0"/>
      <vel value="0.0424723973" flag="0"/>
      <psa03 value="0.1809418570" flag="0"/>
      <psa10 value="0.0640153713" flag="0"/>
      <psa30 value="0.0033799383" flag="0"/>
    </comp>
  </station>
  <station code="ORTH" name="ORTH" netid="HL" insttype="30" lat="37.8511" lon="20.6963">
    <comp name="--.HHE">
      <acc value="0.0813645281" flag="0"/>
      <vel value="0.0328030844" flag="0"/>
      <psa03 value="0.2751011925" flag="0"/>
      <psa10 value="0.0227976283" flag="0"/>
      <psa30 value="0.0026500308" flag="0"/>
    </comp>
    <comp name="--.HHN">
      <acc value="0.1180357880" flag="0"/>
      <vel value="0.0509113773" flag="0"/>
      <psa03 value="0.4285105426" flag="0"/>
      <psa10 value="0.0241329698" flag="0"/>
      <psa30 value="0.0032617224" flag="0"/>
    </comp>
    <comp name="--.HHZ">
      <acc value="0.0522317629" flag="0"/>
      <vel value="0.0149500236" flag="0"/>
      <psa03 value="0.0808635864" flag="0"/>
      <psa10 value="0.0135259225" flag="0"/>
      <psa30 value="0.0017952084" flag="0"/>
    </comp>
  </station>
  <station code="VLS" name="VLS" netid="HL" insttype="120P," lat="38.1768" lon="20.5886">
    <comp name="--.HHZ">
      <acc value="0.0290619900" flag="0"/>
      <vel value="0.0123194218" flag="0"/>
      <psa03 value="0.0662659232" flag="0"/>
      <psa10 value="0.0106978395" flag="0"/>
      <psa30 value="0.0008057011" flag="0"/>
    </comp>
    <comp name="--.HHN">
      <acc value="0.0590492334" flag="0"/>
      <vel value="0.0259268294" flag="0"/>
      <psa03 value="0.1650296548" flag="0"/>
      <psa10 value="0.0262722049" flag="0"/>
      <psa30 value="0.0012456261" flag="0"/>
    </comp>
    <comp name="--.HHE">
      <acc value="0.0573905892" flag="0"/>
      <vel value="0.0246412643" flag="0"/>
      <psa03 value="0.1214411884" flag="0"/>
      <psa10 value="0.0119908730" flag="0"/>
      <psa30 value="0.0009167014" flag="0"/>
    </comp>
  </station>
  <station code="FSK" name="FSK" netid="HP" insttype="40," lat="38.4593" lon="20.5623">
    <comp name="--.HHZ">
      <acc value="0.0098832165" flag="0"/>
      <vel value="0.0058787844" flag="0"/>
      <psa03 value="0.0235561163" flag="0"/>
      <psa10 value="0.0084546211" flag="0"/>
      <psa30 value="0.0006967283" flag="0"/>
    </comp>
    <comp name="--.HHN">
      <acc value="0.0146556912" flag="0"/>
      <vel value="0.0095931807" flag="0"/>
      <psa03 value="0.0399820880" flag="0"/>
      <psa10 value="0.0085905711" flag="0"/>
      <psa30 value="0.0008800246" flag="0"/>
    </comp>
    <comp name="--.HHE">
      <acc value="0.0307936935" flag="0"/>
      <vel value="0.0130970622" flag="0"/>
      <psa03 value="0.0473667840" flag="0"/>
      <psa10 value="0.0138188673" flag="0"/>
      <psa30 value="0.0024623962" flag="0"/>
    </comp>
  </station>
  <station code="LTHK" name="LTHK" netid="HP" insttype="40," lat="37.7095" lon="20.8367">
    <comp name="--.HHN">
      <acc value="0.0892049622" flag="0"/>
      <vel value="0.0332351652" flag="0"/>
      <psa03 value="0.1911421500" flag="0"/>
      <psa10 value="0.0336521015" flag="0"/>
      <psa30 value="0.0023363524" flag="0"/>
    </comp>
    <comp name="--.HHZ">
      <acc value="0.0469915453" flag="0"/>
      <vel value="0.0161154345" flag="0"/>
      <psa03 value="0.1017976302" flag="0"/>
      <psa10 value="0.0199492123" flag="0"/>
      <psa30 value="0.0011912724" flag="0"/>
    </comp>
    <comp name="--.HHE">
      <acc value="0.0875996695" flag="0"/>
      <vel value="0.0268439149" flag="0"/>
      <psa03 value="0.2302956294" flag="0"/>
      <psa10 value="0.0301747691" flag="0"/>
      <psa30 value="0.0024640496" flag="0"/>
    </comp>
  </station>
  <station code="DMLN" name="DMLN" netid="HT" insttype="1s-100Hz," lat="38.2385" lon="20.3734">
    <comp name="--.HHN">
      <acc value="0.0705050285" flag="0"/>
      <vel value="0.0318549028" flag="0"/>
      <psa03 value="0.1734840314" flag="0"/>
      <psa10 value="0.0257044079" flag="0"/>
      <psa30 value="0.0022790144" flag="0"/>
    </comp>
    <comp name="--.HHE">
      <acc value="0.1063816842" flag="0"/>
      <vel value="0.0499971896" flag="0"/>
      <psa03 value="0.2326028403" flag="0"/>
      <psa10 value="0.0472616271" flag="0"/>
      <psa30 value="0.0033015051" flag="0"/>
    </comp>
    <comp name="--.HHZ">
      <acc value="0.0498048519" flag="0"/>
      <vel value="0.0204488841" flag="0"/>
      <psa03 value="0.1010386640" flag="0"/>
      <psa10 value="0.0130145596" flag="0"/>
      <psa30 value="0.0014812164" flag="0"/>
    </comp>
  </station>
  <station code="EVGI" name="EVGI" netid="HT" insttype="30" lat="38.621" lon="20.656">
    <comp name="--.HHE">
      <acc value="0.0372068209" flag="0"/>
      <vel value="0.0099973183" flag="0"/>
      <psa03 value="0.0454897949" flag="0"/>
      <psa10 value="0.0058091936" flag="0"/>
      <psa30 value="0.0009222417" flag="0"/>
    </comp>
    <comp name="--.HHN">
      <acc value="0.0457507562" flag="0"/>
      <vel value="0.0111289274" flag="0"/>
      <psa03 value="0.0667389805" flag="0"/>
      <psa10 value="0.0090199069" flag="0"/>
      <psa30 value="0.0010012658" flag="0"/>
    </comp>
    <comp name="--.HHZ">
      <acc value="0.0220762026" flag="0"/>
      <vel value="0.0102649750" flag="0"/>
      <psa03 value="0.0392340872" flag="0"/>
      <psa10 value="0.0084410447" flag="0"/>
      <psa30 value="0.0009609171" flag="0"/>
    </comp>
  </station>
  <station code="PSDA" name="PSDA" netid="HT" insttype="30" lat="38.114" lon="20.5841">
    <comp name="--.HHN">
      <acc value="0.0589073152" flag="0"/>
      <vel value="0.0267061645" flag="0"/>
      <psa03 value="0.1852242464" flag="0"/>
      <psa10 value="0.0195534452" flag="0"/>
      <psa30 value="0.0014699948" flag="0"/>
    </comp>
    <comp name="--.HHZ">
      <acc value="0.0548155634" flag="0"/>
      <vel value="0.0163819655" flag="0"/>
      <psa03 value="0.0932447097" flag="0"/>
      <psa10 value="0.0108998279" flag="0"/>
      <psa30 value="0.0010214877" flag="0"/>
    </comp>
    <comp name="--.HHE">
      <acc value="0.0678544879" flag="0"/>
      <vel value="0.0304154600" flag="0"/>
      <psa03 value="0.1630747467" flag="0"/>
      <psa10 value="0.0178629756" flag="0"/>
      <psa30 value="0.0015658594" flag="0"/>
    </comp>
  </station>
  <station code="RTZL" name="RTZL" netid="HT" insttype="Compact," lat="38.076" lon="20.7715">
    <comp name="--.HHN">
      <acc value="0.0287126448" flag="0"/>
      <vel value="0.0149328301" flag="0"/>
      <psa03 value="0.0774418455" flag="0"/>
      <psa10 value="0.0113611409" flag="0"/>
      <psa30 value="0.0008567494" flag="0"/>
    </comp>
    <comp name="--.HHZ">
      <acc value="0.0163245135" flag="0"/>
      <vel value="0.0081598948" flag="0"/>
      <psa03 value="0.0514082581" flag="0"/>
      <psa10 value="0.0079271434" flag="0"/>
      <psa30 value="0.0005915212" flag="0"/>
    </comp>
    <comp name="--.HHE">
      <acc value="0.0307988992" flag="0"/>
      <vel value="0.0178370055" flag="0"/>
      <psa03 value="0.0713895749" flag="0"/>
      <psa10 value="0.0161643999" flag="0"/>
      <psa30 value="0.0015609711" flag="0"/>
    </comp>
  </station>
</stationlist>
