<?xml version="1.0" encoding="UTF-8" standalone="yes"?>
<!DOCTYPE earthquake SYSTEM "stationlist.dtd">
<stationlist created="" xmlns="ch.ethz.sed.shakemap.usgs.xml">
  <station code="CEYT" name="CEYT" netid="KO" insttype="CMG-3ESP" lat="37.0105" lon="35.7478">
    <comp name="--.HHE">
      <acc value="0.0028060714" flag="0"/>
      <vel value="0.0025842362" flag="0"/>
      <psa03 value="0.0102729349" flag="0"/>
      <psa10 value="0.0053177713" flag="0"/>
      <psa30 value="0.0004305840" flag="0"/>
    </comp>
    <comp name="--.HHN">
      <acc value="0.0027919142" flag="0"/>
      <vel value="0.0025176480" flag="0"/>
      <psa03 value="0.0073970390" flag="0"/>
      <psa10 value="0.0038116919" flag="0"/>
      <psa30 value="0.0003749034" flag="0"/>
    </comp>
    <comp name="--.HHZ">
      <acc value="0.0028407696" flag="0"/>
      <vel value="0.0024081851" flag="0"/>
      <psa03 value="0.0045022423" flag="0"/>
      <psa10 value="0.0035651386" flag="0"/>
      <psa30 value="0.0004454207" flag="0"/>
    </comp>
  </station>
  <station code="DARE" name="DARE" netid="KO" insttype="CMG-3ESP" lat="38.5712" lon="37.4832">
    <comp name="--.HHZ">
      <acc value="0.0043782125" flag="0"/>
      <vel value="0.0024447977" flag="0"/>
      <psa03 value="0.0081186481" flag="0"/>
      <psa10 value="0.0028946343" flag="0"/>
      <psa30 value="0.0002234682" flag="0"/>
    </comp>
    <comp name="--.HHN">
      <acc value="0.0055023208" flag="0"/>
      <vel value="0.0033762333" flag="0"/>
      <psa03 value="0.0131013061" flag="0"/>
      <psa10 value="0.0034459252" flag="0"/>
      <psa30 value="0.0002485090" flag="0"/>
    </comp>
  </station>
  <station code="GAZ" name="GAZ" netid="KO" insttype="CMG-3T" lat="37.1721" lon="37.2096">
    <comp name="--.HHN">
      <acc value="0.0084380776" flag="0"/>
      <vel value="0.0064122235" flag="0"/>
      <psa03 value="0.0165047933" flag="0"/>
      <psa10 value="0.0078297592" flag="0"/>
      <psa30 value="0.0004673834" flag="0"/>
    </comp>
    <comp name="--.HHZ">
      <acc value="0.0055859356" flag="0"/>
      <vel value="0.0038946282" flag="0"/>
      <psa03 value="0.0112622965" flag="0"/>
      <psa10 value="0.0033399306" flag="0"/>
      <psa30 value="0.0004844787" flag="0"/>
    </comp>
  </station>
  <station code="SARI" name="SARI" netid="KO" insttype="CMG-3T" lat="38.4072" lon="36.4181">
    <comp name="--.HHZ">
      <acc value="0.0838285540" flag="0"/>
      <vel value="0.0352967338" flag="0"/>
      <psa03 value="0.1981259026" flag="0"/>
      <psa10 value="0.0353028283" flag="0"/>
      <psa30 value="0.0013752901" flag="0"/>
    </comp>
  </station>
  <station code="ANDN" name="ANDN" netid="TU" insttype="T" lat="37.58" lon="36.3452">
    <comp name="--.HHN">
      <acc value="0.1809455836" flag="0"/>
      <vel value="0.0755553235" flag="0"/>
      <psa03 value="0.4412623895" flag="0"/>
      <psa10 value="0.0431153316" flag="0"/>
      <psa30 value="0.0023175659" flag="0"/>
    </comp>
    <comp name="--.HHZ">
      <acc value="0.0579684352" flag="0"/>
      <vel value="0.0387894086" flag="0"/>
      <psa03 value="0.1267056148" flag="0"/>
      <psa10 value="0.0701242332" flag="0"/>
      <psa30 value="0.0028405122" flag="0"/>
    </comp>
    <comp name="--.HHE">
      <acc value="0.1019483557" flag="0"/>
      <vel value="0.0602582605" flag="0"/>
      <psa03 value="0.2491437285" flag="0"/>
      <psa10 value="0.0528364107" flag="0"/>
      <psa30 value="0.0054480765" flag="0"/>
    </comp>
  </station>
</stationlist>
