<?xml version="1.0" encoding="UTF-8" standalone="yes"?>
<!DOCTYPE earthquake SYSTEM "stationlist.dtd">
<stationlist created="" xmlns="ch.ethz.sed.shakemap.usgs.xml">
  <station code="CEYT" name="CEYT" netid="KO" insttype="CMG-3ESP" lat="37.0105" lon="35.7478">
    <comp name="--.HHE">
      <acc value="0.0028060714" flag="0"/>
      <vel value="0.0025842362" flag="0"/>
      <psa03 value="0.0102729349" flag="0"/>
      <psa10 value="0.0053177713" flag="0"/>
      <psa30 value="0.0004305854" flag="0"/>
    </comp>
    <comp name="--.HHZ">
      <acc value="0.0028407695" flag="0"/>
      <vel value="0.0024081858" flag="0"/>
      <psa03 value="0.0045022423" flag="0"/>
      <psa10 value="0.0035651385" flag="0"/>
      <psa30 value="0.0004454206" flag="0"/>
    </comp>
    <comp name="--.HHN">
      <acc value="0.0027919142" flag="0"/>
      <vel value="0.0025176468" flag="0"/>
      <psa03 value="0.0073970390" flag="0"/>
      <psa10 value="0.0038116919" flag="0"/>
      <psa30 value="0.0003749027" flag="0"/>
    </comp>
  </station>
  <station code="GAZ" name="GAZ" netid="KO" insttype="CMG-3T" lat="37.1721" lon="37.2096">
    <comp name="--.HHN">
      <acc value="0.0084380776" flag="0"/>
      <vel value="0.0064122233" flag="0"/>
      <psa03 value="0.0165047933" flag="0"/>
      <psa10 value="0.0078297592" flag="0"/>
      <psa30 value="0.0004673982" flag="0"/>
    </comp>
    <comp name="--.HHZ">
      <acc value="0.0055859359" flag="0"/>
      <vel value="0.0038946279" flag="0"/>
      <psa03 value="0.0112622965" flag="0"/>
      <psa10 value="0.0033399306" flag="0"/>
      <psa30 value="0.0004844787" flag="0"/>
    </comp>
  </station>
  <station code="SARI" name="SARI" netid="KO" insttype="CMG-3T" lat="38.4072" lon="36.4181">
    <comp name="--.HHZ">
      <acc value="0.0838285541" flag="0"/>
      <vel value="0.0352967347" flag="0"/>
      <psa03 value="0.1981259026" flag="0"/>
      <psa10 value="0.0353028269" flag="0"/>
      <psa30 value="0.0013752649" flag="0"/>
    </comp>
  </station>
  <station code="ANDN" name="ANDN" netid="TU" insttype="T" lat="37.58" lon="36.3452">
    <comp name="--.HHN">
      <acc value="0.1809455836" flag="0"/>
      <vel value="0.0755553233" flag="0"/>
      <psa03 value="0.4412623895" flag="0"/>
      <psa10 value="0.0431153254" flag="0"/>
      <psa30 value="0.0023175921" flag="0"/>
    </comp>
    <comp name="--.HHE">
      <acc value="0.1019483558" flag="0"/>
      <vel value="0.0602582604" flag="0"/>
      <psa03 value="0.2491437285" flag="0"/>
      <psa10 value="0.0528364100" flag="0"/>
      <psa30 value="0.0054480966" flag="0"/>
    </comp>
    <comp name="--.HHZ">
      <acc value="0.0579684353" flag="0"/>
      <vel value="0.0387894080" flag="0"/>
      <psa03 value="0.1267056148" flag="0"/>
      <psa10 value="0.0701242330" flag="0"/>
      <psa30 value="0.0028405673" flag="0"/>
    </comp>
  </station>
</stationlist>
