<?xml version="1.0" encoding="UTF-8" standalone="yes"?>
<!DOCTYPE earthquake SYSTEM "stationlist.dtd">
<stationlist created="" xmlns="ch.ethz.sed.shakemap.usgs.xml">
  <station code="GAZ" name="GAZ" netid="KO" insttype="CMG-3T" lat="37.1721" lon="37.2096">
    <comp name="--.HHZ">
      <acc value="0.0123015738" flag="0"/>
      <vel value="0.0074872376" flag="0"/>
      <psa03 value="0.0202303157" flag="0"/>
      <psa10 value="0.0073957190" flag="0"/>
      <psa30 value="0.0007644521" flag="0"/>
    </comp>
    <comp name="--.HHE">
      <acc value="0.0255207367" flag="0"/>
      <vel value="0.0149812192" flag="0"/>
      <psa03 value="0.0298950363" flag="0"/>
      <psa10 value="0.0217634524" flag="0"/>
      <psa30 value="0.0010976054" flag="0"/>
    </comp>
    <comp name="--.HHN">
      <acc value="0.0328777795" flag="0"/>
      <vel value="0.0107349279" flag="0"/>
      <psa03 value="0.0444065835" flag="0"/>
      <psa10 value="0.0172525560" flag="0"/>
      <psa30 value="0.0015548569" flag="0"/>
    </comp>
  </station>
  <station code="KMRS" name="KMRS" netid="KO" insttype="CMG-3T" lat="37.5053" lon="36.9">
    <comp name="--.HHN">
      <acc value="0.0350948545" flag="0"/>
      <vel value="0.0187846975" flag="0"/>
      <psa03 value="0.0571147996" flag="0"/>
      <psa10 value="0.0104401122" flag="0"/>
      <psa30 value="0.0011696705" flag="0"/>
    </comp>
    <comp name="--.HHE">
      <acc value="0.0369710356" flag="0"/>
      <vel value="0.0124272176" flag="0"/>
      <psa03 value="0.0339545815" flag="0"/>
      <psa10 value="0.0153758213" flag="0"/>
      <psa30 value="0.0012739080" flag="0"/>
    </comp>
    <comp name="--.HHZ">
      <acc value="0.0560184268" flag="0"/>
      <vel value="0.0171266629" flag="0"/>
      <psa03 value="0.0580485987" flag="0"/>
      <psa10 value="0.0050971372" flag="0"/>
      <psa30 value="0.0008096291" flag="0"/>
    </comp>
  </station>
  <station code="SARI" name="SARI" netid="KO" insttype="CMG-3T" lat="38.4072" lon="36.4181">
    <comp name="--.HHN">
      <acc value="0.1073496204" flag="0"/>
      <vel value="0.0360501716" flag="0"/>
      <psa03 value="0.2063137796" flag="0"/>
      <psa10 value="0.0226282891" flag="0"/>
      <psa30 value="0.0026241744" flag="0"/>
    </comp>
    <comp name="--.HHE">
      <acc value="0.1346702482" flag="0"/>
      <vel value="0.0379329744" flag="0"/>
      <psa03 value="0.2074786914" flag="0"/>
      <psa10 value="0.0175222554" flag="0"/>
      <psa30 value="0.0017469481" flag="0"/>
    </comp>
    <comp name="--.HHZ">
      <acc value="0.0754965643" flag="0"/>
      <vel value="0.0304305384" flag="0"/>
      <psa03 value="0.1312948621" flag="0"/>
      <psa10 value="0.0266723539" flag="0"/>
      <psa30 value="0.0016947401" flag="0"/>
    </comp>
  </station>
  <station code="ANDN" name="ANDN" netid="TU" insttype="T" lat="37.58" lon="36.3452">
    <comp name="--.HHZ">
      <acc value="0.0896734724" flag="0"/>
      <vel value="0.0424869066" flag="0"/>
      <psa03 value="0.1502066291" flag="0"/>
      <psa10 value="0.0778399903" flag="0"/>
      <psa30 value="0.0034062103" flag="0"/>
    </comp>
    <comp name="--.HHE">
      <acc value="0.1717211448" flag="0"/>
      <vel value="0.0616791529" flag="0"/>
      <psa03 value="0.2427052849" flag="0"/>
      <psa10 value="0.0980965025" flag="0"/>
      <psa30 value="0.0086615704" flag="0"/>
    </comp>
    <comp name="--.HHN">
      <acc value="0.2475974007" flag="0"/>
      <vel value="0.0843376115" flag="0"/>
      <psa03 value="0.3728640873" flag="0"/>
      <psa10 value="0.0770958144" flag="0"/>
      <psa30 value="0.0044185560" flag="0"/>
    </comp>
  </station>
</stationlist>
