<?xml version="1.0" encoding="UTF-8" standalone="yes"?>
<!DOCTYPE earthquake SYSTEM "stationlist.dtd">
<stationlist created="" xmlns="ch.ethz.sed.shakemap.usgs.xml">
  <station code="KHMN" name="KHMN" netid="KO" insttype="CMG-5T" lat="37.3916" lon="37.1574">
    <comp name="--.HNE">
      <acc value="0.3224569417" flag="0"/>
      <vel value="0.1386747850" flag="0"/>
      <psa03 value="0.8338680454" flag="0"/>
      <psa10 value="0.1266529443" flag="0"/>
      <psa30 value="0.0197838100" flag="0"/>
    </comp>
    <comp name="--.HNN">
      <acc value="0.2327507700" flag="0"/>
      <vel value="0.0864545414" flag="0"/>
      <psa03 value="0.3821185913" flag="0"/>
      <psa10 value="0.1055807349" flag="0"/>
      <psa30 value="0.0162650845" flag="0"/>
    </comp>
    <comp name="--.HNZ">
      <acc value="0.2074955443" flag="0"/>
      <vel value="0.1009101409" flag="0"/>
      <psa03 value="0.3449953619" flag="0"/>
      <psa10 value="0.0886773138" flag="0"/>
      <psa30 value="0.0052945358" flag="0"/>
    </comp>
  </station>
  <station code="ANDN" name="ANDN" netid="TU" insttype="T" lat="37.58" lon="36.3452">
    <comp name="--.HHZ">
      <acc value="0.0754836111" flag="0"/>
      <vel value="0.0567986662" flag="0"/>
      <psa03 value="0.2082884702" flag="0"/>
      <psa10 value="0.0725215540" flag="0"/>
      <psa30 value="0.0033929642" flag="0"/>
    </comp>
    <comp name="--.HHN">
      <acc value="0.1621781867" flag="0"/>
      <vel value="0.0601192389" flag="0"/>
      <psa03 value="0.3636769513" flag="0"/>
      <psa10 value="0.0452341604" flag="0"/>
      <psa30 value="0.0084287474" flag="0"/>
    </comp>
    <comp name="--.HHE">
      <acc value="0.1480607194" flag="0"/>
      <vel value="0.0669292397" flag="0"/>
      <psa03 value="0.3145257135" flag="0"/>
      <psa10 value="0.0423081645" flag="0"/>
      <psa30 value="0.0051529776" flag="0"/>
    </comp>
  </station>
</stationlist>
