<?xml version="1.0" encoding="UTF-8" standalone="yes"?>
<!DOCTYPE earthquake SYSTEM "stationlist.dtd">
<stationlist created="" xmlns="ch.ethz.sed.shakemap.usgs.xml">
  <station code="KHMN" name="KHMN" netid="KO" insttype="CMG-5T" lat="37.3916" lon="37.1574">
    <comp name="--.HNE">
      <acc value="0.3224569721" flag="0"/>
      <vel value="0.1386747828" flag="0"/>
      <psa03 value="0.8338680454" flag="0"/>
      <psa10 value="0.1266529804" flag="0"/>
      <psa30 value="0.0197960646" flag="0"/>
    </comp>
    <comp name="--.HNN">
      <acc value="0.2327507415" flag="0"/>
      <vel value="0.0864545308" flag="0"/>
      <psa03 value="0.3821185913" flag="0"/>
      <psa10 value="0.1055807339" flag="0"/>
      <psa30 value="0.0162744981" flag="0"/>
    </comp>
    <comp name="--.HNZ">
      <acc value="0.2074954793" flag="0"/>
      <vel value="0.1009101440" flag="0"/>
      <psa03 value="0.3449953619" flag="0"/>
      <psa10 value="0.0886773005" flag="0"/>
      <psa30 value="0.0053007727" flag="0"/>
    </comp>
  </station>
  <station code="ANDN" name="ANDN" netid="TU" insttype="T" lat="37.58" lon="36.3452">
    <comp name="--.HHN">
      <acc value="0.1621781868" flag="0"/>
      <vel value="0.0601192391" flag="0"/>
      <psa03 value="0.3636769513" flag="0"/>
      <psa10 value="0.0452341597" flag="0"/>
      <psa30 value="0.0084287007" flag="0"/>
    </comp>
    <comp name="--.HHZ">
      <acc value="0.0754836107" flag="0"/>
      <vel value="0.0567986656" flag="0"/>
      <psa03 value="0.2082884702" flag="0"/>
      <psa10 value="0.0725215533" flag="0"/>
      <psa30 value="0.0033929910" flag="0"/>
    </comp>
    <comp name="--.HHE">
      <acc value="0.1480607190" flag="0"/>
      <vel value="0.0669292398" flag="0"/>
      <psa03 value="0.3145257135" flag="0"/>
      <psa10 value="0.0423081653" flag="0"/>
      <psa30 value="0.0051530218" flag="0"/>
    </comp>
  </station>
</stationlist>
