<?xml version="1.0" encoding="UTF-8" standalone="yes"?>
<!DOCTYPE earthquake SYSTEM "stationlist.dtd">
<stationlist created="" xmlns="ch.ethz.sed.shakemap.usgs.xml">
  <station code="KHMN" name="KHMN" netid="KO" insttype="CMG-5T" lat="37.3916" lon="37.1574">
    <comp name="--.HNE">
      <acc value="0.3224569785" flag="0"/>
      <vel value="0.1386747895" flag="0"/>
      <psa03 value="0.8338680454" flag="0"/>
      <psa10 value="0.1266530000" flag="0"/>
      <psa30 value="0.0197860495" flag="0"/>
    </comp>
    <comp name="--.HNN">
      <acc value="0.2327507648" flag="0"/>
      <vel value="0.0864545398" flag="0"/>
      <psa03 value="0.3821185913" flag="0"/>
      <psa10 value="0.1055807636" flag="0"/>
      <psa30 value="0.0162662485" flag="0"/>
    </comp>
    <comp name="--.HNZ">
      <acc value="0.2074953956" flag="0"/>
      <vel value="0.1009101395" flag="0"/>
      <psa03 value="0.3449953619" flag="0"/>
      <psa10 value="0.0886773308" flag="0"/>
      <psa30 value="0.0052963501" flag="0"/>
    </comp>
  </station>
  <station code="ANDN" name="ANDN" netid="TU" insttype="T" lat="37.58" lon="36.3452">
    <comp name="--.HHZ">
      <acc value="0.0754836111" flag="0"/>
      <vel value="0.0567986657" flag="0"/>
      <psa03 value="0.2082884702" flag="0"/>
      <psa10 value="0.0725215540" flag="0"/>
      <psa30 value="0.0033928280" flag="0"/>
    </comp>
    <comp name="--.HHN">
      <acc value="0.1621781866" flag="0"/>
      <vel value="0.0601192388" flag="0"/>
      <psa03 value="0.3636769513" flag="0"/>
      <psa10 value="0.0452341604" flag="0"/>
      <psa30 value="0.0084287533" flag="0"/>
    </comp>
    <comp name="--.HHE">
      <acc value="0.1480607194" flag="0"/>
      <vel value="0.0669292400" flag="0"/>
      <psa03 value="0.3145257135" flag="0"/>
      <psa10 value="0.0423081635" flag="0"/>
      <psa30 value="0.0051529306" flag="0"/>
    </comp>
  </station>
</stationlist>
