<?xml version="1.0" encoding="UTF-8" standalone="yes"?>
<!DOCTYPE earthquake SYSTEM "stationlist.dtd">
<stationlist created="" xmlns="ch.ethz.sed.shakemap.usgs.xml">
  <station code="CMRD" name="CMRD" netid="KO" insttype="CMG-5T" lat="37.6623" lon="34.9902">
    <comp name="--.HNE">
      <acc value="0.0027064943" flag="0"/>
      <vel value="0.0014492575" flag="0"/>
      <psa03 value="0.0112052509" flag="0"/>
      <psa10 value="0.0021234094" flag="0"/>
      <psa30 value="0.0001681849" flag="0"/>
    </comp>
    <comp name="--.HNN">
      <acc value="0.0029734353" flag="0"/>
      <vel value="0.0017395877" flag="0"/>
      <psa03 value="0.0065277815" flag="0"/>
      <psa10 value="0.0023773955" flag="0"/>
      <psa30 value="0.0002365439" flag="0"/>
    </comp>
    <comp name="--.HNZ">
      <acc value="0.0024916092" flag="0"/>
      <vel value="0.0014006008" flag="0"/>
      <psa03 value="0.0074199340" flag="0"/>
      <psa10 value="0.0014470837" flag="0"/>
      <psa30 value="0.0001380312" flag="0"/>
    </comp>
  </station>
  <station code="ANDN" name="ANDN" netid="TU" insttype="T" lat="37.58" lon="36.3452">
    <comp name="--.HHZ">
      <acc value="0.0253486216" flag="0"/>
      <vel value="0.0232565832" flag="0"/>
      <psa03 value="0.0574982037" flag="0"/>
      <psa10 value="0.0436697367" flag="0"/>
      <psa30 value="0.0021511013" flag="0"/>
    </comp>
    <comp name="--.HHN">
      <acc value="0.0542623919" flag="0"/>
      <vel value="0.0282007741" flag="0"/>
      <psa03 value="0.1204456754" flag="0"/>
      <psa10 value="0.0340370711" flag="0"/>
      <psa30 value="0.0014531397" flag="0"/>
    </comp>
    <comp name="--.HHE">
      <acc value="0.0468193334" flag="0"/>
      <vel value="0.0243743991" flag="0"/>
      <psa03 value="0.0754378546" flag="0"/>
      <psa10 value="0.0314211224" flag="0"/>
      <psa30 value="0.0021004325" flag="0"/>
    </comp>
  </station>
</stationlist>
