<?xml version="1.0" encoding="UTF-8" standalone="yes"?>
<!DOCTYPE earthquake SYSTEM "stationlist.dtd">
<stationlist created="" xmlns="ch.ethz.sed.shakemap.usgs.xml">
  <station code="JMI" name="JMI" netid="NS" insttype="" commtype="DIG" lat="70.9268" lon="-8.72667">
    <comp name="00.HHZ">
      <acc value="0.0716713227" flag="0"/>
      <vel value="0.0648892433" flag="0"/>
      <psa03 value="0.1340952932" flag="0"/>
      <psa10 value="0.0650373276" flag="0"/>
      <psa30 value="0.0308145807" flag="0"/>
    </comp>
    <comp name="00.HHN">
      <acc value="0.0707563613" flag="0"/>
      <vel value="0.0863929903" flag="0"/>
      <psa03 value="0.1604526464" flag="0"/>
      <psa10 value="0.1210812970" flag="0"/>
      <psa30 value="0.0232080078" flag="0"/>
    </comp>
    <comp name="00.HHE">
      <acc value="0.0662498766" flag="0"/>
      <vel value="0.1047534063" flag="0"/>
      <psa03 value="0.1722881301" flag="0"/>
      <psa10 value="0.0949468502" flag="0"/>
      <psa30 value="0.0329266137" flag="0"/>
    </comp>
  </station>
  <station code="JNE" name="JNE" netid="NS" insttype="" commtype="DIG" lat="70.9883" lon="-8.29267">
    <comp name="00.HHE">
      <acc value="0.8047496549" flag="0"/>
      <vel value="0.7926204410" flag="0"/>
      <psa03 value="3.5407076810" flag="0"/>
      <psa10 value="1.1337350380" flag="0"/>
      <psa30 value="0.1350056996" flag="0"/>
    </comp>
    <comp name="00.HHN">
      <acc value="0.6747243572" flag="0"/>
      <vel value="0.6789424011" flag="0"/>
      <psa03 value="1.7474623219" flag="0"/>
      <psa10 value="0.8895409485" flag="0"/>
      <psa30 value="0.1521714698" flag="0"/>
    </comp>
    <comp name="00.HHZ">
      <acc value="0.4658933065" flag="0"/>
      <vel value="0.2262649695" flag="0"/>
      <psa03 value="1.0753769542" flag="0"/>
      <psa10 value="0.4230105396" flag="0"/>
      <psa30 value="0.0408580735" flag="0"/>
    </comp>
  </station>
  <station code="JNW" name="JNW" netid="NS" insttype="" commtype="DIG" lat="71.0273" lon="-8.42367">
    <comp name="00.HHE">
      <acc value="0.2596495881" flag="0"/>
      <vel value="0.3655368625" flag="0"/>
      <psa03 value="0.6395933792" flag="0"/>
      <psa10 value="0.4297636963" flag="0"/>
      <psa30 value="0.1207463311" flag="0"/>
    </comp>
    <comp name="00.HHN">
      <acc value="0.5405923692" flag="0"/>
      <vel value="0.5497810201" flag="0"/>
      <psa03 value="0.7795678101" flag="0"/>
      <psa10 value="1.0941891015" flag="0"/>
      <psa30 value="0.1144229567" flag="0"/>
    </comp>
    <comp name="00.HHZ">
      <acc value="0.1933295859" flag="0"/>
      <vel value="0.2008792957" flag="0"/>
      <psa03 value="0.3582656581" flag="0"/>
      <psa10 value="0.2667977152" flag="0"/>
      <psa30 value="0.0477482053" flag="0"/>
    </comp>
  </station>
</stationlist>
