<?xml version="1.0" encoding="UTF-8" standalone="yes"?>
<!DOCTYPE earthquake SYSTEM "stationlist.dtd">
<stationlist created="" xmlns="ch.ethz.sed.shakemap.usgs.xml">
  <station code="LTHK" name="LTHK" netid="HP" source="NOA" insttype="40," lat="37.7095" lon="20.8367">
    <comp name="--.HHE">
      <acc value="0.9283377934" flag="0"/>
      <vel value="0.2327929438" flag="0"/>
      <psa03 value="0.4678817147" flag="0"/>
      <psa10 value="0.0635249932" flag="0"/>
      <psa30 value="0.0050868636" flag="0"/>
    </comp>
    <comp name="--.HHN">
      <acc value="0.6031733381" flag="0"/>
      <vel value="0.1320699943" flag="0"/>
      <psa03 value="0.3613314281" flag="0"/>
      <psa10 value="0.0353875141" flag="0"/>
      <psa30 value="0.0037307140" flag="0"/>
    </comp>
    <comp name="--.HHZ">
      <acc value="0.6669235013" flag="0"/>
      <vel value="0.1557916633" flag="0"/>
      <psa03 value="0.2798066068" flag="0"/>
      <psa10 value="0.0350301392" flag="0"/>
      <psa30 value="0.0024458892" flag="0"/>
    </comp>
  </station>
</stationlist>
