<stationlist xmlns:esm="https://esm-db.eu/esmws/shakemap/1/" created="1781661258">
	<station code="ARG2" name="ARG2" netid="HI" source="ITSAK Strong Motion Network" insttype="" lat="38.1783" lon="20.4878" esm:processing="manual (Paolucci et al 2011)" esm:quality="good">
		<comp name="--.HNE" depth="0.0">
			<acc value="0.0552368229008744" flag="0"/>
			<vel value="0.01551763270987" flag="0"/>
			<psa03 value="0.0737351565069119" flag="0"/>
			<psa10 value="0.0128817287074666" flag="0"/>
			<psa30 value="0.000582990952236081" flag="0"/>
		</comp>
		<comp name="--.HNN" depth="0.0">
			<acc value="0.0380009676804562" flag="0"/>
			<vel value="0.0112804175787668" flag="0"/>
			<psa03 value="0.0425050962873582" flag="0"/>
			<psa10 value="0.00659992289826127" flag="0"/>
			<psa30 value="0.000511850843713029" flag="0"/>
		</comp>
		<comp name="--.HNZ" depth="0.0">
			<acc value="0.0272297894453135" flag="0"/>
			<vel value="0.00707845594591576" flag="0"/>
			<psa03 value="0.040178501543208" flag="0"/>
			<psa10 value="0.00488450669651673" flag="0"/>
			<psa30 value="0.000458607617837285" flag="0"/>
		</comp>
	</station>
	<station code="KLV1" name="KLV1" netid="HI" source="ITSAK Strong Motion Network" insttype="" lat="38.03256" lon="22.10797" esm:processing="manual (Paolucci et al 2011)" esm:quality="bad">
		<comp name="--.HNE" depth="0.0">
			<acc value="0.00389509185652081" flag="0"/>
			<vel value="0.00224920614371293" flag="0"/>
			<psa03 value="0.0132627744270589" flag="0"/>
			<psa10 value="0.00385913807083356" flag="0"/>
			<psa30 value="0.000122247395165174" flag="0"/>
		</comp>
		<comp name="--.HNN" depth="0.0">
			<acc value="0.00416549494482844" flag="0"/>
			<vel value="0.0022834499675232" flag="0"/>
			<psa03 value="0.0105411533777817" flag="0"/>
			<psa10 value="0.00235701543758193" flag="0"/>
			<psa30 value="0.000137592890895298" flag="0"/>
		</comp>
		<comp name="--.HNZ" depth="0.0">
			<acc value="0.00256978479385188" flag="0"/>
			<vel value="0.00113786983602899" flag="0"/>
			<psa03 value="0.00437323566894291" flag="0"/>
			<psa10 value="0.00264310923363892" flag="0"/>
			<psa30 value="0.000100069636934699" flag="0"/>
		</comp>
	</station>
	<station code="KRI1" name="KRI1" netid="HI" source="ITSAK Strong Motion Network" insttype="" lat="37.6621" lon="20.8172" esm:processing="manual (Paolucci et al 2011)" esm:quality="good">
		<comp name="--.HNE" depth="0.0">
			<acc value="0.809943797389059" flag="0"/>
			<vel value="0.235376351849567" flag="0"/>
			<psa03 value="0.723749934257164" flag="0"/>
			<psa10 value="0.0592261537447387" flag="0"/>
			<psa30 value="0.0074558413108688" flag="0"/>
		</comp>
		<comp name="--.HNN" depth="0.0">
			<acc value="0.571826423318332" flag="0"/>
			<vel value="0.175518062646991" flag="0"/>
			<psa03 value="0.697173063525911" flag="0"/>
			<psa10 value="0.0846876012649986" flag="0"/>
			<psa30 value="0.00513058883291722" flag="0"/>
		</comp>
		<comp name="--.HNZ" depth="0.0">
			<acc value="0.389608191579362" flag="0"/>
			<vel value="0.0902930269817172" flag="0"/>
			<psa03 value="0.24362131503649" flag="0"/>
			<psa10 value="0.0188655514205943" flag="0"/>
			<psa30 value="0.00153823706353618" flag="0"/>
		</comp>
	</station>
</stationlist>
