<?xml version="1.0" encoding="UTF-8" standalone="yes"?>
<!DOCTYPE earthquake SYSTEM "stationlist.dtd">
<stationlist created="" xmlns="ch.ethz.sed.shakemap.usgs.xml">
  <station code="IMOD" name="IMOD" netid="HC" insttype="120" lat="34.9731" lon="24.7995">
    <comp name="--.HHE">
      <acc value="0.0116387121" flag="0"/>
      <vel value="0.0080479912" flag="0"/>
      <psa03 value="0.0284010286" flag="0"/>
      <psa10 value="0.0076549387" flag="0"/>
      <psa30 value="0.0004580569" flag="0"/>
    </comp>
    <comp name="--.HHN">
      <acc value="0.0165425490" flag="0"/>
      <vel value="0.0143820338" flag="0"/>
      <psa03 value="0.0282678911" flag="0"/>
      <psa10 value="0.0110466870" flag="0"/>
      <psa30 value="0.0006565627" flag="0"/>
    </comp>
    <comp name="--.HHZ">
      <acc value="0.0064332985" flag="0"/>
      <vel value="0.0037527427" flag="0"/>
      <psa03 value="0.0158256894" flag="0"/>
      <psa10 value="0.0037097540" flag="0"/>
      <psa30 value="0.0001874125" flag="0"/>
    </comp>
  </station>
  <station code="PFKS" name="PFKS" netid="HC" insttype="120" lat="35.0429" lon="25.4733">
    <comp name="--.HHE">
      <acc value="0.0270120956" flag="0"/>
      <vel value="0.0148335124" flag="0"/>
      <psa03 value="0.0846126360" flag="0"/>
      <psa10 value="0.0124036589" flag="0"/>
      <psa30 value="0.0007257568" flag="0"/>
    </comp>
    <comp name="--.HHZ">
      <acc value="0.0350688146" flag="0"/>
      <vel value="0.0144418642" flag="0"/>
      <psa03 value="0.1039750998" flag="0"/>
      <psa10 value="0.0050515052" flag="0"/>
      <psa30 value="0.0003754138" flag="0"/>
    </comp>
    <comp name="--.HHN">
      <acc value="0.0552898035" flag="0"/>
      <vel value="0.0270449086" flag="0"/>
      <psa03 value="0.2661032740" flag="0"/>
      <psa10 value="0.0134714474" flag="0"/>
      <psa30 value="0.0006927447" flag="0"/>
    </comp>
  </station>
  <station code="TEFL" name="TEFL" netid="HC" insttype="GEOtiny," lat="35.0933" lon="25.1634">
    <comp name="--.HHZ">
      <acc value="0.0170215478" flag="0"/>
      <vel value="0.0043222991" flag="0"/>
      <psa03 value="0.0238120685" flag="0"/>
      <psa10 value="0.0045199864" flag="0"/>
      <psa30 value="0.0003504732" flag="0"/>
    </comp>
    <comp name="--.HHN">
      <acc value="0.0215620098" flag="0"/>
      <vel value="0.0108366558" flag="0"/>
      <psa03 value="0.0488841314" flag="0"/>
      <psa10 value="0.0106593456" flag="0"/>
      <psa30 value="0.0004744998" flag="0"/>
    </comp>
    <comp name="--.HHE">
      <acc value="0.0221440346" flag="0"/>
      <vel value="0.0101268192" flag="0"/>
      <psa03 value="0.0787771028" flag="0"/>
      <psa10 value="0.0074566694" flag="0"/>
      <psa30 value="0.0005284791" flag="0"/>
    </comp>
  </station>
  <station code="KSTE" name="KSTE" netid="HL" insttype="60" lat="35.1801" lon="25.3372">
    <comp name="--.HHN">
      <acc value="0.1055411724" flag="0"/>
      <vel value="0.0117497153" flag="0"/>
      <psa03 value="0.0331901939" flag="0"/>
      <psa10 value="0.0080781643" flag="0"/>
      <psa30 value="0.0011397999" flag="0"/>
    </comp>
    <comp name="--.HHZ">
      <acc value="0.0050546519" flag="0"/>
      <vel value="0.0031668930" flag="0"/>
      <psa03 value="0.0121052532" flag="0"/>
      <psa10 value="0.0028473461" flag="0"/>
      <psa30 value="0.0002654854" flag="0"/>
    </comp>
    <comp name="--.HHE">
      <acc value="0.0124701974" flag="0"/>
      <vel value="0.0064427675" flag="0"/>
      <psa03 value="0.0147849496" flag="0"/>
      <psa10 value="0.0049377245" flag="0"/>
      <psa30 value="0.0002701740" flag="0"/>
    </comp>
  </station>
  <station code="NPS" name="NPS" netid="HL" insttype="CMG3ESPC-120s" lat="35.2613" lon="25.6104">
    <comp name="--.HHN">
      <acc value="0.0042943957" flag="0"/>
      <vel value="0.0028370173" flag="0"/>
      <psa03 value="0.0143489117" flag="0"/>
      <psa10 value="0.0025704725" flag="0"/>
      <psa30 value="0.0002348985" flag="0"/>
    </comp>
    <comp name="--.HHZ">
      <acc value="0.0045620598" flag="0"/>
      <vel value="0.0026473131" flag="0"/>
      <psa03 value="0.0162691093" flag="0"/>
      <psa10 value="0.0013440044" flag="0"/>
      <psa30 value="0.0002479273" flag="0"/>
    </comp>
    <comp name="--.HHE">
      <acc value="0.0023346091" flag="0"/>
      <vel value="0.0014791505" flag="0"/>
      <psa03 value="0.0087749519" flag="0"/>
      <psa10 value="0.0027226539" flag="0"/>
      <psa30 value="0.0001292616" flag="0"/>
    </comp>
  </station>
  <station code="SIVA" name="SIVA" netid="HL" insttype="60" lat="35.0178" lon="24.812">
    <comp name="--.HHE">
      <acc value="0.0143128364" flag="0"/>
      <vel value="0.0120426979" flag="0"/>
      <psa03 value="0.0560643564" flag="0"/>
      <psa10 value="0.0127298292" flag="0"/>
      <psa30 value="0.0004660116" flag="0"/>
    </comp>
    <comp name="--.HHN">
      <acc value="0.0131750807" flag="0"/>
      <vel value="0.0085367921" flag="0"/>
      <psa03 value="0.0305689228" flag="0"/>
      <psa10 value="0.0072535469" flag="0"/>
      <psa30 value="0.0003926080" flag="0"/>
    </comp>
    <comp name="--.HHZ">
      <acc value="0.0126784690" flag="0"/>
      <vel value="0.0047247466" flag="0"/>
      <psa03 value="0.0199800983" flag="0"/>
      <psa10 value="0.0044439557" flag="0"/>
      <psa30 value="0.0002742546" flag="0"/>
    </comp>
  </station>
</stationlist>
