<?xml version="1.0" encoding="UTF-8" standalone="yes"?>
<!DOCTYPE earthquake SYSTEM "stationlist.dtd">
<stationlist created="" xmlns="ch.ethz.sed.shakemap.usgs.xml">
  <station code="BASM" name="BASM" netid="KO" insttype="100" lat="37.9194" lon="30.035">
    <comp name="--.HNE">
      <acc value="0.1502987523" flag="0"/>
      <vel value="0.0514975552" flag="0"/>
      <psa03 value="0.4300754305" flag="0"/>
      <psa10 value="0.0475197323" flag="0"/>
      <psa30 value="0.0033391037" flag="0"/>
    </comp>
    <comp name="--.HNZ">
      <acc value="0.1048326982" flag="0"/>
      <vel value="0.0437465648" flag="0"/>
      <psa03 value="0.2242935722" flag="0"/>
      <psa10 value="0.0366197639" flag="0"/>
      <psa30 value="0.0027367410" flag="0"/>
    </comp>
    <comp name="--.HNN">
      <acc value="0.1891669892" flag="0"/>
      <vel value="0.0636204230" flag="0"/>
      <psa03 value="0.5992228539" flag="0"/>
      <psa10 value="0.0475899457" flag="0"/>
      <psa30 value="0.0039445527" flag="0"/>
    </comp>
  </station>
  <station code="GEDZ" name="GEDZ" netid="KO" insttype="30s," lat="39.0445" lon="29.4105">
    <comp name="--.HHZ">
      <acc value="0.0140557778" flag="0"/>
      <vel value="0.0060878948" flag="0"/>
      <psa03 value="0.0201299029" flag="0"/>
      <psa10 value="0.0068491161" flag="0"/>
      <psa30 value="0.0009876243" flag="0"/>
    </comp>
    <comp name="--.HHN">
      <acc value="0.0233014329" flag="0"/>
      <vel value="0.0130712250" flag="0"/>
      <psa03 value="0.0677340932" flag="0"/>
      <psa10 value="0.0190465818" flag="0"/>
      <psa30 value="0.0018194159" flag="0"/>
    </comp>
    <comp name="--.HHE">
      <acc value="0.0395207437" flag="0"/>
      <vel value="0.0123446527" flag="0"/>
      <psa03 value="0.1042285142" flag="0"/>
      <psa10 value="0.0171618378" flag="0"/>
      <psa30 value="0.0017629905" flag="0"/>
    </comp>
  </station>
</stationlist>
