<?xml version="1.0" encoding="UTF-8" standalone="yes"?>
<!DOCTYPE earthquake SYSTEM "stationlist.dtd">
<stationlist created="" xmlns="ch.ethz.sed.shakemap.usgs.xml">
  <station code="KARP" name="KARP" netid="GE" insttype="STS-2/N" lat="35.5471" lon="27.1611">
    <comp name="--.HHE">
      <acc value="0.0549259930" flag="0"/>
      <vel value="0.0121441647" flag="0"/>
      <psa03 value="0.0491815014" flag="0"/>
      <psa10 value="0.0052326987" flag="0"/>
      <psa30 value="0.0003726832" flag="0"/>
    </comp>
    <comp name="--.HHZ">
      <acc value="0.0310942757" flag="0"/>
      <vel value="0.0086435451" flag="0"/>
      <psa03 value="0.0341448734" flag="0"/>
      <psa10 value="0.0050710137" flag="0"/>
      <psa30 value="0.0003953669" flag="0"/>
    </comp>
    <comp name="--.HHN">
      <acc value="0.0415734295" flag="0"/>
      <vel value="0.0102693755" flag="0"/>
      <psa03 value="0.0435498288" flag="0"/>
      <psa10 value="0.0064416758" flag="0"/>
      <psa30 value="0.0005064586" flag="0"/>
    </comp>
  </station>
  <station code="THERA" name="THERA" netid="GE" insttype="STS-2/N" lat="36.367" lon="25.4753">
    <comp name="--.HHE">
      <acc value="0.0160134267" flag="0"/>
      <vel value="0.0083895883" flag="0"/>
      <psa03 value="0.0355201422" flag="0"/>
      <psa10 value="0.0042002143" flag="0"/>
      <psa30 value="0.0003359008" flag="0"/>
    </comp>
    <comp name="--.HHN">
      <acc value="0.0184392754" flag="0"/>
      <vel value="0.0065518237" flag="0"/>
      <psa03 value="0.0262689855" flag="0"/>
      <psa10 value="0.0023839908" flag="0"/>
      <psa30 value="0.0001513467" flag="0"/>
    </comp>
    <comp name="--.HHZ">
      <acc value="0.0153245377" flag="0"/>
      <vel value="0.0070572770" flag="0"/>
      <psa03 value="0.0336664770" flag="0"/>
      <psa10 value="0.0041469003" flag="0"/>
      <psa30 value="0.0003453428" flag="0"/>
    </comp>
  </station>
  <station code="ZKR" name="ZKR" netid="GE" insttype="STS-2/N" lat="35.1147" lon="26.2169">
    <comp name="--.HHE">
      <acc value="0.0260434402" flag="0"/>
      <vel value="0.0054949373" flag="0"/>
      <psa03 value="0.0247033686" flag="0"/>
      <psa10 value="0.0046092567" flag="0"/>
      <psa30 value="0.0004407824" flag="0"/>
    </comp>
    <comp name="--.HHZ">
      <acc value="0.0276341491" flag="0"/>
      <vel value="0.0040650561" flag="0"/>
      <psa03 value="0.0134914801" flag="0"/>
      <psa10 value="0.0035033972" flag="0"/>
      <psa30 value="0.0002077110" flag="0"/>
    </comp>
    <comp name="--.HHN">
      <acc value="0.0114065877" flag="0"/>
      <vel value="0.0027734829" flag="0"/>
      <psa03 value="0.0120764512" flag="0"/>
      <psa10 value="0.0018508554" flag="0"/>
      <psa30 value="0.0001566691" flag="0"/>
    </comp>
  </station>
  <station code="SNT5" name="SNT5" netid="HA" insttype="1s-100Hz," lat="36.4037" lon="25.3953">
    <comp name="--.HHN">
      <acc value="0.0566321601" flag="0"/>
      <vel value="0.0168744607" flag="0"/>
      <psa03 value="0.0538582100" flag="0"/>
      <psa10 value="0.0038612392" flag="0"/>
      <psa30 value="0.0007969601" flag="0"/>
    </comp>
    <comp name="--.HHE">
      <acc value="0.0725848613" flag="0"/>
      <vel value="0.0201081491" flag="0"/>
      <psa03 value="0.0866009374" flag="0"/>
      <psa10 value="0.0108044852" flag="0"/>
      <psa30 value="0.0011043224" flag="0"/>
    </comp>
    <comp name="--.HHZ">
      <acc value="0.0175215966" flag="0"/>
      <vel value="0.0055910116" flag="0"/>
      <psa03 value="0.0299977831" flag="0"/>
      <psa10 value="0.0027048540" flag="0"/>
      <psa30 value="0.0003514995" flag="0"/>
    </comp>
  </station>
  <station code="STIA" name="STIA" netid="HC" insttype="120" lat="35.2021" lon="26.0909">
    <comp name="--.HHN">
      <acc value="0.0295866219" flag="0"/>
      <vel value="0.0074998889" flag="0"/>
      <psa03 value="0.0338735969" flag="0"/>
      <psa10 value="0.0061729137" flag="0"/>
      <psa30 value="0.0004237824" flag="0"/>
    </comp>
    <comp name="--.HHZ">
      <acc value="0.0431432213" flag="0"/>
      <vel value="0.0075818348" flag="0"/>
      <psa03 value="0.0250632272" flag="0"/>
      <psa10 value="0.0034519519" flag="0"/>
      <psa30 value="0.0003809568" flag="0"/>
    </comp>
    <comp name="--.HHE">
      <acc value="0.0323582801" flag="0"/>
      <vel value="0.0062385372" flag="0"/>
      <psa03 value="0.0347465667" flag="0"/>
      <psa10 value="0.0056409847" flag="0"/>
      <psa30 value="0.0005725001" flag="0"/>
    </comp>
  </station>
  <station code="KARP" name="KARP" netid="HL" insttype="120" lat="35.5471" lon="27.1611">
    <comp name="--.HHN">
      <acc value="0.0395014123" flag="0"/>
      <vel value="0.0100304863" flag="0"/>
      <psa03 value="0.0425834790" flag="0"/>
      <psa10 value="0.0063630900" flag="0"/>
      <psa30 value="0.0005027215" flag="0"/>
    </comp>
    <comp name="--.HHE">
      <acc value="0.0497790454" flag="0"/>
      <vel value="0.0115115947" flag="0"/>
      <psa03 value="0.0473738034" flag="0"/>
      <psa10 value="0.0051769281" flag="0"/>
      <psa30 value="0.0003716114" flag="0"/>
    </comp>
    <comp name="--.HHZ">
      <acc value="0.0282981637" flag="0"/>
      <vel value="0.0083275711" flag="0"/>
      <psa03 value="0.0332884801" flag="0"/>
      <psa10 value="0.0050328617" flag="0"/>
      <psa30 value="0.0003946212" flag="0"/>
    </comp>
  </station>
  <station code="NPS" name="NPS" netid="HL" insttype="CMG3ESPC-120s" lat="35.2613" lon="25.6104">
    <comp name="--.HHN">
      <acc value="0.0842218681" flag="0"/>
      <vel value="0.0182803973" flag="0"/>
      <psa03 value="0.0840996260" flag="0"/>
      <psa10 value="0.0085841190" flag="0"/>
      <psa30 value="0.0006021762" flag="0"/>
    </comp>
    <comp name="--.HHZ">
      <acc value="0.0619245455" flag="0"/>
      <vel value="0.0168061400" flag="0"/>
      <psa03 value="0.0916584777" flag="0"/>
      <psa10 value="0.0049096812" flag="0"/>
      <psa30 value="0.0003586468" flag="0"/>
    </comp>
    <comp name="--.HHE">
      <acc value="0.0395350364" flag="0"/>
      <vel value="0.0103101923" flag="0"/>
      <psa03 value="0.0491670126" flag="0"/>
      <psa10 value="0.0034158865" flag="0"/>
      <psa30 value="0.0003220581" flag="0"/>
    </comp>
  </station>
  <station code="THERA" name="THERA" netid="HL" insttype="120" lat="36.367" lon="25.4753">
    <comp name="--.HHE">
      <acc value="0.0155517467" flag="0"/>
      <vel value="0.0081740374" flag="0"/>
      <psa03 value="0.0346009880" flag="0"/>
      <psa10 value="0.0041497743" flag="0"/>
      <psa30 value="0.0003306963" flag="0"/>
    </comp>
    <comp name="--.HHZ">
      <acc value="0.0148394568" flag="0"/>
      <vel value="0.0069051237" flag="0"/>
      <psa03 value="0.0326441480" flag="0"/>
      <psa10 value="0.0041233667" flag="0"/>
      <psa30 value="0.0003409577" flag="0"/>
    </comp>
    <comp name="--.HHN">
      <acc value="0.0178091283" flag="0"/>
      <vel value="0.0063754515" flag="0"/>
      <psa03 value="0.0254214281" flag="0"/>
      <psa10 value="0.0023529262" flag="0"/>
      <psa30 value="0.0001508503" flag="0"/>
    </comp>
  </station>
  <station code="ZKR" name="ZKR" netid="HL" insttype="120" lat="35.1147" lon="26.2169">
    <comp name="--.HHZ">
      <acc value="0.0278179107" flag="0"/>
      <vel value="0.0040538077" flag="0"/>
      <psa03 value="0.0131068837" flag="0"/>
      <psa10 value="0.0034819896" flag="0"/>
      <psa30 value="0.0002072040" flag="0"/>
    </comp>
    <comp name="--.HHN">
      <acc value="0.0114020863" flag="0"/>
      <vel value="0.0027007165" flag="0"/>
      <psa03 value="0.0117359299" flag="0"/>
      <psa10 value="0.0018391024" flag="0"/>
      <psa30 value="0.0001560934" flag="0"/>
    </comp>
    <comp name="--.HHE">
      <acc value="0.0257423124" flag="0"/>
      <vel value="0.0054284246" flag="0"/>
      <psa03 value="0.0239811835" flag="0"/>
      <psa10 value="0.0045837602" flag="0"/>
      <psa30 value="0.0004410930" flag="0"/>
    </comp>
  </station>
</stationlist>
