<stationlist created="1631873546">
	<station code="KSS1" name="KSS1" netid="HI" source="ITSAK Strong Motion Network" insttype="" lat="35.4189" lon="26.9207">
		<comp name="--.HNE" depth="0.0">
			<acc value="-0.03532005" flag="0"/>
			<vel value="-0.013801" flag="0"/>
			<psa03 value="0.0943165715513" flag="0"/>
			<psa10 value="0.00749387218649" flag="0"/>
			<psa30 value="0.000549881719339" flag="0"/>
		</comp>
		<comp name="--.HNN" depth="0.0">
			<acc value="-0.077196864" flag="0"/>
			<vel value="0.027215" flag="0"/>
			<psa03 value="0.211809606131" flag="0"/>
			<psa10 value="0.0114804027962" flag="0"/>
			<psa30 value="0.000944507981712" flag="0"/>
		</comp>
		<comp name="--.HNZ" depth="0.0">
			<acc value="0.035153688" flag="0"/>
			<vel value="0.011928" flag="0"/>
			<psa03 value="0.0524826083632" flag="0"/>
			<psa10 value="0.00644287775303" flag="0"/>
			<psa30 value="0.000600887834883" flag="0"/>
		</comp>
	</station>
	<station code="ASTA" name="ASTA" netid="HL" source="National Observatory of Athens Seismic Network" insttype="" lat="36.54543" lon="26.3528">
		<comp name="--.HNE" depth="0.0">
			<acc value="0.032357256" flag="0"/>
			<vel value="-0.010276" flag="0"/>
			<psa03 value="0.0414760255351" flag="0"/>
			<psa10 value="0.00558516965216" flag="0"/>
			<psa30 value="0.000565988913721" flag="0"/>
		</comp>
		<comp name="--.HNN" depth="0.0">
			<acc value="-0.02077536" flag="0"/>
			<vel value="-0.00599" flag="0"/>
			<psa03 value="0.0325275842115" flag="0"/>
			<psa10 value="0.0037006279094" flag="0"/>
			<psa30 value="0.000285007856158" flag="0"/>
		</comp>
		<comp name="--.HNZ" depth="0.0">
			<acc value="0.007850838" flag="0"/>
			<vel value="0.002934" flag="0"/>
			<psa03 value="0.0120356535803" flag="0"/>
			<psa10 value="0.00284694660712" flag="0"/>
			<psa30 value="0.000249214090864" flag="0"/>
		</comp>
	</station>
	<station code="IACM" name="IACM" netid="HL" source="National Observatory of Athens Seismic Network" insttype="" lat="35.3058" lon="25.0709">
		<comp name="--.HNE" depth="0.0">
			<acc value="-0.054124974" flag="0"/>
			<vel value="0.027755" flag="0"/>
			<psa03 value="0.17861088882" flag="0"/>
			<psa10 value="0.0323392195216" flag="0"/>
			<psa30 value="0.00153823706354" flag="0"/>
		</comp>
		<comp name="--.HNN" depth="0.0">
			<acc value="0.050697672" flag="0"/>
			<vel value="-0.029276" flag="0"/>
			<psa03 value="0.24303966635" flag="0"/>
			<psa10 value="0.0319325128635" flag="0"/>
			<psa30 value="0.00124741272052" flag="0"/>
		</comp>
		<comp name="--.HNZ" depth="0.0">
			<acc value="0.044716494" flag="0"/>
			<vel value="-0.018859" flag="0"/>
			<psa03 value="0.0716770150025" flag="0"/>
			<psa10 value="0.0112468484776" flag="0"/>
			<psa30 value="0.000697978423245" flag="0"/>
		</comp>
	</station>
	<station code="KARP" name="KARP" netid="HL" source="National Observatory of Athens Seismic Network" insttype="" lat="35.5471" lon="27.16106">
		<comp name="--.HNE" depth="0.0">
			<acc value="0.042722496" flag="0"/>
			<vel value="-0.009927" flag="0"/>
			<psa03 value="0.044071073519" flag="0"/>
			<psa10 value="0.004252299317" flag="0"/>
			<psa30 value="0.000313642868394" flag="0"/>
		</comp>
		<comp name="--.HNN" depth="0.0">
			<acc value="-0.030296142" flag="0"/>
			<vel value="-0.008823" flag="0"/>
			<psa03 value="0.0346752101292" flag="0"/>
			<psa10 value="0.00579858997773" flag="0"/>
			<psa30 value="0.000438026202793" flag="0"/>
		</comp>
		<comp name="--.HNZ" depth="0.0">
			<acc value="0.020731398" flag="0"/>
			<vel value="-0.006906" flag="0"/>
			<psa03 value="0.0272032616239" flag="0"/>
			<psa10 value="0.00411941496334" flag="0"/>
			<psa30 value="0.000335119127571" flag="0"/>
		</comp>
	</station>
</stationlist>
