<stationlist created="1741951622">
	<station code="AGRP" name="AGRP" netid="CL" source="Corinth Riff Laboratory (CRLNET)" insttype="" lat="38.3959" lon="21.72277">
		<comp name="00.HNE" depth="0.0">
			<acc value="0.082904957458752" flag="0"/>
			<vel value="0.0323891024529" flag="0"/>
			<psa03 value="0.111149029744426" flag="0"/>
			<psa10 value="0.0313685180103594" flag="0"/>
			<psa30 value="0.00254498755126726" flag="0"/>
		</comp>
		<comp name="00.HNN" depth="0.0">
			<acc value="0.094590166849614" flag="0"/>
			<vel value="0.0316949264238" flag="0"/>
			<psa03 value="0.143089103950873" flag="0"/>
			<psa10 value="0.0392199181271143" flag="0"/>
			<psa30 value="0.00306120216461923" flag="0"/>
		</comp>
		<comp name="00.HNZ" depth="0.0">
			<acc value="0.091704558578274" flag="0"/>
			<vel value="0.012330181509" flag="0"/>
			<psa03 value="0.0722275555543817" flag="0"/>
			<psa10 value="0.00917556783634421" flag="0"/>
			<psa30 value="0.00080833052709888" flag="0"/>
		</comp>
	</station>
	<station code="MALA" name="MALA" netid="CL" source="Corinth Riff Laboratory (CRLNET)" insttype="" lat="38.39341" lon="21.87263">
		<comp name="01.HNE" depth="0.0">
			<acc value="0.18904607856624" flag="0"/>
			<vel value="0.104694833709" flag="0"/>
			<psa03 value="0.470049305126019" flag="0"/>
			<psa10 value="0.104633258940039" flag="0"/>
			<psa30 value="0.0103798359465329" flag="0"/>
		</comp>
		<comp name="01.HNN" depth="0.0">
			<acc value="0.2170286481186" flag="0"/>
			<vel value="0.0793511879086" flag="0"/>
			<psa03 value="0.499180568262389" flag="0"/>
			<psa10 value="0.0740059400304948" flag="0"/>
			<psa30 value="0.00803734160110078" flag="0"/>
		</comp>
		<comp name="01.HNZ" depth="0.0">
			<acc value="0.065138640558444" flag="0"/>
			<vel value="0.0193814033443" flag="0"/>
			<psa03 value="0.105718024133795" flag="0"/>
			<psa10 value="0.0183969843349133" flag="0"/>
			<psa30 value="0.00191609005656079" flag="0"/>
		</comp>
	</station>
	<station code="ROD3" name="ROD3" netid="CL" source="Corinth Riff Laboratory (CRLNET)" insttype="" lat="38.30811" lon="21.89204">
		<comp name="00.HNE" depth="0.0">
			<acc value="0.37535566048242" flag="0"/>
			<vel value="0.126244688728" flag="0"/>
			<psa03 value="1.06186867692009" flag="0"/>
			<psa10 value="0.0476532030408621" flag="0"/>
			<psa30 value="0.00418069570057238" flag="0"/>
		</comp>
		<comp name="00.HNN" depth="0.0">
			<acc value="0.2392664289315" flag="0"/>
			<vel value="0.0784159815762" flag="0"/>
			<psa03 value="0.596601521923475" flag="0"/>
			<psa10 value="0.0342165504285403" flag="0"/>
			<psa30 value="0.00307779430543499" flag="0"/>
		</comp>
		<comp name="00.HNZ" depth="0.0">
			<acc value="0.13307236937766" flag="0"/>
			<vel value="0.0367895593101" flag="0"/>
			<psa03 value="0.208302069823034" flag="0"/>
			<psa10 value="0.0267719472601121" flag="0"/>
			<psa30 value="0.00178537243882714" flag="0"/>
		</comp>
	</station>
	<station code="TRIZ" name="TRIZ" netid="CL" source="Corinth Riff Laboratory (CRLNET)" insttype="" lat="38.36543" lon="22.07272">
		<comp name="00.HNE" depth="0.0">
			<acc value="0.048845208582798" flag="0"/>
			<vel value="0.0133940898495" flag="0"/>
			<psa03 value="0.109868351155705" flag="0"/>
			<psa10 value="0.00783226353650057" flag="0"/>
			<psa30 value="0.00180971696820085" flag="0"/>
		</comp>
		<comp name="00.HNN" depth="0.0">
			<acc value="0.081466439331666" flag="0"/>
			<vel value="0.0489271094693" flag="0"/>
			<psa03 value="0.271781545860294" flag="0"/>
			<psa10 value="0.0229183026000617" flag="0"/>
			<psa30 value="0.00247071263091833" flag="0"/>
		</comp>
		<comp name="00.HNZ" depth="0.0">
			<acc value="0.068307357494778" flag="0"/>
			<vel value="0.0176351939443" flag="0"/>
			<psa03 value="0.0622142568057471" flag="0"/>
			<psa10 value="0.00981424170784762" flag="0"/>
			<psa30 value="0.00134762729452716" flag="0"/>
		</comp>
	</station>
	<station code="ATHU" name="ATHU" netid="HA" source="Hellenic Seismological Network, University of Athens, Seismological Laboratory (HA)" insttype="" lat="37.9665" lon="23.7845">
		<comp name=".HNE" depth="0.0">
			<acc value="0.00016103339280396" flag="0"/>
			<vel value="0.000314824780207" flag="0"/>
			<psa03 value="0.000312218396152754" flag="0"/>
			<psa10 value="9.88602623861421e-05" flag="0"/>
			<psa30 value="7.82524364442347e-05" flag="0"/>
		</comp>
		<comp name=".HNN" depth="0.0">
			<acc value="0.00012510136867218" flag="0"/>
			<vel value="0.000329551868476" flag="0"/>
			<psa03 value="0.000114471165509903" flag="0"/>
			<psa10 value="0.00011868588481836" flag="0"/>
			<psa30 value="8.44707390011154e-05" flag="0"/>
		</comp>
		<comp name=".HNZ" depth="0.0">
			<acc value="0.0001303400173344" flag="0"/>
			<vel value="0.000289907489757" flag="0"/>
			<psa03 value="0.00022886493331414" flag="0"/>
			<psa10 value="8.64843839509672e-05" flag="0"/>
			<psa30 value="6.99913878880709e-05" flag="0"/>
		</comp>
	</station>
	<station code="KIAS" name="KIAS" netid="HA" source="Hellenic Seismological Network, University of Athens, Seismological Laboratory (HA)" insttype="" lat="37.9875" lon="22.7543">
		<comp name=".HNE" depth="0.0">
			<acc value="0.017748029589078" flag="0"/>
			<vel value="0.00982283024845" flag="0"/>
			<psa03 value="0.0245874465060114" flag="0"/>
			<psa10 value="0.0108266653384537" flag="0"/>
			<psa30 value="0.00167333272508206" flag="0"/>
		</comp>
		<comp name=".HNN" depth="0.0">
			<acc value="0.01696045385727" flag="0"/>
			<vel value="0.00704065246276" flag="0"/>
			<psa03 value="0.0267396437659897" flag="0"/>
			<psa10 value="0.00891493494569167" flag="0"/>
			<psa30 value="0.00134285666599918" flag="0"/>
		</comp>
		<comp name=".HNZ" depth="0.0">
			<acc value="0.012769142444142" flag="0"/>
			<vel value="0.00512301154475" flag="0"/>
			<psa03 value="0.0188547321064062" flag="0"/>
			<psa10 value="0.00642707404335821" flag="0"/>
			<psa30 value="0.00169595005670039" flag="0"/>
		</comp>
	</station>
	<station code="AGR3" name="AGR3" netid="HI" source="ITSAK Strong Motion Network" insttype="" lat="38.5893" lon="21.4162">
		<comp name=".HNE" depth="0.0">
			<acc value="0.098525742945966" flag="0"/>
			<vel value="0.0489240819001" flag="0"/>
			<psa03 value="0.221140399466133" flag="0"/>
			<psa10 value="0.0556015058269212" flag="0"/>
			<psa30 value="0.00585622544620761" flag="0"/>
		</comp>
		<comp name=".HNN" depth="0.0">
			<acc value="0.10432231525524" flag="0"/>
			<vel value="0.095939921191" flag="0"/>
			<psa03 value="0.181228713846192" flag="0"/>
			<psa10 value="0.116741543554458" flag="0"/>
			<psa30 value="0.00969206788526099" flag="0"/>
		</comp>
		<comp name=".HNZ" depth="0.0">
			<acc value="0.058493866907922" flag="0"/>
			<vel value="0.0279333710624" flag="0"/>
			<psa03 value="0.0813649473198928" flag="0"/>
			<psa10 value="0.0396094039285998" flag="0"/>
			<psa30 value="0.0056351328832426" flag="0"/>
		</comp>
	</station>
	<station code="AIG2" name="AIG2" netid="HI" source="ITSAK Strong Motion Network" insttype="" lat="38.2417" lon="22.0726">
		<comp name=".HNE" depth="0.0">
			<acc value="0.039410394245544" flag="0"/>
			<vel value="0.0126581178899" flag="0"/>
			<psa03 value="0.0672508560807425" flag="0"/>
			<psa10 value="0.0157506646542131" flag="0"/>
			<psa30 value="0.00215093873913701" flag="0"/>
		</comp>
		<comp name=".HNN" depth="0.0">
			<acc value="0.042765763369596" flag="0"/>
			<vel value="0.0175475006636" flag="0"/>
			<psa03 value="0.0746669879883911" flag="0"/>
			<psa10 value="0.0166386053509351" flag="0"/>
			<psa30 value="0.00222664687942731" flag="0"/>
		</comp>
		<comp name=".HNZ" depth="0.0">
			<acc value="0.030028299858912" flag="0"/>
			<vel value="0.0108509230495" flag="0"/>
			<psa03 value="0.0630729907760667" flag="0"/>
			<psa10 value="0.00980195214371229" flag="0"/>
			<psa30 value="0.00147149310419774" flag="0"/>
		</comp>
	</station>
	<station code="AOL1" name="AOL1" netid="HI" source="ITSAK Strong Motion Network" insttype="" lat="37.642378" lon="21.624555">
		<comp name=".HNE" depth="0.0">
			<acc value="0.038162061782322" flag="0"/>
			<vel value="0.0198656217972" flag="0"/>
			<psa03 value="0.111827710120185" flag="0"/>
			<psa10 value="0.0318800856492019" flag="0"/>
			<psa30 value="0.00307505349886756" flag="0"/>
		</comp>
		<comp name=".HNN" depth="0.0">
			<acc value="0.03416538010788" flag="0"/>
			<vel value="0.0191340484445" flag="0"/>
			<psa03 value="0.0914942068753693" flag="0"/>
			<psa10 value="0.0327455379811748" flag="0"/>
			<psa30 value="0.00266120733359373" flag="0"/>
		</comp>
		<comp name=".HNZ" depth="0.0">
			<acc value="0.02239939827882" flag="0"/>
			<vel value="0.012694902464" flag="0"/>
			<psa03 value="0.0673446279177179" flag="0"/>
			<psa10 value="0.0196975104884066" flag="0"/>
			<psa30 value="0.00147051647699841" flag="0"/>
		</comp>
	</station>
	<station code="ARG2" name="ARG2" netid="HI" source="ITSAK Strong Motion Network" insttype="" lat="38.1783" lon="20.4878">
		<comp name=".HNE" depth="0.0">
			<acc value="0.034697940972372" flag="0"/>
			<vel value="0.0121273689468" flag="0"/>
			<psa03 value="0.0840221285537373" flag="0"/>
			<psa10 value="0.00682443021001453" flag="0"/>
			<psa30 value="0.000904849941869122" flag="0"/>
		</comp>
		<comp name=".HNN" depth="0.0">
			<acc value="0.030410297805528" flag="0"/>
			<vel value="0.0112077562596" flag="0"/>
			<psa03 value="0.0500101983466895" flag="0"/>
			<psa10 value="0.00968537473354133" flag="0"/>
			<psa30 value="0.000958765284327057" flag="0"/>
		</comp>
		<comp name=".HNZ" depth="0.0">
			<acc value="0.01838684953497" flag="0"/>
			<vel value="0.00564597416721" flag="0"/>
			<psa03 value="0.0349412964602346" flag="0"/>
			<psa10 value="0.00424587939369077" flag="0"/>
			<psa30 value="0.000573644146944277" flag="0"/>
		</comp>
	</station>
	<station code="ARS1" name="ARS1" netid="HI" source="ITSAK Strong Motion Network" insttype="" lat="37.6349" lon="22.7293">
		<comp name=".HNE" depth="0.0">
			<acc value="0.020489372125926" flag="0"/>
			<vel value="0.0113413311163" flag="0"/>
			<psa03 value="0.0674348891053252" flag="0"/>
			<psa10 value="0.0123283782570487" flag="0"/>
			<psa30 value="0.000826690337094323" flag="0"/>
		</comp>
		<comp name=".HNN" depth="0.0">
			<acc value="0.020109961752438" flag="0"/>
			<vel value="0.0140772481175" flag="0"/>
			<psa03 value="0.07218393287294" flag="0"/>
			<psa10 value="0.0144881360179251" flag="0"/>
			<psa30 value="0.00101050069071233" flag="0"/>
		</comp>
		<comp name=".HNZ" depth="0.0">
			<acc value="0.010230223873164" flag="0"/>
			<vel value="0.0058224978494" flag="0"/>
			<psa03 value="0.033699125630874" flag="0"/>
			<psa10 value="0.00345081875605516" flag="0"/>
			<psa30 value="0.000469791850572138" flag="0"/>
		</comp>
	</station>
	<station code="ART2" name="ART2" netid="HI" source="ITSAK Strong Motion Network" insttype="" lat="39.1474" lon="20.9937">
		<comp name=".HNE" depth="0.0">
			<acc value="0.01232704997883" flag="0"/>
			<vel value="0.0106442153956" flag="0"/>
			<psa03 value="0.0165055413277939" flag="0"/>
			<psa10 value="0.0111185771761686" flag="0"/>
			<psa30 value="0.00197010717659931" flag="0"/>
		</comp>
		<comp name=".HNN" depth="0.0">
			<acc value="0.010556810174124" flag="0"/>
			<vel value="0.0117991110363" flag="0"/>
			<psa03 value="0.0152340547542843" flag="0"/>
			<psa10 value="0.0131897625070426" flag="0"/>
			<psa30 value="0.00223251060120344" flag="0"/>
		</comp>
		<comp name=".HNZ" depth="0.0">
			<acc value="0.007681276547742" flag="0"/>
			<vel value="0.00571236002533" flag="0"/>
			<psa03 value="0.0226750880508057" flag="0"/>
			<psa10 value="0.00520574563636424" flag="0"/>
			<psa30 value="0.000890251683138471" flag="0"/>
		</comp>
	</station>
	<station code="ATH5" name="ATH5" netid="HI" source="ITSAK Strong Motion Network" insttype="" lat="37.975421" lon="23.737098">
		<comp name=".HNE" depth="0.0">
			<acc value="0.0022719899637588" flag="0"/>
			<vel value="0.00150818191989" flag="0"/>
			<psa03 value="0.00601989032466387" flag="0"/>
			<psa10 value="0.00299992966811901" flag="0"/>
			<psa30 value="0.00020050410272506" flag="0"/>
		</comp>
		<comp name=".HNN" depth="0.0">
			<acc value="0.0039038602291836" flag="0"/>
			<vel value="0.00130536316222" flag="0"/>
			<psa03 value="0.00990175945859606" flag="0"/>
			<psa10 value="0.00127383469779598" flag="0"/>
			<psa30 value="0.000188436779886972" flag="0"/>
		</comp>
		<comp name=".HNZ" depth="0.0">
			<acc value="0.0017734829169828" flag="0"/>
			<vel value="0.00124374793343" flag="0"/>
			<psa03 value="0.00389062524784718" flag="0"/>
			<psa10 value="0.00166773536209674" flag="0"/>
			<psa30 value="0.000402892080248101" flag="0"/>
		</comp>
	</station>
	<station code="GTH2" name="GTH2" netid="HI" source="ITSAK Strong Motion Network" insttype="" lat="36.7603" lon="22.5659">
		<comp name=".HNE" depth="0.0">
			<acc value="0.00992024037465" flag="0"/>
			<vel value="0.00496372670568" flag="0"/>
			<psa03 value="0.0150208583393879" flag="0"/>
			<psa10 value="0.00475482279615663" flag="0"/>
			<psa30 value="0.000694300056471556" flag="0"/>
		</comp>
		<comp name=".HNN" depth="0.0">
			<acc value="0.0065880296272854" flag="0"/>
			<vel value="0.00396550694974" flag="0"/>
			<psa03 value="0.0170950400145645" flag="0"/>
			<psa10 value="0.00550856554042051" flag="0"/>
			<psa30 value="0.000628218751825845" flag="0"/>
		</comp>
		<comp name=".HNZ" depth="0.0">
			<acc value="0.033198077716014" flag="0"/>
			<vel value="0.00433974572132" flag="0"/>
			<psa03 value="0.007653550629955" flag="0"/>
			<psa10 value="0.00261031049838345" flag="0"/>
			<psa30 value="0.000232946369053604" flag="0"/>
		</comp>
	</station>
	<station code="KOR2" name="KOR2" netid="HI" source="ITSAK Strong Motion Network" insttype="" lat="37.9401" lon="22.9495">
		<comp name=".HNE" depth="0.0">
			<acc value="0.013239221327958" flag="0"/>
			<vel value="0.00656315050585" flag="0"/>
			<psa03 value="0.0524463128525692" flag="0"/>
			<psa10 value="0.00993903591233693" flag="0"/>
			<psa30 value="0.00120236683840424" flag="0"/>
		</comp>
		<comp name=".HNN" depth="0.0">
			<acc value="0.013567458493308" flag="0"/>
			<vel value="0.00607239610445" flag="0"/>
			<psa03 value="0.0308820249492702" flag="0"/>
			<psa10 value="0.00845860002825274" flag="0"/>
			<psa30 value="0.00088596296153108" flag="0"/>
		</comp>
		<comp name=".HNZ" depth="0.0">
			<acc value="0.008303327620347" flag="0"/>
			<vel value="0.00364000635317" flag="0"/>
			<psa03 value="0.0172363892220394" flag="0"/>
			<psa10 value="0.00548286743182605" flag="0"/>
			<psa30 value="0.000416099491632751" flag="0"/>
		</comp>
	</station>
	<station code="KRK1" name="KRK1" netid="HI" source="ITSAK Strong Motion Network" insttype="" lat="39.618861" lon="19.9202">
		<comp name=".HNE" depth="0.0">
			<acc value="0.0082194572922498" flag="0"/>
			<vel value="0.00358604817622" flag="0"/>
			<psa03 value="0.0128718878556287" flag="0"/>
			<psa10 value="0.00381224449561158" flag="0"/>
			<psa30 value="0.0007263109270326" flag="0"/>
		</comp>
		<comp name=".HNN" depth="0.0">
			<acc value="0.008639085106263" flag="0"/>
			<vel value="0.00336104981898" flag="0"/>
			<psa03 value="0.0106569637840539" flag="0"/>
			<psa10 value="0.00339730013258414" flag="0"/>
			<psa30 value="0.00040859355169238" flag="0"/>
		</comp>
		<comp name=".HNZ" depth="0.0">
			<acc value="0.0050602214617008" flag="0"/>
			<vel value="0.00139781083732" flag="0"/>
			<psa03 value="0.00716255651547501" flag="0"/>
			<psa10 value="0.00177279060273931" flag="0"/>
			<psa30 value="0.000351797836130124" flag="0"/>
		</comp>
	</station>
	<station code="KYP2" name="KYP2" netid="HI" source="ITSAK Strong Motion Network" insttype="" lat="37.2497" lon="21.667">
		<comp name=".HNE" depth="0.0">
			<acc value="0.01730293538739" flag="0"/>
			<vel value="0.0106832463529" flag="0"/>
			<psa03 value="0.0320297494178575" flag="0"/>
			<psa10 value="0.0115145312186813" flag="0"/>
			<psa30 value="0.000652094135534803" flag="0"/>
		</comp>
		<comp name=".HNN" depth="0.0">
			<acc value="0.013770988404174" flag="0"/>
			<vel value="0.00609258456948" flag="0"/>
			<psa03 value="0.0337085715691151" flag="0"/>
			<psa10 value="0.0087871105404676" flag="0"/>
			<psa30 value="0.000880345506068171" flag="0"/>
		</comp>
		<comp name=".HNZ" depth="0.0">
			<acc value="0.0084597092384952" flag="0"/>
			<vel value="0.0034547308884" flag="0"/>
			<psa03 value="0.020422502630161" flag="0"/>
			<psa10 value="0.00305099726984756" flag="0"/>
			<psa30 value="0.00058641905571843" flag="0"/>
		</comp>
	</station>
	<station code="LAM2" name="LAM2" netid="HI" source="ITSAK Strong Motion Network" insttype="" lat="38.90203" lon="22.431301">
		<comp name=".HNE" depth="0.0">
			<acc value="0.0086542994759064" flag="0"/>
			<vel value="0.00556929519173" flag="0"/>
			<psa03 value="0.0285033439357957" flag="0"/>
			<psa10 value="0.00646851616369212" flag="0"/>
			<psa30 value="0.00144755485173777" flag="0"/>
		</comp>
		<comp name=".HNN" depth="0.0">
			<acc value="0.008429584722144" flag="0"/>
			<vel value="0.00557728854752" flag="0"/>
			<psa03 value="0.0225261771445094" flag="0"/>
			<psa10 value="0.00728416332132548" flag="0"/>
			<psa30 value="0.000927376746656859" flag="0"/>
		</comp>
		<comp name=".HNZ" depth="0.0">
			<acc value="0.006159543355665" flag="0"/>
			<vel value="0.00408219747075" flag="0"/>
			<psa03 value="0.0160758722393177" flag="0"/>
			<psa10 value="0.00389133535999579" flag="0"/>
			<psa30 value="0.000814083929063117" flag="0"/>
		</comp>
	</station>
	<station code="LEF2" name="LEF2" netid="HI" source="ITSAK Strong Motion Network" insttype="" lat="38.830093" lon="20.708346">
		<comp name=".HNE" depth="0.0">
			<acc value="0.047502247407942" flag="0"/>
			<vel value="0.0367114407196" flag="0"/>
			<psa03 value="0.180326258229591" flag="0"/>
			<psa10 value="0.0560954848005807" flag="0"/>
			<psa30 value="0.00503699284270183" flag="0"/>
		</comp>
		<comp name=".HNN" depth="0.0">
			<acc value="0.069375030297924" flag="0"/>
			<vel value="0.0652345348153" flag="0"/>
			<psa03 value="0.166434785904299" flag="0"/>
			<psa10 value="0.0384348223683446" flag="0"/>
			<psa30 value="0.00396692445594391" flag="0"/>
		</comp>
		<comp name=".HNZ" depth="0.0">
			<acc value="0.026599165043964" flag="0"/>
			<vel value="0.0174917287052" flag="0"/>
			<psa03 value="0.0541280544678419" flag="0"/>
			<psa10 value="0.0288674191998418" flag="0"/>
			<psa30 value="0.00293736396094829" flag="0"/>
		</comp>
	</station>
	<station code="LXR2" name="LXR2" netid="HI" source="ITSAK Strong Motion Network" insttype="" lat="38.206718" lon="20.436386">
		<comp name=".HNE" depth="0.0">
			<acc value="0.017171342329758" flag="0"/>
			<vel value="0.0130404238598" flag="0"/>
			<psa03 value="0.0370321328845604" flag="0"/>
			<psa10 value="0.0194389964881014" flag="0"/>
			<psa30 value="0.00176244592006018" flag="0"/>
		</comp>
		<comp name=".HNN" depth="0.0">
			<acc value="0.020767851169428" flag="0"/>
			<vel value="0.0128576357312" flag="0"/>
			<psa03 value="0.0631029094247608" flag="0"/>
			<psa10 value="0.0250875869295258" flag="0"/>
			<psa30 value="0.00287455792535561" flag="0"/>
		</comp>
		<comp name=".HNZ" depth="0.0">
			<acc value="0.015660583101798" flag="0"/>
			<vel value="0.00730050217914" flag="0"/>
			<psa03 value="0.0310894605658279" flag="0"/>
			<psa10 value="0.0169588053126383" flag="0"/>
			<psa30 value="0.000956944434538219" flag="0"/>
		</comp>
	</station>
	<station code="MSL1" name="MSL1" netid="HI" source="ITSAK Strong Motion Network" insttype="" lat="38.3727" lon="21.4243">
		<comp name=".HNE" depth="0.0">
			<acc value="0.12100615863108" flag="0"/>
			<vel value="0.0672517363014" flag="0"/>
			<psa03 value="0.251057360484658" flag="0"/>
			<psa10 value="0.113683793493211" flag="0"/>
			<psa30 value="0.00618321210744143" flag="0"/>
		</comp>
		<comp name=".HNN" depth="0.0">
