<?xml version="1.0" encoding="UTF-8" standalone="yes"?>
<!DOCTYPE earthquake SYSTEM "stationlist.dtd">
<stationlist created="" xmlns="ch.ethz.sed.shakemap.usgs.xml">
  <station code="AGRP" name="AGRP" netid="CL" insttype="CMG40-T" lat="38.3959" lon="21.7228">
    <comp name="00.HHZ">
      <acc value="0.0700562013" flag="0"/>
      <vel value="0.0114379766" flag="0"/>
      <psa03 value="0.0726207041" flag="0"/>
      <psa10 value="0.0084469598" flag="0"/>
      <psa30 value="0.0006881992" flag="0"/>
    </comp>
    <comp name="00.HHN">
      <acc value="0.0861701560" flag="0"/>
      <vel value="0.0308286319" flag="0"/>
      <psa03 value="0.1418458641" flag="0"/>
      <psa10 value="0.0405954256" flag="0"/>
      <psa30 value="0.0029394729" flag="0"/>
    </comp>
    <comp name="00.HHE">
      <acc value="0.0815663287" flag="0"/>
      <vel value="0.0317114765" flag="0"/>
      <psa03 value="0.1124981022" flag="0"/>
      <psa10 value="0.0315175133" flag="0"/>
      <psa30 value="0.0023492978" flag="0"/>
    </comp>
  </station>
  <station code="ALIK" name="ALIK" netid="CL" insttype="TRILLIUM-40" lat="38.2605" lon="22.1114">
    <comp name="02.HHZ">
      <acc value="0.0374561251" flag="0"/>
      <vel value="0.0148738790" flag="0"/>
      <psa03 value="0.0618980201" flag="0"/>
      <psa10 value="0.0093312792" flag="0"/>
      <psa30 value="0.0014743659" flag="0"/>
    </comp>
    <comp name="02.HHE">
      <acc value="0.0947996979" flag="0"/>
      <vel value="0.0386399405" flag="0"/>
      <psa03 value="0.2454985853" flag="0"/>
      <psa10 value="0.0281090542" flag="0"/>
      <psa30 value="0.0024124193" flag="0"/>
    </comp>
    <comp name="02.HHN">
      <acc value="0.0520147660" flag="0"/>
      <vel value="0.0228810059" flag="0"/>
      <psa03 value="0.1920896924" flag="0"/>
      <psa10 value="0.0118085533" flag="0"/>
      <psa30 value="0.0011037731" flag="0"/>
    </comp>
  </station>
  <station code="MALA" name="MALA" netid="CL" insttype="TRILLIUM-40" lat="38.3934" lon="21.8726">
    <comp name="01.HHZ">
      <acc value="0.0603621109" flag="0"/>
      <vel value="0.0179823558" flag="0"/>
      <psa03 value="0.1028040056" flag="0"/>
      <psa10 value="0.0182834415" flag="0"/>
      <psa30 value="0.0017342510" flag="0"/>
    </comp>
    <comp name="01.HHE">
      <acc value="0.1832007442" flag="0"/>
      <vel value="0.1012614980" flag="0"/>
      <psa03 value="0.4605273321" flag="0"/>
      <psa10 value="0.1033145351" flag="0"/>
      <psa30 value="0.0097406370" flag="0"/>
    </comp>
    <comp name="01.HHN">
      <acc value="0.2212103398" flag="0"/>
      <vel value="0.0740079997" flag="0"/>
      <psa03 value="0.5034333488" flag="0"/>
      <psa10 value="0.0732697167" flag="0"/>
      <psa30 value="0.0068879707" flag="0"/>
    </comp>
  </station>
  <station code="MG06" name="MG06" netid="CL" insttype="TRILLIUM-40" lat="38.4129" lon="21.9462">
    <comp name="06.HHZ">
      <acc value="0.1552590444" flag="0"/>
      <vel value="0.0214040808" flag="0"/>
      <psa03 value="0.0820624378" flag="0"/>
      <psa10 value="0.0093399332" flag="0"/>
      <psa30 value="0.0008641319" flag="0"/>
    </comp>
    <comp name="06.HHE">
      <acc value="0.1191064065" flag="0"/>
      <vel value="0.0333646252" flag="0"/>
      <psa03 value="0.1356658853" flag="0"/>
      <psa10 value="0.0135607824" flag="0"/>
      <psa30 value="0.0026805245" flag="0"/>
    </comp>
    <comp name="06.HHN">
      <acc value="0.1316559580" flag="0"/>
      <vel value="0.0457221488" flag="0"/>
      <psa03 value="0.1143467387" flag="0"/>
      <psa10 value="0.0346956739" flag="0"/>
      <psa30 value="0.0031317331" flag="0"/>
    </comp>
  </station>
  <station code="PANR" name="PANR" netid="CL" insttype="TRILLIUM-40" lat="38.3735" lon="22.2497">
    <comp name="01.HHN">
      <acc value="0.0179321481" flag="0"/>
      <vel value="0.0074455634" flag="0"/>
      <psa03 value="0.0322135300" flag="0"/>
      <psa10 value="0.0071599886" flag="0"/>
      <psa30 value="0.0012465979" flag="0"/>
    </comp>
    <comp name="01.HHE">
      <acc value="0.0112240494" flag="0"/>
      <vel value="0.0069056320" flag="0"/>
      <psa03 value="0.0300553759" flag="0"/>
      <psa10 value="0.0076722682" flag="0"/>
      <psa30 value="0.0010953446" flag="0"/>
    </comp>
    <comp name="01.HHZ">
      <acc value="0.0155264256" flag="0"/>
      <vel value="0.0041083330" flag="0"/>
      <psa03 value="0.0216430181" flag="0"/>
      <psa10 value="0.0060096642" flag="0"/>
      <psa30 value="0.0005601958" flag="0"/>
    </comp>
  </station>
  <station code="PSAM" name="PSAM" netid="CL" insttype="CMG40-T" lat="38.3218" lon="22.1842">
    <comp name="00.HHN">
      <acc value="0.0267626497" flag="0"/>
      <vel value="0.0153193923" flag="0"/>
      <psa03 value="0.0530442460" flag="0"/>
      <psa10 value="0.0152765211" flag="0"/>
      <psa30 value="0.0021168696" flag="0"/>
    </comp>
    <comp name="00.HHE">
      <acc value="0.0604483234" flag="0"/>
      <vel value="0.0276857205" flag="0"/>
      <psa03 value="0.1576415918" flag="0"/>
      <psa10 value="0.0174086085" flag="0"/>
      <psa30 value="0.0011383294" flag="0"/>
    </comp>
    <comp name="00.HHZ">
      <acc value="0.0557308549" flag="0"/>
      <vel value="0.0080921785" flag="0"/>
      <psa03 value="0.0349172814" flag="0"/>
      <psa10 value="0.0075002349" flag="0"/>
      <psa30 value="0.0008355558" flag="0"/>
    </comp>
  </station>
  <station code="ROD3" name="ROD3" netid="CL" insttype="CMG40-T" lat="38.3081" lon="21.892">
    <comp name="00.HHZ">
      <acc value="0.1574714982" flag="0"/>
      <vel value="0.0439811463" flag="0"/>
      <psa03 value="0.2052300598" flag="0"/>
      <psa10 value="0.0330563997" flag="0"/>
      <psa30 value="0.0020040133" flag="0"/>
    </comp>
    <comp name="00.HHN">
      <acc value="0.2786311418" flag="0"/>
      <vel value="0.0987023889" flag="0"/>
      <psa03 value="0.7637613489" flag="0"/>
      <psa10 value="0.0413595879" flag="0"/>
      <psa30 value="0.0034267041" flag="0"/>
    </comp>
    <comp name="00.HHE">
      <acc value="0.4875387874" flag="0"/>
      <vel value="0.1527813716" flag="0"/>
      <psa03 value="1.2741039603" flag="0"/>
      <psa10 value="0.0580186527" flag="0"/>
      <psa30 value="0.0049309778" flag="0"/>
    </comp>
  </station>
  <station code="TRIZ" name="TRIZ" netid="CL" insttype="STS-2" lat="38.3654" lon="22.0727">
    <comp name="00.HH2">
      <acc value="0.0563957935" flag="0"/>
      <vel value="0.0250541887" flag="0"/>
      <psa03 value="0.1859148194" flag="0"/>
      <psa10 value="0.0107191251" flag="0"/>
      <psa30 value="0.0015819614" flag="0"/>
    </comp>
    <comp name="00.HH3">
      <acc value="0.0711674741" flag="0"/>
      <vel value="0.0421179551" flag="0"/>
      <psa03 value="0.2404545966" flag="0"/>
      <psa10 value="0.0213812742" flag="0"/>
      <psa30 value="0.0026137948" flag="0"/>
    </comp>
    <comp name="00.HHZ">
      <acc value="0.0697668359" flag="0"/>
      <vel value="0.0166965932" flag="0"/>
      <psa03 value="0.0620723846" flag="0"/>
      <psa10 value="0.0110458853" flag="0"/>
      <psa30 value="0.0006031083" flag="0"/>
    </comp>
  </station>
  <station code="ZIRI" name="ZIRI" netid="CL" insttype="TRILLIUM-40" lat="38.3051" lon="21.9476">
    <comp name="01.HHZ">
      <acc value="0.1777051715" flag="0"/>
      <vel value="0.0416930332" flag="0"/>
      <psa03 value="0.2137128579" flag="0"/>
      <psa10 value="0.0123109911" flag="0"/>
      <psa30 value="0.0016868950" flag="0"/>
    </comp>
    <comp name="01.HHE">
      <acc value="0.2077764957" flag="0"/>
      <vel value="0.0960539892" flag="0"/>
      <psa03 value="0.6830596602" flag="0"/>
      <psa10 value="0.0372255921" flag="0"/>
      <psa30 value="0.0042995495" flag="0"/>
    </comp>
    <comp name="01.HHN">
      <acc value="0.1814157054" flag="0"/>
      <vel value="0.0548320401" flag="0"/>
      <psa03 value="0.3364480567" flag="0"/>
      <psa10 value="0.0328142005" flag="0"/>
      <psa30 value="0.0022533802" flag="0"/>
    </comp>
  </station>
  <station code="KLV" name="KLV" netid="MN" insttype="" lat="38.0437" lon="22.1504">
    <comp name="--.HHZ">
      <acc value="0.0217477844" flag="0"/>
      <vel value="0.0103312260" flag="0"/>
      <psa03 value="0.0363126649" flag="0"/>
      <psa10 value="0.0081181770" flag="0"/>
      <psa30 value="0.0008119528" flag="0"/>
    </comp>
    <comp name="--.HHE">
      <acc value="0.0333804821" flag="0"/>
      <vel value="0.0130252068" flag="0"/>
      <psa03 value="0.0499155655" flag="0"/>
      <psa10 value="0.0088671536" flag="0"/>
      <psa30 value="0.0010412975" flag="0"/>
    </comp>
    <comp name="--.HHN">
      <acc value="0.0301531536" flag="0"/>
      <vel value="0.0118169869" flag="0"/>
      <psa03 value="0.0562837962" flag="0"/>
      <psa10 value="0.0075057523" flag="0"/>
      <psa30 value="0.0008234281" flag="0"/>
    </comp>
  </station>
</stationlist>
