<?xml version="1.0" encoding="UTF-8" standalone="yes"?>
<!DOCTYPE earthquake SYSTEM "stationlist.dtd">
<stationlist created="" xmlns="ch.ethz.sed.shakemap.usgs.xml">
  <station code="AGRP" name="AGRP" netid="CL" insttype="CMG40-T" lat="38.3959" lon="21.7228">
    <comp name="00.HHZ">
      <acc value="0.0700561997" flag="0"/>
      <vel value="0.0114379760" flag="0"/>
      <psa03 value="0.0726207041" flag="0"/>
      <psa10 value="0.0084469609" flag="0"/>
      <psa30 value="0.0006883028" flag="0"/>
    </comp>
    <comp name="00.HHE">
      <acc value="0.0815663289" flag="0"/>
      <vel value="0.0317114722" flag="0"/>
      <psa03 value="0.1124981022" flag="0"/>
      <psa10 value="0.0315175140" flag="0"/>
      <psa30 value="0.0023493614" flag="0"/>
    </comp>
    <comp name="00.HHN">
      <acc value="0.0861701563" flag="0"/>
      <vel value="0.0308286304" flag="0"/>
      <psa03 value="0.1418458641" flag="0"/>
      <psa10 value="0.0405954254" flag="0"/>
      <psa30 value="0.0029396813" flag="0"/>
    </comp>
  </station>
  <station code="ALIK" name="ALIK" netid="CL" insttype="TRILLIUM-40" lat="38.2605" lon="22.1114">
    <comp name="02.HHZ">
      <acc value="0.0374561250" flag="0"/>
      <vel value="0.0148738781" flag="0"/>
      <psa03 value="0.0618980201" flag="0"/>
      <psa10 value="0.0093312792" flag="0"/>
      <psa30 value="0.0014744164" flag="0"/>
    </comp>
    <comp name="02.HHE">
      <acc value="0.0947996979" flag="0"/>
      <vel value="0.0386399401" flag="0"/>
      <psa03 value="0.2454985853" flag="0"/>
      <psa10 value="0.0281090543" flag="0"/>
      <psa30 value="0.0024122185" flag="0"/>
    </comp>
    <comp name="02.HHN">
      <acc value="0.0520147660" flag="0"/>
      <vel value="0.0228810085" flag="0"/>
      <psa03 value="0.1920896924" flag="0"/>
      <psa10 value="0.0118085529" flag="0"/>
      <psa30 value="0.0011037864" flag="0"/>
    </comp>
  </station>
  <station code="MALA" name="MALA" netid="CL" insttype="TRILLIUM-40" lat="38.3934" lon="21.8726">
    <comp name="01.HHN">
      <acc value="0.2212103398" flag="0"/>
      <vel value="0.0740080028" flag="0"/>
      <psa03 value="0.5034333488" flag="0"/>
      <psa10 value="0.0732697108" flag="0"/>
      <psa30 value="0.0068879997" flag="0"/>
    </comp>
    <comp name="01.HHE">
      <acc value="0.1832007441" flag="0"/>
      <vel value="0.1012614971" flag="0"/>
      <psa03 value="0.4605273321" flag="0"/>
      <psa10 value="0.1033145224" flag="0"/>
      <psa30 value="0.0097411840" flag="0"/>
    </comp>
    <comp name="01.HHZ">
      <acc value="0.0603621108" flag="0"/>
      <vel value="0.0179823580" flag="0"/>
      <psa03 value="0.1028040056" flag="0"/>
      <psa10 value="0.0182834414" flag="0"/>
      <psa30 value="0.0017342740" flag="0"/>
    </comp>
  </station>
  <station code="MG06" name="MG06" netid="CL" insttype="TRILLIUM-40" lat="38.4129" lon="21.9462">
    <comp name="06.HHE">
      <acc value="0.1191064065" flag="0"/>
      <vel value="0.0333646253" flag="0"/>
      <psa03 value="0.1356658853" flag="0"/>
      <psa10 value="0.0135607834" flag="0"/>
      <psa30 value="0.0026805357" flag="0"/>
    </comp>
    <comp name="06.HHN">
      <acc value="0.1316559582" flag="0"/>
      <vel value="0.0457221480" flag="0"/>
      <psa03 value="0.1143467387" flag="0"/>
      <psa10 value="0.0346956748" flag="0"/>
      <psa30 value="0.0031314772" flag="0"/>
    </comp>
    <comp name="06.HHZ">
      <acc value="0.1552590443" flag="0"/>
      <vel value="0.0214040829" flag="0"/>
      <psa03 value="0.0820624378" flag="0"/>
      <psa10 value="0.0093399328" flag="0"/>
      <psa30 value="0.0008643165" flag="0"/>
    </comp>
  </station>
  <station code="PANR" name="PANR" netid="CL" insttype="TRILLIUM-40" lat="38.3735" lon="22.2497">
    <comp name="01.HHE">
      <acc value="0.0112240495" flag="0"/>
      <vel value="0.0069056325" flag="0"/>
      <psa03 value="0.0300553759" flag="0"/>
      <psa10 value="0.0076722682" flag="0"/>
      <psa30 value="0.0010953574" flag="0"/>
    </comp>
    <comp name="01.HHN">
      <acc value="0.0179321480" flag="0"/>
      <vel value="0.0074455645" flag="0"/>
      <psa03 value="0.0322135300" flag="0"/>
      <psa10 value="0.0071599886" flag="0"/>
      <psa30 value="0.0012466104" flag="0"/>
    </comp>
    <comp name="01.HHZ">
      <acc value="0.0155264255" flag="0"/>
      <vel value="0.0041083346" flag="0"/>
      <psa03 value="0.0216430181" flag="0"/>
      <psa10 value="0.0060096641" flag="0"/>
      <psa30 value="0.0005601957" flag="0"/>
    </comp>
  </station>
  <station code="PSAM" name="PSAM" netid="CL" insttype="CMG40-T" lat="38.3218" lon="22.1842">
    <comp name="00.HHN">
      <acc value="0.0267626498" flag="0"/>
      <vel value="0.0153193924" flag="0"/>
      <psa03 value="0.0530442460" flag="0"/>
      <psa10 value="0.0152765214" flag="0"/>
      <psa30 value="0.0021169194" flag="0"/>
    </comp>
    <comp name="00.HHE">
      <acc value="0.0604483236" flag="0"/>
      <vel value="0.0276857254" flag="0"/>
      <psa03 value="0.1576415918" flag="0"/>
      <psa10 value="0.0174086073" flag="0"/>
      <psa30 value="0.0011382989" flag="0"/>
    </comp>
    <comp name="00.HHZ">
      <acc value="0.0557308548" flag="0"/>
      <vel value="0.0080921782" flag="0"/>
      <psa03 value="0.0349172814" flag="0"/>
      <psa10 value="0.0075002351" flag="0"/>
      <psa30 value="0.0008355396" flag="0"/>
    </comp>
  </station>
  <station code="ROD3" name="ROD3" netid="CL" insttype="CMG40-T" lat="38.3081" lon="21.892">
    <comp name="00.HHZ">
      <acc value="0.1574714984" flag="0"/>
      <vel value="0.0439811466" flag="0"/>
      <psa03 value="0.2052300598" flag="0"/>
      <psa10 value="0.0330563997" flag="0"/>
      <psa30 value="0.0020040980" flag="0"/>
    </comp>
    <comp name="00.HHE">
      <acc value="0.4875387873" flag="0"/>
      <vel value="0.1527813719" flag="0"/>
      <psa03 value="1.2741039603" flag="0"/>
      <psa10 value="0.0580186541" flag="0"/>
      <psa30 value="0.0049310250" flag="0"/>
    </comp>
    <comp name="00.HHN">
      <acc value="0.2786311420" flag="0"/>
      <vel value="0.0987023900" flag="0"/>
      <psa03 value="0.7637613489" flag="0"/>
      <psa10 value="0.0413595899" flag="0"/>
      <psa30 value="0.0034270708" flag="0"/>
    </comp>
  </station>
  <station code="TRIZ" name="TRIZ" netid="CL" insttype="STS-2" lat="38.3654" lon="22.0727">
    <comp name="00.HHZ">
      <acc value="0.0697668359" flag="0"/>
      <vel value="0.0166965918" flag="0"/>
      <psa03 value="0.0620723846" flag="0"/>
      <psa10 value="0.0110458848" flag="0"/>
      <psa30 value="0.0006030133" flag="0"/>
    </comp>
    <comp name="00.HH3">
      <acc value="0.0711674741" flag="0"/>
      <vel value="0.0421179554" flag="0"/>
      <psa03 value="0.2404545966" flag="0"/>
      <psa10 value="0.0213812747" flag="0"/>
      <psa30 value="0.0026136196" flag="0"/>
    </comp>
    <comp name="00.HH2">
      <acc value="0.0563957934" flag="0"/>
      <vel value="0.0250541904" flag="0"/>
      <psa03 value="0.1859148194" flag="0"/>
      <psa10 value="0.0107191255" flag="0"/>
      <psa30 value="0.0015819210" flag="0"/>
    </comp>
  </station>
  <station code="ZIRI" name="ZIRI" netid="CL" insttype="TRILLIUM-40" lat="38.3051" lon="21.9476">
    <comp name="01.HHE">
      <acc value="0.2077764957" flag="0"/>
      <vel value="0.0960539828" flag="0"/>
      <psa03 value="0.6830596602" flag="0"/>
      <psa10 value="0.0372255934" flag="0"/>
      <psa30 value="0.0042995709" flag="0"/>
    </comp>
    <comp name="01.HHZ">
      <acc value="0.1777051712" flag="0"/>
      <vel value="0.0416930319" flag="0"/>
      <psa03 value="0.2137128579" flag="0"/>
      <psa10 value="0.0123109921" flag="0"/>
      <psa30 value="0.0016867401" flag="0"/>
    </comp>
    <comp name="01.HHN">
      <acc value="0.1814157054" flag="0"/>
      <vel value="0.0548320400" flag="0"/>
      <psa03 value="0.3364480567" flag="0"/>
      <psa10 value="0.0328142000" flag="0"/>
      <psa30 value="0.0022533258" flag="0"/>
    </comp>
  </station>
  <station code="KLV" name="KLV" netid="MN" insttype="" lat="38.0437" lon="22.1504">
    <comp name="--.HHE">
      <acc value="0.0333804822" flag="0"/>
      <vel value="0.0130252072" flag="0"/>
      <psa03 value="0.0499155655" flag="0"/>
      <psa10 value="0.0088671537" flag="0"/>
      <psa30 value="0.0010412977" flag="0"/>
    </comp>
    <comp name="--.HHN">
      <acc value="0.0301531535" flag="0"/>
      <vel value="0.0118169874" flag="0"/>
      <psa03 value="0.0562837962" flag="0"/>
      <psa10 value="0.0075057522" flag="0"/>
      <psa30 value="0.0008234202" flag="0"/>
    </comp>
    <comp name="--.HHZ">
      <acc value="0.0217477844" flag="0"/>
      <vel value="0.0103312257" flag="0"/>
      <psa03 value="0.0363126649" flag="0"/>
      <psa10 value="0.0081181770" flag="0"/>
      <psa30 value="0.0008119701" flag="0"/>
    </comp>
  </station>
</stationlist>
