<?xml version="1.0" encoding="UTF-8" standalone="yes"?>
<!DOCTYPE earthquake SYSTEM "stationlist.dtd">
<stationlist created="" xmlns="ch.ethz.sed.shakemap.usgs.xml">
  <station code="RP05B" name="RP05B" netid="5B" insttype="Compact" lat="37.6182" lon="21.6541">
    <comp name="--.HHE">
      <acc value="0.0828510137" flag="0"/>
      <vel value="0.0397732603" flag="0"/>
      <psa03 value="0.2139188960" flag="0"/>
      <psa10 value="0.0688567256" flag="0"/>
      <psa30 value="0.0049700857" flag="0"/>
    </comp>
    <comp name="--.HHN">
      <acc value="0.0912528100" flag="0"/>
      <vel value="0.0399991714" flag="0"/>
      <psa03 value="0.2538039871" flag="0"/>
      <psa10 value="0.0378752460" flag="0"/>
      <psa30 value="0.0036274969" flag="0"/>
    </comp>
    <comp name="--.HHZ">
      <acc value="0.0390959699" flag="0"/>
      <vel value="0.0177276510" flag="0"/>
      <psa03 value="0.1253259958" flag="0"/>
      <psa10 value="0.0243103635" flag="0"/>
      <psa30 value="0.0025576531" flag="0"/>
    </comp>
  </station>
  <station code="AGRP" name="AGRP" netid="CL" insttype="CMG40-T" lat="38.3959" lon="21.7228">
    <comp name="00.HHZ">
      <acc value="0.0700561997" flag="0"/>
      <vel value="0.0114379760" flag="0"/>
      <psa03 value="0.0726207041" flag="0"/>
      <psa10 value="0.0084469609" flag="0"/>
      <psa30 value="0.0006883028" flag="0"/>
    </comp>
    <comp name="00.HHE">
      <acc value="0.0815663289" flag="0"/>
      <vel value="0.0317114722" flag="0"/>
      <psa03 value="0.1124981022" flag="0"/>
      <psa10 value="0.0315175140" flag="0"/>
      <psa30 value="0.0023493614" flag="0"/>
    </comp>
    <comp name="00.HHN">
      <acc value="0.0861701563" flag="0"/>
      <vel value="0.0308286304" flag="0"/>
      <psa03 value="0.1418458641" flag="0"/>
      <psa10 value="0.0405954254" flag="0"/>
      <psa30 value="0.0029396813" flag="0"/>
    </comp>
  </station>
  <station code="ALIK" name="ALIK" netid="CL" insttype="TRILLIUM-40" lat="38.2605" lon="22.1114">
    <comp name="02.HHZ">
      <acc value="0.0374561250" flag="0"/>
      <vel value="0.0148738781" flag="0"/>
      <psa03 value="0.0618980201" flag="0"/>
      <psa10 value="0.0093312792" flag="0"/>
      <psa30 value="0.0014744164" flag="0"/>
    </comp>
    <comp name="02.HHE">
      <acc value="0.0947996979" flag="0"/>
      <vel value="0.0386399401" flag="0"/>
      <psa03 value="0.2454985853" flag="0"/>
      <psa10 value="0.0281090543" flag="0"/>
      <psa30 value="0.0024122185" flag="0"/>
    </comp>
    <comp name="02.HHN">
      <acc value="0.0520147660" flag="0"/>
      <vel value="0.0228810085" flag="0"/>
      <psa03 value="0.1920896924" flag="0"/>
      <psa10 value="0.0118085529" flag="0"/>
      <psa30 value="0.0011037864" flag="0"/>
    </comp>
  </station>
  <station code="MALA" name="MALA" netid="CL" insttype="TRILLIUM-40" lat="38.3934" lon="21.8726">
    <comp name="01.HHN">
      <acc value="0.2212103398" flag="0"/>
      <vel value="0.0740080028" flag="0"/>
      <psa03 value="0.5034333488" flag="0"/>
      <psa10 value="0.0732697108" flag="0"/>
      <psa30 value="0.0068879997" flag="0"/>
    </comp>
    <comp name="01.HHE">
      <acc value="0.1832007441" flag="0"/>
      <vel value="0.1012614971" flag="0"/>
      <psa03 value="0.4605273321" flag="0"/>
      <psa10 value="0.1033145224" flag="0"/>
      <psa30 value="0.0097411840" flag="0"/>
    </comp>
    <comp name="01.HHZ">
      <acc value="0.0603621108" flag="0"/>
      <vel value="0.0179823580" flag="0"/>
      <psa03 value="0.1028040056" flag="0"/>
      <psa10 value="0.0182834414" flag="0"/>
      <psa30 value="0.0017342740" flag="0"/>
    </comp>
  </station>
  <station code="MG06" name="MG06" netid="CL" insttype="TRILLIUM-40" lat="38.4129" lon="21.9462">
    <comp name="06.HHE">
      <acc value="0.1191064065" flag="0"/>
      <vel value="0.0333646253" flag="0"/>
      <psa03 value="0.1356658853" flag="0"/>
      <psa10 value="0.0135607834" flag="0"/>
      <psa30 value="0.0026805357" flag="0"/>
    </comp>
    <comp name="06.HHN">
      <acc value="0.1316559582" flag="0"/>
      <vel value="0.0457221480" flag="0"/>
      <psa03 value="0.1143467387" flag="0"/>
      <psa10 value="0.0346956748" flag="0"/>
      <psa30 value="0.0031314772" flag="0"/>
    </comp>
    <comp name="06.HHZ">
      <acc value="0.1552590443" flag="0"/>
      <vel value="0.0214040829" flag="0"/>
      <psa03 value="0.0820624378" flag="0"/>
      <psa10 value="0.0093399328" flag="0"/>
      <psa30 value="0.0008643165" flag="0"/>
    </comp>
  </station>
  <station code="PANR" name="PANR" netid="CL" insttype="TRILLIUM-40" lat="38.3735" lon="22.2497">
    <comp name="01.HHE">
      <acc value="0.0112240495" flag="0"/>
      <vel value="0.0069056325" flag="0"/>
      <psa03 value="0.0300553759" flag="0"/>
      <psa10 value="0.0076722682" flag="0"/>
      <psa30 value="0.0010953574" flag="0"/>
    </comp>
    <comp name="01.HHN">
      <acc value="0.0179321480" flag="0"/>
      <vel value="0.0074455645" flag="0"/>
      <psa03 value="0.0322135300" flag="0"/>
      <psa10 value="0.0071599886" flag="0"/>
      <psa30 value="0.0012466104" flag="0"/>
    </comp>
    <comp name="01.HHZ">
      <acc value="0.0155264255" flag="0"/>
      <vel value="0.0041083346" flag="0"/>
      <psa03 value="0.0216430181" flag="0"/>
      <psa10 value="0.0060096641" flag="0"/>
      <psa30 value="0.0005601957" flag="0"/>
    </comp>
  </station>
  <station code="PSAM" name="PSAM" netid="CL" insttype="CMG40-T" lat="38.3218" lon="22.1842">
    <comp name="00.HHN">
      <acc value="0.0267626498" flag="0"/>
      <vel value="0.0153193924" flag="0"/>
      <psa03 value="0.0530442460" flag="0"/>
      <psa10 value="0.0152765214" flag="0"/>
      <psa30 value="0.0021169194" flag="0"/>
    </comp>
    <comp name="00.HHE">
      <acc value="0.0604483236" flag="0"/>
      <vel value="0.0276857254" flag="0"/>
      <psa03 value="0.1576415918" flag="0"/>
      <psa10 value="0.0174086073" flag="0"/>
      <psa30 value="0.0011382989" flag="0"/>
    </comp>
    <comp name="00.HHZ">
      <acc value="0.0557308548" flag="0"/>
      <vel value="0.0080921782" flag="0"/>
      <psa03 value="0.0349172814" flag="0"/>
      <psa10 value="0.0075002351" flag="0"/>
      <psa30 value="0.0008355396" flag="0"/>
    </comp>
  </station>
  <station code="ROD3" name="ROD3" netid="CL" insttype="CMG40-T" lat="38.3081" lon="21.892">
    <comp name="00.HHZ">
      <acc value="0.1574714984" flag="0"/>
      <vel value="0.0439811466" flag="0"/>
      <psa03 value="0.2052300598" flag="0"/>
      <psa10 value="0.0330563997" flag="0"/>
      <psa30 value="0.0020040980" flag="0"/>
    </comp>
    <comp name="00.HHE">
      <acc value="0.4875387873" flag="0"/>
      <vel value="0.1527813719" flag="0"/>
      <psa03 value="1.2741039603" flag="0"/>
      <psa10 value="0.0580186541" flag="0"/>
      <psa30 value="0.0049310250" flag="0"/>
    </comp>
    <comp name="00.HHN">
      <acc value="0.2786311420" flag="0"/>
      <vel value="0.0987023900" flag="0"/>
      <psa03 value="0.7637613489" flag="0"/>
      <psa10 value="0.0413595899" flag="0"/>
      <psa30 value="0.0034270708" flag="0"/>
    </comp>
  </station>
  <station code="TRIZ" name="TRIZ" netid="CL" insttype="STS-2" lat="38.3654" lon="22.0727">
    <comp name="00.HHZ">
      <acc value="0.0697668359" flag="0"/>
      <vel value="0.0166965918" flag="0"/>
      <psa03 value="0.0620723846" flag="0"/>
      <psa10 value="0.0110458848" flag="0"/>
      <psa30 value="0.0006030133" flag="0"/>
    </comp>
    <comp name="00.HH3">
      <acc value="0.0711674741" flag="0"/>
      <vel value="0.0421179554" flag="0"/>
      <psa03 value="0.2404545966" flag="0"/>
      <psa10 value="0.0213812747" flag="0"/>
      <psa30 value="0.0026136196" flag="0"/>
    </comp>
    <comp name="00.HH2">
      <acc value="0.0563957934" flag="0"/>
      <vel value="0.0250541904" flag="0"/>
      <psa03 value="0.1859148194" flag="0"/>
      <psa10 value="0.0107191255" flag="0"/>
      <psa30 value="0.0015819210" flag="0"/>
    </comp>
  </station>
  <station code="ZIRI" name="ZIRI" netid="CL" insttype="TRILLIUM-40" lat="38.3051" lon="21.9476">
    <comp name="01.HHE">
      <acc value="0.2077764957" flag="0"/>
      <vel value="0.0960539828" flag="0"/>
      <psa03 value="0.6830596602" flag="0"/>
      <psa10 value="0.0372255934" flag="0"/>
      <psa30 value="0.0042995709" flag="0"/>
    </comp>
    <comp name="01.HHZ">
      <acc value="0.1777051712" flag="0"/>
      <vel value="0.0416930319" flag="0"/>
      <psa03 value="0.2137128579" flag="0"/>
      <psa10 value="0.0123109921" flag="0"/>
      <psa30 value="0.0016867401" flag="0"/>
    </comp>
    <comp name="01.HHN">
      <acc value="0.1814157054" flag="0"/>
      <vel value="0.0548320400" flag="0"/>
      <psa03 value="0.3364480567" flag="0"/>
      <psa10 value="0.0328142000" flag="0"/>
      <psa30 value="0.0022533258" flag="0"/>
    </comp>
  </station>
  <station code="ACOR" name="ACOR" netid="HA" insttype="Horizon,120s,1200" lat="37.8905" lon="22.8694">
    <comp name="--.HHE">
      <acc value="0.0028403214" flag="0"/>
      <vel value="0.0022392463" flag="0"/>
      <psa03 value="0.0100795289" flag="0"/>
      <psa10 value="0.0031085969" flag="0"/>
      <psa30 value="0.0005139497" flag="0"/>
    </comp>
    <comp name="--.HHN">
      <acc value="0.0025128968" flag="0"/>
      <vel value="0.0025970480" flag="0"/>
      <psa03 value="0.0063601887" flag="0"/>
      <psa10 value="0.0032097829" flag="0"/>
      <psa30 value="0.0004460304" flag="0"/>
    </comp>
    <comp name="--.HHZ">
      <acc value="0.0026519281" flag="0"/>
      <vel value="0.0018725623" flag="0"/>
      <psa03 value="0.0083452087" flag="0"/>
      <psa10 value="0.0032339670" flag="0"/>
      <psa30 value="0.0003207126" flag="0"/>
    </comp>
  </station>
  <station code="ATHR" name="ATHR" netid="HA" insttype="GEOtiny," lat="38.3172" lon="20.4165">
    <comp name="--.HHE">
      <acc value="0.0088678736" flag="0"/>
      <vel value="0.0049448065" flag="0"/>
      <psa03 value="0.0173177173" flag="0"/>
      <psa10 value="0.0055052959" flag="0"/>
      <psa30 value="0.0008802746" flag="0"/>
    </comp>
    <comp name="--.HHZ">
      <acc value="0.0212565597" flag="0"/>
      <vel value="0.0049490156" flag="0"/>
      <psa03 value="0.0134299034" flag="0"/>
      <psa10 value="0.0050486793" flag="0"/>
      <psa30 value="0.0004859076" flag="0"/>
    </comp>
    <comp name="--.HHN">
      <acc value="0.0104203437" flag="0"/>
      <vel value="0.0064500910" flag="0"/>
      <psa03 value="0.0297183269" flag="0"/>
      <psa10 value="0.0064469166" flag="0"/>
      <psa30 value="0.0006283791" flag="0"/>
    </comp>
  </station>
  <station code="AXAR" name="AXAR" netid="HA" insttype="Horizon,120s,1200" lat="38.7664" lon="22.659">
    <comp name="--.HHN">
      <acc value="0.0225662138" flag="0"/>
      <vel value="0.0180166008" flag="0"/>
      <psa03 value="0.0771994265" flag="0"/>
      <psa10 value="0.0324429852" flag="0"/>
      <psa30 value="0.0024137242" flag="0"/>
    </comp>
    <comp name="--.HHZ">
      <acc value="0.0107141547" flag="0"/>
      <vel value="0.0086973416" flag="0"/>
      <psa03 value="0.0251165059" flag="0"/>
      <psa10 value="0.0168553674" flag="0"/>
      <psa30 value="0.0012603504" flag="0"/>
    </comp>
    <comp name="--.HHE">
      <acc value="0.0227173368" flag="0"/>
      <vel value="0.0162578946" flag="0"/>
      <psa03 value="0.1025009605" flag="0"/>
      <psa10 value="0.0188106239" flag="0"/>
      <psa30 value="0.0026148070" flag="0"/>
    </comp>
  </station>
  <station code="HAVD" name="HAVD" netid="HA" insttype="GEOtiny," lat="38.2036" lon="20.3848">
    <comp name="--.HHZ">
      <acc value="0.0131728041" flag="0"/>
      <vel value="0.0044197959" flag="0"/>
      <psa03 value="0.0219708713" flag="0"/>
      <psa10 value="0.0042566796" flag="0"/>
      <psa30 value="0.0005074311" flag="0"/>
    </comp>
    <comp name="--.HHE">
      <acc value="0.0095487847" flag="0"/>
      <vel value="0.0046401117" flag="0"/>
      <psa03 value="0.0184579814" flag="0"/>
      <psa10 value="0.0047890183" flag="0"/>
      <psa30 value="0.0006354655" flag="0"/>
    </comp>
    <comp name="--.HHN">
      <acc value="0.0117777807" flag="0"/>
      <vel value="0.0068712319" flag="0"/>
      <psa03 value="0.0344603721" flag="0"/>
      <psa10 value="0.0117904474" flag="0"/>
      <psa30 value="0.0007592198" flag="0"/>
    </comp>
  </station>
  <station code="KALE" name="KALE" netid="HA" insttype="40," lat="38.3911" lon="22.1398">
    <comp name="--.HHN">
      <acc value="0.0504035504" flag="0"/>
      <vel value="0.0218554944" flag="0"/>
      <psa03 value="0.0822740054" flag="0"/>
      <psa10 value="0.0114877222" flag="0"/>
      <psa30 value="0.0008560228" flag="0"/>
    </comp>
    <comp name="--.HHE">
      <acc value="0.0465804419" flag="0"/>
      <vel value="0.0188057987" flag="0"/>
      <psa03 value="0.0994204687" flag="0"/>
      <psa10 value="0.0097982217" flag="0"/>
      <psa30 value="0.0010442401" flag="0"/>
    </comp>
    <comp name="--.HHZ">
      <acc value="0.0403647307" flag="0"/>
      <vel value="0.0089188340" flag="0"/>
      <psa03 value="0.0454726369" flag="0"/>
      <psa10 value="0.0059053845" flag="0"/>
      <psa30 value="0.0005693533" flag="0"/>
    </comp>
  </station>
  <station code="LAKA" name="LAKA" netid="HA" insttype="120s," lat="38.2401" lon="21.9785">
    <comp name="--.HHN">
      <acc value="0.1354911437" flag="0"/>
      <vel value="0.0232674275" flag="0"/>
      <psa03 value="0.1066297511" flag="0"/>
      <psa10 value="0.0108566939" flag="0"/>
      <psa30 value="0.0013865935" flag="0"/>
    </comp>
    <comp name="--.HHZ">
      <acc value="0.1113069288" flag="0"/>
      <vel value="0.0151590724" flag="0"/>
      <psa03 value="0.0712415053" flag="0"/>
      <psa10 value="0.0079960336" flag="0"/>
      <psa30 value="0.0008256340" flag="0"/>
    </comp>
    <comp name="--.HHE">
      <acc value="0.0786536856" flag="0"/>
      <vel value="0.0279644472" flag="0"/>
      <psa03 value="0.1421970655" flag="0"/>
      <psa10 value="0.0092618064" flag="0"/>
      <psa30 value="0.0017252617" flag="0"/>
    </comp>
  </station>
  <station code="PRDM" name="PRDM" netid="HA" insttype="25" lat="38.2804" lon="22.847">
    <comp name="--.HHZ">
      <acc value="0.0025409185" flag="0"/>
      <vel value="0.0013214695" flag="0"/>
      <psa03 value="0.0049527067" flag="0"/>
      <psa10 value="0.0010322972" flag="0"/>
      <psa30 value="0.0002098505" flag="0"/>
    </comp>
    <comp name="--.HHE">
      <acc value="0.0035673900" flag="0"/>
      <vel value="0.0022883833" flag="0"/>
      <psa03 value="0.0067682852" flag="0"/>
      <psa10 value="0.0019748178" flag="0"/>
      <psa30 value="0.0003630766" flag="0"/>
    </comp>
    <comp name="--.HHN">
      <acc value="0.0033926665" flag="0"/>
      <vel value="0.0014322729" flag="0"/>
      <psa03 value="0.0063472339" flag="0"/>
      <psa10 value="0.0014424526" flag="0"/>
      <psa30 value="0.0002307441" flag="0"/>
    </comp>
  </station>
  <station code="THAL" name="THAL" netid="HA" insttype="30" lat="38.0357" lon="22.6634">
    <comp name="--.HHE">
      <acc value="0.0285201154" flag="0"/>
      <vel value="0.0132972408" flag="0"/>
      <psa03 value="0.0751609138" flag="0"/>
      <psa10 value="0.0084198809" flag="0"/>
      <psa30 value="0.0014073698" flag="0"/>
    </comp>
    <comp name="--.HHN">
      <acc value="0.0279966371" flag="0"/>
      <vel value="0.0120090587" flag="0"/>
      <psa03 value="0.0628647691" flag="0"/>
      <psa10 value="0.0100308497" flag="0"/>
      <psa30 value="0.0008978326" flag="0"/>
    </comp>
    <comp name="--.HHZ">
      <acc value="0.0213081296" flag="0"/>
      <vel value="0.0066106494" flag="0"/>
      <psa03 value="0.0438900541" flag="0"/>
      <psa10 value="0.0044307327" flag="0"/>
      <psa30 value="0.0005041981" flag="0"/>
    </comp>
  </station>
  <station code="AGR3" name="AGR3" netid="HI" insttype="unknown" lat="38.5893" lon="21.4162">
    <comp name="--.HNZ">
      <acc value="0.0618223468" flag="0"/>
      <vel value="0.0274839921" flag="0"/>
      <psa03 value="0.0804662541" flag="0"/>
      <psa10 value="0.0396137134" flag="0"/>
      <psa30 value="0.0053621183" flag="0"/>
    </comp>
    <comp name="--.HNN">
      <acc value="0.1042144741" flag="0"/>
      <vel value="0.0947711986" flag="0"/>
      <psa03 value="0.1745659594" flag="0"/>
      <psa10 value="0.1167334156" flag="0"/>
      <psa30 value="0.0090746395" flag="0"/>
    </comp>
    <comp name="--.HNE">
      <acc value="0.0987607432" flag="0"/>
      <vel value="0.0482569819" flag="0"/>
      <psa03 value="0.2176121899" flag="0"/>
      <psa10 value="0.0553480180" flag="0"/>
      <psa30 value="0.0060013190" flag="0"/>
    </comp>
  </station>
  <station code="AIG2" name="AIG2" netid="HI" insttype="unknown" lat="38.2417" lon="22.0726">
    <comp name="--.HNE">
      <acc value="0.0399992216" flag="0"/>
      <vel value="0.0127979089" flag="0"/>
      <psa03 value="0.0683275097" flag="0"/>
      <psa10 value="0.0157829182" flag="0"/>
      <psa30 value="0.0018664046" flag="0"/>
    </comp>
    <comp name="--.HNZ">
      <acc value="0.0329671174" flag="0"/>
      <vel value="0.0110859335" flag="0"/>
      <psa03 value="0.0623869660" flag="0"/>
      <psa10 value="0.0097938249" flag="0"/>
      <psa30 value="0.0013476899" flag="0"/>
    </comp>
    <comp name="--.HNN">
      <acc value="0.0427905971" flag="0"/>
      <vel value="0.0172110619" flag="0"/>
      <psa03 value="0.0734472146" flag="0"/>
      <psa10 value="0.0165753501" flag="0"/>
      <psa30 value="0.0020128178" flag="0"/>
    </comp>
  </station>
  <station code="AOL1" name="AOL1" netid="HI" insttype="unknown" lat="37.6424" lon="21.6246">
    <comp name="--.HNE">
      <acc value="0.0383156338" flag="0"/>
      <vel value="0.0193560220" flag="0"/>
      <psa03 value="0.1100818531" flag="0"/>
      <psa10 value="0.0317816439" flag="0"/>
      <psa30 value="0.0027002929" flag="0"/>
    </comp>
    <comp name="--.HNN">
      <acc value="0.0341681675" flag="0"/>
      <vel value="0.0188593855" flag="0"/>
      <psa03 value="0.0909983988" flag="0"/>
      <psa10 value="0.0327097934" flag="0"/>
      <psa30 value="0.0023846140" flag="0"/>
    </comp>
    <comp name="--.HNZ">
      <acc value="0.0224666966" flag="0"/>
      <vel value="0.0125835352" flag="0"/>
      <psa03 value="0.0673051336" flag="0"/>
      <psa10 value="0.0196828984" flag="0"/>
      <psa30 value="0.0013796703" flag="0"/>
    </comp>
  </station>
  <station code="ARG2" name="ARG2" netid="HI" insttype="CMG-5TD,ACCELEROMETER,GURALP" lat="38.1783" lon="20.4878">
    <comp name="--.HNN">
      <acc value="0.0304498040" flag="0"/>
      <vel value="0.0112504460" flag="0"/>
      <psa03 value="0.0492936376" flag="0"/>
      <psa10 value="0.0096548916" flag="0"/>
      <psa30 value="0.0009074030" flag="0"/>
    </comp>
    <comp name="--.HNZ">
      <acc value="0.0183103137" flag="0"/>
      <vel value="0.0056538529" flag="0"/>
      <psa03 value="0.0347761432" flag="0"/>
      <psa10 value="0.0042572111" flag="0"/>
      <psa30 value="0.0005113731" flag="0"/>
    </comp>
    <comp name="--.HNE">
      <acc value="0.0351068786" flag="0"/>
      <vel value="0.0120710267" flag="0"/>
      <psa03 value="0.0822010638" flag="0"/>
      <psa10 value="0.0067879732" flag="0"/>
      <psa30 value="0.0008216032" flag="0"/>
    </comp>
  </station>
  <station code="LEF2" name="LEF2" netid="HI" insttype="unknown" lat="38.8301" lon="20.7083">
    <comp name="--.HNZ">
      <acc value="0.0265412416" flag="0"/>
      <vel value="0.0169795952" flag="0"/>
      <psa03 value="0.0540074035" flag="0"/>
      <psa10 value="0.0289450165" flag="0"/>
      <psa30 value="0.0026555754" flag="0"/>
    </comp>
    <comp name="--.HNN">
