<?xml version="1.0" encoding="UTF-8" standalone="yes"?>
<!DOCTYPE earthquake SYSTEM "stationlist.dtd">
<stationlist created="" xmlns="ch.ethz.sed.shakemap.usgs.xml">
  <station code="RP05B" name="RP05B" netid="5B" insttype="Compact" lat="37.6182" lon="21.6541">
    <comp name="--.HHE">
      <acc value="0.0828510136" flag="0"/>
      <vel value="0.0397732481" flag="0"/>
      <psa03 value="0.2139188960" flag="0"/>
      <psa10 value="0.0688567256" flag="0"/>
      <psa30 value="0.0049701163" flag="0"/>
    </comp>
    <comp name="--.HHZ">
      <acc value="0.0390959702" flag="0"/>
      <vel value="0.0177276527" flag="0"/>
      <psa03 value="0.1253259958" flag="0"/>
      <psa10 value="0.0243103635" flag="0"/>
      <psa30 value="0.0025578295" flag="0"/>
    </comp>
  </station>
  <station code="AGRP" name="AGRP" netid="CL" insttype="CMG40-T" lat="38.3959" lon="21.7228">
    <comp name="00.HHZ">
      <acc value="0.0700562013" flag="0"/>
      <vel value="0.0114379766" flag="0"/>
      <psa03 value="0.0726207041" flag="0"/>
      <psa10 value="0.0084469598" flag="0"/>
      <psa30 value="0.0006881992" flag="0"/>
    </comp>
    <comp name="00.HHN">
      <acc value="0.0861701560" flag="0"/>
      <vel value="0.0308286319" flag="0"/>
      <psa03 value="0.1418458641" flag="0"/>
      <psa10 value="0.0405954256" flag="0"/>
      <psa30 value="0.0029394729" flag="0"/>
    </comp>
    <comp name="00.HHE">
      <acc value="0.0815663287" flag="0"/>
      <vel value="0.0317114765" flag="0"/>
      <psa03 value="0.1124981022" flag="0"/>
      <psa10 value="0.0315175133" flag="0"/>
      <psa30 value="0.0023492978" flag="0"/>
    </comp>
  </station>
  <station code="ALIK" name="ALIK" netid="CL" insttype="TRILLIUM-40" lat="38.2605" lon="22.1114">
    <comp name="02.HHZ">
      <acc value="0.0374561251" flag="0"/>
      <vel value="0.0148738790" flag="0"/>
      <psa03 value="0.0618980201" flag="0"/>
      <psa10 value="0.0093312792" flag="0"/>
      <psa30 value="0.0014743659" flag="0"/>
    </comp>
    <comp name="02.HHE">
      <acc value="0.0947996979" flag="0"/>
      <vel value="0.0386399405" flag="0"/>
      <psa03 value="0.2454985853" flag="0"/>
      <psa10 value="0.0281090542" flag="0"/>
      <psa30 value="0.0024124193" flag="0"/>
    </comp>
    <comp name="02.HHN">
      <acc value="0.0520147660" flag="0"/>
      <vel value="0.0228810059" flag="0"/>
      <psa03 value="0.1920896924" flag="0"/>
      <psa10 value="0.0118085533" flag="0"/>
      <psa30 value="0.0011037731" flag="0"/>
    </comp>
  </station>
  <station code="MALA" name="MALA" netid="CL" insttype="TRILLIUM-40" lat="38.3934" lon="21.8726">
    <comp name="01.HHZ">
      <acc value="0.0603621109" flag="0"/>
      <vel value="0.0179823558" flag="0"/>
      <psa03 value="0.1028040056" flag="0"/>
      <psa10 value="0.0182834415" flag="0"/>
      <psa30 value="0.0017342510" flag="0"/>
    </comp>
    <comp name="01.HHE">
      <acc value="0.1832007442" flag="0"/>
      <vel value="0.1012614980" flag="0"/>
      <psa03 value="0.4605273321" flag="0"/>
      <psa10 value="0.1033145351" flag="0"/>
      <psa30 value="0.0097406370" flag="0"/>
    </comp>
    <comp name="01.HHN">
      <acc value="0.2212103398" flag="0"/>
      <vel value="0.0740079997" flag="0"/>
      <psa03 value="0.5034333488" flag="0"/>
      <psa10 value="0.0732697167" flag="0"/>
      <psa30 value="0.0068879707" flag="0"/>
    </comp>
  </station>
  <station code="MG06" name="MG06" netid="CL" insttype="TRILLIUM-40" lat="38.4129" lon="21.9462">
    <comp name="06.HHZ">
      <acc value="0.1552590444" flag="0"/>
      <vel value="0.0214040808" flag="0"/>
      <psa03 value="0.0820624378" flag="0"/>
      <psa10 value="0.0093399332" flag="0"/>
      <psa30 value="0.0008641319" flag="0"/>
    </comp>
    <comp name="06.HHE">
      <acc value="0.1191064065" flag="0"/>
      <vel value="0.0333646252" flag="0"/>
      <psa03 value="0.1356658853" flag="0"/>
      <psa10 value="0.0135607824" flag="0"/>
      <psa30 value="0.0026805245" flag="0"/>
    </comp>
    <comp name="06.HHN">
      <acc value="0.1316559580" flag="0"/>
      <vel value="0.0457221488" flag="0"/>
      <psa03 value="0.1143467387" flag="0"/>
      <psa10 value="0.0346956739" flag="0"/>
      <psa30 value="0.0031317331" flag="0"/>
    </comp>
  </station>
  <station code="PANR" name="PANR" netid="CL" insttype="TRILLIUM-40" lat="38.3735" lon="22.2497">
    <comp name="01.HHN">
      <acc value="0.0179321481" flag="0"/>
      <vel value="0.0074455634" flag="0"/>
      <psa03 value="0.0322135300" flag="0"/>
      <psa10 value="0.0071599886" flag="0"/>
      <psa30 value="0.0012465979" flag="0"/>
    </comp>
    <comp name="01.HHE">
      <acc value="0.0112240494" flag="0"/>
      <vel value="0.0069056320" flag="0"/>
      <psa03 value="0.0300553759" flag="0"/>
      <psa10 value="0.0076722682" flag="0"/>
      <psa30 value="0.0010953446" flag="0"/>
    </comp>
    <comp name="01.HHZ">
      <acc value="0.0155264256" flag="0"/>
      <vel value="0.0041083330" flag="0"/>
      <psa03 value="0.0216430181" flag="0"/>
      <psa10 value="0.0060096642" flag="0"/>
      <psa30 value="0.0005601958" flag="0"/>
    </comp>
  </station>
  <station code="PSAM" name="PSAM" netid="CL" insttype="CMG40-T" lat="38.3218" lon="22.1842">
    <comp name="00.HHN">
      <acc value="0.0267626497" flag="0"/>
      <vel value="0.0153193923" flag="0"/>
      <psa03 value="0.0530442460" flag="0"/>
      <psa10 value="0.0152765211" flag="0"/>
      <psa30 value="0.0021168696" flag="0"/>
    </comp>
    <comp name="00.HHE">
      <acc value="0.0604483234" flag="0"/>
      <vel value="0.0276857205" flag="0"/>
      <psa03 value="0.1576415918" flag="0"/>
      <psa10 value="0.0174086085" flag="0"/>
      <psa30 value="0.0011383294" flag="0"/>
    </comp>
    <comp name="00.HHZ">
      <acc value="0.0557308549" flag="0"/>
      <vel value="0.0080921785" flag="0"/>
      <psa03 value="0.0349172814" flag="0"/>
      <psa10 value="0.0075002349" flag="0"/>
      <psa30 value="0.0008355558" flag="0"/>
    </comp>
  </station>
  <station code="ROD3" name="ROD3" netid="CL" insttype="CMG40-T" lat="38.3081" lon="21.892">
    <comp name="00.HHZ">
      <acc value="0.1574714982" flag="0"/>
      <vel value="0.0439811463" flag="0"/>
      <psa03 value="0.2052300598" flag="0"/>
      <psa10 value="0.0330563997" flag="0"/>
      <psa30 value="0.0020040133" flag="0"/>
    </comp>
    <comp name="00.HHN">
      <acc value="0.2786311418" flag="0"/>
      <vel value="0.0987023889" flag="0"/>
      <psa03 value="0.7637613489" flag="0"/>
      <psa10 value="0.0413595879" flag="0"/>
      <psa30 value="0.0034267041" flag="0"/>
    </comp>
    <comp name="00.HHE">
      <acc value="0.4875387874" flag="0"/>
      <vel value="0.1527813716" flag="0"/>
      <psa03 value="1.2741039603" flag="0"/>
      <psa10 value="0.0580186527" flag="0"/>
      <psa30 value="0.0049309778" flag="0"/>
    </comp>
  </station>
  <station code="TRIZ" name="TRIZ" netid="CL" insttype="STS-2" lat="38.3654" lon="22.0727">
    <comp name="00.HH2">
      <acc value="0.0563957935" flag="0"/>
      <vel value="0.0250541887" flag="0"/>
      <psa03 value="0.1859148194" flag="0"/>
      <psa10 value="0.0107191251" flag="0"/>
      <psa30 value="0.0015819614" flag="0"/>
    </comp>
    <comp name="00.HH3">
      <acc value="0.0711674741" flag="0"/>
      <vel value="0.0421179551" flag="0"/>
      <psa03 value="0.2404545966" flag="0"/>
      <psa10 value="0.0213812742" flag="0"/>
      <psa30 value="0.0026137948" flag="0"/>
    </comp>
    <comp name="00.HHZ">
      <acc value="0.0697668359" flag="0"/>
      <vel value="0.0166965932" flag="0"/>
      <psa03 value="0.0620723846" flag="0"/>
      <psa10 value="0.0110458853" flag="0"/>
      <psa30 value="0.0006031083" flag="0"/>
    </comp>
  </station>
  <station code="ZIRI" name="ZIRI" netid="CL" insttype="TRILLIUM-40" lat="38.3051" lon="21.9476">
    <comp name="01.HHZ">
      <acc value="0.1777051715" flag="0"/>
      <vel value="0.0416930332" flag="0"/>
      <psa03 value="0.2137128579" flag="0"/>
      <psa10 value="0.0123109911" flag="0"/>
      <psa30 value="0.0016868950" flag="0"/>
    </comp>
    <comp name="01.HHE">
      <acc value="0.2077764957" flag="0"/>
      <vel value="0.0960539892" flag="0"/>
      <psa03 value="0.6830596602" flag="0"/>
      <psa10 value="0.0372255921" flag="0"/>
      <psa30 value="0.0042995495" flag="0"/>
    </comp>
    <comp name="01.HHN">
      <acc value="0.1814157054" flag="0"/>
      <vel value="0.0548320401" flag="0"/>
      <psa03 value="0.3364480567" flag="0"/>
      <psa10 value="0.0328142005" flag="0"/>
      <psa30 value="0.0022533802" flag="0"/>
    </comp>
  </station>
  <station code="ACOR" name="ACOR" netid="HA" insttype="Horizon,120s,1200" lat="37.8905" lon="22.8694">
    <comp name="--.HHE">
      <acc value="0.0028403214" flag="0"/>
      <vel value="0.0022392468" flag="0"/>
      <psa03 value="0.0100795289" flag="0"/>
      <psa10 value="0.0031085969" flag="0"/>
      <psa30 value="0.0005139577" flag="0"/>
    </comp>
    <comp name="--.HHZ">
      <acc value="0.0026519280" flag="0"/>
      <vel value="0.0018725626" flag="0"/>
      <psa03 value="0.0083452087" flag="0"/>
      <psa10 value="0.0032339670" flag="0"/>
      <psa30 value="0.0003207164" flag="0"/>
    </comp>
    <comp name="--.HHN">
      <acc value="0.0025128967" flag="0"/>
      <vel value="0.0025970487" flag="0"/>
      <psa03 value="0.0063601887" flag="0"/>
      <psa10 value="0.0032097829" flag="0"/>
      <psa30 value="0.0004460658" flag="0"/>
    </comp>
  </station>
  <station code="ATHR" name="ATHR" netid="HA" insttype="GEOtiny," lat="38.3172" lon="20.4165">
    <comp name="--.HHN">
      <acc value="0.0104203437" flag="0"/>
      <vel value="0.0064500910" flag="0"/>
      <psa03 value="0.0297183269" flag="0"/>
      <psa10 value="0.0064469166" flag="0"/>
      <psa30 value="0.0006283791" flag="0"/>
    </comp>
    <comp name="--.HHE">
      <acc value="0.0088678736" flag="0"/>
      <vel value="0.0049448065" flag="0"/>
      <psa03 value="0.0173177173" flag="0"/>
      <psa10 value="0.0055052959" flag="0"/>
      <psa30 value="0.0008802746" flag="0"/>
    </comp>
    <comp name="--.HHZ">
      <acc value="0.0212565597" flag="0"/>
      <vel value="0.0049490156" flag="0"/>
      <psa03 value="0.0134299034" flag="0"/>
      <psa10 value="0.0050486793" flag="0"/>
      <psa30 value="0.0004859076" flag="0"/>
    </comp>
  </station>
  <station code="AXAR" name="AXAR" netid="HA" insttype="Horizon,120s,1200" lat="38.7664" lon="22.659">
    <comp name="--.HHE">
      <acc value="0.0227173368" flag="0"/>
      <vel value="0.0162578950" flag="0"/>
      <psa03 value="0.1025009605" flag="0"/>
      <psa10 value="0.0188106239" flag="0"/>
      <psa30 value="0.0026147990" flag="0"/>
    </comp>
    <comp name="--.HHN">
      <acc value="0.0225662138" flag="0"/>
      <vel value="0.0180166019" flag="0"/>
      <psa03 value="0.0771994265" flag="0"/>
      <psa10 value="0.0324429852" flag="0"/>
      <psa30 value="0.0024136935" flag="0"/>
    </comp>
    <comp name="--.HHZ">
      <acc value="0.0107141547" flag="0"/>
      <vel value="0.0086973442" flag="0"/>
      <psa03 value="0.0251165059" flag="0"/>
      <psa10 value="0.0168553674" flag="0"/>
      <psa30 value="0.0012603297" flag="0"/>
    </comp>
  </station>
  <station code="HAVD" name="HAVD" netid="HA" insttype="GEOtiny," lat="38.2036" lon="20.3848">
    <comp name="--.HHE">
      <acc value="0.0095487847" flag="0"/>
      <vel value="0.0046401117" flag="0"/>
      <psa03 value="0.0184579814" flag="0"/>
      <psa10 value="0.0047890183" flag="0"/>
      <psa30 value="0.0006354655" flag="0"/>
    </comp>
    <comp name="--.HHN">
      <acc value="0.0117777807" flag="0"/>
      <vel value="0.0068712319" flag="0"/>
      <psa03 value="0.0344603721" flag="0"/>
      <psa10 value="0.0117904474" flag="0"/>
      <psa30 value="0.0007592198" flag="0"/>
    </comp>
    <comp name="--.HHZ">
      <acc value="0.0131728041" flag="0"/>
      <vel value="0.0044197959" flag="0"/>
      <psa03 value="0.0219708713" flag="0"/>
      <psa10 value="0.0042566796" flag="0"/>
      <psa30 value="0.0005074311" flag="0"/>
    </comp>
  </station>
  <station code="KALE" name="KALE" netid="HA" insttype="40," lat="38.3911" lon="22.1398">
    <comp name="--.HHN">
      <acc value="0.0504035505" flag="0"/>
      <vel value="0.0218554950" flag="0"/>
      <psa03 value="0.0822740054" flag="0"/>
      <psa10 value="0.0114877222" flag="0"/>
      <psa30 value="0.0008560636" flag="0"/>
    </comp>
    <comp name="--.HHE">
      <acc value="0.0465804419" flag="0"/>
      <vel value="0.0188057977" flag="0"/>
      <psa03 value="0.0994204687" flag="0"/>
      <psa10 value="0.0097982217" flag="0"/>
      <psa30 value="0.0010442659" flag="0"/>
    </comp>
    <comp name="--.HHZ">
      <acc value="0.0403647308" flag="0"/>
      <vel value="0.0089188337" flag="0"/>
      <psa03 value="0.0454726369" flag="0"/>
      <psa10 value="0.0059053845" flag="0"/>
      <psa30 value="0.0005694110" flag="0"/>
    </comp>
  </station>
  <station code="LAKA" name="LAKA" netid="HA" insttype="120s," lat="38.2401" lon="21.9785">
    <comp name="--.HHE">
      <acc value="0.0786536856" flag="0"/>
      <vel value="0.0279644522" flag="0"/>
      <psa03 value="0.1421970655" flag="0"/>
      <psa10 value="0.0092618932" flag="0"/>
      <psa30 value="0.0017247427" flag="0"/>
    </comp>
    <comp name="--.HHN">
      <acc value="0.1354911438" flag="0"/>
      <vel value="0.0232674260" flag="0"/>
      <psa03 value="0.1066297511" flag="0"/>
      <psa10 value="0.0108566886" flag="0"/>
      <psa30 value="0.0013866950" flag="0"/>
    </comp>
    <comp name="--.HHZ">
      <acc value="0.1113069287" flag="0"/>
      <vel value="0.0151590726" flag="0"/>
      <psa03 value="0.0712415053" flag="0"/>
      <psa10 value="0.0079960337" flag="0"/>
      <psa30 value="0.0008255990" flag="0"/>
    </comp>
  </station>
  <station code="PRDM" name="PRDM" netid="HA" insttype="25" lat="38.2804" lon="22.847">
    <comp name="--.HHZ">
      <acc value="0.0025409185" flag="0"/>
      <vel value="0.0013214700" flag="0"/>
      <psa03 value="0.0049527067" flag="0"/>
      <psa10 value="0.0010322972" flag="0"/>
      <psa30 value="0.0002098594" flag="0"/>
    </comp>
    <comp name="--.HHN">
      <acc value="0.0033926664" flag="0"/>
      <vel value="0.0014322725" flag="0"/>
      <psa03 value="0.0063472339" flag="0"/>
      <psa10 value="0.0014424526" flag="0"/>
      <psa30 value="0.0002307413" flag="0"/>
    </comp>
    <comp name="--.HHE">
      <acc value="0.0035673901" flag="0"/>
      <vel value="0.0022883863" flag="0"/>
      <psa03 value="0.0067682852" flag="0"/>
      <psa10 value="0.0019748178" flag="0"/>
      <psa30 value="0.0003630765" flag="0"/>
    </comp>
  </station>
  <station code="THAL" name="THAL" netid="HA" insttype="30" lat="38.0357" lon="22.6634">
    <comp name="--.HHZ">
      <acc value="0.0213081295" flag="0"/>
      <vel value="0.0066106542" flag="0"/>
      <psa03 value="0.0438900541" flag="0"/>
      <psa10 value="0.0044307327" flag="0"/>
      <psa30 value="0.0005041658" flag="0"/>
    </comp>
    <comp name="--.HHE">
      <acc value="0.0285201156" flag="0"/>
      <vel value="0.0132972479" flag="0"/>
      <psa03 value="0.0751609138" flag="0"/>
      <psa10 value="0.0084198809" flag="0"/>
      <psa30 value="0.0014073582" flag="0"/>
    </comp>
    <comp name="--.HHN">
      <acc value="0.0279966374" flag="0"/>
      <vel value="0.0120090480" flag="0"/>
      <psa03 value="0.0628647691" flag="0"/>
      <psa10 value="0.0100308496" flag="0"/>
      <psa30 value="0.0008978389" flag="0"/>
    </comp>
  </station>
  <station code="AGR3" name="AGR3" netid="HI" insttype="unknown" lat="38.5893" lon="21.4162">
    <comp name="--.HNE">
      <acc value="0.0987607425" flag="0"/>
      <vel value="0.0482569814" flag="0"/>
      <psa03 value="0.2176121899" flag="0"/>
      <psa10 value="0.0553480180" flag="0"/>
      <psa30 value="0.0060014583" flag="0"/>
    </comp>
    <comp name="--.HNN">
      <acc value="0.1042144740" flag="0"/>
      <vel value="0.0947712020" flag="0"/>
      <psa03 value="0.1745659594" flag="0"/>
      <psa10 value="0.1167334177" flag="0"/>
      <psa30 value="0.0090743845" flag="0"/>
    </comp>
    <comp name="--.HNZ">
      <acc value="0.0618223473" flag="0"/>
      <vel value="0.0274839926" flag="0"/>
      <psa03 value="0.0804662541" flag="0"/>
      <psa10 value="0.0396137134" flag="0"/>
      <psa30 value="0.0053620473" flag="0"/>
    </comp>
  </station>
  <station code="AIG2" name="AIG2" netid="HI" insttype="unknown" lat="38.2417" lon="22.0726">
    <comp name="--.HNE">
      <acc value="0.0399992221" flag="0"/>
      <vel value="0.0127979080" flag="0"/>
      <psa03 value="0.0683275097" flag="0"/>
      <psa10 value="0.0157829183" flag="0"/>
      <psa30 value="0.0018664592" flag="0"/>
    </comp>
    <comp name="--.HNN">
      <acc value="0.0427905978" flag="0"/>
      <vel value="0.0172110605" flag="0"/>
      <psa03 value="0.0734472146" flag="0"/>
      <psa10 value="0.0165753504" flag="0"/>
      <psa30 value="0.0020127760" flag="0"/>
    </comp>
    <comp name="--.HNZ">
      <acc value="0.0329671171" flag="0"/>
      <vel value="0.0110859367" flag="0"/>
      <psa03 value="0.0623869660" flag="0"/>
      <psa10 value="0.0097938245" flag="0"/>
      <psa30 value="0.0013477348" flag="0"/>
    </comp>
  </station>
  <station code="AOL1" name="AOL1" netid="HI" insttype="unknown" lat="37.6424" lon="21.6246">
    <comp name="--.HNE">
      <acc value="0.0383156336" flag="0"/>
      <vel value="0.0193560188" flag="0"/>
      <psa03 value="0.1100818531" flag="0"/>
      <psa10 value="0.0317816439" flag="0"/>
      <psa30 value="0.0027003136" flag="0"/>
    </comp>
    <comp name="--.HNN">
      <acc value="0.0341681672" flag="0"/>
      <vel value="0.0188593857" flag="0"/>
      <psa03 value="0.0909983988" flag="0"/>
      <psa10 value="0.0327097934" flag="0"/>
      <psa30 value="0.0023846006" flag="0"/>
    </comp>
    <comp name="--.HNZ">
      <acc value="0.0224666960" flag="0"/>
      <vel value="0.0125835357" flag="0"/>
      <psa03 value="0.0673051336" flag="0"/>
      <psa10 value="0.0196828984" flag="0"/>
      <psa30 value="0.0013796739" flag="0"/>
    </comp>
  </station>
  <station code="ARG2" name="ARG2" netid="HI" insttype="CMG-5TD,ACCELEROMETER,GURALP" lat="38.1783" lon="20.4878">
    <comp name="--.HNE">
      <acc value="0.0351068786" flag="0"/>
      <vel value="0.0120710266" flag="0"/>
      <psa03 value="0.0822010638" flag="0"/>
      <psa10 value="0.0067879732" flag="0"/>
      <psa30 value="0.0008216039" flag="0"/>
    </comp>
    <comp name="--.HNN">
      <acc value="0.0304498041" flag="0"/>
      <vel value="0.0112504460" flag="0"/>
      <psa03 value="0.0492936376" flag="0"/>
      <psa10 value="0.0096548916" flag="0"/>
      <psa30 value="0.0009074041" flag="0"/>
    </comp>
    <comp name="--.HNZ">
      <acc value="0.0183103137" flag="0"/>
      <vel value="0.0056538529" flag="0"/>
      <psa03 value="0.0347761432" flag="0"/>
      <psa10 value="0.0042572111" flag="0"/>
      <psa30 value="0.0005113493" flag="0"/>
    </comp>
  </station>
  <station code="LEF2" name="LEF2" netid="HI" insttype="unknown" lat="38.8301" lon="20.7083">
    <comp name="--.HNE">
      <acc value="0.0475649644" flag="0"/>
      <vel value="0.0369093708" flag="0"/>
      <psa03 value="0.1813709294" flag="0"/>
      <psa10 value="0.0561274480" flag="0"/>
      <psa30 value="0.0045353415" flag="0"/>
    </comp>
    <comp name="--.HNZ">
      <acc value="0.0265412416" flag="0"/>
      <vel value="0.0169795952" flag="0"/>
      <psa03 value="0.0540074035" flag="0"/>
      <psa10 value="0.0289450165" flag="0"/>
      <psa30 value="0.0026555768" flag="0"/>
    </comp>
    <comp name="--.HNN">
