<stationlist created="1778136691">
	<station code="ATEI" name="ATEI" netid="HC" source="Seismological Network of Crete (HC)" insttype="" lat="35.5193" lon="24.0432">
		<comp name="--.HNE" depth="0.0">
			<acc value="0.0310035069049275" flag="0"/>
			<vel value="0.0196019516132508" flag="0"/>
			<psa03 value="0.0714084960874663" flag="0"/>
			<psa10 value="0.0314096563605641" flag="0"/>
			<psa30 value="0.00390991359592141" flag="0"/>
		</comp>
		<comp name="--.HNN" depth="0.0">
			<acc value="0.0231470267716392" flag="0"/>
			<vel value="0.0258882913329131" flag="0"/>
			<psa03 value="0.0643301782253467" flag="0"/>
			<psa10 value="0.0248593599355757" flag="0"/>
			<psa30 value="0.00471744125733914" flag="0"/>
		</comp>
		<comp name="--.HNZ" depth="0.0">
			<acc value="0.0289979817750842" flag="0"/>
			<vel value="0.0155688353686571" flag="0"/>
			<psa03 value="0.0554252966536679" flag="0"/>
			<psa10 value="0.01968912868313" flag="0"/>
			<psa30 value="0.00228313187127992" flag="0"/>
		</comp>
	</station>
	<station code="DEYA" name="DEYA" netid="HC" source="Seismological Network of Crete (HC)" insttype="" lat="35.4825" lon="24.014">
		<comp name="--.HNE" depth="0.0">
			<acc value="0.0281104936459978" flag="0"/>
			<vel value="0.0194961519750201" flag="0"/>
			<psa03 value="0.104988642482331" flag="0"/>
			<psa10 value="0.027525239037" flag="0"/>
			<psa30 value="0.00306626083306638" flag="0"/>
		</comp>
		<comp name="--.HNN" depth="0.0">
			<acc value="0.0279980588068139" flag="0"/>
			<vel value="0.0168977879617363" flag="0"/>
			<psa03 value="0.0651123029537194" flag="0"/>
			<psa10 value="0.0202773532751339" flag="0"/>
			<psa30 value="0.00249872927855239" flag="0"/>
		</comp>
		<comp name="--.HNZ" depth="0.0">
			<acc value="0.0180618390757402" flag="0"/>
			<vel value="0.011250477464311" flag="0"/>
			<psa03 value="0.046140822227885" flag="0"/>
			<psa10 value="0.0172294963695744" flag="0"/>
			<psa30 value="0.00144994740606484" flag="0"/>
		</comp>
	</station>
	<station code="G0LD" name="G0LD" netid="HC" source="Seismological Network of Crete (HC)" insttype="" lat="35.4955" lon="24.0306">
		<comp name="--.HNE" depth="0.0">
			<acc value="0.0787897008359051" flag="0"/>
			<vel value="0.0695336547848744" flag="0"/>
			<psa03 value="0.278337063464333" flag="0"/>
			<psa10 value="0.0970030784778742" flag="0"/>
			<psa30 value="0.0111075499873217" flag="0"/>
		</comp>
		<comp name="--.HNN" depth="0.0">
			<acc value="0.0926506081095624" flag="0"/>
			<vel value="0.069620618472922" flag="0"/>
			<psa03 value="0.305189029775595" flag="0"/>
			<psa10 value="0.100886858259195" flag="0"/>
			<psa30 value="0.0102768332897877" flag="0"/>
		</comp>
		<comp name="--.HNZ" depth="0.0">
			<acc value="0.0500094801314668" flag="0"/>
			<vel value="0.0383722412721766" flag="0"/>
			<psa03 value="0.160529915569056" flag="0"/>
			<psa10 value="0.0592086372815846" flag="0"/>
			<psa30 value="0.00441510539573109" flag="0"/>
		</comp>
	</station>
	<station code="LENT" name="LENT" netid="HC" source="Seismological Network of Crete (HC)" insttype="" lat="35.5074" lon="24.0402">
		<comp name="--.HNE" depth="0.0">
			<acc value="0.033171936145265" flag="0"/>
			<vel value="0.0218924110769453" flag="0"/>
			<psa03 value="0.0791616503210339" flag="0"/>
			<psa10 value="0.030528004830478" flag="0"/>
			<psa30 value="0.00523891330230173" flag="0"/>
		</comp>
		<comp name="--.HNN" depth="0.0">
			<acc value="0.0501778621433285" flag="0"/>
			<vel value="0.0314107225125212" flag="0"/>
			<psa03 value="0.0823876817380818" flag="0"/>
			<psa10 value="0.0386455450777098" flag="0"/>
			<psa30 value="0.00533034894281072" flag="0"/>
		</comp>
		<comp name="--.HNZ" depth="0.0">
			<acc value="0.0310467126302458" flag="0"/>
			<vel value="0.0129523508365828" flag="0"/>
			<psa03 value="0.0738447512274973" flag="0"/>
			<psa10 value="0.0190305681817452" flag="0"/>
			<psa30 value="0.00243524715650443" flag="0"/>
		</comp>
	</station>
	<station code="MULT" name="MULT" netid="HC" source="Seismological Network of Crete (HC)" insttype="" lat="35.5091" lon="24.0118">
		<comp name="--.HNE" depth="0.0">
			<acc value="0.0411234845373482" flag="0"/>
			<vel value="0.0135849009714116" flag="0"/>
			<psa03 value="0.0514410275074939" flag="0"/>
			<psa10 value="0.0155182280064343" flag="0"/>
			<psa30 value="0.00214034741251373" flag="0"/>
		</comp>
		<comp name="--.HNN" depth="0.0">
			<acc value="0.0258093097573985" flag="0"/>
			<vel value="0.0178022548736803" flag="0"/>
			<psa03 value="0.0403893031972662" flag="0"/>
			<psa10 value="0.0184776596792785" flag="0"/>
			<psa30 value="0.00381346095640688" flag="0"/>
		</comp>
		<comp name="--.HNZ" depth="0.0">
			<acc value="0.0245388822367855" flag="0"/>
			<vel value="0.00985126215142967" flag="0"/>
			<psa03 value="0.0279104244494798" flag="0"/>
			<psa10 value="0.0113205918086594" flag="0"/>
			<psa30 value="0.00316776255705502" flag="0"/>
		</comp>
	</station>
	<station code="NERO" name="NERO" netid="HC" source="Seismological Network of Crete (HC)" insttype="" lat="35.474" lon="24.0423">
		<comp name="--.HNE" depth="0.0">
			<acc value="0.0353335878920034" flag="0"/>
			<vel value="0.0197469166493691" flag="0"/>
			<psa03 value="0.101681215047936" flag="0"/>
			<psa10 value="0.0178359996724585" flag="0"/>
			<psa30 value="0.00270720100544894" flag="0"/>
		</comp>
		<comp name="--.HNN" depth="0.0">
			<acc value="0.0294872510973944" flag="0"/>
			<vel value="0.018269505705418" flag="0"/>
			<psa03 value="0.089254975204137" flag="0"/>
			<psa10 value="0.0233496392989984" flag="0"/>
			<psa30 value="0.00306288269261109" flag="0"/>
		</comp>
		<comp name="--.HNZ" depth="0.0">
			<acc value="0.0307651827772185" flag="0"/>
			<vel value="0.0142507781790538" flag="0"/>
			<psa03 value="0.0712215982896391" flag="0"/>
			<psa10 value="0.0259178244286714" flag="0"/>
			<psa30 value="0.00207625795856747" flag="0"/>
		</comp>
	</station>
	<station code="PASK" name="PASK" netid="HC" source="Seismological Network of Crete (HC)" insttype="" lat="35.4996" lon="24.0121">
		<comp name="--.HNE" depth="0.0">
			<acc value="0.0510789132303261" flag="0"/>
			<vel value="0.030957997389378" flag="0"/>
			<psa03 value="0.152355134446708" flag="0"/>
			<psa10 value="0.0457394775158103" flag="0"/>
			<psa30 value="0.00582114395554507" flag="0"/>
		</comp>
		<comp name="--.HNN" depth="0.0">
			<acc value="0.0418134486032897" flag="0"/>
			<vel value="0.0353045386593524" flag="0"/>
			<psa03 value="0.081336231876382" flag="0"/>
			<psa10 value="0.03684871854675" flag="0"/>
			<psa30 value="0.00706268870179465" flag="0"/>
		</comp>
		<comp name="--.HNZ" depth="0.0">
			<acc value="0.0288082557869111" flag="0"/>
			<vel value="0.0212445315434308" flag="0"/>
			<psa03 value="0.0797599555807183" flag="0"/>
			<psa10 value="0.0211806924919268" flag="0"/>
			<psa30 value="0.00208402430638069" flag="0"/>
		</comp>
	</station>
	<station code="POLY" name="POLY" netid="HC" source="Seismological Network of Crete (HC)" insttype="" lat="35.5226" lon="24.0602">
		<comp name="--.HNE" depth="0.0">
			<acc value="0.0296669267734502" flag="0"/>
			<vel value="0.0175487187671605" flag="0"/>
			<psa03 value="0.0658878439129201" flag="0"/>
			<psa10 value="0.025478996608496" flag="0"/>
			<psa30 value="0.00512415111653566" flag="0"/>
		</comp>
		<comp name="--.HNN" depth="0.0">
			<acc value="0.039858960849594" flag="0"/>
			<vel value="0.0218909079804987" flag="0"/>
			<psa03 value="0.0874598354514137" flag="0"/>
			<psa10 value="0.021123771221162" flag="0"/>
			<psa30 value="0.00404335785261619" flag="0"/>
		</comp>
		<comp name="--.HNZ" depth="0.0">
			<acc value="0.0196791082921446" flag="0"/>
			<vel value="0.0133397440068084" flag="0"/>
			<psa03 value="0.0468697038462643" flag="0"/>
			<psa10 value="0.0147036459193921" flag="0"/>
			<psa30 value="0.00261708899430028" flag="0"/>
		</comp>
	</station>
	<station code="CH01" name="CH01" netid="HI" source="ITSAK Strong Motion Network" insttype="" lat="35.517" lon="24.0208">
		<comp name="--.HNE" depth="0.0">
			<acc value="0.0302513819350257" flag="0"/>
			<vel value="0.0146711357091598" flag="0"/>
			<psa03 value="0.0597896222275014" flag="0"/>
			<psa10 value="0.0212161248391662" flag="0"/>
			<psa30 value="0.00358060094723836" flag="0"/>
		</comp>
		<comp name="--.HNN" depth="0.0">
			<acc value="0.029829948343875" flag="0"/>
			<vel value="0.0159254630919383" flag="0"/>
			<psa03 value="0.0542901902086361" flag="0"/>
			<psa10 value="0.0239303840204776" flag="0"/>
			<psa30 value="0.00345100632056466" flag="0"/>
		</comp>
		<comp name="--.HNZ" depth="0.0">
			<acc value="0.0182458186159822" flag="0"/>
			<vel value="0.00772635580425247" flag="0"/>
			<psa03 value="0.0305398564489287" flag="0"/>
			<psa10 value="0.0188040419255106" flag="0"/>
			<psa30 value="0.00225292799542125" flag="0"/>
		</comp>
	</station>
	<station code="KSS1" name="KSS1" netid="HI" source="ITSAK Strong Motion Network" insttype="" lat="35.4189" lon="26.9207">
		<comp name="--.HNE" depth="0.0">
			<acc value="0.0146350618444488" flag="0"/>
			<vel value="0.00595536785279089" flag="0"/>
			<psa03 value="0.0409220103615369" flag="0"/>
			<psa10 value="0.00443650077140086" flag="0"/>
			<psa30 value="0.000601463854445031" flag="0"/>
		</comp>
		<comp name="--.HNN" depth="0.0">
			<acc value="0.014580299249647" flag="0"/>
			<vel value="0.00563203259722091" flag="0"/>
			<psa03 value="0.0610554196218356" flag="0"/>
			<psa10 value="0.00645879411340146" flag="0"/>
			<psa30 value="0.000488745606165892" flag="0"/>
		</comp>
		<comp name="--.HNZ" depth="0.0">
			<acc value="0.0109005957639081" flag="0"/>
			<vel value="0.00367743992643848" flag="0"/>
			<psa03 value="0.0119117083630353" flag="0"/>
			<psa10 value="0.00304464528655886" flag="0"/>
			<psa30 value="0.000829463385379057" flag="0"/>
		</comp>
	</station>
	<station code="NAX1" name="NAX1" netid="HI" source="ITSAK Strong Motion Network" insttype="" lat="37.101394" lon="25.374103">
		<comp name="--.HNE" depth="0.0">
			<acc value="0.00401079618632023" flag="0"/>
			<vel value="0.00239826193507376" flag="0"/>
			<psa03 value="0.00902089576715863" flag="0"/>
			<psa10 value="0.00238789943661651" flag="0"/>
			<psa30 value="0.000577192090310747" flag="0"/>
		</comp>
		<comp name="--.HNN" depth="0.0">
			<acc value="0.00415347326653256" flag="0"/>
			<vel value="0.00189328393978153" flag="0"/>
			<psa03 value="0.0110690900437332" flag="0"/>
			<psa10 value="0.00266750272458965" flag="0"/>
			<psa30 value="0.000182143107753752" flag="0"/>
		</comp>
		<comp name="--.HNZ" depth="0.0">
			<acc value="0.00346874046036066" flag="0"/>
			<vel value="0.0019733688883183" flag="0"/>
			<psa03 value="0.00674085279841987" flag="0"/>
			<psa10 value="0.00230633786168762" flag="0"/>
			<psa30 value="0.00026709290192712" flag="0"/>
		</comp>
	</station>
	<station code="SIT2" name="SIT2" netid="HI" source="ITSAK Strong Motion Network" insttype="" lat="35.2059" lon="26.107">
		<comp name="--.HNE" depth="0.0">
			<acc value="0.151584416915093" flag="0"/>
			<vel value="0.0732731045945137" flag="0"/>
			<psa03 value="0.441297483792722" flag="0"/>
			<psa10 value="0.0528313023146804" flag="0"/>
			<psa30 value="0.00323497325943751" flag="0"/>
		</comp>
		<comp name="--.HNN" depth="0.0">
			<acc value="0.183119673453077" flag="0"/>
			<vel value="0.0890131272711725" flag="0"/>
			<psa03 value="0.553943487704651" flag="0"/>
			<psa10 value="0.054960160840864" flag="0"/>
			<psa30 value="0.00338923618692851" flag="0"/>
		</comp>
		<comp name="--.HNZ" depth="0.0">
			<acc value="0.17902081530098" flag="0"/>
			<vel value="0.0549163515416602" flag="0"/>
			<psa03 value="0.281960449329332" flag="0"/>
			<psa10 value="0.0160944743049484" flag="0"/>
			<psa30 value="0.00182596241938439" flag="0"/>
		</comp>
	</station>
	<station code="ANKY" name="ANKY" netid="HL" source="National Observatory of Athens Seismic Network" insttype="" lat="35.86704" lon="23.30117">
		<comp name="00.HNE" depth="0.0">
			<acc value="0.00454830210876112" flag="0"/>
			<vel value="0.0034644668018592" flag="0"/>
			<psa03 value="0.0138599389862885" flag="0"/>
			<psa10 value="0.00653676412231063" flag="0"/>
			<psa30 value="0.000575055698785317" flag="0"/>
		</comp>
		<comp name="00.HNN" depth="0.0">
			<acc value="0.00428560345188416" flag="0"/>
			<vel value="0.00315501887081302" flag="0"/>
			<psa03 value="0.01393729306893" flag="0"/>
			<psa10 value="0.00466491949677558" flag="0"/>
			<psa30 value="0.000809806874898843" flag="0"/>
		</comp>
		<comp name="00.HNZ" depth="0.0">
			<acc value="0.00379430125521477" flag="0"/>
			<vel value="0.00215231758667976" flag="0"/>
			<psa03 value="0.00622086522680886" flag="0"/>
			<psa10 value="0.00221042877380978" flag="0"/>
			<psa30 value="0.000310229301168766" flag="0"/>
		</comp>
	</station>
	<station code="IACM" name="IACM" netid="HL" source="National Observatory of Athens Seismic Network" insttype="" lat="35.3058" lon="25.0709">
		<comp name="--.HNE" depth="0.0">
			<acc value="0.773277620742062" flag="0"/>
			<vel value="0.295349807122358" flag="0"/>
			<psa03 value="0.971667868227131" flag="0"/>
			<psa10 value="0.413600799021233" flag="0"/>
			<psa30 value="0.0199038451987157" flag="0"/>
		</comp>
		<comp name="--.HNN" depth="0.0">
			<acc value="0.887188766219298" flag="0"/>
			<vel value="0.298492063041969" flag="0"/>
			<psa03 value="1.29024930601949" flag="0"/>
			<psa10 value="0.716203124941442" flag="0"/>
			<psa30 value="0.0243200944202387" flag="0"/>
		</comp>
		<comp name="--.HNZ" depth="0.0">
			<acc value="0.84648640292063" flag="0"/>
			<vel value="0.207044046934424" flag="0"/>
			<psa03 value="0.663695424896391" flag="0"/>
			<psa10 value="0.164368963637327" flag="0"/>
			<psa30 value="0.00763833600228172" flag="0"/>
		</comp>
	</station>
	<station code="IMMV" name="IMMV" netid="HL" source="National Observatory of Athens Seismic Network" insttype="" lat="35.4606" lon="23.9811">
		<comp name="--.HNE" depth="0.0">
			<acc value="0.0298823539186142" flag="0"/>
			<vel value="0.0129136728459538" flag="0"/>
			<psa03 value="0.069004607674913" flag="0"/>
			<psa10 value="0.0181471934125152" flag="0"/>
			<psa30 value="0.00186893943306698" flag="0"/>
		</comp>
		<comp name="--.HNN" depth="0.0">
			<acc value="0.0375592688180501" flag="0"/>
			<vel value="0.0195689817732209" flag="0"/>
			<psa03 value="0.125538743408885" flag="0"/>
			<psa10 value="0.0152651021756129" flag="0"/>
			<psa30 value="0.00137387174142822" flag="0"/>
		</comp>
		<comp name="--.HNZ" depth="0.0">
			<acc value="0.0224649900740233" flag="0"/>
			<vel value="0.0100528411730822" flag="0"/>
			<psa03 value="0.0594745805239946" flag="0"/>
			<psa10 value="0.0117027486871858" flag="0"/>
			<psa30 value="0.000896314793122215" flag="0"/>
		</comp>
	</station>
	<station code="SIVA" name="SIVA" netid="HL" source="National Observatory of Athens Seismic Network" insttype="" lat="35.01777" lon="24.81204">
		<comp name="00.HNE" depth="0.0">
			<acc value="0.199864873806689" flag="0"/>
			<vel value="0.074415742935519" flag="0"/>
			<psa03 value="0.388791380520964" flag="0"/>
			<psa10 value="0.0410036600413341" flag="0"/>
			<psa30 value="0.00403956760153007" flag="0"/>
		</comp>
		<comp name="00.HNN" depth="0.0">
			<acc value="0.164443250197399" flag="0"/>
			<vel value="0.0606712990390377" flag="0"/>
			<psa03 value="0.461869471583948" flag="0"/>
			<psa10 value="0.0451642194080473" flag="0"/>
			<psa30 value="0.00418615814576562" flag="0"/>
		</comp>
		<comp name="00.HNZ" depth="0.0">
			<acc value="0.107325602497467" flag="0"/>
			<vel value="0.0390406184110709" flag="0"/>
			<psa03 value="0.208629716528279" flag="0"/>
			<psa10 value="0.0167121946008602" flag="0"/>
			<psa30 value="0.00150792635105536" flag="0"/>
		</comp>
	</station>
	<station code="THRA" name="THRA" netid="HL" source="National Observatory of Athens Seismic Network" insttype="" lat="36.41502" lon="25.43244">
		<comp name="00.HNE" depth="0.0">
			<acc value="0.0646048714778085" flag="0"/>
			<vel value="0.0314772789657672" flag="0"/>
			<psa03 value="0.135304004893177" flag="0"/>
			<psa10 value="0.0588873722495721" flag="0"/>
			<psa30 value="0.00377068395597158" flag="0"/>
		</comp>
		<comp name="00.HNN" depth="0.0">
			<acc value="0.0559098053140828" flag="0"/>
			<vel value="0.0232945791883828" flag="0"/>
			<psa03 value="0.115569728844032" flag="0"/>
			<psa10 value="0.0409171943133248" flag="0"/>
			<psa30 value="0.00176537444739211" flag="0"/>
		</comp>
		<comp name="00.HNZ" depth="0.0">
			<acc value="0.046931523118241" flag="0"/>
			<vel value="0.0150814269629204" flag="0"/>
			<psa03 value="0.0820983917404495" flag="0"/>
			<psa10 value="0.0133812070643039" flag="0"/>
			<psa30 value="0.00119748130642664" flag="0"/>
		</comp>
	</station>
</stationlist>
