<?xml version="1.0" encoding="UTF-8" standalone="yes"?>
<!DOCTYPE earthquake SYSTEM "stationlist.dtd">
<stationlist created="" xmlns="ch.ethz.sed.shakemap.usgs.xml">
  <station code="GVD" name="GVD" netid="GE" insttype="STS-2/N" lat="34.8391" lon="24.0874">
    <comp name="--.HHE">
      <acc value="0.0283928428" flag="0"/>
      <vel value="0.0122126520" flag="0"/>
      <psa03 value="0.0838231506" flag="0"/>
      <psa10 value="0.0118407667" flag="0"/>
      <psa30 value="0.0004960873" flag="0"/>
    </comp>
    <comp name="--.HHN">
      <acc value="0.0215453621" flag="0"/>
      <vel value="0.0108141574" flag="0"/>
      <psa03 value="0.0985472073" flag="0"/>
      <psa10 value="0.0062781826" flag="0"/>
      <psa30 value="0.0011776718" flag="0"/>
    </comp>
    <comp name="--.HHZ">
      <acc value="0.0123695216" flag="0"/>
      <vel value="0.0055081504" flag="0"/>
      <psa03 value="0.0309101563" flag="0"/>
      <psa10 value="0.0029924972" flag="0"/>
      <psa30 value="0.0003767298" flag="0"/>
    </comp>
  </station>
  <station code="IMMV" name="IMMV" netid="GE" insttype="STS-2/N" lat="35.4606" lon="23.9811">
    <comp name="--.HHE">
      <acc value="0.0320247714" flag="0"/>
      <vel value="0.0136738192" flag="0"/>
      <psa03 value="0.0756468602" flag="0"/>
      <psa10 value="0.0188669683" flag="0"/>
      <psa30 value="0.0019754517" flag="0"/>
    </comp>
    <comp name="--.HHZ">
      <acc value="0.0228151728" flag="0"/>
      <vel value="0.0104589281" flag="0"/>
      <psa03 value="0.0600190528" flag="0"/>
      <psa10 value="0.0118282600" flag="0"/>
      <psa30 value="0.0008924001" flag="0"/>
    </comp>
    <comp name="--.HHN">
      <acc value="0.0393431264" flag="0"/>
      <vel value="0.0203664338" flag="0"/>
      <psa03 value="0.1300704432" flag="0"/>
      <psa10 value="0.0155789708" flag="0"/>
      <psa30 value="0.0014504201" flag="0"/>
    </comp>
  </station>
  <station code="CHAN" name="CHAN" netid="HC" insttype="120" lat="35.5193" lon="24.0428">
    <comp name="--.HHE">
      <acc value="0.0442001940" flag="0"/>
      <vel value="0.0270404065" flag="0"/>
      <psa03 value="0.1015889868" flag="0"/>
      <psa10 value="0.0418625986" flag="0"/>
      <psa30 value="0.0045956903" flag="0"/>
    </comp>
    <comp name="--.HHZ">
      <acc value="0.0372030199" flag="0"/>
      <vel value="0.0197466639" flag="0"/>
      <psa03 value="0.0719373339" flag="0"/>
      <psa10 value="0.0254008953" flag="0"/>
      <psa30 value="0.0033994515" flag="0"/>
    </comp>
    <comp name="--.HHN">
      <acc value="0.0300945014" flag="0"/>
      <vel value="0.0328617925" flag="0"/>
      <psa03 value="0.0799541434" flag="0"/>
      <psa10 value="0.0317576936" flag="0"/>
      <psa30 value="0.0055631687" flag="0"/>
    </comp>
  </station>
  <station code="GVDS" name="GVDS" netid="HC" insttype="60" lat="34.8389" lon="24.0585">
    <comp name="--.HHN">
      <acc value="0.0173331620" flag="0"/>
      <vel value="0.0068833877" flag="0"/>
      <psa03 value="0.0454931025" flag="0"/>
      <psa10 value="0.0071470247" flag="0"/>
      <psa30 value="0.0011737158" flag="0"/>
    </comp>
    <comp name="--.HHZ">
      <acc value="0.0073442698" flag="0"/>
      <vel value="0.0031684915" flag="0"/>
      <psa03 value="0.0172982611" flag="0"/>
      <psa10 value="0.0028600096" flag="0"/>
      <psa30 value="0.0003605990" flag="0"/>
    </comp>
    <comp name="--.HHE">
      <acc value="0.0144986165" flag="0"/>
      <vel value="0.0055048114" flag="0"/>
      <psa03 value="0.0453286923" flag="0"/>
      <psa10 value="0.0055225038" flag="0"/>
      <psa30 value="0.0004450333" flag="0"/>
    </comp>
  </station>
  <station code="IMOD" name="IMOD" netid="HC" insttype="120" lat="34.9731" lon="24.7995">
    <comp name="--.HHZ">
      <acc value="0.0692934646" flag="0"/>
      <vel value="0.0275081118" flag="0"/>
      <psa03 value="0.1871776578" flag="0"/>
      <psa10 value="0.0230735164" flag="0"/>
      <psa30 value="0.0014081312" flag="0"/>
    </comp>
    <comp name="--.HHN">
      <acc value="0.0949755733" flag="0"/>
      <vel value="0.0591889459" flag="0"/>
      <psa03 value="0.3043751743" flag="0"/>
      <psa10 value="0.0422191067" flag="0"/>
      <psa30 value="0.0037853491" flag="0"/>
    </comp>
    <comp name="--.HHE">
      <acc value="0.0918931213" flag="0"/>
      <vel value="0.0387039366" flag="0"/>
      <psa03 value="0.3019379857" flag="0"/>
      <psa10 value="0.0310292402" flag="0"/>
      <psa30 value="0.0021302653" flag="0"/>
    </comp>
  </station>
  <station code="KNDR" name="KNDR" netid="HC" insttype="120" lat="35.2348" lon="23.6248">
    <comp name="--.HHN">
      <acc value="0.0128369214" flag="0"/>
      <vel value="0.0065377347" flag="0"/>
      <psa03 value="0.0348862085" flag="0"/>
      <psa10 value="0.0075276479" flag="0"/>
      <psa30 value="0.0009290470" flag="0"/>
    </comp>
    <comp name="--.HHZ">
      <acc value="0.0091588533" flag="0"/>
      <vel value="0.0050471456" flag="0"/>
      <psa03 value="0.0291528412" flag="0"/>
      <psa10 value="0.0046813458" flag="0"/>
      <psa30 value="0.0003735705" flag="0"/>
    </comp>
    <comp name="--.HHE">
      <acc value="0.0145682561" flag="0"/>
      <vel value="0.0077615659" flag="0"/>
      <psa03 value="0.0505214125" flag="0"/>
      <psa10 value="0.0097192848" flag="0"/>
      <psa30 value="0.0010102868" flag="0"/>
    </comp>
  </station>
  <station code="KNSS" name="KNSS" netid="HC" insttype="60" lat="35.3042" lon="25.1802">
    <comp name="--.HHN">
      <acc value="0.5586288569" flag="0"/>
      <vel value="0.1638105980" flag="0"/>
      <psa03 value="0.7462890173" flag="0"/>
      <psa10 value="0.1564033364" flag="0"/>
      <psa30 value="0.0094300205" flag="0"/>
    </comp>
    <comp name="--.HHE">
      <acc value="0.6476804537" flag="0"/>
      <vel value="0.2597088241" flag="0"/>
      <psa03 value="0.8234669056" flag="0"/>
      <psa10 value="0.1282034697" flag="0"/>
      <psa30 value="0.0124559944" flag="0"/>
    </comp>
    <comp name="--.HHZ">
      <acc value="0.5810123212" flag="0"/>
      <vel value="0.1192095512" flag="0"/>
      <psa03 value="0.4539830615" flag="0"/>
      <psa10 value="0.1257990791" flag="0"/>
      <psa30 value="0.0059971924" flag="0"/>
    </comp>
  </station>
  <station code="RODP" name="RODP" netid="HC" insttype="120" lat="35.5604" lon="23.7577">
    <comp name="--.HHE">
      <acc value="0.0273534397" flag="0"/>
      <vel value="0.0137337606" flag="0"/>
      <psa03 value="0.0661076609" flag="0"/>
      <psa10 value="0.0138782061" flag="0"/>
      <psa30 value="0.0018919274" flag="0"/>
    </comp>
    <comp name="--.HHN">
      <acc value="0.0215779302" flag="0"/>
      <vel value="0.0103283270" flag="0"/>
      <psa03 value="0.0655263478" flag="0"/>
      <psa10 value="0.0070264226" flag="0"/>
      <psa30 value="0.0013013446" flag="0"/>
    </comp>
    <comp name="--.HHZ">
      <acc value="0.0132704242" flag="0"/>
      <vel value="0.0062752392" flag="0"/>
      <psa03 value="0.0336558690" flag="0"/>
      <psa10 value="0.0044863010" flag="0"/>
      <psa30 value="0.0011458508" flag="0"/>
    </comp>
  </station>
  <station code="CH01" name="CH01" netid="HI" insttype="CMG-5TD,ACCELEROMETER,GURALP" lat="35.517" lon="24.0208">
    <comp name="--.HNN">
      <acc value="0.0299762973" flag="0"/>
      <vel value="0.0159108062" flag="0"/>
      <psa03 value="0.0551661037" flag="0"/>
      <psa10 value="0.0239786780" flag="0"/>
      <psa30 value="0.0034459792" flag="0"/>
    </comp>
    <comp name="--.HNE">
      <acc value="0.0301191124" flag="0"/>
      <vel value="0.0146705859" flag="0"/>
      <psa03 value="0.0598449586" flag="0"/>
      <psa10 value="0.0211859525" flag="0"/>
      <psa30 value="0.0035022907" flag="0"/>
    </comp>
    <comp name="--.HNZ">
      <acc value="0.0186090483" flag="0"/>
      <vel value="0.0077859169" flag="0"/>
      <psa03 value="0.0307458749" flag="0"/>
      <psa10 value="0.0188543998" flag="0"/>
      <psa30 value="0.0021883637" flag="0"/>
    </comp>
  </station>
  <station code="SIT2" name="SIT2" netid="HI" insttype="CMG-5TD,ACCELEROMETER,GURALP" lat="35.2059" lon="26.107">
    <comp name="--.HNN">
      <acc value="0.1823727562" flag="0"/>
      <vel value="0.0883276471" flag="0"/>
      <psa03 value="0.5630524035" flag="0"/>
      <psa10 value="0.0548206967" flag="0"/>
      <psa30 value="0.0033422262" flag="0"/>
    </comp>
    <comp name="--.HNZ">
      <acc value="0.1790253524" flag="0"/>
      <vel value="0.0539164252" flag="0"/>
      <psa03 value="0.2800691243" flag="0"/>
      <psa10 value="0.0159961779" flag="0"/>
      <psa30 value="0.0017698104" flag="0"/>
    </comp>
    <comp name="--.HNE">
      <acc value="0.1515567455" flag="0"/>
      <vel value="0.0729030058" flag="0"/>
      <psa03 value="0.4342161217" flag="0"/>
      <psa10 value="0.0525963435" flag="0"/>
      <psa30 value="0.0032471132" flag="0"/>
    </comp>
  </station>
  <station code="GVD" name="GVD" netid="HL" insttype="120" lat="34.8391" lon="24.0874">
    <comp name="--.HHE">
      <acc value="0.0276248516" flag="0"/>
      <vel value="0.0118789022" flag="0"/>
      <psa03 value="0.0815142434" flag="0"/>
      <psa10 value="0.0117532429" flag="0"/>
      <psa30 value="0.0004906206" flag="0"/>
    </comp>
    <comp name="--.HHN">
      <acc value="0.0209972641" flag="0"/>
      <vel value="0.0105054057" flag="0"/>
      <psa03 value="0.0958199621" flag="0"/>
      <psa10 value="0.0062453640" flag="0"/>
      <psa30 value="0.0011758298" flag="0"/>
    </comp>
    <comp name="--.HHZ">
      <acc value="0.0120389721" flag="0"/>
      <vel value="0.0053465643" flag="0"/>
      <psa03 value="0.0300688202" flag="0"/>
      <psa10 value="0.0029777849" flag="0"/>
      <psa30 value="0.0003768548" flag="0"/>
    </comp>
  </station>
  <station code="IACM" name="IACM" netid="HL" insttype="120" lat="35.3058" lon="25.0709">
    <comp name="--.HHZ">
      <acc value="0.7808167794" flag="0"/>
      <vel value="0.1959288638" flag="0"/>
      <psa03 value="0.6568444981" flag="0"/>
      <psa10 value="0.1646369033" flag="0"/>
      <psa30 value="0.0077189461" flag="0"/>
    </comp>
    <comp name="--.HHE">
      <acc value="0.7571087862" flag="0"/>
      <vel value="0.2962688588" flag="0"/>
      <psa03 value="0.9545556761" flag="0"/>
      <psa10 value="0.4217253397" flag="0"/>
      <psa30 value="0.0203582226" flag="0"/>
    </comp>
    <comp name="--.HHN">
      <acc value="0.9104250331" flag="0"/>
      <vel value="0.2851348791" flag="0"/>
      <psa03 value="1.2841149657" flag="0"/>
      <psa10 value="0.7034724029" flag="0"/>
      <psa30 value="0.0237159711" flag="0"/>
    </comp>
  </station>
  <station code="IDI" name="IDI" netid="HL" insttype="120" lat="35.288" lon="24.89">
    <comp name="--.HHE">
      <acc value="0.1594464413" flag="0"/>
      <vel value="0.0381795209" flag="0"/>
      <psa03 value="0.1433900119" flag="0"/>
      <psa10 value="0.0153022390" flag="0"/>
      <psa30 value="0.0026371130" flag="0"/>
    </comp>
    <comp name="--.HHN">
      <acc value="0.1651031518" flag="0"/>
      <vel value="0.0321882001" flag="0"/>
      <psa03 value="0.1125109392" flag="0"/>
      <psa10 value="0.0195737966" flag="0"/>
      <psa30 value="0.0015551198" flag="0"/>
    </comp>
    <comp name="--.HHZ">
      <acc value="0.1580688256" flag="0"/>
      <vel value="0.0246849294" flag="0"/>
      <psa03 value="0.1654599359" flag="0"/>
      <psa10 value="0.0160768582" flag="0"/>
      <psa30 value="0.0019982998" flag="0"/>
    </comp>
  </station>
  <station code="IMMV" name="IMMV" netid="HL" insttype="120" lat="35.4606" lon="23.9811">
    <comp name="--.HHE">
      <acc value="0.0311080471" flag="0"/>
      <vel value="0.0133361082" flag="0"/>
      <psa03 value="0.0735588930" flag="0"/>
      <psa10 value="0.0187441088" flag="0"/>
      <psa30 value="0.0019707795" flag="0"/>
    </comp>
    <comp name="--.HHN">
      <acc value="0.0380978979" flag="0"/>
      <vel value="0.0198525469" flag="0"/>
      <psa03 value="0.1263974585" flag="0"/>
      <psa10 value="0.0155131664" flag="0"/>
      <psa30 value="0.0014478926" flag="0"/>
    </comp>
    <comp name="--.HHZ">
      <acc value="0.0221760103" flag="0"/>
      <vel value="0.0102246496" flag="0"/>
      <psa03 value="0.0582336233" flag="0"/>
      <psa10 value="0.0116941399" flag="0"/>
      <psa30 value="0.0008901574" flag="0"/>
    </comp>
  </station>
  <station code="NPS" name="NPS" netid="HL" insttype="CMG3ESPC-120s" lat="35.2613" lon="25.6104">
    <comp name="--.HHE">
      <acc value="0.2068589019" flag="0"/>
      <vel value="0.0852801969" flag="0"/>
      <psa03 value="0.3189513412" flag="0"/>
      <psa10 value="0.0488411939" flag="0"/>
      <psa30 value="0.0020529111" flag="0"/>
    </comp>
    <comp name="--.HHN">
      <acc value="0.3898633356" flag="0"/>
      <vel value="0.1141051221" flag="0"/>
      <psa03 value="0.5546249613" flag="0"/>
      <psa10 value="0.0700517145" flag="0"/>
      <psa30 value="0.0047881724" flag="0"/>
    </comp>
    <comp name="--.HHZ">
      <acc value="0.3528984073" flag="0"/>
      <vel value="0.1253723643" flag="0"/>
      <psa03 value="0.3666341959" flag="0"/>
      <psa10 value="0.0763402774" flag="0"/>
      <psa30 value="0.0061456372" flag="0"/>
    </comp>
  </station>
  <station code="SIVA" name="SIVA" netid="HL" insttype="60" lat="35.0178" lon="24.812">
    <comp name="--.HHZ">
      <acc value="0.1030403749" flag="0"/>
      <vel value="0.0383975539" flag="0"/>
      <psa03 value="0.2075008949" flag="0"/>
      <psa10 value="0.0168842253" flag="0"/>
      <psa30 value="0.0014955866" flag="0"/>
    </comp>
    <comp name="--.HHE">
      <acc value="0.2171531235" flag="0"/>
      <vel value="0.0789010076" flag="0"/>
      <psa03 value="0.4139978709" flag="0"/>
      <psa10 value="0.0436357192" flag="0"/>
      <psa30 value="0.0041321959" flag="0"/>
    </comp>
    <comp name="--.HHN">
      <acc value="0.1836685153" flag="0"/>
      <vel value="0.0574278674" flag="0"/>
      <psa03 value="0.4309308771" flag="0"/>
      <psa10 value="0.0385929076" flag="0"/>
      <psa30 value="0.0035937235" flag="0"/>
    </comp>
  </station>
  <station code="VAM" name="VAM" netid="HL" insttype="CMG3ESPC-120s" lat="35.407" lon="24.1997">
    <comp name="--.HHE">
      <acc value="0.0485462904" flag="0"/>
      <vel value="0.0265492743" flag="0"/>
      <psa03 value="0.1420946207" flag="0"/>
      <psa10 value="0.0214782449" flag="0"/>
      <psa30 value="0.0010178731" flag="0"/>
    </comp>
    <comp name="--.HHN">
      <acc value="0.0998428883" flag="0"/>
      <vel value="0.0273650918" flag="0"/>
      <psa03 value="0.1772467493" flag="0"/>
      <psa10 value="0.0182243479" flag="0"/>
      <psa30 value="0.0020551646" flag="0"/>
    </comp>
    <comp name="--.HHZ">
      <acc value="0.0361117065" flag="0"/>
      <vel value="0.0123613004" flag="0"/>
      <psa03 value="0.0704933687" flag="0"/>
      <psa10 value="0.0078441789" flag="0"/>
      <psa30 value="0.0007145221" flag="0"/>
    </comp>
  </station>
  <station code="IDI" name="IDI" netid="MN" insttype="" lat="35.288" lon="24.89">
    <comp name="--.HHE">
      <acc value="0.1743086706" flag="0"/>
      <vel value="0.0397814427" flag="0"/>
      <psa03 value="0.1445568324" flag="0"/>
      <psa10 value="0.0151657349" flag="0"/>
      <psa30 value="0.0026161291" flag="0"/>
    </comp>
    <comp name="--.HHZ">
      <acc value="0.1670903326" flag="0"/>
      <vel value="0.0254103422" flag="0"/>
      <psa03 value="0.1688140017" flag="0"/>
      <psa10 value="0.0160623728" flag="0"/>
      <psa30 value="0.0019831055" flag="0"/>
    </comp>
    <comp name="--.HHN">
      <acc value="0.1857532362" flag="0"/>
      <vel value="0.0323175884" flag="0"/>
      <psa03 value="0.1130505560" flag="0"/>
      <psa10 value="0.0194766336" flag="0"/>
      <psa30 value="0.0015464399" flag="0"/>
    </comp>
  </station>
</stationlist>
