<?xml version="1.0" encoding="UTF-8" standalone="yes"?>
<!DOCTYPE earthquake SYSTEM "stationlist.dtd">
<stationlist created="" xmlns="ch.ethz.sed.shakemap.usgs.xml">
  <station code="AMPE" name="AMPE" netid="HA" insttype="1s-100Hz," lat="38.3015" lon="23.2688">
    <comp name="--.HHE">
      <acc value="0.0057194846" flag="0"/>
      <vel value="0.0028191391" flag="0"/>
      <psa03 value="0.0118633720" flag="0"/>
      <psa10 value="0.0029381459" flag="0"/>
      <psa30 value="0.0001959039" flag="0"/>
    </comp>
    <comp name="--.HHN">
      <acc value="0.0040004542" flag="0"/>
      <vel value="0.0020961202" flag="0"/>
      <psa03 value="0.0085619072" flag="0"/>
      <psa10 value="0.0020328911" flag="0"/>
      <psa30 value="0.0002391761" flag="0"/>
    </comp>
    <comp name="--.HHZ">
      <acc value="0.0028111600" flag="0"/>
      <vel value="0.0010645845" flag="0"/>
      <psa03 value="0.0051041362" flag="0"/>
      <psa10 value="0.0009263283" flag="0"/>
      <psa30 value="0.0001539644" flag="0"/>
    </comp>
  </station>
  <station code="ATAL" name="ATAL" netid="HA" insttype="120" lat="38.6926" lon="23.0213">
    <comp name="--.HHE">
      <acc value="0.0071604669" flag="0"/>
      <vel value="0.0028386629" flag="0"/>
      <psa03 value="0.0169526080" flag="0"/>
      <psa10 value="0.0011486342" flag="0"/>
      <psa30 value="0.0001483319" flag="0"/>
    </comp>
    <comp name="--.HHN">
      <acc value="0.0073582673" flag="0"/>
      <vel value="0.0026528179" flag="0"/>
      <psa03 value="0.0100972805" flag="0"/>
      <psa10 value="0.0019407680" flag="0"/>
      <psa30 value="0.0001259705" flag="0"/>
    </comp>
    <comp name="--.HHZ">
      <acc value="0.0044027635" flag="0"/>
      <vel value="0.0016467389" flag="0"/>
      <psa03 value="0.0054147936" flag="0"/>
      <psa10 value="0.0011731186" flag="0"/>
      <psa30 value="0.0000823331" flag="0"/>
    </comp>
  </station>
  <station code="AXAR" name="AXAR" netid="HA" insttype="Horizon,120s,1200" lat="38.7664" lon="22.659">
    <comp name="--.HHN">
      <acc value="0.0377934828" flag="0"/>
      <vel value="0.0136568680" flag="0"/>
      <psa03 value="0.0973719629" flag="0"/>
      <psa10 value="0.0080255897" flag="0"/>
      <psa30 value="0.0005082910" flag="0"/>
    </comp>
    <comp name="--.HHZ">
      <acc value="0.0164371806" flag="0"/>
      <vel value="0.0056743406" flag="0"/>
      <psa03 value="0.0360747626" flag="0"/>
      <psa10 value="0.0028888758" flag="0"/>
      <psa30 value="0.0003427668" flag="0"/>
    </comp>
    <comp name="--.HHE">
      <acc value="0.0254089854" flag="0"/>
      <vel value="0.0084432052" flag="0"/>
      <psa03 value="0.0430419287" flag="0"/>
      <psa10 value="0.0043960761" flag="0"/>
      <psa30 value="0.0004482688" flag="0"/>
    </comp>
  </station>
  <station code="DOMV" name="DOMV" netid="HA" insttype="60" lat="38.2569" lon="22.9795">
    <comp name="--.HHE">
      <acc value="0.0138352466" flag="0"/>
      <vel value="0.0034231460" flag="0"/>
      <psa03 value="0.0232871299" flag="0"/>
      <psa10 value="0.0007029273" flag="0"/>
      <psa30 value="0.0001021938" flag="0"/>
    </comp>
    <comp name="--.HHZ">
      <acc value="0.0078273082" flag="0"/>
      <vel value="0.0019698290" flag="0"/>
      <psa03 value="0.0079355312" flag="0"/>
      <psa10 value="0.0007546649" flag="0"/>
      <psa30 value="0.0000631420" flag="0"/>
    </comp>
    <comp name="--.HHN">
      <acc value="0.0092768823" flag="0"/>
      <vel value="0.0028792430" flag="0"/>
      <psa03 value="0.0147832934" flag="0"/>
      <psa10 value="0.0010302344" flag="0"/>
      <psa30 value="0.0000852920" flag="0"/>
    </comp>
  </station>
  <station code="DRES" name="DRES" netid="HA" insttype="DC" lat="38.3197" lon="21.8532">
    <comp name="--.HNE">
      <acc value="0.0307116693" flag="0"/>
      <vel value="0.0155830109" flag="0"/>
      <psa03 value="0.0809532002" flag="0"/>
      <psa10 value="0.0086746556" flag="0"/>
      <psa30 value="0.0005211132" flag="0"/>
    </comp>
    <comp name="--.HNN">
      <acc value="0.0303444843" flag="0"/>
      <vel value="0.0098769855" flag="0"/>
      <psa03 value="0.0582769147" flag="0"/>
      <psa10 value="0.0041008661" flag="0"/>
      <psa30 value="0.0003428996" flag="0"/>
    </comp>
    <comp name="--.HNZ">
      <acc value="0.0345327135" flag="0"/>
      <vel value="0.0070093708" flag="0"/>
      <psa03 value="0.0249732890" flag="0"/>
      <psa10 value="0.0031278468" flag="0"/>
      <psa30 value="0.0004169964" flag="0"/>
    </comp>
  </station>
  <station code="KALE" name="KALE" netid="HA" insttype="40," lat="38.3911" lon="22.1398">
    <comp name="--.HHN">
      <acc value="0.0991464040" flag="0"/>
      <vel value="0.0355882845" flag="0"/>
      <psa03 value="0.1774993294" flag="0"/>
      <psa10 value="0.0078910204" flag="0"/>
      <psa30 value="0.0008528932" flag="0"/>
    </comp>
    <comp name="--.HHE">
      <acc value="0.1431588897" flag="0"/>
      <vel value="0.0488972987" flag="0"/>
      <psa03 value="0.3084822988" flag="0"/>
      <psa10 value="0.0096842175" flag="0"/>
      <psa30 value="0.0009764412" flag="0"/>
    </comp>
    <comp name="--.HHZ">
      <acc value="0.0517300372" flag="0"/>
      <vel value="0.0165101479" flag="0"/>
      <psa03 value="0.0785488447" flag="0"/>
      <psa10 value="0.0030820538" flag="0"/>
      <psa30 value="0.0002576604" flag="0"/>
    </comp>
  </station>
  <station code="LAKA" name="LAKA" netid="HA" insttype="120s," lat="38.2401" lon="21.9785">
    <comp name="--.HHE">
      <acc value="0.0046885547" flag="0"/>
      <vel value="0.0015199123" flag="0"/>
      <psa03 value="0.0109752472" flag="0"/>
      <psa10 value="0.0011160203" flag="0"/>
      <psa30 value="0.0000730313" flag="0"/>
    </comp>
    <comp name="--.HHN">
      <acc value="0.0076083008" flag="0"/>
      <vel value="0.0021476827" flag="0"/>
      <psa03 value="0.0114214846" flag="0"/>
      <psa10 value="0.0010838450" flag="0"/>
      <psa30 value="0.0001395892" flag="0"/>
    </comp>
    <comp name="--.HHZ">
      <acc value="0.0076276132" flag="0"/>
      <vel value="0.0015068284" flag="0"/>
      <psa03 value="0.0082784361" flag="0"/>
      <psa10 value="0.0009534695" flag="0"/>
      <psa30 value="0.0000777667" flag="0"/>
    </comp>
  </station>
  <station code="STFN" name="STFN" netid="HA" insttype="1s-100Hz," lat="38.1766" lon="23.544">
    <comp name="--.HHE">
      <acc value="0.0044977677" flag="0"/>
      <vel value="0.0019128159" flag="0"/>
      <psa03 value="0.0072685474" flag="0"/>
      <psa10 value="0.0010141628" flag="0"/>
      <psa30 value="0.0000729346" flag="0"/>
    </comp>
    <comp name="--.HHN">
      <acc value="0.0041169242" flag="0"/>
      <vel value="0.0023354178" flag="0"/>
      <psa03 value="0.0083352253" flag="0"/>
      <psa10 value="0.0016568576" flag="0"/>
      <psa30 value="0.0001262945" flag="0"/>
    </comp>
    <comp name="--.HHZ">
      <acc value="0.0035776838" flag="0"/>
      <vel value="0.0010503039" flag="0"/>
      <psa03 value="0.0048721338" flag="0"/>
      <psa10 value="0.0010458765" flag="0"/>
      <psa30 value="0.0000951128" flag="0"/>
    </comp>
  </station>
  <station code="THAL" name="THAL" netid="HA" insttype="30" lat="38.0357" lon="22.6634">
    <comp name="--.HHE">
      <acc value="0.0473127824" flag="0"/>
      <vel value="0.0139861446" flag="0"/>
      <psa03 value="0.0960458282" flag="0"/>
      <psa10 value="0.0072220733" flag="0"/>
      <psa30 value="0.0005743368" flag="0"/>
    </comp>
    <comp name="--.HHN">
      <acc value="0.0446952402" flag="0"/>
      <vel value="0.0118367422" flag="0"/>
      <psa03 value="0.0875510117" flag="0"/>
      <psa10 value="0.0048786491" flag="0"/>
      <psa30 value="0.0004193949" flag="0"/>
    </comp>
    <comp name="--.HHZ">
      <acc value="0.0321916221" flag="0"/>
      <vel value="0.0095239589" flag="0"/>
      <psa03 value="0.0624163882" flag="0"/>
      <psa10 value="0.0047673024" flag="0"/>
      <psa30 value="0.0003221817" flag="0"/>
    </comp>
  </station>
  <station code="KLV1" name="KLV1" netid="HI" insttype="CMG-5TD,ACCELEROMETER,GURALP" lat="38.0326" lon="22.108">
    <comp name="--.HNE">
      <acc value="0.0465425381" flag="0"/>
      <vel value="0.0152213287" flag="0"/>
      <psa03 value="0.1111984066" flag="0"/>
      <psa10 value="0.0064305390" flag="0"/>
      <psa30 value="0.0005666243" flag="0"/>
    </comp>
    <comp name="--.HNZ">
      <acc value="0.0545152492" flag="0"/>
      <vel value="0.0118301161" flag="0"/>
      <psa03 value="0.0344842678" flag="0"/>
      <psa10 value="0.0023939429" flag="0"/>
      <psa30 value="0.0002231907" flag="0"/>
    </comp>
    <comp name="--.HNN">
      <acc value="0.0414667764" flag="0"/>
      <vel value="0.0116415572" flag="0"/>
      <psa03 value="0.0668200112" flag="0"/>
      <psa10 value="0.0051976543" flag="0"/>
      <psa30 value="0.0002873642" flag="0"/>
    </comp>
  </station>
  <station code="MSL1" name="MSL1" netid="HI" insttype="CMG-5TD,ACCELEROMETER,GURALP" lat="38.3727" lon="21.4243">
    <comp name="--.HNE">
      <acc value="0.0801273452" flag="0"/>
      <vel value="0.0384512755" flag="0"/>
      <psa03 value="0.1878180858" flag="0"/>
      <psa10 value="0.0202098110" flag="0"/>
      <psa30 value="0.0013347013" flag="0"/>
    </comp>
    <comp name="--.HNZ">
      <acc value="0.0438770820" flag="0"/>
      <vel value="0.0093745496" flag="0"/>
      <psa03 value="0.0631051797" flag="0"/>
      <psa10 value="0.0081166777" flag="0"/>
      <psa30 value="0.0003828627" flag="0"/>
    </comp>
    <comp name="--.HNN">
      <acc value="0.0585196703" flag="0"/>
      <vel value="0.0236517841" flag="0"/>
      <psa03 value="0.1131974748" flag="0"/>
      <psa10 value="0.0129426540" flag="0"/>
      <psa30 value="0.0011428015" flag="0"/>
    </comp>
  </station>
  <station code="EVR" name="EVR" netid="HL" insttype="DR24" lat="38.9166" lon="21.8105">
    <comp name="--.HHE">
      <acc value="0.0076974845" flag="0"/>
      <vel value="0.0024141140" flag="0"/>
      <psa03 value="0.0103271631" flag="0"/>
      <psa10 value="0.0022249490" flag="0"/>
      <psa30 value="0.0001513783" flag="0"/>
    </comp>
    <comp name="--.HHN">
      <acc value="0.0071625669" flag="0"/>
      <vel value="0.0027051023" flag="0"/>
      <psa03 value="0.0088868124" flag="0"/>
      <psa10 value="0.0024449996" flag="0"/>
      <psa30 value="0.0002415787" flag="0"/>
    </comp>
    <comp name="--.HHZ">
      <acc value="0.0046190955" flag="0"/>
      <vel value="0.0013244182" flag="0"/>
      <psa03 value="0.0059709928" flag="0"/>
      <psa10 value="0.0018360884" flag="0"/>
      <psa30 value="0.0000972541" flag="0"/>
    </comp>
  </station>
  <station code="KLV" name="KLV" netid="HL" insttype="120" lat="38.0435" lon="22.1504">
    <comp name="--.HHE">
      <acc value="0.0128651245" flag="0"/>
      <vel value="0.0039744354" flag="0"/>
      <psa03 value="0.0222780645" flag="0"/>
      <psa10 value="0.0026483625" flag="0"/>
      <psa30 value="0.0002509854" flag="0"/>
    </comp>
    <comp name="--.HHZ">
      <acc value="0.0228971767" flag="0"/>
      <vel value="0.0055257869" flag="0"/>
      <psa03 value="0.0194747860" flag="0"/>
      <psa10 value="0.0022637444" flag="0"/>
      <psa30 value="0.0001378380" flag="0"/>
    </comp>
    <comp name="--.HHN">
      <acc value="0.0181435734" flag="0"/>
      <vel value="0.0057106560" flag="0"/>
      <psa03 value="0.0298800621" flag="0"/>
      <psa10 value="0.0037101646" flag="0"/>
      <psa30 value="0.0003113114" flag="0"/>
    </comp>
  </station>
  <station code="LKR" name="LKR" netid="HL" insttype="65535" lat="38.6496" lon="22.9988">
    <comp name="--.HHE">
      <acc value="0.0251882969" flag="0"/>
      <vel value="0.0086416833" flag="0"/>
      <psa03 value="0.0511665126" flag="0"/>
      <psa10 value="0.0027353215" flag="0"/>
      <psa30 value="0.0002929945" flag="0"/>
    </comp>
    <comp name="--.HHZ">
      <acc value="0.0101463166" flag="0"/>
      <vel value="0.0041307156" flag="0"/>
      <psa03 value="0.0229584667" flag="0"/>
      <psa10 value="0.0014706506" flag="0"/>
      <psa30 value="0.0001454274" flag="0"/>
    </comp>
    <comp name="--.HHN">
      <acc value="0.0205449541" flag="0"/>
      <vel value="0.0065909253" flag="0"/>
      <psa03 value="0.0407330190" flag="0"/>
      <psa10 value="0.0023458121" flag="0"/>
      <psa30 value="0.0001614424" flag="0"/>
    </comp>
  </station>
  <station code="PATC" name="PATC" netid="HL" insttype="CMG-5" lat="38.2693" lon="21.76">
    <comp name="00.HNE">
      <acc value="0.0501786041" flag="0"/>
      <vel value="0.0219961598" flag="0"/>
      <psa03 value="0.1196473671" flag="0"/>
      <psa10 value="0.0110138634" flag="0"/>
      <psa30 value="0.0008723084" flag="0"/>
    </comp>
    <comp name="00.HNN">
      <acc value="0.0515703429" flag="0"/>
      <vel value="0.0298308755" flag="0"/>
      <psa03 value="0.1408995670" flag="0"/>
      <psa10 value="0.0141732261" flag="0"/>
      <psa30 value="0.0009350055" flag="0"/>
    </comp>
    <comp name="00.HNZ">
      <acc value="0.0866971911" flag="0"/>
      <vel value="0.0171084099" flag="0"/>
      <psa03 value="0.0409483357" flag="0"/>
      <psa10 value="0.0050571893" flag="0"/>
      <psa30 value="0.0004080235" flag="0"/>
    </comp>
  </station>
  <station code="RIOA" name="RIOA" netid="HL" insttype="CMG-5" lat="38.2959" lon="21.7912">
    <comp name="00.HNN">
      <acc value="0.0331453727" flag="0"/>
      <vel value="0.0104051490" flag="0"/>
      <psa03 value="0.0496092260" flag="0"/>
      <psa10 value="0.0054099952" flag="0"/>
      <psa30 value="0.0003339248" flag="0"/>
    </comp>
    <comp name="00.HNE">
      <acc value="0.0400621916" flag="0"/>
      <vel value="0.0133089629" flag="0"/>
      <psa03 value="0.0596581159" flag="0"/>
      <psa10 value="0.0059424836" flag="0"/>
      <psa30 value="0.0004503550" flag="0"/>
    </comp>
    <comp name="00.HNZ">
      <acc value="0.0584789803" flag="0"/>
      <vel value="0.0099961911" flag="0"/>
      <psa03 value="0.0395634498" flag="0"/>
      <psa10 value="0.0028621472" flag="0"/>
      <psa30 value="0.0001808687" flag="0"/>
    </comp>
  </station>
  <station code="RLS" name="RLS" netid="HL" insttype="CMG3ESPC-120s" lat="38.0559" lon="21.4647">
    <comp name="--.HHE">
      <acc value="0.0176629139" flag="0"/>
      <vel value="0.0065933423" flag="0"/>
      <psa03 value="0.0316048369" flag="0"/>
      <psa10 value="0.0046575851" flag="0"/>
      <psa30 value="0.0005821298" flag="0"/>
    </comp>
    <comp name="--.HHN">
      <acc value="0.0170671882" flag="0"/>
      <vel value="0.0053353401" flag="0"/>
      <psa03 value="0.0236492732" flag="0"/>
      <psa10 value="0.0029199969" flag="0"/>
      <psa30 value="0.0002081498" flag="0"/>
    </comp>
    <comp name="--.HHZ">
      <acc value="0.0171946213" flag="0"/>
      <vel value="0.0043611803" flag="0"/>
      <psa03 value="0.0158932214" flag="0"/>
      <psa10 value="0.0035137385" flag="0"/>
      <psa30 value="0.0001818364" flag="0"/>
    </comp>
  </station>
  <station code="THI1" name="THI1" netid="HL" insttype="LE3D20_SMART24" lat="38.3878" lon="23.3945">
    <comp name="--.HHE">
      <acc value="0.0255003175" flag="0"/>
      <vel value="0.0061826489" flag="0"/>
      <psa03 value="0.0358498126" flag="0"/>
      <psa10 value="0.0030078010" flag="0"/>
      <psa30 value="0.0002233849" flag="0"/>
    </comp>
    <comp name="--.HHZ">
      <acc value="0.0259187105" flag="0"/>
      <vel value="0.0056291943" flag="0"/>
      <psa03 value="0.0249294910" flag="0"/>
      <psa10 value="0.0021104463" flag="0"/>
      <psa30 value="0.0001166553" flag="0"/>
    </comp>
    <comp name="--.HHN">
      <acc value="0.0189022299" flag="0"/>
      <vel value="0.0065938766" flag="0"/>
      <psa03 value="0.0417789465" flag="0"/>
      <psa10 value="0.0022530826" flag="0"/>
      <psa30 value="0.0001837722" flag="0"/>
    </comp>
  </station>
  <station code="THI2" name="THI2" netid="HL" insttype="LE3D20_SMART24" lat="38.3727" lon="23.211">
    <comp name="--.HHE">
      <acc value="0.0162869636" flag="0"/>
      <vel value="0.0067877536" flag="0"/>
      <psa03 value="0.0339784207" flag="0"/>
      <psa10 value="0.0034266810" flag="0"/>
      <psa30 value="0.0002653023" flag="0"/>
    </comp>
    <comp name="--.HHN">
      <acc value="0.0161133439" flag="0"/>
      <vel value="0.0051253101" flag="0"/>
      <psa03 value="0.0209928916" flag="0"/>
      <psa10 value="0.0024931184" flag="0"/>
      <psa30 value="0.0001817768" flag="0"/>
    </comp>
    <comp name="--.HHZ">
      <acc value="0.0099754367" flag="0"/>
      <vel value="0.0027008200" flag="0"/>
      <psa03 value="0.0115133321" flag="0"/>
      <psa10 value="0.0015614902" flag="0"/>
      <psa30 value="0.0001750678" flag="0"/>
    </comp>
  </station>
  <station code="THVA" name="THVA" netid="HL" insttype="LE3D20_SMART24" lat="38.3298" lon="23.336">
    <comp name="--.HHE">
      <acc value="0.0137911505" flag="0"/>
      <vel value="0.0060688475" flag="0"/>
      <psa03 value="0.0337854473" flag="0"/>
      <psa10 value="0.0075703322" flag="0"/>
      <psa30 value="0.0003793768" flag="0"/>
    </comp>
    <comp name="--.HHZ">
      <acc value="0.0104218776" flag="0"/>
      <vel value="0.0042199919" flag="0"/>
      <psa03 value="0.0199220346" flag="0"/>
      <psa10 value="0.0050667190" flag="0"/>
      <psa30 value="0.0002444994" flag="0"/>
    </comp>
    <comp name="--.HHN">
      <acc value="0.0146155729" flag="0"/>
      <vel value="0.0056825931" flag="0"/>
      <psa03 value="0.0306450508" flag="0"/>
      <psa10 value="0.0087091706" flag="0"/>
      <psa30 value="0.0003679570" flag="0"/>
    </comp>
  </station>
  <station code="AMPL" name="AMPL" netid="HP" insttype="Compact," lat="38.9224" lon="21.2135">
    <comp name="--.HHE">
      <acc value="0.0066551142" flag="0"/>
      <vel value="0.0017666509" flag="0"/>
      <psa03 value="0.0101847748" flag="0"/>
      <psa10 value="0.0011890905" flag="0"/>
      <psa30 value="0.0000887962" flag="0"/>
    </comp>
    <comp name="--.HHZ">
      <acc value="0.0038044240" flag="0"/>
      <vel value="0.0012656917" flag="0"/>
      <psa03 value="0.0063677495" flag="0"/>
      <psa10 value="0.0012237207" flag="0"/>
      <psa30 value="0.0000856158" flag="0"/>
    </comp>
    <comp name="--.HHN">
      <acc value="0.0075097476" flag="0"/>
      <vel value="0.0018502005" flag="0"/>
      <psa03 value="0.0106171467" flag="0"/>
      <psa10 value="0.0012245621" flag="0"/>
      <psa30 value="0.0000893336" flag="0"/>
    </comp>
  </station>
  <station code="AMT" name="AMT" netid="HP" insttype="CMG-3T," lat="37.5324" lon="21.7089">
    <comp name="00.HHE">
      <acc value="0.0085791986" flag="0"/>
      <vel value="0.0045670327" flag="0"/>
      <psa03 value="0.0257773682" flag="0"/>
      <psa10 value="0.0044282371" flag="0"/>
      <psa30 value="0.0002313954" flag="0"/>
    </comp>
    <comp name="00.HHN">
      <acc value="0.0085857531" flag="0"/>
      <vel value="0.0048541923" flag="0"/>
      <psa03 value="0.0224881571" flag="0"/>
      <psa10 value="0.0059205379" flag="0"/>
      <psa30 value="0.0003102213" flag="0"/>
    </comp>
    <comp name="00.HHZ">
      <acc value="0.0085731312" flag="0"/>
      <vel value="0.0029609873" flag="0"/>
      <psa03 value="0.0163031035" flag="0"/>
      <psa10 value="0.0018574815" flag="0"/>
      <psa30 value="0.0001671289" flag="0"/>
    </comp>
  </station>
  <station code="AXS" name="AXS" netid="HP" insttype="Compact," lat="38.1962" lon="21.3763">
    <comp name="--.HHE">
      <acc value="0.0141820943" flag="0"/>
      <vel value="0.0044138392" flag="0"/>
      <psa03 value="0.0236993562" flag="0"/>
      <psa10 value="0.0013742903" flag="0"/>
      <psa30 value="0.0001487912" flag="0"/>
    </comp>
    <comp name="--.HHZ">
      <acc value="0.0240916072" flag="0"/>
