<stationlist xmlns:esm="https://esm-db.eu/esmws/shakemap/1/" created="1783475637">
	<station code="KTHA" name="KTHA" netid="GE" source="GEOFON" insttype="" lat="36.2566" lon="23.0621" esm:processing="manual (Paolucci et al 2011)" esm:quality="good">
		<comp name="--.HNE" depth="0.0">
			<acc value="0.0101242256507759" flag="0"/>
			<vel value="0.00682426328222027" flag="0"/>
			<psa03 value="0.0199550241517492" flag="0"/>
			<psa10 value="0.0156561929398656" flag="0"/>
			<psa30 value="0.000825941134173296" flag="0"/>
		</comp>
		<comp name="--.HNN" depth="0.0">
			<acc value="0.00513951105569259" flag="0"/>
			<vel value="0.00462977135854852" flag="0"/>
			<psa03 value="0.0124383334398795" flag="0"/>
			<psa10 value="0.00625764501763149" flag="0"/>
			<psa30 value="0.00113242524950846" flag="0"/>
		</comp>
		<comp name="--.HNZ" depth="0.0">
			<acc value="0.00446989135335084" flag="0"/>
			<vel value="0.00199639382682924" flag="0"/>
			<psa03 value="0.0079193705714341" flag="0"/>
			<psa10 value="0.00358385075012357" flag="0"/>
			<psa30 value="0.000553013673801839" flag="0"/>
		</comp>
	</station>
	<station code="PYL1" name="PYL1" netid="HI" source="ITSAK Strong Motion Network" insttype="" lat="36.914188" lon="21.695161" esm:processing="manual (Paolucci et al 2011)" esm:quality="best">
		<comp name="--.HNE" depth="0.0">
			<acc value="0.0159383690757445" flag="0"/>
			<vel value="0.0102277785467941" flag="0"/>
			<psa03 value="0.0277562710084099" flag="0"/>
			<psa10 value="0.00821944668549023" flag="0"/>
			<psa30 value="0.000690726642668857" flag="0"/>
		</comp>
		<comp name="--.HNN" depth="0.0">
			<acc value="0.0129954037707357" flag="0"/>
			<vel value="0.00880515438155117" flag="0"/>
			<psa03 value="0.0470238546830245" flag="0"/>
			<psa10 value="0.00655497532870428" flag="0"/>
			<psa30 value="0.00076929439947643" flag="0"/>
		</comp>
		<comp name="--.HNZ" depth="0.0">
			<acc value="0.00996200643080703" flag="0"/>
			<vel value="0.00369026123247948" flag="0"/>
			<psa03 value="0.0211060244726265" flag="0"/>
			<psa10 value="0.00342374500942784" flag="0"/>
			<psa30 value="0.000398317818892331" flag="0"/>
		</comp>
	</station>
	<station code="ITM" name="ITM" netid="HL" source="National Observatory of Athens Seismic Network" insttype="" lat="37.17872" lon="21.92522" esm:processing="automatic (Paolucci et al 2011)" esm:quality="best">
		<comp name="00.HNE" depth="0.0">
			<acc value="0.00713588924285457" flag="0"/>
			<vel value="0.00415163951932524" flag="0"/>
			<psa03 value="0.0206708994576416" flag="0"/>
			<psa10 value="0.00427646010857441" flag="0"/>
			<psa30 value="0.000630865113317632" flag="0"/>
		</comp>
		<comp name="00.HNN" depth="0.0">
			<acc value="0.0102775359041698" flag="0"/>
			<vel value="0.00404178145383042" flag="0"/>
			<psa03 value="0.021073579317206" flag="0"/>
			<psa10 value="0.00380129787428837" flag="0"/>
			<psa30 value="0.000501112714124643" flag="0"/>
		</comp>
		<comp name="00.HNZ" depth="0.0">
			<acc value="0.00846001015408715" flag="0"/>
			<vel value="0.0027816344303644" flag="0"/>
			<psa03 value="0.0158387411428682" flag="0"/>
			<psa10 value="0.00325365326528072" flag="0"/>
			<psa30 value="0.000540933278014905" flag="0"/>
		</comp>
	</station>
	<station code="KTHA" name="KTHA" netid="HL" source="National Observatory of Athens Seismic Network" insttype="" lat="36.2566" lon="23.0621" esm:processing="manual (Paolucci et al 2011)" esm:quality="good">
		<comp name="--.HNE" depth="0.0">
			<acc value="0.00994185940982268" flag="0"/>
			<vel value="0.00668997730368586" flag="0"/>
			<psa03 value="0.0195908589961782" flag="0"/>
			<psa10 value="0.015337886059677" flag="0"/>
			<psa30 value="0.000762606873129331" flag="0"/>
		</comp>
		<comp name="--.HNN" depth="0.0">
			<acc value="0.00507668770880946" flag="0"/>
			<vel value="0.0045755027327638" flag="0"/>
			<psa03 value="0.0122097020620062" flag="0"/>
			<psa10 value="0.00614852340325008" flag="0"/>
			<psa30 value="0.00101812588334307" flag="0"/>
		</comp>
		<comp name="--.HNZ" depth="0.0">
			<acc value="0.00438230716723785" flag="0"/>
			<vel value="0.00189861015439147" flag="0"/>
			<psa03 value="0.00776063389557503" flag="0"/>
			<psa10 value="0.0035074810252791" flag="0"/>
			<psa30 value="0.00048259155265526" flag="0"/>
		</comp>
	</station>
	<station code="IMMV" name="IMMV" netid="GE" source="GEOFON" insttype="" lat="35.4606" lon="23.9811" esm:processing="discarded" esm:quality="good">
		<comp name="--.HNE" depth="0.0">
			<acc value="0" flag="1"/>
			<vel value="0" flag="1"/>
			<psa03 value="0" flag="1"/>
			<psa10 value="0" flag="1"/>
			<psa30 value="0" flag="1"/>
		</comp>
		<comp name="--.HNN" depth="0.0">
			<acc value="0" flag="1"/>
			<vel value="0" flag="1"/>
			<psa03 value="0" flag="1"/>
			<psa10 value="0" flag="1"/>
			<psa30 value="0" flag="1"/>
		</comp>
		<comp name="--.HNZ" depth="0.0">
			<acc value="0" flag="1"/>
			<vel value="0" flag="1"/>
			<psa03 value="0" flag="1"/>
			<psa10 value="0" flag="1"/>
			<psa30 value="0" flag="1"/>
		</comp>
	</station>
</stationlist>
