<?xml version="1.0" encoding="UTF-8" standalone="yes"?>
<!DOCTYPE earthquake SYSTEM "stationlist.dtd">
<stationlist created="" xmlns="ch.ethz.sed.shakemap.usgs.xml">
  <station code="KLMT" name="KLMT" netid="HC" source="NOA" insttype="120" lat="37.0613" lon="22.0597">
    <comp name="--.HHE">
      <acc value="0.0743548938" flag="0"/>
      <vel value="0.0434640686" flag="0"/>
      <psa03 value="0.1842354299" flag="0"/>
      <psa10 value="0.0552402745" flag="0"/>
      <psa30 value="0.0036494413" flag="0"/>
    </comp>
    <comp name="--.HHN">
      <acc value="0.0817858234" flag="0"/>
      <vel value="0.0381028022" flag="0"/>
      <psa03 value="0.2298441056" flag="0"/>
      <psa10 value="0.0327521507" flag="0"/>
      <psa30 value="0.0035796769" flag="0"/>
    </comp>
    <comp name="--.HHZ">
      <acc value="0.0563054076" flag="0"/>
      <vel value="0.0180275688" flag="0"/>
      <psa03 value="0.0821158558" flag="0"/>
      <psa10 value="0.0235805062" flag="0"/>
      <psa30 value="0.0022058422" flag="0"/>
    </comp>
  </station>
</stationlist>
