<stationlist xmlns:esm="https://esm-db.eu/esmws/shakemap/1/" created="1781661244">
	<station code="KTHA" name="KTHA" netid="GE" source="GEOFON" insttype="" lat="36.2566" lon="23.0621" esm:processing="manual (Paolucci et al 2011)" esm:quality="best">
		<comp name="--.HNE" depth="0.0">
			<acc value="0.00341938906108431" flag="0"/>
			<vel value="0.00197540471629364" flag="0"/>
			<psa03 value="0.0111408094479497" flag="0"/>
			<psa10 value="0.00293150937762917" flag="0"/>
			<psa30 value="0.000182548203002549" flag="0"/>
		</comp>
		<comp name="--.HNN" depth="0.0">
			<acc value="0.0022074194236339" flag="0"/>
			<vel value="0.00138400153572193" flag="0"/>
			<psa03 value="0.0055480336206657" flag="0"/>
			<psa10 value="0.00153421026494054" flag="0"/>
			<psa30 value="0.000142727639112287" flag="0"/>
		</comp>
		<comp name="--.HNZ" depth="0.0">
			<acc value="0.00187625973372789" flag="0"/>
			<vel value="0.000740695154899363" flag="0"/>
			<psa03 value="0.00474267390153681" flag="0"/>
			<psa10 value="0.000696636157046491" flag="0"/>
			<psa30 value="8.27730822438027e-05" flag="0"/>
		</comp>
	</station>
	<station code="PYL1" name="PYL1" netid="HI" source="ITSAK Strong Motion Network" insttype="" lat="36.914188" lon="21.695161" esm:processing="manual (Paolucci et al 2011)" esm:quality="best">
		<comp name="--.HNE" depth="0.0">
			<acc value="0.0326314118248043" flag="0"/>
			<vel value="0.0132555499212472" flag="0"/>
			<psa03 value="0.0512976065480694" flag="0"/>
			<psa10 value="0.00710951847071908" flag="0"/>
			<psa30 value="0.000615988983332014" flag="0"/>
		</comp>
		<comp name="--.HNN" depth="0.0">
			<acc value="0.0463483515582699" flag="0"/>
			<vel value="0.0145964091426162" flag="0"/>
			<psa03 value="0.0861341382557235" flag="0"/>
			<psa10 value="0.00786194909679463" flag="0"/>
			<psa30 value="0.00101896989758976" flag="0"/>
		</comp>
		<comp name="--.HNZ" depth="0.0">
			<acc value="0.0447422835643319" flag="0"/>
			<vel value="0.0125286261315135" flag="0"/>
			<psa03 value="0.0318885733990081" flag="0"/>
			<psa10 value="0.00455254752143554" flag="0"/>
			<psa30 value="0.000503097129801327" flag="0"/>
		</comp>
	</station>
	<station code="ITM" name="ITM" netid="HL" source="National Observatory of Athens Seismic Network" insttype="" lat="37.17872" lon="21.92522" esm:processing="automatic (Paolucci et al 2011)" esm:quality="best">
		<comp name="00.HNE" depth="0.0">
			<acc value="0.0107242233120165" flag="0"/>
			<vel value="0.00404313158808638" flag="0"/>
			<psa03 value="0.0235344006812109" flag="0"/>
			<psa10 value="0.00447780003835664" flag="0"/>
			<psa30 value="0.000309168647732258" flag="0"/>
		</comp>
		<comp name="00.HNN" depth="0.0">
			<acc value="0.0141173108429344" flag="0"/>
			<vel value="0.00438946651306811" flag="0"/>
			<psa03 value="0.019104922226002" flag="0"/>
			<psa10 value="0.00430062090014828" flag="0"/>
			<psa30 value="0.000373597425262569" flag="0"/>
		</comp>
		<comp name="00.HNZ" depth="0.0">
			<acc value="0.0194956295522756" flag="0"/>
			<vel value="0.00375621760818184" flag="0"/>
			<psa03 value="0.0146307015641749" flag="0"/>
			<psa10 value="0.00346304679225423" flag="0"/>
			<psa30 value="0.000455475663374006" flag="0"/>
		</comp>
	</station>
	<station code="KTHA" name="KTHA" netid="HL" source="National Observatory of Athens Seismic Network" insttype="" lat="36.2566" lon="23.0621" esm:processing="automatic (Paolucci et al 2011)" esm:quality="best">
		<comp name="--.HNE" depth="0.0">
			<acc value="0.0315573392388982" flag="0"/>
			<vel value="0.0149650784153641" flag="0"/>
			<psa03 value="0.0877367392116419" flag="0"/>
			<psa10 value="0.0187031846191705" flag="0"/>
			<psa30 value="0.000912217721613667" flag="0"/>
		</comp>
		<comp name="--.HNN" depth="0.0">
			<acc value="0.0171084746087165" flag="0"/>
			<vel value="0.00956259887818747" flag="0"/>
			<psa03 value="0.0474312983406285" flag="0"/>
			<psa10 value="0.00967727982228235" flag="0"/>
			<psa30 value="0.000614485237883437" flag="0"/>
		</comp>
		<comp name="--.HNZ" depth="0.0">
			<acc value="0.0137837682440775" flag="0"/>
			<vel value="0.00592556180805314" flag="0"/>
			<psa03 value="0.0402437753276006" flag="0"/>
			<psa10 value="0.00448044290109288" flag="0"/>
			<psa30 value="0.000295714303162984" flag="0"/>
		</comp>
	</station>
</stationlist>
