<?xml version="1.0" encoding="UTF-8" standalone="yes"?>
<!DOCTYPE earthquake SYSTEM "stationlist.dtd">
<stationlist created="" xmlns="ch.ethz.sed.shakemap.usgs.xml">
  <station code="KLMT" name="KLMT" netid="HC" source="NOA" insttype="120" lat="37.0613" lon="22.0597">
    <comp name="--.HHE">
      <acc value="0.0746353147" flag="0"/>
      <vel value="0.0355081186" flag="0"/>
      <psa03 value="0.1497385821" flag="0"/>
      <psa10 value="0.0394793121" flag="0"/>
      <psa30 value="0.0021996933" flag="0"/>
    </comp>
    <comp name="--.HHN">
      <acc value="0.1009875000" flag="0"/>
      <vel value="0.0527706325" flag="0"/>
      <psa03 value="0.1611480688" flag="0"/>
      <psa10 value="0.0374287411" flag="0"/>
      <psa30 value="0.0026358914" flag="0"/>
    </comp>
    <comp name="--.HHZ">
      <acc value="0.0555440126" flag="0"/>
      <vel value="0.0180731419" flag="0"/>
      <psa03 value="0.0932238956" flag="0"/>
      <psa10 value="0.0193975268" flag="0"/>
      <psa30 value="0.0011768219" flag="0"/>
    </comp>
  </station>
  <station code="ITM" name="ITM" netid="HL" source="NOA" insttype="STS2gen3_DR24" lat="37.1787" lon="21.9252">
    <comp name="--.HHE">
      <acc value="0.0098612287" flag="0"/>
      <vel value="0.0041572427" flag="0"/>
      <psa03 value="0.0238268608" flag="0"/>
      <psa10 value="0.0045093137" flag="0"/>
      <psa30 value="0.0003186984" flag="0"/>
    </comp>
    <comp name="--.HHN">
      <acc value="0.0144521277" flag="0"/>
      <vel value="0.0043786405" flag="0"/>
      <psa03 value="0.0193935610" flag="0"/>
      <psa10 value="0.0044877505" flag="0"/>
      <psa30 value="0.0003682409" flag="0"/>
    </comp>
    <comp name="--.HHZ">
      <acc value="0.0199386533" flag="0"/>
      <vel value="0.0040474747" flag="0"/>
      <psa03 value="0.0155841299" flag="0"/>
      <psa10 value="0.0038772067" flag="0"/>
      <psa30 value="0.0004758591" flag="0"/>
    </comp>
  </station>
  <station code="VLX" name="VLX" netid="HP" source="NOA" insttype="40," lat="37.3703" lon="22.3793">
    <comp name="--.HHE">
      <acc value="0.0046003077" flag="0"/>
      <vel value="0.0033913175" flag="0"/>
      <psa03 value="0.0097400303" flag="0"/>
      <psa10 value="0.0039000260" flag="0"/>
      <psa30 value="0.0002151001" flag="0"/>
    </comp>
    <comp name="--.HHN">
      <acc value="0.0042186191" flag="0"/>
      <vel value="0.0027018072" flag="0"/>
      <psa03 value="0.0130776245" flag="0"/>
      <psa10 value="0.0039143810" flag="0"/>
      <psa30 value="0.0002529641" flag="0"/>
    </comp>
    <comp name="--.HHZ">
      <acc value="0.0022226456" flag="0"/>
      <vel value="0.0017123069" flag="0"/>
      <psa03 value="0.0071272074" flag="0"/>
      <psa10 value="0.0021787336" flag="0"/>
      <psa30 value="0.0002673510" flag="0"/>
    </comp>
  </station>
</stationlist>
