<?xml version="1.0" encoding="UTF-8" standalone="yes"?>
<!DOCTYPE earthquake SYSTEM "stationlist.dtd">
<stationlist created="" xmlns="ch.ethz.sed.shakemap.usgs.xml">
  <station code="KARO" name="KARO" netid="KO" insttype="120s," lat="39.3089" lon="41.0493">
    <comp name="--.HHN">
      <acc value="0.6069349219" flag="0"/>
      <vel value="0.3487033297" flag="0"/>
      <psa03 value="1.5971534183" flag="0"/>
      <psa10 value="0.2049141905" flag="0"/>
      <psa30 value="0.0157873911" flag="0"/>
    </comp>
    <comp name="--.HHE">
      <acc value="0.6714859323" flag="0"/>
      <vel value="0.4753114467" flag="0"/>
      <psa03 value="1.7826102197" flag="0"/>
      <psa10 value="0.3512745031" flag="0"/>
      <psa30 value="0.0239431503" flag="0"/>
    </comp>
    <comp name="--.HHZ">
      <acc value="0.3193524224" flag="0"/>
      <vel value="0.1272680769" flag="0"/>
      <psa03 value="0.8960314611" flag="0"/>
      <psa10 value="0.0778680140" flag="0"/>
      <psa30 value="0.0056735752" flag="0"/>
    </comp>
  </station>
</stationlist>
