<stationlist created="1778069652">
	<station code="ARPRA" name="ARPRA" netid="KO" source="Bogazici University Kandilli Observatory And Earthquake Research Institute (KOERI)" insttype="" lat="39.0929" lon="38.3356">
		<comp name="--.HNE" depth="0.0">
			<acc value="0.00364291746897958" flag="0"/>
			<vel value="0.00396453380984853" flag="0"/>
			<psa03 value="0.00917215235674571" flag="0"/>
			<psa10 value="0.00598784951172331" flag="0"/>
			<psa30 value="0.000702005221840684" flag="0"/>
		</comp>
		<comp name="--.HNN" depth="0.0">
			<acc value="0.00390663182534298" flag="0"/>
			<vel value="0.00412943099317135" flag="0"/>
			<psa03 value="0.0105591607619121" flag="0"/>
			<psa10 value="0.00956364666465559" flag="0"/>
			<psa30 value="0.0012711260900251" flag="0"/>
		</comp>
		<comp name="--.HNZ" depth="0.0">
			<acc value="0.00273901969918215" flag="0"/>
			<vel value="0.00236512226537793" flag="0"/>
			<psa03 value="0.00384782976917137" flag="0"/>
			<psa10 value="0.00448988043414357" flag="0"/>
			<psa30 value="0.000887237957240329" flag="0"/>
		</comp>
	</station>
</stationlist>
