<?xml version="1.0" encoding="UTF-8" standalone="yes"?>
<!DOCTYPE earthquake SYSTEM "stationlist.dtd">
<stationlist created="" xmlns="ch.ethz.sed.shakemap.usgs.xml">
  <station code="ARG" name="ARG" netid="HL" insttype="LE3D20_DR24" lat="36.2136" lon="28.1212">
    <comp name="--.HHE">
      <acc value="0.1338045297" flag="0"/>
      <vel value="0.0374616358" flag="0"/>
      <psa03 value="0.2071637957" flag="0"/>
      <psa10 value="0.0229912253" flag="0"/>
      <psa30 value="0.0020084943" flag="0"/>
    </comp>
    <comp name="--.HHZ">
      <acc value="0.1004413924" flag="0"/>
      <vel value="0.0268276018" flag="0"/>
      <psa03 value="0.1165009206" flag="0"/>
      <psa10 value="0.0071815433" flag="0"/>
      <psa30 value="0.0005814246" flag="0"/>
    </comp>
    <comp name="--.HHN">
      <acc value="0.1119585284" flag="0"/>
      <vel value="0.0363708177" flag="0"/>
      <psa03 value="0.2226449636" flag="0"/>
      <psa10 value="0.0165431839" flag="0"/>
      <psa30 value="0.0015037097" flag="0"/>
    </comp>
  </station>
  <station code="NISR2" name="NISR2" netid="HL" insttype="120" lat="36.5744" lon="27.1767">
    <comp name="--.HHE">
      <acc value="0.0760310422" flag="0"/>
      <vel value="0.0315439034" flag="0"/>
      <psa03 value="0.2913843174" flag="0"/>
      <psa10 value="0.0205357116" flag="0"/>
      <psa30 value="0.0011219173" flag="0"/>
    </comp>
    <comp name="--.HHZ">
      <acc value="0.0445576270" flag="0"/>
      <vel value="0.0207281152" flag="0"/>
      <psa03 value="0.2067308717" flag="0"/>
      <psa10 value="0.0075240581" flag="0"/>
      <psa30 value="0.0005741838" flag="0"/>
    </comp>
    <comp name="--.HHN">
      <acc value="0.1128383040" flag="0"/>
      <vel value="0.0470270801" flag="0"/>
      <psa03 value="0.4963738099" flag="0"/>
      <psa10 value="0.0262964475" flag="0"/>
      <psa30 value="0.0016539168" flag="0"/>
    </comp>
  </station>
  <station code="CAME" name="CAME" netid="KO" insttype="CMG-5T" lat="36.9435" lon="29.3023">
    <comp name="--.HNZ">
      <acc value="0.0774187931" flag="0"/>
      <vel value="0.0248895180" flag="0"/>
      <psa03 value="0.0989601036" flag="0"/>
      <psa10 value="0.0072774031" flag="0"/>
      <psa30 value="0.0004383116" flag="0"/>
    </comp>
    <comp name="--.HNN">
      <acc value="0.1916226009" flag="0"/>
      <vel value="0.0666225165" flag="0"/>
      <psa03 value="0.3874075160" flag="0"/>
      <psa10 value="0.0224831927" flag="0"/>
      <psa30 value="0.0014395985" flag="0"/>
    </comp>
    <comp name="--.HNE">
      <acc value="0.1485615440" flag="0"/>
      <vel value="0.0603857483" flag="0"/>
      <psa03 value="0.3568860305" flag="0"/>
      <psa10 value="0.0181008528" flag="0"/>
      <psa30 value="0.0014421020" flag="0"/>
    </comp>
  </station>
  <station code="DALY" name="DALY" netid="KO" insttype="CMG-3T" lat="36.8162" lon="28.6532">
    <comp name="--.HHZ">
      <acc value="0.0304696957" flag="0"/>
      <vel value="0.0098247581" flag="0"/>
      <psa03 value="0.0382070876" flag="0"/>
      <psa10 value="0.0066197573" flag="0"/>
      <psa30 value="0.0003761972" flag="0"/>
    </comp>
    <comp name="--.HHE">
      <acc value="0.0827860988" flag="0"/>
      <vel value="0.0194830229" flag="0"/>
      <psa03 value="0.0738878303" flag="0"/>
      <psa10 value="0.0075561706" flag="0"/>
      <psa30 value="0.0004631524" flag="0"/>
    </comp>
  </station>
  <station code="DAT" name="DAT" netid="KO" insttype="CMG-3T" lat="36.7308" lon="27.5767">
    <comp name="--.HHE">
      <acc value="0.0519669546" flag="0"/>
      <vel value="0.0152551327" flag="0"/>
      <psa03 value="0.0581571008" flag="0"/>
      <psa10 value="0.0112392922" flag="0"/>
      <psa30 value="0.0007330179" flag="0"/>
    </comp>
    <comp name="--.HHN">
      <acc value="0.0880640136" flag="0"/>
      <vel value="0.0284987757" flag="0"/>
      <psa03 value="0.1604371386" flag="0"/>
      <psa10 value="0.0076344972" flag="0"/>
      <psa30 value="0.0005871254" flag="0"/>
    </comp>
    <comp name="--.HHZ">
      <acc value="0.0001626241" flag="0"/>
      <vel value="0.0000241877" flag="0"/>
      <psa03 value="0.0000598869" flag="0"/>
      <psa10 value="0.0000107290" flag="0"/>
      <psa30 value="0.0000020343" flag="0"/>
    </comp>
  </station>
  <station code="FETY" name="FETY" netid="KO" insttype="CMG-3ESP" lat="36.6353" lon="29.0835">
    <comp name="--.HHN">
      <acc value="0.0351030279" flag="0"/>
      <vel value="0.0203170322" flag="0"/>
      <psa03 value="0.0520584533" flag="0"/>
      <psa10 value="0.0130531922" flag="0"/>
      <psa30 value="0.0010190896" flag="0"/>
    </comp>
    <comp name="--.HHE">
      <acc value="0.0479469357" flag="0"/>
      <vel value="0.0160302744" flag="0"/>
      <psa03 value="0.0703285325" flag="0"/>
      <psa10 value="0.0144100896" flag="0"/>
      <psa30 value="0.0010772245" flag="0"/>
    </comp>
    <comp name="--.HHZ">
      <acc value="0.0221785069" flag="0"/>
      <vel value="0.0085029457" flag="0"/>
      <psa03 value="0.0384260780" flag="0"/>
      <psa10 value="0.0063730040" flag="0"/>
      <psa30 value="0.0003906349" flag="0"/>
    </comp>
  </station>
  <station code="MLSB" name="MLSB" netid="KO" insttype="CMG-3ESP" lat="37.2953" lon="27.7767">
    <comp name="--.HHN">
      <acc value="0.0075050763" flag="0"/>
      <vel value="0.0030605913" flag="0"/>
      <psa03 value="0.0161256638" flag="0"/>
      <psa10 value="0.0013051835" flag="0"/>
      <psa30 value="0.0001423072" flag="0"/>
    </comp>
    <comp name="--.HHZ">
      <acc value="0.0051869975" flag="0"/>
      <vel value="0.0020226754" flag="0"/>
      <psa03 value="0.0155967966" flag="0"/>
      <psa10 value="0.0014322905" flag="0"/>
      <psa30 value="0.0000965246" flag="0"/>
    </comp>
    <comp name="--.HHE">
      <acc value="0.0091594264" flag="0"/>
      <vel value="0.0027497200" flag="0"/>
      <psa03 value="0.0150074468" flag="0"/>
      <psa10 value="0.0016596763" flag="0"/>
      <psa30 value="0.0002217488" flag="0"/>
    </comp>
  </station>
  <station code="YER" name="YER" netid="KO" insttype="CMG-3T" lat="37.1336" lon="28.284">
    <comp name="--.HHE">
      <acc value="0.0307026941" flag="0"/>
      <vel value="0.0062814269" flag="0"/>
      <psa03 value="0.0208197436" flag="0"/>
      <psa10 value="0.0025015521" flag="0"/>
      <psa30 value="0.0001790226" flag="0"/>
    </comp>
    <comp name="--.HHN">
      <acc value="0.0296911157" flag="0"/>
      <vel value="0.0063402626" flag="0"/>
      <psa03 value="0.0391661583" flag="0"/>
      <psa10 value="0.0048216432" flag="0"/>
      <psa30 value="0.0004413564" flag="0"/>
    </comp>
    <comp name="--.HHZ">
      <acc value="0.0177272212" flag="0"/>
      <vel value="0.0044490669" flag="0"/>
      <psa03 value="0.0252659619" flag="0"/>
      <psa10 value="0.0020380616" flag="0"/>
      <psa30 value="0.0001848640" flag="0"/>
    </comp>
  </station>
</stationlist>
