<?xml version="1.0" encoding="UTF-8" standalone="yes"?>
<!DOCTYPE earthquake SYSTEM "stationlist.dtd">
<stationlist created="" xmlns="ch.ethz.sed.shakemap.usgs.xml">
  <station code="CAME" name="CAME" netid="KO" insttype="CMG-5T" lat="36.9435" lon="29.3023">
    <comp name="--.HNZ">
      <acc value="0.0774187931" flag="0"/>
      <vel value="0.0248895180" flag="0"/>
      <psa03 value="0.0989601036" flag="0"/>
      <psa10 value="0.0072774031" flag="0"/>
      <psa30 value="0.0004383116" flag="0"/>
    </comp>
    <comp name="--.HNN">
      <acc value="0.1916226009" flag="0"/>
      <vel value="0.0666225165" flag="0"/>
      <psa03 value="0.3874075160" flag="0"/>
      <psa10 value="0.0224831927" flag="0"/>
      <psa30 value="0.0014395985" flag="0"/>
    </comp>
    <comp name="--.HNE">
      <acc value="0.1485615440" flag="0"/>
      <vel value="0.0603857483" flag="0"/>
      <psa03 value="0.3568860305" flag="0"/>
      <psa10 value="0.0181008528" flag="0"/>
      <psa30 value="0.0014421020" flag="0"/>
    </comp>
  </station>
  <station code="DALY" name="DALY" netid="KO" insttype="CMG-3T" lat="36.8162" lon="28.6532">
    <comp name="--.HHZ">
      <acc value="0.0304696956" flag="0"/>
      <vel value="0.0098247578" flag="0"/>
      <psa03 value="0.0382070876" flag="0"/>
      <psa10 value="0.0066197573" flag="0"/>
      <psa30 value="0.0003761885" flag="0"/>
    </comp>
    <comp name="--.HHE">
      <acc value="0.0827860989" flag="0"/>
      <vel value="0.0194830225" flag="0"/>
      <psa03 value="0.0738878303" flag="0"/>
      <psa10 value="0.0075561706" flag="0"/>
      <psa30 value="0.0004631441" flag="0"/>
    </comp>
  </station>
  <station code="DAT" name="DAT" netid="KO" insttype="CMG-3T" lat="36.7308" lon="27.5767">
    <comp name="--.HHZ">
      <acc value="0.0001626240" flag="0"/>
      <vel value="0.0000241879" flag="0"/>
      <psa03 value="0.0000598869" flag="0"/>
      <psa10 value="0.0000107289" flag="0"/>
      <psa30 value="0.0000020343" flag="0"/>
    </comp>
    <comp name="--.HHN">
      <acc value="0.0880640136" flag="0"/>
      <vel value="0.0284987756" flag="0"/>
      <psa03 value="0.1604371386" flag="0"/>
      <psa10 value="0.0076344969" flag="0"/>
      <psa30 value="0.0005870819" flag="0"/>
    </comp>
    <comp name="--.HHE">
      <acc value="0.0519669546" flag="0"/>
      <vel value="0.0152551324" flag="0"/>
      <psa03 value="0.0581571008" flag="0"/>
      <psa10 value="0.0112392922" flag="0"/>
      <psa30 value="0.0007330102" flag="0"/>
    </comp>
  </station>
  <station code="FETY" name="FETY" netid="KO" insttype="CMG-3ESP" lat="36.6353" lon="29.0835">
    <comp name="--.HHE">
      <acc value="0.0479469357" flag="0"/>
      <vel value="0.0160302746" flag="0"/>
      <psa03 value="0.0703285325" flag="0"/>
      <psa10 value="0.0144100897" flag="0"/>
      <psa30 value="0.0010772325" flag="0"/>
    </comp>
    <comp name="--.HHN">
      <acc value="0.0351030278" flag="0"/>
      <vel value="0.0203170354" flag="0"/>
      <psa03 value="0.0520584533" flag="0"/>
      <psa10 value="0.0130531922" flag="0"/>
      <psa30 value="0.0010190853" flag="0"/>
    </comp>
    <comp name="--.HHZ">
      <acc value="0.0221785069" flag="0"/>
      <vel value="0.0085029408" flag="0"/>
      <psa03 value="0.0384260780" flag="0"/>
      <psa10 value="0.0063730040" flag="0"/>
      <psa30 value="0.0003906328" flag="0"/>
    </comp>
  </station>
  <station code="MLSB" name="MLSB" netid="KO" insttype="CMG-3ESP" lat="37.2953" lon="27.7767">
    <comp name="--.HHN">
      <acc value="0.0075050763" flag="0"/>
      <vel value="0.0030605913" flag="0"/>
      <psa03 value="0.0161256638" flag="0"/>
      <psa10 value="0.0013051835" flag="0"/>
      <psa30 value="0.0001423072" flag="0"/>
    </comp>
    <comp name="--.HHZ">
      <acc value="0.0051869975" flag="0"/>
      <vel value="0.0020226754" flag="0"/>
      <psa03 value="0.0155967966" flag="0"/>
      <psa10 value="0.0014322905" flag="0"/>
      <psa30 value="0.0000965246" flag="0"/>
    </comp>
    <comp name="--.HHE">
      <acc value="0.0091594264" flag="0"/>
      <vel value="0.0027497200" flag="0"/>
      <psa03 value="0.0150074468" flag="0"/>
      <psa10 value="0.0016596763" flag="0"/>
      <psa30 value="0.0002217488" flag="0"/>
    </comp>
  </station>
  <station code="YER" name="YER" netid="KO" insttype="CMG-3T" lat="37.1336" lon="28.284">
    <comp name="--.HHE">
      <acc value="0.0307026941" flag="0"/>
      <vel value="0.0062814272" flag="0"/>
      <psa03 value="0.0208197436" flag="0"/>
      <psa10 value="0.0025015521" flag="0"/>
      <psa30 value="0.0001790163" flag="0"/>
    </comp>
    <comp name="--.HHN">
      <acc value="0.0296911155" flag="0"/>
      <vel value="0.0063402625" flag="0"/>
      <psa03 value="0.0391661583" flag="0"/>
      <psa10 value="0.0048216432" flag="0"/>
      <psa30 value="0.0004413439" flag="0"/>
    </comp>
    <comp name="--.HHZ">
      <acc value="0.0177272212" flag="0"/>
      <vel value="0.0044490669" flag="0"/>
      <psa03 value="0.0252659619" flag="0"/>
      <psa10 value="0.0020380616" flag="0"/>
      <psa30 value="0.0001848608" flag="0"/>
    </comp>
  </station>
</stationlist>
