<?xml version="1.0" encoding="UTF-8" standalone="yes"?>
<!DOCTYPE earthquake SYSTEM "stationlist.dtd">
<stationlist created="" xmlns="ch.ethz.sed.shakemap.usgs.xml">
  <station code="THL" name="THL" netid="MN" insttype="" lat="39.5647" lon="22.0144">
    <comp name="--.HHE">
      <acc value="0.0390868152" flag="0"/>
      <vel value="0.0428351671" flag="0"/>
      <psa03 value="0.0848441629" flag="0"/>
      <psa10 value="0.0511364921" flag="0"/>
      <psa30 value="0.0211687986" flag="0"/>
    </comp>
    <comp name="--.HHZ">
      <acc value="0.0259407370" flag="0"/>
      <vel value="0.0378708842" flag="0"/>
      <psa03 value="0.0828943332" flag="0"/>
      <psa10 value="0.0582192069" flag="0"/>
      <psa30 value="0.0208187748" flag="0"/>
    </comp>
    <comp name="--.HHN">
      <acc value="0.0442703293" flag="0"/>
      <vel value="0.0512262691" flag="0"/>
      <psa03 value="0.1096555675" flag="0"/>
      <psa10 value="0.0680667791" flag="0"/>
      <psa30 value="0.0213977513" flag="0"/>
    </comp>
  </station>
</stationlist>
