<stationlist created="1730719924">
	<station code="LSK" name="LSK" netid="AC" source="Albanian Seismological Network (AC)" insttype="" lat="40.149899" lon="20.5987">
		<comp name="00.HHE" depth="0.0">
			<acc value="0.000174301379253" flag="0"/>
			<vel value="0.000296970528878" flag="0"/>
			<psa03 value="0.000232838239332012" flag="0"/>
			<psa10 value="0.000437227167278618" flag="0"/>
			<psa30 value="0.000142002597079478" flag="0"/>
		</comp>
		<comp name="00.HHN" depth="0.0">
			<acc value="0.00019828576181094" flag="0"/>
			<vel value="0.000370803240129" flag="0"/>
			<psa03 value="0.000349873722664413" flag="0"/>
			<psa10 value="0.000597756610158789" flag="0"/>
			<psa30 value="0.000201964928664295" flag="0"/>
		</comp>
		<comp name="00.HHZ" depth="0.0">
			<acc value="0.00013476711684822" flag="0"/>
			<vel value="0.000244846007252" flag="0"/>
			<psa03 value="0.000148292396071815" flag="0"/>
			<psa10 value="0.000346218950931484" flag="0"/>
			<psa30 value="0.000153963662878795" flag="0"/>
		</comp>
	</station>
	<station code="PHP" name="PHP" netid="AC" source="Albanian Seismological Network (AC)" insttype="" lat="41.6847" lon="20.4408">
		<comp name="00.HHE" depth="0.0">
			<acc value="0.0043506690104286" flag="0"/>
			<vel value="0.00966957547097" flag="0"/>
			<psa03 value="0.00849326250674541" flag="0"/>
			<psa10 value="0.0119003136498868" flag="0"/>
			<psa30 value="0.00497928735334001" flag="0"/>
		</comp>
		<comp name="00.HHN" depth="0.0">
			<acc value="0.0056059258686414" flag="0"/>
			<vel value="0.0129895023993" flag="0"/>
			<psa03 value="0.00974023964411874" flag="0"/>
			<psa10 value="0.0147850750636627" flag="0"/>
			<psa30 value="0.00635388549704286" flag="0"/>
		</comp>
		<comp name="00.HHZ" depth="0.0">
			<acc value="0.0046427963108106" flag="0"/>
			<vel value="0.00983806492192" flag="0"/>
			<psa03 value="0.00893009352797493" flag="0"/>
			<psa10 value="0.0085459339386701" flag="0"/>
			<psa30 value="0.00460347162405927" flag="0"/>
		</comp>
		<comp name="01.HNE" depth="0.0">
			<acc value="0.007585207329276" flag="0"/>
			<vel value="0.0172552879821" flag="0"/>
			<psa03 value="0.0142822950903084" flag="0"/>
			<psa10 value="0.0181572890813003" flag="0"/>
			<psa30 value="0.00834662292281877" flag="0"/>
		</comp>
		<comp name="01.HNN" depth="0.0">
			<acc value="0.0093033114743052" flag="0"/>
			<vel value="0.0217031747134" flag="0"/>
			<psa03 value="0.0152174820418501" flag="0"/>
			<psa10 value="0.0237415440107626" flag="0"/>
			<psa30 value="0.0105826360477135" flag="0"/>
		</comp>
		<comp name="01.HNZ" depth="0.0">
			<acc value="0.0076282407583632" flag="0"/>
			<vel value="0.0164388565517" flag="0"/>
			<psa03 value="0.014488100390565" flag="0"/>
			<psa10 value="0.0139546397388953" flag="0"/>
			<psa30 value="0.00766510860916035" flag="0"/>
		</comp>
	</station>
	<station code="TRAN" name="TRAN" netid="BS" source="National Seismic Network of Bulgaria (BS)" insttype="" lat="42.834599" lon="22.651199">
		<comp name=".HNE" depth="0.0">
			<acc value="0.045219033426546" flag="0"/>
			<vel value="0.0581470830943" flag="0"/>
			<psa03 value="0.100570037271463" flag="0"/>
			<psa10 value="0.0915265831867618" flag="0"/>
			<psa30 value="0.0169014146357777" flag="0"/>
		</comp>
		<comp name=".HNN" depth="0.0">
			<acc value="0.047548444209888" flag="0"/>
			<vel value="0.0536803987372" flag="0"/>
			<psa03 value="0.111577933157149" flag="0"/>
			<psa10 value="0.0654064403557524" flag="0"/>
			<psa30 value="0.0100932811303256" flag="0"/>
		</comp>
		<comp name=".HNZ" depth="0.0">
			<acc value="0.024641568291312" flag="0"/>
			<vel value="0.0346095640657" flag="0"/>
			<psa03 value="0.0336813744549362" flag="0"/>
			<psa10 value="0.060214622673068" flag="0"/>
			<psa30 value="0.00923599517266497" flag="0"/>
		</comp>
	</station>
	<station code="AGRP" name="AGRP" netid="CL" source="Corinth Riff Laboratory (CRLNET)" insttype="" lat="38.3959" lon="21.72277">
		<comp name="00.HNE" depth="0.0">
			<acc value="0.014560675179696" flag="0"/>
			<vel value="0.0224073710332" flag="0"/>
			<psa03 value="0.029440132555964" flag="0"/>
			<psa10 value="0.0408312986229515" flag="0"/>
			<psa30 value="0.0111799247818235" flag="0"/>
		</comp>
		<comp name="00.HNN" depth="0.0">
			<acc value="0.018618440567916" flag="0"/>
			<vel value="0.0264639119561" flag="0"/>
			<psa03 value="0.0253797489921296" flag="0"/>
			<psa10 value="0.0356450425591474" flag="0"/>
			<psa30 value="0.0110961734003597" flag="0"/>
		</comp>
		<comp name="00.HNZ" depth="0.0">
			<acc value="0.0099065313157434" flag="0"/>
			<vel value="0.0184991765074" flag="0"/>
			<psa03 value="0.0160980403744834" flag="0"/>
			<psa10 value="0.0272478819134551" flag="0"/>
			<psa30 value="0.00952697278185746" flag="0"/>
		</comp>
	</station>
	<station code="MALA" name="MALA" netid="CL" source="Corinth Riff Laboratory (CRLNET)" insttype="" lat="38.39341" lon="21.87263">
		<comp name="00.HNE" depth="0.0">
			<acc value="0.054141062406654" flag="0"/>
			<vel value="0.0842727105248" flag="0"/>
			<psa03 value="0.063845521118984" flag="0"/>
			<psa10 value="0.186153181734575" flag="0"/>
			<psa30 value="0.0289102418283212" flag="0"/>
		</comp>
		<comp name="00.HNN" depth="0.0">
			<acc value="0.033287305295496" flag="0"/>
			<vel value="0.0582167200814" flag="0"/>
			<psa03 value="0.0424061920145915" flag="0"/>
			<psa10 value="0.0816623122274876" flag="0"/>
			<psa30 value="0.026670856813377" flag="0"/>
		</comp>
		<comp name="00.HNZ" depth="0.0">
			<acc value="0.023392742915844" flag="0"/>
			<vel value="0.0427062076043" flag="0"/>
			<psa03 value="0.033378732010516" flag="0"/>
			<psa10 value="0.0380079203382053" flag="0"/>
			<psa30 value="0.0170466309222824" flag="0"/>
		</comp>
	</station>
	<station code="ROD3" name="ROD3" netid="CL" source="Corinth Riff Laboratory (CRLNET)" insttype="" lat="38.30811" lon="21.89204">
		<comp name="00.HNE" depth="0.0">
			<acc value="0.012058551790674" flag="0"/>
			<vel value="0.0225124303592" flag="0"/>
			<psa03 value="0.053916165431319" flag="0"/>
			<psa10 value="0.0291707655450367" flag="0"/>
			<psa30 value="0.00917526698308927" flag="0"/>
		</comp>
		<comp name="00.HNN" depth="0.0">
			<acc value="0.018693554041728" flag="0"/>
			<vel value="0.0282598360093" flag="0"/>
			<psa03 value="0.0546673297755164" flag="0"/>
			<psa10 value="0.0205073485112055" flag="0"/>
			<psa30 value="0.0108819108731752" flag="0"/>
		</comp>
		<comp name="00.HNZ" depth="0.0">
			<acc value="0.0098098196209218" flag="0"/>
			<vel value="0.0103274075345" flag="0"/>
			<psa03 value="0.0224365904806553" flag="0"/>
			<psa10 value="0.014049838857886" flag="0"/>
			<psa30 value="0.00428971167234394" flag="0"/>
		</comp>
	</station>
	<station code="TRIZ" name="TRIZ" netid="CL" source="Corinth Riff Laboratory (CRLNET)" insttype="" lat="38.36543" lon="22.07272">
		<comp name="00.HNE" depth="0.0">
			<acc value="0.014744228067732" flag="0"/>
			<vel value="0.023088693567" flag="0"/>
			<psa03 value="0.0201914313332104" flag="0"/>
			<psa10 value="0.0322094137155706" flag="0"/>
			<psa30 value="0.0120832487892639" flag="0"/>
		</comp>
		<comp name="00.HNN" depth="0.0">
			<acc value="0.02222455072644" flag="0"/>
			<vel value="0.0388034678017" flag="0"/>
			<psa03 value="0.0488969423072467" flag="0"/>
			<psa10 value="0.0369060373438374" flag="0"/>
			<psa30 value="0.0205433858985132" flag="0"/>
		</comp>
		<comp name="00.HNZ" depth="0.0">
			<acc value="0.009555582760503" flag="0"/>
			<vel value="0.0174343778332" flag="0"/>
			<psa03 value="0.0147165373983794" flag="0"/>
			<psa10 value="0.0136601402297458" flag="0"/>
			<psa30 value="0.00813141199946531" flag="0"/>
		</comp>
	</station>
	<station code="MMAA" name="MMAA" netid="EG" source="EUROSEISTEST Strong Motion Network" insttype="" lat="40.630855" lon="22.943725">
		<comp name=".EN1" depth="0.0">
			<acc value="1.428409047846" flag="0"/>
			<vel value="0.737209721633" flag="0"/>
			<psa03 value="3.72295329405033" flag="0"/>
			<psa10 value="0.847873807476751" flag="0"/>
			<psa30 value="0.0430146461758485" flag="0"/>
		</comp>
		<comp name=".EN2" depth="0.0">
			<acc value="1.4639857926576" flag="0"/>
			<vel value="0.976228856044" flag="0"/>
			<psa03 value="4.44177091219187" flag="0"/>
			<psa10 value="1.60244083384139" flag="0"/>
			<psa30 value="0.0493802045296809" flag="0"/>
		</comp>
		<comp name=".EN3" depth="0.0">
			<acc value="1.3478541376938" flag="0"/>
			<vel value="0.436173655346" flag="0"/>
			<psa03 value="2.21014957822845" flag="0"/>
			<psa10 value="0.492772083731729" flag="0"/>
			<psa30 value="0.0253145052950813" flag="0"/>
		</comp>
	</station>
	<station code="STC" name="STC" netid="EG" source="EUROSEISTEST Strong Motion Network" insttype="" lat="40.64865" lon="23.304856">
		<comp name=".EN1" depth="0.0">
			<acc value="1.9845465038358" flag="0"/>
			<vel value="1.64954446991" flag="0"/>
			<psa03 value="5.58812785272356" flag="0"/>
			<psa10 value="2.35642978190691" flag="0"/>
			<psa30 value="0.115706918348737" flag="0"/>
		</comp>
		<comp name=".EN2" depth="0.0">
			<acc value="1.902013922538" flag="0"/>
			<vel value="0.985545724092" flag="0"/>
			<psa03 value="3.66358269437335" flag="0"/>
			<psa10 value="1.55363372060867" flag="0"/>
			<psa30 value="0.0779890463914608" flag="0"/>
		</comp>
		<comp name=".EN3" depth="0.0">
			<acc value="1.4817106329252" flag="0"/>
			<vel value="1.19356792072" flag="0"/>
			<psa03 value="3.2401893133078" flag="0"/>
			<psa10 value="1.81317551398081" flag="0"/>
			<psa30 value="0.116939173312997" flag="0"/>
		</comp>
	</station>
	<station code="ATHU" name="ATHU" netid="HA" source="Hellenic Seismological Network, University of Athens, Seismological Laboratory (HA)" insttype="" lat="37.9665" lon="23.7845">
		<comp name=".HNE" depth="0.0">
			<acc value="0.00042934522055742" flag="0"/>
			<vel value="0.000800475804574" flag="0"/>
			<psa03 value="0.00150524685063527" flag="0"/>
			<psa10 value="0.00066425185498979" flag="0"/>
			<psa30 value="0.000599761970868193" flag="0"/>
		</comp>
		<comp name=".HNN" depth="0.0">
			<acc value="0.00026099716057584" flag="0"/>
			<vel value="0.000962993086022" flag="0"/>
			<psa03 value="0.000568751259334483" flag="0"/>
			<psa10 value="0.000514062198629387" flag="0"/>
			<psa30 value="0.000530699114543552" flag="0"/>
		</comp>
		<comp name=".HNZ" depth="0.0">
			<acc value="0.00035234109084918" flag="0"/>
			<vel value="0.000657977425942" flag="0"/>
			<psa03 value="0.000888639922719086" flag="0"/>
			<psa10 value="0.000518029199704807" flag="0"/>
			<psa30 value="0.000483246075182187" flag="0"/>
		</comp>
	</station>
	<station code="KIAS" name="KIAS" netid="HA" source="Hellenic Seismological Network, University of Athens, Seismological Laboratory (HA)" insttype="" lat="37.9875" lon="22.7543">
		<comp name=".HNE" depth="0.0">
			<acc value="0.020265225433338" flag="0"/>
			<vel value="0.0570526435693" flag="0"/>
			<psa03 value="0.0382758767348287" flag="0"/>
			<psa10 value="0.0616033809217745" flag="0"/>
			<psa30 value="0.0263663933108124" flag="0"/>
		</comp>
		<comp name=".HNN" depth="0.0">
			<acc value="0.020006078599674" flag="0"/>
			<vel value="0.0448443021219" flag="0"/>
			<psa03 value="0.038773735236321" flag="0"/>
			<psa10 value="0.0619383831138434" flag="0"/>
			<psa30 value="0.0295802362121285" flag="0"/>
		</comp>
		<comp name=".HNZ" depth="0.0">
			<acc value="0.022041739811802" flag="0"/>
			<vel value="0.0288540370168" flag="0"/>
			<psa03 value="0.0400564087488068" flag="0"/>
			<psa10 value="0.0288122305438563" flag="0"/>
			<psa30 value="0.0146918565967283" flag="0"/>
		</comp>
	</station>
	<station code="AIG2" name="AIG2" netid="HI" source="ITSAK Strong Motion Network" insttype="" lat="38.2417" lon="22.0726">
		<comp name=".HNE" depth="0.0">
			<acc value="0.02538371950224" flag="0"/>
			<vel value="0.039392599777" flag="0"/>
			<psa03 value="0.0194351169081931" flag="0"/>
			<psa10 value="0.0204102958319357" flag="0"/>
			<psa30 value="0.0179456521447316" flag="0"/>
		</comp>
		<comp name=".HNN" depth="0.0">
			<acc value="0.011142818401014" flag="0"/>
			<vel value="0.0365947383659" flag="0"/>
			<psa03 value="0.0204261721440714" flag="0"/>
			<psa10 value="0.0174498009636596" flag="0"/>
			<psa30 value="0.0225752338317764" flag="0"/>
		</comp>
		<comp name=".HNZ" depth="0.0">
			<acc value="0.013046975881296" flag="0"/>
			<vel value="0.0232100545269" flag="0"/>
			<psa03 value="0.0163035175280142" flag="0"/>
			<psa10 value="0.0147874536587211" flag="0"/>
			<psa30 value="0.0109861044421824" flag="0"/>
		</comp>
	</station>
	<station code="AOL1" name="AOL1" netid="HI" source="ITSAK Strong Motion Network" insttype="" lat="37.642378" lon="21.624555">
		<comp name=".HNE" depth="0.0">
			<acc value="0.012044957072676" flag="0"/>
			<vel value="0.0308163578883" flag="0"/>
			<psa03 value="0.0198524505440857" flag="0"/>
			<psa10 value="0.0292968395218506" flag="0"/>
			<psa30 value="0.018785352770781" flag="0"/>
		</comp>
		<comp name=".HNN" depth="0.0">
			<acc value="0.010589402022474" flag="0"/>
			<vel value="0.0316688346842" flag="0"/>
			<psa03 value="0.0137860395595306" flag="0"/>
			<psa10 value="0.0251105778275452" flag="0"/>
			<psa30 value="0.0156399944061922" flag="0"/>
		</comp>
		<comp name=".HNZ" depth="0.0">
			<acc value="0.0057406317854988" flag="0"/>
			<vel value="0.0133961374336" flag="0"/>
			<psa03 value="0.00851704403008778" flag="0"/>
			<psa10 value="0.0155062759646915" flag="0"/>
			<psa30 value="0.00545169739821174" flag="0"/>
		</comp>
	</station>
	<station code="ARG2" name="ARG2" netid="HI" source="ITSAK Strong Motion Network" insttype="" lat="38.1783" lon="20.4878">
		<comp name=".HNE" depth="0.0">
			<acc value="0.0091984427671452" flag="0"/>
			<vel value="0.0168165518023" flag="0"/>
			<psa03 value="0.0187671325533427" flag="0"/>
			<psa10 value="0.014282532397657" flag="0"/>
			<psa30 value="0.00792296985788757" flag="0"/>
		</comp>
		<comp name=".HNN" depth="0.0">
			<acc value="0.0094183199203548" flag="0"/>
			<vel value="0.0176949913609" flag="0"/>
			<psa03 value="0.0173203374915388" flag="0"/>
			<psa10 value="0.0196296272414872" flag="0"/>
			<psa30 value="0.0106910140605441" flag="0"/>
		</comp>
		<comp name=".HNZ" depth="0.0">
			<acc value="0.0067234556623272" flag="0"/>
			<vel value="0.0164253327423" flag="0"/>
			<psa03 value="0.0139426879575835" flag="0"/>
			<psa10 value="0.0125533537855738" flag="0"/>
			<psa30 value="0.00470486584093694" flag="0"/>
		</comp>
	</station>
	<station code="ARS1" name="ARS1" netid="HI" source="ITSAK Strong Motion Network" insttype="" lat="37.6349" lon="22.7293">
		<comp name=".HNE" depth="0.0">
			<acc value="0.012378947742744" flag="0"/>
			<vel value="0.0174154158572" flag="0"/>
			<psa03 value="0.0207614873258173" flag="0"/>
			<psa10 value="0.0206728601005087" flag="0"/>
			<psa30 value="0.00987068138420724" flag="0"/>
		</comp>
		<comp name=".HNN" depth="0.0">
			<acc value="0.0101483991128388" flag="0"/>
			<vel value="0.017086062614" flag="0"/>
			<psa03 value="0.0251423686835132" flag="0"/>
			<psa10 value="0.0280472792446003" flag="0"/>
			<psa30 value="0.00953406325155301" flag="0"/>
		</comp>
		<comp name=".HNZ" depth="0.0">
			<acc value="0.0090955098049896" flag="0"/>
			<vel value="0.0198154483647" flag="0"/>
			<psa03 value="0.0196489019037303" flag="0"/>
			<psa10 value="0.0125901315344248" flag="0"/>
			<psa30 value="0.0134260652442474" flag="0"/>
		</comp>
	</station>
	<station code="ART2" name="ART2" netid="HI" source="ITSAK Strong Motion Network" insttype="" lat="39.1474" lon="20.9937">
		<comp name=".HNE" depth="0.0">
			<acc value="0.01188985622325" flag="0"/>
			<vel value="0.0157517031026" flag="0"/>
			<psa03 value="0.0241469563881993" flag="0"/>
			<psa10 value="0.0255355466046451" flag="0"/>
			<psa30 value="0.00786463766032136" flag="0"/>
		</comp>
		<comp name=".HNN" depth="0.0">
			<acc value="0.0089901177472434" flag="0"/>
			<vel value="0.0202098592875" flag="0"/>
			<psa03 value="0.0186766317664316" flag="0"/>
			<psa10 value="0.0172736405439262" flag="0"/>
			<psa30 value="0.0112581666316331" flag="0"/>
		</comp>
		<comp name=".HNZ" depth="0.0">
			<acc value="0.0060265839676818" flag="0"/>
			<vel value="0.017981559068" flag="0"/>
			<psa03 value="0.0163504959005449" flag="0"/>
			<psa10 value="0.0152686011573947" flag="0"/>
			<psa30 value="0.00587312073209942" flag="0"/>
		</comp>
	</station>
	<station code="ATH5" name="ATH5" netid="HI" source="ITSAK Strong Motion Network" insttype="" lat="37.975421" lon="23.737098">
		<comp name=".HNE" depth="0.0">
			<acc value="0.011039223172524" flag="0"/>
			<vel value="0.0196094955144" flag="0"/>
			<psa03 value="0.0316574148567233" flag="0"/>
			<psa10 value="0.0256170132514172" flag="0"/>
			<psa30 value="0.0159376691256934" flag="0"/>
		</comp>
		<comp name=".HNN" depth="0.0">
			<acc value="0.014433830021634" flag="0"/>
			<vel value="0.0230202848244" flag="0"/>
			<psa03 value="0.0625913026166757" flag="0"/>
			<psa10 value="0.0283187897308496" flag="0"/>
			<psa30 value="0.0106425850190096" flag="0"/>
		</comp>
		<comp name=".HNZ" depth="0.0">
			<acc value="0.007032237012495" flag="0"/>
			<vel value="0.0199579606018" flag="0"/>
			<psa03 value="0.0246972011725582" flag="0"/>
			<psa10 value="0.0164628068301417" flag="0"/>
			<psa30 value="0.0181417668030287" flag="0"/>
		</comp>
	</station>
	<station code="DRA2" name="DRA2" netid="HI" source="ITSAK Strong Motion Network" insttype="" lat="41.1593" lon="24.1485">
		<comp name=".HNE" depth="0.0">
			<acc value="0.26075717162106" flag="0"/>
			<vel value="0.150610634489" flag="0"/>
			<psa03 value="0.524016630198159" flag="0"/>
			<psa10 value="0.0960530580438712" flag="0"/>
			<psa30 value="0.0147401764643703" flag="0"/>
		</comp>
		<comp name=".HNN" depth="0.0">
			<acc value="0.19213627448814" flag="0"/>
			<vel value="0.0990533592912" flag="0"/>
			<psa03 value="0.410325640393313" flag="0"/>
			<psa10 value="0.0849923678270652" flag="0"/>
			<psa30 value="0.0199990315043571" flag="0"/>
		</comp>
		<comp name=".HNZ" depth="0.0">
			<acc value="0.12012892008732" flag="0"/>
			<vel value="0.0663932979572" flag="0"/>
			<psa03 value="0.152356686632602" flag="0"/>
			<psa10 value="0.037351349343592" flag="0"/>
			<psa30 value="0.0125910199265878" flag="0"/>
		</comp>
	</station>
	<station code="KOR2" name="KOR2" netid="HI" source="ITSAK Strong Motion Network" insttype="" lat="37.9401" lon="22.9495">
		<comp name=".HNE" depth="0.0">
			<acc value="0.026301348561084" flag="0"/>
			<vel value="0.0491037785996" flag="0"/>
			<psa03 value="0.0507387518181193" flag="0"/>
			<psa10 value="0.0691860607369732" flag="0"/>
			<psa30 value="0.0291432105946935" flag="0"/>
		</comp>
		<comp name=".HNN" depth="0.0">
			<acc value="0.024811371764172" flag="0"/>
			<vel value="0.0460013907794" flag="0"/>
			<psa03 value="0.0364456669507274" flag="0"/>
			<psa10 value="0.0418507886594895" flag="0"/>
			<psa30 value="0.0330501094075435" flag="0"/>
		</comp>
		<comp name=".HNZ" depth="0.0">
			<acc value="0.015540802522896" flag="0"/>
			<vel value="0.0274252094656" flag="0"/>
			<psa03 value="0.0294282333301859" flag="0"/>
			<psa10 value="0.0285831578689266" flag="0"/>
			<psa30 value="0.00524170890413954" flag="0"/>
		</comp>
	</station>
	<station code="LAM2" name="LAM2" netid="HI" source="ITSAK Strong Motion Network" insttype="" lat="38.90203" lon="22.431301">
		<comp name=".HNE" depth="0.0">
			<acc value="0.058287813175968" flag="0"/>
			<vel value="0.0825590977369" flag="0"/>
			<psa03 value="0.105510062440654" flag="0"/>
			<psa10 value="0.123567190719786" flag="0"/>
			<psa30 value="0.0208661156110883" flag="0"/>
		</comp>
		<comp name=".HNN" depth="0.0">
			<acc value="0.06629501609436" flag="0"/>
			<vel value="0.0786160913812" flag="0"/>
			<psa03 value="0.0982472375639629" flag="0"/>
			<psa10 value="0.162820066030411" flag="0"/>
