<?xml version="1.0" encoding="UTF-8" standalone="yes"?>
<!DOCTYPE earthquake SYSTEM "stationlist.dtd">
<stationlist created="" xmlns="ch.ethz.sed.shakemap.usgs.xml">
  <station code="SVRC" name="SVRC" netid="KO" insttype="CMG-3T" lat="38.3775" lon="39.306">
    <comp name="--.HHE">
      <acc value="0.0153149840" flag="0"/>
      <vel value="0.0094073645" flag="0"/>
      <psa03 value="0.0438722040" flag="0"/>
      <psa10 value="0.0053949240" flag="0"/>
      <psa30 value="0.0018817740" flag="0"/>
    </comp>
    <comp name="--.HHZ">
      <acc value="0.0100153486" flag="0"/>
      <vel value="0.0056114185" flag="0"/>
      <psa03 value="0.0330425617" flag="0"/>
      <psa10 value="0.0051110919" flag="0"/>
      <psa30 value="0.0005272042" flag="0"/>
    </comp>
    <comp name="--.HHN">
      <acc value="0.0123323210" flag="0"/>
      <vel value="0.0071614160" flag="0"/>
      <psa03 value="0.0337536414" flag="0"/>
      <psa10 value="0.0057742974" flag="0"/>
      <psa30 value="0.0010439677" flag="0"/>
    </comp>
  </station>
</stationlist>
