<?xml version="1.0" encoding="UTF-8" standalone="yes"?>
<!DOCTYPE earthquake SYSTEM "stationlist.dtd">
<stationlist created="" xmlns="ch.ethz.sed.shakemap.usgs.xml">
  <station code="BNN" name="BNN" netid="KO" insttype="CMG-3T" lat="38.8521" lon="35.8472">
    <comp name="--.HHZ">
      <acc value="0.0026712163" flag="0"/>
      <vel value="0.0012920562" flag="0"/>
      <psa03 value="0.0040908191" flag="0"/>
      <psa10 value="0.0019085033" flag="0"/>
      <psa30 value="0.0001420573" flag="0"/>
    </comp>
    <comp name="--.HHE">
      <acc value="0.0035589185" flag="0"/>
      <vel value="0.0018273862" flag="0"/>
      <psa03 value="0.0073230155" flag="0"/>
      <psa10 value="0.0032379344" flag="0"/>
      <psa30 value="0.0002074848" flag="0"/>
    </comp>
  </station>
  <station code="CEYT" name="CEYT" netid="KO" insttype="CMG-3ESP" lat="37.0105" lon="35.7478">
    <comp name="--.HHZ">
      <acc value="0.0012567971" flag="0"/>
      <vel value="0.0012791688" flag="0"/>
      <psa03 value="0.0028873789" flag="0"/>
      <psa10 value="0.0020474483" flag="0"/>
      <psa30 value="0.0001894814" flag="0"/>
    </comp>
    <comp name="--.HHN">
      <acc value="0.0015544724" flag="0"/>
      <vel value="0.0015037670" flag="0"/>
      <psa03 value="0.0035806757" flag="0"/>
      <psa10 value="0.0024319836" flag="0"/>
      <psa30 value="0.0002616176" flag="0"/>
    </comp>
    <comp name="--.HHE">
      <acc value="0.0008300694" flag="0"/>
      <vel value="0.0004310463" flag="0"/>
      <psa03 value="0.0024216148" flag="0"/>
      <psa10 value="0.0004824240" flag="0"/>
      <psa30 value="0.0000271964" flag="0"/>
    </comp>
  </station>
  <station code="KMRS" name="KMRS" netid="KO" insttype="CMG-3T" lat="37.5087" lon="36.9">
    <comp name="--.HHN">
      <acc value="0.0196618983" flag="0"/>
      <vel value="0.0127088634" flag="0"/>
      <psa03 value="0.0311854558" flag="0"/>
      <psa10 value="0.0075016641" flag="0"/>
      <psa30 value="0.0005749373" flag="0"/>
    </comp>
    <comp name="--.HHE">
      <acc value="0.0097817668" flag="0"/>
      <vel value="0.0059037322" flag="0"/>
      <psa03 value="0.0483837554" flag="0"/>
      <psa10 value="0.0049932465" flag="0"/>
      <psa30 value="0.0005332674" flag="0"/>
    </comp>
  </station>
  <station code="SARI" name="SARI" netid="KO" insttype="CMG-3T" lat="38.4072" lon="36.4181">
    <comp name="--.HHE">
      <acc value="0.1270034476" flag="0"/>
      <vel value="0.0213830272" flag="0"/>
      <psa03 value="0.0905816153" flag="0"/>
      <psa10 value="0.0076137662" flag="0"/>
      <psa30 value="0.0007226513" flag="0"/>
    </comp>
  </station>
  <station code="ANDN" name="ANDN" netid="TU" insttype="T" lat="37.58" lon="36.3452">
    <comp name="--.HHE">
      <acc value="0.0828259495" flag="0"/>
      <vel value="0.0292116345" flag="0"/>
      <psa03 value="0.1386587245" flag="0"/>
      <psa10 value="0.0217962896" flag="0"/>
      <psa30 value="0.0016846530" flag="0"/>
    </comp>
    <comp name="--.HHZ">
      <acc value="0.0354703344" flag="0"/>
      <vel value="0.0202683045" flag="0"/>
      <psa03 value="0.0759092448" flag="0"/>
      <psa10 value="0.0297964588" flag="0"/>
      <psa30 value="0.0016821925" flag="0"/>
    </comp>
    <comp name="--.HHN">
      <acc value="0.0988139057" flag="0"/>
      <vel value="0.0304822038" flag="0"/>
      <psa03 value="0.1737751747" flag="0"/>
      <psa10 value="0.0270673794" flag="0"/>
      <psa30 value="0.0013623816" flag="0"/>
    </comp>
  </station>
</stationlist>
