<?xml version="1.0" encoding="UTF-8" standalone="yes"?>
<!DOCTYPE earthquake SYSTEM "stationlist.dtd">
<stationlist created="" xmlns="ch.ethz.sed.shakemap.usgs.xml">
  <station code="CEYT" name="CEYT" netid="KO" insttype="CMG-3ESP" lat="37.0105" lon="35.7478">
    <comp name="--.HHN">
      <acc value="0.0015544725" flag="0"/>
      <vel value="0.0015037679" flag="0"/>
      <psa03 value="0.0035806757" flag="0"/>
      <psa10 value="0.0024319836" flag="0"/>
      <psa30 value="0.0002616196" flag="0"/>
    </comp>
    <comp name="--.HHE">
      <acc value="0.0008300695" flag="0"/>
      <vel value="0.0004310446" flag="0"/>
      <psa03 value="0.0024216148" flag="0"/>
      <psa10 value="0.0004824215" flag="0"/>
      <psa30 value="0.0000274386" flag="0"/>
    </comp>
    <comp name="--.HHZ">
      <acc value="0.0012567970" flag="0"/>
      <vel value="0.0012791691" flag="0"/>
      <psa03 value="0.0028873789" flag="0"/>
      <psa10 value="0.0020474483" flag="0"/>
      <psa30 value="0.0001895051" flag="0"/>
    </comp>
  </station>
  <station code="KMRS" name="KMRS" netid="KO" insttype="CMG-3T" lat="37.5087" lon="36.9">
    <comp name="--.HHE">
      <acc value="0.0097817669" flag="0"/>
      <vel value="0.0059037319" flag="0"/>
      <psa03 value="0.0483837554" flag="0"/>
      <psa10 value="0.0049932463" flag="0"/>
      <psa30 value="0.0005332876" flag="0"/>
    </comp>
    <comp name="--.HHN">
      <acc value="0.0196618985" flag="0"/>
      <vel value="0.0127088635" flag="0"/>
      <psa03 value="0.0311854558" flag="0"/>
      <psa10 value="0.0075016645" flag="0"/>
      <psa30 value="0.0005748522" flag="0"/>
    </comp>
  </station>
  <station code="SARI" name="SARI" netid="KO" insttype="CMG-3T" lat="38.4072" lon="36.4181">
    <comp name="--.HHZ">
      <acc value="0.0714006938" flag="0"/>
      <vel value="0.0173455586" flag="0"/>
      <psa03 value="0.0463030862" flag="0"/>
      <psa10 value="0.0084517874" flag="0"/>
      <psa30 value="0.0005096619" flag="0"/>
    </comp>
    <comp name="--.HHE">
      <acc value="0.1270034477" flag="0"/>
      <vel value="0.0213830272" flag="0"/>
      <psa03 value="0.0905816153" flag="0"/>
      <psa10 value="0.0076137654" flag="0"/>
      <psa30 value="0.0007225399" flag="0"/>
    </comp>
  </station>
  <station code="ANDN" name="ANDN" netid="TU" insttype="T" lat="37.58" lon="36.3452">
    <comp name="--.HHZ">
      <acc value="0.0354703343" flag="0"/>
      <vel value="0.0202683050" flag="0"/>
      <psa03 value="0.0759092448" flag="0"/>
      <psa10 value="0.0297964588" flag="0"/>
      <psa30 value="0.0016821712" flag="0"/>
    </comp>
    <comp name="--.HHE">
      <acc value="0.0828259495" flag="0"/>
      <vel value="0.0292116343" flag="0"/>
      <psa03 value="0.1386587245" flag="0"/>
      <psa10 value="0.0217962896" flag="0"/>
      <psa30 value="0.0016845614" flag="0"/>
    </comp>
    <comp name="--.HHN">
      <acc value="0.0988139051" flag="0"/>
      <vel value="0.0304822040" flag="0"/>
      <psa03 value="0.1737751747" flag="0"/>
      <psa10 value="0.0270673790" flag="0"/>
      <psa30 value="0.0013622674" flag="0"/>
    </comp>
  </station>
</stationlist>
