<?xml version="1.0" encoding="UTF-8" standalone="yes"?>
<!DOCTYPE earthquake SYSTEM "stationlist.dtd">
<stationlist created="" xmlns="ch.ethz.sed.shakemap.usgs.xml">
  <station code="BNN" name="BNN" netid="KO" insttype="CMG-3T" lat="38.8521" lon="35.8472">
    <comp name="--.HHE">
      <acc value="0.0035589185" flag="0"/>
      <vel value="0.0018273861" flag="0"/>
      <psa03 value="0.0073230155" flag="0"/>
      <psa10 value="0.0032379344" flag="0"/>
      <psa30 value="0.0002074848" flag="0"/>
    </comp>
    <comp name="--.HHZ">
      <acc value="0.0026712162" flag="0"/>
      <vel value="0.0012920553" flag="0"/>
      <psa03 value="0.0040908191" flag="0"/>
      <psa10 value="0.0019085034" flag="0"/>
      <psa30 value="0.0001420544" flag="0"/>
    </comp>
  </station>
  <station code="CEYT" name="CEYT" netid="KO" insttype="CMG-3ESP" lat="37.0105" lon="35.7478">
    <comp name="--.HHE">
      <acc value="0.0008300694" flag="0"/>
      <vel value="0.0004310459" flag="0"/>
      <psa03 value="0.0024216148" flag="0"/>
      <psa10 value="0.0004824249" flag="0"/>
      <psa30 value="0.0000273880" flag="0"/>
    </comp>
    <comp name="--.HHN">
      <acc value="0.0015544726" flag="0"/>
      <vel value="0.0015037672" flag="0"/>
      <psa03 value="0.0035806757" flag="0"/>
      <psa10 value="0.0024319836" flag="0"/>
      <psa30 value="0.0002616188" flag="0"/>
    </comp>
    <comp name="--.HHZ">
      <acc value="0.0012567971" flag="0"/>
      <vel value="0.0012791691" flag="0"/>
      <psa03 value="0.0028873789" flag="0"/>
      <psa10 value="0.0020474483" flag="0"/>
      <psa30 value="0.0001895018" flag="0"/>
    </comp>
  </station>
  <station code="KMRS" name="KMRS" netid="KO" insttype="CMG-3T" lat="37.5087" lon="36.9">
    <comp name="--.HHN">
      <acc value="0.0196618985" flag="0"/>
      <vel value="0.0127088638" flag="0"/>
      <psa03 value="0.0311854558" flag="0"/>
      <psa10 value="0.0075016645" flag="0"/>
      <psa30 value="0.0005748692" flag="0"/>
    </comp>
    <comp name="--.HHE">
      <acc value="0.0097817670" flag="0"/>
      <vel value="0.0059037316" flag="0"/>
      <psa03 value="0.0483837554" flag="0"/>
      <psa10 value="0.0049932463" flag="0"/>
      <psa30 value="0.0005332826" flag="0"/>
    </comp>
  </station>
  <station code="SARI" name="SARI" netid="KO" insttype="CMG-3T" lat="38.4072" lon="36.4181">
    <comp name="--.HHZ">
      <acc value="0.0714006938" flag="0"/>
      <vel value="0.0173455582" flag="0"/>
      <psa03 value="0.0463030862" flag="0"/>
      <psa10 value="0.0084517873" flag="0"/>
      <psa30 value="0.0005095683" flag="0"/>
    </comp>
    <comp name="--.HHE">
      <acc value="0.1270034477" flag="0"/>
      <vel value="0.0213830271" flag="0"/>
      <psa03 value="0.0905816153" flag="0"/>
      <psa10 value="0.0076137662" flag="0"/>
      <psa30 value="0.0007226379" flag="0"/>
    </comp>
  </station>
  <station code="ANDN" name="ANDN" netid="TU" insttype="T" lat="37.58" lon="36.3452">
    <comp name="--.HHE">
      <acc value="0.0828259495" flag="0"/>
      <vel value="0.0292116344" flag="0"/>
      <psa03 value="0.1386587245" flag="0"/>
      <psa10 value="0.0217962896" flag="0"/>
      <psa30 value="0.0016845752" flag="0"/>
    </comp>
    <comp name="--.HHZ">
      <acc value="0.0354703344" flag="0"/>
      <vel value="0.0202683049" flag="0"/>
      <psa03 value="0.0759092448" flag="0"/>
      <psa10 value="0.0297964588" flag="0"/>
      <psa30 value="0.0016821873" flag="0"/>
    </comp>
    <comp name="--.HHN">
      <acc value="0.0988139052" flag="0"/>
      <vel value="0.0304822036" flag="0"/>
      <psa03 value="0.1737751747" flag="0"/>
      <psa10 value="0.0270673796" flag="0"/>
      <psa30 value="0.0013623668" flag="0"/>
    </comp>
  </station>
</stationlist>
