<stationlist created="1778069493">
	<station code="IMMV" name="IMMV" netid="GE" source="GEOFON" insttype="" lat="35.4606" lon="23.9811">
		<comp name="--.HNE" depth="0.0">
			<acc value="0.00138946900107219" flag="0"/>
			<vel value="0.0020934419520022" flag="0"/>
			<psa03 value="0.00344514990960693" flag="0"/>
			<psa10 value="0.0038496194574361" flag="0"/>
			<psa30 value="0.000618784717530698" flag="0"/>
		</comp>
		<comp name="--.HNN" depth="0.0">
			<acc value="0.00127981204982514" flag="0"/>
			<vel value="0.00155863794578492" flag="0"/>
			<psa03 value="0.00331092328975211" flag="0"/>
			<psa10 value="0.00273016944784694" flag="0"/>
			<psa30 value="0.00059775588042011" flag="0"/>
		</comp>
		<comp name="--.HNZ" depth="0.0">
			<acc value="0.00108858806757838" flag="0"/>
			<vel value="0.00125473619917038" flag="0"/>
			<psa03 value="0.00362411873608001" flag="0"/>
			<psa10 value="0.00363619913186695" flag="0"/>
			<psa30 value="0.000258162532187428" flag="0"/>
		</comp>
	</station>
</stationlist>
