<?xml version="1.0" encoding="UTF-8" standalone="yes"?>
<!DOCTYPE earthquake SYSTEM "stationlist.dtd">
<stationlist created="" xmlns="ch.ethz.sed.shakemap.usgs.xml">
  <station code="ZKR" name="ZKR" netid="GE" insttype="STS-2/N" lat="35.1147" lon="26.2169">
    <comp name="--.HHE">
      <acc value="0.0132980789" flag="0"/>
      <vel value="0.0072596687" flag="0"/>
      <psa03 value="0.0371537759" flag="0"/>
      <psa10 value="0.0081205698" flag="0"/>
      <psa30 value="0.0016746570" flag="0"/>
    </comp>
    <comp name="--.HHN">
      <acc value="0.0085459998" flag="0"/>
      <vel value="0.0033236898" flag="0"/>
      <psa03 value="0.0200677285" flag="0"/>
      <psa10 value="0.0038286194" flag="0"/>
      <psa30 value="0.0003780291" flag="0"/>
    </comp>
    <comp name="--.HHZ">
      <acc value="0.0060773854" flag="0"/>
      <vel value="0.0050783365" flag="0"/>
      <psa03 value="0.0150442619" flag="0"/>
      <psa10 value="0.0060786742" flag="0"/>
      <psa30 value="0.0007119163" flag="0"/>
    </comp>
  </station>
</stationlist>
