<stationlist created="1778069513">
	<station code="IMMV" name="IMMV" netid="GE" source="GEOFON" insttype="" lat="35.4606" lon="23.9811">
		<comp name="--.HNE" depth="0.0">
			<acc value="0.0043623651939606" flag="0"/>
			<vel value="0.00733043013775392" flag="0"/>
			<psa03 value="0.0099775120758746" flag="0"/>
			<psa10 value="0.00976095979584216" flag="0"/>
			<psa30 value="0.00141922279393158" flag="0"/>
		</comp>
		<comp name="--.HNN" depth="0.0">
			<acc value="0.00398762961127796" flag="0"/>
			<vel value="0.00779840619897216" flag="0"/>
			<psa03 value="0.0079193705714341" flag="0"/>
			<psa10 value="0.00878244773710056" flag="0"/>
			<psa30 value="0.00204606110865357" flag="0"/>
		</comp>
		<comp name="--.HNZ" depth="0.0">
			<acc value="0.00240567678982929" flag="0"/>
			<vel value="0.0045310467638688" flag="0"/>
			<psa03 value="0.0058612290669936" flag="0"/>
			<psa10 value="0.00703884394518651" flag="0"/>
			<psa30 value="0.00110423765933895" flag="0"/>
		</comp>
	</station>
	<station code="SIT2" name="SIT2" netid="HI" source="ITSAK Strong Motion Network" insttype="" lat="35.2059" lon="26.107">
		<comp name="--.HNE" depth="0.0">
			<acc value="0.0702801260663348" flag="0"/>
			<vel value="0.0528679605388924" flag="0"/>
			<psa03 value="0.188856854135725" flag="0"/>
			<psa10 value="0.0391968575300031" flag="0"/>
			<psa30 value="0.0233657225622601" flag="0"/>
		</comp>
		<comp name="--.HNN" depth="0.0">
			<acc value="0.04553697792155" flag="0"/>
			<vel value="0.0369797523658027" flag="0"/>
			<psa03 value="0.183219336101823" flag="0"/>
			<psa10 value="0.0399337616730061" flag="0"/>
			<psa30 value="0.0110012137633007" flag="0"/>
		</comp>
		<comp name="--.HNZ" depth="0.0">
			<acc value="0.0396999054934089" flag="0"/>
			<vel value="0.0187443467655004" flag="0"/>
			<psa03 value="0.147470313013824" flag="0"/>
			<psa10 value="0.011246848477635" flag="0"/>
			<psa30 value="0.00602140616668701" flag="0"/>
		</comp>
	</station>
	<station code="IACM" name="IACM" netid="HL" source="National Observatory of Athens Seismic Network" insttype="" lat="35.3058" lon="25.0709">
		<comp name="--.HNE" depth="0.0">
			<acc value="0.0438527351751988" flag="0"/>
			<vel value="0.0568926735005906" flag="0"/>
			<psa03 value="0.111229125653024" flag="0"/>
			<psa10 value="0.107869880780124" flag="0"/>
			<psa30 value="0.0117631735420098" flag="0"/>
		</comp>
		<comp name="--.HNN" depth="0.0">
			<acc value="0.0407310077289142" flag="0"/>
			<vel value="0.0554783686013169" flag="0"/>
			<psa03 value="0.0838468952026413" flag="0"/>
			<psa10 value="0.0700179739810658" flag="0"/>
			<psa30 value="0.00740573003945634" flag="0"/>
		</comp>
		<comp name="--.HNZ" depth="0.0">
			<acc value="0.0165991484718567" flag="0"/>
			<vel value="0.0168642276715928" flag="0"/>
			<psa03 value="0.0330197484842846" flag="0"/>
			<psa10 value="0.0294640853243305" flag="0"/>
			<psa30 value="0.00412567887227084" flag="0"/>
		</comp>
	</station>
	<station code="IMMV" name="IMMV" netid="HL" source="National Observatory of Athens Seismic Network" insttype="" lat="35.4606" lon="23.9811">
		<comp name="--.HNE" depth="0.0">
			<acc value="0.00427390239317427" flag="0"/>
			<vel value="0.00718165168698891" flag="0"/>
			<psa03 value="0.00979854324940151" flag="0"/>
			<psa10 value="0.00956364666465559" flag="0"/>
			<psa30 value="0.00139058778169589" flag="0"/>
		</comp>
		<comp name="--.HNN" depth="0.0">
			<acc value="0.00390675917966394" flag="0"/>
			<vel value="0.00764018224675453" flag="0"/>
			<psa03 value="0.00778514395157929" flag="0"/>
			<psa10 value="0.00860124180029656" flag="0"/>
			<psa30 value="0.00200445085649857" flag="0"/>
		</comp>
		<comp name="--.HNZ" depth="0.0">
			<acc value="0.00235682010755236" flag="0"/>
			<vel value="0.0044390938133738" flag="0"/>
			<psa03 value="0.00572700244713878" flag="0"/>
			<psa10 value="0.00689790599433896" flag="0"/>
			<psa30 value="0.00108186655602981" flag="0"/>
		</comp>
	</station>
	<station code="KARP" name="KARP" netid="HL" source="National Observatory of Athens Seismic Network" insttype="" lat="35.5471" lon="27.16106">
		<comp name="--.HNE" depth="0.0">
			<acc value="0.00405483230890957" flag="0"/>
			<vel value="0.00858640601491033" flag="0"/>
			<psa03 value="0.00689029981921385" flag="0"/>
			<psa10 value="0.00974485260145959" flag="0"/>
			<psa30 value="0.00307513186087382" flag="0"/>
		</comp>
		<comp name="--.HNN" depth="0.0">
			<acc value="0.0029908214060433" flag="0"/>
			<vel value="0.00692779289320775" flag="0"/>
			<psa03 value="0.00577174465375706" flag="0"/>
			<psa10 value="0.00732474664547727" flag="0"/>
			<psa30 value="0.0022912484009217" flag="0"/>
		</comp>
		<comp name="--.HNZ" depth="0.0">
			<acc value="0.00266815337915131" flag="0"/>
			<vel value="0.00498164437205176" flag="0"/>
			<psa03 value="0.00720349526554175" flag="0"/>
			<psa10 value="0.00621737703167504" flag="0"/>
			<psa30 value="0.0026872169294934" flag="0"/>
		</comp>
	</station>
</stationlist>
