<?xml version="1.0" encoding="UTF-8" standalone="yes"?>
<!DOCTYPE earthquake SYSTEM "stationlist.dtd">
<stationlist created="" xmlns="ch.ethz.sed.shakemap.usgs.xml">
  <station code="STIA" name="STIA" netid="HC" insttype="120" lat="35.2021" lon="26.0909">
    <comp name="--.HHE">
      <acc value="0.0146531725" flag="0"/>
      <vel value="0.0249184838" flag="0"/>
      <psa03 value="0.0436425348" flag="0"/>
      <psa10 value="0.0227615151" flag="0"/>
      <psa30 value="0.0206771587" flag="0"/>
    </comp>
    <comp name="--.HHZ">
      <acc value="0.0160001760" flag="0"/>
      <vel value="0.0144187223" flag="0"/>
      <psa03 value="0.0426435254" flag="0"/>
      <psa10 value="0.0147944059" flag="0"/>
      <psa30 value="0.0063760637" flag="0"/>
    </comp>
    <comp name="--.HHN">
      <acc value="0.0201913200" flag="0"/>
      <vel value="0.0154033734" flag="0"/>
      <psa03 value="0.0746687371" flag="0"/>
      <psa10 value="0.0264186054" flag="0"/>
      <psa30 value="0.0073990739" flag="0"/>
    </comp>
  </station>
  <station code="SIT2" name="SIT2" netid="HI" insttype="CMG-5TD,ACCELEROMETER,GURALP" lat="35.2059" lon="26.107">
    <comp name="--.HNE">
      <acc value="0.0707441071" flag="0"/>
      <vel value="0.0471485189" flag="0"/>
      <psa03 value="0.1850590710" flag="0"/>
      <psa10 value="0.0379926644" flag="0"/>
      <psa30 value="0.0192666272" flag="0"/>
    </comp>
    <comp name="--.HNN">
      <acc value="0.0455485537" flag="0"/>
      <vel value="0.0342280801" flag="0"/>
      <psa03 value="0.1843338575" flag="0"/>
      <psa10 value="0.0398905885" flag="0"/>
      <psa30 value="0.0090423900" flag="0"/>
    </comp>
    <comp name="--.HNZ">
      <acc value="0.0395016709" flag="0"/>
      <vel value="0.0197733765" flag="0"/>
      <psa03 value="0.1467685672" flag="0"/>
      <psa10 value="0.0111705991" flag="0"/>
      <psa30 value="0.0049868482" flag="0"/>
    </comp>
  </station>
  <station code="IACM" name="IACM" netid="HL" insttype="120" lat="35.3058" lon="25.0709">
    <comp name="--.HHE">
      <acc value="0.0450993683" flag="0"/>
      <vel value="0.0582702872" flag="0"/>
      <psa03 value="0.1118103422" flag="0"/>
      <psa10 value="0.1102091772" flag="0"/>
      <psa30 value="0.0110483264" flag="0"/>
    </comp>
    <comp name="--.HHN">
      <acc value="0.0408483213" flag="0"/>
      <vel value="0.0540444982" flag="0"/>
      <psa03 value="0.0766182634" flag="0"/>
      <psa10 value="0.0717507416" flag="0"/>
      <psa30 value="0.0071768829" flag="0"/>
    </comp>
    <comp name="--.HHZ">
      <acc value="0.0167821124" flag="0"/>
      <vel value="0.0159100490" flag="0"/>
      <psa03 value="0.0338223255" flag="0"/>
      <psa10 value="0.0294770521" flag="0"/>
      <psa30 value="0.0039633940" flag="0"/>
    </comp>
  </station>
  <station code="IDI" name="IDI" netid="HL" insttype="120" lat="35.288" lon="24.89">
    <comp name="--.HHN">
      <acc value="0.0036832083" flag="0"/>
      <vel value="0.0042636432" flag="0"/>
      <psa03 value="0.0082950694" flag="0"/>
      <psa10 value="0.0092143428" flag="0"/>
      <psa30 value="0.0020041687" flag="0"/>
    </comp>
    <comp name="--.HHE">
      <acc value="0.0031656531" flag="0"/>
      <vel value="0.0045308081" flag="0"/>
      <psa03 value="0.0073819709" flag="0"/>
      <psa10 value="0.0080904918" flag="0"/>
      <psa30 value="0.0018549625" flag="0"/>
    </comp>
    <comp name="--.HHZ">
      <acc value="0.0031268199" flag="0"/>
      <vel value="0.0038644490" flag="0"/>
      <psa03 value="0.0085565574" flag="0"/>
      <psa10 value="0.0068544054" flag="0"/>
      <psa30 value="0.0015030000" flag="0"/>
    </comp>
  </station>
  <station code="NPS" name="NPS" netid="HL" insttype="CMG3ESPC-120s" lat="35.2613" lon="25.6104">
    <comp name="--.HHE">
      <acc value="0.0049395307" flag="0"/>
      <vel value="0.0054932643" flag="0"/>
      <psa03 value="0.0179512802" flag="0"/>
      <psa10 value="0.0110806169" flag="0"/>
      <psa30 value="0.0020048025" flag="0"/>
    </comp>
    <comp name="--.HHN">
      <acc value="0.0090541287" flag="0"/>
      <vel value="0.0094596463" flag="0"/>
      <psa03 value="0.0243288415" flag="0"/>
      <psa10 value="0.0141421419" flag="0"/>
      <psa30 value="0.0045914698" flag="0"/>
    </comp>
    <comp name="--.HHZ">
      <acc value="0.0068909526" flag="0"/>
      <vel value="0.0092755956" flag="0"/>
      <psa03 value="0.0148095645" flag="0"/>
      <psa10 value="0.0091639895" flag="0"/>
      <psa30 value="0.0060659473" flag="0"/>
    </comp>
  </station>
  <station code="ZKR" name="ZKR" netid="HL" insttype="120" lat="35.1147" lon="26.2169">
    <comp name="--.HHE">
      <acc value="0.0411415731" flag="0"/>
      <vel value="0.0277897073" flag="0"/>
      <psa03 value="0.0916491968" flag="0"/>
      <psa10 value="0.0245090563" flag="0"/>
      <psa30 value="0.0137120037" flag="0"/>
    </comp>
    <comp name="--.HHN">
      <acc value="0.0170300434" flag="0"/>
      <vel value="0.0077541813" flag="0"/>
      <psa03 value="0.0369521327" flag="0"/>
      <psa10 value="0.0109696889" flag="0"/>
      <psa30 value="0.0026968013" flag="0"/>
    </comp>
    <comp name="--.HHZ">
      <acc value="0.0269107783" flag="0"/>
      <vel value="0.0156904467" flag="0"/>
      <psa03 value="0.0541427149" flag="0"/>
      <psa10 value="0.0191740264" flag="0"/>
      <psa30 value="0.0076725282" flag="0"/>
    </comp>
  </station>
  <station code="IDI" name="IDI" netid="MN" insttype="" lat="35.288" lon="24.89">
    <comp name="--.HHE">
      <acc value="0.0032119255" flag="0"/>
      <vel value="0.0044789004" flag="0"/>
      <psa03 value="0.0074173164" flag="0"/>
      <psa10 value="0.0080303579" flag="0"/>
      <psa30 value="0.0018318903" flag="0"/>
    </comp>
    <comp name="--.HHN">
      <acc value="0.0037154043" flag="0"/>
      <vel value="0.0042284017" flag="0"/>
      <psa03 value="0.0083206311" flag="0"/>
      <psa10 value="0.0091365151" flag="0"/>
      <psa30 value="0.0019792761" flag="0"/>
    </comp>
    <comp name="--.HHZ">
      <acc value="0.0031222241" flag="0"/>
      <vel value="0.0038338270" flag="0"/>
      <psa03 value="0.0085984891" flag="0"/>
      <psa10 value="0.0068019915" flag="0"/>
      <psa30 value="0.0014855132" flag="0"/>
    </comp>
  </station>
</stationlist>
