<?xml version="1.0" encoding="UTF-8" standalone="yes"?>
<!DOCTYPE earthquake SYSTEM "stationlist.dtd">
<stationlist created="" xmlns="ch.ethz.sed.shakemap.usgs.xml">
  <station code="APE" name="APE" netid="GE" insttype="STS-2/N" lat="37.0727" lon="25.523">
    <comp name="--.HHN">
      <acc value="0.0854850546" flag="0"/>
      <vel value="0.0187464901" flag="0"/>
      <psa03 value="0.0581310528" flag="0"/>
      <psa10 value="0.0024000348" flag="0"/>
      <psa30 value="0.0002980192" flag="0"/>
    </comp>
    <comp name="--.HHZ">
      <acc value="0.0305965657" flag="0"/>
      <vel value="0.0043478105" flag="0"/>
      <psa03 value="0.0290312795" flag="0"/>
      <psa10 value="0.0033717687" flag="0"/>
      <psa30 value="0.0002380599" flag="0"/>
    </comp>
    <comp name="--.HHE">
      <acc value="0.0837345092" flag="0"/>
      <vel value="0.0130796333" flag="0"/>
      <psa03 value="0.0449156807" flag="0"/>
      <psa10 value="0.0025574042" flag="0"/>
      <psa30 value="0.0002438076" flag="0"/>
    </comp>
  </station>
  <station code="THERA" name="THERA" netid="GE" insttype="STS-2/N" lat="36.367" lon="25.4753">
    <comp name="--.HHZ">
      <acc value="0.0174275653" flag="0"/>
      <vel value="0.0048439479" flag="0"/>
      <psa03 value="0.0147391690" flag="0"/>
      <psa10 value="0.0010799295" flag="0"/>
      <psa30 value="0.0001337947" flag="0"/>
    </comp>
    <comp name="--.HHN">
      <acc value="0.0155868547" flag="0"/>
      <vel value="0.0034123653" flag="0"/>
      <psa03 value="0.0132085879" flag="0"/>
      <psa10 value="0.0015010931" flag="0"/>
      <psa30 value="0.0001518491" flag="0"/>
    </comp>
    <comp name="--.HHE">
      <acc value="0.0230570548" flag="0"/>
      <vel value="0.0066255173" flag="0"/>
      <psa03 value="0.0282932454" flag="0"/>
      <psa10 value="0.0021363576" flag="0"/>
      <psa30 value="0.0002404347" flag="0"/>
    </comp>
  </station>
</stationlist>
