<stationlist created="1778069764">
	<station code="AIGS" name="AIGS" netid="HA" source="Hellenic Seismological Network, University of Athens, Seismological Laboratory (HA)" insttype="" lat="38.25001" lon="22.0878">
		<comp name="--.HNE" depth="0.0">
			<acc value="0.0902484546472328" flag="0"/>
			<vel value="0.044886927606878" flag="0"/>
			<psa03 value="0.227872058306858" flag="0"/>
			<psa10 value="0.0211849874116855" flag="0"/>
			<psa30 value="0.00283844558786316" flag="0"/>
		</comp>
		<comp name="--.HNN" depth="0.0">
			<acc value="0.0769114065248609" flag="0"/>
			<vel value="0.0217347942741922" flag="0"/>
			<psa03 value="0.0973590416013593" flag="0"/>
			<psa10 value="0.0184830055540081" flag="0"/>
			<psa30 value="0.0020711167443598" flag="0"/>
		</comp>
		<comp name="--.HNZ" depth="0.0">
			<acc value="0.04724114834456" flag="0"/>
			<vel value="0.0146657677513808" flag="0"/>
			<psa03 value="0.0562856959257859" flag="0"/>
			<psa10 value="0.0141582238622859" flag="0"/>
			<psa30 value="0.00128902297267241" flag="0"/>
		</comp>
	</station>
	<station code="XLKS" name="XLKS" netid="HA" source="Hellenic Seismological Network, University of Athens, Seismological Laboratory (HA)" insttype="" lat="38.0772" lon="22.6361">
		<comp name="--.HNE" depth="0.0">
			<acc value="0.0287766199082335" flag="0"/>
			<vel value="0.0210575894621241" flag="0"/>
			<psa03 value="0.0813860738386363" flag="0"/>
			<psa10 value="0.0416411242775593" flag="0"/>
			<psa30 value="0.0028840826386138" flag="0"/>
		</comp>
		<comp name="--.HNN" depth="0.0">
			<acc value="0.0457060576619153" flag="0"/>
			<vel value="0.0272551692754753" flag="0"/>
			<psa03 value="0.11002108607433" flag="0"/>
			<psa10 value="0.0743910772559357" flag="0"/>
			<psa30 value="0.00387959673587034" flag="0"/>
		</comp>
		<comp name="--.HNZ" depth="0.0">
			<acc value="0.023110562305309" flag="0"/>
			<vel value="0.0156547248168808" flag="0"/>
			<psa03 value="0.0789252524746314" flag="0"/>
			<psa10 value="0.0277607495183729" flag="0"/>
			<psa30 value="0.00192883652731369" flag="0"/>
		</comp>
	</station>
	<station code="ARG2" name="ARG2" netid="HI" source="ITSAK Strong Motion Network" insttype="" lat="38.1783" lon="20.4878">
		<comp name="--.HNE" depth="0.0">
			<acc value="0.159692264202506" flag="0"/>
			<vel value="0.0524643218877795" flag="0"/>
			<psa03 value="0.253106662839563" flag="0"/>
			<psa10 value="0.0200051354231617" flag="0"/>
			<psa30 value="0.0017579212980319" flag="0"/>
		</comp>
		<comp name="--.HNN" depth="0.0">
			<acc value="0.196155115223268" flag="0"/>
			<vel value="0.0655138971448569" flag="0"/>
			<psa03 value="0.244695127995328" flag="0"/>
			<psa10 value="0.024543337440453" flag="0"/>
			<psa30 value="0.00242905439730597" flag="0"/>
		</comp>
		<comp name="--.HNZ" depth="0.0">
			<acc value="0.091886788302655" flag="0"/>
			<vel value="0.0297416386140274" flag="0"/>
			<psa03 value="0.167112141719245" flag="0"/>
			<psa10 value="0.00931398515172563" flag="0"/>
			<psa30 value="0.00156418754337478" flag="0"/>
		</comp>
	</station>
	<station code="MSL1" name="MSL1" netid="HI" source="ITSAK Strong Motion Network" insttype="" lat="38.3727" lon="21.4243">
		<comp name="--.HNE" depth="0.0">
			<acc value="0.111456994316361" flag="0"/>
			<vel value="0.0573934329320981" flag="0"/>
			<psa03 value="0.346707359084988" flag="0"/>
			<psa10 value="0.0465216041754804" flag="0"/>
			<psa30 value="0.00539367300783266" flag="0"/>
		</comp>
		<comp name="--.HNN" depth="0.0">
			<acc value="0.115143759893086" flag="0"/>
			<vel value="0.0596432522531256" flag="0"/>
			<psa03 value="0.454625561448259" flag="0"/>
			<psa10 value="0.0430223161958654" flag="0"/>
			<psa30 value="0.00363306717740367" flag="0"/>
		</comp>
		<comp name="--.HNZ" depth="0.0">
			<acc value="0.0671651509372043" flag="0"/>
			<vel value="0.0241552941773342" flag="0"/>
			<psa03 value="0.125770342803962" flag="0"/>
			<psa10 value="0.0256909750402116" flag="0"/>
			<psa30 value="0.00175210481117152" flag="0"/>
		</comp>
	</station>
	<station code="PYL1" name="PYL1" netid="HI" source="ITSAK Strong Motion Network" insttype="" lat="36.914188" lon="21.695161">
		<comp name="--.HNE" depth="0.0">
			<acc value="0.023283270906628" flag="0"/>
			<vel value="0.00965290666967422" flag="0"/>
			<psa03 value="0.0872473029056299" flag="0"/>
			<psa10 value="0.00877439413990927" flag="0"/>
			<psa30 value="0.00176910684968646" flag="0"/>
		</comp>
		<comp name="--.HNN" depth="0.0">
			<acc value="0.0148804043743159" flag="0"/>
			<vel value="0.00632676965715945" flag="0"/>
			<psa03 value="0.0430420027667774" flag="0"/>
			<psa10 value="0.00773950690082865" flag="0"/>
			<psa30 value="0.00117224581339872" flag="0"/>
		</comp>
		<comp name="--.HNZ" depth="0.0">
			<acc value="0.00964296517990568" flag="0"/>
			<vel value="0.00402372024287383" flag="0"/>
			<psa03 value="0.0270242927974361" flag="0"/>
			<psa10 value="0.00641469016286162" flag="0"/>
			<psa30 value="0.00104115114800718" flag="0"/>
		</comp>
	</station>
	<station code="VAS2" name="VAS2" netid="HI" source="ITSAK Strong Motion Network" insttype="" lat="38.630558" lon="20.608081">
		<comp name="--.HNE" depth="0.0">
			<acc value="0.113982739573271" flag="0"/>
			<vel value="0.0633567396799598" flag="0"/>
			<psa03 value="0.227290409620821" flag="0"/>
			<psa10 value="0.057897310208176" flag="0"/>
			<psa30 value="0.00309079163319021" flag="0"/>
		</comp>
		<comp name="--.HNN" depth="0.0">
			<acc value="0.17394156417508" flag="0"/>
			<vel value="0.0815314099956186" flag="0"/>
			<psa03 value="0.377534739444977" flag="0"/>
			<psa10 value="0.0678314223436309" flag="0"/>
			<psa30 value="0.0106043503905966" flag="0"/>
		</comp>
		<comp name="--.HNZ" depth="0.0">
			<acc value="0.0869807598783834" flag="0"/>
			<vel value="0.0472427721248406" flag="0"/>
			<psa03 value="0.137850738590895" flag="0"/>
			<psa10 value="0.0293634153594394" flag="0"/>
			<psa30 value="0.0022755886286053" flag="0"/>
		</comp>
	</station>
	<station code="ANX" name="ANX" netid="HP" source="University of Patras, Seismological Laboratory (PSLNET)" insttype="" lat="38.5933" lon="21.9209">
		<comp name="--.HNE" depth="0.0">
			<acc value="0.0305572615535339" flag="0"/>
			<vel value="0.0220768721630943" flag="0"/>
			<psa03 value="0.078209377168739" flag="0"/>
			<psa10 value="0.0112991968593783" flag="0"/>
			<psa30 value="0.00147425570807205" flag="0"/>
		</comp>
		<comp name="--.HNN" depth="0.0">
			<acc value="0.0299816976861847" flag="0"/>
			<vel value="0.017675821567616" flag="0"/>
			<psa03 value="0.073421961060584" flag="0"/>
			<psa10 value="0.0163407487011252" flag="0"/>
			<psa30 value="0.00124204365572322" flag="0"/>
		</comp>
		<comp name="--.HNZ" depth="0.0">
			<acc value="0.0203814829597824" flag="0"/>
			<vel value="0.00940801095545721" flag="0"/>
			<psa03 value="0.0387467509314233" flag="0"/>
			<psa10 value="0.00920123479104759" flag="0"/>
			<psa30 value="0.000647867151832575" flag="0"/>
		</comp>
	</station>
	<station code="PVO" name="PVO" netid="HP" source="University of Patras, Seismological Laboratory (PSLNET)" insttype="" lat="38.616" lon="21.525">
		<comp name="--.HNE" depth="0.0">
			<acc value="0.0823711939661082" flag="0"/>
			<vel value="0.0275980537589912" flag="0"/>
			<psa03 value="0.153245974710412" flag="0"/>
			<psa10 value="0.00958780264488969" flag="0"/>
			<psa30 value="0.000607300230661422" flag="0"/>
		</comp>
		<comp name="--.HNN" depth="0.0">
			<acc value="0.0770117202530232" flag="0"/>
			<vel value="0.0236068227122059" flag="0"/>
			<psa03 value="0.102458370697446" flag="0"/>
			<psa10 value="0.00689020066074361" flag="0"/>
			<psa30 value="0.00060784146443257" flag="0"/>
		</comp>
		<comp name="--.HNZ" depth="0.0">
			<acc value="0.0656742416581912" flag="0"/>
			<vel value="0.0196561752079016" flag="0"/>
			<psa03 value="0.0830247551909528" flag="0"/>
			<psa10 value="0.00596437120408256" flag="0"/>
			<psa30 value="0.000624247447078553" flag="0"/>
		</comp>
	</station>
	<station code="PYL" name="PYL" netid="HP" source="University of Patras, Seismological Laboratory (PSLNET)" insttype="" lat="36.8955" lon="21.742">
		<comp name="--.HNE" depth="0.0">
			<acc value="0.0346303319914523" flag="0"/>
			<vel value="0.0106546781646525" flag="0"/>
			<psa03 value="0.0678680792603633" flag="0"/>
			<psa10 value="0.00725632382083447" flag="0"/>
			<psa30 value="0.0009424534745854" flag="0"/>
		</comp>
		<comp name="--.HNN" depth="0.0">
			<acc value="0.0353936396464253" flag="0"/>
			<vel value="0.0115009318178054" flag="0"/>
			<psa03 value="0.107960401846574" flag="0"/>
			<psa10 value="0.00829291874015353" flag="0"/>
			<psa30 value="0.000776834430219887" flag="0"/>
		</comp>
		<comp name="--.HNZ" depth="0.0">
			<acc value="0.0156608387005918" flag="0"/>
			<vel value="0.00705885731518992" flag="0"/>
			<psa03 value="0.0446549217110627" flag="0"/>
			<psa10 value="0.0110437128417568" flag="0"/>
			<psa30 value="0.000925122534825505" flag="0"/>
		</comp>
	</station>
	<station code="SERG" name="SERG" netid="HP" source="University of Patras, Seismological Laboratory (PSLNET)" insttype="" lat="38.4133" lon="22.0566">
		<comp name="--.HNE" depth="0.0">
			<acc value="0.0765781684296053" flag="0"/>
			<vel value="0.0175099942800075" flag="0"/>
			<psa03 value="0.0963473200370661" flag="0"/>
			<psa10 value="0.00716915773401362" flag="0"/>
			<psa30 value="0.000710702340959399" flag="0"/>
		</comp>
		<comp name="--.HNN" depth="0.0">
			<acc value="0.0815708501059948" flag="0"/>
			<vel value="0.0271291999730248" flag="0"/>
			<psa03 value="0.118312712636586" flag="0"/>
			<psa10 value="0.0094084320124305" flag="0"/>
			<psa30 value="0.000841904105350341" flag="0"/>
		</comp>
		<comp name="--.HNZ" depth="0.0">
			<acc value="0.0315155607441527" flag="0"/>
			<vel value="0.011472574619825" flag="0"/>
			<psa03 value="0.0453794280394365" flag="0"/>
			<psa10 value="0.0056273274703466" flag="0"/>
			<psa30 value="0.000521880978301672" flag="0"/>
		</comp>
	</station>
</stationlist>
