<?xml version="1.0" encoding="UTF-8" standalone="yes"?>
<!DOCTYPE earthquake SYSTEM "stationlist.dtd">
<stationlist created="" xmlns="ch.ethz.sed.shakemap.usgs.xml">
  <station code="AGRP" name="AGRP" netid="CL" insttype="CMG40-T" lat="38.3959" lon="21.7228">
    <comp name="00.HHE">
      <acc value="0.0758042812" flag="0"/>
      <vel value="0.0229098943" flag="0"/>
      <psa03 value="0.0885285588" flag="0"/>
      <psa10 value="0.0092119858" flag="0"/>
      <psa30 value="0.0017010044" flag="0"/>
    </comp>
    <comp name="00.HHN">
      <acc value="0.0514425999" flag="0"/>
      <vel value="0.0209650306" flag="0"/>
      <psa03 value="0.1192117929" flag="0"/>
      <psa10 value="0.0104186659" flag="0"/>
      <psa30 value="0.0012485724" flag="0"/>
    </comp>
    <comp name="00.HHZ">
      <acc value="0.0372678312" flag="0"/>
      <vel value="0.0106980373" flag="0"/>
      <psa03 value="0.0555590568" flag="0"/>
      <psa10 value="0.0062767248" flag="0"/>
      <psa30 value="0.0008159962" flag="0"/>
    </comp>
  </station>
  <station code="MG00" name="MG00" netid="CL" insttype="TRILLIUM-40" lat="38.4145" lon="21.9467">
    <comp name="00.HHE">
      <acc value="0.0786855860" flag="0"/>
      <vel value="0.0293051569" flag="0"/>
      <psa03 value="0.1957082252" flag="0"/>
      <psa10 value="0.0098781546" flag="0"/>
      <psa30 value="0.0016080941" flag="0"/>
    </comp>
    <comp name="00.HHN">
      <acc value="0.0846713275" flag="0"/>
      <vel value="0.0272611609" flag="0"/>
      <psa03 value="0.1508574239" flag="0"/>
      <psa10 value="0.0114562972" flag="0"/>
      <psa30 value="0.0011521900" flag="0"/>
    </comp>
    <comp name="00.HHZ">
      <acc value="0.0694348109" flag="0"/>
      <vel value="0.0214935354" flag="0"/>
      <psa03 value="0.0879888922" flag="0"/>
      <psa10 value="0.0060378387" flag="0"/>
      <psa30 value="0.0007247023" flag="0"/>
    </comp>
  </station>
  <station code="MG02" name="MG02" netid="CL" insttype="TRILLIUM-40" lat="38.415" lon="21.947">
    <comp name="02.HHE">
      <acc value="0.0672789587" flag="0"/>
      <vel value="0.0271970533" flag="0"/>
      <psa03 value="0.1281538056" flag="0"/>
      <psa10 value="0.0124038311" flag="0"/>
      <psa30 value="0.0014277070" flag="0"/>
    </comp>
    <comp name="02.HHN">
      <acc value="0.0530497910" flag="0"/>
      <vel value="0.0219471005" flag="0"/>
      <psa03 value="0.1013595158" flag="0"/>
      <psa10 value="0.0084585579" flag="0"/>
      <psa30 value="0.0010341809" flag="0"/>
    </comp>
    <comp name="02.HHZ">
      <acc value="0.0503394659" flag="0"/>
      <vel value="0.0169176176" flag="0"/>
      <psa03 value="0.0917619700" flag="0"/>
      <psa10 value="0.0064908213" flag="0"/>
      <psa30 value="0.0007151701" flag="0"/>
    </comp>
  </station>
  <station code="MG03" name="MG03" netid="CL" insttype="TRILLIUM-40" lat="38.4141" lon="21.946">
    <comp name="03.HHE">
      <acc value="0.0663419932" flag="0"/>
      <vel value="0.0244499913" flag="0"/>
      <psa03 value="0.1244589998" flag="0"/>
      <psa10 value="0.0082634680" flag="0"/>
      <psa30 value="0.0015140653" flag="0"/>
    </comp>
    <comp name="03.HHN">
      <acc value="0.0364892531" flag="0"/>
      <vel value="0.0151221020" flag="0"/>
      <psa03 value="0.0886609152" flag="0"/>
      <psa10 value="0.0034538174" flag="0"/>
      <psa30 value="0.0004418871" flag="0"/>
    </comp>
    <comp name="03.HHZ">
      <acc value="0.0423342642" flag="0"/>
      <vel value="0.0101207712" flag="0"/>
      <psa03 value="0.0406862147" flag="0"/>
      <psa10 value="0.0046434216" flag="0"/>
      <psa30 value="0.0006840294" flag="0"/>
    </comp>
  </station>
  <station code="MG04" name="MG04" netid="CL" insttype="TRILLIUM-40" lat="38.4142" lon="21.9481">
    <comp name="04.HHE">
      <acc value="0.0813435161" flag="0"/>
      <vel value="0.0236784110" flag="0"/>
      <psa03 value="0.1477633459" flag="0"/>
      <psa10 value="0.0094699637" flag="0"/>
      <psa30 value="0.0016999592" flag="0"/>
    </comp>
    <comp name="04.HHN">
      <acc value="0.0992158967" flag="0"/>
      <vel value="0.0297763866" flag="0"/>
      <psa03 value="0.1592621499" flag="0"/>
      <psa10 value="0.0097380855" flag="0"/>
      <psa30 value="0.0010605660" flag="0"/>
    </comp>
    <comp name="04.HHZ">
      <acc value="0.0389826516" flag="0"/>
      <vel value="0.0130054240" flag="0"/>
      <psa03 value="0.0550515656" flag="0"/>
      <psa10 value="0.0057778223" flag="0"/>
      <psa30 value="0.0006952176" flag="0"/>
    </comp>
  </station>
  <station code="MG05" name="MG05" netid="CL" insttype="CMG40-T" lat="38.4155" lon="21.9458">
    <comp name="05.HHE">
      <acc value="0.1194055455" flag="0"/>
      <vel value="0.0510014108" flag="0"/>
      <psa03 value="0.3240470760" flag="0"/>
      <psa10 value="0.0231679170" flag="0"/>
      <psa30 value="0.0023384370" flag="0"/>
    </comp>
    <comp name="05.HHN">
      <acc value="0.1459363296" flag="0"/>
      <vel value="0.0738634042" flag="0"/>
      <psa03 value="0.3715900016" flag="0"/>
      <psa10 value="0.0298764381" flag="0"/>
      <psa30 value="0.0029963167" flag="0"/>
    </comp>
    <comp name="05.HHZ">
      <acc value="0.0890214038" flag="0"/>
      <vel value="0.0318074643" flag="0"/>
      <psa03 value="0.1571284688" flag="0"/>
      <psa10 value="0.0122343313" flag="0"/>
      <psa30 value="0.0014941475" flag="0"/>
    </comp>
  </station>
  <station code="MG06" name="MG06" netid="CL" insttype="TRILLIUM-40" lat="38.4129" lon="21.9462">
    <comp name="06.HHE">
      <acc value="0.0798828542" flag="0"/>
      <vel value="0.0219846724" flag="0"/>
      <psa03 value="0.0777417639" flag="0"/>
      <psa10 value="0.0065391430" flag="0"/>
      <psa30 value="0.0008951356" flag="0"/>
    </comp>
    <comp name="06.HHN">
      <acc value="0.0579543924" flag="0"/>
      <vel value="0.0146658848" flag="0"/>
      <psa03 value="0.0570031541" flag="0"/>
      <psa10 value="0.0064501891" flag="0"/>
      <psa30 value="0.0012860186" flag="0"/>
    </comp>
    <comp name="06.HHZ">
      <acc value="0.0401406360" flag="0"/>
      <vel value="0.0110730629" flag="0"/>
      <psa03 value="0.0434247054" flag="0"/>
      <psa10 value="0.0048221155" flag="0"/>
      <psa30 value="0.0006581534" flag="0"/>
    </comp>
  </station>
  <station code="MG07" name="MG07" netid="CL" insttype="TRILLIUM-40" lat="38.4155" lon="21.9488">
    <comp name="07.HHE">
      <acc value="0.0678066629" flag="0"/>
      <vel value="0.0276931319" flag="0"/>
      <psa03 value="0.1025886697" flag="0"/>
      <psa10 value="0.0170085345" flag="0"/>
      <psa30 value="0.0017142460" flag="0"/>
    </comp>
    <comp name="07.HHN">
      <acc value="0.1010969098" flag="0"/>
      <vel value="0.0397053087" flag="0"/>
      <psa03 value="0.1910143549" flag="0"/>
      <psa10 value="0.0164087175" flag="0"/>
      <psa30 value="0.0015352529" flag="0"/>
    </comp>
    <comp name="07.HHZ">
      <acc value="0.0573138056" flag="0"/>
      <vel value="0.0179700007" flag="0"/>
      <psa03 value="0.0791659496" flag="0"/>
      <psa10 value="0.0071180042" flag="0"/>
      <psa30 value="0.0009104139" flag="0"/>
    </comp>
  </station>
  <station code="KALE" name="KALE" netid="HA" insttype="40," lat="38.3911" lon="22.1398">
    <comp name="--.HHN">
      <acc value="0.0436808482" flag="0"/>
      <vel value="0.0195955483" flag="0"/>
      <psa03 value="0.1257611837" flag="0"/>
      <psa10 value="0.0093326490" flag="0"/>
      <psa30 value="0.0007228019" flag="0"/>
    </comp>
    <comp name="--.HHZ">
      <acc value="0.0276893724" flag="0"/>
      <vel value="0.0084464204" flag="0"/>
      <psa03 value="0.0574105413" flag="0"/>
      <psa10 value="0.0037927552" flag="0"/>
      <psa30 value="0.0005238373" flag="0"/>
    </comp>
    <comp name="--.HHE">
      <acc value="0.0410514363" flag="0"/>
      <vel value="0.0174410517" flag="0"/>
      <psa03 value="0.0601217977" flag="0"/>
      <psa10 value="0.0080871381" flag="0"/>
      <psa30 value="0.0011524437" flag="0"/>
    </comp>
  </station>
  <station code="LAKA" name="LAKA" netid="HA" insttype="120" lat="38.2401" lon="21.9785">
    <comp name="--.HHZ">
      <acc value="0.0059352589" flag="0"/>
      <vel value="0.0031410744" flag="0"/>
      <psa03 value="0.0149555305" flag="0"/>
      <psa10 value="0.0014876874" flag="0"/>
      <psa30 value="0.0002129212" flag="0"/>
    </comp>
    <comp name="--.HHE">
      <acc value="0.0094716071" flag="0"/>
      <vel value="0.0034026911" flag="0"/>
      <psa03 value="0.0120220906" flag="0"/>
      <psa10 value="0.0025468067" flag="0"/>
      <psa30 value="0.0004125332" flag="0"/>
    </comp>
    <comp name="--.HHN">
      <acc value="0.0078537959" flag="0"/>
      <vel value="0.0039225087" flag="0"/>
      <psa03 value="0.0110241359" flag="0"/>
      <psa10 value="0.0026393071" flag="0"/>
      <psa30 value="0.0005104094" flag="0"/>
    </comp>
  </station>
  <station code="THAL" name="THAL" netid="HA" insttype="30" lat="38.0357" lon="22.6634">
    <comp name="--.HHE">
      <acc value="0.0476262110" flag="0"/>
      <vel value="0.0234595058" flag="0"/>
      <psa03 value="0.1000772701" flag="0"/>
      <psa10 value="0.0284375490" flag="0"/>
      <psa30 value="0.0017296629" flag="0"/>
    </comp>
    <comp name="--.HHN">
      <acc value="0.0295272413" flag="0"/>
      <vel value="0.0200989345" flag="0"/>
      <psa03 value="0.0916434576" flag="0"/>
      <psa10 value="0.0265707567" flag="0"/>
      <psa30 value="0.0016882814" flag="0"/>
    </comp>
    <comp name="--.HHZ">
      <acc value="0.0186843861" flag="0"/>
      <vel value="0.0096064456" flag="0"/>
      <psa03 value="0.0431695118" flag="0"/>
      <psa10 value="0.0154882199" flag="0"/>
      <psa30 value="0.0009662009" flag="0"/>
    </comp>
  </station>
  <station code="ARG2" name="ARG2" netid="HI" insttype="CMG-5TD,ACCELEROMETER,GURALP" lat="38.1783" lon="20.4878">
    <comp name="--.HNZ">
      <acc value="0.0917960571" flag="0"/>
      <vel value="0.0293201193" flag="0"/>
      <psa03 value="0.1668662636" flag="0"/>
      <psa10 value="0.0092400346" flag="0"/>
      <psa30 value="0.0013866858" flag="0"/>
    </comp>
    <comp name="--.HNN">
      <acc value="0.1960636918" flag="0"/>
      <vel value="0.0651095907" flag="0"/>
      <psa03 value="0.2408899213" flag="0"/>
      <psa10 value="0.0244940218" flag="0"/>
      <psa30 value="0.0023695874" flag="0"/>
    </comp>
    <comp name="--.HNE">
      <acc value="0.1608878470" flag="0"/>
      <vel value="0.0515566525" flag="0"/>
      <psa03 value="0.2491158658" flag="0"/>
      <psa10 value="0.0199289975" flag="0"/>
      <psa30 value="0.0016622888" flag="0"/>
    </comp>
  </station>
  <station code="KLV1" name="KLV1" netid="HI" insttype="CMG-5TD,ACCELEROMETER,GURALP" lat="38.0326" lon="22.108">
    <comp name="--.HNN">
      <acc value="0.0508890380" flag="0"/>
      <vel value="0.0295706285" flag="0"/>
      <psa03 value="0.1759056947" flag="0"/>
      <psa10 value="0.0164972077" flag="0"/>
      <psa30 value="0.0012123820" flag="0"/>
    </comp>
    <comp name="--.HNZ">
      <acc value="0.0377054333" flag="0"/>
      <vel value="0.0114339017" flag="0"/>
      <psa03 value="0.0612480621" flag="0"/>
      <psa10 value="0.0088770838" flag="0"/>
      <psa30 value="0.0007360649" flag="0"/>
    </comp>
    <comp name="--.HNE">
      <acc value="0.0858729701" flag="0"/>
      <vel value="0.0364597062" flag="0"/>
      <psa03 value="0.1827870520" flag="0"/>
      <psa10 value="0.0255221844" flag="0"/>
      <psa30 value="0.0016507084" flag="0"/>
    </comp>
  </station>
  <station code="MSL1" name="MSL1" netid="HI" insttype="CMG-5TD,ACCELEROMETER,GURALP" lat="38.3727" lon="21.4243">
    <comp name="--.HNZ">
      <acc value="0.0683759441" flag="0"/>
      <vel value="0.0241013462" flag="0"/>
      <psa03 value="0.1250624575" flag="0"/>
      <psa10 value="0.0256707465" flag="0"/>
      <psa30 value="0.0015643794" flag="0"/>
    </comp>
    <comp name="--.HNN">
      <acc value="0.1150485656" flag="0"/>
      <vel value="0.0594640759" flag="0"/>
      <psa03 value="0.4463059412" flag="0"/>
      <psa10 value="0.0429996937" flag="0"/>
      <psa30 value="0.0034889587" flag="0"/>
    </comp>
    <comp name="--.HNE">
      <acc value="0.1108971880" flag="0"/>
      <vel value="0.0567145176" flag="0"/>
      <psa03 value="0.3539885537" flag="0"/>
      <psa10 value="0.0464589653" flag="0"/>
      <psa30 value="0.0048051805" flag="0"/>
    </comp>
  </station>
  <station code="EVR" name="EVR" netid="HL" insttype="DR24" lat="38.9166" lon="21.8105">
    <comp name="--.HHE">
      <acc value="0.0119866900" flag="0"/>
      <vel value="0.0061885579" flag="0"/>
      <psa03 value="0.0221049594" flag="0"/>
      <psa10 value="0.0053840871" flag="0"/>
      <psa30 value="0.0010949307" flag="0"/>
    </comp>
    <comp name="--.HHZ">
      <acc value="0.0066651260" flag="0"/>
      <vel value="0.0043030605" flag="0"/>
      <psa03 value="0.0166783536" flag="0"/>
      <psa10 value="0.0047016889" flag="0"/>
      <psa30 value="0.0004970477" flag="0"/>
    </comp>
    <comp name="--.HHN">
      <acc value="0.0119716539" flag="0"/>
      <vel value="0.0056570888" flag="0"/>
      <psa03 value="0.0221593774" flag="0"/>
      <psa10 value="0.0046629521" flag="0"/>
      <psa30 value="0.0004272364" flag="0"/>
    </comp>
  </station>
  <station code="ITM" name="ITM" netid="HL" insttype="DR24" lat="37.1787" lon="21.9252">
    <comp name="--.HHE">
      <acc value="0.0214568212" flag="0"/>
      <vel value="0.0168385222" flag="0"/>
      <psa03 value="0.0524830714" flag="0"/>
      <psa10 value="0.0211968138" flag="0"/>
      <psa30 value="0.0030140953" flag="0"/>
    </comp>
    <comp name="--.HHN">
      <acc value="0.0221313765" flag="0"/>
      <vel value="0.0128867956" flag="0"/>
      <psa03 value="0.0488037369" flag="0"/>
      <psa10 value="0.0177827040" flag="0"/>
      <psa30 value="0.0025847014" flag="0"/>
    </comp>
    <comp name="--.HHZ">
      <acc value="0.0165456888" flag="0"/>
      <vel value="0.0114649252" flag="0"/>
      <psa03 value="0.0380903918" flag="0"/>
      <psa10 value="0.0137610665" flag="0"/>
      <psa30 value="0.0016842199" flag="0"/>
    </comp>
  </station>
  <station code="KLV" name="KLV" netid="HL" insttype="120" lat="38.0435" lon="22.1504">
    <comp name="--.HHE">
      <acc value="0.0291217989" flag="0"/>
      <vel value="0.0118062813" flag="0"/>
      <psa03 value="0.0425506869" flag="0"/>
      <psa10 value="0.0094470530" flag="0"/>
      <psa30 value="0.0007698873" flag="0"/>
    </comp>
    <comp name="--.HHZ">
      <acc value="0.0238405309" flag="0"/>
      <vel value="0.0101122161" flag="0"/>
      <psa03 value="0.0611383225" flag="0"/>
      <psa10 value="0.0064819542" flag="0"/>
      <psa30 value="0.0006772111" flag="0"/>
    </comp>
    <comp name="--.HHN">
      <acc value="0.0192599142" flag="0"/>
      <vel value="0.0092551172" flag="0"/>
      <psa03 value="0.0536589580" flag="0"/>
      <psa10 value="0.0086281308" flag="0"/>
      <psa30 value="0.0009116362" flag="0"/>
    </comp>
  </station>
  <station code="ORTH" name="ORTH" netid="HL" insttype="30" lat="37.8511" lon="20.6963">
    <comp name="--.HHE">
      <acc value="0.8573386971" flag="0"/>
      <vel value="0.1980912991" flag="0"/>
      <psa03 value="1.3736037513" flag="0"/>
      <psa10 value="0.0678330968" flag="0"/>
      <psa30 value="0.0051959009" flag="0"/>
    </comp>
    <comp name="--.HHZ">
      <acc value="0.4596512305" flag="0"/>
      <vel value="0.1078440310" flag="0"/>
      <psa03 value="0.3019232512" flag="0"/>
      <psa10 value="0.0173348467" flag="0"/>
      <psa30 value="0.0025768800" flag="0"/>
    </comp>
    <comp name="--.HHN">
      <acc value="0.9248327444" flag="0"/>
      <vel value="0.2300475535" flag="0"/>
      <psa03 value="0.7147970821" flag="0"/>
      <psa10 value="0.0539593003" flag="0"/>
      <psa30 value="0.0047606186" flag="0"/>
    </comp>
  </station>
  <station code="PATC" name="PATC" netid="HL" insttype="CMG-5" lat="38.2693" lon="21.76">
    <comp name="00.HNZ">
      <acc value="0.0781100847" flag="0"/>
      <vel value="0.0397577817" flag="0"/>
      <psa03 value="0.1629026474" flag="0"/>
      <psa10 value="0.0265043171" flag="0"/>
      <psa30 value="0.0031023933" flag="0"/>
    </comp>
    <comp name="00.HNE">
      <acc value="0.1549917621" flag="0"/>
      <vel value="0.0789409719" flag="0"/>
      <psa03 value="0.3189441508" flag="0"/>
      <psa10 value="0.0733567495" flag="0"/>
      <psa30 value="0.0085460903" flag="0"/>
    </comp>
    <comp name="00.HNN">
      <acc value="0.1527489752" flag="0"/>
      <vel value="0.0706331865" flag="0"/>
      <psa03 value="0.2813140460" flag="0"/>
      <psa10 value="0.0447140481" flag="0"/>
      <psa30 value="0.0046577538" flag="0"/>
    </comp>
  </station>
  <station code="PATG" name="PATG" netid="HL" insttype="CMG-5" lat="38.2386" lon="21.7266">
    <comp name="00.HNZ">
      <acc value="0.1098440248" flag="0"/>
      <vel value="0.0409122190" flag="0"/>
      <psa03 value="0.2117026152" flag="0"/>
      <psa10 value="0.0451632894" flag="0"/>
      <psa30 value="0.0063326331" flag="0"/>
    </comp>
    <comp name="00.HNE">
      <acc value="0.2786536678" flag="0"/>
      <vel value="0.1353634526" flag="0"/>
      <psa03 value="0.4419588399" flag="0"/>
      <psa10 value="0.0740347757" flag="0"/>
      <psa30 value="0.0087111254" flag="0"/>
    </comp>
    <comp name="00.HNN">
      <acc value="0.3358567331" flag="0"/>
      <vel value="0.1927928827" flag="0"/>
      <psa03 value="0.7974377712" flag="0"/>
      <psa10 value="0.0635409484" flag="0"/>
      <psa30 value="0.0119236186" flag="0"/>
    </comp>
  </station>
  <station code="RIOA" name="RIOA" netid="HL" insttype="CMG-5" lat="38.2959" lon="21.7912">
    <comp name="00.HNZ">
      <acc value="0.1053396521" flag="0"/>
      <vel value="0.0252799836" flag="0"/>
      <psa03 value="0.0925207067" flag="0"/>
      <psa10 value="0.0112860057" flag="0"/>
      <psa30 value="0.0026047476" flag="0"/>
    </comp>
    <comp name="00.HNN">
      <acc value="0.1327247604" flag="0"/>
      <vel value="0.0573766574" flag="0"/>
      <psa03 value="0.1278169641" flag="0"/>
      <psa10 value="0.0257145273" flag="0"/>
      <psa30 value="0.0041300876" flag="0"/>
    </comp>
    <comp name="00.HNE">
      <acc value="0.1279477475" flag="0"/>
      <vel value="0.0388016653" flag="0"/>
      <psa03 value="0.1756303046" flag="0"/>
      <psa10 value="0.0267583155" flag="0"/>
      <psa30 value="0.0020038053" flag="0"/>
    </comp>
  </station>
  <station code="RLS" name="RLS" netid="HL" insttype="CMG3ESPC-120s" lat="38.0559" lon="21.4647">
    <comp name="--.HHE">
      <acc value="0.4867249827" flag="0"/>
      <vel value="0.1525448016" flag="0"/>
      <psa03 value="0.8597818566" flag="0"/>
      <psa10 value="0.0635861949" flag="0"/>
      <psa30 value="0.0062960205" flag="0"/>
    </comp>
    <comp name="--.HHZ">
      <acc value="0.1436767701" flag="0"/>
      <vel value="0.0365270869" flag="0"/>
      <psa03 value="0.3647038455" flag="0"/>
      <psa10 value="0.0205270789" flag="0"/>
      <psa30 value="0.0016856428" flag="0"/>
    </comp>
    <comp name="--.HHN">
      <acc value="0.3082755804" flag="0"/>
      <vel value="0.0662895785" flag="0"/>
      <psa03 value="0.5034747610" flag="0"/>
      <psa10 value="0.0289661631" flag="0"/>
      <psa30 value="0.0043529265" flag="0"/>
    </comp>
  </station>
  <station code="VLS" name="VLS" netid="HL" insttype="120P," lat="38.1768" lon="20.5886">
    <comp name="--.HHE">
      <acc value="0.1669965100" flag="0"/>
      <vel value="0.0354414536" flag="0"/>
      <psa03 value="0.2845030880" flag="0"/>
      <psa10 value="0.0111461228" flag="0"/>
      <psa30 value="0.0007941836" flag="0"/>
    </comp>
    <comp name="--.HHZ">
