<?xml version="1.0" encoding="UTF-8" standalone="yes"?>
<!DOCTYPE earthquake SYSTEM "stationlist.dtd">
<stationlist created="" xmlns="ch.ethz.sed.shakemap.usgs.xml">
  <station code="BERA" name="BERA" netid="AC" insttype="" lat="40.7081" lon="19.9455">
    <comp name="00.HHE">
      <acc value="0.0385270320" flag="0"/>
      <vel value="0.0124020507" flag="0"/>
      <psa03 value="0.0830132939" flag="0"/>
      <psa10 value="0.0144505993" flag="0"/>
      <psa30 value="0.0010412960" flag="0"/>
    </comp>
    <comp name="00.HHN">
      <acc value="0.0256104840" flag="0"/>
      <vel value="0.0151219530" flag="0"/>
      <psa03 value="0.0743068913" flag="0"/>
      <psa10 value="0.0102466223" flag="0"/>
      <psa30 value="0.0009356569" flag="0"/>
    </comp>
    <comp name="00.HHZ">
      <acc value="0.0184705092" flag="0"/>
      <vel value="0.0064296534" flag="0"/>
      <psa03 value="0.0407503276" flag="0"/>
      <psa10 value="0.0064777535" flag="0"/>
      <psa30 value="0.0006555975" flag="0"/>
    </comp>
  </station>
  <station code="LACI" name="LACI" netid="AC" insttype="" lat="41.6367" lon="19.7178">
    <comp name="00.HHE">
      <acc value="1.7844640520" flag="0"/>
      <vel value="0.2869964164" flag="0"/>
      <psa03 value="0.3876208277" flag="0"/>
      <psa10 value="0.0389484248" flag="0"/>
      <psa30 value="0.0033264360" flag="0"/>
    </comp>
    <comp name="00.HHN">
      <acc value="1.2332971413" flag="0"/>
      <vel value="0.1696403033" flag="0"/>
      <psa03 value="0.4939281141" flag="0"/>
      <psa10 value="0.0869706866" flag="0"/>
      <psa30 value="0.0094863718" flag="0"/>
    </comp>
    <comp name="00.HHZ">
      <acc value="0.5810531880" flag="0"/>
      <vel value="0.0956043236" flag="0"/>
      <psa03 value="0.1897474295" flag="0"/>
      <psa10 value="0.0445790315" flag="0"/>
      <psa30 value="0.0053781562" flag="0"/>
    </comp>
  </station>
  <station code="BARME" name="BARME" netid="ME" insttype="CMG-5" lat="42.1055" lon="19.0889">
    <comp name="--.HNN">
      <acc value="0.3292107521" flag="0"/>
      <vel value="0.0890199393" flag="0"/>
      <psa03 value="0.5611091715" flag="0"/>
      <psa10 value="0.0593444998" flag="0"/>
      <psa30 value="0.0024094587" flag="0"/>
    </comp>
    <comp name="--.HNE">
      <acc value="0.3160744966" flag="0"/>
      <vel value="0.0921122640" flag="0"/>
      <psa03 value="0.4060520481" flag="0"/>
      <psa10 value="0.0540966783" flag="0"/>
      <psa30 value="0.0029514485" flag="0"/>
    </comp>
    <comp name="--.HNZ">
      <acc value="0.1177252542" flag="0"/>
      <vel value="0.0359490050" flag="0"/>
      <psa03 value="0.1743640170" flag="0"/>
      <psa10 value="0.0261041923" flag="0"/>
      <psa30 value="0.0011911779" flag="0"/>
    </comp>
  </station>
  <station code="CEVME" name="CEVME" netid="ME" insttype="CMG-5" lat="42.5467" lon="18.9177">
    <comp name="--.HNE">
      <acc value="0.0888573486" flag="0"/>
      <vel value="0.0351408648" flag="0"/>
      <psa03 value="0.1646180840" flag="0"/>
      <psa10 value="0.0186693922" flag="0"/>
      <psa30 value="0.0014278415" flag="0"/>
    </comp>
    <comp name="--.HNN">
      <acc value="0.0531564992" flag="0"/>
      <vel value="0.0210070188" flag="0"/>
      <psa03 value="0.0834445224" flag="0"/>
      <psa10 value="0.0131686867" flag="0"/>
      <psa30 value="0.0006808656" flag="0"/>
    </comp>
    <comp name="--.HNZ">
      <acc value="0.0336931680" flag="0"/>
      <vel value="0.0143896697" flag="0"/>
      <psa03 value="0.0820793625" flag="0"/>
      <psa10 value="0.0141641388" flag="0"/>
      <psa30 value="0.0009464552" flag="0"/>
    </comp>
  </station>
  <station code="DAGME" name="DAGME" netid="ME" insttype="CMG-5" lat="42.5684" lon="19.0677">
    <comp name="--.HNE">
      <acc value="0.2239698557" flag="0"/>
      <vel value="0.1358045527" flag="0"/>
      <psa03 value="0.6021644328" flag="0"/>
      <psa10 value="0.1036270173" flag="0"/>
      <psa30 value="0.0045245420" flag="0"/>
    </comp>
    <comp name="--.HNN">
      <acc value="0.1275494127" flag="0"/>
      <vel value="0.0819225118" flag="0"/>
      <psa03 value="0.2596823137" flag="0"/>
      <psa10 value="0.0369483891" flag="0"/>
      <psa30 value="0.0031921654" flag="0"/>
    </comp>
    <comp name="--.HNZ">
      <acc value="0.0058479083" flag="0"/>
      <vel value="0.0027360298" flag="0"/>
      <psa03 value="0.0106642174" flag="0"/>
      <psa10 value="0.0017264006" flag="0"/>
      <psa30 value="0.0002025606" flag="0"/>
    </comp>
  </station>
  <station code="PDG" name="PDG" netid="MN" insttype="" lat="42.4297" lon="19.2608">
    <comp name="--.HHE">
      <acc value="0.0548997657" flag="0"/>
      <vel value="0.0281936306" flag="0"/>
      <psa03 value="0.1179175680" flag="0"/>
      <psa10 value="0.0273953375" flag="0"/>
      <psa30 value="0.0022283376" flag="0"/>
    </comp>
    <comp name="--.HHN">
      <acc value="0.0364435787" flag="0"/>
      <vel value="0.0146465635" flag="0"/>
      <psa03 value="0.0871161120" flag="0"/>
      <psa10 value="0.0179748354" flag="0"/>
      <psa30 value="0.0013663416" flag="0"/>
    </comp>
    <comp name="--.HHZ">
      <acc value="0.0430555747" flag="0"/>
      <vel value="0.0232750914" flag="0"/>
      <psa03 value="0.0864441187" flag="0"/>
      <psa10 value="0.0144610393" flag="0"/>
      <psa30 value="0.0020698143" flag="0"/>
    </comp>
  </station>
  <station code="TIR" name="TIR" netid="MN" insttype="" lat="41.3472" lon="19.8631">
    <comp name="--.HHE">
      <acc value="0.1875897867" flag="0"/>
      <vel value="0.0737473345" flag="0"/>
      <psa03 value="0.1870385852" flag="0"/>
      <psa10 value="0.0421423004" flag="0"/>
      <psa30 value="0.0045411457" flag="0"/>
    </comp>
    <comp name="--.HHN">
      <acc value="0.2074704559" flag="0"/>
      <vel value="0.0498100086" flag="0"/>
      <psa03 value="0.2558222615" flag="0"/>
      <psa10 value="0.0242825686" flag="0"/>
      <psa30 value="0.0034452509" flag="0"/>
    </comp>
    <comp name="--.HHZ">
      <acc value="0.1254780807" flag="0"/>
      <vel value="0.0284473911" flag="0"/>
      <psa03 value="0.1667913119" flag="0"/>
      <psa10 value="0.0186204244" flag="0"/>
      <psa30 value="0.0045390581" flag="0"/>
    </comp>
  </station>
</stationlist>
