<?xml version="1.0" encoding="UTF-8" standalone="yes"?>
<!DOCTYPE earthquake SYSTEM "stationlist.dtd">
<stationlist created="" xmlns="ch.ethz.sed.shakemap.usgs.xml">
  <station code="BERA" name="BERA" netid="AC" insttype="" lat="40.7081" lon="19.9455">
    <comp name="00.HHE">
      <acc value="0.0385270318" flag="0"/>
      <vel value="0.0124020514" flag="0"/>
      <psa03 value="0.0830132939" flag="0"/>
      <psa10 value="0.0144505993" flag="0"/>
      <psa30 value="0.0010412970" flag="0"/>
    </comp>
    <comp name="00.HHZ">
      <acc value="0.0184705086" flag="0"/>
      <vel value="0.0064296549" flag="0"/>
      <psa03 value="0.0407503276" flag="0"/>
      <psa10 value="0.0064777535" flag="0"/>
      <psa30 value="0.0006555966" flag="0"/>
    </comp>
    <comp name="00.HHN">
      <acc value="0.0256104839" flag="0"/>
      <vel value="0.0151219520" flag="0"/>
      <psa03 value="0.0743068913" flag="0"/>
      <psa10 value="0.0102466224" flag="0"/>
      <psa30 value="0.0009339285" flag="0"/>
    </comp>
  </station>
  <station code="LACI" name="LACI" netid="AC" insttype="" lat="41.6367" lon="19.7178">
    <comp name="00.HHE">
      <acc value="1.7844640519" flag="0"/>
      <vel value="0.2869964173" flag="0"/>
      <psa03 value="0.3876208277" flag="0"/>
      <psa10 value="0.0389484277" flag="0"/>
      <psa30 value="0.0033265865" flag="0"/>
    </comp>
    <comp name="00.HHN">
      <acc value="1.2332971412" flag="0"/>
      <vel value="0.1696403042" flag="0"/>
      <psa03 value="0.4939281141" flag="0"/>
      <psa10 value="0.0869706852" flag="0"/>
      <psa30 value="0.0094859853" flag="0"/>
    </comp>
    <comp name="00.HHZ">
      <acc value="0.5810531882" flag="0"/>
      <vel value="0.0956043242" flag="0"/>
      <psa03 value="0.1897474295" flag="0"/>
      <psa10 value="0.0445790314" flag="0"/>
      <psa30 value="0.0053783910" flag="0"/>
    </comp>
  </station>
  <station code="BARME" name="BARME" netid="ME" insttype="CMG-5" lat="42.1055" lon="19.0889">
    <comp name="--.HNZ">
      <acc value="0.1177252400" flag="0"/>
      <vel value="0.0359490101" flag="0"/>
      <psa03 value="0.1743640170" flag="0"/>
      <psa10 value="0.0261041922" flag="0"/>
      <psa30 value="0.0011912368" flag="0"/>
    </comp>
    <comp name="--.HNN">
      <acc value="0.3292107679" flag="0"/>
      <vel value="0.0890199419" flag="0"/>
      <psa03 value="0.5611091715" flag="0"/>
      <psa10 value="0.0593444998" flag="0"/>
      <psa30 value="0.0024095987" flag="0"/>
    </comp>
    <comp name="--.HNE">
      <acc value="0.3160742852" flag="0"/>
      <vel value="0.0921122649" flag="0"/>
      <psa03 value="0.4060520481" flag="0"/>
      <psa10 value="0.0540966780" flag="0"/>
      <psa30 value="0.0029516010" flag="0"/>
    </comp>
  </station>
  <station code="CEVME" name="CEVME" netid="ME" insttype="CMG-5" lat="42.5467" lon="18.9177">
    <comp name="--.HNZ">
      <acc value="0.0336931535" flag="0"/>
      <vel value="0.0143896709" flag="0"/>
      <psa03 value="0.0820793625" flag="0"/>
      <psa10 value="0.0141641387" flag="0"/>
      <psa30 value="0.0009459438" flag="0"/>
    </comp>
    <comp name="--.HNE">
      <acc value="0.0888573557" flag="0"/>
      <vel value="0.0351408667" flag="0"/>
      <psa03 value="0.1646180840" flag="0"/>
      <psa10 value="0.0186693921" flag="0"/>
      <psa30 value="0.0014275302" flag="0"/>
    </comp>
    <comp name="--.HNN">
      <acc value="0.0531564944" flag="0"/>
      <vel value="0.0210070026" flag="0"/>
      <psa03 value="0.0834445224" flag="0"/>
      <psa10 value="0.0131686868" flag="0"/>
      <psa30 value="0.0006807061" flag="0"/>
    </comp>
  </station>
  <station code="DAGME" name="DAGME" netid="ME" insttype="CMG-5" lat="42.5684" lon="19.0677">
    <comp name="--.HNE">
      <acc value="0.2239698342" flag="0"/>
      <vel value="0.1358045570" flag="0"/>
      <psa03 value="0.6021644328" flag="0"/>
      <psa10 value="0.1036270172" flag="0"/>
      <psa30 value="0.0045247139" flag="0"/>
    </comp>
    <comp name="--.HNN">
      <acc value="0.1275493992" flag="0"/>
      <vel value="0.0819225124" flag="0"/>
      <psa03 value="0.2596823137" flag="0"/>
      <psa10 value="0.0369483892" flag="0"/>
      <psa30 value="0.0031922627" flag="0"/>
    </comp>
    <comp name="--.HNZ">
      <acc value="0.0058479070" flag="0"/>
      <vel value="0.0027360300" flag="0"/>
      <psa03 value="0.0106642174" flag="0"/>
      <psa10 value="0.0017264006" flag="0"/>
      <psa30 value="0.0002025509" flag="0"/>
    </comp>
  </station>
  <station code="KOLME" name="KOLME" netid="ME" insttype="CMG-5" lat="42.8505" lon="19.5152">
    <comp name="--.HNN">
      <acc value="0.0154448852" flag="0"/>
      <vel value="0.0167247355" flag="0"/>
      <psa03 value="0.0375319265" flag="0"/>
      <psa10 value="0.0157227597" flag="0"/>
      <psa30 value="0.0017250141" flag="0"/>
    </comp>
    <comp name="--.HNE">
      <acc value="0.0142864263" flag="0"/>
      <vel value="0.0133534473" flag="0"/>
      <psa03 value="0.0290777805" flag="0"/>
      <psa10 value="0.0243193685" flag="0"/>
      <psa30 value="0.0019247288" flag="0"/>
    </comp>
    <comp name="--.HNZ">
      <acc value="0.0146071309" flag="0"/>
      <vel value="0.0131823326" flag="0"/>
      <psa03 value="0.0298586441" flag="0"/>
      <psa10 value="0.0099690918" flag="0"/>
      <psa30 value="0.0016202705" flag="0"/>
    </comp>
  </station>
  <station code="PDG" name="PDG" netid="MN" insttype="" lat="42.4297" lon="19.2608">
    <comp name="--.HHE">
      <acc value="0.0548997659" flag="0"/>
      <vel value="0.0281936306" flag="0"/>
      <psa03 value="0.1179175680" flag="0"/>
      <psa10 value="0.0273953376" flag="0"/>
      <psa30 value="0.0022284009" flag="0"/>
    </comp>
    <comp name="--.HHN">
      <acc value="0.0364435776" flag="0"/>
      <vel value="0.0146465638" flag="0"/>
      <psa03 value="0.0871161120" flag="0"/>
      <psa10 value="0.0179748355" flag="0"/>
      <psa30 value="0.0013663591" flag="0"/>
    </comp>
    <comp name="--.HHZ">
      <acc value="0.0430555744" flag="0"/>
      <vel value="0.0232750907" flag="0"/>
      <psa03 value="0.0864441187" flag="0"/>
      <psa10 value="0.0144610392" flag="0"/>
      <psa30 value="0.0020698127" flag="0"/>
    </comp>
  </station>
  <station code="TIR" name="TIR" netid="MN" insttype="" lat="41.3472" lon="19.8631">
    <comp name="--.HHE">
      <acc value="0.1875897858" flag="0"/>
      <vel value="0.0737473344" flag="0"/>
      <psa03 value="0.1870385852" flag="0"/>
      <psa10 value="0.0421423003" flag="0"/>
      <psa30 value="0.0045412514" flag="0"/>
    </comp>
    <comp name="--.HHN">
      <acc value="0.2074704552" flag="0"/>
      <vel value="0.0498100077" flag="0"/>
      <psa03 value="0.2558222615" flag="0"/>
      <psa10 value="0.0242825686" flag="0"/>
      <psa30 value="0.0034451805" flag="0"/>
    </comp>
    <comp name="--.HHZ">
      <acc value="0.1254780802" flag="0"/>
      <vel value="0.0284473902" flag="0"/>
      <psa03 value="0.1667913119" flag="0"/>
      <psa10 value="0.0186204245" flag="0"/>
      <psa30 value="0.0045390268" flag="0"/>
    </comp>
  </station>
</stationlist>
