<?xml version="1.0" encoding="UTF-8" standalone="yes"?>
<!DOCTYPE earthquake SYSTEM "stationlist.dtd">
<stationlist created="" xmlns="ch.ethz.sed.shakemap.usgs.xml">
  <station code="BERA" name="BERA" netid="AC" insttype="" lat="40.7081" lon="19.9455">
    <comp name="00.HHE">
      <acc value="0.0385270320" flag="0"/>
      <vel value="0.0124020506" flag="0"/>
      <psa03 value="0.0830132939" flag="0"/>
      <psa10 value="0.0144505993" flag="0"/>
      <psa30 value="0.0010412960" flag="0"/>
    </comp>
    <comp name="00.HHZ">
      <acc value="0.0184705092" flag="0"/>
      <vel value="0.0064296534" flag="0"/>
      <psa03 value="0.0407503276" flag="0"/>
      <psa10 value="0.0064777535" flag="0"/>
      <psa30 value="0.0006555976" flag="0"/>
    </comp>
    <comp name="00.HHN">
      <acc value="0.0256104840" flag="0"/>
      <vel value="0.0151219529" flag="0"/>
      <psa03 value="0.0743068913" flag="0"/>
      <psa10 value="0.0102466223" flag="0"/>
      <psa30 value="0.0009357655" flag="0"/>
    </comp>
  </station>
  <station code="LACI" name="LACI" netid="AC" insttype="" lat="41.6367" lon="19.7178">
    <comp name="00.HHE">
      <acc value="1.7844640520" flag="0"/>
      <vel value="0.2869964163" flag="0"/>
      <psa03 value="0.3876208277" flag="0"/>
      <psa10 value="0.0389484251" flag="0"/>
      <psa30 value="0.0033264505" flag="0"/>
    </comp>
    <comp name="00.HHN">
      <acc value="1.2332971413" flag="0"/>
      <vel value="0.1696403033" flag="0"/>
      <psa03 value="0.4939281141" flag="0"/>
      <psa10 value="0.0869706867" flag="0"/>
      <psa30 value="0.0094863113" flag="0"/>
    </comp>
    <comp name="00.HHZ">
      <acc value="0.5810531881" flag="0"/>
      <vel value="0.0956043237" flag="0"/>
      <psa03 value="0.1897474295" flag="0"/>
      <psa10 value="0.0445790314" flag="0"/>
      <psa30 value="0.0053781714" flag="0"/>
    </comp>
  </station>
  <station code="BARME" name="BARME" netid="ME" insttype="CMG-5" lat="42.1055" lon="19.0889">
    <comp name="--.HNE">
      <acc value="0.3160743540" flag="0"/>
      <vel value="0.0921122647" flag="0"/>
      <psa03 value="0.4060520481" flag="0"/>
      <psa10 value="0.0540966781" flag="0"/>
      <psa30 value="0.0029515713" flag="0"/>
    </comp>
    <comp name="--.HNN">
      <acc value="0.3292107639" flag="0"/>
      <vel value="0.0890199428" flag="0"/>
      <psa03 value="0.5611091715" flag="0"/>
      <psa10 value="0.0593444998" flag="0"/>
      <psa30 value="0.0024095448" flag="0"/>
    </comp>
    <comp name="--.HNZ">
      <acc value="0.1177252405" flag="0"/>
      <vel value="0.0359490097" flag="0"/>
      <psa03 value="0.1743640170" flag="0"/>
      <psa10 value="0.0261041922" flag="0"/>
      <psa30 value="0.0011912747" flag="0"/>
    </comp>
  </station>
  <station code="CEVME" name="CEVME" netid="ME" insttype="CMG-5" lat="42.5467" lon="18.9177">
    <comp name="--.HNE">
      <acc value="0.0888573588" flag="0"/>
      <vel value="0.0351408654" flag="0"/>
      <psa03 value="0.1646180840" flag="0"/>
      <psa10 value="0.0186693921" flag="0"/>
      <psa30 value="0.0014276280" flag="0"/>
    </comp>
    <comp name="--.HNZ">
      <acc value="0.0336931528" flag="0"/>
      <vel value="0.0143896691" flag="0"/>
      <psa03 value="0.0820793625" flag="0"/>
      <psa10 value="0.0141641387" flag="0"/>
      <psa30 value="0.0009459609" flag="0"/>
    </comp>
    <comp name="--.HNN">
      <acc value="0.0531564859" flag="0"/>
      <vel value="0.0210070062" flag="0"/>
      <psa03 value="0.0834445224" flag="0"/>
      <psa10 value="0.0131686868" flag="0"/>
      <psa30 value="0.0006807940" flag="0"/>
    </comp>
  </station>
  <station code="DAGME" name="DAGME" netid="ME" insttype="CMG-5" lat="42.5684" lon="19.0677">
    <comp name="--.HNN">
      <acc value="0.1275494094" flag="0"/>
      <vel value="0.0819225126" flag="0"/>
      <psa03 value="0.2596823137" flag="0"/>
      <psa10 value="0.0369483892" flag="0"/>
      <psa30 value="0.0031922553" flag="0"/>
    </comp>
    <comp name="--.HNE">
      <acc value="0.2239698491" flag="0"/>
      <vel value="0.1358045566" flag="0"/>
      <psa03 value="0.6021644328" flag="0"/>
      <psa10 value="0.1036270172" flag="0"/>
      <psa30 value="0.0045246774" flag="0"/>
    </comp>
    <comp name="--.HNZ">
      <acc value="0.0058479081" flag="0"/>
      <vel value="0.0027360300" flag="0"/>
      <psa03 value="0.0106642174" flag="0"/>
      <psa10 value="0.0017264006" flag="0"/>
      <psa30 value="0.0002025521" flag="0"/>
    </comp>
  </station>
  <station code="PDG" name="PDG" netid="MN" insttype="" lat="42.4297" lon="19.2608">
    <comp name="--.HHE">
      <acc value="0.0548997657" flag="0"/>
      <vel value="0.0281936304" flag="0"/>
      <psa03 value="0.1179175680" flag="0"/>
      <psa10 value="0.0273953376" flag="0"/>
      <psa30 value="0.0022283739" flag="0"/>
    </comp>
    <comp name="--.HHN">
      <acc value="0.0364435788" flag="0"/>
      <vel value="0.0146465636" flag="0"/>
      <psa03 value="0.0871161120" flag="0"/>
      <psa10 value="0.0179748355" flag="0"/>
      <psa30 value="0.0013663551" flag="0"/>
    </comp>
    <comp name="--.HHZ">
      <acc value="0.0430555748" flag="0"/>
      <vel value="0.0232750911" flag="0"/>
      <psa03 value="0.0864441187" flag="0"/>
      <psa10 value="0.0144610393" flag="0"/>
      <psa30 value="0.0020698042" flag="0"/>
    </comp>
  </station>
  <station code="TIR" name="TIR" netid="MN" insttype="" lat="41.3472" lon="19.8631">
    <comp name="--.HHN">
      <acc value="0.2074704558" flag="0"/>
      <vel value="0.0498100089" flag="0"/>
      <psa03 value="0.2558222615" flag="0"/>
      <psa10 value="0.0242825686" flag="0"/>
      <psa30 value="0.0034452477" flag="0"/>
    </comp>
    <comp name="--.HHE">
      <acc value="0.1875897866" flag="0"/>
      <vel value="0.0737473348" flag="0"/>
      <psa03 value="0.1870385852" flag="0"/>
      <psa10 value="0.0421423004" flag="0"/>
      <psa30 value="0.0045411574" flag="0"/>
    </comp>
    <comp name="--.HHZ">
      <acc value="0.1254780807" flag="0"/>
      <vel value="0.0284473910" flag="0"/>
      <psa03 value="0.1667913119" flag="0"/>
      <psa10 value="0.0186204243" flag="0"/>
      <psa30 value="0.0045390558" flag="0"/>
    </comp>
  </station>
</stationlist>
