<?xml version="1.0" encoding="UTF-8" standalone="yes"?>
<!DOCTYPE earthquake SYSTEM "stationlist.dtd">
<stationlist created="" xmlns="ch.ethz.sed.shakemap.usgs.xml">
  <station code="APE" name="APE" netid="GE" insttype="STS-2/N" lat="37.0727" lon="25.523">
    <comp name="--.HHE">
      <acc value="0.1302375761" flag="0"/>
      <vel value="0.0317594134" flag="0"/>
      <psa03 value="0.1772954132" flag="0"/>
      <psa10 value="0.0055292756" flag="0"/>
      <psa30 value="0.0010791184" flag="0"/>
    </comp>
    <comp name="--.HHZ">
      <acc value="0.0626541086" flag="0"/>
      <vel value="0.0122599781" flag="0"/>
      <psa03 value="0.0575846414" flag="0"/>
      <psa10 value="0.0045000493" flag="0"/>
      <psa30 value="0.0012489643" flag="0"/>
    </comp>
    <comp name="--.HHN">
      <acc value="0.1479295905" flag="0"/>
      <vel value="0.0310313737" flag="0"/>
      <psa03 value="0.1348733116" flag="0"/>
      <psa10 value="0.0063873831" flag="0"/>
      <psa30 value="0.0012075146" flag="0"/>
    </comp>
  </station>
  <station code="THERA" name="THERA" netid="GE" insttype="STS-2/N" lat="36.367" lon="25.4753">
    <comp name="--.HHN">
      <acc value="0.1014160703" flag="0"/>
      <vel value="0.0203322281" flag="0"/>
      <psa03 value="0.0676357555" flag="0"/>
      <psa10 value="0.0058468629" flag="0"/>
      <psa30 value="0.0004246067" flag="0"/>
    </comp>
    <comp name="--.HHZ">
      <acc value="0.0845454412" flag="0"/>
      <vel value="0.0231204575" flag="0"/>
      <psa03 value="0.0832092964" flag="0"/>
      <psa10 value="0.0095068153" flag="0"/>
      <psa30 value="0.0008929076" flag="0"/>
    </comp>
    <comp name="--.HHE">
      <acc value="0.1634496579" flag="0"/>
      <vel value="0.0400343794" flag="0"/>
      <psa03 value="0.0795469832" flag="0"/>
      <psa10 value="0.0099794680" flag="0"/>
      <psa30 value="0.0012687127" flag="0"/>
    </comp>
  </station>
  <station code="SNT1" name="SNT1" netid="HA" insttype="30" lat="36.4159" lon="25.4282">
    <comp name="--.HHN">
      <acc value="0.1254127542" flag="0"/>
      <vel value="0.0218444606" flag="0"/>
      <psa03 value="0.0557223585" flag="0"/>
      <psa10 value="0.0196304279" flag="0"/>
      <psa30 value="0.0015413319" flag="0"/>
    </comp>
    <comp name="--.HHZ">
      <acc value="0.1277316411" flag="0"/>
      <vel value="0.0286339310" flag="0"/>
      <psa03 value="0.0686412763" flag="0"/>
      <psa10 value="0.0120122553" flag="0"/>
      <psa30 value="0.0010766934" flag="0"/>
    </comp>
    <comp name="--.HHE">
      <acc value="0.1405838429" flag="0"/>
      <vel value="0.0365216343" flag="0"/>
      <psa03 value="0.0838410593" flag="0"/>
      <psa10 value="0.0205758750" flag="0"/>
      <psa30 value="0.0020138148" flag="0"/>
    </comp>
  </station>
  <station code="NAX1" name="NAX1" netid="HI" insttype="CMG-5TD,ACCELEROMETER,GURALP" lat="37.1014" lon="25.3741">
    <comp name="--.HNE">
      <acc value="0.1413170636" flag="0"/>
      <vel value="0.0430555609" flag="0"/>
      <psa03 value="0.2353594969" flag="0"/>
      <psa10 value="0.0095976029" flag="0"/>
      <psa30 value="0.0012789454" flag="0"/>
    </comp>
    <comp name="--.HNN">
      <acc value="0.1184247219" flag="0"/>
      <vel value="0.0290373411" flag="0"/>
      <psa03 value="0.1487459957" flag="0"/>
      <psa10 value="0.0073999020" flag="0"/>
      <psa30 value="0.0007780288" flag="0"/>
    </comp>
    <comp name="--.HNZ">
      <acc value="0.0636513878" flag="0"/>
      <vel value="0.0152092378" flag="0"/>
      <psa03 value="0.0841722583" flag="0"/>
      <psa10 value="0.0041609215" flag="0"/>
      <psa30 value="0.0009250661" flag="0"/>
    </comp>
  </station>
  <station code="AMGA" name="AMGA" netid="HL" insttype="SMART24" lat="36.8316" lon="25.8938">
    <comp name="--.HHN">
      <acc value="0.5416863448" flag="0"/>
      <vel value="0.0939221941" flag="0"/>
      <psa03 value="0.2043359614" flag="0"/>
      <psa10 value="0.0261293063" flag="0"/>
      <psa30 value="0.0032644136" flag="0"/>
    </comp>
    <comp name="--.HHZ">
      <acc value="0.4760437791" flag="0"/>
      <vel value="0.0979141846" flag="0"/>
      <psa03 value="0.1609006369" flag="0"/>
      <psa10 value="0.0200174080" flag="0"/>
      <psa30 value="0.0022019646" flag="0"/>
    </comp>
  </station>
  <station code="APE" name="APE" netid="HL" insttype="120" lat="37.0727" lon="25.523">
    <comp name="--.HHZ">
      <acc value="0.0601036262" flag="0"/>
      <vel value="0.0117767068" flag="0"/>
      <psa03 value="0.0561293699" flag="0"/>
      <psa10 value="0.0044391283" flag="0"/>
      <psa30 value="0.0012453302" flag="0"/>
    </comp>
    <comp name="--.HHN">
      <acc value="0.1372658133" flag="0"/>
      <vel value="0.0291486435" flag="0"/>
      <psa03 value="0.1309644063" flag="0"/>
      <psa10 value="0.0062710807" flag="0"/>
      <psa30 value="0.0012022666" flag="0"/>
    </comp>
    <comp name="--.HHE">
      <acc value="0.1259204440" flag="0"/>
      <vel value="0.0303510779" flag="0"/>
      <psa03 value="0.1715439137" flag="0"/>
      <psa10 value="0.0054529708" flag="0"/>
      <psa30 value="0.0010720754" flag="0"/>
    </comp>
  </station>
  <station code="MHLO" name="MHLO" netid="HL" insttype="20" lat="36.6898" lon="24.4017">
    <comp name="--.HHE">
      <acc value="0.1340823139" flag="0"/>
      <vel value="0.0559499824" flag="0"/>
      <psa03 value="0.4706976408" flag="0"/>
      <psa10 value="0.0382382217" flag="0"/>
      <psa30 value="0.0021950381" flag="0"/>
    </comp>
    <comp name="--.HHZ">
      <acc value="0.0317676608" flag="0"/>
      <vel value="0.0177812147" flag="0"/>
      <psa03 value="0.1107951606" flag="0"/>
      <psa10 value="0.0216974702" flag="0"/>
      <psa30 value="0.0016386062" flag="0"/>
    </comp>
    <comp name="--.HHN">
      <acc value="0.1174766022" flag="0"/>
      <vel value="0.0500893632" flag="0"/>
      <psa03 value="0.4683627064" flag="0"/>
      <psa10 value="0.0388581368" flag="0"/>
      <psa30 value="0.0015395895" flag="0"/>
    </comp>
  </station>
  <station code="SAP3" name="SAP3" netid="HL" insttype="LE3D20_SMART24" lat="36.4356" lon="25.3454">
    <comp name="--.HHE">
      <acc value="0.4789118821" flag="0"/>
      <vel value="0.1048963142" flag="0"/>
      <psa03 value="0.4149530654" flag="0"/>
      <psa10 value="0.0708900216" flag="0"/>
      <psa30 value="0.0085437533" flag="0"/>
    </comp>
    <comp name="--.HHZ">
      <acc value="0.3732923228" flag="0"/>
      <vel value="0.0949636294" flag="0"/>
      <psa03 value="0.3289308686" flag="0"/>
      <psa10 value="0.0258124304" flag="0"/>
      <psa30 value="0.0037210458" flag="0"/>
    </comp>
    <comp name="--.HHN">
      <acc value="0.3858426135" flag="0"/>
      <vel value="0.0982749719" flag="0"/>
      <psa03 value="0.4972715177" flag="0"/>
      <psa10 value="0.0758694993" flag="0"/>
      <psa30 value="0.0098616406" flag="0"/>
    </comp>
  </station>
  <station code="THERA" name="THERA" netid="HL" insttype="120" lat="36.367" lon="25.4753">
    <comp name="--.HHE">
      <acc value="0.1579192196" flag="0"/>
      <vel value="0.0390359925" flag="0"/>
      <psa03 value="0.0774727195" flag="0"/>
      <psa10 value="0.0099229745" flag="0"/>
      <psa30 value="0.0012675473" flag="0"/>
    </comp>
    <comp name="--.HHN">
      <acc value="0.0982832300" flag="0"/>
      <vel value="0.0195580072" flag="0"/>
      <psa03 value="0.0653117099" flag="0"/>
      <psa10 value="0.0057980167" flag="0"/>
      <psa30 value="0.0004213685" flag="0"/>
    </comp>
    <comp name="--.HHZ">
      <acc value="0.0820876375" flag="0"/>
      <vel value="0.0224067019" flag="0"/>
      <psa03 value="0.0808659472" flag="0"/>
      <psa10 value="0.0094546109" flag="0"/>
      <psa30 value="0.0008910768" flag="0"/>
    </comp>
  </station>
  <station code="THRA" name="THRA" netid="HL" insttype="CMG-5" lat="36.415" lon="25.4324">
    <comp name="00.HNZ">
      <acc value="0.2281542638" flag="0"/>
      <vel value="0.0621522513" flag="0"/>
      <psa03 value="0.2317384037" flag="0"/>
      <psa10 value="0.0282595137" flag="0"/>
      <psa30 value="0.0023042511" flag="0"/>
    </comp>
    <comp name="00.HNE">
      <acc value="0.3211593846" flag="0"/>
      <vel value="0.0983668121" flag="0"/>
      <psa03 value="0.4692697773" flag="0"/>
      <psa10 value="0.0471911776" flag="0"/>
      <psa30 value="0.0040107431" flag="0"/>
    </comp>
    <comp name="00.HNN">
      <acc value="0.3505312514" flag="0"/>
      <vel value="0.0991442152" flag="0"/>
      <psa03 value="0.4154323570" flag="0"/>
      <psa10 value="0.0747137308" flag="0"/>
      <psa30 value="0.0031208718" flag="0"/>
    </comp>
  </station>
  <station code="TNSA" name="TNSA" netid="HL" insttype="CMG-5" lat="37.5394" lon="25.1631">
    <comp name="00.HNE">
      <acc value="0.0640922580" flag="0"/>
      <vel value="0.0213771117" flag="0"/>
      <psa03 value="0.0863997758" flag="0"/>
      <psa10 value="0.0049411257" flag="0"/>
      <psa30 value="0.0005996617" flag="0"/>
    </comp>
    <comp name="00.HNZ">
      <acc value="0.0384057616" flag="0"/>
      <vel value="0.0123089847" flag="0"/>
      <psa03 value="0.0869529510" flag="0"/>
      <psa10 value="0.0041114036" flag="0"/>
      <psa30 value="0.0008570517" flag="0"/>
    </comp>
  </station>
</stationlist>
