<?xml version="1.0" encoding="UTF-8" standalone="yes"?>
<!DOCTYPE earthquake SYSTEM "stationlist.dtd">
<stationlist created="" xmlns="ch.ethz.sed.shakemap.usgs.xml">
  <station code="APE" name="APE" netid="GE" insttype="STS-2/N" lat="37.0727" lon="25.523">
    <comp name="--.HHE">
      <acc value="0.1302375761" flag="0"/>
      <vel value="0.0317594134" flag="0"/>
      <psa03 value="0.1772954132" flag="0"/>
      <psa10 value="0.0055292756" flag="0"/>
      <psa30 value="0.0010791184" flag="0"/>
    </comp>
    <comp name="--.HHZ">
      <acc value="0.0626541086" flag="0"/>
      <vel value="0.0122599781" flag="0"/>
      <psa03 value="0.0575846414" flag="0"/>
      <psa10 value="0.0045000493" flag="0"/>
      <psa30 value="0.0012489643" flag="0"/>
    </comp>
    <comp name="--.HHN">
      <acc value="0.1479295905" flag="0"/>
      <vel value="0.0310313737" flag="0"/>
      <psa03 value="0.1348733116" flag="0"/>
      <psa10 value="0.0063873831" flag="0"/>
      <psa30 value="0.0012075146" flag="0"/>
    </comp>
  </station>
  <station code="THERA" name="THERA" netid="GE" insttype="STS-2/N" lat="36.367" lon="25.4753">
    <comp name="--.HHN">
      <acc value="0.1014160703" flag="0"/>
      <vel value="0.0203322281" flag="0"/>
      <psa03 value="0.0676357555" flag="0"/>
      <psa10 value="0.0058468629" flag="0"/>
      <psa30 value="0.0004246067" flag="0"/>
    </comp>
    <comp name="--.HHZ">
      <acc value="0.0845454412" flag="0"/>
      <vel value="0.0231204575" flag="0"/>
      <psa03 value="0.0832092964" flag="0"/>
      <psa10 value="0.0095068153" flag="0"/>
      <psa30 value="0.0008929076" flag="0"/>
    </comp>
    <comp name="--.HHE">
      <acc value="0.1634496579" flag="0"/>
      <vel value="0.0400343794" flag="0"/>
      <psa03 value="0.0795469832" flag="0"/>
      <psa10 value="0.0099794680" flag="0"/>
      <psa30 value="0.0012687127" flag="0"/>
    </comp>
  </station>
</stationlist>
