<?xml version="1.0" encoding="UTF-8" standalone="yes"?>
<!DOCTYPE earthquake SYSTEM "stationlist.dtd">
<stationlist created="" xmlns="ch.ethz.sed.shakemap.usgs.xml">
  <station code="SARI" name="SARI" netid="KO" insttype="CMG-3T" lat="38.4072" lon="36.4181">
    <comp name="--.HHZ">
      <acc value="0.1688812696" flag="0"/>
      <vel value="0.0395874989" flag="0"/>
      <psa03 value="0.2951669722" flag="0"/>
      <psa10 value="0.0372867205" flag="0"/>
      <psa30 value="0.0034444440" flag="0"/>
    </comp>
    <comp name="--.HHN">
      <acc value="0.1858728233" flag="0"/>
      <vel value="0.0444040092" flag="0"/>
      <psa03 value="0.1402307458" flag="0"/>
      <psa10 value="0.0669866327" flag="0"/>
      <psa30 value="0.0030680807" flag="0"/>
    </comp>
    <comp name="--.HHE">
      <acc value="0.2527390107" flag="0"/>
      <vel value="0.0848461837" flag="0"/>
      <psa03 value="0.4698751653" flag="0"/>
      <psa10 value="0.0766667793" flag="0"/>
      <psa30 value="0.0048273701" flag="0"/>
    </comp>
  </station>
</stationlist>
