<stationlist created="1778138454">
	<station code="ABEA" name="ABEA" netid="HC" source="Seismological Network of Crete (HC)" insttype="" lat="35.5163" lon="24.0113">
		<comp name="--.HNE" depth="0.0">
			<acc value="0.0158031124218165" flag="0"/>
			<vel value="0.0182274673375102" flag="0"/>
			<psa03 value="0.0385965906888943" flag="0"/>
			<psa10 value="0.0379384807381386" flag="0"/>
			<psa30 value="0.0129534030993677" flag="0"/>
		</comp>
		<comp name="--.HNN" depth="0.0">
			<acc value="0.0169437054540339" flag="0"/>
			<vel value="0.0175282706095063" flag="0"/>
			<psa03 value="0.0435360064426091" flag="0"/>
			<psa10 value="0.0387247915773846" flag="0"/>
			<psa30 value="0.00797876522070484" flag="0"/>
		</comp>
		<comp name="--.HNZ" depth="0.0">
			<acc value="0.0128897391177304" flag="0"/>
			<vel value="0.0121030397188614" flag="0"/>
			<psa03 value="0.0202712634446211" flag="0"/>
			<psa10 value="0.0266718475039959" flag="0"/>
			<psa30 value="0.00468779971037431" flag="0"/>
		</comp>
	</station>
	<station code="ATEI" name="ATEI" netid="HC" source="Seismological Network of Crete (HC)" insttype="" lat="35.5193" lon="24.0432">
		<comp name="--.HNE" depth="0.0">
			<acc value="0.013509407946844" flag="0"/>
			<vel value="0.0176740509099747" flag="0"/>
			<psa03 value="0.0503016239023716" flag="0"/>
			<psa10 value="0.0233132206364491" flag="0"/>
			<psa30 value="0.00991549101929954" flag="0"/>
		</comp>
		<comp name="--.HNN" depth="0.0">
			<acc value="0.0118055814875057" flag="0"/>
			<vel value="0.0148984625460972" flag="0"/>
			<psa03 value="0.030213254083966" flag="0"/>
			<psa10 value="0.0233126862260345" flag="0"/>
			<psa30 value="0.0081390933416765" flag="0"/>
		</comp>
		<comp name="--.HNZ" depth="0.0">
			<acc value="0.0119074474403066" flag="0"/>
			<vel value="0.0163093335263666" flag="0"/>
			<psa03 value="0.0267890454761165" flag="0"/>
			<psa10 value="0.0203054613871715" flag="0"/>
			<psa30 value="0.00465158272787616" flag="0"/>
		</comp>
	</station>
	<station code="DEYA" name="DEYA" netid="HC" source="Seismological Network of Crete (HC)" insttype="" lat="35.4825" lon="24.014">
		<comp name="--.HNE" depth="0.0">
			<acc value="0.0430182605706182" flag="0"/>
			<vel value="0.035221345566009" flag="0"/>
			<psa03 value="0.116265149912365" flag="0"/>
			<psa10 value="0.0614968588652488" flag="0"/>
			<psa30 value="0.0106078077152186" flag="0"/>
		</comp>
		<comp name="--.HNN" depth="0.0">
			<acc value="0.03050773881302" flag="0"/>
			<vel value="0.0295133231874963" flag="0"/>
			<psa03 value="0.08743336494812" flag="0"/>
			<psa10 value="0.0539445335604085" flag="0"/>
			<psa30 value="0.00825510019321531" flag="0"/>
		</comp>
		<comp name="--.HNZ" depth="0.0">
			<acc value="0.0216584485595994" flag="0"/>
			<vel value="0.0198179559981982" flag="0"/>
			<psa03 value="0.048495707394113" flag="0"/>
			<psa10 value="0.0319712279369276" flag="0"/>
			<psa30 value="0.00438196861724933" flag="0"/>
		</comp>
	</station>
	<station code="G0LD" name="G0LD" netid="HC" source="Seismological Network of Crete (HC)" insttype="" lat="35.4955" lon="24.0306">
		<comp name="--.HNE" depth="0.0">
			<acc value="0.0525520001105199" flag="0"/>
			<vel value="0.0485653780756201" flag="0"/>
			<psa03 value="0.170870288068109" flag="0"/>
			<psa10 value="0.116463005102499" flag="0"/>
			<psa30 value="0.011168579030206" flag="0"/>
		</comp>
		<comp name="--.HNN" depth="0.0">
			<acc value="0.0500367440738431" flag="0"/>
			<vel value="0.0692493538650647" flag="0"/>
			<psa03 value="0.102574899250228" flag="0"/>
			<psa10 value="0.0990464388404499" flag="0"/>
			<psa30 value="0.0126752630073187" flag="0"/>
		</comp>
		<comp name="--.HNZ" depth="0.0">
			<acc value="0.0324764944645159" flag="0"/>
			<vel value="0.0275489539825753" flag="0"/>
			<psa03 value="0.0675894930974179" flag="0"/>
			<psa10 value="0.0540427225651552" flag="0"/>
			<psa30 value="0.00512331939475313" flag="0"/>
		</comp>
	</station>
	<station code="MULT" name="MULT" netid="HC" source="Seismological Network of Crete (HC)" insttype="" lat="35.5091" lon="24.0118">
		<comp name="--.HNE" depth="0.0">
			<acc value="0.0312156866113632" flag="0"/>
			<vel value="0.0221438986158616" flag="0"/>
			<psa03 value="0.0468599636177699" flag="0"/>
			<psa10 value="0.027061914594033" flag="0"/>
			<psa30 value="0.0091046739733203" flag="0"/>
		</comp>
		<comp name="--.HNN" depth="0.0">
			<acc value="0.0257679599638458" flag="0"/>
			<vel value="0.017843319939907" flag="0"/>
			<psa03 value="0.0479269978450608" flag="0"/>
			<psa10 value="0.0260199530691796" flag="0"/>
			<psa30 value="0.00830783285315403" flag="0"/>
		</comp>
		<comp name="--.HNZ" depth="0.0">
			<acc value="0.0250537290001385" flag="0"/>
			<vel value="0.0120393973945985" flag="0"/>
			<psa03 value="0.0215595506102742" flag="0"/>
			<psa10 value="0.0233697837584718" flag="0"/>
			<psa30 value="0.00487713850317522" flag="0"/>
		</comp>
	</station>
	<station code="NERO" name="NERO" netid="HC" source="Seismological Network of Crete (HC)" insttype="" lat="35.474" lon="24.0423">
		<comp name="--.HNE" depth="0.0">
			<acc value="0.0175988729138453" flag="0"/>
			<vel value="0.0167633193486708" flag="0"/>
			<psa03 value="0.0393118125479684" flag="0"/>
			<psa10 value="0.0231185771172568" flag="0"/>
			<psa30 value="0.00473349107055761" flag="0"/>
		</comp>
		<comp name="--.HNN" depth="0.0">
			<acc value="0.0189757819122846" flag="0"/>
			<vel value="0.0137453038978691" flag="0"/>
			<psa03 value="0.0363072306966948" flag="0"/>
			<psa10 value="0.0269124896953788" flag="0"/>
			<psa30 value="0.00492600132340055" flag="0"/>
		</comp>
		<comp name="--.HNZ" depth="0.0">
			<acc value="0.0162778977393116" flag="0"/>
			<vel value="0.00959883294215456" flag="0"/>
			<psa03 value="0.0338443123320868" flag="0"/>
			<psa10 value="0.0193838284585058" flag="0"/>
			<psa30 value="0.00373534411488195" flag="0"/>
		</comp>
	</station>
	<station code="PASK" name="PASK" netid="HC" source="Seismological Network of Crete (HC)" insttype="" lat="35.4996" lon="24.0121">
		<comp name="--.HNE" depth="0.0">
			<acc value="0.0321751119241053" flag="0"/>
			<vel value="0.0274588814588491" flag="0"/>
			<psa03 value="0.064141139660582" flag="0"/>
			<psa10 value="0.036454736197378" flag="0"/>
			<psa30 value="0.00676814002273182" flag="0"/>
		</comp>
		<comp name="--.HNN" depth="0.0">
			<acc value="0.0222104401040824" flag="0"/>
			<vel value="0.0255997042597724" flag="0"/>
			<psa03 value="0.0463048747623943" flag="0"/>
			<psa10 value="0.0261196102959957" flag="0"/>
			<psa30 value="0.00724066632526106" flag="0"/>
		</comp>
		<comp name="--.HNZ" depth="0.0">
			<acc value="0.0192075925739727" flag="0"/>
			<vel value="0.0183061171110598" flag="0"/>
			<psa03 value="0.0469029456315283" flag="0"/>
			<psa10 value="0.0210247740380982" flag="0"/>
			<psa30 value="0.00487773729282433" flag="0"/>
		</comp>
	</station>
	<station code="POLY" name="POLY" netid="HC" source="Seismological Network of Crete (HC)" insttype="" lat="35.5226" lon="24.0602">
		<comp name="--.HNE" depth="0.0">
			<acc value="0.0126038322761513" flag="0"/>
			<vel value="0.0132310075126168" flag="0"/>
			<psa03 value="0.0385729172456316" flag="0"/>
			<psa10 value="0.0223542483592516" flag="0"/>
			<psa30 value="0.00819329443220118" flag="0"/>
		</comp>
		<comp name="--.HNN" depth="0.0">
			<acc value="0.0147385934325873" flag="0"/>
			<vel value="0.0149011841932418" flag="0"/>
			<psa03 value="0.0429123635667989" flag="0"/>
			<psa10 value="0.0252325527827951" flag="0"/>
			<psa30 value="0.00638605054450524" flag="0"/>
		</comp>
		<comp name="--.HNZ" depth="0.0">
			<acc value="0.0121318479378037" flag="0"/>
			<vel value="0.00923171750975547" flag="0"/>
			<psa03 value="0.0355337289351482" flag="0"/>
			<psa10 value="0.0117431979292127" flag="0"/>
			<psa30 value="0.00469664779653924" flag="0"/>
		</comp>
	</station>
	<station code="SOUD" name="SOUD" netid="HC" source="Seismological Network of Crete (HC)" insttype="" lat="35.4878" lon="24.0678">
		<comp name="--.HNE" depth="0.0">
			<acc value="0.0361997128847149" flag="0"/>
			<vel value="0.0315108265387874" flag="0"/>
			<psa03 value="0.0712963688680545" flag="0"/>
			<psa10 value="0.052893522686332" flag="0"/>
			<psa30 value="0.00642325759261844" flag="0"/>
		</comp>
		<comp name="--.HNN" depth="0.0">
			<acc value="0.0383168887209138" flag="0"/>
			<vel value="0.0240433879365373" flag="0"/>
			<psa03 value="0.0762792093733086" flag="0"/>
			<psa10 value="0.0441737412936596" flag="0"/>
			<psa30 value="0.00592766559543134" flag="0"/>
		</comp>
		<comp name="--.HNZ" depth="0.0">
			<acc value="0.0062186335617625" flag="0"/>
			<vel value="0.00434057661285546" flag="0"/>
			<psa03 value="0.00745581031709218" flag="0"/>
			<psa10 value="0.00379214878936997" flag="0"/>
			<psa30 value="0.00312337169971476" flag="0"/>
		</comp>
	</station>
	<station code="CH01" name="CH01" netid="HI" source="ITSAK Strong Motion Network" insttype="" lat="35.517" lon="24.0208">
		<comp name="--.HNE" depth="0.0">
			<acc value="0.0189891781535579" flag="0"/>
			<vel value="0.0192036431096656" flag="0"/>
			<psa03 value="0.0386301241603257" flag="0"/>
			<psa10 value="0.0210397919079581" flag="0"/>
			<psa30 value="0.0125783490872287" flag="0"/>
		</comp>
		<comp name="--.HNN" depth="0.0">
			<acc value="0.0251042155339451" flag="0"/>
			<vel value="0.0148281883915833" flag="0"/>
			<psa03 value="0.0497084283561487" flag="0"/>
			<psa10 value="0.0239723436751146" flag="0"/>
			<psa30 value="0.00808251709375351" flag="0"/>
		</comp>
		<comp name="--.HNZ" depth="0.0">
			<acc value="0.0113574051251268" flag="0"/>
			<vel value="0.0137776748488892" flag="0"/>
			<psa03 value="0.0274907143540564" flag="0"/>
			<psa10 value="0.0231219073378826" flag="0"/>
			<psa30 value="0.00459249589697809" flag="0"/>
		</comp>
	</station>
	<station code="KSS1" name="KSS1" netid="HI" source="ITSAK Strong Motion Network" insttype="" lat="35.4189" lon="26.9207">
		<comp name="--.HNE" depth="0.0">
			<acc value="0.00750447881863968" flag="0"/>
			<vel value="0.00461860396464623" flag="0"/>
			<psa03 value="0.0289982699514117" flag="0"/>
			<psa10 value="0.00491813298967361" flag="0"/>
			<psa30 value="0.00159312178649958" flag="0"/>
		</comp>
		<comp name="--.HNN" depth="0.0">
			<acc value="0.00941440494852491" flag="0"/>
			<vel value="0.00839075857295554" flag="0"/>
			<psa03 value="0.0476404788647213" flag="0"/>
			<psa10 value="0.0110949778003314" flag="0"/>
			<psa30 value="0.00306166761212136" flag="0"/>
		</comp>
		<comp name="--.HNZ" depth="0.0">
			<acc value="0.00414189940154816" flag="0"/>
			<vel value="0.00411192358665258" flag="0"/>
			<psa03 value="0.00794285495117841" flag="0"/>
			<psa10 value="0.00507510432573916" flag="0"/>
			<psa30 value="0.00193308764090406" flag="0"/>
		</comp>
	</station>
	<station code="SIT2" name="SIT2" netid="HI" source="ITSAK Strong Motion Network" insttype="" lat="35.2059" lon="26.107">
		<comp name="--.HNE" depth="0.0">
			<acc value="0.122172462528164" flag="0"/>
			<vel value="0.0760543201639712" flag="0"/>
			<psa03 value="0.444931432857363" flag="0"/>
			<psa10 value="0.0458931251942875" flag="0"/>
			<psa30 value="0.00803140037417639" flag="0"/>
		</comp>
		<comp name="--.HNN" depth="0.0">
			<acc value="0.149848281608309" flag="0"/>
			<vel value="0.093761383245713" flag="0"/>
			<psa03 value="0.669465057109502" flag="0"/>
			<psa10 value="0.0715177702011931" flag="0"/>
			<psa30 value="0.00613769492549181" flag="0"/>
		</comp>
		<comp name="--.HNZ" depth="0.0">
			<acc value="0.105280799604164" flag="0"/>
			<vel value="0.044862386545649" flag="0"/>
			<psa03 value="0.242734225784447" flag="0"/>
			<psa10 value="0.0151154700757014" flag="0"/>
			<psa30 value="0.00566543030697487" flag="0"/>
		</comp>
	</station>
	<station code="IACM" name="IACM" netid="HL" source="National Observatory of Athens Seismic Network" insttype="" lat="35.3058" lon="25.0709">
		<comp name="--.HNE" depth="0.0">
			<acc value="0.342774103147111" flag="0"/>
			<vel value="0.336432257640799" flag="0"/>
			<psa03 value="0.771020993024109" flag="0"/>
			<psa10 value="0.704667540765739" flag="0"/>
			<psa30 value="0.0500422817222201" flag="0"/>
		</comp>
		<comp name="--.HNN" depth="0.0">
			<acc value="0.369274028523284" flag="0"/>
			<vel value="0.312594123298303" flag="0"/>
			<psa03 value="0.978070459032459" flag="0"/>
			<psa10 value="0.302199339223021" flag="0"/>
			<psa30 value="0.0991290801484389" flag="0"/>
		</comp>
		<comp name="--.HNZ" depth="0.0">
			<acc value="0.281035606235675" flag="0"/>
			<vel value="0.141495449070643" flag="0"/>
			<psa03 value="0.445506679297835" flag="0"/>
			<psa10 value="0.133084841217483" flag="0"/>
			<psa30 value="0.0357796802282002" flag="0"/>
		</comp>
	</station>
	<station code="IMMV" name="IMMV" netid="HL" source="National Observatory of Athens Seismic Network" insttype="" lat="35.4606" lon="23.9811">
		<comp name="--.HNE" depth="0.0">
			<acc value="0.0250738055168971" flag="0"/>
			<vel value="0.0162382271482147" flag="0"/>
			<psa03 value="0.0807969721944757" flag="0"/>
			<psa10 value="0.0197011069766601" flag="0"/>
			<psa30 value="0.0032624029931853" flag="0"/>
		</comp>
		<comp name="--.HNN" depth="0.0">
			<acc value="0.0252340065230795" flag="0"/>
			<vel value="0.0204207427235847" flag="0"/>
			<psa03 value="0.0703739275524925" flag="0"/>
			<psa10 value="0.0205011662266364" flag="0"/>
			<psa30 value="0.00463424741280719" flag="0"/>
		</comp>
		<comp name="--.HNZ" depth="0.0">
			<acc value="0.0127395829178181" flag="0"/>
			<vel value="0.00903471144034918" flag="0"/>
			<psa03 value="0.038740227808299" flag="0"/>
			<psa10 value="0.0115291496870998" flag="0"/>
			<psa30 value="0.00305774568564286" flag="0"/>
		</comp>
	</station>
	<station code="SIVA" name="SIVA" netid="HL" source="National Observatory of Athens Seismic Network" insttype="" lat="35.01777" lon="24.81204">
		<comp name="00.HNE" depth="0.0">
			<acc value="0.23237317922224" flag="0"/>
			<vel value="0.0953266656389069" flag="0"/>
			<psa03 value="0.832292218609416" flag="0"/>
			<psa10 value="0.0851433528292658" flag="0"/>
			<psa30 value="0.015066701428358" flag="0"/>
		</comp>
		<comp name="00.HNN" depth="0.0">
			<acc value="0.225520721756617" flag="0"/>
			<vel value="0.0806306793589983" flag="0"/>
			<psa03 value="0.426837484221842" flag="0"/>
			<psa10 value="0.0745739151559566" flag="0"/>
			<psa30 value="0.0120168677251894" flag="0"/>
		</comp>
		<comp name="00.HNZ" depth="0.0">
			<acc value="0.140886669918543" flag="0"/>
			<vel value="0.0529741547862648" flag="0"/>
			<psa03 value="0.407321733065926" flag="0"/>
			<psa10 value="0.0412889751918444" flag="0"/>
			<psa30 value="0.00854711453772372" flag="0"/>
		</comp>
	</station>
</stationlist>
