<?xml version="1.0" encoding="UTF-8" standalone="yes"?>
<!DOCTYPE earthquake SYSTEM "stationlist.dtd">
<stationlist created="" xmlns="ch.ethz.sed.shakemap.usgs.xml">
  <station code="GVD" name="GVD" netid="GE" insttype="STS-2/N" lat="34.8391" lon="24.0874">
    <comp name="--.HHE">
      <acc value="0.0229649761" flag="0"/>
      <vel value="0.0113224412" flag="0"/>
      <psa03 value="0.0720249936" flag="0"/>
      <psa10 value="0.0102407911" flag="0"/>
      <psa30 value="0.0011758637" flag="0"/>
    </comp>
    <comp name="--.HHN">
      <acc value="0.0237767316" flag="0"/>
      <vel value="0.0107899854" flag="0"/>
      <psa03 value="0.0832458179" flag="0"/>
      <psa10 value="0.0078766579" flag="0"/>
      <psa30 value="0.0031105746" flag="0"/>
    </comp>
    <comp name="--.HHZ">
      <acc value="0.0062419742" flag="0"/>
      <vel value="0.0018521167" flag="0"/>
      <psa03 value="0.0064257315" flag="0"/>
      <psa10 value="0.0011155972" flag="0"/>
      <psa30 value="0.0000790654" flag="0"/>
    </comp>
  </station>
  <station code="IMMV" name="IMMV" netid="GE" insttype="STS-2/N" lat="35.4606" lon="23.9811">
    <comp name="--.HHN">
      <acc value="0.0263565332" flag="0"/>
      <vel value="0.0213483188" flag="0"/>
      <psa03 value="0.0744348458" flag="0"/>
      <psa10 value="0.0211320475" flag="0"/>
      <psa30 value="0.0040460317" flag="0"/>
    </comp>
    <comp name="--.HHZ">
      <acc value="0.0133641203" flag="0"/>
      <vel value="0.0089056676" flag="0"/>
      <psa03 value="0.0407169039" flag="0"/>
      <psa10 value="0.0115280064" flag="0"/>
      <psa30 value="0.0027992610" flag="0"/>
    </comp>
    <comp name="--.HHE">
      <acc value="0.0265871641" flag="0"/>
      <vel value="0.0169028263" flag="0"/>
      <psa03 value="0.0861219227" flag="0"/>
      <psa10 value="0.0206050220" flag="0"/>
      <psa30 value="0.0031059032" flag="0"/>
    </comp>
  </station>
  <station code="ZKR" name="ZKR" netid="GE" insttype="STS-2/N" lat="35.1147" lon="26.2169">
    <comp name="--.HHN">
      <acc value="0.0191353522" flag="0"/>
      <vel value="0.0125490224" flag="0"/>
      <psa03 value="0.0930455714" flag="0"/>
      <psa10 value="0.0124772309" flag="0"/>
      <psa30 value="0.0036940698" flag="0"/>
    </comp>
    <comp name="--.HHE">
      <acc value="0.0448022877" flag="0"/>
      <vel value="0.0291475892" flag="0"/>
      <psa03 value="0.1408126137" flag="0"/>
      <psa10 value="0.0276001947" flag="0"/>
      <psa30 value="0.0063445040" flag="0"/>
    </comp>
    <comp name="--.HHZ">
      <acc value="0.0232433900" flag="0"/>
      <vel value="0.0137480841" flag="0"/>
      <psa03 value="0.0551021971" flag="0"/>
      <psa10 value="0.0204421482" flag="0"/>
      <psa30 value="0.0091274433" flag="0"/>
    </comp>
  </station>
  <station code="SNT1" name="SNT1" netid="HA" insttype="30" lat="36.4159" lon="25.4282">
    <comp name="--.HHE">
      <acc value="0.0086336226" flag="0"/>
      <vel value="0.0067602917" flag="0"/>
      <psa03 value="0.0215271739" flag="0"/>
      <psa10 value="0.0083850977" flag="0"/>
      <psa30 value="0.0029764381" flag="0"/>
    </comp>
    <comp name="--.HHZ">
      <acc value="0.0057871026" flag="0"/>
      <vel value="0.0030708949" flag="0"/>
      <psa03 value="0.0121975046" flag="0"/>
      <psa10 value="0.0056641877" flag="0"/>
      <psa30 value="0.0007922976" flag="0"/>
    </comp>
    <comp name="--.HHN">
      <acc value="0.0099479772" flag="0"/>
      <vel value="0.0065783177" flag="0"/>
      <psa03 value="0.0219877174" flag="0"/>
      <psa10 value="0.0096401189" flag="0"/>
      <psa30 value="0.0016827476" flag="0"/>
    </comp>
  </station>
  <station code="SNT5" name="SNT5" netid="HA" insttype="1s-100Hz," lat="36.4037" lon="25.3953">
    <comp name="--.HHN">
      <acc value="0.0319081840" flag="0"/>
      <vel value="0.0093674903" flag="0"/>
      <psa03 value="0.0900349370" flag="0"/>
      <psa10 value="0.0102233862" flag="0"/>
      <psa30 value="0.0029989184" flag="0"/>
    </comp>
    <comp name="--.HHZ">
      <acc value="0.0121631981" flag="0"/>
      <vel value="0.0049909977" flag="0"/>
      <psa03 value="0.0210091884" flag="0"/>
      <psa10 value="0.0057901719" flag="0"/>
      <psa30 value="0.0014442184" flag="0"/>
    </comp>
    <comp name="--.HHE">
      <acc value="0.0558421122" flag="0"/>
      <vel value="0.0218538352" flag="0"/>
      <psa03 value="0.0667491450" flag="0"/>
      <psa10 value="0.0142003537" flag="0"/>
      <psa30 value="0.0037472292" flag="0"/>
    </comp>
  </station>
  <station code="CHAN" name="CHAN" netid="HC" insttype="120" lat="35.5193" lon="24.0428">
    <comp name="--.HHE">
      <acc value="0.0251483809" flag="0"/>
      <vel value="0.0312058250" flag="0"/>
      <psa03 value="0.0929488307" flag="0"/>
      <psa10 value="0.0471338191" flag="0"/>
      <psa30 value="0.0149819774" flag="0"/>
    </comp>
    <comp name="--.HHZ">
      <acc value="0.0239014058" flag="0"/>
      <vel value="0.0281452592" flag="0"/>
      <psa03 value="0.0518173447" flag="0"/>
      <psa10 value="0.0374705003" flag="0"/>
      <psa30 value="0.0078771001" flag="0"/>
    </comp>
    <comp name="--.HHN">
      <acc value="0.0235687489" flag="0"/>
      <vel value="0.0251211004" flag="0"/>
      <psa03 value="0.0573213811" flag="0"/>
      <psa10 value="0.0381767918" flag="0"/>
      <psa30 value="0.0147355515" flag="0"/>
    </comp>
  </station>
  <station code="GVDS" name="GVDS" netid="HC" insttype="60" lat="34.8389" lon="24.0585">
    <comp name="--.HHN">
      <acc value="0.0206559333" flag="0"/>
      <vel value="0.0088240760" flag="0"/>
      <psa03 value="0.0661230199" flag="0"/>
      <psa10 value="0.0065733146" flag="0"/>
      <psa30 value="0.0033198128" flag="0"/>
    </comp>
    <comp name="--.HHE">
      <acc value="0.0213814124" flag="0"/>
      <vel value="0.0096172788" flag="0"/>
      <psa03 value="0.0734442357" flag="0"/>
      <psa10 value="0.0073977665" flag="0"/>
      <psa30 value="0.0016350820" flag="0"/>
    </comp>
    <comp name="--.HHZ">
      <acc value="0.0109375751" flag="0"/>
      <vel value="0.0046053838" flag="0"/>
      <psa03 value="0.0262541177" flag="0"/>
      <psa10 value="0.0034923783" flag="0"/>
      <psa30 value="0.0012382618" flag="0"/>
    </comp>
  </station>
  <station code="IMOD" name="IMOD" netid="HC" insttype="120" lat="34.9731" lon="24.7995">
    <comp name="--.HHE">
      <acc value="0.1791869275" flag="0"/>
      <vel value="0.0956444022" flag="0"/>
      <psa03 value="0.7690033811" flag="0"/>
      <psa10 value="0.0479989111" flag="0"/>
      <psa30 value="0.0144526744" flag="0"/>
    </comp>
    <comp name="--.HHN">
      <acc value="0.1242942409" flag="0"/>
      <vel value="0.0649988165" flag="0"/>
      <psa03 value="0.3519782074" flag="0"/>
      <psa10 value="0.0891172510" flag="0"/>
      <psa30 value="0.0106786110" flag="0"/>
    </comp>
    <comp name="--.HHZ">
      <acc value="0.0648071085" flag="0"/>
      <vel value="0.0310511824" flag="0"/>
      <psa03 value="0.1848944577" flag="0"/>
      <psa10 value="0.0360283835" flag="0"/>
      <psa30 value="0.0067029772" flag="0"/>
    </comp>
  </station>
  <station code="KNSS" name="KNSS" netid="HC" insttype="60" lat="35.3042" lon="25.1802">
    <comp name="--.HHN">
      <acc value="0.0000000000" flag="0"/>
      <vel value="-100.0000000000" flag="0"/>
      <psa03 value="0.0000000000" flag="0"/>
      <psa10 value="0.0000000000" flag="0"/>
      <psa30 value="0.0000000000" flag="0"/>
    </comp>
    <comp name="--.HHZ">
      <acc value="0.4637514840" flag="0"/>
      <vel value="0.1285267713" flag="0"/>
      <psa03 value="0.4129772403" flag="0"/>
      <psa10 value="0.0623013807" flag="0"/>
      <psa30 value="0.0442329647" flag="0"/>
    </comp>
    <comp name="--.HHE">
      <acc value="0.4389262962" flag="0"/>
      <vel value="0.2003422583" flag="0"/>
      <psa03 value="0.4195788123" flag="0"/>
      <psa10 value="0.0935944425" flag="0"/>
      <psa30 value="0.0228597320" flag="0"/>
    </comp>
  </station>
  <station code="PFKS" name="PFKS" netid="HC" insttype="120" lat="35.0429" lon="25.4733">
    <comp name="--.HHE">
      <acc value="0.5808498510" flag="0"/>
      <vel value="0.2374794660" flag="0"/>
      <psa03 value="1.3368383828" flag="0"/>
      <psa10 value="0.1377098518" flag="0"/>
      <psa30 value="0.0215165354" flag="0"/>
    </comp>
    <comp name="--.HHN">
      <acc value="0.6835473571" flag="0"/>
      <vel value="0.2334933140" flag="0"/>
      <psa03 value="0.9321463886" flag="0"/>
      <psa10 value="0.1089930832" flag="0"/>
      <psa30 value="0.0138759598" flag="0"/>
    </comp>
    <comp name="--.HHZ">
      <acc value="0.5544839228" flag="0"/>
      <vel value="0.1878241207" flag="0"/>
      <psa03 value="0.7912658464" flag="0"/>
      <psa10 value="0.0892447389" flag="0"/>
      <psa30 value="0.0362208747" flag="0"/>
    </comp>
  </station>
  <station code="RODP" name="RODP" netid="HC" insttype="120" lat="35.5604" lon="23.7577">
    <comp name="--.HHN">
      <acc value="0.0138216993" flag="0"/>
      <vel value="0.0083230484" flag="0"/>
      <psa03 value="0.0504654971" flag="0"/>
      <psa10 value="0.0106885904" flag="0"/>
      <psa30 value="0.0022242550" flag="0"/>
    </comp>
    <comp name="--.HHZ">
      <acc value="0.0071539710" flag="0"/>
      <vel value="0.0050422646" flag="0"/>
      <psa03 value="0.0192043510" flag="0"/>
      <psa10 value="0.0068113263" flag="0"/>
      <psa30 value="0.0023088879" flag="0"/>
    </comp>
    <comp name="--.HHE">
      <acc value="0.0157609809" flag="0"/>
      <vel value="0.0103543800" flag="0"/>
      <psa03 value="0.0463454996" flag="0"/>
      <psa10 value="0.0127195920" flag="0"/>
      <psa30 value="0.0038881982" flag="0"/>
    </comp>
  </station>
  <station code="STIA" name="STIA" netid="HC" insttype="120" lat="35.2021" lon="26.0909">
    <comp name="--.HHE">
      <acc value="0.0454440400" flag="0"/>
      <vel value="0.0309450674" flag="0"/>
      <psa03 value="0.1562784468" flag="0"/>
      <psa10 value="0.0329548496" flag="0"/>
      <psa30 value="0.0080321328" flag="0"/>
    </comp>
    <comp name="--.HHZ">
      <acc value="0.0398437912" flag="0"/>
      <vel value="0.0245397101" flag="0"/>
      <psa03 value="0.1776894277" flag="0"/>
      <psa10 value="0.0208274220" flag="0"/>
      <psa30 value="0.0055862268" flag="0"/>
    </comp>
    <comp name="--.HHN">
      <acc value="0.0468787267" flag="0"/>
      <vel value="0.0329439413" flag="0"/>
      <psa03 value="0.1160210152" flag="0"/>
      <psa10 value="0.0435093966" flag="0"/>
      <psa30 value="0.0034709169" flag="0"/>
    </comp>
  </station>
  <station code="GVD" name="GVD" netid="HL" insttype="120" lat="34.8391" lon="24.0874">
    <comp name="--.HHZ">
      <acc value="0.0061116242" flag="0"/>
      <vel value="0.0017844170" flag="0"/>
      <psa03 value="0.0062715693" flag="0"/>
      <psa10 value="0.0010976158" flag="0"/>
      <psa30 value="0.0000780566" flag="0"/>
    </comp>
    <comp name="--.HHE">
      <acc value="0.0224033970" flag="0"/>
      <vel value="0.0110913758" flag="0"/>
      <psa03 value="0.0700615364" flag="0"/>
      <psa10 value="0.0101492693" flag="0"/>
      <psa30 value="0.0011747345" flag="0"/>
    </comp>
    <comp name="--.HHN">
      <acc value="0.0231303401" flag="0"/>
      <vel value="0.0105566886" flag="0"/>
      <psa03 value="0.0808685064" flag="0"/>
      <psa10 value="0.0078278236" flag="0"/>
      <psa30 value="0.0031122539" flag="0"/>
    </comp>
  </station>
  <station code="IACM" name="IACM" netid="HL" insttype="120" lat="35.3058" lon="25.0709">
    <comp name="--.HHZ">
      <acc value="0.2794006843" flag="0"/>
      <vel value="0.1366919979" flag="0"/>
      <psa03 value="0.4507047974" flag="0"/>
      <psa10 value="0.1335114302" flag="0"/>
      <psa30 value="0.0369557319" flag="0"/>
    </comp>
    <comp name="--.HHN">
      <acc value="0.3582320723" flag="0"/>
      <vel value="0.3108149502" flag="0"/>
      <psa03 value="0.9520917791" flag="0"/>
      <psa10 value="0.2866802092" flag="0"/>
      <psa30 value="0.0960041904" flag="0"/>
    </comp>
    <comp name="--.HHE">
      <acc value="0.3406912036" flag="0"/>
      <vel value="0.3280182417" flag="0"/>
      <psa03 value="0.7996830529" flag="0"/>
      <psa10 value="0.6901326266" flag="0"/>
      <psa30 value="0.0544460142" flag="0"/>
    </comp>
  </station>
  <station code="IDI" name="IDI" netid="HL" insttype="120" lat="35.288" lon="24.89">
    <comp name="--.HHE">
      <acc value="0.0584870986" flag="0"/>
      <vel value="0.0251272707" flag="0"/>
      <psa03 value="0.1162301738" flag="0"/>
      <psa10 value="0.0190606959" flag="0"/>
      <psa30 value="0.0097963356" flag="0"/>
    </comp>
    <comp name="--.HHN">
      <acc value="0.0613815434" flag="0"/>
      <vel value="0.0273349143" flag="0"/>
      <psa03 value="0.0869011168" flag="0"/>
      <psa10 value="0.0113786885" flag="0"/>
      <psa30 value="0.0063085372" flag="0"/>
    </comp>
    <comp name="--.HHZ">
      <acc value="0.0514907134" flag="0"/>
      <vel value="0.0294533552" flag="0"/>
      <psa03 value="0.0861296668" flag="0"/>
      <psa10 value="0.0197594289" flag="0"/>
      <psa30 value="0.0189274779" flag="0"/>
    </comp>
  </station>
  <station code="IMMV" name="IMMV" netid="HL" insttype="120" lat="35.4606" lon="23.9811">
    <comp name="--.HHE">
      <acc value="0.0258853314" flag="0"/>
      <vel value="0.0167878350" flag="0"/>
      <psa03 value="0.0839584618" flag="0"/>
      <psa10 value="0.0205036268" flag="0"/>
      <psa30 value="0.0031051627" flag="0"/>
    </comp>
    <comp name="--.HHN">
      <acc value="0.0259035638" flag="0"/>
      <vel value="0.0209799085" flag="0"/>
      <psa03 value="0.0725263360" flag="0"/>
      <psa10 value="0.0210005891" flag="0"/>
      <psa30 value="0.0040484305" flag="0"/>
    </comp>
    <comp name="--.HHZ">
      <acc value="0.0129020284" flag="0"/>
      <vel value="0.0088140006" flag="0"/>
      <psa03 value="0.0395810725" flag="0"/>
      <psa10 value="0.0114520053" flag="0"/>
      <psa30 value="0.0027991351" flag="0"/>
    </comp>
  </station>
  <station code="NPS" name="NPS" netid="HL" insttype="CMG3ESPC-120s" lat="35.2613" lon="25.6104">
    <comp name="--.HHN">
      <acc value="0.2724346064" flag="0"/>
      <vel value="0.0796336537" flag="0"/>
      <psa03 value="0.5172327737" flag="0"/>
      <psa10 value="0.0907703781" flag="0"/>
      <psa30 value="0.0193103547" flag="0"/>
    </comp>
    <comp name="--.HHE">
      <acc value="0.0794365669" flag="0"/>
      <vel value="0.0320221755" flag="0"/>
      <psa03 value="0.1294998972" flag="0"/>
      <psa10 value="0.0425753543" flag="0"/>
      <psa30 value="0.0064153636" flag="0"/>
    </comp>
    <comp name="--.HHZ">
      <acc value="0.2491914970" flag="0"/>
      <vel value="0.1106098668" flag="0"/>
      <psa03 value="0.3608808405" flag="0"/>
      <psa10 value="0.1201676452" flag="0"/>
      <psa30 value="0.0208742432" flag="0"/>
    </comp>
  </station>
  <station code="SAP3" name="SAP3" netid="HL" insttype="LE3D20_SMART24" lat="36.4356" lon="25.3454">
    <comp name="--.HHE">
      <acc value="0.0519902123" flag="0"/>
      <vel value="0.0329314612" flag="0"/>
      <psa03 value="0.2092654118" flag="0"/>
      <psa10 value="0.0238258355" flag="0"/>
      <psa30 value="0.0054721846" flag="0"/>
    </comp>
    <comp name="--.HHN">
      <acc value="0.0486025241" flag="0"/>
      <vel value="0.0284435433" flag="0"/>
      <psa03 value="0.1217965561" flag="0"/>
      <psa10 value="0.0257030364" flag="0"/>
      <psa30 value="0.0067147614" flag="0"/>
    </comp>
    <comp name="--.HHZ">
      <acc value="0.0405370650" flag="0"/>
      <vel value="0.0217296577" flag="0"/>
      <psa03 value="0.1165447338" flag="0"/>
      <psa10 value="0.0109675090" flag="0"/>
      <psa30 value="0.0031462158" flag="0"/>
    </comp>
  </station>
  <station code="SIVA" name="SIVA" netid="HL" insttype="60" lat="35.0178" lon="24.812">
    <comp name="--.HHZ">
      <acc value="0.1442291245" flag="0"/>
      <vel value="0.0536999149" flag="0"/>
      <psa03 value="0.4112956817" flag="0"/>
      <psa10 value="0.0430908204" flag="0"/>
      <psa30 value="0.0076221134" flag="0"/>
    </comp>
    <comp name="--.HHN">
      <acc value="0.2329451696" flag="0"/>
      <vel value="0.0732045322" flag="0"/>
      <psa03 value="0.3957750456" flag="0"/>
      <psa10 value="0.0625786995" flag="0"/>
      <psa30 value="0.0086833551" flag="0"/>
    </comp>
    <comp name="--.HHE">
      <acc value="0.2512062494" flag="0"/>
      <vel value="0.1017628686" flag="0"/>
      <psa03 value="0.8888766622" flag="0"/>
      <psa10 value="0.0908548140" flag="0"/>
      <psa30 value="0.0142418261" flag="0"/>
    </comp>
  </station>
  <station code="VAM" name="VAM" netid="HL" insttype="CMG3ESPC-120s" lat="35.407" lon="24.1997">
    <comp name="--.HHZ">
      <acc value="0.0256274036" flag="0"/>
      <vel value="0.0138835567" flag="0"/>
      <psa03 value="0.0680090877" flag="0"/>
      <psa10 value="0.0120196180" flag="0"/>
      <psa30 value="0.0047173229" flag="0"/>
    </comp>
    <comp name="--.HHE">
      <acc value="0.0338142606" flag="0"/>
      <vel value="0.0202271537" flag="0"/>
      <psa03 value="0.1202820971" flag="0"/>
      <psa10 value="0.0202781086" flag="0"/>
      <psa30 value="0.0048861309" flag="0"/>
    </comp>
    <comp name="--.HHN">
      <acc value="0.0421246312" flag="0"/>
      <vel value="0.0207227092" flag="0"/>
      <psa03 value="0.1236985025" flag="0"/>
      <psa10 value="0.0178327361" flag="0"/>
      <psa30 value="0.0047138231" flag="0"/>
    </comp>
  </station>
  <station code="ZKR" name="ZKR" netid="HL" insttype="120" lat="35.1147" lon="26.2169">
    <comp name="--.HHN">
      <acc value="0.0186621178" flag="0"/>
      <vel value="0.0122777721" flag="0"/>
      <psa03 value="0.0903772890" flag="0"/>
      <psa10 value="0.0124054864" flag="0"/>
      <psa30 value="0.0036939318" flag="0"/>
    </comp>
    <comp name="--.HHZ">
      <acc value="0.0229386192" flag="0"/>
      <vel value="0.0136936872" flag="0"/>
      <psa03 value="0.0536034013" flag="0"/>
      <psa10 value="0.0203032605" flag="0"/>
      <psa30 value="0.0091310619" flag="0"/>
    </comp>
    <comp name="--.HHE">
      <acc value="0.0436935430" flag="0"/>
      <vel value="0.0286833432" flag="0"/>
      <psa03 value="0.1372420468" flag="0"/>
      <psa10 value="0.0274112083" flag="0"/>
      <psa30 value="0.0063451761" flag="0"/>
    </comp>
  </station>
  <station code="THT1" name="THT1" netid="HT" insttype="30" lat="36.3858" lon="25.4296">
    <comp name="--.HHZ">
      <acc value="0.0073967132" flag="0"/>
      <vel value="0.0034197480" flag="0"/>
      <psa03 value="0.0301955951" flag="0"/>
      <psa10 value="0.0023330781" flag="0"/>
      <psa30 value="0.0006717611" flag="0"/>
    </comp>
    <comp name="--.HHE">
      <acc value="0.0108968038" flag="0"/>
      <vel value="0.0048207283" flag="0"/>
      <psa03 value="0.0326008332" flag="0"/>
      <psa10 value="0.0034337329" flag="0"/>
      <psa30 value="0.0008110770" flag="0"/>
    </comp>
    <comp name="--.HHN">
      <acc value="0.0041953409" flag="0"/>
      <vel value="0.0016402108" flag="0"/>
      <psa03 value="0.0084403567" flag="0"/>
      <psa10 value="0.0009220691" flag="0"/>
      <psa30 value="0.0004172368" flag="0"/>
    </comp>
  </station>
  <station code="IDI" name="IDI" netid="MN" insttype="" lat="35.288" lon="24.89">
    <comp name="--.HHE">
      <acc value="0.0638424901" flag="0"/>
      <vel value="0.0251565219" flag="0"/>
      <psa03 value="0.1169542174" flag="0"/>
      <psa10 value="0.0189173124" flag="0"/>
      <psa30 value="0.0096770696" flag="0"/>
    </comp>
    <comp name="--.HHN">
      <acc value="0.0651859542" flag="0"/>
      <vel value="0.0277269037" flag="0"/>
      <psa03 value="0.0886094251" flag="0"/>
