<stationlist created="1686578448">
	<station code="BLKB" name="BLKB" netid="BS" source="National Seismic Network of Bulgaria (BS)" insttype="" lat="43.6227" lon="22.675">
		<comp name=".HNE" depth="0.0">
			<acc value="0.0336173478144" flag="0"/>
			<vel value="0.0101965277337" flag="0"/>
			<psa03 value="0.0482528996427" flag="0"/>
			<psa10 value="0.00553740495089" flag="0"/>
			<psa30 value="0.000361900536634" flag="0"/>
		</comp>
		<comp name=".HNN" depth="0.0">
			<acc value="0.031013388258" flag="0"/>
			<vel value="0.0121953623936" flag="0"/>
			<psa03 value="0.0491713615283" flag="0"/>
			<psa10 value="0.0100925429564" flag="0"/>
			<psa30 value="0.000479593958245" flag="0"/>
		</comp>
		<comp name=".HNZ" depth="0.0">
			<acc value="0.015115451241" flag="0"/>
			<vel value="0.00751302994602" flag="0"/>
			<psa03 value="0.0470444862581" flag="0"/>
			<psa10 value="0.00242684928248" flag="0"/>
			<psa30 value="0.000163510336966" flag="0"/>
		</comp>
	</station>
	<station code="MNNAM" name="MNNAM" netid="BS" source="National Seismic Network of Bulgaria (BS)" insttype="" lat="43.4111" lon="23.2262">
		<comp name=".HNE" depth="0.0">
			<acc value="0.026174897824" flag="0"/>
			<vel value="0.0168502978787" flag="0"/>
			<psa03 value="0.114473895834" flag="0"/>
			<psa10 value="0.0240752973703" flag="0"/>
			<psa30 value="0.00128264090616" flag="0"/>
		</comp>
		<comp name=".HNN" depth="0.0">
			<acc value="0.0394064963611" flag="0"/>
			<vel value="0.0235734526715" flag="0"/>
			<psa03 value="0.0985770302446" flag="0"/>
			<psa10 value="0.0164463563654" flag="0"/>
			<psa30 value="0.00141302225162" flag="0"/>
		</comp>
		<comp name=".HNZ" depth="0.0">
			<acc value="0.0264077947251" flag="0"/>
			<vel value="0.0171659031527" flag="0"/>
			<psa03 value="0.0793737477046" flag="0"/>
			<psa10 value="0.0123533333477" flag="0"/>
			<psa30 value="0.000709212554766" flag="0"/>
		</comp>
	</station>
	<station code="GZR" name="GZR" netid="RO" source="Romanian Seismic Network (NIEP)" insttype="" lat="45.3933" lon="22.7767">
		<comp name=".HNE" depth="0.0">
			<acc value="0.026271299308" flag="0"/>
			<vel value="0.00959982164764" flag="0"/>
			<psa03 value="0.082362028997" flag="0"/>
			<psa10 value="0.00362465003715" flag="0"/>
			<psa30 value="0.000294217511299" flag="0"/>
		</comp>
		<comp name=".HNN" depth="0.0">
			<acc value="0.0223757368364" flag="0"/>
			<vel value="0.00763416677646" flag="0"/>
			<psa03 value="0.0577393874508" flag="0"/>
			<psa10 value="0.00216534328712" flag="0"/>
			<psa30 value="0.000207073027468" flag="0"/>
		</comp>
		<comp name=".HNZ" depth="0.0">
			<acc value="0.00876317497101" flag="0"/>
			<vel value="0.003187807381" flag="0"/>
			<psa03 value="0.0130650751325" flag="0"/>
			<psa10 value="0.00210648688817" flag="0"/>
			<psa30 value="0.00017765493283" flag="0"/>
		</comp>
	</station>
	<station code="HERR" name="HERR" netid="RO" source="Romanian Seismic Network (NIEP)" insttype="" lat="44.881" lon="22.416">
		<comp name=".HNE" depth="0.0">
			<acc value="0.0855749957086" flag="0"/>
			<vel value="0.024455477294" flag="0"/>
			<psa03 value="0.0808352195199" flag="0"/>
			<psa10 value="0.00990152780261" flag="0"/>
			<psa30 value="0.000716282450196" flag="0"/>
		</comp>
		<comp name=".HNN" depth="0.0">
			<acc value="0.0655901098686" flag="0"/>
			<vel value="0.0194111093056" flag="0"/>
			<psa03 value="0.114379452078" flag="0"/>
			<psa10 value="0.0111499067516" flag="0"/>
			<psa30 value="0.000600541137068" flag="0"/>
		</comp>
		<comp name=".HNZ" depth="0.0">
			<acc value="0.0315191492253" flag="0"/>
			<vel value="0.0131403170374" flag="0"/>
			<psa03 value="0.0919464139152" flag="0"/>
			<psa10 value="0.00871405101312" flag="0"/>
			<psa30 value="0.000648631718668" flag="0"/>
		</comp>
	</station>
	<station code="MDVR" name="MDVR" netid="RO" source="Romanian Seismic Network (NIEP)" insttype="" lat="44.7815" lon="21.7128">
		<comp name=".HNE" depth="0.0">
			<acc value="0.0477728253034" flag="0"/>
			<vel value="0.0111241755617" flag="0"/>
			<psa03 value="0.0423085709644" flag="0"/>
			<psa10 value="0.0045672334943" flag="0"/>
			<psa30 value="0.000525956092011" flag="0"/>
		</comp>
		<comp name=".HNN" depth="0.0">
			<acc value="0.0517049226798" flag="0"/>
			<vel value="0.0143960109991" flag="0"/>
			<psa03 value="0.0642641217662" flag="0"/>
			<psa10 value="0.00604220995426" flag="0"/>
			<psa30 value="0.000672884419038" flag="0"/>
		</comp>
		<comp name=".HNZ" depth="0.0">
			<acc value="0.0254399827701" flag="0"/>
			<vel value="0.0078905385962" flag="0"/>
			<psa03 value="0.0464194083913" flag="0"/>
			<psa10 value="0.00590690052191" flag="0"/>
			<psa30 value="0.000534370138982" flag="0"/>
		</comp>
	</station>
	<station code="MHISU" name="MHISU" netid="RO" source="Romanian Seismic Network (NIEP)" insttype="" lat="44.6227" lon="22.6535">
		<comp name=".HNE" depth="0.0">
			<acc value="0.0382696708976" flag="0"/>
			<vel value="0.0203526851956" flag="0"/>
			<psa03 value="0.108464779009" flag="0"/>
			<psa10 value="0.0169143029895" flag="0"/>
			<psa30 value="0.00163740847027" flag="0"/>
		</comp>
		<comp name=".HNN" depth="0.0">
			<acc value="0.0404950038867" flag="0"/>
			<vel value="0.0236964344548" flag="0"/>
			<psa03 value="0.10248145556" flag="0"/>
			<psa10 value="0.0283342876325" flag="0"/>
			<psa30 value="0.00187273072589" flag="0"/>
		</comp>
		<comp name=".HNZ" depth="0.0">
			<acc value="0.0191188023788" flag="0"/>
			<vel value="0.00889977996717" flag="0"/>
			<psa03 value="0.0512571403255" flag="0"/>
			<psa10 value="0.00957132124056" flag="0"/>
			<psa30 value="0.000756050240869" flag="0"/>
		</comp>
	</station>
</stationlist>
