<?xml version="1.0" encoding="UTF-8" standalone="yes"?>
<!DOCTYPE earthquake SYSTEM "stationlist.dtd">
<stationlist created="" xmlns="ch.ethz.sed.shakemap.usgs.xml">
  <station code="DIVS" name="DIVS" netid="MN" insttype="" lat="44.0981" lon="19.9917">
    <comp name="--.HHZ">
      <acc value="0.0103587675" flag="0"/>
      <vel value="0.0031528613" flag="0"/>
      <psa03 value="0.0121662357" flag="0"/>
      <psa10 value="0.0026979176" flag="0"/>
      <psa30 value="0.0002693913" flag="0"/>
    </comp>
    <comp name="--.HHN">
      <acc value="0.0156685873" flag="0"/>
      <vel value="0.0045936247" flag="0"/>
      <psa03 value="0.0188656903" flag="0"/>
      <psa10 value="0.0037814743" flag="0"/>
      <psa30 value="0.0004399978" flag="0"/>
    </comp>
    <comp name="--.HHE">
      <acc value="0.0133678592" flag="0"/>
      <vel value="0.0043884530" flag="0"/>
      <psa03 value="0.0142210399" flag="0"/>
      <psa10 value="0.0030403489" flag="0"/>
      <psa30 value="0.0005684876" flag="0"/>
    </comp>
  </station>
  <station code="MDVR" name="MDVR" netid="RO" insttype="CMG40T.1to100/Quanterra" lat="44.7815" lon="21.7128">
    <comp name="--.HHZ">
      <acc value="0.0271604993" flag="0"/>
      <vel value="0.0085210309" flag="0"/>
      <psa03 value="0.0465211112" flag="0"/>
      <psa10 value="0.0059939206" flag="0"/>
      <psa30 value="0.0005262267" flag="0"/>
    </comp>
    <comp name="--.HHN">
      <acc value="0.0585757815" flag="0"/>
      <vel value="0.0153904567" flag="0"/>
      <psa03 value="0.0654902634" flag="0"/>
      <psa10 value="0.0061158753" flag="0"/>
      <psa30 value="0.0006288803" flag="0"/>
    </comp>
    <comp name="--.HHE">
      <acc value="0.0531183358" flag="0"/>
      <vel value="0.0120201395" flag="0"/>
      <psa03 value="0.0447679991" flag="0"/>
      <psa10 value="0.0047395190" flag="0"/>
      <psa30 value="0.0005657352" flag="0"/>
    </comp>
  </station>
</stationlist>
