<?xml version="1.0" encoding="UTF-8" standalone="yes"?>
<!DOCTYPE earthquake SYSTEM "stationlist.dtd">
<stationlist created="" xmlns="ch.ethz.sed.shakemap.usgs.xml">
  <station code="FX12" name="FX12" netid="1J" insttype="" lat="38.0895" lon="15.7176">
    <comp name="00.HHE">
      <acc value="0.0003623680" flag="0"/>
      <vel value="0.0001834672" flag="0"/>
      <psa03 value="0.0019630125" flag="0"/>
      <psa10 value="0.0001086264" flag="0"/>
      <psa30 value="0.0000232712" flag="0"/>
    </comp>
    <comp name="00.HHZ">
      <acc value="0.0002805521" flag="0"/>
      <vel value="0.0000782309" flag="0"/>
      <psa03 value="0.0003336538" flag="0"/>
      <psa10 value="0.0000843559" flag="0"/>
      <psa30 value="0.0000077060" flag="0"/>
    </comp>
    <comp name="00.HHN">
      <acc value="0.0002295587" flag="0"/>
      <vel value="0.0000904192" flag="0"/>
      <psa03 value="0.0008153183" flag="0"/>
      <psa10 value="0.0000689048" flag="0"/>
      <psa30 value="0.0000136275" flag="0"/>
    </comp>
  </station>
  <station code="OEM7" name="OEM7" netid="3D" insttype="" lat="38.4825" lon="14.9707">
    <comp name="--.HHE">
      <acc value="0.0038954301" flag="0"/>
      <vel value="0.0017359056" flag="0"/>
      <psa03 value="0.0081664650" flag="0"/>
      <psa10 value="0.0020208080" flag="0"/>
      <psa30 value="0.0001521447" flag="0"/>
    </comp>
    <comp name="--.HHN">
      <acc value="0.0036365569" flag="0"/>
      <vel value="0.0016743938" flag="0"/>
      <psa03 value="0.0087456455" flag="0"/>
      <psa10 value="0.0014623380" flag="0"/>
      <psa30 value="0.0001627544" flag="0"/>
    </comp>
    <comp name="--.HHZ">
      <acc value="0.0027508656" flag="0"/>
      <vel value="0.0010246778" flag="0"/>
      <psa03 value="0.0076500539" flag="0"/>
      <psa10 value="0.0005553557" flag="0"/>
      <psa30 value="0.0000869565" flag="0"/>
    </comp>
  </station>
  <station code="OEM8" name="OEM8" netid="3D" insttype="" lat="38.4689" lon="14.9168">
    <comp name="--.HHN">
      <acc value="0.0023234601" flag="0"/>
      <vel value="0.0009984696" flag="0"/>
      <psa03 value="0.0066389459" flag="0"/>
      <psa10 value="0.0010327807" flag="0"/>
      <psa30 value="0.0000876614" flag="0"/>
    </comp>
    <comp name="--.HHE">
      <acc value="0.0020463621" flag="0"/>
      <vel value="0.0009439890" flag="0"/>
      <psa03 value="0.0082550789" flag="0"/>
      <psa10 value="0.0005931097" flag="0"/>
      <psa30 value="0.0000599446" flag="0"/>
    </comp>
    <comp name="--.HHZ">
      <acc value="0.0007857431" flag="0"/>
      <vel value="0.0003426540" flag="0"/>
      <psa03 value="0.0021968236" flag="0"/>
      <psa10 value="0.0004503419" flag="0"/>
      <psa30 value="0.0000322688" flag="0"/>
    </comp>
  </station>
  <station code="AIO" name="AIO" netid="IV" insttype="" lat="37.9712" lon="15.233">
    <comp name="--.HHE">
      <acc value="0.0019961991" flag="0"/>
      <vel value="0.0004980686" flag="0"/>
      <psa03 value="0.0036192656" flag="0"/>
      <psa10 value="0.0004353054" flag="0"/>
      <psa30 value="0.0000564730" flag="0"/>
    </comp>
    <comp name="--.HHN">
      <acc value="0.0019930844" flag="0"/>
      <vel value="0.0006317017" flag="0"/>
      <psa03 value="0.0047931813" flag="0"/>
      <psa10 value="0.0003873423" flag="0"/>
      <psa30 value="0.0000606221" flag="0"/>
    </comp>
    <comp name="--.HHZ">
      <acc value="0.0027352508" flag="0"/>
      <vel value="0.0009763074" flag="0"/>
      <psa03 value="0.0047505896" flag="0"/>
      <psa10 value="0.0007106286" flag="0"/>
      <psa30 value="0.0000432010" flag="0"/>
    </comp>
  </station>
  <station code="ECBD" name="ECBD" netid="IV" insttype="" lat="37.7802" lon="15.0865">
    <comp name="--.HHE">
      <acc value="0.0028286362" flag="0"/>
      <vel value="0.0012807418" flag="0"/>
      <psa03 value="0.0082566585" flag="0"/>
      <psa10 value="0.0015627587" flag="0"/>
      <psa30 value="0.0000900326" flag="0"/>
    </comp>
    <comp name="--.HHN">
      <acc value="0.0027265568" flag="0"/>
      <vel value="0.0012401888" flag="0"/>
      <psa03 value="0.0078295826" flag="0"/>
      <psa10 value="0.0008423175" flag="0"/>
      <psa30 value="0.0000721365" flag="0"/>
    </comp>
    <comp name="--.HHZ">
      <acc value="0.0035619448" flag="0"/>
      <vel value="0.0017589776" flag="0"/>
      <psa03 value="0.0116261627" flag="0"/>
      <psa10 value="0.0014258374" flag="0"/>
      <psa30 value="0.0000951260" flag="0"/>
    </comp>
  </station>
  <station code="ECHR" name="ECHR" netid="IV" insttype="" lat="37.6863" lon="14.9129">
    <comp name="--.HHN">
      <acc value="0.0021835725" flag="0"/>
      <vel value="0.0010634433" flag="0"/>
      <psa03 value="0.0071114822" flag="0"/>
      <psa10 value="0.0007108863" flag="0"/>
      <psa30 value="0.0000691710" flag="0"/>
    </comp>
    <comp name="--.HHE">
      <acc value="0.0022091082" flag="0"/>
      <vel value="0.0010791684" flag="0"/>
      <psa03 value="0.0079296444" flag="0"/>
      <psa10 value="0.0010914344" flag="0"/>
      <psa30 value="0.0000955478" flag="0"/>
    </comp>
    <comp name="--.HHZ">
      <acc value="0.0028276298" flag="0"/>
      <vel value="0.0016676435" flag="0"/>
      <psa03 value="0.0070095152" flag="0"/>
      <psa10 value="0.0009610150" flag="0"/>
      <psa30 value="0.0000988031" flag="0"/>
    </comp>
  </station>
  <station code="ECTS" name="ECTS" netid="IV" insttype="" lat="37.882" lon="15.121">
    <comp name="--.HHE">
      <acc value="0.0045227068" flag="0"/>
      <vel value="0.0007570140" flag="0"/>
      <psa03 value="0.0054806715" flag="0"/>
      <psa10 value="0.0007022075" flag="0"/>
      <psa30 value="0.0000426842" flag="0"/>
    </comp>
    <comp name="--.HHZ">
      <acc value="0.0051137289" flag="0"/>
      <vel value="0.0029503569" flag="0"/>
      <psa03 value="0.0141516331" flag="0"/>
      <psa10 value="0.0017576196" flag="0"/>
      <psa30 value="0.0001063665" flag="0"/>
    </comp>
    <comp name="--.HHN">
      <acc value="0.0051593054" flag="0"/>
      <vel value="0.0018586623" flag="0"/>
      <psa03 value="0.0083563357" flag="0"/>
      <psa10 value="0.0006551342" flag="0"/>
      <psa30 value="0.0000621125" flag="0"/>
    </comp>
  </station>
  <station code="EMFO" name="EMFO" netid="IV" insttype="" lat="37.7357" lon="15.0902">
    <comp name="--.HHN">
      <acc value="0.0084287298" flag="0"/>
      <vel value="0.0047349571" flag="0"/>
      <psa03 value="0.0258250040" flag="0"/>
      <psa10 value="0.0016319404" flag="0"/>
      <psa30 value="0.0001430447" flag="0"/>
    </comp>
    <comp name="--.HHE">
      <acc value="0.0054261300" flag="0"/>
      <vel value="0.0028792517" flag="0"/>
      <psa03 value="0.0189704394" flag="0"/>
      <psa10 value="0.0013315589" flag="0"/>
      <psa30 value="0.0001152218" flag="0"/>
    </comp>
    <comp name="--.HHZ">
      <acc value="0.0062763722" flag="0"/>
      <vel value="0.0042840571" flag="0"/>
      <psa03 value="0.0263365284" flag="0"/>
      <psa10 value="0.0024324848" flag="0"/>
      <psa30 value="0.0001596279" flag="0"/>
    </comp>
  </station>
  <station code="EMNR" name="EMNR" netid="IV" insttype="" lat="37.8168" lon="15.026">
    <comp name="--.HHE">
      <acc value="0.0057710821" flag="0"/>
      <vel value="0.0014369388" flag="0"/>
      <psa03 value="0.0084322661" flag="0"/>
      <psa10 value="0.0014991074" flag="0"/>
      <psa30 value="0.0001006934" flag="0"/>
    </comp>
    <comp name="--.HHN">
      <acc value="0.0053344609" flag="0"/>
      <vel value="0.0018202220" flag="0"/>
      <psa03 value="0.0089260381" flag="0"/>
      <psa10 value="0.0017466756" flag="0"/>
      <psa30 value="0.0000965754" flag="0"/>
    </comp>
    <comp name="--.HHZ">
      <acc value="0.0053265691" flag="0"/>
      <vel value="0.0020268797" flag="0"/>
      <psa03 value="0.0057637305" flag="0"/>
      <psa10 value="0.0014141514" flag="0"/>
      <psa30 value="0.0001251563" flag="0"/>
    </comp>
  </station>
  <station code="EMSG" name="EMSG" netid="IV" insttype="" lat="37.8208" lon="14.9498">
    <comp name="--.HHN">
      <acc value="0.0031223442" flag="0"/>
      <vel value="0.0011008148" flag="0"/>
      <psa03 value="0.0082920238" flag="0"/>
      <psa10 value="0.0006332126" flag="0"/>
      <psa30 value="0.0000889743" flag="0"/>
    </comp>
    <comp name="--.HHZ">
      <acc value="0.0028233523" flag="0"/>
      <vel value="0.0016825998" flag="0"/>
      <psa03 value="0.0088481541" flag="0"/>
      <psa10 value="0.0011291315" flag="0"/>
      <psa30 value="0.0000784781" flag="0"/>
    </comp>
    <comp name="--.HHE">
      <acc value="0.0029843681" flag="0"/>
      <vel value="0.0011280441" flag="0"/>
      <psa03 value="0.0058202519" flag="0"/>
      <psa10 value="0.0007832796" flag="0"/>
      <psa30 value="0.0000702963" flag="0"/>
    </comp>
  </station>
  <station code="EPIT" name="EPIT" netid="IV" insttype="" lat="37.8113" lon="15.0567">
    <comp name="--.HHZ">
      <acc value="0.0032898624" flag="0"/>
      <vel value="0.0015225580" flag="0"/>
      <psa03 value="0.0080593931" flag="0"/>
      <psa10 value="0.0015855776" flag="0"/>
      <psa30 value="0.0001054164" flag="0"/>
    </comp>
    <comp name="--.HHE">
      <acc value="0.0036160474" flag="0"/>
      <vel value="0.0012396823" flag="0"/>
      <psa03 value="0.0085679591" flag="0"/>
      <psa10 value="0.0007675541" flag="0"/>
      <psa30 value="0.0000709724" flag="0"/>
    </comp>
    <comp name="--.HHN">
      <acc value="0.0028920546" flag="0"/>
      <vel value="0.0013202359" flag="0"/>
      <psa03 value="0.0086820244" flag="0"/>
      <psa10 value="0.0012977178" flag="0"/>
      <psa30 value="0.0001180594" flag="0"/>
    </comp>
  </station>
  <station code="EPMN" name="EPMN" netid="IV" insttype="" lat="37.8204" lon="15.1773">
    <comp name="--.HHE">
      <acc value="0.0027922101" flag="0"/>
      <vel value="0.0007554077" flag="0"/>
      <psa03 value="0.0048693038" flag="0"/>
      <psa10 value="0.0002898393" flag="0"/>
      <psa30 value="0.0000214390" flag="0"/>
    </comp>
    <comp name="--.HHN">
      <acc value="0.0018560555" flag="0"/>
      <vel value="0.0006614176" flag="0"/>
      <psa03 value="0.0037755450" flag="0"/>
      <psa10 value="0.0003872464" flag="0"/>
      <psa30 value="0.0000271546" flag="0"/>
    </comp>
    <comp name="--.HHZ">
      <acc value="0.0028205071" flag="0"/>
      <vel value="0.0010136501" flag="0"/>
      <psa03 value="0.0072699617" flag="0"/>
      <psa10 value="0.0008708451" flag="0"/>
      <psa30 value="0.0000456983" flag="0"/>
    </comp>
  </station>
  <station code="EPZF" name="EPZF" netid="IV" insttype="" lat="37.824" lon="14.857">
    <comp name="--.HHE">
      <acc value="0.0016532879" flag="0"/>
      <vel value="0.0005812351" flag="0"/>
      <psa03 value="0.0055243672" flag="0"/>
      <psa10 value="0.0005181786" flag="0"/>
      <psa30 value="0.0000685435" flag="0"/>
    </comp>
    <comp name="--.HHN">
      <acc value="0.0025669382" flag="0"/>
      <vel value="0.0011860097" flag="0"/>
      <psa03 value="0.0090858001" flag="0"/>
      <psa10 value="0.0007155756" flag="0"/>
      <psa30 value="0.0000766766" flag="0"/>
    </comp>
    <comp name="--.HHZ">
      <acc value="0.0032072698" flag="0"/>
      <vel value="0.0014035161" flag="0"/>
      <psa03 value="0.0075778266" flag="0"/>
      <psa10 value="0.0009831960" flag="0"/>
      <psa30 value="0.0000806475" flag="0"/>
    </comp>
  </station>
  <station code="ESAL" name="ESAL" netid="IV" insttype="" lat="37.7551" lon="15.1345">
    <comp name="--.HHE">
      <acc value="0.0052803134" flag="0"/>
      <vel value="0.0018528318" flag="0"/>
      <psa03 value="0.0125699515" flag="0"/>
      <psa10 value="0.0011680654" flag="0"/>
      <psa30 value="0.0000989201" flag="0"/>
    </comp>
    <comp name="--.HHN">
      <acc value="0.0041186892" flag="0"/>
      <vel value="0.0017694516" flag="0"/>
      <psa03 value="0.0110035399" flag="0"/>
      <psa10 value="0.0009366025" flag="0"/>
      <psa30 value="0.0000726801" flag="0"/>
    </comp>
    <comp name="--.HHZ">
      <acc value="0.0037776970" flag="0"/>
      <vel value="0.0021149739" flag="0"/>
      <psa03 value="0.0121616404" flag="0"/>
      <psa10 value="0.0013222502" flag="0"/>
      <psa30 value="0.0000858572" flag="0"/>
    </comp>
  </station>
  <station code="ESPC" name="ESPC" netid="IV" insttype="" lat="37.6925" lon="15.0274">
    <comp name="--.HHE">
      <acc value="0.0035121285" flag="0"/>
      <vel value="0.0009232611" flag="0"/>
      <psa03 value="0.0050717388" flag="0"/>
      <psa10 value="0.0009447999" flag="0"/>
      <psa30 value="0.0000801264" flag="0"/>
    </comp>
    <comp name="--.HHN">
      <acc value="0.0047121200" flag="0"/>
      <vel value="0.0010877433" flag="0"/>
      <psa03 value="0.0048866823" flag="0"/>
      <psa10 value="0.0006038837" flag="0"/>
      <psa30 value="0.0000492549" flag="0"/>
    </comp>
    <comp name="--.HHZ">
      <acc value="0.0049797600" flag="0"/>
      <vel value="0.0015041570" flag="0"/>
      <psa03 value="0.0098295211" flag="0"/>
      <psa10 value="0.0005600183" flag="0"/>
      <psa30 value="0.0000412567" flag="0"/>
    </comp>
  </station>
  <station code="ESVO" name="ESVO" netid="IV" insttype="" lat="37.7731" lon="14.9469">
    <comp name="--.HHE">
      <acc value="0.0031637689" flag="0"/>
      <vel value="0.0013089502" flag="0"/>
      <psa03 value="0.0091747971" flag="0"/>
      <psa10 value="0.0011317063" flag="0"/>
      <psa30 value="0.0000983123" flag="0"/>
    </comp>
    <comp name="--.HHN">
      <acc value="0.0027747993" flag="0"/>
      <vel value="0.0013691935" flag="0"/>
      <psa03 value="0.0108966992" flag="0"/>
      <psa10 value="0.0013135428" flag="0"/>
      <psa30 value="0.0001255289" flag="0"/>
    </comp>
    <comp name="--.HHZ">
      <acc value="0.0021898493" flag="0"/>
      <vel value="0.0016369713" flag="0"/>
      <psa03 value="0.0086143788" flag="0"/>
      <psa10 value="0.0012132356" flag="0"/>
      <psa30 value="0.0000961756" flag="0"/>
    </comp>
  </station>
  <station code="EVRN" name="EVRN" netid="IV" insttype="" lat="37.6892" lon="15.1356">
    <comp name="--.HHE">
      <acc value="0.0041472209" flag="0"/>
      <vel value="0.0012883396" flag="0"/>
      <psa03 value="0.0100313856" flag="0"/>
      <psa10 value="0.0009145729" flag="0"/>
      <psa30 value="0.0001140795" flag="0"/>
    </comp>
    <comp name="--.HHN">
      <acc value="0.0059632246" flag="0"/>
      <vel value="0.0015916924" flag="0"/>
      <psa03 value="0.0137026895" flag="0"/>
      <psa10 value="0.0008166819" flag="0"/>
      <psa30 value="0.0000586797" flag="0"/>
    </comp>
    <comp name="--.HHZ">
      <acc value="0.0023455785" flag="0"/>
      <vel value="0.0014482332" flag="0"/>
      <psa03 value="0.0040924259" flag="0"/>
      <psa10 value="0.0009754496" flag="0"/>
      <psa30 value="0.0000705720" flag="0"/>
    </comp>
  </station>
  <station code="IACL" name="IACL" netid="IV" insttype="" lat="38.533" lon="14.355">
    <comp name="--.HHN">
      <acc value="0.0014175999" flag="0"/>
      <vel value="0.0006185507" flag="0"/>
      <psa03 value="0.0042506811" flag="0"/>
      <psa10 value="0.0005510999" flag="0"/>
      <psa30 value="0.0000858800" flag="0"/>
    </comp>
    <comp name="--.HHE">
      <acc value="0.0012869715" flag="0"/>
      <vel value="0.0006000372" flag="0"/>
      <psa03 value="0.0033913759" flag="0"/>
      <psa10 value="0.0004179596" flag="0"/>
      <psa30 value="0.0001041602" flag="0"/>
    </comp>
    <comp name="--.HHZ">
      <acc value="0.0019960981" flag="0"/>
      <vel value="0.0010830268" flag="0"/>
      <psa03 value="0.0047044791" flag="0"/>
      <psa10 value="0.0006064494" flag="0"/>
      <psa30 value="0.0000939762" flag="0"/>
    </comp>
  </station>
  <station code="IFIL" name="IFIL" netid="IV" insttype="" lat="38.5642" lon="14.5753">
    <comp name="--.HHE">
      <acc value="0.0063476438" flag="0"/>
      <vel value="0.0030068640" flag="0"/>
      <psa03 value="0.0169766918" flag="0"/>
      <psa10 value="0.0024372970" flag="0"/>
      <psa30 value="0.0002229170" flag="0"/>
    </comp>
    <comp name="--.HHN">
      <acc value="0.0023170204" flag="0"/>
      <vel value="0.0012855282" flag="0"/>
      <psa03 value="0.0053535300" flag="0"/>
      <psa10 value="0.0009227537" flag="0"/>
      <psa30 value="0.0000799293" flag="0"/>
    </comp>
    <comp name="--.HHZ">
      <acc value="0.0026717843" flag="0"/>
      <vel value="0.0018349782" flag="0"/>
      <psa03 value="0.0083876239" flag="0"/>
      <psa10 value="0.0016186349" flag="0"/>
      <psa30 value="0.0001667508" flag="0"/>
    </comp>
  </station>
  <station code="ILOS" name="ILOS" netid="IV" insttype="" lat="38.4457" lon="14.9483">
    <comp name="--.HHE">
      <acc value="0.0012473582" flag="0"/>
      <vel value="0.0009939642" flag="0"/>
      <psa03 value="0.0033702770" flag="0"/>
      <psa10 value="0.0010382033" flag="0"/>
      <psa30 value="0.0001402246" flag="0"/>
    </comp>
    <comp name="--.HHN">
      <acc value="0.0016416686" flag="0"/>
      <vel value="0.0012351157" flag="0"/>
      <psa03 value="0.0044003112" flag="0"/>
      <psa10 value="0.0017811551" flag="0"/>
      <psa30 value="0.0000853529" flag="0"/>
    </comp>
    <comp name="--.HHZ">
      <acc value="0.0008803926" flag="0"/>
      <vel value="0.0005893181" flag="0"/>
      <psa03 value="0.0020557217" flag="0"/>
      <psa10 value="0.0004901178" flag="0"/>
      <psa30 value="0.0000529453" flag="0"/>
    </comp>
  </station>
  <station code="IVLT" name="IVLT" netid="IV" insttype="" lat="38.3961" lon="14.9482">
    <comp name="--.HHE">
      <acc value="0.0000720658" flag="0"/>
      <vel value="-100.0000000000" flag="0"/>
      <psa03 value="0.0001646983" flag="0"/>
      <psa10 value="0.0002169747" flag="0"/>
      <psa30 value="0.0000492870" flag="0"/>
    </comp>
    <comp name="--.HHN">
      <acc value="0.0018690807" flag="0"/>
      <vel value="0.0006586677" flag="0"/>
      <psa03 value="0.0023950722" flag="0"/>
      <psa10 value="0.0005376881" flag="0"/>
      <psa30 value="0.0000688602" flag="0"/>
    </comp>
    <comp name="--.HHZ">
      <acc value="0.0017055777" flag="0"/>
      <vel value="0.0006911168" flag="0"/>
      <psa03 value="0.0026975168" flag="0"/>
      <psa10 value="0.0006504186" flag="0"/>
      <psa30 value="0.0000667719" flag="0"/>
    </comp>
  </station>
  <station code="LIBRI" name="LIBRI" netid="IV" insttype="" lat="38.0837" lon="14.9287">
    <comp name="--.HNE">
      <acc value="0.0018933850" flag="0"/>
      <vel value="0.0005503944" flag="0"/>
      <psa03 value="0.0029654579" flag="0"/>
      <psa10 value="0.0002344673" flag="0"/>
      <psa30 value="0.0000323363" flag="0"/>
    </comp>
    <comp name="--.HNN">
      <acc value="0.0025120224" flag="0"/>
      <vel value="0.0006141015" flag="0"/>
      <psa03 value="0.0040358787" flag="0"/>
      <psa10 value="0.0001761213" flag="0"/>
      <psa30 value="0.0000367554" flag="0"/>
    </comp>
    <comp name="--.HNZ">
      <acc value="0.0036816846" flag="0"/>
      <vel value="0.0005038751" flag="0"/>
      <psa03 value="0.0027796667" flag="0"/>
      <psa10 value="0.0001190817" flag="0"/>
      <psa30 value="0.0000333937" flag="0"/>
    </comp>
  </station>
  <station code="MILZ" name="MILZ" netid="IV" insttype="" lat="38.2713" lon="15.2313">
    <comp name="--.HHE">
      <acc value="0.0038946192" flag="0"/>
      <vel value="0.0010357259" flag="0"/>
      <psa03 value="0.0067799850" flag="0"/>
      <psa10 value="0.0004785568" flag="0"/>
      <psa30 value="0.0000879432" flag="0"/>
    </comp>
    <comp name="--.HHN">
      <acc value="0.0047550366" flag="0"/>
      <vel value="0.0008568310" flag="0"/>
      <psa03 value="0.0048386722" flag="0"/>
      <psa10 value="0.0004668557" flag="0"/>
      <psa30 value="0.0000585443" flag="0"/>
    </comp>
