<?xml version="1.0" encoding="UTF-8" standalone="yes"?>
<!DOCTYPE earthquake SYSTEM "stationlist.dtd">
<stationlist created="" xmlns="ch.ethz.sed.shakemap.usgs.xml">
  <station code="FX12" name="FX12" netid="1J" insttype="" lat="38.0895" lon="15.7176">
    <comp name="00.HHE">
      <acc value="0.0003623680" flag="0"/>
      <vel value="0.0001834452" flag="0"/>
      <psa03 value="0.0019630125" flag="0"/>
      <psa10 value="0.0001086265" flag="0"/>
      <psa30 value="0.0000232635" flag="0"/>
    </comp>
    <comp name="00.HHZ">
      <acc value="0.0002805522" flag="0"/>
      <vel value="0.0000782639" flag="0"/>
      <psa03 value="0.0003336538" flag="0"/>
      <psa10 value="0.0000843563" flag="0"/>
      <psa30 value="0.0000078977" flag="0"/>
    </comp>
    <comp name="00.HHN">
      <acc value="0.0002295587" flag="0"/>
      <vel value="0.0000904456" flag="0"/>
      <psa03 value="0.0008153183" flag="0"/>
      <psa10 value="0.0000689048" flag="0"/>
      <psa30 value="0.0000136363" flag="0"/>
    </comp>
  </station>
  <station code="LIBRI" name="LIBRI" netid="IV" insttype="" lat="38.0837" lon="14.9287">
    <comp name="--.HNN">
      <acc value="0.0025120171" flag="0"/>
      <vel value="0.0006141015" flag="0"/>
      <psa03 value="0.0040358787" flag="0"/>
      <psa10 value="0.0001761213" flag="0"/>
      <psa30 value="0.0000371807" flag="0"/>
    </comp>
    <comp name="--.HNE">
      <acc value="0.0018933859" flag="0"/>
      <vel value="0.0005503918" flag="0"/>
      <psa03 value="0.0029654579" flag="0"/>
      <psa10 value="0.0002344673" flag="0"/>
      <psa30 value="0.0000331716" flag="0"/>
    </comp>
    <comp name="--.HNZ">
      <acc value="0.0036816860" flag="0"/>
      <vel value="0.0005038752" flag="0"/>
      <psa03 value="0.0027796667" flag="0"/>
      <psa10 value="0.0001190817" flag="0"/>
      <psa30 value="0.0000333985" flag="0"/>
    </comp>
  </station>
</stationlist>
