<?xml version="1.0" encoding="UTF-8" standalone="yes"?>
<!DOCTYPE earthquake SYSTEM "stationlist.dtd">
<stationlist created="" xmlns="ch.ethz.sed.shakemap.usgs.xml">
  <station code="CEYT" name="CEYT" netid="KO" insttype="CMG-3ESP" lat="37.0105" lon="35.7478">
    <comp name="--.HHE">
      <acc value="0.0049539966" flag="0"/>
      <vel value="0.0049099021" flag="0"/>
      <psa03 value="0.0194384665" flag="0"/>
      <psa10 value="0.0081218361" flag="0"/>
      <psa30 value="0.0009560284" flag="0"/>
    </comp>
    <comp name="--.HHZ">
      <acc value="0.0043386913" flag="0"/>
      <vel value="0.0024104127" flag="0"/>
      <psa03 value="0.0120916103" flag="0"/>
      <psa10 value="0.0020483677" flag="0"/>
      <psa30 value="0.0001874769" flag="0"/>
    </comp>
    <comp name="--.HHN">
      <acc value="0.0060080091" flag="0"/>
      <vel value="0.0035543950" flag="0"/>
      <psa03 value="0.0143328197" flag="0"/>
      <psa10 value="0.0085002444" flag="0"/>
      <psa30 value="0.0009790656" flag="0"/>
    </comp>
  </station>
  <station code="DARE" name="DARE" netid="KO" insttype="CMG-3ESP" lat="38.5712" lon="37.4832">
    <comp name="--.HHN">
      <acc value="0.0041506381" flag="0"/>
      <vel value="0.0024620840" flag="0"/>
      <psa03 value="0.0130253377" flag="0"/>
      <psa10 value="0.0026306498" flag="0"/>
      <psa30 value="0.0006425226" flag="0"/>
    </comp>
    <comp name="--.HHZ">
      <acc value="0.0038827899" flag="0"/>
      <vel value="0.0032245769" flag="0"/>
      <psa03 value="0.0121036686" flag="0"/>
      <psa10 value="0.0029544729" flag="0"/>
      <psa30 value="0.0006176264" flag="0"/>
    </comp>
  </station>
  <station code="GAZ" name="GAZ" netid="KO" insttype="CMG-3T" lat="37.1721" lon="37.2096">
    <comp name="--.HHN">
      <acc value="0.0189827008" flag="0"/>
      <vel value="0.0103829830" flag="0"/>
      <psa03 value="0.0928256462" flag="0"/>
      <psa10 value="0.0101821335" flag="0"/>
      <psa30 value="0.0012467178" flag="0"/>
    </comp>
    <comp name="--.HHE">
      <acc value="0.0247496226" flag="0"/>
      <vel value="0.0105672952" flag="0"/>
      <psa03 value="0.0691781428" flag="0"/>
      <psa10 value="0.0131502338" flag="0"/>
      <psa30 value="0.0013376591" flag="0"/>
    </comp>
    <comp name="--.HHZ">
      <acc value="0.0176614209" flag="0"/>
      <vel value="0.0073984075" flag="0"/>
      <psa03 value="0.0648698123" flag="0"/>
      <psa10 value="0.0045728923" flag="0"/>
      <psa30 value="0.0029537033" flag="0"/>
    </comp>
  </station>
  <station code="KMRS" name="KMRS" netid="KO" insttype="CMG-3T" lat="37.5053" lon="36.9">
    <comp name="--.HHZ">
      <acc value="0.0550309175" flag="0"/>
      <vel value="0.0235163298" flag="0"/>
      <psa03 value="0.1075083619" flag="0"/>
      <psa10 value="0.0126847393" flag="0"/>
      <psa30 value="0.0025605963" flag="0"/>
    </comp>
    <comp name="--.HHN">
      <acc value="0.1170915745" flag="0"/>
      <vel value="0.0589330471" flag="0"/>
      <psa03 value="0.2086935999" flag="0"/>
      <psa10 value="0.0280334399" flag="0"/>
      <psa30 value="0.0084024953" flag="0"/>
    </comp>
    <comp name="--.HHE">
      <acc value="0.1072548475" flag="0"/>
      <vel value="0.0472546170" flag="0"/>
      <psa03 value="0.1653051358" flag="0"/>
      <psa10 value="0.0269106148" flag="0"/>
      <psa30 value="0.0053678184" flag="0"/>
    </comp>
  </station>
  <station code="ANDN" name="ANDN" netid="TU" insttype="T" lat="37.58" lon="36.3452">
    <comp name="--.HHN">
      <acc value="0.3062369471" flag="0"/>
      <vel value="0.1418090127" flag="0"/>
      <psa03 value="0.6386280923" flag="0"/>
      <psa10 value="0.1674696905" flag="0"/>
      <psa30 value="0.0120218609" flag="0"/>
    </comp>
    <comp name="--.HHZ">
      <acc value="0.1817845194" flag="0"/>
      <vel value="0.1480025671" flag="0"/>
      <psa03 value="0.5355267405" flag="0"/>
      <psa10 value="0.2163458891" flag="0"/>
      <psa30 value="0.0095777420" flag="0"/>
    </comp>
    <comp name="--.HHE">
      <acc value="0.1834708611" flag="0"/>
      <vel value="0.1074091178" flag="0"/>
      <psa03 value="0.7893251382" flag="0"/>
      <psa10 value="0.1498587398" flag="0"/>
      <psa30 value="0.0074330781" flag="0"/>
    </comp>
  </station>
</stationlist>
