<stationlist created="1779593069">
	<station code="CMRD" name="CMRD" netid="KO" source="Bogazici University Kandilli Observatory And Earthquake Research Institute (KOERI)" insttype="" lat="37.6623" lon="34.9902">
		<comp name="--.HNE" depth="0.0">
			<acc value="0.0333592964403849" flag="0"/>
			<vel value="0.0217938912227288" flag="0"/>
			<psa03 value="0.0651999389676386" flag="0"/>
			<psa10 value="0.0223856829416316" flag="0"/>
			<psa30 value="0.00401178284425795" flag="0"/>
		</comp>
		<comp name="--.HNN" depth="0.0">
			<acc value="0.035123519315125" flag="0"/>
			<vel value="0.0212050266400935" flag="0"/>
			<psa03 value="0.0638799036051075" flag="0"/>
			<psa10 value="0.0187006757029872" flag="0"/>
			<psa30 value="0.00530173663069887" flag="0"/>
		</comp>
		<comp name="--.HNZ" depth="0.0">
			<acc value="0.0232387527697851" flag="0"/>
			<vel value="0.0189547601976123" flag="0"/>
			<psa03 value="0.0436017035030377" flag="0"/>
			<psa10 value="0.0241731132251157" flag="0"/>
			<psa30 value="0.00350338208186921" flag="0"/>
		</comp>
	</station>
	<station code="KOZK" name="KOZK" netid="KO" source="Bogazici University Kandilli Observatory And Earthquake Research Institute (KOERI)" insttype="" lat="39.2101" lon="34.868">
		<comp name="--.HNE" depth="0.0">
			<acc value="0.0259330450149402" flag="0"/>
			<vel value="0.0324551083432487" flag="0"/>
			<psa03 value="0.0379190379918366" flag="0"/>
			<psa10 value="0.10609716841671" flag="0"/>
			<psa30 value="0.00675691136221654" flag="0"/>
		</comp>
		<comp name="--.HNN" depth="0.0">
			<acc value="0.0253220308525823" flag="0"/>
			<vel value="0.0426584129711435" flag="0"/>
			<psa03 value="0.0448072911798045" flag="0"/>
			<psa10 value="0.081266098480191" flag="0"/>
			<psa30 value="0.00583487736532269" flag="0"/>
		</comp>
		<comp name="--.HNZ" depth="0.0">
			<acc value="0.01015893532838" flag="0"/>
			<vel value="0.0130388742390695" flag="0"/>
			<psa03 value="0.0289696612853844" flag="0"/>
			<psa10 value="0.0213514488036958" flag="0"/>
			<psa30 value="0.00253252380894003" flag="0"/>
		</comp>
	</station>
	<station code="KRTS" name="KRTS" netid="KO" source="Bogazici University Kandilli Observatory And Earthquake Research Institute (KOERI)" insttype="" lat="36.573" lon="35.375">
		<comp name="--.HNE" depth="0.0">
			<acc value="0.0111570171986753" flag="0"/>
			<vel value="0.012589123767529" flag="0"/>
			<psa03 value="0.029713502227863" flag="0"/>
			<psa10 value="0.0259696453615528" flag="0"/>
			<psa30 value="0.00495182720091642" flag="0"/>
		</comp>
		<comp name="--.HNN" depth="0.0">
			<acc value="0.0119081715597939" flag="0"/>
			<vel value="0.0139359967613124" flag="0"/>
			<psa03 value="0.0312633705240312" flag="0"/>
			<psa10 value="0.0273022923928783" flag="0"/>
			<psa30 value="0.00459400641371203" flag="0"/>
		</comp>
		<comp name="--.HNZ" depth="0.0">
			<acc value="0.00937968478661937" flag="0"/>
			<vel value="0.0113454122825186" flag="0"/>
			<psa03 value="0.0276444146401315" flag="0"/>
			<psa10 value="0.0166108441369023" flag="0"/>
			<psa30 value="0.005027287199771" flag="0"/>
		</comp>
	</station>
	<station code="NIG" name="NIG" netid="KO" source="Bogazici University Kandilli Observatory And Earthquake Research Institute (KOERI)" insttype="" lat="38.108" lon="34.6142">
		<comp name="--.HNE" depth="0.0">
			<acc value="0.0164669674646391" flag="0"/>
			<vel value="0.0254226957330697" flag="0"/>
			<psa03 value="0.0217103991448942" flag="0"/>
			<psa10 value="0.0440602587759074" flag="0"/>
			<psa30 value="0.00423163282490687" flag="0"/>
		</comp>
		<comp name="--.HNN" depth="0.0">
			<acc value="0.0193299036337897" flag="0"/>
			<vel value="0.0248247760182332" flag="0"/>
			<psa03 value="0.0378142289654197" flag="0"/>
			<psa10 value="0.0432305275602864" flag="0"/>
			<psa30 value="0.00637613322086677" flag="0"/>
		</comp>
		<comp name="--.HNZ" depth="0.0">
			<acc value="0.00916957372924037" flag="0"/>
			<vel value="0.0101587876640336" flag="0"/>
			<psa03 value="0.0150510673718466" flag="0"/>
			<psa10 value="0.0221072251201676" flag="0"/>
			<psa30 value="0.00167981836305576" flag="0"/>
		</comp>
	</station>
</stationlist>
