<?xml version="1.0" encoding="UTF-8" standalone="yes"?>
<!DOCTYPE earthquake SYSTEM "stationlist.dtd">
<stationlist created="" xmlns="ch.ethz.sed.shakemap.usgs.xml">
  <station code="BNN" name="BNN" netid="KO" insttype="CMG-3T" commtype="DIG" lat="38.8521" lon="35.8472">
    <comp name="--.HHN">
      <acc value="0.0300152375" flag="0"/>
      <vel value="0.0343786726" flag="0"/>
      <psa03 value="0.0780576520" flag="0"/>
      <psa10 value="0.0672451827" flag="0"/>
      <psa30 value="0.0032956206" flag="0"/>
    </comp>
    <comp name="--.HHZ">
      <acc value="0.0204222956" flag="0"/>
      <vel value="0.0165629944" flag="0"/>
      <psa03 value="0.0340177920" flag="0"/>
      <psa10 value="0.0370885072" flag="0"/>
      <psa30 value="0.0019722799" flag="0"/>
    </comp>
    <comp name="--.HHE">
      <acc value="0.0309626102" flag="0"/>
      <vel value="0.0200432702" flag="0"/>
      <psa03 value="0.0909084681" flag="0"/>
      <psa10 value="0.0447363484" flag="0"/>
      <psa30 value="0.0032889653" flag="0"/>
    </comp>
  </station>
  <station code="CEYT" name="CEYT" netid="KO" insttype="CMG-3ESP" commtype="DIG" lat="37.0105" lon="35.7478">
    <comp name="--.HHN">
      <acc value="0.0567707187" flag="0"/>
      <vel value="0.0557856155" flag="0"/>
      <psa03 value="0.1051654646" flag="0"/>
      <psa10 value="0.1034028623" flag="0"/>
      <psa30 value="0.0099765862" flag="0"/>
    </comp>
    <comp name="--.HHZ">
      <acc value="0.0438631489" flag="0"/>
      <vel value="0.0630904278" flag="0"/>
      <psa03 value="0.0752614218" flag="0"/>
      <psa10 value="0.1119076470" flag="0"/>
      <psa30 value="0.0122062765" flag="0"/>
    </comp>
    <comp name="--.HHE">
      <acc value="0.0725416441" flag="0"/>
      <vel value="0.0992999203" flag="0"/>
      <psa03 value="0.1418165898" flag="0"/>
      <psa10 value="0.1425392878" flag="0"/>
      <psa30 value="0.0086626707" flag="0"/>
    </comp>
  </station>
  <station code="CMRD" name="CMRD" netid="KO" insttype="CMG-5T" commtype="DIG" lat="37.6623" lon="34.9902">
    <comp name="--.HNE">
      <acc value="0.0340592448" flag="0"/>
      <vel value="0.0199959439" flag="0"/>
      <psa03 value="0.0642803492" flag="0"/>
      <psa10 value="0.0222824993" flag="0"/>
      <psa30 value="0.0032623804" flag="0"/>
    </comp>
    <comp name="--.HNZ">
      <acc value="0.0244298455" flag="0"/>
      <vel value="0.0145110816" flag="0"/>
      <psa03 value="0.0424303472" flag="0"/>
      <psa10 value="0.0242429011" flag="0"/>
      <psa30 value="0.0026490909" flag="0"/>
    </comp>
    <comp name="--.HNN">
      <acc value="0.0352655507" flag="0"/>
      <vel value="0.0159021142" flag="0"/>
      <psa03 value="0.0622674714" flag="0"/>
      <psa10 value="0.0189754867" flag="0"/>
      <psa30 value="0.0037848351" flag="0"/>
    </comp>
  </station>
  <station code="DARE" name="DARE" netid="KO" insttype="CMG-3ESP" commtype="DIG" lat="38.5712" lon="37.4832">
    <comp name="--.HHE">
      <acc value="0.0180379370" flag="0"/>
      <vel value="0.0156455383" flag="0"/>
      <psa03 value="0.0407622758" flag="0"/>
      <psa10 value="0.0198349522" flag="0"/>
      <psa30 value="0.0017832967" flag="0"/>
    </comp>
    <comp name="--.HHZ">
      <acc value="0.0167527080" flag="0"/>
      <vel value="0.0131078535" flag="0"/>
      <psa03 value="0.0349146630" flag="0"/>
      <psa10 value="0.0142792261" flag="0"/>
      <psa30 value="0.0018846265" flag="0"/>
    </comp>
    <comp name="--.HHN">
      <acc value="0.0230540094" flag="0"/>
      <vel value="0.0146264928" flag="0"/>
      <psa03 value="0.0358669174" flag="0"/>
      <psa10 value="0.0196331531" flag="0"/>
      <psa30 value="0.0016178485" flag="0"/>
    </comp>
  </station>
  <station code="GAZ" name="GAZ" netid="KO" insttype="CMG-3T" commtype="DIG" lat="37.1721" lon="37.2096">
    <comp name="--.HHN">
      <acc value="0.0906401313" flag="0"/>
      <vel value="0.0931269854" flag="0"/>
      <psa03 value="0.3429221666" flag="0"/>
      <psa10 value="0.1159307364" flag="0"/>
      <psa30 value="0.0122002471" flag="0"/>
    </comp>
    <comp name="--.HHE">
      <acc value="0.1030257202" flag="0"/>
      <vel value="0.0781057680" flag="0"/>
      <psa03 value="0.2445861838" flag="0"/>
      <psa10 value="0.1546298449" flag="0"/>
      <psa30 value="0.0097750350" flag="0"/>
    </comp>
    <comp name="--.HHZ">
      <acc value="0.0710557837" flag="0"/>
      <vel value="0.0462235578" flag="0"/>
      <psa03 value="0.2285773602" flag="0"/>
      <psa10 value="0.0314933498" flag="0"/>
      <psa30 value="0.0031190726" flag="0"/>
    </comp>
  </station>
  <station code="KARA" name="KARA" netid="KO" insttype="CMG-3T" commtype="DIG" lat="37.2607" lon="35.0547">
    <comp name="--.HHE">
      <acc value="0.0200179375" flag="0"/>
      <vel value="0.0189689829" flag="0"/>
      <psa03 value="0.0715925469" flag="0"/>
      <psa10 value="0.0311738305" flag="0"/>
      <psa30 value="0.0028707215" flag="0"/>
    </comp>
    <comp name="--.HHZ">
      <acc value="0.0198087773" flag="0"/>
      <vel value="0.0344051226" flag="0"/>
      <psa03 value="0.0584907747" flag="0"/>
      <psa10 value="0.0504745093" flag="0"/>
      <psa30 value="0.0044164489" flag="0"/>
    </comp>
    <comp name="--.HHN">
      <acc value="0.0217744031" flag="0"/>
      <vel value="0.0208790210" flag="0"/>
      <psa03 value="0.0597644613" flag="0"/>
      <psa10 value="0.0346002004" flag="0"/>
      <psa30 value="0.0040502683" flag="0"/>
    </comp>
  </station>
  <station code="KHMN" name="KHMN" netid="KO" insttype="CMG-5T" commtype="DIG" lat="37.3916" lon="37.1574">
    <comp name="--.HNE">
      <acc value="0.1881646773" flag="0"/>
      <vel value="0.0700377240" flag="0"/>
      <psa03 value="0.3609710956" flag="0"/>
      <psa10 value="0.0647214977" flag="0"/>
      <psa30 value="0.0050802872" flag="0"/>
    </comp>
    <comp name="--.HNN">
      <acc value="0.1631213749" flag="0"/>
      <vel value="0.0635842861" flag="0"/>
      <psa03 value="0.2643379446" flag="0"/>
      <psa10 value="0.0864002879" flag="0"/>
      <psa30 value="0.0095657903" flag="0"/>
    </comp>
  </station>
  <station code="KOZT" name="KOZT" netid="KO" insttype="CMG-3T" commtype="DIG" lat="37.4795" lon="35.8264">
    <comp name="--.HHE">
      <acc value="0.3553499717" flag="0"/>
      <vel value="0.2712735407" flag="0"/>
      <psa03 value="1.5064973405" flag="0"/>
      <psa10 value="0.3361354393" flag="0"/>
      <psa30 value="0.0243060881" flag="0"/>
    </comp>
    <comp name="--.HHN">
      <acc value="0.2896626553" flag="0"/>
      <vel value="0.1857523195" flag="0"/>
      <psa03 value="0.7356671125" flag="0"/>
      <psa10 value="0.2571429738" flag="0"/>
      <psa30 value="0.0184594996" flag="0"/>
    </comp>
    <comp name="--.HHZ">
      <acc value="0.2070862473" flag="0"/>
      <vel value="0.1283885587" flag="0"/>
      <psa03 value="0.6019817721" flag="0"/>
      <psa10 value="0.1784287911" flag="0"/>
      <psa30 value="0.0121364359" flag="0"/>
    </comp>
  </station>
  <station code="NURH" name="NURH" netid="KO" insttype="CMG-6T" commtype="DIG" lat="37.9693" lon="37.4363">
    <comp name="--.HHE">
      <acc value="0.0895135811" flag="0"/>
      <vel value="0.0595374898" flag="0"/>
      <psa03 value="0.2756152532" flag="0"/>
      <psa10 value="0.0721320215" flag="0"/>
      <psa30 value="0.0040375242" flag="0"/>
    </comp>
    <comp name="--.HHN">
      <acc value="0.1509373366" flag="0"/>
      <vel value="0.0706531820" flag="0"/>
      <psa03 value="0.4418195871" flag="0"/>
      <psa10 value="0.0625952829" flag="0"/>
      <psa30 value="0.0044243233" flag="0"/>
    </comp>
    <comp name="--.HHZ">
      <acc value="0.0541101963" flag="0"/>
      <vel value="0.0394010768" flag="0"/>
      <psa03 value="0.1048493190" flag="0"/>
      <psa10 value="0.0455270256" flag="0"/>
      <psa30 value="0.0031537428" flag="0"/>
    </comp>
  </station>
  <station code="SARI" name="SARI" netid="KO" insttype="CMG-3T" commtype="DIG" lat="38.4072" lon="36.4181">
    <comp name="--.HHE">
      <acc value="0.2936293551" flag="0"/>
      <vel value="0.1052572201" flag="0"/>
      <psa03 value="0.6520912173" flag="0"/>
      <psa10 value="0.0761762765" flag="0"/>
      <psa30 value="0.0060108269" flag="0"/>
    </comp>
    <comp name="--.HHN">
      <acc value="0.3102438987" flag="0"/>
      <vel value="0.0999134662" flag="0"/>
      <psa03 value="0.4522471443" flag="0"/>
      <psa10 value="0.0819360794" flag="0"/>
      <psa30 value="0.0039493291" flag="0"/>
    </comp>
    <comp name="--.HHZ">
      <acc value="0.1699601658" flag="0"/>
      <vel value="0.0797754305" flag="0"/>
      <psa03 value="0.3908977462" flag="0"/>
      <psa10 value="0.0463449934" flag="0"/>
      <psa30 value="0.0047880124" flag="0"/>
    </comp>
  </station>
</stationlist>
