<stationlist created="1779846985">
	<station code="CMRD" name="CMRD" netid="KO" source="Bogazici University Kandilli Observatory And Earthquake Research Institute (KOERI)" insttype="" lat="37.6623" lon="34.9902">
		<comp name="--.HNE" depth="0.0">
			<acc value="0.0333592964403849" flag="0"/>
			<vel value="0.0217938912227288" flag="0"/>
			<psa03 value="0.0651999389676386" flag="0"/>
			<psa10 value="0.0223856829416316" flag="0"/>
			<psa30 value="0.00401178284425795" flag="0"/>
		</comp>
		<comp name="--.HNN" depth="0.0">
			<acc value="0.035123519315125" flag="0"/>
			<vel value="0.0212050266400935" flag="0"/>
			<psa03 value="0.0638799036051075" flag="0"/>
			<psa10 value="0.0187006757029872" flag="0"/>
			<psa30 value="0.00530173663069887" flag="0"/>
		</comp>
		<comp name="--.HNZ" depth="0.0">
			<acc value="0.0232387527697851" flag="0"/>
			<vel value="0.0189547601976123" flag="0"/>
			<psa03 value="0.0436017035030377" flag="0"/>
			<psa10 value="0.0241731132251157" flag="0"/>
			<psa30 value="0.00350338208186921" flag="0"/>
		</comp>
	</station>
	<station code="KOZK" name="KOZK" netid="KO" source="Bogazici University Kandilli Observatory And Earthquake Research Institute (KOERI)" insttype="" lat="39.2101" lon="34.868">
		<comp name="--.HNE" depth="0.0">
			<acc value="0.0259330450149402" flag="0"/>
			<vel value="0.0324551083432487" flag="0"/>
			<psa03 value="0.0379190379918366" flag="0"/>
			<psa10 value="0.10609716841671" flag="0"/>
			<psa30 value="0.00675691136221654" flag="0"/>
		</comp>
		<comp name="--.HNN" depth="0.0">
			<acc value="0.0253220308525823" flag="0"/>
			<vel value="0.0426584129711435" flag="0"/>
			<psa03 value="0.0448072911798045" flag="0"/>
			<psa10 value="0.081266098480191" flag="0"/>
			<psa30 value="0.00583487736532269" flag="0"/>
		</comp>
		<comp name="--.HNZ" depth="0.0">
			<acc value="0.01015893532838" flag="0"/>
			<vel value="0.0130388742390695" flag="0"/>
			<psa03 value="0.0289696612853844" flag="0"/>
			<psa10 value="0.0213514488036958" flag="0"/>
			<psa30 value="0.00253252380894003" flag="0"/>
		</comp>
	</station>
	<station code="NIG" name="NIG" netid="KO" source="Bogazici University Kandilli Observatory And Earthquake Research Institute (KOERI)" insttype="" lat="38.108" lon="34.6142">
		<comp name="--.HNE" depth="0.0">
			<acc value="0.0516277841959518" flag="0"/>
			<vel value="0.056833737575787" flag="0"/>
			<psa03 value="0.112724071583188" flag="0"/>
			<psa10 value="0.0957003471783276" flag="0"/>
			<psa30 value="0.0124130823057825" flag="0"/>
		</comp>
		<comp name="--.HNN" depth="0.0">
			<acc value="0.061185905590258" flag="0"/>
			<vel value="0.06782217646216" flag="0"/>
			<psa03 value="0.118350444302768" flag="0"/>
			<psa10 value="0.0837333719249479" flag="0"/>
			<psa30 value="0.0084707044759328" flag="0"/>
		</comp>
		<comp name="--.HNZ" depth="0.0">
			<acc value="0.0153490974509014" flag="0"/>
			<vel value="0.0203754079737021" flag="0"/>
			<psa03 value="0.0318179671591698" flag="0"/>
			<psa10 value="0.0346288002380664" flag="0"/>
			<psa30 value="0.00183324727696832" flag="0"/>
		</comp>
	</station>
</stationlist>
