<?xml version="1.0" encoding="UTF-8" standalone="yes"?>
<!DOCTYPE earthquake SYSTEM "stationlist.dtd">
<stationlist created="" xmlns="ch.ethz.sed.shakemap.usgs.xml">
  <station code="THERA" name="THERA" netid="GE" insttype="STS-2/N" lat="36.367" lon="25.4753">
    <comp name="--.HHN">
      <acc value="0.2808153887" flag="0"/>
      <vel value="0.0802890979" flag="0"/>
      <psa03 value="0.4015416767" flag="0"/>
      <psa10 value="0.0211278011" flag="0"/>
      <psa30 value="0.0016049775" flag="0"/>
    </comp>
    <comp name="--.HHE">
      <acc value="0.3180587664" flag="0"/>
      <vel value="0.1109686257" flag="0"/>
      <psa03 value="0.5632079454" flag="0"/>
      <psa10 value="0.0408338979" flag="0"/>
      <psa30 value="0.0033789069" flag="0"/>
    </comp>
    <comp name="--.HHZ">
      <acc value="0.3141777320" flag="0"/>
      <vel value="0.0752288951" flag="0"/>
      <psa03 value="0.2247448639" flag="0"/>
      <psa10 value="0.0288233425" flag="0"/>
      <psa30 value="0.0017450281" flag="0"/>
    </comp>
  </station>
</stationlist>
