<?xml version="1.0" encoding="UTF-8" standalone="yes"?>
<!DOCTYPE earthquake SYSTEM "stationlist.dtd">
<stationlist created="" xmlns="ch.ethz.sed.shakemap.usgs.xml">
  <station code="THERA" name="THERA" netid="GE" insttype="STS-2/N" lat="36.367" lon="25.4753">
    <comp name="--.HHE">
      <acc value="0.3180587663" flag="0"/>
      <vel value="0.1109686174" flag="0"/>
      <psa03 value="0.5632079454" flag="0"/>
      <psa10 value="0.0408338328" flag="0"/>
      <psa30 value="0.0033771278" flag="0"/>
    </comp>
    <comp name="--.HHN">
      <acc value="0.2808153890" flag="0"/>
      <vel value="0.0802891006" flag="0"/>
      <psa03 value="0.4015416767" flag="0"/>
      <psa10 value="0.0211277578" flag="0"/>
      <psa30 value="0.0016060730" flag="0"/>
    </comp>
    <comp name="--.HHZ">
      <acc value="0.3141777324" flag="0"/>
      <vel value="0.0752289057" flag="0"/>
      <psa03 value="0.2247448639" flag="0"/>
      <psa10 value="0.0288233315" flag="0"/>
      <psa30 value="0.0017526594" flag="0"/>
    </comp>
  </station>
</stationlist>
