<stationlist created="1778550968">
	<station code="0904" name="0904" netid="TK" source="Turkish National Strong Motion Network (TNSMN)" insttype="" lat="37.85716" lon="28.05025">
		<comp name="00.HNE" depth="None">
			<acc value="0.339220971667667" flag="0"/>
			<vel value="0.347117860396264" flag="0"/>
			<psa03 value="0.87556024131296" flag="0"/>
			<psa10 value="0.384172693218864" flag="0"/>
			<psa30 value="0.313726088898395" flag="0"/>
		</comp>
		<comp name="00.HNN" depth="None">
			<acc value="0.25468505361503" flag="0"/>
			<vel value="0.301893593883186" flag="0"/>
			<psa03 value="0.533237618476563" flag="0"/>
			<psa10 value="0.256132578273157" flag="0"/>
			<psa30 value="0.166841003947138" flag="0"/>
		</comp>
		<comp name="00.HNZ" depth="None">
			<acc value="0.168099195723276" flag="0"/>
			<vel value="0.22596086197573" flag="0"/>
			<psa03 value="0.384917203536992" flag="0"/>
			<psa10 value="0.487005048955836" flag="0"/>
			<psa30 value="0.123567236550078" flag="0"/>
		</comp>
	</station>
	<station code="0908" name="0908" netid="TK" source="Turkish National Strong Motion Network (TNSMN)" insttype="" lat="37.91333" lon="28.34308">
		<comp name="00.HNE" depth="None">
			<acc value="0.896811608358174" flag="0"/>
			<vel value="0.949675489709875" flag="0"/>
			<psa03 value="1.87519062157839" flag="0"/>
			<psa10 value="2.05883769317548" flag="0"/>
			<psa30 value="0.289834197986304" flag="0"/>
		</comp>
		<comp name="00.HNN" depth="None">
			<acc value="0.625900444473122" flag="0"/>
			<vel value="0.982934845557364" flag="0"/>
			<psa03 value="2.23290456349147" flag="0"/>
			<psa10 value="1.4711908669187" flag="0"/>
			<psa30 value="0.379842989884414" flag="0"/>
		</comp>
		<comp name="00.HNZ" depth="None">
			<acc value="0.69628923863861" flag="0"/>
			<vel value="0.401790079151856" flag="0"/>
			<psa03 value="1.01408211300313" flag="0"/>
			<psa10 value="0.790339760367138" flag="0"/>
			<psa30 value="0.196520299285303" flag="0"/>
		</comp>
	</station>
	<station code="0909" name="0909" netid="TK" source="Turkish National Strong Motion Network (TNSMN)" insttype="" lat="37.88405" lon="28.15056">
		<comp name="00.HNE" depth="None">
			<acc value="0.361198314084682" flag="0"/>
			<vel value="0.48883851498159" flag="0"/>
			<psa03 value="0.74482351357437" flag="0"/>
			<psa10 value="0.693301967809298" flag="0"/>
			<psa30 value="0.284862443986882" flag="0"/>
		</comp>
		<comp name="00.HNN" depth="None">
			<acc value="0.296285172087175" flag="0"/>
			<vel value="0.526991329474563" flag="0"/>
			<psa03 value="0.754801025650245" flag="0"/>
			<psa10 value="0.568696712065675" flag="0"/>
			<psa30 value="0.391216458806778" flag="0"/>
		</comp>
		<comp name="00.HNZ" depth="None">
			<acc value="0.24642396394891" flag="0"/>
			<vel value="0.211257774120544" flag="0"/>
			<psa03 value="0.49525148505765" flag="0"/>
			<psa10 value="0.290251642774053" flag="0"/>
			<psa30 value="0.114570473643276" flag="0"/>
		</comp>
	</station>
	<station code="2007" name="2007" netid="TK" source="Turkish National Strong Motion Network (TNSMN)" insttype="" lat="37.93252" lon="28.92294">
		<comp name="00.HNE" depth="None">
			<acc value="0.689179270821751" flag="0"/>
			<vel value="0.769947732705652" flag="0"/>
			<psa03 value="2.17576876563994" flag="0"/>
			<psa10 value="1.11162191311923" flag="0"/>
			<psa30 value="0.57933998817603" flag="0"/>
		</comp>
		<comp name="00.HNN" depth="None">
			<acc value="0.781567823938413" flag="0"/>
			<vel value="0.801951296285197" flag="0"/>
			<psa03 value="1.70244096182524" flag="0"/>
			<psa10 value="2.25880851143518" flag="0"/>
			<psa30 value="0.529201871439595" flag="0"/>
		</comp>
		<comp name="00.HNZ" depth="None">
			<acc value="0.291765591311888" flag="0"/>
			<vel value="0.484301001597548" flag="0"/>
			<psa03 value="0.49032984232964" flag="0"/>
			<psa10 value="0.728991483762494" flag="0"/>
			<psa30 value="0.152035360355086" flag="0"/>
		</comp>
	</station>
	<station code="3502" name="3502" netid="TK" source="Turkish National Strong Motion Network (TNSMN)" insttype="" lat="38.45514" lon="27.22673">
		<comp name="00.HNE" depth="None">
			<acc value="0.217630850948048" flag="0"/>
			<vel value="0.239277662153854" flag="0"/>
			<psa03 value="0.331718719867867" flag="0"/>
			<psa10 value="0.346626823113075" flag="0"/>
			<psa30 value="0.038417895712779" flag="0"/>
		</comp>
		<comp name="00.HNN" depth="None">
			<acc value="0.163421304711228" flag="0"/>
			<vel value="0.182294484132622" flag="0"/>
			<psa03 value="0.267200457924319" flag="0"/>
			<psa10 value="0.382465330614311" flag="0"/>
			<psa30 value="0.0418992868097468" flag="0"/>
		</comp>
		<comp name="00.HNZ" depth="None">
			<acc value="0.0537571076252813" flag="0"/>
			<vel value="0.065014906816087" flag="0"/>
			<psa03 value="0.123443748059812" flag="0"/>
			<psa10 value="0.10147532461024" flag="0"/>
			<psa30 value="0.0198597232516523" flag="0"/>
		</comp>
	</station>
	<station code="4802" name="4802" netid="TK" source="Turkish National Strong Motion Network (TNSMN)" insttype="" lat="37.03304" lon="27.43997">
		<comp name="00.HNE" depth="None">
			<acc value="0.771029557165567" flag="0"/>
			<vel value="0.328528353451028" flag="0"/>
			<psa03 value="1.52253254901317" flag="0"/>
			<psa10 value="0.195642009769386" flag="0"/>
			<psa30 value="0.0255867256987911" flag="0"/>
		</comp>
		<comp name="00.HNN" depth="None">
			<acc value="0.281568439307246" flag="0"/>
			<vel value="0.162515015594663" flag="0"/>
			<psa03 value="0.678112883506527" flag="0"/>
			<psa10 value="0.174795273439735" flag="0"/>
			<psa30 value="0.0206100500566407" flag="0"/>
		</comp>
		<comp name="00.HNZ" depth="None">
			<acc value="0.266166470214989" flag="0"/>
			<vel value="0.140857958454832" flag="0"/>
			<psa03 value="0.715651594859257" flag="0"/>
			<psa10 value="0.0872204575816589" flag="0"/>
			<psa30 value="0.0321280363063824" flag="0"/>
		</comp>
	</station>
	<station code="4804" name="4804" netid="TK" source="Turkish National Strong Motion Network (TNSMN)" insttype="" lat="36.96996" lon="28.68684">
		<comp name="00.HNE" depth="None">
			<acc value="1.53172092540024" flag="0"/>
			<vel value="0.623902307630815" flag="0"/>
			<psa03 value="2.50131306099448" flag="0"/>
			<psa10 value="0.611972716573066" flag="0"/>
			<psa30 value="0.126075037231032" flag="0"/>
		</comp>
		<comp name="00.HNN" depth="None">
			<acc value="2.80854263313808" flag="0"/>
			<vel value="0.947885487895098" flag="0"/>
			<psa03 value="5.77550299911299" flag="0"/>
			<psa10 value="0.537331977804201" flag="0"/>
			<psa30 value="0.0606843022584281" flag="0"/>
		</comp>
		<comp name="00.HNZ" depth="None">
			<acc value="0.92933018540783" flag="0"/>
			<vel value="0.330104921196329" flag="0"/>
			<psa03 value="1.46669427515357" flag="0"/>
			<psa10 value="0.283406085161457" flag="0"/>
			<psa30 value="0.0433824909591425" flag="0"/>
		</comp>
	</station>
	<station code="4805" name="4805" netid="TK" source="Turkish National Strong Motion Network (TNSMN)" insttype="" lat="36.83942" lon="28.24483">
		<comp name="00.HNE" depth="None">
			<acc value="3.20246022985383" flag="0"/>
			<vel value="2.21120805785836" flag="0"/>
			<psa03 value="14.633386096572" flag="0"/>
			<psa10 value="1.81455598316931" flag="0"/>
			<psa30 value="0.231480517270622" flag="0"/>
		</comp>
		<comp name="00.HNN" depth="None">
			<acc value="3.48324362856206" flag="0"/>
			<vel value="1.72136114948129" flag="0"/>
			<psa03 value="9.72221304491074" flag="0"/>
			<psa10 value="2.19395289325374" flag="0"/>
			<psa30 value="0.37553476280914" flag="0"/>
		</comp>
		<comp name="00.HNZ" depth="None">
			<acc value="1.6382053082869" flag="0"/>
			<vel value="1.09305032621908" flag="0"/>
			<psa03 value="3.31436843966172" flag="0"/>
			<psa10 value="1.01152778042729" flag="0"/>
			<psa30 value="0.248071822328809" flag="0"/>
		</comp>
	</station>
</stationlist>
