<stationlist created="1745413351">
	<station code="ELND" name="ELND" netid="BS" source="National Seismic Network of Bulgaria (BS)" insttype="" lat="42.9287" lon="25.8751">
		<comp name=".HNE" depth="0.0">
			<acc value="0.013509119073924" flag="0"/>
			<vel value="0.012470073835" flag="0"/>
			<psa03 value="0.0261753641977582" flag="0"/>
			<psa10 value="0.0155260107095285" flag="0"/>
			<psa30 value="0.00263391760911413" flag="0"/>
		</comp>
		<comp name=".HNN" depth="0.0">
			<acc value="0.017003617167996" flag="0"/>
			<vel value="0.0151576673801" flag="0"/>
			<psa03 value="0.0463982194875808" flag="0"/>
			<psa10 value="0.0275901839642992" flag="0"/>
			<psa30 value="0.00233885827121603" flag="0"/>
		</comp>
		<comp name=".HNZ" depth="0.0">
			<acc value="0.013955271007452" flag="0"/>
			<vel value="0.0116148047224" flag="0"/>
			<psa03 value="0.030526462332471" flag="0"/>
			<psa10 value="0.0179437180582701" flag="0"/>
			<psa30 value="0.00235846248656667" flag="0"/>
		</comp>
	</station>
	<station code="JMB" name="JMB" netid="BS" source="National Seismic Network of Bulgaria (BS)" insttype="" lat="42.4911" lon="26.5296">
		<comp name=".HNE" depth="0.0">
			<acc value="12.392934603516" flag="0"/>
			<vel value="20.0790926293" flag="0"/>
			<psa03 value="24.9896661093866" flag="0"/>
			<psa10 value="23.8183272872938" flag="0"/>
			<psa30 value="5.44223614811373" flag="0"/>
		</comp>
		<comp name=".HNN" depth="0.0">
			<acc value="13.609515201342" flag="0"/>
			<vel value="18.4318009849" flag="0"/>
			<psa03 value="32.8331083656395" flag="0"/>
			<psa10 value="17.0723328782637" flag="0"/>
			<psa30 value="4.73749826267089" flag="0"/>
		</comp>
		<comp name=".HNZ" depth="0.0">
			<acc value="12.477607453068" flag="0"/>
			<vel value="17.1460517806" flag="0"/>
			<psa03 value="22.2221227732279" flag="0"/>
			<psa10 value="25.5280373471887" flag="0"/>
			<psa30 value="5.13393668476885" flag="0"/>
		</comp>
	</station>
	<station code="KALB" name="KALB" netid="BS" source="National Seismic Network of Bulgaria (BS)" insttype="" lat="43.4059" lon="28.4162">
		<comp name=".HNE" depth="0.0">
			<acc value="0.0001552732286406" flag="0"/>
			<vel value="0.00020331585506" flag="0"/>
			<psa03 value="0.000175936195111239" flag="0"/>
			<psa10 value="0.000110946192414195" flag="0"/>
			<psa30 value="7.07794348837238e-05" flag="0"/>
		</comp>
		<comp name=".HNN" depth="0.0">
			<acc value="0.00015822961154076" flag="0"/>
			<vel value="0.000144509389008" flag="0"/>
			<psa03 value="0.000165293267982937" flag="0"/>
			<psa10 value="0.000101097607864957" flag="0"/>
			<psa30 value="6.59472007094339e-05" flag="0"/>
		</comp>
		<comp name=".HNZ" depth="0.0">
			<acc value="0.00017456476611936" flag="0"/>
			<vel value="0.000147467648303" flag="0"/>
			<psa03 value="0.000199417853195177" flag="0"/>
			<psa10 value="9.93867474583132e-05" flag="0"/>
			<psa30 value="6.28190052008997e-05" flag="0"/>
		</comp>
	</station>
	<station code="LOZB" name="LOZB" netid="BS" source="National Seismic Network of Bulgaria (BS)" insttype="" lat="43.3701" lon="26.593">
		<comp name=".HNE" depth="0.0">
			<acc value="0.10209632284116" flag="0"/>
			<vel value="0.0597643235283" flag="0"/>
			<psa03 value="0.524628920758894" flag="0"/>
			<psa10 value="0.0400439377143485" flag="0"/>
			<psa30 value="0.00319211417022965" flag="0"/>
		</comp>
		<comp name=".HNN" depth="0.0">
			<acc value="0.097862181445146" flag="0"/>
			<vel value="0.0600564799735" flag="0"/>
			<psa03 value="0.440064485445648" flag="0"/>
			<psa10 value="0.0432599070067207" flag="0"/>
			<psa30 value="0.00389589266710398" flag="0"/>
		</comp>
		<comp name=".HNZ" depth="0.0">
			<acc value="0.026777397411978" flag="0"/>
			<vel value="0.0200801190904" flag="0"/>
			<psa03 value="0.0602621847825378" flag="0"/>
			<psa10 value="0.0256855227898255" flag="0"/>
			<psa30 value="0.00230354989054187" flag="0"/>
		</comp>
	</station>
	<station code="MYT1" name="MYT1" netid="HI" source="ITSAK Strong Motion Network" insttype="" lat="39.085" lon="26.5694">
		<comp name=".HNE" depth="0.0">
			<acc value="0.1086068548842" flag="0"/>
			<vel value="0.0954137244038" flag="0"/>
			<psa03 value="0.342520752818891" flag="0"/>
			<psa10 value="0.17748160228524" flag="0"/>
			<psa30 value="0.0175585648354053" flag="0"/>
		</comp>
		<comp name=".HNN" depth="0.0">
			<acc value="0.093124224497934" flag="0"/>
			<vel value="0.0851901399688" flag="0"/>
			<psa03 value="0.20967334816364" flag="0"/>
			<psa10 value="0.199125816108116" flag="0"/>
			<psa30 value="0.0113908604219227" flag="0"/>
		</comp>
		<comp name=".HNZ" depth="0.0">
			<acc value="0.052830939540198" flag="0"/>
			<vel value="0.062437644559" flag="0"/>
			<psa03 value="0.185946338865858" flag="0"/>
			<psa10 value="0.0860909881054952" flag="0"/>
			<psa30 value="0.0101712004587575" flag="0"/>
		</comp>
	</station>
	<station code="PLM1" name="PLM1" netid="HI" source="ITSAK Strong Motion Network" insttype="" lat="38.9751" lon="26.3688">
		<comp name=".HNE" depth="0.0">
			<acc value="0.077093428134984" flag="0"/>
			<vel value="0.050213859341" flag="0"/>
			<psa03 value="0.287492336623186" flag="0"/>
			<psa10 value="0.0471101633172538" flag="0"/>
			<psa30 value="0.00580946693200335" flag="0"/>
		</comp>
		<comp name=".HNN" depth="0.0">
			<acc value="0.04458736345044" flag="0"/>
			<vel value="0.0283197163502" flag="0"/>
			<psa03 value="0.135707792058374" flag="0"/>
			<psa10 value="0.0378867798132208" flag="0"/>
			<psa30 value="0.00394548345224789" flag="0"/>
		</comp>
		<comp name=".HNZ" depth="0.0">
			<acc value="0.02473434015792" flag="0"/>
			<vel value="0.0189452057704" flag="0"/>
			<psa03 value="0.0631640905610362" flag="0"/>
			<psa10 value="0.0326231748752379" flag="0"/>
			<psa30 value="0.00523043940760434" flag="0"/>
		</comp>
	</station>
	<station code="SGR1" name="SGR1" netid="HI" source="ITSAK Strong Motion Network" insttype="" lat="39.211392" lon="25.855221">
		<comp name=".HNE" depth="0.0">
			<acc value="0.039153196631064" flag="0"/>
			<vel value="0.02266628516" flag="0"/>
			<psa03 value="0.137985401272323" flag="0"/>
			<psa10 value="0.041944668628535" flag="0"/>
			<psa30 value="0.00303964052793426" flag="0"/>
		</comp>
		<comp name=".HNN" depth="0.0">
			<acc value="0.047010739105344" flag="0"/>
			<vel value="0.0343419438196" flag="0"/>
			<psa03 value="0.109070985834011" flag="0"/>
			<psa10 value="0.0476596834701228" flag="0"/>
			<psa30 value="0.00409285446485577" flag="0"/>
		</comp>
		<comp name=".HNZ" depth="0.0">
			<acc value="0.0374085993582" flag="0"/>
			<vel value="0.02212410438" flag="0"/>
			<psa03 value="0.110950787445123" flag="0"/>
			<psa10 value="0.0194800242060013" flag="0"/>
			<psa30 value="0.00281435122862284" flag="0"/>
		</comp>
	</station>
	<station code="EFSA" name="EFSA" netid="HL" source="National Observatory of Athens Seismic Network" insttype="" lat="39.54015" lon="24.98864">
		<comp name="00.HNE" depth="0.0">
			<acc value="0.01715288284773" flag="0"/>
			<vel value="0.0174406829699" flag="0"/>
			<psa03 value="0.0389249379611235" flag="0"/>
			<psa10 value="0.0372303250763098" flag="0"/>
			<psa30 value="0.00690864891407272" flag="0"/>
		</comp>
		<comp name="00.HNN" depth="0.0">
			<acc value="0.020337336274092" flag="0"/>
			<vel value="0.020117492673" flag="0"/>
			<psa03 value="0.054053893305126" flag="0"/>
			<psa10 value="0.0338384916340183" flag="0"/>
			<psa30 value="0.00426677640299464" flag="0"/>
		</comp>
		<comp name="00.HNZ" depth="0.0">
			<acc value="0.013416846439584" flag="0"/>
			<vel value="0.0107847822306" flag="0"/>
			<psa03 value="0.0315846313893223" flag="0"/>
			<psa10 value="0.0278772617317753" flag="0"/>
			<psa30 value="0.00169230314844531" flag="0"/>
		</comp>
	</station>
	<station code="KOMA" name="KOMA" netid="HL" source="National Observatory of Athens Seismic Network" insttype="" lat="41.11278" lon="25.39647">
		<comp name="00.HNE" depth="0.0">
			<acc value="0.27427266585084" flag="0"/>
			<vel value="0.173823728917" flag="0"/>
			<psa03 value="1.12847300580024" flag="0"/>
			<psa10 value="0.252336036023849" flag="0"/>
			<psa30 value="0.0240639624527414" flag="0"/>
		</comp>
		<comp name="00.HNN" depth="0.0">
			<acc value="0.26630764383762" flag="0"/>
			<vel value="0.200161991436" flag="0"/>
			<psa03 value="0.765048680722375" flag="0"/>
			<psa10 value="0.204731522458481" flag="0"/>
			<psa30 value="0.0156305421133497" flag="0"/>
		</comp>
		<comp name="00.HNZ" depth="0.0">
			<acc value="0.088149370850382" flag="0"/>
			<vel value="0.0490549858571" flag="0"/>
			<psa03 value="0.431971115966414" flag="0"/>
			<psa10 value="0.0765886686234625" flag="0"/>
			<psa30 value="0.011853486901983" flag="0"/>
		</comp>
	</station>
	<station code="LIA" name="LIA" netid="HL" source="National Observatory of Athens Seismic Network" insttype="" lat="39.89725" lon="25.18055">
		<comp name="00.HNE" depth="0.0">
			<acc value="0.027176157364476" flag="0"/>
			<vel value="0.0139913660413" flag="0"/>
			<psa03 value="0.0598757373069448" flag="0"/>
			<psa10 value="0.0220023137953125" flag="0"/>
			<psa30 value="0.00149411876970081" flag="0"/>
		</comp>
		<comp name="00.HNN" depth="0.0">
			<acc value="0.02172922949187" flag="0"/>
			<vel value="0.0140035653686" flag="0"/>
			<psa03 value="0.0450152320381252" flag="0"/>
			<psa10 value="0.0197800684574766" flag="0"/>
			<psa30 value="0.00180139391683747" flag="0"/>
		</comp>
		<comp name="00.HNZ" depth="0.0">
			<acc value="0.014702625126384" flag="0"/>
			<vel value="0.00924926759302" flag="0"/>
			<psa03 value="0.0316515863455739" flag="0"/>
			<psa10 value="0.0156089399531739" flag="0"/>
			<psa30 value="0.00131361202034844" flag="0"/>
		</comp>
	</station>
	<station code="PRK" name="PRK" netid="HL" source="National Observatory of Athens Seismic Network" insttype="" lat="39.24565" lon="26.26499">
		<comp name=".HNE" depth="0.0">
			<acc value="0.079482957205776" flag="0"/>
			<vel value="0.0539775988623" flag="0"/>
			<psa03 value="0.314653031719311" flag="0"/>
			<psa10 value="0.0797476078875619" flag="0"/>
			<psa30 value="0.0077701288995611" flag="0"/>
		</comp>
		<comp name=".HNN" depth="0.0">
			<acc value="0.095694155335878" flag="0"/>
			<vel value="0.0878684271043" flag="0"/>
			<psa03 value="0.244636455964417" flag="0"/>
			<psa10 value="0.0915029641224164" flag="0"/>
			<psa30 value="0.00882418955926215" flag="0"/>
		</comp>
		<comp name=".HNZ" depth="0.0">
			<acc value="0.079967309798028" flag="0"/>
			<vel value="0.0830915301878" flag="0"/>
			<psa03 value="0.167397433008334" flag="0"/>
			<psa10 value="0.0517993802047189" flag="0"/>
			<psa30 value="0.00636080303864674" flag="0"/>
		</comp>
	</station>
	<station code="LES3" name="LES3" netid="HT" source="Aristotle University of Thessaloniki Seismological Network" insttype="" lat="39.303248" lon="26.180664">
		<comp name=".HNE" depth="0.0">
			<acc value="0.089782400869536" flag="0"/>
			<vel value="0.0606867771958" flag="0"/>
			<psa03 value="0.233534408008613" flag="0"/>
			<psa10 value="0.0686255636068364" flag="0"/>
			<psa30 value="0.0104777324316991" flag="0"/>
		</comp>
		<comp name=".HNN" depth="0.0">
			<acc value="0.16682938137366" flag="0"/>
			<vel value="0.0718870769387" flag="0"/>
			<psa03 value="0.277350123084366" flag="0"/>
			<psa10 value="0.0636040709574651" flag="0"/>
			<psa30 value="0.0113691656514284" flag="0"/>
		</comp>
		<comp name=".HNZ" depth="0.0">
			<acc value="12.871558805082" flag="0"/>
			<vel value="1.05705593786" flag="0"/>
			<psa03 value="3.81713586651829" flag="0"/>
			<psa10 value="1.11723465131375" flag="0"/>
			<psa30 value="0.342290995098497" flag="0"/>
		</comp>
	</station>
	<station code="AKS" name="AKS" netid="KO" source="Bogazici University Kandilli Observatory And Earthquake Research Institute (KOERI)" insttype="" lat="38.8785" lon="27.8129">
		<comp name=".HNE" depth="0.0">
			<acc value="0.03734176663107" flag="0"/>
			<vel value="0.0398944578059" flag="0"/>
			<psa03 value="0.118036631847504" flag="0"/>
			<psa10 value="0.0620839940098321" flag="0"/>
			<psa30 value="0.0118004208866545" flag="0"/>
		</comp>
		<comp name=".HNN" depth="0.0">
			<acc value="0.1146117088029" flag="0"/>
			<vel value="0.0900195723594" flag="0"/>
			<psa03 value="0.290819557034856" flag="0"/>
			<psa10 value="0.109583189348638" flag="0"/>
			<psa30 value="0.00673933936482497" flag="0"/>
		</comp>
		<comp name=".HNZ" depth="0.0">
			<acc value="0.038936314825848" flag="0"/>
			<vel value="0.0344704292734" flag="0"/>
			<psa03 value="0.0773133039187414" flag="0"/>
			<psa10 value="0.0475346314362428" flag="0"/>
			<psa30 value="0.00500624913944037" flag="0"/>
		</comp>
	</station>
	<station code="ALT" name="ALT" netid="KO" source="Bogazici University Kandilli Observatory And Earthquake Research Institute (KOERI)" insttype="" lat="39.0541" lon="30.1104">
		<comp name=".HNE" depth="0.0">
			<acc value="0.011325525759948" flag="0"/>
			<vel value="0.008042316366" flag="0"/>
			<psa03 value="0.0245611999756268" flag="0"/>
			<psa10 value="0.0121869657641744" flag="0"/>
			<psa30 value="0.00235504996883514" flag="0"/>
		</comp>
		<comp name=".HNN" depth="0.0">
			<acc value="0.011464717976598" flag="0"/>
			<vel value="0.00946919318703" flag="0"/>
			<psa03 value="0.0183653767723342" flag="0"/>
			<psa10 value="0.011868328718535" flag="0"/>
			<psa30 value="0.00203276236886246" flag="0"/>
		</comp>
		<comp name=".HNZ" depth="0.0">
			<acc value="0.0078306199547706" flag="0"/>
			<vel value="0.00761296480693" flag="0"/>
			<psa03 value="0.0162340871473477" flag="0"/>
			<psa10 value="0.0145619962232754" flag="0"/>
			<psa30 value="0.00147359282662582" flag="0"/>
		</comp>
	</station>
	<station code="ARMT" name="ARMT" netid="KO" source="Bogazici University Kandilli Observatory And Earthquake Research Institute (KOERI)" insttype="" lat="40.5683" lon="28.866">
		<comp name=".HNE" depth="0.0">
			<acc value="0.43243797489432" flag="0"/>
			<vel value="0.116386975434" flag="0"/>
			<psa03 value="0.585226643393417" flag="0"/>
			<psa10 value="0.0625785242699372" flag="0"/>
			<psa30 value="0.0102924493242705" flag="0"/>
		</comp>
		<comp name=".HNN" depth="0.0">
			<acc value="0.30965659490736" flag="0"/>
			<vel value="0.113086698729" flag="0"/>
			<psa03 value="0.666512069821709" flag="0"/>
			<psa10 value="0.0977011872242948" flag="0"/>
			<psa30 value="0.0164706210977978" flag="0"/>
		</comp>
		<comp name=".HNZ" depth="0.0">
			<acc value="0.18498723342846" flag="0"/>
			<vel value="0.0585863949557" flag="0"/>
			<psa03 value="0.18413530222681" flag="0"/>
			<psa10 value="0.045642826113101" flag="0"/>
			<psa30 value="0.00937285257216676" flag="0"/>
		</comp>
	</station>
	<station code="ARMU" name="ARMU" netid="KO" source="Bogazici University Kandilli Observatory And Earthquake Research Institute (KOERI)" insttype="" lat="40.5088" lon="28.838">
		<comp name=".HNE" depth="0.0">
			<acc value="0.72781875261972" flag="0"/>
			<vel value="0.275742852367" flag="0"/>
			<psa03 value="1.93897894783891" flag="0"/>
			<psa10 value="0.0704745110903843" flag="0"/>
			<psa30 value="0.013522096605878" flag="0"/>
		</comp>
		<comp name=".HNN" depth="0.0">
			<acc value="0.92233106082936" flag="0"/>
			<vel value="0.26765408029" flag="0"/>
			<psa03 value="1.47637030228613" flag="0"/>
			<psa10 value="0.0959203217503644" flag="0"/>
			<psa30 value="0.0158046686483825" flag="0"/>
		</comp>
		<comp name=".HNZ" depth="0.0">
			<acc value="0.23211513181236" flag="0"/>
			<vel value="0.0506781738351" flag="0"/>
			<psa03 value="0.264071555944396" flag="0"/>
			<psa10 value="0.0470251564359603" flag="0"/>
			<psa30 value="0.00738865529548203" flag="0"/>
		</comp>
	</station>
	<station code="ATAM" name="ATAM" netid="KO" source="Bogazici University Kandilli Observatory And Earthquake Research Institute (KOERI)" insttype="" lat="40.9688" lon="28.875">
		<comp name=".HNE" depth="0.0">
			<acc value="0.77865304739772" flag="0"/>
			<vel value="0.425800338709" flag="0"/>
			<psa03 value="2.6190099965567" flag="0"/>
			<psa10 value="0.329533940006199" flag="0"/>
			<psa30 value="0.0620152682073328" flag="0"/>
		</comp>
		<comp name=".HNN" depth="0.0">
			<acc value="0.6244147137039" flag="0"/>
			<vel value="0.338870427767" flag="0"/>
			<psa03 value="2.24652182104704" flag="0"/>
			<psa10 value="0.254226461255194" flag="0"/>
			<psa30 value="0.0513207430809154" flag="0"/>
		</comp>
		<comp name=".HNZ" depth="0.0">
			<acc value="0.70952455977816" flag="0"/>
			<vel value="0.245470628745" flag="0"/>
			<psa03 value="0.980166014520402" flag="0"/>
			<psa10 value="0.135991088742308" flag="0"/>
			<psa30 value="0.0235257651331447" flag="0"/>
		</comp>
	</station>
	<station code="BIGA" name="BIGA" netid="KO" source="Bogazici University Kandilli Observatory And Earthquake Research Institute (KOERI)" insttype="" lat="40.28134" lon="27.15048">
		<comp name=".HNE" depth="0.0">
			<acc value="0.91807687313946" flag="0"/>
			<vel value="0.390164043689" flag="0"/>
			<psa03 value="2.3433415682103" flag="0"/>
			<psa10 value="0.170618662648994" flag="0"/>
			<psa30 value="0.0134446573092432" flag="0"/>
		</comp>
		<comp name=".HNN" depth="0.0">
			<acc value="0.96919747835052" flag="0"/>
			<vel value="0.347994897016" flag="0"/>
			<psa03 value="2.75702630613059" flag="0"/>
			<psa10 value="0.159363357040224" flag="0"/>
			<psa30 value="0.0138673886464188" flag="0"/>
		</comp>
		<comp name=".HNZ" depth="0.0">
			<acc value="0.30184822466856" flag="0"/>
			<vel value="0.120040428911" flag="0"/>
			<psa03 value="0.54441673160232" flag="0"/>
			<psa10 value="0.0937336343933069" flag="0"/>
			<psa30 value="0.0119145551141189" flag="0"/>
		</comp>
	</station>
	<station code="BMYO" name="BMYO" netid="KO" source="Bogazici University Kandilli Observatory And Earthquake Research Institute (KOERI)" insttype="" lat="39.8098" lon="26.6009">
		<comp name=".HNE" depth="0.0">
			<acc value="0.1513974338952" flag="0"/>
			<vel value="0.159182665161" flag="0"/>
			<psa03 value="0.424423032609647" flag="0"/>
			<psa10 value="0.165192353182875" flag="0"/>
			<psa30 value="0.0112629811172236" flag="0"/>
		</comp>
		<comp name=".HNN" depth="0.0">
			<acc value="0.23390735337258" flag="0"/>
			<vel value="0.164323161491" flag="0"/>
			<psa03 value="0.570074097943433" flag="0"/>
			<psa10 value="0.248163134589909" flag="0"/>
			<psa30 value="0.0181864680975969" flag="0"/>
		</comp>
		<comp name=".HNZ" depth="0.0">
			<acc value="0.073070955257376" flag="0"/>
			<vel value="0.0511425365326" flag="0"/>
			<psa03 value="0.208864294567753" flag="0"/>
			<psa10 value="0.0739723753067663" flag="0"/>
			<psa30 value="0.0144187218362282" flag="0"/>
		</comp>
	</station>
	<station code="BOTS" name="BOTS" netid="KO" source="Bogazici University Kandilli Observatory And Earthquake Research Institute (KOERI)" insttype="" lat="40.9902" lon="27.981">
		<comp name=".HNE" depth="0.0">
			<acc value="1.8892734661884" flag="0"/>
			<vel value="0.992308652305" flag="0"/>
			<psa03 value="5.00851712301241" flag="0"/>
			<psa10 value="0.385313845151302" flag="0"/>
			<psa30 value="0.0411041696161526" flag="0"/>
		</comp>
		<comp name=".HNN" depth="0.0">
			<acc value="1.7504249196174" flag="0"/>
			<vel value="1.33953810586" flag="0"/>
			<psa03 value="3.34507092786551" flag="0"/>
			<psa10 value="0.992297854862054" flag="0"/>
			<psa30 value="0.0811134200327861" flag="0"/>
		</comp>
		<comp name=".HNZ" depth="0.0">
			<acc value="0.42996284335842" flag="0"/>
			<vel value="0.155556361206" flag="0"/>
			<psa03 value="0.513982507150517" flag="0"/>
			<psa10 value="0.194137565660872" flag="0"/>
			<psa30 value="0.0174082748794475" flag="0"/>
		</comp>
	</station>
	<station code="BRGA" name="BRGA" netid="KO" source="Bogazici University Kandilli Observatory And Earthquake Research Institute (KOERI)" insttype="" lat="40.8846" lon="29.065">
		<comp name=".HNE" depth="0.0">
			<acc value="0.25516727779986" flag="0"/>
