<?xml version="1.0" encoding="UTF-8" standalone="yes"?>
<!DOCTYPE earthquake SYSTEM "stationlist.dtd">
<stationlist created="" xmlns="ch.ethz.sed.shakemap.usgs.xml">
  <station code="BOTS" name="BOTS" netid="KO" insttype="CMG-5T" commtype="DIG" lat="40.9902" lon="27.981">
    <comp name="--.HNN">
      <acc value="1.7644896158" flag="0"/>
      <vel value="1.3399123826" flag="0"/>
      <psa03 value="3.3453665471" flag="0"/>
      <psa10 value="0.9928544295" flag="0"/>
      <psa30 value="0.0817665387" flag="0"/>
    </comp>
    <comp name="--.HNE">
      <acc value="1.9067164081" flag="0"/>
      <vel value="0.9940852925" flag="0"/>
      <psa03 value="4.9893213436" flag="0"/>
      <psa10 value="0.3848321535" flag="0"/>
      <psa30 value="0.0409541147" flag="0"/>
    </comp>
    <comp name="--.HNZ">
      <acc value="0.4391863904" flag="0"/>
      <vel value="0.1556258263" flag="0"/>
      <psa03 value="0.5150220507" flag="0"/>
      <psa10 value="0.1941032442" flag="0"/>
      <psa30 value="0.0173748061" flag="0"/>
    </comp>
  </station>
  <station code="EDC" name="EDC" netid="KO" insttype="CMG-5T" commtype="DIG" lat="40.3465" lon="27.8618">
    <comp name="--.HNE">
      <acc value="0.8585772666" flag="0"/>
      <vel value="0.4244316777" flag="0"/>
      <psa03 value="3.2049056658" flag="0"/>
      <psa10 value="0.2951856050" flag="0"/>
      <psa30 value="0.0211711520" flag="0"/>
    </comp>
    <comp name="--.HNN">
      <acc value="1.0075383526" flag="0"/>
      <vel value="0.4664226032" flag="0"/>
      <psa03 value="3.5081371984" flag="0"/>
      <psa10 value="0.2442596690" flag="0"/>
      <psa30 value="0.0187311225" flag="0"/>
    </comp>
    <comp name="--.HNZ">
      <acc value="0.2536105821" flag="0"/>
      <vel value="0.1196895202" flag="0"/>
      <psa03 value="0.5944822057" flag="0"/>
      <psa10 value="0.1407043031" flag="0"/>
      <psa30 value="0.0123562720" flag="0"/>
    </comp>
  </station>
  <station code="KCTX" name="KCTX" netid="KO" insttype="CMG-3ESP" commtype="DIG" lat="40.2626" lon="28.3353">
    <comp name="--.HHE">
      <acc value="0.2942911869" flag="0"/>
      <vel value="0.1709603596" flag="0"/>
      <psa03 value="0.4804987053" flag="0"/>
      <psa10 value="0.1527780877" flag="0"/>
      <psa30 value="0.0182262373" flag="0"/>
    </comp>
    <comp name="--.HHN">
      <acc value="0.1586850212" flag="0"/>
      <vel value="0.0807326610" flag="0"/>
      <psa03 value="0.3571873273" flag="0"/>
      <psa10 value="0.0995795486" flag="0"/>
      <psa30 value="0.0079276916" flag="0"/>
    </comp>
    <comp name="--.HHZ">
      <acc value="0.1892154154" flag="0"/>
      <vel value="0.0705189148" flag="0"/>
      <psa03 value="0.1978958843" flag="0"/>
      <psa10 value="0.0655092093" flag="0"/>
      <psa30 value="0.0078505490" flag="0"/>
    </comp>
  </station>
  <station code="MAEG" name="MAEG" netid="KO" insttype="CMG-5T" commtype="DIG" lat="40.9653" lon="27.9448">
    <comp name="--.HNN">
      <acc value="1.1120336775" flag="0"/>
      <vel value="0.6920012662" flag="0"/>
      <psa03 value="1.7943982334" flag="0"/>
      <psa10 value="0.5934487587" flag="0"/>
      <psa30 value="0.0485297651" flag="0"/>
    </comp>
    <comp name="--.HNE">
      <acc value="0.1793676341" flag="0"/>
      <vel value="0.0361836129" flag="0"/>
      <psa03 value="0.3937013792" flag="0"/>
      <psa10 value="0.0472768288" flag="0"/>
      <psa30 value="0.0052379335" flag="0"/>
    </comp>
    <comp name="--.HNZ">
      <acc value="0.3578560319" flag="0"/>
      <vel value="0.1468690938" flag="0"/>
      <psa03 value="1.0459899320" flag="0"/>
      <psa10 value="0.1770312134" flag="0"/>
      <psa30 value="0.0126609212" flag="0"/>
    </comp>
  </station>
  <station code="SILT" name="SILT" netid="KO" insttype="CMG-3ESP" commtype="DIG" lat="41.153" lon="29.643">
    <comp name="--.HHZ">
      <acc value="0.1841343663" flag="0"/>
      <vel value="0.0855552864" flag="0"/>
      <psa03 value="0.4468225353" flag="0"/>
      <psa10 value="0.0908836642" flag="0"/>
      <psa30 value="0.0057914525" flag="0"/>
    </comp>
    <comp name="--.HHN">
      <acc value="0.1955407447" flag="0"/>
      <vel value="0.1276955935" flag="0"/>
      <psa03 value="0.4142923841" flag="0"/>
      <psa10 value="0.1064208217" flag="0"/>
      <psa30 value="0.0130677083" flag="0"/>
    </comp>
    <comp name="--.HHE">
      <acc value="0.1312661319" flag="0"/>
      <vel value="0.0892657153" flag="0"/>
      <psa03 value="0.3162135436" flag="0"/>
      <psa10 value="0.0348470103" flag="0"/>
      <psa30 value="0.0076326986" flag="0"/>
    </comp>
  </station>
</stationlist>
