<?xml version="1.0" encoding="UTF-8" standalone="yes"?>
<!DOCTYPE earthquake SYSTEM "stationlist.dtd">
<stationlist created="" xmlns="ch.ethz.sed.shakemap.usgs.xml">
  <station code="ADVT" name="ADVT" netid="KO" insttype="120s," lat="40.4332" lon="29.7383">
    <comp name="--.HHN">
      <acc value="0.0273137833" flag="0"/>
      <vel value="0.0151320062" flag="0"/>
      <psa03 value="0.0783280208" flag="0"/>
      <psa10 value="0.0065681597" flag="0"/>
      <psa30 value="0.0004105563" flag="0"/>
    </comp>
    <comp name="--.HHZ">
      <acc value="0.0119336617" flag="0"/>
      <vel value="0.0070104298" flag="0"/>
      <psa03 value="0.0442261548" flag="0"/>
      <psa10 value="0.0029933288" flag="0"/>
      <psa30 value="0.0002019524" flag="0"/>
    </comp>
    <comp name="--.HHE">
      <acc value="0.0171380078" flag="0"/>
      <vel value="0.0084094816" flag="0"/>
      <psa03 value="0.0559826455" flag="0"/>
      <psa10 value="0.0067964101" flag="0"/>
      <psa30 value="0.0003616407" flag="0"/>
    </comp>
  </station>
  <station code="CAVI" name="CAVI" netid="KO" insttype="120s," lat="40.2018" lon="29.8377">
    <comp name="--.HHE">
      <acc value="0.0092210881" flag="0"/>
      <vel value="0.0059285380" flag="0"/>
      <psa03 value="0.0316591962" flag="0"/>
      <psa10 value="0.0057985321" flag="0"/>
      <psa30 value="0.0004096387" flag="0"/>
    </comp>
    <comp name="--.HHZ">
      <acc value="0.0000172287" flag="0"/>
      <vel value="0.0000086277" flag="0"/>
      <psa03 value="0.0000377436" flag="0"/>
      <psa10 value="0.0000088393" flag="0"/>
      <psa30 value="0.0000006900" flag="0"/>
    </comp>
    <comp name="--.HHN">
      <acc value="0.0097894477" flag="0"/>
      <vel value="0.0061666455" flag="0"/>
      <psa03 value="0.0349616561" flag="0"/>
      <psa10 value="0.0027833262" flag="0"/>
      <psa30 value="0.0002525915" flag="0"/>
    </comp>
  </station>
  <station code="GPA" name="GPA" netid="KO" insttype="CMG-5T" lat="40.2911" lon="30.3171">
    <comp name="--.HNE">
      <acc value="0.0298301833" flag="0"/>
      <vel value="0.0103288456" flag="0"/>
      <psa03 value="0.0630346013" flag="0"/>
      <psa10 value="0.0034605164" flag="0"/>
      <psa30 value="0.0005860479" flag="0"/>
    </comp>
    <comp name="--.HNZ">
      <acc value="0.0137767678" flag="0"/>
      <vel value="0.0040291987" flag="0"/>
      <psa03 value="0.0188794676" flag="0"/>
      <psa10 value="0.0029629674" flag="0"/>
      <psa30 value="0.0002867168" flag="0"/>
    </comp>
    <comp name="--.HNN">
      <acc value="0.0367846470" flag="0"/>
      <vel value="0.0103943254" flag="0"/>
      <psa03 value="0.0915078086" flag="0"/>
      <psa10 value="0.0030306854" flag="0"/>
      <psa30 value="0.0003943297" flag="0"/>
    </comp>
  </station>
  <station code="GULT" name="GULT" netid="KO" insttype="30s," lat="40.432" lon="30.5156">
    <comp name="--.HHN">
      <acc value="0.1741973750" flag="0"/>
      <vel value="0.0522606771" flag="0"/>
      <psa03 value="0.2483299045" flag="0"/>
      <psa10 value="0.0270017389" flag="0"/>
      <psa30 value="0.0013980014" flag="0"/>
    </comp>
    <comp name="--.HHZ">
      <acc value="0.3291047558" flag="0"/>
      <vel value="0.0775746719" flag="0"/>
      <psa03 value="0.1492299935" flag="0"/>
      <psa10 value="0.0117849217" flag="0"/>
      <psa30 value="0.0008809326" flag="0"/>
    </comp>
  </station>
  <station code="HRTX" name="HRTX" netid="KO" insttype="-3ESP," lat="40.801" lon="29.673">
    <comp name="--.HHE">
      <acc value="0.0016094569" flag="0"/>
      <vel value="0.0006120147" flag="0"/>
      <psa03 value="0.0027462521" flag="0"/>
      <psa10 value="0.0002388318" flag="0"/>
      <psa30 value="0.0000194247" flag="0"/>
    </comp>
    <comp name="--.HHN">
      <acc value="0.0010431070" flag="0"/>
      <vel value="0.0004195869" flag="0"/>
      <psa03 value="0.0028122188" flag="0"/>
      <psa10 value="0.0001475411" flag="0"/>
      <psa30 value="0.0000143573" flag="0"/>
    </comp>
    <comp name="--.HHZ">
      <acc value="0.0005367796" flag="0"/>
      <vel value="0.0001734360" flag="0"/>
      <psa03 value="0.0009656913" flag="0"/>
      <psa10 value="0.0001188414" flag="0"/>
      <psa30 value="0.0000097100" flag="0"/>
    </comp>
  </station>
  <station code="RUZG" name="RUZG" netid="KO" insttype="CMG-6T" lat="40.7242" lon="31.7936">
    <comp name="--.HHZ">
      <acc value="0.0147326593" flag="0"/>
      <vel value="0.0051657920" flag="0"/>
      <psa03 value="0.0263830239" flag="0"/>
      <psa10 value="0.0020234886" flag="0"/>
      <psa30 value="0.0004657352" flag="0"/>
    </comp>
    <comp name="--.HHN">
      <acc value="0.0304777122" flag="0"/>
      <vel value="0.0104966444" flag="0"/>
      <psa03 value="0.0448351698" flag="0"/>
      <psa10 value="0.0043380018" flag="0"/>
      <psa30 value="0.0003539467" flag="0"/>
    </comp>
    <comp name="--.HHE">
      <acc value="0.0210634454" flag="0"/>
      <vel value="0.0083194570" flag="0"/>
      <psa03 value="0.0444212809" flag="0"/>
      <psa10 value="0.0079721145" flag="0"/>
      <psa30 value="0.0005063159" flag="0"/>
    </comp>
  </station>
  <station code="SAUV" name="SAUV" netid="KO" insttype="30s," lat="40.7402" lon="30.3272">
    <comp name="--.HHE">
      <acc value="0.2986770119" flag="0"/>
      <vel value="0.0634319331" flag="0"/>
      <psa03 value="0.3650131973" flag="0"/>
      <psa10 value="0.0202806027" flag="0"/>
      <psa30 value="0.0015915304" flag="0"/>
    </comp>
    <comp name="--.HHZ">
      <acc value="0.1817910592" flag="0"/>
      <vel value="0.0182545343" flag="0"/>
      <psa03 value="0.0671027141" flag="0"/>
      <psa10 value="0.0082767239" flag="0"/>
      <psa30 value="0.0006096296" flag="0"/>
    </comp>
    <comp name="--.HHN">
      <acc value="0.1834925250" flag="0"/>
      <vel value="0.0403583740" flag="0"/>
      <psa03 value="0.1084673987" flag="0"/>
      <psa10 value="0.0084039568" flag="0"/>
      <psa30 value="0.0008153027" flag="0"/>
    </comp>
  </station>
  <station code="SILT" name="SILT" netid="KO" insttype="CMG-3ESP" lat="41.153" lon="29.643">
    <comp name="--.HHE">
      <acc value="0.0215928773" flag="0"/>
      <vel value="0.0109451899" flag="0"/>
      <psa03 value="0.0694296671" flag="0"/>
      <psa10 value="0.0053040177" flag="0"/>
      <psa30 value="0.0003549708" flag="0"/>
    </comp>
    <comp name="--.HHN">
      <acc value="0.0174947857" flag="0"/>
      <vel value="0.0058919177" flag="0"/>
      <psa03 value="0.0389409792" flag="0"/>
      <psa10 value="0.0041970054" flag="0"/>
      <psa30 value="0.0002756494" flag="0"/>
    </comp>
    <comp name="--.HHZ">
      <acc value="0.0147417136" flag="0"/>
      <vel value="0.0048681502" flag="0"/>
      <psa03 value="0.0400013667" flag="0"/>
      <psa10 value="0.0033403805" flag="0"/>
      <psa30 value="0.0003235873" flag="0"/>
    </comp>
  </station>
  <station code="YUVA" name="YUVA" netid="KO" insttype="CMG-5T" lat="40.391" lon="31.6872">
    <comp name="--.HNE">
      <acc value="0.0168417550" flag="0"/>
      <vel value="0.0064111599" flag="0"/>
      <psa03 value="0.0364943737" flag="0"/>
      <psa10 value="0.0066341157" flag="0"/>
      <psa30 value="0.0007914747" flag="0"/>
    </comp>
    <comp name="--.HNZ">
      <acc value="0.0168371849" flag="0"/>
      <vel value="0.0061151704" flag="0"/>
      <psa03 value="0.0390188695" flag="0"/>
      <psa10 value="0.0037145608" flag="0"/>
      <psa30 value="0.0003322834" flag="0"/>
    </comp>
    <comp name="--.HNN">
      <acc value="0.0222279352" flag="0"/>
      <vel value="0.0079793055" flag="0"/>
      <psa03 value="0.0262756786" flag="0"/>
      <psa10 value="0.0057574828" flag="0"/>
      <psa30 value="0.0005174373" flag="0"/>
    </comp>
  </station>
  <station code="BORA" name="BORA" netid="TU" insttype="T" lat="39.8801" lon="30.4534">
    <comp name="--.HHN">
      <acc value="0.0122754384" flag="0"/>
      <vel value="0.0038706516" flag="0"/>
      <psa03 value="0.0195043060" flag="0"/>
      <psa10 value="0.0015502930" flag="0"/>
      <psa30 value="0.0001457196" flag="0"/>
    </comp>
    <comp name="--.HHE">
      <acc value="0.0190652465" flag="0"/>
      <vel value="0.0064461944" flag="0"/>
      <psa03 value="0.0337778232" flag="0"/>
      <psa10 value="0.0028262296" flag="0"/>
      <psa30 value="0.0002370321" flag="0"/>
    </comp>
    <comp name="--.HHZ">
      <acc value="0.0094365152" flag="0"/>
      <vel value="0.0025644481" flag="0"/>
      <psa03 value="0.0131488289" flag="0"/>
      <psa10 value="0.0012179603" flag="0"/>
      <psa30 value="0.0000939827" flag="0"/>
    </comp>
  </station>
</stationlist>
