<?xml version="1.0" encoding="UTF-8" standalone="yes"?>
<!DOCTYPE earthquake SYSTEM "stationlist.dtd">
<stationlist created="" xmlns="ch.ethz.sed.shakemap.usgs.xml">
  <station code="AGRP" name="AGRP" netid="CL" source="RESIF" insttype="30" lat="38.3959" lon="21.7228">
    <comp name="00.HHE">
      <acc value="0.0062697925" flag="0"/>
      <vel value="0.0033028282" flag="0"/>
      <psa03 value="0.0203547492" flag="0"/>
      <psa10 value="0.0027521427" flag="0"/>
      <psa30 value="0.0007301468" flag="0"/>
    </comp>
    <comp name="00.HHN">
      <acc value="0.0052281597" flag="0"/>
      <vel value="0.0029732583" flag="0"/>
      <psa03 value="0.0174809741" flag="0"/>
      <psa10 value="0.0051763901" flag="0"/>
      <psa30 value="0.0005650814" flag="0"/>
    </comp>
    <comp name="00.HHZ">
      <acc value="0.0043440155" flag="0"/>
      <vel value="0.0021443213" flag="0"/>
      <psa03 value="0.0116040454" flag="0"/>
      <psa10 value="0.0021751842" flag="0"/>
      <psa30 value="0.0004272297" flag="0"/>
    </comp>
  </station>
  <station code="ROD3" name="ROD3" netid="CL" source="RESIF" insttype="30" lat="38.3081" lon="21.892">
    <comp name="00.HHE">
      <acc value="0.0255480791" flag="0"/>
      <vel value="0.0108471017" flag="0"/>
      <psa03 value="0.1250488830" flag="0"/>
      <psa10 value="0.0083526392" flag="0"/>
      <psa30 value="0.0011113021" flag="0"/>
    </comp>
    <comp name="00.HHN">
      <acc value="0.0237048930" flag="0"/>
      <vel value="0.0113530610" flag="0"/>
      <psa03 value="0.0762894478" flag="0"/>
      <psa10 value="0.0070339772" flag="0"/>
      <psa30 value="0.0011813973" flag="0"/>
    </comp>
    <comp name="00.HHZ">
      <acc value="0.0109324812" flag="0"/>
      <vel value="0.0041669380" flag="0"/>
      <psa03 value="0.0288161454" flag="0"/>
      <psa10 value="0.0070803461" flag="0"/>
      <psa30 value="0.0005292193" flag="0"/>
    </comp>
  </station>
  <station code="ITM" name="ITM" netid="HL" source="NOA" insttype="DR24" lat="37.1787" lon="21.9252">
    <comp name="--.HHE">
      <acc value="0.0092853204" flag="0"/>
      <vel value="0.0029115109" flag="0"/>
      <psa03 value="0.0152980620" flag="0"/>
      <psa10 value="0.0021174147" flag="0"/>
      <psa30 value="0.0006335473" flag="0"/>
    </comp>
    <comp name="--.HHN">
      <acc value="0.0093632425" flag="0"/>
      <vel value="0.0029237566" flag="0"/>
      <psa03 value="0.0161550598" flag="0"/>
      <psa10 value="0.0029406384" flag="0"/>
      <psa30 value="0.0007238380" flag="0"/>
    </comp>
    <comp name="--.HHZ">
      <acc value="0.0045240173" flag="0"/>
      <vel value="0.0020081300" flag="0"/>
      <psa03 value="0.0077629416" flag="0"/>
      <psa10 value="0.0029202115" flag="0"/>
      <psa30 value="0.0003243496" flag="0"/>
    </comp>
  </station>
  <station code="PATC" name="PATC" netid="HL" source="NOA" insttype="CMG-5" lat="38.2693" lon="21.76">
    <comp name="00.HNE">
      <acc value="0.0140498084" flag="0"/>
      <vel value="0.0105001144" flag="0"/>
      <psa03 value="0.0383403554" flag="0"/>
      <psa10 value="0.0167273343" flag="0"/>
      <psa30 value="0.0018911486" flag="0"/>
    </comp>
    <comp name="00.HNN">
      <acc value="0.0126615126" flag="0"/>
      <vel value="0.0092305259" flag="0"/>
      <psa03 value="0.0487479378" flag="0"/>
      <psa10 value="0.0149680848" flag="0"/>
      <psa30 value="0.0019060303" flag="0"/>
    </comp>
    <comp name="00.HNZ">
      <acc value="0.0097768008" flag="0"/>
      <vel value="0.0050150696" flag="0"/>
      <psa03 value="0.0242817871" flag="0"/>
      <psa10 value="0.0089311809" flag="0"/>
      <psa30 value="0.0006907433" flag="0"/>
    </comp>
  </station>
  <station code="RLS" name="RLS" netid="HL" source="NOA" insttype="120" lat="38.0559" lon="21.4647">
    <comp name="--.HHE">
      <acc value="0.0185626805" flag="0"/>
      <vel value="0.0077125748" flag="0"/>
      <psa03 value="0.0415401704" flag="0"/>
      <psa10 value="0.0041077763" flag="0"/>
      <psa30 value="0.0005181114" flag="0"/>
    </comp>
    <comp name="--.HHN">
      <acc value="0.0250401160" flag="0"/>
      <vel value="0.0103660335" flag="0"/>
      <psa03 value="0.0890691366" flag="0"/>
      <psa10 value="0.0048733492" flag="0"/>
      <psa30 value="0.0004548477" flag="0"/>
    </comp>
    <comp name="--.HHZ">
      <acc value="0.0092690406" flag="0"/>
      <vel value="0.0049939372" flag="0"/>
      <psa03 value="0.0403089556" flag="0"/>
      <psa10 value="0.0034759106" flag="0"/>
      <psa30 value="0.0005472517" flag="0"/>
    </comp>
  </station>
  <station code="VLS" name="VLS" netid="HL" source="NOA" insttype="120P," lat="38.1768" lon="20.5886">
    <comp name="--.HHE">
      <acc value="0.3020059376" flag="0"/>
      <vel value="0.0325191934" flag="0"/>
      <psa03 value="0.0473864092" flag="0"/>
      <psa10 value="0.0056941624" flag="0"/>
      <psa30 value="0.0005103948" flag="0"/>
    </comp>
    <comp name="--.HHN">
      <acc value="0.1518395812" flag="0"/>
      <vel value="0.0162339864" flag="0"/>
      <psa03 value="0.0827245116" flag="0"/>
      <psa10 value="0.0076700308" flag="0"/>
      <psa30 value="0.0006383783" flag="0"/>
    </comp>
    <comp name="--.HHZ">
      <acc value="0.0519628914" flag="0"/>
      <vel value="0.0074526116" flag="0"/>
      <psa03 value="0.0276949471" flag="0"/>
      <psa10 value="0.0047274878" flag="0"/>
      <psa30 value="0.0005000884" flag="0"/>
    </comp>
  </station>
  <station code="AMT" name="AMT" netid="HP" source="NOA" insttype="CMG-3T," lat="37.5324" lon="21.7089">
    <comp name="00.HHE">
      <acc value="0.0220174666" flag="0"/>
      <vel value="0.0114160167" flag="0"/>
      <psa03 value="0.0582555044" flag="0"/>
      <psa10 value="0.0141676696" flag="0"/>
      <psa30 value="0.0006844826" flag="0"/>
    </comp>
    <comp name="00.HHN">
      <acc value="0.0193188388" flag="0"/>
      <vel value="0.0076686294" flag="0"/>
      <psa03 value="0.0425180615" flag="0"/>
      <psa10 value="0.0098896359" flag="0"/>
      <psa30 value="0.0005631275" flag="0"/>
    </comp>
    <comp name="00.HHZ">
      <acc value="0.0141160725" flag="0"/>
      <vel value="0.0056177787" flag="0"/>
      <psa03 value="0.0316422405" flag="0"/>
      <psa10 value="0.0048728807" flag="0"/>
      <psa30 value="0.0005534006" flag="0"/>
    </comp>
  </station>
  <station code="DRO" name="DRO" netid="HP" source="NOA" insttype="120P," lat="37.952" lon="21.71">
    <comp name="--.HHE">
      <acc value="0.0254250057" flag="0"/>
      <vel value="0.0148009499" flag="0"/>
      <psa03 value="0.0639771233" flag="0"/>
      <psa10 value="0.0100590033" flag="0"/>
      <psa30 value="0.0007747699" flag="0"/>
    </comp>
    <comp name="--.HHN">
      <acc value="0.0204938082" flag="0"/>
      <vel value="0.0102408382" flag="0"/>
      <psa03 value="0.0565306600" flag="0"/>
      <psa10 value="0.0069881544" flag="0"/>
      <psa30 value="0.0008781296" flag="0"/>
    </comp>
    <comp name="--.HHZ">
      <acc value="0.0123303954" flag="0"/>
      <vel value="0.0062790655" flag="0"/>
      <psa03 value="0.0306046677" flag="0"/>
      <psa10 value="0.0040838158" flag="0"/>
      <psa30 value="0.0007044645" flag="0"/>
    </comp>
  </station>
  <station code="FSK" name="FSK" netid="HP" source="NOA" insttype="40," lat="38.4593" lon="20.5623">
    <comp name="--.HHE">
      <acc value="0.0316366945" flag="0"/>
      <vel value="0.0219219085" flag="0"/>
      <psa03 value="0.0379991484" flag="0"/>
      <psa10 value="0.0136857506" flag="0"/>
      <psa30 value="0.0021140720" flag="0"/>
    </comp>
    <comp name="--.HHN">
      <acc value="0.0192945745" flag="0"/>
      <vel value="0.0124743263" flag="0"/>
      <psa03 value="0.0316843853" flag="0"/>
      <psa10 value="0.0182557278" flag="0"/>
      <psa30 value="0.0015768025" flag="0"/>
    </comp>
    <comp name="--.HHZ">
      <acc value="0.0201130609" flag="0"/>
      <vel value="0.0081016022" flag="0"/>
      <psa03 value="0.0252901221" flag="0"/>
      <psa10 value="0.0111242615" flag="0"/>
      <psa30 value="0.0009196516" flag="0"/>
    </comp>
  </station>
  <station code="LTHK" name="LTHK" netid="HP" source="NOA" insttype="40," lat="37.7095" lon="20.8367">
    <comp name="--.HHE">
      <acc value="1.6316838622" flag="0"/>
      <vel value="0.2524799745" flag="0"/>
      <psa03 value="0.7409533943" flag="0"/>
      <psa10 value="0.0802256213" flag="0"/>
      <psa30 value="0.0058570825" flag="0"/>
    </comp>
    <comp name="--.HHN">
      <acc value="0.9430508137" flag="0"/>
      <vel value="0.2657016715" flag="0"/>
      <psa03 value="0.9628516922" flag="0"/>
      <psa10 value="0.1159358414" flag="0"/>
      <psa30 value="0.0121827618" flag="0"/>
    </comp>
    <comp name="--.HHZ">
      <acc value="0.7240757426" flag="0"/>
      <vel value="0.2073776438" flag="0"/>
      <psa03 value="0.3611319628" flag="0"/>
      <psa10 value="0.0603885503" flag="0"/>
      <psa30 value="0.0040104496" flag="0"/>
    </comp>
  </station>
  <station code="DMLN" name="DMLN" netid="HT" source="NOA" insttype="1s-100Hz," lat="38.2385" lon="20.3734">
    <comp name="--.HHE">
      <acc value="0.0925736501" flag="0"/>
      <vel value="0.0312559504" flag="0"/>
      <psa03 value="0.1071466461" flag="0"/>
      <psa10 value="0.0296614364" flag="0"/>
      <psa30 value="0.0025112842" flag="0"/>
    </comp>
    <comp name="--.HHN">
      <acc value="0.1038435190" flag="0"/>
      <vel value="0.0488252009" flag="0"/>
      <psa03 value="0.2820323767" flag="0"/>
      <psa10 value="0.0799763460" flag="0"/>
      <psa30 value="0.0032469432" flag="0"/>
    </comp>
    <comp name="--.HHZ">
      <acc value="0.1013874928" flag="0"/>
      <vel value="0.0209374021" flag="0"/>
      <psa03 value="0.0621075529" flag="0"/>
      <psa10 value="0.0300367190" flag="0"/>
      <psa30 value="0.0011489742" flag="0"/>
    </comp>
  </station>
  <station code="EVGI" name="EVGI" netid="HT" source="NOA" insttype="30" lat="38.621" lon="20.656">
    <comp name="--.HHE">
      <acc value="0.0350869815" flag="0"/>
      <vel value="0.0117235829" flag="0"/>
      <psa03 value="0.0388753901" flag="0"/>
      <psa10 value="0.0077504168" flag="0"/>
      <psa30 value="0.0013555380" flag="0"/>
    </comp>
    <comp name="--.HHN">
      <acc value="nan" flag="0"/>
      <vel value="-100.0000000000" flag="0"/>
      <psa03 value="0.0000000000" flag="0"/>
      <psa10 value="0.0000000000" flag="0"/>
      <psa30 value="0.0000000000" flag="0"/>
    </comp>
    <comp name="--.HHZ">
      <acc value="0.0321503123" flag="0"/>
      <vel value="0.0085716496" flag="0"/>
      <psa03 value="0.0264659584" flag="0"/>
      <psa10 value="0.0057340348" flag="0"/>
      <psa30 value="0.0005882173" flag="0"/>
    </comp>
  </station>
  <station code="LKD2" name="LKD2" netid="HT" source="NOA" insttype="100" lat="38.7889" lon="20.6578">
    <comp name="--.HHE">
      <acc value="0.0169226991" flag="0"/>
      <vel value="0.0155321205" flag="0"/>
      <psa03 value="0.0255716920" flag="0"/>
      <psa10 value="0.0221032252" flag="0"/>
      <psa30 value="0.0017475004" flag="0"/>
    </comp>
    <comp name="--.HHN">
      <acc value="0.0141363512" flag="0"/>
      <vel value="0.0093490243" flag="0"/>
      <psa03 value="0.0207946916" flag="0"/>
      <psa10 value="0.0197683438" flag="0"/>
      <psa30 value="0.0010329683" flag="0"/>
    </comp>
    <comp name="--.HHZ">
      <acc value="0.0093061084" flag="0"/>
      <vel value="0.0066319826" flag="0"/>
      <psa03 value="0.0209540649" flag="0"/>
      <psa10 value="0.0091877173" flag="0"/>
      <psa30 value="0.0004925500" flag="0"/>
    </comp>
  </station>
  <station code="NYDR" name="NYDR" netid="HT" source="NOA" insttype="1s-100Hz," lat="38.7135" lon="20.6983">
    <comp name="--.HHE">
      <acc value="0.0167117969" flag="0"/>
      <vel value="0.0117841468" flag="0"/>
      <psa03 value="0.0260586061" flag="0"/>
      <psa10 value="0.0093580927" flag="0"/>
      <psa30 value="0.0011573117" flag="0"/>
    </comp>
    <comp name="--.HHN">
      <acc value="0.0141026167" flag="0"/>
      <vel value="0.0054644277" flag="0"/>
      <psa03 value="0.0231829553" flag="0"/>
      <psa10 value="0.0071585758" flag="0"/>
      <psa30 value="0.0003227278" flag="0"/>
    </comp>
    <comp name="--.HHZ">
      <acc value="0.0111319870" flag="0"/>
      <vel value="0.0080260321" flag="0"/>
      <psa03 value="0.0255112332" flag="0"/>
      <psa10 value="0.0074658111" flag="0"/>
      <psa30 value="0.0005363891" flag="0"/>
    </comp>
  </station>
  <station code="PSDA" name="PSDA" netid="HT" source="NOA" insttype="30" lat="38.114" lon="20.5841">
    <comp name="--.HHE">
      <acc value="0.1693211748" flag="0"/>
      <vel value="0.0238798485" flag="0"/>
      <psa03 value="0.1128882615" flag="0"/>
      <psa10 value="0.0124610424" flag="0"/>
      <psa30 value="0.0012288921" flag="0"/>
    </comp>
    <comp name="--.HHN">
      <acc value="0.1041763198" flag="0"/>
      <vel value="0.0202141663" flag="0"/>
      <psa03 value="0.1093329170" flag="0"/>
      <psa10 value="0.0137746521" flag="0"/>
      <psa30 value="0.0006891844" flag="0"/>
    </comp>
    <comp name="--.HHZ">
      <acc value="0.1091845107" flag="0"/>
      <vel value="0.0149907530" flag="0"/>
      <psa03 value="0.0367013362" flag="0"/>
      <psa10 value="0.0068323087" flag="0"/>
      <psa30 value="0.0004826561" flag="0"/>
    </comp>
  </station>
</stationlist>
