<stationlist xmlns:esm="https://esm-db.eu/esmws/shakemap/1/" created="1783994109">
	<station code="ARG2" name="ARG2" netid="HI" source="ITSAK Strong Motion Network" insttype="" lat="38.1783" lon="20.4878" esm:processing="manual (Paolucci et al 2011)" esm:quality="best">
		<comp name="--.HNE" depth="0.0">
			<acc value="0.0823612287564914" flag="0"/>
			<vel value="0.0354780475523088" flag="0"/>
			<psa03 value="0.222547735719284" flag="0"/>
			<psa10 value="0.0221957138591923" flag="0"/>
			<psa30 value="0.00182145523142984" flag="0"/>
		</comp>
		<comp name="--.HNN" depth="0.0">
			<acc value="0.0771212060986322" flag="0"/>
			<vel value="0.0215449458976076" flag="0"/>
			<psa03 value="0.115569119694996" flag="0"/>
			<psa10 value="0.0163045075137644" flag="0"/>
			<psa30 value="0.00145546398129238" flag="0"/>
		</comp>
		<comp name="--.HNZ" depth="0.0">
			<acc value="0.0564310073727171" flag="0"/>
			<vel value="0.0160901357315584" flag="0"/>
			<psa03 value="0.0858602945004635" flag="0"/>
			<psa10 value="0.00715159430586456" flag="0"/>
			<psa30 value="0.000873367873188664" flag="0"/>
		</comp>
	</station>
	<station code="ART2" name="ART2" netid="HI" source="ITSAK Strong Motion Network" insttype="" lat="39.1474" lon="20.9937" esm:processing="manual (Paolucci et al 2011)" esm:quality="bad">
		<comp name="--.HNE" depth="0.0">
			<acc value="0.00310348538412368" flag="0"/>
			<vel value="0.00259781204187954" flag="0"/>
			<psa03 value="0.00658593758812841" flag="0"/>
			<psa10 value="0.00307873293532206" flag="0"/>
			<psa30 value="0.000300197985601525" flag="0"/>
		</comp>
		<comp name="--.HNN" depth="0.0">
			<acc value="0.00339702027318946" flag="0"/>
			<vel value="0.00208316813624357" flag="0"/>
			<psa03 value="0.00658571166168495" flag="0"/>
			<psa10 value="0.00274228783498468" flag="0"/>
			<psa30 value="0.000233861377585304" flag="0"/>
		</comp>
		<comp name="--.HNZ" depth="0.0">
			<acc value="0.00218111099318583" flag="0"/>
			<vel value="0.00149818372299376" flag="0"/>
			<psa03 value="0.00552923282101662" flag="0"/>
			<psa10 value="0.00163348399154684" flag="0"/>
			<psa30 value="0.000245961814596277" flag="0"/>
		</comp>
	</station>
	<station code="KLV1" name="KLV1" netid="HI" source="ITSAK Strong Motion Network" insttype="" lat="38.03256" lon="22.10797" esm:processing="manual (Paolucci et al 2011)" esm:quality="good">
		<comp name="--.HNE" depth="0.0">
			<acc value="0.00811179247984691" flag="0"/>
			<vel value="0.00446361937023655" flag="0"/>
			<psa03 value="0.0284843817421484" flag="0"/>
			<psa10 value="0.00493418030274232" flag="0"/>
			<psa30 value="0.000378814912337145" flag="0"/>
		</comp>
		<comp name="--.HNN" depth="0.0">
			<acc value="0.00677676302583354" flag="0"/>
			<vel value="0.00386024041779174" flag="0"/>
			<psa03 value="0.0243233613033271" flag="0"/>
			<psa10 value="0.00538849852406287" flag="0"/>
			<psa30 value="0.00042634897269384" flag="0"/>
		</comp>
		<comp name="--.HNZ" depth="0.0">
			<acc value="0.00366758745329392" flag="0"/>
			<vel value="0.00168804152242508" flag="0"/>
			<psa03 value="0.00922832422183127" flag="0"/>
			<psa10 value="0.00300150641319578" flag="0"/>
			<psa30 value="0.000307468154714567" flag="0"/>
		</comp>
	</station>
	<station code="KRI1" name="KRI1" netid="HI" source="ITSAK Strong Motion Network" insttype="" lat="37.6621" lon="20.8172" esm:processing="manual (Paolucci et al 2011)" esm:quality="good">
		<comp name="--.HNE" depth="0.0">
			<acc value="1.88087344267185" flag="0"/>
			<vel value="0.561175783788436" flag="0"/>
			<psa03 value="1.80834576489069" flag="0"/>
			<psa10 value="0.11740533985461" flag="0"/>
			<psa30 value="0.0155595497735702" flag="0"/>
		</comp>
		<comp name="--.HNN" depth="0.0">
			<acc value="1.19741346539998" flag="0"/>
			<vel value="0.456777363025575" flag="0"/>
			<psa03 value="1.6859310875831" flag="0"/>
			<psa10 value="0.167100061323458" flag="0"/>
			<psa30 value="0.0175899511099074" flag="0"/>
		</comp>
		<comp name="--.HNZ" depth="0.0">
			<acc value="0.63854090534345" flag="0"/>
			<vel value="0.177885950333948" flag="0"/>
			<psa03 value="0.691267092252299" flag="0"/>
			<psa10 value="0.0496463998857005" flag="0"/>
			<psa30 value="0.0053538524439424" flag="0"/>
		</comp>
	</station>
	<station code="MSL1" name="MSL1" netid="HI" source="ITSAK Strong Motion Network" insttype="" lat="38.3727" lon="21.4243" esm:processing="manual (Paolucci et al 2011)" esm:quality="good">
		<comp name="--.HNE" depth="0.0">
			<acc value="0.0273149224232542" flag="0"/>
			<vel value="0.0192940825080628" flag="0"/>
			<psa03 value="0.0750100211291015" flag="0"/>
			<psa10 value="0.0403645239516197" flag="0"/>
			<psa30 value="0.00324863791464966" flag="0"/>
		</comp>
		<comp name="--.HNN" depth="0.0">
			<acc value="0.0226558026899903" flag="0"/>
			<vel value="0.0222131628437148" flag="0"/>
			<psa03 value="0.11015426592968" flag="0"/>
			<psa10 value="0.0451749863712586" flag="0"/>
			<psa30 value="0.00271851925522667" flag="0"/>
		</comp>
		<comp name="--.HNZ" depth="0.0">
			<acc value="0.0148746539027576" flag="0"/>
			<vel value="0.00840257648422208" flag="0"/>
			<psa03 value="0.0410163082749617" flag="0"/>
			<psa10 value="0.0151790124100974" flag="0"/>
			<psa30 value="0.00106144458632631" flag="0"/>
		</comp>
	</station>
	<station code="PYL1" name="PYL1" netid="HI" source="ITSAK Strong Motion Network" insttype="" lat="36.914188" lon="21.695161" esm:processing="manual (Paolucci et al 2011)" esm:quality="good">
		<comp name="--.HNE" depth="0.0">
			<acc value="0.00523793065039914" flag="0"/>
			<vel value="0.00255344269785577" flag="0"/>
			<psa03 value="0.0165993586553788" flag="0"/>
			<psa10 value="0.00202547969360916" flag="0"/>
			<psa30 value="0.000389257197578964" flag="0"/>
		</comp>
		<comp name="--.HNN" depth="0.0">
			<acc value="0.00542766405849963" flag="0"/>
			<vel value="0.00237240545784756" flag="0"/>
			<psa03 value="0.00885895691041781" flag="0"/>
			<psa10 value="0.00175165738910534" flag="0"/>
			<psa30 value="0.00045771277370492" flag="0"/>
		</comp>
		<comp name="--.HNZ" depth="0.0">
			<acc value="0.0042395857620602" flag="0"/>
			<vel value="0.00127781842108823" flag="0"/>
			<psa03 value="0.00550329141404743" flag="0"/>
			<psa10 value="0.00116374479414125" flag="0"/>
			<psa30 value="0.000217447124164801" flag="0"/>
		</comp>
	</station>
	<station code="ITM" name="ITM" netid="HL" source="National Observatory of Athens Seismic Network" insttype="" lat="37.17872" lon="21.92522" esm:processing="automatic (Paolucci et al 2011)" esm:quality="best">
		<comp name="--.HNE" depth="0.0">
			<acc value="0.00946728233807478" flag="0"/>
			<vel value="0.0028461709864189" flag="0"/>
			<psa03 value="0.0149438970105028" flag="0"/>
			<psa10 value="0.00210198886692641" flag="0"/>
			<psa30 value="0.000720349526554175" flag="0"/>
		</comp>
		<comp name="--.HNN" depth="0.0">
			<acc value="0.00918714064826851" flag="0"/>
			<vel value="0.00305470781080735" flag="0"/>
			<psa03 value="0.015480803489922" flag="0"/>
			<psa10 value="0.00293956297482045" flag="0"/>
			<psa30 value="0.0008232566017762" flag="0"/>
		</comp>
		<comp name="--.HNZ" depth="0.0">
			<acc value="0.00417828129501401" flag="0"/>
			<vel value="0.00190260298470487" flag="0"/>
			<psa03 value="0.00738246409201484" flag="0"/>
			<psa10 value="0.00271003545486872" flag="0"/>
			<psa30 value="0.000352568588151981" flag="0"/>
		</comp>
	</station>
	<station code="LXRA" name="LXRA" netid="HL" source="National Observatory of Athens Seismic Network" insttype="" lat="38.20006" lon="20.43718" esm:processing="manual (Paolucci et al 2011)" esm:quality="good">
		<comp name="00.HNE" depth="0.0">
			<acc value="0.0857365410103299" flag="0"/>
			<vel value="0.0346173056742145" flag="0"/>
			<psa03 value="0.136463730185729" flag="0"/>
			<psa10 value="0.0489739245202279" flag="0"/>
			<psa30 value="0.00396147497398178" flag="0"/>
		</comp>
		<comp name="00.HNN" depth="0.0">
			<acc value="0.0883000085778159" flag="0"/>
			<vel value="0.0344742694872146" flag="0"/>
			<psa03 value="0.133376517929068" flag="0"/>
			<psa10 value="0.038508274970148" flag="0"/>
			<psa30 value="0.00344201795514365" flag="0"/>
		</comp>
		<comp name="00.HNZ" depth="0.0">
			<acc value="0.0874841357736128" flag="0"/>
			<vel value="0.0179468913705302" flag="0"/>
			<psa03 value="0.112392423025099" flag="0"/>
			<psa10 value="0.0295244873032652" flag="0"/>
			<psa30 value="0.00134584557507761" flag="0"/>
		</comp>
	</station>
	<station code="PATC" name="PATC" netid="HL" source="National Observatory of Athens Seismic Network" insttype="" lat="38.26933" lon="21.76001" esm:processing="manual (Paolucci et al 2011)" esm:quality="good">
		<comp name="00.HNE" depth="0.0">
			<acc value="0.0138941715456832" flag="0"/>
			<vel value="0.0107898489049094" flag="0"/>
			<psa03 value="0.0381784119449214" flag="0"/>
			<psa10 value="0.0167795528130241" flag="0"/>
			<psa30 value="0.00211598934057574" flag="0"/>
		</comp>
		<comp name="00.HNN" depth="0.0">
			<acc value="0.0124193909392952" flag="0"/>
			<vel value="0.00914340834512426" flag="0"/>
			<psa03 value="0.048718664872449" flag="0"/>
			<psa10 value="0.0149776550086378" flag="0"/>
			<psa30 value="0.00212296751117863" flag="0"/>
		</comp>
		<comp name="00.HNZ" depth="0.0">
			<acc value="0.00900216997857018" flag="0"/>
			<vel value="0.00483060179740701" flag="0"/>
			<psa03 value="0.0243640931682663" flag="0"/>
			<psa10 value="0.00894313587636117" flag="0"/>
			<psa30 value="0.000763233008357717" flag="0"/>
		</comp>
	</station>
	<station code="ROD3" name="ROD3" netid="CL" source="Corinth Riff Laboratory (CRLNET)" insttype="" lat="38.30811" lon="21.89204" esm:processing="discarded" esm:quality="good">
		<comp name="00.HNE" depth="0.0">
			<acc value="0" flag="1"/>
			<vel value="0" flag="1"/>
			<psa03 value="0" flag="1"/>
			<psa10 value="0" flag="1"/>
			<psa30 value="0" flag="1"/>
		</comp>
		<comp name="00.HNN" depth="0.0">
			<acc value="0" flag="1"/>
			<vel value="0" flag="1"/>
			<psa03 value="0" flag="1"/>
			<psa10 value="0" flag="1"/>
			<psa30 value="0" flag="1"/>
		</comp>
		<comp name="00.HNZ" depth="0.0">
			<acc value="0" flag="1"/>
			<vel value="0" flag="1"/>
			<psa03 value="0" flag="1"/>
			<psa10 value="0" flag="1"/>
			<psa30 value="0" flag="1"/>
		</comp>
	</station>
	<station code="ARS1" name="ARS1" netid="HI" source="ITSAK Strong Motion Network" insttype="" lat="37.6349" lon="22.7293" esm:processing="discarded" esm:quality="bad">
		<comp name="--.HNE" depth="0.0">
			<acc value="0" flag="1"/>
			<vel value="0" flag="1"/>
			<psa03 value="0" flag="1"/>
			<psa10 value="0" flag="1"/>
			<psa30 value="0" flag="1"/>
		</comp>
		<comp name="--.HNN" depth="0.0">
			<acc value="0" flag="1"/>
			<vel value="0" flag="1"/>
			<psa03 value="0" flag="1"/>
			<psa10 value="0" flag="1"/>
			<psa30 value="0" flag="1"/>
		</comp>
		<comp name="--.HNZ" depth="0.0">
			<acc value="0" flag="1"/>
			<vel value="0" flag="1"/>
			<psa03 value="0" flag="1"/>
			<psa10 value="0" flag="1"/>
			<psa30 value="0" flag="1"/>
		</comp>
	</station>
	<station code="DLFA" name="DLFA" netid="HL" source="National Observatory of Athens Seismic Network" insttype="" lat="38.47836" lon="22.49583" esm:processing="automatic (Paolucci et al 2011)" esm:quality="bad">
		<comp name="00.HNE" depth="0.0">
			<acc value="0" flag="1"/>
			<vel value="0" flag="1"/>
			<psa03 value="0" flag="1"/>
			<psa10 value="0" flag="1"/>
			<psa30 value="0" flag="1"/>
		</comp>
		<comp name="00.HNN" depth="0.0">
			<acc value="0" flag="1"/>
			<vel value="0" flag="1"/>
			<psa03 value="0" flag="1"/>
			<psa10 value="0" flag="1"/>
			<psa30 value="0" flag="1"/>
		</comp>
		<comp name="00.HNZ" depth="0.0">
			<acc value="0" flag="1"/>
			<vel value="0" flag="1"/>
			<psa03 value="0" flag="1"/>
			<psa10 value="0" flag="1"/>
			<psa30 value="0" flag="1"/>
		</comp>
	</station>
	<station code="PATG" name="PATG" netid="HL" source="National Observatory of Athens Seismic Network" insttype="" lat="38.23865" lon="21.72657" esm:processing="automatic (Paolucci et al 2011)" esm:quality="bad">
		<comp name="00.HNE" depth="0.0">
			<acc value="0" flag="1"/>
			<vel value="0" flag="1"/>
			<psa03 value="0" flag="1"/>
			<psa10 value="0" flag="1"/>
			<psa30 value="0" flag="1"/>
		</comp>
		<comp name="00.HNN" depth="0.0">
			<acc value="0" flag="1"/>
			<vel value="0" flag="1"/>
			<psa03 value="0" flag="1"/>
			<psa10 value="0" flag="1"/>
			<psa30 value="0" flag="1"/>
		</comp>
		<comp name="00.HNZ" depth="0.0">
			<acc value="0" flag="1"/>
			<vel value="0" flag="1"/>
			<psa03 value="0" flag="1"/>
			<psa10 value="0" flag="1"/>
			<psa30 value="0" flag="1"/>
		</comp>
	</station>
	<station code="RIOA" name="RIOA" netid="HL" source="National Observatory of Athens Seismic Network" insttype="" lat="38.29585" lon="21.79118" esm:processing="automatic (Paolucci et al 2011)" esm:quality="bad">
		<comp name="00.HNE" depth="0.0">
			<acc value="0" flag="1"/>
			<vel value="0" flag="1"/>
			<psa03 value="0" flag="1"/>
			<psa10 value="0" flag="1"/>
			<psa30 value="0" flag="1"/>
		</comp>
		<comp name="00.HNN" depth="0.0">
			<acc value="0" flag="1"/>
			<vel value="0" flag="1"/>
			<psa03 value="0" flag="1"/>
			<psa10 value="0" flag="1"/>
			<psa30 value="0" flag="1"/>
		</comp>
		<comp name="00.HNZ" depth="0.0">
			<acc value="0" flag="1"/>
			<vel value="0" flag="1"/>
			<psa03 value="0" flag="1"/>
			<psa10 value="0" flag="1"/>
			<psa30 value="0" flag="1"/>
		</comp>
	</station>
</stationlist>
