<?xml version="1.0" encoding="UTF-8" standalone="yes"?>
<!DOCTYPE earthquake SYSTEM "stationlist.dtd">
<stationlist created="" xmlns="ch.ethz.sed.shakemap.usgs.xml">
  <station code="BZS" name="BZS" netid="MN" insttype="" lat="45.6188" lon="21.6401">
    <comp name="--.HHE">
      <acc value="0.0529439617" flag="0"/>
      <vel value="0.0209161282" flag="0"/>
      <psa03 value="0.1274328304" flag="0"/>
      <psa10 value="0.0065872400" flag="0"/>
      <psa30 value="0.0006953969" flag="0"/>
    </comp>
    <comp name="--.HHN">
      <acc value="0.0390925945" flag="0"/>
      <vel value="0.0138523168" flag="0"/>
      <psa03 value="0.0741053242" flag="0"/>
      <psa10 value="0.0045956703" flag="0"/>
      <psa30 value="0.0003152555" flag="0"/>
    </comp>
    <comp name="--.HHZ">
      <acc value="0.0361174978" flag="0"/>
      <vel value="0.0191533606" flag="0"/>
      <psa03 value="0.0854864383" flag="0"/>
      <psa10 value="0.0091942474" flag="0"/>
      <psa30 value="0.0007308929" flag="0"/>
    </comp>
  </station>
  <station code="ARR" name="ARR" netid="RO" insttype="w/attenuator" lat="45.3657" lon="24.6332">
    <comp name="--.HHE">
      <acc value="0.0047737754" flag="0"/>
      <vel value="0.0015081671" flag="0"/>
      <psa03 value="0.0132817515" flag="0"/>
      <psa10 value="0.0014213874" flag="0"/>
      <psa30 value="0.0000696840" flag="0"/>
    </comp>
    <comp name="--.HHN">
      <acc value="0.0063934724" flag="0"/>
      <vel value="0.0023527483" flag="0"/>
      <psa03 value="0.0148330721" flag="0"/>
      <psa10 value="0.0012763468" flag="0"/>
      <psa30 value="0.0000919450" flag="0"/>
    </comp>
    <comp name="--.HHZ">
      <acc value="0.0059979348" flag="0"/>
      <vel value="0.0017117181" flag="0"/>
      <psa03 value="0.0066478035" flag="0"/>
      <psa10 value="0.0009475631" flag="0"/>
      <psa30 value="0.0000491614" flag="0"/>
    </comp>
  </station>
  <station code="BZS" name="BZS" netid="RO" insttype="200" lat="45.6188" lon="21.6401">
    <comp name="--.HNZ">
      <acc value="0.0271106385" flag="0"/>
      <vel value="0.0144263825" flag="0"/>
      <psa03 value="0.0635687345" flag="0"/>
      <psa10 value="0.0068302628" flag="0"/>
      <psa30 value="0.0005359750" flag="0"/>
    </comp>
    <comp name="--.HNN">
      <acc value="0.0337338646" flag="0"/>
      <vel value="0.0139877732" flag="0"/>
      <psa03 value="0.0595205672" flag="0"/>
      <psa10 value="0.0166739786" flag="0"/>
      <psa30 value="0.0070938298" flag="0"/>
    </comp>
  </station>
  <station code="CRAR" name="CRAR" netid="RO" insttype="MBB2/Quanterra" lat="44.325" lon="23.7999">
    <comp name="--.HHN">
      <acc value="0.0450007530" flag="0"/>
      <vel value="0.0131425604" flag="0"/>
      <psa03 value="0.0541739017" flag="0"/>
      <psa10 value="0.0082233101" flag="0"/>
      <psa30 value="0.0007339165" flag="0"/>
    </comp>
    <comp name="--.HHZ">
      <acc value="0.0530210097" flag="0"/>
      <vel value="0.0086081559" flag="0"/>
      <psa03 value="0.0373361649" flag="0"/>
      <psa10 value="0.0027130525" flag="0"/>
      <psa30 value="0.0002337945" flag="0"/>
    </comp>
    <comp name="--.HHE">
      <acc value="0.0467332616" flag="0"/>
      <vel value="0.0167584717" flag="0"/>
      <psa03 value="0.0885768471" flag="0"/>
      <psa10 value="0.0073830294" flag="0"/>
      <psa30 value="0.0011032623" flag="0"/>
    </comp>
  </station>
  <station code="DEV" name="DEV" netid="RO" insttype="CMG40T.1to100/Quanterra" lat="45.887" lon="22.898">
    <comp name="--.HHZ">
      <acc value="0.1412788696" flag="0"/>
      <vel value="0.0290465660" flag="0"/>
      <psa03 value="0.1068785824" flag="0"/>
      <psa10 value="0.0069633692" flag="0"/>
      <psa30 value="0.0005154259" flag="0"/>
    </comp>
    <comp name="--.HHN">
      <acc value="0.1692977265" flag="0"/>
      <vel value="0.0545852639" flag="0"/>
      <psa03 value="0.1789410238" flag="0"/>
      <psa10 value="0.0096091220" flag="0"/>
      <psa30 value="0.0009563325" flag="0"/>
    </comp>
  </station>
  <station code="GZR" name="GZR" netid="RO" insttype="330" lat="45.3933" lon="22.7767">
    <comp name="--.HHZ">
      <acc value="0.3965371629" flag="0"/>
      <vel value="0.0685569312" flag="0"/>
      <psa03 value="0.1818488766" flag="0"/>
      <psa10 value="0.0160323928" flag="0"/>
      <psa30 value="0.0012451809" flag="0"/>
    </comp>
    <comp name="--.HHE">
      <acc value="0.7970878738" flag="0"/>
      <vel value="0.1308630103" flag="0"/>
      <psa03 value="0.5192908484" flag="0"/>
      <psa10 value="0.0190947999" flag="0"/>
      <psa30 value="0.0021851148" flag="0"/>
    </comp>
    <comp name="--.HHN">
      <acc value="0.9220911567" flag="0"/>
      <vel value="0.2637059048" flag="0"/>
      <psa03 value="0.9850356879" flag="0"/>
      <psa10 value="0.0453664204" flag="0"/>
      <psa30 value="0.0042996912" flag="0"/>
    </comp>
  </station>
  <station code="HERR" name="HERR" netid="RO" insttype="CMG40T.1to100/Quanterra" lat="44.881" lon="22.416">
    <comp name="--.HHN">
      <acc value="0.1585118637" flag="0"/>
      <vel value="0.0201024682" flag="0"/>
      <psa03 value="0.0597661947" flag="0"/>
      <psa10 value="0.0027490097" flag="0"/>
      <psa30 value="0.0002821133" flag="0"/>
    </comp>
    <comp name="--.HHZ">
      <acc value="0.0703882726" flag="0"/>
      <vel value="0.0083743223" flag="0"/>
      <psa03 value="0.0165057696" flag="0"/>
      <psa10 value="0.0013103444" flag="0"/>
      <psa30 value="0.0001217474" flag="0"/>
    </comp>
    <comp name="--.HHE">
      <acc value="0.1120774894" flag="0"/>
      <vel value="0.0161862671" flag="0"/>
      <psa03 value="0.0322392056" flag="0"/>
      <psa10 value="0.0023121355" flag="0"/>
      <psa30 value="0.0001675259" flag="0"/>
    </comp>
  </station>
  <station code="LOT" name="LOT" netid="RO" insttype="330" lat="45.446" lon="23.7698">
    <comp name="--.HHE">
      <acc value="0.1475339806" flag="0"/>
      <vel value="0.0275279837" flag="0"/>
      <psa03 value="0.1366682197" flag="0"/>
      <psa10 value="0.0061488553" flag="0"/>
      <psa30 value="0.0005812821" flag="0"/>
    </comp>
    <comp name="--.HHN">
      <acc value="0.0991537078" flag="0"/>
      <vel value="0.0231835409" flag="0"/>
      <psa03 value="0.1370188033" flag="0"/>
      <psa10 value="0.0056732104" flag="0"/>
      <psa30 value="0.0005289794" flag="0"/>
    </comp>
    <comp name="--.HHZ">
      <acc value="0.0864120612" flag="0"/>
      <vel value="0.0189847801" flag="0"/>
      <psa03 value="0.0379730053" flag="0"/>
      <psa10 value="0.0037219562" flag="0"/>
      <psa30 value="0.0002050240" flag="0"/>
    </comp>
  </station>
  <station code="MDVR" name="MDVR" netid="RO" insttype="CMG40T.1to100/Quanterra" lat="44.7815" lon="21.7128">
    <comp name="--.HHE">
      <acc value="0.0247901377" flag="0"/>
      <vel value="0.0053888801" flag="0"/>
      <psa03 value="0.0360688957" flag="0"/>
      <psa10 value="0.0033062776" flag="0"/>
      <psa30 value="0.0001642498" flag="0"/>
    </comp>
    <comp name="--.HHN">
      <acc value="0.0335249752" flag="0"/>
      <vel value="0.0071582300" flag="0"/>
      <psa03 value="0.0346080483" flag="0"/>
      <psa10 value="0.0032186992" flag="0"/>
      <psa30 value="0.0001831886" flag="0"/>
    </comp>
    <comp name="--.HHZ">
      <acc value="0.0162116653" flag="0"/>
      <vel value="0.0036790324" flag="0"/>
      <psa03 value="0.0142311184" flag="0"/>
      <psa10 value="0.0015550663" flag="0"/>
      <psa30 value="0.0001432120" flag="0"/>
    </comp>
  </station>
  <station code="PUNG" name="PUNG" netid="RO" insttype="Seismometer/Basalt" lat="44.2782" lon="22.9325">
    <comp name="--.HHE">
      <acc value="0.0533847328" flag="0"/>
      <vel value="0.0204446324" flag="0"/>
      <psa03 value="0.1303371257" flag="0"/>
      <psa10 value="0.0060680950" flag="0"/>
      <psa30 value="0.0004564857" flag="0"/>
    </comp>
    <comp name="--.HHN">
      <acc value="0.0487898485" flag="0"/>
      <vel value="0.0149688385" flag="0"/>
      <psa03 value="0.0544531396" flag="0"/>
      <psa10 value="0.0097531071" flag="0"/>
      <psa30 value="0.0004500935" flag="0"/>
    </comp>
    <comp name="--.HHZ">
      <acc value="0.0263756567" flag="0"/>
      <vel value="0.0077943859" flag="0"/>
      <psa03 value="0.0358828604" flag="0"/>
      <psa10 value="0.0027270831" flag="0"/>
      <psa30 value="0.0002556200" flag="0"/>
    </comp>
  </station>
  <station code="RMGR" name="RMGR" netid="RO" insttype="200" lat="44.6627" lon="22.6922">
    <comp name="--.HNE">
      <acc value="0.0364104970" flag="0"/>
      <vel value="0.0198819139" flag="0"/>
      <psa03 value="0.0772245869" flag="0"/>
      <psa10 value="0.0087045980" flag="0"/>
      <psa30 value="0.0005154428" flag="0"/>
    </comp>
    <comp name="--.HNN">
      <acc value="0.0343489655" flag="0"/>
      <vel value="0.0175266128" flag="0"/>
      <psa03 value="0.1054973939" flag="0"/>
      <psa10 value="0.0099872002" flag="0"/>
      <psa30 value="0.0006212563" flag="0"/>
    </comp>
    <comp name="--.HNZ">
      <acc value="0.0403667664" flag="0"/>
      <vel value="0.0070514699" flag="0"/>
      <psa03 value="0.0344971848" flag="0"/>
      <psa10 value="0.0063945921" flag="0"/>
      <psa30 value="0.0003055952" flag="0"/>
    </comp>
  </station>
  <station code="SURR" name="SURR" netid="RO" insttype="Linear" lat="45.754" lon="22.1246">
    <comp name="--.HHE">
      <acc value="0.2079406509" flag="0"/>
      <vel value="0.0246619785" flag="0"/>
      <psa03 value="0.0732508433" flag="0"/>
      <psa10 value="0.0028980216" flag="0"/>
      <psa30 value="0.0003121472" flag="0"/>
    </comp>
    <comp name="--.HHN">
      <acc value="0.1730841683" flag="0"/>
      <vel value="0.0224424203" flag="0"/>
      <psa03 value="0.0591442788" flag="0"/>
      <psa10 value="0.0051038847" flag="0"/>
      <psa30 value="0.0003771090" flag="0"/>
    </comp>
    <comp name="--.HHZ">
      <acc value="0.0714288711" flag="0"/>
      <vel value="0.0139834564" flag="0"/>
      <psa03 value="0.0362914816" flag="0"/>
      <psa10 value="0.0019481579" flag="0"/>
      <psa30 value="0.0002084961" flag="0"/>
    </comp>
  </station>
  <station code="TNR" name="TNR" netid="RO" insttype="CMG40T.1to100/Quanterra" lat="45.652" lon="24.273">
    <comp name="--.HHE">
      <acc value="0.0084381117" flag="0"/>
      <vel value="0.0020583256" flag="0"/>
      <psa03 value="0.0090626824" flag="0"/>
      <psa10 value="0.0020633489" flag="0"/>
      <psa30 value="0.0001003357" flag="0"/>
    </comp>
    <comp name="--.HHZ">
      <acc value="0.0138586553" flag="0"/>
      <vel value="0.0036099010" flag="0"/>
      <psa03 value="0.0142862538" flag="0"/>
      <psa10 value="0.0023824952" flag="0"/>
      <psa30 value="0.0001278109" flag="0"/>
    </comp>
    <comp name="--.HHN">
      <acc value="0.0085879812" flag="0"/>
      <vel value="0.0033457244" flag="0"/>
      <psa03 value="0.0121978716" flag="0"/>
      <psa10 value="0.0035470325" flag="0"/>
      <psa30 value="0.0002013800" flag="0"/>
    </comp>
  </station>
  <station code="RO03A" name="RO03A" netid="Y8" insttype="" lat="44.7765" lon="23.8757">
    <comp name="00.HHE">
      <acc value="0.0000000001" flag="0"/>
      <vel value="0.0000000000" flag="0"/>
      <psa03 value="0.0000000001" flag="0"/>
      <psa10 value="0.0000000000" flag="0"/>
      <psa30 value="0.0000000000" flag="0"/>
    </comp>
    <comp name="00.HHN">
      <acc value="0.0000000000" flag="0"/>
      <vel value="-100.0000000000" flag="0"/>
      <psa03 value="0.0000000000" flag="0"/>
      <psa10 value="0.0000000000" flag="0"/>
      <psa30 value="0.0000000000" flag="0"/>
    </comp>
    <comp name="00.HHZ">
      <acc value="0.0000000001" flag="0"/>
      <vel value="0.0000000000" flag="0"/>
      <psa03 value="0.0000000001" flag="0"/>
      <psa10 value="0.0000000000" flag="0"/>
      <psa30 value="0.0000000000" flag="0"/>
    </comp>
  </station>
  <station code="RO05A" name="RO05A" netid="Y8" insttype="" lat="44.9801" lon="24.3136">
    <comp name="00.HHE">
      <acc value="0.0000000001" flag="0"/>
      <vel value="0.0000000000" flag="0"/>
      <psa03 value="0.0000000002" flag="0"/>
      <psa10 value="0.0000000000" flag="0"/>
      <psa30 value="0.0000000000" flag="0"/>
    </comp>
    <comp name="00.HHN">
      <acc value="0.0000000000" flag="0"/>
      <vel value="0.0000000000" flag="0"/>
      <psa03 value="0.0000000001" flag="0"/>
      <psa10 value="0.0000000000" flag="0"/>
      <psa30 value="0.0000000000" flag="0"/>
    </comp>
    <comp name="00.HHZ">
      <acc value="0.0000000000" flag="0"/>
      <vel value="0.0000000000" flag="0"/>
      <psa03 value="0.0000000000" flag="0"/>
      <psa10 value="0.0000000000" flag="0"/>
      <psa30 value="0.0000000000" flag="0"/>
    </comp>
  </station>
</stationlist>
