<?xml version="1.0" encoding="UTF-8" standalone="yes"?>
<!DOCTYPE earthquake SYSTEM "stationlist.dtd">
<stationlist created="" xmlns="ch.ethz.sed.shakemap.usgs.xml">
  <station code="BZS" name="BZS" netid="MN" insttype="" lat="45.6188" lon="21.6401">
    <comp name="--.HHE">
      <acc value="0.0529439617" flag="0"/>
      <vel value="0.0209161282" flag="0"/>
      <psa03 value="0.1274328304" flag="0"/>
      <psa10 value="0.0065872400" flag="0"/>
      <psa30 value="0.0006953966" flag="0"/>
    </comp>
    <comp name="--.HHN">
      <acc value="0.0390925946" flag="0"/>
      <vel value="0.0138523167" flag="0"/>
      <psa03 value="0.0741053242" flag="0"/>
      <psa10 value="0.0045956703" flag="0"/>
      <psa30 value="0.0003152552" flag="0"/>
    </comp>
    <comp name="--.HHZ">
      <acc value="0.0361174978" flag="0"/>
      <vel value="0.0191533606" flag="0"/>
      <psa03 value="0.0854864383" flag="0"/>
      <psa10 value="0.0091942474" flag="0"/>
      <psa30 value="0.0007308940" flag="0"/>
    </comp>
  </station>
  <station code="ARR" name="ARR" netid="RO" insttype="w/attenuator" lat="45.3657" lon="24.6332">
    <comp name="--.HHE">
      <acc value="0.0047737754" flag="0"/>
      <vel value="0.0015081671" flag="0"/>
      <psa03 value="0.0132817515" flag="0"/>
      <psa10 value="0.0014213874" flag="0"/>
      <psa30 value="0.0000696840" flag="0"/>
    </comp>
    <comp name="--.HHZ">
      <acc value="0.0059979348" flag="0"/>
      <vel value="0.0017117186" flag="0"/>
      <psa03 value="0.0066478035" flag="0"/>
      <psa10 value="0.0009475631" flag="0"/>
      <psa30 value="0.0000491606" flag="0"/>
    </comp>
    <comp name="--.HHN">
      <acc value="0.0063934724" flag="0"/>
      <vel value="0.0023527481" flag="0"/>
      <psa03 value="0.0148330721" flag="0"/>
      <psa10 value="0.0012763468" flag="0"/>
      <psa30 value="0.0000919445" flag="0"/>
    </comp>
  </station>
  <station code="BZS" name="BZS" netid="RO" insttype="w/attenuator" lat="45.6188" lon="21.6401">
    <comp name="--.HHE">
      <acc value="0.0390602531" flag="0"/>
      <vel value="0.0156952193" flag="0"/>
      <psa03 value="0.0959715852" flag="0"/>
      <psa10 value="0.0049653212" flag="0"/>
      <psa30 value="0.0005131914" flag="0"/>
    </comp>
    <comp name="--.HHN">
      <acc value="0.0288961477" flag="0"/>
      <vel value="0.0103863908" flag="0"/>
      <psa03 value="0.0555055344" flag="0"/>
      <psa10 value="0.0034048420" flag="0"/>
      <psa30 value="0.0002373560" flag="0"/>
    </comp>
    <comp name="--.HHZ">
      <acc value="0.0268314264" flag="0"/>
      <vel value="0.0143617796" flag="0"/>
      <psa03 value="0.0638521591" flag="0"/>
      <psa10 value="0.0068836355" flag="0"/>
      <psa30 value="0.0005481867" flag="0"/>
    </comp>
  </station>
  <station code="CRAR" name="CRAR" netid="RO" insttype="MBB2/Quanterra" lat="44.325" lon="23.7999">
    <comp name="--.HHE">
      <acc value="0.0467332616" flag="0"/>
      <vel value="0.0167584684" flag="0"/>
      <psa03 value="0.0885768471" flag="0"/>
      <psa10 value="0.0073830294" flag="0"/>
      <psa30 value="0.0011032433" flag="0"/>
    </comp>
    <comp name="--.HHN">
      <acc value="0.0450007530" flag="0"/>
      <vel value="0.0131425588" flag="0"/>
      <psa03 value="0.0541739017" flag="0"/>
      <psa10 value="0.0082233101" flag="0"/>
      <psa30 value="0.0007339355" flag="0"/>
    </comp>
    <comp name="--.HHZ">
      <acc value="0.0530210096" flag="0"/>
      <vel value="0.0086081536" flag="0"/>
      <psa03 value="0.0373361649" flag="0"/>
      <psa10 value="0.0027130602" flag="0"/>
      <psa30 value="0.0002337635" flag="0"/>
    </comp>
  </station>
  <station code="DEV" name="DEV" netid="RO" insttype="CMG40T.1to100/Quanterra" lat="45.887" lon="22.898">
    <comp name="--.HHE">
      <acc value="0.2209485357" flag="0"/>
      <vel value="0.0354710359" flag="0"/>
      <psa03 value="0.1782154055" flag="0"/>
      <psa10 value="0.0070869979" flag="0"/>
      <psa30 value="0.0006333825" flag="0"/>
    </comp>
    <comp name="--.HHN">
      <acc value="0.1692977266" flag="0"/>
      <vel value="0.0545852640" flag="0"/>
      <psa03 value="0.1789410238" flag="0"/>
      <psa10 value="0.0096091220" flag="0"/>
      <psa30 value="0.0009563333" flag="0"/>
    </comp>
    <comp name="--.HHZ">
      <acc value="0.1412788696" flag="0"/>
      <vel value="0.0290465661" flag="0"/>
      <psa03 value="0.1068785824" flag="0"/>
      <psa10 value="0.0069633691" flag="0"/>
      <psa30 value="0.0005154190" flag="0"/>
    </comp>
  </station>
  <station code="GZR" name="GZR" netid="RO" insttype="330" lat="45.3933" lon="22.7767">
    <comp name="--.HHN">
      <acc value="0.9220911568" flag="0"/>
      <vel value="0.2637059049" flag="0"/>
      <psa03 value="0.9850356879" flag="0"/>
      <psa10 value="0.0453664204" flag="0"/>
      <psa30 value="0.0042996921" flag="0"/>
    </comp>
    <comp name="--.HHE">
      <acc value="0.7970878738" flag="0"/>
      <vel value="0.1308630101" flag="0"/>
      <psa03 value="0.5192908484" flag="0"/>
      <psa10 value="0.0190947999" flag="0"/>
      <psa30 value="0.0021851247" flag="0"/>
    </comp>
    <comp name="--.HHZ">
      <acc value="0.3965371629" flag="0"/>
      <vel value="0.0685569312" flag="0"/>
      <psa03 value="0.1818488766" flag="0"/>
      <psa10 value="0.0160323928" flag="0"/>
      <psa30 value="0.0012451830" flag="0"/>
    </comp>
  </station>
  <station code="HERR" name="HERR" netid="RO" insttype="CMG40T.1to100/Quanterra" lat="44.881" lon="22.416">
    <comp name="--.HHE">
      <acc value="0.1120774896" flag="0"/>
      <vel value="0.0161862619" flag="0"/>
      <psa03 value="0.0322392056" flag="0"/>
      <psa10 value="0.0023121355" flag="0"/>
      <psa30 value="0.0001675329" flag="0"/>
    </comp>
    <comp name="--.HHN">
      <acc value="0.1585118637" flag="0"/>
      <vel value="0.0201024680" flag="0"/>
      <psa03 value="0.0597661947" flag="0"/>
      <psa10 value="0.0027490097" flag="0"/>
      <psa30 value="0.0002821175" flag="0"/>
    </comp>
    <comp name="--.HHZ">
      <acc value="0.0703882725" flag="0"/>
      <vel value="0.0083743199" flag="0"/>
      <psa03 value="0.0165057696" flag="0"/>
      <psa10 value="0.0013103444" flag="0"/>
      <psa30 value="0.0001217258" flag="0"/>
    </comp>
  </station>
  <station code="LOT" name="LOT" netid="RO" insttype="330" lat="45.446" lon="23.7698">
    <comp name="--.HHE">
      <acc value="0.1475339810" flag="0"/>
      <vel value="0.0275279840" flag="0"/>
      <psa03 value="0.1366682197" flag="0"/>
      <psa10 value="0.0061488553" flag="0"/>
      <psa30 value="0.0005812868" flag="0"/>
    </comp>
    <comp name="--.HHN">
      <acc value="0.0991537082" flag="0"/>
      <vel value="0.0231835409" flag="0"/>
      <psa03 value="0.1370188033" flag="0"/>
      <psa10 value="0.0056732102" flag="0"/>
      <psa30 value="0.0005289850" flag="0"/>
    </comp>
    <comp name="--.HHZ">
      <acc value="0.0864120607" flag="0"/>
      <vel value="0.0189847799" flag="0"/>
      <psa03 value="0.0379730053" flag="0"/>
      <psa10 value="0.0037219562" flag="0"/>
      <psa30 value="0.0002050020" flag="0"/>
    </comp>
  </station>
  <station code="MDVR" name="MDVR" netid="RO" insttype="CMG40T.1to100/Quanterra" lat="44.7815" lon="21.7128">
    <comp name="--.HHE">
      <acc value="0.0247901377" flag="0"/>
      <vel value="0.0053888815" flag="0"/>
      <psa03 value="0.0360688957" flag="0"/>
      <psa10 value="0.0033062776" flag="0"/>
      <psa30 value="0.0001642464" flag="0"/>
    </comp>
    <comp name="--.HHZ">
      <acc value="0.0162116653" flag="0"/>
      <vel value="0.0036790326" flag="0"/>
      <psa03 value="0.0142311184" flag="0"/>
      <psa10 value="0.0015550663" flag="0"/>
      <psa30 value="0.0001432164" flag="0"/>
    </comp>
    <comp name="--.HHN">
      <acc value="0.0335249752" flag="0"/>
      <vel value="0.0071582304" flag="0"/>
      <psa03 value="0.0346080483" flag="0"/>
      <psa10 value="0.0032186992" flag="0"/>
      <psa30 value="0.0001831884" flag="0"/>
    </comp>
  </station>
  <station code="PUNG" name="PUNG" netid="RO" insttype="Seismometer/Basalt" lat="44.2782" lon="22.9325">
    <comp name="--.HHN">
      <acc value="0.0487898486" flag="0"/>
      <vel value="0.0149688393" flag="0"/>
      <psa03 value="0.0544531396" flag="0"/>
      <psa10 value="0.0097531070" flag="0"/>
      <psa30 value="0.0004500529" flag="0"/>
    </comp>
    <comp name="--.HHZ">
      <acc value="0.0263756567" flag="0"/>
      <vel value="0.0077943856" flag="0"/>
      <psa03 value="0.0358828604" flag="0"/>
      <psa10 value="0.0027270695" flag="0"/>
      <psa30 value="0.0002556640" flag="0"/>
    </comp>
    <comp name="--.HHE">
      <acc value="0.0533847325" flag="0"/>
      <vel value="0.0204446320" flag="0"/>
      <psa03 value="0.1303371257" flag="0"/>
      <psa10 value="0.0060680943" flag="0"/>
      <psa30 value="0.0004565248" flag="0"/>
    </comp>
  </station>
  <station code="RMGR" name="RMGR" netid="RO" insttype="200" lat="44.6627" lon="22.6922">
    <comp name="--.HNE">
      <acc value="0.0364104970" flag="0"/>
      <vel value="0.0198819141" flag="0"/>
      <psa03 value="0.0772245869" flag="0"/>
      <psa10 value="0.0087045981" flag="0"/>
      <psa30 value="0.0005154853" flag="0"/>
    </comp>
    <comp name="--.HNN">
      <acc value="0.0343489653" flag="0"/>
      <vel value="0.0175266130" flag="0"/>
      <psa03 value="0.1054973939" flag="0"/>
      <psa10 value="0.0099872003" flag="0"/>
      <psa30 value="0.0006212487" flag="0"/>
    </comp>
    <comp name="--.HNZ">
      <acc value="0.0403667666" flag="0"/>
      <vel value="0.0070514697" flag="0"/>
      <psa03 value="0.0344971848" flag="0"/>
      <psa10 value="0.0063945921" flag="0"/>
      <psa30 value="0.0003057158" flag="0"/>
    </comp>
  </station>
  <station code="SURR" name="SURR" netid="RO" insttype="Linear" lat="45.754" lon="22.1246">
    <comp name="--.HHE">
      <acc value="0.2079406509" flag="0"/>
      <vel value="0.0246619790" flag="0"/>
      <psa03 value="0.0732508433" flag="0"/>
      <psa10 value="0.0028980216" flag="0"/>
      <psa30 value="0.0003121497" flag="0"/>
    </comp>
    <comp name="--.HHZ">
      <acc value="0.0714288711" flag="0"/>
      <vel value="0.0139834567" flag="0"/>
      <psa03 value="0.0362914816" flag="0"/>
      <psa10 value="0.0019481579" flag="0"/>
      <psa30 value="0.0002084962" flag="0"/>
    </comp>
    <comp name="--.HHN">
      <acc value="0.1730841683" flag="0"/>
      <vel value="0.0224424172" flag="0"/>
      <psa03 value="0.0591442788" flag="0"/>
      <psa10 value="0.0051038847" flag="0"/>
      <psa30 value="0.0003770994" flag="0"/>
    </comp>
  </station>
  <station code="TNR" name="TNR" netid="RO" insttype="CMG40T.1to100/Quanterra" lat="45.652" lon="24.273">
    <comp name="--.HHN">
      <acc value="0.0085879812" flag="0"/>
      <vel value="0.0033457244" flag="0"/>
      <psa03 value="0.0121978716" flag="0"/>
      <psa10 value="0.0035470325" flag="0"/>
      <psa30 value="0.0002013798" flag="0"/>
    </comp>
    <comp name="--.HHE">
      <acc value="0.0084381117" flag="0"/>
      <vel value="0.0020583268" flag="0"/>
      <psa03 value="0.0090626824" flag="0"/>
      <psa10 value="0.0020633489" flag="0"/>
      <psa30 value="0.0001003372" flag="0"/>
    </comp>
    <comp name="--.HHZ">
      <acc value="0.0138586553" flag="0"/>
      <vel value="0.0036099013" flag="0"/>
      <psa03 value="0.0142862539" flag="0"/>
      <psa10 value="0.0023824952" flag="0"/>
      <psa30 value="0.0001278104" flag="0"/>
    </comp>
  </station>
  <station code="RO03A" name="RO03A" netid="Y8" insttype="" lat="44.7765" lon="23.8757">
    <comp name="00.HHE">
      <acc value="0.0000000001" flag="0"/>
      <vel value="0.0000000000" flag="0"/>
      <psa03 value="0.0000000001" flag="0"/>
      <psa10 value="0.0000000000" flag="0"/>
      <psa30 value="0.0000000000" flag="0"/>
    </comp>
    <comp name="00.HHN">
      <acc value="0.0000000000" flag="0"/>
      <vel value="-100.0000000000" flag="0"/>
      <psa03 value="0.0000000000" flag="0"/>
      <psa10 value="0.0000000000" flag="0"/>
      <psa30 value="0.0000000000" flag="0"/>
    </comp>
    <comp name="00.HHZ">
      <acc value="0.0000000001" flag="0"/>
      <vel value="0.0000000000" flag="0"/>
      <psa03 value="0.0000000001" flag="0"/>
      <psa10 value="0.0000000000" flag="0"/>
      <psa30 value="0.0000000000" flag="0"/>
    </comp>
  </station>
  <station code="RO05A" name="RO05A" netid="Y8" insttype="" lat="44.9801" lon="24.3136">
    <comp name="00.HHZ">
      <acc value="0.0000000000" flag="0"/>
      <vel value="0.0000000000" flag="0"/>
      <psa03 value="0.0000000000" flag="0"/>
      <psa10 value="0.0000000000" flag="0"/>
      <psa30 value="0.0000000000" flag="0"/>
    </comp>
    <comp name="00.HHN">
      <acc value="0.0000000000" flag="0"/>
      <vel value="0.0000000000" flag="0"/>
      <psa03 value="0.0000000001" flag="0"/>
      <psa10 value="0.0000000000" flag="0"/>
      <psa30 value="0.0000000000" flag="0"/>
    </comp>
    <comp name="00.HHE">
      <acc value="0.0000000001" flag="0"/>
      <vel value="0.0000000000" flag="0"/>
      <psa03 value="0.0000000002" flag="0"/>
      <psa10 value="0.0000000000" flag="0"/>
      <psa30 value="0.0000000000" flag="0"/>
    </comp>
  </station>
</stationlist>
