<?xml version="1.0" encoding="UTF-8" standalone="yes"?>
<!DOCTYPE earthquake SYSTEM "stationlist.dtd">
<stationlist created="" xmlns="ch.ethz.sed.shakemap.usgs.xml">
  <station code="LAM2" name="LAM2" netid="HI" insttype="CMG-5TD,ACCELEROMETER,GURALP" lat="38.902" lon="22.4313">
    <comp name="--.HNZ">
      <acc value="0.0156718467" flag="0"/>
      <vel value="0.0068506168" flag="0"/>
      <psa03 value="0.0337918648" flag="0"/>
      <psa10 value="0.0042503493" flag="0"/>
      <psa30 value="0.0004937784" flag="0"/>
    </comp>
    <comp name="--.HNE">
      <acc value="0.0172641945" flag="0"/>
      <vel value="0.0075021583" flag="0"/>
      <psa03 value="0.0355258572" flag="0"/>
      <psa10 value="0.0082199462" flag="0"/>
      <psa30 value="0.0008325018" flag="0"/>
    </comp>
    <comp name="--.HNN">
      <acc value="0.0261299606" flag="0"/>
      <vel value="0.0168375628" flag="0"/>
      <psa03 value="0.0418482555" flag="0"/>
      <psa10 value="0.0173272407" flag="0"/>
      <psa30 value="0.0015354502" flag="0"/>
    </comp>
  </station>
  <station code="VOL2" name="VOL2" netid="HI" insttype="CMG-5TD,ACCELEROMETER,GURALP" lat="39.366" lon="22.9506">
    <comp name="--.HNZ">
      <acc value="0.0203289357" flag="0"/>
      <vel value="0.0060542453" flag="0"/>
      <psa03 value="0.0326752483" flag="0"/>
      <psa10 value="0.0037399891" flag="0"/>
      <psa30 value="0.0004871723" flag="0"/>
    </comp>
    <comp name="--.HNN">
      <acc value="0.0273544913" flag="0"/>
      <vel value="0.0129599560" flag="0"/>
      <psa03 value="0.0954106080" flag="0"/>
      <psa10 value="0.0098250598" flag="0"/>
      <psa30 value="0.0007372342" flag="0"/>
    </comp>
    <comp name="--.HNE">
      <acc value="0.0330974174" flag="0"/>
      <vel value="0.0120797364" flag="0"/>
      <psa03 value="0.0602696023" flag="0"/>
      <psa10 value="0.0113204062" flag="0"/>
      <psa30 value="0.0007656123" flag="0"/>
    </comp>
  </station>
  <station code="EVR" name="EVR" netid="HL" insttype="DR24" lat="38.9166" lon="21.8105">
    <comp name="--.HHE">
      <acc value="0.0235325617" flag="0"/>
      <vel value="0.0089780975" flag="0"/>
      <psa03 value="0.0351237224" flag="0"/>
      <psa10 value="0.0120843822" flag="0"/>
      <psa30 value="0.0007814613" flag="0"/>
    </comp>
    <comp name="--.HHN">
      <acc value="0.0378842353" flag="0"/>
      <vel value="0.0111049815" flag="0"/>
      <psa03 value="0.0419542395" flag="0"/>
      <psa10 value="0.0073710972" flag="0"/>
      <psa30 value="0.0018697434" flag="0"/>
    </comp>
    <comp name="--.HHZ">
      <acc value="0.0153408168" flag="0"/>
      <vel value="0.0079907015" flag="0"/>
      <psa03 value="0.0246052357" flag="0"/>
      <psa10 value="0.0117983943" flag="0"/>
      <psa30 value="0.0006704450" flag="0"/>
    </comp>
  </station>
  <station code="JAN" name="JAN" netid="HL" insttype="CMG3EPSC60_DR24" lat="39.6562" lon="20.8487">
    <comp name="--.HHN">
      <acc value="0.0098723765" flag="0"/>
      <vel value="0.0063516355" flag="0"/>
      <psa03 value="0.0205517671" flag="0"/>
      <psa10 value="0.0140994653" flag="0"/>
      <psa30 value="0.0006525004" flag="0"/>
    </comp>
    <comp name="--.HHZ">
      <acc value="0.0059886639" flag="0"/>
      <vel value="0.0033049991" flag="0"/>
      <psa03 value="0.0104521156" flag="0"/>
      <psa10 value="0.0067497712" flag="0"/>
      <psa30 value="0.0004279528" flag="0"/>
    </comp>
    <comp name="--.HHE">
      <acc value="0.0106127597" flag="0"/>
      <vel value="0.0068667982" flag="0"/>
      <psa03 value="0.0145788932" flag="0"/>
      <psa10 value="0.0091859729" flag="0"/>
      <psa30 value="0.0007696067" flag="0"/>
    </comp>
  </station>
  <station code="KZN" name="KZN" netid="HL" insttype="120" lat="40.3033" lon="21.7821">
    <comp name="--.HHZ">
      <acc value="0.0266578372" flag="0"/>
      <vel value="0.0153288066" flag="0"/>
      <psa03 value="0.0777016322" flag="0"/>
      <psa10 value="0.0138008898" flag="0"/>
      <psa30 value="0.0009125114" flag="0"/>
    </comp>
    <comp name="--.HHN">
      <acc value="0.0546441593" flag="0"/>
      <vel value="0.0237508472" flag="0"/>
      <psa03 value="0.1492792192" flag="0"/>
      <psa10 value="0.0163757061" flag="0"/>
      <psa30 value="0.0008638439" flag="0"/>
    </comp>
    <comp name="--.HHE">
      <acc value="0.0631166786" flag="0"/>
      <vel value="0.0322928656" flag="0"/>
      <psa03 value="0.1818310750" flag="0"/>
      <psa10 value="0.0274090827" flag="0"/>
      <psa30 value="0.0014939670" flag="0"/>
    </comp>
  </station>
  <station code="NEO" name="NEO" netid="HL" insttype="120" lat="39.3057" lon="23.2219">
    <comp name="--.HHZ">
      <acc value="0.0180151873" flag="0"/>
      <vel value="0.0081517785" flag="0"/>
      <psa03 value="0.0368493218" flag="0"/>
      <psa10 value="0.0076057921" flag="0"/>
      <psa30 value="0.0004804694" flag="0"/>
    </comp>
    <comp name="--.HHN">
      <acc value="0.0263330505" flag="0"/>
      <vel value="0.0156969646" flag="0"/>
      <psa03 value="0.0684339228" flag="0"/>
      <psa10 value="0.0236552857" flag="0"/>
      <psa30 value="0.0011586555" flag="0"/>
    </comp>
    <comp name="--.HHE">
      <acc value="0.0347479076" flag="0"/>
      <vel value="0.0129805967" flag="0"/>
      <psa03 value="0.0918568943" flag="0"/>
      <psa10 value="0.0112686547" flag="0"/>
      <psa30 value="0.0005678485" flag="0"/>
    </comp>
  </station>
  <station code="PENT" name="PENT" netid="HL" insttype="30" lat="40.1959" lon="21.1384">
    <comp name="--.HHN">
      <acc value="0.0003773674" flag="0"/>
      <vel value="0.0003004850" flag="0"/>
      <psa03 value="0.0010661194" flag="0"/>
      <psa10 value="0.0003617401" flag="0"/>
      <psa30 value="0.0001867735" flag="0"/>
    </comp>
    <comp name="--.HHE">
      <acc value="0.0080048842" flag="0"/>
      <vel value="0.0048368072" flag="0"/>
      <psa03 value="0.0219364403" flag="0"/>
      <psa10 value="0.0072967443" flag="0"/>
      <psa30 value="0.0007351582" flag="0"/>
    </comp>
    <comp name="--.HHZ">
      <acc value="0.0072904110" flag="0"/>
      <vel value="0.0072726795" flag="0"/>
      <psa03 value="0.0215379545" flag="0"/>
      <psa10 value="0.0097487048" flag="0"/>
      <psa30 value="0.0012241300" flag="0"/>
    </comp>
  </station>
  <station code="PLG" name="PLG" netid="HL" insttype="CMG3ESPC-120s" lat="40.3733" lon="23.4444">
    <comp name="--.HHZ">
      <acc value="0.0055361588" flag="0"/>
      <vel value="0.0030938164" flag="0"/>
      <psa03 value="0.0118468939" flag="0"/>
      <psa10 value="0.0038562955" flag="0"/>
      <psa30 value="0.0006262068" flag="0"/>
    </comp>
  </station>
  <station code="TETR" name="TETR" netid="HL" insttype="60" lat="39.3445" lon="21.2747">
    <comp name="--.HHE">
      <acc value="0.1069097909" flag="0"/>
      <vel value="0.0435039451" flag="0"/>
      <psa03 value="0.1754395620" flag="0"/>
      <psa10 value="0.0324367273" flag="0"/>
      <psa30 value="0.0017142679" flag="0"/>
    </comp>
    <comp name="--.HHN">
      <acc value="0.0976339678" flag="0"/>
      <vel value="0.0280541675" flag="0"/>
      <psa03 value="0.0943810238" flag="0"/>
      <psa10 value="0.0230908932" flag="0"/>
      <psa30 value="0.0013519970" flag="0"/>
    </comp>
    <comp name="--.HHZ">
      <acc value="0.0326555675" flag="0"/>
      <vel value="0.0111864736" flag="0"/>
      <psa03 value="0.0656697759" flag="0"/>
      <psa10 value="0.0134156815" flag="0"/>
      <psa30 value="0.0009821500" flag="0"/>
    </comp>
  </station>
  <station code="THL" name="THL" netid="HL" insttype="120" lat="39.5647" lon="22.0144">
    <comp name="--.HHN">
      <acc value="0.3178144438" flag="0"/>
      <vel value="0.0709653630" flag="0"/>
      <psa03 value="0.1823111350" flag="0"/>
      <psa10 value="0.0303293558" flag="0"/>
      <psa30 value="0.0039004154" flag="0"/>
    </comp>
    <comp name="--.HHZ">
      <acc value="0.2882979652" flag="0"/>
      <vel value="0.0666234604" flag="0"/>
      <psa03 value="0.1644718058" flag="0"/>
      <psa10 value="0.0283744667" flag="0"/>
      <psa30 value="0.0030592209" flag="0"/>
    </comp>
    <comp name="--.HHE">
      <acc value="0.3211120796" flag="0"/>
      <vel value="0.0733065267" flag="0"/>
      <psa03 value="0.1928256768" flag="0"/>
      <psa10 value="0.0263829825" flag="0"/>
      <psa30 value="0.0029461676" flag="0"/>
    </comp>
  </station>
  <station code="PRMD" name="PRMD" netid="HP" insttype="120P," lat="39.5299" lon="21.0965">
    <comp name="--.HHE">
      <acc value="0.0219726320" flag="0"/>
      <vel value="0.0136678813" flag="0"/>
      <psa03 value="0.0493398187" flag="0"/>
      <psa10 value="0.0167782136" flag="0"/>
      <psa30 value="0.0012196573" flag="0"/>
    </comp>
    <comp name="--.HHZ">
      <acc value="0.0184373999" flag="0"/>
      <vel value="0.0111456507" flag="0"/>
      <psa03 value="0.0398819429" flag="0"/>
      <psa10 value="0.0096651594" flag="0"/>
      <psa30 value="0.0010168567" flag="0"/>
    </comp>
    <comp name="--.HHN">
      <acc value="0.0206898275" flag="0"/>
      <vel value="0.0154426536" flag="0"/>
      <psa03 value="0.0439927865" flag="0"/>
      <psa10 value="0.0156940042" flag="0"/>
      <psa30 value="0.0010600984" flag="0"/>
    </comp>
  </station>
  <station code="AGG" name="AGG" netid="HT" insttype="120P," lat="39.0211" lon="22.336">
    <comp name="--.HHN">
      <acc value="0.0245622407" flag="0"/>
      <vel value="0.0110790771" flag="0"/>
      <psa03 value="0.0634785120" flag="0"/>
      <psa10 value="0.0093743618" flag="0"/>
      <psa30 value="0.0011114071" flag="0"/>
    </comp>
    <comp name="--.HHE">
      <acc value="0.0403794391" flag="0"/>
      <vel value="0.0149020074" flag="0"/>
      <psa03 value="0.0744922503" flag="0"/>
      <psa10 value="0.0074913582" flag="0"/>
      <psa30 value="0.0013203559" flag="0"/>
    </comp>
    <comp name="--.HHZ">
      <acc value="0.0181518055" flag="0"/>
      <vel value="0.0082721940" flag="0"/>
      <psa03 value="0.0423340605" flag="0"/>
      <psa10 value="0.0066890946" flag="0"/>
      <psa30 value="0.0007047543" flag="0"/>
    </comp>
  </station>
  <station code="KPRO" name="KPRO" netid="HT" insttype="100" lat="39.9549" lon="21.3632">
    <comp name="--.HHZ">
      <acc value="0.0207735335" flag="0"/>
      <vel value="0.0136833402" flag="0"/>
      <psa03 value="0.0429728138" flag="0"/>
      <psa10 value="0.0227617081" flag="0"/>
      <psa30 value="0.0015547597" flag="0"/>
    </comp>
    <comp name="--.HHE">
      <acc value="0.0310493676" flag="0"/>
      <vel value="0.0224152405" flag="0"/>
      <psa03 value="0.0995923671" flag="0"/>
      <psa10 value="0.0223959814" flag="0"/>
      <psa30 value="0.0015473903" flag="0"/>
    </comp>
    <comp name="--.HHN">
      <acc value="0.0264507233" flag="0"/>
      <vel value="0.0222486560" flag="0"/>
      <psa03 value="0.0837091351" flag="0"/>
      <psa10 value="0.0253568489" flag="0"/>
      <psa30 value="0.0021553957" flag="0"/>
    </comp>
  </station>
  <station code="LIT" name="LIT" netid="HT" insttype="100" lat="40.1033" lon="22.4892">
    <comp name="--.HHE">
      <acc value="0.1535284815" flag="0"/>
      <vel value="0.0538866030" flag="0"/>
      <psa03 value="0.2367421553" flag="0"/>
      <psa10 value="0.0304706459" flag="0"/>
      <psa30 value="0.0019102055" flag="0"/>
    </comp>
    <comp name="--.HHN">
      <acc value="0.1389979924" flag="0"/>
      <vel value="0.0456399949" flag="0"/>
      <psa03 value="0.2304399198" flag="0"/>
      <psa10 value="0.0202526340" flag="0"/>
      <psa30 value="0.0016703680" flag="0"/>
    </comp>
    <comp name="--.HHZ">
      <acc value="0.0688853295" flag="0"/>
      <vel value="0.0248499835" flag="0"/>
      <psa03 value="0.1268146939" flag="0"/>
      <psa10 value="0.0160075700" flag="0"/>
      <psa30 value="0.0019838803" flag="0"/>
    </comp>
  </station>
  <station code="PAIG" name="PAIG" netid="HT" insttype="100" lat="39.9363" lon="23.6768">
    <comp name="--.HHE">
      <acc value="0.0020403900" flag="0"/>
      <vel value="0.0012788387" flag="0"/>
      <psa03 value="0.0080197454" flag="0"/>
      <psa10 value="0.0014355712" flag="0"/>
      <psa30 value="0.0001248753" flag="0"/>
    </comp>
    <comp name="--.HHZ">
      <acc value="0.0018849273" flag="0"/>
      <vel value="0.0010060616" flag="0"/>
      <psa03 value="0.0025056471" flag="0"/>
      <psa10 value="0.0013902708" flag="0"/>
      <psa30 value="0.0001084362" flag="0"/>
    </comp>
    <comp name="--.HHN">
      <acc value="0.0018036872" flag="0"/>
      <vel value="0.0012192782" flag="0"/>
      <psa03 value="0.0049075026" flag="0"/>
      <psa10 value="0.0014375237" flag="0"/>
      <psa30 value="0.0002292581" flag="0"/>
    </comp>
  </station>
  <station code="THE" name="THE" netid="HT" insttype="30s-100Hz," lat="40.6319" lon="22.9628">
    <comp name="--.HHE">
      <acc value="0.0029463232" flag="0"/>
      <vel value="0.0023061676" flag="0"/>
      <psa03 value="0.0068495831" flag="0"/>
      <psa10 value="0.0039113666" flag="0"/>
      <psa30 value="0.0001802394" flag="0"/>
    </comp>
    <comp name="--.HHZ">
      <acc value="0.0025964949" flag="0"/>
      <vel value="0.0018579889" flag="0"/>
      <psa03 value="0.0055432029" flag="0"/>
      <psa10 value="0.0049376521" flag="0"/>
      <psa30 value="0.0003149391" flag="0"/>
    </comp>
    <comp name="--.HHN">
      <acc value="0.0029933742" flag="0"/>
      <vel value="0.0022620168" flag="0"/>
      <psa03 value="0.0082710736" flag="0"/>
      <psa10 value="0.0021979349" flag="0"/>
      <psa30 value="0.0002924529" flag="0"/>
    </comp>
  </station>
  <station code="TYRN" name="TYRN" netid="HT" insttype="120P," lat="39.711" lon="22.2325">
    <comp name="--.HHE">
      <acc value="1.7584716372" flag="0"/>
      <vel value="0.3611140307" flag="0"/>
      <psa03 value="1.8314788539" flag="0"/>
      <psa10 value="0.1738911849" flag="0"/>
      <psa30 value="0.0185388825" flag="0"/>
    </comp>
    <comp name="--.HHN">
      <acc value="1.4709874123" flag="0"/>
      <vel value="0.4445977491" flag="0"/>
      <psa03 value="1.5783572355" flag="0"/>
      <psa10 value="0.1145491257" flag="0"/>
      <psa30 value="0.0232215294" flag="0"/>
    </comp>
    <comp name="--.HHZ">
      <acc value="1.9084857748" flag="0"/>
      <vel value="0.5047163261" flag="0"/>
      <psa03 value="2.1374357631" flag="0"/>
      <psa10 value="0.1853855722" flag="0"/>
      <psa30 value="0.0230972386" flag="0"/>
    </comp>
  </station>
  <station code="XOR" name="XOR" netid="HT" insttype="Compact," lat="39.366" lon="23.1918">
    <comp name="--.HHN">
      <acc value="0.0685905043" flag="0"/>
      <vel value="0.0278311526" flag="0"/>
      <psa03 value="0.1317455647" flag="0"/>
      <psa10 value="0.0258784341" flag="0"/>
      <psa30 value="0.0025022464" flag="0"/>
    </comp>
    <comp name="--.HHE">
      <acc value="0.0321193162" flag="0"/>
      <vel value="0.0163904432" flag="0"/>
      <psa03 value="0.0654368298" flag="0"/>
      <psa10 value="0.0160121033" flag="0"/>
      <psa30 value="0.0016157045" flag="0"/>
    </comp>
    <comp name="--.HHZ">
      <acc value="0.0250227227" flag="0"/>
      <vel value="0.0123416381" flag="0"/>
      <psa03 value="0.0781984257" flag="0"/>
      <psa10 value="0.0126352786" flag="0"/>
      <psa30 value="0.0007463204" flag="0"/>
    </comp>
  </station>
  <station code="THL" name="THL" netid="MN" insttype="" lat="39.5647" lon="22.0144">
    <comp name="--.HHN">
      <acc value="0.3178144438" flag="0"/>
      <vel value="0.0709653630" flag="0"/>
      <psa03 value="0.1823111350" flag="0"/>
      <psa10 value="0.0303293558" flag="0"/>
      <psa30 value="0.0039004154" flag="0"/>
    </comp>
    <comp name="--.HHZ">
      <acc value="0.2882979652" flag="0"/>
      <vel value="0.0666234604" flag="0"/>
      <psa03 value="0.1644718058" flag="0"/>
      <psa10 value="0.0283744667" flag="0"/>
      <psa30 value="0.0030592209" flag="0"/>
    </comp>
    <comp name="--.HHE">
      <acc value="0.3211120796" flag="0"/>
      <vel value="0.0733065267" flag="0"/>
      <psa03 value="0.1928256768" flag="0"/>
      <psa10 value="0.0263829825" flag="0"/>
      <psa30 value="0.0029461676" flag="0"/>
    </comp>
  </station>
</stationlist>
