<stationlist created="1778070011">
	<station code="ROD3" name="ROD3" netid="CL" source="Corinth Riff Laboratory (CRLNET)" insttype="" lat="38.30811" lon="21.89204">
		<comp name="00.HNE" depth="0.0">
			<acc value="0.00988679496444122" flag="0"/>
			<vel value="0.0054321698052586" flag="0"/>
			<psa03 value="0.0399547905101167" flag="0"/>
			<psa10 value="0.00893546608373505" flag="0"/>
			<psa30 value="0.000803570030864161" flag="0"/>
		</comp>
		<comp name="00.HNN" depth="0.0">
			<acc value="0.00844864333102063" flag="0"/>
			<vel value="0.00515787147135011" flag="0"/>
			<psa03 value="0.032438099798247" flag="0"/>
			<psa10 value="0.00647911894039193" flag="0"/>
			<psa30 value="0.00100490996064638" flag="0"/>
		</comp>
		<comp name="00.HNZ" depth="0.0">
			<acc value="0.00368716646875874" flag="0"/>
			<vel value="0.00323118052375117" flag="0"/>
			<psa03 value="0.00809833939790719" flag="0"/>
			<psa10 value="0.00396236981811415" flag="0"/>
			<psa30 value="0.000711401085230521" flag="0"/>
		</comp>
	</station>
	<station code="STC" name="STC" netid="EG" source="EUROSEISTEST Strong Motion Network" insttype="" lat="40.64865" lon="23.304856">
		<comp name="--.EN1" depth="0.0">
			<acc value="0.0150878721989871" flag="0"/>
			<vel value="0.0107843908563131" flag="0"/>
			<psa03 value="0.0374557963668643" flag="0"/>
			<psa10 value="0.0142124318163591" flag="0"/>
			<psa30 value="0.000955296304525814" flag="0"/>
		</comp>
		<comp name="--.EN2" depth="0.0">
			<acc value="0.0142028403925543" flag="0"/>
			<vel value="0.00917560715679761" flag="0"/>
			<psa03 value="0.0344260435772493" flag="0"/>
			<psa10 value="0.0104153774676378" flag="0"/>
			<psa30 value="0.000556698857735056" flag="0"/>
		</comp>
		<comp name="--.EN3" depth="0.0">
			<acc value="0.01208223780203" flag="0"/>
			<vel value="0.00625337278394706" flag="0"/>
			<psa03 value="0.0198630098373293" flag="0"/>
			<psa10 value="0.00513621274890421" flag="0"/>
			<psa30 value="0.000767942070308191" flag="0"/>
		</comp>
	</station>
	<station code="TST" name="TST" netid="EG" source="EUROSEISTEST Strong Motion Network" insttype="" lat="40.6638" lon="23.2906">
		<comp name="00.EN1" depth="0.0">
			<acc value="0.0098228373248249" flag="0"/>
			<vel value="0.00892218292371027" flag="0"/>
			<psa03 value="0.0288218025321372" flag="0"/>
			<psa10 value="0.0115971023136248" flag="0"/>
			<psa30 value="0.000686289890419427" flag="0"/>
		</comp>
		<comp name="00.EN2" depth="0.0">
			<acc value="0.00742930090938092" flag="0"/>
			<vel value="0.00452266798799273" flag="0"/>
			<psa03 value="0.0123683870532948" flag="0"/>
			<psa10 value="0.00586203442475749" flag="0"/>
			<psa30 value="0.000361657109050381" flag="0"/>
		</comp>
		<comp name="00.EN3" depth="0.0">
			<acc value="0.0117484763934071" flag="0"/>
			<vel value="0.00989299218018671" flag="0"/>
			<psa03 value="0.0374800974558596" flag="0"/>
			<psa10 value="0.0172922849040248" flag="0"/>
			<psa30 value="0.000580075979269297" flag="0"/>
		</comp>
	</station>
	<station code="KRK1" name="KRK1" netid="HI" source="ITSAK Strong Motion Network" insttype="" lat="39.618861" lon="19.9202">
		<comp name="--.HNE" depth="0.0">
			<acc value="0.0115099167909699" flag="0"/>
			<vel value="0.00668887978932777" flag="0"/>
			<psa03 value="0.0207156416642598" flag="0"/>
			<psa10 value="0.00618516264290989" flag="0"/>
			<psa30 value="0.000403574703696811" flag="0"/>
		</comp>
		<comp name="--.HNN" depth="0.0">
			<acc value="0.00957455071757695" flag="0"/>
			<vel value="0.00706198540815788" flag="0"/>
			<psa03 value="0.0151676080435941" flag="0"/>
			<psa10 value="0.00669253926596109" flag="0"/>
			<psa30 value="0.000652341372494402" flag="0"/>
		</comp>
		<comp name="--.HNZ" depth="0.0">
			<acc value="0.00418931404388784" flag="0"/>
			<vel value="0.00276929360357858" flag="0"/>
			<psa03 value="0.0161519365891961" flag="0"/>
			<psa10 value="0.00307244732847672" flag="0"/>
			<psa30 value="0.000366886094269828" flag="0"/>
		</comp>
	</station>
	<station code="LAM2" name="LAM2" netid="HI" source="ITSAK Strong Motion Network" insttype="" lat="38.90203" lon="22.431301">
		<comp name="--.HNE" depth="0.0">
			<acc value="0.0171490272323567" flag="0"/>
			<vel value="0.0078340442401815" flag="0"/>
			<psa03 value="0.0360174763277088" flag="0"/>
			<psa10 value="0.00825493712107114" flag="0"/>
			<psa30 value="0.000860840055335548" flag="0"/>
		</comp>
		<comp name="--.HNN" depth="0.0">
			<acc value="0.0259831734242823" flag="0"/>
			<vel value="0.0167893005990009" flag="0"/>
			<psa03 value="0.0423261274608851" flag="0"/>
			<psa10 value="0.017339394752845" flag="0"/>
			<psa30 value="0.00153778964147" flag="0"/>
		</comp>
		<comp name="--.HNZ" depth="0.0">
			<acc value="0.0155679988857726" flag="0"/>
			<vel value="0.00670523471174368" flag="0"/>
			<psa03 value="0.0341383036497414" flag="0"/>
			<psa10 value="0.00425632611559619" flag="0"/>
			<psa30 value="0.000546749764875281" flag="0"/>
		</comp>
	</station>
	<station code="LMS2" name="LMS2" netid="HI" source="ITSAK Strong Motion Network" insttype="" lat="40.834985" lon="21.141815">
		<comp name="--.HNE" depth="0.0">
			<acc value="0.00831119017827009" flag="0"/>
			<vel value="0.00403734489526443" flag="0"/>
			<psa03 value="0.0219684234495714" flag="0"/>
			<psa10 value="0.00419189733806588" flag="0"/>
			<psa30 value="0.000382098444520041" flag="0"/>
		</comp>
		<comp name="--.HNN" depth="0.0">
			<acc value="0.00977090155897826" flag="0"/>
			<vel value="0.00486982809948999" flag="0"/>
			<psa03 value="0.02666635514449" flag="0"/>
			<psa10 value="0.00567375922126304" flag="0"/>
			<psa30 value="0.000552566251735656" flag="0"/>
		</comp>
		<comp name="--.HNZ" depth="0.0">
			<acc value="0.00490426090836629" flag="0"/>
			<vel value="0.0032258329409081" flag="0"/>
			<psa03 value="0.0165546164487606" flag="0"/>
			<psa10 value="0.00756232776262029" flag="0"/>
			<psa30 value="0.000383440710718589" flag="0"/>
		</comp>
	</station>
	<station code="MSL1" name="MSL1" netid="HI" source="ITSAK Strong Motion Network" insttype="" lat="38.3727" lon="21.4243">
		<comp name="--.HNE" depth="0.0">
			<acc value="0.0140259325194311" flag="0"/>
			<vel value="0.0181842890810914" flag="0"/>
			<psa03 value="0.034406756889451" flag="0"/>
			<psa10 value="0.0270399525697525" flag="0"/>
			<psa30 value="0.00301428245987297" flag="0"/>
		</comp>
		<comp name="--.HNN" depth="0.0">
			<acc value="0.0108987268626343" flag="0"/>
			<vel value="0.0169767392447982" flag="0"/>
			<psa03 value="0.0298877940210055" flag="0"/>
			<psa10 value="0.0303862222027331" flag="0"/>
			<psa30 value="0.00377266286205267" flag="0"/>
		</comp>
		<comp name="--.HNZ" depth="0.0">
			<acc value="0.00583700003339006" flag="0"/>
			<vel value="0.0062690742146807" flag="0"/>
			<psa03 value="0.0120356535803151" flag="0"/>
			<psa10 value="0.00961599504639896" flag="0"/>
			<psa30 value="0.00113421493777319" flag="0"/>
		</comp>
	</station>
	<station code="SKO1" name="SKO1" netid="HI" source="ITSAK Strong Motion Network" insttype="" lat="39.123383" lon="23.728705">
		<comp name="--.HNE" depth="0.0">
			<acc value="0.0040827397041031" flag="0"/>
			<vel value="0.0018486950170872" flag="0"/>
			<psa03 value="0.0157045145230134" flag="0"/>
			<psa10 value="0.00223084642198703" flag="0"/>
			<psa30 value="0.000377624223858214" flag="0"/>
		</comp>
		<comp name="--.HNN" depth="0.0">
			<acc value="0.00393162847567" flag="0"/>
			<vel value="0.00246487258287794" flag="0"/>
			<psa03 value="0.0114540048942776" flag="0"/>
			<psa10 value="0.00335432323017183" flag="0"/>
			<psa30 value="0.000277849103099468" flag="0"/>
		</comp>
		<comp name="--.HNZ" depth="0.0">
			<acc value="0.00256566802376585" flag="0"/>
			<vel value="0.00166255476849936" flag="0"/>
			<psa03 value="0.00702452643906867" flag="0"/>
			<psa10 value="0.00221473922760445" flag="0"/>
			<psa30 value="0.000239370805407754" flag="0"/>
		</comp>
	</station>
	<station code="VAS2" name="VAS2" netid="HI" source="ITSAK Strong Motion Network" insttype="" lat="38.630558" lon="20.608081">
		<comp name="--.HNE" depth="0.0">
			<acc value="0.0201024098028586" flag="0"/>
			<vel value="0.0188883419623236" flag="0"/>
			<psa03 value="0.0350778899887251" flag="0"/>
			<psa10 value="0.0523322745489954" flag="0"/>
			<psa30 value="0.00186082837325392" flag="0"/>
		</comp>
		<comp name="--.HNN" depth="0.0">
			<acc value="0.0254532295336563" flag="0"/>
			<vel value="0.0372657625198438" flag="0"/>
			<psa03 value="0.055480336206657" flag="0"/>
			<psa10 value="0.0534557513571802" flag="0"/>
			<psa30 value="0.00607330712636421" flag="0"/>
		</comp>
		<comp name="--.HNZ" depth="0.0">
			<acc value="0.00941667603426776" flag="0"/>
			<vel value="0.0111312134748354" flag="0"/>
			<psa03 value="0.0276954258967102" flag="0"/>
			<psa10 value="0.0187487742613206" flag="0"/>
			<psa30 value="0.000803122608797978" flag="0"/>
		</comp>
	</station>
	<station code="VOL2" name="VOL2" netid="HI" source="ITSAK Strong Motion Network" insttype="" lat="39.366" lon="22.9506">
		<comp name="--.HNE" depth="0.0">
			<acc value="0.0335201705706861" flag="0"/>
			<vel value="0.0124443549746598" flag="0"/>
			<psa03 value="0.0602677523148121" flag="0"/>
			<psa10 value="0.0113153040537609" flag="0"/>
			<psa30 value="0.000848312237482432" flag="0"/>
		</comp>
		<comp name="--.HNN" depth="0.0">
			<acc value="0.027241431176676" flag="0"/>
			<vel value="0.0129086216547715" flag="0"/>
			<psa03 value="0.0958825487829564" flag="0"/>
			<psa10 value="0.0098455225663507" flag="0"/>
			<psa30 value="0.000786120570283035" flag="0"/>
		</comp>
		<comp name="--.HNZ" depth="0.0">
			<acc value="0.0200356409409076" flag="0"/>
			<vel value="0.00595057407137681" flag="0"/>
			<psa03 value="0.032930264071048" flag="0"/>
			<psa10 value="0.0037408958953537" flag="0"/>
			<psa30 value="0.00056151469305931" flag="0"/>
		</comp>
	</station>
	<station code="JAN" name="JAN" netid="HL" source="National Observatory of Athens Seismic Network" insttype="" lat="39.65616" lon="20.84874">
		<comp name="00.HNE" depth="0.0">
			<acc value="0.0104178251864236" flag="0"/>
			<vel value="0.00698701582025063" flag="0"/>
			<psa03 value="0.0150333814237393" flag="0"/>
			<psa10 value="0.00975290619865088" flag="0"/>
			<psa30 value="0.000862629743600279" flag="0"/>
		</comp>
		<comp name="00.HNN" depth="0.0">
			<acc value="0.00983395145621709" flag="0"/>
			<vel value="0.00640529335290387" flag="0"/>
			<psa03 value="0.0205366728377867" flag="0"/>
			<psa10 value="0.0140132591128427" flag="0"/>
			<psa30 value="0.000656815593156229" flag="0"/>
		</comp>
		<comp name="00.HNZ" depth="0.0">
			<acc value="0.0058681054815652" flag="0"/>
			<vel value="0.00321731862655394" flag="0"/>
			<psa03 value="0.010380191935439" flag="0"/>
			<psa10 value="0.006829450418213" flag="0"/>
			<psa30 value="0.000472925123955132" flag="0"/>
		</comp>
	</station>
	<station code="KYMI" name="KYMI" netid="HL" source="National Observatory of Athens Seismic Network" insttype="" lat="38.633147" lon="24.100138">
		<comp name="--.HNE" depth="1.0">
			<acc value="0.000607128278514073" flag="0"/>
			<vel value="0.000656568214279038" flag="0"/>
			<psa03 value="0.0016559042918884" flag="0"/>
			<psa10 value="0.000974189847794346" flag="0"/>
			<psa30 value="0.000199341981469447" flag="0"/>
		</comp>
		<comp name="--.HNN" depth="1.0">
			<acc value="0.00046255423505258" flag="0"/>
			<vel value="0.000492005866343659" flag="0"/>
			<psa03 value="0.0016369738386175" flag="0"/>
			<psa10 value="0.000692858281271735" flag="0"/>
			<psa30 value="0.000165505781654221" flag="0"/>
		</comp>
		<comp name="--.HNZ" depth="1.0">
			<acc value="0.000378828929492396" flag="0"/>
			<vel value="0.000370478765772152" flag="0"/>
			<psa03 value="0.00116922581159179" flag="0"/>
			<psa10 value="0.000647075951541769" flag="0"/>
			<psa30 value="0.000141987062196083" flag="0"/>
		</comp>
	</station>
	<station code="ANX" name="ANX" netid="HP" source="University of Patras, Seismological Laboratory (PSLNET)" insttype="" lat="38.5933" lon="21.9209">
		<comp name="--.HNE" depth="0.0">
			<acc value="0.0267310945490359" flag="0"/>
			<vel value="0.0155150166710332" flag="0"/>
			<psa03 value="0.0780269657784559" flag="0"/>
			<psa10 value="0.0209071043680698" flag="0"/>
			<psa30 value="0.00134159522826577" flag="0"/>
		</comp>
		<comp name="--.HNN" depth="0.0">
			<acc value="0.0270417690272338" flag="0"/>
			<vel value="0.017573617194655" flag="0"/>
			<psa03 value="0.0695638947250923" flag="0"/>
			<psa10 value="0.0235415826393321" flag="0"/>
			<psa30 value="0.00144301569687255" flag="0"/>
		</comp>
		<comp name="--.HNZ" depth="0.0">
			<acc value="0.0156041689995785" flag="0"/>
			<vel value="0.0096485386065863" flag="0"/>
			<psa03 value="0.0615003761812505" flag="0"/>
			<psa10 value="0.0144091914132202" flag="0"/>
			<psa30 value="0.0011713319699939" flag="0"/>
		</comp>
	</station>
	<station code="LTK" name="LTK" netid="HP" source="University of Patras, Seismological Laboratory (PSLNET)" insttype="" lat="38.0228" lon="22.9673">
		<comp name="--.HNE" depth="0.0">
			<acc value="0.00085620241462916" flag="0"/>
			<vel value="0.000971058330391798" flag="0"/>
			<psa03 value="0.00237758295893316" flag="0"/>
			<psa10 value="0.00131462907991167" flag="0"/>
			<psa30 value="0.000226090237785114" flag="0"/>
		</comp>
		<comp name="--.HNN" depth="0.0">
			<acc value="0.00111573938908131" flag="0"/>
			<vel value="0.000809105690936046" flag="0"/>
			<psa03 value="0.0027062116625637" flag="0"/>
			<psa10 value="0.00140840497960519" flag="0"/>
			<psa30 value="0.000222546669708023" flag="0"/>
		</comp>
		<comp name="--.HNZ" depth="0.0">
			<acc value="0.000651246955486277" flag="0"/>
			<vel value="0.000550917938504186" flag="0"/>
			<psa03 value="0.00218740955358707" flag="0"/>
			<psa10 value="0.000712360745092048" flag="0"/>
			<psa30 value="0.000110420934636769" flag="0"/>
		</comp>
	</station>
	<station code="PDO" name="PDO" netid="HP" source="University of Patras, Seismological Laboratory (PSLNET)" insttype="" lat="38.5986" lon="21.1833">
		<comp name="--.HNE" depth="0.0">
			<acc value="0.00842322919467783" flag="0"/>
			<vel value="0.00779237779658242" flag="0"/>
			<psa03 value="0.030424643087449" flag="0"/>
			<psa10 value="0.00881494488432086" flag="0"/>
			<psa30 value="0.000924245810083254" flag="0"/>
		</comp>
		<comp name="--.HNN" depth="0.0">
			<acc value="0.012039456442834" flag="0"/>
			<vel value="0.00931245598339086" flag="0"/>
			<psa03 value="0.0381505897893306" flag="0"/>
			<psa10 value="0.0105117710407551" flag="0"/>
			<psa30 value="0.000737859244136064" flag="0"/>
		</comp>
		<comp name="--.HNZ" depth="0.0">
			<acc value="0.00628841777996931" flag="0"/>
			<vel value="0.00349419736085462" flag="0"/>
			<psa03 value="0.010698223027692" flag="0"/>
			<psa10 value="0.00369859110726008" flag="0"/>
			<psa30 value="0.000333707991933455" flag="0"/>
		</comp>
	</station>
	<station code="PVO" name="PVO" netid="HP" source="University of Patras, Seismological Laboratory (PSLNET)" insttype="" lat="38.616" lon="21.525">
		<comp name="--.HNE" depth="0.0">
			<acc value="0.00851414579902769" flag="0"/>
			<vel value="0.00420323356042499" flag="0"/>
			<psa03 value="0.0286508537076326" flag="0"/>
			<psa10 value="0.00558364598288487" flag="0"/>
			<psa30 value="0.000665766864205215" flag="0"/>
		</comp>
		<comp name="--.HNN" depth="0.0">
			<acc value="0.00598930433824315" flag="0"/>
			<vel value="0.00353289011027732" flag="0"/>
			<psa03 value="0.0205705658240339" flag="0"/>
			<psa10 value="0.00592730703001392" flag="0"/>
			<psa30 value="0.00045889498287396" flag="0"/>
		</comp>
		<comp name="--.HNZ" depth="0.0">
			<acc value="0.00501352999371676" flag="0"/>
			<vel value="0.00376212617751159" flag="0"/>
			<psa03 value="0.0111757416401326" flag="0"/>
			<psa10 value="0.00319789848570344" flag="0"/>
			<psa30 value="0.00104608627724878" flag="0"/>
		</comp>
	</station>
	<station code="SERG" name="SERG" netid="HP" source="University of Patras, Seismological Laboratory (PSLNET)" insttype="" lat="38.4133" lon="22.0566">
		<comp name="--.HNE" depth="0.0">
			<acc value="0.012687243535547" flag="0"/>
			<vel value="0.00720586013047458" flag="0"/>
			<psa03 value="0.0311752110380767" flag="0"/>
			<psa10 value="0.0168235732291738" flag="0"/>
			<psa30 value="0.000845298757312963" flag="0"/>
		</comp>
		<comp name="--.HNN" depth="0.0">
			<acc value="0.0115472699059541" flag="0"/>
			<vel value="0.00736248340339186" flag="0"/>
			<psa03 value="0.0332430641690191" flag="0"/>
			<psa10 value="0.00704114394124363" flag="0"/>
			<psa30 value="0.000983469108335624" flag="0"/>
		</comp>
		<comp name="--.HNZ" depth="0.0">
			<acc value="0.0076348037456939" flag="0"/>
			<vel value="0.00487778100715975" flag="0"/>
			<psa03 value="0.0181696463582285" flag="0"/>
			<psa10 value="0.00932988493408829" flag="0"/>
			<psa30 value="0.000853625767269916" flag="0"/>
		</comp>
	</station>
</stationlist>
