<?xml version="1.0" encoding="UTF-8" standalone="yes"?>
<!DOCTYPE earthquake SYSTEM "stationlist.dtd">
<stationlist created="" xmlns="ch.ethz.sed.shakemap.usgs.xml">
  <station code="CEYT" name="CEYT" netid="KO" insttype="CMG-3ESP" lat="37.0105" lon="35.7478">
    <comp name="--.HHE">
      <acc value="0.0240590269" flag="0"/>
      <vel value="0.0093635366" flag="0"/>
      <psa03 value="0.0602790923" flag="0"/>
      <psa10 value="0.0072495170" flag="0"/>
      <psa30 value="0.0005358798" flag="0"/>
    </comp>
    <comp name="--.HHN">
      <acc value="0.0169510929" flag="0"/>
      <vel value="0.0074998577" flag="0"/>
      <psa03 value="0.0387067840" flag="0"/>
      <psa10 value="0.0088418698" flag="0"/>
      <psa30 value="0.0008443011" flag="0"/>
    </comp>
    <comp name="--.HHZ">
      <acc value="0.0168605933" flag="0"/>
      <vel value="0.0055161549" flag="0"/>
      <psa03 value="0.0257523465" flag="0"/>
      <psa10 value="0.0042724248" flag="0"/>
      <psa30 value="0.0006073623" flag="0"/>
    </comp>
  </station>
  <station code="GAZ" name="GAZ" netid="KO" insttype="CMG-3T" lat="37.1721" lon="37.2096">
    <comp name="--.HHE">
      <acc value="0.0193781850" flag="0"/>
      <vel value="0.0049277878" flag="0"/>
      <psa03 value="0.0196373678" flag="0"/>
      <psa10 value="0.0041121116" flag="0"/>
      <psa30 value="0.0004479643" flag="0"/>
    </comp>
    <comp name="--.HHZ">
      <acc value="0.0082933667" flag="0"/>
      <vel value="0.0024978055" flag="0"/>
      <psa03 value="0.0172181426" flag="0"/>
      <psa10 value="0.0025183363" flag="0"/>
      <psa30 value="0.0005524186" flag="0"/>
    </comp>
    <comp name="--.HHN">
      <acc value="0.0145584510" flag="0"/>
      <vel value="0.0040769248" flag="0"/>
      <psa03 value="0.0162119583" flag="0"/>
      <psa10 value="0.0042758919" flag="0"/>
      <psa30 value="0.0003713361" flag="0"/>
    </comp>
  </station>
  <station code="TAHT" name="TAHT" netid="KO" insttype="CMG-3ESPC" lat="36.3755" lon="36.1855">
    <comp name="--.HHE">
      <acc value="0.2337581093" flag="0"/>
      <vel value="0.0744172867" flag="0"/>
      <psa03 value="0.5228230806" flag="0"/>
      <psa10 value="0.0226742351" flag="0"/>
      <psa30 value="0.0016591269" flag="0"/>
    </comp>
    <comp name="--.HHN">
      <acc value="0.1768311854" flag="0"/>
      <vel value="0.0575508507" flag="0"/>
      <psa03 value="0.2674630385" flag="0"/>
      <psa10 value="0.0199819133" flag="0"/>
      <psa30 value="0.0014663030" flag="0"/>
    </comp>
    <comp name="--.HHZ">
      <acc value="0.2050738915" flag="0"/>
      <vel value="0.0432116790" flag="0"/>
      <psa03 value="0.1414767733" flag="0"/>
      <psa10 value="0.0130370190" flag="0"/>
      <psa30 value="0.0008474850" flag="0"/>
    </comp>
  </station>
  <station code="ANDN" name="ANDN" netid="TU" insttype="T" lat="37.58" lon="36.3452">
    <comp name="--.HHZ">
      <acc value="0.0404776724" flag="0"/>
      <vel value="0.0118503983" flag="0"/>
      <psa03 value="0.0617314478" flag="0"/>
      <psa10 value="0.0146202261" flag="0"/>
      <psa30 value="0.0012754781" flag="0"/>
    </comp>
    <comp name="--.HHE">
      <acc value="0.0675005023" flag="0"/>
      <vel value="0.0218076746" flag="0"/>
      <psa03 value="0.1067678147" flag="0"/>
      <psa10 value="0.0261022953" flag="0"/>
      <psa30 value="0.0019967156" flag="0"/>
    </comp>
    <comp name="--.HHN">
      <acc value="0.0895639829" flag="0"/>
      <vel value="0.0295990596" flag="0"/>
      <psa03 value="0.1833890773" flag="0"/>
      <psa10 value="0.0196664926" flag="0"/>
      <psa30 value="0.0020269949" flag="0"/>
    </comp>
  </station>
</stationlist>
