<?xml version="1.0" encoding="UTF-8" standalone="yes"?>
<!DOCTYPE earthquake SYSTEM "stationlist.dtd">
<stationlist created="" xmlns="ch.ethz.sed.shakemap.usgs.xml">
  <station code="OBER" name="OBER" netid="BW" insttype="Trillium Compact 120s" lat="47.407" lon="10.2934">
    <comp name="--.HHE">
      <acc value="0.0078627189" flag="0"/>
      <vel value="0.0035344568" flag="0"/>
      <psa03 value="0.0265512639" flag="0"/>
      <psa10 value="0.0027791131" flag="0"/>
      <psa30 value="0.0006192109" flag="0"/>
    </comp>
    <comp name="--.HHN">
      <acc value="0.0096100673" flag="0"/>
      <vel value="0.0042689660" flag="0"/>
      <psa03 value="0.0166230274" flag="0"/>
      <psa10 value="0.0026544395" flag="0"/>
      <psa30 value="0.0005689080" flag="0"/>
    </comp>
    <comp name="--.HHZ">
      <acc value="0.0070199603" flag="0"/>
      <vel value="0.0034515751" flag="0"/>
      <psa03 value="0.0207614249" flag="0"/>
      <psa10 value="0.0041796533" flag="0"/>
      <psa30 value="0.0006686431" flag="0"/>
    </comp>
  </station>
  <station code="PART" name="PART" netid="BW" insttype="Trillium Compact 120s" lat="47.4972" lon="11.1131">
    <comp name="--.HHE">
      <acc value="0.0061506740" flag="0"/>
      <vel value="0.0018362515" flag="0"/>
      <psa03 value="0.0086916568" flag="0"/>
      <psa10 value="0.0014500782" flag="0"/>
      <psa30 value="0.0001071741" flag="0"/>
    </comp>
    <comp name="--.HHN">
      <acc value="0.0063753471" flag="0"/>
      <vel value="0.0020037849" flag="0"/>
      <psa03 value="0.0083183631" flag="0"/>
      <psa10 value="0.0011334413" flag="0"/>
      <psa30 value="0.0000977682" flag="0"/>
    </comp>
    <comp name="--.HHZ">
      <acc value="0.0057879803" flag="0"/>
      <vel value="0.0014629364" flag="0"/>
      <psa03 value="0.0060587594" flag="0"/>
      <psa10 value="0.0012146364" flag="0"/>
      <psa30 value="0.0000991607" flag="0"/>
    </comp>
  </station>
  <station code="ZUGS" name="ZUGS" netid="BW" insttype="" lat="47.4168" lon="10.9769">
    <comp name="--.HHE">
      <acc value="0.0078341061" flag="0"/>
      <vel value="0.0029898745" flag="0"/>
      <psa03 value="0.0134158679" flag="0"/>
      <psa10 value="0.0024002809" flag="0"/>
      <psa30 value="0.0003018925" flag="0"/>
    </comp>
    <comp name="--.HHN">
      <acc value="0.0106941176" flag="0"/>
      <vel value="0.0024803484" flag="0"/>
      <psa03 value="0.0104501525" flag="0"/>
      <psa10 value="0.0030681756" flag="0"/>
      <psa30 value="0.0002539540" flag="0"/>
    </comp>
    <comp name="--.HHZ">
      <acc value="0.0061502684" flag="0"/>
      <vel value="0.0025581118" flag="0"/>
      <psa03 value="0.0201786572" flag="0"/>
      <psa10 value="0.0017160486" flag="0"/>
      <psa30 value="0.0001668966" flag="0"/>
    </comp>
  </station>
  <station code="UBR" name="UBR" netid="GR" insttype="STS-2" lat="47.6799" lon="10.1071">
    <comp name="--.HHE">
      <acc value="0.0216106812" flag="0"/>
      <vel value="0.0113185011" flag="0"/>
      <psa03 value="0.0859866154" flag="0"/>
      <psa10 value="0.0052456456" flag="0"/>
      <psa30 value="0.0003623984" flag="0"/>
    </comp>
    <comp name="--.HHN">
      <acc value="0.0162770990" flag="0"/>
      <vel value="0.0070496063" flag="0"/>
      <psa03 value="0.0671425254" flag="0"/>
      <psa10 value="0.0036268571" flag="0"/>
      <psa30 value="0.0003986532" flag="0"/>
    </comp>
    <comp name="--.HHZ">
      <acc value="0.0104752470" flag="0"/>
      <vel value="0.0027589750" flag="0"/>
      <psa03 value="0.0225289642" flag="0"/>
      <psa10 value="0.0028974268" flag="0"/>
      <psa30 value="0.0004336569" flag="0"/>
    </comp>
  </station>
  <station code="BRMO" name="BRMO" netid="IV" insttype="" lat="46.4762" lon="10.3722">
    <comp name="--.HHE">
      <acc value="0.0016843883" flag="0"/>
      <vel value="0.0007509679" flag="0"/>
      <psa03 value="0.0048194381" flag="0"/>
      <psa10 value="0.0006243375" flag="0"/>
      <psa30 value="0.0001934164" flag="0"/>
    </comp>
    <comp name="--.HHN">
      <acc value="0.0021425731" flag="0"/>
      <vel value="0.0009647683" flag="0"/>
      <psa03 value="0.0055192187" flag="0"/>
      <psa10 value="0.0010336291" flag="0"/>
      <psa30 value="0.0001283275" flag="0"/>
    </comp>
    <comp name="--.HHZ">
      <acc value="0.0016793131" flag="0"/>
      <vel value="0.0008251446" flag="0"/>
      <psa03 value="0.0038130842" flag="0"/>
      <psa10 value="0.0008753026" flag="0"/>
      <psa30 value="0.0001396700" flag="0"/>
    </comp>
  </station>
  <station code="DAVA" name="DAVA" netid="OE" insttype="STS-2" lat="47.2867" lon="9.8803">
    <comp name="--.HHE">
      <acc value="0.0648970397" flag="0"/>
      <vel value="0.0306382002" flag="0"/>
      <psa03 value="0.1969188901" flag="0"/>
      <psa10 value="0.0095369797" flag="0"/>
      <psa30 value="0.0009384336" flag="0"/>
    </comp>
    <comp name="--.HHZ">
      <acc value="0.0729071643" flag="0"/>
      <vel value="0.0282882272" flag="0"/>
      <psa03 value="0.1572160433" flag="0"/>
      <psa10 value="0.0134669527" flag="0"/>
      <psa30 value="0.0016360340" flag="0"/>
    </comp>
    <comp name="--.HHN">
      <acc value="0.0833564558" flag="0"/>
      <vel value="0.0470464711" flag="0"/>
      <psa03 value="0.1743434116" flag="0"/>
      <psa10 value="0.0295209238" flag="0"/>
      <psa30 value="0.0024458983" flag="0"/>
    </comp>
  </station>
  <station code="FETA" name="FETA" netid="OE" insttype="STS-2" lat="47.0211" lon="10.7291">
    <comp name="--.HHZ">
      <acc value="0.0015570393" flag="0"/>
      <vel value="0.0013443507" flag="0"/>
      <psa03 value="0.0045983038" flag="0"/>
      <psa10 value="0.0018978989" flag="0"/>
      <psa30 value="0.0001997458" flag="0"/>
    </comp>
    <comp name="--.HHN">
      <acc value="0.0018911282" flag="0"/>
      <vel value="0.0012917856" flag="0"/>
      <psa03 value="0.0076037421" flag="0"/>
      <psa10 value="0.0012216501" flag="0"/>
      <psa30 value="0.0001928819" flag="0"/>
    </comp>
    <comp name="--.HHE">
      <acc value="0.0021169498" flag="0"/>
      <vel value="0.0015118740" flag="0"/>
      <psa03 value="0.0044347947" flag="0"/>
      <psa10 value="0.0022378150" flag="0"/>
      <psa30 value="0.0002239333" flag="0"/>
    </comp>
  </station>
  <station code="MOTA" name="MOTA" netid="OE" insttype="STS-2.5/Quanterra" lat="47.3448" lon="11.1037">
    <comp name="--.HHN">
      <acc value="0.0089257665" flag="0"/>
      <vel value="0.0039187154" flag="0"/>
      <psa03 value="0.0361240575" flag="0"/>
      <psa10 value="0.0030847163" flag="0"/>
      <psa30 value="0.0005458009" flag="0"/>
    </comp>
    <comp name="--.HHE">
      <acc value="0.0056907716" flag="0"/>
      <vel value="0.0024074717" flag="0"/>
      <psa03 value="0.0136025933" flag="0"/>
      <psa10 value="0.0021676787" flag="0"/>
      <psa30 value="0.0007361471" flag="0"/>
    </comp>
    <comp name="--.HHZ">
      <acc value="0.0105364822" flag="0"/>
      <vel value="0.0030464432" flag="0"/>
      <psa03 value="0.0144767793" flag="0"/>
      <psa10 value="0.0011796710" flag="0"/>
      <psa30 value="0.0003218133" flag="0"/>
    </comp>
  </station>
  <station code="RETA" name="RETA" netid="OE" insttype="STS-2" lat="47.4871" lon="10.7623">
    <comp name="--.HHE">
      <acc value="0.0036442234" flag="0"/>
      <vel value="0.0020825288" flag="0"/>
      <psa03 value="0.0095473071" flag="0"/>
      <psa10 value="0.0011810378" flag="0"/>
      <psa30 value="0.0002931253" flag="0"/>
    </comp>
    <comp name="--.HHN">
      <acc value="0.0037408394" flag="0"/>
      <vel value="0.0018619985" flag="0"/>
      <psa03 value="0.0088170683" flag="0"/>
      <psa10 value="0.0012227985" flag="0"/>
      <psa30 value="0.0001572074" flag="0"/>
    </comp>
    <comp name="--.HHZ">
      <acc value="0.0047134380" flag="0"/>
      <vel value="0.0022070720" flag="0"/>
      <psa03 value="0.0120805906" flag="0"/>
      <psa10 value="0.0013738634" flag="0"/>
      <psa30 value="0.0003034452" flag="0"/>
    </comp>
  </station>
  <station code="MOSI" name="MOSI" netid="SI" insttype="" lat="46.6164" lon="10.5495">
    <comp name="--.HHE">
      <acc value="0.0065980212" flag="0"/>
      <vel value="0.0043673450" flag="0"/>
      <psa03 value="0.0321334879" flag="0"/>
      <psa10 value="0.0037736447" flag="0"/>
      <psa30 value="0.0003751845" flag="0"/>
    </comp>
    <comp name="--.HHN">
      <acc value="0.0086076057" flag="0"/>
      <vel value="0.0058246310" flag="0"/>
      <psa03 value="0.0265154057" flag="0"/>
      <psa10 value="0.0059492638" flag="0"/>
      <psa30 value="0.0008285459" flag="0"/>
    </comp>
    <comp name="--.HHZ">
      <acc value="0.0051605064" flag="0"/>
      <vel value="0.0030923531" flag="0"/>
      <psa03 value="0.0147661589" flag="0"/>
      <psa10 value="0.0021959128" flag="0"/>
      <psa30 value="0.0002688862" flag="0"/>
    </comp>
  </station>
  <station code="A037A" name="A037A" netid="Z3" insttype="Trillium Horizon 120-1" lat="47.0703" lon="10.2643">
    <comp name="00.HHN">
      <acc value="0.0092309023" flag="0"/>
      <vel value="0.0031686616" flag="0"/>
      <psa03 value="0.0151802757" flag="0"/>
      <psa10 value="0.0017088862" flag="0"/>
      <psa30 value="0.0002470290" flag="0"/>
    </comp>
    <comp name="00.HHE">
      <acc value="0.0104140440" flag="0"/>
      <vel value="0.0027541996" flag="0"/>
      <psa03 value="0.0159523732" flag="0"/>
      <psa10 value="0.0013603588" flag="0"/>
      <psa30 value="0.0001973019" flag="0"/>
    </comp>
    <comp name="00.HHZ">
      <acc value="0.0099754073" flag="0"/>
      <vel value="0.0036831686" flag="0"/>
      <psa03 value="0.0222462540" flag="0"/>
      <psa10 value="0.0019427366" flag="0"/>
      <psa30 value="0.0003808301" flag="0"/>
    </comp>
  </station>
</stationlist>
