<?xml version="1.0" encoding="UTF-8" standalone="yes"?>
<!DOCTYPE earthquake SYSTEM "stationlist.dtd">
<stationlist created="" xmlns="ch.ethz.sed.shakemap.usgs.xml">
  <station code="KALE" name="KALE" netid="HA" insttype="40," lat="38.3911" lon="22.1398">
    <comp name="--.HHN">
      <acc value="0.0047435880" flag="0"/>
      <vel value="0.0033540939" flag="0"/>
      <psa03 value="0.0161549900" flag="0"/>
      <psa10 value="0.0041874739" flag="0"/>
      <psa30 value="0.0008155251" flag="0"/>
    </comp>
    <comp name="--.HHE">
      <acc value="0.0046630739" flag="0"/>
      <vel value="0.0033480597" flag="0"/>
      <psa03 value="0.0104004843" flag="0"/>
      <psa10 value="0.0033911416" flag="0"/>
      <psa30 value="0.0005309277" flag="0"/>
    </comp>
    <comp name="--.HHZ">
      <acc value="0.0034959355" flag="0"/>
      <vel value="0.0021746535" flag="0"/>
      <psa03 value="0.0139807761" flag="0"/>
      <psa10 value="0.0029953939" flag="0"/>
      <psa30 value="0.0007890422" flag="0"/>
    </comp>
  </station>
  <station code="LAKA" name="LAKA" netid="HA" insttype="120s" lat="38.2401" lon="21.9785">
    <comp name="--.HHE">
      <acc value="0.0000308267" flag="0"/>
      <vel value="0.0000027638" flag="0"/>
      <psa03 value="0.0000108561" flag="0"/>
      <psa10 value="0.0000027869" flag="0"/>
      <psa30 value="0.0000005328" flag="0"/>
    </comp>
    <comp name="--.HHN">
      <acc value="0.0000305210" flag="0"/>
      <vel value="0.0000025469" flag="0"/>
      <psa03 value="0.0000100136" flag="0"/>
      <psa10 value="0.0000026855" flag="0"/>
      <psa30 value="0.0000005592" flag="0"/>
    </comp>
    <comp name="--.HHZ">
      <acc value="0.0021983195" flag="0"/>
      <vel value="0.0019771685" flag="0"/>
      <psa03 value="0.0045304647" flag="0"/>
      <psa10 value="0.0037358365" flag="0"/>
      <psa30 value="0.0004448964" flag="0"/>
    </comp>
  </station>
  <station code="ARG2" name="ARG2" netid="HI" insttype="CMG-5TD,ACCELEROMETER,GURALP" lat="38.1783" lon="20.4878">
    <comp name="--.HNN">
      <acc value="0.0387098820" flag="0"/>
      <vel value="0.0161506916" flag="0"/>
      <psa03 value="0.0926884953" flag="0"/>
      <psa10 value="0.0073929139" flag="0"/>
      <psa30 value="0.0010432656" flag="0"/>
    </comp>
    <comp name="--.HNE">
      <acc value="0.0374870541" flag="0"/>
      <vel value="0.0178448053" flag="0"/>
      <psa03 value="0.1483955037" flag="0"/>
      <psa10 value="0.0078666891" flag="0"/>
      <psa30 value="0.0010995573" flag="0"/>
    </comp>
    <comp name="--.HNZ">
      <acc value="0.0258965006" flag="0"/>
      <vel value="0.0123029620" flag="0"/>
      <psa03 value="0.1497139759" flag="0"/>
      <psa10 value="0.0054750300" flag="0"/>
      <psa30 value="0.0006154641" flag="0"/>
    </comp>
  </station>
  <station code="ART2" name="ART2" netid="HI" insttype="CMG-5TD,ACCELEROMETER,GURALP" lat="39.1474" lon="20.9937">
    <comp name="--.HNE">
      <acc value="0.0594081015" flag="0"/>
      <vel value="0.0282080411" flag="0"/>
      <psa03 value="0.1502936065" flag="0"/>
      <psa10 value="0.0120589760" flag="0"/>
      <psa30 value="0.0020976044" flag="0"/>
    </comp>
    <comp name="--.HNZ">
      <acc value="0.0659900180" flag="0"/>
      <vel value="0.0371566901" flag="0"/>
      <psa03 value="0.1288795229" flag="0"/>
      <psa10 value="0.0171836089" flag="0"/>
      <psa30 value="0.0037773690" flag="0"/>
    </comp>
    <comp name="--.HNN">
      <acc value="0.0615559925" flag="0"/>
      <vel value="0.0192661576" flag="0"/>
      <psa03 value="0.0744277673" flag="0"/>
      <psa10 value="0.0109503630" flag="0"/>
      <psa30 value="0.0030822285" flag="0"/>
    </comp>
  </station>
  <station code="MSL1" name="MSL1" netid="HI" insttype="CMG-5TD,ACCELEROMETER,GURALP" lat="38.3727" lon="21.4243">
    <comp name="--.HNE">
      <acc value="0.0934434421" flag="0"/>
      <vel value="0.0659738129" flag="0"/>
      <psa03 value="0.2566785796" flag="0"/>
      <psa10 value="0.1108389375" flag="0"/>
      <psa30 value="0.0098947146" flag="0"/>
    </comp>
    <comp name="--.HNZ">
      <acc value="0.0295571158" flag="0"/>
      <vel value="0.0211579081" flag="0"/>
      <psa03 value="0.0895468898" flag="0"/>
      <psa10 value="0.0598829665" flag="0"/>
      <psa30 value="0.0019566724" flag="0"/>
    </comp>
    <comp name="--.HNN">
      <acc value="0.0844294549" flag="0"/>
      <vel value="0.0712399421" flag="0"/>
      <psa03 value="0.3163950964" flag="0"/>
      <psa10 value="0.0947583480" flag="0"/>
      <psa30 value="0.0047416962" flag="0"/>
    </comp>
  </station>
  <station code="EVR" name="EVR" netid="HL" insttype="DR24" lat="38.9166" lon="21.8105">
    <comp name="--.HHZ">
      <acc value="0.0039462689" flag="0"/>
      <vel value="0.0028522583" flag="0"/>
      <psa03 value="0.0101117985" flag="0"/>
      <psa10 value="0.0042617181" flag="0"/>
      <psa30 value="0.0003510555" flag="0"/>
    </comp>
    <comp name="--.HHE">
      <acc value="0.0079149296" flag="0"/>
      <vel value="0.0031173548" flag="0"/>
      <psa03 value="0.0135783847" flag="0"/>
      <psa10 value="0.0031598058" flag="0"/>
      <psa30 value="0.0006141859" flag="0"/>
    </comp>
    <comp name="--.HHN">
      <acc value="0.0056156556" flag="0"/>
      <vel value="0.0027017623" flag="0"/>
      <psa03 value="0.0114329600" flag="0"/>
      <psa10 value="0.0043747217" flag="0"/>
      <psa30 value="0.0007971866" flag="0"/>
    </comp>
  </station>
  <station code="JAN" name="JAN" netid="HL" insttype="CMG3EPSC60_DR24" lat="39.6562" lon="20.8487">
    <comp name="--.HHE">
      <acc value="0.0159018768" flag="0"/>
      <vel value="0.0103930882" flag="0"/>
      <psa03 value="0.0380442370" flag="0"/>
      <psa10 value="0.0108789460" flag="0"/>
      <psa30 value="0.0007751779" flag="0"/>
    </comp>
    <comp name="--.HHZ">
      <acc value="0.0126031660" flag="0"/>
      <vel value="0.0080931744" flag="0"/>
      <psa03 value="0.0470000026" flag="0"/>
      <psa10 value="0.0113570202" flag="0"/>
      <psa30 value="0.0008300053" flag="0"/>
    </comp>
    <comp name="--.HHN">
      <acc value="0.0150840248" flag="0"/>
      <vel value="0.0072943644" flag="0"/>
      <psa03 value="0.0427136322" flag="0"/>
      <psa10 value="0.0081695111" flag="0"/>
      <psa30 value="0.0010299888" flag="0"/>
    </comp>
  </station>
  <station code="ORTH" name="ORTH" netid="HL" insttype="30" lat="37.8511" lon="20.6963">
    <comp name="--.HHN">
      <acc value="0.0093519977" flag="0"/>
      <vel value="0.0065449282" flag="0"/>
      <psa03 value="0.0415521995" flag="0"/>
      <psa10 value="0.0069010225" flag="0"/>
      <psa30 value="0.0004877558" flag="0"/>
    </comp>
    <comp name="--.HHE">
      <acc value="0.0109584426" flag="0"/>
      <vel value="0.0055608404" flag="0"/>
      <psa03 value="0.0286339451" flag="0"/>
      <psa10 value="0.0084048141" flag="0"/>
      <psa30 value="0.0004571955" flag="0"/>
    </comp>
    <comp name="--.HHZ">
      <acc value="0.0032619164" flag="0"/>
      <vel value="0.0017511505" flag="0"/>
      <psa03 value="0.0108541141" flag="0"/>
      <psa10 value="0.0019861418" flag="0"/>
      <psa30 value="0.0004225798" flag="0"/>
    </comp>
  </station>
  <station code="RLS" name="RLS" netid="HL" insttype="CMG3ESPC-120s" lat="38.0559" lon="21.4647">
    <comp name="--.HHZ">
      <acc value="0.0039907747" flag="0"/>
      <vel value="0.0024411137" flag="0"/>
      <psa03 value="0.0114023262" flag="0"/>
      <psa10 value="0.0035357400" flag="0"/>
      <psa30 value="0.0003335061" flag="0"/>
    </comp>
    <comp name="--.HHN">
      <acc value="0.0050559868" flag="0"/>
      <vel value="0.0046964266" flag="0"/>
      <psa03 value="0.0158741943" flag="0"/>
      <psa10 value="0.0056623289" flag="0"/>
      <psa30 value="0.0007466235" flag="0"/>
    </comp>
    <comp name="--.HHE">
      <acc value="0.0045018310" flag="0"/>
      <vel value="0.0036271465" flag="0"/>
      <psa03 value="0.0104818850" flag="0"/>
      <psa10 value="0.0071424124" flag="0"/>
      <psa30 value="0.0007113488" flag="0"/>
    </comp>
  </station>
  <station code="TETR" name="TETR" netid="HL" insttype="60" lat="39.3445" lon="21.2747">
    <comp name="--.HHN">
      <acc value="0.0556822258" flag="0"/>
      <vel value="0.0291760332" flag="0"/>
      <psa03 value="0.0937685055" flag="0"/>
      <psa10 value="0.0125515285" flag="0"/>
      <psa30 value="0.0018343812" flag="0"/>
    </comp>
    <comp name="--.HHE">
      <acc value="0.0540120987" flag="0"/>
      <vel value="0.0284984481" flag="0"/>
      <psa03 value="0.1161264406" flag="0"/>
      <psa10 value="0.0201840698" flag="0"/>
      <psa30 value="0.0021530171" flag="0"/>
    </comp>
    <comp name="--.HHZ">
      <acc value="0.0138451966" flag="0"/>
      <vel value="0.0093259340" flag="0"/>
      <psa03 value="0.0350133835" flag="0"/>
      <psa10 value="0.0111137329" flag="0"/>
      <psa30 value="0.0017061582" flag="0"/>
    </comp>
  </station>
  <station code="THL" name="THL" netid="HL" insttype="120" lat="39.5647" lon="22.0144">
    <comp name="--.HHE">
      <acc value="0.0032682035" flag="0"/>
      <vel value="0.0028836675" flag="0"/>
      <psa03 value="0.0071728556" flag="0"/>
      <psa10 value="0.0035130289" flag="0"/>
      <psa30 value="0.0002875067" flag="0"/>
    </comp>
    <comp name="--.HHZ">
      <acc value="0.0018301174" flag="0"/>
      <vel value="0.0015506239" flag="0"/>
      <psa03 value="0.0046516095" flag="0"/>
      <psa10 value="0.0029487984" flag="0"/>
      <psa30 value="0.0002198537" flag="0"/>
    </comp>
    <comp name="--.HHN">
      <acc value="0.0018877223" flag="0"/>
      <vel value="0.0017457113" flag="0"/>
      <psa03 value="0.0042250792" flag="0"/>
      <psa10 value="0.0022362075" flag="0"/>
      <psa30 value="0.0002462730" flag="0"/>
    </comp>
  </station>
  <station code="VLS" name="VLS" netid="HL" insttype="120P," lat="38.1768" lon="20.5886">
    <comp name="--.HHZ">
      <acc value="0.0110094251" flag="0"/>
      <vel value="0.0043147359" flag="0"/>
      <psa03 value="0.0357319805" flag="0"/>
      <psa10 value="0.0035978046" flag="0"/>
      <psa30 value="0.0004804241" flag="0"/>
    </comp>
    <comp name="--.HHE">
      <acc value="0.0285382279" flag="0"/>
      <vel value="0.0061014070" flag="0"/>
      <psa03 value="0.0549641613" flag="0"/>
      <psa10 value="0.0036577737" flag="0"/>
      <psa30 value="0.0004781528" flag="0"/>
    </comp>
    <comp name="--.HHN">
      <acc value="0.0165294660" flag="0"/>
      <vel value="0.0064356851" flag="0"/>
      <psa03 value="0.0356338042" flag="0"/>
      <psa10 value="0.0048586348" flag="0"/>
      <psa30 value="0.0006362262" flag="0"/>
    </comp>
  </station>
  <station code="AMPL" name="AMPL" netid="HP" insttype="Compact," lat="38.9224" lon="21.2135">
    <comp name="--.HHE">
      <acc value="0.1467260866" flag="0"/>
      <vel value="0.0566834163" flag="0"/>
      <psa03 value="0.2280788015" flag="0"/>
      <psa10 value="0.0552526408" flag="0"/>
      <psa30 value="0.0039013393" flag="0"/>
    </comp>
    <comp name="--.HHZ">
      <acc value="0.0964696128" flag="0"/>
      <vel value="0.0335678912" flag="0"/>
      <psa03 value="0.1376202300" flag="0"/>
      <psa10 value="0.0456839825" flag="0"/>
      <psa30 value="0.0026609466" flag="0"/>
    </comp>
    <comp name="--.HHN">
      <acc value="0.1270797482" flag="0"/>
      <vel value="0.0541526044" flag="0"/>
      <psa03 value="0.2266433133" flag="0"/>
      <psa10 value="0.0578379416" flag="0"/>
      <psa30 value="0.0040647672" flag="0"/>
    </comp>
  </station>
  <station code="ANX" name="ANX" netid="HP" insttype="120" lat="38.5933" lon="21.9209">
    <comp name="--.HHE">
      <acc value="0.0073912044" flag="0"/>
      <vel value="0.0066752634" flag="0"/>
      <psa03 value="0.0264441706" flag="0"/>
      <psa10 value="0.0075976839" flag="0"/>
      <psa30 value="0.0013893796" flag="0"/>
    </comp>
    <comp name="--.HHN">
      <acc value="0.0104904618" flag="0"/>
      <vel value="0.0062635312" flag="0"/>
      <psa03 value="0.0272204444" flag="0"/>
      <psa10 value="0.0057410629" flag="0"/>
      <psa30 value="0.0008970951" flag="0"/>
    </comp>
    <comp name="--.HHZ">
      <acc value="0.0045699992" flag="0"/>
      <vel value="0.0029922771" flag="0"/>
      <psa03 value="0.0148623239" flag="0"/>
      <psa10 value="0.0033987977" flag="0"/>
      <psa30 value="0.0009041559" flag="0"/>
    </comp>
  </station>
  <station code="AXS" name="AXS" netid="HP" insttype="40," lat="38.1962" lon="21.3763">
    <comp name="--.HHE">
      <acc value="0.0050763405" flag="0"/>
      <vel value="0.0034120814" flag="0"/>
      <psa03 value="0.0156511944" flag="0"/>
      <psa10 value="0.0032895752" flag="0"/>
      <psa30 value="0.0004029851" flag="0"/>
    </comp>
    <comp name="--.HHN">
      <acc value="0.0066365060" flag="0"/>
      <vel value="0.0032742039" flag="0"/>
      <psa03 value="0.0173233176" flag="0"/>
      <psa10 value="0.0035668850" flag="0"/>
      <psa30 value="0.0004711202" flag="0"/>
    </comp>
    <comp name="--.HHZ">
      <acc value="0.0028515415" flag="0"/>
      <vel value="0.0014988933" flag="0"/>
      <psa03 value="0.0048482472" flag="0"/>
      <psa10 value="0.0012650856" flag="0"/>
      <psa30 value="0.0002778573" flag="0"/>
    </comp>
  </station>
  <station code="DRO" name="DRO" netid="HP" insttype="120P," lat="37.952" lon="21.71">
    <comp name="--.HHZ">
      <acc value="0.0045060876" flag="0"/>
      <vel value="0.0029323314" flag="0"/>
      <psa03 value="0.0149233820" flag="0"/>
      <psa10 value="0.0046270339" flag="0"/>
      <psa30 value="0.0004857280" flag="0"/>
    </comp>
    <comp name="--.HHE">
      <acc value="0.0073691645" flag="0"/>
      <vel value="0.0036133255" flag="0"/>
      <psa03 value="0.0194306541" flag="0"/>
      <psa10 value="0.0036070129" flag="0"/>
      <psa30 value="0.0002643174" flag="0"/>
    </comp>
    <comp name="--.HHN">
      <acc value="0.0116601443" flag="0"/>
      <vel value="0.0092917237" flag="0"/>
      <psa03 value="0.0319840660" flag="0"/>
      <psa10 value="0.0068239570" flag="0"/>
      <psa30 value="0.0007348696" flag="0"/>
    </comp>
  </station>
  <station code="EFP" name="EFP" netid="HP" insttype="40," lat="38.4269" lon="21.9058">
    <comp name="--.HHN">
      <acc value="0.0210309194" flag="0"/>
      <vel value="0.0059607608" flag="0"/>
      <psa03 value="0.0339804266" flag="0"/>
      <psa10 value="0.0040080459" flag="0"/>
      <psa30 value="0.0009870291" flag="0"/>
    </comp>
    <comp name="--.HHE">
      <acc value="0.0232941847" flag="0"/>
      <vel value="0.0076197415" flag="0"/>
      <psa03 value="0.0298665385" flag="0"/>
      <psa10 value="0.0050445193" flag="0"/>
      <psa30 value="0.0012286682" flag="0"/>
    </comp>
    <comp name="--.HHZ">
      <acc value="0.0049307071" flag="0"/>
      <vel value="0.0044048862" flag="0"/>
      <psa03 value="0.0163788319" flag="0"/>
      <psa10 value="0.0037790416" flag="0"/>
      <psa30 value="0.0010243558" flag="0"/>
    </comp>
  </station>
  <station code="FSK" name="FSK" netid="HP" insttype="40," lat="38.4593" lon="20.5623">
    <comp name="--.HHZ">
      <acc value="0.0228047033" flag="0"/>
      <vel value="0.0115305752" flag="0"/>
      <psa03 value="0.0535293641" flag="0"/>
      <psa10 value="0.0120500713" flag="0"/>
      <psa30 value="0.0020486308" flag="0"/>
    </comp>
    <comp name="--.HHN">
      <acc value="0.0344991326" flag="0"/>
      <vel value="0.0180096883" flag="0"/>
      <psa03 value="0.1060036511" flag="0"/>
      <psa10 value="0.0118994539" flag="0"/>
      <psa30 value="0.0029132202" flag="0"/>
    </comp>
    <comp name="--.HHE">
      <acc value="0.0545541372" flag="0"/>
      <vel value="0.0200243583" flag="0"/>
      <psa03 value="0.0933751936" flag="0"/>
      <psa10 value="0.0144558866" flag="0"/>
      <psa30 value="0.0021408485" flag="0"/>
    </comp>
  </station>
  <station code="KSTR" name="KSTR" netid="HP" insttype="Compact," lat="39.2492" lon="20.576">
    <comp name="--.HHZ">
      <acc value="0.0145524895" flag="0"/>
      <vel value="0.0042391062" flag="0"/>
      <psa03 value="0.0306348319" flag="0"/>
      <psa10 value="0.0039463304" flag="0"/>
      <psa30 value="0.0005291269" flag="0"/>
    </comp>
    <comp name="--.HHN">
      <acc value="0.0162128939" flag="0"/>
      <vel value="0.0062726877" flag="0"/>
      <psa03 value="0.0364749375" flag="0"/>
      <psa10 value="0.0055433332" flag="0"/>
      <psa30 value="0.0004308994" flag="0"/>
    </comp>
    <comp name="--.HHE">
      <acc value="0.0236563501" flag="0"/>
      <vel value="0.0086313288" flag="0"/>
      <psa03 value="0.0606035788" flag="0"/>
      <psa10 value="0.0054950732" flag="0"/>
      <psa30 value="0.0004424666" flag="0"/>
    </comp>
  </station>
  <station code="LTHK" name="LTHK" netid="HP" insttype="40," lat="37.7095" lon="20.8367">
    <comp name="--.HHE">
      <acc value="0.0066444070" flag="0"/>
      <vel value="0.0030503474" flag="0"/>
      <psa03 value="0.0164765880" flag="0"/>
      <psa10 value="0.0035831154" flag="0"/>
      <psa30 value="0.0003869813" flag="0"/>
    </comp>
    <comp name="--.HHN">
      <acc value="0.0049844714" flag="0"/>
      <vel value="0.0029797100" flag="0"/>
      <psa03 value="0.0171897173" flag="0"/>
      <psa10 value="0.0040880363" flag="0"/>
      <psa30 value="0.0006325119" flag="0"/>
    </comp>
    <comp name="--.HHZ">
      <acc value="0.0035083335" flag="0"/>
      <vel value="0.0024313753" flag="0"/>
      <psa03 value="0.0111623509" flag="0"/>
      <psa10 value="0.0025730705" flag="0"/>
      <psa30 value="0.0004681238" flag="0"/>
    </comp>
  </station>
  <station code="PDO" name="PDO" netid="HP" insttype="120s" lat="38.5986" lon="21.1833">
    <comp name="--.HHE">
      <acc value="0.1284457734" flag="0"/>
      <vel value="0.0550855845" flag="0"/>
      <psa03 value="0.3303135104" flag="0"/>
      <psa10 value="0.0404611636" flag="0"/>
      <psa30 value="0.0027164492" flag="0"/>
    </comp>
    <comp name="--.HHN">
      <acc value="0.1685788022" flag="0"/>
      <vel value="0.0660143675" flag="0"/>
      <psa03 value="0.3540173950" flag="0"/>
      <psa10 value="0.0382937449" flag="0"/>
      <psa30 value="0.0032553582" flag="0"/>
    </comp>
    <comp name="--.HHZ">
      <acc value="0.0681840339" flag="0"/>
      <vel value="0.0294347793" flag="0"/>
      <psa03 value="0.1789593164" flag="0"/>
      <psa10 value="0.0132988294" flag="0"/>
      <psa30 value="0.0027621148" flag="0"/>
    </comp>
  </station>
  <station code="PRMD" name="PRMD" netid="HP" insttype="120P," lat="39.5299" lon="21.0965">
    <comp name="--.HHE">
      <acc value="0.0169296835" flag="0"/>
      <vel value="0.0104024785" flag="0"/>
      <psa03 value="0.0652298155" flag="0"/>
      <psa10 value="0.0126860061" flag="0"/>
      <psa30 value="0.0031787933" flag="0"/>
    </comp>
    <comp name="--.HHZ">
      <acc value="0.0105017775" flag="0"/>
      <vel value="0.0050896137" flag="0"/>
      <psa03 value="0.0349801427" flag="0"/>
      <psa10 value="0.0068361309" flag="0"/>
      <psa30 value="0.0022154414" flag="0"/>
    </comp>
    <comp name="--.HHN">
      <acc value="0.0138094588" flag="0"/>
      <vel value="0.0076754824" flag="0"/>
      <psa03 value="0.0411042190" flag="0"/>
      <psa10 value="0.0075539308" flag="0"/>
      <psa30 value="0.0015268864" flag="0"/>
    </comp>
  </station>
  <station code="PVO" name="PVO" netid="HP" insttype="120P," lat="38.616" lon="21.525">
    <comp name="--.HHE">
      <acc value="0.0423160627" flag="0"/>
      <vel value="0.0226923598" flag="0"/>
      <psa03 value="0.0926708181" flag="0"/>
      <psa10 value="0.0143681536" flag="0"/>
      <psa30 value="0.0016930656" flag="0"/>
    </comp>
    <comp name="--.HHN">
      <acc value="0.0255803786" flag="0"/>
