<stationlist created="1778135951">
	<station code="KTHA" name="KTHA" netid="GE" source="GEOFON" insttype="" lat="36.2566" lon="23.0621">
		<comp name="--.HNE" depth="0.0">
			<acc value="0.027810991569242" flag="0"/>
			<vel value="0.008957289527988" flag="0"/>
			<psa03 value="0.0451896286844545" flag="0"/>
			<psa10 value="0.0101918272455761" flag="0"/>
			<psa30 value="0.00228408964786277" flag="0"/>
		</comp>
		<comp name="--.HNN" depth="0.0">
			<acc value="0.0179895290456401" flag="0"/>
			<vel value="0.00384429038562295" flag="0"/>
			<psa03 value="0.025682026598888" flag="0"/>
			<psa10 value="0.00319325128634605" flag="0"/>
			<psa30 value="0.000703794910105415" flag="0"/>
		</comp>
		<comp name="--.HNZ" depth="0.0">
			<acc value="0.0150292714584185" flag="0"/>
			<vel value="0.00474414428046891" flag="0"/>
			<psa03 value="0.0172704917546529" flag="0"/>
			<psa10 value="0.00440129086503939" flag="0"/>
			<psa30 value="0.00170512549422234" flag="0"/>
		</comp>
	</station>
	<station code="PASK" name="PASK" netid="HC" source="Seismological Network of Crete (HC)" insttype="" lat="35.4996" lon="24.0121">
		<comp name="--.HNE" depth="0.0">
			<acc value="0.107109779704286" flag="0"/>
			<vel value="0.0353132338561545" flag="0"/>
			<psa03 value="0.203934977766083" flag="0"/>
			<psa10 value="0.0212091482032594" flag="0"/>
			<psa30 value="0.00176731716142173" flag="0"/>
		</comp>
		<comp name="--.HNN" depth="0.0">
			<acc value="0.0850762116872746" flag="0"/>
			<vel value="0.0443364272263454" flag="0"/>
			<psa03 value="0.200400343443239" flag="0"/>
			<psa10 value="0.0238789156721716" flag="0"/>
			<psa30 value="0.00215075787214032" flag="0"/>
		</comp>
		<comp name="--.HNZ" depth="0.0">
			<acc value="0.0573708948340992" flag="0"/>
			<vel value="0.0268879967296678" flag="0"/>
			<psa03 value="0.143488256624798" flag="0"/>
			<psa10 value="0.0143796977850464" flag="0"/>
			<psa30 value="0.00200579312269712" flag="0"/>
		</comp>
	</station>
	<station code="CH01" name="CH01" netid="HI" source="ITSAK Strong Motion Network" insttype="" lat="35.517" lon="24.0208">
		<comp name="--.HNE" depth="0.0">
			<acc value="0.0353193427975276" flag="0"/>
			<vel value="0.0186790976691612" flag="0"/>
			<psa03 value="0.0744092261208742" flag="0"/>
			<psa10 value="0.0119261303601024" flag="0"/>
			<psa30 value="0.000767909411897768" flag="0"/>
		</comp>
		<comp name="--.HNN" depth="0.0">
			<acc value="0.0388640754269795" flag="0"/>
			<vel value="0.0122381335528378" flag="0"/>
			<psa03 value="0.0497559679636442" flag="0"/>
			<psa10 value="0.00874220319057499" flag="0"/>
			<psa30 value="0.000952610397428894" flag="0"/>
		</comp>
		<comp name="--.HNZ" depth="0.0">
			<acc value="0.0241569756167568" flag="0"/>
			<vel value="0.00763679623781372" flag="0"/>
			<psa03 value="0.0496170264677734" flag="0"/>
			<psa10 value="0.00973995116147096" flag="0"/>
			<psa30 value="0.000418362349869136" flag="0"/>
		</comp>
	</station>
	<station code="NPS1" name="NPS1" netid="HI" source="ITSAK Strong Motion Network" insttype="" lat="36.51263" lon="23.06248">
		<comp name="--.HNE" depth="0.0">
			<acc value="0.0136353428715043" flag="0"/>
			<vel value="0.00513438917241716" flag="0"/>
			<psa03 value="0.0273943355736209" flag="0"/>
			<psa10 value="0.00372597542133713" flag="0"/>
			<psa30 value="0.000251248154373883" flag="0"/>
		</comp>
		<comp name="--.HNN" depth="0.0">
			<acc value="0.0148461949076298" flag="0"/>
			<vel value="0.00607440921106543" flag="0"/>
			<psa03 value="0.0360455050253273" flag="0"/>
			<psa10 value="0.0041043440801573" flag="0"/>
			<psa30 value="0.000253229118936521" flag="0"/>
		</comp>
		<comp name="--.HNZ" depth="0.0">
			<acc value="0.0129545038219295" flag="0"/>
			<vel value="0.00339208475100761" flag="0"/>
			<psa03 value="0.018569973659191" flag="0"/>
			<psa10 value="0.00223379750937353" flag="0"/>
			<psa30 value="0.000213078920120393" flag="0"/>
		</comp>
	</station>
	<station code="ANKY" name="ANKY" netid="HL" source="National Observatory of Athens Seismic Network" insttype="" lat="35.86704" lon="23.30117">
		<comp name="00.HNE" depth="0.0">
			<acc value="0.123550745086449" flag="0"/>
			<vel value="0.0328672895204551" flag="0"/>
			<psa03 value="0.146843922121168" flag="0"/>
			<psa10 value="0.023025234369895" flag="0"/>
			<psa30 value="0.00169170283223685" flag="0"/>
		</comp>
		<comp name="00.HNN" depth="0.0">
			<acc value="0.143147848537658" flag="0"/>
			<vel value="0.0344518299664606" flag="0"/>
			<psa03 value="0.129841883606225" flag="0"/>
			<psa10 value="0.0273218284714476" flag="0"/>
			<psa30 value="0.00156597723163951" flag="0"/>
		</comp>
		<comp name="00.HNZ" depth="0.0">
			<acc value="0.114003891947095" flag="0"/>
			<vel value="0.0298140894027191" flag="0"/>
			<psa03 value="0.0912293592946561" flag="0"/>
			<psa10 value="0.0155796837665484" flag="0"/>
			<psa30 value="0.00130826212151827" flag="0"/>
		</comp>
	</station>
	<station code="IMMV" name="IMMV" netid="HL" source="National Observatory of Athens Seismic Network" insttype="" lat="35.4606" lon="23.9811">
		<comp name="--.HNE" depth="0.0">
			<acc value="0.0476598549311985" flag="0"/>
			<vel value="0.0181833180527703" flag="0"/>
			<psa03 value="0.141430115120357" flag="0"/>
			<psa10 value="0.00664421768281336" flag="0"/>
			<psa30 value="0.000488137474205345" flag="0"/>
		</comp>
		<comp name="--.HNN" depth="0.0">
			<acc value="0.0408737547323145" flag="0"/>
			<vel value="0.017857822058927" flag="0"/>
			<psa03 value="0.113779431430265" flag="0"/>
			<psa10 value="0.013534070079961" flag="0"/>
			<psa30 value="0.000740483519532397" flag="0"/>
		</comp>
		<comp name="--.HNZ" depth="0.0">
			<acc value="0.0267434800995767" flag="0"/>
			<vel value="0.0106699350966821" flag="0"/>
			<psa03 value="0.0857260678806087" flag="0"/>
			<psa10 value="0.0036321723332713" flag="0"/>
			<psa30 value="0.000434894248329601" flag="0"/>
		</comp>
	</station>
	<station code="KTHA" name="KTHA" netid="HL" source="National Observatory of Athens Seismic Network" insttype="" lat="36.2566" lon="23.0621">
		<comp name="--.HNE" depth="0.0">
			<acc value="0.348982582852498" flag="0"/>
			<vel value="0.102611069478801" flag="0"/>
			<psa03 value="0.50249972252981" flag="0"/>
			<psa10 value="0.0580463017562149" flag="0"/>
			<psa30 value="0.00634489232053712" flag="0"/>
		</comp>
		<comp name="--.HNN" depth="0.0">
			<acc value="0.200611323476284" flag="0"/>
			<vel value="0.056843866252124" flag="0"/>
			<psa03 value="0.277938587512704" flag="0"/>
			<psa10 value="0.0232708690842293" flag="0"/>
			<psa30 value="0.00291853413770987" flag="0"/>
		</comp>
		<comp name="--.HNZ" depth="0.0">
			<acc value="0.197906256599368" flag="0"/>
			<vel value="0.0524422616230001" flag="0"/>
			<psa03 value="0.193152105971079" flag="0"/>
			<psa10 value="0.0316425833645742" flag="0"/>
			<psa30 value="0.00327736663478841" flag="0"/>
		</comp>
	</station>
	<station code="MNVA" name="MNVA" netid="HL" source="National Observatory of Athens Seismic Network" insttype="" lat="36.68709" lon="23.03734">
		<comp name="00.HNE" depth="0.0">
			<acc value="0.0029477322306487" flag="0"/>
			<vel value="0.00189094850036896" flag="0"/>
			<psa03 value="0.0104598387463299" flag="0"/>
			<psa10 value="0.00345527405119803" flag="0"/>
			<psa30 value="0.000170563994340259" flag="0"/>
		</comp>
		<comp name="00.HNN" depth="0.0">
			<acc value="0.00317451795534665" flag="0"/>
			<vel value="0.00139807806361633" flag="0"/>
			<psa03 value="0.00834172512437596" flag="0"/>
			<psa10 value="0.00176072101412679" flag="0"/>
			<psa30 value="0.000115339906327526" flag="0"/>
		</comp>
		<comp name="00.HNZ" depth="0.0">
			<acc value="0.00354086815859184" flag="0"/>
			<vel value="0.00195939828931258" flag="0"/>
			<psa03 value="0.0103556475993525" flag="0"/>
			<psa10 value="0.00294107420673101" flag="0"/>
			<psa30 value="0.000200991400631445" flag="0"/>
		</comp>
	</station>
	<station code="SIVA" name="SIVA" netid="HL" source="National Observatory of Athens Seismic Network" insttype="" lat="35.01777" lon="24.81204">
		<comp name="00.HNE" depth="0.0">
			<acc value="0.00545267499705254" flag="0"/>
			<vel value="0.0040800588703049" flag="0"/>
			<psa03 value="0.0209462417523975" flag="0"/>
			<psa10 value="0.00469504196097234" flag="0"/>
			<psa30 value="0.000322155924582079" flag="0"/>
		</comp>
		<comp name="00.HNN" depth="0.0">
			<acc value="0.00560026997724518" flag="0"/>
			<vel value="0.00336727326075533" flag="0"/>
			<psa03 value="0.0159380349832538" flag="0"/>
			<psa10 value="0.00473103450157345" flag="0"/>
			<psa30 value="0.000226676448493919" flag="0"/>
		</comp>
		<comp name="00.HNZ" depth="0.0">
			<acc value="0.00342158638005716" flag="0"/>
			<vel value="0.00200857567514699" flag="0"/>
			<psa03 value="0.00940855621336882" flag="0"/>
			<psa10 value="0.00177041833621372" flag="0"/>
			<psa30 value="0.000119951331603501" flag="0"/>
		</comp>
	</station>
</stationlist>
