<?xml version="1.0" encoding="UTF-8" standalone="yes"?>
<!DOCTYPE earthquake SYSTEM "stationlist.dtd">
<stationlist created="" xmlns="ch.ethz.sed.shakemap.usgs.xml">
  <station code="IMMV" name="IMMV" netid="GE" insttype="STS-2/N" lat="35.4606" lon="23.9811">
    <comp name="--.HHE">
      <acc value="0.0516052480" flag="0"/>
      <vel value="0.0193444207" flag="0"/>
      <psa03 value="0.1507583762" flag="0"/>
      <psa10 value="0.0069494951" flag="0"/>
      <psa30 value="0.0004910932" flag="0"/>
    </comp>
    <comp name="--.HHZ">
      <acc value="0.0274799534" flag="0"/>
      <vel value="0.0108682451" flag="0"/>
      <psa03 value="0.0894082498" flag="0"/>
      <psa10 value="0.0036022195" flag="0"/>
      <psa30 value="0.0004358586" flag="0"/>
    </comp>
    <comp name="--.HHN">
      <acc value="0.0431174404" flag="0"/>
      <vel value="0.0184275006" flag="0"/>
      <psa03 value="0.1185635285" flag="0"/>
      <psa10 value="0.0138889667" flag="0"/>
      <psa30 value="0.0007458197" flag="0"/>
    </comp>
  </station>
  <station code="CHAN" name="CHAN" netid="HC" insttype="120" lat="35.5193" lon="24.0428">
    <comp name="--.HHE">
      <acc value="0.0601954705" flag="0"/>
      <vel value="0.0273662264" flag="0"/>
      <psa03 value="0.2639045085" flag="0"/>
      <psa10 value="0.0189239629" flag="0"/>
      <psa30 value="0.0009579059" flag="0"/>
    </comp>
    <comp name="--.HHN">
      <acc value="0.0606234753" flag="0"/>
      <vel value="0.0261086549" flag="0"/>
      <psa03 value="0.2135651517" flag="0"/>
      <psa10 value="0.0188556991" flag="0"/>
      <psa30 value="0.0015943623" flag="0"/>
    </comp>
    <comp name="--.HHZ">
      <acc value="0.0421971264" flag="0"/>
      <vel value="0.0117981466" flag="0"/>
      <psa03 value="0.0856248136" flag="0"/>
      <psa10 value="0.0111361222" flag="0"/>
      <psa30 value="0.0006548024" flag="0"/>
    </comp>
  </station>
  <station code="GVDS" name="GVDS" netid="HC" insttype="60" lat="34.8389" lon="24.0585">
    <comp name="--.HHN">
      <acc value="0.0153814399" flag="0"/>
      <vel value="0.0063329136" flag="0"/>
      <psa03 value="0.0494963427" flag="0"/>
      <psa10 value="0.0036681366" flag="0"/>
      <psa30 value="0.0002764475" flag="0"/>
    </comp>
    <comp name="--.HHE">
      <acc value="0.0105902271" flag="0"/>
      <vel value="0.0038727236" flag="0"/>
      <psa03 value="0.0220291307" flag="0"/>
      <psa10 value="0.0019843540" flag="0"/>
      <psa30 value="0.0001806012" flag="0"/>
    </comp>
    <comp name="--.HHZ">
      <acc value="0.0069843405" flag="0"/>
      <vel value="0.0031679346" flag="0"/>
      <psa03 value="0.0183642363" flag="0"/>
      <psa10 value="0.0021038514" flag="0"/>
      <psa30 value="0.0002385550" flag="0"/>
    </comp>
  </station>
  <station code="KNDR" name="KNDR" netid="HC" insttype="120" lat="35.2348" lon="23.6248">
    <comp name="--.HHZ">
      <acc value="0.0447951629" flag="0"/>
      <vel value="0.0169037527" flag="0"/>
      <psa03 value="0.0646365343" flag="0"/>
      <psa10 value="0.0090272943" flag="0"/>
      <psa30 value="0.0006115945" flag="0"/>
    </comp>
    <comp name="--.HHE">
      <acc value="0.0808031180" flag="0"/>
      <vel value="0.0403623054" flag="0"/>
      <psa03 value="0.1940049606" flag="0"/>
      <psa10 value="0.0169338761" flag="0"/>
      <psa30 value="0.0014112210" flag="0"/>
    </comp>
    <comp name="--.HHN">
      <acc value="0.0742859950" flag="0"/>
      <vel value="0.0305572138" flag="0"/>
      <psa03 value="0.1676365445" flag="0"/>
      <psa10 value="0.0135936065" flag="0"/>
      <psa30 value="0.0009912912" flag="0"/>
    </comp>
  </station>
  <station code="RODP" name="RODP" netid="HC" insttype="120" lat="35.5604" lon="23.7577">
    <comp name="--.HHZ">
      <acc value="0.0390296578" flag="0"/>
      <vel value="0.0139794922" flag="0"/>
      <psa03 value="0.1081980742" flag="0"/>
      <psa10 value="0.0080393083" flag="0"/>
      <psa30 value="0.0007916689" flag="0"/>
    </comp>
    <comp name="--.HHN">
      <acc value="0.0659710740" flag="0"/>
      <vel value="0.0195713846" flag="0"/>
      <psa03 value="0.1837201437" flag="0"/>
      <psa10 value="0.0113349196" flag="0"/>
      <psa30 value="0.0007526390" flag="0"/>
    </comp>
    <comp name="--.HHE">
      <acc value="0.0692728406" flag="0"/>
      <vel value="0.0259844506" flag="0"/>
      <psa03 value="0.1533921195" flag="0"/>
      <psa10 value="0.0224086571" flag="0"/>
      <psa30 value="0.0009308043" flag="0"/>
    </comp>
  </station>
  <station code="CH01" name="CH01" netid="HI" insttype="CMG-5TD,ACCELEROMETER,GURALP" lat="35.517" lon="24.0208">
    <comp name="--.HNE">
      <acc value="0.0351405533" flag="0"/>
      <vel value="0.0185765945" flag="0"/>
      <psa03 value="0.0734602132" flag="0"/>
      <psa10 value="0.0119078426" flag="0"/>
      <psa30 value="0.0007387928" flag="0"/>
    </comp>
    <comp name="--.HNN">
      <acc value="0.0385373310" flag="0"/>
      <vel value="0.0121480650" flag="0"/>
      <psa03 value="0.0492349940" flag="0"/>
      <psa10 value="0.0087693428" flag="0"/>
      <psa30 value="0.0008648105" flag="0"/>
    </comp>
    <comp name="--.HNZ">
      <acc value="0.0241574967" flag="0"/>
      <vel value="0.0074977417" flag="0"/>
      <psa03 value="0.0486716037" flag="0"/>
      <psa10 value="0.0097186485" flag="0"/>
      <psa30 value="0.0004164647" flag="0"/>
    </comp>
  </station>
  <station code="ANKY" name="ANKY" netid="HL" insttype="60" lat="35.867" lon="23.3012">
    <comp name="--.HHE">
      <acc value="0.0894031222" flag="0"/>
      <vel value="0.0296700415" flag="0"/>
      <psa03 value="0.1265357016" flag="0"/>
      <psa10 value="0.0256787767" flag="0"/>
      <psa30 value="0.0016522927" flag="0"/>
    </comp>
    <comp name="--.HHN">
      <acc value="0.1326047178" flag="0"/>
      <vel value="0.0295263511" flag="0"/>
      <psa03 value="0.1329440561" flag="0"/>
      <psa10 value="0.0229177705" flag="0"/>
      <psa30 value="0.0011900067" flag="0"/>
    </comp>
    <comp name="--.HHZ">
      <acc value="0.0990515875" flag="0"/>
      <vel value="0.0279962775" flag="0"/>
      <psa03 value="0.0867612808" flag="0"/>
      <psa10 value="0.0157078214" flag="0"/>
      <psa30 value="0.0011715472" flag="0"/>
    </comp>
  </station>
  <station code="IMMV" name="IMMV" netid="HL" insttype="120" lat="35.4606" lon="23.9811">
    <comp name="--.HHE">
      <acc value="0.0500475114" flag="0"/>
      <vel value="0.0188397582" flag="0"/>
      <psa03 value="0.1465985715" flag="0"/>
      <psa10 value="0.0068391981" flag="0"/>
      <psa30 value="0.0004788550" flag="0"/>
    </comp>
    <comp name="--.HHZ">
      <acc value="0.0265702205" flag="0"/>
      <vel value="0.0106611187" flag="0"/>
      <psa03 value="0.0867606022" flag="0"/>
      <psa10 value="0.0035400031" flag="0"/>
      <psa30 value="0.0004308490" flag="0"/>
    </comp>
    <comp name="--.HHN">
      <acc value="0.0418522783" flag="0"/>
      <vel value="0.0179965309" flag="0"/>
      <psa03 value="0.1151079009" flag="0"/>
      <psa10 value="0.0137342656" flag="0"/>
      <psa30 value="0.0007395751" flag="0"/>
    </comp>
  </station>
  <station code="VAM" name="VAM" netid="HL" insttype="CMG3ESPC-120s" lat="35.407" lon="24.1997">
    <comp name="--.HHN">
      <acc value="0.0259357330" flag="0"/>
      <vel value="0.0096569536" flag="0"/>
      <psa03 value="0.0430106345" flag="0"/>
      <psa10 value="0.0050648259" flag="0"/>
      <psa30 value="0.0004636442" flag="0"/>
    </comp>
    <comp name="--.HHZ">
      <acc value="0.0179749275" flag="0"/>
      <vel value="0.0065869494" flag="0"/>
      <psa03 value="0.0349762018" flag="0"/>
      <psa10 value="0.0049845445" flag="0"/>
      <psa30 value="0.0002567171" flag="0"/>
    </comp>
    <comp name="--.HHE">
      <acc value="0.0191647340" flag="0"/>
      <vel value="0.0083780939" flag="0"/>
      <psa03 value="0.0595218049" flag="0"/>
      <psa10 value="0.0065178054" flag="0"/>
      <psa30 value="0.0002704763" flag="0"/>
    </comp>
  </station>
</stationlist>
