<?xml version="1.0" encoding="UTF-8" standalone="yes"?>
<!DOCTYPE earthquake SYSTEM "stationlist.dtd">
<stationlist created="" xmlns="ch.ethz.sed.shakemap.usgs.xml">
  <station code="KTHA" name="KTHA" netid="GE" insttype="STS-2/N" lat="36.2566" lon="23.0621">
    <comp name="--.HHE">
      <acc value="0.0360914268" flag="0"/>
      <vel value="0.0162463051" flag="0"/>
      <psa03 value="0.0537164517" flag="0"/>
      <psa10 value="0.0266663611" flag="0"/>
      <psa30 value="0.0016006478" flag="0"/>
    </comp>
    <comp name="--.HHZ">
      <acc value="0.0138248242" flag="0"/>
      <vel value="0.0052638386" flag="0"/>
      <psa03 value="0.0291147655" flag="0"/>
      <psa10 value="0.0060930394" flag="0"/>
      <psa30 value="0.0007566648" flag="0"/>
    </comp>
    <comp name="--.HHN">
      <acc value="0.0197432171" flag="0"/>
      <vel value="0.0121067950" flag="0"/>
      <psa03 value="0.0411680421" flag="0"/>
      <psa10 value="0.0253976630" flag="0"/>
      <psa30 value="0.0020110123" flag="0"/>
    </comp>
  </station>
  <station code="KTHR" name="KTHR" netid="HC" insttype="120s" lat="36.2447" lon="22.9939">
    <comp name="--.HHN">
      <acc value="0.0756944803" flag="0"/>
      <vel value="0.0379043554" flag="0"/>
      <psa03 value="0.1889777786" flag="0"/>
      <psa10 value="0.0351629488" flag="0"/>
      <psa30 value="0.0027232492" flag="0"/>
    </comp>
    <comp name="--.HHE">
      <acc value="0.0694991770" flag="0"/>
      <vel value="0.0369201971" flag="0"/>
      <psa03 value="0.2402495461" flag="0"/>
      <psa10 value="0.0389809475" flag="0"/>
      <psa30 value="0.0018227513" flag="0"/>
    </comp>
    <comp name="--.HHZ">
      <acc value="0.0661036250" flag="0"/>
      <vel value="0.0214423792" flag="0"/>
      <psa03 value="0.1186690402" flag="0"/>
      <psa10 value="0.0106794927" flag="0"/>
      <psa30 value="0.0007363707" flag="0"/>
    </comp>
  </station>
  <station code="NPS1" name="NPS1" netid="HI" insttype="CMG-5TD,ACCELEROMETER,GURALP" lat="36.5126" lon="23.0625">
    <comp name="--.HNE">
      <acc value="0.1914236858" flag="0"/>
      <vel value="0.1433195399" flag="0"/>
      <psa03 value="0.4247065872" flag="0"/>
      <psa10 value="0.0956212727" flag="0"/>
      <psa30 value="0.0061460668" flag="0"/>
    </comp>
    <comp name="--.HNN">
      <acc value="0.0756544166" flag="0"/>
      <vel value="0.0496360947" flag="0"/>
      <psa03 value="0.2457634742" flag="0"/>
      <psa10 value="0.0330633282" flag="0"/>
      <psa30 value="0.0020284420" flag="0"/>
    </comp>
    <comp name="--.HNZ">
      <acc value="0.0363615852" flag="0"/>
      <vel value="0.0241173146" flag="0"/>
      <psa03 value="0.1140731608" flag="0"/>
      <psa10 value="0.0360701204" flag="0"/>
      <psa30 value="0.0015228165" flag="0"/>
    </comp>
  </station>
  <station code="ANKY" name="ANKY" netid="HL" insttype="60" lat="35.867" lon="23.3012">
    <comp name="--.HHN">
      <acc value="0.0086125206" flag="0"/>
      <vel value="0.0084644323" flag="0"/>
      <psa03 value="0.0220140923" flag="0"/>
      <psa10 value="0.0098954735" flag="0"/>
      <psa30 value="0.0010999498" flag="0"/>
    </comp>
    <comp name="--.HHE">
      <acc value="0.0127302504" flag="0"/>
      <vel value="0.0127315876" flag="0"/>
      <psa03 value="0.0199811176" flag="0"/>
      <psa10 value="0.0221910087" flag="0"/>
      <psa30 value="0.0012711709" flag="0"/>
    </comp>
    <comp name="--.HHZ">
      <acc value="0.0063363227" flag="0"/>
      <vel value="0.0050787103" flag="0"/>
      <psa03 value="0.0126555650" flag="0"/>
      <psa10 value="0.0080238119" flag="0"/>
      <psa30 value="0.0007970149" flag="0"/>
    </comp>
  </station>
  <station code="ITM" name="ITM" netid="HL" insttype="DR24" lat="37.1787" lon="21.9252">
    <comp name="--.HHE">
      <acc value="0.0609024923" flag="0"/>
      <vel value="0.0181749529" flag="0"/>
      <psa03 value="0.0917978394" flag="0"/>
      <psa10 value="0.0234737364" flag="0"/>
      <psa30 value="0.0011791039" flag="0"/>
    </comp>
    <comp name="--.HHZ">
      <acc value="0.0535190532" flag="0"/>
      <vel value="0.0111205403" flag="0"/>
      <psa03 value="0.0435458832" flag="0"/>
      <psa10 value="0.0090210351" flag="0"/>
      <psa30 value="0.0007902459" flag="0"/>
    </comp>
    <comp name="--.HHN">
      <acc value="0.0607215653" flag="0"/>
      <vel value="0.0184368311" flag="0"/>
      <psa03 value="0.0634698766" flag="0"/>
      <psa10 value="0.0107058105" flag="0"/>
      <psa30 value="0.0007990533" flag="0"/>
    </comp>
  </station>
  <station code="KTHA" name="KTHA" netid="HL" insttype="120" lat="36.2566" lon="23.0621">
    <comp name="--.HHN">
      <acc value="0.0186574146" flag="0"/>
      <vel value="0.0119963517" flag="0"/>
      <psa03 value="0.0402472854" flag="0"/>
      <psa10 value="0.0251862513" flag="0"/>
      <psa30 value="0.0020044425" flag="0"/>
    </comp>
    <comp name="--.HHE">
      <acc value="0.0346461871" flag="0"/>
      <vel value="0.0160696865" flag="0"/>
      <psa03 value="0.0525818801" flag="0"/>
      <psa10 value="0.0264929534" flag="0"/>
      <psa30 value="0.0015909859" flag="0"/>
    </comp>
    <comp name="--.HHZ">
      <acc value="0.0131490469" flag="0"/>
      <vel value="0.0052060866" flag="0"/>
      <psa03 value="0.0283734931" flag="0"/>
      <psa10 value="0.0060491562" flag="0"/>
      <psa30 value="0.0007547296" flag="0"/>
    </comp>
  </station>
  <station code="MNVA" name="MNVA" netid="HL" insttype="CMG-5" lat="36.6871" lon="23.0373">
    <comp name="00.HNN">
      <acc value="0.0177952803" flag="0"/>
      <vel value="0.0076984099" flag="0"/>
      <psa03 value="0.0438989291" flag="0"/>
      <psa10 value="0.0102714142" flag="0"/>
      <psa30 value="0.0007381697" flag="0"/>
    </comp>
    <comp name="00.HNZ">
      <acc value="0.0252429947" flag="0"/>
      <vel value="0.0132699421" flag="0"/>
      <psa03 value="0.0613724872" flag="0"/>
      <psa10 value="0.0078530440" flag="0"/>
      <psa30 value="0.0007752322" flag="0"/>
    </comp>
    <comp name="00.HNE">
      <acc value="0.0181820467" flag="0"/>
      <vel value="0.0115703416" flag="0"/>
      <psa03 value="0.0534634236" flag="0"/>
      <psa10 value="0.0108970747" flag="0"/>
      <psa30 value="0.0006143113" flag="0"/>
    </comp>
  </station>
  <station code="VLI" name="VLI" netid="HL" insttype="60" lat="36.718" lon="22.9469">
    <comp name="--.HHN">
      <acc value="0.0607923806" flag="0"/>
      <vel value="0.0327023794" flag="0"/>
      <psa03 value="0.2202156558" flag="0"/>
      <psa10 value="0.0187048326" flag="0"/>
      <psa30 value="0.0017184235" flag="0"/>
    </comp>
    <comp name="--.HHE">
      <acc value="0.0594141651" flag="0"/>
      <vel value="0.0300270751" flag="0"/>
      <psa03 value="0.1195590877" flag="0"/>
      <psa10 value="0.0377899689" flag="0"/>
      <psa30 value="0.0019891140" flag="0"/>
    </comp>
    <comp name="--.HHZ">
      <acc value="0.0497582369" flag="0"/>
      <vel value="0.0228690525" flag="0"/>
      <psa03 value="0.1044713994" flag="0"/>
      <psa10 value="0.0124577618" flag="0"/>
      <psa30 value="0.0014174740" flag="0"/>
    </comp>
  </station>
  <station code="PYL" name="PYL" netid="HP" insttype="120s" lat="36.8955" lon="21.742">
    <comp name="--.HHE">
      <acc value="0.1601685636" flag="0"/>
      <vel value="0.0365529718" flag="0"/>
      <psa03 value="0.1414884255" flag="0"/>
      <psa10 value="0.0256282091" flag="0"/>
      <psa30 value="0.0013967267" flag="0"/>
    </comp>
    <comp name="--.HHZ">
      <acc value="0.0647685012" flag="0"/>
      <vel value="0.0185330407" flag="0"/>
      <psa03 value="0.0652401941" flag="0"/>
      <psa10 value="0.0155994311" flag="0"/>
      <psa30 value="0.0009976442" flag="0"/>
    </comp>
    <comp name="--.HHN">
      <acc value="0.0775217509" flag="0"/>
      <vel value="0.0287085939" flag="0"/>
      <psa03 value="0.0966145297" flag="0"/>
      <psa10 value="0.0183868740" flag="0"/>
      <psa30 value="0.0011417069" flag="0"/>
    </comp>
  </station>
  <station code="VALY" name="VALY" netid="HP" insttype="DC_100" lat="37.1641" lon="21.9836">
    <comp name="--.HNN">
      <acc value="0.0606055566" flag="0"/>
      <vel value="0.0190428611" flag="0"/>
      <psa03 value="0.0848599196" flag="0"/>
      <psa10 value="0.0160667059" flag="0"/>
      <psa30 value="0.0008018553" flag="0"/>
    </comp>
    <comp name="--.HNE">
      <acc value="0.0397615794" flag="0"/>
      <vel value="0.0146974519" flag="0"/>
      <psa03 value="0.0631784253" flag="0"/>
      <psa10 value="0.0154444996" flag="0"/>
      <psa30 value="0.0008316375" flag="0"/>
    </comp>
    <comp name="--.HNZ">
      <acc value="0.0265994505" flag="0"/>
      <vel value="0.0082813338" flag="0"/>
      <psa03 value="0.0364707391" flag="0"/>
      <psa10 value="0.0103861875" flag="0"/>
      <psa30 value="0.0007648512" flag="0"/>
    </comp>
  </station>
  <station code="VLX" name="VLX" netid="HP" insttype="40," lat="37.3703" lon="22.3793">
    <comp name="--.HHE">
      <acc value="0.0283035295" flag="0"/>
      <vel value="0.0168734376" flag="0"/>
      <psa03 value="0.0513269501" flag="0"/>
      <psa10 value="0.0316879285" flag="0"/>
      <psa30 value="0.0014121566" flag="0"/>
    </comp>
    <comp name="--.HHN">
      <acc value="0.0150960819" flag="0"/>
      <vel value="0.0155193780" flag="0"/>
      <psa03 value="0.0401182484" flag="0"/>
      <psa10 value="0.0282708795" flag="0"/>
      <psa30 value="0.0017780550" flag="0"/>
    </comp>
    <comp name="--.HHZ">
      <acc value="0.0158837781" flag="0"/>
      <vel value="0.0079834882" flag="0"/>
      <psa03 value="0.0385061606" flag="0"/>
      <psa10 value="0.0096756382" flag="0"/>
      <psa30 value="0.0006316164" flag="0"/>
    </comp>
  </station>
</stationlist>
