<?xml version="1.0" encoding="UTF-8" standalone="yes"?>
<!DOCTYPE earthquake SYSTEM "stationlist.dtd">
<stationlist created="" xmlns="ch.ethz.sed.shakemap.usgs.xml">
  <station code="KTHR" name="KTHR" netid="HC" insttype="120s" commtype="DIG" lat="36.2447" lon="22.9939">
    <comp name="--.HHZ">
      <acc value="0.0128553785" flag="0"/>
      <vel value="0.0057692531" flag="0"/>
      <psa03 value="0.0383487775" flag="0"/>
      <psa10 value="0.0039198770" flag="0"/>
      <psa30 value="0.0003988145" flag="0"/>
    </comp>
    <comp name="--.HHE">
      <acc value="0.0210763256" flag="0"/>
      <vel value="0.0137037301" flag="0"/>
      <psa03 value="0.0779983140" flag="0"/>
      <psa10 value="0.0140094225" flag="0"/>
      <psa30 value="0.0011118171" flag="0"/>
    </comp>
    <comp name="--.HHN">
      <acc value="0.0292909335" flag="0"/>
      <vel value="0.0182034299" flag="0"/>
      <psa03 value="0.1045871942" flag="0"/>
      <psa10 value="0.0099796110" flag="0"/>
      <psa30 value="0.0009062407" flag="0"/>
    </comp>
  </station>
</stationlist>
