<stationlist created="1770374099">
	<station code="KTHA" name="KTHA" netid="GE" source="GEOFON" insttype="" lat="36.2566" lon="23.0621">
		<comp name="--.HNE" depth="0.0">
			<acc value="0.008142207471186" flag="0"/>
			<vel value="0.00963781454152" flag="0"/>
			<psa03 value="0.0176111145665639" flag="0"/>
			<psa10 value="0.0134038838790394" flag="0"/>
			<psa30 value="0.00219163976871016" flag="0"/>
		</comp>
		<comp name="--.HNN" depth="0.0">
			<acc value="0.0047274512425224" flag="0"/>
			<vel value="0.00506624388313" flag="0"/>
			<psa03 value="0.0139651126201775" flag="0"/>
			<psa10 value="0.00764849386266684" flag="0"/>
			<psa30 value="0.00187076267884573" flag="0"/>
		</comp>
		<comp name="--.HNZ" depth="0.0">
			<acc value="0.0059669104323924" flag="0"/>
			<vel value="0.015614602526" flag="0"/>
			<psa03 value="0.0102622996186336" flag="0"/>
			<psa10 value="0.00949766729886375" flag="0"/>
			<psa30 value="0.00616988747478055" flag="0"/>
		</comp>
	</station>
	<station code="ATEI" name="ATEI" netid="HC" source="Seismological Network of Crete (HC)" insttype="" lat="35.5193" lon="24.0432">
		<comp name="--.HNE" depth="0.0">
			<acc value="0.0031281136474548" flag="0"/>
			<vel value="0.00321593274173" flag="0"/>
			<psa03 value="0.0102976470123195" flag="0"/>
			<psa10 value="0.00493662733984677" flag="0"/>
			<psa30 value="0.0011115052984368" flag="0"/>
		</comp>
		<comp name="--.HNN" depth="0.0">
			<acc value="0.0032206333253052" flag="0"/>
			<vel value="0.00444208402643" flag="0"/>
			<psa03 value="0.00862891081571881" flag="0"/>
			<psa10 value="0.00437334565017263" flag="0"/>
			<psa30 value="0.0014981536203232" flag="0"/>
		</comp>
		<comp name="--.HNZ" depth="0.0">
			<acc value="0.0060403535086716" flag="0"/>
			<vel value="0.00217582995896" flag="0"/>
			<psa03 value="0.00536870102770396" flag="0"/>
			<psa10 value="0.00245910751318044" flag="0"/>
			<psa30 value="0.000958405677172362" flag="0"/>
		</comp>
	</station>
	<station code="G0LD" name="G0LD" netid="HC" source="Seismological Network of Crete (HC)" insttype="" lat="35.4955" lon="24.0306">
		<comp name="--.HNE" depth="0.0">
			<acc value="0.0091357522784058" flag="0"/>
			<vel value="0.00350465547624" flag="0"/>
			<psa03 value="0.00336213808973153" flag="0"/>
			<psa10 value="0.00299161372660188" flag="0"/>
			<psa30 value="0.00194709627723869" flag="0"/>
		</comp>
		<comp name="--.HNN" depth="0.0">
			<acc value="0.0090439663250604" flag="0"/>
			<vel value="0.00259289899588" flag="0"/>
			<psa03 value="0.00344488999090733" flag="0"/>
			<psa10 value="0.00209297052402428" flag="0"/>
			<psa30 value="0.00136537107413084" flag="0"/>
		</comp>
		<comp name="--.HNZ" depth="0.0">
			<acc value="0.009906286753179" flag="0"/>
			<vel value="0.00481235605143" flag="0"/>
			<psa03 value="0.00342323067848201" flag="0"/>
			<psa10 value="0.00235707497277233" flag="0"/>
			<psa30 value="0.00250416005497913" flag="0"/>
		</comp>
	</station>
	<station code="MULT" name="MULT" netid="HC" source="Seismological Network of Crete (HC)" insttype="" lat="35.5091" lon="24.0118">
		<comp name="--.HNE" depth="0.0">
			<acc value="0.019686480706722" flag="0"/>
			<vel value="0.00147983357929" flag="0"/>
			<psa03 value="0.00313108860415033" flag="0"/>
			<psa10 value="0.00114724002245695" flag="0"/>
			<psa30 value="0.000762461030133081" flag="0"/>
		</comp>
		<comp name="--.HNN" depth="0.0">
			<acc value="0.016775047026924" flag="0"/>
			<vel value="0.00180546444131" flag="0"/>
			<psa03 value="0.00247944680326414" flag="0"/>
			<psa10 value="0.00107796637092014" flag="0"/>
			<psa30 value="0.00105817239039622" flag="0"/>
		</comp>
		<comp name="--.HNZ" depth="0.0">
			<acc value="0.016092981849312" flag="0"/>
			<vel value="0.00380233070494" flag="0"/>
			<psa03 value="0.00931791934974758" flag="0"/>
			<psa10 value="0.00227288119222298" flag="0"/>
			<psa30 value="0.0022066265948478" flag="0"/>
		</comp>
	</station>
	<station code="ARE2" name="ARE2" netid="HI" source="ITSAK Strong Motion Network" insttype="" lat="36.66629" lon="22.382635">
		<comp name="--.HNE" depth="0.0">
			<acc value="0.021513303610152" flag="0"/>
			<vel value="0.0115101643973" flag="0"/>
			<psa03 value="0.0527111272703588" flag="0"/>
			<psa10 value="0.011310814910996" flag="0"/>
			<psa30 value="0.000819456889163035" flag="0"/>
		</comp>
		<comp name="--.HNN" depth="0.0">
			<acc value="0.015943037506662" flag="0"/>
			<vel value="0.0087727492849" flag="0"/>
			<psa03 value="0.039613566912741" flag="0"/>
			<psa10 value="0.00587004729933726" flag="0"/>
			<psa30 value="0.000749612887341982" flag="0"/>
		</comp>
		<comp name="--.HNZ" depth="0.0">
			<acc value="0.0074281912095402" flag="0"/>
			<vel value="0.00605895464771" flag="0"/>
			<psa03 value="0.0157569839270119" flag="0"/>
			<psa10 value="0.00659565333589761" flag="0"/>
			<psa30 value="0.000707879706054841" flag="0"/>
		</comp>
	</station>
	<station code="CH01" name="CH01" netid="HI" source="ITSAK Strong Motion Network" insttype="" lat="35.517" lon="24.0208">
		<comp name="--.HNE" depth="0.0">
			<acc value="0.010367101761528" flag="0"/>
			<vel value="0.00332068163379" flag="0"/>
			<psa03 value="0.00772120224697186" flag="0"/>
			<psa10 value="0.00569745570971066" flag="0"/>
			<psa30 value="0.00102437160959093" flag="0"/>
		</comp>
		<comp name="--.HNN" depth="0.0">
			<acc value="0.0089592345646128" flag="0"/>
			<vel value="0.0036200047626" flag="0"/>
			<psa03 value="0.00572413049764702" flag="0"/>
			<psa10 value="0.00500795472117535" flag="0"/>
			<psa30 value="0.0013407513181961" flag="0"/>
		</comp>
		<comp name="--.HNZ" depth="0.0">
			<acc value="0.01414171255752" flag="0"/>
			<vel value="0.00223916926352" flag="0"/>
			<psa03 value="0.00426334460013716" flag="0"/>
			<psa10 value="0.0045620309621647" flag="0"/>
			<psa30 value="0.000561866595905799" flag="0"/>
		</comp>
	</station>
	<station code="CH02" name="CH02" netid="HI" source="ITSAK Strong Motion Network" insttype="" lat="35.5145" lon="24.0315">
		<comp name="--.HNE" depth="0.0">
			<acc value="0.0045585322969956" flag="0"/>
			<vel value="0.00325811449455" flag="0"/>
			<psa03 value="0.00834368879615628" flag="0"/>
			<psa10 value="0.00669622187310114" flag="0"/>
			<psa30 value="0.000824815421225687" flag="0"/>
		</comp>
		<comp name="--.HNN" depth="0.0">
			<acc value="0.0054634367902944" flag="0"/>
			<vel value="0.00373703691886" flag="0"/>
			<psa03 value="0.00981352640004741" flag="0"/>
			<psa10 value="0.00825988748952173" flag="0"/>
			<psa30 value="0.00101479878793726" flag="0"/>
		</comp>
		<comp name="--.HNZ" depth="0.0">
			<acc value="0.0043948218841404" flag="0"/>
			<vel value="0.00194991842431" flag="0"/>
			<psa03 value="0.00388114024451435" flag="0"/>
			<psa10 value="0.00384538755055201" flag="0"/>
			<psa30 value="0.000548984023745099" flag="0"/>
		</comp>
	</station>
	<station code="CH03" name="CH03" netid="HI" source="ITSAK Strong Motion Network" insttype="" lat="35.53303" lon="24.0705">
		<comp name="--.HNE" depth="0.0">
			<acc value="0.0067719427176624" flag="0"/>
			<vel value="0.00252419887184" flag="0"/>
			<psa03 value="0.00418993023158743" flag="0"/>
			<psa10 value="0.00390042104000254" flag="0"/>
			<psa30 value="0.000784363001866786" flag="0"/>
		</comp>
		<comp name="--.HNN" depth="0.0">
			<acc value="0.0070495049363676" flag="0"/>
			<vel value="0.00249563554985" flag="0"/>
			<psa03 value="0.00681131384633" flag="0"/>
			<psa10 value="0.00392074691774181" flag="0"/>
			<psa30 value="0.000775894732553345" flag="0"/>
		</comp>
		<comp name="--.HNZ" depth="0.0">
			<acc value="0.0044214475504182" flag="0"/>
			<vel value="0.00145623682114" flag="0"/>
			<psa03 value="0.00445921369529396" flag="0"/>
			<psa10 value="0.00218635264763341" flag="0"/>
			<psa30 value="0.000322187358956243" flag="0"/>
		</comp>
	</station>
	<station code="GTH2" name="GTH2" netid="HI" source="ITSAK Strong Motion Network" insttype="" lat="36.7603" lon="22.5659">
		<comp name="--.HNE" depth="0.0">
			<acc value="0.028330616330184" flag="0"/>
			<vel value="0.0196152475841" flag="0"/>
			<psa03 value="0.0598634656605957" flag="0"/>
			<psa10 value="0.0141776604504315" flag="0"/>
			<psa30 value="0.00144260223198462" flag="0"/>
		</comp>
		<comp name="--.HNN" depth="0.0">
			<acc value="0.017861969780274" flag="0"/>
			<vel value="0.0144934760365" flag="0"/>
			<psa03 value="0.0561992593834311" flag="0"/>
			<psa10 value="0.0112879993370493" flag="0"/>
			<psa30 value="0.000819948848838673" flag="0"/>
		</comp>
		<comp name="--.HNZ" depth="0.0">
			<acc value="0.048973433442228" flag="0"/>
			<vel value="0.00609511215865" flag="0"/>
			<psa03 value="0.0233745406361134" flag="0"/>
			<psa10 value="0.00723377638967472" flag="0"/>
			<psa30 value="0.000608323163006605" flag="0"/>
		</comp>
	</station>
	<station code="KIS1" name="KIS1" netid="HI" source="ITSAK Strong Motion Network" insttype="" lat="35.493933" lon="23.658993">
		<comp name="--.HNE" depth="0.0">
			<acc value="0.0063098392146828" flag="0"/>
			<vel value="0.00353231220608" flag="0"/>
			<psa03 value="0.0119604733122339" flag="0"/>
			<psa10 value="0.00649719947008399" flag="0"/>
			<psa30 value="0.000672044415477993" flag="0"/>
		</comp>
		<comp name="--.HNN" depth="0.0">
			<acc value="0.0047032355863956" flag="0"/>
			<vel value="0.00504861567918" flag="0"/>
			<psa03 value="0.0111197392323068" flag="0"/>
			<psa10 value="0.00965476989362408" flag="0"/>
			<psa30 value="0.000637992628464078" flag="0"/>
		</comp>
		<comp name="--.HNZ" depth="0.0">
			<acc value="0.0064441649426358" flag="0"/>
			<vel value="0.00188433695517" flag="0"/>
			<psa03 value="0.00605943526202014" flag="0"/>
			<psa10 value="0.00316015082885832" flag="0"/>
			<psa30 value="0.000499476577453114" flag="0"/>
		</comp>
	</station>
	<station code="KYP2" name="KYP2" netid="HI" source="ITSAK Strong Motion Network" insttype="" lat="37.2497" lon="21.667">
		<comp name="--.HNE" depth="0.0">
			<acc value="0.0094519795515432" flag="0"/>
			<vel value="0.002160004089" flag="0"/>
			<psa03 value="0.0113423360095113" flag="0"/>
			<psa10 value="0.00310104738229351" flag="0"/>
			<psa30 value="0.000336573442171839" flag="0"/>
		</comp>
		<comp name="--.HNN" depth="0.0">
			<acc value="0.0069596652243978" flag="0"/>
			<vel value="0.00185522680092" flag="0"/>
			<psa03 value="0.00743577708893233" flag="0"/>
			<psa10 value="0.00189202986894409" flag="0"/>
			<psa30 value="0.000324608248495018" flag="0"/>
		</comp>
		<comp name="--.HNZ" depth="0.0">
			<acc value="0.01095528931797" flag="0"/>
			<vel value="0.00140281150993" flag="0"/>
			<psa03 value="0.00619743203384912" flag="0"/>
			<psa10 value="0.00204775541937256" flag="0"/>
			<psa30 value="0.0004036465052249" flag="0"/>
		</comp>
	</station>
	<station code="LEO1" name="LEO1" netid="HI" source="ITSAK Strong Motion Network" insttype="" lat="37.1689" lon="22.8637">
		<comp name="--.HNE" depth="0.0">
			<acc value="0.003591329494635" flag="0"/>
			<vel value="0.00289711058984" flag="0"/>
			<psa03 value="0.00926153801059907" flag="0"/>
			<psa10 value="0.0027022459636592" flag="0"/>
			<psa30 value="0.000445969699554055" flag="0"/>
		</comp>
		<comp name="--.HNN" depth="0.0">
			<acc value="0.0029889873448266" flag="0"/>
			<vel value="0.00203620081288" flag="0"/>
			<psa03 value="0.00683239987856661" flag="0"/>
			<psa10 value="0.00280735464534324" flag="0"/>
			<psa30 value="0.000473273695811452" flag="0"/>
		</comp>
		<comp name="--.HNZ" depth="0.0">
			<acc value="0.0028203826186536" flag="0"/>
			<vel value="0.00136953939371" flag="0"/>
			<psa03 value="0.00504585965406188" flag="0"/>
			<psa10 value="0.0016642579442321" flag="0"/>
			<psa30 value="0.000363974970930555" flag="0"/>
		</comp>
	</station>
	<station code="NPS1" name="NPS1" netid="HI" source="ITSAK Strong Motion Network" insttype="" lat="36.51263" lon="23.06248">
		<comp name="--.HNE" depth="0.0">
			<acc value="0.01455027529407" flag="0"/>
			<vel value="0.0099983190258" flag="0"/>
			<psa03 value="0.0411616876972787" flag="0"/>
			<psa10 value="0.0158155739541701" flag="0"/>
			<psa30 value="0.00126492275325893" flag="0"/>
		</comp>
		<comp name="--.HNN" depth="0.0">
			<acc value="0.013054906754106" flag="0"/>
			<vel value="0.0101767204663" flag="0"/>
			<psa03 value="0.0364090916111181" flag="0"/>
			<psa10 value="0.0126733823618704" flag="0"/>
			<psa30 value="0.000886254751692793" flag="0"/>
		</comp>
		<comp name="--.HNZ" depth="0.0">
			<acc value="0.02623216262337" flag="0"/>
			<vel value="0.0036257653899" flag="0"/>
			<psa03 value="0.0237922063252186" flag="0"/>
			<psa10 value="0.00396505844691439" flag="0"/>
			<psa30 value="0.000865572860788612" flag="0"/>
		</comp>
	</station>
	<station code="PET1" name="PET1" netid="HI" source="ITSAK Strong Motion Network" insttype="" lat="36.963862" lon="21.92538">
		<comp name="--.HNE" depth="0.0">
			<acc value="0.014350075981554" flag="0"/>
			<vel value="0.014000462895" flag="0"/>
			<psa03 value="0.0385571974542848" flag="0"/>
			<psa10 value="0.0203291460811663" flag="0"/>
			<psa30 value="0.00120724091128529" flag="0"/>
		</comp>
		<comp name="--.HNN" depth="0.0">
			<acc value="0.013624064696256" flag="0"/>
			<vel value="0.0106373581018" flag="0"/>
			<psa03 value="0.0310993023636503" flag="0"/>
			<psa10 value="0.0140487944136847" flag="0"/>
			<psa30 value="0.00064658033277599" flag="0"/>
		</comp>
		<comp name="--.HNZ" depth="0.0">
			<acc value="0.037429256324862" flag="0"/>
			<vel value="0.00602571047968" flag="0"/>
			<psa03 value="0.0242352825518796" flag="0"/>
			<psa10 value="0.00263642933800512" flag="0"/>
			<psa30 value="0.000517829980776197" flag="0"/>
		</comp>
	</station>
	<station code="PYL1" name="PYL1" netid="HI" source="ITSAK Strong Motion Network" insttype="" lat="36.914188" lon="21.695161">
		<comp name="--.HNE" depth="0.0">
			<acc value="0.003869328078816" flag="0"/>
			<vel value="0.00251002749434" flag="0"/>
			<psa03 value="0.0109640974113986" flag="0"/>
			<psa10 value="0.00360601388072314" flag="0"/>
			<psa30 value="0.00050376102794709" flag="0"/>
		</comp>
		<comp name="--.HNN" depth="0.0">
			<acc value="0.004731545990886" flag="0"/>
			<vel value="0.00268998500564" flag="0"/>
			<psa03 value="0.0198092471612355" flag="0"/>
			<psa10 value="0.00312908916179997" flag="0"/>
			<psa30 value="0.000671428905952626" flag="0"/>
		</comp>
		<comp name="--.HNZ" depth="0.0">
			<acc value="0.0036378602470188" flag="0"/>
			<vel value="0.00148838088732" flag="0"/>
			<psa03 value="0.00704859649219473" flag="0"/>
			<psa10 value="0.00204819630795355" flag="0"/>
			<psa30 value="0.000373839009791556" flag="0"/>
		</comp>
	</station>
	<station code="PYR2" name="PYR2" netid="HI" source="ITSAK Strong Motion Network" insttype="" lat="37.6671" lon="21.4506">
		<comp name="--.HNE" depth="0.0">
			<acc value="0.0041872034864358" flag="0"/>
			<vel value="0.00262839778467" flag="0"/>
			<psa03 value="0.0123867489467514" flag="0"/>
			<psa10 value="0.00432021213036651" flag="0"/>
			<psa30 value="0.000766924294556011" flag="0"/>
		</comp>
		<comp name="--.HNN" depth="0.0">
			<acc value="0.0037615044071454" flag="0"/>
			<vel value="0.00226997448804" flag="0"/>
			<psa03 value="0.00770120613063796" flag="0"/>
			<psa10 value="0.00356886251337781" flag="0"/>
			<psa30 value="0.000809133861562026" flag="0"/>
		</comp>
		<comp name="--.HNZ" depth="0.0">
			<acc value="0.0050371444530246" flag="0"/>
			<vel value="0.00143553306394" flag="0"/>
			<psa03 value="0.00465286031250371" flag="0"/>
			<psa10 value="0.00218772828563807" flag="0"/>
			<psa30 value="0.00066720435526448" flag="0"/>
		</comp>
	</station>
	<station code="TRP1" name="TRP1" netid="HI" source="ITSAK Strong Motion Network" insttype="" lat="37.511219" lon="22.363399">
		<comp name="--.HNE" depth="0.0">
			<acc value="0.0017778356740812" flag="0"/>
			<vel value="0.00119791961158" flag="0"/>
			<psa03 value="0.00538170514437763" flag="0"/>
			<psa10 value="0.00302850187338597" flag="0"/>
			<psa30 value="0.000303422027303562" flag="0"/>
		</comp>
		<comp name="--.HNN" depth="0.0">
			<acc value="0.0017146203943524" flag="0"/>
			<vel value="0.00120299530194" flag="0"/>
			<psa03 value="0.00396967247652997" flag="0"/>
			<psa10 value="0.00213303138098434" flag="0"/>
			<psa30 value="0.00021674654589497" flag="0"/>
		</comp>
		<comp name="--.HNZ" depth="0.0">
			<acc value="0.0016448438089104" flag="0"/>
			<vel value="0.000992519717629" flag="0"/>
			<psa03 value="0.00210747782620811" flag="0"/>
			<psa10 value="0.00119916994693716" flag="0"/>
			<psa30 value="0.000390148475629947" flag="0"/>
		</comp>
	</station>
	<station code="CHNB" name="CHNB" netid="HL" source="National Observatory of Athens Seismic Network" insttype="" lat="35.48765" lon="24.06605">
		<comp name="00.HNE" depth="0.0">
			<acc value="0.007123075645971" flag="0"/>
			<vel value="0.00665610665325" flag="0"/>
			<psa03 value="0.0175755835669691" flag="0"/>
			<psa10 value="0.0135724134807633" flag="0"/>
			<psa30 value="0.000597039498851676" flag="0"/>
		</comp>
		<comp name="00.HNN" depth="0.0">
			<acc value="0.0127619260746" flag="0"/>
			<vel value="0.00622183519557" flag="0"/>
			<psa03 value="0.0138646398185312" flag="0"/>
			<psa10 value="0.0144991401843788" flag="0"/>
			<psa30 value="0.000709494188008429" flag="0"/>
		</comp>
		<comp name="00.HNZ" depth="0.0">
			<acc value="0.027534800315298" flag="0"/>
			<vel value="0.00269617731923" flag="0"/>
			<psa03 value="0.0196263574415067" flag="0"/>
			<psa10 value="0.00261255595963605" flag="0"/>
			<psa30 value="0.00036347795883922" flag="0"/>
		</comp>
	</station>
	<station code="KTHA" name="KTHA" netid="HL" source="National Observatory of Athens Seismic Network" insttype="" lat="36.2566" lon="23.0621">
		<comp name="--.HNE" depth="0.0">
			<acc value="0.078542566797666" flag="0"/>
			<vel value="0.0577255305207" flag="0"/>
			<psa03 value="0.180494936070245" flag="0"/>
			<psa10 value="0.0846638685656049" flag="0"/>
			<psa30 value="0.0053525658312324" flag="0"/>
		</comp>
		<comp name="--.HNN" depth="0.0">
			<acc value="0.05291740730874" flag="0"/>
			<vel value="0.0321060514252" flag="0"/>
			<psa03 value="0.151310231893756" flag="0"/>
			<psa10 value="0.050032563161571" flag="0"/>
			<psa30 value="0.00348631157603148" flag="0"/>
		</comp>
		<comp name="--.HNZ" depth="0.0">
			<acc value="0.04674132966051" flag="0"/>
			<vel value="0.0349746193435" flag="0"/>
			<psa03 value="0.106586946278606" flag="0"/>
			<psa10 value="0.0526025709121397" flag="0"/>
			<psa30 value="0.0126294424719107" flag="0"/>
		</comp>
	</station>
	<station code="MNVA" name="MNVA" netid="HL" source="National Observatory of Athens Seismic Network" insttype="" lat="36.68709" lon="23.03734">
		<comp name="00.HNE" depth="0.0">
			<acc value="0.0035685373939704" flag="0"/>
			<vel value="0.00243450039068" flag="0"/>
			<psa03 value="0.00446068058934306" flag="0"/>
			<psa10 value="0.00612049826548761" flag="0"/>
			<psa30 value="0.000610947920218339" flag="0"/>
		</comp>
		<comp name="00.HNN" depth="0.0">
			<acc value="0.0041523668462802" flag="0"/>
			<vel value="0.00183950340025" flag="0"/>
			<psa03 value="0.00595435408217411" flag="0"/>
			<psa10 value="0.00338484157289285" flag="0"/>
			<psa30 value="0.000572644132778786" flag="0"/>
		</comp>
		<comp name="00.HNZ" depth="0.0">
			<acc value="0.0054378639583674" flag="0"/>
			<vel value="0.00220072622457" flag="0"/>
			<psa03 value="0.00538374010991121" flag="0"/>
			<psa10 value="0.00303980559095093" flag="0"/>
			<psa30 value="0.000837879567909489" flag="0"/>
		</comp>
	</station>
	<station code="ZARA" name="ZARA" netid="HL" source="National Observatory of Athens Seismic Network" insttype="" lat="37.4865" lon="21.6491">
		<comp name="00.HNE" depth="0.0">
			<acc value="0.0057291472643802" flag="0"/>
			<vel value="0.00327884585269" flag="0"/>
			<psa03 value="0.012266458426016" flag="0"/>
