<stationlist created="1775808484">
	<station code="KTHA" name="KTHA" netid="GE" source="GEOFON" insttype="" lat="36.2566" lon="23.0621">
		<comp name="--.HNE" depth="0.0">
			<acc value="0.00810818225558327" flag="0"/>
			<vel value="0.00893298441204077" flag="0"/>
			<psa03 value="0.0176761188727921" flag="0"/>
			<psa10 value="0.0134428395846484" flag="0"/>
			<psa30 value="0.00199746503058856" flag="0"/>
		</comp>
		<comp name="--.HNN" depth="0.0">
			<acc value="0.00471814783753987" flag="0"/>
			<vel value="0.00414740234464829" flag="0"/>
			<psa03 value="0.0139778517453284" flag="0"/>
			<psa10 value="0.00756679095026457" flag="0"/>
			<psa30 value="0.00163136619500409" flag="0"/>
		</comp>
		<comp name="--.HNZ" depth="0.0">
			<acc value="0.0061031436697887" flag="0"/>
			<vel value="0.0112740074128904" flag="0"/>
			<psa03 value="0.0100847396790937" flag="0"/>
			<psa10 value="0.00926044720917969" flag="0"/>
			<psa30 value="0.00572763609444814" flag="0"/>
		</comp>
	</station>
	<station code="ARE2" name="ARE2" netid="HI" source="ITSAK Strong Motion Network" insttype="" lat="36.66629" lon="22.382635">
		<comp name="--.HNE" depth="0.0">
			<acc value="0.0216033932421886" flag="0"/>
			<vel value="0.0113847899869647" flag="0"/>
			<psa03 value="0.0528251608659883" flag="0"/>
			<psa10 value="0.0113032947253019" flag="0"/>
			<psa30 value="0.000789131963619731" flag="0"/>
		</comp>
		<comp name="--.HNN" depth="0.0">
			<acc value="0.0161083339587089" flag="0"/>
			<vel value="0.00886776513452031" flag="0"/>
			<psa03 value="0.0396784436063239" flag="0"/>
			<psa10 value="0.00587505294342424" flag="0"/>
			<psa30 value="0.000718006731088807" flag="0"/>
		</comp>
		<comp name="--.HNZ" depth="0.0">
			<acc value="0.00743284298893342" flag="0"/>
			<vel value="0.00599364863555378" flag="0"/>
			<psa03 value="0.015802406206857" flag="0"/>
			<psa10 value="0.00658472089294302" flag="0"/>
			<psa30 value="0.000661000975570607" flag="0"/>
		</comp>
	</station>
	<station code="GTH2" name="GTH2" netid="HI" source="ITSAK Strong Motion Network" insttype="" lat="36.7603" lon="22.5659">
		<comp name="--.HNE" depth="0.0">
			<acc value="0.0284268297216781" flag="0"/>
			<vel value="0.0194792876830205" flag="0"/>
			<psa03 value="0.0599488984036386" flag="0"/>
			<psa10 value="0.0141500454960693" flag="0"/>
			<psa30 value="0.0014226829957663" flag="0"/>
		</comp>
		<comp name="--.HNN" depth="0.0">
			<acc value="0.0178886355807289" flag="0"/>
			<vel value="0.0145202440993845" flag="0"/>
			<psa03 value="0.0562993753906499" flag="0"/>
			<psa10 value="0.0112751134834329" flag="0"/>
			<psa30 value="0.000811480162828249" flag="0"/>
		</comp>
		<comp name="--.HNZ" depth="0.0">
			<acc value="0.0500518917876364" flag="0"/>
			<vel value="0.00619297934624518" flag="0"/>
			<psa03 value="0.0234269347319526" flag="0"/>
			<psa10 value="0.00723238692263891" flag="0"/>
			<psa30 value="0.000588225737901607" flag="0"/>
		</comp>
	</station>
	<station code="KAL3" name="KAL3" netid="HI" source="ITSAK Strong Motion Network" insttype="" lat="37.0246" lon="22.103">
		<comp name="--.HNE" depth="0.0">
			<acc value="0.0219767418619793" flag="0"/>
			<vel value="0.0130945934413363" flag="0"/>
			<psa03 value="0.0575505363989264" flag="0"/>
			<psa10 value="0.0154234798548459" flag="0"/>
			<psa30 value="0.00187455251323751" flag="0"/>
		</comp>
		<comp name="--.HNN" depth="0.0">
			<acc value="0.0212479165339709" flag="0"/>
			<vel value="0.013302696532711" flag="0"/>
			<psa03 value="0.050016651899386" flag="0"/>
			<psa10 value="0.0144211837701493" flag="0"/>
			<psa30 value="0.00189858410521254" flag="0"/>
		</comp>
		<comp name="--.HNZ" depth="0.0">
			<acc value="0.0079333384004918" flag="0"/>
			<vel value="0.00592811039598009" flag="0"/>
			<psa03 value="0.0340119432284836" flag="0"/>
			<psa10 value="0.00720894365088721" flag="0"/>
			<psa30 value="0.000768454135481765" flag="0"/>
		</comp>
	</station>
	<station code="NPS1" name="NPS1" netid="HI" source="ITSAK Strong Motion Network" insttype="" lat="36.51263" lon="23.06248">
		<comp name="--.HNE" depth="0.0">
			<acc value="0.0145551599219226" flag="0"/>
			<vel value="0.0100596488052942" flag="0"/>
			<psa03 value="0.0411793477213554" flag="0"/>
			<psa10 value="0.015812253109166" flag="0"/>
			<psa30 value="0.00121407219715804" flag="0"/>
		</comp>
		<comp name="--.HNN" depth="0.0">
			<acc value="0.0130654795388434" flag="0"/>
			<vel value="0.0101395509807584" flag="0"/>
			<psa03 value="0.0364344266227862" flag="0"/>
			<psa10 value="0.0126656221603085" flag="0"/>
			<psa30 value="0.000847572397511665" flag="0"/>
		</comp>
		<comp name="--.HNZ" depth="0.0">
			<acc value="0.0271836636959278" flag="0"/>
			<vel value="0.00360528299356897" flag="0"/>
			<psa03 value="0.0237952403803942" flag="0"/>
			<psa10 value="0.00396887057444735" flag="0"/>
			<psa30 value="0.000806722608080262" flag="0"/>
		</comp>
	</station>
	<station code="PET1" name="PET1" netid="HI" source="ITSAK Strong Motion Network" insttype="" lat="36.963862" lon="21.92538">
		<comp name="--.HNE" depth="0.0">
			<acc value="0.0143575848100379" flag="0"/>
			<vel value="0.0139812368863992" flag="0"/>
			<psa03 value="0.0385952025760886" flag="0"/>
			<psa10 value="0.0203107904901898" flag="0"/>
			<psa30 value="0.00114407724783616" flag="0"/>
		</comp>
		<comp name="--.HNN" depth="0.0">
			<acc value="0.0136788209592531" flag="0"/>
			<vel value="0.0106787286082141" flag="0"/>
			<psa03 value="0.0311100843279063" flag="0"/>
			<psa10 value="0.014040571993987" flag="0"/>
			<psa30 value="0.000630078093748114" flag="0"/>
		</comp>
		<comp name="--.HNZ" depth="0.0">
			<acc value="0.0386714798239293" flag="0"/>
			<vel value="0.00621060206125514" flag="0"/>
			<psa03 value="0.0242640188304992" flag="0"/>
			<psa10 value="0.0026325640038203" flag="0"/>
			<psa30 value="0.000473274112503911" flag="0"/>
		</comp>
	</station>
	<station code="PYL1" name="PYL1" netid="HI" source="ITSAK Strong Motion Network" insttype="" lat="36.914188" lon="21.695161">
		<comp name="--.HNE" depth="0.0">
			<acc value="0.00380387123405115" flag="0"/>
			<vel value="0.00249274513336165" flag="0"/>
			<psa03 value="0.0109664595470411" flag="0"/>
			<psa10 value="0.00360923698486203" flag="0"/>
			<psa30 value="0.000464206324307445" flag="0"/>
		</comp>
		<comp name="--.HNN" depth="0.0">
			<acc value="0.00474247034547375" flag="0"/>
			<vel value="0.00266176730148022" flag="0"/>
			<psa03 value="0.0198215774051405" flag="0"/>
			<psa10 value="0.0031371139902807" flag="0"/>
			<psa30 value="0.000625402263163953" flag="0"/>
		</comp>
		<comp name="--.HNZ" depth="0.0">
			<acc value="0.00355429768648239" flag="0"/>
			<vel value="0.00147314537239329" flag="0"/>
			<psa03 value="0.00705983161148807" flag="0"/>
			<psa10 value="0.0020431698030971" flag="0"/>
			<psa30 value="0.000347268369408502" flag="0"/>
		</comp>
	</station>
	<station code="KTHA" name="KTHA" netid="HL" source="National Observatory of Athens Seismic Network" insttype="" lat="36.2566" lon="23.0621">
		<comp name="--.HNE" depth="0.0">
			<acc value="0.0804155358901222" flag="0"/>
			<vel value="0.0586389682514678" flag="0"/>
			<psa03 value="0.18477736559363" flag="0"/>
			<psa10 value="0.0845686347570113" flag="0"/>
			<psa30 value="0.00510906720062804" flag="0"/>
		</comp>
		<comp name="--.HNN" depth="0.0">
			<acc value="0.0536490986610032" flag="0"/>
			<vel value="0.0312735096320598" flag="0"/>
			<psa03 value="0.153176188837427" flag="0"/>
			<psa10 value="0.0500834990360141" flag="0"/>
			<psa30 value="0.00390601875457274" flag="0"/>
		</comp>
		<comp name="--.HNZ" depth="0.0">
			<acc value="0.0478126178862303" flag="0"/>
			<vel value="0.0339892295089681" flag="0"/>
			<psa03 value="0.107559010673252" flag="0"/>
			<psa10 value="0.0525070258327703" flag="0"/>
			<psa30 value="0.0117741341452693" flag="0"/>
		</comp>
	</station>
</stationlist>
