<?xml version="1.0" encoding="UTF-8" standalone="yes"?>
<!DOCTYPE earthquake SYSTEM "stationlist.dtd">
<stationlist created="" xmlns="ch.ethz.sed.shakemap.usgs.xml">
  <station code="AYDN" name="AYDN" netid="TU" insttype="T" lat="37.6608" lon="27.8792">
    <comp name="--.HHN">
      <acc value="0.0194979931" flag="0"/>
      <vel value="0.0141598390" flag="0"/>
      <psa03 value="0.0469890207" flag="0"/>
      <psa10 value="0.0117184718" flag="0"/>
      <psa30 value="0.0010490652" flag="0"/>
    </comp>
    <comp name="--.HHE">
      <acc value="0.0327247333" flag="0"/>
      <vel value="0.0128718411" flag="0"/>
      <psa03 value="0.0673410373" flag="0"/>
      <psa10 value="0.0070577540" flag="0"/>
      <psa30 value="0.0004663263" flag="0"/>
    </comp>
  </station>
</stationlist>
