<?xml version="1.0" encoding="UTF-8" standalone="yes"?>
<!DOCTYPE earthquake SYSTEM "stationlist.dtd">
<stationlist created="" xmlns="ch.ethz.sed.shakemap.usgs.xml">
  <station code="MYT1" name="MYT1" netid="HI" insttype="CMG-5TD,ACCELEROMETER,GURALP" lat="39.085" lon="26.5694">
    <comp name="--.HNE">
      <acc value="0.0300925496" flag="0"/>
      <vel value="0.0104439184" flag="0"/>
      <psa03 value="0.0490362449" flag="0"/>
      <psa10 value="0.0091012016" flag="0"/>
      <psa30 value="0.0004606662" flag="0"/>
    </comp>
    <comp name="--.HNN">
      <acc value="0.0127072556" flag="0"/>
      <vel value="0.0055033376" flag="0"/>
      <psa03 value="0.0389796542" flag="0"/>
      <psa10 value="0.0087702119" flag="0"/>
      <psa30 value="0.0005226932" flag="0"/>
    </comp>
    <comp name="--.HNZ">
      <acc value="0.0108799306" flag="0"/>
      <vel value="0.0057493043" flag="0"/>
      <psa03 value="0.0192265214" flag="0"/>
      <psa10 value="0.0037281707" flag="0"/>
      <psa30 value="0.0003688747" flag="0"/>
    </comp>
  </station>
  <station code="SMG" name="SMG" netid="HL" insttype="120" lat="37.7043" lon="26.8377">
    <comp name="--.HHZ">
      <acc value="0.0287712095" flag="0"/>
      <vel value="0.0097931892" flag="0"/>
      <psa03 value="0.0350922410" flag="0"/>
      <psa10 value="0.0028916819" flag="0"/>
      <psa30 value="0.0002509643" flag="0"/>
    </comp>
    <comp name="--.HHE">
      <acc value="0.0554486775" flag="0"/>
      <vel value="0.0211162924" flag="0"/>
      <psa03 value="0.1159710708" flag="0"/>
      <psa10 value="0.0058878189" flag="0"/>
      <psa30 value="0.0004532843" flag="0"/>
    </comp>
    <comp name="--.HHN">
      <acc value="0.0614194297" flag="0"/>
      <vel value="0.0164728165" flag="0"/>
      <psa03 value="0.0890765677" flag="0"/>
      <psa10 value="0.0125494233" flag="0"/>
      <psa30 value="0.0005515406" flag="0"/>
    </comp>
  </station>
  <station code="CHOS" name="CHOS" netid="HT" insttype="100" lat="38.3869" lon="26.0506">
    <comp name="--.HHN">
      <acc value="0.0316148333" flag="0"/>
      <vel value="0.0084863064" flag="0"/>
      <psa03 value="0.0584767430" flag="0"/>
      <psa10 value="0.0034752123" flag="0"/>
      <psa30 value="0.0002183139" flag="0"/>
    </comp>
    <comp name="--.HHE">
      <acc value="0.0370399880" flag="0"/>
      <vel value="0.0111732721" flag="0"/>
      <psa03 value="0.0752514136" flag="0"/>
      <psa10 value="0.0033302135" flag="0"/>
      <psa30 value="0.0002644803" flag="0"/>
    </comp>
    <comp name="--.HHZ">
      <acc value="0.0167685066" flag="0"/>
      <vel value="0.0040638465" flag="0"/>
      <psa03 value="0.0314413115" flag="0"/>
      <psa10 value="0.0022836291" flag="0"/>
      <psa30 value="0.0001766508" flag="0"/>
    </comp>
  </station>
  <station code="AKS" name="AKS" netid="KO" insttype="CMG-5T" lat="38.8785" lon="27.8129">
    <comp name="--.HNE">
      <acc value="0.0333209278" flag="0"/>
      <vel value="0.0153594528" flag="0"/>
      <psa03 value="0.0749411166" flag="0"/>
      <psa10 value="0.0052361484" flag="0"/>
      <psa30 value="0.0004282893" flag="0"/>
    </comp>
    <comp name="--.HNZ">
      <acc value="0.0220192401" flag="0"/>
      <vel value="0.0048243913" flag="0"/>
      <psa03 value="0.0288067703" flag="0"/>
      <psa10 value="0.0023680401" flag="0"/>
      <psa30 value="0.0003634516" flag="0"/>
    </comp>
    <comp name="--.HNN">
      <acc value="0.0551187132" flag="0"/>
      <vel value="0.0151238682" flag="0"/>
      <psa03 value="0.0790378749" flag="0"/>
      <psa10 value="0.0095944427" flag="0"/>
      <psa30 value="0.0006895431" flag="0"/>
    </comp>
  </station>
  <station code="AYDB" name="AYDB" netid="KO" insttype="CMG-3ESPC" lat="37.9467" lon="27.8908">
    <comp name="--.HHN">
      <acc value="0.0521589681" flag="0"/>
      <vel value="0.0141594312" flag="0"/>
      <psa03 value="0.0578089060" flag="0"/>
      <psa10 value="0.0061463170" flag="0"/>
      <psa30 value="0.0004082217" flag="0"/>
    </comp>
    <comp name="--.HHE">
      <acc value="0.0719953504" flag="0"/>
      <vel value="0.0222655128" flag="0"/>
      <psa03 value="0.0910078177" flag="0"/>
      <psa10 value="0.0096118581" flag="0"/>
      <psa30 value="0.0005409199" flag="0"/>
    </comp>
    <comp name="--.HHZ">
      <acc value="0.0298063227" flag="0"/>
      <vel value="0.0146974469" flag="0"/>
      <psa03 value="0.0959651654" flag="0"/>
      <psa10 value="0.0052228442" flag="0"/>
      <psa30 value="0.0004237018" flag="0"/>
    </comp>
  </station>
  <station code="BLCB" name="BLCB" netid="KO" insttype="CMG-3T" lat="38.3853" lon="27.042">
    <comp name="--.HHN">
      <acc value="0.0003912167" flag="0"/>
      <vel value="0.0001067166" flag="0"/>
      <psa03 value="0.0003464468" flag="0"/>
      <psa10 value="0.0000215027" flag="0"/>
      <psa30 value="0.0000041053" flag="0"/>
    </comp>
    <comp name="--.HHZ">
      <acc value="0.6086583602" flag="0"/>
      <vel value="0.0922174133" flag="0"/>
      <psa03 value="0.4494650881" flag="0"/>
      <psa10 value="0.0159243346" flag="0"/>
      <psa30 value="0.0018071517" flag="0"/>
    </comp>
    <comp name="--.HHE">
      <acc value="0.8187387439" flag="0"/>
      <vel value="0.2368652851" flag="0"/>
      <psa03 value="1.0334968946" flag="0"/>
      <psa10 value="0.0473551061" flag="0"/>
      <psa30 value="0.0049371619" flag="0"/>
    </comp>
  </station>
  <station code="FOCM" name="FOCM" netid="KO" insttype="CMG-5T" lat="38.7131" lon="26.7309">
    <comp name="--.HNZ">
      <acc value="0.0694321970" flag="0"/>
      <vel value="0.0182453344" flag="0"/>
      <psa03 value="0.1213400829" flag="0"/>
      <psa10 value="0.0041746194" flag="0"/>
      <psa30 value="0.0004863196" flag="0"/>
    </comp>
    <comp name="--.HNE">
      <acc value="0.1196256032" flag="0"/>
      <vel value="0.0365913370" flag="0"/>
      <psa03 value="0.1042536862" flag="0"/>
      <psa10 value="0.0096293505" flag="0"/>
      <psa30 value="0.0006233542" flag="0"/>
    </comp>
    <comp name="--.HNN">
      <acc value="0.1384922822" flag="0"/>
      <vel value="0.0480360702" flag="0"/>
      <psa03 value="0.1807057357" flag="0"/>
      <psa10 value="0.0107286584" flag="0"/>
      <psa30 value="0.0008645277" flag="0"/>
    </comp>
  </station>
  <station code="GORD" name="GORD" netid="KO" insttype="CMG-5T" lat="38.9088" lon="28.1769">
    <comp name="--.HNE">
      <acc value="0.0165108849" flag="0"/>
      <vel value="0.0130136544" flag="0"/>
      <psa03 value="0.0439754498" flag="0"/>
      <psa10 value="0.0116908715" flag="0"/>
      <psa30 value="0.0006127708" flag="0"/>
    </comp>
    <comp name="--.HNN">
      <acc value="0.0162219304" flag="0"/>
      <vel value="0.0099149184" flag="0"/>
      <psa03 value="0.0421860943" flag="0"/>
      <psa10 value="0.0077056027" flag="0"/>
      <psa30 value="0.0004525110" flag="0"/>
    </comp>
    <comp name="--.HNZ">
      <acc value="0.0158128112" flag="0"/>
      <vel value="0.0087021368" flag="0"/>
      <psa03 value="0.0456126561" flag="0"/>
      <psa10 value="0.0057673672" flag="0"/>
      <psa30 value="0.0003770348" flag="0"/>
    </comp>
  </station>
  <station code="KRBN" name="KRBN" netid="KO" insttype="CMG-5T" lat="38.5936" lon="26.5537">
    <comp name="--.HNE">
      <acc value="0.0555746346" flag="0"/>
      <vel value="0.0178311094" flag="0"/>
      <psa03 value="0.1202007425" flag="0"/>
      <psa10 value="0.0084603428" flag="0"/>
      <psa30 value="0.0006791491" flag="0"/>
    </comp>
    <comp name="--.HNZ">
      <acc value="0.0424596575" flag="0"/>
      <vel value="0.0106472911" flag="0"/>
      <psa03 value="0.0719740490" flag="0"/>
      <psa10 value="0.0055841334" flag="0"/>
      <psa30 value="0.0004515125" flag="0"/>
    </comp>
    <comp name="--.HNN">
      <acc value="0.0699457027" flag="0"/>
      <vel value="0.0223444980" flag="0"/>
      <psa03 value="0.1299413106" flag="0"/>
      <psa10 value="0.0148013847" flag="0"/>
      <psa30 value="0.0009827790" flag="0"/>
    </comp>
  </station>
  <station code="KUSD" name="KUSD" netid="KO" insttype="CMG-5T" lat="37.8606" lon="27.2868">
    <comp name="--.HNE">
      <acc value="0.0394851843" flag="0"/>
      <vel value="0.0123822191" flag="0"/>
      <psa03 value="0.1226394609" flag="0"/>
      <psa10 value="0.0057522762" flag="0"/>
      <psa30 value="0.0004036405" flag="0"/>
    </comp>
    <comp name="--.HNN">
      <acc value="0.0491447236" flag="0"/>
      <vel value="0.0275229868" flag="0"/>
      <psa03 value="0.1612665340" flag="0"/>
      <psa10 value="0.0092605250" flag="0"/>
      <psa30 value="0.0007421808" flag="0"/>
    </comp>
    <comp name="--.HNZ">
      <acc value="0.0390311918" flag="0"/>
      <vel value="0.0143991581" flag="0"/>
      <psa03 value="0.0755159786" flag="0"/>
      <psa10 value="0.0034751339" flag="0"/>
      <psa30 value="0.0003978076" flag="0"/>
    </comp>
  </station>
  <station code="NAZL" name="NAZL" netid="KO" insttype="CMG-5T" lat="37.9641" lon="28.2922">
    <comp name="--.HNN">
      <acc value="0.0278406355" flag="0"/>
      <vel value="0.0120039887" flag="0"/>
      <psa03 value="0.0868497741" flag="0"/>
      <psa10 value="0.0053229105" flag="0"/>
      <psa30 value="0.0004756263" flag="0"/>
    </comp>
    <comp name="--.HNE">
      <acc value="0.0259984825" flag="0"/>
      <vel value="0.0109194812" flag="0"/>
      <psa03 value="0.1042611873" flag="0"/>
      <psa10 value="0.0073848468" flag="0"/>
      <psa30 value="0.0003382026" flag="0"/>
    </comp>
    <comp name="--.HNZ">
      <acc value="0.0147542748" flag="0"/>
      <vel value="0.0049564748" flag="0"/>
      <psa03 value="0.0305176876" flag="0"/>
      <psa10 value="0.0034490104" flag="0"/>
      <psa30 value="0.0001981603" flag="0"/>
    </comp>
  </station>
  <station code="SOMA" name="SOMA" netid="KO" insttype="CMG-5T" lat="39.1564" lon="27.5341">
    <comp name="--.HNE">
      <acc value="0.0293383060" flag="0"/>
      <vel value="0.0113088757" flag="0"/>
      <psa03 value="0.0555386559" flag="0"/>
      <psa10 value="0.0055956521" flag="0"/>
      <psa30 value="0.0004627280" flag="0"/>
    </comp>
    <comp name="--.HNN">
      <acc value="0.0417712320" flag="0"/>
      <vel value="0.0132803342" flag="0"/>
      <psa03 value="0.0442821090" flag="0"/>
      <psa10 value="0.0057278353" flag="0"/>
      <psa30 value="0.0005653676" flag="0"/>
    </comp>
    <comp name="--.HNZ">
      <acc value="0.0287045463" flag="0"/>
      <vel value="0.0083288248" flag="0"/>
      <psa03 value="0.0354875582" flag="0"/>
      <psa10 value="0.0026877863" flag="0"/>
      <psa30 value="0.0003390783" flag="0"/>
    </comp>
  </station>
  <station code="AYDN" name="AYDN" netid="TU" insttype="T" lat="37.6608" lon="27.8792">
    <comp name="--.HHN">
      <acc value="0.0194979931" flag="0"/>
      <vel value="0.0141598390" flag="0"/>
      <psa03 value="0.0469890207" flag="0"/>
      <psa10 value="0.0117184718" flag="0"/>
      <psa30 value="0.0010490652" flag="0"/>
    </comp>
    <comp name="--.HHE">
      <acc value="0.0327247333" flag="0"/>
      <vel value="0.0128718411" flag="0"/>
      <psa03 value="0.0673410373" flag="0"/>
      <psa10 value="0.0070577540" flag="0"/>
      <psa30 value="0.0004663263" flag="0"/>
    </comp>
    <comp name="--.HHZ">
      <acc value="0.0188561245" flag="0"/>
      <vel value="0.0080241584" flag="0"/>
      <psa03 value="0.0217012056" flag="0"/>
      <psa10 value="0.0061650894" flag="0"/>
      <psa30 value="0.0004792455" flag="0"/>
    </comp>
  </station>
</stationlist>
