<?xml version="1.0" encoding="UTF-8" standalone="yes"?>
<!DOCTYPE earthquake SYSTEM "stationlist.dtd">
<stationlist created="" xmlns="ch.ethz.sed.shakemap.usgs.xml">
  <station code="SKR" name="SKR" netid="VI" insttype="LE-3D/5s" commtype="DIG" lat="64.5601" lon="-18.3865">
    <comp name="--.HHN">
      <acc value="0.0064800153" flag="0"/>
      <vel value="0.0174893408" flag="0"/>
      <psa03 value="0.0107604258" flag="0"/>
      <psa10 value="0.0180643886" flag="0"/>
      <psa30 value="0.0114605895" flag="0"/>
    </comp>
    <comp name="--.HHE">
      <acc value="0.0097723767" flag="0"/>
      <vel value="0.0207109066" flag="0"/>
      <psa03 value="0.0121208200" flag="0"/>
      <psa10 value="0.0289992276" flag="0"/>
      <psa30 value="0.0090174344" flag="0"/>
    </comp>
    <comp name="--.HHZ">
      <acc value="0.0083753994" flag="0"/>
      <vel value="0.0179716320" flag="0"/>
      <psa03 value="0.0191575845" flag="0"/>
      <psa10 value="0.0181296727" flag="0"/>
      <psa30 value="0.0100527294" flag="0"/>
    </comp>
  </station>
</stationlist>
