<stationlist created="1778550975">
	<station code="4802" name="4802" netid="TK" source="Turkish National Strong Motion Network (TNSMN)" insttype="" lat="37.03304" lon="27.43997">
		<comp name="00.HNE" depth="None">
			<acc value="1.76406420650048" flag="0"/>
			<vel value="0.8001527462809" flag="0"/>
			<psa03 value="5.48588669567292" flag="0"/>
			<psa10 value="0.284787277079763" flag="0"/>
			<psa30 value="0.0421283669076323" flag="0"/>
		</comp>
		<comp name="00.HNN" depth="None">
			<acc value="1.59558084984486" flag="0"/>
			<vel value="0.899984780824475" flag="0"/>
			<psa03 value="4.26616940105221" flag="0"/>
			<psa10 value="0.659847325076683" flag="0"/>
			<psa30 value="0.0590006530233826" flag="0"/>
		</comp>
		<comp name="00.HNZ" depth="None">
			<acc value="0.984525027896235" flag="0"/>
			<vel value="0.569985854874985" flag="0"/>
			<psa03 value="2.51035098673137" flag="0"/>
			<psa10 value="0.307880967025784" flag="0"/>
			<psa30 value="0.0411923599451781" flag="0"/>
		</comp>
	</station>
	<station code="4804" name="4804" netid="TK" source="Turkish National Strong Motion Network (TNSMN)" insttype="" lat="36.96996" lon="28.68684">
		<comp name="00.HNE" depth="None">
			<acc value="0.207606646132752" flag="0"/>
			<vel value="0.0724721990313911" flag="0"/>
			<psa03 value="0.370331244179435" flag="0"/>
			<psa10 value="0.0786554569687232" flag="0"/>
			<psa30 value="0.0120781586766025" flag="0"/>
		</comp>
		<comp name="00.HNN" depth="None">
			<acc value="0.182375970673079" flag="0"/>
			<vel value="0.106162898048321" flag="0"/>
			<psa03 value="0.368675782534559" flag="0"/>
			<psa10 value="0.129477682044352" flag="0"/>
			<psa30 value="0.00799409005648661" flag="0"/>
		</comp>
		<comp name="00.HNZ" depth="None">
			<acc value="0.0920944950308078" flag="0"/>
			<vel value="0.0575140108439086" flag="0"/>
			<psa03 value="0.257804594534482" flag="0"/>
			<psa10 value="0.0573255048075945" flag="0"/>
			<psa30 value="0.009816887554115" flag="0"/>
		</comp>
	</station>
</stationlist>
