<?xml version="1.0" encoding="UTF-8" standalone="yes"?>
<!DOCTYPE earthquake SYSTEM "stationlist.dtd">
<stationlist created="" xmlns="ch.ethz.sed.shakemap.usgs.xml">
  <station code="AMOE" name="AMOE" netid="ZZ" source="GFZ" insttype="L4-3D" lat="36.915" lon="25.979">
    <comp name="--.HHE">
      <acc value="0.0407389869" flag="0"/>
      <vel value="0.0295449439" flag="0"/>
      <psa03 value="0.1037316757" flag="0"/>
      <psa10 value="0.0428249181" flag="0"/>
      <psa30 value="0.0041622680" flag="0"/>
    </comp>
    <comp name="--.HHN">
      <acc value="0.0426981399" flag="0"/>
      <vel value="0.0421300488" flag="0"/>
      <psa03 value="0.1139951161" flag="0"/>
      <psa10 value="0.0501114840" flag="0"/>
      <psa30 value="0.0051305681" flag="0"/>
    </comp>
    <comp name="--.HHZ">
      <acc value="0.0323859127" flag="0"/>
      <vel value="0.0289609921" flag="0"/>
      <psa03 value="0.0711814108" flag="0"/>
      <psa10 value="0.0444021256" flag="0"/>
      <psa30 value="0.0046801101" flag="0"/>
    </comp>
  </station>
</stationlist>
