<stationlist created="1775820573">
	<station code="ACB" name="ACB" netid="CH" source="Switzerland Seismological Network" insttype="" lat="47.58772" lon="8.25474">
		<comp name="--.HGE" depth="0.0">
			<acc value="0.0504865672332161" flag="0"/>
			<vel value="0.0185867639821072" flag="0"/>
			<psa03 value="0.115524377488378" flag="0"/>
			<psa10 value="0.0102844436132759" flag="0"/>
			<psa30 value="0.000635786756045642" flag="0"/>
		</comp>
		<comp name="--.HGN" depth="0.0">
			<acc value="0.0577167140424906" flag="0"/>
			<vel value="0.0226336855263959" flag="0"/>
			<psa03 value="0.100133058411692" flag="0"/>
			<psa10 value="0.00582275076930189" flag="0"/>
			<psa30 value="0.000371807736997838" flag="0"/>
		</comp>
		<comp name="--.HGZ" depth="0.0">
			<acc value="0.0293426761852816" flag="0"/>
			<vel value="0.00898078774356279" flag="0"/>
			<psa03 value="0.0636681600178007" flag="0"/>
			<psa10 value="0.00275433023942081" flag="0"/>
			<psa30 value="0.000234896584745927" flag="0"/>
		</comp>
	</station>
	<station code="BALST" name="BALST" netid="CH" source="Switzerland Seismological Network" insttype="" lat="47.33599" lon="7.69485">
		<comp name="--.HGE" depth="0.0">
			<acc value="0.0227515712515874" flag="0"/>
			<vel value="0.00926340809811545" flag="0"/>
			<psa03 value="0.045279113097691" flag="0"/>
			<psa10 value="0.00158655864668392" flag="0"/>
			<psa30 value="0.000173152339612712" flag="0"/>
		</comp>
		<comp name="--.HGN" depth="0.0">
			<acc value="0.023495923052679" flag="0"/>
			<vel value="0.00649999536709076" flag="0"/>
			<psa03 value="0.0280086213430381" flag="0"/>
			<psa10 value="0.00143354030004943" flag="0"/>
			<psa30 value="0.000170915229281798" flag="0"/>
		</comp>
		<comp name="--.HGZ" depth="0.0">
			<acc value="0.00927529211011539" flag="0"/>
			<vel value="0.00347950872051972" flag="0"/>
			<psa03 value="0.0190154378127655" flag="0"/>
			<psa10 value="0.00135300432813654" flag="0"/>
			<psa30 value="0.000126620444729709" flag="0"/>
		</comp>
	</station>
	<station code="BLOTZ" name="BLOTZ" netid="CH" source="Switzerland Seismological Network" insttype="" lat="47.620722" lon="7.44">
		<comp name="SF.HGE" depth="1.0">
			<acc value="0.0289854911091003" flag="0"/>
			<vel value="0.00700016176002666" flag="0"/>
			<psa03 value="0.0317669666989729" flag="0"/>
			<psa10 value="0.00217044444305236" flag="0"/>
			<psa30 value="0.000158387411428682" flag="0"/>
		</comp>
		<comp name="SF.HGN" depth="1.0">
			<acc value="0.032186476362691" flag="0"/>
			<vel value="0.00791348061472575" flag="0"/>
			<psa03 value="0.0328855218644297" flag="0"/>
			<psa10 value="0.00244829354615183" flag="0"/>
			<psa30 value="0.000182995625068731" flag="0"/>
		</comp>
		<comp name="SF.HGZ" depth="1.0">
			<acc value="0.0248294333898463" flag="0"/>
			<vel value="0.00471722606105659" flag="0"/>
			<psa03 value="0.0171362651347981" flag="0"/>
			<psa10 value="0.00124025396745849" flag="0"/>
			<psa30 value="0.000127962710928257" flag="0"/>
		</comp>
	</station>
	<station code="BNALP" name="BNALP" netid="CH" source="Switzerland Seismological Network" insttype="" lat="46.87034" lon="8.4249">
		<comp name="--.HGE" depth="0.0">
			<acc value="0.00728016100617149" flag="0"/>
			<vel value="0.00411355506281784" flag="0"/>
			<psa03 value="0.0157939989362499" flag="0"/>
			<psa10 value="0.00250466872649085" flag="0"/>
			<psa30 value="0.000196418287054213" flag="0"/>
		</comp>
		<comp name="--.HGN" depth="0.0">
			<acc value="0.00576699159414192" flag="0"/>
			<vel value="0.00243757776890885" flag="0"/>
			<psa03 value="0.0129304977126805" flag="0"/>
			<psa10 value="0.00156239785511005" flag="0"/>
			<psa30 value="9.70905883616497e-05" flag="0"/>
		</comp>
		<comp name="--.HGZ" depth="0.0">
			<acc value="0.0054603865167258" flag="0"/>
			<vel value="0.00196733991761772" flag="0"/>
			<psa03 value="0.00930637897660052" flag="0"/>
			<psa10 value="0.000946297669976447" flag="0"/>
			<psa30 value="8.85895691041781e-05" flag="0"/>
		</comp>
	</station>
	<station code="BOBI" name="BOBI" netid="CH" source="Switzerland Seismological Network" insttype="" lat="47.54631" lon="8.33985">
		<comp name="SF.HGE" depth="1.0">
			<acc value="0.0652074166980538" flag="0"/>
			<vel value="0.0315656423347336" flag="0"/>
			<psa03 value="0.127962710928257" flag="0"/>
			<psa10 value="0.0078442036643154" flag="0"/>
			<psa30 value="0.000730192812010195" flag="0"/>
		</comp>
		<comp name="SF.HGN" depth="1.0">
			<acc value="0.0472827561273831" flag="0"/>
			<vel value="0.0185032724397099" flag="0"/>
			<psa03 value="0.0835784419629317" flag="0"/>
			<psa10 value="0.00635428818392695" flag="0"/>
			<psa30 value="0.000655920749023864" flag="0"/>
		</comp>
		<comp name="SF.HGZ" depth="1.0">
			<acc value="0.041907204209323" flag="0"/>
			<vel value="0.00863884253677289" flag="0"/>
			<psa03 value="0.0499770447926096" flag="0"/>
			<psa10 value="0.0025086955250865" flag="0"/>
			<psa30 value="0.000258162532187428" flag="0"/>
		</comp>
	</station>
	<station code="FUSIO" name="FUSIO" netid="CH" source="Switzerland Seismological Network" insttype="" lat="46.45481" lon="8.6629">
		<comp name="--.HGE" depth="0.0">
			<acc value="0.0085533437932296" flag="0"/>
			<vel value="0.00248766462362177" flag="0"/>
			<psa03 value="0.011364520481041" flag="0"/>
			<psa10 value="0.00140535270987992" flag="0"/>
			<psa30 value="0.000106933873817669" flag="0"/>
		</comp>
		<comp name="--.HGN" depth="0.0">
			<acc value="0.00544106666958327" flag="0"/>
			<vel value="0.00163894262806111" flag="0"/>
			<psa03 value="0.00854576146408991" flag="0"/>
			<psa10 value="0.00081341331632018" flag="0"/>
			<psa30 value="4.78741610815508e-05" flag="0"/>
		</comp>
		<comp name="--.HGZ" depth="0.0">
			<acc value="0.00440941721270229" flag="0"/>
			<vel value="0.00155148206444609" flag="0"/>
			<psa03 value="0.00827730822438028" flag="0"/>
			<psa10 value="0.00169528220876632" flag="0"/>
			<psa30 value="8.90369911703608e-05" flag="0"/>
		</comp>
	</station>
	<station code="HAMIK" name="HAMIK" netid="CH" source="Switzerland Seismological Network" insttype="" lat="47.24508" lon="8.27061">
		<comp name="SF.HGE" depth="1.0">
			<acc value="0.0478415241439813" flag="0"/>
			<vel value="0.0148725335947423" flag="0"/>
			<psa03 value="0.0548539453140012" flag="0"/>
			<psa10 value="0.00505363223753379" flag="0"/>
			<psa30 value="0.000316774822857364" flag="0"/>
		</comp>
		<comp name="SF.HGN" depth="1.0">
			<acc value="0.0331899653065205" flag="0"/>
			<vel value="0.00967296805830159" flag="0"/>
			<psa03 value="0.0534669369088348" flag="0"/>
			<psa10 value="0.00436504967767859" flag="0"/>
			<psa30 value="0.000318564511122095" flag="0"/>
		</comp>
		<comp name="SF.HGZ" depth="1.0">
			<acc value="0.0149906137630709" flag="0"/>
			<vel value="0.00447050210198638" flag="0"/>
			<psa03 value="0.0191496644326203" flag="0"/>
			<psa10 value="0.00125233436324543" flag="0"/>
			<psa30 value="0.000117672003406055" flag="0"/>
		</comp>
	</station>
	<station code="HAUIG" name="HAUIG" netid="CH" source="Switzerland Seismological Network" insttype="" lat="47.66038" lon="7.70018">
		<comp name="--.HGE" depth="0.0">
			<acc value="0.0474491264716996" flag="0"/>
			<vel value="0.0146441215877775" flag="0"/>
			<psa03 value="0.0660394969685691" flag="0"/>
			<psa10 value="0.00297580416218125" flag="0"/>
			<psa30 value="0.000310063491864623" flag="0"/>
		</comp>
		<comp name="--.HGN" depth="0.0">
			<acc value="0.0534651203385065" flag="0"/>
			<vel value="0.0127265281367812" flag="0"/>
			<psa03 value="0.0476504500484594" flag="0"/>
			<psa10 value="0.00224695361636961" flag="0"/>
			<psa30 value="0.000221921344826628" flag="0"/>
		</comp>
		<comp name="--.HGZ" depth="0.0">
			<acc value="0.0478002671576469" flag="0"/>
			<vel value="0.00743090724745187" flag="0"/>
			<psa03 value="0.0217894546230983" flag="0"/>
			<psa10 value="0.00148588868179281" flag="0"/>
			<psa30 value="0.000140043106715191" flag="0"/>
		</comp>
	</station>
	<station code="LIENZ" name="LIENZ" netid="CH" source="Switzerland Seismological Network" insttype="" lat="47.294601" lon="9.4927">
		<comp name="--.HGE" depth="0.0">
			<acc value="0.00597713024190455" flag="0"/>
			<vel value="0.00220053646724306" flag="0"/>
			<psa03 value="0.00769565953834274" flag="0"/>
			<psa10 value="0.00188051494416596" flag="0"/>
			<psa30 value="0.000131542087457719" flag="0"/>
		</comp>
		<comp name="--.HGN" depth="0.0">
			<acc value="0.00664587626331403" flag="0"/>
			<vel value="0.00202198425584129" flag="0"/>
			<psa03 value="0.00720349526554175" flag="0"/>
			<psa10 value="0.00142145990426249" flag="0"/>
			<psa30 value="0.000131542087457719" flag="0"/>
		</comp>
		<comp name="--.HGZ" depth="0.0">
			<acc value="0.00479319532171141" flag="0"/>
			<vel value="0.00128235124199714" flag="0"/>
			<psa03 value="0.00496638493462817" flag="0"/>
			<psa10 value="0.000648314573898758" flag="0"/>
			<psa30 value="8.232566017762e-05" flag="0"/>
		</comp>
	</station>
	<station code="MUTEZ" name="MUTEZ" netid="CH" source="Switzerland Seismological Network" insttype="" lat="47.50647" lon="7.64884">
		<comp name="--.HGE" depth="0.0">
			<acc value="0.0417931362323171" flag="0"/>
			<vel value="0.0127576416644184" flag="0"/>
			<psa03 value="0.0433104560064871" flag="0"/>
			<psa10 value="0.00226306081075219" flag="0"/>
			<psa30 value="0.000216104857966253" flag="0"/>
		</comp>
		<comp name="--.HGN" depth="0.0">
			<acc value="0.0258666302749016" flag="0"/>
			<vel value="0.00695911833375538" flag="0"/>
			<psa03 value="0.047247770188895" flag="0"/>
			<psa10 value="0.0026174190871689" flag="0"/>
			<psa30 value="0.000179863670605452" flag="0"/>
		</comp>
		<comp name="--.HGZ" depth="0.0">
			<acc value="0.0467546778701302" flag="0"/>
			<vel value="0.00795410536050779" flag="0"/>
			<psa03 value="0.0322591309717739" flag="0"/>
			<psa10 value="0.00148588868179281" flag="0"/>
			<psa30 value="0.000131989509523902" flag="0"/>
		</comp>
	</station>
	<station code="OTTER" name="OTTER" netid="CH" source="Switzerland Seismological Network" insttype="" lat="47.5778" lon="7.6038">
		<comp name="--.HGE" depth="0.0">
			<acc value="0.0267381822530631" flag="0"/>
			<vel value="0.00635253333199106" flag="0"/>
			<psa03 value="0.0303352160871883" flag="0"/>
			<psa10 value="0.0026536602745297" flag="0"/>
			<psa30 value="0.000178073982340722" flag="0"/>
		</comp>
		<comp name="--.HGN" depth="0.0">
			<acc value="0.0263280490690656" flag="0"/>
			<vel value="0.00756953787346453" flag="0"/>
			<psa03 value="0.0359727341210905" flag="0"/>
			<psa10 value="0.00252480271946907" flag="0"/>
			<psa30 value="0.000163756476222875" flag="0"/>
		</comp>
		<comp name="--.HGZ" depth="0.0">
			<acc value="0.0186759250905013" flag="0"/>
			<vel value="0.0052458875177626" flag="0"/>
			<psa03 value="0.0203577040113136" flag="0"/>
			<psa10 value="0.00153421026494054" flag="0"/>
			<psa30 value="0.000153913190766855" flag="0"/>
		</comp>
	</station>
	<station code="ROMAN" name="ROMAN" netid="CH" source="Switzerland Seismological Network" insttype="" lat="47.5643" lon="9.33601">
		<comp name="SF.HGE" depth="1.0">
			<acc value="0.0478441084236855" flag="0"/>
			<vel value="0.0145388580922238" flag="0"/>
			<psa03 value="0.0893501866166887" flag="0"/>
			<psa10 value="0.0039583430195185" flag="0"/>
			<psa30 value="0.000250108934996139" flag="0"/>
		</comp>
		<comp name="SF.HGN" depth="1.0">
			<acc value="0.0526029683825644" flag="0"/>
			<vel value="0.0152238194203033" flag="0"/>
			<psa03 value="0.0587465172897908" flag="0"/>
			<psa10 value="0.00418787053947024" flag="0"/>
			<psa30 value="0.000338251082034134" flag="0"/>
		</comp>
		<comp name="SF.HGZ" depth="1.0">
			<acc value="0.0231306626752343" flag="0"/>
			<vel value="0.0050166329504996" flag="0"/>
			<psa03 value="0.0112750360678045" flag="0"/>
			<psa10 value="0.000724823747216002" flag="0"/>
			<psa30 value="9.44060559645534e-05" flag="0"/>
		</comp>
	</station>
	<station code="SAARA" name="SAARA" netid="CH" source="Switzerland Seismological Network" insttype="" lat="47.38613" lon="8.04375">
		<comp name="--.HGE" depth="1.0">
			<acc value="0.0115611696751881" flag="0"/>
			<vel value="0.0014418567103113" flag="0"/>
			<psa03 value="0.00317669666989729" flag="0"/>
			<psa10 value="0.000318117089055912" flag="0"/>
			<psa30 value="3.40040770298865e-05" flag="0"/>
		</comp>
		<comp name="--.HGN" depth="1.0">
			<acc value="0.00696823558197388" flag="0"/>
			<vel value="0.00185372738069217" flag="0"/>
			<psa03 value="0.00590597127361187" flag="0"/>
			<psa10 value="0.000684555761259558" flag="0"/>
			<psa30 value="5.90597127361187e-05" flag="0"/>
		</comp>
		<comp name="--.HGZ" depth="1.0">
			<acc value="0.00632346866281705" flag="0"/>
			<vel value="0.000754908504418694" flag="0"/>
			<psa03 value="0.00277401681033285" flag="0"/>
			<psa10 value="0.000455028241307824" flag="0"/>
			<psa30 value="2.41607915738667e-05" flag="0"/>
		</comp>
	</station>
	<station code="SALTS" name="SALTS" netid="CH" source="Switzerland Seismological Network" insttype="" lat="46.88204" lon="8.63821">
		<comp name="--.HGE" depth="1.0">
			<acc value="0.0610086084411707" flag="0"/>
			<vel value="0.0238752377814844" flag="0"/>
			<psa03 value="0.0975827526344507" flag="0"/>
			<psa10 value="0.00822272273230598" flag="0"/>
			<psa30 value="0.000486795208006797" flag="0"/>
		</comp>
		<comp name="--.HGN" depth="1.0">
			<acc value="0.0544987807451515" flag="0"/>
			<vel value="0.0163095449797251" flag="0"/>
			<psa03 value="0.0829967932768941" flag="0"/>
			<psa10 value="0.00974887940005523" flag="0"/>
			<psa30 value="0.000577621887441888" flag="0"/>
		</comp>
		<comp name="--.HGZ" depth="1.0">
			<acc value="0.0203048831814109" flag="0"/>
			<vel value="0.0089144324972069" flag="0"/>
			<psa03 value="0.0500217869992278" flag="0"/>
			<psa10 value="0.00260936548997761" flag="0"/>
			<psa30 value="0.000206261572510233" flag="0"/>
		</comp>
	</station>
	<station code="SAPK" name="SAPK" netid="CH" source="Switzerland Seismological Network" insttype="" lat="47.330517" lon="9.404271">
		<comp name="--.HGE" depth="1.0">
			<acc value="0.0324232359012759" flag="0"/>
			<vel value="0.0082574559557659" flag="0"/>
			<psa03 value="0.0422366430476485" flag="0"/>
			<psa10 value="0.00326573366106765" flag="0"/>
			<psa30 value="0.000221026500694262" flag="0"/>
		</comp>
		<comp name="--.HGN" depth="1.0">
			<acc value="0.0313075968159075" flag="0"/>
			<vel value="0.010740076870134" flag="0"/>
			<psa03 value="0.0404469547829177" flag="0"/>
			<psa10 value="0.00210601566552205" flag="0"/>
			<psa30 value="0.000279191369298016" flag="0"/>
		</comp>
		<comp name="--.HGZ" depth="1.0">
			<acc value="0.0103575139947677" flag="0"/>
			<vel value="0.00399130745260042" flag="0"/>
			<psa03 value="0.0124830756464978" flag="0"/>
			<psa10 value="0.0012322003702672" flag="0"/>
			<psa30 value="0.00010380191935439" flag="0"/>
		</comp>
	</station>
	<station code="SARE" name="SARE" netid="CH" source="Switzerland Seismological Network" insttype="" lat="47.51488" lon="9.43023">
		<comp name="--.HGE" depth="1.0">
			<acc value="0.0444853881206702" flag="0"/>
			<vel value="0.0158962187055337" flag="0"/>
			<psa03 value="0.0870235918725386" flag="0"/>
			<psa10 value="0.00823882992668856" flag="0"/>
			<psa30 value="0.000317222244923547" flag="0"/>
		</comp>
		<comp name="--.HGN" depth="1.0">
			<acc value="0.0407764725301082" flag="0"/>
			<vel value="0.0138667525072735" flag="0"/>
			<psa03 value="0.057135797851533" flag="0"/>
			<psa10 value="0.0059596619215538" flag="0"/>
			<psa30 value="0.000458607617837285" flag="0"/>
		</comp>
		<comp name="--.HGZ" depth="1.0">
			<acc value="0.0377407360379923" flag="0"/>
			<vel value="0.00748136749449517" flag="0"/>
			<psa03 value="0.0228185253753186" flag="0"/>
			<psa10 value="0.00312882250881574" flag="0"/>
			<psa30 value="0.000217894546230983" flag="0"/>
		</comp>
	</station>
	<station code="SAUR" name="SAUR" netid="CH" source="Switzerland Seismological Network" insttype="" lat="47.5339" lon="7.7228">
		<comp name="--.HGE" depth="0.0">
			<acc value="0.0667858197799856" flag="0"/>
			<vel value="0.0231031958031866" flag="0"/>
			<psa03 value="0.233285865307669" flag="0"/>
			<psa10 value="0.0067207268561306" flag="0"/>
			<psa30 value="0.000593281659758283" flag="0"/>
		</comp>
		<comp name="--.HGN" depth="0.0">
			<acc value="0.055931161051806" flag="0"/>
			<vel value="0.0242639454299029" flag="0"/>
			<psa03 value="0.197447357806433" flag="0"/>
			<psa10 value="0.00648314573898758" flag="0"/>
			<psa30 value="0.000579411575706619" flag="0"/>
		</comp>
		<comp name="--.HGZ" depth="0.0">
			<acc value="0.0565336524625062" flag="0"/>
			<vel value="0.0099251132162497" flag="0"/>
			<psa03 value="0.0496638493462817" flag="0"/>
			<psa10 value="0.00182413976382694" flag="0"/>
			<psa30 value="0.000177179138208356" flag="0"/>
		</comp>
	</station>
	<station code="SBAF" name="SBAF" netid="CH" source="Switzerland Seismological Network" insttype="" lat="47.58375" lon="7.59202">
		<comp name="--.HGE" depth="0.0">
			<acc value="0.0160689819593742" flag="0"/>
			<vel value="0.00465405792969649" flag="0"/>
			<psa03 value="0.0392389152042243" flag="0"/>
			<psa10 value="0.00475162234286046" flag="0"/>
			<psa30 value="0.000171362651347981" flag="0"/>
		</comp>
		<comp name="--.HGN" depth="0.0">
			<acc value="0.0165362535583436" flag="0"/>
			<vel value="0.00460795491900968" flag="0"/>
			<psa03 value="0.0190154378127655" flag="0"/>
			<psa10 value="0.00416773654649201" flag="0"/>
			<psa30 value="0.000140937950847556" flag="0"/>
		</comp>
		<comp name="--.HGZ" depth="0.0">
			<acc value="0.0175684245795709" flag="0"/>
			<vel value="0.00325024727370845" flag="0"/>
			<psa03 value="0.0170915229281798" flag="0"/>
			<psa10 value="0.00148588868179281" flag="0"/>
			<psa30 value="0.00011364520481041" flag="0"/>
		</comp>
	</station>
	<station code="SBAJ2" name="SBAJ2" netid="CH" source="Switzerland Seismological Network" insttype="" lat="47.56702" lon="7.58238">
		<comp name="--.HGE" depth="0.0">
			<acc value="0.0219500736179114" flag="0"/>
			<vel value="0.00393778721921704" flag="0"/>
			<psa03 value="0.0287244966489305" flag="0"/>
			<psa10 value="0.00281070541975983" flag="0"/>
			<psa30 value="0.000153913190766855" flag="0"/>
		</comp>
		<comp name="--.HGN" depth="0.0">
			<acc value="0.0232351503776877" flag="0"/>
			<vel value="0.0044912166488476" flag="0"/>
			<psa03 value="0.0235791428878292" flag="0"/>
			<psa10 value="0.00239191836581281" flag="0"/>
			<psa30 value="0.000183890469201097" flag="0"/>
		</comp>
		<comp name="--.HGZ" depth="0.0">
			<acc value="0.0171686582947168" flag="0"/>
			<vel value="0.00390699784796248" flag="0"/>
			<psa03 value="0.0231764630282648" flag="0"/>
			<psa10 value="0.00173555019472276" flag="0"/>
			<psa30 value="0.000104696763486756" flag="0"/>
		</comp>
	</station>
	<station code="SBAS" name="SBAS" netid="CH" source="Switzerland Seismological Network" insttype="" lat="47.19383" lon="8.51701">
		<comp name="--.HGE" depth="0.0">
			<acc value="0.0967801532165318" flag="0"/>
			<vel value="0.0361705728249591" flag="0"/>
			<psa03 value="0.302412574532899" flag="0"/>
			<psa10 value="0.0244104530867967" flag="0"/>
			<psa30 value="0.00113555720397174" flag="0"/>
		</comp>
		<comp name="--.HGN" depth="0.0">
			<acc value="0.0737125058310345" flag="0"/>
			<vel value="0.0354876242327353" flag="0"/>
			<psa03 value="0.194046950103445" flag="0"/>
			<psa10 value="0.026105735295563" flag="0"/>
			<psa30 value="0.00118477363125184" flag="0"/>
		</comp>
		<comp name="--.HGZ" depth="0.0">
			<acc value="0.0295502314818757" flag="0"/>
			<vel value="0.0125966660644494" flag="0"/>
			<psa03 value="0.0828625666570393" flag="0"/>
			<psa10 value="0.00625764501763149" flag="0"/>
			<psa30 value="0.00039015204171133" flag="0"/>
		</comp>
	</station>
