<?xml version="1.0" encoding="UTF-8" standalone="yes"?>
<!DOCTYPE earthquake SYSTEM "stationlist.dtd">
<stationlist created="" xmlns="ch.ethz.sed.shakemap.usgs.xml">
  <station code="ACB" name="ACB" netid="CH" insttype="Trillium 240s_g2" lat="47.5877" lon="8.25474">
    <comp name="--.HHN">
      <acc value="0.0529196669" flag="0"/>
      <vel value="0.0196067104" flag="0"/>
      <psa03 value="0.0840100410" flag="0"/>
      <psa10 value="0.0060592575" flag="0"/>
      <psa30 value="0.0003475582" flag="0"/>
    </comp>
    <comp name="--.HHE">
      <acc value="0.0546033670" flag="0"/>
      <vel value="0.0207991996" flag="0"/>
      <psa03 value="0.1226767469" flag="0"/>
      <psa10 value="0.0099476528" flag="0"/>
      <psa30 value="0.0006581097" flag="0"/>
    </comp>
    <comp name="--.HHZ">
      <acc value="0.0304884402" flag="0"/>
      <vel value="0.0088840023" flag="0"/>
      <psa03 value="0.0622014970" flag="0"/>
      <psa10 value="0.0027185401" flag="0"/>
      <psa30 value="0.0002370729" flag="0"/>
    </comp>
  </station>
  <station code="BERGE" name="BERGE" netid="CH" insttype="Trillium Compact 120s" lat="47.8716" lon="8.17798">
    <comp name="--.HHE">
      <acc value="0.0601237919" flag="0"/>
      <vel value="0.0115120857" flag="0"/>
      <psa03 value="0.0369328448" flag="0"/>
      <psa10 value="0.0022061224" flag="0"/>
      <psa30 value="0.0001927486" flag="0"/>
    </comp>
    <comp name="--.HHN">
      <acc value="0.0654235051" flag="0"/>
      <vel value="0.0076317613" flag="0"/>
      <psa03 value="0.0314158328" flag="0"/>
      <psa10 value="0.0017514100" flag="0"/>
      <psa30 value="0.0001275295" flag="0"/>
    </comp>
    <comp name="--.HHZ">
      <acc value="0.0292357646" flag="0"/>
      <vel value="0.0084637861" flag="0"/>
      <psa03 value="0.0260274204" flag="0"/>
      <psa10 value="0.0038285350" flag="0"/>
      <psa30 value="0.0002923153" flag="0"/>
    </comp>
  </station>
  <station code="BOBI" name="BOBI" netid="CH" insttype="EpiSensor ES-T" lat="47.5463" lon="8.33992">
    <comp name="SF.HGE">
      <acc value="0.0653891201" flag="0"/>
      <vel value="0.0314122961" flag="0"/>
      <psa03 value="0.1275574185" flag="0"/>
      <psa10 value="0.0078373556" flag="0"/>
      <psa30 value="0.0007332689" flag="0"/>
    </comp>
    <comp name="SF.HGN">
      <acc value="0.0471128430" flag="0"/>
      <vel value="0.0185315680" flag="0"/>
      <psa03 value="0.0837287048" flag="0"/>
      <psa10 value="0.0063483660" flag="0"/>
      <psa30 value="0.0006535974" flag="0"/>
    </comp>
    <comp name="SF.HGZ">
      <acc value="0.0434541547" flag="0"/>
      <vel value="0.0085491413" flag="0"/>
      <psa03 value="0.0499414939" flag="0"/>
      <psa10 value="0.0025094480" flag="0"/>
      <psa30 value="0.0002482181" flag="0"/>
    </comp>
  </station>
  <station code="EMING" name="EMING" netid="CH" insttype="Trillium Compact 120s" lat="47.8952" lon="8.84676">
    <comp name="--.HHZ">
      <acc value="0.0500022219" flag="0"/>
      <vel value="0.0061485278" flag="0"/>
      <psa03 value="0.0347119502" flag="0"/>
      <psa10 value="0.0016713028" flag="0"/>
      <psa30 value="0.0001270494" flag="0"/>
    </comp>
    <comp name="--.HHN">
      <acc value="0.1371921426" flag="0"/>
      <vel value="0.0217252795" flag="0"/>
      <psa03 value="0.0869141844" flag="0"/>
      <psa10 value="0.0034057464" flag="0"/>
      <psa30 value="0.0002886703" flag="0"/>
    </comp>
    <comp name="--.HHE">
      <acc value="0.1124622429" flag="0"/>
      <vel value="0.0169015898" flag="0"/>
      <psa03 value="0.0835737690" flag="0"/>
      <psa10 value="0.0044718389" flag="0"/>
      <psa30 value="0.0004956855" flag="0"/>
    </comp>
  </station>
  <station code="LIENZ" name="LIENZ" netid="CH" insttype="EpiSensor ES-T" lat="47.2944" lon="9.49177">
    <comp name="--.HGZ">
      <acc value="0.0049461395" flag="0"/>
      <vel value="0.0012156257" flag="0"/>
      <psa03 value="0.0047714773" flag="0"/>
      <psa10 value="0.0006170475" flag="0"/>
      <psa30 value="0.0000749925" flag="0"/>
    </comp>
    <comp name="--.HGN">
      <acc value="0.0065089689" flag="0"/>
      <vel value="0.0019213572" flag="0"/>
      <psa03 value="0.0068811467" flag="0"/>
      <psa10 value="0.0013537830" flag="0"/>
      <psa30 value="0.0001205434" flag="0"/>
    </comp>
    <comp name="--.HGE">
      <acc value="0.0057427955" flag="0"/>
      <vel value="0.0020402819" flag="0"/>
      <psa03 value="0.0073200104" flag="0"/>
      <psa10 value="0.0017947042" flag="0"/>
      <psa30 value="0.0001311619" flag="0"/>
    </comp>
  </station>
  <station code="METMA" name="METMA" netid="CH" insttype="Trillium Compact 120s" lat="47.7122" lon="8.25262">
    <comp name="--.HHE">
      <acc value="0.0596879899" flag="0"/>
      <vel value="0.0072492864" flag="0"/>
      <psa03 value="0.0196436751" flag="0"/>
      <psa10 value="0.0019252788" flag="0"/>
      <psa30 value="0.0001571108" flag="0"/>
    </comp>
    <comp name="--.HHN">
      <acc value="0.0280954917" flag="0"/>
      <vel value="0.0064294763" flag="0"/>
      <psa03 value="0.0286998488" flag="0"/>
      <psa10 value="0.0022376629" flag="0"/>
      <psa30 value="0.0000929441" flag="0"/>
    </comp>
    <comp name="--.HHZ">
      <acc value="0.0419571751" flag="0"/>
      <vel value="0.0095921892" flag="0"/>
      <psa03 value="0.0416992744" flag="0"/>
      <psa10 value="0.0029357607" flag="0"/>
      <psa30 value="0.0002041153" flag="0"/>
    </comp>
  </station>
  <station code="ROMAN" name="ROMAN" netid="CH" insttype="Trillium Borehole 120s" lat="47.5643" lon="9.33595">
    <comp name="BT.HH3">
      <acc value="0.0132185467" flag="0"/>
      <vel value="0.0029768674" flag="0"/>
      <psa03 value="0.0073661262" flag="0"/>
      <psa10 value="0.0012946849" flag="0"/>
      <psa30 value="0.0001268240" flag="0"/>
    </comp>
    <comp name="BT.HH2">
      <acc value="0.0083868740" flag="0"/>
      <vel value="0.0030390165" flag="0"/>
      <psa03 value="0.0104624018" flag="0"/>
      <psa10 value="0.0025681101" flag="0"/>
      <psa30 value="0.0001065131" flag="0"/>
    </comp>
    <comp name="BT.HHZ">
      <acc value="0.0097192485" flag="0"/>
      <vel value="0.0019289790" flag="0"/>
      <psa03 value="0.0069469962" flag="0"/>
      <psa10 value="0.0009396389" flag="0"/>
      <psa30 value="0.0000889020" flag="0"/>
    </comp>
  </station>
  <station code="SAPK" name="SAPK" netid="CH" insttype="EpiSensor ES-T" lat="47.3305" lon="9.40427">
    <comp name="--.HGN">
      <acc value="0.0323572961" flag="0"/>
      <vel value="0.0106917114" flag="0"/>
      <psa03 value="0.0404266591" flag="0"/>
      <psa10 value="0.0021074079" flag="0"/>
      <psa30 value="0.0002800585" flag="0"/>
    </comp>
    <comp name="--.HGZ">
      <acc value="0.0113051052" flag="0"/>
      <vel value="0.0040025804" flag="0"/>
      <psa03 value="0.0125295255" flag="0"/>
      <psa10 value="0.0012364827" flag="0"/>
      <psa30 value="0.0001076138" flag="0"/>
    </comp>
    <comp name="--.HGE">
      <acc value="0.0326280880" flag="0"/>
      <vel value="0.0082186932" flag="0"/>
      <psa03 value="0.0421340502" flag="0"/>
      <psa10 value="0.0032604957" flag="0"/>
      <psa30 value="0.0002252903" flag="0"/>
    </comp>
  </station>
  <station code="SARE" name="SARE" netid="CH" insttype="EpiSensor ES-T" lat="47.5149" lon="9.43023">
    <comp name="--.HGN">
      <acc value="0.0417031808" flag="0"/>
      <vel value="0.0138036379" flag="0"/>
      <psa03 value="0.0570691418" flag="0"/>
      <psa10 value="0.0059673238" flag="0"/>
      <psa30 value="0.0004632250" flag="0"/>
    </comp>
    <comp name="--.HGE">
      <acc value="0.0452609582" flag="0"/>
      <vel value="0.0158401863" flag="0"/>
      <psa03 value="0.0870276596" flag="0"/>
      <psa10 value="0.0082404634" flag="0"/>
      <psa30 value="0.0003148821" flag="0"/>
    </comp>
    <comp name="--.HGZ">
      <acc value="0.0380637837" flag="0"/>
      <vel value="0.0074129401" flag="0"/>
      <psa03 value="0.0227113381" flag="0"/>
      <psa10 value="0.0031316646" flag="0"/>
      <psa30 value="0.0002103980" flag="0"/>
    </comp>
  </station>
  <station code="SCHS" name="SCHS" netid="CH" insttype="EpiSensor ES-T" lat="47.7114" lon="8.63651">
    <comp name="--.HGE">
      <acc value="0.1015395724" flag="0"/>
      <vel value="0.0125841688" flag="0"/>
      <psa03 value="0.0302676664" flag="0"/>
      <psa10 value="0.0030187693" flag="0"/>
      <psa30 value="0.0001719997" flag="0"/>
    </comp>
    <comp name="--.HGN">
      <acc value="0.1092063952" flag="0"/>
      <vel value="0.0114892261" flag="0"/>
      <psa03 value="0.0149114132" flag="0"/>
      <psa10 value="0.0016724425" flag="0"/>
      <psa30 value="0.0001156336" flag="0"/>
    </comp>
    <comp name="--.HGZ">
      <acc value="0.0565969245" flag="0"/>
      <vel value="0.0051187967" flag="0"/>
      <psa03 value="0.0116104222" flag="0"/>
      <psa10 value="0.0014819973" flag="0"/>
      <psa30 value="0.0000718972" flag="0"/>
    </comp>
  </station>
  <station code="SGT04" name="SGT04" netid="CH" insttype="Trillium Compact 120s" lat="47.3484" lon="9.34902">
    <comp name="--.HHN">
      <acc value="0.0236875790" flag="0"/>
      <vel value="0.0084361598" flag="0"/>
      <psa03 value="0.0456912010" flag="0"/>
      <psa10 value="0.0022338736" flag="0"/>
      <psa30 value="0.0002409641" flag="0"/>
    </comp>
    <comp name="--.HHE">
      <acc value="0.0160262443" flag="0"/>
      <vel value="0.0070021866" flag="0"/>
      <psa03 value="0.0337617937" flag="0"/>
      <psa10 value="0.0030571826" flag="0"/>
      <psa30 value="0.0002572397" flag="0"/>
    </comp>
    <comp name="--.HHZ">
      <acc value="0.0216053816" flag="0"/>
      <vel value="0.0061958279" flag="0"/>
      <psa03 value="0.0350794131" flag="0"/>
      <psa10 value="0.0011767555" flag="0"/>
      <psa30 value="0.0001225126" flag="0"/>
    </comp>
  </station>
  <station code="SGT05" name="SGT05" netid="CH" insttype="Trillium Compact 120s" lat="47.4419" lon="9.45595">
    <comp name="--.HHZ">
      <acc value="0.0111424146" flag="0"/>
      <vel value="0.0033470177" flag="0"/>
      <psa03 value="0.0188988216" flag="0"/>
      <psa10 value="0.0011591804" flag="0"/>
      <psa30 value="0.0000941594" flag="0"/>
    </comp>
    <comp name="--.HHE">
      <acc value="0.0224997951" flag="0"/>
      <vel value="0.0078492769" flag="0"/>
      <psa03 value="0.0262544739" flag="0"/>
      <psa10 value="0.0035706851" flag="0"/>
      <psa30 value="0.0002171084" flag="0"/>
    </comp>
    <comp name="--.HHN">
      <acc value="0.0183789936" flag="0"/>
      <vel value="0.0058385704" flag="0"/>
      <psa03 value="0.0242222985" flag="0"/>
      <psa10 value="0.0033117638" flag="0"/>
      <psa30 value="0.0001644864" flag="0"/>
    </comp>
  </station>
  <station code="SGT18" name="SGT18" netid="CH" insttype="Trillium Compact 120s" lat="47.4672" lon="9.24417">
    <comp name="--.HHN">
      <acc value="0.0547042254" flag="0"/>
      <vel value="0.0092765384" flag="0"/>
      <psa03 value="0.0537013178" flag="0"/>
      <psa10 value="0.0030213039" flag="0"/>
      <psa30 value="0.0002346571" flag="0"/>
    </comp>
    <comp name="--.HHZ">
      <acc value="0.0198128306" flag="0"/>
      <vel value="0.0033448184" flag="0"/>
      <psa03 value="0.0160739671" flag="0"/>
      <psa10 value="0.0012151279" flag="0"/>
      <psa30 value="0.0000765812" flag="0"/>
    </comp>
    <comp name="--.HHE">
      <acc value="0.0626208649" flag="0"/>
      <vel value="0.0125276916" flag="0"/>
      <psa03 value="0.0555910762" flag="0"/>
      <psa10 value="0.0054852942" flag="0"/>
      <psa30 value="0.0003351912" flag="0"/>
    </comp>
  </station>
  <station code="SHEK" name="SHEK" netid="CH" insttype="EpiSensor ES-T" lat="47.4157" lon="9.62796">
    <comp name="--.HGE">
      <acc value="0.0300601076" flag="0"/>
      <vel value="0.0130874143" flag="0"/>
      <psa03 value="0.0571738410" flag="0"/>
      <psa10 value="0.0062636455" flag="0"/>
      <psa30 value="0.0004220340" flag="0"/>
    </comp>
    <comp name="--.HGN">
      <acc value="0.0490900070" flag="0"/>
      <vel value="0.0142374285" flag="0"/>
      <psa03 value="0.0676408450" flag="0"/>
      <psa10 value="0.0117490872" flag="0"/>
      <psa30 value="0.0005011889" flag="0"/>
    </comp>
    <comp name="--.HGZ">
      <acc value="0.0269364044" flag="0"/>
      <vel value="0.0096181249" flag="0"/>
      <psa03 value="0.0508245365" flag="0"/>
      <psa10 value="0.0030216698" flag="0"/>
      <psa30 value="0.0001938115" flag="0"/>
    </comp>
  </station>
  <station code="SKLW" name="SKLW" netid="CH" insttype="EpiSensor ES-T" lat="47.463" lon="8.56745">
    <comp name="--.HGN">
      <acc value="0.0604826058" flag="0"/>
      <vel value="0.0206170577" flag="0"/>
      <psa03 value="0.0804848987" flag="0"/>
      <psa10 value="0.0046705658" flag="0"/>
      <psa30 value="0.0004258967" flag="0"/>
    </comp>
    <comp name="--.HGZ">
      <acc value="0.0490984679" flag="0"/>
      <vel value="0.0125865790" flag="0"/>
      <psa03 value="0.0371343259" flag="0"/>
      <psa10 value="0.0031833120" flag="0"/>
      <psa30 value="0.0002908640" flag="0"/>
    </comp>
    <comp name="--.HGE">
      <acc value="0.0627732454" flag="0"/>
      <vel value="0.0216831794" flag="0"/>
      <psa03 value="0.0921231124" flag="0"/>
      <psa10 value="0.0065179269" flag="0"/>
      <psa30 value="0.0006953805" flag="0"/>
    </comp>
  </station>
  <station code="SKRK" name="SKRK" netid="CH" insttype="EpiSensor ES-T" lat="47.6481" lon="9.18059">
    <comp name="--.HGE">
      <acc value="0.0606557767" flag="0"/>
      <vel value="0.0242568489" flag="0"/>
      <psa03 value="0.1353978128" flag="0"/>
      <psa10 value="0.0090579725" flag="0"/>
      <psa30 value="0.0006964690" flag="0"/>
    </comp>
    <comp name="--.HGZ">
      <acc value="0.0249636853" flag="0"/>
      <vel value="0.0050286975" flag="0"/>
      <psa03 value="0.0286860511" flag="0"/>
      <psa10 value="0.0013149960" flag="0"/>
      <psa30 value="0.0000982954" flag="0"/>
    </comp>
    <comp name="--.HGN">
      <acc value="0.0617689021" flag="0"/>
      <vel value="0.0169816386" flag="0"/>
      <psa03 value="0.1055132182" flag="0"/>
      <psa10 value="0.0033370739" flag="0"/>
      <psa30 value="0.0003222548" flag="0"/>
    </comp>
  </station>
  <station code="SLE" name="SLE" netid="CH" insttype="STS2.5" lat="47.7645" lon="8.49236">
    <comp name="--.HHZ">
      <acc value="0.0524570121" flag="0"/>
      <vel value="0.0055588055" flag="0"/>
      <psa03 value="0.0245131672" flag="0"/>
      <psa10 value="0.0014282052" flag="0"/>
      <psa30 value="0.0001151110" flag="0"/>
    </comp>
    <comp name="--.HHE">
      <acc value="0.0495174716" flag="0"/>
      <vel value="0.0132772182" flag="0"/>
      <psa03 value="0.0624225545" flag="0"/>
      <psa10 value="0.0033848015" flag="0"/>
      <psa30 value="0.0003493533" flag="0"/>
    </comp>
    <comp name="--.HHN">
      <acc value="0.0478142147" flag="0"/>
      <vel value="0.0162853925" flag="0"/>
      <psa03 value="0.0660538560" flag="0"/>
      <psa10 value="0.0043106666" flag="0"/>
      <psa30 value="0.0003592496" flag="0"/>
    </comp>
  </station>
  <station code="STGK" name="STGK" netid="CH" insttype="EpiSensor ES-T" lat="47.4241" lon="9.37849">
    <comp name="--.HGN">
      <acc value="0.0485103069" flag="0"/>
      <vel value="0.0135974486" flag="0"/>
      <psa03 value="0.0985492645" flag="0"/>
      <psa10 value="0.0034887447" flag="0"/>
      <psa30 value="0.0004057500" flag="0"/>
    </comp>
    <comp name="--.HGE">
      <acc value="0.0345913727" flag="0"/>
      <vel value="0.0120741340" flag="0"/>
      <psa03 value="0.0635317570" flag="0"/>
      <psa10 value="0.0033431985" flag="0"/>
      <psa30 value="0.0002873806" flag="0"/>
    </comp>
    <comp name="--.HGZ">
      <acc value="0.0220640720" flag="0"/>
      <vel value="0.0057566235" flag="0"/>
      <psa03 value="0.0466390651" flag="0"/>
      <psa10 value="0.0013913397" flag="0"/>
      <psa30 value="0.0001534753" flag="0"/>
    </comp>
  </station>
  <station code="STIEG" name="STIEG" netid="CH" insttype="EpiSensor ES-T" lat="47.4978" lon="8.65405">
    <comp name="SF.HGZ">
      <acc value="0.0527520912" flag="0"/>
      <vel value="0.0149393160" flag="0"/>
      <psa03 value="0.0927222732" flag="0"/>
      <psa10 value="0.0042160531" flag="0"/>
      <psa30 value="0.0003797375" flag="0"/>
    </comp>
    <comp name="SF.HGE">
      <acc value="0.0852761959" flag="0"/>
      <vel value="0.0343014074" flag="0"/>
      <psa03 value="0.2065169404" flag="0"/>
      <psa10 value="0.0169338193" flag="0"/>
      <psa30 value="0.0010259832" flag="0"/>
    </comp>
    <comp name="SF.HGN">
      <acc value="0.0868226147" flag="0"/>
      <vel value="0.0449006694" flag="0"/>
      <psa03 value="0.2054216799" flag="0"/>
      <psa10 value="0.0175542329" flag="0"/>
      <psa30 value="0.0012679057" flag="0"/>
    </comp>
  </station>
  <station code="SULZ" name="SULZ" netid="CH" insttype="STS2_gen3" lat="47.5275" lon="8.11187">
    <comp name="--.HHE">
      <acc value="0.0286353442" flag="0"/>
      <vel value="0.0065519083" flag="0"/>
      <psa03 value="0.0535782496" flag="0"/>
      <psa10 value="0.0042728389" flag="0"/>
      <psa30 value="0.0002693335" flag="0"/>
    </comp>
    <comp name="--.HHZ">
      <acc value="0.0239439298" flag="0"/>
      <vel value="0.0051565104" flag="0"/>
      <psa03 value="0.0260346811" flag="0"/>
      <psa10 value="0.0029863139" flag="0"/>
      <psa30 value="0.0001699384" flag="0"/>
    </comp>
    <comp name="--.HHN">
      <acc value="0.0197965497" flag="0"/>
      <vel value="0.0053736772" flag="0"/>
      <psa03 value="0.0203947136" flag="0"/>
      <psa10 value="0.0031822938" flag="0"/>
      <psa30 value="0.0001910433" flag="0"/>
    </comp>
  </station>
  <station code="SWIS" name="SWIS" netid="CH" insttype="EpiSensor ES-T" lat="47.5064" lon="8.73">
    <comp name="--.HGE">
      <acc value="0.1098705887" flag="0"/>
      <vel value="0.0254900783" flag="0"/>
      <psa03 value="0.1578390530" flag="0"/>
      <psa10 value="0.0080899180" flag="0"/>
      <psa30 value="0.0004758695" flag="0"/>
    </comp>
    <comp name="--.HGN">
      <acc value="0.1110275785" flag="0"/>
      <vel value="0.0184373136" flag="0"/>
      <psa03 value="0.1181340146" flag="0"/>
      <psa10 value="0.0043967530" flag="0"/>
      <psa30 value="0.0003556806" flag="0"/>
    </comp>
    <comp name="--.HGZ">
      <acc value="0.0459917267" flag="0"/>
      <vel value="0.0087597250" flag="0"/>
      <psa03 value="0.0482766066" flag="0"/>
      <psa10 value="0.0020942928" flag="0"/>
      <psa30 value="0.0001494361" flag="0"/>
    </comp>
  </station>
  <station code="TRULL" name="TRULL" netid="CH" insttype="STS2_gen2" lat="47.6487" lon="8.68161">
    <comp name="--.HHE">
      <acc value="0.0732721823" flag="0"/>
      <vel value="0.0208538993" flag="0"/>
      <psa03 value="0.2213093585" flag="0"/>
      <psa10 value="0.0074638765" flag="0"/>
      <psa30 value="0.0005366881" flag="0"/>
    </comp>
    <comp name="--.HHZ">
      <acc value="0.0441337072" flag="0"/>
      <vel value="0.0089537253" flag="0"/>
      <psa03 value="0.0451578732" flag="0"/>
      <psa10 value="0.0021162717" flag="0"/>
      <psa30 value="0.0001647811" flag="0"/>
    </comp>
    <comp name="--.HHN">
      <acc value="0.0548196977" flag="0"/>
      <vel value="0.0216327103" flag="0"/>
      <psa03 value="0.1355787521" flag="0"/>
      <psa10 value="0.0067945455" flag="0"/>
      <psa30 value="0.0004884413" flag="0"/>
    </comp>
  </station>
  <station code="WALHA" name="WALHA" netid="CH" insttype="Trillium Compact 120s" lat="47.7528" lon="9.1231">
    <comp name="--.HHZ">
      <acc value="0.0333750003" flag="0"/>
      <vel value="0.0051593574" flag="0"/>
