<?xml version="1.0" encoding="UTF-8" standalone="yes"?>
<!DOCTYPE earthquake SYSTEM "stationlist.dtd">
<stationlist created="" xmlns="ch.ethz.sed.shakemap.usgs.xml">
  <station code="AOI" name="AOI" netid="IV" insttype="" lat="43.5502" lon="13.602">
    <comp name="--.HHE">
      <acc value="0.0306638637" flag="0"/>
      <vel value="0.0057424692" flag="0"/>
      <psa03 value="0.0247584126" flag="0"/>
      <psa10 value="0.0036542898" flag="0"/>
      <psa30 value="0.0006498473" flag="0"/>
    </comp>
    <comp name="--.HHN">
      <acc value="0.0358808134" flag="0"/>
      <vel value="0.0068055114" flag="0"/>
      <psa03 value="0.0282368117" flag="0"/>
      <psa10 value="0.0042830584" flag="0"/>
      <psa30 value="0.0004929171" flag="0"/>
    </comp>
    <comp name="--.HHZ">
      <acc value="0.0131375093" flag="0"/>
      <vel value="0.0030627401" flag="0"/>
      <psa03 value="0.0160047503" flag="0"/>
      <psa10 value="0.0029189446" flag="0"/>
      <psa30 value="0.0004764202" flag="0"/>
    </comp>
  </station>
  <station code="ARVD" name="ARVD" netid="IV" insttype="" lat="43.4981" lon="12.9415">
    <comp name="--.HHE">
      <acc value="0.0117943510" flag="0"/>
      <vel value="0.0040944786" flag="0"/>
      <psa03 value="0.0129302449" flag="0"/>
      <psa10 value="0.0046212391" flag="0"/>
      <psa30 value="0.0019343317" flag="0"/>
    </comp>
    <comp name="--.HHN">
      <acc value="0.0131174026" flag="0"/>
      <vel value="0.0052382383" flag="0"/>
      <psa03 value="0.0163465117" flag="0"/>
      <psa10 value="0.0056987214" flag="0"/>
      <psa30 value="0.0024317024" flag="0"/>
    </comp>
    <comp name="--.HHZ">
      <acc value="0.0104656630" flag="0"/>
      <vel value="0.0037966705" flag="0"/>
      <psa03 value="0.0164775686" flag="0"/>
      <psa10 value="0.0053730715" flag="0"/>
      <psa30 value="0.0017988742" flag="0"/>
    </comp>
  </station>
  <station code="ATMI" name="ATMI" netid="IV" insttype="" lat="43.3342" lon="12.268">
    <comp name="--.HHE">
      <acc value="0.0107689478" flag="0"/>
      <vel value="0.0097395237" flag="0"/>
      <psa03 value="0.0299786540" flag="0"/>
      <psa10 value="0.0089126452" flag="0"/>
      <psa30 value="0.0007386569" flag="0"/>
    </comp>
    <comp name="--.HHN">
      <acc value="0.0062538632" flag="0"/>
      <vel value="0.0070772658" flag="0"/>
      <psa03 value="0.0196679576" flag="0"/>
      <psa10 value="0.0108252402" flag="0"/>
      <psa30 value="0.0009038134" flag="0"/>
    </comp>
    <comp name="--.HHZ">
      <acc value="0.0043099755" flag="0"/>
      <vel value="0.0029718134" flag="0"/>
      <psa03 value="0.0088997496" flag="0"/>
      <psa10 value="0.0032366616" flag="0"/>
      <psa30 value="0.0003849851" flag="0"/>
    </comp>
  </station>
  <station code="ATPC" name="ATPC" netid="IV" insttype="" lat="43.4807" lon="12.457">
    <comp name="--.HHE">
      <acc value="0.0157937796" flag="0"/>
      <vel value="0.0087628967" flag="0"/>
      <psa03 value="0.0288875226" flag="0"/>
      <psa10 value="0.0101179488" flag="0"/>
      <psa30 value="0.0007736036" flag="0"/>
    </comp>
    <comp name="--.HHZ">
      <acc value="0.0066846327" flag="0"/>
      <vel value="0.0046943280" flag="0"/>
      <psa03 value="0.0150205007" flag="0"/>
      <psa10 value="0.0042869213" flag="0"/>
      <psa30 value="0.0006609200" flag="0"/>
    </comp>
    <comp name="--.HHN">
      <acc value="0.0092600651" flag="0"/>
      <vel value="0.0072251001" flag="0"/>
      <psa03 value="0.0208023891" flag="0"/>
      <psa10 value="0.0062280098" flag="0"/>
      <psa30 value="0.0007289064" flag="0"/>
    </comp>
  </station>
  <station code="CING" name="CING" netid="IV" insttype="" lat="43.3756" lon="13.1954">
    <comp name="--.HHE">
      <acc value="0.0121030982" flag="0"/>
      <vel value="0.0037264832" flag="0"/>
      <psa03 value="0.0173981239" flag="0"/>
      <psa10 value="0.0034412004" flag="0"/>
      <psa30 value="0.0012452832" flag="0"/>
    </comp>
    <comp name="--.HHN">
      <acc value="0.0103737497" flag="0"/>
      <vel value="0.0031200075" flag="0"/>
      <psa03 value="0.0177378848" flag="0"/>
      <psa10 value="0.0040969024" flag="0"/>
      <psa30 value="0.0015088467" flag="0"/>
    </comp>
    <comp name="--.HHZ">
      <acc value="0.0087418214" flag="0"/>
      <vel value="0.0026792997" flag="0"/>
      <psa03 value="0.0183581322" flag="0"/>
      <psa10 value="0.0036650811" flag="0"/>
      <psa30 value="0.0012153604" flag="0"/>
    </comp>
  </station>
  <station code="CRE" name="CRE" netid="IV" insttype="" lat="43.6189" lon="11.9517">
    <comp name="--.HHE">
      <acc value="0.0034012765" flag="0"/>
      <vel value="0.0045636368" flag="0"/>
      <psa03 value="0.0076838014" flag="0"/>
      <psa10 value="0.0055661242" flag="0"/>
      <psa30 value="0.0007499160" flag="0"/>
    </comp>
    <comp name="--.HHN">
      <acc value="0.0056633780" flag="0"/>
      <vel value="0.0050827216" flag="0"/>
      <psa03 value="0.0140253350" flag="0"/>
      <psa10 value="0.0053886324" flag="0"/>
      <psa30 value="0.0008175753" flag="0"/>
    </comp>
    <comp name="--.HHZ">
      <acc value="0.0027376209" flag="0"/>
      <vel value="0.0023177957" flag="0"/>
      <psa03 value="0.0059025599" flag="0"/>
      <psa10 value="0.0032173580" flag="0"/>
      <psa30 value="0.0003405632" flag="0"/>
    </comp>
  </station>
  <station code="CRTC" name="CRTC" netid="IV" insttype="" lat="43.7685" lon="12.883">
    <comp name="--.HHE">
      <acc value="0.0588834927" flag="0"/>
      <vel value="0.0348564682" flag="0"/>
      <psa03 value="0.1419831161" flag="0"/>
      <psa10 value="0.0362624414" flag="0"/>
      <psa30 value="0.0055787950" flag="0"/>
    </comp>
    <comp name="--.HHN">
      <acc value="0.0460574518" flag="0"/>
      <vel value="0.0268265791" flag="0"/>
      <psa03 value="0.1189736602" flag="0"/>
      <psa10 value="0.0625745235" flag="0"/>
      <psa30 value="0.0029529812" flag="0"/>
    </comp>
    <comp name="--.HHZ">
      <acc value="0.0498825320" flag="0"/>
      <vel value="0.0234143696" flag="0"/>
      <psa03 value="0.0882125587" flag="0"/>
      <psa10 value="0.0400296428" flag="0"/>
      <psa30 value="0.0025808962" flag="0"/>
    </comp>
  </station>
  <station code="GUMA" name="GUMA" netid="IV" insttype="" lat="43.0627" lon="13.3352">
    <comp name="--.HHE">
      <acc value="0.0262504490" flag="0"/>
      <vel value="0.0145693870" flag="0"/>
      <psa03 value="0.1056455760" flag="0"/>
      <psa10 value="0.0091908589" flag="0"/>
      <psa30 value="0.0011506758" flag="0"/>
    </comp>
    <comp name="--.HHN">
      <acc value="0.0171812133" flag="0"/>
      <vel value="0.0096799348" flag="0"/>
      <psa03 value="0.0550622699" flag="0"/>
      <psa10 value="0.0071817947" flag="0"/>
      <psa30 value="0.0013662086" flag="0"/>
    </comp>
    <comp name="--.HHZ">
      <acc value="0.0086016433" flag="0"/>
      <vel value="0.0051450158" flag="0"/>
      <psa03 value="0.0335582790" flag="0"/>
      <psa10 value="0.0042401516" flag="0"/>
      <psa30 value="0.0008699569" flag="0"/>
    </comp>
  </station>
  <station code="MURB" name="MURB" netid="IV" insttype="" lat="43.263" lon="12.5246">
    <comp name="--.HHN">
      <acc value="0.0233258006" flag="0"/>
      <vel value="0.0103622410" flag="0"/>
      <psa03 value="0.0924643116" flag="0"/>
      <psa10 value="0.0143943856" flag="0"/>
      <psa30 value="0.0011851932" flag="0"/>
    </comp>
    <comp name="--.HHE">
      <acc value="0.0234370971" flag="0"/>
      <vel value="0.0149817916" flag="0"/>
      <psa03 value="0.1138256378" flag="0"/>
      <psa10 value="0.0111637940" flag="0"/>
      <psa30 value="0.0013099521" flag="0"/>
    </comp>
    <comp name="--.HHZ">
      <acc value="0.0095144498" flag="0"/>
      <vel value="0.0052226230" flag="0"/>
      <psa03 value="0.0221479332" flag="0"/>
      <psa10 value="0.0086840768" flag="0"/>
      <psa30 value="0.0007648089" flag="0"/>
    </comp>
  </station>
  <station code="NRCA" name="NRCA" netid="IV" insttype="" lat="42.8336" lon="13.1143">
    <comp name="--.HHE">
      <acc value="0.0121756652" flag="0"/>
      <vel value="0.0042220593" flag="0"/>
      <psa03 value="0.0147630478" flag="0"/>
      <psa10 value="0.0050408978" flag="0"/>
      <psa30 value="0.0003606744" flag="0"/>
    </comp>
    <comp name="--.HHN">
      <acc value="0.0124357912" flag="0"/>
      <vel value="0.0035394136" flag="0"/>
      <psa03 value="0.0150936676" flag="0"/>
      <psa10 value="0.0037340036" flag="0"/>
      <psa30 value="0.0006339916" flag="0"/>
    </comp>
    <comp name="--.HHZ">
      <acc value="0.0062684984" flag="0"/>
      <vel value="0.0017638793" flag="0"/>
      <psa03 value="0.0058273256" flag="0"/>
      <psa10 value="0.0021884058" flag="0"/>
      <psa30 value="0.0012202959" flag="0"/>
    </comp>
  </station>
  <station code="OFFI" name="OFFI" netid="IV" insttype="" lat="42.935" lon="13.6857">
    <comp name="--.HHE">
      <acc value="0.0111144624" flag="0"/>
      <vel value="0.0079409543" flag="0"/>
      <psa03 value="0.0207542286" flag="0"/>
      <psa10 value="0.0152980883" flag="0"/>
      <psa30 value="0.0014893516" flag="0"/>
    </comp>
    <comp name="--.HHN">
      <acc value="0.0084389607" flag="0"/>
      <vel value="0.0089666802" flag="0"/>
      <psa03 value="0.0166856813" flag="0"/>
      <psa10 value="0.0152904709" flag="0"/>
      <psa30 value="0.0017821201" flag="0"/>
    </comp>
    <comp name="--.HHZ">
      <acc value="0.0038090772" flag="0"/>
      <vel value="0.0039909238" flag="0"/>
      <psa03 value="0.0116425309" flag="0"/>
      <psa10 value="0.0065977515" flag="0"/>
      <psa30 value="0.0006215265" flag="0"/>
    </comp>
  </station>
  <station code="PCRO" name="PCRO" netid="IV" insttype="" lat="43.6077" lon="13.5323">
    <comp name="--.HNE">
      <acc value="0.4542172599" flag="0"/>
      <vel value="0.0567244872" flag="0"/>
      <psa03 value="0.1848077818" flag="0"/>
      <psa10 value="0.0118112543" flag="0"/>
      <psa30 value="0.0013982723" flag="0"/>
    </comp>
    <comp name="--.HNN">
      <acc value="0.2588989064" flag="0"/>
      <vel value="0.0490536142" flag="0"/>
      <psa03 value="0.1902178616" flag="0"/>
      <psa10 value="0.0165501287" flag="0"/>
      <psa30 value="0.0010677297" flag="0"/>
    </comp>
    <comp name="--.HNZ">
      <acc value="0.1442935216" flag="0"/>
      <vel value="0.0206281500" flag="0"/>
      <psa03 value="0.0863770115" flag="0"/>
      <psa10 value="0.0071497575" flag="0"/>
      <psa30 value="0.0008749681" flag="0"/>
    </comp>
  </station>
  <station code="PESA" name="PESA" netid="IV" insttype="" lat="43.941" lon="12.8402">
    <comp name="--.HHE">
      <acc value="0.3502856858" flag="0"/>
      <vel value="0.0453363779" flag="0"/>
      <psa03 value="0.2398847978" flag="0"/>
      <psa10 value="0.0671530636" flag="0"/>
      <psa30 value="0.0040697258" flag="0"/>
    </comp>
    <comp name="--.HHZ">
      <acc value="0.1107900361" flag="0"/>
      <vel value="0.0312809723" flag="0"/>
      <psa03 value="0.1043311767" flag="0"/>
      <psa10 value="0.0279381481" flag="0"/>
      <psa30 value="0.0016351905" flag="0"/>
    </comp>
    <comp name="--.HHN">
      <acc value="0.7024678847" flag="0"/>
      <vel value="0.0739101919" flag="0"/>
      <psa03 value="0.4087632421" flag="0"/>
      <psa10 value="0.0613445838" flag="0"/>
      <psa30 value="0.0053524494" flag="0"/>
    </comp>
  </station>
  <station code="RSM2" name="RSM2" netid="IV" insttype="" lat="43.9377" lon="12.4451">
    <comp name="--.HHE">
      <acc value="0.0055211141" flag="0"/>
      <vel value="0.0068486824" flag="0"/>
      <psa03 value="0.0092762805" flag="0"/>
      <psa10 value="0.0094025713" flag="0"/>
      <psa30 value="0.0026314314" flag="0"/>
    </comp>
    <comp name="--.HHN">
      <acc value="0.0033501067" flag="0"/>
      <vel value="0.0038667868" flag="0"/>
      <psa03 value="0.0083522082" flag="0"/>
      <psa10 value="0.0082624178" flag="0"/>
      <psa30 value="0.0014785057" flag="0"/>
    </comp>
    <comp name="--.HHZ">
      <acc value="0.0042717771" flag="0"/>
      <vel value="0.0039514494" flag="0"/>
      <psa03 value="0.0096435149" flag="0"/>
      <psa10 value="0.0049592415" flag="0"/>
      <psa30 value="0.0009946258" flag="0"/>
    </comp>
  </station>
  <station code="SENI" name="SENI" netid="IV" insttype="" lat="43.7052" lon="13.2331">
    <comp name="--.HNE">
      <acc value="0.4746575953" flag="0"/>
      <vel value="0.1906869416" flag="0"/>
      <psa03 value="0.9310576613" flag="0"/>
      <psa10 value="0.0818287895" flag="0"/>
      <psa30 value="0.0086872665" flag="0"/>
    </comp>
    <comp name="--.HNN">
      <acc value="0.4045267786" flag="0"/>
      <vel value="0.1022443542" flag="0"/>
      <psa03 value="0.5982428861" flag="0"/>
      <psa10 value="0.0952527255" flag="0"/>
      <psa30 value="0.0080367768" flag="0"/>
    </comp>
    <comp name="--.HNZ">
      <acc value="0.1584964404" flag="0"/>
      <vel value="0.0379416198" flag="0"/>
      <psa03 value="0.2107638399" flag="0"/>
      <psa10 value="0.0360755802" flag="0"/>
      <psa30 value="0.0087050377" flag="0"/>
    </comp>
  </station>
  <station code="T1714" name="T1714" netid="Y1" insttype="" lat="43.4764" lon="13.3979">
    <comp name="--.HNE">
      <acc value="0.0538026561" flag="0"/>
      <vel value="0.0166060717" flag="0"/>
      <psa03 value="0.0436443028" flag="0"/>
      <psa10 value="0.0268322806" flag="0"/>
      <psa30 value="0.0019537150" flag="0"/>
    </comp>
    <comp name="--.HNN">
      <acc value="0.0416688826" flag="0"/>
      <vel value="0.0120245379" flag="0"/>
      <psa03 value="0.0446304928" flag="0"/>
      <psa10 value="0.0201118479" flag="0"/>
      <psa30 value="0.0031646456" flag="0"/>
    </comp>
    <comp name="--.HNZ">
      <acc value="0.0328770242" flag="0"/>
      <vel value="0.0060680858" flag="0"/>
      <psa03 value="0.0228183383" flag="0"/>
      <psa10 value="0.0090965965" flag="0"/>
      <psa30 value="0.0028360831" flag="0"/>
    </comp>
  </station>
  <station code="T1718" name="T1718" netid="Y1" insttype="" lat="44.2599" lon="12.2988">
    <comp name="--.HNE">
      <acc value="0.0206640481" flag="0"/>
      <vel value="0.0111148737" flag="0"/>
      <psa03 value="0.0409126328" flag="0"/>
      <psa10 value="0.0074777730" flag="0"/>
      <psa30 value="0.0005935908" flag="0"/>
    </comp>
    <comp name="--.HNN">
      <acc value="0.0146079954" flag="0"/>
      <vel value="0.0075620501" flag="0"/>
      <psa03 value="0.0387617617" flag="0"/>
      <psa10 value="0.0063495992" flag="0"/>
      <psa30 value="0.0007708602" flag="0"/>
    </comp>
    <comp name="--.HNZ">
      <acc value="0.0033305303" flag="0"/>
      <vel value="0.0011822771" flag="0"/>
      <psa03 value="0.0053183015" flag="0"/>
      <psa10 value="0.0018263938" flag="0"/>
      <psa30 value="0.0005743010" flag="0"/>
    </comp>
  </station>
  <station code="T1742" name="T1742" netid="Y1" insttype="" lat="43.6166" lon="13.2054">
    <comp name="--.HNE">
      <acc value="0.2478768962" flag="0"/>
      <vel value="0.0674206375" flag="0"/>
      <psa03 value="0.2913340851" flag="0"/>
      <psa10 value="0.1051371733" flag="0"/>
      <psa30 value="0.0073996001" flag="0"/>
    </comp>
    <comp name="--.HNN">
      <acc value="0.2256735312" flag="0"/>
      <vel value="0.0716466590" flag="0"/>
      <psa03 value="0.2381754224" flag="0"/>
      <psa10 value="0.0785659530" flag="0"/>
      <psa30 value="0.0097290332" flag="0"/>
    </comp>
    <comp name="--.HNZ">
      <acc value="0.0985207878" flag="0"/>
      <vel value="0.0216742923" flag="0"/>
      <psa03 value="0.0930682808" flag="0"/>
      <psa10 value="0.0383158241" flag="0"/>
      <psa30 value="0.0065234807" flag="0"/>
    </comp>
  </station>
  <station code="T1743" name="T1743" netid="Y1" insttype="" lat="43.8451" lon="12.8892">
    <comp name="--.HNE">
      <acc value="0.1889860260" flag="0"/>
      <vel value="0.0547172327" flag="0"/>
      <psa03 value="0.1890020024" flag="0"/>
      <psa10 value="0.0746074250" flag="0"/>
      <psa30 value="0.0083881812" flag="0"/>
    </comp>
    <comp name="--.HNN">
      <acc value="0.2261473420" flag="0"/>
      <vel value="0.0626424932" flag="0"/>
      <psa03 value="0.2544852161" flag="0"/>
      <psa10 value="0.0698179583" flag="0"/>
      <psa30 value="0.0050034842" flag="0"/>
    </comp>
    <comp name="--.HNZ">
      <acc value="0.0854451625" flag="0"/>
      <vel value="0.0309861669" flag="0"/>
      <psa03 value="0.1063281120" flag="0"/>
      <psa10 value="0.0430467251" flag="0"/>
      <psa30 value="0.0031251334" flag="0"/>
    </comp>
  </station>
</stationlist>
