<?xml version="1.0" encoding="UTF-8" standalone="yes"?>
<!DOCTYPE earthquake SYSTEM "stationlist.dtd">
<stationlist created="" xmlns="ch.ethz.sed.shakemap.usgs.xml">
  <station code="AOI" name="AOI" netid="IV" insttype="" lat="43.5502" lon="13.602">
    <comp name="--.HHE">
      <acc value="0.0306638635" flag="0"/>
      <vel value="0.0057424668" flag="0"/>
      <psa03 value="0.0247584126" flag="0"/>
      <psa10 value="0.0036542898" flag="0"/>
      <psa30 value="0.0006499100" flag="0"/>
    </comp>
    <comp name="--.HHN">
      <acc value="0.0358808135" flag="0"/>
      <vel value="0.0068055148" flag="0"/>
      <psa03 value="0.0282368117" flag="0"/>
      <psa10 value="0.0042830585" flag="0"/>
      <psa30 value="0.0004928566" flag="0"/>
    </comp>
    <comp name="--.HHZ">
      <acc value="0.0131375095" flag="0"/>
      <vel value="0.0030627518" flag="0"/>
      <psa03 value="0.0160047502" flag="0"/>
      <psa10 value="0.0029189414" flag="0"/>
      <psa30 value="0.0004764088" flag="0"/>
    </comp>
  </station>
  <station code="APEC" name="APEC" netid="IV" insttype="" lat="43.5585" lon="12.4199">
    <comp name="--.HHN">
      <acc value="0.0160264811" flag="0"/>
      <vel value="0.0084279387" flag="0"/>
      <psa03 value="0.0491530602" flag="0"/>
      <psa10 value="0.0067385552" flag="0"/>
      <psa30 value="0.0004710209" flag="0"/>
    </comp>
    <comp name="--.HHZ">
      <acc value="0.0095257877" flag="0"/>
      <vel value="0.0052082493" flag="0"/>
      <psa03 value="0.0207026449" flag="0"/>
      <psa10 value="0.0047715059" flag="0"/>
      <psa30 value="0.0005134432" flag="0"/>
    </comp>
    <comp name="--.HHE">
      <acc value="0.0102432809" flag="0"/>
      <vel value="0.0067708013" flag="0"/>
      <psa03 value="0.0333880007" flag="0"/>
      <psa10 value="0.0083478005" flag="0"/>
      <psa30 value="0.0004736207" flag="0"/>
    </comp>
  </station>
  <station code="ARVD" name="ARVD" netid="IV" insttype="" lat="43.4981" lon="12.9415">
    <comp name="--.HHE">
      <acc value="0.0117943517" flag="0"/>
      <vel value="0.0040944792" flag="0"/>
      <psa03 value="0.0129302449" flag="0"/>
      <psa10 value="0.0046212390" flag="0"/>
      <psa30 value="0.0019343351" flag="0"/>
    </comp>
    <comp name="--.HHN">
      <acc value="0.0131174027" flag="0"/>
      <vel value="0.0052382382" flag="0"/>
      <psa03 value="0.0163465117" flag="0"/>
      <psa10 value="0.0056987211" flag="0"/>
      <psa30 value="0.0024317029" flag="0"/>
    </comp>
    <comp name="--.HHZ">
      <acc value="0.0104656631" flag="0"/>
      <vel value="0.0037966706" flag="0"/>
      <psa03 value="0.0164775686" flag="0"/>
      <psa10 value="0.0053730716" flag="0"/>
      <psa30 value="0.0017988956" flag="0"/>
    </comp>
  </station>
  <station code="ASSB" name="ASSB" netid="IV" insttype="" lat="43.0426" lon="12.6587">
    <comp name="--.HHE">
      <acc value="0.0150479769" flag="0"/>
      <vel value="0.0063821211" flag="0"/>
      <psa03 value="0.0448795097" flag="0"/>
      <psa10 value="0.0040627405" flag="0"/>
      <psa30 value="0.0011140682" flag="0"/>
    </comp>
    <comp name="--.HHN">
      <acc value="0.0161126308" flag="0"/>
      <vel value="0.0084651985" flag="0"/>
      <psa03 value="0.0465500220" flag="0"/>
      <psa10 value="0.0060240530" flag="0"/>
      <psa30 value="0.0011039035" flag="0"/>
    </comp>
    <comp name="--.HHZ">
      <acc value="0.0074352446" flag="0"/>
      <vel value="0.0035157356" flag="0"/>
      <psa03 value="0.0165278626" flag="0"/>
      <psa10 value="0.0029131574" flag="0"/>
      <psa30 value="0.0007623462" flag="0"/>
    </comp>
  </station>
  <station code="ATFO" name="ATFO" netid="IV" insttype="" lat="43.3666" lon="12.5715">
    <comp name="--.HHE">
      <acc value="0.0114723865" flag="0"/>
      <vel value="0.0068508146" flag="0"/>
      <psa03 value="0.0240519883" flag="0"/>
      <psa10 value="0.0095565122" flag="0"/>
      <psa30 value="0.0011250519" flag="0"/>
    </comp>
    <comp name="--.HHN">
      <acc value="0.0083647551" flag="0"/>
      <vel value="0.0058092189" flag="0"/>
      <psa03 value="0.0268279138" flag="0"/>
      <psa10 value="0.0094993911" flag="0"/>
      <psa30 value="0.0007660244" flag="0"/>
    </comp>
    <comp name="--.HHZ">
      <acc value="0.0047317368" flag="0"/>
      <vel value="0.0030867615" flag="0"/>
      <psa03 value="0.0102606533" flag="0"/>
      <psa10 value="0.0059156011" flag="0"/>
      <psa30 value="0.0007975732" flag="0"/>
    </comp>
  </station>
  <station code="ATMI" name="ATMI" netid="IV" insttype="" lat="43.3342" lon="12.268">
    <comp name="--.HHE">
      <acc value="0.0107689480" flag="0"/>
      <vel value="0.0097395234" flag="0"/>
      <psa03 value="0.0299786540" flag="0"/>
      <psa10 value="0.0089126453" flag="0"/>
      <psa30 value="0.0007386501" flag="0"/>
    </comp>
    <comp name="--.HHZ">
      <acc value="0.0043099760" flag="0"/>
      <vel value="0.0029718145" flag="0"/>
      <psa03 value="0.0088997496" flag="0"/>
      <psa10 value="0.0032366616" flag="0"/>
      <psa30 value="0.0003849763" flag="0"/>
    </comp>
    <comp name="--.HHN">
      <acc value="0.0062538629" flag="0"/>
      <vel value="0.0070772652" flag="0"/>
      <psa03 value="0.0196679576" flag="0"/>
      <psa10 value="0.0108252402" flag="0"/>
      <psa30 value="0.0009016062" flag="0"/>
    </comp>
  </station>
  <station code="ATPC" name="ATPC" netid="IV" insttype="" lat="43.4807" lon="12.457">
    <comp name="--.HHE">
      <acc value="0.0157937794" flag="0"/>
      <vel value="0.0087628952" flag="0"/>
      <psa03 value="0.0288875226" flag="0"/>
      <psa10 value="0.0101179488" flag="0"/>
      <psa30 value="0.0007736210" flag="0"/>
    </comp>
    <comp name="--.HHN">
      <acc value="0.0092600652" flag="0"/>
      <vel value="0.0072251009" flag="0"/>
      <psa03 value="0.0208023891" flag="0"/>
      <psa10 value="0.0062280098" flag="0"/>
      <psa30 value="0.0007289087" flag="0"/>
    </comp>
    <comp name="--.HHZ">
      <acc value="0.0066846326" flag="0"/>
      <vel value="0.0046943353" flag="0"/>
      <psa03 value="0.0150205007" flag="0"/>
      <psa10 value="0.0042869213" flag="0"/>
      <psa30 value="0.0006609176" flag="0"/>
    </comp>
  </station>
  <station code="CAFI" name="CAFI" netid="IV" insttype="" lat="43.3292" lon="11.9663">
    <comp name="--.HHE">
      <acc value="0.0047414578" flag="0"/>
      <vel value="0.0057495488" flag="0"/>
      <psa03 value="0.0070879764" flag="0"/>
      <psa10 value="0.0077068891" flag="0"/>
      <psa30 value="0.0012210883" flag="0"/>
    </comp>
    <comp name="--.HHN">
      <acc value="0.0033066464" flag="0"/>
      <vel value="0.0053802931" flag="0"/>
      <psa03 value="0.0055218019" flag="0"/>
      <psa10 value="0.0062327624" flag="0"/>
      <psa30 value="0.0010986955" flag="0"/>
    </comp>
    <comp name="--.HHZ">
      <acc value="0.0027500065" flag="0"/>
      <vel value="0.0040271005" flag="0"/>
      <psa03 value="0.0050543399" flag="0"/>
      <psa10 value="0.0053109350" flag="0"/>
      <psa30 value="0.0008063529" flag="0"/>
    </comp>
  </station>
  <station code="CESI" name="CESI" netid="IV" insttype="" lat="43.0049" lon="12.9046">
    <comp name="--.HHE">
      <acc value="0.0266152085" flag="0"/>
      <vel value="0.0095825146" flag="0"/>
      <psa03 value="0.0683774126" flag="0"/>
      <psa10 value="0.0051436805" flag="0"/>
      <psa30 value="0.0008320540" flag="0"/>
    </comp>
    <comp name="--.HHN">
      <acc value="0.0155733616" flag="0"/>
      <vel value="0.0089133421" flag="0"/>
      <psa03 value="0.0548507785" flag="0"/>
      <psa10 value="0.0040082626" flag="0"/>
      <psa30 value="0.0007624979" flag="0"/>
    </comp>
    <comp name="--.HHZ">
      <acc value="0.0102987998" flag="0"/>
      <vel value="0.0036249440" flag="0"/>
      <psa03 value="0.0268341497" flag="0"/>
      <psa10 value="0.0030381793" flag="0"/>
      <psa30 value="0.0007713194" flag="0"/>
    </comp>
  </station>
  <station code="CING" name="CING" netid="IV" insttype="" lat="43.3756" lon="13.1954">
    <comp name="--.HHE">
      <acc value="0.0121030983" flag="0"/>
      <vel value="0.0037264829" flag="0"/>
      <psa03 value="0.0173981239" flag="0"/>
      <psa10 value="0.0034412004" flag="0"/>
      <psa30 value="0.0012452021" flag="0"/>
    </comp>
    <comp name="--.HHN">
      <acc value="0.0103737494" flag="0"/>
      <vel value="0.0031199945" flag="0"/>
      <psa03 value="0.0177378848" flag="0"/>
      <psa10 value="0.0040969024" flag="0"/>
      <psa30 value="0.0015089319" flag="0"/>
    </comp>
    <comp name="--.HHZ">
      <acc value="0.0087418213" flag="0"/>
      <vel value="0.0026792978" flag="0"/>
      <psa03 value="0.0183581322" flag="0"/>
      <psa10 value="0.0036650812" flag="0"/>
      <psa30 value="0.0012155377" flag="0"/>
    </comp>
  </station>
  <station code="CRE" name="CRE" netid="IV" insttype="" lat="43.6189" lon="11.9517">
    <comp name="--.HHE">
      <acc value="0.0034012766" flag="0"/>
      <vel value="0.0045636378" flag="0"/>
      <psa03 value="0.0076838014" flag="0"/>
      <psa10 value="0.0055661242" flag="0"/>
      <psa30 value="0.0007498863" flag="0"/>
    </comp>
    <comp name="--.HHN">
      <acc value="0.0056633778" flag="0"/>
      <vel value="0.0050827221" flag="0"/>
      <psa03 value="0.0140253350" flag="0"/>
      <psa10 value="0.0053886324" flag="0"/>
      <psa30 value="0.0008175379" flag="0"/>
    </comp>
    <comp name="--.HHZ">
      <acc value="0.0027376204" flag="0"/>
      <vel value="0.0023177961" flag="0"/>
      <psa03 value="0.0059025599" flag="0"/>
      <psa10 value="0.0032173580" flag="0"/>
      <psa30 value="0.0003404971" flag="0"/>
    </comp>
  </station>
  <station code="CRTC" name="CRTC" netid="IV" insttype="" lat="43.7685" lon="12.883">
    <comp name="--.HHE">
      <acc value="0.0588834926" flag="0"/>
      <vel value="0.0348564682" flag="0"/>
      <psa03 value="0.1419831161" flag="0"/>
      <psa10 value="0.0362624312" flag="0"/>
      <psa30 value="0.0055788881" flag="0"/>
    </comp>
    <comp name="--.HHN">
      <acc value="0.0460574521" flag="0"/>
      <vel value="0.0268265789" flag="0"/>
      <psa03 value="0.1189736602" flag="0"/>
      <psa10 value="0.0625745236" flag="0"/>
      <psa30 value="0.0029528051" flag="0"/>
    </comp>
    <comp name="--.HHZ">
      <acc value="0.0498825323" flag="0"/>
      <vel value="0.0234143704" flag="0"/>
      <psa03 value="0.0882125587" flag="0"/>
      <psa10 value="0.0400296427" flag="0"/>
      <psa30 value="0.0025808717" flag="0"/>
    </comp>
  </station>
  <station code="FANO" name="FANO" netid="IV" insttype="" lat="43.8435" lon="13.0184">
    <comp name="--.HNZ">
      <acc value="0.1297100052" flag="0"/>
      <vel value="0.0418902071" flag="0"/>
      <psa03 value="0.1403349962" flag="0"/>
      <psa10 value="0.0495043038" flag="0"/>
      <psa30 value="0.0086649476" flag="0"/>
    </comp>
    <comp name="--.HNE">
      <acc value="0.1453557205" flag="0"/>
      <vel value="0.0673769379" flag="0"/>
      <psa03 value="0.2392420796" flag="0"/>
      <psa10 value="0.1159976966" flag="0"/>
      <psa30 value="0.0089073285" flag="0"/>
    </comp>
    <comp name="--.HNN">
      <acc value="0.1383246845" flag="0"/>
      <vel value="0.0999177185" flag="0"/>
      <psa03 value="0.2178663946" flag="0"/>
      <psa10 value="0.1393251308" flag="0"/>
      <psa30 value="0.0102780710" flag="0"/>
    </comp>
  </station>
  <station code="FDMO" name="FDMO" netid="IV" insttype="" lat="43.0365" lon="13.0873">
    <comp name="--.HHE">
      <acc value="0.0172539455" flag="0"/>
      <vel value="0.0052754762" flag="0"/>
      <psa03 value="0.0237344413" flag="0"/>
      <psa10 value="0.0029205964" flag="0"/>
      <psa30 value="0.0005271633" flag="0"/>
    </comp>
    <comp name="--.HHN">
      <acc value="0.0124966113" flag="0"/>
      <vel value="0.0039745568" flag="0"/>
      <psa03 value="0.0165738992" flag="0"/>
      <psa10 value="0.0029347927" flag="0"/>
      <psa30 value="0.0012239926" flag="0"/>
    </comp>
    <comp name="--.HHZ">
      <acc value="0.0089586138" flag="0"/>
      <vel value="0.0030694255" flag="0"/>
      <psa03 value="0.0100262145" flag="0"/>
      <psa10 value="0.0024662678" flag="0"/>
      <psa30 value="0.0021954422" flag="0"/>
    </comp>
  </station>
  <station code="GUMA" name="GUMA" netid="IV" insttype="" lat="43.0627" lon="13.3352">
    <comp name="--.HHN">
      <acc value="0.0171812124" flag="0"/>
      <vel value="0.0096799350" flag="0"/>
      <psa03 value="0.0550622699" flag="0"/>
      <psa10 value="0.0071817947" flag="0"/>
      <psa30 value="0.0013609074" flag="0"/>
    </comp>
    <comp name="--.HHE">
      <acc value="0.0262504480" flag="0"/>
      <vel value="0.0145693871" flag="0"/>
      <psa03 value="0.1056455760" flag="0"/>
      <psa10 value="0.0091908589" flag="0"/>
      <psa30 value="0.0011507912" flag="0"/>
    </comp>
    <comp name="--.HHZ">
      <acc value="0.0086016436" flag="0"/>
      <vel value="0.0051450157" flag="0"/>
      <psa03 value="0.0335582790" flag="0"/>
      <psa10 value="0.0042401517" flag="0"/>
      <psa30 value="0.0008700006" flag="0"/>
    </comp>
  </station>
  <station code="MML1" name="MML1" netid="IV" insttype="" lat="43.1135" lon="12.9717">
    <comp name="--.HNZ">
      <acc value="0.0165292213" flag="0"/>
      <vel value="0.0063475730" flag="0"/>
      <psa03 value="0.0180324850" flag="0"/>
      <psa10 value="0.0033252247" flag="0"/>
      <psa30 value="0.0011450933" flag="0"/>
    </comp>
    <comp name="--.HNE">
      <acc value="0.0196036220" flag="0"/>
      <vel value="0.0073848827" flag="0"/>
      <psa03 value="0.0429945059" flag="0"/>
      <psa10 value="0.0061521546" flag="0"/>
      <psa30 value="0.0008505130" flag="0"/>
    </comp>
    <comp name="--.HNN">
      <acc value="0.0148854795" flag="0"/>
      <vel value="0.0050813935" flag="0"/>
      <psa03 value="0.0340208839" flag="0"/>
      <psa10 value="0.0054059877" flag="0"/>
      <psa30 value="0.0013739877" flag="0"/>
    </comp>
  </station>
  <station code="MURB" name="MURB" netid="IV" insttype="" lat="43.263" lon="12.5246">
    <comp name="--.HHE">
      <acc value="0.0234370968" flag="0"/>
      <vel value="0.0149817924" flag="0"/>
      <psa03 value="0.1138256378" flag="0"/>
      <psa10 value="0.0111637940" flag="0"/>
      <psa30 value="0.0013099029" flag="0"/>
    </comp>
    <comp name="--.HHZ">
      <acc value="0.0095144498" flag="0"/>
      <vel value="0.0052226003" flag="0"/>
      <psa03 value="0.0221479332" flag="0"/>
      <psa10 value="0.0086840767" flag="0"/>
      <psa30 value="0.0007648003" flag="0"/>
    </comp>
    <comp name="--.HHN">
      <acc value="0.0233258010" flag="0"/>
      <vel value="0.0103622399" flag="0"/>
      <psa03 value="0.0924643116" flag="0"/>
      <psa10 value="0.0143943856" flag="0"/>
      <psa30 value="0.0011851984" flag="0"/>
    </comp>
  </station>
  <station code="NRCA" name="NRCA" netid="IV" insttype="" lat="42.8336" lon="13.1143">
    <comp name="--.HHE">
      <acc value="0.0121756652" flag="0"/>
      <vel value="0.0042220580" flag="0"/>
      <psa03 value="0.0147630478" flag="0"/>
      <psa10 value="0.0050408978" flag="0"/>
      <psa30 value="0.0003607856" flag="0"/>
    </comp>
    <comp name="--.HHZ">
      <acc value="0.0062684984" flag="0"/>
      <vel value="0.0017638786" flag="0"/>
      <psa03 value="0.0058273255" flag="0"/>
      <psa10 value="0.0021884058" flag="0"/>
      <psa30 value="0.0011579273" flag="0"/>
    </comp>
    <comp name="--.HHN">
      <acc value="0.0124357912" flag="0"/>
      <vel value="0.0035394147" flag="0"/>
      <psa03 value="0.0150936676" flag="0"/>
      <psa10 value="0.0037340036" flag="0"/>
      <psa30 value="0.0006182860" flag="0"/>
    </comp>
  </station>
  <station code="OFFI" name="OFFI" netid="IV" insttype="" lat="42.935" lon="13.6857">
    <comp name="--.HHN">
      <acc value="0.0084389607" flag="0"/>
      <vel value="0.0089666805" flag="0"/>
      <psa03 value="0.0166856813" flag="0"/>
      <psa10 value="0.0152904709" flag="0"/>
      <psa30 value="0.0017820620" flag="0"/>
    </comp>
    <comp name="--.HHZ">
      <acc value="0.0038090767" flag="0"/>
      <vel value="0.0039909254" flag="0"/>
      <psa03 value="0.0116425309" flag="0"/>
      <psa10 value="0.0065977516" flag="0"/>
      <psa30 value="0.0006210815" flag="0"/>
    </comp>
    <comp name="--.HHE">
      <acc value="0.0111144623" flag="0"/>
      <vel value="0.0079409553" flag="0"/>
      <psa03 value="0.0207542286" flag="0"/>
      <psa10 value="0.0152980885" flag="0"/>
      <psa30 value="0.0014893761" flag="0"/>
    </comp>
  </station>
  <station code="PARC" name="PARC" netid="IV" insttype="" lat="43.6486" lon="12.2386">
    <comp name="--.HHE">
      <acc value="0.0057602553" flag="0"/>
      <vel value="0.0042750239" flag="0"/>
      <psa03 value="0.0139003327" flag="0"/>
      <psa10 value="0.0054719129" flag="0"/>
      <psa30 value="0.0006787846" flag="0"/>
    </comp>
    <comp name="--.HHN">
      <acc value="0.0065843495" flag="0"/>
      <vel value="0.0047456885" flag="0"/>
      <psa03 value="0.0158078575" flag="0"/>
      <psa10 value="0.0048725296" flag="0"/>
      <psa30 value="0.0005132811" flag="0"/>
    </comp>
    <comp name="--.HHZ">
      <acc value="0.0064817829" flag="0"/>
      <vel value="0.0031090525" flag="0"/>
      <psa03 value="0.0117603465" flag="0"/>
      <psa10 value="0.0050079630" flag="0"/>
      <psa30 value="0.0005259764" flag="0"/>
    </comp>
  </station>
  <station code="PCRO" name="PCRO" netid="IV" insttype="" lat="43.6077" lon="13.5323">
    <comp name="--.HNE">
      <acc value="0.4542172625" flag="0"/>
      <vel value="0.0567244861" flag="0"/>
      <psa03 value="0.1848077818" flag="0"/>
      <psa10 value="0.0118112752" flag="0"/>
      <psa30 value="0.0013979682" flag="0"/>
    </comp>
    <comp name="--.HNN">
      <acc value="0.2588989069" flag="0"/>
      <vel value="0.0490536122" flag="0"/>
      <psa03 value="0.1902178616" flag="0"/>
      <psa10 value="0.0165501442" flag="0"/>
      <psa30 value="0.0010652742" flag="0"/>
    </comp>
    <comp name="--.HNZ">
      <acc value="0.1442935235" flag="0"/>
      <vel value="0.0206281524" flag="0"/>
      <psa03 value="0.0863770115" flag="0"/>
      <psa10 value="0.0071497576" flag="0"/>
      <psa30 value="0.0008757675" flag="0"/>
    </comp>
  </station>
  <station code="PESA" name="PESA" netid="IV" insttype="" lat="43.941" lon="12.8402">
    <comp name="--.HHN">
      <acc value="0.7024678845" flag="0"/>
      <vel value="0.0739101757" flag="0"/>
      <psa03 value="0.4087632421" flag="0"/>
      <psa10 value="0.0613445716" flag="0"/>
      <psa30 value="0.0053519055" flag="0"/>
    </comp>
    <comp name="--.HHE">
      <acc value="0.3502856858" flag="0"/>
      <vel value="0.0453363836" flag="0"/>
      <psa03 value="0.2398847978" flag="0"/>
      <psa10 value="0.0671530632" flag="0"/>
      <psa30 value="0.0040693958" flag="0"/>
    </comp>
    <comp name="--.HHZ">
      <acc value="0.1107900359" flag="0"/>
      <vel value="0.0312809724" flag="0"/>
      <psa03 value="0.1043311767" flag="0"/>
      <psa10 value="0.0279381478" flag="0"/>
      <psa30 value="0.0016355266" flag="0"/>
    </comp>
  </station>
  <station code="PIEI" name="PIEI" netid="IV" insttype="" lat="43.5357" lon="12.535">
    <comp name="--.HHE">
      <acc value="0.0140965912" flag="0"/>
      <vel value="0.0074172197" flag="0"/>
      <psa03 value="0.0366652479" flag="0"/>
      <psa10 value="0.0030958458" flag="0"/>
      <psa30 value="0.0004798730" flag="0"/>
    </comp>
    <comp name="--.HHN">
      <acc value="0.0101335751" flag="0"/>
      <vel value="0.0043000765" flag="0"/>
      <psa03 value="0.0201728892" flag="0"/>
      <psa10 value="0.0024542336" flag="0"/>
      <psa30 value="0.0004811901" flag="0"/>
    </comp>
