<?xml version="1.0" encoding="UTF-8" standalone="yes"?>
<!DOCTYPE earthquake SYSTEM "stationlist.dtd">
<stationlist created="" xmlns="ch.ethz.sed.shakemap.usgs.xml">
  <station code="AOI" name="AOI" netid="IV" insttype="" lat="43.5502" lon="13.602">
    <comp name="--.HHE">
      <acc value="0.0849638319" flag="0"/>
      <vel value="0.0180087342" flag="0"/>
      <psa03 value="0.0799897188" flag="0"/>
      <psa10 value="0.0112557558" flag="0"/>
      <psa30 value="0.0011133542" flag="0"/>
    </comp>
    <comp name="--.HHZ">
      <acc value="0.0332128585" flag="0"/>
      <vel value="0.0099363651" flag="0"/>
      <psa03 value="0.0740732603" flag="0"/>
      <psa10 value="0.0088519187" flag="0"/>
      <psa30 value="0.0007512262" flag="0"/>
    </comp>
    <comp name="--.HHN">
      <acc value="0.0620406146" flag="0"/>
      <vel value="0.0141235737" flag="0"/>
      <psa03 value="0.0990997101" flag="0"/>
      <psa10 value="0.0101817619" flag="0"/>
      <psa30 value="0.0009617299" flag="0"/>
    </comp>
  </station>
  <station code="APEC" name="APEC" netid="IV" insttype="" lat="43.5585" lon="12.4199">
    <comp name="--.HHE">
      <acc value="0.0490077403" flag="0"/>
      <vel value="0.0228507625" flag="0"/>
      <psa03 value="0.1151022885" flag="0"/>
      <psa10 value="0.0152753754" flag="0"/>
      <psa30 value="0.0011083084" flag="0"/>
    </comp>
    <comp name="--.HHZ">
      <acc value="0.0293713186" flag="0"/>
      <vel value="0.0152736244" flag="0"/>
      <psa03 value="0.0896667879" flag="0"/>
      <psa10 value="0.0099128287" flag="0"/>
      <psa30 value="0.0007188343" flag="0"/>
    </comp>
    <comp name="--.HHN">
      <acc value="0.0448167407" flag="0"/>
      <vel value="0.0217535874" flag="0"/>
      <psa03 value="0.1029562549" flag="0"/>
      <psa10 value="0.0125354575" flag="0"/>
      <psa30 value="0.0008167210" flag="0"/>
    </comp>
  </station>
  <station code="ARVD" name="ARVD" netid="IV" insttype="" lat="43.4981" lon="12.9415">
    <comp name="--.HHN">
      <acc value="0.0308340723" flag="0"/>
      <vel value="0.0120755376" flag="0"/>
      <psa03 value="0.0478455503" flag="0"/>
      <psa10 value="0.0115292758" flag="0"/>
      <psa30 value="0.0035440004" flag="0"/>
    </comp>
    <comp name="--.HHE">
      <acc value="0.0260138120" flag="0"/>
      <vel value="0.0112817023" flag="0"/>
      <psa03 value="0.0531613989" flag="0"/>
      <psa10 value="0.0111320844" flag="0"/>
      <psa30 value="0.0016627278" flag="0"/>
    </comp>
    <comp name="--.HHZ">
      <acc value="0.0217358969" flag="0"/>
      <vel value="0.0106193948" flag="0"/>
      <psa03 value="0.0426324883" flag="0"/>
      <psa10 value="0.0099892265" flag="0"/>
      <psa30 value="0.0023532304" flag="0"/>
    </comp>
  </station>
  <station code="ASSB" name="ASSB" netid="IV" insttype="" lat="43.0426" lon="12.6587">
    <comp name="--.HHE">
      <acc value="0.0461182965" flag="0"/>
      <vel value="0.0268791214" flag="0"/>
      <psa03 value="0.1706629169" flag="0"/>
      <psa10 value="0.0107288128" flag="0"/>
      <psa30 value="0.0012241792" flag="0"/>
    </comp>
    <comp name="--.HHZ">
      <acc value="0.0220890884" flag="0"/>
      <vel value="0.0095674125" flag="0"/>
      <psa03 value="0.0579585989" flag="0"/>
      <psa10 value="0.0088593020" flag="0"/>
      <psa30 value="0.0007538122" flag="0"/>
    </comp>
    <comp name="--.HHN">
      <acc value="0.0451887517" flag="0"/>
      <vel value="0.0245526929" flag="0"/>
      <psa03 value="0.1737220795" flag="0"/>
      <psa10 value="0.0233269090" flag="0"/>
      <psa30 value="0.0011069161" flag="0"/>
    </comp>
  </station>
  <station code="ATBU" name="ATBU" netid="IV" insttype="" lat="43.4757" lon="12.5483">
    <comp name="--.HNN">
      <acc value="0.0610363204" flag="0"/>
      <vel value="0.0404471263" flag="0"/>
      <psa03 value="0.1812584604" flag="0"/>
      <psa10 value="0.0375362617" flag="0"/>
      <psa30 value="0.0020435733" flag="0"/>
    </comp>
    <comp name="--.HNE">
      <acc value="0.0690849532" flag="0"/>
      <vel value="0.0524963887" flag="0"/>
      <psa03 value="0.1744527210" flag="0"/>
      <psa10 value="0.0319875232" flag="0"/>
      <psa30 value="0.0021261506" flag="0"/>
    </comp>
    <comp name="--.HNZ">
      <acc value="0.0249582386" flag="0"/>
      <vel value="0.0175782244" flag="0"/>
      <psa03 value="0.0612202289" flag="0"/>
      <psa10 value="0.0188582139" flag="0"/>
      <psa30 value="0.0014222568" flag="0"/>
    </comp>
  </station>
  <station code="ATCC" name="ATCC" netid="IV" insttype="" lat="43.1851" lon="12.6399">
    <comp name="--.HNZ">
      <acc value="0.0261424444" flag="0"/>
      <vel value="0.0111058445" flag="0"/>
      <psa03 value="0.0530596100" flag="0"/>
      <psa10 value="0.0147073310" flag="0"/>
      <psa30 value="0.0015759961" flag="0"/>
    </comp>
    <comp name="--.HNN">
      <acc value="0.0778016848" flag="0"/>
      <vel value="0.0382347148" flag="0"/>
      <psa03 value="0.1292321132" flag="0"/>
      <psa10 value="0.0233586480" flag="0"/>
      <psa30 value="0.0014304746" flag="0"/>
    </comp>
    <comp name="--.HNE">
      <acc value="0.0456203344" flag="0"/>
      <vel value="0.0263101523" flag="0"/>
      <psa03 value="0.1147378674" flag="0"/>
      <psa10 value="0.0363338357" flag="0"/>
      <psa30 value="0.0019686331" flag="0"/>
    </comp>
  </station>
  <station code="ATFO" name="ATFO" netid="IV" insttype="" lat="43.3666" lon="12.5715">
    <comp name="--.HHE">
      <acc value="0.0334885289" flag="0"/>
      <vel value="0.0211452525" flag="0"/>
      <psa03 value="0.0852581694" flag="0"/>
      <psa10 value="0.0214806298" flag="0"/>
      <psa30 value="0.0016434007" flag="0"/>
    </comp>
    <comp name="--.HHN">
      <acc value="0.0314311216" flag="0"/>
      <vel value="0.0180760681" flag="0"/>
      <psa03 value="0.1022526754" flag="0"/>
      <psa10 value="0.0155222391" flag="0"/>
      <psa30 value="0.0011972073" flag="0"/>
    </comp>
    <comp name="--.HHZ">
      <acc value="0.0146429454" flag="0"/>
      <vel value="0.0103387795" flag="0"/>
      <psa03 value="0.0335147504" flag="0"/>
      <psa10 value="0.0146966085" flag="0"/>
      <psa30 value="0.0011991446" flag="0"/>
    </comp>
  </station>
  <station code="ATMI" name="ATMI" netid="IV" insttype="" lat="43.3342" lon="12.268">
    <comp name="--.HHE">
      <acc value="0.0348571927" flag="0"/>
      <vel value="0.0167449621" flag="0"/>
      <psa03 value="0.0868947348" flag="0"/>
      <psa10 value="0.0178724221" flag="0"/>
      <psa30 value="0.0011277170" flag="0"/>
    </comp>
    <comp name="--.HHN">
      <acc value="0.0246345648" flag="0"/>
      <vel value="0.0173894965" flag="0"/>
      <psa03 value="0.1143204257" flag="0"/>
      <psa10 value="0.0182011358" flag="0"/>
      <psa30 value="0.0013883052" flag="0"/>
    </comp>
    <comp name="--.HHZ">
      <acc value="0.0136318012" flag="0"/>
      <vel value="0.0085057853" flag="0"/>
      <psa03 value="0.0327203070" flag="0"/>
      <psa10 value="0.0089734475" flag="0"/>
      <psa30 value="0.0005339773" flag="0"/>
    </comp>
  </station>
  <station code="ATPC" name="ATPC" netid="IV" insttype="" lat="43.4807" lon="12.457">
    <comp name="--.HHN">
      <acc value="0.0360163928" flag="0"/>
      <vel value="0.0172994509" flag="0"/>
      <psa03 value="0.1075924685" flag="0"/>
      <psa10 value="0.0168681806" flag="0"/>
      <psa30 value="0.0009772964" flag="0"/>
    </comp>
    <comp name="--.HHE">
      <acc value="0.0494638954" flag="0"/>
      <vel value="0.0288029620" flag="0"/>
      <psa03 value="0.1328301333" flag="0"/>
      <psa10 value="0.0384438771" flag="0"/>
      <psa30 value="0.0015585067" flag="0"/>
    </comp>
    <comp name="--.HHZ">
      <acc value="0.0171689651" flag="0"/>
      <vel value="0.0114487211" flag="0"/>
      <psa03 value="0.0390663880" flag="0"/>
      <psa10 value="0.0129456472" flag="0"/>
      <psa30 value="0.0009658428" flag="0"/>
    </comp>
  </station>
  <station code="ATVO" name="ATVO" netid="IV" insttype="" lat="43.3821" lon="12.4066">
    <comp name="--.HHZ">
      <acc value="0.0094974169" flag="0"/>
      <vel value="0.0080307336" flag="0"/>
      <psa03 value="0.0291196425" flag="0"/>
      <psa10 value="0.0070791529" flag="0"/>
      <psa30 value="0.0007642941" flag="0"/>
    </comp>
    <comp name="--.HHE">
      <acc value="0.0193301748" flag="0"/>
      <vel value="0.0104212296" flag="0"/>
      <psa03 value="0.0750370277" flag="0"/>
      <psa10 value="0.0121081918" flag="0"/>
      <psa30 value="0.0010204496" flag="0"/>
    </comp>
    <comp name="--.HHN">
      <acc value="0.0155942204" flag="0"/>
      <vel value="0.0112368473" flag="0"/>
      <psa03 value="0.0394365430" flag="0"/>
      <psa10 value="0.0118457452" flag="0"/>
      <psa30 value="0.0006016226" flag="0"/>
    </comp>
  </station>
  <station code="BRIS" name="BRIS" netid="IV" insttype="" lat="44.2245" lon="11.7666">
    <comp name="--.HHN">
      <acc value="0.0028769866" flag="0"/>
      <vel value="0.0021299877" flag="0"/>
      <psa03 value="0.0065156284" flag="0"/>
      <psa10 value="0.0018540489" flag="0"/>
      <psa30 value="0.0002180196" flag="0"/>
    </comp>
    <comp name="--.HHE">
      <acc value="0.0028568188" flag="0"/>
      <vel value="0.0020530554" flag="0"/>
      <psa03 value="0.0055565338" flag="0"/>
      <psa10 value="0.0021731325" flag="0"/>
      <psa30 value="0.0003656316" flag="0"/>
    </comp>
    <comp name="--.HHZ">
      <acc value="0.0018459711" flag="0"/>
      <vel value="0.0013948810" flag="0"/>
      <psa03 value="0.0048294041" flag="0"/>
      <psa10 value="0.0017313168" flag="0"/>
      <psa30 value="0.0002412578" flag="0"/>
    </comp>
  </station>
  <station code="CADA" name="CADA" netid="IV" insttype="" lat="43.1942" lon="13.7614">
    <comp name="--.HNZ">
      <acc value="0.0384478672" flag="0"/>
      <vel value="0.0580961345" flag="0"/>
      <psa03 value="0.0634491516" flag="0"/>
      <psa10 value="0.0301512660" flag="0"/>
      <psa30 value="0.0209981900" flag="0"/>
    </comp>
    <comp name="--.HNN">
      <acc value="0.0491596066" flag="0"/>
      <vel value="0.0230797954" flag="0"/>
      <psa03 value="0.0673860962" flag="0"/>
      <psa10 value="0.0298379422" flag="0"/>
      <psa30 value="0.0031646354" flag="0"/>
    </comp>
    <comp name="--.HNE">
      <acc value="0.0554115648" flag="0"/>
      <vel value="0.0205812847" flag="0"/>
      <psa03 value="0.0914952151" flag="0"/>
      <psa10 value="0.0246152591" flag="0"/>
      <psa30 value="0.0016661510" flag="0"/>
    </comp>
  </station>
  <station code="CAFI" name="CAFI" netid="IV" insttype="" lat="43.3292" lon="11.9663">
    <comp name="--.HHE">
      <acc value="0.0101068524" flag="0"/>
      <vel value="0.0080800833" flag="0"/>
      <psa03 value="0.0232056093" flag="0"/>
      <psa10 value="0.0152370012" flag="0"/>
      <psa30 value="0.0015585898" flag="0"/>
    </comp>
    <comp name="--.HHN">
      <acc value="0.0085744527" flag="0"/>
      <vel value="0.0077329148" flag="0"/>
      <psa03 value="0.0239908190" flag="0"/>
      <psa10 value="0.0082817384" flag="0"/>
      <psa30 value="0.0012075007" flag="0"/>
    </comp>
    <comp name="--.HHZ">
      <acc value="0.0080031709" flag="0"/>
      <vel value="0.0062274870" flag="0"/>
      <psa03 value="0.0162926245" flag="0"/>
      <psa10 value="0.0082679927" flag="0"/>
      <psa30 value="0.0010887350" flag="0"/>
    </comp>
  </station>
  <station code="CESI" name="CESI" netid="IV" insttype="" lat="43.0049" lon="12.9046">
    <comp name="--.HHZ">
      <acc value="0.0188050312" flag="0"/>
      <vel value="0.0112697879" flag="0"/>
      <psa03 value="0.0610921898" flag="0"/>
      <psa10 value="0.0091731808" flag="0"/>
      <psa30 value="0.0010823497" flag="0"/>
    </comp>
    <comp name="--.HHE">
      <acc value="0.0414773463" flag="0"/>
      <vel value="0.0231275566" flag="0"/>
      <psa03 value="0.1287070407" flag="0"/>
      <psa10 value="0.0137769733" flag="0"/>
      <psa30 value="0.0011103097" flag="0"/>
    </comp>
    <comp name="--.HHN">
      <acc value="0.0424421108" flag="0"/>
      <vel value="0.0292469375" flag="0"/>
      <psa03 value="0.1698189655" flag="0"/>
      <psa10 value="0.0153164796" flag="0"/>
      <psa30 value="0.0009369099" flag="0"/>
    </comp>
  </station>
  <station code="CING" name="CING" netid="IV" insttype="" lat="43.3756" lon="13.1954">
    <comp name="--.HHN">
      <acc value="0.0287278575" flag="0"/>
      <vel value="0.0113504283" flag="0"/>
      <psa03 value="0.0410664053" flag="0"/>
      <psa10 value="0.0089278209" flag="0"/>
      <psa30 value="0.0016787561" flag="0"/>
    </comp>
    <comp name="--.HHE">
      <acc value="0.0245096934" flag="0"/>
      <vel value="0.0105093332" flag="0"/>
      <psa03 value="0.0580166224" flag="0"/>
      <psa10 value="0.0070264533" flag="0"/>
      <psa30 value="0.0019313084" flag="0"/>
    </comp>
    <comp name="--.HHZ">
      <acc value="0.0240386739" flag="0"/>
      <vel value="0.0103676600" flag="0"/>
      <psa03 value="0.0358887325" flag="0"/>
      <psa10 value="0.0084245323" flag="0"/>
      <psa30 value="0.0009610928" flag="0"/>
    </comp>
  </station>
  <station code="COR1" name="COR1" netid="IV" insttype="" lat="43.6318" lon="13.0003">
    <comp name="--.HNE">
      <acc value="0.2544989822" flag="0"/>
      <vel value="0.0834310754" flag="0"/>
      <psa03 value="0.3766010105" flag="0"/>
      <psa10 value="0.0922736861" flag="0"/>
      <psa30 value="0.0075710472" flag="0"/>
    </comp>
    <comp name="--.HNZ">
      <acc value="0.1272201669" flag="0"/>
      <vel value="0.0482188141" flag="0"/>
      <psa03 value="0.2002921930" flag="0"/>
      <psa10 value="0.0450389650" flag="0"/>
      <psa30 value="0.0101180711" flag="0"/>
    </comp>
    <comp name="--.HNN">
      <acc value="0.2609075911" flag="0"/>
      <vel value="0.0755542768" flag="0"/>
      <psa03 value="0.3974014105" flag="0"/>
      <psa10 value="0.1128683796" flag="0"/>
      <psa30 value="0.0116096110" flag="0"/>
    </comp>
  </station>
  <station code="CPGN" name="CPGN" netid="IV" insttype="" lat="43.8011" lon="12.3205">
    <comp name="--.HNE">
      <acc value="0.0177678105" flag="0"/>
      <vel value="0.0080502678" flag="0"/>
      <psa03 value="0.0413035360" flag="0"/>
      <psa10 value="0.0131228027" flag="0"/>
      <psa30 value="0.0013450279" flag="0"/>
    </comp>
    <comp name="--.HNN">
      <acc value="0.0158455981" flag="0"/>
      <vel value="0.0089923666" flag="0"/>
      <psa03 value="0.0490932372" flag="0"/>
      <psa10 value="0.0100196909" flag="0"/>
      <psa30 value="0.0011459367" flag="0"/>
    </comp>
    <comp name="--.HNZ">
      <acc value="0.0085983904" flag="0"/>
      <vel value="0.0045452310" flag="0"/>
      <psa03 value="0.0156963299" flag="0"/>
      <psa10 value="0.0082707775" flag="0"/>
      <psa30 value="0.0011858812" flag="0"/>
    </comp>
  </station>
  <station code="CRE" name="CRE" netid="IV" insttype="" lat="43.6189" lon="11.9517">
    <comp name="--.HHN">
      <acc value="0.0116428561" flag="0"/>
      <vel value="0.0073024839" flag="0"/>
      <psa03 value="0.0295823097" flag="0"/>
      <psa10 value="0.0083540465" flag="0"/>
      <psa30 value="0.0010257426" flag="0"/>
    </comp>
    <comp name="--.HHE">
      <acc value="0.0093620110" flag="0"/>
      <vel value="0.0091020894" flag="0"/>
      <psa03 value="0.0207550847" flag="0"/>
      <psa10 value="0.0081838603" flag="0"/>
      <psa30 value="0.0008908307" flag="0"/>
    </comp>
    <comp name="--.HHZ">
      <acc value="0.0084254222" flag="0"/>
      <vel value="0.0046283024" flag="0"/>
      <psa03 value="0.0150938137" flag="0"/>
      <psa10 value="0.0053579137" flag="0"/>
      <psa30 value="0.0004876563" flag="0"/>
    </comp>
  </station>
  <station code="CRTC" name="CRTC" netid="IV" insttype="" lat="43.7685" lon="12.883">
    <comp name="--.HHE">
      <acc value="0.1075232352" flag="0"/>
      <vel value="0.0530494201" flag="0"/>
      <psa03 value="0.3026026827" flag="0"/>
      <psa10 value="0.0580174753" flag="0"/>
      <psa30 value="0.0045946828" flag="0"/>
    </comp>
    <comp name="--.HHN">
      <acc value="0.1235260828" flag="0"/>
      <vel value="0.0491696204" flag="0"/>
      <psa03 value="0.4131585170" flag="0"/>
      <psa10 value="0.0823951358" flag="0"/>
      <psa30 value="0.0052695450" flag="0"/>
    </comp>
    <comp name="--.HHZ">
      <acc value="0.1257400611" flag="0"/>
      <vel value="0.0448661333" flag="0"/>
      <psa03 value="0.2281233531" flag="0"/>
      <psa10 value="0.0356666211" flag="0"/>
      <psa30 value="0.0036336565" flag="0"/>
    </comp>
  </station>
  <station code="FANO" name="FANO" netid="IV" insttype="" lat="43.8435" lon="13.0184">
    <comp name="--.HNN">
      <acc value="0.4427753240" flag="0"/>
      <vel value="0.1596785835" flag="0"/>
      <psa03 value="0.6402823441" flag="0"/>
      <psa10 value="0.1809639651" flag="0"/>
      <psa30 value="0.0107946985" flag="0"/>
    </comp>
    <comp name="--.HNE">
      <acc value="0.4137287870" flag="0"/>
      <vel value="0.1595131721" flag="0"/>
      <psa03 value="0.4460170115" flag="0"/>
      <psa10 value="0.2186104108" flag="0"/>
      <psa30 value="0.0150812585" flag="0"/>
    </comp>
    <comp name="--.HNZ">
      <acc value="0.2329948808" flag="0"/>
      <vel value="0.0595654195" flag="0"/>
      <psa03 value="0.4185426082" flag="0"/>
      <psa10 value="0.0522553369" flag="0"/>
      <psa30 value="0.0076504137" flag="0"/>
    </comp>
  </station>
  <station code="FDMO" name="FDMO" netid="IV" insttype="" lat="43.0365" lon="13.0873">
    <comp name="--.HHN">
      <acc value="0.0183101934" flag="0"/>
      <vel value="0.0070027502" flag="0"/>
      <psa03 value="0.0374854567" flag="0"/>
      <psa10 value="0.0060294826" flag="0"/>
      <psa30 value="0.0006347586" flag="0"/>
    </comp>
    <comp name="--.HHZ">
      <acc value="0.0143833560" flag="0"/>
      <vel value="0.0072234232" flag="0"/>
      <psa03 value="0.0342452469" flag="0"/>
      <psa10 value="0.0093363461" flag="0"/>
      <psa30 value="0.0010539700" flag="0"/>
    </comp>
    <comp name="--.HHE">
      <acc value="0.0239046912" flag="0"/>
      <vel value="0.0111725585" flag="0"/>
      <psa03 value="0.0535461349" flag="0"/>
      <psa10 value="0.0092198393" flag="0"/>
      <psa30 value="0.0007222170" flag="0"/>
    </comp>
  </station>
  <station code="FEMA" name="FEMA" netid="IV" insttype="" lat="42.9621" lon="13.0498">
    <comp name="--.HNE">
      <acc value="0.0499614744" flag="0"/>
      <vel value="0.0383886054" flag="0"/>
      <psa03 value="0.1273873103" flag="0"/>
      <psa10 value="0.0288440654" flag="0"/>
      <psa30 value="0.0017632243" flag="0"/>
    </comp>
    <comp name="--.HNN">
      <acc value="0.0488695514" flag="0"/>
      <vel value="0.0246538132" flag="0"/>
      <psa03 value="0.1181663061" flag="0"/>
      <psa10 value="0.0193998198" flag="0"/>
      <psa30 value="0.0015931178" flag="0"/>
    </comp>
    <comp name="--.HNZ">
      <acc value="0.0164717001" flag="0"/>
      <vel value="0.0112453766" flag="0"/>
      <psa03 value="0.0398305113" flag="0"/>
      <psa10 value="0.0236226287" flag="0"/>
      <psa30 value="0.0018791283" flag="0"/>
    </comp>
  </station>
  <station code="FOSV" name="FOSV" netid="IV" insttype="" lat="43.2948" lon="12.7612">
    <comp name="--.HNN">
      <acc value="0.0319440674" flag="0"/>
      <vel value="0.0257312686" flag="0"/>
      <psa03 value="0.0792815882" flag="0"/>
      <psa10 value="0.0143552011" flag="0"/>
      <psa30 value="0.0010199277" flag="0"/>
    </comp>
    <comp name="--.HNZ">
      <acc value="0.0188828524" flag="0"/>
      <vel value="0.0117927797" flag="0"/>
      <psa03 value="0.0327033011" flag="0"/>
      <psa10 value="0.0099769893" flag="0"/>
      <psa30 value="0.0010165696" flag="0"/>
    </comp>
