<?xml version="1.0" encoding="UTF-8" standalone="yes"?>
<!DOCTYPE earthquake SYSTEM "stationlist.dtd">
<stationlist created="" xmlns="ch.ethz.sed.shakemap.usgs.xml">
  <station code="AOI" name="AOI" netid="IV" insttype="" lat="43.5502" lon="13.602">
    <comp name="--.HHE">
      <acc value="0.0849638323" flag="0"/>
      <vel value="0.0180087348" flag="0"/>
      <psa03 value="0.0799897188" flag="0"/>
      <psa10 value="0.0112557560" flag="0"/>
      <psa30 value="0.0011130984" flag="0"/>
    </comp>
    <comp name="--.HHZ">
      <acc value="0.0332128586" flag="0"/>
      <vel value="0.0099363649" flag="0"/>
      <psa03 value="0.0740732603" flag="0"/>
      <psa10 value="0.0088519181" flag="0"/>
      <psa30 value="0.0007509995" flag="0"/>
    </comp>
    <comp name="--.HHN">
      <acc value="0.0620406145" flag="0"/>
      <vel value="0.0141235749" flag="0"/>
      <psa03 value="0.0990997101" flag="0"/>
      <psa10 value="0.0101817618" flag="0"/>
      <psa30 value="0.0009617991" flag="0"/>
    </comp>
  </station>
  <station code="APEC" name="APEC" netid="IV" insttype="" lat="43.5585" lon="12.4199">
    <comp name="--.HHE">
      <acc value="0.0490077396" flag="0"/>
      <vel value="0.0228507611" flag="0"/>
      <psa03 value="0.1151022885" flag="0"/>
      <psa10 value="0.0152753754" flag="0"/>
      <psa30 value="0.0011083080" flag="0"/>
    </comp>
    <comp name="--.HHZ">
      <acc value="0.0293713190" flag="0"/>
      <vel value="0.0152736271" flag="0"/>
      <psa03 value="0.0896667879" flag="0"/>
      <psa10 value="0.0099128287" flag="0"/>
      <psa30 value="0.0007188060" flag="0"/>
    </comp>
    <comp name="--.HHN">
      <acc value="0.0448167405" flag="0"/>
      <vel value="0.0217535885" flag="0"/>
      <psa03 value="0.1029562549" flag="0"/>
      <psa10 value="0.0125354576" flag="0"/>
      <psa30 value="0.0008166966" flag="0"/>
    </comp>
  </station>
  <station code="ARVD" name="ARVD" netid="IV" insttype="" lat="43.4981" lon="12.9415">
    <comp name="--.HHN">
      <acc value="0.0308340720" flag="0"/>
      <vel value="0.0120755376" flag="0"/>
      <psa03 value="0.0478455503" flag="0"/>
      <psa10 value="0.0115292754" flag="0"/>
      <psa30 value="0.0035440019" flag="0"/>
    </comp>
    <comp name="--.HHE">
      <acc value="0.0260138116" flag="0"/>
      <vel value="0.0112817026" flag="0"/>
      <psa03 value="0.0531613989" flag="0"/>
      <psa10 value="0.0111320844" flag="0"/>
      <psa30 value="0.0016627567" flag="0"/>
    </comp>
    <comp name="--.HHZ">
      <acc value="0.0217358969" flag="0"/>
      <vel value="0.0106193944" flag="0"/>
      <psa03 value="0.0426324883" flag="0"/>
      <psa10 value="0.0099892264" flag="0"/>
      <psa30 value="0.0023532300" flag="0"/>
    </comp>
  </station>
  <station code="ASSB" name="ASSB" netid="IV" insttype="" lat="43.0426" lon="12.6587">
    <comp name="--.HHE">
      <acc value="0.0461182966" flag="0"/>
      <vel value="0.0268791229" flag="0"/>
      <psa03 value="0.1706629169" flag="0"/>
      <psa10 value="0.0107288127" flag="0"/>
      <psa30 value="0.0012241998" flag="0"/>
    </comp>
    <comp name="--.HHZ">
      <acc value="0.0220890884" flag="0"/>
      <vel value="0.0095674121" flag="0"/>
      <psa03 value="0.0579585989" flag="0"/>
      <psa10 value="0.0088593020" flag="0"/>
      <psa30 value="0.0007538288" flag="0"/>
    </comp>
    <comp name="--.HHN">
      <acc value="0.0451887516" flag="0"/>
      <vel value="0.0245526929" flag="0"/>
      <psa03 value="0.1737220795" flag="0"/>
      <psa10 value="0.0233269090" flag="0"/>
      <psa30 value="0.0011068138" flag="0"/>
    </comp>
  </station>
  <station code="ATBU" name="ATBU" netid="IV" insttype="" lat="43.4757" lon="12.5483">
    <comp name="--.HNE">
      <acc value="0.0690849556" flag="0"/>
      <vel value="0.0524963918" flag="0"/>
      <psa03 value="0.1744527210" flag="0"/>
      <psa10 value="0.0319875238" flag="0"/>
      <psa30 value="0.0021263558" flag="0"/>
    </comp>
    <comp name="--.HNN">
      <acc value="0.0610363262" flag="0"/>
      <vel value="0.0404471259" flag="0"/>
      <psa03 value="0.1812584604" flag="0"/>
      <psa10 value="0.0375362633" flag="0"/>
      <psa30 value="0.0020429050" flag="0"/>
    </comp>
    <comp name="--.HNZ">
      <acc value="0.0249582458" flag="0"/>
      <vel value="0.0175782270" flag="0"/>
      <psa03 value="0.0612202289" flag="0"/>
      <psa10 value="0.0188582140" flag="0"/>
      <psa30 value="0.0014222484" flag="0"/>
    </comp>
  </station>
  <station code="ATCC" name="ATCC" netid="IV" insttype="" lat="43.1851" lon="12.6399">
    <comp name="--.HNE">
      <acc value="0.0456203255" flag="0"/>
      <vel value="0.0263101526" flag="0"/>
      <psa03 value="0.1147378674" flag="0"/>
      <psa10 value="0.0363338352" flag="0"/>
      <psa30 value="0.0019685183" flag="0"/>
    </comp>
    <comp name="--.HNN">
      <acc value="0.0778016681" flag="0"/>
      <vel value="0.0382347178" flag="0"/>
      <psa03 value="0.1292321132" flag="0"/>
      <psa10 value="0.0233586481" flag="0"/>
      <psa30 value="0.0014305396" flag="0"/>
    </comp>
    <comp name="--.HNZ">
      <acc value="0.0261424354" flag="0"/>
      <vel value="0.0111058456" flag="0"/>
      <psa03 value="0.0530596100" flag="0"/>
      <psa10 value="0.0147073311" flag="0"/>
      <psa30 value="0.0015760537" flag="0"/>
    </comp>
  </station>
  <station code="ATFO" name="ATFO" netid="IV" insttype="" lat="43.3666" lon="12.5715">
    <comp name="--.HHE">
      <acc value="0.0334885289" flag="0"/>
      <vel value="0.0211452525" flag="0"/>
      <psa03 value="0.0852581694" flag="0"/>
      <psa10 value="0.0214806298" flag="0"/>
      <psa30 value="0.0016433892" flag="0"/>
    </comp>
    <comp name="--.HHN">
      <acc value="0.0314311210" flag="0"/>
      <vel value="0.0180760705" flag="0"/>
      <psa03 value="0.1022526754" flag="0"/>
      <psa10 value="0.0155222391" flag="0"/>
      <psa30 value="0.0011972380" flag="0"/>
    </comp>
    <comp name="--.HHZ">
      <acc value="0.0146429451" flag="0"/>
      <vel value="0.0103387786" flag="0"/>
      <psa03 value="0.0335147504" flag="0"/>
      <psa10 value="0.0146966085" flag="0"/>
      <psa30 value="0.0011991448" flag="0"/>
    </comp>
  </station>
  <station code="ATLO" name="ATLO" netid="IV" insttype="" lat="43.3152" lon="12.4073">
    <comp name="--.HNE">
      <acc value="0.0193153153" flag="0"/>
      <vel value="0.0117698857" flag="0"/>
      <psa03 value="0.0597908996" flag="0"/>
      <psa10 value="0.0075417249" flag="0"/>
      <psa30 value="0.0006545994" flag="0"/>
    </comp>
    <comp name="--.HNN">
      <acc value="0.0189191066" flag="0"/>
      <vel value="0.0120391200" flag="0"/>
      <psa03 value="0.0595644297" flag="0"/>
      <psa10 value="0.0091008344" flag="0"/>
      <psa30 value="0.0007002988" flag="0"/>
    </comp>
    <comp name="--.HNZ">
      <acc value="0.0026048702" flag="0"/>
      <vel value="0.0016967833" flag="0"/>
      <psa03 value="0.0066921539" flag="0"/>
      <psa10 value="0.0018297195" flag="0"/>
      <psa30 value="0.0001380507" flag="0"/>
    </comp>
  </station>
  <station code="ATMI" name="ATMI" netid="IV" insttype="" lat="43.3342" lon="12.268">
    <comp name="--.HHE">
      <acc value="0.0348571924" flag="0"/>
      <vel value="0.0167449603" flag="0"/>
      <psa03 value="0.0868947348" flag="0"/>
      <psa10 value="0.0178724221" flag="0"/>
      <psa30 value="0.0011277004" flag="0"/>
    </comp>
    <comp name="--.HHN">
      <acc value="0.0246345648" flag="0"/>
      <vel value="0.0173894931" flag="0"/>
      <psa03 value="0.1143204257" flag="0"/>
      <psa10 value="0.0182011358" flag="0"/>
      <psa30 value="0.0013882913" flag="0"/>
    </comp>
    <comp name="--.HHZ">
      <acc value="0.0136318018" flag="0"/>
      <vel value="0.0085057851" flag="0"/>
      <psa03 value="0.0327203070" flag="0"/>
      <psa10 value="0.0089734475" flag="0"/>
      <psa30 value="0.0005339745" flag="0"/>
    </comp>
  </station>
  <station code="ATPC" name="ATPC" netid="IV" insttype="" lat="43.4807" lon="12.457">
    <comp name="--.HHE">
      <acc value="0.0494638949" flag="0"/>
      <vel value="0.0288029612" flag="0"/>
      <psa03 value="0.1328301333" flag="0"/>
      <psa10 value="0.0384438771" flag="0"/>
      <psa30 value="0.0015584803" flag="0"/>
    </comp>
    <comp name="--.HHN">
      <acc value="0.0360163930" flag="0"/>
      <vel value="0.0172994516" flag="0"/>
      <psa03 value="0.1075924685" flag="0"/>
      <psa10 value="0.0168681806" flag="0"/>
      <psa30 value="0.0009773315" flag="0"/>
    </comp>
    <comp name="--.HHZ">
      <acc value="0.0171689651" flag="0"/>
      <vel value="0.0114487202" flag="0"/>
      <psa03 value="0.0390663880" flag="0"/>
      <psa10 value="0.0129456472" flag="0"/>
      <psa30 value="0.0009658416" flag="0"/>
    </comp>
  </station>
  <station code="ATPI" name="ATPI" netid="IV" insttype="" lat="43.4507" lon="12.4022">
    <comp name="--.HNE">
      <acc value="0.0203873311" flag="0"/>
      <vel value="0.0140141971" flag="0"/>
      <psa03 value="0.0726034060" flag="0"/>
      <psa10 value="0.0139787447" flag="0"/>
      <psa30 value="0.0008730403" flag="0"/>
    </comp>
    <comp name="--.HNN">
      <acc value="0.0283963062" flag="0"/>
      <vel value="0.0176969089" flag="0"/>
      <psa03 value="0.0822994610" flag="0"/>
      <psa10 value="0.0120922983" flag="0"/>
      <psa30 value="0.0007963415" flag="0"/>
    </comp>
    <comp name="--.HNZ">
      <acc value="0.0188228541" flag="0"/>
      <vel value="0.0092095039" flag="0"/>
      <psa03 value="0.0435765894" flag="0"/>
      <psa10 value="0.0125441411" flag="0"/>
      <psa30 value="0.0007553493" flag="0"/>
    </comp>
  </station>
  <station code="ATVO" name="ATVO" netid="IV" insttype="" lat="43.3821" lon="12.4066">
    <comp name="--.HHE">
      <acc value="0.0193301748" flag="0"/>
      <vel value="0.0104212295" flag="0"/>
      <psa03 value="0.0750370277" flag="0"/>
      <psa10 value="0.0121081918" flag="0"/>
      <psa30 value="0.0010204469" flag="0"/>
    </comp>
    <comp name="--.HHN">
      <acc value="0.0155942203" flag="0"/>
      <vel value="0.0112368475" flag="0"/>
      <psa03 value="0.0394365430" flag="0"/>
      <psa10 value="0.0118457452" flag="0"/>
      <psa30 value="0.0006016421" flag="0"/>
    </comp>
    <comp name="--.HHZ">
      <acc value="0.0094974168" flag="0"/>
      <vel value="0.0080307340" flag="0"/>
      <psa03 value="0.0291196425" flag="0"/>
      <psa10 value="0.0070791529" flag="0"/>
      <psa30 value="0.0007643537" flag="0"/>
    </comp>
  </station>
  <station code="CADA" name="CADA" netid="IV" insttype="" lat="43.1942" lon="13.7614">
    <comp name="--.HNE">
      <acc value="0.0554115483" flag="0"/>
      <vel value="0.0205812937" flag="0"/>
      <psa03 value="0.0914952151" flag="0"/>
      <psa10 value="0.0246152588" flag="0"/>
      <psa30 value="0.0014202921" flag="0"/>
    </comp>
    <comp name="--.HNN">
      <acc value="0.0491595960" flag="0"/>
      <vel value="0.0230797826" flag="0"/>
      <psa03 value="0.0673860962" flag="0"/>
      <psa10 value="0.0298379422" flag="0"/>
      <psa30 value="0.0031646836" flag="0"/>
    </comp>
    <comp name="--.HNZ">
      <acc value="0.0384478572" flag="0"/>
      <vel value="0.0580961150" flag="0"/>
      <psa03 value="0.0634491516" flag="0"/>
      <psa10 value="0.0301512657" flag="0"/>
      <psa30 value="0.0209979266" flag="0"/>
    </comp>
  </station>
  <station code="CESI" name="CESI" netid="IV" insttype="" lat="43.0049" lon="12.9046">
    <comp name="--.HHE">
      <acc value="0.0414773463" flag="0"/>
      <vel value="0.0231275550" flag="0"/>
      <psa03 value="0.1287070407" flag="0"/>
      <psa10 value="0.0137769733" flag="0"/>
      <psa30 value="0.0011103058" flag="0"/>
    </comp>
    <comp name="--.HHZ">
      <acc value="0.0188050313" flag="0"/>
      <vel value="0.0112697877" flag="0"/>
      <psa03 value="0.0610921898" flag="0"/>
      <psa10 value="0.0091731808" flag="0"/>
      <psa30 value="0.0010823581" flag="0"/>
    </comp>
    <comp name="--.HHN">
      <acc value="0.0424421117" flag="0"/>
      <vel value="0.0292469387" flag="0"/>
      <psa03 value="0.1698189655" flag="0"/>
      <psa10 value="0.0153164797" flag="0"/>
      <psa30 value="0.0009368825" flag="0"/>
    </comp>
  </station>
  <station code="CING" name="CING" netid="IV" insttype="" lat="43.3756" lon="13.1954">
    <comp name="--.HHE">
      <acc value="0.0245096932" flag="0"/>
      <vel value="0.0105093311" flag="0"/>
      <psa03 value="0.0580166224" flag="0"/>
      <psa10 value="0.0070264533" flag="0"/>
      <psa30 value="0.0019313679" flag="0"/>
    </comp>
    <comp name="--.HHN">
      <acc value="0.0287278577" flag="0"/>
      <vel value="0.0113504278" flag="0"/>
      <psa03 value="0.0410664053" flag="0"/>
      <psa10 value="0.0089278209" flag="0"/>
      <psa30 value="0.0016787587" flag="0"/>
    </comp>
    <comp name="--.HHZ">
      <acc value="0.0240386743" flag="0"/>
      <vel value="0.0103676598" flag="0"/>
      <psa03 value="0.0358887325" flag="0"/>
      <psa10 value="0.0084245323" flag="0"/>
      <psa30 value="0.0009612413" flag="0"/>
    </comp>
  </station>
  <station code="COR1" name="COR1" netid="IV" insttype="" lat="43.6318" lon="13.0003">
    <comp name="--.HNE">
      <acc value="0.2544989628" flag="0"/>
      <vel value="0.0834310723" flag="0"/>
      <psa03 value="0.3766010105" flag="0"/>
      <psa10 value="0.0922736919" flag="0"/>
      <psa30 value="0.0075710398" flag="0"/>
    </comp>
    <comp name="--.HNN">
      <acc value="0.2609075778" flag="0"/>
      <vel value="0.0755542676" flag="0"/>
      <psa03 value="0.3974014105" flag="0"/>
      <psa10 value="0.1128683794" flag="0"/>
      <psa30 value="0.0116044766" flag="0"/>
    </comp>
    <comp name="--.HNZ">
      <acc value="0.1272201630" flag="0"/>
      <vel value="0.0482187529" flag="0"/>
      <psa03 value="0.2002921932" flag="0"/>
      <psa10 value="0.0450389646" flag="0"/>
      <psa30 value="0.0101182967" flag="0"/>
    </comp>
  </station>
  <station code="CPGN" name="CPGN" netid="IV" insttype="" lat="43.8011" lon="12.3205">
    <comp name="--.HNE">
      <acc value="0.0177678136" flag="0"/>
      <vel value="0.0080502644" flag="0"/>
      <psa03 value="0.0413035360" flag="0"/>
      <psa10 value="0.0131228027" flag="0"/>
      <psa30 value="0.0013450502" flag="0"/>
    </comp>
    <comp name="--.HNN">
      <acc value="0.0158456011" flag="0"/>
      <vel value="0.0089923745" flag="0"/>
      <psa03 value="0.0490932372" flag="0"/>
      <psa10 value="0.0100196896" flag="0"/>
      <psa30 value="0.0011376788" flag="0"/>
    </comp>
    <comp name="--.HNZ">
      <acc value="0.0085983885" flag="0"/>
      <vel value="0.0045452309" flag="0"/>
      <psa03 value="0.0156963299" flag="0"/>
      <psa10 value="0.0082707775" flag="0"/>
      <psa30 value="0.0011858985" flag="0"/>
    </comp>
  </station>
  <station code="CRE" name="CRE" netid="IV" insttype="" lat="43.6189" lon="11.9517">
    <comp name="--.HHE">
      <acc value="0.0093620108" flag="0"/>
      <vel value="0.0091020886" flag="0"/>
      <psa03 value="0.0207550847" flag="0"/>
      <psa10 value="0.0081838603" flag="0"/>
      <psa30 value="0.0008908089" flag="0"/>
    </comp>
    <comp name="--.HHN">
      <acc value="0.0116428556" flag="0"/>
      <vel value="0.0073024834" flag="0"/>
      <psa03 value="0.0295823097" flag="0"/>
      <psa10 value="0.0083540465" flag="0"/>
      <psa30 value="0.0010257622" flag="0"/>
    </comp>
    <comp name="--.HHZ">
      <acc value="0.0084254215" flag="0"/>
      <vel value="0.0046283019" flag="0"/>
      <psa03 value="0.0150938137" flag="0"/>
      <psa10 value="0.0053579137" flag="0"/>
      <psa30 value="0.0004875638" flag="0"/>
    </comp>
  </station>
  <station code="CRTC" name="CRTC" netid="IV" insttype="" lat="43.7685" lon="12.883">
    <comp name="--.HHE">
      <acc value="0.1075232353" flag="0"/>
      <vel value="0.0530494203" flag="0"/>
      <psa03 value="0.3026026827" flag="0"/>
      <psa10 value="0.0580174740" flag="0"/>
      <psa30 value="0.0045946505" flag="0"/>
    </comp>
    <comp name="--.HHN">
      <acc value="0.1235260828" flag="0"/>
      <vel value="0.0491696220" flag="0"/>
      <psa03 value="0.4131585170" flag="0"/>
      <psa10 value="0.0823951357" flag="0"/>
      <psa30 value="0.0052694082" flag="0"/>
    </comp>
    <comp name="--.HHZ">
      <acc value="0.1257400599" flag="0"/>
      <vel value="0.0448661341" flag="0"/>
      <psa03 value="0.2281233531" flag="0"/>
      <psa10 value="0.0356666212" flag="0"/>
      <psa30 value="0.0036336743" flag="0"/>
    </comp>
  </station>
  <station code="FANO" name="FANO" netid="IV" insttype="" lat="43.8435" lon="13.0184">
    <comp name="--.HNE">
      <acc value="0.4137287804" flag="0"/>
      <vel value="0.1595131697" flag="0"/>
      <psa03 value="0.4460170115" flag="0"/>
      <psa10 value="0.2186105761" flag="0"/>
      <psa30 value="0.0150987566" flag="0"/>
    </comp>
    <comp name="--.HNN">
      <acc value="0.4427753290" flag="0"/>
      <vel value="0.1596785737" flag="0"/>
      <psa03 value="0.6402823441" flag="0"/>
      <psa10 value="0.1809640236" flag="0"/>
      <psa30 value="0.0108001059" flag="0"/>
    </comp>
    <comp name="--.HNZ">
      <acc value="0.2329948727" flag="0"/>
      <vel value="0.0595654795" flag="0"/>
      <psa03 value="0.4185426082" flag="0"/>
      <psa10 value="0.0522553350" flag="0"/>
      <psa30 value="0.0076462710" flag="0"/>
    </comp>
  </station>
  <station code="FDMO" name="FDMO" netid="IV" insttype="" lat="43.0365" lon="13.0873">
    <comp name="--.HHE">
      <acc value="0.0239046916" flag="0"/>
      <vel value="0.0111725584" flag="0"/>
      <psa03 value="0.0535461349" flag="0"/>
      <psa10 value="0.0092198393" flag="0"/>
      <psa30 value="0.0007222084" flag="0"/>
    </comp>
    <comp name="--.HHN">
      <acc value="0.0183101930" flag="0"/>
      <vel value="0.0070027500" flag="0"/>
      <psa03 value="0.0374854567" flag="0"/>
      <psa10 value="0.0060294826" flag="0"/>
      <psa30 value="0.0006348142" flag="0"/>
    </comp>
    <comp name="--.HHZ">
      <acc value="0.0143833555" flag="0"/>
      <vel value="0.0072234234" flag="0"/>
      <psa03 value="0.0342452469" flag="0"/>
      <psa10 value="0.0093363461" flag="0"/>
      <psa30 value="0.0010554507" flag="0"/>
    </comp>
  </station>
  <station code="FEMA" name="FEMA" netid="IV" insttype="" lat="42.9621" lon="13.0498">
    <comp name="--.HNE">
      <acc value="0.0499614840" flag="0"/>
      <vel value="0.0383886065" flag="0"/>
      <psa03 value="0.1273873103" flag="0"/>
      <psa10 value="0.0288440669" flag="0"/>
      <psa30 value="0.0017636917" flag="0"/>
    </comp>
    <comp name="--.HNN">
      <acc value="0.0488695509" flag="0"/>
      <vel value="0.0246538143" flag="0"/>
      <psa03 value="0.1181663062" flag="0"/>
      <psa10 value="0.0193998194" flag="0"/>
      <psa30 value="0.0015686047" flag="0"/>
    </comp>
    <comp name="--.HNZ">
      <acc value="0.0164717117" flag="0"/>
      <vel value="0.0112453772" flag="0"/>
      <psa03 value="0.0398305113" flag="0"/>
      <psa10 value="0.0236226290" flag="0"/>
      <psa30 value="0.0017275093" flag="0"/>
    </comp>
  </station>
  <station code="FOSV" name="FOSV" netid="IV" insttype="" lat="43.2948" lon="12.7612">
    <comp name="--.HNE">
      <acc value="0.0265362331" flag="0"/>
      <vel value="0.0142021236" flag="0"/>
      <psa03 value="0.0706225746" flag="0"/>
      <psa10 value="0.0213849271" flag="0"/>
      <psa30 value="0.0012328911" flag="0"/>
    </comp>
    <comp name="--.HNN">
      <acc value="0.0319440587" flag="0"/>
      <vel value="0.0257312686" flag="0"/>
      <psa03 value="0.0792815882" flag="0"/>
      <psa10 value="0.0143552009" flag="0"/>
      <psa30 value="0.0010199158" flag="0"/>
    </comp>
