<?xml version="1.0" encoding="UTF-8" standalone="yes"?>
<!DOCTYPE earthquake SYSTEM "stationlist.dtd">
<stationlist created="" xmlns="ch.ethz.sed.shakemap.usgs.xml">
  <station code="APE" name="APE" netid="GE" insttype="STS-2/N" lat="37.0727" lon="25.523">
    <comp name="--.HHE">
      <acc value="0.0272550306" flag="0"/>
      <vel value="0.0089101762" flag="0"/>
      <psa03 value="0.0386071581" flag="0"/>
      <psa10 value="0.0055533062" flag="0"/>
      <psa30 value="0.0005994223" flag="0"/>
    </comp>
    <comp name="--.HHN">
      <acc value="0.0231127719" flag="0"/>
      <vel value="0.0099790007" flag="0"/>
      <psa03 value="0.0473108872" flag="0"/>
      <psa10 value="0.0052302994" flag="0"/>
      <psa30 value="0.0006610576" flag="0"/>
    </comp>
    <comp name="--.HHZ">
      <acc value="0.0133995819" flag="0"/>
      <vel value="0.0090536437" flag="0"/>
      <psa03 value="0.0285486615" flag="0"/>
      <psa10 value="0.0109031679" flag="0"/>
      <psa30 value="0.0009470392" flag="0"/>
    </comp>
  </station>
  <station code="AYDB" name="AYDB" netid="KO" insttype="CMG-3ESPC" lat="37.9467" lon="27.8908">
    <comp name="--.HHZ">
      <acc value="0.0475807578" flag="0"/>
      <vel value="0.0278273465" flag="0"/>
      <psa03 value="0.1204999182" flag="0"/>
      <psa10 value="0.0199281383" flag="0"/>
      <psa30 value="0.0019257995" flag="0"/>
    </comp>
    <comp name="--.HHN">
      <acc value="0.0645400826" flag="0"/>
      <vel value="0.0477563948" flag="0"/>
      <psa03 value="0.1307446065" flag="0"/>
      <psa10 value="0.0546233234" flag="0"/>
      <psa30 value="0.0029495825" flag="0"/>
    </comp>
  </station>
  <station code="BLCB" name="BLCB" netid="KO" insttype="CMG-3T" lat="38.3853" lon="27.042">
    <comp name="--.HHN">
      <acc value="0.0002160415" flag="0"/>
      <vel value="0.0000770116" flag="0"/>
      <psa03 value="0.0002908383" flag="0"/>
      <psa10 value="0.0000309449" flag="0"/>
      <psa30 value="0.0000038253" flag="0"/>
    </comp>
    <comp name="--.HHZ">
      <acc value="0.1477721976" flag="0"/>
      <vel value="0.0611598673" flag="0"/>
      <psa03 value="0.3664912601" flag="0"/>
      <psa10 value="0.0204151643" flag="0"/>
      <psa30 value="0.0041821212" flag="0"/>
    </comp>
    <comp name="--.HHE">
      <acc value="0.4109044396" flag="0"/>
      <vel value="0.1673350692" flag="0"/>
      <psa03 value="0.9397876938" flag="0"/>
      <psa10 value="0.0439261734" flag="0"/>
      <psa30 value="0.0040237180" flag="0"/>
    </comp>
  </station>
  <station code="BODA" name="BODA" netid="KO" insttype="ACEBOX" lat="37.0348" lon="27.4304">
    <comp name="--.HNE">
      <acc value="0.0754556969" flag="0"/>
      <vel value="0.0345264509" flag="0"/>
      <psa03 value="0.3506368106" flag="0"/>
      <psa10 value="0.0310985448" flag="0"/>
      <psa30 value="0.0016976970" flag="0"/>
    </comp>
    <comp name="--.HNN">
      <acc value="0.0666224917" flag="0"/>
      <vel value="0.0298655465" flag="0"/>
      <psa03 value="0.3028032523" flag="0"/>
      <psa10 value="0.0313507895" flag="0"/>
      <psa30 value="0.0015394560" flag="0"/>
    </comp>
    <comp name="--.HNZ">
      <acc value="0.0096223936" flag="0"/>
      <vel value="0.0045280940" flag="0"/>
      <psa03 value="0.0201705538" flag="0"/>
      <psa10 value="0.0033787041" flag="0"/>
      <psa30 value="0.0003455939" flag="0"/>
    </comp>
  </station>
  <station code="BODT" name="BODT" netid="KO" insttype="CMG-3ESP" lat="37.0622" lon="27.3103">
    <comp name="--.HHN">
      <acc value="0.0880649710" flag="0"/>
      <vel value="0.0408288378" flag="0"/>
      <psa03 value="0.1488729974" flag="0"/>
      <psa10 value="0.0285566647" flag="0"/>
      <psa30 value="0.0016256816" flag="0"/>
    </comp>
    <comp name="--.HHE">
      <acc value="0.1188019542" flag="0"/>
      <vel value="0.0561084888" flag="0"/>
      <psa03 value="0.4237761594" flag="0"/>
      <psa10 value="0.0348390031" flag="0"/>
      <psa30 value="0.0025131462" flag="0"/>
    </comp>
    <comp name="--.HHZ">
      <acc value="0.0525514791" flag="0"/>
      <vel value="0.0309198968" flag="0"/>
      <psa03 value="0.1575185189" flag="0"/>
      <psa10 value="0.0220439306" flag="0"/>
      <psa30 value="0.0015449404" flag="0"/>
    </comp>
  </station>
  <station code="DAT" name="DAT" netid="KO" insttype="CMG-3T" lat="36.7308" lon="27.5767">
    <comp name="--.HHZ">
      <acc value="0.0000312029" flag="0"/>
      <vel value="0.0000033354" flag="0"/>
      <psa03 value="0.0000120698" flag="0"/>
      <psa10 value="0.0000038382" flag="0"/>
      <psa30 value="0.0000009058" flag="0"/>
    </comp>
    <comp name="--.HHE">
      <acc value="0.0130760407" flag="0"/>
      <vel value="0.0072497929" flag="0"/>
      <psa03 value="0.0440649880" flag="0"/>
      <psa10 value="0.0069041966" flag="0"/>
      <psa30 value="0.0017504057" flag="0"/>
    </comp>
    <comp name="--.HHN">
      <acc value="0.0128878589" flag="0"/>
      <vel value="0.0067478643" flag="0"/>
      <psa03 value="0.0407442221" flag="0"/>
      <psa10 value="0.0055672925" flag="0"/>
      <psa30 value="0.0011283115" flag="0"/>
    </comp>
  </station>
  <station code="DKL" name="DKL" netid="KO" insttype="CMG-3ESPC" lat="39.0713" lon="26.9053">
    <comp name="--.HHE">
      <acc value="0.0199380000" flag="0"/>
      <vel value="0.0086434623" flag="0"/>
      <psa03 value="0.0418421479" flag="0"/>
      <psa10 value="0.0166948698" flag="0"/>
      <psa30 value="0.0010224148" flag="0"/>
    </comp>
    <comp name="--.HHN">
      <acc value="0.0184263501" flag="0"/>
      <vel value="0.0113681663" flag="0"/>
      <psa03 value="0.0441146715" flag="0"/>
      <psa10 value="0.0118245331" flag="0"/>
      <psa30 value="0.0045640496" flag="0"/>
    </comp>
    <comp name="--.HHZ">
      <acc value="0.0131248214" flag="0"/>
      <vel value="0.0064289368" flag="0"/>
      <psa03 value="0.0253290898" flag="0"/>
      <psa10 value="0.0068913520" flag="0"/>
      <psa30 value="0.0015919616" flag="0"/>
    </comp>
  </station>
  <station code="GMLD" name="GMLD" netid="KO" insttype="CMG-5T" lat="38.0766" lon="26.9157">
    <comp name="--.HNE">
      <acc value="0.5070391546" flag="0"/>
      <vel value="0.1893686513" flag="0"/>
      <psa03 value="0.9693741111" flag="0"/>
      <psa10 value="0.0997242946" flag="0"/>
      <psa30 value="0.0121159394" flag="0"/>
    </comp>
    <comp name="--.HNN">
      <acc value="0.4634944357" flag="0"/>
      <vel value="0.1396576791" flag="0"/>
      <psa03 value="0.5927097934" flag="0"/>
      <psa10 value="0.1219466264" flag="0"/>
      <psa30 value="0.0150010647" flag="0"/>
    </comp>
    <comp name="--.HNZ">
      <acc value="0.2558932164" flag="0"/>
      <vel value="0.0755692381" flag="0"/>
      <psa03 value="0.4702778789" flag="0"/>
      <psa10 value="0.0519617804" flag="0"/>
      <psa30 value="0.0087364329" flag="0"/>
    </comp>
  </station>
  <station code="KRBN" name="KRBN" netid="KO" insttype="CMG-5T" lat="38.5936" lon="26.5537">
    <comp name="--.HNZ">
      <acc value="0.0537198082" flag="0"/>
      <vel value="0.0333360254" flag="0"/>
      <psa03 value="0.1284317900" flag="0"/>
      <psa10 value="0.0384338132" flag="0"/>
      <psa30 value="0.0021932100" flag="0"/>
    </comp>
    <comp name="--.HNN">
      <acc value="0.1073909455" flag="0"/>
      <vel value="0.0631903982" flag="0"/>
      <psa03 value="0.2367418158" flag="0"/>
      <psa10 value="0.0522117599" flag="0"/>
      <psa30 value="0.0053060324" flag="0"/>
    </comp>
    <comp name="--.HNE">
      <acc value="0.1145222695" flag="0"/>
      <vel value="0.0441278125" flag="0"/>
      <psa03 value="0.3223672477" flag="0"/>
      <psa10 value="0.0451885475" flag="0"/>
      <psa30 value="0.0053057280" flag="0"/>
    </comp>
  </station>
  <station code="KUSD" name="KUSD" netid="KO" insttype="CMG-5T" lat="37.8606" lon="27.2868">
    <comp name="--.HNE">
      <acc value="0.0955403654" flag="0"/>
      <vel value="0.0446301279" flag="0"/>
      <psa03 value="0.2517101898" flag="0"/>
      <psa10 value="0.0468475886" flag="0"/>
      <psa30 value="0.0040590277" flag="0"/>
    </comp>
    <comp name="--.HNZ">
      <acc value="0.0508955017" flag="0"/>
      <vel value="0.0185447353" flag="0"/>
      <psa03 value="0.1387254523" flag="0"/>
      <psa10 value="0.0146893260" flag="0"/>
      <psa30 value="0.0027623703" flag="0"/>
    </comp>
    <comp name="--.HNN">
      <acc value="0.0752796665" flag="0"/>
      <vel value="0.0340256871" flag="0"/>
      <psa03 value="0.1936335127" flag="0"/>
      <psa10 value="0.0490957022" flag="0"/>
      <psa30 value="0.0028433643" flag="0"/>
    </comp>
  </station>
  <station code="MLSB" name="MLSB" netid="KO" insttype="CMG-3ESP" lat="37.2953" lon="27.7767">
    <comp name="--.HHE">
      <acc value="0.0173181492" flag="0"/>
      <vel value="0.0074034193" flag="0"/>
      <psa03 value="0.0443072879" flag="0"/>
      <psa10 value="0.0115517547" flag="0"/>
      <psa30 value="0.0015109093" flag="0"/>
    </comp>
    <comp name="--.HHN">
      <acc value="0.0276298651" flag="0"/>
      <vel value="0.0140680789" flag="0"/>
      <psa03 value="0.0604837689" flag="0"/>
      <psa10 value="0.0172776598" flag="0"/>
      <psa30 value="0.0021233546" flag="0"/>
    </comp>
    <comp name="--.HHZ">
      <acc value="0.0163049981" flag="0"/>
      <vel value="0.0081057977" flag="0"/>
      <psa03 value="0.0350278522" flag="0"/>
      <psa10 value="0.0087488207" flag="0"/>
      <psa30 value="0.0008169584" flag="0"/>
    </comp>
  </station>
  <station code="NAZL" name="NAZL" netid="KO" insttype="CMG-5T" lat="37.9641" lon="28.2922">
    <comp name="--.HNN">
      <acc value="0.0466377678" flag="0"/>
      <vel value="0.0279475087" flag="0"/>
      <psa03 value="0.1744457559" flag="0"/>
      <psa10 value="0.0244840447" flag="0"/>
      <psa30 value="0.0020273535" flag="0"/>
    </comp>
    <comp name="--.HNZ">
      <acc value="0.0186437952" flag="0"/>
      <vel value="0.0136167892" flag="0"/>
      <psa03 value="0.0534043473" flag="0"/>
      <psa10 value="0.0089979382" flag="0"/>
      <psa30 value="0.0009228277" flag="0"/>
    </comp>
    <comp name="--.HNE">
      <acc value="0.0762082171" flag="0"/>
      <vel value="0.0482411513" flag="0"/>
      <psa03 value="0.4120203252" flag="0"/>
      <psa10 value="0.0287889024" flag="0"/>
      <psa30 value="0.0024111856" flag="0"/>
    </comp>
  </station>
  <station code="ODEM" name="ODEM" netid="KO" insttype="CMG-5T" lat="38.2762" lon="28.0747">
    <comp name="--.HNN">
      <acc value="0.0232092301" flag="0"/>
      <vel value="0.0144227822" flag="0"/>
      <psa03 value="0.0453431856" flag="0"/>
      <psa10 value="0.0118439107" flag="0"/>
      <psa30 value="0.0011805352" flag="0"/>
    </comp>
    <comp name="--.HNE">
      <acc value="0.0240721007" flag="0"/>
      <vel value="0.0206316958" flag="0"/>
      <psa03 value="0.0421400823" flag="0"/>
      <psa10 value="0.0178974538" flag="0"/>
      <psa30 value="0.0015565059" flag="0"/>
    </comp>
    <comp name="--.HNZ">
      <acc value="0.0173416428" flag="0"/>
      <vel value="0.0151141271" flag="0"/>
      <psa03 value="0.0353424847" flag="0"/>
      <psa10 value="0.0134477086" flag="0"/>
      <psa30 value="0.0009251341" flag="0"/>
    </comp>
  </station>
  <station code="YKAV" name="YKAV" netid="KO" insttype="CMG-5T" lat="37.1246" lon="27.2801">
    <comp name="--.HNN">
      <acc value="0.0698128075" flag="0"/>
      <vel value="0.0425700796" flag="0"/>
      <psa03 value="0.2463833272" flag="0"/>
      <psa10 value="0.0400982162" flag="0"/>
      <psa30 value="0.0015990315" flag="0"/>
    </comp>
    <comp name="--.HNZ">
      <acc value="0.0410116711" flag="0"/>
      <vel value="0.0209438228" flag="0"/>
      <psa03 value="0.1213364606" flag="0"/>
      <psa10 value="0.0251399304" flag="0"/>
      <psa30 value="0.0014865316" flag="0"/>
    </comp>
    <comp name="--.HNE">
      <acc value="0.0821319700" flag="0"/>
      <vel value="0.0585398629" flag="0"/>
      <psa03 value="0.2690513557" flag="0"/>
      <psa10 value="0.0445296636" flag="0"/>
      <psa30 value="0.0031775553" flag="0"/>
    </comp>
  </station>
  <station code="AYDN" name="AYDN" netid="TU" insttype="T" lat="37.6608" lon="27.8792">
    <comp name="--.HHE">
      <acc value="0.1753398183" flag="0"/>
      <vel value="0.0596586834" flag="0"/>
      <psa03 value="0.2878780567" flag="0"/>
      <psa10 value="0.0438274624" flag="0"/>
      <psa30 value="0.0023213437" flag="0"/>
    </comp>
    <comp name="--.HHN">
      <acc value="0.0897861793" flag="0"/>
      <vel value="0.0453869995" flag="0"/>
      <psa03 value="0.2260365311" flag="0"/>
      <psa10 value="0.0407812774" flag="0"/>
      <psa30 value="0.0039818177" flag="0"/>
    </comp>
    <comp name="--.HHZ">
      <acc value="0.0362408268" flag="0"/>
      <vel value="0.0245162217" flag="0"/>
      <psa03 value="0.0976930086" flag="0"/>
      <psa10 value="0.0212871299" flag="0"/>
      <psa30 value="0.0031509969" flag="0"/>
    </comp>
  </station>
</stationlist>
