<?xml version="1.0" encoding="UTF-8" standalone="yes"?>
<!DOCTYPE earthquake SYSTEM "stationlist.dtd">
<stationlist created="" xmlns="ch.ethz.sed.shakemap.usgs.xml">
  <station code="KOSP" name="KOSP" netid="HC" insttype="60" lat="36.881" lon="27.281">
    <comp name="--.HHE">
      <acc value="0.0460832030" flag="0"/>
      <vel value="0.0330727345" flag="0"/>
      <psa03 value="0.1567772400" flag="0"/>
      <psa10 value="0.0346656890" flag="0"/>
      <psa30 value="0.0069235008" flag="0"/>
    </comp>
    <comp name="--.HHZ">
      <acc value="0.0307012539" flag="0"/>
      <vel value="0.0203048316" flag="0"/>
      <psa03 value="0.0596717546" flag="0"/>
      <psa10 value="0.0365954297" flag="0"/>
      <psa30 value="0.0025800756" flag="0"/>
    </comp>
    <comp name="--.HHN">
      <acc value="0.0697409803" flag="0"/>
      <vel value="0.0741760445" flag="0"/>
      <psa03 value="0.1721057594" flag="0"/>
      <psa10 value="0.0756459259" flag="0"/>
      <psa30 value="0.0056197365" flag="0"/>
    </comp>
  </station>
  <station code="KRL1" name="KRL1" netid="HI" insttype="CMG-5TD,ACCELEROMETER,GURALP" lat="37.7951" lon="26.7065">
    <comp name="--.HNN">
      <acc value="2.9328567471" flag="0"/>
      <vel value="1.0928918865" flag="0"/>
      <psa03 value="4.4209173303" flag="0"/>
      <psa10 value="0.4080809182" flag="0"/>
      <psa30 value="0.0359582005" flag="0"/>
    </comp>
    <comp name="--.HNE">
      <acc value="4.3121168210" flag="0"/>
      <vel value="1.7750518898" flag="0"/>
      <psa03 value="8.6714437890" flag="0"/>
      <psa10 value="0.6737027412" flag="0"/>
      <psa30 value="0.0719602253" flag="0"/>
    </comp>
    <comp name="--.HNZ">
      <acc value="1.1813680656" flag="0"/>
      <vel value="0.3270174506" flag="0"/>
      <psa03 value="1.6956542649" flag="0"/>
      <psa10 value="0.2240385823" flag="0"/>
      <psa30 value="0.0251531880" flag="0"/>
    </comp>
  </station>
  <station code="KLNA" name="KLNA" netid="HL" insttype="CMG-5" lat="36.9571" lon="26.9727">
    <comp name="00.HNZ">
      <acc value="0.1004434876" flag="0"/>
      <vel value="0.0287986262" flag="0"/>
      <psa03 value="0.1515871991" flag="0"/>
      <psa10 value="0.0127664468" flag="0"/>
      <psa30 value="0.0015822513" flag="0"/>
    </comp>
    <comp name="00.HNE">
      <acc value="0.2125190636" flag="0"/>
      <vel value="0.0766263555" flag="0"/>
      <psa03 value="0.5225440735" flag="0"/>
      <psa10 value="0.0196017367" flag="0"/>
      <psa30 value="0.0026677690" flag="0"/>
    </comp>
    <comp name="00.HNN">
      <acc value="0.1319355207" flag="0"/>
      <vel value="0.0570871322" flag="0"/>
      <psa03 value="0.5051691601" flag="0"/>
      <psa10 value="0.0191779568" flag="0"/>
      <psa30 value="0.0022264989" flag="0"/>
    </comp>
  </station>
  <station code="SMG" name="SMG" netid="HL" insttype="120" lat="37.7043" lon="26.8377">
    <comp name="--.HHN">
      <acc value="0.8013363090" flag="0"/>
      <vel value="0.4202454982" flag="0"/>
      <psa03 value="2.2061606369" flag="0"/>
      <psa10 value="0.2224624504" flag="0"/>
      <psa30 value="0.0191818978" flag="0"/>
    </comp>
    <comp name="--.HHE">
      <acc value="1.3299488986" flag="0"/>
      <vel value="0.4435542424" flag="0"/>
      <psa03 value="2.2789031395" flag="0"/>
      <psa10 value="0.1652287143" flag="0"/>
      <psa30 value="0.0190920677" flag="0"/>
    </comp>
    <comp name="--.HHZ">
      <acc value="0.4086900938" flag="0"/>
      <vel value="0.1961475948" flag="0"/>
      <psa03 value="0.9031579883" flag="0"/>
      <psa10 value="0.1173757939" flag="0"/>
      <psa30 value="0.0156806019" flag="0"/>
    </comp>
  </station>
  <station code="CHOS" name="CHOS" netid="HT" insttype="100" lat="38.3869" lon="26.0506">
    <comp name="--.HHE">
      <acc value="0.0557763459" flag="0"/>
      <vel value="0.0208062760" flag="0"/>
      <psa03 value="0.0873621421" flag="0"/>
      <psa10 value="0.0349963818" flag="0"/>
      <psa30 value="0.0016439665" flag="0"/>
    </comp>
    <comp name="--.HHZ">
      <acc value="0.0187615660" flag="0"/>
      <vel value="0.0142177533" flag="0"/>
      <psa03 value="0.0401838928" flag="0"/>
      <psa10 value="0.0128955693" flag="0"/>
      <psa30 value="0.0008072247" flag="0"/>
    </comp>
    <comp name="--.HHN">
      <acc value="0.0328213364" flag="0"/>
      <vel value="0.0245860032" flag="0"/>
      <psa03 value="0.0750127074" flag="0"/>
      <psa10 value="0.0353980832" flag="0"/>
      <psa30 value="0.0018387871" flag="0"/>
    </comp>
  </station>
  <station code="AYDB" name="AYDB" netid="KO" insttype="CMG-3ESPC" lat="37.9467" lon="27.8908">
    <comp name="--.HHZ">
      <acc value="0.0475807579" flag="0"/>
      <vel value="0.0278273461" flag="0"/>
      <psa03 value="0.1204999182" flag="0"/>
      <psa10 value="0.0199281383" flag="0"/>
      <psa30 value="0.0019257782" flag="0"/>
    </comp>
    <comp name="--.HHN">
      <acc value="0.0645400827" flag="0"/>
      <vel value="0.0477563948" flag="0"/>
      <psa03 value="0.1307446065" flag="0"/>
      <psa10 value="0.0546233234" flag="0"/>
      <psa30 value="0.0029495821" flag="0"/>
    </comp>
  </station>
  <station code="BLCB" name="BLCB" netid="KO" insttype="CMG-3T" lat="38.3853" lon="27.042">
    <comp name="--.HHN">
      <acc value="0.0002160411" flag="0"/>
      <vel value="0.0000770116" flag="0"/>
      <psa03 value="0.0002908383" flag="0"/>
      <psa10 value="0.0000309449" flag="0"/>
      <psa30 value="0.0000038252" flag="0"/>
    </comp>
    <comp name="--.HHE">
      <acc value="0.4109044397" flag="0"/>
      <vel value="0.1673350693" flag="0"/>
      <psa03 value="0.9397876938" flag="0"/>
      <psa10 value="0.0439261733" flag="0"/>
      <psa30 value="0.0040237228" flag="0"/>
    </comp>
    <comp name="--.HHZ">
      <acc value="0.1477721979" flag="0"/>
      <vel value="0.0611598674" flag="0"/>
      <psa03 value="0.3664912601" flag="0"/>
      <psa10 value="0.0204151665" flag="0"/>
      <psa30 value="0.0041821200" flag="0"/>
    </comp>
  </station>
  <station code="BODA" name="BODA" netid="KO" insttype="ACEBOX" lat="37.0348" lon="27.4304">
    <comp name="--.HNN">
      <acc value="0.0666224986" flag="0"/>
      <vel value="0.0298655467" flag="0"/>
      <psa03 value="0.3028032523" flag="0"/>
      <psa10 value="0.0313507895" flag="0"/>
      <psa30 value="0.0015394562" flag="0"/>
    </comp>
    <comp name="--.HNZ">
      <acc value="0.0096223949" flag="0"/>
      <vel value="0.0045280937" flag="0"/>
      <psa03 value="0.0146381288" flag="0"/>
      <psa10 value="0.0033787053" flag="0"/>
      <psa30 value="0.0003454241" flag="0"/>
    </comp>
    <comp name="--.HNE">
      <acc value="0.0754557022" flag="0"/>
      <vel value="0.0345264510" flag="0"/>
      <psa03 value="0.3506368106" flag="0"/>
      <psa10 value="0.0310985449" flag="0"/>
      <psa30 value="0.0016977317" flag="0"/>
    </comp>
  </station>
  <station code="BODT" name="BODT" netid="KO" insttype="CMG-3ESP" lat="37.0622" lon="27.3103">
    <comp name="--.HHE">
      <acc value="0.1188019546" flag="0"/>
      <vel value="0.0561084894" flag="0"/>
      <psa03 value="0.4237761594" flag="0"/>
      <psa10 value="0.0348390031" flag="0"/>
      <psa30 value="0.0025131420" flag="0"/>
    </comp>
    <comp name="--.HHN">
      <acc value="0.0880649707" flag="0"/>
      <vel value="0.0408288380" flag="0"/>
      <psa03 value="0.1488729974" flag="0"/>
      <psa10 value="0.0285566647" flag="0"/>
      <psa30 value="0.0016256814" flag="0"/>
    </comp>
    <comp name="--.HHZ">
      <acc value="0.0525514787" flag="0"/>
      <vel value="0.0309198985" flag="0"/>
      <psa03 value="0.1575185189" flag="0"/>
      <psa10 value="0.0220439306" flag="0"/>
      <psa30 value="0.0015449368" flag="0"/>
    </comp>
  </station>
  <station code="GMLD" name="GMLD" netid="KO" insttype="CMG-5T" lat="38.0766" lon="26.9157">
    <comp name="--.HNE">
      <acc value="0.5070391628" flag="0"/>
      <vel value="0.1893686517" flag="0"/>
      <psa03 value="0.9693741111" flag="0"/>
      <psa10 value="0.0997242972" flag="0"/>
      <psa30 value="0.0121185464" flag="0"/>
    </comp>
    <comp name="--.HNN">
      <acc value="0.4634944785" flag="0"/>
      <vel value="0.1396576792" flag="0"/>
      <psa03 value="0.5927097934" flag="0"/>
      <psa10 value="0.1219466075" flag="0"/>
      <psa30 value="0.0150011825" flag="0"/>
    </comp>
    <comp name="--.HNZ">
      <acc value="0.2558932005" flag="0"/>
      <vel value="0.0755692452" flag="0"/>
      <psa03 value="0.4702778789" flag="0"/>
      <psa10 value="0.0519616707" flag="0"/>
      <psa30 value="0.0087365039" flag="0"/>
    </comp>
  </station>
  <station code="KRBN" name="KRBN" netid="KO" insttype="CMG-5T" lat="38.5936" lon="26.5537">
    <comp name="--.HNZ">
      <acc value="0.0537192915" flag="0"/>
      <vel value="0.0333360280" flag="0"/>
      <psa03 value="0.1284317900" flag="0"/>
      <psa10 value="0.0384338132" flag="0"/>
      <psa30 value="0.0021932100" flag="0"/>
    </comp>
    <comp name="--.HNE">
      <acc value="0.1145223729" flag="0"/>
      <vel value="0.0441278185" flag="0"/>
      <psa03 value="0.3223672477" flag="0"/>
      <psa10 value="0.0451885475" flag="0"/>
      <psa30 value="0.0053057280" flag="0"/>
    </comp>
    <comp name="--.HNN">
      <acc value="0.1073907054" flag="0"/>
      <vel value="0.0631903947" flag="0"/>
      <psa03 value="0.2367418158" flag="0"/>
      <psa10 value="0.0522117600" flag="0"/>
      <psa30 value="0.0053060324" flag="0"/>
    </comp>
  </station>
  <station code="KUSD" name="KUSD" netid="KO" insttype="CMG-5T" lat="37.8606" lon="27.2868">
    <comp name="--.HNE">
      <acc value="0.0955404228" flag="0"/>
      <vel value="0.0446301271" flag="0"/>
      <psa03 value="0.2517101898" flag="0"/>
      <psa10 value="0.0468475884" flag="0"/>
      <psa30 value="0.0040598577" flag="0"/>
    </comp>
    <comp name="--.HNZ">
      <acc value="0.0508955106" flag="0"/>
      <vel value="0.0185447343" flag="0"/>
      <psa03 value="0.1387254523" flag="0"/>
      <psa10 value="0.0146893266" flag="0"/>
      <psa30 value="0.0022052456" flag="0"/>
    </comp>
    <comp name="--.HNN">
      <acc value="0.0752796467" flag="0"/>
      <vel value="0.0340256839" flag="0"/>
      <psa03 value="0.1936335127" flag="0"/>
      <psa10 value="0.0490957014" flag="0"/>
      <psa30 value="0.0028433449" flag="0"/>
    </comp>
  </station>
  <station code="MLSB" name="MLSB" netid="KO" insttype="CMG-3ESP" lat="37.2953" lon="27.7767">
    <comp name="--.HHE">
      <acc value="0.0173181492" flag="0"/>
      <vel value="0.0074034157" flag="0"/>
      <psa03 value="0.0443072879" flag="0"/>
      <psa10 value="0.0115517547" flag="0"/>
      <psa30 value="0.0015109077" flag="0"/>
    </comp>
    <comp name="--.HHN">
      <acc value="0.0276298651" flag="0"/>
      <vel value="0.0140680784" flag="0"/>
      <psa03 value="0.0604837689" flag="0"/>
      <psa10 value="0.0172776598" flag="0"/>
      <psa30 value="0.0021233552" flag="0"/>
    </comp>
    <comp name="--.HHZ">
      <acc value="0.0163049980" flag="0"/>
      <vel value="0.0081057959" flag="0"/>
      <psa03 value="0.0350278522" flag="0"/>
      <psa10 value="0.0087488207" flag="0"/>
      <psa30 value="0.0008169570" flag="0"/>
    </comp>
  </station>
  <station code="ODEM" name="ODEM" netid="KO" insttype="CMG-5T" lat="38.2762" lon="28.0747">
    <comp name="--.HNE">
      <acc value="0.0240721089" flag="0"/>
      <vel value="0.0206316944" flag="0"/>
      <psa03 value="0.0421400823" flag="0"/>
      <psa10 value="0.0178974539" flag="0"/>
      <psa30 value="0.0015565195" flag="0"/>
    </comp>
    <comp name="--.HNN">
      <acc value="0.0232092298" flag="0"/>
      <vel value="0.0144227871" flag="0"/>
      <psa03 value="0.0453431856" flag="0"/>
      <psa10 value="0.0118439107" flag="0"/>
      <psa30 value="0.0011804939" flag="0"/>
    </comp>
    <comp name="--.HNZ">
      <acc value="0.0173416392" flag="0"/>
      <vel value="0.0151141250" flag="0"/>
      <psa03 value="0.0353424848" flag="0"/>
      <psa10 value="0.0134477084" flag="0"/>
      <psa30 value="0.0009250874" flag="0"/>
    </comp>
  </station>
  <station code="YKAV" name="YKAV" netid="KO" insttype="CMG-5T" lat="37.1246" lon="27.2801">
    <comp name="--.HNE">
      <acc value="0.0821336865" flag="0"/>
      <vel value="0.0585398627" flag="0"/>
      <psa03 value="0.2690513557" flag="0"/>
      <psa10 value="0.0445296636" flag="0"/>
      <psa30 value="0.0031775023" flag="0"/>
    </comp>
    <comp name="--.HNN">
      <acc value="0.0698137358" flag="0"/>
      <vel value="0.0425700781" flag="0"/>
      <psa03 value="0.2463833272" flag="0"/>
      <psa10 value="0.0400982162" flag="0"/>
      <psa30 value="0.0015991903" flag="0"/>
    </comp>
    <comp name="--.HNZ">
      <acc value="0.0410112102" flag="0"/>
      <vel value="0.0209438236" flag="0"/>
      <psa03 value="0.1213364606" flag="0"/>
      <psa10 value="0.0251399305" flag="0"/>
      <psa30 value="0.0014865376" flag="0"/>
    </comp>
  </station>
  <station code="AYDN" name="AYDN" netid="TU" insttype="T" lat="37.6608" lon="27.8792">
    <comp name="--.HHN">
      <acc value="0.0897861778" flag="0"/>
      <vel value="0.0453869991" flag="0"/>
      <psa03 value="0.2260365311" flag="0"/>
      <psa10 value="0.0407812773" flag="0"/>
      <psa30 value="0.0039817391" flag="0"/>
    </comp>
    <comp name="--.HHE">
      <acc value="0.1753398179" flag="0"/>
      <vel value="0.0596586827" flag="0"/>
      <psa03 value="0.2878780567" flag="0"/>
      <psa10 value="0.0438274624" flag="0"/>
      <psa30 value="0.0023213257" flag="0"/>
    </comp>
    <comp name="--.HHZ">
      <acc value="0.0362408267" flag="0"/>
      <vel value="0.0245162218" flag="0"/>
      <psa03 value="0.0976930086" flag="0"/>
      <psa10 value="0.0212871298" flag="0"/>
      <psa30 value="0.0031510183" flag="0"/>
    </comp>
  </station>
</stationlist>
