<?xml version="1.0" encoding="UTF-8" standalone="yes"?>
<!DOCTYPE earthquake SYSTEM "stationlist.dtd">
<stationlist created="" xmlns="ch.ethz.sed.shakemap.usgs.xml">
  <station code="KOSP" name="KOSP" netid="HC" insttype="60" lat="36.881" lon="27.281">
    <comp name="--.HHE">
      <acc value="0.0460832031" flag="0"/>
      <vel value="0.0330727370" flag="0"/>
      <psa03 value="0.1567772400" flag="0"/>
      <psa10 value="0.0346656888" flag="0"/>
      <psa30 value="0.0069235947" flag="0"/>
    </comp>
    <comp name="--.HHN">
      <acc value="0.0697409801" flag="0"/>
      <vel value="0.0741760551" flag="0"/>
      <psa03 value="0.1721057594" flag="0"/>
      <psa10 value="0.0756459256" flag="0"/>
      <psa30 value="0.0056196920" flag="0"/>
    </comp>
    <comp name="--.HHZ">
      <acc value="0.0307012540" flag="0"/>
      <vel value="0.0203048349" flag="0"/>
      <psa03 value="0.0596717546" flag="0"/>
      <psa10 value="0.0365954297" flag="0"/>
      <psa30 value="0.0025799631" flag="0"/>
    </comp>
  </station>
  <station code="KRL1" name="KRL1" netid="HI" insttype="CMG-5TD,ACCELEROMETER,GURALP" lat="37.7951" lon="26.7065">
    <comp name="--.HNN">
      <acc value="2.9328567468" flag="0"/>
      <vel value="1.0928918889" flag="0"/>
      <psa03 value="4.4209173303" flag="0"/>
      <psa10 value="0.4080809896" flag="0"/>
      <psa30 value="0.0359577574" flag="0"/>
    </comp>
    <comp name="--.HNZ">
      <acc value="1.1813680643" flag="0"/>
      <vel value="0.3270174508" flag="0"/>
      <psa03 value="1.6956542649" flag="0"/>
      <psa10 value="0.2240386117" flag="0"/>
      <psa30 value="0.0251529379" flag="0"/>
    </comp>
    <comp name="--.HNE">
      <acc value="4.3121168184" flag="0"/>
      <vel value="1.7750518903" flag="0"/>
      <psa03 value="8.6714437890" flag="0"/>
      <psa10 value="0.6737028144" flag="0"/>
      <psa30 value="0.0719602198" flag="0"/>
    </comp>
  </station>
  <station code="KLNA" name="KLNA" netid="HL" insttype="CMG-5" lat="36.9571" lon="26.9727">
    <comp name="00.HNE">
      <acc value="0.2125190606" flag="0"/>
      <vel value="0.0766263562" flag="0"/>
      <psa03 value="0.5225440735" flag="0"/>
      <psa10 value="0.0196017367" flag="0"/>
      <psa30 value="0.0026675326" flag="0"/>
    </comp>
    <comp name="00.HNN">
      <acc value="0.1319355210" flag="0"/>
      <vel value="0.0570871336" flag="0"/>
      <psa03 value="0.5051691601" flag="0"/>
      <psa10 value="0.0191779566" flag="0"/>
      <psa30 value="0.0022266820" flag="0"/>
    </comp>
    <comp name="00.HNZ">
      <acc value="0.1004434888" flag="0"/>
      <vel value="0.0287986275" flag="0"/>
      <psa03 value="0.1515871991" flag="0"/>
      <psa10 value="0.0127664470" flag="0"/>
      <psa30 value="0.0015823922" flag="0"/>
    </comp>
  </station>
  <station code="SMG" name="SMG" netid="HL" insttype="120" lat="37.7043" lon="26.8377">
    <comp name="--.HHE">
      <acc value="1.3299488988" flag="0"/>
      <vel value="0.4435542420" flag="0"/>
      <psa03 value="2.2789031395" flag="0"/>
      <psa10 value="0.1652287600" flag="0"/>
      <psa30 value="0.0190904002" flag="0"/>
    </comp>
    <comp name="--.HHN">
      <acc value="0.8013363091" flag="0"/>
      <vel value="0.4202454984" flag="0"/>
      <psa03 value="2.2061606369" flag="0"/>
      <psa10 value="0.2224624584" flag="0"/>
      <psa30 value="0.0191822245" flag="0"/>
    </comp>
    <comp name="--.HHZ">
      <acc value="0.4086900937" flag="0"/>
      <vel value="0.1961475937" flag="0"/>
      <psa03 value="0.9031579883" flag="0"/>
      <psa10 value="0.1173757910" flag="0"/>
      <psa30 value="0.0156813311" flag="0"/>
    </comp>
  </station>
  <station code="CHOS" name="CHOS" netid="HT" insttype="100" lat="38.3869" lon="26.0506">
    <comp name="--.HHN">
      <acc value="0.0328213362" flag="0"/>
      <vel value="0.0245860024" flag="0"/>
      <psa03 value="0.0750127074" flag="0"/>
      <psa10 value="0.0353980836" flag="0"/>
      <psa30 value="0.0018387039" flag="0"/>
    </comp>
    <comp name="--.HHZ">
      <acc value="0.0187615661" flag="0"/>
      <vel value="0.0142177540" flag="0"/>
      <psa03 value="0.0401838928" flag="0"/>
      <psa10 value="0.0128955692" flag="0"/>
      <psa30 value="0.0008071759" flag="0"/>
    </comp>
    <comp name="--.HHE">
      <acc value="0.0557763457" flag="0"/>
      <vel value="0.0208062777" flag="0"/>
      <psa03 value="0.0873621421" flag="0"/>
      <psa10 value="0.0349963818" flag="0"/>
      <psa30 value="0.0016438732" flag="0"/>
    </comp>
  </station>
  <station code="AYDB" name="AYDB" netid="KO" insttype="CMG-3ESPC" lat="37.9467" lon="27.8908">
    <comp name="--.HHN">
      <acc value="0.0645400827" flag="0"/>
      <vel value="0.0477563950" flag="0"/>
      <psa03 value="0.1307446065" flag="0"/>
      <psa10 value="0.0546233232" flag="0"/>
      <psa30 value="0.0029495728" flag="0"/>
    </comp>
    <comp name="--.HHZ">
      <acc value="0.0475807578" flag="0"/>
      <vel value="0.0278273470" flag="0"/>
      <psa03 value="0.1204999182" flag="0"/>
      <psa10 value="0.0199281383" flag="0"/>
      <psa30 value="0.0019258753" flag="0"/>
    </comp>
  </station>
  <station code="BODA" name="BODA" netid="KO" insttype="ACEBOX" lat="37.0348" lon="27.4304">
    <comp name="--.HNE">
      <acc value="0.0754557008" flag="0"/>
      <vel value="0.0345264525" flag="0"/>
      <psa03 value="0.3506368106" flag="0"/>
      <psa10 value="0.0310985440" flag="0"/>
      <psa30 value="0.0016975634" flag="0"/>
    </comp>
    <comp name="--.HNN">
      <acc value="0.0666224955" flag="0"/>
      <vel value="0.0298655465" flag="0"/>
      <psa03 value="0.3028032523" flag="0"/>
      <psa10 value="0.0313507897" flag="0"/>
      <psa30 value="0.0015394642" flag="0"/>
    </comp>
    <comp name="--.HNZ">
      <acc value="0.0096223990" flag="0"/>
      <vel value="0.0045280917" flag="0"/>
      <psa03 value="0.0146381288" flag="0"/>
      <psa10 value="0.0033786615" flag="0"/>
      <psa30 value="0.0003475970" flag="0"/>
    </comp>
  </station>
  <station code="BODT" name="BODT" netid="KO" insttype="CMG-3ESP" lat="37.0622" lon="27.3103">
    <comp name="--.HHN">
      <acc value="0.0880649707" flag="0"/>
      <vel value="0.0408288413" flag="0"/>
      <psa03 value="0.1488729974" flag="0"/>
      <psa10 value="0.0285566659" flag="0"/>
      <psa30 value="0.0016257476" flag="0"/>
    </comp>
    <comp name="--.HHE">
      <acc value="0.1188019547" flag="0"/>
      <vel value="0.0561084905" flag="0"/>
      <psa03 value="0.4237761594" flag="0"/>
      <psa10 value="0.0348390037" flag="0"/>
      <psa30 value="0.0025130734" flag="0"/>
    </comp>
    <comp name="--.HHZ">
      <acc value="0.0525514787" flag="0"/>
      <vel value="0.0309198928" flag="0"/>
      <psa03 value="0.1575185189" flag="0"/>
      <psa10 value="0.0220439306" flag="0"/>
      <psa30 value="0.0015451403" flag="0"/>
    </comp>
  </station>
  <station code="GMLD" name="GMLD" netid="KO" insttype="CMG-5T" lat="38.0766" lon="26.9157">
    <comp name="--.HNE">
      <acc value="0.5070391951" flag="0"/>
      <vel value="0.1893686523" flag="0"/>
      <psa03 value="0.9693741111" flag="0"/>
      <psa10 value="0.0997243129" flag="0"/>
      <psa30 value="0.0121183478" flag="0"/>
    </comp>
    <comp name="--.HNZ">
      <acc value="0.2558932124" flag="0"/>
      <vel value="0.0755692602" flag="0"/>
      <psa03 value="0.4702778789" flag="0"/>
      <psa10 value="0.0519632948" flag="0"/>
      <psa30 value="0.0087388392" flag="0"/>
    </comp>
    <comp name="--.HNN">
      <acc value="0.4634944662" flag="0"/>
      <vel value="0.1396576664" flag="0"/>
      <psa03 value="0.5927097934" flag="0"/>
      <psa10 value="0.1219466608" flag="0"/>
      <psa30 value="0.0150014687" flag="0"/>
    </comp>
  </station>
  <station code="KRBN" name="KRBN" netid="KO" insttype="CMG-5T" lat="38.5936" lon="26.5537">
    <comp name="--.HNZ">
      <acc value="0.0537193273" flag="0"/>
      <vel value="0.0333360341" flag="0"/>
      <psa03 value="0.1284317900" flag="0"/>
      <psa10 value="0.0384338121" flag="0"/>
      <psa30 value="0.0021915189" flag="0"/>
    </comp>
    <comp name="--.HNE">
      <acc value="0.1145222474" flag="0"/>
      <vel value="0.0441278066" flag="0"/>
      <psa03 value="0.3223672477" flag="0"/>
      <psa10 value="0.0451885574" flag="0"/>
      <psa30 value="0.0053070300" flag="0"/>
    </comp>
    <comp name="--.HNN">
      <acc value="0.1073907707" flag="0"/>
      <vel value="0.0631903895" flag="0"/>
      <psa03 value="0.2367418158" flag="0"/>
      <psa10 value="0.0522117573" flag="0"/>
      <psa30 value="0.0053082423" flag="0"/>
    </comp>
  </station>
  <station code="KUSD" name="KUSD" netid="KO" insttype="CMG-5T" lat="37.8606" lon="27.2868">
    <comp name="--.HNZ">
      <acc value="0.0508954837" flag="0"/>
      <vel value="0.0185447255" flag="0"/>
      <psa03 value="0.1387254523" flag="0"/>
      <psa10 value="0.0146893196" flag="0"/>
      <psa30 value="0.0027625002" flag="0"/>
    </comp>
    <comp name="--.HNE">
      <acc value="0.0955403722" flag="0"/>
      <vel value="0.0446301196" flag="0"/>
      <psa03 value="0.2517101898" flag="0"/>
      <psa10 value="0.0468475873" flag="0"/>
      <psa30 value="0.0040573859" flag="0"/>
    </comp>
    <comp name="--.HNN">
      <acc value="0.0752796966" flag="0"/>
      <vel value="0.0340256800" flag="0"/>
      <psa03 value="0.1936335127" flag="0"/>
      <psa10 value="0.0490957164" flag="0"/>
      <psa30 value="0.0028435664" flag="0"/>
    </comp>
  </station>
  <station code="MLSB" name="MLSB" netid="KO" insttype="CMG-3ESP" lat="37.2953" lon="27.7767">
    <comp name="--.HHZ">
      <acc value="0.0163049980" flag="0"/>
      <vel value="0.0081057981" flag="0"/>
      <psa03 value="0.0350278522" flag="0"/>
      <psa10 value="0.0087488208" flag="0"/>
      <psa30 value="0.0008169857" flag="0"/>
    </comp>
    <comp name="--.HHN">
      <acc value="0.0276298649" flag="0"/>
      <vel value="0.0140680766" flag="0"/>
      <psa03 value="0.0604837689" flag="0"/>
      <psa10 value="0.0172776597" flag="0"/>
      <psa30 value="0.0021233740" flag="0"/>
    </comp>
    <comp name="--.HHE">
      <acc value="0.0173181492" flag="0"/>
      <vel value="0.0074034184" flag="0"/>
      <psa03 value="0.0443072879" flag="0"/>
      <psa10 value="0.0115517547" flag="0"/>
      <psa30 value="0.0015108785" flag="0"/>
    </comp>
  </station>
  <station code="ODEM" name="ODEM" netid="KO" insttype="CMG-5T" lat="38.2762" lon="28.0747">
    <comp name="--.HNE">
      <acc value="0.0240721055" flag="0"/>
      <vel value="0.0206316926" flag="0"/>
      <psa03 value="0.0421400823" flag="0"/>
      <psa10 value="0.0178974542" flag="0"/>
      <psa30 value="0.0015570172" flag="0"/>
    </comp>
    <comp name="--.HNZ">
      <acc value="0.0173416413" flag="0"/>
      <vel value="0.0151141267" flag="0"/>
      <psa03 value="0.0353424848" flag="0"/>
      <psa10 value="0.0134477103" flag="0"/>
      <psa30 value="0.0009250828" flag="0"/>
    </comp>
    <comp name="--.HNN">
      <acc value="0.0232092318" flag="0"/>
      <vel value="0.0144227823" flag="0"/>
      <psa03 value="0.0453431856" flag="0"/>
      <psa10 value="0.0118439107" flag="0"/>
      <psa30 value="0.0011810163" flag="0"/>
    </comp>
  </station>
  <station code="YKAV" name="YKAV" netid="KO" insttype="CMG-5T" lat="37.1246" lon="27.2801">
    <comp name="--.HNE">
      <acc value="0.0821335815" flag="0"/>
      <vel value="0.0585398723" flag="0"/>
      <psa03 value="0.2690513557" flag="0"/>
      <psa10 value="0.0445296635" flag="0"/>
      <psa30 value="0.0031795555" flag="0"/>
    </comp>
    <comp name="--.HNN">
      <acc value="0.0698136640" flag="0"/>
      <vel value="0.0425700819" flag="0"/>
      <psa03 value="0.2463833272" flag="0"/>
      <psa10 value="0.0400982199" flag="0"/>
      <psa30 value="0.0016008267" flag="0"/>
    </comp>
    <comp name="--.HNZ">
      <acc value="0.0410112662" flag="0"/>
      <vel value="0.0209438359" flag="0"/>
      <psa03 value="0.1213364606" flag="0"/>
      <psa10 value="0.0251399291" flag="0"/>
      <psa30 value="0.0014885857" flag="0"/>
    </comp>
  </station>
  <station code="AYDN" name="AYDN" netid="TU" insttype="T" lat="37.6608" lon="27.8792">
    <comp name="--.HHE">
      <acc value="0.1753398179" flag="0"/>
      <vel value="0.0596586843" flag="0"/>
      <psa03 value="0.2878780567" flag="0"/>
      <psa10 value="0.0438274624" flag="0"/>
      <psa30 value="0.0023213559" flag="0"/>
    </comp>
    <comp name="--.HHZ">
      <acc value="0.0362408268" flag="0"/>
      <vel value="0.0245162216" flag="0"/>
      <psa03 value="0.0976930086" flag="0"/>
      <psa10 value="0.0212871299" flag="0"/>
      <psa30 value="0.0031509403" flag="0"/>
    </comp>
    <comp name="--.HHN">
      <acc value="0.0897861779" flag="0"/>
      <vel value="0.0453869986" flag="0"/>
      <psa03 value="0.2260365311" flag="0"/>
      <psa10 value="0.0407812775" flag="0"/>
      <psa30 value="0.0039818287" flag="0"/>
    </comp>
  </station>
</stationlist>
