<?xml version="1.0" encoding="UTF-8" standalone="yes"?>
<!DOCTYPE earthquake SYSTEM "stationlist.dtd">
<stationlist created="" xmlns="ch.ethz.sed.shakemap.usgs.xml">
  <station code="AKMS" name="AKMS" netid="CQ" insttype="" lat="35.018" lon="32.335">
    <comp name="--.HHZ">
      <acc value="0.3368832591" flag="0"/>
      <vel value="0.1228755685" flag="0"/>
      <psa03 value="0.8304423716" flag="0"/>
      <psa10 value="0.0644731845" flag="0"/>
      <psa30 value="0.0084816031" flag="0"/>
    </comp>
    <comp name="--.HHN">
      <acc value="0.4330934023" flag="0"/>
      <vel value="0.1713997163" flag="0"/>
      <psa03 value="0.8375396201" flag="0"/>
      <psa10 value="0.1234284583" flag="0"/>
      <psa30 value="0.0095251946" flag="0"/>
    </comp>
    <comp name="--.HHE">
      <acc value="0.6499539541" flag="0"/>
      <vel value="0.1875901677" flag="0"/>
      <psa03 value="0.8301998493" flag="0"/>
      <psa10 value="0.1297317919" flag="0"/>
      <psa30 value="0.0179859482" flag="0"/>
    </comp>
  </station>
  <station code="ALEF" name="ALEF" netid="CQ" insttype="" lat="35.156" lon="32.599">
    <comp name="--.HHZ">
      <acc value="0.3320695779" flag="0"/>
      <vel value="0.0811805571" flag="0"/>
      <psa03 value="0.3729644160" flag="0"/>
      <psa10 value="0.0584476967" flag="0"/>
      <psa30 value="0.0040955050" flag="0"/>
    </comp>
    <comp name="--.HHN">
      <acc value="0.6122623465" flag="0"/>
      <vel value="0.1693872446" flag="0"/>
      <psa03 value="1.3353515752" flag="0"/>
      <psa10 value="0.1134324776" flag="0"/>
      <psa30 value="0.0072390040" flag="0"/>
    </comp>
    <comp name="--.HHE">
      <acc value="0.6659446023" flag="0"/>
      <vel value="0.2056914148" flag="0"/>
      <psa03 value="0.8140671291" flag="0"/>
      <psa10 value="0.1472207011" flag="0"/>
      <psa30 value="0.0073899314" flag="0"/>
    </comp>
  </station>
  <station code="ATHA" name="ATHA" netid="CQ" insttype="Trillium120P" lat="35.141" lon="33.396">
    <comp name="--.HHE">
      <acc value="0.1655143659" flag="0"/>
      <vel value="0.1411143840" flag="0"/>
      <psa03 value="0.3961585495" flag="0"/>
      <psa10 value="0.1415656460" flag="0"/>
      <psa30 value="0.0412127307" flag="0"/>
    </comp>
    <comp name="--.HHZ">
      <acc value="0.1207969438" flag="0"/>
      <vel value="0.0842777148" flag="0"/>
      <psa03 value="0.2168228911" flag="0"/>
      <psa10 value="0.1273296490" flag="0"/>
      <psa30 value="0.0130720511" flag="0"/>
    </comp>
    <comp name="--.HHN">
      <acc value="0.1720848793" flag="0"/>
      <vel value="0.1065789213" flag="0"/>
      <psa03 value="0.4339557537" flag="0"/>
      <psa10 value="0.1545135833" flag="0"/>
      <psa30 value="0.0188832575" flag="0"/>
    </comp>
  </station>
  <station code="NATA" name="NATA" netid="CQ" insttype="Trillium120P" lat="34.7789" lon="32.5699">
    <comp name="--.HHE">
      <acc value="0.3017869580" flag="0"/>
      <vel value="0.2086744001" flag="0"/>
      <psa03 value="0.7885948592" flag="0"/>
      <psa10 value="0.3567748032" flag="0"/>
      <psa30 value="0.0178032496" flag="0"/>
    </comp>
    <comp name="--.HHZ">
      <acc value="0.1759657185" flag="0"/>
      <vel value="0.1035271989" flag="0"/>
      <psa03 value="0.2750806158" flag="0"/>
      <psa10 value="0.1811607796" flag="0"/>
      <psa30 value="0.0097440681" flag="0"/>
    </comp>
    <comp name="--.HHN">
      <acc value="0.2916739321" flag="0"/>
      <vel value="0.1839278110" flag="0"/>
      <psa03 value="0.4205780395" flag="0"/>
      <psa10 value="0.2601994020" flag="0"/>
      <psa30 value="0.0179957138" flag="0"/>
    </comp>
  </station>
  <station code="XYLS" name="XYLS" netid="CQ" insttype="120QA" lat="35.014" lon="33.0493">
    <comp name="--.HHZ">
      <acc value="0.1665869100" flag="0"/>
      <vel value="0.0576839706" flag="0"/>
      <psa03 value="0.3967938096" flag="0"/>
      <psa10 value="0.0473316817" flag="0"/>
      <psa30 value="0.0035798418" flag="0"/>
    </comp>
  </station>
  <station code="ALAN" name="ALAN" netid="KO" insttype="100" lat="36.557" lon="32.0327">
    <comp name="--.HNN">
      <acc value="1.1887327011" flag="0"/>
      <vel value="0.3218945676" flag="0"/>
      <psa03 value="1.3398395996" flag="0"/>
      <psa10 value="0.1281879883" flag="0"/>
      <psa30 value="0.0118226678" flag="0"/>
    </comp>
    <comp name="--.HNE">
      <acc value="1.1845029045" flag="0"/>
      <vel value="0.5283551817" flag="0"/>
      <psa03 value="1.7201132643" flag="0"/>
      <psa10 value="0.2814715016" flag="0"/>
      <psa30 value="0.0193050389" flag="0"/>
    </comp>
    <comp name="--.HNZ">
      <acc value="0.3900302351" flag="0"/>
      <vel value="0.1362003338" flag="0"/>
      <psa03 value="0.3594110210" flag="0"/>
      <psa10 value="0.1050061737" flag="0"/>
      <psa30 value="0.0039156223" flag="0"/>
    </comp>
  </station>
  <station code="BOZY" name="BOZY" netid="KO" insttype="100" lat="36.1069" lon="32.9763">
    <comp name="--.HNN">
      <acc value="0.3237026017" flag="0"/>
      <vel value="0.0657027606" flag="0"/>
      <psa03 value="0.2810433360" flag="0"/>
      <psa10 value="0.0429795901" flag="0"/>
      <psa30 value="0.0041909166" flag="0"/>
    </comp>
    <comp name="--.HNZ">
      <acc value="0.0819408255" flag="0"/>
      <vel value="0.0296632497" flag="0"/>
      <psa03 value="0.0797248611" flag="0"/>
      <psa10 value="0.0357207819" flag="0"/>
      <psa30 value="0.0021694560" flag="0"/>
    </comp>
    <comp name="--.HNE">
      <acc value="0.2386990540" flag="0"/>
      <vel value="0.0757788267" flag="0"/>
      <psa03 value="0.2554142482" flag="0"/>
      <psa10 value="0.0503967595" flag="0"/>
      <psa30 value="0.0028777164" flag="0"/>
    </comp>
  </station>
  <station code="DEMR" name="DEMR" netid="KO" insttype="100" lat="36.2365" lon="29.9056">
    <comp name="--.HNN">
      <acc value="0.0113632254" flag="0"/>
      <vel value="0.0058858560" flag="0"/>
      <psa03 value="0.0475912128" flag="0"/>
      <psa10 value="0.0053419911" flag="0"/>
      <psa30 value="0.0013206925" flag="0"/>
    </comp>
    <comp name="--.HNZ">
      <acc value="0.0107291054" flag="0"/>
      <vel value="0.0038628387" flag="0"/>
      <psa03 value="0.0354652551" flag="0"/>
      <psa10 value="0.0036572955" flag="0"/>
      <psa30 value="0.0005948190" flag="0"/>
    </comp>
    <comp name="--.HNE">
      <acc value="0.0110361843" flag="0"/>
      <vel value="0.0072558124" flag="0"/>
      <psa03 value="0.0377576477" flag="0"/>
      <psa10 value="0.0095871879" flag="0"/>
      <psa30 value="0.0006618189" flag="0"/>
    </comp>
  </station>
  <station code="KEMT" name="KEMT" netid="KO" insttype="100" lat="36.6037" lon="30.5559">
    <comp name="--.HNN">
      <acc value="0.0792393424" flag="0"/>
      <vel value="0.0320015643" flag="0"/>
      <psa03 value="0.3162498612" flag="0"/>
      <psa10 value="0.0155998943" flag="0"/>
      <psa30 value="0.0010004858" flag="0"/>
    </comp>
    <comp name="--.HNE">
      <acc value="0.1127798023" flag="0"/>
      <vel value="0.0570824123" flag="0"/>
      <psa03 value="0.3601727475" flag="0"/>
      <psa10 value="0.0164566908" flag="0"/>
      <psa30 value="0.0021987434" flag="0"/>
    </comp>
    <comp name="--.HNZ">
      <acc value="0.0551512670" flag="0"/>
      <vel value="0.0111640224" flag="0"/>
      <psa03 value="0.0923728011" flag="0"/>
      <psa10 value="0.0056678506" flag="0"/>
      <psa30 value="0.0006645185" flag="0"/>
    </comp>
  </station>
  <station code="LFK" name="LFK" netid="KO" insttype="120s," lat="35.2832" lon="33.5337">
    <comp name="--.HHN">
      <acc value="0.1338646250" flag="0"/>
      <vel value="0.0996634116" flag="0"/>
      <psa03 value="0.3240497919" flag="0"/>
      <psa10 value="0.1431398704" flag="0"/>
      <psa30 value="0.0097366136" flag="0"/>
    </comp>
    <comp name="--.HHE">
      <acc value="0.1269047926" flag="0"/>
      <vel value="0.0638172769" flag="0"/>
      <psa03 value="0.2910049281" flag="0"/>
      <psa10 value="0.1011148661" flag="0"/>
      <psa30 value="0.0131250317" flag="0"/>
    </comp>
    <comp name="--.HHZ">
      <acc value="0.1267429802" flag="0"/>
      <vel value="0.0341135803" flag="0"/>
      <psa03 value="0.2112659336" flag="0"/>
      <psa10 value="0.0353949729" flag="0"/>
      <psa30 value="0.0067828888" flag="0"/>
    </comp>
  </station>
  <station code="MNVG" name="MNVG" netid="KO" insttype="100" lat="36.7935" lon="31.4161">
    <comp name="--.HNE">
      <acc value="0.4906200153" flag="0"/>
      <vel value="0.2125839058" flag="0"/>
      <psa03 value="1.6939265656" flag="0"/>
      <psa10 value="0.3156995492" flag="0"/>
      <psa30 value="0.0181653942" flag="0"/>
    </comp>
    <comp name="--.HNN">
      <acc value="0.3774245982" flag="0"/>
      <vel value="0.2090920726" flag="0"/>
      <psa03 value="1.0779485477" flag="0"/>
      <psa10 value="0.2442995650" flag="0"/>
      <psa30 value="0.0351367714" flag="0"/>
    </comp>
    <comp name="--.HNZ">
      <acc value="0.3440710427" flag="0"/>
      <vel value="0.1658732176" flag="0"/>
      <psa03 value="1.5656136683" flag="0"/>
      <psa10 value="0.1813780458" flag="0"/>
      <psa30 value="0.0102359572" flag="0"/>
    </comp>
  </station>
  <station code="SEYD" name="SEYD" netid="KO" insttype="100" lat="37.4057" lon="31.838">
    <comp name="--.HNZ">
      <acc value="0.0892538605" flag="0"/>
      <vel value="0.0402418648" flag="0"/>
      <psa03 value="0.1666304991" flag="0"/>
      <psa10 value="0.0696537055" flag="0"/>
      <psa30 value="0.0048944969" flag="0"/>
    </comp>
    <comp name="--.HNE">
      <acc value="0.1375954563" flag="0"/>
      <vel value="0.0723525224" flag="0"/>
      <psa03 value="0.4000706893" flag="0"/>
      <psa10 value="0.1328450727" flag="0"/>
      <psa30 value="0.0060677520" flag="0"/>
    </comp>
    <comp name="--.HNN">
      <acc value="0.0962127171" flag="0"/>
      <vel value="0.0500191201" flag="0"/>
      <psa03 value="0.2191467209" flag="0"/>
      <psa10 value="0.0504840173" flag="0"/>
      <psa30 value="0.0092430922" flag="0"/>
    </comp>
  </station>
</stationlist>
