<stationlist created="1778135888">
	<station code="RDI1" name="RDI1" netid="HI" source="ITSAK Strong Motion Network" insttype="" lat="36.4514" lon="28.224">
		<comp name="--.HNE" depth="0.0">
			<acc value="0.0663606800239485" flag="0"/>
			<vel value="0.036547780787996" flag="0"/>
			<psa03 value="0.130960438771681" flag="0"/>
			<psa10 value="0.0429981554042915" flag="0"/>
			<psa30 value="0.0162830312545876" flag="0"/>
		</comp>
		<comp name="--.HNN" depth="0.0">
			<acc value="0.0580474348465249" flag="0"/>
			<vel value="0.0298991112349927" flag="0"/>
			<psa03 value="0.204069204385937" flag="0"/>
			<psa10 value="0.0422934656500537" flag="0"/>
			<psa30 value="0.0144060956869511" flag="0"/>
		</comp>
		<comp name="--.HNZ" depth="0.0">
			<acc value="0.0518374433198575" flag="0"/>
			<vel value="0.0356209964308652" flag="0"/>
			<psa03 value="0.213196614536065" flag="0"/>
			<psa10 value="0.035484149224819" flag="0"/>
			<psa30 value="0.00412478402813847" flag="0"/>
		</comp>
	</station>
	<station code="KSL" name="KSL" netid="HL" source="National Observatory of Athens Seismic Network" insttype="" lat="36.15031" lon="29.58561">
		<comp name="00.HNE" depth="0.0">
			<acc value="0.0733107834403712" flag="0"/>
			<vel value="0.0373432995639144" flag="0"/>
			<psa03 value="0.180221608258399" flag="0"/>
			<psa10 value="0.0373284229816241" flag="0"/>
			<psa30 value="0.00745405162260407" flag="0"/>
		</comp>
		<comp name="00.HNN" depth="0.0">
			<acc value="0.0353105986386806" flag="0"/>
			<vel value="0.030176177363604" flag="0"/>
			<psa03 value="0.136732183425438" flag="0"/>
			<psa10 value="0.0285983236262669" flag="0"/>
			<psa30 value="0.00421158390897792" flag="0"/>
		</comp>
		<comp name="00.HNZ" depth="0.0">
			<acc value="0.0307288198764088" flag="0"/>
			<vel value="0.0206598987438862" flag="0"/>
			<psa03 value="0.0842048328555875" flag="0"/>
			<psa10 value="0.0164212846730381" flag="0"/>
			<psa30 value="0.00317266987130165" flag="0"/>
		</comp>
	</station>
	<station code="RODB" name="RODB" netid="HL" source="National Observatory of Athens Seismic Network" insttype="" lat="36.4471" lon="28.22116">
		<comp name="00.HNE" depth="0.0">
			<acc value="0.0591233173928139" flag="0"/>
			<vel value="0.0340595948893815" flag="0"/>
			<psa03 value="0.165859359933933" flag="0"/>
			<psa10 value="0.037714995646806" flag="0"/>
			<psa30 value="0.0113443864880628" flag="0"/>
		</comp>
		<comp name="00.HNN" depth="0.0">
			<acc value="0.064076537964695" flag="0"/>
			<vel value="0.0337292685882956" flag="0"/>
			<psa03 value="0.219057843603059" flag="0"/>
			<psa10 value="0.0403807363171226" flag="0"/>
			<psa30 value="0.0105323154379412" flag="0"/>
		</comp>
		<comp name="00.HNZ" depth="0.0">
			<acc value="0.0604456773028258" flag="0"/>
			<vel value="0.0226978624509397" flag="0"/>
			<psa03 value="0.111542321099351" flag="0"/>
			<psa10 value="0.0288882531251533" flag="0"/>
			<psa30 value="0.00438160429412735" flag="0"/>
		</comp>
	</station>
	<station code="ALAN" name="ALAN" netid="KO" source="Bogazici University Kandilli Observatory And Earthquake Research Institute (KOERI)" insttype="" lat="36.557" lon="32.0327">
		<comp name="--.HNE" depth="0.0">
			<acc value="7.49914358676416" flag="0"/>
			<vel value="3.35535539370274" flag="0"/>
			<psa03 value="10.9748158613959" flag="0"/>
			<psa10 value="1.77431618480303" flag="0"/>
			<psa30 value="0.12091223400935" flag="0"/>
		</comp>
		<comp name="--.HNN" depth="0.0">
			<acc value="7.42268869713007" flag="0"/>
			<vel value="2.07491219606786" flag="0"/>
			<psa03 value="8.57408328087927" flag="0"/>
			<psa10 value="0.807155671302549" flag="0"/>
			<psa30 value="0.0745857058547252" flag="0"/>
		</comp>
		<comp name="--.HNZ" depth="0.0">
			<acc value="2.47834452099507" flag="0"/>
			<vel value="0.864789942708698" flag="0"/>
			<psa03 value="2.29429087097174" flag="0"/>
			<psa10 value="0.661341267355667" flag="0"/>
			<psa30 value="0.0244762241305256" flag="0"/>
		</comp>
	</station>
	<station code="BASM" name="BASM" netid="KO" source="Bogazici University Kandilli Observatory And Earthquake Research Institute (KOERI)" insttype="" lat="37.9194" lon="30.035">
		<comp name="--.HNE" depth="0.0">
			<acc value="0.285112551303004" flag="0"/>
			<vel value="0.190597314023546" flag="0"/>
			<psa03 value="0.99309801809916" flag="0"/>
			<psa10 value="0.360305857942479" flag="0"/>
			<psa30 value="0.0271424122229084" flag="0"/>
		</comp>
		<comp name="--.HNN" depth="0.0">
			<acc value="0.257983639651949" flag="0"/>
			<vel value="0.342697260966987" flag="0"/>
			<psa03 value="0.73914125333385" flag="0"/>
			<psa10 value="0.352401252299229" flag="0"/>
			<psa30 value="0.0552284375833961" flag="0"/>
		</comp>
		<comp name="--.HNZ" depth="0.0">
			<acc value="0.208465115964997" flag="0"/>
			<vel value="0.102792117293258" flag="0"/>
			<psa03 value="0.620708632415284" flag="0"/>
			<psa10 value="0.11978115102604" flag="0"/>
			<psa30 value="0.0186646589128782" flag="0"/>
		</comp>
	</station>
	<station code="BOZY" name="BOZY" netid="KO" source="Bogazici University Kandilli Observatory And Earthquake Research Institute (KOERI)" insttype="" lat="36.1069" lon="32.9763">
		<comp name="--.HNE" depth="0.0">
			<acc value="1.50109489581135" flag="0"/>
			<vel value="0.482180889187108" flag="0"/>
			<psa03 value="1.63085343123601" flag="0"/>
			<psa10 value="0.317086228615427" flag="0"/>
			<psa30 value="0.018189049256526" flag="0"/>
		</comp>
		<comp name="--.HNN" depth="0.0">
			<acc value="1.99916684253175" flag="0"/>
			<vel value="0.424528744465295" flag="0"/>
			<psa03 value="1.7750575631667" flag="0"/>
			<psa10 value="0.271184751423676" flag="0"/>
			<psa30 value="0.0266310088012615" flag="0"/>
		</comp>
		<comp name="--.HNZ" depth="0.0">
			<acc value="0.508729238867104" flag="0"/>
			<vel value="0.186844832042097" flag="0"/>
			<psa03 value="0.502857660182756" flag="0"/>
			<psa10 value="0.22463093285943" flag="0"/>
			<psa30 value="0.01375688626892" flag="0"/>
		</comp>
	</station>
	<station code="CAME" name="CAME" netid="KO" source="Bogazici University Kandilli Observatory And Earthquake Research Institute (KOERI)" insttype="" lat="36.9435" lon="29.3023">
		<comp name="--.HNE" depth="0.0">
			<acc value="0.167354786415784" flag="0"/>
			<vel value="0.102116611394656" flag="0"/>
			<psa03 value="0.45305958421662" flag="0"/>
			<psa10 value="0.0909694070742039" flag="0"/>
			<psa30 value="0.0071788870519017" flag="0"/>
		</comp>
		<comp name="--.HNN" depth="0.0">
			<acc value="0.157711353117465" flag="0"/>
			<vel value="0.0830250811821959" flag="0"/>
			<psa03 value="0.494311898718666" flag="0"/>
			<psa10 value="0.116181193081534" flag="0"/>
			<psa30 value="0.00722004988199051" flag="0"/>
		</comp>
		<comp name="--.HNZ" depth="0.0">
			<acc value="0.0842260773701688" flag="0"/>
			<vel value="0.0458167088517016" flag="0"/>
			<psa03 value="0.1718995578274" flag="0"/>
			<psa10 value="0.0762876993944843" flag="0"/>
			<psa30 value="0.00617576677952005" flag="0"/>
		</comp>
	</station>
	<station code="KEMT" name="KEMT" netid="KO" source="Bogazici University Kandilli Observatory And Earthquake Research Institute (KOERI)" insttype="" lat="36.6037" lon="30.5558">
		<comp name="--.HNE" depth="0.0">
			<acc value="0.710901266593929" flag="0"/>
			<vel value="0.361336186631242" flag="0"/>
			<psa03 value="2.27666244156414" flag="0"/>
			<psa10 value="0.103561206282784" flag="0"/>
			<psa30 value="0.0137953645666117" flag="0"/>
		</comp>
		<comp name="--.HNN" depth="0.0">
			<acc value="0.496794497288568" flag="0"/>
			<vel value="0.203558753678374" flag="0"/>
			<psa03 value="1.97460780468419" flag="0"/>
			<psa10 value="0.0983505289000202" flag="0"/>
			<psa30 value="0.00630104495805121" flag="0"/>
		</comp>
		<comp name="--.HNZ" depth="0.0">
			<acc value="0.349415435897764" flag="0"/>
			<vel value="0.0708308246847145" flag="0"/>
			<psa03 value="0.594579183750213" flag="0"/>
			<psa10 value="0.0356089799812839" flag="0"/>
			<psa30 value="0.00419950351319099" flag="0"/>
		</comp>
	</station>
	<station code="KRMN" name="KRMN" netid="KO" source="Bogazici University Kandilli Observatory And Earthquake Research Institute (KOERI)" insttype="" lat="37.174" lon="33.2636">
		<comp name="--.HNE" depth="0.0">
			<acc value="1.19650654436689" flag="0"/>
			<vel value="0.457838349412967" flag="0"/>
			<psa03 value="0.7958296291192" flag="0"/>
			<psa10 value="0.365411838561756" flag="0"/>
			<psa30 value="0.0522709777259283" flag="0"/>
		</comp>
		<comp name="--.HNN" depth="0.0">
			<acc value="1.00856585370013" flag="0"/>
			<vel value="0.374668273210749" flag="0"/>
			<psa03 value="1.74651203534424" flag="0"/>
			<psa10 value="0.299622003106117" flag="0"/>
			<psa30 value="0.0187187969828864" flag="0"/>
		</comp>
		<comp name="--.HNZ" depth="0.0">
			<acc value="0.715361792155321" flag="0"/>
			<vel value="0.234450875141825" flag="0"/>
			<psa03 value="0.821422171304851" flag="0"/>
			<psa10 value="0.201448653344305" flag="0"/>
			<psa30 value="0.0143770132526493" flag="0"/>
		</comp>
	</station>
	<station code="SEYD" name="SEYD" netid="KO" source="Bogazici University Kandilli Observatory And Earthquake Research Institute (KOERI)" insttype="" lat="37.4056" lon="31.8379">
		<comp name="--.HNE" depth="0.0">
			<acc value="0.865440320167136" flag="0"/>
			<vel value="0.460745412373737" flag="0"/>
			<psa03 value="2.55634597513496" flag="0"/>
			<psa10 value="0.836281505544845" flag="0"/>
			<psa30 value="0.0385467532678397" flag="0"/>
		</comp>
		<comp name="--.HNN" depth="0.0">
			<acc value="0.60749534468894" flag="0"/>
			<vel value="0.316280516956061" flag="0"/>
			<psa03 value="1.37327254773462" flag="0"/>
			<psa10 value="0.318853993198915" flag="0"/>
			<psa30 value="0.0574959726148101" flag="0"/>
		</comp>
		<comp name="--.HNZ" depth="0.0">
			<acc value="0.560029922568738" flag="0"/>
			<vel value="0.252239675073356" flag="0"/>
			<psa03 value="1.03327651964237" flag="0"/>
			<psa10 value="0.438031124435608" flag="0"/>
			<psa30 value="0.0308126154318052" flag="0"/>
		</comp>
	</station>
</stationlist>
