<?xml version="1.0" encoding="UTF-8" standalone="yes"?>
<!DOCTYPE earthquake SYSTEM "stationlist.dtd">
<stationlist created="" xmlns="ch.ethz.sed.shakemap.usgs.xml">
  <station code="ARPRA" name="ARPRA" netid="KO" insttype="CMG-5T" commtype="DIG" lat="39.0929" lon="38.3356">
    <comp name="--.HNE">
      <acc value="1.0680016657" flag="0"/>
      <vel value="0.3877866765" flag="0"/>
      <psa03 value="1.8363281008" flag="0"/>
      <psa10 value="0.2703309484" flag="0"/>
      <psa30 value="0.0157083189" flag="0"/>
    </comp>
    <comp name="--.HNN">
      <acc value="0.7749027411" flag="0"/>
      <vel value="0.3430434481" flag="0"/>
      <psa03 value="1.7266012920" flag="0"/>
      <psa10 value="0.2064737317" flag="0"/>
      <psa30 value="0.0147766737" flag="0"/>
    </comp>
    <comp name="--.HNZ">
      <acc value="0.4591554103" flag="0"/>
      <vel value="0.2247936996" flag="0"/>
      <psa03 value="0.8255771935" flag="0"/>
      <psa10 value="0.1270968038" flag="0"/>
      <psa30 value="0.0078363851" flag="0"/>
    </comp>
  </station>
  <station code="DYBB" name="DYBB" netid="KO" insttype="CMG-3T" commtype="DIG" lat="37.9532" lon="40.1393">
    <comp name="--.HHE">
      <acc value="0.0598608240" flag="0"/>
      <vel value="0.0294031407" flag="0"/>
      <psa03 value="0.3276710565" flag="0"/>
      <psa10 value="0.0429242515" flag="0"/>
      <psa30 value="0.0088630661" flag="0"/>
    </comp>
    <comp name="--.HHN">
      <acc value="0.0557104155" flag="0"/>
      <vel value="0.0328866100" flag="0"/>
      <psa03 value="0.1565015052" flag="0"/>
      <psa10 value="0.0315006244" flag="0"/>
      <psa30 value="0.0050634634" flag="0"/>
    </comp>
    <comp name="--.HHZ">
      <acc value="0.0304640085" flag="0"/>
      <vel value="0.0146055663" flag="0"/>
      <psa03 value="0.0719678734" flag="0"/>
      <psa10 value="0.0242699383" flag="0"/>
      <psa30 value="0.0066375403" flag="0"/>
    </comp>
  </station>
  <station code="KMAH" name="KMAH" netid="KO" insttype="CMG-3ESP" commtype="DIG" lat="39.6082" lon="39.0275">
    <comp name="--.HHN">
      <acc value="0.0748577220" flag="0"/>
      <vel value="0.0415215024" flag="0"/>
      <psa03 value="0.1897106907" flag="0"/>
      <psa10 value="0.0757658708" flag="0"/>
      <psa30 value="0.0065125125" flag="0"/>
    </comp>
    <comp name="--.HHZ">
      <acc value="0.0319625848" flag="0"/>
      <vel value="0.0392349198" flag="0"/>
      <psa03 value="0.0586919092" flag="0"/>
      <psa10 value="0.1128670935" flag="0"/>
      <psa30 value="0.0043897708" flag="0"/>
    </comp>
    <comp name="--.HHE">
      <acc value="0.0766091232" flag="0"/>
      <vel value="0.0419168536" flag="0"/>
      <psa03 value="0.1253934565" flag="0"/>
      <psa10 value="0.0597001042" flag="0"/>
      <psa30 value="0.0060182193" flag="0"/>
    </comp>
  </station>
  <station code="SINE" name="SINE" netid="KO" insttype="CMG-6T" commtype="DIG" lat="39.1636" lon="39.3871">
    <comp name="--.HHZ">
      <acc value="0.0465953228" flag="0"/>
      <vel value="0.0233838338" flag="0"/>
      <psa03 value="0.1269987947" flag="0"/>
      <psa10 value="0.0236058820" flag="0"/>
      <psa30 value="0.0013652058" flag="0"/>
    </comp>
    <comp name="--.HHE">
      <acc value="0.0642864303" flag="0"/>
      <vel value="0.0304738927" flag="0"/>
      <psa03 value="0.1417024820" flag="0"/>
      <psa10 value="0.0235786120" flag="0"/>
      <psa30 value="0.0011686902" flag="0"/>
    </comp>
    <comp name="--.HHN">
      <acc value="0.0971921083" flag="0"/>
      <vel value="0.0392145313" flag="0"/>
      <psa03 value="0.2019192545" flag="0"/>
      <psa10 value="0.0268678351" flag="0"/>
      <psa30 value="0.0011012961" flag="0"/>
    </comp>
  </station>
  <station code="SVRC" name="SVRC" netid="KO" insttype="CMG-3T" commtype="DIG" lat="38.3775" lon="39.306">
    <comp name="--.HHZ">
      <acc value="0.3646303905" flag="0"/>
      <vel value="0.1041307860" flag="0"/>
      <psa03 value="0.5103543785" flag="0"/>
      <psa10 value="0.0717104370" flag="0"/>
      <psa30 value="0.0106554673" flag="0"/>
    </comp>
  </station>
</stationlist>
