<?xml version="1.0" encoding="UTF-8" standalone="yes"?>
<!DOCTYPE earthquake SYSTEM "stationlist.dtd">
<stationlist created="" xmlns="ch.ethz.sed.shakemap.usgs.xml">
  <station code="ARPRA" name="ARPRA" netid="KO" insttype="CMG-5T" commtype="DIG" lat="39.0929" lon="38.3356">
    <comp name="--.HNN">
      <acc value="0.7749027360" flag="0"/>
      <vel value="0.3430434426" flag="0"/>
      <psa03 value="1.7266012920" flag="0"/>
      <psa10 value="0.2064737324" flag="0"/>
      <psa30 value="0.0147757685" flag="0"/>
    </comp>
    <comp name="--.HNE">
      <acc value="1.0680016661" flag="0"/>
      <vel value="0.3877866780" flag="0"/>
      <psa03 value="1.8363281008" flag="0"/>
      <psa10 value="0.2703309485" flag="0"/>
      <psa30 value="0.0157101630" flag="0"/>
    </comp>
    <comp name="--.HNZ">
      <acc value="0.4591554124" flag="0"/>
      <vel value="0.2247937016" flag="0"/>
      <psa03 value="0.8255771935" flag="0"/>
      <psa10 value="0.1270968017" flag="0"/>
      <psa30 value="0.0078361755" flag="0"/>
    </comp>
  </station>
  <station code="DYBB" name="DYBB" netid="KO" insttype="CMG-3T" commtype="DIG" lat="37.9532" lon="40.1393">
    <comp name="--.HHZ">
      <acc value="0.0304640084" flag="0"/>
      <vel value="0.0146055659" flag="0"/>
      <psa03 value="0.0719678734" flag="0"/>
      <psa10 value="0.0242699383" flag="0"/>
      <psa30 value="0.0066375390" flag="0"/>
    </comp>
    <comp name="--.HHN">
      <acc value="0.0557104154" flag="0"/>
      <vel value="0.0328866099" flag="0"/>
      <psa03 value="0.1565015052" flag="0"/>
      <psa10 value="0.0315006244" flag="0"/>
      <psa30 value="0.0050634643" flag="0"/>
    </comp>
    <comp name="--.HHE">
      <acc value="0.0598608239" flag="0"/>
      <vel value="0.0294031413" flag="0"/>
      <psa03 value="0.3276710565" flag="0"/>
      <psa10 value="0.0429242515" flag="0"/>
      <psa30 value="0.0088630778" flag="0"/>
    </comp>
  </station>
  <station code="KMAH" name="KMAH" netid="KO" insttype="CMG-3ESP" commtype="DIG" lat="39.6082" lon="39.0275">
    <comp name="--.HHE">
      <acc value="0.0766091232" flag="0"/>
      <vel value="0.0419168130" flag="0"/>
      <psa03 value="0.1253934566" flag="0"/>
      <psa10 value="0.0597001042" flag="0"/>
      <psa30 value="0.0060181402" flag="0"/>
    </comp>
    <comp name="--.HHZ">
      <acc value="0.0319625851" flag="0"/>
      <vel value="0.0392351885" flag="0"/>
      <psa03 value="0.0586919095" flag="0"/>
      <psa10 value="0.1128670939" flag="0"/>
      <psa30 value="0.0043894999" flag="0"/>
    </comp>
    <comp name="--.HHN">
      <acc value="0.0748577220" flag="0"/>
      <vel value="0.0415214934" flag="0"/>
      <psa03 value="0.1897106907" flag="0"/>
      <psa10 value="0.0757658708" flag="0"/>
      <psa30 value="0.0065125173" flag="0"/>
    </comp>
  </station>
  <station code="SINE" name="SINE" netid="KO" insttype="CMG-6T" commtype="DIG" lat="39.1636" lon="39.3871">
    <comp name="--.HHE">
      <acc value="0.0642864296" flag="0"/>
      <vel value="0.0304738923" flag="0"/>
      <psa03 value="0.1417024820" flag="0"/>
      <psa10 value="0.0235786120" flag="0"/>
      <psa30 value="0.0011686914" flag="0"/>
    </comp>
    <comp name="--.HHN">
      <acc value="0.0971921088" flag="0"/>
      <vel value="0.0392145320" flag="0"/>
      <psa03 value="0.2019192545" flag="0"/>
      <psa10 value="0.0268678351" flag="0"/>
      <psa30 value="0.0011012942" flag="0"/>
    </comp>
    <comp name="--.HHZ">
      <acc value="0.0465953222" flag="0"/>
      <vel value="0.0233838338" flag="0"/>
      <psa03 value="0.1269987947" flag="0"/>
      <psa10 value="0.0236058820" flag="0"/>
      <psa30 value="0.0013652042" flag="0"/>
    </comp>
  </station>
  <station code="SVRC" name="SVRC" netid="KO" insttype="CMG-3T" commtype="DIG" lat="38.3775" lon="39.306">
    <comp name="--.HHZ">
      <acc value="0.3646303905" flag="0"/>
      <vel value="0.1041307860" flag="0"/>
      <psa03 value="0.5103543785" flag="0"/>
      <psa10 value="0.0717104372" flag="0"/>
      <psa30 value="0.0106554702" flag="0"/>
    </comp>
  </station>
</stationlist>
