<?xml version="1.0" encoding="UTF-8" standalone="yes"?>
<!DOCTYPE earthquake SYSTEM "stationlist.dtd">
<stationlist created="" xmlns="ch.ethz.sed.shakemap.usgs.xml">
  <station code="KOSK" name="KOSK" netid="HC" source="NOA" insttype="120" lat="36.7516" lon="26.9785">
    <comp name="--.HHE">
      <acc value="0.0306411724" flag="0"/>
      <vel value="0.0106415061" flag="0"/>
      <psa03 value="0.0766734578" flag="0"/>
      <psa10 value="0.0132410067" flag="0"/>
      <psa30 value="0.0006170181" flag="0"/>
    </comp>
    <comp name="--.HHN">
      <acc value="0.0228445607" flag="0"/>
      <vel value="0.0105832180" flag="0"/>
      <psa03 value="0.0530633068" flag="0"/>
      <psa10 value="0.0098195633" flag="0"/>
      <psa30 value="0.0005757240" flag="0"/>
    </comp>
    <comp name="--.HHZ">
      <acc value="0.0307985739" flag="0"/>
      <vel value="0.0100381877" flag="0"/>
      <psa03 value="0.0393863839" flag="0"/>
      <psa10 value="0.0033267965" flag="0"/>
      <psa30 value="0.0004050830" flag="0"/>
    </comp>
  </station>
  <station code="ARG" name="ARG" netid="HL" source="NOA" insttype="LE3D20_DR24" lat="36.2136" lon="28.1212">
    <comp name="--.HHE">
      <acc value="0.2769753001" flag="0"/>
      <vel value="0.1316659541" flag="0"/>
      <psa03 value="0.5712543976" flag="0"/>
      <psa10 value="0.0620345564" flag="0"/>
      <psa30 value="0.0036521948" flag="0"/>
    </comp>
    <comp name="--.HHN">
      <acc value="0.2163300202" flag="0"/>
      <vel value="0.0639444767" flag="0"/>
      <psa03 value="0.3779928794" flag="0"/>
      <psa10 value="0.0320522062" flag="0"/>
      <psa30 value="0.0025865197" flag="0"/>
    </comp>
    <comp name="--.HHZ">
      <acc value="0.1730811794" flag="0"/>
      <vel value="0.0574481720" flag="0"/>
      <psa03 value="0.3350461515" flag="0"/>
      <psa10 value="0.0190350237" flag="0"/>
      <psa30 value="0.0011528722" flag="0"/>
    </comp>
  </station>
</stationlist>
