<stationlist created="1631873554">
	<station code="NPS1" name="NPS1" netid="HI" source="ITSAK Strong Motion Network" insttype="" lat="36.51263" lon="23.06248">
		<comp name="--.HNE" depth="0.0">
			<acc value="0.015908328" flag="0"/>
			<vel value="-0.009478" flag="0"/>
			<psa03 value="0.0552566251736" flag="0"/>
			<psa10 value="0.00580261677632" flag="0"/>
			<psa30 value="0.000343172724762" flag="0"/>
		</comp>
		<comp name="--.HNN" depth="0.0">
			<acc value="-0.015664038" flag="0"/>
			<vel value="-0.00664" flag="0"/>
			<psa03 value="0.0358385075012" flag="0"/>
			<psa10 value="0.00379727107569" flag="0"/>
			<psa30 value="0.000302009894673" flag="0"/>
		</comp>
		<comp name="--.HNZ" depth="0.0">
			<acc value="-0.015997578" flag="0"/>
			<vel value="0.005001" flag="0"/>
			<psa03 value="0.0245634714334" flag="0"/>
			<psa10 value="0.00188454174276" flag="0"/>
			<psa30 value="0.000123488490266" flag="0"/>
		</comp>
	</station>
</stationlist>
