<?xml version="1.0" encoding="UTF-8" standalone="yes"?>
<!DOCTYPE earthquake SYSTEM "stationlist.dtd">
<stationlist created="" xmlns="ch.ethz.sed.shakemap.usgs.xml">
  <station code="KTHA" name="KTHA" netid="GE" insttype="STS-2/N" lat="36.2566" lon="23.0621">
    <comp name="--.HHN">
      <acc value="0.0072490694" flag="0"/>
      <vel value="0.0029367090" flag="0"/>
      <psa03 value="0.0208235716" flag="0"/>
      <psa10 value="0.0013618049" flag="0"/>
      <psa30 value="0.0001462822" flag="0"/>
    </comp>
    <comp name="--.HHZ">
      <acc value="0.0062841527" flag="0"/>
      <vel value="0.0018492693" flag="0"/>
      <psa03 value="0.0077877339" flag="0"/>
      <psa10 value="0.0011028169" flag="0"/>
      <psa30 value="0.0001733004" flag="0"/>
    </comp>
    <comp name="--.HHE">
      <acc value="0.0130269545" flag="0"/>
      <vel value="0.0040806079" flag="0"/>
      <psa03 value="0.0210892861" flag="0"/>
      <psa10 value="0.0030981426" flag="0"/>
      <psa30 value="0.0001771636" flag="0"/>
    </comp>
  </station>
  <station code="KNDR" name="KNDR" netid="HC" insttype="60" lat="35.2348" lon="23.6248">
    <comp name="--.HHE">
      <acc value="0.0048185809" flag="0"/>
      <vel value="0.0033402569" flag="0"/>
      <psa03 value="0.0224236571" flag="0"/>
      <psa10 value="0.0025914390" flag="0"/>
      <psa30 value="0.0002140920" flag="0"/>
    </comp>
    <comp name="--.HHZ">
      <acc value="0.0039201249" flag="0"/>
      <vel value="0.0016974800" flag="0"/>
      <psa03 value="0.0129182676" flag="0"/>
      <psa10 value="0.0018715826" flag="0"/>
      <psa30 value="0.0000877423" flag="0"/>
    </comp>
    <comp name="--.HHN">
      <acc value="0.0021501255" flag="0"/>
      <vel value="0.0010754708" flag="0"/>
      <psa03 value="0.0048878424" flag="0"/>
      <psa10 value="0.0006838683" flag="0"/>
      <psa30 value="0.0000437748" flag="0"/>
    </comp>
  </station>
  <station code="ANKY" name="ANKY" netid="HL" insttype="60" lat="35.867" lon="23.3012">
    <comp name="--.HHZ">
      <acc value="0.0052214934" flag="0"/>
      <vel value="0.0020272318" flag="0"/>
      <psa03 value="0.0124498664" flag="0"/>
      <psa10 value="0.0009424268" flag="0"/>
      <psa30 value="0.0001031588" flag="0"/>
    </comp>
    <comp name="--.HHN">
      <acc value="0.0078704253" flag="0"/>
      <vel value="0.0047190958" flag="0"/>
      <psa03 value="0.0161563450" flag="0"/>
      <psa10 value="0.0026011805" flag="0"/>
      <psa30 value="0.0001457757" flag="0"/>
    </comp>
    <comp name="--.HHE">
      <acc value="0.0065453207" flag="0"/>
      <vel value="0.0029478219" flag="0"/>
      <psa03 value="0.0201255446" flag="0"/>
      <psa10 value="0.0034758349" flag="0"/>
      <psa30 value="0.0001535293" flag="0"/>
    </comp>
  </station>
  <station code="KTHA" name="KTHA" netid="HL" insttype="120" lat="36.2566" lon="23.0621">
    <comp name="--.HHE">
      <acc value="0.0126239538" flag="0"/>
      <vel value="0.0039816945" flag="0"/>
      <psa03 value="0.0205040651" flag="0"/>
      <psa10 value="0.0030636753" flag="0"/>
      <psa30 value="0.0001761764" flag="0"/>
    </comp>
    <comp name="--.HHN">
      <acc value="0.0067969952" flag="0"/>
      <vel value="0.0028577427" flag="0"/>
      <psa03 value="0.0203492478" flag="0"/>
      <psa10 value="0.0013497618" flag="0"/>
      <psa30 value="0.0001454699" flag="0"/>
    </comp>
    <comp name="--.HHZ">
      <acc value="0.0060960198" flag="0"/>
      <vel value="0.0017877355" flag="0"/>
      <psa03 value="0.0075907539" flag="0"/>
      <psa10 value="0.0010919796" flag="0"/>
      <psa30 value="0.0001727743" flag="0"/>
    </comp>
  </station>
</stationlist>
