<?xml version="1.0" encoding="UTF-8" standalone="yes"?>
<!DOCTYPE earthquake SYSTEM "stationlist.dtd">
<stationlist created="" xmlns="ch.ethz.sed.shakemap.usgs.xml">
  <station code="KHMN" name="KHMN" netid="KO" insttype="CMG-5T" lat="37.3916" lon="37.1574">
    <comp name="--.HNE">
      <acc value="0.4242838733" flag="0"/>
      <vel value="0.1573189768" flag="0"/>
      <psa03 value="1.1025751427" flag="0"/>
      <psa10 value="0.1388052807" flag="0"/>
      <psa30 value="0.0279495530" flag="0"/>
    </comp>
    <comp name="--.HNN">
      <acc value="0.4243262151" flag="0"/>
      <vel value="0.1424951398" flag="0"/>
      <psa03 value="0.5608736794" flag="0"/>
      <psa10 value="0.1007640049" flag="0"/>
      <psa30 value="0.0331875364" flag="0"/>
    </comp>
    <comp name="--.HNZ">
      <acc value="0.2936938282" flag="0"/>
      <vel value="0.0969274735" flag="0"/>
      <psa03 value="0.5209433290" flag="0"/>
      <psa10 value="0.1020061582" flag="0"/>
      <psa30 value="0.0125820999" flag="0"/>
    </comp>
  </station>
  <station code="ANDN" name="ANDN" netid="TU" insttype="T" lat="37.58" lon="36.3452">
    <comp name="--.HHN">
      <acc value="0.1681636075" flag="0"/>
      <vel value="0.0857110796" flag="0"/>
      <psa03 value="0.2870533511" flag="0"/>
      <psa10 value="0.0472398121" flag="0"/>
      <psa30 value="0.0150585945" flag="0"/>
    </comp>
    <comp name="--.HHE">
      <acc value="0.1213611422" flag="0"/>
      <vel value="0.0611515090" flag="0"/>
      <psa03 value="0.3042763355" flag="0"/>
      <psa10 value="0.0383972277" flag="0"/>
      <psa30 value="0.0065338664" flag="0"/>
    </comp>
    <comp name="--.HHZ">
      <acc value="0.0730679803" flag="0"/>
      <vel value="0.0394591936" flag="0"/>
      <psa03 value="0.1303306586" flag="0"/>
      <psa10 value="0.0630604499" flag="0"/>
      <psa30 value="0.0061831956" flag="0"/>
    </comp>
  </station>
</stationlist>
