<stationlist xmlns:esm="https://esm-db.eu/esmws/shakemap/1/" created="1781574871">
	<station code="TRIZ" name="TRIZ" netid="CL" source="Corinth Riff Laboratory (CRLNET)" insttype="" lat="38.36543" lon="22.07272" esm:processing="automatic (Paolucci et al 2011)" esm:quality="best">
		<comp name="00.HNE" depth="0.0">
			<acc value="0.00920341741963166" flag="0"/>
			<vel value="0.0163827328826997" flag="0"/>
			<psa03 value="0.0150197749342817" flag="0"/>
			<psa10 value="0.0174142017303833" flag="0"/>
			<psa30 value="0.00688949806209245" flag="0"/>
		</comp>
		<comp name="00.HNN" depth="0.0">
			<acc value="0.0153440956587375" flag="0"/>
			<vel value="0.0179825888892319" flag="0"/>
			<psa03 value="0.032051026869066" flag="0"/>
			<psa10 value="0.0219066899606929" flag="0"/>
			<psa30 value="0.0124255672995309" flag="0"/>
		</comp>
		<comp name="00.HNZ" depth="0.0">
			<acc value="0.00755587126073242" flag="0"/>
			<vel value="0.0127925600952018" flag="0"/>
			<psa03 value="0.0183936507807783" flag="0"/>
			<psa10 value="0.0137960286066842" flag="0"/>
			<psa30 value="0.00719480745401453" flag="0"/>
		</comp>
	</station>
	<station code="MMAA" name="MMAA" netid="EG" source="EUROSEISTEST Strong Motion Network" insttype="" lat="40.630855" lon="22.943725" esm:processing="automatic (Paolucci et al 2011)" esm:quality="best">
		<comp name="--.EN1" depth="0.0">
			<acc value="0.177944619783108" flag="0"/>
			<vel value="0.154947152055638" flag="0"/>
			<psa03 value="0.464810583086539" flag="0"/>
			<psa10 value="0.250548517609788" flag="0"/>
			<psa30 value="0.0197063804510005" flag="0"/>
		</comp>
		<comp name="--.EN2" depth="0.0">
			<acc value="0.271534001730306" flag="0"/>
			<vel value="0.144928198576942" flag="0"/>
			<psa03 value="0.636788892472694" flag="0"/>
			<psa10 value="0.271915993100212" flag="0"/>
			<psa30 value="0.0197117558070859" flag="0"/>
		</comp>
		<comp name="--.EN3" depth="0.0">
			<acc value="0.236008075073045" flag="0"/>
			<vel value="0.0781950799404435" flag="0"/>
			<psa03 value="0.38035840521087" flag="0"/>
			<psa10 value="0.0721748812316586" flag="0"/>
			<psa30 value="0.00877544299669433" flag="0"/>
		</comp>
	</station>
	<station code="STC" name="STC" netid="EG" source="EUROSEISTEST Strong Motion Network" insttype="" lat="40.64865" lon="23.304856" esm:processing="manual (Paolucci et al 2011)" esm:quality="best">
		<comp name="--.EN1" depth="0.0">
			<acc value="0.717388420024778" flag="0"/>
			<vel value="0.405565289211346" flag="0"/>
			<psa03 value="1.52357992969467" flag="0"/>
			<psa10 value="0.674763599778556" flag="0"/>
			<psa30 value="0.108810908188626" flag="0"/>
		</comp>
		<comp name="--.EN2" depth="0.0">
			<acc value="0.724510739795938" flag="0"/>
			<vel value="0.459827928899458" flag="0"/>
			<psa03 value="1.77016893167273" flag="0"/>
			<psa10 value="0.526086590655803" flag="0"/>
			<psa30 value="0.0449414771520949" flag="0"/>
		</comp>
		<comp name="--.EN3" depth="0.0">
			<acc value="0.529378110990828" flag="0"/>
			<vel value="0.183468696887689" flag="0"/>
			<psa03 value="0.710977348757884" flag="0"/>
			<psa10 value="0.3072697351121" flag="0"/>
			<psa30 value="0.0555303119440823" flag="0"/>
		</comp>
	</station>
	<station code="PLN1" name="PLN1" netid="HI" source="ITSAK Strong Motion Network" insttype="" lat="39.998" lon="23.575" esm:processing="manual (Paolucci et al 2011)" esm:quality="good">
		<comp name="--.HNE" depth="0.0">
			<acc value="0.822236001989587" flag="0"/>
			<vel value="0.915915460768343" flag="0"/>
			<psa03 value="1.75941455257842" flag="0"/>
			<psa10 value="1.09973761221999" flag="0"/>
			<psa30 value="0.175066743979319" flag="0"/>
		</comp>
		<comp name="--.HNN" depth="0.0">
			<acc value="0.815111651198897" flag="0"/>
			<vel value="0.663894959569622" flag="0"/>
			<psa03 value="1.93284854172858" flag="0"/>
			<psa10 value="1.30566285375775" flag="0"/>
			<psa30 value="0.16715848676262" flag="0"/>
		</comp>
		<comp name="--.HNZ" depth="0.0">
			<acc value="0.680751554508077" flag="0"/>
			<vel value="0.258151842585432" flag="0"/>
			<psa03 value="0.885067881401472" flag="0"/>
			<psa10 value="0.280171850010135" flag="0"/>
			<psa30 value="0.053024855969965" flag="0"/>
		</comp>
	</station>
	<station code="SEIS" name="SEIS" netid="HI" source="ITSAK Strong Motion Network" insttype="" lat="40.631849" lon="22.962768" esm:processing="automatic (Paolucci et al 2011)" esm:quality="best">
		<comp name="--.HNE" depth="0.0">
			<acc value="0.0726893123905452" flag="0"/>
			<vel value="0.0359978925363748" flag="0"/>
			<psa03 value="0.114977700041673" flag="0"/>
			<psa10 value="0.047523043168398" flag="0"/>
			<psa30 value="0.00918623604304475" flag="0"/>
		</comp>
		<comp name="--.HNN" depth="0.0">
			<acc value="0.0646554085311402" flag="0"/>
			<vel value="0.0633440578116838" flag="0"/>
			<psa03 value="0.0892924568535165" flag="0"/>
			<psa10 value="0.0863105051474922" flag="0"/>
			<psa30 value="0.0122755348606095" flag="0"/>
		</comp>
		<comp name="--.HNZ" depth="0.0">
			<acc value="0.0598349314528172" flag="0"/>
			<vel value="0.0306329651938067" flag="0"/>
			<psa03 value="0.0778335154634406" flag="0"/>
			<psa10 value="0.045967841394054" flag="0"/>
			<psa30 value="0.00726279695800135" flag="0"/>
		</comp>
	</station>
	<station code="SIA1" name="SIA1" netid="HI" source="ITSAK Strong Motion Network" insttype="" lat="40.257308" lon="21.553432" esm:processing="automatic (Paolucci et al 2011)" esm:quality="best">
		<comp name="--.HNE" depth="0.0">
			<acc value="0.00820167420955317" flag="0"/>
			<vel value="0.0102804413734125" flag="0"/>
			<psa03 value="0.0230502665503495" flag="0"/>
			<psa10 value="0.0244016477394211" flag="0"/>
			<psa30 value="0.00356970397537138" flag="0"/>
		</comp>
		<comp name="--.HNN" depth="0.0">
			<acc value="0.00899447582164759" flag="0"/>
			<vel value="0.0174941936480679" flag="0"/>
			<psa03 value="0.0289764612150004" flag="0"/>
			<psa10 value="0.0196690479779051" flag="0"/>
			<psa30 value="0.00733882532780792" flag="0"/>
		</comp>
		<comp name="--.HNZ" depth="0.0">
			<acc value="0.00664286418955159" flag="0"/>
			<vel value="0.0116841688058698" flag="0"/>
			<psa03 value="0.0185108655769081" flag="0"/>
			<psa10 value="0.0146623303699152" flag="0"/>
			<psa30 value="0.00602044340818025" flag="0"/>
		</comp>
	</station>
	<station code="ALNA" name="ALNA" netid="HL" source="National Observatory of Athens Seismic Network" insttype="" lat="39.14804" lon="23.86669" esm:processing="automatic (Paolucci et al 2011)" esm:quality="best">
		<comp name="00.HNE" depth="0.0">
			<acc value="0.0956500230970452" flag="0"/>
			<vel value="0.121450613861471" flag="0"/>
			<psa03 value="0.254681850589554" flag="0"/>
			<psa10 value="0.211969021907226" flag="0"/>
			<psa30 value="0.023691379437597" flag="0"/>
		</comp>
		<comp name="00.HNN" depth="0.0">
			<acc value="0.095117808181861" flag="0"/>
			<vel value="0.114743351140522" flag="0"/>
			<psa03 value="0.148158043909803" flag="0"/>
			<psa10 value="0.285724827867493" flag="0"/>
			<psa30 value="0.0232240734808834" flag="0"/>
		</comp>
		<comp name="00.HNZ" depth="0.0">
			<acc value="0.0758691429978521" flag="0"/>
			<vel value="0.0889671741716962" flag="0"/>
			<psa03 value="0.160509882991896" flag="0"/>
			<psa10 value="0.162098698243224" flag="0"/>
			<psa30 value="0.0140212655066928" flag="0"/>
		</comp>
	</station>
	<station code="GINA" name="GINA" netid="HL" source="National Observatory of Athens Seismic Network" insttype="" lat="39.66886" lon="22.389" esm:processing="automatic (Paolucci et al 2011)" esm:quality="best">
		<comp name="00.HNE" depth="0.0">
			<acc value="0.0678111569685977" flag="0"/>
			<vel value="0.121253014311085" flag="0"/>
			<psa03 value="0.141312121651355" flag="0"/>
			<psa10 value="0.150778888361296" flag="0"/>
			<psa30 value="0.0433369075240966" flag="0"/>
		</comp>
		<comp name="00.HNN" depth="0.0">
			<acc value="0.118982024371053" flag="0"/>
			<vel value="0.180772548110984" flag="0"/>
			<psa03 value="0.225386972447345" flag="0"/>
			<psa10 value="0.229460480630875" flag="0"/>
			<psa30 value="0.0799434758627451" flag="0"/>
		</comp>
		<comp name="00.HNZ" depth="0.0">
			<acc value="0.0429124584162624" flag="0"/>
			<vel value="0.0602496825422804" flag="0"/>
			<psa03 value="0.0667177322224582" flag="0"/>
			<psa10 value="0.103611286239216" flag="0"/>
			<psa30 value="0.0257740257360356" flag="0"/>
		</comp>
	</station>
	<station code="KARA" name="KARA" netid="HL" source="National Observatory of Athens Seismic Network" insttype="" lat="38.01581" lon="24.42014" esm:processing="automatic (Paolucci et al 2011)" esm:quality="best">
		<comp name="00.HNE" depth="0.0">
			<acc value="0.0192630518265874" flag="0"/>
			<vel value="0.0274131828139776" flag="0"/>
			<psa03 value="0.0594139619252192" flag="0"/>
			<psa10 value="0.0484086755873476" flag="0"/>
			<psa30 value="0.0135422471073882" flag="0"/>
		</comp>
		<comp name="00.HNN" depth="0.0">
			<acc value="0.0142971243986588" flag="0"/>
			<vel value="0.0163470773113125" flag="0"/>
			<psa03 value="0.0394822561306796" flag="0"/>
			<psa10 value="0.0202523334926822" flag="0"/>
			<psa30 value="0.0064192885797012" flag="0"/>
		</comp>
		<comp name="00.HNZ" depth="0.0">
			<acc value="0.0138219074064515" flag="0"/>
			<vel value="0.0268540929968367" flag="0"/>
			<psa03 value="0.0323668082046928" flag="0"/>
			<psa10 value="0.0548808355859482" flag="0"/>
			<psa30 value="0.00865288737799074" flag="0"/>
		</comp>
	</station>
	<station code="LIA" name="LIA" netid="HL" source="National Observatory of Athens Seismic Network" insttype="" lat="39.89725" lon="25.18055" esm:processing="automatic (Paolucci et al 2011)" esm:quality="best">
		<comp name="00.HNE" depth="0.0">
			<acc value="0.363019400147886" flag="0"/>
			<vel value="0.213183824087885" flag="0"/>
			<psa03 value="0.768741508687099" flag="0"/>
			<psa10 value="0.163602157840152" flag="0"/>
			<psa30 value="0.014708204346332" flag="0"/>
		</comp>
		<comp name="00.HNN" depth="0.0">
			<acc value="0.454832276619768" flag="0"/>
			<vel value="0.295011082346863" flag="0"/>
			<psa03 value="1.43536758605838" flag="0"/>
			<psa10 value="0.378742419826569" flag="0"/>
			<psa30 value="0.0288425573445295" flag="0"/>
		</comp>
		<comp name="00.HNZ" depth="0.0">
			<acc value="0.281872178835812" flag="0"/>
			<vel value="0.192466340376497" flag="0"/>
			<psa03 value="0.779000104933426" flag="0"/>
			<psa10 value="0.140573682316577" flag="0"/>
			<psa30 value="0.0112984576340544" flag="0"/>
		</comp>
	</station>
	<station code="NGRA" name="NGRA" netid="HL" source="National Observatory of Athens Seismic Network" insttype="" lat="40.90747" lon="23.49933" esm:processing="manual (Paolucci et al 2011)" esm:quality="best">
		<comp name="00.HNE" depth="0.0">
			<acc value="0.482702395116393" flag="0"/>
			<vel value="0.312405168614463" flag="0"/>
			<psa03 value="1.01502715723361" flag="0"/>
			<psa10 value="0.567944943563435" flag="0"/>
			<psa30 value="0.0723011695977621" flag="0"/>
		</comp>
		<comp name="00.HNN" depth="0.0">
			<acc value="0.352350261577204" flag="0"/>
			<vel value="0.201121809716407" flag="0"/>
			<psa03 value="1.48471318829475" flag="0"/>
			<psa10 value="0.294538211711111" flag="0"/>
			<psa30 value="0.0264052475514054" flag="0"/>
		</comp>
		<comp name="00.HNZ" depth="0.0">
			<acc value="0.294423509343936" flag="0"/>
			<vel value="0.165759000362381" flag="0"/>
			<psa03 value="0.57610895605588" flag="0"/>
			<psa10 value="0.452183294924316" flag="0"/>
			<psa30 value="0.0204256264308493" flag="0"/>
		</comp>
	</station>
	<station code="OREA" name="OREA" netid="HL" source="National Observatory of Athens Seismic Network" insttype="" lat="40.72705" lon="22.91452" esm:processing="automatic (Paolucci et al 2011)" esm:quality="best">
		<comp name="00.HNE" depth="0.0">
			<acc value="0.120299190704522" flag="0"/>
			<vel value="0.0769296378810583" flag="0"/>
			<psa03 value="0.372490634009796" flag="0"/>
			<psa10 value="0.0510431838605145" flag="0"/>
			<psa30 value="0.0305873029253868" flag="0"/>
		</comp>
		<comp name="00.HNN" depth="0.0">
			<acc value="0.15040935358744" flag="0"/>
			<vel value="0.0772619332655679" flag="0"/>
			<psa03 value="0.44056368518212" flag="0"/>
			<psa10 value="0.0671060754480298" flag="0"/>
			<psa30 value="0.00832083121423499" flag="0"/>
		</comp>
		<comp name="00.HNZ" depth="0.0">
			<acc value="0.0818853585434226" flag="0"/>
			<vel value="0.0407011963773674" flag="0"/>
			<psa03 value="0.175399161000201" flag="0"/>
			<psa10 value="0.0552461285348921" flag="0"/>
			<psa30 value="0.0176166553502916" flag="0"/>
		</comp>
	</station>
	<station code="PLG" name="PLG" netid="HL" source="National Observatory of Athens Seismic Network" insttype="" lat="40.37328" lon="23.44443" esm:processing="manual (Paolucci et al 2011)" esm:quality="good">
		<comp name="--.HNE" depth="0.0">
			<acc value="0.695752072151598" flag="0"/>
			<vel value="0.163922563051033" flag="0"/>
			<psa03 value="0.859998970709381" flag="0"/>
			<psa10 value="0.110873972356409" flag="0"/>
			<psa30 value="0.0247266613532749" flag="0"/>
		</comp>
		<comp name="--.HNN" depth="0.0">
			<acc value="0.607624941886821" flag="0"/>
			<vel value="0.242305879794372" flag="0"/>
			<psa03 value="0.6509414133412" flag="0"/>
			<psa10 value="0.225758400386095" flag="0"/>
			<psa30 value="0.0313609008390987" flag="0"/>
		</comp>
		<comp name="--.HNZ" depth="0.0">
			<acc value="0.465726040357533" flag="0"/>
			<vel value="0.118030371942496" flag="0"/>
			<psa03 value="0.7989525100151" flag="0"/>
			<psa10 value="0.114137078521326" flag="0"/>
			<psa30 value="0.0187839260095964" flag="0"/>
		</comp>
	</station>
	<station code="VERA" name="VERA" netid="HL" source="National Observatory of Athens Seismic Network" insttype="" lat="40.48601" lon="22.32151" esm:processing="automatic (Paolucci et al 2011)" esm:quality="best">
		<comp name="00.HNE" depth="0.0">
			<acc value="0.0654606514748756" flag="0"/>
			<vel value="0.0716376481441205" flag="0"/>
			<psa03 value="0.177272618441132" flag="0"/>
			<psa10 value="0.104396775774231" flag="0"/>
			<psa30 value="0.039135289187513" flag="0"/>
		</comp>
		<comp name="00.HNN" depth="0.0">
			<acc value="0.0627940617341152" flag="0"/>
			<vel value="0.0523632810857672" flag="0"/>
			<psa03 value="0.120150751064444" flag="0"/>
			<psa10 value="0.139785260087501" flag="0"/>
			<psa30 value="0.0225921699537012" flag="0"/>
		</comp>
		<comp name="00.HNZ" depth="0.0">
			<acc value="0.0702487951612892" flag="0"/>
			<vel value="0.0534141496506308" flag="0"/>
			<psa03 value="0.178385650507352" flag="0"/>
			<psa10 value="0.114225599385193" flag="0"/>
			<psa30 value="0.0140719271961047" flag="0"/>
		</comp>
	</station>
	<station code="DSF" name="DSF" netid="HP" source="University of Patras, Seismological Laboratory (PSLNET)" insttype="" lat="38.4112" lon="22.5271" esm:processing="automatic (Paolucci et al 2011)" esm:quality="best">
		<comp name="--.HNE" depth="1.0">
			<acc value="0.0104476075171512" flag="0"/>
			<vel value="0.0133657749698561" flag="0"/>
			<psa03 value="0.0207048950351734" flag="0"/>
			<psa10 value="0.0198029693495407" flag="0"/>
			<psa30 value="0.00431795479331439" flag="0"/>
		</comp>
		<comp name="--.HNN" depth="1.0">
			<acc value="0.0129174487323127" flag="0"/>
			<vel value="0.0123813108831526" flag="0"/>
			<psa03 value="0.0334992321805696" flag="0"/>
			<psa10 value="0.0181845721386676" flag="0"/>
			<psa30 value="0.0033104042980388" flag="0"/>
		</comp>
		<comp name="--.HNZ" depth="1.0">
			<acc value="0.00817906483589523" flag="0"/>
			<vel value="0.0113663286047176" flag="0"/>
			<psa03 value="0.018098110369319" flag="0"/>
			<psa10 value="0.0123973003228123" flag="0"/>
			<psa30 value="0.00502632630279166" flag="0"/>
		</comp>
	</station>
	<station code="EFP" name="EFP" netid="HP" source="University of Patras, Seismological Laboratory (PSLNET)" insttype="" lat="38.4269" lon="21.9058" esm:processing="manual (Paolucci et al 2011)" esm:quality="good">
		<comp name="--.HNE" depth="0.0">
			<acc value="0.0102707348611427" flag="0"/>
			<vel value="0.0190756877849228" flag="0"/>
			<psa03 value="0.0182279119367966" flag="0"/>
			<psa10 value="0.0318692211794787" flag="0"/>
			<psa30 value="0.00772070312537541" flag="0"/>
		</comp>
		<comp name="--.HNN" depth="0.0">
			<acc value="0.0120190646600906" flag="0"/>
			<vel value="0.0224736840486406" flag="0"/>
			<psa03 value="0.0204090473117337" flag="0"/>
			<psa10 value="0.0222667081851365" flag="0"/>
			<psa30 value="0.0105070860428778" flag="0"/>
		</comp>
		<comp name="--.HNZ" depth="0.0">
			<acc value="0.0105172103197469" flag="0"/>
			<vel value="0.0170386592228081" flag="0"/>
			<psa03 value="0.0186113930696828" flag="0"/>
			<psa10 value="0.0208466316120291" flag="0"/>
			<psa30 value="0.00574345589242045" flag="0"/>
		</comp>
	</station>
	<station code="GUR" name="GUR" netid="HP" source="University of Patras, Seismological Laboratory (PSLNET)" insttype="" lat="37.9363" lon="22.3423" esm:processing="manual (Paolucci et al 2011)" esm:quality="bad">
		<comp name="--.HNE" depth="0.0">
			<acc value="0.010239118315498" flag="0"/>
			<vel value="0.0103769757895066" flag="0"/>
			<psa03 value="0.0327751946332965" flag="0"/>
			<psa10 value="0.0148472326187864" flag="0"/>
			<psa30 value="0.00358969279953095" flag="0"/>
		</comp>
		<comp name="--.HNN" depth="0.0">
			<acc value="0.014902570853935" flag="0"/>
			<vel value="0.0141674735955988" flag="0"/>
			<psa03 value="0.0402026892725433" flag="0"/>
			<psa10 value="0.0189804498616411" flag="0"/>
			<psa30 value="0.00395303061887666" flag="0"/>
		</comp>
		<comp name="--.HNZ" depth="0.0">
			<acc value="0.00680401904261746" flag="0"/>
			<vel value="0.0096228506172069" flag="0"/>
			<psa03 value="0.0198822311627592" flag="0"/>
			<psa10 value="0.0149017152905227" flag="0"/>
			<psa30 value="0.00423369296137971" flag="0"/>
		</comp>
	</station>
	<station code="LTK" name="LTK" netid="HP" source="University of Patras, Seismological Laboratory (PSLNET)" insttype="" lat="38.0228" lon="22.9673" esm:processing="manual (Paolucci et al 2011)" esm:quality="good">
		<comp name="--.HNE" depth="0.0">
			<acc value="0.0126528872410034" flag="0"/>
			<vel value="0.0322574523229422" flag="0"/>
			<psa03 value="0.0220103200548465" flag="0"/>
			<psa10 value="0.0283424256715884" flag="0"/>
			<psa30 value="0.0153448981908412" flag="0"/>
		</comp>
		<comp name="--.HNN" depth="0.0">
			<acc value="0.0134830991028788" flag="0"/>
			<vel value="0.0240104467097059" flag="0"/>
			<psa03 value="0.028339208062618" flag="0"/>
			<psa10 value="0.0263411262203192" flag="0"/>
			<psa30 value="0.008729629128412" flag="0"/>
		</comp>
		<comp name="--.HNZ" depth="0.0">
			<acc value="0.0070958193322149" flag="0"/>
			<vel value="0.0188335996226668" flag="0"/>
			<psa03 value="0.0191072905037939" flag="0"/>
			<psa10 value="0.0193638358840768" flag="0"/>
			<psa30 value="0.00592217439832791" flag="0"/>
		</comp>
	</station>
	<station code="PVO" name="PVO" netid="HP" source="University of Patras, Seismological Laboratory (PSLNET)" insttype="" lat="38.616" lon="21.525" esm:processing="manual (Paolucci et al 2011)" esm:quality="good">
		<comp name="--.HNE" depth="0.0">
			<acc value="0.00880118498680169" flag="0"/>
			<vel value="0.0274254177864827" flag="0"/>
			<psa03 value="0.0167830128339175" flag="0"/>
			<psa10 value="0.019147045272766" flag="0"/>
			<psa30 value="0.0111078058376214" flag="0"/>
		</comp>
		<comp name="--.HNN" depth="0.0">
			<acc value="0.00884869917500223" flag="0"/>
			<vel value="0.0461644849114023" flag="0"/>
			<psa03 value="0.0185365052962607" flag="0"/>
			<psa10 value="0.020767900771498" flag="0"/>
			<psa30 value="0.0112691290245076" flag="0"/>
		</comp>
		<comp name="--.HNZ" depth="0.0">
			<acc value="0.00631911269100465" flag="0"/>
			<vel value="0.0183697916487898" flag="0"/>
