<stationlist created="1779846966">
	<station code="ELND" name="ELND" netid="BS" source="National Seismic Network of Bulgaria (BS)" insttype="" lat="42.9287" lon="25.8751">
		<comp name="--.HNE" depth="0.0">
			<acc value="0.0140373952906167" flag="0"/>
			<vel value="0.0185832962672321" flag="0"/>
			<psa03 value="0.0302296926729559" flag="0"/>
			<psa10 value="0.0271884160991142" flag="0"/>
			<psa30 value="0.00474470598016898" flag="0"/>
		</comp>
		<comp name="--.HNN" depth="0.0">
			<acc value="0.0142841166274201" flag="0"/>
			<vel value="0.0222482161682814" flag="0"/>
			<psa03 value="0.0336284126131111" flag="0"/>
			<psa10 value="0.0233494949144301" flag="0"/>
			<psa30 value="0.00444768630405789" flag="0"/>
		</comp>
		<comp name="--.HNZ" depth="0.0">
			<acc value="0.0219264245006074" flag="0"/>
			<vel value="0.0161090917359996" flag="0"/>
			<psa03 value="0.0180456329346313" flag="0"/>
			<psa10 value="0.0238685161720501" flag="0"/>
			<psa30 value="0.0043806001932624" flag="0"/>
		</comp>
	</station>
	<station code="JMB" name="JMB" netid="BS" source="National Seismic Network of Bulgaria (BS)" insttype="" lat="42.4911" lon="26.5296">
		<comp name="--.HNE" depth="0.0">
			<acc value="12.4044375431619" flag="0"/>
			<vel value="57.4827333342721" flag="0"/>
			<psa03 value="17.8719452619884" flag="0"/>
			<psa10 value="25.1522166109239" flag="0"/>
			<psa30 value="25.2786077037066" flag="0"/>
		</comp>
		<comp name="--.HNN" depth="0.0">
			<acc value="8.26589236421199" flag="0"/>
			<vel value="36.9525063599717" flag="0"/>
			<psa03 value="17.4119427890814" flag="0"/>
			<psa10 value="24.3236990056996" flag="0"/>
			<psa30 value="15.9561682711931" flag="0"/>
		</comp>
		<comp name="--.HNZ" depth="0.0">
			<acc value="9.56289598097968" flag="0"/>
			<vel value="25.8000827455588" flag="0"/>
			<psa03 value="13.6320203877647" flag="0"/>
			<psa10 value="31.0827406790067" flag="0"/>
			<psa30 value="11.0294453132698" flag="0"/>
		</comp>
	</station>
	<station code="PLNA" name="PLNA" netid="BS" source="National Seismic Network of Bulgaria (BS)" insttype="" lat="42.4762" lon="23.4256">
		<comp name="--.HNE" depth="0.0">
			<acc value="0.426059603766656" flag="0"/>
			<vel value="0.337611389826883" flag="0"/>
			<psa03 value="1.7503449517619" flag="0"/>
			<psa10 value="0.399780653506221" flag="0"/>
			<psa30 value="0.0300215721151381" flag="0"/>
		</comp>
		<comp name="--.HNN" depth="0.0">
			<acc value="0.461418731949644" flag="0"/>
			<vel value="0.297944003045806" flag="0"/>
			<psa03 value="1.16942138509229" flag="0"/>
			<psa10 value="0.209002380382166" flag="0"/>
			<psa30 value="0.0246231094935049" flag="0"/>
		</comp>
		<comp name="--.HNZ" depth="0.0">
			<acc value="0.262066426745902" flag="0"/>
			<vel value="0.233819824501459" flag="0"/>
			<psa03 value="0.706016603466544" flag="0"/>
			<psa10 value="0.271977047144683" flag="0"/>
			<psa30 value="0.0191575690949519" flag="0"/>
		</comp>
	</station>
	<station code="PVL" name="PVL" netid="BS" source="National Seismic Network of Bulgaria (BS)" insttype="" lat="43.1227" lon="25.173201">
		<comp name="--.HNE" depth="0.0">
			<acc value="0.0167440520917229" flag="0"/>
			<vel value="0.0197428854668026" flag="0"/>
			<psa03 value="0.0283103051062641" flag="0"/>
			<psa10 value="0.0513059900198858" flag="0"/>
			<psa30 value="0.00710601740546268" flag="0"/>
		</comp>
		<comp name="--.HNN" depth="0.0">
			<acc value="0.0139557543891766" flag="0"/>
			<vel value="0.0225865873964336" flag="0"/>
			<psa03 value="0.0458747837711511" flag="0"/>
			<psa10 value="0.0279638305915328" flag="0"/>
			<psa30 value="0.00817871513307902" flag="0"/>
		</comp>
		<comp name="--.HNZ" depth="0.0">
			<acc value="0.013936647587944" flag="0"/>
			<vel value="0.0297734304777095" flag="0"/>
			<psa03 value="0.0244921250872727" flag="0"/>
			<psa10 value="0.0350506394328528" flag="0"/>
			<psa30 value="0.014826920544072" flag="0"/>
		</comp>
	</station>
	<station code="TRAN" name="TRAN" netid="BS" source="National Seismic Network of Bulgaria (BS)" insttype="" lat="42.834599" lon="22.651199">
		<comp name="--.HNE" depth="0.0">
			<acc value="0.0299048395914575" flag="0"/>
			<vel value="0.042868744882991" flag="0"/>
			<psa03 value="0.160516612604554" flag="0"/>
			<psa10 value="0.0374141510038756" flag="0"/>
			<psa30 value="0.00713325754330009" flag="0"/>
		</comp>
		<comp name="--.HNN" depth="0.0">
			<acc value="0.0316896346037065" flag="0"/>
			<vel value="0.0361070960564177" flag="0"/>
			<psa03 value="0.109369401435998" flag="0"/>
			<psa10 value="0.0292272949148362" flag="0"/>
			<psa30 value="0.00390240184830168" flag="0"/>
		</comp>
		<comp name="--.HNZ" depth="0.0">
			<acc value="0.0254800219696471" flag="0"/>
			<vel value="0.0147844630363062" flag="0"/>
			<psa03 value="0.0318264911613581" flag="0"/>
			<psa10 value="0.0183402768283223" flag="0"/>
			<psa30 value="0.00474720989601836" flag="0"/>
		</comp>
	</station>
	<station code="VETAM" name="VETAM" netid="BS" source="National Seismic Network of Bulgaria (BS)" insttype="" lat="43.0805" lon="25.6367">
		<comp name="--.HNE" depth="0.0">
			<acc value="0.0120666861516159" flag="0"/>
			<vel value="0.0225681340285384" flag="0"/>
			<psa03 value="0.0528130923583751" flag="0"/>
			<psa10 value="0.0202189300298752" flag="0"/>
			<psa30 value="0.00515247340942685" flag="0"/>
		</comp>
		<comp name="--.HNN" depth="0.0">
			<acc value="0.0183103492732278" flag="0"/>
			<vel value="0.0210296749605537" flag="0"/>
			<psa03 value="0.0358981306791566" flag="0"/>
			<psa10 value="0.0501088769671035" flag="0"/>
			<psa30 value="0.00590708214855385" flag="0"/>
		</comp>
		<comp name="--.HNZ" depth="0.0">
			<acc value="0.0120790776788537" flag="0"/>
			<vel value="0.0187655680352101" flag="0"/>
			<psa03 value="0.032778916233981" flag="0"/>
			<psa10 value="0.0387363235913362" flag="0"/>
			<psa30 value="0.00901878911718284" flag="0"/>
		</comp>
	</station>
	<station code="AGRP" name="AGRP" netid="CL" source="Corinth Riff Laboratory (CRLNET)" insttype="" lat="38.3959" lon="21.72277">
		<comp name="00.HNE" depth="0.0">
			<acc value="0.0118097599089403" flag="0"/>
			<vel value="0.0198619447037014" flag="0"/>
			<psa03 value="0.0159005832835021" flag="0"/>
			<psa10 value="0.0291681516218952" flag="0"/>
			<psa30 value="0.00762474176838559" flag="0"/>
		</comp>
		<comp name="00.HNN" depth="0.0">
			<acc value="0.0093371400202677" flag="0"/>
			<vel value="0.0148819522838991" flag="0"/>
			<psa03 value="0.0160633622960209" flag="0"/>
			<psa10 value="0.0234486908606752" flag="0"/>
			<psa30 value="0.00627296346972944" flag="0"/>
		</comp>
		<comp name="00.HNZ" depth="0.0">
			<acc value="0.00908719543420596" flag="0"/>
			<vel value="0.0125428849023884" flag="0"/>
			<psa03 value="0.0146261121372974" flag="0"/>
			<psa10 value="0.0129219694545466" flag="0"/>
			<psa30 value="0.00362979837299547" flag="0"/>
		</comp>
	</station>
	<station code="MALA" name="MALA" netid="CL" source="Corinth Riff Laboratory (CRLNET)" insttype="" lat="38.39341" lon="21.87263">
		<comp name="01.HNE" depth="0.0">
			<acc value="0.0266601796543217" flag="0"/>
			<vel value="0.0500853290143871" flag="0"/>
			<psa03 value="0.0381143764528749" flag="0"/>
			<psa10 value="0.0865525011785626" flag="0"/>
			<psa30 value="0.0298792326858531" flag="0"/>
		</comp>
		<comp name="01.HNN" depth="0.0">
			<acc value="0.0196190038663301" flag="0"/>
			<vel value="0.0402746981745014" flag="0"/>
			<psa03 value="0.040767791811966" flag="0"/>
			<psa10 value="0.0730883892472413" flag="0"/>
			<psa30 value="0.01424761050096" flag="0"/>
		</comp>
		<comp name="01.HNZ" depth="0.0">
			<acc value="0.0111218844992203" flag="0"/>
			<vel value="0.0177223644435654" flag="0"/>
			<psa03 value="0.0178376712414901" flag="0"/>
			<psa10 value="0.0178039312980681" flag="0"/>
			<psa30 value="0.00771315179180203" flag="0"/>
		</comp>
	</station>
	<station code="TRIZ" name="TRIZ" netid="CL" source="Corinth Riff Laboratory (CRLNET)" insttype="" lat="38.36543" lon="22.07272">
		<comp name="00.HNE" depth="0.0">
			<acc value="0.00920341741963166" flag="0"/>
			<vel value="0.0163827328826997" flag="0"/>
			<psa03 value="0.0150197749342817" flag="0"/>
			<psa10 value="0.0174142017303833" flag="0"/>
			<psa30 value="0.00688949806209245" flag="0"/>
		</comp>
		<comp name="00.HNN" depth="0.0">
			<acc value="0.0153440956587375" flag="0"/>
			<vel value="0.0179825888892319" flag="0"/>
			<psa03 value="0.032051026869066" flag="0"/>
			<psa10 value="0.0219066899606929" flag="0"/>
			<psa30 value="0.0124255672995309" flag="0"/>
		</comp>
		<comp name="00.HNZ" depth="0.0">
			<acc value="0.00755587126073242" flag="0"/>
			<vel value="0.0127925600952018" flag="0"/>
			<psa03 value="0.0183936507807783" flag="0"/>
			<psa10 value="0.0137960286066842" flag="0"/>
			<psa30 value="0.00719480745401453" flag="0"/>
		</comp>
	</station>
	<station code="MMAA" name="MMAA" netid="EG" source="EUROSEISTEST Strong Motion Network" insttype="" lat="40.630855" lon="22.943725">
		<comp name="--.EN1" depth="0.0">
			<acc value="0.177944619783108" flag="0"/>
			<vel value="0.154947152055638" flag="0"/>
			<psa03 value="0.464810583086539" flag="0"/>
			<psa10 value="0.250548517609788" flag="0"/>
			<psa30 value="0.0197063804510005" flag="0"/>
		</comp>
		<comp name="--.EN2" depth="0.0">
			<acc value="0.271534001730306" flag="0"/>
			<vel value="0.144928198576942" flag="0"/>
			<psa03 value="0.636788892472694" flag="0"/>
			<psa10 value="0.271915993100212" flag="0"/>
			<psa30 value="0.0197117558070859" flag="0"/>
		</comp>
		<comp name="--.EN3" depth="0.0">
			<acc value="0.236008075073045" flag="0"/>
			<vel value="0.0781950799404435" flag="0"/>
			<psa03 value="0.38035840521087" flag="0"/>
			<psa10 value="0.0721748812316586" flag="0"/>
			<psa30 value="0.00877544299669433" flag="0"/>
		</comp>
	</station>
	<station code="STC" name="STC" netid="EG" source="EUROSEISTEST Strong Motion Network" insttype="" lat="40.64865" lon="23.304856">
		<comp name="--.EN1" depth="0.0">
			<acc value="0.717388420024778" flag="0"/>
			<vel value="0.405565289211346" flag="0"/>
			<psa03 value="1.52357992969467" flag="0"/>
			<psa10 value="0.674763599778556" flag="0"/>
			<psa30 value="0.108810908188626" flag="0"/>
		</comp>
		<comp name="--.EN2" depth="0.0">
			<acc value="0.724510739795938" flag="0"/>
			<vel value="0.459827928899458" flag="0"/>
			<psa03 value="1.77016893167273" flag="0"/>
			<psa10 value="0.526086590655803" flag="0"/>
			<psa30 value="0.0449414771520949" flag="0"/>
		</comp>
		<comp name="--.EN3" depth="0.0">
			<acc value="0.529378110990828" flag="0"/>
			<vel value="0.183468696887689" flag="0"/>
			<psa03 value="0.710977348757884" flag="0"/>
			<psa10 value="0.3072697351121" flag="0"/>
			<psa30 value="0.0555303119440823" flag="0"/>
		</comp>
	</station>
	<station code="ATHU" name="ATHU" netid="HA" source="Hellenic Seismological Network, University of Athens, Seismological Laboratory (HA)" insttype="" lat="37.9665" lon="23.7845">
		<comp name="--.HNE" depth="0.0">
			<acc value="0.000403663774542405" flag="0"/>
			<vel value="0.000805027410702517" flag="0"/>
			<psa03 value="0.00105735235234745" flag="0"/>
			<psa10 value="0.00081329856453993" flag="0"/>
			<psa30 value="0.000462952387071795" flag="0"/>
		</comp>
		<comp name="--.HNN" depth="0.0">
			<acc value="0.000387338966217612" flag="0"/>
			<vel value="0.000794469856547469" flag="0"/>
			<psa03 value="0.001296648640751" flag="0"/>
			<psa10 value="0.000843414407222101" flag="0"/>
			<psa30 value="0.000349626259982171" flag="0"/>
		</comp>
		<comp name="--.HNZ" depth="0.0">
			<acc value="0.000457670543481884" flag="0"/>
			<vel value="0.00106587710294032" flag="0"/>
			<psa03 value="0.00145569343775276" flag="0"/>
			<psa10 value="0.00148242363297696" flag="0"/>
			<psa30 value="0.000441578835764073" flag="0"/>
		</comp>
	</station>
	<station code="KIAS" name="KIAS" netid="HA" source="Hellenic Seismological Network, University of Athens, Seismological Laboratory (HA)" insttype="" lat="37.9875" lon="22.7543">
		<comp name="--.HNE" depth="0.0">
			<acc value="0.0175090285409583" flag="0"/>
			<vel value="0.0485804187725439" flag="0"/>
			<psa03 value="0.0414057064665088" flag="0"/>
			<psa10 value="0.0582372066791763" flag="0"/>
			<psa30 value="0.0249278596817136" flag="0"/>
		</comp>
		<comp name="--.HNN" depth="0.0">
			<acc value="0.0232917124932078" flag="0"/>
			<vel value="0.0642580673250571" flag="0"/>
			<psa03 value="0.0355997645596788" flag="0"/>
			<psa10 value="0.0540555034116855" flag="0"/>
			<psa30 value="0.0375306228862369" flag="0"/>
		</comp>
		<comp name="--.HNZ" depth="0.0">
			<acc value="0.0129033262713951" flag="0"/>
			<vel value="0.0362118033315931" flag="0"/>
			<psa03 value="0.0310422152485857" flag="0"/>
			<psa10 value="0.031274594913415" flag="0"/>
			<psa30 value="0.0232363776293137" flag="0"/>
		</comp>
	</station>
	<station code="MSL1" name="MSL1" netid="HI" source="ITSAK Strong Motion Network" insttype="" lat="38.3727" lon="21.4243">
		<comp name="--.HNE" depth="0.0">
			<acc value="0.0272448323542024" flag="0"/>
			<vel value="0.0713989799206099" flag="0"/>
			<psa03 value="0.0356846009088257" flag="0"/>
			<psa10 value="0.075761356318104" flag="0"/>
			<psa30 value="0.0210249811351419" flag="0"/>
		</comp>
		<comp name="--.HNN" depth="0.0">
			<acc value="0.0379499971850168" flag="0"/>
			<vel value="0.0569467736730217" flag="0"/>
			<psa03 value="0.0514578619560203" flag="0"/>
			<psa10 value="0.081104687787684" flag="0"/>
			<psa30 value="0.0184520540246733" flag="0"/>
		</comp>
		<comp name="--.HNZ" depth="0.0">
			<acc value="0.0139476124085652" flag="0"/>
			<vel value="0.0207198563143584" flag="0"/>
			<psa03 value="0.022316092914956" flag="0"/>
			<psa10 value="0.0450442452102832" flag="0"/>
			<psa30 value="0.00570069805993573" flag="0"/>
		</comp>
	</station>
	<station code="MYT1" name="MYT1" netid="HI" source="ITSAK Strong Motion Network" insttype="" lat="39.085" lon="26.5694">
		<comp name="--.HNE" depth="0.0">
			<acc value="0.0405640019261163" flag="0"/>
			<vel value="0.0418882077484953" flag="0"/>
			<psa03 value="0.101715050623132" flag="0"/>
			<psa10 value="0.0926913053441162" flag="0"/>
			<psa30 value="0.00807534411857885" flag="0"/>
		</comp>
		<comp name="--.HNN" depth="0.0">
			<acc value="0.044978908000685" flag="0"/>
			<vel value="0.0829465896078112" flag="0"/>
			<psa03 value="0.120547996129781" flag="0"/>
			<psa10 value="0.107377225714354" flag="0"/>
			<psa30 value="0.011154063902012" flag="0"/>
		</comp>
		<comp name="--.HNZ" depth="0.0">
			<acc value="0.0358495944936274" flag="0"/>
			<vel value="0.0545464801200626" flag="0"/>
			<psa03 value="0.0861716303224309" flag="0"/>
			<psa10 value="0.0806548754896035" flag="0"/>
			<psa30 value="0.0102005107337534" flag="0"/>
		</comp>
	</station>
	<station code="NMA1" name="NMA1" netid="HI" source="ITSAK Strong Motion Network" insttype="" lat="37.81873" lon="22.662702">
		<comp name="--.HNE" depth="0.0">
			<acc value="0.0126859520317382" flag="0"/>
			<vel value="0.0298241260986988" flag="0"/>
			<psa03 value="0.0356610003870825" flag="0"/>
			<psa10 value="0.0308677548372699" flag="0"/>
			<psa30 value="0.0158415527584787" flag="0"/>
		</comp>
		<comp name="--.HNN" depth="0.0">
			<acc value="0.0132984546272333" flag="0"/>
			<vel value="0.0252517448584514" flag="0"/>
			<psa03 value="0.0473741122605903" flag="0"/>
			<psa10 value="0.0290109224562377" flag="0"/>
			<psa30 value="0.0168416856790031" flag="0"/>
		</comp>
		<comp name="--.HNZ" depth="0.0">
			<acc value="0.00815547657630714" flag="0"/>
			<vel value="0.0180397831919475" flag="0"/>
			<psa03 value="0.0156975294676121" flag="0"/>
			<psa10 value="0.018548278732439" flag="0"/>
			<psa30 value="0.00923068398750782" flag="0"/>
		</comp>
	</station>
	<station code="PAT5" name="PAT5" netid="HI" source="ITSAK Strong Motion Network" insttype="" lat="38.29595" lon="21.795083">
		<comp name="--.HNE" depth="0.0">
			<acc value="0.0158941354239948" flag="0"/>
			<vel value="0.0191016411253798" flag="0"/>
			<psa03 value="0.0150238897901931" flag="0"/>
			<psa10 value="0.0173853435686784" flag="0"/>
			<psa30 value="0.00905314555980549" flag="0"/>
		</comp>
		<comp name="--.HNN" depth="0.0">
			<acc value="0.0125706747036615" flag="0"/>
			<vel value="0.0303169546425998" flag="0"/>
			<psa03 value="0.0184990522943318" flag="0"/>
			<psa10 value="0.0165872400732505" flag="0"/>
			<psa30 value="0.0134091957934005" flag="0"/>
		</comp>
		<comp name="--.HNZ" depth="0.0">
			<acc value="0.0158263788025111" flag="0"/>
			<vel value="0.0187102304077435" flag="0"/>
			<psa03 value="0.0134399658525957" flag="0"/>
			<psa10 value="0.014860040654744" flag="0"/>
			<psa30 value="0.0130909730460711" flag="0"/>
		</comp>
	</station>
	<station code="PER1" name="PER1" netid="HI" source="ITSAK Strong Motion Network" insttype="" lat="38.0119" lon="23.7027">
		<comp name="--.HNE" depth="0.0">
			<acc value="0.0126809269928649" flag="0"/>
			<vel value="0.0248047480164562" flag="0"/>
			<psa03 value="0.0338600008713602" flag="0"/>
			<psa10 value="0.0342310301377476" flag="0"/>
			<psa30 value="0.0200813502909238" flag="0"/>
		</comp>
		<comp name="--.HNN" depth="0.0">
			<acc value="0.0175928312753128" flag="0"/>
			<vel value="0.0280674106983133" flag="0"/>
			<psa03 value="0.0652996434891037" flag="0"/>
			<psa10 value="0.0275517007899754" flag="0"/>
			<psa30 value="0.0109572575312141" flag="0"/>
		</comp>
		<comp name="--.HNZ" depth="0.0">
			<acc value="0.00856950026761393" flag="0"/>
			<vel value="0.0173118953600935" flag="0"/>
			<psa03 value="0.0198090179793938" flag="0"/>
			<psa10 value="0.0210084529568854" flag="0"/>
			<psa30 value="0.0110240019526993" flag="0"/>
		</comp>
	</station>
	<station code="PIR1" name="PIR1" netid="HI" source="ITSAK Strong Motion Network" insttype="" lat="37.93723" lon="23.642595">
		<comp name="--.HNE" depth="0.0">
			<acc value="0.0249465664482952" flag="0"/>
			<vel value="0.0325890121102457" flag="0"/>
			<psa03 value="0.0544800725792032" flag="0"/>
			<psa10 value="0.0476711217280422" flag="0"/>
			<psa30 value="0.0123363572231343" flag="0"/>
		</comp>
		<comp name="--.HNN" depth="0.0">
			<acc value="0.0273326715269745" flag="0"/>
			<vel value="0.0457333352631832" flag="0"/>
			<psa03 value="0.0544769473718646" flag="0"/>
			<psa10 value="0.0995714361188608" flag="0"/>
			<psa30 value="0.0144343328703668" flag="0"/>
		</comp>
		<comp name="--.HNZ" depth="0.0">
			<acc value="0.0163110675621134" flag="0"/>
			<vel value="0.017831140958817" flag="0"/>
			<psa03 value="0.035355644221255" flag="0"/>
			<psa10 value="0.0303530088628862" flag="0"/>
			<psa30 value="0.00709094974063632" flag="0"/>
		</comp>
	</station>
	<station code="PIR2" name="PIR2" netid="HI" source="ITSAK Strong Motion Network" insttype="" lat="37.9458" lon="23.6709">
		<comp name="--.HNE" depth="0.0">
			<acc value="0.0858575364448045" flag="0"/>
			<vel value="0.0765621144359697" flag="0"/>
			<psa03 value="0.169014894323984" flag="0"/>
			<psa10 value="0.0954238938646426" flag="0"/>
			<psa30 value="0.0209934723811759" flag="0"/>
		</comp>
		<comp name="--.HNN" depth="0.0">
			<acc value="0.0807857050007792" flag="0"/>
			<vel value="0.0745912099151332" flag="0"/>
			<psa03 value="0.220087663061074" flag="0"/>
			<psa10 value="0.109815817259081" flag="0"/>
			<psa30 value="0.0207825450749391" flag="0"/>
		</comp>
		<comp name="--.HNZ" depth="0.0">
			<acc value="0.047353492605821" flag="0"/>
			<vel value="0.0236833407979347" flag="0"/>
			<psa03 value="0.060777526212766" flag="0"/>
			<psa10 value="0.0242458267920238" flag="0"/>
			<psa30 value="0.00948234649222954" flag="0"/>
		</comp>
	</station>
	<station code="PIR3" name="PIR3" netid="HI" source="ITSAK Strong Motion Network" insttype="" lat="37.9573" lon="23.6519">
		<comp name="--.HNE" depth="0.0">
			<acc value="0.0199850394888487" flag="0"/>
