<?xml version="1.0" encoding="UTF-8" standalone="yes"?>
<!DOCTYPE earthquake SYSTEM "stationlist.dtd">
<stationlist created="" xmlns="ch.ethz.sed.shakemap.usgs.xml">
  <station code="MMB" name="MMB" netid="BS" insttype="STS-2" commtype="DIG" lat="41.5469" lon="23.7495">
    <comp name="--.HHE">
      <acc value="0.0853496328" flag="0"/>
      <vel value="0.0789178816" flag="0"/>
      <psa03 value="0.2086835461" flag="0"/>
      <psa10 value="0.1114559046" flag="0"/>
      <psa30 value="0.0281408826" flag="0"/>
    </comp>
    <comp name="--.HHN">
      <acc value="0.0873483458" flag="0"/>
      <vel value="0.0543172286" flag="0"/>
      <psa03 value="0.1721318921" flag="0"/>
      <psa10 value="0.1097405616" flag="0"/>
      <psa30 value="0.0173755664" flag="0"/>
    </comp>
    <comp name="--.HHZ">
      <acc value="0.0780660497" flag="0"/>
      <vel value="0.0719316814" flag="0"/>
      <psa03 value="0.1222694853" flag="0"/>
      <psa10 value="0.1019590101" flag="0"/>
      <psa30 value="0.0094782267" flag="0"/>
    </comp>
  </station>
  <station code="RZN" name="RZN" netid="BS" insttype="CMG40T" commtype="DIG" lat="41.6942" lon="24.7388">
    <comp name="--.HHE">
      <acc value="0.0706212486" flag="0"/>
      <vel value="0.0388191721" flag="0"/>
      <psa03 value="0.2210665605" flag="0"/>
      <psa10 value="0.0378112508" flag="0"/>
      <psa30 value="0.0092212633" flag="0"/>
    </comp>
    <comp name="--.HHN">
      <acc value="0.0683980982" flag="0"/>
      <vel value="0.0360835169" flag="0"/>
      <psa03 value="0.1503854558" flag="0"/>
      <psa10 value="0.0614358991" flag="0"/>
      <psa30 value="0.0148411280" flag="0"/>
    </comp>
    <comp name="--.HHZ">
      <acc value="0.0412468765" flag="0"/>
      <vel value="0.0365865920" flag="0"/>
      <psa03 value="0.1318616442" flag="0"/>
      <psa10 value="0.0359795252" flag="0"/>
      <psa30 value="0.0110151955" flag="0"/>
    </comp>
  </station>
  <station code="PLA1" name="PLA1" netid="HI" insttype="unknown" commtype="DIG" lat="40.5559" lon="22.9886">
    <comp name="--.HNN">
      <acc value="0.1666307789" flag="0"/>
      <vel value="0.1558053667" flag="0"/>
      <psa03 value="0.4374569892" flag="0"/>
      <psa10 value="0.1746981405" flag="0"/>
      <psa30 value="0.0611142905" flag="0"/>
    </comp>
    <comp name="--.HNE">
      <acc value="0.1622338135" flag="0"/>
      <vel value="0.1817072350" flag="0"/>
      <psa03 value="0.5416134791" flag="0"/>
      <psa10 value="0.3156540201" flag="0"/>
      <psa30 value="0.0556193267" flag="0"/>
    </comp>
    <comp name="--.HNZ">
      <acc value="0.1302624971" flag="0"/>
      <vel value="0.0822510947" flag="0"/>
      <psa03 value="0.2252095077" flag="0"/>
      <psa10 value="0.1623419139" flag="0"/>
      <psa30 value="0.0196052838" flag="0"/>
    </comp>
  </station>
  <station code="PLN1" name="PLN1" netid="HI" insttype="CMG-5TD,ACCELEROMETER,GURALP" commtype="DIG" lat="39.998" lon="23.575">
    <comp name="--.HNZ">
      <acc value="0.6882268629" flag="0"/>
      <vel value="0.2648855972" flag="0"/>
      <psa03 value="0.8739098250" flag="0"/>
      <psa10 value="0.2796313304" flag="0"/>
      <psa30 value="0.0517539393" flag="0"/>
    </comp>
    <comp name="--.HNN">
      <acc value="0.8120784868" flag="0"/>
      <vel value="0.6519693094" flag="0"/>
      <psa03 value="1.9373601669" flag="0"/>
      <psa10 value="1.3049374813" flag="0"/>
      <psa30 value="0.1662125906" flag="0"/>
    </comp>
    <comp name="--.HNE">
      <acc value="0.8219861957" flag="0"/>
      <vel value="0.8926677665" flag="0"/>
      <psa03 value="1.8034942409" flag="0"/>
      <psa10 value="1.0933916451" flag="0"/>
      <psa30 value="0.1743047244" flag="0"/>
    </comp>
  </station>
  <station code="SEIS" name="SEIS" netid="HI" insttype="unknown" commtype="DIG" lat="40.6318" lon="22.9628">
    <comp name="--.HNE">
      <acc value="0.0752716452" flag="0"/>
      <vel value="0.0354255436" flag="0"/>
      <psa03 value="0.1160835359" flag="0"/>
      <psa10 value="0.0474706434" flag="0"/>
      <psa30 value="0.0090768229" flag="0"/>
    </comp>
    <comp name="--.HNN">
      <acc value="0.0666640231" flag="0"/>
      <vel value="0.0605189681" flag="0"/>
      <psa03 value="0.0885629165" flag="0"/>
      <psa10 value="0.0859036449" flag="0"/>
      <psa30 value="0.0118943040" flag="0"/>
    </comp>
    <comp name="--.HNZ">
      <acc value="0.0594636162" flag="0"/>
      <vel value="0.0302637787" flag="0"/>
      <psa03 value="0.0775324965" flag="0"/>
      <psa10 value="0.0461548778" flag="0"/>
      <psa30 value="0.0072463296" flag="0"/>
    </comp>
  </station>
  <station code="SKY1" name="SKY1" netid="HI" insttype="CMG-5TD,ACCELEROMETER,GURALP" commtype="DIG" lat="38.9045" lon="24.5646">
    <comp name="--.HNZ">
      <acc value="0.0637553889" flag="0"/>
      <vel value="0.0449512701" flag="0"/>
      <psa03 value="0.2375803207" flag="0"/>
      <psa10 value="0.0660253094" flag="0"/>
      <psa30 value="0.0104577807" flag="0"/>
    </comp>
    <comp name="--.HNN">
      <acc value="0.1788015309" flag="0"/>
      <vel value="0.1667311723" flag="0"/>
      <psa03 value="0.5974570017" flag="0"/>
      <psa10 value="0.1626401371" flag="0"/>
      <psa30 value="0.0169049682" flag="0"/>
    </comp>
    <comp name="--.HNE">
      <acc value="0.1354751991" flag="0"/>
      <vel value="0.1036079561" flag="0"/>
      <psa03 value="0.6669802235" flag="0"/>
      <psa10 value="0.1662416196" flag="0"/>
      <psa30 value="0.0191349321" flag="0"/>
    </comp>
  </station>
  <station code="STL1" name="STL1" netid="HI" insttype="unknown" commtype="DIG" lat="40.6624" lon="22.9353">
    <comp name="--.HNE">
      <acc value="0.1909163202" flag="0"/>
      <vel value="0.0908478413" flag="0"/>
      <psa03 value="0.5596998302" flag="0"/>
      <psa10 value="0.0650718269" flag="0"/>
      <psa30 value="0.0092410534" flag="0"/>
    </comp>
    <comp name="--.HNN">
      <acc value="0.1502930347" flag="0"/>
      <vel value="0.0903193020" flag="0"/>
      <psa03 value="0.5195519344" flag="0"/>
      <psa10 value="0.0942068165" flag="0"/>
      <psa30 value="0.0159129473" flag="0"/>
    </comp>
    <comp name="--.HNZ">
      <acc value="0.0946682275" flag="0"/>
      <vel value="0.0415076214" flag="0"/>
      <psa03 value="0.1368792899" flag="0"/>
      <psa10 value="0.0331922562" flag="0"/>
      <psa30 value="0.0080783524" flag="0"/>
    </comp>
  </station>
  <station code="VOL2" name="VOL2" netid="HI" insttype="CMG-5TD,ACCELEROMETER,GURALP" commtype="DIG" lat="39.366" lon="22.9506">
    <comp name="--.HNN">
      <acc value="0.1014487813" flag="0"/>
      <vel value="0.1088549937" flag="0"/>
      <psa03 value="0.2662474575" flag="0"/>
      <psa10 value="0.1347739711" flag="0"/>
      <psa30 value="0.0312853702" flag="0"/>
    </comp>
    <comp name="--.HNE">
      <acc value="0.1170687785" flag="0"/>
      <vel value="0.1145778297" flag="0"/>
      <psa03 value="0.3492716264" flag="0"/>
      <psa10 value="0.1918801691" flag="0"/>
      <psa30 value="0.0151213636" flag="0"/>
    </comp>
    <comp name="--.HNZ">
      <acc value="0.0613857485" flag="0"/>
      <vel value="0.0404296360" flag="0"/>
      <psa03 value="0.1165762025" flag="0"/>
      <psa10 value="0.0495943715" flag="0"/>
      <psa30 value="0.0143934341" flag="0"/>
    </comp>
  </station>
  <station code="VOL3" name="VOL3" netid="HI" insttype="unknown" commtype="DIG" lat="39.374" lon="22.9354">
    <comp name="--.HNN">
      <acc value="0.1342709256" flag="0"/>
      <vel value="0.1235366080" flag="0"/>
      <psa03 value="0.3216896537" flag="0"/>
      <psa10 value="0.1467105756" flag="0"/>
      <psa30 value="0.0290975184" flag="0"/>
    </comp>
    <comp name="--.HNZ">
      <acc value="0.0511988865" flag="0"/>
      <vel value="0.0429936649" flag="0"/>
      <psa03 value="0.1519106316" flag="0"/>
      <psa10 value="0.0650722691" flag="0"/>
      <psa30 value="0.0133416017" flag="0"/>
    </comp>
    <comp name="--.HNE">
      <acc value="0.1436708183" flag="0"/>
      <vel value="0.1119072340" flag="0"/>
      <psa03 value="0.2499561172" flag="0"/>
      <psa10 value="0.1373991113" flag="0"/>
      <psa30 value="0.0174960966" flag="0"/>
    </comp>
  </station>
  <station code="AGXA" name="AGXA" netid="HL" insttype="CMG-5" commtype="DIG" lat="39.2765" lon="22.82">
    <comp name="00.HNE">
      <acc value="0.2120479919" flag="0"/>
      <vel value="0.1381745842" flag="0"/>
      <psa03 value="0.7053123834" flag="0"/>
      <psa10 value="0.3324598432" flag="0"/>
      <psa30 value="0.0293334491" flag="0"/>
    </comp>
    <comp name="00.HNZ">
      <acc value="0.0600252870" flag="0"/>
      <vel value="0.0848329811" flag="0"/>
      <psa03 value="0.2228500343" flag="0"/>
      <psa10 value="0.1240628908" flag="0"/>
      <psa30 value="0.0150890587" flag="0"/>
    </comp>
    <comp name="00.HNN">
      <acc value="0.1771761020" flag="0"/>
      <vel value="0.2271662214" flag="0"/>
      <psa03 value="0.3782766063" flag="0"/>
      <psa10 value="0.2892382452" flag="0"/>
      <psa30 value="0.0241224905" flag="0"/>
    </comp>
  </station>
  <station code="ALNA" name="ALNA" netid="HL" insttype="CMG-5" commtype="DIG" lat="39.148" lon="23.8667">
    <comp name="00.HNN">
      <acc value="0.0956210775" flag="0"/>
      <vel value="0.1163372853" flag="0"/>
      <psa03 value="0.1486796691" flag="0"/>
      <psa10 value="0.2857673935" flag="0"/>
      <psa30 value="0.0230669503" flag="0"/>
    </comp>
    <comp name="00.HNE">
      <acc value="0.0964134312" flag="0"/>
      <vel value="0.1166529619" flag="0"/>
      <psa03 value="0.2547622904" flag="0"/>
      <psa10 value="0.2118987106" flag="0"/>
      <psa30 value="0.0233096506" flag="0"/>
    </comp>
    <comp name="00.HNZ">
      <acc value="0.0780539242" flag="0"/>
      <vel value="0.0837067883" flag="0"/>
      <psa03 value="0.1608196610" flag="0"/>
      <psa10 value="0.1620465869" flag="0"/>
      <psa30 value="0.0139812396" flag="0"/>
    </comp>
  </station>
  <station code="EFSA" name="EFSA" netid="HL" insttype="CMG-5" commtype="DIG" lat="39.5401" lon="24.9886">
    <comp name="00.HNN">
      <acc value="0.2556730100" flag="0"/>
      <vel value="0.2681356191" flag="0"/>
      <psa03 value="0.7598376968" flag="0"/>
      <psa10 value="0.2122204254" flag="0"/>
      <psa30 value="0.0486503121" flag="0"/>
    </comp>
    <comp name="00.HNE">
      <acc value="0.4315652112" flag="0"/>
      <vel value="0.5833387289" flag="0"/>
      <psa03 value="1.1583293134" flag="0"/>
      <psa10 value="0.5566106984" flag="0"/>
      <psa30 value="0.1186261924" flag="0"/>
    </comp>
    <comp name="00.HNZ">
      <acc value="0.3065683772" flag="0"/>
      <vel value="0.1804638292" flag="0"/>
      <psa03 value="1.1333279400" flag="0"/>
      <psa10 value="0.1656634535" flag="0"/>
      <psa30 value="0.0233451686" flag="0"/>
    </comp>
  </station>
  <station code="GINA" name="GINA" netid="HL" insttype="CMG-5" commtype="DIG" lat="39.6689" lon="22.389">
    <comp name="00.HNE">
      <acc value="0.0681571787" flag="0"/>
      <vel value="0.1193157682" flag="0"/>
      <psa03 value="0.1410248594" flag="0"/>
      <psa10 value="0.1509536419" flag="0"/>
      <psa30 value="0.0433039466" flag="0"/>
    </comp>
    <comp name="00.HNZ">
      <acc value="0.0429456748" flag="0"/>
      <vel value="0.0591506211" flag="0"/>
      <psa03 value="0.0663087940" flag="0"/>
      <psa10 value="0.1034805424" flag="0"/>
      <psa30 value="0.0258076319" flag="0"/>
    </comp>
    <comp name="00.HNN">
      <acc value="0.1198415954" flag="0"/>
      <vel value="0.1689625837" flag="0"/>
      <psa03 value="0.2259345732" flag="0"/>
      <psa10 value="0.2293309976" flag="0"/>
      <psa30 value="0.0796218516" flag="0"/>
    </comp>
  </station>
  <station code="KOMA" name="KOMA" netid="HL" insttype="CMG-5" commtype="DIG" lat="41.1128" lon="25.3965">
    <comp name="00.HNE">
      <acc value="0.4207524834" flag="0"/>
      <vel value="0.5049054791" flag="0"/>
      <psa03 value="1.0602573350" flag="0"/>
      <psa10 value="0.8644335217" flag="0"/>
      <psa30 value="0.0672068751" flag="0"/>
    </comp>
    <comp name="00.HNZ">
      <acc value="0.1847103671" flag="0"/>
      <vel value="0.1616733588" flag="0"/>
      <psa03 value="0.3752228692" flag="0"/>
      <psa10 value="0.2745316612" flag="0"/>
      <psa30 value="0.0633659918" flag="0"/>
    </comp>
    <comp name="00.HNN">
      <acc value="0.3876403536" flag="0"/>
      <vel value="0.3211149647" flag="0"/>
      <psa03 value="0.9007188791" flag="0"/>
      <psa10 value="0.6079361413" flag="0"/>
      <psa30 value="0.0647630392" flag="0"/>
    </comp>
  </station>
  <station code="LARA" name="LARA" netid="HL" insttype="CMG-5" commtype="DIG" lat="39.637" lon="22.4297">
    <comp name="00.HNE">
      <acc value="0.1233837471" flag="0"/>
      <vel value="0.2423347799" flag="0"/>
      <psa03 value="0.2109449989" flag="0"/>
      <psa10 value="0.3243019600" flag="0"/>
      <psa30 value="0.1125369229" flag="0"/>
    </comp>
    <comp name="00.HNN">
      <acc value="0.1686229704" flag="0"/>
      <vel value="0.2808360420" flag="0"/>
      <psa03 value="0.2603217434" flag="0"/>
      <psa10 value="0.4067846564" flag="0"/>
      <psa30 value="0.1231775411" flag="0"/>
    </comp>
    <comp name="00.HNZ">
      <acc value="0.0447405314" flag="0"/>
      <vel value="0.0915632958" flag="0"/>
      <psa03 value="0.0888435547" flag="0"/>
      <psa10 value="0.1705046066" flag="0"/>
      <psa30 value="0.0671397941" flag="0"/>
    </comp>
  </station>
  <station code="LIA" name="LIA" netid="HL" insttype="60s" commtype="DIG" lat="39.8972" lon="25.1806">
    <comp name="--.HHE">
      <acc value="0.2964349970" flag="0"/>
      <vel value="0.1953749603" flag="0"/>
      <psa03 value="0.6851145628" flag="0"/>
      <psa10 value="0.2237633475" flag="0"/>
      <psa30 value="0.0191524605" flag="0"/>
    </comp>
    <comp name="--.HHN">
      <acc value="0.5083947772" flag="0"/>
      <vel value="0.3327703446" flag="0"/>
      <psa03 value="1.5776809898" flag="0"/>
      <psa10 value="0.3523758365" flag="0"/>
      <psa30 value="0.0291296743" flag="0"/>
    </comp>
    <comp name="--.HHZ">
      <acc value="0.2966113473" flag="0"/>
      <vel value="0.1973784228" flag="0"/>
      <psa03 value="0.8238683220" flag="0"/>
      <psa10 value="0.1482060588" flag="0"/>
      <psa30 value="0.0113330341" flag="0"/>
    </comp>
  </station>
  <station code="NEO" name="NEO" netid="HL" insttype="120" commtype="DIG" lat="39.3057" lon="23.2219">
    <comp name="--.HHE">
      <acc value="0.0990323198" flag="0"/>
      <vel value="0.0756068945" flag="0"/>
      <psa03 value="0.2434804330" flag="0"/>
      <psa10 value="0.0855644514" flag="0"/>
      <psa30 value="0.0183704250" flag="0"/>
    </comp>
    <comp name="--.HHN">
      <acc value="0.1103323285" flag="0"/>
      <vel value="0.1080589692" flag="0"/>
      <psa03 value="0.2797994461" flag="0"/>
      <psa10 value="0.1427452285" flag="0"/>
      <psa30 value="0.0305532164" flag="0"/>
    </comp>
    <comp name="--.HHZ">
      <acc value="0.0720831207" flag="0"/>
      <vel value="0.0740434996" flag="0"/>
      <psa03 value="0.1433040601" flag="0"/>
      <psa10 value="0.0993201105" flag="0"/>
      <psa30 value="0.0161800856" flag="0"/>
    </comp>
  </station>
  <station code="NGRA" name="NGRA" netid="HL" insttype="CMG-5" commtype="DIG" lat="40.9075" lon="23.4993">
    <comp name="00.HNE">
      <acc value="0.4795715693" flag="0"/>
      <vel value="0.3187146468" flag="0"/>
      <psa03 value="1.0168602172" flag="0"/>
      <psa10 value="0.5650666134" flag="0"/>
      <psa30 value="0.0693785842" flag="0"/>
    </comp>
    <comp name="00.HNN">
      <acc value="0.3519140311" flag="0"/>
      <vel value="0.1939703983" flag="0"/>
      <psa03 value="1.4849386438" flag="0"/>
      <psa10 value="0.2947808326" flag="0"/>
      <psa30 value="0.0268533624" flag="0"/>
    </comp>
    <comp name="00.HNZ">
      <acc value="0.2939747395" flag="0"/>
      <vel value="0.1667529723" flag="0"/>
      <psa03 value="0.5755411952" flag="0"/>
      <psa10 value="0.4520663488" flag="0"/>
      <psa30 value="0.0201325800" flag="0"/>
    </comp>
  </station>
  <station code="PLG" name="PLG" netid="HL" insttype="120" commtype="DIG" lat="40.3733" lon="23.4444">
    <comp name="--.HHE">
      <acc value="0.7679976723" flag="0"/>
      <vel value="0.1754270802" flag="0"/>
      <psa03 value="0.9004765487" flag="0"/>
      <psa10 value="0.1172802032" flag="0"/>
      <psa30 value="0.0254488361" flag="0"/>
    </comp>
    <comp name="--.HHN">
      <acc value="0.6440857666" flag="0"/>
      <vel value="0.2556057490" flag="0"/>
      <psa03 value="0.6712537166" flag="0"/>
      <psa10 value="0.2361958081" flag="0"/>
      <psa30 value="0.0322668501" flag="0"/>
    </comp>
    <comp name="--.HHZ">
      <acc value="0.5055977470" flag="0"/>
      <vel value="0.1189047653" flag="0"/>
      <psa03 value="0.8297870640" flag="0"/>
      <psa10 value="0.1219662752" flag="0"/>
      <psa30 value="0.0188115195" flag="0"/>
    </comp>
  </station>
  <station code="PRAS" name="PRAS" netid="HL" insttype="120" commtype="DIG" lat="41.3524" lon="24.55">
    <comp name="--.HHN">
      <acc value="0.1886592636" flag="0"/>
      <vel value="0.0832629146" flag="0"/>
      <psa03 value="0.5024604272" flag="0"/>
      <psa10 value="0.0696821119" flag="0"/>
      <psa30 value="0.0127038319" flag="0"/>
    </comp>
    <comp name="--.HHE">
      <acc value="0.1268698505" flag="0"/>
      <vel value="0.0779835010" flag="0"/>
      <psa03 value="0.2233962969" flag="0"/>
      <psa10 value="0.1234704351" flag="0"/>
      <psa30 value="0.0128222133" flag="0"/>
    </comp>
    <comp name="--.HHZ">
      <acc value="0.0856830446" flag="0"/>
      <vel value="0.0740595729" flag="0"/>
      <psa03 value="0.2152803840" flag="0"/>
      <psa10 value="0.1046000876" flag="0"/>
      <psa30 value="0.0266641554" flag="0"/>
    </comp>
  </station>
  <station code="RDO" name="RDO" netid="HL" insttype="120" commtype="DIG" lat="41.145" lon="25.5355">
    <comp name="--.HHE">
      <acc value="0.1259182277" flag="0"/>
      <vel value="0.0560494744" flag="0"/>
      <psa03 value="0.1893271568" flag="0"/>
      <psa10 value="0.0604997230" flag="0"/>
      <psa30 value="0.0140232611" flag="0"/>
    </comp>
    <comp name="--.HHN">
      <acc value="0.1833060593" flag="0"/>
      <vel value="0.0815674002" flag="0"/>
      <psa03 value="0.1879111945" flag="0"/>
      <psa10 value="0.1208653461" flag="0"/>
      <psa30 value="0.0114843438" flag="0"/>
    </comp>
    <comp name="--.HHZ">
      <acc value="0.0867728652" flag="0"/>
      <vel value="0.0454237832" flag="0"/>
      <psa03 value="0.1379449857" flag="0"/>
      <psa10 value="0.0721876157" flag="0"/>
      <psa30 value="0.0110470842" flag="0"/>
    </comp>
  </station>
  <station code="VERA" name="VERA" netid="HL" insttype="CMG-5" commtype="DIG" lat="40.486" lon="22.3215">
    <comp name="00.HNN">
      <acc value="0.0627091609" flag="0"/>
      <vel value="0.0504558005" flag="0"/>
      <psa03 value="0.1206074555" flag="0"/>
      <psa10 value="0.1395902753" flag="0"/>
      <psa30 value="0.0227251733" flag="0"/>
    </comp>
    <comp name="00.HNZ">
      <acc value="0.0712266229" flag="0"/>
      <vel value="0.0510804194" flag="0"/>
      <psa03 value="0.1786658222" flag="0"/>
      <psa10 value="0.1141446708" flag="0"/>
      <psa30 value="0.0140578554" flag="0"/>
    </comp>
    <comp name="00.HNE">
      <acc value="0.0658513807" flag="0"/>
      <vel value="0.0734199257" flag="0"/>
      <psa03 value="0.1772812788" flag="0"/>
      <psa10 value="0.1041331761" flag="0"/>
      <psa30 value="0.0390534140" flag="0"/>
    </comp>
  </station>
  <station code="VAY" name="VAY" netid="MK" insttype="120" commtype="DIG" lat="41.3216" lon="22.5646">
