<?xml version="1.0" encoding="UTF-8" standalone="yes"?>
<!DOCTYPE earthquake SYSTEM "stationlist.dtd">
<stationlist created="" xmlns="ch.ethz.sed.shakemap.usgs.xml">
  <station code="MMB" name="MMB" netid="BS" insttype="STS-2" commtype="DIG" lat="41.5469" lon="23.7495">
    <comp name="--.HHE">
      <acc value="0.0853496328" flag="0"/>
      <vel value="0.0789178813" flag="0"/>
      <psa03 value="0.2086835461" flag="0"/>
      <psa10 value="0.1114559046" flag="0"/>
      <psa30 value="0.0281408823" flag="0"/>
    </comp>
    <comp name="--.HHN">
      <acc value="0.0873483458" flag="0"/>
      <vel value="0.0543172288" flag="0"/>
      <psa03 value="0.1721318921" flag="0"/>
      <psa10 value="0.1097405616" flag="0"/>
      <psa30 value="0.0173755664" flag="0"/>
    </comp>
    <comp name="--.HHZ">
      <acc value="0.0780660497" flag="0"/>
      <vel value="0.0719316812" flag="0"/>
      <psa03 value="0.1222694853" flag="0"/>
      <psa10 value="0.1019590101" flag="0"/>
      <psa30 value="0.0094782252" flag="0"/>
    </comp>
  </station>
  <station code="RZN" name="RZN" netid="BS" insttype="CMG40T" commtype="DIG" lat="41.6942" lon="24.7388">
    <comp name="--.HHN">
      <acc value="0.0683980982" flag="0"/>
      <vel value="0.0360835157" flag="0"/>
      <psa03 value="0.1503854558" flag="0"/>
      <psa10 value="0.0614358991" flag="0"/>
      <psa30 value="0.0148411279" flag="0"/>
    </comp>
    <comp name="--.HHE">
      <acc value="0.0706212486" flag="0"/>
      <vel value="0.0388191738" flag="0"/>
      <psa03 value="0.2210665605" flag="0"/>
      <psa10 value="0.0378112508" flag="0"/>
      <psa30 value="0.0092212633" flag="0"/>
    </comp>
    <comp name="--.HHZ">
      <acc value="0.0412468765" flag="0"/>
      <vel value="0.0365865910" flag="0"/>
      <psa03 value="0.1318616442" flag="0"/>
      <psa10 value="0.0359795252" flag="0"/>
      <psa30 value="0.0110151959" flag="0"/>
    </comp>
  </station>
</stationlist>
