<?xml version="1.0" encoding="UTF-8" standalone="yes"?>
<!DOCTYPE earthquake SYSTEM "stationlist.dtd">
<stationlist created="" xmlns="ch.ethz.sed.shakemap.usgs.xml">
  <station code="BALB" name="BALB" netid="KO" insttype="CMG-5T" commtype="DIG" lat="39.6507" lon="27.8642">
    <comp name="--.HNN">
      <acc value="0.1697561712" flag="0"/>
      <vel value="0.0541341011" flag="0"/>
      <psa03 value="0.3761679680" flag="0"/>
      <psa10 value="0.0548617289" flag="0"/>
      <psa30 value="0.0041235124" flag="0"/>
    </comp>
    <comp name="--.HNE">
      <acc value="0.1649685103" flag="0"/>
      <vel value="0.0562407943" flag="0"/>
      <psa03 value="0.4146876442" flag="0"/>
      <psa10 value="0.0468752203" flag="0"/>
      <psa30 value="0.0042462233" flag="0"/>
    </comp>
    <comp name="--.HNZ">
      <acc value="0.0879044709" flag="0"/>
      <vel value="0.0326512232" flag="0"/>
      <psa03 value="0.1372836662" flag="0"/>
      <psa10 value="0.0333336234" flag="0"/>
      <psa30 value="0.0028657406" flag="0"/>
    </comp>
  </station>
  <station code="DST" name="DST" netid="KO" insttype="CMG-5T" commtype="DIG" lat="39.6041" lon="28.6267">
    <comp name="--.HNN">
      <acc value="0.0721667098" flag="0"/>
      <vel value="0.0239300569" flag="0"/>
      <psa03 value="0.1631850289" flag="0"/>
      <psa10 value="0.0122962899" flag="0"/>
      <psa30 value="0.0022939107" flag="0"/>
    </comp>
    <comp name="--.HNE">
      <acc value="0.0810538588" flag="0"/>
      <vel value="0.0261494098" flag="0"/>
      <psa03 value="0.1531134827" flag="0"/>
      <psa10 value="0.0144151600" flag="0"/>
      <psa30 value="0.0019703126" flag="0"/>
    </comp>
    <comp name="--.HNZ">
      <acc value="0.0595265030" flag="0"/>
      <vel value="0.0196611489" flag="0"/>
      <psa03 value="0.1249799830" flag="0"/>
      <psa10 value="0.0104068598" flag="0"/>
      <psa30 value="0.0018564442" flag="0"/>
    </comp>
  </station>
  <station code="GOMA" name="GOMA" netid="KO" insttype="CMG-5T" commtype="DIG" lat="38.7077" lon="27.9175">
    <comp name="--.HNE">
      <acc value="0.1532445424" flag="0"/>
      <vel value="0.0784281732" flag="0"/>
      <psa03 value="0.2590519662" flag="0"/>
      <psa10 value="0.0347476558" flag="0"/>
      <psa30 value="0.0023308046" flag="0"/>
    </comp>
    <comp name="--.HNZ">
      <acc value="0.0838502498" flag="0"/>
      <vel value="0.0320107286" flag="0"/>
      <psa03 value="0.1488714167" flag="0"/>
      <psa10 value="0.0117824608" flag="0"/>
      <psa30 value="0.0025520757" flag="0"/>
    </comp>
    <comp name="--.HNN">
      <acc value="0.1138044141" flag="0"/>
      <vel value="0.0681241223" flag="0"/>
      <psa03 value="0.2081257050" flag="0"/>
      <psa10 value="0.0360262314" flag="0"/>
      <psa30 value="0.0035213342" flag="0"/>
    </comp>
  </station>
  <station code="GORD" name="GORD" netid="KO" insttype="CMG-5T" commtype="DIG" lat="38.9088" lon="28.1769">
    <comp name="--.HNE">
      <acc value="0.0772494516" flag="0"/>
      <vel value="0.0493236289" flag="0"/>
      <psa03 value="0.1644889134" flag="0"/>
      <psa10 value="0.0849408832" flag="0"/>
      <psa30 value="0.0057714291" flag="0"/>
    </comp>
    <comp name="--.HNZ">
      <acc value="0.0870983172" flag="0"/>
      <vel value="0.0423572064" flag="0"/>
      <psa03 value="0.1369804791" flag="0"/>
      <psa10 value="0.0346637929" flag="0"/>
      <psa30 value="0.0077722327" flag="0"/>
    </comp>
  </station>
  <station code="KULA" name="KULA" netid="KO" insttype="CMG-3T" commtype="DIG" lat="38.5145" lon="28.6607">
    <comp name="--.HHE">
      <acc value="0.0399706928" flag="0"/>
      <vel value="0.0146224869" flag="0"/>
      <psa03 value="0.0556022772" flag="0"/>
      <psa10 value="0.0164990407" flag="0"/>
      <psa30 value="0.0010549307" flag="0"/>
    </comp>
    <comp name="--.HHN">
      <acc value="0.0380778678" flag="0"/>
      <vel value="0.0105222500" flag="0"/>
      <psa03 value="0.0375889751" flag="0"/>
      <psa10 value="0.0084226986" flag="0"/>
      <psa30 value="0.0011370522" flag="0"/>
    </comp>
  </station>
  <station code="SHAP" name="SHAP" netid="KO" insttype="CMG-5T" commtype="DIG" lat="39.0231" lon="29.222">
    <comp name="--.HNZ">
      <acc value="0.0435448054" flag="0"/>
      <vel value="0.0094557888" flag="0"/>
      <psa03 value="0.0356262507" flag="0"/>
      <psa10 value="0.0088398797" flag="0"/>
      <psa30 value="0.0007094223" flag="0"/>
    </comp>
    <comp name="--.HNN">
      <acc value="0.0756398877" flag="0"/>
      <vel value="0.0237309832" flag="0"/>
      <psa03 value="0.1126796738" flag="0"/>
      <psa10 value="0.0139998264" flag="0"/>
      <psa30 value="0.0011911644" flag="0"/>
    </comp>
    <comp name="--.HNE">
      <acc value="0.0900697546" flag="0"/>
      <vel value="0.0216266869" flag="0"/>
      <psa03 value="0.1852293878" flag="0"/>
      <psa10 value="0.0120890968" flag="0"/>
      <psa30 value="0.0012874736" flag="0"/>
    </comp>
  </station>
  <station code="SMAA" name="SMAA" netid="KO" insttype="CMG-5T" commtype="DIG" lat="39.1005" lon="28.9805">
    <comp name="--.HNE">
      <acc value="0.0808028998" flag="0"/>
      <vel value="0.0429583451" flag="0"/>
      <psa03 value="0.2459051031" flag="0"/>
      <psa10 value="0.0460243358" flag="0"/>
      <psa30 value="0.0052671044" flag="0"/>
    </comp>
    <comp name="--.HNN">
      <acc value="0.0795990553" flag="0"/>
      <vel value="0.0396249953" flag="0"/>
      <psa03 value="0.1528032656" flag="0"/>
      <psa10 value="0.0465960602" flag="0"/>
      <psa30 value="0.0040593946" flag="0"/>
    </comp>
    <comp name="--.HNZ">
      <acc value="0.0438097896" flag="0"/>
      <vel value="0.0136369105" flag="0"/>
      <psa03 value="0.0528535694" flag="0"/>
      <psa10 value="0.0266231650" flag="0"/>
      <psa30 value="0.0015368381" flag="0"/>
    </comp>
  </station>
  <station code="SOMA" name="SOMA" netid="KO" insttype="CMG-5T" commtype="DIG" lat="39.1564" lon="27.5341">
    <comp name="--.HNN">
      <acc value="0.1544786529" flag="0"/>
      <vel value="0.0590618440" flag="0"/>
      <psa03 value="0.3938800115" flag="0"/>
      <psa10 value="0.0529804007" flag="0"/>
      <psa30 value="0.0033750763" flag="0"/>
    </comp>
    <comp name="--.HNE">
      <acc value="0.1142378948" flag="0"/>
      <vel value="0.0370733879" flag="0"/>
      <psa03 value="0.2957611700" flag="0"/>
      <psa10 value="0.0334664261" flag="0"/>
      <psa30 value="0.0029575834" flag="0"/>
    </comp>
    <comp name="--.HNZ">
      <acc value="0.1253325358" flag="0"/>
      <vel value="0.0411617438" flag="0"/>
      <psa03 value="0.1462890697" flag="0"/>
      <psa10 value="0.0367540714" flag="0"/>
      <psa30 value="0.0025610644" flag="0"/>
    </comp>
  </station>
  <station code="SUSR" name="SUSR" netid="KO" insttype="CMG-5T" commtype="DIG" lat="39.9627" lon="28.0835">
    <comp name="--.HNE">
      <acc value="0.0816541292" flag="0"/>
      <vel value="0.0374250974" flag="0"/>
      <psa03 value="0.1936754011" flag="0"/>
      <psa10 value="0.0116012459" flag="0"/>
      <psa30 value="0.0014373521" flag="0"/>
    </comp>
    <comp name="--.HNN">
      <acc value="0.0661714560" flag="0"/>
      <vel value="0.0231886628" flag="0"/>
      <psa03 value="0.1986792794" flag="0"/>
      <psa10 value="0.0082746599" flag="0"/>
      <psa30 value="0.0012393229" flag="0"/>
    </comp>
    <comp name="--.HNZ">
      <acc value="0.0484212358" flag="0"/>
      <vel value="0.0166410557" flag="0"/>
      <psa03 value="0.1226815784" flag="0"/>
      <psa10 value="0.0112294231" flag="0"/>
      <psa30 value="0.0014599315" flag="0"/>
    </comp>
  </station>
</stationlist>
