<?xml version="1.0" encoding="UTF-8" standalone="yes"?>
<!DOCTYPE earthquake SYSTEM "stationlist.dtd">
<stationlist created="" xmlns="ch.ethz.sed.shakemap.usgs.xml">
  <station code="BALB" name="BALB" netid="KO" insttype="CMG-5T" commtype="DIG" lat="39.6507" lon="27.8642">
    <comp name="--.HNN">
      <acc value="0.1697561807" flag="0"/>
      <vel value="0.0541341005" flag="0"/>
      <psa03 value="0.3761679680" flag="0"/>
      <psa10 value="0.0548617271" flag="0"/>
      <psa30 value="0.0041236856" flag="0"/>
    </comp>
    <comp name="--.HNE">
      <acc value="0.1649685089" flag="0"/>
      <vel value="0.0562407956" flag="0"/>
      <psa03 value="0.4146876442" flag="0"/>
      <psa10 value="0.0468752204" flag="0"/>
      <psa30 value="0.0042462284" flag="0"/>
    </comp>
    <comp name="--.HNZ">
      <acc value="0.0879044787" flag="0"/>
      <vel value="0.0326512233" flag="0"/>
      <psa03 value="0.1372836662" flag="0"/>
      <psa10 value="0.0333336239" flag="0"/>
      <psa30 value="0.0028653177" flag="0"/>
    </comp>
  </station>
  <station code="DST" name="DST" netid="KO" insttype="CMG-5T" commtype="DIG" lat="39.6041" lon="28.6267">
    <comp name="--.HNE">
      <acc value="0.0810538804" flag="0"/>
      <vel value="0.0261494122" flag="0"/>
      <psa03 value="0.1531134826" flag="0"/>
      <psa10 value="0.0144151599" flag="0"/>
      <psa30 value="0.0019710397" flag="0"/>
    </comp>
    <comp name="--.HNN">
      <acc value="0.0721667357" flag="0"/>
      <vel value="0.0239300436" flag="0"/>
      <psa03 value="0.1631850289" flag="0"/>
      <psa10 value="0.0122962904" flag="0"/>
      <psa30 value="0.0022911616" flag="0"/>
    </comp>
    <comp name="--.HNZ">
      <acc value="0.0595264745" flag="0"/>
      <vel value="0.0196611461" flag="0"/>
      <psa03 value="0.1249799830" flag="0"/>
      <psa10 value="0.0104068637" flag="0"/>
      <psa30 value="0.0018574979" flag="0"/>
    </comp>
  </station>
  <station code="GOMA" name="GOMA" netid="KO" insttype="CMG-5T" commtype="DIG" lat="38.7077" lon="27.9175">
    <comp name="--.HNE">
      <acc value="0.1532445692" flag="0"/>
      <vel value="0.0784281768" flag="0"/>
      <psa03 value="0.2590519662" flag="0"/>
      <psa10 value="0.0347476542" flag="0"/>
      <psa30 value="0.0023309396" flag="0"/>
    </comp>
    <comp name="--.HNZ">
      <acc value="0.0838502406" flag="0"/>
      <vel value="0.0320107257" flag="0"/>
      <psa03 value="0.1488714171" flag="0"/>
      <psa10 value="0.0117824609" flag="0"/>
      <psa30 value="0.0025521195" flag="0"/>
    </comp>
    <comp name="--.HNN">
      <acc value="0.1138044154" flag="0"/>
      <vel value="0.0681241217" flag="0"/>
      <psa03 value="0.2081257050" flag="0"/>
      <psa10 value="0.0360262305" flag="0"/>
      <psa30 value="0.0035216914" flag="0"/>
    </comp>
  </station>
  <station code="GONE" name="GONE" netid="KO" insttype="CMG-5T" commtype="DIG" lat="40.0466" lon="27.686">
    <comp name="--.HNZ">
      <acc value="0.0382243273" flag="0"/>
      <vel value="0.0145783596" flag="0"/>
      <psa03 value="0.1407081892" flag="0"/>
      <psa10 value="0.0186761310" flag="0"/>
      <psa30 value="0.0014632941" flag="0"/>
    </comp>
    <comp name="--.HNN">
      <acc value="0.1108597729" flag="0"/>
      <vel value="0.0566936933" flag="0"/>
      <psa03 value="0.3758959611" flag="0"/>
      <psa10 value="0.0554102902" flag="0"/>
      <psa30 value="0.0025558451" flag="0"/>
    </comp>
    <comp name="--.HNE">
      <acc value="0.0809916251" flag="0"/>
      <vel value="0.0564020558" flag="0"/>
      <psa03 value="0.2805575050" flag="0"/>
      <psa10 value="0.0575517112" flag="0"/>
      <psa30 value="0.0029420918" flag="0"/>
    </comp>
  </station>
  <station code="GORD" name="GORD" netid="KO" insttype="CMG-5T" commtype="DIG" lat="38.9088" lon="28.1769">
    <comp name="--.HNE">
      <acc value="0.0772494460" flag="0"/>
      <vel value="0.0493236299" flag="0"/>
      <psa03 value="0.1644889135" flag="0"/>
      <psa10 value="0.0849408832" flag="0"/>
      <psa30 value="0.0057714302" flag="0"/>
    </comp>
    <comp name="--.HNZ">
      <acc value="0.0870983413" flag="0"/>
      <vel value="0.0423572059" flag="0"/>
      <psa03 value="0.1369804791" flag="0"/>
      <psa10 value="0.0346637933" flag="0"/>
      <psa30 value="0.0077724434" flag="0"/>
    </comp>
  </station>
  <station code="KCTX" name="KCTX" netid="KO" insttype="CMG-3ESP" commtype="DIG" lat="40.2626" lon="28.3353">
    <comp name="--.HHN">
      <acc value="0.0464745429" flag="0"/>
      <vel value="0.0224374251" flag="0"/>
      <psa03 value="0.0652622488" flag="0"/>
      <psa10 value="0.0204829495" flag="0"/>
      <psa30 value="0.0014587317" flag="0"/>
    </comp>
    <comp name="--.HHZ">
      <acc value="0.0267869436" flag="0"/>
      <vel value="0.0119835516" flag="0"/>
      <psa03 value="0.0623743792" flag="0"/>
      <psa10 value="0.0135619811" flag="0"/>
      <psa30 value="0.0014656006" flag="0"/>
    </comp>
    <comp name="--.HHE">
      <acc value="0.0441477483" flag="0"/>
      <vel value="0.0229184078" flag="0"/>
      <psa03 value="0.0860889365" flag="0"/>
      <psa10 value="0.0345166706" flag="0"/>
      <psa30 value="0.0019571931" flag="0"/>
    </comp>
  </station>
  <station code="KULA" name="KULA" netid="KO" insttype="CMG-3T" commtype="DIG" lat="38.5145" lon="28.6607">
    <comp name="--.HHN">
      <acc value="0.0380778676" flag="0"/>
      <vel value="0.0105222502" flag="0"/>
      <psa03 value="0.0375889718" flag="0"/>
      <psa10 value="0.0084226988" flag="0"/>
      <psa30 value="0.0011370531" flag="0"/>
    </comp>
    <comp name="--.HHE">
      <acc value="0.0399706936" flag="0"/>
      <vel value="0.0146224691" flag="0"/>
      <psa03 value="0.0556022764" flag="0"/>
      <psa10 value="0.0164990412" flag="0"/>
      <psa30 value="0.0010548721" flag="0"/>
    </comp>
  </station>
  <station code="ORLT" name="ORLT" netid="KO" insttype="CMG-5T" commtype="DIG" lat="40.0452" lon="28.8914">
    <comp name="--.HNE">
      <acc value="0.0749805295" flag="0"/>
      <vel value="0.0431401232" flag="0"/>
      <psa03 value="0.2010769596" flag="0"/>
      <psa10 value="0.0353396982" flag="0"/>
      <psa30 value="0.0031838143" flag="0"/>
    </comp>
    <comp name="--.HNZ">
      <acc value="0.0407249967" flag="0"/>
      <vel value="0.0223934288" flag="0"/>
      <psa03 value="0.0713828417" flag="0"/>
      <psa10 value="0.0341643376" flag="0"/>
      <psa30 value="0.0022115577" flag="0"/>
    </comp>
    <comp name="--.HNN">
      <acc value="0.0652494826" flag="0"/>
      <vel value="0.0366065160" flag="0"/>
      <psa03 value="0.2759417221" flag="0"/>
      <psa10 value="0.0310081703" flag="0"/>
      <psa30 value="0.0029969884" flag="0"/>
    </comp>
  </station>
  <station code="SHAP" name="SHAP" netid="KO" insttype="CMG-5T" commtype="DIG" lat="39.0231" lon="29.222">
    <comp name="--.HNN">
      <acc value="0.0756398852" flag="0"/>
      <vel value="0.0237311899" flag="0"/>
      <psa03 value="0.1126796737" flag="0"/>
      <psa10 value="0.0139999004" flag="0"/>
      <psa30 value="0.0011911953" flag="0"/>
    </comp>
    <comp name="--.HNZ">
      <acc value="0.0435448122" flag="0"/>
      <vel value="0.0094557224" flag="0"/>
      <psa03 value="0.0356262078" flag="0"/>
      <psa10 value="0.0088393221" flag="0"/>
      <psa30 value="0.0007093500" flag="0"/>
    </comp>
    <comp name="--.HNE">
      <acc value="0.0900697278" flag="0"/>
      <vel value="0.0216266864" flag="0"/>
      <psa03 value="0.1852293878" flag="0"/>
      <psa10 value="0.0120891278" flag="0"/>
      <psa30 value="0.0012874776" flag="0"/>
    </comp>
  </station>
  <station code="SMAA" name="SMAA" netid="KO" insttype="CMG-5T" commtype="DIG" lat="39.1005" lon="28.9805">
    <comp name="--.HNN">
      <acc value="0.0795990971" flag="0"/>
      <vel value="0.0396277081" flag="0"/>
      <psa03 value="0.1528032656" flag="0"/>
      <psa10 value="0.0465967270" flag="0"/>
      <psa30 value="0.0040592090" flag="0"/>
    </comp>
    <comp name="--.HNE">
      <acc value="0.0808029161" flag="0"/>
      <vel value="0.0429583413" flag="0"/>
      <psa03 value="0.2459051031" flag="0"/>
      <psa10 value="0.0460243360" flag="0"/>
      <psa30 value="0.0052672639" flag="0"/>
    </comp>
    <comp name="--.HNZ">
      <acc value="0.0438097056" flag="0"/>
      <vel value="0.0136369145" flag="0"/>
      <psa03 value="0.0528535694" flag="0"/>
      <psa10 value="0.0266231652" flag="0"/>
      <psa30 value="0.0015368948" flag="0"/>
    </comp>
  </station>
  <station code="SOMA" name="SOMA" netid="KO" insttype="CMG-5T" commtype="DIG" lat="39.1564" lon="27.5341">
    <comp name="--.HNE">
      <acc value="0.1142378986" flag="0"/>
      <vel value="0.0370733897" flag="0"/>
      <psa03 value="0.2957611700" flag="0"/>
      <psa10 value="0.0334664261" flag="0"/>
      <psa30 value="0.0029573938" flag="0"/>
    </comp>
    <comp name="--.HNN">
      <acc value="0.1544786596" flag="0"/>
      <vel value="0.0590618478" flag="0"/>
      <psa03 value="0.3938800115" flag="0"/>
      <psa10 value="0.0529804051" flag="0"/>
      <psa30 value="0.0033766852" flag="0"/>
    </comp>
    <comp name="--.HNZ">
      <acc value="0.1253325649" flag="0"/>
      <vel value="0.0411617448" flag="0"/>
      <psa03 value="0.1462890697" flag="0"/>
      <psa10 value="0.0367540695" flag="0"/>
      <psa30 value="0.0025616493" flag="0"/>
    </comp>
  </station>
  <station code="SUSR" name="SUSR" netid="KO" insttype="CMG-5T" commtype="DIG" lat="39.9627" lon="28.0835">
    <comp name="--.HNZ">
      <acc value="0.0484212362" flag="0"/>
      <vel value="0.0166410577" flag="0"/>
      <psa03 value="0.1226815784" flag="0"/>
      <psa10 value="0.0112294228" flag="0"/>
      <psa30 value="0.0014599456" flag="0"/>
    </comp>
    <comp name="--.HNN">
      <acc value="0.0661714714" flag="0"/>
      <vel value="0.0231886618" flag="0"/>
      <psa03 value="0.1986792794" flag="0"/>
      <psa10 value="0.0082746598" flag="0"/>
      <psa30 value="0.0012392594" flag="0"/>
    </comp>
    <comp name="--.HNE">
      <acc value="0.0816541234" flag="0"/>
      <vel value="0.0374250957" flag="0"/>
      <psa03 value="0.1936754011" flag="0"/>
      <psa10 value="0.0116012462" flag="0"/>
      <psa30 value="0.0014372801" flag="0"/>
    </comp>
  </station>
  <station code="TVSB" name="TVSB" netid="KO" insttype="CMG-3T" commtype="DIG" lat="39.4497" lon="29.4615">
    <comp name="--.HHN">
      <acc value="0.0468533075" flag="0"/>
      <vel value="0.0218453569" flag="0"/>
      <psa03 value="0.1484582550" flag="0"/>
      <psa10 value="0.0096095668" flag="0"/>
      <psa30 value="0.0009206353" flag="0"/>
    </comp>
    <comp name="--.HHE">
      <acc value="0.0654521837" flag="0"/>
      <vel value="0.0416870126" flag="0"/>
      <psa03 value="0.2313849312" flag="0"/>
      <psa10 value="0.0225486453" flag="0"/>
      <psa30 value="0.0015058828" flag="0"/>
    </comp>
    <comp name="--.HHZ">
      <acc value="0.0247762930" flag="0"/>
      <vel value="0.0121148859" flag="0"/>
      <psa03 value="0.0529562917" flag="0"/>
      <psa10 value="0.0089545645" flag="0"/>
      <psa30 value="0.0010904559" flag="0"/>
    </comp>
  </station>
  <station code="YAYO" name="YAYO" netid="KO" insttype="CMG-6T" commtype="DIG" lat="39.6113" lon="27.0726">
    <comp name="--.HHZ">
      <acc value="0.0302256566" flag="0"/>
      <vel value="0.0243602597" flag="0"/>
      <psa03 value="0.0926819100" flag="0"/>
      <psa10 value="0.0235925988" flag="0"/>
      <psa30 value="0.0014272974" flag="0"/>
    </comp>
    <comp name="--.HHE">
      <acc value="0.0643926994" flag="0"/>
      <vel value="0.0560316509" flag="0"/>
      <psa03 value="0.1549632246" flag="0"/>
      <psa10 value="0.0469695380" flag="0"/>
      <psa30 value="0.0030787685" flag="0"/>
    </comp>
    <comp name="--.HHN">
      <acc value="0.0697869883" flag="0"/>
      <vel value="0.0363649360" flag="0"/>
      <psa03 value="0.3039541717" flag="0"/>
      <psa10 value="0.0186768375" flag="0"/>
      <psa30 value="0.0013029961" flag="0"/>
    </comp>
  </station>
  <station code="YENI" name="YENI" netid="KO" insttype="CMG-5T" commtype="DIG" lat="39.9364" lon="27.2422">
    <comp name="--.HNN">
      <acc value="0.1732409971" flag="0"/>
      <vel value="0.0584472287" flag="0"/>
      <psa03 value="0.2111128702" flag="0"/>
      <psa10 value="0.0451481783" flag="0"/>
      <psa30 value="0.0021232658" flag="0"/>
    </comp>
    <comp name="--.HNZ">
      <acc value="0.0303600338" flag="0"/>
      <vel value="0.0117274624" flag="0"/>
      <psa03 value="0.0567627562" flag="0"/>
      <psa10 value="0.0147438031" flag="0"/>
      <psa30 value="0.0013414100" flag="0"/>
    </comp>
    <comp name="--.HNE">
      <acc value="0.0867553848" flag="0"/>
      <vel value="0.0343951627" flag="0"/>
      <psa03 value="0.1440907902" flag="0"/>
      <psa10 value="0.0307222779" flag="0"/>
      <psa30 value="0.0016279175" flag="0"/>
    </comp>
  </station>
</stationlist>
