<?xml version="1.0" encoding="UTF-8" standalone="yes"?>
<!DOCTYPE earthquake SYSTEM "stationlist.dtd">
<stationlist created="" xmlns="ch.ethz.sed.shakemap.usgs.xml">
  <station code="BEHE" name="BEHE" netid="HU" insttype="" lat="46.4703" lon="16.7755">
    <comp name="--.HHN">
      <acc value="0.0512850227" flag="0"/>
      <vel value="0.0295344475" flag="0"/>
      <psa03 value="0.1354608446" flag="0"/>
      <psa10 value="0.0207883113" flag="0"/>
      <psa30 value="0.0017007398" flag="0"/>
    </comp>
    <comp name="--.HHZ">
      <acc value="0.0242583079" flag="0"/>
      <vel value="0.0123272002" flag="0"/>
      <psa03 value="0.0827232600" flag="0"/>
      <psa10 value="0.0112510804" flag="0"/>
      <psa30 value="0.0005276971" flag="0"/>
    </comp>
    <comp name="--.HHE">
      <acc value="0.0594411565" flag="0"/>
      <vel value="0.0242587935" flag="0"/>
      <psa03 value="0.1323132205" flag="0"/>
      <psa10 value="0.0153508411" flag="0"/>
      <psa30 value="0.0009872218" flag="0"/>
    </comp>
  </station>
  <station code="BLY" name="BLY" netid="MN" insttype="" lat="44.7488" lon="17.1839">
    <comp name="--.HHE">
      <acc value="0.0210981597" flag="0"/>
      <vel value="0.0099592361" flag="0"/>
      <psa03 value="0.0428528236" flag="0"/>
      <psa10 value="0.0141339584" flag="0"/>
      <psa30 value="0.0009380922" flag="0"/>
    </comp>
    <comp name="--.HHZ">
      <acc value="0.0190759914" flag="0"/>
      <vel value="0.0073406796" flag="0"/>
      <psa03 value="0.0209008450" flag="0"/>
      <psa10 value="0.0073295452" flag="0"/>
      <psa30 value="0.0004807812" flag="0"/>
    </comp>
    <comp name="--.HHN">
      <acc value="0.0147945128" flag="0"/>
      <vel value="0.0090602903" flag="0"/>
      <psa03 value="0.0333916309" flag="0"/>
      <psa10 value="0.0076740275" flag="0"/>
      <psa30 value="0.0005247837" flag="0"/>
    </comp>
  </station>
</stationlist>
