<stationlist xmlns:esm="https://esm-db.eu/esmws/shakemap/1/" created="1784339657">
	<station code="BLY" name="BLY" netid="MN" source="Mediterranean Very Broadband Seismographic Network (MedNet)" insttype="" lat="44.7488" lon="17.1839" esm:processing="automatic (Paolucci et al 2011)" esm:quality="best">
		<comp name="--.HNE" depth="1.0">
			<acc value="0.0194981115130865" flag="0"/>
			<vel value="0.00995331290123269" flag="0"/>
			<psa03 value="0.040890583800481" flag="0"/>
			<psa10 value="0.0143760429672864" flag="0"/>
			<psa30 value="0.000981522416875956" flag="0"/>
		</comp>
		<comp name="--.HNN" depth="1.0">
			<acc value="0.015008537118703" flag="0"/>
			<vel value="0.0097340386237629" flag="0"/>
			<psa03 value="0.0358350145188647" flag="0"/>
			<psa10 value="0.00746434963277922" flag="0"/>
			<psa30 value="0.000587752633642637" flag="0"/>
		</comp>
		<comp name="--.HNZ" depth="1.0">
			<acc value="0.0180623150850295" flag="0"/>
			<vel value="0.00760396956671268" flag="0"/>
			<psa03 value="0.02028151282153" flag="0"/>
			<psa10 value="0.00737302170774565" flag="0"/>
			<psa30 value="0.000484770603255986" flag="0"/>
		</comp>
	</station>
	<station code="BOJS" name="BOJS" netid="SL" source="Seismic Network of the Republic of Slovenia (SNRS)" insttype="" lat="45.5043" lon="15.2518" esm:processing="manual (Paolucci et al 2011)" esm:quality="best">
		<comp name="--.HNE" depth="0.0">
			<acc value="0.0444881353490998" flag="0"/>
			<vel value="0.0138305460100129" flag="0"/>
			<psa03 value="0.0916956368859783" flag="0"/>
			<psa10 value="0.00808566126038732" flag="0"/>
			<psa30 value="0.000585083811012799" flag="0"/>
		</comp>
		<comp name="--.HNN" depth="0.0">
			<acc value="0.048933279520798" flag="0"/>
			<vel value="0.0143773572418151" flag="0"/>
			<psa03 value="0.0903802164122913" flag="0"/>
			<psa10 value="0.00870524449221376" flag="0"/>
			<psa30 value="0.000716709353477681" flag="0"/>
		</comp>
		<comp name="--.HNZ" depth="0.0">
			<acc value="0.0325464951225995" flag="0"/>
			<vel value="0.0121257601866207" flag="0"/>
			<psa03 value="0.0602622160345216" flag="0"/>
			<psa10 value="0.00676323881261075" flag="0"/>
			<psa30 value="0.000515925479615599" flag="0"/>
		</comp>
	</station>
	<station code="CADS" name="CADS" netid="SL" source="Seismic Network of the Republic of Slovenia (SNRS)" insttype="" lat="46.2281" lon="13.7368" esm:processing="manual (Paolucci et al 2011)" esm:quality="best">
		<comp name="--.HNE" depth="0.0">
			<acc value="0.0134528977097463" flag="0"/>
			<vel value="0.007517864090456" flag="0"/>
			<psa03 value="0.038173573082714" flag="0"/>
			<psa10 value="0.00525105520037689" flag="0"/>
			<psa30 value="0.000344522770859515" flag="0"/>
		</comp>
		<comp name="--.HNN" depth="0.0">
			<acc value="0.0106149029806289" flag="0"/>
			<vel value="0.00641326208206602" flag="0"/>
			<psa03 value="0.0384114299854048" flag="0"/>
			<psa10 value="0.00548665799542305" flag="0"/>
			<psa30 value="0.000267838211716893" flag="0"/>
		</comp>
		<comp name="--.HNZ" depth="0.0">
			<acc value="0.00570473305549813" flag="0"/>
			<vel value="0.00349129217950797" flag="0"/>
			<psa03 value="0.0236124678559246" flag="0"/>
			<psa10 value="0.00286161652117705" flag="0"/>
			<psa30 value="0.000324966110743476" flag="0"/>
		</comp>
	</station>
	<station code="CESS" name="CESS" netid="SL" source="Seismic Network of the Republic of Slovenia (SNRS)" insttype="" lat="45.9733" lon="15.4632" esm:processing="manual (Paolucci et al 2011)" esm:quality="best">
		<comp name="--.HNE" depth="0.0">
			<acc value="0.0864393878886465" flag="0"/>
			<vel value="0.0482440434502123" flag="0"/>
			<psa03 value="0.316518155274603" flag="0"/>
			<psa10 value="0.0244087713363225" flag="0"/>
			<psa30 value="0.00212960920115897" flag="0"/>
		</comp>
		<comp name="--.HNN" depth="0.0">
			<acc value="0.0982761872002082" flag="0"/>
			<vel value="0.0334541427828784" flag="0"/>
			<psa03 value="0.208236232128629" flag="0"/>
			<psa10 value="0.0169755932997389" flag="0"/>
			<psa30 value="0.00119422317392509" flag="0"/>
		</comp>
		<comp name="--.HNZ" depth="0.0">
			<acc value="0.0565254141154621" flag="0"/>
			<vel value="0.0408178137160207" flag="0"/>
			<psa03 value="0.167951448875797" flag="0"/>
			<psa10 value="0.0170345997086279" flag="0"/>
			<psa30 value="0.00156351857543142" flag="0"/>
		</comp>
	</station>
	<station code="CEY" name="CEY" netid="SL" source="Seismic Network of the Republic of Slovenia (SNRS)" insttype="" lat="45.7381" lon="14.4221" esm:processing="manual (Paolucci et al 2011)" esm:quality="best">
		<comp name="--.HNE" depth="0.0">
			<acc value="0.0227809247456444" flag="0"/>
			<vel value="0.0079497337761513" flag="0"/>
			<psa03 value="0.0612973054372361" flag="0"/>
			<psa10 value="0.00744341855869657" flag="0"/>
			<psa30 value="0.000554738102842365" flag="0"/>
		</comp>
		<comp name="--.HNN" depth="0.0">
			<acc value="0.0136991277344507" flag="0"/>
			<vel value="0.0093185060765196" flag="0"/>
			<psa03 value="0.0465761739845165" flag="0"/>
			<psa10 value="0.00723129278766857" flag="0"/>
			<psa30 value="0.000499600752346995" flag="0"/>
		</comp>
		<comp name="--.HNZ" depth="0.0">
			<acc value="0.0149932532299409" flag="0"/>
			<vel value="0.0106492082592544" flag="0"/>
			<psa03 value="0.0524735698665853" flag="0"/>
			<psa10 value="0.0080694376856462" flag="0"/>
			<psa30 value="0.000776172146762196" flag="0"/>
		</comp>
	</station>
	<station code="CRES" name="CRES" netid="SL" source="Seismic Network of the Republic of Slovenia (SNRS)" insttype="" lat="45.826" lon="15.4569" esm:processing="manual (Paolucci et al 2011)" esm:quality="best">
		<comp name="--.HNE" depth="0.0">
			<acc value="0.0916736357591997" flag="0"/>
			<vel value="0.0388497721883591" flag="0"/>
			<psa03 value="0.20786554090521" flag="0"/>
			<psa10 value="0.0165513014425028" flag="0"/>
			<psa30 value="0.0013052716761759" flag="0"/>
		</comp>
		<comp name="--.HNN" depth="0.0">
			<acc value="0.0887551562746659" flag="0"/>
			<vel value="0.0265620850652851" flag="0"/>
			<psa03 value="0.189470488989928" flag="0"/>
			<psa10 value="0.0161423199744612" flag="0"/>
			<psa30 value="0.000768117759029806" flag="0"/>
		</comp>
		<comp name="--.HNZ" depth="0.0">
			<acc value="0.0524521886712854" flag="0"/>
			<vel value="0.0171495624042613" flag="0"/>
			<psa03 value="0.0921554485962369" flag="0"/>
			<psa10 value="0.00913163086320941" flag="0"/>
			<psa30 value="0.000540324595935506" flag="0"/>
		</comp>
	</station>
	<station code="CRNS" name="CRNS" netid="SL" source="Seismic Network of the Republic of Slovenia (SNRS)" insttype="" lat="46.0807" lon="14.2613" esm:processing="manual (Paolucci et al 2011)" esm:quality="good">
		<comp name="--.HNE" depth="0.0">
			<acc value="0.028060015292209" flag="0"/>
			<vel value="0.0138994617774975" flag="0"/>
			<psa03 value="0.0880129241744507" flag="0"/>
			<psa10 value="0.0137277740851491" flag="0"/>
			<psa30 value="0.000635904781821201" flag="0"/>
		</comp>
		<comp name="--.HNN" depth="0.0">
			<acc value="0.0211896871871295" flag="0"/>
			<vel value="0.00874879505338232" flag="0"/>
			<psa03 value="0.0433806576098218" flag="0"/>
			<psa10 value="0.00771601427308673" flag="0"/>
			<psa30 value="0.000388573267113755" flag="0"/>
		</comp>
		<comp name="--.HNZ" depth="0.0">
			<acc value="0.00853293011745316" flag="0"/>
			<vel value="0.00624128282647173" flag="0"/>
			<psa03 value="0.0319750426688105" flag="0"/>
			<psa10 value="0.008039311939971" flag="0"/>
			<psa30 value="0.000321033063739853" flag="0"/>
		</comp>
	</station>
	<station code="DOBS" name="DOBS" netid="SL" source="Seismic Network of the Republic of Slovenia (SNRS)" insttype="" lat="46.1495" lon="15.4695" esm:processing="manual (Paolucci et al 2011)" esm:quality="best">
		<comp name="--.HNE" depth="0.0">
			<acc value="0.101910400543599" flag="0"/>
			<vel value="0.0297062111362524" flag="0"/>
			<psa03 value="0.145409830604292" flag="0"/>
			<psa10 value="0.0180911984531304" flag="0"/>
			<psa30 value="0.0015363278158449" flag="0"/>
		</comp>
		<comp name="--.HNN" depth="0.0">
			<acc value="0.13518000199832" flag="0"/>
			<vel value="0.0360157195182175" flag="0"/>
			<psa03 value="0.121508007642681" flag="0"/>
			<psa10 value="0.0103859689569663" flag="0"/>
			<psa30 value="0.00142961980946467" flag="0"/>
		</comp>
		<comp name="--.HNZ" depth="0.0">
			<acc value="0.0590570093367345" flag="0"/>
			<vel value="0.0135279159816892" flag="0"/>
			<psa03 value="0.0517488968603376" flag="0"/>
			<psa10 value="0.0117446033348347" flag="0"/>
			<psa30 value="0.000928668394721907" flag="0"/>
		</comp>
	</station>
	<station code="DTSE" name="DTSE" netid="SL" source="Seismic Network of the Republic of Slovenia (SNRS)" insttype="" lat="46.0251" lon="14.8395" esm:processing="manual (Paolucci et al 2011)" esm:quality="good">
		<comp name="--.HN1" depth="0.0">
			<acc value="0.0319593986448203" flag="0"/>
			<vel value="0.0248167796022828" flag="0"/>
			<psa03 value="0.100362648532911" flag="0"/>
			<psa10 value="0.0346042548620557" flag="0"/>
			<psa30 value="0.00176186150634469" flag="0"/>
		</comp>
		<comp name="--.HN2" depth="0.0">
			<acc value="0.0260894952060842" flag="0"/>
			<vel value="0.0193255306727251" flag="0"/>
			<psa03 value="0.0617882858790316" flag="0"/>
			<psa10 value="0.0145005568407257" flag="0"/>
			<psa30 value="0.00126978317940386" flag="0"/>
		</comp>
		<comp name="--.HNZ" depth="0.0">
			<acc value="0.0324428887176817" flag="0"/>
			<vel value="0.0197689055174467" flag="0"/>
			<psa03 value="0.080534512099517" flag="0"/>
			<psa10 value="0.0216482022121527" flag="0"/>
			<psa30 value="0.00133913287764769" flag="0"/>
		</comp>
	</station>
	<station code="GBAS" name="GBAS" netid="SL" source="Seismic Network of the Republic of Slovenia (SNRS)" insttype="" lat="45.9348" lon="14.4434" esm:processing="manual (Paolucci et al 2011)" esm:quality="good">
		<comp name="--.HNE" depth="0.0">
			<acc value="0.00938391188240308" flag="0"/>
			<vel value="0.00536660737914705" flag="0"/>
			<psa03 value="0.0286661776393981" flag="0"/>
			<psa10 value="0.00773712301516094" flag="0"/>
			<psa30 value="0.000232254526347494" flag="0"/>
		</comp>
		<comp name="--.HNN" depth="0.0">
			<acc value="0.0111647864371766" flag="0"/>
			<vel value="0.00670895484642661" flag="0"/>
			<psa03 value="0.018915793443052" flag="0"/>
			<psa10 value="0.00640208988828896" flag="0"/>
			<psa30 value="0.000273328835860578" flag="0"/>
		</comp>
		<comp name="--.HNZ" depth="0.0">
			<acc value="0.0128488649991344" flag="0"/>
			<vel value="0.0051420791940605" flag="0"/>
			<psa03 value="0.0374557989711739" flag="0"/>
			<psa10 value="0.00638099989744536" flag="0"/>
			<psa30 value="0.000434404896984118" flag="0"/>
		</comp>
	</station>
	<station code="GBRS" name="GBRS" netid="SL" source="Seismic Network of the Republic of Slovenia (SNRS)" insttype="" lat="45.5311" lon="14.8101" esm:processing="manual (Paolucci et al 2011)" esm:quality="best">
		<comp name="--.HNE" depth="0.0">
			<acc value="0.0343655589284254" flag="0"/>
			<vel value="0.0102665610218348" flag="0"/>
			<psa03 value="0.0431315734008859" flag="0"/>
			<psa10 value="0.00687029949862929" flag="0"/>
			<psa30 value="0.000492908642360135" flag="0"/>
		</comp>
		<comp name="--.HNN" depth="0.0">
			<acc value="0.0285529103417416" flag="0"/>
			<vel value="0.00937778288977967" flag="0"/>
			<psa03 value="0.0571697403395732" flag="0"/>
			<psa10 value="0.00872103772596879" flag="0"/>
			<psa30 value="0.000737080546718435" flag="0"/>
		</comp>
		<comp name="--.HNZ" depth="0.0">
			<acc value="0.0204646732401445" flag="0"/>
			<vel value="0.0112956929412032" flag="0"/>
			<psa03 value="0.0325006530087396" flag="0"/>
			<psa10 value="0.00785498676057311" flag="0"/>
			<psa30 value="0.000676062077460016" flag="0"/>
		</comp>
	</station>
	<station code="GCIS" name="GCIS" netid="SL" source="Seismic Network of the Republic of Slovenia (SNRS)" insttype="" lat="45.8672" lon="15.6275" esm:processing="manual (Paolucci et al 2011)" esm:quality="best">
		<comp name="--.HNE" depth="0.0">
			<acc value="0.116332849629166" flag="0"/>
			<vel value="0.0313798732542808" flag="0"/>
			<psa03 value="0.186067201038708" flag="0"/>
			<psa10 value="0.014077412559509" flag="0"/>
			<psa30 value="0.000710986318102766" flag="0"/>
		</comp>
		<comp name="--.HNN" depth="0.0">
			<acc value="0.083182415689979" flag="0"/>
			<vel value="0.0243395234936097" flag="0"/>
			<psa03 value="0.107041059694807" flag="0"/>
			<psa10 value="0.0143389680112631" flag="0"/>
			<psa30 value="0.000750221938106112" flag="0"/>
		</comp>
		<comp name="--.HNZ" depth="0.0">
			<acc value="0.0699682853645446" flag="0"/>
			<vel value="0.0146087836249131" flag="0"/>
			<psa03 value="0.0900875407741213" flag="0"/>
			<psa10 value="0.00903784840059525" flag="0"/>
			<psa30 value="0.000459461739170216" flag="0"/>
		</comp>
	</station>
	<station code="GOLS" name="GOLS" netid="SL" source="Seismic Network of the Republic of Slovenia (SNRS)" insttype="" lat="46.0108" lon="15.6245" esm:processing="manual (Paolucci et al 2011)" esm:quality="best">
		<comp name="--.HNE" depth="0.0">
			<acc value="0.168230671138947" flag="0"/>
			<vel value="0.0797269902425225" flag="0"/>
			<psa03 value="0.386651363755111" flag="0"/>
			<psa10 value="0.0461707335846285" flag="0"/>
			<psa30 value="0.00231498793992232" flag="0"/>
		</comp>
		<comp name="--.HNN" depth="0.0">
			<acc value="0.101094880173696" flag="0"/>
			<vel value="0.0380327647388449" flag="0"/>
			<psa03 value="0.283776715481337" flag="0"/>
			<psa10 value="0.0287882664563603" flag="0"/>
			<psa30 value="0.00155064647271888" flag="0"/>
		</comp>
		<comp name="--.HNZ" depth="0.0">
			<acc value="0.0575121404874032" flag="0"/>
			<vel value="0.0290120332718116" flag="0"/>
			<psa03 value="0.176862028741533" flag="0"/>
			<psa10 value="0.0238997426156587" flag="0"/>
			<psa30 value="0.00093855269534531" flag="0"/>
		</comp>
	</station>
	<station code="GORS" name="GORS" netid="SL" source="Seismic Network of the Republic of Slovenia (SNRS)" insttype="" lat="46.3174" lon="13.9999" esm:processing="manual (Paolucci et al 2011)" esm:quality="best">
		<comp name="--.HNE" depth="0.0">
			<acc value="0.00710457054890067" flag="0"/>
			<vel value="0.00321242656847997" flag="0"/>
			<psa03 value="0.0209558647857062" flag="0"/>
			<psa10 value="0.00290818968454215" flag="0"/>
			<psa30 value="0.000318394790009064" flag="0"/>
		</comp>
		<comp name="--.HNN" depth="0.0">
			<acc value="0.00508802363452459" flag="0"/>
			<vel value="0.00295315897913062" flag="0"/>
			<psa03 value="0.0135107739287113" flag="0"/>
			<psa10 value="0.0026971763309455" flag="0"/>
			<psa30 value="0.000331503314634389" flag="0"/>
		</comp>
		<comp name="--.HNZ" depth="0.0">
			<acc value="0.00651399638137221" flag="0"/>
			<vel value="0.00412789830065121" flag="0"/>
			<psa03 value="0.0167889155686741" flag="0"/>
			<psa10 value="0.00351979707553068" flag="0"/>
			<psa30 value="0.000440716695318112" flag="0"/>
		</comp>
	</station>
	<station code="GROS" name="GROS" netid="SL" source="Seismic Network of the Republic of Slovenia (SNRS)" insttype="" lat="46.461" lon="15.5018" esm:processing="manual (Paolucci et al 2011)" esm:quality="good">
		<comp name="--.HNE" depth="0.0">
			<acc value="0.142548527634901" flag="0"/>
			<vel value="0.022513876959164" flag="0"/>
			<psa03 value="0.112942825657815" flag="0"/>
			<psa10 value="0.010473357246037" flag="0"/>
			<psa30 value="0.00138155360447896" flag="0"/>
		</comp>
		<comp name="--.HNN" depth="0.0">
			<acc value="0.106461848517512" flag="0"/>
			<vel value="0.0186654036275135" flag="0"/>
			<psa03 value="0.0626045274509946" flag="0"/>
			<psa10 value="0.0062098582476185" flag="0"/>
			<psa30 value="0.000617662635869526" flag="0"/>
		</comp>
		<comp name="--.HNZ" depth="0.0">
			<acc value="0.0474548825427498" flag="0"/>
			<vel value="0.0217529103947087" flag="0"/>
			<psa03 value="0.113426170177274" flag="0"/>
			<psa10 value="0.0104792892014902" flag="0"/>
			<psa30 value="0.000986745575383606" flag="0"/>
		</comp>
	</station>
	<station code="JAVS" name="JAVS" netid="SL" source="Seismic Network of the Republic of Slovenia (SNRS)" insttype="" lat="45.8934" lon="14.0643" esm:processing="manual (Paolucci et al 2011)" esm:quality="best">
		<comp name="--.HNE" depth="0.0">
			<acc value="0.0136526251176812" flag="0"/>
			<vel value="0.00907455308670533" flag="0"/>
			<psa03 value="0.0352381364369148" flag="0"/>
			<psa10 value="0.00818063348933056" flag="0"/>
			<psa30 value="0.000355793100796615" flag="0"/>
		</comp>
		<comp name="--.HNN" depth="0.0">
			<acc value="0.0097620589465176" flag="0"/>
			<vel value="0.00428852226019246" flag="0"/>
			<psa03 value="0.0248175372692266" flag="0"/>
			<psa10 value="0.00648929488393045" flag="0"/>
			<psa30 value="0.000430517191525973" flag="0"/>
		</comp>
		<comp name="--.HNZ" depth="0.0">
			<acc value="0.00745669023668345" flag="0"/>
			<vel value="0.00464267394648595" flag="0"/>
			<psa03 value="0.0185841061058153" flag="0"/>
			<psa10 value="0.0051636059698168" flag="0"/>
			<psa30 value="0.000237956284269411" flag="0"/>
		</comp>
	</station>
	<station code="KNDS" name="KNDS" netid="SL" source="Seismic Network of the Republic of Slovenia (SNRS)" insttype="" lat="45.5278" lon="14.3807" esm:processing="manual (Paolucci et al 2011)" esm:quality="best">
		<comp name="--.HNE" depth="0.0">
			<acc value="0.0238709872847804" flag="0"/>
			<vel value="0.0140772593162212" flag="0"/>
			<psa03 value="0.0919908335246751" flag="0"/>
			<psa10 value="0.0125146024685033" flag="0"/>
			<psa30 value="0.000893955991031723" flag="0"/>
		</comp>
		<comp name="--.HNN" depth="0.0">
			<acc value="0.0213278427779524" flag="0"/>
			<vel value="0.0121210378974381" flag="0"/>
			<psa03 value="0.0577854686288277" flag="0"/>
			<psa10 value="0.00816141065339927" flag="0"/>
			<psa30 value="0.000804108164054081" flag="0"/>
		</comp>
		<comp name="--.HNZ" depth="0.0">
			<acc value="0.0124644955631511" flag="0"/>
			<vel value="0.00722249946035568" flag="0"/>
			<psa03 value="0.034022178281511" flag="0"/>
			<psa10 value="0.00578818781404031" flag="0"/>
			<psa30 value="0.00060103148205091" flag="0"/>
		</comp>
	</station>
	<station code="KOGS" name="KOGS" netid="SL" source="Seismic Network of the Republic of Slovenia (SNRS)" insttype="" lat="46.4481" lon="16.2504" esm:processing="manual (Paolucci et al 2011)" esm:quality="good">
		<comp name="--.HNE" depth="0.0">
			<acc value="0.257785447087889" flag="0"/>
			<vel value="0.0779152204364686" flag="0"/>
			<psa03 value="0.642943216831568" flag="0"/>
			<psa10 value="0.0347136233571829" flag="0"/>
			<psa30 value="0.00264428496256868" flag="0"/>
		</comp>
		<comp name="--.HNN" depth="0.0">
			<acc value="0.146083193745117" flag="0"/>
			<vel value="0.0519401032062317" flag="0"/>
			<psa03 value="0.356621874448929" flag="0"/>
			<psa10 value="0.0181994268727287" flag="0"/>
			<psa30 value="0.00171879552843653" flag="0"/>
		</comp>
		<comp name="--.HNZ" depth="0.0">
			<acc value="0.0847805979098998" flag="0"/>
			<vel value="0.0302138023657059" flag="0"/>
			<psa03 value="0.217312979251821" flag="0"/>
			<psa10 value="0.0137095713168314" flag="0"/>
			<psa30 value="0.00128090370775162" flag="0"/>
		</comp>
	</station>
	<station code="LEGS" name="LEGS" netid="SL" source="Seismic Network of the Republic of Slovenia (SNRS)" insttype="" lat="45.9488" lon="15.3177" esm:processing="manual (Paolucci et al 2011)" esm:quality="best">
		<comp name="--.HNE" depth="0.0">
			<acc value="0.0599515387818159" flag="0"/>
			<vel value="0.0482289426985676" flag="0"/>
			<psa03 value="0.23052864639148" flag="0"/>
			<psa10 value="0.0383499167437609" flag="0"/>
			<psa30 value="0.00221723688106167" flag="0"/>
		</comp>
		<comp name="--.HNN" depth="0.0">
			<acc value="0.0581610268805036" flag="0"/>
			<vel value="0.0343161876022701" flag="0"/>
