<?xml version="1.0" encoding="UTF-8" standalone="yes"?>
<!DOCTYPE earthquake SYSTEM "stationlist.dtd">
<stationlist created="" xmlns="ch.ethz.sed.shakemap.usgs.xml">
  <station code="THERA" name="THERA" netid="GE" insttype="STS-2/N" lat="36.367" lon="25.4753">
    <comp name="--.HHE">
      <acc value="0.0188359372" flag="0"/>
      <vel value="0.0021094279" flag="0"/>
      <psa03 value="0.0048481953" flag="0"/>
      <psa10 value="0.0004767958" flag="0"/>
      <psa30 value="0.0000485576" flag="0"/>
    </comp>
    <comp name="--.HHN">
      <acc value="0.0106892204" flag="0"/>
      <vel value="0.0014252895" flag="0"/>
      <psa03 value="0.0048706348" flag="0"/>
      <psa10 value="0.0002559520" flag="0"/>
      <psa30 value="0.0000270741" flag="0"/>
    </comp>
    <comp name="--.HHZ">
      <acc value="0.0132405083" flag="0"/>
      <vel value="0.0016045537" flag="0"/>
      <psa03 value="0.0056190936" flag="0"/>
      <psa10 value="0.0003233249" flag="0"/>
      <psa30 value="0.0000405265" flag="0"/>
    </comp>
  </station>
</stationlist>
