<?xml version="1.0" encoding="UTF-8" standalone="yes"?>
<!DOCTYPE earthquake SYSTEM "stationlist.dtd">
<stationlist created="" xmlns="ch.ethz.sed.shakemap.usgs.xml">
  <station code="CEYT" name="CEYT" netid="KO" insttype="CMG-3ESP" lat="37.0105" lon="35.7478">
    <comp name="--.HHE">
      <acc value="0.0197052365" flag="0"/>
      <vel value="0.0137082367" flag="0"/>
      <psa03 value="0.0901060966" flag="0"/>
      <psa10 value="0.0131350435" flag="0"/>
      <psa30 value="0.0013972515" flag="0"/>
    </comp>
    <comp name="--.HHZ">
      <acc value="0.0133683700" flag="0"/>
      <vel value="0.0085959886" flag="0"/>
      <psa03 value="0.0333318616" flag="0"/>
      <psa10 value="0.0113832318" flag="0"/>
      <psa30 value="0.0016040850" flag="0"/>
    </comp>
    <comp name="--.HHN">
      <acc value="0.0287751636" flag="0"/>
      <vel value="0.0155492959" flag="0"/>
      <psa03 value="0.0697901472" flag="0"/>
      <psa10 value="0.0158026876" flag="0"/>
      <psa30 value="0.0016830067" flag="0"/>
    </comp>
  </station>
  <station code="GAZ" name="GAZ" netid="KO" insttype="CMG-3T" lat="37.1721" lon="37.2096">
    <comp name="--.HHE">
      <acc value="0.6974729277" flag="0"/>
      <vel value="0.3376793335" flag="0"/>
      <psa03 value="0.9992512568" flag="0"/>
      <psa10 value="0.3668302077" flag="0"/>
      <psa30 value="0.0261107288" flag="0"/>
    </comp>
    <comp name="--.HHN">
      <acc value="0.4889678282" flag="0"/>
      <vel value="0.1923535762" flag="0"/>
      <psa03 value="0.7483428132" flag="0"/>
      <psa10 value="0.2524988467" flag="0"/>
      <psa30 value="0.0074210990" flag="0"/>
    </comp>
  </station>
  <station code="KHMN" name="KHMN" netid="KO" insttype="CMG-5T" lat="37.3916" lon="37.1574">
    <comp name="--.HNE">
      <acc value="0.7368124655" flag="0"/>
      <vel value="0.1635080714" flag="0"/>
      <psa03 value="0.3639035777" flag="0"/>
      <psa10 value="0.1111264587" flag="0"/>
      <psa30 value="0.0207805570" flag="0"/>
    </comp>
    <comp name="--.HNN">
      <acc value="0.5398447597" flag="0"/>
      <vel value="0.1388750842" flag="0"/>
      <psa03 value="0.4647559529" flag="0"/>
      <psa10 value="0.0532057205" flag="0"/>
      <psa30 value="0.0105568208" flag="0"/>
    </comp>
    <comp name="--.HNZ">
      <acc value="0.3407692291" flag="0"/>
      <vel value="0.0599165106" flag="0"/>
      <psa03 value="0.2089796401" flag="0"/>
      <psa10 value="0.0829250180" flag="0"/>
      <psa30 value="0.0093466575" flag="0"/>
    </comp>
  </station>
  <station code="SARI" name="SARI" netid="KO" insttype="CMG-3T" lat="38.4072" lon="36.4181">
    <comp name="--.HHN">
      <acc value="0.0272328066" flag="0"/>
      <vel value="0.0128586303" flag="0"/>
      <psa03 value="0.0641911254" flag="0"/>
      <psa10 value="0.0112870734" flag="0"/>
      <psa30 value="0.0010029713" flag="0"/>
    </comp>
    <comp name="--.HHZ">
      <acc value="0.0155720972" flag="0"/>
      <vel value="0.0090002757" flag="0"/>
      <psa03 value="0.0471167929" flag="0"/>
      <psa10 value="0.0121996811" flag="0"/>
      <psa30 value="0.0007359457" flag="0"/>
    </comp>
  </station>
  <station code="ANDN" name="ANDN" netid="TU" insttype="T" lat="37.58" lon="36.3452">
    <comp name="--.HHE">
      <acc value="0.1638293860" flag="0"/>
      <vel value="0.0622324587" flag="0"/>
      <psa03 value="0.2468228826" flag="0"/>
      <psa10 value="0.0809675691" flag="0"/>
      <psa30 value="0.0065528362" flag="0"/>
    </comp>
    <comp name="--.HHZ">
      <acc value="0.0806743364" flag="0"/>
      <vel value="0.0688700163" flag="0"/>
      <psa03 value="0.1381623169" flag="0"/>
      <psa10 value="0.1250187577" flag="0"/>
      <psa30 value="0.0075121030" flag="0"/>
    </comp>
    <comp name="--.HHN">
      <acc value="0.2746503518" flag="0"/>
      <vel value="0.0843584500" flag="0"/>
      <psa03 value="0.4741490785" flag="0"/>
      <psa10 value="0.0599342598" flag="0"/>
      <psa30 value="0.0064887600" flag="0"/>
    </comp>
  </station>
</stationlist>
