<?xml version="1.0" encoding="UTF-8" standalone="yes"?>
<!DOCTYPE earthquake SYSTEM "stationlist.dtd">
<stationlist created="" xmlns="ch.ethz.sed.shakemap.usgs.xml">
  <station code="CEYT" name="CEYT" netid="KO" insttype="CMG-3ESP" lat="37.0105" lon="35.7478">
    <comp name="--.HHZ">
      <acc value="0.0133683704" flag="0"/>
      <vel value="0.0085959892" flag="0"/>
      <psa03 value="0.0333318616" flag="0"/>
      <psa10 value="0.0113832310" flag="0"/>
      <psa30 value="0.0016041071" flag="0"/>
    </comp>
    <comp name="--.HHE">
      <acc value="0.0197052366" flag="0"/>
      <vel value="0.0137082381" flag="0"/>
      <psa03 value="0.0901060966" flag="0"/>
      <psa10 value="0.0131350435" flag="0"/>
      <psa30 value="0.0013972562" flag="0"/>
    </comp>
    <comp name="--.HHN">
      <acc value="0.0287751635" flag="0"/>
      <vel value="0.0155492993" flag="0"/>
      <psa03 value="0.0697901472" flag="0"/>
      <psa10 value="0.0158026876" flag="0"/>
      <psa30 value="0.0016830453" flag="0"/>
    </comp>
  </station>
  <station code="GAZ" name="GAZ" netid="KO" insttype="CMG-3T" lat="37.1721" lon="37.2096">
    <comp name="--.HHE">
      <acc value="0.6974729278" flag="0"/>
      <vel value="0.3376793338" flag="0"/>
      <psa03 value="0.9992512568" flag="0"/>
      <psa10 value="0.3668302071" flag="0"/>
      <psa30 value="0.0261107563" flag="0"/>
    </comp>
    <comp name="--.HHN">
      <acc value="0.4889678274" flag="0"/>
      <vel value="0.1923535766" flag="0"/>
      <psa03 value="0.7483428132" flag="0"/>
      <psa10 value="0.2524988464" flag="0"/>
      <psa30 value="0.0074214125" flag="0"/>
    </comp>
  </station>
  <station code="KHMN" name="KHMN" netid="KO" insttype="CMG-5T" lat="37.3916" lon="37.1574">
    <comp name="--.HNE">
      <acc value="0.7368124003" flag="0"/>
      <vel value="0.1635080712" flag="0"/>
      <psa03 value="0.3639035777" flag="0"/>
      <psa10 value="0.1111264581" flag="0"/>
      <psa30 value="0.0207811365" flag="0"/>
    </comp>
    <comp name="--.HNN">
      <acc value="0.5398447637" flag="0"/>
      <vel value="0.1388750843" flag="0"/>
      <psa03 value="0.4647559529" flag="0"/>
      <psa10 value="0.0532057189" flag="0"/>
      <psa30 value="0.0105567048" flag="0"/>
    </comp>
    <comp name="--.HNZ">
      <acc value="0.3407693588" flag="0"/>
      <vel value="0.0599165112" flag="0"/>
      <psa03 value="0.2089796401" flag="0"/>
      <psa10 value="0.0829250170" flag="0"/>
      <psa30 value="0.0093463668" flag="0"/>
    </comp>
  </station>
  <station code="ANDN" name="ANDN" netid="TU" insttype="T" lat="37.58" lon="36.3452">
    <comp name="--.HHZ">
      <acc value="0.0806743359" flag="0"/>
      <vel value="0.0688700161" flag="0"/>
      <psa03 value="0.1381623169" flag="0"/>
      <psa10 value="0.1250187579" flag="0"/>
      <psa30 value="0.0075121075" flag="0"/>
    </comp>
    <comp name="--.HHE">
      <acc value="0.1638293855" flag="0"/>
      <vel value="0.0622324588" flag="0"/>
      <psa03 value="0.2468228826" flag="0"/>
      <psa10 value="0.0809675690" flag="0"/>
      <psa30 value="0.0065528311" flag="0"/>
    </comp>
    <comp name="--.HHN">
      <acc value="0.2746503513" flag="0"/>
      <vel value="0.0843584505" flag="0"/>
      <psa03 value="0.4741490785" flag="0"/>
      <psa10 value="0.0599342598" flag="0"/>
      <psa30 value="0.0064887500" flag="0"/>
    </comp>
  </station>
</stationlist>
