<?xml version="1.0" encoding="UTF-8" standalone="yes"?>
<!DOCTYPE earthquake SYSTEM "stationlist.dtd">
<stationlist created="" xmlns="ch.ethz.sed.shakemap.usgs.xml">
  <station code="IMMV" name="IMMV" netid="GE" insttype="STS-2/N" lat="35.4606" lon="23.9811">
    <comp name="--.HHE">
      <acc value="0.0316230231" flag="0"/>
      <vel value="0.0122950980" flag="0"/>
      <psa03 value="0.0632020828" flag="0"/>
      <psa10 value="0.0141283868" flag="0"/>
      <psa30 value="0.0009406775" flag="0"/>
    </comp>
    <comp name="--.HHZ">
      <acc value="0.0200458442" flag="0"/>
      <vel value="0.0074467627" flag="0"/>
      <psa03 value="0.0446565193" flag="0"/>
      <psa10 value="0.0058626685" flag="0"/>
      <psa30 value="0.0003517267" flag="0"/>
    </comp>
    <comp name="--.HHN">
      <acc value="0.0355098946" flag="0"/>
      <vel value="0.0152049283" flag="0"/>
      <psa03 value="0.0878805136" flag="0"/>
      <psa10 value="0.0091456988" flag="0"/>
      <psa30 value="0.0007321326" flag="0"/>
    </comp>
  </station>
  <station code="CHAN" name="CHAN" netid="HC" insttype="120" lat="35.5193" lon="24.0428">
    <comp name="--.HHE">
      <acc value="0.0221076330" flag="0"/>
      <vel value="0.0158294654" flag="0"/>
      <psa03 value="0.0938649403" flag="0"/>
      <psa10 value="0.0204166226" flag="0"/>
      <psa30 value="0.0011974819" flag="0"/>
    </comp>
    <comp name="--.HHZ">
      <acc value="0.0153420221" flag="0"/>
      <vel value="0.0100317469" flag="0"/>
      <psa03 value="0.0713286185" flag="0"/>
      <psa10 value="0.0108219428" flag="0"/>
      <psa30 value="0.0004355626" flag="0"/>
    </comp>
    <comp name="--.HHN">
      <acc value="0.0160807082" flag="0"/>
      <vel value="0.0145956010" flag="0"/>
      <psa03 value="0.0736831942" flag="0"/>
      <psa10 value="0.0255314229" flag="0"/>
      <psa30 value="0.0012739958" flag="0"/>
    </comp>
  </station>
  <station code="IMOD" name="IMOD" netid="HC" insttype="120" lat="34.9731" lon="24.7995">
    <comp name="--.HHZ">
      <acc value="0.0152778119" flag="0"/>
      <vel value="0.0076264299" flag="0"/>
      <psa03 value="0.0408540608" flag="0"/>
      <psa10 value="0.0075583763" flag="0"/>
      <psa30 value="0.0003065010" flag="0"/>
    </comp>
    <comp name="--.HHE">
      <acc value="0.0165876001" flag="0"/>
      <vel value="0.0101254312" flag="0"/>
      <psa03 value="0.0652575400" flag="0"/>
      <psa10 value="0.0081624543" flag="0"/>
      <psa30 value="0.0006148581" flag="0"/>
    </comp>
    <comp name="--.HHN">
      <acc value="0.0276509371" flag="0"/>
      <vel value="0.0150503963" flag="0"/>
      <psa03 value="0.0754081573" flag="0"/>
      <psa10 value="0.0099084079" flag="0"/>
      <psa30 value="0.0006483250" flag="0"/>
    </comp>
  </station>
  <station code="KNDR" name="KNDR" netid="HC" insttype="120" lat="35.2348" lon="23.6248">
    <comp name="--.HHN">
      <acc value="0.0214636934" flag="0"/>
      <vel value="0.0101117379" flag="0"/>
      <psa03 value="0.0540236088" flag="0"/>
      <psa10 value="0.0091859954" flag="0"/>
      <psa30 value="0.0005455278" flag="0"/>
    </comp>
    <comp name="--.HHE">
      <acc value="0.0193459463" flag="0"/>
      <vel value="0.0075937488" flag="0"/>
      <psa03 value="0.0640288210" flag="0"/>
      <psa10 value="0.0123560732" flag="0"/>
      <psa30 value="0.0005157348" flag="0"/>
    </comp>
    <comp name="--.HHZ">
      <acc value="0.0166911400" flag="0"/>
      <vel value="0.0054231332" flag="0"/>
      <psa03 value="0.0425643601" flag="0"/>
      <psa10 value="0.0051194255" flag="0"/>
      <psa30 value="0.0003089100" flag="0"/>
    </comp>
  </station>
  <station code="IMMV" name="IMMV" netid="HL" insttype="120" lat="35.4606" lon="23.9811">
    <comp name="--.HHZ">
      <acc value="0.0220952183" flag="0"/>
      <vel value="0.0072996064" flag="0"/>
      <psa03 value="0.0433811810" flag="0"/>
      <psa10 value="0.0058038415" flag="0"/>
      <psa30 value="0.0003474797" flag="0"/>
    </comp>
    <comp name="--.HHE">
      <acc value="0.0312896311" flag="0"/>
      <vel value="0.0120911274" flag="0"/>
      <psa03 value="0.0615679450" flag="0"/>
      <psa10 value="0.0140372524" flag="0"/>
      <psa30 value="0.0009322615" flag="0"/>
    </comp>
    <comp name="--.HHN">
      <acc value="0.0347183830" flag="0"/>
      <vel value="0.0149474917" flag="0"/>
      <psa03 value="0.0856978651" flag="0"/>
      <psa10 value="0.0090679786" flag="0"/>
      <psa30 value="0.0007207969" flag="0"/>
    </comp>
  </station>
  <station code="SIVA" name="SIVA" netid="HL" insttype="60" lat="35.0178" lon="24.812">
    <comp name="--.HHE">
      <acc value="0.0329357512" flag="0"/>
      <vel value="0.0171570067" flag="0"/>
      <psa03 value="0.0954320204" flag="0"/>
      <psa10 value="0.0158409354" flag="0"/>
      <psa30 value="0.0008996105" flag="0"/>
    </comp>
    <comp name="--.HHN">
      <acc value="0.0231277830" flag="0"/>
      <vel value="0.0123993230" flag="0"/>
      <psa03 value="0.0725524331" flag="0"/>
      <psa10 value="0.0100401198" flag="0"/>
      <psa30 value="0.0005704231" flag="0"/>
    </comp>
    <comp name="--.HHZ">
      <acc value="0.0169135609" flag="0"/>
      <vel value="0.0072064432" flag="0"/>
      <psa03 value="0.0365862680" flag="0"/>
      <psa10 value="0.0067135103" flag="0"/>
      <psa30 value="0.0002395575" flag="0"/>
    </comp>
  </station>
  <station code="VAM" name="VAM" netid="HL" insttype="CMG3ESPC-120s" lat="35.407" lon="24.1997">
    <comp name="--.HHE">
      <acc value="0.0191369056" flag="0"/>
      <vel value="0.0079159667" flag="0"/>
      <psa03 value="0.0476969154" flag="0"/>
      <psa10 value="0.0077710407" flag="0"/>
      <psa30 value="0.0003831141" flag="0"/>
    </comp>
    <comp name="--.HHN">
      <acc value="0.0249283421" flag="0"/>
      <vel value="0.0099220737" flag="0"/>
      <psa03 value="0.0847521857" flag="0"/>
      <psa10 value="0.0079789051" flag="0"/>
      <psa30 value="0.0004658964" flag="0"/>
    </comp>
    <comp name="--.HHZ">
      <acc value="0.0140497910" flag="0"/>
      <vel value="0.0051539364" flag="0"/>
      <psa03 value="0.0320704747" flag="0"/>
      <psa10 value="0.0042166561" flag="0"/>
      <psa30 value="0.0003317237" flag="0"/>
    </comp>
  </station>
</stationlist>
