<?xml version="1.0" encoding="UTF-8" standalone="yes"?>
<!DOCTYPE earthquake SYSTEM "stationlist.dtd">
<stationlist created="" xmlns="ch.ethz.sed.shakemap.usgs.xml">
  <station code="JMIC" name="JMIC" netid="NO" insttype="STS-2" lat="70.9866" lon="-8.5057">
    <comp name="00.HHE">
      <acc value="0.1590470687" flag="0"/>
      <vel value="0.0436634878" flag="0"/>
      <psa03 value="0.2138368577" flag="0"/>
      <psa10 value="0.0195397841" flag="0"/>
      <psa30 value="0.0031411397" flag="0"/>
    </comp>
    <comp name="00.HHZ">
      <acc value="0.1824438412" flag="0"/>
      <vel value="0.0280460193" flag="0"/>
      <psa03 value="0.1344631173" flag="0"/>
      <psa10 value="0.0095709389" flag="0"/>
      <psa30 value="0.0021192617" flag="0"/>
    </comp>
    <comp name="00.HHN">
      <acc value="0.2423647883" flag="0"/>
      <vel value="0.0680408351" flag="0"/>
      <psa03 value="0.4640293812" flag="0"/>
      <psa10 value="0.0264409179" flag="0"/>
      <psa30 value="0.0034631012" flag="0"/>
    </comp>
  </station>
  <station code="JNE" name="JNE" netid="NS" insttype="" lat="70.9883" lon="-8.29267">
    <comp name="00.HHE">
      <acc value="0.3151014335" flag="0"/>
      <vel value="0.0782343770" flag="0"/>
      <psa03 value="0.3929717838" flag="0"/>
      <psa10 value="0.0669516789" flag="0"/>
      <psa30 value="0.0055909253" flag="0"/>
    </comp>
    <comp name="00.HHZ">
      <acc value="0.2655162747" flag="0"/>
      <vel value="0.0561434434" flag="0"/>
      <psa03 value="0.2202256759" flag="0"/>
      <psa10 value="0.0240808471" flag="0"/>
      <psa30 value="0.0028686040" flag="0"/>
    </comp>
    <comp name="00.HHN">
      <acc value="0.3523175707" flag="0"/>
      <vel value="0.1025463922" flag="0"/>
      <psa03 value="0.3834794064" flag="0"/>
      <psa10 value="0.0604345006" flag="0"/>
      <psa30 value="0.0062688479" flag="0"/>
    </comp>
  </station>
  <station code="JNW" name="JNW" netid="NS" insttype="" lat="71.0273" lon="-8.42367">
    <comp name="00.HHE">
      <acc value="0.4103073392" flag="0"/>
      <vel value="0.1193941193" flag="0"/>
      <psa03 value="0.6010417140" flag="0"/>
      <psa10 value="0.0443687984" flag="0"/>
      <psa30 value="0.0040554958" flag="0"/>
    </comp>
    <comp name="00.HHZ">
      <acc value="0.2663835148" flag="0"/>
      <vel value="0.0913337393" flag="0"/>
      <psa03 value="0.4431599095" flag="0"/>
      <psa10 value="0.0242229698" flag="0"/>
      <psa30 value="0.0035551977" flag="0"/>
    </comp>
    <comp name="00.HHN">
      <acc value="0.5964743944" flag="0"/>
      <vel value="0.2215016931" flag="0"/>
      <psa03 value="1.2005271840" flag="0"/>
      <psa10 value="0.1001118234" flag="0"/>
      <psa30 value="0.0092453380" flag="0"/>
    </comp>
  </station>
</stationlist>
