<stationlist created="1779740668">
	<station code="MALA" name="MALA" netid="CL" source="Corinth Riff Laboratory (CRLNET)" insttype="" lat="38.39341" lon="21.87263">
		<comp name="01.HNE" depth="0.0">
			<acc value="0.142844811072755" flag="0"/>
			<vel value="0.182907698528477" flag="0"/>
			<psa03 value="0.243773815485563" flag="0"/>
			<psa10 value="0.313144184265376" flag="0"/>
			<psa30 value="0.0236711931003707" flag="0"/>
		</comp>
		<comp name="01.HNN" depth="0.0">
			<acc value="0.0594080759327445" flag="0"/>
			<vel value="0.0698966019577684" flag="0"/>
			<psa03 value="0.097750996357105" flag="0"/>
			<psa10 value="0.127353561548434" flag="0"/>
			<psa30 value="0.00620626238442421" flag="0"/>
		</comp>
		<comp name="01.HNZ" depth="0.0">
			<acc value="0.297149931493186" flag="0"/>
			<vel value="0.393093040262894" flag="0"/>
			<psa03 value="0.516170402089239" flag="0"/>
			<psa10 value="0.648989672380719" flag="0"/>
			<psa30 value="0.058471740132486" flag="0"/>
		</comp>
	</station>
	<station code="ROD3" name="ROD3" netid="CL" source="Corinth Riff Laboratory (CRLNET)" insttype="" lat="38.30811" lon="21.89204">
		<comp name="00.HNE" depth="0.0">
			<acc value="0.167719047610764" flag="0"/>
			<vel value="0.0699730890231391" flag="0"/>
			<psa03 value="0.341053572292027" flag="0"/>
			<psa10 value="0.02000690035896" flag="0"/>
			<psa30 value="0.0029879654380461" flag="0"/>
		</comp>
		<comp name="00.HNN" depth="0.0">
			<acc value="0.167856489027682" flag="0"/>
			<vel value="0.057600223937069" flag="0"/>
			<psa03 value="0.301465074748355" flag="0"/>
			<psa10 value="0.0234601909975169" flag="0"/>
			<psa30 value="0.00254263593715223" flag="0"/>
		</comp>
		<comp name="00.HNZ" depth="0.0">
			<acc value="0.100051728771456" flag="0"/>
			<vel value="0.030879187010303" flag="0"/>
			<psa03 value="0.103731111260368" flag="0"/>
			<psa10 value="0.0129716133682243" flag="0"/>
			<psa30 value="0.000807116384165996" flag="0"/>
		</comp>
	</station>
	<station code="TRIZ" name="TRIZ" netid="CL" source="Corinth Riff Laboratory (CRLNET)" insttype="" lat="38.36543" lon="22.07272">
		<comp name="00.HNE" depth="0.0">
			<acc value="0.0161451199678678" flag="0"/>
			<vel value="0.00805366982487144" flag="0"/>
			<psa03 value="0.0342538160222025" flag="0"/>
			<psa10 value="0.00644619796647898" flag="0"/>
			<psa30 value="0.00161357272460733" flag="0"/>
		</comp>
		<comp name="00.HNN" depth="0.0">
			<acc value="0.0247397841232394" flag="0"/>
			<vel value="0.0122463412616309" flag="0"/>
			<psa03 value="0.0579639492021623" flag="0"/>
			<psa10 value="0.00945037104070143" flag="0"/>
			<psa30 value="0.00192552776509777" flag="0"/>
		</comp>
		<comp name="00.HNZ" depth="0.0">
			<acc value="0.0339466310405564" flag="0"/>
			<vel value="0.00767425459744106" flag="0"/>
			<psa03 value="0.0315368756215683" flag="0"/>
			<psa10 value="0.00312939551021927" flag="0"/>
			<psa30 value="0.000726592404014168" flag="0"/>
		</comp>
	</station>
	<station code="AGR3" name="AGR3" netid="HI" source="ITSAK Strong Motion Network" insttype="" lat="38.5893" lon="21.4162">
		<comp name="--.HNE" depth="0.0">
			<acc value="0.0419878829917596" flag="0"/>
			<vel value="0.01500989311853" flag="0"/>
			<psa03 value="0.0517385211731082" flag="0"/>
			<psa10 value="0.0261842439526563" flag="0"/>
			<psa30 value="0.00265282615337993" flag="0"/>
		</comp>
		<comp name="--.HNN" depth="0.0">
			<acc value="0.0364775444994668" flag="0"/>
			<vel value="0.0147270211427579" flag="0"/>
			<psa03 value="0.0742455850722993" flag="0"/>
			<psa10 value="0.0157393276532124" flag="0"/>
			<psa30 value="0.00244245305052766" flag="0"/>
		</comp>
		<comp name="--.HNZ" depth="0.0">
			<acc value="0.045205274333953" flag="0"/>
			<vel value="0.0109453888799148" flag="0"/>
			<psa03 value="0.0429092930509101" flag="0"/>
			<psa10 value="0.0132817270367328" flag="0"/>
			<psa30 value="0.00132355403312569" flag="0"/>
		</comp>
	</station>
	<station code="AIG2" name="AIG2" netid="HI" source="ITSAK Strong Motion Network" insttype="" lat="38.2417" lon="22.0726">
		<comp name="--.HNE" depth="0.0">
			<acc value="0.0458267309759892" flag="0"/>
			<vel value="0.013344773290233" flag="0"/>
			<psa03 value="0.042435423117686" flag="0"/>
			<psa10 value="0.0175102024649777" flag="0"/>
			<psa30 value="0.00184787199578417" flag="0"/>
		</comp>
		<comp name="--.HNN" depth="0.0">
			<acc value="0.0433799564394542" flag="0"/>
			<vel value="0.0120767135341367" flag="0"/>
			<psa03 value="0.0498051014268721" flag="0"/>
			<psa10 value="0.0153057079905378" flag="0"/>
			<psa30 value="0.0017288114002707" flag="0"/>
		</comp>
		<comp name="--.HNZ" depth="0.0">
			<acc value="0.0362918907871948" flag="0"/>
			<vel value="0.0085825788600865" flag="0"/>
			<psa03 value="0.0315064647528308" flag="0"/>
			<psa10 value="0.0192932205811773" flag="0"/>
			<psa30 value="0.00115804504813438" flag="0"/>
		</comp>
	</station>
	<station code="AKR1" name="AKR1" netid="HI" source="ITSAK Strong Motion Network" insttype="" lat="38.153583" lon="22.31326">
		<comp name="--.HNE" depth="0.0">
			<acc value="0.0498870835063908" flag="0"/>
			<vel value="0.0133710369456182" flag="0"/>
			<psa03 value="0.0564804863466953" flag="0"/>
			<psa10 value="0.00884540065188221" flag="0"/>
			<psa30 value="0.0012363181500099" flag="0"/>
		</comp>
		<comp name="--.HNN" depth="0.0">
			<acc value="0.0304634787300098" flag="0"/>
			<vel value="0.0115802621980095" flag="0"/>
			<psa03 value="0.0615140593795385" flag="0"/>
			<psa10 value="0.00573113715970987" flag="0"/>
			<psa30 value="0.000939179716046933" flag="0"/>
		</comp>
		<comp name="--.HNZ" depth="0.0">
			<acc value="0.0286071633275373" flag="0"/>
			<vel value="0.00539429409849815" flag="0"/>
			<psa03 value="0.029999187819798" flag="0"/>
			<psa10 value="0.00647657826027434" flag="0"/>
			<psa30 value="0.000538700998797363" flag="0"/>
		</comp>
	</station>
	<station code="ARE2" name="ARE2" netid="HI" source="ITSAK Strong Motion Network" insttype="" lat="36.66629" lon="22.382635">
		<comp name="--.HNE" depth="0.0">
			<acc value="0.00375603026514317" flag="0"/>
			<vel value="0.00359618608686134" flag="0"/>
			<psa03 value="0.00863166946198982" flag="0"/>
			<psa10 value="0.00450303486646015" flag="0"/>
			<psa30 value="0.000670251432117954" flag="0"/>
		</comp>
		<comp name="--.HNN" depth="0.0">
			<acc value="0.00365120641816203" flag="0"/>
			<vel value="0.00237507873971681" flag="0"/>
			<psa03 value="0.0112723222568612" flag="0"/>
			<psa10 value="0.00273918614513889" flag="0"/>
			<psa30 value="0.00032811095449045" flag="0"/>
		</comp>
		<comp name="--.HNZ" depth="0.0">
			<acc value="0.00246242016953279" flag="0"/>
			<vel value="0.00249940111490785" flag="0"/>
			<psa03 value="0.00682946543940141" flag="0"/>
			<psa10 value="0.00451773865301385" flag="0"/>
			<psa30 value="0.000398743680436896" flag="0"/>
		</comp>
	</station>
	<station code="ARG2" name="ARG2" netid="HI" source="ITSAK Strong Motion Network" insttype="" lat="38.1783" lon="20.4878">
		<comp name="--.HNE" depth="0.0">
			<acc value="0.0560991191832167" flag="0"/>
			<vel value="0.0192891650315497" flag="0"/>
			<psa03 value="0.121881521969334" flag="0"/>
			<psa10 value="0.0152263227316541" flag="0"/>
			<psa30 value="0.000878935829351768" flag="0"/>
		</comp>
		<comp name="--.HNN" depth="0.0">
			<acc value="0.0519807663127879" flag="0"/>
			<vel value="0.0231431433243293" flag="0"/>
			<psa03 value="0.132890949206523" flag="0"/>
			<psa10 value="0.0298347639066874" flag="0"/>
			<psa30 value="0.00159326690027946" flag="0"/>
		</comp>
		<comp name="--.HNZ" depth="0.0">
			<acc value="0.0299231484062888" flag="0"/>
			<vel value="0.00938989938824804" flag="0"/>
			<psa03 value="0.0805475129607603" flag="0"/>
			<psa10 value="0.0124806730333365" flag="0"/>
			<psa30 value="0.000747544260721849" flag="0"/>
		</comp>
	</station>
	<station code="ARS1" name="ARS1" netid="HI" source="ITSAK Strong Motion Network" insttype="" lat="37.6349" lon="22.7293">
		<comp name="--.HNE" depth="0.0">
			<acc value="0.00997268978617602" flag="0"/>
			<vel value="0.00844189864160265" flag="0"/>
			<psa03 value="0.022260425164752" flag="0"/>
			<psa10 value="0.0138747753857754" flag="0"/>
			<psa30 value="0.000842972092764053" flag="0"/>
		</comp>
		<comp name="--.HNN" depth="0.0">
			<acc value="0.0104200047377113" flag="0"/>
			<vel value="0.00792085214456608" flag="0"/>
			<psa03 value="0.0218447361690628" flag="0"/>
			<psa10 value="0.00693892716987051" flag="0"/>
			<psa30 value="0.000901748382238105" flag="0"/>
		</comp>
		<comp name="--.HNZ" depth="0.0">
			<acc value="0.00971839030237799" flag="0"/>
			<vel value="0.00383198564116498" flag="0"/>
			<psa03 value="0.0190896187602225" flag="0"/>
			<psa10 value="0.00691678007773435" flag="0"/>
			<psa30 value="0.000474067810915869" flag="0"/>
		</comp>
	</station>
	<station code="AST1" name="AST1" netid="HI" source="ITSAK Strong Motion Network" insttype="" lat="38.5416" lon="21.0895">
		<comp name="--.HNE" depth="0.0">
			<acc value="0.0743258481366308" flag="0"/>
			<vel value="0.0161205926575318" flag="0"/>
			<psa03 value="0.0668095195527862" flag="0"/>
			<psa10 value="0.00976667918206343" flag="0"/>
			<psa30 value="0.0020415291996235" flag="0"/>
		</comp>
		<comp name="--.HNN" depth="0.0">
			<acc value="0.0860790324269484" flag="0"/>
			<vel value="0.0222237111132941" flag="0"/>
			<psa03 value="0.102804935322425" flag="0"/>
			<psa10 value="0.0109232257976007" flag="0"/>
			<psa30 value="0.000836762775177236" flag="0"/>
		</comp>
		<comp name="--.HNZ" depth="0.0">
			<acc value="0.125813405906922" flag="0"/>
			<vel value="0.0223574532179122" flag="0"/>
			<psa03 value="0.0403220461376663" flag="0"/>
			<psa10 value="0.0116814913414716" flag="0"/>
			<psa30 value="0.000566455181125731" flag="0"/>
		</comp>
	</station>
	<station code="GTH2" name="GTH2" netid="HI" source="ITSAK Strong Motion Network" insttype="" lat="36.7603" lon="22.5659">
		<comp name="--.HNE" depth="0.0">
			<acc value="0.000290848229619224" flag="0"/>
			<vel value="1.71172616898121e-05" flag="0"/>
			<psa03 value="4.11447697064478e-06" flag="0"/>
			<psa10 value="3.65224217963135e-07" flag="0"/>
			<psa30 value="4.05590508975167e-08" flag="0"/>
		</comp>
		<comp name="--.HNN" depth="0.0">
			<acc value="0.000239938964440167" flag="0"/>
			<vel value="1.41117973468459e-05" flag="0"/>
			<psa03 value="3.39922217071858e-06" flag="0"/>
			<psa10 value="3.01929591121074e-07" flag="0"/>
			<psa30 value="3.35211643992492e-08" flag="0"/>
		</comp>
		<comp name="--.HNZ" depth="0.0">
			<acc value="0.00123450181813863" flag="0"/>
			<vel value="7.2172910982815e-05" flag="0"/>
			<psa03 value="1.72878718703746e-05" flag="0"/>
			<psa10 value="1.536238662498e-06" flag="0"/>
			<psa30 value="1.70567901764415e-07" flag="0"/>
		</comp>
	</station>
	<station code="KAC1" name="KAC1" netid="HI" source="ITSAK Strong Motion Network" insttype="" lat="38.143412" lon="21.549694">
		<comp name="--.HNE" depth="0.0">
			<acc value="0.315935216041404" flag="0"/>
			<vel value="0.200335892670804" flag="0"/>
			<psa03 value="0.755734730383601" flag="0"/>
			<psa10 value="0.142217146187969" flag="0"/>
			<psa30 value="0.0149432015804339" flag="0"/>
		</comp>
		<comp name="--.HNN" depth="0.0">
			<acc value="0.300413846694697" flag="0"/>
			<vel value="0.165149305335566" flag="0"/>
			<psa03 value="1.09259037875044" flag="0"/>
			<psa10 value="0.0891376149295243" flag="0"/>
			<psa30 value="0.0120979655975138" flag="0"/>
		</comp>
		<comp name="--.HNZ" depth="0.0">
			<acc value="0.219173379604965" flag="0"/>
			<vel value="0.0728754297984333" flag="0"/>
			<psa03 value="0.268730447906646" flag="0"/>
			<psa10 value="0.0589313026595813" flag="0"/>
			<psa30 value="0.0101009999750085" flag="0"/>
		</comp>
	</station>
	<station code="KAL3" name="KAL3" netid="HI" source="ITSAK Strong Motion Network" insttype="" lat="37.0246" lon="22.103">
		<comp name="--.HNE" depth="0.0">
			<acc value="0.0229033003962702" flag="0"/>
			<vel value="0.0216854373180917" flag="0"/>
			<psa03 value="0.0517013989222746" flag="0"/>
			<psa10 value="0.0229348149439318" flag="0"/>
			<psa30 value="0.00271534196141207" flag="0"/>
		</comp>
		<comp name="--.HNN" depth="0.0">
			<acc value="0.0237832526301002" flag="0"/>
			<vel value="0.0212920585327552" flag="0"/>
			<psa03 value="0.0693139875448328" flag="0"/>
			<psa10 value="0.0345543728076144" flag="0"/>
			<psa30 value="0.00208402534811811" flag="0"/>
		</comp>
		<comp name="--.HNZ" depth="0.0">
			<acc value="0.0181474142958037" flag="0"/>
			<vel value="0.00911418546786897" flag="0"/>
			<psa03 value="0.0308252972329923" flag="0"/>
			<psa10 value="0.0164208246740454" flag="0"/>
			<psa30 value="0.0010757991830828" flag="0"/>
		</comp>
	</station>
	<station code="KLV1" name="KLV1" netid="HI" source="ITSAK Strong Motion Network" insttype="" lat="38.03256" lon="22.10797">
		<comp name="--.HNE" depth="0.0">
			<acc value="0.0518933325999689" flag="0"/>
			<vel value="0.0185996370848126" flag="0"/>
			<psa03 value="0.127389845202048" flag="0"/>
			<psa10 value="0.0139498891116911" flag="0"/>
			<psa30 value="0.000888381559251683" flag="0"/>
		</comp>
		<comp name="--.HNN" depth="0.0">
			<acc value="0.0599032692765864" flag="0"/>
			<vel value="0.0227499529744528" flag="0"/>
			<psa03 value="0.0981295214325335" flag="0"/>
			<psa10 value="0.011567365656205" flag="0"/>
			<psa30 value="0.00105093159822734" flag="0"/>
		</comp>
		<comp name="--.HNZ" depth="0.0">
			<acc value="0.0603521351354134" flag="0"/>
			<vel value="0.0088660898040273" flag="0"/>
			<psa03 value="0.0355396850588821" flag="0"/>
			<psa10 value="0.0107734127482214" flag="0"/>
			<psa30 value="0.000633080428054694" flag="0"/>
		</comp>
	</station>
	<station code="KMV1" name="KMV1" netid="HI" source="ITSAK Strong Motion Network" insttype="" lat="38.7794" lon="22.7846">
		<comp name="--.HNE" depth="0.0">
			<acc value="0.00598941130884519" flag="0"/>
			<vel value="0.00712541841961191" flag="0"/>
			<psa03 value="0.0159519317371896" flag="0"/>
			<psa10 value="0.0172394307776823" flag="0"/>
			<psa30 value="0.000638639754666132" flag="0"/>
		</comp>
		<comp name="--.HNN" depth="0.0">
			<acc value="0.0070083394428708" flag="0"/>
			<vel value="0.00546769539506976" flag="0"/>
			<psa03 value="0.0182519877504457" flag="0"/>
			<psa10 value="0.0118726199403032" flag="0"/>
			<psa30 value="0.000933058060517297" flag="0"/>
		</comp>
		<comp name="--.HNZ" depth="0.0">
			<acc value="0.00256468228950121" flag="0"/>
			<vel value="0.00266310962935465" flag="0"/>
			<psa03 value="0.00914108081215837" flag="0"/>
			<psa10 value="0.00347569532588251" flag="0"/>
			<psa30 value="0.000464061887655893" flag="0"/>
		</comp>
	</station>
	<station code="KOR2" name="KOR2" netid="HI" source="ITSAK Strong Motion Network" insttype="" lat="37.9401" lon="22.9495">
		<comp name="--.HNE" depth="0.0">
			<acc value="0.00778448589756944" flag="0"/>
			<vel value="0.00594210133576115" flag="0"/>
			<psa03 value="0.0258131266596236" flag="0"/>
			<psa10 value="0.0116331665776931" flag="0"/>
			<psa30 value="0.00124476839729731" flag="0"/>
		</comp>
		<comp name="--.HNN" depth="0.0">
			<acc value="0.00671527248724406" flag="0"/>
			<vel value="0.00803965679393025" flag="0"/>
			<psa03 value="0.0239423256449045" flag="0"/>
			<psa10 value="0.0137411071559112" flag="0"/>
			<psa30 value="0.000977251717296835" flag="0"/>
		</comp>
		<comp name="--.HNZ" depth="0.0">
			<acc value="0.00551247594268715" flag="0"/>
			<vel value="0.00397289531758582" flag="0"/>
			<psa03 value="0.0175518163675278" flag="0"/>
			<psa10 value="0.00611155532929661" flag="0"/>
			<psa30 value="0.000321897600177887" flag="0"/>
		</comp>
	</station>
	<station code="KRI1" name="KRI1" netid="HI" source="ITSAK Strong Motion Network" insttype="" lat="37.6621" lon="20.8172">
		<comp name="--.HNE" depth="0.0">
			<acc value="0.101370390473888" flag="0"/>
			<vel value="0.0397686679498264" flag="0"/>
			<psa03 value="0.215092540491855" flag="0"/>
			<psa10 value="0.0281120235335924" flag="0"/>
			<psa30 value="0.00181257611593868" flag="0"/>
		</comp>
		<comp name="--.HNN" depth="0.0">
			<acc value="0.0668908907184539" flag="0"/>
			<vel value="0.030347922736864" flag="0"/>
			<psa03 value="0.231499044008861" flag="0"/>
			<psa10 value="0.0314416722314776" flag="0"/>
			<psa30 value="0.00172476529890301" flag="0"/>
		</comp>
		<comp name="--.HNZ" depth="0.0">
			<acc value="0.0602866643824528" flag="0"/>
			<vel value="0.0226788551761676" flag="0"/>
			<psa03 value="0.13059774520968" flag="0"/>
			<psa10 value="0.0115335927939187" flag="0"/>
			<psa30 value="0.000655996164859793" flag="0"/>
		</comp>
	</station>
	<station code="KYP2" name="KYP2" netid="HI" source="ITSAK Strong Motion Network" insttype="" lat="37.2497" lon="21.667">
		<comp name="--.HNE" depth="0.0">
			<acc value="0.0330421893748277" flag="0"/>
			<vel value="0.0106100237711252" flag="0"/>
			<psa03 value="0.0488424647402493" flag="0"/>
			<psa10 value="0.0103766570901062" flag="0"/>
			<psa30 value="0.00073558065569173" flag="0"/>
		</comp>
		<comp name="--.HNN" depth="0.0">
			<acc value="0.0296794336500441" flag="0"/>
			<vel value="0.0128983239703903" flag="0"/>
			<psa03 value="0.101234175017263" flag="0"/>
			<psa10 value="0.0119657142323432" flag="0"/>
			<psa30 value="0.000628412566748458" flag="0"/>
		</comp>
		<comp name="--.HNZ" depth="0.0">
			<acc value="0.0162022214120532" flag="0"/>
			<vel value="0.00592756640003119" flag="0"/>
			<psa03 value="0.0400481373675545" flag="0"/>
			<psa10 value="0.00695836798897937" flag="0"/>
			<psa30 value="0.000663360611051544" flag="0"/>
		</comp>
	</station>
	<station code="LAM2" name="LAM2" netid="HI" source="ITSAK Strong Motion Network" insttype="" lat="38.90203" lon="22.431301">
		<comp name="--.HNE" depth="0.0">
			<acc value="0.00636001649893034" flag="0"/>
			<vel value="0.0031500480048986" flag="0"/>
			<psa03 value="0.00805072147182828" flag="0"/>
			<psa10 value="0.00411960571616072" flag="0"/>
			<psa30 value="0.00062898515676307" flag="0"/>
		</comp>
		<comp name="--.HNN" depth="0.0">
			<acc value="0.00630819360327753" flag="0"/>
			<vel value="0.00291744955622868" flag="0"/>
			<psa03 value="0.00926651425171648" flag="0"/>
			<psa10 value="0.00352660049497513" flag="0"/>
			<psa30 value="0.000478499771178152" flag="0"/>
		</comp>
		<comp name="--.HNZ" depth="0.0">
			<acc value="0.0179635509907337" flag="0"/>
			<vel value="0.00195408487510383" flag="0"/>
			<psa03 value="0.00311913436171855" flag="0"/>
			<psa10 value="0.00224343353833671" flag="0"/>
			<psa30 value="0.000467953082928483" flag="0"/>
		</comp>
	</station>
	<station code="LEF2" name="LEF2" netid="HI" source="ITSAK Strong Motion Network" insttype="" lat="38.830093" lon="20.708346">
		<comp name="--.HNE" depth="0.0">
			<acc value="0.030926688924118" flag="0"/>
			<vel value="0.0218960118474016" flag="0"/>
			<psa03 value="0.0649186442915801" flag="0"/>
			<psa10 value="0.0380319369291705" flag="0"/>
			<psa30 value="0.00407230393681665" flag="0"/>
		</comp>
		<comp name="--.HNN" depth="0.0">
			<acc value="0.0286139602098708" flag="0"/>
			<vel value="0.0274039529198859" flag="0"/>
			<psa03 value="0.0671557716569555" flag="0"/>
			<psa10 value="0.037548214884959" flag="0"/>
			<psa30 value="0.00238826800270083" flag="0"/>
		</comp>
		<comp name="--.HNZ" depth="0.0">
			<acc value="0.0189118949539796" flag="0"/>
			<vel value="0.0178558909404112" flag="0"/>
			<psa03 value="0.0496542268488384" flag="0"/>
			<psa10 value="0.0420785937503249" flag="0"/>
			<psa30 value="0.00155167435331068" flag="0"/>
		</comp>
	</station>
	<station code="LEO1" name="LEO1" netid="HI" source="ITSAK Strong Motion Network" insttype="" lat="37.1689" lon="22.8637">
		<comp name="--.HNE" depth="0.0">
			<acc value="0.00580713314544037" flag="0"/>
			<vel value="0.00746316996647647" flag="0"/>
