<?xml version="1.0" encoding="UTF-8" standalone="yes"?>
<!DOCTYPE earthquake SYSTEM "stationlist.dtd">
<stationlist created="" xmlns="ch.ethz.sed.shakemap.usgs.xml">
  <station code="RP03B" name="RP03B" netid="5B" insttype="Compact" commtype="DIG" lat="37.2463" lon="21.832">
    <comp name="--.HHN">
      <acc value="0.0073441526" flag="0"/>
      <vel value="0.0050982352" flag="0"/>
      <psa03 value="0.0204832679" flag="0"/>
      <psa10 value="0.0080050156" flag="0"/>
      <psa30 value="0.0006242976" flag="0"/>
    </comp>
    <comp name="--.HHE">
      <acc value="0.0096101569" flag="0"/>
      <vel value="0.0070368253" flag="0"/>
      <psa03 value="0.0309679478" flag="0"/>
      <psa10 value="0.0091345617" flag="0"/>
      <psa30 value="0.0011378325" flag="0"/>
    </comp>
    <comp name="--.HHZ">
      <acc value="0.0050794961" flag="0"/>
      <vel value="0.0034577513" flag="0"/>
      <psa03 value="0.0228380632" flag="0"/>
      <psa10 value="0.0035593044" flag="0"/>
      <psa30 value="0.0006610131" flag="0"/>
    </comp>
  </station>
  <station code="RP05B" name="RP05B" netid="5B" insttype="Compact" commtype="DIG" lat="37.6182" lon="21.6541">
    <comp name="--.HHZ">
      <acc value="0.1851737208" flag="0"/>
      <vel value="0.0940159711" flag="0"/>
      <psa03 value="0.4366865412" flag="0"/>
      <psa10 value="0.0709547265" flag="0"/>
      <psa30 value="0.0054639280" flag="0"/>
    </comp>
    <comp name="--.HHN">
      <acc value="0.4595645388" flag="0"/>
      <vel value="0.2053243274" flag="0"/>
      <psa03 value="1.5611859044" flag="0"/>
      <psa10 value="0.1209889881" flag="0"/>
      <psa30 value="0.0088845702" flag="0"/>
    </comp>
    <comp name="--.HHE">
      <acc value="0.5266068546" flag="0"/>
      <vel value="0.1980526291" flag="0"/>
      <psa03 value="1.2520250127" flag="0"/>
      <psa10 value="0.1192838339" flag="0"/>
      <psa30 value="0.0118711212" flag="0"/>
    </comp>
  </station>
  <station code="RP08B" name="RP08B" netid="5B" insttype="Compact" commtype="DIG" lat="37.5664" lon="21.9493">
    <comp name="--.HHE">
      <acc value="0.0386348689" flag="0"/>
      <vel value="0.0130375372" flag="0"/>
      <psa03 value="0.0895585767" flag="0"/>
      <psa10 value="0.0115802986" flag="0"/>
      <psa30 value="0.0009793412" flag="0"/>
    </comp>
    <comp name="--.HHZ">
      <acc value="0.0215564397" flag="0"/>
      <vel value="0.0118162175" flag="0"/>
      <psa03 value="0.0757364497" flag="0"/>
      <psa10 value="0.0096216344" flag="0"/>
      <psa30 value="0.0008678948" flag="0"/>
    </comp>
    <comp name="--.HHN">
      <acc value="0.0545500221" flag="0"/>
      <vel value="0.0225051015" flag="0"/>
      <psa03 value="0.1006937693" flag="0"/>
      <psa10 value="0.0161009175" flag="0"/>
      <psa30 value="0.0021359780" flag="0"/>
    </comp>
  </station>
  <station code="ANTK" name="ANTK" netid="HA" insttype="25" commtype="DIG" lat="38.3605" lon="22.6385">
    <comp name="--.HHE">
      <acc value="0.0014342002" flag="0"/>
      <vel value="0.0008714603" flag="0"/>
      <psa03 value="0.0028628872" flag="0"/>
      <psa10 value="0.0014579478" flag="0"/>
      <psa30 value="0.0002083701" flag="0"/>
    </comp>
    <comp name="--.HHZ">
      <acc value="0.0014678103" flag="0"/>
      <vel value="0.0009641321" flag="0"/>
      <psa03 value="0.0021394564" flag="0"/>
      <psa10 value="0.0010227206" flag="0"/>
      <psa30 value="0.0001026779" flag="0"/>
    </comp>
    <comp name="--.HHN">
      <acc value="0.0015252651" flag="0"/>
      <vel value="0.0010399485" flag="0"/>
      <psa03 value="0.0031243990" flag="0"/>
      <psa10 value="0.0013051869" flag="0"/>
      <psa30 value="0.0002766171" flag="0"/>
    </comp>
  </station>
  <station code="ATHR" name="ATHR" netid="HA" insttype="GEOtiny," commtype="DIG" lat="38.3172" lon="20.4165">
    <comp name="--.HHE">
      <acc value="0.0138709379" flag="0"/>
      <vel value="0.0130811173" flag="0"/>
      <psa03 value="0.0567494297" flag="0"/>
      <psa10 value="0.0161837404" flag="0"/>
      <psa30 value="0.0011776388" flag="0"/>
    </comp>
    <comp name="--.HHZ">
      <acc value="0.0150818673" flag="0"/>
      <vel value="0.0085751592" flag="0"/>
      <psa03 value="0.0474246980" flag="0"/>
      <psa10 value="0.0133475673" flag="0"/>
      <psa30 value="0.0008268081" flag="0"/>
    </comp>
    <comp name="--.HHN">
      <acc value="0.0188303045" flag="0"/>
      <vel value="0.0096989105" flag="0"/>
      <psa03 value="0.0514375128" flag="0"/>
      <psa10 value="0.0087846706" flag="0"/>
      <psa30 value="0.0010793197" flag="0"/>
    </comp>
  </station>
  <station code="HAVD" name="HAVD" netid="HA" insttype="GEOtiny," commtype="DIG" lat="38.2036" lon="20.3848">
    <comp name="--.HHE">
      <acc value="0.0212803459" flag="0"/>
      <vel value="0.0146199760" flag="0"/>
      <psa03 value="0.0376815812" flag="0"/>
      <psa10 value="0.0149414823" flag="0"/>
      <psa30 value="0.0010749199" flag="0"/>
    </comp>
    <comp name="--.HHZ">
      <acc value="0.0269021407" flag="0"/>
      <vel value="0.0116747841" flag="0"/>
      <psa03 value="0.0548873990" flag="0"/>
      <psa10 value="0.0081674303" flag="0"/>
      <psa30 value="0.0006156025" flag="0"/>
    </comp>
    <comp name="--.HHN">
      <acc value="0.0307204204" flag="0"/>
      <vel value="0.0139379263" flag="0"/>
      <psa03 value="0.0594268721" flag="0"/>
      <psa10 value="0.0151092481" flag="0"/>
      <psa30 value="0.0013495387" flag="0"/>
    </comp>
  </station>
  <station code="KALE" name="KALE" netid="HA" insttype="40," commtype="DIG" lat="38.3911" lon="22.1398">
    <comp name="--.HHN">
      <acc value="0.0355053026" flag="0"/>
      <vel value="0.0116976875" flag="0"/>
      <psa03 value="0.0374532360" flag="0"/>
      <psa10 value="0.0078647335" flag="0"/>
      <psa30 value="0.0006669946" flag="0"/>
    </comp>
    <comp name="--.HHZ">
      <acc value="0.0234189167" flag="0"/>
      <vel value="0.0050843185" flag="0"/>
      <psa03 value="0.0318094675" flag="0"/>
      <psa10 value="0.0023425920" flag="0"/>
      <psa30 value="0.0004910808" flag="0"/>
    </comp>
    <comp name="--.HHE">
      <acc value="0.0407289758" flag="0"/>
      <vel value="0.0138348691" flag="0"/>
      <psa03 value="0.0442728953" flag="0"/>
      <psa10 value="0.0093707340" flag="0"/>
      <psa30 value="0.0012193357" flag="0"/>
    </comp>
  </station>
  <station code="LAKA" name="LAKA" netid="HA" insttype="120s," commtype="DIG" lat="38.2401" lon="21.9785">
    <comp name="--.HHN">
      <acc value="0.0243373186" flag="0"/>
      <vel value="0.0165437117" flag="0"/>
      <psa03 value="0.0324576929" flag="0"/>
      <psa10 value="0.0260767309" flag="0"/>
      <psa30 value="0.0030301031" flag="0"/>
    </comp>
    <comp name="--.HHZ">
      <acc value="0.0313268498" flag="0"/>
      <vel value="0.0048934687" flag="0"/>
      <psa03 value="0.0325469558" flag="0"/>
      <psa10 value="0.0084944060" flag="0"/>
      <psa30 value="0.0006211106" flag="0"/>
    </comp>
    <comp name="--.HHE">
      <acc value="0.0265896082" flag="0"/>
      <vel value="0.0109109226" flag="0"/>
      <psa03 value="0.0238242206" flag="0"/>
      <psa10 value="0.0102692403" flag="0"/>
      <psa30 value="0.0019574116" flag="0"/>
    </comp>
  </station>
  <station code="THAL" name="THAL" netid="HA" insttype="30" commtype="DIG" lat="38.0357" lon="22.6634">
    <comp name="--.HHN">
      <acc value="0.0270067387" flag="0"/>
      <vel value="0.0085761506" flag="0"/>
      <psa03 value="0.0336488577" flag="0"/>
      <psa10 value="0.0114406585" flag="0"/>
      <psa30 value="0.0008199694" flag="0"/>
    </comp>
    <comp name="--.HHE">
      <acc value="0.0291400484" flag="0"/>
      <vel value="0.0114148800" flag="0"/>
      <psa03 value="0.0510094973" flag="0"/>
      <psa10 value="0.0146199841" flag="0"/>
      <psa30 value="0.0011897520" flag="0"/>
    </comp>
    <comp name="--.HHZ">
      <acc value="0.0157464053" flag="0"/>
      <vel value="0.0054134575" flag="0"/>
      <psa03 value="0.0264967476" flag="0"/>
      <psa10 value="0.0071452807" flag="0"/>
      <psa30 value="0.0004687188" flag="0"/>
    </comp>
  </station>
  <station code="AGR3" name="AGR3" netid="HI" insttype="unknown" commtype="DIG" lat="38.5893" lon="21.4162">
    <comp name="--.HNE">
      <acc value="0.0427058180" flag="0"/>
      <vel value="0.0151300589" flag="0"/>
      <psa03 value="0.0516357556" flag="0"/>
      <psa10 value="0.0261415378" flag="0"/>
      <psa30 value="0.0023110151" flag="0"/>
    </comp>
    <comp name="--.HNN">
      <acc value="0.0362469044" flag="0"/>
      <vel value="0.0145951896" flag="0"/>
      <psa03 value="0.0728000680" flag="0"/>
      <psa10 value="0.0157363619" flag="0"/>
      <psa30 value="0.0021335851" flag="0"/>
    </comp>
    <comp name="--.HNZ">
      <acc value="0.0484343397" flag="0"/>
      <vel value="0.0105222384" flag="0"/>
      <psa03 value="0.0430227722" flag="0"/>
      <psa10 value="0.0132682430" flag="0"/>
      <psa30 value="0.0011448555" flag="0"/>
    </comp>
  </station>
  <station code="AIG2" name="AIG2" netid="HI" insttype="unknown" commtype="DIG" lat="38.2417" lon="22.0726">
    <comp name="--.HNE">
      <acc value="0.0456506755" flag="0"/>
      <vel value="0.0130129739" flag="0"/>
      <psa03 value="0.0414730078" flag="0"/>
      <psa10 value="0.0174533805" flag="0"/>
      <psa30 value="0.0017380900" flag="0"/>
    </comp>
    <comp name="--.HNN">
      <acc value="0.0437674909" flag="0"/>
      <vel value="0.0119904516" flag="0"/>
      <psa03 value="0.0491051612" flag="0"/>
      <psa10 value="0.0152919798" flag="0"/>
      <psa30 value="0.0016265879" flag="0"/>
    </comp>
    <comp name="--.HNZ">
      <acc value="0.0429524633" flag="0"/>
      <vel value="0.0082781830" flag="0"/>
      <psa03 value="0.0314214424" flag="0"/>
      <psa10 value="0.0192848629" flag="0"/>
      <psa30 value="0.0010352584" flag="0"/>
    </comp>
  </station>
  <station code="AKR1" name="AKR1" netid="HI" insttype="unknown" commtype="DIG" lat="38.1536" lon="22.3133">
    <comp name="--.HNE">
      <acc value="0.0498914573" flag="0"/>
      <vel value="0.0131893444" flag="0"/>
      <psa03 value="0.0556573603" flag="0"/>
      <psa10 value="0.0088395006" flag="0"/>
      <psa30 value="0.0011957637" flag="0"/>
    </comp>
    <comp name="--.HNZ">
      <acc value="0.0331595687" flag="0"/>
      <vel value="0.0052844448" flag="0"/>
      <psa03 value="0.0297722123" flag="0"/>
      <psa10 value="0.0064668441" flag="0"/>
      <psa30 value="0.0005026967" flag="0"/>
    </comp>
    <comp name="--.HNN">
      <acc value="0.0305085357" flag="0"/>
      <vel value="0.0113667490" flag="0"/>
      <psa03 value="0.0616481127" flag="0"/>
      <psa10 value="0.0057157297" flag="0"/>
      <psa30 value="0.0008446437" flag="0"/>
    </comp>
  </station>
  <station code="AST1" name="AST1" netid="HI" insttype="unknown" commtype="DIG" lat="38.5416" lon="21.0895">
    <comp name="--.HNN">
      <acc value="0.0855666230" flag="0"/>
      <vel value="0.0219581814" flag="0"/>
      <psa03 value="0.1015871908" flag="0"/>
      <psa10 value="0.0108988512" flag="0"/>
      <psa30 value="0.0007999086" flag="0"/>
    </comp>
    <comp name="--.HNE">
      <acc value="0.0740727644" flag="0"/>
      <vel value="0.0161286519" flag="0"/>
      <psa03 value="0.0666846333" flag="0"/>
      <psa10 value="0.0097493465" flag="0"/>
      <psa30 value="0.0018266160" flag="0"/>
    </comp>
    <comp name="--.HNZ">
      <acc value="0.1277415613" flag="0"/>
      <vel value="0.0220070343" flag="0"/>
      <psa03 value="0.0399384921" flag="0"/>
      <psa10 value="0.0116481748" flag="0"/>
      <psa30 value="0.0005683606" flag="0"/>
    </comp>
  </station>
  <station code="KAC1" name="KAC1" netid="HI" insttype="unknown" commtype="DIG" lat="38.1434" lon="21.5497">
    <comp name="--.HNE">
      <acc value="0.3154734330" flag="0"/>
      <vel value="0.1984779676" flag="0"/>
      <psa03 value="0.7599592850" flag="0"/>
      <psa10 value="0.1412232076" flag="0"/>
      <psa30 value="0.0158111819" flag="0"/>
    </comp>
    <comp name="--.HNN">
      <acc value="0.3001854340" flag="0"/>
      <vel value="0.1663869843" flag="0"/>
      <psa03 value="1.0802141353" flag="0"/>
      <psa10 value="0.0887553373" flag="0"/>
      <psa30 value="0.0112670581" flag="0"/>
    </comp>
    <comp name="--.HNZ">
      <acc value="0.2365050836" flag="0"/>
      <vel value="0.0708663646" flag="0"/>
      <psa03 value="0.2651080393" flag="0"/>
      <psa10 value="0.0588132750" flag="0"/>
      <psa30 value="0.0092309686" flag="0"/>
    </comp>
  </station>
  <station code="KAL3" name="KAL3" netid="HI" insttype="unknown" commtype="DIG" lat="37.0246" lon="22.103">
    <comp name="--.HNN">
      <acc value="0.0237697714" flag="0"/>
      <vel value="0.0212742429" flag="0"/>
      <psa03 value="0.0687584504" flag="0"/>
      <psa10 value="0.0345881784" flag="0"/>
      <psa30 value="0.0020778949" flag="0"/>
    </comp>
    <comp name="--.HNZ">
      <acc value="0.0181877123" flag="0"/>
      <vel value="0.0091167357" flag="0"/>
      <psa03 value="0.0310944528" flag="0"/>
      <psa10 value="0.0164503932" flag="0"/>
      <psa30 value="0.0010485806" flag="0"/>
    </comp>
    <comp name="--.HNE">
      <acc value="0.0229549257" flag="0"/>
      <vel value="0.0215360124" flag="0"/>
      <psa03 value="0.0518251972" flag="0"/>
      <psa10 value="0.0228834811" flag="0"/>
      <psa30 value="0.0025735151" flag="0"/>
    </comp>
  </station>
  <station code="KLV1" name="KLV1" netid="HI" insttype="CMG-5TD,ACCELEROMETER,GURALP" commtype="DIG" lat="38.0326" lon="22.108">
    <comp name="--.HNZ">
      <acc value="0.0650435033" flag="0"/>
      <vel value="0.0086890645" flag="0"/>
      <psa03 value="0.0351287490" flag="0"/>
      <psa10 value="0.0107708327" flag="0"/>
      <psa30 value="0.0005556513" flag="0"/>
    </comp>
    <comp name="--.HNN">
      <acc value="0.0590916739" flag="0"/>
      <vel value="0.0223583203" flag="0"/>
      <psa03 value="0.0965510761" flag="0"/>
      <psa10 value="0.0115037324" flag="0"/>
      <psa30 value="0.0009796143" flag="0"/>
    </comp>
    <comp name="--.HNE">
      <acc value="0.0529295764" flag="0"/>
      <vel value="0.0185932951" flag="0"/>
      <psa03 value="0.1271161292" flag="0"/>
      <psa10 value="0.0139245654" flag="0"/>
      <psa30 value="0.0008367259" flag="0"/>
    </comp>
  </station>
  <station code="KRI1" name="KRI1" netid="HI" insttype="CMG-5TD,ACCELEROMETER,GURALP" commtype="DIG" lat="37.6621" lon="20.8172">
    <comp name="--.HNN">
      <acc value="0.0665457220" flag="0"/>
      <vel value="0.0302332780" flag="0"/>
      <psa03 value="0.2301092510" flag="0"/>
      <psa10 value="0.0313848255" flag="0"/>
      <psa30 value="0.0015803259" flag="0"/>
    </comp>
    <comp name="--.HNZ">
      <acc value="0.0597214229" flag="0"/>
      <vel value="0.0224017030" flag="0"/>
      <psa03 value="0.1303790086" flag="0"/>
      <psa10 value="0.0115284992" flag="0"/>
      <psa30 value="0.0006764301" flag="0"/>
    </comp>
    <comp name="--.HNE">
      <acc value="0.1012442306" flag="0"/>
      <vel value="0.0393479928" flag="0"/>
      <psa03 value="0.2084909844" flag="0"/>
      <psa10 value="0.0280247576" flag="0"/>
      <psa30 value="0.0017152232" flag="0"/>
    </comp>
  </station>
  <station code="LEF2" name="LEF2" netid="HI" insttype="unknown" commtype="DIG" lat="38.8301" lon="20.7083">
    <comp name="--.HNN">
      <acc value="0.0285666368" flag="0"/>
      <vel value="0.0270781010" flag="0"/>
      <psa03 value="0.0677928523" flag="0"/>
      <psa10 value="0.0374771184" flag="0"/>
      <psa30 value="0.0023089187" flag="0"/>
    </comp>
    <comp name="--.HNZ">
      <acc value="0.0190420629" flag="0"/>
      <vel value="0.0177072259" flag="0"/>
      <psa03 value="0.0502565487" flag="0"/>
      <psa10 value="0.0420110215" flag="0"/>
      <psa30 value="0.0014397233" flag="0"/>
    </comp>
    <comp name="--.HNE">
      <acc value="0.0310871365" flag="0"/>
      <vel value="0.0225954924" flag="0"/>
      <psa03 value="0.0633891648" flag="0"/>
      <psa10 value="0.0380000090" flag="0"/>
      <psa30 value="0.0037274448" flag="0"/>
    </comp>
  </station>
  <station code="LXR2" name="LXR2" netid="HI" insttype="unknown" commtype="DIG" lat="38.2067" lon="20.4364">
    <comp name="--.HNN">
      <acc value="0.0370588300" flag="0"/>
      <vel value="0.0195189907" flag="0"/>
      <psa03 value="0.1106754933" flag="0"/>
      <psa10 value="0.0247055761" flag="0"/>
      <psa30 value="0.0029169737" flag="0"/>
    </comp>
    <comp name="--.HNZ">
      <acc value="0.0304384142" flag="0"/>
      <vel value="0.0136933227" flag="0"/>
      <psa03 value="0.0529067778" flag="0"/>
      <psa10 value="0.0209348632" flag="0"/>
      <psa30 value="0.0015680905" flag="0"/>
    </comp>
    <comp name="--.HNE">
      <acc value="0.0415352775" flag="0"/>
      <vel value="0.0255206525" flag="0"/>
      <psa03 value="0.1320647609" flag="0"/>
      <psa10 value="0.0349557025" flag="0"/>
      <psa30 value="0.0020486127" flag="0"/>
    </comp>
  </station>
  <station code="MSL1" name="MSL1" netid="HI" insttype="CMG-5TD,ACCELEROMETER,GURALP" commtype="DIG" lat="38.3727" lon="21.4243">
    <comp name="--.HNE">
      <acc value="0.0483363146" flag="0"/>
      <vel value="0.0297679507" flag="0"/>
      <psa03 value="0.1769821143" flag="0"/>
      <psa10 value="0.0339454764" flag="0"/>
      <psa30 value="0.0037694441" flag="0"/>
    </comp>
    <comp name="--.HNZ">
      <acc value="0.0445380765" flag="0"/>
      <vel value="0.0118991804" flag="0"/>
      <psa03 value="0.0666430857" flag="0"/>
      <psa10 value="0.0279575663" flag="0"/>
      <psa30 value="0.0012260576" flag="0"/>
    </comp>
    <comp name="--.HNN">
      <acc value="0.0546652913" flag="0"/>
      <vel value="0.0235729469" flag="0"/>
      <psa03 value="0.1576725864" flag="0"/>
      <psa10 value="0.0395964192" flag="0"/>
      <psa30 value="0.0038725554" flag="0"/>
    </comp>
  </station>
  <station code="PET1" name="PET1" netid="HI" insttype="unknown" commtype="DIG" lat="36.9639" lon="21.9254">
    <comp name="--.HNN">
      <acc value="0.0210761100" flag="0"/>
      <vel value="0.0173771694" flag="0"/>
      <psa03 value="0.0639850760" flag="0"/>
      <psa10 value="0.0219971690" flag="0"/>
      <psa30 value="0.0011789074" flag="0"/>
    </comp>
    <comp name="--.HNE">
      <acc value="0.0268635288" flag="0"/>
      <vel value="0.0165276044" flag="0"/>
      <psa03 value="0.0516009646" flag="0"/>
      <psa10 value="0.0242423670" flag="0"/>
      <psa30 value="0.0013883735" flag="0"/>
    </comp>
    <comp name="--.HNZ">
      <acc value="0.0673861011" flag="0"/>
      <vel value="0.0075777497" flag="0"/>
      <psa03 value="0.0291567421" flag="0"/>
      <psa10 value="0.0069373152" flag="0"/>
      <psa30 value="0.0006103337" flag="0"/>
    </comp>
  </station>
  <station code="PYL1" name="PYL1" netid="HI" insttype="unknown" commtype="DIG" lat="36.9142" lon="21.6952">
    <comp name="--.HNE">
      <acc value="0.0065762436" flag="0"/>
      <vel value="0.0049726796" flag="0"/>
      <psa03 value="0.0329887763" flag="0"/>
      <psa10 value="0.0053945453" flag="0"/>
      <psa30 value="0.0007618671" flag="0"/>
    </comp>
    <comp name="--.HNZ">
      <acc value="0.0167874164" flag="0"/>
      <vel value="0.0099745148" flag="0"/>
      <psa03 value="0.0377175958" flag="0"/>
      <psa10 value="0.0050115076" flag="0"/>
      <psa30 value="0.0004355552" flag="0"/>
    </comp>
    <comp name="--.HNN">
      <acc value="0.0050991354" flag="0"/>
      <vel value="0.0040971074" flag="0"/>
      <psa03 value="0.0141416713" flag="0"/>
      <psa10 value="0.0046720802" flag="0"/>
      <psa30 value="0.0006211949" flag="0"/>
    </comp>
  </station>
