<?xml version="1.0" encoding="UTF-8" standalone="yes"?>
<!DOCTYPE earthquake SYSTEM "stationlist.dtd">
<stationlist created="" xmlns="ch.ethz.sed.shakemap.usgs.xml">
  <station code="CEYT" name="CEYT" netid="KO" insttype="CMG-3ESP" lat="37.0105" lon="35.7478">
    <comp name="--.HHN">
      <acc value="0.0013280259" flag="0"/>
      <vel value="0.0011143327" flag="0"/>
      <psa03 value="0.0061012803" flag="0"/>
      <psa10 value="0.0014722563" flag="0"/>
      <psa30 value="0.0001782233" flag="0"/>
    </comp>
    <comp name="--.HHZ">
      <acc value="0.0008429289" flag="0"/>
      <vel value="0.0008431001" flag="0"/>
      <psa03 value="0.0024606450" flag="0"/>
      <psa10 value="0.0019603381" flag="0"/>
      <psa30 value="0.0001615753" flag="0"/>
    </comp>
    <comp name="--.HHE">
      <acc value="0.0019126080" flag="0"/>
      <vel value="0.0011051638" flag="0"/>
      <psa03 value="0.0060787210" flag="0"/>
      <psa10 value="0.0019169698" flag="0"/>
      <psa30 value="0.0001294412" flag="0"/>
    </comp>
  </station>
  <station code="ANDN" name="ANDN" netid="TU" insttype="T" lat="37.58" lon="36.3452">
    <comp name="--.HHZ">
      <acc value="0.0239176432" flag="0"/>
      <vel value="0.0112519883" flag="0"/>
      <psa03 value="0.0546163082" flag="0"/>
      <psa10 value="0.0181946513" flag="0"/>
      <psa30 value="0.0014524006" flag="0"/>
    </comp>
    <comp name="--.HHN">
      <acc value="0.0965386811" flag="0"/>
      <vel value="0.0198312143" flag="0"/>
      <psa03 value="0.0854649654" flag="0"/>
      <psa10 value="0.0170231680" flag="0"/>
      <psa30 value="0.0025254550" flag="0"/>
    </comp>
    <comp name="--.HHE">
      <acc value="0.0386689021" flag="0"/>
      <vel value="0.0114929140" flag="0"/>
      <psa03 value="0.0734678308" flag="0"/>
      <psa10 value="0.0105665278" flag="0"/>
      <psa30 value="0.0010201172" flag="0"/>
    </comp>
  </station>
</stationlist>
