<stationlist created="1741951615">
	<station code="ATHU" name="ATHU" netid="HA" source="Hellenic Seismological Network, University of Athens, Seismological Laboratory (HA)" insttype="" lat="37.9665" lon="23.7845">
		<comp name=".HNE" depth="0.0">
			<acc value="0.00017249332487232" flag="0"/>
			<vel value="0.000248525826614" flag="0"/>
			<psa03 value="0.000249188687703268" flag="0"/>
			<psa10 value="0.000118272690942159" flag="0"/>
			<psa30 value="6.93313897392529e-05" flag="0"/>
		</comp>
		<comp name=".HNN" depth="0.0">
			<acc value="0.00012388677879948" flag="0"/>
			<vel value="0.000305219236442" flag="0"/>
			<psa03 value="0.000192773431100882" flag="0"/>
			<psa10 value="0.000120816670503507" flag="0"/>
			<psa30 value="8.7270279925798e-05" flag="0"/>
		</comp>
		<comp name=".HNZ" depth="0.0">
			<acc value="0.00018295486917498" flag="0"/>
			<vel value="0.000206566987354" flag="0"/>
			<psa03 value="0.000509796385440728" flag="0"/>
			<psa10 value="0.000104243626819995" flag="0"/>
			<psa30 value="5.44314215699262e-05" flag="0"/>
		</comp>
	</station>
	<station code="ABEA" name="ABEA" netid="HC" source="Seismological Network of Crete (HC)" insttype="" lat="35.5163" lon="24.0113">
		<comp name=".HNE" depth="0.0">
			<acc value="0.0036320115591138" flag="0"/>
			<vel value="0.00162571593154" flag="0"/>
			<psa03 value="0.00181035413931656" flag="0"/>
			<psa10 value="0.00124587683009984" flag="0"/>
			<psa30 value="0.0012218535459688" flag="0"/>
		</comp>
		<comp name=".HNN" depth="0.0">
			<acc value="0.0036004108559226" flag="0"/>
			<vel value="0.0021619327907" flag="0"/>
			<psa03 value="0.00156358209526655" flag="0"/>
			<psa10 value="0.0012557904946433" flag="0"/>
			<psa30 value="0.00130686282324772" flag="0"/>
		</comp>
		<comp name=".HNZ" depth="0.0">
			<acc value="0.004133191765851" flag="0"/>
			<vel value="0.00164910517757" flag="0"/>
			<psa03 value="0.00161334743624598" flag="0"/>
			<psa10 value="0.000983165950231546" flag="0"/>
			<psa30 value="0.00058690247315829" flag="0"/>
		</comp>
	</station>
	<station code="ATEI" name="ATEI" netid="HC" source="Seismological Network of Crete (HC)" insttype="" lat="35.5193" lon="24.0432">
		<comp name=".HNE" depth="0.0">
			<acc value="0.0079094638177992" flag="0"/>
			<vel value="0.00570368768987" flag="0"/>
			<psa03 value="0.0291690312635206" flag="0"/>
			<psa10 value="0.00802303867445467" flag="0"/>
			<psa30 value="0.000917648185520559" flag="0"/>
		</comp>
		<comp name=".HNN" depth="0.0">
			<acc value="0.0072863371476972" flag="0"/>
			<vel value="0.00459326752894" flag="0"/>
			<psa03 value="0.0261995038177226" flag="0"/>
			<psa10 value="0.0054862909398453" flag="0"/>
			<psa30 value="0.00106318928523742" flag="0"/>
		</comp>
		<comp name=".HNZ" depth="0.0">
			<acc value="0.004586144040807" flag="0"/>
			<vel value="0.00274520094585" flag="0"/>
			<psa03 value="0.0127231787856322" flag="0"/>
			<psa10 value="0.00500189713238438" flag="0"/>
			<psa30 value="0.000893579195236666" flag="0"/>
		</comp>
	</station>
	<station code="G0LD" name="G0LD" netid="HC" source="Seismological Network of Crete (HC)" insttype="" lat="35.4955" lon="24.0306">
		<comp name=".HNE" depth="0.0">
			<acc value="0.0086412033217092" flag="0"/>
			<vel value="0.00303229037078" flag="0"/>
			<psa03 value="0.00259198306683258" flag="0"/>
			<psa10 value="0.00234875481222932" flag="0"/>
			<psa30 value="0.00214594215813456" flag="0"/>
		</comp>
		<comp name=".HNN" depth="0.0">
			<acc value="0.017354487479322" flag="0"/>
			<vel value="0.00268988599368" flag="0"/>
			<psa03 value="0.00163509073861181" flag="0"/>
			<psa10 value="0.00176149391689086" flag="0"/>
			<psa30 value="0.00158643040573015" flag="0"/>
		</comp>
		<comp name=".HNZ" depth="0.0">
			<acc value="0.01134701209932" flag="0"/>
			<vel value="0.00445003210065" flag="0"/>
			<psa03 value="0.00285024838527785" flag="0"/>
			<psa10 value="0.00236671967418942" flag="0"/>
			<psa30 value="0.0017820782622724" flag="0"/>
		</comp>
	</station>
	<station code="POLY" name="POLY" netid="HC" source="Seismological Network of Crete (HC)" insttype="" lat="35.5226" lon="24.0602">
		<comp name=".HNE" depth="0.0">
			<acc value="0.0024625289966676" flag="0"/>
			<vel value="0.00262119028003" flag="0"/>
			<psa03 value="0.00143137265344394" flag="0"/>
			<psa10 value="0.00115626886276396" flag="0"/>
			<psa30 value="0.000987501979661221" flag="0"/>
		</comp>
		<comp name=".HNN" depth="0.0">
			<acc value="0.0027758758311966" flag="0"/>
			<vel value="0.00283284505782" flag="0"/>
			<psa03 value="0.00149486465244586" flag="0"/>
			<psa10 value="0.00130648576702081" flag="0"/>
			<psa30 value="0.000988335159851765" flag="0"/>
		</comp>
		<comp name=".HNZ" depth="0.0">
			<acc value="0.0047665983460884" flag="0"/>
			<vel value="0.0016987309408" flag="0"/>
			<psa03 value="0.00170399878650335" flag="0"/>
			<psa10 value="0.00112105039689845" flag="0"/>
			<psa30 value="0.000634057107339023" flag="0"/>
		</comp>
	</station>
	<station code="ARK1" name="ARK1" netid="HI" source="ITSAK Strong Motion Network" insttype="" lat="35.148777" lon="25.264194">
		<comp name=".HNE" depth="0.0">
			<acc value="0.02088664000794" flag="0"/>
			<vel value="0.0128688159393" flag="0"/>
			<psa03 value="0.0953011569838507" flag="0"/>
			<psa10 value="0.0142961120472716" flag="0"/>
			<psa30 value="0.00173356661111242" flag="0"/>
		</comp>
		<comp name=".HNN" depth="0.0">
			<acc value="0.01653639417912" flag="0"/>
			<vel value="0.0114692274355" flag="0"/>
			<psa03 value="0.0689235971000434" flag="0"/>
			<psa10 value="0.0134138454764511" flag="0"/>
			<psa30 value="0.00108186302228138" flag="0"/>
		</comp>
		<comp name=".HNZ" depth="0.0">
			<acc value="0.011903867345436" flag="0"/>
			<vel value="0.00519130914412" flag="0"/>
			<psa03 value="0.0282912387390687" flag="0"/>
			<psa10 value="0.0101584245082774" flag="0"/>
			<psa30 value="0.000604564789033555" flag="0"/>
		</comp>
	</station>
	<station code="CH01" name="CH01" netid="HI" source="ITSAK Strong Motion Network" insttype="" lat="35.517" lon="24.0208">
		<comp name=".HNE" depth="0.0">
			<acc value="0.0064558030840776" flag="0"/>
			<vel value="0.00468912173325" flag="0"/>
			<psa03 value="0.0165843290991453" flag="0"/>
			<psa10 value="0.00831382450008895" flag="0"/>
			<psa30 value="0.00100481520990988" flag="0"/>
		</comp>
		<comp name=".HNN" depth="0.0">
			<acc value="0.01110413947806" flag="0"/>
			<vel value="0.00589176372645" flag="0"/>
			<psa03 value="0.0223477799099271" flag="0"/>
			<psa10 value="0.00639739223334249" flag="0"/>
			<psa30 value="0.000936801954366081" flag="0"/>
		</comp>
		<comp name=".HNZ" depth="0.0">
			<acc value="0.0070804591079076" flag="0"/>
			<vel value="0.00235879003761" flag="0"/>
			<psa03 value="0.00635490665844677" flag="0"/>
			<psa10 value="0.00555947797565034" flag="0"/>
			<psa30 value="0.000531630530414227" flag="0"/>
		</comp>
	</station>
	<station code="CH02" name="CH02" netid="HI" source="ITSAK Strong Motion Network" insttype="" lat="35.5145" lon="24.0315">
		<comp name=".HNE" depth="0.0">
			<acc value="0.0069434993154918" flag="0"/>
			<vel value="0.00446253104231" flag="0"/>
			<psa03 value="0.021255150236905" flag="0"/>
			<psa10 value="0.00679352722532524" flag="0"/>
			<psa30 value="0.000869423584626883" flag="0"/>
		</comp>
		<comp name=".HNN" depth="0.0">
			<acc value="0.0080735942716014" flag="0"/>
			<vel value="0.00518077221121" flag="0"/>
			<psa03 value="0.0252806304468773" flag="0"/>
			<psa10 value="0.00696823348626121" flag="0"/>
			<psa30 value="0.000810522078525781" flag="0"/>
		</comp>
		<comp name=".HNZ" depth="0.0">
			<acc value="0.0050219368604958" flag="0"/>
			<vel value="0.00260705342654" flag="0"/>
			<psa03 value="0.00951118931438655" flag="0"/>
			<psa10 value="0.00410270615913078" flag="0"/>
			<psa30 value="0.000466350841370311" flag="0"/>
		</comp>
	</station>
	<station code="CH03" name="CH03" netid="HI" source="ITSAK Strong Motion Network" insttype="" lat="35.53303" lon="24.0705">
		<comp name=".HNE" depth="0.0">
			<acc value="0.0059612827163796" flag="0"/>
			<vel value="0.00517437464124" flag="0"/>
			<psa03 value="0.0221922018952981" flag="0"/>
			<psa10 value="0.00791900021989486" flag="0"/>
			<psa30 value="0.000439662406726711" flag="0"/>
		</comp>
		<comp name=".HNN" depth="0.0">
			<acc value="0.0086296009424772" flag="0"/>
			<vel value="0.00602538452245" flag="0"/>
			<psa03 value="0.0285117455340669" flag="0"/>
			<psa10 value="0.00711201566739863" flag="0"/>
			<psa30 value="0.000542050856126899" flag="0"/>
		</comp>
		<comp name=".HNZ" depth="0.0">
			<acc value="0.0049469121911682" flag="0"/>
			<vel value="0.00257424765606" flag="0"/>
			<psa03 value="0.0150190574388605" flag="0"/>
			<psa10 value="0.00402073322884234" flag="0"/>
			<psa30 value="0.00057293347486619" flag="0"/>
		</comp>
	</station>
	<station code="GOR1" name="GOR1" netid="HI" source="ITSAK Strong Motion Network" insttype="" lat="35.0582" lon="24.9628">
		<comp name=".HNE" depth="0.0">
			<acc value="0.0070758497370774" flag="0"/>
			<vel value="0.00623299604463" flag="0"/>
			<psa03 value="0.0244301313971341" flag="0"/>
			<psa10 value="0.00753000101312749" flag="0"/>
			<psa30 value="0.0010113124111491" flag="0"/>
		</comp>
		<comp name=".HNN" depth="0.0">
			<acc value="0.0073703522653554" flag="0"/>
			<vel value="0.00548793777992" flag="0"/>
			<psa03 value="0.0210406933218348" flag="0"/>
			<psa10 value="0.0110505167300172" flag="0"/>
			<psa30 value="0.000739143808400197" flag="0"/>
		</comp>
		<comp name=".HNZ" depth="0.0">
			<acc value="0.011831782911156" flag="0"/>
			<vel value="0.00547852352187" flag="0"/>
			<psa03 value="0.0147358876385897" flag="0"/>
			<psa10 value="0.00879677305554773" flag="0"/>
			<psa30 value="0.000457327274852697" flag="0"/>
		</comp>
	</station>
	<station code="HER3" name="HER3" netid="HI" source="ITSAK Strong Motion Network" insttype="" lat="35.3296" lon="25.1065">
		<comp name=".HNE" depth="0.0">
			<acc value="0.050635126575528" flag="0"/>
			<vel value="0.0261527249757" flag="0"/>
			<psa03 value="0.196768305767903" flag="0"/>
			<psa10 value="0.0521867546163735" flag="0"/>
			<psa30 value="0.00192774874556055" flag="0"/>
		</comp>
		<comp name=".HNN" depth="0.0">
			<acc value="0.05397780844131" flag="0"/>
			<vel value="0.0253190424967" flag="0"/>
			<psa03 value="0.14504951506861" flag="0"/>
			<psa10 value="0.0371535799923526" flag="0"/>
			<psa30 value="0.00173290510896104" flag="0"/>
		</comp>
		<comp name=".HNZ" depth="0.0">
			<acc value="0.027139708101954" flag="0"/>
			<vel value="0.0159696508433" flag="0"/>
			<psa03 value="0.0778063365796079" flag="0"/>
			<psa10 value="0.0225052483622433" flag="0"/>
			<psa30 value="0.000726605946579406" flag="0"/>
		</comp>
	</station>
	<station code="KIS1" name="KIS1" netid="HI" source="ITSAK Strong Motion Network" insttype="" lat="35.493933" lon="23.658993">
		<comp name=".HNE" depth="0.0">
			<acc value="0.0039451403500482" flag="0"/>
			<vel value="0.0034468459563" flag="0"/>
			<psa03 value="0.0087578991782446" flag="0"/>
			<psa10 value="0.00868625698440581" flag="0"/>
			<psa30 value="0.000604745426001614" flag="0"/>
		</comp>
		<comp name=".HNN" depth="0.0">
			<acc value="0.0045403003239174" flag="0"/>
			<vel value="0.00380302044066" flag="0"/>
			<psa03 value="0.00776377017102637" flag="0"/>
			<psa10 value="0.00703285964243872" flag="0"/>
			<psa30 value="0.000501206900415838" flag="0"/>
		</comp>
		<comp name=".HNZ" depth="0.0">
			<acc value="0.0089634824498706" flag="0"/>
			<vel value="0.00217059880464" flag="0"/>
			<psa03 value="0.00667828940912006" flag="0"/>
			<psa10 value="0.00353280832808744" flag="0"/>
			<psa30 value="0.000411709383101059" flag="0"/>
		</comp>
	</station>
	<station code="KRL1" name="KRL1" netid="HI" source="ITSAK Strong Motion Network" insttype="" lat="37.7951" lon="26.7065">
		<comp name=".HNE" depth="0.0">
			<acc value="0.011501312790162" flag="0"/>
			<vel value="0.00465314346294" flag="0"/>
			<psa03 value="0.0204470381096619" flag="0"/>
			<psa10 value="0.0103487889939953" flag="0"/>
			<psa30 value="0.000671132115460066" flag="0"/>
		</comp>
		<comp name=".HNN" depth="0.0">
			<acc value="0.0099491849374572" flag="0"/>
			<vel value="0.00487323538076" flag="0"/>
			<psa03 value="0.0231202894181884" flag="0"/>
			<psa10 value="0.00639013128358931" flag="0"/>
			<psa30 value="0.000524266813436538" flag="0"/>
		</comp>
		<comp name=".HNZ" depth="0.0">
			<acc value="0.00699579264939" flag="0"/>
			<vel value="0.0021823935273" flag="0"/>
			<psa03 value="0.0064415269799521" flag="0"/>
			<psa10 value="0.00411335123932297" flag="0"/>
			<psa30 value="0.000277486038338185" flag="0"/>
		</comp>
	</station>
	<station code="KTL1" name="KTL1" netid="HI" source="ITSAK Strong Motion Network" insttype="" lat="35.20778" lon="25.34272">
		<comp name=".HNE" depth="0.0">
			<acc value="0.011901916666224" flag="0"/>
			<vel value="0.00781664327891" flag="0"/>
			<psa03 value="0.0352959892277326" flag="0"/>
			<psa10 value="0.00915862421392089" flag="0"/>
			<psa30 value="0.000880009129617481" flag="0"/>
		</comp>
		<comp name=".HNN" depth="0.0">
			<acc value="0.018104387094036" flag="0"/>
			<vel value="0.00977170956588" flag="0"/>
			<psa03 value="0.0840125185420662" flag="0"/>
			<psa10 value="0.017165830277" flag="0"/>
			<psa30 value="0.000640715725520274" flag="0"/>
		</comp>
		<comp name=".HNZ" depth="0.0">
			<acc value="0.0101134868108376" flag="0"/>
			<vel value="0.00383069044232" flag="0"/>
			<psa03 value="0.0168875288721777" flag="0"/>
			<psa10 value="0.0038707973588299" flag="0"/>
			<psa30 value="0.000379488680929121" flag="0"/>
		</comp>
	</station>
	<station code="NAX1" name="NAX1" netid="HI" source="ITSAK Strong Motion Network" insttype="" lat="37.101394" lon="25.374103">
		<comp name=".HNE" depth="0.0">
			<acc value="0.2048908344165" flag="0"/>
			<vel value="0.0414575423069" flag="0"/>
			<psa03 value="0.0974838640773842" flag="0"/>
			<psa10 value="0.00861686707515467" flag="0"/>
			<psa30 value="0.000858754336175647" flag="0"/>
		</comp>
		<comp name=".HNN" depth="0.0">
			<acc value="0.12428048708172" flag="0"/>
			<vel value="0.0258822874455" flag="0"/>
			<psa03 value="0.0568956492659497" flag="0"/>
			<psa10 value="0.00805549519953208" flag="0"/>
			<psa30 value="0.00114382045999339" flag="0"/>
		</comp>
		<comp name=".HNZ" depth="0.0">
			<acc value="0.071088618651258" flag="0"/>
			<vel value="0.0157161334048" flag="0"/>
			<psa03 value="0.0483810070875345" flag="0"/>
			<psa10 value="0.0114801142512176" flag="0"/>
			<psa30 value="0.00116340467401617" flag="0"/>
		</comp>
	</station>
	<station code="RTH1" name="RTH1" netid="HI" source="ITSAK Strong Motion Network" insttype="" lat="35.365393" lon="24.471773">
		<comp name=".HNE" depth="0.0">
			<acc value="0.0072362720549418" flag="0"/>
			<vel value="0.00400250791275" flag="0"/>
			<psa03 value="0.0368963790998617" flag="0"/>
			<psa10 value="0.00380887817885977" flag="0"/>
			<psa30 value="0.000564230710846977" flag="0"/>
		</comp>
		<comp name=".HNN" depth="0.0">
			<acc value="0.0094248568842576" flag="0"/>
			<vel value="0.00589946057178" flag="0"/>
			<psa03 value="0.0288670815733341" flag="0"/>
			<psa10 value="0.00434796256242152" flag="0"/>
			<psa30 value="0.000647061823003465" flag="0"/>
		</comp>
		<comp name=".HNZ" depth="0.0">
			<acc value="0.0060206110100862" flag="0"/>
			<vel value="0.0027142251126" flag="0"/>
			<psa03 value="0.0126888679189872" flag="0"/>
			<psa10 value="0.00215993917912211" flag="0"/>
			<psa30 value="0.000311986136300516" flag="0"/>
		</comp>
	</station>
	<station code="SFR2" name="SFR2" netid="HI" source="ITSAK Strong Motion Network" insttype="" lat="36.399841" lon="25.438209">
		<comp name=".HNE" depth="0.0">
			<acc value="0.3114014176959" flag="0"/>
			<vel value="0.150295859822" flag="0"/>
			<psa03 value="0.949142459364922" flag="0"/>
			<psa10 value="0.0923427422534217" flag="0"/>
			<psa30 value="0.0102975588294124" flag="0"/>
		</comp>
		<comp name=".HNN" depth="0.0">
			<acc value="0.36899998667742" flag="0"/>
			<vel value="0.158890288483" flag="0"/>
			<psa03 value="1.1625566803432" flag="0"/>
			<psa10 value="0.112655527875835" flag="0"/>
			<psa30 value="0.00576463937908905" flag="0"/>
		</comp>
		<comp name=".HNZ" depth="0.0">
			<acc value="0.5046544591944" flag="0"/>
			<vel value="0.101469531363" flag="0"/>
			<psa03 value="0.703537439234051" flag="0"/>
			<psa10 value="0.0487745048217044" flag="0"/>
			<psa30 value="0.00394940329525185" flag="0"/>
		</comp>
	</station>
	<station code="AMGA" name="AMGA" netid="HL" source="National Observatory of Athens Seismic Network" insttype="" lat="36.831561" lon="25.893836">
		<comp name="00.HNE" depth="0.0">
			<acc value="0.2230099004358" flag="0"/>
			<vel value="0.0373031391554" flag="0"/>
			<psa03 value="0.0991081175096601" flag="0"/>
			<psa10 value="0.0184509129074448" flag="0"/>
			<psa30 value="0.00287177794952764" flag="0"/>
		</comp>
		<comp name="00.HNN" depth="0.0">
			<acc value="0.20003332114524" flag="0"/>
			<vel value="0.0439698221847" flag="0"/>
			<psa03 value="0.084437051873403" flag="0"/>
			<psa10 value="0.0231962672638649" flag="0"/>
			<psa30 value="0.00164711755095313" flag="0"/>
		</comp>
		<comp name="00.HNZ" depth="0.0">
			<acc value="0.18991063747164" flag="0"/>
			<vel value="0.0380212026543" flag="0"/>
			<psa03 value="0.0854336439348003" flag="0"/>
			<psa10 value="0.0131582594826114" flag="0"/>
			<psa30 value="0.00292476708479679" flag="0"/>
		</comp>
	</station>
	<station code="ANAF" name="ANAF" netid="HL" source="National Observatory of Athens Seismic Network" insttype="" lat="36.35675" lon="25.77262">
		<comp name=".HNE" depth="0.0">
			<acc value="1.6539847184712" flag="0"/>
			<vel value="0.436036528385" flag="0"/>
			<psa03 value="2.90061248467632" flag="0"/>
			<psa10 value="0.137249402099329" flag="0"/>
			<psa30 value="0.0108068734023072" flag="0"/>
		</comp>
		<comp name=".HNN" depth="0.0">
			<acc value="1.6080625941" flag="0"/>
			<vel value="0.466854223488" flag="0"/>
			<psa03 value="2.21086845918603" flag="0"/>
			<psa10 value="0.126426215116147" flag="0"/>
			<psa30 value="0.00959058116226042" flag="0"/>
		</comp>
		<comp name=".HNZ" depth="0.0">
			<acc value="0.92138393708148" flag="0"/>
			<vel value="0.243775547428" flag="0"/>
			<psa03 value="0.830503683458731" flag="0"/>
			<psa10 value="0.0510898219499063" flag="0"/>
			<psa30 value="0.00575448287290735" flag="0"/>
		</comp>
	</station>
	<station code="CHNB" name="CHNB" netid="HL" source="National Observatory of Athens Seismic Network" insttype="" lat="35.48765" lon="24.06605">
		<comp name="00.HNE" depth="0.0">
			<acc value="0.012698885767446" flag="0"/>
			<vel value="0.00902233372687" flag="0"/>
			<psa03 value="0.0395943208461236" flag="0"/>
			<psa10 value="0.0148327257202725" flag="0"/>
			<psa30 value="0.000781244930726778" flag="0"/>
		</comp>
		<comp name="00.HNN" depth="0.0">
			<acc value="0.020036972608452" flag="0"/>
			<vel value="0.0171717800807" flag="0"/>
			<psa03 value="0.0416413262418219" flag="0"/>
			<psa10 value="0.02067817232743" flag="0"/>
			<psa30 value="0.00109701017153937" flag="0"/>
		</comp>
		<comp name="00.HNZ" depth="0.0">
			<acc value="0.010928482519776" flag="0"/>
			<vel value="0.00546885749775" flag="0"/>
			<psa03 value="0.0367158515158042" flag="0"/>
			<psa10 value="0.00588087239143994" flag="0"/>
			<psa30 value="0.000669579043827101" flag="0"/>
		</comp>
	</station>
	<station code="HERG" name="HERG" netid="HL" source="National Observatory of Athens Seismic Network" insttype="" lat="35.32622" lon="25.06586">
		<comp name="00.HNE" depth="0.0">
			<acc value="0.020025200203482" flag="0"/>
			<vel value="0.0176408986698" flag="0"/>
			<psa03 value="0.0595971771870957" flag="0"/>
			<psa10 value="0.0188752235159115" flag="0"/>
			<psa30 value="0.00234333544280535" flag="0"/>
