<?xml version="1.0" encoding="UTF-8" standalone="yes"?>
<!DOCTYPE earthquake SYSTEM "stationlist.dtd">
<stationlist created="" xmlns="ch.ethz.sed.shakemap.usgs.xml">
  <station code="APE" name="APE" netid="GE" insttype="STS-2/N" lat="37.0727" lon="25.523">
    <comp name="--.HHE">
      <acc value="0.1028748034" flag="0"/>
      <vel value="0.0180280562" flag="0"/>
      <psa03 value="0.1123492515" flag="0"/>
      <psa10 value="0.0064421548" flag="0"/>
      <psa30 value="0.0009307939" flag="0"/>
    </comp>
    <comp name="--.HHZ">
      <acc value="0.0576409990" flag="0"/>
      <vel value="0.0076393442" flag="0"/>
      <psa03 value="0.0275093722" flag="0"/>
      <psa10 value="0.0042072824" flag="0"/>
      <psa30 value="0.0012759803" flag="0"/>
    </comp>
    <comp name="--.HHN">
      <acc value="0.1025667822" flag="0"/>
      <vel value="0.0168245356" flag="0"/>
      <psa03 value="0.0599678469" flag="0"/>
      <psa10 value="0.0063906448" flag="0"/>
      <psa30 value="0.0011620284" flag="0"/>
    </comp>
  </station>
  <station code="THERA" name="THERA" netid="GE" insttype="STS-2/N" lat="36.367" lon="25.4753">
    <comp name="--.HHN">
      <acc value="0.0882230263" flag="0"/>
      <vel value="0.0299237373" flag="0"/>
      <psa03 value="0.1177023490" flag="0"/>
      <psa10 value="0.0159146549" flag="0"/>
      <psa30 value="0.0009909385" flag="0"/>
    </comp>
    <comp name="--.HHZ">
      <acc value="0.1130914496" flag="0"/>
      <vel value="0.0298407947" flag="0"/>
      <psa03 value="0.1669793221" flag="0"/>
      <psa10 value="0.0205832377" flag="0"/>
      <psa30 value="0.0011712478" flag="0"/>
    </comp>
    <comp name="--.HHE">
      <acc value="0.1591348069" flag="0"/>
      <vel value="0.0431463824" flag="0"/>
      <psa03 value="0.1514199357" flag="0"/>
      <psa10 value="0.0368718582" flag="0"/>
      <psa30 value="0.0026546015" flag="0"/>
    </comp>
  </station>
  <station code="SERI" name="SERI" netid="HA" insttype="30" lat="37.1609" lon="24.4853">
    <comp name="--.HHN">
      <acc value="0.0394999807" flag="0"/>
      <vel value="0.0159478980" flag="0"/>
      <psa03 value="0.0419991585" flag="0"/>
      <psa10 value="0.0126648859" flag="0"/>
      <psa30 value="0.0011264858" flag="0"/>
    </comp>
    <comp name="--.HHE">
      <acc value="0.0267256424" flag="0"/>
      <vel value="0.0093431985" flag="0"/>
      <psa03 value="0.0360138243" flag="0"/>
      <psa10 value="0.0054326489" flag="0"/>
      <psa30 value="0.0005282641" flag="0"/>
    </comp>
    <comp name="--.HHZ">
      <acc value="0.0224576464" flag="0"/>
      <vel value="0.0127736099" flag="0"/>
      <psa03 value="0.0345145239" flag="0"/>
      <psa10 value="0.0086612820" flag="0"/>
      <psa30 value="0.0008769330" flag="0"/>
    </comp>
  </station>
  <station code="SNT1" name="SNT1" netid="HA" insttype="30" lat="36.4159" lon="25.4282">
    <comp name="--.HHE">
      <acc value="0.1400732013" flag="0"/>
      <vel value="0.0757151390" flag="0"/>
      <psa03 value="0.3500994173" flag="0"/>
      <psa10 value="0.0491445028" flag="0"/>
      <psa30 value="0.0051573694" flag="0"/>
    </comp>
    <comp name="--.HHN">
      <acc value="0.1180485972" flag="0"/>
      <vel value="0.0644928622" flag="0"/>
      <psa03 value="0.2168741263" flag="0"/>
      <psa10 value="0.0550581237" flag="0"/>
      <psa30 value="0.0049158949" flag="0"/>
    </comp>
    <comp name="--.HHZ">
      <acc value="0.1286539571" flag="0"/>
      <vel value="0.0473726355" flag="0"/>
      <psa03 value="0.2746525799" flag="0"/>
      <psa10 value="0.0359205997" flag="0"/>
      <psa30 value="0.0025645879" flag="0"/>
    </comp>
  </station>
  <station code="NAX1" name="NAX1" netid="HI" insttype="CMG-5TD,ACCELEROMETER,GURALP" lat="37.1014" lon="25.3741">
    <comp name="--.HNE">
      <acc value="0.2150387921" flag="0"/>
      <vel value="0.0411686577" flag="0"/>
      <psa03 value="0.0931599847" flag="0"/>
      <psa10 value="0.0085817862" flag="0"/>
      <psa30 value="0.0007510292" flag="0"/>
    </comp>
    <comp name="--.HNZ">
      <acc value="0.0693411688" flag="0"/>
      <vel value="0.0154736476" flag="0"/>
      <psa03 value="0.0478510640" flag="0"/>
      <psa10 value="0.0114073394" flag="0"/>
      <psa30 value="0.0010540655" flag="0"/>
    </comp>
    <comp name="--.HNN">
      <acc value="0.1265748730" flag="0"/>
      <vel value="0.0260524405" flag="0"/>
      <psa03 value="0.0564717527" flag="0"/>
      <psa10 value="0.0080554529" flag="0"/>
      <psa30 value="0.0010416759" flag="0"/>
    </comp>
  </station>
  <station code="SFR2" name="SFR2" netid="HI" insttype="unknown" lat="36.3998" lon="25.4382">
    <comp name="--.HNE">
      <acc value="0.3105486579" flag="0"/>
      <vel value="0.1486000284" flag="0"/>
      <psa03 value="0.9418730202" flag="0"/>
      <psa10 value="0.0923216587" flag="0"/>
      <psa30 value="0.0099166336" flag="0"/>
    </comp>
    <comp name="--.HNZ">
      <acc value="0.5215659747" flag="0"/>
      <vel value="0.1001778603" flag="0"/>
      <psa03 value="0.6945413516" flag="0"/>
      <psa10 value="0.0486770111" flag="0"/>
      <psa30 value="0.0037390314" flag="0"/>
    </comp>
    <comp name="--.HNN">
      <acc value="0.3720728635" flag="0"/>
      <vel value="0.1576207667" flag="0"/>
      <psa03 value="1.1559756908" flag="0"/>
      <psa10 value="0.1126392983" flag="0"/>
      <psa30 value="0.0057183106" flag="0"/>
    </comp>
  </station>
  <station code="AMGA" name="AMGA" netid="HL" insttype="SMART24" lat="36.8316" lon="25.8938">
    <comp name="--.HHE">
      <acc value="0.3555670281" flag="0"/>
      <vel value="0.0601255743" flag="0"/>
      <psa03 value="0.1611478601" flag="0"/>
      <psa10 value="0.0287367939" flag="0"/>
      <psa30 value="0.0040348960" flag="0"/>
    </comp>
    <comp name="--.HHZ">
      <acc value="0.3197185990" flag="0"/>
      <vel value="0.0623446165" flag="0"/>
      <psa03 value="0.1388761883" flag="0"/>
      <psa10 value="0.0213347385" flag="0"/>
      <psa30 value="0.0041433750" flag="0"/>
    </comp>
    <comp name="--.HHN">
      <acc value="0.3155188209" flag="0"/>
      <vel value="0.0673713157" flag="0"/>
      <psa03 value="0.1323292301" flag="0"/>
      <psa10 value="0.0396837947" flag="0"/>
      <psa30 value="0.0023295500" flag="0"/>
    </comp>
  </station>
  <station code="APE" name="APE" netid="HL" insttype="120" lat="37.0727" lon="25.523">
    <comp name="--.HHE">
      <acc value="0.0950066235" flag="0"/>
      <vel value="0.0173713966" flag="0"/>
      <psa03 value="0.1091445728" flag="0"/>
      <psa10 value="0.0063710325" flag="0"/>
      <psa30 value="0.0009278208" flag="0"/>
    </comp>
    <comp name="--.HHZ">
      <acc value="0.0494954703" flag="0"/>
      <vel value="0.0071456024" flag="0"/>
      <psa03 value="0.0269251072" flag="0"/>
      <psa10 value="0.0041629023" flag="0"/>
      <psa30 value="0.0012739284" flag="0"/>
    </comp>
    <comp name="--.HHN">
      <acc value="0.0992747542" flag="0"/>
      <vel value="0.0158845862" flag="0"/>
      <psa03 value="0.0575734017" flag="0"/>
      <psa10 value="0.0062101342" flag="0"/>
      <psa30 value="0.0011584039" flag="0"/>
    </comp>
  </station>
  <station code="MHLO" name="MHLO" netid="HL" insttype="20" lat="36.6898" lon="24.4017">
    <comp name="--.HHN">
      <acc value="0.0542355231" flag="0"/>
      <vel value="0.0234166882" flag="0"/>
      <psa03 value="0.1153767396" flag="0"/>
      <psa10 value="0.0478438569" flag="0"/>
      <psa30 value="0.0023171147" flag="0"/>
    </comp>
    <comp name="--.HHE">
      <acc value="0.0587711827" flag="0"/>
      <vel value="0.0375954157" flag="0"/>
      <psa03 value="0.0888015799" flag="0"/>
      <psa10 value="0.0459082670" flag="0"/>
      <psa30 value="0.0021183645" flag="0"/>
    </comp>
    <comp name="--.HHZ">
      <acc value="0.0241618479" flag="0"/>
      <vel value="0.0141868405" flag="0"/>
      <psa03 value="0.0508462961" flag="0"/>
      <psa10 value="0.0247413927" flag="0"/>
      <psa30 value="0.0015155371" flag="0"/>
    </comp>
  </station>
  <station code="MILA" name="MILA" netid="HL" insttype="CMG-5" lat="36.7429" lon="24.4282">
    <comp name="00.HNE">
      <acc value="0.0771884859" flag="0"/>
      <vel value="0.0384041166" flag="0"/>
      <psa03 value="0.1515826069" flag="0"/>
      <psa10 value="0.0243244842" flag="0"/>
      <psa30 value="0.0021176661" flag="0"/>
    </comp>
    <comp name="00.HNZ">
      <acc value="0.0719119172" flag="0"/>
      <vel value="0.0349241058" flag="0"/>
      <psa03 value="0.1033186573" flag="0"/>
      <psa10 value="0.0302451321" flag="0"/>
      <psa30 value="0.0019966305" flag="0"/>
    </comp>
    <comp name="00.HNN">
      <acc value="0.1052087416" flag="0"/>
      <vel value="0.0587929648" flag="0"/>
      <psa03 value="0.2766755501" flag="0"/>
      <psa10 value="0.0398836532" flag="0"/>
      <psa30 value="0.0026277181" flag="0"/>
    </comp>
  </station>
  <station code="SANT" name="SANT" netid="HL" insttype="30" lat="36.3705" lon="25.4593">
    <comp name="--.HHE">
      <acc value="0.6123279327" flag="0"/>
      <vel value="0.1121678336" flag="0"/>
      <psa03 value="0.3341303630" flag="0"/>
      <psa10 value="0.0549481555" flag="0"/>
      <psa30 value="0.0044501416" flag="0"/>
    </comp>
    <comp name="--.HHZ">
      <acc value="0.3791729061" flag="0"/>
      <vel value="0.0588855608" flag="0"/>
      <psa03 value="0.2378613888" flag="0"/>
      <psa10 value="0.0198620855" flag="0"/>
      <psa30 value="0.0012144448" flag="0"/>
    </comp>
    <comp name="--.HHN">
      <acc value="0.4228914805" flag="0"/>
      <vel value="0.0482162549" flag="0"/>
      <psa03 value="0.1317308659" flag="0"/>
      <psa10 value="0.0227655762" flag="0"/>
      <psa30 value="0.0011884509" flag="0"/>
    </comp>
  </station>
  <station code="SAP3" name="SAP3" netid="HL" insttype="65535" lat="36.4356" lon="25.3454">
    <comp name="--.HHE">
      <acc value="0.2563370444" flag="0"/>
      <vel value="0.0779533433" flag="0"/>
      <psa03 value="0.3679770675" flag="0"/>
      <psa10 value="0.0513696418" flag="0"/>
      <psa30 value="0.0078780026" flag="0"/>
    </comp>
    <comp name="--.HHN">
      <acc value="0.2189789467" flag="0"/>
      <vel value="0.0795190005" flag="0"/>
      <psa03 value="0.5851752224" flag="0"/>
      <psa10 value="0.0436901610" flag="0"/>
      <psa30 value="0.0037959712" flag="0"/>
    </comp>
    <comp name="--.HHZ">
      <acc value="0.2426641137" flag="0"/>
      <vel value="0.0621422051" flag="0"/>
      <psa03 value="0.2369476613" flag="0"/>
      <psa10 value="0.0227549941" flag="0"/>
      <psa30 value="0.0024355287" flag="0"/>
    </comp>
  </station>
  <station code="THERA" name="THERA" netid="HL" insttype="120" lat="36.367" lon="25.4753">
    <comp name="--.HHE">
      <acc value="0.1607295565" flag="0"/>
      <vel value="0.0419451033" flag="0"/>
      <psa03 value="0.1472444801" flag="0"/>
      <psa10 value="0.0366522477" flag="0"/>
      <psa30 value="0.0026357931" flag="0"/>
    </comp>
    <comp name="--.HHN">
      <acc value="0.1790620221" flag="0"/>
      <vel value="0.0587815302" flag="0"/>
      <psa03 value="0.2285452183" flag="0"/>
      <psa10 value="0.0315322512" flag="0"/>
      <psa30 value="0.0019481336" flag="0"/>
    </comp>
    <comp name="--.HHZ">
      <acc value="0.1119278956" flag="0"/>
      <vel value="0.0291914155" flag="0"/>
      <psa03 value="0.1626128274" flag="0"/>
      <psa10 value="0.0203795710" flag="0"/>
      <psa30 value="0.0011696822" flag="0"/>
    </comp>
  </station>
  <station code="THRA" name="THRA" netid="HL" insttype="CMG-5" lat="36.415" lon="25.4324">
    <comp name="00.HNE">
      <acc value="0.4447479407" flag="0"/>
      <vel value="0.1737949596" flag="0"/>
      <psa03 value="0.9888911084" flag="0"/>
      <psa10 value="0.1512782886" flag="0"/>
      <psa30 value="0.0115397559" flag="0"/>
    </comp>
    <comp name="00.HNN">
      <acc value="0.4039536677" flag="0"/>
      <vel value="0.1477659697" flag="0"/>
      <psa03 value="1.3415687045" flag="0"/>
      <psa10 value="0.2226171916" flag="0"/>
      <psa30 value="0.0106742837" flag="0"/>
    </comp>
    <comp name="00.HNZ">
      <acc value="0.2327804578" flag="0"/>
      <vel value="0.1043493389" flag="0"/>
      <psa03 value="0.5763175861" flag="0"/>
      <psa10 value="0.0623564871" flag="0"/>
      <psa30 value="0.0053544752" flag="0"/>
    </comp>
  </station>
  <station code="AKRO" name="AKRO" netid="HT" insttype="Compact," lat="36.3584" lon="25.3967">
    <comp name="--.HHZ">
      <acc value="0.3019901482" flag="0"/>
      <vel value="0.1185592473" flag="0"/>
      <psa03 value="0.3878661086" flag="0"/>
      <psa10 value="0.0465829179" flag="0"/>
      <psa30 value="0.0044386059" flag="0"/>
    </comp>
    <comp name="--.HHN">
      <acc value="0.4163180641" flag="0"/>
      <vel value="0.1236331292" flag="0"/>
      <psa03 value="0.4366806506" flag="0"/>
      <psa10 value="0.0826427115" flag="0"/>
      <psa30 value="0.0045135337" flag="0"/>
    </comp>
    <comp name="--.HHE">
      <acc value="0.5636987501" flag="0"/>
      <vel value="0.2914269549" flag="0"/>
      <psa03 value="1.0682983898" flag="0"/>
      <psa10 value="0.1420529990" flag="0"/>
      <psa30 value="0.0097358253" flag="0"/>
    </comp>
  </station>
  <station code="CMBO" name="CMBO" netid="HT" insttype="120P," lat="36.4709" lon="25.4056">
    <comp name="--.HHN">
      <acc value="0.3394899921" flag="0"/>
      <vel value="0.1198367540" flag="0"/>
      <psa03 value="0.4385791057" flag="0"/>
      <psa10 value="0.1013620777" flag="0"/>
      <psa30 value="0.0056812885" flag="0"/>
    </comp>
    <comp name="--.HHZ">
      <acc value="0.1982619718" flag="0"/>
      <vel value="0.0725185618" flag="0"/>
      <psa03 value="0.5510969980" flag="0"/>
      <psa10 value="0.0298002544" flag="0"/>
      <psa30 value="0.0026281895" flag="0"/>
    </comp>
    <comp name="--.HHE">
      <acc value="0.2241133984" flag="0"/>
      <vel value="0.1014172121" flag="0"/>
      <psa03 value="0.3464711604" flag="0"/>
      <psa10 value="0.0574038656" flag="0"/>
      <psa30 value="0.0054867569" flag="0"/>
    </comp>
  </station>
</stationlist>
