<?xml version="1.0" encoding="UTF-8" standalone="yes"?>
<!DOCTYPE earthquake SYSTEM "stationlist.dtd">
<stationlist created="" xmlns="ch.ethz.sed.shakemap.usgs.xml">
  <station code="ZKR" name="ZKR" netid="GE" insttype="STS-2/N" lat="35.1147" lon="26.2169">
    <comp name="--.HHE">
      <acc value="0.0083151821" flag="0"/>
      <vel value="0.0054203548" flag="0"/>
      <psa03 value="0.0292371247" flag="0"/>
      <psa10 value="0.0090576760" flag="0"/>
      <psa30 value="0.0004409005" flag="0"/>
    </comp>
    <comp name="--.HHN">
      <acc value="0.0050779033" flag="0"/>
      <vel value="0.0027633785" flag="0"/>
      <psa03 value="0.0146994897" flag="0"/>
      <psa10 value="0.0030948549" flag="0"/>
      <psa30 value="0.0001814122" flag="0"/>
    </comp>
    <comp name="--.HHZ">
      <acc value="0.0056023385" flag="0"/>
      <vel value="0.0027266295" flag="0"/>
      <psa03 value="0.0144291060" flag="0"/>
      <psa10 value="0.0047774593" flag="0"/>
      <psa30 value="0.0003682727" flag="0"/>
    </comp>
  </station>
  <station code="IMOD" name="IMOD" netid="HC" insttype="120" lat="34.9731" lon="24.7995">
    <comp name="--.HHZ">
      <acc value="0.0269164211" flag="0"/>
      <vel value="0.0129072560" flag="0"/>
      <psa03 value="0.0512866584" flag="0"/>
      <psa10 value="0.0148943964" flag="0"/>
      <psa30 value="0.0005800913" flag="0"/>
    </comp>
    <comp name="--.HHE">
      <acc value="0.0469951859" flag="0"/>
      <vel value="0.0324541187" flag="0"/>
      <psa03 value="0.1249253948" flag="0"/>
      <psa10 value="0.0183649097" flag="0"/>
      <psa30 value="0.0012489923" flag="0"/>
    </comp>
    <comp name="--.HHN">
      <acc value="0.0532164705" flag="0"/>
      <vel value="0.0351047774" flag="0"/>
      <psa03 value="0.1434138896" flag="0"/>
      <psa10 value="0.0268985696" flag="0"/>
      <psa30 value="0.0012869798" flag="0"/>
    </comp>
  </station>
  <station code="KNSS" name="KNSS" netid="HC" insttype="60" lat="35.3042" lon="25.1802">
    <comp name="--.HHN">
      <acc value="0.0000000000" flag="0"/>
      <vel value="-100.0000000000" flag="0"/>
      <psa03 value="0.0000000000" flag="0"/>
      <psa10 value="0.0000000000" flag="0"/>
      <psa30 value="0.0000000000" flag="0"/>
    </comp>
    <comp name="--.HHE">
      <acc value="0.3858643286" flag="0"/>
      <vel value="0.0915078626" flag="0"/>
      <psa03 value="0.8262300205" flag="0"/>
      <psa10 value="0.0415026228" flag="0"/>
      <psa30 value="0.0022392436" flag="0"/>
    </comp>
    <comp name="--.HHZ">
      <acc value="0.4564424407" flag="0"/>
      <vel value="0.0959957656" flag="0"/>
      <psa03 value="0.3467826611" flag="0"/>
      <psa10 value="0.0205815790" flag="0"/>
      <psa30 value="0.0018014266" flag="0"/>
    </comp>
  </station>
  <station code="PFKS" name="PFKS" netid="HC" insttype="120" lat="35.0429" lon="25.4733">
    <comp name="--.HHE">
      <acc value="0.1932580957" flag="0"/>
      <vel value="0.0503348211" flag="0"/>
      <psa03 value="0.3070703085" flag="0"/>
      <psa10 value="0.0227707648" flag="0"/>
      <psa30 value="0.0017553599" flag="0"/>
    </comp>
    <comp name="--.HHN">
      <acc value="0.1841023176" flag="0"/>
      <vel value="0.0445879033" flag="0"/>
      <psa03 value="0.3402425182" flag="0"/>
      <psa10 value="0.0338371259" flag="0"/>
      <psa30 value="0.0015645477" flag="0"/>
    </comp>
    <comp name="--.HHZ">
      <acc value="0.1019703854" flag="0"/>
      <vel value="0.0301098972" flag="0"/>
      <psa03 value="0.1600609351" flag="0"/>
      <psa10 value="0.0187337620" flag="0"/>
      <psa30 value="0.0011959800" flag="0"/>
    </comp>
  </station>
  <station code="STIA" name="STIA" netid="HC" insttype="120" lat="35.2021" lon="26.0909">
    <comp name="--.HHN">
      <acc value="0.0205981264" flag="0"/>
      <vel value="0.0068603037" flag="0"/>
      <psa03 value="0.0395238338" flag="0"/>
      <psa10 value="0.0054306166" flag="0"/>
      <psa30 value="0.0004128974" flag="0"/>
    </comp>
    <comp name="--.HHZ">
      <acc value="0.0164226690" flag="0"/>
      <vel value="0.0057183156" flag="0"/>
      <psa03 value="0.0259542116" flag="0"/>
      <psa10 value="0.0034163953" flag="0"/>
      <psa30 value="0.0004932989" flag="0"/>
    </comp>
    <comp name="--.HHE">
      <acc value="0.0213158176" flag="0"/>
      <vel value="0.0095151653" flag="0"/>
      <psa03 value="0.0388140423" flag="0"/>
      <psa10 value="0.0071478118" flag="0"/>
      <psa30 value="0.0005129348" flag="0"/>
    </comp>
  </station>
  <station code="IACM" name="IACM" netid="HL" insttype="120" lat="35.3058" lon="25.0709">
    <comp name="--.HHN">
      <acc value="0.6706822789" flag="0"/>
      <vel value="0.2094849451" flag="0"/>
      <psa03 value="1.4396417164" flag="0"/>
      <psa10 value="0.1086893855" flag="0"/>
      <psa30 value="0.0064921434" flag="0"/>
    </comp>
    <comp name="--.HHE">
      <acc value="0.6991204065" flag="0"/>
      <vel value="0.2048975682" flag="0"/>
      <psa03 value="1.2601344616" flag="0"/>
      <psa10 value="0.1621986698" flag="0"/>
      <psa30 value="0.0095872894" flag="0"/>
    </comp>
    <comp name="--.HHZ">
      <acc value="0.6540087469" flag="0"/>
      <vel value="0.1739733627" flag="0"/>
      <psa03 value="1.0058037260" flag="0"/>
      <psa10 value="0.0706923548" flag="0"/>
      <psa30 value="0.0042239341" flag="0"/>
    </comp>
  </station>
  <station code="IDI" name="IDI" netid="HL" insttype="120" lat="35.288" lon="24.89">
    <comp name="--.HHN">
      <acc value="0.1081597276" flag="0"/>
      <vel value="0.0168433627" flag="0"/>
      <psa03 value="0.0690042294" flag="0"/>
      <psa10 value="0.0046174564" flag="0"/>
      <psa30 value="0.0004783184" flag="0"/>
    </comp>
    <comp name="--.HHE">
      <acc value="0.0874085298" flag="0"/>
      <vel value="0.0143900467" flag="0"/>
      <psa03 value="0.0667177140" flag="0"/>
      <psa10 value="0.0060039646" flag="0"/>
      <psa30 value="0.0005411761" flag="0"/>
    </comp>
    <comp name="--.HHZ">
      <acc value="0.0488756447" flag="0"/>
      <vel value="0.0099236503" flag="0"/>
      <psa03 value="0.0604907058" flag="0"/>
      <psa10 value="0.0067379144" flag="0"/>
      <psa30 value="0.0005899021" flag="0"/>
    </comp>
  </station>
  <station code="NPS" name="NPS" netid="HL" insttype="CMG3ESPC-120s" lat="35.2613" lon="25.6104">
    <comp name="--.HHE">
      <acc value="0.0667630863" flag="0"/>
      <vel value="0.0151828710" flag="0"/>
      <psa03 value="0.0735816531" flag="0"/>
      <psa10 value="0.0125081906" flag="0"/>
      <psa30 value="0.0005078280" flag="0"/>
    </comp>
    <comp name="--.HHZ">
      <acc value="0.1008432804" flag="0"/>
      <vel value="0.0274975219" flag="0"/>
      <psa03 value="0.0778661091" flag="0"/>
      <psa10 value="0.0200819935" flag="0"/>
      <psa30 value="0.0010485843" flag="0"/>
    </comp>
    <comp name="--.HHN">
      <acc value="0.1198280913" flag="0"/>
      <vel value="0.0274682024" flag="0"/>
      <psa03 value="0.1626888053" flag="0"/>
      <psa10 value="0.0218904533" flag="0"/>
      <psa30 value="0.0007877234" flag="0"/>
    </comp>
  </station>
  <station code="SIVA" name="SIVA" netid="HL" insttype="60" lat="35.0178" lon="24.812">
    <comp name="--.HHE">
      <acc value="0.0765210346" flag="0"/>
      <vel value="0.0387684274" flag="0"/>
      <psa03 value="0.1656584160" flag="0"/>
      <psa10 value="0.0206586883" flag="0"/>
      <psa30 value="0.0012329683" flag="0"/>
    </comp>
    <comp name="--.HHN">
      <acc value="0.0889943931" flag="0"/>
      <vel value="0.0308769297" flag="0"/>
      <psa03 value="0.1667624565" flag="0"/>
      <psa10 value="0.0179050609" flag="0"/>
      <psa30 value="0.0008708894" flag="0"/>
    </comp>
    <comp name="--.HHZ">
      <acc value="0.0490644567" flag="0"/>
      <vel value="0.0187190958" flag="0"/>
      <psa03 value="0.1465282235" flag="0"/>
      <psa10 value="0.0125351751" flag="0"/>
      <psa30 value="0.0007850820" flag="0"/>
    </comp>
  </station>
  <station code="VAM" name="VAM" netid="HL" insttype="CMG3ESPC-120s" lat="35.407" lon="24.1997">
    <comp name="--.HHE">
      <acc value="0.0477620670" flag="0"/>
      <vel value="0.0151236775" flag="0"/>
      <psa03 value="0.0573528550" flag="0"/>
      <psa10 value="0.0065210650" flag="0"/>
      <psa30 value="0.0004911793" flag="0"/>
    </comp>
    <comp name="--.HHN">
      <acc value="0.0444483142" flag="0"/>
      <vel value="0.0153713067" flag="0"/>
      <psa03 value="0.0568172342" flag="0"/>
      <psa10 value="0.0072253704" flag="0"/>
      <psa30 value="0.0004385182" flag="0"/>
    </comp>
    <comp name="--.HHZ">
      <acc value="0.0211552418" flag="0"/>
      <vel value="0.0065074251" flag="0"/>
      <psa03 value="0.0375002912" flag="0"/>
      <psa10 value="0.0041267738" flag="0"/>
      <psa30 value="0.0002511957" flag="0"/>
    </comp>
  </station>
  <station code="ZKR" name="ZKR" netid="HL" insttype="120" lat="35.1147" lon="26.2169">
    <comp name="--.HHE">
      <acc value="0.0081097734" flag="0"/>
      <vel value="0.0053135927" flag="0"/>
      <psa03 value="0.0284538684" flag="0"/>
      <psa10 value="0.0089858114" flag="0"/>
      <psa30 value="0.0004400043" flag="0"/>
    </comp>
    <comp name="--.HHZ">
      <acc value="0.0054712194" flag="0"/>
      <vel value="0.0026789635" flag="0"/>
      <psa03 value="0.0140252408" flag="0"/>
      <psa10 value="0.0047472531" flag="0"/>
      <psa30 value="0.0003678426" flag="0"/>
    </comp>
    <comp name="--.HHN">
      <acc value="0.0049272299" flag="0"/>
      <vel value="0.0027078239" flag="0"/>
      <psa03 value="0.0142940904" flag="0"/>
      <psa10 value="0.0030656299" flag="0"/>
      <psa30 value="0.0001806006" flag="0"/>
    </comp>
  </station>
  <station code="IDI" name="IDI" netid="MN" insttype="" lat="35.288" lon="24.89">
    <comp name="--.HHZ">
      <acc value="0.0541871610" flag="0"/>
      <vel value="0.0104064677" flag="0"/>
      <psa03 value="0.0613576461" flag="0"/>
      <psa10 value="0.0067172584" flag="0"/>
      <psa30 value="0.0005842641" flag="0"/>
    </comp>
    <comp name="--.HHE">
      <acc value="0.0944863150" flag="0"/>
      <vel value="0.0144306250" flag="0"/>
      <psa03 value="0.0671260254" flag="0"/>
      <psa10 value="0.0059984149" flag="0"/>
      <psa30 value="0.0005425198" flag="0"/>
    </comp>
    <comp name="--.HHN">
      <acc value="0.1192912630" flag="0"/>
      <vel value="0.0181112496" flag="0"/>
      <psa03 value="0.0698694464" flag="0"/>
      <psa10 value="0.0046465603" flag="0"/>
      <psa30 value="0.0004763329" flag="0"/>
    </comp>
  </station>
</stationlist>
