<stationlist created="1779846873">
	<station code="CADA" name="CADA" netid="IV" source="Italian National Seismic Network (INSN)" insttype="" lat="43.1942" lon="13.7614">
		<comp name="--.HNE" depth="0.0">
			<acc value="0.0131916160369007" flag="0"/>
			<vel value="0.00940953801046971" flag="0"/>
			<psa03 value="0.02394512010086" flag="0"/>
			<psa10 value="0.0137126183936777" flag="0"/>
			<psa30 value="0.000783083646280059" flag="0"/>
		</comp>
		<comp name="--.HNN" depth="0.0">
			<acc value="0.00941840463700925" flag="0"/>
			<vel value="0.00564611184617143" flag="0"/>
			<psa03 value="0.025939025624802" flag="0"/>
			<psa10 value="0.00807164470682974" flag="0"/>
			<psa30 value="0.000484162802575686" flag="0"/>
		</comp>
		<comp name="--.HNZ" depth="0.0">
			<acc value="0.00821767093562121" flag="0"/>
			<vel value="0.00304322241813562" flag="0"/>
			<psa03 value="0.0159945895109832" flag="0"/>
			<psa10 value="0.00469388969714474" flag="0"/>
			<psa30 value="0.000947660069496841" flag="0"/>
		</comp>
	</station>
	<station code="BLY" name="BLY" netid="MN" source="Mediterranean Very Broadband Seismographic Network (MedNet)" insttype="" lat="44.7488" lon="17.1839">
		<comp name="--.HNE" depth="1.0">
			<acc value="0.0185931772625966" flag="0"/>
			<vel value="0.00836973782767912" flag="0"/>
			<psa03 value="0.037046547079929" flag="0"/>
			<psa10 value="0.0138521871690169" flag="0"/>
			<psa30 value="0.000647419729766392" flag="0"/>
		</comp>
		<comp name="--.HNN" depth="1.0">
			<acc value="0.0121801460063494" flag="0"/>
			<vel value="0.00757351462936348" flag="0"/>
			<psa03 value="0.030782638153371" flag="0"/>
			<psa10 value="0.0130750150400576" flag="0"/>
			<psa30 value="0.000685898027458106" flag="0"/>
		</comp>
		<comp name="--.HNZ" depth="1.0">
			<acc value="0.0125476850841767" flag="0"/>
			<vel value="0.00573393556691222" flag="0"/>
			<psa03 value="0.0349884055754885" flag="0"/>
			<psa10 value="0.00502544464736428" flag="0"/>
			<psa30 value="0.000346752101291606" flag="0"/>
		</comp>
	</station>
	<station code="BOJS" name="BOJS" netid="SL" source="Seismic Network of the Republic of Slovenia (SNRS)" insttype="" lat="45.5043" lon="15.2518">
		<comp name="--.HNE" depth="0.0">
			<acc value="0.0183598966540294" flag="0"/>
			<vel value="0.00696241007408359" flag="0"/>
			<psa03 value="0.0259706813676996" flag="0"/>
			<psa10 value="0.00304464950558876" flag="0"/>
			<psa30 value="0.000298547355421907" flag="0"/>
		</comp>
		<comp name="--.HNN" depth="0.0">
			<acc value="0.0154650057627285" flag="0"/>
			<vel value="0.00541015051367319" flag="0"/>
			<psa03 value="0.039521355074991" flag="0"/>
			<psa10 value="0.00356028030422094" flag="0"/>
			<psa30 value="0.000242812178865281" flag="0"/>
		</comp>
		<comp name="--.HNZ" depth="0.0">
			<acc value="0.0116785218213171" flag="0"/>
			<vel value="0.00368950877193177" flag="0"/>
			<psa03 value="0.017787192637143" flag="0"/>
			<psa10 value="0.00301508746912147" flag="0"/>
			<psa30 value="0.000358029368730211" flag="0"/>
		</comp>
	</station>
	<station code="CEY" name="CEY" netid="SL" source="Seismic Network of the Republic of Slovenia (SNRS)" insttype="" lat="45.7381" lon="14.4221">
		<comp name="--.HNE" depth="0.0">
			<acc value="0.0241586085572501" flag="0"/>
			<vel value="0.0143777123562594" flag="0"/>
			<psa03 value="0.0809352573968949" flag="0"/>
			<psa10 value="0.0120836595456511" flag="0"/>
			<psa30 value="0.00051096077572621" flag="0"/>
		</comp>
		<comp name="--.HNN" depth="0.0">
			<acc value="0.0167089338526148" flag="0"/>
			<vel value="0.00985395239225036" flag="0"/>
			<psa03 value="0.0514393086434577" flag="0"/>
			<psa10 value="0.00612808314291969" flag="0"/>
			<psa30 value="0.000442786780367589" flag="0"/>
		</comp>
		<comp name="--.HNZ" depth="0.0">
			<acc value="0.0175573654455804" flag="0"/>
			<vel value="0.0135136153093255" flag="0"/>
			<psa03 value="0.0445983554638282" flag="0"/>
			<psa10 value="0.0109566611375191" flag="0"/>
			<psa30 value="0.000736989446932571" flag="0"/>
		</comp>
	</station>
	<station code="CRES" name="CRES" netid="SL" source="Seismic Network of the Republic of Slovenia (SNRS)" insttype="" lat="45.826" lon="15.4569">
		<comp name="--.HNE" depth="0.0">
			<acc value="0.00809455799613033" flag="0"/>
			<vel value="0.0057912522563713" flag="0"/>
			<psa03 value="0.0355284603569653" flag="0"/>
			<psa10 value="0.00655862432041153" flag="0"/>
			<psa30 value="0.000482999340086971" flag="0"/>
		</comp>
		<comp name="--.HNN" depth="0.0">
			<acc value="0.00924442750571526" flag="0"/>
			<vel value="0.00415836488684551" flag="0"/>
			<psa03 value="0.028157479878179" flag="0"/>
			<psa10 value="0.00324844058387305" flag="0"/>
			<psa30 value="0.000193057658914251" flag="0"/>
		</comp>
		<comp name="--.HNZ" depth="0.0">
			<acc value="0.00490377043710165" flag="0"/>
			<vel value="0.00189340934901221" flag="0"/>
			<psa03 value="0.0126520712105546" flag="0"/>
			<psa10 value="0.00139474024625703" flag="0"/>
			<psa30 value="0.000131423732218894" flag="0"/>
		</comp>
	</station>
	<station code="DOBS" name="DOBS" netid="SL" source="Seismic Network of the Republic of Slovenia (SNRS)" insttype="" lat="46.1495" lon="15.4695">
		<comp name="--.HNE" depth="0.0">
			<acc value="0.00787840761013892" flag="0"/>
			<vel value="0.00221899408076062" flag="0"/>
			<psa03 value="0.00952937932148728" flag="0"/>
			<psa10 value="0.00275614805003184" flag="0"/>
			<psa30 value="0.000277347956274283" flag="0"/>
		</comp>
		<comp name="--.HNN" depth="0.0">
			<acc value="0.00582748152947982" flag="0"/>
			<vel value="0.00196348520472021" flag="0"/>
			<psa03 value="0.00660607368766921" flag="0"/>
			<psa10 value="0.0016050474983946" flag="0"/>
			<psa30 value="0.000245268070722639" flag="0"/>
		</comp>
		<comp name="--.HNZ" depth="0.0">
			<acc value="0.00355607571596763" flag="0"/>
			<vel value="0.00120394724129342" flag="0"/>
			<psa03 value="0.00460649395970066" flag="0"/>
			<psa10 value="0.00129826123781047" flag="0"/>
			<psa30 value="0.000164720130650251" flag="0"/>
		</comp>
	</station>
	<station code="SKDS" name="SKDS" netid="SL" source="Seismic Network of the Republic of Slovenia (SNRS)" insttype="" lat="45.5464" lon="14.0143">
		<comp name="--.HNE" depth="0.0">
			<acc value="0.00925867907625739" flag="0"/>
			<vel value="0.00245405079574233" flag="0"/>
			<psa03 value="0.0126249821764553" flag="0"/>
			<psa10 value="0.00199974848914764" flag="0"/>
			<psa30 value="0.000137151963248548" flag="0"/>
		</comp>
		<comp name="--.HNN" depth="0.0">
			<acc value="0.0120162722743432" flag="0"/>
			<vel value="0.00324816675306344" flag="0"/>
			<psa03 value="0.0158032591279361" flag="0"/>
			<psa10 value="0.00197994248959813" flag="0"/>
			<psa30 value="0.000158445339976109" flag="0"/>
		</comp>
		<comp name="--.HNZ" depth="0.0">
			<acc value="0.00751054449493656" flag="0"/>
			<vel value="0.00348623584804199" flag="0"/>
			<psa03 value="0.0190547857235197" flag="0"/>
			<psa10 value="0.00174738243519662" flag="0"/>
			<psa30 value="0.00017778770204171" flag="0"/>
		</comp>
	</station>
	<station code="VISS" name="VISS" netid="SL" source="Seismic Network of the Republic of Slovenia (SNRS)" insttype="" lat="45.8033" lon="14.8393">
		<comp name="--.HNE" depth="0.0">
			<acc value="0.0122889956556151" flag="0"/>
			<vel value="0.00380898096672096" flag="0"/>
			<psa03 value="0.0183035927315138" flag="0"/>
			<psa10 value="0.00273474866367772" flag="0"/>
			<psa30 value="0.000204080758931939" flag="0"/>
		</comp>
		<comp name="--.HNN" depth="0.0">
			<acc value="0.010368558837058" flag="0"/>
			<vel value="0.00378531032532775" flag="0"/>
			<psa03 value="0.0223297422566648" flag="0"/>
			<psa10 value="0.00235295813755335" flag="0"/>
			<psa30 value="0.000173618571690919" flag="0"/>
		</comp>
		<comp name="--.HNZ" depth="0.0">
			<acc value="0.00586211450220393" flag="0"/>
			<vel value="0.00332565961381375" flag="0"/>
			<psa03 value="0.0199855361832652" flag="0"/>
			<psa10 value="0.00335558588484539" flag="0"/>
			<psa30 value="0.000304342114296292" flag="0"/>
		</comp>
	</station>
</stationlist>
