<?xml version="1.0" encoding="UTF-8" standalone="yes"?>
<!DOCTYPE earthquake SYSTEM "stationlist.dtd">
<stationlist created="" xmlns="ch.ethz.sed.shakemap.usgs.xml">
  <station code="BLY" name="BLY" netid="MN" insttype="" lat="44.7488" lon="17.1839">
    <comp name="--.HHZ">
      <acc value="0.0126296865" flag="0"/>
      <vel value="0.0057801310" flag="0"/>
      <psa03 value="0.0359592423" flag="0"/>
      <psa10 value="0.0050319270" flag="0"/>
      <psa30 value="0.0002955105" flag="0"/>
    </comp>
    <comp name="--.HHE">
      <acc value="0.0192076850" flag="0"/>
      <vel value="0.0087321500" flag="0"/>
      <psa03 value="0.0355203720" flag="0"/>
      <psa10 value="0.0136432647" flag="0"/>
      <psa30 value="0.0005898589" flag="0"/>
    </comp>
    <comp name="--.HHN">
      <acc value="0.0120551211" flag="0"/>
      <vel value="0.0074209798" flag="0"/>
      <psa03 value="0.0325816174" flag="0"/>
      <psa10 value="0.0130368052" flag="0"/>
      <psa30 value="0.0006982178" flag="0"/>
    </comp>
  </station>
</stationlist>
