<?xml version="1.0" encoding="UTF-8" standalone="yes"?>
<!DOCTYPE earthquake SYSTEM "stationlist.dtd">
<stationlist created="" xmlns="ch.ethz.sed.shakemap.usgs.xml">
  <station code="AGRP" name="AGRP" netid="CL" insttype="CMG40-T" lat="38.3959" lon="21.7228">
    <comp name="00.HHZ">
      <acc value="1.2304504665" flag="0"/>
      <vel value="0.7465520102" flag="0"/>
      <psa03 value="4.2642783758" flag="0"/>
      <psa10 value="1.0117409713" flag="0"/>
      <psa30 value="0.0713195591" flag="0"/>
    </comp>
    <comp name="00.HHN">
      <acc value="4.1515980260" flag="0"/>
      <vel value="2.3569313921" flag="0"/>
      <psa03 value="14.5277815307" flag="0"/>
      <psa10 value="1.7395285207" flag="0"/>
      <psa30 value="0.1194164198" flag="0"/>
    </comp>
    <comp name="00.HHE">
      <acc value="3.0218048741" flag="0"/>
      <vel value="1.2533856691" flag="0"/>
      <psa03 value="6.0996663562" flag="0"/>
      <psa10 value="0.9693764539" flag="0"/>
      <psa30 value="0.0724354855" flag="0"/>
    </comp>
  </station>
  <station code="PSAM" name="PSAM" netid="CL" insttype="CMG40-T" lat="38.3218" lon="22.1842">
    <comp name="00.HHZ">
      <acc value="0.0713060166" flag="0"/>
      <vel value="0.0369080685" flag="0"/>
      <psa03 value="0.0688790332" flag="0"/>
      <psa10 value="0.0868478156" flag="0"/>
      <psa30 value="0.0096616887" flag="0"/>
    </comp>
    <comp name="00.HHN">
      <acc value="0.0981574729" flag="0"/>
      <vel value="0.0572198306" flag="0"/>
      <psa03 value="0.1602771269" flag="0"/>
      <psa10 value="0.0740935664" flag="0"/>
      <psa30 value="0.0205212268" flag="0"/>
    </comp>
    <comp name="00.HHE">
      <acc value="0.1309469887" flag="0"/>
      <vel value="0.0683009595" flag="0"/>
      <psa03 value="0.2325960897" flag="0"/>
      <psa10 value="0.1158303678" flag="0"/>
      <psa30 value="0.0258994667" flag="0"/>
    </comp>
  </station>
  <station code="ROD3" name="ROD3" netid="CL" insttype="CMG40-T" lat="38.3081" lon="21.892">
    <comp name="00.HHZ">
      <acc value="0.5696371463" flag="0"/>
      <vel value="0.2541820351" flag="0"/>
      <psa03 value="1.0206792245" flag="0"/>
      <psa10 value="0.2682794028" flag="0"/>
      <psa30 value="0.0324569959" flag="0"/>
    </comp>
    <comp name="00.HHE">
      <acc value="1.7114057917" flag="0"/>
      <vel value="0.5992993273" flag="0"/>
      <psa03 value="5.5828375609" flag="0"/>
      <psa10 value="0.9545970159" flag="0"/>
      <psa30 value="0.0408264725" flag="0"/>
    </comp>
    <comp name="00.HHN">
      <acc value="1.6652827289" flag="0"/>
      <vel value="0.7741492771" flag="0"/>
      <psa03 value="4.7859918896" flag="0"/>
      <psa10 value="0.3869228479" flag="0"/>
      <psa30 value="0.0419650759" flag="0"/>
    </comp>
  </station>
  <station code="TRIZ" name="TRIZ" netid="CL" insttype="STS-2" lat="38.3654" lon="22.0727">
    <comp name="00.HH3">
      <acc value="0.3032356657" flag="0"/>
      <vel value="0.1672049959" flag="0"/>
      <psa03 value="1.5815818278" flag="0"/>
      <psa10 value="0.1251612003" flag="0"/>
      <psa30 value="0.0213945588" flag="0"/>
    </comp>
    <comp name="00.HHZ">
      <acc value="0.1749579103" flag="0"/>
      <vel value="0.0805009747" flag="0"/>
      <psa03 value="0.3697928333" flag="0"/>
      <psa10 value="0.1073711434" flag="0"/>
      <psa30 value="0.0150475976" flag="0"/>
    </comp>
    <comp name="00.HH2">
      <acc value="0.2403796006" flag="0"/>
      <vel value="0.1575039090" flag="0"/>
      <psa03 value="1.0767870901" flag="0"/>
      <psa10 value="0.2438660126" flag="0"/>
      <psa30 value="0.0374895948" flag="0"/>
    </comp>
  </station>
  <station code="ZIRI" name="ZIRI" netid="CL" insttype="TRILLIUM-40" lat="38.3051" lon="21.9476">
    <comp name="01.HHZ">
      <acc value="0.6860486936" flag="0"/>
      <vel value="0.2619229713" flag="0"/>
      <psa03 value="2.3242416072" flag="0"/>
      <psa10 value="0.1157859846" flag="0"/>
      <psa30 value="0.0308129285" flag="0"/>
    </comp>
    <comp name="01.HHE">
      <acc value="0.8240325684" flag="0"/>
      <vel value="0.3083602985" flag="0"/>
      <psa03 value="1.4562654552" flag="0"/>
      <psa10 value="0.2457356121" flag="0"/>
      <psa30 value="0.0329401055" flag="0"/>
    </comp>
    <comp name="01.HHN">
      <acc value="0.7579552185" flag="0"/>
      <vel value="0.4279195090" flag="0"/>
      <psa03 value="2.0536719004" flag="0"/>
      <psa10 value="0.3304282372" flag="0"/>
      <psa30 value="0.0346712224" flag="0"/>
    </comp>
  </station>
  <station code="KLV" name="KLV" netid="MN" insttype="" lat="38.0437" lon="22.1504">
    <comp name="--.HHE">
      <acc value="0.0615272885" flag="0"/>
      <vel value="0.0370342412" flag="0"/>
      <psa03 value="0.2696930167" flag="0"/>
      <psa10 value="0.0533724348" flag="0"/>
      <psa30 value="0.0037301072" flag="0"/>
    </comp>
    <comp name="--.HHN">
      <acc value="0.0657158699" flag="0"/>
      <vel value="0.0477997969" flag="0"/>
      <psa03 value="0.1631355330" flag="0"/>
      <psa10 value="0.0407076630" flag="0"/>
      <psa30 value="0.0069535835" flag="0"/>
    </comp>
    <comp name="--.HHZ">
      <acc value="0.0684569065" flag="0"/>
      <vel value="0.0483501098" flag="0"/>
      <psa03 value="0.1187373949" flag="0"/>
      <psa10 value="0.0642071614" flag="0"/>
      <psa30 value="0.0098631300" flag="0"/>
    </comp>
  </station>
  <station code="THL" name="THL" netid="MN" insttype="" lat="39.5647" lon="22.0144">
    <comp name="--.HHE">
      <acc value="0.0131283411" flag="0"/>
      <vel value="0.0116216709" flag="0"/>
      <psa03 value="0.0289433640" flag="0"/>
      <psa10 value="0.0201224452" flag="0"/>
      <psa30 value="0.0037478534" flag="0"/>
    </comp>
    <comp name="--.HHN">
      <acc value="0.0104920885" flag="0"/>
      <vel value="0.0091705902" flag="0"/>
      <psa03 value="0.0231599559" flag="0"/>
      <psa10 value="0.0157501287" flag="0"/>
      <psa30 value="0.0019735763" flag="0"/>
    </comp>
    <comp name="--.HHZ">
      <acc value="0.0101802020" flag="0"/>
      <vel value="0.0091870971" flag="0"/>
      <psa03 value="0.0273372880" flag="0"/>
      <psa10 value="0.0124238115" flag="0"/>
      <psa30 value="0.0025984987" flag="0"/>
    </comp>
  </station>
</stationlist>
