<stationlist created="1734802295">
	<station code="LSK" name="LSK" netid="AC" source="Albanian Seismological Network (AC)" insttype="" lat="40.149899" lon="20.5987">
		<comp name="00.HHE" depth="0.0">
			<acc value="0.011134685203044" flag="0"/>
			<vel value="0.014428413729" flag="0"/>
			<psa03 value="0.0148268728325488" flag="0"/>
			<psa10 value="0.0294246798656267" flag="0"/>
			<psa30 value="0.0041868461080061" flag="0"/>
		</comp>
		<comp name="00.HHN" depth="0.0">
			<acc value="0.0101916642029898" flag="0"/>
			<vel value="0.0167129591018" flag="0"/>
			<psa03 value="0.021276563113735" flag="0"/>
			<psa10 value="0.0377782888762329" flag="0"/>
			<psa30 value="0.00358058427946887" flag="0"/>
		</comp>
		<comp name="00.HHZ" depth="0.0">
			<acc value="0.0063499697536458" flag="0"/>
			<vel value="0.00930417098848" flag="0"/>
			<psa03 value="0.011686255927916" flag="0"/>
			<psa10 value="0.0119400278432389" flag="0"/>
			<psa30 value="0.0038908056634487" flag="0"/>
		</comp>
	</station>
	<station code="SRN" name="SRN" netid="AC" source="Albanian Seismological Network (AC)" insttype="" lat="39.880001" lon="20.0005">
		<comp name="00.HHE" depth="0.0">
			<acc value="0.0037138128426702" flag="0"/>
			<vel value="0.00737265538721" flag="0"/>
			<psa03 value="0.00971173970927596" flag="0"/>
			<psa10 value="0.00688563801472999" flag="0"/>
			<psa30 value="0.00276655972933624" flag="0"/>
		</comp>
		<comp name="00.HHN" depth="0.0">
			<acc value="0.0029053475875152" flag="0"/>
			<vel value="0.00459067955984" flag="0"/>
			<psa03 value="0.00883055373086529" flag="0"/>
			<psa10 value="0.00420444524263288" flag="0"/>
			<psa30 value="0.00200470676031889" flag="0"/>
		</comp>
		<comp name="00.HHZ" depth="0.0">
			<acc value="0.0031327453837638" flag="0"/>
			<vel value="0.00993851683024" flag="0"/>
			<psa03 value="0.0104599110167161" flag="0"/>
			<psa10 value="0.00645080608424956" flag="0"/>
			<psa30 value="0.00223865996690436" flag="0"/>
		</comp>
	</station>
	<station code="AGRP" name="AGRP" netid="CL" source="Corinth Riff Laboratory (CRLNET)" insttype="" lat="38.3959" lon="21.72277">
		<comp name="00.HNE" depth="0.0">
			<acc value="3.22679285667" flag="0"/>
			<vel value="1.24147603688" flag="0"/>
			<psa03 value="5.24566016589951" flag="0"/>
			<psa10 value="0.97349848949779" flag="0"/>
			<psa30 value="0.0844671755358095" flag="0"/>
		</comp>
		<comp name="00.HNN" depth="0.0">
			<acc value="4.1732877870348" flag="0"/>
			<vel value="2.31292453378" flag="0"/>
			<psa03 value="14.7800777742972" flag="0"/>
			<psa10 value="1.66432605343106" flag="0"/>
			<psa30 value="0.116800110767534" flag="0"/>
		</comp>
		<comp name="00.HNZ" depth="0.0">
			<acc value="1.3178558437416" flag="0"/>
			<vel value="0.698133170615" flag="0"/>
			<psa03 value="3.95479198556174" flag="0"/>
			<psa10 value="0.960140344586794" flag="0"/>
			<psa30 value="0.0769297428845962" flag="0"/>
		</comp>
	</station>
	<station code="MALA" name="MALA" netid="CL" source="Corinth Riff Laboratory (CRLNET)" insttype="" lat="38.39341" lon="21.87263">
		<comp name="01.HNE" depth="0.0">
			<acc value="1.3022972651532" flag="0"/>
			<vel value="0.858780088358" flag="0"/>
			<psa03 value="2.96855531888619" flag="0"/>
			<psa10 value="1.55755066008906" flag="0"/>
			<psa30 value="0.195836719888028" flag="0"/>
		</comp>
		<comp name="01.HNN" depth="0.0">
			<acc value="1.4161271632392" flag="0"/>
			<vel value="1.09869306811" flag="0"/>
			<psa03 value="2.92225525173341" flag="0"/>
			<psa10 value="1.83246703194732" flag="0"/>
			<psa30 value="0.156826162297065" flag="0"/>
		</comp>
		<comp name="01.HNZ" depth="0.0">
			<acc value="0.55908021120648" flag="0"/>
			<vel value="0.415941478314" flag="0"/>
			<psa03 value="1.21063444858979" flag="0"/>
			<psa10 value="0.425656557658399" flag="0"/>
			<psa30 value="0.111642035737148" flag="0"/>
		</comp>
	</station>
	<station code="ROD3" name="ROD3" netid="CL" source="Corinth Riff Laboratory (CRLNET)" insttype="" lat="38.30811" lon="21.89204">
		<comp name="00.HNE" depth="0.0">
			<acc value="1.3342305724026" flag="0"/>
			<vel value="0.489449798903" flag="0"/>
			<psa03 value="4.49079916005511" flag="0"/>
			<psa10 value="0.766321925068191" flag="0"/>
			<psa30 value="0.0381398565782978" flag="0"/>
		</comp>
		<comp name="00.HNN" depth="0.0">
			<acc value="1.4239716381732" flag="0"/>
			<vel value="0.666421426923" flag="0"/>
			<psa03 value="4.14523160125204" flag="0"/>
			<psa10 value="0.338980695807272" flag="0"/>
			<psa30 value="0.0369589316811893" flag="0"/>
		</comp>
		<comp name="00.HNZ" depth="0.0">
			<acc value="0.46234806332958" flag="0"/>
			<vel value="0.208657403083" flag="0"/>
			<psa03 value="0.806577765149972" flag="0"/>
			<psa10 value="0.239738276484094" flag="0"/>
			<psa30 value="0.0306845393668097" flag="0"/>
		</comp>
	</station>
	<station code="TRIZ" name="TRIZ" netid="CL" source="Corinth Riff Laboratory (CRLNET)" insttype="" lat="38.36543" lon="22.07272">
		<comp name="00.HNE" depth="0.0">
			<acc value="0.19376004940194" flag="0"/>
			<vel value="0.114549545842" flag="0"/>
			<psa03 value="0.470061389262255" flag="0"/>
			<psa10 value="0.234543717370214" flag="0"/>
			<psa30 value="0.0436186695227823" flag="0"/>
		</comp>
		<comp name="00.HNN" depth="0.0">
			<acc value="0.31177227294342" flag="0"/>
			<vel value="0.198483673188" flag="0"/>
			<psa03 value="1.8644946802891" flag="0"/>
			<psa10 value="0.163161353639119" flag="0"/>
			<psa30 value="0.0260287826124381" flag="0"/>
		</comp>
		<comp name="00.HNZ" depth="0.0">
			<acc value="0.18168192265632" flag="0"/>
			<vel value="0.0900624509136" flag="0"/>
			<psa03 value="0.363429200400773" flag="0"/>
			<psa10 value="0.109020967104157" flag="0"/>
			<psa30 value="0.018436406321433" flag="0"/>
		</comp>
	</station>
	<station code="ATHU" name="ATHU" netid="HA" source="Hellenic Seismological Network, University of Athens, Seismological Laboratory (HA)" insttype="" lat="37.9665" lon="23.7845">
		<comp name=".HNE" depth="0.0">
			<acc value="0.00028586296871532" flag="0"/>
			<vel value="0.000684299657307" flag="0"/>
			<psa03 value="0.000703834874305211" flag="0"/>
			<psa10 value="0.000275642967025185" flag="0"/>
			<psa30 value="0.000138467519147946" flag="0"/>
		</comp>
		<comp name=".HNN" depth="0.0">
			<acc value="0.00021892792952244" flag="0"/>
			<vel value="0.000514873886273" flag="0"/>
			<psa03 value="0.000538327653751916" flag="0"/>
			<psa10 value="0.000413200058020898" flag="0"/>
			<psa30 value="0.000121011909674447" flag="0"/>
		</comp>
		<comp name=".HNZ" depth="0.0">
			<acc value="0.00032344400193258" flag="0"/>
			<vel value="0.000480478696551" flag="0"/>
			<psa03 value="0.000850054765734339" flag="0"/>
			<psa10 value="0.000334376779726794" flag="0"/>
			<psa30 value="0.000119127982789827" flag="0"/>
		</comp>
	</station>
	<station code="KIAS" name="KIAS" netid="HA" source="Hellenic Seismological Network, University of Athens, Seismological Laboratory (HA)" insttype="" lat="37.9875" lon="22.7543">
		<comp name=".HNE" depth="0.0">
			<acc value="0.056894448701214" flag="0"/>
			<vel value="0.0687330172928" flag="0"/>
			<psa03 value="0.130675937889466" flag="0"/>
			<psa10 value="0.111410512899566" flag="0"/>
			<psa30 value="0.0248455725639045" flag="0"/>
		</comp>
		<comp name=".HNN" depth="0.0">
			<acc value="0.047819473936962" flag="0"/>
			<vel value="0.0720646928243" flag="0"/>
			<psa03 value="0.130993281828718" flag="0"/>
			<psa10 value="0.102360113355288" flag="0"/>
			<psa30 value="0.0207199809303908" flag="0"/>
		</comp>
		<comp name=".HNZ" depth="0.0">
			<acc value="0.03629665235019" flag="0"/>
			<vel value="0.0420649004276" flag="0"/>
			<psa03 value="0.0932255507353387" flag="0"/>
			<psa10 value="0.0750211997862505" flag="0"/>
			<psa30 value="0.0123277966560266" flag="0"/>
		</comp>
	</station>
	<station code="AIG2" name="AIG2" netid="HI" source="ITSAK Strong Motion Network" insttype="" lat="38.2417" lon="22.0726">
		<comp name=".HNE" depth="0.0">
			<acc value="0.18021427050414" flag="0"/>
			<vel value="0.110484105556" flag="0"/>
			<psa03 value="0.388901762833244" flag="0"/>
			<psa10 value="0.147350321235773" flag="0"/>
			<psa30 value="0.0331545463259673" flag="0"/>
		</comp>
		<comp name=".HNN" depth="0.0">
			<acc value="0.17640689005146" flag="0"/>
			<vel value="0.0892676667049" flag="0"/>
			<psa03 value="0.426971159743884" flag="0"/>
			<psa10 value="0.0891908609569367" flag="0"/>
			<psa30 value="0.0252572831710347" flag="0"/>
		</comp>
		<comp name=".HNZ" depth="0.0">
			<acc value="0.11187395373702" flag="0"/>
			<vel value="0.0634762506633" flag="0"/>
			<psa03 value="0.239342230248063" flag="0"/>
			<psa10 value="0.0717905032683545" flag="0"/>
			<psa30 value="0.0251257011210461" flag="0"/>
		</comp>
	</station>
	<station code="AOL1" name="AOL1" netid="HI" source="ITSAK Strong Motion Network" insttype="" lat="37.642378" lon="21.624555">
		<comp name=".HNE" depth="0.0">
			<acc value="0.1042195326888" flag="0"/>
			<vel value="0.0653489661797" flag="0"/>
			<psa03 value="0.330022195684348" flag="0"/>
			<psa10 value="0.0843089375531944" flag="0"/>
			<psa30 value="0.0388865527099511" flag="0"/>
		</comp>
		<comp name=".HNN" depth="0.0">
			<acc value="0.093540501371472" flag="0"/>
			<vel value="0.0616869699107" flag="0"/>
			<psa03 value="0.306400755879455" flag="0"/>
			<psa10 value="0.0806858675428495" flag="0"/>
			<psa30 value="0.0209541281081421" flag="0"/>
		</comp>
		<comp name=".HNZ" depth="0.0">
			<acc value="0.059662601220288" flag="0"/>
			<vel value="0.0430410000041" flag="0"/>
			<psa03 value="0.18888963801135" flag="0"/>
			<psa10 value="0.066905594667137" flag="0"/>
			<psa30 value="0.00854206420316578" flag="0"/>
		</comp>
	</station>
	<station code="ARG2" name="ARG2" netid="HI" source="ITSAK Strong Motion Network" insttype="" lat="38.1783" lon="20.4878">
		<comp name=".HNE" depth="0.0">
			<acc value="0.12907398317316" flag="0"/>
			<vel value="0.0713808814009" flag="0"/>
			<psa03 value="0.286757787962733" flag="0"/>
			<psa10 value="0.0515177965511533" flag="0"/>
			<psa30 value="0.00913590854243573" flag="0"/>
		</comp>
		<comp name=".HNN" depth="0.0">
			<acc value="0.13016757817236" flag="0"/>
			<vel value="0.116892005646" flag="0"/>
			<psa03 value="0.307785305932579" flag="0"/>
			<psa10 value="0.0793599597079645" flag="0"/>
			<psa30 value="0.0113557072598827" flag="0"/>
		</comp>
		<comp name=".HNZ" depth="0.0">
			<acc value="0.068212928774442" flag="0"/>
			<vel value="0.0361182802637" flag="0"/>
			<psa03 value="0.153108955216696" flag="0"/>
			<psa10 value="0.0336792823371844" flag="0"/>
			<psa30 value="0.00460233196524773" flag="0"/>
		</comp>
	</station>
	<station code="ARS1" name="ARS1" netid="HI" source="ITSAK Strong Motion Network" insttype="" lat="37.6349" lon="22.7293">
		<comp name=".HNE" depth="0.0">
			<acc value="0.064429909611" flag="0"/>
			<vel value="0.0801373991949" flag="0"/>
			<psa03 value="0.107220384074174" flag="0"/>
			<psa10 value="0.0876253197474071" flag="0"/>
			<psa30 value="0.0131793605679607" flag="0"/>
		</comp>
		<comp name=".HNN" depth="0.0">
			<acc value="0.052458364821354" flag="0"/>
			<vel value="0.0800033498008" flag="0"/>
			<psa03 value="0.105473966299473" flag="0"/>
			<psa10 value="0.111372237864019" flag="0"/>
			<psa30 value="0.0193035337643917" flag="0"/>
		</comp>
		<comp name=".HNZ" depth="0.0">
			<acc value="0.02598927256725" flag="0"/>
			<vel value="0.0260399282129" flag="0"/>
			<psa03 value="0.107095136193723" flag="0"/>
			<psa10 value="0.0368560915351675" flag="0"/>
			<psa30 value="0.00904662679461684" flag="0"/>
		</comp>
	</station>
	<station code="ART2" name="ART2" netid="HI" source="ITSAK Strong Motion Network" insttype="" lat="39.1474" lon="20.9937">
		<comp name=".HNE" depth="0.0">
			<acc value="0.039172603863738" flag="0"/>
			<vel value="0.0212145817197" flag="0"/>
			<psa03 value="0.132830830640819" flag="0"/>
			<psa10 value="0.0247869707651747" flag="0"/>
			<psa30 value="0.00334869350117445" flag="0"/>
		</comp>
		<comp name=".HNN" depth="0.0">
			<acc value="0.048777616845822" flag="0"/>
			<vel value="0.0265127379726" flag="0"/>
			<psa03 value="0.165132189197133" flag="0"/>
			<psa10 value="0.0194743575806161" flag="0"/>
			<psa30 value="0.00260891303601943" flag="0"/>
		</comp>
		<comp name=".HNZ" depth="0.0">
			<acc value="0.040604414159724" flag="0"/>
			<vel value="0.0270578150977" flag="0"/>
			<psa03 value="0.117035596783872" flag="0"/>
			<psa10 value="0.0207296069847202" flag="0"/>
			<psa30 value="0.00304130584658703" flag="0"/>
		</comp>
	</station>
	<station code="ATH5" name="ATH5" netid="HI" source="ITSAK Strong Motion Network" insttype="" lat="37.975421" lon="23.737098">
		<comp name=".HNE" depth="0.0">
			<acc value="0.010245519685146" flag="0"/>
			<vel value="0.00983353425526" flag="0"/>
			<psa03 value="0.0303268032727169" flag="0"/>
			<psa10 value="0.0228836840567784" flag="0"/>
			<psa30 value="0.00338223718161411" flag="0"/>
		</comp>
		<comp name=".HNN" depth="0.0">
			<acc value="0.0078765345456768" flag="0"/>
			<vel value="0.0116393505601" flag="0"/>
			<psa03 value="0.0225967833843251" flag="0"/>
			<psa10 value="0.0190052952575394" flag="0"/>
			<psa30 value="0.00281530295833674" flag="0"/>
		</comp>
		<comp name=".HNZ" depth="0.0">
			<acc value="0.0056669223377088" flag="0"/>
			<vel value="0.00789776828438" flag="0"/>
			<psa03 value="0.0133063723672684" flag="0"/>
			<psa10 value="0.0135095790058161" flag="0"/>
			<psa30 value="0.00245562975675287" flag="0"/>
		</comp>
	</station>
	<station code="GTH2" name="GTH2" netid="HI" source="ITSAK Strong Motion Network" insttype="" lat="36.7603" lon="22.5659">
		<comp name=".HNE" depth="0.0">
			<acc value="0.017461938691434" flag="0"/>
			<vel value="0.0219613361991" flag="0"/>
			<psa03 value="0.0524910137303638" flag="0"/>
			<psa10 value="0.033063225276406" flag="0"/>
			<psa30 value="0.00484787864817196" flag="0"/>
		</comp>
		<comp name=".HNN" depth="0.0">
			<acc value="0.01625431517883" flag="0"/>
			<vel value="0.017763311078" flag="0"/>
			<psa03 value="0.0406672408801362" flag="0"/>
			<psa10 value="0.025966508278728" flag="0"/>
			<psa30 value="0.00418387216099896" flag="0"/>
		</comp>
		<comp name=".HNZ" depth="0.0">
			<acc value="0.012080390545656" flag="0"/>
			<vel value="0.0120307396637" flag="0"/>
			<psa03 value="0.0202622706613994" flag="0"/>
			<psa10 value="0.0257595226919465" flag="0"/>
			<psa30 value="0.00490924396332476" flag="0"/>
		</comp>
	</station>
	<station code="ITC1" name="ITC1" netid="HI" source="ITSAK Strong Motion Network" insttype="" lat="38.3647" lon="20.7156">
		<comp name=".HNE" depth="0.0">
			<acc value="0.076668374567508" flag="0"/>
			<vel value="0.0361798673651" flag="0"/>
			<psa03 value="0.179527851172416" flag="0"/>
			<psa10 value="0.0349096638439214" flag="0"/>
			<psa30 value="0.00530762952106513" flag="0"/>
		</comp>
		<comp name=".HNN" depth="0.0">
			<acc value="0.076739787003144" flag="0"/>
			<vel value="0.0371208500994" flag="0"/>
			<psa03 value="0.187167982293682" flag="0"/>
			<psa10 value="0.0301034298295028" flag="0"/>
			<psa30 value="0.0105400007233278" flag="0"/>
		</comp>
		<comp name=".HNZ" depth="0.0">
			<acc value="0.040060962954948" flag="0"/>
			<vel value="0.0249519962849" flag="0"/>
			<psa03 value="0.114216670460598" flag="0"/>
			<psa10 value="0.0189489233981817" flag="0"/>
			<psa30 value="0.00579726320691892" flag="0"/>
		</comp>
	</station>
	<station code="KOR2" name="KOR2" netid="HI" source="ITSAK Strong Motion Network" insttype="" lat="37.9401" lon="22.9495">
		<comp name=".HNE" depth="0.0">
			<acc value="0.072413033320542" flag="0"/>
			<vel value="0.0594512018949" flag="0"/>
			<psa03 value="0.137632325799264" flag="0"/>
			<psa10 value="0.0983458099273631" flag="0"/>
			<psa30 value="0.0125453710692636" flag="0"/>
		</comp>
		<comp name=".HNN" depth="0.0">
			<acc value="0.048315779643912" flag="0"/>
			<vel value="0.0475868765616" flag="0"/>
			<psa03 value="0.152499560680742" flag="0"/>
			<psa10 value="0.0669172729407759" flag="0"/>
			<psa30 value="0.012026235012403" flag="0"/>
		</comp>
		<comp name=".HNZ" depth="0.0">
			<acc value="0.027547251790368" flag="0"/>
			<vel value="0.0303088638079" flag="0"/>
			<psa03 value="0.0854348783915201" flag="0"/>
			<psa10 value="0.0489310926945584" flag="0"/>
			<psa30 value="0.00633851656226844" flag="0"/>
		</comp>
	</station>
	<station code="KRK1" name="KRK1" netid="HI" source="ITSAK Strong Motion Network" insttype="" lat="39.618861" lon="19.9202">
		<comp name=".HNE" depth="0.0">
			<acc value="0.020343616625028" flag="0"/>
			<vel value="0.0126684013069" flag="0"/>
			<psa03 value="0.0399458727805148" flag="0"/>
			<psa10 value="0.0122974377698982" flag="0"/>
			<psa30 value="0.00198715934788877" flag="0"/>
		</comp>
		<comp name=".HNN" depth="0.0">
			<acc value="0.02381057283414" flag="0"/>
			<vel value="0.0134334287964" flag="0"/>
			<psa03 value="0.051253212982121" flag="0"/>
			<psa10 value="0.0239051504738923" flag="0"/>
			<psa30 value="0.00237841380824266" flag="0"/>
		</comp>
		<comp name=".HNZ" depth="0.0">
			<acc value="0.0099133356734622" flag="0"/>
			<vel value="0.00813175986022" flag="0"/>
			<psa03 value="0.0460204340445769" flag="0"/>
			<psa10 value="0.00558583753431625" flag="0"/>
			<psa30 value="0.00169986719119013" flag="0"/>
		</comp>
	</station>
	<station code="KYP2" name="KYP2" netid="HI" source="ITSAK Strong Motion Network" insttype="" lat="37.2497" lon="21.667">
		<comp name=".HNE" depth="0.0">
			<acc value="0.029117949162966" flag="0"/>
			<vel value="0.0302284297173" flag="0"/>
			<psa03 value="0.067529775599525" flag="0"/>
			<psa10 value="0.0820398947402447" flag="0"/>
			<psa30 value="0.0046059542885238" flag="0"/>
		</comp>
		<comp name=".HNN" depth="0.0">
			<acc value="0.026723585267592" flag="0"/>
			<vel value="0.0260687641559" flag="0"/>
			<psa03 value="0.0866726270526756" flag="0"/>
			<psa10 value="0.0508220729629091" flag="0"/>
			<psa30 value="0.00775063594159976" flag="0"/>
		</comp>
		<comp name=".HNZ" depth="0.0">
			<acc value="0.016034133550602" flag="0"/>
			<vel value="0.0170548260019" flag="0"/>
			<psa03 value="0.0515380130988718" flag="0"/>
			<psa10 value="0.0291281195949809" flag="0"/>
			<psa30 value="0.00470625093267545" flag="0"/>
		</comp>
	</station>
	<station code="LAM2" name="LAM2" netid="HI" source="ITSAK Strong Motion Network" insttype="" lat="38.90203" lon="22.431301">
		<comp name=".HNE" depth="0.0">
			<acc value="0.07521520282707" flag="0"/>
			<vel value="0.0412414725364" flag="0"/>
			<psa03 value="0.164227889708561" flag="0"/>
			<psa10 value="0.0294122234154544" flag="0"/>
			<psa30 value="0.00858066176004594" flag="0"/>
		</comp>
		<comp name=".HNN" depth="0.0">
			<acc value="0.1100673826842" flag="0"/>
			<vel value="0.0519729957172" flag="0"/>
			<psa03 value="0.18152608771225" flag="0"/>
			<psa10 value="0.0517875706723449" flag="0"/>
			<psa30 value="0.0106968652814953" flag="0"/>
		</comp>
		<comp name=".HNZ" depth="0.0">
			<acc value="0.048381445643634" flag="0"/>
			<vel value="0.0232326256809" flag="0"/>
			<psa03 value="0.0692281224816614" flag="0"/>
			<psa10 value="0.0177291569696518" flag="0"/>
			<psa30 value="0.00490476783346824" flag="0"/>
		</comp>
	</station>
	<station code="LXR2" name="LXR2" netid="HI" source="ITSAK Strong Motion Network" insttype="" lat="38.206718" lon="20.436386">
		<comp name=".HNE" depth="0.0">
			<acc value="0.10357258821096" flag="0"/>
			<vel value="0.0961731306242" flag="0"/>
			<psa03 value="0.218605773226078" flag="0"/>
			<psa10 value="0.151657841587803" flag="0"/>
			<psa30 value="0.0141161867947591" flag="0"/>
		</comp>
		<comp name=".HNN" depth="0.0">
			<acc value="0.12980719015566" flag="0"/>
			<vel value="0.152942518246" flag="0"/>
			<psa03 value="0.242076973911377" flag="0"/>
			<psa10 value="0.226502944708569" flag="0"/>
