<?xml version="1.0" encoding="UTF-8" standalone="yes"?>
<!DOCTYPE earthquake SYSTEM "stationlist.dtd">
<stationlist created="" xmlns="ch.ethz.sed.shakemap.usgs.xml">
  <station code="AGRP" name="AGRP" netid="CL" insttype="CMG40-T" lat="38.3959" lon="21.7228">
    <comp name="00.HHZ">
      <acc value="1.2304504665" flag="0"/>
      <vel value="0.7465520102" flag="0"/>
      <psa03 value="4.2642783758" flag="0"/>
      <psa10 value="1.0117409713" flag="0"/>
      <psa30 value="0.0713195591" flag="0"/>
    </comp>
    <comp name="00.HHN">
      <acc value="4.1515980260" flag="0"/>
      <vel value="2.3569313921" flag="0"/>
      <psa03 value="14.5277815307" flag="0"/>
      <psa10 value="1.7395285207" flag="0"/>
      <psa30 value="0.1194164198" flag="0"/>
    </comp>
    <comp name="00.HHE">
      <acc value="3.0218048741" flag="0"/>
      <vel value="1.2533856691" flag="0"/>
      <psa03 value="6.0996663562" flag="0"/>
      <psa10 value="0.9693764539" flag="0"/>
      <psa30 value="0.0724354855" flag="0"/>
    </comp>
  </station>
  <station code="PSAM" name="PSAM" netid="CL" insttype="CMG40-T" lat="38.3218" lon="22.1842">
    <comp name="00.HHZ">
      <acc value="0.0713060166" flag="0"/>
      <vel value="0.0369080685" flag="0"/>
      <psa03 value="0.0688790332" flag="0"/>
      <psa10 value="0.0868478156" flag="0"/>
      <psa30 value="0.0096616887" flag="0"/>
    </comp>
    <comp name="00.HHN">
      <acc value="0.0981574729" flag="0"/>
      <vel value="0.0572198306" flag="0"/>
      <psa03 value="0.1602771269" flag="0"/>
      <psa10 value="0.0740935664" flag="0"/>
      <psa30 value="0.0205212268" flag="0"/>
    </comp>
    <comp name="00.HHE">
      <acc value="0.1309469887" flag="0"/>
      <vel value="0.0683009595" flag="0"/>
      <psa03 value="0.2325960897" flag="0"/>
      <psa10 value="0.1158303678" flag="0"/>
      <psa30 value="0.0258994667" flag="0"/>
    </comp>
  </station>
  <station code="ROD3" name="ROD3" netid="CL" insttype="CMG40-T" lat="38.3081" lon="21.892">
    <comp name="00.HHZ">
      <acc value="0.5696371463" flag="0"/>
      <vel value="0.2541820351" flag="0"/>
      <psa03 value="1.0206792245" flag="0"/>
      <psa10 value="0.2682794028" flag="0"/>
      <psa30 value="0.0324569959" flag="0"/>
    </comp>
    <comp name="00.HHE">
      <acc value="1.7114057917" flag="0"/>
      <vel value="0.5992993273" flag="0"/>
      <psa03 value="5.5828375609" flag="0"/>
      <psa10 value="0.9545970159" flag="0"/>
      <psa30 value="0.0408264725" flag="0"/>
    </comp>
    <comp name="00.HHN">
      <acc value="1.6652827289" flag="0"/>
      <vel value="0.7741492771" flag="0"/>
      <psa03 value="4.7859918896" flag="0"/>
      <psa10 value="0.3869228479" flag="0"/>
      <psa30 value="0.0419650759" flag="0"/>
    </comp>
  </station>
  <station code="TRIZ" name="TRIZ" netid="CL" insttype="STS-2" lat="38.3654" lon="22.0727">
    <comp name="00.HH3">
      <acc value="0.3032356657" flag="0"/>
      <vel value="0.1672049959" flag="0"/>
      <psa03 value="1.5815818278" flag="0"/>
      <psa10 value="0.1251612003" flag="0"/>
      <psa30 value="0.0213945588" flag="0"/>
    </comp>
    <comp name="00.HHZ">
      <acc value="0.1749579103" flag="0"/>
      <vel value="0.0805009747" flag="0"/>
      <psa03 value="0.3697928333" flag="0"/>
      <psa10 value="0.1073711434" flag="0"/>
      <psa30 value="0.0150475976" flag="0"/>
    </comp>
    <comp name="00.HH2">
      <acc value="0.2403796006" flag="0"/>
      <vel value="0.1575039090" flag="0"/>
      <psa03 value="1.0767870901" flag="0"/>
      <psa10 value="0.2438660126" flag="0"/>
      <psa30 value="0.0374895948" flag="0"/>
    </comp>
  </station>
  <station code="ZIRI" name="ZIRI" netid="CL" insttype="TRILLIUM-40" lat="38.3051" lon="21.9476">
    <comp name="01.HHZ">
      <acc value="0.6860486936" flag="0"/>
      <vel value="0.2619229713" flag="0"/>
      <psa03 value="2.3242416072" flag="0"/>
      <psa10 value="0.1157859846" flag="0"/>
      <psa30 value="0.0308129285" flag="0"/>
    </comp>
    <comp name="01.HHE">
      <acc value="0.8240325684" flag="0"/>
      <vel value="0.3083602985" flag="0"/>
      <psa03 value="1.4562654552" flag="0"/>
      <psa10 value="0.2457356121" flag="0"/>
      <psa30 value="0.0329401055" flag="0"/>
    </comp>
    <comp name="01.HHN">
      <acc value="0.7579552185" flag="0"/>
      <vel value="0.4279195090" flag="0"/>
      <psa03 value="2.0536719004" flag="0"/>
      <psa10 value="0.3304282372" flag="0"/>
      <psa30 value="0.0346712224" flag="0"/>
    </comp>
  </station>
  <station code="ACOR" name="ACOR" netid="HA" insttype="Horizon,120s,1200" lat="37.8905" lon="22.8694">
    <comp name="--.HHE">
      <acc value="0.0113862999" flag="0"/>
      <vel value="0.0142441636" flag="0"/>
      <psa03 value="0.0334381366" flag="0"/>
      <psa10 value="0.0221197885" flag="0"/>
      <psa30 value="0.0028420132" flag="0"/>
    </comp>
    <comp name="--.HHN">
      <acc value="0.0116484479" flag="0"/>
      <vel value="0.0157857165" flag="0"/>
      <psa03 value="0.0279533818" flag="0"/>
      <psa10 value="0.0223428359" flag="0"/>
      <psa30 value="0.0037378186" flag="0"/>
    </comp>
    <comp name="--.HHZ">
      <acc value="0.0101192574" flag="0"/>
      <vel value="0.0123548395" flag="0"/>
      <psa03 value="0.0240441194" flag="0"/>
      <psa10 value="0.0189212854" flag="0"/>
      <psa30 value="0.0033358562" flag="0"/>
    </comp>
  </station>
  <station code="AMPE" name="AMPE" netid="HA" insttype="1s-100Hz," lat="38.3015" lon="23.2688">
    <comp name="--.HHZ">
      <acc value="0.0100988849" flag="0"/>
      <vel value="0.0144001999" flag="0"/>
      <psa03 value="0.0267530128" flag="0"/>
      <psa10 value="0.0161637480" flag="0"/>
      <psa30 value="0.0034015409" flag="0"/>
    </comp>
    <comp name="--.HHN">
      <acc value="0.0159478928" flag="0"/>
      <vel value="0.0245795354" flag="0"/>
      <psa03 value="0.0411442195" flag="0"/>
      <psa10 value="0.0357193159" flag="0"/>
      <psa30 value="0.0088673432" flag="0"/>
    </comp>
    <comp name="--.HHE">
      <acc value="0.0321194271" flag="0"/>
      <vel value="0.0314274869" flag="0"/>
      <psa03 value="0.0859756975" flag="0"/>
      <psa10 value="0.0542375386" flag="0"/>
      <psa30 value="0.0122906330" flag="0"/>
    </comp>
  </station>
  <station code="ATAL" name="ATAL" netid="HA" insttype="120s," lat="38.6926" lon="23.0213">
    <comp name="--.HHZ">
      <acc value="0.0060303862" flag="0"/>
      <vel value="0.0030059066" flag="0"/>
      <psa03 value="0.0046040060" flag="0"/>
      <psa10 value="0.0042090159" flag="0"/>
      <psa30 value="0.0007516521" flag="0"/>
    </comp>
    <comp name="--.HHN">
      <acc value="0.0141211720" flag="0"/>
      <vel value="0.0242381852" flag="0"/>
      <psa03 value="0.0287298116" flag="0"/>
      <psa10 value="0.0248330319" flag="0"/>
      <psa30 value="0.0054191601" flag="0"/>
    </comp>
    <comp name="--.HHE">
      <acc value="0.0105876524" flag="0"/>
      <vel value="0.0136260686" flag="0"/>
      <psa03 value="0.0135600733" flag="0"/>
      <psa10 value="0.0194571147" flag="0"/>
      <psa30 value="0.0035781399" flag="0"/>
    </comp>
  </station>
  <station code="AXAR" name="AXAR" netid="HA" insttype="Horizon,120s,1200" lat="38.7664" lon="22.659">
    <comp name="--.HHE">
      <acc value="0.1267597648" flag="0"/>
      <vel value="0.0795630220" flag="0"/>
      <psa03 value="0.4089417476" flag="0"/>
      <psa10 value="0.0753401800" flag="0"/>
      <psa30 value="0.0280472801" flag="0"/>
    </comp>
    <comp name="--.HHZ">
      <acc value="0.0631360355" flag="0"/>
      <vel value="0.0481410578" flag="0"/>
      <psa03 value="0.1253995614" flag="0"/>
      <psa10 value="0.0759768704" flag="0"/>
      <psa30 value="0.0065155336" flag="0"/>
    </comp>
    <comp name="--.HHN">
      <acc value="0.1191601455" flag="0"/>
      <vel value="0.0847423528" flag="0"/>
      <psa03 value="0.3624706302" flag="0"/>
      <psa10 value="0.1139108867" flag="0"/>
      <psa30 value="0.0218015287" flag="0"/>
    </comp>
  </station>
  <station code="HAVD" name="HAVD" netid="HA" insttype="GEOtiny," lat="38.2036" lon="20.3848">
    <comp name="--.HHZ">
      <acc value="0.0372424447" flag="0"/>
      <vel value="0.0183653735" flag="0"/>
      <psa03 value="0.0643368493" flag="0"/>
      <psa10 value="0.0185548056" flag="0"/>
      <psa30 value="0.0024045868" flag="0"/>
    </comp>
    <comp name="--.HHE">
      <acc value="0.0532713667" flag="0"/>
      <vel value="0.0400757989" flag="0"/>
      <psa03 value="0.1335024207" flag="0"/>
      <psa10 value="0.0536345642" flag="0"/>
      <psa30 value="0.0046338065" flag="0"/>
    </comp>
    <comp name="--.HHN">
      <acc value="0.0527697772" flag="0"/>
      <vel value="0.0498467822" flag="0"/>
      <psa03 value="0.1195679468" flag="0"/>
      <psa10 value="0.0746417990" flag="0"/>
      <psa30 value="0.0093446059" flag="0"/>
    </comp>
  </station>
  <station code="KALE" name="KALE" netid="HA" insttype="40," lat="38.3911" lon="22.1398">
    <comp name="--.HHZ">
      <acc value="0.1597061117" flag="0"/>
      <vel value="0.0583690123" flag="0"/>
      <psa03 value="0.3371263368" flag="0"/>
      <psa10 value="0.0388451676" flag="0"/>
      <psa30 value="0.0134353655" flag="0"/>
    </comp>
    <comp name="--.HHE">
      <acc value="0.1743105668" flag="0"/>
      <vel value="0.0729961139" flag="0"/>
      <psa03 value="0.3278229517" flag="0"/>
      <psa10 value="0.0819950573" flag="0"/>
      <psa30 value="0.0099342897" flag="0"/>
    </comp>
    <comp name="--.HHN">
      <acc value="0.3536895679" flag="0"/>
      <vel value="0.1039541434" flag="0"/>
      <psa03 value="0.6365513128" flag="0"/>
      <psa10 value="0.0835024322" flag="0"/>
      <psa30 value="0.0089722248" flag="0"/>
    </comp>
  </station>
  <station code="KIAS" name="KIAS" netid="HA" insttype="DC" lat="37.9875" lon="22.7543">
    <comp name="--.HNN">
      <acc value="0.0486988181" flag="0"/>
      <vel value="0.0664688921" flag="0"/>
      <psa03 value="0.1299709143" flag="0"/>
      <psa10 value="0.1021853452" flag="0"/>
      <psa30 value="0.0190578222" flag="0"/>
    </comp>
    <comp name="--.HNE">
      <acc value="0.0568828731" flag="0"/>
      <vel value="0.0617976611" flag="0"/>
      <psa03 value="0.1326863126" flag="0"/>
      <psa10 value="0.1104559734" flag="0"/>
      <psa30 value="0.0212610673" flag="0"/>
    </comp>
    <comp name="--.HNZ">
      <acc value="0.0369614830" flag="0"/>
      <vel value="0.0421172854" flag="0"/>
      <psa03 value="0.0929406918" flag="0"/>
      <psa10 value="0.0761160990" flag="0"/>
      <psa30 value="0.0109668466" flag="0"/>
    </comp>
  </station>
  <station code="LAKA" name="LAKA" netid="HA" insttype="120s," lat="38.2401" lon="21.9785">
    <comp name="--.HHE">
      <acc value="0.0943084663" flag="0"/>
      <vel value="0.0494661964" flag="0"/>
      <psa03 value="0.1996471665" flag="0"/>
      <psa10 value="0.0784499258" flag="0"/>
      <psa30 value="0.0166088606" flag="0"/>
    </comp>
    <comp name="--.HHZ">
      <acc value="0.0905256471" flag="0"/>
      <vel value="0.0558387966" flag="0"/>
      <psa03 value="0.2081691279" flag="0"/>
      <psa10 value="0.0741139590" flag="0"/>
      <psa30 value="0.0147240864" flag="0"/>
    </comp>
    <comp name="--.HHN">
      <acc value="0.1219169652" flag="0"/>
      <vel value="0.0588927783" flag="0"/>
      <psa03 value="0.2921481500" flag="0"/>
      <psa10 value="0.0781257499" flag="0"/>
      <psa30 value="0.0137514270" flag="0"/>
    </comp>
  </station>
  <station code="LOUT" name="LOUT" netid="HA" insttype="30" lat="37.9879" lon="22.9743">
    <comp name="--.HHE">
      <acc value="0.0293830997" flag="0"/>
      <vel value="0.0333770322" flag="0"/>
      <psa03 value="0.0903454400" flag="0"/>
      <psa10 value="0.0902134246" flag="0"/>
      <psa30 value="0.0054223956" flag="0"/>
    </comp>
    <comp name="--.HHN">
      <acc value="0.0270986009" flag="0"/>
      <vel value="0.0209928290" flag="0"/>
      <psa03 value="0.0545617153" flag="0"/>
      <psa10 value="0.0352452403" flag="0"/>
      <psa30 value="0.0034013756" flag="0"/>
    </comp>
    <comp name="--.HHZ">
      <acc value="0.0145726940" flag="0"/>
      <vel value="0.0122881475" flag="0"/>
      <psa03 value="0.0366382008" flag="0"/>
      <psa10 value="0.0147414873" flag="0"/>
      <psa30 value="0.0025263028" flag="0"/>
    </comp>
  </station>
  <station code="PRDM" name="PRDM" netid="HA" insttype="25" lat="38.2804" lon="22.847">
    <comp name="--.HHZ">
      <acc value="0.0068006211" flag="0"/>
      <vel value="0.0055354476" flag="0"/>
      <psa03 value="0.0235149919" flag="0"/>
      <psa10 value="0.0077742578" flag="0"/>
      <psa30 value="0.0018690258" flag="0"/>
    </comp>
    <comp name="--.HHE">
      <acc value="0.0152539998" flag="0"/>
      <vel value="0.0191689828" flag="0"/>
      <psa03 value="0.0300792745" flag="0"/>
      <psa10 value="0.0296744456" flag="0"/>
      <psa30 value="0.0028737357" flag="0"/>
    </comp>
    <comp name="--.HHN">
      <acc value="0.0136512386" flag="0"/>
      <vel value="0.0089539258" flag="0"/>
      <psa03 value="0.0350766328" flag="0"/>
      <psa10 value="0.0082477696" flag="0"/>
      <psa30 value="0.0019339167" flag="0"/>
    </comp>
  </station>
  <station code="THAL" name="THAL" netid="HA" insttype="30" lat="38.0357" lon="22.6634">
    <comp name="--.HHE">
      <acc value="0.1195643374" flag="0"/>
      <vel value="0.0919193050" flag="0"/>
      <psa03 value="0.3468857231" flag="0"/>
      <psa10 value="0.1252685634" flag="0"/>
      <psa30 value="0.0068032626" flag="0"/>
    </comp>
    <comp name="--.HHN">
      <acc value="0.0851715448" flag="0"/>
      <vel value="0.0643573047" flag="0"/>
      <psa03 value="0.2720760299" flag="0"/>
      <psa10 value="0.1314348310" flag="0"/>
      <psa30 value="0.0071685915" flag="0"/>
    </comp>
    <comp name="--.HHZ">
      <acc value="0.0621971018" flag="0"/>
      <vel value="0.0450242116" flag="0"/>
      <psa03 value="0.1806541088" flag="0"/>
      <psa10 value="0.0565410185" flag="0"/>
      <psa30 value="0.0032369092" flag="0"/>
    </comp>
  </station>
  <station code="ARG2" name="ARG2" netid="HI" insttype="CMG-5TD,ACCELEROMETER,GURALP" lat="38.1783" lon="20.4878">
    <comp name="--.HNE">
      <acc value="0.1290056460" flag="0"/>
      <vel value="0.0704157257" flag="0"/>
      <psa03 value="0.2882746344" flag="0"/>
      <psa10 value="0.0518228226" flag="0"/>
      <psa30 value="0.0080894670" flag="0"/>
    </comp>
    <comp name="--.HNN">
      <acc value="0.1306518262" flag="0"/>
      <vel value="0.1137185238" flag="0"/>
      <psa03 value="0.3095697983" flag="0"/>
      <psa10 value="0.0787655962" flag="0"/>
      <psa30 value="0.0112483730" flag="0"/>
    </comp>
    <comp name="--.HNZ">
      <acc value="0.0686040323" flag="0"/>
      <vel value="0.0367043784" flag="0"/>
      <psa03 value="0.1512703666" flag="0"/>
      <psa10 value="0.0330430765" flag="0"/>
      <psa30 value="0.0035188973" flag="0"/>
    </comp>
  </station>
  <station code="ARS1" name="ARS1" netid="HI" insttype="CMG-5TD,ACCELEROMETER,GURALP" lat="37.6349" lon="22.7293">
    <comp name="--.HNN">
      <acc value="0.0518692827" flag="0"/>
      <vel value="0.0755638233" flag="0"/>
      <psa03 value="0.1050036984" flag="0"/>
      <psa10 value="0.1121123587" flag="0"/>
      <psa30 value="0.0179324153" flag="0"/>
    </comp>
    <comp name="--.HNZ">
      <acc value="0.0172021230" flag="0"/>
      <vel value="0.0082156455" flag="0"/>
      <psa03 value="0.0386637101" flag="0"/>
      <psa10 value="0.0142226080" flag="0"/>
      <psa30 value="0.0014219365" flag="0"/>
    </comp>
    <comp name="--.HNE">
      <acc value="0.0642801937" flag="0"/>
      <vel value="0.0814440046" flag="0"/>
      <psa03 value="0.1069155913" flag="0"/>
      <psa10 value="0.0872954123" flag="0"/>
      <psa30 value="0.0122497162" flag="0"/>
    </comp>
  </station>
  <station code="ART2" name="ART2" netid="HI" insttype="CMG-5TD,ACCELEROMETER,GURALP" lat="39.1474" lon="20.9937">
    <comp name="--.HNE">
      <acc value="0.0389003013" flag="0"/>
      <vel value="0.0190353568" flag="0"/>
      <psa03 value="0.1312463813" flag="0"/>
      <psa10 value="0.0248373037" flag="0"/>
      <psa30 value="0.0028239356" flag="0"/>
    </comp>
    <comp name="--.HNN">
      <acc value="0.0480156327" flag="0"/>
      <vel value="0.0285725721" flag="0"/>
      <psa03 value="0.1668108042" flag="0"/>
      <psa10 value="0.0199694332" flag="0"/>
      <psa30 value="0.0021516595" flag="0"/>
    </comp>
    <comp name="--.HNZ">
      <acc value="0.0409181047" flag="0"/>
      <vel value="0.0239107323" flag="0"/>
      <psa03 value="0.1157081433" flag="0"/>
      <psa10 value="0.0204524814" flag="0"/>
      <psa30 value="0.0028125866" flag="0"/>
    </comp>
  </station>
  <station code="MSL1" name="MSL1" netid="HI" insttype="CMG-5TD,ACCELEROMETER,GURALP" lat="38.3727" lon="21.4243">
    <comp name="--.HNE">
      <acc value="1.4386091249" flag="0"/>
      <vel value="1.2371505990" flag="0"/>
      <psa03 value="4.6383505005" flag="0"/>
      <psa10 value="1.9998924629" flag="0"/>
      <psa30 value="0.1119461014" flag="0"/>
    </comp>
    <comp name="--.HNZ">
      <acc value="0.8670784553" flag="0"/>
      <vel value="0.7627345183" flag="0"/>
      <psa03 value="1.8178496191" flag="0"/>
      <psa10 value="1.4202240335" flag="0"/>
      <psa30 value="0.0803469494" flag="0"/>
    </comp>
    <comp name="--.HNN">
      <acc value="1.8059205250" flag="0"/>
      <vel value="2.0380502894" flag="0"/>
      <psa03 value="4.0599299215" flag="0"/>
      <psa10 value="5.3033934771" flag="0"/>
      <psa30 value="0.1616415881" flag="0"/>
    </comp>
  </station>
  <station code="VAS2" name="VAS2" netid="HI" insttype="CMG-5TD,ACCELEROMETER,GURALP" lat="38.6306" lon="20.6081">
    <comp name="--.HNE">
      <acc value="0.4398459803" flag="0"/>
      <vel value="0.3496670328" flag="0"/>
      <psa03 value="1.2639973510" flag="0"/>
      <psa10 value="0.6922332070" flag="0"/>
      <psa30 value="0.0224461350" flag="0"/>
    </comp>
    <comp name="--.HNZ">
      <acc value="0.2034172144" flag="0"/>
      <vel value="0.1341389944" flag="0"/>
      <psa03 value="0.5387602089" flag="0"/>
      <psa10 value="0.1771049105" flag="0"/>
      <psa30 value="0.0129494344" flag="0"/>
    </comp>
    <comp name="--.HNN">
      <acc value="0.7064526372" flag="0"/>
      <vel value="0.5088145854" flag="0"/>
      <psa03 value="2.8280509710" flag="0"/>
      <psa10 value="0.7426859176" flag="0"/>
      <psa30 value="0.0668421332" flag="0"/>
    </comp>
  </station>
  <station code="EVR" name="EVR" netid="HL" insttype="DR24" lat="38.9166" lon="21.8105">
    <comp name="--.HHN">
      <acc value="0.3001193482" flag="0"/>
      <vel value="0.0785178783" flag="0"/>
      <psa03 value="0.3137562160" flag="0"/>
      <psa10 value="0.1344771037" flag="0"/>
      <psa30 value="0.0109194131" flag="0"/>
    </comp>
    <comp name="--.HHZ">
      <acc value="0.1873931657" flag="0"/>
      <vel value="0.0914921999" flag="0"/>
      <psa03 value="0.2511395207" flag="0"/>
      <psa10 value="0.0866724522" flag="0"/>
      <psa30 value="0.0150626934" flag="0"/>
    </comp>
    <comp name="--.HHE">
      <acc value="0.3191339790" flag="0"/>
      <vel value="0.0808705902" flag="0"/>
      <psa03 value="0.4012223017" flag="0"/>
      <psa10 value="0.1069173874" flag="0"/>
      <psa30 value="0.0148082597" flag="0"/>
    </comp>
  </station>
  <station code="JAN" name="JAN" netid="HL" insttype="CMG3EPSC60_DR24" lat="39.6562" lon="20.8487">
    <comp name="--.HHN">
      <acc value="0.0173064317" flag="0"/>
      <vel value="0.0123071035" flag="0"/>
      <psa03 value="0.0634698068" flag="0"/>
      <psa10 value="0.0171298461" flag="0"/>
      <psa30 value="0.0032527123" flag="0"/>
