<stationlist created="1778118959">
	<station code="PHP" name="PHP" netid="AC" source="Albanian Seismological Network (AC)" insttype="" lat="41.6847" lon="20.4408">
		<comp name="01.HNE" depth="0.0">
			<acc value="0.00184971170104942" flag="0"/>
			<vel value="0.00420844622487136" flag="0"/>
			<psa03 value="0.00362708435205696" flag="0"/>
			<psa10 value="0.00469135452920408" flag="0"/>
			<psa30 value="0.00142728111287084" flag="0"/>
		</comp>
		<comp name="01.HNN" depth="0.0">
			<acc value="0.00227455886312664" flag="0"/>
			<vel value="0.00604188728238423" flag="0"/>
			<psa03 value="0.00406428030633422" flag="0"/>
			<psa10 value="0.00544098746994938" flag="0"/>
			<psa30 value="0.00256810116576351" flag="0"/>
		</comp>
		<comp name="01.HNZ" depth="0.0">
			<acc value="0.00164849768921114" flag="0"/>
			<vel value="0.00679469317073377" flag="0"/>
			<psa03 value="0.00401976303436338" flag="0"/>
			<psa10 value="0.00473085589598211" flag="0"/>
			<psa30 value="0.00192149583133329" flag="0"/>
		</comp>
	</station>
	<station code="AGRP" name="AGRP" netid="CL" source="Corinth Riff Laboratory (CRLNET)" insttype="" lat="38.3959" lon="21.72277">
		<comp name="00.HNE" depth="0.0">
			<acc value="3.22567524406088" flag="0"/>
			<vel value="1.23989245103932" flag="0"/>
			<psa03 value="5.24486878015583" flag="0"/>
			<psa10 value="0.974203056172928" flag="0"/>
			<psa30 value="0.0854742822515535" flag="0"/>
		</comp>
		<comp name="00.HNN" depth="0.0">
			<acc value="4.17334805094085" flag="0"/>
			<vel value="2.31918602373355" flag="0"/>
			<psa03 value="14.7797884217938" flag="0"/>
			<psa10 value="1.66417088315521" flag="0"/>
			<psa30 value="0.1175034240251" flag="0"/>
		</comp>
		<comp name="00.HNZ" depth="0.0">
			<acc value="1.31708961966169" flag="0"/>
			<vel value="0.695259785242681" flag="0"/>
			<psa03 value="3.95514467558919" flag="0"/>
			<psa10 value="0.960184987544459" flag="0"/>
			<psa30 value="0.0778727053510296" flag="0"/>
		</comp>
	</station>
	<station code="MALA" name="MALA" netid="CL" source="Corinth Riff Laboratory (CRLNET)" insttype="" lat="38.39341" lon="21.87263">
		<comp name="01.HNE" depth="0.0">
			<acc value="1.30229722113816" flag="0"/>
			<vel value="0.858783905595812" flag="0"/>
			<psa03 value="2.96855531888619" flag="0"/>
			<psa10 value="1.55755066008906" flag="0"/>
			<psa30 value="0.195835693153714" flag="0"/>
		</comp>
		<comp name="01.HNN" depth="0.0">
			<acc value="1.41612722415466" flag="0"/>
			<vel value="1.09870865813549" flag="0"/>
			<psa03 value="2.92225525173341" flag="0"/>
			<psa10 value="1.83246703194732" flag="0"/>
			<psa30 value="0.15682620229973" flag="0"/>
		</comp>
		<comp name="01.HNZ" depth="0.0">
			<acc value="0.559080188405118" flag="0"/>
			<vel value="0.415934058223793" flag="0"/>
			<psa03 value="1.21063428191165" flag="0"/>
			<psa10 value="0.425656497655073" flag="0"/>
			<psa30 value="0.111641789054124" flag="0"/>
		</comp>
	</station>
	<station code="ROD3" name="ROD3" netid="CL" source="Corinth Riff Laboratory (CRLNET)" insttype="" lat="38.30811" lon="21.89204">
		<comp name="00.HNE" depth="0.0">
			<acc value="1.33423057420848" flag="0"/>
			<vel value="0.489448712268523" flag="0"/>
			<psa03 value="4.49079916005511" flag="0"/>
			<psa10 value="0.766321925068191" flag="0"/>
			<psa30 value="0.0381394832202433" flag="0"/>
		</comp>
		<comp name="00.HNN" depth="0.0">
			<acc value="1.42397165435695" flag="0"/>
			<vel value="0.666425915996443" flag="0"/>
			<psa03 value="4.14523160125204" flag="0"/>
			<psa10 value="0.338980605801477" flag="0"/>
			<psa30 value="0.0369577382687776" flag="0"/>
		</comp>
		<comp name="00.HNZ" depth="0.0">
			<acc value="0.462348065345203" flag="0"/>
			<vel value="0.208656770478244" flag="0"/>
			<psa03 value="0.806577765149972" flag="0"/>
			<psa10 value="0.239738096472505" flag="0"/>
			<psa30 value="0.0306836759762696" flag="0"/>
		</comp>
	</station>
	<station code="TRIZ" name="TRIZ" netid="CL" source="Corinth Riff Laboratory (CRLNET)" insttype="" lat="38.36543" lon="22.07272">
		<comp name="00.HNE" depth="0.0">
			<acc value="0.194473170118801" flag="0"/>
			<vel value="0.114630802694792" flag="0"/>
			<psa03 value="0.470061389262255" flag="0"/>
			<psa10 value="0.234543717370214" flag="0"/>
			<psa30 value="0.0436186695227823" flag="0"/>
		</comp>
		<comp name="00.HNN" depth="0.0">
			<acc value="0.312860506908381" flag="0"/>
			<vel value="0.198994159948197" flag="0"/>
			<psa03 value="1.8644946802891" flag="0"/>
			<psa10 value="0.163161353639119" flag="0"/>
			<psa30 value="0.0260287826124381" flag="0"/>
		</comp>
		<comp name="00.HNZ" depth="0.0">
			<acc value="0.185010461439599" flag="0"/>
			<vel value="0.0902379427034417" flag="0"/>
			<psa03 value="0.363429200400773" flag="0"/>
			<psa10 value="0.109020967104157" flag="0"/>
			<psa30 value="0.018436406321433" flag="0"/>
		</comp>
	</station>
	<station code="MMAA" name="MMAA" netid="EG" source="EUROSEISTEST Strong Motion Network" insttype="" lat="40.630855" lon="22.943725">
		<comp name="--.EN1" depth="0.0">
			<acc value="0.0063000198325711" flag="0"/>
			<vel value="0.00542703181112454" flag="0"/>
			<psa03 value="0.0126496608946408" flag="0"/>
			<psa10 value="0.00838002763572304" flag="0"/>
			<psa30 value="0.00105249430591452" flag="0"/>
		</comp>
		<comp name="--.EN2" depth="0.0">
			<acc value="0.00669742503937254" flag="0"/>
			<vel value="0.00453550289362631" flag="0"/>
			<psa03 value="0.0107318261651999" flag="0"/>
			<psa10 value="0.00849271697582535" flag="0"/>
			<psa30 value="0.000796038931591308" flag="0"/>
		</comp>
		<comp name="--.EN3" depth="0.0">
			<acc value="0.0345024172590554" flag="0"/>
			<vel value="0.0065043867579585" flag="0"/>
			<psa03 value="0.00993553318033043" flag="0"/>
			<psa10 value="0.00239205541505606" flag="0"/>
			<psa30 value="0.000767346874630524" flag="0"/>
		</comp>
	</station>
	<station code="KTHA" name="KTHA" netid="GE" source="GEOFON" insttype="" lat="36.2566" lon="23.0621">
		<comp name="--.HNE" depth="0.0">
			<acc value="0.00621565227460182" flag="0"/>
			<vel value="0.0134695421432449" flag="0"/>
			<psa03 value="0.0130751643425639" flag="0"/>
			<psa10 value="0.0165331858674215" flag="0"/>
			<psa30 value="0.00469237459679526" flag="0"/>
		</comp>
		<comp name="--.HNN" depth="0.0">
			<acc value="0.0035178319532685" flag="0"/>
			<vel value="0.0066756675612499" flag="0"/>
			<psa03 value="0.00772209683746065" flag="0"/>
			<psa10 value="0.0108943245080445" flag="0"/>
			<psa30 value="0.00329144387533725" flag="0"/>
		</comp>
		<comp name="--.HNZ" depth="0.0">
			<acc value="0.00304149894639519" flag="0"/>
			<vel value="0.0108541496299204" flag="0"/>
			<psa03 value="0.00739592093306412" flag="0"/>
			<psa10 value="0.00738715686288414" flag="0"/>
			<psa30 value="0.00330070823905524" flag="0"/>
		</comp>
	</station>
	<station code="ATHU" name="ATHU" netid="HA" source="Hellenic Seismological Network, University of Athens, Seismological Laboratory (HA)" insttype="" lat="37.9665" lon="23.7845">
		<comp name="--.HNE" depth="0.0">
			<acc value="0.000241727119110225" flag="0"/>
			<vel value="0.000208575071517082" flag="0"/>
			<psa03 value="0.000703834874305211" flag="0"/>
			<psa10 value="0.000275642967025185" flag="0"/>
			<psa30 value="0.000138467519147946" flag="0"/>
		</comp>
		<comp name="--.HNN" depth="0.0">
			<acc value="0.000183067763832455" flag="0"/>
			<vel value="0.000227074392458191" flag="0"/>
			<psa03 value="0.000538327653751916" flag="0"/>
			<psa10 value="0.000413200058020898" flag="0"/>
			<psa30 value="0.000121011909674447" flag="0"/>
		</comp>
		<comp name="--.HNZ" depth="0.0">
			<acc value="0.000287281070384508" flag="0"/>
			<vel value="0.000255873584914704" flag="0"/>
			<psa03 value="0.000850054765734339" flag="0"/>
			<psa10 value="0.000334376779726794" flag="0"/>
			<psa30 value="0.000119127982789827" flag="0"/>
		</comp>
	</station>
	<station code="KIAS" name="KIAS" netid="HA" source="Hellenic Seismological Network, University of Athens, Seismological Laboratory (HA)" insttype="" lat="37.9875" lon="22.7543">
		<comp name="--.HNE" depth="0.0">
			<acc value="0.0569981927482255" flag="0"/>
			<vel value="0.0695692296111303" flag="0"/>
			<psa03 value="0.130675937889466" flag="0"/>
			<psa10 value="0.111410512899566" flag="0"/>
			<psa30 value="0.0248455725639045" flag="0"/>
		</comp>
		<comp name="--.HNN" depth="0.0">
			<acc value="0.0479693486492871" flag="0"/>
			<vel value="0.0731345783747905" flag="0"/>
			<psa03 value="0.130993281828718" flag="0"/>
			<psa10 value="0.102360113355288" flag="0"/>
			<psa30 value="0.0207199809303908" flag="0"/>
		</comp>
		<comp name="--.HNZ" depth="0.0">
			<acc value="0.0362937218360517" flag="0"/>
			<vel value="0.0421622790818711" flag="0"/>
			<psa03 value="0.0932255507353387" flag="0"/>
			<psa10 value="0.0750211997862505" flag="0"/>
			<psa30 value="0.0123277966560266" flag="0"/>
		</comp>
	</station>
	<station code="AGR3" name="AGR3" netid="HI" source="ITSAK Strong Motion Network" insttype="" lat="38.5893" lon="21.4162">
		<comp name="--.HNE" depth="0.0">
			<acc value="10.8529268493273" flag="0"/>
			<vel value="3.02370131172563" flag="0"/>
			<psa03 value="8.4485630091584" flag="0"/>
			<psa10 value="1.17808060205648" flag="0"/>
			<psa30 value="0.148705851032795" flag="0"/>
		</comp>
		<comp name="--.HNN" depth="0.0">
			<acc value="15.4548179202148" flag="0"/>
			<vel value="5.52583519302228" flag="0"/>
			<psa03 value="20.4681732493785" flag="0"/>
			<psa10 value="1.62696397838082" flag="0"/>
			<psa30 value="0.154910315381315" flag="0"/>
		</comp>
		<comp name="--.HNZ" depth="0.0">
			<acc value="3.99176256234397" flag="0"/>
			<vel value="0.77917971200388" flag="0"/>
			<psa03 value="3.6962798604024" flag="0"/>
			<psa10 value="0.787643377507139" flag="0"/>
			<psa30 value="0.0640521564741522" flag="0"/>
		</comp>
	</station>
	<station code="AIG2" name="AIG2" netid="HI" source="ITSAK Strong Motion Network" insttype="" lat="38.2417" lon="22.0726">
		<comp name="--.HNE" depth="0.0">
			<acc value="0.181962777357818" flag="0"/>
			<vel value="0.11056924457651" flag="0"/>
			<psa03 value="0.388901762833244" flag="0"/>
			<psa10 value="0.147350321235773" flag="0"/>
			<psa30 value="0.0331545463259673" flag="0"/>
		</comp>
		<comp name="--.HNN" depth="0.0">
			<acc value="0.179384921146964" flag="0"/>
			<vel value="0.0893065204704952" flag="0"/>
			<psa03 value="0.426971159743884" flag="0"/>
			<psa10 value="0.0891908609569367" flag="0"/>
			<psa30 value="0.0252572831710347" flag="0"/>
		</comp>
		<comp name="--.HNZ" depth="0.0">
			<acc value="0.114054180870629" flag="0"/>
			<vel value="0.0637937952140968" flag="0"/>
			<psa03 value="0.239342230248063" flag="0"/>
			<psa10 value="0.0717905032683545" flag="0"/>
			<psa30 value="0.0251257011210461" flag="0"/>
		</comp>
	</station>
	<station code="AOL1" name="AOL1" netid="HI" source="ITSAK Strong Motion Network" insttype="" lat="37.642378" lon="21.624555">
		<comp name="--.HNE" depth="0.0">
			<acc value="0.10448832590877" flag="0"/>
			<vel value="0.0654508287213907" flag="0"/>
			<psa03 value="0.330831499296525" flag="0"/>
			<psa10 value="0.0843317015613499" flag="0"/>
			<psa30 value="0.0389030871385965" flag="0"/>
		</comp>
		<comp name="--.HNN" depth="0.0">
			<acc value="0.093780191484391" flag="0"/>
			<vel value="0.0617375408571617" flag="0"/>
			<psa03 value="0.307159597815894" flag="0"/>
			<psa10 value="0.0807085865477616" flag="0"/>
			<psa30 value="0.0209622969826308" flag="0"/>
		</comp>
		<comp name="--.HNZ" depth="0.0">
			<acc value="0.05995131617509" flag="0"/>
			<vel value="0.0430943318281467" flag="0"/>
			<psa03 value="0.189413214362526" flag="0"/>
			<psa10 value="0.0669228008071134" flag="0"/>
			<psa30 value="0.00854565027405744" flag="0"/>
		</comp>
	</station>
	<station code="ARG2" name="ARG2" netid="HI" source="ITSAK Strong Motion Network" insttype="" lat="38.1783" lon="20.4878">
		<comp name="--.HNE" depth="0.0">
			<acc value="0.129393663131142" flag="0"/>
			<vel value="0.0706247832770167" flag="0"/>
			<psa03 value="0.286757787962733" flag="0"/>
			<psa10 value="0.0515177965511533" flag="0"/>
			<psa30 value="0.00913590854243573" flag="0"/>
		</comp>
		<comp name="--.HNN" depth="0.0">
			<acc value="0.13016287081622" flag="0"/>
			<vel value="0.118974974095735" flag="0"/>
			<psa03 value="0.307785305932579" flag="0"/>
			<psa10 value="0.0793599597079645" flag="0"/>
			<psa30 value="0.0113557072598827" flag="0"/>
		</comp>
		<comp name="--.HNZ" depth="0.0">
			<acc value="0.0686922484864007" flag="0"/>
			<vel value="0.0358115089023649" flag="0"/>
			<psa03 value="0.153108955216696" flag="0"/>
			<psa10 value="0.0336792823371844" flag="0"/>
			<psa30 value="0.00460233196524773" flag="0"/>
		</comp>
	</station>
	<station code="ARS1" name="ARS1" netid="HI" source="ITSAK Strong Motion Network" insttype="" lat="37.6349" lon="22.7293">
		<comp name="--.HNE" depth="0.0">
			<acc value="0.0636409763954841" flag="0"/>
			<vel value="0.0792884212161507" flag="0"/>
			<psa03 value="0.107277992057147" flag="0"/>
			<psa10 value="0.0876465386530388" flag="0"/>
			<psa30 value="0.0132369877188059" flag="0"/>
		</comp>
		<comp name="--.HNN" depth="0.0">
			<acc value="0.0520653067127327" flag="0"/>
			<vel value="0.0799105771915495" flag="0"/>
			<psa03 value="0.105521990313983" flag="0"/>
			<psa10 value="0.111289582388652" flag="0"/>
			<psa30 value="0.0192557222637645" flag="0"/>
		</comp>
		<comp name="--.HNZ" depth="0.0">
			<acc value="0.0259363666964836" flag="0"/>
			<vel value="0.0263430987840353" flag="0"/>
			<psa03 value="0.107296982898531" flag="0"/>
			<psa10 value="0.0368164101564873" flag="0"/>
			<psa30 value="0.00896476720516388" flag="0"/>
		</comp>
	</station>
	<station code="ART2" name="ART2" netid="HI" source="ITSAK Strong Motion Network" insttype="" lat="39.1474" lon="20.9937">
		<comp name="--.HNE" depth="0.0">
			<acc value="0.0392767536461373" flag="0"/>
			<vel value="0.0226390085531522" flag="0"/>
			<psa03 value="0.132830830640819" flag="0"/>
			<psa10 value="0.0247869707651747" flag="0"/>
			<psa30 value="0.00334869350117445" flag="0"/>
		</comp>
		<comp name="--.HNN" depth="0.0">
			<acc value="0.0490816083305533" flag="0"/>
			<vel value="0.0238639113147844" flag="0"/>
			<psa03 value="0.165132189197133" flag="0"/>
			<psa10 value="0.0194743575806161" flag="0"/>
			<psa30 value="0.00260891303601943" flag="0"/>
		</comp>
		<comp name="--.HNZ" depth="0.0">
			<acc value="0.0408711711484936" flag="0"/>
			<vel value="0.0290292800539414" flag="0"/>
			<psa03 value="0.117035596783872" flag="0"/>
			<psa10 value="0.0207296069847202" flag="0"/>
			<psa30 value="0.00304130584658703" flag="0"/>
		</comp>
	</station>
	<station code="ATH5" name="ATH5" netid="HI" source="ITSAK Strong Motion Network" insttype="" lat="37.975421" lon="23.737098">
		<comp name="--.HNE" depth="0.0">
			<acc value="0.0102119591101742" flag="0"/>
			<vel value="0.0108110342719048" flag="0"/>
			<psa03 value="0.0303266574297192" flag="0"/>
			<psa10 value="0.0228895906980475" flag="0"/>
			<psa30 value="0.00337787293417081" flag="0"/>
		</comp>
		<comp name="--.HNN" depth="0.0">
			<acc value="0.00751540773348507" flag="0"/>
			<vel value="0.0128776712794537" flag="0"/>
			<psa03 value="0.0225451211077943" flag="0"/>
			<psa10 value="0.0189544662653664" flag="0"/>
			<psa30 value="0.00284950189051562" flag="0"/>
		</comp>
		<comp name="--.HNZ" depth="0.0">
			<acc value="0.00532175595795034" flag="0"/>
			<vel value="0.008002444868453" flag="0"/>
			<psa03 value="0.0133034802486097" flag="0"/>
			<psa10 value="0.0134627880936393" flag="0"/>
			<psa30 value="0.00247987448784756" flag="0"/>
		</comp>
	</station>
	<station code="FLO2" name="FLO2" netid="HI" source="ITSAK Strong Motion Network" insttype="" lat="40.7801" lon="21.4052">
		<comp name="--.HNE" depth="0.0">
			<acc value="0.00739898995412252" flag="0"/>
			<vel value="0.00708847936240924" flag="0"/>
			<psa03 value="0.0200415906778651" flag="0"/>
			<psa10 value="0.00593319163857065" flag="0"/>
			<psa30 value="0.00199464296864245" flag="0"/>
		</comp>
		<comp name="--.HNN" depth="0.0">
			<acc value="0.0085938187272569" flag="0"/>
			<vel value="0.00624413939704739" flag="0"/>
			<psa03 value="0.0158688741516979" flag="0"/>
			<psa10 value="0.00676785864991597" flag="0"/>
			<psa30 value="0.00105812103282616" flag="0"/>
		</comp>
		<comp name="--.HNZ" depth="0.0">
			<acc value="0.0124409592784728" flag="0"/>
			<vel value="0.0053211425683224" flag="0"/>
			<psa03 value="0.0107923848644067" flag="0"/>
			<psa10 value="0.0048463762048782" flag="0"/>
			<psa30 value="0.0013565262173689" flag="0"/>
		</comp>
	</station>
	<station code="FRS1" name="FRS1" netid="HI" source="ITSAK Strong Motion Network" insttype="" lat="39.2934" lon="22.3844">
		<comp name="--.HNE" depth="0.0">
			<acc value="0.0194319412612155" flag="0"/>
			<vel value="0.0211234552467168" flag="0"/>
			<psa03 value="0.0497725107260927" flag="0"/>
			<psa10 value="0.0152337004078914" flag="0"/>
			<psa30 value="0.00520352179109984" flag="0"/>
		</comp>
		<comp name="--.HNN" depth="0.0">
			<acc value="0.0165815795414543" flag="0"/>
			<vel value="0.014398570573841" flag="0"/>
			<psa03 value="0.0407445585020403" flag="0"/>
			<psa10 value="0.0173863861377606" flag="0"/>
			<psa30 value="0.00486618819441008" flag="0"/>
		</comp>
		<comp name="--.HNZ" depth="0.0">
			<acc value="0.0124493219294506" flag="0"/>
			<vel value="0.0169904393135877" flag="0"/>
			<psa03 value="0.0297014675764589" flag="0"/>
			<psa10 value="0.010882143701095" flag="0"/>
			<psa30 value="0.00613951421269487" flag="0"/>
		</comp>
	</station>
	<station code="GRE3" name="GRE3" netid="HI" source="ITSAK Strong Motion Network" insttype="" lat="40.08481" lon="21.43829">
		<comp name="--.HNE" depth="0.0">
			<acc value="0.010111168137695" flag="0"/>
			<vel value="0.0127795168045649" flag="0"/>
			<psa03 value="0.0213480743614055" flag="0"/>
			<psa10 value="0.0249769621011586" flag="0"/>
			<psa30 value="0.0059880616796984" flag="0"/>
		</comp>
		<comp name="--.HNN" depth="0.0">
			<acc value="0.00776628985735966" flag="0"/>
			<vel value="0.0184764237733247" flag="0"/>
			<psa03 value="0.0164653160067945" flag="0"/>
			<psa10 value="0.0186361976816347" flag="0"/>
			<psa30 value="0.00519229938101817" flag="0"/>
		</comp>
		<comp name="--.HNZ" depth="0.0">
			<acc value="0.00674333484862635" flag="0"/>
			<vel value="0.0180296523549499" flag="0"/>
			<psa03 value="0.0116435916433026" flag="0"/>
			<psa10 value="0.0165187586616915" flag="0"/>
			<psa30 value="0.00327228177260791" flag="0"/>
		</comp>
	</station>
	<station code="GTH2" name="GTH2" netid="HI" source="ITSAK Strong Motion Network" insttype="" lat="36.7603" lon="22.5659">
		<comp name="--.HNE" depth="0.0">
			<acc value="0.0175734180094904" flag="0"/>
			<vel value="0.0219668570846729" flag="0"/>
			<psa03 value="0.0524910137303638" flag="0"/>
			<psa10 value="0.033063225276406" flag="0"/>
			<psa30 value="0.00484787864817196" flag="0"/>
		</comp>
		<comp name="--.HNN" depth="0.0">
			<acc value="0.0162895008531218" flag="0"/>
			<vel value="0.0177754698947787" flag="0"/>
			<psa03 value="0.0406672408801362" flag="0"/>
			<psa10 value="0.025966508278728" flag="0"/>
			<psa30 value="0.00418387216099896" flag="0"/>
		</comp>
		<comp name="--.HNZ" depth="0.0">
			<acc value="0.0125653838890725" flag="0"/>
			<vel value="0.0120307740455155" flag="0"/>
			<psa03 value="0.0202622706613994" flag="0"/>
			<psa10 value="0.0257595226919465" flag="0"/>
			<psa30 value="0.00490924396332476" flag="0"/>
		</comp>
	</station>
	<station code="ITC1" name="ITC1" netid="HI" source="ITSAK Strong Motion Network" insttype="" lat="38.3647" lon="20.7156">
		<comp name="--.HNE" depth="0.0">
			<acc value="0.0769905687146936" flag="0"/>
			<vel value="0.0368293317909988" flag="0"/>
			<psa03 value="0.179527851172416" flag="0"/>
