<?xml version="1.0" encoding="UTF-8" standalone="yes"?>
<!DOCTYPE earthquake SYSTEM "stationlist.dtd">
<stationlist created="" xmlns="ch.ethz.sed.shakemap.usgs.xml">
  <station code="ARPRA" name="ARPRA" netid="KO" insttype="CMG-5T" lat="39.0929" lon="38.3356">
    <comp name="--.HNE">
      <acc value="0.0767322210" flag="0"/>
      <vel value="0.0326703548" flag="0"/>
      <psa03 value="0.2048622657" flag="0"/>
      <psa10 value="0.0208545563" flag="0"/>
      <psa30 value="0.0027824172" flag="0"/>
    </comp>
    <comp name="--.HNN">
      <acc value="0.1233192422" flag="0"/>
      <vel value="0.0580688861" flag="0"/>
      <psa03 value="0.3953601346" flag="0"/>
      <psa10 value="0.0250844407" flag="0"/>
      <psa30 value="0.0021030502" flag="0"/>
    </comp>
    <comp name="--.HNZ">
      <acc value="0.0326396088" flag="0"/>
      <vel value="0.0171699554" flag="0"/>
      <psa03 value="0.0956586581" flag="0"/>
      <psa10 value="0.0183866996" flag="0"/>
      <psa30 value="0.0011452742" flag="0"/>
    </comp>
  </station>
  <station code="SVRC" name="SVRC" netid="KO" insttype="CMG-3T" lat="38.3775" lon="39.306">
    <comp name="--.HHE">
      <acc value="0.0148548808" flag="0"/>
      <vel value="0.0125406670" flag="0"/>
      <psa03 value="0.0507564901" flag="0"/>
      <psa10 value="0.0118260870" flag="0"/>
      <psa30 value="0.0044142689" flag="0"/>
    </comp>
    <comp name="--.HHZ">
      <acc value="0.0143665907" flag="0"/>
      <vel value="0.0069266708" flag="0"/>
      <psa03 value="0.0380781674" flag="0"/>
      <psa10 value="0.0105670805" flag="0"/>
      <psa30 value="0.0016968762" flag="0"/>
    </comp>
  </station>
</stationlist>
