<?xml version="1.0" encoding="UTF-8" standalone="yes"?>
<!DOCTYPE earthquake SYSTEM "stationlist.dtd">
<stationlist created="" xmlns="ch.ethz.sed.shakemap.usgs.xml">
  <station code="ARPRA" name="ARPRA" netid="KO" insttype="CMG-5T" lat="39.0929" lon="38.3356">
    <comp name="--.HNN">
      <acc value="0.0279849949" flag="0"/>
      <vel value="0.0122832630" flag="0"/>
      <psa03 value="0.0692448375" flag="0"/>
      <psa10 value="0.0145142409" flag="0"/>
      <psa30 value="0.0006194246" flag="0"/>
    </comp>
    <comp name="--.HNZ">
      <acc value="0.0127769762" flag="0"/>
      <vel value="0.0066848797" flag="0"/>
      <psa03 value="0.0263805999" flag="0"/>
      <psa10 value="0.0071487479" flag="0"/>
      <psa30 value="0.0004369187" flag="0"/>
    </comp>
    <comp name="--.HNE">
      <acc value="0.0258651722" flag="0"/>
      <vel value="0.0106848499" flag="0"/>
      <psa03 value="0.0655046429" flag="0"/>
      <psa10 value="0.0131300552" flag="0"/>
      <psa30 value="0.0009776788" flag="0"/>
    </comp>
  </station>
  <station code="DARE" name="DARE" netid="KO" insttype="CMG-3ESP" lat="38.5712" lon="37.4832">
    <comp name="--.HHZ">
      <acc value="0.0061529296" flag="0"/>
      <vel value="0.0031159374" flag="0"/>
      <psa03 value="0.0133338662" flag="0"/>
      <psa10 value="0.0033537711" flag="0"/>
      <psa30 value="0.0003451845" flag="0"/>
    </comp>
  </station>
  <station code="SVRC" name="SVRC" netid="KO" insttype="CMG-3T" lat="38.3775" lon="39.306">
    <comp name="--.HHN">
      <acc value="0.0299347377" flag="0"/>
      <vel value="0.0162532094" flag="0"/>
      <psa03 value="0.0917962186" flag="0"/>
      <psa10 value="0.0069716198" flag="0"/>
      <psa30 value="0.0006119350" flag="0"/>
    </comp>
  </station>
  <station code="URFA" name="URFA" netid="KO" insttype="CMG-3ESP" lat="37.4409" lon="38.8213">
    <comp name="--.HHE">
      <acc value="0.0367554035" flag="0"/>
      <vel value="0.0127553151" flag="0"/>
      <psa03 value="0.0473345015" flag="0"/>
      <psa10 value="0.0083125017" flag="0"/>
      <psa30 value="0.0009759384" flag="0"/>
    </comp>
    <comp name="--.HHZ">
      <acc value="0.0206936947" flag="0"/>
      <vel value="0.0063255095" flag="0"/>
      <psa03 value="0.0222511224" flag="0"/>
      <psa10 value="0.0043274202" flag="0"/>
      <psa30 value="0.0003566014" flag="0"/>
    </comp>
  </station>
</stationlist>
