<?xml version="1.0" encoding="UTF-8" standalone="yes"?>
<!DOCTYPE earthquake SYSTEM "stationlist.dtd">
<stationlist created="" xmlns="ch.ethz.sed.shakemap.usgs.xml">
  <station code="PVO" name="PVO" netid="HP" insttype="120P," commtype="DIG" lat="38.616" lon="21.525">
    <comp name="--.HHE">
      <acc value="0.0046875223" flag="0"/>
      <vel value="0.0003540284" flag="0"/>
      <psa03 value="0.0005397378" flag="0"/>
      <psa10 value="0.0000306106" flag="0"/>
      <psa30 value="0.0000100199" flag="0"/>
    </comp>
    <comp name="--.HHN">
      <acc value="0.0025305485" flag="0"/>
      <vel value="0.0002211960" flag="0"/>
      <psa03 value="0.0007584078" flag="0"/>
      <psa10 value="0.0000418651" flag="0"/>
      <psa30 value="0.0000083758" flag="0"/>
    </comp>
    <comp name="--.HHZ">
      <acc value="0.0209823113" flag="0"/>
      <vel value="0.0071840632" flag="0"/>
      <psa03 value="0.0359835494" flag="0"/>
      <psa10 value="0.0063663618" flag="0"/>
      <psa30 value="0.0002872194" flag="0"/>
    </comp>
  </station>
</stationlist>
