<?xml version="1.0" encoding="UTF-8" standalone="yes"?>
<!DOCTYPE earthquake SYSTEM "stationlist.dtd">
<stationlist created="" xmlns="ch.ethz.sed.shakemap.usgs.xml">
  <station code="CSLB" name="CSLB" netid="IV" insttype="" commtype="DIG" lat="37.9374" lon="14.0579">
    <comp name="--.HHE">
      <acc value="0.0441195111" flag="0"/>
      <vel value="0.0518112770" flag="0"/>
      <psa03 value="0.0746536858" flag="0"/>
      <psa10 value="0.0675111792" flag="0"/>
      <psa30 value="0.0131145429" flag="0"/>
    </comp>
    <comp name="--.HHN">
      <acc value="0.0654436381" flag="0"/>
      <vel value="0.0751051465" flag="0"/>
      <psa03 value="0.1205585053" flag="0"/>
      <psa10 value="0.1381278335" flag="0"/>
      <psa30 value="0.0203082612" flag="0"/>
    </comp>
    <comp name="--.HHZ">
      <acc value="0.1053935782" flag="0"/>
      <vel value="0.1409793852" flag="0"/>
      <psa03 value="0.1412964821" flag="0"/>
      <psa10 value="0.2151727892" flag="0"/>
      <psa30 value="0.0219368426" flag="0"/>
    </comp>
  </station>
  <station code="ECPN" name="ECPN" netid="IV" insttype="" commtype="DIG" lat="37.7437" lon="14.9865">
    <comp name="--.HHE">
      <acc value="0.2124168145" flag="0"/>
      <vel value="0.2350827409" flag="0"/>
      <psa03 value="0.3785617938" flag="0"/>
      <psa10 value="0.4871366594" flag="0"/>
      <psa30 value="0.0431419986" flag="0"/>
    </comp>
    <comp name="--.HHN">
      <acc value="0.3157535002" flag="0"/>
      <vel value="0.1817926126" flag="0"/>
      <psa03 value="0.3899197139" flag="0"/>
      <psa10 value="0.4560033705" flag="0"/>
      <psa30 value="0.0611312099" flag="0"/>
    </comp>
    <comp name="--.HHZ">
      <acc value="0.1222683275" flag="0"/>
      <vel value="0.1157439895" flag="0"/>
      <psa03 value="0.1926585460" flag="0"/>
      <psa10 value="0.1714897942" flag="0"/>
      <psa30 value="0.0355303213" flag="0"/>
    </comp>
  </station>
  <station code="GIB" name="GIB" netid="IV" insttype="" commtype="DIG" lat="37.9901" lon="14.026">
    <comp name="--.HHN">
      <acc value="0.3241757130" flag="0"/>
      <vel value="0.3188061030" flag="0"/>
      <psa03 value="0.7200321004" flag="0"/>
      <psa10 value="0.3712832403" flag="0"/>
      <psa30 value="0.0602116180" flag="0"/>
    </comp>
    <comp name="--.HHE">
      <acc value="0.3114185211" flag="0"/>
      <vel value="0.3379061445" flag="0"/>
      <psa03 value="0.5096138468" flag="0"/>
      <psa10 value="0.7519078825" flag="0"/>
      <psa30 value="0.0411757647" flag="0"/>
    </comp>
    <comp name="--.HHZ">
      <acc value="0.3464105526" flag="0"/>
      <vel value="0.3417030088" flag="0"/>
      <psa03 value="0.5390611622" flag="0"/>
      <psa10 value="0.3786924014" flag="0"/>
      <psa30 value="0.0338007798" flag="0"/>
    </comp>
  </station>
  <station code="ILOS" name="ILOS" netid="IV" insttype="" commtype="DIG" lat="38.4457" lon="14.9483">
    <comp name="--.HHE">
      <acc value="1.1433774914" flag="0"/>
      <vel value="0.2969821849" flag="0"/>
      <psa03 value="0.9188072685" flag="0"/>
      <psa10 value="0.8335546937" flag="0"/>
      <psa30 value="0.1447589450" flag="0"/>
    </comp>
    <comp name="--.HHN">
      <acc value="1.1216037631" flag="0"/>
      <vel value="0.4567310254" flag="0"/>
      <psa03 value="1.3985563116" flag="0"/>
      <psa10 value="0.8492430418" flag="0"/>
      <psa30 value="0.1776374842" flag="0"/>
    </comp>
    <comp name="--.HHZ">
      <acc value="1.6742556244" flag="0"/>
      <vel value="0.5842216658" flag="0"/>
      <psa03 value="0.9566359541" flag="0"/>
      <psa10 value="0.6764015591" flag="0"/>
      <psa30 value="0.1209377304" flag="0"/>
    </comp>
  </station>
  <station code="PETRA" name="PETRA" netid="IV" insttype="" commtype="DIG" lat="37.8335" lon="14.1148">
    <comp name="--.HHE">
      <acc value="0.1241673325" flag="0"/>
      <vel value="0.1183807284" flag="0"/>
      <psa03 value="0.1678088646" flag="0"/>
      <psa10 value="0.2523288350" flag="0"/>
      <psa30 value="0.0302544978" flag="0"/>
    </comp>
    <comp name="--.HHN">
      <acc value="0.1362943115" flag="0"/>
      <vel value="0.1388894484" flag="0"/>
      <psa03 value="0.2069860005" flag="0"/>
      <psa10 value="0.1829830681" flag="0"/>
      <psa30 value="0.0402844782" flag="0"/>
    </comp>
    <comp name="--.HHZ">
      <acc value="0.0809709421" flag="0"/>
      <vel value="0.1286669787" flag="0"/>
      <psa03 value="0.1123787500" flag="0"/>
      <psa10 value="0.1445569375" flag="0"/>
      <psa30 value="0.0345519357" flag="0"/>
    </comp>
  </station>
</stationlist>
