<?xml version="1.0" encoding="UTF-8" standalone="yes"?>
<!DOCTYPE earthquake SYSTEM "stationlist.dtd">
<stationlist created="" xmlns="ch.ethz.sed.shakemap.usgs.xml">
  <station code="MARCO" name="MARCO" netid="GE" insttype="VBB" commtype="DIG" lat="40.2972" lon="15.8063">
    <comp name="--.HHE">
      <acc value="0.1190673780" flag="0"/>
      <vel value="0.1043356898" flag="0"/>
      <psa03 value="0.2832323604" flag="0"/>
      <psa10 value="0.1088009847" flag="0"/>
      <psa30 value="0.0359664464" flag="0"/>
    </comp>
    <comp name="--.HHZ">
      <acc value="0.0915609941" flag="0"/>
      <vel value="0.0964467969" flag="0"/>
      <psa03 value="0.3267843249" flag="0"/>
      <psa10 value="0.1291055786" flag="0"/>
      <psa30 value="0.0376644525" flag="0"/>
    </comp>
    <comp name="--.HHN">
      <acc value="0.1205832626" flag="0"/>
      <vel value="0.1666745007" flag="0"/>
      <psa03 value="0.3841592626" flag="0"/>
      <psa10 value="0.2626206621" flag="0"/>
      <psa30 value="0.0614656230" flag="0"/>
    </comp>
  </station>
  <station code="MATE" name="MATE" netid="GE" insttype="STS-2/N" commtype="DIG" lat="40.6491" lon="16.7044">
    <comp name="--.HHN">
      <acc value="0.2346447885" flag="0"/>
      <vel value="0.1332946483" flag="0"/>
      <psa03 value="0.4620225977" flag="0"/>
      <psa10 value="0.1286721315" flag="0"/>
      <psa30 value="0.0265575077" flag="0"/>
    </comp>
    <comp name="--.HHE">
      <acc value="0.0596616951" flag="0"/>
      <vel value="0.0235446338" flag="0"/>
      <psa03 value="0.0416151311" flag="0"/>
      <psa10 value="0.0200438803" flag="0"/>
      <psa30 value="0.0042814604" flag="0"/>
    </comp>
    <comp name="--.HHZ">
      <acc value="0.1350836904" flag="0"/>
      <vel value="0.0649915327" flag="0"/>
      <psa03 value="0.0957822068" flag="0"/>
      <psa10 value="0.0767588483" flag="0"/>
      <psa30 value="0.0093881475" flag="0"/>
    </comp>
  </station>
  <station code="CAMPI" name="CAMPI" netid="GX" insttype="Trillium Compact" commtype="DIG" lat="40.7071" lon="15.2738">
    <comp name="--.HHZ">
      <acc value="0.0608273503" flag="0"/>
      <vel value="0.0827815096" flag="0"/>
      <psa03 value="0.1834440301" flag="0"/>
      <psa10 value="0.0880564555" flag="0"/>
      <psa30 value="0.0296440043" flag="0"/>
    </comp>
    <comp name="--.HHE">
      <acc value="0.0548576078" flag="0"/>
      <vel value="0.0798872346" flag="0"/>
      <psa03 value="0.1336522087" flag="0"/>
      <psa10 value="0.1433948429" flag="0"/>
      <psa30 value="0.0445482649" flag="0"/>
    </comp>
    <comp name="--.HHN">
      <acc value="0.0721870154" flag="0"/>
      <vel value="0.1177365436" flag="0"/>
      <psa03 value="0.2222061423" flag="0"/>
      <psa10 value="0.2471214994" flag="0"/>
      <psa30 value="0.0470991574" flag="0"/>
    </comp>
  </station>
  <station code="ACER" name="ACER" netid="IV" insttype="" commtype="DIG" lat="40.7867" lon="15.9427">
    <comp name="--.HHN">
      <acc value="0.1264982138" flag="0"/>
      <vel value="0.0856128071" flag="0"/>
      <psa03 value="0.4325617274" flag="0"/>
      <psa10 value="0.1040467462" flag="0"/>
      <psa30 value="0.0074087102" flag="0"/>
    </comp>
    <comp name="--.HHE">
      <acc value="0.1232077768" flag="0"/>
      <vel value="0.0631915947" flag="0"/>
      <psa03 value="0.3955717349" flag="0"/>
      <psa10 value="0.0733568201" flag="0"/>
      <psa30 value="0.0082155206" flag="0"/>
    </comp>
    <comp name="--.HHZ">
      <acc value="0.1849482643" flag="0"/>
      <vel value="0.0887126579" flag="0"/>
      <psa03 value="0.1674150484" flag="0"/>
      <psa10 value="0.0855320496" flag="0"/>
      <psa30 value="0.0121220884" flag="0"/>
    </comp>
  </station>
  <station code="AIO" name="AIO" netid="IV" insttype="" commtype="DIG" lat="37.9712" lon="15.233">
    <comp name="--.HHE">
      <acc value="0.0421763412" flag="0"/>
      <vel value="0.0310400748" flag="0"/>
      <psa03 value="0.0708184498" flag="0"/>
      <psa10 value="0.0569668509" flag="0"/>
      <psa30 value="0.0063334369" flag="0"/>
    </comp>
    <comp name="--.HHN">
      <acc value="0.0621440696" flag="0"/>
      <vel value="0.0611897809" flag="0"/>
      <psa03 value="0.1406150161" flag="0"/>
      <psa10 value="0.0827761858" flag="0"/>
      <psa30 value="0.0085065075" flag="0"/>
    </comp>
    <comp name="--.HHZ">
      <acc value="0.1040171173" flag="0"/>
      <vel value="0.1151117880" flag="0"/>
      <psa03 value="0.1634029064" flag="0"/>
      <psa10 value="0.1721443262" flag="0"/>
      <psa30 value="0.0194916775" flag="0"/>
    </comp>
  </station>
  <station code="AMUR" name="AMUR" netid="IV" insttype="" commtype="DIG" lat="40.9071" lon="16.6041">
    <comp name="--.HHE">
      <acc value="0.0900200862" flag="0"/>
      <vel value="0.0351691329" flag="0"/>
      <psa03 value="0.1480040329" flag="0"/>
      <psa10 value="0.0194396472" flag="0"/>
      <psa30 value="0.0040583746" flag="0"/>
    </comp>
    <comp name="--.HHN">
      <acc value="0.0977106870" flag="0"/>
      <vel value="0.0486399477" flag="0"/>
      <psa03 value="0.1895141152" flag="0"/>
      <psa10 value="0.0432414225" flag="0"/>
      <psa30 value="0.0086466208" flag="0"/>
    </comp>
    <comp name="--.HHZ">
      <acc value="0.1151572524" flag="0"/>
      <vel value="0.1040575365" flag="0"/>
      <psa03 value="0.3002301890" flag="0"/>
      <psa10 value="0.0895704568" flag="0"/>
      <psa30 value="0.0114694108" flag="0"/>
    </comp>
  </station>
  <station code="BASIC" name="BASIC" netid="IV" insttype="" commtype="DIG" lat="38.067" lon="15.0688">
    <comp name="--.HHE">
      <acc value="0.2663371487" flag="0"/>
      <vel value="0.2688957751" flag="0"/>
      <psa03 value="0.4538575841" flag="0"/>
      <psa10 value="0.2889664194" flag="0"/>
      <psa30 value="0.0308599209" flag="0"/>
    </comp>
    <comp name="--.HHN">
      <acc value="0.2018678684" flag="0"/>
      <vel value="0.1868716762" flag="0"/>
      <psa03 value="0.3346132380" flag="0"/>
      <psa10 value="0.2442393159" flag="0"/>
      <psa30 value="0.0384491541" flag="0"/>
    </comp>
    <comp name="--.HHZ">
      <acc value="0.3433276871" flag="0"/>
      <vel value="0.3914666817" flag="0"/>
      <psa03 value="0.5657035369" flag="0"/>
      <psa10 value="0.4088841551" flag="0"/>
      <psa30 value="0.0535432435" flag="0"/>
    </comp>
  </station>
  <station code="BIOG" name="BIOG" netid="IV" insttype="" commtype="DIG" lat="41.1999" lon="15.1326">
    <comp name="--.HNN">
      <acc value="0.0587948042" flag="0"/>
      <vel value="0.1591765361" flag="0"/>
      <psa03 value="0.0705057910" flag="0"/>
      <psa10 value="0.1633493514" flag="0"/>
      <psa30 value="0.1273160216" flag="0"/>
    </comp>
    <comp name="--.HNE">
      <acc value="0.0578975309" flag="0"/>
      <vel value="0.2146433121" flag="0"/>
      <psa03 value="0.0778586087" flag="0"/>
      <psa10 value="0.1554892422" flag="0"/>
      <psa30 value="0.1148575694" flag="0"/>
    </comp>
    <comp name="--.HNZ">
      <acc value="0.0498787195" flag="0"/>
      <vel value="0.1275362517" flag="0"/>
      <psa03 value="0.0724712778" flag="0"/>
      <psa10 value="0.1101764658" flag="0"/>
      <psa30 value="0.1009348829" flag="0"/>
    </comp>
  </station>
  <station code="BRICA" name="BRICA" netid="IV" insttype="" commtype="DIG" lat="38.7238" lon="16.0291">
    <comp name="--.HNE">
      <acc value="0.7266234494" flag="0"/>
      <vel value="0.3831491864" flag="0"/>
      <psa03 value="1.8469570416" flag="0"/>
      <psa10 value="0.5818268707" flag="0"/>
      <psa30 value="0.0513637455" flag="0"/>
    </comp>
    <comp name="--.HNN">
      <acc value="0.9888201338" flag="0"/>
      <vel value="0.4711576982" flag="0"/>
      <psa03 value="2.0003234849" flag="0"/>
      <psa10 value="0.3612550862" flag="0"/>
      <psa30 value="0.1072753836" flag="0"/>
    </comp>
    <comp name="--.HNZ">
      <acc value="0.4670938848" flag="0"/>
      <vel value="0.2311022490" flag="0"/>
      <psa03 value="0.4061329096" flag="0"/>
      <psa10 value="0.3092606254" flag="0"/>
      <psa30 value="0.0224004674" flag="0"/>
    </comp>
  </station>
  <station code="CAAM" name="CAAM" netid="IV" insttype="" commtype="DIG" lat="40.8201" lon="14.142">
    <comp name="--.HHN">
      <acc value="0.0314126742" flag="0"/>
      <vel value="0.0876993173" flag="0"/>
      <psa03 value="0.0451421835" flag="0"/>
      <psa10 value="0.0664359446" flag="0"/>
      <psa30 value="0.0426460668" flag="0"/>
    </comp>
    <comp name="--.HHE">
      <acc value="0.0292318669" flag="0"/>
      <vel value="0.0847535054" flag="0"/>
      <psa03 value="0.0398720845" flag="0"/>
      <psa10 value="0.0706542268" flag="0"/>
      <psa30 value="0.0631975366" flag="0"/>
    </comp>
    <comp name="--.HHZ">
      <acc value="0.0371787379" flag="0"/>
      <vel value="0.0985457503" flag="0"/>
      <psa03 value="0.0733603671" flag="0"/>
      <psa10 value="0.0668611883" flag="0"/>
      <psa30 value="0.0497464819" flag="0"/>
    </comp>
  </station>
  <station code="CAFE" name="CAFE" netid="IV" insttype="" commtype="DIG" lat="41.028" lon="15.2366">
    <comp name="--.HHE">
      <acc value="0.0369762122" flag="0"/>
      <vel value="0.0795396858" flag="0"/>
      <psa03 value="0.0861812851" flag="0"/>
      <psa10 value="0.1029480562" flag="0"/>
      <psa30 value="0.0494897420" flag="0"/>
    </comp>
    <comp name="--.HHN">
      <acc value="0.0350343421" flag="0"/>
      <vel value="0.1136200935" flag="0"/>
      <psa03 value="0.0618794159" flag="0"/>
      <psa10 value="0.0868626270" flag="0"/>
      <psa30 value="0.0625540901" flag="0"/>
    </comp>
    <comp name="--.HHZ">
      <acc value="0.0415122778" flag="0"/>
      <vel value="0.0890302350" flag="0"/>
      <psa03 value="0.1153871344" flag="0"/>
      <psa10 value="0.0582900485" flag="0"/>
      <psa30 value="0.0557733460" flag="0"/>
    </comp>
  </station>
  <station code="CAPA" name="CAPA" netid="IV" insttype="" commtype="DIG" lat="41.1577" lon="15.8187">
    <comp name="--.HHE">
      <acc value="0.0759471837" flag="0"/>
      <vel value="0.1578797869" flag="0"/>
      <psa03 value="0.1821245676" flag="0"/>
      <psa10 value="0.1748667144" flag="0"/>
      <psa30 value="0.0812915779" flag="0"/>
    </comp>
    <comp name="--.HHZ">
      <acc value="0.0633822639" flag="0"/>
      <vel value="0.0777156212" flag="0"/>
      <psa03 value="0.1050649023" flag="0"/>
      <psa10 value="0.1522459804" flag="0"/>
      <psa30 value="0.0263593988" flag="0"/>
    </comp>
    <comp name="--.HHN">
      <acc value="0.0524360289" flag="0"/>
      <vel value="0.1120603581" flag="0"/>
      <psa03 value="0.1389193233" flag="0"/>
      <psa10 value="0.1028454672" flag="0"/>
      <psa30 value="0.0843929612" flag="0"/>
    </comp>
  </station>
  <station code="CAR1" name="CAR1" netid="IV" insttype="" commtype="DIG" lat="39.2534" lon="16.2114">
    <comp name="--.HNE">
      <acc value="1.9750695668" flag="0"/>
      <vel value="1.3285763626" flag="0"/>
      <psa03 value="3.5249716283" flag="0"/>
      <psa10 value="0.8896074421" flag="0"/>
      <psa30 value="0.0984031359" flag="0"/>
    </comp>
    <comp name="--.HNN">
      <acc value="0.8506831417" flag="0"/>
      <vel value="0.7153726567" flag="0"/>
      <psa03 value="3.0639371120" flag="0"/>
      <psa10 value="1.2552937931" flag="0"/>
      <psa30 value="0.1678575093" flag="0"/>
    </comp>
    <comp name="--.HNZ">
      <acc value="0.2204232043" flag="0"/>
      <vel value="0.0759416831" flag="0"/>
      <psa03 value="0.2221691272" flag="0"/>
      <psa10 value="0.1011912314" flag="0"/>
      <psa30 value="0.0079970131" flag="0"/>
    </comp>
  </station>
  <station code="CAWE" name="CAWE" netid="IV" insttype="" commtype="DIG" lat="40.8405" lon="14.1393">
    <comp name="--.HHE">
      <acc value="0.0675789425" flag="0"/>
      <vel value="0.1745602173" flag="0"/>
      <psa03 value="0.2142422030" flag="0"/>
      <psa10 value="0.1700186356" flag="0"/>
      <psa30 value="0.0640200091" flag="0"/>
    </comp>
    <comp name="--.HHN">
      <acc value="0.0807089554" flag="0"/>
      <vel value="0.2017154924" flag="0"/>
      <psa03 value="0.2082155028" flag="0"/>
      <psa10 value="0.2044644044" flag="0"/>
      <psa30 value="0.0539756144" flag="0"/>
    </comp>
    <comp name="--.HHZ">
      <acc value="0.0642122046" flag="0"/>
      <vel value="0.1058317798" flag="0"/>
      <psa03 value="0.2585277194" flag="0"/>
      <psa10 value="0.0929930750" flag="0"/>
      <psa30 value="0.0537447384" flag="0"/>
    </comp>
  </station>
  <station code="CBAC" name="CBAC" netid="IV" insttype="" commtype="DIG" lat="40.8109" lon="14.0806">
    <comp name="--.HHE">
      <acc value="0.0373675194" flag="0"/>
      <vel value="0.1226243841" flag="0"/>
      <psa03 value="0.0425947687" flag="0"/>
      <psa10 value="0.1137265234" flag="0"/>
      <psa30 value="0.0936109985" flag="0"/>
    </comp>
    <comp name="--.HHZ">
      <acc value="0.0402396113" flag="0"/>
      <vel value="0.0995445449" flag="0"/>
      <psa03 value="0.0522841953" flag="0"/>
      <psa10 value="0.0802020273" flag="0"/>
      <psa30 value="0.0370694127" flag="0"/>
    </comp>
    <comp name="--.HHN">
      <acc value="0.0348795853" flag="0"/>
      <vel value="0.0839691809" flag="0"/>
      <psa03 value="0.0442790175" flag="0"/>
      <psa10 value="0.1033278537" flag="0"/>
      <psa30 value="0.0740885814" flag="0"/>
    </comp>
  </station>
  <station code="CDRU" name="CDRU" netid="IV" insttype="" commtype="DIG" lat="40.4896" lon="15.3046">
    <comp name="--.HHE">
      <acc value="0.0732072889" flag="0"/>
      <vel value="0.0676229777" flag="0"/>
      <psa03 value="0.2184710746" flag="0"/>
      <psa10 value="0.0635827998" flag="0"/>
      <psa30 value="0.0210524017" flag="0"/>
    </comp>
    <comp name="--.HHN">
      <acc value="0.0444498264" flag="0"/>
      <vel value="0.0502615361" flag="0"/>
      <psa03 value="0.1804223427" flag="0"/>
      <psa10 value="0.0600612374" flag="0"/>
      <psa30 value="0.0233779785" flag="0"/>
    </comp>
    <comp name="--.HHZ">
      <acc value="0.0430856421" flag="0"/>
      <vel value="0.0737262861" flag="0"/>
      <psa03 value="0.1170044611" flag="0"/>
      <psa10 value="0.0816015453" flag="0"/>
      <psa30 value="0.0198514463" flag="0"/>
    </comp>
  </station>
  <station code="CELI" name="CELI" netid="IV" insttype="SS08" commtype="DIG" lat="39.4027" lon="16.5088">
    <comp name="--.HHE">
      <acc value="0.3361881404" flag="0"/>
      <vel value="0.7225548681" flag="0"/>
      <psa03 value="0.5738992630" flag="0"/>
      <psa10 value="0.8881674982" flag="0"/>
      <psa30 value="0.1363925479" flag="0"/>
    </comp>
    <comp name="--.HHN">
      <acc value="0.3836492635" flag="0"/>
      <vel value="0.7595751567" flag="0"/>
      <psa03 value="0.6544795427" flag="0"/>
      <psa10 value="1.1119875536" flag="0"/>
      <psa30 value="0.1595884461" flag="0"/>
    </comp>
    <comp name="--.HHZ">
      <acc value="0.1199103772" flag="0"/>
      <vel value="0.0891536572" flag="0"/>
      <psa03 value="0.3837341485" flag="0"/>
      <psa10 value="0.2255159100" flag="0"/>
      <psa30 value="0.0139714790" flag="0"/>
    </comp>
  </station>
  <station code="CFMN" name="CFMN" netid="IV" insttype="" commtype="DIG" lat="40.8329" lon="14.0904">
    <comp name="--.HHE">
      <acc value="0.0257086248" flag="0"/>
      <vel value="0.0750422790" flag="0"/>
      <psa03 value="0.0495236047" flag="0"/>
      <psa10 value="0.0706863311" flag="0"/>
      <psa30 value="0.0598229717" flag="0"/>
    </comp>
    <comp name="--.HHN">
      <acc value="0.0289761089" flag="0"/>
      <vel value="0.0658401200" flag="0"/>
      <psa03 value="0.0560154329" flag="0"/>
      <psa10 value="0.0852537169" flag="0"/>
      <psa30 value="0.0418660497" flag="0"/>
    </comp>
    <comp name="--.HHZ">
      <acc value="0.0268516042" flag="0"/>
      <vel value="0.0710155423" flag="0"/>
      <psa03 value="0.0544436032" flag="0"/>
      <psa10 value="0.0615756488" flag="0"/>
      <psa30 value="0.0309909166" flag="0"/>
    </comp>
  </station>
  <station code="CMIS" name="CMIS" netid="IV" insttype="" commtype="DIG" lat="40.7782" lon="14.089">
    <comp name="--.HHZ">
      <acc value="0.0465343372" flag="0"/>
      <vel value="0.1106528313" flag="0"/>
      <psa03 value="0.0856263949" flag="0"/>
      <psa10 value="0.1151656054" flag="0"/>
      <psa30 value="0.0494527096" flag="0"/>
    </comp>
    <comp name="--.HHN">
      <acc value="0.0464588714" flag="0"/>
      <vel value="0.1209461915" flag="0"/>
      <psa03 value="0.1019217354" flag="0"/>
      <psa10 value="0.1222089940" flag="0"/>
      <psa30 value="0.0762125976" flag="0"/>
    </comp>
    <comp name="--.HHE">
      <acc value="0.0409371261" flag="0"/>
      <vel value="0.0952140973" flag="0"/>
      <psa03 value="0.1424446381" flag="0"/>
      <psa10 value="0.0799039742" flag="0"/>
      <psa30 value="0.0538912658" flag="0"/>
    </comp>
  </station>
  <station code="CMPR" name="CMPR" netid="IV" insttype="" commtype="DIG" lat="40.3181" lon="15.303">
    <comp name="--.HHE">
      <acc value="0.0575587932" flag="0"/>
      <vel value="0.1731550391" flag="0"/>
      <psa03 value="0.1715549959" flag="0"/>
      <psa10 value="0.1434304614" flag="0"/>
      <psa30 value="0.0417587474" flag="0"/>
    </comp>
    <comp name="--.HHN">
      <acc value="0.0554128404" flag="0"/>
      <vel value="0.1261704356" flag="0"/>
      <psa03 value="0.1370402004" flag="0"/>
      <psa10 value="0.1497434174" flag="0"/>
      <psa30 value="0.0452624589" flag="0"/>
    </comp>
    <comp name="--.HHZ">
      <acc value="0.0849029934" flag="0"/>
      <vel value="0.1054789182" flag="0"/>
      <psa03 value="0.2639446977" flag="0"/>
      <psa10 value="0.0871370648" flag="0"/>
      <psa30 value="0.0308321704" flag="0"/>
    </comp>
  </station>
  <station code="CMSN" name="CMSN" netid="IV" insttype="" commtype="DIG" lat="40.8382" lon="14.1818">
    <comp name="--.HHE">
      <acc value="0.0629236775" flag="0"/>
      <vel value="0.1152193473" flag="0"/>
      <psa03 value="0.1537635320" flag="0"/>
      <psa10 value="0.1052410507" flag="0"/>
      <psa30 value="0.0670805744" flag="0"/>
    </comp>
    <comp name="--.HHN">
      <acc value="0.0458205052" flag="0"/>
      <vel value="0.1032904167" flag="0"/>
      <psa03 value="0.1464168454" flag="0"/>
      <psa10 value="0.1110114638" flag="0"/>
      <psa30 value="0.0798532186" flag="0"/>
    </comp>
    <comp name="--.HHZ">
      <acc value="0.0644765382" flag="0"/>
      <vel value="0.1151323838" flag="0"/>
      <psa03 value="0.1954533663" flag="0"/>
      <psa10 value="0.1622774001" flag="0"/>
      <psa30 value="0.0545815377" flag="0"/>
    </comp>
  </station>
  <station code="CNIS" name="CNIS" netid="IV" insttype="" commtype="DIG" lat="40.7982" lon="14.1632">
    <comp name="--.HHE">
      <acc value="0.0354964374" flag="0"/>
      <vel value="0.1297081323" flag="0"/>
      <psa03 value="0.0641765070" flag="0"/>
      <psa10 value="0.0869560700" flag="0"/>
      <psa30 value="0.0731525846" flag="0"/>
    </comp>
    <comp name="--.HHN">
      <acc value="0.0261942568" flag="0"/>
      <vel value="0.0989531092" flag="0"/>
      <psa03 value="0.0364428007" flag="0"/>
      <psa10 value="0.0966444029" flag="0"/>
      <psa30 value="0.0635889308" flag="0"/>
    </comp>
    <comp name="--.HHZ">
      <acc value="0.0549967261" flag="0"/>
      <vel value="0.1582307841" flag="0"/>
      <psa03 value="0.0753843259" flag="0"/>
      <psa10 value="0.1087705793" flag="0"/>
      <psa30 value="0.0623979714" flag="0"/>
    </comp>
  </station>
  <station code="COLB" name="COLB" netid="IV" insttype="" commtype="DIG" lat="40.819" lon="14.1446">
    <comp name="--.HHE">
      <acc value="0.0368705453" flag="0"/>
      <vel value="0.0866207896" flag="0"/>
