<stationlist xmlns:esm="https://esm-db.eu/esmws/shakemap/1/" created="1784080738">
	<station code="MARCO" name="MARCO" netid="GE" source="GEOFON" insttype="" lat="40.29724" lon="15.80632" esm:processing="manual (Paolucci et al 2011)" esm:quality="good">
		<comp name="--.HLE" depth="1.0">
			<acc value="0.122228196696809" flag="0"/>
			<vel value="0.181005798962581" flag="0"/>
			<psa03 value="0.289271787836272" flag="0"/>
			<psa10 value="0.300361357465835" flag="0"/>
			<psa30 value="0.0745656329405665" flag="0"/>
		</comp>
		<comp name="--.HLN" depth="1.0">
			<acc value="0.120312688875857" flag="0"/>
			<vel value="0.183985720221523" flag="0"/>
			<psa03 value="0.3744728903245" flag="0"/>
			<psa10 value="0.268937515790544" flag="0"/>
			<psa30 value="0.0659434017600665" flag="0"/>
		</comp>
		<comp name="--.HLZ" depth="1.0">
			<acc value="0.0452936804945582" flag="0"/>
			<vel value="0.0509214116606549" flag="0"/>
			<psa03 value="0.16107248276148" flag="0"/>
			<psa10 value="0.064509028406538" flag="0"/>
			<psa30 value="0.0196079339293921" flag="0"/>
		</comp>
	</station>
	<station code="KRK1" name="KRK1" netid="HI" source="ITSAK Strong Motion Network" insttype="" lat="39.618861" lon="19.9202" esm:processing="automatic (Paolucci et al 2011)" esm:quality="best">
		<comp name="--.HNE" depth="0.0">
			<acc value="0.0525523286501819" flag="0"/>
			<vel value="0.0286467161101842" flag="0"/>
			<psa03 value="0.0873190500835283" flag="0"/>
			<psa10 value="0.0419109501447588" flag="0"/>
			<psa30 value="0.0109083026215135" flag="0"/>
		</comp>
		<comp name="--.HNN" depth="0.0">
			<acc value="0.0583792728166129" flag="0"/>
			<vel value="0.0343354894638839" flag="0"/>
			<psa03 value="0.071984737385569" flag="0"/>
			<psa10 value="0.059992244191751" flag="0"/>
			<psa30 value="0.00959865169690051" flag="0"/>
		</comp>
		<comp name="--.HNZ" depth="0.0">
			<acc value="0.0304740270083456" flag="0"/>
			<vel value="0.0232578689895241" flag="0"/>
			<psa03 value="0.0602479911337308" flag="0"/>
			<psa10 value="0.0192679007788646" flag="0"/>
			<psa30 value="0.00873839720926261" flag="0"/>
		</comp>
	</station>
	<station code="ACR" name="ACR" netid="IT" source="Italian Strong Motion Network (RAN)" insttype="" lat="39.4889" lon="16.3798" esm:processing="manual (Paolucci et al 2011)" esm:quality="good">
		<comp name="--.HNE" depth="0.0">
			<acc value="0.599308647753521" flag="0"/>
			<vel value="0.524306942250126" flag="0"/>
			<psa03 value="1.20155551382253" flag="0"/>
			<psa10 value="0.939240540076226" flag="0"/>
			<psa30 value="0.120598722406825" flag="0"/>
		</comp>
		<comp name="--.HNN" depth="0.0">
			<acc value="0.537247320284733" flag="0"/>
			<vel value="0.844662144930325" flag="0"/>
			<psa03 value="1.53508569189328" flag="0"/>
			<psa10 value="1.16119644356553" flag="0"/>
			<psa30 value="0.146401885073049" flag="0"/>
		</comp>
		<comp name="--.HNZ" depth="0.0">
			<acc value="0.269737597070198" flag="0"/>
			<vel value="0.232519385806364" flag="0"/>
			<psa03 value="0.685362860259239" flag="0"/>
			<psa10 value="0.368843024040155" flag="0"/>
			<psa30 value="0.0274152377916233" flag="0"/>
		</comp>
	</station>
	<station code="AGR" name="AGR" netid="IT" source="Italian Strong Motion Network (RAN)" insttype="" lat="37.3231" lon="13.586" esm:processing="automatic (Paolucci et al 2011)" esm:quality="best">
		<comp name="--.HNE" depth="0.0">
			<acc value="0.0424646066278572" flag="0"/>
			<vel value="0.0954224441931198" flag="0"/>
			<psa03 value="0.0466520175505398" flag="0"/>
			<psa10 value="0.0969363915602017" flag="0"/>
			<psa30 value="0.0409056998018571" flag="0"/>
		</comp>
		<comp name="--.HNN" depth="0.0">
			<acc value="0.0481537008166988" flag="0"/>
			<vel value="0.112010925437699" flag="0"/>
			<psa03 value="0.0753403503034563" flag="0"/>
			<psa10 value="0.163289282113558" flag="0"/>
			<psa30 value="0.0666394412025969" flag="0"/>
		</comp>
		<comp name="--.HNZ" depth="0.0">
			<acc value="0.0474212684445072" flag="0"/>
			<vel value="0.0866044699671487" flag="0"/>
			<psa03 value="0.0708297598323078" flag="0"/>
			<psa10 value="0.121297825385633" flag="0"/>
			<psa30 value="0.0418586029270125" flag="0"/>
		</comp>
	</station>
	<station code="ALC" name="ALC" netid="IT" source="Italian Strong Motion Network (RAN)" insttype="" lat="37.9734" lon="12.9597" esm:processing="automatic (Paolucci et al 2011)" esm:quality="best">
		<comp name="--.HGE" depth="0.0">
			<acc value="0.020230963545846" flag="0"/>
			<vel value="0.0375454834148653" flag="0"/>
			<psa03 value="0.04322942363299" flag="0"/>
			<psa10 value="0.0412485512640838" flag="0"/>
			<psa30 value="0.0297689620476372" flag="0"/>
		</comp>
		<comp name="--.HGN" depth="0.0">
			<acc value="0.0297542070398149" flag="0"/>
			<vel value="0.0699576882837546" flag="0"/>
			<psa03 value="0.051077133609428" flag="0"/>
			<psa10 value="0.045092484655806" flag="0"/>
			<psa30 value="0.0231945815271931" flag="0"/>
		</comp>
		<comp name="--.HGZ" depth="0.0">
			<acc value="0.0413305346610808" flag="0"/>
			<vel value="0.0470411092803782" flag="0"/>
			<psa03 value="0.0896707527472883" flag="0"/>
			<psa10 value="0.066257049204337" flag="0"/>
			<psa30 value="0.0170817782506427" flag="0"/>
		</comp>
	</station>
	<station code="ALFD" name="ALFD" netid="IT" source="Italian Strong Motion Network (RAN)" insttype="" lat="41.7415" lon="14.0442" esm:processing="manual (Paolucci et al 2011)" esm:quality="good">
		<comp name="--.HNE" depth="0.0">
			<acc value="0.0470452945886833" flag="0"/>
			<vel value="0.0893538298137189" flag="0"/>
			<psa03 value="0.0647025258081246" flag="0"/>
			<psa10 value="0.133940077872815" flag="0"/>
			<psa30 value="0.026739108001343" flag="0"/>
		</comp>
		<comp name="--.HNN" depth="0.0">
			<acc value="0.0434912951216058" flag="0"/>
			<vel value="0.0576937203988954" flag="0"/>
			<psa03 value="0.0621342723406034" flag="0"/>
			<psa10 value="0.140032281451403" flag="0"/>
			<psa30 value="0.0161124273692375" flag="0"/>
		</comp>
		<comp name="--.HNZ" depth="0.0">
			<acc value="0.0455279448766267" flag="0"/>
			<vel value="0.0663293527935347" flag="0"/>
			<psa03 value="0.0661031342165578" flag="0"/>
			<psa10 value="0.111194266074414" flag="0"/>
			<psa30 value="0.0197700696700892" flag="0"/>
		</comp>
	</station>
	<station code="ALT" name="ALT" netid="IT" source="Italian Strong Motion Network (RAN)" insttype="" lat="40.5583" lon="15.3921" esm:processing="automatic (Paolucci et al 2011)" esm:quality="best">
		<comp name="--.HGE" depth="0.0">
			<acc value="0.0515003284806256" flag="0"/>
			<vel value="0.089680886028469" flag="0"/>
			<psa03 value="0.187442396305502" flag="0"/>
			<psa10 value="0.147224747917008" flag="0"/>
			<psa30 value="0.036438633880663" flag="0"/>
		</comp>
		<comp name="--.HGN" depth="0.0">
			<acc value="0.0513649441761241" flag="0"/>
			<vel value="0.0798723567253284" flag="0"/>
			<psa03 value="0.12455439695085" flag="0"/>
			<psa10 value="0.0808615816829384" flag="0"/>
			<psa30 value="0.0302863596560228" flag="0"/>
		</comp>
		<comp name="--.HGZ" depth="0.0">
			<acc value="0.115105874988426" flag="0"/>
			<vel value="0.121178679421725" flag="0"/>
			<psa03 value="0.233565430896851" flag="0"/>
			<psa10 value="0.209519479637258" flag="0"/>
			<psa30 value="0.0209425173389932" flag="0"/>
		</comp>
	</station>
	<station code="ARE" name="ARE" netid="IT" source="Italian Strong Motion Network (RAN)" insttype="" lat="38.5614" lon="16.2088" esm:processing="automatic (Paolucci et al 2011)" esm:quality="best">
		<comp name="--.HGE" depth="0.0">
			<acc value="1.19773404616766" flag="0"/>
			<vel value="0.500541455091465" flag="0"/>
			<psa03 value="4.98061527465169" flag="0"/>
			<psa10 value="0.374110052954971" flag="0"/>
			<psa30 value="0.103256666914092" flag="0"/>
		</comp>
		<comp name="--.HGN" depth="0.0">
			<acc value="1.14356386407492" flag="0"/>
			<vel value="0.688472709391417" flag="0"/>
			<psa03 value="5.45616444411696" flag="0"/>
			<psa10 value="0.392840743771312" flag="0"/>
			<psa30 value="0.114523999986278" flag="0"/>
		</comp>
		<comp name="--.HGZ" depth="0.0">
			<acc value="0.69088340987906" flag="0"/>
			<vel value="0.274666748334148" flag="0"/>
			<psa03 value="3.07765321275434" flag="0"/>
			<psa10 value="0.296651101679598" flag="0"/>
			<psa30 value="0.0412099266220575" flag="0"/>
		</comp>
	</station>
	<station code="ARI" name="ARI" netid="IT" source="Italian Strong Motion Network (RAN)" insttype="" lat="41.1546" lon="15.0903" esm:processing="manual (Paolucci et al 2011)" esm:quality="good">
		<comp name="--.HGE" depth="0.0">
			<acc value="0.0579873445536577" flag="0"/>
			<vel value="0.104372128456914" flag="0"/>
			<psa03 value="0.15573126434864" flag="0"/>
			<psa10 value="0.122404748713871" flag="0"/>
			<psa30 value="0.0584134896070079" flag="0"/>
		</comp>
		<comp name="--.HGN" depth="0.0">
			<acc value="0.0589950403569739" flag="0"/>
			<vel value="0.103447219221351" flag="0"/>
			<psa03 value="0.121307306847067" flag="0"/>
			<psa10 value="0.0883752194245638" flag="0"/>
			<psa30 value="0.0488317915332017" flag="0"/>
		</comp>
		<comp name="--.HGZ" depth="0.0">
			<acc value="0.0573397431271302" flag="0"/>
			<vel value="0.0832689543087267" flag="0"/>
			<psa03 value="0.107380415508865" flag="0"/>
			<psa10 value="0.0755311735695612" flag="0"/>
			<psa30 value="0.0328566199231513" flag="0"/>
		</comp>
	</station>
	<station code="ARL" name="ARL" netid="IT" source="Italian Strong Motion Network (RAN)" insttype="" lat="41.057" lon="14.5429" esm:processing="manual (Paolucci et al 2011)" esm:quality="good">
		<comp name="--.HNE" depth="0.0">
			<acc value="0.0174717679485671" flag="0"/>
			<vel value="0.0288999419385344" flag="0"/>
			<psa03 value="0.0576748623432434" flag="0"/>
			<psa10 value="0.040385851614466" flag="0"/>
			<psa30 value="0.0100150701159104" flag="0"/>
		</comp>
		<comp name="--.HNN" depth="0.0">
			<acc value="0.0253253698664733" flag="0"/>
			<vel value="0.0410832087716513" flag="0"/>
			<psa03 value="0.103619395526416" flag="0"/>
			<psa10 value="0.0492402031718017" flag="0"/>
			<psa30 value="0.0127381846755523" flag="0"/>
		</comp>
		<comp name="--.HNZ" depth="0.0">
			<acc value="0.0416512049957637" flag="0"/>
			<vel value="0.0573946648726852" flag="0"/>
			<psa03 value="0.116667020284188" flag="0"/>
			<psa10 value="0.0536216409205496" flag="0"/>
			<psa30 value="0.0139185720370886" flag="0"/>
		</comp>
	</station>
	<station code="ARMO" name="ARMO" netid="IT" source="Italian Strong Motion Network (RAN)" insttype="" lat="38.076099395752" lon="15.7124996185303" esm:processing="automatic (Paolucci et al 2011)" esm:quality="best">
		<comp name="--.HNE" depth="0.0">
			<acc value="0.848607150549202" flag="0"/>
			<vel value="0.566266473748707" flag="0"/>
			<psa03 value="3.76951304507276" flag="0"/>
			<psa10 value="0.99850082577932" flag="0"/>
			<psa30 value="0.0643341684895933" flag="0"/>
		</comp>
		<comp name="--.HNN" depth="0.0">
			<acc value="0.918013150569043" flag="0"/>
			<vel value="0.527670983900236" flag="0"/>
			<psa03 value="3.1673554884232" flag="0"/>
			<psa10 value="0.626512783397135" flag="0"/>
			<psa30 value="0.0789200280645398" flag="0"/>
		</comp>
		<comp name="--.HNZ" depth="0.0">
			<acc value="1.34468320610977" flag="0"/>
			<vel value="0.901349475395917" flag="0"/>
			<psa03 value="3.04321726487513" flag="0"/>
			<psa10 value="0.849730810495933" flag="0"/>
			<psa30 value="0.0768318897356236" flag="0"/>
		</comp>
	</station>
	<station code="ARR" name="ARR" netid="IT" source="Italian Strong Motion Network (RAN)" insttype="" lat="41.1418" lon="15.0819" esm:processing="manual (Paolucci et al 2011)" esm:quality="good">
		<comp name="--.HNE" depth="0.0">
			<acc value="0.0585524639508381" flag="0"/>
			<vel value="0.140110720851909" flag="0"/>
			<psa03 value="0.161321832613017" flag="0"/>
			<psa10 value="0.19407027120302" flag="0"/>
			<psa30 value="0.0655984522421872" flag="0"/>
		</comp>
		<comp name="--.HNN" depth="0.0">
			<acc value="0.0591840247599365" flag="0"/>
			<vel value="0.198069761702619" flag="0"/>
			<psa03 value="0.12703006095144" flag="0"/>
			<psa10 value="0.184357187758911" flag="0"/>
			<psa30 value="0.0508809272783882" flag="0"/>
		</comp>
		<comp name="--.HNZ" depth="0.0">
			<acc value="0.0643811531036304" flag="0"/>
			<vel value="0.0878143904462531" flag="0"/>
			<psa03 value="0.197897776423123" flag="0"/>
			<psa10 value="0.0828412928290859" flag="0"/>
			<psa30 value="0.0333867250400137" flag="0"/>
		</comp>
	</station>
	<station code="ASR" name="ASR" netid="IT" source="Italian Strong Motion Network (RAN)" insttype="" lat="41.199" lon="15.563" esm:processing="manual (Paolucci et al 2011)" esm:quality="good">
		<comp name="--.HNE" depth="0.0">
			<acc value="0.0608813226277473" flag="0"/>
			<vel value="0.112700697106155" flag="0"/>
			<psa03 value="0.0929289685880972" flag="0"/>
			<psa10 value="0.118452466894597" flag="0"/>
			<psa30 value="0.0479046434475246" flag="0"/>
		</comp>
		<comp name="--.HNN" depth="0.0">
			<acc value="0.0700426451414971" flag="0"/>
			<vel value="0.219000470072772" flag="0"/>
			<psa03 value="0.156715319120773" flag="0"/>
			<psa10 value="0.102052165455115" flag="0"/>
			<psa30 value="0.0931552710795266" flag="0"/>
		</comp>
		<comp name="--.HNZ" depth="0.0">
			<acc value="0.251275762110682" flag="0"/>
			<vel value="0.125053127910954" flag="0"/>
			<psa03 value="0.408863543536494" flag="0"/>
			<psa10 value="0.2364849359664" flag="0"/>
			<psa30 value="0.0457719655014106" flag="0"/>
		</comp>
	</station>
	<station code="ATN" name="ATN" netid="IT" source="Italian Strong Motion Network (RAN)" insttype="" lat="41.6203" lon="13.8012" esm:processing="manual (Paolucci et al 2011)" esm:quality="good">
		<comp name="--.HGE" depth="0.0">
			<acc value="0.0167866850327809" flag="0"/>
			<vel value="0.0416803086419209" flag="0"/>
			<psa03 value="0.0330488221347712" flag="0"/>
			<psa10 value="0.0497505069769244" flag="0"/>
			<psa30 value="0.0124953802576179" flag="0"/>
		</comp>
		<comp name="--.HGN" depth="0.0">
			<acc value="0.0224899212781812" flag="0"/>
			<vel value="0.0336778705601664" flag="0"/>
			<psa03 value="0.0361152570418679" flag="0"/>
			<psa10 value="0.0692377766629025" flag="0"/>
			<psa30 value="0.0134537245765591" flag="0"/>
		</comp>
		<comp name="--.HGZ" depth="0.0">
			<acc value="0.0208519043845984" flag="0"/>
			<vel value="0.05629242108358" flag="0"/>
			<psa03 value="0.0280965096933767" flag="0"/>
			<psa10 value="0.043492999947794" flag="0"/>
			<psa30 value="0.0174081765395942" flag="0"/>
		</comp>
	</station>
	<station code="ATSA" name="ATSA" netid="IT" source="Italian Strong Motion Network (RAN)" insttype="" lat="42.0683" lon="14.4433" esm:processing="manual (Paolucci et al 2011)" esm:quality="good">
		<comp name="--.HNE" depth="0.0">
			<acc value="0.0249413940300203" flag="0"/>
			<vel value="0.0917430908576265" flag="0"/>
			<psa03 value="0.0286403582206725" flag="0"/>
			<psa10 value="0.0537820877993679" flag="0"/>
			<psa30 value="0.0760372637622194" flag="0"/>
		</comp>
		<comp name="--.HNN" depth="0.0">
			<acc value="0.023564199432948" flag="0"/>
			<vel value="0.0860985002134339" flag="0"/>
			<psa03 value="0.0295374150421178" flag="0"/>
			<psa10 value="0.054334525645664" flag="0"/>
			<psa30 value="0.0384412065412737" flag="0"/>
		</comp>
		<comp name="--.HNZ" depth="0.0">
			<acc value="0.0163587258369165" flag="0"/>
			<vel value="0.0672481643886901" flag="0"/>
			<psa03 value="0.0275957265189491" flag="0"/>
			<psa10 value="0.0591171762227927" flag="0"/>
			<psa30 value="0.0379948236372637" flag="0"/>
		</comp>
	</station>
	<station code="AUG1" name="AUG1" netid="IT" source="Italian Strong Motion Network (RAN)" insttype="" lat="37.2431983947754" lon="15.2554998397827" esm:processing="automatic (Paolucci et al 2011)" esm:quality="best">
		<comp name="--.HNE" depth="0.0">
			<acc value="0.0969369261103377" flag="0"/>
			<vel value="0.0578495825369792" flag="0"/>
			<psa03 value="0.319598526000506" flag="0"/>
			<psa10 value="0.0553358457282052" flag="0"/>
			<psa30 value="0.0148868895167027" flag="0"/>
		</comp>
		<comp name="--.HNN" depth="0.0">
			<acc value="0.112332438075708" flag="0"/>
			<vel value="0.0919119182556438" flag="0"/>
			<psa03 value="0.303864462862709" flag="0"/>
			<psa10 value="0.0737075327623077" flag="0"/>
			<psa30 value="0.00920558232465035" flag="0"/>
		</comp>
		<comp name="--.HNZ" depth="0.0">
			<acc value="0.09440542338499" flag="0"/>
			<vel value="0.0626505261656786" flag="0"/>
			<psa03 value="0.114539483511985" flag="0"/>
			<psa10 value="0.0669682838201398" flag="0"/>
			<psa30 value="0.0157927078560555" flag="0"/>
		</comp>
	</station>
	<station code="AVHO" name="AVHO" netid="IT" source="Italian Strong Motion Network (RAN)" insttype="" lat="40.9221" lon="14.7985" esm:processing="manual (Paolucci et al 2011)" esm:quality="good">
		<comp name="--.HNE" depth="0.0">
			<acc value="0.0586733768127159" flag="0"/>
			<vel value="0.118942108164045" flag="0"/>
			<psa03 value="0.12108233361036" flag="0"/>
			<psa10 value="0.174965650615666" flag="0"/>
			<psa30 value="0.0306651380815679" flag="0"/>
		</comp>
		<comp name="--.HNN" depth="0.0">
			<acc value="0.0621070661512271" flag="0"/>
			<vel value="0.0871320114471015" flag="0"/>
			<psa03 value="0.111543097516119" flag="0"/>
			<psa10 value="0.129647363501556" flag="0"/>
			<psa30 value="0.0438623156631476" flag="0"/>
		</comp>
		<comp name="--.HNZ" depth="0.0">
			<acc value="0.116314405563205" flag="0"/>
			<vel value="0.129185382397338" flag="0"/>
			<psa03 value="0.203888464943503" flag="0"/>
			<psa10 value="0.214147631229587" flag="0"/>
			<psa30 value="0.0358669660104722" flag="0"/>
		</comp>
	</station>
	<station code="AVL" name="AVL" netid="IT" source="Italian Strong Motion Network (RAN)" insttype="" lat="40.9228" lon="14.787" esm:processing="manual (Paolucci et al 2011)" esm:quality="good">
		<comp name="--.HNE" depth="0.0">
			<acc value="0.0494482829561425" flag="0"/>
			<vel value="0.059746296496915" flag="0"/>
			<psa03 value="0.148507942088991" flag="0"/>
			<psa10 value="0.12681058557894" flag="0"/>
			<psa30 value="0.0256113982961096" flag="0"/>
		</comp>
		<comp name="--.HNN" depth="0.0">
			<acc value="0.0642488252883756" flag="0"/>
			<vel value="0.0754996139688826" flag="0"/>
			<psa03 value="0.16426509008938" flag="0"/>
			<psa10 value="0.135731271530604" flag="0"/>
			<psa30 value="0.0332172738147016" flag="0"/>
		</comp>
		<comp name="--.HNZ" depth="0.0">
			<acc value="0.0857166752666044" flag="0"/>
			<vel value="0.107360087584498" flag="0"/>
			<psa03 value="0.160029486584769" flag="0"/>
			<psa10 value="0.135912993568798" flag="0"/>
			<psa30 value="0.0280884907246593" flag="0"/>
		</comp>
	</station>
	<station code="AVZ" name="AVZ" netid="IT" source="Italian Strong Motion Network (RAN)" insttype="" lat="42.0274" lon="13.4259" esm:processing="manual (Paolucci et al 2011)" esm:quality="good">
		<comp name="--.HNE" depth="0.0">
			<acc value="0.0643161796376579" flag="0"/>
			<vel value="0.0933692859516987" flag="0"/>
			<psa03 value="0.0877849090693998" flag="0"/>
			<psa10 value="0.16403585157012" flag="0"/>
			<psa30 value="0.0261461720555799" flag="0"/>
		</comp>
		<comp name="--.HNN" depth="0.0">
			<acc value="0.050274175128047" flag="0"/>
			<vel value="0.0781664301108032" flag="0"/>
			<psa03 value="0.0993966782921232" flag="0"/>
			<psa10 value="0.122737620765011" flag="0"/>
			<psa30 value="0.0410605033901684" flag="0"/>
		</comp>
		<comp name="--.HNZ" depth="0.0">
			<acc value="0.0217810959066085" flag="0"/>
			<vel value="0.0423823023198242" flag="0"/>
			<psa03 value="0.0423898758295683" flag="0"/>
			<psa10 value="0.0760830901313247" flag="0"/>
			<psa30 value="0.0166232245403766" flag="0"/>
		</comp>
	</station>
