<?xml version="1.0" encoding="UTF-8" standalone="yes"?>
<!DOCTYPE earthquake SYSTEM "stationlist.dtd">
<stationlist created="" xmlns="ch.ethz.sed.shakemap.usgs.xml">
  <station code="PE01" name="PE01" netid="Z3" source="GFZ" insttype="CMG-3ESP/60" lat="38.017" lon="22.0283">
    <comp name="--.HHE">
      <acc value="0.0074818601" flag="0"/>
      <vel value="0.0044783666" flag="0"/>
      <psa03 value="0.0203136032" flag="0"/>
      <psa10 value="0.0042779053" flag="0"/>
      <psa30 value="0.0007194577" flag="0"/>
    </comp>
    <comp name="--.HHN">
      <acc value="0.0078940035" flag="0"/>
      <vel value="0.0040713759" flag="0"/>
      <psa03 value="0.0186294071" flag="0"/>
      <psa10 value="0.0061335683" flag="0"/>
      <psa30 value="0.0006533054" flag="0"/>
    </comp>
    <comp name="--.HHZ">
      <acc value="0.0040907973" flag="0"/>
      <vel value="0.0033866321" flag="0"/>
      <psa03 value="0.0125281453" flag="0"/>
      <psa10 value="0.0042029981" flag="0"/>
      <psa30 value="0.0007431747" flag="0"/>
    </comp>
  </station>
</stationlist>
