<?xml version="1.0" encoding="UTF-8" standalone="yes"?>
<!DOCTYPE earthquake SYSTEM "stationlist.dtd">
<stationlist created="" xmlns="ch.ethz.sed.shakemap.usgs.xml">
  <station code="KRL1" name="KRL1" netid="HI" insttype="CMG-5TD,ACCELEROMETER,GURALP" lat="37.7951" lon="26.7065">
    <comp name="--.HNZ">
      <acc value="0.2789869450" flag="0"/>
      <vel value="0.0632771142" flag="0"/>
      <psa03 value="0.3583745931" flag="0"/>
      <psa10 value="0.0325528363" flag="0"/>
      <psa30 value="0.0025213765" flag="0"/>
    </comp>
    <comp name="--.HNE">
      <acc value="1.1113149289" flag="0"/>
      <vel value="0.3033780657" flag="0"/>
      <psa03 value="0.9561853291" flag="0"/>
      <psa10 value="0.0492185969" flag="0"/>
      <psa30 value="0.0046025092" flag="0"/>
    </comp>
    <comp name="--.HNN">
      <acc value="0.5656604800" flag="0"/>
      <vel value="0.1510781854" flag="0"/>
      <psa03 value="0.5042089385" flag="0"/>
      <psa10 value="0.0917912258" flag="0"/>
      <psa30 value="0.0064695790" flag="0"/>
    </comp>
  </station>
  <station code="SMG" name="SMG" netid="HL" insttype="120" lat="37.7043" lon="26.8377">
    <comp name="--.HHN">
      <acc value="0.3435209014" flag="0"/>
      <vel value="0.1041653443" flag="0"/>
      <psa03 value="0.3221239401" flag="0"/>
      <psa10 value="0.0447701265" flag="0"/>
      <psa30 value="0.0026903435" flag="0"/>
    </comp>
    <comp name="--.HHZ">
      <acc value="0.1862297573" flag="0"/>
      <vel value="0.0565527629" flag="0"/>
      <psa03 value="0.2927220778" flag="0"/>
      <psa10 value="0.0292306429" flag="0"/>
      <psa30 value="0.0029530059" flag="0"/>
    </comp>
    <comp name="--.HHE">
      <acc value="0.3521390588" flag="0"/>
      <vel value="0.1141582397" flag="0"/>
      <psa03 value="0.5969529380" flag="0"/>
      <psa10 value="0.0366977330" flag="0"/>
      <psa30 value="0.0023511490" flag="0"/>
    </comp>
  </station>
</stationlist>
