<?xml version="1.0" encoding="UTF-8" standalone="yes"?>
<!DOCTYPE earthquake SYSTEM "stationlist.dtd">
<stationlist created="" xmlns="ch.ethz.sed.shakemap.usgs.xml">
  <station code="KOSP" name="KOSP" netid="HC" insttype="60" commtype="DIG" lat="36.881" lon="27.281">
    <comp name="--.HHE">
      <acc value="0.0067682218" flag="0"/>
      <vel value="0.0049343431" flag="0"/>
      <psa03 value="0.0109315674" flag="0"/>
      <psa10 value="0.0099910662" flag="0"/>
      <psa30 value="0.0019705848" flag="0"/>
    </comp>
    <comp name="--.HHN">
      <acc value="0.0057029331" flag="0"/>
      <vel value="0.0044568897" flag="0"/>
      <psa03 value="0.0117371060" flag="0"/>
      <psa10 value="0.0069359114" flag="0"/>
      <psa30 value="0.0010290329" flag="0"/>
    </comp>
    <comp name="--.HHZ">
      <acc value="0.0057223746" flag="0"/>
      <vel value="0.0038687074" flag="0"/>
      <psa03 value="0.0092084690" flag="0"/>
      <psa10 value="0.0057520561" flag="0"/>
      <psa30 value="0.0006966534" flag="0"/>
    </comp>
  </station>
  <station code="RDI1" name="RDI1" netid="HI" insttype="CMG-5TD,ACCELEROMETER,GURALP" commtype="DIG" lat="36.4514" lon="28.224">
    <comp name="--.HNE">
      <acc value="0.0366756713" flag="0"/>
      <vel value="0.0169010450" flag="0"/>
      <psa03 value="0.0820029268" flag="0"/>
      <psa10 value="0.0190579666" flag="0"/>
      <psa30 value="0.0039478820" flag="0"/>
    </comp>
    <comp name="--.HNN">
      <acc value="0.0319116999" flag="0"/>
      <vel value="0.0183821191" flag="0"/>
      <psa03 value="0.0585069329" flag="0"/>
      <psa10 value="0.0249146564" flag="0"/>
      <psa30 value="0.0053088048" flag="0"/>
    </comp>
    <comp name="--.HNZ">
      <acc value="0.0274941937" flag="0"/>
      <vel value="0.0091181814" flag="0"/>
      <psa03 value="0.0429118644" flag="0"/>
      <psa10 value="0.0194816334" flag="0"/>
      <psa30 value="0.0028811955" flag="0"/>
    </comp>
  </station>
  <station code="RPN1" name="RPN1" netid="HI" insttype="unknown" commtype="DIG" lat="36.4487" lon="28.218">
    <comp name="--.HNN">
      <acc value="0.0775510362" flag="0"/>
      <vel value="0.0235358717" flag="0"/>
      <psa03 value="0.1279230236" flag="0"/>
      <psa10 value="0.0215476344" flag="0"/>
      <psa30 value="0.0047846915" flag="0"/>
    </comp>
    <comp name="--.HNE">
      <acc value="0.0578869665" flag="0"/>
      <vel value="0.0225844716" flag="0"/>
      <psa03 value="0.0965796256" flag="0"/>
      <psa10 value="0.0197472730" flag="0"/>
      <psa30 value="0.0041816718" flag="0"/>
    </comp>
    <comp name="--.HNZ">
      <acc value="0.0587048773" flag="0"/>
      <vel value="0.0120259165" flag="0"/>
      <psa03 value="0.0478297966" flag="0"/>
      <psa10 value="0.0109183296" flag="0"/>
      <psa30 value="0.0032063722" flag="0"/>
    </comp>
  </station>
  <station code="ARG" name="ARG" netid="HL" insttype="LE3D20_DR24" commtype="DIG" lat="36.2136" lon="28.1212">
    <comp name="--.HHN">
      <acc value="0.2188734437" flag="0"/>
      <vel value="0.0706420220" flag="0"/>
      <psa03 value="0.4586772733" flag="0"/>
      <psa10 value="0.1075109829" flag="0"/>
      <psa30 value="0.0084096897" flag="0"/>
    </comp>
    <comp name="--.HHE">
      <acc value="0.3306147061" flag="0"/>
      <vel value="0.0996836181" flag="0"/>
      <psa03 value="0.6346865712" flag="0"/>
      <psa10 value="0.0732763291" flag="0"/>
      <psa30 value="0.0094054843" flag="0"/>
    </comp>
    <comp name="--.HHZ">
      <acc value="0.1872778540" flag="0"/>
      <vel value="0.0501077949" flag="0"/>
      <psa03 value="0.1385622086" flag="0"/>
      <psa10 value="0.0795525678" flag="0"/>
      <psa30 value="0.0096021220" flag="0"/>
    </comp>
  </station>
  <station code="NISR" name="NISR" netid="HL" insttype="65535" commtype="DIG" lat="36.6106" lon="27.131">
    <comp name="--.HHE">
      <acc value="0.0000000000" flag="0"/>
      <vel value="-100.0000000000" flag="0"/>
      <psa03 value="0.0000000000" flag="0"/>
      <psa10 value="0.0000000000" flag="0"/>
      <psa30 value="0.0000000000" flag="0"/>
    </comp>
    <comp name="--.HHN">
      <acc value="0.0063361406" flag="0"/>
      <vel value="0.0038257706" flag="0"/>
      <psa03 value="0.0079929799" flag="0"/>
      <psa10 value="0.0077369096" flag="0"/>
      <psa30 value="0.0008974657" flag="0"/>
    </comp>
    <comp name="--.HHZ">
      <acc value="0.0042311342" flag="0"/>
      <vel value="0.0035407311" flag="0"/>
      <psa03 value="0.0071507364" flag="0"/>
      <psa10 value="0.0090370115" flag="0"/>
      <psa30 value="0.0004346138" flag="0"/>
    </comp>
  </station>
  <station code="NISR2" name="NISR2" netid="HL" insttype="120" commtype="DIG" lat="36.5744" lon="27.1767">
    <comp name="--.HHN">
      <acc value="0.0252869740" flag="0"/>
      <vel value="0.0221358207" flag="0"/>
      <psa03 value="0.0728215199" flag="0"/>
      <psa10 value="0.0418301218" flag="0"/>
      <psa30 value="0.0021875376" flag="0"/>
    </comp>
    <comp name="--.HHZ">
      <acc value="0.0199852947" flag="0"/>
      <vel value="0.0054869995" flag="0"/>
      <psa03 value="0.0188838463" flag="0"/>
      <psa10 value="0.0064676647" flag="0"/>
      <psa30 value="0.0008072911" flag="0"/>
    </comp>
    <comp name="--.HHE">
      <acc value="0.0268710393" flag="0"/>
      <vel value="0.0162902437" flag="0"/>
      <psa03 value="0.0485596421" flag="0"/>
      <psa10 value="0.0393391845" flag="0"/>
      <psa30 value="0.0020411447" flag="0"/>
    </comp>
  </station>
  <station code="DALY" name="DALY" netid="KO" insttype="CMG-3T" commtype="DIG" lat="36.8162" lon="28.6532">
    <comp name="--.HHN">
      <acc value="0.0083575848" flag="0"/>
      <vel value="0.0034182262" flag="0"/>
      <psa03 value="0.0237403633" flag="0"/>
      <psa10 value="0.0038846499" flag="0"/>
      <psa30 value="0.0003767959" flag="0"/>
    </comp>
    <comp name="--.HHZ">
      <acc value="0.0036807717" flag="0"/>
      <vel value="0.0025002545" flag="0"/>
      <psa03 value="0.0102040074" flag="0"/>
      <psa10 value="0.0032280760" flag="0"/>
      <psa30 value="0.0007030287" flag="0"/>
    </comp>
  </station>
  <station code="DAT" name="DAT" netid="KO" insttype="CMG-3T" commtype="DIG" lat="36.7308" lon="27.5767">
    <comp name="--.HHN">
      <acc value="0.0232920725" flag="0"/>
      <vel value="0.0050358158" flag="0"/>
      <psa03 value="0.0175869120" flag="0"/>
      <psa10 value="0.0032335091" flag="0"/>
      <psa30 value="0.0007459362" flag="0"/>
    </comp>
    <comp name="--.HHZ">
      <acc value="0.0000276095" flag="0"/>
      <vel value="0.0000026822" flag="0"/>
      <psa03 value="0.0000102910" flag="0"/>
      <psa10 value="0.0000019829" flag="0"/>
      <psa30 value="0.0000006699" flag="0"/>
    </comp>
    <comp name="--.HHE">
      <acc value="0.0243718040" flag="0"/>
      <vel value="0.0065621085" flag="0"/>
      <psa03 value="0.0168391610" flag="0"/>
      <psa10 value="0.0033605992" flag="0"/>
      <psa30 value="0.0007269270" flag="0"/>
    </comp>
  </station>
  <station code="YER" name="YER" netid="KO" insttype="CMG-3T" commtype="DIG" lat="37.1336" lon="28.284">
    <comp name="--.HHE">
      <acc value="0.0043167606" flag="0"/>
      <vel value="0.0017384524" flag="0"/>
      <psa03 value="0.0102043025" flag="0"/>
      <psa10 value="0.0020221829" flag="0"/>
      <psa30 value="0.0003305995" flag="0"/>
    </comp>
    <comp name="--.HHN">
      <acc value="0.0041614809" flag="0"/>
      <vel value="0.0028247868" flag="0"/>
      <psa03 value="0.0093770541" flag="0"/>
      <psa10 value="0.0035458607" flag="0"/>
      <psa30 value="0.0002908671" flag="0"/>
    </comp>
    <comp name="--.HHZ">
      <acc value="0.0034517656" flag="0"/>
      <vel value="0.0016053731" flag="0"/>
      <psa03 value="0.0064186266" flag="0"/>
      <psa10 value="0.0025699787" flag="0"/>
      <psa30 value="0.0002245130" flag="0"/>
    </comp>
  </station>
</stationlist>
