<?xml version="1.0" encoding="UTF-8" standalone="yes"?>
<!DOCTYPE earthquake SYSTEM "stationlist.dtd">
<stationlist created="" xmlns="ch.ethz.sed.shakemap.usgs.xml">
  <station code="KMRS" name="KMRS" netid="KO" insttype="CMG-3T" lat="37.5053" lon="36.9">
    <comp name="--.HHE">
      <acc value="0.0030045910" flag="0"/>
      <vel value="0.0010919218" flag="0"/>
      <psa03 value="0.0038860363" flag="0"/>
      <psa10 value="0.0009313266" flag="0"/>
      <psa30 value="0.0001053625" flag="0"/>
    </comp>
    <comp name="--.HHN">
      <acc value="0.0024245439" flag="0"/>
      <vel value="0.0008081983" flag="0"/>
      <psa03 value="0.0052165509" flag="0"/>
      <psa10 value="0.0006055191" flag="0"/>
      <psa30 value="0.0001490377" flag="0"/>
    </comp>
    <comp name="--.HHZ">
      <acc value="0.0018629397" flag="0"/>
      <vel value="0.0004001613" flag="0"/>
      <psa03 value="0.0026734803" flag="0"/>
      <psa10 value="0.0003259306" flag="0"/>
      <psa30 value="0.0000763378" flag="0"/>
    </comp>
  </station>
  <station code="SARI" name="SARI" netid="KO" insttype="CMG-3T" lat="38.4072" lon="36.4181">
    <comp name="--.HHN">
      <acc value="0.0080377006" flag="0"/>
      <vel value="0.0016948353" flag="0"/>
      <psa03 value="0.0144715131" flag="0"/>
      <psa10 value="0.0005939336" flag="0"/>
      <psa30 value="0.0000686203" flag="0"/>
    </comp>
    <comp name="--.HHZ">
      <acc value="0.0032426977" flag="0"/>
      <vel value="0.0010601719" flag="0"/>
      <psa03 value="0.0049414800" flag="0"/>
      <psa10 value="0.0003892713" flag="0"/>
      <psa30 value="0.0001008238" flag="0"/>
    </comp>
  </station>
  <station code="ANDN" name="ANDN" netid="TU" insttype="T" lat="37.58" lon="36.3452">
    <comp name="--.HHE">
      <acc value="0.0110405372" flag="0"/>
      <vel value="0.0032427372" flag="0"/>
      <psa03 value="0.0244868609" flag="0"/>
      <psa10 value="0.0024454396" flag="0"/>
      <psa30 value="0.0002828850" flag="0"/>
    </comp>
    <comp name="--.HHZ">
      <acc value="0.0068741633" flag="0"/>
      <vel value="0.0017608474" flag="0"/>
      <psa03 value="0.0074003967" flag="0"/>
      <psa10 value="0.0024191919" flag="0"/>
      <psa30 value="0.0002894224" flag="0"/>
    </comp>
    <comp name="--.HHN">
      <acc value="0.0198197776" flag="0"/>
      <vel value="0.0038746819" flag="0"/>
      <psa03 value="0.0252691736" flag="0"/>
      <psa10 value="0.0024063901" flag="0"/>
      <psa30 value="0.0002789389" flag="0"/>
    </comp>
  </station>
</stationlist>
