<stationlist created="1778138702">
	<station code="ABEA" name="ABEA" netid="HC" source="Seismological Network of Crete (HC)" insttype="" lat="35.5163" lon="24.0113">
		<comp name="--.HNE" depth="0.0">
			<acc value="0.00685819897664052" flag="0"/>
			<vel value="0.00377803937273597" flag="0"/>
			<psa03 value="0.020108756585612" flag="0"/>
			<psa10 value="0.00537840238651822" flag="0"/>
			<psa30 value="0.00100416600023682" flag="0"/>
		</comp>
		<comp name="--.HNN" depth="0.0">
			<acc value="0.00726274701268973" flag="0"/>
			<vel value="0.00363569892641689" flag="0"/>
			<psa03 value="0.0196777058951999" flag="0"/>
			<psa10 value="0.00360565502882539" flag="0"/>
			<psa30 value="0.000799685683584235" flag="0"/>
		</comp>
		<comp name="--.HNZ" depth="0.0">
			<acc value="0.00561760428072116" flag="0"/>
			<vel value="0.00210692444323969" flag="0"/>
			<psa03 value="0.0138236878869182" flag="0"/>
			<psa10 value="0.00350206402580345" flag="0"/>
			<psa30 value="0.000569821237443266" flag="0"/>
		</comp>
	</station>
	<station code="ATEI" name="ATEI" netid="HC" source="Seismological Network of Crete (HC)" insttype="" lat="35.5193" lon="24.0432">
		<comp name="--.HNE" depth="0.0">
			<acc value="0.00524785872233143" flag="0"/>
			<vel value="0.00368834750132191" flag="0"/>
			<psa03 value="0.018995522683047" flag="0"/>
			<psa10 value="0.00342104037713536" flag="0"/>
			<psa30 value="0.000701002635902105" flag="0"/>
		</comp>
		<comp name="--.HNN" depth="0.0">
			<acc value="0.00734335410827884" flag="0"/>
			<vel value="0.00529314411978159" flag="0"/>
			<psa03 value="0.0223492748006066" flag="0"/>
			<psa10 value="0.00356433291643985" flag="0"/>
			<psa30 value="0.000877236133421624" flag="0"/>
		</comp>
		<comp name="--.HNZ" depth="0.0">
			<acc value="0.00457101388716327" flag="0"/>
			<vel value="0.00215470885133156" flag="0"/>
			<psa03 value="0.0102514317111877" flag="0"/>
			<psa10 value="0.0029013766550905" flag="0"/>
			<psa30 value="0.000963045151183306" flag="0"/>
		</comp>
	</station>
	<station code="G0LD" name="G0LD" netid="HC" source="Seismological Network of Crete (HC)" insttype="" lat="35.4955" lon="24.0306">
		<comp name="--.HNE" depth="0.0">
			<acc value="0.0155444479211876" flag="0"/>
			<vel value="0.0091061008375063" flag="0"/>
			<psa03 value="0.0576692109270203" flag="0"/>
			<psa10 value="0.0180246015414119" flag="0"/>
			<psa30 value="0.001574546180958" flag="0"/>
		</comp>
		<comp name="--.HNN" depth="0.0">
			<acc value="0.01330888236108" flag="0"/>
			<vel value="0.00810234061593729" flag="0"/>
			<psa03 value="0.0501004386996409" flag="0"/>
			<psa10 value="0.0192602408964169" flag="0"/>
			<psa30 value="0.00113602463105701" flag="0"/>
		</comp>
		<comp name="--.HNZ" depth="0.0">
			<acc value="0.00849311278086107" flag="0"/>
			<vel value="0.00565478781650989" flag="0"/>
			<psa03 value="0.0192368212199838" flag="0"/>
			<psa10 value="0.00796113519864471" flag="0"/>
			<psa30 value="0.00160091032328401" flag="0"/>
		</comp>
	</station>
	<station code="LENT" name="LENT" netid="HC" source="Seismological Network of Crete (HC)" insttype="" lat="35.5074" lon="24.0402">
		<comp name="--.HNE" depth="0.0">
			<acc value="0.00590822239311303" flag="0"/>
			<vel value="0.00281921999298311" flag="0"/>
			<psa03 value="0.0153900950390834" flag="0"/>
			<psa10 value="0.00414189344262498" flag="0"/>
			<psa30 value="0.00104907230839216" flag="0"/>
		</comp>
		<comp name="--.HNN" depth="0.0">
			<acc value="0.00674224124287204" flag="0"/>
			<vel value="0.00408284445088693" flag="0"/>
			<psa03 value="0.0185083888503608" flag="0"/>
			<psa10 value="0.0049637467926153" flag="0"/>
			<psa30 value="0.000627389582313279" flag="0"/>
		</comp>
		<comp name="--.HNZ" depth="0.0">
			<acc value="0.00597585194094896" flag="0"/>
			<vel value="0.00277319631993612" flag="0"/>
			<psa03 value="0.0182909642907646" flag="0"/>
			<psa10 value="0.00279601365968479" flag="0"/>
			<psa30 value="0.000863848423636324" flag="0"/>
		</comp>
	</station>
	<station code="NERO" name="NERO" netid="HC" source="Seismological Network of Crete (HC)" insttype="" lat="35.474" lon="24.0423">
		<comp name="--.HNE" depth="0.0">
			<acc value="0.00417271592023265" flag="0"/>
			<vel value="0.0026300144141665" flag="0"/>
			<psa03 value="0.010743374456241" flag="0"/>
			<psa10 value="0.00305803906445358" flag="0"/>
			<psa30 value="0.000514025718345937" flag="0"/>
		</comp>
		<comp name="--.HNN" depth="0.0">
			<acc value="0.00406443348378351" flag="0"/>
			<vel value="0.0022159787688166" flag="0"/>
			<psa03 value="0.0104838611710191" flag="0"/>
			<psa10 value="0.00480444936494514" flag="0"/>
			<psa30 value="0.000904241568233546" flag="0"/>
		</comp>
		<comp name="--.HNZ" depth="0.0">
			<acc value="0.00444197455530027" flag="0"/>
			<vel value="0.0021913781393862" flag="0"/>
			<psa03 value="0.00948481907793038" flag="0"/>
			<psa10 value="0.00297882725456147" flag="0"/>
			<psa30 value="0.000877248113380105" flag="0"/>
		</comp>
	</station>
	<station code="PASK" name="PASK" netid="HC" source="Seismological Network of Crete (HC)" insttype="" lat="35.4996" lon="24.0121">
		<comp name="--.HNE" depth="0.0">
			<acc value="0.00874149801474362" flag="0"/>
			<vel value="0.00510541620212547" flag="0"/>
			<psa03 value="0.0192098741223919" flag="0"/>
			<psa10 value="0.00590251601272866" flag="0"/>
			<psa30 value="0.000789688146297109" flag="0"/>
		</comp>
		<comp name="--.HNN" depth="0.0">
			<acc value="0.00792228147686672" flag="0"/>
			<vel value="0.00458022022112654" flag="0"/>
			<psa03 value="0.0227678103390131" flag="0"/>
			<psa10 value="0.00539987771541055" flag="0"/>
			<psa30 value="0.00107121179585675" flag="0"/>
		</comp>
		<comp name="--.HNZ" depth="0.0">
			<acc value="0.00577962266486103" flag="0"/>
			<vel value="0.00311639490841819" flag="0"/>
			<psa03 value="0.0188689140354502" flag="0"/>
			<psa10 value="0.0036090668173386" flag="0"/>
			<psa30 value="0.000784972313061879" flag="0"/>
		</comp>
	</station>
	<station code="POLY" name="POLY" netid="HC" source="Seismological Network of Crete (HC)" insttype="" lat="35.5226" lon="24.0602">
		<comp name="--.HNE" depth="0.0">
			<acc value="0.00455538602830202" flag="0"/>
			<vel value="0.00283299075685368" flag="0"/>
			<psa03 value="0.0109721695607222" flag="0"/>
			<psa10 value="0.00398056853688187" flag="0"/>
			<psa30 value="0.0010472307280625" flag="0"/>
		</comp>
		<comp name="--.HNN" depth="0.0">
			<acc value="0.00548137698031022" flag="0"/>
			<vel value="0.00336992762339338" flag="0"/>
			<psa03 value="0.0146386754695902" flag="0"/>
			<psa10 value="0.00383286992444605" flag="0"/>
			<psa30 value="0.000883759898923219" flag="0"/>
		</comp>
		<comp name="--.HNZ" depth="0.0">
			<acc value="0.00473626268895259" flag="0"/>
			<vel value="0.00254288859469307" flag="0"/>
			<psa03 value="0.0127449666873428" flag="0"/>
			<psa10 value="0.00190008575417039" flag="0"/>
			<psa30 value="0.000893285634124724" flag="0"/>
		</comp>
	</station>
	<station code="SOUD" name="SOUD" netid="HC" source="Seismological Network of Crete (HC)" insttype="" lat="35.4878" lon="24.0678">
		<comp name="--.HNE" depth="0.0">
			<acc value="0.0108180134379644" flag="0"/>
			<vel value="0.00706978980614673" flag="0"/>
			<psa03 value="0.028337033439387" flag="0"/>
			<psa10 value="0.00713388149089691" flag="0"/>
			<psa30 value="0.00104401041056439" flag="0"/>
		</comp>
		<comp name="--.HNN" depth="0.0">
			<acc value="0.012737689607549" flag="0"/>
			<vel value="0.00740550661605733" flag="0"/>
			<psa03 value="0.03036731637317" flag="0"/>
			<psa10 value="0.00458020138461869" flag="0"/>
			<psa30 value="0.000959263754848335" flag="0"/>
		</comp>
		<comp name="--.HNZ" depth="0.0">
			<acc value="0.00697755771539896" flag="0"/>
			<vel value="0.00584200258854244" flag="0"/>
			<psa03 value="0.00772517711964167" flag="0"/>
			<psa10 value="0.0053412078913143" flag="0"/>
			<psa30 value="0.00293708290066123" flag="0"/>
		</comp>
	</station>
	<station code="CH01" name="CH01" netid="HI" source="ITSAK Strong Motion Network" insttype="" lat="35.517" lon="24.0208">
		<comp name="--.HNE" depth="0.0">
			<acc value="0.00790270794916042" flag="0"/>
			<vel value="0.00321304265632958" flag="0"/>
			<psa03 value="0.018502333761724" flag="0"/>
			<psa10 value="0.00282500940863335" flag="0"/>
			<psa30 value="0.000233738973642994" flag="0"/>
		</comp>
		<comp name="--.HNN" depth="0.0">
			<acc value="0.00861161463228667" flag="0"/>
			<vel value="0.0030174135641075" flag="0"/>
			<psa03 value="0.0262268884442971" flag="0"/>
			<psa10 value="0.00339577846928403" flag="0"/>
			<psa30 value="0.000270981154296549" flag="0"/>
		</comp>
		<comp name="--.HNZ" depth="0.0">
			<acc value="0.00421159166286206" flag="0"/>
			<vel value="0.00217580754738987" flag="0"/>
			<psa03 value="0.0079036713658871" flag="0"/>
			<psa10 value="0.00426340430462537" flag="0"/>
			<psa30 value="0.000177814722061179" flag="0"/>
		</comp>
	</station>
	<station code="KSS1" name="KSS1" netid="HI" source="ITSAK Strong Motion Network" insttype="" lat="35.4189" lon="26.9207">
		<comp name="--.HNE" depth="0.0">
			<acc value="0.0812408539213915" flag="0"/>
			<vel value="0.0243673375911218" flag="0"/>
			<psa03 value="0.155865679502869" flag="0"/>
			<psa10 value="0.0180188917881682" flag="0"/>
			<psa30 value="0.00146871927461117" flag="0"/>
		</comp>
		<comp name="--.HNN" depth="0.0">
			<acc value="0.116253612323686" flag="0"/>
			<vel value="0.0253463803165824" flag="0"/>
			<psa03 value="0.154784087019253" flag="0"/>
			<psa10 value="0.0119617164675053" flag="0"/>
			<psa30 value="0.00190672693630075" flag="0"/>
		</comp>
		<comp name="--.HNZ" depth="0.0">
			<acc value="0.0975097211366292" flag="0"/>
			<vel value="0.0218823076073782" flag="0"/>
			<psa03 value="0.0478796509583564" flag="0"/>
			<psa10 value="0.0122575791919778" flag="0"/>
			<psa30 value="0.000991853309579713" flag="0"/>
		</comp>
	</station>
	<station code="NAX1" name="NAX1" netid="HI" source="ITSAK Strong Motion Network" insttype="" lat="37.101394" lon="25.374103">
		<comp name="--.HNE" depth="0.0">
			<acc value="0.00420120164057844" flag="0"/>
			<vel value="0.00410107141225979" flag="0"/>
			<psa03 value="0.0152033665234397" flag="0"/>
			<psa10 value="0.00607652941524869" flag="0"/>
			<psa30 value="0.000322914490458602" flag="0"/>
		</comp>
		<comp name="--.HNN" depth="0.0">
			<acc value="0.00320560058080182" flag="0"/>
			<vel value="0.00199150306106547" flag="0"/>
			<psa03 value="0.00824117614581196" flag="0"/>
			<psa10 value="0.00316046233386757" flag="0"/>
			<psa30 value="0.000221507408153602" flag="0"/>
		</comp>
		<comp name="--.HNZ" depth="0.0">
			<acc value="0.00228970162819279" flag="0"/>
			<vel value="0.00107465140318876" flag="0"/>
			<psa03 value="0.00656769614534525" flag="0"/>
			<psa10 value="0.00158611589270459" flag="0"/>
			<psa30 value="0.00011265560090138" flag="0"/>
		</comp>
	</station>
	<station code="RDI1" name="RDI1" netid="HI" source="ITSAK Strong Motion Network" insttype="" lat="36.4514" lon="28.224">
		<comp name="--.HNE" depth="0.0">
			<acc value="0.00660978886041391" flag="0"/>
			<vel value="0.00459859994328351" flag="0"/>
			<psa03 value="0.0205839911925649" flag="0"/>
			<psa10 value="0.00630537285625239" flag="0"/>
			<psa30 value="0.000724452470586894" flag="0"/>
		</comp>
		<comp name="--.HNN" depth="0.0">
			<acc value="0.00751702130037763" flag="0"/>
			<vel value="0.00513919937386814" flag="0"/>
			<psa03 value="0.0235972038239515" flag="0"/>
			<psa10 value="0.00631084212481557" flag="0"/>
			<psa30 value="0.00101922053919415" flag="0"/>
		</comp>
		<comp name="--.HNZ" depth="0.0">
			<acc value="0.00721800364915018" flag="0"/>
			<vel value="0.00401489511063404" flag="0"/>
			<psa03 value="0.021452396376391" flag="0"/>
			<psa10 value="0.00388984369868076" flag="0"/>
			<psa30 value="0.000322714190731433" flag="0"/>
		</comp>
	</station>
	<station code="SIT2" name="SIT2" netid="HI" source="ITSAK Strong Motion Network" insttype="" lat="35.2059" lon="26.107">
		<comp name="--.HNE" depth="0.0">
			<acc value="0.247709862471015" flag="0"/>
			<vel value="0.153420458068852" flag="0"/>
			<psa03 value="0.793432811029866" flag="0"/>
			<psa10 value="0.104596649014704" flag="0"/>
			<psa30 value="0.00664667489294438" flag="0"/>
		</comp>
		<comp name="--.HNN" depth="0.0">
			<acc value="0.320294595824285" flag="0"/>
			<vel value="0.167590108645734" flag="0"/>
			<psa03 value="1.13008369583392" flag="0"/>
			<psa10 value="0.0908790727927302" flag="0"/>
			<psa30 value="0.00695528533686212" flag="0"/>
		</comp>
		<comp name="--.HNZ" depth="0.0">
			<acc value="0.237047070015533" flag="0"/>
			<vel value="0.0912328114470759" flag="0"/>
			<psa03 value="0.569683280388244" flag="0"/>
			<psa10 value="0.0313069914345222" flag="0"/>
			<psa30 value="0.00212639961353998" flag="0"/>
		</comp>
	</station>
	<station code="IACM" name="IACM" netid="HL" source="National Observatory of Athens Seismic Network" insttype="" lat="35.3058" lon="25.0709">
		<comp name="--.HNE" depth="0.0">
			<acc value="0.0757398358113867" flag="0"/>
			<vel value="0.0397549975475348" flag="0"/>
			<psa03 value="0.22772864840547" flag="0"/>
			<psa10 value="0.0373712781637725" flag="0"/>
			<psa30 value="0.00150910403323478" flag="0"/>
		</comp>
		<comp name="--.HNN" depth="0.0">
			<acc value="0.0834963066438503" flag="0"/>
			<vel value="0.0388106054471787" flag="0"/>
			<psa03 value="0.325832376462497" flag="0"/>
			<psa10 value="0.0310883594512462" flag="0"/>
			<psa30 value="0.00165050621293651" flag="0"/>
		</comp>
		<comp name="--.HNZ" depth="0.0">
			<acc value="0.0581797499987194" flag="0"/>
			<vel value="0.0233264508464951" flag="0"/>
			<psa03 value="0.122497416936087" flag="0"/>
			<psa10 value="0.0144921572218076" flag="0"/>
			<psa30 value="0.000913053818669465" flag="0"/>
		</comp>
	</station>
	<station code="IMMV" name="IMMV" netid="HL" source="National Observatory of Athens Seismic Network" insttype="" lat="35.4606" lon="23.9811">
		<comp name="--.HNE" depth="0.0">
			<acc value="0.00563557550307416" flag="0"/>
			<vel value="0.00280543768681875" flag="0"/>
			<psa03 value="0.0183900320514647" flag="0"/>
			<psa10 value="0.00478941180629504" flag="0"/>
			<psa30 value="0.000189819462628578" flag="0"/>
		</comp>
		<comp name="--.HNN" depth="0.0">
			<acc value="0.00499193899287373" flag="0"/>
			<vel value="0.00252701100330033" flag="0"/>
			<psa03 value="0.0195487767813332" flag="0"/>
			<psa10 value="0.00311829946265967" flag="0"/>
			<psa30 value="0.000174153242526657" flag="0"/>
		</comp>
		<comp name="--.HNZ" depth="0.0">
			<acc value="0.00427044732773726" flag="0"/>
			<vel value="0.00209531234393714" flag="0"/>
			<psa03 value="0.0148923537328663" flag="0"/>
			<psa10 value="0.00226403740324006" flag="0"/>
			<psa30 value="0.000125196392604723" flag="0"/>
		</comp>
	</station>
	<station code="KSTE" name="KSTE" netid="HL" source="National Observatory of Athens Seismic Network" insttype="" lat="35.1801" lon="25.3372">
		<comp name="--.HNE" depth="0.0">
			<acc value="0.0304431227367775" flag="0"/>
			<vel value="0.00842008348872269" flag="0"/>
			<psa03 value="0.0316758067000761" flag="0"/>
			<psa10 value="0.00477370576581669" flag="0"/>
			<psa30 value="0.000574482275381266" flag="0"/>
		</comp>
		<comp name="--.HNN" depth="0.0">
			<acc value="0.0578917100980934" flag="0"/>
			<vel value="0.0215622075710968" flag="0"/>
			<psa03 value="0.0830456732432279" flag="0"/>
			<psa10 value="0.0137604303109674" flag="0"/>
			<psa30 value="0.000670820167708335" flag="0"/>
		</comp>
		<comp name="--.HNZ" depth="0.0">
			<acc value="0.0267763828150926" flag="0"/>
			<vel value="0.0100993911221811" flag="0"/>
			<psa03 value="0.062818864566301" flag="0"/>
			<psa10 value="0.00648930754104433" flag="0"/>
			<psa30 value="0.00173353275470257" flag="0"/>
		</comp>
	</station>
	<station code="NISR" name="NISR" netid="HL" source="National Observatory of Athens Seismic Network" insttype="" lat="36.6106" lon="27.131">
		<comp name="--.HNE" depth="0.0">
			<acc value="0.0232818073300081" flag="0"/>
			<vel value="0.0116591835464909" flag="0"/>
			<psa03 value="0.0482487743696662" flag="0"/>
			<psa10 value="0.0140774181848661" flag="0"/>
			<psa30 value="0.0010009229729011" flag="0"/>
		</comp>
		<comp name="--.HNN" depth="0.0">
			<acc value="0.0176463764426592" flag="0"/>
			<vel value="0.00771852779576829" flag="0"/>
			<psa03 value="0.0328435429110339" flag="0"/>
			<psa10 value="0.00819445971774243" flag="0"/>
			<psa30 value="0.000873520626871724" flag="0"/>
		</comp>
		<comp name="--.HNZ" depth="0.0">
			<acc value="0.0062262956521678" flag="0"/>
			<vel value="0.00502802315869855" flag="0"/>
			<psa03 value="0.0154827574275431" flag="0"/>
			<psa10 value="0.00878370343976003" flag="0"/>
			<psa30 value="0.000382026869905184" flag="0"/>
		</comp>
	</station>
	<station code="RODB" name="RODB" netid="HL" source="National Observatory of Athens Seismic Network" insttype="" lat="36.4471" lon="28.22116">
		<comp name="00.HNE" depth="0.0">
			<acc value="0.00725623771715462" flag="0"/>
			<vel value="0.00452923148325859" flag="0"/>
			<psa03 value="0.0184186381131214" flag="0"/>
			<psa10 value="0.0067143885452768" flag="0"/>
			<psa30 value="0.00113682947603943" flag="0"/>
		</comp>
		<comp name="00.HNN" depth="0.0">
			<acc value="0.00760890496775421" flag="0"/>
			<vel value="0.00478148212789943" flag="0"/>
			<psa03 value="0.0211372609168878" flag="0"/>
			<psa10 value="0.00553883660822353" flag="0"/>
			<psa30 value="0.000873936539838442" flag="0"/>
		</comp>
		<comp name="00.HNZ" depth="0.0">
			<acc value="0.00720066145705304" flag="0"/>
			<vel value="0.00351418626364529" flag="0"/>
			<psa03 value="0.0224540135098673" flag="0"/>
			<psa10 value="0.00622507019286226" flag="0"/>
			<psa30 value="0.000412301531702913" flag="0"/>
		</comp>
	</station>
	<station code="SIVA" name="SIVA" netid="HL" source="National Observatory of Athens Seismic Network" insttype="" lat="35.01777" lon="24.81204">
		<comp name="00.HNE" depth="0.0">
			<acc value="0.0153259126700905" flag="0"/>
			<vel value="0.00754996211025379" flag="0"/>
			<psa03 value="0.0533727856852399" flag="0"/>
			<psa10 value="0.0109763977574751" flag="0"/>
			<psa30 value="0.000496261520725755" flag="0"/>
		</comp>
		<comp name="00.HNN" depth="0.0">
			<acc value="0.015950240819793" flag="0"/>
			<vel value="0.00884234440017121" flag="0"/>
			<psa03 value="0.0403273772199831" flag="0"/>
			<psa10 value="0.00922296441364035" flag="0"/>
			<psa30 value="0.000707216693384192" flag="0"/>
		</comp>
		<comp name="00.HNZ" depth="0.0">
			<acc value="0.00751679394357014" flag="0"/>
			<vel value="0.00463998424941447" flag="0"/>
			<psa03 value="0.0283700252082877" flag="0"/>
			<psa10 value="0.00507002133278422" flag="0"/>
			<psa30 value="0.000349776035529105" flag="0"/>
		</comp>
	</station>
	<station code="THRA" name="THRA" netid="HL" source="National Observatory of Athens Seismic Network" insttype="" lat="36.41502" lon="25.43244">
		<comp name="00.HNE" depth="0.0">
			<acc value="0.0580532803436257" flag="0"/>
			<vel value="0.0293411903830533" flag="0"/>
			<psa03 value="0.182684101925015" flag="0"/>
			<psa10 value="0.031891332644255" flag="0"/>
			<psa30 value="0.00319109597777987" flag="0"/>
		</comp>
		<comp name="00.HNN" depth="0.0">
			<acc value="0.0449449443478475" flag="0"/>
			<vel value="0.0268130924648778" flag="0"/>
			<psa03 value="0.132380811245695" flag="0"/>
			<psa10 value="0.0393451989263218" flag="0"/>
			<psa30 value="0.00193742667834423" flag="0"/>
		</comp>
		<comp name="00.HNZ" depth="0.0">
			<acc value="0.0314740658477569" flag="0"/>
			<vel value="0.0164287387306182" flag="0"/>
			<psa03 value="0.101549737588359" flag="0"/>
			<psa10 value="0.00952509849103745" flag="0"/>
			<psa30 value="0.000695063492461207" flag="0"/>
		</comp>
	</station>
