<?xml version="1.0" encoding="UTF-8" standalone="yes"?>
<!DOCTYPE earthquake SYSTEM "stationlist.dtd">
<stationlist created="" xmlns="ch.ethz.sed.shakemap.usgs.xml">
  <station code="THERA" name="THERA" netid="GE" insttype="STS-2/N" lat="36.367" lon="25.4753">
    <comp name="--.HHE">
      <acc value="0.0193562574" flag="0"/>
      <vel value="0.0089877674" flag="0"/>
      <psa03 value="0.0510260157" flag="0"/>
      <psa10 value="0.0088269323" flag="0"/>
      <psa30 value="0.0007298940" flag="0"/>
    </comp>
    <comp name="--.HHN">
      <acc value="0.0102625309" flag="0"/>
      <vel value="0.0040039967" flag="0"/>
      <psa03 value="0.0340161894" flag="0"/>
      <psa10 value="0.0026967349" flag="0"/>
      <psa30 value="0.0002715447" flag="0"/>
    </comp>
    <comp name="--.HHZ">
      <acc value="0.0107844953" flag="0"/>
      <vel value="0.0045479829" flag="0"/>
      <psa03 value="0.0469989699" flag="0"/>
      <psa10 value="0.0028282490" flag="0"/>
      <psa30 value="0.0004090286" flag="0"/>
    </comp>
  </station>
  <station code="ZKR" name="ZKR" netid="GE" insttype="STS-2/N" lat="35.1147" lon="26.2169">
    <comp name="--.HHE">
      <acc value="0.5376421664" flag="0"/>
      <vel value="0.2725443804" flag="0"/>
      <psa03 value="1.2569035535" flag="0"/>
      <psa10 value="0.1118189169" flag="0"/>
      <psa30 value="0.0074016884" flag="0"/>
    </comp>
    <comp name="--.HHN">
      <acc value="0.2652192896" flag="0"/>
      <vel value="0.0887167155" flag="0"/>
      <psa03 value="0.6715165993" flag="0"/>
      <psa10 value="0.0220074059" flag="0"/>
      <psa30 value="0.0016773241" flag="0"/>
    </comp>
    <comp name="--.HHZ">
      <acc value="0.2589766556" flag="0"/>
      <vel value="0.0754422630" flag="0"/>
      <psa03 value="0.5203376647" flag="0"/>
      <psa10 value="0.0397596248" flag="0"/>
      <psa30 value="0.0021278066" flag="0"/>
    </comp>
  </station>
</stationlist>
