<?xml version="1.0" encoding="UTF-8" standalone="yes"?>
<!DOCTYPE earthquake SYSTEM "stationlist.dtd">
<stationlist created="" xmlns="ch.ethz.sed.shakemap.usgs.xml">
  <station code="THERA" name="THERA" netid="GE" insttype="STS-2/N" lat="36.367" lon="25.4753">
    <comp name="--.HHE">
      <acc value="0.0193562575" flag="0"/>
      <vel value="0.0089877675" flag="0"/>
      <psa03 value="0.0510260157" flag="0"/>
      <psa10 value="0.0088269323" flag="0"/>
      <psa30 value="0.0007298978" flag="0"/>
    </comp>
    <comp name="--.HHN">
      <acc value="0.0102625311" flag="0"/>
      <vel value="0.0040039967" flag="0"/>
      <psa03 value="0.0340161894" flag="0"/>
      <psa10 value="0.0026967349" flag="0"/>
      <psa30 value="0.0002715408" flag="0"/>
    </comp>
    <comp name="--.HHZ">
      <acc value="0.0107844952" flag="0"/>
      <vel value="0.0045479826" flag="0"/>
      <psa03 value="0.0469989699" flag="0"/>
      <psa10 value="0.0028282490" flag="0"/>
      <psa30 value="0.0004090308" flag="0"/>
    </comp>
  </station>
  <station code="ZKR" name="ZKR" netid="GE" insttype="STS-2/N" lat="35.1147" lon="26.2169">
    <comp name="--.HHZ">
      <acc value="0.2589766560" flag="0"/>
      <vel value="0.0754422626" flag="0"/>
      <psa03 value="0.5203376647" flag="0"/>
      <psa10 value="0.0397596233" flag="0"/>
      <psa30 value="0.0021281002" flag="0"/>
    </comp>
    <comp name="--.HHN">
      <acc value="0.2652192887" flag="0"/>
      <vel value="0.0887167156" flag="0"/>
      <psa03 value="0.6715165993" flag="0"/>
      <psa10 value="0.0220074069" flag="0"/>
      <psa30 value="0.0016774666" flag="0"/>
    </comp>
    <comp name="--.HHE">
      <acc value="0.5376421667" flag="0"/>
      <vel value="0.2725443804" flag="0"/>
      <psa03 value="1.2569035535" flag="0"/>
      <psa10 value="0.1118189215" flag="0"/>
      <psa30 value="0.0074020562" flag="0"/>
    </comp>
  </station>
</stationlist>
