<?xml version="1.0" encoding="UTF-8" standalone="yes"?>
<!DOCTYPE earthquake SYSTEM "stationlist.dtd">
<stationlist created="" xmlns="ch.ethz.sed.shakemap.usgs.xml">
  <station code="THERA" name="THERA" netid="GE" insttype="STS-2/N" lat="36.367" lon="25.4753">
    <comp name="--.HHE">
      <acc value="0.0193562575" flag="0"/>
      <vel value="0.0089877676" flag="0"/>
      <psa03 value="0.0510260157" flag="0"/>
      <psa10 value="0.0088269323" flag="0"/>
      <psa30 value="0.0007298994" flag="0"/>
    </comp>
    <comp name="--.HHN">
      <acc value="0.0102625311" flag="0"/>
      <vel value="0.0040039968" flag="0"/>
      <psa03 value="0.0340161894" flag="0"/>
      <psa10 value="0.0026967349" flag="0"/>
      <psa30 value="0.0002715391" flag="0"/>
    </comp>
    <comp name="--.HHZ">
      <acc value="0.0107844952" flag="0"/>
      <vel value="0.0045479825" flag="0"/>
      <psa03 value="0.0469989699" flag="0"/>
      <psa10 value="0.0028282490" flag="0"/>
      <psa30 value="0.0004090316" flag="0"/>
    </comp>
  </station>
  <station code="ZKR" name="ZKR" netid="GE" insttype="STS-2/N" lat="35.1147" lon="26.2169">
    <comp name="--.HHN">
      <acc value="0.2652192888" flag="0"/>
      <vel value="0.0887167155" flag="0"/>
      <psa03 value="0.6715165993" flag="0"/>
      <psa10 value="0.0220074069" flag="0"/>
      <psa30 value="0.0016774687" flag="0"/>
    </comp>
    <comp name="--.HHE">
      <acc value="0.5376421667" flag="0"/>
      <vel value="0.2725443803" flag="0"/>
      <psa03 value="1.2569035535" flag="0"/>
      <psa10 value="0.1118189214" flag="0"/>
      <psa30 value="0.0074020130" flag="0"/>
    </comp>
    <comp name="--.HHZ">
      <acc value="0.2589766560" flag="0"/>
      <vel value="0.0754422625" flag="0"/>
      <psa03 value="0.5203376647" flag="0"/>
      <psa10 value="0.0397596233" flag="0"/>
      <psa30 value="0.0021281010" flag="0"/>
    </comp>
  </station>
  <station code="SNT1" name="SNT1" netid="HA" insttype="30" lat="36.4159" lon="25.4282">
    <comp name="--.HHZ">
      <acc value="0.0081149790" flag="0"/>
      <vel value="0.0030394495" flag="0"/>
      <psa03 value="0.0185247891" flag="0"/>
      <psa10 value="0.0040598855" flag="0"/>
      <psa30 value="0.0003519552" flag="0"/>
    </comp>
    <comp name="--.HHE">
      <acc value="0.0105680911" flag="0"/>
      <vel value="0.0058018869" flag="0"/>
      <psa03 value="0.0201224726" flag="0"/>
      <psa10 value="0.0076228078" flag="0"/>
      <psa30 value="0.0014176399" flag="0"/>
    </comp>
    <comp name="--.HHN">
      <acc value="0.0117747434" flag="0"/>
      <vel value="0.0084063463" flag="0"/>
      <psa03 value="0.0383703913" flag="0"/>
      <psa10 value="0.0067540692" flag="0"/>
      <psa30 value="0.0008449161" flag="0"/>
    </comp>
  </station>
  <station code="SNT5" name="SNT5" netid="HA" insttype="1s-100Hz," lat="36.4037" lon="25.3953">
    <comp name="--.HHE">
      <acc value="0.0491998077" flag="0"/>
      <vel value="0.0146780886" flag="0"/>
      <psa03 value="0.0908626616" flag="0"/>
      <psa10 value="0.0071053070" flag="0"/>
      <psa30 value="0.0016304659" flag="0"/>
    </comp>
    <comp name="--.HHN">
      <acc value="0.0449545929" flag="0"/>
      <vel value="0.0121517926" flag="0"/>
      <psa03 value="0.0659362921" flag="0"/>
      <psa10 value="0.0042424862" flag="0"/>
      <psa30 value="0.0009246896" flag="0"/>
    </comp>
    <comp name="--.HHZ">
      <acc value="0.0143679794" flag="0"/>
      <vel value="0.0052998208" flag="0"/>
      <psa03 value="0.0229711864" flag="0"/>
      <psa10 value="0.0035721015" flag="0"/>
      <psa30 value="0.0004087480" flag="0"/>
    </comp>
  </station>
  <station code="KNSS" name="KNSS" netid="HC" insttype="60" lat="35.3042" lon="25.1802">
    <comp name="--.HHZ">
      <acc value="0.0236433115" flag="0"/>
      <vel value="0.0064611603" flag="0"/>
      <psa03 value="0.0340478347" flag="0"/>
      <psa10 value="0.0045392600" flag="0"/>
      <psa30 value="0.0003424569" flag="0"/>
    </comp>
    <comp name="--.HHN">
      <acc value="0.0301285664" flag="0"/>
      <vel value="0.0104675031" flag="0"/>
      <psa03 value="0.0770322942" flag="0"/>
      <psa10 value="0.0062840754" flag="0"/>
      <psa30 value="0.0004137310" flag="0"/>
    </comp>
    <comp name="--.HHE">
      <acc value="0.0360805382" flag="0"/>
      <vel value="0.0169218673" flag="0"/>
      <psa03 value="0.0954811135" flag="0"/>
      <psa10 value="0.0075146188" flag="0"/>
      <psa30 value="0.0007407276" flag="0"/>
    </comp>
  </station>
  <station code="PFKS" name="PFKS" netid="HC" insttype="120" lat="35.0429" lon="25.4733">
    <comp name="--.HHZ">
      <acc value="0.0366622599" flag="0"/>
      <vel value="0.0215563439" flag="0"/>
      <psa03 value="0.0972356434" flag="0"/>
      <psa10 value="0.0105501676" flag="0"/>
      <psa30 value="0.0006251424" flag="0"/>
    </comp>
    <comp name="--.HHE">
      <acc value="0.0732389643" flag="0"/>
      <vel value="0.0352892777" flag="0"/>
      <psa03 value="0.1917420725" flag="0"/>
      <psa10 value="0.0168481937" flag="0"/>
      <psa30 value="0.0010302942" flag="0"/>
    </comp>
    <comp name="--.HHN">
      <acc value="0.0761025054" flag="0"/>
      <vel value="0.0337223917" flag="0"/>
      <psa03 value="0.2746957271" flag="0"/>
      <psa10 value="0.0213096732" flag="0"/>
      <psa30 value="0.0011872828" flag="0"/>
    </comp>
  </station>
  <station code="STIA" name="STIA" netid="HC" insttype="120" lat="35.2021" lon="26.0909">
    <comp name="--.HHE">
      <acc value="0.2403436365" flag="0"/>
      <vel value="0.0629641519" flag="0"/>
      <psa03 value="0.4466700470" flag="0"/>
      <psa10 value="0.0365665729" flag="0"/>
      <psa30 value="0.0038291669" flag="0"/>
    </comp>
    <comp name="--.HHZ">
      <acc value="0.2445422767" flag="0"/>
      <vel value="0.0489008481" flag="0"/>
      <psa03 value="0.2577056722" flag="0"/>
      <psa10 value="0.0231368002" flag="0"/>
      <psa30 value="0.0013895391" flag="0"/>
    </comp>
    <comp name="--.HHN">
      <acc value="0.1593504486" flag="0"/>
      <vel value="0.0495546217" flag="0"/>
      <psa03 value="0.3106042604" flag="0"/>
      <psa10 value="0.0522622776" flag="0"/>
      <psa30 value="0.0036712643" flag="0"/>
    </comp>
  </station>
  <station code="SIT2" name="SIT2" netid="HI" insttype="CMG-5TD,ACCELEROMETER,GURALP" lat="35.2059" lon="26.107">
    <comp name="--.HNN">
      <acc value="0.3196889798" flag="0"/>
      <vel value="0.1664771825" flag="0"/>
      <psa03 value="1.1349706476" flag="0"/>
      <psa10 value="0.0906920000" flag="0"/>
      <psa30 value="0.0068766677" flag="0"/>
    </comp>
    <comp name="--.HNE">
      <acc value="0.2480571151" flag="0"/>
      <vel value="0.1525269964" flag="0"/>
      <psa03 value="0.7904123986" flag="0"/>
      <psa10 value="0.1043333643" flag="0"/>
      <psa30 value="0.0064746993" flag="0"/>
    </comp>
    <comp name="--.HNZ">
      <acc value="0.2415172490" flag="0"/>
      <vel value="0.0907517847" flag="0"/>
      <psa03 value="0.5538529529" flag="0"/>
      <psa10 value="0.0312260721" flag="0"/>
      <psa30 value="0.0020786587" flag="0"/>
    </comp>
  </station>
  <station code="CRE1" name="CRE1" netid="HL" insttype="LE3D20_SMART24" lat="35.2267" lon="25.2497">
    <comp name="--.HHE">
      <acc value="0.0862512525" flag="0"/>
      <vel value="0.0202723844" flag="0"/>
      <psa03 value="0.1390287482" flag="0"/>
      <psa10 value="0.0094508744" flag="0"/>
      <psa30 value="0.0005786195" flag="0"/>
    </comp>
    <comp name="--.HHZ">
      <acc value="0.0652085822" flag="0"/>
      <vel value="0.0158751759" flag="0"/>
      <psa03 value="0.0787332381" flag="0"/>
      <psa10 value="0.0102767111" flag="0"/>
      <psa30 value="0.0009285721" flag="0"/>
    </comp>
    <comp name="--.HHN">
      <acc value="0.1187581300" flag="0"/>
      <vel value="0.0353696475" flag="0"/>
      <psa03 value="0.2039304172" flag="0"/>
      <psa10 value="0.0215618860" flag="0"/>
      <psa30 value="0.0009224434" flag="0"/>
    </comp>
  </station>
  <station code="CRE3" name="CRE3" netid="HL" insttype="LE3D20_SMART24" lat="35.0769" lon="25.2462">
    <comp name="--.HHE">
      <acc value="0.4522288310" flag="0"/>
      <vel value="0.0959791575" flag="0"/>
      <psa03 value="0.5875755528" flag="0"/>
      <psa10 value="0.0948195556" flag="0"/>
      <psa30 value="0.0052848706" flag="0"/>
    </comp>
    <comp name="--.HHZ">
      <acc value="0.1513785825" flag="0"/>
      <vel value="0.0462615681" flag="0"/>
      <psa03 value="0.2167864856" flag="0"/>
      <psa10 value="0.0439937962" flag="0"/>
      <psa30 value="0.0036073762" flag="0"/>
    </comp>
    <comp name="--.HHN">
      <acc value="0.6083286137" flag="0"/>
      <vel value="0.1103020337" flag="0"/>
      <psa03 value="0.4841417530" flag="0"/>
      <psa10 value="0.0853016898" flag="0"/>
      <psa30 value="0.0059635672" flag="0"/>
    </comp>
  </station>
  <station code="IACM" name="IACM" netid="HL" insttype="120" lat="35.3058" lon="25.0709">
    <comp name="--.HHN">
      <acc value="0.0569364723" flag="0"/>
      <vel value="0.0234899312" flag="0"/>
      <psa03 value="0.1844285882" flag="0"/>
      <psa10 value="0.0237732643" flag="0"/>
      <psa30 value="0.0011461524" flag="0"/>
    </comp>
    <comp name="--.HHE">
      <acc value="0.0639611687" flag="0"/>
      <vel value="0.0358275868" flag="0"/>
      <psa03 value="0.2574787264" flag="0"/>
      <psa10 value="0.0345412865" flag="0"/>
      <psa30 value="0.0015506305" flag="0"/>
    </comp>
    <comp name="--.HHZ">
      <acc value="0.0522119370" flag="0"/>
      <vel value="0.0222869960" flag="0"/>
      <psa03 value="0.1378286009" flag="0"/>
      <psa10 value="0.0208454989" flag="0"/>
      <psa30 value="0.0010182021" flag="0"/>
    </comp>
  </station>
  <station code="KSTE" name="KSTE" netid="HL" insttype="60" lat="35.1801" lon="25.3372">
    <comp name="--.HHZ">
      <acc value="0.0287525705" flag="0"/>
      <vel value="0.0101532682" flag="0"/>
      <psa03 value="0.0641449947" flag="0"/>
      <psa10 value="0.0065509103" flag="0"/>
      <psa30 value="0.0004026890" flag="0"/>
    </comp>
    <comp name="--.HHE">
      <acc value="0.0309368359" flag="0"/>
      <vel value="0.0087036265" flag="0"/>
      <psa03 value="0.0289199905" flag="0"/>
      <psa10 value="0.0045126631" flag="0"/>
      <psa30 value="0.0005308861" flag="0"/>
    </comp>
    <comp name="--.HHN">
      <acc value="0.0600382830" flag="0"/>
      <vel value="0.0218597249" flag="0"/>
      <psa03 value="0.0849342418" flag="0"/>
      <psa10 value="0.0139664424" flag="0"/>
      <psa30 value="0.0006598900" flag="0"/>
    </comp>
  </station>
  <station code="NPS" name="NPS" netid="HL" insttype="CMG3ESPC-120s" lat="35.2613" lon="25.6104">
    <comp name="--.HHE">
      <acc value="0.0734862584" flag="0"/>
      <vel value="0.0344385728" flag="0"/>
      <psa03 value="0.2040667996" flag="0"/>
      <psa10 value="0.0081825465" flag="0"/>
      <psa30 value="0.0008349766" flag="0"/>
    </comp>
    <comp name="--.HHN">
      <acc value="0.1233374258" flag="0"/>
      <vel value="0.0424020382" flag="0"/>
      <psa03 value="0.2619967266" flag="0"/>
      <psa10 value="0.0165207108" flag="0"/>
      <psa30 value="0.0010978014" flag="0"/>
    </comp>
    <comp name="--.HHZ">
      <acc value="0.0870344751" flag="0"/>
      <vel value="0.0230866734" flag="0"/>
      <psa03 value="0.1854900490" flag="0"/>
      <psa10 value="0.0082466011" flag="0"/>
      <psa30 value="0.0006693735" flag="0"/>
    </comp>
  </station>
  <station code="THERA" name="THERA" netid="HL" insttype="120" lat="36.367" lon="25.4753">
    <comp name="--.HHZ">
      <acc value="0.0104213950" flag="0"/>
      <vel value="0.0044394904" flag="0"/>
      <psa03 value="0.0457063283" flag="0"/>
      <psa10 value="0.0028056176" flag="0"/>
      <psa30 value="0.0004083266" flag="0"/>
    </comp>
    <comp name="--.HHE">
      <acc value="0.0190123802" flag="0"/>
      <vel value="0.0087687090" flag="0"/>
      <psa03 value="0.0496147399" flag="0"/>
      <psa10 value="0.0087450270" flag="0"/>
      <psa30 value="0.0007297900" flag="0"/>
    </comp>
    <comp name="--.HHN">
      <acc value="0.0100455666" flag="0"/>
      <vel value="0.0039104489" flag="0"/>
      <psa03 value="0.0330549055" flag="0"/>
      <psa10 value="0.0026731004" flag="0"/>
      <psa30 value="0.0002713211" flag="0"/>
    </comp>
  </station>
  <station code="ZKR" name="ZKR" netid="HL" insttype="120" lat="35.1147" lon="26.2169">
    <comp name="--.HHN">
      <acc value="0.2582245226" flag="0"/>
      <vel value="0.0862438575" flag="0"/>
      <psa03 value="0.6518320309" flag="0"/>
      <psa10 value="0.0217398787" flag="0"/>
      <psa30 value="0.0016210361" flag="0"/>
    </comp>
    <comp name="--.HHZ">
      <acc value="0.2524671093" flag="0"/>
      <vel value="0.0734845883" flag="0"/>
      <psa03 value="0.5032644726" flag="0"/>
      <psa10 value="0.0394451070" flag="0"/>
      <psa30 value="0.0020787223" flag="0"/>
    </comp>
    <comp name="--.HHE">
      <acc value="0.5222766836" flag="0"/>
      <vel value="0.2667894327" flag="0"/>
      <psa03 value="1.2204515467" flag="0"/>
      <psa10 value="0.1097022703" flag="0"/>
      <psa30 value="0.0072453585" flag="0"/>
    </comp>
  </station>
</stationlist>
