<?xml version="1.0" encoding="UTF-8" standalone="yes"?>
<!DOCTYPE earthquake SYSTEM "stationlist.dtd">
<stationlist created="" xmlns="ch.ethz.sed.shakemap.usgs.xml">
  <station code="THERA" name="THERA" netid="GE" insttype="STS-2/N" lat="36.367" lon="25.4753">
    <comp name="--.HHE">
      <acc value="0.0193562574" flag="0"/>
      <vel value="0.0089877674" flag="0"/>
      <psa03 value="0.0510260157" flag="0"/>
      <psa10 value="0.0088269323" flag="0"/>
      <psa30 value="0.0007298940" flag="0"/>
    </comp>
    <comp name="--.HHN">
      <acc value="0.0102625309" flag="0"/>
      <vel value="0.0040039967" flag="0"/>
      <psa03 value="0.0340161894" flag="0"/>
      <psa10 value="0.0026967349" flag="0"/>
      <psa30 value="0.0002715447" flag="0"/>
    </comp>
    <comp name="--.HHZ">
      <acc value="0.0107844953" flag="0"/>
      <vel value="0.0045479829" flag="0"/>
      <psa03 value="0.0469989699" flag="0"/>
      <psa10 value="0.0028282490" flag="0"/>
      <psa30 value="0.0004090286" flag="0"/>
    </comp>
  </station>
  <station code="ZKR" name="ZKR" netid="GE" insttype="STS-2/N" lat="35.1147" lon="26.2169">
    <comp name="--.HHE">
      <acc value="0.5376421664" flag="0"/>
      <vel value="0.2725443804" flag="0"/>
      <psa03 value="1.2569035535" flag="0"/>
      <psa10 value="0.1118189169" flag="0"/>
      <psa30 value="0.0074016884" flag="0"/>
    </comp>
    <comp name="--.HHN">
      <acc value="0.2652192896" flag="0"/>
      <vel value="0.0887167155" flag="0"/>
      <psa03 value="0.6715165993" flag="0"/>
      <psa10 value="0.0220074059" flag="0"/>
      <psa30 value="0.0016773241" flag="0"/>
    </comp>
    <comp name="--.HHZ">
      <acc value="0.2589766556" flag="0"/>
      <vel value="0.0754422630" flag="0"/>
      <psa03 value="0.5203376647" flag="0"/>
      <psa10 value="0.0397596248" flag="0"/>
      <psa30 value="0.0021278066" flag="0"/>
    </comp>
  </station>
  <station code="KNSS" name="KNSS" netid="HC" insttype="60" lat="35.3042" lon="25.1802">
    <comp name="--.HHE">
      <acc value="0.0360805383" flag="0"/>
      <vel value="0.0169218672" flag="0"/>
      <psa03 value="0.0954811135" flag="0"/>
      <psa10 value="0.0075146188" flag="0"/>
      <psa30 value="0.0007406778" flag="0"/>
    </comp>
    <comp name="--.HHZ">
      <acc value="0.0236433117" flag="0"/>
      <vel value="0.0064611602" flag="0"/>
      <psa03 value="0.0340478347" flag="0"/>
      <psa10 value="0.0045392601" flag="0"/>
      <psa30 value="0.0003424409" flag="0"/>
    </comp>
    <comp name="--.HHN">
      <acc value="0.0301285664" flag="0"/>
      <vel value="0.0104675038" flag="0"/>
      <psa03 value="0.0770322942" flag="0"/>
      <psa10 value="0.0062840755" flag="0"/>
      <psa30 value="0.0004137148" flag="0"/>
    </comp>
  </station>
  <station code="PFKS" name="PFKS" netid="HC" insttype="120" lat="35.0429" lon="25.4733">
    <comp name="--.HHZ">
      <acc value="0.0366622598" flag="0"/>
      <vel value="0.0215563433" flag="0"/>
      <psa03 value="0.0972356434" flag="0"/>
      <psa10 value="0.0105501676" flag="0"/>
      <psa30 value="0.0006251138" flag="0"/>
    </comp>
    <comp name="--.HHE">
      <acc value="0.0732389641" flag="0"/>
      <vel value="0.0352892771" flag="0"/>
      <psa03 value="0.1917420725" flag="0"/>
      <psa10 value="0.0168481937" flag="0"/>
      <psa30 value="0.0010302605" flag="0"/>
    </comp>
    <comp name="--.HHN">
      <acc value="0.0761025052" flag="0"/>
      <vel value="0.0337223924" flag="0"/>
      <psa03 value="0.2746957271" flag="0"/>
      <psa10 value="0.0213096732" flag="0"/>
      <psa30 value="0.0011873211" flag="0"/>
    </comp>
  </station>
  <station code="STIA" name="STIA" netid="HC" insttype="120" lat="35.2021" lon="26.0909">
    <comp name="--.HHE">
      <acc value="0.2403436363" flag="0"/>
      <vel value="0.0629641516" flag="0"/>
      <psa03 value="0.4466700470" flag="0"/>
      <psa10 value="0.0365665748" flag="0"/>
      <psa30 value="0.0038294236" flag="0"/>
    </comp>
    <comp name="--.HHZ">
      <acc value="0.2445422770" flag="0"/>
      <vel value="0.0489008476" flag="0"/>
      <psa03 value="0.2577056722" flag="0"/>
      <psa10 value="0.0231367989" flag="0"/>
      <psa30 value="0.0013895498" flag="0"/>
    </comp>
    <comp name="--.HHN">
      <acc value="0.1593504486" flag="0"/>
      <vel value="0.0495546222" flag="0"/>
      <psa03 value="0.3106042604" flag="0"/>
      <psa10 value="0.0522622772" flag="0"/>
      <psa30 value="0.0036709623" flag="0"/>
    </comp>
  </station>
  <station code="SIT2" name="SIT2" netid="HI" insttype="CMG-5TD,ACCELEROMETER,GURALP" lat="35.2059" lon="26.107">
    <comp name="--.HNN">
      <acc value="0.3196889758" flag="0"/>
      <vel value="0.1664771824" flag="0"/>
      <psa03 value="1.1349706476" flag="0"/>
      <psa10 value="0.0906920000" flag="0"/>
      <psa30 value="0.0068758023" flag="0"/>
    </comp>
    <comp name="--.HNE">
      <acc value="0.2480571129" flag="0"/>
      <vel value="0.1525269965" flag="0"/>
      <psa03 value="0.7904123986" flag="0"/>
      <psa10 value="0.1043333587" flag="0"/>
      <psa30 value="0.0064740966" flag="0"/>
    </comp>
    <comp name="--.HNZ">
      <acc value="0.2415172452" flag="0"/>
      <vel value="0.0907517914" flag="0"/>
      <psa03 value="0.5538529529" flag="0"/>
      <psa10 value="0.0312260782" flag="0"/>
      <psa30 value="0.0020769324" flag="0"/>
    </comp>
  </station>
  <station code="CRE1" name="CRE1" netid="HL" insttype="LE3D20_SMART24" lat="35.2267" lon="25.2497">
    <comp name="--.HHN">
      <acc value="0.1187581298" flag="0"/>
      <vel value="0.0353696535" flag="0"/>
      <psa03 value="0.2039304173" flag="0"/>
      <psa10 value="0.0215618860" flag="0"/>
      <psa30 value="0.0009224012" flag="0"/>
    </comp>
    <comp name="--.HHE">
      <acc value="0.0862512524" flag="0"/>
      <vel value="0.0202724109" flag="0"/>
      <psa03 value="0.1390287481" flag="0"/>
      <psa10 value="0.0094508743" flag="0"/>
      <psa30 value="0.0005786584" flag="0"/>
    </comp>
    <comp name="--.HHZ">
      <acc value="0.0652085820" flag="0"/>
      <vel value="0.0158751666" flag="0"/>
      <psa03 value="0.0787332381" flag="0"/>
      <psa10 value="0.0102767111" flag="0"/>
      <psa30 value="0.0009286046" flag="0"/>
    </comp>
  </station>
  <station code="CRE3" name="CRE3" netid="HL" insttype="LE3D20_SMART24" lat="35.0769" lon="25.2462">
    <comp name="--.HHZ">
      <acc value="0.1513785830" flag="0"/>
      <vel value="0.0462615729" flag="0"/>
      <psa03 value="0.2167864856" flag="0"/>
      <psa10 value="0.0439937963" flag="0"/>
      <psa30 value="0.0036074112" flag="0"/>
    </comp>
    <comp name="--.HHE">
      <acc value="0.4522288312" flag="0"/>
      <vel value="0.0959791430" flag="0"/>
      <psa03 value="0.5875755528" flag="0"/>
      <psa10 value="0.0948195555" flag="0"/>
      <psa30 value="0.0052848909" flag="0"/>
    </comp>
    <comp name="--.HHN">
      <acc value="0.6083286145" flag="0"/>
      <vel value="0.1103020332" flag="0"/>
      <psa03 value="0.4841417530" flag="0"/>
      <psa10 value="0.0853016897" flag="0"/>
      <psa30 value="0.0059635761" flag="0"/>
    </comp>
  </station>
  <station code="IACM" name="IACM" netid="HL" insttype="120" lat="35.3058" lon="25.0709">
    <comp name="--.HHN">
      <acc value="0.0569364723" flag="0"/>
      <vel value="0.0234899298" flag="0"/>
      <psa03 value="0.1844285882" flag="0"/>
      <psa10 value="0.0237732639" flag="0"/>
      <psa30 value="0.0011461490" flag="0"/>
    </comp>
    <comp name="--.HHE">
      <acc value="0.0639611687" flag="0"/>
      <vel value="0.0358275893" flag="0"/>
      <psa03 value="0.2574787264" flag="0"/>
      <psa10 value="0.0345412864" flag="0"/>
      <psa30 value="0.0015506316" flag="0"/>
    </comp>
    <comp name="--.HHZ">
      <acc value="0.0522119370" flag="0"/>
      <vel value="0.0222869961" flag="0"/>
      <psa03 value="0.1378286009" flag="0"/>
      <psa10 value="0.0208454989" flag="0"/>
      <psa30 value="0.0010181994" flag="0"/>
    </comp>
  </station>
  <station code="KSTE" name="KSTE" netid="HL" insttype="60" lat="35.1801" lon="25.3372">
    <comp name="--.HHN">
      <acc value="0.0600382829" flag="0"/>
      <vel value="0.0218597241" flag="0"/>
      <psa03 value="0.0849342418" flag="0"/>
      <psa10 value="0.0139664423" flag="0"/>
      <psa30 value="0.0006599107" flag="0"/>
    </comp>
    <comp name="--.HHE">
      <acc value="0.0309368357" flag="0"/>
      <vel value="0.0087036282" flag="0"/>
      <psa03 value="0.0289199905" flag="0"/>
      <psa10 value="0.0045126631" flag="0"/>
      <psa30 value="0.0005308858" flag="0"/>
    </comp>
    <comp name="--.HHZ">
      <acc value="0.0287525708" flag="0"/>
      <vel value="0.0101532689" flag="0"/>
      <psa03 value="0.0641449947" flag="0"/>
      <psa10 value="0.0065509103" flag="0"/>
      <psa30 value="0.0004027434" flag="0"/>
    </comp>
  </station>
  <station code="NPS" name="NPS" netid="HL" insttype="CMG3ESPC-120s" lat="35.2613" lon="25.6104">
    <comp name="--.HHZ">
      <acc value="0.0870344750" flag="0"/>
      <vel value="0.0230866733" flag="0"/>
      <psa03 value="0.1854900490" flag="0"/>
      <psa10 value="0.0082466012" flag="0"/>
      <psa30 value="0.0006693925" flag="0"/>
    </comp>
    <comp name="--.HHN">
      <acc value="0.1233374254" flag="0"/>
      <vel value="0.0424020374" flag="0"/>
      <psa03 value="0.2619967266" flag="0"/>
      <psa10 value="0.0165207109" flag="0"/>
      <psa30 value="0.0010976245" flag="0"/>
    </comp>
    <comp name="--.HHE">
      <acc value="0.0734862596" flag="0"/>
      <vel value="0.0344385726" flag="0"/>
      <psa03 value="0.2040667996" flag="0"/>
      <psa10 value="0.0081825467" flag="0"/>
      <psa30 value="0.0008349306" flag="0"/>
    </comp>
  </station>
  <station code="THERA" name="THERA" netid="HL" insttype="120" lat="36.367" lon="25.4753">
    <comp name="--.HHZ">
      <acc value="0.0104213951" flag="0"/>
      <vel value="0.0044394908" flag="0"/>
      <psa03 value="0.0457063283" flag="0"/>
      <psa10 value="0.0028056176" flag="0"/>
      <psa30 value="0.0004083237" flag="0"/>
    </comp>
    <comp name="--.HHN">
      <acc value="0.0100455663" flag="0"/>
      <vel value="0.0039104490" flag="0"/>
      <psa03 value="0.0330549055" flag="0"/>
      <psa10 value="0.0026731004" flag="0"/>
      <psa30 value="0.0002713267" flag="0"/>
    </comp>
    <comp name="--.HHE">
      <acc value="0.0190123801" flag="0"/>
      <vel value="0.0087687088" flag="0"/>
      <psa03 value="0.0496147399" flag="0"/>
      <psa10 value="0.0087450270" flag="0"/>
      <psa30 value="0.0007297845" flag="0"/>
    </comp>
  </station>
  <station code="ZKR" name="ZKR" netid="HL" insttype="120" lat="35.1147" lon="26.2169">
    <comp name="--.HHE">
      <acc value="0.5222766832" flag="0"/>
      <vel value="0.2667894328" flag="0"/>
      <psa03 value="1.2204515467" flag="0"/>
      <psa10 value="0.1097022658" flag="0"/>
      <psa30 value="0.0072458349" flag="0"/>
    </comp>
    <comp name="--.HHN">
      <acc value="0.2582245235" flag="0"/>
      <vel value="0.0862438575" flag="0"/>
      <psa03 value="0.6518320309" flag="0"/>
      <psa10 value="0.0217398778" flag="0"/>
      <psa30 value="0.0016208911" flag="0"/>
    </comp>
    <comp name="--.HHZ">
      <acc value="0.2524671088" flag="0"/>
      <vel value="0.0734845888" flag="0"/>
      <psa03 value="0.5032644726" flag="0"/>
      <psa10 value="0.0394451086" flag="0"/>
      <psa30 value="0.0020784296" flag="0"/>
    </comp>
  </station>
</stationlist>
