<stationlist xmlns:esm="https://esm-db.eu/esmws/shakemap/1/" created="1781229287">
	<station code="AGR3" name="AGR3" netid="HI" source="ITSAK Strong Motion Network" insttype="" lat="38.5893" lon="21.4162" esm:processing="manual (Paolucci et al 2011)" esm:quality="good">
		<comp name="--.HNE" depth="0.0">
			<acc value="0.0649338382629675" flag="0"/>
			<vel value="0.021164035200676" flag="0"/>
			<psa03 value="0.0849638263531817" flag="0"/>
			<psa10 value="0.0219600484954385" flag="0"/>
			<psa30 value="0.00161208710535902" flag="0"/>
		</comp>
		<comp name="--.HNN" depth="0.0">
			<acc value="0.0450090279389696" flag="0"/>
			<vel value="0.0195936709692493" flag="0"/>
			<psa03 value="0.0702508412734611" flag="0"/>
			<psa10 value="0.0166597267501355" flag="0"/>
			<psa30 value="0.00173451396553766" flag="0"/>
		</comp>
		<comp name="--.HNZ" depth="0.0">
			<acc value="0.0258656544019489" flag="0"/>
			<vel value="0.00811842308750213" flag="0"/>
			<psa03 value="0.0327336033364062" flag="0"/>
			<psa10 value="0.0100721659815646" flag="0"/>
			<psa30 value="0.000931658176115159" flag="0"/>
		</comp>
	</station>
	<station code="AIG2" name="AIG2" netid="HI" source="ITSAK Strong Motion Network" insttype="" lat="38.2417" lon="22.0726" esm:processing="manual (Paolucci et al 2011)" esm:quality="good">
		<comp name="--.HNE" depth="0.0">
			<acc value="0.357483239855876" flag="0"/>
			<vel value="0.0579899593844535" flag="0"/>
			<psa03 value="0.201707070436823" flag="0"/>
			<psa10 value="0.0225361654103567" flag="0"/>
			<psa30 value="0.00145948251688731" flag="0"/>
		</comp>
		<comp name="--.HNN" depth="0.0">
			<acc value="0.227861625645257" flag="0"/>
			<vel value="0.089412343469213" flag="0"/>
			<psa03 value="0.272145361627921" flag="0"/>
			<psa10 value="0.056335680712366" flag="0"/>
			<psa30 value="0.00368795722573331" flag="0"/>
		</comp>
		<comp name="--.HNZ" depth="0.0">
			<acc value="0.156424605623406" flag="0"/>
			<vel value="0.0438145857342955" flag="0"/>
			<psa03 value="0.130370365563561" flag="0"/>
			<psa10 value="0.027894454745728" flag="0"/>
			<psa30 value="0.0016475762271725" flag="0"/>
		</comp>
	</station>
	<station code="AKR1" name="AKR1" netid="HI" source="ITSAK Strong Motion Network" insttype="" lat="38.153583" lon="22.31326" esm:processing="manual (Paolucci et al 2011)" esm:quality="good">
		<comp name="--.HNE" depth="0.0">
			<acc value="0.19830429836803" flag="0"/>
			<vel value="0.0439538937724593" flag="0"/>
			<psa03 value="0.203421559013277" flag="0"/>
			<psa10 value="0.0338581841885351" flag="0"/>
			<psa30 value="0.00155285880677491" flag="0"/>
		</comp>
		<comp name="--.HNN" depth="0.0">
			<acc value="0.241825030048572" flag="0"/>
			<vel value="0.0514916504605238" flag="0"/>
			<psa03 value="0.261142653585845" flag="0"/>
			<psa10 value="0.0254387245656557" flag="0"/>
			<psa30 value="0.00130285287010857" flag="0"/>
		</comp>
		<comp name="--.HNZ" depth="0.0">
			<acc value="0.166562089151228" flag="0"/>
			<vel value="0.0286584207891492" flag="0"/>
			<psa03 value="0.0962228117890439" flag="0"/>
			<psa10 value="0.0187772857780286" flag="0"/>
			<psa30 value="0.00115929836032683" flag="0"/>
		</comp>
	</station>
	<station code="AOL1" name="AOL1" netid="HI" source="ITSAK Strong Motion Network" insttype="" lat="37.642378" lon="21.624555" esm:processing="manual (Paolucci et al 2011)" esm:quality="good">
		<comp name="--.HNE" depth="0.0">
			<acc value="0.257305003090618" flag="0"/>
			<vel value="0.0640189578314279" flag="0"/>
			<psa03 value="0.426543423075079" flag="0"/>
			<psa10 value="0.0471553913132478" flag="0"/>
			<psa30 value="0.00235975757235808" flag="0"/>
		</comp>
		<comp name="--.HNN" depth="0.0">
			<acc value="0.266317655954988" flag="0"/>
			<vel value="0.0606456351456744" flag="0"/>
			<psa03 value="0.236566546372689" flag="0"/>
			<psa10 value="0.0505726364389664" flag="0"/>
			<psa30 value="0.00246193163255479" flag="0"/>
		</comp>
		<comp name="--.HNZ" depth="0.0">
			<acc value="0.230536168328299" flag="0"/>
			<vel value="0.0499068909327373" flag="0"/>
			<psa03 value="0.217062587664478" flag="0"/>
			<psa10 value="0.0372437134632343" flag="0"/>
			<psa30 value="0.00182673976254409" flag="0"/>
		</comp>
	</station>
	<station code="ARS1" name="ARS1" netid="HI" source="ITSAK Strong Motion Network" insttype="" lat="37.6349" lon="22.7293" esm:processing="manual (Paolucci et al 2011)" esm:quality="good">
		<comp name="--.HNE" depth="0.0">
			<acc value="0.0250023982272209" flag="0"/>
			<vel value="0.0144479339775921" flag="0"/>
			<psa03 value="0.0692474675132071" flag="0"/>
			<psa10 value="0.0115927876527875" flag="0"/>
			<psa30 value="0.000722533228863736" flag="0"/>
		</comp>
		<comp name="--.HNN" depth="0.0">
			<acc value="0.0286715635771888" flag="0"/>
			<vel value="0.0159689078750882" flag="0"/>
			<psa03 value="0.0690138895398127" flag="0"/>
			<psa10 value="0.0167207714190452" flag="0"/>
			<psa30 value="0.000759608028637267" flag="0"/>
		</comp>
		<comp name="--.HNZ" depth="0.0">
			<acc value="0.0159466915910742" flag="0"/>
			<vel value="0.0064521836582686" flag="0"/>
			<psa03 value="0.0603488363558985" flag="0"/>
			<psa10 value="0.00338929335217579" flag="0"/>
			<psa30 value="0.000281869740195276" flag="0"/>
		</comp>
	</station>
	<station code="AST1" name="AST1" netid="HI" source="ITSAK Strong Motion Network" insttype="" lat="38.5416" lon="21.0895" esm:processing="manual (Paolucci et al 2011)" esm:quality="good">
		<comp name="--.HNE" depth="0.0">
			<acc value="0.0268849055913248" flag="0"/>
			<vel value="0.00954489673320785" flag="0"/>
			<psa03 value="0.0376467256816492" flag="0"/>
			<psa10 value="0.00561552121947124" flag="0"/>
			<psa30 value="0.000708706479576121" flag="0"/>
		</comp>
		<comp name="--.HNN" depth="0.0">
			<acc value="0.0249631472838886" flag="0"/>
			<vel value="0.00755957894803508" flag="0"/>
			<psa03 value="0.0487497242216451" flag="0"/>
			<psa10 value="0.0051117948813235" flag="0"/>
			<psa30 value="0.000534969762037906" flag="0"/>
		</comp>
		<comp name="--.HNZ" depth="0.0">
			<acc value="0.0124301656979086" flag="0"/>
			<vel value="0.00486669236892038" flag="0"/>
			<psa03 value="0.0283447396790616" flag="0"/>
			<psa10 value="0.00398607624548861" flag="0"/>
			<psa30 value="0.000376051916802254" flag="0"/>
		</comp>
	</station>
	<station code="KAC1" name="KAC1" netid="HI" source="ITSAK Strong Motion Network" insttype="" lat="38.143412" lon="21.549694" esm:processing="manual (Paolucci et al 2011)" esm:quality="good">
		<comp name="--.HNE" depth="0.0">
			<acc value="0.174709566268355" flag="0"/>
			<vel value="0.0505452243592967" flag="0"/>
			<psa03 value="0.279331462671848" flag="0"/>
			<psa10 value="0.0586389257910487" flag="0"/>
			<psa30 value="0.00339889599351199" flag="0"/>
		</comp>
		<comp name="--.HNN" depth="0.0">
			<acc value="0.154859868014765" flag="0"/>
			<vel value="0.0432341732373064" flag="0"/>
			<psa03 value="0.369486434996306" flag="0"/>
			<psa10 value="0.071733822013657" flag="0"/>
			<psa30 value="0.00487892278802353" flag="0"/>
		</comp>
		<comp name="--.HNZ" depth="0.0">
			<acc value="0.110890798686206" flag="0"/>
			<vel value="0.0225449727251471" flag="0"/>
			<psa03 value="0.15278722557052" flag="0"/>
			<psa10 value="0.0336821362762249" flag="0"/>
			<psa30 value="0.00253644761053929" flag="0"/>
		</comp>
	</station>
	<station code="KAL3" name="KAL3" netid="HI" source="ITSAK Strong Motion Network" insttype="" lat="37.0246" lon="22.103" esm:processing="manual (Paolucci et al 2011)" esm:quality="good">
		<comp name="--.HNE" depth="0.0">
			<acc value="0.109656809131442" flag="0"/>
			<vel value="0.06679050751688" flag="0"/>
			<psa03 value="0.220616760610993" flag="0"/>
			<psa10 value="0.041442465359941" flag="0"/>
			<psa30 value="0.00332337911588946" flag="0"/>
		</comp>
		<comp name="--.HNN" depth="0.0">
			<acc value="0.111740164082354" flag="0"/>
			<vel value="0.0770151395358938" flag="0"/>
			<psa03 value="0.308039635280724" flag="0"/>
			<psa10 value="0.0531057342442642" flag="0"/>
			<psa30 value="0.00695569369723733" flag="0"/>
		</comp>
		<comp name="--.HNZ" depth="0.0">
			<acc value="0.043901866996265" flag="0"/>
			<vel value="0.029336991380688" flag="0"/>
			<psa03 value="0.088443275599618" flag="0"/>
			<psa10 value="0.0320267916177653" flag="0"/>
			<psa30 value="0.00318861560513492" flag="0"/>
		</comp>
	</station>
	<station code="KLV1" name="KLV1" netid="HI" source="ITSAK Strong Motion Network" insttype="" lat="38.03256" lon="22.10797" esm:processing="manual (Paolucci et al 2011)" esm:quality="good">
		<comp name="--.HNE" depth="0.0">
			<acc value="0.397884225550551" flag="0"/>
			<vel value="0.181892311393514" flag="0"/>
			<psa03 value="0.735988422287599" flag="0"/>
			<psa10 value="0.0919133988115837" flag="0"/>
			<psa30 value="0.00427934348550398" flag="0"/>
		</comp>
		<comp name="--.HNN" depth="0.0">
			<acc value="0.557006050899891" flag="0"/>
			<vel value="0.134725032587043" flag="0"/>
			<psa03 value="0.775283608734184" flag="0"/>
			<psa10 value="0.0645330599985131" flag="0"/>
			<psa30 value="0.00449257094410998" flag="0"/>
		</comp>
		<comp name="--.HNZ" depth="0.0">
			<acc value="0.367464054215316" flag="0"/>
			<vel value="0.0848778827193113" flag="0"/>
			<psa03 value="0.212543434126068" flag="0"/>
			<psa10 value="0.0473663690394868" flag="0"/>
			<psa30 value="0.00403054075354405" flag="0"/>
		</comp>
	</station>
	<station code="KOR2" name="KOR2" netid="HI" source="ITSAK Strong Motion Network" insttype="" lat="37.9401" lon="22.9495" esm:processing="manual (Paolucci et al 2011)" esm:quality="good">
		<comp name="--.HNE" depth="0.0">
			<acc value="0.0242350657608925" flag="0"/>
			<vel value="0.0114018983991117" flag="0"/>
			<psa03 value="0.0887655990352971" flag="0"/>
			<psa10 value="0.0175198481039539" flag="0"/>
			<psa30 value="0.00117547380687078" flag="0"/>
		</comp>
		<comp name="--.HNN" depth="0.0">
			<acc value="0.0242424087708309" flag="0"/>
			<vel value="0.0122449258504329" flag="0"/>
			<psa03 value="0.0538342589637848" flag="0"/>
			<psa10 value="0.0184529249157134" flag="0"/>
			<psa30 value="0.00100071785514663" flag="0"/>
		</comp>
		<comp name="--.HNZ" depth="0.0">
			<acc value="0.0192033635589236" flag="0"/>
			<vel value="0.00746881836005595" flag="0"/>
			<psa03 value="0.0430731190077423" flag="0"/>
			<psa10 value="0.00885810743114397" flag="0"/>
			<psa30 value="0.000454433697752231" flag="0"/>
		</comp>
	</station>
	<station code="KRI1" name="KRI1" netid="HI" source="ITSAK Strong Motion Network" insttype="" lat="37.6621" lon="20.8172" esm:processing="manual (Paolucci et al 2011)" esm:quality="good">
		<comp name="--.HNE" depth="0.0">
			<acc value="0.0186220522274678" flag="0"/>
			<vel value="0.0117760187710498" flag="0"/>
			<psa03 value="0.0544924275642245" flag="0"/>
			<psa10 value="0.00964930109384115" flag="0"/>
			<psa30 value="0.000559165114861286" flag="0"/>
		</comp>
		<comp name="--.HNN" depth="0.0">
			<acc value="0.0159274548687662" flag="0"/>
			<vel value="0.0112302362352284" flag="0"/>
			<psa03 value="0.0427143973275249" flag="0"/>
			<psa10 value="0.0118110436736778" flag="0"/>
			<psa30 value="0.000626677295545257" flag="0"/>
		</comp>
		<comp name="--.HNZ" depth="0.0">
			<acc value="0.00876588761581714" flag="0"/>
			<vel value="0.0042120420181581" flag="0"/>
			<psa03 value="0.0235699025362013" flag="0"/>
			<psa10 value="0.00332883278445991" flag="0"/>
			<psa30 value="0.000409399073804413" flag="0"/>
		</comp>
	</station>
	<station code="KYP2" name="KYP2" netid="HI" source="ITSAK Strong Motion Network" insttype="" lat="37.2497" lon="21.667" esm:processing="manual (Paolucci et al 2011)" esm:quality="good">
		<comp name="--.HNE" depth="0.0">
			<acc value="0.0552086526432306" flag="0"/>
			<vel value="0.0270874937925744" flag="0"/>
			<psa03 value="0.108491114087195" flag="0"/>
			<psa10 value="0.0173279272651403" flag="0"/>
			<psa30 value="0.000982319136321809" flag="0"/>
		</comp>
		<comp name="--.HNN" depth="0.0">
			<acc value="0.0564764945073891" flag="0"/>
			<vel value="0.0174895242397803" flag="0"/>
			<psa03 value="0.108335009996065" flag="0"/>
			<psa10 value="0.0131666797279133" flag="0"/>
			<psa30 value="0.000714833864651977" flag="0"/>
		</comp>
		<comp name="--.HNZ" depth="0.0">
			<acc value="0.0461650305054895" flag="0"/>
			<vel value="0.0125637208430557" flag="0"/>
			<psa03 value="0.0639233648175329" flag="0"/>
			<psa10 value="0.0168694687695149" flag="0"/>
			<psa30 value="0.000793315886617429" flag="0"/>
		</comp>
	</station>
	<station code="LEO1" name="LEO1" netid="HI" source="ITSAK Strong Motion Network" insttype="" lat="37.1689" lon="22.8637" esm:processing="manual (Paolucci et al 2011)" esm:quality="good">
		<comp name="--.HNE" depth="0.0">
			<acc value="0.0140262947445655" flag="0"/>
			<vel value="0.00452217742800603" flag="0"/>
			<psa03 value="0.0246346345278036" flag="0"/>
			<psa10 value="0.00265927421074042" flag="0"/>
			<psa30 value="0.000243703513953431" flag="0"/>
		</comp>
		<comp name="--.HNN" depth="0.0">
			<acc value="0.00956934086196155" flag="0"/>
			<vel value="0.00477676957415126" flag="0"/>
			<psa03 value="0.0276508447535949" flag="0"/>
			<psa10 value="0.00303744223126583" flag="0"/>
			<psa30 value="0.000267729220121886" flag="0"/>
		</comp>
		<comp name="--.HNZ" depth="0.0">
			<acc value="0.014043267799048" flag="0"/>
			<vel value="0.00354983245752563" flag="0"/>
			<psa03 value="0.0141569755905707" flag="0"/>
			<psa10 value="0.00226979801922918" flag="0"/>
			<psa30 value="0.000258880092243927" flag="0"/>
		</comp>
	</station>
	<station code="MGP1" name="MGP1" netid="HI" source="ITSAK Strong Motion Network" insttype="" lat="37.403248" lon="22.140703" esm:processing="manual (Paolucci et al 2011)" esm:quality="good">
		<comp name="--.HNE" depth="0.0">
			<acc value="0.240611751374145" flag="0"/>
			<vel value="0.104447411872605" flag="0"/>
			<psa03 value="0.839388355359038" flag="0"/>
			<psa10 value="0.0820041623733016" flag="0"/>
			<psa30 value="0.00391675113220676" flag="0"/>
		</comp>
		<comp name="--.HNN" depth="0.0">
			<acc value="0.2184804680587" flag="0"/>
			<vel value="0.135880700266839" flag="0"/>
			<psa03 value="0.891099947664908" flag="0"/>
			<psa10 value="0.0983290688182351" flag="0"/>
			<psa30 value="0.00700964685470256" flag="0"/>
		</comp>
		<comp name="--.HNZ" depth="0.0">
			<acc value="0.0670855153019544" flag="0"/>
			<vel value="0.033365756811918" flag="0"/>
			<psa03 value="0.133359219810486" flag="0"/>
			<psa10 value="0.0367085042582511" flag="0"/>
			<psa30 value="0.0040294140122363" flag="0"/>
		</comp>
	</station>
	<station code="MSL1" name="MSL1" netid="HI" source="ITSAK Strong Motion Network" insttype="" lat="38.3727" lon="21.4243" esm:processing="manual (Paolucci et al 2011)" esm:quality="good">
		<comp name="--.HNE" depth="0.0">
			<acc value="0.110156219974045" flag="0"/>
			<vel value="0.0505561340020068" flag="0"/>
			<psa03 value="0.251803993278765" flag="0"/>
			<psa10 value="0.028697296680066" flag="0"/>
			<psa30 value="0.00206831847428147" flag="0"/>
		</comp>
		<comp name="--.HNN" depth="0.0">
			<acc value="0.0671486681322538" flag="0"/>
			<vel value="0.0343663580934353" flag="0"/>
			<psa03 value="0.128798480183869" flag="0"/>
			<psa10 value="0.0234052367320665" flag="0"/>
			<psa30 value="0.00180453391651578" flag="0"/>
		</comp>
		<comp name="--.HNZ" depth="0.0">
			<acc value="0.0361181333812445" flag="0"/>
			<vel value="0.0115520780634841" flag="0"/>
			<psa03 value="0.0827823797597176" flag="0"/>
			<psa10 value="0.0136004719020159" flag="0"/>
			<psa30 value="0.000621186619314904" flag="0"/>
		</comp>
	</station>
	<station code="NMA1" name="NMA1" netid="HI" source="ITSAK Strong Motion Network" insttype="" lat="37.81873" lon="22.662702" esm:processing="manual (Paolucci et al 2011)" esm:quality="good">
		<comp name="--.HNE" depth="0.0">
			<acc value="0.047414027917473" flag="0"/>
			<vel value="0.0158311246347874" flag="0"/>
			<psa03 value="0.113001496211208" flag="0"/>
			<psa10 value="0.0168541621305252" flag="0"/>
			<psa30 value="0.000878753942302643" flag="0"/>
		</comp>
		<comp name="--.HNN" depth="0.0">
			<acc value="0.0522516399710948" flag="0"/>
			<vel value="0.0193186704275557" flag="0"/>
			<psa03 value="0.115914137076038" flag="0"/>
			<psa10 value="0.0181981667892378" flag="0"/>
			<psa30 value="0.000932539276150379" flag="0"/>
		</comp>
		<comp name="--.HNZ" depth="0.0">
			<acc value="0.0406079306803619" flag="0"/>
			<vel value="0.0124716218940549" flag="0"/>
			<psa03 value="0.0787132924943229" flag="0"/>
			<psa10 value="0.00939868136651419" flag="0"/>
			<psa30 value="0.000517610330810783" flag="0"/>
		</comp>
	</station>
	<station code="PAT4" name="PAT4" netid="HI" source="ITSAK Strong Motion Network" insttype="" lat="38.2338" lon="21.74795" esm:processing="manual (Paolucci et al 2011)" esm:quality="good">
		<comp name="--.HNE" depth="0.0">
			<acc value="0.175230413635734" flag="0"/>
			<vel value="0.073542991328186" flag="0"/>
			<psa03 value="0.311086149597346" flag="0"/>
			<psa10 value="0.105799968728689" flag="0"/>
			<psa30 value="0.00390351192184071" flag="0"/>
		</comp>
		<comp name="--.HNN" depth="0.0">
			<acc value="0.127962200600669" flag="0"/>
			<vel value="0.067096235913594" flag="0"/>
			<psa03 value="0.212582561718079" flag="0"/>
			<psa10 value="0.0773700478859599" flag="0"/>
			<psa30 value="0.0058227478117993" flag="0"/>
		</comp>
		<comp name="--.HNZ" depth="0.0">
			<acc value="0.160790301861334" flag="0"/>
			<vel value="0.0657204930940909" flag="0"/>
			<psa03 value="0.1498703656762" flag="0"/>
			<psa10 value="0.0554345335157868" flag="0"/>
			<psa30 value="0.00269822624424647" flag="0"/>
		</comp>
	</station>
	<station code="PET1" name="PET1" netid="HI" source="ITSAK Strong Motion Network" insttype="" lat="36.963862" lon="21.92538" esm:processing="automatic (Paolucci et al 2011)" esm:quality="best">
		<comp name="--.HNE" depth="0.0">
			<acc value="0.0559636795012484" flag="0"/>
			<vel value="0.0364079907929955" flag="0"/>
			<psa03 value="0.159710600876822" flag="0"/>
			<psa10 value="0.0207770044995798" flag="0"/>
			<psa30 value="0.00132562625373347" flag="0"/>
		</comp>
		<comp name="--.HNN" depth="0.0">
			<acc value="0.0629597046352087" flag="0"/>
			<vel value="0.0404408809760328" flag="0"/>
			<psa03 value="0.124611567404779" flag="0"/>
			<psa10 value="0.0330053101898184" flag="0"/>
			<psa30 value="0.00163186935333586" flag="0"/>
		</comp>
		<comp name="--.HNZ" depth="0.0">
			<acc value="0.0245775132202811" flag="0"/>
			<vel value="0.0155250663443032" flag="0"/>
			<psa03 value="0.0779923801540851" flag="0"/>
			<psa10 value="0.00634942983731533" flag="0"/>
			<psa30 value="0.000469090866634402" flag="0"/>
		</comp>
	</station>
	<station code="PYL1" name="PYL1" netid="HI" source="ITSAK Strong Motion Network" insttype="" lat="36.914188" lon="21.695161" esm:processing="manual (Paolucci et al 2011)" esm:quality="good">
		<comp name="--.HNE" depth="0.0">
			<acc value="0.0114120934865893" flag="0"/>
			<vel value="0.00874963436628177" flag="0"/>
			<psa03 value="0.0326634736906613" flag="0"/>
			<psa10 value="0.00709172588578555" flag="0"/>
			<psa30 value="0.000630320453553262" flag="0"/>
		</comp>
		<comp name="--.HNN" depth="0.0">
			<acc value="0.00871793540662355" flag="0"/>
			<vel value="0.00573065431330041" flag="0"/>
			<psa03 value="0.0340863231557887" flag="0"/>
			<psa10 value="0.00418186827824989" flag="0"/>
			<psa30 value="0.000358364625314331" flag="0"/>
		</comp>
		<comp name="--.HNZ" depth="0.0">
			<acc value="0.00631204387135213" flag="0"/>
			<vel value="0.00453725919645207" flag="0"/>
			<psa03 value="0.0169983148570192" flag="0"/>
			<psa10 value="0.00412076173024098" flag="0"/>
			<psa30 value="0.000442896527221305" flag="0"/>
		</comp>
	</station>
