<?xml version="1.0" encoding="UTF-8" standalone="yes"?>
<!DOCTYPE earthquake SYSTEM "stationlist.dtd">
<stationlist created="" xmlns="ch.ethz.sed.shakemap.usgs.xml">
  <station code="MG00" name="MG00" netid="CL" source="RESIF" insttype="40" lat="38.4145" lon="21.9467">
    <comp name="00.HHE">
      <acc value="0.3098597524" flag="0"/>
      <vel value="0.0692845763" flag="0"/>
      <psa03 value="0.3322109586" flag="0"/>
      <psa10 value="0.0115133698" flag="0"/>
      <psa30 value="0.0012615913" flag="0"/>
    </comp>
    <comp name="00.HHN">
      <acc value="0.3492818835" flag="0"/>
      <vel value="0.0986250132" flag="0"/>
      <psa03 value="0.6352070208" flag="0"/>
      <psa10 value="0.0306413377" flag="0"/>
      <psa30 value="0.0021062482" flag="0"/>
    </comp>
    <comp name="00.HHZ">
      <acc value="0.1740888935" flag="0"/>
      <vel value="0.0477715194" flag="0"/>
      <psa03 value="0.1638761999" flag="0"/>
      <psa10 value="0.0142798371" flag="0"/>
      <psa30 value="0.0009746528" flag="0"/>
    </comp>
  </station>
  <station code="MG03" name="MG03" netid="CL" source="RESIF" insttype="40" lat="38.4141" lon="21.946">
    <comp name="03.HHE">
      <acc value="0.2940448960" flag="0"/>
      <vel value="0.0795181696" flag="0"/>
      <psa03 value="0.3229840327" flag="0"/>
      <psa10 value="0.0146789146" flag="0"/>
      <psa30 value="0.0012348571" flag="0"/>
    </comp>
    <comp name="03.HHN">
      <acc value="0.1645907349" flag="0"/>
      <vel value="0.0625091015" flag="0"/>
      <psa03 value="0.2267568000" flag="0"/>
      <psa10 value="0.0159436882" flag="0"/>
      <psa30 value="0.0012566664" flag="0"/>
    </comp>
    <comp name="03.HHZ">
      <acc value="0.1268490074" flag="0"/>
      <vel value="0.0321018947" flag="0"/>
      <psa03 value="0.1050908393" flag="0"/>
      <psa10 value="0.0099276012" flag="0"/>
      <psa30 value="0.0008394944" flag="0"/>
    </comp>
  </station>
  <station code="MG04" name="MG04" netid="CL" source="RESIF" insttype="40" lat="38.4142" lon="21.9481">
    <comp name="04.HHE">
      <acc value="0.2465697051" flag="0"/>
      <vel value="0.0711252476" flag="0"/>
      <psa03 value="0.2529289856" flag="0"/>
      <psa10 value="0.0165200705" flag="0"/>
      <psa30 value="0.0014594996" flag="0"/>
    </comp>
    <comp name="04.HHN">
      <acc value="0.2375426608" flag="0"/>
      <vel value="0.0879352682" flag="0"/>
      <psa03 value="0.3904062485" flag="0"/>
      <psa10 value="0.0271336055" flag="0"/>
      <psa30 value="0.0022067553" flag="0"/>
    </comp>
    <comp name="04.HHZ">
      <acc value="0.1789851665" flag="0"/>
      <vel value="0.0498847104" flag="0"/>
      <psa03 value="0.2111702588" flag="0"/>
      <psa10 value="0.0115212864" flag="0"/>
      <psa30 value="0.0012637474" flag="0"/>
    </comp>
  </station>
  <station code="MG06" name="MG06" netid="CL" source="RESIF" insttype="40" lat="38.4129" lon="21.9462">
    <comp name="06.HHE">
      <acc value="0.2187488463" flag="0"/>
      <vel value="0.0516720193" flag="0"/>
      <psa03 value="0.2617294036" flag="0"/>
      <psa10 value="0.0173732350" flag="0"/>
      <psa30 value="0.0015041091" flag="0"/>
    </comp>
    <comp name="06.HHN">
      <acc value="0.2065486328" flag="0"/>
      <vel value="0.0457203553" flag="0"/>
      <psa03 value="0.1638932753" flag="0"/>
      <psa10 value="0.0085760206" flag="0"/>
      <psa30 value="0.0007443557" flag="0"/>
    </comp>
    <comp name="06.HHZ">
      <acc value="0.1261129651" flag="0"/>
      <vel value="0.0197121222" flag="0"/>
      <psa03 value="0.0861468583" flag="0"/>
      <psa10 value="0.0066017037" flag="0"/>
      <psa30 value="0.0007387723" flag="0"/>
    </comp>
  </station>
  <station code="ROD3" name="ROD3" netid="CL" source="RESIF" insttype="with" lat="38.3081" lon="21.892">
    <comp name="00.HNE">
      <acc value="0.3886012565" flag="0"/>
      <vel value="0.1036043386" flag="0"/>
      <psa03 value="0.5845298931" flag="0"/>
      <psa10 value="0.0243499320" flag="0"/>
      <psa30 value="0.0019705389" flag="0"/>
    </comp>
    <comp name="00.HNN">
      <acc value="0.5358467785" flag="0"/>
      <vel value="0.1459175640" flag="0"/>
      <psa03 value="0.6903881626" flag="0"/>
      <psa10 value="0.0352113121" flag="0"/>
      <psa30 value="0.0030447647" flag="0"/>
    </comp>
    <comp name="00.HNZ">
      <acc value="0.3302791159" flag="0"/>
      <vel value="0.1072795571" flag="0"/>
      <psa03 value="0.3062647452" flag="0"/>
      <psa10 value="0.0275098252" flag="0"/>
      <psa30 value="0.0023782060" flag="0"/>
    </comp>
  </station>
  <station code="LOUT" name="LOUT" netid="HA" source="NOA" insttype="30" lat="37.9879" lon="22.9743">
    <comp name="--.HHE">
      <acc value="0.0160578519" flag="0"/>
      <vel value="0.0090874609" flag="0"/>
      <psa03 value="0.0363800856" flag="0"/>
      <psa10 value="0.0164944949" flag="0"/>
      <psa30 value="0.0008991857" flag="0"/>
    </comp>
    <comp name="--.HHN">
      <acc value="0.0116583451" flag="0"/>
      <vel value="0.0055295619" flag="0"/>
      <psa03 value="0.0275692511" flag="0"/>
      <psa10 value="0.0098234301" flag="0"/>
      <psa30 value="0.0003811878" flag="0"/>
    </comp>
    <comp name="--.HHZ">
      <acc value="0.0113083218" flag="0"/>
      <vel value="0.0029375334" flag="0"/>
      <psa03 value="0.0171379891" flag="0"/>
      <psa10 value="0.0060119407" flag="0"/>
      <psa30 value="0.0003787264" flag="0"/>
    </comp>
  </station>
  <station code="KLV" name="KLV" netid="HL" source="NOA" insttype="120" lat="38.0435" lon="22.1504">
    <comp name="--.HHE">
      <acc value="0.4830437316" flag="0"/>
      <vel value="0.0849178051" flag="0"/>
      <psa03 value="0.2097357696" flag="0"/>
      <psa10 value="0.0265997936" flag="0"/>
      <psa30 value="0.0012810741" flag="0"/>
    </comp>
    <comp name="--.HHN">
      <acc value="0.5868102499" flag="0"/>
      <vel value="0.1371810014" flag="0"/>
      <psa03 value="0.3984458849" flag="0"/>
      <psa10 value="0.0430899275" flag="0"/>
      <psa30 value="0.0029236929" flag="0"/>
    </comp>
    <comp name="--.HHZ">
      <acc value="0.5451394581" flag="0"/>
      <vel value="0.1247743554" flag="0"/>
      <psa03 value="0.4090148626" flag="0"/>
      <psa10 value="0.0478460771" flag="0"/>
      <psa30 value="0.0037406771" flag="0"/>
    </comp>
  </station>
  <station code="PATC" name="PATC" netid="HL" source="NOA" insttype="CMG-5" lat="38.2693" lon="21.76">
    <comp name="00.HNE">
      <acc value="0.2537424499" flag="0"/>
      <vel value="0.1083737841" flag="0"/>
      <psa03 value="0.6754271221" flag="0"/>
      <psa10 value="0.0387590479" flag="0"/>
      <psa30 value="0.0026020374" flag="0"/>
    </comp>
    <comp name="00.HNN">
      <acc value="0.3854371955" flag="0"/>
      <vel value="0.1045121046" flag="0"/>
      <psa03 value="0.5980497918" flag="0"/>
      <psa10 value="0.0442765368" flag="0"/>
      <psa30 value="0.0046238568" flag="0"/>
    </comp>
    <comp name="00.HNZ">
      <acc value="0.1871413607" flag="0"/>
      <vel value="0.0435207846" flag="0"/>
      <psa03 value="0.1577367347" flag="0"/>
      <psa10 value="0.0234777054" flag="0"/>
      <psa30 value="0.0013402249" flag="0"/>
    </comp>
  </station>
  <station code="PATG" name="PATG" netid="HL" source="NOA" insttype="CMG-5" lat="38.2386" lon="21.7266">
    <comp name="00.HNE">
      <acc value="0.5316834569" flag="0"/>
      <vel value="0.1542479626" flag="0"/>
      <psa03 value="0.8042375412" flag="0"/>
      <psa10 value="0.0392558972" flag="0"/>
      <psa30 value="0.0038283876" flag="0"/>
    </comp>
    <comp name="00.HNN">
      <acc value="0.5502929733" flag="0"/>
      <vel value="0.2050322762" flag="0"/>
      <psa03 value="0.6738238436" flag="0"/>
      <psa10 value="0.0338899520" flag="0"/>
      <psa30 value="0.0039864457" flag="0"/>
    </comp>
    <comp name="00.HNZ">
      <acc value="0.2585253936" flag="0"/>
      <vel value="0.0483675944" flag="0"/>
      <psa03 value="0.3069556606" flag="0"/>
      <psa10 value="0.0362279164" flag="0"/>
      <psa30 value="0.0021093801" flag="0"/>
    </comp>
  </station>
  <station code="GUR" name="GUR" netid="HP" source="NOA" insttype="40," lat="37.9363" lon="22.3423">
    <comp name="--.HHE">
      <acc value="0.5223714720" flag="0"/>
      <vel value="0.0659952026" flag="0"/>
      <psa03 value="0.2628854307" flag="0"/>
      <psa10 value="0.0386391480" flag="0"/>
      <psa30 value="0.0020539592" flag="0"/>
    </comp>
    <comp name="--.HHN">
      <acc value="0.3865138600" flag="0"/>
      <vel value="0.0937577602" flag="0"/>
      <psa03 value="0.4062034803" flag="0"/>
      <psa10 value="0.0304368979" flag="0"/>
      <psa30 value="0.0023029599" flag="0"/>
    </comp>
    <comp name="--.HHZ">
      <acc value="0.1918403820" flag="0"/>
      <vel value="0.0438104374" flag="0"/>
      <psa03 value="0.1104840030" flag="0"/>
      <psa10 value="0.0330397671" flag="0"/>
      <psa30 value="0.0016560578" flag="0"/>
    </comp>
  </station>
  <station code="KLV" name="KLV" netid="MN" source="INGV" insttype="" lat="38.0437" lon="22.1504">
    <comp name="--.HHE">
      <acc value="0.5100923692" flag="0"/>
      <vel value="0.0905314932" flag="0"/>
      <psa03 value="0.2165481425" flag="0"/>
      <psa10 value="0.0268905944" flag="0"/>
      <psa30 value="0.0013033780" flag="0"/>
    </comp>
    <comp name="--.HHN">
      <acc value="0.6634583686" flag="0"/>
      <vel value="0.1425313481" flag="0"/>
      <psa03 value="0.4092759412" flag="0"/>
      <psa10 value="0.0440186684" flag="0"/>
      <psa30 value="0.0030078276" flag="0"/>
    </comp>
    <comp name="--.HHZ">
      <acc value="0.6087001245" flag="0"/>
      <vel value="0.1305335665" flag="0"/>
      <psa03 value="0.4196991688" flag="0"/>
      <psa10 value="0.0488647918" flag="0"/>
      <psa30 value="0.0038120099" flag="0"/>
    </comp>
  </station>
</stationlist>
