<?xml version="1.0" encoding="UTF-8" standalone="yes"?>
<!DOCTYPE earthquake SYSTEM "stationlist.dtd">
<stationlist created="" xmlns="ch.ethz.sed.shakemap.usgs.xml">
  <station code="KARP" name="KARP" netid="GE" insttype="STS-2/N" lat="35.5471" lon="27.1611">
    <comp name="--.HHE">
      <acc value="0.0663994988" flag="0"/>
      <vel value="0.0157274951" flag="0"/>
      <psa03 value="0.0889664364" flag="0"/>
      <psa10 value="0.0188876592" flag="0"/>
      <psa30 value="0.0006728244" flag="0"/>
    </comp>
    <comp name="--.HHZ">
      <acc value="0.0430808134" flag="0"/>
      <vel value="0.0109637468" flag="0"/>
      <psa03 value="0.0456342536" flag="0"/>
      <psa10 value="0.0057044255" flag="0"/>
      <psa30 value="0.0003265221" flag="0"/>
    </comp>
    <comp name="--.HHN">
      <acc value="0.0627628610" flag="0"/>
      <vel value="0.0159410386" flag="0"/>
      <psa03 value="0.0600051861" flag="0"/>
      <psa10 value="0.0080437841" flag="0"/>
      <psa30 value="0.0005791028" flag="0"/>
    </comp>
  </station>
  <station code="ZKR" name="ZKR" netid="GE" insttype="STS-2/N" lat="35.1147" lon="26.2169">
    <comp name="--.HHE">
      <acc value="0.0592901341" flag="0"/>
      <vel value="0.0130996468" flag="0"/>
      <psa03 value="0.0573909777" flag="0"/>
      <psa10 value="0.0043472577" flag="0"/>
      <psa30 value="0.0003496940" flag="0"/>
    </comp>
    <comp name="--.HHZ">
      <acc value="0.0476186326" flag="0"/>
      <vel value="0.0078779406" flag="0"/>
      <psa03 value="0.0251227907" flag="0"/>
      <psa10 value="0.0035633823" flag="0"/>
      <psa30 value="0.0002463361" flag="0"/>
    </comp>
    <comp name="--.HHN">
      <acc value="0.0326208160" flag="0"/>
      <vel value="0.0065542700" flag="0"/>
      <psa03 value="0.0246300396" flag="0"/>
      <psa10 value="0.0016925342" flag="0"/>
      <psa30 value="0.0001670027" flag="0"/>
    </comp>
  </station>
  <station code="STIA" name="STIA" netid="HC" insttype="120" lat="35.2021" lon="26.0909">
    <comp name="--.HHZ">
      <acc value="0.0850000431" flag="0"/>
      <vel value="0.0194386610" flag="0"/>
      <psa03 value="0.0719141426" flag="0"/>
      <psa10 value="0.0049640665" flag="0"/>
      <psa30 value="0.0002934378" flag="0"/>
    </comp>
    <comp name="--.HHN">
      <acc value="0.0474133035" flag="0"/>
      <vel value="0.0112969543" flag="0"/>
      <psa03 value="0.0652336391" flag="0"/>
      <psa10 value="0.0058188721" flag="0"/>
      <psa30 value="0.0004456788" flag="0"/>
    </comp>
    <comp name="--.HHE">
      <acc value="0.0486200952" flag="0"/>
      <vel value="0.0131822404" flag="0"/>
      <psa03 value="0.0674531034" flag="0"/>
      <psa10 value="0.0055815102" flag="0"/>
      <psa30 value="0.0002909423" flag="0"/>
    </comp>
  </station>
  <station code="SIT2" name="SIT2" netid="HI" insttype="CMG-5TD,ACCELEROMETER,GURALP" lat="35.2059" lon="26.107">
    <comp name="--.HNN">
      <acc value="0.0656281379" flag="0"/>
      <vel value="0.0353683586" flag="0"/>
      <psa03 value="0.2105478104" flag="0"/>
      <psa10 value="0.0133336023" flag="0"/>
      <psa30 value="0.0010419340" flag="0"/>
    </comp>
    <comp name="--.HNZ">
      <acc value="0.0584871400" flag="0"/>
      <vel value="0.0218985837" flag="0"/>
      <psa03 value="0.1009923639" flag="0"/>
      <psa10 value="0.0048402073" flag="0"/>
      <psa30 value="0.0004073341" flag="0"/>
    </comp>
    <comp name="--.HNE">
      <acc value="0.0663535130" flag="0"/>
      <vel value="0.0301994083" flag="0"/>
      <psa03 value="0.1892169708" flag="0"/>
      <psa10 value="0.0124833069" flag="0"/>
      <psa30 value="0.0008870939" flag="0"/>
    </comp>
  </station>
  <station code="KARP" name="KARP" netid="HL" insttype="120" lat="35.5471" lon="27.1611">
    <comp name="--.HHN">
      <acc value="0.0592538325" flag="0"/>
      <vel value="0.0146412633" flag="0"/>
      <psa03 value="0.0588253671" flag="0"/>
      <psa10 value="0.0079256707" flag="0"/>
      <psa30 value="0.0005753555" flag="0"/>
    </comp>
    <comp name="--.HHZ">
      <acc value="0.0403037941" flag="0"/>
      <vel value="0.0106731035" flag="0"/>
      <psa03 value="0.0444988415" flag="0"/>
      <psa10 value="0.0056657362" flag="0"/>
      <psa30 value="0.0003196455" flag="0"/>
    </comp>
    <comp name="--.HHE">
      <acc value="0.0633001463" flag="0"/>
      <vel value="0.0152210056" flag="0"/>
      <psa03 value="0.0863548677" flag="0"/>
      <psa10 value="0.0187567384" flag="0"/>
      <psa30 value="0.0006673245" flag="0"/>
    </comp>
  </station>
  <station code="NPS" name="NPS" netid="HL" insttype="CMG3ESPC-120s" lat="35.2613" lon="25.6104">
    <comp name="--.HHE">
      <acc value="0.0116094477" flag="0"/>
      <vel value="0.0031510565" flag="0"/>
      <psa03 value="0.0205617428" flag="0"/>
      <psa10 value="0.0023610006" flag="0"/>
      <psa30 value="0.0001022001" flag="0"/>
    </comp>
    <comp name="--.HHZ">
      <acc value="0.0306320678" flag="0"/>
      <vel value="0.0073006944" flag="0"/>
      <psa03 value="0.0413866055" flag="0"/>
      <psa10 value="0.0031034196" flag="0"/>
      <psa30 value="0.0002550779" flag="0"/>
    </comp>
    <comp name="--.HHN">
      <acc value="0.0401568217" flag="0"/>
      <vel value="0.0087885245" flag="0"/>
      <psa03 value="0.0500307903" flag="0"/>
      <psa10 value="0.0039020812" flag="0"/>
      <psa30 value="0.0002250489" flag="0"/>
    </comp>
  </station>
  <station code="ZKR" name="ZKR" netid="HL" insttype="120" lat="35.1147" lon="26.2169">
    <comp name="--.HHE">
      <acc value="0.0582393707" flag="0"/>
      <vel value="0.0125916338" flag="0"/>
      <psa03 value="0.0556295557" flag="0"/>
      <psa10 value="0.0042884749" flag="0"/>
      <psa30 value="0.0003452183" flag="0"/>
    </comp>
    <comp name="--.HHN">
      <acc value="0.0322818780" flag="0"/>
      <vel value="0.0063586575" flag="0"/>
      <psa03 value="0.0238339832" flag="0"/>
      <psa10 value="0.0016727884" flag="0"/>
      <psa30 value="0.0001641372" flag="0"/>
    </comp>
    <comp name="--.HHZ">
      <acc value="0.0475131110" flag="0"/>
      <vel value="0.0076356993" flag="0"/>
      <psa03 value="0.0243395749" flag="0"/>
      <psa10 value="0.0035358187" flag="0"/>
      <psa30 value="0.0002442675" flag="0"/>
    </comp>
  </station>
</stationlist>
