<?xml version="1.0" encoding="UTF-8" standalone="yes"?>
<!DOCTYPE earthquake SYSTEM "stationlist.dtd">
<stationlist created="" xmlns="ch.ethz.sed.shakemap.usgs.xml">
  <station code="APE" name="APE" netid="GE" insttype="STS-2/N" lat="37.0727" lon="25.523">
    <comp name="--.HHE">
      <acc value="0.1412450343" flag="0"/>
      <vel value="0.0201274004" flag="0"/>
      <psa03 value="0.0674832990" flag="0"/>
      <psa10 value="0.0078279374" flag="0"/>
      <psa30 value="0.0006432309" flag="0"/>
    </comp>
    <comp name="--.HHN">
      <acc value="0.1367071599" flag="0"/>
      <vel value="0.0192138457" flag="0"/>
      <psa03 value="0.0762811101" flag="0"/>
      <psa10 value="0.0074215832" flag="0"/>
      <psa30 value="0.0006200085" flag="0"/>
    </comp>
    <comp name="--.HHZ">
      <acc value="0.0618266314" flag="0"/>
      <vel value="0.0111147894" flag="0"/>
      <psa03 value="0.0551506086" flag="0"/>
      <psa10 value="0.0085040568" flag="0"/>
      <psa30 value="0.0005154460" flag="0"/>
    </comp>
  </station>
  <station code="THERA" name="THERA" netid="GE" insttype="STS-2/N" lat="36.367" lon="25.4753">
    <comp name="--.HHN">
      <acc value="0.1882524555" flag="0"/>
      <vel value="0.0510744503" flag="0"/>
      <psa03 value="0.1971140718" flag="0"/>
      <psa10 value="0.0130321265" flag="0"/>
      <psa30 value="0.0009239616" flag="0"/>
    </comp>
    <comp name="--.HHZ">
      <acc value="0.1872119428" flag="0"/>
      <vel value="0.0465690900" flag="0"/>
      <psa03 value="0.2028209984" flag="0"/>
      <psa10 value="0.0133626904" flag="0"/>
      <psa30 value="0.0008802927" flag="0"/>
    </comp>
    <comp name="--.HHE">
      <acc value="0.3093296794" flag="0"/>
      <vel value="0.0763161555" flag="0"/>
      <psa03 value="0.2882541349" flag="0"/>
      <psa10 value="0.0339441596" flag="0"/>
      <psa30 value="0.0022982990" flag="0"/>
    </comp>
  </station>
</stationlist>
