<stationlist created="1741951754">
	<station code="ABEA" name="ABEA" netid="HC" source="Seismological Network of Crete (HC)" insttype="" lat="35.5163" lon="24.0113">
		<comp name=".HNE" depth="0.0">
			<acc value="0.004150829637879" flag="0"/>
			<vel value="0.00226347956376" flag="0"/>
			<psa03 value="0.00599282603175207" flag="0"/>
			<psa10 value="0.00275016945085355" flag="0"/>
			<psa30 value="0.00127432077166163" flag="0"/>
		</comp>
		<comp name=".HNN" depth="0.0">
			<acc value="0.0051366933287442" flag="0"/>
			<vel value="0.00201750604363" flag="0"/>
			<psa03 value="0.00481772572619679" flag="0"/>
			<psa10 value="0.00193800568805394" flag="0"/>
			<psa30 value="0.000858704801644701" flag="0"/>
		</comp>
		<comp name=".HNZ" depth="0.0">
			<acc value="0.004085872638015" flag="0"/>
			<vel value="0.00155337865981" flag="0"/>
			<psa03 value="0.00273630919674298" flag="0"/>
			<psa10 value="0.00176917454287955" flag="0"/>
			<psa30 value="0.00061718359371636" flag="0"/>
		</comp>
	</station>
	<station code="ATEI" name="ATEI" netid="HC" source="Seismological Network of Crete (HC)" insttype="" lat="35.5193" lon="24.0432">
		<comp name=".HNE" depth="0.0">
			<acc value="0.010066705982208" flag="0"/>
			<vel value="0.00437183740328" flag="0"/>
			<psa03 value="0.0309474381367322" flag="0"/>
			<psa10 value="0.00356793924908841" flag="0"/>
			<psa30 value="0.000873101901217507" flag="0"/>
		</comp>
		<comp name=".HNN" depth="0.0">
			<acc value="0.009148983772476" flag="0"/>
			<vel value="0.00450556861607" flag="0"/>
			<psa03 value="0.0242659825022293" flag="0"/>
			<psa10 value="0.00345304452850152" flag="0"/>
			<psa30 value="0.0010864662438881" flag="0"/>
		</comp>
		<comp name=".HNZ" depth="0.0">
			<acc value="0.0066129282798696" flag="0"/>
			<vel value="0.00295483521188" flag="0"/>
			<psa03 value="0.014638702815132" flag="0"/>
			<psa10 value="0.00268646351189902" flag="0"/>
			<psa30 value="0.000816452940166336" flag="0"/>
		</comp>
	</station>
	<station code="G0LD" name="G0LD" netid="HC" source="Seismological Network of Crete (HC)" insttype="" lat="35.4955" lon="24.0306">
		<comp name=".HNE" depth="0.0">
			<acc value="0.013366846630266" flag="0"/>
			<vel value="0.00777461908632" flag="0"/>
			<psa03 value="0.0395732960158119" flag="0"/>
			<psa10 value="0.0102554331221291" flag="0"/>
			<psa30 value="0.00153774270123984" flag="0"/>
		</comp>
		<comp name=".HNN" depth="0.0">
			<acc value="0.014194953281994" flag="0"/>
			<vel value="0.00761433611179" flag="0"/>
			<psa03 value="0.0577412052797026" flag="0"/>
			<psa10 value="0.00845163862959075" flag="0"/>
			<psa30 value="0.00146108991503656" flag="0"/>
		</comp>
		<comp name=".HNZ" depth="0.0">
			<acc value="0.0088180497445374" flag="0"/>
			<vel value="0.00605618816844" flag="0"/>
			<psa03 value="0.0210516146182319" flag="0"/>
			<psa10 value="0.00490108998565961" flag="0"/>
			<psa30 value="0.00161403192169486" flag="0"/>
		</comp>
	</station>
	<station code="PASK" name="PASK" netid="HC" source="Seismological Network of Crete (HC)" insttype="" lat="35.4996" lon="24.0121">
		<comp name=".HNE" depth="0.0">
			<acc value="0.01100184502293" flag="0"/>
			<vel value="0.0069550879563" flag="0"/>
			<psa03 value="0.0223549574687171" flag="0"/>
			<psa10 value="0.00634782144952645" flag="0"/>
			<psa30 value="0.00106004188924089" flag="0"/>
		</comp>
		<comp name=".HNN" depth="0.0">
			<acc value="0.010999549658892" flag="0"/>
			<vel value="0.00586155954441" flag="0"/>
			<psa03 value="0.0278579730581568" flag="0"/>
			<psa10 value="0.00600273952702322" flag="0"/>
			<psa30 value="0.00133947050417898" flag="0"/>
		</comp>
		<comp name=".HNZ" depth="0.0">
			<acc value="0.0094520808787716" flag="0"/>
			<vel value="0.00375732246581" flag="0"/>
			<psa03 value="0.0264547186411243" flag="0"/>
			<psa10 value="0.00365099131338092" flag="0"/>
			<psa30 value="0.0010502938476476" flag="0"/>
		</comp>
	</station>
	<station code="POLY" name="POLY" netid="HC" source="Seismological Network of Crete (HC)" insttype="" lat="35.5226" lon="24.0602">
		<comp name=".HNE" depth="0.0">
			<acc value="0.0044664889137756" flag="0"/>
			<vel value="0.00304954300033" flag="0"/>
			<psa03 value="0.0160669094059921" flag="0"/>
			<psa10 value="0.00192407503865388" flag="0"/>
			<psa30 value="0.00101252363722301" flag="0"/>
		</comp>
		<comp name=".HNN" depth="0.0">
			<acc value="0.0053482729817106" flag="0"/>
			<vel value="0.00247424841686" flag="0"/>
			<psa03 value="0.0139252375828296" flag="0"/>
			<psa10 value="0.00201787179910504" flag="0"/>
			<psa30 value="0.000951351980734019" flag="0"/>
		</comp>
		<comp name=".HNZ" depth="0.0">
			<acc value="0.004564158413985" flag="0"/>
			<vel value="0.00261919325983" flag="0"/>
			<psa03 value="0.010232438265467" flag="0"/>
			<psa10 value="0.001727236452188" flag="0"/>
			<psa30 value="0.000746424863650047" flag="0"/>
		</comp>
	</station>
	<station code="ARK1" name="ARK1" netid="HI" source="ITSAK Strong Motion Network" insttype="" lat="35.148777" lon="25.264194">
		<comp name=".HNE" depth="0.0">
			<acc value="0.027436799308428" flag="0"/>
			<vel value="0.0133896345195" flag="0"/>
			<psa03 value="0.093895657626467" flag="0"/>
			<psa10 value="0.0114717905748325" flag="0"/>
			<psa30 value="0.00086516741726111" flag="0"/>
		</comp>
		<comp name=".HNN" depth="0.0">
			<acc value="0.032889093148686" flag="0"/>
			<vel value="0.0174126021622" flag="0"/>
			<psa03 value="0.112869529135557" flag="0"/>
			<psa10 value="0.00675334565724515" flag="0"/>
			<psa30 value="0.000826369534591448" flag="0"/>
		</comp>
		<comp name=".HNZ" depth="0.0">
			<acc value="0.01597224011013" flag="0"/>
			<vel value="0.00595346322463" flag="0"/>
			<psa03 value="0.0409708938081432" flag="0"/>
			<psa10 value="0.00656459518472571" flag="0"/>
			<psa30 value="0.000518970837605058" flag="0"/>
		</comp>
	</station>
	<station code="CH01" name="CH01" netid="HI" source="ITSAK Strong Motion Network" insttype="" lat="35.517" lon="24.0208">
		<comp name=".HNE" depth="0.0">
			<acc value="0.0096762692119824" flag="0"/>
			<vel value="0.00353126625905" flag="0"/>
			<psa03 value="0.0162977606362518" flag="0"/>
			<psa10 value="0.00442923513385009" flag="0"/>
			<psa30 value="0.000672120097573724" flag="0"/>
		</comp>
		<comp name=".HNN" depth="0.0">
			<acc value="0.011070014914878" flag="0"/>
			<vel value="0.0052819121555" flag="0"/>
			<psa03 value="0.0230405888259124" flag="0"/>
			<psa10 value="0.00435229222423072" flag="0"/>
			<psa30 value="0.000728903963393427" flag="0"/>
		</comp>
		<comp name=".HNZ" depth="0.0">
			<acc value="0.0067802912249946" flag="0"/>
			<vel value="0.00217795837966" flag="0"/>
			<psa03 value="0.0130136602682268" flag="0"/>
			<psa10 value="0.00314644835863692" flag="0"/>
			<psa30 value="0.000361653124411472" flag="0"/>
		</comp>
	</station>
	<station code="CH02" name="CH02" netid="HI" source="ITSAK Strong Motion Network" insttype="" lat="35.5145" lon="24.0315">
		<comp name=".HNE" depth="0.0">
			<acc value="0.011472205302" flag="0"/>
			<vel value="0.00442891377041" flag="0"/>
			<psa03 value="0.026169428908751" flag="0"/>
			<psa10 value="0.00374825658485311" flag="0"/>
			<psa30 value="0.00053733085594706" flag="0"/>
		</comp>
		<comp name=".HNN" depth="0.0">
			<acc value="0.013122686312964" flag="0"/>
			<vel value="0.00511274908856" flag="0"/>
			<psa03 value="0.0335603403953254" flag="0"/>
			<psa10 value="0.00413172183127746" flag="0"/>
			<psa30 value="0.00058503906846614" flag="0"/>
		</comp>
		<comp name=".HNZ" depth="0.0">
			<acc value="0.00596053105647" flag="0"/>
			<vel value="0.00207223430123" flag="0"/>
			<psa03 value="0.009527868804768" flag="0"/>
			<psa10 value="0.00285666267738182" flag="0"/>
			<psa30 value="0.000231823742601928" flag="0"/>
		</comp>
	</station>
	<station code="CH03" name="CH03" netid="HI" source="ITSAK Strong Motion Network" insttype="" lat="35.53303" lon="24.0705">
		<comp name=".HNE" depth="0.0">
			<acc value="0.0071799921732396" flag="0"/>
			<vel value="0.00319789773973" flag="0"/>
			<psa03 value="0.0172608752191206" flag="0"/>
			<psa10 value="0.00323071690976514" flag="0"/>
			<psa30 value="0.000459037231878843" flag="0"/>
		</comp>
		<comp name=".HNN" depth="0.0">
			<acc value="0.0072514766164182" flag="0"/>
			<vel value="0.00360715228887" flag="0"/>
			<psa03 value="0.0236883478826319" flag="0"/>
			<psa10 value="0.00321647604450319" flag="0"/>
			<psa30 value="0.00042277902266052" flag="0"/>
		</comp>
		<comp name=".HNZ" depth="0.0">
			<acc value="0.005187042826539" flag="0"/>
			<vel value="0.00197921888534" flag="0"/>
			<psa03 value="0.010589752300374" flag="0"/>
			<psa10 value="0.00177818697584669" flag="0"/>
			<psa30 value="0.000325804655876268" flag="0"/>
		</comp>
	</station>
	<station code="GOR1" name="GOR1" netid="HI" source="ITSAK Strong Motion Network" insttype="" lat="35.0582" lon="24.9628">
		<comp name=".HNE" depth="0.0">
			<acc value="0.01080693344682" flag="0"/>
			<vel value="0.00687321048948" flag="0"/>
			<psa03 value="0.0307030808034037" flag="0"/>
			<psa10 value="0.00529476153322622" flag="0"/>
			<psa30 value="0.000561382553421786" flag="0"/>
		</comp>
		<comp name=".HNN" depth="0.0">
			<acc value="0.0088494097356948" flag="0"/>
			<vel value="0.00485434991568" flag="0"/>
			<psa03 value="0.0240943513408638" flag="0"/>
			<psa10 value="0.00490310246274002" flag="0"/>
			<psa30 value="0.000816171306928473" flag="0"/>
		</comp>
		<comp name=".HNZ" depth="0.0">
			<acc value="0.0072271846540302" flag="0"/>
			<vel value="0.00310447496224" flag="0"/>
			<psa03 value="0.0195836189332258" flag="0"/>
			<psa10 value="0.00374821603529326" flag="0"/>
			<psa30 value="0.000372147777963661" flag="0"/>
		</comp>
	</station>
	<station code="HER3" name="HER3" netid="HI" source="ITSAK Strong Motion Network" insttype="" lat="35.3296" lon="25.1065">
		<comp name=".HNE" depth="0.0">
			<acc value="0.061197267593808" flag="0"/>
			<vel value="0.022882758215" flag="0"/>
			<psa03 value="0.142819169402294" flag="0"/>
			<psa10 value="0.0261086445695628" flag="0"/>
			<psa30 value="0.00105437005517387" flag="0"/>
		</comp>
		<comp name=".HNN" depth="0.0">
			<acc value="0.062211260524332" flag="0"/>
			<vel value="0.0259439306323" flag="0"/>
			<psa03 value="0.203046346657332" flag="0"/>
			<psa10 value="0.0278048594354605" flag="0"/>
			<psa30 value="0.00098169357404872" flag="0"/>
		</comp>
		<comp name=".HNZ" depth="0.0">
			<acc value="0.036562146655788" flag="0"/>
			<vel value="0.0140812375016" flag="0"/>
			<psa03 value="0.0965647615250552" flag="0"/>
			<psa10 value="0.0140800667978304" flag="0"/>
			<psa30 value="0.000628332457276036" flag="0"/>
		</comp>
	</station>
	<station code="KIS1" name="KIS1" netid="HI" source="ITSAK Strong Motion Network" insttype="" lat="35.493933" lon="23.658993">
		<comp name=".HNE" depth="0.0">
			<acc value="0.0053442914889348" flag="0"/>
			<vel value="0.00283394531995" flag="0"/>
			<psa03 value="0.0139153632307567" flag="0"/>
			<psa10 value="0.00535703112701415" flag="0"/>
			<psa30 value="0.000487791428373207" flag="0"/>
		</comp>
		<comp name=".HNN" depth="0.0">
			<acc value="0.0052089033187716" flag="0"/>
			<vel value="0.00226040176123" flag="0"/>
			<psa03 value="0.0142554730009654" flag="0"/>
			<psa10 value="0.00331071814695311" flag="0"/>
			<psa30 value="0.00048116442686511" flag="0"/>
		</comp>
		<comp name=".HNZ" depth="0.0">
			<acc value="0.0067869223076124" flag="0"/>
			<vel value="0.00179848605324" flag="0"/>
			<psa03 value="0.00808706828067503" flag="0"/>
			<psa10 value="0.00157383464944521" flag="0"/>
			<psa30 value="0.000393662979281921" flag="0"/>
		</comp>
	</station>
	<station code="KRL1" name="KRL1" netid="HI" source="ITSAK Strong Motion Network" insttype="" lat="37.7951" lon="26.7065">
		<comp name=".HNE" depth="0.0">
			<acc value="0.0099882444187392" flag="0"/>
			<vel value="0.0051357023175" flag="0"/>
			<psa03 value="0.0209859605293784" flag="0"/>
			<psa10 value="0.00621069127156478" flag="0"/>
			<psa30 value="0.000354270187411335" flag="0"/>
		</comp>
		<comp name=".HNN" depth="0.0">
			<acc value="0.0076859368461216" flag="0"/>
			<vel value="0.0028555790841" flag="0"/>
			<psa03 value="0.012229398679314" flag="0"/>
			<psa10 value="0.00483424040094661" flag="0"/>
			<psa30 value="0.000343077623042271" flag="0"/>
		</comp>
		<comp name=".HNZ" depth="0.0">
			<acc value="0.00465914279763" flag="0"/>
			<vel value="0.00277631248923" flag="0"/>
			<psa03 value="0.00814996111887783" flag="0"/>
			<psa10 value="0.0026636191079428" flag="0"/>
			<psa30 value="0.000324733933904586" flag="0"/>
		</comp>
	</station>
	<station code="KTL1" name="KTL1" netid="HI" source="ITSAK Strong Motion Network" insttype="" lat="35.20778" lon="25.34272">
		<comp name=".HNE" depth="0.0">
			<acc value="0.020907690352902" flag="0"/>
			<vel value="0.0106218600724" flag="0"/>
			<psa03 value="0.0585200693759206" flag="0"/>
			<psa10 value="0.00586182441086193" flag="0"/>
			<psa30 value="0.000603918027439276" flag="0"/>
		</comp>
		<comp name=".HNN" depth="0.0">
			<acc value="0.023247576045216" flag="0"/>
			<vel value="0.0117999043626" flag="0"/>
			<psa03 value="0.075712812477329" flag="0"/>
			<psa10 value="0.00890059587081461" flag="0"/>
			<psa30 value="0.000629248976322976" flag="0"/>
		</comp>
		<comp name=".HNZ" depth="0.0">
			<acc value="0.011633408792556" flag="0"/>
			<vel value="0.00541545504635" flag="0"/>
			<psa03 value="0.0279323894462132" flag="0"/>
			<psa10 value="0.00376499839704074" flag="0"/>
			<psa30 value="0.000369797075366468" flag="0"/>
		</comp>
	</station>
	<station code="NAX1" name="NAX1" netid="HI" source="ITSAK Strong Motion Network" insttype="" lat="37.101394" lon="25.374103">
		<comp name=".HNE" depth="0.0">
			<acc value="0.1114709267766" flag="0"/>
			<vel value="0.0306698554739" flag="0"/>
			<psa03 value="0.180393200164339" flag="0"/>
			<psa10 value="0.00718181294736729" flag="0"/>
			<psa30 value="0.000759881796774315" flag="0"/>
		</comp>
		<comp name=".HNN" depth="0.0">
			<acc value="0.08785149920988" flag="0"/>
			<vel value="0.0175500523" flag="0"/>
			<psa03 value="0.0461360823306848" flag="0"/>
			<psa10 value="0.00729615333436963" flag="0"/>
			<psa30 value="0.000575692095109186" flag="0"/>
		</comp>
		<comp name=".HNZ" depth="0.0">
			<acc value="0.059705754531036" flag="0"/>
			<vel value="0.0133911505483" flag="0"/>
			<psa03 value="0.0360672590705654" flag="0"/>
			<psa10 value="0.0108120318690427" flag="0"/>
			<psa30 value="0.000669614619098304" flag="0"/>
		</comp>
	</station>
	<station code="RTH1" name="RTH1" netid="HI" source="ITSAK Strong Motion Network" insttype="" lat="35.365393" lon="24.471773">
		<comp name=".HNE" depth="0.0">
			<acc value="0.008317844745765" flag="0"/>
			<vel value="0.00431115067706" flag="0"/>
			<psa03 value="0.0277598103053629" flag="0"/>
			<psa10 value="0.00253378503832493" flag="0"/>
			<psa30 value="0.00053981659353453" flag="0"/>
		</comp>
		<comp name=".HNN" depth="0.0">
			<acc value="0.0085761301505874" flag="0"/>
			<vel value="0.00383585191065" flag="0"/>
			<psa03 value="0.025269048950497" flag="0"/>
			<psa10 value="0.00202148141322399" flag="0"/>
			<psa30 value="0.000392823574717111" flag="0"/>
		</comp>
		<comp name=".HNZ" depth="0.0">
			<acc value="0.006778325399211" flag="0"/>
			<vel value="0.0022070371466" flag="0"/>
			<psa03 value="0.012085175583578" flag="0"/>
			<psa10 value="0.00157485729531723" flag="0"/>
			<psa30 value="0.000429745161216141" flag="0"/>
		</comp>
	</station>
	<station code="SFR2" name="SFR2" netid="HI" source="ITSAK Strong Motion Network" insttype="" lat="36.399841" lon="25.438209">
		<comp name=".HNE" depth="0.0">
			<acc value="0.53390551855698" flag="0"/>
			<vel value="0.193238319703" flag="0"/>
			<psa03 value="1.11355618429894" flag="0"/>
			<psa10 value="0.0778350861924735" flag="0"/>
			<psa30 value="0.00716538967190766" flag="0"/>
		</comp>
		<comp name=".HNN" depth="0.0">
			<acc value="0.83336775061062" flag="0"/>
			<vel value="0.291965853579" flag="0"/>
			<psa03 value="1.5997248072498" flag="0"/>
			<psa10 value="0.0770591072876954" flag="0"/>
			<psa30 value="0.00595378732584206" flag="0"/>
		</comp>
		<comp name=".HNZ" depth="0.0">
			<acc value="0.62425340335386" flag="0"/>
			<vel value="0.161066263756" flag="0"/>
			<psa03 value="0.901423798234124" flag="0"/>
			<psa10 value="0.0475371741046596" flag="0"/>
			<psa30 value="0.00460409958231616" flag="0"/>
		</comp>
	</station>
	<station code="AMGA" name="AMGA" netid="HL" source="National Observatory of Athens Seismic Network" insttype="" lat="36.831561" lon="25.893836">
		<comp name="00.HNE" depth="0.0">
			<acc value="0.22317117804078" flag="0"/>
			<vel value="0.031729788834" flag="0"/>
			<psa03 value="0.0538617607854541" flag="0"/>
			<psa10 value="0.0083111252587496" flag="0"/>
			<psa30 value="0.000597202009619856" flag="0"/>
		</comp>
		<comp name="00.HNN" depth="0.0">
			<acc value="0.19709505107052" flag="0"/>
			<vel value="0.0307796887547" flag="0"/>
			<psa03 value="0.0536352718237413" flag="0"/>
			<psa10 value="0.0146805078240857" flag="0"/>
			<psa30 value="0.00111819813763662" flag="0"/>
		</comp>
		<comp name="00.HNZ" depth="0.0">
			<acc value="0.1516593018765" flag="0"/>
			<vel value="0.0246863625464" flag="0"/>
			<psa03 value="0.05265048783648" flag="0"/>
			<psa10 value="0.0117524629179704" flag="0"/>
			<psa30 value="0.000894673851084005" flag="0"/>
		</comp>
	</station>
	<station code="ANAF" name="ANAF" netid="HL" source="National Observatory of Athens Seismic Network" insttype="" lat="36.35675" lon="25.77262">
		<comp name=".HNE" depth="0.0">
			<acc value="2.6706290426664" flag="0"/>
			<vel value="0.641304438439" flag="0"/>
			<psa03 value="2.87608152628588" flag="0"/>
			<psa10 value="0.107888347073658" flag="0"/>
			<psa30 value="0.0122186810943178" flag="0"/>
		</comp>
		<comp name=".HNN" depth="0.0">
			<acc value="3.0113684457528" flag="0"/>
			<vel value="0.651405624281" flag="0"/>
			<psa03 value="2.49417272670025" flag="0"/>
			<psa10 value="0.135379408221516" flag="0"/>
			<psa30 value="0.0127285040342492" flag="0"/>
		</comp>
		<comp name=".HNZ" depth="0.0">
			<acc value="1.565068606893" flag="0"/>
			<vel value="0.347238576967" flag="0"/>
			<psa03 value="2.07710143110758" flag="0"/>
			<psa10 value="0.0686356892774051" flag="0"/>
			<psa30 value="0.00521917866166042" flag="0"/>
		</comp>
	</station>
	<station code="CHNB" name="CHNB" netid="HL" source="National Observatory of Athens Seismic Network" insttype="" lat="35.48765" lon="24.06605">
		<comp name="00.HNE" depth="0.0">
			<acc value="0.015129718378578" flag="0"/>
			<vel value="0.0074057365916" flag="0"/>
			<psa03 value="0.0459257506889435" flag="0"/>
			<psa10 value="0.00874165377916783" flag="0"/>
			<psa30 value="0.000683591586670907" flag="0"/>
		</comp>
		<comp name="00.HNN" depth="0.0">
			<acc value="0.01451140716234" flag="0"/>
			<vel value="0.00850746647709" flag="0"/>
			<psa03 value="0.0453194969860966" flag="0"/>
			<psa10 value="0.00998072273638934" flag="0"/>
			<psa30 value="0.000612505106707036" flag="0"/>
		</comp>
		<comp name="00.HNZ" depth="0.0">
			<acc value="0.011372766720288" flag="0"/>
			<vel value="0.00441786684563" flag="0"/>
			<psa03 value="0.0456902923827955" flag="0"/>
			<psa10 value="0.00274500067094912" flag="0"/>
			<psa30 value="0.000329227851396266" flag="0"/>
		</comp>
	</station>
	<station code="HERG" name="HERG" netid="HL" source="National Observatory of Athens Seismic Network" insttype="" lat="35.32622" lon="25.06586">
		<comp name="00.HNE" depth="0.0">
			<acc value="0.032008352268258" flag="0"/>
			<vel value="0.0116739197959" flag="0"/>
			<psa03 value="0.0672998072404279" flag="0"/>
			<psa10 value="0.0159067631199924" flag="0"/>
			<psa30 value="0.000887942467663328" flag="0"/>
		</comp>
		<comp name="00.HNN" depth="0.0">
