<?xml version="1.0" encoding="UTF-8" standalone="yes"?>
<!DOCTYPE earthquake SYSTEM "stationlist.dtd">
<stationlist created="" xmlns="ch.ethz.sed.shakemap.usgs.xml">
  <station code="APE" name="APE" netid="GE" insttype="STS-2/N" lat="37.0727" lon="25.523">
    <comp name="--.HHE">
      <acc value="0.1412450344" flag="0"/>
      <vel value="0.0201274021" flag="0"/>
      <psa03 value="0.0674832990" flag="0"/>
      <psa10 value="0.0078279349" flag="0"/>
      <psa30 value="0.0006437500" flag="0"/>
    </comp>
    <comp name="--.HHN">
      <acc value="0.1367071598" flag="0"/>
      <vel value="0.0192138346" flag="0"/>
      <psa03 value="0.0762811101" flag="0"/>
      <psa10 value="0.0074215813" flag="0"/>
      <psa30 value="0.0006198486" flag="0"/>
    </comp>
    <comp name="--.HHZ">
      <acc value="0.0618266314" flag="0"/>
      <vel value="0.0111147930" flag="0"/>
      <psa03 value="0.0551506086" flag="0"/>
      <psa10 value="0.0085040567" flag="0"/>
      <psa30 value="0.0005148974" flag="0"/>
    </comp>
  </station>
  <station code="THERA" name="THERA" netid="GE" insttype="STS-2/N" lat="36.367" lon="25.4753">
    <comp name="--.HHN">
      <acc value="0.1882524554" flag="0"/>
      <vel value="0.0510744450" flag="0"/>
      <psa03 value="0.1971140718" flag="0"/>
      <psa10 value="0.0130321283" flag="0"/>
      <psa30 value="0.0009240349" flag="0"/>
    </comp>
    <comp name="--.HHE">
      <acc value="0.3093296793" flag="0"/>
      <vel value="0.0763161622" flag="0"/>
      <psa03 value="0.2882541349" flag="0"/>
      <psa10 value="0.0339441512" flag="0"/>
      <psa30 value="0.0022985869" flag="0"/>
    </comp>
    <comp name="--.HHZ">
      <acc value="0.1872119427" flag="0"/>
      <vel value="0.0465690912" flag="0"/>
      <psa03 value="0.2028209984" flag="0"/>
      <psa10 value="0.0133626975" flag="0"/>
      <psa30 value="0.0008797498" flag="0"/>
    </comp>
  </station>
  <station code="SERI" name="SERI" netid="HA" insttype="30" lat="37.1609" lon="24.4853">
    <comp name="--.HHN">
      <acc value="0.0651286268" flag="0"/>
      <vel value="0.0141573554" flag="0"/>
      <psa03 value="0.0567424034" flag="0"/>
      <psa10 value="0.0060396492" flag="0"/>
      <psa30 value="0.0003574525" flag="0"/>
    </comp>
    <comp name="--.HHE">
      <acc value="0.0442805474" flag="0"/>
      <vel value="0.0164988990" flag="0"/>
      <psa03 value="0.0512318236" flag="0"/>
      <psa10 value="0.0083059548" flag="0"/>
      <psa30 value="0.0008036424" flag="0"/>
    </comp>
    <comp name="--.HHZ">
      <acc value="0.0398358875" flag="0"/>
      <vel value="0.0164146347" flag="0"/>
      <psa03 value="0.0572950016" flag="0"/>
      <psa10 value="0.0112520113" flag="0"/>
      <psa30 value="0.0006836066" flag="0"/>
    </comp>
  </station>
  <station code="SNT1" name="SNT1" netid="HA" insttype="30" lat="36.4159" lon="25.4282">
    <comp name="--.HHZ">
      <acc value="0.2073983099" flag="0"/>
      <vel value="0.0543139506" flag="0"/>
      <psa03 value="0.2574018430" flag="0"/>
      <psa10 value="0.0256131503" flag="0"/>
      <psa30 value="0.0012572385" flag="0"/>
    </comp>
    <comp name="--.HHE">
      <acc value="0.3110512830" flag="0"/>
      <vel value="0.1173285955" flag="0"/>
      <psa03 value="0.5140757667" flag="0"/>
      <psa10 value="0.0375126597" flag="0"/>
      <psa30 value="0.0032731285" flag="0"/>
    </comp>
    <comp name="--.HHN">
      <acc value="0.2763930252" flag="0"/>
      <vel value="0.0753424550" flag="0"/>
      <psa03 value="0.3324300502" flag="0"/>
      <psa10 value="0.0270881385" flag="0"/>
      <psa30 value="0.0027951875" flag="0"/>
    </comp>
  </station>
  <station code="NAX1" name="NAX1" netid="HI" insttype="CMG-5TD,ACCELEROMETER,GURALP" lat="37.1014" lon="25.3741">
    <comp name="--.HNE">
      <acc value="0.1265495342" flag="0"/>
      <vel value="0.0299411429" flag="0"/>
      <psa03 value="0.1819456112" flag="0"/>
      <psa10 value="0.0071602094" flag="0"/>
      <psa30 value="0.0007570896" flag="0"/>
    </comp>
    <comp name="--.HNN">
      <acc value="0.0977730751" flag="0"/>
      <vel value="0.0171463668" flag="0"/>
      <psa03 value="0.0453680354" flag="0"/>
      <psa10 value="0.0072844854" flag="0"/>
      <psa30 value="0.0005011789" flag="0"/>
    </comp>
    <comp name="--.HNZ">
      <acc value="0.0655306893" flag="0"/>
      <vel value="0.0128894847" flag="0"/>
      <psa03 value="0.0356163741" flag="0"/>
      <psa10 value="0.0107423931" flag="0"/>
      <psa30 value="0.0006142884" flag="0"/>
    </comp>
  </station>
  <station code="SFR2" name="SFR2" netid="HI" insttype="unknown" lat="36.3998" lon="25.4382">
    <comp name="--.HNN">
      <acc value="0.8316661318" flag="0"/>
      <vel value="0.2874341115" flag="0"/>
      <psa03 value="1.5968727444" flag="0"/>
      <psa10 value="0.0768116129" flag="0"/>
      <psa30 value="0.0058630998" flag="0"/>
    </comp>
    <comp name="--.HNE">
      <acc value="0.5347953785" flag="0"/>
      <vel value="0.1927850797" flag="0"/>
      <psa03 value="1.1011943310" flag="0"/>
      <psa10 value="0.0777002038" flag="0"/>
      <psa30 value="0.0072269774" flag="0"/>
    </comp>
    <comp name="--.HNZ">
      <acc value="0.6222874204" flag="0"/>
      <vel value="0.1600352172" flag="0"/>
      <psa03 value="0.8963768703" flag="0"/>
      <psa10 value="0.0472488759" flag="0"/>
      <psa30 value="0.0044777301" flag="0"/>
    </comp>
  </station>
  <station code="APE" name="APE" netid="HL" insttype="120" lat="37.0727" lon="25.523">
    <comp name="--.HHE">
      <acc value="0.1363043605" flag="0"/>
      <vel value="0.0195522373" flag="0"/>
      <psa03 value="0.0654506095" flag="0"/>
      <psa10 value="0.0077305615" flag="0"/>
      <psa30 value="0.0006339903" flag="0"/>
    </comp>
    <comp name="--.HHZ">
      <acc value="0.0536602378" flag="0"/>
      <vel value="0.0106581338" flag="0"/>
      <psa03 value="0.0532732600" flag="0"/>
      <psa10 value="0.0084452377" flag="0"/>
      <psa30 value="0.0005088640" flag="0"/>
    </comp>
    <comp name="--.HHN">
      <acc value="0.1170323017" flag="0"/>
      <vel value="0.0185112947" flag="0"/>
      <psa03 value="0.0742756660" flag="0"/>
      <psa10 value="0.0073247263" flag="0"/>
      <psa30 value="0.0006125668" flag="0"/>
    </comp>
  </station>
  <station code="MILA" name="MILA" netid="HL" insttype="CMG-5" lat="36.7429" lon="24.4282">
    <comp name="00.HNN">
      <acc value="0.3027633539" flag="0"/>
      <vel value="0.1171439904" flag="0"/>
      <psa03 value="1.1744915485" flag="0"/>
      <psa10 value="0.0438966217" flag="0"/>
      <psa30 value="0.0031717396" flag="0"/>
    </comp>
    <comp name="00.HNE">
      <acc value="0.1966609108" flag="0"/>
      <vel value="0.0756804128" flag="0"/>
      <psa03 value="0.4526797358" flag="0"/>
      <psa10 value="0.0297250307" flag="0"/>
      <psa30 value="0.0024795302" flag="0"/>
    </comp>
    <comp name="00.HNZ">
      <acc value="0.2031935587" flag="0"/>
      <vel value="0.0824297770" flag="0"/>
      <psa03 value="0.4202574151" flag="0"/>
      <psa10 value="0.0260928981" flag="0"/>
      <psa30 value="0.0017519081" flag="0"/>
    </comp>
  </station>
  <station code="SANT" name="SANT" netid="HL" insttype="30" lat="36.3705" lon="25.4593">
    <comp name="--.HHE">
      <acc value="0.8616251560" flag="0"/>
      <vel value="0.1580478343" flag="0"/>
      <psa03 value="0.5498373772" flag="0"/>
      <psa10 value="0.0447028367" flag="0"/>
      <psa30 value="0.0045525001" flag="0"/>
    </comp>
    <comp name="--.HHN">
      <acc value="0.5553264973" flag="0"/>
      <vel value="0.1074418256" flag="0"/>
      <psa03 value="0.4420350757" flag="0"/>
      <psa10 value="0.0186265981" flag="0"/>
      <psa30 value="0.0017131475" flag="0"/>
    </comp>
    <comp name="--.HHZ">
      <acc value="0.8378642323" flag="0"/>
      <vel value="0.1302759737" flag="0"/>
      <psa03 value="0.4416009173" flag="0"/>
      <psa10 value="0.0211461912" flag="0"/>
      <psa30 value="0.0016516799" flag="0"/>
    </comp>
  </station>
  <station code="SAP3" name="SAP3" netid="HL" insttype="65535" lat="36.4356" lon="25.3454">
    <comp name="--.HHN">
      <acc value="0.2547557524" flag="0"/>
      <vel value="0.0606467688" flag="0"/>
      <psa03 value="0.3973483505" flag="0"/>
      <psa10 value="0.0284509479" flag="0"/>
      <psa30 value="0.0018838974" flag="0"/>
    </comp>
    <comp name="--.HHE">
      <acc value="0.2223694389" flag="0"/>
      <vel value="0.0719284380" flag="0"/>
      <psa03 value="0.3653815033" flag="0"/>
      <psa10 value="0.0426021616" flag="0"/>
      <psa30 value="0.0030325606" flag="0"/>
    </comp>
    <comp name="--.HHZ">
      <acc value="0.1967723303" flag="0"/>
      <vel value="0.0623858258" flag="0"/>
      <psa03 value="0.3604638270" flag="0"/>
      <psa10 value="0.0157589944" flag="0"/>
      <psa30 value="0.0014484990" flag="0"/>
    </comp>
  </station>
  <station code="THERA" name="THERA" netid="HL" insttype="120" lat="36.367" lon="25.4753">
    <comp name="--.HHZ">
      <acc value="0.1816871960" flag="0"/>
      <vel value="0.0452454828" flag="0"/>
      <psa03 value="0.1960481747" flag="0"/>
      <psa10 value="0.0131560642" flag="0"/>
      <psa30 value="0.0008755559" flag="0"/>
    </comp>
    <comp name="--.HHE">
      <acc value="0.3080945729" flag="0"/>
      <vel value="0.0739508359" flag="0"/>
      <psa03 value="0.2800331993" flag="0"/>
      <psa10 value="0.0335662735" flag="0"/>
      <psa30 value="0.0022811695" flag="0"/>
    </comp>
    <comp name="--.HHN">
      <acc value="0.3737037486" flag="0"/>
      <vel value="0.0992610519" flag="0"/>
      <psa03 value="0.3821157386" flag="0"/>
      <psa10 value="0.0256790747" flag="0"/>
      <psa30 value="0.0018158445" flag="0"/>
    </comp>
  </station>
  <station code="THRA" name="THRA" netid="HL" insttype="CMG-5" lat="36.415" lon="25.4324">
    <comp name="00.HNE">
      <acc value="0.7862121033" flag="0"/>
      <vel value="0.2465920068" flag="0"/>
      <psa03 value="1.5752394368" flag="0"/>
      <psa10 value="0.0937498569" flag="0"/>
      <psa30 value="0.0097697874" flag="0"/>
    </comp>
    <comp name="00.HNN">
      <acc value="0.7448416940" flag="0"/>
      <vel value="0.1938317956" flag="0"/>
      <psa03 value="1.1615126284" flag="0"/>
      <psa10 value="0.0996524737" flag="0"/>
      <psa30 value="0.0075613023" flag="0"/>
    </comp>
    <comp name="00.HNZ">
      <acc value="0.7076301849" flag="0"/>
      <vel value="0.2013267758" flag="0"/>
      <psa03 value="1.3128770730" flag="0"/>
      <psa10 value="0.0486424256" flag="0"/>
      <psa30 value="0.0042790728" flag="0"/>
    </comp>
  </station>
  <station code="CMBO" name="CMBO" netid="HT" insttype="120P," lat="36.4709" lon="25.4056">
    <comp name="--.HHZ">
      <acc value="0.3040993275" flag="0"/>
      <vel value="0.0780692524" flag="0"/>
      <psa03 value="0.4248859049" flag="0"/>
      <psa10 value="0.0219924719" flag="0"/>
      <psa30 value="0.0013603220" flag="0"/>
    </comp>
    <comp name="--.HHN">
      <acc value="0.4182561796" flag="0"/>
      <vel value="0.1233908359" flag="0"/>
      <psa03 value="0.5109851326" flag="0"/>
      <psa10 value="0.0534305751" flag="0"/>
      <psa30 value="0.0038662557" flag="0"/>
    </comp>
    <comp name="--.HHE">
      <acc value="0.2546032059" flag="0"/>
      <vel value="0.0873707139" flag="0"/>
      <psa03 value="0.4210128995" flag="0"/>
      <psa10 value="0.0413173840" flag="0"/>
      <psa30 value="0.0033634016" flag="0"/>
    </comp>
  </station>
</stationlist>
