<?xml version="1.0" encoding="UTF-8" standalone="yes"?>
<!DOCTYPE earthquake SYSTEM "stationlist.dtd">
<stationlist created="" xmlns="ch.ethz.sed.shakemap.usgs.xml">
  <station code="APE" name="APE" netid="GE" insttype="STS-2/N" lat="37.0727" lon="25.523">
    <comp name="--.HHE">
      <acc value="0.1412450340" flag="0"/>
      <vel value="0.0201273985" flag="0"/>
      <psa03 value="0.0674832990" flag="0"/>
      <psa10 value="0.0078279398" flag="0"/>
      <psa30 value="0.0006424867" flag="0"/>
    </comp>
    <comp name="--.HHN">
      <acc value="0.1367071600" flag="0"/>
      <vel value="0.0192138431" flag="0"/>
      <psa03 value="0.0762811101" flag="0"/>
      <psa10 value="0.0074215857" flag="0"/>
      <psa30 value="0.0006195828" flag="0"/>
    </comp>
    <comp name="--.HHZ">
      <acc value="0.0618266314" flag="0"/>
      <vel value="0.0111147962" flag="0"/>
      <psa03 value="0.0551506086" flag="0"/>
      <psa10 value="0.0085040559" flag="0"/>
      <psa30 value="0.0005167004" flag="0"/>
    </comp>
  </station>
</stationlist>
