<?xml version="1.0" encoding="UTF-8" standalone="yes"?>
<!DOCTYPE earthquake SYSTEM "stationlist.dtd">
<stationlist created="" xmlns="ch.ethz.sed.shakemap.usgs.xml">
  <station code="ANTB" name="ANTB" netid="KO" insttype="CMG-3T" lat="36.8998" lon="30.6538">
    <comp name="--.HHE">
      <acc value="0.0051054135" flag="0"/>
      <vel value="0.0019233609" flag="0"/>
      <psa03 value="0.0086464113" flag="0"/>
      <psa10 value="0.0016971915" flag="0"/>
      <psa30 value="0.0005886950" flag="0"/>
    </comp>
    <comp name="--.HHN">
      <acc value="0.0050056948" flag="0"/>
      <vel value="0.0022979371" flag="0"/>
      <psa03 value="0.0085149843" flag="0"/>
      <psa10 value="0.0023873469" flag="0"/>
      <psa30 value="0.0008344361" flag="0"/>
    </comp>
    <comp name="--.HHZ">
      <acc value="0.0078969718" flag="0"/>
      <vel value="0.0023212625" flag="0"/>
      <psa03 value="0.0155889150" flag="0"/>
      <psa10 value="0.0020117589" flag="0"/>
      <psa30 value="0.0003591043" flag="0"/>
    </comp>
  </station>
  <station code="KEMT" name="KEMT" netid="KO" insttype="CMG-5T" lat="36.6037" lon="30.5558">
    <comp name="--.HNN">
      <acc value="0.0256623072" flag="0"/>
      <vel value="0.0113514340" flag="0"/>
      <psa03 value="0.0909178455" flag="0"/>
      <psa10 value="0.0036085729" flag="0"/>
      <psa30 value="0.0005113427" flag="0"/>
    </comp>
    <comp name="--.HNZ">
      <acc value="0.0221629898" flag="0"/>
      <vel value="0.0042569465" flag="0"/>
      <psa03 value="0.0230630187" flag="0"/>
      <psa10 value="0.0015639721" flag="0"/>
      <psa30 value="0.0006799270" flag="0"/>
    </comp>
    <comp name="--.HNE">
      <acc value="0.0274565099" flag="0"/>
      <vel value="0.0122397224" flag="0"/>
      <psa03 value="0.0947966515" flag="0"/>
      <psa10 value="0.0045949730" flag="0"/>
      <psa30 value="0.0007680965" flag="0"/>
    </comp>
  </station>
</stationlist>
