<?xml version="1.0" encoding="UTF-8" standalone="yes"?>
<!DOCTYPE earthquake SYSTEM "stationlist.dtd">
<stationlist created="" xmlns="ch.ethz.sed.shakemap.usgs.xml">
  <station code="KEMT" name="KEMT" netid="KO" insttype="CMG-5T" lat="36.6037" lon="30.5558">
    <comp name="--.HNZ">
      <acc value="0.0221628732" flag="0"/>
      <vel value="0.0042569387" flag="0"/>
      <psa03 value="0.0230630187" flag="0"/>
      <psa10 value="0.0015639728" flag="0"/>
      <psa30 value="0.0006786208" flag="0"/>
    </comp>
    <comp name="--.HNE">
      <acc value="0.0274565221" flag="0"/>
      <vel value="0.0122397207" flag="0"/>
      <psa03 value="0.0947966515" flag="0"/>
      <psa10 value="0.0045949700" flag="0"/>
      <psa30 value="0.0007642050" flag="0"/>
    </comp>
    <comp name="--.HNN">
      <acc value="0.0256623294" flag="0"/>
      <vel value="0.0113513838" flag="0"/>
      <psa03 value="0.0909178455" flag="0"/>
      <psa10 value="0.0036085752" flag="0"/>
      <psa30 value="0.0005093568" flag="0"/>
    </comp>
  </station>
</stationlist>
