<?xml version="1.0" encoding="UTF-8" standalone="yes"?>
<!DOCTYPE earthquake SYSTEM "stationlist.dtd">
<stationlist created="" xmlns="ch.ethz.sed.shakemap.usgs.xml">
  <station code="AYVL" name="AYVL" netid="KO" insttype="CMG-6T" commtype="DIG" lat="39.2907" lon="26.69">
    <comp name="--.HHN">
      <acc value="0.0910617579" flag="0"/>
      <vel value="0.0590018085" flag="0"/>
      <psa03 value="0.3255793005" flag="0"/>
      <psa10 value="0.0205504592" flag="0"/>
      <psa30 value="0.0017648730" flag="0"/>
    </comp>
    <comp name="--.HHZ">
      <acc value="0.0453802626" flag="0"/>
      <vel value="0.0106105141" flag="0"/>
      <psa03 value="0.0609877511" flag="0"/>
      <psa10 value="0.0068238105" flag="0"/>
      <psa30 value="0.0003642053" flag="0"/>
    </comp>
    <comp name="--.HHE">
      <acc value="0.0785772621" flag="0"/>
      <vel value="0.0332855992" flag="0"/>
      <psa03 value="0.2667904913" flag="0"/>
      <psa10 value="0.0163315881" flag="0"/>
      <psa30 value="0.0011340530" flag="0"/>
    </comp>
  </station>
  <station code="SHAP" name="SHAP" netid="KO" insttype="CMG-5T" commtype="DIG" lat="39.0231" lon="29.222">
    <comp name="--.HNE">
      <acc value="0.0766398911" flag="0"/>
      <vel value="0.0221436757" flag="0"/>
      <psa03 value="0.1017216521" flag="0"/>
      <psa10 value="0.0067568224" flag="0"/>
      <psa30 value="0.0004423468" flag="0"/>
    </comp>
    <comp name="--.HNN">
      <acc value="0.0978368679" flag="0"/>
      <vel value="0.0336411005" flag="0"/>
      <psa03 value="0.1305357166" flag="0"/>
      <psa10 value="0.0094305299" flag="0"/>
      <psa30 value="0.0006871047" flag="0"/>
    </comp>
    <comp name="--.HNZ">
      <acc value="0.0588007062" flag="0"/>
      <vel value="0.0158471156" flag="0"/>
      <psa03 value="0.0407288013" flag="0"/>
      <psa10 value="0.0076187746" flag="0"/>
      <psa30 value="0.0004088633" flag="0"/>
    </comp>
  </station>
  <station code="SMAA" name="SMAA" netid="KO" insttype="CMG-5T" commtype="DIG" lat="39.1005" lon="28.9805">
    <comp name="--.HNE">
      <acc value="0.0722556601" flag="0"/>
      <vel value="0.0384629680" flag="0"/>
      <psa03 value="0.1480244808" flag="0"/>
      <psa10 value="0.0484511765" flag="0"/>
      <psa30 value="0.0024670002" flag="0"/>
    </comp>
    <comp name="--.HNZ">
      <acc value="0.0398151892" flag="0"/>
      <vel value="0.0149849937" flag="0"/>
      <psa03 value="0.0307846974" flag="0"/>
      <psa10 value="0.0453186472" flag="0"/>
      <psa30 value="0.0011860788" flag="0"/>
    </comp>
    <comp name="--.HNN">
      <acc value="0.0524229328" flag="0"/>
      <vel value="0.0372715344" flag="0"/>
      <psa03 value="0.1322298322" flag="0"/>
      <psa10 value="0.0510525970" flag="0"/>
      <psa30 value="0.0032307580" flag="0"/>
    </comp>
  </station>
  <station code="YAYO" name="YAYO" netid="KO" insttype="CMG-6T" commtype="DIG" lat="39.6113" lon="27.0726">
    <comp name="--.HHE">
      <acc value="0.0255803631" flag="0"/>
      <vel value="0.0140745115" flag="0"/>
      <psa03 value="0.0745779032" flag="0"/>
      <psa10 value="0.0103794733" flag="0"/>
      <psa30 value="0.0008585638" flag="0"/>
    </comp>
    <comp name="--.HHZ">
      <acc value="0.0458520715" flag="0"/>
      <vel value="0.0188241426" flag="0"/>
      <psa03 value="0.0884908905" flag="0"/>
      <psa10 value="0.0099249550" flag="0"/>
      <psa30 value="0.0006673958" flag="0"/>
    </comp>
    <comp name="--.HHN">
      <acc value="0.0350743335" flag="0"/>
      <vel value="0.0189423776" flag="0"/>
      <psa03 value="0.1031931024" flag="0"/>
      <psa10 value="0.0092814699" flag="0"/>
      <psa30 value="0.0006754023" flag="0"/>
    </comp>
  </station>
</stationlist>
