<?xml version="1.0" encoding="UTF-8" standalone="yes"?>
<!DOCTYPE earthquake SYSTEM "stationlist.dtd">
<stationlist created="" xmlns="ch.ethz.sed.shakemap.usgs.xml">
  <station code="GORD" name="GORD" netid="KO" insttype="CMG-5T" commtype="DIG" lat="38.9088" lon="28.1769">
    <comp name="--.HNE">
      <acc value="0.1249955876" flag="0"/>
      <vel value="0.0532195274" flag="0"/>
      <psa03 value="0.2828682125" flag="0"/>
      <psa10 value="0.0642478910" flag="0"/>
      <psa30 value="0.0037023656" flag="0"/>
    </comp>
    <comp name="--.HNN">
      <acc value="0.1615638505" flag="0"/>
      <vel value="0.0946326317" flag="0"/>
      <psa03 value="0.3223208623" flag="0"/>
      <psa10 value="0.0651307517" flag="0"/>
      <psa30 value="0.0043839147" flag="0"/>
    </comp>
    <comp name="--.HNZ">
      <acc value="0.1162869930" flag="0"/>
      <vel value="0.0423860424" flag="0"/>
      <psa03 value="0.2601732737" flag="0"/>
      <psa10 value="0.0278163977" flag="0"/>
      <psa30 value="0.0022430191" flag="0"/>
    </comp>
  </station>
</stationlist>
