<?xml version="1.0" encoding="UTF-8" standalone="yes"?>
<!DOCTYPE earthquake SYSTEM "stationlist.dtd">
<stationlist created="" xmlns="ch.ethz.sed.shakemap.usgs.xml">
  <station code="AYVL" name="AYVL" netid="KO" insttype="CMG-6T" commtype="DIG" lat="39.2907" lon="26.69">
    <comp name="--.HHZ">
      <acc value="0.0453802610" flag="0"/>
      <vel value="0.0106105178" flag="0"/>
      <psa03 value="0.0609877511" flag="0"/>
      <psa10 value="0.0068238105" flag="0"/>
      <psa30 value="0.0003641462" flag="0"/>
    </comp>
    <comp name="--.HHE">
      <acc value="0.0785772595" flag="0"/>
      <vel value="0.0332855986" flag="0"/>
      <psa03 value="0.2667904913" flag="0"/>
      <psa10 value="0.0163315881" flag="0"/>
      <psa30 value="0.0011340924" flag="0"/>
    </comp>
    <comp name="--.HHN">
      <acc value="0.0910617576" flag="0"/>
      <vel value="0.0590017989" flag="0"/>
      <psa03 value="0.3255793005" flag="0"/>
      <psa10 value="0.0205504591" flag="0"/>
      <psa30 value="0.0017648432" flag="0"/>
    </comp>
  </station>
</stationlist>
