<?xml version="1.0" encoding="UTF-8" standalone="yes"?>
<!DOCTYPE earthquake SYSTEM "stationlist.dtd">
<stationlist created="" xmlns="ch.ethz.sed.shakemap.usgs.xml">
  <station code="APE" name="APE" netid="GE" insttype="STS-2/N" lat="37.0727" lon="25.523">
    <comp name="--.HHN">
      <acc value="0.0679914919" flag="0"/>
      <vel value="0.0125266918" flag="0"/>
      <psa03 value="0.0319028097" flag="0"/>
      <psa10 value="0.0026363696" flag="0"/>
      <psa30 value="0.0005460389" flag="0"/>
    </comp>
    <comp name="--.HHZ">
      <acc value="0.0307303570" flag="0"/>
      <vel value="0.0066171302" flag="0"/>
      <psa03 value="0.0203783619" flag="0"/>
      <psa10 value="0.0018029760" flag="0"/>
      <psa30 value="0.0006370718" flag="0"/>
    </comp>
    <comp name="--.HHE">
      <acc value="0.0570203252" flag="0"/>
      <vel value="0.0120388569" flag="0"/>
      <psa03 value="0.0479882804" flag="0"/>
      <psa10 value="0.0028433318" flag="0"/>
      <psa30 value="0.0005952598" flag="0"/>
    </comp>
  </station>
  <station code="THERA" name="THERA" netid="GE" insttype="STS-2/N" lat="36.367" lon="25.4753">
    <comp name="--.HHE">
      <acc value="0.0938347854" flag="0"/>
      <vel value="0.0238510531" flag="0"/>
      <psa03 value="0.1205050977" flag="0"/>
      <psa10 value="0.0056344917" flag="0"/>
      <psa30 value="0.0009547367" flag="0"/>
    </comp>
    <comp name="--.HHZ">
      <acc value="0.0915881962" flag="0"/>
      <vel value="0.0238299064" flag="0"/>
      <psa03 value="0.0803821253" flag="0"/>
      <psa10 value="0.0102344221" flag="0"/>
      <psa30 value="0.0007651178" flag="0"/>
    </comp>
    <comp name="--.HHN">
      <acc value="0.0959329804" flag="0"/>
      <vel value="0.0234772994" flag="0"/>
      <psa03 value="0.0996624629" flag="0"/>
      <psa10 value="0.0050047837" flag="0"/>
      <psa30 value="0.0004917335" flag="0"/>
    </comp>
  </station>
</stationlist>
