<?xml version="1.0" encoding="UTF-8" standalone="yes"?>
<!DOCTYPE earthquake SYSTEM "stationlist.dtd">
<stationlist created="" xmlns="ch.ethz.sed.shakemap.usgs.xml">
  <station code="MYT1" name="MYT1" netid="HI" insttype="CMG-5TD,ACCELEROMETER,GURALP" lat="39.085" lon="26.5694">
    <comp name="--.HNE">
      <acc value="0.0730140168" flag="0"/>
      <vel value="0.0438635526" flag="0"/>
      <psa03 value="0.2164520357" flag="0"/>
      <psa10 value="0.0575411861" flag="0"/>
      <psa30 value="0.0035452241" flag="0"/>
    </comp>
    <comp name="--.HNZ">
      <acc value="0.0397336679" flag="0"/>
      <vel value="0.0226763913" flag="0"/>
      <psa03 value="0.0818781317" flag="0"/>
      <psa10 value="0.0250142909" flag="0"/>
      <psa30 value="0.0012682233" flag="0"/>
    </comp>
    <comp name="--.HNN">
      <acc value="0.0567793088" flag="0"/>
      <vel value="0.0498903829" flag="0"/>
      <psa03 value="0.1458400259" flag="0"/>
      <psa10 value="0.0770829607" flag="0"/>
      <psa30 value="0.0044119689" flag="0"/>
    </comp>
  </station>
  <station code="AKS" name="AKS" netid="KO" insttype="CMG-5T" lat="38.8785" lon="27.8129">
    <comp name="--.HNE">
      <acc value="0.1603169557" flag="0"/>
      <vel value="0.0463181479" flag="0"/>
      <psa03 value="0.2857822134" flag="0"/>
      <psa10 value="0.0447255732" flag="0"/>
      <psa30 value="0.0030887355" flag="0"/>
    </comp>
    <comp name="--.HNN">
      <acc value="0.2249758912" flag="0"/>
      <vel value="0.0848652798" flag="0"/>
      <psa03 value="0.6130102925" flag="0"/>
      <psa10 value="0.0321201680" flag="0"/>
      <psa30 value="0.0023458621" flag="0"/>
    </comp>
    <comp name="--.HNZ">
      <acc value="0.1714420669" flag="0"/>
      <vel value="0.0197858105" flag="0"/>
      <psa03 value="0.1021281060" flag="0"/>
      <psa10 value="0.0145757890" flag="0"/>
      <psa30 value="0.0010503068" flag="0"/>
    </comp>
  </station>
  <station code="BIGA" name="BIGA" netid="KO" insttype="CMG-5T" lat="40.2813" lon="27.1505">
    <comp name="--.HNE">
      <acc value="0.1347624627" flag="0"/>
      <vel value="0.0504430502" flag="0"/>
      <psa03 value="0.2173239081" flag="0"/>
      <psa10 value="0.0396001558" flag="0"/>
      <psa30 value="0.0030718524" flag="0"/>
    </comp>
    <comp name="--.HNZ">
      <acc value="0.0693915323" flag="0"/>
      <vel value="0.0206868709" flag="0"/>
      <psa03 value="0.0951653594" flag="0"/>
      <psa10 value="0.0137358860" flag="0"/>
      <psa30 value="0.0007088609" flag="0"/>
    </comp>
    <comp name="--.HNN">
      <acc value="0.1632155484" flag="0"/>
      <vel value="0.0754101268" flag="0"/>
      <psa03 value="0.4128985881" flag="0"/>
      <psa10 value="0.0346700861" flag="0"/>
      <psa30 value="0.0032571883" flag="0"/>
    </comp>
  </station>
  <station code="EDC" name="EDC" netid="KO" insttype="120s," lat="40.3465" lon="27.8618">
    <comp name="--.HHE">
      <acc value="0.0539070574" flag="0"/>
      <vel value="0.0179701957" flag="0"/>
      <psa03 value="0.1825040123" flag="0"/>
      <psa10 value="0.0093909487" flag="0"/>
      <psa30 value="0.0007321321" flag="0"/>
    </comp>
    <comp name="--.HHZ">
      <acc value="0.0541018764" flag="0"/>
      <vel value="0.0183343685" flag="0"/>
      <psa03 value="0.1014371079" flag="0"/>
      <psa10 value="0.0058711673" flag="0"/>
      <psa30 value="0.0005950000" flag="0"/>
    </comp>
    <comp name="--.HHN">
      <acc value="0.0694574784" flag="0"/>
      <vel value="0.0252988706" flag="0"/>
      <psa03 value="0.2297492250" flag="0"/>
      <psa10 value="0.0117453306" flag="0"/>
      <psa30 value="0.0009654832" flag="0"/>
    </comp>
  </station>
  <station code="FOCM" name="FOCM" netid="KO" insttype="CMG-5T" lat="38.7131" lon="26.7309">
    <comp name="--.HNZ">
      <acc value="0.0469426281" flag="0"/>
      <vel value="0.0139329984" flag="0"/>
      <psa03 value="0.0727024214" flag="0"/>
      <psa10 value="0.0066111437" flag="0"/>
      <psa30 value="0.0009681942" flag="0"/>
    </comp>
    <comp name="--.HNE">
      <acc value="0.0519179048" flag="0"/>
      <vel value="0.0228483813" flag="0"/>
      <psa03 value="0.0965458971" flag="0"/>
      <psa10 value="0.0151678318" flag="0"/>
      <psa30 value="0.0018176201" flag="0"/>
    </comp>
    <comp name="--.HNN">
      <acc value="0.0590076570" flag="0"/>
      <vel value="0.0170592280" flag="0"/>
      <psa03 value="0.0884799448" flag="0"/>
      <psa10 value="0.0126489682" flag="0"/>
      <psa30 value="0.0014963664" flag="0"/>
    </comp>
  </station>
  <station code="GOMA" name="GOMA" netid="KO" insttype="CMG-5T" lat="38.7077" lon="27.9175">
    <comp name="--.HNE">
      <acc value="0.0467184383" flag="0"/>
      <vel value="0.0193978689" flag="0"/>
      <psa03 value="0.1499248905" flag="0"/>
      <psa10 value="0.0159427586" flag="0"/>
      <psa30 value="0.0011920778" flag="0"/>
    </comp>
    <comp name="--.HNN">
      <acc value="0.0501787786" flag="0"/>
      <vel value="0.0209172384" flag="0"/>
      <psa03 value="0.1524286433" flag="0"/>
      <psa10 value="0.0126242636" flag="0"/>
      <psa30 value="0.0019115556" flag="0"/>
    </comp>
    <comp name="--.HNZ">
      <acc value="0.0429729544" flag="0"/>
      <vel value="0.0131991326" flag="0"/>
      <psa03 value="0.0627972020" flag="0"/>
      <psa10 value="0.0064394843" flag="0"/>
      <psa30 value="0.0010331094" flag="0"/>
    </comp>
  </station>
  <station code="GONE" name="GONE" netid="KO" insttype="CMG-5T" lat="40.0466" lon="27.686">
    <comp name="--.HNZ">
      <acc value="0.0613273352" flag="0"/>
      <vel value="0.0133713201" flag="0"/>
      <psa03 value="0.0404585175" flag="0"/>
      <psa10 value="0.0070522904" flag="0"/>
      <psa30 value="0.0006598182" flag="0"/>
    </comp>
    <comp name="--.HNN">
      <acc value="0.0602321609" flag="0"/>
      <vel value="0.0185468440" flag="0"/>
      <psa03 value="0.0862421989" flag="0"/>
      <psa10 value="0.0178357905" flag="0"/>
      <psa30 value="0.0011098678" flag="0"/>
    </comp>
  </station>
  <station code="SMAA" name="SMAA" netid="KO" insttype="CMG-5T" lat="39.1005" lon="28.9805">
    <comp name="--.HNZ">
      <acc value="0.0645561384" flag="0"/>
      <vel value="0.0208266532" flag="0"/>
      <psa03 value="0.1173470009" flag="0"/>
      <psa10 value="0.0509828475" flag="0"/>
      <psa30 value="0.0016240489" flag="0"/>
    </comp>
    <comp name="--.HNE">
      <acc value="0.1053633233" flag="0"/>
      <vel value="0.0536766981" flag="0"/>
      <psa03 value="0.2099270714" flag="0"/>
      <psa10 value="0.0790944665" flag="0"/>
      <psa30 value="0.0036943300" flag="0"/>
    </comp>
    <comp name="--.HNN">
      <acc value="0.0687233671" flag="0"/>
      <vel value="0.0464105722" flag="0"/>
      <psa03 value="0.2060079997" flag="0"/>
      <psa10 value="0.0881208728" flag="0"/>
      <psa30 value="0.0035924900" flag="0"/>
    </comp>
  </station>
  <station code="YENI" name="YENI" netid="KO" insttype="CMG-5T" lat="39.9364" lon="27.2422">
    <comp name="--.HNN">
      <acc value="0.1956079055" flag="0"/>
      <vel value="0.0454709625" flag="0"/>
      <psa03 value="0.2036504974" flag="0"/>
      <psa10 value="0.0292932890" flag="0"/>
      <psa30 value="0.0021840007" flag="0"/>
    </comp>
    <comp name="--.HNZ">
      <acc value="0.1328825434" flag="0"/>
      <vel value="0.0180264406" flag="0"/>
      <psa03 value="0.0799316881" flag="0"/>
      <psa10 value="0.0069240529" flag="0"/>
      <psa30 value="0.0004788929" flag="0"/>
    </comp>
    <comp name="--.HNE">
      <acc value="0.1795006912" flag="0"/>
      <vel value="0.0437368926" flag="0"/>
      <psa03 value="0.1909158114" flag="0"/>
      <psa10 value="0.0245025576" flag="0"/>
      <psa30 value="0.0012000005" flag="0"/>
    </comp>
  </station>
</stationlist>
