<?xml version="1.0" encoding="UTF-8" standalone="yes"?>
<!DOCTYPE earthquake SYSTEM "stationlist.dtd">
<stationlist created="" xmlns="ch.ethz.sed.shakemap.usgs.xml">
  <station code="MYT1" name="MYT1" netid="HI" insttype="CMG-5TD,ACCELEROMETER,GURALP" lat="39.085" lon="26.5694">
    <comp name="--.HNE">
      <acc value="0.0730140167" flag="0"/>
      <vel value="0.0438635527" flag="0"/>
      <psa03 value="0.2164520357" flag="0"/>
      <psa10 value="0.0575411860" flag="0"/>
      <psa30 value="0.0035451861" flag="0"/>
    </comp>
    <comp name="--.HNN">
      <acc value="0.0567793090" flag="0"/>
      <vel value="0.0498903829" flag="0"/>
      <psa03 value="0.1458400259" flag="0"/>
      <psa10 value="0.0770829608" flag="0"/>
      <psa30 value="0.0044120333" flag="0"/>
    </comp>
    <comp name="--.HNZ">
      <acc value="0.0397336684" flag="0"/>
      <vel value="0.0226763913" flag="0"/>
      <psa03 value="0.0818781317" flag="0"/>
      <psa10 value="0.0250142909" flag="0"/>
      <psa30 value="0.0012682575" flag="0"/>
    </comp>
  </station>
  <station code="AKS" name="AKS" netid="KO" insttype="CMG-5T" lat="38.8785" lon="27.8129">
    <comp name="--.HNE">
      <acc value="0.1603169970" flag="0"/>
      <vel value="0.0463181413" flag="0"/>
      <psa03 value="0.2857822134" flag="0"/>
      <psa10 value="0.0447255714" flag="0"/>
      <psa30 value="0.0030845188" flag="0"/>
    </comp>
    <comp name="--.HNN">
      <acc value="0.2249758731" flag="0"/>
      <vel value="0.0848652811" flag="0"/>
      <psa03 value="0.6130102925" flag="0"/>
      <psa10 value="0.0321201684" flag="0"/>
      <psa30 value="0.0023443624" flag="0"/>
    </comp>
    <comp name="--.HNZ">
      <acc value="0.1714420519" flag="0"/>
      <vel value="0.0197858153" flag="0"/>
      <psa03 value="0.1021281060" flag="0"/>
      <psa10 value="0.0145757920" flag="0"/>
      <psa30 value="0.0010508361" flag="0"/>
    </comp>
  </station>
  <station code="BIGA" name="BIGA" netid="KO" insttype="CMG-5T" lat="40.2813" lon="27.1505">
    <comp name="--.HNE">
      <acc value="0.1347624620" flag="0"/>
      <vel value="0.0504430508" flag="0"/>
      <psa03 value="0.2173239081" flag="0"/>
      <psa10 value="0.0396001558" flag="0"/>
      <psa30 value="0.0030717414" flag="0"/>
    </comp>
    <comp name="--.HNN">
      <acc value="0.1632155503" flag="0"/>
      <vel value="0.0754101278" flag="0"/>
      <psa03 value="0.4128985881" flag="0"/>
      <psa10 value="0.0346700863" flag="0"/>
      <psa30 value="0.0032575763" flag="0"/>
    </comp>
    <comp name="--.HNZ">
      <acc value="0.0693915337" flag="0"/>
      <vel value="0.0206868736" flag="0"/>
      <psa03 value="0.0951653594" flag="0"/>
      <psa10 value="0.0137358859" flag="0"/>
      <psa30 value="0.0007086553" flag="0"/>
    </comp>
  </station>
  <station code="EDC" name="EDC" netid="KO" insttype="120s," lat="40.3465" lon="27.8618">
    <comp name="--.HHE">
      <acc value="0.0539070569" flag="0"/>
      <vel value="0.0179701976" flag="0"/>
      <psa03 value="0.1825040123" flag="0"/>
      <psa10 value="0.0093909487" flag="0"/>
      <psa30 value="0.0007320993" flag="0"/>
    </comp>
    <comp name="--.HHN">
      <acc value="0.0694574787" flag="0"/>
      <vel value="0.0252988705" flag="0"/>
      <psa03 value="0.2297492250" flag="0"/>
      <psa10 value="0.0117453306" flag="0"/>
      <psa30 value="0.0009654818" flag="0"/>
    </comp>
    <comp name="--.HHZ">
      <acc value="0.0541018764" flag="0"/>
      <vel value="0.0183343684" flag="0"/>
      <psa03 value="0.1014371079" flag="0"/>
      <psa10 value="0.0058711686" flag="0"/>
      <psa30 value="0.0005950035" flag="0"/>
    </comp>
  </station>
  <station code="FOCM" name="FOCM" netid="KO" insttype="CMG-5T" lat="38.7131" lon="26.7309">
    <comp name="--.HNZ">
      <acc value="0.0469426257" flag="0"/>
      <vel value="0.0139329990" flag="0"/>
      <psa03 value="0.0727024214" flag="0"/>
      <psa10 value="0.0066111437" flag="0"/>
      <psa30 value="0.0009682396" flag="0"/>
    </comp>
    <comp name="--.HNE">
      <acc value="0.0519178949" flag="0"/>
      <vel value="0.0228483802" flag="0"/>
      <psa03 value="0.0965458971" flag="0"/>
      <psa10 value="0.0151678319" flag="0"/>
      <psa30 value="0.0018171438" flag="0"/>
    </comp>
    <comp name="--.HNN">
      <acc value="0.0590076675" flag="0"/>
      <vel value="0.0170592265" flag="0"/>
      <psa03 value="0.0884799448" flag="0"/>
      <psa10 value="0.0126489681" flag="0"/>
      <psa30 value="0.0014960284" flag="0"/>
    </comp>
  </station>
  <station code="GOMA" name="GOMA" netid="KO" insttype="CMG-5T" lat="38.7077" lon="27.9175">
    <comp name="--.HNZ">
      <acc value="0.0429729619" flag="0"/>
      <vel value="0.0131991313" flag="0"/>
      <psa03 value="0.0627972020" flag="0"/>
      <psa10 value="0.0064394849" flag="0"/>
      <psa30 value="0.0010329288" flag="0"/>
    </comp>
    <comp name="--.HNN">
      <acc value="0.0501787811" flag="0"/>
      <vel value="0.0209172349" flag="0"/>
      <psa03 value="0.1524286433" flag="0"/>
      <psa10 value="0.0126242634" flag="0"/>
      <psa30 value="0.0019117512" flag="0"/>
    </comp>
    <comp name="--.HNE">
      <acc value="0.0467184367" flag="0"/>
      <vel value="0.0193978695" flag="0"/>
      <psa03 value="0.1499248905" flag="0"/>
      <psa10 value="0.0159427583" flag="0"/>
      <psa30 value="0.0011921395" flag="0"/>
    </comp>
  </station>
  <station code="GONE" name="GONE" netid="KO" insttype="CMG-5T" lat="40.0466" lon="27.686">
    <comp name="--.HNZ">
      <acc value="0.0613273347" flag="0"/>
      <vel value="0.0133713198" flag="0"/>
      <psa03 value="0.0404585175" flag="0"/>
      <psa10 value="0.0070522906" flag="0"/>
      <psa30 value="0.0006598626" flag="0"/>
    </comp>
    <comp name="--.HNN">
      <acc value="0.0602321615" flag="0"/>
      <vel value="0.0185468427" flag="0"/>
      <psa03 value="0.0862421989" flag="0"/>
      <psa10 value="0.0178357904" flag="0"/>
      <psa30 value="0.0011098428" flag="0"/>
    </comp>
  </station>
  <station code="SMAA" name="SMAA" netid="KO" insttype="CMG-5T" lat="39.1005" lon="28.9805">
    <comp name="--.HNN">
      <acc value="0.0687233736" flag="0"/>
      <vel value="0.0464105698" flag="0"/>
      <psa03 value="0.2060079997" flag="0"/>
      <psa10 value="0.0881208728" flag="0"/>
      <psa30 value="0.0035925044" flag="0"/>
    </comp>
    <comp name="--.HNE">
      <acc value="0.1053633181" flag="0"/>
      <vel value="0.0536766971" flag="0"/>
      <psa03 value="0.2099270714" flag="0"/>
      <psa10 value="0.0790944658" flag="0"/>
      <psa30 value="0.0036945811" flag="0"/>
    </comp>
    <comp name="--.HNZ">
      <acc value="0.0645561350" flag="0"/>
      <vel value="0.0208266570" flag="0"/>
      <psa03 value="0.1173470009" flag="0"/>
      <psa10 value="0.0509828475" flag="0"/>
      <psa30 value="0.0016240327" flag="0"/>
    </comp>
  </station>
  <station code="YENI" name="YENI" netid="KO" insttype="CMG-5T" lat="39.9364" lon="27.2422">
    <comp name="--.HNN">
      <acc value="0.1956079065" flag="0"/>
      <vel value="0.0454709639" flag="0"/>
      <psa03 value="0.2036504974" flag="0"/>
      <psa10 value="0.0292932886" flag="0"/>
      <psa30 value="0.0021842002" flag="0"/>
    </comp>
    <comp name="--.HNE">
      <acc value="0.1795006894" flag="0"/>
      <vel value="0.0437368937" flag="0"/>
      <psa03 value="0.1909158114" flag="0"/>
      <psa10 value="0.0245025581" flag="0"/>
      <psa30 value="0.0012002382" flag="0"/>
    </comp>
    <comp name="--.HNZ">
      <acc value="0.1328825460" flag="0"/>
      <vel value="0.0180264383" flag="0"/>
      <psa03 value="0.0799316881" flag="0"/>
      <psa10 value="0.0069240529" flag="0"/>
      <psa30 value="0.0004799633" flag="0"/>
    </comp>
  </station>
</stationlist>
