<?xml version="1.0" encoding="UTF-8" standalone="yes"?>
<!DOCTYPE earthquake SYSTEM "stationlist.dtd">
<stationlist created="" xmlns="ch.ethz.sed.shakemap.usgs.xml">
  <station code="CEYT" name="CEYT" netid="KO" insttype="CMG-3ESP" lat="37.0105" lon="35.7478">
    <comp name="--.HHE">
      <acc value="0.0040337398" flag="0"/>
      <vel value="0.0029717763" flag="0"/>
      <psa03 value="0.0166533188" flag="0"/>
      <psa10 value="0.0042216002" flag="0"/>
      <psa30 value="0.0006142085" flag="0"/>
    </comp>
    <comp name="--.HHZ">
      <acc value="0.0023864693" flag="0"/>
      <vel value="0.0026552641" flag="0"/>
      <psa03 value="0.0064969110" flag="0"/>
      <psa10 value="0.0043474027" flag="0"/>
      <psa30 value="0.0003900394" flag="0"/>
    </comp>
    <comp name="--.HHN">
      <acc value="0.0030392420" flag="0"/>
      <vel value="0.0022698171" flag="0"/>
      <psa03 value="0.0085619609" flag="0"/>
      <psa10 value="0.0031775046" flag="0"/>
      <psa30 value="0.0004261926" flag="0"/>
    </comp>
  </station>
  <station code="CMRD" name="CMRD" netid="KO" insttype="CMG-5T" lat="37.6623" lon="34.9902">
    <comp name="--.HNN">
      <acc value="0.0083795519" flag="0"/>
      <vel value="0.0031801786" flag="0"/>
      <psa03 value="0.0171005896" flag="0"/>
      <psa10 value="0.0027304738" flag="0"/>
      <psa30 value="0.0001981971" flag="0"/>
    </comp>
    <comp name="--.HNE">
      <acc value="0.0087664616" flag="0"/>
      <vel value="0.0026493071" flag="0"/>
      <psa03 value="0.0147898762" flag="0"/>
      <psa10 value="0.0025643148" flag="0"/>
      <psa30 value="0.0002504823" flag="0"/>
    </comp>
    <comp name="--.HNZ">
      <acc value="0.0067055966" flag="0"/>
      <vel value="0.0027063759" flag="0"/>
      <psa03 value="0.0082215940" flag="0"/>
      <psa10 value="0.0028949210" flag="0"/>
      <psa30 value="0.0002476119" flag="0"/>
    </comp>
  </station>
  <station code="DARE" name="DARE" netid="KO" insttype="CMG-3ESP" lat="38.5712" lon="37.4832">
    <comp name="--.HHE">
      <acc value="0.0060578652" flag="0"/>
      <vel value="0.0027458366" flag="0"/>
      <psa03 value="0.0163474811" flag="0"/>
      <psa10 value="0.0030946718" flag="0"/>
      <psa30 value="0.0002013186" flag="0"/>
    </comp>
    <comp name="--.HHN">
      <acc value="0.0053494933" flag="0"/>
      <vel value="0.0027121438" flag="0"/>
      <psa03 value="0.0160605075" flag="0"/>
      <psa10 value="0.0033639744" flag="0"/>
      <psa30 value="0.0002421842" flag="0"/>
    </comp>
  </station>
  <station code="GAZ" name="GAZ" netid="KO" insttype="CMG-3T" lat="37.1721" lon="37.2096">
    <comp name="--.HHE">
      <acc value="0.0148059708" flag="0"/>
      <vel value="0.0047712465" flag="0"/>
      <psa03 value="0.0215535784" flag="0"/>
      <psa10 value="0.0051943461" flag="0"/>
      <psa30 value="0.0003102300" flag="0"/>
    </comp>
    <comp name="--.HHZ">
      <acc value="0.0076613045" flag="0"/>
      <vel value="0.0030609409" flag="0"/>
      <psa03 value="0.0215186176" flag="0"/>
      <psa10 value="0.0056671019" flag="0"/>
      <psa30 value="0.0002580229" flag="0"/>
    </comp>
    <comp name="--.HHN">
      <acc value="0.0147171647" flag="0"/>
      <vel value="0.0064972413" flag="0"/>
      <psa03 value="0.0213417025" flag="0"/>
      <psa10 value="0.0090691681" flag="0"/>
      <psa30 value="0.0007010130" flag="0"/>
    </comp>
  </station>
  <station code="KMRS" name="KMRS" netid="KO" insttype="CMG-3T" lat="37.5053" lon="36.9">
    <comp name="--.HHZ">
      <acc value="0.0215548902" flag="0"/>
      <vel value="0.0114941721" flag="0"/>
      <psa03 value="0.0522853446" flag="0"/>
      <psa10 value="0.0041216739" flag="0"/>
      <psa30 value="0.0004996171" flag="0"/>
    </comp>
    <comp name="--.HHN">
      <acc value="0.0188724185" flag="0"/>
      <vel value="0.0080362224" flag="0"/>
      <psa03 value="0.0442673583" flag="0"/>
      <psa10 value="0.0065266365" flag="0"/>
      <psa30 value="0.0013728273" flag="0"/>
    </comp>
  </station>
  <station code="SARI" name="SARI" netid="KO" insttype="CMG-3T" lat="38.4072" lon="36.4181">
    <comp name="--.HHE">
      <acc value="0.1248810806" flag="0"/>
      <vel value="0.0361864662" flag="0"/>
      <psa03 value="0.1979993145" flag="0"/>
      <psa10 value="0.0105008117" flag="0"/>
      <psa30 value="0.0008736147" flag="0"/>
    </comp>
    <comp name="--.HHN">
      <acc value="0.1273792908" flag="0"/>
      <vel value="0.0421770130" flag="0"/>
      <psa03 value="0.3579775524" flag="0"/>
      <psa10 value="0.0124657548" flag="0"/>
      <psa30 value="0.0009519036" flag="0"/>
    </comp>
    <comp name="--.HHZ">
      <acc value="0.0636065776" flag="0"/>
      <vel value="0.0266379169" flag="0"/>
      <psa03 value="0.2019389839" flag="0"/>
      <psa10 value="0.0096606278" flag="0"/>
      <psa30 value="0.0009949819" flag="0"/>
    </comp>
  </station>
  <station code="ANDN" name="ANDN" netid="TU" insttype="T" lat="37.58" lon="36.3452">
    <comp name="--.HHE">
      <acc value="0.1134280903" flag="0"/>
      <vel value="0.0480656468" flag="0"/>
      <psa03 value="0.1889216230" flag="0"/>
      <psa10 value="0.0542709357" flag="0"/>
      <psa30 value="0.0050410400" flag="0"/>
    </comp>
    <comp name="--.HHN">
      <acc value="0.2784672890" flag="0"/>
      <vel value="0.0807659013" flag="0"/>
      <psa03 value="0.2857573106" flag="0"/>
      <psa10 value="0.0612658895" flag="0"/>
      <psa30 value="0.0061694716" flag="0"/>
    </comp>
    <comp name="--.HHZ">
      <acc value="0.0828351621" flag="0"/>
      <vel value="0.0379504123" flag="0"/>
      <psa03 value="0.1517264661" flag="0"/>
      <psa10 value="0.0678361285" flag="0"/>
      <psa30 value="0.0029071877" flag="0"/>
    </comp>
  </station>
</stationlist>
