<?xml version="1.0" encoding="UTF-8" standalone="yes"?>
<!DOCTYPE earthquake SYSTEM "stationlist.dtd">
<stationlist created="" xmlns="ch.ethz.sed.shakemap.usgs.xml">
  <station code="CEYT" name="CEYT" netid="KO" insttype="CMG-3ESP" lat="37.0105" lon="35.7478">
    <comp name="--.HHE">
      <acc value="0.0040337399" flag="0"/>
      <vel value="0.0029717741" flag="0"/>
      <psa03 value="0.0166533188" flag="0"/>
      <psa10 value="0.0042216002" flag="0"/>
      <psa30 value="0.0006142212" flag="0"/>
    </comp>
    <comp name="--.HHN">
      <acc value="0.0030392418" flag="0"/>
      <vel value="0.0022698165" flag="0"/>
      <psa03 value="0.0085619609" flag="0"/>
      <psa10 value="0.0031775046" flag="0"/>
      <psa30 value="0.0004261978" flag="0"/>
    </comp>
    <comp name="--.HHZ">
      <acc value="0.0023864692" flag="0"/>
      <vel value="0.0026552612" flag="0"/>
      <psa03 value="0.0064969110" flag="0"/>
      <psa10 value="0.0043474027" flag="0"/>
      <psa30 value="0.0003900440" flag="0"/>
    </comp>
  </station>
  <station code="CMRD" name="CMRD" netid="KO" insttype="CMG-5T" lat="37.6623" lon="34.9902">
    <comp name="--.HNE">
      <acc value="0.0087664605" flag="0"/>
      <vel value="0.0026493094" flag="0"/>
      <psa03 value="0.0147898762" flag="0"/>
      <psa10 value="0.0025643147" flag="0"/>
      <psa30 value="0.0002504990" flag="0"/>
    </comp>
    <comp name="--.HNN">
      <acc value="0.0083795518" flag="0"/>
      <vel value="0.0031801761" flag="0"/>
      <psa03 value="0.0171005896" flag="0"/>
      <psa10 value="0.0027304738" flag="0"/>
      <psa30 value="0.0001981029" flag="0"/>
    </comp>
    <comp name="--.HNZ">
      <acc value="0.0067055974" flag="0"/>
      <vel value="0.0027063737" flag="0"/>
      <psa03 value="0.0082215940" flag="0"/>
      <psa10 value="0.0028949211" flag="0"/>
      <psa30 value="0.0002472853" flag="0"/>
    </comp>
  </station>
  <station code="DARE" name="DARE" netid="KO" insttype="CMG-3ESP" lat="38.5712" lon="37.4832">
    <comp name="--.HHE">
      <acc value="0.0060578653" flag="0"/>
      <vel value="0.0027458365" flag="0"/>
      <psa03 value="0.0163474811" flag="0"/>
      <psa10 value="0.0030946718" flag="0"/>
      <psa30 value="0.0002013177" flag="0"/>
    </comp>
    <comp name="--.HHN">
      <acc value="0.0053494933" flag="0"/>
      <vel value="0.0027121442" flag="0"/>
      <psa03 value="0.0160605074" flag="0"/>
      <psa10 value="0.0033639744" flag="0"/>
      <psa30 value="0.0002421790" flag="0"/>
    </comp>
  </station>
  <station code="GAZ" name="GAZ" netid="KO" insttype="CMG-3T" lat="37.1721" lon="37.2096">
    <comp name="--.HHE">
      <acc value="0.0148059718" flag="0"/>
      <vel value="0.0047712442" flag="0"/>
      <psa03 value="0.0215535784" flag="0"/>
      <psa10 value="0.0051943461" flag="0"/>
      <psa30 value="0.0003102367" flag="0"/>
    </comp>
    <comp name="--.HHN">
      <acc value="0.0147171642" flag="0"/>
      <vel value="0.0064972453" flag="0"/>
      <psa03 value="0.0213417025" flag="0"/>
      <psa10 value="0.0090691681" flag="0"/>
      <psa30 value="0.0007010232" flag="0"/>
    </comp>
    <comp name="--.HHZ">
      <acc value="0.0076613035" flag="0"/>
      <vel value="0.0030609409" flag="0"/>
      <psa03 value="0.0215186176" flag="0"/>
      <psa10 value="0.0056671019" flag="0"/>
      <psa30 value="0.0002580188" flag="0"/>
    </comp>
  </station>
  <station code="KMRS" name="KMRS" netid="KO" insttype="CMG-3T" lat="37.5053" lon="36.9">
    <comp name="--.HHZ">
      <acc value="0.0215548901" flag="0"/>
      <vel value="0.0114941721" flag="0"/>
      <psa03 value="0.0522853446" flag="0"/>
      <psa10 value="0.0041216739" flag="0"/>
      <psa30 value="0.0004995989" flag="0"/>
    </comp>
    <comp name="--.HHN">
      <acc value="0.0188724185" flag="0"/>
      <vel value="0.0080362225" flag="0"/>
      <psa03 value="0.0442673583" flag="0"/>
      <psa10 value="0.0065266366" flag="0"/>
      <psa30 value="0.0013728261" flag="0"/>
    </comp>
  </station>
  <station code="SARI" name="SARI" netid="KO" insttype="CMG-3T" lat="38.4072" lon="36.4181">
    <comp name="--.HHZ">
      <acc value="0.0636065775" flag="0"/>
      <vel value="0.0266379167" flag="0"/>
      <psa03 value="0.2019389839" flag="0"/>
      <psa10 value="0.0096606272" flag="0"/>
      <psa30 value="0.0009950426" flag="0"/>
    </comp>
    <comp name="--.HHN">
      <acc value="0.1273792907" flag="0"/>
      <vel value="0.0421770130" flag="0"/>
      <psa03 value="0.3579775524" flag="0"/>
      <psa10 value="0.0124657547" flag="0"/>
      <psa30 value="0.0009518569" flag="0"/>
    </comp>
    <comp name="--.HHE">
      <acc value="0.1248810802" flag="0"/>
      <vel value="0.0361864658" flag="0"/>
      <psa03 value="0.1979993145" flag="0"/>
      <psa10 value="0.0105008108" flag="0"/>
      <psa30 value="0.0008735793" flag="0"/>
    </comp>
  </station>
  <station code="ANDN" name="ANDN" netid="TU" insttype="T" lat="37.58" lon="36.3452">
    <comp name="--.HHN">
      <acc value="0.2784672889" flag="0"/>
      <vel value="0.0807659002" flag="0"/>
      <psa03 value="0.2857573106" flag="0"/>
      <psa10 value="0.0612658891" flag="0"/>
      <psa30 value="0.0061693615" flag="0"/>
    </comp>
    <comp name="--.HHZ">
      <acc value="0.0828351625" flag="0"/>
      <vel value="0.0379504111" flag="0"/>
      <psa03 value="0.1517264661" flag="0"/>
      <psa10 value="0.0678361283" flag="0"/>
      <psa30 value="0.0029071935" flag="0"/>
    </comp>
    <comp name="--.HHE">
      <acc value="0.1134280901" flag="0"/>
      <vel value="0.0480656483" flag="0"/>
      <psa03 value="0.1889216230" flag="0"/>
      <psa10 value="0.0542709356" flag="0"/>
      <psa30 value="0.0050410188" flag="0"/>
    </comp>
  </station>
</stationlist>
