<?xml version="1.0" encoding="UTF-8" standalone="yes"?>
<!DOCTYPE earthquake SYSTEM "stationlist.dtd">
<stationlist created="" xmlns="ch.ethz.sed.shakemap.usgs.xml">
  <station code="CEYT" name="CEYT" netid="KO" insttype="CMG-3ESP" lat="37.0105" lon="35.7478">
    <comp name="--.HHE">
      <acc value="0.0073271072" flag="0"/>
      <vel value="0.0053337371" flag="0"/>
      <psa03 value="0.0283395915" flag="0"/>
      <psa10 value="0.0063660640" flag="0"/>
      <psa30 value="0.0005819298" flag="0"/>
    </comp>
    <comp name="--.HHZ">
      <acc value="0.0049804354" flag="0"/>
      <vel value="0.0035611522" flag="0"/>
      <psa03 value="0.0137405221" flag="0"/>
      <psa10 value="0.0066006170" flag="0"/>
      <psa30 value="0.0003829716" flag="0"/>
    </comp>
    <comp name="--.HHN">
      <acc value="0.0097864921" flag="0"/>
      <vel value="0.0106857874" flag="0"/>
      <psa03 value="0.0246297421" flag="0"/>
      <psa10 value="0.0172039231" flag="0"/>
      <psa30 value="0.0008731043" flag="0"/>
    </comp>
  </station>
</stationlist>
