<?xml version="1.0" encoding="UTF-8" standalone="yes"?>
<!DOCTYPE earthquake SYSTEM "stationlist.dtd">
<stationlist created="" xmlns="ch.ethz.sed.shakemap.usgs.xml">
  <station code="APE" name="APE" netid="GE" insttype="STS-2/N" lat="37.0727" lon="25.523">
    <comp name="--.HHN">
      <acc value="0.2028187248" flag="0"/>
      <vel value="0.0310611709" flag="0"/>
      <psa03 value="0.0708231602" flag="0"/>
      <psa10 value="0.0117389146" flag="0"/>
      <psa30 value="0.0021463475" flag="0"/>
    </comp>
    <comp name="--.HHE">
      <acc value="0.2139024003" flag="0"/>
      <vel value="0.0460740623" flag="0"/>
      <psa03 value="0.1532709280" flag="0"/>
      <psa10 value="0.0165604613" flag="0"/>
      <psa30 value="0.0019000895" flag="0"/>
    </comp>
    <comp name="--.HHZ">
      <acc value="0.0902817231" flag="0"/>
      <vel value="0.0158138969" flag="0"/>
      <psa03 value="0.0524635821" flag="0"/>
      <psa10 value="0.0104215222" flag="0"/>
      <psa30 value="0.0023988460" flag="0"/>
    </comp>
  </station>
  <station code="THERA" name="THERA" netid="GE" insttype="STS-2/N" lat="36.367" lon="25.4753">
    <comp name="--.HHE">
      <acc value="0.1497245834" flag="0"/>
      <vel value="0.0298332186" flag="0"/>
      <psa03 value="0.1270719423" flag="0"/>
      <psa10 value="0.0102386232" flag="0"/>
      <psa30 value="0.0020651316" flag="0"/>
    </comp>
    <comp name="--.HHN">
      <acc value="0.1354479152" flag="0"/>
      <vel value="0.0180729327" flag="0"/>
      <psa03 value="0.0597887066" flag="0"/>
      <psa10 value="0.0060743356" flag="0"/>
      <psa30 value="0.0009554981" flag="0"/>
    </comp>
    <comp name="--.HHZ">
      <acc value="0.1105129824" flag="0"/>
      <vel value="0.0240394265" flag="0"/>
      <psa03 value="0.0719379929" flag="0"/>
      <psa10 value="0.0082319117" flag="0"/>
      <psa30 value="0.0014993619" flag="0"/>
    </comp>
  </station>
</stationlist>
