<?xml version="1.0" encoding="UTF-8" standalone="yes"?>
<!DOCTYPE earthquake SYSTEM "stationlist.dtd">
<stationlist created="" xmlns="ch.ethz.sed.shakemap.usgs.xml">
  <station code="APE" name="APE" netid="GE" insttype="STS-2/N" lat="37.0727" lon="25.523">
    <comp name="--.HHZ">
      <acc value="0.0902817225" flag="0"/>
      <vel value="0.0158138967" flag="0"/>
      <psa03 value="0.0524635821" flag="0"/>
      <psa10 value="0.0104215224" flag="0"/>
      <psa30 value="0.0023987701" flag="0"/>
    </comp>
    <comp name="--.HHN">
      <acc value="0.2028187241" flag="0"/>
      <vel value="0.0310611724" flag="0"/>
      <psa03 value="0.0708231602" flag="0"/>
      <psa10 value="0.0117389150" flag="0"/>
      <psa30 value="0.0021463699" flag="0"/>
    </comp>
    <comp name="--.HHE">
      <acc value="0.2139024004" flag="0"/>
      <vel value="0.0460740611" flag="0"/>
      <psa03 value="0.1532709280" flag="0"/>
      <psa10 value="0.0165604601" flag="0"/>
      <psa30 value="0.0019002030" flag="0"/>
    </comp>
  </station>
  <station code="THERA" name="THERA" netid="GE" insttype="STS-2/N" lat="36.367" lon="25.4753">
    <comp name="--.HHZ">
      <acc value="0.1105129827" flag="0"/>
      <vel value="0.0240394263" flag="0"/>
      <psa03 value="0.0719379929" flag="0"/>
      <psa10 value="0.0082319033" flag="0"/>
      <psa30 value="0.0014994257" flag="0"/>
    </comp>
    <comp name="--.HHN">
      <acc value="0.1354479155" flag="0"/>
      <vel value="0.0180729322" flag="0"/>
      <psa03 value="0.0597887066" flag="0"/>
      <psa10 value="0.0060743359" flag="0"/>
      <psa30 value="0.0009554917" flag="0"/>
    </comp>
    <comp name="--.HHE">
      <acc value="0.1497245840" flag="0"/>
      <vel value="0.0298332169" flag="0"/>
      <psa03 value="0.1270719423" flag="0"/>
      <psa10 value="0.0102386220" flag="0"/>
      <psa30 value="0.0020655439" flag="0"/>
    </comp>
  </station>
</stationlist>
