<stationlist created="1675692153">
	<station code="ARPRA" name="ARPRA" netid="KO" source="Bogazici University Kandilli Observatory And Earthquake Research Institute (KOERI)" insttype="" lat="39.0929" lon="38.3356">
		<comp name=".HNE" depth="0.0">
			<acc value="0.0104409270346" flag="0"/>
			<vel value="0.00805472690245" flag="0"/>
			<psa03 value="0.0269597026146" flag="0"/>
			<psa10 value="0.0114996267938" flag="0"/>
			<psa30 value="0.000649971911616" flag="0"/>
		</comp>
		<comp name=".HNN" depth="0.0">
			<acc value="0.0110486813005" flag="0"/>
			<vel value="0.0112501472437" flag="0"/>
			<psa03 value="0.0360744079816" flag="0"/>
			<psa10 value="0.00980536486982" flag="0"/>
			<psa30 value="0.000682924615402" flag="0"/>
		</comp>
		<comp name=".HNZ" depth="0.0">
			<acc value="0.00607157550299" flag="0"/>
			<vel value="0.00495853199787" flag="0"/>
			<psa03 value="0.0115944751083" flag="0"/>
			<psa10 value="0.0121950119222" flag="0"/>
			<psa30 value="0.00130356479227" flag="0"/>
		</comp>
	</station>
</stationlist>
