<?xml version="1.0" encoding="UTF-8" standalone="yes"?>
<!DOCTYPE earthquake SYSTEM "stationlist.dtd">
<stationlist created="" xmlns="ch.ethz.sed.shakemap.usgs.xml">
  <station code="URFA" name="URFA" netid="KO" insttype="CMG-3ESP" lat="37.4409" lon="38.8213">
    <comp name="--.HHE">
      <acc value="0.0759979926" flag="0"/>
      <vel value="0.0295895099" flag="0"/>
      <psa03 value="0.1209884564" flag="0"/>
      <psa10 value="0.0162796876" flag="0"/>
      <psa30 value="0.0011390343" flag="0"/>
    </comp>
    <comp name="--.HHN">
      <acc value="0.1231537797" flag="0"/>
      <vel value="0.0376855767" flag="0"/>
      <psa03 value="0.1366330577" flag="0"/>
      <psa10 value="0.0233570878" flag="0"/>
      <psa30 value="0.0016184978" flag="0"/>
    </comp>
  </station>
</stationlist>
