<?xml version="1.0" encoding="UTF-8" standalone="yes"?>
<!DOCTYPE earthquake SYSTEM "stationlist.dtd">
<stationlist created="" xmlns="ch.ethz.sed.shakemap.usgs.xml">
  <station code="BNN" name="BNN" netid="KO" insttype="CMG-3T" lat="38.8521" lon="35.8472">
    <comp name="--.HHN">
      <acc value="0.0306351783" flag="0"/>
      <vel value="0.0194097915" flag="0"/>
      <psa03 value="0.0962942515" flag="0"/>
      <psa10 value="0.0217115475" flag="0"/>
      <psa30 value="0.0033339157" flag="0"/>
    </comp>
    <comp name="--.HHE">
      <acc value="0.0320162651" flag="0"/>
      <vel value="0.0147578899" flag="0"/>
      <psa03 value="0.0856083378" flag="0"/>
      <psa10 value="0.0120402693" flag="0"/>
      <psa30 value="0.0023502685" flag="0"/>
    </comp>
    <comp name="--.HHZ">
      <acc value="0.0233011633" flag="0"/>
      <vel value="0.0108779950" flag="0"/>
      <psa03 value="0.0741060757" flag="0"/>
      <psa10 value="0.0105469046" flag="0"/>
      <psa30 value="0.0016412231" flag="0"/>
    </comp>
  </station>
  <station code="CEYT" name="CEYT" netid="KO" insttype="CMG-3ESP" lat="37.0105" lon="35.7478">
    <comp name="--.HHN">
      <acc value="0.0133961226" flag="0"/>
      <vel value="0.0097153364" flag="0"/>
      <psa03 value="0.0426197642" flag="0"/>
      <psa10 value="0.0129610955" flag="0"/>
      <psa30 value="0.0015006787" flag="0"/>
    </comp>
    <comp name="--.HHZ">
      <acc value="0.0080540615" flag="0"/>
      <vel value="0.0083574620" flag="0"/>
      <psa03 value="0.0235637910" flag="0"/>
      <psa10 value="0.0141361311" flag="0"/>
      <psa30 value="0.0014943207" flag="0"/>
    </comp>
    <comp name="--.HHE">
      <acc value="0.0160642700" flag="0"/>
      <vel value="0.0131959890" flag="0"/>
      <psa03 value="0.0488526649" flag="0"/>
      <psa10 value="0.0248308027" flag="0"/>
      <psa30 value="0.0024306257" flag="0"/>
    </comp>
  </station>
  <station code="DARE" name="DARE" netid="KO" insttype="CMG-3ESP" lat="38.5712" lon="37.4832">
    <comp name="--.HHN">
      <acc value="0.0339562794" flag="0"/>
      <vel value="0.0124735066" flag="0"/>
      <psa03 value="0.0513067101" flag="0"/>
      <psa10 value="0.0125154706" flag="0"/>
      <psa30 value="0.0016551434" flag="0"/>
    </comp>
    <comp name="--.HHE">
      <acc value="0.0416410129" flag="0"/>
      <vel value="0.0175584462" flag="0"/>
      <psa03 value="0.0577948505" flag="0"/>
      <psa10 value="0.0091707757" flag="0"/>
      <psa30 value="0.0011391289" flag="0"/>
    </comp>
  </station>
  <station code="GAZ" name="GAZ" netid="KO" insttype="CMG-3T" lat="37.1721" lon="37.2096">
    <comp name="--.HHE">
      <acc value="0.1393858870" flag="0"/>
      <vel value="0.0702829290" flag="0"/>
      <psa03 value="0.1979567935" flag="0"/>
      <psa10 value="0.0848732434" flag="0"/>
      <psa30 value="0.0043957757" flag="0"/>
    </comp>
    <comp name="--.HHN">
      <acc value="0.0948478797" flag="0"/>
      <vel value="0.0449840179" flag="0"/>
      <psa03 value="0.1474294790" flag="0"/>
      <psa10 value="0.0497322068" flag="0"/>
      <psa30 value="0.0035672629" flag="0"/>
    </comp>
    <comp name="--.HHZ">
      <acc value="0.0889357142" flag="0"/>
      <vel value="0.0430398803" flag="0"/>
      <psa03 value="0.1512733655" flag="0"/>
      <psa10 value="0.0328406671" flag="0"/>
      <psa30 value="0.0025529883" flag="0"/>
    </comp>
  </station>
  <station code="SARI" name="SARI" netid="KO" insttype="CMG-3T" lat="38.4072" lon="36.4181">
    <comp name="--.HHE">
      <acc value="0.9205986122" flag="0"/>
      <vel value="0.2164763100" flag="0"/>
      <psa03 value="1.5865229767" flag="0"/>
      <psa10 value="0.0542409334" flag="0"/>
      <psa30 value="0.0072051297" flag="0"/>
    </comp>
    <comp name="--.HHN">
      <acc value="0.5807267106" flag="0"/>
      <vel value="0.1716261829" flag="0"/>
      <psa03 value="0.8662479762" flag="0"/>
      <psa10 value="0.0493193529" flag="0"/>
      <psa30 value="0.0087324317" flag="0"/>
    </comp>
    <comp name="--.HHZ">
      <acc value="0.4803938345" flag="0"/>
      <vel value="0.1619074450" flag="0"/>
      <psa03 value="1.1830621840" flag="0"/>
      <psa10 value="0.0400279261" flag="0"/>
      <psa30 value="0.0086570738" flag="0"/>
    </comp>
  </station>
</stationlist>
