<?xml version="1.0" encoding="UTF-8" standalone="yes"?>
<!DOCTYPE earthquake SYSTEM "stationlist.dtd">
<stationlist created="" xmlns="ch.ethz.sed.shakemap.usgs.xml">
  <station code="BNN" name="BNN" netid="KO" insttype="CMG-3T" lat="38.8521" lon="35.8472">
    <comp name="--.HHE">
      <acc value="0.0320162654" flag="0"/>
      <vel value="0.0147578922" flag="0"/>
      <psa03 value="0.0856083378" flag="0"/>
      <psa10 value="0.0120402693" flag="0"/>
      <psa30 value="0.0023503518" flag="0"/>
    </comp>
    <comp name="--.HHN">
      <acc value="0.0306351780" flag="0"/>
      <vel value="0.0194097915" flag="0"/>
      <psa03 value="0.0962942515" flag="0"/>
      <psa10 value="0.0217115474" flag="0"/>
      <psa30 value="0.0033340256" flag="0"/>
    </comp>
    <comp name="--.HHZ">
      <acc value="0.0233011634" flag="0"/>
      <vel value="0.0108779978" flag="0"/>
      <psa03 value="0.0741060757" flag="0"/>
      <psa10 value="0.0105469047" flag="0"/>
      <psa30 value="0.0016411955" flag="0"/>
    </comp>
  </station>
  <station code="DARE" name="DARE" netid="KO" insttype="CMG-3ESP" lat="38.5712" lon="37.4832">
    <comp name="--.HHN">
      <acc value="0.0339562794" flag="0"/>
      <vel value="0.0124735020" flag="0"/>
      <psa03 value="0.0513067101" flag="0"/>
      <psa10 value="0.0125154746" flag="0"/>
      <psa30 value="0.0016551367" flag="0"/>
    </comp>
    <comp name="--.HHE">
      <acc value="0.0416410130" flag="0"/>
      <vel value="0.0175584498" flag="0"/>
      <psa03 value="0.0577948505" flag="0"/>
      <psa10 value="0.0091707756" flag="0"/>
      <psa30 value="0.0011389727" flag="0"/>
    </comp>
  </station>
  <station code="GAZ" name="GAZ" netid="KO" insttype="CMG-3T" lat="37.1721" lon="37.2096">
    <comp name="--.HHE">
      <acc value="0.1393858880" flag="0"/>
      <vel value="0.0702829447" flag="0"/>
      <psa03 value="0.1979567935" flag="0"/>
      <psa10 value="0.0848732434" flag="0"/>
      <psa30 value="0.0043968157" flag="0"/>
    </comp>
    <comp name="--.HHZ">
      <acc value="0.0889357133" flag="0"/>
      <vel value="0.0430398749" flag="0"/>
      <psa03 value="0.1512733655" flag="0"/>
      <psa10 value="0.0328406654" flag="0"/>
      <psa30 value="0.0025530459" flag="0"/>
    </comp>
    <comp name="--.HHN">
      <acc value="0.0948478784" flag="0"/>
      <vel value="0.0449840147" flag="0"/>
      <psa03 value="0.1474294790" flag="0"/>
      <psa10 value="0.0497322061" flag="0"/>
      <psa30 value="0.0035680962" flag="0"/>
    </comp>
  </station>
  <station code="SARI" name="SARI" netid="KO" insttype="CMG-3T" lat="38.4072" lon="36.4181">
    <comp name="--.HHE">
      <acc value="0.9205986124" flag="0"/>
      <vel value="0.2164763182" flag="0"/>
      <psa03 value="1.5865229767" flag="0"/>
      <psa10 value="0.0542409158" flag="0"/>
      <psa30 value="0.0072046488" flag="0"/>
    </comp>
    <comp name="--.HHN">
      <acc value="0.5807267094" flag="0"/>
      <vel value="0.1716261830" flag="0"/>
      <psa03 value="0.8662479762" flag="0"/>
      <psa10 value="0.0493193612" flag="0"/>
      <psa30 value="0.0087320745" flag="0"/>
    </comp>
    <comp name="--.HHZ">
      <acc value="0.4803938321" flag="0"/>
      <vel value="0.1619074461" flag="0"/>
      <psa03 value="1.1830621840" flag="0"/>
      <psa10 value="0.0400279031" flag="0"/>
      <psa30 value="0.0086580795" flag="0"/>
    </comp>
  </station>
  <station code="ANDN" name="ANDN" netid="TU" insttype="T" lat="37.58" lon="36.3452">
    <comp name="--.HHZ">
      <acc value="0.2955373186" flag="0"/>
      <vel value="0.1304449106" flag="0"/>
      <psa03 value="0.3909694371" flag="0"/>
      <psa10 value="0.1348396753" flag="0"/>
      <psa30 value="0.0078817683" flag="0"/>
    </comp>
    <comp name="--.HHN">
      <acc value="0.4070361919" flag="0"/>
      <vel value="0.1365213725" flag="0"/>
      <psa03 value="0.6784539892" flag="0"/>
      <psa10 value="0.1557791968" flag="0"/>
      <psa30 value="0.0057215408" flag="0"/>
    </comp>
    <comp name="--.HHE">
      <acc value="0.4137637634" flag="0"/>
      <vel value="0.1686933204" flag="0"/>
      <psa03 value="0.8364974293" flag="0"/>
      <psa10 value="0.1626446223" flag="0"/>
      <psa30 value="0.0067394807" flag="0"/>
    </comp>
  </station>
</stationlist>
