<stationlist created="1675762257">
	<station code="ARPRA" name="ARPRA" netid="KO" source="Bogazici University Kandilli Observatory And Earthquake Research Institute (KOERI)" insttype="" lat="39.0929" lon="38.3356">
		<comp name=".HNE" depth="0.0">
			<acc value="0.0192695785952" flag="0"/>
			<vel value="0.0125562312011" flag="0"/>
			<psa03 value="0.037454077503" flag="0"/>
			<psa10 value="0.0127295817098" flag="0"/>
			<psa30 value="0.00216866658018" flag="0"/>
		</comp>
		<comp name=".HNN" depth="0.0">
			<acc value="0.0156310505189" flag="0"/>
			<vel value="0.0112020467937" flag="0"/>
			<psa03 value="0.0441177246661" flag="0"/>
			<psa10 value="0.0120295284597" flag="0"/>
			<psa30 value="0.00362647648627" flag="0"/>
		</comp>
		<comp name=".HNZ" depth="0.0">
			<acc value="0.00810501718662" flag="0"/>
			<vel value="0.0077499180613" flag="0"/>
			<psa03 value="0.0242935259935" flag="0"/>
			<psa10 value="0.00945967634462" flag="0"/>
			<psa30 value="0.00204412853848" flag="0"/>
		</comp>
	</station>
	<station code="CMRD" name="CMRD" netid="KO" source="Bogazici University Kandilli Observatory And Earthquake Research Institute (KOERI)" insttype="" lat="37.6623" lon="34.9902">
		<comp name=".HNE" depth="0.0">
			<acc value="0.0186345536721" flag="0"/>
			<vel value="0.012604713843" flag="0"/>
			<psa03 value="0.0502779556679" flag="0"/>
			<psa10 value="0.0129502472653" flag="0"/>
			<psa30 value="0.00136852690819" flag="0"/>
		</comp>
		<comp name=".HNN" depth="0.0">
			<acc value="0.0237014536127" flag="0"/>
			<vel value="0.01375640708" flag="0"/>
			<psa03 value="0.0640941313382" flag="0"/>
			<psa10 value="0.0129220463347" flag="0"/>
			<psa30 value="0.00326424394848" flag="0"/>
		</comp>
		<comp name=".HNZ" depth="0.0">
			<acc value="0.0165168415621" flag="0"/>
			<vel value="0.0149555434984" flag="0"/>
			<psa03 value="0.036601703329" flag="0"/>
			<psa10 value="0.0165914197251" flag="0"/>
			<psa30 value="0.00279093280227" flag="0"/>
		</comp>
	</station>
	<station code="KOZK" name="KOZK" netid="KO" source="Bogazici University Kandilli Observatory And Earthquake Research Institute (KOERI)" insttype="" lat="39.2101" lon="34.868">
		<comp name=".HNE" depth="0.0">
			<acc value="0.0249648136246" flag="0"/>
			<vel value="0.0156543461273" flag="0"/>
			<psa03 value="0.0609924623264" flag="0"/>
			<psa10 value="0.0190966325582" flag="0"/>
			<psa30 value="0.00184461511336" flag="0"/>
		</comp>
		<comp name=".HNN" depth="0.0">
			<acc value="0.0255081543014" flag="0"/>
			<vel value="0.0130255882628" flag="0"/>
			<psa03 value="0.061976251456" flag="0"/>
			<psa10 value="0.0175002830579" flag="0"/>
			<psa30 value="0.0013694081124" flag="0"/>
		</comp>
		<comp name=".HNZ" depth="0.0">
			<acc value="0.0188396243527" flag="0"/>
			<vel value="0.0111400024917" flag="0"/>
			<psa03 value="0.0511718273825" flag="0"/>
			<psa10 value="0.0119314763392" flag="0"/>
			<psa30 value="0.00116640424772" flag="0"/>
		</comp>
	</station>
	<station code="KRTS" name="KRTS" netid="KO" source="Bogazici University Kandilli Observatory And Earthquake Research Institute (KOERI)" insttype="" lat="36.573" lon="35.375">
		<comp name=".HNE" depth="0.0">
			<acc value="0.00614289976036" flag="0"/>
			<vel value="0.00434087511146" flag="0"/>
			<psa03 value="0.0150304488185" flag="0"/>
			<psa10 value="0.00671778861427" flag="0"/>
			<psa30 value="0.000764422618412" flag="0"/>
		</comp>
		<comp name=".HNN" depth="0.0">
			<acc value="0.00780208046808" flag="0"/>
			<vel value="0.00647612442003" flag="0"/>
			<psa03 value="0.0203080601531" flag="0"/>
			<psa10 value="0.00685480394089" flag="0"/>
			<psa30 value="0.00105233460784" flag="0"/>
		</comp>
		<comp name=".HNZ" depth="0.0">
			<acc value="0.00568729074649" flag="0"/>
			<vel value="0.00397475923068" flag="0"/>
			<psa03 value="0.0136749579822" flag="0"/>
			<psa10 value="0.00281214230625" flag="0"/>
			<psa30 value="0.00146950870191" flag="0"/>
		</comp>
	</station>
	<station code="TUNC" name="TUNC" netid="KO" source="Bogazici University Kandilli Observatory And Earthquake Research Institute (KOERI)" insttype="" lat="39.6942" lon="37.5388">
		<comp name=".HNE" depth="0.0">
			<acc value="0.0307610756069" flag="0"/>
			<vel value="0.0224504378405" flag="0"/>
			<psa03 value="0.0728587275746" flag="0"/>
			<psa10 value="0.0144678031085" flag="0"/>
			<psa30 value="0.00261872826956" flag="0"/>
		</comp>
		<comp name=".HNN" depth="0.0">
			<acc value="0.0189837990939" flag="0"/>
			<vel value="0.0124310475027" flag="0"/>
			<psa03 value="0.0537782448363" flag="0"/>
			<psa10 value="0.0119125750871" flag="0"/>
			<psa30 value="0.00181824003281" flag="0"/>
		</comp>
		<comp name=".HNZ" depth="0.0">
			<acc value="0.0101350503683" flag="0"/>
			<vel value="0.00889093548235" flag="0"/>
			<psa03 value="0.0309388490261" flag="0"/>
			<psa10 value="0.00693950798961" flag="0"/>
			<psa30 value="0.00191332841528" flag="0"/>
		</comp>
	</station>
</stationlist>
