<stationlist created="1675764056">
	<station code="CMRD" name="CMRD" netid="KO" source="Bogazici University Kandilli Observatory And Earthquake Research Institute (KOERI)" insttype="" lat="37.6623" lon="34.9902">
		<comp name=".HNE" depth="0.0">
			<acc value="0.0186345531231" flag="0"/>
			<vel value="0.0126048772242" flag="0"/>
			<psa03 value="0.0502779556679" flag="0"/>
			<psa10 value="0.0129502491405" flag="0"/>
			<psa30 value="0.00136851117798" flag="0"/>
		</comp>
		<comp name=".HNN" depth="0.0">
			<acc value="0.0237014534362" flag="0"/>
			<vel value="0.0137556634662" flag="0"/>
			<psa03 value="0.0640941313382" flag="0"/>
			<psa10 value="0.0129220463347" flag="0"/>
			<psa30 value="0.00326416435987" flag="0"/>
		</comp>
		<comp name=".HNZ" depth="0.0">
			<acc value="0.0165168469333" flag="0"/>
			<vel value="0.0149554333252" flag="0"/>
			<psa03 value="0.036601703329" flag="0"/>
			<psa10 value="0.0165914197251" flag="0"/>
			<psa30 value="0.00279108572906" flag="0"/>
		</comp>
	</station>
</stationlist>
