<stationlist created="1641587237">
	<station code="MYT1" name="MYT1" netid="HI" source="ITSAK Strong Motion Network" insttype="" lat="39.085" lon="26.5694">
		<comp name=".HNE" depth="0.0">
			<acc value="0.010749168" flag="0"/>
			<vel value="0.005555" flag="0"/>
			<psa03 value="0.0327512952446" flag="0"/>
			<psa10 value="0.00783212326853" flag="0"/>
			<psa30 value="0.00094585024791" flag="0"/>
		</comp>
		<comp name=".HNN" depth="0.0">
			<acc value="0.007900104" flag="0"/>
			<vel value="0.005109" flag="0"/>
			<psa03 value="0.0243397604003" flag="0"/>
			<psa10 value="0.00854486661996" flag="0"/>
			<psa30 value="0.00151765564849" flag="0"/>
		</comp>
		<comp name=".HNZ" depth="0.0">
			<acc value="0.006109086" flag="0"/>
			<vel value="0.004044" flag="0"/>
			<psa03 value="0.0176284294076" flag="0"/>
			<psa10 value="0.0068375040154" flag="0"/>
			<psa30 value="0.000868446230461" flag="0"/>
		</comp>
	</station>
	<station code="NAX1" name="NAX1" netid="HI" source="ITSAK Strong Motion Network" insttype="" lat="37.101394" lon="25.374103">
		<comp name=".HNE" depth="0.0">
			<acc value="0.008461206" flag="0"/>
			<vel value="0.003222" flag="0"/>
			<psa03 value="0.0093063789766" flag="0"/>
			<psa10 value="0.00204964048518" flag="0"/>
			<psa30 value="0.000242502759871" flag="0"/>
		</comp>
		<comp name=".HNN" depth="0.0">
			<acc value="0.00633165" flag="0"/>
			<vel value="0.002083" flag="0"/>
			<psa03 value="0.0066218465795" flag="0"/>
			<psa10 value="0.0014778350846" flag="0"/>
			<psa30 value="0.000242502759871" flag="0"/>
		</comp>
		<comp name=".HNZ" depth="0.0">
			<acc value="0.004578474" flag="0"/>
			<vel value="0.002114" flag="0"/>
			<psa03 value="0.00778514395158" flag="0"/>
			<psa10 value="0.00154629066073" flag="0"/>
			<psa30 value="0.000185680157466" flag="0"/>
		</comp>
	</station>
	<station code="RDI1" name="RDI1" netid="HI" source="ITSAK Strong Motion Network" insttype="" lat="36.4514" lon="28.224">
		<comp name=".HNE" depth="0.0">
			<acc value="0.00420546" flag="0"/>
			<vel value="0.005345" flag="0"/>
			<psa03 value="0.0078298861582" flag="0"/>
			<psa10 value="0.0109408117844" flag="0"/>
			<psa30 value="0.0011749303458" flag="0"/>
		</comp>
		<comp name=".HNN" depth="0.0">
			<acc value="0.00355878" flag="0"/>
			<vel value="0.004224" flag="0"/>
			<psa03 value="0.00774040174496" flag="0"/>
			<psa10 value="0.00681737002243" flag="0"/>
			<psa30 value="0.00100983160337" flag="0"/>
		</comp>
		<comp name=".HNZ" depth="0.0">
			<acc value="0.005289414" flag="0"/>
			<vel value="0.00227" flag="0"/>
			<psa03 value="0.00554803362067" flag="0"/>
			<psa10 value="0.00363217233327" flag="0"/>
			<psa30 value="0.000367333516336" flag="0"/>
		</comp>
	</station>
	<station code="ASTA" name="ASTA" netid="HL" source="National Observatory of Athens Seismic Network" insttype="" lat="36.54543" lon="26.3528">
		<comp name="00.HNE" depth="0.0">
			<acc value="0.004060314" flag="0"/>
			<vel value="0.002864" flag="0"/>
			<psa03 value="0.0144964749443" flag="0"/>
			<psa10 value="0.0032375460709" flag="0"/>
			<psa30 value="0.000423261274609" flag="0"/>
		</comp>
		<comp name="00.HNN" depth="0.0">
			<acc value="0.005140596" flag="0"/>
			<vel value="0.003088" flag="0"/>
			<psa03 value="0.0110960672413" flag="0"/>
			<psa10 value="0.00515832900102" flag="0"/>
			<psa30 value="0.000318117089056" flag="0"/>
		</comp>
		<comp name="00.HNZ" depth="0.0">
			<acc value="0.003489114" flag="0"/>
			<vel value="0.002577" flag="0"/>
			<psa03 value="0.00975380104278" flag="0"/>
			<psa10 value="0.00708313872974" flag="0"/>
			<psa30 value="0.000258162532187" flag="0"/>
		</comp>
	</station>
	<station code="PRK" name="PRK" netid="HL" source="National Observatory of Athens Seismic Network" insttype="" lat="39.24565" lon="26.26499">
		<comp name=".HNE" depth="0.0">
			<acc value="0.006745362" flag="0"/>
			<vel value="0.006094" flag="0"/>
			<psa03 value="0.0199102819451" flag="0"/>
			<psa10 value="0.0110857765338" flag="0"/>
			<psa30 value="0.000582990952236" flag="0"/>
		</comp>
		<comp name=".HNN" depth="0.0">
			<acc value="0.010742946" flag="0"/>
			<vel value="0.005639" flag="0"/>
			<psa03 value="0.0322143887652" flag="0"/>
			<psa10 value="0.00588315274824" flag="0"/>
			<psa30 value="0.000434446826263" flag="0"/>
		</comp>
		<comp name=".HNZ" depth="0.0">
			<acc value="0.005877444" flag="0"/>
			<vel value="0.003788" flag="0"/>
			<psa03 value="0.0248319246731" flag="0"/>
			<psa10 value="0.00415565615071" flag="0"/>
			<psa30 value="0.000295745985747" flag="0"/>
		</comp>
	</station>
	<station code="RODB" name="RODB" netid="HL" source="National Observatory of Athens Seismic Network" insttype="" lat="36.4471" lon="28.22116">
		<comp name="00.HNE" depth="0.0">
			<acc value="0.01012809" flag="0"/>
			<vel value="0.004717" flag="0"/>
			<psa03 value="0.0114540048943" flag="0"/>
			<psa10 value="0.00721602308339" flag="0"/>
			<psa30 value="0.00088723795724" flag="0"/>
		</comp>
		<comp name="00.HNN" depth="0.0">
			<acc value="0.005343066" flag="0"/>
			<vel value="0.004211" flag="0"/>
			<psa03 value="0.00948534780307" flag="0"/>
			<psa10 value="0.00665227128" flag="0"/>
			<psa30 value="0.000899318353027" flag="0"/>
		</comp>
		<comp name="00.HNZ" depth="0.0">
			<acc value="0.017184552" flag="0"/>
			<vel value="0.002517" flag="0"/>
			<psa03 value="0.00429525183535" flag="0"/>
			<psa10 value="0.00398250381109" flag="0"/>
			<psa30 value="0.000301115050541" flag="0"/>
		</comp>
	</station>
	<station code="THRA" name="THRA" netid="HL" source="National Observatory of Athens Seismic Network" insttype="" lat="36.41502" lon="25.43244">
		<comp name="00.HNE" depth="0.0">
			<acc value="0.018013506" flag="0"/>
			<vel value="0.006989" flag="0"/>
			<psa03 value="0.0255925421857" flag="0"/>
			<psa10 value="0.00864553658485" flag="0"/>
			<psa30 value="0.000977617214609" flag="0"/>
		</comp>
		<comp name="00.HNN" depth="0.0">
			<acc value="0.014326206" flag="0"/>
			<vel value="0.005053" flag="0"/>
			<psa03 value="0.0220579078628" flag="0"/>
			<psa10 value="0.00866969737642" flag="0"/>
			<psa30 value="0.000757932980114" flag="0"/>
		</comp>
		<comp name="00.HNZ" depth="0.0">
			<acc value="0.077141172" flag="0"/>
			<vel value="0.006271" flag="0"/>
			<psa03 value="0.0164203898289" flag="0"/>
			<psa10 value="0.00309258132145" flag="0"/>
			<psa30 value="0.000317222244924" flag="0"/>
		</comp>
	</station>
	<station code="TNSA" name="TNSA" netid="HL" source="National Observatory of Athens Seismic Network" insttype="" lat="37.53942" lon="25.1631">
		<comp name="00.HNE" depth="0.0">
			<acc value="0.006128262" flag="0"/>
			<vel value="0.001902" flag="0"/>
			<psa03 value="0.00823256601776" flag="0"/>
			<psa10 value="0.00160266584107" flag="0"/>
			<psa30 value="0.000137358574318" flag="0"/>
		</comp>
		<comp name="00.HNN" depth="0.0">
			<acc value="0.007061664" flag="0"/>
			<vel value="0.001849" flag="0"/>
			<psa03 value="0.00966431662955" flag="0"/>
			<psa10 value="0.00114361080116" flag="0"/>
			<psa30 value="0.00013243693159" flag="0"/>
		</comp>
		<comp name="00.HNZ" depth="0.0">
			<acc value="0.005081946" flag="0"/>
			<vel value="0.001333" flag="0"/>
			<psa03 value="0.0056375180339" flag="0"/>
			<psa10 value="0.00110334281521" flag="0"/>
			<psa30 value="0.000141385372914" flag="0"/>
		</comp>
	</station>
	<station code="DATC" name="DATC" netid="KO" source="Bogazici University Kandilli Observatory And Earthquake Research Institute (KOERI)" insttype="" lat="36.7584" lon="27.6602">
		<comp name=".HNE" depth="0.0">
			<acc value="0.113341788" flag="0"/>
			<vel value="0.06576" flag="0"/>
			<psa03 value="0.227469378447" flag="0"/>
			<psa10 value="0.0672193489571" flag="0"/>
			<psa30 value="0.00625585532937" flag="0"/>
		</comp>
		<comp name=".HNN" depth="0.0">
			<acc value="0.106531554" flag="0"/>
			<vel value="0.056791" flag="0"/>
			<psa03 value="0.318877706568" flag="0"/>
			<psa10 value="0.0799923541025" flag="0"/>
			<psa30 value="0.00874441686148" flag="0"/>
		</comp>
		<comp name=".HNZ" depth="0.0">
			<acc value="0.165656568" flag="0"/>
			<vel value="0.035279" flag="0"/>
			<psa03 value="0.0889475067571" flag="0"/>
			<psa10 value="0.0316909049477" flag="0"/>
			<psa30 value="0.00332076657521" flag="0"/>
		</comp>
	</station>
	<station code="EZNE" name="EZNE" netid="KO" source="Bogazici University Kandilli Observatory And Earthquake Research Institute (KOERI)" insttype="" lat="39.756" lon="26.3655">
		<comp name=".HNE" depth="0.0">
			<acc value="0.013893828" flag="0"/>
			<vel value="0.005503" flag="0"/>
			<psa03 value="0.0253688311526" flag="0"/>
			<psa10 value="0.0090562700416" flag="0"/>
			<psa30 value="0.00126665186936" flag="0"/>
		</comp>
		<comp name=".HNN" depth="0.0">
			<acc value="0.020424174" flag="0"/>
			<vel value="0.009078" flag="0"/>
			<psa03 value="0.0395968528572" flag="0"/>
			<psa10 value="0.00760662254717" flag="0"/>
			<psa30 value="0.00109752632835" flag="0"/>
		</comp>
		<comp name=".HNZ" depth="0.0">
			<acc value="0.020310036" flag="0"/>
			<vel value="0.003862" flag="0"/>
			<psa03 value="0.013601630812" flag="0"/>
			<psa10 value="0.00488450669652" flag="0"/>
			<psa30 value="0.00127873226515" flag="0"/>
		</comp>
	</station>
	<station code="FOCM" name="FOCM" netid="KO" source="Bogazici University Kandilli Observatory And Earthquake Research Institute (KOERI)" insttype="" lat="38.7131" lon="26.7309">
		<comp name=".HNE" depth="0.0">
			<acc value="0.029459742" flag="0"/>
			<vel value="0.010609" flag="0"/>
			<psa03 value="0.075480102565" flag="0"/>
			<psa10 value="0.0074858185893" flag="0"/>
			<psa30 value="0.00070558459837" flag="0"/>
		</comp>
		<comp name=".HNN" depth="0.0">
			<acc value="0.039100782" flag="0"/>
			<vel value="0.011758" flag="0"/>
			<psa03 value="0.0500217869992" flag="0"/>
			<psa10 value="0.00932606554751" flag="0"/>
			<psa30 value="0.000689477403988" flag="0"/>
		</comp>
		<comp name=".HNZ" depth="0.0">
			<acc value="0.019460274" flag="0"/>
			<vel value="0.00584" flag="0"/>
			<psa03 value="0.0469793169492" flag="0"/>
			<psa10 value="0.00354760956276" flag="0"/>
			<psa30 value="0.000449659176514" flag="0"/>
		</comp>
	</station>
	<station code="GOMA" name="GOMA" netid="KO" source="Bogazici University Kandilli Observatory And Earthquake Research Institute (KOERI)" insttype="" lat="38.7077" lon="27.9175">
		<comp name=".HNE" depth="0.0">
			<acc value="0.030234228" flag="0"/>
			<vel value="0.013798" flag="0"/>
			<psa03 value="0.112526649645" flag="0"/>
			<psa10 value="0.00522275777855" flag="0"/>
			<psa30 value="0.000576279621243" flag="0"/>
		</comp>
		<comp name=".HNN" depth="0.0">
			<acc value="0.029057148" flag="0"/>
			<vel value="0.015402" flag="0"/>
			<psa03 value="0.101206871371" flag="0"/>
			<psa10 value="0.0128817287075" flag="0"/>
			<psa30 value="0.000833547309298" flag="0"/>
		</comp>
		<comp name=".HNZ" depth="0.0">
			<acc value="0.02250222" flag="0"/>
			<vel value="0.009279" flag="0"/>
			<psa03 value="0.0295745985747" flag="0"/>
			<psa10 value="0.00876634054272" flag="0"/>
			<psa30 value="0.000914978125344" flag="0"/>
		</comp>
	</station>
	<station code="GORD" name="GORD" netid="KO" source="Bogazici University Kandilli Observatory And Earthquake Research Institute (KOERI)" insttype="" lat="38.9088" lon="28.1769">
		<comp name=".HNE" depth="0.0">
			<acc value="0.028063056" flag="0"/>
			<vel value="0.019155" flag="0"/>
			<psa03 value="0.0676054742002" flag="0"/>
			<psa10 value="0.027156729729" flag="0"/>
			<psa30 value="0.00256283359509" flag="0"/>
		</comp>
		<comp name=".HNN" depth="0.0">
			<acc value="0.020509752" flag="0"/>
			<vel value="0.014566" flag="0"/>
			<psa03 value="0.0616100185134" flag="0"/>
			<psa10 value="0.0232426814941" flag="0"/>
			<psa30 value="0.00382545866586" flag="0"/>
		</comp>
		<comp name=".HNZ" depth="0.0">
			<acc value="0.027755526" flag="0"/>
			<vel value="0.014777" flag="0"/>
			<psa03 value="0.0826835978306" flag="0"/>
			<psa10 value="0.0195742679734" flag="0"/>
			<psa30 value="0.00177447591448" flag="0"/>
		</comp>
	</station>
	<station code="NAZL" name="NAZL" netid="KO" source="Bogazici University Kandilli Observatory And Earthquake Research Institute (KOERI)" insttype="" lat="37.9641" lon="28.2922">
		<comp name=".HNE" depth="0.0">
			<acc value="0.11050629" flag="0"/>
			<vel value="0.078245" flag="0"/>
			<psa03 value="0.221294953934" flag="0"/>
			<psa10 value="0.0591979661546" flag="0"/>
			<psa30 value="0.00387870189174" flag="0"/>
		</comp>
		<comp name=".HNN" depth="0.0">
			<acc value="0.196446594" flag="0"/>
			<vel value="0.077925" flag="0"/>
			<psa03 value="0.242055337805" flag="0"/>
			<psa10 value="0.0441337126083" flag="0"/>
			<psa30 value="0.00278743947232" flag="0"/>
		</comp>
		<comp name=".HNZ" depth="0.0">
			<acc value="0.043239024" flag="0"/>
			<vel value="0.025625" flag="0"/>
			<psa03 value="0.0728850545812" flag="0"/>
			<psa10 value="0.0223648394002" flag="0"/>
			<psa30 value="0.00171899557827" flag="0"/>
		</comp>
	</station>
	<station code="SMAA" name="SMAA" netid="KO" source="Bogazici University Kandilli Observatory And Earthquake Research Institute (KOERI)" insttype="" lat="39.1005" lon="28.9805">
		<comp name=".HNE" depth="0.0">
			<acc value="0.005511468" flag="0"/>
			<vel value="0.006672" flag="0"/>
			<psa03 value="0.016062452176" flag="0"/>
			<psa10 value="0.00997438012141" flag="0"/>
			<psa30 value="0.000981196591139" flag="0"/>
		</comp>
		<comp name=".HNN" depth="0.0">
			<acc value="0.004673028" flag="0"/>
			<vel value="0.005479" flag="0"/>
			<psa03 value="0.0131542087458" flag="0"/>
			<psa10 value="0.00706703153536" flag="0"/>
			<psa30 value="0.00066576403448" flag="0"/>
		</comp>
		<comp name=".HNZ" depth="0.0">
			<acc value="0.003967698" flag="0"/>
			<vel value="0.002824" flag="0"/>
			<psa03 value="0.0116329737208" flag="0"/>
			<psa10 value="0.0055489284648" flag="0"/>
			<psa30 value="0.000464424104698" flag="0"/>
		</comp>
	</station>
	<station code="SOMA" name="SOMA" netid="KO" source="Bogazici University Kandilli Observatory And Earthquake Research Institute (KOERI)" insttype="" lat="39.1564" lon="27.5341">
		<comp name=".HNE" depth="0.0">
			<acc value="0.09451473" flag="0"/>
			<vel value="0.036643" flag="0"/>
			<psa03 value="0.298072580491" flag="0"/>
			<psa10 value="0.0198923850625" flag="0"/>
			<psa30 value="0.00274582922016" flag="0"/>
		</comp>
		<comp name=".HNN" depth="0.0">
			<acc value="0.191370564" flag="0"/>
			<vel value="0.071884" flag="0"/>
			<psa03 value="0.437310327487" flag="0"/>
			<psa10 value="0.0182132100481" flag="0"/>
			<psa30 value="0.00468719356533" flag="0"/>
		</comp>
		<comp name=".HNZ" depth="0.0">
			<acc value="0.08181981" flag="0"/>
			<vel value="0.03157" flag="0"/>
			<psa03 value="0.244426674756" flag="0"/>
			<psa10 value="0.0121931461476" flag="0"/>
			<psa30 value="0.00227156183001" flag="0"/>
		</comp>
	</station>
	<station code="YKAV" name="YKAV" netid="KO" source="Bogazici University Kandilli Observatory And Earthquake Research Institute (KOERI)" insttype="" lat="37.1246" lon="27.2801">
		<comp name=".HNE" depth="0.0">
			<acc value="0.031898358" flag="0"/>
			<vel value="0.023425" flag="0"/>
			<psa03 value="0.0682318650929" flag="0"/>
			<psa10 value="0.0268909610217" flag="0"/>
			<psa30 value="0.00242413275458" flag="0"/>
		</comp>
		<comp name=".HNN" depth="0.0">
			<acc value="0.01906482" flag="0"/>
			<vel value="0.014647" flag="0"/>
			<psa03 value="0.0388809775513" flag="0"/>
			<psa10 value="0.0219500791449" flag="0"/>
			<psa30 value="0.00121340864349" flag="0"/>
		</comp>
		<comp name=".HNZ" depth="0.0">
			<acc value="0.009946632" flag="0"/>
			<vel value="0.008774" flag="0"/>
			<psa03 value="0.0368228360468" flag="0"/>
			<psa10 value="0.00939854792223" flag="0"/>
			<psa30 value="0.000701110377708" flag="0"/>
		</comp>
	</station>
</stationlist>
