<?xml version="1.0" encoding="UTF-8" standalone="yes"?>
<!DOCTYPE earthquake SYSTEM "stationlist.dtd">
<stationlist created="" xmlns="ch.ethz.sed.shakemap.usgs.xml">
  <station code="AKS" name="AKS" netid="KO" insttype="CMG-5T" commtype="DIG" lat="38.8785" lon="27.8129">
    <comp name="--.HNE">
      <acc value="0.1002066082" flag="0"/>
      <vel value="0.0287123237" flag="0"/>
      <psa03 value="0.1654633049" flag="0"/>
      <psa10 value="0.0311597357" flag="0"/>
      <psa30 value="0.0024527668" flag="0"/>
    </comp>
    <comp name="--.HNZ">
      <acc value="0.0965401139" flag="0"/>
      <vel value="0.0236355044" flag="0"/>
      <psa03 value="0.0912850829" flag="0"/>
      <psa10 value="0.0149789461" flag="0"/>
      <psa30 value="0.0022255380" flag="0"/>
    </comp>
    <comp name="--.HNN">
      <acc value="0.1066942535" flag="0"/>
      <vel value="0.0388063611" flag="0"/>
      <psa03 value="0.1698366886" flag="0"/>
      <psa10 value="0.0216602174" flag="0"/>
      <psa30 value="0.0031171665" flag="0"/>
    </comp>
  </station>
  <station code="AYDB" name="AYDB" netid="KO" insttype="CMG-3ESPC" commtype="DIG" lat="37.9467" lon="27.8908">
    <comp name="--.HHE">
      <acc value="0.0314725553" flag="0"/>
      <vel value="0.0199330575" flag="0"/>
      <psa03 value="0.0904375132" flag="0"/>
      <psa10 value="0.0123715548" flag="0"/>
      <psa30 value="0.0011867039" flag="0"/>
    </comp>
    <comp name="--.HHN">
      <acc value="0.0290101989" flag="0"/>
      <vel value="0.0160823650" flag="0"/>
      <psa03 value="0.1017003289" flag="0"/>
      <psa10 value="0.0138948364" flag="0"/>
      <psa30 value="0.0011545428" flag="0"/>
    </comp>
    <comp name="--.HHZ">
      <acc value="0.0256143605" flag="0"/>
      <vel value="0.0090741084" flag="0"/>
      <psa03 value="0.0499043552" flag="0"/>
      <psa10 value="0.0065325758" flag="0"/>
      <psa30 value="0.0006955958" flag="0"/>
    </comp>
  </station>
  <station code="AYVL" name="AYVL" netid="KO" insttype="CMG-6T" commtype="DIG" lat="39.2907" lon="26.69">
    <comp name="--.HHE">
      <acc value="0.0289008151" flag="0"/>
      <vel value="0.0119404031" flag="0"/>
      <psa03 value="0.0693965679" flag="0"/>
      <psa10 value="0.0088566419" flag="0"/>
      <psa30 value="0.0004341561" flag="0"/>
    </comp>
    <comp name="--.HHN">
      <acc value="0.0449650994" flag="0"/>
      <vel value="0.0201456135" flag="0"/>
      <psa03 value="0.1396144626" flag="0"/>
      <psa10 value="0.0119529597" flag="0"/>
      <psa30 value="0.0005806358" flag="0"/>
    </comp>
    <comp name="--.HHZ">
      <acc value="0.0148009941" flag="0"/>
      <vel value="0.0052201931" flag="0"/>
      <psa03 value="0.0453160547" flag="0"/>
      <psa10 value="0.0056516899" flag="0"/>
      <psa30 value="0.0002208892" flag="0"/>
    </comp>
  </station>
  <station code="BALB" name="BALB" netid="KO" insttype="CMG-5T" commtype="DIG" lat="39.6507" lon="27.8642">
    <comp name="--.HNE">
      <acc value="0.0348690459" flag="0"/>
      <vel value="0.0176551438" flag="0"/>
      <psa03 value="0.0705184998" flag="0"/>
      <psa10 value="0.0206260299" flag="0"/>
      <psa30 value="0.0015276312" flag="0"/>
    </comp>
    <comp name="--.HNZ">
      <acc value="0.0219020205" flag="0"/>
      <vel value="0.0097378786" flag="0"/>
      <psa03 value="0.0279483713" flag="0"/>
      <psa10 value="0.0095527448" flag="0"/>
      <psa30 value="0.0010739958" flag="0"/>
    </comp>
    <comp name="--.HNN">
      <acc value="0.0321701578" flag="0"/>
      <vel value="0.0260693880" flag="0"/>
      <psa03 value="0.0805987695" flag="0"/>
      <psa10 value="0.0198452534" flag="0"/>
      <psa30 value="0.0028261287" flag="0"/>
    </comp>
  </station>
  <station code="BLCB" name="BLCB" netid="KO" insttype="CMG-3T" commtype="DIG" lat="38.3853" lon="27.042">
    <comp name="--.HHZ">
      <acc value="0.0168925962" flag="0"/>
      <vel value="0.0092527805" flag="0"/>
      <psa03 value="0.0407254333" flag="0"/>
      <psa10 value="0.0061450015" flag="0"/>
      <psa30 value="0.0010988577" flag="0"/>
    </comp>
    <comp name="--.HHN">
      <acc value="0.0000551836" flag="0"/>
      <vel value="0.0000129782" flag="0"/>
      <psa03 value="0.0000530090" flag="0"/>
      <psa10 value="0.0000132722" flag="0"/>
      <psa30 value="0.0000012815" flag="0"/>
    </comp>
    <comp name="--.HHE">
      <acc value="0.0235448670" flag="0"/>
      <vel value="0.0158514814" flag="0"/>
      <psa03 value="0.0806404561" flag="0"/>
      <psa10 value="0.0197308421" flag="0"/>
      <psa30 value="0.0019294773" flag="0"/>
    </comp>
  </station>
  <station code="CANM" name="CANM" netid="KO" insttype="CMG-5T" commtype="DIG" lat="40.0113" lon="27.0529">
    <comp name="--.HNN">
      <acc value="0.0139747789" flag="0"/>
      <vel value="0.0111360414" flag="0"/>
      <psa03 value="0.0316034114" flag="0"/>
      <psa10 value="0.0155196607" flag="0"/>
      <psa30 value="0.0010096345" flag="0"/>
    </comp>
    <comp name="--.HNE">
      <acc value="0.0188571486" flag="0"/>
      <vel value="0.0139629859" flag="0"/>
      <psa03 value="0.0371404767" flag="0"/>
      <psa10 value="0.0175826682" flag="0"/>
      <psa30 value="0.0011801436" flag="0"/>
    </comp>
    <comp name="--.HNZ">
      <acc value="0.0112136178" flag="0"/>
      <vel value="0.0082839681" flag="0"/>
      <psa03 value="0.0257511987" flag="0"/>
      <psa10 value="0.0103655753" flag="0"/>
      <psa30 value="0.0011170545" flag="0"/>
    </comp>
  </station>
  <station code="DST" name="DST" netid="KO" insttype="CMG-5T" commtype="DIG" lat="39.6041" lon="28.6267">
    <comp name="--.HNN">
      <acc value="0.0727678885" flag="0"/>
      <vel value="0.0309600550" flag="0"/>
      <psa03 value="0.1509235455" flag="0"/>
      <psa10 value="0.0183796350" flag="0"/>
      <psa30 value="0.0020218517" flag="0"/>
    </comp>
    <comp name="--.HNE">
      <acc value="0.0691316293" flag="0"/>
      <vel value="0.0230866979" flag="0"/>
      <psa03 value="0.1153452610" flag="0"/>
      <psa10 value="0.0165958346" flag="0"/>
      <psa30 value="0.0013685926" flag="0"/>
    </comp>
    <comp name="--.HNZ">
      <acc value="0.0567931489" flag="0"/>
      <vel value="0.0186896687" flag="0"/>
      <psa03 value="0.1264268791" flag="0"/>
      <psa10 value="0.0093271406" flag="0"/>
      <psa30 value="0.0011483404" flag="0"/>
    </comp>
  </station>
  <station code="EDC" name="EDC" netid="KO" insttype="CMG-3T" commtype="DIG" lat="40.3465" lon="27.8618">
    <comp name="--.HHE">
      <acc value="0.0292848078" flag="0"/>
      <vel value="0.0175025642" flag="0"/>
      <psa03 value="0.0869318320" flag="0"/>
      <psa10 value="0.0214731114" flag="0"/>
      <psa30 value="0.0022090043" flag="0"/>
    </comp>
    <comp name="--.HHZ">
      <acc value="0.0111988753" flag="0"/>
      <vel value="0.0094630419" flag="0"/>
      <psa03 value="0.0239851810" flag="0"/>
      <psa10 value="0.0075884692" flag="0"/>
      <psa30 value="0.0010956655" flag="0"/>
    </comp>
    <comp name="--.HHN">
      <acc value="0.0424098828" flag="0"/>
      <vel value="0.0332843634" flag="0"/>
      <psa03 value="0.2045970974" flag="0"/>
      <psa10 value="0.0316945110" flag="0"/>
      <psa30 value="0.0018573396" flag="0"/>
    </comp>
  </station>
  <station code="GONE" name="GONE" netid="KO" insttype="CMG-5T" commtype="DIG" lat="40.0466" lon="27.686">
    <comp name="--.HNN">
      <acc value="0.0476435781" flag="0"/>
      <vel value="0.0335076287" flag="0"/>
      <psa03 value="0.0922851691" flag="0"/>
      <psa10 value="0.0408900925" flag="0"/>
      <psa30 value="0.0016434933" flag="0"/>
    </comp>
    <comp name="--.HNZ">
      <acc value="0.0147262114" flag="0"/>
      <vel value="0.0059092941" flag="0"/>
      <psa03 value="0.0225669247" flag="0"/>
      <psa10 value="0.0115601797" flag="0"/>
      <psa30 value="0.0009640749" flag="0"/>
    </comp>
    <comp name="--.HNE">
      <acc value="0.0264513419" flag="0"/>
      <vel value="0.0194594741" flag="0"/>
      <psa03 value="0.0561555867" flag="0"/>
      <psa10 value="0.0231864734" flag="0"/>
      <psa30 value="0.0016227034" flag="0"/>
    </comp>
  </station>
  <station code="GORD" name="GORD" netid="KO" insttype="CMG-5T" commtype="DIG" lat="38.9088" lon="28.1769">
    <comp name="--.HNZ">
      <acc value="0.1655656610" flag="0"/>
      <vel value="0.0777923294" flag="0"/>
      <psa03 value="0.2131114977" flag="0"/>
      <psa10 value="0.0498291393" flag="0"/>
      <psa30 value="0.0077765312" flag="0"/>
    </comp>
    <comp name="--.HNN">
      <acc value="0.0956647104" flag="0"/>
      <vel value="0.0775186645" flag="0"/>
      <psa03 value="0.2120545535" flag="0"/>
      <psa10 value="0.1055902410" flag="0"/>
      <psa30 value="0.0056719786" flag="0"/>
    </comp>
    <comp name="--.HNE">
      <acc value="0.1186426251" flag="0"/>
      <vel value="0.0576458029" flag="0"/>
      <psa03 value="0.2461341162" flag="0"/>
      <psa10 value="0.0579737298" flag="0"/>
      <psa30 value="0.0041322466" flag="0"/>
    </comp>
  </station>
  <station code="KCTX" name="KCTX" netid="KO" insttype="CMG-3ESP" commtype="DIG" lat="40.2626" lon="28.3353">
    <comp name="--.HHE">
      <acc value="0.0219073838" flag="0"/>
      <vel value="0.0103512368" flag="0"/>
      <psa03 value="0.0791221907" flag="0"/>
      <psa10 value="0.0141649423" flag="0"/>
      <psa30 value="0.0008197349" flag="0"/>
    </comp>
    <comp name="--.HHN">
      <acc value="0.0353717963" flag="0"/>
      <vel value="0.0143045131" flag="0"/>
      <psa03 value="0.1132522762" flag="0"/>
      <psa10 value="0.0221041056" flag="0"/>
      <psa30 value="0.0010157420" flag="0"/>
    </comp>
    <comp name="--.HHZ">
      <acc value="0.0276187188" flag="0"/>
      <vel value="0.0133844967" flag="0"/>
      <psa03 value="0.0779152735" flag="0"/>
      <psa10 value="0.0083114005" flag="0"/>
      <psa30 value="0.0007763926" flag="0"/>
    </comp>
  </station>
  <station code="KULA" name="KULA" netid="KO" insttype="CMG-3T" commtype="DIG" lat="38.5145" lon="28.6607">
    <comp name="--.HHE">
      <acc value="0.2260444591" flag="0"/>
      <vel value="0.0634946334" flag="0"/>
      <psa03 value="0.2605254160" flag="0"/>
      <psa10 value="0.0327760412" flag="0"/>
      <psa30 value="0.0025154338" flag="0"/>
    </comp>
    <comp name="--.HHN">
      <acc value="0.1871624907" flag="0"/>
      <vel value="0.0442683825" flag="0"/>
      <psa03 value="0.2644057925" flag="0"/>
      <psa10 value="0.0136529952" flag="0"/>
      <psa30 value="0.0014853254" flag="0"/>
    </comp>
    <comp name="--.HHZ">
      <acc value="0.1085954147" flag="0"/>
      <vel value="0.0267930252" flag="0"/>
      <psa03 value="0.2075144830" flag="0"/>
      <psa10 value="0.0139433248" flag="0"/>
      <psa30 value="0.0012732308" flag="0"/>
    </comp>
  </station>
  <station code="MDNY" name="MDNY" netid="KO" insttype="CMG-3ESP" commtype="DIG" lat="40.3709" lon="28.8846">
    <comp name="--.HHE">
      <acc value="0.1512451381" flag="0"/>
      <vel value="0.0601298135" flag="0"/>
      <psa03 value="0.4802718722" flag="0"/>
      <psa10 value="0.0239785507" flag="0"/>
      <psa30 value="0.0023106594" flag="0"/>
    </comp>
    <comp name="--.HHN">
      <acc value="0.1176257405" flag="0"/>
      <vel value="0.0456803048" flag="0"/>
      <psa03 value="0.4495651739" flag="0"/>
      <psa10 value="0.0360990048" flag="0"/>
      <psa30 value="0.0016941571" flag="0"/>
    </comp>
    <comp name="--.HHZ">
      <acc value="0.0359052859" flag="0"/>
      <vel value="0.0171244536" flag="0"/>
      <psa03 value="0.0821463822" flag="0"/>
      <psa10 value="0.0163075017" flag="0"/>
      <psa30 value="0.0025226086" flag="0"/>
    </comp>
  </station>
  <station code="NAZL" name="NAZL" netid="KO" insttype="CMG-5T" commtype="DIG" lat="37.9641" lon="28.2922">
    <comp name="--.HNN">
      <acc value="0.0398208673" flag="0"/>
      <vel value="0.0236977678" flag="0"/>
      <psa03 value="0.1533421253" flag="0"/>
      <psa10 value="0.0202556506" flag="0"/>
      <psa30 value="0.0011277853" flag="0"/>
    </comp>
    <comp name="--.HNE">
      <acc value="0.0328797332" flag="0"/>
      <vel value="0.0210632904" flag="0"/>
      <psa03 value="0.1001255230" flag="0"/>
      <psa10 value="0.0373935802" flag="0"/>
      <psa30 value="0.0018929212" flag="0"/>
    </comp>
    <comp name="--.HNZ">
      <acc value="0.0221652065" flag="0"/>
      <vel value="0.0131512788" flag="0"/>
      <psa03 value="0.0801056570" flag="0"/>
      <psa10 value="0.0100355923" flag="0"/>
      <psa30 value="0.0007145699" flag="0"/>
    </comp>
  </station>
  <station code="ORLT" name="ORLT" netid="KO" insttype="CMG-5T" commtype="DIG" lat="40.0452" lon="28.8914">
    <comp name="--.HNN">
      <acc value="0.1171054952" flag="0"/>
      <vel value="0.0616315372" flag="0"/>
      <psa03 value="0.3335576925" flag="0"/>
      <psa10 value="0.0674197742" flag="0"/>
      <psa30 value="0.0030347586" flag="0"/>
    </comp>
    <comp name="--.HNZ">
      <acc value="0.0365375580" flag="0"/>
      <vel value="0.0244071830" flag="0"/>
      <psa03 value="0.1363314458" flag="0"/>
      <psa10 value="0.0352168957" flag="0"/>
      <psa30 value="0.0017476308" flag="0"/>
    </comp>
    <comp name="--.HNE">
      <acc value="0.0739920040" flag="0"/>
      <vel value="0.0442217704" flag="0"/>
      <psa03 value="0.2442112577" flag="0"/>
      <psa10 value="0.0471500057" flag="0"/>
      <psa30 value="0.0027402469" flag="0"/>
    </comp>
  </station>
  <station code="SHAP" name="SHAP" netid="KO" insttype="CMG-5T" commtype="DIG" lat="39.0231" lon="29.222">
    <comp name="--.HNE">
      <acc value="0.6483300953" flag="0"/>
      <vel value="0.1494073101" flag="0"/>
      <psa03 value="0.4814640087" flag="0"/>
      <psa10 value="0.0294548136" flag="0"/>
      <psa30 value="0.0018904271" flag="0"/>
    </comp>
    <comp name="--.HNN">
      <acc value="0.5516089153" flag="0"/>
      <vel value="0.1277943859" flag="0"/>
      <psa03 value="0.6217886057" flag="0"/>
      <psa10 value="0.0452738994" flag="0"/>
      <psa30 value="0.0024066241" flag="0"/>
    </comp>
    <comp name="--.HNZ">
      <acc value="0.2892323393" flag="0"/>
      <vel value="0.0654040865" flag="0"/>
      <psa03 value="0.1867763370" flag="0"/>
      <psa10 value="0.0118364762" flag="0"/>
      <psa30 value="0.0010099888" flag="0"/>
    </comp>
  </station>
  <station code="SIMA" name="SIMA" netid="KO" insttype="CMG-6T" commtype="DIG" lat="39.0833" lon="28.9825">
    <comp name="--.HHE">
      <acc value="0.3424082264" flag="0"/>
      <vel value="0.0859523526" flag="0"/>
      <psa03 value="0.6350343735" flag="0"/>
      <psa10 value="0.0213893663" flag="0"/>
      <psa30 value="0.0028031892" flag="0"/>
    </comp>
    <comp name="--.HHN">
      <acc value="0.2811974503" flag="0"/>
      <vel value="0.1044571000" flag="0"/>
      <psa03 value="0.7332997489" flag="0"/>
      <psa10 value="0.0258532048" flag="0"/>
      <psa30 value="0.0033406352" flag="0"/>
    </comp>
    <comp name="--.HHZ">
      <acc value="0.2141427205" flag="0"/>
      <vel value="0.0471845453" flag="0"/>
      <psa03 value="0.2379289447" flag="0"/>
      <psa10 value="0.0186645071" flag="0"/>
      <psa30 value="0.0014675639" flag="0"/>
    </comp>
  </station>
  <station code="SMAA" name="SMAA" netid="KO" insttype="CMG-5T" commtype="DIG" lat="39.1005" lon="28.9805">
    <comp name="--.HNN">
      <acc value="0.3814782454" flag="0"/>
      <vel value="0.1429969947" flag="0"/>
      <psa03 value="0.6628329324" flag="0"/>
      <psa10 value="0.0814140148" flag="0"/>
      <psa30 value="0.0061225194" flag="0"/>
    </comp>
    <comp name="--.HNZ">
      <acc value="0.1495938881" flag="0"/>
      <vel value="0.0433223258" flag="0"/>
      <psa03 value="0.2038054639" flag="0"/>
      <psa10 value="0.0453670952" flag="0"/>
      <psa30 value="0.0022211335" flag="0"/>
    </comp>
    <comp name="--.HNE">
      <acc value="0.5949843397" flag="0"/>
      <vel value="0.1513720534" flag="0"/>
      <psa03 value="0.8316696911" flag="0"/>
      <psa10 value="0.1071142216" flag="0"/>
      <psa30 value="0.0088707685" flag="0"/>
    </comp>
  </station>
  <station code="SOMA" name="SOMA" netid="KO" insttype="CMG-5T" commtype="DIG" lat="39.1564" lon="27.5341">
    <comp name="--.HNE">
      <acc value="0.0486494753" flag="0"/>
      <vel value="0.0148937918" flag="0"/>
      <psa03 value="0.0800736492" flag="0"/>
      <psa10 value="0.0182010946" flag="0"/>
      <psa30 value="0.0013791190" flag="0"/>
    </comp>
    <comp name="--.HNZ">
      <acc value="0.0329588092" flag="0"/>
      <vel value="0.0113190264" flag="0"/>
      <psa03 value="0.0452566489" flag="0"/>
      <psa10 value="0.0131181140" flag="0"/>
      <psa30 value="0.0012329642" flag="0"/>
    </comp>
    <comp name="--.HNN">
      <acc value="0.0880493717" flag="0"/>
      <vel value="0.0295264094" flag="0"/>
      <psa03 value="0.1910416247" flag="0"/>
      <psa10 value="0.0165160094" flag="0"/>
      <psa30 value="0.0014243066" flag="0"/>
    </comp>
  </station>
  <station code="SUSR" name="SUSR" netid="KO" insttype="CMG-5T" commtype="DIG" lat="39.9627" lon="28.0835">
    <comp name="--.HNE">
      <acc value="0.0376104376" flag="0"/>
      <vel value="0.0162690353" flag="0"/>
      <psa03 value="0.1276905301" flag="0"/>
      <psa10 value="0.0096292736" flag="0"/>
      <psa30 value="0.0008380551" flag="0"/>
    </comp>
    <comp name="--.HNN">
      <acc value="0.0419027759" flag="0"/>
      <vel value="0.0208630705" flag="0"/>
      <psa03 value="0.1330820469" flag="0"/>
      <psa10 value="0.0079331100" flag="0"/>
      <psa30 value="0.0009720551" flag="0"/>
    </comp>
    <comp name="--.HNZ">
      <acc value="0.0288943900" flag="0"/>
      <vel value="0.0085825164" flag="0"/>
      <psa03 value="0.0640103546" flag="0"/>
      <psa10 value="0.0048663961" flag="0"/>
      <psa30 value="0.0011955454" flag="0"/>
    </comp>
  </station>
  <station code="YAYO" name="YAYO" netid="KO" insttype="CMG-6T" commtype="DIG" lat="39.6113" lon="27.0726">
    <comp name="--.HHE">
      <acc value="0.0119622235" flag="0"/>
      <vel value="0.0132545265" flag="0"/>
      <psa03 value="0.0455957154" flag="0"/>
      <psa10 value="0.0178423946" flag="0"/>
      <psa30 value="0.0009866178" flag="0"/>
    </comp>
    <comp name="--.HHN">
      <acc value="0.0156600832" flag="0"/>
      <vel value="0.0097685952" flag="0"/>
      <psa03 value="0.0466839001" flag="0"/>
      <psa10 value="0.0100176434" flag="0"/>
      <psa30 value="0.0004910959" flag="0"/>
    </comp>
    <comp name="--.HHZ">
      <acc value="0.0143230679" flag="0"/>
      <vel value="0.0103844205" flag="0"/>
      <psa03 value="0.0281056527" flag="0"/>
      <psa10 value="0.0104655121" flag="0"/>
      <psa30 value="0.0006870192" flag="0"/>
    </comp>
  </station>
  <station code="YENI" name="YENI" netid="KO" insttype="CMG-5T" commtype="DIG" lat="39.9364" lon="27.2422">
    <comp name="--.HNN">
      <acc value="0.0258019325" flag="0"/>
      <vel value="0.0163407204" flag="0"/>
      <psa03 value="0.0580643807" flag="0"/>
      <psa10 value="0.0262957154" flag="0"/>
      <psa30 value="0.0010364221" flag="0"/>
    </comp>
    <comp name="--.HNZ">
      <acc value="0.0095684454" flag="0"/>
      <vel value="0.0071798272" flag="0"/>
      <psa03 value="0.0349135433" flag="0"/>
      <psa10 value="0.0096369818" flag="0"/>
      <psa30 value="0.0007492557" flag="0"/>
    </comp>
    <comp name="--.HNE">
      <acc value="0.0458798305" flag="0"/>
      <vel value="0.0262596437" flag="0"/>
      <psa03 value="0.0856039357" flag="0"/>
      <psa10 value="0.0298819946" flag="0"/>
      <psa30 value="0.0022700572" flag="0"/>
    </comp>
  </station>
</stationlist>
