<?xml version="1.0" encoding="UTF-8" standalone="yes"?>
<!DOCTYPE earthquake SYSTEM "stationlist.dtd">
<stationlist created="" xmlns="ch.ethz.sed.shakemap.usgs.xml">
  <station code="AKS" name="AKS" netid="KO" insttype="CMG-5T" commtype="DIG" lat="38.8785" lon="27.8129">
    <comp name="--.HNE">
      <acc value="0.1002066129" flag="0"/>
      <vel value="0.0287123395" flag="0"/>
      <psa03 value="0.1654633049" flag="0"/>
      <psa10 value="0.0311597512" flag="0"/>
      <psa30 value="0.0024545062" flag="0"/>
    </comp>
    <comp name="--.HNN">
      <acc value="0.1066942209" flag="0"/>
      <vel value="0.0388063369" flag="0"/>
      <psa03 value="0.1698366886" flag="0"/>
      <psa10 value="0.0216602212" flag="0"/>
      <psa30 value="0.0031079967" flag="0"/>
    </comp>
    <comp name="--.HNZ">
      <acc value="0.0965400743" flag="0"/>
      <vel value="0.0236354747" flag="0"/>
      <psa03 value="0.0912850829" flag="0"/>
      <psa10 value="0.0149789744" flag="0"/>
      <psa30 value="0.0022276336" flag="0"/>
    </comp>
  </station>
  <station code="BALB" name="BALB" netid="KO" insttype="CMG-5T" commtype="DIG" lat="39.6507" lon="27.8642">
    <comp name="--.HNE">
      <acc value="0.0348690381" flag="0"/>
      <vel value="0.0176551466" flag="0"/>
      <psa03 value="0.0705184998" flag="0"/>
      <psa10 value="0.0206260304" flag="0"/>
      <psa30 value="0.0015276369" flag="0"/>
    </comp>
    <comp name="--.HNN">
      <acc value="0.0321701626" flag="0"/>
      <vel value="0.0260693893" flag="0"/>
      <psa03 value="0.0805987695" flag="0"/>
      <psa10 value="0.0198452502" flag="0"/>
      <psa30 value="0.0028261072" flag="0"/>
    </comp>
    <comp name="--.HNZ">
      <acc value="0.0219020155" flag="0"/>
      <vel value="0.0097378770" flag="0"/>
      <psa03 value="0.0279483713" flag="0"/>
      <psa10 value="0.0095527437" flag="0"/>
      <psa30 value="0.0010744087" flag="0"/>
    </comp>
  </station>
  <station code="DKL" name="DKL" netid="KO" insttype="CMG-3ESPC" commtype="DIG" lat="39.0713" lon="26.9053">
    <comp name="--.HHE">
      <acc value="0.0450121262" flag="0"/>
      <vel value="0.0059004063" flag="0"/>
      <psa03 value="0.0230425526" flag="0"/>
      <psa10 value="0.0081613755" flag="0"/>
      <psa30 value="0.0012026420" flag="0"/>
    </comp>
    <comp name="--.HHN">
      <acc value="0.0533792370" flag="0"/>
      <vel value="0.0084981082" flag="0"/>
      <psa03 value="0.0309671092" flag="0"/>
      <psa10 value="0.0128162889" flag="0"/>
      <psa30 value="0.0012652331" flag="0"/>
    </comp>
    <comp name="--.HHZ">
      <acc value="0.0502651088" flag="0"/>
      <vel value="0.0046069684" flag="0"/>
      <psa03 value="0.0189014019" flag="0"/>
      <psa10 value="0.0077160787" flag="0"/>
      <psa30 value="0.0009422555" flag="0"/>
    </comp>
  </station>
  <station code="DST" name="DST" netid="KO" insttype="CMG-5T" commtype="DIG" lat="39.6041" lon="28.6267">
    <comp name="--.HNE">
      <acc value="0.0691316547" flag="0"/>
      <vel value="0.0230867210" flag="0"/>
      <psa03 value="0.1153452610" flag="0"/>
      <psa10 value="0.0165958280" flag="0"/>
      <psa30 value="0.0013629273" flag="0"/>
    </comp>
    <comp name="--.HNN">
      <acc value="0.0727678831" flag="0"/>
      <vel value="0.0309600544" flag="0"/>
      <psa03 value="0.1509235455" flag="0"/>
      <psa10 value="0.0183796305" flag="0"/>
      <psa30 value="0.0020237241" flag="0"/>
    </comp>
    <comp name="--.HNZ">
      <acc value="0.0567931435" flag="0"/>
      <vel value="0.0186896581" flag="0"/>
      <psa03 value="0.1264268791" flag="0"/>
      <psa10 value="0.0093271396" flag="0"/>
      <psa30 value="0.0011477064" flag="0"/>
    </comp>
  </station>
  <station code="GOMA" name="GOMA" netid="KO" insttype="CMG-5T" commtype="DIG" lat="38.7077" lon="27.9175">
    <comp name="--.HNZ">
      <acc value="0.1937220709" flag="0"/>
      <vel value="0.0467257084" flag="0"/>
      <psa03 value="0.1457193622" flag="0"/>
      <psa10 value="0.0134052289" flag="0"/>
      <psa30 value="0.0017823021" flag="0"/>
    </comp>
  </station>
  <station code="GONE" name="GONE" netid="KO" insttype="CMG-5T" commtype="DIG" lat="40.0466" lon="27.686">
    <comp name="--.HNE">
      <acc value="0.0264513330" flag="0"/>
      <vel value="0.0194594761" flag="0"/>
      <psa03 value="0.0561555867" flag="0"/>
      <psa10 value="0.0231864734" flag="0"/>
      <psa30 value="0.0016227206" flag="0"/>
    </comp>
    <comp name="--.HNZ">
      <acc value="0.0147262165" flag="0"/>
      <vel value="0.0059092980" flag="0"/>
      <psa03 value="0.0225669247" flag="0"/>
      <psa10 value="0.0115601797" flag="0"/>
      <psa30 value="0.0009641772" flag="0"/>
    </comp>
    <comp name="--.HNN">
      <acc value="0.0476435785" flag="0"/>
      <vel value="0.0335076266" flag="0"/>
      <psa03 value="0.0922851691" flag="0"/>
      <psa10 value="0.0408900924" flag="0"/>
      <psa30 value="0.0016432750" flag="0"/>
    </comp>
  </station>
  <station code="GORD" name="GORD" netid="KO" insttype="CMG-5T" commtype="DIG" lat="38.9088" lon="28.1769">
    <comp name="--.HNE">
      <acc value="0.1186426211" flag="0"/>
      <vel value="0.0576458013" flag="0"/>
      <psa03 value="0.2461341162" flag="0"/>
      <psa10 value="0.0579737483" flag="0"/>
      <psa30 value="0.0041333525" flag="0"/>
    </comp>
    <comp name="--.HNZ">
      <acc value="0.1655656536" flag="0"/>
      <vel value="0.0777923364" flag="0"/>
      <psa03 value="0.2131114977" flag="0"/>
      <psa10 value="0.0498291383" flag="0"/>
      <psa30 value="0.0077732340" flag="0"/>
    </comp>
    <comp name="--.HNN">
      <acc value="0.0956647149" flag="0"/>
      <vel value="0.0775186636" flag="0"/>
      <psa03 value="0.2120545535" flag="0"/>
      <psa10 value="0.1055902419" flag="0"/>
      <psa30 value="0.0056722333" flag="0"/>
    </comp>
  </station>
  <station code="KCTX" name="KCTX" netid="KO" insttype="CMG-3ESP" commtype="DIG" lat="40.2626" lon="28.3353">
    <comp name="--.HHE">
      <acc value="0.0219073835" flag="0"/>
      <vel value="0.0103512369" flag="0"/>
      <psa03 value="0.0791221907" flag="0"/>
      <psa10 value="0.0141649423" flag="0"/>
      <psa30 value="0.0008197246" flag="0"/>
    </comp>
    <comp name="--.HHZ">
      <acc value="0.0276187185" flag="0"/>
      <vel value="0.0133844972" flag="0"/>
      <psa03 value="0.0779152735" flag="0"/>
      <psa10 value="0.0083114005" flag="0"/>
      <psa30 value="0.0007763666" flag="0"/>
    </comp>
    <comp name="--.HHN">
      <acc value="0.0353717966" flag="0"/>
      <vel value="0.0143045135" flag="0"/>
      <psa03 value="0.1132522762" flag="0"/>
      <psa10 value="0.0221041056" flag="0"/>
      <psa30 value="0.0010157760" flag="0"/>
    </comp>
  </station>
  <station code="KULA" name="KULA" netid="KO" insttype="CMG-3T" commtype="DIG" lat="38.5145" lon="28.6607">
    <comp name="--.HHE">
      <acc value="0.2260444586" flag="0"/>
      <vel value="0.0634946330" flag="0"/>
      <psa03 value="0.2605254160" flag="0"/>
      <psa10 value="0.0327760413" flag="0"/>
      <psa30 value="0.0025155555" flag="0"/>
    </comp>
    <comp name="--.HHN">
      <acc value="0.1871624903" flag="0"/>
      <vel value="0.0442683827" flag="0"/>
      <psa03 value="0.2644057925" flag="0"/>
      <psa10 value="0.0136529949" flag="0"/>
      <psa30 value="0.0014853617" flag="0"/>
    </comp>
    <comp name="--.HHZ">
      <acc value="0.1085954141" flag="0"/>
      <vel value="0.0267930251" flag="0"/>
      <psa03 value="0.2075144830" flag="0"/>
      <psa10 value="0.0139433248" flag="0"/>
      <psa30 value="0.0012732064" flag="0"/>
    </comp>
  </station>
  <station code="ORLT" name="ORLT" netid="KO" insttype="CMG-5T" commtype="DIG" lat="40.0452" lon="28.8914">
    <comp name="--.HNN">
      <acc value="0.1171055006" flag="0"/>
      <vel value="0.0616315524" flag="0"/>
      <psa03 value="0.3335576925" flag="0"/>
      <psa10 value="0.0674197757" flag="0"/>
      <psa30 value="0.0030315120" flag="0"/>
    </comp>
    <comp name="--.HNE">
      <acc value="0.0739920041" flag="0"/>
      <vel value="0.0442217543" flag="0"/>
      <psa03 value="0.2442112577" flag="0"/>
      <psa10 value="0.0471500058" flag="0"/>
      <psa30 value="0.0027414406" flag="0"/>
    </comp>
    <comp name="--.HNZ">
      <acc value="0.0365375756" flag="0"/>
      <vel value="0.0244071596" flag="0"/>
      <psa03 value="0.1363314458" flag="0"/>
      <psa10 value="0.0352168947" flag="0"/>
      <psa30 value="0.0017486287" flag="0"/>
    </comp>
  </station>
  <station code="SHAP" name="SHAP" netid="KO" insttype="CMG-5T" commtype="DIG" lat="39.0231" lon="29.222">
    <comp name="--.HNE">
      <acc value="0.6483300951" flag="0"/>
      <vel value="0.1494073085" flag="0"/>
      <psa03 value="0.4814640087" flag="0"/>
      <psa10 value="0.0294548148" flag="0"/>
      <psa30 value="0.0018901420" flag="0"/>
    </comp>
    <comp name="--.HNN">
      <acc value="0.5516089027" flag="0"/>
      <vel value="0.1277943837" flag="0"/>
      <psa03 value="0.6217886057" flag="0"/>
      <psa10 value="0.0452738963" flag="0"/>
      <psa30 value="0.0024052647" flag="0"/>
    </comp>
    <comp name="--.HNZ">
      <acc value="0.2892323446" flag="0"/>
      <vel value="0.0654040745" flag="0"/>
      <psa03 value="0.1867763371" flag="0"/>
      <psa10 value="0.0118364806" flag="0"/>
      <psa30 value="0.0010075365" flag="0"/>
    </comp>
  </station>
  <station code="SIMA" name="SIMA" netid="KO" insttype="CMG-6T" commtype="DIG" lat="39.0833" lon="28.9825">
    <comp name="--.HHN">
      <acc value="0.2811975002" flag="0"/>
      <vel value="0.1044571024" flag="0"/>
      <psa03 value="0.7332997489" flag="0"/>
      <psa10 value="0.0258532039" flag="0"/>
      <psa30 value="0.0033406437" flag="0"/>
    </comp>
    <comp name="--.HHE">
      <acc value="0.3424082626" flag="0"/>
      <vel value="0.0859523521" flag="0"/>
      <psa03 value="0.6350343735" flag="0"/>
      <psa10 value="0.0213893653" flag="0"/>
      <psa30 value="0.0028034547" flag="0"/>
    </comp>
    <comp name="--.HHZ">
      <acc value="0.2141427262" flag="0"/>
      <vel value="0.0471845385" flag="0"/>
      <psa03 value="0.2379289447" flag="0"/>
      <psa10 value="0.0186645070" flag="0"/>
      <psa30 value="0.0014675848" flag="0"/>
    </comp>
  </station>
  <station code="SMAA" name="SMAA" netid="KO" insttype="CMG-5T" commtype="DIG" lat="39.1005" lon="28.9805">
    <comp name="--.HNZ">
      <acc value="0.1495939211" flag="0"/>
      <vel value="0.0433223148" flag="0"/>
      <psa03 value="0.2038054639" flag="0"/>
      <psa10 value="0.0453670913" flag="0"/>
      <psa30 value="0.0022223439" flag="0"/>
    </comp>
    <comp name="--.HNN">
      <acc value="0.3814782486" flag="0"/>
      <vel value="0.1429969799" flag="0"/>
      <psa03 value="0.6628329324" flag="0"/>
      <psa10 value="0.0814140155" flag="0"/>
      <psa30 value="0.0061252063" flag="0"/>
    </comp>
    <comp name="--.HNE">
      <acc value="0.5949843224" flag="0"/>
      <vel value="0.1513720502" flag="0"/>
      <psa03 value="0.8316696911" flag="0"/>
      <psa10 value="0.1071142245" flag="0"/>
      <psa30 value="0.0088694938" flag="0"/>
    </comp>
  </station>
  <station code="SOMA" name="SOMA" netid="KO" insttype="CMG-5T" commtype="DIG" lat="39.1564" lon="27.5341">
    <comp name="--.HNN">
      <acc value="0.0880493716" flag="0"/>
      <vel value="0.0295264112" flag="0"/>
      <psa03 value="0.1910416247" flag="0"/>
      <psa10 value="0.0165160100" flag="0"/>
      <psa30 value="0.0014234167" flag="0"/>
    </comp>
    <comp name="--.HNE">
      <acc value="0.0486494800" flag="0"/>
      <vel value="0.0148937891" flag="0"/>
      <psa03 value="0.0800736492" flag="0"/>
      <psa10 value="0.0182010937" flag="0"/>
      <psa30 value="0.0013795825" flag="0"/>
    </comp>
    <comp name="--.HNZ">
      <acc value="0.0329588115" flag="0"/>
      <vel value="0.0113190271" flag="0"/>
      <psa03 value="0.0452566489" flag="0"/>
      <psa10 value="0.0131181142" flag="0"/>
      <psa30 value="0.0012329154" flag="0"/>
    </comp>
  </station>
  <station code="SUSR" name="SUSR" netid="KO" insttype="CMG-5T" commtype="DIG" lat="39.9627" lon="28.0835">
    <comp name="--.HNZ">
      <acc value="0.0288943628" flag="0"/>
      <vel value="0.0085825206" flag="0"/>
      <psa03 value="0.0640103546" flag="0"/>
      <psa10 value="0.0048663942" flag="0"/>
      <psa30 value="0.0011952123" flag="0"/>
    </comp>
    <comp name="--.HNN">
      <acc value="0.0419027798" flag="0"/>
      <vel value="0.0208630678" flag="0"/>
      <psa03 value="0.1330820469" flag="0"/>
      <psa10 value="0.0079331100" flag="0"/>
      <psa30 value="0.0009719838" flag="0"/>
    </comp>
    <comp name="--.HNE">
      <acc value="0.0376104514" flag="0"/>
      <vel value="0.0162690318" flag="0"/>
      <psa03 value="0.1276905301" flag="0"/>
      <psa10 value="0.0096292739" flag="0"/>
      <psa30 value="0.0008367917" flag="0"/>
    </comp>
  </station>
  <station code="YAYO" name="YAYO" netid="KO" insttype="CMG-6T" commtype="DIG" lat="39.6113" lon="27.0726">
    <comp name="--.HHE">
      <acc value="0.0119622236" flag="0"/>
      <vel value="0.0132545264" flag="0"/>
      <psa03 value="0.0455957154" flag="0"/>
      <psa10 value="0.0178423945" flag="0"/>
      <psa30 value="0.0009867232" flag="0"/>
    </comp>
    <comp name="--.HHN">
      <acc value="0.0156600878" flag="0"/>
      <vel value="0.0097685963" flag="0"/>
      <psa03 value="0.0466839001" flag="0"/>
      <psa10 value="0.0100176434" flag="0"/>
      <psa30 value="0.0004910909" flag="0"/>
    </comp>
    <comp name="--.HHZ">
      <acc value="0.0143230619" flag="0"/>
      <vel value="0.0103844241" flag="0"/>
      <psa03 value="0.0281056527" flag="0"/>
      <psa10 value="0.0104655122" flag="0"/>
      <psa30 value="0.0006869609" flag="0"/>
    </comp>
  </station>
</stationlist>
