<?xml version="1.0" encoding="UTF-8" standalone="yes"?>
<!DOCTYPE earthquake SYSTEM "stationlist.dtd">
<stationlist created="" xmlns="ch.ethz.sed.shakemap.usgs.xml">
  <station code="AKS" name="AKS" netid="KO" insttype="CMG-5T" commtype="DIG" lat="38.8785" lon="27.8129">
    <comp name="--.HNN">
      <acc value="0.1008810406" flag="0"/>
      <vel value="0.0284037533" flag="0"/>
      <psa03 value="0.0927443121" flag="0"/>
      <psa10 value="0.0144087692" flag="0"/>
      <psa30 value="0.0011077980" flag="0"/>
    </comp>
    <comp name="--.HNZ">
      <acc value="0.0783833391" flag="0"/>
      <vel value="0.0097979504" flag="0"/>
      <psa03 value="0.0331938630" flag="0"/>
      <psa10 value="0.0059269587" flag="0"/>
      <psa30 value="0.0006813985" flag="0"/>
    </comp>
  </station>
  <station code="BALB" name="BALB" netid="KO" insttype="CMG-5T" commtype="DIG" lat="39.6507" lon="27.8642">
    <comp name="--.HNZ">
      <acc value="0.0292113460" flag="0"/>
      <vel value="0.0137261835" flag="0"/>
      <psa03 value="0.0332652629" flag="0"/>
      <psa10 value="0.0129636268" flag="0"/>
      <psa30 value="0.0011247459" flag="0"/>
    </comp>
    <comp name="--.HNN">
      <acc value="0.0433355447" flag="0"/>
      <vel value="0.0272168846" flag="0"/>
      <psa03 value="0.0589766519" flag="0"/>
      <psa10 value="0.0265446973" flag="0"/>
      <psa30 value="0.0018112198" flag="0"/>
    </comp>
    <comp name="--.HNE">
      <acc value="0.0404056648" flag="0"/>
      <vel value="0.0193243003" flag="0"/>
      <psa03 value="0.0433237630" flag="0"/>
      <psa10 value="0.0303044219" flag="0"/>
      <psa30 value="0.0015048319" flag="0"/>
    </comp>
  </station>
  <station code="GONE" name="GONE" netid="KO" insttype="CMG-5T" commtype="DIG" lat="40.0466" lon="27.686">
    <comp name="--.HNE">
      <acc value="0.0169272382" flag="0"/>
      <vel value="0.0085231031" flag="0"/>
      <psa03 value="0.0369504319" flag="0"/>
      <psa10 value="0.0116021889" flag="0"/>
      <psa30 value="0.0009036648" flag="0"/>
    </comp>
    <comp name="--.HNN">
      <acc value="0.0259077188" flag="0"/>
      <vel value="0.0202960207" flag="0"/>
      <psa03 value="0.0655865076" flag="0"/>
      <psa10 value="0.0143522073" flag="0"/>
      <psa30 value="0.0009328425" flag="0"/>
    </comp>
    <comp name="--.HNZ">
      <acc value="0.0104240428" flag="0"/>
      <vel value="0.0059274502" flag="0"/>
      <psa03 value="0.0246863006" flag="0"/>
      <psa10 value="0.0046113208" flag="0"/>
      <psa30 value="0.0007205204" flag="0"/>
    </comp>
  </station>
  <station code="GORD" name="GORD" netid="KO" insttype="CMG-5T" commtype="DIG" lat="38.9088" lon="28.1769">
    <comp name="--.HNE">
      <acc value="0.1259910676" flag="0"/>
      <vel value="0.0560136242" flag="0"/>
      <psa03 value="0.1664973997" flag="0"/>
      <psa10 value="0.0531985881" flag="0"/>
      <psa30 value="0.0041905680" flag="0"/>
    </comp>
    <comp name="--.HNN">
      <acc value="0.1148007984" flag="0"/>
      <vel value="0.0643018481" flag="0"/>
      <psa03 value="0.1453147312" flag="0"/>
      <psa10 value="0.0784959616" flag="0"/>
      <psa30 value="0.0054750193" flag="0"/>
    </comp>
    <comp name="--.HNZ">
      <acc value="0.1969825664" flag="0"/>
      <vel value="0.0469069505" flag="0"/>
      <psa03 value="0.1357266225" flag="0"/>
      <psa10 value="0.0416533101" flag="0"/>
      <psa30 value="0.0021565742" flag="0"/>
    </comp>
  </station>
  <station code="KCTX" name="KCTX" netid="KO" insttype="CMG-3ESP" commtype="DIG" lat="40.2626" lon="28.3353">
    <comp name="--.HHE">
      <acc value="0.0150146236" flag="0"/>
      <vel value="0.0076077178" flag="0"/>
      <psa03 value="0.0271076567" flag="0"/>
      <psa10 value="0.0096038604" flag="0"/>
      <psa30 value="0.0006730522" flag="0"/>
    </comp>
    <comp name="--.HHN">
      <acc value="0.0196001780" flag="0"/>
      <vel value="0.0071681201" flag="0"/>
      <psa03 value="0.0591328870" flag="0"/>
      <psa10 value="0.0065544203" flag="0"/>
      <psa30 value="0.0004154395" flag="0"/>
    </comp>
    <comp name="--.HHZ">
      <acc value="0.0158489288" flag="0"/>
      <vel value="0.0067420461" flag="0"/>
      <psa03 value="0.0400105260" flag="0"/>
      <psa10 value="0.0058727347" flag="0"/>
      <psa30 value="0.0004082730" flag="0"/>
    </comp>
  </station>
  <station code="ORLT" name="ORLT" netid="KO" insttype="CMG-5T" commtype="DIG" lat="40.0452" lon="28.8914">
    <comp name="--.HNE">
      <acc value="0.0573293649" flag="0"/>
      <vel value="0.0299216724" flag="0"/>
      <psa03 value="0.1972344254" flag="0"/>
      <psa10 value="0.0226778751" flag="0"/>
      <psa30 value="0.0011190275" flag="0"/>
    </comp>
    <comp name="--.HNN">
      <acc value="0.0609836772" flag="0"/>
      <vel value="0.0261248553" flag="0"/>
      <psa03 value="0.1962333010" flag="0"/>
      <psa10 value="0.0189007848" flag="0"/>
      <psa30 value="0.0008622439" flag="0"/>
    </comp>
    <comp name="--.HNZ">
      <acc value="0.0213577148" flag="0"/>
      <vel value="0.0132279291" flag="0"/>
      <psa03 value="0.0737641198" flag="0"/>
      <psa10 value="0.0163660076" flag="0"/>
      <psa30 value="0.0006638234" flag="0"/>
    </comp>
  </station>
  <station code="SHAP" name="SHAP" netid="KO" insttype="CMG-5T" commtype="DIG" lat="39.0231" lon="29.222">
    <comp name="--.HNN">
      <acc value="0.1486877882" flag="0"/>
      <vel value="0.0626934939" flag="0"/>
      <psa03 value="0.3667985459" flag="0"/>
      <psa10 value="0.0255275567" flag="0"/>
      <psa30 value="0.0015707511" flag="0"/>
    </comp>
    <comp name="--.HNZ">
      <acc value="0.0775110015" flag="0"/>
      <vel value="0.0205267127" flag="0"/>
      <psa03 value="0.1118511582" flag="0"/>
      <psa10 value="0.0089361275" flag="0"/>
      <psa30 value="0.0007213951" flag="0"/>
    </comp>
    <comp name="--.HNE">
      <acc value="0.1643955018" flag="0"/>
      <vel value="0.0565768713" flag="0"/>
      <psa03 value="0.4072815730" flag="0"/>
      <psa10 value="0.0141537582" flag="0"/>
      <psa30 value="0.0010861334" flag="0"/>
    </comp>
  </station>
  <station code="SIMA" name="SIMA" netid="KO" insttype="CMG-6T" commtype="DIG" lat="39.0833" lon="28.9825">
    <comp name="--.HHE">
      <acc value="0.1524796343" flag="0"/>
      <vel value="0.0440793939" flag="0"/>
      <psa03 value="0.2801581290" flag="0"/>
      <psa10 value="0.0139644884" flag="0"/>
      <psa30 value="0.0010315708" flag="0"/>
    </comp>
    <comp name="--.HHN">
      <acc value="0.1176415834" flag="0"/>
      <vel value="0.0466604707" flag="0"/>
      <psa03 value="0.4205732953" flag="0"/>
      <psa10 value="0.0164897588" flag="0"/>
      <psa30 value="0.0014448611" flag="0"/>
    </comp>
    <comp name="--.HHZ">
      <acc value="0.0986066626" flag="0"/>
      <vel value="0.0243240747" flag="0"/>
      <psa03 value="0.1059261239" flag="0"/>
      <psa10 value="0.0067404011" flag="0"/>
      <psa30 value="0.0006681825" flag="0"/>
    </comp>
  </station>
  <station code="SMAA" name="SMAA" netid="KO" insttype="CMG-5T" commtype="DIG" lat="39.1005" lon="28.9805">
    <comp name="--.HNE">
      <acc value="0.1073319659" flag="0"/>
      <vel value="0.0517782093" flag="0"/>
      <psa03 value="0.3025663274" flag="0"/>
      <psa10 value="0.0416252329" flag="0"/>
      <psa30 value="0.0022460798" flag="0"/>
    </comp>
    <comp name="--.HNN">
      <acc value="0.1143557930" flag="0"/>
      <vel value="0.0614192060" flag="0"/>
      <psa03 value="0.3306972185" flag="0"/>
      <psa10 value="0.0316575106" flag="0"/>
      <psa30 value="0.0033330952" flag="0"/>
    </comp>
    <comp name="--.HNZ">
      <acc value="0.0526280814" flag="0"/>
      <vel value="0.0153538063" flag="0"/>
      <psa03 value="0.0806953965" flag="0"/>
      <psa10 value="0.0338970886" flag="0"/>
      <psa30 value="0.0011072112" flag="0"/>
    </comp>
  </station>
  <station code="SOMA" name="SOMA" netid="KO" insttype="CMG-5T" commtype="DIG" lat="39.1564" lon="27.5341">
    <comp name="--.HNE">
      <acc value="0.0323120195" flag="0"/>
      <vel value="0.0111466227" flag="0"/>
      <psa03 value="0.0444203267" flag="0"/>
      <psa10 value="0.0091818279" flag="0"/>
      <psa30 value="0.0005468081" flag="0"/>
    </comp>
    <comp name="--.HNN">
      <acc value="0.0275547778" flag="0"/>
      <vel value="0.0105238625" flag="0"/>
      <psa03 value="0.0377427454" flag="0"/>
      <psa10 value="0.0126998188" flag="0"/>
      <psa30 value="0.0013112244" flag="0"/>
    </comp>
    <comp name="--.HNZ">
      <acc value="0.0332878043" flag="0"/>
      <vel value="0.0082977050" flag="0"/>
      <psa03 value="0.0208740599" flag="0"/>
      <psa10 value="0.0059379942" flag="0"/>
      <psa30 value="0.0006237658" flag="0"/>
    </comp>
  </station>
  <station code="SUSR" name="SUSR" netid="KO" insttype="CMG-5T" commtype="DIG" lat="39.9627" lon="28.0835">
    <comp name="--.HNE">
      <acc value="0.0286122903" flag="0"/>
      <vel value="0.0106119224" flag="0"/>
      <psa03 value="0.0562334207" flag="0"/>
      <psa10 value="0.0057184852" flag="0"/>
      <psa30 value="0.0003597281" flag="0"/>
    </comp>
    <comp name="--.HNN">
      <acc value="0.0368264332" flag="0"/>
      <vel value="0.0093609745" flag="0"/>
      <psa03 value="0.0510957865" flag="0"/>
      <psa10 value="0.0064724637" flag="0"/>
      <psa30 value="0.0004243364" flag="0"/>
    </comp>
    <comp name="--.HNZ">
      <acc value="0.0217682037" flag="0"/>
      <vel value="0.0075175732" flag="0"/>
      <psa03 value="0.0383210754" flag="0"/>
      <psa10 value="0.0047061791" flag="0"/>
      <psa30 value="0.0006574738" flag="0"/>
    </comp>
  </station>
  <station code="TVSB" name="TVSB" netid="KO" insttype="CMG-3T" commtype="DIG" lat="39.4497" lon="29.4615">
    <comp name="--.HHE">
      <acc value="0.1204330622" flag="0"/>
      <vel value="0.0780887808" flag="0"/>
      <psa03 value="0.3973836702" flag="0"/>
      <psa10 value="0.0299522134" flag="0"/>
      <psa30 value="0.0023820597" flag="0"/>
    </comp>
    <comp name="--.HHZ">
      <acc value="0.0400524547" flag="0"/>
      <vel value="0.0167333120" flag="0"/>
      <psa03 value="0.1092795227" flag="0"/>
      <psa10 value="0.0079094639" flag="0"/>
      <psa30 value="0.0006194309" flag="0"/>
    </comp>
    <comp name="--.HHN">
      <acc value="0.0677655216" flag="0"/>
      <vel value="0.0454971757" flag="0"/>
      <psa03 value="0.2842498638" flag="0"/>
      <psa10 value="0.0232286327" flag="0"/>
      <psa30 value="0.0019324711" flag="0"/>
    </comp>
  </station>
  <station code="YAYO" name="YAYO" netid="KO" insttype="CMG-6T" commtype="DIG" lat="39.6113" lon="27.0726">
    <comp name="--.HHZ">
      <acc value="0.0078632789" flag="0"/>
      <vel value="0.0036921538" flag="0"/>
      <psa03 value="0.0137133324" flag="0"/>
      <psa10 value="0.0021698867" flag="0"/>
      <psa30 value="0.0002040027" flag="0"/>
    </comp>
    <comp name="--.HHE">
      <acc value="0.0071209033" flag="0"/>
      <vel value="0.0035988610" flag="0"/>
      <psa03 value="0.0167317839" flag="0"/>
      <psa10 value="0.0040256766" flag="0"/>
      <psa30 value="0.0003339366" flag="0"/>
    </comp>
    <comp name="--.HHN">
      <acc value="0.0058522172" flag="0"/>
      <vel value="0.0031343637" flag="0"/>
      <psa03 value="0.0155631372" flag="0"/>
      <psa10 value="0.0047493548" flag="0"/>
      <psa30 value="0.0005073265" flag="0"/>
    </comp>
  </station>
  <station code="YENI" name="YENI" netid="KO" insttype="CMG-5T" commtype="DIG" lat="39.9364" lon="27.2422">
    <comp name="--.HNE">
      <acc value="0.0188101305" flag="0"/>
      <vel value="0.0078831614" flag="0"/>
      <psa03 value="0.0555803356" flag="0"/>
      <psa10 value="0.0101156373" flag="0"/>
      <psa30 value="0.0006371180" flag="0"/>
    </comp>
    <comp name="--.HNN">
      <acc value="0.0317459294" flag="0"/>
      <vel value="0.0164787806" flag="0"/>
      <psa03 value="0.0568551153" flag="0"/>
      <psa10 value="0.0113648025" flag="0"/>
      <psa30 value="0.0006122903" flag="0"/>
    </comp>
    <comp name="--.HNZ">
      <acc value="0.0101359290" flag="0"/>
      <vel value="0.0030405099" flag="0"/>
      <psa03 value="0.0153352465" flag="0"/>
      <psa10 value="0.0043762954" flag="0"/>
      <psa30 value="0.0004881052" flag="0"/>
    </comp>
  </station>
</stationlist>
