<?xml version="1.0" encoding="UTF-8" standalone="yes"?>
<!DOCTYPE earthquake SYSTEM "stationlist.dtd">
<stationlist created="" xmlns="ch.ethz.sed.shakemap.usgs.xml">
  <station code="AKDM" name="AKDM" netid="KO" insttype="CMG-3ESP" commtype="DIG" lat="38.3285" lon="42.98">
    <comp name="--.HHE">
      <acc value="0.0118315461" flag="0"/>
      <vel value="0.0066397607" flag="0"/>
      <psa03 value="0.0223156645" flag="0"/>
      <psa10 value="0.0095487020" flag="0"/>
      <psa30 value="0.0005879018" flag="0"/>
    </comp>
    <comp name="--.HHN">
      <acc value="0.0058919303" flag="0"/>
      <vel value="0.0051733441" flag="0"/>
      <psa03 value="0.0161017412" flag="0"/>
      <psa10 value="0.0121891527" flag="0"/>
      <psa30 value="0.0009278391" flag="0"/>
    </comp>
    <comp name="--.HHZ">
      <acc value="0.0049438117" flag="0"/>
      <vel value="0.0038443538" flag="0"/>
      <psa03 value="0.0121644622" flag="0"/>
      <psa10 value="0.0034470422" flag="0"/>
      <psa30 value="0.0004737898" flag="0"/>
    </comp>
  </station>
  <station code="CLDR" name="CLDR" netid="KO" insttype="CMG-3ESP" commtype="DIG" lat="39.144" lon="43.9172">
    <comp name="--.HHE">
      <acc value="0.0156973216" flag="0"/>
      <vel value="0.0087266758" flag="0"/>
      <psa03 value="0.0653654039" flag="0"/>
      <psa10 value="0.0082887310" flag="0"/>
      <psa30 value="0.0008050674" flag="0"/>
    </comp>
    <comp name="--.HHZ">
      <acc value="0.0054280319" flag="0"/>
      <vel value="0.0036687642" flag="0"/>
      <psa03 value="0.0207461323" flag="0"/>
      <psa10 value="0.0045759992" flag="0"/>
      <psa30 value="0.0002935146" flag="0"/>
    </comp>
    <comp name="--.HHN">
      <acc value="0.0100527026" flag="0"/>
      <vel value="0.0065238659" flag="0"/>
      <psa03 value="0.0414246270" flag="0"/>
      <psa10 value="0.0047865801" flag="0"/>
      <psa30 value="0.0005251492" flag="0"/>
    </comp>
  </station>
  <station code="CUKT" name="CUKT" netid="KO" insttype="CMG-3ESP" commtype="DIG" lat="37.2473" lon="43.6077">
    <comp name="--.HHE">
      <acc value="0.0214775681" flag="0"/>
      <vel value="0.0141959012" flag="0"/>
      <psa03 value="0.0504898004" flag="0"/>
      <psa10 value="0.0097593761" flag="0"/>
      <psa30 value="0.0007362662" flag="0"/>
    </comp>
    <comp name="--.HHN">
      <acc value="0.0138425094" flag="0"/>
      <vel value="0.0131946122" flag="0"/>
      <psa03 value="0.0278037739" flag="0"/>
      <psa10 value="0.0183480491" flag="0"/>
      <psa30 value="0.0005854126" flag="0"/>
    </comp>
    <comp name="--.HHZ">
      <acc value="0.0087621948" flag="0"/>
      <vel value="0.0061124882" flag="0"/>
      <psa03 value="0.0293267190" flag="0"/>
      <psa10 value="0.0035178364" flag="0"/>
      <psa30 value="0.0003598708" flag="0"/>
    </comp>
  </station>
  <station code="VANB" name="VANB" netid="KO" insttype="CMG-3T" commtype="DIG" lat="38.509" lon="43.4056">
    <comp name="--.HHE">
      <acc value="0.0135748248" flag="0"/>
      <vel value="0.0106437411" flag="0"/>
      <psa03 value="0.0362029614" flag="0"/>
      <psa10 value="0.0189255649" flag="0"/>
      <psa30 value="0.0012146712" flag="0"/>
    </comp>
    <comp name="--.HHN">
      <acc value="0.0113760774" flag="0"/>
      <vel value="0.0114623133" flag="0"/>
      <psa03 value="0.0256817991" flag="0"/>
      <psa10 value="0.0145262549" flag="0"/>
      <psa30 value="0.0013135265" flag="0"/>
    </comp>
    <comp name="--.HHZ">
      <acc value="0.0061714639" flag="0"/>
      <vel value="0.0057388909" flag="0"/>
      <psa03 value="0.0147854171" flag="0"/>
      <psa10 value="0.0097783551" flag="0"/>
      <psa30 value="0.0016863925" flag="0"/>
    </comp>
  </station>
</stationlist>
