<?xml version="1.0" encoding="UTF-8" standalone="yes"?>
<!DOCTYPE earthquake SYSTEM "stationlist.dtd">
<stationlist created="" xmlns="ch.ethz.sed.shakemap.usgs.xml">
  <station code="GMLD" name="GMLD" netid="KO" insttype="100" lat="38.0764" lon="26.8747">
    <comp name="--.HNE">
      <acc value="0.2354574296" flag="0"/>
      <vel value="0.1009049651" flag="0"/>
      <psa03 value="0.3874400924" flag="0"/>
      <psa10 value="0.0279234186" flag="0"/>
      <psa30 value="0.0021149456" flag="0"/>
    </comp>
    <comp name="--.HNN">
      <acc value="0.3009888347" flag="0"/>
      <vel value="0.1351915622" flag="0"/>
      <psa03 value="0.5744396976" flag="0"/>
      <psa10 value="0.0451533509" flag="0"/>
      <psa30 value="0.0038880263" flag="0"/>
    </comp>
    <comp name="--.HNZ">
      <acc value="0.1371297764" flag="0"/>
      <vel value="0.0407739112" flag="0"/>
      <psa03 value="0.2579813046" flag="0"/>
      <psa10 value="0.0108172356" flag="0"/>
      <psa30 value="0.0009012738" flag="0"/>
    </comp>
  </station>
</stationlist>
