<?xml version="1.0" encoding="UTF-8" standalone="yes"?>
<!DOCTYPE earthquake SYSTEM "stationlist.dtd">
<stationlist created="" xmlns="ch.ethz.sed.shakemap.usgs.xml">
  <station code="CELI" name="CELI" netid="IV" insttype="" lat="39.4027" lon="16.5088">
    <comp name="--.HHN">
      <acc value="0.0152450123" flag="0"/>
      <vel value="0.0068045687" flag="0"/>
      <psa03 value="0.0341547823" flag="0"/>
      <psa10 value="0.0097724818" flag="0"/>
      <psa30 value="0.0014951543" flag="0"/>
    </comp>
    <comp name="--.HHZ">
      <acc value="0.0109783031" flag="0"/>
      <vel value="0.0042463718" flag="0"/>
      <psa03 value="0.0142814043" flag="0"/>
      <psa10 value="0.0072972536" flag="0"/>
      <psa30 value="0.0006672592" flag="0"/>
    </comp>
    <comp name="--.HHE">
      <acc value="0.0149919150" flag="0"/>
      <vel value="0.0058800052" flag="0"/>
      <psa03 value="0.0225862279" flag="0"/>
      <psa10 value="0.0100407112" flag="0"/>
      <psa30 value="0.0011743589" flag="0"/>
    </comp>
  </station>
  <station code="CET2" name="CET2" netid="IV" insttype="" lat="39.5288" lon="15.9546">
    <comp name="--.HHE">
      <acc value="0.0145596442" flag="0"/>
      <vel value="0.0104777482" flag="0"/>
      <psa03 value="0.0250993360" flag="0"/>
      <psa10 value="0.0138612967" flag="0"/>
      <psa30 value="0.0008339222" flag="0"/>
    </comp>
    <comp name="--.HHZ">
      <acc value="0.0127317665" flag="0"/>
      <vel value="0.0057415374" flag="0"/>
      <psa03 value="0.0126372164" flag="0"/>
      <psa10 value="0.0106181586" flag="0"/>
      <psa30 value="0.0005282235" flag="0"/>
    </comp>
    <comp name="--.HHN">
      <acc value="0.0189302251" flag="0"/>
      <vel value="0.0117997662" flag="0"/>
      <psa03 value="0.0311164882" flag="0"/>
      <psa10 value="0.0287460463" flag="0"/>
      <psa30 value="0.0009380776" flag="0"/>
    </comp>
  </station>
  <station code="MMN" name="MMN" netid="IV" insttype="" lat="39.891" lon="15.9904">
    <comp name="--.HHN">
      <acc value="0.0107692235" flag="0"/>
      <vel value="0.0077316363" flag="0"/>
      <psa03 value="0.0328567747" flag="0"/>
      <psa10 value="0.0110607367" flag="0"/>
      <psa30 value="0.0005619091" flag="0"/>
    </comp>
    <comp name="--.HHE">
      <acc value="0.0094810715" flag="0"/>
      <vel value="0.0049564517" flag="0"/>
      <psa03 value="0.0227959906" flag="0"/>
      <psa10 value="0.0071896420" flag="0"/>
      <psa30 value="0.0005889561" flag="0"/>
    </comp>
    <comp name="--.HHZ">
      <acc value="0.0075953542" flag="0"/>
      <vel value="0.0036075737" flag="0"/>
      <psa03 value="0.0121135887" flag="0"/>
      <psa10 value="0.0056410630" flag="0"/>
      <psa30 value="0.0003484415" flag="0"/>
    </comp>
  </station>
  <station code="ORI" name="ORI" netid="IV" insttype="" lat="40.051" lon="16.4504">
    <comp name="--.HHE">
      <acc value="0.0807476873" flag="0"/>
      <vel value="0.0275081108" flag="0"/>
      <psa03 value="0.0981695128" flag="0"/>
      <psa10 value="0.0102272566" flag="0"/>
      <psa30 value="0.0007399140" flag="0"/>
    </comp>
    <comp name="--.HHN">
      <acc value="0.0494461485" flag="0"/>
      <vel value="0.0203461979" flag="0"/>
      <psa03 value="0.1134521901" flag="0"/>
      <psa10 value="0.0090486559" flag="0"/>
      <psa30 value="0.0008779001" flag="0"/>
    </comp>
    <comp name="--.HHZ">
      <acc value="0.0329833397" flag="0"/>
      <vel value="0.0094862625" flag="0"/>
      <psa03 value="0.0337383113" flag="0"/>
      <psa10 value="0.0053749789" flag="0"/>
      <psa30 value="0.0005719480" flag="0"/>
    </comp>
  </station>
  <station code="PIPA" name="PIPA" netid="IV" insttype="" lat="39.4851" lon="16.8158">
    <comp name="--.HHE">
      <acc value="0.2757807438" flag="0"/>
      <vel value="0.0959816896" flag="0"/>
      <psa03 value="0.3536000034" flag="0"/>
      <psa10 value="0.0386462792" flag="0"/>
      <psa30 value="0.0027915196" flag="0"/>
    </comp>
    <comp name="--.HHN">
      <acc value="0.3944972804" flag="0"/>
      <vel value="0.0994835821" flag="0"/>
      <psa03 value="0.2206537722" flag="0"/>
      <psa10 value="0.0362119947" flag="0"/>
      <psa30 value="0.0032576343" flag="0"/>
    </comp>
    <comp name="--.HHZ">
      <acc value="0.2739178681" flag="0"/>
      <vel value="0.0700888449" flag="0"/>
      <psa03 value="0.1660734840" flag="0"/>
      <psa10 value="0.0164362866" flag="0"/>
      <psa30 value="0.0029957584" flag="0"/>
    </comp>
  </station>
  <station code="SALB" name="SALB" netid="IV" insttype="" lat="39.8772" lon="16.3459">
    <comp name="--.HHN">
      <acc value="0.0252675487" flag="0"/>
      <vel value="0.0067298469" flag="0"/>
      <psa03 value="0.0383223410" flag="0"/>
      <psa10 value="0.0051414631" flag="0"/>
      <psa30 value="0.0008244495" flag="0"/>
    </comp>
    <comp name="--.HHE">
      <acc value="0.0325656949" flag="0"/>
      <vel value="0.0092376397" flag="0"/>
      <psa03 value="0.0564497146" flag="0"/>
      <psa10 value="0.0061215494" flag="0"/>
      <psa30 value="0.0007814768" flag="0"/>
    </comp>
    <comp name="--.HHZ">
      <acc value="0.0193588694" flag="0"/>
      <vel value="0.0058691406" flag="0"/>
      <psa03 value="0.0240542275" flag="0"/>
      <psa10 value="0.0032723098" flag="0"/>
      <psa30 value="0.0010343225" flag="0"/>
    </comp>
  </station>
  <station code="SERS" name="SERS" netid="IV" insttype="" lat="39.0359" lon="16.6886">
    <comp name="--.HHN">
      <acc value="0.0117908534" flag="0"/>
      <vel value="0.0064987426" flag="0"/>
      <psa03 value="0.0412844196" flag="0"/>
      <psa10 value="0.0063893929" flag="0"/>
      <psa30 value="0.0003689641" flag="0"/>
    </comp>
    <comp name="--.HHE">
      <acc value="0.0103443915" flag="0"/>
      <vel value="0.0055905932" flag="0"/>
      <psa03 value="0.0250187519" flag="0"/>
      <psa10 value="0.0084195924" flag="0"/>
      <psa30 value="0.0005344876" flag="0"/>
    </comp>
    <comp name="--.HHZ">
      <acc value="0.0080025936" flag="0"/>
      <vel value="0.0036618636" flag="0"/>
      <psa03 value="0.0170062688" flag="0"/>
      <psa10 value="0.0034165569" flag="0"/>
      <psa30 value="0.0003400871" flag="0"/>
    </comp>
  </station>
  <station code="SPS2" name="SPS2" netid="IV" insttype="" lat="39.291" lon="16.3388">
    <comp name="--.HHE">
      <acc value="0.0069387574" flag="0"/>
      <vel value="0.0036896020" flag="0"/>
      <psa03 value="0.0173120718" flag="0"/>
      <psa10 value="0.0023399227" flag="0"/>
      <psa30 value="0.0001668377" flag="0"/>
    </comp>
    <comp name="--.HHN">
      <acc value="0.0064469295" flag="0"/>
      <vel value="0.0034089614" flag="0"/>
      <psa03 value="0.0190481253" flag="0"/>
      <psa10 value="0.0023699548" flag="0"/>
      <psa30 value="0.0002182634" flag="0"/>
    </comp>
    <comp name="--.HHZ">
      <acc value="0.0058098628" flag="0"/>
      <vel value="0.0016219097" flag="0"/>
      <psa03 value="0.0072357177" flag="0"/>
      <psa10 value="0.0018811297" flag="0"/>
      <psa30 value="0.0002014630" flag="0"/>
    </comp>
  </station>
  <station code="TDS" name="TDS" netid="IV" insttype="" lat="39.6601" lon="16.3376">
    <comp name="--.HHE">
      <acc value="0.0040808397" flag="0"/>
      <vel value="0.0028087430" flag="0"/>
      <psa03 value="0.0093082449" flag="0"/>
      <psa10 value="0.0062895490" flag="0"/>
      <psa30 value="0.0006602334" flag="0"/>
    </comp>
    <comp name="--.HHN">
      <acc value="0.0037688224" flag="0"/>
      <vel value="0.0027573773" flag="0"/>
      <psa03 value="0.0082033498" flag="0"/>
      <psa10 value="0.0032108481" flag="0"/>
      <psa30 value="0.0005657510" flag="0"/>
    </comp>
    <comp name="--.HHZ">
      <acc value="0.0049640790" flag="0"/>
      <vel value="0.0021233815" flag="0"/>
      <psa03 value="0.0109035816" flag="0"/>
      <psa10 value="0.0041657606" flag="0"/>
      <psa30 value="0.0006037853" flag="0"/>
    </comp>
  </station>
  <station code="TAR1" name="TAR1" netid="OT" insttype="" lat="40.5259" lon="17.2846">
    <comp name="--.HHZ">
      <acc value="0.0368279521" flag="0"/>
      <vel value="0.0061720034" flag="0"/>
      <psa03 value="0.0176396349" flag="0"/>
      <psa10 value="0.0081499720" flag="0"/>
      <psa30 value="0.0002602106" flag="0"/>
    </comp>
    <comp name="--.HHE">
      <acc value="0.0524717247" flag="0"/>
      <vel value="0.0180775344" flag="0"/>
      <psa03 value="0.0506025347" flag="0"/>
      <psa10 value="0.0189784006" flag="0"/>
      <psa30 value="0.0016741255" flag="0"/>
    </comp>
    <comp name="--.HHN">
      <acc value="0.0497443118" flag="0"/>
      <vel value="0.0151377299" flag="0"/>
      <psa03 value="0.0400264547" flag="0"/>
      <psa10 value="0.0153816383" flag="0"/>
      <psa30 value="0.0007558644" flag="0"/>
    </comp>
  </station>
  <station code="BIDON" name="BIDON" netid="XE" insttype="" lat="39.9457" lon="16.4559">
    <comp name="--.HHE">
      <acc value="0.0456179411" flag="0"/>
      <vel value="0.0161130529" flag="0"/>
      <psa03 value="0.0922026400" flag="0"/>
      <psa10 value="0.0151482067" flag="0"/>
      <psa30 value="0.0010390423" flag="0"/>
    </comp>
    <comp name="--.HHN">
      <acc value="0.0454480341" flag="0"/>
      <vel value="0.0120953124" flag="0"/>
      <psa03 value="0.0680666394" flag="0"/>
      <psa10 value="0.0116707243" flag="0"/>
      <psa30 value="0.0008081742" flag="0"/>
    </comp>
    <comp name="--.HHZ">
      <acc value="0.0198914975" flag="0"/>
      <vel value="0.0062065561" flag="0"/>
      <psa03 value="0.0287376435" flag="0"/>
      <psa10 value="0.0068033607" flag="0"/>
      <psa30 value="0.0006331019" flag="0"/>
    </comp>
  </station>
  <station code="CNESE" name="CNESE" netid="XE" insttype="" lat="39.8941" lon="16.0843">
    <comp name="--.HHE">
      <acc value="0.0082970814" flag="0"/>
      <vel value="0.0036420032" flag="0"/>
      <psa03 value="0.0111875085" flag="0"/>
      <psa10 value="0.0054254915" flag="0"/>
      <psa30 value="0.0005955097" flag="0"/>
    </comp>
    <comp name="--.HHN">
      <acc value="0.0083863786" flag="0"/>
      <vel value="0.0050189479" flag="0"/>
      <psa03 value="0.0147751968" flag="0"/>
      <psa10 value="0.0100612370" flag="0"/>
      <psa30 value="0.0004745649" flag="0"/>
    </comp>
    <comp name="--.HHZ">
      <acc value="0.0051435081" flag="0"/>
      <vel value="0.0030114931" flag="0"/>
      <psa03 value="0.0085152458" flag="0"/>
      <psa10 value="0.0066902748" flag="0"/>
      <psa30 value="0.0002903695" flag="0"/>
    </comp>
  </station>
  <station code="MORMA" name="MORMA" netid="XE" insttype="" lat="39.8699" lon="15.9721">
    <comp name="--.HHE">
      <acc value="0.0096954114" flag="0"/>
      <vel value="0.0079925762" flag="0"/>
      <psa03 value="0.0217865604" flag="0"/>
      <psa10 value="0.0075198147" flag="0"/>
      <psa30 value="0.0009098551" flag="0"/>
    </comp>
    <comp name="--.HHN">
      <acc value="0.0078470097" flag="0"/>
      <vel value="0.0060323573" flag="0"/>
      <psa03 value="0.0178644924" flag="0"/>
      <psa10 value="0.0108310685" flag="0"/>
      <psa30 value="0.0004349171" flag="0"/>
    </comp>
    <comp name="--.HHZ">
      <acc value="0.0069061843" flag="0"/>
      <vel value="0.0030753384" flag="0"/>
      <psa03 value="0.0096885685" flag="0"/>
      <psa10 value="0.0043385065" flag="0"/>
      <psa30 value="0.0002799362" flag="0"/>
    </comp>
  </station>
  <station code="TNOVA" name="TNOVA" netid="XE" insttype="" lat="39.9747" lon="16.2611">
    <comp name="--.HHZ">
      <acc value="0.0178379744" flag="0"/>
      <vel value="0.0043291848" flag="0"/>
      <psa03 value="0.0179249514" flag="0"/>
      <psa10 value="0.0026835431" flag="0"/>
      <psa30 value="0.0004999414" flag="0"/>
    </comp>
    <comp name="--.HHE">
      <acc value="0.0262054673" flag="0"/>
      <vel value="0.0064258041" flag="0"/>
      <psa03 value="0.0410968492" flag="0"/>
      <psa10 value="0.0042172665" flag="0"/>
      <psa30 value="0.0004323572" flag="0"/>
    </comp>
    <comp name="--.HHN">
      <acc value="0.0420900808" flag="0"/>
      <vel value="0.0102363030" flag="0"/>
      <psa03 value="0.0319470681" flag="0"/>
      <psa10 value="0.0048684525" flag="0"/>
      <psa30 value="0.0004673854" flag="0"/>
    </comp>
  </station>
  <station code="ZIDIL" name="ZIDIL" netid="XE" insttype="" lat="39.7822" lon="16.2596">
    <comp name="--.HHN">
      <acc value="0.0130978944" flag="0"/>
      <vel value="0.0055577740" flag="0"/>
      <psa03 value="0.0206995889" flag="0"/>
      <psa10 value="0.0102999624" flag="0"/>
      <psa30 value="0.0010263002" flag="0"/>
    </comp>
    <comp name="--.HHE">
      <acc value="0.0150582715" flag="0"/>
      <vel value="0.0060978304" flag="0"/>
      <psa03 value="0.0210853636" flag="0"/>
      <psa10 value="0.0071953883" flag="0"/>
      <psa30 value="0.0008260054" flag="0"/>
    </comp>
    <comp name="--.HHZ">
      <acc value="0.0120835103" flag="0"/>
      <vel value="0.0041705389" flag="0"/>
      <psa03 value="0.0109733976" flag="0"/>
      <psa10 value="0.0038854271" flag="0"/>
      <psa30 value="0.0004014007" flag="0"/>
    </comp>
  </station>
</stationlist>
