<stationlist xmlns:esm="https://esm-db.eu/esmws/shakemap/1/" created="1784080721">
	<station code="T1811" name="T1811" netid="3Q" source="XVIII-INGV SISMIKO Emergency Seismic Network (XVIII-ISESN) (XVIII-ISESN)" insttype="" lat="39.56904" lon="16.77169" esm:processing="automatic (Paolucci et al 2011)" esm:quality="best">
		<comp name="00.HNE" depth="0.0">
			<acc value="0.304180028111639" flag="0"/>
			<vel value="0.149740819577402" flag="0"/>
			<psa03 value="0.6156600761274" flag="0"/>
			<psa10 value="0.115884904306065" flag="0"/>
			<psa30 value="0.00640771989668353" flag="0"/>
		</comp>
		<comp name="00.HNN" depth="0.0">
			<acc value="0.29553608568842" flag="0"/>
			<vel value="0.103682291866304" flag="0"/>
			<psa03 value="0.596778992011305" flag="0"/>
			<psa10 value="0.0918686958502613" flag="0"/>
			<psa30 value="0.00619061051421074" flag="0"/>
		</comp>
		<comp name="00.HNZ" depth="0.0">
			<acc value="0.211754921521793" flag="0"/>
			<vel value="0.0728843438047128" flag="0"/>
			<psa03 value="0.372044437784773" flag="0"/>
			<psa10 value="0.0337759637418385" flag="0"/>
			<psa30 value="0.00331299259449974" flag="0"/>
		</comp>
	</station>
	<station code="T1812" name="T1812" netid="3Q" source="XVIII-INGV SISMIKO Emergency Seismic Network (XVIII-ISESN) (XVIII-ISESN)" insttype="" lat="39.48464" lon="16.50149" esm:processing="automatic (Paolucci et al 2011)" esm:quality="best">
		<comp name="00.HNE" depth="0.0">
			<acc value="0.0652167925585118" flag="0"/>
			<vel value="0.0219585541256586" flag="0"/>
			<psa03 value="0.107217863074094" flag="0"/>
			<psa10 value="0.0113725983788254" flag="0"/>
			<psa30 value="0.00188238199023392" flag="0"/>
		</comp>
		<comp name="00.HNN" depth="0.0">
			<acc value="0.0555323795551923" flag="0"/>
			<vel value="0.0184349150110121" flag="0"/>
			<psa03 value="0.0678464215760129" flag="0"/>
			<psa10 value="0.0120994555920444" flag="0"/>
			<psa30 value="0.00110830623235038" flag="0"/>
		</comp>
		<comp name="00.HNZ" depth="0.0">
			<acc value="0.0422624020711549" flag="0"/>
			<vel value="0.00872755416193517" flag="0"/>
			<psa03 value="0.0306968408067257" flag="0"/>
			<psa10 value="0.00794837404078374" flag="0"/>
			<psa30 value="0.000658925213061525" flag="0"/>
		</comp>
	</station>
	<station code="T1813" name="T1813" netid="3Q" source="XVIII-INGV SISMIKO Emergency Seismic Network (XVIII-ISESN) (XVIII-ISESN)" insttype="" lat="39.31469" lon="16.75119" esm:processing="automatic (Paolucci et al 2011)" esm:quality="best">
		<comp name="00.HNE" depth="0.0">
			<acc value="0.0518629685879264" flag="0"/>
			<vel value="0.0122588497031473" flag="0"/>
			<psa03 value="0.0544589513883616" flag="0"/>
			<psa10 value="0.00924282197909618" flag="0"/>
			<psa30 value="0.000660076956027194" flag="0"/>
		</comp>
		<comp name="00.HNN" depth="0.0">
			<acc value="0.0397477052619156" flag="0"/>
			<vel value="0.0135682920711635" flag="0"/>
			<psa03 value="0.036667251942168" flag="0"/>
			<psa10 value="0.00848273475206403" flag="0"/>
			<psa30 value="0.000955610908698414" flag="0"/>
		</comp>
		<comp name="00.HNZ" depth="0.0">
			<acc value="0.0354886032537685" flag="0"/>
			<vel value="0.00812383885487621" flag="0"/>
			<psa03 value="0.0229636045594428" flag="0"/>
			<psa10 value="0.00727319290709499" flag="0"/>
			<psa30 value="0.000815384015190664" flag="0"/>
		</comp>
	</station>
	<station code="CSMBE" name="CSMBE" netid="7C" source="Urban Seismic Network (RUSN-CAL-INGV)" insttype="" lat="39.2895" lon="16.2642" esm:processing="automatic (Paolucci et al 2011)" esm:quality="good">
		<comp name="--.HNE" depth="0.0">
			<acc value="0.0111390231203432" flag="0"/>
			<vel value="0.00656936558154464" flag="0"/>
			<psa03 value="0.0265449485767477" flag="0"/>
			<psa10 value="0.00816253854059889" flag="0"/>
			<psa30 value="0.0010143446953584" flag="0"/>
		</comp>
		<comp name="--.HNN" depth="0.0">
			<acc value="0.0114204876241633" flag="0"/>
			<vel value="0.00911964291784377" flag="0"/>
			<psa03 value="0.0335439200367266" flag="0"/>
			<psa10 value="0.00838816661235986" flag="0"/>
			<psa30 value="0.000615277529952093" flag="0"/>
		</comp>
		<comp name="--.HNZ" depth="0.0">
			<acc value="0.00982580153219117" flag="0"/>
			<vel value="0.00427514008144455" flag="0"/>
			<psa03 value="0.0104194753953578" flag="0"/>
			<psa10 value="0.00507206006157137" flag="0"/>
			<psa30 value="0.00059648446208294" flag="0"/>
		</comp>
	</station>
	<station code="ACR" name="ACR" netid="IT" source="Italian Strong Motion Network (RAN)" insttype="" lat="39.4889" lon="16.3798" esm:processing="manual (Paolucci et al 2011)" esm:quality="best">
		<comp name="--.HNE" depth="0.0">
			<acc value="0.0377658673414801" flag="0"/>
			<vel value="0.0134020973309613" flag="0"/>
			<psa03 value="0.0978683270464066" flag="0"/>
			<psa10 value="0.00581423375818202" flag="0"/>
			<psa30 value="0.000926632843213073" flag="0"/>
		</comp>
		<comp name="--.HNN" depth="0.0">
			<acc value="0.0363134669100958" flag="0"/>
			<vel value="0.0130361638770146" flag="0"/>
			<psa03 value="0.0705771076786742" flag="0"/>
			<psa10 value="0.0108903595578539" flag="0"/>
			<psa30 value="0.000824196213537706" flag="0"/>
		</comp>
		<comp name="--.HNZ" depth="0.0">
			<acc value="0.0249288552171418" flag="0"/>
			<vel value="0.00927756718339137" flag="0"/>
			<psa03 value="0.0662187720854238" flag="0"/>
			<psa10 value="0.0062805874643645" flag="0"/>
			<psa30 value="0.000904171667770497" flag="0"/>
		</comp>
	</station>
	<station code="AVT" name="AVT" netid="IT" source="Italian Strong Motion Network (RAN)" insttype="" lat="40.3217" lon="17.6994" esm:processing="manual (Paolucci et al 2011)" esm:quality="best">
		<comp name="--.HGE" depth="0.0">
			<acc value="0.0274930793622775" flag="0"/>
			<vel value="0.00986996101048787" flag="0"/>
			<psa03 value="0.0351848204049992" flag="0"/>
			<psa10 value="0.00804791969769517" flag="0"/>
			<psa30 value="0.000792634539397955" flag="0"/>
		</comp>
		<comp name="--.HGN" depth="0.0">
			<acc value="0.0416570601607695" flag="0"/>
			<vel value="0.0149893762988447" flag="0"/>
			<psa03 value="0.0512384463787888" flag="0"/>
			<psa10 value="0.0173096279278896" flag="0"/>
			<psa30 value="0.000692317320958689" flag="0"/>
		</comp>
		<comp name="--.HGZ" depth="0.0">
			<acc value="0.0277938059166079" flag="0"/>
			<vel value="0.00590073953342558" flag="0"/>
			<psa03 value="0.0227260341340765" flag="0"/>
			<psa10 value="0.00532233710996823" flag="0"/>
			<psa30 value="0.000344524255332554" flag="0"/>
		</comp>
	</station>
	<station code="CSL" name="CSL" netid="IT" source="Italian Strong Motion Network (RAN)" insttype="" lat="40.6323" lon="16.9283" esm:processing="manual (Paolucci et al 2011)" esm:quality="good">
		<comp name="--.HGE" depth="0.0">
			<acc value="0.0742527482452058" flag="0"/>
			<vel value="0.0138818787166016" flag="0"/>
			<psa03 value="0.0565523400649296" flag="0"/>
			<psa10 value="0.0131073751742879" flag="0"/>
			<psa30 value="0.00136626123726643" flag="0"/>
		</comp>
		<comp name="--.HGN" depth="0.0">
			<acc value="0.0447430489181359" flag="0"/>
			<vel value="0.0127516383886183" flag="0"/>
			<psa03 value="0.0342342287871543" flag="0"/>
			<psa10 value="0.00635668188024515" flag="0"/>
			<psa30 value="0.000587342293962042" flag="0"/>
		</comp>
		<comp name="--.HGZ" depth="0.0">
			<acc value="0.0238016109312122" flag="0"/>
			<vel value="0.00547038055545256" flag="0"/>
			<psa03 value="0.017220953303618" flag="0"/>
			<psa10 value="0.00322593276471363" flag="0"/>
			<psa30 value="0.000228275304410367" flag="0"/>
		</comp>
	</station>
	<station code="PTC" name="PTC" netid="IT" source="Italian Strong Motion Network (RAN)" insttype="" lat="40.3887" lon="16.5611" esm:processing="manual (Paolucci et al 2011)" esm:quality="good">
		<comp name="--.HGE" depth="0.0">
			<acc value="0.0945052833332103" flag="0"/>
			<vel value="0.0347863650328993" flag="0"/>
			<psa03 value="0.135191664117423" flag="0"/>
			<psa10 value="0.0382418083321029" flag="0"/>
			<psa30 value="0.00276336305923972" flag="0"/>
		</comp>
		<comp name="--.HGN" depth="0.0">
			<acc value="0.113373917053192" flag="0"/>
			<vel value="0.0324983415219355" flag="0"/>
			<psa03 value="0.165706904352537" flag="0"/>
			<psa10 value="0.0401344612111017" flag="0"/>
			<psa30 value="0.00191469621422651" flag="0"/>
		</comp>
		<comp name="--.HGZ" depth="0.0">
			<acc value="0.0528806752672569" flag="0"/>
			<vel value="0.0155321912470984" flag="0"/>
			<psa03 value="0.101981266174888" flag="0"/>
			<psa10 value="0.031179612371317" flag="0"/>
			<psa30 value="0.00104571864872918" flag="0"/>
		</comp>
	</station>
	<station code="RNSF" name="RNSF" netid="IT" source="Italian Strong Motion Network (RAN)" insttype="" lat="39.3591" lon="16.2399" esm:processing="manual (Paolucci et al 2011)" esm:quality="best">
		<comp name="--.HNE" depth="0.0">
			<acc value="0.0309610029893925" flag="0"/>
			<vel value="0.012343000129619" flag="0"/>
			<psa03 value="0.0378354491211635" flag="0"/>
			<psa10 value="0.0263767967083202" flag="0"/>
			<psa30 value="0.00157317713193139" flag="0"/>
		</comp>
		<comp name="--.HNN" depth="0.0">
			<acc value="0.0199477210043089" flag="0"/>
			<vel value="0.0124160879615152" flag="0"/>
			<psa03 value="0.0384226546872955" flag="0"/>
			<psa10 value="0.0291311085429761" flag="0"/>
			<psa30 value="0.00278090984663016" flag="0"/>
		</comp>
		<comp name="--.HNZ" depth="0.0">
			<acc value="0.0213448734184297" flag="0"/>
			<vel value="0.00779882885084917" flag="0"/>
			<psa03 value="0.0197579364705016" flag="0"/>
			<psa10 value="0.0147779055262242" flag="0"/>
			<psa30 value="0.00100094932881244" flag="0"/>
		</comp>
	</station>
	<station code="RSN" name="RSN" netid="IT" source="Italian Strong Motion Network (RAN)" insttype="" lat="39.5706" lon="16.6301" esm:processing="manual (Paolucci et al 2011)" esm:quality="good">
		<comp name="--.HNE" depth="0.0">
			<acc value="0.178798889855738" flag="0"/>
			<vel value="0.0665541638043491" flag="0"/>
			<psa03 value="0.367207617369206" flag="0"/>
			<psa10 value="0.0126739064590901" flag="0"/>
			<psa30 value="0.00155731441443775" flag="0"/>
		</comp>
		<comp name="--.HNN" depth="0.0">
			<acc value="0.0957108569831433" flag="0"/>
			<vel value="0.0333413019438266" flag="0"/>
			<psa03 value="0.190501765640316" flag="0"/>
			<psa10 value="0.0113078409639531" flag="0"/>
			<psa30 value="0.00162127125543211" flag="0"/>
		</comp>
		<comp name="--.HNZ" depth="0.0">
			<acc value="0.0522230240523719" flag="0"/>
			<vel value="0.0151405708552576" flag="0"/>
			<psa03 value="0.061235160695663" flag="0"/>
			<psa10 value="0.0079416732843923" flag="0"/>
			<psa30 value="0.0010393468724632" flag="0"/>
		</comp>
	</station>
	<station code="SGV" name="SGV" netid="IT" source="Italian Strong Motion Network (RAN)" insttype="" lat="39.2633" lon="16.6897" esm:processing="manual (Paolucci et al 2011)" esm:quality="best">
		<comp name="--.HNE" depth="0.0">
			<acc value="0.0385818683353217" flag="0"/>
			<vel value="0.0125135535112481" flag="0"/>
			<psa03 value="0.0716209424526014" flag="0"/>
			<psa10 value="0.0148996873436498" flag="0"/>
			<psa30 value="0.000987182062633461" flag="0"/>
		</comp>
		<comp name="--.HNN" depth="0.0">
			<acc value="0.0414503548555692" flag="0"/>
			<vel value="0.0141011633356494" flag="0"/>
			<psa03 value="0.0773435975921371" flag="0"/>
			<psa10 value="0.0123574286190184" flag="0"/>
			<psa30 value="0.000776297623824309" flag="0"/>
		</comp>
		<comp name="--.HNZ" depth="0.0">
			<acc value="0.0328084244868389" flag="0"/>
			<vel value="0.0122812213721295" flag="0"/>
			<psa03 value="0.0716001129478378" flag="0"/>
			<psa10 value="0.00877668578736594" flag="0"/>
			<psa30 value="0.000776100944126439" flag="0"/>
		</comp>
	</station>
	<station code="SPA" name="SPA" netid="IT" source="Italian Strong Motion Network (RAN)" insttype="" lat="40.0353" lon="16.3345" esm:processing="manual (Paolucci et al 2011)" esm:quality="best">
		<comp name="--.HNE" depth="0.0">
			<acc value="0.0327220620695856" flag="0"/>
			<vel value="0.00977838278996729" flag="0"/>
			<psa03 value="0.0392198246833961" flag="0"/>
			<psa10 value="0.00807402330192838" flag="0"/>
			<psa30 value="0.000830559135048069" flag="0"/>
		</comp>
		<comp name="--.HNN" depth="0.0">
			<acc value="0.0384944396666062" flag="0"/>
			<vel value="0.00768433187044472" flag="0"/>
			<psa03 value="0.0380948491176418" flag="0"/>
			<psa10 value="0.00971838254514494" flag="0"/>
			<psa30 value="0.00102823801155477" flag="0"/>
		</comp>
		<comp name="--.HNZ" depth="0.0">
			<acc value="0.0188528737280452" flag="0"/>
			<vel value="0.00516931815776735" flag="0"/>
			<psa03 value="0.0239085734089697" flag="0"/>
			<psa10 value="0.00413410370781428" flag="0"/>
			<psa30 value="0.0004891624566966" flag="0"/>
		</comp>
	</station>
	<station code="TNTO" name="TNTO" netid="IT" source="Italian Strong Motion Network (RAN)" insttype="" lat="40.4658" lon="17.2504" esm:processing="manual (Paolucci et al 2011)" esm:quality="best">
		<comp name="--.HNE" depth="0.0">
			<acc value="0.101858929595916" flag="0"/>
			<vel value="0.0612498103954662" flag="0"/>
			<psa03 value="0.336182416268301" flag="0"/>
			<psa10 value="0.0890630974931215" flag="0"/>
			<psa30 value="0.00320561652302913" flag="0"/>
		</comp>
		<comp name="--.HNN" depth="0.0">
			<acc value="0.0558355553659596" flag="0"/>
			<vel value="0.0265307358181181" flag="0"/>
			<psa03 value="0.129123626723233" flag="0"/>
			<psa10 value="0.0252590445377556" flag="0"/>
			<psa30 value="0.00127917598912984" flag="0"/>
		</comp>
		<comp name="--.HNZ" depth="0.0">
			<acc value="0.0590062976697596" flag="0"/>
			<vel value="0.017597088979307" flag="0"/>
			<psa03 value="0.144824708509614" flag="0"/>
			<psa10 value="0.00835578509224516" flag="0"/>
			<psa30 value="0.000522203239234936" flag="0"/>
		</comp>
	</station>
	<station code="TRS" name="TRS" netid="IT" source="Italian Strong Motion Network (RAN)" insttype="" lat="39.6311" lon="16.2241" esm:processing="manual (Paolucci et al 2011)" esm:quality="good">
		<comp name="--.HGE" depth="0.0">
			<acc value="0.0189461960317246" flag="0"/>
			<vel value="0.010124628586906" flag="0"/>
			<psa03 value="0.0403636374345489" flag="0"/>
			<psa10 value="0.0210218675955418" flag="0"/>
			<psa30 value="0.00174508476996865" flag="0"/>
		</comp>
		<comp name="--.HGN" depth="0.0">
			<acc value="0.0199456679060556" flag="0"/>
			<vel value="0.0103169535038726" flag="0"/>
			<psa03 value="0.0288172579602614" flag="0"/>
			<psa10 value="0.0189634499854857" flag="0"/>
			<psa30 value="0.00313571689252013" flag="0"/>
		</comp>
		<comp name="--.HGZ" depth="0.0">
			<acc value="0.0123087937596133" flag="0"/>
			<vel value="0.00837901766419239" flag="0"/>
			<psa03 value="0.0163803103756014" flag="0"/>
			<psa10 value="0.017386944924763" flag="0"/>
			<psa30 value="0.00164366773908904" flag="0"/>
		</comp>
	</station>
	<station code="VLC" name="VLC" netid="IT" source="Italian Strong Motion Network (RAN)" insttype="" lat="40.5877" lon="17.469" esm:processing="manual (Paolucci et al 2011)" esm:quality="good">
		<comp name="--.HGE" depth="0.0">
			<acc value="0.0307224053308146" flag="0"/>
			<vel value="0.0141079862353453" flag="0"/>
			<psa03 value="0.0236495796894216" flag="0"/>
			<psa10 value="0.0111127296012976" flag="0"/>
			<psa30 value="0.00136838887821414" flag="0"/>
		</comp>
		<comp name="--.HGN" depth="0.0">
			<acc value="0.0266016406006222" flag="0"/>
			<vel value="0.00798224143620657" flag="0"/>
			<psa03 value="0.0289231191396957" flag="0"/>
			<psa10 value="0.00932788605167203" flag="0"/>
			<psa30 value="0.000444030196071302" flag="0"/>
		</comp>
		<comp name="--.HGZ" depth="0.0">
			<acc value="0.044226825648617" flag="0"/>
			<vel value="0.00911154355528277" flag="0"/>
			<psa03 value="0.0240765168260783" flag="0"/>
			<psa10 value="0.0035577988117105" flag="0"/>
			<psa30 value="0.000668216505647396" flag="0"/>
		</comp>
	</station>
	<station code="CELI" name="CELI" netid="IV" source="Italian National Seismic Network (INSN)" insttype="" lat="39.4027" lon="16.5088" esm:processing="manual (Paolucci et al 2011)" esm:quality="best">
		<comp name="--.HNE" depth="0.0">
			<acc value="0.0143541406978081" flag="0"/>
			<vel value="0.0056706403075343" flag="0"/>
			<psa03 value="0.0221460504004902" flag="0"/>
			<psa10 value="0.00987860440907603" flag="0"/>
			<psa30 value="0.00116939038303836" flag="0"/>
		</comp>
		<comp name="--.HNN" depth="0.0">
			<acc value="0.0141083221056288" flag="0"/>
			<vel value="0.00676792346414358" flag="0"/>
			<psa03 value="0.03332470759833" flag="0"/>
			<psa10 value="0.00971082298186009" flag="0"/>
			<psa30 value="0.00151742031331708" flag="0"/>
		</comp>
		<comp name="--.HNZ" depth="0.0">
			<acc value="0.0103074484824839" flag="0"/>
			<vel value="0.0042438848091967" flag="0"/>
			<psa03 value="0.0140041555711833" flag="0"/>
			<psa10 value="0.00721534532495017" flag="0"/>
			<psa30 value="0.000685096269683475" flag="0"/>
		</comp>
	</station>
	<station code="PIPA" name="PIPA" netid="IV" source="Italian National Seismic Network (INSN)" insttype="" lat="39.48514" lon="16.8158" esm:processing="manual (Paolucci et al 2011)" esm:quality="good">
		<comp name="--.HNE" depth="0.0">
			<acc value="0.293287873518743" flag="0"/>
			<vel value="0.101241182756967" flag="0"/>
			<psa03 value="0.338634412034737" flag="0"/>
			<psa10 value="0.0502284798904129" flag="0"/>
			<psa30 value="0.00307280064129331" flag="0"/>
		</comp>
		<comp name="--.HNN" depth="0.0">
			<acc value="0.33438020239026" flag="0"/>
			<vel value="0.0866598616543945" flag="0"/>
			<psa03 value="0.204672412709596" flag="0"/>
			<psa10 value="0.0344796378567734" flag="0"/>
			<psa30 value="0.00204206298498468" flag="0"/>
		</comp>
		<comp name="--.HNZ" depth="0.0">
			<acc value="0.265405723247638" flag="0"/>
			<vel value="0.0687231517253829" flag="0"/>
			<psa03 value="0.165959160646787" flag="0"/>
			<psa10 value="0.0337462017702626" flag="0"/>
			<psa30 value="0.00261487322251651" flag="0"/>
		</comp>
	</station>
	<station code="SALB" name="SALB" netid="IV" source="Italian National Seismic Network (INSN)" insttype="" lat="39.8772" lon="16.3459" esm:processing="manual (Paolucci et al 2011)" esm:quality="best">
		<comp name="--.HNE" depth="0.0">
			<acc value="0.0293980600559341" flag="0"/>
			<vel value="0.00883284004390539" flag="0"/>
			<psa03 value="0.0546779502706848" flag="0"/>
			<psa10 value="0.00612202977316667" flag="0"/>
			<psa30 value="0.000822149880060869" flag="0"/>
		</comp>
		<comp name="--.HNN" depth="0.0">
			<acc value="0.0241490262350374" flag="0"/>
			<vel value="0.00642376075692802" flag="0"/>
			<psa03 value="0.0363145801418884" flag="0"/>
			<psa10 value="0.00471689653375641" flag="0"/>
			<psa30 value="0.000807123155449744" flag="0"/>
		</comp>
		<comp name="--.HNZ" depth="0.0">
			<acc value="0.0179324241300968" flag="0"/>
			<vel value="0.00558091498636659" flag="0"/>
			<psa03 value="0.023230286288304" flag="0"/>
			<psa10 value="0.00315643339509693" flag="0"/>
			<psa30 value="0.00104983069196656" flag="0"/>
		</comp>
	</station>
	<station code="SERS" name="SERS" netid="IV" source="Italian National Seismic Network (INSN)" insttype="" lat="39.0359" lon="16.6886" esm:processing="automatic (Paolucci et al 2011)" esm:quality="best">
		<comp name="--.HNE" depth="0.0">
			<acc value="0.0114754693491105" flag="0"/>
			<vel value="0.00615861069338445" flag="0"/>
			<psa03 value="0.0384334184211933" flag="0"/>
			<psa10 value="0.00616813251474546" flag="0"/>
			<psa30 value="0.00042144812720341" flag="0"/>
		</comp>
		<comp name="--.HNN" depth="0.0">
			<acc value="0.00967814131583032" flag="0"/>
			<vel value="0.00611971579544378" flag="0"/>
			<psa03 value="0.026707873432216" flag="0"/>
			<psa10 value="0.00797586148668954" flag="0"/>
			<psa30 value="0.000484838524422248" flag="0"/>
		</comp>
