<?xml version="1.0" encoding="UTF-8" standalone="yes"?>
<!DOCTYPE earthquake SYSTEM "stationlist.dtd">
<stationlist created="" xmlns="ch.ethz.sed.shakemap.usgs.xml">
  <station code="KSP" name="KSP" netid="PL" insttype="STS-2/N" commtype="DIG" lat="50.8428" lon="16.2931">
    <comp name="--.HHN">
      <acc value="0.0022438020" flag="0"/>
      <vel value="0.0026259333" flag="0"/>
      <psa03 value="0.0062020789" flag="0"/>
      <psa10 value="0.0013417900" flag="0"/>
      <psa30 value="0.0006772537" flag="0"/>
    </comp>
    <comp name="--.HHZ">
      <acc value="0.0024507931" flag="0"/>
      <vel value="0.0025162261" flag="0"/>
      <psa03 value="0.0042388180" flag="0"/>
      <psa10 value="0.0014001494" flag="0"/>
      <psa30 value="0.0006372772" flag="0"/>
    </comp>
    <comp name="--.HHE">
      <acc value="0.0026780405" flag="0"/>
      <vel value="0.0012318578" flag="0"/>
      <psa03 value="0.0067958745" flag="0"/>
      <psa10 value="0.0010954967" flag="0"/>
      <psa30 value="0.0002563855" flag="0"/>
    </comp>
  </station>
</stationlist>
