<?xml version="1.0" encoding="UTF-8" standalone="yes"?>
<!DOCTYPE earthquake SYSTEM "stationlist.dtd">
<stationlist created="" xmlns="ch.ethz.sed.shakemap.usgs.xml">
  <station code="BNN" name="BNN" netid="KO" insttype="CMG-3T" lat="38.8521" lon="35.8472">
    <comp name="--.HHE">
      <acc value="0.0458120768" flag="0"/>
      <vel value="0.0277148555" flag="0"/>
      <psa03 value="0.1303145976" flag="0"/>
      <psa10 value="0.0284337858" flag="0"/>
      <psa30 value="0.0043543759" flag="0"/>
    </comp>
    <comp name="--.HHN">
      <acc value="0.0354737490" flag="0"/>
      <vel value="0.0227461431" flag="0"/>
      <psa03 value="0.0883320078" flag="0"/>
      <psa10 value="0.0309368167" flag="0"/>
      <psa30 value="0.0060397533" flag="0"/>
    </comp>
    <comp name="--.HHZ">
      <acc value="0.0278417333" flag="0"/>
      <vel value="0.0155758952" flag="0"/>
      <psa03 value="0.0643191582" flag="0"/>
      <psa10 value="0.0297687363" flag="0"/>
      <psa30 value="0.0072573835" flag="0"/>
    </comp>
  </station>
  <station code="CEYT" name="CEYT" netid="KO" insttype="CMG-3ESP" lat="37.0105" lon="35.7478">
    <comp name="--.HHZ">
      <acc value="0.0195628677" flag="0"/>
      <vel value="0.0314394939" flag="0"/>
      <psa03 value="0.0365238615" flag="0"/>
      <psa10 value="0.0466187550" flag="0"/>
      <psa30 value="0.0066253828" flag="0"/>
    </comp>
    <comp name="--.HHE">
      <acc value="0.0212712862" flag="0"/>
      <vel value="0.0325354003" flag="0"/>
      <psa03 value="0.0612200690" flag="0"/>
      <psa10 value="0.0652404163" flag="0"/>
      <psa30 value="0.0070198481" flag="0"/>
    </comp>
    <comp name="--.HHN">
      <acc value="0.0149572712" flag="0"/>
      <vel value="0.0246253706" flag="0"/>
      <psa03 value="0.0364980687" flag="0"/>
      <psa10 value="0.0297244458" flag="0"/>
      <psa30 value="0.0063055651" flag="0"/>
    </comp>
  </station>
  <station code="CMRD" name="CMRD" netid="KO" insttype="CMG-5T" lat="37.6623" lon="34.9902">
    <comp name="--.HNE">
      <acc value="0.0131856109" flag="0"/>
      <vel value="0.0098836008" flag="0"/>
      <psa03 value="0.0335231551" flag="0"/>
      <psa10 value="0.0097974062" flag="0"/>
      <psa30 value="0.0022039853" flag="0"/>
    </comp>
    <comp name="--.HNN">
      <acc value="0.0137906499" flag="0"/>
      <vel value="0.0124202069" flag="0"/>
      <psa03 value="0.0300499274" flag="0"/>
      <psa10 value="0.0138075032" flag="0"/>
      <psa30 value="0.0045535472" flag="0"/>
    </comp>
    <comp name="--.HNZ">
      <acc value="0.0126781927" flag="0"/>
      <vel value="0.0114768263" flag="0"/>
      <psa03 value="0.0295434723" flag="0"/>
      <psa10 value="0.0192879438" flag="0"/>
      <psa30 value="0.0034983836" flag="0"/>
    </comp>
  </station>
  <station code="DARE" name="DARE" netid="KO" insttype="CMG-3ESP" lat="38.5712" lon="37.4832">
    <comp name="--.HHE">
      <acc value="0.0224016647" flag="0"/>
      <vel value="0.0222443626" flag="0"/>
      <psa03 value="0.0546272776" flag="0"/>
      <psa10 value="0.0334871854" flag="0"/>
      <psa30 value="0.0018987608" flag="0"/>
    </comp>
    <comp name="--.HHN">
      <acc value="0.0291755990" flag="0"/>
      <vel value="0.0186673469" flag="0"/>
      <psa03 value="0.0733421547" flag="0"/>
      <psa10 value="0.0293687530" flag="0"/>
      <psa30 value="0.0031342393" flag="0"/>
    </comp>
    <comp name="--.HHZ">
      <acc value="0.0234570278" flag="0"/>
      <vel value="0.0206843319" flag="0"/>
      <psa03 value="0.0575640517" flag="0"/>
      <psa10 value="0.0320620796" flag="0"/>
      <psa30 value="0.0029044896" flag="0"/>
    </comp>
  </station>
  <station code="GAZ" name="GAZ" netid="KO" insttype="CMG-3T" lat="37.1721" lon="37.2096">
    <comp name="--.HHE">
      <acc value="0.0820168932" flag="0"/>
      <vel value="0.0661326909" flag="0"/>
      <psa03 value="0.2486526349" flag="0"/>
      <psa10 value="0.0669783598" flag="0"/>
      <psa30 value="0.0081551022" flag="0"/>
    </comp>
    <comp name="--.HHZ">
      <acc value="0.0501852913" flag="0"/>
      <vel value="0.0243349451" flag="0"/>
      <psa03 value="0.1555927384" flag="0"/>
      <psa10 value="0.0275340581" flag="0"/>
      <psa30 value="0.0032927562" flag="0"/>
    </comp>
    <comp name="--.HHN">
      <acc value="0.0842285994" flag="0"/>
      <vel value="0.0512691939" flag="0"/>
      <psa03 value="0.3303732423" flag="0"/>
      <psa10 value="0.0587881863" flag="0"/>
      <psa30 value="0.0057562316" flag="0"/>
    </comp>
  </station>
  <station code="KMRS" name="KMRS" netid="KO" insttype="CMG-3T" lat="37.5053" lon="36.9">
    <comp name="--.HHZ">
      <acc value="0.0502144351" flag="0"/>
      <vel value="0.0344154427" flag="0"/>
      <psa03 value="0.1161164148" flag="0"/>
      <psa10 value="0.0270575103" flag="0"/>
      <psa30 value="0.0075979586" flag="0"/>
    </comp>
    <comp name="--.HHE">
      <acc value="0.1055604386" flag="0"/>
      <vel value="0.1152219788" flag="0"/>
      <psa03 value="0.2041489697" flag="0"/>
      <psa10 value="0.1100615262" flag="0"/>
      <psa30 value="0.0104281285" flag="0"/>
    </comp>
    <comp name="--.HHN">
      <acc value="0.1382143206" flag="0"/>
      <vel value="0.0878614214" flag="0"/>
      <psa03 value="0.2374357965" flag="0"/>
      <psa10 value="0.0646477211" flag="0"/>
      <psa30 value="0.0088903279" flag="0"/>
    </comp>
  </station>
  <station code="SARI" name="SARI" netid="KO" insttype="CMG-3T" lat="38.4072" lon="36.4181">
    <comp name="--.HHN">
      <acc value="0.5967672768" flag="0"/>
      <vel value="0.1806336985" flag="0"/>
      <psa03 value="0.7671876241" flag="0"/>
      <psa10 value="0.1261004900" flag="0"/>
      <psa30 value="0.0120715980" flag="0"/>
    </comp>
    <comp name="--.HHZ">
      <acc value="0.2847627318" flag="0"/>
      <vel value="0.1158887829" flag="0"/>
      <psa03 value="0.4876684041" flag="0"/>
      <psa10 value="0.0993515133" flag="0"/>
      <psa30 value="0.0107660847" flag="0"/>
    </comp>
  </station>
  <station code="ANDN" name="ANDN" netid="TU" insttype="T" lat="37.58" lon="36.3452">
    <comp name="--.HHZ">
      <acc value="0.2649174376" flag="0"/>
      <vel value="0.2751394778" flag="0"/>
      <psa03 value="1.1924954918" flag="0"/>
      <psa10 value="0.3654942838" flag="0"/>
      <psa30 value="0.0273349611" flag="0"/>
    </comp>
    <comp name="--.HHE">
      <acc value="0.4822521228" flag="0"/>
      <vel value="0.2799832396" flag="0"/>
      <psa03 value="1.0635930214" flag="0"/>
      <psa10 value="0.4520539943" flag="0"/>
      <psa30 value="0.0676823847" flag="0"/>
    </comp>
    <comp name="--.HHN">
      <acc value="1.0062077495" flag="0"/>
      <vel value="0.3619923334" flag="0"/>
      <psa03 value="2.3030763434" flag="0"/>
      <psa10 value="0.3361389344" flag="0"/>
      <psa30 value="0.0493082537" flag="0"/>
    </comp>
  </station>
</stationlist>
