<?xml version="1.0" encoding="UTF-8" standalone="yes"?>
<!DOCTYPE earthquake SYSTEM "stationlist.dtd">
<stationlist created="" xmlns="ch.ethz.sed.shakemap.usgs.xml">
  <station code="BNN" name="BNN" netid="KO" insttype="CMG-3T" lat="38.8521" lon="35.8472">
    <comp name="--.HHN">
      <acc value="0.0354737490" flag="0"/>
      <vel value="0.0227461431" flag="0"/>
      <psa03 value="0.0883320078" flag="0"/>
      <psa10 value="0.0309368167" flag="0"/>
      <psa30 value="0.0060397471" flag="0"/>
    </comp>
    <comp name="--.HHZ">
      <acc value="0.0278417334" flag="0"/>
      <vel value="0.0155758953" flag="0"/>
      <psa03 value="0.0643191582" flag="0"/>
      <psa10 value="0.0297687363" flag="0"/>
      <psa30 value="0.0072573902" flag="0"/>
    </comp>
    <comp name="--.HHE">
      <acc value="0.0458120768" flag="0"/>
      <vel value="0.0277148549" flag="0"/>
      <psa03 value="0.1303145976" flag="0"/>
      <psa10 value="0.0284337858" flag="0"/>
      <psa30 value="0.0043543813" flag="0"/>
    </comp>
  </station>
  <station code="CEYT" name="CEYT" netid="KO" insttype="CMG-3ESP" lat="37.0105" lon="35.7478">
    <comp name="--.HHE">
      <acc value="0.0212712863" flag="0"/>
      <vel value="0.0325354030" flag="0"/>
      <psa03 value="0.0612200690" flag="0"/>
      <psa10 value="0.0652404163" flag="0"/>
      <psa30 value="0.0070199251" flag="0"/>
    </comp>
    <comp name="--.HHZ">
      <acc value="0.0195628675" flag="0"/>
      <vel value="0.0314394910" flag="0"/>
      <psa03 value="0.0365238615" flag="0"/>
      <psa10 value="0.0466187550" flag="0"/>
      <psa30 value="0.0066253816" flag="0"/>
    </comp>
    <comp name="--.HHN">
      <acc value="0.0149572711" flag="0"/>
      <vel value="0.0246253614" flag="0"/>
      <psa03 value="0.0364980687" flag="0"/>
      <psa10 value="0.0297244458" flag="0"/>
      <psa30 value="0.0063055630" flag="0"/>
    </comp>
  </station>
  <station code="CMRD" name="CMRD" netid="KO" insttype="CMG-5T" lat="37.6623" lon="34.9902">
    <comp name="--.HNE">
      <acc value="0.0131856100" flag="0"/>
      <vel value="0.0098836005" flag="0"/>
      <psa03 value="0.0335231551" flag="0"/>
      <psa10 value="0.0097974062" flag="0"/>
      <psa30 value="0.0022040877" flag="0"/>
    </comp>
    <comp name="--.HNN">
      <acc value="0.0137906550" flag="0"/>
      <vel value="0.0124202024" flag="0"/>
      <psa03 value="0.0300499274" flag="0"/>
      <psa10 value="0.0138075032" flag="0"/>
      <psa30 value="0.0045536328" flag="0"/>
    </comp>
    <comp name="--.HNZ">
      <acc value="0.0126781912" flag="0"/>
      <vel value="0.0114768241" flag="0"/>
      <psa03 value="0.0295434723" flag="0"/>
      <psa10 value="0.0192879438" flag="0"/>
      <psa30 value="0.0034984983" flag="0"/>
    </comp>
  </station>
  <station code="DARE" name="DARE" netid="KO" insttype="CMG-3ESP" lat="38.5712" lon="37.4832">
    <comp name="--.HHZ">
      <acc value="0.0234570278" flag="0"/>
      <vel value="0.0206843345" flag="0"/>
      <psa03 value="0.0575640517" flag="0"/>
      <psa10 value="0.0320620796" flag="0"/>
      <psa30 value="0.0029044780" flag="0"/>
    </comp>
    <comp name="--.HHE">
      <acc value="0.0224016646" flag="0"/>
      <vel value="0.0222443625" flag="0"/>
      <psa03 value="0.0546272776" flag="0"/>
      <psa10 value="0.0334871854" flag="0"/>
      <psa30 value="0.0018987662" flag="0"/>
    </comp>
    <comp name="--.HHN">
      <acc value="0.0291755991" flag="0"/>
      <vel value="0.0186673465" flag="0"/>
      <psa03 value="0.0733421547" flag="0"/>
      <psa10 value="0.0293687530" flag="0"/>
      <psa30 value="0.0031342534" flag="0"/>
    </comp>
  </station>
  <station code="GAZ" name="GAZ" netid="KO" insttype="CMG-3T" lat="37.1721" lon="37.2096">
    <comp name="--.HHE">
      <acc value="0.0820168932" flag="0"/>
      <vel value="0.0661326902" flag="0"/>
      <psa03 value="0.2486526349" flag="0"/>
      <psa10 value="0.0669783598" flag="0"/>
      <psa30 value="0.0081550773" flag="0"/>
    </comp>
    <comp name="--.HHN">
      <acc value="0.0842285993" flag="0"/>
      <vel value="0.0512691937" flag="0"/>
      <psa03 value="0.3303732423" flag="0"/>
      <psa10 value="0.0587881862" flag="0"/>
      <psa30 value="0.0057562285" flag="0"/>
    </comp>
    <comp name="--.HHZ">
      <acc value="0.0501852916" flag="0"/>
      <vel value="0.0243349448" flag="0"/>
      <psa03 value="0.1555927384" flag="0"/>
      <psa10 value="0.0275340581" flag="0"/>
      <psa30 value="0.0032927542" flag="0"/>
    </comp>
  </station>
  <station code="KMRS" name="KMRS" netid="KO" insttype="CMG-3T" lat="37.5053" lon="36.9">
    <comp name="--.HHZ">
      <acc value="0.0502144352" flag="0"/>
      <vel value="0.0344154427" flag="0"/>
      <psa03 value="0.1161164148" flag="0"/>
      <psa10 value="0.0270575119" flag="0"/>
      <psa30 value="0.0075979537" flag="0"/>
    </comp>
    <comp name="--.HHN">
      <acc value="0.1382143201" flag="0"/>
      <vel value="0.0878614212" flag="0"/>
      <psa03 value="0.2374357965" flag="0"/>
      <psa10 value="0.0646477205" flag="0"/>
      <psa30 value="0.0088903224" flag="0"/>
    </comp>
    <comp name="--.HHE">
      <acc value="0.1055604385" flag="0"/>
      <vel value="0.1152219786" flag="0"/>
      <psa03 value="0.2041489697" flag="0"/>
      <psa10 value="0.1100615275" flag="0"/>
      <psa30 value="0.0104281344" flag="0"/>
    </comp>
  </station>
  <station code="SARI" name="SARI" netid="KO" insttype="CMG-3T" lat="38.4072" lon="36.4181">
    <comp name="--.HHN">
      <acc value="0.5967672768" flag="0"/>
      <vel value="0.1806336980" flag="0"/>
      <psa03 value="0.7671876241" flag="0"/>
      <psa10 value="0.1261004904" flag="0"/>
      <psa30 value="0.0120716424" flag="0"/>
    </comp>
    <comp name="--.HHZ">
      <acc value="0.2847627319" flag="0"/>
      <vel value="0.1158887827" flag="0"/>
      <psa03 value="0.4876684041" flag="0"/>
      <psa10 value="0.0993515135" flag="0"/>
      <psa30 value="0.0107660276" flag="0"/>
    </comp>
  </station>
  <station code="ANDN" name="ANDN" netid="TU" insttype="T" lat="37.58" lon="36.3452">
    <comp name="--.HHN">
      <acc value="1.0062077495" flag="0"/>
      <vel value="0.3619923322" flag="0"/>
      <psa03 value="2.3030763434" flag="0"/>
      <psa10 value="0.3361389342" flag="0"/>
      <psa30 value="0.0493084943" flag="0"/>
    </comp>
    <comp name="--.HHZ">
      <acc value="0.2649174377" flag="0"/>
      <vel value="0.2751394798" flag="0"/>
      <psa03 value="1.1924954918" flag="0"/>
      <psa10 value="0.3654942862" flag="0"/>
      <psa30 value="0.0273351258" flag="0"/>
    </comp>
    <comp name="--.HHE">
      <acc value="0.4822521227" flag="0"/>
      <vel value="0.2799832407" flag="0"/>
      <psa03 value="1.0635930214" flag="0"/>
      <psa10 value="0.4520539969" flag="0"/>
      <psa30 value="0.0676826993" flag="0"/>
    </comp>
  </station>
</stationlist>
