<stationlist created="1778069982">
	<station code="KSS1" name="KSS1" netid="HI" source="ITSAK Strong Motion Network" insttype="" lat="35.4189" lon="26.9207">
		<comp name="--.HNE" depth="0.0">
			<acc value="0.21690045686847" flag="0"/>
			<vel value="0.0434513276257099" flag="0"/>
			<psa03 value="0.126799413556182" flag="0"/>
			<psa10 value="0.023387646243503" flag="0"/>
			<psa30 value="0.00199371272691019" flag="0"/>
		</comp>
		<comp name="--.HNN" depth="0.0">
			<acc value="0.208600878973197" flag="0"/>
			<vel value="0.0536626040206559" flag="0"/>
			<psa03 value="0.278475493992123" flag="0"/>
			<psa10 value="0.0171420816216585" flag="0"/>
			<psa30 value="0.00316998533890455" flag="0"/>
		</comp>
		<comp name="--.HNZ" depth="0.0">
			<acc value="0.164104038557416" flag="0"/>
			<vel value="0.0354218121099273" flag="0"/>
			<psa03 value="0.0597755880420111" flag="0"/>
			<psa10 value="0.0123783788830111" flag="0"/>
			<psa30 value="0.00171273166934744" flag="0"/>
		</comp>
	</station>
	<station code="SIT2" name="SIT2" netid="HI" source="ITSAK Strong Motion Network" insttype="" lat="35.2059" lon="26.107">
		<comp name="--.HNE" depth="0.0">
			<acc value="0.187362881582579" flag="0"/>
			<vel value="0.0848033356235776" flag="0"/>
			<psa03 value="0.694712242161906" flag="0"/>
			<psa10 value="0.0527510616029424" flag="0"/>
			<psa30 value="0.00479368001708163" flag="0"/>
		</comp>
		<comp name="--.HNN" depth="0.0">
			<acc value="0.282218627745753" flag="0"/>
			<vel value="0.122605855302283" flag="0"/>
			<psa03 value="0.872070349196735" flag="0"/>
			<psa10 value="0.05420473589597" flag="0"/>
			<psa30 value="0.00455923085440189" flag="0"/>
		</comp>
		<comp name="--.HNZ" depth="0.0">
			<acc value="0.243353359844121" flag="0"/>
			<vel value="0.0752947946559307" flag="0"/>
			<psa03 value="0.419681898079389" flag="0"/>
			<psa10 value="0.0141260094735208" flag="0"/>
			<psa30 value="0.00188409432069542" flag="0"/>
		</comp>
	</station>
	<station code="IACM" name="IACM" netid="HL" source="National Observatory of Athens Seismic Network" insttype="" lat="35.3058" lon="25.0709">
		<comp name="--.HNE" depth="0.0">
			<acc value="0.0975503681678496" flag="0"/>
			<vel value="0.0427232192480425" flag="0"/>
			<psa03 value="0.374447527188316" flag="0"/>
			<psa10 value="0.0503631700357252" flag="0"/>
			<psa30 value="0.00305812982235887" flag="0"/>
		</comp>
		<comp name="--.HNN" depth="0.0">
			<acc value="0.111060463572066" flag="0"/>
			<vel value="0.0516482312512722" flag="0"/>
			<psa03 value="0.310018749658005" flag="0"/>
			<psa10 value="0.0494651939488965" flag="0"/>
			<psa30 value="0.00289034654754035" flag="0"/>
		</comp>
		<comp name="--.HNZ" depth="0.0">
			<acc value="0.103002673649185" flag="0"/>
			<vel value="0.029160028615899" flag="0"/>
			<psa03 value="0.147872992873388" flag="0"/>
			<psa10 value="0.018495085949795" flag="0"/>
			<psa30 value="0.00102817590808788" flag="0"/>
		</comp>
	</station>
	<station code="KARP" name="KARP" netid="HL" source="National Observatory of Athens Seismic Network" insttype="" lat="35.5471" lon="27.16106">
		<comp name="--.HNE" depth="0.0">
			<acc value="0.312868276762621" flag="0"/>
			<vel value="0.0939241497538029" flag="0"/>
			<psa03 value="0.213644036602248" flag="0"/>
			<psa10 value="0.0692891234352542" flag="0"/>
			<psa30 value="0.00306663084161635" flag="0"/>
		</comp>
		<comp name="--.HNN" depth="0.0">
			<acc value="0.275014719777551" flag="0"/>
			<vel value="0.0597851237581238" flag="0"/>
			<psa03 value="0.19650777146745" flag="0"/>
			<psa10 value="0.0289244943125141" flag="0"/>
			<psa30 value="0.00171362651347981" flag="0"/>
		</comp>
		<comp name="--.HNZ" depth="0.0">
			<acc value="0.179003871400993" flag="0"/>
			<vel value="0.0366627093245062" flag="0"/>
			<psa03 value="0.128633844027531" flag="0"/>
			<psa10 value="0.0216682032431628" flag="0"/>
			<psa30 value="0.00149349485691791" flag="0"/>
		</comp>
	</station>
	<station code="KLNA" name="KLNA" netid="HL" source="National Observatory of Athens Seismic Network" insttype="" lat="36.95708" lon="26.97274">
		<comp name="00.HNE" depth="0.0">
			<acc value="0.0184665218731256" flag="0"/>
			<vel value="0.00694220733044218" flag="0"/>
			<psa03 value="0.0793279323341958" flag="0"/>
			<psa10 value="0.00395028942232721" flag="0"/>
			<psa30 value="0.000568226024052051" flag="0"/>
		</comp>
		<comp name="00.HNN" depth="0.0">
			<acc value="0.0148421118637566" flag="0"/>
			<vel value="0.00635509814984934" flag="0"/>
			<psa03 value="0.0529747726360338" flag="0"/>
			<psa10 value="0.00699454916063442" flag="0"/>
			<psa30 value="0.000354805698482895" flag="0"/>
		</comp>
		<comp name="00.HNZ" depth="0.0">
			<acc value="0.0201479574442622" flag="0"/>
			<vel value="0.00559657219745469" flag="0"/>
			<psa03 value="0.02304223640841" flag="0"/>
			<psa10 value="0.00365633312484517" flag="0"/>
			<psa30 value="0.000453238553043093" flag="0"/>
		</comp>
	</station>
	<station code="NISR" name="NISR" netid="HL" source="National Observatory of Athens Seismic Network" insttype="" lat="36.6106" lon="27.131">
		<comp name="--.HNE" depth="0.0">
			<acc value="0.0645739452601715" flag="0"/>
			<vel value="0.0358701042388096" flag="0"/>
			<psa03 value="0.173331308439185" flag="0"/>
			<psa10 value="0.0427847350787224" flag="0"/>
			<psa30 value="0.00280846830942892" flag="0"/>
		</comp>
		<comp name="--.HNN" depth="0.0">
			<acc value="0.052746536327478" flag="0"/>
			<vel value="0.0303714366846396" flag="0"/>
			<psa03 value="0.0908266794350917" flag="0"/>
			<psa10 value="0.0340586625219608" flag="0"/>
			<psa30 value="0.00330421195875937" flag="0"/>
		</comp>
		<comp name="--.HNZ" depth="0.0">
			<acc value="0.0207304139337642" flag="0"/>
			<vel value="0.0165677792444011" flag="0"/>
			<psa03 value="0.0511403421646846" flag="0"/>
			<psa10 value="0.0249862852859739" flag="0"/>
			<psa30 value="0.00111989743165534" flag="0"/>
		</comp>
	</station>
	<station code="SIVA" name="SIVA" netid="HL" source="National Observatory of Athens Seismic Network" insttype="" lat="35.01777" lon="24.81204">
		<comp name="00.HNE" depth="0.0">
			<acc value="0.0195004653647323" flag="0"/>
			<vel value="0.00926497256883189" flag="0"/>
			<psa03 value="0.0437578780726698" flag="0"/>
			<psa10 value="0.0130709882414619" flag="0"/>
			<psa30 value="0.00117582518992818" flag="0"/>
		</comp>
		<comp name="00.HNN" depth="0.0">
			<acc value="0.0163623226852512" flag="0"/>
			<vel value="0.00794633507896381" flag="0"/>
			<psa03 value="0.0430420027667774" flag="0"/>
			<psa10 value="0.0128736751102753" flag="0"/>
			<psa30 value="0.00118074683265619" flag="0"/>
		</comp>
		<comp name="00.HNZ" depth="0.0">
			<acc value="0.0118156825136349" flag="0"/>
			<vel value="0.004374845451757" flag="0"/>
			<psa03 value="0.0226395565488455" flag="0"/>
			<psa10 value="0.00475162234286046" flag="0"/>
			<psa30 value="0.000807149407393622" flag="0"/>
		</comp>
	</station>
	<station code="THRA" name="THRA" netid="HL" source="National Observatory of Athens Seismic Network" insttype="" lat="36.41502" lon="25.43244">
		<comp name="00.HNE" depth="0.0">
			<acc value="0.098747668732529" flag="0"/>
			<vel value="0.0536455622562198" flag="0"/>
			<psa03 value="0.208543425047765" flag="0"/>
			<psa10 value="0.0628784600709882" flag="0"/>
			<psa30 value="0.0073887280009414" flag="0"/>
		</comp>
		<comp name="00.HNN" depth="0.0">
			<acc value="0.084813014936958" flag="0"/>
			<vel value="0.0442587762232046" flag="0"/>
			<psa03 value="0.167828017025137" flag="0"/>
			<psa10 value="0.0641187140384467" flag="0"/>
			<psa30 value="0.00398966256415129" flag="0"/>
		</comp>
		<comp name="00.HNZ" depth="0.0">
			<acc value="0.0784381843612298" flag="0"/>
			<vel value="0.029127006581745" flag="0"/>
			<psa03 value="0.176776458348792" flag="0"/>
			<psa10 value="0.0250265532719303" flag="0"/>
			<psa30 value="0.00187067165870994" flag="0"/>
		</comp>
	</station>
</stationlist>
