<?xml version="1.0" encoding="UTF-8" standalone="yes"?>
<!DOCTYPE earthquake SYSTEM "stationlist.dtd">
<stationlist created="" xmlns="ch.ethz.sed.shakemap.usgs.xml">
  <station code="KARP" name="KARP" netid="GE" insttype="STS-2/N" lat="35.5471" lon="27.1611">
    <comp name="--.HHE">
      <acc value="0.4156443880" flag="0"/>
      <vel value="0.1181450165" flag="0"/>
      <psa03 value="0.2528438331" flag="0"/>
      <psa10 value="0.0778424437" flag="0"/>
      <psa30 value="0.0035910676" flag="0"/>
    </comp>
    <comp name="--.HHN">
      <acc value="0.3127697198" flag="0"/>
      <vel value="0.0737097179" flag="0"/>
      <psa03 value="0.2089983758" flag="0"/>
      <psa10 value="0.0382837963" flag="0"/>
      <psa30 value="0.0020878646" flag="0"/>
    </comp>
    <comp name="--.HHZ">
      <acc value="0.2506000004" flag="0"/>
      <vel value="0.0459329418" flag="0"/>
      <psa03 value="0.1586300223" flag="0"/>
      <psa10 value="0.0267185699" flag="0"/>
      <psa30 value="0.0017485619" flag="0"/>
    </comp>
  </station>
  <station code="THERA" name="THERA" netid="GE" insttype="STS-2/N" lat="36.367" lon="25.4753">
    <comp name="--.HHE">
      <acc value="0.0348833495" flag="0"/>
      <vel value="0.0163859589" flag="0"/>
      <psa03 value="0.0629860272" flag="0"/>
      <psa10 value="0.0191576287" flag="0"/>
      <psa30 value="0.0014331905" flag="0"/>
    </comp>
    <comp name="--.HHN">
      <acc value="0.0304451549" flag="0"/>
      <vel value="0.0094877286" flag="0"/>
      <psa03 value="0.0683179012" flag="0"/>
      <psa10 value="0.0064589169" flag="0"/>
      <psa30 value="0.0007205985" flag="0"/>
    </comp>
    <comp name="--.HHZ">
      <acc value="0.0320665056" flag="0"/>
      <vel value="0.0126678315" flag="0"/>
      <psa03 value="0.0727118347" flag="0"/>
      <psa10 value="0.0094801961" flag="0"/>
      <psa30 value="0.0012750733" flag="0"/>
    </comp>
  </station>
  <station code="ZKR" name="ZKR" netid="GE" insttype="STS-2/N" lat="35.1147" lon="26.2169">
    <comp name="--.HHE">
      <acc value="0.1598516819" flag="0"/>
      <vel value="0.0460412806" flag="0"/>
      <psa03 value="0.3551730588" flag="0"/>
      <psa10 value="0.0297522867" flag="0"/>
      <psa30 value="0.0020154285" flag="0"/>
    </comp>
    <comp name="--.HHN">
      <acc value="0.0831817394" flag="0"/>
      <vel value="0.0290651289" flag="0"/>
      <psa03 value="0.1896254074" flag="0"/>
      <psa10 value="0.0078023587" flag="0"/>
      <psa30 value="0.0008670832" flag="0"/>
    </comp>
    <comp name="--.HHZ">
      <acc value="0.1117301660" flag="0"/>
      <vel value="0.0326609061" flag="0"/>
      <psa03 value="0.1565154338" flag="0"/>
      <psa10 value="0.0114241529" flag="0"/>
      <psa30 value="0.0015734779" flag="0"/>
    </comp>
  </station>
  <station code="STIA" name="STIA" netid="HC" insttype="120" lat="35.2021" lon="26.0909">
    <comp name="--.HHE">
      <acc value="0.2049268903" flag="0"/>
      <vel value="0.0510562107" flag="0"/>
      <psa03 value="0.3101422421" flag="0"/>
      <psa10 value="0.0246163803" flag="0"/>
      <psa30 value="0.0028925367" flag="0"/>
    </comp>
    <comp name="--.HHN">
      <acc value="0.1956321072" flag="0"/>
      <vel value="0.0523781263" flag="0"/>
      <psa03 value="0.2844950976" flag="0"/>
      <psa10 value="0.0320051890" flag="0"/>
      <psa30 value="0.0035178159" flag="0"/>
    </comp>
    <comp name="--.HHZ">
      <acc value="0.2268649347" flag="0"/>
      <vel value="0.0554316150" flag="0"/>
      <psa03 value="0.3131125171" flag="0"/>
      <psa10 value="0.0160201223" flag="0"/>
      <psa30 value="0.0011961215" flag="0"/>
    </comp>
  </station>
  <station code="SIT2" name="SIT2" netid="HI" insttype="CMG-5TD,ACCELEROMETER,GURALP" lat="35.2059" lon="26.107">
    <comp name="--.HNE">
      <acc value="0.1860077869" flag="0"/>
      <vel value="0.0853496074" flag="0"/>
      <psa03 value="0.6830430225" flag="0"/>
      <psa10 value="0.0525512170" flag="0"/>
      <psa30 value="0.0045880064" flag="0"/>
    </comp>
    <comp name="--.HNZ">
      <acc value="0.2428421236" flag="0"/>
      <vel value="0.0745289657" flag="0"/>
      <psa03 value="0.4076625661" flag="0"/>
      <psa10 value="0.0139980418" flag="0"/>
      <psa30 value="0.0017426909" flag="0"/>
    </comp>
    <comp name="--.HNN">
      <acc value="0.2832565892" flag="0"/>
      <vel value="0.1219017090" flag="0"/>
      <psa03 value="0.8464521668" flag="0"/>
      <psa10 value="0.0539539498" flag="0"/>
      <psa30 value="0.0042365141" flag="0"/>
    </comp>
  </station>
  <station code="IACM" name="IACM" netid="HL" insttype="120" lat="35.3058" lon="25.0709">
    <comp name="--.HHE">
      <acc value="0.0863092197" flag="0"/>
      <vel value="0.0415257707" flag="0"/>
      <psa03 value="0.3236953225" flag="0"/>
      <psa10 value="0.0408287665" flag="0"/>
      <psa30 value="0.0027598928" flag="0"/>
    </comp>
    <comp name="--.HHN">
      <acc value="0.0815592993" flag="0"/>
      <vel value="0.0327712376" flag="0"/>
      <psa03 value="0.2336437880" flag="0"/>
      <psa10 value="0.0294043061" flag="0"/>
      <psa30 value="0.0017080073" flag="0"/>
    </comp>
    <comp name="--.HHZ">
      <acc value="0.0809271972" flag="0"/>
      <vel value="0.0306761395" flag="0"/>
      <psa03 value="0.1673706371" flag="0"/>
      <psa10 value="0.0268315473" flag="0"/>
      <psa30 value="0.0014829879" flag="0"/>
    </comp>
  </station>
  <station code="IDI" name="IDI" netid="HL" insttype="120" lat="35.288" lon="24.89">
    <comp name="--.HHE">
      <acc value="0.0280591124" flag="0"/>
      <vel value="0.0064034167" flag="0"/>
      <psa03 value="0.0410367200" flag="0"/>
      <psa10 value="0.0048556178" flag="0"/>
      <psa30 value="0.0004017273" flag="0"/>
    </comp>
    <comp name="--.HHN">
      <acc value="0.0229846252" flag="0"/>
      <vel value="0.0078001363" flag="0"/>
      <psa03 value="0.0548075465" flag="0"/>
      <psa10 value="0.0060905576" flag="0"/>
      <psa30 value="0.0002328469" flag="0"/>
    </comp>
    <comp name="--.HHZ">
      <acc value="0.0156062648" flag="0"/>
      <vel value="0.0050835598" flag="0"/>
      <psa03 value="0.0292345944" flag="0"/>
      <psa10 value="0.0040110033" flag="0"/>
      <psa30 value="0.0003091993" flag="0"/>
    </comp>
  </station>
  <station code="KARP" name="KARP" netid="HL" insttype="120" lat="35.5471" lon="27.1611">
    <comp name="--.HHN">
      <acc value="0.2931334515" flag="0"/>
      <vel value="0.0711251394" flag="0"/>
      <psa03 value="0.2036090054" flag="0"/>
      <psa10 value="0.0379252000" flag="0"/>
      <psa30 value="0.0020717992" flag="0"/>
    </comp>
    <comp name="--.HHE">
      <acc value="0.3982762704" flag="0"/>
      <vel value="0.1150204033" flag="0"/>
      <psa03 value="0.2450652126" flag="0"/>
      <psa10 value="0.0769679267" flag="0"/>
      <psa30 value="0.0035449387" flag="0"/>
    </comp>
    <comp name="--.HHZ">
      <acc value="0.2250575755" flag="0"/>
      <vel value="0.0432542826" flag="0"/>
      <psa03 value="0.1545628895" flag="0"/>
      <psa10 value="0.0263140069" flag="0"/>
      <psa30 value="0.0017189106" flag="0"/>
    </comp>
  </station>
  <station code="NISR" name="NISR" netid="HL" insttype="30" lat="36.6106" lon="27.1309">
    <comp name="--.HHE">
      <acc value="0.0747792456" flag="0"/>
      <vel value="0.0403779522" flag="0"/>
      <psa03 value="0.1880549628" flag="0"/>
      <psa10 value="0.0451473174" flag="0"/>
      <psa30 value="0.0027073614" flag="0"/>
    </comp>
    <comp name="--.HHZ">
      <acc value="0.0224493896" flag="0"/>
      <vel value="0.0177328942" flag="0"/>
      <psa03 value="0.0544953657" flag="0"/>
      <psa10 value="0.0253201655" flag="0"/>
      <psa30 value="0.0012070115" flag="0"/>
    </comp>
    <comp name="--.HHN">
      <acc value="0.0516501751" flag="0"/>
      <vel value="0.0256920867" flag="0"/>
      <psa03 value="0.0881158908" flag="0"/>
      <psa10 value="0.0271585381" flag="0"/>
      <psa30 value="0.0014906749" flag="0"/>
    </comp>
  </station>
  <station code="NPS" name="NPS" netid="HL" insttype="CMG3ESPC-120s" lat="35.2613" lon="25.6104">
    <comp name="--.HHE">
      <acc value="0.0488080612" flag="0"/>
      <vel value="0.0281091109" flag="0"/>
      <psa03 value="0.1462743728" flag="0"/>
      <psa10 value="0.0182919950" flag="0"/>
      <psa30 value="0.0010164634" flag="0"/>
    </comp>
    <comp name="--.HHN">
      <acc value="0.1922238085" flag="0"/>
      <vel value="0.0553784554" flag="0"/>
      <psa03 value="0.1837116674" flag="0"/>
      <psa10 value="0.0335719660" flag="0"/>
      <psa30 value="0.0023079087" flag="0"/>
    </comp>
    <comp name="--.HHZ">
      <acc value="0.1221318341" flag="0"/>
      <vel value="0.0363072643" flag="0"/>
      <psa03 value="0.1937242837" flag="0"/>
      <psa10 value="0.0248362707" flag="0"/>
      <psa30 value="0.0018981060" flag="0"/>
    </comp>
  </station>
  <station code="SAP3" name="SAP3" netid="HL" insttype="LE3D20_SMART24" lat="36.4356" lon="25.3454">
    <comp name="--.HHZ">
      <acc value="0.0488546894" flag="0"/>
      <vel value="0.0174998607" flag="0"/>
      <psa03 value="0.0818642055" flag="0"/>
      <psa10 value="0.0119995150" flag="0"/>
      <psa30 value="0.0014313245" flag="0"/>
    </comp>
    <comp name="--.HHN">
      <acc value="0.0576850511" flag="0"/>
      <vel value="0.0324544732" flag="0"/>
      <psa03 value="0.1509119243" flag="0"/>
      <psa10 value="0.0389464307" flag="0"/>
      <psa30 value="0.0073832373" flag="0"/>
    </comp>
    <comp name="--.HHE">
      <acc value="0.0614590680" flag="0"/>
      <vel value="0.0355106256" flag="0"/>
      <psa03 value="0.1630609660" flag="0"/>
      <psa10 value="0.0292651585" flag="0"/>
      <psa30 value="0.0060544397" flag="0"/>
    </comp>
  </station>
  <station code="THERA" name="THERA" netid="HL" insttype="120" lat="36.367" lon="25.4753">
    <comp name="--.HHN">
      <acc value="0.0295786935" flag="0"/>
      <vel value="0.0092778106" flag="0"/>
      <psa03 value="0.0662238928" flag="0"/>
      <psa10 value="0.0064260608" flag="0"/>
      <psa30 value="0.0007205448" flag="0"/>
    </comp>
    <comp name="--.HHE">
      <acc value="0.0339137692" flag="0"/>
      <vel value="0.0159951267" flag="0"/>
      <psa03 value="0.0612427772" flag="0"/>
      <psa10 value="0.0190039420" flag="0"/>
      <psa30 value="0.0014326495" flag="0"/>
    </comp>
    <comp name="--.HHZ">
      <acc value="0.0312638906" flag="0"/>
      <vel value="0.0124781899" flag="0"/>
      <psa03 value="0.0707054114" flag="0"/>
      <psa10 value="0.0094274179" flag="0"/>
      <psa30 value="0.0012735338" flag="0"/>
    </comp>
  </station>
  <station code="THRA" name="THRA" netid="HL" insttype="CMG-5" lat="36.415" lon="25.4324">
    <comp name="00.HNZ">
      <acc value="0.0782255250" flag="0"/>
      <vel value="0.0289630981" flag="0"/>
      <psa03 value="0.1755254999" flag="0"/>
      <psa10 value="0.0250234346" flag="0"/>
      <psa30 value="0.0018533850" flag="0"/>
    </comp>
    <comp name="00.HNE">
      <acc value="0.1004500781" flag="0"/>
      <vel value="0.0531317129" flag="0"/>
      <psa03 value="0.2082205200" flag="0"/>
      <psa10 value="0.0628179796" flag="0"/>
      <psa30 value="0.0069582657" flag="0"/>
    </comp>
    <comp name="00.HNN">
      <acc value="0.0843322270" flag="0"/>
      <vel value="0.0440771514" flag="0"/>
      <psa03 value="0.1677199378" flag="0"/>
      <psa10 value="0.0641276123" flag="0"/>
      <psa30 value="0.0037390921" flag="0"/>
    </comp>
  </station>
  <station code="ZKR" name="ZKR" netid="HL" insttype="120" lat="35.1147" lon="26.2169">
    <comp name="--.HHE">
      <acc value="0.1544819879" flag="0"/>
      <vel value="0.0451159183" flag="0"/>
      <psa03 value="0.3450318008" flag="0"/>
      <psa10 value="0.0296464033" flag="0"/>
      <psa30 value="0.0020096722" flag="0"/>
    </comp>
    <comp name="--.HHN">
      <acc value="0.0814530755" flag="0"/>
      <vel value="0.0281687086" flag="0"/>
      <psa03 value="0.1844783603" flag="0"/>
      <psa10 value="0.0076501939" flag="0"/>
      <psa30 value="0.0008614353" flag="0"/>
    </comp>
    <comp name="--.HHZ">
      <acc value="0.1092606463" flag="0"/>
      <vel value="0.0325318270" flag="0"/>
      <psa03 value="0.1517714395" flag="0"/>
      <psa10 value="0.0113129562" flag="0"/>
      <psa30 value="0.0015596850" flag="0"/>
    </comp>
  </station>
  <station code="CMBO" name="CMBO" netid="HT" insttype="120P," lat="36.4709" lon="25.4056">
    <comp name="--.HHN">
      <acc value="0.1644710927" flag="0"/>
      <vel value="0.0567668526" flag="0"/>
      <psa03 value="0.2944385976" flag="0"/>
      <psa10 value="0.0407583007" flag="0"/>
      <psa30 value="0.0029759769" flag="0"/>
    </comp>
    <comp name="--.HHE">
      <acc value="0.1265792132" flag="0"/>
      <vel value="0.0602935842" flag="0"/>
      <psa03 value="0.3123813490" flag="0"/>
      <psa10 value="0.0511547199" flag="0"/>
      <psa30 value="0.0050999894" flag="0"/>
    </comp>
    <comp name="--.HHZ">
      <acc value="0.1317010446" flag="0"/>
      <vel value="0.0488028145" flag="0"/>
      <psa03 value="0.3005735768" flag="0"/>
      <psa10 value="0.0149215556" flag="0"/>
      <psa30 value="0.0023071565" flag="0"/>
    </comp>
  </station>
  <station code="IDI" name="IDI" netid="MN" insttype="" lat="35.288" lon="24.89">
    <comp name="--.HHE">
      <acc value="0.0285278127" flag="0"/>
      <vel value="0.0065691829" flag="0"/>
      <psa03 value="0.0417932839" flag="0"/>
      <psa10 value="0.0048281843" flag="0"/>
      <psa30 value="0.0003975629" flag="0"/>
    </comp>
    <comp name="--.HHN">
      <acc value="0.0238591536" flag="0"/>
      <vel value="0.0078275098" flag="0"/>
      <psa03 value="0.0551060106" flag="0"/>
      <psa10 value="0.0060756774" flag="0"/>
      <psa30 value="0.0002311342" flag="0"/>
    </comp>
    <comp name="--.HHZ">
      <acc value="0.0165021289" flag="0"/>
      <vel value="0.0053254696" flag="0"/>
      <psa03 value="0.0297489994" flag="0"/>
      <psa10 value="0.0039807295" flag="0"/>
      <psa30 value="0.0003061446" flag="0"/>
    </comp>
  </station>
</stationlist>
