<?xml version="1.0" encoding="UTF-8" standalone="yes"?>
<!DOCTYPE earthquake SYSTEM "stationlist.dtd">
<stationlist created="" xmlns="ch.ethz.sed.shakemap.usgs.xml">
  <station code="AKMS" name="AKMS" netid="CQ" insttype="Trillium120P" lat="35.018" lon="32.335">
    <comp name="--.HHE">
      <acc value="0.0174213825" flag="0"/>
      <vel value="0.0092690595" flag="0"/>
      <psa03 value="0.0537185544" flag="0"/>
      <psa10 value="0.0107271775" flag="0"/>
      <psa30 value="0.0022004256" flag="0"/>
    </comp>
    <comp name="--.HHZ">
      <acc value="0.0111152397" flag="0"/>
      <vel value="0.0054725431" flag="0"/>
      <psa03 value="0.0273387178" flag="0"/>
      <psa10 value="0.0059886692" flag="0"/>
      <psa30 value="0.0010335070" flag="0"/>
    </comp>
    <comp name="--.HHN">
      <acc value="0.0153620411" flag="0"/>
      <vel value="0.0070382477" flag="0"/>
      <psa03 value="0.0328471338" flag="0"/>
      <psa10 value="0.0134231634" flag="0"/>
      <psa30 value="0.0015865299" flag="0"/>
    </comp>
  </station>
  <station code="ASGA" name="ASGA" netid="CQ" insttype="" lat="34.786" lon="33.248">
    <comp name="--.HHZ">
      <acc value="0.0189646482" flag="0"/>
      <vel value="0.0063986763" flag="0"/>
      <psa03 value="0.0408637385" flag="0"/>
      <psa10 value="0.0035349585" flag="0"/>
      <psa30 value="0.0008085100" flag="0"/>
    </comp>
    <comp name="--.HHN">
      <acc value="0.0223072305" flag="0"/>
      <vel value="0.0106758674" flag="0"/>
      <psa03 value="0.0526227702" flag="0"/>
      <psa10 value="0.0060931529" flag="0"/>
      <psa30 value="0.0006648418" flag="0"/>
    </comp>
    <comp name="--.HHE">
      <acc value="0.0290399960" flag="0"/>
      <vel value="0.0127413795" flag="0"/>
      <psa03 value="0.0664120634" flag="0"/>
      <psa10 value="0.0085435267" flag="0"/>
      <psa30 value="0.0005793981" flag="0"/>
    </comp>
  </station>
  <station code="MVOU" name="MVOU" netid="CQ" insttype="" lat="35.016" lon="33.632">
    <comp name="--.HHN">
      <acc value="0.0076659514" flag="0"/>
      <vel value="0.0045215797" flag="0"/>
      <psa03 value="0.0301719176" flag="0"/>
      <psa10 value="0.0036285945" flag="0"/>
      <psa30 value="0.0002552657" flag="0"/>
    </comp>
    <comp name="--.HHE">
      <acc value="0.0091818550" flag="0"/>
      <vel value="0.0053123283" flag="0"/>
      <psa03 value="0.0353352818" flag="0"/>
      <psa10 value="0.0040156375" flag="0"/>
      <psa30 value="0.0002725776" flag="0"/>
    </comp>
    <comp name="--.HHZ">
      <acc value="0.0054718738" flag="0"/>
      <vel value="0.0024334864" flag="0"/>
      <psa03 value="0.0226664307" flag="0"/>
      <psa10 value="0.0015342766" flag="0"/>
      <psa30 value="0.0001845737" flag="0"/>
    </comp>
  </station>
  <station code="NATA" name="NATA" netid="CQ" insttype="Trillium120P" lat="34.7789" lon="32.5699">
    <comp name="--.HHE">
      <acc value="0.2373528772" flag="0"/>
      <vel value="0.1826310074" flag="0"/>
      <psa03 value="0.7911126547" flag="0"/>
      <psa10 value="0.2080170395" flag="0"/>
      <psa30 value="0.0106525788" flag="0"/>
    </comp>
    <comp name="--.HHN">
      <acc value="0.2263937097" flag="0"/>
      <vel value="0.1066296561" flag="0"/>
      <psa03 value="0.3119849520" flag="0"/>
      <psa10 value="0.1415998903" flag="0"/>
      <psa30 value="0.0113147834" flag="0"/>
    </comp>
    <comp name="--.HHZ">
      <acc value="0.1914572184" flag="0"/>
      <vel value="0.0569923710" flag="0"/>
      <psa03 value="0.2034039414" flag="0"/>
      <psa10 value="0.0979857221" flag="0"/>
      <psa30 value="0.0082758130" flag="0"/>
    </comp>
  </station>
  <station code="XYLS" name="XYLS" netid="CQ" insttype="120QA" lat="35.014" lon="33.0493">
    <comp name="--.HHZ">
      <acc value="0.0164858604" flag="0"/>
      <vel value="0.0051378877" flag="0"/>
      <psa03 value="0.0233724179" flag="0"/>
      <psa10 value="0.0057203430" flag="0"/>
      <psa30 value="0.0005021380" flag="0"/>
    </comp>
  </station>
</stationlist>
