<?xml version="1.0" encoding="UTF-8" standalone="yes"?>
<!DOCTYPE earthquake SYSTEM "stationlist.dtd">
<stationlist created="" xmlns="ch.ethz.sed.shakemap.usgs.xml">
  <station code="APMY" name="APMY" netid="KO" insttype="CMG-6T" commtype="DIG" lat="37.4717" lon="29.3018">
    <comp name="--.HHN">
      <acc value="0.0343151138" flag="0"/>
      <vel value="0.0120214806" flag="0"/>
      <psa03 value="0.0549554396" flag="0"/>
      <psa10 value="0.0077542942" flag="0"/>
      <psa30 value="0.0005460887" flag="0"/>
    </comp>
    <comp name="--.HHE">
      <acc value="0.0325865860" flag="0"/>
      <vel value="0.0091596695" flag="0"/>
      <psa03 value="0.0433042223" flag="0"/>
      <psa10 value="0.0057485399" flag="0"/>
      <psa30 value="0.0003891956" flag="0"/>
    </comp>
    <comp name="--.HHZ">
      <acc value="0.0226371301" flag="0"/>
      <vel value="0.0115868114" flag="0"/>
      <psa03 value="0.0587401147" flag="0"/>
      <psa10 value="0.0083673229" flag="0"/>
      <psa30 value="0.0004111368" flag="0"/>
    </comp>
  </station>
  <station code="AYDB" name="AYDB" netid="KO" insttype="CMG-3ESPC" commtype="DIG" lat="37.9467" lon="27.8908">
    <comp name="--.HHE">
      <acc value="0.0711387946" flag="0"/>
      <vel value="0.0255895624" flag="0"/>
      <psa03 value="0.1723043958" flag="0"/>
      <psa10 value="0.0093649009" flag="0"/>
      <psa30 value="0.0008313617" flag="0"/>
    </comp>
    <comp name="--.HHN">
      <acc value="0.0515833016" flag="0"/>
      <vel value="0.0205795609" flag="0"/>
      <psa03 value="0.0966491216" flag="0"/>
      <psa10 value="0.0098333025" flag="0"/>
      <psa30 value="0.0011387861" flag="0"/>
    </comp>
    <comp name="--.HHZ">
      <acc value="0.0302227986" flag="0"/>
      <vel value="0.0146858211" flag="0"/>
      <psa03 value="0.0886455689" flag="0"/>
      <psa10 value="0.0060906821" flag="0"/>
      <psa30 value="0.0004749270" flag="0"/>
    </comp>
  </station>
  <station code="BABD" name="BABD" netid="KO" insttype="CMG-6T" commtype="DIG" lat="37.802" lon="28.8531">
    <comp name="--.HHE">
      <acc value="0.2411756928" flag="0"/>
      <vel value="0.0342388212" flag="0"/>
      <psa03 value="0.1522621207" flag="0"/>
      <psa10 value="0.0202617326" flag="0"/>
      <psa30 value="0.0008998354" flag="0"/>
    </comp>
    <comp name="--.HHN">
      <acc value="0.1995212330" flag="0"/>
      <vel value="0.0316750898" flag="0"/>
      <psa03 value="0.1272633287" flag="0"/>
      <psa10 value="0.0107202204" flag="0"/>
      <psa30 value="0.0006791097" flag="0"/>
    </comp>
    <comp name="--.HHZ">
      <acc value="0.1241834559" flag="0"/>
      <vel value="0.0171729401" flag="0"/>
      <psa03 value="0.0499596803" flag="0"/>
      <psa10 value="0.0052224166" flag="0"/>
      <psa30 value="0.0003879224" flag="0"/>
    </comp>
  </station>
  <station code="BAKL" name="BAKL" netid="KO" insttype="CMG-6T" commtype="DIG" lat="37.9793" lon="29.6135">
    <comp name="--.HHN">
      <acc value="0.0178541280" flag="0"/>
      <vel value="0.0083470003" flag="0"/>
      <psa03 value="0.0445228332" flag="0"/>
      <psa10 value="0.0088528343" flag="0"/>
      <psa30 value="0.0004579291" flag="0"/>
    </comp>
    <comp name="--.HHZ">
      <acc value="0.0265548874" flag="0"/>
      <vel value="0.0081602779" flag="0"/>
      <psa03 value="0.0377880762" flag="0"/>
      <psa10 value="0.0043645772" flag="0"/>
      <psa30 value="0.0002721717" flag="0"/>
    </comp>
    <comp name="--.HHE">
      <acc value="0.0252506661" flag="0"/>
      <vel value="0.0139562431" flag="0"/>
      <psa03 value="0.0540671912" flag="0"/>
      <psa10 value="0.0080683062" flag="0"/>
      <psa30 value="0.0005707654" flag="0"/>
    </comp>
  </station>
  <station code="BASM" name="BASM" netid="KO" insttype="CMG-5T" commtype="DIG" lat="37.9194" lon="30.035">
    <comp name="--.HNZ">
      <acc value="0.0252272206" flag="0"/>
      <vel value="0.0093553383" flag="0"/>
      <psa03 value="0.0496510333" flag="0"/>
      <psa10 value="0.0099774185" flag="0"/>
      <psa30 value="0.0005110462" flag="0"/>
    </comp>
    <comp name="--.HNE">
      <acc value="0.0400678634" flag="0"/>
      <vel value="0.0185372140" flag="0"/>
      <psa03 value="0.0965252944" flag="0"/>
      <psa10 value="0.0166571137" flag="0"/>
      <psa30 value="0.0007396292" flag="0"/>
    </comp>
    <comp name="--.HNN">
      <acc value="0.0353539841" flag="0"/>
      <vel value="0.0140691900" flag="0"/>
      <psa03 value="0.0783849708" flag="0"/>
      <psa10 value="0.0130505640" flag="0"/>
      <psa30 value="0.0006952097" flag="0"/>
    </comp>
  </station>
  <station code="GEDZ" name="GEDZ" netid="KO" insttype="CMG-6T" commtype="DIG" lat="39.0445" lon="29.4105">
    <comp name="--.HHE">
      <acc value="0.0629380135" flag="0"/>
      <vel value="0.0290572701" flag="0"/>
      <psa03 value="0.3289148914" flag="0"/>
      <psa10 value="0.0081294681" flag="0"/>
      <psa30 value="0.0007631453" flag="0"/>
    </comp>
    <comp name="--.HHN">
      <acc value="0.0518229961" flag="0"/>
      <vel value="0.0234164170" flag="0"/>
      <psa03 value="0.2302586150" flag="0"/>
      <psa10 value="0.0167984993" flag="0"/>
      <psa30 value="0.0009996321" flag="0"/>
    </comp>
    <comp name="--.HHZ">
      <acc value="0.0315642346" flag="0"/>
      <vel value="0.0105100763" flag="0"/>
      <psa03 value="0.0452265650" flag="0"/>
      <psa10 value="0.0079120239" flag="0"/>
      <psa30 value="0.0003517409" flag="0"/>
    </comp>
  </station>
  <station code="GORD" name="GORD" netid="KO" insttype="CMG-5T" commtype="DIG" lat="38.9088" lon="28.1769">
    <comp name="--.HNN">
      <acc value="0.0084310251" flag="0"/>
      <vel value="0.0091596955" flag="0"/>
      <psa03 value="0.0178338010" flag="0"/>
      <psa10 value="0.0183085428" flag="0"/>
      <psa30 value="0.0013900184" flag="0"/>
    </comp>
    <comp name="--.HNE">
      <acc value="0.0075547690" flag="0"/>
      <vel value="0.0064002040" flag="0"/>
      <psa03 value="0.0234979683" flag="0"/>
      <psa10 value="0.0091460211" flag="0"/>
      <psa30 value="0.0005908685" flag="0"/>
    </comp>
    <comp name="--.HNZ">
      <acc value="0.0063336661" flag="0"/>
      <vel value="0.0045826803" flag="0"/>
      <psa03 value="0.0181086485" flag="0"/>
      <psa10 value="0.0079250027" flag="0"/>
      <psa30 value="0.0004650049" flag="0"/>
    </comp>
  </station>
  <station code="KULA" name="KULA" netid="KO" insttype="CMG-3T" commtype="DIG" lat="38.5145" lon="28.6607">
    <comp name="--.HHN">
      <acc value="0.1518755028" flag="0"/>
      <vel value="0.0298350830" flag="0"/>
      <psa03 value="0.1353955673" flag="0"/>
      <psa10 value="0.0094463685" flag="0"/>
      <psa30 value="0.0005213198" flag="0"/>
    </comp>
    <comp name="--.HHE">
      <acc value="0.1227037654" flag="0"/>
      <vel value="0.0277865525" flag="0"/>
      <psa03 value="0.1239843292" flag="0"/>
      <psa10 value="0.0076607280" flag="0"/>
      <psa30 value="0.0005446763" flag="0"/>
    </comp>
    <comp name="--.HHZ">
      <acc value="0.0910549653" flag="0"/>
      <vel value="0.0205074183" flag="0"/>
      <psa03 value="0.0921744602" flag="0"/>
      <psa10 value="0.0081477399" flag="0"/>
      <psa30 value="0.0006276594" flag="0"/>
    </comp>
  </station>
  <station code="NAZL" name="NAZL" netid="KO" insttype="CMG-5T" commtype="DIG" lat="37.9641" lon="28.2922">
    <comp name="--.HNE">
      <acc value="0.1770123217" flag="0"/>
      <vel value="0.0762862640" flag="0"/>
      <psa03 value="0.5178158801" flag="0"/>
      <psa10 value="0.0195222698" flag="0"/>
      <psa30 value="0.0017410588" flag="0"/>
    </comp>
    <comp name="--.HNZ">
      <acc value="0.0801853240" flag="0"/>
      <vel value="0.0226160437" flag="0"/>
      <psa03 value="0.1370347235" flag="0"/>
      <psa10 value="0.0062377444" flag="0"/>
      <psa30 value="0.0005147693" flag="0"/>
    </comp>
    <comp name="--.HNN">
      <acc value="0.1805512034" flag="0"/>
      <vel value="0.0701586450" flag="0"/>
      <psa03 value="0.5017079564" flag="0"/>
      <psa10 value="0.0138905062" flag="0"/>
      <psa30 value="0.0014312253" flag="0"/>
    </comp>
  </station>
  <station code="ODEM" name="ODEM" netid="KO" insttype="CMG-5T" commtype="DIG" lat="38.2762" lon="28.0747">
    <comp name="--.HNE">
      <acc value="0.0232753472" flag="0"/>
      <vel value="0.0060298993" flag="0"/>
      <psa03 value="0.0258211077" flag="0"/>
      <psa10 value="0.0069349562" flag="0"/>
      <psa30 value="0.0004773561" flag="0"/>
    </comp>
    <comp name="--.HNN">
      <acc value="0.0267991061" flag="0"/>
      <vel value="0.0060189762" flag="0"/>
      <psa03 value="0.0354431983" flag="0"/>
      <psa10 value="0.0043060901" flag="0"/>
      <psa30 value="0.0002673330" flag="0"/>
    </comp>
    <comp name="--.HNZ">
      <acc value="0.0179658300" flag="0"/>
      <vel value="0.0054217689" flag="0"/>
      <psa03 value="0.0171881444" flag="0"/>
      <psa10 value="0.0050662564" flag="0"/>
      <psa30 value="0.0001689467" flag="0"/>
    </comp>
  </station>
  <station code="SERH" name="SERH" netid="KO" insttype="CMG-6T" commtype="DIG" lat="37.582" lon="29.2588">
    <comp name="--.HHZ">
      <acc value="0.0448313986" flag="0"/>
      <vel value="0.0106291518" flag="0"/>
      <psa03 value="0.0438025610" flag="0"/>
      <psa10 value="0.0063592499" flag="0"/>
      <psa30 value="0.0004878698" flag="0"/>
    </comp>
    <comp name="--.HHN">
      <acc value="0.0618178383" flag="0"/>
      <vel value="0.0170220777" flag="0"/>
      <psa03 value="0.1224132226" flag="0"/>
      <psa10 value="0.0059189666" flag="0"/>
      <psa30 value="0.0005098397" flag="0"/>
    </comp>
    <comp name="--.HHE">
      <acc value="0.0988090904" flag="0"/>
      <vel value="0.0186439335" flag="0"/>
      <psa03 value="0.0566109048" flag="0"/>
      <psa10 value="0.0079102081" flag="0"/>
      <psa30 value="0.0007485269" flag="0"/>
    </comp>
  </station>
  <station code="SHAP" name="SHAP" netid="KO" insttype="CMG-5T" commtype="DIG" lat="39.0231" lon="29.222">
    <comp name="--.HNE">
      <acc value="0.0495504456" flag="0"/>
      <vel value="0.0144538502" flag="0"/>
      <psa03 value="0.0752052874" flag="0"/>
      <psa10 value="0.0054792579" flag="0"/>
      <psa30 value="0.0003723135" flag="0"/>
    </comp>
    <comp name="--.HNN">
      <acc value="0.0492138781" flag="0"/>
      <vel value="0.0153313689" flag="0"/>
      <psa03 value="0.0761228861" flag="0"/>
      <psa10 value="0.0064721275" flag="0"/>
      <psa30 value="0.0003938779" flag="0"/>
    </comp>
    <comp name="--.HNZ">
      <acc value="0.0335975514" flag="0"/>
      <vel value="0.0070422155" flag="0"/>
      <psa03 value="0.0256579184" flag="0"/>
      <psa10 value="0.0039491949" flag="0"/>
      <psa30 value="0.0002844106" flag="0"/>
    </comp>
  </station>
  <station code="SIMA" name="SIMA" netid="KO" insttype="CMG-6T" commtype="DIG" lat="39.0833" lon="28.9825">
    <comp name="--.HHE">
      <acc value="0.0466952846" flag="0"/>
      <vel value="0.0117979768" flag="0"/>
      <psa03 value="0.0745754594" flag="0"/>
      <psa10 value="0.0042136393" flag="0"/>
      <psa30 value="0.0004045923" flag="0"/>
    </comp>
    <comp name="--.HHN">
      <acc value="0.0499559175" flag="0"/>
      <vel value="0.0146372769" flag="0"/>
      <psa03 value="0.0950757922" flag="0"/>
      <psa10 value="0.0051372272" flag="0"/>
      <psa30 value="0.0003437208" flag="0"/>
    </comp>
    <comp name="--.HHZ">
      <acc value="0.0236824563" flag="0"/>
      <vel value="0.0080323478" flag="0"/>
      <psa03 value="0.0387247576" flag="0"/>
      <psa10 value="0.0029711931" flag="0"/>
      <psa30 value="0.0002501291" flag="0"/>
    </comp>
  </station>
  <station code="SMAA" name="SMAA" netid="KO" insttype="CMG-5T" commtype="DIG" lat="39.1005" lon="28.9805">
    <comp name="--.HNN">
      <acc value="0.0415712171" flag="0"/>
      <vel value="0.0168122098" flag="0"/>
      <psa03 value="0.1045308026" flag="0"/>
      <psa10 value="0.0265937378" flag="0"/>
      <psa30 value="0.0014069938" flag="0"/>
    </comp>
    <comp name="--.HNE">
      <acc value="0.0301428008" flag="0"/>
      <vel value="0.0177696759" flag="0"/>
      <psa03 value="0.0804114001" flag="0"/>
      <psa10 value="0.0215107308" flag="0"/>
      <psa30 value="0.0010995070" flag="0"/>
    </comp>
    <comp name="--.HNZ">
      <acc value="0.0356224913" flag="0"/>
      <vel value="0.0101355042" flag="0"/>
      <psa03 value="0.0396298247" flag="0"/>
      <psa10 value="0.0083505334" flag="0"/>
      <psa30 value="0.0004330077" flag="0"/>
    </comp>
  </station>
  <station code="YER" name="YER" netid="KO" insttype="CMG-3T" commtype="DIG" lat="37.1336" lon="28.284">
    <comp name="--.HHN">
      <acc value="0.0075393185" flag="0"/>
      <vel value="0.0032123821" flag="0"/>
      <psa03 value="0.0169311018" flag="0"/>
      <psa10 value="0.0034613345" flag="0"/>
      <psa30 value="0.0002264352" flag="0"/>
    </comp>
    <comp name="--.HHE">
      <acc value="0.0071074135" flag="0"/>
      <vel value="0.0023712267" flag="0"/>
      <psa03 value="0.0164958587" flag="0"/>
      <psa10 value="0.0025354472" flag="0"/>
      <psa30 value="0.0002827402" flag="0"/>
    </comp>
    <comp name="--.HHZ">
      <acc value="0.0097188839" flag="0"/>
      <vel value="0.0038354066" flag="0"/>
      <psa03 value="0.0161811666" flag="0"/>
      <psa10 value="0.0032894158" flag="0"/>
      <psa30 value="0.0002164656" flag="0"/>
    </comp>
  </station>
  <station code="AYDN" name="AYDN" netid="TU" insttype="T" commtype="DIG" lat="37.6608" lon="27.8792">
    <comp name="--.HHN">
      <acc value="0.0452846604" flag="0"/>
      <vel value="0.0172347782" flag="0"/>
      <psa03 value="0.1103794100" flag="0"/>
      <psa10 value="0.0106522633" flag="0"/>
      <psa30 value="0.0009987330" flag="0"/>
    </comp>
    <comp name="--.HHZ">
      <acc value="0.0288910423" flag="0"/>
      <vel value="0.0116974864" flag="0"/>
      <psa03 value="0.0518583491" flag="0"/>
      <psa10 value="0.0109730885" flag="0"/>
      <psa30 value="0.0005794840" flag="0"/>
    </comp>
    <comp name="--.HHE">
      <acc value="0.0784214555" flag="0"/>
      <vel value="0.0275006877" flag="0"/>
      <psa03 value="0.0971377346" flag="0"/>
      <psa10 value="0.0176054999" flag="0"/>
      <psa30 value="0.0011311700" flag="0"/>
    </comp>
  </station>
</stationlist>
