<stationlist created="1741951780">
	<station code="BODA" name="BODA" netid="KO" source="Bogazici University Kandilli Observatory And Earthquake Research Institute (KOERI)" insttype="" lat="37.0348" lon="27.4304">
		<comp name=".HNE" depth="0.0">
			<acc value="0.012551215144842" flag="0"/>
			<vel value="0.00487203454502" flag="0"/>
			<psa03 value="0.0326972728046701" flag="0"/>
			<psa10 value="0.00353805047223146" flag="0"/>
			<psa30 value="0.000426017570531796" flag="0"/>
		</comp>
		<comp name=".HNN" depth="0.0">
			<acc value="0.014323910434104" flag="0"/>
			<vel value="0.00587213657407" flag="0"/>
			<psa03 value="0.032393984484171" flag="0"/>
			<psa10 value="0.00362198525124546" flag="0"/>
			<psa30 value="0.000341836915851472" flag="0"/>
		</comp>
		<comp name=".HNZ" depth="0.0">
			<acc value="0.0066699526371114" flag="0"/>
			<vel value="0.00189834274885" flag="0"/>
			<psa03 value="0.00863792182928687" flag="0"/>
			<psa10 value="0.00166258193476865" flag="0"/>
			<psa30 value="0.000337152386774477" flag="0"/>
		</comp>
	</station>
	<station code="BODM" name="BODM" netid="KO" source="Bogazici University Kandilli Observatory And Earthquake Research Institute (KOERI)" insttype="" lat="37.031" lon="27.4247">
		<comp name=".HNE" depth="0.0">
			<acc value="0.0071755949939886" flag="0"/>
			<vel value="0.00467258265148" flag="0"/>
			<psa03 value="0.0225428318936586" flag="0"/>
			<psa10 value="0.00396822459415362" flag="0"/>
			<psa30 value="0.000390362161660689" flag="0"/>
		</comp>
		<comp name=".HNN" depth="0.0">
			<acc value="0.009227102004414" flag="0"/>
			<vel value="0.00606027876302" flag="0"/>
			<psa03 value="0.032386395439763" flag="0"/>
			<psa10 value="0.00595549717869045" flag="0"/>
			<psa30 value="0.000423108106960605" flag="0"/>
		</comp>
		<comp name=".HNZ" depth="0.0">
			<acc value="0.0039448403862858" flag="0"/>
			<vel value="0.0016482465818" flag="0"/>
			<psa03 value="0.0073750862195023" flag="0"/>
			<psa10 value="0.00125747154350425" flag="0"/>
			<psa30 value="0.000396643254835714" flag="0"/>
		</comp>
	</station>
	<station code="CESE" name="CESE" netid="KO" source="Bogazici University Kandilli Observatory And Earthquake Research Institute (KOERI)" insttype="" lat="38.3306" lon="26.2997">
		<comp name=".HNE" depth="0.0">
			<acc value="0.073293013890726" flag="0"/>
			<vel value="0.00497587488364" flag="0"/>
			<psa03 value="0.00371449313725509" flag="0"/>
			<psa10 value="0.00193112152107359" flag="0"/>
			<psa30 value="0.000719124721815631" flag="0"/>
		</comp>
		<comp name=".HNN" depth="0.0">
			<acc value="0.052254350935686" flag="0"/>
			<vel value="0.00372440119621" flag="0"/>
			<psa03 value="0.00492443461807899" flag="0"/>
			<psa10 value="0.00223465420674795" flag="0"/>
			<psa30 value="0.00079295377929716" flag="0"/>
		</comp>
		<comp name=".HNZ" depth="0.0">
			<acc value="0.011127947913936" flag="0"/>
			<vel value="0.00149419573757" flag="0"/>
			<psa03 value="0.00372936065861197" flag="0"/>
			<psa10 value="0.00156101770663593" flag="0"/>
			<psa30 value="0.000518826817645473" flag="0"/>
		</comp>
	</station>
	<station code="DATC" name="DATC" netid="KO" source="Bogazici University Kandilli Observatory And Earthquake Research Institute (KOERI)" insttype="" lat="36.7584" lon="27.6602">
		<comp name=".HNE" depth="0.0">
			<acc value="0.1649050166643" flag="0"/>
			<vel value="0.0149789121466" flag="0"/>
			<psa03 value="0.0246350772654621" flag="0"/>
			<psa10 value="0.0073319846142506" flag="0"/>
			<psa30 value="0.00119824791971251" flag="0"/>
		</comp>
		<comp name=".HNN" depth="0.0">
			<acc value="0.19862153653404" flag="0"/>
			<vel value="0.0182711916046" flag="0"/>
			<psa03 value="0.0207229405014541" flag="0"/>
			<psa10 value="0.0108156124187441" flag="0"/>
			<psa30 value="0.00129547269371015" flag="0"/>
		</comp>
		<comp name=".HNZ" depth="0.0">
			<acc value="0.15992038558092" flag="0"/>
			<vel value="0.0217924375972" flag="0"/>
			<psa03 value="0.0199668552582336" flag="0"/>
			<psa10 value="0.0091810563249379" flag="0"/>
			<psa30 value="0.000849992714096823" flag="0"/>
		</comp>
	</station>
	<station code="DIDI" name="DIDI" netid="KO" source="Bogazici University Kandilli Observatory And Earthquake Research Institute (KOERI)" insttype="" lat="37.3767" lon="27.2398">
		<comp name=".HNE" depth="0.0">
			<acc value="0.040422684982524" flag="0"/>
			<vel value="0.0108340743963" flag="0"/>
			<psa03 value="0.0527939817172002" flag="0"/>
			<psa10 value="0.0092595096470868" flag="0"/>
			<psa30 value="0.00187743562089544" flag="0"/>
		</comp>
		<comp name=".HNN" depth="0.0">
			<acc value="0.03149960243034" flag="0"/>
			<vel value="0.0139765659293" flag="0"/>
			<psa03 value="0.0508746514461702" flag="0"/>
			<psa10 value="0.013883615658896" flag="0"/>
			<psa30 value="0.00221444190424116" flag="0"/>
		</comp>
		<comp name=".HNZ" depth="0.0">
			<acc value="0.045417990220554" flag="0"/>
			<vel value="0.00844044278381" flag="0"/>
			<psa03 value="0.0311044224944846" flag="0"/>
			<psa10 value="0.00665204957188328" flag="0"/>
			<psa30 value="0.000830055924631381" flag="0"/>
		</comp>
	</station>
	<station code="GMLD" name="GMLD" netid="KO" source="Bogazici University Kandilli Observatory And Earthquake Research Institute (KOERI)" insttype="" lat="38.0766" lon="26.9157">
		<comp name=".HNE" depth="0.0">
			<acc value="0.027580809954792" flag="0"/>
			<vel value="0.0113928678391" flag="0"/>
			<psa03 value="0.048691329728497" flag="0"/>
			<psa10 value="0.0091230540450701" flag="0"/>
			<psa30 value="0.000558888169429733" flag="0"/>
		</comp>
		<comp name=".HNN" depth="0.0">
			<acc value="0.027475921695864" flag="0"/>
			<vel value="0.0106053656502" flag="0"/>
			<psa03 value="0.0549777670070865" flag="0"/>
			<psa10 value="0.00920455913186292" flag="0"/>
			<psa30 value="0.000620276559028855" flag="0"/>
		</comp>
		<comp name=".HNZ" depth="0.0">
			<acc value="0.015426458813172" flag="0"/>
			<vel value="0.00513763967315" flag="0"/>
			<psa03 value="0.0305674337966522" flag="0"/>
			<psa10 value="0.00387268631208756" flag="0"/>
			<psa30 value="0.000492814000673814" flag="0"/>
		</comp>
	</station>
	<station code="KUSD" name="KUSD" netid="KO" source="Bogazici University Kandilli Observatory And Earthquake Research Institute (KOERI)" insttype="" lat="37.8606" lon="27.2868">
		<comp name=".HNE" depth="0.0">
			<acc value="0.0041085583499052" flag="0"/>
			<vel value="0.00245686694746" flag="0"/>
			<psa03 value="0.0106000915269715" flag="0"/>
			<psa10 value="0.00273686403818693" flag="0"/>
			<psa30 value="0.000433552913461113" flag="0"/>
		</comp>
		<comp name=".HNN" depth="0.0">
			<acc value="0.011205250288164" flag="0"/>
			<vel value="0.00313879383509" flag="0"/>
			<psa03 value="0.0114773006794466" flag="0"/>
			<psa10 value="0.00440602156482131" flag="0"/>
			<psa30 value="0.000477823320115887" flag="0"/>
		</comp>
		<comp name=".HNZ" depth="0.0">
			<acc value="0.0036445705491402" flag="0"/>
			<vel value="0.00179312220367" flag="0"/>
			<psa03 value="0.00687187254553673" flag="0"/>
			<psa10 value="0.0019121312005589" flag="0"/>
			<psa30 value="0.000530635724930616" flag="0"/>
		</comp>
	</station>
	<station code="YKAV" name="YKAV" netid="KO" source="Bogazici University Kandilli Observatory And Earthquake Research Institute (KOERI)" insttype="" lat="37.1246" lon="27.2801">
		<comp name=".HNE" depth="0.0">
			<acc value="0.015406045363758" flag="0"/>
			<vel value="0.0076460279178" flag="0"/>
			<psa03 value="0.0289958218725834" flag="0"/>
			<psa10 value="0.00954323656758744" flag="0"/>
			<psa30 value="0.00091148788159843" flag="0"/>
		</comp>
		<comp name=".HNN" depth="0.0">
			<acc value="0.011380364516382" flag="0"/>
			<vel value="0.00469343955391" flag="0"/>
			<psa03 value="0.0206851723744816" flag="0"/>
			<psa10 value="0.00607594812673742" flag="0"/>
			<psa30 value="0.000666292055246553" flag="0"/>
		</comp>
		<comp name=".HNZ" depth="0.0">
			<acc value="0.010226883707826" flag="0"/>
			<vel value="0.00395980574544" flag="0"/>
			<psa03 value="0.0130508033537762" flag="0"/>
			<psa10 value="0.00430208905476879" flag="0"/>
			<psa30 value="0.000618276530702347" flag="0"/>
		</comp>
	</station>
</stationlist>
