<?xml version="1.0" encoding="UTF-8" standalone="yes"?>
<!DOCTYPE earthquake SYSTEM "stationlist.dtd">
<stationlist created="" xmlns="ch.ethz.sed.shakemap.usgs.xml">
  <station code="BEHE" name="BEHE" netid="HU" insttype="" lat="46.4703" lon="16.7755">
    <comp name="--.HHZ">
      <acc value="0.0169468479" flag="0"/>
      <vel value="0.0049233526" flag="0"/>
      <psa03 value="0.0306355324" flag="0"/>
      <psa10 value="0.0019066945" flag="0"/>
      <psa30 value="0.0001141336" flag="0"/>
    </comp>
    <comp name="--.HHN">
      <acc value="0.0111717087" flag="0"/>
      <vel value="0.0067429445" flag="0"/>
      <psa03 value="0.0320458146" flag="0"/>
      <psa10 value="0.0058487852" flag="0"/>
      <psa30 value="0.0003397173" flag="0"/>
    </comp>
    <comp name="--.HHE">
      <acc value="0.0099824154" flag="0"/>
      <vel value="0.0042586183" flag="0"/>
      <psa03 value="0.0226219568" flag="0"/>
      <psa10 value="0.0039299226" flag="0"/>
      <psa30 value="0.0001789816" flag="0"/>
    </comp>
  </station>
  <station code="BLY" name="BLY" netid="MN" insttype="" lat="44.7488" lon="17.1839">
    <comp name="--.HHE">
      <acc value="0.0175187099" flag="0"/>
      <vel value="0.0051489127" flag="0"/>
      <psa03 value="0.0263734576" flag="0"/>
      <psa10 value="0.0023383040" flag="0"/>
      <psa30 value="0.0002254453" flag="0"/>
    </comp>
    <comp name="--.HHZ">
      <acc value="0.0181258286" flag="0"/>
      <vel value="0.0051894432" flag="0"/>
      <psa03 value="0.0196626864" flag="0"/>
      <psa10 value="0.0024221723" flag="0"/>
      <psa30 value="0.0001330277" flag="0"/>
    </comp>
    <comp name="--.HHN">
      <acc value="0.0217051280" flag="0"/>
      <vel value="0.0052037059" flag="0"/>
      <psa03 value="0.0254971795" flag="0"/>
      <psa10 value="0.0019138517" flag="0"/>
      <psa30 value="0.0002064489" flag="0"/>
    </comp>
  </station>
</stationlist>
