<stationlist created="1778136839">
	<station code="BLY" name="BLY" netid="MN" source="Mediterranean Very Broadband Seismographic Network (MedNet)" insttype="" lat="44.7488" lon="17.1839">
		<comp name="--.HNE" depth="1.0">
			<acc value="0.0160116740830719" flag="0"/>
			<vel value="0.00501533514121554" flag="0"/>
			<psa03 value="0.026494950472917" flag="0"/>
			<psa10 value="0.00238402050778335" flag="0"/>
			<psa30 value="0.000220068432620403" flag="0"/>
		</comp>
		<comp name="--.HNN" depth="1.0">
			<acc value="0.0211856299354036" flag="0"/>
			<vel value="0.00524651307589871" flag="0"/>
			<psa03 value="0.0248367859401536" flag="0"/>
			<psa10 value="0.00192823675965857" flag="0"/>
			<psa30 value="0.000188961801646171" flag="0"/>
		</comp>
		<comp name="--.HNZ" depth="1.0">
			<acc value="0.0176150158420976" flag="0"/>
			<vel value="0.0051340035168064" flag="0"/>
			<psa03 value="0.0192089925535855" flag="0"/>
			<psa10 value="0.00246033829783704" flag="0"/>
			<psa30 value="0.000145558939440446" flag="0"/>
		</comp>
	</station>
	<station code="BOJS" name="BOJS" netid="SL" source="Seismic Network of the Republic of Slovenia (SNRS)" insttype="" lat="45.5043" lon="15.2518">
		<comp name="--.HNE" depth="0.0">
			<acc value="0.0143019298579147" flag="0"/>
			<vel value="0.00480118735809748" flag="0"/>
			<psa03 value="0.0198102485296715" flag="0"/>
			<psa10 value="0.00116959548777203" flag="0"/>
			<psa30 value="0.000104174218738889" flag="0"/>
		</comp>
		<comp name="--.HNN" depth="0.0">
			<acc value="0.0155660157547999" flag="0"/>
			<vel value="0.00385897446392248" flag="0"/>
			<psa03 value="0.0138499044673618" flag="0"/>
			<psa10 value="0.00181412009842919" flag="0"/>
			<psa30 value="0.00010802037196523" flag="0"/>
		</comp>
		<comp name="--.HNZ" depth="0.0">
			<acc value="0.0101789585835054" flag="0"/>
			<vel value="0.00313469869193151" flag="0"/>
			<psa03 value="0.00953097968793382" flag="0"/>
			<psa10 value="0.00105730367399218" flag="0"/>
			<psa30 value="0.000114677336393987" flag="0"/>
		</comp>
	</station>
	<station code="CEY" name="CEY" netid="SL" source="Seismic Network of the Republic of Slovenia (SNRS)" insttype="" lat="45.7381" lon="14.4221">
		<comp name="--.HNE" depth="0.0">
			<acc value="0.00364705439805763" flag="0"/>
			<vel value="0.00134528699869781" flag="0"/>
			<psa03 value="0.0102468949523303" flag="0"/>
			<psa10 value="0.00139738241347656" flag="0"/>
			<psa30 value="7.85220962349498e-05" flag="0"/>
		</comp>
		<comp name="--.HNN" depth="0.0">
			<acc value="0.00420426177155169" flag="0"/>
			<vel value="0.00183032934063285" flag="0"/>
			<psa03 value="0.0116411331470859" flag="0"/>
			<psa10 value="0.00125440583260312" flag="0"/>
			<psa30 value="0.000108563617588043" flag="0"/>
		</comp>
		<comp name="--.HNZ" depth="0.0">
			<acc value="0.00309309960226007" flag="0"/>
			<vel value="0.00142219375299516" flag="0"/>
			<psa03 value="0.0101348712552885" flag="0"/>
			<psa10 value="0.00158340375991583" flag="0"/>
			<psa30 value="0.00010270151701311" flag="0"/>
		</comp>
	</station>
	<station code="CRES" name="CRES" netid="SL" source="Seismic Network of the Republic of Slovenia (SNRS)" insttype="" lat="45.826" lon="15.4569">
		<comp name="--.HNE" depth="0.0">
			<acc value="0.0155724181244204" flag="0"/>
			<vel value="0.00360793934845138" flag="0"/>
			<psa03 value="0.0278114361211403" flag="0"/>
			<psa10 value="0.00214973498751897" flag="0"/>
			<psa30 value="0.000105649726640386" flag="0"/>
		</comp>
		<comp name="--.HNN" depth="0.0">
			<acc value="0.0111602177366813" flag="0"/>
			<vel value="0.00328427138017016" flag="0"/>
			<psa03 value="0.0156294403216126" flag="0"/>
			<psa10 value="0.00147884097376862" flag="0"/>
			<psa30 value="9.55714157724899e-05" flag="0"/>
		</comp>
		<comp name="--.HNZ" depth="0.0">
			<acc value="0.0109721100111259" flag="0"/>
			<vel value="0.00290982480245088" flag="0"/>
			<psa03 value="0.0113798163569821" flag="0"/>
			<psa10 value="0.00139248048718757" flag="0"/>
			<psa30 value="8.57971029080327e-05" flag="0"/>
		</comp>
	</station>
	<station code="CRNS" name="CRNS" netid="SL" source="Seismic Network of the Republic of Slovenia (SNRS)" insttype="" lat="46.0807" lon="14.2613">
		<comp name="--.HNE" depth="0.0">
			<acc value="0.00795711433275785" flag="0"/>
			<vel value="0.00268703776982196" flag="0"/>
			<psa03 value="0.0275822855243915" flag="0"/>
			<psa10 value="0.00155972445690234" flag="0"/>
			<psa30 value="8.20962197215281e-05" flag="0"/>
		</comp>
		<comp name="--.HNN" depth="0.0">
			<acc value="0.00682028913443195" flag="0"/>
			<vel value="0.00198044529009431" flag="0"/>
			<psa03 value="0.0188997272745884" flag="0"/>
			<psa10 value="0.000968685420656653" flag="0"/>
			<psa30 value="7.49117789439022e-05" flag="0"/>
		</comp>
		<comp name="--.HNZ" depth="0.0">
			<acc value="0.00219248964247668" flag="0"/>
			<vel value="0.0010272163332019" flag="0"/>
			<psa03 value="0.00974690479918559" flag="0"/>
			<psa10 value="0.00073409466532588" flag="0"/>
			<psa30 value="3.72550949203167e-05" flag="0"/>
		</comp>
	</station>
	<station code="DOBS" name="DOBS" netid="SL" source="Seismic Network of the Republic of Slovenia (SNRS)" insttype="" lat="46.1495" lon="15.4695">
		<comp name="--.HNE" depth="0.0">
			<acc value="0.0131930474951939" flag="0"/>
			<vel value="0.00478053811819498" flag="0"/>
			<psa03 value="0.0117718644636573" flag="0"/>
			<psa10 value="0.00170595754256615" flag="0"/>
			<psa30 value="0.000152345326505358" flag="0"/>
		</comp>
		<comp name="--.HNN" depth="0.0">
			<acc value="0.0149364531894685" flag="0"/>
			<vel value="0.0040310116035124" flag="0"/>
			<psa03 value="0.0130828028693916" flag="0"/>
			<psa10 value="0.00234487799290709" flag="0"/>
			<psa30 value="0.000173449315686549" flag="0"/>
		</comp>
		<comp name="--.HNZ" depth="0.0">
			<acc value="0.00750977081228632" flag="0"/>
			<vel value="0.00194124763260979" flag="0"/>
			<psa03 value="0.00714339899636905" flag="0"/>
			<psa10 value="0.00213078498217223" flag="0"/>
			<psa30 value="0.000150278900552285" flag="0"/>
		</comp>
	</station>
	<station code="GORS" name="GORS" netid="SL" source="Seismic Network of the Republic of Slovenia (SNRS)" insttype="" lat="46.3174" lon="13.9999">
		<comp name="--.HNE" depth="0.0">
			<acc value="0.00115866180518894" flag="0"/>
			<vel value="0.000775988726502536" flag="0"/>
			<psa03 value="0.00356424392616805" flag="0"/>
			<psa10 value="0.000331054938577293" flag="0"/>
			<psa30 value="3.87319147575839e-05" flag="0"/>
		</comp>
		<comp name="--.HNN" depth="0.0">
			<acc value="0.00110372233524996" flag="0"/>
			<vel value="0.000499635745107026" flag="0"/>
			<psa03 value="0.00296925659451029" flag="0"/>
			<psa10 value="0.000426610419049411" flag="0"/>
			<psa30 value="2.92277174428576e-05" flag="0"/>
		</comp>
		<comp name="--.HNZ" depth="0.0">
			<acc value="0.00101191436363378" flag="0"/>
			<vel value="0.000481986565959106" flag="0"/>
			<psa03 value="0.00288645455980383" flag="0"/>
			<psa10 value="0.000619750996869258" flag="0"/>
			<psa30 value="3.13464515485696e-05" flag="0"/>
		</comp>
	</station>
	<station code="KOGS" name="KOGS" netid="SL" source="Seismic Network of the Republic of Slovenia (SNRS)" insttype="" lat="46.4481" lon="16.2504">
		<comp name="--.HNE" depth="0.0">
			<acc value="0.0320216100609465" flag="0"/>
			<vel value="0.0145583591722682" flag="0"/>
			<psa03 value="0.0362951153107573" flag="0"/>
			<psa10 value="0.00801093943542478" flag="0"/>
			<psa30 value="0.000680262564057919" flag="0"/>
		</comp>
		<comp name="--.HNN" depth="0.0">
			<acc value="0.0270020619325725" flag="0"/>
			<vel value="0.00855271671119568" flag="0"/>
			<psa03 value="0.0780070894616621" flag="0"/>
			<psa10 value="0.00413285440631493" flag="0"/>
			<psa30 value="0.000394706590082626" flag="0"/>
		</comp>
		<comp name="--.HNZ" depth="0.0">
			<acc value="0.0165905593779715" flag="0"/>
			<vel value="0.00514504110726325" flag="0"/>
			<psa03 value="0.0310236515188294" flag="0"/>
			<psa10 value="0.00253339595005021" flag="0"/>
			<psa30 value="0.000238423841284266" flag="0"/>
		</comp>
	</station>
	<station code="LJU" name="LJU" netid="SL" source="Seismic Network of the Republic of Slovenia (SNRS)" insttype="" lat="46.0438" lon="14.5278">
		<comp name="--.HNE" depth="0.0">
			<acc value="0.00497215107685251" flag="0"/>
			<vel value="0.00203254234011876" flag="0"/>
			<psa03 value="0.0080067817120678" flag="0"/>
			<psa10 value="0.00160762450504434" flag="0"/>
			<psa30 value="8.34571692530439e-05" flag="0"/>
		</comp>
		<comp name="--.HNN" depth="0.0">
			<acc value="0.00634548387771339" flag="0"/>
			<vel value="0.00260534617365255" flag="0"/>
			<psa03 value="0.020269892260058" flag="0"/>
			<psa10 value="0.00184560273087443" flag="0"/>
			<psa30 value="0.000107080225049797" flag="0"/>
		</comp>
		<comp name="--.HNZ" depth="0.0">
			<acc value="0.00213558813901529" flag="0"/>
			<vel value="0.00109528874221231" flag="0"/>
			<psa03 value="0.0068195709037395" flag="0"/>
			<psa10 value="0.00101081207852653" flag="0"/>
			<psa30 value="9.99079660685631e-05" flag="0"/>
		</comp>
	</station>
	<station code="MOZS" name="MOZS" netid="SL" source="Seismic Network of the Republic of Slovenia (SNRS)" insttype="" lat="46.2941" lon="14.4433">
		<comp name="--.HNE" depth="0.0">
			<acc value="0.00243409152398549" flag="0"/>
			<vel value="0.001172910680165" flag="0"/>
			<psa03 value="0.00606122900061787" flag="0"/>
			<psa10 value="0.00091475268772134" flag="0"/>
			<psa30 value="6.97953397443436e-05" flag="0"/>
		</comp>
		<comp name="--.HNN" depth="0.0">
			<acc value="0.00250399364025401" flag="0"/>
			<vel value="0.0012425632220246" flag="0"/>
			<psa03 value="0.00696096373383682" flag="0"/>
			<psa10 value="0.000904418292178862" flag="0"/>
			<psa30 value="6.8229845413103e-05" flag="0"/>
		</comp>
		<comp name="--.HNZ" depth="0.0">
			<acc value="0.00135808790908653" flag="0"/>
			<vel value="0.000655331403990089" flag="0"/>
			<psa03 value="0.00324199959729166" flag="0"/>
			<psa10 value="0.000580923151276699" flag="0"/>
			<psa30 value="5.13274626923483e-05" flag="0"/>
		</comp>
	</station>
	<station code="PERS" name="PERS" netid="SL" source="Seismic Network of the Republic of Slovenia (SNRS)" insttype="" lat="46.6365" lon="15.1139">
		<comp name="--.HNE" depth="0.0">
			<acc value="0.00467327996883006" flag="0"/>
			<vel value="0.00249167722862255" flag="0"/>
			<psa03 value="0.0129894581441156" flag="0"/>
			<psa10 value="0.000979382711328839" flag="0"/>
			<psa30 value="7.42412462429833e-05" flag="0"/>
		</comp>
		<comp name="--.HNN" depth="0.0">
			<acc value="0.00614150799387684" flag="0"/>
			<vel value="0.00340480624162836" flag="0"/>
			<psa03 value="0.018606438314411" flag="0"/>
			<psa10 value="0.00162788908966206" flag="0"/>
			<psa30 value="0.000104401837984489" flag="0"/>
		</comp>
		<comp name="--.HNZ" depth="0.0">
			<acc value="0.00285998657031299" flag="0"/>
			<vel value="0.00105780750492469" flag="0"/>
			<psa03 value="0.00757532474474644" flag="0"/>
			<psa10 value="0.000769551389161021" flag="0"/>
			<psa30 value="4.42259636072113e-05" flag="0"/>
		</comp>
	</station>
	<station code="SKDS" name="SKDS" netid="SL" source="Seismic Network of the Republic of Slovenia (SNRS)" insttype="" lat="45.5464" lon="14.0143">
		<comp name="--.HNE" depth="0.0">
			<acc value="0.00278404804386531" flag="0"/>
			<vel value="0.00107412032870472" flag="0"/>
			<psa03 value="0.00707753135171054" flag="0"/>
			<psa10 value="0.000442808210823274" flag="0"/>
			<psa30 value="3.88527919057392e-05" flag="0"/>
		</comp>
		<comp name="--.HNN" depth="0.0">
			<acc value="0.00239251933910757" flag="0"/>
			<vel value="0.00121481998516936" flag="0"/>
			<psa03 value="0.00498000145014319" flag="0"/>
			<psa10 value="0.000952124733749055" flag="0"/>
			<psa30 value="5.54903816946725e-05" flag="0"/>
		</comp>
		<comp name="--.HNZ" depth="0.0">
			<acc value="0.00260651989457543" flag="0"/>
			<vel value="0.00106012669152331" flag="0"/>
			<psa03 value="0.00596075685006014" flag="0"/>
			<psa10 value="0.000843983273031521" flag="0"/>
			<psa30 value="5.45168666831472e-05" flag="0"/>
		</comp>
	</station>
	<station code="VISS" name="VISS" netid="SL" source="Seismic Network of the Republic of Slovenia (SNRS)" insttype="" lat="45.8033" lon="14.8393">
		<comp name="--.HNE" depth="0.0">
			<acc value="0.00665225270016685" flag="0"/>
			<vel value="0.00183165981303216" flag="0"/>
			<psa03 value="0.0113900774533961" flag="0"/>
			<psa10 value="0.00120354801039837" flag="0"/>
			<psa30 value="0.00010729790874122" flag="0"/>
		</comp>
		<comp name="--.HNN" depth="0.0">
			<acc value="0.0062635796599485" flag="0"/>
			<vel value="0.00241028613900728" flag="0"/>
			<psa03 value="0.0173074056452512" flag="0"/>
			<psa10 value="0.00154311753646372" flag="0"/>
			<psa30 value="0.00010982724947479" flag="0"/>
		</comp>
		<comp name="--.HNZ" depth="0.0">
			<acc value="0.0040410274699331" flag="0"/>
			<vel value="0.00160658002304679" flag="0"/>
			<psa03 value="0.00758693814428871" flag="0"/>
			<psa10 value="0.000971552602780398" flag="0"/>
			<psa30 value="6.20035345130885e-05" flag="0"/>
		</comp>
	</station>
</stationlist>
