<?xml version="1.0" encoding="UTF-8" standalone="yes"?>
<!DOCTYPE earthquake SYSTEM "stationlist.dtd">
<stationlist created="" xmlns="ch.ethz.sed.shakemap.usgs.xml">
  <station code="APE" name="APE" netid="GE" insttype="STS-2/N" lat="37.0727" lon="25.523">
    <comp name="--.HHZ">
      <acc value="0.0659484114" flag="0"/>
      <vel value="0.0106843961" flag="0"/>
      <psa03 value="0.0418901241" flag="0"/>
      <psa10 value="0.0037048314" flag="0"/>
      <psa30 value="0.0005452176" flag="0"/>
    </comp>
    <comp name="--.HHE">
      <acc value="0.1710075856" flag="0"/>
      <vel value="0.0391445662" flag="0"/>
      <psa03 value="0.1739068201" flag="0"/>
      <psa10 value="0.0091445770" flag="0"/>
      <psa30 value="0.0008575893" flag="0"/>
    </comp>
    <comp name="--.HHN">
      <acc value="0.1511573540" flag="0"/>
      <vel value="0.0260489523" flag="0"/>
      <psa03 value="0.1065773106" flag="0"/>
      <psa10 value="0.0051311593" flag="0"/>
      <psa30 value="0.0006184196" flag="0"/>
    </comp>
  </station>
  <station code="THERA" name="THERA" netid="GE" insttype="STS-2/N" lat="36.367" lon="25.4753">
    <comp name="--.HHE">
      <acc value="0.1261713879" flag="0"/>
      <vel value="0.0372667261" flag="0"/>
      <psa03 value="0.1809810302" flag="0"/>
      <psa10 value="0.0134190691" flag="0"/>
      <psa30 value="0.0013961317" flag="0"/>
    </comp>
    <comp name="--.HHN">
      <acc value="0.0899434963" flag="0"/>
      <vel value="0.0181966773" flag="0"/>
      <psa03 value="0.1045401178" flag="0"/>
      <psa10 value="0.0041505021" flag="0"/>
      <psa30 value="0.0004597763" flag="0"/>
    </comp>
    <comp name="--.HHZ">
      <acc value="0.0781889351" flag="0"/>
      <vel value="0.0195645588" flag="0"/>
      <psa03 value="0.0830242108" flag="0"/>
      <psa10 value="0.0095295495" flag="0"/>
      <psa30 value="0.0007143258" flag="0"/>
    </comp>
  </station>
  <station code="SNT1" name="SNT1" netid="HA" insttype="30" lat="36.4159" lon="25.4282">
    <comp name="--.HHE">
      <acc value="0.0893491002" flag="0"/>
      <vel value="0.0482910924" flag="0"/>
      <psa03 value="0.1642482957" flag="0"/>
      <psa10 value="0.0252785744" flag="0"/>
      <psa30 value="0.0017876723" flag="0"/>
    </comp>
    <comp name="--.HHN">
      <acc value="0.0847721903" flag="0"/>
      <vel value="0.0443187418" flag="0"/>
      <psa03 value="0.1512944655" flag="0"/>
      <psa10 value="0.0239937882" flag="0"/>
      <psa30 value="0.0015225434" flag="0"/>
    </comp>
    <comp name="--.HHZ">
      <acc value="0.1004625685" flag="0"/>
      <vel value="0.0214230267" flag="0"/>
      <psa03 value="0.1185941420" flag="0"/>
      <psa10 value="0.0083834008" flag="0"/>
      <psa30 value="0.0007482345" flag="0"/>
    </comp>
  </station>
  <station code="NAX1" name="NAX1" netid="HI" insttype="CMG-5TD,ACCELEROMETER,GURALP" lat="37.1014" lon="25.3741">
    <comp name="--.HNE">
      <acc value="0.1517463127" flag="0"/>
      <vel value="0.0354642956" flag="0"/>
      <psa03 value="0.1755503274" flag="0"/>
      <psa10 value="0.0067922128" flag="0"/>
      <psa30 value="0.0005759503" flag="0"/>
    </comp>
    <comp name="--.HNN">
      <acc value="0.1831245119" flag="0"/>
      <vel value="0.0324456264" flag="0"/>
      <psa03 value="0.0689763487" flag="0"/>
      <psa10 value="0.0053383201" flag="0"/>
      <psa30 value="0.0008176616" flag="0"/>
    </comp>
    <comp name="--.HNZ">
      <acc value="0.1113914227" flag="0"/>
      <vel value="0.0165221429" flag="0"/>
      <psa03 value="0.0875911485" flag="0"/>
      <psa10 value="0.0068336319" flag="0"/>
      <psa30 value="0.0004662438" flag="0"/>
    </comp>
  </station>
  <station code="APE" name="APE" netid="HL" insttype="120" lat="37.0727" lon="25.523">
    <comp name="--.HHN">
      <acc value="0.1332246093" flag="0"/>
      <vel value="0.0238474104" flag="0"/>
      <psa03 value="0.1021174305" flag="0"/>
      <psa10 value="0.0050126146" flag="0"/>
      <psa30 value="0.0006139421" flag="0"/>
    </comp>
    <comp name="--.HHE">
      <acc value="0.1616836445" flag="0"/>
      <vel value="0.0374329003" flag="0"/>
      <psa03 value="0.1696155230" flag="0"/>
      <psa10 value="0.0088937852" flag="0"/>
      <psa30 value="0.0008332334" flag="0"/>
    </comp>
    <comp name="--.HHZ">
      <acc value="0.0598303761" flag="0"/>
      <vel value="0.0101919520" flag="0"/>
      <psa03 value="0.0406376655" flag="0"/>
      <psa10 value="0.0036639083" flag="0"/>
      <psa30 value="0.0005421633" flag="0"/>
    </comp>
  </station>
  <station code="MHLO" name="MHLO" netid="HL" insttype="20" lat="36.6898" lon="24.4017">
    <comp name="--.HHE">
      <acc value="0.1416824380" flag="0"/>
      <vel value="0.0555227555" flag="0"/>
      <psa03 value="0.4475071620" flag="0"/>
      <psa10 value="0.0294089656" flag="0"/>
      <psa30 value="0.0015226024" flag="0"/>
    </comp>
    <comp name="--.HHN">
      <acc value="0.1104544789" flag="0"/>
      <vel value="0.0411964685" flag="0"/>
      <psa03 value="0.2844761368" flag="0"/>
      <psa10 value="0.0327080763" flag="0"/>
      <psa30 value="0.0015620931" flag="0"/>
    </comp>
    <comp name="--.HHZ">
      <acc value="0.0423543763" flag="0"/>
      <vel value="0.0239484655" flag="0"/>
      <psa03 value="0.0910019383" flag="0"/>
      <psa10 value="0.0161476356" flag="0"/>
      <psa30 value="0.0008516734" flag="0"/>
    </comp>
  </station>
  <station code="SAP3" name="SAP3" netid="HL" insttype="LE3D20_SMART24" lat="36.4356" lon="25.3454">
    <comp name="--.HHE">
      <acc value="0.4331447561" flag="0"/>
      <vel value="0.1120387406" flag="0"/>
      <psa03 value="0.5506456112" flag="0"/>
      <psa10 value="0.0639125322" flag="0"/>
      <psa30 value="0.0058126580" flag="0"/>
    </comp>
    <comp name="--.HHN">
      <acc value="0.4883477096" flag="0"/>
      <vel value="0.1434561132" flag="0"/>
      <psa03 value="0.6251462013" flag="0"/>
      <psa10 value="0.0472999529" flag="0"/>
      <psa30 value="0.0054179692" flag="0"/>
    </comp>
    <comp name="--.HHZ">
      <acc value="0.4005072303" flag="0"/>
      <vel value="0.0934618953" flag="0"/>
      <psa03 value="0.4315728088" flag="0"/>
      <psa10 value="0.0209088625" flag="0"/>
      <psa30 value="0.0025431443" flag="0"/>
    </comp>
  </station>
  <station code="THERA" name="THERA" netid="HL" insttype="120" lat="36.367" lon="25.4753">
    <comp name="--.HHE">
      <acc value="0.1259767674" flag="0"/>
      <vel value="0.0365646935" flag="0"/>
      <psa03 value="0.1760626620" flag="0"/>
      <psa10 value="0.0133120847" flag="0"/>
      <psa30 value="0.0013721179" flag="0"/>
    </comp>
    <comp name="--.HHN">
      <acc value="0.0878957361" flag="0"/>
      <vel value="0.0177708753" flag="0"/>
      <psa03 value="0.1014898870" flag="0"/>
      <psa10 value="0.0040356936" flag="0"/>
      <psa30 value="0.0004499794" flag="0"/>
    </comp>
  </station>
  <station code="THRA" name="THRA" netid="HL" insttype="CMG-5" lat="36.415" lon="25.4324">
    <comp name="00.HNE">
      <acc value="0.3855880117" flag="0"/>
      <vel value="0.1231351672" flag="0"/>
      <psa03 value="0.8795997833" flag="0"/>
      <psa10 value="0.0535845384" flag="0"/>
      <psa30 value="0.0040466445" flag="0"/>
    </comp>
    <comp name="00.HNN">
      <acc value="0.2847886400" flag="0"/>
      <vel value="0.1047492680" flag="0"/>
      <psa03 value="0.7478153639" flag="0"/>
      <psa10 value="0.0982709916" flag="0"/>
      <psa30 value="0.0037063818" flag="0"/>
    </comp>
    <comp name="00.HNZ">
      <acc value="0.2761645197" flag="0"/>
      <vel value="0.1017167532" flag="0"/>
      <psa03 value="0.5797916132" flag="0"/>
      <psa10 value="0.0311224888" flag="0"/>
      <psa30 value="0.0023796802" flag="0"/>
    </comp>
  </station>
  <station code="TNSA" name="TNSA" netid="HL" insttype="CMG-5" lat="37.5394" lon="25.1631">
    <comp name="00.HNE">
      <acc value="0.0379401250" flag="0"/>
      <vel value="0.0153384830" flag="0"/>
      <psa03 value="0.0811888300" flag="0"/>
      <psa10 value="0.0048818407" flag="0"/>
      <psa30 value="0.0003694416" flag="0"/>
    </comp>
    <comp name="00.HNZ">
      <acc value="0.0461385152" flag="0"/>
      <vel value="0.0188090134" flag="0"/>
      <psa03 value="0.1231713322" flag="0"/>
      <psa10 value="0.0082327225" flag="0"/>
      <psa30 value="0.0009078284" flag="0"/>
    </comp>
    <comp name="00.HNN">
      <acc value="0.0582096143" flag="0"/>
      <vel value="0.0224961419" flag="0"/>
      <psa03 value="0.1354981642" flag="0"/>
      <psa10 value="0.0065261220" flag="0"/>
      <psa30 value="0.0005059709" flag="0"/>
    </comp>
  </station>
  <station code="CMBO" name="CMBO" netid="HT" insttype="120P," lat="36.4709" lon="25.4056">
    <comp name="--.HHE">
      <acc value="0.5167202685" flag="0"/>
      <vel value="0.1070648984" flag="0"/>
      <psa03 value="0.6322438024" flag="0"/>
      <psa10 value="0.0662483306" flag="0"/>
      <psa30 value="0.0050276927" flag="0"/>
    </comp>
    <comp name="--.HHN">
      <acc value="0.7398167860" flag="0"/>
      <vel value="0.1989376112" flag="0"/>
      <psa03 value="0.7349059305" flag="0"/>
      <psa10 value="0.0860134265" flag="0"/>
      <psa30 value="0.0042334480" flag="0"/>
    </comp>
    <comp name="--.HHZ">
      <acc value="0.5491506397" flag="0"/>
      <vel value="0.1641928127" flag="0"/>
      <psa03 value="0.8469493003" flag="0"/>
      <psa10 value="0.0328930323" flag="0"/>
      <psa30 value="0.0030355413" flag="0"/>
    </comp>
  </station>
</stationlist>
