<?xml version="1.0" encoding="UTF-8" standalone="yes"?>
<!DOCTYPE earthquake SYSTEM "stationlist.dtd">
<stationlist created="" xmlns="ch.ethz.sed.shakemap.usgs.xml">
  <station code="CUKT" name="CUKT" netid="KO" insttype="CMG-3ESP" lat="37.2473" lon="43.6077">
    <comp name="--.HHN">
      <acc value="0.4535968946" flag="0"/>
      <vel value="0.1702500661" flag="0"/>
      <psa03 value="0.7635396272" flag="0"/>
      <psa10 value="0.1161468024" flag="0"/>
      <psa30 value="0.0098824101" flag="0"/>
    </comp>
    <comp name="--.HHE">
      <acc value="0.7000890381" flag="0"/>
      <vel value="0.2775163068" flag="0"/>
      <psa03 value="1.2442999753" flag="0"/>
      <psa10 value="0.1266175854" flag="0"/>
      <psa30 value="0.0135877530" flag="0"/>
    </comp>
    <comp name="--.HHZ">
      <acc value="0.3423554866" flag="0"/>
      <vel value="0.1212478327" flag="0"/>
      <psa03 value="0.4743646386" flag="0"/>
      <psa10 value="0.0565206344" flag="0"/>
      <psa30 value="0.0058704077" flag="0"/>
    </comp>
  </station>
</stationlist>
