<?xml version="1.0" encoding="UTF-8" standalone="yes"?>
<!DOCTYPE earthquake SYSTEM "stationlist.dtd">
<stationlist created="" xmlns="ch.ethz.sed.shakemap.usgs.xml">
  <station code="PSAM" name="PSAM" netid="CL" insttype="CMG40-T" lat="38.3218" lon="22.1842">
    <comp name="00.HHE">
      <acc value="0.9073582312" flag="0"/>
      <vel value="0.4039953937" flag="0"/>
      <psa03 value="1.4939756647" flag="0"/>
      <psa10 value="0.1682753681" flag="0"/>
      <psa30 value="0.0199847890" flag="0"/>
    </comp>
    <comp name="00.HHN">
      <acc value="0.7586457285" flag="0"/>
      <vel value="0.1242271387" flag="0"/>
      <psa03 value="0.6225709393" flag="0"/>
      <psa10 value="0.1286484636" flag="0"/>
      <psa30 value="0.0100112651" flag="0"/>
    </comp>
    <comp name="00.HHZ">
      <acc value="0.7696122763" flag="0"/>
      <vel value="0.1172095464" flag="0"/>
      <psa03 value="0.3321363305" flag="0"/>
      <psa10 value="0.0554962364" flag="0"/>
      <psa30 value="0.0038337693" flag="0"/>
    </comp>
  </station>
  <station code="TRIZ" name="TRIZ" netid="CL" insttype="STS-2" lat="38.3654" lon="22.0727">
    <comp name="00.HHZ">
      <acc value="0.5627884831" flag="0"/>
      <vel value="0.1768368387" flag="0"/>
      <psa03 value="0.9566165862" flag="0"/>
      <psa10 value="0.0267232068" flag="0"/>
      <psa30 value="0.0032136412" flag="0"/>
    </comp>
    <comp name="00.HH2">
      <acc value="0.7483934306" flag="0"/>
      <vel value="0.2958387963" flag="0"/>
      <psa03 value="1.2429280646" flag="0"/>
      <psa10 value="0.0757822886" flag="0"/>
      <psa30 value="0.0078315450" flag="0"/>
    </comp>
    <comp name="00.HH3">
      <acc value="1.1203598720" flag="0"/>
      <vel value="0.3860243501" flag="0"/>
      <psa03 value="2.8672464741" flag="0"/>
      <psa10 value="0.0984859647" flag="0"/>
      <psa30 value="0.0095176759" flag="0"/>
    </comp>
  </station>
  <station code="ZIRI" name="ZIRI" netid="CL" insttype="TRILLIUM-40" lat="38.3051" lon="21.9476">
    <comp name="01.HHE">
      <acc value="0.6273073854" flag="0"/>
      <vel value="0.1417373142" flag="0"/>
      <psa03 value="0.5301265034" flag="0"/>
      <psa10 value="0.0638717989" flag="0"/>
      <psa30 value="0.0037356218" flag="0"/>
    </comp>
    <comp name="01.HHZ">
      <acc value="0.3329065039" flag="0"/>
      <vel value="0.0897280724" flag="0"/>
      <psa03 value="0.6012007054" flag="0"/>
      <psa10 value="0.0188378434" flag="0"/>
      <psa30 value="0.0020179723" flag="0"/>
    </comp>
    <comp name="01.HHN">
      <acc value="0.4368286442" flag="0"/>
      <vel value="0.1043309250" flag="0"/>
      <psa03 value="0.7284325256" flag="0"/>
      <psa10 value="0.0393374358" flag="0"/>
      <psa30 value="0.0027251614" flag="0"/>
    </comp>
  </station>
  <station code="KLV" name="KLV" netid="MN" insttype="" lat="38.0437" lon="22.1504">
    <comp name="--.HHZ">
      <acc value="0.0469425000" flag="0"/>
      <vel value="0.0130013706" flag="0"/>
      <psa03 value="0.0444210137" flag="0"/>
      <psa10 value="0.0120079420" flag="0"/>
      <psa30 value="0.0007428170" flag="0"/>
    </comp>
    <comp name="--.HHE">
      <acc value="0.0474461256" flag="0"/>
      <vel value="0.0115903828" flag="0"/>
      <psa03 value="0.0449301968" flag="0"/>
      <psa10 value="0.0152233645" flag="0"/>
      <psa30 value="0.0008609757" flag="0"/>
    </comp>
    <comp name="--.HHN">
      <acc value="0.0380113591" flag="0"/>
      <vel value="0.0114226479" flag="0"/>
      <psa03 value="0.0370025141" flag="0"/>
      <psa10 value="0.0111554188" flag="0"/>
      <psa30 value="0.0005835374" flag="0"/>
    </comp>
  </station>
</stationlist>
