<?xml version="1.0" encoding="UTF-8" standalone="yes"?>
<!DOCTYPE earthquake SYSTEM "stationlist.dtd">
<stationlist created="" xmlns="ch.ethz.sed.shakemap.usgs.xml">
  <station code="PSAM" name="PSAM" netid="CL" insttype="CMG40-T" lat="38.3218" lon="22.1842">
    <comp name="00.HHE">
      <acc value="0.9073582312" flag="0"/>
      <vel value="0.4039953939" flag="0"/>
      <psa03 value="1.4939756647" flag="0"/>
      <psa10 value="0.1682753795" flag="0"/>
      <psa30 value="0.0199846877" flag="0"/>
    </comp>
    <comp name="00.HHN">
      <acc value="0.7586457285" flag="0"/>
      <vel value="0.1242271393" flag="0"/>
      <psa03 value="0.6225709393" flag="0"/>
      <psa10 value="0.1286484573" flag="0"/>
      <psa30 value="0.0100113557" flag="0"/>
    </comp>
    <comp name="00.HHZ">
      <acc value="0.7696122763" flag="0"/>
      <vel value="0.1172095451" flag="0"/>
      <psa03 value="0.3321363305" flag="0"/>
      <psa10 value="0.0554962339" flag="0"/>
      <psa30 value="0.0038338419" flag="0"/>
    </comp>
  </station>
  <station code="TRIZ" name="TRIZ" netid="CL" insttype="STS-2" lat="38.3654" lon="22.0727">
    <comp name="00.HH3">
      <acc value="1.1203598720" flag="0"/>
      <vel value="0.3860243499" flag="0"/>
      <psa03 value="2.8672464741" flag="0"/>
      <psa10 value="0.0984859703" flag="0"/>
      <psa30 value="0.0095177386" flag="0"/>
    </comp>
    <comp name="00.HH2">
      <acc value="0.7483934305" flag="0"/>
      <vel value="0.2958387975" flag="0"/>
      <psa03 value="1.2429280646" flag="0"/>
      <psa10 value="0.0757822947" flag="0"/>
      <psa30 value="0.0078314076" flag="0"/>
    </comp>
    <comp name="00.HHZ">
      <acc value="0.5627884831" flag="0"/>
      <vel value="0.1768368386" flag="0"/>
      <psa03 value="0.9566165862" flag="0"/>
      <psa10 value="0.0267232064" flag="0"/>
      <psa30 value="0.0032136999" flag="0"/>
    </comp>
  </station>
  <station code="ZIRI" name="ZIRI" netid="CL" insttype="TRILLIUM-40" lat="38.3051" lon="21.9476">
    <comp name="01.HHE">
      <acc value="0.6273073854" flag="0"/>
      <vel value="0.1417373152" flag="0"/>
      <psa03 value="0.5301265034" flag="0"/>
      <psa10 value="0.0638717982" flag="0"/>
      <psa30 value="0.0037355097" flag="0"/>
    </comp>
    <comp name="01.HHN">
      <acc value="0.4368286442" flag="0"/>
      <vel value="0.1043309221" flag="0"/>
      <psa03 value="0.7284325256" flag="0"/>
      <psa10 value="0.0393374364" flag="0"/>
      <psa30 value="0.0027250679" flag="0"/>
    </comp>
    <comp name="01.HHZ">
      <acc value="0.3329065039" flag="0"/>
      <vel value="0.0897280701" flag="0"/>
      <psa03 value="0.6012007054" flag="0"/>
      <psa10 value="0.0188378435" flag="0"/>
      <psa30 value="0.0020180123" flag="0"/>
    </comp>
  </station>
  <station code="AMPE" name="AMPE" netid="HA" insttype="1s-100Hz," lat="38.3015" lon="23.2688">
    <comp name="--.HHZ">
      <acc value="0.0074831828" flag="0"/>
      <vel value="0.0041204828" flag="0"/>
      <psa03 value="0.0264792232" flag="0"/>
      <psa10 value="0.0046522161" flag="0"/>
      <psa30 value="0.0002276294" flag="0"/>
    </comp>
    <comp name="--.HHN">
      <acc value="0.0114305546" flag="0"/>
      <vel value="0.0083165598" flag="0"/>
      <psa03 value="0.0294994530" flag="0"/>
      <psa10 value="0.0071507386" flag="0"/>
      <psa30 value="0.0004527616" flag="0"/>
    </comp>
    <comp name="--.HHE">
      <acc value="0.0197478599" flag="0"/>
      <vel value="0.0123381726" flag="0"/>
      <psa03 value="0.0754447989" flag="0"/>
      <psa10 value="0.0108664667" flag="0"/>
      <psa30 value="0.0004884416" flag="0"/>
    </comp>
  </station>
  <station code="ANTK" name="ANTK" netid="HA" insttype="25" lat="38.3605" lon="22.6385">
    <comp name="--.HHE">
      <acc value="0.0490256276" flag="0"/>
      <vel value="0.0100502454" flag="0"/>
      <psa03 value="0.0478491278" flag="0"/>
      <psa10 value="0.0043756574" flag="0"/>
      <psa30 value="0.0003250049" flag="0"/>
    </comp>
    <comp name="--.HHN">
      <acc value="0.0061801924" flag="0"/>
      <vel value="0.0007883513" flag="0"/>
      <psa03 value="0.0018020976" flag="0"/>
      <psa10 value="0.0001345661" flag="0"/>
      <psa30 value="0.0000119259" flag="0"/>
    </comp>
    <comp name="--.HHZ">
      <acc value="0.0412889220" flag="0"/>
      <vel value="0.0086824847" flag="0"/>
      <psa03 value="0.0391068753" flag="0"/>
      <psa10 value="0.0038948853" flag="0"/>
      <psa30 value="0.0001874902" flag="0"/>
    </comp>
  </station>
  <station code="ATAL" name="ATAL" netid="HA" insttype="120s," lat="38.6926" lon="23.0213">
    <comp name="--.HHE">
      <acc value="0.0183321254" flag="0"/>
      <vel value="0.0051386704" flag="0"/>
      <psa03 value="0.0277435814" flag="0"/>
      <psa10 value="0.0049746377" flag="0"/>
      <psa30 value="0.0001933464" flag="0"/>
    </comp>
    <comp name="--.HHN">
      <acc value="0.0221230382" flag="0"/>
      <vel value="0.0068199835" flag="0"/>
      <psa03 value="0.0387900361" flag="0"/>
      <psa10 value="0.0077919862" flag="0"/>
      <psa30 value="0.0002972339" flag="0"/>
    </comp>
    <comp name="--.HHZ">
      <acc value="0.0188953846" flag="0"/>
      <vel value="0.0035954970" flag="0"/>
      <psa03 value="0.0240127425" flag="0"/>
      <psa10 value="0.0030973968" flag="0"/>
      <psa30 value="0.0004668026" flag="0"/>
    </comp>
  </station>
  <station code="AXAR" name="AXAR" netid="HA" insttype="Horizon,120s,1200" lat="38.7664" lon="22.659">
    <comp name="--.HHE">
      <acc value="0.2452126664" flag="0"/>
      <vel value="0.1188548327" flag="0"/>
      <psa03 value="0.7180823625" flag="0"/>
      <psa10 value="0.0267744093" flag="0"/>
      <psa30 value="0.0024087668" flag="0"/>
    </comp>
    <comp name="--.HHN">
      <acc value="0.2573456704" flag="0"/>
      <vel value="0.0713844819" flag="0"/>
      <psa03 value="0.6025597650" flag="0"/>
      <psa10 value="0.0203932182" flag="0"/>
      <psa30 value="0.0017498826" flag="0"/>
    </comp>
    <comp name="--.HHZ">
      <acc value="0.1298805794" flag="0"/>
      <vel value="0.0459461249" flag="0"/>
      <psa03 value="0.3578370310" flag="0"/>
      <psa10 value="0.0116370172" flag="0"/>
      <psa30 value="0.0010773411" flag="0"/>
    </comp>
  </station>
  <station code="DOMV" name="DOMV" netid="HA" insttype="60" lat="38.2569" lon="22.9795">
    <comp name="--.HHE">
      <acc value="0.0753833159" flag="0"/>
      <vel value="0.0203969278" flag="0"/>
      <psa03 value="0.1368590611" flag="0"/>
      <psa10 value="0.0074929257" flag="0"/>
      <psa30 value="0.0004466543" flag="0"/>
    </comp>
    <comp name="--.HHN">
      <acc value="0.0652948709" flag="0"/>
      <vel value="0.0256185138" flag="0"/>
      <psa03 value="0.1443156018" flag="0"/>
      <psa10 value="0.0149750259" flag="0"/>
      <psa30 value="0.0006852484" flag="0"/>
    </comp>
    <comp name="--.HHZ">
      <acc value="0.0597447809" flag="0"/>
      <vel value="0.0145716849" flag="0"/>
      <psa03 value="0.0993800460" flag="0"/>
      <psa10 value="0.0043656249" flag="0"/>
      <psa30 value="0.0004855650" flag="0"/>
    </comp>
  </station>
  <station code="DRES" name="DRES" netid="HA" insttype="DC" lat="38.3197" lon="21.8532">
    <comp name="--.HNN">
      <acc value="0.1880964514" flag="0"/>
      <vel value="0.0440014736" flag="0"/>
      <psa03 value="0.1620743969" flag="0"/>
      <psa10 value="0.0151071528" flag="0"/>
      <psa30 value="0.0011006123" flag="0"/>
    </comp>
    <comp name="--.HNZ">
      <acc value="0.1961685647" flag="0"/>
      <vel value="0.0349060534" flag="0"/>
      <psa03 value="0.0983928001" flag="0"/>
      <psa10 value="0.0128648917" flag="0"/>
      <psa30 value="0.0016589509" flag="0"/>
    </comp>
  </station>
  <station code="EPID" name="EPID" netid="HA" insttype="30" lat="37.6144" lon="23.1189">
    <comp name="--.HHN">
      <acc value="0.0093140748" flag="0"/>
      <vel value="0.0034148264" flag="0"/>
      <psa03 value="0.0170564594" flag="0"/>
      <psa10 value="0.0027544881" flag="0"/>
      <psa30 value="0.0002660576" flag="0"/>
    </comp>
    <comp name="--.HHE">
      <acc value="0.0082626362" flag="0"/>
      <vel value="0.0041434250" flag="0"/>
      <psa03 value="0.0172342150" flag="0"/>
      <psa10 value="0.0020314755" flag="0"/>
      <psa30 value="0.0001879819" flag="0"/>
    </comp>
    <comp name="--.HHZ">
      <acc value="0.0061475927" flag="0"/>
      <vel value="0.0028121617" flag="0"/>
      <psa03 value="0.0124937927" flag="0"/>
      <psa10 value="0.0031473881" flag="0"/>
      <psa30 value="0.0001693359" flag="0"/>
    </comp>
  </station>
  <station code="KALE" name="KALE" netid="HA" insttype="40," lat="38.3911" lon="22.1398">
    <comp name="--.HHZ">
      <acc value="2.0835387390" flag="0"/>
      <vel value="0.4740532369" flag="0"/>
      <psa03 value="1.0174656899" flag="0"/>
      <psa10 value="0.2346078747" flag="0"/>
      <psa30 value="0.0660189478" flag="0"/>
    </comp>
    <comp name="--.HHE">
      <acc value="3.1630935283" flag="0"/>
      <vel value="0.6228554851" flag="0"/>
      <psa03 value="1.2441421675" flag="0"/>
      <psa10 value="0.2223313346" flag="0"/>
      <psa30 value="0.0484249134" flag="0"/>
    </comp>
    <comp name="--.HHN">
      <acc value="2.5831978401" flag="0"/>
      <vel value="0.7476836931" flag="0"/>
      <psa03 value="2.5243141899" flag="0"/>
      <psa10 value="0.3130696630" flag="0"/>
      <psa30 value="0.0808805321" flag="0"/>
    </comp>
  </station>
  <station code="KIAS" name="KIAS" netid="HA" insttype="DC" lat="37.9875" lon="22.7543">
    <comp name="--.HNZ">
      <acc value="0.0419814637" flag="0"/>
      <vel value="0.0064912542" flag="0"/>
      <psa03 value="0.0284546218" flag="0"/>
      <psa10 value="0.0069225566" flag="0"/>
      <psa30 value="0.0008569511" flag="0"/>
    </comp>
    <comp name="--.HNN">
      <acc value="0.0852928032" flag="0"/>
      <vel value="0.0139563195" flag="0"/>
      <psa03 value="0.0655141498" flag="0"/>
      <psa10 value="0.0103297508" flag="0"/>
      <psa30 value="0.0007017971" flag="0"/>
    </comp>
    <comp name="--.HNE">
      <acc value="0.0536288429" flag="0"/>
      <vel value="0.0139391970" flag="0"/>
      <psa03 value="0.0456582380" flag="0"/>
      <psa10 value="0.0088754675" flag="0"/>
      <psa30 value="0.0012574624" flag="0"/>
    </comp>
  </station>
  <station code="LAKA" name="LAKA" netid="HA" insttype="120s," lat="38.2401" lon="21.9785">
    <comp name="--.HHN">
      <acc value="0.1593460470" flag="0"/>
      <vel value="0.0422153495" flag="0"/>
      <psa03 value="0.1416110471" flag="0"/>
      <psa10 value="0.0143507036" flag="0"/>
      <psa30 value="0.0011999638" flag="0"/>
    </comp>
    <comp name="--.HHE">
      <acc value="0.0946569100" flag="0"/>
      <vel value="0.0291830735" flag="0"/>
      <psa03 value="0.0919854800" flag="0"/>
      <psa10 value="0.0131188664" flag="0"/>
      <psa30 value="0.0007808902" flag="0"/>
    </comp>
    <comp name="--.HHZ">
      <acc value="0.0650884931" flag="0"/>
      <vel value="0.0178881949" flag="0"/>
      <psa03 value="0.0594049177" flag="0"/>
      <psa10 value="0.0067526380" flag="0"/>
      <psa30 value="0.0011980831" flag="0"/>
    </comp>
  </station>
  <station code="LOUT" name="LOUT" netid="HA" insttype="30" lat="37.9879" lon="22.9743">
    <comp name="--.HHE">
      <acc value="0.0183236098" flag="0"/>
      <vel value="0.0061153157" flag="0"/>
      <psa03 value="0.0277912377" flag="0"/>
      <psa10 value="0.0065749637" flag="0"/>
      <psa30 value="0.0003052786" flag="0"/>
    </comp>
    <comp name="--.HHZ">
      <acc value="0.0118977647" flag="0"/>
      <vel value="0.0032267359" flag="0"/>
      <psa03 value="0.0225546493" flag="0"/>
      <psa10 value="0.0028620760" flag="0"/>
      <psa30 value="0.0001808745" flag="0"/>
    </comp>
    <comp name="--.HHN">
      <acc value="0.0168436957" flag="0"/>
      <vel value="0.0068305608" flag="0"/>
      <psa03 value="0.0305240921" flag="0"/>
      <psa10 value="0.0042677800" flag="0"/>
      <psa30 value="0.0003031595" flag="0"/>
    </comp>
  </station>
  <station code="MDRA" name="MDRA" netid="HA" insttype="60" lat="38.0606" lon="23.4662">
    <comp name="--.HHN">
      <acc value="0.0065343751" flag="0"/>
      <vel value="0.0034776686" flag="0"/>
      <psa03 value="0.0246877350" flag="0"/>
      <psa10 value="0.0026837599" flag="0"/>
      <psa30 value="0.0002015225" flag="0"/>
    </comp>
    <comp name="--.HHE">
      <acc value="0.0055467308" flag="0"/>
      <vel value="0.0022135930" flag="0"/>
      <psa03 value="0.0134042846" flag="0"/>
      <psa10 value="0.0016602071" flag="0"/>
      <psa30 value="0.0001196829" flag="0"/>
    </comp>
    <comp name="--.HHZ">
      <acc value="0.0059953117" flag="0"/>
      <vel value="0.0033188498" flag="0"/>
      <psa03 value="0.0238214913" flag="0"/>
      <psa10 value="0.0027511922" flag="0"/>
      <psa30 value="0.0001504700" flag="0"/>
    </comp>
  </station>
  <station code="MRKA" name="MRKA" netid="HA" insttype="Horizon,120s,1200" lat="38.7047" lon="23.5863">
    <comp name="--.HHE">
      <acc value="0.0059017524" flag="0"/>
      <vel value="0.0024627525" flag="0"/>
      <psa03 value="0.0186631824" flag="0"/>
      <psa10 value="0.0026682469" flag="0"/>
      <psa30 value="0.0001355579" flag="0"/>
    </comp>
    <comp name="--.HHN">
      <acc value="0.0060695452" flag="0"/>
      <vel value="0.0032078147" flag="0"/>
      <psa03 value="0.0195544587" flag="0"/>
      <psa10 value="0.0059685258" flag="0"/>
      <psa30 value="0.0002828816" flag="0"/>
    </comp>
    <comp name="--.HHZ">
      <acc value="0.0032869463" flag="0"/>
      <vel value="0.0017075289" flag="0"/>
      <psa03 value="0.0118470436" flag="0"/>
      <psa10 value="0.0018005110" flag="0"/>
      <psa30 value="0.0001689351" flag="0"/>
    </comp>
  </station>
  <station code="PRDM" name="PRDM" netid="HA" insttype="25" lat="38.2804" lon="22.847">
    <comp name="--.HHZ">
      <acc value="0.0234858598" flag="0"/>
      <vel value="0.0060136002" flag="0"/>
      <psa03 value="0.0353705599" flag="0"/>
      <psa10 value="0.0023464889" flag="0"/>
      <psa30 value="0.0001885588" flag="0"/>
    </comp>
    <comp name="--.HHE">
      <acc value="0.0358598076" flag="0"/>
      <vel value="0.0090040974" flag="0"/>
      <psa03 value="0.0576351272" flag="0"/>
      <psa10 value="0.0074655755" flag="0"/>
      <psa30 value="0.0003197933" flag="0"/>
    </comp>
    <comp name="--.HHN">
      <acc value="0.0349433742" flag="0"/>
      <vel value="0.0085059452" flag="0"/>
      <psa03 value="0.0397045293" flag="0"/>
      <psa10 value="0.0026314068" flag="0"/>
      <psa30 value="0.0002206696" flag="0"/>
    </comp>
  </station>
  <station code="THAL" name="THAL" netid="HA" insttype="30" lat="38.0357" lon="22.6634">
    <comp name="--.HHE">
      <acc value="0.1300946676" flag="0"/>
      <vel value="0.0289189959" flag="0"/>
      <psa03 value="0.1579711851" flag="0"/>
      <psa10 value="0.0167334555" flag="0"/>
      <psa30 value="0.0010050924" flag="0"/>
    </comp>
    <comp name="--.HHZ">
      <acc value="0.0778483926" flag="0"/>
      <vel value="0.0146342210" flag="0"/>
      <psa03 value="0.0688793269" flag="0"/>
      <psa10 value="0.0053749688" flag="0"/>
      <psa30 value="0.0004714481" flag="0"/>
    </comp>
    <comp name="--.HHN">
      <acc value="0.1443890573" flag="0"/>
      <vel value="0.0315733750" flag="0"/>
      <psa03 value="0.1421092301" flag="0"/>
      <psa10 value="0.0096165584" flag="0"/>
      <psa30 value="0.0007818931" flag="0"/>
    </comp>
  </station>
  <station code="THIV" name="THIV" netid="HA" insttype="25" lat="38.299" lon="23.332">
    <comp name="--.HHE">
      <acc value="0.0116585608" flag="0"/>
      <vel value="0.0059493218" flag="0"/>
      <psa03 value="0.0245807833" flag="0"/>
      <psa10 value="0.0074005052" flag="0"/>
      <psa30 value="0.0003246060" flag="0"/>
    </comp>
    <comp name="--.HHN">
      <acc value="0.0138978687" flag="0"/>
      <vel value="0.0066070052" flag="0"/>
      <psa03 value="0.0376779392" flag="0"/>
      <psa10 value="0.0068133639" flag="0"/>
      <psa30 value="0.0003499949" flag="0"/>
    </comp>
    <comp name="--.HHZ">
      <acc value="0.0065964890" flag="0"/>
      <vel value="0.0031173118" flag="0"/>
      <psa03 value="0.0136702108" flag="0"/>
      <psa10 value="0.0029761403" flag="0"/>
      <psa30 value="0.0001614154" flag="0"/>
    </comp>
  </station>
  <station code="VILL" name="VILL" netid="HA" insttype="Horizon,120s,1200" lat="38.1642" lon="23.3122">
    <comp name="--.HHE">
      <acc value="0.0138469151" flag="0"/>
      <vel value="0.0077738728" flag="0"/>
      <psa03 value="0.0510093586" flag="0"/>
      <psa10 value="0.0120726145" flag="0"/>
      <psa30 value="0.0004695394" flag="0"/>
    </comp>
    <comp name="--.HHN">
      <acc value="0.0214597057" flag="0"/>
      <vel value="0.0104868818" flag="0"/>
      <psa03 value="0.0652258429" flag="0"/>
      <psa10 value="0.0062132634" flag="0"/>
      <psa30 value="0.0003992762" flag="0"/>
    </comp>
    <comp name="--.HHZ">
      <acc value="0.0080382400" flag="0"/>
      <vel value="0.0048830953" flag="0"/>
      <psa03 value="0.0317622675" flag="0"/>
      <psa10 value="0.0040079075" flag="0"/>
      <psa30 value="0.0001796421" flag="0"/>
    </comp>
  </station>
  <station code="MSL1" name="MSL1" netid="HI" insttype="CMG-5TD,ACCELEROMETER,GURALP" lat="38.3727" lon="21.4243">
    <comp name="--.HNN">
      <acc value="0.0721553989" flag="0"/>
      <vel value="0.0286369792" flag="0"/>
      <psa03 value="0.3197050017" flag="0"/>
      <psa10 value="0.0175665467" flag="0"/>
      <psa30 value="0.0014018690" flag="0"/>
    </comp>
    <comp name="--.HNZ">
      <acc value="0.0499807027" flag="0"/>
      <vel value="0.0135581722" flag="0"/>
      <psa03 value="0.0875479878" flag="0"/>
      <psa10 value="0.0152232584" flag="0"/>
      <psa30 value="0.0005171093" flag="0"/>
    </comp>
    <comp name="--.HNE">
      <acc value="0.0666387679" flag="0"/>
      <vel value="0.0250073040" flag="0"/>
      <psa03 value="0.1762617652" flag="0"/>
      <psa10 value="0.0143475744" flag="0"/>
      <psa30 value="0.0008561353" flag="0"/>
    </comp>
  </station>
  <station code="DLFA" name="DLFA" netid="HL" insttype="CMG-5" lat="38.4784" lon="22.4958">
    <comp name="00.HNE">
      <acc value="0.2084419021" flag="0"/>
      <vel value="0.0309521811" flag="0"/>
      <psa03 value="0.1470959537" flag="0"/>
      <psa10 value="0.0170313703" flag="0"/>
      <psa30 value="0.0010718810" flag="0"/>
    </comp>
    <comp name="00.HNN">
      <acc value="0.2236476003" flag="0"/>
      <vel value="0.0510048066" flag="0"/>
      <psa03 value="0.1855160193" flag="0"/>
      <psa10 value="0.0329481505" flag="0"/>
      <psa30 value="0.0025059331" flag="0"/>
    </comp>
    <comp name="00.HNZ">
      <acc value="0.1733953626" flag="0"/>
      <vel value="0.0283155810" flag="0"/>
      <psa03 value="0.1313460973" flag="0"/>
      <psa10 value="0.0114647987" flag="0"/>
      <psa30 value="0.0008002831" flag="0"/>
    </comp>
  </station>
  <station code="ELIN" name="ELIN" netid="HL" insttype="LE3D20_SMART24" lat="38.0995" lon="22.4874">
    <comp name="--.HHE">
      <acc value="0.2170431831" flag="0"/>
      <vel value="0.0657262766" flag="0"/>
      <psa03 value="0.4784095166" flag="0"/>
      <psa10 value="0.0415968940" flag="0"/>
      <psa30 value="0.0026841045" flag="0"/>
    </comp>
    <comp name="--.HHZ">
      <acc value="0.2147212812" flag="0"/>
      <vel value="0.0580304341" flag="0"/>
      <psa03 value="0.3057261609" flag="0"/>
      <psa10 value="0.0252931159" flag="0"/>
      <psa30 value="0.0025476787" flag="0"/>
    </comp>
    <comp name="--.HHN">
      <acc value="0.2845178529" flag="0"/>
