<stationlist created="1775699740">
	<station code="SRN" name="SRN" netid="AC" source="Albanian Seismological Network (AC)" insttype="" lat="39.880001" lon="20.0005">
		<comp name="01.HNE" depth="0.0">
			<acc value="0.0272201857812121" flag="0"/>
			<vel value="0.0279619298895559" flag="0"/>
			<psa03 value="0.0451795606324954" flag="0"/>
			<psa10 value="0.0361781666259857" flag="0"/>
			<psa30 value="0.0126921507927002" flag="0"/>
		</comp>
		<comp name="01.HNN" depth="0.0">
			<acc value="0.0237092706884789" flag="0"/>
			<vel value="0.0254220888959167" flag="0"/>
			<psa03 value="0.0714409878231624" flag="0"/>
			<psa10 value="0.0294469807179543" flag="0"/>
			<psa30 value="0.0130036247596552" flag="0"/>
		</comp>
		<comp name="01.HNZ" depth="0.0">
			<acc value="0.0266265549850613" flag="0"/>
			<vel value="0.0246057944715555" flag="0"/>
			<psa03 value="0.0579606885694947" flag="0"/>
			<psa10 value="0.0407240977716138" flag="0"/>
			<psa30 value="0.0120063370275707" flag="0"/>
		</comp>
	</station>
	<station code="AGR3" name="AGR3" netid="HI" source="ITSAK Strong Motion Network" insttype="" lat="38.5893" lon="21.4162">
		<comp name="--.HNE" depth="0.0">
			<acc value="0.0136727136212567" flag="0"/>
			<vel value="0.0178252955289368" flag="0"/>
			<psa03 value="0.0395074635297329" flag="0"/>
			<psa10 value="0.0252178705601617" flag="0"/>
			<psa30 value="0.009208505851653" flag="0"/>
		</comp>
		<comp name="--.HNN" depth="0.0">
			<acc value="0.0105603221786517" flag="0"/>
			<vel value="0.0152396579340768" flag="0"/>
			<psa03 value="0.0257756892837479" flag="0"/>
			<psa10 value="0.0241858490688028" flag="0"/>
			<psa30 value="0.0103648232853414" flag="0"/>
		</comp>
		<comp name="--.HNZ" depth="0.0">
			<acc value="0.00691019307495095" flag="0"/>
			<vel value="0.00930890658990518" flag="0"/>
			<psa03 value="0.0157342923196463" flag="0"/>
			<psa10 value="0.0218054670051734" flag="0"/>
			<psa30 value="0.00328650854839532" flag="0"/>
		</comp>
	</station>
	<station code="AIA1" name="AIA1" netid="HI" source="ITSAK Strong Motion Network" insttype="" lat="40.1641" lon="21.8202">
		<comp name="--.HNE" depth="0.0">
			<acc value="0.00500184726897018" flag="0"/>
			<vel value="0.00302365521658985" flag="0"/>
			<psa03 value="0.0165400514263993" flag="0"/>
			<psa10 value="0.00265240164609174" flag="0"/>
			<psa30 value="0.000975405657504433" flag="0"/>
		</comp>
		<comp name="--.HNN" depth="0.0">
			<acc value="0.00383587822737712" flag="0"/>
			<vel value="0.00233995163385074" flag="0"/>
			<psa03 value="0.0106447077638145" flag="0"/>
			<psa10 value="0.00251173240556992" flag="0"/>
			<psa30 value="0.0013739008058523" flag="0"/>
		</comp>
		<comp name="--.HNZ" depth="0.0">
			<acc value="0.00211711259208714" flag="0"/>
			<vel value="0.00144080702522727" flag="0"/>
			<psa03 value="0.00494343392354882" flag="0"/>
			<psa10 value="0.00150117616430349" flag="0"/>
			<psa30 value="0.000988674453163692" flag="0"/>
		</comp>
	</station>
	<station code="ARG2" name="ARG2" netid="HI" source="ITSAK Strong Motion Network" insttype="" lat="38.1783" lon="20.4878">
		<comp name="--.HNE" depth="0.0">
			<acc value="0.00652682261674697" flag="0"/>
			<vel value="0.00614728745885739" flag="0"/>
			<psa03 value="0.0307437918336596" flag="0"/>
			<psa10 value="0.00600517437583053" flag="0"/>
			<psa30 value="0.00149643079786292" flag="0"/>
		</comp>
		<comp name="--.HNN" depth="0.0">
			<acc value="0.00960466258514901" flag="0"/>
			<vel value="0.00544522233236492" flag="0"/>
			<psa03 value="0.017238587284305" flag="0"/>
			<psa10 value="0.00826155541250046" flag="0"/>
			<psa30 value="0.000716402562320499" flag="0"/>
		</comp>
		<comp name="--.HNZ" depth="0.0">
			<acc value="0.00435417673821293" flag="0"/>
			<vel value="0.00323985677200676" flag="0"/>
			<psa03 value="0.017896107404286" flag="0"/>
			<psa10 value="0.00619589185367744" flag="0"/>
			<psa30 value="0.000863874935808152" flag="0"/>
		</comp>
	</station>
	<station code="ART2" name="ART2" netid="HI" source="ITSAK Strong Motion Network" insttype="" lat="39.1474" lon="20.9937">
		<comp name="--.HNE" depth="0.0">
			<acc value="0.024361152758518" flag="0"/>
			<vel value="0.0121145562400027" flag="0"/>
			<psa03 value="0.0472973519674445" flag="0"/>
			<psa10 value="0.0105869119559592" flag="0"/>
			<psa30 value="0.00324014401863943" flag="0"/>
		</comp>
		<comp name="--.HNN" depth="0.0">
			<acc value="0.0198853599117014" flag="0"/>
			<vel value="0.0124649023609514" flag="0"/>
			<psa03 value="0.0367517940009841" flag="0"/>
			<psa10 value="0.0101481066372604" flag="0"/>
			<psa30 value="0.00410735250861252" flag="0"/>
		</comp>
		<comp name="--.HNZ" depth="0.0">
			<acc value="0.0137012101429274" flag="0"/>
			<vel value="0.00705396674753687" flag="0"/>
			<psa03 value="0.0247857408920253" flag="0"/>
			<psa10 value="0.0115826694825084" flag="0"/>
			<psa30 value="0.00162025181289749" flag="0"/>
		</comp>
	</station>
	<station code="AST1" name="AST1" netid="HI" source="ITSAK Strong Motion Network" insttype="" lat="38.5416" lon="21.0895">
		<comp name="--.HNE" depth="0.0">
			<acc value="0.00561295756063493" flag="0"/>
			<vel value="0.00692643478066223" flag="0"/>
			<psa03 value="0.0165566801321361" flag="0"/>
			<psa10 value="0.00948900985033294" flag="0"/>
			<psa30 value="0.00122809114667797" flag="0"/>
		</comp>
		<comp name="--.HNN" depth="0.0">
			<acc value="0.00477101542640119" flag="0"/>
			<vel value="0.0062773305029646" flag="0"/>
			<psa03 value="0.0115916051265343" flag="0"/>
			<psa10 value="0.0126940715449406" flag="0"/>
			<psa30 value="0.000998968051730746" flag="0"/>
		</comp>
		<comp name="--.HNZ" depth="0.0">
			<acc value="0.0042415144380926" flag="0"/>
			<vel value="0.00395871164996831" flag="0"/>
			<psa03 value="0.0083355762795613" flag="0"/>
			<psa10 value="0.00602836544337494" flag="0"/>
			<psa30 value="0.000930754574589326" flag="0"/>
		</comp>
	</station>
	<station code="FRS1" name="FRS1" netid="HI" source="ITSAK Strong Motion Network" insttype="" lat="39.2934" lon="22.3844">
		<comp name="--.HNE" depth="0.0">
			<acc value="0.00293099674399823" flag="0"/>
			<vel value="0.00295058883455136" flag="0"/>
			<psa03 value="0.0072392543046526" flag="0"/>
			<psa10 value="0.00660781257890389" flag="0"/>
			<psa30 value="0.000699709477318876" flag="0"/>
		</comp>
		<comp name="--.HNN" depth="0.0">
			<acc value="0.00264513178176674" flag="0"/>
			<vel value="0.00333570516510276" flag="0"/>
			<psa03 value="0.00669052524571213" flag="0"/>
			<psa10 value="0.00570669116528271" flag="0"/>
			<psa30 value="0.00110087782358632" flag="0"/>
		</comp>
		<comp name="--.HNZ" depth="0.0">
			<acc value="0.0016844886535576" flag="0"/>
			<vel value="0.00180065907310052" flag="0"/>
			<psa03 value="0.00456903770236577" flag="0"/>
			<psa10 value="0.00422535381520329" flag="0"/>
			<psa30 value="0.000436317966423938" flag="0"/>
		</comp>
	</station>
	<station code="GRE3" name="GRE3" netid="HI" source="ITSAK Strong Motion Network" insttype="" lat="40.08481" lon="21.43829">
		<comp name="--.HNE" depth="0.0">
			<acc value="0.00713282516081297" flag="0"/>
			<vel value="0.0056019002928802" flag="0"/>
			<psa03 value="0.0227191039874729" flag="0"/>
			<psa10 value="0.00768547459372348" flag="0"/>
			<psa30 value="0.00268556915577648" flag="0"/>
		</comp>
		<comp name="--.HNN" depth="0.0">
			<acc value="0.00697783000282758" flag="0"/>
			<vel value="0.00682103844866833" flag="0"/>
			<psa03 value="0.0269882097114421" flag="0"/>
			<psa10 value="0.00600961466997822" flag="0"/>
			<psa30 value="0.00276397622486" flag="0"/>
		</comp>
		<comp name="--.HNZ" depth="0.0">
			<acc value="0.00631568208186685" flag="0"/>
			<vel value="0.00460584442069588" flag="0"/>
			<psa03 value="0.011780975744325" flag="0"/>
			<psa10 value="0.00603386283880041" flag="0"/>
			<psa30 value="0.00270347763379192" flag="0"/>
		</comp>
	</station>
	<station code="JAN2" name="JAN2" netid="HI" source="ITSAK Strong Motion Network" insttype="" lat="39.664" lon="20.85222">
		<comp name="--.HNE" depth="0.0">
			<acc value="0.316324885808308" flag="0"/>
			<vel value="0.141426004841098" flag="0"/>
			<psa03 value="1.21493173326475" flag="0"/>
			<psa10 value="0.148540110053294" flag="0"/>
			<psa30 value="0.0152433948000948" flag="0"/>
		</comp>
		<comp name="--.HNN" depth="0.0">
			<acc value="0.49715117875846" flag="0"/>
			<vel value="0.222433401635534" flag="0"/>
			<psa03 value="1.86906331627182" flag="0"/>
			<psa10 value="0.132078154529532" flag="0"/>
			<psa30 value="0.0177469339806121" flag="0"/>
		</comp>
		<comp name="--.HNZ" depth="0.0">
			<acc value="0.185197413537414" flag="0"/>
			<vel value="0.0572852250548808" flag="0"/>
			<psa03 value="0.305325622157341" flag="0"/>
			<psa10 value="0.0949342089254284" flag="0"/>
			<psa30 value="0.0114842824440166" flag="0"/>
		</comp>
	</station>
	<station code="JAN3" name="JAN3" netid="HI" source="ITSAK Strong Motion Network" insttype="" lat="39.684" lon="20.8379">
		<comp name="--.HNE" depth="0.0">
			<acc value="0.65024719829523" flag="0"/>
			<vel value="0.236223300465558" flag="0"/>
			<psa03 value="1.27107603588259" flag="0"/>
			<psa10 value="0.106683849781471" flag="0"/>
			<psa30 value="0.00757078402728632" flag="0"/>
		</comp>
		<comp name="--.HNN" depth="0.0">
			<acc value="0.53310387853451" flag="0"/>
			<vel value="0.176621366808453" flag="0"/>
			<psa03 value="0.981139328998697" flag="0"/>
			<psa10 value="0.0948240266263918" flag="0"/>
			<psa30 value="0.0136359766498645" flag="0"/>
		</comp>
		<comp name="--.HNZ" depth="0.0">
			<acc value="0.270304041531891" flag="0"/>
			<vel value="0.086198869872816" flag="0"/>
			<psa03 value="0.372294454347141" flag="0"/>
			<psa10 value="0.0744049064598926" flag="0"/>
			<psa30 value="0.0113840083013468" flag="0"/>
		</comp>
	</station>
	<station code="KAR2" name="KAR2" netid="HI" source="ITSAK Strong Motion Network" insttype="" lat="39.365759" lon="21.91933">
		<comp name="--.HNE" depth="0.0">
			<acc value="0.0120634025382008" flag="0"/>
			<vel value="0.0179723386049247" flag="0"/>
			<psa03 value="0.0362236496390121" flag="0"/>
			<psa10 value="0.0400556422397155" flag="0"/>
			<psa30 value="0.0148842410079187" flag="0"/>
		</comp>
		<comp name="--.HNN" depth="0.0">
			<acc value="0.014142880666432" flag="0"/>
			<vel value="0.0187457832144741" flag="0"/>
			<psa03 value="0.0379956602551855" flag="0"/>
			<psa10 value="0.0528814243848369" flag="0"/>
			<psa30 value="0.013242233899673" flag="0"/>
		</comp>
		<comp name="--.HNZ" depth="0.0">
			<acc value="0.00687323658857174" flag="0"/>
			<vel value="0.0106331985556395" flag="0"/>
			<psa03 value="0.0217904187687183" flag="0"/>
			<psa10 value="0.0148478879747087" flag="0"/>
			<psa30 value="0.00210664872180559" flag="0"/>
		</comp>
	</station>
	<station code="KAS2" name="KAS2" netid="HI" source="ITSAK Strong Motion Network" insttype="" lat="40.504878" lon="21.280507">
		<comp name="--.HNE" depth="0.0">
			<acc value="0.00252710298992728" flag="0"/>
			<vel value="0.00329843420593778" flag="0"/>
			<psa03 value="0.00682674650928564" flag="0"/>
			<psa10 value="0.00476121321950897" flag="0"/>
			<psa30 value="0.00140598220192067" flag="0"/>
		</comp>
		<comp name="--.HNN" depth="0.0">
			<acc value="0.00281174099208713" flag="0"/>
			<vel value="0.00261057790972066" flag="0"/>
			<psa03 value="0.0100947800577612" flag="0"/>
			<psa10 value="0.00340760159625711" flag="0"/>
			<psa30 value="0.000856027488869972" flag="0"/>
		</comp>
		<comp name="--.HNZ" depth="0.0">
			<acc value="0.00241324758185625" flag="0"/>
			<vel value="0.00268509959966232" flag="0"/>
			<psa03 value="0.0062244045237519" flag="0"/>
			<psa10 value="0.00249513427477522" flag="0"/>
			<psa30 value="0.00128588091246634" flag="0"/>
		</comp>
	</station>
	<station code="KNS1" name="KNS1" netid="HI" source="ITSAK Strong Motion Network" insttype="" lat="40.048" lon="20.7524">
		<comp name="--.HNE" depth="0.0">
			<acc value="0.0363143374911271" flag="0"/>
			<vel value="0.0363719925570122" flag="0"/>
			<psa03 value="0.0992152183546263" flag="0"/>
			<psa10 value="0.026349335514162" flag="0"/>
			<psa30 value="0.00885199056759845" flag="0"/>
		</comp>
		<comp name="--.HNN" depth="0.0">
			<acc value="0.0508652856418456" flag="0"/>
			<vel value="0.0170875790360829" flag="0"/>
			<psa03 value="0.0925574543937718" flag="0"/>
			<psa10 value="0.0212752943838392" flag="0"/>
			<psa30 value="0.00281256548532671" flag="0"/>
		</comp>
		<comp name="--.HNZ" depth="0.0">
			<acc value="0.0304035053905738" flag="0"/>
			<vel value="0.0165766544246559" flag="0"/>
			<psa03 value="0.0635920772463572" flag="0"/>
			<psa10 value="0.0170725015944431" flag="0"/>
			<psa30 value="0.00378569286690655" flag="0"/>
		</comp>
	</station>
	<station code="KOZ2" name="KOZ2" netid="HI" source="ITSAK Strong Motion Network" insttype="" lat="40.295728" lon="21.788123">
		<comp name="--.HNE" depth="0.0">
			<acc value="0.00588251755333298" flag="0"/>
			<vel value="0.00292496212147398" flag="0"/>
			<psa03 value="0.0214010921964936" flag="0"/>
			<psa10 value="0.00325328613924042" flag="0"/>
			<psa30 value="0.000628660604013043" flag="0"/>
		</comp>
		<comp name="--.HNN" depth="0.0">
			<acc value="0.00411217425457151" flag="0"/>
			<vel value="0.00217826885842642" flag="0"/>
			<psa03 value="0.0109147927129085" flag="0"/>
			<psa10 value="0.00264741475323456" flag="0"/>
			<psa30 value="0.000630355872566264" flag="0"/>
		</comp>
		<comp name="--.HNZ" depth="0.0">
			<acc value="0.00487210529081919" flag="0"/>
			<vel value="0.00125182289147861" flag="0"/>
			<psa03 value="0.00799245198676087" flag="0"/>
			<psa10 value="0.00183896643187593" flag="0"/>
			<psa30 value="0.00061660100304033" flag="0"/>
		</comp>
	</station>
	<station code="KRK1" name="KRK1" netid="HI" source="ITSAK Strong Motion Network" insttype="" lat="39.618861" lon="19.9202">
		<comp name="--.HNE" depth="0.0">
			<acc value="0.0430016778022349" flag="0"/>
			<vel value="0.0218918824006599" flag="0"/>
			<psa03 value="0.104066414722577" flag="0"/>
			<psa10 value="0.0165125144980463" flag="0"/>
			<psa30 value="0.00265645951907258" flag="0"/>
		</comp>
		<comp name="--.HNN" depth="0.0">
			<acc value="0.0535371847488379" flag="0"/>
			<vel value="0.0270974588666059" flag="0"/>
			<psa03 value="0.100288466535384" flag="0"/>
			<psa10 value="0.0314508772162627" flag="0"/>
			<psa30 value="0.00334680129249371" flag="0"/>
		</comp>
		<comp name="--.HNZ" depth="0.0">
			<acc value="0.0215675397343862" flag="0"/>
			<vel value="0.00842910341134978" flag="0"/>
			<psa03 value="0.0607866309826439" flag="0"/>
			<psa10 value="0.00870106577790517" flag="0"/>
			<psa30 value="0.000998849085516485" flag="0"/>
		</comp>
	</station>
	<station code="LAR4" name="LAR4" netid="HI" source="ITSAK Strong Motion Network" insttype="" lat="39.6422" lon="22.4219">
		<comp name="--.HNE" depth="0.0">
			<acc value="0.0136958418829028" flag="0"/>
			<vel value="0.013088539664009" flag="0"/>
			<psa03 value="0.0313126185781398" flag="0"/>
			<psa10 value="0.0276557308064386" flag="0"/>
			<psa30 value="0.00499513715332154" flag="0"/>
		</comp>
		<comp name="--.HNN" depth="0.0">
			<acc value="0.0112574071405378" flag="0"/>
			<vel value="0.0141028694508103" flag="0"/>
			<psa03 value="0.0263215509652386" flag="0"/>
			<psa10 value="0.0277633666867875" flag="0"/>
			<psa30 value="0.00518209745519066" flag="0"/>
		</comp>
		<comp name="--.HNZ" depth="0.0">
			<acc value="0.00541241655933452" flag="0"/>
			<vel value="0.00656041387375687" flag="0"/>
			<psa03 value="0.0171467608887569" flag="0"/>
			<psa10 value="0.0113148051753127" flag="0"/>
			<psa30 value="0.0025864217544144" flag="0"/>
		</comp>
	</station>
	<station code="LEF2" name="LEF2" netid="HI" source="ITSAK Strong Motion Network" insttype="" lat="38.830093" lon="20.708346">
		<comp name="--.HNE" depth="0.0">
			<acc value="0.0274578121338827" flag="0"/>
			<vel value="0.0243840841871398" flag="0"/>
			<psa03 value="0.0897326318464749" flag="0"/>
			<psa10 value="0.050148824613513" flag="0"/>
			<psa30 value="0.00593942512443197" flag="0"/>
		</comp>
		<comp name="--.HNN" depth="0.0">
			<acc value="0.0368841922374111" flag="0"/>
			<vel value="0.042748041455956" flag="0"/>
			<psa03 value="0.0896577623034018" flag="0"/>
			<psa10 value="0.0624013025300429" flag="0"/>
			<psa30 value="0.00418397508448213" flag="0"/>
		</comp>
		<comp name="--.HNZ" depth="0.0">
			<acc value="0.0191661054537833" flag="0"/>
			<vel value="0.021538464728459" flag="0"/>
			<psa03 value="0.0746664098248738" flag="0"/>
			<psa10 value="0.0336382133665477" flag="0"/>
			<psa30 value="0.00284658815582833" flag="0"/>
		</comp>
	</station>
	<station code="LMS2" name="LMS2" netid="HI" source="ITSAK Strong Motion Network" insttype="" lat="40.834985" lon="21.141815">
		<comp name="--.HNE" depth="0.0">
			<acc value="0.00340551697513713" flag="0"/>
			<vel value="0.00326767465835768" flag="0"/>
			<psa03 value="0.00847932278122823" flag="0"/>
			<psa10 value="0.00358819152820381" flag="0"/>
			<psa30 value="0.000787332313151719" flag="0"/>
		</comp>
		<comp name="--.HNN" depth="0.0">
			<acc value="0.00425156711125913" flag="0"/>
			<vel value="0.0036119478300104" flag="0"/>
			<psa03 value="0.00975515664791876" flag="0"/>
			<psa10 value="0.00469906644634025" flag="0"/>
			<psa30 value="0.000432948810942256" flag="0"/>
		</comp>
		<comp name="--.HNZ" depth="0.0">
			<acc value="0.00202542576504897" flag="0"/>
			<vel value="0.00185940499679906" flag="0"/>
			<psa03 value="0.0047819674980239" flag="0"/>
			<psa10 value="0.00252882580354865" flag="0"/>
			<psa30 value="0.00045589103387693" flag="0"/>
		</comp>
	</station>
	<station code="LXR2" name="LXR2" netid="HI" source="ITSAK Strong Motion Network" insttype="" lat="38.206718" lon="20.436386">
		<comp name="--.HNE" depth="0.0">
			<acc value="0.0108105386997559" flag="0"/>
			<vel value="0.0142310592807691" flag="0"/>
			<psa03 value="0.0276614313924078" flag="0"/>
			<psa10 value="0.0248020598897455" flag="0"/>
			<psa30 value="0.00313692280574066" flag="0"/>
		</comp>
		<comp name="--.HNN" depth="0.0">
			<acc value="0.00918611998546842" flag="0"/>
			<vel value="0.0148417900068978" flag="0"/>
			<psa03 value="0.0233721029746177" flag="0"/>
			<psa10 value="0.0222368374563487" flag="0"/>
			<psa30 value="0.005440781675084" flag="0"/>
		</comp>
		<comp name="--.HNZ" depth="0.0">
			<acc value="0.0060411924956527" flag="0"/>
			<vel value="0.00592328401155274" flag="0"/>
			<psa03 value="0.0180389814523238" flag="0"/>
			<psa10 value="0.0114018990698558" flag="0"/>
			<psa30 value="0.00194873242729276" flag="0"/>
		</comp>
	</station>
	<station code="MSL1" name="MSL1" netid="HI" source="ITSAK Strong Motion Network" insttype="" lat="38.3727" lon="21.4243">
		<comp name="--.HNE" depth="0.0">
			<acc value="0.0126588546615958" flag="0"/>
			<vel value="0.0200147161032147" flag="0"/>
			<psa03 value="0.0308635627887309" flag="0"/>
			<psa10 value="0.0446937994948707" flag="0"/>
			<psa30 value="0.00392272694474168" flag="0"/>
		</comp>
		<comp name="--.HNN" depth="0.0">
			<acc value="0.0134512881232396" flag="0"/>
			<vel value="0.0161642269409454" flag="0"/>
			<psa03 value="0.0303695743352536" flag="0"/>
			<psa10 value="0.0335072134384454" flag="0"/>
			<psa30 value="0.00297653113891323" flag="0"/>
		</comp>
		<comp name="--.HNZ" depth="0.0">
			<acc value="0.00858173600404322" flag="0"/>
			<vel value="0.012133328847076" flag="0"/>
			<psa03 value="0.0189284895966229" flag="0"/>
			<psa10 value="0.0212974714779628" flag="0"/>
			<psa30 value="0.00130479372784754" flag="0"/>
		</comp>
	</station>
	<station code="PRE2" name="PRE2" netid="HI" source="ITSAK Strong Motion Network" insttype="" lat="38.9577" lon="20.7548">
		<comp name="--.HNE" depth="0.0">
			<acc value="0.0270739554539268" flag="0"/>
			<vel value="0.0295730025014978" flag="0"/>
