<?xml version="1.0" encoding="UTF-8" standalone="yes"?>
<!DOCTYPE earthquake SYSTEM "stationlist.dtd">
<stationlist created="" xmlns="ch.ethz.sed.shakemap.usgs.xml">
  <station code="JAN2" name="JAN2" netid="HI" insttype="unknown" commtype="DIG" lat="39.664" lon="20.8522">
    <comp name="--.HNE">
      <acc value="0.3162473208" flag="0"/>
      <vel value="0.1409894054" flag="0"/>
      <psa03 value="1.2083213316" flag="0"/>
      <psa10 value="0.1483912329" flag="0"/>
      <psa30 value="0.0139087175" flag="0"/>
    </comp>
    <comp name="--.HNN">
      <acc value="0.4971658981" flag="0"/>
      <vel value="0.2276944255" flag="0"/>
      <psa03 value="1.8759648103" flag="0"/>
      <psa10 value="0.1323222243" flag="0"/>
      <psa30 value="0.0154329292" flag="0"/>
    </comp>
    <comp name="--.HNZ">
      <acc value="0.1846739530" flag="0"/>
      <vel value="0.0558063681" flag="0"/>
      <psa03 value="0.3003437777" flag="0"/>
      <psa10 value="0.0946894525" flag="0"/>
      <psa30 value="0.0105368533" flag="0"/>
    </comp>
  </station>
  <station code="JAN3" name="JAN3" netid="HI" insttype="unknown" commtype="DIG" lat="39.684" lon="20.8379">
    <comp name="--.HNN">
      <acc value="0.5361467695" flag="0"/>
      <vel value="0.1769364346" flag="0"/>
      <psa03 value="0.9727413477" flag="0"/>
      <psa10 value="0.0945924062" flag="0"/>
      <psa30 value="0.0123214775" flag="0"/>
    </comp>
    <comp name="--.HNZ">
      <acc value="0.2840609593" flag="0"/>
      <vel value="0.0842221480" flag="0"/>
      <psa03 value="0.3661843393" flag="0"/>
      <psa10 value="0.0741724764" flag="0"/>
      <psa30 value="0.0104147395" flag="0"/>
    </comp>
    <comp name="--.HNE">
      <acc value="0.6466683754" flag="0"/>
      <vel value="0.2333054413" flag="0"/>
      <psa03 value="1.2396460726" flag="0"/>
      <psa10 value="0.1066643310" flag="0"/>
      <psa30 value="0.0069679433" flag="0"/>
    </comp>
  </station>
  <station code="KNS1" name="KNS1" netid="HI" insttype="unknown" commtype="DIG" lat="40.048" lon="20.7524">
    <comp name="--.HNE">
      <acc value="0.0370561068" flag="0"/>
      <vel value="0.0296954489" flag="0"/>
      <psa03 value="0.1017158497" flag="0"/>
      <psa10 value="0.0252462593" flag="0"/>
      <psa30 value="0.0068492765" flag="0"/>
    </comp>
    <comp name="--.HNZ">
      <acc value="0.0302475750" flag="0"/>
      <vel value="0.0143457359" flag="0"/>
      <psa03 value="0.0623471045" flag="0"/>
      <psa10 value="0.0167785523" flag="0"/>
      <psa30 value="0.0030602389" flag="0"/>
    </comp>
    <comp name="--.HNN">
      <acc value="0.0509473471" flag="0"/>
      <vel value="0.0170246925" flag="0"/>
      <psa03 value="0.0903660267" flag="0"/>
      <psa10 value="0.0211205293" flag="0"/>
      <psa30 value="0.0022793436" flag="0"/>
    </comp>
  </station>
  <station code="KRK1" name="KRK1" netid="HI" insttype="CMG-5TD,ACCELEROMETER,GURALP" commtype="DIG" lat="39.6189" lon="19.9202">
    <comp name="--.HNN">
      <acc value="0.0541319354" flag="0"/>
      <vel value="0.0268507461" flag="0"/>
      <psa03 value="0.0989758178" flag="0"/>
      <psa10 value="0.0316875339" flag="0"/>
      <psa30 value="0.0024131845" flag="0"/>
    </comp>
    <comp name="--.HNE">
      <acc value="0.0429164661" flag="0"/>
      <vel value="0.0210345240" flag="0"/>
      <psa03 value="0.1043416039" flag="0"/>
      <psa10 value="0.0164315964" flag="0"/>
      <psa30 value="0.0024353044" flag="0"/>
    </comp>
    <comp name="--.HNZ">
      <acc value="0.0222303827" flag="0"/>
      <vel value="0.0084163392" flag="0"/>
      <psa03 value="0.0612212351" flag="0"/>
      <psa10 value="0.0086479027" flag="0"/>
      <psa30 value="0.0008586645" flag="0"/>
    </comp>
  </station>
  <station code="PRE2" name="PRE2" netid="HI" insttype="unknown" commtype="DIG" lat="38.9577" lon="20.7548">
    <comp name="--.HNE">
      <acc value="0.0274087680" flag="0"/>
      <vel value="0.0316859201" flag="0"/>
      <psa03 value="0.1012408165" flag="0"/>
      <psa10 value="0.0697471979" flag="0"/>
      <psa30 value="0.0071118671" flag="0"/>
    </comp>
    <comp name="--.HNN">
      <acc value="0.0359223722" flag="0"/>
      <vel value="0.0244564502" flag="0"/>
      <psa03 value="0.1503133775" flag="0"/>
      <psa10 value="0.0313531677" flag="0"/>
      <psa30 value="0.0087031608" flag="0"/>
    </comp>
    <comp name="--.HNZ">
      <acc value="0.0168369160" flag="0"/>
      <vel value="0.0114699101" flag="0"/>
      <psa03 value="0.0571869181" flag="0"/>
      <psa10 value="0.0174812289" flag="0"/>
      <psa30 value="0.0020495580" flag="0"/>
    </comp>
  </station>
  <station code="ARTB" name="ARTB" netid="HL" insttype="CMG-5" commtype="DIG" lat="39.157" lon="20.9785">
    <comp name="00.HNZ">
      <acc value="0.0812371078" flag="0"/>
      <vel value="0.0214073632" flag="0"/>
      <psa03 value="0.0999337314" flag="0"/>
      <psa10 value="0.0183356916" flag="0"/>
      <psa30 value="0.0016717699" flag="0"/>
    </comp>
    <comp name="00.HNE">
      <acc value="0.0768191858" flag="0"/>
      <vel value="0.0312886015" flag="0"/>
      <psa03 value="0.2987727513" flag="0"/>
      <psa10 value="0.0197692664" flag="0"/>
      <psa30 value="0.0032537491" flag="0"/>
    </comp>
    <comp name="00.HNN">
      <acc value="0.0455845378" flag="0"/>
      <vel value="0.0230709938" flag="0"/>
      <psa03 value="0.1438636754" flag="0"/>
      <psa10 value="0.0160980231" flag="0"/>
      <psa30 value="0.0040420195" flag="0"/>
    </comp>
  </station>
  <station code="JAN" name="JAN" netid="HL" insttype="CMG3EPSC60_DR24" commtype="DIG" lat="39.6562" lon="20.8487">
    <comp name="--.HHE">
      <acc value="0.2560852121" flag="0"/>
      <vel value="0.0943307660" flag="0"/>
      <psa03 value="0.3163490550" flag="0"/>
      <psa10 value="0.1407439015" flag="0"/>
      <psa30 value="0.0108189240" flag="0"/>
    </comp>
    <comp name="--.HHN">
      <acc value="0.2112926587" flag="0"/>
      <vel value="0.0909501528" flag="0"/>
      <psa03 value="0.5451139203" flag="0"/>
      <psa10 value="0.0835459569" flag="0"/>
      <psa30 value="0.0119793638" flag="0"/>
    </comp>
    <comp name="--.HHZ">
      <acc value="0.1456209448" flag="0"/>
      <vel value="0.0655727713" flag="0"/>
      <psa03 value="0.1833152603" flag="0"/>
      <psa10 value="0.1006206624" flag="0"/>
      <psa30 value="0.0098672263" flag="0"/>
    </comp>
  </station>
  <station code="KEK" name="KEK" netid="HL" insttype="120" commtype="DIG" lat="39.7127" lon="19.7962">
    <comp name="--.HHE">
      <acc value="0.0104967860" flag="0"/>
      <vel value="0.0087418349" flag="0"/>
      <psa03 value="0.0437098476" flag="0"/>
      <psa10 value="0.0090840811" flag="0"/>
      <psa30 value="0.0020583149" flag="0"/>
    </comp>
    <comp name="--.HHN">
      <acc value="0.0084462107" flag="0"/>
      <vel value="0.0075501010" flag="0"/>
      <psa03 value="0.0261073653" flag="0"/>
      <psa10 value="0.0072750645" flag="0"/>
      <psa30 value="0.0019408029" flag="0"/>
    </comp>
    <comp name="--.HHZ">
      <acc value="0.0057009506" flag="0"/>
      <vel value="0.0052901664" flag="0"/>
      <psa03 value="0.0139394912" flag="0"/>
      <psa10 value="0.0090248816" flag="0"/>
      <psa30 value="0.0017171931" flag="0"/>
    </comp>
  </station>
  <station code="KZN" name="KZN" netid="HL" insttype="120" commtype="DIG" lat="40.3033" lon="21.7821">
    <comp name="--.HHN">
      <acc value="0.0027768821" flag="0"/>
      <vel value="0.0021863884" flag="0"/>
      <psa03 value="0.0086229585" flag="0"/>
      <psa10 value="0.0025560227" flag="0"/>
      <psa30 value="0.0005455605" flag="0"/>
    </comp>
    <comp name="--.HHE">
      <acc value="0.0047348336" flag="0"/>
      <vel value="0.0030480453" flag="0"/>
      <psa03 value="0.0145609281" flag="0"/>
      <psa10 value="0.0034699437" flag="0"/>
      <psa30 value="0.0006535408" flag="0"/>
    </comp>
    <comp name="--.HHZ">
      <acc value="0.0020275867" flag="0"/>
      <vel value="0.0013077275" flag="0"/>
      <psa03 value="0.0058612605" flag="0"/>
      <psa10 value="0.0020069667" flag="0"/>
      <psa30 value="0.0005818446" flag="0"/>
    </comp>
  </station>
  <station code="PENT" name="PENT" netid="HL" insttype="Horizon,120s,1200" commtype="DIG" lat="40.1961" lon="21.1381">
    <comp name="--.HHZ">
      <acc value="0.0042296154" flag="0"/>
      <vel value="0.0037295321" flag="0"/>
      <psa03 value="0.0123890043" flag="0"/>
      <psa10 value="0.0029063879" flag="0"/>
      <psa30 value="0.0011939551" flag="0"/>
    </comp>
    <comp name="--.HHE">
      <acc value="0.0060982728" flag="0"/>
      <vel value="0.0036568205" flag="0"/>
      <psa03 value="0.0260607001" flag="0"/>
      <psa10 value="0.0051567245" flag="0"/>
      <psa30 value="0.0008009888" flag="0"/>
    </comp>
    <comp name="--.HHN">
      <acc value="0.0076157208" flag="0"/>
      <vel value="0.0044108680" flag="0"/>
      <psa03 value="0.0222001927" flag="0"/>
      <psa10 value="0.0041831731" flag="0"/>
      <psa30 value="0.0007296389" flag="0"/>
    </comp>
  </station>
  <station code="PRGA" name="PRGA" netid="HL" insttype="CMG-5" commtype="DIG" lat="39.2856" lon="20.4016">
    <comp name="00.HNE">
      <acc value="0.0002993960" flag="0"/>
      <vel value="-100.0000000000" flag="0"/>
      <psa03 value="0.0005061737" flag="0"/>
      <psa10 value="0.0001243827" flag="0"/>
      <psa30 value="0.0000330858" flag="0"/>
    </comp>
    <comp name="00.HNZ">
      <acc value="0.0350939396" flag="0"/>
      <vel value="0.0139297838" flag="0"/>
      <psa03 value="0.0382995637" flag="0"/>
      <psa10 value="0.0143984396" flag="0"/>
      <psa30 value="0.0019852229" flag="0"/>
    </comp>
    <comp name="00.HNN">
      <acc value="0.0647085149" flag="0"/>
      <vel value="0.0349252041" flag="0"/>
      <psa03 value="0.1647532168" flag="0"/>
      <psa10 value="0.0378753556" flag="0"/>
      <psa30 value="0.0074102004" flag="0"/>
    </comp>
  </station>
  <station code="TETR" name="TETR" netid="HL" insttype="60" commtype="DIG" lat="39.3445" lon="21.2747">
    <comp name="--.HHN">
      <acc value="0.0534384444" flag="0"/>
      <vel value="0.0368085521" flag="0"/>
      <psa03 value="0.1243067063" flag="0"/>
      <psa10 value="0.0379753275" flag="0"/>
      <psa30 value="0.0106334841" flag="0"/>
    </comp>
    <comp name="--.HHE">
      <acc value="0.0721836314" flag="0"/>
      <vel value="0.0360971011" flag="0"/>
      <psa03 value="0.2440257330" flag="0"/>
      <psa10 value="0.0402714471" flag="0"/>
      <psa30 value="0.0079810867" flag="0"/>
    </comp>
    <comp name="--.HHZ">
      <acc value="0.0329458326" flag="0"/>
      <vel value="0.0166318607" flag="0"/>
      <psa03 value="0.0973992221" flag="0"/>
      <psa10 value="0.0235896546" flag="0"/>
      <psa30 value="0.0035829673" flag="0"/>
    </comp>
  </station>
  <station code="THL" name="THL" netid="HL" insttype="120" commtype="DIG" lat="39.5647" lon="22.0144">
    <comp name="--.HHN">
      <acc value="0.0046593429" flag="0"/>
      <vel value="0.0024818294" flag="0"/>
      <psa03 value="0.0103777816" flag="0"/>
      <psa10 value="0.0040030777" flag="0"/>
      <psa30 value="0.0007712927" flag="0"/>
    </comp>
    <comp name="--.HHZ">
      <acc value="0.0023381236" flag="0"/>
      <vel value="0.0016536566" flag="0"/>
      <psa03 value="0.0052216477" flag="0"/>
      <psa10 value="0.0041931322" flag="0"/>
      <psa30 value="0.0006263861" flag="0"/>
    </comp>
    <comp name="--.HHE">
      <acc value="0.0042455050" flag="0"/>
      <vel value="0.0027871413" flag="0"/>
      <psa03 value="0.0104098200" flag="0"/>
      <psa10 value="0.0049403481" flag="0"/>
      <psa30 value="0.0004616344" flag="0"/>
    </comp>
  </station>
  <station code="AMPL" name="AMPL" netid="HP" insttype="Compact," commtype="DIG" lat="38.9224" lon="21.2135">
    <comp name="--.HHE">
      <acc value="0.0125931874" flag="0"/>
      <vel value="0.0072690437" flag="0"/>
      <psa03 value="0.0385073065" flag="0"/>
      <psa10 value="0.0092225868" flag="0"/>
      <psa30 value="0.0020222640" flag="0"/>
    </comp>
    <comp name="--.HHN">
      <acc value="0.0101391852" flag="0"/>
      <vel value="0.0059475181" flag="0"/>
      <psa03 value="0.0320989065" flag="0"/>
      <psa10 value="0.0064718834" flag="0"/>
      <psa30 value="0.0015025877" flag="0"/>
    </comp>
    <comp name="--.HHZ">
      <acc value="0.0059409763" flag="0"/>
      <vel value="0.0043049616" flag="0"/>
      <psa03 value="0.0200015258" flag="0"/>
      <psa10 value="0.0076761756" flag="0"/>
      <psa30 value="0.0006820876" flag="0"/>
    </comp>
  </station>
  <station code="KSTR" name="KSTR" netid="HP" insttype="Compact," commtype="DIG" lat="39.2492" lon="20.576">
    <comp name="--.HHE">
      <acc value="0.0614653487" flag="0"/>
      <vel value="0.0240934627" flag="0"/>
      <psa03 value="0.1154728358" flag="0"/>
      <psa10 value="0.0305175847" flag="0"/>
      <psa30 value="0.0059529797" flag="0"/>
    </comp>
    <comp name="--.HHZ">
      <acc value="0.0320808922" flag="0"/>
      <vel value="0.0143776290" flag="0"/>
      <psa03 value="0.0505196518" flag="0"/>
      <psa10 value="0.0155596101" flag="0"/>
      <psa30 value="0.0028467415" flag="0"/>
    </comp>
    <comp name="--.HHN">
      <acc value="0.0542575249" flag="0"/>
      <vel value="0.0168820981" flag="0"/>
      <psa03 value="0.0909969630" flag="0"/>
      <psa10 value="0.0158456842" flag="0"/>
      <psa30 value="0.0024609163" flag="0"/>
    </comp>
  </station>
  <station code="PDO" name="PDO" netid="HP" insttype="120s" commtype="DIG" lat="38.5986" lon="21.1833">
    <comp name="--.HHN">
      <acc value="0.0070072867" flag="0"/>
      <vel value="0.0070642981" flag="0"/>
      <psa03 value="0.0254152239" flag="0"/>
      <psa10 value="0.0085431245" flag="0"/>
      <psa30 value="0.0007625586" flag="0"/>
    </comp>
    <comp name="--.HHE">
      <acc value="0.0060723432" flag="0"/>
      <vel value="0.0064516777" flag="0"/>
      <psa03 value="0.0180858483" flag="0"/>
      <psa10 value="0.0091813459" flag="0"/>
      <psa30 value="0.0010107168" flag="0"/>
    </comp>
    <comp name="--.HHZ">
      <acc value="0.0034005890" flag="0"/>
      <vel value="0.0016697330" flag="0"/>
      <psa03 value="0.0152040653" flag="0"/>
      <psa10 value="0.0020487419" flag="0"/>
      <psa30 value="0.0002203935" flag="0"/>
    </comp>
  </station>
  <station code="PRMD" name="PRMD" netid="HP" insttype="120P," commtype="DIG" lat="39.5299" lon="21.0965">
    <comp name="--.HHE">
      <acc value="0.0961009396" flag="0"/>
      <vel value="0.0651243566" flag="0"/>
      <psa03 value="0.2206144815" flag="0"/>
      <psa10 value="0.0674104418" flag="0"/>
      <psa30 value="0.0045399104" flag="0"/>
    </comp>
    <comp name="--.HHZ">
      <acc value="0.0410041389" flag="0"/>
      <vel value="0.0334671435" flag="0"/>
      <psa03 value="0.1214779491" flag="0"/>
      <psa10 value="0.0376607742" flag="0"/>
      <psa30 value="0.0048833018" flag="0"/>
    </comp>
    <comp name="--.HHN">
      <acc value="0.1044168581" flag="0"/>
      <vel value="0.0884941643" flag="0"/>
      <psa03 value="0.2248726181" flag="0"/>
      <psa10 value="0.0663370885" flag="0"/>
      <psa30 value="0.0152363753" flag="0"/>
    </comp>
  </station>
  <station code="DRAG" name="DRAG" netid="HT" insttype="30" commtype="DIG" lat="38.6839" lon="20.5746">
    <comp name="--.HHN">
      <acc value="0.0227053773" flag="0"/>
      <vel value="0.0159255694" flag="0"/>
      <psa03 value="0.0758345568" flag="0"/>
      <psa10 value="0.0322947725" flag="0"/>
      <psa30 value="0.0010736900" flag="0"/>
    </comp>
    <comp name="--.HHZ">
      <acc value="0.0101520109" flag="0"/>
      <vel value="0.0053914710" flag="0"/>
      <psa03 value="0.0209715456" flag="0"/>
      <psa10 value="0.0052198518" flag="0"/>
      <psa30 value="0.0006141912" flag="0"/>
    </comp>
    <comp name="--.HHE">
      <acc value="0.0361998071" flag="0"/>
      <vel value="0.0165458753" flag="0"/>
      <psa03 value="0.1152893115" flag="0"/>
      <psa10 value="0.0254239896" flag="0"/>
      <psa30 value="0.0011181113" flag="0"/>
    </comp>
  </station>
  <station code="EVGI" name="EVGI" netid="HT" insttype="30" commtype="DIG" lat="38.621" lon="20.656">
    <comp name="--.HHE">
      <acc value="0.0081920028" flag="0"/>
      <vel value="0.0036740807" flag="0"/>
      <psa03 value="0.0212022947" flag="0"/>
      <psa10 value="0.0059340985" flag="0"/>
      <psa30 value="0.0005156708" flag="0"/>
    </comp>
    <comp name="--.HHZ">
      <acc value="0.0059667159" flag="0"/>
      <vel value="0.0056224409" flag="0"/>
      <psa03 value="0.0164490104" flag="0"/>
      <psa10 value="0.0125561801" flag="0"/>
      <psa30 value="0.0008694706" flag="0"/>
    </comp>
    <comp name="--.HHN">
      <acc value="0.0101518806" flag="0"/>
      <vel value="0.0063113085" flag="0"/>
      <psa03 value="0.0250365380" flag="0"/>
      <psa10 value="0.0120620285" flag="0"/>
      <psa30 value="0.0008465831" flag="0"/>
    </comp>
  </station>
  <station code="IGT" name="IGT" netid="HT" insttype="Compact," commtype="DIG" lat="39.5315" lon="20.3299">
    <comp name="--.HHN">
      <acc value="0.3673706914" flag="0"/>
      <vel value="0.1306854712" flag="0"/>
      <psa03 value="0.4231792631" flag="0"/>
      <psa10 value="0.0982991701" flag="0"/>
      <psa30 value="0.0062239786" flag="0"/>
    </comp>
    <comp name="--.HHE">
      <acc value="0.4051736814" flag="0"/>
      <vel value="0.1832459783" flag="0"/>
      <psa03 value="0.7255507786" flag="0"/>
      <psa10 value="0.1045889838" flag="0"/>
      <psa30 value="0.0144750305" flag="0"/>
    </comp>
    <comp name="--.HHZ">
      <acc value="0.2785180623" flag="0"/>
      <vel value="0.0743986147" flag="0"/>
      <psa03 value="0.3316613117" flag="0"/>
      <psa10 value="0.1083034988" flag="0"/>
      <psa30 value="0.0077465815" flag="0"/>
    </comp>
  </station>
  <station code="KPRO" name="KPRO" netid="HT" insttype="100" commtype="DIG" lat="39.9549" lon="21.3632">
    <comp name="--.HHN">
      <acc value="0.0136143112" flag="0"/>
      <vel value="0.0098743009" flag="0"/>
      <psa03 value="0.0526533597" flag="0"/>
      <psa10 value="0.0114337784" flag="0"/>
      <psa30 value="0.0020029312" flag="0"/>
    </comp>
    <comp name="--.HHE">
      <acc value="0.0201338687" flag="0"/>
      <vel value="0.0097496717" flag="0"/>
      <psa03 value="0.0622653941" flag="0"/>
      <psa10 value="0.0192751092" flag="0"/>
      <psa30 value="0.0026671962" flag="0"/>
    </comp>
    <comp name="--.HHZ">
      <acc value="0.0085742396" flag="0"/>
      <vel value="0.0061219683" flag="0"/>
      <psa03 value="0.0228158418" flag="0"/>
      <psa10 value="0.0093916366" flag="0"/>
      <psa30 value="0.0019074451" flag="0"/>
    </comp>
  </station>
  <station code="LKD2" name="LKD2" netid="HT" insttype="100" commtype="DIG" lat="38.7889" lon="20.6578">
    <comp name="--.HHN">
      <acc value="0.0059098877" flag="0"/>
      <vel value="0.0041613918" flag="0"/>
      <psa03 value="0.0212813403" flag="0"/>
      <psa10 value="0.0082146223" flag="0"/>
      <psa30 value="0.0010584897" flag="0"/>
    </comp>
    <comp name="--.HHE">
      <acc value="0.0076001080" flag="0"/>
      <vel value="0.0047831453" flag="0"/>
      <psa03 value="0.0209755840" flag="0"/>
      <psa10 value="0.0072480711" flag="0"/>
      <psa30 value="0.0011524673" flag="0"/>
    </comp>
    <comp name="--.HHZ">
      <acc value="0.0043810195" flag="0"/>
      <vel value="0.0032432714" flag="0"/>
      <psa03 value="0.0120375399" flag="0"/>
      <psa10 value="0.0045141426" flag="0"/>
      <psa30 value="0.0009008364" flag="0"/>
    </comp>
  </station>
  <station code="NEST" name="NEST" netid="HT" insttype="120P," commtype="DIG" lat="40.4147" lon="21.0489">
    <comp name="--.HHE">
