<?xml version="1.0" encoding="UTF-8" standalone="yes"?>
<!DOCTYPE earthquake SYSTEM "stationlist.dtd">
<stationlist created="" xmlns="ch.ethz.sed.shakemap.usgs.xml">
  <station code="JAN2" name="JAN2" netid="HI" insttype="unknown" commtype="DIG" lat="39.664" lon="20.8522">
    <comp name="--.HNZ">
      <acc value="0.1846739573" flag="0"/>
      <vel value="0.0558063688" flag="0"/>
      <psa03 value="0.3003437777" flag="0"/>
      <psa10 value="0.0946894534" flag="0"/>
      <psa30 value="0.0105372147" flag="0"/>
    </comp>
    <comp name="--.HNN">
      <acc value="0.4971659022" flag="0"/>
      <vel value="0.2276944253" flag="0"/>
      <psa03 value="1.8759648103" flag="0"/>
      <psa10 value="0.1323222158" flag="0"/>
      <psa30 value="0.0154343268" flag="0"/>
    </comp>
    <comp name="--.HNE">
      <acc value="0.3162473222" flag="0"/>
      <vel value="0.1409894020" flag="0"/>
      <psa03 value="1.2083213316" flag="0"/>
      <psa10 value="0.1483912471" flag="0"/>
      <psa30 value="0.0139113835" flag="0"/>
    </comp>
  </station>
  <station code="JAN3" name="JAN3" netid="HI" insttype="unknown" commtype="DIG" lat="39.684" lon="20.8379">
    <comp name="--.HNN">
      <acc value="0.5361467690" flag="0"/>
      <vel value="0.1769364348" flag="0"/>
      <psa03 value="0.9727413477" flag="0"/>
      <psa10 value="0.0945924053" flag="0"/>
      <psa30 value="0.0123204988" flag="0"/>
    </comp>
    <comp name="--.HNE">
      <acc value="0.6466683741" flag="0"/>
      <vel value="0.2333054396" flag="0"/>
      <psa03 value="1.2396460726" flag="0"/>
      <psa10 value="0.1066643201" flag="0"/>
      <psa30 value="0.0069685980" flag="0"/>
    </comp>
    <comp name="--.HNZ">
      <acc value="0.2840609584" flag="0"/>
      <vel value="0.0842221438" flag="0"/>
      <psa03 value="0.3661843393" flag="0"/>
      <psa10 value="0.0741724765" flag="0"/>
      <psa30 value="0.0104184199" flag="0"/>
    </comp>
  </station>
  <station code="KNS1" name="KNS1" netid="HI" insttype="unknown" commtype="DIG" lat="40.048" lon="20.7524">
    <comp name="--.HNN">
      <acc value="0.0509473470" flag="0"/>
      <vel value="0.0170246932" flag="0"/>
      <psa03 value="0.0903660267" flag="0"/>
      <psa10 value="0.0211205293" flag="0"/>
      <psa30 value="0.0022793206" flag="0"/>
    </comp>
    <comp name="--.HNE">
      <acc value="0.0370561045" flag="0"/>
      <vel value="0.0296954464" flag="0"/>
      <psa03 value="0.1017158497" flag="0"/>
      <psa10 value="0.0252462588" flag="0"/>
      <psa30 value="0.0068496826" flag="0"/>
    </comp>
    <comp name="--.HNZ">
      <acc value="0.0302475696" flag="0"/>
      <vel value="0.0143457329" flag="0"/>
      <psa03 value="0.0623471045" flag="0"/>
      <psa10 value="0.0167785550" flag="0"/>
      <psa30 value="0.0030613790" flag="0"/>
    </comp>
  </station>
  <station code="KRK1" name="KRK1" netid="HI" insttype="CMG-5TD,ACCELEROMETER,GURALP" commtype="DIG" lat="39.6189" lon="19.9202">
    <comp name="--.HNN">
      <acc value="0.0541319351" flag="0"/>
      <vel value="0.0268507451" flag="0"/>
      <psa03 value="0.0989758178" flag="0"/>
      <psa10 value="0.0316875335" flag="0"/>
      <psa30 value="0.0024132701" flag="0"/>
    </comp>
    <comp name="--.HNE">
      <acc value="0.0429164674" flag="0"/>
      <vel value="0.0210345229" flag="0"/>
      <psa03 value="0.1043416039" flag="0"/>
      <psa10 value="0.0164315962" flag="0"/>
      <psa30 value="0.0024355121" flag="0"/>
    </comp>
    <comp name="--.HNZ">
      <acc value="0.0222303837" flag="0"/>
      <vel value="0.0084163379" flag="0"/>
      <psa03 value="0.0612212351" flag="0"/>
      <psa10 value="0.0086479026" flag="0"/>
      <psa30 value="0.0008587400" flag="0"/>
    </comp>
  </station>
  <station code="PRE2" name="PRE2" netid="HI" insttype="unknown" commtype="DIG" lat="38.9577" lon="20.7548">
    <comp name="--.HNE">
      <acc value="0.0274087693" flag="0"/>
      <vel value="0.0316859239" flag="0"/>
      <psa03 value="0.1012408165" flag="0"/>
      <psa10 value="0.0697471980" flag="0"/>
      <psa30 value="0.0071119019" flag="0"/>
    </comp>
    <comp name="--.HNN">
      <acc value="0.0359223692" flag="0"/>
      <vel value="0.0244564426" flag="0"/>
      <psa03 value="0.1503133775" flag="0"/>
      <psa10 value="0.0313531678" flag="0"/>
      <psa30 value="0.0087031695" flag="0"/>
    </comp>
    <comp name="--.HNZ">
      <acc value="0.0168369143" flag="0"/>
      <vel value="0.0114699138" flag="0"/>
      <psa03 value="0.0571869181" flag="0"/>
      <psa10 value="0.0174812289" flag="0"/>
      <psa30 value="0.0020495723" flag="0"/>
    </comp>
  </station>
  <station code="ARTB" name="ARTB" netid="HL" insttype="CMG-5" commtype="DIG" lat="39.157" lon="20.9785">
    <comp name="00.HNZ">
      <acc value="0.0812371033" flag="0"/>
      <vel value="0.0214073647" flag="0"/>
      <psa03 value="0.0999337314" flag="0"/>
      <psa10 value="0.0183356920" flag="0"/>
      <psa30 value="0.0016723501" flag="0"/>
    </comp>
    <comp name="00.HNN">
      <acc value="0.0455845310" flag="0"/>
      <vel value="0.0230709957" flag="0"/>
      <psa03 value="0.1438636754" flag="0"/>
      <psa10 value="0.0160980226" flag="0"/>
      <psa30 value="0.0040421536" flag="0"/>
    </comp>
    <comp name="00.HNE">
      <acc value="0.0768191922" flag="0"/>
      <vel value="0.0312886007" flag="0"/>
      <psa03 value="0.2987727513" flag="0"/>
      <psa10 value="0.0197692677" flag="0"/>
      <psa30 value="0.0032538067" flag="0"/>
    </comp>
  </station>
  <station code="JAN" name="JAN" netid="HL" insttype="CMG3EPSC60_DR24" commtype="DIG" lat="39.6562" lon="20.8487">
    <comp name="--.HHE">
      <acc value="0.2560852125" flag="0"/>
      <vel value="0.0943307668" flag="0"/>
      <psa03 value="0.3163490550" flag="0"/>
      <psa10 value="0.1407439056" flag="0"/>
      <psa30 value="0.0108188648" flag="0"/>
    </comp>
    <comp name="--.HHN">
      <acc value="0.2112926581" flag="0"/>
      <vel value="0.0909501507" flag="0"/>
      <psa03 value="0.5451139203" flag="0"/>
      <psa10 value="0.0835459583" flag="0"/>
      <psa30 value="0.0119795940" flag="0"/>
    </comp>
    <comp name="--.HHZ">
      <acc value="0.1456209440" flag="0"/>
      <vel value="0.0655727750" flag="0"/>
      <psa03 value="0.1833152603" flag="0"/>
      <psa10 value="0.1006206567" flag="0"/>
      <psa30 value="0.0098665715" flag="0"/>
    </comp>
  </station>
  <station code="KEK" name="KEK" netid="HL" insttype="120" commtype="DIG" lat="39.7127" lon="19.7962">
    <comp name="--.HHZ">
      <acc value="0.0057009506" flag="0"/>
      <vel value="0.0052901670" flag="0"/>
      <psa03 value="0.0139394912" flag="0"/>
      <psa10 value="0.0090248816" flag="0"/>
      <psa30 value="0.0017171838" flag="0"/>
    </comp>
    <comp name="--.HHE">
      <acc value="0.0104967859" flag="0"/>
      <vel value="0.0087418363" flag="0"/>
      <psa03 value="0.0437098476" flag="0"/>
      <psa10 value="0.0090840811" flag="0"/>
      <psa30 value="0.0020583117" flag="0"/>
    </comp>
    <comp name="--.HHN">
      <acc value="0.0084462106" flag="0"/>
      <vel value="0.0075501005" flag="0"/>
      <psa03 value="0.0261073653" flag="0"/>
      <psa10 value="0.0072750645" flag="0"/>
      <psa30 value="0.0019407681" flag="0"/>
    </comp>
  </station>
  <station code="KZN" name="KZN" netid="HL" insttype="120" commtype="DIG" lat="40.3033" lon="21.7821">
    <comp name="--.HHE">
      <acc value="0.0047348336" flag="0"/>
      <vel value="0.0030480452" flag="0"/>
      <psa03 value="0.0145609281" flag="0"/>
      <psa10 value="0.0034699437" flag="0"/>
      <psa30 value="0.0006535398" flag="0"/>
    </comp>
    <comp name="--.HHZ">
      <acc value="0.0020275868" flag="0"/>
      <vel value="0.0013077276" flag="0"/>
      <psa03 value="0.0058612605" flag="0"/>
      <psa10 value="0.0020069667" flag="0"/>
      <psa30 value="0.0005818446" flag="0"/>
    </comp>
    <comp name="--.HHN">
      <acc value="0.0027768821" flag="0"/>
      <vel value="0.0021863886" flag="0"/>
      <psa03 value="0.0086229585" flag="0"/>
      <psa10 value="0.0025560227" flag="0"/>
      <psa30 value="0.0005455604" flag="0"/>
    </comp>
  </station>
  <station code="PENT" name="PENT" netid="HL" insttype="Horizon,120s,1200" commtype="DIG" lat="40.1961" lon="21.1381">
    <comp name="--.HHZ">
      <acc value="0.0042296152" flag="0"/>
      <vel value="0.0037295321" flag="0"/>
      <psa03 value="0.0123890043" flag="0"/>
      <psa10 value="0.0029063879" flag="0"/>
      <psa30 value="0.0011939522" flag="0"/>
    </comp>
    <comp name="--.HHN">
      <acc value="0.0076157208" flag="0"/>
      <vel value="0.0044108674" flag="0"/>
      <psa03 value="0.0222001927" flag="0"/>
      <psa10 value="0.0041831731" flag="0"/>
      <psa30 value="0.0007296191" flag="0"/>
    </comp>
    <comp name="--.HHE">
      <acc value="0.0060982728" flag="0"/>
      <vel value="0.0036568201" flag="0"/>
      <psa03 value="0.0260607001" flag="0"/>
      <psa10 value="0.0051567245" flag="0"/>
      <psa30 value="0.0008009848" flag="0"/>
    </comp>
  </station>
  <station code="PRGA" name="PRGA" netid="HL" insttype="CMG-5" commtype="DIG" lat="39.2856" lon="20.4016">
    <comp name="00.HNN">
      <acc value="0.0647085134" flag="0"/>
      <vel value="0.0349252033" flag="0"/>
      <psa03 value="0.1647532168" flag="0"/>
      <psa10 value="0.0378753522" flag="0"/>
      <psa30 value="0.0074103453" flag="0"/>
    </comp>
    <comp name="00.HNE">
      <acc value="0.0008487304" flag="0"/>
      <vel value="-100.0000000000" flag="0"/>
      <psa03 value="0.0004913335" flag="0"/>
      <psa10 value="0.0001305012" flag="0"/>
      <psa30 value="0.0000412765" flag="0"/>
    </comp>
    <comp name="00.HNZ">
      <acc value="0.0350939408" flag="0"/>
      <vel value="0.0139297815" flag="0"/>
      <psa03 value="0.0382995637" flag="0"/>
      <psa10 value="0.0143984419" flag="0"/>
      <psa30 value="0.0019849405" flag="0"/>
    </comp>
  </station>
  <station code="TETR" name="TETR" netid="HL" insttype="60" commtype="DIG" lat="39.3445" lon="21.2747">
    <comp name="--.HHN">
      <acc value="0.0534384446" flag="0"/>
      <vel value="0.0368085538" flag="0"/>
      <psa03 value="0.1243067063" flag="0"/>
      <psa10 value="0.0379753275" flag="0"/>
      <psa30 value="0.0106335090" flag="0"/>
    </comp>
    <comp name="--.HHZ">
      <acc value="0.0329458327" flag="0"/>
      <vel value="0.0166318606" flag="0"/>
      <psa03 value="0.0973992221" flag="0"/>
      <psa10 value="0.0235896546" flag="0"/>
      <psa30 value="0.0035830010" flag="0"/>
    </comp>
    <comp name="--.HHE">
      <acc value="0.0721836316" flag="0"/>
      <vel value="0.0360971014" flag="0"/>
      <psa03 value="0.2440257330" flag="0"/>
      <psa10 value="0.0402714474" flag="0"/>
      <psa30 value="0.0079810459" flag="0"/>
    </comp>
  </station>
  <station code="THL" name="THL" netid="HL" insttype="120" commtype="DIG" lat="39.5647" lon="22.0144">
    <comp name="--.HHE">
      <acc value="0.0042455049" flag="0"/>
      <vel value="0.0027871420" flag="0"/>
      <psa03 value="0.0104098200" flag="0"/>
      <psa10 value="0.0049403481" flag="0"/>
      <psa30 value="0.0004616252" flag="0"/>
    </comp>
    <comp name="--.HHN">
      <acc value="0.0046593431" flag="0"/>
      <vel value="0.0024818297" flag="0"/>
      <psa03 value="0.0103777816" flag="0"/>
      <psa10 value="0.0040030777" flag="0"/>
      <psa30 value="0.0007713149" flag="0"/>
    </comp>
    <comp name="--.HHZ">
      <acc value="0.0023381235" flag="0"/>
      <vel value="0.0016536567" flag="0"/>
      <psa03 value="0.0052216477" flag="0"/>
      <psa10 value="0.0041931322" flag="0"/>
      <psa30 value="0.0006263886" flag="0"/>
    </comp>
  </station>
  <station code="AMPL" name="AMPL" netid="HP" insttype="Compact," commtype="DIG" lat="38.9224" lon="21.2135">
    <comp name="--.HHN">
      <acc value="0.0101391870" flag="0"/>
      <vel value="0.0059475179" flag="0"/>
      <psa03 value="0.0320989065" flag="0"/>
      <psa10 value="0.0064718834" flag="0"/>
      <psa30 value="0.0015026009" flag="0"/>
    </comp>
    <comp name="--.HHE">
      <acc value="0.0125931867" flag="0"/>
      <vel value="0.0072690439" flag="0"/>
      <psa03 value="0.0385073065" flag="0"/>
      <psa10 value="0.0092225868" flag="0"/>
      <psa30 value="0.0020222907" flag="0"/>
    </comp>
    <comp name="--.HHZ">
      <acc value="0.0059409774" flag="0"/>
      <vel value="0.0043049609" flag="0"/>
      <psa03 value="0.0200015258" flag="0"/>
      <psa10 value="0.0076761756" flag="0"/>
      <psa30 value="0.0006820865" flag="0"/>
    </comp>
  </station>
  <station code="KSTR" name="KSTR" netid="HP" insttype="Compact," commtype="DIG" lat="39.2492" lon="20.576">
    <comp name="--.HHE">
      <acc value="0.0614653485" flag="0"/>
      <vel value="0.0240934636" flag="0"/>
      <psa03 value="0.1154728358" flag="0"/>
      <psa10 value="0.0305175846" flag="0"/>
      <psa30 value="0.0059531333" flag="0"/>
    </comp>
    <comp name="--.HHN">
      <acc value="0.0542575245" flag="0"/>
      <vel value="0.0168820980" flag="0"/>
      <psa03 value="0.0909969630" flag="0"/>
      <psa10 value="0.0158456845" flag="0"/>
      <psa30 value="0.0024608753" flag="0"/>
    </comp>
    <comp name="--.HHZ">
      <acc value="0.0320808927" flag="0"/>
      <vel value="0.0143776288" flag="0"/>
      <psa03 value="0.0505196518" flag="0"/>
      <psa10 value="0.0155596098" flag="0"/>
      <psa30 value="0.0028467244" flag="0"/>
    </comp>
  </station>
  <station code="PDO" name="PDO" netid="HP" insttype="120s" commtype="DIG" lat="38.5986" lon="21.1833">
    <comp name="--.HHE">
      <acc value="0.0060723432" flag="0"/>
      <vel value="0.0064516776" flag="0"/>
      <psa03 value="0.0180858483" flag="0"/>
      <psa10 value="0.0091813459" flag="0"/>
      <psa30 value="0.0010107180" flag="0"/>
    </comp>
    <comp name="--.HHN">
      <acc value="0.0070072867" flag="0"/>
      <vel value="0.0070642978" flag="0"/>
      <psa03 value="0.0254152239" flag="0"/>
      <psa10 value="0.0085431245" flag="0"/>
      <psa30 value="0.0007625649" flag="0"/>
    </comp>
    <comp name="--.HHZ">
      <acc value="0.0034005890" flag="0"/>
      <vel value="0.0016697327" flag="0"/>
      <psa03 value="0.0152040653" flag="0"/>
      <psa10 value="0.0020487419" flag="0"/>
      <psa30 value="0.0002204021" flag="0"/>
    </comp>
  </station>
  <station code="PRMD" name="PRMD" netid="HP" insttype="120P," commtype="DIG" lat="39.5299" lon="21.0965">
    <comp name="--.HHE">
      <acc value="0.0961009394" flag="0"/>
      <vel value="0.0651243574" flag="0"/>
      <psa03 value="0.2206144815" flag="0"/>
      <psa10 value="0.0674104413" flag="0"/>
      <psa30 value="0.0045396722" flag="0"/>
    </comp>
    <comp name="--.HHN">
      <acc value="0.1044168582" flag="0"/>
      <vel value="0.0884941646" flag="0"/>
      <psa03 value="0.2248726181" flag="0"/>
      <psa10 value="0.0663370884" flag="0"/>
      <psa30 value="0.0152364236" flag="0"/>
    </comp>
    <comp name="--.HHZ">
      <acc value="0.0410041390" flag="0"/>
      <vel value="0.0334671442" flag="0"/>
      <psa03 value="0.1214779491" flag="0"/>
      <psa10 value="0.0376607740" flag="0"/>
      <psa30 value="0.0048833271" flag="0"/>
    </comp>
  </station>
  <station code="DRAG" name="DRAG" netid="HT" insttype="30" commtype="DIG" lat="38.6839" lon="20.5746">
    <comp name="--.HHN">
      <acc value="0.0227053772" flag="0"/>
      <vel value="0.0159255597" flag="0"/>
      <psa03 value="0.0758345568" flag="0"/>
      <psa10 value="0.0322947724" flag="0"/>
      <psa30 value="0.0010738586" flag="0"/>
    </comp>
    <comp name="--.HHZ">
      <acc value="0.0101520107" flag="0"/>
      <vel value="0.0053914694" flag="0"/>
      <psa03 value="0.0209715456" flag="0"/>
      <psa10 value="0.0052198517" flag="0"/>
      <psa30 value="0.0006141745" flag="0"/>
    </comp>
    <comp name="--.HHE">
      <acc value="0.0361998059" flag="0"/>
      <vel value="0.0165458734" flag="0"/>
      <psa03 value="0.1152893115" flag="0"/>
      <psa10 value="0.0254239895" flag="0"/>
      <psa30 value="0.0011184873" flag="0"/>
    </comp>
  </station>
  <station code="EVGI" name="EVGI" netid="HT" insttype="30" commtype="DIG" lat="38.621" lon="20.656">
    <comp name="--.HHZ">
      <acc value="0.0059667155" flag="0"/>
      <vel value="0.0056224321" flag="0"/>
      <psa03 value="0.0164490103" flag="0"/>
      <psa10 value="0.0125561801" flag="0"/>
      <psa30 value="0.0008695014" flag="0"/>
    </comp>
    <comp name="--.HHE">
      <acc value="0.0081920031" flag="0"/>
      <vel value="0.0036740848" flag="0"/>
      <psa03 value="0.0212022947" flag="0"/>
      <psa10 value="0.0059340985" flag="0"/>
      <psa30 value="0.0005156792" flag="0"/>
    </comp>
    <comp name="--.HHN">
      <acc value="0.0101518810" flag="0"/>
      <vel value="0.0063113134" flag="0"/>
      <psa03 value="0.0250365380" flag="0"/>
      <psa10 value="0.0120620285" flag="0"/>
      <psa30 value="0.0008466479" flag="0"/>
    </comp>
  </station>
  <station code="IGT" name="IGT" netid="HT" insttype="Compact," commtype="DIG" lat="39.5315" lon="20.3299">
    <comp name="--.HHZ">
      <acc value="0.2785180626" flag="0"/>
      <vel value="0.0743986121" flag="0"/>
      <psa03 value="0.3316613117" flag="0"/>
      <psa10 value="0.1083034991" flag="0"/>
      <psa30 value="0.0077468934" flag="0"/>
    </comp>
    <comp name="--.HHE">
      <acc value="0.4051736809" flag="0"/>
      <vel value="0.1832459775" flag="0"/>
      <psa03 value="0.7255507786" flag="0"/>
      <psa10 value="0.1045889812" flag="0"/>
      <psa30 value="0.0144749710" flag="0"/>
    </comp>
    <comp name="--.HHN">
      <acc value="0.3673706912" flag="0"/>
      <vel value="0.1306854709" flag="0"/>
      <psa03 value="0.4231792631" flag="0"/>
      <psa10 value="0.0982991662" flag="0"/>
      <psa30 value="0.0062239617" flag="0"/>
    </comp>
  </station>
  <station code="KPRO" name="KPRO" netid="HT" insttype="100" commtype="DIG" lat="39.9549" lon="21.3632">
    <comp name="--.HHN">
      <acc value="0.0136143114" flag="0"/>
      <vel value="0.0098743002" flag="0"/>
      <psa03 value="0.0526533597" flag="0"/>
      <psa10 value="0.0114337784" flag="0"/>
      <psa30 value="0.0020028859" flag="0"/>
    </comp>
    <comp name="--.HHZ">
      <acc value="0.0085742394" flag="0"/>
      <vel value="0.0061219682" flag="0"/>
      <psa03 value="0.0228158418" flag="0"/>
      <psa10 value="0.0093916366" flag="0"/>
      <psa30 value="0.0019074672" flag="0"/>
    </comp>
    <comp name="--.HHE">
      <acc value="0.0201338690" flag="0"/>
      <vel value="0.0097496716" flag="0"/>
      <psa03 value="0.0622653941" flag="0"/>
      <psa10 value="0.0192751092" flag="0"/>
      <psa30 value="0.0026671811" flag="0"/>
    </comp>
  </station>
  <station code="LKD2" name="LKD2" netid="HT" insttype="100" commtype="DIG" lat="38.7889" lon="20.6578">
    <comp name="--.HHE">
      <acc value="0.0076001079" flag="0"/>
      <vel value="0.0047831450" flag="0"/>
      <psa03 value="0.0209755840" flag="0"/>
      <psa10 value="0.0072480711" flag="0"/>
      <psa30 value="0.0011524755" flag="0"/>
    </comp>
    <comp name="--.HHN">
      <acc value="0.0059098878" flag="0"/>
      <vel value="0.0041613929" flag="0"/>
      <psa03 value="0.0212813403" flag="0"/>
      <psa10 value="0.0082146223" flag="0"/>
      <psa30 value="0.0010584805" flag="0"/>
    </comp>
    <comp name="--.HHZ">
      <acc value="0.0043810196" flag="0"/>
      <vel value="0.0032432698" flag="0"/>
      <psa03 value="0.0120375399" flag="0"/>
      <psa10 value="0.0045141426" flag="0"/>
      <psa30 value="0.0009008361" flag="0"/>
    </comp>
  </station>
  <station code="NEST" name="NEST" netid="HT" insttype="120P," commtype="DIG" lat="40.4147" lon="21.0489">
    <comp name="--.HHN">
