<?xml version="1.0" encoding="UTF-8" standalone="yes"?>
<!DOCTYPE earthquake SYSTEM "stationlist.dtd">
<stationlist created="" xmlns="ch.ethz.sed.shakemap.usgs.xml">
  <station code="KEK" name="KEK" netid="MN" insttype="" commtype="DIG" lat="39.7127" lon="19.7962">
    <comp name="--.HHZ">
      <acc value="0.0057009467" flag="0"/>
      <vel value="0.0052901627" flag="0"/>
      <psa03 value="0.0139394815" flag="0"/>
      <psa10 value="0.0090248753" flag="0"/>
      <psa30 value="0.0017171919" flag="0"/>
    </comp>
    <comp name="--.HHN">
      <acc value="0.0084462048" flag="0"/>
      <vel value="0.0075500958" flag="0"/>
      <psa03 value="0.0261073472" flag="0"/>
      <psa10 value="0.0072750595" flag="0"/>
      <psa30 value="0.0019408015" flag="0"/>
    </comp>
    <comp name="--.HHE">
      <acc value="0.0104967787" flag="0"/>
      <vel value="0.0087418288" flag="0"/>
      <psa03 value="0.0437098173" flag="0"/>
      <psa10 value="0.0090840748" flag="0"/>
      <psa30 value="0.0020583135" flag="0"/>
    </comp>
  </station>
  <station code="THL" name="THL" netid="MN" insttype="" commtype="DIG" lat="39.5647" lon="22.0144">
    <comp name="--.HHE">
      <acc value="0.0042455050" flag="0"/>
      <vel value="0.0027871413" flag="0"/>
      <psa03 value="0.0104098200" flag="0"/>
      <psa10 value="0.0049403481" flag="0"/>
      <psa30 value="0.0004616344" flag="0"/>
    </comp>
    <comp name="--.HHN">
      <acc value="0.0046593429" flag="0"/>
      <vel value="0.0024818294" flag="0"/>
      <psa03 value="0.0103777816" flag="0"/>
      <psa10 value="0.0040030777" flag="0"/>
      <psa30 value="0.0007712927" flag="0"/>
    </comp>
    <comp name="--.HHZ">
      <acc value="0.0023381236" flag="0"/>
      <vel value="0.0016536566" flag="0"/>
      <psa03 value="0.0052216477" flag="0"/>
      <psa10 value="0.0041931322" flag="0"/>
      <psa30 value="0.0006263861" flag="0"/>
    </comp>
  </station>
</stationlist>
