<?xml version="1.0" encoding="UTF-8" standalone="yes"?>
<!DOCTYPE earthquake SYSTEM "stationlist.dtd">
<stationlist created="" xmlns="ch.ethz.sed.shakemap.usgs.xml">
  <station code="DARE" name="DARE" netid="KO" insttype="CMG-3ESP" lat="38.5712" lon="37.4832">
    <comp name="--.HHE">
      <acc value="0.0080559031" flag="0"/>
      <vel value="0.0054095306" flag="0"/>
      <psa03 value="0.0211965724" flag="0"/>
      <psa10 value="0.0103865723" flag="0"/>
      <psa30 value="0.0007270336" flag="0"/>
    </comp>
    <comp name="--.HHZ">
      <acc value="0.0050885247" flag="0"/>
      <vel value="0.0054365681" flag="0"/>
      <psa03 value="0.0190749358" flag="0"/>
      <psa10 value="0.0069565499" flag="0"/>
      <psa30 value="0.0007752942" flag="0"/>
    </comp>
    <comp name="--.HHN">
      <acc value="0.0064019614" flag="0"/>
      <vel value="0.0053595842" flag="0"/>
      <psa03 value="0.0182560497" flag="0"/>
      <psa10 value="0.0104855273" flag="0"/>
      <psa30 value="0.0006870192" flag="0"/>
    </comp>
  </station>
  <station code="URFA" name="URFA" netid="KO" insttype="CMG-3ESP" lat="37.4409" lon="38.8213">
    <comp name="--.HHZ">
      <acc value="0.0636341120" flag="0"/>
      <vel value="0.0116104307" flag="0"/>
      <psa03 value="0.0317964678" flag="0"/>
      <psa10 value="0.0105141889" flag="0"/>
      <psa30 value="0.0028667243" flag="0"/>
    </comp>
  </station>
</stationlist>
