<?xml version="1.0" encoding="UTF-8" standalone="yes"?>
<!DOCTYPE earthquake SYSTEM "stationlist.dtd">
<stationlist created="" xmlns="ch.ethz.sed.shakemap.usgs.xml">
  <station code="ARPRA" name="ARPRA" netid="KO" insttype="CMG-5T" lat="39.0929" lon="38.3356">
    <comp name="--.HNZ">
      <acc value="0.0146794156" flag="0"/>
      <vel value="0.0110029866" flag="0"/>
      <psa03 value="0.0315676001" flag="0"/>
      <psa10 value="0.0126367270" flag="0"/>
      <psa30 value="0.0010442136" flag="0"/>
    </comp>
    <comp name="--.HNN">
      <acc value="0.0309915582" flag="0"/>
      <vel value="0.0201307517" flag="0"/>
      <psa03 value="0.0892607787" flag="0"/>
      <psa10 value="0.0324415602" flag="0"/>
      <psa30 value="0.0018199469" flag="0"/>
    </comp>
    <comp name="--.HNE">
      <acc value="0.0386225317" flag="0"/>
      <vel value="0.0283914299" flag="0"/>
      <psa03 value="0.0815406598" flag="0"/>
      <psa10 value="0.0253508857" flag="0"/>
      <psa30 value="0.0031602592" flag="0"/>
    </comp>
  </station>
  <station code="DARE" name="DARE" netid="KO" insttype="CMG-3ESP" lat="38.5712" lon="37.4832">
    <comp name="--.HHE">
      <acc value="0.0080559029" flag="0"/>
      <vel value="0.0054095313" flag="0"/>
      <psa03 value="0.0211965724" flag="0"/>
      <psa10 value="0.0103865723" flag="0"/>
      <psa30 value="0.0007270172" flag="0"/>
    </comp>
    <comp name="--.HHZ">
      <acc value="0.0050885247" flag="0"/>
      <vel value="0.0054365681" flag="0"/>
      <psa03 value="0.0190749358" flag="0"/>
      <psa10 value="0.0069565500" flag="0"/>
      <psa30 value="0.0007753080" flag="0"/>
    </comp>
    <comp name="--.HHN">
      <acc value="0.0064019615" flag="0"/>
      <vel value="0.0053595841" flag="0"/>
      <psa03 value="0.0182560497" flag="0"/>
      <psa10 value="0.0104855273" flag="0"/>
      <psa30 value="0.0006871188" flag="0"/>
    </comp>
  </station>
  <station code="URFA" name="URFA" netid="KO" insttype="CMG-3ESP" lat="37.4409" lon="38.8213">
    <comp name="--.HHZ">
      <acc value="0.0636341119" flag="0"/>
      <vel value="0.0116104312" flag="0"/>
      <psa03 value="0.0317964678" flag="0"/>
      <psa10 value="0.0105141889" flag="0"/>
      <psa30 value="0.0028667294" flag="0"/>
    </comp>
  </station>
</stationlist>
