<?xml version="1.0" encoding="UTF-8" standalone="yes"?>
<!DOCTYPE earthquake SYSTEM "stationlist.dtd">
<stationlist created="" xmlns="ch.ethz.sed.shakemap.usgs.xml">
  <station code="AGRB" name="AGRB" netid="KO" insttype="CMG-3T" lat="39.5755" lon="42.992">
    <comp name="--.HHZ">
      <acc value="0.0079283303" flag="0"/>
      <vel value="0.0055132570" flag="0"/>
      <psa03 value="0.0253329953" flag="0"/>
      <psa10 value="0.0067707455" flag="0"/>
      <psa30 value="0.0006514008" flag="0"/>
    </comp>
    <comp name="--.HHE">
      <acc value="0.0165387965" flag="0"/>
      <vel value="0.0115553815" flag="0"/>
      <psa03 value="0.0407173047" flag="0"/>
      <psa10 value="0.0210321917" flag="0"/>
      <psa30 value="0.0020975955" flag="0"/>
    </comp>
    <comp name="--.HHN">
      <acc value="0.0117696158" flag="0"/>
      <vel value="0.0103897211" flag="0"/>
      <psa03 value="0.0280630432" flag="0"/>
      <psa10 value="0.0101004870" flag="0"/>
      <psa30 value="0.0014992869" flag="0"/>
    </comp>
  </station>
  <station code="KARS" name="KARS" netid="KO" insttype="CMG-3T" lat="40.6152" lon="43.0937">
    <comp name="--.HHN">
      <acc value="0.0541297960" flag="0"/>
      <vel value="0.0180077305" flag="0"/>
      <psa03 value="0.0691039876" flag="0"/>
      <psa10 value="0.0074431273" flag="0"/>
      <psa30 value="0.0008668406" flag="0"/>
    </comp>
    <comp name="--.HHE">
      <acc value="0.0769279818" flag="0"/>
      <vel value="0.0274576846" flag="0"/>
      <psa03 value="0.1538503322" flag="0"/>
      <psa10 value="0.0100953405" flag="0"/>
      <psa30 value="0.0011628622" flag="0"/>
    </comp>
    <comp name="--.HHZ">
      <acc value="0.0283923578" flag="0"/>
      <vel value="0.0109050668" flag="0"/>
      <psa03 value="0.0616989970" flag="0"/>
      <psa10 value="0.0135119391" flag="0"/>
      <psa30 value="0.0015950124" flag="0"/>
    </comp>
  </station>
  <station code="KOPR" name="KOPR" netid="KO" insttype="CMG-3T" lat="39.9917" lon="41.8535">
    <comp name="--.HHE">
      <acc value="0.0100963230" flag="0"/>
      <vel value="0.0065332585" flag="0"/>
      <psa03 value="0.0286111836" flag="0"/>
      <psa10 value="0.0056838557" flag="0"/>
      <psa30 value="0.0004768523" flag="0"/>
    </comp>
    <comp name="--.HHN">
      <acc value="0.0117826092" flag="0"/>
      <vel value="0.0074311257" flag="0"/>
      <psa03 value="0.0378037446" flag="0"/>
      <psa10 value="0.0083603354" flag="0"/>
      <psa30 value="0.0005074044" flag="0"/>
    </comp>
    <comp name="--.HHZ">
      <acc value="0.0056199232" flag="0"/>
      <vel value="0.0035222955" flag="0"/>
      <psa03 value="0.0221615787" flag="0"/>
      <psa10 value="0.0042109221" flag="0"/>
      <psa30 value="0.0005329744" flag="0"/>
    </comp>
  </station>
  <station code="MLAZ" name="MLAZ" netid="KO" insttype="CMG-3T" lat="39.141" lon="42.5496">
    <comp name="--.HHE">
      <acc value="0.0040178228" flag="0"/>
      <vel value="0.0028949193" flag="0"/>
      <psa03 value="0.0187424973" flag="0"/>
      <psa10 value="0.0047005392" flag="0"/>
      <psa30 value="0.0012094387" flag="0"/>
    </comp>
    <comp name="--.HHN">
      <acc value="0.0042545177" flag="0"/>
      <vel value="0.0031719761" flag="0"/>
      <psa03 value="0.0207961176" flag="0"/>
      <psa10 value="0.0044545590" flag="0"/>
      <psa30 value="0.0009169287" flag="0"/>
    </comp>
    <comp name="--.HHZ">
      <acc value="0.0034733491" flag="0"/>
      <vel value="0.0024211433" flag="0"/>
      <psa03 value="0.0090809448" flag="0"/>
      <psa10 value="0.0051223859" flag="0"/>
      <psa30 value="0.0003172524" flag="0"/>
    </comp>
  </station>
  <station code="SENK" name="SENK" netid="KO" insttype="CMG-3T" lat="40.5614" lon="42.3505">
    <comp name="--.HHN">
      <acc value="0.0149437803" flag="0"/>
      <vel value="0.0083522179" flag="0"/>
      <psa03 value="0.0768266201" flag="0"/>
      <psa10 value="0.0071028899" flag="0"/>
      <psa30 value="0.0004842186" flag="0"/>
    </comp>
  </station>
  <station code="TASB" name="TASB" netid="KO" insttype="CMG-3T" lat="39.9838" lon="44.2384">
    <comp name="--.HHE">
      <acc value="0.0022053972" flag="0"/>
      <vel value="0.0025978517" flag="0"/>
      <psa03 value="0.0076492884" flag="0"/>
      <psa10 value="0.0043468435" flag="0"/>
      <psa30 value="0.0006663343" flag="0"/>
    </comp>
    <comp name="--.HHN">
      <acc value="0.0024957521" flag="0"/>
      <vel value="0.0018431250" flag="0"/>
      <psa03 value="0.0071571376" flag="0"/>
      <psa10 value="0.0030659913" flag="0"/>
      <psa30 value="0.0006524270" flag="0"/>
    </comp>
    <comp name="--.HHZ">
      <acc value="0.0023191133" flag="0"/>
      <vel value="0.0014234495" flag="0"/>
      <psa03 value="0.0074673342" flag="0"/>
      <psa10 value="0.0029557169" flag="0"/>
      <psa30 value="0.0005211618" flag="0"/>
    </comp>
  </station>
</stationlist>
