<?xml version="1.0" encoding="UTF-8" standalone="yes"?>
<!DOCTYPE earthquake SYSTEM "stationlist.dtd">
<stationlist created="" xmlns="ch.ethz.sed.shakemap.usgs.xml">
  <station code="AGRB" name="AGRB" netid="KO" insttype="CMG-3T" lat="39.5755" lon="42.992">
    <comp name="--.HHE">
      <acc value="0.0165387966" flag="0"/>
      <vel value="0.0115553806" flag="0"/>
      <psa03 value="0.0407173047" flag="0"/>
      <psa10 value="0.0210321917" flag="0"/>
      <psa30 value="0.0020975944" flag="0"/>
    </comp>
    <comp name="--.HHZ">
      <acc value="0.0079283303" flag="0"/>
      <vel value="0.0055132583" flag="0"/>
      <psa03 value="0.0253329953" flag="0"/>
      <psa10 value="0.0067707455" flag="0"/>
      <psa30 value="0.0006513989" flag="0"/>
    </comp>
    <comp name="--.HHN">
      <acc value="0.0117696159" flag="0"/>
      <vel value="0.0103897205" flag="0"/>
      <psa03 value="0.0280630432" flag="0"/>
      <psa10 value="0.0101004870" flag="0"/>
      <psa30 value="0.0014992884" flag="0"/>
    </comp>
  </station>
  <station code="KARS" name="KARS" netid="KO" insttype="CMG-3T" lat="40.6152" lon="43.0937">
    <comp name="--.HHE">
      <acc value="0.0769279816" flag="0"/>
      <vel value="0.0274576860" flag="0"/>
      <psa03 value="0.1538503322" flag="0"/>
      <psa10 value="0.0100953406" flag="0"/>
      <psa30 value="0.0011627626" flag="0"/>
    </comp>
    <comp name="--.HHN">
      <acc value="0.0541297959" flag="0"/>
      <vel value="0.0180077294" flag="0"/>
      <psa03 value="0.0691039876" flag="0"/>
      <psa10 value="0.0074431273" flag="0"/>
      <psa30 value="0.0008667870" flag="0"/>
    </comp>
    <comp name="--.HHZ">
      <acc value="0.0283923579" flag="0"/>
      <vel value="0.0109050689" flag="0"/>
      <psa03 value="0.0616989970" flag="0"/>
      <psa10 value="0.0135119390" flag="0"/>
      <psa30 value="0.0015951433" flag="0"/>
    </comp>
  </station>
  <station code="KOPR" name="KOPR" netid="KO" insttype="CMG-3T" lat="39.9917" lon="41.8535">
    <comp name="--.HHE">
      <acc value="0.0100963235" flag="0"/>
      <vel value="0.0065332583" flag="0"/>
      <psa03 value="0.0286111836" flag="0"/>
      <psa10 value="0.0056838557" flag="0"/>
      <psa30 value="0.0004768709" flag="0"/>
    </comp>
    <comp name="--.HHZ">
      <acc value="0.0056199227" flag="0"/>
      <vel value="0.0035222958" flag="0"/>
      <psa03 value="0.0221615787" flag="0"/>
      <psa10 value="0.0042109221" flag="0"/>
      <psa30 value="0.0005329813" flag="0"/>
    </comp>
    <comp name="--.HHN">
      <acc value="0.0117826084" flag="0"/>
      <vel value="0.0074311245" flag="0"/>
      <psa03 value="0.0378037446" flag="0"/>
      <psa10 value="0.0083603354" flag="0"/>
      <psa30 value="0.0005074316" flag="0"/>
    </comp>
  </station>
  <station code="MLAZ" name="MLAZ" netid="KO" insttype="CMG-3T" lat="39.141" lon="42.5496">
    <comp name="--.HHE">
      <acc value="0.0040178228" flag="0"/>
      <vel value="0.0028949215" flag="0"/>
      <psa03 value="0.0187424973" flag="0"/>
      <psa10 value="0.0047005392" flag="0"/>
      <psa30 value="0.0012096156" flag="0"/>
    </comp>
    <comp name="--.HHN">
      <acc value="0.0042545169" flag="0"/>
      <vel value="0.0031719765" flag="0"/>
      <psa03 value="0.0207961176" flag="0"/>
      <psa10 value="0.0044545590" flag="0"/>
      <psa30 value="0.0009169214" flag="0"/>
    </comp>
    <comp name="--.HHZ">
      <acc value="0.0034733492" flag="0"/>
      <vel value="0.0024211428" flag="0"/>
      <psa03 value="0.0090809448" flag="0"/>
      <psa10 value="0.0051223859" flag="0"/>
      <psa30 value="0.0003172544" flag="0"/>
    </comp>
  </station>
  <station code="SENK" name="SENK" netid="KO" insttype="CMG-3T" lat="40.5614" lon="42.3505">
    <comp name="--.HHN">
      <acc value="0.0149437805" flag="0"/>
      <vel value="0.0083522178" flag="0"/>
      <psa03 value="0.0768266201" flag="0"/>
      <psa10 value="0.0071028897" flag="0"/>
      <psa30 value="0.0004842045" flag="0"/>
    </comp>
  </station>
  <station code="TASB" name="TASB" netid="KO" insttype="CMG-3T" lat="39.9838" lon="44.2384">
    <comp name="--.HHE">
      <acc value="0.0022053970" flag="0"/>
      <vel value="0.0025978520" flag="0"/>
      <psa03 value="0.0076492884" flag="0"/>
      <psa10 value="0.0043468435" flag="0"/>
      <psa30 value="0.0006663279" flag="0"/>
    </comp>
    <comp name="--.HHN">
      <acc value="0.0024957524" flag="0"/>
      <vel value="0.0018431240" flag="0"/>
      <psa03 value="0.0071571376" flag="0"/>
      <psa10 value="0.0030659913" flag="0"/>
      <psa30 value="0.0006524261" flag="0"/>
    </comp>
    <comp name="--.HHZ">
      <acc value="0.0023191132" flag="0"/>
      <vel value="0.0014234495" flag="0"/>
      <psa03 value="0.0074673342" flag="0"/>
      <psa10 value="0.0029557169" flag="0"/>
      <psa30 value="0.0005211681" flag="0"/>
    </comp>
  </station>
</stationlist>
