<stationlist created="1778723802">
	<station code="0903" name="0903" netid="TK" source="Turkish National Strong Motion Network (TNSMN)" insttype="" lat="37.97385" lon="28.74603">
		<comp name="00.HNE" depth="None">
			<acc value="0.902679328071866" flag="0"/>
			<vel value="0.348303985782838" flag="0"/>
			<psa03 value="1.45215305800263" flag="0"/>
			<psa10 value="0.230401335246989" flag="0"/>
			<psa30 value="0.0329325011813789" flag="0"/>
		</comp>
		<comp name="00.HNN" depth="None">
			<acc value="0.83317162870476" flag="0"/>
			<vel value="0.20166094678049" flag="0"/>
			<psa03 value="1.21846451283539" flag="0"/>
			<psa10 value="0.260727155470787" flag="0"/>
			<psa30 value="0.015674089822513" flag="0"/>
		</comp>
		<comp name="00.HNZ" depth="None">
			<acc value="0.884758472614413" flag="0"/>
			<vel value="0.224152436361208" flag="0"/>
			<psa03 value="1.46696272839328" flag="0"/>
			<psa10 value="0.095668681035321" flag="0"/>
			<psa30 value="0.0219626069627111" flag="0"/>
		</comp>
	</station>
	<station code="0904" name="0904" netid="TK" source="Turkish National Strong Motion Network (TNSMN)" insttype="" lat="37.85716" lon="28.05025">
		<comp name="00.HNE" depth="None">
			<acc value="0.211982820484807" flag="0"/>
			<vel value="0.111299050854103" flag="0"/>
			<psa03 value="0.506660747745309" flag="0"/>
			<psa10 value="0.080378926767659" flag="0"/>
			<psa30 value="0.0121278225259487" flag="0"/>
		</comp>
		<comp name="00.HNN" depth="None">
			<acc value="0.191110255319588" flag="0"/>
			<vel value="0.0930379068806616" flag="0"/>
			<psa03 value="0.483976448989846" flag="0"/>
			<psa10 value="0.0960753876934811" flag="0"/>
			<psa30 value="0.0256686039369025" flag="0"/>
		</comp>
		<comp name="00.HNZ" depth="None">
			<acc value="0.120495345462363" flag="0"/>
			<vel value="0.0503988012228294" flag="0"/>
			<psa03 value="0.256104390682988" flag="0"/>
			<psa10 value="0.0859359088296484" flag="0"/>
			<psa30 value="0.00787910258547765" flag="0"/>
		</comp>
	</station>
	<station code="0908" name="0908" netid="TK" source="Turkish National Strong Motion Network (TNSMN)" insttype="" lat="37.91333" lon="28.34308">
		<comp name="00.HNE" depth="None">
			<acc value="0.786935122129847" flag="0"/>
			<vel value="0.285476573188971" flag="0"/>
			<psa03 value="1.61139057135706" flag="0"/>
			<psa10 value="0.329887421350981" flag="0"/>
			<psa30 value="0.114460855237061" flag="0"/>
		</comp>
		<comp name="00.HNN" depth="None">
			<acc value="0.861908444259032" flag="0"/>
			<vel value="0.272189174530935" flag="0"/>
			<psa03 value="1.1060720898103" flag="0"/>
			<psa10 value="0.263207663405704" flag="0"/>
			<psa30 value="0.101623421314147" flag="0"/>
		</comp>
		<comp name="00.HNZ" depth="None">
			<acc value="0.532932238390446" flag="0"/>
			<vel value="0.136789015778486" flag="0"/>
			<psa03 value="0.32308347399054" flag="0"/>
			<psa10 value="0.171912085645253" flag="0"/>
			<psa30 value="0.0407395688142012" flag="0"/>
		</comp>
	</station>
	<station code="0909" name="0909" netid="TK" source="Turkish National Strong Motion Network (TNSMN)" insttype="" lat="37.88405" lon="28.15056">
		<comp name="00.HNE" depth="None">
			<acc value="0.210723640276863" flag="0"/>
			<vel value="0.0961399648306527" flag="0"/>
			<psa03 value="0.598203302486293" flag="0"/>
			<psa10 value="0.0672193489570929" flag="0"/>
			<psa30 value="0.0409292757702626" flag="0"/>
		</comp>
		<comp name="00.HNN" depth="None">
			<acc value="0.294625059346651" flag="0"/>
			<vel value="0.112350812336173" flag="0"/>
			<psa03 value="0.474983265459573" flag="0"/>
			<psa10 value="0.123936807176745" flag="0"/>
			<psa30 value="0.0647397358663083" flag="0"/>
		</comp>
		<comp name="00.HNZ" depth="None">
			<acc value="0.131163633913213" flag="0"/>
			<vel value="0.0702708608788613" flag="0"/>
			<psa03 value="0.165411937867751" flag="0"/>
			<psa10 value="0.0691401318872153" flag="0"/>
			<psa30 value="0.015994891443966" flag="0"/>
		</comp>
	</station>
	<station code="2002" name="2002" netid="TK" source="Turkish National Strong Motion Network (TNSMN)" insttype="" lat="37.81247" lon="29.11113">
		<comp name="00.HNE" depth="None">
			<acc value="0.487878016020503" flag="0"/>
			<vel value="0.153401049470975" flag="0"/>
			<psa03 value="0.533729782749364" flag="0"/>
			<psa10 value="0.0865600626119733" flag="0"/>
			<psa30 value="0.0137206450815592" flag="0"/>
		</comp>
		<comp name="00.HNN" depth="None">
			<acc value="0.304032392159628" flag="0"/>
			<vel value="0.0882261236358529" flag="0"/>
			<psa03 value="0.530642570492703" flag="0"/>
			<psa10 value="0.100287419024525" flag="0"/>
			<psa30 value="0.0123671933313565" flag="0"/>
		</comp>
		<comp name="00.HNZ" depth="None">
			<acc value="0.30214519073256" flag="0"/>
			<vel value="0.0853144466535568" flag="0"/>
			<psa03 value="0.452567419943819" flag="0"/>
			<psa10 value="0.0485954054522373" flag="0"/>
			<psa30 value="0.00562991185877713" flag="0"/>
		</comp>
	</station>
	<station code="2007" name="2007" netid="TK" source="Turkish National Strong Motion Network (TNSMN)" insttype="" lat="37.93252" lon="28.92294">
		<comp name="00.HNE" depth="None">
			<acc value="1.8498592905578" flag="0"/>
			<vel value="0.48785624594088" flag="0"/>
			<psa03 value="1.21121627536323" flag="0"/>
			<psa10 value="0.312870170485787" flag="0"/>
			<psa30 value="0.0406635070629501" flag="0"/>
		</comp>
		<comp name="00.HNN" depth="None">
			<acc value="1.00004492365473" flag="0"/>
			<vel value="0.354302728884244" flag="0"/>
			<psa03 value="1.35841813513735" flag="0"/>
			<psa10 value="0.375647960591884" flag="0"/>
			<psa30 value="0.0329163939869963" flag="0"/>
		</comp>
		<comp name="00.HNZ" depth="None">
			<acc value="0.606010880092688" flag="0"/>
			<vel value="0.151378978149397" flag="0"/>
			<psa03 value="0.374581753808171" flag="0"/>
			<psa10 value="0.199483575629631" flag="0"/>
			<psa30 value="0.0239370805407754" flag="0"/>
		</comp>
	</station>
</stationlist>
