<?xml version="1.0" encoding="UTF-8" standalone="yes"?>
<!DOCTYPE earthquake SYSTEM "stationlist.dtd">
<stationlist created="" xmlns="ch.ethz.sed.shakemap.usgs.xml">
  <station code="RTC" name="RTC" netid="MN" insttype="" lat="33.9881" lon="-6.8569">
    <comp name="--.HHZ">
      <acc value="0.1290144162" flag="0"/>
      <vel value="0.0574367055" flag="0"/>
      <psa03 value="0.2398349080" flag="0"/>
      <psa10 value="0.0350729256" flag="0"/>
      <psa30 value="0.0021931694" flag="0"/>
    </comp>
    <comp name="--.HHN">
      <acc value="0.0020116317" flag="0"/>
      <vel value="0.0003252984" flag="0"/>
      <psa03 value="0.0013391578" flag="0"/>
      <psa10 value="0.0001940513" flag="0"/>
      <psa30 value="0.0000188547" flag="0"/>
    </comp>
    <comp name="--.HHE">
      <acc value="0.1763113113" flag="0"/>
      <vel value="0.1123306057" flag="0"/>
      <psa03 value="0.5476253986" flag="0"/>
      <psa10 value="0.1169660729" flag="0"/>
      <psa30 value="0.0043457261" flag="0"/>
    </comp>
  </station>
</stationlist>
