<?xml version="1.0" encoding="UTF-8" standalone="yes"?>
<!DOCTYPE earthquake SYSTEM "stationlist.dtd">
<stationlist created="" xmlns="ch.ethz.sed.shakemap.usgs.xml">
  <station code="ADVT" name="ADVT" netid="KO" insttype="CMG-3ESP" lat="40.4332" lon="29.7383">
    <comp name="--.HHE">
      <acc value="0.0121605941" flag="0"/>
      <vel value="0.0058715710" flag="0"/>
      <psa03 value="0.0244382425" flag="0"/>
      <psa10 value="0.0025314597" flag="0"/>
      <psa30 value="0.0001755515" flag="0"/>
    </comp>
    <comp name="--.HHN">
      <acc value="0.0161509740" flag="0"/>
      <vel value="0.0074153758" flag="0"/>
      <psa03 value="0.0329275605" flag="0"/>
      <psa10 value="0.0053616424" flag="0"/>
      <psa30 value="0.0002452054" flag="0"/>
    </comp>
  </station>
  <station code="ARMT" name="ARMT" netid="KO" insttype="CMG-5T" lat="40.5683" lon="28.866">
    <comp name="--.HNN">
      <acc value="0.4324882138" flag="0"/>
      <vel value="0.0975364865" flag="0"/>
      <psa03 value="0.3073438775" flag="0"/>
      <psa10 value="0.0158468769" flag="0"/>
      <psa30 value="0.0016153919" flag="0"/>
    </comp>
    <comp name="--.HNZ">
      <acc value="0.1614423155" flag="0"/>
      <vel value="0.0393224573" flag="0"/>
      <psa03 value="0.1717111550" flag="0"/>
      <psa10 value="0.0135365262" flag="0"/>
      <psa30 value="0.0010225755" flag="0"/>
    </comp>
    <comp name="--.HNE">
      <acc value="0.4012480518" flag="0"/>
      <vel value="0.0829872113" flag="0"/>
      <psa03 value="0.3273760016" flag="0"/>
      <psa10 value="0.0201926267" flag="0"/>
      <psa30 value="0.0022180266" flag="0"/>
    </comp>
  </station>
  <station code="BGKT" name="BGKT" netid="KO" insttype="CMG-3ESP" lat="41.181" lon="28.773">
    <comp name="--.HHE">
      <acc value="0.0209626883" flag="0"/>
      <vel value="0.0095969507" flag="0"/>
      <psa03 value="0.0343275643" flag="0"/>
      <psa10 value="0.0049829514" flag="0"/>
      <psa30 value="0.0005479208" flag="0"/>
    </comp>
    <comp name="--.HHZ">
      <acc value="0.0244918449" flag="0"/>
      <vel value="0.0060478149" flag="0"/>
      <psa03 value="0.0455571397" flag="0"/>
      <psa10 value="0.0029138411" flag="0"/>
      <psa30 value="0.0002545888" flag="0"/>
    </comp>
    <comp name="--.HHN">
      <acc value="0.0257996698" flag="0"/>
      <vel value="0.0101177382" flag="0"/>
      <psa03 value="0.0671761139" flag="0"/>
      <psa10 value="0.0057752698" flag="0"/>
      <psa30 value="0.0003292208" flag="0"/>
    </comp>
  </station>
  <station code="BRGA" name="BRGA" netid="KO" insttype="CMG-5T" lat="40.8846" lon="29.065">
    <comp name="--.HNN">
      <acc value="0.0432302390" flag="0"/>
      <vel value="0.0133193542" flag="0"/>
      <psa03 value="0.0720265821" flag="0"/>
      <psa10 value="0.0068684613" flag="0"/>
      <psa30 value="0.0005025651" flag="0"/>
    </comp>
    <comp name="--.HNE">
      <acc value="0.0260115588" flag="0"/>
      <vel value="0.0099507473" flag="0"/>
      <psa03 value="0.0720735919" flag="0"/>
      <psa10 value="0.0033442694" flag="0"/>
      <psa30 value="0.0003348265" flag="0"/>
    </comp>
    <comp name="--.HNZ">
      <acc value="0.0333808290" flag="0"/>
      <vel value="0.0097169869" flag="0"/>
      <psa03 value="0.0464680691" flag="0"/>
      <psa10 value="0.0016593790" flag="0"/>
      <psa30 value="0.0004426636" flag="0"/>
    </comp>
  </station>
  <station code="BUYK" name="BUYK" netid="KO" insttype="ACEBOX" lat="41.0168" lon="28.5828">
    <comp name="--.HNE">
      <acc value="0.0277900976" flag="0"/>
      <vel value="0.0101275430" flag="0"/>
      <psa03 value="0.0499276148" flag="0"/>
      <psa10 value="0.0123894999" flag="0"/>
      <psa30 value="0.0006782917" flag="0"/>
    </comp>
    <comp name="--.HNN">
      <acc value="0.0210170141" flag="0"/>
      <vel value="0.0125808544" flag="0"/>
      <psa03 value="0.0610281175" flag="0"/>
      <psa10 value="0.0079904651" flag="0"/>
      <psa30 value="0.0010435615" flag="0"/>
    </comp>
    <comp name="--.HNZ">
      <acc value="0.0445692749" flag="0"/>
      <vel value="0.0106533870" flag="0"/>
      <psa03 value="0.0489250538" flag="0"/>
      <psa10 value="0.0078218143" flag="0"/>
      <psa30 value="0.0002814733" flag="0"/>
    </comp>
  </station>
  <station code="DST" name="DST" netid="KO" insttype="CMG-5T" lat="39.6041" lon="28.6267">
    <comp name="--.HNE">
      <acc value="0.1544395757" flag="0"/>
      <vel value="0.0284404308" flag="0"/>
      <psa03 value="0.1511168748" flag="0"/>
      <psa10 value="0.0127370621" flag="0"/>
      <psa30 value="0.0007913329" flag="0"/>
    </comp>
    <comp name="--.HNZ">
      <acc value="0.0628624300" flag="0"/>
      <vel value="0.0166716540" flag="0"/>
      <psa03 value="0.0987207438" flag="0"/>
      <psa10 value="0.0056555942" flag="0"/>
      <psa30 value="0.0004483557" flag="0"/>
    </comp>
    <comp name="--.HNN">
      <acc value="0.1143701191" flag="0"/>
      <vel value="0.0369241424" flag="0"/>
      <psa03 value="0.1185346145" flag="0"/>
      <psa10 value="0.0105124301" flag="0"/>
      <psa30 value="0.0006931458" flag="0"/>
    </comp>
  </station>
  <station code="EDC" name="EDC" netid="KO" insttype="CMG-3T" lat="40.3465" lon="27.8618">
    <comp name="--.HHE">
      <acc value="0.0454115689" flag="0"/>
      <vel value="0.0088613977" flag="0"/>
      <psa03 value="0.0503320802" flag="0"/>
      <psa10 value="0.0052736443" flag="0"/>
      <psa30 value="0.0002673862" flag="0"/>
    </comp>
    <comp name="--.HHZ">
      <acc value="0.0333299719" flag="0"/>
      <vel value="0.0063312057" flag="0"/>
      <psa03 value="0.0223137070" flag="0"/>
      <psa10 value="0.0025413772" flag="0"/>
      <psa30 value="0.0001493737" flag="0"/>
    </comp>
  </station>
  <station code="GEML" name="GEML" netid="KO" insttype="CMG-3T" lat="40.4646" lon="29.2116">
    <comp name="--.HHZ">
      <acc value="0.1735118103" flag="0"/>
      <vel value="0.0294598865" flag="0"/>
      <psa03 value="0.1020030744" flag="0"/>
      <psa10 value="0.0079535684" flag="0"/>
      <psa30 value="0.0007659261" flag="0"/>
    </comp>
    <comp name="--.HHE">
      <acc value="0.2511764784" flag="0"/>
      <vel value="0.0317227228" flag="0"/>
      <psa03 value="0.1279120599" flag="0"/>
      <psa10 value="0.0137224667" flag="0"/>
      <psa30 value="0.0008910933" flag="0"/>
    </comp>
    <comp name="--.HHN">
      <acc value="0.2503944184" flag="0"/>
      <vel value="0.0540882790" flag="0"/>
      <psa03 value="0.1976718470" flag="0"/>
      <psa10 value="0.0099267097" flag="0"/>
      <psa30 value="0.0007491266" flag="0"/>
    </comp>
  </station>
  <station code="GONE" name="GONE" netid="KO" insttype="CMG-5T" lat="40.0466" lon="27.686">
    <comp name="--.HNE">
      <acc value="0.0281448855" flag="0"/>
      <vel value="0.0090002923" flag="0"/>
      <psa03 value="0.0333962665" flag="0"/>
      <psa10 value="0.0089829960" flag="0"/>
      <psa30 value="0.0003286733" flag="0"/>
    </comp>
    <comp name="--.HNN">
      <acc value="0.0307354486" flag="0"/>
      <vel value="0.0131413166" flag="0"/>
      <psa03 value="0.0354819730" flag="0"/>
      <psa10 value="0.0108703950" flag="0"/>
      <psa30 value="0.0005464740" flag="0"/>
    </comp>
    <comp name="--.HNZ">
      <acc value="0.0173062429" flag="0"/>
      <vel value="0.0043237707" flag="0"/>
      <psa03 value="0.0134188902" flag="0"/>
      <psa10 value="0.0049351525" flag="0"/>
      <psa30 value="0.0002115294" flag="0"/>
    </comp>
  </station>
  <station code="HRTX" name="HRTX" netid="KO" insttype="CMG-3ESP" lat="40.8009" lon="29.6729">
    <comp name="--.HHN">
      <acc value="0.0312446668" flag="0"/>
      <vel value="0.0114650191" flag="0"/>
      <psa03 value="0.0497677304" flag="0"/>
      <psa10 value="0.0036685487" flag="0"/>
      <psa30 value="0.0003557398" flag="0"/>
    </comp>
  </station>
  <station code="ISK" name="ISK" netid="KO" insttype="CMG-3T" lat="41.0615" lon="29.0592">
    <comp name="--.HHE">
      <acc value="0.0200907860" flag="0"/>
      <vel value="0.0070224991" flag="0"/>
      <psa03 value="0.0279474365" flag="0"/>
      <psa10 value="0.0040329245" flag="0"/>
      <psa30 value="0.0002608468" flag="0"/>
    </comp>
    <comp name="--.HHN">
      <acc value="0.0278398074" flag="0"/>
      <vel value="0.0078207676" flag="0"/>
      <psa03 value="0.0304456321" flag="0"/>
      <psa10 value="0.0016923846" flag="0"/>
      <psa30 value="0.0002092800" flag="0"/>
    </comp>
    <comp name="--.HHZ">
      <acc value="0.0229460867" flag="0"/>
      <vel value="0.0048899170" flag="0"/>
      <psa03 value="0.0159569721" flag="0"/>
      <psa10 value="0.0015615184" flag="0"/>
      <psa30 value="0.0001645064" flag="0"/>
    </comp>
  </station>
  <station code="KAVV" name="KAVV" netid="KO" insttype="CMG-3ESPC" lat="41.0638" lon="29.06">
    <comp name="--.HHE">
      <acc value="0.0604023404" flag="0"/>
      <vel value="0.0153961513" flag="0"/>
      <psa03 value="0.0701843243" flag="0"/>
      <psa10 value="0.0054481397" flag="0"/>
      <psa30 value="0.0004331018" flag="0"/>
    </comp>
    <comp name="--.HHN">
      <acc value="0.0570318697" flag="0"/>
      <vel value="0.0173199412" flag="0"/>
      <psa03 value="0.1028010099" flag="0"/>
      <psa10 value="0.0038988959" flag="0"/>
      <psa30 value="0.0003161593" flag="0"/>
    </comp>
    <comp name="--.HHZ">
      <acc value="0.0345535983" flag="0"/>
      <vel value="0.0075421622" flag="0"/>
      <psa03 value="0.0266686303" flag="0"/>
      <psa10 value="0.0017926769" flag="0"/>
      <psa30 value="0.0001841715" flag="0"/>
    </comp>
  </station>
  <station code="KCTX" name="KCTX" netid="KO" insttype="CMG-3ESP" lat="40.2626" lon="28.3353">
    <comp name="--.HHN">
      <acc value="0.0420293429" flag="0"/>
      <vel value="0.0088543192" flag="0"/>
      <psa03 value="0.0408488322" flag="0"/>
      <psa10 value="0.0050664619" flag="0"/>
      <psa30 value="0.0002775242" flag="0"/>
    </comp>
    <comp name="--.HHZ">
      <acc value="0.0399966938" flag="0"/>
      <vel value="0.0104032101" flag="0"/>
      <psa03 value="0.0400568052" flag="0"/>
      <psa10 value="0.0045247981" flag="0"/>
      <psa30 value="0.0003339941" flag="0"/>
    </comp>
    <comp name="--.HHE">
      <acc value="0.0375195591" flag="0"/>
      <vel value="0.0065224216" flag="0"/>
      <psa03 value="0.0366210867" flag="0"/>
      <psa10 value="0.0032701128" flag="0"/>
      <psa30 value="0.0002592786" flag="0"/>
    </comp>
  </station>
  <station code="KOUK" name="KOUK" netid="KO" insttype="CMG-5T" lat="40.6572" lon="29.1918">
    <comp name="--.HNE">
      <acc value="0.0455424166" flag="0"/>
      <vel value="0.0220231258" flag="0"/>
      <psa03 value="0.0968059386" flag="0"/>
      <psa10 value="0.0296332137" flag="0"/>
      <psa30 value="0.0014027747" flag="0"/>
    </comp>
    <comp name="--.HNN">
      <acc value="0.0614200406" flag="0"/>
      <vel value="0.0318052862" flag="0"/>
      <psa03 value="0.1108962194" flag="0"/>
      <psa10 value="0.0379276437" flag="0"/>
      <psa30 value="0.0017098882" flag="0"/>
    </comp>
    <comp name="--.HNZ">
      <acc value="0.0446872111" flag="0"/>
      <vel value="0.0167940313" flag="0"/>
      <psa03 value="0.1033190288" flag="0"/>
      <psa10 value="0.0129691029" flag="0"/>
      <psa30 value="0.0005668867" flag="0"/>
    </comp>
  </station>
  <station code="MDNY" name="MDNY" netid="KO" insttype="CMG-5T" lat="40.3709" lon="28.8846">
    <comp name="--.HNN">
      <acc value="2.0680573553" flag="0"/>
      <vel value="0.6229542200" flag="0"/>
      <psa03 value="3.3854898840" flag="0"/>
      <psa10 value="0.1421018123" flag="0"/>
      <psa30 value="0.0144637591" flag="0"/>
    </comp>
    <comp name="--.HNE">
      <acc value="2.6186922257" flag="0"/>
      <vel value="0.7882455987" flag="0"/>
      <psa03 value="3.6885877897" flag="0"/>
      <psa10 value="0.1389776697" flag="0"/>
      <psa30 value="0.0142455583" flag="0"/>
    </comp>
  </station>
  <station code="MRMT" name="MRMT" netid="KO" insttype="CMG-3T" lat="40.609" lon="27.5832">
    <comp name="--.HHE">
      <acc value="0.0271244887" flag="0"/>
      <vel value="0.0071375836" flag="0"/>
      <psa03 value="0.0445282971" flag="0"/>
      <psa10 value="0.0028361249" flag="0"/>
      <psa30 value="0.0001912746" flag="0"/>
    </comp>
    <comp name="--.HHN">
      <acc value="0.0185972874" flag="0"/>
      <vel value="0.0067264147" flag="0"/>
      <psa03 value="0.0449441721" flag="0"/>
      <psa10 value="0.0042726865" flag="0"/>
      <psa30 value="0.0002540344" flag="0"/>
    </comp>
    <comp name="--.HHZ">
      <acc value="0.0000333386" flag="0"/>
      <vel value="0.0000027066" flag="0"/>
      <psa03 value="0.0000091121" flag="0"/>
      <psa10 value="0.0000025144" flag="0"/>
      <psa30 value="0.0000004418" flag="0"/>
    </comp>
  </station>
  <station code="ORLT" name="ORLT" netid="KO" insttype="CMG-5T" lat="40.0452" lon="28.8914">
    <comp name="--.HNE">
      <acc value="0.5200523014" flag="0"/>
      <vel value="0.1592119669" flag="0"/>
      <psa03 value="1.0324962601" flag="0"/>
      <psa10 value="0.0446723138" flag="0"/>
      <psa30 value="0.0035715051" flag="0"/>
    </comp>
    <comp name="--.HNN">
      <acc value="0.8283646604" flag="0"/>
      <vel value="0.2738446050" flag="0"/>
      <psa03 value="1.4816862464" flag="0"/>
      <psa10 value="0.0874773592" flag="0"/>
      <psa30 value="0.0088643117" flag="0"/>
    </comp>
    <comp name="--.HNZ">
      <acc value="0.3906352741" flag="0"/>
      <vel value="0.0772265860" flag="0"/>
      <psa03 value="0.4387655715" flag="0"/>
      <psa10 value="0.0223563308" flag="0"/>
      <psa30 value="0.0017064153" flag="0"/>
    </comp>
  </station>
  <station code="OSMT" name="OSMT" netid="KO" insttype="CMG-5T" lat="40.6009" lon="29.7">
    <comp name="--.HNE">
      <acc value="0.0382824983" flag="0"/>
      <vel value="0.0187470538" flag="0"/>
      <psa03 value="0.0869494755" flag="0"/>
      <psa10 value="0.0065316275" flag="0"/>
      <psa30 value="0.0005157183" flag="0"/>
    </comp>
    <comp name="--.HNN">
      <acc value="0.0299075971" flag="0"/>
      <vel value="0.0084015328" flag="0"/>
      <psa03 value="0.0507729948" flag="0"/>
      <psa10 value="0.0052757946" flag="0"/>
      <psa30 value="0.0005042844" flag="0"/>
    </comp>
    <comp name="--.HNZ">
      <acc value="0.0341239736" flag="0"/>
      <vel value="0.0093303788" flag="0"/>
      <psa03 value="0.0437564046" flag="0"/>
      <psa10 value="0.0024917519" flag="0"/>
      <psa30 value="0.0005055031" flag="0"/>
    </comp>
  </station>
  <station code="SILT" name="SILT" netid="KO" insttype="CMG-3ESP" lat="41.153" lon="29.643">
    <comp name="--.HHZ">
      <acc value="0.0176617539" flag="0"/>
      <vel value="0.0042032435" flag="0"/>
      <psa03 value="0.0144982823" flag="0"/>
      <psa10 value="0.0029800446" flag="0"/>
      <psa30 value="0.0001938067" flag="0"/>
    </comp>
    <comp name="--.HHN">
      <acc value="0.0134752249" flag="0"/>
      <vel value="0.0043919703" flag="0"/>
      <psa03 value="0.0182930802" flag="0"/>
      <psa10 value="0.0018090643" flag="0"/>
      <psa30 value="0.0001644224" flag="0"/>
    </comp>
    <comp name="--.HHE">
      <acc value="0.0099206407" flag="0"/>
      <vel value="0.0033203830" flag="0"/>
      <psa03 value="0.0212205708" flag="0"/>
      <psa10 value="0.0023433362" flag="0"/>
      <psa30 value="0.0001966612" flag="0"/>
    </comp>
  </station>
  <station code="SILV" name="SILV" netid="KO" insttype="ACEBOX" lat="41.0723" lon="28.239">
    <comp name="--.HNE">
      <acc value="0.0458183598" flag="0"/>
      <vel value="0.0208529071" flag="0"/>
      <psa03 value="0.1300634236" flag="0"/>
      <psa10 value="0.0080264935" flag="0"/>
      <psa30 value="0.0007322790" flag="0"/>
    </comp>
    <comp name="--.HNN">
      <acc value="0.0443818589" flag="0"/>
      <vel value="0.0216826738" flag="0"/>
      <psa03 value="0.1587750267" flag="0"/>
      <psa10 value="0.0072287884" flag="0"/>
      <psa30 value="0.0005828609" flag="0"/>
    </comp>
    <comp name="--.HNZ">
      <acc value="0.0116997632" flag="0"/>
      <vel value="0.0051209418" flag="0"/>
      <psa03 value="0.0187747423" flag="0"/>
      <psa10 value="0.0028395735" flag="0"/>
      <psa30 value="0.0001522159" flag="0"/>
    </comp>
  </station>
  <station code="SIMA" name="SIMA" netid="KO" insttype="CMG-6T" lat="39.0833" lon="28.9825">
    <comp name="--.HHE">
      <acc value="0.0368363921" flag="0"/>
      <vel value="0.0135413549" flag="0"/>
      <psa03 value="0.1275434691" flag="0"/>
      <psa10 value="0.0055443241" flag="0"/>
      <psa30 value="0.0003382818" flag="0"/>
    </comp>
    <comp name="--.HHN">
      <acc value="0.0468787743" flag="0"/>
      <vel value="0.0224288647" flag="0"/>
      <psa03 value="0.1135272950" flag="0"/>
      <psa10 value="0.0099653975" flag="0"/>
      <psa30 value="0.0006596450" flag="0"/>
    </comp>
    <comp name="--.HHZ">
      <acc value="0.0304119195" flag="0"/>
      <vel value="0.0072784506" flag="0"/>
      <psa03 value="0.0533623536" flag="0"/>
      <psa10 value="0.0034844726" flag="0"/>
      <psa30 value="0.0003133494" flag="0"/>
    </comp>
  </station>
  <station code="SINB" name="SINB" netid="KO" insttype="CMG-5T" lat="40.9998" lon="28.5392">
    <comp name="--.HNN">
      <acc value="0.0676000795" flag="0"/>
      <vel value="0.0201564520" flag="0"/>
      <psa03 value="0.1263718067" flag="0"/>
      <psa10 value="0.0076390637" flag="0"/>
      <psa30 value="0.0006333569" flag="0"/>
    </comp>
    <comp name="--.HNZ">
      <acc value="0.0557406398" flag="0"/>
      <vel value="0.0130440478" flag="0"/>
      <psa03 value="0.0444212509" flag="0"/>
      <psa10 value="0.0039496539" flag="0"/>
      <psa30 value="0.0004202584" flag="0"/>
    </comp>
    <comp name="--.HNE">
      <acc value="0.0806783533" flag="0"/>
      <vel value="0.0349839023" flag="0"/>
      <psa03 value="0.1188330383" flag="0"/>
      <psa10 value="0.0136575086" flag="0"/>
      <psa30 value="0.0008949523" flag="0"/>
    </comp>
  </station>
  <station code="SUSR" name="SUSR" netid="KO" insttype="CMG-5T" lat="39.9627" lon="28.0835">
    <comp name="--.HNE">
      <acc value="0.0743090314" flag="0"/>
      <vel value="0.0143440554" flag="0"/>
      <psa03 value="0.0737989467" flag="0"/>
      <psa10 value="0.0027851409" flag="0"/>
      <psa30 value="0.0003467831" flag="0"/>
    </comp>
    <comp name="--.HNZ">
      <acc value="0.0384012060" flag="0"/>
      <vel value="0.0072990237" flag="0"/>
      <psa03 value="0.0476961324" flag="0"/>
      <psa10 value="0.0021743111" flag="0"/>
      <psa30 value="0.0001522361" flag="0"/>
    </comp>
    <comp name="--.HNN">
      <acc value="0.0533029332" flag="0"/>
      <vel value="0.0141053287" flag="0"/>
      <psa03 value="0.0680132086" flag="0"/>
      <psa10 value="0.0027012074" flag="0"/>
      <psa30 value="0.0002291705" flag="0"/>
    </comp>
  </station>
  <station code="TVSB" name="TVSB" netid="KO" insttype="CMG-3T" lat="39.4497" lon="29.4615">
    <comp name="--.HHE">
      <acc value="0.0809307072" flag="0"/>
      <vel value="0.0296062514" flag="0"/>
      <psa03 value="0.0903494918" flag="0"/>
      <psa10 value="0.0060051806" flag="0"/>
      <psa30 value="0.0005037115" flag="0"/>
    </comp>
    <comp name="--.HHN">
      <acc value="0.0652744940" flag="0"/>
      <vel value="0.0283353851" flag="0"/>
      <psa03 value="0.1672796508" flag="0"/>
      <psa10 value="0.0068713625" flag="0"/>
      <psa30 value="0.0006723054" flag="0"/>
    </comp>
    <comp name="--.HHZ">
      <acc value="0.0475741659" flag="0"/>
      <vel value="0.0113181824" flag="0"/>
      <psa03 value="0.0616859443" flag="0"/>
      <psa10 value="0.0040975321" flag="0"/>
      <psa30 value="0.0003188012" flag="0"/>
    </comp>
  </station>
