<stationlist created="1737977512">
	<station code="ALT" name="ALT" netid="KO" source="Bogazici University Kandilli Observatory And Earthquake Research Institute (KOERI)" insttype="" lat="39.0541" lon="30.1104">
		<comp name=".HNE" depth="0.0">
			<acc value="0.011665854157686" flag="0"/>
			<vel value="0.00366092509341" flag="0"/>
			<psa03 value="0.0209582542669192" flag="0"/>
			<psa10 value="0.00141136017537322" flag="0"/>
			<psa30 value="0.000285007500139731" flag="0"/>
		</comp>
		<comp name=".HNN" depth="0.0">
			<acc value="0.01661455673577" flag="0"/>
			<vel value="0.00420101522484" flag="0"/>
			<psa03 value="0.0170154904739914" flag="0"/>
			<psa10 value="0.00160778014035503" flag="0"/>
			<psa30 value="0.000377560688625949" flag="0"/>
		</comp>
		<comp name=".HNZ" depth="0.0">
			<acc value="0.012265984989192" flag="0"/>
			<vel value="0.00365912091826" flag="0"/>
			<psa03 value="0.015820385262451" flag="0"/>
			<psa10 value="0.00103267110470422" flag="0"/>
			<psa30 value="0.000660021014819414" flag="0"/>
		</comp>
	</station>
	<station code="ASYA" name="ASYA" netid="KO" source="Bogazici University Kandilli Observatory And Earthquake Research Institute (KOERI)" insttype="" lat="40.8956" lon="27.465">
		<comp name=".HNE" depth="0.0">
			<acc value="0.024021531846258" flag="0"/>
			<vel value="0.0122110551313" flag="0"/>
			<psa03 value="0.0431895590129708" flag="0"/>
			<psa10 value="0.00387564900835187" flag="0"/>
			<psa30 value="0.000357117589579129" flag="0"/>
		</comp>
		<comp name=".HNN" depth="0.0">
			<acc value="0.042756408309546" flag="0"/>
			<vel value="0.00819520546717" flag="0"/>
			<psa03 value="0.0469041905055761" flag="0"/>
			<psa10 value="0.0043175982071848" flag="0"/>
			<psa30 value="0.000310492052949802" flag="0"/>
		</comp>
		<comp name=".HNZ" depth="0.0">
			<acc value="0.038516050079424" flag="0"/>
			<vel value="0.0136230895212" flag="0"/>
			<psa03 value="0.190286834735525" flag="0"/>
			<psa10 value="0.00301067530183718" flag="0"/>
			<psa30 value="0.000291464854991199" flag="0"/>
		</comp>
	</station>
	<station code="BIGA" name="BIGA" netid="KO" source="Bogazici University Kandilli Observatory And Earthquake Research Institute (KOERI)" insttype="" lat="40.28134" lon="27.15048">
		<comp name=".HNE" depth="0.0">
			<acc value="0.021203457353964" flag="0"/>
			<vel value="0.0065252558526" flag="0"/>
			<psa03 value="0.0411712820828684" flag="0"/>
			<psa10 value="0.00299143723053355" flag="0"/>
			<psa30 value="0.000365693548319531" flag="0"/>
		</comp>
		<comp name=".HNN" depth="0.0">
			<acc value="0.027544217357484" flag="0"/>
			<vel value="0.00872658291315" flag="0"/>
			<psa03 value="0.0544439347682633" flag="0"/>
			<psa10 value="0.00295367551025541" flag="0"/>
			<psa30 value="0.000320290149942224" flag="0"/>
		</comp>
		<comp name=".HNZ" depth="0.0">
			<acc value="0.012287774390964" flag="0"/>
			<vel value="0.00329812129631" flag="0"/>
			<psa03 value="0.0131199081920265" flag="0"/>
			<psa10 value="0.00122633932490097" flag="0"/>
			<psa30 value="0.000378356600726141" flag="0"/>
		</comp>
	</station>
	<station code="BMYO" name="BMYO" netid="KO" source="Bogazici University Kandilli Observatory And Earthquake Research Institute (KOERI)" insttype="" lat="39.8098" lon="26.6009">
		<comp name=".HNE" depth="0.0">
			<acc value="0.0063616312570554" flag="0"/>
			<vel value="0.00383674165483" flag="0"/>
			<psa03 value="0.0160454756944167" flag="0"/>
			<psa10 value="0.00467876588277746" flag="0"/>
			<psa30 value="0.000438830580788802" flag="0"/>
		</comp>
		<comp name=".HNN" depth="0.0">
			<acc value="0.0058985219296788" flag="0"/>
			<vel value="0.00303217271573" flag="0"/>
			<psa03 value="0.0169109314641527" flag="0"/>
			<psa10 value="0.00325686481380835" flag="0"/>
			<psa30 value="0.000391978362476076" flag="0"/>
		</comp>
		<comp name=".HNZ" depth="0.0">
			<acc value="0.0033275768096916" flag="0"/>
			<vel value="0.00204718242536" flag="0"/>
			<psa03 value="0.00708478769177261" flag="0"/>
			<psa10 value="0.00391608371820222" flag="0"/>
			<psa30 value="0.000294773016849229" flag="0"/>
		</comp>
	</station>
	<station code="BOTS" name="BOTS" netid="KO" source="Bogazici University Kandilli Observatory And Earthquake Research Institute (KOERI)" insttype="" lat="40.9902" lon="27.981">
		<comp name=".HNE" depth="0.0">
			<acc value="0.013487522501214" flag="0"/>
			<vel value="0.00569531093111" flag="0"/>
			<psa03 value="0.0442953562249632" flag="0"/>
			<psa10 value="0.00566066436622657" flag="0"/>
			<psa30 value="0.00044643014672311" flag="0"/>
		</comp>
		<comp name=".HNN" depth="0.0">
			<acc value="0.02390230590939" flag="0"/>
			<vel value="0.00920373614381" flag="0"/>
			<psa03 value="0.056008033173977" flag="0"/>
			<psa10 value="0.00641182787713168" flag="0"/>
			<psa30 value="0.000450327331974313" flag="0"/>
		</comp>
		<comp name=".HNZ" depth="0.0">
			<acc value="0.0061526354915592" flag="0"/>
			<vel value="0.00203975052401" flag="0"/>
			<psa03 value="0.0125326570499169" flag="0"/>
			<psa10 value="0.00111119040778433" flag="0"/>
			<psa30 value="0.000301160575410032" flag="0"/>
		</comp>
	</station>
	<station code="BRGA" name="BRGA" netid="KO" source="Bogazici University Kandilli Observatory And Earthquake Research Institute (KOERI)" insttype="" lat="40.8846" lon="29.065">
		<comp name=".HNE" depth="0.0">
			<acc value="0.025576065597606" flag="0"/>
			<vel value="0.00988541404415" flag="0"/>
			<psa03 value="0.0730541467704461" flag="0"/>
			<psa10 value="0.00335884438195475" flag="0"/>
			<psa30 value="0.000393827755822737" flag="0"/>
		</comp>
		<comp name=".HNN" depth="0.0">
			<acc value="0.043097104464714" flag="0"/>
			<vel value="0.0132617319446" flag="0"/>
			<psa03 value="0.0723226347698201" flag="0"/>
			<psa10 value="0.00684669074715671" flag="0"/>
			<psa30 value="0.000595558202809743" flag="0"/>
		</comp>
		<comp name=".HNZ" depth="0.0">
			<acc value="0.03281234236914" flag="0"/>
			<vel value="0.0098501705565" flag="0"/>
			<psa03 value="0.0473665336336893" flag="0"/>
			<psa10 value="0.00166216319609266" flag="0"/>
			<psa30 value="0.000601720902721779" flag="0"/>
		</comp>
	</station>
	<station code="BUYK" name="BUYK" netid="KO" source="Bogazici University Kandilli Observatory And Earthquake Research Institute (KOERI)" insttype="" lat="41.0168" lon="28.5828">
		<comp name=".HNE" depth="0.0">
			<acc value="0.027509570219946" flag="0"/>
			<vel value="0.010175608321" flag="0"/>
			<psa03 value="0.0503861607523776" flag="0"/>
			<psa10 value="0.0123836644195059" flag="0"/>
			<psa30 value="0.000676457051543829" flag="0"/>
		</comp>
		<comp name=".HNN" depth="0.0">
			<acc value="0.021028478817876" flag="0"/>
			<vel value="0.0126172631833" flag="0"/>
			<psa03 value="0.0612377077392859" flag="0"/>
			<psa10 value="0.00799982651174502" flag="0"/>
			<psa30 value="0.00109907062053364" flag="0"/>
		</comp>
		<comp name=".HNZ" depth="0.0">
			<acc value="0.044069892390366" flag="0"/>
			<vel value="0.0107184400015" flag="0"/>
			<psa03 value="0.0492125309220376" flag="0"/>
			<psa10 value="0.00784551128911998" flag="0"/>
			<psa30 value="0.000274199258105091" flag="0"/>
		</comp>
	</station>
	<station code="CANM" name="CANM" netid="KO" source="Bogazici University Kandilli Observatory And Earthquake Research Institute (KOERI)" insttype="" lat="40.0113" lon="27.0529">
		<comp name=".HNE" depth="0.0">
			<acc value="0.016149338494572" flag="0"/>
			<vel value="0.00482363617432" flag="0"/>
			<psa03 value="0.0207389259353799" flag="0"/>
			<psa10 value="0.00318721473108252" flag="0"/>
			<psa30 value="0.000255860308864606" flag="0"/>
		</comp>
		<comp name=".HNN" depth="0.0">
			<acc value="0.01412495533452" flag="0"/>
			<vel value="0.00488776233764" flag="0"/>
			<psa03 value="0.024788144697116" flag="0"/>
			<psa10 value="0.00525533001481342" flag="0"/>
			<psa30 value="0.000425997491076435" flag="0"/>
		</comp>
		<comp name=".HNZ" depth="0.0">
			<acc value="0.011928935430924" flag="0"/>
			<vel value="0.00372212781774" flag="0"/>
			<psa03 value="0.0138398803658078" flag="0"/>
			<psa10 value="0.00262426986062526" flag="0"/>
			<psa30 value="0.000154363155488792" flag="0"/>
		</comp>
	</station>
	<station code="CRLU" name="CRLU" netid="KO" source="Bogazici University Kandilli Observatory And Earthquake Research Institute (KOERI)" insttype="" lat="41.1428" lon="27.8215">
		<comp name=".HNE" depth="0.0">
			<acc value="0.1608078123345" flag="0"/>
			<vel value="0.0612637405763" flag="0"/>
			<psa03 value="0.341703177825014" flag="0"/>
			<psa10 value="0.0633490015603286" flag="0"/>
			<psa30 value="0.0066056534254547" flag="0"/>
		</comp>
		<comp name=".HNN" depth="0.0">
			<acc value="0.13709234662596" flag="0"/>
			<vel value="0.0634547957179" flag="0"/>
			<psa03 value="0.332756981016973" flag="0"/>
			<psa10 value="0.058254004041872" flag="0"/>
			<psa30 value="0.00694311244712217" flag="0"/>
		</comp>
		<comp name=".HNZ" depth="0.0">
			<acc value="0.10326970995768" flag="0"/>
			<vel value="0.0269858949806" flag="0"/>
			<psa03 value="0.187070225817798" flag="0"/>
			<psa10 value="0.0235828878755739" flag="0"/>
			<psa30 value="0.00306281331301892" flag="0"/>
		</comp>
	</station>
	<station code="DOGC" name="DOGC" netid="KO" source="Bogazici University Kandilli Observatory And Earthquake Research Institute (KOERI)" insttype="" lat="41.3949" lon="26.9852">
		<comp name=".HNE" depth="0.0">
			<acc value="0.006751017557943" flag="0"/>
			<vel value="0.003327452078" flag="0"/>
			<psa03 value="0.0145262552618785" flag="0"/>
			<psa10 value="0.00199534241601632" flag="0"/>
			<psa30 value="0.000727548352755694" flag="0"/>
		</comp>
		<comp name=".HNN" depth="0.0">
			<acc value="0.0050792279950554" flag="0"/>
			<vel value="0.00274692390691" flag="0"/>
			<psa03 value="0.0128582124705553" flag="0"/>
			<psa10 value="0.00258869617591621" flag="0"/>
			<psa30 value="0.000674392123085118" flag="0"/>
		</comp>
		<comp name=".HNZ" depth="0.0">
			<acc value="0.0025055068383456" flag="0"/>
			<vel value="0.00142516228839" flag="0"/>
			<psa03 value="0.00767836151836382" flag="0"/>
			<psa10 value="0.00138830036652401" flag="0"/>
			<psa30 value="0.000664612412725326" flag="0"/>
		</comp>
	</station>
	<station code="DST" name="DST" netid="KO" source="Bogazici University Kandilli Observatory And Earthquake Research Institute (KOERI)" insttype="" lat="39.6041" lon="28.6267">
		<comp name=".HNE" depth="0.0">
			<acc value="0.154839657108" flag="0"/>
			<vel value="0.0289012326974" flag="0"/>
			<psa03 value="0.154025765951056" flag="0"/>
			<psa10 value="0.0127427544574505" flag="0"/>
			<psa30 value="0.000905111313348162" flag="0"/>
		</comp>
		<comp name=".HNN" depth="0.0">
			<acc value="0.11376470918832" flag="0"/>
			<vel value="0.0372348959852" flag="0"/>
			<psa03 value="0.118581292928503" flag="0"/>
			<psa10 value="0.010488531688739" flag="0"/>
			<psa30 value="0.000748843930150611" flag="0"/>
		</comp>
		<comp name=".HNZ" depth="0.0">
			<acc value="0.062359562971962" flag="0"/>
			<vel value="0.0168793331237" flag="0"/>
			<psa03 value="0.0983324098727645" flag="0"/>
			<psa10 value="0.0056794568611315" flag="0"/>
			<psa30 value="0.000487864662390155" flag="0"/>
		</comp>
	</station>
	<station code="EDC" name="EDC" netid="KO" source="Bogazici University Kandilli Observatory And Earthquake Research Institute (KOERI)" insttype="" lat="40.3465" lon="27.8618">
		<comp name=".HNE" depth="0.0">
			<acc value="0.04474557987936" flag="0"/>
			<vel value="0.00931720977408" flag="0"/>
			<psa03 value="0.0548316896218717" flag="0"/>
			<psa10 value="0.0057775403899292" flag="0"/>
			<psa30 value="0.000301967816385931" flag="0"/>
		</comp>
		<comp name=".HNN" depth="0.0">
			<acc value="0.047143501218024" flag="0"/>
			<vel value="0.0126533833941" flag="0"/>
			<psa03 value="0.0953593691736019" flag="0"/>
			<psa10 value="0.00789707720510497" flag="0"/>
			<psa30 value="0.000566902085728878" flag="0"/>
		</comp>
		<comp name=".HNZ" depth="0.0">
			<acc value="0.029673957712488" flag="0"/>
			<vel value="0.00600102420948" flag="0"/>
			<psa03 value="0.0222083696330002" flag="0"/>
			<psa10 value="0.00254444910413962" flag="0"/>
			<psa30 value="0.000155855220476956" flag="0"/>
		</comp>
	</station>
	<station code="ESKT" name="ESKT" netid="KO" source="Bogazici University Kandilli Observatory And Earthquake Research Institute (KOERI)" insttype="" lat="39.5212" lon="30.8492">
		<comp name=".HNE" depth="0.0">
			<acc value="0.015278284037106" flag="0"/>
			<vel value="0.0044800192506" flag="0"/>
			<psa03 value="0.0275238467572873" flag="0"/>
			<psa10 value="0.00170620798884172" flag="0"/>
			<psa30 value="0.000399552379842628" flag="0"/>
		</comp>
		<comp name=".HNN" depth="0.0">
			<acc value="0.016194847479408" flag="0"/>
			<vel value="0.00592266996144" flag="0"/>
			<psa03 value="0.0185624510254613" flag="0"/>
			<psa10 value="0.00316264990066094" flag="0"/>
			<psa30 value="0.00207287169257847" flag="0"/>
		</comp>
		<comp name=".HNZ" depth="0.0">
			<acc value="0.0057407626146768" flag="0"/>
			<vel value="0.00219962193847" flag="0"/>
			<psa03 value="0.00942004851114908" flag="0"/>
			<psa10 value="0.00131284126616777" flag="0"/>
			<psa30 value="0.000568087476757839" flag="0"/>
		</comp>
	</station>
	<station code="ESKY" name="ESKY" netid="KO" source="Bogazici University Kandilli Observatory And Earthquake Research Institute (KOERI)" insttype="" lat="40.5918" lon="28.9071">
		<comp name=".HNE" depth="0.0">
			<acc value="0.15735532026456" flag="0"/>
			<vel value="0.0562287520032" flag="0"/>
			<psa03 value="0.142789594526318" flag="0"/>
			<psa10 value="0.0196351307310332" flag="0"/>
			<psa30 value="0.001622117874016" flag="0"/>
		</comp>
		<comp name=".HNN" depth="0.0">
			<acc value="0.15881602478772" flag="0"/>
			<vel value="0.0521625557705" flag="0"/>
			<psa03 value="0.148506837848986" flag="0"/>
			<psa10 value="0.0271924251147229" flag="0"/>
			<psa30 value="0.00241658008657274" flag="0"/>
		</comp>
		<comp name=".HNZ" depth="0.0">
			<acc value="0.092696685713004" flag="0"/>
			<vel value="0.0399136616037" flag="0"/>
			<psa03 value="0.192385932123926" flag="0"/>
			<psa10 value="0.0267451179827993" flag="0"/>
			<psa30 value="0.00144092680849688" flag="0"/>
		</comp>
	</station>
	<station code="GOMA" name="GOMA" netid="KO" source="Bogazici University Kandilli Observatory And Earthquake Research Institute (KOERI)" insttype="" lat="38.7077" lon="27.9175">
		<comp name=".HNE" depth="0.0">
			<acc value="0.017134376090844" flag="0"/>
			<vel value="0.0086794781217" flag="0"/>
			<psa03 value="0.0611215437938776" flag="0"/>
			<psa10 value="0.00451346571368902" flag="0"/>
			<psa30 value="0.000458448390789133" flag="0"/>
		</comp>
		<comp name=".HNN" depth="0.0">
			<acc value="0.026437170776886" flag="0"/>
			<vel value="0.0153181765962" flag="0"/>
			<psa03 value="0.0638475316690981" flag="0"/>
			<psa10 value="0.00633456900910945" flag="0"/>
			<psa30 value="0.000548953605066899" flag="0"/>
		</comp>
		<comp name=".HNZ" depth="0.0">
			<acc value="0.011730423187392" flag="0"/>
			<vel value="0.0050412335416" flag="0"/>
			<psa03 value="0.0223064672773377" flag="0"/>
			<psa10 value="0.00206079222049663" flag="0"/>
			<psa30 value="0.000378989663497007" flag="0"/>
		</comp>
	</station>
	<station code="GONE" name="GONE" netid="KO" source="Bogazici University Kandilli Observatory And Earthquake Research Institute (KOERI)" insttype="" lat="40.0466" lon="27.686">
		<comp name=".HNE" depth="0.0">
			<acc value="0.027655901363454" flag="0"/>
			<vel value="0.00908834384558" flag="0"/>
			<psa03 value="0.034131563131886" flag="0"/>
			<psa10 value="0.00898350448807014" flag="0"/>
			<psa30 value="0.000333270150428728" flag="0"/>
		</comp>
		<comp name=".HNN" depth="0.0">
			<acc value="0.030186021289788" flag="0"/>
			<vel value="0.0131688809012" flag="0"/>
			<psa03 value="0.0363005635883621" flag="0"/>
			<psa10 value="0.0109029838316629" flag="0"/>
			<psa30 value="0.000544496955667362" flag="0"/>
		</comp>
		<comp name=".HNZ" depth="0.0">
			<acc value="0.016819090357236" flag="0"/>
			<vel value="0.00437886372552" flag="0"/>
			<psa03 value="0.0139925936073265" flag="0"/>
			<psa10 value="0.00495301733182497" flag="0"/>
			<psa30 value="0.000219407868027643" flag="0"/>
		</comp>
	</station>
	<station code="GORD" name="GORD" netid="KO" source="Bogazici University Kandilli Observatory And Earthquake Research Institute (KOERI)" insttype="" lat="38.9088" lon="28.1769">
		<comp name=".HNE" depth="0.0">
			<acc value="0.0076617170389212" flag="0"/>
			<vel value="0.00500324336245" flag="0"/>
			<psa03 value="0.0166809982634368" flag="0"/>
			<psa10 value="0.004834847472405" flag="0"/>
			<psa30 value="0.000391280477703191" flag="0"/>
		</comp>
		<comp name=".HNN" depth="0.0">
			<acc value="0.008246852725569" flag="0"/>
			<vel value="0.00794423767283" flag="0"/>
			<psa03 value="0.0227759567120333" flag="0"/>
			<psa10 value="0.00658862958938679" flag="0"/>
			<psa30 value="0.000413764857808018" flag="0"/>
		</comp>
		<comp name=".HNZ" depth="0.0">
			<acc value="0.0072979850826588" flag="0"/>
			<vel value="0.00361092339408" flag="0"/>
			<psa03 value="0.0151837272015953" flag="0"/>
			<psa10 value="0.00313609157880158" flag="0"/>
			<psa30 value="0.000353132820399423" flag="0"/>
		</comp>
	</station>
	<station code="GPA" name="GPA" netid="KO" source="Bogazici University Kandilli Observatory And Earthquake Research Institute (KOERI)" insttype="" lat="40.2911" lon="30.3171">
		<comp name=".HNE" depth="0.0">
			<acc value="0.022732154523162" flag="0"/>
			<vel value="0.0119358763032" flag="0"/>
			<psa03 value="0.0434784271074335" flag="0"/>
			<psa10 value="0.00565189862930096" flag="0"/>
			<psa30 value="0.000610017702347092" flag="0"/>
		</comp>
		<comp name=".HNN" depth="0.0">
			<acc value="0.026744054536404" flag="0"/>
			<vel value="0.0102562851141" flag="0"/>
			<psa03 value="0.0825668238135377" flag="0"/>
			<psa10 value="0.00588342771697062" flag="0"/>
			<psa30 value="0.000348503815833959" flag="0"/>
		</comp>
		<comp name=".HNZ" depth="0.0">
			<acc value="0.01296434342373" flag="0"/>
			<vel value="0.00726423928994" flag="0"/>
			<psa03 value="0.052430801408274" flag="0"/>
			<psa10 value="0.00254642806336058" flag="0"/>
			<psa30 value="0.000348698854796187" flag="0"/>
		</comp>
	</station>
	<station code="KAVV" name="KAVV" netid="KO" source="Bogazici University Kandilli Observatory And Earthquake Research Institute (KOERI)" insttype="" lat="41.0638" lon="29.06">
		<comp name=".HNE" depth="0.0">
			<acc value="0.057433406786712" flag="0"/>
			<vel value="0.0147857780506" flag="0"/>
			<psa03 value="0.069294767521444" flag="0"/>
			<psa10 value="0.00538604492404179" flag="0"/>
			<psa30 value="0.000416907956647594" flag="0"/>
		</comp>
		<comp name=".HNN" depth="0.0">
			<acc value="0.055030712462802" flag="0"/>
			<vel value="0.0167582540409" flag="0"/>
			<psa03 value="0.101219528213722" flag="0"/>
			<psa10 value="0.0037421943082565" flag="0"/>
			<psa30 value="0.000345935025872653" flag="0"/>
		</comp>
		<comp name=".HNZ" depth="0.0">
			<acc value="0.03254152794999" flag="0"/>
			<vel value="0.00751047825292" flag="0"/>
			<psa03 value="0.0270041274325649" flag="0"/>
			<psa10 value="0.00226815142577647" flag="0"/>
			<psa30 value="0.000656761892669476" flag="0"/>
		</comp>
	</station>
	<station code="KCTX" name="KCTX" netid="KO" source="Bogazici University Kandilli Observatory And Earthquake Research Institute (KOERI)" insttype="" lat="40.2626" lon="28.3353">
		<comp name=".HNE" depth="0.0">
			<acc value="0.11343955235718" flag="0"/>
			<vel value="0.00798174554361" flag="0"/>
			<psa03 value="0.0364188761134577" flag="0"/>
			<psa10 value="0.00307576461368455" flag="0"/>
			<psa30 value="0.000411046396473059" flag="0"/>
		</comp>
		<comp name=".HNN" depth="0.0">
			<acc value="0.096188498131368" flag="0"/>
