<?xml version="1.0" encoding="UTF-8" standalone="yes"?>
<!DOCTYPE earthquake SYSTEM "stationlist.dtd">
<stationlist created="" xmlns="ch.ethz.sed.shakemap.usgs.xml">
  <station code="EIL" name="EIL" netid="GE" insttype="STS-2/N" lat="29.6699" lon="34.9512">
    <comp name="--.HHZ">
      <acc value="0.0158127208" flag="0"/>
      <vel value="0.0072250514" flag="0"/>
      <psa03 value="0.0488032312" flag="0"/>
      <psa10 value="0.0028374525" flag="0"/>
      <psa30 value="0.0002377659" flag="0"/>
    </comp>
    <comp name="--.HHE">
      <acc value="0.0173019181" flag="0"/>
      <vel value="0.0067744124" flag="0"/>
      <psa03 value="0.0317408295" flag="0"/>
      <psa10 value="0.0033369432" flag="0"/>
      <psa30 value="0.0003871500" flag="0"/>
    </comp>
    <comp name="--.HHN">
      <acc value="0.0184704745" flag="0"/>
      <vel value="0.0073195282" flag="0"/>
      <psa03 value="0.0391523387" flag="0"/>
      <psa10 value="0.0032146832" flag="0"/>
      <psa30 value="0.0002038957" flag="0"/>
    </comp>
  </station>
  <station code="GHAJ" name="GHAJ" netid="GE" insttype="Trillium-240" lat="31.3034" lon="35.5665">
    <comp name="--.HHN">
      <acc value="0.1398187334" flag="0"/>
      <vel value="0.0594073979" flag="0"/>
      <psa03 value="0.4172137644" flag="0"/>
      <psa10 value="0.0296891962" flag="0"/>
      <psa30 value="0.0019196747" flag="0"/>
    </comp>
    <comp name="--.HHE">
      <acc value="0.1395863866" flag="0"/>
      <vel value="0.0862310199" flag="0"/>
      <psa03 value="0.5372214760" flag="0"/>
      <psa10 value="0.0290697775" flag="0"/>
      <psa30 value="0.0031099266" flag="0"/>
    </comp>
    <comp name="--.HHZ">
      <acc value="0.0598238694" flag="0"/>
      <vel value="0.0252090572" flag="0"/>
      <psa03 value="0.1749305708" flag="0"/>
      <psa10 value="0.0076668014" flag="0"/>
      <psa30 value="0.0006670532" flag="0"/>
    </comp>
  </station>
  <station code="MSBI" name="MSBI" netid="GE" insttype="Trillium-240" lat="31.3126" lon="35.358">
    <comp name="--.HHE">
      <acc value="0.0774694896" flag="0"/>
      <vel value="0.0282975800" flag="0"/>
      <psa03 value="0.1941222845" flag="0"/>
      <psa10 value="0.0109716973" flag="0"/>
      <psa30 value="0.0010868507" flag="0"/>
    </comp>
    <comp name="--.HHN">
      <acc value="0.0667271748" flag="0"/>
      <vel value="0.0217938207" flag="0"/>
      <psa03 value="0.1482756353" flag="0"/>
      <psa10 value="0.0051925352" flag="0"/>
      <psa30 value="0.0004828917" flag="0"/>
    </comp>
    <comp name="--.HHZ">
      <acc value="0.0400722113" flag="0"/>
      <vel value="0.0112913031" flag="0"/>
      <psa03 value="0.0617397142" flag="0"/>
      <psa10 value="0.0055071992" flag="0"/>
      <psa30 value="0.0003394788" flag="0"/>
    </comp>
  </station>
</stationlist>
