<?xml version="1.0" encoding="UTF-8" standalone="yes"?>
<!DOCTYPE earthquake SYSTEM "stationlist.dtd">
<stationlist created="" xmlns="ch.ethz.sed.shakemap.usgs.xml">
  <station code="CORM" name="CORM" netid="KO" insttype="CMG-6T" commtype="DIG" lat="40.1785" lon="34.6302">
    <comp name="--.HHE">
      <acc value="0.0385609943" flag="0"/>
      <vel value="0.0548418762" flag="0"/>
      <psa03 value="0.0923531248" flag="0"/>
      <psa10 value="0.0756771288" flag="0"/>
      <psa30 value="0.0128495046" flag="0"/>
    </comp>
    <comp name="--.HHN">
      <acc value="0.0579931097" flag="0"/>
      <vel value="0.0702475183" flag="0"/>
      <psa03 value="0.1408209083" flag="0"/>
      <psa10 value="0.1186062435" flag="0"/>
      <psa30 value="0.0209897799" flag="0"/>
    </comp>
    <comp name="--.HHZ">
      <acc value="0.0299564755" flag="0"/>
      <vel value="0.0313689878" flag="0"/>
      <psa03 value="0.0718973940" flag="0"/>
      <psa10 value="0.0447187899" flag="0"/>
      <psa30 value="0.0089340492" flag="0"/>
    </comp>
  </station>
  <station code="KONT" name="KONT" netid="KO" insttype="CMG-3T" commtype="DIG" lat="37.957" lon="32.3563">
    <comp name="--.HHZ">
      <acc value="0.0192529481" flag="0"/>
      <vel value="0.0238112479" flag="0"/>
      <psa03 value="0.0417719651" flag="0"/>
      <psa10 value="0.0474143632" flag="0"/>
      <psa30 value="0.0064241589" flag="0"/>
    </comp>
  </station>
  <station code="LOD" name="LOD" netid="KO" insttype="CMG-3T" commtype="DIG" lat="39.8884" lon="32.7634">
    <comp name="--.HHZ">
      <acc value="0.0692291348" flag="0"/>
      <vel value="0.0749003106" flag="0"/>
      <psa03 value="0.1881625020" flag="0"/>
      <psa10 value="0.1245062781" flag="0"/>
      <psa30 value="0.0096888717" flag="0"/>
    </comp>
  </station>
  <station code="SULT" name="SULT" netid="KO" insttype="CMG-3T" commtype="DIG" lat="38.1988" lon="33.5157">
    <comp name="--.HHE">
      <acc value="0.0479680264" flag="0"/>
      <vel value="0.0612848125" flag="0"/>
      <psa03 value="0.1297465500" flag="0"/>
      <psa10 value="0.0619451259" flag="0"/>
      <psa30 value="0.0227274302" flag="0"/>
    </comp>
    <comp name="--.HHZ">
      <acc value="0.0443897167" flag="0"/>
      <vel value="0.0306584400" flag="0"/>
      <psa03 value="0.0988860409" flag="0"/>
      <psa10 value="0.0486030191" flag="0"/>
      <psa30 value="0.0137260754" flag="0"/>
    </comp>
  </station>
  <station code="SVRH" name="SVRH" netid="KO" insttype="CMG-3T" commtype="DIG" lat="39.447" lon="31.523">
    <comp name="--.HHN">
      <acc value="0.0257288619" flag="0"/>
      <vel value="0.0357914885" flag="0"/>
      <psa03 value="0.0715846879" flag="0"/>
      <psa10 value="0.0325323524" flag="0"/>
      <psa30 value="0.0123456693" flag="0"/>
    </comp>
    <comp name="--.HHZ">
      <acc value="0.0310860923" flag="0"/>
      <vel value="0.0336043340" flag="0"/>
      <psa03 value="0.0667472417" flag="0"/>
      <psa10 value="0.0456175011" flag="0"/>
      <psa30 value="0.0121920530" flag="0"/>
    </comp>
  </station>
</stationlist>
