<stationlist xmlns:esm="https://esm-db.eu/esmws/shakemap/1/" created="1781229300">
	<station code="AGR3" name="AGR3" netid="HI" source="ITSAK Strong Motion Network" insttype="" lat="38.5893" lon="21.4162" esm:processing="automatic (Paolucci et al 2011)" esm:quality="best">
		<comp name="--.HNE" depth="0.0">
			<acc value="0.026059025305803" flag="0"/>
			<vel value="0.0146662327927936" flag="0"/>
			<psa03 value="0.0684487687700019" flag="0"/>
			<psa10 value="0.014840640619607" flag="0"/>
			<psa30 value="0.00158483175815936" flag="0"/>
		</comp>
		<comp name="--.HNN" depth="0.0">
			<acc value="0.0273718912016844" flag="0"/>
			<vel value="0.0107746242258385" flag="0"/>
			<psa03 value="0.077447875333313" flag="0"/>
			<psa10 value="0.0160932986020506" flag="0"/>
			<psa30 value="0.00171007192970608" flag="0"/>
		</comp>
		<comp name="--.HNZ" depth="0.0">
			<acc value="0.015280139986171" flag="0"/>
			<vel value="0.00689343428644199" flag="0"/>
			<psa03 value="0.0337419878452643" flag="0"/>
			<psa10 value="0.0103448896731708" flag="0"/>
			<psa30 value="0.00113773578607878" flag="0"/>
		</comp>
	</station>
	<station code="AKR1" name="AKR1" netid="HI" source="ITSAK Strong Motion Network" insttype="" lat="38.153583" lon="22.31326" esm:processing="automatic (Paolucci et al 2011)" esm:quality="best">
		<comp name="--.HNE" depth="0.0">
			<acc value="0.0269308050330904" flag="0"/>
			<vel value="0.00968680399979567" flag="0"/>
			<psa03 value="0.0671757729819451" flag="0"/>
			<psa10 value="0.0138151079956037" flag="0"/>
			<psa30 value="0.00079789004379956" flag="0"/>
		</comp>
		<comp name="--.HNN" depth="0.0">
			<acc value="0.0279163296825905" flag="0"/>
			<vel value="0.0104785862148322" flag="0"/>
			<psa03 value="0.0848107380868354" flag="0"/>
			<psa10 value="0.0117961195600285" flag="0"/>
			<psa30 value="0.000693681369652994" flag="0"/>
		</comp>
		<comp name="--.HNZ" depth="0.0">
			<acc value="0.0107777181543388" flag="0"/>
			<vel value="0.00721706507729488" flag="0"/>
			<psa03 value="0.027124429672846" flag="0"/>
			<psa10 value="0.00730928248534255" flag="0"/>
			<psa30 value="0.000535655797067693" flag="0"/>
		</comp>
	</station>
	<station code="AOL1" name="AOL1" netid="HI" source="ITSAK Strong Motion Network" insttype="" lat="37.642378" lon="21.624555" esm:processing="automatic (Paolucci et al 2011)" esm:quality="best">
		<comp name="--.HNE" depth="0.0">
			<acc value="0.751601348895873" flag="0"/>
			<vel value="0.278871779662282" flag="0"/>
			<psa03 value="0.721327867764479" flag="0"/>
			<psa10 value="0.114890345921565" flag="0"/>
			<psa30 value="0.0119596431009939" flag="0"/>
		</comp>
		<comp name="--.HNN" depth="0.0">
			<acc value="0.66570833956544" flag="0"/>
			<vel value="0.19423264126806" flag="0"/>
			<psa03 value="0.47103078681126" flag="0"/>
			<psa10 value="0.0876157416128861" flag="0"/>
			<psa30 value="0.00543423915834104" flag="0"/>
		</comp>
		<comp name="--.HNZ" depth="0.0">
			<acc value="0.557874090166493" flag="0"/>
			<vel value="0.115608117559151" flag="0"/>
			<psa03 value="0.195660919909023" flag="0"/>
			<psa10 value="0.0360996964277202" flag="0"/>
			<psa30 value="0.00349789338493665" flag="0"/>
		</comp>
	</station>
	<station code="ARE2" name="ARE2" netid="HI" source="ITSAK Strong Motion Network" insttype="" lat="36.66629" lon="22.382635" esm:processing="automatic (Paolucci et al 2011)" esm:quality="best">
		<comp name="--.HNE" depth="0.0">
			<acc value="0.00450512003363769" flag="0"/>
			<vel value="0.00320449482257062" flag="0"/>
			<psa03 value="0.00909717360664649" flag="0"/>
			<psa10 value="0.0074923292987956" flag="0"/>
			<psa30 value="0.000272939148587411" flag="0"/>
		</comp>
		<comp name="--.HNN" depth="0.0">
			<acc value="0.00371548685523746" flag="0"/>
			<vel value="0.00270438920134754" flag="0"/>
			<psa03 value="0.0106331334293633" flag="0"/>
			<psa10 value="0.0029130980565745" flag="0"/>
			<psa30 value="0.000300957020258905" flag="0"/>
		</comp>
		<comp name="--.HNZ" depth="0.0">
			<acc value="0.00183868668789993" flag="0"/>
			<vel value="0.00174756830445432" flag="0"/>
			<psa03 value="0.00517998865663894" flag="0"/>
			<psa10 value="0.00428049184282702" flag="0"/>
			<psa30 value="0.000429646274457088" flag="0"/>
		</comp>
	</station>
	<station code="ARG2" name="ARG2" netid="HI" source="ITSAK Strong Motion Network" insttype="" lat="38.1783" lon="20.4878" esm:processing="automatic (Paolucci et al 2011)" esm:quality="best">
		<comp name="--.HNE" depth="0.0">
			<acc value="0.0457411998683645" flag="0"/>
			<vel value="0.0183193664918402" flag="0"/>
			<psa03 value="0.11069977081653" flag="0"/>
			<psa10 value="0.00958202351203154" flag="0"/>
			<psa30 value="0.000609839825978866" flag="0"/>
		</comp>
		<comp name="--.HNN" depth="0.0">
			<acc value="0.0595673581223419" flag="0"/>
			<vel value="0.0228352972322347" flag="0"/>
			<psa03 value="0.128326969781952" flag="0"/>
			<psa10 value="0.0127747581400315" flag="0"/>
			<psa30 value="0.000785018305693415" flag="0"/>
		</comp>
		<comp name="--.HNZ" depth="0.0">
			<acc value="0.0272819787646312" flag="0"/>
			<vel value="0.0103474334090589" flag="0"/>
			<psa03 value="0.113885627697247" flag="0"/>
			<psa10 value="0.00651378447500347" flag="0"/>
			<psa30 value="0.00036855662860953" flag="0"/>
		</comp>
	</station>
	<station code="ARS1" name="ARS1" netid="HI" source="ITSAK Strong Motion Network" insttype="" lat="37.6349" lon="22.7293" esm:processing="manual (Paolucci et al 2011)" esm:quality="good">
		<comp name="--.HNE" depth="0.0">
			<acc value="0.00939420295076094" flag="0"/>
			<vel value="0.00873960078772129" flag="0"/>
			<psa03 value="0.0199884764822186" flag="0"/>
			<psa10 value="0.0130703227197344" flag="0"/>
			<psa30 value="0.00132798411826376" flag="0"/>
		</comp>
		<comp name="--.HNN" depth="0.0">
			<acc value="0.0107589665992902" flag="0"/>
			<vel value="0.0103962958402301" flag="0"/>
			<psa03 value="0.0351716763051082" flag="0"/>
			<psa10 value="0.0192952719670715" flag="0"/>
			<psa30 value="0.000806362532143665" flag="0"/>
		</comp>
		<comp name="--.HNZ" depth="0.0">
			<acc value="0.0112985040797009" flag="0"/>
			<vel value="0.00478081991368853" flag="0"/>
			<psa03 value="0.0184779441251966" flag="0"/>
			<psa10 value="0.00380073896780356" flag="0"/>
			<psa30 value="0.000815050659772815" flag="0"/>
		</comp>
	</station>
	<station code="AST1" name="AST1" netid="HI" source="ITSAK Strong Motion Network" insttype="" lat="38.5416" lon="21.0895" esm:processing="automatic (Paolucci et al 2011)" esm:quality="best">
		<comp name="--.HNE" depth="0.0">
			<acc value="0.035679114433088" flag="0"/>
			<vel value="0.0107558006305682" flag="0"/>
			<psa03 value="0.0744986122507747" flag="0"/>
			<psa10 value="0.00795402003979133" flag="0"/>
			<psa30 value="0.00089247495541909" flag="0"/>
		</comp>
		<comp name="--.HNN" depth="0.0">
			<acc value="0.0381450891673129" flag="0"/>
			<vel value="0.0105241648023451" flag="0"/>
			<psa03 value="0.080390778619546" flag="0"/>
			<psa10 value="0.0070914680562056" flag="0"/>
			<psa30 value="0.000572538240348551" flag="0"/>
		</comp>
		<comp name="--.HNZ" depth="0.0">
			<acc value="0.014758642195203" flag="0"/>
			<vel value="0.00593083420591015" flag="0"/>
			<psa03 value="0.0564898880111761" flag="0"/>
			<psa10 value="0.00855648244996927" flag="0"/>
			<psa30 value="0.000500397263446214" flag="0"/>
		</comp>
	</station>
	<station code="GTH2" name="GTH2" netid="HI" source="ITSAK Strong Motion Network" insttype="" lat="36.7603" lon="22.5659" esm:processing="manual (Paolucci et al 2011)" esm:quality="good">
		<comp name="--.HNE" depth="0.0">
			<acc value="0.00612616838084125" flag="0"/>
			<vel value="0.0054587838659089" flag="0"/>
			<psa03 value="0.0138604116738333" flag="0"/>
			<psa10 value="0.00502337574273951" flag="0"/>
			<psa30 value="0.000361805790774655" flag="0"/>
		</comp>
		<comp name="--.HNN" depth="0.0">
			<acc value="0.0057033979475117" flag="0"/>
			<vel value="0.0045710348985061" flag="0"/>
			<psa03 value="0.0201081172203303" flag="0"/>
			<psa10 value="0.00425210246216988" flag="0"/>
			<psa30 value="0.000349983913883329" flag="0"/>
		</comp>
		<comp name="--.HNZ" depth="0.0">
			<acc value="0.00317700047574084" flag="0"/>
			<vel value="0.00205732603030978" flag="0"/>
			<psa03 value="0.00883754507940575" flag="0"/>
			<psa10 value="0.00206331918476975" flag="0"/>
			<psa30 value="0.000375614752425593" flag="0"/>
		</comp>
	</station>
	<station code="ITE1" name="ITE1" netid="HI" source="ITSAK Strong Motion Network" insttype="" lat="38.4338" lon="22.4272" esm:processing="manual (Paolucci et al 2011)" esm:quality="good">
		<comp name="--.HNE" depth="0.0">
			<acc value="0.0209765652226185" flag="0"/>
			<vel value="0.0158506285457389" flag="0"/>
			<psa03 value="0.0720522991528712" flag="0"/>
			<psa10 value="0.00943371993764757" flag="0"/>
			<psa30 value="0.000598280518564813" flag="0"/>
		</comp>
		<comp name="--.HNN" depth="0.0">
			<acc value="0.0219844078854353" flag="0"/>
			<vel value="0.0153400583380925" flag="0"/>
			<psa03 value="0.066264332395146" flag="0"/>
			<psa10 value="0.00941722165721746" flag="0"/>
			<psa30 value="0.000636557585482642" flag="0"/>
		</comp>
		<comp name="--.HNZ" depth="0.0">
			<acc value="0.0108960274198311" flag="0"/>
			<vel value="0.00549062165990198" flag="0"/>
			<psa03 value="0.0331349893012564" flag="0"/>
			<psa10 value="0.00277427135998718" flag="0"/>
			<psa30 value="0.00033534364716251" flag="0"/>
		</comp>
	</station>
	<station code="KAC1" name="KAC1" netid="HI" source="ITSAK Strong Motion Network" insttype="" lat="38.143412" lon="21.549694" esm:processing="automatic (Paolucci et al 2011)" esm:quality="best">
		<comp name="--.HNE" depth="0.0">
			<acc value="0.135283990042945" flag="0"/>
			<vel value="0.0567344652528536" flag="0"/>
			<psa03 value="0.469585649411333" flag="0"/>
			<psa10 value="0.0441117159346916" flag="0"/>
			<psa30 value="0.00270731267951155" flag="0"/>
		</comp>
		<comp name="--.HNN" depth="0.0">
			<acc value="0.1248464067417" flag="0"/>
			<vel value="0.0581487848033538" flag="0"/>
			<psa03 value="0.370094475275991" flag="0"/>
			<psa10 value="0.0284139635356357" flag="0"/>
			<psa30 value="0.00262745113907643" flag="0"/>
		</comp>
		<comp name="--.HNZ" depth="0.0">
			<acc value="0.0828674872593336" flag="0"/>
			<vel value="0.0274335167688621" flag="0"/>
			<psa03 value="0.245858307739611" flag="0"/>
			<psa10 value="0.0231421249272008" flag="0"/>
			<psa30 value="0.00246445825826467" flag="0"/>
		</comp>
	</station>
	<station code="KAL3" name="KAL3" netid="HI" source="ITSAK Strong Motion Network" insttype="" lat="37.0246" lon="22.103" esm:processing="automatic (Paolucci et al 2011)" esm:quality="best">
		<comp name="--.HNE" depth="0.0">
			<acc value="0.0230636016927618" flag="0"/>
			<vel value="0.0161342126626259" flag="0"/>
			<psa03 value="0.0439538023486915" flag="0"/>
			<psa10 value="0.0190317251333872" flag="0"/>
			<psa30 value="0.00228550244498698" flag="0"/>
		</comp>
		<comp name="--.HNN" depth="0.0">
			<acc value="0.0228104585575271" flag="0"/>
			<vel value="0.0191939672930648" flag="0"/>
			<psa03 value="0.0484687889443951" flag="0"/>
			<psa10 value="0.0216511180303113" flag="0"/>
			<psa30 value="0.00148893800983582" flag="0"/>
		</comp>
		<comp name="--.HNZ" depth="0.0">
			<acc value="0.0114827994761919" flag="0"/>
			<vel value="0.00598682261308981" flag="0"/>
			<psa03 value="0.0261706034657076" flag="0"/>
			<psa10 value="0.0125850761995339" flag="0"/>
			<psa30 value="0.000752733354473843" flag="0"/>
		</comp>
	</station>
	<station code="KLV1" name="KLV1" netid="HI" source="ITSAK Strong Motion Network" insttype="" lat="38.03256" lon="22.10797" esm:processing="automatic (Paolucci et al 2011)" esm:quality="best">
		<comp name="--.HNE" depth="0.0">
			<acc value="0.043579857359381" flag="0"/>
			<vel value="0.0205931041713769" flag="0"/>
			<psa03 value="0.0985987087638916" flag="0"/>
			<psa10 value="0.0126236156275818" flag="0"/>
			<psa30 value="0.000614730358285963" flag="0"/>
		</comp>
		<comp name="--.HNN" depth="0.0">
			<acc value="0.0322230921411478" flag="0"/>
			<vel value="0.0145996106055777" flag="0"/>
			<psa03 value="0.0767096962242365" flag="0"/>
			<psa10 value="0.011903262282708" flag="0"/>
			<psa30 value="0.00094927996847242" flag="0"/>
		</comp>
		<comp name="--.HNZ" depth="0.0">
			<acc value="0.0228444138998815" flag="0"/>
			<vel value="0.00654551225901852" flag="0"/>
			<psa03 value="0.0353483755105634" flag="0"/>
			<psa10 value="0.012162509456561" flag="0"/>
			<psa30 value="0.000422797747859145" flag="0"/>
		</comp>
	</station>
	<station code="KOR2" name="KOR2" netid="HI" source="ITSAK Strong Motion Network" insttype="" lat="37.9401" lon="22.9495" esm:processing="manual (Paolucci et al 2011)" esm:quality="good">
		<comp name="--.HNE" depth="0.0">
			<acc value="0.00767320466943714" flag="0"/>
			<vel value="0.00679817472795933" flag="0"/>
			<psa03 value="0.0251769074298887" flag="0"/>
			<psa10 value="0.0136044443526712" flag="0"/>
			<psa30 value="0.00103390692875988" flag="0"/>
		</comp>
		<comp name="--.HNN" depth="0.0">
			<acc value="0.00700658695801396" flag="0"/>
			<vel value="0.00687508384012011" flag="0"/>
			<psa03 value="0.0236421651357438" flag="0"/>
			<psa10 value="0.010525199742828" flag="0"/>
			<psa30 value="0.00100856712512225" flag="0"/>
		</comp>
		<comp name="--.HNZ" depth="0.0">
			<acc value="0.00553906633440592" flag="0"/>
			<vel value="0.00425790429173792" flag="0"/>
			<psa03 value="0.0203584762533042" flag="0"/>
			<psa10 value="0.0060166370101738" flag="0"/>
			<psa30 value="0.000330290109265426" flag="0"/>
		</comp>
	</station>
	<station code="LEF2" name="LEF2" netid="HI" source="ITSAK Strong Motion Network" insttype="" lat="38.830093" lon="20.708346" esm:processing="automatic (Paolucci et al 2011)" esm:quality="best">
		<comp name="--.HNE" depth="0.0">
			<acc value="0.0212353925891707" flag="0"/>
			<vel value="0.0139193866946694" flag="0"/>
			<psa03 value="0.0692331957344385" flag="0"/>
			<psa10 value="0.0178257014902397" flag="0"/>
			<psa30 value="0.00164795896086006" flag="0"/>
		</comp>
		<comp name="--.HNN" depth="0.0">
			<acc value="0.0236395798081408" flag="0"/>
			<vel value="0.0139648013488213" flag="0"/>
			<psa03 value="0.0790962501550552" flag="0"/>
			<psa10 value="0.0195383968229" flag="0"/>
			<psa30 value="0.00115034495470765" flag="0"/>
		</comp>
		<comp name="--.HNZ" depth="0.0">
			<acc value="0.0122658600542401" flag="0"/>
			<vel value="0.00797813072635981" flag="0"/>
			<psa03 value="0.0328262084293724" flag="0"/>
			<psa10 value="0.0102955354661968" flag="0"/>
			<psa30 value="0.000828260857800269" flag="0"/>
		</comp>
	</station>
	<station code="LEO1" name="LEO1" netid="HI" source="ITSAK Strong Motion Network" insttype="" lat="37.1689" lon="22.8637" esm:processing="automatic (Paolucci et al 2011)" esm:quality="best">
		<comp name="--.HNE" depth="0.0">
			<acc value="0.00495458762844628" flag="0"/>
			<vel value="0.00316243576942815" flag="0"/>
			<psa03 value="0.0101871273211475" flag="0"/>
			<psa10 value="0.00345250730541496" flag="0"/>
			<psa30 value="0.000376211484664509" flag="0"/>
		</comp>
		<comp name="--.HNN" depth="0.0">
			<acc value="0.00327291283503069" flag="0"/>
			<vel value="0.00268132312957644" flag="0"/>
			<psa03 value="0.0077755886622966" flag="0"/>
			<psa10 value="0.00395234322959186" flag="0"/>
			<psa30 value="0.000252382057614357" flag="0"/>
		</comp>
		<comp name="--.HNZ" depth="0.0">
			<acc value="0.00379832774390437" flag="0"/>
			<vel value="0.0020105051947608" flag="0"/>
			<psa03 value="0.00743051762595063" flag="0"/>
			<psa10 value="0.00189398269362077" flag="0"/>
			<psa30 value="0.000324624890222467" flag="0"/>
		</comp>
	</station>
	<station code="LXR1" name="LXR1" netid="HI" source="ITSAK Strong Motion Network" insttype="" lat="38.201" lon="20.4374" esm:processing="automatic (Paolucci et al 2011)" esm:quality="best">
		<comp name="--.HNE" depth="0.0">
			<acc value="0.0659050967842146" flag="0"/>
			<vel value="0.0424568229822902" flag="0"/>
			<psa03 value="0.222693335673899" flag="0"/>
			<psa10 value="0.0192715403949713" flag="0"/>
			<psa30 value="0.00160356862438479" flag="0"/>
		</comp>
		<comp name="--.HNN" depth="0.0">
			<acc value="0.0586526477682355" flag="0"/>
			<vel value="0.0275949422127594" flag="0"/>
			<psa03 value="0.194393210929525" flag="0"/>
			<psa10 value="0.0218224743818286" flag="0"/>
			<psa30 value="0.00154332286256541" flag="0"/>
		</comp>
		<comp name="--.HNZ" depth="0.0">
			<acc value="0.0548858226594496" flag="0"/>
			<vel value="0.0211954162760639" flag="0"/>
			<psa03 value="0.0893963387353734" flag="0"/>
			<psa10 value="0.00931721659487288" flag="0"/>
			<psa30 value="0.000598767321646461" flag="0"/>
		</comp>
	</station>
	<station code="MGP1" name="MGP1" netid="HI" source="ITSAK Strong Motion Network" insttype="" lat="37.403248" lon="22.140703" esm:processing="manual (Paolucci et al 2011)" esm:quality="good">
		<comp name="--.HNE" depth="0.0">
			<acc value="0.0254565024398705" flag="0"/>
			<vel value="0.0244145512871033" flag="0"/>
			<psa03 value="0.0631009092922241" flag="0"/>
			<psa10 value="0.047306736339113" flag="0"/>
			<psa30 value="0.00262118801584192" flag="0"/>
		</comp>
		<comp name="--.HNN" depth="0.0">
			<acc value="0.0316408067928706" flag="0"/>
			<vel value="0.0172456759138144" flag="0"/>
			<psa03 value="0.06348214808909" flag="0"/>
			<psa10 value="0.0215752880069444" flag="0"/>
			<psa30 value="0.00249043289562359" flag="0"/>
		</comp>
		<comp name="--.HNZ" depth="0.0">
			<acc value="0.0151370955124466" flag="0"/>
			<vel value="0.00860534405535563" flag="0"/>
			<psa03 value="0.020069882916662" flag="0"/>
			<psa10 value="0.0178162377383126" flag="0"/>
			<psa30 value="0.00235565792577661" flag="0"/>
		</comp>
	</station>
	<station code="MSL1" name="MSL1" netid="HI" source="ITSAK Strong Motion Network" insttype="" lat="38.3727" lon="21.4243" esm:processing="automatic (Paolucci et al 2011)" esm:quality="best">
		<comp name="--.HNE" depth="0.0">
			<acc value="0.0593227617548822" flag="0"/>
			<vel value="0.0390592406573165" flag="0"/>
			<psa03 value="0.162265957656668" flag="0"/>
			<psa10 value="0.0467164209836178" flag="0"/>
			<psa30 value="0.00191155392273263" flag="0"/>
		</comp>
		<comp name="--.HNN" depth="0.0">
			<acc value="0.0533315138843382" flag="0"/>
			<vel value="0.0425482677947656" flag="0"/>
			<psa03 value="0.186581380934126" flag="0"/>
			<psa10 value="0.0563158418981419" flag="0"/>
			<psa30 value="0.00219479997806036" flag="0"/>
		</comp>
		<comp name="--.HNZ" depth="0.0">
			<acc value="0.0279411584514673" flag="0"/>
			<vel value="0.0121708553620412" flag="0"/>
			<psa03 value="0.0809264599391378" flag="0"/>
			<psa10 value="0.0197169892787737" flag="0"/>
			<psa30 value="0.000748211179901972" flag="0"/>
		</comp>
	</station>
	<station code="NMA1" name="NMA1" netid="HI" source="ITSAK Strong Motion Network" insttype="" lat="37.81873" lon="22.662702" esm:processing="automatic (Paolucci et al 2011)" esm:quality="best">
		<comp name="--.HNE" depth="0.0">
			<acc value="0.0108456331883694" flag="0"/>
			<vel value="0.00744614405639611" flag="0"/>
			<psa03 value="0.027055563131609" flag="0"/>
			<psa10 value="0.00934923059064298" flag="0"/>
			<psa30 value="0.000790795823842305" flag="0"/>
		</comp>
		<comp name="--.HNN" depth="0.0">
			<acc value="0.0126926294797469" flag="0"/>
			<vel value="0.00982447656180351" flag="0"/>
			<psa03 value="0.0261047657709501" flag="0"/>
			<psa10 value="0.0161584254163824" flag="0"/>
			<psa30 value="0.000573206357524702" flag="0"/>
		</comp>
		<comp name="--.HNZ" depth="0.0">
			<acc value="0.00742748488532472" flag="0"/>
			<vel value="0.00588496581017618" flag="0"/>
			<psa03 value="0.0233785565271339" flag="0"/>
			<psa10 value="0.00617649369364454" flag="0"/>
