<?xml version="1.0" encoding="UTF-8" standalone="yes"?>
<!DOCTYPE earthquake SYSTEM "stationlist.dtd">
<stationlist created="" xmlns="ch.ethz.sed.shakemap.usgs.xml">
  <station code="AGRP" name="AGRP" netid="CL" insttype="CMG40-T" lat="38.3959" lon="21.7228">
    <comp name="00.HHE">
      <acc value="0.0291837199" flag="0"/>
      <vel value="0.0132989691" flag="0"/>
      <psa03 value="0.0746321314" flag="0"/>
      <psa10 value="0.0057559712" flag="0"/>
      <psa30 value="0.0006495074" flag="0"/>
    </comp>
    <comp name="00.HHN">
      <acc value="0.0196651990" flag="0"/>
      <vel value="0.0090342534" flag="0"/>
      <psa03 value="0.0605516665" flag="0"/>
      <psa10 value="0.0040381439" flag="0"/>
      <psa30 value="0.0004976539" flag="0"/>
    </comp>
    <comp name="00.HHZ">
      <acc value="0.0142111411" flag="0"/>
      <vel value="0.0045688595" flag="0"/>
      <psa03 value="0.0260519213" flag="0"/>
      <psa10 value="0.0030459349" flag="0"/>
      <psa30 value="0.0004372841" flag="0"/>
    </comp>
  </station>
  <station code="KALE" name="KALE" netid="HA" insttype="40," lat="38.3911" lon="22.1398">
    <comp name="--.HHE">
      <acc value="0.0213113274" flag="0"/>
      <vel value="0.0091254048" flag="0"/>
      <psa03 value="0.0365187731" flag="0"/>
      <psa10 value="0.0063798404" flag="0"/>
      <psa30 value="0.0004446278" flag="0"/>
    </comp>
    <comp name="--.HHN">
      <acc value="0.0229094530" flag="0"/>
      <vel value="0.0086051963" flag="0"/>
      <psa03 value="0.0393941339" flag="0"/>
      <psa10 value="0.0041629056" flag="0"/>
      <psa30 value="0.0004358801" flag="0"/>
    </comp>
    <comp name="--.HHZ">
      <acc value="0.0104513046" flag="0"/>
      <vel value="0.0041664109" flag="0"/>
      <psa03 value="0.0318055380" flag="0"/>
      <psa10 value="0.0034053026" flag="0"/>
      <psa30 value="0.0002844467" flag="0"/>
    </comp>
  </station>
  <station code="ARG2" name="ARG2" netid="HI" insttype="CMG-5TD,ACCELEROMETER,GURALP" lat="38.1783" lon="20.4878">
    <comp name="--.HNE">
      <acc value="0.0457571388" flag="0"/>
      <vel value="0.0181716414" flag="0"/>
      <psa03 value="0.1096328136" flag="0"/>
      <psa10 value="0.0095460212" flag="0"/>
      <psa30 value="0.0006030173" flag="0"/>
    </comp>
    <comp name="--.HNN">
      <acc value="0.0592228282" flag="0"/>
      <vel value="0.0226670739" flag="0"/>
      <psa03 value="0.1267122243" flag="0"/>
      <psa10 value="0.0127452755" flag="0"/>
      <psa30 value="0.0007751903" flag="0"/>
    </comp>
    <comp name="--.HNZ">
      <acc value="0.0274673886" flag="0"/>
      <vel value="0.0101695120" flag="0"/>
      <psa03 value="0.1143885249" flag="0"/>
      <psa10 value="0.0065000849" flag="0"/>
      <psa30 value="0.0003579030" flag="0"/>
    </comp>
  </station>
  <station code="KLV1" name="KLV1" netid="HI" insttype="CMG-5TD,ACCELEROMETER,GURALP" lat="38.0326" lon="22.108">
    <comp name="--.HNE">
      <acc value="0.0434991950" flag="0"/>
      <vel value="0.0205208888" flag="0"/>
      <psa03 value="0.1000994735" flag="0"/>
      <psa10 value="0.0125849054" flag="0"/>
      <psa30 value="0.0006041648" flag="0"/>
    </comp>
    <comp name="--.HNN">
      <acc value="0.0321660644" flag="0"/>
      <vel value="0.0145385055" flag="0"/>
      <psa03 value="0.0756636698" flag="0"/>
      <psa10 value="0.0118902523" flag="0"/>
      <psa30 value="0.0009259041" flag="0"/>
    </comp>
    <comp name="--.HNZ">
      <acc value="0.0226383998" flag="0"/>
      <vel value="0.0064752756" flag="0"/>
      <psa03 value="0.0354571445" flag="0"/>
      <psa10 value="0.0121459677" flag="0"/>
      <psa30 value="0.0003987178" flag="0"/>
    </comp>
  </station>
  <station code="MSL1" name="MSL1" netid="HI" insttype="CMG-5TD,ACCELEROMETER,GURALP" lat="38.3727" lon="21.4243">
    <comp name="--.HNE">
      <acc value="0.0592316943" flag="0"/>
      <vel value="0.0389014213" flag="0"/>
      <psa03 value="0.1623522935" flag="0"/>
      <psa10 value="0.0465838229" flag="0"/>
      <psa30 value="0.0018512802" flag="0"/>
    </comp>
    <comp name="--.HNN">
      <acc value="0.0533361288" flag="0"/>
      <vel value="0.0424327443" flag="0"/>
      <psa03 value="0.1831775897" flag="0"/>
      <psa10 value="0.0562733205" flag="0"/>
      <psa30 value="0.0021773850" flag="0"/>
    </comp>
    <comp name="--.HNZ">
      <acc value="0.0278600255" flag="0"/>
      <vel value="0.0121727369" flag="0"/>
      <psa03 value="0.0806550028" flag="0"/>
      <psa10 value="0.0196765101" flag="0"/>
      <psa30 value="0.0007237335" flag="0"/>
    </comp>
  </station>
  <station code="ITM" name="ITM" netid="HL" insttype="DR24" lat="37.1787" lon="21.9252">
    <comp name="--.HHE">
      <acc value="0.0138051885" flag="0"/>
      <vel value="0.0055830308" flag="0"/>
      <psa03 value="0.0325445536" flag="0"/>
      <psa10 value="0.0044485498" flag="0"/>
      <psa30 value="0.0008543697" flag="0"/>
    </comp>
    <comp name="--.HHN">
      <acc value="0.0190752102" flag="0"/>
      <vel value="0.0055717693" flag="0"/>
      <psa03 value="0.0273366534" flag="0"/>
      <psa10 value="0.0057116773" flag="0"/>
      <psa30 value="0.0006543471" flag="0"/>
    </comp>
    <comp name="--.HHZ">
      <acc value="0.0159062566" flag="0"/>
      <vel value="0.0053699685" flag="0"/>
      <psa03 value="0.0220990271" flag="0"/>
      <psa10 value="0.0035226361" flag="0"/>
      <psa30 value="0.0006946695" flag="0"/>
    </comp>
  </station>
  <station code="KLV" name="KLV" netid="HL" insttype="120" lat="38.0435" lon="22.1504">
    <comp name="--.HHE">
      <acc value="0.0125462236" flag="0"/>
      <vel value="0.0059430016" flag="0"/>
      <psa03 value="0.0256946934" flag="0"/>
      <psa10 value="0.0038814019" flag="0"/>
      <psa30 value="0.0003607057" flag="0"/>
    </comp>
    <comp name="--.HHN">
      <acc value="0.0160150060" flag="0"/>
      <vel value="0.0056117622" flag="0"/>
      <psa03 value="0.0274364566" flag="0"/>
      <psa10 value="0.0063479967" flag="0"/>
      <psa30 value="0.0004232256" flag="0"/>
    </comp>
    <comp name="--.HHZ">
      <acc value="0.0125936847" flag="0"/>
      <vel value="0.0053017723" flag="0"/>
      <psa03 value="0.0234639120" flag="0"/>
      <psa10 value="0.0072233290" flag="0"/>
      <psa30 value="0.0003980653" flag="0"/>
    </comp>
  </station>
  <station code="ORTH" name="ORTH" netid="HL" insttype="30" lat="37.8511" lon="20.6963">
    <comp name="--.HHE">
      <acc value="0.1064555765" flag="0"/>
      <vel value="0.0350281789" flag="0"/>
      <psa03 value="0.1955993635" flag="0"/>
      <psa10 value="0.0149621539" flag="0"/>
      <psa30 value="0.0008787194" flag="0"/>
    </comp>
    <comp name="--.HHN">
      <acc value="0.0961696065" flag="0"/>
      <vel value="0.0269100369" flag="0"/>
      <psa03 value="0.1227692154" flag="0"/>
      <psa10 value="0.0092972739" flag="0"/>
      <psa30 value="0.0006213604" flag="0"/>
    </comp>
    <comp name="--.HHZ">
      <acc value="0.0827198572" flag="0"/>
      <vel value="0.0137680258" flag="0"/>
      <psa03 value="0.0873933739" flag="0"/>
      <psa10 value="0.0051920428" flag="0"/>
      <psa30 value="0.0003150640" flag="0"/>
    </comp>
  </station>
  <station code="PATC" name="PATC" netid="HL" insttype="CMG-5" lat="38.2693" lon="21.76">
    <comp name="00.HNE">
      <acc value="0.0531745254" flag="0"/>
      <vel value="0.0311365896" flag="0"/>
      <psa03 value="0.2106978772" flag="0"/>
      <psa10 value="0.0384993446" flag="0"/>
      <psa30 value="0.0025862358" flag="0"/>
    </comp>
    <comp name="00.HNN">
      <acc value="0.0511002707" flag="0"/>
      <vel value="0.0317783416" flag="0"/>
      <psa03 value="0.1657206752" flag="0"/>
      <psa10 value="0.0365302316" flag="0"/>
      <psa30 value="0.0022359040" flag="0"/>
    </comp>
    <comp name="00.HNZ">
      <acc value="0.0401064467" flag="0"/>
      <vel value="0.0169652949" flag="0"/>
      <psa03 value="0.0929663358" flag="0"/>
      <psa10 value="0.0182821985" flag="0"/>
      <psa30 value="0.0011912983" flag="0"/>
    </comp>
  </station>
  <station code="PATG" name="PATG" netid="HL" insttype="CMG-5" lat="38.2386" lon="21.7266">
    <comp name="00.HNE">
      <acc value="0.0990930878" flag="0"/>
      <vel value="0.0400459526" flag="0"/>
      <psa03 value="0.2099520356" flag="0"/>
      <psa10 value="0.0344212564" flag="0"/>
      <psa30 value="0.0032176984" flag="0"/>
    </comp>
    <comp name="00.HNN">
      <acc value="0.1041356855" flag="0"/>
      <vel value="0.0434409352" flag="0"/>
      <psa03 value="0.2615937382" flag="0"/>
      <psa10 value="0.0255821773" flag="0"/>
      <psa30 value="0.0029863606" flag="0"/>
    </comp>
    <comp name="00.HNZ">
      <acc value="0.0396824418" flag="0"/>
      <vel value="0.0177388112" flag="0"/>
      <psa03 value="0.0752715836" flag="0"/>
      <psa10 value="0.0195105589" flag="0"/>
      <psa30 value="0.0011330093" flag="0"/>
    </comp>
  </station>
  <station code="RLS" name="RLS" netid="HL" insttype="120" lat="38.0559" lon="21.4647">
    <comp name="--.HHE">
      <acc value="0.1603823133" flag="0"/>
      <vel value="0.0498423106" flag="0"/>
      <psa03 value="0.1913604417" flag="0"/>
      <psa10 value="0.0199423505" flag="0"/>
      <psa30 value="0.0012375146" flag="0"/>
    </comp>
    <comp name="--.HHN">
      <acc value="0.1994691941" flag="0"/>
      <vel value="0.0547804672" flag="0"/>
      <psa03 value="0.3882200729" flag="0"/>
      <psa10 value="0.0221151131" flag="0"/>
      <psa30 value="0.0014356415" flag="0"/>
    </comp>
    <comp name="--.HHZ">
      <acc value="0.0891253765" flag="0"/>
      <vel value="0.0270473775" flag="0"/>
      <psa03 value="0.2152223400" flag="0"/>
      <psa10 value="0.0096400656" flag="0"/>
      <psa30 value="0.0008178444" flag="0"/>
    </comp>
  </station>
  <station code="VLS" name="VLS" netid="HL" insttype="120P," lat="38.1768" lon="20.5886">
    <comp name="--.HHE">
      <acc value="0.0302191350" flag="0"/>
      <vel value="0.0073204699" flag="0"/>
      <psa03 value="0.0417388522" flag="0"/>
      <psa10 value="0.0039677539" flag="0"/>
      <psa30 value="0.0002577394" flag="0"/>
    </comp>
    <comp name="--.HHN">
      <acc value="0.0237285998" flag="0"/>
      <vel value="0.0098109825" flag="0"/>
      <psa03 value="0.0683578703" flag="0"/>
      <psa10 value="0.0089052961" flag="0"/>
      <psa30 value="0.0005323907" flag="0"/>
    </comp>
    <comp name="--.HHZ">
      <acc value="0.0141340635" flag="0"/>
      <vel value="0.0047009070" flag="0"/>
      <psa03 value="0.0337129677" flag="0"/>
      <psa10 value="0.0029541424" flag="0"/>
      <psa30 value="0.0002473469" flag="0"/>
    </comp>
  </station>
  <station code="AMT" name="AMT" netid="HP" insttype="CMG-3T," lat="37.5324" lon="21.7089">
    <comp name="00.HHN">
      <acc value="0.1019091044" flag="0"/>
      <vel value="0.0313176281" flag="0"/>
      <psa03 value="0.1209047768" flag="0"/>
      <psa10 value="0.0346575228" flag="0"/>
      <psa30 value="0.0023381765" flag="0"/>
    </comp>
    <comp name="00.HHZ">
      <acc value="0.0594711196" flag="0"/>
      <vel value="0.0197432609" flag="0"/>
      <psa03 value="0.0902403681" flag="0"/>
      <psa10 value="0.0240535654" flag="0"/>
      <psa30 value="0.0013428126" flag="0"/>
    </comp>
    <comp name="00.HHE">
      <acc value="0.0803873506" flag="0"/>
      <vel value="0.0380760016" flag="0"/>
      <psa03 value="0.1751413985" flag="0"/>
      <psa10 value="0.0427339889" flag="0"/>
      <psa30 value="0.0034415526" flag="0"/>
    </comp>
  </station>
  <station code="ANX" name="ANX" netid="HP" insttype="120" lat="38.5933" lon="21.9209">
    <comp name="--.HHE">
      <acc value="0.0139743185" flag="0"/>
      <vel value="0.0067868665" flag="0"/>
      <psa03 value="0.0407682563" flag="0"/>
      <psa10 value="0.0057172283" flag="0"/>
      <psa30 value="0.0004415021" flag="0"/>
    </comp>
    <comp name="--.HHN">
      <acc value="0.0138873403" flag="0"/>
      <vel value="0.0095062124" flag="0"/>
      <psa03 value="0.0416865686" flag="0"/>
      <psa10 value="0.0090714597" flag="0"/>
      <psa30 value="0.0003521200" flag="0"/>
    </comp>
    <comp name="--.HHZ">
      <acc value="0.0053869771" flag="0"/>
      <vel value="0.0033769738" flag="0"/>
      <psa03 value="0.0180680626" flag="0"/>
      <psa10 value="0.0048145445" flag="0"/>
      <psa30 value="0.0002365743" flag="0"/>
    </comp>
  </station>
  <station code="AXS" name="AXS" netid="HP" insttype="40," lat="38.1962" lon="21.3763">
    <comp name="--.HHE">
      <acc value="0.0421502053" flag="0"/>
      <vel value="0.0154006112" flag="0"/>
      <psa03 value="0.0655734233" flag="0"/>
      <psa10 value="0.0074389755" flag="0"/>
      <psa30 value="0.0004404764" flag="0"/>
    </comp>
    <comp name="--.HHN">
      <acc value="0.0405395161" flag="0"/>
      <vel value="0.0133056779" flag="0"/>
      <psa03 value="0.1087998318" flag="0"/>
      <psa10 value="0.0079722857" flag="0"/>
      <psa30 value="0.0004766991" flag="0"/>
    </comp>
    <comp name="--.HHZ">
      <acc value="0.0248576838" flag="0"/>
      <vel value="0.0083559377" flag="0"/>
      <psa03 value="0.0640401278" flag="0"/>
      <psa10 value="0.0043145546" flag="0"/>
      <psa30 value="0.0004073847" flag="0"/>
    </comp>
  </station>
  <station code="DRO" name="DRO" netid="HP" insttype="120P," lat="37.952" lon="21.71">
    <comp name="--.HHE">
      <acc value="0.2768767097" flag="0"/>
      <vel value="0.0952274046" flag="0"/>
      <psa03 value="0.5583826431" flag="0"/>
      <psa10 value="0.0384543353" flag="0"/>
      <psa30 value="0.0035379068" flag="0"/>
    </comp>
    <comp name="--.HHN">
      <acc value="0.2322712206" flag="0"/>
      <vel value="0.1107935285" flag="0"/>
      <psa03 value="0.5519100427" flag="0"/>
      <psa10 value="0.0352293287" flag="0"/>
      <psa30 value="0.0028999637" flag="0"/>
    </comp>
    <comp name="--.HHZ">
      <acc value="0.1129089645" flag="0"/>
      <vel value="0.0366417850" flag="0"/>
      <psa03 value="0.1825246047" flag="0"/>
      <psa10 value="0.0148107235" flag="0"/>
      <psa30 value="0.0014732384" flag="0"/>
    </comp>
  </station>
  <station code="EFP" name="EFP" netid="HP" insttype="40," lat="38.4269" lon="21.9058">
    <comp name="--.HHE">
      <acc value="0.0176048673" flag="0"/>
      <vel value="0.0086883747" flag="0"/>
      <psa03 value="0.0295088901" flag="0"/>
      <psa10 value="0.0058469479" flag="0"/>
      <psa30 value="0.0008253589" flag="0"/>
    </comp>
    <comp name="--.HHN">
      <acc value="0.0131507463" flag="0"/>
      <vel value="0.0055281387" flag="0"/>
      <psa03 value="0.0305675418" flag="0"/>
      <psa10 value="0.0048244580" flag="0"/>
      <psa30 value="0.0005468118" flag="0"/>
    </comp>
    <comp name="--.HHZ">
      <acc value="0.0118287640" flag="0"/>
      <vel value="0.0050040650" flag="0"/>
      <psa03 value="0.0297200756" flag="0"/>
      <psa10 value="0.0033922051" flag="0"/>
      <psa30 value="0.0003112216" flag="0"/>
    </comp>
  </station>
  <station code="FSK" name="FSK" netid="HP" insttype="40," lat="38.4593" lon="20.5623">
    <comp name="--.HHE">
      <acc value="0.0169691575" flag="0"/>
      <vel value="0.0078451176" flag="0"/>
      <psa03 value="0.0231663126" flag="0"/>
      <psa10 value="0.0068866914" flag="0"/>
      <psa30 value="0.0005342734" flag="0"/>
    </comp>
    <comp name="--.HHN">
      <acc value="0.0125179531" flag="0"/>
      <vel value="0.0065829412" flag="0"/>
      <psa03 value="0.0216821286" flag="0"/>
      <psa10 value="0.0105190582" flag="0"/>
      <psa30 value="0.0007527929" flag="0"/>
    </comp>
    <comp name="--.HHZ">
      <acc value="0.0075351606" flag="0"/>
      <vel value="0.0048765526" flag="0"/>
      <psa03 value="0.0167166656" flag="0"/>
      <psa10 value="0.0041005843" flag="0"/>
      <psa30 value="0.0004413884" flag="0"/>
    </comp>
  </station>
  <station code="GUR" name="GUR" netid="HP" insttype="40," lat="37.9363" lon="22.3423">
    <comp name="--.HHE">
      <acc value="0.0234850659" flag="0"/>
      <vel value="0.0097420184" flag="0"/>
      <psa03 value="0.0762218449" flag="0"/>
      <psa10 value="0.0112052608" flag="0"/>
      <psa30 value="0.0004371584" flag="0"/>
    </comp>
    <comp name="--.HHN">
      <acc value="0.0240371066" flag="0"/>
      <vel value="0.0144239205" flag="0"/>
      <psa03 value="0.0476343707" flag="0"/>
      <psa10 value="0.0101736445" flag="0"/>
      <psa30 value="0.0005913024" flag="0"/>
    </comp>
    <comp name="--.HHZ">
      <acc value="0.0154053270" flag="0"/>
      <vel value="0.0073164488" flag="0"/>
      <psa03 value="0.0309475101" flag="0"/>
      <psa10 value="0.0077839233" flag="0"/>
      <psa30 value="0.0004825693" flag="0"/>
    </comp>
  </station>
  <station code="LTHK" name="LTHK" netid="HP" insttype="40," lat="37.7095" lon="20.8367">
    <comp name="--.HHE">
      <acc value="0.4091912525" flag="0"/>
      <vel value="0.1192655284" flag="0"/>
      <psa03 value="0.7160464716" flag="0"/>
      <psa10 value="0.0355557766" flag="0"/>
      <psa30 value="0.0024588961" flag="0"/>
    </comp>
    <comp name="--.HHN">
      <acc value="0.3600694374" flag="0"/>
      <vel value="0.1272437627" flag="0"/>
      <psa03 value="0.4654405320" flag="0"/>
      <psa10 value="0.0248400310" flag="0"/>
      <psa30 value="0.0027250066" flag="0"/>
    </comp>
    <comp name="--.HHZ">
      <acc value="0.3017615590" flag="0"/>
      <vel value="0.0490304790" flag="0"/>
      <psa03 value="0.2905295911" flag="0"/>
      <psa10 value="0.0160785465" flag="0"/>
      <psa30 value="0.0009087403" flag="0"/>
    </comp>
  </station>
  <station code="PVO" name="PVO" netid="HP" insttype="120P," lat="38.616" lon="21.525">
    <comp name="--.HHE">
      <acc value="0.0186888183" flag="0"/>
      <vel value="0.0098226849" flag="0"/>
      <psa03 value="0.0856379597" flag="0"/>
      <psa10 value="0.0044254581" flag="0"/>
      <psa30 value="0.0007048716" flag="0"/>
    </comp>
    <comp name="--.HHN">
      <acc value="0.0182289013" flag="0"/>
      <vel value="0.0061910357" flag="0"/>
      <psa03 value="0.0428881375" flag="0"/>
      <psa10 value="0.0063570278" flag="0"/>
      <psa30 value="0.0003274153" flag="0"/>
    </comp>
    <comp name="--.HHZ">
      <acc value="0.0127507755" flag="0"/>
      <vel value="0.0054659849" flag="0"/>
      <psa03 value="0.0422934539" flag="0"/>
      <psa10 value="0.0037329921" flag="0"/>
      <psa30 value="0.0005747887" flag="0"/>
    </comp>
  </station>
  <station code="PYL" name="PYL" netid="HP" insttype="120s" lat="36.8955" lon="21.742">
    <comp name="--.HHE">
      <acc value="0.0063707068" flag="0"/>
      <vel value="0.0032129211" flag="0"/>
      <psa03 value="0.0171646414" flag="0"/>
      <psa10 value="0.0026419863" flag="0"/>
      <psa30 value="0.0004223795" flag="0"/>
    </comp>
    <comp name="--.HHZ">
      <acc value="0.0003722695" flag="0"/>
      <vel value="0.0001269923" flag="0"/>
      <psa03 value="0.0005485407" flag="0"/>
      <psa10 value="0.0001464424" flag="0"/>
      <psa30 value="0.0000129684" flag="0"/>
    </comp>
  </station>
  <station code="SERG" name="SERG" netid="HP" insttype="2000" lat="38.4133" lon="22.0566">
    <comp name="00.HHN">
      <acc value="0.0307187270" flag="0"/>
      <vel value="0.0128370803" flag="0"/>
      <psa03 value="0.0571185823" flag="0"/>
      <psa10 value="0.0047119563" flag="0"/>
      <psa30 value="0.0004277914" flag="0"/>
    </comp>
    <comp name="00.HHE">
      <acc value="0.0234798284" flag="0"/>
      <vel value="0.0110397161" flag="0"/>
      <psa03 value="0.0589724662" flag="0"/>
      <psa10 value="0.0066660228" flag="0"/>
      <psa30 value="0.0004758080" flag="0"/>
    </comp>
    <comp name="00.HHZ">
      <acc value="0.0122965304" flag="0"/>
      <vel value="0.0040025079" flag="0"/>
