<stationlist created="1778069424">
	<station code="SIT2" name="SIT2" netid="HI" source="ITSAK Strong Motion Network" insttype="" lat="35.2059" lon="26.107">
		<comp name="--.HNE" depth="0.0">
			<acc value="0.0281216722469972" flag="0"/>
			<vel value="0.0229175695124346" flag="0"/>
			<psa03 value="0.0690372248119933" flag="0"/>
			<psa10 value="0.0168883933101329" flag="0"/>
			<psa30 value="0.00105546865412503" flag="0"/>
		</comp>
		<comp name="--.HNN" depth="0.0">
			<acc value="0.0293840315829001" flag="0"/>
			<vel value="0.0236095100427836" flag="0"/>
			<psa03 value="0.0825493712107114" flag="0"/>
			<psa10 value="0.0137676243985084" flag="0"/>
			<psa30 value="0.00229438035538497" flag="0"/>
		</comp>
		<comp name="--.HNZ" depth="0.0">
			<acc value="0.011217657002825" flag="0"/>
			<vel value="0.00533172828437655" flag="0"/>
			<psa03 value="0.0298430518143873" flag="0"/>
			<psa10 value="0.00580664357491931" flag="0"/>
			<psa30 value="0.00130334047879026" flag="0"/>
		</comp>
	</station>
</stationlist>
