<?xml version="1.0" encoding="UTF-8" standalone="yes"?>
<!DOCTYPE earthquake SYSTEM "stationlist.dtd">
<stationlist created="" xmlns="ch.ethz.sed.shakemap.usgs.xml">
  <station code="ZKR" name="ZKR" netid="GE" insttype="STS-2/N" lat="35.1147" lon="26.2169">
    <comp name="--.HHN">
      <acc value="0.0055889983" flag="0"/>
      <vel value="0.0033609800" flag="0"/>
      <psa03 value="0.0277628842" flag="0"/>
      <psa10 value="0.0056283348" flag="0"/>
      <psa30 value="0.0003936201" flag="0"/>
    </comp>
    <comp name="--.HHE">
      <acc value="0.0099730805" flag="0"/>
      <vel value="0.0081010152" flag="0"/>
      <psa03 value="0.0318377950" flag="0"/>
      <psa10 value="0.0099674903" flag="0"/>
      <psa30 value="0.0015096567" flag="0"/>
    </comp>
    <comp name="--.HHZ">
      <acc value="0.0049421478" flag="0"/>
      <vel value="0.0044468272" flag="0"/>
      <psa03 value="0.0192515688" flag="0"/>
      <psa10 value="0.0094582718" flag="0"/>
      <psa30 value="0.0013449190" flag="0"/>
    </comp>
  </station>
  <station code="ZKR" name="ZKR" netid="HL" insttype="120" lat="35.1147" lon="26.2169">
    <comp name="--.HHE">
      <acc value="0.0097366430" flag="0"/>
      <vel value="0.0079775930" flag="0"/>
      <psa03 value="0.0309787950" flag="0"/>
      <psa10 value="0.0099116947" flag="0"/>
      <psa30 value="0.0015109018" flag="0"/>
    </comp>
    <comp name="--.HHZ">
      <acc value="0.0048195884" flag="0"/>
      <vel value="0.0044292299" flag="0"/>
      <psa03 value="0.0187584103" flag="0"/>
      <psa10 value="0.0094079875" flag="0"/>
      <psa30 value="0.0013453210" flag="0"/>
    </comp>
    <comp name="--.HHN">
      <acc value="0.0054596052" flag="0"/>
      <vel value="0.0033009149" flag="0"/>
      <psa03 value="0.0269868226" flag="0"/>
      <psa10 value="0.0056008337" flag="0"/>
      <psa30 value="0.0003934052" flag="0"/>
    </comp>
  </station>
</stationlist>
