<?xml version="1.0" encoding="UTF-8" standalone="yes"?>
<!DOCTYPE earthquake SYSTEM "stationlist.dtd">
<stationlist created="" xmlns="ch.ethz.sed.shakemap.usgs.xml">
  <station code="MYT1" name="MYT1" netid="HI" insttype="CMG-5TD,ACCELEROMETER,GURALP" lat="39.085" lon="26.5694">
    <comp name="--.HNZ">
      <acc value="0.0402270264" flag="0"/>
      <vel value="0.0177761933" flag="0"/>
      <psa03 value="0.0591781559" flag="0"/>
      <psa10 value="0.0247467310" flag="0"/>
      <psa30 value="0.0019266901" flag="0"/>
    </comp>
    <comp name="--.HNE">
      <acc value="0.0788677744" flag="0"/>
      <vel value="0.0244539887" flag="0"/>
      <psa03 value="0.1375082000" flag="0"/>
      <psa10 value="0.0250839307" flag="0"/>
      <psa30 value="0.0026906983" flag="0"/>
    </comp>
    <comp name="--.HNN">
      <acc value="0.0390599710" flag="0"/>
      <vel value="0.0208964217" flag="0"/>
      <psa03 value="0.0666756671" flag="0"/>
      <psa10 value="0.0268430028" flag="0"/>
      <psa30 value="0.0024771114" flag="0"/>
    </comp>
  </station>
  <station code="PRK" name="PRK" netid="HL" insttype="120" lat="39.2456" lon="26.265">
    <comp name="--.HHN">
      <acc value="0.1237820206" flag="0"/>
      <vel value="0.0517289790" flag="0"/>
      <psa03 value="0.3440473376" flag="0"/>
      <psa10 value="0.0412819277" flag="0"/>
      <psa30 value="0.0030266840" flag="0"/>
    </comp>
    <comp name="--.HHE">
      <acc value="0.0980540892" flag="0"/>
      <vel value="0.0577476831" flag="0"/>
      <psa03 value="0.2133645586" flag="0"/>
      <psa10 value="0.1066351196" flag="0"/>
      <psa30 value="0.0044152440" flag="0"/>
    </comp>
    <comp name="--.HHZ">
      <acc value="0.1134337701" flag="0"/>
      <vel value="0.0307943544" flag="0"/>
      <psa03 value="0.1307294675" flag="0"/>
      <psa10 value="0.0254446709" flag="0"/>
      <psa30 value="0.0019668016" flag="0"/>
    </comp>
  </station>
  <station code="CHOS" name="CHOS" netid="HT" insttype="100" lat="38.3869" lon="26.0506">
    <comp name="--.HHN">
      <acc value="0.0547765218" flag="0"/>
      <vel value="0.0142524417" flag="0"/>
      <psa03 value="0.0853461325" flag="0"/>
      <psa10 value="0.0201194649" flag="0"/>
      <psa30 value="0.0010374142" flag="0"/>
    </comp>
    <comp name="--.HHE">
      <acc value="0.0700663980" flag="0"/>
      <vel value="0.0255507000" flag="0"/>
      <psa03 value="0.1049468065" flag="0"/>
      <psa10 value="0.0215072881" flag="0"/>
      <psa30 value="0.0015646952" flag="0"/>
    </comp>
    <comp name="--.HHZ">
      <acc value="0.0487838154" flag="0"/>
      <vel value="0.0144882934" flag="0"/>
      <psa03 value="0.0627364304" flag="0"/>
      <psa10 value="0.0080026202" flag="0"/>
      <psa30 value="0.0006227340" flag="0"/>
    </comp>
  </station>
  <station code="EZN" name="EZN" netid="KO" insttype="120s," lat="39.8255" lon="26.3247">
    <comp name="--.HHN">
      <acc value="0.0368489368" flag="0"/>
      <vel value="0.0134704633" flag="0"/>
      <psa03 value="0.0485651809" flag="0"/>
      <psa10 value="0.0136438751" flag="0"/>
      <psa30 value="0.0012667928" flag="0"/>
    </comp>
    <comp name="--.HHE">
      <acc value="0.0461546432" flag="0"/>
      <vel value="0.0248419229" flag="0"/>
      <psa03 value="0.0461339501" flag="0"/>
      <psa10 value="0.0331142245" flag="0"/>
      <psa30 value="0.0024321474" flag="0"/>
    </comp>
    <comp name="--.HHZ">
      <acc value="0.0324696037" flag="0"/>
      <vel value="0.0106264961" flag="0"/>
      <psa03 value="0.0502891686" flag="0"/>
      <psa10 value="0.0167772494" flag="0"/>
      <psa30 value="0.0013368871" flag="0"/>
    </comp>
  </station>
  <station code="KRBN" name="KRBN" netid="KO" insttype="100" lat="38.5936" lon="26.5537">
    <comp name="--.HNN">
      <acc value="0.0272107463" flag="0"/>
      <vel value="0.0219648578" flag="0"/>
      <psa03 value="0.0850529661" flag="0"/>
      <psa10 value="0.0278813335" flag="0"/>
      <psa30 value="0.0023432597" flag="0"/>
    </comp>
    <comp name="--.HNE">
      <acc value="0.0373478110" flag="0"/>
      <vel value="0.0186608084" flag="0"/>
      <psa03 value="0.0990043784" flag="0"/>
      <psa10 value="0.0165830204" flag="0"/>
      <psa30 value="0.0009454403" flag="0"/>
    </comp>
    <comp name="--.HNZ">
      <acc value="0.0377706718" flag="0"/>
      <vel value="0.0179743738" flag="0"/>
      <psa03 value="0.0951976516" flag="0"/>
      <psa10 value="0.0145252746" flag="0"/>
      <psa30 value="0.0009312266" flag="0"/>
    </comp>
  </station>
</stationlist>
