<stationlist created="1778136134">
	<station code="MYT1" name="MYT1" netid="HI" source="ITSAK Strong Motion Network" insttype="" lat="39.085" lon="26.5694">
		<comp name="--.HNE" depth="0.0">
			<acc value="0.0782880043231231" flag="0"/>
			<vel value="0.0246795462489276" flag="0"/>
			<psa03 value="0.139595684649008" flag="0"/>
			<psa10 value="0.0250466872649085" flag="0"/>
			<psa30 value="0.00285857958084138" flag="0"/>
		</comp>
		<comp name="--.HNN" depth="0.0">
			<acc value="0.0397565752279514" flag="0"/>
			<vel value="0.0217955282993128" flag="0"/>
			<psa03 value="0.0684108339193375" flag="0"/>
			<psa10 value="0.026830559042779" flag="0"/>
			<psa30 value="0.00271898389619237" flag="0"/>
		</comp>
		<comp name="--.HNZ" depth="0.0">
			<acc value="0.0410451973210063" flag="0"/>
			<vel value="0.0179513558648335" flag="0"/>
			<psa03 value="0.0608046587942313" flag="0"/>
			<psa10 value="0.0247849453561916" flag="0"/>
			<psa30 value="0.00196731482500541" flag="0"/>
		</comp>
	</station>
	<station code="LIA" name="LIA" netid="HL" source="National Observatory of Athens Seismic Network" insttype="" lat="39.89725" lon="25.18055">
		<comp name="00.HNE" depth="0.0">
			<acc value="0.0116081074121712" flag="0"/>
			<vel value="0.00634485527800225" flag="0"/>
			<psa03 value="0.0248766668797591" flag="0"/>
			<psa10 value="0.00529524015327246" flag="0"/>
			<psa30 value="0.000443395267587073" flag="0"/>
		</comp>
		<comp name="00.HNN" depth="0.0">
			<acc value="0.0113718103142193" flag="0"/>
			<vel value="0.005844286826028" flag="0"/>
			<psa03 value="0.0229527519951734" flag="0"/>
			<psa10 value="0.00550866047884162" flag="0"/>
			<psa30 value="0.000954351267167736" flag="0"/>
		</comp>
		<comp name="00.HNZ" depth="0.0">
			<acc value="0.00641478699380118" flag="0"/>
			<vel value="0.00374714841159276" flag="0"/>
			<psa03 value="0.0179863670605452" flag="0"/>
			<psa10 value="0.00571402720721948" flag="0"/>
			<psa30 value="0.000504692090654105" flag="0"/>
		</comp>
	</station>
	<station code="PRK" name="PRK" netid="HL" source="National Observatory of Athens Seismic Network" insttype="" lat="39.24565" lon="26.26499">
		<comp name="--.HNE" depth="0.0">
			<acc value="0.0890312567388858" flag="0"/>
			<vel value="0.0529852442988241" flag="0"/>
			<psa03 value="0.187917267796741" flag="0"/>
			<psa10 value="0.0945049362411798" flag="0"/>
			<psa30 value="0.00399324194068075" flag="0"/>
		</comp>
		<comp name="--.HNN" depth="0.0">
			<acc value="0.140576479075361" flag="0"/>
			<vel value="0.0610072680303221" flag="0"/>
			<psa03 value="0.407601502292456" flag="0"/>
			<psa10 value="0.0526222040478818" flag="0"/>
			<psa30 value="0.00418518600707314" flag="0"/>
		</comp>
		<comp name="--.HNZ" depth="0.0">
			<acc value="0.114761083478146" flag="0"/>
			<vel value="0.0317963604913408" flag="0"/>
			<psa03 value="0.1310051809783" flag="0"/>
			<psa10 value="0.0254131259371122" flag="0"/>
			<psa30 value="0.00215344240453742" flag="0"/>
		</comp>
	</station>
	<station code="BIGA" name="BIGA" netid="KO" source="Bogazici University Kandilli Observatory And Earthquake Research Institute (KOERI)" insttype="" lat="40.28134" lon="27.15048">
		<comp name="--.HNE" depth="0.0">
			<acc value="0.0488037204954063" flag="0"/>
			<vel value="0.0237902156237072" flag="0"/>
			<psa03 value="0.10639696733825" flag="0"/>
			<psa10 value="0.0161837035558951" flag="0"/>
			<psa30 value="0.00366796609856592" flag="0"/>
		</comp>
		<comp name="--.HNN" depth="0.0">
			<acc value="0.0724567210412408" flag="0"/>
			<vel value="0.0217039741822535" flag="0"/>
			<psa03 value="0.104428310247046" flag="0"/>
			<psa10 value="0.0360116598408484" flag="0"/>
			<psa30 value="0.00216060115759634" flag="0"/>
		</comp>
		<comp name="--.HNZ" depth="0.0">
			<acc value="0.027596641148507" flag="0"/>
			<vel value="0.0114693543611542" flag="0"/>
			<psa03 value="0.0361964451541819" flag="0"/>
			<psa10 value="0.0150481463519233" flag="0"/>
			<psa30 value="0.00194315403343154" flag="0"/>
		</comp>
	</station>
	<station code="DIDI" name="DIDI" netid="KO" source="Bogazici University Kandilli Observatory And Earthquake Research Institute (KOERI)" insttype="" lat="37.3767" lon="27.2398">
		<comp name="--.HNE" depth="0.0">
			<acc value="0.00870419336724345" flag="0"/>
			<vel value="0.0033614992413451" flag="0"/>
			<psa03 value="0.0116329737207507" flag="0"/>
			<psa10 value="0.00537577612518535" flag="0"/>
			<psa30 value="0.00107157584850761" flag="0"/>
		</comp>
		<comp name="--.HNN" depth="0.0">
			<acc value="0.00896571287072236" flag="0"/>
			<vel value="0.00460146221062418" flag="0"/>
			<psa03 value="0.0115882315141324" flag="0"/>
			<psa10 value="0.00785628406010234" flag="0"/>
			<psa30 value="0.000791042213011045" flag="0"/>
		</comp>
		<comp name="--.HNZ" depth="0.0">
			<acc value="0.0291509980096707" flag="0"/>
			<vel value="0.00329983502992209" flag="0"/>
			<psa03 value="0.00621916671993977" flag="0"/>
			<psa10 value="0.00270600865627308" flag="0"/>
			<psa30 value="0.000434894248329601" flag="0"/>
		</comp>
	</station>
	<station code="ENZZ" name="ENZZ" netid="KO" source="Bogazici University Kandilli Observatory And Earthquake Research Institute (KOERI)" insttype="" lat="40.607" lon="26.1406">
		<comp name="--.HNE" depth="0.0">
			<acc value="0.0750168857419442" flag="0"/>
			<vel value="0.043624559936785" flag="0"/>
			<psa03 value="0.230735559530427" flag="0"/>
			<psa10 value="0.0626892005369929" flag="0"/>
			<psa30 value="0.00479815423774346" flag="0"/>
		</comp>
		<comp name="--.HNN" depth="0.0">
			<acc value="0.0990532247657082" flag="0"/>
			<vel value="0.0463316097349214" flag="0"/>
			<psa03 value="0.210646308758823" flag="0"/>
			<psa10 value="0.0496625070800831" flag="0"/>
			<psa30 value="0.00680305251630822" flag="0"/>
		</comp>
		<comp name="--.HNZ" depth="0.0">
			<acc value="0.0323305344358814" flag="0"/>
			<vel value="0.0130360789684306" flag="0"/>
			<psa03 value="0.0724823747216002" flag="0"/>
			<psa10 value="0.0173434215514407" flag="0"/>
			<psa30 value="0.00350107766787976" flag="0"/>
		</comp>
	</station>
	<station code="EZNE" name="EZNE" netid="KO" source="Bogazici University Kandilli Observatory And Earthquake Research Institute (KOERI)" insttype="" lat="39.756" lon="26.3655">
		<comp name="--.HNE" depth="0.0">
			<acc value="0.258520785940259" flag="0"/>
			<vel value="0.0744537249203073" flag="0"/>
			<psa03 value="0.597621653800256" flag="0"/>
			<psa10 value="0.0822674953090163" flag="0"/>
			<psa30 value="0.00411583558681482" flag="0"/>
		</comp>
		<comp name="--.HNN" depth="0.0">
			<acc value="0.42341705591566" flag="0"/>
			<vel value="0.124375992421952" flag="0"/>
			<psa03 value="0.831578652207199" flag="0"/>
			<psa10 value="0.0592301805433343" flag="0"/>
			<psa30 value="0.00697978423245039" flag="0"/>
		</comp>
		<comp name="--.HNZ" depth="0.0">
			<acc value="0.199088808745468" flag="0"/>
			<vel value="0.0598729296299645" flag="0"/>
			<psa03 value="0.331539751041394" flag="0"/>
			<psa10 value="0.039039812384773" flag="0"/>
			<psa30 value="0.00425811580386092" flag="0"/>
		</comp>
	</station>
	<station code="GOMA" name="GOMA" netid="KO" source="Bogazici University Kandilli Observatory And Earthquake Research Institute (KOERI)" insttype="" lat="38.7077" lon="27.9175">
		<comp name="--.HNE" depth="0.0">
			<acc value="0.00581193012542902" flag="0"/>
			<vel value="0.00331753236780763" flag="0"/>
			<psa03 value="0.0158834833494865" flag="0"/>
			<psa10 value="0.00581067037351495" flag="0"/>
			<psa30 value="0.000404916969895359" flag="0"/>
		</comp>
		<comp name="--.HNN" depth="0.0">
			<acc value="0.00427869835112444" flag="0"/>
			<vel value="0.00346785081291095" flag="0"/>
			<psa03 value="0.016465132035524" flag="0"/>
			<psa10 value="0.00416773654649201" flag="0"/>
			<psa30 value="0.000257267688055063" flag="0"/>
		</comp>
		<comp name="--.HNZ" depth="0.0">
			<acc value="0.00279604480591705" flag="0"/>
			<vel value="0.00193564211659193" flag="0"/>
			<psa03 value="0.0072929796787783" flag="0"/>
			<psa10 value="0.00463081838499113" flag="0"/>
			<psa30 value="0.000315432556658816" flag="0"/>
		</comp>
	</station>
	<station code="GONE" name="GONE" netid="KO" source="Bogazici University Kandilli Observatory And Earthquake Research Institute (KOERI)" insttype="" lat="40.0466" lon="27.686">
		<comp name="--.HNE" depth="0.0">
			<acc value="0.0213419430958857" flag="0"/>
			<vel value="0.0166846146708208" flag="0"/>
			<psa03 value="0.0370018048733107" flag="0"/>
			<psa10 value="0.021156799821516" flag="0"/>
			<psa30 value="0.0021409145866843" flag="0"/>
		</comp>
		<comp name="--.HNN" depth="0.0">
			<acc value="0.0407029213528106" flag="0"/>
			<vel value="0.0249872086777513" flag="0"/>
			<psa03 value="0.0716770150024714" flag="0"/>
			<psa10 value="0.0464893897867153" flag="0"/>
			<psa30 value="0.00243397604003398" flag="0"/>
		</comp>
		<comp name="--.HNZ" depth="0.0">
			<acc value="0.0170488927089393" flag="0"/>
			<vel value="0.00728228311977157" flag="0"/>
			<psa03 value="0.0257715110121245" flag="0"/>
			<psa10 value="0.0122978429110982" flag="0"/>
			<psa30 value="0.00186217063945247" flag="0"/>
		</comp>
	</station>
	<station code="GORD" name="GORD" netid="KO" source="Bogazici University Kandilli Observatory And Earthquake Research Institute (KOERI)" insttype="" lat="38.9088" lon="28.1769">
		<comp name="--.HNE" depth="0.0">
			<acc value="0.0136013144291485" flag="0"/>
			<vel value="0.0173128991127647" flag="0"/>
			<psa03 value="0.0283665589959843" flag="0"/>
			<psa10 value="0.0453739665757217" flag="0"/>
			<psa30 value="0.0033628242494293" flag="0"/>
		</comp>
		<comp name="--.HNN" depth="0.0">
			<acc value="0.0135002584717538" flag="0"/>
			<vel value="0.0184136348452321" flag="0"/>
			<psa03 value="0.0257715110121245" flag="0"/>
			<psa10 value="0.0427686278843398" flag="0"/>
			<psa30 value="0.00221563407173682" flag="0"/>
		</comp>
		<comp name="--.HNZ" depth="0.0">
			<acc value="0.0106746258829494" flag="0"/>
			<vel value="0.0125836235219822" flag="0"/>
			<psa03 value="0.0165098742421423" flag="0"/>
			<psa10 value="0.0250023924803564" flag="0"/>
			<psa30 value="0.00220355367594988" flag="0"/>
		</comp>
	</station>
	<station code="KRBN" name="KRBN" netid="KO" source="Bogazici University Kandilli Observatory And Earthquake Research Institute (KOERI)" insttype="" lat="38.5936" lon="26.5537">
		<comp name="--.HNE" depth="0.0">
			<acc value="0.234605534996081" flag="0"/>
			<vel value="0.116058556904851" flag="0"/>
			<psa03 value="0.626167181622713" flag="0"/>
			<psa10 value="0.104382673196296" flag="0"/>
			<psa30 value="0.00655204873717971" flag="0"/>
		</comp>
		<comp name="--.HNN" depth="0.0">
			<acc value="0.170681805720653" flag="0"/>
			<vel value="0.137151635242836" flag="0"/>
			<psa03 value="0.531134734765504" flag="0"/>
			<psa10 value="0.175459695208016" flag="0"/>
			<psa30 value="0.0153398655390745" flag="0"/>
		</comp>
		<comp name="--.HNZ" depth="0.0">
			<acc value="0.235481697119625" flag="0"/>
			<vel value="0.113641073690533" flag="0"/>
			<psa03 value="0.602006390048846" flag="0"/>
			<psa10 value="0.0913318189478119" flag="0"/>
			<psa30 value="0.00618292553257897" flag="0"/>
		</comp>
	</station>
	<station code="KUSD" name="KUSD" netid="KO" source="Bogazici University Kandilli Observatory And Earthquake Research Institute (KOERI)" insttype="" lat="37.8606" lon="27.2868">
		<comp name="--.HNE" depth="0.0">
			<acc value="0.0183581779047914" flag="0"/>
			<vel value="0.0136660172085619" flag="0"/>
			<psa03 value="0.0484558097675883" flag="0"/>
			<psa10 value="0.0268909610217137" flag="0"/>
			<psa30 value="0.00197402615599815" flag="0"/>
		</comp>
		<comp name="--.HNN" depth="0.0">
			<acc value="0.0194989804848666" flag="0"/>
			<vel value="0.0148673331783585" flag="0"/>
			<psa03 value="0.054003843388254" flag="0"/>
			<psa10 value="0.0325687470415724" flag="0"/>
			<psa30 value="0.0022366629088474" flag="0"/>
		</comp>
		<comp name="--.HNZ" depth="0.0">
			<acc value="0.0095152743863671" flag="0"/>
			<vel value="0.00729307270559512" flag="0"/>
			<psa03 value="0.0240713071606302" flag="0"/>
			<psa10 value="0.0155998177595266" flag="0"/>
			<psa30 value="0.00187246134697467" flag="0"/>
		</comp>
	</station>
	<station code="ODEM" name="ODEM" netid="KO" source="Bogazici University Kandilli Observatory And Earthquake Research Institute (KOERI)" insttype="" lat="38.2762" lon="28.0747">
		<comp name="--.HNE" depth="0.0">
			<acc value="0.0129052505209423" flag="0"/>
			<vel value="0.0139081042138808" flag="0"/>
			<psa03 value="0.0314090290460268" flag="0"/>
			<psa10 value="0.0115689923652865" flag="0"/>
			<psa30 value="0.00215925889139779" flag="0"/>
		</comp>
		<comp name="--.HNN" depth="0.0">
			<acc value="0.0125451753091963" flag="0"/>
			<vel value="0.0143801758369896" flag="0"/>
			<psa03 value="0.0334671705504673" flag="0"/>
			<psa10 value="0.0222843034282964" flag="0"/>
			<psa30 value="0.00378787521230289" flag="0"/>
		</comp>
		<comp name="--.HNZ" depth="0.0">
			<acc value="0.0124111691969243" flag="0"/>
			<vel value="0.011362608844968" flag="0"/>
			<psa03 value="0.0260399642518342" flag="0"/>
			<psa10 value="0.0108200078264967" flag="0"/>
			<psa30 value="0.00202055805088115" flag="0"/>
		</comp>
	</station>
	<station code="SOMA" name="SOMA" netid="KO" source="Bogazici University Kandilli Observatory And Earthquake Research Institute (KOERI)" insttype="" lat="39.1564" lon="27.5341">
		<comp name="--.HNE" depth="0.0">
			<acc value="0.0304988212044793" flag="0"/>
			<vel value="0.0180939577543758" flag="0"/>
			<psa03 value="0.08957389764978" flag="0"/>
			<psa10 value="0.025143330431204" flag="0"/>
			<psa30 value="0.00243889768276199" flag="0"/>
		</comp>
		<comp name="--.HNN" depth="0.0">
			<acc value="0.0366167788095718" flag="0"/>
			<vel value="0.0154024274069846" flag="0"/>
			<psa03 value="0.0917215235674571" flag="0"/>
			<psa10 value="0.0228561088288779" flag="0"/>
			<psa30 value="0.0024670852729315" flag="0"/>
		</comp>
		<comp name="--.HNZ" depth="0.0">
			<acc value="0.0262000146920667" flag="0"/>
			<vel value="0.0150257633173663" flag="0"/>
			<psa03 value="0.0593729081824466" flag="0"/>
			<psa10 value="0.0164011506800599" flag="0"/>
			<psa30 value="0.0017319708181933" flag="0"/>
		</comp>
	</station>
	<station code="SUSR" name="SUSR" netid="KO" source="Bogazici University Kandilli Observatory And Earthquake Research Institute (KOERI)" insttype="" lat="39.9627" lon="28.0835">
		<comp name="--.HNE" depth="0.0">
			<acc value="0.01787078215395" flag="0"/>
			<vel value="0.0108536947827513" flag="0"/>
			<psa03 value="0.049395396106572" flag="0"/>
			<psa10 value="0.0086495633834443" flag="0"/>
			<psa30 value="0.00209751464626458" flag="0"/>
		</comp>
		<comp name="--.HNN" depth="0.0">
			<acc value="0.0182346620121452" flag="0"/>
			<vel value="0.00971147449393959" flag="0"/>
			<psa03 value="0.0719007260355627" flag="0"/>
			<psa10 value="0.00883882291743958" flag="0"/>
			<psa30 value="0.00179818928398834" flag="0"/>
		</comp>
		<comp name="--.HNZ" depth="0.0">
			<acc value="0.0186984093871249" flag="0"/>
			<vel value="0.00737767641242941" flag="0"/>
			<psa03 value="0.0395521106505522" flag="0"/>
			<psa10 value="0.00630596660077922" flag="0"/>
			<psa30 value="0.00153868448560237" flag="0"/>
		</comp>
	</station>
	<station code="YENI" name="YENI" netid="KO" source="Bogazici University Kandilli Observatory And Earthquake Research Institute (KOERI)" insttype="" lat="39.9364" lon="27.24216">
		<comp name="--.HNE" depth="0.0">
			<acc value="0.232689765517565" flag="0"/>
			<vel value="0.0949039184421399" flag="0"/>
			<psa03 value="0.459591946382887" flag="0"/>
			<psa10 value="0.055291971516794" flag="0"/>
			<psa30 value="0.00493506538999537" flag="0"/>
		</comp>
		<comp name="--.HNN" depth="0.0">
			<acc value="0.253779001121357" flag="0"/>
			<vel value="0.101583780918068" flag="0"/>
			<psa03 value="0.384782976917137" flag="0"/>
			<psa10 value="0.0668045887017416" flag="0"/>
			<psa30 value="0.0035856404383883" flag="0"/>
		</comp>
		<comp name="--.HNZ" depth="0.0">
			<acc value="0.072291099560063" flag="0"/>
			<vel value="0.0237254335101344" flag="0"/>
			<psa03 value="0.128857555060623" flag="0"/>
			<psa10 value="0.023093689946021" flag="0"/>
			<psa30 value="0.00322233372064793" flag="0"/>
		</comp>
	</station>
</stationlist>
