<?xml version="1.0" encoding="UTF-8" standalone="yes"?>
<!DOCTYPE earthquake SYSTEM "stationlist.dtd">
<stationlist created="" xmlns="ch.ethz.sed.shakemap.usgs.xml">
  <station code="GAZ" name="GAZ" netid="KO" insttype="CMG-3T" lat="37.1721" lon="37.2096">
    <comp name="--.HHN">
      <acc value="0.0055941749" flag="0"/>
      <vel value="0.0019619938" flag="0"/>
      <psa03 value="0.0168200977" flag="0"/>
      <psa10 value="0.0015056615" flag="0"/>
      <psa30 value="0.0001160907" flag="0"/>
    </comp>
    <comp name="--.HHZ">
      <acc value="0.0052624758" flag="0"/>
      <vel value="0.0017501451" flag="0"/>
      <psa03 value="0.0090907139" flag="0"/>
      <psa10 value="0.0008847551" flag="0"/>
      <psa30 value="0.0001360711" flag="0"/>
    </comp>
  </station>
  <station code="KMRS" name="KMRS" netid="KO" insttype="CMG-3T" lat="37.5053" lon="36.9">
    <comp name="--.HHE">
      <acc value="0.0074371871" flag="0"/>
      <vel value="0.0026243947" flag="0"/>
      <psa03 value="0.0195241897" flag="0"/>
      <psa10 value="0.0032129634" flag="0"/>
      <psa30 value="0.0002778762" flag="0"/>
    </comp>
    <comp name="--.HHN">
      <acc value="0.0129381894" flag="0"/>
      <vel value="0.0058776148" flag="0"/>
      <psa03 value="0.0275145577" flag="0"/>
      <psa10 value="0.0030701027" flag="0"/>
      <psa30 value="0.0003105777" flag="0"/>
    </comp>
    <comp name="--.HHZ">
      <acc value="0.0074200706" flag="0"/>
      <vel value="0.0031791741" flag="0"/>
      <psa03 value="0.0248193665" flag="0"/>
      <psa10 value="0.0018704380" flag="0"/>
      <psa30 value="0.0002071331" flag="0"/>
    </comp>
  </station>
  <station code="URFA" name="URFA" netid="KO" insttype="CMG-3ESP" lat="37.4409" lon="38.8213">
    <comp name="--.HHE">
      <acc value="0.0145662821" flag="0"/>
      <vel value="0.0032870287" flag="0"/>
      <psa03 value="0.0144372946" flag="0"/>
      <psa10 value="0.0023949829" flag="0"/>
      <psa30 value="0.0001503179" flag="0"/>
    </comp>
  </station>
</stationlist>
