<?xml version="1.0" encoding="UTF-8" standalone="yes"?>
<!DOCTYPE earthquake SYSTEM "stationlist.dtd">
<stationlist created="" xmlns="ch.ethz.sed.shakemap.usgs.xml">
  <station code="BAC" name="BAC" netid="RO" insttype="2.5V" commtype="DIG" lat="46.5669" lon="26.9124">
    <comp name="--.HNN">
      <acc value="0.0624836497" flag="0"/>
      <vel value="0.0168510851" flag="0"/>
      <psa03 value="0.0677795321" flag="0"/>
      <psa10 value="0.0109146191" flag="0"/>
      <psa30 value="0.0005291858" flag="0"/>
    </comp>
    <comp name="--.HNZ">
      <acc value="0.1296157144" flag="0"/>
      <vel value="0.0232504898" flag="0"/>
      <psa03 value="0.0581526178" flag="0"/>
      <psa10 value="0.0081534429" flag="0"/>
      <psa30 value="0.0005982922" flag="0"/>
    </comp>
  </station>
  <station code="BIR" name="BIR" netid="RO" insttype="MBB2/Quanterra" commtype="DIG" lat="46.2334" lon="27.6436">
    <comp name="--.HHE">
      <acc value="0.3529722485" flag="0"/>
      <vel value="0.0931526272" flag="0"/>
      <psa03 value="0.3112990726" flag="0"/>
      <psa10 value="0.0395382892" flag="0"/>
      <psa30 value="0.0032814898" flag="0"/>
    </comp>
    <comp name="--.HHN">
      <acc value="0.2124080861" flag="0"/>
      <vel value="0.0699118418" flag="0"/>
      <psa03 value="0.1977331642" flag="0"/>
      <psa10 value="0.0449202290" flag="0"/>
      <psa30 value="0.0026607904" flag="0"/>
    </comp>
  </station>
  <station code="DOPR" name="DOPR" netid="RO" insttype="330" commtype="DIG" lat="45.9675" lon="25.3886">
    <comp name="--.HHN">
      <acc value="0.0111347112" flag="0"/>
      <vel value="0.0061062277" flag="0"/>
      <psa03 value="0.0260658712" flag="0"/>
      <psa10 value="0.0063010872" flag="0"/>
      <psa30 value="0.0005859244" flag="0"/>
    </comp>
    <comp name="--.HHE">
      <acc value="0.0175663948" flag="0"/>
      <vel value="0.0113050580" flag="0"/>
      <psa03 value="0.0453337417" flag="0"/>
      <psa10 value="0.0106782073" flag="0"/>
      <psa30 value="0.0007110386" flag="0"/>
    </comp>
    <comp name="--.HHZ">
      <acc value="0.0142369585" flag="0"/>
      <vel value="0.0041690258" flag="0"/>
      <psa03 value="0.0114049084" flag="0"/>
      <psa10 value="0.0039546855" flag="0"/>
      <psa30 value="0.0001880963" flag="0"/>
    </comp>
  </station>
  <station code="GIUM" name="GIUM" netid="RO" insttype="2.5V" commtype="DIG" lat="45.485" lon="28.2081">
    <comp name="--.HNN">
      <acc value="0.1272982476" flag="0"/>
      <vel value="0.0302486897" flag="0"/>
      <psa03 value="0.1801165622" flag="0"/>
      <psa10 value="0.0208226475" flag="0"/>
      <psa30 value="0.0027272581" flag="0"/>
    </comp>
    <comp name="--.HNZ">
      <acc value="0.1147883762" flag="0"/>
      <vel value="0.0338227704" flag="0"/>
      <psa03 value="0.2596125928" flag="0"/>
      <psa10 value="0.0124802353" flag="0"/>
      <psa30 value="0.0009661002" flag="0"/>
    </comp>
    <comp name="--.HNE">
      <acc value="0.1331252624" flag="0"/>
      <vel value="0.0373013124" flag="0"/>
      <psa03 value="0.2055434098" flag="0"/>
      <psa10 value="0.0315290549" flag="0"/>
      <psa30 value="0.0034668168" flag="0"/>
    </comp>
  </station>
  <station code="ISR" name="ISR" netid="RO" insttype="CMG3ESP/Quanterra" commtype="DIG" lat="45.1187" lon="26.5432">
    <comp name="--.HHN">
      <acc value="0.0494086595" flag="0"/>
      <vel value="0.0190329751" flag="0"/>
      <psa03 value="0.1510321641" flag="0"/>
      <psa10 value="0.0144252161" flag="0"/>
      <psa30 value="0.0014472942" flag="0"/>
    </comp>
    <comp name="--.HHE">
      <acc value="0.0352800089" flag="0"/>
      <vel value="0.0236015114" flag="0"/>
      <psa03 value="0.1029747431" flag="0"/>
      <psa10 value="0.0143408192" flag="0"/>
      <psa30 value="0.0012176130" flag="0"/>
    </comp>
    <comp name="--.HHZ">
      <acc value="0.0208912574" flag="0"/>
      <vel value="0.0081701042" flag="0"/>
      <psa03 value="0.0438635942" flag="0"/>
      <psa10 value="0.0090564871" flag="0"/>
      <psa30 value="0.0006305651" flag="0"/>
    </comp>
  </station>
  <station code="MLR" name="MLR" netid="RO" insttype="330HR" commtype="DIG" lat="45.4909" lon="25.945">
    <comp name="--.HHZ">
      <acc value="0.0157689471" flag="0"/>
      <vel value="0.0094852777" flag="0"/>
      <psa03 value="0.0648704094" flag="0"/>
      <psa10 value="0.0072096252" flag="0"/>
      <psa30 value="0.0004899691" flag="0"/>
    </comp>
    <comp name="--.HHE">
      <acc value="0.0255228215" flag="0"/>
      <vel value="0.0173785497" flag="0"/>
      <psa03 value="0.0754222839" flag="0"/>
      <psa10 value="0.0191519289" flag="0"/>
      <psa30 value="0.0012823104" flag="0"/>
    </comp>
    <comp name="--.HHN">
      <acc value="0.0289225841" flag="0"/>
      <vel value="0.0227361950" flag="0"/>
      <psa03 value="0.0926629698" flag="0"/>
      <psa10 value="0.0289683595" flag="0"/>
      <psa30 value="0.0018266923" flag="0"/>
    </comp>
  </station>
  <station code="NEHR" name="NEHR" netid="RO" insttype="Seismometer/Basalt" commtype="DIG" lat="45.4272" lon="26.2952">
    <comp name="--.HHN">
      <acc value="0.0062029534" flag="0"/>
      <vel value="0.0026130915" flag="0"/>
      <psa03 value="0.0242430293" flag="0"/>
      <psa10 value="0.0027807180" flag="0"/>
      <psa30 value="0.0001398784" flag="0"/>
    </comp>
    <comp name="--.HHZ">
      <acc value="0.0031241423" flag="0"/>
      <vel value="0.0019526853" flag="0"/>
      <psa03 value="0.0078947982" flag="0"/>
      <psa10 value="0.0010839603" flag="0"/>
      <psa30 value="0.0000949556" flag="0"/>
    </comp>
  </station>
  <station code="NGRR" name="NGRR" netid="RO" insttype="Seismometer/Quanterra" commtype="DIG" lat="46.8375" lon="27.4422">
    <comp name="--.HHE">
      <acc value="0.2218792255" flag="0"/>
      <vel value="0.0443962327" flag="0"/>
      <psa03 value="0.2345168558" flag="0"/>
      <psa10 value="0.0156314492" flag="0"/>
      <psa30 value="0.0016534900" flag="0"/>
    </comp>
    <comp name="--.HHN">
      <acc value="0.2535584990" flag="0"/>
      <vel value="0.0461078530" flag="0"/>
      <psa03 value="0.1164251907" flag="0"/>
      <psa10 value="0.0110840430" flag="0"/>
      <psa30 value="0.0012650895" flag="0"/>
    </comp>
    <comp name="--.HHZ">
      <acc value="0.2822985425" flag="0"/>
      <vel value="0.0308895033" flag="0"/>
      <psa03 value="0.0496080237" flag="0"/>
      <psa10 value="0.0045133209" flag="0"/>
      <psa30 value="0.0004157373" flag="0"/>
    </comp>
  </station>
  <station code="ODBI" name="ODBI" netid="RO" insttype="200" commtype="DIG" lat="45.7633" lon="27.0558">
    <comp name="--.HNN">
      <acc value="0.2409940447" flag="0"/>
      <vel value="0.1154815621" flag="0"/>
      <psa03 value="0.7223502207" flag="0"/>
      <psa10 value="0.0393112613" flag="0"/>
      <psa30 value="0.0039501914" flag="0"/>
    </comp>
    <comp name="--.HNE">
      <acc value="0.1435506226" flag="0"/>
      <vel value="0.0591617454" flag="0"/>
      <psa03 value="0.1498206818" flag="0"/>
      <psa10 value="0.0361268773" flag="0"/>
      <psa30 value="0.0026519893" flag="0"/>
    </comp>
    <comp name="--.HNZ">
      <acc value="0.1577273348" flag="0"/>
      <vel value="0.0514693489" flag="0"/>
      <psa03 value="0.1567091129" flag="0"/>
      <psa10 value="0.0155971882" flag="0"/>
      <psa30 value="0.0008778759" flag="0"/>
    </comp>
  </station>
  <station code="PANC" name="PANC" netid="RO" insttype="200" commtype="DIG" lat="45.8723" lon="27.1477">
    <comp name="--.HNZ">
      <acc value="0.1919332576" flag="0"/>
      <vel value="0.0256985903" flag="0"/>
      <psa03 value="0.1168094297" flag="0"/>
      <psa10 value="0.0128452931" flag="0"/>
      <psa30 value="0.0006028887" flag="0"/>
    </comp>
    <comp name="--.HNN">
      <acc value="0.2017527414" flag="0"/>
      <vel value="0.0658691864" flag="0"/>
      <psa03 value="0.4485229976" flag="0"/>
      <psa10 value="0.0290981066" flag="0"/>
      <psa30 value="0.0029247720" flag="0"/>
    </comp>
    <comp name="--.HNE">
      <acc value="0.1600521982" flag="0"/>
      <vel value="0.0484642926" flag="0"/>
      <psa03 value="0.2833152617" flag="0"/>
      <psa10 value="0.0312328480" flag="0"/>
      <psa30 value="0.0024414699" flag="0"/>
    </comp>
  </station>
  <station code="PGOR" name="PGOR" netid="RO" insttype="CMG40T.1to100/Quanterra" commtype="DIG" lat="44.9199" lon="26.9768">
    <comp name="--.HHE">
      <acc value="0.1225996657" flag="0"/>
      <vel value="0.0452531788" flag="0"/>
      <psa03 value="0.1647993558" flag="0"/>
      <psa10 value="0.0310433033" flag="0"/>
      <psa30 value="0.0022318711" flag="0"/>
    </comp>
    <comp name="--.HHZ">
      <acc value="0.4023701453" flag="0"/>
      <vel value="0.0562353134" flag="0"/>
      <psa03 value="0.0972555886" flag="0"/>
      <psa10 value="0.0083306600" flag="0"/>
      <psa30 value="0.0007788027" flag="0"/>
    </comp>
    <comp name="--.HHN">
      <acc value="0.1169871329" flag="0"/>
      <vel value="0.0446651671" flag="0"/>
      <psa03 value="0.2442435750" flag="0"/>
      <psa10 value="0.0176421847" flag="0"/>
      <psa30 value="0.0015126565" flag="0"/>
    </comp>
  </station>
  <station code="PLAR" name="PLAR" netid="RO" insttype="200" commtype="DIG" lat="44.9142" lon="26.0274">
    <comp name="--.HNE">
      <acc value="0.0483592294" flag="0"/>
      <vel value="0.0233800258" flag="0"/>
      <psa03 value="0.1135150705" flag="0"/>
      <psa10 value="0.0140340286" flag="0"/>
      <psa30 value="0.0012547277" flag="0"/>
    </comp>
    <comp name="--.HNN">
      <acc value="0.0411365890" flag="0"/>
      <vel value="0.0178415385" flag="0"/>
      <psa03 value="0.0846966324" flag="0"/>
      <psa10 value="0.0118502166" flag="0"/>
      <psa30 value="0.0008703446" flag="0"/>
    </comp>
  </station>
  <station code="PLOR" name="PLOR" netid="RO" insttype="MBB2/Quanterra" commtype="DIG" lat="45.8512" lon="26.6498">
    <comp name="--.HHN">
      <acc value="0.0912762944" flag="0"/>
      <vel value="0.0601503136" flag="0"/>
      <psa03 value="0.3296298508" flag="0"/>
      <psa10 value="0.0321422785" flag="0"/>
      <psa30 value="0.0020964212" flag="0"/>
    </comp>
    <comp name="--.HHE">
      <acc value="0.0881486089" flag="0"/>
      <vel value="0.0533641690" flag="0"/>
      <psa03 value="0.3346480368" flag="0"/>
      <psa10 value="0.0274076777" flag="0"/>
      <psa30 value="0.0019258181" flag="0"/>
    </comp>
    <comp name="--.HHZ">
      <acc value="0.0367148446" flag="0"/>
      <vel value="0.0218614417" flag="0"/>
      <psa03 value="0.0774067383" flag="0"/>
      <psa10 value="0.0100400202" flag="0"/>
      <psa30 value="0.0008798270" flag="0"/>
    </comp>
  </station>
  <station code="PLOR4" name="PLOR4" netid="RO" insttype="MBB2/Quanterra" commtype="DIG" lat="45.8512" lon="26.6498">
    <comp name="--.HHE">
      <acc value="0.0881486089" flag="0"/>
      <vel value="0.0533641690" flag="0"/>
      <psa03 value="0.3346480368" flag="0"/>
      <psa10 value="0.0274076777" flag="0"/>
      <psa30 value="0.0019258181" flag="0"/>
    </comp>
    <comp name="--.HHN">
      <acc value="0.0912762944" flag="0"/>
      <vel value="0.0601503136" flag="0"/>
      <psa03 value="0.3296298508" flag="0"/>
      <psa10 value="0.0321422785" flag="0"/>
      <psa30 value="0.0020964212" flag="0"/>
    </comp>
    <comp name="--.HHZ">
      <acc value="0.0367148446" flag="0"/>
      <vel value="0.0218614417" flag="0"/>
      <psa03 value="0.0774067383" flag="0"/>
      <psa10 value="0.0100400202" flag="0"/>
      <psa30 value="0.0008798270" flag="0"/>
    </comp>
  </station>
  <station code="SCTR" name="SCTR" netid="RO" insttype="MBB2/Basalt" commtype="DIG" lat="45.6741" lon="27.9949">
    <comp name="--.HHN">
      <acc value="0.2603172282" flag="0"/>
      <vel value="0.0573125453" flag="0"/>
      <psa03 value="0.2796509267" flag="0"/>
      <psa10 value="0.0611703114" flag="0"/>
      <psa30 value="0.0033843660" flag="0"/>
    </comp>
    <comp name="--.HHE">
      <acc value="0.4103939569" flag="0"/>
      <vel value="0.0842077796" flag="0"/>
      <psa03 value="0.3551558539" flag="0"/>
      <psa10 value="0.0198032308" flag="0"/>
      <psa30 value="0.0023458075" flag="0"/>
    </comp>
    <comp name="--.HHZ">
      <acc value="0.1364887450" flag="0"/>
      <vel value="0.0423026699" flag="0"/>
      <psa03 value="0.1327632969" flag="0"/>
      <psa10 value="0.0262343440" flag="0"/>
      <psa30 value="0.0013043788" flag="0"/>
    </comp>
  </station>
  <station code="TATR" name="TATR" netid="RO" insttype="MBB2/Basalt" commtype="DIG" lat="45.5977" lon="28.0498">
    <comp name="--.HHN">
      <acc value="0.5022644045" flag="0"/>
      <vel value="0.1128338691" flag="0"/>
      <psa03 value="0.3931212398" flag="0"/>
      <psa10 value="0.0531327466" flag="0"/>
      <psa30 value="0.0045434298" flag="0"/>
    </comp>
    <comp name="--.HHE">
      <acc value="0.6388638378" flag="0"/>
      <vel value="0.1068416150" flag="0"/>
      <psa03 value="0.3308462280" flag="0"/>
      <psa10 value="0.0641628970" flag="0"/>
      <psa30 value="0.0039249904" flag="0"/>
    </comp>
    <comp name="--.HHZ">
      <acc value="0.4845645424" flag="0"/>
      <vel value="0.0726248459" flag="0"/>
      <psa03 value="0.1495075025" flag="0"/>
      <psa10 value="0.0159478369" flag="0"/>
      <psa30 value="0.0012715036" flag="0"/>
    </comp>
  </station>
  <station code="TUDR" name="TUDR" netid="RO" insttype="200" commtype="DIG" lat="45.5939" lon="27.6687">
    <comp name="--.HNE">
      <acc value="0.3293888387" flag="0"/>
      <vel value="0.0660562475" flag="0"/>
      <psa03 value="0.3124686428" flag="0"/>
      <psa10 value="0.0230165145" flag="0"/>
      <psa30 value="0.0020522678" flag="0"/>
    </comp>
    <comp name="--.HNN">
      <acc value="0.3095276452" flag="0"/>
      <vel value="0.0554825651" flag="0"/>
      <psa03 value="0.1385764607" flag="0"/>
      <psa10 value="0.0374752682" flag="0"/>
      <psa30 value="0.0032918630" flag="0"/>
    </comp>
    <comp name="--.HNZ">
      <acc value="0.4914547067" flag="0"/>
      <vel value="0.0745413103" flag="0"/>
      <psa03 value="0.1001495678" flag="0"/>
      <psa10 value="0.0085623574" flag="0"/>
      <psa30 value="0.0007377254" flag="0"/>
    </comp>
  </station>
  <station code="VARL" name="VARL" netid="RO" insttype="200" commtype="DIG" lat="45.8996" lon="27.8487">
    <comp name="--.HNZ">
      <acc value="0.2107297301" flag="0"/>
      <vel value="0.0299430244" flag="0"/>
      <psa03 value="0.0718540801" flag="0"/>
      <psa10 value="0.0142071745" flag="0"/>
      <psa30 value="0.0010782892" flag="0"/>
    </comp>
    <comp name="--.HNN">
      <acc value="0.2398406585" flag="0"/>
      <vel value="0.0968241281" flag="0"/>
      <psa03 value="0.2980555304" flag="0"/>
      <psa10 value="0.0518305072" flag="0"/>
      <psa30 value="0.0038725842" flag="0"/>
    </comp>
    <comp name="--.HNE">
      <acc value="0.2137004482" flag="0"/>
      <vel value="0.0527259096" flag="0"/>
      <psa03 value="0.1671425740" flag="0"/>
      <psa10 value="0.0324113139" flag="0"/>
      <psa30 value="0.0014718075" flag="0"/>
    </comp>
  </station>
  <station code="VASR" name="VASR" netid="RO" insttype="CMG40T.1to100/Basalt" commtype="DIG" lat="46.6415" lon="27.7911">
    <comp name="--.HHE">
      <acc value="0.1857635643" flag="0"/>
      <vel value="0.0620553811" flag="0"/>
      <psa03 value="0.1886275794" flag="0"/>
      <psa10 value="0.0225675578" flag="0"/>
      <psa30 value="0.0015535135" flag="0"/>
    </comp>
    <comp name="--.HHZ">
      <acc value="0.2756590840" flag="0"/>
      <vel value="0.0288901211" flag="0"/>
      <psa03 value="0.1088237743" flag="0"/>
      <psa10 value="0.0067716769" flag="0"/>
      <psa30 value="0.0005735542" flag="0"/>
    </comp>
    <comp name="--.HHN">
      <acc value="0.2314472569" flag="0"/>
      <vel value="0.0796551281" flag="0"/>
      <psa03 value="0.2821460578" flag="0"/>
      <psa10 value="0.0263616138" flag="0"/>
      <psa30 value="0.0020824514" flag="0"/>
    </comp>
  </station>
  <station code="VRI" name="VRI" netid="RO" insttype="Linear" commtype="DIG" lat="45.8657" lon="26.7277">
    <comp name="--.HHZ">
      <acc value="0.0541035854" flag="0"/>
      <vel value="0.0145099848" flag="0"/>
      <psa03 value="0.0746515346" flag="0"/>
      <psa10 value="0.0124941849" flag="0"/>
      <psa30 value="0.0006746820" flag="0"/>
    </comp>
    <comp name="--.HHE">
      <acc value="0.1300544055" flag="0"/>
      <vel value="0.0744583087" flag="0"/>
      <psa03 value="0.4674632119" flag="0"/>
      <psa10 value="0.0510961819" flag="0"/>
      <psa30 value="0.0033782364" flag="0"/>
    </comp>
    <comp name="--.HHN">
      <acc value="0.0832641787" flag="0"/>
      <vel value="0.0499720496" flag="0"/>
      <psa03 value="0.2287155264" flag="0"/>
      <psa10 value="0.0377176421" flag="0"/>
      <psa30 value="0.0033151274" flag="0"/>
    </comp>
  </station>
</stationlist>
