<stationlist xmlns:esm="https://esm-db.eu/esmws/shakemap/1/" created="1781574898">
	<station code="BAC" name="BAC" netid="RO" source="Romanian Seismic Network (NIEP)" insttype="" lat="46.5669" lon="26.9124" esm:processing="automatic (Paolucci et al 2011)" esm:quality="best">
		<comp name="--.HNE" depth="0.0">
			<acc value="0.0750320589636446" flag="0"/>
			<vel value="0.0209488801938087" flag="0"/>
			<psa03 value="0.12960066874159" flag="0"/>
			<psa10 value="0.00990496303018971" flag="0"/>
			<psa30 value="0.000614326841971654" flag="0"/>
		</comp>
		<comp name="--.HNN" depth="0.0">
			<acc value="0.0619581342674337" flag="0"/>
			<vel value="0.0171091925513349" flag="0"/>
			<psa03 value="0.0669003849471727" flag="0"/>
			<psa10 value="0.0109292411960913" flag="0"/>
			<psa30 value="0.00055254873905886" flag="0"/>
		</comp>
		<comp name="--.HNZ" depth="0.0">
			<acc value="0.116887404261159" flag="0"/>
			<vel value="0.0234364287295963" flag="0"/>
			<psa03 value="0.0587234057624322" flag="0"/>
			<psa10 value="0.00815789292036911" flag="0"/>
			<psa30 value="0.000584077233916911" flag="0"/>
		</comp>
	</station>
	<station code="BIR" name="BIR" netid="RO" source="Romanian Seismic Network (NIEP)" insttype="" lat="46.2334" lon="27.6436" esm:processing="manual (Paolucci et al 2011)" esm:quality="good">
		<comp name="--.HNE" depth="0.0">
			<acc value="0.332192905139889" flag="0"/>
			<vel value="0.0926970744674578" flag="0"/>
			<psa03 value="0.31276942777293" flag="0"/>
			<psa10 value="0.0384826605373975" flag="0"/>
			<psa30 value="0.00315745833278521" flag="0"/>
		</comp>
		<comp name="--.HNN" depth="0.0">
			<acc value="0.201010959208745" flag="0"/>
			<vel value="0.0702531167263716" flag="0"/>
			<psa03 value="0.196899397785438" flag="0"/>
			<psa10 value="0.0457885195146994" flag="0"/>
			<psa30 value="0.0028013055727461" flag="0"/>
		</comp>
		<comp name="--.HNZ" depth="0.0">
			<acc value="0.149327856891757" flag="0"/>
			<vel value="0.0341660427698213" flag="0"/>
			<psa03 value="0.146034028204337" flag="0"/>
			<psa10 value="0.009761801983973" flag="0"/>
			<psa30 value="0.000917776631530958" flag="0"/>
		</comp>
	</station>
	<station code="BTMR" name="BTMR" netid="RO" source="Romanian Seismic Network (NIEP)" insttype="" lat="44.437" lon="26.1067" esm:processing="manual (Paolucci et al 2011)" esm:quality="good">
		<comp name="--.HNE" depth="0.0">
			<acc value="0.0328814504830389" flag="0"/>
			<vel value="0.0196794539975031" flag="0"/>
			<psa03 value="0.0814578857684909" flag="0"/>
			<psa10 value="0.0128005026579795" flag="0"/>
			<psa30 value="0.000818245558919204" flag="0"/>
		</comp>
		<comp name="--.HNN" depth="0.0">
			<acc value="0.029662604505378" flag="0"/>
			<vel value="0.0197746959908377" flag="0"/>
			<psa03 value="0.0583213009999651" flag="0"/>
			<psa10 value="0.00905400353329933" flag="0"/>
			<psa30 value="0.000686942173214305" flag="0"/>
		</comp>
		<comp name="--.HNZ" depth="0.0">
			<acc value="0.0416004387435367" flag="0"/>
			<vel value="0.00749718888040403" flag="0"/>
			<psa03 value="0.0465146074061255" flag="0"/>
			<psa10 value="0.00272748161977152" flag="0"/>
			<psa30 value="0.000317203747566521" flag="0"/>
		</comp>
	</station>
	<station code="BUC" name="BUC" netid="RO" source="Romanian Seismic Network (NIEP)" insttype="" lat="44.4107" lon="26.0938" esm:processing="manual (Paolucci et al 2011)" esm:quality="good">
		<comp name="--.HNE" depth="0.0">
			<acc value="0.0787211574181087" flag="0"/>
			<vel value="0.0387064672778465" flag="0"/>
			<psa03 value="0.195980378571592" flag="0"/>
			<psa10 value="0.0205086929752582" flag="0"/>
			<psa30 value="0.00136964437805151" flag="0"/>
		</comp>
		<comp name="--.HNN" depth="0.0">
			<acc value="0.0913628962732305" flag="0"/>
			<vel value="0.0365542614874087" flag="0"/>
			<psa03 value="0.203521044770387" flag="0"/>
			<psa10 value="0.0118482752025838" flag="0"/>
			<psa30 value="0.00123511244513787" flag="0"/>
		</comp>
		<comp name="--.HNZ" depth="0.0">
			<acc value="0.0581548692634861" flag="0"/>
			<vel value="0.0183008715790826" flag="0"/>
			<psa03 value="0.0408554226170737" flag="0"/>
			<psa10 value="0.00406350528103222" flag="0"/>
			<psa30 value="0.000272534408233683" flag="0"/>
		</comp>
	</station>
	<station code="CFR" name="CFR" netid="RO" source="Romanian Seismic Network (NIEP)" insttype="" lat="45.178" lon="28.1362" esm:processing="manual (Paolucci et al 2011)" esm:quality="good">
		<comp name="--.HNE" depth="0.0">
			<acc value="0.181260110114366" flag="0"/>
			<vel value="0.0274422025869011" flag="0"/>
			<psa03 value="0.111942113532305" flag="0"/>
			<psa10 value="0.00876497376149544" flag="0"/>
			<psa30 value="0.000701049982787451" flag="0"/>
		</comp>
		<comp name="--.HNN" depth="0.0">
			<acc value="0.249674242500854" flag="0"/>
			<vel value="0.0409598752982645" flag="0"/>
			<psa03 value="0.162481076073874" flag="0"/>
			<psa10 value="0.00842423837694845" flag="0"/>
			<psa30 value="0.000819810245905371" flag="0"/>
		</comp>
		<comp name="--.HNZ" depth="0.0">
			<acc value="0.113840486793132" flag="0"/>
			<vel value="0.0167126997970754" flag="0"/>
			<psa03 value="0.0540266831692774" flag="0"/>
			<psa10 value="0.00620516153024802" flag="0"/>
			<psa30 value="0.000345475985046834" flag="0"/>
		</comp>
	</station>
	<station code="COPA" name="COPA" netid="RO" source="Romanian Seismic Network (NIEP)" insttype="" lat="44.1343" lon="25.2172" esm:processing="manual (Paolucci et al 2011)" esm:quality="good">
		<comp name="--.HNE" depth="0.0">
			<acc value="0.0620318974087305" flag="0"/>
			<vel value="0.0275616808649937" flag="0"/>
			<psa03 value="0.0975973299274582" flag="0"/>
			<psa10 value="0.00705847055778327" flag="0"/>
			<psa30 value="0.000815347033572791" flag="0"/>
		</comp>
		<comp name="--.HNN" depth="0.0">
			<acc value="0.0527022034427826" flag="0"/>
			<vel value="0.0125681129836638" flag="0"/>
			<psa03 value="0.0572305412424844" flag="0"/>
			<psa10 value="0.00784032375797065" flag="0"/>
			<psa30 value="0.000690969106645548" flag="0"/>
		</comp>
		<comp name="--.HNZ" depth="0.0">
			<acc value="0.0571679751776107" flag="0"/>
			<vel value="0.00559960375986696" flag="0"/>
			<psa03 value="0.0223009643086047" flag="0"/>
			<psa10 value="0.00356669346343753" flag="0"/>
			<psa30 value="0.000168112881445007" flag="0"/>
		</comp>
	</station>
	<station code="GIRR" name="GIRR" netid="RO" source="Romanian Seismic Network (NIEP)" insttype="" lat="46.9551" lon="26.5009" esm:processing="manual (Paolucci et al 2011)" esm:quality="good">
		<comp name="--.HNE" depth="0.0">
			<acc value="0.0920943796029622" flag="0"/>
			<vel value="0.0203565416341158" flag="0"/>
			<psa03 value="0.085775114472038" flag="0"/>
			<psa10 value="0.00719432002589382" flag="0"/>
			<psa30 value="0.000671537767331349" flag="0"/>
		</comp>
		<comp name="--.HNN" depth="0.0">
			<acc value="0.0837076358736172" flag="0"/>
			<vel value="0.0229419132535508" flag="0"/>
			<psa03 value="0.101799160361436" flag="0"/>
			<psa10 value="0.00658201321357255" flag="0"/>
			<psa30 value="0.000492597215481317" flag="0"/>
		</comp>
		<comp name="--.HNZ" depth="0.0">
			<acc value="0.0460266576130358" flag="0"/>
			<vel value="0.00781633723843599" flag="0"/>
			<psa03 value="0.0255528724398921" flag="0"/>
			<psa10 value="0.00258245834081603" flag="0"/>
			<psa30 value="0.000208975249834704" flag="0"/>
		</comp>
	</station>
	<station code="GIUM" name="GIUM" netid="RO" source="Romanian Seismic Network (NIEP)" insttype="" lat="45.485" lon="28.2081" esm:processing="manual (Paolucci et al 2011)" esm:quality="good">
		<comp name="--.HNE" depth="0.0">
			<acc value="0.129720247535207" flag="0"/>
			<vel value="0.0375660205194187" flag="0"/>
			<psa03 value="0.206816221392999" flag="0"/>
			<psa10 value="0.0314746087883628" flag="0"/>
			<psa30 value="0.00297075638136388" flag="0"/>
		</comp>
		<comp name="--.HNN" depth="0.0">
			<acc value="0.127346077071164" flag="0"/>
			<vel value="0.0301305565772922" flag="0"/>
			<psa03 value="0.17945788820436" flag="0"/>
			<psa10 value="0.0207276549804164" flag="0"/>
			<psa30 value="0.00235670591186721" flag="0"/>
		</comp>
		<comp name="--.HNZ" depth="0.0">
			<acc value="0.106889754064915" flag="0"/>
			<vel value="0.0340766043659529" flag="0"/>
			<psa03 value="0.262157054118235" flag="0"/>
			<psa10 value="0.0125482478223346" flag="0"/>
			<psa30 value="0.000896563351255249" flag="0"/>
		</comp>
	</station>
	<station code="GRISU" name="GRISU" netid="RO" source="Romanian Seismic Network (NIEP)" insttype="" lat="43.8898" lon="25.9518" esm:processing="manual (Paolucci et al 2011)" esm:quality="good">
		<comp name="--.HNE" depth="0.0">
			<acc value="0.0569743891023837" flag="0"/>
			<vel value="0.0223529509365322" flag="0"/>
			<psa03 value="0.205556450439356" flag="0"/>
			<psa10 value="0.00607275713410659" flag="0"/>
			<psa30 value="0.000545348418322949" flag="0"/>
		</comp>
		<comp name="--.HNN" depth="0.0">
			<acc value="0.0442617872634315" flag="0"/>
			<vel value="0.0174089576921477" flag="0"/>
			<psa03 value="0.165921689414289" flag="0"/>
			<psa10 value="0.00525842959515364" flag="0"/>
			<psa30 value="0.000506946186863583" flag="0"/>
		</comp>
		<comp name="--.HNZ" depth="0.0">
			<acc value="0.0271685330467397" flag="0"/>
			<vel value="0.00647854172485066" flag="0"/>
			<psa03 value="0.0349753846559165" flag="0"/>
			<psa10 value="0.00195654691631847" flag="0"/>
			<psa30 value="0.00019223553413986" flag="0"/>
		</comp>
	</station>
	<station code="HARR" name="HARR" netid="RO" source="Romanian Seismic Network (NIEP)" insttype="" lat="44.6893" lon="27.9303" esm:processing="manual (Paolucci et al 2011)" esm:quality="good">
		<comp name="--.HNE" depth="0.0">
			<acc value="0.138261440657168" flag="0"/>
			<vel value="0.0163861862077741" flag="0"/>
			<psa03 value="0.0578270078388024" flag="0"/>
			<psa10 value="0.00779358019268885" flag="0"/>
			<psa30 value="0.000536519864724602" flag="0"/>
		</comp>
		<comp name="--.HNN" depth="0.0">
			<acc value="0.0657303715437046" flag="0"/>
			<vel value="0.0201366124132359" flag="0"/>
			<psa03 value="0.0658696968774797" flag="0"/>
			<psa10 value="0.0135935461307175" flag="0"/>
			<psa30 value="0.000655752294537914" flag="0"/>
		</comp>
		<comp name="--.HNZ" depth="0.0">
			<acc value="0.167538043940233" flag="0"/>
			<vel value="0.0287694004409192" flag="0"/>
			<psa03 value="0.0729345346799784" flag="0"/>
			<psa10 value="0.00376008557159057" flag="0"/>
			<psa30 value="0.000441878647291755" flag="0"/>
		</comp>
	</station>
	<station code="HUMR" name="HUMR" netid="RO" source="Romanian Seismic Network (NIEP)" insttype="" lat="44.5281" lon="24.9804" esm:processing="manual (Paolucci et al 2011)" esm:quality="good">
		<comp name="--.HNE" depth="0.0">
			<acc value="0.0862931910923882" flag="0"/>
			<vel value="0.0211936871042026" flag="0"/>
			<psa03 value="0.062084196106632" flag="0"/>
			<psa10 value="0.00924588405694232" flag="0"/>
			<psa30 value="0.000826506210313484" flag="0"/>
		</comp>
		<comp name="--.HNN" depth="0.0">
			<acc value="0.0586562139930973" flag="0"/>
			<vel value="0.0182694562970948" flag="0"/>
			<psa03 value="0.0615631042951902" flag="0"/>
			<psa10 value="0.00763179822542751" flag="0"/>
			<psa30 value="0.00072559468166996" flag="0"/>
		</comp>
		<comp name="--.HNZ" depth="0.0">
			<acc value="0.0502581062125687" flag="0"/>
			<vel value="0.00747945579712274" flag="0"/>
			<psa03 value="0.0254663979613823" flag="0"/>
			<psa10 value="0.00337411984700554" flag="0"/>
			<psa30 value="0.000303025438531464" flag="0"/>
		</comp>
	</station>
	<station code="IASR" name="IASR" netid="RO" source="Romanian Seismic Network (NIEP)" insttype="" lat="47.1777" lon="27.5748" esm:processing="manual (Paolucci et al 2011)" esm:quality="good">
		<comp name="--.HNE" depth="0.0">
			<acc value="0.140122578675029" flag="0"/>
			<vel value="0.0354397511113141" flag="0"/>
			<psa03 value="0.101657755160702" flag="0"/>
			<psa10 value="0.00993457311671262" flag="0"/>
			<psa30 value="0.000745062846340324" flag="0"/>
		</comp>
		<comp name="--.HNN" depth="0.0">
			<acc value="0.0707826964222422" flag="0"/>
			<vel value="0.0258452948174621" flag="0"/>
			<psa03 value="0.118168098889946" flag="0"/>
			<psa10 value="0.0143071546537799" flag="0"/>
			<psa30 value="0.00130341634493602" flag="0"/>
		</comp>
		<comp name="--.HNZ" depth="0.0">
			<acc value="0.103143749581494" flag="0"/>
			<vel value="0.0215229635822675" flag="0"/>
			<psa03 value="0.0778938111243706" flag="0"/>
			<psa10 value="0.00491861911562708" flag="0"/>
			<psa30 value="0.000539338072250352" flag="0"/>
		</comp>
	</station>
	<station code="INCR" name="INCR" netid="RO" source="Romanian Seismic Network (NIEP)" insttype="" lat="44.441" lon="26.1611" esm:processing="automatic (Paolucci et al 2011)" esm:quality="best">
		<comp name="--.HNE" depth="0.0">
			<acc value="0.0264078786678151" flag="0"/>
			<vel value="0.0185599629535736" flag="0"/>
			<psa03 value="0.0638925033981153" flag="0"/>
			<psa10 value="0.0167492751822796" flag="0"/>
			<psa30 value="0.00101175650306955" flag="0"/>
		</comp>
		<comp name="--.HNN" depth="0.0">
			<acc value="0.0383612643397979" flag="0"/>
			<vel value="0.0158025080988593" flag="0"/>
			<psa03 value="0.063804143378031" flag="0"/>
			<psa10 value="0.00950479370843607" flag="0"/>
			<psa30 value="0.000632750562452717" flag="0"/>
		</comp>
		<comp name="--.HNZ" depth="0.0">
			<acc value="0.0426501493688024" flag="0"/>
			<vel value="0.00693990535825655" flag="0"/>
			<psa03 value="0.0327377963225043" flag="0"/>
			<psa10 value="0.00302147039195986" flag="0"/>
			<psa30 value="0.000291481106067762" flag="0"/>
		</comp>
	</station>
	<station code="ISR" name="ISR" netid="RO" source="Romanian Seismic Network (NIEP)" insttype="" lat="45.1187" lon="26.5432" esm:processing="automatic (Paolucci et al 2011)" esm:quality="best">
		<comp name="--.HNE" depth="0.0">
			<acc value="0.0329789554644229" flag="0"/>
			<vel value="0.0236351139766534" flag="0"/>
			<psa03 value="0.106220276155327" flag="0"/>
			<psa10 value="0.0143636315200952" flag="0"/>
			<psa30 value="0.00131669764142339" flag="0"/>
		</comp>
		<comp name="--.HNN" depth="0.0">
			<acc value="0.048447991057482" flag="0"/>
			<vel value="0.0199656319712631" flag="0"/>
			<psa03 value="0.151326774656148" flag="0"/>
			<psa10 value="0.0140151181202928" flag="0"/>
			<psa30 value="0.00154494953282433" flag="0"/>
		</comp>
		<comp name="--.HNZ" depth="0.0">
			<acc value="0.0214982393118173" flag="0"/>
			<vel value="0.00859208272782808" flag="0"/>
			<psa03 value="0.0446658807703923" flag="0"/>
			<psa10 value="0.00914007736026794" flag="0"/>
			<psa30 value="0.000686342341811751" flag="0"/>
		</comp>
	</station>
	<station code="LEHL" name="LEHL" netid="RO" source="Romanian Seismic Network (NIEP)" insttype="" lat="44.4739" lon="26.8194" esm:processing="manual (Paolucci et al 2011)" esm:quality="good">
		<comp name="--.HNE" depth="0.0">
			<acc value="0.109267336831901" flag="0"/>
			<vel value="0.0358184332424401" flag="0"/>
			<psa03 value="0.154672756727705" flag="0"/>
			<psa10 value="0.0143806407718746" flag="0"/>
			<psa30 value="0.00153541379696196" flag="0"/>
		</comp>
		<comp name="--.HNN" depth="0.0">
			<acc value="0.0779763287319768" flag="0"/>
			<vel value="0.0304453103377664" flag="0"/>
			<psa03 value="0.119627414312431" flag="0"/>
			<psa10 value="0.0139160974981626" flag="0"/>
			<psa30 value="0.00103499366741765" flag="0"/>
		</comp>
		<comp name="--.HNZ" depth="0.0">
			<acc value="0.10776056580672" flag="0"/>
			<vel value="0.0220767996197656" flag="0"/>
			<psa03 value="0.093631317198579" flag="0"/>
			<psa10 value="0.00792868523648495" flag="0"/>
			<psa30 value="0.000736787089778734" flag="0"/>
		</comp>
	</station>
	<station code="LEOM" name="LEOM" netid="RO" source="Romanian Seismic Network (NIEP)" insttype="" lat="46.4733" lon="28.2467" esm:processing="manual (Paolucci et al 2011)" esm:quality="good">
		<comp name="--.HNE" depth="0.0">
			<acc value="0.425298986867864" flag="0"/>
			<vel value="0.104341334527593" flag="0"/>
			<psa03 value="0.598444477342944" flag="0"/>
			<psa10 value="0.0524688445534479" flag="0"/>
			<psa30 value="0.00309901633628976" flag="0"/>
		</comp>
		<comp name="--.HNN" depth="0.0">
			<acc value="0.468027593443673" flag="0"/>
			<vel value="0.120817949009272" flag="0"/>
			<psa03 value="0.42273112886263" flag="0"/>
			<psa10 value="0.0433423149656534" flag="0"/>
			<psa30 value="0.00377496548960378" flag="0"/>
		</comp>
		<comp name="--.HNZ" depth="0.0">
			<acc value="0.551846930076107" flag="0"/>
			<vel value="0.0928221468019961" flag="0"/>
			<psa03 value="0.243576010715301" flag="0"/>
			<psa10 value="0.00847437357315915" flag="0"/>
			<psa30 value="0.000860744728447277" flag="0"/>
		</comp>
	</station>
	<station code="MLR" name="MLR" netid="RO" source="Romanian Seismic Network (NIEP)" insttype="" lat="45.4909" lon="25.945" esm:processing="manual (Paolucci et al 2011)" esm:quality="good">
		<comp name="--.HNE" depth="0.0">
			<acc value="0.00642106955658899" flag="0"/>
			<vel value="0.00440549107474288" flag="0"/>
			<psa03 value="0.0182036082434575" flag="0"/>
			<psa10 value="0.00461537777737665" flag="0"/>
			<psa30 value="0.000284920645427775" flag="0"/>
		</comp>
		<comp name="--.HNN" depth="0.0">
			<acc value="0.00715245629921694" flag="0"/>
			<vel value="0.0057887891973837" flag="0"/>
			<psa03 value="0.022429582203909" flag="0"/>
			<psa10 value="0.00741688883248495" flag="0"/>
			<psa30 value="0.000480278430672281" flag="0"/>
		</comp>
		<comp name="--.HNZ" depth="0.0">
			<acc value="0.00390067959576921" flag="0"/>
			<vel value="0.00235978480958796" flag="0"/>
			<psa03 value="0.0158642371257686" flag="0"/>
			<psa10 value="0.00180591900827131" flag="0"/>
			<psa30 value="0.000118317356173342" flag="0"/>
		</comp>
	</station>
	<station code="MTUR" name="MTUR" netid="RO" source="Romanian Seismic Network (NIEP)" insttype="" lat="45.2349" lon="25.0739" esm:processing="automatic (Paolucci et al 2011)" esm:quality="best">
		<comp name="--.HNE" depth="0.0">
			<acc value="0.0121067556921265" flag="0"/>
			<vel value="0.00646507746402383" flag="0"/>
			<psa03 value="0.0127264342096416" flag="0"/>
			<psa10 value="0.00502452378754184" flag="0"/>
			<psa30 value="0.000675734920372139" flag="0"/>
		</comp>
		<comp name="--.HNN" depth="0.0">
			<acc value="0.0135557528050859" flag="0"/>
			<vel value="0.00766879027410356" flag="0"/>
			<psa03 value="0.024232154740493" flag="0"/>
			<psa10 value="0.00924988088421252" flag="0"/>
			<psa30 value="0.000913816785877284" flag="0"/>
		</comp>
		<comp name="--.HNZ" depth="0.0">
			<acc value="0.0106516495276147" flag="0"/>
			<vel value="0.00318655412162965" flag="0"/>
			<psa03 value="0.00996959207717189" flag="0"/>
			<psa10 value="0.00264616217025709" flag="0"/>
			<psa30 value="0.000341709146970632" flag="0"/>
		</comp>
	</station>
	<station code="NEHR" name="NEHR" netid="RO" source="Romanian Seismic Network (NIEP)" insttype="" lat="45.4272" lon="26.2952" esm:processing="manual (Paolucci et al 2011)" esm:quality="good">
		<comp name="--.HNE" depth="0.0">
			<acc value="0.0675020526027039" flag="0"/>
			<vel value="0.0384910942345258" flag="0"/>
			<psa03 value="0.279507828521886" flag="0"/>
			<psa10 value="0.0170018412885447" flag="0"/>
			<psa30 value="0.00167938531353503" flag="0"/>
		</comp>
		<comp name="--.HNN" depth="0.0">
			<acc value="0.0511472769256868" flag="0"/>
			<vel value="0.0216167102995759" flag="0"/>
			<psa03 value="0.178111257330007" flag="0"/>
			<psa10 value="0.0244159811889263" flag="0"/>
			<psa30 value="0.00118640255167982" flag="0"/>
		</comp>
		<comp name="--.HNZ" depth="0.0">
			<acc value="0.0236354785511843" flag="0"/>
			<vel value="0.0161238785966497" flag="0"/>
			<psa03 value="0.0654645294121236" flag="0"/>
			<psa10 value="0.00894760617249635" flag="0"/>
