<stationlist created="1775808359">
	<station code="SILAM" name="SILAM" netid="BS" source="National Seismic Network of Bulgaria (BS)" insttype="" lat="44.1046" lon="27.2665">
		<comp name="--.HNE" depth="0.0">
			<acc value="0.0364710494826064" flag="0"/>
			<vel value="0.0129594859448569" flag="0"/>
			<psa03 value="0.140052111098353" flag="0"/>
			<psa10 value="0.0037009786091694" flag="0"/>
			<psa30 value="0.000268492395678521" flag="0"/>
		</comp>
		<comp name="--.HNN" depth="0.0">
			<acc value="0.0537889925009704" flag="0"/>
			<vel value="0.0195578841196936" flag="0"/>
			<psa03 value="0.195869037862483" flag="0"/>
			<psa10 value="0.00633735216222863" flag="0"/>
			<psa30 value="0.000434428570427392" flag="0"/>
		</comp>
		<comp name="--.HNZ" depth="0.0">
			<acc value="0.0271771304960029" flag="0"/>
			<vel value="0.006586913108417" flag="0"/>
			<psa03 value="0.0259693531546955" flag="0"/>
			<psa10 value="0.002076792186665" flag="0"/>
			<psa30 value="0.000187301261956044" flag="0"/>
		</comp>
	</station>
	<station code="KIS" name="KIS" netid="MD" source="Moldova Digital Seismic Network" insttype="" lat="46.9975" lon="28.8175">
		<comp name="--.HNE" depth="0.0">
			<acc value="0.0861547550511418" flag="0"/>
			<vel value="0.0338247953347225" flag="0"/>
			<psa03 value="0.0967954434730827" flag="0"/>
			<psa10 value="0.0233182815967156" flag="0"/>
			<psa30 value="0.00117732903393713" flag="0"/>
		</comp>
		<comp name="--.HNN" depth="0.0">
			<acc value="0.115435234096667" flag="0"/>
			<vel value="0.0268309829005824" flag="0"/>
			<psa03 value="0.0924245810082288" flag="0"/>
			<psa10 value="0.0236521005855853" flag="0"/>
			<psa30 value="0.000965294779375045" flag="0"/>
		</comp>
		<comp name="--.HNZ" depth="0.0">
			<acc value="0.0868378329620791" flag="0"/>
			<vel value="0.0222378948274916" flag="0"/>
			<psa03 value="0.0692117359795017" flag="0"/>
			<psa10 value="0.00766311139352122" flag="0"/>
			<psa30 value="0.000413127888528422" flag="0"/>
		</comp>
	</station>
	<station code="ARR" name="ARR" netid="RO" source="Romanian Seismic Network (NIEP)" insttype="" lat="45.3657" lon="24.6332">
		<comp name="--.HNE" depth="0.0">
			<acc value="0.00248211512279436" flag="0"/>
			<vel value="0.00169388270017633" flag="0"/>
			<psa03 value="0.00842710187393274" flag="0"/>
			<psa10 value="0.00103240038364616" flag="0"/>
			<psa30 value="6.73318106624256e-05" flag="0"/>
		</comp>
		<comp name="--.HNN" depth="0.0">
			<acc value="0.00214249631006765" flag="0"/>
			<vel value="0.00103128869146071" flag="0"/>
			<psa03 value="0.00940399471328901" flag="0"/>
			<psa10 value="0.000842938653048836" flag="0"/>
			<psa30 value="4.9582649841588e-05" flag="0"/>
		</comp>
		<comp name="--.HNZ" depth="0.0">
			<acc value="0.00196626909134531" flag="0"/>
			<vel value="0.000740369926851784" flag="0"/>
			<psa03 value="0.00449284515498344" flag="0"/>
			<psa10 value="0.000716265515481402" flag="0"/>
			<psa30 value="3.21534874326163e-05" flag="0"/>
		</comp>
	</station>
	<station code="BAC" name="BAC" netid="RO" source="Romanian Seismic Network (NIEP)" insttype="" lat="46.5669" lon="26.9124">
		<comp name="--.HNE" depth="0.0">
			<acc value="0.0750320589636446" flag="0"/>
			<vel value="0.0209488801938087" flag="0"/>
			<psa03 value="0.12960066874159" flag="0"/>
			<psa10 value="0.00990496303018971" flag="0"/>
			<psa30 value="0.000614326841971654" flag="0"/>
		</comp>
		<comp name="--.HNN" depth="0.0">
			<acc value="0.0619581342674337" flag="0"/>
			<vel value="0.0171091925513349" flag="0"/>
			<psa03 value="0.0669003849471727" flag="0"/>
			<psa10 value="0.0109292411960913" flag="0"/>
			<psa30 value="0.00055254873905886" flag="0"/>
		</comp>
		<comp name="--.HNZ" depth="0.0">
			<acc value="0.116887404261159" flag="0"/>
			<vel value="0.0234364287295963" flag="0"/>
			<psa03 value="0.0587234057624322" flag="0"/>
			<psa10 value="0.00815789292036911" flag="0"/>
			<psa30 value="0.000584077233916911" flag="0"/>
		</comp>
	</station>
	<station code="BIR" name="BIR" netid="RO" source="Romanian Seismic Network (NIEP)" insttype="" lat="46.2334" lon="27.6436">
		<comp name="--.HNE" depth="0.0">
			<acc value="0.332192904631202" flag="0"/>
			<vel value="0.0926970880779499" flag="0"/>
			<psa03 value="0.31276942777293" flag="0"/>
			<psa10 value="0.0384826680378944" flag="0"/>
			<psa30 value="0.00315629950601862" flag="0"/>
		</comp>
		<comp name="--.HNN" depth="0.0">
			<acc value="0.201010960743623" flag="0"/>
			<vel value="0.0702533807742791" flag="0"/>
			<psa03 value="0.196899314446584" flag="0"/>
			<psa10 value="0.045788515764451" flag="0"/>
			<psa30 value="0.00279312961446232" flag="0"/>
		</comp>
		<comp name="--.HNZ" depth="0.0">
			<acc value="0.149327856133748" flag="0"/>
			<vel value="0.0341661303821714" flag="0"/>
			<psa03 value="0.146034007369624" flag="0"/>
			<psa10 value="0.00976179917128667" flag="0"/>
			<psa30 value="0.000915920883596765" flag="0"/>
		</comp>
	</station>
	<station code="BISRR" name="BISRR" netid="RO" source="Romanian Seismic Network (NIEP)" insttype="" lat="45.5481" lon="26.7099">
		<comp name="--.HNE" depth="0.0">
			<acc value="0.000171650907370228" flag="0"/>
			<vel value="0.000223114236226317" flag="0"/>
			<psa03 value="0.000226698407956428" flag="0"/>
			<psa10 value="0.000125749961177154" flag="0"/>
			<psa30 value="0.000100574064881956" flag="0"/>
		</comp>
		<comp name="--.HNN" depth="0.0">
			<acc value="0.000525203846482849" flag="0"/>
			<vel value="0.00023040298437573" flag="0"/>
			<psa03 value="0.00024058842722313" flag="0"/>
			<psa10 value="0.000207168235597629" flag="0"/>
			<psa30 value="9.04164258423879e-05" flag="0"/>
		</comp>
		<comp name="--.HNZ" depth="0.0">
			<acc value="0.00384419992551671" flag="0"/>
			<vel value="0.00202158337063086" flag="0"/>
			<psa03 value="0.00258073606526539" flag="0"/>
			<psa10 value="0.00145270865669398" flag="0"/>
			<psa30 value="0.000413240500155056" flag="0"/>
		</comp>
	</station>
	<station code="BSTR" name="BSTR" netid="RO" source="Romanian Seismic Network (NIEP)" insttype="" lat="44.4458" lon="26.0984">
		<comp name="--.HNE" depth="0.0">
			<acc value="0.0321588975796566" flag="0"/>
			<vel value="0.0165814818839284" flag="0"/>
			<psa03 value="0.0814050072655496" flag="0"/>
			<psa10 value="0.0123968174783175" flag="0"/>
			<psa30 value="0.000753654040464772" flag="0"/>
		</comp>
		<comp name="--.HNN" depth="0.0">
			<acc value="0.0430187774481765" flag="0"/>
			<vel value="0.0256608406692102" flag="0"/>
			<psa03 value="0.102136672303279" flag="0"/>
			<psa10 value="0.0110435675196492" flag="0"/>
			<psa30 value="0.000637482698850196" flag="0"/>
		</comp>
		<comp name="--.HNZ" depth="0.0">
			<acc value="0.0194117971984887" flag="0"/>
			<vel value="0.00688230753839938" flag="0"/>
			<psa03 value="0.0388760571188237" flag="0"/>
			<psa10 value="0.00338386393000322" flag="0"/>
			<psa30 value="0.000182543772316538" flag="0"/>
		</comp>
	</station>
	<station code="BTMR" name="BTMR" netid="RO" source="Romanian Seismic Network (NIEP)" insttype="" lat="44.437" lon="26.1067">
		<comp name="--.HNE" depth="0.0">
			<acc value="0.0292002334651267" flag="0"/>
			<vel value="0.019307054758148" flag="0"/>
			<psa03 value="0.0814968831435423" flag="0"/>
			<psa10 value="0.0126194734781848" flag="0"/>
			<psa30 value="0.000757915729030724" flag="0"/>
		</comp>
		<comp name="--.HNN" depth="0.0">
			<acc value="0.0275130079331218" flag="0"/>
			<vel value="0.0196792423554128" flag="0"/>
			<psa03 value="0.0585209652684097" flag="0"/>
			<psa10 value="0.00899334513997847" flag="0"/>
			<psa30 value="0.000595884161901278" flag="0"/>
		</comp>
		<comp name="--.HNZ" depth="0.0">
			<acc value="0.0281241181218258" flag="0"/>
			<vel value="0.00724439088698598" flag="0"/>
			<psa03 value="0.0465894404884499" flag="0"/>
			<psa10 value="0.00269334404582479" flag="0"/>
			<psa30 value="0.000283705643064831" flag="0"/>
		</comp>
	</station>
	<station code="BUC" name="BUC" netid="RO" source="Romanian Seismic Network (NIEP)" insttype="" lat="44.4107" lon="26.0938">
		<comp name="--.HNE" depth="0.0">
			<acc value="0.0782690272564148" flag="0"/>
			<vel value="0.0388257715263559" flag="0"/>
			<psa03 value="0.195965419247277" flag="0"/>
			<psa10 value="0.0205345528133455" flag="0"/>
			<psa30 value="0.00140020525672641" flag="0"/>
		</comp>
		<comp name="--.HNN" depth="0.0">
			<acc value="0.090848189273562" flag="0"/>
			<vel value="0.0364872468486397" flag="0"/>
			<psa03 value="0.203463790977604" flag="0"/>
			<psa10 value="0.011858755271837" flag="0"/>
			<psa30 value="0.00125935238424821" flag="0"/>
		</comp>
		<comp name="--.HNZ" depth="0.0">
			<acc value="0.0574516729857643" flag="0"/>
			<vel value="0.0180912327305035" flag="0"/>
			<psa03 value="0.0408505863591953" flag="0"/>
			<psa10 value="0.00407023885209825" flag="0"/>
			<psa30 value="0.000288198675081152" flag="0"/>
		</comp>
	</station>
	<station code="BUC1" name="BUC1" netid="RO" source="Romanian Seismic Network (NIEP)" insttype="" lat="44.3479" lon="26.0281">
		<comp name="--.HNE" depth="0.0">
			<acc value="0.0260423723692853" flag="0"/>
			<vel value="0.0109849876983961" flag="0"/>
			<psa03 value="0.0534070796235834" flag="0"/>
			<psa10 value="0.00436158909012165" flag="0"/>
			<psa30 value="0.000347379210084486" flag="0"/>
		</comp>
		<comp name="--.HNN" depth="0.0">
			<acc value="0.044613100804684" flag="0"/>
			<vel value="0.0167342934604588" flag="0"/>
			<psa03 value="0.0855116907715106" flag="0"/>
			<psa10 value="0.00337537735218409" flag="0"/>
			<psa30 value="0.000299598492763126" flag="0"/>
		</comp>
		<comp name="--.HNZ" depth="0.0">
			<acc value="0.0248072614047362" flag="0"/>
			<vel value="0.00700124916243926" flag="0"/>
			<psa03 value="0.0235513153673926" flag="0"/>
			<psa10 value="0.00138627101333867" flag="0"/>
			<psa30 value="0.000138351040077413" flag="0"/>
		</comp>
	</station>
	<station code="CFR" name="CFR" netid="RO" source="Romanian Seismic Network (NIEP)" insttype="" lat="45.178" lon="28.1362">
		<comp name="--.HNE" depth="0.0">
			<acc value="0.181260109599678" flag="0"/>
			<vel value="0.0274422480162722" flag="0"/>
			<psa03 value="0.111942144784375" flag="0"/>
			<psa10 value="0.00876497282393333" flag="0"/>
			<psa30 value="0.000700688500507691" flag="0"/>
		</comp>
		<comp name="--.HNN" depth="0.0">
			<acc value="0.249674242973997" flag="0"/>
			<vel value="0.0409598905220063" flag="0"/>
			<psa03 value="0.162481065656517" flag="0"/>
			<psa10 value="0.00842424025207267" flag="0"/>
			<psa30 value="0.000819176818527249" flag="0"/>
		</comp>
		<comp name="--.HNZ" depth="0.0">
			<acc value="0.113840487069546" flag="0"/>
			<vel value="0.0167127333063745" flag="0"/>
			<psa03 value="0.0540266831692774" flag="0"/>
			<psa10 value="0.00620516199902908" flag="0"/>
			<psa30 value="0.000344996083464043" flag="0"/>
		</comp>
	</station>
	<station code="CHLR" name="CHLR" netid="RO" source="Romanian Seismic Network (NIEP)" insttype="" lat="45.4245" lon="29.289">
		<comp name="--.HNE" depth="0.0">
			<acc value="0.0601413946860318" flag="0"/>
			<vel value="0.0343932919566684" flag="0"/>
			<psa03 value="0.102183748338502" flag="0"/>
			<psa10 value="0.0186053593887491" flag="0"/>
			<psa30 value="0.00118715645578893" flag="0"/>
		</comp>
		<comp name="--.HNN" depth="0.0">
			<acc value="0.0610409422243077" flag="0"/>
			<vel value="0.0308044305728249" flag="0"/>
			<psa03 value="0.102170747477259" flag="0"/>
			<psa10 value="0.0294525442115084" flag="0"/>
			<psa30 value="0.00186806895873384" flag="0"/>
		</comp>
		<comp name="--.HNZ" depth="0.0">
			<acc value="0.0534451751291435" flag="0"/>
			<vel value="0.0102961616780812" flag="0"/>
			<psa03 value="0.0422638232083675" flag="0"/>
			<psa10 value="0.0101303810880297" flag="0"/>
			<psa30 value="0.000531125184436841" flag="0"/>
		</comp>
	</station>
	<station code="CICN" name="CICN" netid="RO" source="Romanian Seismic Network (NIEP)" insttype="" lat="44.197" lon="27.0261">
		<comp name="--.HNE" depth="0.0">
			<acc value="0.00677449070502947" flag="0"/>
			<vel value="0.00687147717338777" flag="0"/>
			<psa03 value="0.0136987746640914" flag="0"/>
			<psa10 value="0.00613589772311073" flag="0"/>
			<psa30 value="0.000485179276162576" flag="0"/>
		</comp>
		<comp name="--.HNN" depth="0.0">
			<acc value="0.00472653166532482" flag="0"/>
			<vel value="0.00465069346470794" flag="0"/>
			<psa03 value="0.00677980524861583" flag="0"/>
			<psa10 value="0.00583258888038846" flag="0"/>
			<psa30 value="0.000273613698481365" flag="0"/>
		</comp>
		<comp name="--.HNZ" depth="0.0">
			<acc value="0.00596560022252357" flag="0"/>
			<vel value="0.00560816067416143" flag="0"/>
			<psa03 value="0.00927214808847218" flag="0"/>
			<psa10 value="0.00395073390423196" flag="0"/>
			<psa30 value="0.000283865862011883" flag="0"/>
		</comp>
	</station>
	<station code="CIOR" name="CIOR" netid="RO" source="Romanian Seismic Network (NIEP)" insttype="" lat="44.4489" lon="25.8799">
		<comp name="--.HNE" depth="0.0">
			<acc value="0.0716766713359717" flag="0"/>
			<vel value="0.0293557870838375" flag="0"/>
			<psa03 value="0.129748709798584" flag="0"/>
			<psa10 value="0.0154030335003752" flag="0"/>
			<psa30 value="0.0010465033882135" flag="0"/>
		</comp>
		<comp name="--.HNN" depth="0.0">
			<acc value="0.0698060758775592" flag="0"/>
			<vel value="0.0274562536315133" flag="0"/>
			<psa03 value="0.113495810207084" flag="0"/>
			<psa10 value="0.0149123059920862" flag="0"/>
			<psa30 value="0.00100797239822451" flag="0"/>
		</comp>
		<comp name="--.HNZ" depth="0.0">
			<acc value="0.0471951870070497" flag="0"/>
			<vel value="0.0078778569233211" flag="0"/>
			<psa03 value="0.0332437959883321" flag="0"/>
			<psa10 value="0.00298546214721536" flag="0"/>
			<psa30 value="0.000323084944458618" flag="0"/>
		</comp>
	</station>
	<station code="CLISU" name="CLISU" netid="RO" source="Romanian Seismic Network (NIEP)" insttype="" lat="44.1901" lon="27.3557">
		<comp name="--.HNE" depth="0.0">
			<acc value="0.0244791260920548" flag="0"/>
			<vel value="0.00976333436303809" flag="0"/>
			<psa03 value="0.0788186275972565" flag="0"/>
			<psa10 value="0.00951267766820972" flag="0"/>
			<psa30 value="0.000412613166930642" flag="0"/>
		</comp>
		<comp name="--.HNN" depth="0.0">
			<acc value="0.0232115687354658" flag="0"/>
			<vel value="0.0104171259228566" flag="0"/>
			<psa03 value="0.108106765709334" flag="0"/>
			<psa10 value="0.00868381088485319" flag="0"/>
			<psa30 value="0.000337161554048252" flag="0"/>
		</comp>
		<comp name="--.HNZ" depth="0.0">
			<acc value="0.0240042589918376" flag="0"/>
			<vel value="0.00906914234878479" flag="0"/>
			<psa03 value="0.0506550379393281" flag="0"/>
			<psa10 value="0.00367462959805172" flag="0"/>
			<psa30 value="0.000297817072669454" flag="0"/>
		</comp>
	</station>
	<station code="COPA" name="COPA" netid="RO" source="Romanian Seismic Network (NIEP)" insttype="" lat="44.1343" lon="25.2172">
		<comp name="--.HNE" depth="0.0">
			<acc value="0.0620318974163842" flag="0"/>
			<vel value="0.0275616823181036" flag="0"/>
			<psa03 value="0.0975973299274582" flag="0"/>
			<psa10 value="0.00705847055778327" flag="0"/>
			<psa30 value="0.000814491143540944" flag="0"/>
		</comp>
		<comp name="--.HNN" depth="0.0">
			<acc value="0.0527022034393154" flag="0"/>
			<vel value="0.0125681070399696" flag="0"/>
			<psa03 value="0.0572305412424844" flag="0"/>
			<psa10 value="0.00784032375797065" flag="0"/>
			<psa30 value="0.000691406635629696" flag="0"/>
		</comp>
		<comp name="--.HNZ" depth="0.0">
			<acc value="0.0571679750600484" flag="0"/>
			<vel value="0.00559954557916766" flag="0"/>
			<psa03 value="0.0223009643086047" flag="0"/>
			<psa10 value="0.00356669463539016" flag="0"/>
			<psa30 value="0.000168276316750961" flag="0"/>
		</comp>
	</station>
	<station code="CVD1" name="CVD1" netid="RO" source="Romanian Seismic Network (NIEP)" insttype="" lat="44.3207" lon="28.0624">
		<comp name="--.HNE" depth="0.0">
			<acc value="0.0635689069977554" flag="0"/>
			<vel value="0.0162300998940976" flag="0"/>
			<psa03 value="0.0395207664943224" flag="0"/>
			<psa10 value="0.00370441852454691" flag="0"/>
			<psa30 value="0.0002630859958644" flag="0"/>
		</comp>
		<comp name="--.HNN" depth="0.0">
			<acc value="0.0434860772603675" flag="0"/>
			<vel value="0.00888266127799595" flag="0"/>
			<psa03 value="0.055378246662059" flag="0"/>
			<psa10 value="0.00349296334480402" flag="0"/>
			<psa30 value="0.000232252807483658" flag="0"/>
		</comp>
		<comp name="--.HNZ" depth="0.0">
			<acc value="0.0220634330160551" flag="0"/>
			<vel value="0.00400708859225397" flag="0"/>
			<psa03 value="0.0199190825622953" flag="0"/>
			<psa10 value="0.00248096560179517" flag="0"/>
			<psa30 value="0.000148805352415965" flag="0"/>
		</comp>
	</station>
	<station code="CVDA" name="CVDA" netid="RO" source="Romanian Seismic Network (NIEP)" insttype="" lat="44.3336" lon="28.0374">
		<comp name="--.HNE" depth="0.0">
			<acc value="0.0174561030696972" flag="0"/>
			<vel value="0.00571946082097166" flag="0"/>
			<psa03 value="0.0542478853228345" flag="0"/>
			<psa10 value="0.00100565337741326" flag="0"/>
			<psa30 value="0.000102950524394069" flag="0"/>
		</comp>
		<comp name="--.HNN" depth="0.0">
			<acc value="0.0181557197673562" flag="0"/>
			<vel value="0.00594405371931541" flag="0"/>
			<psa03 value="0.0311722446957256" flag="0"/>
			<psa10 value="0.000889569476487036" flag="0"/>
			<psa30 value="9.28308891741507e-05" flag="0"/>
		</comp>
		<comp name="--.HNZ" depth="0.0">
			<acc value="0.0332726091265027" flag="0"/>
			<vel value="0.0120214845690974" flag="0"/>
			<psa03 value="0.0553489426374779" flag="0"/>
			<psa10 value="0.00188966803279566" flag="0"/>
			<psa30 value="0.000199240789870339" flag="0"/>
		</comp>
	</station>
	<station code="DOPR" name="DOPR" netid="RO" source="Romanian Seismic Network (NIEP)" insttype="" lat="45.9675" lon="25.3886">
		<comp name="--.HNE" depth="0.0">
			<acc value="0.0170466890085784" flag="0"/>
			<vel value="0.0126213217654878" flag="0"/>
			<psa03 value="0.0501853662008805" flag="0"/>
			<psa10 value="0.0117888431405014" flag="0"/>
			<psa30 value="0.000902681256536449" flag="0"/>
		</comp>
		<comp name="--.HNN" depth="0.0">
			<acc value="0.0108111175424509" flag="0"/>
			<vel value="0.00626204136313419" flag="0"/>
			<psa03 value="0.0290639513858075" flag="0"/>
			<psa10 value="0.00319125070157213" flag="0"/>
			<psa30 value="0.000419721398232747" flag="0"/>
		</comp>
		<comp name="--.HNZ" depth="0.0">
			<acc value="0.0134842401485658" flag="0"/>
			<vel value="0.00415851912005662" flag="0"/>
			<psa03 value="0.0112680849969968" flag="0"/>
			<psa10 value="0.00394421784757518" flag="0"/>
			<psa30 value="0.000183555766439515" flag="0"/>
		</comp>
	</station>
	<station code="GIRR" name="GIRR" netid="RO" source="Romanian Seismic Network (NIEP)" insttype="" lat="46.9551" lon="26.5009">
		<comp name="--.HNE" depth="0.0">
			<acc value="0.0921066506819441" flag="0"/>
			<vel value="0.0203578145747651" flag="0"/>
			<psa03 value="0.0857812034170674" flag="0"/>
			<psa10 value="0.00718151527139168" flag="0"/>
			<psa30 value="0.000667120026761051" flag="0"/>
		</comp>
		<comp name="--.HNN" depth="0.0">
			<acc value="0.0837112756009856" flag="0"/>
			<vel value="0.0229323742351578" flag="0"/>
			<psa03 value="0.101797587340565" flag="0"/>
			<psa10 value="0.00657426941933419" flag="0"/>
			<psa30 value="0.000490256591676477" flag="0"/>
		</comp>
		<comp name="--.HNZ" depth="0.0">
			<acc value="0.0333260443115746" flag="0"/>
			<vel value="0.00755358085739076" flag="0"/>
			<psa03 value="0.0255615318677034" flag="0"/>
			<psa10 value="0.00257511066656867" flag="0"/>
			<psa30 value="0.000204972510714548" flag="0"/>
		</comp>
	</station>
	<station code="GISR" name="GISR" netid="RO" source="Romanian Seismic Network (NIEP)" insttype="" lat="45.4411" lon="28.0541">
		<comp name="--.HNE" depth="0.0">
