<stationlist xmlns:esm="https://esm-db.eu/esmws/shakemap/1/" created="1780970093">
	<station code="BAC" name="BAC" netid="RO" source="Romanian Seismic Network (NIEP)" insttype="" lat="46.5669" lon="26.9124" esm:processing="automatic (Paolucci et al 2011)" esm:quality="best">
		<comp name="--.HNE" depth="0.0">
			<acc value="0.0750320589636446" flag="0"/>
			<vel value="0.0209488801938087" flag="0"/>
			<psa03 value="0.12960066874159" flag="0"/>
			<psa10 value="0.00990496303018971" flag="0"/>
			<psa30 value="0.000614326841971654" flag="0"/>
		</comp>
		<comp name="--.HNN" depth="0.0">
			<acc value="0.0619581342674337" flag="0"/>
			<vel value="0.0171091925513349" flag="0"/>
			<psa03 value="0.0669003849471727" flag="0"/>
			<psa10 value="0.0109292411960913" flag="0"/>
			<psa30 value="0.00055254873905886" flag="0"/>
		</comp>
		<comp name="--.HNZ" depth="0.0">
			<acc value="0.116887404261159" flag="0"/>
			<vel value="0.0234364287295963" flag="0"/>
			<psa03 value="0.0587234057624322" flag="0"/>
			<psa10 value="0.00815789292036911" flag="0"/>
			<psa30 value="0.000584077233916911" flag="0"/>
		</comp>
	</station>
	<station code="BIR" name="BIR" netid="RO" source="Romanian Seismic Network (NIEP)" insttype="" lat="46.2334" lon="27.6436" esm:processing="manual (Paolucci et al 2011)" esm:quality="good">
		<comp name="--.HNE" depth="0.0">
			<acc value="0.332192905139889" flag="0"/>
			<vel value="0.0926970744674578" flag="0"/>
			<psa03 value="0.31276942777293" flag="0"/>
			<psa10 value="0.0384826605373975" flag="0"/>
			<psa30 value="0.00315745833278521" flag="0"/>
		</comp>
		<comp name="--.HNN" depth="0.0">
			<acc value="0.201010959208745" flag="0"/>
			<vel value="0.0702531167263716" flag="0"/>
			<psa03 value="0.196899397785438" flag="0"/>
			<psa10 value="0.0457885195146994" flag="0"/>
			<psa30 value="0.0028013055727461" flag="0"/>
		</comp>
		<comp name="--.HNZ" depth="0.0">
			<acc value="0.149327856891757" flag="0"/>
			<vel value="0.0341660427698213" flag="0"/>
			<psa03 value="0.146034028204337" flag="0"/>
			<psa10 value="0.009761801983973" flag="0"/>
			<psa30 value="0.000917776631530958" flag="0"/>
		</comp>
	</station>
	<station code="BTMR" name="BTMR" netid="RO" source="Romanian Seismic Network (NIEP)" insttype="" lat="44.437" lon="26.1067" esm:processing="manual (Paolucci et al 2011)" esm:quality="good">
		<comp name="--.HNE" depth="0.0">
			<acc value="0.0328814504830389" flag="0"/>
			<vel value="0.0196794539975031" flag="0"/>
			<psa03 value="0.0814578857684909" flag="0"/>
			<psa10 value="0.0128005026579795" flag="0"/>
			<psa30 value="0.000818245558919204" flag="0"/>
		</comp>
		<comp name="--.HNN" depth="0.0">
			<acc value="0.029662604505378" flag="0"/>
			<vel value="0.0197746959908377" flag="0"/>
			<psa03 value="0.0583213009999651" flag="0"/>
			<psa10 value="0.00905400353329933" flag="0"/>
			<psa30 value="0.000686942173214305" flag="0"/>
		</comp>
		<comp name="--.HNZ" depth="0.0">
			<acc value="0.0416004387435367" flag="0"/>
			<vel value="0.00749718888040403" flag="0"/>
			<psa03 value="0.0465146074061255" flag="0"/>
			<psa10 value="0.00272748161977152" flag="0"/>
			<psa30 value="0.000317203747566521" flag="0"/>
		</comp>
	</station>
	<station code="BUC" name="BUC" netid="RO" source="Romanian Seismic Network (NIEP)" insttype="" lat="44.4107" lon="26.0938" esm:processing="manual (Paolucci et al 2011)" esm:quality="good">
		<comp name="--.HNE" depth="0.0">
			<acc value="0.0787211574181087" flag="0"/>
			<vel value="0.0387064672778465" flag="0"/>
			<psa03 value="0.195980378571592" flag="0"/>
			<psa10 value="0.0205086929752582" flag="0"/>
			<psa30 value="0.00136964437805151" flag="0"/>
		</comp>
		<comp name="--.HNN" depth="0.0">
			<acc value="0.0913628962732305" flag="0"/>
			<vel value="0.0365542614874087" flag="0"/>
			<psa03 value="0.203521044770387" flag="0"/>
			<psa10 value="0.0118482752025838" flag="0"/>
			<psa30 value="0.00123511244513787" flag="0"/>
		</comp>
		<comp name="--.HNZ" depth="0.0">
			<acc value="0.0581548692634861" flag="0"/>
			<vel value="0.0183008715790826" flag="0"/>
			<psa03 value="0.0408554226170737" flag="0"/>
			<psa10 value="0.00406350528103222" flag="0"/>
			<psa30 value="0.000272534408233683" flag="0"/>
		</comp>
	</station>
	<station code="CFR" name="CFR" netid="RO" source="Romanian Seismic Network (NIEP)" insttype="" lat="45.178" lon="28.1362" esm:processing="manual (Paolucci et al 2011)" esm:quality="good">
		<comp name="--.HNE" depth="0.0">
			<acc value="0.181260110114366" flag="0"/>
			<vel value="0.0274422025869011" flag="0"/>
			<psa03 value="0.111942113532305" flag="0"/>
			<psa10 value="0.00876497376149544" flag="0"/>
			<psa30 value="0.000701049982787451" flag="0"/>
		</comp>
		<comp name="--.HNN" depth="0.0">
			<acc value="0.249674242500854" flag="0"/>
			<vel value="0.0409598752982645" flag="0"/>
			<psa03 value="0.162481076073874" flag="0"/>
			<psa10 value="0.00842423837694845" flag="0"/>
			<psa30 value="0.000819810245905371" flag="0"/>
		</comp>
		<comp name="--.HNZ" depth="0.0">
			<acc value="0.113840486793132" flag="0"/>
			<vel value="0.0167126997970754" flag="0"/>
			<psa03 value="0.0540266831692774" flag="0"/>
			<psa10 value="0.00620516153024802" flag="0"/>
			<psa30 value="0.000345475985046834" flag="0"/>
		</comp>
	</station>
	<station code="INCR" name="INCR" netid="RO" source="Romanian Seismic Network (NIEP)" insttype="" lat="44.441" lon="26.1611" esm:processing="automatic (Paolucci et al 2011)" esm:quality="best">
		<comp name="--.HNE" depth="0.0">
			<acc value="0.0264078786678151" flag="0"/>
			<vel value="0.0185599629535736" flag="0"/>
			<psa03 value="0.0638925033981153" flag="0"/>
			<psa10 value="0.0167492751822796" flag="0"/>
			<psa30 value="0.00101175650306955" flag="0"/>
		</comp>
		<comp name="--.HNN" depth="0.0">
			<acc value="0.0383612643397979" flag="0"/>
			<vel value="0.0158025080988593" flag="0"/>
			<psa03 value="0.063804143378031" flag="0"/>
			<psa10 value="0.00950479370843607" flag="0"/>
			<psa30 value="0.000632750562452717" flag="0"/>
		</comp>
		<comp name="--.HNZ" depth="0.0">
			<acc value="0.0426501493688024" flag="0"/>
			<vel value="0.00693990535825655" flag="0"/>
			<psa03 value="0.0327377963225043" flag="0"/>
			<psa10 value="0.00302147039195986" flag="0"/>
			<psa30 value="0.000291481106067762" flag="0"/>
		</comp>
	</station>
	<station code="ISR" name="ISR" netid="RO" source="Romanian Seismic Network (NIEP)" insttype="" lat="45.1187" lon="26.5432" esm:processing="automatic (Paolucci et al 2011)" esm:quality="best">
		<comp name="--.HNE" depth="0.0">
			<acc value="0.0329789554644229" flag="0"/>
			<vel value="0.0236351139766534" flag="0"/>
			<psa03 value="0.106220276155327" flag="0"/>
			<psa10 value="0.0143636315200952" flag="0"/>
			<psa30 value="0.00131669764142339" flag="0"/>
		</comp>
		<comp name="--.HNN" depth="0.0">
			<acc value="0.048447991057482" flag="0"/>
			<vel value="0.0199656319712631" flag="0"/>
			<psa03 value="0.151326774656148" flag="0"/>
			<psa10 value="0.0140151181202928" flag="0"/>
			<psa30 value="0.00154494953282433" flag="0"/>
		</comp>
		<comp name="--.HNZ" depth="0.0">
			<acc value="0.0214982393118173" flag="0"/>
			<vel value="0.00859208272782808" flag="0"/>
			<psa03 value="0.0446658807703923" flag="0"/>
			<psa10 value="0.00914007736026794" flag="0"/>
			<psa30 value="0.000686342341811751" flag="0"/>
		</comp>
	</station>
	<station code="MTUR" name="MTUR" netid="RO" source="Romanian Seismic Network (NIEP)" insttype="" lat="45.2349" lon="25.0739" esm:processing="automatic (Paolucci et al 2011)" esm:quality="best">
		<comp name="--.HNE" depth="0.0">
			<acc value="0.0121067556921265" flag="0"/>
			<vel value="0.00646507746402383" flag="0"/>
			<psa03 value="0.0127264342096416" flag="0"/>
			<psa10 value="0.00502452378754184" flag="0"/>
			<psa30 value="0.000675734920372139" flag="0"/>
		</comp>
		<comp name="--.HNN" depth="0.0">
			<acc value="0.0135557528050859" flag="0"/>
			<vel value="0.00766879027410356" flag="0"/>
			<psa03 value="0.024232154740493" flag="0"/>
			<psa10 value="0.00924988088421252" flag="0"/>
			<psa30 value="0.000913816785877284" flag="0"/>
		</comp>
		<comp name="--.HNZ" depth="0.0">
			<acc value="0.0106516495276147" flag="0"/>
			<vel value="0.00318655412162965" flag="0"/>
			<psa03 value="0.00996959207717189" flag="0"/>
			<psa10 value="0.00264616217025709" flag="0"/>
			<psa30 value="0.000341709146970632" flag="0"/>
		</comp>
	</station>
	<station code="ODBI" name="ODBI" netid="RO" source="Romanian Seismic Network (NIEP)" insttype="" lat="45.7633" lon="27.0558" esm:processing="automatic (Paolucci et al 2011)" esm:quality="best">
		<comp name="--.HNE" depth="0.0">
			<acc value="0.14443101215067" flag="0"/>
			<vel value="0.0599695269926507" flag="0"/>
			<psa03 value="0.147902797834487" flag="0"/>
			<psa10 value="0.0362317314243907" flag="0"/>
			<psa30 value="0.00265759230244725" flag="0"/>
		</comp>
		<comp name="--.HNN" depth="0.0">
			<acc value="0.236389484391956" flag="0"/>
			<vel value="0.116943820124367" flag="0"/>
			<psa03 value="0.72773987586188" flag="0"/>
			<psa10 value="0.0396310841148233" flag="0"/>
			<psa30 value="0.00383044916512498" flag="0"/>
		</comp>
		<comp name="--.HNZ" depth="0.0">
			<acc value="0.140363908982919" flag="0"/>
			<vel value="0.0518223183555343" flag="0"/>
			<psa03 value="0.159578373367399" flag="0"/>
			<psa10 value="0.0156168951676611" flag="0"/>
			<psa30 value="0.000884269307668531" flag="0"/>
		</comp>
	</station>
	<station code="PANC" name="PANC" netid="RO" source="Romanian Seismic Network (NIEP)" insttype="" lat="45.8723" lon="27.1477" esm:processing="automatic (Paolucci et al 2011)" esm:quality="best">
		<comp name="--.HNE" depth="0.0">
			<acc value="0.15943164318654" flag="0"/>
			<vel value="0.0485307748008245" flag="0"/>
			<psa03 value="0.290769845408567" flag="0"/>
			<psa10 value="0.0312903609578483" flag="0"/>
			<psa30 value="0.00245964898134035" flag="0"/>
		</comp>
		<comp name="--.HNN" depth="0.0">
			<acc value="0.192238865162374" flag="0"/>
			<vel value="0.0665853343096287" flag="0"/>
			<psa03 value="0.455229490052899" flag="0"/>
			<psa10 value="0.0292511296187801" flag="0"/>
			<psa30 value="0.00310187444229192" flag="0"/>
		</comp>
		<comp name="--.HNZ" depth="0.0">
			<acc value="0.165383086503141" flag="0"/>
			<vel value="0.0264951255386664" flag="0"/>
			<psa03 value="0.11716682422708" flag="0"/>
			<psa10 value="0.0128690487613224" flag="0"/>
			<psa30 value="0.000617346104482978" flag="0"/>
		</comp>
	</station>
	<station code="PLAR" name="PLAR" netid="RO" source="Romanian Seismic Network (NIEP)" insttype="" lat="44.9142" lon="26.0274" esm:processing="automatic (Paolucci et al 2011)" esm:quality="best">
		<comp name="--.HNE" depth="0.0">
			<acc value="0.0485502185016557" flag="0"/>
			<vel value="0.0235396077160276" flag="0"/>
			<psa03 value="0.114488042604278" flag="0"/>
			<psa10 value="0.0140319136079115" flag="0"/>
			<psa30 value="0.00136130788829998" flag="0"/>
		</comp>
		<comp name="--.HNN" depth="0.0">
			<acc value="0.0412953764920505" flag="0"/>
			<vel value="0.0177584987223786" flag="0"/>
			<psa03 value="0.0842739629447833" flag="0"/>
			<psa10 value="0.0118966768464552" flag="0"/>
			<psa30 value="0.00091047687712472" flag="0"/>
		</comp>
		<comp name="--.HNZ" depth="0.0">
			<acc value="0.0223606601252243" flag="0"/>
			<vel value="0.00524980012210149" flag="0"/>
			<psa03 value="0.0257558598451449" flag="0"/>
			<psa10 value="0.00486408628434464" flag="0"/>
			<psa30 value="0.000410494797432392" flag="0"/>
		</comp>
	</station>
	<station code="PRAR" name="PRAR" netid="RO" source="Romanian Seismic Network (NIEP)" insttype="" lat="47.3552" lon="26.2337" esm:processing="automatic (Paolucci et al 2011)" esm:quality="best">
		<comp name="--.HNE" depth="0.0">
			<acc value="0.0159925502270995" flag="0"/>
			<vel value="0.0100486253787492" flag="0"/>
			<psa03 value="0.0612150239449086" flag="0"/>
			<psa10 value="0.00805289346467048" flag="0"/>
			<psa30 value="0.000781513333922903" flag="0"/>
		</comp>
		<comp name="--.HNN" depth="0.0">
			<acc value="0.0286665200772235" flag="0"/>
			<vel value="0.0119348154052184" flag="0"/>
			<psa03 value="0.0969224206346965" flag="0"/>
			<psa10 value="0.0102666482400598" flag="0"/>
			<psa30 value="0.000663991329916906" flag="0"/>
		</comp>
		<comp name="--.HNZ" depth="0.0">
			<acc value="0.0139166531129859" flag="0"/>
			<vel value="0.00357075579735706" flag="0"/>
			<psa03 value="0.0267195200370698" flag="0"/>
			<psa10 value="0.00449205648294612" flag="0"/>
			<psa30 value="0.000275039626275416" flag="0"/>
		</comp>
	</station>
	<station code="SULR" name="SULR" netid="RO" source="Romanian Seismic Network (NIEP)" insttype="" lat="44.6777" lon="26.2526" esm:processing="automatic (Paolucci et al 2011)" esm:quality="best">
		<comp name="--.HNE" depth="0.0">
			<acc value="0.0722277551796138" flag="0"/>
			<vel value="0.0386035678834758" flag="0"/>
			<psa03 value="0.159221578898183" flag="0"/>
			<psa10 value="0.0271041311406679" flag="0"/>
			<psa30 value="0.00185426950292095" flag="0"/>
		</comp>
		<comp name="--.HNN" depth="0.0">
			<acc value="0.122808893380589" flag="0"/>
			<vel value="0.0417669196113576" flag="0"/>
			<psa03 value="0.182866072313164" flag="0"/>
			<psa10 value="0.0185855074486555" flag="0"/>
			<psa30 value="0.00159658555762422" flag="0"/>
		</comp>
		<comp name="--.HNZ" depth="0.0">
			<acc value="0.0684354171732437" flag="0"/>
			<vel value="0.0149644293622561" flag="0"/>
			<psa03 value="0.081295588558764" flag="0"/>
			<psa10 value="0.00476395558867747" flag="0"/>
			<psa30 value="0.000406763430455976" flag="0"/>
		</comp>
	</station>
	<station code="TLBR" name="TLBR" netid="RO" source="Romanian Seismic Network (NIEP)" insttype="" lat="44.5445" lon="28.0467" esm:processing="automatic (Paolucci et al 2011)" esm:quality="best">
		<comp name="--.HNE" depth="0.0">
			<acc value="0.0717160802536741" flag="0"/>
			<vel value="0.0215874985461713" flag="0"/>
			<psa03 value="0.109683036796225" flag="0"/>
			<psa10 value="0.00514271146064515" flag="0"/>
			<psa30 value="0.000543635336089658" flag="0"/>
		</comp>
		<comp name="--.HNN" depth="0.0">
			<acc value="0.0939623783785114" flag="0"/>
			<vel value="0.0253755345291454" flag="0"/>
			<psa03 value="0.126596896839777" flag="0"/>
			<psa10 value="0.00639153293893919" flag="0"/>
			<psa30 value="0.000483681103999356" flag="0"/>
		</comp>
		<comp name="--.HNZ" depth="0.0">
			<acc value="0.183667938365334" flag="0"/>
			<vel value="0.0272281069049405" flag="0"/>
			<psa03 value="0.109269061455723" flag="0"/>
			<psa10 value="0.0046552447933708" flag="0"/>
			<psa30 value="0.000390347082536827" flag="0"/>
		</comp>
	</station>
	<station code="TLCR" name="TLCR" netid="RO" source="Romanian Seismic Network (NIEP)" insttype="" lat="45.1861" lon="28.8151" esm:processing="automatic (Paolucci et al 2011)" esm:quality="best">
		<comp name="--.HNE" depth="0.0">
			<acc value="0.0274041599003859" flag="0"/>
			<vel value="0.00652054574926993" flag="0"/>
			<psa03 value="0.0343950753799416" flag="0"/>
			<psa10 value="0.00248538480079542" flag="0"/>
			<psa30 value="0.000299669903743753" flag="0"/>
		</comp>
		<comp name="--.HNN" depth="0.0">
			<acc value="0.0327142466251482" flag="0"/>
			<vel value="0.0248987331567599" flag="0"/>
			<psa03 value="0.0974377151870983" flag="0"/>
			<psa10 value="0.0110128689235178" flag="0"/>
			<psa30 value="0.000744314828037783" flag="0"/>
		</comp>
		<comp name="--.HNZ" depth="0.0">
			<acc value="0.0136789181673402" flag="0"/>
			<vel value="0.00543798376409106" flag="0"/>
			<psa03 value="0.0204013267481892" flag="0"/>
			<psa10 value="0.00297093040330865" flag="0"/>
			<psa30 value="0.000177681275720835" flag="0"/>
		</comp>
	</station>
	<station code="TPGR" name="TPGR" netid="RO" source="Romanian Seismic Network (NIEP)" insttype="" lat="44.8565" lon="28.4196" esm:processing="automatic (Paolucci et al 2011)" esm:quality="best">
		<comp name="--.HNE" depth="0.0">
			<acc value="0.0263456461525805" flag="0"/>
			<vel value="0.00545275316046296" flag="0"/>
			<psa03 value="0.0268744860319731" flag="0"/>
			<psa10 value="0.00246239249641809" flag="0"/>
			<psa30 value="0.000191057630588698" flag="0"/>
		</comp>
		<comp name="--.HNN" depth="0.0">
			<acc value="0.0375032442349253" flag="0"/>
			<vel value="0.00830170305811925" flag="0"/>
			<psa03 value="0.0310308342863134" flag="0"/>
			<psa10 value="0.00396078972663084" flag="0"/>
			<psa30 value="0.000326904806880757" flag="0"/>
		</comp>
		<comp name="--.HNZ" depth="0.0">
			<acc value="0.0187238198376881" flag="0"/>
			<vel value="0.00616025519447077" flag="0"/>
			<psa03 value="0.0195124293214305" flag="0"/>
			<psa10 value="0.00204129092863088" flag="0"/>
			<psa30 value="0.000185873328820815" flag="0"/>
		</comp>
	</station>
	<station code="VASR" name="VASR" netid="RO" source="Romanian Seismic Network (NIEP)" insttype="" lat="46.6415" lon="27.7911" esm:processing="automatic (Paolucci et al 2011)" esm:quality="best">
		<comp name="--.HNE" depth="0.0">
			<acc value="0.141801387348821" flag="0"/>
			<vel value="0.0564019654764532" flag="0"/>
			<psa03 value="0.13662540492922" flag="0"/>
			<psa10 value="0.0291159706651628" flag="0"/>
			<psa30 value="0.0017820651364027" flag="0"/>
		</comp>
		<comp name="--.HNN" depth="0.0">
			<acc value="0.203084062193149" flag="0"/>
			<vel value="0.0927510749418774" flag="0"/>
			<psa03 value="0.293008722889879" flag="0"/>
			<psa10 value="0.0275619033408295" flag="0"/>
			<psa30 value="0.00203294113070608" flag="0"/>
		</comp>
		<comp name="--.HNZ" depth="0.0">
			<acc value="0.238610158019762" flag="0"/>
			<vel value="0.0318414052372075" flag="0"/>
			<psa03 value="0.119372605765948" flag="0"/>
			<psa10 value="0.00948285569265019" flag="0"/>
			<psa30 value="0.000761730877598926" flag="0"/>
		</comp>
	</station>
</stationlist>
