<?xml version="1.0" encoding="UTF-8" standalone="yes"?>
<!DOCTYPE earthquake SYSTEM "stationlist.dtd">
<stationlist created="" xmlns="ch.ethz.sed.shakemap.usgs.xml">
  <station code="BNGB" name="BNGB" netid="KO" insttype="CMG-3ESPC" lat="38.9913" lon="40.6792">
    <comp name="--.HHE">
      <acc value="0.0395755615" flag="0"/>
      <vel value="0.0317155952" flag="0"/>
      <psa03 value="0.1151243344" flag="0"/>
      <psa10 value="0.0435911827" flag="0"/>
      <psa30 value="0.0032128322" flag="0"/>
    </comp>
  </station>
  <station code="DYBB" name="DYBB" netid="KO" insttype="CMG-3T" lat="37.9532" lon="40.1393">
    <comp name="--.HHE">
      <acc value="0.0281485373" flag="0"/>
      <vel value="0.0249410098" flag="0"/>
      <psa03 value="0.0375942306" flag="0"/>
      <psa10 value="0.0260806331" flag="0"/>
      <psa30 value="0.0044693571" flag="0"/>
    </comp>
    <comp name="--.HHN">
      <acc value="0.0393764933" flag="0"/>
      <vel value="0.0154974460" flag="0"/>
      <psa03 value="0.0830545514" flag="0"/>
      <psa10 value="0.0294363868" flag="0"/>
      <psa30 value="0.0022566154" flag="0"/>
    </comp>
    <comp name="--.HHZ">
      <acc value="0.0251040512" flag="0"/>
      <vel value="0.0122234749" flag="0"/>
      <psa03 value="0.0376328837" flag="0"/>
      <psa10 value="0.0382690772" flag="0"/>
      <psa30 value="0.0023740866" flag="0"/>
    </comp>
  </station>
  <station code="KARO" name="KARO" netid="KO" insttype="CMG-3T" lat="39.3089" lon="41.0493">
    <comp name="--.HHE">
      <acc value="0.0260658656" flag="0"/>
      <vel value="0.0190975216" flag="0"/>
      <psa03 value="0.0481031767" flag="0"/>
      <psa10 value="0.0314856616" flag="0"/>
      <psa30 value="0.0031566786" flag="0"/>
    </comp>
    <comp name="--.HHZ">
      <acc value="0.0101112699" flag="0"/>
      <vel value="0.0086061486" flag="0"/>
      <psa03 value="0.0246023447" flag="0"/>
      <psa10 value="0.0125317228" flag="0"/>
      <psa30 value="0.0011764088" flag="0"/>
    </comp>
    <comp name="--.HHN">
      <acc value="0.0185085565" flag="0"/>
      <vel value="0.0167645208" flag="0"/>
      <psa03 value="0.0409837221" flag="0"/>
      <psa10 value="0.0245353371" flag="0"/>
      <psa30 value="0.0018870043" flag="0"/>
    </comp>
  </station>
  <station code="MAZI" name="MAZI" netid="KO" insttype="CMG-3T" lat="37.4593" lon="40.4465">
    <comp name="--.HHE">
      <acc value="0.1611478814" flag="0"/>
      <vel value="0.0758537924" flag="0"/>
      <psa03 value="0.3024497904" flag="0"/>
      <psa10 value="0.0702459063" flag="0"/>
      <psa30 value="0.0063182299" flag="0"/>
    </comp>
    <comp name="--.HHZ">
      <acc value="0.2317846005" flag="0"/>
      <vel value="0.0748860494" flag="0"/>
      <psa03 value="0.3886224709" flag="0"/>
      <psa10 value="0.0255786589" flag="0"/>
      <psa30 value="0.0016296684" flag="0"/>
    </comp>
  </station>
  <station code="SVAN" name="SVAN" netid="KO" insttype="CMG-3T" lat="38.1511" lon="41.1984">
    <comp name="--.HHN">
      <acc value="0.0326293333" flag="0"/>
      <vel value="0.0123134576" flag="0"/>
      <psa03 value="0.0479584026" flag="0"/>
      <psa10 value="0.0105118349" flag="0"/>
      <psa30 value="0.0019629362" flag="0"/>
    </comp>
    <comp name="--.HHZ">
      <acc value="0.0258902457" flag="0"/>
      <vel value="0.0132593194" flag="0"/>
      <psa03 value="0.0425361584" flag="0"/>
      <psa10 value="0.0103175850" flag="0"/>
      <psa30 value="0.0012935665" flag="0"/>
    </comp>
    <comp name="--.HHE">
      <acc value="0.0331779704" flag="0"/>
      <vel value="0.0112204867" flag="0"/>
      <psa03 value="0.0400988332" flag="0"/>
      <psa10 value="0.0096647125" flag="0"/>
      <psa30 value="0.0014269041" flag="0"/>
    </comp>
  </station>
</stationlist>
