<?xml version="1.0" encoding="UTF-8" standalone="yes"?>
<!DOCTYPE earthquake SYSTEM "stationlist.dtd">
<stationlist created="" xmlns="ch.ethz.sed.shakemap.usgs.xml">
  <station code="BCI" name="BCI" netid="AC" insttype="" lat="42.3666" lon="20.0675">
    <comp name="--.HHN">
      <acc value="0.0455846823" flag="0"/>
      <vel value="0.0311944208" flag="0"/>
      <psa03 value="0.0758016848" flag="0"/>
      <psa10 value="0.0653175040" flag="0"/>
      <psa30 value="0.0064396220" flag="0"/>
    </comp>
    <comp name="--.HHZ">
      <acc value="0.0394125368" flag="0"/>
      <vel value="0.0241335003" flag="0"/>
      <psa03 value="0.0643696041" flag="0"/>
      <psa10 value="0.0515089835" flag="0"/>
      <psa30 value="0.0059384696" flag="0"/>
    </comp>
    <comp name="--.HHE">
      <acc value="0.0478629370" flag="0"/>
      <vel value="0.0414511936" flag="0"/>
      <psa03 value="0.1031506730" flag="0"/>
      <psa10 value="0.0543546408" flag="0"/>
      <psa30 value="0.0042181129" flag="0"/>
    </comp>
  </station>
  <station code="PHP" name="PHP" netid="AC" insttype="" lat="41.6847" lon="20.4408">
    <comp name="--.HHE">
      <acc value="0.7788562501" flag="0"/>
      <vel value="0.1512630639" flag="0"/>
      <psa03 value="0.3267367742" flag="0"/>
      <psa10 value="0.1317506486" flag="0"/>
      <psa30 value="0.0129283083" flag="0"/>
    </comp>
    <comp name="--.HHN">
      <acc value="0.7800529022" flag="0"/>
      <vel value="0.1220381502" flag="0"/>
      <psa03 value="0.3764650603" flag="0"/>
      <psa10 value="0.0499091031" flag="0"/>
      <psa30 value="0.0079853143" flag="0"/>
    </comp>
    <comp name="--.HHZ">
      <acc value="0.4518098504" flag="0"/>
      <vel value="0.1036299824" flag="0"/>
      <psa03 value="0.2361837266" flag="0"/>
      <psa10 value="0.0872485860" flag="0"/>
      <psa30 value="0.0085152108" flag="0"/>
    </comp>
  </station>
  <station code="NEST" name="NEST" netid="HT" insttype="120P," lat="40.4147" lon="21.0489">
    <comp name="--.HHE">
      <acc value="0.0111995580" flag="0"/>
      <vel value="0.0085784291" flag="0"/>
      <psa03 value="0.0382249788" flag="0"/>
      <psa10 value="0.0078499701" flag="0"/>
      <psa30 value="0.0046767173" flag="0"/>
    </comp>
    <comp name="--.HHN">
      <acc value="0.0071678293" flag="0"/>
      <vel value="0.0103456148" flag="0"/>
      <psa03 value="0.0201521433" flag="0"/>
      <psa10 value="0.0151718605" flag="0"/>
      <psa30 value="0.0041008677" flag="0"/>
    </comp>
    <comp name="--.HHZ">
      <acc value="0.0098155475" flag="0"/>
      <vel value="0.0079199219" flag="0"/>
      <psa03 value="0.0334925511" flag="0"/>
      <psa10 value="0.0131434759" flag="0"/>
      <psa30 value="0.0039555302" flag="0"/>
    </comp>
  </station>
  <station code="PDG" name="PDG" netid="MN" insttype="" lat="42.4297" lon="19.2608">
    <comp name="--.HHN">
      <acc value="0.0154876428" flag="0"/>
      <vel value="0.0123698274" flag="0"/>
      <psa03 value="0.0309506252" flag="0"/>
      <psa10 value="0.0146612624" flag="0"/>
      <psa30 value="0.0007353304" flag="0"/>
    </comp>
    <comp name="--.HHE">
      <acc value="0.0123837609" flag="0"/>
      <vel value="0.0098251946" flag="0"/>
      <psa03 value="0.0339748189" flag="0"/>
      <psa10 value="0.0086650370" flag="0"/>
      <psa30 value="0.0007536739" flag="0"/>
    </comp>
    <comp name="--.HHZ">
      <acc value="0.0120741680" flag="0"/>
      <vel value="0.0082829603" flag="0"/>
      <psa03 value="0.0386112749" flag="0"/>
      <psa10 value="0.0146846491" flag="0"/>
      <psa30 value="0.0007935840" flag="0"/>
    </comp>
  </station>
  <station code="TIR" name="TIR" netid="MN" insttype="" lat="41.3472" lon="19.8631">
    <comp name="--.HHE">
      <acc value="0.0232940825" flag="0"/>
      <vel value="0.0180157147" flag="0"/>
      <psa03 value="0.0485037005" flag="0"/>
      <psa10 value="0.0274535440" flag="0"/>
      <psa30 value="0.0024365981" flag="0"/>
    </comp>
    <comp name="--.HHN">
      <acc value="0.0311383307" flag="0"/>
      <vel value="0.0118586278" flag="0"/>
      <psa03 value="0.0343855349" flag="0"/>
      <psa10 value="0.0147348708" flag="0"/>
      <psa30 value="0.0023752512" flag="0"/>
    </comp>
    <comp name="--.HHZ">
      <acc value="0.0172113130" flag="0"/>
      <vel value="0.0117848706" flag="0"/>
      <psa03 value="0.0299729904" flag="0"/>
      <psa10 value="0.0135771133" flag="0"/>
      <psa30 value="0.0024074192" flag="0"/>
    </comp>
  </station>
</stationlist>
