<stationlist created="1778136424">
	<station code="MMAA" name="MMAA" netid="EG" source="EUROSEISTEST Strong Motion Network" insttype="" lat="40.630855" lon="22.943725">
		<comp name="--.EN1" depth="0.0">
			<acc value="0.00433774974528024" flag="0"/>
			<vel value="0.000661001419969348" flag="0"/>
			<psa03 value="0.0350057798986029" flag="0"/>
			<psa10 value="0.0193831665396747" flag="0"/>
			<psa30 value="0.000997814121120947" flag="0"/>
		</comp>
		<comp name="--.EN2" depth="0.0">
			<acc value="0.00639882987428298" flag="0"/>
			<vel value="0.000874338601559425" flag="0"/>
			<psa03 value="0.0429031363930715" flag="0"/>
			<psa10 value="0.0146273836798747" flag="0"/>
			<psa30 value="0.00152276150047721" flag="0"/>
		</comp>
		<comp name="--.EN3" depth="0.0">
			<acc value="0.0268824512686802" flag="0"/>
			<vel value="0.0037491882172651" flag="0"/>
			<psa03 value="0.0140242910196255" flag="0"/>
			<psa10 value="0.00710619293789082" flag="0"/>
			<psa30 value="0.000840647094992504" flag="0"/>
		</comp>
	</station>
	<station code="LMS2" name="LMS2" netid="HI" source="ITSAK Strong Motion Network" insttype="" lat="40.834985" lon="21.141815">
		<comp name="--.HNE" depth="0.0">
			<acc value="0.0479904386334981" flag="0"/>
			<vel value="0.019785786653851" flag="0"/>
			<psa03 value="0.152022122802795" flag="0"/>
			<psa10 value="0.0160441947241643" flag="0"/>
			<psa30 value="0.00263988987974745" flag="0"/>
		</comp>
		<comp name="--.HNN" depth="0.0">
			<acc value="0.0428473407264046" flag="0"/>
			<vel value="0.0146207024604469" flag="0"/>
			<psa03 value="0.103498845873932" flag="0"/>
			<psa10 value="0.00862160457648128" flag="0"/>
			<psa30 value="0.00258262879481816" flag="0"/>
		</comp>
		<comp name="--.HNZ" depth="0.0">
			<acc value="0.0173759552426035" flag="0"/>
			<vel value="0.00829352459972692" flag="0"/>
			<psa03 value="0.0485794212734199" flag="0"/>
			<psa10 value="0.0094666789960168" flag="0"/>
			<psa30 value="0.00357451304394694" flag="0"/>
		</comp>
	</station>
	<station code="AMYA" name="AMYA" netid="HL" source="National Observatory of Athens Seismic Network" insttype="" lat="40.6901" lon="21.67899">
		<comp name="00.HNE" depth="0.0">
			<acc value="0.00281068877288691" flag="0"/>
			<vel value="0.0050094683427453" flag="0"/>
			<psa03 value="0.00118780101671747" flag="0"/>
			<psa10 value="0.00331185611296384" flag="0"/>
			<psa30 value="0.00270031304915492" flag="0"/>
		</comp>
		<comp name="00.HNN" depth="0.0">
			<acc value="0.00190699765751397" flag="0"/>
			<vel value="0.00454352366530684" flag="0"/>
			<psa03 value="0.000972955729584738" flag="0"/>
			<psa10 value="0.00204552425594488" flag="0"/>
			<psa30 value="0.00171511799314774" flag="0"/>
		</comp>
		<comp name="00.HNZ" depth="0.0">
			<acc value="0.0025933673157816" flag="0"/>
			<vel value="0.00200051992816475" flag="0"/>
			<psa03 value="0.000525795410791658" flag="0"/>
			<psa10 value="0.00116398382696761" flag="0"/>
			<psa30 value="0.000436353307306928" flag="0"/>
		</comp>
	</station>
	<station code="NASA" name="NASA" netid="HL" source="National Observatory of Athens Seismic Network" insttype="" lat="40.63111" lon="22.06706">
		<comp name="00.HNE" depth="0.0">
			<acc value="0.0146518463847491" flag="0"/>
			<vel value="0.0104814580260075" flag="0"/>
			<psa03 value="0.034605763816197" flag="0"/>
			<psa10 value="0.0181849602893546" flag="0"/>
			<psa30 value="0.00185989987590396" flag="0"/>
		</comp>
		<comp name="00.HNN" depth="0.0">
			<acc value="0.0153645048463861" flag="0"/>
			<vel value="0.0111080634059929" flag="0"/>
			<psa03 value="0.0541231739364904" flag="0"/>
			<psa10 value="0.02089929260055" flag="0"/>
			<psa30 value="0.00165081831694593" flag="0"/>
		</comp>
		<comp name="00.HNZ" depth="0.0">
			<acc value="0.00750000560498247" flag="0"/>
			<vel value="0.00492099941827224" flag="0"/>
			<psa03 value="0.022914601313207" flag="0"/>
			<psa10 value="0.00566263465300791" flag="0"/>
			<psa30 value="0.00188259762952238" flag="0"/>
		</comp>
	</station>
</stationlist>
