<stationlist created="1778070001">
	<station code="MALA" name="MALA" netid="CL" source="Corinth Riff Laboratory (CRLNET)" insttype="" lat="38.39341" lon="21.87263">
		<comp name="01.HNE" depth="0.0">
			<acc value="0.14319250336653" flag="0"/>
			<vel value="0.182271859698009" flag="0"/>
			<psa03 value="0.212435997023554" flag="0"/>
			<psa10 value="0.243564939856151" flag="0"/>
			<psa30 value="0.0445453409091513" flag="0"/>
		</comp>
		<comp name="01.HNN" depth="0.0">
			<acc value="0.113397461793686" flag="0"/>
			<vel value="0.15063174501345" flag="0"/>
			<psa03 value="0.180669030324581" flag="0"/>
			<psa10 value="0.23725091965818" flag="0"/>
			<psa30 value="0.0253594352891702" flag="0"/>
		</comp>
		<comp name="01.HNZ" depth="0.0">
			<acc value="0.0603107863590636" flag="0"/>
			<vel value="0.0887476941975338" flag="0"/>
			<psa03 value="0.107202327057379" flag="0"/>
			<psa10 value="0.109202751115282" flag="0"/>
			<psa30 value="0.0249084338464581" flag="0"/>
		</comp>
	</station>
	<station code="ROD3" name="ROD3" netid="CL" source="Corinth Riff Laboratory (CRLNET)" insttype="" lat="38.30811" lon="21.89204">
		<comp name="00.HNE" depth="0.0">
			<acc value="0.0567024228226684" flag="0"/>
			<vel value="0.0435601755207814" flag="0"/>
			<psa03 value="0.182100780936366" flag="0"/>
			<psa10 value="0.0381176755063704" flag="0"/>
			<psa30 value="0.00666077229926211" flag="0"/>
		</comp>
		<comp name="00.HNN" depth="0.0">
			<acc value="0.060805197427093" flag="0"/>
			<vel value="0.0502658217202617" flag="0"/>
			<psa03 value="0.222771446752375" flag="0"/>
			<psa10 value="0.0415364275140726" flag="0"/>
			<psa30 value="0.00844374923300024" flag="0"/>
		</comp>
		<comp name="00.HNZ" depth="0.0">
			<acc value="0.0242036841673049" flag="0"/>
			<vel value="0.021770526856571" flag="0"/>
			<psa03 value="0.0580753841905167" flag="0"/>
			<psa10 value="0.0276439723590992" flag="0"/>
			<psa30 value="0.00813637027353272" flag="0"/>
		</comp>
	</station>
	<station code="MMAA" name="MMAA" netid="EG" source="EUROSEISTEST Strong Motion Network" insttype="" lat="40.630855" lon="22.943725">
		<comp name="--.EN1" depth="0.0">
			<acc value="0.0779916614462081" flag="0"/>
			<vel value="0.0546190093804612" flag="0"/>
			<psa03 value="0.258285630988735" flag="0"/>
			<psa10 value="0.134705713592569" flag="0"/>
			<psa30 value="0.00785617709983062" flag="0"/>
		</comp>
		<comp name="--.EN2" depth="0.0">
			<acc value="0.112560646981083" flag="0"/>
			<vel value="0.0881319107284085" flag="0"/>
			<psa03 value="0.241370927139435" flag="0"/>
			<psa10 value="0.218982196495644" flag="0"/>
			<psa30 value="0.0129559165992215" flag="0"/>
		</comp>
		<comp name="--.EN3" depth="0.0">
			<acc value="0.0591407637312966" flag="0"/>
			<vel value="0.03671061909661" flag="0"/>
			<psa03 value="0.133814729152518" flag="0"/>
			<psa10 value="0.0361011402733842" flag="0"/>
			<psa30 value="0.00672668644328793" flag="0"/>
		</comp>
	</station>
	<station code="STC" name="STC" netid="EG" source="EUROSEISTEST Strong Motion Network" insttype="" lat="40.64865" lon="23.304856">
		<comp name="--.EN1" depth="0.0">
			<acc value="0.129829523879564" flag="0"/>
			<vel value="0.0827445983102497" flag="0"/>
			<psa03 value="0.537434102369549" flag="0"/>
			<psa10 value="0.0574274567871733" flag="0"/>
			<psa30 value="0.00571008659853418" flag="0"/>
		</comp>
		<comp name="--.EN2" depth="0.0">
			<acc value="0.0946806589000191" flag="0"/>
			<vel value="0.0549870131172542" flag="0"/>
			<psa03 value="0.3266859330065" flag="0"/>
			<psa10 value="0.0530971874278814" flag="0"/>
			<psa30 value="0.00831320820923938" flag="0"/>
		</comp>
		<comp name="--.EN3" depth="0.0">
			<acc value="0.0562531976455234" flag="0"/>
			<vel value="0.0361327934010207" flag="0"/>
			<psa03 value="0.124326611027893" flag="0"/>
			<psa10 value="0.0378151500681225" flag="0"/>
			<psa30 value="0.00752992798743026" flag="0"/>
		</comp>
	</station>
	<station code="TST" name="TST" netid="EG" source="EUROSEISTEST Strong Motion Network" insttype="" lat="40.6638" lon="23.2906">
		<comp name="00.EN1" depth="0.0">
			<acc value="0.0523125152692353" flag="0"/>
			<vel value="0.0446208630384221" flag="0"/>
			<psa03 value="0.150166718641342" flag="0"/>
			<psa10 value="0.0657100379675824" flag="0"/>
			<psa30 value="0.0059720931218779" flag="0"/>
		</comp>
		<comp name="00.EN2" depth="0.0">
			<acc value="0.0278547830532544" flag="0"/>
			<vel value="0.0210729595087066" flag="0"/>
			<psa03 value="0.0782179575973597" flag="0"/>
			<psa10 value="0.0341885773254758" flag="0"/>
			<psa30 value="0.00512955814137857" flag="0"/>
		</comp>
		<comp name="00.EN3" depth="0.0">
			<acc value="0.0829792540240967" flag="0"/>
			<vel value="0.0563507113454554" flag="0"/>
			<psa03 value="0.202189164873354" flag="0"/>
			<psa10 value="0.0588376889581711" flag="0"/>
			<psa30 value="0.0066597928452457" flag="0"/>
		</comp>
	</station>
	<station code="AIGS" name="AIGS" netid="HA" source="Hellenic Seismological Network, University of Athens, Seismological Laboratory (HA)" insttype="" lat="38.25001" lon="22.0878">
		<comp name="--.HNE" depth="0.0">
			<acc value="0.0357578928405279" flag="0"/>
			<vel value="0.0419981098134518" flag="0"/>
			<psa03 value="0.112839845091281" flag="0"/>
			<psa10 value="0.0553000251139853" flag="0"/>
			<psa30 value="0.0120289422493224" flag="0"/>
		</comp>
		<comp name="--.HNN" depth="0.0">
			<acc value="0.0459417893099155" flag="0"/>
			<vel value="0.0398827074392668" flag="0"/>
			<psa03 value="0.136866410045293" flag="0"/>
			<psa10 value="0.0378720407920361" flag="0"/>
			<psa30 value="0.0189595100544927" flag="0"/>
		</comp>
		<comp name="--.HNZ" depth="0.0">
			<acc value="0.0227877200890605" flag="0"/>
			<vel value="0.0284571293566781" flag="0"/>
			<psa03 value="0.0476504500484594" flag="0"/>
			<psa10 value="0.0552194891420724" flag="0"/>
			<psa30 value="0.0120056763018809" flag="0"/>
		</comp>
	</station>
	<station code="XLKS" name="XLKS" netid="HA" source="Hellenic Seismological Network, University of Athens, Seismological Laboratory (HA)" insttype="" lat="38.0772" lon="22.6361">
		<comp name="--.HNE" depth="0.0">
			<acc value="0.0429047167570638" flag="0"/>
			<vel value="0.0554534893227343" flag="0"/>
			<psa03 value="0.0964194552623756" flag="0"/>
			<psa10 value="0.132836032073119" flag="0"/>
			<psa30 value="0.0227321729165453" flag="0"/>
		</comp>
		<comp name="--.HNN" depth="0.0">
			<acc value="0.051098832228956" flag="0"/>
			<vel value="0.0469295878673361" flag="0"/>
			<psa03 value="0.142280217046104" flag="0"/>
			<psa10 value="0.0846956548621899" flag="0"/>
			<psa30 value="0.0193680064009175" flag="0"/>
		</comp>
		<comp name="--.HNZ" depth="0.0">
			<acc value="0.0337026546533929" flag="0"/>
			<vel value="0.0295903939554508" flag="0"/>
			<psa03 value="0.104607279073519" flag="0"/>
			<psa10 value="0.0423901088163492" flag="0"/>
			<psa30 value="0.0101667716098699" flag="0"/>
		</comp>
	</station>
	<station code="ART2" name="ART2" netid="HI" source="ITSAK Strong Motion Network" insttype="" lat="39.1474" lon="20.9937">
		<comp name="--.HNE" depth="0.0">
			<acc value="0.0327963895253677" flag="0"/>
			<vel value="0.0154280489878214" flag="0"/>
			<psa03 value="0.0499323025859913" flag="0"/>
			<psa10 value="0.0175850294671793" flag="0"/>
			<psa30 value="0.00528450202368408" flag="0"/>
		</comp>
		<comp name="--.HNN" depth="0.0">
			<acc value="0.0255819022208461" flag="0"/>
			<vel value="0.0154620072532765" flag="0"/>
			<psa03 value="0.0387020087248051" flag="0"/>
			<psa10 value="0.0176816726334748" flag="0"/>
			<psa30 value="0.00383351226305352" flag="0"/>
		</comp>
		<comp name="--.HNZ" depth="0.0">
			<acc value="0.0157490888930452" flag="0"/>
			<vel value="0.010027781547873" flag="0"/>
			<psa03 value="0.0305141849136613" flag="0"/>
			<psa10 value="0.00720394268760793" flag="0"/>
			<psa30 value="0.00415699841690363" flag="0"/>
		</comp>
	</station>
	<station code="KLV1" name="KLV1" netid="HI" source="ITSAK Strong Motion Network" insttype="" lat="38.03256" lon="22.10797">
		<comp name="--.HNE" depth="0.0">
			<acc value="0.0308851910976999" flag="0"/>
			<vel value="0.0305551362466871" flag="0"/>
			<psa03 value="0.0946297669976448" flag="0"/>
			<psa10 value="0.0466544885291367" flag="0"/>
			<psa30 value="0.00612744519637232" flag="0"/>
		</comp>
		<comp name="--.HNN" depth="0.0">
			<acc value="0.0361381239290002" flag="0"/>
			<vel value="0.0409690946638317" flag="0"/>
			<psa03 value="0.100490996064638" flag="0"/>
			<psa10 value="0.0535966893080277" flag="0"/>
			<psa30 value="0.00440979188429686" flag="0"/>
		</comp>
		<comp name="--.HNZ" depth="0.0">
			<acc value="0.0210737551204055" flag="0"/>
			<vel value="0.0216833055577662" flag="0"/>
			<psa03 value="0.0357490230879991" flag="0"/>
			<psa10 value="0.0197393667158491" flag="0"/>
			<psa30 value="0.00313463899567612" flag="0"/>
		</comp>
	</station>
	<station code="LAM2" name="LAM2" netid="HI" source="ITSAK Strong Motion Network" insttype="" lat="38.90203" lon="22.431301">
		<comp name="--.HNE" depth="0.0">
			<acc value="0.205137074894817" flag="0"/>
			<vel value="0.110806747055138" flag="0"/>
			<psa03 value="0.558964945351612" flag="0"/>
			<psa10 value="0.0963426222259514" flag="0"/>
			<psa30 value="0.00940473301740583" flag="0"/>
		</comp>
		<comp name="--.HNN" depth="0.0">
			<acc value="0.142105436937589" flag="0"/>
			<vel value="0.127315811662458" flag="0"/>
			<psa03 value="0.407523579770549" flag="0"/>
			<psa10 value="0.268743672949478" flag="0"/>
			<psa30 value="0.0226613528700998" flag="0"/>
		</comp>
		<comp name="--.HNZ" depth="0.0">
			<acc value="0.0872805517224298" flag="0"/>
			<vel value="0.0600011781838987" flag="0"/>
			<psa03 value="0.29433889434043" flag="0"/>
			<psa10 value="0.0376131429361078" flag="0"/>
			<psa30 value="0.0162432177001009" flag="0"/>
		</comp>
	</station>
	<station code="LMS2" name="LMS2" netid="HI" source="ITSAK Strong Motion Network" insttype="" lat="40.834985" lon="21.141815">
		<comp name="--.HNE" depth="0.0">
			<acc value="0.0199626846614646" flag="0"/>
			<vel value="0.014933509191182" flag="0"/>
			<psa03 value="0.058120126397135" flag="0"/>
			<psa10 value="0.0125958260071759" flag="0"/>
			<psa30 value="0.00376013504419956" flag="0"/>
		</comp>
		<comp name="--.HNN" depth="0.0">
			<acc value="0.027908221785695" flag="0"/>
			<vel value="0.0183570661413066" flag="0"/>
			<psa03 value="0.052527350569851" flag="0"/>
			<psa10 value="0.0159340420429651" flag="0"/>
			<psa30 value="0.00637800155343464" flag="0"/>
		</comp>
		<comp name="--.HNZ" depth="0.0">
			<acc value="0.00990217850351098" flag="0"/>
			<vel value="0.0112082004534321" flag="0"/>
			<psa03 value="0.0413865411219014" flag="0"/>
			<psa10 value="0.0145327161316808" flag="0"/>
			<psa30 value="0.00314448228113214" flag="0"/>
		</comp>
	</station>
	<station code="MSL1" name="MSL1" netid="HI" source="ITSAK Strong Motion Network" insttype="" lat="38.3727" lon="21.4243">
		<comp name="--.HNE" depth="0.0">
			<acc value="0.082193628045355" flag="0"/>
			<vel value="0.143710006746286" flag="0"/>
			<psa03 value="0.137179605491621" flag="0"/>
			<psa10 value="0.141030567215256" flag="0"/>
			<psa30 value="0.0306126177682215" flag="0"/>
		</comp>
		<comp name="--.HNN" depth="0.0">
			<acc value="0.0978132329051137" flag="0"/>
			<vel value="0.158139197763758" flag="0"/>
			<psa03 value="0.163309054156692" flag="0"/>
			<psa10 value="0.145580849628334" flag="0"/>
			<psa30 value="0.037739603860446" flag="0"/>
		</comp>
		<comp name="--.HNZ" depth="0.0">
			<acc value="0.0426563794717488" flag="0"/>
			<vel value="0.0583027256569794" flag="0"/>
			<psa03 value="0.0688582559855202" flag="0"/>
			<psa10 value="0.0616019649161689" flag="0"/>
			<psa30 value="0.0128902297267241" flag="0"/>
		</comp>
	</station>
	<station code="SKO1" name="SKO1" netid="HI" source="ITSAK Strong Motion Network" insttype="" lat="39.123383" lon="23.728705">
		<comp name="--.HNE" depth="0.0">
			<acc value="0.0310217676332236" flag="0"/>
			<vel value="0.0186579526730606" flag="0"/>
			<psa03 value="0.0944060559645534" flag="0"/>
			<psa10 value="0.0202064753529439" flag="0"/>
			<psa30 value="0.00376908348552321" flag="0"/>
		</comp>
		<comp name="--.HNN" depth="0.0">
			<acc value="0.0222798420048369" flag="0"/>
			<vel value="0.022119125607993" flag="0"/>
			<psa03 value="0.0482768409411152" flag="0"/>
			<psa10 value="0.0272896140826825" flag="0"/>
			<psa30 value="0.0040075594467986" flag="0"/>
		</comp>
		<comp name="--.HNZ" depth="0.0">
			<acc value="0.0231893345030515" flag="0"/>
			<vel value="0.0188967236333293" flag="0"/>
			<psa03 value="0.0684555761259558" flag="0"/>
			<psa10 value="0.0183742819919257" flag="0"/>
			<psa30 value="0.00279146627091397" flag="0"/>
		</comp>
	</station>
	<station code="VAS2" name="VAS2" netid="HI" source="ITSAK Strong Motion Network" insttype="" lat="38.630558" lon="20.608081">
		<comp name="--.HNE" depth="0.0">
			<acc value="0.0907412872309225" flag="0"/>
			<vel value="0.0840463729501305" flag="0"/>
			<psa03 value="0.212043317662374" flag="0"/>
			<psa10 value="0.177722263227612" flag="0"/>
			<psa30 value="0.0160815186550105" flag="0"/>
		</comp>
		<comp name="--.HNN" depth="0.0">
			<acc value="0.0824067985553165" flag="0"/>
			<vel value="0.110748949417168" flag="0"/>
			<psa03 value="0.18819817553883" flag="0"/>
			<psa10 value="0.201869467861547" flag="0"/>
			<psa30 value="0.0347514387789541" flag="0"/>
		</comp>
		<comp name="--.HNZ" depth="0.0">
			<acc value="0.0459841328663596" flag="0"/>
			<vel value="0.0566930399390052" flag="0"/>
			<psa03 value="0.148021670292658" flag="0"/>
			<psa10 value="0.04811771256228" flag="0"/>
			<psa30 value="0.00624270813212744" flag="0"/>
		</comp>
	</station>
	<station code="VOL2" name="VOL2" netid="HI" source="ITSAK Strong Motion Network" insttype="" lat="39.366" lon="22.9506">
		<comp name="--.HNE" depth="0.0">
			<acc value="0.178166494355147" flag="0"/>
			<vel value="0.106752717179287" flag="0"/>
			<psa03 value="0.483349561203666" flag="0"/>
			<psa10 value="0.0580030224155048" flag="0"/>
			<psa30 value="0.0120889916696911" flag="0"/>
		</comp>
		<comp name="--.HNN" depth="0.0">
			<acc value="0.145991373127686" flag="0"/>
			<vel value="0.120752871221473" flag="0"/>
			<psa03 value="0.603729160759752" flag="0"/>
			<psa10 value="0.0792134525025809" flag="0"/>
			<psa30 value="0.0115714248834465" flag="0"/>
		</comp>
		<comp name="--.HNZ" depth="0.0">
			<acc value="0.10301714911431" flag="0"/>
			<vel value="0.0459993391314382" flag="0"/>
			<psa03 value="0.279454991688568" flag="0"/>
			<psa10 value="0.0381374201669171" flag="0"/>
			<psa30 value="0.00872536134569646" flag="0"/>
		</comp>
	</station>
	<station code="DLFA" name="DLFA" netid="HL" source="National Observatory of Athens Seismic Network" insttype="" lat="38.47836" lon="22.49583">
		<comp name="00.HNE" depth="0.0">
			<acc value="0.0379005345494081" flag="0"/>
			<vel value="0.0432207537629764" flag="0"/>
			<psa03 value="0.083309988723222" flag="0"/>
			<psa10 value="0.0788970648844619" flag="0"/>
			<psa30 value="0.00838200498786703" flag="0"/>
		</comp>
		<comp name="00.HNN" depth="0.0">
			<acc value="0.0395858887604948" flag="0"/>
			<vel value="0.0566232467867112" flag="0"/>
			<psa03 value="0.106173256305159" flag="0"/>
			<psa10 value="0.0953344567518825" flag="0"/>
			<psa30 value="0.00646614370047263" flag="0"/>
		</comp>
		<comp name="00.HNZ" depth="0.0">
			<acc value="0.0301511857948983" flag="0"/>
			<vel value="0.0344425862096449" flag="0"/>
			<psa03 value="0.0553461095868022" flag="0"/>
			<psa10 value="0.0518772463076876" flag="0"/>
			<psa30 value="0.00668672277910071" flag="0"/>
		</comp>
	</station>
	<station code="JAN" name="JAN" netid="HL" source="National Observatory of Athens Seismic Network" insttype="" lat="39.65616" lon="20.84874">
		<comp name="00.HNE" depth="0.0">
			<acc value="0.0343564889575639" flag="0"/>
			<vel value="0.023397407703149" flag="0"/>
			<psa03 value="0.0932875007990966" flag="0"/>
			<psa10 value="0.0250547408620998" flag="0"/>
			<psa30 value="0.00470777498037455" flag="0"/>
		</comp>
		<comp name="00.HNN" depth="0.0">
			<acc value="0.0349655116184798" flag="0"/>
			<vel value="0.0243732197219755" flag="0"/>
			<psa03 value="0.121340864348753" flag="0"/>
			<psa10 value="0.0274265252349344" flag="0"/>
			<psa30 value="0.0046652698840872" flag="0"/>
		</comp>
		<comp name="00.HNZ" depth="0.0">
			<acc value="0.0218053135658443" flag="0"/>
			<vel value="0.0165350059102744" flag="0"/>
			<psa03 value="0.0463081838499113" flag="0"/>
			<psa10 value="0.0140253395086296" flag="0"/>
			<psa30 value="0.00293150937762916" flag="0"/>
		</comp>
	</station>
	<station code="KYMI" name="KYMI" netid="HL" source="National Observatory of Athens Seismic Network" insttype="" lat="38.633147" lon="24.100138">
		<comp name="--.HNE" depth="1.0">
			<acc value="0.0049087205145667" flag="0"/>
			<vel value="0.00877540059880709" flag="0"/>
			<psa03 value="0.0127067866795892" flag="0"/>
			<psa10 value="0.00736098783283807" flag="0"/>
			<psa30 value="0.00341964685183451" flag="0"/>
		</comp>
		<comp name="--.HNN" depth="1.0">
			<acc value="0.00450766753810136" flag="0"/>
			<vel value="0.00686478698277201" flag="0"/>
			<psa03 value="0.011364520481041" flag="0"/>
			<psa10 value="0.00562946443671095" flag="0"/>
			<psa30 value="0.00231764630282648" flag="0"/>
		</comp>
		<comp name="--.HNZ" depth="1.0">
			<acc value="0.00349151927946977" flag="0"/>
			<vel value="0.0082743619951014" flag="0"/>
			<psa03 value="0.00841153484423509" flag="0"/>
			<psa10 value="0.0068656916055738" flag="0"/>
			<psa30 value="0.00190422831367365" flag="0"/>
		</comp>
	</station>
	<station code="PATC" name="PATC" netid="HL" source="National Observatory of Athens Seismic Network" insttype="" lat="38.26933" lon="21.76001">
		<comp name="00.HNE" depth="0.0">
			<acc value="0.0575491195028796" flag="0"/>
			<vel value="0.0919922908905378" flag="0"/>
			<psa03 value="0.092034719013785" flag="0"/>
			<psa10 value="0.0784863314277061" flag="0"/>
			<psa30 value="0.024009562915497" flag="0"/>
		</comp>
		<comp name="00.HNN" depth="0.0">
			<acc value="0.0417340096794473" flag="0"/>
			<vel value="0.0579699019157208" flag="0"/>
			<psa03 value="0.0829073088636576" flag="0"/>
			<psa10 value="0.0619764571855638" flag="0"/>
			<psa30 value="0.020608260368376" flag="0"/>
		</comp>
		<comp name="00.HNZ" depth="0.0">
			<acc value="0.0256344971722514" flag="0"/>
			<vel value="0.0320757338229316" flag="0"/>
			<psa03 value="0.0580306419838985" flag="0"/>
			<psa10 value="0.0459055039903468" flag="0"/>
			<psa30 value="0.0103341074626222" flag="0"/>
		</comp>
	</station>
	<station code="ANX" name="ANX" netid="HP" source="University of Patras, Seismological Laboratory (PSLNET)" insttype="" lat="38.5933" lon="21.9209">
		<comp name="--.HNE" depth="0.0">
			<acc value="0.200848145656626" flag="0"/>
			<vel value="0.184561936410955" flag="0"/>
			<psa03 value="0.504064225116484" flag="0"/>
			<psa10 value="0.193100516961538" flag="0"/>
			<psa30 value="0.0116005376453583" flag="0"/>
		</comp>
		<comp name="--.HNN" depth="0.0">
			<acc value="0.217341429646008" flag="0"/>
			<vel value="0.177359052045779" flag="0"/>
			<psa03 value="0.891695737132252" flag="0"/>
			<psa10 value="0.156114006786957" flag="0"/>
			<psa30 value="0.0189025388671118" flag="0"/>
		</comp>
		<comp name="--.HNZ" depth="0.0">
			<acc value="0.130026521742453" flag="0"/>
			<vel value="0.106209232906044" flag="0"/>
			<psa03 value="0.254886114120977" flag="0"/>
			<psa10 value="0.117064912475986" flag="0"/>
			<psa30 value="0.0145024407155215" flag="0"/>
		</comp>
	</station>
	<station code="GUR" name="GUR" netid="HP" source="University of Patras, Seismological Laboratory (PSLNET)" insttype="" lat="37.9363" lon="22.3423">
		<comp name="--.HNE" depth="0.0">
