<?xml version="1.0" encoding="UTF-8" standalone="yes"?>
<!DOCTYPE earthquake SYSTEM "stationlist.dtd">
<stationlist created="" xmlns="ch.ethz.sed.shakemap.usgs.xml">
  <station code="ART2" name="ART2" netid="HI" insttype="CMG-5TD,ACCELEROMETER,GURALP" lat="39.1474" lon="20.9937">
    <comp name="--.HNZ">
      <acc value="0.0156971071" flag="0"/>
      <vel value="0.0098061335" flag="0"/>
      <psa03 value="0.0299394185" flag="0"/>
      <psa10 value="0.0072624645" flag="0"/>
      <psa30 value="0.0041327183" flag="0"/>
    </comp>
    <comp name="--.HNE">
      <acc value="0.0327569031" flag="0"/>
      <vel value="0.0154977322" flag="0"/>
      <psa03 value="0.0499773805" flag="0"/>
      <psa10 value="0.0173895745" flag="0"/>
      <psa30 value="0.0052636500" flag="0"/>
    </comp>
    <comp name="--.HNN">
      <acc value="0.0256963462" flag="0"/>
      <vel value="0.0146894678" flag="0"/>
      <psa03 value="0.0384585728" flag="0"/>
      <psa10 value="0.0177503207" flag="0"/>
      <psa30 value="0.0036105988" flag="0"/>
    </comp>
  </station>
  <station code="LAM2" name="LAM2" netid="HI" insttype="CMG-5TD,ACCELEROMETER,GURALP" lat="38.902" lon="22.4313">
    <comp name="--.HNE">
      <acc value="0.2044179765" flag="0"/>
      <vel value="0.1037718026" flag="0"/>
      <psa03 value="0.5600475572" flag="0"/>
      <psa10 value="0.0957186761" flag="0"/>
      <psa30 value="0.0098998974" flag="0"/>
    </comp>
    <comp name="--.HNN">
      <acc value="0.1428904343" flag="0"/>
      <vel value="0.1333921292" flag="0"/>
      <psa03 value="0.4070299038" flag="0"/>
      <psa10 value="0.2687655435" flag="0"/>
      <psa30 value="0.0224389231" flag="0"/>
    </comp>
    <comp name="--.HNZ">
      <acc value="0.0876307601" flag="0"/>
      <vel value="0.0581864525" flag="0"/>
      <psa03 value="0.2904078616" flag="0"/>
      <psa10 value="0.0378936802" flag="0"/>
      <psa30 value="0.0163263446" flag="0"/>
    </comp>
  </station>
  <station code="LMS2" name="LMS2" netid="HI" insttype="CMG-5TD,ACCELEROMETER,GURALP" lat="40.835" lon="21.1418">
    <comp name="--.HNN">
      <acc value="0.0275637284" flag="0"/>
      <vel value="0.0188863748" flag="0"/>
      <psa03 value="0.0522757101" flag="0"/>
      <psa10 value="0.0159441771" flag="0"/>
      <psa30 value="0.0063565505" flag="0"/>
    </comp>
    <comp name="--.HNE">
      <acc value="0.0200596224" flag="0"/>
      <vel value="0.0144057542" flag="0"/>
      <psa03 value="0.0574802090" flag="0"/>
      <psa10 value="0.0126264752" flag="0"/>
      <psa30 value="0.0036719132" flag="0"/>
    </comp>
    <comp name="--.HNZ">
      <acc value="0.0100186733" flag="0"/>
      <vel value="0.0048495762" flag="0"/>
      <psa03 value="0.0414776021" flag="0"/>
      <psa10 value="0.0074090575" flag="0"/>
      <psa30 value="0.0007232064" flag="0"/>
    </comp>
  </station>
  <station code="VOL2" name="VOL2" netid="HI" insttype="CMG-5TD,ACCELEROMETER,GURALP" lat="39.366" lon="22.9506">
    <comp name="--.HNE">
      <acc value="0.1788087031" flag="0"/>
      <vel value="0.1053821292" flag="0"/>
      <psa03 value="0.4822653334" flag="0"/>
      <psa10 value="0.0577200758" flag="0"/>
      <psa30 value="0.0118643631" flag="0"/>
    </comp>
    <comp name="--.HNZ">
      <acc value="0.1034725496" flag="0"/>
      <vel value="0.0449693527" flag="0"/>
      <psa03 value="0.2761854053" flag="0"/>
      <psa10 value="0.0383159565" flag="0"/>
      <psa30 value="0.0083874920" flag="0"/>
    </comp>
    <comp name="--.HNN">
      <acc value="0.1450163898" flag="0"/>
      <vel value="0.1177901091" flag="0"/>
      <psa03 value="0.5930915156" flag="0"/>
      <psa10 value="0.0793430628" flag="0"/>
      <psa30 value="0.0116599336" flag="0"/>
    </comp>
  </station>
  <station code="EVR" name="EVR" netid="HL" insttype="DR24" lat="38.9166" lon="21.8105">
    <comp name="--.HHE">
      <acc value="0.0904774222" flag="0"/>
      <vel value="0.0569915712" flag="0"/>
      <psa03 value="0.1988168339" flag="0"/>
      <psa10 value="0.0378735824" flag="0"/>
      <psa30 value="0.0114753894" flag="0"/>
    </comp>
    <comp name="--.HHN">
      <acc value="0.1481452026" flag="0"/>
      <vel value="0.0877601852" flag="0"/>
      <psa03 value="0.2147393601" flag="0"/>
      <psa10 value="0.0672094793" flag="0"/>
      <psa30 value="0.0289950197" flag="0"/>
    </comp>
    <comp name="--.HHZ">
      <acc value="0.0820546411" flag="0"/>
      <vel value="0.0660438266" flag="0"/>
      <psa03 value="0.1657950621" flag="0"/>
      <psa10 value="0.0575236989" flag="0"/>
      <psa30 value="0.0110496147" flag="0"/>
    </comp>
  </station>
  <station code="KZN" name="KZN" netid="HL" insttype="120" lat="40.3033" lon="21.7821">
    <comp name="--.HHE">
      <acc value="0.2577639599" flag="0"/>
      <vel value="0.1330766658" flag="0"/>
      <psa03 value="0.5457399649" flag="0"/>
      <psa10 value="0.0675612808" flag="0"/>
      <psa30 value="0.0047552139" flag="0"/>
    </comp>
    <comp name="--.HHN">
      <acc value="0.1420124294" flag="0"/>
      <vel value="0.1100036271" flag="0"/>
      <psa03 value="0.3241900213" flag="0"/>
      <psa10 value="0.0585608811" flag="0"/>
      <psa30 value="0.0129857412" flag="0"/>
    </comp>
    <comp name="--.HHZ">
      <acc value="0.0518573439" flag="0"/>
      <vel value="0.0399394475" flag="0"/>
      <psa03 value="0.1513997120" flag="0"/>
      <psa10 value="0.0240073666" flag="0"/>
      <psa30 value="0.0091446930" flag="0"/>
    </comp>
  </station>
  <station code="NEO" name="NEO" netid="HL" insttype="120" lat="39.3057" lon="23.2219">
    <comp name="--.HHE">
      <acc value="0.1979300958" flag="0"/>
      <vel value="0.1336076104" flag="0"/>
      <psa03 value="0.5360534575" flag="0"/>
      <psa10 value="0.1018106055" flag="0"/>
      <psa30 value="0.0090196626" flag="0"/>
    </comp>
    <comp name="--.HHN">
      <acc value="0.1609001396" flag="0"/>
      <vel value="0.1305618061" flag="0"/>
      <psa03 value="0.4828729816" flag="0"/>
      <psa10 value="0.1857422249" flag="0"/>
      <psa30 value="0.0094504071" flag="0"/>
    </comp>
    <comp name="--.HHZ">
      <acc value="0.0965890679" flag="0"/>
      <vel value="0.0588850346" flag="0"/>
      <psa03 value="0.2241529610" flag="0"/>
      <psa10 value="0.0651150633" flag="0"/>
      <psa30 value="0.0093281244" flag="0"/>
    </comp>
  </station>
  <station code="PENT" name="PENT" netid="HL" insttype="30" lat="40.1959" lon="21.1384">
    <comp name="--.HHE">
      <acc value="0.0327209554" flag="0"/>
      <vel value="0.0235455214" flag="0"/>
      <psa03 value="0.0944918246" flag="0"/>
      <psa10 value="0.0175561731" flag="0"/>
      <psa30 value="0.0065778888" flag="0"/>
    </comp>
    <comp name="--.HHN">
      <acc value="0.0011056013" flag="0"/>
      <vel value="0.0008645432" flag="0"/>
      <psa03 value="0.0019983362" flag="0"/>
      <psa10 value="0.0009232776" flag="0"/>
      <psa30 value="0.0002131337" flag="0"/>
    </comp>
    <comp name="--.HHZ">
      <acc value="0.0261263657" flag="0"/>
      <vel value="0.0176475699" flag="0"/>
      <psa03 value="0.0761736147" flag="0"/>
      <psa10 value="0.0240983958" flag="0"/>
      <psa30 value="0.0076665292" flag="0"/>
    </comp>
  </station>
  <station code="PLG" name="PLG" netid="HL" insttype="CMG3ESPC-120s" lat="40.3733" lon="23.4444">
    <comp name="--.HHZ">
      <acc value="0.0311519323" flag="0"/>
      <vel value="0.0260583295" flag="0"/>
      <psa03 value="0.0835667182" flag="0"/>
      <psa10 value="0.0232138093" flag="0"/>
      <psa30 value="0.0098346505" flag="0"/>
    </comp>
  </station>
  <station code="TETR" name="TETR" netid="HL" insttype="60" lat="39.3445" lon="21.2747">
    <comp name="--.HHN">
      <acc value="0.2662733110" flag="0"/>
      <vel value="0.1060598237" flag="0"/>
      <psa03 value="0.5922669324" flag="0"/>
      <psa10 value="0.0786182815" flag="0"/>
      <psa30 value="0.0132714316" flag="0"/>
    </comp>
    <comp name="--.HHE">
      <acc value="0.5038411731" flag="0"/>
      <vel value="0.1581684677" flag="0"/>
      <psa03 value="0.7939519931" flag="0"/>
      <psa10 value="0.0725980844" flag="0"/>
      <psa30 value="0.0126753037" flag="0"/>
    </comp>
    <comp name="--.HHZ">
      <acc value="0.1290098052" flag="0"/>
      <vel value="0.0525776081" flag="0"/>
      <psa03 value="0.3195279928" flag="0"/>
      <psa10 value="0.0464530900" flag="0"/>
      <psa30 value="0.0095519615" flag="0"/>
    </comp>
  </station>
  <station code="THL" name="THL" netid="HL" insttype="120" lat="39.5647" lon="22.0144">
    <comp name="--.HHE">
      <acc value="1.0996983963" flag="0"/>
      <vel value="0.3706888638" flag="0"/>
      <psa03 value="1.0778524117" flag="0"/>
      <psa10 value="0.2568327749" flag="0"/>
      <psa30 value="0.0314007378" flag="0"/>
    </comp>
    <comp name="--.HHZ">
      <acc value="0.8712075336" flag="0"/>
      <vel value="0.2398189086" flag="0"/>
      <psa03 value="1.2947043146" flag="0"/>
      <psa10 value="0.1379337312" flag="0"/>
      <psa30 value="0.0268308471" flag="0"/>
    </comp>
    <comp name="--.HHN">
      <acc value="1.3700518277" flag="0"/>
      <vel value="0.4736275048" flag="0"/>
      <psa03 value="1.0950892266" flag="0"/>
      <psa10 value="0.2596632800" flag="0"/>
      <psa30 value="0.0388736134" flag="0"/>
    </comp>
  </station>
  <station code="ANX" name="ANX" netid="HP" insttype="120" lat="38.5933" lon="21.9209">
    <comp name="--.HHZ">
      <acc value="0.1084610377" flag="0"/>
      <vel value="0.0871026507" flag="0"/>
      <psa03 value="0.2152376737" flag="0"/>
      <psa10 value="0.0957247036" flag="0"/>
      <psa30 value="0.0117484952" flag="0"/>
    </comp>
    <comp name="--.HHN">
      <acc value="0.1724196763" flag="0"/>
      <vel value="0.1407994589" flag="0"/>
      <psa03 value="0.6958454592" flag="0"/>
      <psa10 value="0.1230561344" flag="0"/>
      <psa30 value="0.0148226931" flag="0"/>
    </comp>
    <comp name="--.HHE">
      <acc value="0.1586953312" flag="0"/>
      <vel value="0.1478751571" flag="0"/>
      <psa03 value="0.4071047227" flag="0"/>
      <psa10 value="0.1499583892" flag="0"/>
      <psa30 value="0.0096441281" flag="0"/>
    </comp>
  </station>
  <station code="EFP" name="EFP" netid="HP" insttype="40," lat="38.4269" lon="21.9058">
    <comp name="--.HHN">
      <acc value="0.0703214750" flag="0"/>
      <vel value="0.0651424363" flag="0"/>
      <psa03 value="0.2372584321" flag="0"/>
      <psa10 value="0.0751749144" flag="0"/>
      <psa30 value="0.0116687563" flag="0"/>
    </comp>
    <comp name="--.HHE">
      <acc value="0.0887505265" flag="0"/>
      <vel value="0.0765320818" flag="0"/>
      <psa03 value="0.1744573728" flag="0"/>
      <psa10 value="0.1020354029" flag="0"/>
      <psa30 value="0.0142787078" flag="0"/>
    </comp>
    <comp name="--.HHZ">
      <acc value="0.0518706370" flag="0"/>
      <vel value="0.0539771715" flag="0"/>
      <psa03 value="0.1130072841" flag="0"/>
      <psa10 value="0.0641189777" flag="0"/>
      <psa30 value="0.0187437668" flag="0"/>
    </comp>
  </station>
  <station code="PVO" name="PVO" netid="HP" insttype="DC_100" lat="38.616" lon="21.525">
    <comp name="--.HNZ">
      <acc value="0.0328508355" flag="0"/>
      <vel value="0.0336122261" flag="0"/>
      <psa03 value="0.0573741469" flag="0"/>
      <psa10 value="0.0330901292" flag="0"/>
      <psa30 value="0.0172893375" flag="0"/>
    </comp>
    <comp name="--.HNE">
      <acc value="0.0422185872" flag="0"/>
      <vel value="0.0314630125" flag="0"/>
      <psa03 value="0.1204683298" flag="0"/>
      <psa10 value="0.0285070162" flag="0"/>
      <psa30 value="0.0114721095" flag="0"/>
    </comp>
    <comp name="--.HNN">
      <acc value="0.0417280740" flag="0"/>
      <vel value="0.0364801962" flag="0"/>
      <psa03 value="0.0994782583" flag="0"/>
      <psa10 value="0.0249241881" flag="0"/>
      <psa30 value="0.0080377812" flag="0"/>
    </comp>
  </station>
  <station code="SERG" name="SERG" netid="HP" insttype="2000" lat="38.4133" lon="22.0566">
    <comp name="00.HHE">
      <acc value="0.0988113865" flag="0"/>
      <vel value="0.0624080946" flag="0"/>
      <psa03 value="0.2722044299" flag="0"/>
      <psa10 value="0.1064235379" flag="0"/>
      <psa30 value="0.0093562732" flag="0"/>
    </comp>
    <comp name="00.HHZ">
      <acc value="0.0527188120" flag="0"/>
      <vel value="0.0446643756" flag="0"/>
      <psa03 value="0.1213674154" flag="0"/>
      <psa10 value="0.0697535256" flag="0"/>
      <psa30 value="0.0149138759" flag="0"/>
    </comp>
    <comp name="00.HHN">
      <acc value="0.0958538444" flag="0"/>
      <vel value="0.0540706418" flag="0"/>
      <psa03 value="0.2378980105" flag="0"/>
      <psa10 value="0.0674070361" flag="0"/>
      <psa30 value="0.0163828655" flag="0"/>
    </comp>
  </station>
  <station code="AGG" name="AGG" netid="HT" insttype="120P," lat="39.0211" lon="22.336">
    <comp name="--.HHE">
      <acc value="0.3182440502" flag="0"/>
      <vel value="0.1568514056" flag="0"/>
      <psa03 value="0.7399034912" flag="0"/>
      <psa10 value="0.1274176153" flag="0"/>
      <psa30 value="0.0162771868" flag="0"/>
    </comp>
    <comp name="--.HHZ">
      <acc value="0.1190267340" flag="0"/>
      <vel value="0.0914056772" flag="0"/>
      <psa03 value="0.2542148718" flag="0"/>
      <psa10 value="0.0851997819" flag="0"/>
      <psa30 value="0.0158521103" flag="0"/>
    </comp>
    <comp name="--.HHN">
      <acc value="0.2306798655" flag="0"/>
      <vel value="0.1473529716" flag="0"/>
      <psa03 value="0.7761460385" flag="0"/>
      <psa10 value="0.0700265380" flag="0"/>
      <psa30 value="0.0191962818" flag="0"/>
    </comp>
  </station>
  <station code="GRG" name="GRG" netid="HT" insttype="100" lat="40.957" lon="22.401">
    <comp name="--.HHZ">
      <acc value="0.0391223663" flag="0"/>
      <vel value="0.0240686931" flag="0"/>
      <psa03 value="0.2113347603" flag="0"/>
      <psa10 value="0.0241424284" flag="0"/>
      <psa30 value="0.0047609313" flag="0"/>
    </comp>
    <comp name="--.HHN">
      <acc value="0.0404230200" flag="0"/>
      <vel value="0.0195270616" flag="0"/>
      <psa03 value="0.1204593875" flag="0"/>
      <psa10 value="0.0183604618" flag="0"/>
      <psa30 value="0.0071014237" flag="0"/>
    </comp>
    <comp name="--.HHE">
      <acc value="0.0423880747" flag="0"/>
      <vel value="0.0397840886" flag="0"/>
      <psa03 value="0.0965922548" flag="0"/>
      <psa10 value="0.0511392330" flag="0"/>
      <psa30 value="0.0131738135" flag="0"/>
    </comp>
  </station>
  <station code="HORT" name="HORT" netid="HT" insttype="100" lat="40.5978" lon="23.0996">
    <comp name="--.HHN">
      <acc value="0.0000095048" flag="0"/>
      <vel value="0.0000020633" flag="0"/>
      <psa03 value="0.0000081559" flag="0"/>
      <psa10 value="0.0000023150" flag="0"/>
      <psa30 value="0.0000005276" flag="0"/>
    </comp>
    <comp name="--.HHE">
      <acc value="0.0186684130" flag="0"/>
      <vel value="0.0126124476" flag="0"/>
      <psa03 value="0.0423300897" flag="0"/>
      <psa10 value="0.0106683954" flag="0"/>
      <psa30 value="0.0045469465" flag="0"/>
    </comp>
    <comp name="--.HHZ">
      <acc value="0.0169133368" flag="0"/>
      <vel value="0.0129914304" flag="0"/>
      <psa03 value="0.0340465285" flag="0"/>
      <psa10 value="0.0128430105" flag="0"/>
      <psa30 value="0.0037867570" flag="0"/>
    </comp>
  </station>
  <station code="KPRO" name="KPRO" netid="HT" insttype="100" lat="39.9549" lon="21.3632">
    <comp name="--.HHN">
      <acc value="0.1214025400" flag="0"/>
      <vel value="0.0698344112" flag="0"/>
      <psa03 value="0.3206351268" flag="0"/>
      <psa10 value="0.0509166932" flag="0"/>
      <psa30 value="0.0137959168" flag="0"/>
    </comp>
    <comp name="--.HHE">
      <acc value="0.0991135563" flag="0"/>
      <vel value="0.0662960033" flag="0"/>
      <psa03 value="0.3691361005" flag="0"/>
      <psa10 value="0.1049679147" flag="0"/>
      <psa30 value="0.0092770236" flag="0"/>
    </comp>
    <comp name="--.HHZ">
      <acc value="0.0554750516" flag="0"/>
      <vel value="0.0461057933" flag="0"/>
      <psa03 value="0.1288376435" flag="0"/>
      <psa10 value="0.0490484046" flag="0"/>
      <psa30 value="0.0092299758" flag="0"/>
    </comp>
  </station>
  <station code="LIT" name="LIT" netid="HT" insttype="100" lat="40.1033" lon="22.4892">
    <comp name="--.HHE">
      <acc value="0.5499171944" flag="0"/>
      <vel value="0.2805714249" flag="0"/>
      <psa03 value="1.0109449636" flag="0"/>
      <psa10 value="0.1109089691" flag="0"/>
      <psa30 value="0.0126857592" flag="0"/>
    </comp>
    <comp name="--.HHN">
      <acc value="0.7040473728" flag="0"/>
      <vel value="0.2083947348" flag="0"/>
      <psa03 value="1.0268083887" flag="0"/>
      <psa10 value="0.1661897517" flag="0"/>
      <psa30 value="0.0090586574" flag="0"/>
    </comp>
    <comp name="--.HHZ">
      <acc value="0.2947150220" flag="0"/>
      <vel value="0.1194985930" flag="0"/>
      <psa03 value="0.4228664614" flag="0"/>
      <psa10 value="0.0660998060" flag="0"/>
      <psa30 value="0.0186729119" flag="0"/>
    </comp>
  </station>
  <station code="NYDR" name="NYDR" netid="HT" insttype="1s-100Hz," lat="38.7135" lon="20.6983">
    <comp name="--.HHN">
      <acc value="0.0155713986" flag="0"/>
      <vel value="0.0150779840" flag="0"/>
      <psa03 value="0.0344063324" flag="0"/>
      <psa10 value="0.0128298366" flag="0"/>
      <psa30 value="0.0048329179" flag="0"/>
    </comp>
    <comp name="--.HHZ">
      <acc value="0.0097225755" flag="0"/>
      <vel value="0.0082097256" flag="0"/>
      <psa03 value="0.0239749173" flag="0"/>
      <psa10 value="0.0057007379" flag="0"/>
      <psa30 value="0.0021594086" flag="0"/>
    </comp>
    <comp name="--.HHE">
      <acc value="0.0144682601" flag="0"/>
      <vel value="0.0144080842" flag="0"/>
      <psa03 value="0.0485568420" flag="0"/>
      <psa10 value="0.0147013574" flag="0"/>
      <psa30 value="0.0047500391" flag="0"/>
    </comp>
  </station>
  <station code="OUR" name="OUR" netid="HT" insttype="100" lat="40.3325" lon="23.9791">
    <comp name="--.HHN">
      <acc value="0.0328771159" flag="0"/>
      <vel value="0.0368578402" flag="0"/>
      <psa03 value="0.1338380772" flag="0"/>
      <psa10 value="0.0372058543" flag="0"/>
      <psa30 value="0.0129698320" flag="0"/>
    </comp>
    <comp name="--.HHE">
      <acc value="0.0340251657" flag="0"/>
      <vel value="0.0206801521" flag="0"/>
      <psa03 value="0.1226834757" flag="0"/>
      <psa10 value="0.0334918197" flag="0"/>
      <psa30 value="0.0041832486" flag="0"/>
    </comp>
    <comp name="--.HHZ">
      <acc value="0.0232643856" flag="0"/>
      <vel value="0.0262347561" flag="0"/>
      <psa03 value="0.0541703761" flag="0"/>
      <psa10 value="0.0215435550" flag="0"/>
      <psa30 value="0.0057413881" flag="0"/>
    </comp>
  </station>
  <station code="PAIG" name="PAIG" netid="HT" insttype="100" lat="39.9363" lon="23.6768">
    <comp name="--.HHN">
      <acc value="0.0086469735" flag="0"/>
      <vel value="0.0082548899" flag="0"/>
      <psa03 value="0.0248136682" flag="0"/>
      <psa10 value="0.0092704873" flag="0"/>
      <psa30 value="0.0033266164" flag="0"/>
    </comp>
    <comp name="--.HHE">
      <acc value="0.0124001307" flag="0"/>
      <vel value="0.0093425481" flag="0"/>
      <psa03 value="0.0290355767" flag="0"/>
      <psa10 value="0.0101097749" flag="0"/>
      <psa30 value="0.0012977400" flag="0"/>
    </comp>
    <comp name="--.HHZ">
      <acc value="0.0090200552" flag="0"/>
      <vel value="0.0098092929" flag="0"/>
      <psa03 value="0.0191707231" flag="0"/>
      <psa10 value="0.0063917231" flag="0"/>
      <psa30 value="0.0014711489" flag="0"/>
    </comp>
  </station>
  <station code="SOH" name="SOH" netid="HT" insttype="120P," lat="40.8217" lon="23.3539">
