<?xml version="1.0" encoding="UTF-8" standalone="yes"?>
<!DOCTYPE earthquake SYSTEM "stationlist.dtd">
<stationlist created="" xmlns="ch.ethz.sed.shakemap.usgs.xml">
  <station code="ANDN" name="ANDN" netid="TU" insttype="T" lat="37.58" lon="36.3452">
    <comp name="--.HHN">
      <acc value="0.1771762375" flag="0"/>
      <vel value="0.0939033117" flag="0"/>
      <psa03 value="0.6404313357" flag="0"/>
      <psa10 value="0.0922751601" flag="0"/>
      <psa30 value="0.0059485364" flag="0"/>
    </comp>
    <comp name="--.HHE">
      <acc value="0.1169470436" flag="0"/>
      <vel value="0.0495217016" flag="0"/>
      <psa03 value="0.3070565854" flag="0"/>
      <psa10 value="0.0392400149" flag="0"/>
      <psa30 value="0.0022732893" flag="0"/>
    </comp>
  </station>
</stationlist>
