<?xml version="1.0" encoding="UTF-8" standalone="yes"?>
<!DOCTYPE earthquake SYSTEM "stationlist.dtd">
<stationlist created="" xmlns="ch.ethz.sed.shakemap.usgs.xml">
  <station code="THERA" name="THERA" netid="GE" insttype="STS-2/N" lat="36.367" lon="25.4753">
    <comp name="--.HHN">
      <acc value="0.3371126487" flag="0"/>
      <vel value="0.0822688576" flag="0"/>
      <psa03 value="0.2009392434" flag="0"/>
      <psa10 value="0.0138971025" flag="0"/>
      <psa30 value="0.0011869032" flag="0"/>
    </comp>
    <comp name="--.HHZ">
      <acc value="0.3101747171" flag="0"/>
      <vel value="0.0643375745" flag="0"/>
      <psa03 value="0.1458400884" flag="0"/>
      <psa10 value="0.0122674791" flag="0"/>
      <psa30 value="0.0011341142" flag="0"/>
    </comp>
    <comp name="--.HHE">
      <acc value="0.3776263051" flag="0"/>
      <vel value="0.0737529855" flag="0"/>
      <psa03 value="0.2576035487" flag="0"/>
      <psa10 value="0.0220112988" flag="0"/>
      <psa30 value="0.0021019275" flag="0"/>
    </comp>
  </station>
  <station code="SAP3" name="SAP3" netid="HL" insttype="LE3D20_SMART24" lat="36.4356" lon="25.3454">
    <comp name="--.HHE">
      <acc value="1.0971444532" flag="0"/>
      <vel value="0.2828578872" flag="0"/>
      <psa03 value="0.6971760984" flag="0"/>
      <psa10 value="0.0989138880" flag="0"/>
      <psa30 value="0.0097194888" flag="0"/>
    </comp>
    <comp name="--.HHZ">
      <acc value="0.9644618505" flag="0"/>
      <vel value="0.2054398667" flag="0"/>
      <psa03 value="0.5028768622" flag="0"/>
      <psa10 value="0.0437518468" flag="0"/>
      <psa30 value="0.0040258153" flag="0"/>
    </comp>
  </station>
  <station code="THERA" name="THERA" netid="HL" insttype="120" lat="36.367" lon="25.4753">
    <comp name="--.HHE">
      <acc value="0.3656155262" flag="0"/>
      <vel value="0.0711589420" flag="0"/>
      <psa03 value="0.2513931599" flag="0"/>
      <psa10 value="0.0216766004" flag="0"/>
      <psa30 value="0.0020731928" flag="0"/>
    </comp>
    <comp name="--.HHZ">
      <acc value="0.3144308179" flag="0"/>
      <vel value="0.0632429422" flag="0"/>
      <psa03 value="0.1415699308" flag="0"/>
      <psa10 value="0.0120634467" flag="0"/>
      <psa30 value="0.0011179753" flag="0"/>
    </comp>
  </station>
  <station code="THRA" name="THRA" netid="HL" insttype="CMG-5" lat="36.415" lon="25.4324">
    <comp name="00.HNN">
      <acc value="0.7114377765" flag="0"/>
      <vel value="0.2301367832" flag="0"/>
      <psa03 value="1.0317910525" flag="0"/>
      <psa10 value="0.1167734786" flag="0"/>
      <psa30 value="0.0070049863" flag="0"/>
    </comp>
    <comp name="00.HNE">
      <acc value="1.0606964001" flag="0"/>
      <vel value="0.2317284863" flag="0"/>
      <psa03 value="1.3929487461" flag="0"/>
      <psa10 value="0.1264192661" flag="0"/>
      <psa30 value="0.0073993011" flag="0"/>
    </comp>
    <comp name="00.HNZ">
      <acc value="0.5082926442" flag="0"/>
      <vel value="0.1578503515" flag="0"/>
      <psa03 value="0.6461080666" flag="0"/>
      <psa10 value="0.0339801699" flag="0"/>
      <psa30 value="0.0032958321" flag="0"/>
    </comp>
  </station>
  <station code="CMBO" name="CMBO" netid="HT" insttype="120P," lat="36.4709" lon="25.4056">
    <comp name="--.HHE">
      <acc value="1.0400620468" flag="0"/>
      <vel value="0.2221122276" flag="0"/>
      <psa03 value="0.7220123826" flag="0"/>
      <psa10 value="0.0884920383" flag="0"/>
      <psa30 value="0.0063076662" flag="0"/>
    </comp>
    <comp name="--.HHN">
      <acc value="1.6196736727" flag="0"/>
      <vel value="0.3293367220" flag="0"/>
      <psa03 value="0.8007432613" flag="0"/>
      <psa10 value="0.1239579418" flag="0"/>
      <psa30 value="0.0092901882" flag="0"/>
    </comp>
    <comp name="--.HHZ">
      <acc value="1.1252490831" flag="0"/>
      <vel value="0.2417988653" flag="0"/>
      <psa03 value="1.0207724710" flag="0"/>
      <psa10 value="0.0398762572" flag="0"/>
      <psa30 value="0.0045915104" flag="0"/>
    </comp>
  </station>
</stationlist>
