<?xml version="1.0" encoding="UTF-8" standalone="yes"?>
<!DOCTYPE earthquake SYSTEM "stationlist.dtd">
<stationlist created="" xmlns="ch.ethz.sed.shakemap.usgs.xml">
  <station code="THERA" name="THERA" netid="GE" insttype="STS-2/N" lat="36.367" lon="25.4753">
    <comp name="--.HHN">
      <acc value="0.3371126487" flag="0"/>
      <vel value="0.0822688576" flag="0"/>
      <psa03 value="0.2009392434" flag="0"/>
      <psa10 value="0.0138971025" flag="0"/>
      <psa30 value="0.0011869032" flag="0"/>
    </comp>
    <comp name="--.HHZ">
      <acc value="0.3101747171" flag="0"/>
      <vel value="0.0643375745" flag="0"/>
      <psa03 value="0.1458400884" flag="0"/>
      <psa10 value="0.0122674791" flag="0"/>
      <psa30 value="0.0011341142" flag="0"/>
    </comp>
    <comp name="--.HHE">
      <acc value="0.3776263051" flag="0"/>
      <vel value="0.0737529855" flag="0"/>
      <psa03 value="0.2576035487" flag="0"/>
      <psa10 value="0.0220112988" flag="0"/>
      <psa30 value="0.0021019275" flag="0"/>
    </comp>
  </station>
</stationlist>
