<?xml version="1.0" encoding="UTF-8" standalone="yes"?>
<!DOCTYPE earthquake SYSTEM "stationlist.dtd">
<stationlist created="" xmlns="ch.ethz.sed.shakemap.usgs.xml">
  <station code="AOI" name="AOI" netid="IV" insttype="" lat="43.5502" lon="13.602">
    <comp name="--.HHE">
      <acc value="0.0199300888" flag="0"/>
      <vel value="0.0055900848" flag="0"/>
      <psa03 value="0.0349769234" flag="0"/>
      <psa10 value="0.0022818558" flag="0"/>
      <psa30 value="0.0002147414" flag="0"/>
    </comp>
    <comp name="--.HHZ">
      <acc value="0.0131570394" flag="0"/>
      <vel value="0.0045528866" flag="0"/>
      <psa03 value="0.0325433519" flag="0"/>
      <psa10 value="0.0018069582" flag="0"/>
      <psa30 value="0.0001395842" flag="0"/>
    </comp>
    <comp name="--.HHN">
      <acc value="0.0197715539" flag="0"/>
      <vel value="0.0053928118" flag="0"/>
      <psa03 value="0.0232114749" flag="0"/>
      <psa10 value="0.0044574097" flag="0"/>
      <psa30 value="0.0002452916" flag="0"/>
    </comp>
  </station>
  <station code="APEC" name="APEC" netid="IV" insttype="" lat="43.5585" lon="12.4199">
    <comp name="--.HHE">
      <acc value="0.0253756385" flag="0"/>
      <vel value="0.0099749125" flag="0"/>
      <psa03 value="0.0561117137" flag="0"/>
      <psa10 value="0.0055785334" flag="0"/>
      <psa30 value="0.0003942810" flag="0"/>
    </comp>
    <comp name="--.HHN">
      <acc value="0.0238007508" flag="0"/>
      <vel value="0.0067594877" flag="0"/>
      <psa03 value="0.0511814382" flag="0"/>
      <psa10 value="0.0042700240" flag="0"/>
      <psa30 value="0.0002752801" flag="0"/>
    </comp>
    <comp name="--.HHZ">
      <acc value="0.0124583096" flag="0"/>
      <vel value="0.0039609052" flag="0"/>
      <psa03 value="0.0269557014" flag="0"/>
      <psa10 value="0.0020123869" flag="0"/>
      <psa30 value="0.0001711392" flag="0"/>
    </comp>
  </station>
  <station code="ARVD" name="ARVD" netid="IV" insttype="" lat="43.4981" lon="12.9415">
    <comp name="--.HHN">
      <acc value="0.0148982953" flag="0"/>
      <vel value="0.0037526467" flag="0"/>
      <psa03 value="0.0190734950" flag="0"/>
      <psa10 value="0.0025212889" flag="0"/>
      <psa30 value="0.0001939601" flag="0"/>
    </comp>
    <comp name="--.HHE">
      <acc value="0.0155107543" flag="0"/>
      <vel value="0.0054367356" flag="0"/>
      <psa03 value="0.0333623927" flag="0"/>
      <psa10 value="0.0039653917" flag="0"/>
      <psa30 value="0.0003113159" flag="0"/>
    </comp>
    <comp name="--.HHZ">
      <acc value="0.0135898799" flag="0"/>
      <vel value="0.0043401570" flag="0"/>
      <psa03 value="0.0223351416" flag="0"/>
      <psa10 value="0.0028092216" flag="0"/>
      <psa30 value="0.0001640331" flag="0"/>
    </comp>
  </station>
  <station code="ASQU" name="ASQU" netid="IV" insttype="" lat="43.7967" lon="11.7893">
    <comp name="--.HHE">
      <acc value="0.0082775534" flag="0"/>
      <vel value="0.0038583421" flag="0"/>
      <psa03 value="0.0233497880" flag="0"/>
      <psa10 value="0.0027557345" flag="0"/>
      <psa30 value="0.0002027000" flag="0"/>
    </comp>
    <comp name="--.HHZ">
      <acc value="0.0037968797" flag="0"/>
      <vel value="0.0023140286" flag="0"/>
      <psa03 value="0.0102939868" flag="0"/>
      <psa10 value="0.0010401812" flag="0"/>
      <psa30 value="0.0001283726" flag="0"/>
    </comp>
    <comp name="--.HHN">
      <acc value="0.0067821829" flag="0"/>
      <vel value="0.0049407076" flag="0"/>
      <psa03 value="0.0194572157" flag="0"/>
      <psa10 value="0.0028977566" flag="0"/>
      <psa30 value="0.0002215910" flag="0"/>
    </comp>
  </station>
  <station code="ATBU" name="ATBU" netid="IV" insttype="" lat="43.4757" lon="12.5483">
    <comp name="--.HNE">
      <acc value="0.0257751453" flag="0"/>
      <vel value="0.0112119951" flag="0"/>
      <psa03 value="0.0848745452" flag="0"/>
      <psa10 value="0.0075720538" flag="0"/>
      <psa30 value="0.0008266175" flag="0"/>
    </comp>
    <comp name="--.HNN">
      <acc value="0.0203229084" flag="0"/>
      <vel value="0.0102105765" flag="0"/>
      <psa03 value="0.0777255826" flag="0"/>
      <psa10 value="0.0071972067" flag="0"/>
      <psa30 value="0.0005374936" flag="0"/>
    </comp>
    <comp name="--.HNZ">
      <acc value="0.0112120085" flag="0"/>
      <vel value="0.0054551241" flag="0"/>
      <psa03 value="0.0243325518" flag="0"/>
      <psa10 value="0.0040531166" flag="0"/>
      <psa30 value="0.0003138271" flag="0"/>
    </comp>
  </station>
  <station code="ATPC" name="ATPC" netid="IV" insttype="" lat="43.4807" lon="12.457">
    <comp name="--.HHN">
      <acc value="0.0169758132" flag="0"/>
      <vel value="0.0062039800" flag="0"/>
      <psa03 value="0.0330527880" flag="0"/>
      <psa10 value="0.0069856982" flag="0"/>
      <psa30 value="0.0003767434" flag="0"/>
    </comp>
    <comp name="--.HHE">
      <acc value="0.0239455098" flag="0"/>
      <vel value="0.0087648632" flag="0"/>
      <psa03 value="0.0593305082" flag="0"/>
      <psa10 value="0.0070036438" flag="0"/>
      <psa30 value="0.0004185151" flag="0"/>
    </comp>
    <comp name="--.HHZ">
      <acc value="0.0076036021" flag="0"/>
      <vel value="0.0045195747" flag="0"/>
      <psa03 value="0.0146891952" flag="0"/>
      <psa10 value="0.0024251095" flag="0"/>
      <psa30 value="0.0002086420" flag="0"/>
    </comp>
  </station>
  <station code="BRIS" name="BRIS" netid="IV" insttype="" lat="44.2245" lon="11.7666">
    <comp name="--.HHE">
      <acc value="0.0173890814" flag="0"/>
      <vel value="0.0082977942" flag="0"/>
      <psa03 value="0.0439154126" flag="0"/>
      <psa10 value="0.0103470072" flag="0"/>
      <psa30 value="0.0007133216" flag="0"/>
    </comp>
    <comp name="--.HHN">
      <acc value="0.0154640798" flag="0"/>
      <vel value="0.0055779167" flag="0"/>
      <psa03 value="0.0353409448" flag="0"/>
      <psa10 value="0.0077330229" flag="0"/>
      <psa30 value="0.0005451169" flag="0"/>
    </comp>
    <comp name="--.HHZ">
      <acc value="0.0098693828" flag="0"/>
      <vel value="0.0051777633" flag="0"/>
      <psa03 value="0.0236812481" flag="0"/>
      <psa10 value="0.0050370194" flag="0"/>
      <psa30 value="0.0002537686" flag="0"/>
    </comp>
  </station>
  <station code="BRSN" name="BRSN" netid="IV" insttype="" lat="44.2842" lon="12.0802">
    <comp name="--.HNE">
      <acc value="0.0875131132" flag="0"/>
      <vel value="0.0411952797" flag="0"/>
      <psa03 value="0.1686436526" flag="0"/>
      <psa10 value="0.0498922494" flag="0"/>
      <psa30 value="0.0032039368" flag="0"/>
    </comp>
    <comp name="--.HNN">
      <acc value="0.0513377709" flag="0"/>
      <vel value="0.0396788919" flag="0"/>
      <psa03 value="0.1390941191" flag="0"/>
      <psa10 value="0.0276978778" flag="0"/>
      <psa30 value="0.0022829312" flag="0"/>
    </comp>
    <comp name="--.HNZ">
      <acc value="0.0322848654" flag="0"/>
      <vel value="0.0103513806" flag="0"/>
      <psa03 value="0.0428356394" flag="0"/>
      <psa10 value="0.0040645450" flag="0"/>
      <psa30 value="0.0003777080" flag="0"/>
    </comp>
  </station>
  <station code="CRTC" name="CRTC" netid="IV" insttype="" lat="43.7685" lon="12.883">
    <comp name="--.HHE">
      <acc value="0.1666334571" flag="0"/>
      <vel value="0.0772534279" flag="0"/>
      <psa03 value="0.3911581573" flag="0"/>
      <psa10 value="0.0397125905" flag="0"/>
      <psa30 value="0.0036259885" flag="0"/>
    </comp>
    <comp name="--.HHN">
      <acc value="0.1179695487" flag="0"/>
      <vel value="0.0577599991" flag="0"/>
      <psa03 value="0.2592058311" flag="0"/>
      <psa10 value="0.0229307149" flag="0"/>
      <psa30 value="0.0019434575" flag="0"/>
    </comp>
    <comp name="--.HHZ">
      <acc value="0.0873396266" flag="0"/>
      <vel value="0.0317032725" flag="0"/>
      <psa03 value="0.2297549054" flag="0"/>
      <psa10 value="0.0132277444" flag="0"/>
      <psa30 value="0.0009630061" flag="0"/>
    </comp>
  </station>
  <station code="FERS" name="FERS" netid="IV" insttype="" lat="44.9035" lon="11.5406">
    <comp name="--.HNE">
      <acc value="0.0377426251" flag="0"/>
      <vel value="0.0135696177" flag="0"/>
      <psa03 value="0.0694944777" flag="0"/>
      <psa10 value="0.0081183674" flag="0"/>
      <psa30 value="0.0007176021" flag="0"/>
    </comp>
    <comp name="--.HNN">
      <acc value="0.0423551025" flag="0"/>
      <vel value="0.0142175502" flag="0"/>
      <psa03 value="0.1183600045" flag="0"/>
      <psa10 value="0.0102551742" flag="0"/>
      <psa30 value="0.0007934915" flag="0"/>
    </comp>
    <comp name="--.HNZ">
      <acc value="0.0198092518" flag="0"/>
      <vel value="0.0049905054" flag="0"/>
      <psa03 value="0.0405914775" flag="0"/>
      <psa10 value="0.0039591590" flag="0"/>
      <psa30 value="0.0001738483" flag="0"/>
    </comp>
  </station>
  <station code="IMOL" name="IMOL" netid="IV" insttype="" lat="44.3595" lon="11.7425">
    <comp name="--.HNE">
      <acc value="0.1622027627" flag="0"/>
      <vel value="0.0103276993" flag="0"/>
      <psa03 value="0.0266210549" flag="0"/>
      <psa10 value="0.0085889931" flag="0"/>
      <psa30 value="0.0008584397" flag="0"/>
    </comp>
    <comp name="--.HNN">
      <acc value="0.0959278091" flag="0"/>
      <vel value="0.0102564180" flag="0"/>
      <psa03 value="0.0612053772" flag="0"/>
      <psa10 value="0.0094651829" flag="0"/>
      <psa30 value="0.0009805961" flag="0"/>
    </comp>
    <comp name="--.HNZ">
      <acc value="0.2511488017" flag="0"/>
      <vel value="0.0118587570" flag="0"/>
      <psa03 value="0.0140691012" flag="0"/>
      <psa10 value="0.0038073361" flag="0"/>
      <psa30 value="0.0002861910" flag="0"/>
    </comp>
  </station>
  <station code="LMD" name="LMD" netid="IV" insttype="" lat="44.0775" lon="11.7073">
    <comp name="--.HHE">
      <acc value="0.0208989359" flag="0"/>
      <vel value="0.0062351435" flag="0"/>
      <psa03 value="0.0418916442" flag="0"/>
      <psa10 value="0.0021086953" flag="0"/>
      <psa30 value="0.0003298333" flag="0"/>
    </comp>
    <comp name="--.HHN">
      <acc value="0.0213861288" flag="0"/>
      <vel value="0.0067017888" flag="0"/>
      <psa03 value="0.0358350222" flag="0"/>
      <psa10 value="0.0040767220" flag="0"/>
      <psa30 value="0.0003512300" flag="0"/>
    </comp>
    <comp name="--.HHZ">
      <acc value="0.0079267788" flag="0"/>
      <vel value="0.0026400773" flag="0"/>
      <psa03 value="0.0116393635" flag="0"/>
      <psa10 value="0.0025823365" flag="0"/>
      <psa30 value="0.0001778820" flag="0"/>
    </comp>
  </station>
  <station code="MTRZ" name="MTRZ" netid="IV" insttype="" lat="44.3128" lon="11.4248">
    <comp name="--.HHE">
      <acc value="0.0077873754" flag="0"/>
      <vel value="0.0043173017" flag="0"/>
      <psa03 value="0.0201362839" flag="0"/>
      <psa10 value="0.0041445036" flag="0"/>
      <psa30 value="0.0003289256" flag="0"/>
    </comp>
    <comp name="--.HHN">
      <acc value="0.0069503085" flag="0"/>
      <vel value="0.0042631635" flag="0"/>
      <psa03 value="0.0245200228" flag="0"/>
      <psa10 value="0.0038533000" flag="0"/>
      <psa30 value="0.0004340746" flag="0"/>
    </comp>
    <comp name="--.HHZ">
      <acc value="0.0030511376" flag="0"/>
      <vel value="0.0018403067" flag="0"/>
      <psa03 value="0.0063248445" flag="0"/>
      <psa10 value="0.0028111888" flag="0"/>
      <psa30 value="0.0002433543" flag="0"/>
    </comp>
  </station>
  <station code="NARO" name="NARO" netid="IV" insttype="" lat="43.6108" lon="12.5806">
    <comp name="--.HHE">
      <acc value="0.0210523716" flag="0"/>
      <vel value="0.0061517490" flag="0"/>
      <psa03 value="0.0304174021" flag="0"/>
      <psa10 value="0.0049973443" flag="0"/>
      <psa30 value="0.0004737189" flag="0"/>
    </comp>
    <comp name="--.HHN">
      <acc value="0.0202236487" flag="0"/>
      <vel value="0.0051927774" flag="0"/>
      <psa03 value="0.0212230604" flag="0"/>
      <psa10 value="0.0042468822" flag="0"/>
      <psa30 value="0.0003844325" flag="0"/>
    </comp>
    <comp name="--.HHZ">
      <acc value="0.0143456780" flag="0"/>
      <vel value="0.0059672499" flag="0"/>
      <psa03 value="0.0271041583" flag="0"/>
      <psa10 value="0.0032221669" flag="0"/>
      <psa30 value="0.0002018621" flag="0"/>
    </comp>
  </station>
  <station code="PARC" name="PARC" netid="IV" insttype="" lat="43.6486" lon="12.2386">
    <comp name="--.HHE">
      <acc value="0.0084413326" flag="0"/>
      <vel value="0.0027514799" flag="0"/>
      <psa03 value="0.0186272076" flag="0"/>
      <psa10 value="0.0019701020" flag="0"/>
      <psa30 value="0.0001348049" flag="0"/>
    </comp>
    <comp name="--.HHN">
      <acc value="0.0087725871" flag="0"/>
      <vel value="0.0026529965" flag="0"/>
      <psa03 value="0.0149299648" flag="0"/>
      <psa10 value="0.0016381579" flag="0"/>
      <psa30 value="0.0001337694" flag="0"/>
    </comp>
    <comp name="--.HHZ">
      <acc value="0.0073463334" flag="0"/>
      <vel value="0.0040776021" flag="0"/>
      <psa03 value="0.0216116361" flag="0"/>
      <psa10 value="0.0015880462" flag="0"/>
      <psa30 value="0.0001367276" flag="0"/>
    </comp>
  </station>
  <station code="PESA" name="PESA" netid="IV" insttype="" lat="43.941" lon="12.8402">
    <comp name="--.HHE">
      <acc value="0.1879964746" flag="0"/>
      <vel value="0.0300923889" flag="0"/>
      <psa03 value="0.1995961348" flag="0"/>
      <psa10 value="0.0087938034" flag="0"/>
      <psa30 value="0.0008236312" flag="0"/>
    </comp>
    <comp name="--.HHN">
      <acc value="0.2519072598" flag="0"/>
      <vel value="0.0280151433" flag="0"/>
      <psa03 value="0.1463815022" flag="0"/>
      <psa10 value="0.0088987461" flag="0"/>
      <psa30 value="0.0006963962" flag="0"/>
    </comp>
    <comp name="--.HHZ">
      <acc value="0.0824038366" flag="0"/>
      <vel value="0.0150271169" flag="0"/>
      <psa03 value="0.0919995114" flag="0"/>
      <psa10 value="0.0046491299" flag="0"/>
      <psa30 value="0.0002596810" flag="0"/>
    </comp>
  </station>
  <station code="PIEI" name="PIEI" netid="IV" insttype="" lat="43.5357" lon="12.535">
    <comp name="--.HHE">
      <acc value="0.0342857359" flag="0"/>
      <vel value="0.0104328556" flag="0"/>
      <psa03 value="0.0486938518" flag="0"/>
      <psa10 value="0.0063611772" flag="0"/>
      <psa30 value="0.0005687018" flag="0"/>
    </comp>
    <comp name="--.HHN">
      <acc value="0.0197910209" flag="0"/>
      <vel value="0.0057146618" flag="0"/>
      <psa03 value="0.0291545633" flag="0"/>
      <psa10 value="0.0022032303" flag="0"/>
      <psa30 value="0.0002383811" flag="0"/>
    </comp>
    <comp name="--.HHZ">
      <acc value="0.0182292168" flag="0"/>
      <vel value="0.0059431178" flag="0"/>
      <psa03 value="0.0371492792" flag="0"/>
      <psa10 value="0.0019632358" flag="0"/>
      <psa30 value="0.0002350253" flag="0"/>
    </comp>
  </station>
  <station code="SENI" name="SENI" netid="IV" insttype="" lat="43.7052" lon="13.2331">
    <comp name="--.HNE">
      <acc value="0.1235565305" flag="0"/>
      <vel value="0.0508239309" flag="0"/>
      <psa03 value="0.3613878420" flag="0"/>
      <psa10 value="0.0197497392" flag="0"/>
      <psa30 value="0.0011304951" flag="0"/>
    </comp>
    <comp name="--.HNN">
      <acc value="0.1374475759" flag="0"/>
      <vel value="0.0543083135" flag="0"/>
      <psa03 value="0.3233629045" flag="0"/>
      <psa10 value="0.0224093410" flag="0"/>
      <psa30 value="0.0019400957" flag="0"/>
    </comp>
    <comp name="--.HNZ">
      <acc value="0.0454585642" flag="0"/>
      <vel value="0.0141837753" flag="0"/>
      <psa03 value="0.0670188878" flag="0"/>
      <psa10 value="0.0066275128" flag="0"/>
      <psa30 value="0.0006445994" flag="0"/>
    </comp>
  </station>
  <station code="SSFR" name="SSFR" netid="IV" insttype="" lat="43.4363" lon="12.7822">
    <comp name="--.HHE">
      <acc value="0.0521603108" flag="0"/>
      <vel value="0.0196159507" flag="0"/>
      <psa03 value="0.1480078036" flag="0"/>
      <psa10 value="0.0073389717" flag="0"/>
      <psa30 value="0.0008189342" flag="0"/>
    </comp>
    <comp name="--.HHN">
      <acc value="0.0601998389" flag="0"/>
      <vel value="0.0212697271" flag="0"/>
      <psa03 value="0.1785111751" flag="0"/>
      <psa10 value="0.0053447501" flag="0"/>
      <psa30 value="0.0004788038" flag="0"/>
    </comp>
    <comp name="--.HHZ">
      <acc value="0.0499632266" flag="0"/>
      <vel value="0.0196163711" flag="0"/>
      <psa03 value="0.1151820404" flag="0"/>
      <psa10 value="0.0042722028" flag="0"/>
      <psa30 value="0.0005324445" flag="0"/>
    </comp>
  </station>
  <station code="VISG" name="VISG" netid="IV" insttype="" lat="44.189" lon="11.4343">
    <comp name="--.HHE">
      <acc value="0.0070344418" flag="0"/>
      <vel value="0.0019393575" flag="0"/>
      <psa03 value="0.0128877519" flag="0"/>
      <psa10 value="0.0011140068" flag="0"/>
      <psa30 value="0.0000983921" flag="0"/>
    </comp>
    <comp name="--.HHN">
      <acc value="0.0062702024" flag="0"/>
      <vel value="0.0018898318" flag="0"/>
      <psa03 value="0.0139016458" flag="0"/>
      <psa10 value="0.0009625778" flag="0"/>
      <psa30 value="0.0001400993" flag="0"/>
    </comp>
    <comp name="--.HHZ">
      <acc value="0.0040799057" flag="0"/>
      <vel value="0.0008111083" flag="0"/>
      <psa03 value="0.0052462768" flag="0"/>
      <psa10 value="0.0006387246" flag="0"/>
      <psa30 value="0.0000823269" flag="0"/>
    </comp>
  </station>
</stationlist>
