<stationlist xmlns:esm="https://esm-db.eu/esmws/shakemap/1/" created="1784339648">
	<station code="APNO" name="APNO" netid="IT" source="Italian Strong Motion Network (RAN)" insttype="" lat="43.3638" lon="13.3451" esm:processing="manual (Paolucci et al 2011)" esm:quality="good">
		<comp name="--.HNE" depth="0.0">
			<acc value="0.04587406535148" flag="0"/>
			<vel value="0.0289451026702" flag="0"/>
			<psa03 value="0.106891028922667" flag="0"/>
			<psa10 value="0.0196410936260713" flag="0"/>
			<psa30 value="0.00111859858083327" flag="0"/>
		</comp>
		<comp name="--.HNN" depth="0.0">
			<acc value="0.047751517794174" flag="0"/>
			<vel value="0.0203441593945" flag="0"/>
			<psa03 value="0.127633528011428" flag="0"/>
			<psa10 value="0.0165449616474919" flag="0"/>
			<psa30 value="0.00100269069416965" flag="0"/>
		</comp>
		<comp name="--.HNZ" depth="0.0">
			<acc value="0.028836203890968" flag="0"/>
			<vel value="0.00980403154054" flag="0"/>
			<psa03 value="0.0553453799013668" flag="0"/>
			<psa10 value="0.00549969995314459" flag="0"/>
			<psa30 value="0.000417363064921524" flag="0"/>
		</comp>
	</station>
	<station code="ARCV" name="ARCV" netid="IT" source="Italian Strong Motion Network (RAN)" insttype="" lat="43.495" lon="12.9396" esm:processing="manual (Paolucci et al 2011)" esm:quality="good">
		<comp name="--.HNE" depth="0.0">
			<acc value="0.018805091315598" flag="0"/>
			<vel value="0.00540743154918" flag="0"/>
			<psa03 value="0.0372334691387704" flag="0"/>
			<psa10 value="0.00429653634320725" flag="0"/>
			<psa30 value="0.000339032459236564" flag="0"/>
		</comp>
		<comp name="--.HNN" depth="0.0">
			<acc value="0.019491538339566" flag="0"/>
			<vel value="0.00532168792422" flag="0"/>
			<psa03 value="0.0353410052306601" flag="0"/>
			<psa10 value="0.0038390859612303" flag="0"/>
			<psa30 value="0.000235080625020984" flag="0"/>
		</comp>
		<comp name="--.HNZ" depth="0.0">
			<acc value="0.014877000759648" flag="0"/>
			<vel value="0.00348534277466" flag="0"/>
			<psa03 value="0.0181959983643383" flag="0"/>
			<psa10 value="0.0018114951589131" flag="0"/>
			<psa30 value="0.000172714631600832" flag="0"/>
		</comp>
	</station>
	<station code="ASS" name="ASS" netid="IT" source="Italian Strong Motion Network (RAN)" insttype="" lat="43.075" lon="12.6041" esm:processing="manual (Paolucci et al 2011)" esm:quality="good">
		<comp name="--.HNE" depth="0.0">
			<acc value="0.01328593219644" flag="0"/>
			<vel value="0.00497504023446" flag="0"/>
			<psa03 value="0.030751485051626" flag="0"/>
			<psa10 value="0.00253230837800244" flag="0"/>
			<psa30 value="0.000172786537406003" flag="0"/>
		</comp>
		<comp name="--.HNN" depth="0.0">
			<acc value="0.010276650141654" flag="0"/>
			<vel value="0.00317762086658" flag="0"/>
			<psa03 value="0.0231650267568546" flag="0"/>
			<psa10 value="0.00160350169286833" flag="0"/>
			<psa30 value="0.000112735462962598" flag="0"/>
		</comp>
		<comp name="--.HNZ" depth="0.0">
			<acc value="0.0046046843284794" flag="0"/>
			<vel value="0.00181960922664" flag="0"/>
			<psa03 value="0.01444687500331" flag="0"/>
			<psa10 value="0.00114089987589439" flag="0"/>
			<psa30 value="0.000122478634441862" flag="0"/>
		</comp>
	</station>
	<station code="AVI" name="AVI" netid="IT" source="Italian Strong Motion Network (RAN)" insttype="" lat="46.0643" lon="12.6023" esm:processing="manual (Paolucci et al 2011)" esm:quality="good">
		<comp name="--.HNE" depth="0.0">
			<acc value="0.01465124603604" flag="0"/>
			<vel value="0.00475082227166" flag="0"/>
			<psa03 value="0.036399825372299" flag="0"/>
			<psa10 value="0.00235304017423659" flag="0"/>
			<psa30 value="0.000239459691154159" flag="0"/>
		</comp>
		<comp name="--.HNN" depth="0.0">
			<acc value="0.016810018270074" flag="0"/>
			<vel value="0.00602491942206" flag="0"/>
			<psa03 value="0.0247921710054713" flag="0"/>
			<psa10 value="0.00233305720983898" flag="0"/>
			<psa30 value="0.000176989029342001" flag="0"/>
		</comp>
		<comp name="--.HNZ" depth="0.0">
			<acc value="0.013749148206096" flag="0"/>
			<vel value="0.00215436970811" flag="0"/>
			<psa03 value="0.0115163162848658" flag="0"/>
			<psa10 value="0.00122616095370958" flag="0"/>
			<psa30 value="9.73823039645027e-05" flag="0"/>
		</comp>
	</station>
	<station code="AVS" name="AVS" netid="IT" source="Italian Strong Motion Network (RAN)" insttype="" lat="46.2946" lon="13.0497" esm:processing="manual (Paolucci et al 2011)" esm:quality="good">
		<comp name="--.HNE" depth="0.0">
			<acc value="0.0084768569452494" flag="0"/>
			<vel value="0.0025314155014" flag="0"/>
			<psa03 value="0.0169511802241592" flag="0"/>
			<psa10 value="0.00181911425739238" flag="0"/>
			<psa30 value="0.000103333264592629" flag="0"/>
		</comp>
		<comp name="--.HNN" depth="0.0">
			<acc value="0.0081663305944122" flag="0"/>
			<vel value="0.00264133328929" flag="0"/>
			<psa03 value="0.00803905403223673" flag="0"/>
			<psa10 value="0.00255727214110589" flag="0"/>
			<psa30 value="0.000102712383618602" flag="0"/>
		</comp>
		<comp name="--.HNZ" depth="0.0">
			<acc value="0.0056384547427218" flag="0"/>
			<vel value="0.00134849105163" flag="0"/>
			<psa03 value="0.00762476356669917" flag="0"/>
			<psa10 value="0.000810597858287485" flag="0"/>
			<psa30 value="8.45005912389522e-05" flag="0"/>
		</comp>
	</station>
	<station code="BDT" name="BDT" netid="IT" source="Italian Strong Motion Network (RAN)" insttype="" lat="43.7068" lon="12.188" esm:processing="manual (Paolucci et al 2011)" esm:quality="good">
		<comp name="--.HNE" depth="0.0">
			<acc value="0.012168662216226" flag="0"/>
			<vel value="0.00499766057261" flag="0"/>
			<psa03 value="0.0280424149640479" flag="0"/>
			<psa10 value="0.00308487795177356" flag="0"/>
			<psa30 value="0.000242734387253702" flag="0"/>
		</comp>
		<comp name="--.HNN" depth="0.0">
			<acc value="0.021303210170442" flag="0"/>
			<vel value="0.00742137951959" flag="0"/>
			<psa03 value="0.0398349487657045" flag="0"/>
			<psa10 value="0.00448081323814907" flag="0"/>
			<psa30 value="0.00036535336953429" flag="0"/>
		</comp>
		<comp name="--.HNZ" depth="0.0">
			<acc value="0.0091220603961666" flag="0"/>
			<vel value="0.003343678904" flag="0"/>
			<psa03 value="0.0196985327956987" flag="0"/>
			<psa10 value="0.00285811332035724" flag="0"/>
			<psa30 value="0.000188856456126057" flag="0"/>
		</comp>
	</station>
	<station code="BGR" name="BGR" netid="IT" source="Italian Strong Motion Network (RAN)" insttype="" lat="43.8895" lon="11.9912" esm:processing="manual (Paolucci et al 2011)" esm:quality="bad">
		<comp name="--.HGE" depth="0.0">
			<acc value="0.010545666137298" flag="0"/>
			<vel value="0.00422992281464" flag="0"/>
			<psa03 value="0.0226154044095643" flag="0"/>
			<psa10 value="0.00563215872786653" flag="0"/>
			<psa30 value="0.00034822989143803" flag="0"/>
		</comp>
		<comp name="--.HGN" depth="0.0">
			<acc value="0.010230223422426" flag="0"/>
			<vel value="0.0036267297918" flag="0"/>
			<psa03 value="0.0226824088482803" flag="0"/>
			<psa10 value="0.00228874333676358" flag="0"/>
			<psa30 value="0.000270448280454584" flag="0"/>
		</comp>
		<comp name="--.HGZ" depth="0.0">
			<acc value="0.00778893268479" flag="0"/>
			<vel value="0.00280464947978" flag="0"/>
			<psa03 value="0.0161064016054858" flag="0"/>
			<psa10 value="0.0029754105438467" flag="0"/>
			<psa30 value="0.000282008551474327" flag="0"/>
		</comp>
	</station>
	<station code="CMNZ" name="CMNZ" netid="IT" source="Italian Strong Motion Network (RAN)" insttype="" lat="42.9508" lon="13.4079" esm:processing="manual (Paolucci et al 2011)" esm:quality="good">
		<comp name="--.HNE" depth="0.0">
			<acc value="0.027271563519906" flag="0"/>
			<vel value="0.00710792657003" flag="0"/>
			<psa03 value="0.0349323557637869" flag="0"/>
			<psa10 value="0.00553261447731451" flag="0"/>
			<psa30 value="0.000217075330696093" flag="0"/>
		</comp>
		<comp name="--.HNN" depth="0.0">
			<acc value="0.038979416754402" flag="0"/>
			<vel value="0.0103212551542" flag="0"/>
			<psa03 value="0.0467242046243178" flag="0"/>
			<psa10 value="0.00407627581449986" flag="0"/>
			<psa30 value="0.000251881034840838" flag="0"/>
		</comp>
		<comp name="--.HNZ" depth="0.0">
			<acc value="0.013219456853442" flag="0"/>
			<vel value="0.0051040001018" flag="0"/>
			<psa03 value="0.0287995380363969" flag="0"/>
			<psa10 value="0.00360577058335599" flag="0"/>
			<psa30 value="0.000178102840105612" flag="0"/>
		</comp>
	</station>
	<station code="CMRN" name="CMRN" netid="IT" source="Italian Strong Motion Network (RAN)" insttype="" lat="43.1392" lon="13.0718" esm:processing="manual (Paolucci et al 2011)" esm:quality="bad">
		<comp name="--.HNE" depth="0.0">
			<acc value="0.032042306133012" flag="0"/>
			<vel value="0.0166498450719" flag="0"/>
			<psa03 value="0.0902424364518445" flag="0"/>
			<psa10 value="0.0124322882655923" flag="0"/>
			<psa30 value="0.000728435755292667" flag="0"/>
		</comp>
		<comp name="--.HNN" depth="0.0">
			<acc value="0.033403004713128" flag="0"/>
			<vel value="0.0179764188965" flag="0"/>
			<psa03 value="0.175281361529828" flag="0"/>
			<psa10 value="0.0191125673637726" flag="0"/>
			<psa30 value="0.000760544288578566" flag="0"/>
		</comp>
		<comp name="--.HNZ" depth="0.0">
			<acc value="0.014142511756284" flag="0"/>
			<vel value="0.007006418652" flag="0"/>
			<psa03 value="0.0539485009068127" flag="0"/>
			<psa10 value="0.00639062397246448" flag="0"/>
			<psa30 value="0.000460947045894601" flag="0"/>
		</comp>
	</station>
	<station code="CRP" name="CRP" netid="IT" source="Italian Strong Motion Network (RAN)" insttype="" lat="44.7823" lon="10.8703" esm:processing="manual (Paolucci et al 2011)" esm:quality="good">
		<comp name="--.HGE" depth="0.0">
			<acc value="0.019554854884446" flag="0"/>
			<vel value="0.00450655660819" flag="0"/>
			<psa03 value="0.014691957645078" flag="0"/>
			<psa10 value="0.00837485979337007" flag="0"/>
			<psa30 value="0.000508044176268359" flag="0"/>
		</comp>
		<comp name="--.HGN" depth="0.0">
			<acc value="0.035595142404006" flag="0"/>
			<vel value="0.00450539974954" flag="0"/>
			<psa03 value="0.0149865031989425" flag="0"/>
			<psa10 value="0.00576038909748897" flag="0"/>
			<psa30 value="0.000435948488822683" flag="0"/>
		</comp>
		<comp name="--.HGZ" depth="0.0">
			<acc value="0.036261001659234" flag="0"/>
			<vel value="0.00368461157482" flag="0"/>
			<psa03 value="0.00596261699933619" flag="0"/>
			<psa10 value="0.00137785803414314" flag="0"/>
			<psa30 value="0.000113174307138385" flag="0"/>
		</comp>
	</station>
	<station code="CSN" name="CSN" netid="IT" source="Italian Strong Motion Network (RAN)" insttype="" lat="44.137" lon="12.2414" esm:processing="manual (Paolucci et al 2011)" esm:quality="good">
		<comp name="--.HNE" depth="0.0">
			<acc value="0.12462523537926" flag="0"/>
			<vel value="0.0521329184288" flag="0"/>
			<psa03 value="0.236307737561203" flag="0"/>
			<psa10 value="0.0178710532445657" flag="0"/>
			<psa30 value="0.00122200636859065" flag="0"/>
		</comp>
		<comp name="--.HNN" depth="0.0">
			<acc value="0.12400041400782" flag="0"/>
			<vel value="0.0241927306728" flag="0"/>
			<psa03 value="0.118448617473077" flag="0"/>
			<psa10 value="0.0123625973988906" flag="0"/>
			<psa30 value="0.00106804387766595" flag="0"/>
		</comp>
		<comp name="--.HNZ" depth="0.0">
			<acc value="0.058692336676716" flag="0"/>
			<vel value="0.0116884223692" flag="0"/>
			<psa03 value="0.0414324816777417" flag="0"/>
			<psa10 value="0.00415417972528186" flag="0"/>
			<psa30 value="0.000262078455161567" flag="0"/>
		</comp>
	</station>
	<station code="CTS" name="CTS" netid="IT" source="Italian Strong Motion Network (RAN)" insttype="" lat="43.4919" lon="12.2233" esm:processing="manual (Paolucci et al 2011)" esm:quality="good">
		<comp name="--.HGE" depth="0.0">
			<acc value="0.01386709752147" flag="0"/>
			<vel value="0.0059468961346" flag="0"/>
			<psa03 value="0.0369661337207672" flag="0"/>
			<psa10 value="0.00966334952448221" flag="0"/>
			<psa30 value="0.000467621081770459" flag="0"/>
		</comp>
		<comp name="--.HGN" depth="0.0">
			<acc value="0.015296972001072" flag="0"/>
			<vel value="0.00637517161403" flag="0"/>
			<psa03 value="0.0378258078574637" flag="0"/>
			<psa10 value="0.0100103525117109" flag="0"/>
			<psa30 value="0.00048258728154055" flag="0"/>
		</comp>
		<comp name="--.HGZ" depth="0.0">
			<acc value="0.008308679125521" flag="0"/>
			<vel value="0.00446863424286" flag="0"/>
			<psa03 value="0.0233332983206444" flag="0"/>
			<psa10 value="0.00505524535396418" flag="0"/>
			<psa30 value="0.00035275047736313" flag="0"/>
		</comp>
	</station>
	<station code="CVF" name="CVF" netid="IT" source="Italian Strong Motion Network (RAN)" insttype="" lat="46.0918" lon="13.429" esm:processing="manual (Paolucci et al 2011)" esm:quality="good">
		<comp name="--.HNE" depth="0.0">
			<acc value="0.016236072663756" flag="0"/>
			<vel value="0.00500904643865" flag="0"/>
			<psa03 value="0.0281813278121549" flag="0"/>
			<psa10 value="0.00211078584482665" flag="0"/>
			<psa30 value="0.000114630940091256" flag="0"/>
		</comp>
		<comp name="--.HNN" depth="0.0">
			<acc value="0.015781751074908" flag="0"/>
			<vel value="0.00443119655381" flag="0"/>
			<psa03 value="0.0290085414651536" flag="0"/>
			<psa10 value="0.00159293466472943" flag="0"/>
			<psa30 value="0.0001112845204909" flag="0"/>
		</comp>
		<comp name="--.HNZ" depth="0.0">
			<acc value="0.014938590301116" flag="0"/>
			<vel value="0.0034904674095" flag="0"/>
			<psa03 value="0.0201260259587668" flag="0"/>
			<psa10 value="0.00144718090769553" flag="0"/>
			<psa30 value="7.87579712351113e-05" flag="0"/>
		</comp>
	</station>
	<station code="FAZ" name="FAZ" netid="IT" source="Italian Strong Motion Network (RAN)" insttype="" lat="44.298" lon="11.8907" esm:processing="manual (Paolucci et al 2011)" esm:quality="bad">
		<comp name="--.HNE" depth="0.0">
			<acc value="0.04626120181656" flag="0"/>
			<vel value="0.0194386966699" flag="0"/>
			<psa03 value="0.102481882671991" flag="0"/>
			<psa10 value="0.0115497141743643" flag="0"/>
			<psa30 value="0.00144944268512888" flag="0"/>
		</comp>
		<comp name="--.HNN" depth="0.0">
			<acc value="0.056220588859848" flag="0"/>
			<vel value="0.0244857093112" flag="0"/>
			<psa03 value="0.10170459159677" flag="0"/>
			<psa10 value="0.026921936571166" flag="0"/>
			<psa30 value="0.00220744289892677" flag="0"/>
		</comp>
		<comp name="--.HNZ" depth="0.0">
			<acc value="0.037735887009528" flag="0"/>
			<vel value="0.00539797619903" flag="0"/>
			<psa03 value="0.0245183898480036" flag="0"/>
			<psa10 value="0.00411129422806483" flag="0"/>
			<psa30 value="0.000319647008379034" flag="0"/>
		</comp>
	</station>
	<station code="FIC" name="FIC" netid="IT" source="Italian Strong Motion Network (RAN)" insttype="" lat="44.9538" lon="11.4517" esm:processing="manual (Paolucci et al 2011)" esm:quality="good">
		<comp name="--.HNE" depth="0.0">
			<acc value="0.028499710665486" flag="0"/>
			<vel value="0.0137268850754" flag="0"/>
			<psa03 value="0.0461157841109898" flag="0"/>
			<psa10 value="0.0115466970995031" flag="0"/>
			<psa30 value="0.000721654264385769" flag="0"/>
		</comp>
		<comp name="--.HNN" depth="0.0">
			<acc value="0.024377460126648" flag="0"/>
			<vel value="0.0136975796539" flag="0"/>
			<psa03 value="0.0409828711640601" flag="0"/>
			<psa10 value="0.0126802434413822" flag="0"/>
			<psa30 value="0.00100186053500869" flag="0"/>
		</comp>
		<comp name="--.HNZ" depth="0.0">
			<acc value="0.01653274960947" flag="0"/>
			<vel value="0.00409575945486" flag="0"/>
			<psa03 value="0.020066126157366" flag="0"/>
			<psa10 value="0.00304588779074164" flag="0"/>
			<psa30 value="0.000469346664828824" flag="0"/>
		</comp>
	</station>
	<station code="FMNT" name="FMNT" netid="IT" source="Italian Strong Motion Network (RAN)" insttype="" lat="43.1836" lon="12.9381" esm:processing="manual (Paolucci et al 2011)" esm:quality="good">
		<comp name="--.HNE" depth="0.0">
			<acc value="0.040361433978036" flag="0"/>
			<vel value="0.0140603981433" flag="0"/>
			<psa03 value="0.117710443572648" flag="0"/>
			<psa10 value="0.0123533324101329" flag="0"/>
			<psa30 value="0.000524469743544611" flag="0"/>
		</comp>
		<comp name="--.HNN" depth="0.0">
			<acc value="0.042990102211212" flag="0"/>
			<vel value="0.0200915773865" flag="0"/>
			<psa03 value="0.146964996126442" flag="0"/>
			<psa10 value="0.0196254100871019" flag="0"/>
			<psa30 value="0.000833848675880681" flag="0"/>
		</comp>
		<comp name="--.HNZ" depth="0.0">
			<acc value="0.018955758781842" flag="0"/>
			<vel value="0.00851525534315" flag="0"/>
			<psa03 value="0.0525792226989926" flag="0"/>
			<psa10 value="0.00369840500118052" flag="0"/>
			<psa30 value="0.000273490304890592" flag="0"/>
		</comp>
	</station>
	<station code="FOR" name="FOR" netid="IT" source="Italian Strong Motion Network (RAN)" insttype="" lat="44.1994" lon="12.0419" esm:processing="manual (Paolucci et al 2011)" esm:quality="good">
		<comp name="--.HNE" depth="0.0">
			<acc value="0.045563597670798" flag="0"/>
			<vel value="0.030616089037" flag="0"/>
			<psa03 value="0.0891157263959726" flag="0"/>
			<psa10 value="0.0193585499089429" flag="0"/>
			<psa30 value="0.00217726985844389" flag="0"/>
		</comp>
		<comp name="--.HNN" depth="0.0">
			<acc value="0.045525843148854" flag="0"/>
			<vel value="0.0411092911705" flag="0"/>
			<psa03 value="0.106480928838825" flag="0"/>
			<psa10 value="0.0290079897619746" flag="0"/>
			<psa30 value="0.00218868144773971" flag="0"/>
		</comp>
		<comp name="--.HNZ" depth="0.0">
			<acc value="0.037521806715606" flag="0"/>
			<vel value="0.0077975700113" flag="0"/>
			<psa03 value="0.0243095296578867" flag="0"/>
			<psa10 value="0.00572659935911397" flag="0"/>
			<psa30 value="0.000412800601222115" flag="0"/>
		</comp>
	</station>
	<station code="FOS" name="FOS" netid="IT" source="Italian Strong Motion Network (RAN)" insttype="" lat="43.0146" lon="12.8351" esm:processing="manual (Paolucci et al 2011)" esm:quality="good">
		<comp name="--.HNE" depth="0.0">
			<acc value="0.01455263310873" flag="0"/>
			<vel value="0.00572823310792" flag="0"/>
			<psa03 value="0.0350152180238704" flag="0"/>
			<psa10 value="0.00329238365113263" flag="0"/>
			<psa30 value="0.000246630713074229" flag="0"/>
		</comp>
		<comp name="--.HNN" depth="0.0">
			<acc value="0.016043065796784" flag="0"/>
			<vel value="0.00583393648296" flag="0"/>
			<psa03 value="0.0287250357051387" flag="0"/>
			<psa10 value="0.00397649529829721" flag="0"/>
			<psa30 value="0.000263133160446981" flag="0"/>
		</comp>
		<comp name="--.HNZ" depth="0.0">
			<acc value="0.009518349221001" flag="0"/>
			<vel value="0.00450868820999" flag="0"/>
			<psa03 value="0.029019070808501" flag="0"/>
			<psa10 value="0.00233494217845864" flag="0"/>
			<psa30 value="0.000131645986525379" flag="0"/>
		</comp>
	</station>
	<station code="FSS" name="FSS" netid="IT" source="Italian Strong Motion Network (RAN)" insttype="" lat="43.6905" lon="12.8101" esm:processing="manual (Paolucci et al 2011)" esm:quality="good">
		<comp name="--.HGE" depth="0.0">
			<acc value="0.068104020063828" flag="0"/>
			<vel value="0.0142920596557" flag="0"/>
			<psa03 value="0.057888798390387" flag="0"/>
			<psa10 value="0.0113042210366714" flag="0"/>
			<psa30 value="0.000582337170728285" flag="0"/>
		</comp>
		<comp name="--.HGN" depth="0.0">
			<acc value="0.067467474984258" flag="0"/>
			<vel value="0.01388274599" flag="0"/>
			<psa03 value="0.0578345083355772" flag="0"/>
			<psa10 value="0.00899986682202245" flag="0"/>
			<psa30 value="0.000623319312677374" flag="0"/>
		</comp>
		<comp name="--.HGZ" depth="0.0">
			<acc value="0.04281558357966" flag="0"/>
			<vel value="0.00804481386313" flag="0"/>
			<psa03 value="0.0535634441487539" flag="0"/>
			<psa10 value="0.0069972374388938" flag="0"/>
			<psa30 value="0.000333743541163351" flag="0"/>
		</comp>
	</station>
