<stationlist created="1778069435">
	<station code="SIT2" name="SIT2" netid="HI" source="ITSAK Strong Motion Network" insttype="" lat="35.2059" lon="26.107">
		<comp name="--.HNE" depth="0.0">
			<acc value="0.0919536771091182" flag="0"/>
			<vel value="0.0700237330275759" flag="0"/>
			<psa03 value="0.264739636560314" flag="0"/>
			<psa10 value="0.0531013930807635" flag="0"/>
			<psa30 value="0.00482186760725115" flag="0"/>
		</comp>
		<comp name="--.HNN" depth="0.0">
			<acc value="0.0878942116481398" flag="0"/>
			<vel value="0.0646957644127283" flag="0"/>
			<psa03 value="0.217402381958182" flag="0"/>
			<psa10 value="0.0524409981110778" flag="0"/>
			<psa30 value="0.00324515224602325" flag="0"/>
		</comp>
		<comp name="--.HNZ" depth="0.0">
			<acc value="0.0351151144294194" flag="0"/>
			<vel value="0.0196351760561306" flag="0"/>
			<psa03 value="0.0972248149815045" flag="0"/>
			<psa10 value="0.0156723001342482" flag="0"/>
			<psa30 value="0.00232972669861341" flag="0"/>
		</comp>
	</station>
</stationlist>
