<?xml version="1.0" encoding="UTF-8" standalone="yes"?>
<!DOCTYPE earthquake SYSTEM "stationlist.dtd">
<stationlist created="" xmlns="ch.ethz.sed.shakemap.usgs.xml">
  <station code="ZKR" name="ZKR" netid="GE" insttype="STS-2/N" lat="35.1147" lon="26.2169">
    <comp name="--.HHN">
      <acc value="0.0155975680" flag="0"/>
      <vel value="0.0082036267" flag="0"/>
      <psa03 value="0.0540254252" flag="0"/>
      <psa10 value="0.0169769594" flag="0"/>
      <psa30 value="0.0018209626" flag="0"/>
    </comp>
    <comp name="--.HHZ">
      <acc value="0.0118358899" flag="0"/>
      <vel value="0.0140052421" flag="0"/>
      <psa03 value="0.0328000406" flag="0"/>
      <psa10 value="0.0217879677" flag="0"/>
      <psa30 value="0.0024987580" flag="0"/>
    </comp>
    <comp name="--.HHE">
      <acc value="0.0302333056" flag="0"/>
      <vel value="0.0152295996" flag="0"/>
      <psa03 value="0.1060662472" flag="0"/>
      <psa10 value="0.0311836276" flag="0"/>
      <psa30 value="0.0037037244" flag="0"/>
    </comp>
  </station>
  <station code="SIT2" name="SIT2" netid="HI" insttype="CMG-5TD,ACCELEROMETER,GURALP" lat="35.2059" lon="26.107">
    <comp name="--.HNE">
      <acc value="0.0919334395" flag="0"/>
      <vel value="0.0693205901" flag="0"/>
      <psa03 value="0.2666362882" flag="0"/>
      <psa10 value="0.0530443199" flag="0"/>
      <psa30 value="0.0045100953" flag="0"/>
    </comp>
    <comp name="--.HNZ">
      <acc value="0.0351767808" flag="0"/>
      <vel value="0.0185851661" flag="0"/>
      <psa03 value="0.0984552688" flag="0"/>
      <psa10 value="0.0156026230" flag="0"/>
      <psa30 value="0.0020470649" flag="0"/>
    </comp>
    <comp name="--.HNN">
      <acc value="0.0878892270" flag="0"/>
      <vel value="0.0647816049" flag="0"/>
      <psa03 value="0.2195908913" flag="0"/>
      <psa10 value="0.0523663088" flag="0"/>
      <psa30 value="0.0027480210" flag="0"/>
    </comp>
  </station>
  <station code="IACM" name="IACM" netid="HL" insttype="120" lat="35.3058" lon="25.0709">
    <comp name="--.HHZ">
      <acc value="0.0164540026" flag="0"/>
      <vel value="0.0144976916" flag="0"/>
      <psa03 value="0.0371515473" flag="0"/>
      <psa10 value="0.0349306117" flag="0"/>
      <psa30 value="0.0019172825" flag="0"/>
    </comp>
    <comp name="--.HHE">
      <acc value="0.0416210836" flag="0"/>
      <vel value="0.0470387137" flag="0"/>
      <psa03 value="0.0922394842" flag="0"/>
      <psa10 value="0.1067276349" flag="0"/>
      <psa30 value="0.0098136389" flag="0"/>
    </comp>
    <comp name="--.HHN">
      <acc value="0.0340218693" flag="0"/>
      <vel value="0.0368969430" flag="0"/>
      <psa03 value="0.0603569608" flag="0"/>
      <psa10 value="0.1072738265" flag="0"/>
      <psa30 value="0.0058903245" flag="0"/>
    </comp>
  </station>
  <station code="NPS" name="NPS" netid="HL" insttype="CMG3ESPC-120s" lat="35.2613" lon="25.6104">
    <comp name="--.HHE">
      <acc value="0.0048259378" flag="0"/>
      <vel value="0.0050640555" flag="0"/>
      <psa03 value="0.0122151523" flag="0"/>
      <psa10 value="0.0061048730" flag="0"/>
      <psa30 value="0.0007005093" flag="0"/>
    </comp>
    <comp name="--.HHN">
      <acc value="0.0089797669" flag="0"/>
      <vel value="0.0100293249" flag="0"/>
      <psa03 value="0.0291122222" flag="0"/>
      <psa10 value="0.0129533797" flag="0"/>
      <psa30 value="0.0024086668" flag="0"/>
    </comp>
    <comp name="--.HHZ">
      <acc value="0.0078239890" flag="0"/>
      <vel value="0.0062151081" flag="0"/>
      <psa03 value="0.0156276048" flag="0"/>
      <psa10 value="0.0107490336" flag="0"/>
      <psa30 value="0.0019761059" flag="0"/>
    </comp>
  </station>
  <station code="ZKR" name="ZKR" netid="HL" insttype="120" lat="35.1147" lon="26.2169">
    <comp name="--.HHN">
      <acc value="0.0151122920" flag="0"/>
      <vel value="0.0081271744" flag="0"/>
      <psa03 value="0.0525824957" flag="0"/>
      <psa10 value="0.0168764696" flag="0"/>
      <psa30 value="0.0018194699" flag="0"/>
    </comp>
    <comp name="--.HHZ">
      <acc value="0.0115896018" flag="0"/>
      <vel value="0.0139098728" flag="0"/>
      <psa03 value="0.0318689926" flag="0"/>
      <psa10 value="0.0216935550" flag="0"/>
      <psa30 value="0.0024961392" flag="0"/>
    </comp>
    <comp name="--.HHE">
      <acc value="0.0293956243" flag="0"/>
      <vel value="0.0149062543" flag="0"/>
      <psa03 value="0.1031729282" flag="0"/>
      <psa10 value="0.0310129826" flag="0"/>
      <psa30 value="0.0037008775" flag="0"/>
    </comp>
  </station>
</stationlist>
