<?xml version="1.0" encoding="UTF-8" standalone="yes"?>
<!DOCTYPE earthquake SYSTEM "stationlist.dtd">
<stationlist created="" xmlns="ch.ethz.sed.shakemap.usgs.xml">
  <station code="RDI1" name="RDI1" netid="HI" insttype="CMG-5TD,ACCELEROMETER,GURALP" lat="36.4514" lon="28.224">
    <comp name="--.HNE">
      <acc value="0.0519015972" flag="0"/>
      <vel value="0.0252705091" flag="0"/>
      <psa03 value="0.1953956017" flag="0"/>
      <psa10 value="0.0192215235" flag="0"/>
      <psa30 value="0.0014448686" flag="0"/>
    </comp>
    <comp name="--.HNZ">
      <acc value="0.0251310635" flag="0"/>
      <vel value="0.0120913600" flag="0"/>
      <psa03 value="0.0803709930" flag="0"/>
      <psa10 value="0.0113338904" flag="0"/>
      <psa30 value="0.0011094765" flag="0"/>
    </comp>
    <comp name="--.HNN">
      <acc value="0.0561963811" flag="0"/>
      <vel value="0.0285495974" flag="0"/>
      <psa03 value="0.2097697084" flag="0"/>
      <psa10 value="0.0197155807" flag="0"/>
      <psa30 value="0.0024069238" flag="0"/>
    </comp>
  </station>
  <station code="ARG" name="ARG" netid="HL" insttype="LE3D20_DR24" lat="36.2136" lon="28.1212">
    <comp name="--.HHE">
      <acc value="0.0450410962" flag="0"/>
      <vel value="0.0155721350" flag="0"/>
      <psa03 value="0.0799058881" flag="0"/>
      <psa10 value="0.0112283688" flag="0"/>
      <psa30 value="0.0012738519" flag="0"/>
    </comp>
    <comp name="--.HHZ">
      <acc value="0.0247398553" flag="0"/>
      <vel value="0.0087589516" flag="0"/>
      <psa03 value="0.0384773875" flag="0"/>
      <psa10 value="0.0095119674" flag="0"/>
      <psa30 value="0.0007083823" flag="0"/>
    </comp>
    <comp name="--.HHN">
      <acc value="0.0396038128" flag="0"/>
      <vel value="0.0115694133" flag="0"/>
      <psa03 value="0.0643640869" flag="0"/>
      <psa10 value="0.0122026499" flag="0"/>
      <psa30 value="0.0015412934" flag="0"/>
    </comp>
  </station>
  <station code="FETY" name="FETY" netid="KO" insttype="CMG-3ESP" lat="36.6353" lon="29.0835">
    <comp name="--.HHN">
      <acc value="0.0209459787" flag="0"/>
      <vel value="0.0060101237" flag="0"/>
      <psa03 value="0.0447429656" flag="0"/>
      <psa10 value="0.0032226379" flag="0"/>
      <psa30 value="0.0002709044" flag="0"/>
    </comp>
    <comp name="--.HHZ">
      <acc value="0.0156933161" flag="0"/>
      <vel value="0.0038073472" flag="0"/>
      <psa03 value="0.0251091667" flag="0"/>
      <psa10 value="0.0028466378" flag="0"/>
      <psa30 value="0.0001841947" flag="0"/>
    </comp>
    <comp name="--.HHE">
      <acc value="0.0200484502" flag="0"/>
      <vel value="0.0062284073" flag="0"/>
      <psa03 value="0.0381281708" flag="0"/>
      <psa10 value="0.0028149209" flag="0"/>
      <psa30 value="0.0002622290" flag="0"/>
    </comp>
  </station>
</stationlist>
