<?xml version="1.0" encoding="UTF-8" standalone="yes"?>
<!DOCTYPE earthquake SYSTEM "stationlist.dtd">
<stationlist created="" xmlns="ch.ethz.sed.shakemap.usgs.xml">
  <station code="RDI1" name="RDI1" netid="HI" insttype="CMG-5TD,ACCELEROMETER,GURALP" lat="36.4514" lon="28.224">
    <comp name="--.HNN">
      <acc value="0.0561963811" flag="0"/>
      <vel value="0.0285496024" flag="0"/>
      <psa03 value="0.2097697084" flag="0"/>
      <psa10 value="0.0197155807" flag="0"/>
      <psa30 value="0.0024068040" flag="0"/>
    </comp>
    <comp name="--.HNE">
      <acc value="0.0519015964" flag="0"/>
      <vel value="0.0252705059" flag="0"/>
      <psa03 value="0.1953956017" flag="0"/>
      <psa10 value="0.0192215235" flag="0"/>
      <psa30 value="0.0014446815" flag="0"/>
    </comp>
    <comp name="--.HNZ">
      <acc value="0.0251310650" flag="0"/>
      <vel value="0.0120913652" flag="0"/>
      <psa03 value="0.0803709930" flag="0"/>
      <psa10 value="0.0113338904" flag="0"/>
      <psa30 value="0.0011090233" flag="0"/>
    </comp>
  </station>
  <station code="ARG" name="ARG" netid="HL" insttype="LE3D20_DR24" lat="36.2136" lon="28.1212">
    <comp name="--.HHE">
      <acc value="0.0450410960" flag="0"/>
      <vel value="0.0155721241" flag="0"/>
      <psa03 value="0.0799058881" flag="0"/>
      <psa10 value="0.0112283686" flag="0"/>
      <psa30 value="0.0012737662" flag="0"/>
    </comp>
    <comp name="--.HHN">
      <acc value="0.0396038127" flag="0"/>
      <vel value="0.0115693998" flag="0"/>
      <psa03 value="0.0643640869" flag="0"/>
      <psa10 value="0.0122026496" flag="0"/>
      <psa30 value="0.0015414620" flag="0"/>
    </comp>
    <comp name="--.HHZ">
      <acc value="0.0247398553" flag="0"/>
      <vel value="0.0087589607" flag="0"/>
      <psa03 value="0.0384773875" flag="0"/>
      <psa10 value="0.0095119679" flag="0"/>
      <psa30 value="0.0007083781" flag="0"/>
    </comp>
  </station>
  <station code="DALY" name="DALY" netid="KO" insttype="CMG-3T" lat="36.8162" lon="28.6532">
    <comp name="--.HHZ">
      <acc value="0.0100380568" flag="0"/>
      <vel value="0.0044047642" flag="0"/>
      <psa03 value="0.0260922220" flag="0"/>
      <psa10 value="0.0032545517" flag="0"/>
      <psa30 value="0.0002539148" flag="0"/>
    </comp>
    <comp name="--.HHN">
      <acc value="0.0371216154" flag="0"/>
      <vel value="0.0117853638" flag="0"/>
      <psa03 value="0.0814460350" flag="0"/>
      <psa10 value="0.0031206840" flag="0"/>
      <psa30 value="0.0003362841" flag="0"/>
    </comp>
    <comp name="--.HHE">
      <acc value="0.0272116966" flag="0"/>
      <vel value="0.0091316289" flag="0"/>
      <psa03 value="0.0388754989" flag="0"/>
      <psa10 value="0.0040590621" flag="0"/>
      <psa30 value="0.0004403903" flag="0"/>
    </comp>
  </station>
  <station code="FETY" name="FETY" netid="KO" insttype="CMG-3ESP" lat="36.6353" lon="29.0835">
    <comp name="--.HHZ">
      <acc value="0.0156933160" flag="0"/>
      <vel value="0.0038073510" flag="0"/>
      <psa03 value="0.0251091667" flag="0"/>
      <psa10 value="0.0028466378" flag="0"/>
      <psa30 value="0.0001842976" flag="0"/>
    </comp>
    <comp name="--.HHN">
      <acc value="0.0209459787" flag="0"/>
      <vel value="0.0060101284" flag="0"/>
      <psa03 value="0.0447429656" flag="0"/>
      <psa10 value="0.0032226380" flag="0"/>
      <psa30 value="0.0002708628" flag="0"/>
    </comp>
    <comp name="--.HHE">
      <acc value="0.0200484501" flag="0"/>
      <vel value="0.0062284124" flag="0"/>
      <psa03 value="0.0381281708" flag="0"/>
      <psa10 value="0.0028149209" flag="0"/>
      <psa30 value="0.0002620822" flag="0"/>
    </comp>
  </station>
</stationlist>
