<stationlist created="1778138576">
	<station code="DPC" name="DPC" netid="CZ" source="Czech Regional Seismic Network (CZ)" insttype="" lat="50.3502" lon="16.3222">
		<comp name="--.HNE" depth="0.0">
			<acc value="0.000588103233776641" flag="0"/>
			<vel value="0.000196803540482611" flag="0"/>
			<psa03 value="0.00121030039130664" flag="0"/>
			<psa10 value="0.000279980187938301" flag="0"/>
			<psa30 value="3.20954627554148e-05" flag="0"/>
		</comp>
		<comp name="--.HNN" depth="0.0">
			<acc value="0.000534398260714689" flag="0"/>
			<vel value="0.000275948320826847" flag="0"/>
			<psa03 value="0.00150207671875222" flag="0"/>
			<psa10 value="0.000241502873380023" flag="0"/>
			<psa30 value="3.52653960552405e-05" flag="0"/>
		</comp>
		<comp name="--.HNZ" depth="0.0">
			<acc value="0.000586972551347293" flag="0"/>
			<vel value="0.000192116131884089" flag="0"/>
			<psa03 value="0.00120797821598737" flag="0"/>
			<psa10 value="0.000282649573756504" flag="0"/>
			<psa30 value="2.77527271538369e-05" flag="0"/>
		</comp>
	</station>
</stationlist>
