<?xml version="1.0" encoding="UTF-8" standalone="yes"?>
<!DOCTYPE earthquake SYSTEM "stationlist.dtd">
<stationlist created="" xmlns="ch.ethz.sed.shakemap.usgs.xml">
  <station code="CHVC" name="CHVC" netid="CZ" insttype="" lat="50.5881" lon="16.0547">
    <comp name="--.HHE">
      <acc value="0.0113326892" flag="0"/>
      <vel value="0.0046292265" flag="0"/>
      <psa03 value="0.0337979013" flag="0"/>
      <psa10 value="0.0034622291" flag="0"/>
      <psa30 value="0.0010125512" flag="0"/>
    </comp>
    <comp name="--.HHZ">
      <acc value="0.0070523071" flag="0"/>
      <vel value="0.0088916210" flag="0"/>
      <psa03 value="0.0178206489" flag="0"/>
      <psa10 value="0.0051262914" flag="0"/>
      <psa30 value="0.0018914015" flag="0"/>
    </comp>
    <comp name="--.HHN">
      <acc value="0.0111785696" flag="0"/>
      <vel value="0.0074211384" flag="0"/>
      <psa03 value="0.0236443208" flag="0"/>
      <psa10 value="0.0049740692" flag="0"/>
      <psa30 value="0.0015103274" flag="0"/>
    </comp>
  </station>
  <station code="UPC" name="UPC" netid="CZ" insttype="" lat="50.5074" lon="16.0121">
    <comp name="--.HHE">
      <acc value="0.0098620572" flag="0"/>
      <vel value="0.0044798058" flag="0"/>
      <psa03 value="0.0333554368" flag="0"/>
      <psa10 value="0.0029101420" flag="0"/>
      <psa30 value="0.0002259900" flag="0"/>
    </comp>
    <comp name="--.HHN">
      <acc value="0.0093403363" flag="0"/>
      <vel value="0.0038707029" flag="0"/>
      <psa03 value="0.0308119385" flag="0"/>
      <psa10 value="0.0033173472" flag="0"/>
      <psa30 value="0.0002372751" flag="0"/>
    </comp>
    <comp name="--.HHZ">
      <acc value="0.0036355205" flag="0"/>
      <vel value="0.0018139041" flag="0"/>
      <psa03 value="0.0115199127" flag="0"/>
      <psa10 value="0.0010980331" flag="0"/>
      <psa30 value="0.0002692655" flag="0"/>
    </comp>
  </station>
</stationlist>
