<?xml version="1.0" encoding="UTF-8" standalone="yes"?>
<!DOCTYPE earthquake SYSTEM "stationlist.dtd">
<stationlist created="" xmlns="ch.ethz.sed.shakemap.usgs.xml">
  <station code="AGRB" name="AGRB" netid="KO" insttype="CMG-3T" lat="39.5755" lon="42.992">
    <comp name="--.HHN">
      <acc value="0.0167526982" flag="0"/>
      <vel value="0.0107609748" flag="0"/>
      <psa03 value="0.0552993449" flag="0"/>
      <psa10 value="0.0150707101" flag="0"/>
      <psa30 value="0.0008174328" flag="0"/>
    </comp>
    <comp name="--.HHE">
      <acc value="0.0233672165" flag="0"/>
      <vel value="0.0108197006" flag="0"/>
      <psa03 value="0.0605647099" flag="0"/>
      <psa10 value="0.0132525047" flag="0"/>
      <psa30 value="0.0015751490" flag="0"/>
    </comp>
    <comp name="--.HHZ">
      <acc value="0.0136166445" flag="0"/>
      <vel value="0.0104825229" flag="0"/>
      <psa03 value="0.0387887626" flag="0"/>
      <psa10 value="0.0102820134" flag="0"/>
      <psa30 value="0.0010801330" flag="0"/>
    </comp>
  </station>
  <station code="AKDM" name="AKDM" netid="KO" insttype="CMG-3ESP" lat="38.3285" lon="42.98">
    <comp name="--.HHE">
      <acc value="0.0232778287" flag="0"/>
      <vel value="0.0342651438" flag="0"/>
      <psa03 value="0.0727948344" flag="0"/>
      <psa10 value="0.0276723067" flag="0"/>
      <psa30 value="0.0048717382" flag="0"/>
    </comp>
    <comp name="--.HHZ">
      <acc value="0.0234444226" flag="0"/>
      <vel value="0.0161690332" flag="0"/>
      <psa03 value="0.0766628981" flag="0"/>
      <psa10 value="0.0349382336" flag="0"/>
      <psa30 value="0.0029615087" flag="0"/>
    </comp>
    <comp name="--.HHN">
      <acc value="0.0284384416" flag="0"/>
      <vel value="0.0222171640" flag="0"/>
      <psa03 value="0.0837259405" flag="0"/>
      <psa10 value="0.0349072165" flag="0"/>
      <psa30 value="0.0045550709" flag="0"/>
    </comp>
  </station>
  <station code="CLDR" name="CLDR" netid="KO" insttype="CMG-3ESP" lat="39.144" lon="43.9172">
    <comp name="--.HHE">
      <acc value="0.0521085501" flag="0"/>
      <vel value="0.0376868658" flag="0"/>
      <psa03 value="0.1785284172" flag="0"/>
      <psa10 value="0.0236815785" flag="0"/>
      <psa30 value="0.0022393952" flag="0"/>
    </comp>
    <comp name="--.HHN">
      <acc value="0.0579829779" flag="0"/>
      <vel value="0.0306368942" flag="0"/>
      <psa03 value="0.2760749139" flag="0"/>
      <psa10 value="0.0219802203" flag="0"/>
      <psa30 value="0.0025132453" flag="0"/>
    </comp>
    <comp name="--.HHZ">
      <acc value="0.0179947571" flag="0"/>
      <vel value="0.0104979510" flag="0"/>
      <psa03 value="0.0715613039" flag="0"/>
      <psa10 value="0.0151480234" flag="0"/>
      <psa30 value="0.0009592346" flag="0"/>
    </comp>
  </station>
  <station code="GURO" name="GURO" netid="KO" insttype="CMG-3T" lat="38.5509" lon="42.0322">
    <comp name="--.HHE">
      <acc value="0.0509558063" flag="0"/>
      <vel value="0.0171568022" flag="0"/>
      <psa03 value="0.1404122357" flag="0"/>
      <psa10 value="0.0082050514" flag="0"/>
      <psa30 value="0.0005206465" flag="0"/>
    </comp>
    <comp name="--.HHN">
      <acc value="0.0289452800" flag="0"/>
      <vel value="0.0090842970" flag="0"/>
      <psa03 value="0.0778430443" flag="0"/>
      <psa10 value="0.0066668759" flag="0"/>
      <psa30 value="0.0003643590" flag="0"/>
    </comp>
    <comp name="--.HHZ">
      <acc value="0.0543845034" flag="0"/>
      <vel value="0.0206066427" flag="0"/>
      <psa03 value="0.1024066152" flag="0"/>
      <psa10 value="0.0102298923" flag="0"/>
      <psa30 value="0.0004962765" flag="0"/>
    </comp>
  </station>
  <station code="MLAZ" name="MLAZ" netid="KO" insttype="CMG-3T" lat="39.141" lon="42.5496">
    <comp name="--.HHE">
      <acc value="0.0390627357" flag="0"/>
      <vel value="0.0332261746" flag="0"/>
      <psa03 value="0.1263653666" flag="0"/>
      <psa10 value="0.0582832004" flag="0"/>
      <psa30 value="0.0052712784" flag="0"/>
    </comp>
    <comp name="--.HHN">
      <acc value="0.0366756084" flag="0"/>
      <vel value="0.0283656192" flag="0"/>
      <psa03 value="0.1274779314" flag="0"/>
      <psa10 value="0.0408139697" flag="0"/>
      <psa30 value="0.0052867732" flag="0"/>
    </comp>
    <comp name="--.HHZ">
      <acc value="0.0245837097" flag="0"/>
      <vel value="0.0162355141" flag="0"/>
      <psa03 value="0.0539955963" flag="0"/>
      <psa10 value="0.0266266014" flag="0"/>
      <psa30 value="0.0018562016" flag="0"/>
    </comp>
  </station>
  <station code="VANB" name="VANB" netid="KO" insttype="CMG-3T" lat="38.509" lon="43.4056">
    <comp name="--.HHE">
      <acc value="0.1006407422" flag="0"/>
      <vel value="0.0718665372" flag="0"/>
      <psa03 value="0.1915143145" flag="0"/>
      <psa10 value="0.0711459490" flag="0"/>
      <psa30 value="0.0082151915" flag="0"/>
    </comp>
    <comp name="--.HHZ">
      <acc value="0.0478252241" flag="0"/>
      <vel value="0.0315053102" flag="0"/>
      <psa03 value="0.1043157363" flag="0"/>
      <psa10 value="0.0404720551" flag="0"/>
      <psa30 value="0.0034190878" flag="0"/>
    </comp>
    <comp name="--.HHN">
      <acc value="0.0641845759" flag="0"/>
      <vel value="0.0452351615" flag="0"/>
      <psa03 value="0.1544864526" flag="0"/>
      <psa10 value="0.0788827322" flag="0"/>
      <psa30 value="0.0055269482" flag="0"/>
    </comp>
  </station>
</stationlist>
