<?xml version="1.0" encoding="UTF-8" standalone="yes"?>
<!DOCTYPE earthquake SYSTEM "stationlist.dtd">
<stationlist created="" xmlns="ch.ethz.sed.shakemap.usgs.xml">
  <station code="CUKT" name="CUKT" netid="KO" insttype="CMG-3ESP" lat="37.2473" lon="43.6077">
    <comp name="--.HHZ">
      <acc value="0.1526188380" flag="0"/>
      <vel value="0.0918434755" flag="0"/>
      <psa03 value="0.3845908298" flag="0"/>
      <psa10 value="0.0582627474" flag="0"/>
      <psa30 value="0.0068529574" flag="0"/>
    </comp>
    <comp name="--.HHN">
      <acc value="0.2053510090" flag="0"/>
      <vel value="0.0946034898" flag="0"/>
      <psa03 value="0.3680425146" flag="0"/>
      <psa10 value="0.1216824867" flag="0"/>
      <psa30 value="0.0069316415" flag="0"/>
    </comp>
    <comp name="--.HHE">
      <acc value="0.4374607041" flag="0"/>
      <vel value="0.2452164711" flag="0"/>
      <psa03 value="0.8603259666" flag="0"/>
      <psa10 value="0.1746543438" flag="0"/>
      <psa30 value="0.0180540519" flag="0"/>
    </comp>
  </station>
</stationlist>
