<?xml version="1.0" encoding="UTF-8" standalone="yes"?>
<!DOCTYPE earthquake SYSTEM "stationlist.dtd">
<stationlist created="" xmlns="ch.ethz.sed.shakemap.usgs.xml">
  <station code="GAZ" name="GAZ" netid="KO" insttype="CMG-3T" lat="37.1721" lon="37.2096">
    <comp name="--.HHZ">
      <acc value="0.0040416905" flag="0"/>
      <vel value="0.0022306444" flag="0"/>
      <psa03 value="0.0120828634" flag="0"/>
      <psa10 value="0.0026122555" flag="0"/>
      <psa30 value="0.0001684891" flag="0"/>
    </comp>
  </station>
  <station code="KMRS" name="KMRS" netid="KO" insttype="CMG-3T" lat="37.5087" lon="36.9">
    <comp name="--.HHN">
      <acc value="0.0079054260" flag="0"/>
      <vel value="0.0057316633" flag="0"/>
      <psa03 value="0.0194759615" flag="0"/>
      <psa10 value="0.0042962357" flag="0"/>
      <psa30 value="0.0003413363" flag="0"/>
    </comp>
    <comp name="--.HHE">
      <acc value="0.0040560957" flag="0"/>
      <vel value="0.0029412932" flag="0"/>
      <psa03 value="0.0089105743" flag="0"/>
      <psa10 value="0.0025025695" flag="0"/>
      <psa30 value="0.0003703697" flag="0"/>
    </comp>
    <comp name="--.HHZ">
      <acc value="0.0047106487" flag="0"/>
      <vel value="0.0024497180" flag="0"/>
      <psa03 value="0.0104318356" flag="0"/>
      <psa10 value="0.0024941505" flag="0"/>
      <psa30 value="0.0002464547" flag="0"/>
    </comp>
  </station>
  <station code="ANDN" name="ANDN" netid="TU" insttype="T" lat="37.58" lon="36.3452">
    <comp name="--.HHN">
      <acc value="0.0144303095" flag="0"/>
      <vel value="0.0100009979" flag="0"/>
      <psa03 value="0.0394941623" flag="0"/>
      <psa10 value="0.0126738193" flag="0"/>
      <psa30 value="0.0008594191" flag="0"/>
    </comp>
    <comp name="--.HHZ">
      <acc value="0.0065820263" flag="0"/>
      <vel value="0.0079897665" flag="0"/>
      <psa03 value="0.0185250516" flag="0"/>
      <psa10 value="0.0081948926" flag="0"/>
      <psa30 value="0.0013158062" flag="0"/>
    </comp>
    <comp name="--.HHE">
      <acc value="0.0148875910" flag="0"/>
      <vel value="0.0100071565" flag="0"/>
      <psa03 value="0.0455761261" flag="0"/>
      <psa10 value="0.0157408188" flag="0"/>
      <psa30 value="0.0016129842" flag="0"/>
    </comp>
  </station>
</stationlist>
