<?xml version="1.0" encoding="UTF-8" standalone="yes"?>
<!DOCTYPE earthquake SYSTEM "stationlist.dtd">
<stationlist created="" xmlns="ch.ethz.sed.shakemap.usgs.xml">
  <station code="APE" name="APE" netid="GE" insttype="STS-2/N" lat="37.0727" lon="25.523">
    <comp name="--.HHE">
      <acc value="0.2311852924" flag="0"/>
      <vel value="0.0573600546" flag="0"/>
      <psa03 value="0.2206433667" flag="0"/>
      <psa10 value="0.0166916417" flag="0"/>
      <psa30 value="0.0019040025" flag="0"/>
    </comp>
    <comp name="--.HHN">
      <acc value="0.2368370469" flag="0"/>
      <vel value="0.0454037183" flag="0"/>
      <psa03 value="0.1884413996" flag="0"/>
      <psa10 value="0.0139782632" flag="0"/>
      <psa30 value="0.0013848736" flag="0"/>
    </comp>
    <comp name="--.HHZ">
      <acc value="0.0770432344" flag="0"/>
      <vel value="0.0217433839" flag="0"/>
      <psa03 value="0.0914743747" flag="0"/>
      <psa10 value="0.0129880582" flag="0"/>
      <psa30 value="0.0011650204" flag="0"/>
    </comp>
  </station>
  <station code="APE" name="APE" netid="HL" insttype="120" lat="37.0727" lon="25.523">
    <comp name="--.HHZ">
      <acc value="0.0738684461" flag="0"/>
      <vel value="0.0208642123" flag="0"/>
      <psa03 value="0.0888481675" flag="0"/>
      <psa10 value="0.0128409745" flag="0"/>
      <psa30 value="0.0011628110" flag="0"/>
    </comp>
    <comp name="--.HHN">
      <acc value="0.2044073596" flag="0"/>
      <vel value="0.0426810408" flag="0"/>
      <psa03 value="0.1825019026" flag="0"/>
      <psa10 value="0.0138244239" flag="0"/>
      <psa30 value="0.0013769940" flag="0"/>
    </comp>
    <comp name="--.HHE">
      <acc value="0.2178415038" flag="0"/>
      <vel value="0.0552123736" flag="0"/>
      <psa03 value="0.2141122334" flag="0"/>
      <psa10 value="0.0164826939" flag="0"/>
      <psa30 value="0.0018632178" flag="0"/>
    </comp>
  </station>
  <station code="MHLO" name="MHLO" netid="HL" insttype="20" lat="36.6898" lon="24.4017">
    <comp name="--.HHE">
      <acc value="0.0655742084" flag="0"/>
      <vel value="0.0231776291" flag="0"/>
      <psa03 value="0.1603194593" flag="0"/>
      <psa10 value="0.0300103885" flag="0"/>
      <psa30 value="0.0018923057" flag="0"/>
    </comp>
    <comp name="--.HHN">
      <acc value="0.0654043178" flag="0"/>
      <vel value="0.0239468788" flag="0"/>
      <psa03 value="0.1583446291" flag="0"/>
      <psa10 value="0.0262285001" flag="0"/>
      <psa30 value="0.0017387959" flag="0"/>
    </comp>
    <comp name="--.HHZ">
      <acc value="0.0306757624" flag="0"/>
      <vel value="0.0153068340" flag="0"/>
      <psa03 value="0.0748489958" flag="0"/>
      <psa10 value="0.0136462057" flag="0"/>
      <psa30 value="0.0015168756" flag="0"/>
    </comp>
  </station>
  <station code="CMBO" name="CMBO" netid="HT" insttype="120P," lat="36.4709" lon="25.4056">
    <comp name="--.HHE">
      <acc value="0.1801790635" flag="0"/>
      <vel value="0.0477493361" flag="0"/>
      <psa03 value="0.2540258739" flag="0"/>
      <psa10 value="0.0430180741" flag="0"/>
      <psa30 value="0.0059356597" flag="0"/>
    </comp>
    <comp name="--.HHN">
      <acc value="0.2962313697" flag="0"/>
      <vel value="0.0824292639" flag="0"/>
      <psa03 value="0.4006803846" flag="0"/>
      <psa10 value="0.0471786325" flag="0"/>
      <psa30 value="0.0048430944" flag="0"/>
    </comp>
  </station>
</stationlist>
