<?xml version="1.0" encoding="UTF-8" standalone="yes"?>
<!DOCTYPE earthquake SYSTEM "stationlist.dtd">
<stationlist created="" xmlns="ch.ethz.sed.shakemap.usgs.xml">
  <station code="APE" name="APE" netid="GE" insttype="STS-2/N" lat="37.0727" lon="25.523">
    <comp name="--.HHZ">
      <acc value="0.0770432344" flag="0"/>
      <vel value="0.0217433830" flag="0"/>
      <psa03 value="0.0914743747" flag="0"/>
      <psa10 value="0.0129880581" flag="0"/>
      <psa30 value="0.0011650221" flag="0"/>
    </comp>
    <comp name="--.HHN">
      <acc value="0.2368370469" flag="0"/>
      <vel value="0.0454037237" flag="0"/>
      <psa03 value="0.1884413996" flag="0"/>
      <psa10 value="0.0139782631" flag="0"/>
      <psa30 value="0.0013848055" flag="0"/>
    </comp>
    <comp name="--.HHE">
      <acc value="0.2311852924" flag="0"/>
      <vel value="0.0573600556" flag="0"/>
      <psa03 value="0.2206433667" flag="0"/>
      <psa10 value="0.0166916416" flag="0"/>
      <psa30 value="0.0019039791" flag="0"/>
    </comp>
  </station>
</stationlist>
