<?xml version="1.0" encoding="UTF-8" standalone="yes"?>
<!DOCTYPE earthquake SYSTEM "stationlist.dtd">
<stationlist created="" xmlns="ch.ethz.sed.shakemap.usgs.xml">
  <station code="DARE" name="DARE" netid="KO" insttype="CMG-3ESP" lat="38.5712" lon="37.4832">
    <comp name="--.HHE">
      <acc value="0.0306276240" flag="0"/>
      <vel value="0.0513455126" flag="0"/>
      <psa03 value="0.0522107541" flag="0"/>
      <psa10 value="0.0566943452" flag="0"/>
      <psa30 value="0.0218921229" flag="0"/>
    </comp>
    <comp name="--.HHN">
      <acc value="0.0232311512" flag="0"/>
      <vel value="0.0291385442" flag="0"/>
      <psa03 value="0.0296416712" flag="0"/>
      <psa10 value="0.0581248945" flag="0"/>
      <psa30 value="0.0093964056" flag="0"/>
    </comp>
    <comp name="--.HHZ">
      <acc value="0.0207025475" flag="0"/>
      <vel value="0.0280226725" flag="0"/>
      <psa03 value="0.0359946393" flag="0"/>
      <psa10 value="0.0640391816" flag="0"/>
      <psa30 value="0.0055306925" flag="0"/>
    </comp>
  </station>
  <station code="GAZ" name="GAZ" netid="KO" insttype="CMG-3T" lat="37.1721" lon="37.2096">
    <comp name="--.HHE">
      <acc value="0.0580356057" flag="0"/>
      <vel value="0.1541308214" flag="0"/>
      <psa03 value="0.0802091182" flag="0"/>
      <psa10 value="0.2004358429" flag="0"/>
      <psa30 value="0.0668706201" flag="0"/>
    </comp>
    <comp name="--.HHN">
      <acc value="0.0376884954" flag="0"/>
      <vel value="0.0605690268" flag="0"/>
      <psa03 value="0.0721245386" flag="0"/>
      <psa10 value="0.1203224661" flag="0"/>
      <psa30 value="0.0105659238" flag="0"/>
    </comp>
    <comp name="--.HHZ">
      <acc value="0.0382069450" flag="0"/>
      <vel value="0.0380936609" flag="0"/>
      <psa03 value="0.0543284566" flag="0"/>
      <psa10 value="0.0560223737" flag="0"/>
      <psa30 value="0.0096800809" flag="0"/>
    </comp>
  </station>
  <station code="KHMN" name="KHMN" netid="KO" insttype="CMG-5T" lat="37.3916" lon="37.1574">
    <comp name="--.HNN">
      <acc value="0.0580077644" flag="0"/>
      <vel value="0.1024475505" flag="0"/>
      <psa03 value="0.0948068512" flag="0"/>
      <psa10 value="0.0988650671" flag="0"/>
      <psa30 value="0.0589048602" flag="0"/>
    </comp>
    <comp name="--.HNZ">
      <acc value="0.0402228773" flag="0"/>
      <vel value="0.0535570854" flag="0"/>
      <psa03 value="0.0562510796" flag="0"/>
      <psa10 value="0.0778471571" flag="0"/>
      <psa30 value="0.0206826265" flag="0"/>
    </comp>
    <comp name="--.HNE">
      <acc value="0.0559989053" flag="0"/>
      <vel value="0.1212389625" flag="0"/>
      <psa03 value="0.0978137544" flag="0"/>
      <psa10 value="0.1128385623" flag="0"/>
      <psa30 value="0.0587343142" flag="0"/>
    </comp>
  </station>
  <station code="SARI" name="SARI" netid="KO" insttype="CMG-3T" lat="38.4072" lon="36.4181">
    <comp name="--.HHN">
      <acc value="0.0288505931" flag="0"/>
      <vel value="0.0294286336" flag="0"/>
      <psa03 value="0.0639541871" flag="0"/>
      <psa10 value="0.0465281395" flag="0"/>
      <psa30 value="0.0095061168" flag="0"/>
    </comp>
    <comp name="--.HHE">
      <acc value="0.0335326963" flag="0"/>
      <vel value="0.0373730743" flag="0"/>
      <psa03 value="0.0678571538" flag="0"/>
      <psa10 value="0.0702702891" flag="0"/>
      <psa30 value="0.0079132984" flag="0"/>
    </comp>
    <comp name="--.HHZ">
      <acc value="0.0182835302" flag="0"/>
      <vel value="0.0227617323" flag="0"/>
      <psa03 value="0.0481284757" flag="0"/>
      <psa10 value="0.0378465929" flag="0"/>
      <psa30 value="0.0040606028" flag="0"/>
    </comp>
  </station>
  <station code="URFA" name="URFA" netid="KO" insttype="CMG-3ESP" lat="37.4409" lon="38.8213">
    <comp name="--.HHE">
      <acc value="0.0714889227" flag="0"/>
      <vel value="0.0747427676" flag="0"/>
      <psa03 value="0.1368536635" flag="0"/>
      <psa10 value="0.0753915984" flag="0"/>
      <psa30 value="0.0076726826" flag="0"/>
    </comp>
    <comp name="--.HHZ">
      <acc value="0.0341801303" flag="0"/>
      <vel value="0.0452517003" flag="0"/>
      <psa03 value="0.0749440643" flag="0"/>
      <psa10 value="0.0561859054" flag="0"/>
      <psa30 value="0.0073316379" flag="0"/>
    </comp>
    <comp name="--.HHN">
      <acc value="0.0623052419" flag="0"/>
      <vel value="0.0668974823" flag="0"/>
      <psa03 value="0.2004651353" flag="0"/>
      <psa10 value="0.0786063165" flag="0"/>
      <psa30 value="0.0081053343" flag="0"/>
    </comp>
  </station>
  <station code="ANDN" name="ANDN" netid="TU" insttype="T" lat="37.58" lon="36.3452">
    <comp name="--.HHZ">
      <acc value="0.0449605665" flag="0"/>
      <vel value="0.0561160571" flag="0"/>
      <psa03 value="0.0844174084" flag="0"/>
      <psa10 value="0.1003975920" flag="0"/>
      <psa30 value="0.0368909826" flag="0"/>
    </comp>
    <comp name="--.HHN">
      <acc value="0.0979127269" flag="0"/>
      <vel value="0.1212967352" flag="0"/>
      <psa03 value="0.2225939585" flag="0"/>
      <psa10 value="0.1605725832" flag="0"/>
      <psa30 value="0.0598117267" flag="0"/>
    </comp>
    <comp name="--.HHE">
      <acc value="0.0753505122" flag="0"/>
      <vel value="0.0801203937" flag="0"/>
      <psa03 value="0.1847522035" flag="0"/>
      <psa10 value="0.1367267314" flag="0"/>
      <psa30 value="0.0379373884" flag="0"/>
    </comp>
  </station>
</stationlist>
