<?xml version="1.0" encoding="UTF-8" standalone="yes"?>
<!DOCTYPE earthquake SYSTEM "stationlist.dtd">
<stationlist created="" xmlns="ch.ethz.sed.shakemap.usgs.xml">
  <station code="DARE" name="DARE" netid="KO" insttype="CMG-3ESP" lat="38.5712" lon="37.4832">
    <comp name="--.HHN">
      <acc value="0.0232311510" flag="0"/>
      <vel value="0.0291385427" flag="0"/>
      <psa03 value="0.0296416712" flag="0"/>
      <psa10 value="0.0581248945" flag="0"/>
      <psa30 value="0.0093964088" flag="0"/>
    </comp>
    <comp name="--.HHZ">
      <acc value="0.0207025475" flag="0"/>
      <vel value="0.0280226737" flag="0"/>
      <psa03 value="0.0359946393" flag="0"/>
      <psa10 value="0.0640391816" flag="0"/>
      <psa30 value="0.0055306959" flag="0"/>
    </comp>
    <comp name="--.HHE">
      <acc value="0.0306276240" flag="0"/>
      <vel value="0.0513455115" flag="0"/>
      <psa03 value="0.0522107541" flag="0"/>
      <psa10 value="0.0566943452" flag="0"/>
      <psa30 value="0.0218921197" flag="0"/>
    </comp>
  </station>
  <station code="GAZ" name="GAZ" netid="KO" insttype="CMG-3T" lat="37.1721" lon="37.2096">
    <comp name="--.HHN">
      <acc value="0.0376884956" flag="0"/>
      <vel value="0.0605690268" flag="0"/>
      <psa03 value="0.0721245386" flag="0"/>
      <psa10 value="0.1203224661" flag="0"/>
      <psa30 value="0.0105659247" flag="0"/>
    </comp>
    <comp name="--.HHE">
      <acc value="0.0580356055" flag="0"/>
      <vel value="0.1541308217" flag="0"/>
      <psa03 value="0.0802091182" flag="0"/>
      <psa10 value="0.2004358429" flag="0"/>
      <psa30 value="0.0668706232" flag="0"/>
    </comp>
    <comp name="--.HHZ">
      <acc value="0.0382069449" flag="0"/>
      <vel value="0.0380936614" flag="0"/>
      <psa03 value="0.0543284566" flag="0"/>
      <psa10 value="0.0560223737" flag="0"/>
      <psa30 value="0.0096800820" flag="0"/>
    </comp>
  </station>
  <station code="KHMN" name="KHMN" netid="KO" insttype="CMG-5T" lat="37.3916" lon="37.1574">
    <comp name="--.HNZ">
      <acc value="0.0402228805" flag="0"/>
      <vel value="0.0535570866" flag="0"/>
      <psa03 value="0.0562510796" flag="0"/>
      <psa10 value="0.0778471572" flag="0"/>
      <psa30 value="0.0206827710" flag="0"/>
    </comp>
    <comp name="--.HNN">
      <acc value="0.0580077679" flag="0"/>
      <vel value="0.1024475488" flag="0"/>
      <psa03 value="0.0948068512" flag="0"/>
      <psa10 value="0.0988650639" flag="0"/>
      <psa30 value="0.0589049786" flag="0"/>
    </comp>
    <comp name="--.HNE">
      <acc value="0.0559988997" flag="0"/>
      <vel value="0.1212389562" flag="0"/>
      <psa03 value="0.0978137544" flag="0"/>
      <psa10 value="0.1128385608" flag="0"/>
      <psa30 value="0.0587342495" flag="0"/>
    </comp>
  </station>
  <station code="SARI" name="SARI" netid="KO" insttype="CMG-3T" lat="38.4072" lon="36.4181">
    <comp name="--.HHZ">
      <acc value="0.0182835302" flag="0"/>
      <vel value="0.0227617321" flag="0"/>
      <psa03 value="0.0481284757" flag="0"/>
      <psa10 value="0.0378465929" flag="0"/>
      <psa30 value="0.0040606008" flag="0"/>
    </comp>
    <comp name="--.HHE">
      <acc value="0.0335326963" flag="0"/>
      <vel value="0.0373730741" flag="0"/>
      <psa03 value="0.0678571538" flag="0"/>
      <psa10 value="0.0702702891" flag="0"/>
      <psa30 value="0.0079133004" flag="0"/>
    </comp>
    <comp name="--.HHN">
      <acc value="0.0288505932" flag="0"/>
      <vel value="0.0294286334" flag="0"/>
      <psa03 value="0.0639541871" flag="0"/>
      <psa10 value="0.0465281395" flag="0"/>
      <psa30 value="0.0095061206" flag="0"/>
    </comp>
  </station>
  <station code="URFA" name="URFA" netid="KO" insttype="CMG-3ESP" lat="37.4409" lon="38.8213">
    <comp name="--.HHE">
      <acc value="0.0714889227" flag="0"/>
      <vel value="0.0747427671" flag="0"/>
      <psa03 value="0.1368536635" flag="0"/>
      <psa10 value="0.0753915984" flag="0"/>
      <psa30 value="0.0076726790" flag="0"/>
    </comp>
    <comp name="--.HHN">
      <acc value="0.0623052419" flag="0"/>
      <vel value="0.0668974846" flag="0"/>
      <psa03 value="0.2004651353" flag="0"/>
      <psa10 value="0.0786063165" flag="0"/>
      <psa30 value="0.0081053237" flag="0"/>
    </comp>
    <comp name="--.HHZ">
      <acc value="0.0341801302" flag="0"/>
      <vel value="0.0452517008" flag="0"/>
      <psa03 value="0.0749440643" flag="0"/>
      <psa10 value="0.0561859054" flag="0"/>
      <psa30 value="0.0073316379" flag="0"/>
    </comp>
  </station>
  <station code="ANDN" name="ANDN" netid="TU" insttype="T" lat="37.58" lon="36.3452">
    <comp name="--.HHE">
      <acc value="0.0753505121" flag="0"/>
      <vel value="0.0801203939" flag="0"/>
      <psa03 value="0.1847522035" flag="0"/>
      <psa10 value="0.1367267314" flag="0"/>
      <psa30 value="0.0379373896" flag="0"/>
    </comp>
    <comp name="--.HHN">
      <acc value="0.0979127269" flag="0"/>
      <vel value="0.1212967351" flag="0"/>
      <psa03 value="0.2225939585" flag="0"/>
      <psa10 value="0.1605725832" flag="0"/>
      <psa30 value="0.0598117265" flag="0"/>
    </comp>
    <comp name="--.HHZ">
      <acc value="0.0449605665" flag="0"/>
      <vel value="0.0561160569" flag="0"/>
      <psa03 value="0.0844174084" flag="0"/>
      <psa10 value="0.1003975920" flag="0"/>
      <psa30 value="0.0368909822" flag="0"/>
    </comp>
  </station>
</stationlist>
