<?xml version="1.0" encoding="UTF-8" standalone="yes"?>
<!DOCTYPE earthquake SYSTEM "stationlist.dtd">
<stationlist created="" xmlns="ch.ethz.sed.shakemap.usgs.xml">
  <station code="AKS" name="AKS" netid="KO" insttype="CMG-5T" commtype="DIG" lat="38.8785" lon="27.8129">
    <comp name="--.HNZ">
      <acc value="0.1020868890" flag="0"/>
      <vel value="0.0533919346" flag="0"/>
      <psa03 value="0.3674298428" flag="0"/>
      <psa10 value="0.0591232841" flag="0"/>
      <psa30 value="0.0064170977" flag="0"/>
    </comp>
    <comp name="--.HNN">
      <acc value="0.2022554538" flag="0"/>
      <vel value="0.1019667835" flag="0"/>
      <psa03 value="0.8399165878" flag="0"/>
      <psa10 value="0.1119275359" flag="0"/>
      <psa30 value="0.0215432528" flag="0"/>
    </comp>
    <comp name="--.HNE">
      <acc value="0.2159093694" flag="0"/>
      <vel value="0.1135293025" flag="0"/>
      <psa03 value="0.5376241425" flag="0"/>
      <psa10 value="0.1349060712" flag="0"/>
      <psa30 value="0.0159710530" flag="0"/>
    </comp>
  </station>
  <station code="ALT" name="ALT" netid="KO" insttype="CMG-5T" commtype="DIG" lat="39.0541" lon="30.1104">
    <comp name="--.HNN">
      <acc value="0.0883363820" flag="0"/>
      <vel value="0.0524894102" flag="0"/>
      <psa03 value="0.2033116776" flag="0"/>
      <psa10 value="0.0394224691" flag="0"/>
      <psa30 value="0.0059153308" flag="0"/>
    </comp>
    <comp name="--.HNE">
      <acc value="0.0701672495" flag="0"/>
      <vel value="0.0306435136" flag="0"/>
      <psa03 value="0.1567361070" flag="0"/>
      <psa10 value="0.0194932070" flag="0"/>
      <psa30 value="0.0037894281" flag="0"/>
    </comp>
    <comp name="--.HNZ">
      <acc value="0.0669881841" flag="0"/>
      <vel value="0.0400565523" flag="0"/>
      <psa03 value="0.1125929071" flag="0"/>
      <psa10 value="0.0211529723" flag="0"/>
      <psa30 value="0.0027333528" flag="0"/>
    </comp>
  </station>
  <station code="ARMT" name="ARMT" netid="KO" insttype="CMG-3ESP" commtype="DIG" lat="40.5683" lon="28.866">
    <comp name="--.HHE">
      <acc value="0.1157257674" flag="0"/>
      <vel value="0.0758000810" flag="0"/>
      <psa03 value="0.2484778849" flag="0"/>
      <psa10 value="0.0577411164" flag="0"/>
      <psa30 value="0.0085701511" flag="0"/>
    </comp>
  </station>
  <station code="AYDB" name="AYDB" netid="KO" insttype="CMG-3ESPC" commtype="DIG" lat="37.9467" lon="27.8908">
    <comp name="--.HHZ">
      <acc value="0.0262538945" flag="0"/>
      <vel value="0.0316597617" flag="0"/>
      <psa03 value="0.0867188741" flag="0"/>
      <psa10 value="0.0278527514" flag="0"/>
      <psa30 value="0.0074258477" flag="0"/>
    </comp>
  </station>
  <station code="BABD" name="BABD" netid="KO" insttype="CMG-6T" commtype="DIG" lat="37.802" lon="28.8531">
    <comp name="--.HHE">
      <acc value="0.0154734178" flag="0"/>
      <vel value="0.0099899965" flag="0"/>
      <psa03 value="0.0652444208" flag="0"/>
      <psa10 value="0.0156202180" flag="0"/>
      <psa30 value="0.0008869480" flag="0"/>
    </comp>
    <comp name="--.HHN">
      <acc value="0.0195104163" flag="0"/>
      <vel value="0.0114569189" flag="0"/>
      <psa03 value="0.0495092739" flag="0"/>
      <psa10 value="0.0117765825" flag="0"/>
      <psa30 value="0.0021117855" flag="0"/>
    </comp>
    <comp name="--.HHZ">
      <acc value="0.0229130198" flag="0"/>
      <vel value="0.0157324562" flag="0"/>
      <psa03 value="0.0672986360" flag="0"/>
      <psa10 value="0.0128788359" flag="0"/>
      <psa30 value="0.0019254619" flag="0"/>
    </comp>
  </station>
  <station code="BAKL" name="BAKL" netid="KO" insttype="CMG-6T" commtype="DIG" lat="37.9793" lon="29.6135">
    <comp name="--.HHN">
      <acc value="0.0370794356" flag="0"/>
      <vel value="0.0468664697" flag="0"/>
      <psa03 value="0.0991644337" flag="0"/>
      <psa10 value="0.0678020309" flag="0"/>
      <psa30 value="0.0094296132" flag="0"/>
    </comp>
    <comp name="--.HHZ">
      <acc value="0.0281554924" flag="0"/>
      <vel value="0.0240436227" flag="0"/>
      <psa03 value="0.0746114251" flag="0"/>
      <psa10 value="0.0324537163" flag="0"/>
      <psa30 value="0.0060437627" flag="0"/>
    </comp>
    <comp name="--.HHE">
      <acc value="0.0348784130" flag="0"/>
      <vel value="0.0286561298" flag="0"/>
      <psa03 value="0.1661275523" flag="0"/>
      <psa10 value="0.0415995310" flag="0"/>
      <psa30 value="0.0089154440" flag="0"/>
    </comp>
  </station>
  <station code="BALB" name="BALB" netid="KO" insttype="CMG-5T" commtype="DIG" lat="39.6507" lon="27.8642">
    <comp name="--.HNE">
      <acc value="0.3669699662" flag="0"/>
      <vel value="0.2046493930" flag="0"/>
      <psa03 value="0.7566059751" flag="0"/>
      <psa10 value="0.2220375695" flag="0"/>
      <psa30 value="0.0086782019" flag="0"/>
    </comp>
    <comp name="--.HNN">
      <acc value="0.2721482759" flag="0"/>
      <vel value="0.2066574612" flag="0"/>
      <psa03 value="0.7019742426" flag="0"/>
      <psa10 value="0.1707155946" flag="0"/>
      <psa30 value="0.0232305343" flag="0"/>
    </comp>
    <comp name="--.HNZ">
      <acc value="0.1338517758" flag="0"/>
      <vel value="0.0720940374" flag="0"/>
      <psa03 value="0.3028119742" flag="0"/>
      <psa10 value="0.0701413491" flag="0"/>
      <psa30 value="0.0056198215" flag="0"/>
    </comp>
  </station>
  <station code="BASM" name="BASM" netid="KO" insttype="CMG-5T" commtype="DIG" lat="37.9194" lon="30.035">
    <comp name="--.HNZ">
      <acc value="0.0316338354" flag="0"/>
      <vel value="0.0262473468" flag="0"/>
      <psa03 value="0.0811593348" flag="0"/>
      <psa10 value="0.0508547747" flag="0"/>
      <psa30 value="0.0027272420" flag="0"/>
    </comp>
    <comp name="--.HNN">
      <acc value="0.0484588668" flag="0"/>
      <vel value="0.0472301910" flag="0"/>
      <psa03 value="0.1309205657" flag="0"/>
      <psa10 value="0.1063512941" flag="0"/>
      <psa30 value="0.0154420263" flag="0"/>
    </comp>
    <comp name="--.HNE">
      <acc value="0.0597902745" flag="0"/>
      <vel value="0.0640914484" flag="0"/>
      <psa03 value="0.1433087084" flag="0"/>
      <psa10 value="0.1014293101" flag="0"/>
      <psa30 value="0.0089907099" flag="0"/>
    </comp>
  </station>
  <station code="DST" name="DST" netid="KO" insttype="CMG-5T" commtype="DIG" lat="39.6041" lon="28.6267">
    <comp name="--.HNE">
      <acc value="0.4542519346" flag="0"/>
      <vel value="0.4104859421" flag="0"/>
      <psa03 value="1.0970621784" flag="0"/>
      <psa10 value="0.5029502956" flag="0"/>
      <psa30 value="0.0246086525" flag="0"/>
    </comp>
    <comp name="--.HNN">
      <acc value="0.4466644957" flag="0"/>
      <vel value="0.3168209034" flag="0"/>
      <psa03 value="1.0358435403" flag="0"/>
      <psa10 value="0.3499059104" flag="0"/>
      <psa30 value="0.0336700900" flag="0"/>
    </comp>
    <comp name="--.HNZ">
      <acc value="0.3788117608" flag="0"/>
      <vel value="0.1886172536" flag="0"/>
      <psa03 value="0.5790310878" flag="0"/>
      <psa10 value="0.2044275412" flag="0"/>
      <psa30 value="0.0165641114" flag="0"/>
    </comp>
  </station>
  <station code="EDC" name="EDC" netid="KO" insttype="CMG-3T" commtype="DIG" lat="40.3465" lon="27.8618">
    <comp name="--.HHE">
      <acc value="0.1738437847" flag="0"/>
      <vel value="0.1209871239" flag="0"/>
      <psa03 value="0.4400908433" flag="0"/>
      <psa10 value="0.1842345768" flag="0"/>
      <psa30 value="0.0293991748" flag="0"/>
    </comp>
    <comp name="--.HHN">
      <acc value="0.1686413597" flag="0"/>
      <vel value="0.1292176516" flag="0"/>
      <psa03 value="0.4303201832" flag="0"/>
      <psa10 value="0.2233049664" flag="0"/>
      <psa30 value="0.0246220868" flag="0"/>
    </comp>
    <comp name="--.HHZ">
      <acc value="0.0903798445" flag="0"/>
      <vel value="0.0527402197" flag="0"/>
      <psa03 value="0.1595276358" flag="0"/>
      <psa10 value="0.0605795672" flag="0"/>
      <psa30 value="0.0082775717" flag="0"/>
    </comp>
  </station>
  <station code="ESKT" name="ESKT" netid="KO" insttype="CMG-5T" commtype="DIG" lat="39.5212" lon="30.8492">
    <comp name="--.HNN">
      <acc value="0.0971648282" flag="0"/>
      <vel value="0.0702511401" flag="0"/>
      <psa03 value="0.3653772886" flag="0"/>
      <psa10 value="0.0445261158" flag="0"/>
      <psa30 value="0.0086342281" flag="0"/>
    </comp>
    <comp name="--.HNZ">
      <acc value="0.0338553266" flag="0"/>
      <vel value="0.0257852655" flag="0"/>
      <psa03 value="0.1506080672" flag="0"/>
      <psa10 value="0.0219321894" flag="0"/>
      <psa30 value="0.0038414340" flag="0"/>
    </comp>
  </station>
  <station code="GEML" name="GEML" netid="KO" insttype="CMG-3T" commtype="DIG" lat="40.4646" lon="29.2116">
    <comp name="--.HHZ">
      <acc value="0.0873599836" flag="0"/>
      <vel value="0.0353165214" flag="0"/>
      <psa03 value="0.1390742684" flag="0"/>
      <psa10 value="0.0463243867" flag="0"/>
      <psa30 value="0.0055956926" flag="0"/>
    </comp>
    <comp name="--.HHE">
      <acc value="0.1840104942" flag="0"/>
      <vel value="0.0642651906" flag="0"/>
      <psa03 value="0.2811514713" flag="0"/>
      <psa10 value="0.0541204865" flag="0"/>
      <psa30 value="0.0043714641" flag="0"/>
    </comp>
    <comp name="--.HHN">
      <acc value="0.1860148574" flag="0"/>
      <vel value="0.0705514671" flag="0"/>
      <psa03 value="0.3412430304" flag="0"/>
      <psa10 value="0.0436729636" flag="0"/>
      <psa30 value="0.0069891724" flag="0"/>
    </comp>
  </station>
  <station code="GOMA" name="GOMA" netid="KO" insttype="CMG-5T" commtype="DIG" lat="38.7077" lon="27.9175">
    <comp name="--.HNE">
      <acc value="0.2804632284" flag="0"/>
      <vel value="0.1622962027" flag="0"/>
      <psa03 value="1.2153369149" flag="0"/>
      <psa10 value="0.1065494550" flag="0"/>
      <psa30 value="0.0212448192" flag="0"/>
    </comp>
    <comp name="--.HNZ">
      <acc value="0.1144433000" flag="0"/>
      <vel value="0.0554935602" flag="0"/>
      <psa03 value="0.2415404455" flag="0"/>
      <psa10 value="0.0423391366" flag="0"/>
      <psa30 value="0.0077882498" flag="0"/>
    </comp>
    <comp name="--.HNN">
      <acc value="0.2805037072" flag="0"/>
      <vel value="0.1544932232" flag="0"/>
      <psa03 value="0.8452288500" flag="0"/>
      <psa10 value="0.0831895047" flag="0"/>
      <psa30 value="0.0125233374" flag="0"/>
    </comp>
  </station>
  <station code="GONE" name="GONE" netid="KO" insttype="CMG-5T" commtype="DIG" lat="40.0466" lon="27.686">
    <comp name="--.HNN">
      <acc value="0.4971563926" flag="0"/>
      <vel value="0.3740180047" flag="0"/>
      <psa03 value="1.5019813499" flag="0"/>
      <psa10 value="0.4384981095" flag="0"/>
      <psa30 value="0.0390514603" flag="0"/>
    </comp>
    <comp name="--.HNE">
      <acc value="0.3030454081" flag="0"/>
      <vel value="0.2936531900" flag="0"/>
      <psa03 value="0.6560220427" flag="0"/>
      <psa10 value="0.3326356526" flag="0"/>
      <psa30 value="0.0188263028" flag="0"/>
    </comp>
    <comp name="--.HNZ">
      <acc value="0.1710120608" flag="0"/>
      <vel value="0.0862558852" flag="0"/>
      <psa03 value="0.2974804107" flag="0"/>
      <psa10 value="0.1753991575" flag="0"/>
      <psa30 value="0.0095246177" flag="0"/>
    </comp>
  </station>
  <station code="GORD" name="GORD" netid="KO" insttype="CMG-5T" commtype="DIG" lat="38.9088" lon="28.1769">
    <comp name="--.HNE">
      <acc value="0.1704689580" flag="0"/>
      <vel value="0.1884005906" flag="0"/>
      <psa03 value="0.4957669878" flag="0"/>
      <psa10 value="0.4041039838" flag="0"/>
      <psa30 value="0.0298491934" flag="0"/>
    </comp>
    <comp name="--.HNN">
      <acc value="0.2995310954" flag="0"/>
      <vel value="0.2980565496" flag="0"/>
      <psa03 value="0.8813295094" flag="0"/>
      <psa10 value="0.4310617770" flag="0"/>
      <psa30 value="0.0412271237" flag="0"/>
    </comp>
    <comp name="--.HNZ">
      <acc value="0.1281644103" flag="0"/>
      <vel value="0.1232280869" flag="0"/>
      <psa03 value="0.3475052815" flag="0"/>
      <psa10 value="0.2166064533" flag="0"/>
      <psa30 value="0.0132349318" flag="0"/>
    </comp>
  </station>
  <station code="GPA" name="GPA" netid="KO" insttype="CMG-5T" commtype="DIG" lat="40.2911" lon="30.3171">
    <comp name="--.HNE">
      <acc value="0.1018867637" flag="0"/>
      <vel value="0.0641481272" flag="0"/>
      <psa03 value="0.3448722883" flag="0"/>
      <psa10 value="0.0737005158" flag="0"/>
      <psa30 value="0.0146680344" flag="0"/>
    </comp>
    <comp name="--.HNZ">
      <acc value="0.0347413238" flag="0"/>
      <vel value="0.0395936634" flag="0"/>
      <psa03 value="0.0908741921" flag="0"/>
      <psa10 value="0.0466929275" flag="0"/>
      <psa30 value="0.0062489149" flag="0"/>
    </comp>
    <comp name="--.HNN">
      <acc value="0.1704794702" flag="0"/>
      <vel value="0.0877333053" flag="0"/>
      <psa03 value="0.5232152762" flag="0"/>
      <psa10 value="0.1851737261" flag="0"/>
      <psa30 value="0.0171574120" flag="0"/>
    </comp>
  </station>
  <station code="IZI" name="IZI" netid="KO" insttype="CMG-5T" commtype="DIG" lat="40.3483" lon="29.4612">
    <comp name="--.HNE">
      <acc value="0.1858984544" flag="0"/>
      <vel value="0.0812208722" flag="0"/>
      <psa03 value="0.5080399963" flag="0"/>
      <psa10 value="0.1125857553" flag="0"/>
      <psa30 value="0.0102749102" flag="0"/>
    </comp>
    <comp name="--.HNZ">
      <acc value="0.0942961626" flag="0"/>
      <vel value="0.0950111109" flag="0"/>
      <psa03 value="0.2717583351" flag="0"/>
      <psa10 value="0.1038920663" flag="0"/>
      <psa30 value="0.0104758660" flag="0"/>
    </comp>
  </station>
  <station code="KCTX" name="KCTX" netid="KO" insttype="CMG-3ESP" commtype="DIG" lat="40.2626" lon="28.3353">
    <comp name="--.HHE">
      <acc value="0.1334978582" flag="0"/>
      <vel value="0.1790157968" flag="0"/>
      <psa03 value="0.4182303218" flag="0"/>
      <psa10 value="0.2286331874" flag="0"/>
      <psa30 value="0.0230997728" flag="0"/>
    </comp>
    <comp name="--.HHN">
      <acc value="0.1829796452" flag="0"/>
      <vel value="0.1660341501" flag="0"/>
      <psa03 value="0.3300212808" flag="0"/>
      <psa10 value="0.2244160522" flag="0"/>
      <psa30 value="0.0202849984" flag="0"/>
    </comp>
    <comp name="--.HHZ">
      <acc value="0.1426958623" flag="0"/>
      <vel value="0.0708613490" flag="0"/>
      <psa03 value="0.3925001337" flag="0"/>
      <psa10 value="0.1250569139" flag="0"/>
      <psa30 value="0.0061821475" flag="0"/>
    </comp>
  </station>
  <station code="KHL" name="KHL" netid="KO" insttype="CMG-5T" commtype="DIG" lat="38.3231" lon="29.5286">
    <comp name="--.HNN">
      <acc value="0.1744890837" flag="0"/>
      <vel value="0.0620893552" flag="0"/>
      <psa03 value="0.2357860010" flag="0"/>
      <psa10 value="0.0458546403" flag="0"/>
      <psa30 value="0.0119188321" flag="0"/>
    </comp>
    <comp name="--.HNE">
      <acc value="0.1329664823" flag="0"/>
      <vel value="0.0892171118" flag="0"/>
      <psa03 value="0.3411030216" flag="0"/>
      <psa10 value="0.0751260616" flag="0"/>
      <psa30 value="0.0191311482" flag="0"/>
    </comp>
    <comp name="--.HNZ">
      <acc value="0.0688441988" flag="0"/>
      <vel value="0.0277829029" flag="0"/>
      <psa03 value="0.1741221558" flag="0"/>
      <psa10 value="0.0309109578" flag="0"/>
      <psa30 value="0.0051984764" flag="0"/>
    </comp>
  </station>
  <station code="KOUK" name="KOUK" netid="KO" insttype="SA10" commtype="DIG" lat="40.6572" lon="29.1918">
    <comp name="--.HNE">
      <acc value="0.1611775289" flag="0"/>
      <vel value="0.2334134073" flag="0"/>
      <psa03 value="0.3306416900" flag="0"/>
      <psa10 value="0.4353786282" flag="0"/>
      <psa30 value="0.0257585955" flag="0"/>
    </comp>
    <comp name="--.HNN">
      <acc value="0.2001561376" flag="0"/>
      <vel value="0.2925503183" flag="0"/>
      <psa03 value="0.6492743808" flag="0"/>
      <psa10 value="0.6595407420" flag="0"/>
      <psa30 value="0.0342677816" flag="0"/>
    </comp>
    <comp name="--.HNZ">
      <acc value="0.2223891854" flag="0"/>
      <vel value="0.1181612188" flag="0"/>
      <psa03 value="1.0091392307" flag="0"/>
      <psa10 value="0.1937045695" flag="0"/>
      <psa30 value="0.0147756405" flag="0"/>
    </comp>
  </station>
  <station code="KULA" name="KULA" netid="KO" insttype="CMG-3T" commtype="DIG" lat="38.5145" lon="28.6607">
    <comp name="--.HHN">
      <acc value="0.1236452150" flag="0"/>
      <vel value="0.0507223653" flag="0"/>
      <psa03 value="0.2723602658" flag="0"/>
      <psa10 value="0.0327869108" flag="0"/>
      <psa30 value="0.0070553851" flag="0"/>
    </comp>
  </station>
  <station code="NAZL" name="NAZL" netid="KO" insttype="CMG-5T" commtype="DIG" lat="37.9641" lon="28.2922">
    <comp name="--.HNE">
      <acc value="0.0474711903" flag="0"/>
      <vel value="0.0549189023" flag="0"/>
      <psa03 value="0.1459168244" flag="0"/>
      <psa10 value="0.0800055327" flag="0"/>
      <psa30 value="0.0114196508" flag="0"/>
    </comp>
    <comp name="--.HNZ">
      <acc value="0.0255930595" flag="0"/>
      <vel value="0.0228948925" flag="0"/>
      <psa03 value="0.0600844553" flag="0"/>
      <psa10 value="0.0303178722" flag="0"/>
      <psa30 value="0.0036716477" flag="0"/>
    </comp>
    <comp name="--.HNN">
      <acc value="0.0423240191" flag="0"/>
      <vel value="0.0321387700" flag="0"/>
      <psa03 value="0.1220012403" flag="0"/>
      <psa10 value="0.0495552557" flag="0"/>
      <psa30 value="0.0088243785" flag="0"/>
    </comp>
  </station>
  <station code="ORLT" name="ORLT" netid="KO" insttype="CMG-5T" commtype="DIG" lat="40.0452" lon="28.8914">
    <comp name="--.HNE">
      <acc value="0.5954059046" flag="0"/>
      <vel value="0.2992561722" flag="0"/>
      <psa03 value="2.0182615726" flag="0"/>
      <psa10 value="0.2275369401" flag="0"/>
      <psa30 value="0.0143814941" flag="0"/>
    </comp>
    <comp name="--.HNN">
      <acc value="0.2798393592" flag="0"/>
      <vel value="0.1263499900" flag="0"/>
      <psa03 value="0.8973395743" flag="0"/>
      <psa10 value="0.1600664488" flag="0"/>
      <psa30 value="0.0098489629" flag="0"/>
    </comp>
    <comp name="--.HNZ">
      <acc value="0.1035915759" flag="0"/>
      <vel value="0.0591097156" flag="0"/>
      <psa03 value="0.2022882914" flag="0"/>
      <psa10 value="0.0893960006" flag="0"/>
      <psa30 value="0.0093115264" flag="0"/>
    </comp>
  </station>
  <station code="OSMT" name="OSMT" netid="KO" insttype="CMG-5T" commtype="DIG" lat="40.6009" lon="29.7">
    <comp name="--.HNN">
      <acc value="0.2272044859" flag="0"/>
      <vel value="0.1334500580" flag="0"/>
      <psa03 value="0.5664129865" flag="0"/>
      <psa10 value="0.1536439604" flag="0"/>
      <psa30 value="0.0096908379" flag="0"/>
    </comp>
    <comp name="--.HNZ">
      <acc value="0.0610815769" flag="0"/>
      <vel value="0.0358127298" flag="0"/>
      <psa03 value="0.1438279827" flag="0"/>
      <psa10 value="0.0559599689" flag="0"/>
      <psa30 value="0.0066898184" flag="0"/>
    </comp>
    <comp name="--.HNE">
      <acc value="0.1179046064" flag="0"/>
      <vel value="0.0920057966" flag="0"/>
      <psa03 value="0.4438844060" flag="0"/>
      <psa10 value="0.1011109179" flag="0"/>
      <psa30 value="0.0141448060" flag="0"/>
    </comp>
  </station>
  <station code="SHAP" name="SHAP" netid="KO" insttype="CMG-5T" commtype="DIG" lat="39.0231" lon="29.222">
    <comp name="--.HNZ">
      <acc value="3.3996400398" flag="0"/>
      <vel value="0.7894349162" flag="0"/>
      <psa03 value="2.4035788087" flag="0"/>
      <psa10 value="0.1962873482" flag="0"/>
      <psa30 value="0.0135835016" flag="0"/>
    </comp>
    <comp name="--.HNE">
      <acc value="8.8420907995" flag="0"/>
