<?xml version="1.0" encoding="UTF-8" standalone="yes"?>
<!DOCTYPE earthquake SYSTEM "stationlist.dtd">
<stationlist created="" xmlns="ch.ethz.sed.shakemap.usgs.xml">
  <station code="AKS" name="AKS" netid="KO" insttype="CMG-5T" commtype="DIG" lat="38.8785" lon="27.8129">
    <comp name="--.HNE">
      <acc value="0.2161543316" flag="0"/>
      <vel value="0.1160280225" flag="0"/>
      <psa03 value="0.5372894560" flag="0"/>
      <psa10 value="0.1348508446" flag="0"/>
      <psa30 value="0.0148023339" flag="0"/>
    </comp>
    <comp name="--.HNN">
      <acc value="0.2027837508" flag="0"/>
      <vel value="0.0977292122" flag="0"/>
      <psa03 value="0.8395012329" flag="0"/>
      <psa10 value="0.1113244297" flag="0"/>
      <psa30 value="0.0188099660" flag="0"/>
    </comp>
    <comp name="--.HNZ">
      <acc value="0.1018087415" flag="0"/>
      <vel value="0.0527771511" flag="0"/>
      <psa03 value="0.3671555122" flag="0"/>
      <psa10 value="0.0591202023" flag="0"/>
      <psa30 value="0.0056474535" flag="0"/>
    </comp>
  </station>
  <station code="ALT" name="ALT" netid="KO" insttype="CMG-5T" commtype="DIG" lat="39.0541" lon="30.1104">
    <comp name="--.HNN">
      <acc value="0.0883559371" flag="0"/>
      <vel value="0.0527627524" flag="0"/>
      <psa03 value="0.2033258656" flag="0"/>
      <psa10 value="0.0394189127" flag="0"/>
      <psa30 value="0.0051521341" flag="0"/>
    </comp>
    <comp name="--.HNZ">
      <acc value="0.0667936008" flag="0"/>
      <vel value="0.0389638703" flag="0"/>
      <psa03 value="0.1123791561" flag="0"/>
      <psa10 value="0.0209263023" flag="0"/>
      <psa30 value="0.0029478314" flag="0"/>
    </comp>
    <comp name="--.HNE">
      <acc value="0.0702259881" flag="0"/>
      <vel value="0.0316727742" flag="0"/>
      <psa03 value="0.1566784190" flag="0"/>
      <psa10 value="0.0194877395" flag="0"/>
      <psa30 value="0.0032685301" flag="0"/>
    </comp>
  </station>
  <station code="ARMT" name="ARMT" netid="KO" insttype="CMG-3ESP" commtype="DIG" lat="40.5683" lon="28.866">
    <comp name="--.HHE">
      <acc value="0.1160895169" flag="0"/>
      <vel value="0.0748877433" flag="0"/>
      <psa03 value="0.2481008889" flag="0"/>
      <psa10 value="0.0574702065" flag="0"/>
      <psa30 value="0.0070831200" flag="0"/>
    </comp>
  </station>
  <station code="BALB" name="BALB" netid="KO" insttype="CMG-5T" commtype="DIG" lat="39.6507" lon="27.8642">
    <comp name="--.HNE">
      <acc value="0.3668202478" flag="0"/>
      <vel value="0.2045436107" flag="0"/>
      <psa03 value="0.7564506358" flag="0"/>
      <psa10 value="0.2221955790" flag="0"/>
      <psa30 value="0.0087075352" flag="0"/>
    </comp>
    <comp name="--.HNN">
      <acc value="0.2719305960" flag="0"/>
      <vel value="0.2050680960" flag="0"/>
      <psa03 value="0.7027498332" flag="0"/>
      <psa10 value="0.1707929627" flag="0"/>
      <psa30 value="0.0214797474" flag="0"/>
    </comp>
    <comp name="--.HNZ">
      <acc value="0.1336270394" flag="0"/>
      <vel value="0.0712861967" flag="0"/>
      <psa03 value="0.3027859558" flag="0"/>
      <psa10 value="0.0698887522" flag="0"/>
      <psa30 value="0.0050552903" flag="0"/>
    </comp>
  </station>
  <station code="DST" name="DST" netid="KO" insttype="CMG-5T" commtype="DIG" lat="39.6041" lon="28.6267">
    <comp name="--.HNE">
      <acc value="0.4546507795" flag="0"/>
      <vel value="0.4040516433" flag="0"/>
      <psa03 value="1.0985273718" flag="0"/>
      <psa10 value="0.5016534999" flag="0"/>
      <psa30 value="0.0220203944" flag="0"/>
    </comp>
    <comp name="--.HNN">
      <acc value="0.4488706424" flag="0"/>
      <vel value="0.3057944418" flag="0"/>
      <psa03 value="1.0341240407" flag="0"/>
      <psa10 value="0.3512017546" flag="0"/>
      <psa30 value="0.0291407972" flag="0"/>
    </comp>
    <comp name="--.HNZ">
      <acc value="0.3787247813" flag="0"/>
      <vel value="0.1864168342" flag="0"/>
      <psa03 value="0.5794410293" flag="0"/>
      <psa10 value="0.2042676302" flag="0"/>
      <psa30 value="0.0156821024" flag="0"/>
    </comp>
  </station>
  <station code="GEML" name="GEML" netid="KO" insttype="CMG-3T" commtype="DIG" lat="40.4646" lon="29.2116">
    <comp name="--.HHE">
      <acc value="0.1839474844" flag="0"/>
      <vel value="0.0640252420" flag="0"/>
      <psa03 value="0.2812049244" flag="0"/>
      <psa10 value="0.0542355701" flag="0"/>
      <psa30 value="0.0044131047" flag="0"/>
    </comp>
    <comp name="--.HHN">
      <acc value="0.1860092085" flag="0"/>
      <vel value="0.0711208143" flag="0"/>
      <psa03 value="0.3412424223" flag="0"/>
      <psa10 value="0.0437119113" flag="0"/>
      <psa30 value="0.0067334344" flag="0"/>
    </comp>
    <comp name="--.HHZ">
      <acc value="0.0871483563" flag="0"/>
      <vel value="0.0345955361" flag="0"/>
      <psa03 value="0.1390425678" flag="0"/>
      <psa10 value="0.0464042524" flag="0"/>
      <psa30 value="0.0052997920" flag="0"/>
    </comp>
  </station>
  <station code="GOMA" name="GOMA" netid="KO" insttype="CMG-5T" commtype="DIG" lat="38.7077" lon="27.9175">
    <comp name="--.HNE">
      <acc value="0.2817688751" flag="0"/>
      <vel value="0.1694763503" flag="0"/>
      <psa03 value="1.2161137244" flag="0"/>
      <psa10 value="0.1077974154" flag="0"/>
      <psa30 value="0.0184502240" flag="0"/>
    </comp>
    <comp name="--.HNN">
      <acc value="0.2802210881" flag="0"/>
      <vel value="0.1558779644" flag="0"/>
      <psa03 value="0.8454489404" flag="0"/>
      <psa10 value="0.0834955131" flag="0"/>
      <psa30 value="0.0111427420" flag="0"/>
    </comp>
    <comp name="--.HNZ">
      <acc value="0.1142048517" flag="0"/>
      <vel value="0.0554897570" flag="0"/>
      <psa03 value="0.2413010549" flag="0"/>
      <psa10 value="0.0424890199" flag="0"/>
      <psa30 value="0.0072489916" flag="0"/>
    </comp>
  </station>
  <station code="GONE" name="GONE" netid="KO" insttype="CMG-5T" commtype="DIG" lat="40.0466" lon="27.686">
    <comp name="--.HNE">
      <acc value="0.3027148493" flag="0"/>
      <vel value="0.2922424251" flag="0"/>
      <psa03 value="0.6557764199" flag="0"/>
      <psa10 value="0.3328792073" flag="0"/>
      <psa30 value="0.0189127332" flag="0"/>
    </comp>
    <comp name="--.HNN">
      <acc value="0.4982962904" flag="0"/>
      <vel value="0.3723896107" flag="0"/>
      <psa03 value="1.5010871369" flag="0"/>
      <psa10 value="0.4382903282" flag="0"/>
      <psa30 value="0.0336816888" flag="0"/>
    </comp>
    <comp name="--.HNZ">
      <acc value="0.1708105967" flag="0"/>
      <vel value="0.0850171424" flag="0"/>
      <psa03 value="0.2972740436" flag="0"/>
      <psa10 value="0.1752787252" flag="0"/>
      <psa30 value="0.0091294682" flag="0"/>
    </comp>
  </station>
  <station code="GORD" name="GORD" netid="KO" insttype="CMG-5T" commtype="DIG" lat="38.9088" lon="28.1769">
    <comp name="--.HNN">
      <acc value="0.2990747332" flag="0"/>
      <vel value="0.3010509760" flag="0"/>
      <psa03 value="0.8814891120" flag="0"/>
      <psa10 value="0.4305878249" flag="0"/>
      <psa30 value="0.0360184844" flag="0"/>
    </comp>
    <comp name="--.HNE">
      <acc value="0.1701653399" flag="0"/>
      <vel value="0.1897751781" flag="0"/>
      <psa03 value="0.4954747400" flag="0"/>
      <psa10 value="0.4036408849" flag="0"/>
      <psa30 value="0.0256542735" flag="0"/>
    </comp>
    <comp name="--.HNZ">
      <acc value="0.1284084691" flag="0"/>
      <vel value="0.1273561973" flag="0"/>
      <psa03 value="0.3476225894" flag="0"/>
      <psa10 value="0.2167883411" flag="0"/>
      <psa30 value="0.0125418656" flag="0"/>
    </comp>
  </station>
  <station code="IZI" name="IZI" netid="KO" insttype="CMG-5T" commtype="DIG" lat="40.3483" lon="29.4612">
    <comp name="--.HNE">
      <acc value="0.1856229492" flag="0"/>
      <vel value="0.0816898593" flag="0"/>
      <psa03 value="0.5082462989" flag="0"/>
      <psa10 value="0.1126915912" flag="0"/>
      <psa30 value="0.0095743021" flag="0"/>
    </comp>
    <comp name="--.HNZ">
      <acc value="0.0940961679" flag="0"/>
      <vel value="0.0926019648" flag="0"/>
      <psa03 value="0.2716154231" flag="0"/>
      <psa10 value="0.1040784413" flag="0"/>
      <psa30 value="0.0103636305" flag="0"/>
    </comp>
  </station>
  <station code="KHL" name="KHL" netid="KO" insttype="CMG-5T" commtype="DIG" lat="38.3231" lon="29.5286">
    <comp name="--.HNE">
      <acc value="0.1325513082" flag="0"/>
      <vel value="0.0860783372" flag="0"/>
      <psa03 value="0.3414893737" flag="0"/>
      <psa10 value="0.0748256022" flag="0"/>
      <psa30 value="0.0160441927" flag="0"/>
    </comp>
    <comp name="--.HNN">
      <acc value="0.1747755034" flag="0"/>
      <vel value="0.0626079272" flag="0"/>
      <psa03 value="0.2355941802" flag="0"/>
      <psa10 value="0.0456745967" flag="0"/>
      <psa30 value="0.0097240243" flag="0"/>
    </comp>
    <comp name="--.HNZ">
      <acc value="0.0686083736" flag="0"/>
      <vel value="0.0276094998" flag="0"/>
      <psa03 value="0.1743723994" flag="0"/>
      <psa10 value="0.0307161436" flag="0"/>
      <psa30 value="0.0043133713" flag="0"/>
    </comp>
  </station>
  <station code="ORLT" name="ORLT" netid="KO" insttype="CMG-5T" commtype="DIG" lat="40.0452" lon="28.8914">
    <comp name="--.HNE">
      <acc value="0.5959385234" flag="0"/>
      <vel value="0.2968249763" flag="0"/>
      <psa03 value="2.0189861111" flag="0"/>
      <psa10 value="0.2279415066" flag="0"/>
      <psa30 value="0.0123518976" flag="0"/>
    </comp>
    <comp name="--.HNN">
      <acc value="0.2794072835" flag="0"/>
      <vel value="0.1253071577" flag="0"/>
      <psa03 value="0.8977515946" flag="0"/>
      <psa10 value="0.1596585253" flag="0"/>
      <psa30 value="0.0092833384" flag="0"/>
    </comp>
    <comp name="--.HNZ">
      <acc value="0.1031049341" flag="0"/>
      <vel value="0.0582002741" flag="0"/>
      <psa03 value="0.2027589820" flag="0"/>
      <psa10 value="0.0896144466" flag="0"/>
      <psa30 value="0.0083450767" flag="0"/>
    </comp>
  </station>
  <station code="SHAP" name="SHAP" netid="KO" insttype="CMG-5T" commtype="DIG" lat="39.0231" lon="29.222">
    <comp name="--.HNE">
      <acc value="8.8424950228" flag="0"/>
      <vel value="3.1739841586" flag="0"/>
      <psa03 value="10.5707706664" flag="0"/>
      <psa10 value="0.6342362811" flag="0"/>
      <psa30 value="0.0771151787" flag="0"/>
    </comp>
    <comp name="--.HNN">
      <acc value="6.9471122637" flag="0"/>
      <vel value="1.8189277842" flag="0"/>
      <psa03 value="7.5869809824" flag="0"/>
      <psa10 value="0.6864701418" flag="0"/>
      <psa30 value="0.0746965700" flag="0"/>
    </comp>
    <comp name="--.HNZ">
      <acc value="3.4000117872" flag="0"/>
      <vel value="0.7909617044" flag="0"/>
      <psa03 value="2.4038828969" flag="0"/>
      <psa10 value="0.1967101167" flag="0"/>
      <psa30 value="0.0126531134" flag="0"/>
    </comp>
  </station>
  <station code="SMAA" name="SMAA" netid="KO" insttype="CMG-5T" commtype="DIG" lat="39.1005" lon="28.9805">
    <comp name="--.HNE">
      <acc value="2.8562689152" flag="0"/>
      <vel value="1.8738402685" flag="0"/>
      <psa03 value="9.8585537082" flag="0"/>
      <psa10 value="2.2714025878" flag="0"/>
      <psa30 value="0.1199771950" flag="0"/>
    </comp>
    <comp name="--.HNN">
      <acc value="4.7932345086" flag="0"/>
      <vel value="2.1335611650" flag="0"/>
      <psa03 value="10.3950066151" flag="0"/>
      <psa10 value="3.4400687082" flag="0"/>
      <psa30 value="0.2513354419" flag="0"/>
    </comp>
    <comp name="--.HNZ">
      <acc value="4.0393071107" flag="0"/>
      <vel value="1.2645664590" flag="0"/>
      <psa03 value="5.6141107505" flag="0"/>
      <psa10 value="1.2763264604" flag="0"/>
      <psa30 value="0.0504658033" flag="0"/>
    </comp>
  </station>
  <station code="SOMA" name="SOMA" netid="KO" insttype="CMG-5T" commtype="DIG" lat="39.1564" lon="27.5341">
    <comp name="--.HNE">
      <acc value="0.1780080759" flag="0"/>
      <vel value="0.0876645174" flag="0"/>
      <psa03 value="0.4604905811" flag="0"/>
      <psa10 value="0.1067550122" flag="0"/>
      <psa30 value="0.0119878636" flag="0"/>
    </comp>
    <comp name="--.HNN">
      <acc value="0.2311936234" flag="0"/>
      <vel value="0.1403915101" flag="0"/>
      <psa03 value="0.7186069391" flag="0"/>
      <psa10 value="0.1890227437" flag="0"/>
      <psa30 value="0.0139329642" flag="0"/>
    </comp>
    <comp name="--.HNZ">
      <acc value="0.1341304605" flag="0"/>
      <vel value="0.0663337465" flag="0"/>
      <psa03 value="0.2488521744" flag="0"/>
      <psa10 value="0.1268575652" flag="0"/>
      <psa30 value="0.0054143398" flag="0"/>
    </comp>
  </station>
  <station code="SUSR" name="SUSR" netid="KO" insttype="CMG-5T" commtype="DIG" lat="39.9627" lon="28.0835">
    <comp name="--.HNZ">
      <acc value="0.3107452743" flag="0"/>
      <vel value="0.1442495579" flag="0"/>
      <psa03 value="0.5770718984" flag="0"/>
      <psa10 value="0.1099111478" flag="0"/>
      <psa30 value="0.0059491482" flag="0"/>
    </comp>
    <comp name="--.HNE">
      <acc value="0.4058521808" flag="0"/>
      <vel value="0.1662893501" flag="0"/>
      <psa03 value="0.8884445646" flag="0"/>
      <psa10 value="0.0951290435" flag="0"/>
      <psa30 value="0.0079059809" flag="0"/>
    </comp>
    <comp name="--.HNN">
      <acc value="0.4584126186" flag="0"/>
      <vel value="0.2178354784" flag="0"/>
      <psa03 value="1.2757711151" flag="0"/>
      <psa10 value="0.2375195383" flag="0"/>
      <psa30 value="0.0218176611" flag="0"/>
    </comp>
  </station>
  <station code="TVSB" name="TVSB" netid="KO" insttype="CMG-3T" commtype="DIG" lat="39.4497" lon="29.4615">
    <comp name="--.HHE">
      <acc value="0.4342585715" flag="0"/>
      <vel value="0.2152312479" flag="0"/>
      <psa03 value="1.5129173520" flag="0"/>
      <psa10 value="0.2291036018" flag="0"/>
      <psa30 value="0.0266054316" flag="0"/>
    </comp>
    <comp name="--.HHN">
      <acc value="0.6118061565" flag="0"/>
      <vel value="0.3350842553" flag="0"/>
      <psa03 value="1.4766587664" flag="0"/>
      <psa10 value="0.2224959599" flag="0"/>
      <psa30 value="0.0262868242" flag="0"/>
    </comp>
    <comp name="--.HHZ">
      <acc value="0.2491916577" flag="0"/>
      <vel value="0.1404602921" flag="0"/>
      <psa03 value="0.7130774770" flag="0"/>
      <psa10 value="0.1301422037" flag="0"/>
      <psa30 value="0.0088197474" flag="0"/>
    </comp>
  </station>
  <station code="BORA" name="BORA" netid="TU" insttype="T" commtype="DIG" lat="39.8801" lon="30.4534">
    <comp name="--.HHZ">
      <acc value="0.0489151857" flag="0"/>
      <vel value="0.0291203119" flag="0"/>
      <psa03 value="0.0892628855" flag="0"/>
      <psa10 value="0.0169547859" flag="0"/>
      <psa30 value="0.0041445611" flag="0"/>
    </comp>
    <comp name="--.HHE">
      <acc value="0.0715899615" flag="0"/>
      <vel value="0.0418996435" flag="0"/>
      <psa03 value="0.2816332824" flag="0"/>
      <psa10 value="0.0389063013" flag="0"/>
      <psa30 value="0.0107231594" flag="0"/>
    </comp>
    <comp name="--.HHN">
      <acc value="0.0699007104" flag="0"/>
      <vel value="0.0548210186" flag="0"/>
      <psa03 value="0.1831739850" flag="0"/>
      <psa10 value="0.0472565486" flag="0"/>
      <psa30 value="0.0127317295" flag="0"/>
    </comp>
  </station>
</stationlist>
