<stationlist created="1675677710">
	<station code="ARPRA" name="ARPRA" netid="KO" source="Bogazici University Kandilli Observatory And Earthquake Research Institute (KOERI)" insttype="" lat="39.0929" lon="38.3356">
		<comp name=".HNE" depth="0.0">
			<acc value="0.0430215850224" flag="0"/>
			<vel value="0.0300347015902" flag="0"/>
			<psa03 value="0.117152083667" flag="0"/>
			<psa10 value="0.0405182053823" flag="0"/>
			<psa30 value="0.00824660129689" flag="0"/>
		</comp>
		<comp name=".HNN" depth="0.0">
			<acc value="0.044000938289" flag="0"/>
			<vel value="0.0446488719582" flag="0"/>
			<psa03 value="0.145523181863" flag="0"/>
			<psa10 value="0.0590975324214" flag="0"/>
			<psa30 value="0.00545109569168" flag="0"/>
		</comp>
		<comp name=".HNZ" depth="0.0">
			<acc value="0.0197776576047" flag="0"/>
			<vel value="0.0191147185285" flag="0"/>
			<psa03 value="0.0605766431134" flag="0"/>
			<psa10 value="0.0312262748375" flag="0"/>
			<psa30 value="0.00304238300127" flag="0"/>
		</comp>
	</station>
	<station code="CMRD" name="CMRD" netid="KO" source="Bogazici University Kandilli Observatory And Earthquake Research Institute (KOERI)" insttype="" lat="37.6623" lon="34.9902">
		<comp name=".HNE" depth="0.0">
			<acc value="0.00958453655631" flag="0"/>
			<vel value="0.00652475222663" flag="0"/>
			<psa03 value="0.0296403072749" flag="0"/>
			<psa10 value="0.0102489601933" flag="0"/>
			<psa30 value="0.000799650785442" flag="0"/>
		</comp>
		<comp name=".HNN" depth="0.0">
			<acc value="0.0106769187544" flag="0"/>
			<vel value="0.00876675605315" flag="0"/>
			<psa03 value="0.0403082926224" flag="0"/>
			<psa10 value="0.0139914184253" flag="0"/>
			<psa30 value="0.00118862728239" flag="0"/>
		</comp>
		<comp name=".HNZ" depth="0.0">
			<acc value="0.00765917327697" flag="0"/>
			<vel value="0.00785991850503" flag="0"/>
			<psa03 value="0.0268482603363" flag="0"/>
			<psa10 value="0.014301700855" flag="0"/>
			<psa30 value="0.00105588900997" flag="0"/>
		</comp>
	</station>
	<station code="KHMN" name="KHMN" netid="KO" source="Bogazici University Kandilli Observatory And Earthquake Research Institute (KOERI)" insttype="" lat="37.3916" lon="37.1574">
		<comp name=".HNE" depth="0.0">
			<acc value="2.01162017323" flag="0"/>
			<vel value="0.720566959282" flag="0"/>
			<psa03 value="2.7311684265" flag="0"/>
			<psa10 value="0.570206313368" flag="0"/>
			<psa30 value="0.041323407473" flag="0"/>
		</comp>
		<comp name=".HNN" depth="0.0">
			<acc value="2.52068784174" flag="0"/>
			<vel value="0.654439091375" flag="0"/>
			<psa03 value="2.86350802668" flag="0"/>
			<psa10 value="0.604423520092" flag="0"/>
			<psa30 value="0.0586762470136" flag="0"/>
		</comp>
		<comp name=".HNZ" depth="0.0">
			<acc value="1.00548374354" flag="0"/>
			<vel value="0.319743579905" flag="0"/>
			<psa03 value="0.896769073216" flag="0"/>
			<psa10 value="0.371469098004" flag="0"/>
			<psa30 value="0.039931118574" flag="0"/>
		</comp>
	</station>
	<station code="KOZK" name="KOZK" netid="KO" source="Bogazici University Kandilli Observatory And Earthquake Research Institute (KOERI)" insttype="" lat="39.2101" lon="34.868">
		<comp name=".HNE" depth="0.0">
			<acc value="0.0246390231871" flag="0"/>
			<vel value="0.0314380567607" flag="0"/>
			<psa03 value="0.0456464561455" flag="0"/>
			<psa10 value="0.0414716047904" flag="0"/>
			<psa30 value="0.0033373969195" flag="0"/>
		</comp>
		<comp name=".HNN" depth="0.0">
			<acc value="0.0159540684436" flag="0"/>
			<vel value="0.0169676683831" flag="0"/>
			<psa03 value="0.0386338926391" flag="0"/>
			<psa10 value="0.0265666961632" flag="0"/>
			<psa30 value="0.0030491230311" flag="0"/>
		</comp>
		<comp name=".HNZ" depth="0.0">
			<acc value="0.0139597458081" flag="0"/>
			<vel value="0.0120709417272" flag="0"/>
			<psa03 value="0.0366326506917" flag="0"/>
			<psa10 value="0.0102477741773" flag="0"/>
			<psa30 value="0.00162724800553" flag="0"/>
		</comp>
	</station>
	<station code="KRTS" name="KRTS" netid="KO" source="Bogazici University Kandilli Observatory And Earthquake Research Institute (KOERI)" insttype="" lat="36.573" lon="35.375">
		<comp name=".HNE" depth="0.0">
			<acc value="0.0267972159142" flag="0"/>
			<vel value="0.0222317536719" flag="0"/>
			<psa03 value="0.113563929303" flag="0"/>
			<psa10 value="0.0340100279974" flag="0"/>
			<psa30 value="0.00391371926469" flag="0"/>
		</comp>
		<comp name=".HNN" depth="0.0">
			<acc value="0.0425863489257" flag="0"/>
			<vel value="0.0190032876997" flag="0"/>
			<psa03 value="0.119637602487" flag="0"/>
			<psa10 value="0.0225378192699" flag="0"/>
			<psa30 value="0.00385345485581" flag="0"/>
		</comp>
		<comp name=".HNZ" depth="0.0">
			<acc value="0.0208163932862" flag="0"/>
			<vel value="0.0184534520875" flag="0"/>
			<psa03 value="0.0678551461121" flag="0"/>
			<psa10 value="0.0127958139099" flag="0"/>
			<psa30 value="0.00336108244688" flag="0"/>
		</comp>
	</station>
	<station code="KYHL" name="KYHL" netid="KO" source="Bogazici University Kandilli Observatory And Earthquake Research Institute (KOERI)" insttype="" lat="40.3244" lon="37.8955">
		<comp name=".HNE" depth="0.0">
			<acc value="0.0062216028986" flag="0"/>
			<vel value="0.00667111154267" flag="0"/>
			<psa03 value="0.0191448151251" flag="0"/>
			<psa10 value="0.00829712370622" flag="0"/>
			<psa30 value="0.00147232701361" flag="0"/>
		</comp>
		<comp name=".HNN" depth="0.0">
			<acc value="0.00683259443796" flag="0"/>
			<vel value="0.00866922346154" flag="0"/>
			<psa03 value="0.0209840828008" flag="0"/>
			<psa10 value="0.0103558947772" flag="0"/>
			<psa30 value="0.0013115608428" flag="0"/>
		</comp>
		<comp name=".HNZ" depth="0.0">
			<acc value="0.00401983474766" flag="0"/>
			<vel value="0.00510381976351" flag="0"/>
			<psa03 value="0.0155047901371" flag="0"/>
			<psa10 value="0.00564691689302" flag="0"/>
			<psa30 value="0.00129688289129" flag="0"/>
		</comp>
	</station>
	<station code="RFHY" name="RFHY" netid="KO" source="Bogazici University Kandilli Observatory And Earthquake Research Institute (KOERI)" insttype="" lat="39.927" lon="38.833">
		<comp name=".HNE" depth="0.0">
			<acc value="0.00147921113699" flag="0"/>
			<vel value="0.00362423425942" flag="0"/>
			<psa03 value="0.00178882048626" flag="0"/>
			<psa10 value="0.00194546797927" flag="0"/>
			<psa30 value="0.000793383026484" flag="0"/>
		</comp>
		<comp name=".HNN" depth="0.0">
			<acc value="0.0136325609118" flag="0"/>
			<vel value="0.0178525000811" flag="0"/>
			<psa03 value="0.0191715890341" flag="0"/>
			<psa10 value="0.0462576680936" flag="0"/>
			<psa30 value="0.00379413467614" flag="0"/>
		</comp>
		<comp name=".HNZ" depth="0.0">
			<acc value="0.00758365768579" flag="0"/>
			<vel value="0.00959025642066" flag="0"/>
			<psa03 value="0.0160749359794" flag="0"/>
			<psa10 value="0.014257425422" flag="0"/>
			<psa30 value="0.00276460897511" flag="0"/>
		</comp>
	</station>
	<station code="SLFK" name="SLFK" netid="KO" source="Bogazici University Kandilli Observatory And Earthquake Research Institute (KOERI)" insttype="" lat="36.3925" lon="33.9464">
		<comp name=".HNE" depth="0.0">
			<acc value="0.0293862354104" flag="0"/>
			<vel value="0.00651431291805" flag="0"/>
			<psa03 value="0.0365989114774" flag="0"/>
			<psa10 value="0.00557752088965" flag="0"/>
			<psa30 value="0.000945685563695" flag="0"/>
		</comp>
		<comp name=".HNN" depth="0.0">
			<acc value="0.0236194554832" flag="0"/>
			<vel value="0.00694594627213" flag="0"/>
			<psa03 value="0.0422099290132" flag="0"/>
			<psa10 value="0.00582907583517" flag="0"/>
			<psa30 value="0.000823182083855" flag="0"/>
		</comp>
		<comp name=".HNZ" depth="0.0">
			<acc value="0.0152405846011" flag="0"/>
			<vel value="0.00472315758114" flag="0"/>
			<psa03 value="0.0276797294796" flag="0"/>
			<psa10 value="0.00435409984401" flag="0"/>
			<psa30 value="0.000989775984469" flag="0"/>
		</comp>
	</station>
	<station code="TUNC" name="TUNC" netid="KO" source="Bogazici University Kandilli Observatory And Earthquake Research Institute (KOERI)" insttype="" lat="39.6942" lon="37.5388">
		<comp name=".HNE" depth="0.0">
			<acc value="0.0258422668868" flag="0"/>
			<vel value="0.0344286177404" flag="0"/>
			<psa03 value="0.075956880729" flag="0"/>
			<psa10 value="0.0478184464875" flag="0"/>
			<psa30 value="0.00808613816698" flag="0"/>
		</comp>
		<comp name=".HNN" depth="0.0">
			<acc value="0.0207337247452" flag="0"/>
			<vel value="0.01916132559" flag="0"/>
			<psa03 value="0.0390643065686" flag="0"/>
			<psa10 value="0.0230196474387" flag="0"/>
			<psa30 value="0.00434654752077" flag="0"/>
		</comp>
		<comp name=".HNZ" depth="0.0">
			<acc value="0.0111117549683" flag="0"/>
			<vel value="0.0134755030567" flag="0"/>
			<psa03 value="0.0254301507685" flag="0"/>
			<psa10 value="0.0227849081383" flag="0"/>
			<psa30 value="0.00383738545795" flag="0"/>
		</comp>
	</station>
</stationlist>
