<?xml version="1.0" encoding="UTF-8" standalone="yes"?>
<!DOCTYPE earthquake SYSTEM "stationlist.dtd">
<stationlist created="" xmlns="ch.ethz.sed.shakemap.usgs.xml">
  <station code="KHMN" name="KHMN" netid="KO" insttype="CMG-5T" lat="37.3916" lon="37.1574">
    <comp name="--.HNZ">
      <acc value="0.0125918091" flag="0"/>
      <vel value="0.0021427248" flag="0"/>
      <psa03 value="0.0110598883" flag="0"/>
      <psa10 value="0.0009501607" flag="0"/>
      <psa30 value="0.0003090946" flag="0"/>
    </comp>
    <comp name="--.HNN">
      <acc value="0.0154610917" flag="0"/>
      <vel value="0.0042400833" flag="0"/>
      <psa03 value="0.0169179989" flag="0"/>
      <psa10 value="0.0024585523" flag="0"/>
      <psa30 value="0.0002146687" flag="0"/>
    </comp>
    <comp name="--.HNE">
      <acc value="0.0202598188" flag="0"/>
      <vel value="0.0035177014" flag="0"/>
      <psa03 value="0.0205280703" flag="0"/>
      <psa10 value="0.0020473589" flag="0"/>
      <psa30 value="0.0002644975" flag="0"/>
    </comp>
  </station>
  <station code="ANDN" name="ANDN" netid="TU" insttype="T" lat="37.58" lon="36.3452">
    <comp name="--.HHN">
      <acc value="0.0449024502" flag="0"/>
      <vel value="0.0096941302" flag="0"/>
      <psa03 value="0.0687078022" flag="0"/>
      <psa10 value="0.0056581592" flag="0"/>
      <psa30 value="0.0003882602" flag="0"/>
    </comp>
    <comp name="--.HHE">
      <acc value="0.0365519708" flag="0"/>
      <vel value="0.0096134949" flag="0"/>
      <psa03 value="0.0418914759" flag="0"/>
      <psa10 value="0.0067205867" flag="0"/>
      <psa30 value="0.0003890952" flag="0"/>
    </comp>
    <comp name="--.HHZ">
      <acc value="0.0179494462" flag="0"/>
      <vel value="0.0051064122" flag="0"/>
      <psa03 value="0.0197250780" flag="0"/>
      <psa10 value="0.0034759110" flag="0"/>
      <psa30 value="0.0002293179" flag="0"/>
    </comp>
  </station>
</stationlist>
