<?xml version="1.0" encoding="UTF-8" standalone="yes"?>
<!DOCTYPE earthquake SYSTEM "stationlist.dtd">
<stationlist created="" xmlns="ch.ethz.sed.shakemap.usgs.xml">
  <station code="GVD" name="GVD" netid="GE" insttype="STS-2/N" lat="34.8391" lon="24.0874">
    <comp name="--.HHE">
      <acc value="0.1478684796" flag="0"/>
      <vel value="0.0222175048" flag="0"/>
      <psa03 value="0.0767591348" flag="0"/>
      <psa10 value="0.0157520823" flag="0"/>
      <psa30 value="0.0021240554" flag="0"/>
    </comp>
    <comp name="--.HHN">
      <acc value="0.0070051161" flag="0"/>
      <vel value="0.0037935681" flag="0"/>
      <psa03 value="0.0196095110" flag="0"/>
      <psa10 value="0.0027699362" flag="0"/>
      <psa30 value="0.0005036540" flag="0"/>
    </comp>
    <comp name="--.HHZ">
      <acc value="0.0045294549" flag="0"/>
      <vel value="0.0016239508" flag="0"/>
      <psa03 value="0.0097344900" flag="0"/>
      <psa10 value="0.0025805714" flag="0"/>
      <psa30 value="0.0003806749" flag="0"/>
    </comp>
  </station>
  <station code="IMMV" name="IMMV" netid="GE" insttype="STS-2/N" lat="35.4606" lon="23.9811">
    <comp name="--.HHE">
      <acc value="0.0108771602" flag="0"/>
      <vel value="0.0067781423" flag="0"/>
      <psa03 value="0.0372651053" flag="0"/>
      <psa10 value="0.0078091894" flag="0"/>
      <psa30 value="0.0007671581" flag="0"/>
    </comp>
    <comp name="--.HHN">
      <acc value="0.0123008689" flag="0"/>
      <vel value="0.0093153651" flag="0"/>
      <psa03 value="0.0388821360" flag="0"/>
      <psa10 value="0.0110723693" flag="0"/>
      <psa30 value="0.0007652245" flag="0"/>
    </comp>
    <comp name="--.HHZ">
      <acc value="0.0075740466" flag="0"/>
      <vel value="0.0049208559" flag="0"/>
      <psa03 value="0.0237673107" flag="0"/>
      <psa10 value="0.0040303039" flag="0"/>
      <psa30 value="0.0006177909" flag="0"/>
    </comp>
  </station>
  <station code="KTHA" name="KTHA" netid="GE" insttype="STS-2/N" lat="36.2566" lon="23.0621">
    <comp name="--.HHN">
      <acc value="0.0135927734" flag="0"/>
      <vel value="0.0058583697" flag="0"/>
      <psa03 value="0.0238880454" flag="0"/>
      <psa10 value="0.0060931964" flag="0"/>
      <psa30 value="0.0006916629" flag="0"/>
    </comp>
    <comp name="--.HHE">
      <acc value="0.0160460050" flag="0"/>
      <vel value="0.0117677262" flag="0"/>
      <psa03 value="0.0404637281" flag="0"/>
      <psa10 value="0.0129594150" flag="0"/>
      <psa30 value="0.0015850419" flag="0"/>
    </comp>
    <comp name="--.HHZ">
      <acc value="0.0128094347" flag="0"/>
      <vel value="0.0039614019" flag="0"/>
      <psa03 value="0.0188412859" flag="0"/>
      <psa10 value="0.0058214359" flag="0"/>
      <psa30 value="0.0008250829" flag="0"/>
    </comp>
  </station>
  <station code="CHAN" name="CHAN" netid="HC" insttype="120" lat="35.5193" lon="24.0428">
    <comp name="--.HHE">
      <acc value="0.0169251341" flag="0"/>
      <vel value="0.0135188215" flag="0"/>
      <psa03 value="0.0548264301" flag="0"/>
      <psa10 value="0.0153946358" flag="0"/>
      <psa30 value="0.0018759779" flag="0"/>
    </comp>
    <comp name="--.HHN">
      <acc value="0.0144519382" flag="0"/>
      <vel value="0.0153108017" flag="0"/>
      <psa03 value="0.0429064257" flag="0"/>
      <psa10 value="0.0242187443" flag="0"/>
      <psa30 value="0.0022944185" flag="0"/>
    </comp>
    <comp name="--.HHZ">
      <acc value="0.0159380077" flag="0"/>
      <vel value="0.0081950295" flag="0"/>
      <psa03 value="0.0301297461" flag="0"/>
      <psa10 value="0.0106549376" flag="0"/>
      <psa30 value="0.0011948033" flag="0"/>
    </comp>
  </station>
  <station code="GVDS" name="GVDS" netid="HC" insttype="60" lat="34.8389" lon="24.0585">
    <comp name="--.HHE">
      <acc value="0.0052232117" flag="0"/>
      <vel value="0.0029315363" flag="0"/>
      <psa03 value="0.0137480487" flag="0"/>
      <psa10 value="0.0049725417" flag="0"/>
      <psa30 value="0.0002582332" flag="0"/>
    </comp>
    <comp name="--.HHN">
      <acc value="0.0055538453" flag="0"/>
      <vel value="0.0037413489" flag="0"/>
      <psa03 value="0.0217013817" flag="0"/>
      <psa10 value="0.0048383526" flag="0"/>
      <psa30 value="0.0003903600" flag="0"/>
    </comp>
    <comp name="--.HHZ">
      <acc value="0.0028045415" flag="0"/>
      <vel value="0.0016117902" flag="0"/>
      <psa03 value="0.0083212990" flag="0"/>
      <psa10 value="0.0026665976" flag="0"/>
      <psa30 value="0.0002499117" flag="0"/>
    </comp>
  </station>
  <station code="IPPL" name="IPPL" netid="HC" insttype="60" lat="35.3486" lon="24.4632">
    <comp name="--.HHN">
      <acc value="0.0050541416" flag="0"/>
      <vel value="0.0047284521" flag="0"/>
      <psa03 value="0.0143322565" flag="0"/>
      <psa10 value="0.0075699690" flag="0"/>
      <psa30 value="0.0005873648" flag="0"/>
    </comp>
    <comp name="--.HHE">
      <acc value="0.0045302789" flag="0"/>
      <vel value="0.0030943108" flag="0"/>
      <psa03 value="0.0128109428" flag="0"/>
      <psa10 value="0.0044289251" flag="0"/>
      <psa30 value="0.0006787934" flag="0"/>
    </comp>
    <comp name="--.HHZ">
      <acc value="0.0039834765" flag="0"/>
      <vel value="0.0017665282" flag="0"/>
      <psa03 value="0.0073845805" flag="0"/>
      <psa10 value="0.0018782302" flag="0"/>
      <psa30 value="0.0002108563" flag="0"/>
    </comp>
  </station>
  <station code="KNDR" name="KNDR" netid="HC" insttype="120" lat="35.2348" lon="23.6248">
    <comp name="--.HHE">
      <acc value="0.0253200302" flag="0"/>
      <vel value="0.0168330165" flag="0"/>
      <psa03 value="0.0785604287" flag="0"/>
      <psa10 value="0.0253745921" flag="0"/>
      <psa30 value="0.0014890677" flag="0"/>
    </comp>
    <comp name="--.HHN">
      <acc value="0.0257022875" flag="0"/>
      <vel value="0.0174054924" flag="0"/>
      <psa03 value="0.1090535972" flag="0"/>
      <psa10 value="0.0255355255" flag="0"/>
      <psa30 value="0.0010615538" flag="0"/>
    </comp>
    <comp name="--.HHZ">
      <acc value="0.0163014793" flag="0"/>
      <vel value="0.0085406779" flag="0"/>
      <psa03 value="0.0429892346" flag="0"/>
      <psa10 value="0.0115428236" flag="0"/>
      <psa30 value="0.0010409521" flag="0"/>
    </comp>
  </station>
  <station code="KTHR" name="KTHR" netid="HC" insttype="120s" lat="36.2447" lon="22.9939">
    <comp name="--.HHN">
      <acc value="0.0382871315" flag="0"/>
      <vel value="0.0202655381" flag="0"/>
      <psa03 value="0.1096032574" flag="0"/>
      <psa10 value="0.0144501226" flag="0"/>
      <psa30 value="0.0008942201" flag="0"/>
    </comp>
    <comp name="--.HHZ">
      <acc value="0.0241688410" flag="0"/>
      <vel value="0.0110360669" flag="0"/>
      <psa03 value="0.0619744425" flag="0"/>
      <psa10 value="0.0062651841" flag="0"/>
      <psa30 value="0.0005672317" flag="0"/>
    </comp>
    <comp name="--.HHE">
      <acc value="0.0346397138" flag="0"/>
      <vel value="0.0169529798" flag="0"/>
      <psa03 value="0.1364564262" flag="0"/>
      <psa10 value="0.0113010577" flag="0"/>
      <psa30 value="0.0013277519" flag="0"/>
    </comp>
  </station>
  <station code="RODP" name="RODP" netid="HC" insttype="120" lat="35.5604" lon="23.7577">
    <comp name="--.HHN">
      <acc value="0.0107021191" flag="0"/>
      <vel value="0.0064290948" flag="0"/>
      <psa03 value="0.0289345424" flag="0"/>
      <psa10 value="0.0082349823" flag="0"/>
      <psa30 value="0.0014812827" flag="0"/>
    </comp>
    <comp name="--.HHZ">
      <acc value="0.0084695917" flag="0"/>
      <vel value="0.0040881108" flag="0"/>
      <psa03 value="0.0201266773" flag="0"/>
      <psa10 value="0.0035850270" flag="0"/>
      <psa30 value="0.0004118666" flag="0"/>
    </comp>
    <comp name="--.HHE">
      <acc value="0.0148902429" flag="0"/>
      <vel value="0.0086212697" flag="0"/>
      <psa03 value="0.0439574668" flag="0"/>
      <psa10 value="0.0095078937" flag="0"/>
      <psa30 value="0.0013995340" flag="0"/>
    </comp>
  </station>
  <station code="NPS1" name="NPS1" netid="HI" insttype="CMG-5TD,ACCELEROMETER,GURALP" lat="36.5126" lon="23.0625">
    <comp name="--.HNN">
      <acc value="0.0169725447" flag="0"/>
      <vel value="0.0116624537" flag="0"/>
      <psa03 value="0.0553313911" flag="0"/>
      <psa10 value="0.0089849813" flag="0"/>
      <psa30 value="0.0005758265" flag="0"/>
    </comp>
    <comp name="--.HNE">
      <acc value="0.0132252452" flag="0"/>
      <vel value="0.0097082898" flag="0"/>
      <psa03 value="0.0465709656" flag="0"/>
      <psa10 value="0.0111174663" flag="0"/>
      <psa30 value="0.0010339000" flag="0"/>
    </comp>
    <comp name="--.HNZ">
      <acc value="0.0125722651" flag="0"/>
      <vel value="0.0035906853" flag="0"/>
      <psa03 value="0.0277866153" flag="0"/>
      <psa10 value="0.0053622120" flag="0"/>
      <psa30 value="0.0006720096" flag="0"/>
    </comp>
  </station>
  <station code="ANKY" name="ANKY" netid="HL" insttype="60" lat="35.867" lon="23.3012">
    <comp name="--.HHE">
      <acc value="0.0175857486" flag="0"/>
      <vel value="0.0100030260" flag="0"/>
      <psa03 value="0.0615462857" flag="0"/>
      <psa10 value="0.0224763184" flag="0"/>
      <psa30 value="0.0013552428" flag="0"/>
    </comp>
    <comp name="--.HHZ">
      <acc value="0.0169448839" flag="0"/>
      <vel value="0.0065664519" flag="0"/>
      <psa03 value="0.0335940216" flag="0"/>
      <psa10 value="0.0085460882" flag="0"/>
      <psa30 value="0.0012395216" flag="0"/>
    </comp>
    <comp name="--.HHN">
      <acc value="0.0193808407" flag="0"/>
      <vel value="0.0102030550" flag="0"/>
      <psa03 value="0.0448895964" flag="0"/>
      <psa10 value="0.0150501736" flag="0"/>
      <psa30 value="0.0009330371" flag="0"/>
    </comp>
  </station>
  <station code="GVD" name="GVD" netid="HL" insttype="120" lat="34.8391" lon="24.0874">
    <comp name="--.HHE">
      <acc value="0.1508899501" flag="0"/>
      <vel value="0.0216594307" flag="0"/>
      <psa03 value="0.0745566079" flag="0"/>
      <psa10 value="0.0156520603" flag="0"/>
      <psa30 value="0.0021053185" flag="0"/>
    </comp>
    <comp name="--.HHN">
      <acc value="0.0068270560" flag="0"/>
      <vel value="0.0036995461" flag="0"/>
      <psa03 value="0.0190526111" flag="0"/>
      <psa10 value="0.0027454590" flag="0"/>
      <psa30 value="0.0005035496" flag="0"/>
    </comp>
    <comp name="--.HHZ">
      <acc value="0.0044610650" flag="0"/>
      <vel value="0.0015938162" flag="0"/>
      <psa03 value="0.0094559533" flag="0"/>
      <psa10 value="0.0025662797" flag="0"/>
      <psa30 value="0.0003804497" flag="0"/>
    </comp>
  </station>
  <station code="IMMV" name="IMMV" netid="HL" insttype="120" lat="35.4606" lon="23.9811">
    <comp name="--.HHZ">
      <acc value="0.0073794363" flag="0"/>
      <vel value="0.0048375550" flag="0"/>
      <psa03 value="0.0231394200" flag="0"/>
      <psa10 value="0.0040025484" flag="0"/>
      <psa30 value="0.0006156971" flag="0"/>
    </comp>
    <comp name="--.HHN">
      <acc value="0.0119926858" flag="0"/>
      <vel value="0.0091549401" flag="0"/>
      <psa03 value="0.0378221299" flag="0"/>
      <psa10 value="0.0109787269" flag="0"/>
      <psa30 value="0.0007626003" flag="0"/>
    </comp>
    <comp name="--.HHE">
      <acc value="0.0105767463" flag="0"/>
      <vel value="0.0066724370" flag="0"/>
      <psa03 value="0.0362250055" flag="0"/>
      <psa10 value="0.0077593556" flag="0"/>
      <psa30 value="0.0007654118" flag="0"/>
    </comp>
  </station>
  <station code="KTHA" name="KTHA" netid="HL" insttype="120" lat="36.2566" lon="23.0621">
    <comp name="--.HHN">
      <acc value="0.0128755127" flag="0"/>
      <vel value="0.0057473116" flag="0"/>
      <psa03 value="0.0233722700" flag="0"/>
      <psa10 value="0.0060298081" flag="0"/>
      <psa30 value="0.0006871407" flag="0"/>
    </comp>
    <comp name="--.HHZ">
      <acc value="0.0119587386" flag="0"/>
      <vel value="0.0038904441" flag="0"/>
      <psa03 value="0.0183974790" flag="0"/>
      <psa10 value="0.0057834931" flag="0"/>
      <psa30 value="0.0008226589" flag="0"/>
    </comp>
    <comp name="--.HHE">
      <acc value="0.0156239228" flag="0"/>
      <vel value="0.0115770633" flag="0"/>
      <psa03 value="0.0396380086" flag="0"/>
      <psa10 value="0.0128764690" flag="0"/>
      <psa30 value="0.0015794335" flag="0"/>
    </comp>
  </station>
  <station code="VAM" name="VAM" netid="HL" insttype="CMG3ESPC-120s" lat="35.407" lon="24.1997">
    <comp name="--.HHN">
      <acc value="0.0083503367" flag="0"/>
      <vel value="0.0050629311" flag="0"/>
      <psa03 value="0.0239557076" flag="0"/>
      <psa10 value="0.0063737472" flag="0"/>
      <psa30 value="0.0006121552" flag="0"/>
    </comp>
    <comp name="--.HHE">
      <acc value="0.0065266718" flag="0"/>
      <vel value="0.0046385940" flag="0"/>
      <psa03 value="0.0218747302" flag="0"/>
      <psa10 value="0.0057340102" flag="0"/>
      <psa30 value="0.0004635632" flag="0"/>
    </comp>
    <comp name="--.HHZ">
      <acc value="0.0055153102" flag="0"/>
      <vel value="0.0028992306" flag="0"/>
      <psa03 value="0.0134634421" flag="0"/>
      <psa10 value="0.0033116030" flag="0"/>
      <psa30 value="0.0003043679" flag="0"/>
    </comp>
  </station>
</stationlist>
