<stationlist xmlns:esm="https://esm-db.eu/esmws/shakemap/1/" created="1784080483">
	<station code="KTHA" name="KTHA" netid="GE" source="GEOFON" insttype="" lat="36.2566" lon="23.0621" esm:processing="automatic (Paolucci et al 2011)" esm:quality="good">
		<comp name="--.HNE" depth="0.0">
			<acc value="0.0147851422584874" flag="0"/>
			<vel value="0.00930992984810398" flag="0"/>
			<psa03 value="0.0383764302710129" flag="0"/>
			<psa10 value="0.013492483498308" flag="0"/>
			<psa30 value="0.0018355768062885" flag="0"/>
		</comp>
		<comp name="--.HNN" depth="0.0">
			<acc value="0.0124091062748544" flag="0"/>
			<vel value="0.00494984802390568" flag="0"/>
			<psa03 value="0.0225411026124287" flag="0"/>
			<psa10 value="0.00617159680674465" flag="0"/>
			<psa30 value="0.00169967009480361" flag="0"/>
		</comp>
		<comp name="--.HNZ" depth="0.0">
			<acc value="0.0118363602353262" flag="0"/>
			<vel value="0.00328902650993756" flag="0"/>
			<psa03 value="0.0172814026206126" flag="0"/>
			<psa10 value="0.00427407188628623" flag="0"/>
			<psa30 value="0.00145705016825661" flag="0"/>
		</comp>
	</station>
	<station code="ABEA" name="ABEA" netid="HC" source="Seismological Network of Crete (HC)" insttype="" lat="35.5163" lon="24.0113" esm:processing="manual (Paolucci et al 2011)" esm:quality="good">
		<comp name="--.HNE" depth="0.0">
			<acc value="0.0161680839992418" flag="0"/>
			<vel value="0.00908738942072499" flag="0"/>
			<psa03 value="0.036668595781177" flag="0"/>
			<psa10 value="0.0118819271193582" flag="0"/>
			<psa30 value="0.00136847221706827" flag="0"/>
		</comp>
		<comp name="--.HNN" depth="0.0">
			<acc value="0.0152294730175439" flag="0"/>
			<vel value="0.0125027864979461" flag="0"/>
			<psa03 value="0.046640886604836" flag="0"/>
			<psa10 value="0.0107858476344716" flag="0"/>
			<psa30 value="0.00169327883807951" flag="0"/>
		</comp>
		<comp name="--.HNZ" depth="0.0">
			<acc value="0.00791528163221767" flag="0"/>
			<vel value="0.00412662230127144" flag="0"/>
			<psa03 value="0.0176394094097203" flag="0"/>
			<psa10 value="0.00782457552722765" flag="0"/>
			<psa30 value="0.00133000935659253" flag="0"/>
		</comp>
	</station>
	<station code="ATEI" name="ATEI" netid="HC" source="Seismological Network of Crete (HC)" insttype="" lat="35.5193" lon="24.0432" esm:processing="manual (Paolucci et al 2011)" esm:quality="good">
		<comp name="--.HNE" depth="0.0">
			<acc value="0.00906790539304485" flag="0"/>
			<vel value="0.00763880417970903" flag="0"/>
			<psa03 value="0.0266794080048446" flag="0"/>
			<psa10 value="0.00741751653031685" flag="0"/>
			<psa30 value="0.00106877528028371" flag="0"/>
		</comp>
		<comp name="--.HNN" depth="0.0">
			<acc value="0.00814222230863462" flag="0"/>
			<vel value="0.00757887249979662" flag="0"/>
			<psa03 value="0.0243536992505536" flag="0"/>
			<psa10 value="0.0125455082658524" flag="0"/>
			<psa30 value="0.00134597583095976" flag="0"/>
		</comp>
		<comp name="--.HNZ" depth="0.0">
			<acc value="0.00846688760523333" flag="0"/>
			<vel value="0.00455235979758472" flag="0"/>
			<psa03 value="0.0162684644246767" flag="0"/>
			<psa10 value="0.00518219548251782" flag="0"/>
			<psa30 value="0.00114385775412911" flag="0"/>
		</comp>
	</station>
	<station code="LENT" name="LENT" netid="HC" source="Seismological Network of Crete (HC)" insttype="" lat="35.5074" lon="24.0402" esm:processing="manual (Paolucci et al 2011)" esm:quality="good">
		<comp name="--.HNE" depth="0.0">
			<acc value="0.0103042200003473" flag="0"/>
			<vel value="0.00767785349523318" flag="0"/>
			<psa03 value="0.0235417157731332" flag="0"/>
			<psa10 value="0.0132229118905181" flag="0"/>
			<psa30 value="0.00126064382396642" flag="0"/>
		</comp>
		<comp name="--.HNN" depth="0.0">
			<acc value="0.0100758775754439" flag="0"/>
			<vel value="0.0100735338047421" flag="0"/>
			<psa03 value="0.0266336862260011" flag="0"/>
			<psa10 value="0.0140199118753556" flag="0"/>
			<psa30 value="0.00172024468693465" flag="0"/>
		</comp>
		<comp name="--.HNZ" depth="0.0">
			<acc value="0.0093631325073147" flag="0"/>
			<vel value="0.00471485828369242" flag="0"/>
			<psa03 value="0.0219774402725584" flag="0"/>
			<psa10 value="0.00891432459275503" flag="0"/>
			<psa30 value="0.00091895473040756" flag="0"/>
		</comp>
	</station>
	<station code="PASK" name="PASK" netid="HC" source="Seismological Network of Crete (HC)" insttype="" lat="35.4996" lon="24.0121" esm:processing="automatic (Paolucci et al 2011)" esm:quality="best">
		<comp name="--.HNE" depth="0.0">
			<acc value="0.0179591706697302" flag="0"/>
			<vel value="0.0159198324491064" flag="0"/>
			<psa03 value="0.0517243171072152" flag="0"/>
			<psa10 value="0.0203907889147057" flag="0"/>
			<psa30 value="0.00228923123366789" flag="0"/>
		</comp>
		<comp name="--.HNN" depth="0.0">
			<acc value="0.0213246320538067" flag="0"/>
			<vel value="0.0187464467617128" flag="0"/>
			<psa03 value="0.0611108972551656" flag="0"/>
			<psa10 value="0.0243347958107892" flag="0"/>
			<psa30 value="0.00288449004164413" flag="0"/>
		</comp>
		<comp name="--.HNZ" depth="0.0">
			<acc value="0.0127194164563673" flag="0"/>
			<vel value="0.00679075335611142" flag="0"/>
			<psa03 value="0.0374616352953417" flag="0"/>
			<psa10 value="0.00604694604926413" flag="0"/>
			<psa30 value="0.00146397864806827" flag="0"/>
		</comp>
	</station>
	<station code="POLY" name="POLY" netid="HC" source="Seismological Network of Crete (HC)" insttype="" lat="35.5226" lon="24.0602" esm:processing="manual (Paolucci et al 2011)" esm:quality="good">
		<comp name="--.HNE" depth="0.0">
			<acc value="0.00913579369058819" flag="0"/>
			<vel value="0.00593866596486254" flag="0"/>
			<psa03 value="0.0255867496840933" flag="0"/>
			<psa10 value="0.00794957880808152" flag="0"/>
			<psa30 value="0.00132814142035092" flag="0"/>
		</comp>
		<comp name="--.HNN" depth="0.0">
			<acc value="0.0124826310922278" flag="0"/>
			<vel value="0.00744430577914045" flag="0"/>
			<psa03 value="0.0319775480431202" flag="0"/>
			<psa10 value="0.00848760444963978" flag="0"/>
			<psa30 value="0.00122529314882435" flag="0"/>
		</comp>
		<comp name="--.HNZ" depth="0.0">
			<acc value="0.00863965159151147" flag="0"/>
			<vel value="0.00316357480682825" flag="0"/>
			<psa03 value="0.0165763962819843" flag="0"/>
			<psa10 value="0.00444700521727087" flag="0"/>
			<psa30 value="0.000728652227967396" flag="0"/>
		</comp>
	</station>
	<station code="CH01" name="CH01" netid="HI" source="ITSAK Strong Motion Network" insttype="" lat="35.517" lon="24.0208" esm:processing="manual (Paolucci et al 2011)" esm:quality="best">
		<comp name="--.HNE" depth="0.0">
			<acc value="0.0104860897727239" flag="0"/>
			<vel value="0.00818221374368758" flag="0"/>
			<psa03 value="0.0286047360692077" flag="0"/>
			<psa10 value="0.00992234355654872" flag="0"/>
			<psa30 value="0.00106806669167684" flag="0"/>
		</comp>
		<comp name="--.HNN" depth="0.0">
			<acc value="0.0114401003154405" flag="0"/>
			<vel value="0.00742561936519811" flag="0"/>
			<psa03 value="0.0275751288003022" flag="0"/>
			<psa10 value="0.0113276422757171" flag="0"/>
			<psa30 value="0.00201010190938554" flag="0"/>
		</comp>
		<comp name="--.HNZ" depth="0.0">
			<acc value="0.00699669881301546" flag="0"/>
			<vel value="0.00555036405545501" flag="0"/>
			<psa03 value="0.013378743046919" flag="0"/>
			<psa10 value="0.0141148709784216" flag="0"/>
			<psa30 value="0.000989234281916258" flag="0"/>
		</comp>
	</station>
	<station code="NPS1" name="NPS1" netid="HI" source="ITSAK Strong Motion Network" insttype="" lat="36.51263" lon="23.06248" esm:processing="manual (Paolucci et al 2011)" esm:quality="best">
		<comp name="--.HNE" depth="0.0">
			<acc value="0.0131550325624861" flag="0"/>
			<vel value="0.00974316729541076" flag="0"/>
			<psa03 value="0.0464753495972683" flag="0"/>
			<psa10 value="0.011124658204028" flag="0"/>
			<psa30 value="0.00107314640318465" flag="0"/>
		</comp>
		<comp name="--.HNN" depth="0.0">
			<acc value="0.0170148574208004" flag="0"/>
			<vel value="0.0116562839870721" flag="0"/>
			<psa03 value="0.0550226501887916" flag="0"/>
			<psa10 value="0.00899919458995615" flag="0"/>
			<psa30 value="0.000588234801003142" flag="0"/>
		</comp>
		<comp name="--.HNZ" depth="0.0">
			<acc value="0.0120472732207406" flag="0"/>
			<vel value="0.00358558384731263" flag="0"/>
			<psa03 value="0.0280462120905615" flag="0"/>
			<psa10 value="0.00536413597268493" flag="0"/>
			<psa30 value="0.000691878958585327" flag="0"/>
		</comp>
	</station>
	<station code="IMMV" name="IMMV" netid="HL" source="National Observatory of Athens Seismic Network" insttype="" lat="35.4606" lon="23.9811" esm:processing="automatic (Paolucci et al 2011)" esm:quality="best">
		<comp name="--.HNE" depth="0.0">
			<acc value="0.010344127852472" flag="0"/>
			<vel value="0.00655005698229254" flag="0"/>
			<psa03 value="0.0351796768351099" flag="0"/>
			<psa10 value="0.0075128703470369" flag="0"/>
			<psa30 value="0.000806413108411335" flag="0"/>
		</comp>
		<comp name="--.HNN" depth="0.0">
			<acc value="0.0116177647611198" flag="0"/>
			<vel value="0.00900172511273537" flag="0"/>
			<psa03 value="0.0368785550024491" flag="0"/>
			<psa10 value="0.0107215486874695" flag="0"/>
			<psa30 value="0.000733285034866039" flag="0"/>
		</comp>
		<comp name="--.HNZ" depth="0.0">
			<acc value="0.00729002193943795" flag="0"/>
			<vel value="0.00494061724820556" flag="0"/>
			<psa03 value="0.0228452347388645" flag="0"/>
			<psa10 value="0.00397955643858462" flag="0"/>
			<psa30 value="0.000637407329274825" flag="0"/>
		</comp>
	</station>
	<station code="KTHA" name="KTHA" netid="HL" source="National Observatory of Athens Seismic Network" insttype="" lat="36.2566" lon="23.0621" esm:processing="manual (Paolucci et al 2011)" esm:quality="good">
		<comp name="--.HNE" depth="0.0">
			<acc value="0.127231535931011" flag="0"/>
			<vel value="0.0820391778376499" flag="0"/>
			<psa03 value="0.319448391054803" flag="0"/>
			<psa10 value="0.0898728211333271" flag="0"/>
			<psa30 value="0.00627091708414742" flag="0"/>
		</comp>
		<comp name="--.HNN" depth="0.0">
			<acc value="0.0977185509643111" flag="0"/>
			<vel value="0.0466742707503575" flag="0"/>
			<psa03 value="0.195874829912845" flag="0"/>
			<psa10 value="0.0481136285417614" flag="0"/>
			<psa30 value="0.0038491558210158" flag="0"/>
		</comp>
		<comp name="--.HNZ" depth="0.0">
			<acc value="0.0865572344674405" flag="0"/>
			<vel value="0.0310229000753918" flag="0"/>
			<psa03 value="0.142244995949546" flag="0"/>
			<psa10 value="0.0284274119265256" flag="0"/>
			<psa30 value="0.00288058853318646" flag="0"/>
		</comp>
	</station>
	<station code="G0LD" name="G0LD" netid="HC" source="Seismological Network of Crete (HC)" insttype="" lat="35.4955" lon="24.0306" esm:processing="automatic (Paolucci et al 2011)" esm:quality="bad">
		<comp name="--.HNE" depth="0.0">
			<acc value="0" flag="1"/>
			<vel value="0" flag="1"/>
			<psa03 value="0" flag="1"/>
			<psa10 value="0" flag="1"/>
			<psa30 value="0" flag="1"/>
		</comp>
		<comp name="--.HNN" depth="0.0">
			<acc value="0" flag="1"/>
			<vel value="0" flag="1"/>
			<psa03 value="0" flag="1"/>
			<psa10 value="0" flag="1"/>
			<psa30 value="0" flag="1"/>
		</comp>
		<comp name="--.HNZ" depth="0.0">
			<acc value="0" flag="1"/>
			<vel value="0" flag="1"/>
			<psa03 value="0" flag="1"/>
			<psa10 value="0" flag="1"/>
			<psa30 value="0" flag="1"/>
		</comp>
	</station>
	<station code="MULT" name="MULT" netid="HC" source="Seismological Network of Crete (HC)" insttype="" lat="35.5091" lon="24.0118" esm:processing="automatic (Paolucci et al 2011)" esm:quality="bad">
		<comp name="--.HNE" depth="0.0">
			<acc value="0" flag="1"/>
			<vel value="0" flag="1"/>
			<psa03 value="0" flag="1"/>
			<psa10 value="0" flag="1"/>
			<psa30 value="0" flag="1"/>
		</comp>
		<comp name="--.HNN" depth="0.0">
			<acc value="0" flag="1"/>
			<vel value="0" flag="1"/>
			<psa03 value="0" flag="1"/>
			<psa10 value="0" flag="1"/>
			<psa30 value="0" flag="1"/>
		</comp>
		<comp name="--.HNZ" depth="0.0">
			<acc value="0" flag="1"/>
			<vel value="0" flag="1"/>
			<psa03 value="0" flag="1"/>
			<psa10 value="0" flag="1"/>
			<psa30 value="0" flag="1"/>
		</comp>
	</station>
	<station code="NERO" name="NERO" netid="HC" source="Seismological Network of Crete (HC)" insttype="" lat="35.474" lon="24.0423" esm:processing="automatic (Paolucci et al 2011)" esm:quality="bad">
		<comp name="--.HNE" depth="0.0">
			<acc value="0" flag="1"/>
			<vel value="0" flag="1"/>
			<psa03 value="0" flag="1"/>
			<psa10 value="0" flag="1"/>
			<psa30 value="0" flag="1"/>
		</comp>
		<comp name="--.HNN" depth="0.0">
			<acc value="0" flag="1"/>
			<vel value="0" flag="1"/>
			<psa03 value="0" flag="1"/>
			<psa10 value="0" flag="1"/>
			<psa30 value="0" flag="1"/>
		</comp>
		<comp name="--.HNZ" depth="0.0">
			<acc value="0" flag="1"/>
			<vel value="0" flag="1"/>
			<psa03 value="0" flag="1"/>
			<psa10 value="0" flag="1"/>
			<psa30 value="0" flag="1"/>
		</comp>
	</station>
	<station code="SOUD" name="SOUD" netid="HC" source="Seismological Network of Crete (HC)" insttype="" lat="35.4878" lon="24.0678" esm:processing="automatic (Paolucci et al 2011)" esm:quality="bad">
		<comp name="--.HNE" depth="0.0">
			<acc value="0" flag="1"/>
			<vel value="0" flag="1"/>
			<psa03 value="0" flag="1"/>
			<psa10 value="0" flag="1"/>
			<psa30 value="0" flag="1"/>
		</comp>
		<comp name="--.HNN" depth="0.0">
			<acc value="0" flag="1"/>
			<vel value="0" flag="1"/>
			<psa03 value="0" flag="1"/>
			<psa10 value="0" flag="1"/>
			<psa30 value="0" flag="1"/>
		</comp>
		<comp name="--.HNZ" depth="0.0">
			<acc value="0" flag="1"/>
			<vel value="0" flag="1"/>
			<psa03 value="0" flag="1"/>
			<psa10 value="0" flag="1"/>
			<psa30 value="0" flag="1"/>
		</comp>
	</station>
	<station code="TEFL" name="TEFL" netid="HC" source="Seismological Network of Crete (HC)" insttype="" lat="35.093273" lon="25.163418" esm:processing="automatic (Paolucci et al 2011)" esm:quality="bad">
		<comp name="--.HNE" depth="0.0">
			<acc value="0" flag="1"/>
			<vel value="0" flag="1"/>
			<psa03 value="0" flag="1"/>
			<psa10 value="0" flag="1"/>
			<psa30 value="0" flag="1"/>
		</comp>
		<comp name="--.HNN" depth="0.0">
			<acc value="0" flag="1"/>
			<vel value="0" flag="1"/>
			<psa03 value="0" flag="1"/>
			<psa10 value="0" flag="1"/>
			<psa30 value="0" flag="1"/>
		</comp>
		<comp name="--.HNZ" depth="0.0">
			<acc value="0" flag="1"/>
			<vel value="0" flag="1"/>
			<psa03 value="0" flag="1"/>
			<psa10 value="0" flag="1"/>
			<psa30 value="0" flag="1"/>
		</comp>
	</station>
	<station code="IACM" name="IACM" netid="HL" source="National Observatory of Athens Seismic Network" insttype="" lat="35.3058" lon="25.0709" esm:processing="automatic (Paolucci et al 2011)" esm:quality="bad">
		<comp name="--.HNE" depth="0.0">
			<acc value="0" flag="1"/>
			<vel value="0" flag="1"/>
			<psa03 value="0" flag="1"/>
			<psa10 value="0" flag="1"/>
			<psa30 value="0" flag="1"/>
		</comp>
		<comp name="--.HNN" depth="0.0">
			<acc value="0" flag="1"/>
			<vel value="0" flag="1"/>
			<psa03 value="0" flag="1"/>
			<psa10 value="0" flag="1"/>
			<psa30 value="0" flag="1"/>
		</comp>
		<comp name="--.HNZ" depth="0.0">
			<acc value="0" flag="1"/>
			<vel value="0" flag="1"/>
			<psa03 value="0" flag="1"/>
			<psa10 value="0" flag="1"/>
			<psa30 value="0" flag="1"/>
		</comp>
	</station>
	<station code="KSTE" name="KSTE" netid="HL" source="National Observatory of Athens Seismic Network" insttype="" lat="35.1801" lon="25.3372" esm:processing="discarded" esm:quality="bad">
		<comp name="--.HNE" depth="0.0">
			<acc value="0" flag="1"/>
			<vel value="0" flag="1"/>
			<psa03 value="0" flag="1"/>
			<psa10 value="0" flag="1"/>
			<psa30 value="0" flag="1"/>
		</comp>
		<comp name="--.HNN" depth="0.0">
			<acc value="0" flag="1"/>
			<vel value="0" flag="1"/>
			<psa03 value="0" flag="1"/>
			<psa10 value="0" flag="1"/>
			<psa30 value="0" flag="1"/>
		</comp>
		<comp name="--.HNZ" depth="0.0">
			<acc value="0" flag="1"/>
			<vel value="0" flag="1"/>
			<psa03 value="0" flag="1"/>
			<psa10 value="0" flag="1"/>
			<psa30 value="0" flag="1"/>
		</comp>
	</station>
	<station code="MNVA" name="MNVA" netid="HL" source="National Observatory of Athens Seismic Network" insttype="" lat="36.68709" lon="23.03734" esm:processing="automatic (Paolucci et al 2011)" esm:quality="bad">
		<comp name="00.HNE" depth="0.0">
			<acc value="0" flag="1"/>
			<vel value="0" flag="1"/>
			<psa03 value="0" flag="1"/>
			<psa10 value="0" flag="1"/>
			<psa30 value="0" flag="1"/>
		</comp>
		<comp name="00.HNN" depth="0.0">
			<acc value="0" flag="1"/>
			<vel value="0" flag="1"/>
			<psa03 value="0" flag="1"/>
			<psa10 value="0" flag="1"/>
			<psa30 value="0" flag="1"/>
		</comp>
		<comp name="00.HNZ" depth="0.0">
			<acc value="0" flag="1"/>
			<vel value="0" flag="1"/>
			<psa03 value="0" flag="1"/>
			<psa10 value="0" flag="1"/>
			<psa30 value="0" flag="1"/>
		</comp>
	</station>
	<station code="SIVA" name="SIVA" netid="HL" source="National Observatory of Athens Seismic Network" insttype="" lat="35.01777" lon="24.81204" esm:processing="automatic (Paolucci et al 2011)" esm:quality="bad">
		<comp name="00.HNE" depth="0.0">
			<acc value="0" flag="1"/>
			<vel value="0" flag="1"/>
			<psa03 value="0" flag="1"/>
			<psa10 value="0" flag="1"/>
			<psa30 value="0" flag="1"/>
		</comp>
		<comp name="00.HNN" depth="0.0">
			<acc value="0" flag="1"/>
			<vel value="0" flag="1"/>
			<psa03 value="0" flag="1"/>
			<psa10 value="0" flag="1"/>
			<psa30 value="0" flag="1"/>
		</comp>
		<comp name="00.HNZ" depth="0.0">
			<acc value="0" flag="1"/>
			<vel value="0" flag="1"/>
			<psa03 value="0" flag="1"/>
			<psa10 value="0" flag="1"/>
			<psa30 value="0" flag="1"/>
		</comp>
	</station>
	<station code="YDRA" name="YDRA" netid="HL" source="National Observatory of Athens Seismic Network" insttype="" lat="37.34923" lon="23.46525" esm:processing="discarded" esm:quality="bad">
		<comp name="00.HNE" depth="0.0">
			<acc value="0" flag="1"/>
			<vel value="0" flag="1"/>
			<psa03 value="0" flag="1"/>
			<psa10 value="0" flag="1"/>
			<psa30 value="0" flag="1"/>
		</comp>
		<comp name="00.HNN" depth="0.0">
			<acc value="0" flag="1"/>
			<vel value="0" flag="1"/>
			<psa03 value="0" flag="1"/>
			<psa10 value="0" flag="1"/>
			<psa30 value="0" flag="1"/>
		</comp>
		<comp name="00.HNZ" depth="0.0">
			<acc value="0" flag="1"/>
			<vel value="0" flag="1"/>
			<psa03 value="0" flag="1"/>
			<psa10 value="0" flag="1"/>
			<psa30 value="0" flag="1"/>
		</comp>
	</station>
	<station code="PYL" name="PYL" netid="HP" source="University of Patras, Seismological Laboratory (PSLNET)" insttype="" lat="36.8955" lon="21.742" esm:processing="discarded" esm:quality="bad">
		<comp name="--.HNE" depth="0.0">
			<acc value="0" flag="1"/>
			<vel value="0" flag="1"/>
			<psa03 value="0" flag="1"/>
			<psa10 value="0" flag="1"/>
			<psa30 value="0" flag="1"/>
		</comp>
		<comp name="--.HNN" depth="0.0">
			<acc value="0" flag="1"/>
			<vel value="0" flag="1"/>
			<psa03 value="0" flag="1"/>
			<psa10 value="0" flag="1"/>
			<psa30 value="0" flag="1"/>
		</comp>
		<comp name="--.HNZ" depth="0.0">
			<acc value="0" flag="1"/>
			<vel value="0" flag="1"/>
			<psa03 value="0" flag="1"/>
			<psa10 value="0" flag="1"/>
			<psa30 value="0" flag="1"/>
		</comp>
	</station>
	<station code="VALY" name="VALY" netid="HP" source="University of Patras, Seismological Laboratory (PSLNET)" insttype="" lat="37.1641" lon="21.9836" esm:processing="discarded" esm:quality="good">
		<comp name="--.HNE" depth="0.0">
			<acc value="0" flag="1"/>
			<vel value="0" flag="1"/>
			<psa03 value="0" flag="1"/>
			<psa10 value="0" flag="1"/>
			<psa30 value="0" flag="1"/>
		</comp>
		<comp name="--.HNN" depth="0.0">
			<acc value="0" flag="1"/>
			<vel value="0" flag="1"/>
			<psa03 value="0" flag="1"/>
			<psa10 value="0" flag="1"/>
