<?xml version="1.0" encoding="UTF-8" standalone="yes"?>
<!DOCTYPE earthquake SYSTEM "stationlist.dtd">
<stationlist created="" xmlns="ch.ethz.sed.shakemap.usgs.xml">
  <station code="AKS" name="AKS" netid="KO" insttype="CMG-5T" commtype="DIG" lat="38.8785" lon="27.8129">
    <comp name="--.HNE">
      <acc value="0.0883816669" flag="0"/>
      <vel value="0.0274725881" flag="0"/>
      <psa03 value="0.2573490189" flag="0"/>
      <psa10 value="0.0129155916" flag="0"/>
      <psa30 value="0.0011200887" flag="0"/>
    </comp>
    <comp name="--.HNZ">
      <acc value="0.0470787340" flag="0"/>
      <vel value="0.0109511165" flag="0"/>
      <psa03 value="0.0713689119" flag="0"/>
      <psa10 value="0.0055853061" flag="0"/>
      <psa30 value="0.0009190771" flag="0"/>
    </comp>
    <comp name="--.HNN">
      <acc value="0.0900258349" flag="0"/>
      <vel value="0.0272706286" flag="0"/>
      <psa03 value="0.2332423070" flag="0"/>
      <psa10 value="0.0125462639" flag="0"/>
      <psa30 value="0.0008363522" flag="0"/>
    </comp>
  </station>
  <station code="BALB" name="BALB" netid="KO" insttype="CMG-5T" commtype="DIG" lat="39.6507" lon="27.8642">
    <comp name="--.HNE">
      <acc value="0.0699305202" flag="0"/>
      <vel value="0.0284986019" flag="0"/>
      <psa03 value="0.1568010241" flag="0"/>
      <psa10 value="0.0325328635" flag="0"/>
      <psa30 value="0.0018757479" flag="0"/>
    </comp>
    <comp name="--.HNN">
      <acc value="0.0661401156" flag="0"/>
      <vel value="0.0247769587" flag="0"/>
      <psa03 value="0.1469425972" flag="0"/>
      <psa10 value="0.0208740680" flag="0"/>
      <psa30 value="0.0017080793" flag="0"/>
    </comp>
    <comp name="--.HNZ">
      <acc value="0.0712433184" flag="0"/>
      <vel value="0.0232083193" flag="0"/>
      <psa03 value="0.1047841805" flag="0"/>
      <psa10 value="0.0123321404" flag="0"/>
      <psa30 value="0.0013375424" flag="0"/>
    </comp>
  </station>
  <station code="DST" name="DST" netid="KO" insttype="CMG-5T" commtype="DIG" lat="39.6041" lon="28.6267">
    <comp name="--.HNN">
      <acc value="0.0711997394" flag="0"/>
      <vel value="0.0217764502" flag="0"/>
      <psa03 value="0.0995161707" flag="0"/>
      <psa10 value="0.0160930947" flag="0"/>
      <psa30 value="0.0011391269" flag="0"/>
    </comp>
    <comp name="--.HNZ">
      <acc value="0.0536107350" flag="0"/>
      <vel value="0.0145161358" flag="0"/>
      <psa03 value="0.0912903879" flag="0"/>
      <psa10 value="0.0114738202" flag="0"/>
      <psa30 value="0.0009403148" flag="0"/>
    </comp>
    <comp name="--.HNE">
      <acc value="0.0661482877" flag="0"/>
      <vel value="0.0236294769" flag="0"/>
      <psa03 value="0.1074113574" flag="0"/>
      <psa10 value="0.0140580720" flag="0"/>
      <psa30 value="0.0014146861" flag="0"/>
    </comp>
  </station>
  <station code="GOMA" name="GOMA" netid="KO" insttype="CMG-5T" commtype="DIG" lat="38.7077" lon="27.9175">
    <comp name="--.HNZ">
      <acc value="0.0461724103" flag="0"/>
      <vel value="0.0112485028" flag="0"/>
      <psa03 value="0.0585484515" flag="0"/>
      <psa10 value="0.0042829559" flag="0"/>
      <psa30 value="0.0005186376" flag="0"/>
    </comp>
    <comp name="--.HNE">
      <acc value="0.0603248691" flag="0"/>
      <vel value="0.0217841949" flag="0"/>
      <psa03 value="0.1320858679" flag="0"/>
      <psa10 value="0.0134334652" flag="0"/>
      <psa30 value="0.0010891131" flag="0"/>
    </comp>
    <comp name="--.HNN">
      <acc value="0.0547157995" flag="0"/>
      <vel value="0.0269578831" flag="0"/>
      <psa03 value="0.1611313789" flag="0"/>
      <psa10 value="0.0102073400" flag="0"/>
      <psa30 value="0.0009043071" flag="0"/>
    </comp>
  </station>
  <station code="GONE" name="GONE" netid="KO" insttype="CMG-5T" commtype="DIG" lat="40.0466" lon="27.686">
    <comp name="--.HNN">
      <acc value="0.0414089288" flag="0"/>
      <vel value="0.0158006520" flag="0"/>
      <psa03 value="0.0982268195" flag="0"/>
      <psa10 value="0.0101286210" flag="0"/>
      <psa30 value="0.0011018456" flag="0"/>
    </comp>
    <comp name="--.HNE">
      <acc value="0.0363219828" flag="0"/>
      <vel value="0.0129732184" flag="0"/>
      <psa03 value="0.0838394168" flag="0"/>
      <psa10 value="0.0061997494" flag="0"/>
      <psa30 value="0.0006541447" flag="0"/>
    </comp>
    <comp name="--.HNZ">
      <acc value="0.0312219259" flag="0"/>
      <vel value="0.0080280081" flag="0"/>
      <psa03 value="0.0392741022" flag="0"/>
      <psa10 value="0.0049108973" flag="0"/>
      <psa30 value="0.0004084931" flag="0"/>
    </comp>
  </station>
  <station code="GORD" name="GORD" netid="KO" insttype="CMG-5T" commtype="DIG" lat="38.9088" lon="28.1769">
    <comp name="--.HNE">
      <acc value="0.0401938733" flag="0"/>
      <vel value="0.0218297503" flag="0"/>
      <psa03 value="0.0971496247" flag="0"/>
      <psa10 value="0.0236333049" flag="0"/>
      <psa30 value="0.0024795592" flag="0"/>
    </comp>
    <comp name="--.HNZ">
      <acc value="0.0388789009" flag="0"/>
      <vel value="0.0154424207" flag="0"/>
      <psa03 value="0.0881621606" flag="0"/>
      <psa10 value="0.0178425268" flag="0"/>
      <psa30 value="0.0012509609" flag="0"/>
    </comp>
  </station>
  <station code="KCTX" name="KCTX" netid="KO" insttype="CMG-3ESP" commtype="DIG" lat="40.2626" lon="28.3353">
    <comp name="--.HHE">
      <acc value="0.0418352927" flag="0"/>
      <vel value="0.0141534370" flag="0"/>
      <psa03 value="0.0555205679" flag="0"/>
      <psa10 value="0.0074076480" flag="0"/>
      <psa30 value="0.0009951280" flag="0"/>
    </comp>
    <comp name="--.HHZ">
      <acc value="0.0272960795" flag="0"/>
      <vel value="0.0073593085" flag="0"/>
      <psa03 value="0.0387705074" flag="0"/>
      <psa10 value="0.0062507005" flag="0"/>
      <psa30 value="0.0004168926" flag="0"/>
    </comp>
    <comp name="--.HHN">
      <acc value="0.0344933353" flag="0"/>
      <vel value="0.0092189071" flag="0"/>
      <psa03 value="0.0638278000" flag="0"/>
      <psa10 value="0.0052334744" flag="0"/>
      <psa30 value="0.0003436075" flag="0"/>
    </comp>
  </station>
  <station code="KULA" name="KULA" netid="KO" insttype="CMG-3T" commtype="DIG" lat="38.5145" lon="28.6607">
    <comp name="--.HHE">
      <acc value="0.0293999753" flag="0"/>
      <vel value="0.0064407844" flag="0"/>
      <psa03 value="0.0222211711" flag="0"/>
      <psa10 value="0.0037673934" flag="0"/>
      <psa30 value="0.0003424117" flag="0"/>
    </comp>
    <comp name="--.HHZ">
      <acc value="0.0383915343" flag="0"/>
      <vel value="0.0049168321" flag="0"/>
      <psa03 value="0.0340587916" flag="0"/>
      <psa10 value="0.0045878260" flag="0"/>
      <psa30 value="0.0002306072" flag="0"/>
    </comp>
  </station>
  <station code="ORLT" name="ORLT" netid="KO" insttype="CMG-5T" commtype="DIG" lat="40.0452" lon="28.8914">
    <comp name="--.HNZ">
      <acc value="0.0300283197" flag="0"/>
      <vel value="0.0125181256" flag="0"/>
      <psa03 value="0.0616658249" flag="0"/>
      <psa10 value="0.0144225414" flag="0"/>
      <psa30 value="0.0007242795" flag="0"/>
    </comp>
    <comp name="--.HNN">
      <acc value="0.1474853684" flag="0"/>
      <vel value="0.0544896354" flag="0"/>
      <psa03 value="0.3785593113" flag="0"/>
      <psa10 value="0.0368325927" flag="0"/>
      <psa30 value="0.0023412295" flag="0"/>
    </comp>
    <comp name="--.HNE">
      <acc value="0.0993787952" flag="0"/>
      <vel value="0.0347964569" flag="0"/>
      <psa03 value="0.2036615255" flag="0"/>
      <psa10 value="0.0209392448" flag="0"/>
      <psa30 value="0.0014839616" flag="0"/>
    </comp>
  </station>
  <station code="SHAP" name="SHAP" netid="KO" insttype="CMG-5T" commtype="DIG" lat="39.0231" lon="29.222">
    <comp name="--.HNE">
      <acc value="0.0791493180" flag="0"/>
      <vel value="0.0247530852" flag="0"/>
      <psa03 value="0.1567867233" flag="0"/>
      <psa10 value="0.0088313927" flag="0"/>
      <psa30 value="0.0005814003" flag="0"/>
    </comp>
    <comp name="--.HNZ">
      <acc value="0.0496093215" flag="0"/>
      <vel value="0.0100659203" flag="0"/>
      <psa03 value="0.0426992943" flag="0"/>
      <psa10 value="0.0068899476" flag="0"/>
      <psa30 value="0.0007757144" flag="0"/>
    </comp>
    <comp name="--.HNN">
      <acc value="0.0899750698" flag="0"/>
      <vel value="0.0245019961" flag="0"/>
      <psa03 value="0.1368807111" flag="0"/>
      <psa10 value="0.0079854135" flag="0"/>
      <psa30 value="0.0008579078" flag="0"/>
    </comp>
  </station>
  <station code="SMAA" name="SMAA" netid="KO" insttype="CMG-5T" commtype="DIG" lat="39.1005" lon="28.9805">
    <comp name="--.HNE">
      <acc value="0.0594414664" flag="0"/>
      <vel value="0.0382261937" flag="0"/>
      <psa03 value="0.1901378777" flag="0"/>
      <psa10 value="0.0457370673" flag="0"/>
      <psa30 value="0.0062236990" flag="0"/>
    </comp>
    <comp name="--.HNZ">
      <acc value="0.0443454779" flag="0"/>
      <vel value="0.0120979833" flag="0"/>
      <psa03 value="0.0485398333" flag="0"/>
      <psa10 value="0.0296788861" flag="0"/>
      <psa30 value="0.0015086346" flag="0"/>
    </comp>
    <comp name="--.HNN">
      <acc value="0.0806531880" flag="0"/>
      <vel value="0.0418450527" flag="0"/>
      <psa03 value="0.1914175340" flag="0"/>
      <psa10 value="0.0410074555" flag="0"/>
      <psa30 value="0.0048625255" flag="0"/>
    </comp>
  </station>
  <station code="SOMA" name="SOMA" netid="KO" insttype="CMG-5T" commtype="DIG" lat="39.1564" lon="27.5341">
    <comp name="--.HNE">
      <acc value="0.0533183847" flag="0"/>
      <vel value="0.0125845105" flag="0"/>
      <psa03 value="0.0855849887" flag="0"/>
      <psa10 value="0.0159349931" flag="0"/>
      <psa30 value="0.0017177961" flag="0"/>
    </comp>
    <comp name="--.HNN">
      <acc value="0.0466078202" flag="0"/>
      <vel value="0.0156841960" flag="0"/>
      <psa03 value="0.0688886141" flag="0"/>
      <psa10 value="0.0143236656" flag="0"/>
      <psa30 value="0.0011452224" flag="0"/>
    </comp>
    <comp name="--.HNZ">
      <acc value="0.0664849234" flag="0"/>
      <vel value="0.0182751672" flag="0"/>
      <psa03 value="0.0347605497" flag="0"/>
      <psa10 value="0.0082969182" flag="0"/>
      <psa30 value="0.0014248439" flag="0"/>
    </comp>
  </station>
  <station code="SUSR" name="SUSR" netid="KO" insttype="CMG-5T" commtype="DIG" lat="39.9627" lon="28.0835">
    <comp name="--.HNN">
      <acc value="0.0478130895" flag="0"/>
      <vel value="0.0200026170" flag="0"/>
      <psa03 value="0.1327106910" flag="0"/>
      <psa10 value="0.0057019182" flag="0"/>
      <psa30 value="0.0004827211" flag="0"/>
    </comp>
    <comp name="--.HNZ">
      <acc value="0.0370572686" flag="0"/>
      <vel value="0.0122625663" flag="0"/>
      <psa03 value="0.0705810327" flag="0"/>
      <psa10 value="0.0057982065" flag="0"/>
      <psa30 value="0.0004525158" flag="0"/>
    </comp>
    <comp name="--.HNE">
      <acc value="0.0508099672" flag="0"/>
      <vel value="0.0144975732" flag="0"/>
      <psa03 value="0.0750315448" flag="0"/>
      <psa10 value="0.0081088640" flag="0"/>
      <psa30 value="0.0006737579" flag="0"/>
    </comp>
  </station>
  <station code="YENI" name="YENI" netid="KO" insttype="CMG-5T" commtype="DIG" lat="39.9364" lon="27.2422">
    <comp name="--.HNE">
      <acc value="0.0582794877" flag="0"/>
      <vel value="0.0262330738" flag="0"/>
      <psa03 value="0.1725077813" flag="0"/>
      <psa10 value="0.0157835524" flag="0"/>
      <psa30 value="0.0007982929" flag="0"/>
    </comp>
    <comp name="--.HNZ">
      <acc value="0.0385967241" flag="0"/>
      <vel value="0.0104203773" flag="0"/>
      <psa03 value="0.0716871726" flag="0"/>
      <psa10 value="0.0048067022" flag="0"/>
      <psa30 value="0.0004217468" flag="0"/>
    </comp>
    <comp name="--.HNN">
      <acc value="0.1121991602" flag="0"/>
      <vel value="0.0364844911" flag="0"/>
      <psa03 value="0.1526867553" flag="0"/>
      <psa10 value="0.0166561091" flag="0"/>
      <psa30 value="0.0012662149" flag="0"/>
    </comp>
  </station>
</stationlist>
