<?xml version="1.0" encoding="UTF-8" standalone="yes"?>
<!DOCTYPE earthquake SYSTEM "stationlist.dtd">
<stationlist created="" xmlns="ch.ethz.sed.shakemap.usgs.xml">
  <station code="GULA" name="GULA" netid="KO" insttype="30s," lat="38.3444" lon="34.236">
    <comp name="--.HHN">
      <acc value="0.1126263316" flag="0"/>
      <vel value="0.0847726468" flag="0"/>
      <psa03 value="0.2439115735" flag="0"/>
      <psa10 value="0.0567682377" flag="0"/>
      <psa30 value="0.0213276082" flag="0"/>
    </comp>
    <comp name="--.HHE">
      <acc value="0.1475216324" flag="0"/>
      <vel value="0.0864339272" flag="0"/>
      <psa03 value="0.2561623886" flag="0"/>
      <psa10 value="0.1015110390" flag="0"/>
      <psa30 value="0.0414267369" flag="0"/>
    </comp>
    <comp name="--.HHZ">
      <acc value="0.1050352009" flag="0"/>
      <vel value="0.0516906404" flag="0"/>
      <psa03 value="0.1806185494" flag="0"/>
      <psa10 value="0.0412771343" flag="0"/>
      <psa30 value="0.0360426218" flag="0"/>
    </comp>
  </station>
  <station code="KRMN" name="KRMN" netid="KO" insttype="100" lat="37.174" lon="33.2636">
    <comp name="--.HNE">
      <acc value="0.1762599470" flag="0"/>
      <vel value="0.1464368286" flag="0"/>
      <psa03 value="0.3690469316" flag="0"/>
      <psa10 value="0.2308108912" flag="0"/>
      <psa30 value="0.0497393265" flag="0"/>
    </comp>
    <comp name="--.HNN">
      <acc value="0.1560201059" flag="0"/>
      <vel value="0.1065152420" flag="0"/>
      <psa03 value="0.2715412247" flag="0"/>
      <psa10 value="0.1668184786" flag="0"/>
      <psa30 value="0.0328809684" flag="0"/>
    </comp>
    <comp name="--.HNZ">
      <acc value="0.0931399734" flag="0"/>
      <vel value="0.0593216461" flag="0"/>
      <psa03 value="0.2573056756" flag="0"/>
      <psa10 value="0.0568459223" flag="0"/>
      <psa30 value="0.0304184714" flag="0"/>
    </comp>
  </station>
  <station code="KULU" name="KULU" netid="KO" insttype="30s," lat="39.0343" lon="33.0023">
    <comp name="--.HHZ">
      <acc value="0.0062590734" flag="0"/>
      <vel value="0.0105267614" flag="0"/>
      <psa03 value="0.0113239384" flag="0"/>
      <psa10 value="0.0218929323" flag="0"/>
      <psa30 value="0.0055300811" flag="0"/>
    </comp>
    <comp name="--.HHE">
      <acc value="0.0070498587" flag="0"/>
      <vel value="0.0100556361" flag="0"/>
      <psa03 value="0.0104329782" flag="0"/>
      <psa10 value="0.0138359770" flag="0"/>
      <psa30 value="0.0042967602" flag="0"/>
    </comp>
    <comp name="--.HHN">
      <acc value="0.0097164588" flag="0"/>
      <vel value="0.0142086019" flag="0"/>
      <psa03 value="0.0188674052" flag="0"/>
      <psa10 value="0.0256501566" flag="0"/>
      <psa30 value="0.0038971599" flag="0"/>
    </comp>
  </station>
  <station code="SERE" name="SERE" netid="KO" insttype="30s," lat="38.9463" lon="33.564">
    <comp name="--.HHE">
      <acc value="0.0617287714" flag="0"/>
      <vel value="0.0677431159" flag="0"/>
      <psa03 value="0.1969182289" flag="0"/>
      <psa10 value="0.1048670877" flag="0"/>
      <psa30 value="0.0361683447" flag="0"/>
    </comp>
    <comp name="--.HHN">
      <acc value="0.0717068380" flag="0"/>
      <vel value="0.0860559284" flag="0"/>
      <psa03 value="0.1674326307" flag="0"/>
      <psa10 value="0.1083429150" flag="0"/>
      <psa30 value="0.0553331555" flag="0"/>
    </comp>
    <comp name="--.HHZ">
      <acc value="0.0325008426" flag="0"/>
      <vel value="0.0440928709" flag="0"/>
      <psa03 value="0.0727267032" flag="0"/>
      <psa10 value="0.0922472074" flag="0"/>
      <psa30 value="0.0172290917" flag="0"/>
    </comp>
  </station>
</stationlist>
