<stationlist created="1778069841">
	<station code="KRMN" name="KRMN" netid="KO" source="Bogazici University Kandilli Observatory And Earthquake Research Institute (KOERI)" insttype="" lat="37.174" lon="33.2636">
		<comp name="--.HNE" depth="0.0">
			<acc value="0.176010969120925" flag="0"/>
			<vel value="0.149428392315281" flag="0"/>
			<psa03 value="0.371807736997838" flag="0"/>
			<psa10 value="0.231536892450961" flag="0"/>
			<psa30 value="0.0485421622263616" flag="0"/>
		</comp>
		<comp name="--.HNN" depth="0.0">
			<acc value="0.156963626796298" flag="0"/>
			<vel value="0.110245724976578" flag="0"/>
			<psa03 value="0.271182514313345" flag="0"/>
			<psa10 value="0.166649059880746" flag="0"/>
			<psa30 value="0.0321700939806036" flag="0"/>
		</comp>
		<comp name="--.HNZ" depth="0.0">
			<acc value="0.0930727825906708" flag="0"/>
			<vel value="0.0606584953231307" flag="0"/>
			<psa03 value="0.260041704865395" flag="0"/>
			<psa10 value="0.0570114145171342" flag="0"/>
			<psa30 value="0.0298421569702549" flag="0"/>
		</comp>
	</station>
	<station code="SLFK" name="SLFK" netid="KO" source="Bogazici University Kandilli Observatory And Earthquake Research Institute (KOERI)" insttype="" lat="36.3925" lon="33.9464">
		<comp name="--.HNE" depth="0.0">
			<acc value="0.121920158630789" flag="0"/>
			<vel value="0.122449879606453" flag="0"/>
			<psa03 value="0.344872928613639" flag="0"/>
			<psa10 value="0.163532317767717" flag="0"/>
			<psa30 value="0.0690175382410813" flag="0"/>
		</comp>
		<comp name="--.HNN" depth="0.0">
			<acc value="0.107924828348742" flag="0"/>
			<vel value="0.0955309908473898" flag="0"/>
			<psa03 value="0.336148198323076" flag="0"/>
			<psa10 value="0.118609352634707" flag="0"/>
			<psa30 value="0.0589675437904851" flag="0"/>
		</comp>
		<comp name="--.HNZ" depth="0.0">
			<acc value="0.0846451104295798" flag="0"/>
			<vel value="0.0903018217936047" flag="0"/>
			<psa03 value="0.228319480373041" flag="0"/>
			<psa10 value="0.117055008376789" flag="0"/>
			<psa30 value="0.0686314129979656" flag="0"/>
		</comp>
	</station>
</stationlist>
