<stationlist created="1739289483">
	<station code="ABEA" name="ABEA" netid="HC" source="Seismological Network of Crete (HC)" insttype="" lat="35.5163" lon="24.0113">
		<comp name=".HNE" depth="0.0">
			<acc value="0.0088253954328414" flag="0"/>
			<vel value="0.00224495966634" flag="0"/>
			<psa03 value="0.00480113641109298" flag="0"/>
			<psa10 value="0.00138064517190266" flag="0"/>
			<psa30 value="0.000836413689553216" flag="0"/>
		</comp>
		<comp name=".HNN" depth="0.0">
			<acc value="0.0064081658724342" flag="0"/>
			<vel value="0.00187472284349" flag="0"/>
			<psa03 value="0.00676930585515258" flag="0"/>
			<psa10 value="0.0014389137194102" flag="0"/>
			<psa30 value="0.000881657884674039" flag="0"/>
		</comp>
		<comp name=".HNZ" depth="0.0">
			<acc value="0.014453654401158" flag="0"/>
			<vel value="0.00137804246512" flag="0"/>
			<psa03 value="0.00219898112092452" flag="0"/>
			<psa10 value="0.00107508043755371" flag="0"/>
			<psa30 value="0.000804492720778608" flag="0"/>
		</comp>
	</station>
	<station code="ATEI" name="ATEI" netid="HC" source="Seismological Network of Crete (HC)" insttype="" lat="35.5193" lon="24.0432">
		<comp name=".HNE" depth="0.0">
			<acc value="0.010893017028588" flag="0"/>
			<vel value="0.00668092513958" flag="0"/>
			<psa03 value="0.0331753305153319" flag="0"/>
			<psa10 value="0.00689703267582984" flag="0"/>
			<psa30 value="0.00139777103296973" flag="0"/>
		</comp>
		<comp name=".HNN" depth="0.0">
			<acc value="0.0100631436204678" flag="0"/>
			<vel value="0.0063236891939" flag="0"/>
			<psa03 value="0.044697304727076" flag="0"/>
			<psa10 value="0.00969751428771099" flag="0"/>
			<psa30 value="0.00152118993803565" flag="0"/>
		</comp>
		<comp name=".HNZ" depth="0.0">
			<acc value="0.0060247786091142" flag="0"/>
			<vel value="0.00446045874876" flag="0"/>
			<psa03 value="0.0237184071655668" flag="0"/>
			<psa10 value="0.00825699417283887" flag="0"/>
			<psa30 value="0.0009652201910984" flag="0"/>
		</comp>
	</station>
	<station code="G0LD" name="G0LD" netid="HC" source="Seismological Network of Crete (HC)" insttype="" lat="35.4955" lon="24.0306">
		<comp name=".HNE" depth="0.0">
			<acc value="0.0036324439211712" flag="0"/>
			<vel value="0.00286733640362" flag="0"/>
			<psa03 value="0.00211323016039959" flag="0"/>
			<psa10 value="0.00247731918836191" flag="0"/>
			<psa30 value="0.00190573916253365" flag="0"/>
		</comp>
		<comp name=".HNN" depth="0.0">
			<acc value="0.0036766358702058" flag="0"/>
			<vel value="0.00217804292038" flag="0"/>
			<psa03 value="0.00188935921025471" flag="0"/>
			<psa10 value="0.00165498908802833" flag="0"/>
			<psa30 value="0.00116554169058128" flag="0"/>
		</comp>
		<comp name=".HNZ" depth="0.0">
			<acc value="0.0053720220132558" flag="0"/>
			<vel value="0.00419255941471" flag="0"/>
			<psa03 value="0.00241048601750548" flag="0"/>
			<psa10 value="0.0022420752452296" flag="0"/>
			<psa30 value="0.00151636586846307" flag="0"/>
		</comp>
	</station>
	<station code="PASK" name="PASK" netid="HC" source="Seismological Network of Crete (HC)" insttype="" lat="35.4996" lon="24.0121">
		<comp name=".HNE" depth="0.0">
			<acc value="0.038024183165124" flag="0"/>
			<vel value="0.0123745523275" flag="0"/>
			<psa03 value="0.0435130465882808" flag="0"/>
			<psa10 value="0.0159897467422509" flag="0"/>
			<psa30 value="0.0013985826492377" flag="0"/>
		</comp>
		<comp name=".HNN" depth="0.0">
			<acc value="0.051609121014096" flag="0"/>
			<vel value="0.0113426719632" flag="0"/>
			<psa03 value="0.042170309201009" flag="0"/>
			<psa10 value="0.0139482465028711" flag="0"/>
			<psa30 value="0.00203135477561947" flag="0"/>
		</comp>
		<comp name=".HNZ" depth="0.0">
			<acc value="0.01281878247855" flag="0"/>
			<vel value="0.00597429868673" flag="0"/>
			<psa03 value="0.0299972293567415" flag="0"/>
			<psa10 value="0.0062268131207963" flag="0"/>
			<psa30 value="0.00134347462359885" flag="0"/>
		</comp>
	</station>
	<station code="POLY" name="POLY" netid="HC" source="Seismological Network of Crete (HC)" insttype="" lat="35.5226" lon="24.0602">
		<comp name=".HNE" depth="0.0">
			<acc value="0.0028740656211558" flag="0"/>
			<vel value="0.00208015516107" flag="0"/>
			<psa03 value="0.00145668585375645" flag="0"/>
			<psa10 value="0.00132995880636875" flag="0"/>
			<psa30 value="0.000856033687198236" flag="0"/>
		</comp>
		<comp name=".HNN" depth="0.0">
			<acc value="0.0021363161056206" flag="0"/>
			<vel value="0.00284001403932" flag="0"/>
			<psa03 value="0.0015538460987406" flag="0"/>
			<psa10 value="0.00157109872601626" flag="0"/>
			<psa30 value="0.00128429591163546" flag="0"/>
		</comp>
		<comp name=".HNZ" depth="0.0">
			<acc value="0.0043411607067108" flag="0"/>
			<vel value="0.00119896499775" flag="0"/>
			<psa03 value="0.00147672054684327" flag="0"/>
			<psa10 value="0.000978176479078025" flag="0"/>
			<psa30 value="0.000760936710405841" flag="0"/>
		</comp>
	</station>
	<station code="ARK1" name="ARK1" netid="HI" source="ITSAK Strong Motion Network" insttype="" lat="35.148777" lon="25.264194">
		<comp name=".HNE" depth="0.0">
			<acc value="0.027223539872766" flag="0"/>
			<vel value="0.0149964681495" flag="0"/>
			<psa03 value="0.0810824129784625" flag="0"/>
			<psa10 value="0.0205692538621345" flag="0"/>
			<psa30 value="0.00258090909756128" flag="0"/>
		</comp>
		<comp name=".HNN" depth="0.0">
			<acc value="0.031050061585062" flag="0"/>
			<vel value="0.0177126182222" flag="0"/>
			<psa03 value="0.109699631645738" flag="0"/>
			<psa10 value="0.0211688323312583" flag="0"/>
			<psa30 value="0.00176990578923898" flag="0"/>
		</comp>
		<comp name=".HNZ" depth="0.0">
			<acc value="0.017029749407244" flag="0"/>
			<vel value="0.0149167801872" flag="0"/>
			<psa03 value="0.0613269428171802" flag="0"/>
			<psa10 value="0.0131148981726307" flag="0"/>
			<psa30 value="0.00200781717470271" flag="0"/>
		</comp>
	</station>
	<station code="CH01" name="CH01" netid="HI" source="ITSAK Strong Motion Network" insttype="" lat="35.517" lon="24.0208">
		<comp name=".HNE" depth="0.0">
			<acc value="0.01123938810747" flag="0"/>
			<vel value="0.00664781713401" flag="0"/>
			<psa03 value="0.0222590396563192" flag="0"/>
			<psa10 value="0.0101561696713974" flag="0"/>
			<psa30 value="0.00116950351553328" flag="0"/>
		</comp>
		<comp name=".HNN" depth="0.0">
			<acc value="0.014514702681768" flag="0"/>
			<vel value="0.00828192685444" flag="0"/>
			<psa03 value="0.054223456621342" flag="0"/>
			<psa10 value="0.00889965455844209" flag="0"/>
			<psa30 value="0.00135750138613784" flag="0"/>
		</comp>
		<comp name=".HNZ" depth="0.0">
			<acc value="0.0098483870492262" flag="0"/>
			<vel value="0.00342000938252" flag="0"/>
			<psa03 value="0.0118698592365791" flag="0"/>
			<psa10 value="0.00584965907370488" flag="0"/>
			<psa30 value="0.000797788214135674" flag="0"/>
		</comp>
	</station>
	<station code="CH02" name="CH02" netid="HI" source="ITSAK Strong Motion Network" insttype="" lat="35.5145" lon="24.0315">
		<comp name=".HNE" depth="0.0">
			<acc value="0.016944537195564" flag="0"/>
			<vel value="0.00819826558951" flag="0"/>
			<psa03 value="0.0599754834982876" flag="0"/>
			<psa10 value="0.0140449588471101" flag="0"/>
			<psa30 value="0.000925669133536216" flag="0"/>
		</comp>
		<comp name=".HNN" depth="0.0">
			<acc value="0.013016754743772" flag="0"/>
			<vel value="0.00857907441923" flag="0"/>
			<psa03 value="0.0431518846422633" flag="0"/>
			<psa10 value="0.00991396643911002" flag="0"/>
			<psa30 value="0.00157309598072282" flag="0"/>
		</comp>
		<comp name=".HNZ" depth="0.0">
			<acc value="0.0076159800365022" flag="0"/>
			<vel value="0.00440812813434" flag="0"/>
			<psa03 value="0.0183282454062899" flag="0"/>
			<psa10 value="0.00771922354817246" flag="0"/>
			<psa30 value="0.00084656128886357" flag="0"/>
		</comp>
	</station>
	<station code="CH03" name="CH03" netid="HI" source="ITSAK Strong Motion Network" insttype="" lat="35.53303" lon="24.0705">
		<comp name=".HNE" depth="0.0">
			<acc value="0.011695472431452" flag="0"/>
			<vel value="0.00624200205788" flag="0"/>
			<psa03 value="0.0325181151030434" flag="0"/>
			<psa10 value="0.00673736162962505" flag="0"/>
			<psa30 value="0.000725936839751762" flag="0"/>
		</comp>
		<comp name=".HNN" depth="0.0">
			<acc value="0.0089994693531348" flag="0"/>
			<vel value="0.00587044326111" flag="0"/>
			<psa03 value="0.026315883923156" flag="0"/>
			<psa10 value="0.00825039654827617" flag="0"/>
			<psa30 value="0.000955764877230817" flag="0"/>
		</comp>
		<comp name=".HNZ" depth="0.0">
			<acc value="0.0073429800623628" flag="0"/>
			<vel value="0.00347318319201" flag="0"/>
			<psa03 value="0.0183979166883479" flag="0"/>
			<psa10 value="0.00445550890559873" flag="0"/>
			<psa30 value="0.000678712044677017" flag="0"/>
		</comp>
	</station>
	<station code="GOR1" name="GOR1" netid="HI" source="ITSAK Strong Motion Network" insttype="" lat="35.0582" lon="24.9628">
		<comp name=".HNE" depth="0.0">
			<acc value="0.010761782244426" flag="0"/>
			<vel value="0.00885498620569" flag="0"/>
			<psa03 value="0.0551750092402199" flag="0"/>
			<psa10 value="0.0093159752626378" flag="0"/>
			<psa30 value="0.0011354903248291" flag="0"/>
		</comp>
		<comp name=".HNN" depth="0.0">
			<acc value="0.01196168330235" flag="0"/>
			<vel value="0.00988615914095" flag="0"/>
			<psa03 value="0.0359825685644127" flag="0"/>
			<psa10 value="0.0147448170842605" flag="0"/>
			<psa30 value="0.00143755054316957" flag="0"/>
		</comp>
		<comp name=".HNZ" depth="0.0">
			<acc value="0.0091630728594024" flag="0"/>
			<vel value="0.00677293419022" flag="0"/>
			<psa03 value="0.0242004130544452" flag="0"/>
			<psa10 value="0.0170419576960528" flag="0"/>
			<psa30 value="0.000614482112676098" flag="0"/>
		</comp>
	</station>
	<station code="HER3" name="HER3" netid="HI" source="ITSAK Strong Motion Network" insttype="" lat="35.3296" lon="25.1065">
		<comp name=".HNE" depth="0.0">
			<acc value="0.049369116725376" flag="0"/>
			<vel value="0.0375640860177" flag="0"/>
			<psa03 value="0.162139386771784" flag="0"/>
			<psa10 value="0.0838746662848353" flag="0"/>
			<psa30 value="0.00319081512584384" flag="0"/>
		</comp>
		<comp name=".HNN" depth="0.0">
			<acc value="0.0583070100468" flag="0"/>
			<vel value="0.0339466377036" flag="0"/>
			<psa03 value="0.148635794308484" flag="0"/>
			<psa10 value="0.0749385518112253" flag="0"/>
			<psa30 value="0.00330060385713819" flag="0"/>
		</comp>
		<comp name=".HNZ" depth="0.0">
			<acc value="0.043103626795146" flag="0"/>
			<vel value="0.0233798891905" flag="0"/>
			<psa03 value="0.0768202400054435" flag="0"/>
			<psa10 value="0.0220109543677003" flag="0"/>
			<psa30 value="0.0012503130354362" flag="0"/>
		</comp>
	</station>
	<station code="KIS1" name="KIS1" netid="HI" source="ITSAK Strong Motion Network" insttype="" lat="35.493933" lon="23.658993">
		<comp name=".HNE" depth="0.0">
			<acc value="0.0066748533005514" flag="0"/>
			<vel value="0.00434066565037" flag="0"/>
			<psa03 value="0.0204703990322355" flag="0"/>
			<psa10 value="0.00715730413626174" flag="0"/>
			<psa30 value="0.00104112719873439" flag="0"/>
		</comp>
		<comp name=".HNN" depth="0.0">
			<acc value="0.0063146268615618" flag="0"/>
			<vel value="0.00400604897769" flag="0"/>
			<psa03 value="0.0169882764315986" flag="0"/>
			<psa10 value="0.00611969055572882" flag="0"/>
			<psa30 value="0.000685563071438249" flag="0"/>
		</comp>
		<comp name=".HNZ" depth="0.0">
			<acc value="0.0078142182504042" flag="0"/>
			<vel value="0.00343845286618" flag="0"/>
			<psa03 value="0.0111376805249946" flag="0"/>
			<psa10 value="0.00414854263308191" flag="0"/>
			<psa30 value="0.00133452642666161" flag="0"/>
		</comp>
	</station>
	<station code="KRL1" name="KRL1" netid="HI" source="ITSAK Strong Motion Network" insttype="" lat="37.7951" lon="26.7065">
		<comp name=".HNE" depth="0.0">
			<acc value="0.019881380622804" flag="0"/>
			<vel value="0.00864965203285" flag="0"/>
			<psa03 value="0.0405682212997233" flag="0"/>
			<psa10 value="0.011522016714563" flag="0"/>
			<psa30 value="0.00138404637377847" flag="0"/>
		</comp>
		<comp name=".HNN" depth="0.0">
			<acc value="0.01488384165801" flag="0"/>
			<vel value="0.00570934741591" flag="0"/>
			<psa03 value="0.0315972181606254" flag="0"/>
			<psa10 value="0.0104439468602061" flag="0"/>
			<psa30 value="0.000867995260843074" flag="0"/>
		</comp>
		<comp name=".HNZ" depth="0.0">
			<acc value="0.0059903177985462" flag="0"/>
			<vel value="0.00384663267689" flag="0"/>
			<psa03 value="0.0131166163073063" flag="0"/>
			<psa10 value="0.00325008459902838" flag="0"/>
			<psa30 value="0.000783234906302715" flag="0"/>
		</comp>
	</station>
	<station code="KTL1" name="KTL1" netid="HI" source="ITSAK Strong Motion Network" insttype="" lat="35.20778" lon="25.34272">
		<comp name=".HNE" depth="0.0">
			<acc value="0.018829321382754" flag="0"/>
			<vel value="0.0127969798552" flag="0"/>
			<psa03 value="0.0828674270602143" flag="0"/>
			<psa10 value="0.0133511947636121" flag="0"/>
			<psa30 value="0.0010620121239244" flag="0"/>
		</comp>
		<comp name=".HNN" depth="0.0">
			<acc value="0.025576675924296" flag="0"/>
			<vel value="0.0166906828313" flag="0"/>
			<psa03 value="0.0588004056548861" flag="0"/>
			<psa10 value="0.01506615149608" flag="0"/>
			<psa30 value="0.00105684209393703" flag="0"/>
		</comp>
		<comp name=".HNZ" depth="0.0">
			<acc value="0.015887429808642" flag="0"/>
			<vel value="0.00789976095737" flag="0"/>
			<psa03 value="0.0312322903401229" flag="0"/>
			<psa10 value="0.00575363255616532" flag="0"/>
			<psa30 value="0.000799720581731357" flag="0"/>
		</comp>
	</station>
	<station code="NAX1" name="NAX1" netid="HI" source="ITSAK Strong Motion Network" insttype="" lat="37.101394" lon="25.374103">
		<comp name=".HNE" depth="0.0">
			<acc value="0.23353527011748" flag="0"/>
			<vel value="0.0610608577526" flag="0"/>
			<psa03 value="0.239460758933184" flag="0"/>
			<psa10 value="0.0125534569174026" flag="0"/>
			<psa30 value="0.00200596559371136" flag="0"/>
		</comp>
		<comp name=".HNN" depth="0.0">
			<acc value="0.2212876572108" flag="0"/>
			<vel value="0.0495213655844" flag="0"/>
			<psa03 value="0.157571052892182" flag="0"/>
			<psa10 value="0.00794749460750043" flag="0"/>
			<psa30 value="0.00223762885693212" flag="0"/>
		</comp>
		<comp name=".HNZ" depth="0.0">
			<acc value="0.10474603574412" flag="0"/>
			<vel value="0.0243588347369" flag="0"/>
			<psa03 value="0.112740916449224" flag="0"/>
			<psa10 value="0.0127578398317568" flag="0"/>
			<psa30 value="0.00300291184483673" flag="0"/>
		</comp>
	</station>
	<station code="RTH1" name="RTH1" netid="HI" source="ITSAK Strong Motion Network" insttype="" lat="35.365393" lon="24.471773">
		<comp name=".HNE" depth="0.0">
			<acc value="0.011286772241946" flag="0"/>
			<vel value="0.00661324035625" flag="0"/>
			<psa03 value="0.0412971315656427" flag="0"/>
			<psa10 value="0.00393971192408109" flag="0"/>
			<psa30 value="0.00145672285490809" flag="0"/>
		</comp>
		<comp name=".HNN" depth="0.0">
			<acc value="0.0093817208157324" flag="0"/>
			<vel value="0.00587695345729" flag="0"/>
			<psa03 value="0.0326700157906988" flag="0"/>
			<psa10 value="0.00551799413377698" flag="0"/>
			<psa30 value="0.000819077176511672" flag="0"/>
		</comp>
		<comp name=".HNZ" depth="0.0">
			<acc value="0.0071563008205932" flag="0"/>
			<vel value="0.00403467999012" flag="0"/>
			<psa03 value="0.0175330690318659" flag="0"/>
			<psa10 value="0.00488585507018755" flag="0"/>
			<psa30 value="0.00117140843339147" flag="0"/>
		</comp>
	</station>
	<station code="SFR2" name="SFR2" netid="HI" source="ITSAK Strong Motion Network" insttype="" lat="36.399841" lon="25.438209">
		<comp name=".HNE" depth="0.0">
			<acc value="0.63808905445638" flag="0"/>
			<vel value="0.268396990137" flag="0"/>
			<psa03 value="1.48843376810082" flag="0"/>
			<psa10 value="0.175671927402901" flag="0"/>
			<psa30 value="0.0174645019375349" flag="0"/>
		</comp>
		<comp name=".HNN" depth="0.0">
			<acc value="0.545393158143" flag="0"/>
			<vel value="0.277066550004" flag="0"/>
			<psa03 value="1.68478277525744" flag="0"/>
			<psa10 value="0.252446023310095" flag="0"/>
			<psa30 value="0.024011450640782" flag="0"/>
		</comp>
		<comp name=".HNZ" depth="0.0">
			<acc value="0.76809190221666" flag="0"/>
			<vel value="0.229057487989" flag="0"/>
			<psa03 value="1.26453076895675" flag="0"/>
			<psa10 value="0.125715250518434" flag="0"/>
			<psa30 value="0.0138649184827925" flag="0"/>
		</comp>
	</station>
	<station code="AMGA" name="AMGA" netid="HL" source="National Observatory of Athens Seismic Network" insttype="" lat="36.831561" lon="25.893836">
		<comp name="00.HNE" depth="0.0">
			<acc value="0.2015696896152" flag="0"/>
			<vel value="0.0340831872823" flag="0"/>
			<psa03 value="0.144238461340384" flag="0"/>
			<psa10 value="0.0106442626301407" flag="0"/>
			<psa30 value="0.00457854372269974" flag="0"/>
		</comp>
		<comp name="00.HNN" depth="0.0">
			<acc value="0.19060301820342" flag="0"/>
			<vel value="0.0489696614814" flag="0"/>
			<psa03 value="0.141441130197493" flag="0"/>
			<psa10 value="0.0154074841077257" flag="0"/>
			<psa30 value="0.00370191815057494" flag="0"/>
		</comp>
		<comp name="00.HNZ" depth="0.0">
			<acc value="0.18733390706502" flag="0"/>
			<vel value="0.0334224719742" flag="0"/>
			<psa03 value="0.0874168951069672" flag="0"/>
			<psa10 value="0.0179640537804085" flag="0"/>
			<psa30 value="0.00737332761342479" flag="0"/>
		</comp>
	</station>
	<station code="ANAF" name="ANAF" netid="HL" source="National Observatory of Athens Seismic Network" insttype="" lat="36.35675" lon="25.77262">
		<comp name=".HNE" depth="0.0">
			<acc value="1.2134142275952" flag="0"/>
			<vel value="0.491874795265" flag="0"/>
			<psa03 value="2.05357670604488" flag="0"/>
			<psa10 value="0.16338222827076" flag="0"/>
			<psa30 value="0.0151545905838996" flag="0"/>
		</comp>
		<comp name=".HNN" depth="0.0">
			<acc value="1.4129308547232" flag="0"/>
			<vel value="0.386536673696" flag="0"/>
			<psa03 value="2.41089937691813" flag="0"/>
			<psa10 value="0.129255507543199" flag="0"/>
			<psa30 value="0.018389924908958" flag="0"/>
		</comp>
		<comp name=".HNZ" depth="0.0">
			<acc value="0.76256273267052" flag="0"/>
			<vel value="0.191471423308" flag="0"/>
			<psa03 value="0.776579111220476" flag="0"/>
			<psa10 value="0.0434467893866072" flag="0"/>
			<psa30 value="0.00973118714338433" flag="0"/>
		</comp>
	</station>
	<station code="IACM" name="IACM" netid="HL" source="National Observatory of Athens Seismic Network" insttype="" lat="35.3058" lon="25.0709">
		<comp name=".HNE" depth="0.0">
			<acc value="0.064049479331352" flag="0"/>
			<vel value="0.0377040992391" flag="0"/>
			<psa03 value="0.186815500610108" flag="0"/>
			<psa10 value="0.0574463355376343" flag="0"/>
			<psa30 value="0.00327712188490937" flag="0"/>
		</comp>
		<comp name=".HNN" depth="0.0">
			<acc value="0.069773886111348" flag="0"/>
			<vel value="0.0365740337866" flag="0"/>
			<psa03 value="0.171737189245926" flag="0"/>
			<psa10 value="0.0486903717480552" flag="0"/>
			<psa30 value="0.00288399688397354" flag="0"/>
		</comp>
		<comp name=".HNZ" depth="0.0">
			<acc value="0.042899589592278" flag="0"/>
			<vel value="0.0169363001963" flag="0"/>
			<psa03 value="0.0815259006906072" flag="0"/>
			<psa10 value="0.0203886043949908" flag="0"/>
			<psa30 value="0.000932873569130818" flag="0"/>
		</comp>
	</station>
	<station code="KLNA" name="KLNA" netid="HL" source="National Observatory of Athens Seismic Network" insttype="" lat="36.95708" lon="26.97274">
		<comp name="00.HNE" depth="0.0">
			<acc value="0.022898055451542" flag="0"/>
			<vel value="0.00741309500952" flag="0"/>
			<psa03 value="0.0435635395165322" flag="0"/>
			<psa10 value="0.00198061378406868" flag="0"/>
			<psa30 value="0.000503857388494763" flag="0"/>
		</comp>
		<comp name="00.HNN" depth="0.0">
			<acc value="0.015980221425306" flag="0"/>
