<?xml version="1.0" encoding="UTF-8" standalone="yes"?>
<!DOCTYPE earthquake SYSTEM "stationlist.dtd">
<stationlist created="" xmlns="ch.ethz.sed.shakemap.usgs.xml">
  <station code="DYBB" name="DYBB" netid="KO" insttype="CMG-3T" lat="37.9532" lon="40.1393">
    <comp name="--.HHE">
      <acc value="0.1485214964" flag="0"/>
      <vel value="0.1393155010" flag="0"/>
      <psa03 value="0.2707872203" flag="0"/>
      <psa10 value="0.3411261885" flag="0"/>
      <psa30 value="0.0441853739" flag="0"/>
    </comp>
    <comp name="--.HHZ">
      <acc value="0.0766307214" flag="0"/>
      <vel value="0.1149153843" flag="0"/>
      <psa03 value="0.1730532000" flag="0"/>
      <psa10 value="0.1271361511" flag="0"/>
      <psa30 value="0.0700479347" flag="0"/>
    </comp>
    <comp name="--.HHN">
      <acc value="0.1249354704" flag="0"/>
      <vel value="0.1690355307" flag="0"/>
      <psa03 value="0.2441635723" flag="0"/>
      <psa10 value="0.1326696679" flag="0"/>
      <psa30 value="0.1357350993" flag="0"/>
    </comp>
  </station>
  <station code="ERZN" name="ERZN" netid="KO" insttype="CMG-3ESP" lat="39.5867" lon="39.722">
    <comp name="--.HHE">
      <acc value="0.0737733796" flag="0"/>
      <vel value="0.1267824682" flag="0"/>
      <psa03 value="0.1109281066" flag="0"/>
      <psa10 value="0.1339557768" flag="0"/>
      <psa30 value="0.0474523949" flag="0"/>
    </comp>
    <comp name="--.HHN">
      <acc value="0.0626626918" flag="0"/>
      <vel value="0.0980070085" flag="0"/>
      <psa03 value="0.0990562722" flag="0"/>
      <psa10 value="0.1269916310" flag="0"/>
      <psa30 value="0.0492867704" flag="0"/>
    </comp>
    <comp name="--.HHZ">
      <acc value="0.0366121693" flag="0"/>
      <vel value="0.1108116781" flag="0"/>
      <psa03 value="0.0682417556" flag="0"/>
      <psa10 value="0.1070109883" flag="0"/>
      <psa30 value="0.0692802212" flag="0"/>
    </comp>
  </station>
  <station code="GAZ" name="GAZ" netid="KO" insttype="CMG-3T" lat="37.1721" lon="37.2096">
    <comp name="--.HHE">
      <acc value="0.0674070390" flag="0"/>
      <vel value="0.0661194508" flag="0"/>
      <psa03 value="0.1575500588" flag="0"/>
      <psa10 value="0.1159661206" flag="0"/>
      <psa30 value="0.0229618123" flag="0"/>
    </comp>
    <comp name="--.HHZ">
      <acc value="0.0494538256" flag="0"/>
      <vel value="0.0580218593" flag="0"/>
      <psa03 value="0.1330114523" flag="0"/>
      <psa10 value="0.0835563037" flag="0"/>
      <psa30 value="0.0156937895" flag="0"/>
    </comp>
    <comp name="--.HHN">
      <acc value="0.0620769135" flag="0"/>
      <vel value="0.0595150551" flag="0"/>
      <psa03 value="0.1262514039" flag="0"/>
      <psa10 value="0.0799733962" flag="0"/>
      <psa30 value="0.0237722039" flag="0"/>
    </comp>
  </station>
  <station code="KMRS" name="KMRS" netid="KO" insttype="CMG-3T" lat="37.5053" lon="36.9">
    <comp name="--.HHZ">
      <acc value="0.0336504168" flag="0"/>
      <vel value="0.0621331894" flag="0"/>
      <psa03 value="0.1062347980" flag="0"/>
      <psa10 value="0.0432451215" flag="0"/>
      <psa30 value="0.0273877037" flag="0"/>
    </comp>
    <comp name="--.HHN">
      <acc value="0.0610645914" flag="0"/>
      <vel value="0.0722921115" flag="0"/>
      <psa03 value="0.1790689339" flag="0"/>
      <psa10 value="0.0993656055" flag="0"/>
      <psa30 value="0.0224770359" flag="0"/>
    </comp>
    <comp name="--.HHE">
      <acc value="0.0414218766" flag="0"/>
      <vel value="0.0587991361" flag="0"/>
      <psa03 value="0.1102256781" flag="0"/>
      <psa10 value="0.0751057195" flag="0"/>
      <psa30 value="0.0296294477" flag="0"/>
    </comp>
  </station>
  <station code="MAZI" name="MAZI" netid="KO" insttype="CMG-3T" lat="37.4593" lon="40.4465">
    <comp name="--.HHN">
      <acc value="0.2947020872" flag="0"/>
      <vel value="0.1758469534" flag="0"/>
      <psa03 value="0.9089075911" flag="0"/>
      <psa10 value="0.3037656520" flag="0"/>
      <psa30 value="0.0204544073" flag="0"/>
    </comp>
    <comp name="--.HHE">
      <acc value="0.1800453558" flag="0"/>
      <vel value="0.1477859274" flag="0"/>
      <psa03 value="0.4561686473" flag="0"/>
      <psa10 value="0.1937478833" flag="0"/>
      <psa30 value="0.0186348800" flag="0"/>
    </comp>
    <comp name="--.HHZ">
      <acc value="0.2060915076" flag="0"/>
      <vel value="0.2097396248" flag="0"/>
      <psa03 value="0.4078572237" flag="0"/>
      <psa10 value="0.2192303310" flag="0"/>
      <psa30 value="0.0112132538" flag="0"/>
    </comp>
  </station>
  <station code="SARI" name="SARI" netid="KO" insttype="CMG-3T" lat="38.4072" lon="36.4181">
    <comp name="--.HHE">
      <acc value="0.0352590827" flag="0"/>
      <vel value="0.0688762123" flag="0"/>
      <psa03 value="0.0869233729" flag="0"/>
      <psa10 value="0.0851134154" flag="0"/>
      <psa30 value="0.0130543144" flag="0"/>
    </comp>
    <comp name="--.HHZ">
      <acc value="0.0565088657" flag="0"/>
      <vel value="0.0923754409" flag="0"/>
      <psa03 value="0.0776465810" flag="0"/>
      <psa10 value="0.1553016641" flag="0"/>
      <psa30 value="0.0179050065" flag="0"/>
    </comp>
  </station>
  <station code="TUNC" name="TUNC" netid="KO" insttype="CMG-5T" lat="39.6942" lon="37.5388">
    <comp name="--.HNE">
      <acc value="0.1151168043" flag="0"/>
      <vel value="0.1211463347" flag="0"/>
      <psa03 value="0.2557579770" flag="0"/>
      <psa10 value="0.2183677773" flag="0"/>
      <psa30 value="0.0366748083" flag="0"/>
    </comp>
    <comp name="--.HNN">
      <acc value="0.1229546146" flag="0"/>
      <vel value="0.1339271382" flag="0"/>
      <psa03 value="0.3459578228" flag="0"/>
      <psa10 value="0.1657839644" flag="0"/>
      <psa30 value="0.0652787929" flag="0"/>
    </comp>
    <comp name="--.HNZ">
      <acc value="0.0837823411" flag="0"/>
      <vel value="0.1693678089" flag="0"/>
      <psa03 value="0.1839326175" flag="0"/>
      <psa10 value="0.1893252427" flag="0"/>
      <psa30 value="0.0575404722" flag="0"/>
    </comp>
  </station>
</stationlist>
