<?xml version="1.0" encoding="UTF-8" standalone="yes"?>
<!DOCTYPE earthquake SYSTEM "stationlist.dtd">
<stationlist created="" xmlns="ch.ethz.sed.shakemap.usgs.xml">
  <station code="ARPRA" name="ARPRA" netid="KO" insttype="CMG-5T" lat="39.0929" lon="38.3356">
    <comp name="--.HNE">
      <acc value="0.8487186341" flag="0"/>
      <vel value="0.8397474638" flag="0"/>
      <psa03 value="2.0889222565" flag="0"/>
      <psa10 value="0.8496383115" flag="0"/>
      <psa30 value="0.0940117956" flag="0"/>
    </comp>
    <comp name="--.HNZ">
      <acc value="0.3438351871" flag="0"/>
      <vel value="0.3991017408" flag="0"/>
      <psa03 value="0.5958926668" flag="0"/>
      <psa10 value="0.3301124392" flag="0"/>
      <psa30 value="0.1415390676" flag="0"/>
    </comp>
    <comp name="--.HNN">
      <acc value="0.9673249816" flag="0"/>
      <vel value="0.7613172261" flag="0"/>
      <psa03 value="2.3164566728" flag="0"/>
      <psa10 value="0.8247741279" flag="0"/>
      <psa30 value="0.1077980607" flag="0"/>
    </comp>
  </station>
  <station code="DYBB" name="DYBB" netid="KO" insttype="CMG-3T" lat="37.9532" lon="40.1393">
    <comp name="--.HHN">
      <acc value="0.1249354704" flag="0"/>
      <vel value="0.1690355313" flag="0"/>
      <psa03 value="0.2441635723" flag="0"/>
      <psa10 value="0.1326696678" flag="0"/>
      <psa30 value="0.1357351061" flag="0"/>
    </comp>
    <comp name="--.HHE">
      <acc value="0.1485214965" flag="0"/>
      <vel value="0.1393155018" flag="0"/>
      <psa03 value="0.2707872203" flag="0"/>
      <psa10 value="0.3411261886" flag="0"/>
      <psa30 value="0.0441853751" flag="0"/>
    </comp>
    <comp name="--.HHZ">
      <acc value="0.0766307214" flag="0"/>
      <vel value="0.1149153708" flag="0"/>
      <psa03 value="0.1730532000" flag="0"/>
      <psa10 value="0.1271361512" flag="0"/>
      <psa30 value="0.0700479404" flag="0"/>
    </comp>
  </station>
  <station code="GAZ" name="GAZ" netid="KO" insttype="CMG-3T" lat="37.1721" lon="37.2096">
    <comp name="--.HHE">
      <acc value="0.0674070384" flag="0"/>
      <vel value="0.0661194492" flag="0"/>
      <psa03 value="0.1575500588" flag="0"/>
      <psa10 value="0.1159661207" flag="0"/>
      <psa30 value="0.0229619238" flag="0"/>
    </comp>
    <comp name="--.HHN">
      <acc value="0.0620769137" flag="0"/>
      <vel value="0.0595150750" flag="0"/>
      <psa03 value="0.1262514039" flag="0"/>
      <psa10 value="0.0799733961" flag="0"/>
      <psa30 value="0.0237720616" flag="0"/>
    </comp>
    <comp name="--.HHZ">
      <acc value="0.0494538253" flag="0"/>
      <vel value="0.0580218227" flag="0"/>
      <psa03 value="0.1330114523" flag="0"/>
      <psa10 value="0.0835563037" flag="0"/>
      <psa30 value="0.0156937513" flag="0"/>
    </comp>
  </station>
  <station code="KMRS" name="KMRS" netid="KO" insttype="CMG-3T" lat="37.5053" lon="36.9">
    <comp name="--.HHN">
      <acc value="0.0610645915" flag="0"/>
      <vel value="0.0722920824" flag="0"/>
      <psa03 value="0.1790689339" flag="0"/>
      <psa10 value="0.0993656055" flag="0"/>
      <psa30 value="0.0224772298" flag="0"/>
    </comp>
    <comp name="--.HHE">
      <acc value="0.0414218769" flag="0"/>
      <vel value="0.0587991094" flag="0"/>
      <psa03 value="0.1102256781" flag="0"/>
      <psa10 value="0.0751057194" flag="0"/>
      <psa30 value="0.0296295672" flag="0"/>
    </comp>
    <comp name="--.HHZ">
      <acc value="0.0336504166" flag="0"/>
      <vel value="0.0621331901" flag="0"/>
      <psa03 value="0.1062347980" flag="0"/>
      <psa10 value="0.0432451216" flag="0"/>
      <psa30 value="0.0273876317" flag="0"/>
    </comp>
  </station>
</stationlist>
