<stationlist created="1775649326">
	<station code="KTHA" name="KTHA" netid="GE" source="GEOFON" insttype="" lat="36.2566" lon="23.0621">
		<comp name="--.HNE" depth="0.0">
			<acc value="0.0522367376008332" flag="0"/>
			<vel value="0.0226335238294039" flag="0"/>
			<psa03 value="0.113040290447803" flag="0"/>
			<psa10 value="0.0202069967393632" flag="0"/>
			<psa30 value="0.000896647731845049" flag="0"/>
		</comp>
		<comp name="--.HNN" depth="0.0">
			<acc value="0.0296585684446159" flag="0"/>
			<vel value="0.0127267940717387" flag="0"/>
			<psa03 value="0.110986539813569" flag="0"/>
			<psa10 value="0.00831677125777923" flag="0"/>
			<psa30 value="0.000380957111538999" flag="0"/>
		</comp>
		<comp name="--.HNZ" depth="0.0">
			<acc value="0.0238412592601001" flag="0"/>
			<vel value="0.00949220515415073" flag="0"/>
			<psa03 value="0.0563748126796668" flag="0"/>
			<psa10 value="0.00558261982116507" flag="0"/>
			<psa30 value="0.000303908543907861" flag="0"/>
		</comp>
	</station>
	<station code="ATEI" name="ATEI" netid="HC" source="Seismological Network of Crete (HC)" insttype="" lat="35.5193" lon="24.0432">
		<comp name="--.HNE" depth="0.0">
			<acc value="0.0232803166768256" flag="0"/>
			<vel value="0.0313093363976134" flag="0"/>
			<psa03 value="0.048970843036348" flag="0"/>
			<psa10 value="0.077680845974808" flag="0"/>
			<psa30 value="0.0103926751303894" flag="0"/>
		</comp>
		<comp name="--.HNN" depth="0.0">
			<acc value="0.0237970247552842" flag="0"/>
			<vel value="0.0418206324748416" flag="0"/>
			<psa03 value="0.050763466997221" flag="0"/>
			<psa10 value="0.0616445173967419" flag="0"/>
			<psa30 value="0.0178870332615019" flag="0"/>
		</comp>
		<comp name="--.HNZ" depth="0.0">
			<acc value="0.0133001626593742" flag="0"/>
			<vel value="0.0201381984661971" flag="0"/>
			<psa03 value="0.0294063881330614" flag="0"/>
			<psa10 value="0.029574247273739" flag="0"/>
			<psa30 value="0.00865222233393338" flag="0"/>
		</comp>
	</station>
	<station code="G0LD" name="G0LD" netid="HC" source="Seismological Network of Crete (HC)" insttype="" lat="35.4955" lon="24.0306">
		<comp name="--.HNE" depth="0.0">
			<acc value="0.00244146270066857" flag="0"/>
			<vel value="0.00183030213526437" flag="0"/>
			<psa03 value="0.00220012735571257" flag="0"/>
			<psa10 value="0.00143491865006835" flag="0"/>
			<psa30 value="0.00113688458385747" flag="0"/>
		</comp>
		<comp name="--.HNN" depth="0.0">
			<acc value="0.00258246171556644" flag="0"/>
			<vel value="0.00221318224871028" flag="0"/>
			<psa03 value="0.00254974426611705" flag="0"/>
			<psa10 value="0.00144763023433592" flag="0"/>
			<psa30 value="0.000952022650161621" flag="0"/>
		</comp>
		<comp name="--.HNZ" depth="0.0">
			<acc value="0.00364135160395134" flag="0"/>
			<vel value="0.00335169842584917" flag="0"/>
			<psa03 value="0.00267961175591964" flag="0"/>
			<psa10 value="0.00215128899671305" flag="0"/>
			<psa30 value="0.00233089628543946" flag="0"/>
		</comp>
	</station>
	<station code="MULT" name="MULT" netid="HC" source="Seismological Network of Crete (HC)" insttype="" lat="35.5091" lon="24.0118">
		<comp name="--.HNE" depth="0.0">
			<acc value="0.00796971701920507" flag="0"/>
			<vel value="0.00229325664093535" flag="0"/>
			<psa03 value="0.00139929940244717" flag="0"/>
			<psa10 value="0.00124543629310463" flag="0"/>
			<psa30 value="0.000990510824814302" flag="0"/>
		</comp>
		<comp name="--.HNN" depth="0.0">
			<acc value="0.00522951203122166" flag="0"/>
			<vel value="0.00275314961894852" flag="0"/>
			<psa03 value="0.00147900552894104" flag="0"/>
			<psa10 value="0.00114577590203033" flag="0"/>
			<psa30 value="0.000982148916712262" flag="0"/>
		</comp>
		<comp name="--.HNZ" depth="0.0">
			<acc value="0.00931477061713423" flag="0"/>
			<vel value="0.00946557176264018" flag="0"/>
			<psa03 value="0.00277777776414425" flag="0"/>
			<psa10 value="0.00373899675268482" flag="0"/>
			<psa30 value="0.0021067520619847" flag="0"/>
		</comp>
	</station>
	<station code="ARE2" name="ARE2" netid="HI" source="ITSAK Strong Motion Network" insttype="" lat="36.66629" lon="22.382635">
		<comp name="--.HNE" depth="0.0">
			<acc value="0.0597798551119352" flag="0"/>
			<vel value="0.0639508893374472" flag="0"/>
			<psa03 value="0.171664996963561" flag="0"/>
			<psa10 value="0.0569138790151659" flag="0"/>
			<psa30 value="0.0102244664873924" flag="0"/>
		</comp>
		<comp name="--.HNN" depth="0.0">
			<acc value="0.0724436005914419" flag="0"/>
			<vel value="0.0381538180868796" flag="0"/>
			<psa03 value="0.189852847652741" flag="0"/>
			<psa10 value="0.0575935215381475" flag="0"/>
			<psa30 value="0.00940695483125729" flag="0"/>
		</comp>
		<comp name="--.HNZ" depth="0.0">
			<acc value="0.0370377506477401" flag="0"/>
			<vel value="0.0339937707529517" flag="0"/>
			<psa03 value="0.0870281245611403" flag="0"/>
			<psa10 value="0.0508560014605084" flag="0"/>
			<psa30 value="0.00514363115698718" flag="0"/>
		</comp>
	</station>
	<station code="ARS1" name="ARS1" netid="HI" source="ITSAK Strong Motion Network" insttype="" lat="37.6349" lon="22.7293">
		<comp name="--.HNE" depth="0.0">
			<acc value="0.018857364660637" flag="0"/>
			<vel value="0.025197110641239" flag="0"/>
			<psa03 value="0.0333268848258932" flag="0"/>
			<psa10 value="0.039014678280962" flag="0"/>
			<psa30 value="0.00893362764232066" flag="0"/>
		</comp>
		<comp name="--.HNN" depth="0.0">
			<acc value="0.0190291856099065" flag="0"/>
			<vel value="0.0224743811471039" flag="0"/>
			<psa03 value="0.0400670292440486" flag="0"/>
			<psa10 value="0.0255974594560631" flag="0"/>
			<psa30 value="0.00487499461113442" flag="0"/>
		</comp>
		<comp name="--.HNZ" depth="0.0">
			<acc value="0.018365585525257" flag="0"/>
			<vel value="0.00762721230420883" flag="0"/>
			<psa03 value="0.0319913249974425" flag="0"/>
			<psa10 value="0.00974162002201706" flag="0"/>
			<psa30 value="0.0035028178778268" flag="0"/>
		</comp>
	</station>
	<station code="CH01" name="CH01" netid="HI" source="ITSAK Strong Motion Network" insttype="" lat="35.517" lon="24.0208">
		<comp name="--.HNE" depth="0.0">
			<acc value="0.0249573010425665" flag="0"/>
			<vel value="0.0398057017347407" flag="0"/>
			<psa03 value="0.058042568993671" flag="0"/>
			<psa10 value="0.0744683156604409" flag="0"/>
			<psa30 value="0.0220801943711798" flag="0"/>
		</comp>
		<comp name="--.HNN" depth="0.0">
			<acc value="0.0261358005883904" flag="0"/>
			<vel value="0.0401975944707469" flag="0"/>
			<psa03 value="0.041253230219875" flag="0"/>
			<psa10 value="0.0688612667209667" flag="0"/>
			<psa30 value="0.0237009767400573" flag="0"/>
		</comp>
		<comp name="--.HNZ" depth="0.0">
			<acc value="0.0186110802249279" flag="0"/>
			<vel value="0.0284271495535349" flag="0"/>
			<psa03 value="0.0397022524752113" flag="0"/>
			<psa10 value="0.0636327453570866" flag="0"/>
			<psa30 value="0.00885815264247234" flag="0"/>
		</comp>
	</station>
	<station code="CH02" name="CH02" netid="HI" source="ITSAK Strong Motion Network" insttype="" lat="35.5145" lon="24.0315">
		<comp name="--.HNE" depth="0.0">
			<acc value="0.0312087159297587" flag="0"/>
			<vel value="0.043532714352409" flag="0"/>
			<psa03 value="0.0557449636635939" flag="0"/>
			<psa10 value="0.0882368202562981" flag="0"/>
			<psa30 value="0.0147720335747269" flag="0"/>
		</comp>
		<comp name="--.HNN" depth="0.0">
			<acc value="0.025531386701184" flag="0"/>
			<vel value="0.0420941361659466" flag="0"/>
			<psa03 value="0.0554738050756683" flag="0"/>
			<psa10 value="0.063197446520675" flag="0"/>
			<psa30 value="0.018640203155311" flag="0"/>
		</comp>
		<comp name="--.HNZ" depth="0.0">
			<acc value="0.0177156218639563" flag="0"/>
			<vel value="0.0227000499539822" flag="0"/>
			<psa03 value="0.0454191546294219" flag="0"/>
			<psa10 value="0.0473741695562327" flag="0"/>
			<psa30 value="0.00848128517685231" flag="0"/>
		</comp>
	</station>
	<station code="CH03" name="CH03" netid="HI" source="ITSAK Strong Motion Network" insttype="" lat="35.53303" lon="24.0705">
		<comp name="--.HNE" depth="0.0">
			<acc value="0.0353450547541885" flag="0"/>
			<vel value="0.0364155036391703" flag="0"/>
			<psa03 value="0.0465919771148223" flag="0"/>
			<psa10 value="0.0579910816245521" flag="0"/>
			<psa30 value="0.012577104838137" flag="0"/>
		</comp>
		<comp name="--.HNN" depth="0.0">
			<acc value="0.0353058169711784" flag="0"/>
			<vel value="0.0279019157146496" flag="0"/>
			<psa03 value="0.0440950200370036" flag="0"/>
			<psa10 value="0.0471394790091358" flag="0"/>
			<psa30 value="0.0136847982173871" flag="0"/>
		</comp>
		<comp name="--.HNZ" depth="0.0">
			<acc value="0.0156177523827374" flag="0"/>
			<vel value="0.0136598619500303" flag="0"/>
			<psa03 value="0.0284619219209767" flag="0"/>
			<psa10 value="0.0244496996726104" flag="0"/>
			<psa30 value="0.00662489303331683" flag="0"/>
		</comp>
	</station>
	<station code="GTH2" name="GTH2" netid="HI" source="ITSAK Strong Motion Network" insttype="" lat="36.7603" lon="22.5659">
		<comp name="--.HNE" depth="0.0">
			<acc value="0.168118158910869" flag="0"/>
			<vel value="0.103699860947648" flag="0"/>
			<psa03 value="0.37766797698331" flag="0"/>
			<psa10 value="0.0828486433160196" flag="0"/>
			<psa30 value="0.0120935736399015" flag="0"/>
		</comp>
		<comp name="--.HNN" depth="0.0">
			<acc value="0.0865968482794245" flag="0"/>
			<vel value="0.0830564200680547" flag="0"/>
			<psa03 value="0.317513387870338" flag="0"/>
			<psa10 value="0.0672308237121191" flag="0"/>
			<psa30 value="0.0101422827097871" flag="0"/>
		</comp>
		<comp name="--.HNZ" depth="0.0">
			<acc value="0.0346734821782509" flag="0"/>
			<vel value="0.026962010538108" flag="0"/>
			<psa03 value="0.0885676067526134" flag="0"/>
			<psa10 value="0.0426991511092044" flag="0"/>
			<psa30 value="0.00581682658621383" flag="0"/>
		</comp>
	</station>
	<station code="KAL3" name="KAL3" netid="HI" source="ITSAK Strong Motion Network" insttype="" lat="37.0246" lon="22.103">
		<comp name="--.HNE" depth="0.0">
			<acc value="0.0998078273597201" flag="0"/>
			<vel value="0.123487456138459" flag="0"/>
			<psa03 value="0.211346688180856" flag="0"/>
			<psa10 value="0.208535759470624" flag="0"/>
			<psa30 value="0.0378554710725069" flag="0"/>
		</comp>
		<comp name="--.HNN" depth="0.0">
			<acc value="0.156522278183485" flag="0"/>
			<vel value="0.136573868178917" flag="0"/>
			<psa03 value="0.26065757978542" flag="0"/>
			<psa10 value="0.164967683299399" flag="0"/>
			<psa30 value="0.027167099687025" flag="0"/>
		</comp>
		<comp name="--.HNZ" depth="0.0">
			<acc value="0.0448944486711619" flag="0"/>
			<vel value="0.0525554915794797" flag="0"/>
			<psa03 value="0.115763752113772" flag="0"/>
			<psa10 value="0.108096860886522" flag="0"/>
			<psa30 value="0.00852639483181223" flag="0"/>
		</comp>
	</station>
	<station code="KIS1" name="KIS1" netid="HI" source="ITSAK Strong Motion Network" insttype="" lat="35.493933" lon="23.658993">
		<comp name="--.HNE" depth="0.0">
			<acc value="0.0311063959767092" flag="0"/>
			<vel value="0.0595839834576758" flag="0"/>
			<psa03 value="0.0878997083409548" flag="0"/>
			<psa10 value="0.0949004491890115" flag="0"/>
			<psa30 value="0.0128062133487847" flag="0"/>
		</comp>
		<comp name="--.HNN" depth="0.0">
			<acc value="0.0490289777655704" flag="0"/>
			<vel value="0.0571002436038612" flag="0"/>
			<psa03 value="0.0894758544195639" flag="0"/>
			<psa10 value="0.157162501244394" flag="0"/>
			<psa30 value="0.0144279424470451" flag="0"/>
		</comp>
		<comp name="--.HNZ" depth="0.0">
			<acc value="0.0284484945081678" flag="0"/>
			<vel value="0.0299218655875978" flag="0"/>
			<psa03 value="0.0689847365669047" flag="0"/>
			<psa10 value="0.046799391480006" flag="0"/>
			<psa30 value="0.00704745602604127" flag="0"/>
		</comp>
	</station>
	<station code="KYP2" name="KYP2" netid="HI" source="ITSAK Strong Motion Network" insttype="" lat="37.2497" lon="21.667">
		<comp name="--.HNE" depth="0.0">
			<acc value="0.0243048004592187" flag="0"/>
			<vel value="0.0171329823036489" flag="0"/>
			<psa03 value="0.0552181110538609" flag="0"/>
			<psa10 value="0.0251799742997204" flag="0"/>
			<psa30 value="0.00464366470333" flag="0"/>
		</comp>
		<comp name="--.HNN" depth="0.0">
			<acc value="0.0188151924881006" flag="0"/>
			<vel value="0.0168481055378287" flag="0"/>
			<psa03 value="0.0446232008597243" flag="0"/>
			<psa10 value="0.0225469848770932" flag="0"/>
			<psa30 value="0.00508264003329123" flag="0"/>
		</comp>
		<comp name="--.HNZ" depth="0.0">
			<acc value="0.0162611106255843" flag="0"/>
			<vel value="0.0135291399828508" flag="0"/>
			<psa03 value="0.0285250224552441" flag="0"/>
			<psa10 value="0.016214311618569" flag="0"/>
			<psa30 value="0.00372270161071164" flag="0"/>
		</comp>
	</station>
	<station code="LEO1" name="LEO1" netid="HI" source="ITSAK Strong Motion Network" insttype="" lat="37.1689" lon="22.8637">
		<comp name="--.HNE" depth="0.0">
			<acc value="0.0188163009754105" flag="0"/>
			<vel value="0.0209625427530306" flag="0"/>
			<psa03 value="0.05047609379349" flag="0"/>
			<psa10 value="0.0231410429805271" flag="0"/>
			<psa30 value="0.00585665547468222" flag="0"/>
		</comp>
		<comp name="--.HNN" depth="0.0">
			<acc value="0.0133154506966889" flag="0"/>
			<vel value="0.0163228922838185" flag="0"/>
			<psa03 value="0.0341795090163947" flag="0"/>
			<psa10 value="0.0180256966139351" flag="0"/>
			<psa30 value="0.00414164811386139" flag="0"/>
		</comp>
		<comp name="--.HNZ" depth="0.0">
			<acc value="0.00893788836303044" flag="0"/>
			<vel value="0.0104790032207755" flag="0"/>
			<psa03 value="0.0175054083453075" flag="0"/>
			<psa10 value="0.0167621929130159" flag="0"/>
			<psa30 value="0.0033756954982597" flag="0"/>
		</comp>
	</station>
	<station code="PET1" name="PET1" netid="HI" source="ITSAK Strong Motion Network" insttype="" lat="36.963862" lon="21.92538">
		<comp name="--.HNE" depth="0.0">
			<acc value="0.0795035475855332" flag="0"/>
			<vel value="0.0774469315121949" flag="0"/>
			<psa03 value="0.200785051024228" flag="0"/>
			<psa10 value="0.163882106385256" flag="0"/>
			<psa30 value="0.0142081595541738" flag="0"/>
		</comp>
		<comp name="--.HNN" depth="0.0">
			<acc value="0.0745064111474716" flag="0"/>
			<vel value="0.0707754322437209" flag="0"/>
			<psa03 value="0.160501205333821" flag="0"/>
			<psa10 value="0.0919911414616527" flag="0"/>
			<psa30 value="0.0127645580893282" flag="0"/>
		</comp>
		<comp name="--.HNZ" depth="0.0">
			<acc value="0.034875081466572" flag="0"/>
			<vel value="0.0256887602282044" flag="0"/>
			<psa03 value="0.168951067179032" flag="0"/>
			<psa10 value="0.0409297426445774" flag="0"/>
			<psa30 value="0.0103960061843888" flag="0"/>
		</comp>
	</station>
	<station code="PYL1" name="PYL1" netid="HI" source="ITSAK Strong Motion Network" insttype="" lat="36.914188" lon="21.695161">
		<comp name="--.HNE" depth="0.0">
			<acc value="0.017806268255961" flag="0"/>
			<vel value="0.0228633324470132" flag="0"/>
			<psa03 value="0.040918971097682" flag="0"/>
			<psa10 value="0.0326298653184383" flag="0"/>
			<psa30 value="0.00639761339382281" flag="0"/>
		</comp>
		<comp name="--.HNN" depth="0.0">
			<acc value="0.0182993869742394" flag="0"/>
			<vel value="0.0325261398077405" flag="0"/>
			<psa03 value="0.0451143531878223" flag="0"/>
			<psa10 value="0.045201680639504" flag="0"/>
			<psa30 value="0.0121394725138099" flag="0"/>
		</comp>
		<comp name="--.HNZ" depth="0.0">
			<acc value="0.0117701618683155" flag="0"/>
			<vel value="0.015014142617115" flag="0"/>
			<psa03 value="0.0403818261394647" flag="0"/>
			<psa10 value="0.0332399707349279" flag="0"/>
			<psa30 value="0.00598811751673066" flag="0"/>
		</comp>
	</station>
	<station code="RTH1" name="RTH1" netid="HI" source="ITSAK Strong Motion Network" insttype="" lat="35.365393" lon="24.471773">
		<comp name="--.HNE" depth="0.0">
			<acc value="0.0080177602500241" flag="0"/>
			<vel value="0.0119849099583728" flag="0"/>
			<psa03 value="0.0260680576100479" flag="0"/>
			<psa10 value="0.015929232733492" flag="0"/>
			<psa30 value="0.00815167917540567" flag="0"/>
		</comp>
		<comp name="--.HNN" depth="0.0">
			<acc value="0.00861369534489256" flag="0"/>
			<vel value="0.0113301555985998" flag="0"/>
			<psa03 value="0.033222807618789" flag="0"/>
			<psa10 value="0.013533536530376" flag="0"/>
			<psa30 value="0.00646956899386151" flag="0"/>
		</comp>
		<comp name="--.HNZ" depth="0.0">
			<acc value="0.00737365319345264" flag="0"/>
			<vel value="0.009740947838675" flag="0"/>
			<psa03 value="0.0226897869411958" flag="0"/>
			<psa10 value="0.0139448647163496" flag="0"/>
			<psa30 value="0.00349527591987577" flag="0"/>
		</comp>
	</station>
	<station code="TRP1" name="TRP1" netid="HI" source="ITSAK Strong Motion Network" insttype="" lat="37.511219" lon="22.363399">
		<comp name="--.HNE" depth="0.0">
			<acc value="0.00703752728703377" flag="0"/>
			<vel value="0.0114139419303581" flag="0"/>
			<psa03 value="0.0276747630047284" flag="0"/>
			<psa10 value="0.0135063041013612" flag="0"/>
			<psa30 value="0.00355048686899685" flag="0"/>
		</comp>
		<comp name="--.HNN" depth="0.0">
			<acc value="0.00901069105760863" flag="0"/>
			<vel value="0.0122668368218998" flag="0"/>
			<psa03 value="0.019589101067224" flag="0"/>
			<psa10 value="0.016390340779637" flag="0"/>
			<psa30 value="0.00372177154909962" flag="0"/>
		</comp>
		<comp name="--.HNZ" depth="0.0">
			<acc value="0.00509555289261563" flag="0"/>
			<vel value="0.00819722126484132" flag="0"/>
			<psa03 value="0.0107065491000829" flag="0"/>
			<psa10 value="0.0146375702921944" flag="0"/>
			<psa30 value="0.003634219499206" flag="0"/>
		</comp>
	</station>
	<station code="CHNB" name="CHNB" netid="HL" source="National Observatory of Athens Seismic Network" insttype="" lat="35.48765" lon="24.06605">
		<comp name="00.HNE" depth="0.0">
			<acc value="0.0641608718318037" flag="0"/>
			<vel value="0.0688132145403691" flag="0"/>
			<psa03 value="0.111217794716405" flag="0"/>
			<psa10 value="0.102804420288306" flag="0"/>
			<psa30 value="0.0120071512481755" flag="0"/>
		</comp>
		<comp name="00.HNN" depth="0.0">
			<acc value="0.0569059424219863" flag="0"/>
			<vel value="0.0609258600899472" flag="0"/>
			<psa03 value="0.0897016610448113" flag="0"/>
			<psa10 value="0.146287140805138" flag="0"/>
			<psa30 value="0.0102251798679837" flag="0"/>
		</comp>
		<comp name="00.HNZ" depth="0.0">
			<acc value="0.0287319173679076" flag="0"/>
			<vel value="0.0281392098933961" flag="0"/>
			<psa03 value="0.120053317526428" flag="0"/>
			<psa10 value="0.0288840703029019" flag="0"/>
			<psa30 value="0.00536487456327704" flag="0"/>
		</comp>
	</station>
	<station code="IMMV" name="IMMV" netid="HL" source="National Observatory of Athens Seismic Network" insttype="" lat="35.4606" lon="23.9811">
		<comp name="--.HNE" depth="0.0">
			<acc value="0.0171329366570217" flag="0"/>
			<vel value="0.0242219558046001" flag="0"/>
			<psa03 value="0.0430526957798037" flag="0"/>
			<psa10 value="0.0432874563315381" flag="0"/>
			<psa30 value="0.00679356045670586" flag="0"/>
		</comp>
		<comp name="--.HNN" depth="0.0">
			<acc value="0.0276975272973817" flag="0"/>
			<vel value="0.0296824529955694" flag="0"/>
			<psa03 value="0.0557709497600453" flag="0"/>
			<psa10 value="0.0387404563651059" flag="0"/>
			<psa30 value="0.0100166685551325" flag="0"/>
		</comp>
		<comp name="--.HNZ" depth="0.0">
			<acc value="0.0165062096434956" flag="0"/>
			<vel value="0.0134461520900833" flag="0"/>
			<psa03 value="0.0416383156257266" flag="0"/>
			<psa10 value="0.02280679833846" flag="0"/>
			<psa30 value="0.00525752078494943" flag="0"/>
		</comp>
	</station>
	<station code="KTHA" name="KTHA" netid="HL" source="National Observatory of Athens Seismic Network" insttype="" lat="36.2566" lon="23.0621">
		<comp name="--.HNE" depth="0.0">
			<acc value="0.532253722381811" flag="0"/>
			<vel value="0.329569683958215" flag="0"/>
			<psa03 value="1.27273556248475" flag="0"/>
