<?xml version="1.0" encoding="UTF-8" standalone="yes"?>
<!DOCTYPE earthquake SYSTEM "stationlist.dtd">
<stationlist created="" xmlns="ch.ethz.sed.shakemap.usgs.xml">
  <station code="KTHA" name="KTHA" netid="GE" insttype="STS-2/N" commtype="DIG" lat="36.2566" lon="23.0621">
    <comp name="--.HHE">
      <acc value="0.0585710766" flag="0"/>
      <vel value="0.0521857149" flag="0"/>
      <psa03 value="0.1117763526" flag="0"/>
      <psa10 value="0.0682217899" flag="0"/>
      <psa30 value="0.0072730222" flag="0"/>
    </comp>
    <comp name="--.HHN">
      <acc value="0.0318920821" flag="0"/>
      <vel value="0.0277512937" flag="0"/>
      <psa03 value="0.1145195581" flag="0"/>
      <psa10 value="0.0349933661" flag="0"/>
      <psa30 value="0.0065194993" flag="0"/>
    </comp>
    <comp name="--.HHZ">
      <acc value="0.0261913947" flag="0"/>
      <vel value="0.0183870871" flag="0"/>
      <psa03 value="0.0594454733" flag="0"/>
      <psa10 value="0.0327903736" flag="0"/>
      <psa30 value="0.0036042231" flag="0"/>
    </comp>
  </station>
  <station code="KNDR" name="KNDR" netid="HC" insttype="120" commtype="DIG" lat="35.2348" lon="23.6248">
    <comp name="--.HHZ">
      <acc value="0.0165958761" flag="0"/>
      <vel value="0.0187707749" flag="0"/>
      <psa03 value="0.0391145007" flag="0"/>
      <psa10 value="0.0262308586" flag="0"/>
      <psa30 value="0.0032852486" flag="0"/>
    </comp>
    <comp name="--.HHE">
      <acc value="0.0355032636" flag="0"/>
      <vel value="0.0392424760" flag="0"/>
      <psa03 value="0.0798135320" flag="0"/>
      <psa10 value="0.0992502221" flag="0"/>
      <psa30 value="0.0053013951" flag="0"/>
    </comp>
    <comp name="--.HHN">
      <acc value="0.0295229069" flag="0"/>
      <vel value="0.0437004069" flag="0"/>
      <psa03 value="0.0646434488" flag="0"/>
      <psa10 value="0.0595919212" flag="0"/>
      <psa30 value="0.0076127525" flag="0"/>
    </comp>
  </station>
  <station code="RODP" name="RODP" netid="HC" insttype="120" commtype="DIG" lat="35.5604" lon="23.7577">
    <comp name="--.HHZ">
      <acc value="0.0189318250" flag="0"/>
      <vel value="0.0214014512" flag="0"/>
      <psa03 value="0.0374691943" flag="0"/>
      <psa10 value="0.0319349731" flag="0"/>
      <psa30 value="0.0049638903" flag="0"/>
    </comp>
    <comp name="--.HHN">
      <acc value="0.0259415282" flag="0"/>
      <vel value="0.0289657521" flag="0"/>
      <psa03 value="0.0603497217" flag="0"/>
      <psa10 value="0.0777327236" flag="0"/>
      <psa30 value="0.0108544834" flag="0"/>
    </comp>
    <comp name="--.HHE">
      <acc value="0.0305035898" flag="0"/>
      <vel value="0.0384219134" flag="0"/>
      <psa03 value="0.1174949370" flag="0"/>
      <psa10 value="0.0788035179" flag="0"/>
      <psa30 value="0.0147984103" flag="0"/>
    </comp>
  </station>
  <station code="ARE2" name="ARE2" netid="HI" insttype="unknown" commtype="DIG" lat="36.6663" lon="22.3826">
    <comp name="--.HNE">
      <acc value="0.0588952894" flag="0"/>
      <vel value="0.0565860875" flag="0"/>
      <psa03 value="0.1725632329" flag="0"/>
      <psa10 value="0.0575906269" flag="0"/>
      <psa30 value="0.0093435979" flag="0"/>
    </comp>
    <comp name="--.HNZ">
      <acc value="0.0371049937" flag="0"/>
      <vel value="0.0336002458" flag="0"/>
      <psa03 value="0.0863257954" flag="0"/>
      <psa10 value="0.0507922244" flag="0"/>
      <psa30 value="0.0044613815" flag="0"/>
    </comp>
    <comp name="--.HNN">
      <acc value="0.0723566081" flag="0"/>
      <vel value="0.0374469485" flag="0"/>
      <psa03 value="0.1898448898" flag="0"/>
      <psa10 value="0.0577794044" flag="0"/>
      <psa30 value="0.0079011109" flag="0"/>
    </comp>
  </station>
  <station code="GTH2" name="GTH2" netid="HI" insttype="unknown" commtype="DIG" lat="36.7603" lon="22.5659">
    <comp name="--.HNN">
      <acc value="0.0864882136" flag="0"/>
      <vel value="0.0792093954" flag="0"/>
      <psa03 value="0.3170323386" flag="0"/>
      <psa10 value="0.0669004648" flag="0"/>
      <psa30 value="0.0084193222" flag="0"/>
    </comp>
    <comp name="--.HNE">
      <acc value="0.1679089282" flag="0"/>
      <vel value="0.0992400709" flag="0"/>
      <psa03 value="0.3811950621" flag="0"/>
      <psa10 value="0.0831038529" flag="0"/>
      <psa30 value="0.0101625938" flag="0"/>
    </comp>
    <comp name="--.HNZ">
      <acc value="0.0373293540" flag="0"/>
      <vel value="0.0285789211" flag="0"/>
      <psa03 value="0.0892644454" flag="0"/>
      <psa10 value="0.0424753959" flag="0"/>
      <psa30 value="0.0049089057" flag="0"/>
    </comp>
  </station>
  <station code="KAL3" name="KAL3" netid="HI" insttype="unknown" commtype="DIG" lat="37.0246" lon="22.103">
    <comp name="--.HNN">
      <acc value="0.1558677409" flag="0"/>
      <vel value="0.1353023390" flag="0"/>
      <psa03 value="0.2590590076" flag="0"/>
      <psa10 value="0.1645068823" flag="0"/>
      <psa30 value="0.0238662187" flag="0"/>
    </comp>
    <comp name="--.HNE">
      <acc value="0.1008913908" flag="0"/>
      <vel value="0.1273925464" flag="0"/>
      <psa03 value="0.2119146445" flag="0"/>
      <psa10 value="0.2090930943" flag="0"/>
      <psa30 value="0.0328126488" flag="0"/>
    </comp>
    <comp name="--.HNZ">
      <acc value="0.0449606901" flag="0"/>
      <vel value="0.0503485460" flag="0"/>
      <psa03 value="0.1149900298" flag="0"/>
      <psa10 value="0.1075020411" flag="0"/>
      <psa30 value="0.0071658777" flag="0"/>
    </comp>
  </station>
  <station code="PET1" name="PET1" netid="HI" insttype="unknown" commtype="DIG" lat="36.9639" lon="21.9254">
    <comp name="--.HNE">
      <acc value="0.0783889073" flag="0"/>
      <vel value="0.0787520916" flag="0"/>
      <psa03 value="0.1990966506" flag="0"/>
      <psa10 value="0.1637237847" flag="0"/>
      <psa30 value="0.0127738898" flag="0"/>
    </comp>
    <comp name="--.HNN">
      <acc value="0.0747538016" flag="0"/>
      <vel value="0.0670474279" flag="0"/>
      <psa03 value="0.1606516241" flag="0"/>
      <psa10 value="0.0919163185" flag="0"/>
      <psa30 value="0.0113398422" flag="0"/>
    </comp>
    <comp name="--.HNZ">
      <acc value="0.0395324261" flag="0"/>
      <vel value="0.0092164065" flag="0"/>
      <psa03 value="0.0380409627" flag="0"/>
      <psa10 value="0.0092740924" flag="0"/>
      <psa30 value="0.0008035025" flag="0"/>
    </comp>
  </station>
  <station code="PYL1" name="PYL1" netid="HI" insttype="unknown" commtype="DIG" lat="36.9142" lon="21.6952">
    <comp name="--.HNN">
      <acc value="0.0176247792" flag="0"/>
      <vel value="0.0257679786" flag="0"/>
      <psa03 value="0.0449173165" flag="0"/>
      <psa10 value="0.0460882477" flag="0"/>
      <psa30 value="0.0095115995" flag="0"/>
    </comp>
    <comp name="--.HNZ">
      <acc value="0.0118852020" flag="0"/>
      <vel value="0.0133637758" flag="0"/>
      <psa03 value="0.0405546006" flag="0"/>
      <psa10 value="0.0331839904" flag="0"/>
      <psa30 value="0.0052947804" flag="0"/>
    </comp>
    <comp name="--.HNE">
      <acc value="0.0181239534" flag="0"/>
      <vel value="0.0230130541" flag="0"/>
      <psa03 value="0.0404772572" flag="0"/>
      <psa10 value="0.0328291626" flag="0"/>
      <psa30 value="0.0051672975" flag="0"/>
    </comp>
  </station>
  <station code="VLI" name="VLI" netid="HL" insttype="60" commtype="DIG" lat="36.718" lon="22.9469">
    <comp name="--.HHE">
      <acc value="0.0300951939" flag="0"/>
      <vel value="0.0549514393" flag="0"/>
      <psa03 value="0.0709864446" flag="0"/>
      <psa10 value="0.0718691496" flag="0"/>
      <psa30 value="0.0191491198" flag="0"/>
    </comp>
    <comp name="--.HHN">
      <acc value="0.0255161099" flag="0"/>
      <vel value="0.0332892437" flag="0"/>
      <psa03 value="0.0594701849" flag="0"/>
      <psa10 value="0.0588404756" flag="0"/>
      <psa30 value="0.0182831332" flag="0"/>
    </comp>
    <comp name="--.HHZ">
      <acc value="0.0251200491" flag="0"/>
      <vel value="0.0263435583" flag="0"/>
      <psa03 value="0.0678874727" flag="0"/>
      <psa10 value="0.0194767436" flag="0"/>
      <psa30 value="0.0124062649" flag="0"/>
    </comp>
  </station>
  <station code="PYL" name="PYL" netid="HP" insttype="Horizon" commtype="DIG" lat="36.8955" lon="21.742">
    <comp name="--.HHZ">
      <acc value="0.0885615382" flag="0"/>
      <vel value="0.0234850842" flag="0"/>
      <psa03 value="0.0551805672" flag="0"/>
      <psa10 value="0.0184165609" flag="0"/>
      <psa30 value="0.0050360250" flag="0"/>
    </comp>
    <comp name="--.HHE">
      <acc value="0.0067908368" flag="0"/>
      <vel value="0.0025437172" flag="0"/>
      <psa03 value="0.0039462640" flag="0"/>
      <psa10 value="0.0065610698" flag="0"/>
      <psa30 value="0.0002479099" flag="0"/>
    </comp>
    <comp name="--.HHN">
      <acc value="0.0155423005" flag="0"/>
      <vel value="0.0204462436" flag="0"/>
      <psa03 value="0.0551425514" flag="0"/>
      <psa10 value="0.0387835210" flag="0"/>
      <psa30 value="0.0046069986" flag="0"/>
    </comp>
  </station>
</stationlist>
