<?xml version="1.0" encoding="UTF-8" standalone="yes"?>
<!DOCTYPE earthquake SYSTEM "stationlist.dtd">
<stationlist created="" xmlns="ch.ethz.sed.shakemap.usgs.xml">
  <station code="BNGB" name="BNGB" netid="KO" insttype="CMG-3ESPC" commtype="DIG" lat="38.9913" lon="40.6792">
    <comp name="--.HHZ">
      <acc value="0.0106049732" flag="0"/>
      <vel value="0.0040003332" flag="0"/>
      <psa03 value="0.0229649503" flag="0"/>
      <psa10 value="0.0046270407" flag="0"/>
      <psa30 value="0.0006031434" flag="0"/>
    </comp>
    <comp name="--.HHE">
      <acc value="0.0215945767" flag="0"/>
      <vel value="0.0079402430" flag="0"/>
      <psa03 value="0.0609058896" flag="0"/>
      <psa10 value="0.0036982908" flag="0"/>
      <psa30 value="0.0006007743" flag="0"/>
    </comp>
  </station>
  <station code="DYBB" name="DYBB" netid="KO" insttype="CMG-3T" commtype="DIG" lat="37.9532" lon="40.1393">
    <comp name="--.HHE">
      <acc value="0.0174503448" flag="0"/>
      <vel value="0.0083803496" flag="0"/>
      <psa03 value="0.0359332509" flag="0"/>
      <psa10 value="0.0097702241" flag="0"/>
      <psa30 value="0.0014247939" flag="0"/>
    </comp>
    <comp name="--.HHN">
      <acc value="0.0379332675" flag="0"/>
      <vel value="0.0144310130" flag="0"/>
      <psa03 value="0.0602462586" flag="0"/>
      <psa10 value="0.0106700270" flag="0"/>
      <psa30 value="0.0005851676" flag="0"/>
    </comp>
    <comp name="--.HHZ">
      <acc value="0.0191459033" flag="0"/>
      <vel value="0.0050963927" flag="0"/>
      <psa03 value="0.0169757228" flag="0"/>
      <psa10 value="0.0115475689" flag="0"/>
      <psa30 value="0.0007608376" flag="0"/>
    </comp>
  </station>
  <station code="KARO" name="KARO" netid="KO" insttype="CMG-3T" commtype="DIG" lat="39.3089" lon="41.0493">
    <comp name="--.HHN">
      <acc value="0.0096357836" flag="0"/>
      <vel value="0.0069541615" flag="0"/>
      <psa03 value="0.0346245118" flag="0"/>
      <psa10 value="0.0062350704" flag="0"/>
      <psa30 value="0.0003921049" flag="0"/>
    </comp>
    <comp name="--.HHE">
      <acc value="0.0103999597" flag="0"/>
      <vel value="0.0086569765" flag="0"/>
      <psa03 value="0.0325890650" flag="0"/>
      <psa10 value="0.0083922593" flag="0"/>
      <psa30 value="0.0005254066" flag="0"/>
    </comp>
    <comp name="--.HHZ">
      <acc value="0.0051894438" flag="0"/>
      <vel value="0.0032184149" flag="0"/>
      <psa03 value="0.0179613198" flag="0"/>
      <psa10 value="0.0032413038" flag="0"/>
      <psa30 value="0.0001653499" flag="0"/>
    </comp>
  </station>
  <station code="LICE" name="LICE" netid="KO" insttype="CMG-3ESPC" commtype="DIG" lat="38.4532" lon="40.6446">
    <comp name="--.HHE">
      <acc value="0.2381978199" flag="0"/>
      <vel value="0.0615302217" flag="0"/>
      <psa03 value="0.4524374938" flag="0"/>
      <psa10 value="0.0273962636" flag="0"/>
      <psa30 value="0.0022199738" flag="0"/>
    </comp>
    <comp name="--.HHN">
      <acc value="0.2559495406" flag="0"/>
      <vel value="0.0647891000" flag="0"/>
      <psa03 value="0.3204518703" flag="0"/>
      <psa10 value="0.0289829921" flag="0"/>
      <psa30 value="0.0018860516" flag="0"/>
    </comp>
    <comp name="--.HHZ">
      <acc value="0.1860244290" flag="0"/>
      <vel value="0.0504214777" flag="0"/>
      <psa03 value="0.2345628647" flag="0"/>
      <psa10 value="0.0186700195" flag="0"/>
      <psa30 value="0.0016042894" flag="0"/>
    </comp>
  </station>
  <station code="MAZI" name="MAZI" netid="KO" insttype="CMG-3T" commtype="DIG" lat="37.4593" lon="40.4465">
    <comp name="--.HHZ">
      <acc value="0.1215848550" flag="0"/>
      <vel value="0.0417995962" flag="0"/>
      <psa03 value="0.2582409171" flag="0"/>
      <psa10 value="0.0127487616" flag="0"/>
      <psa30 value="0.0008394445" flag="0"/>
    </comp>
    <comp name="--.HHE">
      <acc value="0.1193567344" flag="0"/>
      <vel value="0.0455667966" flag="0"/>
      <psa03 value="0.3090638310" flag="0"/>
      <psa10 value="0.0184399358" flag="0"/>
      <psa30 value="0.0013549846" flag="0"/>
    </comp>
    <comp name="--.HHN">
      <acc value="0.1165583002" flag="0"/>
      <vel value="0.0577927463" flag="0"/>
      <psa03 value="0.2739761685" flag="0"/>
      <psa10 value="0.0213539885" flag="0"/>
      <psa30 value="0.0020551290" flag="0"/>
    </comp>
  </station>
  <station code="SINE" name="SINE" netid="KO" insttype="CMG-6T" commtype="DIG" lat="39.1636" lon="39.3871">
    <comp name="--.HHE">
      <acc value="0.0104215191" flag="0"/>
      <vel value="0.0065709316" flag="0"/>
      <psa03 value="0.0159697477" flag="0"/>
      <psa10 value="0.0042033669" flag="0"/>
      <psa30 value="0.0002446450" flag="0"/>
    </comp>
    <comp name="--.HHN">
      <acc value="0.0045516949" flag="0"/>
      <vel value="0.0032126853" flag="0"/>
      <psa03 value="0.0110639205" flag="0"/>
      <psa10 value="0.0036362048" flag="0"/>
      <psa30 value="0.0001217307" flag="0"/>
    </comp>
    <comp name="--.HHZ">
      <acc value="0.0055148522" flag="0"/>
      <vel value="0.0035017019" flag="0"/>
      <psa03 value="0.0176051240" flag="0"/>
      <psa10 value="0.0023567751" flag="0"/>
      <psa30 value="0.0001239984" flag="0"/>
    </comp>
  </station>
  <station code="SVAN" name="SVAN" netid="KO" insttype="CMG-3T" commtype="DIG" lat="38.1511" lon="41.1984">
    <comp name="--.HHZ">
      <acc value="0.0187413110" flag="0"/>
      <vel value="0.0061642660" flag="0"/>
      <psa03 value="0.0263779255" flag="0"/>
      <psa10 value="0.0025087849" flag="0"/>
      <psa30 value="0.0003297086" flag="0"/>
    </comp>
    <comp name="--.HHE">
      <acc value="0.0276209803" flag="0"/>
      <vel value="0.0075852074" flag="0"/>
      <psa03 value="0.0408693337" flag="0"/>
      <psa10 value="0.0020362939" flag="0"/>
      <psa30 value="0.0002927523" flag="0"/>
    </comp>
  </station>
  <station code="SVRC" name="SVRC" netid="KO" insttype="CMG-3T" commtype="DIG" lat="38.3775" lon="39.306">
    <comp name="--.HHE">
      <acc value="0.0234282853" flag="0"/>
      <vel value="0.0112693773" flag="0"/>
      <psa03 value="0.0667713319" flag="0"/>
      <psa10 value="0.0051071346" flag="0"/>
      <psa30 value="0.0003647431" flag="0"/>
    </comp>
    <comp name="--.HHZ">
      <acc value="0.0233910923" flag="0"/>
      <vel value="0.0065784022" flag="0"/>
      <psa03 value="0.0273896053" flag="0"/>
      <psa10 value="0.0026313437" flag="0"/>
      <psa30 value="0.0002458946" flag="0"/>
    </comp>
    <comp name="--.HHN">
      <acc value="0.0268337070" flag="0"/>
      <vel value="0.0090746167" flag="0"/>
      <psa03 value="0.0426790264" flag="0"/>
      <psa10 value="0.0038456819" flag="0"/>
      <psa30 value="0.0002707888" flag="0"/>
    </comp>
  </station>
  <station code="VRTB" name="VRTB" netid="KO" insttype="CMG-40T" commtype="DIG" lat="39.1603" lon="41.4558">
    <comp name="--.HHZ">
      <acc value="0.0020268781" flag="0"/>
      <vel value="0.0016462009" flag="0"/>
      <psa03 value="0.0058272304" flag="0"/>
      <psa10 value="0.0026261674" flag="0"/>
      <psa30 value="0.0003853296" flag="0"/>
    </comp>
    <comp name="--.HHE">
      <acc value="0.0033756906" flag="0"/>
      <vel value="0.0039238777" flag="0"/>
      <psa03 value="0.0090341549" flag="0"/>
      <psa10 value="0.0071761035" flag="0"/>
      <psa30 value="0.0006886064" flag="0"/>
    </comp>
    <comp name="--.HHN">
      <acc value="0.0012588058" flag="0"/>
      <vel value="0.0006431979" flag="0"/>
      <psa03 value="0.0022430801" flag="0"/>
      <psa10 value="0.0012241775" flag="0"/>
      <psa30 value="0.0000683006" flag="0"/>
    </comp>
  </station>
</stationlist>
