<?xml version="1.0" encoding="UTF-8" standalone="yes"?>
<!DOCTYPE earthquake SYSTEM "stationlist.dtd">
<stationlist created="" xmlns="ch.ethz.sed.shakemap.usgs.xml">
  <station code="BNGB" name="BNGB" netid="KO" insttype="CMG-3ESPC" commtype="DIG" lat="38.9913" lon="40.6792">
    <comp name="--.HHE">
      <acc value="0.0215945765" flag="0"/>
      <vel value="0.0079402435" flag="0"/>
      <psa03 value="0.0609058896" flag="0"/>
      <psa10 value="0.0036982908" flag="0"/>
      <psa30 value="0.0006007815" flag="0"/>
    </comp>
    <comp name="--.HHZ">
      <acc value="0.0106049733" flag="0"/>
      <vel value="0.0040003332" flag="0"/>
      <psa03 value="0.0229649503" flag="0"/>
      <psa10 value="0.0046270407" flag="0"/>
      <psa30 value="0.0006031530" flag="0"/>
    </comp>
  </station>
  <station code="DYBB" name="DYBB" netid="KO" insttype="CMG-3T" commtype="DIG" lat="37.9532" lon="40.1393">
    <comp name="--.HHE">
      <acc value="0.0174503450" flag="0"/>
      <vel value="0.0083803510" flag="0"/>
      <psa03 value="0.0359332509" flag="0"/>
      <psa10 value="0.0097702241" flag="0"/>
      <psa30 value="0.0014247706" flag="0"/>
    </comp>
    <comp name="--.HHN">
      <acc value="0.0379332674" flag="0"/>
      <vel value="0.0144310151" flag="0"/>
      <psa03 value="0.0602462586" flag="0"/>
      <psa10 value="0.0106700270" flag="0"/>
      <psa30 value="0.0005851441" flag="0"/>
    </comp>
    <comp name="--.HHZ">
      <acc value="0.0191459032" flag="0"/>
      <vel value="0.0050963920" flag="0"/>
      <psa03 value="0.0169757228" flag="0"/>
      <psa10 value="0.0115475689" flag="0"/>
      <psa30 value="0.0007608392" flag="0"/>
    </comp>
  </station>
  <station code="KARO" name="KARO" netid="KO" insttype="CMG-3T" commtype="DIG" lat="39.3089" lon="41.0493">
    <comp name="--.HHE">
      <acc value="0.0103999596" flag="0"/>
      <vel value="0.0086569769" flag="0"/>
      <psa03 value="0.0325890650" flag="0"/>
      <psa10 value="0.0083922592" flag="0"/>
      <psa30 value="0.0005254206" flag="0"/>
    </comp>
    <comp name="--.HHZ">
      <acc value="0.0051894436" flag="0"/>
      <vel value="0.0032184155" flag="0"/>
      <psa03 value="0.0179613198" flag="0"/>
      <psa10 value="0.0032413042" flag="0"/>
      <psa30 value="0.0001654012" flag="0"/>
    </comp>
    <comp name="--.HHN">
      <acc value="0.0096357833" flag="0"/>
      <vel value="0.0069541617" flag="0"/>
      <psa03 value="0.0346245118" flag="0"/>
      <psa10 value="0.0062350704" flag="0"/>
      <psa30 value="0.0003922179" flag="0"/>
    </comp>
  </station>
  <station code="LICE" name="LICE" netid="KO" insttype="CMG-3ESPC" commtype="DIG" lat="38.4532" lon="40.6446">
    <comp name="--.HHE">
      <acc value="0.2381978198" flag="0"/>
      <vel value="0.0615302215" flag="0"/>
      <psa03 value="0.4524374938" flag="0"/>
      <psa10 value="0.0273962640" flag="0"/>
      <psa30 value="0.0022199308" flag="0"/>
    </comp>
    <comp name="--.HHN">
      <acc value="0.2559495407" flag="0"/>
      <vel value="0.0647890990" flag="0"/>
      <psa03 value="0.3204518703" flag="0"/>
      <psa10 value="0.0289829927" flag="0"/>
      <psa30 value="0.0018861490" flag="0"/>
    </comp>
    <comp name="--.HHZ">
      <acc value="0.1860244292" flag="0"/>
      <vel value="0.0504214776" flag="0"/>
      <psa03 value="0.2345628647" flag="0"/>
      <psa10 value="0.0186700195" flag="0"/>
      <psa30 value="0.0016042858" flag="0"/>
    </comp>
  </station>
  <station code="MAZI" name="MAZI" netid="KO" insttype="CMG-3T" commtype="DIG" lat="37.4593" lon="40.4465">
    <comp name="--.HHE">
      <acc value="0.1193567343" flag="0"/>
      <vel value="0.0455667976" flag="0"/>
      <psa03 value="0.3090638310" flag="0"/>
      <psa10 value="0.0184399358" flag="0"/>
      <psa30 value="0.0013550203" flag="0"/>
    </comp>
    <comp name="--.HHN">
      <acc value="0.1165583007" flag="0"/>
      <vel value="0.0577927477" flag="0"/>
      <psa03 value="0.2739761685" flag="0"/>
      <psa10 value="0.0213539885" flag="0"/>
      <psa30 value="0.0020551387" flag="0"/>
    </comp>
    <comp name="--.HHZ">
      <acc value="0.1215848546" flag="0"/>
      <vel value="0.0417995960" flag="0"/>
      <psa03 value="0.2582409171" flag="0"/>
      <psa10 value="0.0127487615" flag="0"/>
      <psa30 value="0.0008394666" flag="0"/>
    </comp>
  </station>
  <station code="SINE" name="SINE" netid="KO" insttype="CMG-6T" commtype="DIG" lat="39.1636" lon="39.3871">
    <comp name="--.HHE">
      <acc value="0.0104215226" flag="0"/>
      <vel value="0.0065709310" flag="0"/>
      <psa03 value="0.0159697477" flag="0"/>
      <psa10 value="0.0042033669" flag="0"/>
      <psa30 value="0.0002446444" flag="0"/>
    </comp>
    <comp name="--.HHN">
      <acc value="0.0045516977" flag="0"/>
      <vel value="0.0032126867" flag="0"/>
      <psa03 value="0.0110639205" flag="0"/>
      <psa10 value="0.0036362047" flag="0"/>
      <psa30 value="0.0001217339" flag="0"/>
    </comp>
    <comp name="--.HHZ">
      <acc value="0.0055148578" flag="0"/>
      <vel value="0.0035017023" flag="0"/>
      <psa03 value="0.0176051240" flag="0"/>
      <psa10 value="0.0023567750" flag="0"/>
      <psa30 value="0.0001239985" flag="0"/>
    </comp>
  </station>
  <station code="SVAN" name="SVAN" netid="KO" insttype="CMG-3T" commtype="DIG" lat="38.1511" lon="41.1984">
    <comp name="--.HHZ">
      <acc value="0.0187413113" flag="0"/>
      <vel value="0.0061642664" flag="0"/>
      <psa03 value="0.0263779255" flag="0"/>
      <psa10 value="0.0025087849" flag="0"/>
      <psa30 value="0.0003297088" flag="0"/>
    </comp>
    <comp name="--.HHE">
      <acc value="0.0276209802" flag="0"/>
      <vel value="0.0075852075" flag="0"/>
      <psa03 value="0.0408693337" flag="0"/>
      <psa10 value="0.0020362938" flag="0"/>
      <psa30 value="0.0002927269" flag="0"/>
    </comp>
  </station>
  <station code="SVRC" name="SVRC" netid="KO" insttype="CMG-3T" commtype="DIG" lat="38.3775" lon="39.306">
    <comp name="--.HHE">
      <acc value="0.0234282852" flag="0"/>
      <vel value="0.0112693774" flag="0"/>
      <psa03 value="0.0667713319" flag="0"/>
      <psa10 value="0.0051071346" flag="0"/>
      <psa30 value="0.0003647367" flag="0"/>
    </comp>
    <comp name="--.HHN">
      <acc value="0.0268337073" flag="0"/>
      <vel value="0.0090746170" flag="0"/>
      <psa03 value="0.0426790264" flag="0"/>
      <psa10 value="0.0038456819" flag="0"/>
      <psa30 value="0.0002707928" flag="0"/>
    </comp>
    <comp name="--.HHZ">
      <acc value="0.0233910922" flag="0"/>
      <vel value="0.0065784023" flag="0"/>
      <psa03 value="0.0273896053" flag="0"/>
      <psa10 value="0.0026313437" flag="0"/>
      <psa30 value="0.0002458928" flag="0"/>
    </comp>
  </station>
  <station code="VRTB" name="VRTB" netid="KO" insttype="CMG-40T" commtype="DIG" lat="39.1603" lon="41.4558">
    <comp name="--.HHE">
      <acc value="0.0033756907" flag="0"/>
      <vel value="0.0039238767" flag="0"/>
      <psa03 value="0.0090341549" flag="0"/>
      <psa10 value="0.0071761034" flag="0"/>
      <psa30 value="0.0006886118" flag="0"/>
    </comp>
    <comp name="--.HHN">
      <acc value="0.0012588062" flag="0"/>
      <vel value="0.0006431979" flag="0"/>
      <psa03 value="0.0022430801" flag="0"/>
      <psa10 value="0.0012241775" flag="0"/>
      <psa30 value="0.0000683158" flag="0"/>
    </comp>
    <comp name="--.HHZ">
      <acc value="0.0020268785" flag="0"/>
      <vel value="0.0016462031" flag="0"/>
      <psa03 value="0.0058272304" flag="0"/>
      <psa10 value="0.0026261673" flag="0"/>
      <psa30 value="0.0003853291" flag="0"/>
    </comp>
  </station>
</stationlist>
