<?xml version="1.0" encoding="UTF-8" standalone="yes"?>
<!DOCTYPE earthquake SYSTEM "stationlist.dtd">
<stationlist created="" xmlns="ch.ethz.sed.shakemap.usgs.xml">
  <station code="GAZ" name="GAZ" netid="KO" insttype="CMG-3T" lat="37.1721" lon="37.2096">
    <comp name="--.HHN">
      <acc value="0.1118331051" flag="0"/>
      <vel value="0.0648068108" flag="0"/>
      <psa03 value="0.3723633248" flag="0"/>
      <psa10 value="0.0988072073" flag="0"/>
      <psa30 value="0.0063539630" flag="0"/>
    </comp>
    <comp name="--.HHZ">
      <acc value="0.0701722384" flag="0"/>
      <vel value="0.0405820564" flag="0"/>
      <psa03 value="0.1728704712" flag="0"/>
      <psa10 value="0.0439909791" flag="0"/>
      <psa30 value="0.0032698178" flag="0"/>
    </comp>
    <comp name="--.HHE">
      <acc value="0.1405799174" flag="0"/>
      <vel value="0.0991061802" flag="0"/>
      <psa03 value="0.3361284811" flag="0"/>
      <psa10 value="0.1520707240" flag="0"/>
      <psa30 value="0.0110117327" flag="0"/>
    </comp>
  </station>
  <station code="KHMN" name="KHMN" netid="KO" insttype="CMG-5T" lat="37.3916" lon="37.1574">
    <comp name="--.HNE">
      <acc value="0.1763219385" flag="0"/>
      <vel value="0.0784865140" flag="0"/>
      <psa03 value="0.4614179433" flag="0"/>
      <psa10 value="0.0642665966" flag="0"/>
      <psa30 value="0.0257110963" flag="0"/>
    </comp>
    <comp name="--.HNZ">
      <acc value="0.0771425779" flag="0"/>
      <vel value="0.0353665718" flag="0"/>
      <psa03 value="0.1509527547" flag="0"/>
      <psa10 value="0.0588866822" flag="0"/>
      <psa30 value="0.0054337292" flag="0"/>
    </comp>
    <comp name="--.HNN">
      <acc value="0.1178245064" flag="0"/>
      <vel value="0.0635164725" flag="0"/>
      <psa03 value="0.3570585651" flag="0"/>
      <psa10 value="0.0994581805" flag="0"/>
      <psa30 value="0.0110471446" flag="0"/>
    </comp>
  </station>
  <station code="KMRS" name="KMRS" netid="KO" insttype="CMG-3T" lat="37.5053" lon="36.9">
    <comp name="--.HHZ">
      <acc value="0.0354680291" flag="0"/>
      <vel value="0.0300114261" flag="0"/>
      <psa03 value="0.0845603405" flag="0"/>
      <psa10 value="0.0458361410" flag="0"/>
      <psa30 value="0.0058841263" flag="0"/>
    </comp>
    <comp name="--.HHN">
      <acc value="0.0614750274" flag="0"/>
      <vel value="0.0484635826" flag="0"/>
      <psa03 value="0.1358798140" flag="0"/>
      <psa10 value="0.0429857019" flag="0"/>
      <psa30 value="0.0058771512" flag="0"/>
    </comp>
    <comp name="--.HHE">
      <acc value="0.0651998076" flag="0"/>
      <vel value="0.0581949184" flag="0"/>
      <psa03 value="0.1218247069" flag="0"/>
      <psa10 value="0.0689375081" flag="0"/>
      <psa30 value="0.0116413886" flag="0"/>
    </comp>
  </station>
  <station code="KRTS" name="KRTS" netid="KO" insttype="CMG-5T" lat="36.573" lon="35.375">
    <comp name="--.HNE">
      <acc value="0.0966090411" flag="0"/>
      <vel value="0.0503125041" flag="0"/>
      <psa03 value="0.3185802409" flag="0"/>
      <psa10 value="0.0332198135" flag="0"/>
      <psa30 value="0.0041336193" flag="0"/>
    </comp>
    <comp name="--.HNN">
      <acc value="0.1246385449" flag="0"/>
      <vel value="0.0661833409" flag="0"/>
      <psa03 value="0.3746432588" flag="0"/>
      <psa10 value="0.0388352138" flag="0"/>
      <psa30 value="0.0079324565" flag="0"/>
    </comp>
    <comp name="--.HNZ">
      <acc value="0.0540226985" flag="0"/>
      <vel value="0.0306764067" flag="0"/>
      <psa03 value="0.1747629517" flag="0"/>
      <psa10 value="0.0243891610" flag="0"/>
      <psa30 value="0.0054123384" flag="0"/>
    </comp>
  </station>
  <station code="ANDN" name="ANDN" netid="TU" insttype="T" lat="37.58" lon="36.3452">
    <comp name="--.HHZ">
      <acc value="0.1134656555" flag="0"/>
      <vel value="0.0742306828" flag="0"/>
      <psa03 value="0.2863239923" flag="0"/>
      <psa10 value="0.1056044627" flag="0"/>
      <psa30 value="0.0078218944" flag="0"/>
    </comp>
    <comp name="--.HHN">
      <acc value="0.2095517730" flag="0"/>
      <vel value="0.1434949488" flag="0"/>
      <psa03 value="0.5273096330" flag="0"/>
      <psa10 value="0.1046079880" flag="0"/>
      <psa30 value="0.0082805080" flag="0"/>
    </comp>
    <comp name="--.HHE">
      <acc value="0.1710706089" flag="0"/>
      <vel value="0.1094854924" flag="0"/>
      <psa03 value="0.4806311556" flag="0"/>
      <psa10 value="0.1170043459" flag="0"/>
      <psa30 value="0.0098339494" flag="0"/>
    </comp>
  </station>
</stationlist>
