<?xml version="1.0" encoding="UTF-8" standalone="yes"?>
<!DOCTYPE earthquake SYSTEM "stationlist.dtd">
<stationlist created="" xmlns="ch.ethz.sed.shakemap.usgs.xml">
  <station code="SVRC" name="SVRC" netid="KO" insttype="CMG-3T" lat="38.3775" lon="39.306">
    <comp name="--.HHN">
      <acc value="0.0015140794" flag="0"/>
      <vel value="0.0006169678" flag="0"/>
      <psa03 value="0.0052625593" flag="0"/>
      <psa10 value="0.0003978428" flag="0"/>
      <psa30 value="0.0000299242" flag="0"/>
    </comp>
    <comp name="--.HHE">
      <acc value="0.0017993829" flag="0"/>
      <vel value="0.0011916956" flag="0"/>
      <psa03 value="0.0060398684" flag="0"/>
      <psa10 value="0.0006398214" flag="0"/>
      <psa30 value="0.0000558163" flag="0"/>
    </comp>
  </station>
  <station code="URFA" name="URFA" netid="KO" insttype="CMG-3ESP" lat="37.4409" lon="38.8213">
    <comp name="--.HHN">
      <acc value="0.0133637415" flag="0"/>
      <vel value="0.0034440722" flag="0"/>
      <psa03 value="0.0123309757" flag="0"/>
      <psa10 value="0.0022425827" flag="0"/>
      <psa30 value="0.0001318625" flag="0"/>
    </comp>
    <comp name="--.HHZ">
      <acc value="0.0083107489" flag="0"/>
      <vel value="0.0017717301" flag="0"/>
      <psa03 value="0.0082108054" flag="0"/>
      <psa10 value="0.0007479691" flag="0"/>
      <psa30 value="0.0000830366" flag="0"/>
    </comp>
  </station>
  <station code="ANDN" name="ANDN" netid="TU" insttype="T" lat="37.58" lon="36.3452">
    <comp name="--.HHE">
      <acc value="0.0144536127" flag="0"/>
      <vel value="0.0041409767" flag="0"/>
      <psa03 value="0.0200297506" flag="0"/>
      <psa10 value="0.0038599136" flag="0"/>
      <psa30 value="0.0002619738" flag="0"/>
    </comp>
    <comp name="--.HHN">
      <acc value="0.0182011826" flag="0"/>
      <vel value="0.0052313923" flag="0"/>
      <psa03 value="0.0350169175" flag="0"/>
      <psa10 value="0.0030033518" flag="0"/>
      <psa30 value="0.0002711094" flag="0"/>
    </comp>
    <comp name="--.HHZ">
      <acc value="0.0095754642" flag="0"/>
      <vel value="0.0019569773" flag="0"/>
      <psa03 value="0.0093245533" flag="0"/>
      <psa10 value="0.0019299863" flag="0"/>
      <psa30 value="0.0001285479" flag="0"/>
    </comp>
  </station>
</stationlist>
