<?xml version="1.0" encoding="UTF-8" standalone="yes"?>
<!DOCTYPE earthquake SYSTEM "stationlist.dtd">
<stationlist created="" xmlns="ch.ethz.sed.shakemap.usgs.xml">
  <station code="KRL1" name="KRL1" netid="HI" insttype="CMG-5TD,ACCELEROMETER,GURALP" lat="37.7951" lon="26.7065">
    <comp name="--.HNZ">
      <acc value="0.3172440486" flag="0"/>
      <vel value="0.1806498497" flag="0"/>
      <psa03 value="0.5581248327" flag="0"/>
      <psa10 value="0.1843468480" flag="0"/>
      <psa30 value="0.0093587100" flag="0"/>
    </comp>
    <comp name="--.HNN">
      <acc value="1.0692447909" flag="0"/>
      <vel value="0.6497364293" flag="0"/>
      <psa03 value="2.8933464298" flag="0"/>
      <psa10 value="0.3798674383" flag="0"/>
      <psa30 value="0.0336908203" flag="0"/>
    </comp>
    <comp name="--.HNE">
      <acc value="1.0130314426" flag="0"/>
      <vel value="0.3263946270" flag="0"/>
      <psa03 value="1.6737233410" flag="0"/>
      <psa10 value="0.1776714722" flag="0"/>
      <psa30 value="0.0105456915" flag="0"/>
    </comp>
  </station>
  <station code="EAG2" name="EAG2" netid="HL" insttype="SMART24" lat="38.5438" lon="26.1079">
    <comp name="--.HHZ">
      <acc value="0.1735130082" flag="0"/>
      <vel value="0.1033401504" flag="0"/>
      <psa03 value="0.6452837682" flag="0"/>
      <psa10 value="0.0512964736" flag="0"/>
      <psa30 value="0.0041089448" flag="0"/>
    </comp>
    <comp name="--.HHE">
      <acc value="0.6239552109" flag="0"/>
      <vel value="0.3861161908" flag="0"/>
      <psa03 value="1.8772216359" flag="0"/>
      <psa10 value="0.1697202334" flag="0"/>
      <psa30 value="0.0122947247" flag="0"/>
    </comp>
    <comp name="--.HHN">
      <acc value="0.4812715509" flag="0"/>
      <vel value="0.2665232516" flag="0"/>
      <psa03 value="1.7823682056" flag="0"/>
      <psa10 value="0.1654107300" flag="0"/>
      <psa30 value="0.0099037388" flag="0"/>
    </comp>
  </station>
  <station code="KLNA" name="KLNA" netid="HL" insttype="CMG-5" lat="36.9571" lon="26.9727">
    <comp name="00.HNN">
      <acc value="0.0724124618" flag="0"/>
      <vel value="0.0312124969" flag="0"/>
      <psa03 value="0.2130623352" flag="0"/>
      <psa10 value="0.0304049487" flag="0"/>
      <psa30 value="0.0018882898" flag="0"/>
    </comp>
    <comp name="00.HNE">
      <acc value="0.1192681389" flag="0"/>
      <vel value="0.0472951554" flag="0"/>
      <psa03 value="0.2338377212" flag="0"/>
      <psa10 value="0.0172451941" flag="0"/>
      <psa30 value="0.0019090066" flag="0"/>
    </comp>
    <comp name="00.HNZ">
      <acc value="0.0932067826" flag="0"/>
      <vel value="0.0292145106" flag="0"/>
      <psa03 value="0.1046705791" flag="0"/>
      <psa10 value="0.0214050412" flag="0"/>
      <psa30 value="0.0014261611" flag="0"/>
    </comp>
  </station>
  <station code="CHOS" name="CHOS" netid="HT" insttype="100" lat="38.3869" lon="26.0506">
    <comp name="--.HHZ">
      <acc value="0.0355091603" flag="0"/>
      <vel value="0.0211119419" flag="0"/>
      <psa03 value="0.0985074693" flag="0"/>
      <psa10 value="0.0223792129" flag="0"/>
      <psa30 value="0.0012536641" flag="0"/>
    </comp>
    <comp name="--.HHE">
      <acc value="0.0888590122" flag="0"/>
      <vel value="0.0516054088" flag="0"/>
      <psa03 value="0.2543900774" flag="0"/>
      <psa10 value="0.0389784729" flag="0"/>
      <psa30 value="0.0019877501" flag="0"/>
    </comp>
    <comp name="--.HHN">
      <acc value="0.0623796257" flag="0"/>
      <vel value="0.0393520259" flag="0"/>
      <psa03 value="0.2715906862" flag="0"/>
      <psa10 value="0.0345690853" flag="0"/>
      <psa30 value="0.0020820114" flag="0"/>
    </comp>
  </station>
  <station code="FOCM" name="FOCM" netid="KO" insttype="100" lat="38.7131" lon="26.7309">
    <comp name="--.HNE">
      <acc value="0.0064370266" flag="0"/>
      <vel value="0.0058365761" flag="0"/>
      <psa03 value="0.0183768576" flag="0"/>
      <psa10 value="0.0033249252" flag="0"/>
      <psa30 value="0.0002552503" flag="0"/>
    </comp>
    <comp name="--.HNN">
      <acc value="0.0074936352" flag="0"/>
      <vel value="0.0040778022" flag="0"/>
      <psa03 value="0.0266249638" flag="0"/>
      <psa10 value="0.0038790831" flag="0"/>
      <psa30 value="0.0001696725" flag="0"/>
    </comp>
    <comp name="--.HNZ">
      <acc value="0.0065896623" flag="0"/>
      <vel value="0.0029357069" flag="0"/>
      <psa03 value="0.0164640951" flag="0"/>
      <psa10 value="0.0021972591" flag="0"/>
      <psa30 value="0.0001076238" flag="0"/>
    </comp>
  </station>
  <station code="GMLD" name="GMLD" netid="KO" insttype="100" lat="38.0764" lon="26.8747">
    <comp name="--.HNE">
      <acc value="1.2274941639" flag="0"/>
      <vel value="0.5228857313" flag="0"/>
      <psa03 value="1.6885603352" flag="0"/>
      <psa10 value="0.2361838645" flag="0"/>
      <psa30 value="0.0182967090" flag="0"/>
    </comp>
    <comp name="--.HNZ">
      <acc value="1.1503123618" flag="0"/>
      <vel value="0.2427680456" flag="0"/>
      <psa03 value="1.4559812737" flag="0"/>
      <psa10 value="0.0553119655" flag="0"/>
      <psa30 value="0.0058614713" flag="0"/>
    </comp>
    <comp name="--.HNN">
      <acc value="1.1017525783" flag="0"/>
      <vel value="0.5389029521" flag="0"/>
      <psa03 value="2.1626026936" flag="0"/>
      <psa10 value="0.2043307555" flag="0"/>
      <psa30 value="0.0181711200" flag="0"/>
    </comp>
  </station>
  <station code="KRBN" name="KRBN" netid="KO" insttype="100" lat="38.5936" lon="26.5537">
    <comp name="--.HNZ">
      <acc value="0.0428412098" flag="0"/>
      <vel value="0.0211457004" flag="0"/>
      <psa03 value="0.1541208563" flag="0"/>
      <psa10 value="0.0282380413" flag="0"/>
      <psa30 value="0.0014977244" flag="0"/>
    </comp>
    <comp name="--.HNN">
      <acc value="0.0975744560" flag="0"/>
      <vel value="0.0483186407" flag="0"/>
      <psa03 value="0.4283884765" flag="0"/>
      <psa10 value="0.0715537438" flag="0"/>
      <psa30 value="0.0026693563" flag="0"/>
    </comp>
    <comp name="--.HNE">
      <acc value="0.0943356822" flag="0"/>
      <vel value="0.0445075682" flag="0"/>
      <psa03 value="0.2866744135" flag="0"/>
      <psa10 value="0.0390182487" flag="0"/>
      <psa30 value="0.0032738498" flag="0"/>
    </comp>
  </station>
  <station code="KUSD" name="KUSD" netid="KO" insttype="100" lat="37.86" lon="27.2815">
    <comp name="--.HNZ">
      <acc value="0.1449867804" flag="0"/>
      <vel value="0.0390784802" flag="0"/>
      <psa03 value="0.1358466042" flag="0"/>
      <psa10 value="0.0392337423" flag="0"/>
      <psa30 value="0.0020787779" flag="0"/>
    </comp>
    <comp name="--.HNE">
      <acc value="0.2107969691" flag="0"/>
      <vel value="0.0871980853" flag="0"/>
      <psa03 value="0.2854735434" flag="0"/>
      <psa10 value="0.0556682811" flag="0"/>
      <psa30 value="0.0056548976" flag="0"/>
    </comp>
    <comp name="--.HNN">
      <acc value="0.1900643071" flag="0"/>
      <vel value="0.1027080669" flag="0"/>
      <psa03 value="0.2852493124" flag="0"/>
      <psa10 value="0.1424206028" flag="0"/>
      <psa30 value="0.0083521959" flag="0"/>
    </comp>
  </station>
  <station code="AYDN" name="AYDN" netid="TU" source="ODC" insttype="T" lat="37.6608" lon="27.8792">
    <comp name="--.HHN">
      <acc value="0.0775915312" flag="0"/>
      <vel value="0.0310428805" flag="0"/>
      <psa03 value="0.1721293001" flag="0"/>
      <psa10 value="0.0224745510" flag="0"/>
      <psa30 value="0.0015557984" flag="0"/>
    </comp>
    <comp name="--.HHZ">
      <acc value="0.1167225674" flag="0"/>
      <vel value="0.0279000527" flag="0"/>
      <psa03 value="0.0614832286" flag="0"/>
      <psa10 value="0.0221176450" flag="0"/>
      <psa30 value="0.0016658151" flag="0"/>
    </comp>
    <comp name="--.HHE">
      <acc value="0.0980976190" flag="0"/>
      <vel value="0.0413533968" flag="0"/>
      <psa03 value="0.2209591404" flag="0"/>
      <psa10 value="0.0446979147" flag="0"/>
      <psa30 value="0.0022248086" flag="0"/>
    </comp>
  </station>
</stationlist>
