<stationlist created="1631873493">
	<station code="KRL1" name="KRL1" netid="HI" source="ITSAK Strong Motion Network" insttype="" lat="37.7951" lon="26.7065">
		<comp name="--.HNE" depth="0.0">
			<acc value="-1.021229916" flag="0"/>
			<vel value="0.330435" flag="0"/>
			<psa03 value="1.69778777234" flag="0"/>
			<psa10 value="0.177710675623" flag="0"/>
			<psa30 value="0.0110182158018" flag="0"/>
		</comp>
		<comp name="--.HNN" depth="0.0">
			<acc value="-1.069819962" flag="0"/>
			<vel value="0.652815" flag="0"/>
			<psa03 value="2.9407710144" flag="0"/>
			<psa10 value="0.380343207754" flag="0"/>
			<psa30 value="0.0329745588556" flag="0"/>
		</comp>
		<comp name="--.HNZ" depth="0.0">
			<acc value="0.320523066" flag="0"/>
			<vel value="-0.180637" flag="0"/>
			<psa03 value="0.557756347703" flag="0"/>
			<psa10 value="0.184668983596" flag="0"/>
			<psa30 value="0.00947729420588" flag="0"/>
		</comp>
	</station>
	<station code="MYT1" name="MYT1" netid="HI" source="ITSAK Strong Motion Network" insttype="" lat="39.085" lon="26.5694">
		<comp name="--.HNE" depth="0.0">
			<acc value="0.033294126" flag="0"/>
			<vel value="0.033507" flag="0"/>
			<psa03 value="0.103309755082" flag="0"/>
			<psa10 value="0.0718300333491" flag="0"/>
			<psa30 value="0.00405185423135" flag="0"/>
		</comp>
		<comp name="--.HNN" depth="0.0">
			<acc value="-0.025971036" flag="0"/>
			<vel value="-0.017735" flag="0"/>
			<psa03 value="0.0608941432075" flag="0"/>
			<psa10 value="0.0446571964257" flag="0"/>
			<psa30 value="0.00229751230985" flag="0"/>
		</comp>
		<comp name="--.HNZ" depth="0.0">
			<acc value="-0.02186982" flag="0"/>
			<vel value="0.020296" flag="0"/>
			<psa03 value="0.0700215533576" flag="0"/>
			<psa10 value="0.0270882741529" flag="0"/>
			<psa30 value="0.00185053766573" flag="0"/>
		</comp>
	</station>
	<station code="KLNA" name="KLNA" netid="HL" source="National Observatory of Athens Seismic Network" insttype="" lat="36.95708" lon="26.97274">
		<comp name="--.HNE" depth="0.0">
			<acc value="-0.11889528" flag="0"/>
			<vel value="0.047563" flag="0"/>
			<psa03 value="0.23431493606" flag="0"/>
			<psa10 value="0.0173071803641" flag="0"/>
			<psa30 value="0.00204785079692" flag="0"/>
		</comp>
		<comp name="--.HNN" depth="0.0">
			<acc value="-0.071810754" flag="0"/>
			<vel value="0.031394" flag="0"/>
			<psa03 value="0.212078059371" flag="0"/>
			<psa10 value="0.0303741418069" flag="0"/>
			<psa30 value="0.00205053532932" flag="0"/>
		</comp>
		<comp name="--.HNZ" depth="0.0">
			<acc value="-0.094115298" flag="0"/>
			<vel value="0.028996" flag="0"/>
			<psa03 value="0.104696763487" flag="0"/>
			<psa10 value="0.0213782737443" flag="0"/>
			<psa30 value="0.00147112375361" flag="0"/>
		</comp>
	</station>
	<station code="PRK" name="PRK" netid="HL" source="National Observatory of Athens Seismic Network" insttype="" lat="39.24565" lon="26.26499">
		<comp name="--.HNE" depth="0.0">
			<acc value="-0.031256268" flag="0"/>
			<vel value="-0.020882" flag="0"/>
			<psa03 value="0.0803122608798" flag="0"/>
			<psa10 value="0.0333137047818" flag="0"/>
			<psa30 value="0.00242458017664" flag="0"/>
		</comp>
		<comp name="--.HNN" depth="0.0">
			<acc value="0.03035571" flag="0"/>
			<vel value="0.02235" flag="0"/>
			<psa03 value="0.122235708481" flag="0"/>
			<psa10 value="0.0283285281204" flag="0"/>
			<psa30 value="0.00181071710184" flag="0"/>
		</comp>
		<comp name="--.HNZ" depth="0.0">
			<acc value="-0.025758366" flag="0"/>
			<vel value="-0.019367" flag="0"/>
			<psa03 value="0.0652341372494" flag="0"/>
			<psa10 value="0.0180642185001" flag="0"/>
			<psa30 value="0.00108365624429" flag="0"/>
		</comp>
	</station>
	<station code="THRA" name="THRA" netid="HL" source="National Observatory of Athens Seismic Network" insttype="" lat="36.41502" lon="25.43244">
		<comp name="--.HNE" depth="0.0">
			<acc value="-0.02193714" flag="0"/>
			<vel value="-0.02108" flag="0"/>
			<psa03 value="0.074540516226" flag="0"/>
			<psa10 value="0.0303983025985" flag="0"/>
			<psa30 value="0.00366528156617" flag="0"/>
		</comp>
		<comp name="--.HNN" depth="0.0">
			<acc value="0.019241586" flag="0"/>
			<vel value="0.011906" flag="0"/>
			<psa03 value="0.0407601502292" flag="0"/>
			<psa10 value="0.0219460523463" flag="0"/>
			<psa30 value="0.0030787112374" flag="0"/>
		</comp>
		<comp name="--.HNZ" depth="0.0">
			<acc value="0.01210995" flag="0"/>
			<vel value="0.009089" flag="0"/>
			<psa03 value="0.0333776861372" flag="0"/>
			<psa10 value="0.00830325870422" flag="0"/>
			<psa30 value="0.000664421768281" flag="0"/>
		</comp>
	</station>
	<station code="AKS" name="AKS" netid="KO" source="Bogazici University Kandilli Observatory And Earthquake Research Institute (KOERI)" insttype="" lat="38.8785" lon="27.8129">
		<comp name="--.HNE" depth="0.0">
			<acc value="0.031717206" flag="0"/>
			<vel value="0.01771" flag="0"/>
			<psa03 value="0.100669964891" flag="0"/>
			<psa10 value="0.0160749799938" flag="0"/>
			<psa30 value="0.00141877537187" flag="0"/>
		</comp>
		<comp name="--.HNN" depth="0.0">
			<acc value="-0.04263651" flag="0"/>
			<vel value="0.027726" flag="0"/>
			<psa03 value="0.13243693159" flag="0"/>
			<psa10 value="0.0247164897801" flag="0"/>
			<psa30 value="0.00120222309183" flag="0"/>
		</comp>
		<comp name="--.HNZ" depth="0.0">
			<acc value="0.013871388" flag="0"/>
			<vel value="0.007495" flag="0"/>
			<psa03 value="0.0492611694867" flag="0"/>
			<psa10 value="0.00882674252165" flag="0"/>
			<psa30 value="0.000652788794561" flag="0"/>
		</comp>
	</station>
	<station code="FOCM" name="FOCM" netid="KO" source="Bogazici University Kandilli Observatory And Earthquake Research Institute (KOERI)" insttype="" lat="38.7131" lon="26.7309">
		<comp name="--.HNE" depth="0.0">
			<acc value="0.040366398" flag="0"/>
			<vel value="0.03674" flag="0"/>
			<psa03 value="0.112795102885" flag="0"/>
			<psa10 value="0.0209111651072" flag="0"/>
			<psa30 value="0.00154584323866" flag="0"/>
		</comp>
		<comp name="--.HNN" depth="0.0">
			<acc value="0.046611246" flag="0"/>
			<vel value="0.025739" flag="0"/>
			<psa03 value="0.165993586554" flag="0"/>
			<psa10 value="0.0244265602812" flag="0"/>
			<psa30 value="0.00107202327057" flag="0"/>
		</comp>
		<comp name="--.HNZ" depth="0.0">
			<acc value="-0.041020422" flag="0"/>
			<vel value="0.018663" flag="0"/>
			<psa03 value="0.102325426536" flag="0"/>
			<psa10 value="0.0138199727803" flag="0"/>
			<psa30 value="0.000689029981921" flag="0"/>
		</comp>
	</station>
	<station code="GMLD" name="GMLD" netid="KO" source="Bogazici University Kandilli Observatory And Earthquake Research Institute (KOERI)" insttype="" lat="38.0766" lon="26.9157">
		<comp name="--.HNE" depth="0.0">
			<acc value="-7.716924036" flag="0"/>
			<vel value="3.315778" flag="0"/>
			<psa03 value="10.8070773288" flag="0"/>
			<psa10 value="1.48783362551" flag="0"/>
			<psa30 value="0.114314995643" flag="0"/>
		</comp>
		<comp name="--.HNN" depth="0.0">
			<acc value="6.925530924" flag="0"/>
			<vel value="-3.386429" flag="0"/>
			<psa03 value="13.6900861544" flag="0"/>
			<psa10 value="1.28684000041" flag="0"/>
			<psa30 value="0.112912774888" flag="0"/>
		</comp>
		<comp name="--.HNZ" depth="0.0">
			<acc value="6.794166858" flag="0"/>
			<vel value="-1.5326" flag="0"/>
			<psa03 value="9.24239762114" flag="0"/>
			<psa10 value="0.349824101198" flag="0"/>
			<psa30 value="0.0374823361724" flag="0"/>
		</comp>
	</station>
	<station code="GOMA" name="GOMA" netid="KO" source="Bogazici University Kandilli Observatory And Earthquake Research Institute (KOERI)" insttype="" lat="38.7077" lon="27.9175">
		<comp name="--.HNE" depth="0.0">
			<acc value="-0.143625894" flag="0"/>
			<vel value="-0.080492" flag="0"/>
			<psa03 value="0.582498787963" flag="0"/>
			<psa10 value="0.037702915251" flag="0"/>
			<psa30 value="0.00311405758063" flag="0"/>
		</comp>
		<comp name="--.HNN" depth="0.0">
			<acc value="0.0696354" flag="0"/>
			<vel value="-0.047519" flag="0"/>
			<psa03 value="0.256820265989" flag="0"/>
			<psa10 value="0.0324841842711" flag="0"/>
			<psa30 value="0.00189483245028" flag="0"/>
		</comp>
		<comp name="--.HNZ" depth="0.0">
			<acc value="0.097999662" flag="0"/>
			<vel value="0.030605" flag="0"/>
			<psa03 value="0.164338124909" flag="0"/>
			<psa10 value="0.0182132100481" flag="0"/>
			<psa30 value="0.00163353796363" flag="0"/>
		</comp>
	</station>
	<station code="GORD" name="GORD" netid="KO" source="Bogazici University Kandilli Observatory And Earthquake Research Institute (KOERI)" insttype="" lat="38.9088" lon="28.1769">
		<comp name="--.HNE" depth="0.0">
			<acc value="0.140518566" flag="0"/>
			<vel value="-0.092624" flag="0"/>
			<psa03 value="0.361606513889" flag="0"/>
			<psa10 value="0.101555860582" flag="0"/>
			<psa30 value="0.00915067609757" flag="0"/>
		</comp>
		<comp name="--.HNN" depth="0.0">
			<acc value="-0.085543932" flag="0"/>
			<vel value="0.067028" flag="0"/>
			<psa03 value="0.29556701692" flag="0"/>
			<psa10 value="0.0872325379774" flag="0"/>
			<psa30 value="0.00540620082569" flag="0"/>
		</comp>
		<comp name="--.HNZ" depth="0.0">
			<acc value="-0.066647514" flag="0"/>
			<vel value="-0.05986" flag="0"/>
			<psa03 value="0.200221374617" flag="0"/>
			<psa10 value="0.0803346319831" flag="0"/>
			<psa30 value="0.00415073450798" flag="0"/>
		</comp>
	</station>
	<station code="KRBN" name="KRBN" netid="KO" source="Bogazici University Kandilli Observatory And Earthquake Research Institute (KOERI)" insttype="" lat="38.5936" lon="26.5537">
		<comp name="--.HNE" depth="0.0">
			<acc value="0.589296738" flag="0"/>
			<vel value="-0.278951" flag="0"/>
			<psa03 value="1.82203688012" flag="0"/>
			<psa10 value="0.245393106419" flag="0"/>
			<psa30 value="0.0207764910653" flag="0"/>
		</comp>
		<comp name="--.HNN" depth="0.0">
			<acc value="0.609273744" flag="0"/>
			<vel value="0.303302" flag="0"/>
			<psa03 value="2.71464390215" flag="0"/>
			<psa10 value="0.449620250794" flag="0"/>
			<psa30 value="0.0172472258072" flag="0"/>
		</comp>
		<comp name="--.HNZ" depth="0.0">
			<acc value="-0.265659102" flag="0"/>
			<vel value="0.133628" flag="0"/>
			<psa03 value="0.950056015332" flag="0"/>
			<psa10 value="0.177465040909" flag="0"/>
			<psa30 value="0.00959272909896" flag="0"/>
		</comp>
	</station>
	<station code="KUSD" name="KUSD" netid="KO" source="Bogazici University Kandilli Observatory And Earthquake Research Institute (KOERI)" insttype="" lat="37.8606" lon="27.2868">
		<comp name="--.HNE" depth="0.0">
			<acc value="-1.311215712" flag="0"/>
			<vel value="-0.544918" flag="0"/>
			<psa03 value="1.80320041113" flag="0"/>
			<psa10 value="0.351918036468" flag="0"/>
			<psa30 value="0.0351687166682" flag="0"/>
		</comp>
		<comp name="--.HNN" depth="0.0">
			<acc value="-1.18194132" flag="0"/>
			<vel value="0.656458" flag="0"/>
			<psa03 value="1.78758538102" flag="0"/>
			<psa10 value="0.89587812476" flag="0"/>
			<psa30 value="0.0512329585324" flag="0"/>
		</comp>
		<comp name="--.HNZ" depth="0.0">
			<acc value="0.900646536" flag="0"/>
			<vel value="-0.246459" flag="0"/>
			<psa03 value="0.84092977339" flag="0"/>
			<psa10 value="0.246939397079" flag="0"/>
			<psa30 value="0.0128589101821" flag="0"/>
		</comp>
	</station>
	<station code="NAZL" name="NAZL" netid="KO" source="Bogazici University Kandilli Observatory And Earthquake Research Institute (KOERI)" insttype="" lat="37.9641" lon="28.2922">
		<comp name="--.HNE" depth="0.0">
			<acc value="-0.204718488" flag="0"/>
			<vel value="-0.158631" flag="0"/>
			<psa03 value="0.69605450836" flag="0"/>
			<psa10 value="0.176623440002" flag="0"/>
			<psa30 value="0.00853412849037" flag="0"/>
		</comp>
		<comp name="--.HNN" depth="0.0">
			<acc value="-0.171409674" flag="0"/>
			<vel value="0.145794" flag="0"/>
			<psa03 value="0.564243967663" flag="0"/>
			<psa10 value="0.171883898055" flag="0"/>
			<psa30 value="0.0116732417067" flag="0"/>
		</comp>
		<comp name="--.HNZ" depth="0.0">
			<acc value="-0.073112376" flag="0"/>
			<vel value="-0.060482" flag="0"/>
			<psa03 value="0.184740571127" flag="0"/>
			<psa10 value="0.0542248698889" flag="0"/>
			<psa30 value="0.00484155417816" flag="0"/>
		</comp>
	</station>
	<station code="SOMA" name="SOMA" netid="KO" source="Bogazici University Kandilli Observatory And Earthquake Research Institute (KOERI)" insttype="" lat="39.1564" lon="27.5341">
		<comp name="--.HNE" depth="0.0">
			<acc value="-0.132332556" flag="0"/>
			<vel value="0.069112" flag="0"/>
			<psa03 value="0.432657137999" flag="0"/>
			<psa10 value="0.0609697575367" flag="0"/>
			<psa30 value="0.00419950351319" flag="0"/>
		</comp>
		<comp name="--.HNN" depth="0.0">
			<acc value="-0.158793702" flag="0"/>
			<vel value="0.066979" flag="0"/>
			<psa03 value="0.44692990191" flag="0"/>
			<psa10 value="0.054015476362" flag="0"/>
			<psa30 value="0.00524691857012" flag="0"/>
		</comp>
		<comp name="--.HNZ" depth="0.0">
			<acc value="0.080386812" flag="0"/>
			<vel value="0.036493" flag="0"/>
			<psa03 value="0.325857490801" flag="0"/>
			<psa10 value="0.0327982745615" flag="0"/>
			<psa30 value="0.00252927694013" flag="0"/>
		</comp>
	</station>
</stationlist>
