<?xml version="1.0" encoding="UTF-8" standalone="yes"?>
<!DOCTYPE earthquake SYSTEM "stationlist.dtd">
<stationlist created="" xmlns="ch.ethz.sed.shakemap.usgs.xml">
  <station code="BODA" name="BODA" netid="KO" insttype="ACEBOX" lat="37.0348" lon="27.4304">
    <comp name="--.HNE">
      <acc value="0.2020701347" flag="0"/>
      <vel value="0.0813388625" flag="0"/>
      <psa03 value="0.4270084340" flag="0"/>
      <psa10 value="0.0247953094" flag="0"/>
      <psa30 value="0.0022565351" flag="0"/>
    </comp>
    <comp name="--.HNZ">
      <acc value="0.0689678509" flag="0"/>
      <vel value="0.0271672939" flag="0"/>
      <psa03 value="0.1177308302" flag="0"/>
      <psa10 value="0.0243210939" flag="0"/>
      <psa30 value="0.0011434486" flag="0"/>
    </comp>
    <comp name="--.HNN">
      <acc value="0.1839859527" flag="0"/>
      <vel value="0.0924443034" flag="0"/>
      <psa03 value="0.7311007581" flag="0"/>
      <psa10 value="0.0338530925" flag="0"/>
      <psa30 value="0.0025977260" flag="0"/>
    </comp>
  </station>
  <station code="BODM" name="BODM" netid="KO" insttype="ACEBOX" lat="37.031" lon="27.4247">
    <comp name="--.HNN">
      <acc value="0.2830200381" flag="0"/>
      <vel value="0.1879004023" flag="0"/>
      <psa03 value="0.7160631140" flag="0"/>
      <psa10 value="0.0650696036" flag="0"/>
      <psa30 value="0.0056423420" flag="0"/>
    </comp>
    <comp name="--.HNE">
      <acc value="0.2459952985" flag="0"/>
      <vel value="0.1438482856" flag="0"/>
      <psa03 value="0.7299851129" flag="0"/>
      <psa10 value="0.0599868838" flag="0"/>
      <psa30 value="0.0043957769" flag="0"/>
    </comp>
    <comp name="--.HNZ">
      <acc value="0.0495669324" flag="0"/>
      <vel value="0.0257647760" flag="0"/>
      <psa03 value="0.1240910702" flag="0"/>
      <psa10 value="0.0195563079" flag="0"/>
      <psa30 value="0.0010501750" flag="0"/>
    </comp>
  </station>
  <station code="BODT" name="BODT" netid="KO" insttype="CMG-3ESP" lat="37.0622" lon="27.3103">
    <comp name="--.HHE">
      <acc value="0.2053919740" flag="0"/>
      <vel value="0.0643860429" flag="0"/>
      <psa03 value="0.3841448147" flag="0"/>
      <psa10 value="0.0452184551" flag="0"/>
      <psa30 value="0.0025864434" flag="0"/>
    </comp>
    <comp name="--.HHZ">
      <acc value="0.1106521892" flag="0"/>
      <vel value="0.0356843738" flag="0"/>
      <psa03 value="0.2175245405" flag="0"/>
      <psa10 value="0.0175066974" flag="0"/>
      <psa30 value="0.0011084239" flag="0"/>
    </comp>
    <comp name="--.HHN">
      <acc value="0.1932326599" flag="0"/>
      <vel value="0.0835925008" flag="0"/>
      <psa03 value="0.2743248872" flag="0"/>
      <psa10 value="0.0536677213" flag="0"/>
      <psa30 value="0.0028610338" flag="0"/>
    </comp>
  </station>
  <station code="DALY" name="DALY" netid="KO" insttype="CMG-3T" lat="36.8162" lon="28.6532">
    <comp name="--.HHE">
      <acc value="0.0190043592" flag="0"/>
      <vel value="0.0072510379" flag="0"/>
      <psa03 value="0.0441216221" flag="0"/>
      <psa10 value="0.0076767175" flag="0"/>
      <psa30 value="0.0008785835" flag="0"/>
    </comp>
    <comp name="--.HHN">
      <acc value="0.0228385134" flag="0"/>
      <vel value="0.0101989074" flag="0"/>
      <psa03 value="0.0442723132" flag="0"/>
      <psa10 value="0.0131948659" flag="0"/>
      <psa30 value="0.0008894100" flag="0"/>
    </comp>
    <comp name="--.HHZ">
      <acc value="0.0084743610" flag="0"/>
      <vel value="0.0059902190" flag="0"/>
      <psa03 value="0.0233862082" flag="0"/>
      <psa10 value="0.0136046825" flag="0"/>
      <psa30 value="0.0007557507" flag="0"/>
    </comp>
  </station>
  <station code="DAT" name="DAT" netid="KO" insttype="CMG-3T" lat="36.7308" lon="27.5767">
    <comp name="--.HHE">
      <acc value="0.4529117341" flag="0"/>
      <vel value="0.1255825827" flag="0"/>
      <psa03 value="0.5669776664" flag="0"/>
      <psa10 value="0.0972554814" flag="0"/>
      <psa30 value="0.0052682023" flag="0"/>
    </comp>
    <comp name="--.HHZ">
      <acc value="0.0000760159" flag="0"/>
      <vel value="0.0000209062" flag="0"/>
      <psa03 value="0.0001075217" flag="0"/>
      <psa10 value="0.0000168578" flag="0"/>
      <psa30 value="0.0000014510" flag="0"/>
    </comp>
    <comp name="--.HHN">
      <acc value="0.6099526973" flag="0"/>
      <vel value="0.1717217376" flag="0"/>
      <psa03 value="0.9124429703" flag="0"/>
      <psa10 value="0.1296013221" flag="0"/>
      <psa30 value="0.0075488414" flag="0"/>
    </comp>
  </station>
  <station code="DATC" name="DATC" netid="KO" insttype="CMG-5T" lat="36.7584" lon="27.6602">
    <comp name="--.HNN">
      <acc value="0.7762572408" flag="0"/>
      <vel value="0.2658633515" flag="0"/>
      <psa03 value="1.1591195523" flag="0"/>
      <psa10 value="0.1425252633" flag="0"/>
      <psa30 value="0.0110051958" flag="0"/>
    </comp>
    <comp name="--.HNE">
      <acc value="1.2819509571" flag="0"/>
      <vel value="0.3059359368" flag="0"/>
      <psa03 value="1.8994303910" flag="0"/>
      <psa10 value="0.2220701531" flag="0"/>
      <psa30 value="0.0137480204" flag="0"/>
    </comp>
    <comp name="--.HNZ">
      <acc value="1.0863654217" flag="0"/>
      <vel value="0.2437664028" flag="0"/>
      <psa03 value="1.1272926122" flag="0"/>
      <psa10 value="0.2133165778" flag="0"/>
      <psa30 value="0.0114495659" flag="0"/>
    </comp>
  </station>
  <station code="FETY" name="FETY" netid="KO" insttype="CMG-3ESP" lat="36.6353" lon="29.0835">
    <comp name="--.HHE">
      <acc value="0.0118063698" flag="0"/>
      <vel value="0.0053116613" flag="0"/>
      <psa03 value="0.0262804870" flag="0"/>
      <psa10 value="0.0064217945" flag="0"/>
      <psa30 value="0.0003262327" flag="0"/>
    </comp>
    <comp name="--.HHN">
      <acc value="0.0129800436" flag="0"/>
      <vel value="0.0065963261" flag="0"/>
      <psa03 value="0.0339445150" flag="0"/>
      <psa10 value="0.0064021123" flag="0"/>
      <psa30 value="0.0004766723" flag="0"/>
    </comp>
    <comp name="--.HHZ">
      <acc value="0.0074999021" flag="0"/>
      <vel value="0.0039744489" flag="0"/>
      <psa03 value="0.0168662884" flag="0"/>
      <psa10 value="0.0039083541" flag="0"/>
      <psa30 value="0.0002335813" flag="0"/>
    </comp>
  </station>
  <station code="MLSB" name="MLSB" netid="KO" insttype="CMG-3ESP" lat="37.2953" lon="27.7767">
    <comp name="--.HHN">
      <acc value="0.0363741875" flag="0"/>
      <vel value="0.0180998178" flag="0"/>
      <psa03 value="0.0751281566" flag="0"/>
      <psa10 value="0.0130671201" flag="0"/>
      <psa30 value="0.0010197320" flag="0"/>
    </comp>
    <comp name="--.HHE">
      <acc value="0.0515088950" flag="0"/>
      <vel value="0.0371938960" flag="0"/>
      <psa03 value="0.1466550179" flag="0"/>
      <psa10 value="0.0240638434" flag="0"/>
      <psa30 value="0.0020572979" flag="0"/>
    </comp>
  </station>
  <station code="YER" name="YER" netid="KO" insttype="CMG-3T" lat="37.1336" lon="28.284">
    <comp name="--.HHZ">
      <acc value="0.0160896942" flag="0"/>
      <vel value="0.0156208049" flag="0"/>
      <psa03 value="0.0529352849" flag="0"/>
      <psa10 value="0.0267503499" flag="0"/>
      <psa30 value="0.0018608714" flag="0"/>
    </comp>
    <comp name="--.HHN">
      <acc value="0.0404676209" flag="0"/>
      <vel value="0.0237912249" flag="0"/>
      <psa03 value="0.1410953452" flag="0"/>
      <psa10 value="0.0349705093" flag="0"/>
      <psa30 value="0.0021166375" flag="0"/>
    </comp>
    <comp name="--.HHE">
      <acc value="0.0332185547" flag="0"/>
      <vel value="0.0159675023" flag="0"/>
      <psa03 value="0.0676987377" flag="0"/>
      <psa10 value="0.0243515059" flag="0"/>
      <psa30 value="0.0011824577" flag="0"/>
    </comp>
  </station>
  <station code="YKAV" name="YKAV" netid="KO" insttype="CMG-5T" lat="37.1246" lon="27.2801">
    <comp name="--.HNZ">
      <acc value="0.0732163300" flag="0"/>
      <vel value="0.0374385458" flag="0"/>
      <psa03 value="0.1440964554" flag="0"/>
      <psa10 value="0.0334602402" flag="0"/>
      <psa30 value="0.0014575404" flag="0"/>
    </comp>
    <comp name="--.HNN">
      <acc value="0.0817634701" flag="0"/>
      <vel value="0.0475937659" flag="0"/>
      <psa03 value="0.2510821191" flag="0"/>
      <psa10 value="0.0349923152" flag="0"/>
      <psa30 value="0.0016666583" flag="0"/>
    </comp>
    <comp name="--.HNE">
      <acc value="0.1073732266" flag="0"/>
      <vel value="0.0505906140" flag="0"/>
      <psa03 value="0.2564939024" flag="0"/>
      <psa10 value="0.0337446087" flag="0"/>
      <psa30 value="0.0018924034" flag="0"/>
    </comp>
  </station>
</stationlist>
