<stationlist created="1712136678">
	<station code="KSS1" name="KSS1" netid="HI" source="ITSAK Strong Motion Network" insttype="" lat="35.4189" lon="26.9207">
		<comp name=".HNE" depth="0.0">
			<acc value="0.0081705723799374" flag="0"/>
			<vel value="0.00344035861895" flag="0"/>
			<psa03 value="0.0231228312532369" flag="0"/>
			<psa10 value="0.00384741596617642" flag="0"/>
			<psa30 value="0.000340365906945738" flag="0"/>
		</comp>
		<comp name=".HNN" depth="0.0">
			<acc value="0.0078656043921408" flag="0"/>
			<vel value="0.00377702273742" flag="0"/>
			<psa03 value="0.0325068643577432" flag="0"/>
			<psa10 value="0.00466429508040571" flag="0"/>
			<psa30 value="0.000342674210901328" flag="0"/>
		</comp>
		<comp name=".HNZ" depth="0.0">
			<acc value="0.0064215754762422" flag="0"/>
			<vel value="0.00275919711567" flag="0"/>
			<psa03 value="0.00857053585489378" flag="0"/>
			<psa10 value="0.00493308663652547" flag="0"/>
			<psa30 value="0.000311271141018795" flag="0"/>
		</comp>
	</station>
	<station code="RDI1" name="RDI1" netid="HI" source="ITSAK Strong Motion Network" insttype="" lat="36.4514" lon="28.224">
		<comp name=".HNE" depth="0.0">
			<acc value="0.045985451675448" flag="0"/>
			<vel value="0.0295669455648" flag="0"/>
			<psa03 value="0.124516779875651" flag="0"/>
			<psa10 value="0.0549934217941815" flag="0"/>
			<psa30 value="0.00472321997345508" flag="0"/>
		</comp>
		<comp name=".HNN" depth="0.0">
			<acc value="0.039746310675306" flag="0"/>
			<vel value="0.0344042840399" flag="0"/>
			<psa03 value="0.153475156559234" flag="0"/>
			<psa10 value="0.0459280962609156" flag="0"/>
			<psa30 value="0.00521645848144711" flag="0"/>
		</comp>
		<comp name=".HNZ" depth="0.0">
			<acc value="0.046812832451112" flag="0"/>
			<vel value="0.0243264920116" flag="0"/>
			<psa03 value="0.106137791524388" flag="0"/>
			<psa10 value="0.023672505687337" flag="0"/>
			<psa30 value="0.00216222907039974" flag="0"/>
		</comp>
	</station>
	<station code="KLNA" name="KLNA" netid="HL" source="National Observatory of Athens Seismic Network" insttype="" lat="36.95708" lon="26.97274">
		<comp name="00.HNE" depth="0.0">
			<acc value="0.12491765995752" flag="0"/>
			<vel value="0.0574881072369" flag="0"/>
			<psa03 value="0.470184064052855" flag="0"/>
			<psa10 value="0.0185917947401426" flag="0"/>
			<psa30 value="0.00191961883199458" flag="0"/>
		</comp>
		<comp name="00.HNN" depth="0.0">
			<acc value="0.081310552138434" flag="0"/>
			<vel value="0.0365083015024" flag="0"/>
			<psa03 value="0.175941509428127" flag="0"/>
			<psa10 value="0.0157699128043318" flag="0"/>
			<psa30 value="0.00110156255644691" flag="0"/>
		</comp>
		<comp name="00.HNZ" depth="0.0">
			<acc value="0.083503858972182" flag="0"/>
			<vel value="0.0266553705542" flag="0"/>
			<psa03 value="0.113411596295181" flag="0"/>
			<psa10 value="0.013202291149499" flag="0"/>
			<psa30 value="0.00107530279603347" flag="0"/>
		</comp>
	</station>
	<station code="NISR" name="NISR" netid="HL" source="National Observatory of Athens Seismic Network" insttype="" lat="36.6106" lon="27.131">
		<comp name=".HNE" depth="0.0">
			<acc value="0.10311867346176" flag="0"/>
			<vel value="0.0451141520669" flag="0"/>
			<psa03 value="0.230442557355132" flag="0"/>
			<psa10 value="0.0282948181428372" flag="0"/>
			<psa30 value="0.00328043585444094" flag="0"/>
		</comp>
		<comp name=".HNN" depth="0.0">
			<acc value="0.086269176278448" flag="0"/>
			<vel value="0.0270227928948" flag="0"/>
			<psa03 value="0.151867570897789" flag="0"/>
			<psa10 value="0.0213513325460027" flag="0"/>
			<psa30 value="0.00352531311802664" flag="0"/>
		</comp>
		<comp name=".HNZ" depth="0.0">
			<acc value="0.048220344540678" flag="0"/>
			<vel value="0.0255688869509" flag="0"/>
			<psa03 value="0.110638443837166" flag="0"/>
			<psa10 value="0.0230758074089824" flag="0"/>
			<psa30 value="0.00150087348800325" flag="0"/>
		</comp>
	</station>
	<station code="RODB" name="RODB" netid="HL" source="National Observatory of Athens Seismic Network" insttype="" lat="36.4471" lon="28.22116">
		<comp name="00.HNE" depth="0.0">
			<acc value="0.044726501917476" flag="0"/>
			<vel value="0.0324207846753" flag="0"/>
			<psa03 value="0.144924798473227" flag="0"/>
			<psa10 value="0.0533457388933765" flag="0"/>
			<psa30 value="0.00444940641800341" flag="0"/>
		</comp>
		<comp name="00.HNN" depth="0.0">
			<acc value="0.04049445897756" flag="0"/>
			<vel value="0.0366141704184" flag="0"/>
			<psa03 value="0.15647157380723" flag="0"/>
			<psa10 value="0.0369908717136965" flag="0"/>
			<psa30 value="0.00525784372298688" flag="0"/>
		</comp>
		<comp name="00.HNZ" depth="0.0">
			<acc value="0.041664118528152" flag="0"/>
			<vel value="0.0196973352686" flag="0"/>
			<psa03 value="0.100298738049341" flag="0"/>
			<psa10 value="0.0311071706973817" flag="0"/>
			<psa30 value="0.00232568323176506" flag="0"/>
		</comp>
	</station>
	<station code="SMG" name="SMG" netid="HL" source="National Observatory of Athens Seismic Network" insttype="" lat="37.70425" lon="26.83772">
		<comp name="00.HNE" depth="0.0">
			<acc value="0.037643182624284" flag="0"/>
			<vel value="0.024687396944" flag="0"/>
			<psa03 value="0.0946187055250776" flag="0"/>
			<psa10 value="0.0168392511427459" flag="0"/>
			<psa30 value="0.00116674437442388" flag="0"/>
		</comp>
		<comp name="00.HNN" depth="0.0">
			<acc value="0.02237597539509" flag="0"/>
			<vel value="0.0107231749749" flag="0"/>
			<psa03 value="0.0722902576245671" flag="0"/>
			<psa10 value="0.0109717240103567" flag="0"/>
			<psa30 value="0.000653512875354511" flag="0"/>
		</comp>
		<comp name="00.HNZ" depth="0.0">
			<acc value="0.013852911818124" flag="0"/>
			<vel value="0.00885934945976" flag="0"/>
			<psa03 value="0.0286757876510245" flag="0"/>
			<psa10 value="0.00855667183749608" flag="0"/>
			<psa30 value="0.000545821053800749" flag="0"/>
		</comp>
	</station>
	<station code="CAME" name="CAME" netid="KO" source="Bogazici University Kandilli Observatory And Earthquake Research Institute (KOERI)" insttype="" lat="36.9435" lon="29.3023">
		<comp name=".HNE" depth="0.0">
			<acc value="0.021193085693982" flag="0"/>
			<vel value="0.00893231358813" flag="0"/>
			<psa03 value="0.0489860523772053" flag="0"/>
			<psa10 value="0.0086937059153455" flag="0"/>
			<psa30 value="0.000751457592878978" flag="0"/>
		</comp>
		<comp name=".HNN" depth="0.0">
			<acc value="0.017721348593502" flag="0"/>
			<vel value="0.00839192987255" flag="0"/>
			<psa03 value="0.0744792411758737" flag="0"/>
			<psa10 value="0.00845147830647039" flag="0"/>
			<psa30 value="0.000773483843675369" flag="0"/>
		</comp>
		<comp name=".HNZ" depth="0.0">
			<acc value="0.012771647493252" flag="0"/>
			<vel value="0.00389080720625" flag="0"/>
			<psa03 value="0.0176282250750421" flag="0"/>
			<psa10 value="0.00432572733946683" flag="0"/>
			<psa30 value="0.0004871315929943" flag="0"/>
		</comp>
	</station>
	<station code="DATC" name="DATC" netid="KO" source="Bogazici University Kandilli Observatory And Earthquake Research Institute (KOERI)" insttype="" lat="36.7584" lon="27.6602">
		<comp name=".HNE" depth="0.0">
			<acc value="1.276530158049" flag="0"/>
			<vel value="0.313494324324" flag="0"/>
			<psa03 value="1.91713950108395" flag="0"/>
			<psa10 value="0.222575789553835" flag="0"/>
			<psa30 value="0.0142322144810434" flag="0"/>
		</comp>
		<comp name=".HNN" depth="0.0">
			<acc value="0.7616998228389" flag="0"/>
			<vel value="0.268140227772" flag="0"/>
			<psa03 value="1.16759634752687" flag="0"/>
			<psa10 value="0.142661955654604" flag="0"/>
			<psa30 value="0.0119262717236412" flag="0"/>
		</comp>
		<comp name=".HNZ" depth="0.0">
			<acc value="1.0743867413022" flag="0"/>
			<vel value="0.250083591153" flag="0"/>
			<psa03 value="1.12955482746194" flag="0"/>
			<psa10 value="0.213565472664523" flag="0"/>
			<psa30 value="0.0117270826949956" flag="0"/>
		</comp>
	</station>
	<station code="NAZL" name="NAZL" netid="KO" source="Bogazici University Kandilli Observatory And Earthquake Research Institute (KOERI)" insttype="" lat="37.9641" lon="28.2922">
		<comp name=".HNE" depth="0.0">
			<acc value="0.019173469655604" flag="0"/>
			<vel value="0.0125829200274" flag="0"/>
			<psa03 value="0.0532705705804577" flag="0"/>
			<psa10 value="0.0115989230592404" flag="0"/>
			<psa30 value="0.00122554722815621" flag="0"/>
		</comp>
		<comp name=".HNN" depth="0.0">
			<acc value="0.018647595275142" flag="0"/>
			<vel value="0.0118447827958" flag="0"/>
			<psa03 value="0.0467352209788438" flag="0"/>
			<psa10 value="0.0154525208411538" flag="0"/>
			<psa30 value="0.00138247533220778" flag="0"/>
		</comp>
		<comp name=".HNZ" depth="0.0">
			<acc value="0.0066786057141078" flag="0"/>
			<vel value="0.00433405430172" flag="0"/>
			<psa03 value="0.0218423167379453" flag="0"/>
			<psa10 value="0.00769808574163241" flag="0"/>
			<psa30 value="0.000664603557974183" flag="0"/>
		</comp>
	</station>
	<station code="YKAV" name="YKAV" netid="KO" source="Bogazici University Kandilli Observatory And Earthquake Research Institute (KOERI)" insttype="" lat="37.1246" lon="27.2801">
		<comp name=".HNE" depth="0.0">
			<acc value="0.10690236186444" flag="0"/>
			<vel value="0.0505734523753" flag="0"/>
			<psa03 value="0.260444503170109" flag="0"/>
			<psa10 value="0.033825106997347" flag="0"/>
			<psa30 value="0.00189505012110558" flag="0"/>
		</comp>
		<comp name=".HNN" depth="0.0">
			<acc value="0.08190098349414" flag="0"/>
			<vel value="0.0474400047549" flag="0"/>
			<psa03 value="0.251141386884252" flag="0"/>
			<psa10 value="0.0350192461032072" flag="0"/>
			<psa30 value="0.001723339266935" flag="0"/>
		</comp>
		<comp name=".HNZ" depth="0.0">
			<acc value="0.0734407239807" flag="0"/>
			<vel value="0.0370886794907" flag="0"/>
			<psa03 value="0.145098018281403" flag="0"/>
			<psa10 value="0.0334864220611061" flag="0"/>
			<psa30 value="0.00158273703606259" flag="0"/>
		</comp>
	</station>
</stationlist>
