<?xml version="1.0" encoding="UTF-8" standalone="yes"?>
<!DOCTYPE earthquake SYSTEM "stationlist.dtd">
<stationlist created="" xmlns="ch.ethz.sed.shakemap.usgs.xml">
  <station code="ARPRA" name="ARPRA" netid="KO" insttype="CMG-5T" lat="39.0929" lon="38.3356">
    <comp name="--.HNE">
      <acc value="0.0696449519" flag="0"/>
      <vel value="0.0878125922" flag="0"/>
      <psa03 value="0.1649346913" flag="0"/>
      <psa10 value="0.1252614921" flag="0"/>
      <psa30 value="0.0265942831" flag="0"/>
    </comp>
    <comp name="--.HNZ">
      <acc value="0.0447931632" flag="0"/>
      <vel value="0.0307049020" flag="0"/>
      <psa03 value="0.1048651341" flag="0"/>
      <psa10 value="0.0426911020" flag="0"/>
      <psa30 value="0.0057450625" flag="0"/>
    </comp>
    <comp name="--.HNN">
      <acc value="0.0773973375" flag="0"/>
      <vel value="0.0760635325" flag="0"/>
      <psa03 value="0.2539713464" flag="0"/>
      <psa10 value="0.0823091292" flag="0"/>
      <psa30 value="0.0156903330" flag="0"/>
    </comp>
  </station>
  <station code="GAZ" name="GAZ" netid="KO" insttype="CMG-3T" lat="37.1721" lon="37.2096">
    <comp name="--.HHN">
      <acc value="0.0428100725" flag="0"/>
      <vel value="0.0429014966" flag="0"/>
      <psa03 value="0.0925707644" flag="0"/>
      <psa10 value="0.0875183335" flag="0"/>
      <psa30 value="0.0073507444" flag="0"/>
    </comp>
  </station>
  <station code="KMRS" name="KMRS" netid="KO" insttype="CMG-3T" lat="37.5087" lon="36.9">
    <comp name="--.HHE">
      <acc value="0.1057802044" flag="0"/>
      <vel value="0.0725455192" flag="0"/>
      <psa03 value="0.2301243629" flag="0"/>
      <psa10 value="0.1274584162" flag="0"/>
      <psa30 value="0.0159834555" flag="0"/>
    </comp>
    <comp name="--.HHN">
      <acc value="0.1952817866" flag="0"/>
      <vel value="0.0918701125" flag="0"/>
      <psa03 value="0.4071016324" flag="0"/>
      <psa10 value="0.0782596536" flag="0"/>
      <psa30 value="0.0262238335" flag="0"/>
    </comp>
  </station>
  <station code="SVRC" name="SVRC" netid="KO" insttype="CMG-3T" lat="38.3775" lon="39.306">
    <comp name="--.HHZ">
      <acc value="0.0223313761" flag="0"/>
      <vel value="0.0167340994" flag="0"/>
      <psa03 value="0.0562295389" flag="0"/>
      <psa10 value="0.0194583090" flag="0"/>
      <psa30 value="0.0022548605" flag="0"/>
    </comp>
    <comp name="--.HHE">
      <acc value="0.0332100094" flag="0"/>
      <vel value="0.0241064425" flag="0"/>
      <psa03 value="0.1401364609" flag="0"/>
      <psa10 value="0.0402526417" flag="0"/>
      <psa30 value="0.0044792839" flag="0"/>
    </comp>
    <comp name="--.HHN">
      <acc value="0.0234718045" flag="0"/>
      <vel value="0.0180533035" flag="0"/>
      <psa03 value="0.0721758364" flag="0"/>
      <psa10 value="0.0216166419" flag="0"/>
      <psa30 value="0.0064822874" flag="0"/>
    </comp>
  </station>
  <station code="URFA" name="URFA" netid="KO" insttype="CMG-3ESP" lat="37.4409" lon="38.8213">
    <comp name="--.HHE">
      <acc value="0.2195222283" flag="0"/>
      <vel value="0.0873968027" flag="0"/>
      <psa03 value="0.4134896358" flag="0"/>
      <psa10 value="0.1226077650" flag="0"/>
      <psa30 value="0.0109078609" flag="0"/>
    </comp>
  </station>
</stationlist>
