<?xml version="1.0" encoding="UTF-8" standalone="yes"?>
<!DOCTYPE earthquake SYSTEM "stationlist.dtd">
<stationlist created="" xmlns="ch.ethz.sed.shakemap.usgs.xml">
  <station code="ARPRA" name="ARPRA" netid="KO" insttype="CMG-5T" lat="39.0929" lon="38.3356">
    <comp name="--.HNE">
      <acc value="0.0696449546" flag="0"/>
      <vel value="0.0878126062" flag="0"/>
      <psa03 value="0.1649346913" flag="0"/>
      <psa10 value="0.1252614921" flag="0"/>
      <psa30 value="0.0265944201" flag="0"/>
    </comp>
    <comp name="--.HNN">
      <acc value="0.0773973429" flag="0"/>
      <vel value="0.0760635322" flag="0"/>
      <psa03 value="0.2539713464" flag="0"/>
      <psa10 value="0.0823091293" flag="0"/>
      <psa30 value="0.0156902825" flag="0"/>
    </comp>
    <comp name="--.HNZ">
      <acc value="0.0447931677" flag="0"/>
      <vel value="0.0307049105" flag="0"/>
      <psa03 value="0.1048651341" flag="0"/>
      <psa10 value="0.0426911037" flag="0"/>
      <psa30 value="0.0057450333" flag="0"/>
    </comp>
  </station>
  <station code="GAZ" name="GAZ" netid="KO" insttype="CMG-3T" lat="37.1721" lon="37.2096">
    <comp name="--.HHN">
      <acc value="0.0428100726" flag="0"/>
      <vel value="0.0429014967" flag="0"/>
      <psa03 value="0.0925707644" flag="0"/>
      <psa10 value="0.0875183335" flag="0"/>
      <psa30 value="0.0073507436" flag="0"/>
    </comp>
  </station>
  <station code="KMRS" name="KMRS" netid="KO" insttype="CMG-3T" lat="37.5087" lon="36.9">
    <comp name="--.HHE">
      <acc value="0.1057802043" flag="0"/>
      <vel value="0.0725455209" flag="0"/>
      <psa03 value="0.2301243629" flag="0"/>
      <psa10 value="0.1274584164" flag="0"/>
      <psa30 value="0.0159834085" flag="0"/>
    </comp>
    <comp name="--.HHN">
      <acc value="0.1952817866" flag="0"/>
      <vel value="0.0918701122" flag="0"/>
      <psa03 value="0.4071016324" flag="0"/>
      <psa10 value="0.0782596536" flag="0"/>
      <psa30 value="0.0262237816" flag="0"/>
    </comp>
  </station>
  <station code="URFA" name="URFA" netid="KO" insttype="CMG-3ESP" lat="37.4409" lon="38.8213">
    <comp name="--.HHE">
      <acc value="0.2195222281" flag="0"/>
      <vel value="0.0873968051" flag="0"/>
      <psa03 value="0.4134896358" flag="0"/>
      <psa10 value="0.1226077650" flag="0"/>
      <psa30 value="0.0109078541" flag="0"/>
    </comp>
  </station>
  <station code="ANDN" name="ANDN" netid="TU" insttype="T" lat="37.58" lon="36.3452">
    <comp name="--.HHN">
      <acc value="0.3304980826" flag="0"/>
      <vel value="0.2612731575" flag="0"/>
      <psa03 value="0.8144400104" flag="0"/>
      <psa10 value="0.3304855466" flag="0"/>
      <psa30 value="0.0423716290" flag="0"/>
    </comp>
    <comp name="--.HHE">
      <acc value="0.2187193862" flag="0"/>
      <vel value="0.1490290576" flag="0"/>
      <psa03 value="0.7093047681" flag="0"/>
      <psa10 value="0.2777292093" flag="0"/>
      <psa30 value="0.0205062885" flag="0"/>
    </comp>
    <comp name="--.HHZ">
      <acc value="0.1604879292" flag="0"/>
      <vel value="0.1243429635" flag="0"/>
      <psa03 value="0.3295170821" flag="0"/>
      <psa10 value="0.2131664744" flag="0"/>
      <psa30 value="0.0192778455" flag="0"/>
    </comp>
  </station>
</stationlist>
