<?xml version="1.0" encoding="UTF-8" standalone="yes"?>
<!DOCTYPE earthquake SYSTEM "stationlist.dtd">
<stationlist created="" xmlns="ch.ethz.sed.shakemap.usgs.xml">
  <station code="ARPRA" name="ARPRA" netid="KO" insttype="CMG-5T" lat="39.0929" lon="38.3356">
    <comp name="--.HNE">
      <acc value="0.0701408318" flag="0"/>
      <vel value="0.0917738285" flag="0"/>
      <psa03 value="0.1656448844" flag="0"/>
      <psa10 value="0.1246517045" flag="0"/>
      <psa30 value="0.0297767446" flag="0"/>
    </comp>
    <comp name="--.HNZ">
      <acc value="0.0448729522" flag="0"/>
      <vel value="0.0300409882" flag="0"/>
      <psa03 value="0.1049122984" flag="0"/>
      <psa10 value="0.0426707587" flag="0"/>
      <psa30 value="0.0067089000" flag="0"/>
    </comp>
    <comp name="--.HNN">
      <acc value="0.0772155319" flag="0"/>
      <vel value="0.0781040672" flag="0"/>
      <psa03 value="0.2538654346" flag="0"/>
      <psa10 value="0.0825891944" flag="0"/>
      <psa30 value="0.0174016764" flag="0"/>
    </comp>
  </station>
  <station code="GAZ" name="GAZ" netid="KO" insttype="CMG-3T" lat="37.1721" lon="37.2096">
    <comp name="--.HHN">
      <acc value="0.0427869015" flag="0"/>
      <vel value="0.0418694084" flag="0"/>
      <psa03 value="0.0925951325" flag="0"/>
      <psa10 value="0.0876239070" flag="0"/>
      <psa30 value="0.0092656164" flag="0"/>
    </comp>
  </station>
  <station code="KMRS" name="KMRS" netid="KO" insttype="CMG-3T" lat="37.5087" lon="36.9">
    <comp name="--.HHN">
      <acc value="0.1952740275" flag="0"/>
      <vel value="0.0965692258" flag="0"/>
      <psa03 value="0.4070238694" flag="0"/>
      <psa10 value="0.0786535679" flag="0"/>
      <psa30 value="0.0280295851" flag="0"/>
    </comp>
    <comp name="--.HHE">
      <acc value="0.1059312086" flag="0"/>
      <vel value="0.0765126170" flag="0"/>
      <psa03 value="0.2295582839" flag="0"/>
      <psa10 value="0.1279916908" flag="0"/>
      <psa30 value="0.0173839778" flag="0"/>
    </comp>
  </station>
  <station code="SVRC" name="SVRC" netid="KO" insttype="CMG-3T" lat="38.3775" lon="39.306">
    <comp name="--.HHZ">
      <acc value="0.0223443319" flag="0"/>
      <vel value="0.0171261238" flag="0"/>
      <psa03 value="0.0562198739" flag="0"/>
      <psa10 value="0.0194948406" flag="0"/>
      <psa30 value="0.0025004490" flag="0"/>
    </comp>
    <comp name="--.HHE">
      <acc value="0.0332296388" flag="0"/>
      <vel value="0.0258188947" flag="0"/>
      <psa03 value="0.1401200360" flag="0"/>
      <psa10 value="0.0401667882" flag="0"/>
      <psa30 value="0.0053718038" flag="0"/>
    </comp>
    <comp name="--.HHN">
      <acc value="0.0240082431" flag="0"/>
      <vel value="0.0208272947" flag="0"/>
      <psa03 value="0.0720775962" flag="0"/>
      <psa10 value="0.0216671795" flag="0"/>
      <psa30 value="0.0079172564" flag="0"/>
    </comp>
  </station>
  <station code="URFA" name="URFA" netid="KO" insttype="CMG-3ESP" lat="37.4409" lon="38.8213">
    <comp name="--.HHE">
      <acc value="0.2190991849" flag="0"/>
      <vel value="0.0887072790" flag="0"/>
      <psa03 value="0.4131031153" flag="0"/>
      <psa10 value="0.1230399005" flag="0"/>
      <psa30 value="0.0116280570" flag="0"/>
    </comp>
  </station>
</stationlist>
