<?xml version="1.0" encoding="UTF-8" standalone="yes"?>
<!DOCTYPE earthquake SYSTEM "stationlist.dtd">
<stationlist created="" xmlns="ch.ethz.sed.shakemap.usgs.xml">
  <station code="APE" name="APE" netid="GE" insttype="STS-2/N" lat="37.0727" lon="25.523">
    <comp name="--.HHE">
      <acc value="0.1269771520" flag="0"/>
      <vel value="0.0270534425" flag="0"/>
      <psa03 value="0.1209480355" flag="0"/>
      <psa10 value="0.0128726737" flag="0"/>
      <psa30 value="0.0037535118" flag="0"/>
    </comp>
    <comp name="--.HHN">
      <acc value="0.1665429860" flag="0"/>
      <vel value="0.0377534817" flag="0"/>
      <psa03 value="0.1360584463" flag="0"/>
      <psa10 value="0.0131527269" flag="0"/>
      <psa30 value="0.0031557140" flag="0"/>
    </comp>
    <comp name="--.HHZ">
      <acc value="0.0822412480" flag="0"/>
      <vel value="0.0204292126" flag="0"/>
      <psa03 value="0.0591595435" flag="0"/>
      <psa10 value="0.0101397022" flag="0"/>
      <psa30 value="0.0033869236" flag="0"/>
    </comp>
  </station>
  <station code="THERA" name="THERA" netid="GE" insttype="STS-2/N" lat="36.367" lon="25.4753">
    <comp name="--.HHE">
      <acc value="0.0650812744" flag="0"/>
      <vel value="0.0151134370" flag="0"/>
      <psa03 value="0.0703013789" flag="0"/>
      <psa10 value="0.0124239459" flag="0"/>
      <psa30 value="0.0033159908" flag="0"/>
    </comp>
    <comp name="--.HHN">
      <acc value="0.0371668469" flag="0"/>
      <vel value="0.0100763454" flag="0"/>
      <psa03 value="0.0670831032" flag="0"/>
      <psa10 value="0.0129627807" flag="0"/>
      <psa30 value="0.0016932108" flag="0"/>
    </comp>
    <comp name="--.HHZ">
      <acc value="0.0469958001" flag="0"/>
      <vel value="0.0123298131" flag="0"/>
      <psa03 value="0.0486024030" flag="0"/>
      <psa10 value="0.0084755085" flag="0"/>
      <psa30 value="0.0023605707" flag="0"/>
    </comp>
  </station>
</stationlist>
