<?xml version="1.0" encoding="UTF-8" standalone="yes"?>
<!DOCTYPE earthquake SYSTEM "stationlist.dtd">
<stationlist created="" xmlns="ch.ethz.sed.shakemap.usgs.xml">
  <station code="APE" name="APE" netid="GE" insttype="STS-2/N" lat="37.0727" lon="25.523">
    <comp name="--.HHN">
      <acc value="0.1665429860" flag="0"/>
      <vel value="0.0377534805" flag="0"/>
      <psa03 value="0.1360584463" flag="0"/>
      <psa10 value="0.0131527269" flag="0"/>
      <psa30 value="0.0031557230" flag="0"/>
    </comp>
    <comp name="--.HHE">
      <acc value="0.1269771521" flag="0"/>
      <vel value="0.0270534430" flag="0"/>
      <psa03 value="0.1209480355" flag="0"/>
      <psa10 value="0.0128726736" flag="0"/>
      <psa30 value="0.0037535137" flag="0"/>
    </comp>
    <comp name="--.HHZ">
      <acc value="0.0822412480" flag="0"/>
      <vel value="0.0204292142" flag="0"/>
      <psa03 value="0.0591595435" flag="0"/>
      <psa10 value="0.0101397024" flag="0"/>
      <psa30 value="0.0033868859" flag="0"/>
    </comp>
  </station>
  <station code="THERA" name="THERA" netid="GE" insttype="STS-2/N" lat="36.367" lon="25.4753">
    <comp name="--.HHN">
      <acc value="0.0371668470" flag="0"/>
      <vel value="0.0100763464" flag="0"/>
      <psa03 value="0.0670831032" flag="0"/>
      <psa10 value="0.0129627807" flag="0"/>
      <psa30 value="0.0016932196" flag="0"/>
    </comp>
    <comp name="--.HHE">
      <acc value="0.0650812744" flag="0"/>
      <vel value="0.0151134370" flag="0"/>
      <psa03 value="0.0703013789" flag="0"/>
      <psa10 value="0.0124239459" flag="0"/>
      <psa30 value="0.0033159911" flag="0"/>
    </comp>
    <comp name="--.HHZ">
      <acc value="0.0469958001" flag="0"/>
      <vel value="0.0123298131" flag="0"/>
      <psa03 value="0.0486024030" flag="0"/>
      <psa10 value="0.0084755082" flag="0"/>
      <psa30 value="0.0023605574" flag="0"/>
    </comp>
  </station>
  <station code="SERI" name="SERI" netid="HA" insttype="30" lat="37.1609" lon="24.4853">
    <comp name="--.HHE">
      <acc value="0.0220431493" flag="0"/>
      <vel value="0.0072980440" flag="0"/>
      <psa03 value="0.0256041395" flag="0"/>
      <psa10 value="0.0042123620" flag="0"/>
      <psa30 value="0.0008410081" flag="0"/>
    </comp>
    <comp name="--.HHN">
      <acc value="0.0278559208" flag="0"/>
      <vel value="0.0092320405" flag="0"/>
      <psa03 value="0.0288377411" flag="0"/>
      <psa10 value="0.0071131707" flag="0"/>
      <psa30 value="0.0008292041" flag="0"/>
    </comp>
    <comp name="--.HHZ">
      <acc value="0.0213713380" flag="0"/>
      <vel value="0.0061117624" flag="0"/>
      <psa03 value="0.0238856394" flag="0"/>
      <psa10 value="0.0053228913" flag="0"/>
      <psa30 value="0.0013166529" flag="0"/>
    </comp>
  </station>
  <station code="SNT1" name="SNT1" netid="HA" insttype="30" lat="36.4159" lon="25.4282">
    <comp name="--.HHN">
      <acc value="0.0498270556" flag="0"/>
      <vel value="0.0188851116" flag="0"/>
      <psa03 value="0.0879803707" flag="0"/>
      <psa10 value="0.0231417360" flag="0"/>
      <psa30 value="0.0087069374" flag="0"/>
    </comp>
    <comp name="--.HHE">
      <acc value="0.0497806330" flag="0"/>
      <vel value="0.0207618126" flag="0"/>
      <psa03 value="0.0904998708" flag="0"/>
      <psa10 value="0.0339773392" flag="0"/>
      <psa30 value="0.0066545184" flag="0"/>
    </comp>
    <comp name="--.HHZ">
      <acc value="0.0362122218" flag="0"/>
      <vel value="0.0141758800" flag="0"/>
      <psa03 value="0.0678115922" flag="0"/>
      <psa10 value="0.0106511665" flag="0"/>
      <psa30 value="0.0030017615" flag="0"/>
    </comp>
  </station>
  <station code="NAX1" name="NAX1" netid="HI" insttype="CMG-5TD,ACCELEROMETER,GURALP" lat="37.1014" lon="25.3741">
    <comp name="--.HNE">
      <acc value="0.1077319532" flag="0"/>
      <vel value="0.0300009380" flag="0"/>
      <psa03 value="0.1384201271" flag="0"/>
      <psa10 value="0.0170923889" flag="0"/>
      <psa30 value="0.0017995337" flag="0"/>
    </comp>
    <comp name="--.HNZ">
      <acc value="0.0723577413" flag="0"/>
      <vel value="0.0130519241" flag="0"/>
      <psa03 value="0.0668364333" flag="0"/>
      <psa10 value="0.0125534112" flag="0"/>
      <psa30 value="0.0031634239" flag="0"/>
    </comp>
    <comp name="--.HNN">
      <acc value="0.1228216858" flag="0"/>
      <vel value="0.0188767901" flag="0"/>
      <psa03 value="0.0858431188" flag="0"/>
      <psa10 value="0.0090035687" flag="0"/>
      <psa30 value="0.0017825368" flag="0"/>
    </comp>
  </station>
  <station code="SFR2" name="SFR2" netid="HI" insttype="unknown" lat="36.3998" lon="25.4382">
    <comp name="--.HNE">
      <acc value="0.1097688159" flag="0"/>
      <vel value="0.0401162224" flag="0"/>
      <psa03 value="0.2475710215" flag="0"/>
      <psa10 value="0.0477136517" flag="0"/>
      <psa30 value="0.0081886148" flag="0"/>
    </comp>
    <comp name="--.HNZ">
      <acc value="0.1478976996" flag="0"/>
      <vel value="0.0413076145" flag="0"/>
      <psa03 value="0.2418450123" flag="0"/>
      <psa10 value="0.0284219036" flag="0"/>
      <psa30 value="0.0043275350" flag="0"/>
    </comp>
    <comp name="--.HNN">
      <acc value="0.1274205826" flag="0"/>
      <vel value="0.0548817949" flag="0"/>
      <psa03 value="0.2312690251" flag="0"/>
      <psa10 value="0.0676020337" flag="0"/>
      <psa30 value="0.0057620527" flag="0"/>
    </comp>
  </station>
  <station code="AMGA" name="AMGA" netid="HL" insttype="SMART24" lat="36.8316" lon="25.8938">
    <comp name="--.HHE">
      <acc value="0.9793414547" flag="0"/>
      <vel value="0.2190660757" flag="0"/>
      <psa03 value="0.8266354120" flag="0"/>
      <psa10 value="0.0595452740" flag="0"/>
      <psa30 value="0.0068031406" flag="0"/>
    </comp>
    <comp name="--.HHZ">
      <acc value="1.1254097926" flag="0"/>
      <vel value="0.3187339129" flag="0"/>
      <psa03 value="0.7360231314" flag="0"/>
      <psa10 value="0.0775710461" flag="0"/>
      <psa30 value="0.0069138188" flag="0"/>
    </comp>
    <comp name="--.HHN">
      <acc value="1.2158666322" flag="0"/>
      <vel value="0.2996109265" flag="0"/>
      <psa03 value="0.6073239035" flag="0"/>
      <psa10 value="0.0806131024" flag="0"/>
      <psa30 value="0.0066051556" flag="0"/>
    </comp>
  </station>
  <station code="APE" name="APE" netid="HL" insttype="120" lat="37.0727" lon="25.523">
    <comp name="--.HHE">
      <acc value="0.1197954194" flag="0"/>
      <vel value="0.0257683119" flag="0"/>
      <psa03 value="0.1184757664" flag="0"/>
      <psa10 value="0.0127237874" flag="0"/>
      <psa30 value="0.0037443393" flag="0"/>
    </comp>
    <comp name="--.HHN">
      <acc value="0.1510932373" flag="0"/>
      <vel value="0.0355304662" flag="0"/>
      <psa03 value="0.1308998288" flag="0"/>
      <psa10 value="0.0130503829" flag="0"/>
      <psa30 value="0.0031459753" flag="0"/>
    </comp>
    <comp name="--.HHZ">
      <acc value="0.0704448847" flag="0"/>
      <vel value="0.0200795732" flag="0"/>
      <psa03 value="0.0575689937" flag="0"/>
      <psa10 value="0.0100927986" flag="0"/>
      <psa30 value="0.0033784778" flag="0"/>
    </comp>
  </station>
  <station code="ASTA" name="ASTA" netid="HL" insttype="CMG-5" lat="36.5455" lon="26.3529">
    <comp name="00.HNE">
      <acc value="0.0727495615" flag="0"/>
      <vel value="0.0203776238" flag="0"/>
      <psa03 value="0.0677385774" flag="0"/>
      <psa10 value="0.0232816195" flag="0"/>
      <psa30 value="0.0011128819" flag="0"/>
    </comp>
    <comp name="00.HNZ">
      <acc value="0.0484635031" flag="0"/>
      <vel value="0.0271500770" flag="0"/>
      <psa03 value="0.0690058378" flag="0"/>
      <psa10 value="0.0129741087" flag="0"/>
      <psa30 value="0.0015482861" flag="0"/>
    </comp>
    <comp name="00.HNN">
      <acc value="0.0462293086" flag="0"/>
      <vel value="0.0178420250" flag="0"/>
      <psa03 value="0.0769110317" flag="0"/>
      <psa10 value="0.0124120775" flag="0"/>
      <psa30 value="0.0014763351" flag="0"/>
    </comp>
  </station>
  <station code="MHLO" name="MHLO" netid="HL" insttype="20" lat="36.6898" lon="24.4017">
    <comp name="--.HHE">
      <acc value="0.0615831248" flag="0"/>
      <vel value="0.0236231018" flag="0"/>
      <psa03 value="0.1212521696" flag="0"/>
      <psa10 value="0.0193821333" flag="0"/>
      <psa30 value="0.0024450249" flag="0"/>
    </comp>
    <comp name="--.HHN">
      <acc value="0.0523866566" flag="0"/>
      <vel value="0.0225255989" flag="0"/>
      <psa03 value="0.1992436570" flag="0"/>
      <psa10 value="0.0335093383" flag="0"/>
      <psa30 value="0.0022274608" flag="0"/>
    </comp>
    <comp name="--.HHZ">
      <acc value="0.0164238291" flag="0"/>
      <vel value="0.0113890762" flag="0"/>
      <psa03 value="0.0654040021" flag="0"/>
      <psa10 value="0.0141469779" flag="0"/>
      <psa30 value="0.0015589574" flag="0"/>
    </comp>
  </station>
  <station code="MILA" name="MILA" netid="HL" insttype="CMG-5" lat="36.7429" lon="24.4282">
    <comp name="00.HNN">
      <acc value="0.0483159489" flag="0"/>
      <vel value="0.0280545467" flag="0"/>
      <psa03 value="0.1045637483" flag="0"/>
      <psa10 value="0.0274927901" flag="0"/>
      <psa30 value="0.0022671381" flag="0"/>
    </comp>
    <comp name="00.HNE">
      <acc value="0.0609532157" flag="0"/>
      <vel value="0.0230042120" flag="0"/>
      <psa03 value="0.1124410642" flag="0"/>
      <psa10 value="0.0241645419" flag="0"/>
      <psa30 value="0.0027491254" flag="0"/>
    </comp>
    <comp name="00.HNZ">
      <acc value="0.0384060266" flag="0"/>
      <vel value="0.0170845980" flag="0"/>
      <psa03 value="0.0569508601" flag="0"/>
      <psa10 value="0.0200468716" flag="0"/>
      <psa30 value="0.0014817753" flag="0"/>
    </comp>
  </station>
  <station code="SANT" name="SANT" netid="HL" insttype="30" lat="36.3705" lon="25.4593">
    <comp name="--.HHN">
      <acc value="0.1726840943" flag="0"/>
      <vel value="0.0301090887" flag="0"/>
      <psa03 value="0.0601579101" flag="0"/>
      <psa10 value="0.0167398591" flag="0"/>
      <psa30 value="0.0034806884" flag="0"/>
    </comp>
    <comp name="--.HHZ">
      <acc value="0.1510142505" flag="0"/>
      <vel value="0.0202548971" flag="0"/>
      <psa03 value="0.0585202804" flag="0"/>
      <psa10 value="0.0106499878" flag="0"/>
      <psa30 value="0.0022448220" flag="0"/>
    </comp>
    <comp name="--.HHE">
      <acc value="0.1881587033" flag="0"/>
      <vel value="0.0318714649" flag="0"/>
      <psa03 value="0.1005484290" flag="0"/>
      <psa10 value="0.0182971565" flag="0"/>
      <psa30 value="0.0033223245" flag="0"/>
    </comp>
  </station>
  <station code="SAP3" name="SAP3" netid="HL" insttype="65535" lat="36.4356" lon="25.3454">
    <comp name="--.HHN">
      <acc value="0.0772400568" flag="0"/>
      <vel value="0.0330204363" flag="0"/>
      <psa03 value="0.1663469194" flag="0"/>
      <psa10 value="0.0250867774" flag="0"/>
      <psa30 value="0.0082353631" flag="0"/>
    </comp>
    <comp name="--.HHZ">
      <acc value="0.1096588341" flag="0"/>
      <vel value="0.0253778472" flag="0"/>
      <psa03 value="0.1139217746" flag="0"/>
      <psa10 value="0.0112884487" flag="0"/>
      <psa30 value="0.0033630218" flag="0"/>
    </comp>
    <comp name="--.HHE">
      <acc value="0.0823552893" flag="0"/>
      <vel value="0.0299950372" flag="0"/>
      <psa03 value="0.1105017470" flag="0"/>
      <psa10 value="0.0305632850" flag="0"/>
      <psa30 value="0.0084428904" flag="0"/>
    </comp>
  </station>
  <station code="THERA" name="THERA" netid="HL" insttype="120" lat="36.367" lon="25.4753">
    <comp name="--.HHE">
      <acc value="0.0649137682" flag="0"/>
      <vel value="0.0147776079" flag="0"/>
      <psa03 value="0.0683225423" flag="0"/>
      <psa10 value="0.0123401982" flag="0"/>
      <psa30 value="0.0033182203" flag="0"/>
    </comp>
    <comp name="--.HHZ">
      <acc value="0.0471761410" flag="0"/>
      <vel value="0.0122107509" flag="0"/>
      <psa03 value="0.0472500042" flag="0"/>
      <psa10 value="0.0084138710" flag="0"/>
      <psa30 value="0.0023616794" flag="0"/>
    </comp>
    <comp name="--.HHN">
      <acc value="0.0720581046" flag="0"/>
      <vel value="0.0196273143" flag="0"/>
      <psa03 value="0.1305195202" flag="0"/>
      <psa10 value="0.0256988216" flag="0"/>
      <psa30 value="0.0033880558" flag="0"/>
    </comp>
  </station>
  <station code="THRA" name="THRA" netid="HL" insttype="CMG-5" lat="36.415" lon="25.4324">
    <comp name="00.HNE">
      <acc value="0.4206620835" flag="0"/>
      <vel value="0.1830028942" flag="0"/>
      <psa03 value="0.9377179282" flag="0"/>
      <psa10 value="0.0773357157" flag="0"/>
      <psa30 value="0.0108691960" flag="0"/>
    </comp>
    <comp name="00.HNZ">
      <acc value="0.1537958593" flag="0"/>
      <vel value="0.0490690913" flag="0"/>
      <psa03 value="0.2229126452" flag="0"/>
      <psa10 value="0.0422443227" flag="0"/>
      <psa30 value="0.0043207729" flag="0"/>
    </comp>
    <comp name="00.HNN">
      <acc value="0.2075858735" flag="0"/>
      <vel value="0.0653799189" flag="0"/>
      <psa03 value="0.4133152769" flag="0"/>
      <psa10 value="0.0811058340" flag="0"/>
      <psa30 value="0.0126207059" flag="0"/>
    </comp>
  </station>
  <station code="TNSA" name="TNSA" netid="HL" insttype="CMG-5" lat="37.5394" lon="25.1631">
    <comp name="00.HNE">
      <acc value="0.0488919028" flag="0"/>
      <vel value="0.0140886430" flag="0"/>
      <psa03 value="0.0965213213" flag="0"/>
      <psa10 value="0.0060372412" flag="0"/>
      <psa30 value="0.0010736933" flag="0"/>
    </comp>
    <comp name="00.HNN">
      <acc value="0.0393380595" flag="0"/>
      <vel value="0.0149492272" flag="0"/>
      <psa03 value="0.0862636256" flag="0"/>
      <psa10 value="0.0090940989" flag="0"/>
      <psa30 value="0.0014339502" flag="0"/>
    </comp>
    <comp name="00.HNZ">
      <acc value="0.0429681059" flag="0"/>
      <vel value="0.0202412376" flag="0"/>
      <psa03 value="0.0614121322" flag="0"/>
      <psa10 value="0.0098254782" flag="0"/>
      <psa30 value="0.0014798079" flag="0"/>
    </comp>
  </station>
  <station code="AKRO" name="AKRO" netid="HT" insttype="Compact," lat="36.3584" lon="25.3967">
    <comp name="--.HHZ">
      <acc value="0.1482579511" flag="0"/>
      <vel value="0.0322740097" flag="0"/>
      <psa03 value="0.1946342380" flag="0"/>
      <psa10 value="0.0231428462" flag="0"/>
      <psa30 value="0.0022329120" flag="0"/>
    </comp>
    <comp name="--.HHE">
      <acc value="0.1863380124" flag="0"/>
      <vel value="0.0691311943" flag="0"/>
      <psa03 value="0.3159896364" flag="0"/>
      <psa10 value="0.0305803579" flag="0"/>
      <psa30 value="0.0046823809" flag="0"/>
    </comp>
    <comp name="--.HHN">
      <acc value="0.1798044281" flag="0"/>
      <vel value="0.0442500680" flag="0"/>
      <psa03 value="0.1464958972" flag="0"/>
      <psa10 value="0.0379854683" flag="0"/>
      <psa30 value="0.0049270445" flag="0"/>
    </comp>
  </station>
  <station code="CMBO" name="CMBO" netid="HT" insttype="120P," lat="36.4709" lon="25.4056">
    <comp name="--.HHE">
      <acc value="0.0972394033" flag="0"/>
      <vel value="0.0405756207" flag="0"/>
      <psa03 value="0.1299454955" flag="0"/>
      <psa10 value="0.0267749337" flag="0"/>
      <psa30 value="0.0078809300" flag="0"/>
    </comp>
    <comp name="--.HHN">
      <acc value="0.1199543746" flag="0"/>
      <vel value="0.0474940953" flag="0"/>
      <psa03 value="0.1811230137" flag="0"/>
      <psa10 value="0.0434642118" flag="0"/>
      <psa30 value="0.0057808461" flag="0"/>
    </comp>
    <comp name="--.HHZ">
      <acc value="0.0991650269" flag="0"/>
      <vel value="0.0336067850" flag="0"/>
      <psa03 value="0.1902688082" flag="0"/>
      <psa10 value="0.0157263427" flag="0"/>
      <psa30 value="0.0059210591" flag="0"/>
    </comp>
  </station>
</stationlist>
