<?xml version="1.0" encoding="UTF-8" standalone="yes"?>
<!DOCTYPE earthquake SYSTEM "stationlist.dtd">
<stationlist created="" xmlns="ch.ethz.sed.shakemap.usgs.xml">
  <station code="APE" name="APE" netid="GE" insttype="STS-2/N" lat="37.0727" lon="25.523">
    <comp name="--.HHE">
      <acc value="0.1269771520" flag="0"/>
      <vel value="0.0270534425" flag="0"/>
      <psa03 value="0.1209480355" flag="0"/>
      <psa10 value="0.0128726737" flag="0"/>
      <psa30 value="0.0037535118" flag="0"/>
    </comp>
    <comp name="--.HHN">
      <acc value="0.1665429860" flag="0"/>
      <vel value="0.0377534817" flag="0"/>
      <psa03 value="0.1360584463" flag="0"/>
      <psa10 value="0.0131527269" flag="0"/>
      <psa30 value="0.0031557140" flag="0"/>
    </comp>
    <comp name="--.HHZ">
      <acc value="0.0822412480" flag="0"/>
      <vel value="0.0204292126" flag="0"/>
      <psa03 value="0.0591595435" flag="0"/>
      <psa10 value="0.0101397022" flag="0"/>
      <psa30 value="0.0033869236" flag="0"/>
    </comp>
  </station>
  <station code="THERA" name="THERA" netid="GE" insttype="STS-2/N" lat="36.367" lon="25.4753">
    <comp name="--.HHE">
      <acc value="0.0650812744" flag="0"/>
      <vel value="0.0151134370" flag="0"/>
      <psa03 value="0.0703013789" flag="0"/>
      <psa10 value="0.0124239459" flag="0"/>
      <psa30 value="0.0033159908" flag="0"/>
    </comp>
    <comp name="--.HHN">
      <acc value="0.0371668469" flag="0"/>
      <vel value="0.0100763454" flag="0"/>
      <psa03 value="0.0670831032" flag="0"/>
      <psa10 value="0.0129627807" flag="0"/>
      <psa30 value="0.0016932108" flag="0"/>
    </comp>
    <comp name="--.HHZ">
      <acc value="0.0469958001" flag="0"/>
      <vel value="0.0123298131" flag="0"/>
      <psa03 value="0.0486024030" flag="0"/>
      <psa10 value="0.0084755085" flag="0"/>
      <psa30 value="0.0023605707" flag="0"/>
    </comp>
  </station>
  <station code="SERI" name="SERI" netid="HA" insttype="30" lat="37.1609" lon="24.4853">
    <comp name="--.HHN">
      <acc value="0.0278559213" flag="0"/>
      <vel value="0.0092320397" flag="0"/>
      <psa03 value="0.0288377411" flag="0"/>
      <psa10 value="0.0071131705" flag="0"/>
      <psa30 value="0.0008291479" flag="0"/>
    </comp>
    <comp name="--.HHE">
      <acc value="0.0220431497" flag="0"/>
      <vel value="0.0072980450" flag="0"/>
      <psa03 value="0.0256041395" flag="0"/>
      <psa10 value="0.0042123621" flag="0"/>
      <psa30 value="0.0008410717" flag="0"/>
    </comp>
    <comp name="--.HHZ">
      <acc value="0.0213713371" flag="0"/>
      <vel value="0.0061117604" flag="0"/>
      <psa03 value="0.0238856394" flag="0"/>
      <psa10 value="0.0053228914" flag="0"/>
      <psa30 value="0.0013166886" flag="0"/>
    </comp>
  </station>
  <station code="SNT1" name="SNT1" netid="HA" insttype="30" lat="36.4159" lon="25.4282">
    <comp name="--.HHE">
      <acc value="0.0497806330" flag="0"/>
      <vel value="0.0207618020" flag="0"/>
      <psa03 value="0.0904998709" flag="0"/>
      <psa10 value="0.0339773393" flag="0"/>
      <psa30 value="0.0066543800" flag="0"/>
    </comp>
    <comp name="--.HHN">
      <acc value="0.0498270553" flag="0"/>
      <vel value="0.0188851113" flag="0"/>
      <psa03 value="0.0879803707" flag="0"/>
      <psa10 value="0.0231417360" flag="0"/>
      <psa30 value="0.0087068831" flag="0"/>
    </comp>
    <comp name="--.HHZ">
      <acc value="0.0362122220" flag="0"/>
      <vel value="0.0141758810" flag="0"/>
      <psa03 value="0.0678115922" flag="0"/>
      <psa10 value="0.0106511664" flag="0"/>
      <psa30 value="0.0030017064" flag="0"/>
    </comp>
  </station>
  <station code="NAX1" name="NAX1" netid="HI" insttype="CMG-5TD,ACCELEROMETER,GURALP" lat="37.1014" lon="25.3741">
    <comp name="--.HNE">
      <acc value="0.1077319560" flag="0"/>
      <vel value="0.0300009379" flag="0"/>
      <psa03 value="0.1384201271" flag="0"/>
      <psa10 value="0.0170923899" flag="0"/>
      <psa30 value="0.0018000773" flag="0"/>
    </comp>
    <comp name="--.HNN">
      <acc value="0.1228216864" flag="0"/>
      <vel value="0.0188767893" flag="0"/>
      <psa03 value="0.0858431188" flag="0"/>
      <psa10 value="0.0090035685" flag="0"/>
      <psa30 value="0.0017826197" flag="0"/>
    </comp>
    <comp name="--.HNZ">
      <acc value="0.0723577407" flag="0"/>
      <vel value="0.0130519233" flag="0"/>
      <psa03 value="0.0668364333" flag="0"/>
      <psa10 value="0.0125534108" flag="0"/>
      <psa30 value="0.0031635765" flag="0"/>
    </comp>
  </station>
  <station code="SFR2" name="SFR2" netid="HI" insttype="unknown" lat="36.3998" lon="25.4382">
    <comp name="--.HNZ">
      <acc value="0.1478976995" flag="0"/>
      <vel value="0.0413076152" flag="0"/>
      <psa03 value="0.2418450123" flag="0"/>
      <psa10 value="0.0284219034" flag="0"/>
      <psa30 value="0.0043274845" flag="0"/>
    </comp>
    <comp name="--.HNE">
      <acc value="0.1097688159" flag="0"/>
      <vel value="0.0401162236" flag="0"/>
      <psa03 value="0.2475710215" flag="0"/>
      <psa10 value="0.0477136519" flag="0"/>
      <psa30 value="0.0081885227" flag="0"/>
    </comp>
    <comp name="--.HNN">
      <acc value="0.1274205828" flag="0"/>
      <vel value="0.0548817930" flag="0"/>
      <psa03 value="0.2312690251" flag="0"/>
      <psa10 value="0.0676020322" flag="0"/>
      <psa30 value="0.0057621008" flag="0"/>
    </comp>
  </station>
  <station code="AMGA" name="AMGA" netid="HL" insttype="SMART24" lat="36.8316" lon="25.8938">
    <comp name="--.HHN">
      <acc value="1.2158666320" flag="0"/>
      <vel value="0.2996109339" flag="0"/>
      <psa03 value="0.6073239035" flag="0"/>
      <psa10 value="0.0806131045" flag="0"/>
      <psa30 value="0.0066048731" flag="0"/>
    </comp>
    <comp name="--.HHE">
      <acc value="0.9793414543" flag="0"/>
      <vel value="0.2190661065" flag="0"/>
      <psa03 value="0.8266354120" flag="0"/>
      <psa10 value="0.0595452695" flag="0"/>
      <psa30 value="0.0068028129" flag="0"/>
    </comp>
    <comp name="--.HHZ">
      <acc value="1.1254097924" flag="0"/>
      <vel value="0.3187339172" flag="0"/>
      <psa03 value="0.7360231314" flag="0"/>
      <psa10 value="0.0775710447" flag="0"/>
      <psa30 value="0.0069147308" flag="0"/>
    </comp>
  </station>
  <station code="APE" name="APE" netid="HL" insttype="120" lat="37.0727" lon="25.523">
    <comp name="--.HHE">
      <acc value="0.1197954193" flag="0"/>
      <vel value="0.0257683134" flag="0"/>
      <psa03 value="0.1184757664" flag="0"/>
      <psa10 value="0.0127237882" flag="0"/>
      <psa30 value="0.0037442836" flag="0"/>
    </comp>
    <comp name="--.HHN">
      <acc value="0.1510932372" flag="0"/>
      <vel value="0.0355304690" flag="0"/>
      <psa03 value="0.1308998288" flag="0"/>
      <psa10 value="0.0130503830" flag="0"/>
      <psa30 value="0.0031459401" flag="0"/>
    </comp>
    <comp name="--.HHZ">
      <acc value="0.0704448846" flag="0"/>
      <vel value="0.0200795698" flag="0"/>
      <psa03 value="0.0575689937" flag="0"/>
      <psa10 value="0.0100927991" flag="0"/>
      <psa30 value="0.0033785695" flag="0"/>
    </comp>
  </station>
  <station code="ASTA" name="ASTA" netid="HL" insttype="CMG-5" lat="36.5455" lon="26.3529">
    <comp name="00.HNN">
      <acc value="0.0462293087" flag="0"/>
      <vel value="0.0178420252" flag="0"/>
      <psa03 value="0.0769110317" flag="0"/>
      <psa10 value="0.0124120775" flag="0"/>
      <psa30 value="0.0014763360" flag="0"/>
    </comp>
    <comp name="00.HNE">
      <acc value="0.0727495614" flag="0"/>
      <vel value="0.0203776237" flag="0"/>
      <psa03 value="0.0677385774" flag="0"/>
      <psa10 value="0.0232816195" flag="0"/>
      <psa30 value="0.0011129012" flag="0"/>
    </comp>
    <comp name="00.HNZ">
      <acc value="0.0484635031" flag="0"/>
      <vel value="0.0271500769" flag="0"/>
      <psa03 value="0.0690058378" flag="0"/>
      <psa10 value="0.0129741087" flag="0"/>
      <psa30 value="0.0015482745" flag="0"/>
    </comp>
  </station>
  <station code="MHLO" name="MHLO" netid="HL" insttype="20" lat="36.6898" lon="24.4017">
    <comp name="--.HHE">
      <acc value="0.0615831248" flag="0"/>
      <vel value="0.0236231274" flag="0"/>
      <psa03 value="0.1212521696" flag="0"/>
      <psa10 value="0.0193820918" flag="0"/>
      <psa30 value="0.0024447015" flag="0"/>
    </comp>
    <comp name="--.HHN">
      <acc value="0.0523866556" flag="0"/>
      <vel value="0.0225256012" flag="0"/>
      <psa03 value="0.1992436570" flag="0"/>
      <psa10 value="0.0335093380" flag="0"/>
      <psa30 value="0.0022274902" flag="0"/>
    </comp>
    <comp name="--.HHZ">
      <acc value="0.0164238293" flag="0"/>
      <vel value="0.0113890730" flag="0"/>
      <psa03 value="0.0654040021" flag="0"/>
      <psa10 value="0.0141469782" flag="0"/>
      <psa30 value="0.0015588815" flag="0"/>
    </comp>
  </station>
  <station code="MILA" name="MILA" netid="HL" insttype="CMG-5" lat="36.7429" lon="24.4282">
    <comp name="00.HNN">
      <acc value="0.0483159477" flag="0"/>
      <vel value="0.0280545429" flag="0"/>
      <psa03 value="0.1045637483" flag="0"/>
      <psa10 value="0.0274927893" flag="0"/>
      <psa30 value="0.0022668287" flag="0"/>
    </comp>
    <comp name="00.HNE">
      <acc value="0.0609532167" flag="0"/>
      <vel value="0.0230042088" flag="0"/>
      <psa03 value="0.1124410642" flag="0"/>
      <psa10 value="0.0241645411" flag="0"/>
      <psa30 value="0.0027490378" flag="0"/>
    </comp>
    <comp name="00.HNZ">
      <acc value="0.0384060327" flag="0"/>
      <vel value="0.0170845933" flag="0"/>
      <psa03 value="0.0569508601" flag="0"/>
      <psa10 value="0.0200468690" flag="0"/>
      <psa30 value="0.0014816795" flag="0"/>
    </comp>
  </station>
  <station code="SANT" name="SANT" netid="HL" insttype="30" lat="36.3705" lon="25.4593">
    <comp name="--.HHE">
      <acc value="0.1881587033" flag="0"/>
      <vel value="0.0318714631" flag="0"/>
      <psa03 value="0.1005484290" flag="0"/>
      <psa10 value="0.0182971565" flag="0"/>
      <psa30 value="0.0033223226" flag="0"/>
    </comp>
    <comp name="--.HHN">
      <acc value="0.1726840943" flag="0"/>
      <vel value="0.0301091064" flag="0"/>
      <psa03 value="0.0601579101" flag="0"/>
      <psa10 value="0.0167398586" flag="0"/>
      <psa30 value="0.0034806755" flag="0"/>
    </comp>
    <comp name="--.HHZ">
      <acc value="0.1510142505" flag="0"/>
      <vel value="0.0202549084" flag="0"/>
      <psa03 value="0.0585202804" flag="0"/>
      <psa10 value="0.0106499878" flag="0"/>
      <psa30 value="0.0022447827" flag="0"/>
    </comp>
  </station>
  <station code="SAP3" name="SAP3" netid="HL" insttype="65535" lat="36.4356" lon="25.3454">
    <comp name="--.HHE">
      <acc value="0.0823552893" flag="0"/>
      <vel value="0.0299950311" flag="0"/>
      <psa03 value="0.1105017470" flag="0"/>
      <psa10 value="0.0305632850" flag="0"/>
      <psa30 value="0.0084427811" flag="0"/>
    </comp>
    <comp name="--.HHN">
      <acc value="0.0772400567" flag="0"/>
      <vel value="0.0330204384" flag="0"/>
      <psa03 value="0.1663469194" flag="0"/>
      <psa10 value="0.0250867773" flag="0"/>
      <psa30 value="0.0082353491" flag="0"/>
    </comp>
    <comp name="--.HHZ">
      <acc value="0.1096588341" flag="0"/>
      <vel value="0.0253778454" flag="0"/>
      <psa03 value="0.1139217746" flag="0"/>
      <psa10 value="0.0112884485" flag="0"/>
      <psa30 value="0.0033628861" flag="0"/>
    </comp>
  </station>
  <station code="THERA" name="THERA" netid="HL" insttype="120" lat="36.367" lon="25.4753">
    <comp name="--.HHE">
      <acc value="0.0649137682" flag="0"/>
      <vel value="0.0147776080" flag="0"/>
      <psa03 value="0.0683225423" flag="0"/>
      <psa10 value="0.0123401983" flag="0"/>
      <psa30 value="0.0033182209" flag="0"/>
    </comp>
    <comp name="--.HHZ">
      <acc value="0.0471761410" flag="0"/>
      <vel value="0.0122107510" flag="0"/>
      <psa03 value="0.0472500042" flag="0"/>
      <psa10 value="0.0084138705" flag="0"/>
      <psa30 value="0.0023616483" flag="0"/>
    </comp>
  </station>
  <station code="THRA" name="THRA" netid="HL" insttype="CMG-5" lat="36.415" lon="25.4324">
    <comp name="00.HNE">
      <acc value="0.4206532611" flag="0"/>
      <vel value="0.1830516013" flag="0"/>
      <psa03 value="0.9377192957" flag="0"/>
      <psa10 value="0.0773357146" flag="0"/>
      <psa30 value="0.0108690959" flag="0"/>
    </comp>
    <comp name="00.HNN">
      <acc value="0.2075858728" flag="0"/>
      <vel value="0.0653799179" flag="0"/>
      <psa03 value="0.4133152769" flag="0"/>
      <psa10 value="0.0811058339" flag="0"/>
      <psa30 value="0.0126206145" flag="0"/>
    </comp>
    <comp name="00.HNZ">
      <acc value="0.1537958589" flag="0"/>
      <vel value="0.0490690903" flag="0"/>
      <psa03 value="0.2229126452" flag="0"/>
      <psa10 value="0.0422443217" flag="0"/>
      <psa30 value="0.0043206607" flag="0"/>
    </comp>
  </station>
  <station code="TNSA" name="TNSA" netid="HL" insttype="CMG-5" lat="37.5394" lon="25.1631">
    <comp name="00.HNN">
      <acc value="0.0393380577" flag="0"/>
      <vel value="0.0149492295" flag="0"/>
      <psa03 value="0.0862636256" flag="0"/>
      <psa10 value="0.0090940988" flag="0"/>
      <psa30 value="0.0014336138" flag="0"/>
    </comp>
    <comp name="00.HNE">
      <acc value="0.0488919064" flag="0"/>
      <vel value="0.0140886420" flag="0"/>
      <psa03 value="0.0965213213" flag="0"/>
      <psa10 value="0.0060372412" flag="0"/>
      <psa30 value="0.0010736954" flag="0"/>
    </comp>
    <comp name="00.HNZ">
      <acc value="0.0429681080" flag="0"/>
      <vel value="0.0202412424" flag="0"/>
      <psa03 value="0.0614121322" flag="0"/>
      <psa10 value="0.0098254781" flag="0"/>
      <psa30 value="0.0014800782" flag="0"/>
    </comp>
  </station>
  <station code="AKRO" name="AKRO" netid="HT" insttype="Compact," lat="36.3584" lon="25.3967">
    <comp name="--.HHN">
      <acc value="0.1798044281" flag="0"/>
      <vel value="0.0442500710" flag="0"/>
      <psa03 value="0.1464958972" flag="0"/>
      <psa10 value="0.0379854682" flag="0"/>
      <psa30 value="0.0049270343" flag="0"/>
    </comp>
    <comp name="--.HHE">
      <acc value="0.1863380126" flag="0"/>
      <vel value="0.0691311939" flag="0"/>
      <psa03 value="0.3159896364" flag="0"/>
      <psa10 value="0.0305803435" flag="0"/>
      <psa30 value="0.0046825822" flag="0"/>
    </comp>
    <comp name="--.HHZ">
      <acc value="0.1482579511" flag="0"/>
      <vel value="0.0322740094" flag="0"/>
      <psa03 value="0.1946342380" flag="0"/>
      <psa10 value="0.0231428463" flag="0"/>
      <psa30 value="0.0022325486" flag="0"/>
    </comp>
  </station>
  <station code="CMBO" name="CMBO" netid="HT" insttype="120P," lat="36.4709" lon="25.4056">
    <comp name="--.HHE">
      <acc value="0.0972394032" flag="0"/>
      <vel value="0.0405756202" flag="0"/>
      <psa03 value="0.1299454955" flag="0"/>
      <psa10 value="0.0267749346" flag="0"/>
      <psa30 value="0.0078808815" flag="0"/>
    </comp>
    <comp name="--.HHZ">
      <acc value="0.0991650269" flag="0"/>
      <vel value="0.0336067819" flag="0"/>
      <psa03 value="0.1902688082" flag="0"/>
      <psa10 value="0.0157263423" flag="0"/>
      <psa30 value="0.0059211795" flag="0"/>
    </comp>
    <comp name="--.HHN">
      <acc value="0.1199543746" flag="0"/>
      <vel value="0.0474940942" flag="0"/>
      <psa03 value="0.1811230137" flag="0"/>
      <psa10 value="0.0434642115" flag="0"/>
      <psa30 value="0.0057808283" flag="0"/>
    </comp>
  </station>
</stationlist>
