<?xml version="1.0" encoding="UTF-8" standalone="yes"?>
<!DOCTYPE earthquake SYSTEM "stationlist.dtd">
<stationlist created="" xmlns="ch.ethz.sed.shakemap.usgs.xml">
  <station code="APE" name="APE" netid="GE" insttype="STS-2/N" lat="37.0727" lon="25.523">
    <comp name="--.HHZ">
      <acc value="0.0822412481" flag="0"/>
      <vel value="0.0204292106" flag="0"/>
      <psa03 value="0.0591595435" flag="0"/>
      <psa10 value="0.0101397026" flag="0"/>
      <psa30 value="0.0033869716" flag="0"/>
    </comp>
    <comp name="--.HHE">
      <acc value="0.1269771520" flag="0"/>
      <vel value="0.0270534438" flag="0"/>
      <psa03 value="0.1209480355" flag="0"/>
      <psa10 value="0.0128726743" flag="0"/>
      <psa30 value="0.0037534702" flag="0"/>
    </comp>
    <comp name="--.HHN">
      <acc value="0.1665429861" flag="0"/>
      <vel value="0.0377534831" flag="0"/>
      <psa03 value="0.1360584463" flag="0"/>
      <psa10 value="0.0131527271" flag="0"/>
      <psa30 value="0.0031556985" flag="0"/>
    </comp>
  </station>
  <station code="THERA" name="THERA" netid="GE" insttype="STS-2/N" lat="36.367" lon="25.4753">
    <comp name="--.HHN">
      <acc value="0.0371668465" flag="0"/>
      <vel value="0.0100763458" flag="0"/>
      <psa03 value="0.0670831032" flag="0"/>
      <psa10 value="0.0129627808" flag="0"/>
      <psa30 value="0.0016932187" flag="0"/>
    </comp>
    <comp name="--.HHE">
      <acc value="0.0650812739" flag="0"/>
      <vel value="0.0151134372" flag="0"/>
      <psa03 value="0.0703013789" flag="0"/>
      <psa10 value="0.0124239462" flag="0"/>
      <psa30 value="0.0033159920" flag="0"/>
    </comp>
    <comp name="--.HHZ">
      <acc value="0.0469957998" flag="0"/>
      <vel value="0.0123298131" flag="0"/>
      <psa03 value="0.0486024030" flag="0"/>
      <psa10 value="0.0084755077" flag="0"/>
      <psa30 value="0.0023605246" flag="0"/>
    </comp>
  </station>
  <station code="SERI" name="SERI" netid="HA" insttype="30" lat="37.1609" lon="24.4853">
    <comp name="--.HHE">
      <acc value="0.0220431478" flag="0"/>
      <vel value="0.0072980448" flag="0"/>
      <psa03 value="0.0256041395" flag="0"/>
      <psa10 value="0.0042123621" flag="0"/>
      <psa30 value="0.0008410583" flag="0"/>
    </comp>
    <comp name="--.HHN">
      <acc value="0.0278559241" flag="0"/>
      <vel value="0.0092320404" flag="0"/>
      <psa03 value="0.0288377411" flag="0"/>
      <psa10 value="0.0071131705" flag="0"/>
      <psa30 value="0.0008291617" flag="0"/>
    </comp>
    <comp name="--.HHZ">
      <acc value="0.0213713387" flag="0"/>
      <vel value="0.0061117617" flag="0"/>
      <psa03 value="0.0238856394" flag="0"/>
      <psa10 value="0.0053228914" flag="0"/>
      <psa30 value="0.0013166849" flag="0"/>
    </comp>
  </station>
  <station code="SNT1" name="SNT1" netid="HA" insttype="30" lat="36.4159" lon="25.4282">
    <comp name="--.HHE">
      <acc value="0.0497806321" flag="0"/>
      <vel value="0.0207618028" flag="0"/>
      <psa03 value="0.0904998708" flag="0"/>
      <psa10 value="0.0339773393" flag="0"/>
      <psa30 value="0.0066543920" flag="0"/>
    </comp>
    <comp name="--.HHN">
      <acc value="0.0498270553" flag="0"/>
      <vel value="0.0188851132" flag="0"/>
      <psa03 value="0.0879803707" flag="0"/>
      <psa10 value="0.0231417360" flag="0"/>
      <psa30 value="0.0087068887" flag="0"/>
    </comp>
    <comp name="--.HHZ">
      <acc value="0.0362122213" flag="0"/>
      <vel value="0.0141758803" flag="0"/>
      <psa03 value="0.0678115922" flag="0"/>
      <psa10 value="0.0106511664" flag="0"/>
      <psa30 value="0.0030017108" flag="0"/>
    </comp>
  </station>
  <station code="NAX1" name="NAX1" netid="HI" insttype="CMG-5TD,ACCELEROMETER,GURALP" lat="37.1014" lon="25.3741">
    <comp name="--.HNZ">
      <acc value="0.0876110153" flag="0"/>
      <vel value="0.0209038530" flag="0"/>
      <psa03 value="0.1185216759" flag="0"/>
      <psa10 value="0.0125534109" flag="0"/>
      <psa30 value="0.0031635351" flag="0"/>
    </comp>
    <comp name="--.HNN">
      <acc value="0.1228216950" flag="0"/>
      <vel value="0.0188767889" flag="0"/>
      <psa03 value="0.0858431188" flag="0"/>
      <psa10 value="0.0090035686" flag="0"/>
      <psa30 value="0.0017826065" flag="0"/>
    </comp>
    <comp name="--.HNE">
      <acc value="0.1077319555" flag="0"/>
      <vel value="0.0300009378" flag="0"/>
      <psa03 value="0.1384201271" flag="0"/>
      <psa10 value="0.0170923898" flag="0"/>
      <psa30 value="0.0017999944" flag="0"/>
    </comp>
  </station>
  <station code="SFR2" name="SFR2" netid="HI" insttype="unknown" lat="36.3998" lon="25.4382">
    <comp name="--.HNE">
      <acc value="0.1097688153" flag="0"/>
      <vel value="0.0401162242" flag="0"/>
      <psa03 value="0.2475710215" flag="0"/>
      <psa10 value="0.0477136518" flag="0"/>
      <psa30 value="0.0081885300" flag="0"/>
    </comp>
    <comp name="--.HNN">
      <acc value="0.1274205928" flag="0"/>
      <vel value="0.0548817926" flag="0"/>
      <psa03 value="0.2312690251" flag="0"/>
      <psa10 value="0.0676020323" flag="0"/>
      <psa30 value="0.0057620973" flag="0"/>
    </comp>
    <comp name="--.HNZ">
      <acc value="0.1478976966" flag="0"/>
      <vel value="0.0413076149" flag="0"/>
      <psa03 value="0.2418450123" flag="0"/>
      <psa10 value="0.0284219034" flag="0"/>
      <psa30 value="0.0043274867" flag="0"/>
    </comp>
  </station>
  <station code="AMGA" name="AMGA" netid="HL" insttype="SMART24" lat="36.8316" lon="25.8938">
    <comp name="--.HHN">
      <acc value="1.2158666364" flag="0"/>
      <vel value="0.2996109258" flag="0"/>
      <psa03 value="0.6073239035" flag="0"/>
      <psa10 value="0.0806131044" flag="0"/>
      <psa30 value="0.0066049196" flag="0"/>
    </comp>
    <comp name="--.HHZ">
      <acc value="1.1254097909" flag="0"/>
      <vel value="0.3187339218" flag="0"/>
      <psa03 value="0.7360231314" flag="0"/>
      <psa10 value="0.0775710447" flag="0"/>
      <psa30 value="0.0069146573" flag="0"/>
    </comp>
    <comp name="--.HHE">
      <acc value="0.9793414552" flag="0"/>
      <vel value="0.2190660858" flag="0"/>
      <psa03 value="0.8266354120" flag="0"/>
      <psa10 value="0.0595452695" flag="0"/>
      <psa30 value="0.0068028411" flag="0"/>
    </comp>
  </station>
  <station code="APE" name="APE" netid="HL" insttype="120" lat="37.0727" lon="25.523">
    <comp name="--.HHE">
      <acc value="0.1197954196" flag="0"/>
      <vel value="0.0257683127" flag="0"/>
      <psa03 value="0.1184757664" flag="0"/>
      <psa10 value="0.0127237881" flag="0"/>
      <psa30 value="0.0037442982" flag="0"/>
    </comp>
    <comp name="--.HHN">
      <acc value="0.1510932374" flag="0"/>
      <vel value="0.0355304688" flag="0"/>
      <psa03 value="0.1308998288" flag="0"/>
      <psa10 value="0.0130503830" flag="0"/>
      <psa30 value="0.0031459518" flag="0"/>
    </comp>
    <comp name="--.HHZ">
      <acc value="0.0704448848" flag="0"/>
      <vel value="0.0200795697" flag="0"/>
      <psa03 value="0.0575689937" flag="0"/>
      <psa10 value="0.0100927989" flag="0"/>
      <psa30 value="0.0033785659" flag="0"/>
    </comp>
  </station>
  <station code="ASTA" name="ASTA" netid="HL" insttype="CMG-5" lat="36.5455" lon="26.3529">
    <comp name="00.HNE">
      <acc value="0.0727495604" flag="0"/>
      <vel value="0.0203776240" flag="0"/>
      <psa03 value="0.0677385774" flag="0"/>
      <psa10 value="0.0232816195" flag="0"/>
      <psa30 value="0.0011128707" flag="0"/>
    </comp>
    <comp name="00.HNZ">
      <acc value="0.0484635044" flag="0"/>
      <vel value="0.0271500770" flag="0"/>
      <psa03 value="0.0690058378" flag="0"/>
      <psa10 value="0.0129741087" flag="0"/>
      <psa30 value="0.0015482702" flag="0"/>
    </comp>
    <comp name="00.HNN">
      <acc value="0.0462293076" flag="0"/>
      <vel value="0.0178420251" flag="0"/>
      <psa03 value="0.0769110317" flag="0"/>
      <psa10 value="0.0124120775" flag="0"/>
      <psa30 value="0.0014763228" flag="0"/>
    </comp>
  </station>
  <station code="MHLO" name="MHLO" netid="HL" insttype="20" lat="36.6898" lon="24.4017">
    <comp name="--.HHN">
      <acc value="0.0523866556" flag="0"/>
      <vel value="0.0225256041" flag="0"/>
      <psa03 value="0.1992436570" flag="0"/>
      <psa10 value="0.0335093380" flag="0"/>
      <psa30 value="0.0022274883" flag="0"/>
    </comp>
    <comp name="--.HHZ">
      <acc value="0.0473863535" flag="0"/>
      <vel value="0.0273210192" flag="0"/>
      <psa03 value="0.1334211845" flag="0"/>
      <psa10 value="0.0193417545" flag="0"/>
      <psa30 value="0.0015588925" flag="0"/>
    </comp>
    <comp name="--.HHE">
      <acc value="0.0615831230" flag="0"/>
      <vel value="0.0236231274" flag="0"/>
      <psa03 value="0.1212521696" flag="0"/>
      <psa10 value="0.0193820968" flag="0"/>
      <psa30 value="0.0024447258" flag="0"/>
    </comp>
  </station>
  <station code="MILA" name="MILA" netid="HL" insttype="CMG-5" lat="36.7429" lon="24.4282">
    <comp name="00.HNE">
      <acc value="0.1814763883" flag="0"/>
      <vel value="0.0706588017" flag="0"/>
      <psa03 value="0.3595169638" flag="0"/>
      <psa10 value="0.0275066948" flag="0"/>
      <psa30 value="0.0027489850" flag="0"/>
    </comp>
    <comp name="00.HNZ">
      <acc value="0.1038008020" flag="0"/>
      <vel value="0.0457676179" flag="0"/>
      <psa03 value="0.2863689287" flag="0"/>
      <psa10 value="0.0200468693" flag="0"/>
      <psa30 value="0.0018406281" flag="0"/>
    </comp>
    <comp name="00.HNN">
      <acc value="0.1749606138" flag="0"/>
      <vel value="0.0805408322" flag="0"/>
      <psa03 value="0.5934797991" flag="0"/>
      <psa10 value="0.0338182927" flag="0"/>
      <psa30 value="0.0031534647" flag="0"/>
    </comp>
  </station>
  <station code="NISR" name="NISR" netid="HL" insttype="65535" lat="36.6106" lon="27.131">
    <comp name="--.HHE">
      <acc value="0.0000000000" flag="0"/>
      <vel value="-100.0000000000" flag="0"/>
      <psa03 value="0.0000000000" flag="0"/>
      <psa10 value="0.0000000000" flag="0"/>
      <psa30 value="0.0000000000" flag="0"/>
    </comp>
    <comp name="--.HHN">
      <acc value="0.0353501411" flag="0"/>
      <vel value="0.0185019228" flag="0"/>
      <psa03 value="0.0792394206" flag="0"/>
      <psa10 value="0.0134128029" flag="0"/>
      <psa30 value="0.0027815027" flag="0"/>
    </comp>
    <comp name="--.HHZ">
      <acc value="0.0260044807" flag="0"/>
      <vel value="0.0149778130" flag="0"/>
      <psa03 value="0.0676153561" flag="0"/>
      <psa10 value="0.0129558808" flag="0"/>
      <psa30 value="0.0009481560" flag="0"/>
    </comp>
  </station>
  <station code="NISR2" name="NISR2" netid="HL" insttype="120" lat="36.5744" lon="27.1767">
    <comp name="--.HHN">
      <acc value="0.0570671545" flag="0"/>
      <vel value="0.0508061742" flag="0"/>
      <psa03 value="0.2290489772" flag="0"/>
      <psa10 value="0.0605395894" flag="0"/>
      <psa30 value="0.0037763628" flag="0"/>
    </comp>
    <comp name="--.HHE">
      <acc value="0.0528971146" flag="0"/>
      <vel value="0.0384393803" flag="0"/>
      <psa03 value="0.1327089667" flag="0"/>
      <psa10 value="0.0585938009" flag="0"/>
      <psa30 value="0.0029855651" flag="0"/>
    </comp>
    <comp name="--.HHZ">
      <acc value="0.0229138963" flag="0"/>
      <vel value="0.0149014173" flag="0"/>
      <psa03 value="0.0645263869" flag="0"/>
      <psa10 value="0.0129650074" flag="0"/>
      <psa30 value="0.0011168522" flag="0"/>
    </comp>
  </station>
  <station code="SANT" name="SANT" netid="HL" insttype="30" lat="36.3705" lon="25.4593">
    <comp name="--.HHN">
      <acc value="0.1726840941" flag="0"/>
      <vel value="0.0301091142" flag="0"/>
      <psa03 value="0.0601579101" flag="0"/>
      <psa10 value="0.0167398586" flag="0"/>
      <psa30 value="0.0034806597" flag="0"/>
    </comp>
    <comp name="--.HHE">
      <acc value="0.1881587044" flag="0"/>
      <vel value="0.0318714619" flag="0"/>
      <psa03 value="0.1005484290" flag="0"/>
      <psa10 value="0.0182971565" flag="0"/>
      <psa30 value="0.0033223218" flag="0"/>
    </comp>
    <comp name="--.HHZ">
      <acc value="0.1510142500" flag="0"/>
      <vel value="0.0202549054" flag="0"/>
      <psa03 value="0.0585202804" flag="0"/>
      <psa10 value="0.0106499878" flag="0"/>
      <psa30 value="0.0022447857" flag="0"/>
    </comp>
  </station>
  <station code="SAP3" name="SAP3" netid="HL" insttype="65535" lat="36.4356" lon="25.3454">
    <comp name="--.HHE">
      <acc value="0.0823552895" flag="0"/>
      <vel value="0.0299950323" flag="0"/>
      <psa03 value="0.1105017470" flag="0"/>
      <psa10 value="0.0305632850" flag="0"/>
      <psa30 value="0.0084427936" flag="0"/>
    </comp>
    <comp name="--.HHN">
      <acc value="0.0772400555" flag="0"/>
      <vel value="0.0330204381" flag="0"/>
      <psa03 value="0.1663469194" flag="0"/>
      <psa10 value="0.0250867773" flag="0"/>
      <psa30 value="0.0082353506" flag="0"/>
    </comp>
    <comp name="--.HHZ">
      <acc value="0.1096588339" flag="0"/>
      <vel value="0.0253778460" flag="0"/>
      <psa03 value="0.1139217746" flag="0"/>
      <psa10 value="0.0112884485" flag="0"/>
      <psa30 value="0.0033628918" flag="0"/>
    </comp>
  </station>
  <station code="THERA" name="THERA" netid="HL" insttype="120" lat="36.367" lon="25.4753">
    <comp name="--.HHE">
      <acc value="0.0649137678" flag="0"/>
      <vel value="0.0147776080" flag="0"/>
      <psa03 value="0.0683225423" flag="0"/>
      <psa10 value="0.0123401983" flag="0"/>
      <psa30 value="0.0033182212" flag="0"/>
    </comp>
    <comp name="--.HHZ">
      <acc value="0.0471761408" flag="0"/>
      <vel value="0.0122107510" flag="0"/>
      <psa03 value="0.0472500042" flag="0"/>
      <psa10 value="0.0084138704" flag="0"/>
      <psa30 value="0.0023616441" flag="0"/>
    </comp>
    <comp name="--.HHN">
      <acc value="0.0720581036" flag="0"/>
      <vel value="0.0196273131" flag="0"/>
      <psa03 value="0.1305195202" flag="0"/>
      <psa10 value="0.0256988218" flag="0"/>
      <psa30 value="0.0033880527" flag="0"/>
    </comp>
  </station>
  <station code="THRA" name="THRA" netid="HL" insttype="CMG-5" lat="36.415" lon="25.4324">
    <comp name="00.HNE">
      <acc value="0.4206616791" flag="0"/>
      <vel value="0.1830058748" flag="0"/>
      <psa03 value="0.9377181160" flag="0"/>
      <psa10 value="0.0783841494" flag="0"/>
      <psa30 value="0.0108691699" flag="0"/>
    </comp>
    <comp name="00.HNN">
      <acc value="0.2075858726" flag="0"/>
      <vel value="0.0653799175" flag="0"/>
      <psa03 value="0.4133152769" flag="0"/>
      <psa10 value="0.0811058340" flag="0"/>
      <psa30 value="0.0126206214" flag="0"/>
    </comp>
    <comp name="00.HNZ">
      <acc value="0.1537958595" flag="0"/>
      <vel value="0.0490690904" flag="0"/>
      <psa03 value="0.2229126452" flag="0"/>
      <psa10 value="0.0422443218" flag="0"/>
      <psa30 value="0.0043206369" flag="0"/>
    </comp>
  </station>
  <station code="TNSA" name="TNSA" netid="HL" insttype="CMG-5" lat="37.5394" lon="25.1631">
    <comp name="00.HNE">
      <acc value="0.0488919070" flag="0"/>
      <vel value="0.0140886419" flag="0"/>
      <psa03 value="0.0965213213" flag="0"/>
      <psa10 value="0.0060372412" flag="0"/>
      <psa30 value="0.0010736934" flag="0"/>
    </comp>
    <comp name="00.HNN">
      <acc value="0.0393380581" flag="0"/>
      <vel value="0.0149492292" flag="0"/>
      <psa03 value="0.0862636256" flag="0"/>
      <psa10 value="0.0090940988" flag="0"/>
      <psa30 value="0.0014336528" flag="0"/>
    </comp>
    <comp name="00.HNZ">
      <acc value="0.0429681062" flag="0"/>
      <vel value="0.0202412420" flag="0"/>
      <psa03 value="0.0614121322" flag="0"/>
      <psa10 value="0.0098254782" flag="0"/>
      <psa30 value="0.0014800480" flag="0"/>
    </comp>
  </station>
  <station code="AKRO" name="AKRO" netid="HT" insttype="Compact," lat="36.3584" lon="25.3967">
    <comp name="--.HHE">
      <acc value="0.1863380135" flag="0"/>
      <vel value="0.0691311941" flag="0"/>
      <psa03 value="0.3159896364" flag="0"/>
      <psa10 value="0.0305803443" flag="0"/>
      <psa30 value="0.0046825700" flag="0"/>
    </comp>
    <comp name="--.HHN">
      <acc value="0.1798044291" flag="0"/>
      <vel value="0.0442500711" flag="0"/>
      <psa03 value="0.1464958972" flag="0"/>
      <psa10 value="0.0379854682" flag="0"/>
      <psa30 value="0.0049270334" flag="0"/>
    </comp>
    <comp name="--.HHZ">
      <acc value="0.1482579525" flag="0"/>
      <vel value="0.0322740104" flag="0"/>
      <psa03 value="0.1946342380" flag="0"/>
      <psa10 value="0.0231428463" flag="0"/>
      <psa30 value="0.0022326035" flag="0"/>
    </comp>
  </station>
  <station code="CMBO" name="CMBO" netid="HT" insttype="120P," lat="36.4709" lon="25.4056">
    <comp name="--.HHZ">
      <acc value="0.0991650273" flag="0"/>
      <vel value="0.0336067832" flag="0"/>
      <psa03 value="0.1902688082" flag="0"/>
      <psa10 value="0.0157263424" flag="0"/>
      <psa30 value="0.0059211641" flag="0"/>
    </comp>
    <comp name="--.HHN">
      <acc value="0.1199543743" flag="0"/>
      <vel value="0.0474940966" flag="0"/>
      <psa03 value="0.1811230137" flag="0"/>
      <psa10 value="0.0434642115" flag="0"/>
      <psa30 value="0.0057808328" flag="0"/>
    </comp>
    <comp name="--.HHE">
      <acc value="0.0972394034" flag="0"/>
      <vel value="0.0405756206" flag="0"/>
      <psa03 value="0.1299454955" flag="0"/>
      <psa10 value="0.0267749344" flag="0"/>
      <psa30 value="0.0078808895" flag="0"/>
    </comp>
  </station>
</stationlist>
