<?xml version="1.0" encoding="UTF-8" standalone="yes"?>
<!DOCTYPE earthquake SYSTEM "stationlist.dtd">
<stationlist created="" xmlns="ch.ethz.sed.shakemap.usgs.xml">
  <station code="KARP" name="KARP" netid="GE" insttype="STS-2/N" lat="35.5471" lon="27.1611">
    <comp name="--.HHE">
      <acc value="0.5066614466" flag="0"/>
      <vel value="0.1982565851" flag="0"/>
      <psa03 value="1.3134664661" flag="0"/>
      <psa10 value="0.1964570707" flag="0"/>
      <psa30 value="0.0149474468" flag="0"/>
    </comp>
    <comp name="--.HHN">
      <acc value="0.4393814783" flag="0"/>
      <vel value="0.1525297322" flag="0"/>
      <psa03 value="0.8982134655" flag="0"/>
      <psa10 value="0.1068630259" flag="0"/>
      <psa30 value="0.0266502553" flag="0"/>
    </comp>
    <comp name="--.HHZ">
      <acc value="0.4995955365" flag="0"/>
      <vel value="0.1122835167" flag="0"/>
      <psa03 value="0.4430561177" flag="0"/>
      <psa10 value="0.1062239989" flag="0"/>
      <psa30 value="0.0110690686" flag="0"/>
    </comp>
  </station>
  <station code="ZKR" name="ZKR" netid="GE" insttype="STS-2/N" lat="35.1147" lon="26.2169">
    <comp name="--.HHZ">
      <acc value="0.0981241609" flag="0"/>
      <vel value="0.0666052025" flag="0"/>
      <psa03 value="0.2715039933" flag="0"/>
      <psa10 value="0.0836405582" flag="0"/>
      <psa30 value="0.0042349924" flag="0"/>
    </comp>
    <comp name="--.HHE">
      <acc value="0.1156354432" flag="0"/>
      <vel value="0.0655428619" flag="0"/>
      <psa03 value="0.3201225569" flag="0"/>
      <psa10 value="0.1288190589" flag="0"/>
      <psa30 value="0.0076733680" flag="0"/>
    </comp>
    <comp name="--.HHN">
      <acc value="0.0734677929" flag="0"/>
      <vel value="0.0418003709" flag="0"/>
      <psa03 value="0.1707632170" flag="0"/>
      <psa10 value="0.0621019992" flag="0"/>
      <psa30 value="0.0056782666" flag="0"/>
    </comp>
  </station>
  <station code="PFKS" name="PFKS" netid="HC" insttype="120" lat="35.0429" lon="25.4733">
    <comp name="--.HHE">
      <acc value="0.0473710994" flag="0"/>
      <vel value="0.0236170571" flag="0"/>
      <psa03 value="0.1828533608" flag="0"/>
      <psa10 value="0.0280413974" flag="0"/>
      <psa30 value="0.0021816591" flag="0"/>
    </comp>
    <comp name="--.HHZ">
      <acc value="0.0218770255" flag="0"/>
      <vel value="0.0134225655" flag="0"/>
      <psa03 value="0.0782144466" flag="0"/>
      <psa10 value="0.0191577323" flag="0"/>
      <psa30 value="0.0017246389" flag="0"/>
    </comp>
    <comp name="--.HHN">
      <acc value="0.0401719850" flag="0"/>
      <vel value="0.0320480368" flag="0"/>
      <psa03 value="0.1151141635" flag="0"/>
      <psa10 value="0.0339517773" flag="0"/>
      <psa30 value="0.0025113257" flag="0"/>
    </comp>
  </station>
  <station code="STIA" name="STIA" netid="HC" insttype="120" lat="35.2021" lon="26.0909">
    <comp name="--.HHZ">
      <acc value="0.0887161397" flag="0"/>
      <vel value="0.0573138069" flag="0"/>
      <psa03 value="0.3134401216" flag="0"/>
      <psa10 value="0.0376598714" flag="0"/>
      <psa30 value="0.0070463106" flag="0"/>
    </comp>
    <comp name="--.HHN">
      <acc value="0.1308614462" flag="0"/>
      <vel value="0.0660059059" flag="0"/>
      <psa03 value="0.3650436619" flag="0"/>
      <psa10 value="0.0647786925" flag="0"/>
      <psa30 value="0.0104613022" flag="0"/>
    </comp>
    <comp name="--.HHE">
      <acc value="0.0770273518" flag="0"/>
      <vel value="0.0620949026" flag="0"/>
      <psa03 value="0.2295113826" flag="0"/>
      <psa10 value="0.1056751448" flag="0"/>
      <psa30 value="0.0079444050" flag="0"/>
    </comp>
  </station>
  <station code="SIT2" name="SIT2" netid="HI" insttype="CMG-5TD,ACCELEROMETER,GURALP" lat="35.2059" lon="26.107">
    <comp name="--.HNE">
      <acc value="0.2639525331" flag="0"/>
      <vel value="0.1622624667" flag="0"/>
      <psa03 value="1.3421332946" flag="0"/>
      <psa10 value="0.1434452692" flag="0"/>
      <psa30 value="0.0120872324" flag="0"/>
    </comp>
    <comp name="--.HNN">
      <acc value="0.3642903819" flag="0"/>
      <vel value="0.2315218884" flag="0"/>
      <psa03 value="1.1056953076" flag="0"/>
      <psa10 value="0.2095100878" flag="0"/>
      <psa30 value="0.0154002077" flag="0"/>
    </comp>
    <comp name="--.HNZ">
      <acc value="0.1930806251" flag="0"/>
      <vel value="0.0790142205" flag="0"/>
      <psa03 value="0.4168968752" flag="0"/>
      <psa10 value="0.0475578815" flag="0"/>
      <psa30 value="0.0060632215" flag="0"/>
    </comp>
  </station>
  <station code="ARG" name="ARG" netid="HL" insttype="LE3D20_DR24" lat="36.2136" lon="28.1212">
    <comp name="--.HHE">
      <acc value="0.0310249350" flag="0"/>
      <vel value="0.0184466909" flag="0"/>
      <psa03 value="0.0737805540" flag="0"/>
      <psa10 value="0.0315235382" flag="0"/>
      <psa30 value="0.0081161315" flag="0"/>
    </comp>
    <comp name="--.HHN">
      <acc value="0.0221404458" flag="0"/>
      <vel value="0.0159426624" flag="0"/>
      <psa03 value="0.0410017168" flag="0"/>
      <psa10 value="0.0197873436" flag="0"/>
      <psa30 value="0.0044511545" flag="0"/>
    </comp>
    <comp name="--.HHZ">
      <acc value="0.0171753426" flag="0"/>
      <vel value="0.0126867823" flag="0"/>
      <psa03 value="0.0337129711" flag="0"/>
      <psa10 value="0.0140705162" flag="0"/>
      <psa30 value="0.0036990394" flag="0"/>
    </comp>
  </station>
  <station code="NISR" name="NISR" netid="HL" insttype="65535" lat="36.6106" lon="27.131">
    <comp name="--.HHE">
      <acc value="0.0486799398" flag="0"/>
      <vel value="0.0306397539" flag="0"/>
      <psa03 value="0.1229867574" flag="0"/>
      <psa10 value="0.0241458465" flag="0"/>
      <psa30 value="0.0062201691" flag="0"/>
    </comp>
    <comp name="--.HHN">
      <acc value="0.0265350251" flag="0"/>
      <vel value="0.0222057399" flag="0"/>
      <psa03 value="0.0774050694" flag="0"/>
      <psa10 value="0.0166634859" flag="0"/>
      <psa30 value="0.0081395653" flag="0"/>
    </comp>
    <comp name="--.HHZ">
      <acc value="0.0178997564" flag="0"/>
      <vel value="0.0134191203" flag="0"/>
      <psa03 value="0.0618554901" flag="0"/>
      <psa10 value="0.0210633407" flag="0"/>
      <psa30 value="0.0018475229" flag="0"/>
    </comp>
  </station>
  <station code="NISR2" name="NISR2" netid="HL" insttype="120" lat="36.5744" lon="27.1767">
    <comp name="--.HHE">
      <acc value="0.1005665484" flag="0"/>
      <vel value="0.0805348304" flag="0"/>
      <psa03 value="0.3742216509" flag="0"/>
      <psa10 value="0.0995493539" flag="0"/>
      <psa30 value="0.0088686941" flag="0"/>
    </comp>
    <comp name="--.HHZ">
      <acc value="0.0364958259" flag="0"/>
      <vel value="0.0217411402" flag="0"/>
      <psa03 value="0.1530164475" flag="0"/>
      <psa10 value="0.0243669628" flag="0"/>
      <psa30 value="0.0041473049" flag="0"/>
    </comp>
    <comp name="--.HHN">
      <acc value="0.1577200691" flag="0"/>
      <vel value="0.0990954130" flag="0"/>
      <psa03 value="0.6709726047" flag="0"/>
      <psa10 value="0.0881003865" flag="0"/>
      <psa30 value="0.0084246930" flag="0"/>
    </comp>
  </station>
  <station code="NPS" name="NPS" netid="HL" insttype="CMG3ESPC-120s" lat="35.2613" lon="25.6104">
    <comp name="--.HHE">
      <acc value="0.0245593101" flag="0"/>
      <vel value="0.0146248158" flag="0"/>
      <psa03 value="0.0705968376" flag="0"/>
      <psa10 value="0.0144229821" flag="0"/>
      <psa30 value="0.0027913363" flag="0"/>
    </comp>
    <comp name="--.HHN">
      <acc value="0.0492175121" flag="0"/>
      <vel value="0.0275274625" flag="0"/>
      <psa03 value="0.1857473226" flag="0"/>
      <psa10 value="0.0510921753" flag="0"/>
      <psa30 value="0.0040252366" flag="0"/>
    </comp>
    <comp name="--.HHZ">
      <acc value="0.0377317314" flag="0"/>
      <vel value="0.0153469423" flag="0"/>
      <psa03 value="0.0706399397" flag="0"/>
      <psa10 value="0.0198595521" flag="0"/>
      <psa30 value="0.0045183219" flag="0"/>
    </comp>
  </station>
  <station code="ZKR" name="ZKR" netid="HL" insttype="120" lat="35.1147" lon="26.2169">
    <comp name="--.HHN">
      <acc value="0.0715238463" flag="0"/>
      <vel value="0.0409118621" flag="0"/>
      <psa03 value="0.1666091527" flag="0"/>
      <psa10 value="0.0616011340" flag="0"/>
      <psa30 value="0.0056628865" flag="0"/>
    </comp>
    <comp name="--.HHE">
      <acc value="0.1125341256" flag="0"/>
      <vel value="0.0642967222" flag="0"/>
      <psa03 value="0.3112719354" flag="0"/>
      <psa10 value="0.1280795178" flag="0"/>
      <psa30 value="0.0076558715" flag="0"/>
    </comp>
    <comp name="--.HHZ">
      <acc value="0.0959162782" flag="0"/>
      <vel value="0.0654897650" flag="0"/>
      <psa03 value="0.2636078175" flag="0"/>
      <psa10 value="0.0829990610" flag="0"/>
      <psa30 value="0.0042106300" flag="0"/>
    </comp>
  </station>
</stationlist>
