<?xml version="1.0" encoding="UTF-8" standalone="yes"?>
<!DOCTYPE earthquake SYSTEM "stationlist.dtd">
<stationlist created="" xmlns="ch.ethz.sed.shakemap.usgs.xml">
  <station code="KARP" name="KARP" netid="GE" insttype="STS-2/N" lat="35.5471" lon="27.1611">
    <comp name="--.HHE">
      <acc value="0.5066614466" flag="0"/>
      <vel value="0.1982565851" flag="0"/>
      <psa03 value="1.3134664661" flag="0"/>
      <psa10 value="0.1964570707" flag="0"/>
      <psa30 value="0.0149474468" flag="0"/>
    </comp>
    <comp name="--.HHN">
      <acc value="0.4393814783" flag="0"/>
      <vel value="0.1525297322" flag="0"/>
      <psa03 value="0.8982134655" flag="0"/>
      <psa10 value="0.1068630259" flag="0"/>
      <psa30 value="0.0266502553" flag="0"/>
    </comp>
    <comp name="--.HHZ">
      <acc value="0.4995955365" flag="0"/>
      <vel value="0.1122835167" flag="0"/>
      <psa03 value="0.4430561177" flag="0"/>
      <psa10 value="0.1062239989" flag="0"/>
      <psa30 value="0.0110690686" flag="0"/>
    </comp>
  </station>
  <station code="ZKR" name="ZKR" netid="GE" insttype="STS-2/N" lat="35.1147" lon="26.2169">
    <comp name="--.HHZ">
      <acc value="0.0981241609" flag="0"/>
      <vel value="0.0666052025" flag="0"/>
      <psa03 value="0.2715039933" flag="0"/>
      <psa10 value="0.0836405582" flag="0"/>
      <psa30 value="0.0042349924" flag="0"/>
    </comp>
    <comp name="--.HHE">
      <acc value="0.1156354432" flag="0"/>
      <vel value="0.0655428619" flag="0"/>
      <psa03 value="0.3201225569" flag="0"/>
      <psa10 value="0.1288190589" flag="0"/>
      <psa30 value="0.0076733680" flag="0"/>
    </comp>
    <comp name="--.HHN">
      <acc value="0.0734677929" flag="0"/>
      <vel value="0.0418003709" flag="0"/>
      <psa03 value="0.1707632170" flag="0"/>
      <psa10 value="0.0621019992" flag="0"/>
      <psa30 value="0.0056782666" flag="0"/>
    </comp>
  </station>
</stationlist>
