<?xml version="1.0" encoding="UTF-8" standalone="yes"?>
<!DOCTYPE earthquake SYSTEM "stationlist.dtd">
<stationlist created="" xmlns="ch.ethz.sed.shakemap.usgs.xml">
  <station code="ARR" name="ARR" netid="RO" insttype="w/attenuator" lat="45.3657" lon="24.6332">
    <comp name="--.HHE">
      <acc value="0.0039026588" flag="0"/>
      <vel value="0.0017170641" flag="0"/>
      <psa03 value="0.0132556435" flag="0"/>
      <psa10 value="0.0018702354" flag="0"/>
      <psa30 value="0.0000804269" flag="0"/>
    </comp>
  </station>
  <station code="DEV" name="DEV" netid="RO" insttype="CMG40T.1to100/Quanterra" lat="45.887" lon="22.898">
    <comp name="--.HHZ">
      <acc value="0.0502218904" flag="0"/>
      <vel value="0.0143027018" flag="0"/>
      <psa03 value="0.0609748371" flag="0"/>
      <psa10 value="0.0073071633" flag="0"/>
      <psa30 value="0.0003613466" flag="0"/>
    </comp>
  </station>
  <station code="GZR" name="GZR" netid="RO" insttype="330" lat="45.3933" lon="22.7767">
    <comp name="--.HHN">
      <acc value="0.3621903260" flag="0"/>
      <vel value="0.1024775027" flag="0"/>
      <psa03 value="0.4334754152" flag="0"/>
      <psa10 value="0.0179369817" flag="0"/>
      <psa30 value="0.0016214404" flag="0"/>
    </comp>
    <comp name="--.HHZ">
      <acc value="0.2422764038" flag="0"/>
      <vel value="0.0339371798" flag="0"/>
      <psa03 value="0.0969754972" flag="0"/>
      <psa10 value="0.0117771199" flag="0"/>
      <psa30 value="0.0010662270" flag="0"/>
    </comp>
  </station>
  <station code="HERR" name="HERR" netid="RO" insttype="200" lat="44.881" lon="22.416">
    <comp name="--.HNN">
      <acc value="0.2889106770" flag="0"/>
      <vel value="0.0471184952" flag="0"/>
      <psa03 value="0.0636738946" flag="0"/>
      <psa10 value="0.0050351821" flag="0"/>
      <psa30 value="0.0004488599" flag="0"/>
    </comp>
    <comp name="--.HNE">
      <acc value="0.2390501982" flag="0"/>
      <vel value="0.0330121171" flag="0"/>
      <psa03 value="0.0659471980" flag="0"/>
      <psa10 value="0.0054676786" flag="0"/>
      <psa30 value="0.0003883569" flag="0"/>
    </comp>
    <comp name="--.HNZ">
      <acc value="0.1256029192" flag="0"/>
      <vel value="0.0155950479" flag="0"/>
      <psa03 value="0.0187171792" flag="0"/>
      <psa10 value="0.0036002406" flag="0"/>
      <psa30 value="0.0002864896" flag="0"/>
    </comp>
  </station>
  <station code="LOT" name="LOT" netid="RO" insttype="200" lat="45.446" lon="23.7698">
    <comp name="--.HNZ">
      <acc value="0.0578573989" flag="0"/>
      <vel value="0.0106814712" flag="0"/>
      <psa03 value="0.0307783910" flag="0"/>
      <psa10 value="0.0033360074" flag="0"/>
      <psa30 value="0.0002589204" flag="0"/>
    </comp>
    <comp name="--.HNE">
      <acc value="0.0799618341" flag="0"/>
      <vel value="0.0171167928" flag="0"/>
      <psa03 value="0.0712214419" flag="0"/>
      <psa10 value="0.0053049084" flag="0"/>
      <psa30 value="0.0003639219" flag="0"/>
    </comp>
  </station>
  <station code="MDVR" name="MDVR" netid="RO" insttype="CMG40T.1to100/Quanterra" lat="44.7815" lon="21.7128">
    <comp name="--.HHN">
      <acc value="0.0303246869" flag="0"/>
      <vel value="0.0068244427" flag="0"/>
      <psa03 value="0.0222026837" flag="0"/>
      <psa10 value="0.0033032076" flag="0"/>
      <psa30 value="0.0001765901" flag="0"/>
    </comp>
    <comp name="--.HHE">
      <acc value="0.0414228650" flag="0"/>
      <vel value="0.0083605992" flag="0"/>
      <psa03 value="0.0295543501" flag="0"/>
      <psa10 value="0.0028623924" flag="0"/>
      <psa30 value="0.0001785372" flag="0"/>
    </comp>
  </station>
  <station code="MHISU" name="MHISU" netid="RO" insttype="200" lat="44.6227" lon="22.6535">
    <comp name="--.HNN">
      <acc value="0.0547734532" flag="0"/>
      <vel value="0.0317639796" flag="0"/>
      <psa03 value="0.1232448087" flag="0"/>
      <psa10 value="0.0138256641" flag="0"/>
      <psa30 value="0.0012565870" flag="0"/>
    </comp>
    <comp name="--.HNE">
      <acc value="0.0342861992" flag="0"/>
      <vel value="0.0119676915" flag="0"/>
      <psa03 value="0.0646790550" flag="0"/>
      <psa10 value="0.0096409456" flag="0"/>
      <psa30 value="0.0007012591" flag="0"/>
    </comp>
    <comp name="--.HNZ">
      <acc value="0.0282499894" flag="0"/>
      <vel value="0.0088927780" flag="0"/>
      <psa03 value="0.0543074423" flag="0"/>
      <psa10 value="0.0057327192" flag="0"/>
      <psa30 value="0.0003539023" flag="0"/>
    </comp>
  </station>
  <station code="RMGR" name="RMGR" netid="RO" insttype="MBB2/Quanterra" lat="44.6627" lon="22.6922">
    <comp name="--.HHE">
      <acc value="0.0443407851" flag="0"/>
      <vel value="0.0175965220" flag="0"/>
      <psa03 value="0.0605664335" flag="0"/>
      <psa10 value="0.0146665499" flag="0"/>
      <psa30 value="0.0012594319" flag="0"/>
    </comp>
    <comp name="--.HHN">
      <acc value="0.0732587198" flag="0"/>
      <vel value="0.0286280890" flag="0"/>
      <psa03 value="0.1578569955" flag="0"/>
      <psa10 value="0.0164701331" flag="0"/>
      <psa30 value="0.0012635521" flag="0"/>
    </comp>
    <comp name="--.HHZ">
      <acc value="0.0386895410" flag="0"/>
      <vel value="0.0087021467" flag="0"/>
      <psa03 value="0.0360093496" flag="0"/>
      <psa10 value="0.0089856990" flag="0"/>
      <psa30 value="0.0006137124" flag="0"/>
    </comp>
  </station>
  <station code="SRE" name="SRE" netid="RO" insttype="Seismometer/Quanterra" lat="44.6609" lon="23.2038">
    <comp name="--.HHN">
      <acc value="0.1023698324" flag="0"/>
      <vel value="0.0404327602" flag="0"/>
      <psa03 value="0.2412801757" flag="0"/>
      <psa10 value="0.0368889248" flag="0"/>
      <psa30 value="0.0024544276" flag="0"/>
    </comp>
    <comp name="--.HHE">
      <acc value="0.2804967809" flag="0"/>
      <vel value="0.1329527674" flag="0"/>
      <psa03 value="0.7878965348" flag="0"/>
      <psa10 value="0.0532525810" flag="0"/>
      <psa30 value="0.0037415398" flag="0"/>
    </comp>
    <comp name="--.HHZ">
      <acc value="0.0599877127" flag="0"/>
      <vel value="0.0276166387" flag="0"/>
      <psa03 value="0.1709928602" flag="0"/>
      <psa10 value="0.0095894219" flag="0"/>
      <psa30 value="0.0014373624" flag="0"/>
    </comp>
  </station>
  <station code="SURR" name="SURR" netid="RO" insttype="Linear" lat="45.754" lon="22.1246">
    <comp name="--.HHZ">
      <acc value="0.0306454582" flag="0"/>
      <vel value="0.0065881074" flag="0"/>
      <psa03 value="0.0240493694" flag="0"/>
      <psa10 value="0.0021325819" flag="0"/>
      <psa30 value="0.0001627006" flag="0"/>
    </comp>
  </station>
  <station code="TNR" name="TNR" netid="RO" insttype="CMG40T.1to100/Quanterra" lat="45.652" lon="24.273">
    <comp name="--.HHE">
      <acc value="0.0115623917" flag="0"/>
      <vel value="0.0049503359" flag="0"/>
      <psa03 value="0.0220960384" flag="0"/>
      <psa10 value="0.0055516853" flag="0"/>
      <psa30 value="0.0002208986" flag="0"/>
    </comp>
    <comp name="--.HHZ">
      <acc value="0.0053022635" flag="0"/>
      <vel value="0.0023935927" flag="0"/>
      <psa03 value="0.0078212834" flag="0"/>
      <psa10 value="0.0021523530" flag="0"/>
      <psa30 value="0.0001073048" flag="0"/>
    </comp>
    <comp name="--.HHN">
      <acc value="0.0095758575" flag="0"/>
      <vel value="0.0032103341" flag="0"/>
      <psa03 value="0.0153422848" flag="0"/>
      <psa10 value="0.0036435569" flag="0"/>
      <psa30 value="0.0001779932" flag="0"/>
    </comp>
  </station>
</stationlist>
