<?xml version="1.0" encoding="UTF-8" standalone="yes"?>
<!DOCTYPE earthquake SYSTEM "stationlist.dtd">
<stationlist created="" xmlns="ch.ethz.sed.shakemap.usgs.xml">
  <station code="ARR" name="ARR" netid="RO" insttype="w/attenuator" lat="45.3657" lon="24.6332">
    <comp name="--.HHE">
      <acc value="0.0039026588" flag="0"/>
      <vel value="0.0017170638" flag="0"/>
      <psa03 value="0.0132556435" flag="0"/>
      <psa10 value="0.0018702354" flag="0"/>
      <psa30 value="0.0000804283" flag="0"/>
    </comp>
    <comp name="--.HHN">
      <acc value="0.0063514785" flag="0"/>
      <vel value="0.0025810715" flag="0"/>
      <psa03 value="0.0149033818" flag="0"/>
      <psa10 value="0.0017424438" flag="0"/>
      <psa30 value="0.0001174580" flag="0"/>
    </comp>
    <comp name="--.HHZ">
      <acc value="0.0035714031" flag="0"/>
      <vel value="0.0013730923" flag="0"/>
      <psa03 value="0.0081644842" flag="0"/>
      <psa10 value="0.0009489591" flag="0"/>
      <psa30 value="0.0000541359" flag="0"/>
    </comp>
  </station>
  <station code="DEV" name="DEV" netid="RO" insttype="CMG40T.1to100/Quanterra" lat="45.887" lon="22.898">
    <comp name="--.HHE">
      <acc value="0.0865704475" flag="0"/>
      <vel value="0.0202655311" flag="0"/>
      <psa03 value="0.1011689594" flag="0"/>
      <psa10 value="0.0104881667" flag="0"/>
      <psa30 value="0.0004061615" flag="0"/>
    </comp>
    <comp name="--.HHN">
      <acc value="0.0626781404" flag="0"/>
      <vel value="0.0220093733" flag="0"/>
      <psa03 value="0.1176574282" flag="0"/>
      <psa10 value="0.0098159466" flag="0"/>
      <psa30 value="0.0006021830" flag="0"/>
    </comp>
    <comp name="--.HHZ">
      <acc value="0.0502218905" flag="0"/>
      <vel value="0.0143027013" flag="0"/>
      <psa03 value="0.0609748371" flag="0"/>
      <psa10 value="0.0073071633" flag="0"/>
      <psa30 value="0.0003613427" flag="0"/>
    </comp>
  </station>
  <station code="GZR" name="GZR" netid="RO" insttype="330" lat="45.3933" lon="22.7767">
    <comp name="--.HHE">
      <acc value="0.4741132333" flag="0"/>
      <vel value="0.0728102268" flag="0"/>
      <psa03 value="0.2860828171" flag="0"/>
      <psa10 value="0.0076297591" flag="0"/>
      <psa30 value="0.0009704335" flag="0"/>
    </comp>
    <comp name="--.HHZ">
      <acc value="0.2422764040" flag="0"/>
      <vel value="0.0339371802" flag="0"/>
      <psa03 value="0.0969754972" flag="0"/>
      <psa10 value="0.0117771200" flag="0"/>
      <psa30 value="0.0010662412" flag="0"/>
    </comp>
    <comp name="--.HHN">
      <acc value="0.3621903260" flag="0"/>
      <vel value="0.1024775027" flag="0"/>
      <psa03 value="0.4334754152" flag="0"/>
      <psa10 value="0.0179369817" flag="0"/>
      <psa30 value="0.0016214646" flag="0"/>
    </comp>
  </station>
  <station code="HERR" name="HERR" netid="RO" insttype="CMG40T.1to100/Quanterra" lat="44.881" lon="22.416">
    <comp name="--.HHZ">
      <acc value="0.0640678831" flag="0"/>
      <vel value="0.0077580340" flag="0"/>
      <psa03 value="0.0085984894" flag="0"/>
      <psa10 value="0.0016227854" flag="0"/>
      <psa30 value="0.0001335535" flag="0"/>
    </comp>
    <comp name="--.HHN">
      <acc value="0.1588023194" flag="0"/>
      <vel value="0.0248228660" flag="0"/>
      <psa03 value="0.0342265488" flag="0"/>
      <psa10 value="0.0025662609" flag="0"/>
      <psa30 value="0.0002309353" flag="0"/>
    </comp>
    <comp name="--.HHE">
      <acc value="0.1212367425" flag="0"/>
      <vel value="0.0180277888" flag="0"/>
      <psa03 value="0.0344098092" flag="0"/>
      <psa10 value="0.0029011355" flag="0"/>
      <psa30 value="0.0001980144" flag="0"/>
    </comp>
  </station>
  <station code="LOT" name="LOT" netid="RO" insttype="330" lat="45.446" lon="23.7698">
    <comp name="--.HHN">
      <acc value="0.0938053046" flag="0"/>
      <vel value="0.0191595368" flag="0"/>
      <psa03 value="0.0748463421" flag="0"/>
      <psa10 value="0.0051389219" flag="0"/>
      <psa30 value="0.0004028977" flag="0"/>
    </comp>
    <comp name="--.HHZ">
      <acc value="0.0659672310" flag="0"/>
      <vel value="0.0109048452" flag="0"/>
      <psa03 value="0.0310708168" flag="0"/>
      <psa10 value="0.0032946500" flag="0"/>
      <psa30 value="0.0002515169" flag="0"/>
    </comp>
    <comp name="--.HHE">
      <acc value="0.0875331629" flag="0"/>
      <vel value="0.0178552051" flag="0"/>
      <psa03 value="0.0736762094" flag="0"/>
      <psa10 value="0.0053644815" flag="0"/>
      <psa30 value="0.0003634140" flag="0"/>
    </comp>
  </station>
  <station code="MDVR" name="MDVR" netid="RO" insttype="CMG40T.1to100/Quanterra" lat="44.7815" lon="21.7128">
    <comp name="--.HHE">
      <acc value="0.0414228650" flag="0"/>
      <vel value="0.0083605997" flag="0"/>
      <psa03 value="0.0295543501" flag="0"/>
      <psa10 value="0.0028623924" flag="0"/>
      <psa30 value="0.0001785369" flag="0"/>
    </comp>
    <comp name="--.HHN">
      <acc value="0.0303246869" flag="0"/>
      <vel value="0.0068244428" flag="0"/>
      <psa03 value="0.0222026837" flag="0"/>
      <psa10 value="0.0033032076" flag="0"/>
      <psa30 value="0.0001765874" flag="0"/>
    </comp>
    <comp name="--.HHZ">
      <acc value="0.0168813551" flag="0"/>
      <vel value="0.0039468970" flag="0"/>
      <psa03 value="0.0120027773" flag="0"/>
      <psa10 value="0.0017144083" flag="0"/>
      <psa30 value="0.0001009205" flag="0"/>
    </comp>
  </station>
  <station code="MHISU" name="MHISU" netid="RO" insttype="200" lat="44.6227" lon="22.6535">
    <comp name="--.HNE">
      <acc value="0.0342861992" flag="0"/>
      <vel value="0.0119676923" flag="0"/>
      <psa03 value="0.0646790550" flag="0"/>
      <psa10 value="0.0096409456" flag="0"/>
      <psa30 value="0.0007011931" flag="0"/>
    </comp>
    <comp name="--.HNN">
      <acc value="0.0547734543" flag="0"/>
      <vel value="0.0317639776" flag="0"/>
      <psa03 value="0.1232448087" flag="0"/>
      <psa10 value="0.0138256641" flag="0"/>
      <psa30 value="0.0012567099" flag="0"/>
    </comp>
    <comp name="--.HNZ">
      <acc value="0.0282499904" flag="0"/>
      <vel value="0.0088927798" flag="0"/>
      <psa03 value="0.0543074423" flag="0"/>
      <psa10 value="0.0057327192" flag="0"/>
      <psa30 value="0.0003538294" flag="0"/>
    </comp>
  </station>
  <station code="RMGR" name="RMGR" netid="RO" insttype="MBB2/Quanterra" lat="44.6627" lon="22.6922">
    <comp name="--.HHE">
      <acc value="0.0443407851" flag="0"/>
      <vel value="0.0175965227" flag="0"/>
      <psa03 value="0.0605664335" flag="0"/>
      <psa10 value="0.0146665498" flag="0"/>
      <psa30 value="0.0012594477" flag="0"/>
    </comp>
    <comp name="--.HHN">
      <acc value="0.0732587195" flag="0"/>
      <vel value="0.0286280897" flag="0"/>
      <psa03 value="0.1578569955" flag="0"/>
      <psa10 value="0.0164701335" flag="0"/>
      <psa30 value="0.0012635406" flag="0"/>
    </comp>
    <comp name="--.HHZ">
      <acc value="0.0386895408" flag="0"/>
      <vel value="0.0087021483" flag="0"/>
      <psa03 value="0.0360093496" flag="0"/>
      <psa10 value="0.0089856990" flag="0"/>
      <psa30 value="0.0006136728" flag="0"/>
    </comp>
  </station>
  <station code="SRE" name="SRE" netid="RO" insttype="Seismometer/Quanterra" lat="44.6609" lon="23.2038">
    <comp name="--.HHE">
      <acc value="0.2804967806" flag="0"/>
      <vel value="0.1329527678" flag="0"/>
      <psa03 value="0.7878965348" flag="0"/>
      <psa10 value="0.0532525812" flag="0"/>
      <psa30 value="0.0037416462" flag="0"/>
    </comp>
    <comp name="--.HHZ">
      <acc value="0.0599877131" flag="0"/>
      <vel value="0.0276166369" flag="0"/>
      <psa03 value="0.1709928602" flag="0"/>
      <psa10 value="0.0095894215" flag="0"/>
      <psa30 value="0.0014373567" flag="0"/>
    </comp>
    <comp name="--.HHN">
      <acc value="0.1023698323" flag="0"/>
      <vel value="0.0404327560" flag="0"/>
      <psa03 value="0.2412801757" flag="0"/>
      <psa10 value="0.0368889247" flag="0"/>
      <psa30 value="0.0024546490" flag="0"/>
    </comp>
  </station>
  <station code="SURR" name="SURR" netid="RO" insttype="Linear" lat="45.754" lon="22.1246">
    <comp name="--.HHN">
      <acc value="0.1165342616" flag="0"/>
      <vel value="0.0149402663" flag="0"/>
      <psa03 value="0.0331631982" flag="0"/>
      <psa10 value="0.0044366016" flag="0"/>
      <psa30 value="0.0002062882" flag="0"/>
    </comp>
    <comp name="--.HHE">
      <acc value="0.1241580910" flag="0"/>
      <vel value="0.0148191389" flag="0"/>
      <psa03 value="0.0491998396" flag="0"/>
      <psa10 value="0.0025803515" flag="0"/>
      <psa30 value="0.0002528397" flag="0"/>
    </comp>
    <comp name="--.HHZ">
      <acc value="0.0306454582" flag="0"/>
      <vel value="0.0065881090" flag="0"/>
      <psa03 value="0.0240493694" flag="0"/>
      <psa10 value="0.0021325819" flag="0"/>
      <psa30 value="0.0001627050" flag="0"/>
    </comp>
  </station>
  <station code="TNR" name="TNR" netid="RO" insttype="CMG40T.1to100/Quanterra" lat="45.652" lon="24.273">
    <comp name="--.HHN">
      <acc value="0.0095758575" flag="0"/>
      <vel value="0.0032103333" flag="0"/>
      <psa03 value="0.0153422848" flag="0"/>
      <psa10 value="0.0036435569" flag="0"/>
      <psa30 value="0.0001779920" flag="0"/>
    </comp>
    <comp name="--.HHZ">
      <acc value="0.0053022633" flag="0"/>
      <vel value="0.0023935922" flag="0"/>
      <psa03 value="0.0078212834" flag="0"/>
      <psa10 value="0.0021523530" flag="0"/>
      <psa30 value="0.0001073027" flag="0"/>
    </comp>
    <comp name="--.HHE">
      <acc value="0.0115623917" flag="0"/>
      <vel value="0.0049503359" flag="0"/>
      <psa03 value="0.0220960384" flag="0"/>
      <psa10 value="0.0055516853" flag="0"/>
      <psa30 value="0.0002209006" flag="0"/>
    </comp>
  </station>
</stationlist>
