<?xml version="1.0" encoding="UTF-8" standalone="yes"?>
<!DOCTYPE earthquake SYSTEM "stationlist.dtd">
<stationlist created="" xmlns="ch.ethz.sed.shakemap.usgs.xml">
  <station code="LEF" name="LEF" netid="KO" insttype="CMG-6T" lat="35.1118" lon="32.8433">
    <comp name="--.HHE">
      <acc value="0.0222063616" flag="0"/>
      <vel value="0.0140569649" flag="0"/>
      <psa03 value="0.0570819148" flag="0"/>
      <psa10 value="0.0182696095" flag="0"/>
      <psa30 value="0.0011580771" flag="0"/>
    </comp>
    <comp name="--.HHZ">
      <acc value="0.0226226717" flag="0"/>
      <vel value="0.0105467858" flag="0"/>
      <psa03 value="0.0602401584" flag="0"/>
      <psa10 value="0.0134294344" flag="0"/>
      <psa30 value="0.0006335011" flag="0"/>
    </comp>
    <comp name="--.HHN">
      <acc value="0.0281520277" flag="0"/>
      <vel value="0.0150482710" flag="0"/>
      <psa03 value="0.0758100121" flag="0"/>
      <psa10 value="0.0208928987" flag="0"/>
      <psa30 value="0.0011402367" flag="0"/>
    </comp>
  </station>
</stationlist>
