<?xml version="1.0" encoding="UTF-8" standalone="yes"?>
<!DOCTYPE earthquake SYSTEM "stationlist.dtd">
<stationlist created="" xmlns="ch.ethz.sed.shakemap.usgs.xml">
  <station code="AKMS" name="AKMS" netid="CQ" insttype="" lat="35.018" lon="32.335">
    <comp name="--.HHN">
      <acc value="0.0511616140" flag="0"/>
      <vel value="0.0191202383" flag="0"/>
      <psa03 value="0.1779191664" flag="0"/>
      <psa10 value="0.0245904750" flag="0"/>
      <psa30 value="0.0015146844" flag="0"/>
    </comp>
    <comp name="--.HHE">
      <acc value="0.0571171639" flag="0"/>
      <vel value="0.0372137419" flag="0"/>
      <psa03 value="0.3047469541" flag="0"/>
      <psa10 value="0.0300436965" flag="0"/>
      <psa30 value="0.0023691791" flag="0"/>
    </comp>
    <comp name="--.HHZ">
      <acc value="0.0341423736" flag="0"/>
      <vel value="0.0163065404" flag="0"/>
      <psa03 value="0.1003023184" flag="0"/>
      <psa10 value="0.0096434040" flag="0"/>
      <psa30 value="0.0010307434" flag="0"/>
    </comp>
  </station>
  <station code="LMOS" name="LMOS" netid="KO" insttype="CMG-6T" lat="36.6021" lon="32.6962">
    <comp name="--.HHN">
      <acc value="0.0080325798" flag="0"/>
      <vel value="0.0049305520" flag="0"/>
      <psa03 value="0.0298249708" flag="0"/>
      <psa10 value="0.0046632762" flag="0"/>
      <psa30 value="0.0005192828" flag="0"/>
    </comp>
    <comp name="--.HHZ">
      <acc value="0.0079883986" flag="0"/>
      <vel value="0.0034776698" flag="0"/>
      <psa03 value="0.0163236959" flag="0"/>
      <psa10 value="0.0041065481" flag="0"/>
      <psa30 value="0.0006348869" flag="0"/>
    </comp>
    <comp name="--.HHE">
      <acc value="0.0109615032" flag="0"/>
      <vel value="0.0047309265" flag="0"/>
      <psa03 value="0.0295421466" flag="0"/>
      <psa10 value="0.0049714970" flag="0"/>
      <psa30 value="0.0005574889" flag="0"/>
    </comp>
  </station>
</stationlist>
