<?xml version="1.0" encoding="UTF-8" standalone="yes"?>
<!DOCTYPE earthquake SYSTEM "stationlist.dtd">
<stationlist created="" xmlns="ch.ethz.sed.shakemap.usgs.xml">
  <station code="BNGB" name="BNGB" netid="KO" insttype="CMG-3ESPC" lat="38.9913" lon="40.6792">
    <comp name="--.HHZ">
      <acc value="0.0332765028" flag="0"/>
      <vel value="0.0163980858" flag="0"/>
      <psa03 value="0.0898601794" flag="0"/>
      <psa10 value="0.0288978804" flag="0"/>
      <psa30 value="0.0071671580" flag="0"/>
    </comp>
    <comp name="--.HHE">
      <acc value="0.0433219949" flag="0"/>
      <vel value="0.0250271807" flag="0"/>
      <psa03 value="0.0905561892" flag="0"/>
      <psa10 value="0.0374371643" flag="0"/>
      <psa30 value="0.0064887022" flag="0"/>
    </comp>
  </station>
  <station code="KARO" name="KARO" netid="KO" insttype="CMG-3T" lat="39.3089" lon="41.0493">
    <comp name="--.HHN">
      <acc value="0.0280744531" flag="0"/>
      <vel value="0.0245383927" flag="0"/>
      <psa03 value="0.1100589190" flag="0"/>
      <psa10 value="0.0384136014" flag="0"/>
      <psa30 value="0.0098393410" flag="0"/>
    </comp>
    <comp name="--.HHZ">
      <acc value="0.0241654145" flag="0"/>
      <vel value="0.0144859407" flag="0"/>
      <psa03 value="0.0602899661" flag="0"/>
      <psa10 value="0.0141260802" flag="0"/>
      <psa30 value="0.0049448618" flag="0"/>
    </comp>
  </station>
</stationlist>
