<?xml version="1.0" encoding="UTF-8" standalone="yes"?>
<!DOCTYPE earthquake SYSTEM "stationlist.dtd">
<stationlist created="" xmlns="ch.ethz.sed.shakemap.usgs.xml">
  <station code="BNGB" name="BNGB" netid="KO" insttype="CMG-3ESPC" lat="38.9913" lon="40.6792">
    <comp name="--.HHZ">
      <acc value="0.0332765027" flag="0"/>
      <vel value="0.0163980890" flag="0"/>
      <psa03 value="0.0898601794" flag="0"/>
      <psa10 value="0.0288978792" flag="0"/>
      <psa30 value="0.0071671588" flag="0"/>
    </comp>
    <comp name="--.HHE">
      <acc value="0.0433219953" flag="0"/>
      <vel value="0.0250271811" flag="0"/>
      <psa03 value="0.0905561892" flag="0"/>
      <psa10 value="0.0374371648" flag="0"/>
      <psa30 value="0.0064886615" flag="0"/>
    </comp>
  </station>
  <station code="DYBB" name="DYBB" netid="KO" insttype="CMG-3T" lat="37.9532" lon="40.1393">
    <comp name="--.HHE">
      <acc value="0.0045963037" flag="0"/>
      <vel value="0.0061238320" flag="0"/>
      <psa03 value="0.0121046805" flag="0"/>
      <psa10 value="0.0097916210" flag="0"/>
      <psa30 value="0.0045135510" flag="0"/>
    </comp>
    <comp name="--.HHZ">
      <acc value="0.0037667007" flag="0"/>
      <vel value="0.0039387272" flag="0"/>
      <psa03 value="0.0107573862" flag="0"/>
      <psa10 value="0.0093016030" flag="0"/>
      <psa30 value="0.0012519050" flag="0"/>
    </comp>
    <comp name="--.HHN">
      <acc value="0.0059015809" flag="0"/>
      <vel value="0.0074063256" flag="0"/>
      <psa03 value="0.0196555450" flag="0"/>
      <psa10 value="0.0117443507" flag="0"/>
      <psa30 value="0.0027612487" flag="0"/>
    </comp>
  </station>
  <station code="ERZN" name="ERZN" netid="KO" insttype="CMG-3ESP" lat="39.5867" lon="39.722">
    <comp name="--.HHN">
      <acc value="0.0424111828" flag="0"/>
      <vel value="0.0193926683" flag="0"/>
      <psa03 value="0.1440209716" flag="0"/>
      <psa10 value="0.0164507886" flag="0"/>
      <psa30 value="0.0038608595" flag="0"/>
    </comp>
    <comp name="--.HHE">
      <acc value="0.0517384388" flag="0"/>
      <vel value="0.0226069399" flag="0"/>
      <psa03 value="0.1195289575" flag="0"/>
      <psa10 value="0.0377809905" flag="0"/>
      <psa30 value="0.0037550222" flag="0"/>
    </comp>
    <comp name="--.HHZ">
      <acc value="0.0184741553" flag="0"/>
      <vel value="0.0102382427" flag="0"/>
      <psa03 value="0.0289773713" flag="0"/>
      <psa10 value="0.0188053918" flag="0"/>
      <psa30 value="0.0060592798" flag="0"/>
    </comp>
  </station>
</stationlist>
