<?xml version="1.0" encoding="UTF-8" standalone="yes"?>
<!DOCTYPE earthquake SYSTEM "stationlist.dtd">
<stationlist created="" xmlns="ch.ethz.sed.shakemap.usgs.xml">
  <station code="BNGB" name="BNGB" netid="KO" insttype="CMG-3ESPC" lat="38.9913" lon="40.6792">
    <comp name="--.HHE">
      <acc value="0.0433219949" flag="0"/>
      <vel value="0.0250271848" flag="0"/>
      <psa03 value="0.0905561892" flag="0"/>
      <psa10 value="0.0374371643" flag="0"/>
      <psa30 value="0.0064886760" flag="0"/>
    </comp>
    <comp name="--.HHZ">
      <acc value="0.0332765029" flag="0"/>
      <vel value="0.0163980892" flag="0"/>
      <psa03 value="0.0898601794" flag="0"/>
      <psa10 value="0.0288978806" flag="0"/>
      <psa30 value="0.0071671522" flag="0"/>
    </comp>
  </station>
  <station code="ERZN" name="ERZN" netid="KO" insttype="CMG-3ESP" lat="39.5867" lon="39.722">
    <comp name="--.HHN">
      <acc value="0.0424111831" flag="0"/>
      <vel value="0.0193926733" flag="0"/>
      <psa03 value="0.1440209716" flag="0"/>
      <psa10 value="0.0164507890" flag="0"/>
      <psa30 value="0.0038607966" flag="0"/>
    </comp>
    <comp name="--.HHE">
      <acc value="0.0517384391" flag="0"/>
      <vel value="0.0226069423" flag="0"/>
      <psa03 value="0.1195289575" flag="0"/>
      <psa10 value="0.0377809904" flag="0"/>
      <psa30 value="0.0037552065" flag="0"/>
    </comp>
    <comp name="--.HHZ">
      <acc value="0.0184741556" flag="0"/>
      <vel value="0.0102382301" flag="0"/>
      <psa03 value="0.0289773713" flag="0"/>
      <psa10 value="0.0188053922" flag="0"/>
      <psa30 value="0.0060591978" flag="0"/>
    </comp>
  </station>
  <station code="KARO" name="KARO" netid="KO" insttype="CMG-3T" lat="39.3089" lon="41.0493">
    <comp name="--.HHN">
      <acc value="0.0280744532" flag="0"/>
      <vel value="0.0245383880" flag="0"/>
      <psa03 value="0.1100589190" flag="0"/>
      <psa10 value="0.0384136014" flag="0"/>
      <psa30 value="0.0098391723" flag="0"/>
    </comp>
    <comp name="--.HHZ">
      <acc value="0.0241654142" flag="0"/>
      <vel value="0.0144859315" flag="0"/>
      <psa03 value="0.0602899661" flag="0"/>
      <psa10 value="0.0141260794" flag="0"/>
      <psa30 value="0.0049448727" flag="0"/>
    </comp>
  </station>
</stationlist>
