<stationlist created="1778135762">
	<station code="MYT1" name="MYT1" netid="HI" source="ITSAK Strong Motion Network" insttype="" lat="39.085" lon="26.5694">
		<comp name="--.HNE" depth="0.0">
			<acc value="0.0350254601047581" flag="0"/>
			<vel value="0.0287285700141721" flag="0"/>
			<psa03 value="0.122525397956411" flag="0"/>
			<psa10 value="0.0476133078977984" flag="0"/>
			<psa30 value="0.00732746207505257" flag="0"/>
		</comp>
		<comp name="--.HNN" depth="0.0">
			<acc value="0.0290586710304308" flag="0"/>
			<vel value="0.0244317166113552" flag="0"/>
			<psa03 value="0.0908883438234397" flag="0"/>
			<psa10 value="0.0433881317507847" flag="0"/>
			<psa30 value="0.00499211195291621" flag="0"/>
		</comp>
		<comp name="--.HNZ" depth="0.0">
			<acc value="0.0215858623410338" flag="0"/>
			<vel value="0.0149768262018321" flag="0"/>
			<psa03 value="0.0762008031375895" flag="0"/>
			<psa10 value="0.0330722146219006" flag="0"/>
			<psa30 value="0.00457130324307879" flag="0"/>
		</comp>
	</station>
	<station code="NAX1" name="NAX1" netid="HI" source="ITSAK Strong Motion Network" insttype="" lat="37.101394" lon="25.374103">
		<comp name="--.HNE" depth="0.0">
			<acc value="0.0352437443643408" flag="0"/>
			<vel value="0.0151902133925204" flag="0"/>
			<psa03 value="0.0969593189121703" flag="0"/>
			<psa10 value="0.0124128516654871" flag="0"/>
			<psa30 value="0.00251863538889973" flag="0"/>
		</comp>
		<comp name="--.HNN" depth="0.0">
			<acc value="0.0259333449215361" flag="0"/>
			<vel value="0.0130141101481211" flag="0"/>
			<psa03 value="0.0483706991131" flag="0"/>
			<psa10 value="0.012719135392783" flag="0"/>
			<psa30 value="0.00324365258439721" flag="0"/>
		</comp>
		<comp name="--.HNZ" depth="0.0">
			<acc value="0.0182416026048116" flag="0"/>
			<vel value="0.0095895998684618" flag="0"/>
			<psa03 value="0.0622304037088381" flag="0"/>
			<psa10 value="0.00792392242096981" flag="0"/>
			<psa30 value="0.00142182033445455" flag="0"/>
		</comp>
	</station>
	<station code="KLNA" name="KLNA" netid="HL" source="National Observatory of Athens Seismic Network" insttype="" lat="36.95708" lon="26.97274">
		<comp name="00.HNE" depth="0.0">
			<acc value="0.211016367253862" flag="0"/>
			<vel value="0.107300946418272" flag="0"/>
			<psa03 value="0.604288242586378" flag="0"/>
			<psa10 value="0.0436102287908295" flag="0"/>
			<psa30 value="0.00893994030439688" flag="0"/>
		</comp>
		<comp name="00.HNN" depth="0.0">
			<acc value="0.198293513769844" flag="0"/>
			<vel value="0.112976568235424" flag="0"/>
			<psa03 value="0.544378427924513" flag="0"/>
			<psa10 value="0.049324255998049" flag="0"/>
			<psa30 value="0.00653862607519423" flag="0"/>
		</comp>
		<comp name="00.HNZ" depth="0.0">
			<acc value="0.174355100175144" flag="0"/>
			<vel value="0.0609623067779797" flag="0"/>
			<psa03 value="0.358116621772647" flag="0"/>
			<psa10 value="0.0332331688098537" flag="0"/>
			<psa30 value="0.00566212624754229" flag="0"/>
		</comp>
	</station>
	<station code="PRK" name="PRK" netid="HL" source="National Observatory of Athens Seismic Network" insttype="" lat="39.24565" lon="26.26499">
		<comp name="--.HNE" depth="0.0">
			<acc value="0.0330325126719391" flag="0"/>
			<vel value="0.0270600840095457" flag="0"/>
			<psa03 value="0.0800714397566574" flag="0"/>
			<psa10 value="0.0429437348118568" flag="0"/>
			<psa30 value="0.00302156953915088" flag="0"/>
		</comp>
		<comp name="--.HNN" depth="0.0">
			<acc value="0.0453071510031013" flag="0"/>
			<vel value="0.0328009597848446" flag="0"/>
			<psa03 value="0.163085501530699" flag="0"/>
			<psa10 value="0.0272636685842533" flag="0"/>
			<psa30 value="0.00464602235950026" flag="0"/>
		</comp>
		<comp name="--.HNZ" depth="0.0">
			<acc value="0.0250906816882166" flag="0"/>
			<vel value="0.0160293875180935" flag="0"/>
			<psa03 value="0.075351397910191" flag="0"/>
			<psa10 value="0.016608972762935" flag="0"/>
			<psa30 value="0.00227341310245875" flag="0"/>
		</comp>
	</station>
	<station code="AKS" name="AKS" netid="KO" source="Bogazici University Kandilli Observatory And Earthquake Research Institute (KOERI)" insttype="" lat="38.8785" lon="27.8129">
		<comp name="--.HNE" depth="0.0">
			<acc value="0.0500278499176513" flag="0"/>
			<vel value="0.032763133642126" flag="0"/>
			<psa03 value="0.110960672413314" flag="0"/>
			<psa10 value="0.0249218565084435" flag="0"/>
			<psa30 value="0.00415207677417562" flag="0"/>
		</comp>
		<comp name="--.HNN" depth="0.0">
			<acc value="0.0566967668778146" flag="0"/>
			<vel value="0.0379696577895903" flag="0"/>
			<psa03 value="0.12478601425836" flag="0"/>
			<psa10 value="0.0367727247754252" flag="0"/>
			<psa30 value="0.00615563278654183" flag="0"/>
		</comp>
		<comp name="--.HNZ" depth="0.0">
			<acc value="0.0230878773187883" flag="0"/>
			<vel value="0.0141330238211172" flag="0"/>
			<psa03 value="0.0524378661566145" flag="0"/>
			<psa10 value="0.0115488583723083" flag="0"/>
			<psa30 value="0.00413731184599159" flag="0"/>
		</comp>
	</station>
	<station code="CESE" name="CESE" netid="KO" source="Bogazici University Kandilli Observatory And Earthquake Research Institute (KOERI)" insttype="" lat="38.3306" lon="26.2997">
		<comp name="--.HNE" depth="0.0">
			<acc value="0.0551661469268125" flag="0"/>
			<vel value="0.0227790025150905" flag="0"/>
			<psa03 value="0.110692219173604" flag="0"/>
			<psa10 value="0.0252762147848603" flag="0"/>
			<psa30 value="0.00354134565383621" flag="0"/>
		</comp>
		<comp name="--.HNN" depth="0.0">
			<acc value="0.0832354916331933" flag="0"/>
			<vel value="0.0388120323841197" flag="0"/>
			<psa03 value="0.182369234176076" flag="0"/>
			<psa10 value="0.0466987833136888" flag="0"/>
			<psa30 value="0.0078571789042347" flag="0"/>
		</comp>
		<comp name="--.HNZ" depth="0.0">
			<acc value="0.044755882234548" flag="0"/>
			<vel value="0.0184170183094524" flag="0"/>
			<psa03 value="0.0714980461759983" flag="0"/>
			<psa10 value="0.0152454594831099" flag="0"/>
			<psa30 value="0.00294001039688664" flag="0"/>
		</comp>
	</station>
	<station code="DATC" name="DATC" netid="KO" source="Bogazici University Kandilli Observatory And Earthquake Research Institute (KOERI)" insttype="" lat="36.7584" lon="27.6602">
		<comp name="--.HNE" depth="0.0">
			<acc value="0.747329682500557" flag="0"/>
			<vel value="0.747739165470933" flag="0"/>
			<psa03 value="1.47260024642718" flag="0"/>
			<psa10 value="0.710641362562143" flag="0"/>
			<psa30 value="0.071208564099178" flag="0"/>
		</comp>
		<comp name="--.HNN" depth="0.0">
			<acc value="1.67907972297025" flag="0"/>
			<vel value="1.46151008620849" flag="0"/>
			<psa03 value="2.54346021962889" flag="0"/>
			<psa10 value="1.15309793865436" flag="0"/>
			<psa30 value="0.131195335356427" flag="0"/>
		</comp>
		<comp name="--.HNZ" depth="0.0">
			<acc value="0.396747276734493" flag="0"/>
			<vel value="0.38449807284658" flag="0"/>
			<psa03 value="0.801198693913392" flag="0"/>
			<psa10 value="0.63236442466141" flag="0"/>
			<psa30 value="0.0421972699058245" flag="0"/>
		</comp>
	</station>
	<station code="EZNE" name="EZNE" netid="KO" source="Bogazici University Kandilli Observatory And Earthquake Research Institute (KOERI)" insttype="" lat="39.756" lon="26.3655">
		<comp name="--.HNE" depth="0.0">
			<acc value="0.0607656010771788" flag="0"/>
			<vel value="0.0307091480757461" flag="0"/>
			<psa03 value="0.167917501438374" flag="0"/>
			<psa10 value="0.0345700659436077" flag="0"/>
			<psa30 value="0.00857976554111979" flag="0"/>
		</comp>
		<comp name="--.HNN" depth="0.0">
			<acc value="0.0674980889360739" flag="0"/>
			<vel value="0.0322301268886361" flag="0"/>
			<psa03 value="0.180624288117963" flag="0"/>
			<psa10 value="0.0341432252924694" flag="0"/>
			<psa30 value="0.00580216935425748" flag="0"/>
		</comp>
		<comp name="--.HNZ" depth="0.0">
			<acc value="0.0270199375305583" flag="0"/>
			<vel value="0.0154738203625504" flag="0"/>
			<psa03 value="0.0953456423035371" flag="0"/>
			<psa10 value="0.0185313271371558" flag="0"/>
			<psa30 value="0.00458294422390958" flag="0"/>
		</comp>
	</station>
	<station code="FOCM" name="FOCM" netid="KO" source="Bogazici University Kandilli Observatory And Earthquake Research Institute (KOERI)" insttype="" lat="38.7131" lon="26.7309">
		<comp name="--.HNE" depth="0.0">
			<acc value="0.0830588266645289" flag="0"/>
			<vel value="0.0333945177076645" flag="0"/>
			<psa03 value="0.216865475478763" flag="0"/>
			<psa10 value="0.0211527730229203" flag="0"/>
			<psa30 value="0.00462500189813075" flag="0"/>
		</comp>
		<comp name="--.HNN" depth="0.0">
			<acc value="0.117189413946569" flag="0"/>
			<vel value="0.039781156509148" flag="0"/>
			<psa03 value="0.166127813173643" flag="0"/>
			<psa10 value="0.0214588097161893" flag="0"/>
			<psa30 value="0.003256785219744" flag="0"/>
		</comp>
		<comp name="--.HNZ" depth="0.0">
			<acc value="0.0560783750380318" flag="0"/>
			<vel value="0.0263558428319152" flag="0"/>
			<psa03 value="0.130960438771681" flag="0"/>
			<psa10 value="0.0129179698948274" flag="0"/>
			<psa30 value="0.00217178670925091" flag="0"/>
		</comp>
	</station>
	<station code="GMLD" name="GMLD" netid="KO" source="Bogazici University Kandilli Observatory And Earthquake Research Institute (KOERI)" insttype="" lat="38.0766" lon="26.9157">
		<comp name="--.HNE" depth="0.0">
			<acc value="5.87450451039125" flag="0"/>
			<vel value="1.63983242891009" flag="0"/>
			<psa03 value="8.3248691900155" flag="0"/>
			<psa10 value="1.09166509927921" flag="0"/>
			<psa30 value="0.062055203469212" flag="0"/>
		</comp>
		<comp name="--.HNN" depth="0.0">
			<acc value="4.80873376275467" flag="0"/>
			<vel value="1.66028721075312" flag="0"/>
			<psa03 value="5.70677896974733" flag="0"/>
			<psa10 value="0.766948087325039" flag="0"/>
			<psa30 value="0.103510647589306" flag="0"/>
		</comp>
		<comp name="--.HNZ" depth="0.0">
			<acc value="3.93156927226867" flag="0"/>
			<vel value="1.04254355892044" flag="0"/>
			<psa03 value="6.64989994305388" flag="0"/>
			<psa10 value="0.293815359531198" flag="0"/>
			<psa30 value="0.0404975134763963" flag="0"/>
		</comp>
	</station>
	<station code="GORD" name="GORD" netid="KO" source="Bogazici University Kandilli Observatory And Earthquake Research Institute (KOERI)" insttype="" lat="38.9088" lon="28.1769">
		<comp name="--.HNE" depth="0.0">
			<acc value="0.162232781726888" flag="0"/>
			<vel value="0.209191358060822" flag="0"/>
			<psa03 value="0.31740121375002" flag="0"/>
			<psa10 value="0.273395463852685" flag="0"/>
			<psa30 value="0.035974076387289" flag="0"/>
		</comp>
		<comp name="--.HNN" depth="0.0">
			<acc value="0.100273232305048" flag="0"/>
			<vel value="0.104254777003601" flag="0"/>
			<psa03 value="0.300533401854931" flag="0"/>
			<psa10 value="0.163826274065199" flag="0"/>
			<psa30 value="0.0221885551061333" flag="0"/>
		</comp>
		<comp name="--.HNZ" depth="0.0">
			<acc value="0.0970546218376622" flag="0"/>
			<vel value="0.105350642163086" flag="0"/>
			<psa03 value="0.176418520695846" flag="0"/>
			<psa10 value="0.103073963652711" flag="0"/>
			<psa30 value="0.0161286706417546" flag="0"/>
		</comp>
	</station>
	<station code="NAZL" name="NAZL" netid="KO" source="Bogazici University Kandilli Observatory And Earthquake Research Institute (KOERI)" insttype="" lat="37.9641" lon="28.2922">
		<comp name="--.HNE" depth="0.0">
			<acc value="0.33845806193346" flag="0"/>
			<vel value="0.240207733349185" flag="0"/>
			<psa03 value="1.20875545399923" flag="0"/>
			<psa10 value="0.261653319147786" flag="0"/>
			<psa30 value="0.018842732895219" flag="0"/>
		</comp>
		<comp name="--.HNN" depth="0.0">
			<acc value="0.312222503842938" flag="0"/>
			<vel value="0.229457789971685" flag="0"/>
			<psa03 value="0.939675823396943" flag="0"/>
			<psa10 value="0.277498771621646" flag="0"/>
			<psa30 value="0.0250587676606955" flag="0"/>
		</comp>
		<comp name="--.HNZ" depth="0.0">
			<acc value="0.154605825485919" flag="0"/>
			<vel value="0.147500600574406" flag="0"/>
			<psa03 value="0.414894481971234" flag="0"/>
			<psa10 value="0.127854882210307" flag="0"/>
			<psa30 value="0.00915604516236313" flag="0"/>
		</comp>
	</station>
	<station code="SOMA" name="SOMA" netid="KO" source="Bogazici University Kandilli Observatory And Earthquake Research Institute (KOERI)" insttype="" lat="39.1564" lon="27.5341">
		<comp name="--.HNE" depth="0.0">
			<acc value="0.245472576889254" flag="0"/>
			<vel value="0.112778124338362" flag="0"/>
			<psa03 value="0.785359952770524" flag="0"/>
			<psa10 value="0.0817560918873694" flag="0"/>
			<psa30 value="0.0147139220684848" flag="0"/>
		</comp>
		<comp name="--.HNN" depth="0.0">
			<acc value="0.251673488791073" flag="0"/>
			<vel value="0.129679439757545" flag="0"/>
			<psa03 value="0.66276630663646" flag="0"/>
			<psa10 value="0.0792272623693047" flag="0"/>
			<psa30 value="0.0170293312609804" flag="0"/>
		</comp>
		<comp name="--.HNZ" depth="0.0">
			<acc value="0.149713590398273" flag="0"/>
			<vel value="0.0701057620267711" flag="0"/>
			<psa03 value="0.372657838923585" flag="0"/>
			<psa10 value="0.0439001582897159" flag="0"/>
			<psa30 value="0.0145215305800263" flag="0"/>
		</comp>
	</station>
	<station code="YKAV" name="YKAV" netid="KO" source="Bogazici University Kandilli Observatory And Earthquake Research Institute (KOERI)" insttype="" lat="37.1246" lon="27.2801">
		<comp name="--.HNE" depth="0.0">
			<acc value="0.1925279044129" flag="0"/>
			<vel value="0.202412668909784" flag="0"/>
			<psa03 value="0.52657102969044" flag="0"/>
			<psa10 value="0.283100048468188" flag="0"/>
			<psa30 value="0.0187286402683424" flag="0"/>
		</comp>
		<comp name="--.HNN" depth="0.0">
			<acc value="0.125107947584461" flag="0"/>
			<vel value="0.106213730355921" flag="0"/>
			<psa03 value="0.26769262219712" flag="0"/>
			<psa10 value="0.120747582688995" flag="0"/>
			<psa30 value="0.00819587740833502" flag="0"/>
		</comp>
		<comp name="--.HNZ" depth="0.0">
			<acc value="0.0873025294044807" flag="0"/>
			<vel value="0.056396234269485" flag="0"/>
			<psa03 value="0.224068970744305" flag="0"/>
			<psa10 value="0.0520181842585351" flag="0"/>
			<psa30 value="0.00483931706783227" flag="0"/>
		</comp>
	</station>
</stationlist>
