<stationlist xmlns:esm="https://esm-db.eu/esmws/shakemap/1/" created="1780710964">
	<station code="MYT1" name="MYT1" netid="HI" source="ITSAK Strong Motion Network" insttype="" lat="39.085" lon="26.5694" esm:processing="manual (Paolucci et al 2011)" esm:quality="good">
		<comp name="--.HNE" depth="0.0">
			<acc value="0.0350254601047581" flag="0"/>
			<vel value="0.0287285700141721" flag="0"/>
			<psa03 value="0.122525397956411" flag="0"/>
			<psa10 value="0.0476133078977984" flag="0"/>
			<psa30 value="0.00732746207505257" flag="0"/>
		</comp>
		<comp name="--.HNN" depth="0.0">
			<acc value="0.0290586710304308" flag="0"/>
			<vel value="0.0244317166113552" flag="0"/>
			<psa03 value="0.0908883438234397" flag="0"/>
			<psa10 value="0.0433881317507847" flag="0"/>
			<psa30 value="0.00499211195291621" flag="0"/>
		</comp>
		<comp name="--.HNZ" depth="0.0">
			<acc value="0.0215858623410338" flag="0"/>
			<vel value="0.0149768262018321" flag="0"/>
			<psa03 value="0.0762008031375895" flag="0"/>
			<psa10 value="0.0330722146219006" flag="0"/>
			<psa30 value="0.00457130324307879" flag="0"/>
		</comp>
	</station>
	<station code="NAX1" name="NAX1" netid="HI" source="ITSAK Strong Motion Network" insttype="" lat="37.101394" lon="25.374103" esm:processing="manual (Paolucci et al 2011)" esm:quality="good">
		<comp name="--.HNE" depth="0.0">
			<acc value="0.0352437443643408" flag="0"/>
			<vel value="0.0151902133925204" flag="0"/>
			<psa03 value="0.0969593189121703" flag="0"/>
			<psa10 value="0.0124128516654871" flag="0"/>
			<psa30 value="0.00251863538889973" flag="0"/>
		</comp>
		<comp name="--.HNN" depth="0.0">
			<acc value="0.0259333449215361" flag="0"/>
			<vel value="0.0130141101481211" flag="0"/>
			<psa03 value="0.0483706991131" flag="0"/>
			<psa10 value="0.012719135392783" flag="0"/>
			<psa30 value="0.00324365258439721" flag="0"/>
		</comp>
		<comp name="--.HNZ" depth="0.0">
			<acc value="0.0182416026048116" flag="0"/>
			<vel value="0.0095895998684618" flag="0"/>
			<psa03 value="0.0622304037088381" flag="0"/>
			<psa10 value="0.00792392242096981" flag="0"/>
			<psa30 value="0.00142182033445455" flag="0"/>
		</comp>
	</station>
	<station code="PLM1" name="PLM1" netid="HI" source="ITSAK Strong Motion Network" insttype="" lat="38.9751" lon="26.3688" esm:processing="manual (Paolucci et al 2011)" esm:quality="good">
		<comp name="--.HNE" depth="0.0">
			<acc value="0.0485324112446526" flag="0"/>
			<vel value="0.0220299598071478" flag="0"/>
			<psa03 value="0.143376331311628" flag="0"/>
			<psa10 value="0.0143615988854431" flag="0"/>
			<psa30 value="0.00437382766128359" flag="0"/>
		</comp>
		<comp name="--.HNN" depth="0.0">
			<acc value="0.0486625928820884" flag="0"/>
			<vel value="0.0230892321124016" flag="0"/>
			<psa03 value="0.153571923386232" flag="0"/>
			<psa10 value="0.0198617657445041" flag="0"/>
			<psa30 value="0.00366370478579486" flag="0"/>
		</comp>
		<comp name="--.HNZ" depth="0.0">
			<acc value="0.0167495282418939" flag="0"/>
			<vel value="0.00978325417379166" flag="0"/>
			<psa03 value="0.0395005073397528" flag="0"/>
			<psa10 value="0.0112016217399656" flag="0"/>
			<psa30 value="0.00197819896263944" flag="0"/>
		</comp>
	</station>
	<station code="RPN1" name="RPN1" netid="HI" source="ITSAK Strong Motion Network" insttype="" lat="36.448678" lon="28.218047" esm:processing="manual (Paolucci et al 2011)" esm:quality="good">
		<comp name="--.HNE" depth="0.0">
			<acc value="0.0302655964200606" flag="0"/>
			<vel value="0.048251152562916" flag="0"/>
			<psa03 value="0.0583557772421803" flag="0"/>
			<psa10 value="0.0595178715168894" flag="0"/>
			<psa30 value="0.0126250163453725" flag="0"/>
		</comp>
		<comp name="--.HNN" depth="0.0">
			<acc value="0.0320058446750138" flag="0"/>
			<vel value="0.0397405521373606" flag="0"/>
			<psa03 value="0.0787183188689622" flag="0"/>
			<psa10 value="0.0623785385220391" flag="0"/>
			<psa30 value="0.00830775368124237" flag="0"/>
		</comp>
		<comp name="--.HNZ" depth="0.0">
			<acc value="0.0165874536060183" flag="0"/>
			<vel value="0.0190265373796798" flag="0"/>
			<psa03 value="0.0422362354433134" flag="0"/>
			<psa10 value="0.0433229749344713" flag="0"/>
			<psa30 value="0.00366375312233025" flag="0"/>
		</comp>
	</station>
	<station code="RSO1" name="RSO1" netid="HI" source="ITSAK Strong Motion Network" insttype="" lat="36.3632" lon="28.0016" esm:processing="manual (Paolucci et al 2011)" esm:quality="good">
		<comp name="--.HNE" depth="0.0">
			<acc value="0.0379877507199543" flag="0"/>
			<vel value="0.0413542727062826" flag="0"/>
			<psa03 value="0.113111857688781" flag="0"/>
			<psa10 value="0.0622586205780638" flag="0"/>
			<psa30 value="0.00961326933191376" flag="0"/>
		</comp>
		<comp name="--.HNN" depth="0.0">
			<acc value="0.0320756193128188" flag="0"/>
			<vel value="0.0478854930026148" flag="0"/>
			<psa03 value="0.0844685018736992" flag="0"/>
			<psa10 value="0.0738533049189976" flag="0"/>
			<psa30 value="0.00899338076733861" flag="0"/>
		</comp>
		<comp name="--.HNZ" depth="0.0">
			<acc value="0.0184985900117156" flag="0"/>
			<vel value="0.0218793762148707" flag="0"/>
			<psa03 value="0.0556891578834016" flag="0"/>
			<psa10 value="0.038743737832487" flag="0"/>
			<psa30 value="0.00407638337372599" flag="0"/>
		</comp>
	</station>
	<station code="SGR1" name="SGR1" netid="HI" source="ITSAK Strong Motion Network" insttype="" lat="39.211392" lon="25.855221" esm:processing="manual (Paolucci et al 2011)" esm:quality="good">
		<comp name="--.HNE" depth="0.0">
			<acc value="0.0144986595842207" flag="0"/>
			<vel value="0.00972980577367863" flag="0"/>
			<psa03 value="0.0398734278772416" flag="0"/>
			<psa10 value="0.00684064394033891" flag="0"/>
			<psa30 value="0.00196724907059617" flag="0"/>
		</comp>
		<comp name="--.HNN" depth="0.0">
			<acc value="0.0235015702752805" flag="0"/>
			<vel value="0.0114550350549167" flag="0"/>
			<psa03 value="0.0656474477795678" flag="0"/>
			<psa10 value="0.0134154308939572" flag="0"/>
			<psa30 value="0.00147408650516319" flag="0"/>
		</comp>
		<comp name="--.HNZ" depth="0.0">
			<acc value="0.0105974556005081" flag="0"/>
			<vel value="0.00658463623456069" flag="0"/>
			<psa03 value="0.044738526207796" flag="0"/>
			<psa10 value="0.00409910404552566" flag="0"/>
			<psa30 value="0.00166844833901414" flag="0"/>
		</comp>
	</station>
	<station code="KLNA" name="KLNA" netid="HL" source="National Observatory of Athens Seismic Network" insttype="" lat="36.95708" lon="26.97274" esm:processing="manual (Paolucci et al 2011)" esm:quality="good">
		<comp name="00.HNE" depth="0.0">
			<acc value="0.211016367253862" flag="0"/>
			<vel value="0.107300946418272" flag="0"/>
			<psa03 value="0.604288242586378" flag="0"/>
			<psa10 value="0.0436102287908295" flag="0"/>
			<psa30 value="0.00893994030439688" flag="0"/>
		</comp>
		<comp name="00.HNN" depth="0.0">
			<acc value="0.198293513769844" flag="0"/>
			<vel value="0.112976568235424" flag="0"/>
			<psa03 value="0.544378427924513" flag="0"/>
			<psa10 value="0.049324255998049" flag="0"/>
			<psa30 value="0.00653862607519423" flag="0"/>
		</comp>
		<comp name="00.HNZ" depth="0.0">
			<acc value="0.174355100175144" flag="0"/>
			<vel value="0.0609623067779797" flag="0"/>
			<psa03 value="0.358116621772647" flag="0"/>
			<psa10 value="0.0332331688098537" flag="0"/>
			<psa30 value="0.00566212624754229" flag="0"/>
		</comp>
	</station>
	<station code="PRK" name="PRK" netid="HL" source="National Observatory of Athens Seismic Network" insttype="" lat="39.24565" lon="26.26499" esm:processing="manual (Paolucci et al 2011)" esm:quality="good">
		<comp name="--.HNE" depth="0.0">
			<acc value="0.0330325126719391" flag="0"/>
			<vel value="0.0270600840095457" flag="0"/>
			<psa03 value="0.0800714397566574" flag="0"/>
			<psa10 value="0.0429437348118568" flag="0"/>
			<psa30 value="0.00302156953915088" flag="0"/>
		</comp>
		<comp name="--.HNN" depth="0.0">
			<acc value="0.0453071510031013" flag="0"/>
			<vel value="0.0328009597848446" flag="0"/>
			<psa03 value="0.163085501530699" flag="0"/>
			<psa10 value="0.0272636685842533" flag="0"/>
			<psa30 value="0.00464602235950026" flag="0"/>
		</comp>
		<comp name="--.HNZ" depth="0.0">
			<acc value="0.0250906816882166" flag="0"/>
			<vel value="0.0160293875180935" flag="0"/>
			<psa03 value="0.075351397910191" flag="0"/>
			<psa10 value="0.016608972762935" flag="0"/>
			<psa30 value="0.00227341310245875" flag="0"/>
		</comp>
	</station>
	<station code="CESE" name="CESE" netid="KO" source="Bogazici University Kandilli Observatory And Earthquake Research Institute (KOERI)" insttype="" lat="38.3306" lon="26.2997" esm:processing="manual (Paolucci et al 2011)" esm:quality="good">
		<comp name="--.HNE" depth="0.0">
			<acc value="0.0551661469268125" flag="0"/>
			<vel value="0.0227790025150905" flag="0"/>
			<psa03 value="0.110692219173604" flag="0"/>
			<psa10 value="0.0252762147848603" flag="0"/>
			<psa30 value="0.00354134565383621" flag="0"/>
		</comp>
		<comp name="--.HNN" depth="0.0">
			<acc value="0.0832354916331933" flag="0"/>
			<vel value="0.0388120323841197" flag="0"/>
			<psa03 value="0.182369234176076" flag="0"/>
			<psa10 value="0.0466987833136888" flag="0"/>
			<psa30 value="0.0078571789042347" flag="0"/>
		</comp>
		<comp name="--.HNZ" depth="0.0">
			<acc value="0.044755882234548" flag="0"/>
			<vel value="0.0184170183094524" flag="0"/>
			<psa03 value="0.0714980461759983" flag="0"/>
			<psa10 value="0.0152454594831099" flag="0"/>
			<psa30 value="0.00294001039688664" flag="0"/>
		</comp>
	</station>
	<station code="GMLD" name="GMLD" netid="KO" source="Bogazici University Kandilli Observatory And Earthquake Research Institute (KOERI)" insttype="" lat="38.0766" lon="26.9157" esm:processing="manual (Paolucci et al 2011)" esm:quality="bad">
		<comp name="--.HNE" depth="0.0">
			<acc value="5.87450451039125" flag="0"/>
			<vel value="1.63983242891009" flag="0"/>
			<psa03 value="8.3248691900155" flag="0"/>
			<psa10 value="1.09166509927921" flag="0"/>
			<psa30 value="0.062055203469212" flag="0"/>
		</comp>
		<comp name="--.HNN" depth="0.0">
			<acc value="4.80873376275467" flag="0"/>
			<vel value="1.66028721075312" flag="0"/>
			<psa03 value="5.70677896974733" flag="0"/>
			<psa10 value="0.766948087325039" flag="0"/>
			<psa30 value="0.103510647589306" flag="0"/>
		</comp>
		<comp name="--.HNZ" depth="0.0">
			<acc value="3.93156927226867" flag="0"/>
			<vel value="1.04254355892044" flag="0"/>
			<psa03 value="6.64989994305388" flag="0"/>
			<psa10 value="0.293815359531198" flag="0"/>
			<psa30 value="0.0404975134763963" flag="0"/>
		</comp>
	</station>
	<station code="GORD" name="GORD" netid="KO" source="Bogazici University Kandilli Observatory And Earthquake Research Institute (KOERI)" insttype="" lat="38.9088" lon="28.1769" esm:processing="automatic (Paolucci et al 2011)" esm:quality="best">
		<comp name="--.HNE" depth="0.0">
			<acc value="0.162232781726888" flag="0"/>
			<vel value="0.209191358060822" flag="0"/>
			<psa03 value="0.31740121375002" flag="0"/>
			<psa10 value="0.273395463852685" flag="0"/>
			<psa30 value="0.035974076387289" flag="0"/>
		</comp>
		<comp name="--.HNN" depth="0.0">
			<acc value="0.100273232305048" flag="0"/>
			<vel value="0.104254777003601" flag="0"/>
			<psa03 value="0.300533401854931" flag="0"/>
			<psa10 value="0.163826274065199" flag="0"/>
			<psa30 value="0.0221885551061333" flag="0"/>
		</comp>
		<comp name="--.HNZ" depth="0.0">
			<acc value="0.0970546218376622" flag="0"/>
			<vel value="0.105350642163086" flag="0"/>
			<psa03 value="0.176418520695846" flag="0"/>
			<psa10 value="0.103073963652711" flag="0"/>
			<psa30 value="0.0161286706417546" flag="0"/>
		</comp>
	</station>
	<station code="SOMA" name="SOMA" netid="KO" source="Bogazici University Kandilli Observatory And Earthquake Research Institute (KOERI)" insttype="" lat="39.1564" lon="27.5341" esm:processing="automatic (Paolucci et al 2011)" esm:quality="best">
		<comp name="--.HNE" depth="0.0">
			<acc value="0.245472576889254" flag="0"/>
			<vel value="0.112778124338362" flag="0"/>
			<psa03 value="0.785359952770524" flag="0"/>
			<psa10 value="0.0817560918873694" flag="0"/>
			<psa30 value="0.0147139220684848" flag="0"/>
		</comp>
		<comp name="--.HNN" depth="0.0">
			<acc value="0.251673488791073" flag="0"/>
			<vel value="0.129679439757545" flag="0"/>
			<psa03 value="0.66276630663646" flag="0"/>
			<psa10 value="0.0792272623693047" flag="0"/>
			<psa30 value="0.0170293312609804" flag="0"/>
		</comp>
		<comp name="--.HNZ" depth="0.0">
			<acc value="0.149713590398273" flag="0"/>
			<vel value="0.0701057620267711" flag="0"/>
			<psa03 value="0.372657838923585" flag="0"/>
			<psa10 value="0.0439001582897159" flag="0"/>
			<psa30 value="0.0145215305800263" flag="0"/>
		</comp>
	</station>
</stationlist>
