<?xml version="1.0" encoding="UTF-8" standalone="yes"?>
<!DOCTYPE earthquake SYSTEM "stationlist.dtd">
<stationlist created="" xmlns="ch.ethz.sed.shakemap.usgs.xml">
  <station code="KUSD" name="KUSD" netid="KO" insttype="100" lat="37.86" lon="27.2815">
    <comp name="--.HNE">
      <acc value="0.1564365778" flag="0"/>
      <vel value="0.0972715196" flag="0"/>
      <psa03 value="0.3384789771" flag="0"/>
      <psa10 value="0.1113381373" flag="0"/>
      <psa30 value="0.0050450220" flag="0"/>
    </comp>
    <comp name="--.HNN">
      <acc value="0.1325142437" flag="0"/>
      <vel value="0.0467584614" flag="0"/>
      <psa03 value="0.2752771656" flag="0"/>
      <psa10 value="0.0721901795" flag="0"/>
      <psa30 value="0.0067429069" flag="0"/>
    </comp>
    <comp name="--.HNZ">
      <acc value="0.0871648446" flag="0"/>
      <vel value="0.0314802897" flag="0"/>
      <psa03 value="0.1181162285" flag="0"/>
      <psa10 value="0.0364356569" flag="0"/>
      <psa30 value="0.0042746434" flag="0"/>
    </comp>
  </station>
</stationlist>
