<stationlist created="1631873514">
	<station code="KLNA" name="KLNA" netid="HL" source="National Observatory of Athens Seismic Network" insttype="" lat="36.95708" lon="26.97274">
		<comp name="--.HNE" depth="0.0">
			<acc value="-0.211016376" flag="0"/>
			<vel value="0.107301" flag="0"/>
			<psa03 value="0.604288242586" flag="0"/>
			<psa10 value="0.0436102287908" flag="0"/>
			<psa30 value="0.0089399403044" flag="0"/>
		</comp>
		<comp name="--.HNN" depth="0.0">
			<acc value="0.198293508" flag="0"/>
			<vel value="0.112977" flag="0"/>
			<psa03 value="0.544378427925" flag="0"/>
			<psa10 value="0.049324255998" flag="0"/>
			<psa30 value="0.00653862607519" flag="0"/>
		</comp>
		<comp name="--.HNZ" depth="0.0">
			<acc value="-0.174355128" flag="0"/>
			<vel value="-0.060962" flag="0"/>
			<psa03 value="0.358116621773" flag="0"/>
			<psa10 value="0.0332331688099" flag="0"/>
			<psa30 value="0.00566212624754" flag="0"/>
		</comp>
	</station>
	<station code="CESE" name="CESE" netid="KO" source="Bogazici University Kandilli Observatory And Earthquake Research Institute (KOERI)" insttype="" lat="38.3306" lon="26.2997">
		<comp name="--.HNE" depth="0.0">
			<acc value="0.054690666" flag="0"/>
			<vel value="-0.022724" flag="0"/>
			<psa03 value="0.110692219174" flag="0"/>
			<psa10 value="0.0252762147849" flag="0"/>
			<psa30 value="0.00354134565384" flag="0"/>
		</comp>
		<comp name="--.HNN" depth="0.0">
			<acc value="0.082792176" flag="0"/>
			<vel value="-0.038659" flag="0"/>
			<psa03 value="0.182369234176" flag="0"/>
			<psa10 value="0.0466987833137" flag="0"/>
			<psa30 value="0.00785717890423" flag="0"/>
		</comp>
		<comp name="--.HNZ" depth="0.0">
			<acc value="0.044402028" flag="0"/>
			<vel value="0.018355" flag="0"/>
			<psa03 value="0.071498046176" flag="0"/>
			<psa10 value="0.0152454594831" flag="0"/>
			<psa30 value="0.00294001039689" flag="0"/>
		</comp>
	</station>
	<station code="GMLD" name="GMLD" netid="KO" source="Bogazici University Kandilli Observatory And Earthquake Research Institute (KOERI)" insttype="" lat="38.0766" lon="26.9157">
		<comp name="--.HNE" depth="0.0">
			<acc value="5.775250506" flag="0"/>
			<vel value="1.632273" flag="0"/>
			<psa03 value="8.32486919002" flag="0"/>
			<psa10 value="1.09166509928" flag="0"/>
			<psa30 value="0.0620552034692" flag="0"/>
		</comp>
		<comp name="--.HNN" depth="0.0">
			<acc value="-4.73411478" flag="0"/>
			<vel value="-1.652932" flag="0"/>
			<psa03 value="5.70677896975" flag="0"/>
			<psa10 value="0.766948087325" flag="0"/>
			<psa30 value="0.103510647589" flag="0"/>
		</comp>
		<comp name="--.HNZ" depth="0.0">
			<acc value="3.893701692" flag="0"/>
			<vel value="-1.037361" flag="0"/>
			<psa03 value="6.64989994305" flag="0"/>
			<psa10 value="0.293815359531" flag="0"/>
			<psa30 value="0.0404975134764" flag="0"/>
		</comp>
	</station>
</stationlist>
