<stationlist created="1642764340">
	<station code="MYT1" name="MYT1" netid="HI" source="ITSAK Strong Motion Network" insttype="" lat="39.085" lon="26.5694">
		<comp name=".HNE" depth="0.0">
			<acc value="0.034947954" flag="0"/>
			<vel value="0.028698" flag="0"/>
			<psa03 value="0.122548903927" flag="0"/>
			<psa10 value="0.0476249469907" flag="0"/>
			<psa30 value="0.00728045186093" flag="0"/>
		</comp>
		<comp name=".HNN" depth="0.0">
			<acc value="0.02898228" flag="0"/>
			<vel value="0.024301" flag="0"/>
			<psa03 value="0.0908714216417" flag="0"/>
			<psa10 value="0.0433807012709" flag="0"/>
			<psa30 value="0.00497891275248" flag="0"/>
		</comp>
		<comp name=".HNZ" depth="0.0">
			<acc value="0.021509862" flag="0"/>
			<vel value="0.014916" flag="0"/>
			<psa03 value="0.0761959778709" flag="0"/>
			<psa10 value="0.0330559896716" flag="0"/>
			<psa30 value="0.00455744116614" flag="0"/>
		</comp>
	</station>
	<station code="NAX1" name="NAX1" netid="HI" source="ITSAK Strong Motion Network" insttype="" lat="37.101394" lon="25.374103">
		<comp name=".HNE" depth="0.0">
			<acc value="0.035063112" flag="0"/>
			<vel value="0.015243" flag="0"/>
			<psa03 value="0.0969563617418" flag="0"/>
			<psa10 value="0.012418646869" flag="0"/>
			<psa30 value="0.0025230130312" flag="0"/>
		</comp>
		<comp name=".HNN" depth="0.0">
			<acc value="0.025825686" flag="0"/>
			<vel value="0.012745" flag="0"/>
			<psa03 value="0.0483663253544" flag="0"/>
			<psa10 value="0.0127246835622" flag="0"/>
			<psa30 value="0.00325275842115" flag="0"/>
		</comp>
		<comp name=".HNZ" depth="0.0">
			<acc value="0.018141108" flag="0"/>
			<vel value="0.009583" flag="0"/>
			<psa03 value="0.062236409406" flag="0"/>
			<psa10 value="0.00792473963623" flag="0"/>
			<psa30 value="0.00140311559955" flag="0"/>
		</comp>
	</station>
	<station code="RDI1" name="RDI1" netid="HI" source="ITSAK Strong Motion Network" insttype="" lat="36.4514" lon="28.224">
		<comp name=".HNE" depth="0.0">
			<acc value="0.035185002" flag="0"/>
			<vel value="0.050455" flag="0"/>
			<psa03 value="0.0701110377708" flag="0"/>
			<psa10 value="0.0597939323467" flag="0"/>
			<psa30 value="0.0102298581212" flag="0"/>
		</comp>
		<comp name=".HNN" depth="0.0">
			<acc value="0.033853902" flag="0"/>
			<vel value="0.048736" flag="0"/>
			<psa03 value="0.0630417691251" flag="0"/>
			<psa10 value="0.0693454986156" flag="0"/>
			<psa30 value="0.0115448315737" flag="0"/>
		</comp>
		<comp name=".HNZ" depth="0.0">
			<acc value="0.021912456" flag="0"/>
			<vel value="0.024374" flag="0"/>
			<psa03 value="0.0559277582728" flag="0"/>
			<psa10 value="0.034735164686" flag="0"/>
			<psa30 value="0.0056706272668" flag="0"/>
		</comp>
	</station>
	<station code="ASTA" name="ASTA" netid="HL" source="National Observatory of Athens Seismic Network" insttype="" lat="36.54543" lon="26.3528">
		<comp name="00.HNE" depth="0.0">
			<acc value="0.015260016" flag="0"/>
			<vel value="0.013167" flag="0"/>
			<psa03 value="0.0344067568895" flag="0"/>
			<psa10 value="0.0209353258988" flag="0"/>
			<psa30 value="0.00206440541337" flag="0"/>
		</comp>
		<comp name="00.HNN" depth="0.0">
			<acc value="0.016524918" flag="0"/>
			<vel value="0.015418" flag="0"/>
			<psa03 value="0.0442947845521" flag="0"/>
			<psa10 value="0.0177702622026" flag="0"/>
			<psa30 value="0.00193465301417" flag="0"/>
		</comp>
		<comp name="00.HNZ" depth="0.0">
			<acc value="0.010029762" flag="0"/>
			<vel value="0.010415" flag="0"/>
			<psa03 value="0.0257267688055" flag="0"/>
			<psa10 value="0.0141703042581" flag="0"/>
			<psa30 value="0.00235209780192" flag="0"/>
		</comp>
	</station>
	<station code="KLNA" name="KLNA" netid="HL" source="National Observatory of Athens Seismic Network" insttype="" lat="36.95708" lon="26.97274">
		<comp name="00.HNE" depth="0.0">
			<acc value="0.211016376" flag="0"/>
			<vel value="0.107301" flag="0"/>
			<psa03 value="0.604288242586" flag="0"/>
			<psa10 value="0.0436102287908" flag="0"/>
			<psa30 value="0.0089399403044" flag="0"/>
		</comp>
		<comp name="00.HNN" depth="0.0">
			<acc value="0.198293508" flag="0"/>
			<vel value="0.112977" flag="0"/>
			<psa03 value="0.544378427925" flag="0"/>
			<psa10 value="0.049324255998" flag="0"/>
			<psa30 value="0.00653862607519" flag="0"/>
		</comp>
		<comp name="00.HNZ" depth="0.0">
			<acc value="0.174355128" flag="0"/>
			<vel value="0.060962" flag="0"/>
			<psa03 value="0.358116621773" flag="0"/>
			<psa10 value="0.0332331688099" flag="0"/>
			<psa30 value="0.00566212624754" flag="0"/>
		</comp>
	</station>
	<station code="PRK" name="PRK" netid="HL" source="National Observatory of Athens Seismic Network" insttype="" lat="39.24565" lon="26.26499">
		<comp name=".HNE" depth="0.0">
			<acc value="0.032942328" flag="0"/>
			<vel value="0.027028" flag="0"/>
			<psa03 value="0.0800885498467" flag="0"/>
			<psa10 value="0.042941780224" flag="0"/>
			<psa30 value="0.00302144121293" flag="0"/>
		</comp>
		<comp name=".HNN" depth="0.0">
			<acc value="0.045213336" flag="0"/>
			<vel value="0.032761" flag="0"/>
			<psa03 value="0.163085343124" flag="0"/>
			<psa10 value="0.0272654532911" flag="0"/>
			<psa30 value="0.00464603073524" flag="0"/>
		</comp>
		<comp name=".HNZ" depth="0.0">
			<acc value="0.025026516" flag="0"/>
			<vel value="0.015988" flag="0"/>
			<psa03 value="0.0753458759452" flag="0"/>
			<psa10 value="0.016610544207" flag="0"/>
			<psa30 value="0.00227335151827" flag="0"/>
		</comp>
	</station>
	<station code="RODB" name="RODB" netid="HL" source="National Observatory of Athens Seismic Network" insttype="" lat="36.4471" lon="28.22116">
		<comp name="00.HNE" depth="0.0">
			<acc value="0.031655802" flag="0"/>
			<vel value="0.041981" flag="0"/>
			<psa03 value="0.0782093771687" flag="0"/>
			<psa10 value="0.0654636647694" flag="0"/>
			<psa30 value="0.0108549067477" flag="0"/>
		</comp>
		<comp name="00.HNN" depth="0.0">
			<acc value="0.026277648" flag="0"/>
			<vel value="0.034551" flag="0"/>
			<psa03 value="0.0608941432075" flag="0"/>
			<psa10 value="0.0634985870547" flag="0"/>
			<psa30 value="0.0152257729122" flag="0"/>
		</comp>
		<comp name="00.HNZ" depth="0.0">
			<acc value="0.020381436" flag="0"/>
			<vel value="0.02167" flag="0"/>
			<psa03 value="0.0479636454948" flag="0"/>
			<psa10 value="0.0393257150851" flag="0"/>
			<psa30 value="0.00447601035009" flag="0"/>
		</comp>
	</station>
	<station code="THRA" name="THRA" netid="HL" source="National Observatory of Athens Seismic Network" insttype="" lat="36.41502" lon="25.43244">
		<comp name="00.HNE" depth="0.0">
			<acc value="0.040346916" flag="0"/>
			<vel value="0.035632" flag="0"/>
			<psa03 value="0.121251379936" flag="0"/>
			<psa10 value="0.0820943429694" flag="0"/>
			<psa30 value="0.0114562420046" flag="0"/>
		</comp>
		<comp name="00.HNN" depth="0.0">
			<acc value="0.043655388" flag="0"/>
			<vel value="0.054307" flag="0"/>
			<psa03 value="0.122369935101" flag="0"/>
			<psa10 value="0.124395862217" flag="0"/>
			<psa30 value="0.0135797071307" flag="0"/>
		</comp>
		<comp name="00.HNZ" depth="0.0">
			<acc value="0.038507856" flag="0"/>
			<vel value="0.026561" flag="0"/>
			<psa03 value="0.0716322727959" flag="0"/>
			<psa10 value="0.0227232244752" flag="0"/>
			<psa30 value="0.00250780068095" flag="0"/>
		</comp>
	</station>
	<station code="TNSA" name="TNSA" netid="HL" source="National Observatory of Athens Seismic Network" insttype="" lat="37.53942" lon="25.1631">
		<comp name="00.HNE" depth="0.0">
			<acc value="0.017431188" flag="0"/>
			<vel value="0.00896" flag="0"/>
			<psa03 value="0.0325275842115" flag="0"/>
			<psa10 value="0.00851265223119" flag="0"/>
			<psa30 value="0.0017543419215" flag="0"/>
		</comp>
		<comp name="00.HNN" depth="0.0">
			<acc value="0.020481906" flag="0"/>
			<vel value="0.007399" flag="0"/>
			<psa03 value="0.0383888132785" flag="0"/>
			<psa10 value="0.00585093835947" flag="0"/>
			<psa30 value="0.00123756943506" flag="0"/>
		</comp>
		<comp name="00.HNZ" depth="0.0">
			<acc value="0.014195034" flag="0"/>
			<vel value="0.005177" flag="0"/>
			<psa03 value="0.0265768707313" flag="0"/>
			<psa10 value="0.0056415448325" flag="0"/>
			<psa30 value="0.00132750127036" flag="0"/>
		</comp>
	</station>
	<station code="AKS" name="AKS" netid="KO" source="Bogazici University Kandilli Observatory And Earthquake Research Institute (KOERI)" insttype="" lat="38.8785" lon="27.8129">
		<comp name=".HNE" depth="0.0">
			<acc value="0.050052828" flag="0"/>
			<vel value="0.032582" flag="0"/>
			<psa03 value="0.110960672413" flag="0"/>
			<psa10 value="0.0249218565084" flag="0"/>
			<psa30 value="0.00415207677418" flag="0"/>
		</comp>
		<comp name=".HNN" depth="0.0">
			<acc value="0.056461488" flag="0"/>
			<vel value="0.038311" flag="0"/>
			<psa03 value="0.124786014258" flag="0"/>
			<psa10 value="0.0367727247754" flag="0"/>
			<psa30 value="0.00615563278654" flag="0"/>
		</comp>
		<comp name=".HNZ" depth="0.0">
			<acc value="0.022998246" flag="0"/>
			<vel value="0.014419" flag="0"/>
			<psa03 value="0.0524378661566" flag="0"/>
			<psa10 value="0.0115488583723" flag="0"/>
			<psa30 value="0.00413731184599" flag="0"/>
		</comp>
	</station>
	<station code="CESE" name="CESE" netid="KO" source="Bogazici University Kandilli Observatory And Earthquake Research Institute (KOERI)" insttype="" lat="38.3306" lon="26.2997">
		<comp name=".HNE" depth="0.0">
			<acc value="0.054690666" flag="0"/>
			<vel value="0.022724" flag="0"/>
			<psa03 value="0.110692219174" flag="0"/>
			<psa10 value="0.0252762147849" flag="0"/>
			<psa30 value="0.00354134565384" flag="0"/>
		</comp>
		<comp name=".HNN" depth="0.0">
			<acc value="0.082792176" flag="0"/>
			<vel value="0.038659" flag="0"/>
			<psa03 value="0.182369234176" flag="0"/>
			<psa10 value="0.0466987833137" flag="0"/>
			<psa30 value="0.00785717890423" flag="0"/>
		</comp>
		<comp name=".HNZ" depth="0.0">
			<acc value="0.044402028" flag="0"/>
			<vel value="0.018355" flag="0"/>
			<psa03 value="0.071498046176" flag="0"/>
			<psa10 value="0.0152454594831" flag="0"/>
			<psa30 value="0.00294001039689" flag="0"/>
		</comp>
	</station>
	<station code="DATC" name="DATC" netid="KO" source="Bogazici University Kandilli Observatory And Earthquake Research Institute (KOERI)" insttype="" lat="36.7584" lon="27.6602">
		<comp name=".HNE" depth="0.0">
			<acc value="0.75595566" flag="0"/>
			<vel value="0.750972" flag="0"/>
			<psa03 value="1.47260024643" flag="0"/>
			<psa10 value="0.710641362562" flag="0"/>
			<psa30 value="0.0712085640992" flag="0"/>
		</comp>
		<comp name=".HNN" depth="0.0">
			<acc value="1.68135627" flag="0"/>
			<vel value="1.465847" flag="0"/>
			<psa03 value="2.54346021963" flag="0"/>
			<psa10 value="1.15309793865" flag="0"/>
			<psa30 value="0.131195335356" flag="0"/>
		</comp>
		<comp name=".HNZ" depth="0.0">
			<acc value="0.40333452" flag="0"/>
			<vel value="0.384832" flag="0"/>
			<psa03 value="0.801198693913" flag="0"/>
			<psa10 value="0.632364424661" flag="0"/>
			<psa30 value="0.0421972699058" flag="0"/>
		</comp>
	</station>
	<station code="EZNE" name="EZNE" netid="KO" source="Bogazici University Kandilli Observatory And Earthquake Research Institute (KOERI)" insttype="" lat="39.756" lon="26.3655">
		<comp name=".HNE" depth="0.0">
			<acc value="0.063081696" flag="0"/>
			<vel value="0.031816" flag="0"/>
			<psa03 value="0.167917501438" flag="0"/>
			<psa10 value="0.0345700659436" flag="0"/>
			<psa30 value="0.00857976554112" flag="0"/>
		</comp>
		<comp name=".HNN" depth="0.0">
			<acc value="0.068442306" flag="0"/>
			<vel value="0.03204" flag="0"/>
			<psa03 value="0.180624288118" flag="0"/>
			<psa10 value="0.0341432252925" flag="0"/>
			<psa30 value="0.00580216935426" flag="0"/>
		</comp>
		<comp name=".HNZ" depth="0.0">
			<acc value="0.02832387" flag="0"/>
			<vel value="0.015066" flag="0"/>
			<psa03 value="0.0953456423035" flag="0"/>
			<psa10 value="0.0185313271372" flag="0"/>
			<psa30 value="0.00458294422391" flag="0"/>
		</comp>
	</station>
	<station code="FOCM" name="FOCM" netid="KO" source="Bogazici University Kandilli Observatory And Earthquake Research Institute (KOERI)" insttype="" lat="38.7131" lon="26.7309">
		<comp name=".HNE" depth="0.0">
			<acc value="0.083019126" flag="0"/>
			<vel value="0.033229" flag="0"/>
			<psa03 value="0.216865475479" flag="0"/>
			<psa10 value="0.0211527730229" flag="0"/>
			<psa30 value="0.00462500189813" flag="0"/>
		</comp>
		<comp name=".HNN" depth="0.0">
			<acc value="0.11692974" flag="0"/>
			<vel value="0.03958" flag="0"/>
			<psa03 value="0.166127813174" flag="0"/>
			<psa10 value="0.0214588097162" flag="0"/>
			<psa30 value="0.00325678521974" flag="0"/>
		</comp>
		<comp name=".HNZ" depth="0.0">
			<acc value="0.055724742" flag="0"/>
			<vel value="0.026297" flag="0"/>
			<psa03 value="0.130960438772" flag="0"/>
			<psa10 value="0.0129179698948" flag="0"/>
			<psa30 value="0.00217178670925" flag="0"/>
		</comp>
	</station>
	<station code="GMLD" name="GMLD" netid="KO" source="Bogazici University Kandilli Observatory And Earthquake Research Institute (KOERI)" insttype="" lat="38.0766" lon="26.9157">
		<comp name=".HNE" depth="0.0">
			<acc value="5.775250506" flag="0"/>
			<vel value="1.632273" flag="0"/>
			<psa03 value="8.32486919002" flag="0"/>
			<psa10 value="1.09166509928" flag="0"/>
			<psa30 value="0.0620552034692" flag="0"/>
		</comp>
		<comp name=".HNN" depth="0.0">
			<acc value="4.73411478" flag="0"/>
			<vel value="1.652932" flag="0"/>
			<psa03 value="5.70677896975" flag="0"/>
			<psa10 value="0.766948087325" flag="0"/>
			<psa30 value="0.103510647589" flag="0"/>
		</comp>
		<comp name=".HNZ" depth="0.0">
			<acc value="3.893701692" flag="0"/>
			<vel value="1.037361" flag="0"/>
			<psa03 value="6.64989994305" flag="0"/>
			<psa10 value="0.293815359531" flag="0"/>
			<psa30 value="0.0404975134764" flag="0"/>
		</comp>
	</station>
	<station code="GORD" name="GORD" netid="KO" source="Bogazici University Kandilli Observatory And Earthquake Research Institute (KOERI)" insttype="" lat="38.9088" lon="28.1769">
		<comp name=".HNE" depth="0.0">
			<acc value="0.162003846" flag="0"/>
			<vel value="0.201011" flag="0"/>
			<psa03 value="0.31740121375" flag="0"/>
			<psa10 value="0.273395463853" flag="0"/>
			<psa30 value="0.0359740763873" flag="0"/>
		</comp>
		<comp name=".HNN" depth="0.0">
			<acc value="0.100037418" flag="0"/>
			<vel value="0.104406" flag="0"/>
			<psa03 value="0.300533401855" flag="0"/>
			<psa10 value="0.163826274065" flag="0"/>
			<psa30 value="0.0221885551061" flag="0"/>
		</comp>
		<comp name=".HNZ" depth="0.0">
			<acc value="0.096987516" flag="0"/>
			<vel value="0.106853" flag="0"/>
			<psa03 value="0.176418520696" flag="0"/>
			<psa10 value="0.103073963653" flag="0"/>
			<psa30 value="0.0161286706418" flag="0"/>
		</comp>
	</station>
	<station code="NAZL" name="NAZL" netid="KO" source="Bogazici University Kandilli Observatory And Earthquake Research Institute (KOERI)" insttype="" lat="37.9641" lon="28.2922">
		<comp name=".HNE" depth="0.0">
			<acc value="0.337653048" flag="0"/>
			<vel value="0.239609" flag="0"/>
			<psa03 value="1.208755454" flag="0"/>
			<psa10 value="0.261653319148" flag="0"/>
			<psa30 value="0.0188427328952" flag="0"/>
		</comp>
		<comp name=".HNN" depth="0.0">
			<acc value="0.311779728" flag="0"/>
			<vel value="0.227396" flag="0"/>
			<psa03 value="0.939675823397" flag="0"/>
			<psa10 value="0.277498771622" flag="0"/>
			<psa30 value="0.0250587676607" flag="0"/>
		</comp>
		<comp name=".HNZ" depth="0.0">
			<acc value="0.154196868" flag="0"/>
			<vel value="0.147823" flag="0"/>
			<psa03 value="0.414894481971" flag="0"/>
			<psa10 value="0.12785488221" flag="0"/>
			<psa30 value="0.00915604516236" flag="0"/>
		</comp>
	</station>
	<station code="SOMA" name="SOMA" netid="KO" source="Bogazici University Kandilli Observatory And Earthquake Research Institute (KOERI)" insttype="" lat="39.1564" lon="27.5341">
		<comp name=".HNE" depth="0.0">
			<acc value="0.244434126" flag="0"/>
			<vel value="0.107679" flag="0"/>
			<psa03 value="0.785359952771" flag="0"/>
			<psa10 value="0.0817560918874" flag="0"/>
			<psa30 value="0.0147139220685" flag="0"/>
		</comp>
		<comp name=".HNN" depth="0.0">
			<acc value="0.250496292" flag="0"/>
			<vel value="0.13115" flag="0"/>
			<psa03 value="0.662766306636" flag="0"/>
			<psa10 value="0.0792272623693" flag="0"/>
			<psa30 value="0.017029331261" flag="0"/>
		</comp>
		<comp name=".HNZ" depth="0.0">
			<acc value="0.149255274" flag="0"/>
			<vel value="0.069664" flag="0"/>
			<psa03 value="0.372657838924" flag="0"/>
			<psa10 value="0.0439001582897" flag="0"/>
			<psa30 value="0.01452153058" flag="0"/>
		</comp>
	</station>
	<station code="YKAV" name="YKAV" netid="KO" source="Bogazici University Kandilli Observatory And Earthquake Research Institute (KOERI)" insttype="" lat="37.1246" lon="27.2801">
		<comp name=".HNE" depth="0.0">
			<acc value="0.192280608" flag="0"/>
			<vel value="0.202683" flag="0"/>
			<psa03 value="0.52657102969" flag="0"/>
			<psa10 value="0.283100048468" flag="0"/>
			<psa30 value="0.0187286402683" flag="0"/>
		</comp>
		<comp name=".HNN" depth="0.0">
			<acc value="0.124993758" flag="0"/>
			<vel value="0.10615" flag="0"/>
			<psa03 value="0.267692622197" flag="0"/>
			<psa10 value="0.120747582689" flag="0"/>
			<psa30 value="0.00819587740834" flag="0"/>
		</comp>
		<comp name=".HNZ" depth="0.0">
			<acc value="0.087238458" flag="0"/>
			<vel value="0.056219" flag="0"/>
			<psa03 value="0.224068970744" flag="0"/>
			<psa10 value="0.0520181842585" flag="0"/>
			<psa30 value="0.00483931706783" flag="0"/>
		</comp>
	</station>
</stationlist>
