<?xml version="1.0" encoding="UTF-8" standalone="yes"?>
<!DOCTYPE earthquake SYSTEM "stationlist.dtd">
<stationlist created="" xmlns="ch.ethz.sed.shakemap.usgs.xml">
  <station code="GURO" name="GURO" netid="KO" insttype="120s," lat="38.5509" lon="42.0322">
    <comp name="--.HHN">
      <acc value="0.0222567683" flag="0"/>
      <vel value="0.0104701658" flag="0"/>
      <psa03 value="0.0698086931" flag="0"/>
      <psa10 value="0.0046315206" flag="0"/>
      <psa30 value="0.0004964858" flag="0"/>
    </comp>
    <comp name="--.HHE">
      <acc value="0.0243943258" flag="0"/>
      <vel value="0.0116364180" flag="0"/>
      <psa03 value="0.0731470519" flag="0"/>
      <psa10 value="0.0027117421" flag="0"/>
      <psa30 value="0.0003073848" flag="0"/>
    </comp>
    <comp name="--.HHZ">
      <acc value="0.0318675341" flag="0"/>
      <vel value="0.0132169663" flag="0"/>
      <psa03 value="0.1027411155" flag="0"/>
      <psa10 value="0.0031902364" flag="0"/>
      <psa30 value="0.0003025380" flag="0"/>
    </comp>
  </station>
  <station code="KARO" name="KARO" netid="KO" insttype="120s," lat="39.3089" lon="41.0493">
    <comp name="--.HHZ">
      <acc value="7.5155931637" flag="0"/>
      <vel value="1.1750608983" flag="0"/>
      <psa03 value="11.4066552840" flag="0"/>
      <psa10 value="0.4891869181" flag="0"/>
      <psa30 value="0.0359165332" flag="0"/>
    </comp>
    <comp name="--.HHN">
      <acc value="7.0036409763" flag="0"/>
      <vel value="1.4479053025" flag="0"/>
      <psa03 value="8.4751961521" flag="0"/>
      <psa10 value="0.6622905903" flag="0"/>
      <psa30 value="0.1118650645" flag="0"/>
    </comp>
    <comp name="--.HHE">
      <acc value="7.2781757102" flag="0"/>
      <vel value="1.5058448811" flag="0"/>
      <psa03 value="9.6653135438" flag="0"/>
      <psa10 value="1.0026484158" flag="0"/>
      <psa30 value="0.1696849575" flag="0"/>
    </comp>
  </station>
</stationlist>
