<?xml version="1.0" encoding="UTF-8" standalone="yes"?>
<!DOCTYPE earthquake SYSTEM "stationlist.dtd">
<stationlist created="" xmlns="ch.ethz.sed.shakemap.usgs.xml">
  <station code="CANO" name="CANO" netid="GU" insttype="" lat="44.2075" lon="8.2372">
    <comp name="--.HHN">
      <acc value="0.1260738098" flag="0"/>
      <vel value="0.0472638982" flag="0"/>
      <psa03 value="0.5822059555" flag="0"/>
      <psa10 value="0.0209809196" flag="0"/>
      <psa30 value="0.0018310327" flag="0"/>
    </comp>
    <comp name="--.HHE">
      <acc value="0.0757189126" flag="0"/>
      <vel value="0.0354696941" flag="0"/>
      <psa03 value="0.2180099535" flag="0"/>
      <psa10 value="0.0331508626" flag="0"/>
      <psa30 value="0.0016728075" flag="0"/>
    </comp>
    <comp name="--.HHZ">
      <acc value="0.0008385078" flag="0"/>
      <vel value="0.0000794578" flag="0"/>
      <psa03 value="0.0000816549" flag="0"/>
      <psa10 value="0.0001196695" flag="0"/>
      <psa30 value="0.0000113036" flag="0"/>
    </comp>
  </station>
  <station code="CARD" name="CARD" netid="GU" insttype="" lat="44.0261" lon="10.4821">
    <comp name="--.HHN">
      <acc value="0.1206307760" flag="0"/>
      <vel value="0.0327160861" flag="0"/>
      <psa03 value="0.1030336851" flag="0"/>
      <psa10 value="0.0148294177" flag="0"/>
      <psa30 value="0.0006541901" flag="0"/>
    </comp>
    <comp name="--.HHE">
      <acc value="0.1215574228" flag="0"/>
      <vel value="0.0242924001" flag="0"/>
      <psa03 value="0.0828005399" flag="0"/>
      <psa10 value="0.0112176163" flag="0"/>
      <psa30 value="0.0006220509" flag="0"/>
    </comp>
    <comp name="--.HHZ">
      <acc value="0.0425916868" flag="0"/>
      <vel value="0.0121059158" flag="0"/>
      <psa03 value="0.0507468328" flag="0"/>
      <psa10 value="0.0081199161" flag="0"/>
      <psa30 value="0.0005472829" flag="0"/>
    </comp>
  </station>
  <station code="EQUI" name="EQUI" netid="GU" insttype="" lat="44.166" lon="10.153">
    <comp name="--.HHE">
      <acc value="0.0416105214" flag="0"/>
      <vel value="0.0091131932" flag="0"/>
      <psa03 value="0.0442621672" flag="0"/>
      <psa10 value="0.0119561198" flag="0"/>
      <psa30 value="0.0007266063" flag="0"/>
    </comp>
    <comp name="--.HHN">
      <acc value="0.0422036174" flag="0"/>
      <vel value="0.0139790851" flag="0"/>
      <psa03 value="0.0603746460" flag="0"/>
      <psa10 value="0.0100988920" flag="0"/>
      <psa30 value="0.0007949935" flag="0"/>
    </comp>
    <comp name="--.HHZ">
      <acc value="0.0543807165" flag="0"/>
      <vel value="0.0076864670" flag="0"/>
      <psa03 value="0.0384924211" flag="0"/>
      <psa10 value="0.0053542456" flag="0"/>
      <psa30 value="0.0010701016" flag="0"/>
    </comp>
  </station>
  <station code="FIVI" name="FIVI" netid="GU" insttype="" lat="44.2394" lon="10.1271">
    <comp name="--.HNE">
      <acc value="0.0987125302" flag="0"/>
      <vel value="0.0227526372" flag="0"/>
      <psa03 value="0.0960014953" flag="0"/>
      <psa10 value="0.0108913369" flag="0"/>
      <psa30 value="0.0008992585" flag="0"/>
    </comp>
    <comp name="--.HNN">
      <acc value="0.1010142635" flag="0"/>
      <vel value="0.0293894855" flag="0"/>
      <psa03 value="0.0998387659" flag="0"/>
      <psa10 value="0.0096493176" flag="0"/>
      <psa30 value="0.0009128118" flag="0"/>
    </comp>
    <comp name="--.HNZ">
      <acc value="0.0876683384" flag="0"/>
      <vel value="0.0215302233" flag="0"/>
      <psa03 value="0.0653311310" flag="0"/>
      <psa10 value="0.0132158244" flag="0"/>
      <psa30 value="0.0013119689" flag="0"/>
    </comp>
  </station>
  <station code="GBOS" name="GBOS" netid="GU" insttype="" lat="44.2416" lon="7.8399">
    <comp name="--.HHN">
      <acc value="0.0109145334" flag="0"/>
      <vel value="0.0054065733" flag="0"/>
      <psa03 value="0.0298930544" flag="0"/>
      <psa10 value="0.0067590915" flag="0"/>
      <psa30 value="0.0014081631" flag="0"/>
    </comp>
    <comp name="--.HHE">
      <acc value="0.0118177852" flag="0"/>
      <vel value="0.0053178144" flag="0"/>
      <psa03 value="0.0293582265" flag="0"/>
      <psa10 value="0.0111491328" flag="0"/>
      <psa30 value="0.0005049952" flag="0"/>
    </comp>
    <comp name="--.HHZ">
      <acc value="0.0111354171" flag="0"/>
      <vel value="0.0075067801" flag="0"/>
      <psa03 value="0.0288542985" flag="0"/>
      <psa10 value="0.0116479203" flag="0"/>
      <psa30 value="0.0008013092" flag="0"/>
    </comp>
  </station>
  <station code="GORR" name="GORR" netid="GU" insttype="" lat="44.6071" lon="9.2926">
    <comp name="--.HHE">
      <acc value="0.3411563303" flag="0"/>
      <vel value="0.1526464512" flag="0"/>
      <psa03 value="0.8287027750" flag="0"/>
      <psa10 value="0.0769577883" flag="0"/>
      <psa30 value="0.0066417649" flag="0"/>
    </comp>
    <comp name="--.HHN">
      <acc value="0.2328247449" flag="0"/>
      <vel value="0.0845654177" flag="0"/>
      <psa03 value="0.4785795273" flag="0"/>
      <psa10 value="0.0592614401" flag="0"/>
      <psa30 value="0.0051467770" flag="0"/>
    </comp>
    <comp name="--.HHZ">
      <acc value="0.2284592771" flag="0"/>
      <vel value="0.0859232058" flag="0"/>
      <psa03 value="0.3877851919" flag="0"/>
      <psa10 value="0.0441750367" flag="0"/>
      <psa30 value="0.0044932608" flag="0"/>
    </comp>
  </station>
  <station code="GRAM" name="GRAM" netid="GU" insttype="" lat="44.4904" lon="10.065">
    <comp name="--.HHE">
      <acc value="0.1190274309" flag="0"/>
      <vel value="0.0358678320" flag="0"/>
      <psa03 value="0.3271772798" flag="0"/>
      <psa10 value="0.0148767703" flag="0"/>
      <psa30 value="0.0011022670" flag="0"/>
    </comp>
    <comp name="--.HHN">
      <acc value="0.0873970339" flag="0"/>
      <vel value="0.0262995784" flag="0"/>
      <psa03 value="0.1617389330" flag="0"/>
      <psa10 value="0.0167336994" flag="0"/>
      <psa30 value="0.0029780550" flag="0"/>
    </comp>
    <comp name="--.HHZ">
      <acc value="0.0685317461" flag="0"/>
      <vel value="0.0147521917" flag="0"/>
      <psa03 value="0.0609101639" flag="0"/>
      <psa10 value="0.0101532590" flag="0"/>
      <psa30 value="0.0011599878" flag="0"/>
    </comp>
  </station>
  <station code="GSCL" name="GSCL" netid="GU" insttype="" lat="44.3506" lon="10.588">
    <comp name="--.HHE">
      <acc value="0.0161401734" flag="0"/>
      <vel value="0.0086756769" flag="0"/>
      <psa03 value="0.0444660503" flag="0"/>
      <psa10 value="0.0135288041" flag="0"/>
      <psa30 value="0.0006779872" flag="0"/>
    </comp>
    <comp name="--.HHN">
      <acc value="0.0190318692" flag="0"/>
      <vel value="0.0085697415" flag="0"/>
      <psa03 value="0.0516183472" flag="0"/>
      <psa10 value="0.0127747885" flag="0"/>
      <psa30 value="0.0006468186" flag="0"/>
    </comp>
    <comp name="--.HHZ">
      <acc value="0.0080011042" flag="0"/>
      <vel value="0.0031134330" flag="0"/>
      <psa03 value="0.0186529556" flag="0"/>
      <psa10 value="0.0045674384" flag="0"/>
      <psa30 value="0.0004228416" flag="0"/>
    </comp>
  </station>
  <station code="MGRO" name="MGRO" netid="GU" insttype="" lat="44.0426" lon="7.8082">
    <comp name="--.HHE">
      <acc value="0.0139475465" flag="0"/>
      <vel value="0.0084727263" flag="0"/>
      <psa03 value="0.0285367240" flag="0"/>
      <psa10 value="0.0152497914" flag="0"/>
      <psa30 value="0.0010384998" flag="0"/>
    </comp>
    <comp name="--.HHN">
      <acc value="0.0182968245" flag="0"/>
      <vel value="0.0082754978" flag="0"/>
      <psa03 value="0.0416849888" flag="0"/>
      <psa10 value="0.0193141409" flag="0"/>
      <psa30 value="0.0016611487" flag="0"/>
    </comp>
    <comp name="--.HHZ">
      <acc value="0.0125745115" flag="0"/>
      <vel value="0.0071963829" flag="0"/>
      <psa03 value="0.0364773295" flag="0"/>
      <psa10 value="0.0102765258" flag="0"/>
      <psa30 value="0.0011554104" flag="0"/>
    </comp>
  </station>
  <station code="PCP" name="PCP" netid="GU" insttype="" lat="44.5413" lon="8.54517">
    <comp name="--.HHE">
      <acc value="0.0367121400" flag="0"/>
      <vel value="0.0125760073" flag="0"/>
      <psa03 value="0.0451379953" flag="0"/>
      <psa10 value="0.0155920971" flag="0"/>
      <psa30 value="0.0017806912" flag="0"/>
    </comp>
    <comp name="--.HHZ">
      <acc value="0.0331313380" flag="0"/>
      <vel value="0.0105563817" flag="0"/>
      <psa03 value="0.0444186118" flag="0"/>
      <psa10 value="0.0117570961" flag="0"/>
      <psa30 value="0.0023832428" flag="0"/>
    </comp>
    <comp name="--.HHN">
      <acc value="0.0349593756" flag="0"/>
      <vel value="0.0147364491" flag="0"/>
      <psa03 value="0.0562814469" flag="0"/>
      <psa10 value="0.0163153307" flag="0"/>
      <psa30 value="0.0010369895" flag="0"/>
    </comp>
  </station>
  <station code="RNCA" name="RNCA" netid="GU" insttype="" lat="44.4711" lon="8.9512">
    <comp name="--.HHE">
      <acc value="12.7569709541" flag="0"/>
      <vel value="0.6275240946" flag="0"/>
      <psa03 value="1.5174177430" flag="0"/>
      <psa10 value="0.1105209483" flag="0"/>
      <psa30 value="0.0101274838" flag="0"/>
    </comp>
    <comp name="--.HHN">
      <acc value="7.5540853441" flag="0"/>
      <vel value="0.5799415358" flag="0"/>
      <psa03 value="1.1680510835" flag="0"/>
      <psa10 value="0.0997154551" flag="0"/>
      <psa30 value="0.0115683496" flag="0"/>
    </comp>
    <comp name="--.HHZ">
      <acc value="10.1268041489" flag="0"/>
      <vel value="0.4961461935" flag="0"/>
      <psa03 value="0.9380028589" flag="0"/>
      <psa10 value="0.0979405522" flag="0"/>
      <psa30 value="0.0139650554" flag="0"/>
    </comp>
  </station>
  <station code="RORO" name="RORO" netid="GU" insttype="" lat="44.1125" lon="8.0667">
    <comp name="--.HHE">
      <acc value="0.0401664552" flag="0"/>
      <vel value="0.0125049097" flag="0"/>
      <psa03 value="0.0513694803" flag="0"/>
      <psa10 value="0.0072098045" flag="0"/>
      <psa30 value="0.0008358455" flag="0"/>
    </comp>
    <comp name="--.HHN">
      <acc value="0.0435346385" flag="0"/>
      <vel value="0.0130776546" flag="0"/>
      <psa03 value="0.0617589728" flag="0"/>
      <psa10 value="0.0145489763" flag="0"/>
      <psa30 value="0.0016417602" flag="0"/>
    </comp>
    <comp name="--.HHZ">
      <acc value="0.0261117064" flag="0"/>
      <vel value="0.0100477905" flag="0"/>
      <psa03 value="0.0362391928" flag="0"/>
      <psa10 value="0.0166558182" flag="0"/>
      <psa30 value="0.0009601760" flag="0"/>
    </comp>
  </station>
  <station code="BOB" name="BOB" netid="IV" insttype="" lat="44.7679" lon="9.44782">
    <comp name="--.HHE">
      <acc value="0.0846385796" flag="0"/>
      <vel value="0.0314897282" flag="0"/>
      <psa03 value="0.1835348253" flag="0"/>
      <psa10 value="0.0222524210" flag="0"/>
      <psa30 value="0.0043832998" flag="0"/>
    </comp>
    <comp name="--.HHN">
      <acc value="0.0390452176" flag="0"/>
      <vel value="0.0224043578" flag="0"/>
      <psa03 value="0.0874652241" flag="0"/>
      <psa10 value="0.0341859172" flag="0"/>
      <psa30 value="0.0032217815" flag="0"/>
    </comp>
    <comp name="--.HHZ">
      <acc value="0.0395907600" flag="0"/>
      <vel value="0.0172327680" flag="0"/>
      <psa03 value="0.0818217591" flag="0"/>
      <psa10 value="0.0190432975" flag="0"/>
      <psa30 value="0.0022543748" flag="0"/>
    </comp>
  </station>
  <station code="MONC" name="MONC" netid="IV" insttype="" lat="45.0739" lon="7.9271">
    <comp name="--.HHE">
      <acc value="0.0434993241" flag="0"/>
      <vel value="0.0151590370" flag="0"/>
      <psa03 value="0.1144593280" flag="0"/>
      <psa10 value="0.0120428786" flag="0"/>
      <psa30 value="0.0018305655" flag="0"/>
    </comp>
    <comp name="--.HHN">
      <acc value="0.0602139118" flag="0"/>
      <vel value="0.0201138363" flag="0"/>
      <psa03 value="0.1049457922" flag="0"/>
      <psa10 value="0.0115206009" flag="0"/>
      <psa30 value="0.0016548208" flag="0"/>
    </comp>
    <comp name="--.HHZ">
      <acc value="0.0538173497" flag="0"/>
      <vel value="0.0148891735" flag="0"/>
      <psa03 value="0.0905219483" flag="0"/>
      <psa10 value="0.0072813388" flag="0"/>
      <psa30 value="0.0011472966" flag="0"/>
    </comp>
  </station>
  <station code="MSSA" name="MSSA" netid="IV" insttype="" lat="44.3162" lon="9.51739">
    <comp name="--.HHE">
      <acc value="2.6275709753" flag="0"/>
      <vel value="0.3937178468" flag="0"/>
      <psa03 value="0.4361017437" flag="0"/>
      <psa10 value="0.0320935134" flag="0"/>
      <psa30 value="0.0037724999" flag="0"/>
    </comp>
    <comp name="--.HHZ">
      <acc value="0.3879745052" flag="0"/>
      <vel value="0.0523494127" flag="0"/>
      <psa03 value="0.1117306979" flag="0"/>
      <psa10 value="0.0187105316" flag="0"/>
      <psa30 value="0.0028214201" flag="0"/>
    </comp>
    <comp name="--.HHN">
      <acc value="2.0491859958" flag="0"/>
      <vel value="0.3346117868" flag="0"/>
      <psa03 value="0.3494112024" flag="0"/>
      <psa10 value="0.0326964658" flag="0"/>
      <psa30 value="0.0041000762" flag="0"/>
    </comp>
  </station>
  <station code="NEVI" name="NEVI" netid="IV" insttype="" lat="44.5834" lon="10.3163">
    <comp name="--.HNN">
      <acc value="0.0348389274" flag="0"/>
      <vel value="0.0250500790" flag="0"/>
      <psa03 value="0.0900883186" flag="0"/>
      <psa10 value="0.0405070146" flag="0"/>
      <psa30 value="0.0029993070" flag="0"/>
    </comp>
    <comp name="--.HNE">
      <acc value="0.0279372553" flag="0"/>
      <vel value="0.0161359027" flag="0"/>
      <psa03 value="0.0737012875" flag="0"/>
      <psa10 value="0.0160696048" flag="0"/>
      <psa30 value="0.0017176685" flag="0"/>
    </comp>
    <comp name="--.HNZ">
      <acc value="0.0107603695" flag="0"/>
      <vel value="0.0064431634" flag="0"/>
      <psa03 value="0.0302163293" flag="0"/>
      <psa10 value="0.0106136205" flag="0"/>
      <psa30 value="0.0015044480" flag="0"/>
    </comp>
  </station>
  <station code="PLMA" name="PLMA" netid="IV" insttype="" lat="44.0498" lon="9.85365">
    <comp name="--.HHE">
      <acc value="0.1172448590" flag="0"/>
      <vel value="0.0271130403" flag="0"/>
      <psa03 value="0.2271514502" flag="0"/>
      <psa10 value="0.0150648908" flag="0"/>
      <psa30 value="0.0011918368" flag="0"/>
    </comp>
    <comp name="--.HHZ">
      <acc value="0.0949817093" flag="0"/>
      <vel value="0.0398627147" flag="0"/>
      <psa03 value="0.1007311268" flag="0"/>
      <psa10 value="0.0250615931" flag="0"/>
      <psa30 value="0.0015107459" flag="0"/>
    </comp>
    <comp name="--.HHN">
      <acc value="0.1411661771" flag="0"/>
      <vel value="0.0436086548" flag="0"/>
      <psa03 value="0.2775303729" flag="0"/>
      <psa10 value="0.0197778131" flag="0"/>
      <psa30 value="0.0011796384" flag="0"/>
    </comp>
  </station>
  <station code="QLNO" name="QLNO" netid="IV" insttype="" lat="44.3242" lon="8.34592">
    <comp name="--.HHE">
      <acc value="0.0424422004" flag="0"/>
      <vel value="0.0153021079" flag="0"/>
      <psa03 value="0.0617717367" flag="0"/>
      <psa10 value="0.0113131323" flag="0"/>
      <psa30 value="0.0007481935" flag="0"/>
    </comp>
    <comp name="--.HHN">
      <acc value="0.0321080952" flag="0"/>
      <vel value="0.0161356468" flag="0"/>
      <psa03 value="0.0759178192" flag="0"/>
      <psa10 value="0.0175468077" flag="0"/>
      <psa30 value="0.0018015594" flag="0"/>
    </comp>
    <comp name="--.HHZ">
      <acc value="0.0359947150" flag="0"/>
      <vel value="0.0127709040" flag="0"/>
      <psa03 value="0.0844593124" flag="0"/>
      <psa10 value="0.0132667758" flag="0"/>
      <psa30 value="0.0009918962" flag="0"/>
    </comp>
  </station>
  <station code="SARZ" name="SARZ" netid="IV" insttype="" lat="44.8673" lon="8.9136">
    <comp name="--.HHE">
      <acc value="0.0634818008" flag="0"/>
      <vel value="0.0441783037" flag="0"/>
      <psa03 value="0.2430758914" flag="0"/>
      <psa10 value="0.0484434784" flag="0"/>
      <psa30 value="0.0053179007" flag="0"/>
    </comp>
    <comp name="--.HHN">
      <acc value="0.0895606940" flag="0"/>
      <vel value="0.0627678164" flag="0"/>
      <psa03 value="0.2315439060" flag="0"/>
      <psa10 value="0.0489145349" flag="0"/>
      <psa30 value="0.0085645386" flag="0"/>
    </comp>
    <comp name="--.HHZ">
      <acc value="0.0440288825" flag="0"/>
      <vel value="0.0332422192" flag="0"/>
      <psa03 value="0.1468490506" flag="0"/>
      <psa10 value="0.0306285675" flag="0"/>
      <psa30 value="0.0036640130" flag="0"/>
    </comp>
  </station>
  <station code="VLC" name="VLC" netid="MN" insttype="" lat="44.1594" lon="10.3864">
    <comp name="--.HHE">
      <acc value="0.0224210705" flag="0"/>
      <vel value="0.0083755298" flag="0"/>
      <psa03 value="0.0252929967" flag="0"/>
      <psa10 value="0.0128240170" flag="0"/>
      <psa30 value="0.0009586456" flag="0"/>
    </comp>
    <comp name="--.HHZ">
      <acc value="0.0164700286" flag="0"/>
      <vel value="0.0056343160" flag="0"/>
      <psa03 value="0.0207230963" flag="0"/>
      <psa10 value="0.0083018632" flag="0"/>
      <psa30 value="0.0008805430" flag="0"/>
    </comp>
    <comp name="--.HHN">
      <acc value="0.0328792410" flag="0"/>
      <vel value="0.0067641575" flag="0"/>
      <psa03 value="0.0231989173" flag="0"/>
      <psa10 value="0.0106857331" flag="0"/>
      <psa30 value="0.0010423501" flag="0"/>
    </comp>
  </station>
</stationlist>
