<?xml version="1.0" encoding="UTF-8" standalone="yes"?>
<!DOCTYPE earthquake SYSTEM "stationlist.dtd">
<stationlist created="" xmlns="ch.ethz.sed.shakemap.usgs.xml">
  <station code="CANO" name="CANO" netid="GU" insttype="" lat="44.2075" lon="8.2372">
    <comp name="--.HHZ">
      <acc value="0.0532303481" flag="0"/>
      <vel value="0.0292287113" flag="0"/>
      <psa03 value="0.2454488564" flag="0"/>
      <psa10 value="0.0328456713" flag="0"/>
      <psa30 value="0.0012675458" flag="0"/>
    </comp>
    <comp name="--.HHE">
      <acc value="0.0757189125" flag="0"/>
      <vel value="0.0354696965" flag="0"/>
      <psa03 value="0.2180099535" flag="0"/>
      <psa10 value="0.0331508625" flag="0"/>
      <psa30 value="0.0016728112" flag="0"/>
    </comp>
    <comp name="--.HHN">
      <acc value="0.1260738097" flag="0"/>
      <vel value="0.0472638994" flag="0"/>
      <psa03 value="0.5822059555" flag="0"/>
      <psa10 value="0.0209809196" flag="0"/>
      <psa30 value="0.0018310298" flag="0"/>
    </comp>
  </station>
  <station code="CARD" name="CARD" netid="GU" insttype="" lat="44.0261" lon="10.4821">
    <comp name="--.HHN">
      <acc value="0.1206307760" flag="0"/>
      <vel value="0.0327160868" flag="0"/>
      <psa03 value="0.1030336851" flag="0"/>
      <psa10 value="0.0148294177" flag="0"/>
      <psa30 value="0.0006541711" flag="0"/>
    </comp>
    <comp name="--.HHZ">
      <acc value="0.0425916866" flag="0"/>
      <vel value="0.0121059157" flag="0"/>
      <psa03 value="0.0507468328" flag="0"/>
      <psa10 value="0.0081199161" flag="0"/>
      <psa30 value="0.0005472777" flag="0"/>
    </comp>
    <comp name="--.HHE">
      <acc value="0.1215574227" flag="0"/>
      <vel value="0.0242924007" flag="0"/>
      <psa03 value="0.0828005399" flag="0"/>
      <psa10 value="0.0112176163" flag="0"/>
      <psa30 value="0.0006220429" flag="0"/>
    </comp>
  </station>
  <station code="EQUI" name="EQUI" netid="GU" insttype="" lat="44.166" lon="10.153">
    <comp name="--.HHE">
      <acc value="0.0416105214" flag="0"/>
      <vel value="0.0091131935" flag="0"/>
      <psa03 value="0.0442621672" flag="0"/>
      <psa10 value="0.0119561198" flag="0"/>
      <psa30 value="0.0007266081" flag="0"/>
    </comp>
    <comp name="--.HHN">
      <acc value="0.0422036174" flag="0"/>
      <vel value="0.0139790852" flag="0"/>
      <psa03 value="0.0603746460" flag="0"/>
      <psa10 value="0.0100988921" flag="0"/>
      <psa30 value="0.0007949910" flag="0"/>
    </comp>
    <comp name="--.HHZ">
      <acc value="0.0543807164" flag="0"/>
      <vel value="0.0076864671" flag="0"/>
      <psa03 value="0.0384924211" flag="0"/>
      <psa10 value="0.0053542456" flag="0"/>
      <psa30 value="0.0010700942" flag="0"/>
    </comp>
  </station>
  <station code="FIVI" name="FIVI" netid="GU" insttype="" lat="44.2394" lon="10.1271">
    <comp name="--.HNN">
      <acc value="0.1010142636" flag="0"/>
      <vel value="0.0293894859" flag="0"/>
      <psa03 value="0.0998387659" flag="0"/>
      <psa10 value="0.0096493176" flag="0"/>
      <psa30 value="0.0009128404" flag="0"/>
    </comp>
    <comp name="--.HNZ">
      <acc value="0.0876683387" flag="0"/>
      <vel value="0.0215302228" flag="0"/>
      <psa03 value="0.0653311310" flag="0"/>
      <psa10 value="0.0132158247" flag="0"/>
      <psa30 value="0.0013119433" flag="0"/>
    </comp>
    <comp name="--.HNE">
      <acc value="0.0987125309" flag="0"/>
      <vel value="0.0227526374" flag="0"/>
      <psa03 value="0.0960014953" flag="0"/>
      <psa10 value="0.0108913369" flag="0"/>
      <psa30 value="0.0008992438" flag="0"/>
    </comp>
  </station>
  <station code="GBOS" name="GBOS" netid="GU" insttype="" lat="44.2416" lon="7.8399">
    <comp name="--.HHN">
      <acc value="0.0109145334" flag="0"/>
      <vel value="0.0054065736" flag="0"/>
      <psa03 value="0.0298930544" flag="0"/>
      <psa10 value="0.0067590915" flag="0"/>
      <psa30 value="0.0014081691" flag="0"/>
    </comp>
    <comp name="--.HHZ">
      <acc value="0.0111354172" flag="0"/>
      <vel value="0.0075067801" flag="0"/>
      <psa03 value="0.0288542985" flag="0"/>
      <psa10 value="0.0116479203" flag="0"/>
      <psa30 value="0.0008013271" flag="0"/>
    </comp>
    <comp name="--.HHE">
      <acc value="0.0118177852" flag="0"/>
      <vel value="0.0053178147" flag="0"/>
      <psa03 value="0.0293582265" flag="0"/>
      <psa10 value="0.0111491328" flag="0"/>
      <psa30 value="0.0005050240" flag="0"/>
    </comp>
  </station>
  <station code="GORR" name="GORR" netid="GU" insttype="" lat="44.6071" lon="9.2926">
    <comp name="--.HHN">
      <acc value="0.2328247446" flag="0"/>
      <vel value="0.0845654176" flag="0"/>
      <psa03 value="0.4785795273" flag="0"/>
      <psa10 value="0.0592614394" flag="0"/>
      <psa30 value="0.0051469355" flag="0"/>
    </comp>
    <comp name="--.HHZ">
      <acc value="0.2284592774" flag="0"/>
      <vel value="0.0859229708" flag="0"/>
      <psa03 value="0.3877851923" flag="0"/>
      <psa10 value="0.0441750201" flag="0"/>
      <psa30 value="0.0044886438" flag="0"/>
    </comp>
    <comp name="--.HHE">
      <acc value="0.3411563304" flag="0"/>
      <vel value="0.1526464503" flag="0"/>
      <psa03 value="0.8287027750" flag="0"/>
      <psa10 value="0.0769577874" flag="0"/>
      <psa30 value="0.0066413771" flag="0"/>
    </comp>
  </station>
  <station code="GRAM" name="GRAM" netid="GU" insttype="" lat="44.4904" lon="10.065">
    <comp name="--.HHZ">
      <acc value="0.0685317466" flag="0"/>
      <vel value="0.0147521916" flag="0"/>
      <psa03 value="0.0609101639" flag="0"/>
      <psa10 value="0.0101532591" flag="0"/>
      <psa30 value="0.0011600049" flag="0"/>
    </comp>
    <comp name="--.HHN">
      <acc value="0.0873970268" flag="0"/>
      <vel value="0.0262995785" flag="0"/>
      <psa03 value="0.1617389330" flag="0"/>
      <psa10 value="0.0167336993" flag="0"/>
      <psa30 value="0.0029780484" flag="0"/>
    </comp>
    <comp name="--.HHE">
      <acc value="0.1190274256" flag="0"/>
      <vel value="0.0358678321" flag="0"/>
      <psa03 value="0.3271772798" flag="0"/>
      <psa10 value="0.0148767703" flag="0"/>
      <psa30 value="0.0011022909" flag="0"/>
    </comp>
  </station>
  <station code="GSCL" name="GSCL" netid="GU" insttype="" lat="44.3506" lon="10.588">
    <comp name="--.HHE">
      <acc value="0.0161401734" flag="0"/>
      <vel value="0.0086756769" flag="0"/>
      <psa03 value="0.0444660503" flag="0"/>
      <psa10 value="0.0135288041" flag="0"/>
      <psa30 value="0.0006779849" flag="0"/>
    </comp>
    <comp name="--.HHN">
      <acc value="0.0190318692" flag="0"/>
      <vel value="0.0085697416" flag="0"/>
      <psa03 value="0.0516183472" flag="0"/>
      <psa10 value="0.0127747885" flag="0"/>
      <psa30 value="0.0006468168" flag="0"/>
    </comp>
    <comp name="--.HHZ">
      <acc value="0.0080011041" flag="0"/>
      <vel value="0.0031134330" flag="0"/>
      <psa03 value="0.0186529556" flag="0"/>
      <psa10 value="0.0045674384" flag="0"/>
      <psa30 value="0.0004228455" flag="0"/>
    </comp>
  </station>
  <station code="MAIM" name="MAIM" netid="GU" insttype="" lat="43.9142" lon="10.4915">
    <comp name="--.HHN">
      <acc value="0.0314491916" flag="0"/>
      <vel value="0.0132279269" flag="0"/>
      <psa03 value="0.0605970639" flag="0"/>
      <psa10 value="0.0083510199" flag="0"/>
      <psa30 value="0.0009399729" flag="0"/>
    </comp>
    <comp name="--.HHE">
      <acc value="0.0170033277" flag="0"/>
      <vel value="0.0051220536" flag="0"/>
      <psa03 value="0.0376359649" flag="0"/>
      <psa10 value="0.0044497693" flag="0"/>
      <psa30 value="0.0005764191" flag="0"/>
    </comp>
    <comp name="--.HHZ">
      <acc value="0.0368446211" flag="0"/>
      <vel value="0.0173107441" flag="0"/>
      <psa03 value="0.0721371463" flag="0"/>
      <psa10 value="0.0118312684" flag="0"/>
      <psa30 value="0.0006718900" flag="0"/>
    </comp>
  </station>
  <station code="MGRO" name="MGRO" netid="GU" insttype="" lat="44.0426" lon="7.8082">
    <comp name="--.HHE">
      <acc value="0.0139475465" flag="0"/>
      <vel value="0.0084727268" flag="0"/>
      <psa03 value="0.0285367240" flag="0"/>
      <psa10 value="0.0152497914" flag="0"/>
      <psa30 value="0.0010384989" flag="0"/>
    </comp>
    <comp name="--.HHZ">
      <acc value="0.0125745115" flag="0"/>
      <vel value="0.0071963830" flag="0"/>
      <psa03 value="0.0364773295" flag="0"/>
      <psa10 value="0.0102765258" flag="0"/>
      <psa30 value="0.0011554061" flag="0"/>
    </comp>
    <comp name="--.HHN">
      <acc value="0.0182968246" flag="0"/>
      <vel value="0.0082754979" flag="0"/>
      <psa03 value="0.0416849888" flag="0"/>
      <psa10 value="0.0193141409" flag="0"/>
      <psa30 value="0.0016611522" flag="0"/>
    </comp>
  </station>
  <station code="PCP" name="PCP" netid="GU" insttype="" lat="44.5413" lon="8.54517">
    <comp name="--.HHE">
      <acc value="0.0367121400" flag="0"/>
      <vel value="0.0125760074" flag="0"/>
      <psa03 value="0.0451379953" flag="0"/>
      <psa10 value="0.0155920970" flag="0"/>
      <psa30 value="0.0017806288" flag="0"/>
    </comp>
    <comp name="--.HHN">
      <acc value="0.0349593757" flag="0"/>
      <vel value="0.0147364495" flag="0"/>
      <psa03 value="0.0562814469" flag="0"/>
      <psa10 value="0.0163153309" flag="0"/>
      <psa30 value="0.0010368886" flag="0"/>
    </comp>
    <comp name="--.HHZ">
      <acc value="0.0331313379" flag="0"/>
      <vel value="0.0105563828" flag="0"/>
      <psa03 value="0.0444186118" flag="0"/>
      <psa10 value="0.0117570956" flag="0"/>
      <psa30 value="0.0023830870" flag="0"/>
    </comp>
  </station>
  <station code="RORO" name="RORO" netid="GU" insttype="" lat="44.1125" lon="8.0667">
    <comp name="--.HHE">
      <acc value="0.0401664552" flag="0"/>
      <vel value="0.0125049096" flag="0"/>
      <psa03 value="0.0513694803" flag="0"/>
      <psa10 value="0.0072098044" flag="0"/>
      <psa30 value="0.0008358616" flag="0"/>
    </comp>
    <comp name="--.HHZ">
      <acc value="0.0261117064" flag="0"/>
      <vel value="0.0100477905" flag="0"/>
      <psa03 value="0.0362391928" flag="0"/>
      <psa10 value="0.0166558182" flag="0"/>
      <psa30 value="0.0009601901" flag="0"/>
    </comp>
    <comp name="--.HHN">
      <acc value="0.0435346385" flag="0"/>
      <vel value="0.0130776546" flag="0"/>
      <psa03 value="0.0617589728" flag="0"/>
      <psa10 value="0.0145489764" flag="0"/>
      <psa30 value="0.0016417286" flag="0"/>
    </comp>
  </station>
  <station code="BOB" name="BOB" netid="IV" insttype="" lat="44.7679" lon="9.44782">
    <comp name="--.HHE">
      <acc value="0.0846385795" flag="0"/>
      <vel value="0.0314897358" flag="0"/>
      <psa03 value="0.1835348253" flag="0"/>
      <psa10 value="0.0222524206" flag="0"/>
      <psa30 value="0.0043832757" flag="0"/>
    </comp>
    <comp name="--.HHN">
      <acc value="0.0390452175" flag="0"/>
      <vel value="0.0224043630" flag="0"/>
      <psa03 value="0.0874652241" flag="0"/>
      <psa10 value="0.0341859175" flag="0"/>
      <psa30 value="0.0032216405" flag="0"/>
    </comp>
    <comp name="--.HHZ">
      <acc value="0.0395907600" flag="0"/>
      <vel value="0.0172327666" flag="0"/>
      <psa03 value="0.0818217591" flag="0"/>
      <psa10 value="0.0190432973" flag="0"/>
      <psa30 value="0.0022544816" flag="0"/>
    </comp>
  </station>
  <station code="CTL8" name="CTL8" netid="IV" insttype="" lat="45.2763" lon="9.7622">
    <comp name="--.HNE">
      <acc value="0.0507724602" flag="0"/>
      <vel value="0.1291111943" flag="0"/>
      <psa03 value="0.0945421426" flag="0"/>
      <psa10 value="0.1107319161" flag="0"/>
      <psa30 value="0.0363080284" flag="0"/>
    </comp>
    <comp name="--.HNN">
      <acc value="0.0335810494" flag="0"/>
      <vel value="0.0203423360" flag="0"/>
      <psa03 value="0.1334412815" flag="0"/>
      <psa10 value="0.0147496814" flag="0"/>
      <psa30 value="0.0025267638" flag="0"/>
    </comp>
    <comp name="--.HNZ">
      <acc value="0.0116595463" flag="0"/>
      <vel value="0.0048707491" flag="0"/>
      <psa03 value="0.0318755868" flag="0"/>
      <psa10 value="0.0033551024" flag="0"/>
      <psa30 value="0.0010111984" flag="0"/>
    </comp>
  </station>
  <station code="MONC" name="MONC" netid="IV" insttype="" lat="45.0739" lon="7.9271">
    <comp name="--.HHN">
      <acc value="0.0602139121" flag="0"/>
      <vel value="0.0201138372" flag="0"/>
      <psa03 value="0.1049457922" flag="0"/>
      <psa10 value="0.0115206009" flag="0"/>
      <psa30 value="0.0016534059" flag="0"/>
    </comp>
    <comp name="--.HHZ">
      <acc value="0.0538173498" flag="0"/>
      <vel value="0.0148891745" flag="0"/>
      <psa03 value="0.0905219483" flag="0"/>
      <psa10 value="0.0072813388" flag="0"/>
      <psa30 value="0.0011473004" flag="0"/>
    </comp>
    <comp name="--.HHE">
      <acc value="0.0434993239" flag="0"/>
      <vel value="0.0151590370" flag="0"/>
      <psa03 value="0.1144593280" flag="0"/>
      <psa10 value="0.0120428786" flag="0"/>
      <psa30 value="0.0018306689" flag="0"/>
    </comp>
  </station>
  <station code="MSSA" name="MSSA" netid="IV" insttype="" lat="44.3162" lon="9.51739">
    <comp name="--.HHN">
      <acc value="2.0491859958" flag="0"/>
      <vel value="0.3346117868" flag="0"/>
      <psa03 value="0.3494112024" flag="0"/>
      <psa10 value="0.0326964661" flag="0"/>
      <psa30 value="0.0041000810" flag="0"/>
    </comp>
    <comp name="--.HHZ">
      <acc value="0.3879745052" flag="0"/>
      <vel value="0.0523494146" flag="0"/>
      <psa03 value="0.1117306979" flag="0"/>
      <psa10 value="0.0187105317" flag="0"/>
      <psa30 value="0.0028214140" flag="0"/>
    </comp>
    <comp name="--.HHE">
      <acc value="2.6275709753" flag="0"/>
      <vel value="0.3937178582" flag="0"/>
      <psa03 value="0.4361017437" flag="0"/>
      <psa10 value="0.0320935131" flag="0"/>
      <psa30 value="0.0037725892" flag="0"/>
    </comp>
  </station>
  <station code="NEVI" name="NEVI" netid="IV" insttype="" lat="44.5834" lon="10.3163">
    <comp name="--.HNE">
      <acc value="0.0279372552" flag="0"/>
      <vel value="0.0161359056" flag="0"/>
      <psa03 value="0.0737012876" flag="0"/>
      <psa10 value="0.0160696048" flag="0"/>
      <psa30 value="0.0017177254" flag="0"/>
    </comp>
    <comp name="--.HNN">
      <acc value="0.0348389280" flag="0"/>
      <vel value="0.0250500787" flag="0"/>
      <psa03 value="0.0900883186" flag="0"/>
      <psa10 value="0.0405070146" flag="0"/>
      <psa30 value="0.0029994085" flag="0"/>
    </comp>
    <comp name="--.HNZ">
      <acc value="0.0107603695" flag="0"/>
      <vel value="0.0064431635" flag="0"/>
      <psa03 value="0.0302163294" flag="0"/>
      <psa10 value="0.0106136205" flag="0"/>
      <psa30 value="0.0015044335" flag="0"/>
    </comp>
  </station>
  <station code="PLMA" name="PLMA" netid="IV" insttype="" lat="44.0498" lon="9.85365">
    <comp name="--.HHE">
      <acc value="0.1172448591" flag="0"/>
      <vel value="0.0271130400" flag="0"/>
      <psa03 value="0.2271514502" flag="0"/>
      <psa10 value="0.0150648902" flag="0"/>
      <psa30 value="0.0011918276" flag="0"/>
    </comp>
    <comp name="--.HHN">
      <acc value="0.1411661772" flag="0"/>
      <vel value="0.0436086546" flag="0"/>
      <psa03 value="0.2775303729" flag="0"/>
      <psa10 value="0.0197778136" flag="0"/>
      <psa30 value="0.0011797207" flag="0"/>
    </comp>
    <comp name="--.HHZ">
      <acc value="0.0949817094" flag="0"/>
      <vel value="0.0398627149" flag="0"/>
      <psa03 value="0.1007311268" flag="0"/>
      <psa10 value="0.0250615931" flag="0"/>
      <psa30 value="0.0015107762" flag="0"/>
    </comp>
  </station>
  <station code="QLNO" name="QLNO" netid="IV" insttype="" lat="44.3242" lon="8.34592">
    <comp name="--.HHE">
      <acc value="0.0424422005" flag="0"/>
      <vel value="0.0153021079" flag="0"/>
      <psa03 value="0.0617717367" flag="0"/>
      <psa10 value="0.0113131334" flag="0"/>
      <psa30 value="0.0007481783" flag="0"/>
    </comp>
    <comp name="--.HHZ">
      <acc value="0.0359947149" flag="0"/>
      <vel value="0.0127709048" flag="0"/>
      <psa03 value="0.0844593124" flag="0"/>
      <psa10 value="0.0132667748" flag="0"/>
      <psa30 value="0.0009920429" flag="0"/>
    </comp>
    <comp name="--.HHN">
      <acc value="0.0321080951" flag="0"/>
      <vel value="0.0161356473" flag="0"/>
      <psa03 value="0.0759178192" flag="0"/>
      <psa10 value="0.0175468066" flag="0"/>
      <psa30 value="0.0018014612" flag="0"/>
    </comp>
  </station>
  <station code="SARZ" name="SARZ" netid="IV" insttype="" lat="44.8673" lon="8.9136">
    <comp name="--.HHE">
      <acc value="0.0634818010" flag="0"/>
      <vel value="0.0441783047" flag="0"/>
      <psa03 value="0.2430758914" flag="0"/>
      <psa10 value="0.0484434784" flag="0"/>
      <psa30 value="0.0053180665" flag="0"/>
    </comp>
    <comp name="--.HHN">
      <acc value="0.0895606944" flag="0"/>
      <vel value="0.0627678208" flag="0"/>
      <psa03 value="0.2315439060" flag="0"/>
      <psa10 value="0.0489145351" flag="0"/>
      <psa30 value="0.0085647743" flag="0"/>
    </comp>
    <comp name="--.HHZ">
      <acc value="0.0440288827" flag="0"/>
      <vel value="0.0332422125" flag="0"/>
      <psa03 value="0.1468490505" flag="0"/>
      <psa10 value="0.0306285677" flag="0"/>
      <psa30 value="0.0036640501" flag="0"/>
    </comp>
  </station>
  <station code="VLC" name="VLC" netid="MN" insttype="" lat="44.1594" lon="10.3864">
    <comp name="--.HHE">
      <acc value="0.0224210704" flag="0"/>
      <vel value="0.0083755300" flag="0"/>
      <psa03 value="0.0252929967" flag="0"/>
      <psa10 value="0.0128240170" flag="0"/>
      <psa30 value="0.0009586442" flag="0"/>
    </comp>
    <comp name="--.HHZ">
      <acc value="0.0164700287" flag="0"/>
      <vel value="0.0056343160" flag="0"/>
      <psa03 value="0.0207230963" flag="0"/>
      <psa10 value="0.0083018632" flag="0"/>
      <psa30 value="0.0008805432" flag="0"/>
    </comp>
    <comp name="--.HHN">
      <acc value="0.0328792412" flag="0"/>
      <vel value="0.0067641579" flag="0"/>
      <psa03 value="0.0231989173" flag="0"/>
      <psa10 value="0.0106857331" flag="0"/>
      <psa30 value="0.0010423510" flag="0"/>
    </comp>
  </station>
</stationlist>
