<stationlist created="1663858819">
	<station code="MUGIO" name="MUGIO" netid="CH" source="Switzerland Seismological Network" insttype="" lat="45.92184" lon="9.04171">
		<comp name=".HGE" depth="0.0">
			<acc value="0.00358862635187" flag="0"/>
			<vel value="0.00270993271254" flag="0"/>
			<psa03 value="0.00894774573903" flag="0"/>
			<psa10 value="0.001438740622" flag="0"/>
			<psa30 value="0.000334435930781" flag="0"/>
		</comp>
		<comp name=".HGN" depth="0.0">
			<acc value="0.00513907131772" flag="0"/>
			<vel value="0.00243355627167" flag="0"/>
			<psa03 value="0.0123187782982" flag="0"/>
			<psa10 value="0.00215525699395" flag="0"/>
			<psa30 value="0.000164020696295" flag="0"/>
		</comp>
		<comp name=".HGZ" depth="0.0">
			<acc value="0.00481203616889" flag="0"/>
			<vel value="0.00166240392771" flag="0"/>
			<psa03 value="0.0107085700673" flag="0"/>
			<psa10 value="0.00169746170632" flag="0"/>
			<psa30 value="0.000176708190426" flag="0"/>
		</comp>
	</station>
	<station code="SCAS2" name="SCAS2" netid="CH" source="Switzerland Seismological Network" insttype="" lat="46.155187" lon="8.614781">
		<comp name=".HGE" depth="1.0">
			<acc value="0.0151273997042" flag="0"/>
			<vel value="0.0035894260077" flag="0"/>
			<psa03 value="0.0133930148257" flag="0"/>
			<psa10 value="0.00228515153632" flag="0"/>
			<psa30 value="0.000166737764308" flag="0"/>
		</comp>
		<comp name=".HGN" depth="1.0">
			<acc value="0.0171203831324" flag="0"/>
			<vel value="0.00342003862853" flag="0"/>
			<psa03 value="0.0115729906122" flag="0"/>
			<psa10 value="0.00140605263627" flag="0"/>
			<psa30 value="0.000175264448951" flag="0"/>
		</comp>
		<comp name=".HGZ" depth="1.0">
			<acc value="0.00486542727297" flag="0"/>
			<vel value="0.00187305026908" flag="0"/>
			<psa03 value="0.0132270936779" flag="0"/>
			<psa10 value="0.00140705278065" flag="0"/>
			<psa30 value="0.000117112549799" flag="0"/>
		</comp>
	</station>
	<station code="SLOP" name="SLOP" netid="CH" source="Switzerland Seismological Network" insttype="" lat="46.16384" lon="8.79055">
		<comp name=".HGE" depth="1.0">
			<acc value="0.00779091853398" flag="0"/>
			<vel value="0.00474728460763" flag="0"/>
			<psa03 value="0.026137989326" flag="0"/>
			<psa10 value="0.00677782681024" flag="0"/>
			<psa30 value="0.00045406205855" flag="0"/>
		</comp>
		<comp name=".HGN" depth="1.0">
			<acc value="0.011349938693" flag="0"/>
			<vel value="0.00544282035731" flag="0"/>
			<psa03 value="0.0303996049705" flag="0"/>
			<psa10 value="0.00526663232604" flag="0"/>
			<psa30 value="0.00045154824619" flag="0"/>
		</comp>
		<comp name=".HGZ" depth="1.0">
			<acc value="0.00786796415195" flag="0"/>
			<vel value="0.0028013092177" flag="0"/>
			<psa03 value="0.0141925365401" flag="0"/>
			<psa10 value="0.00422105790562" flag="0"/>
			<psa30 value="0.000259353170458" flag="0"/>
		</comp>
	</station>
	<station code="SUSI" name="SUSI" netid="CH" source="Switzerland Seismological Network" insttype="" lat="46.01038" lon="8.95869">
		<comp name=".HGE" depth="0.0">
			<acc value="0.0325426542112" flag="0"/>
			<vel value="0.00745770088857" flag="0"/>
			<psa03 value="0.0342234728663" flag="0"/>
			<psa10 value="0.0114639178658" flag="0"/>
			<psa30 value="0.00060060749563" flag="0"/>
		</comp>
		<comp name=".HGN" depth="0.0">
			<acc value="0.0325826192541" flag="0"/>
			<vel value="0.00736834339539" flag="0"/>
			<psa03 value="0.0383445609723" flag="0"/>
			<psa10 value="0.00935971441015" flag="0"/>
			<psa30 value="0.00066391017871" flag="0"/>
		</comp>
		<comp name=".HGZ" depth="0.0">
			<acc value="0.0540898880383" flag="0"/>
			<vel value="0.00452708283263" flag="0"/>
			<psa03 value="0.0252881049003" flag="0"/>
			<psa10 value="0.00479814988511" flag="0"/>
			<psa30 value="0.00027014688028" flag="0"/>
		</comp>
	</station>
	<station code="VDR" name="VDR" netid="CH" source="Switzerland Seismological Network" insttype="" lat="46.2061" lon="9.16648">
		<comp name=".HGE" depth="0.0">
			<acc value="0.00291439662315" flag="0"/>
			<vel value="0.00158298943096" flag="0"/>
			<psa03 value="0.00649153094354" flag="0"/>
			<psa10 value="0.00103243589381" flag="0"/>
			<psa30 value="0.000205963357603" flag="0"/>
		</comp>
		<comp name=".HGN" depth="0.0">
			<acc value="0.00189575420585" flag="0"/>
			<vel value="0.0010778926934" flag="0"/>
			<psa03 value="0.00558729656328" flag="0"/>
			<psa10 value="0.00121554329722" flag="0"/>
			<psa30 value="0.000153938817483" flag="0"/>
		</comp>
		<comp name=".HGZ" depth="0.0">
			<acc value="0.00274238352898" flag="0"/>
			<vel value="0.0012314706476" flag="0"/>
			<psa03 value="0.0087805191663" flag="0"/>
			<psa10 value="0.00193898356533" flag="0"/>
			<psa30 value="0.000334132941959" flag="0"/>
		</comp>
	</station>
	<station code="CALF" name="CALF" netid="FR" source="RESIF and other broad-band and accelerometric permanent networks in metropolitan France (RESIF)" insttype="" lat="43.7528" lon="6.9218">
		<comp name="00.HNE" depth="2.0">
			<acc value="0.00264002410817" flag="0"/>
			<vel value="0.00261581525952" flag="0"/>
			<psa03 value="0.00979459285412" flag="0"/>
			<psa10 value="0.00576469016367" flag="0"/>
			<psa30 value="0.000463323922101" flag="0"/>
		</comp>
		<comp name="00.HNN" depth="2.0">
			<acc value="0.00315108643616" flag="0"/>
			<vel value="0.00463457261045" flag="0"/>
			<psa03 value="0.00855505956925" flag="0"/>
			<psa10 value="0.00860343462283" flag="0"/>
			<psa30 value="0.000686533656569" flag="0"/>
		</comp>
		<comp name="00.HNZ" depth="2.0">
			<acc value="0.00228350476407" flag="0"/>
			<vel value="0.00271118091345" flag="0"/>
			<psa03 value="0.00588461899379" flag="0"/>
			<psa10 value="0.00327643993869" flag="0"/>
			<psa30 value="0.0005572042558" flag="0"/>
		</comp>
	</station>
	<station code="EILF" name="EILF" netid="FR" source="RESIF and other broad-band and accelerometric permanent networks in metropolitan France (RESIF)" insttype="" lat="43.5479" lon="7.1312">
		<comp name="00.HNE" depth="0.0">
			<acc value="0.00409274206652" flag="0"/>
			<vel value="0.00391814325861" flag="0"/>
			<psa03 value="0.0109738727985" flag="0"/>
			<psa10 value="0.0035529145819" flag="0"/>
			<psa30 value="0.00109029253903" flag="0"/>
		</comp>
		<comp name="00.HNN" depth="0.0">
			<acc value="0.00608525321966" flag="0"/>
			<vel value="0.0052510545426" flag="0"/>
			<psa03 value="0.0159179333912" flag="0"/>
			<psa10 value="0.00369599101314" flag="0"/>
			<psa30 value="0.00175429954707" flag="0"/>
		</comp>
		<comp name="00.HNZ" depth="0.0">
			<acc value="0.00371630478341" flag="0"/>
			<vel value="0.00233911652316" flag="0"/>
			<psa03 value="0.00700999758106" flag="0"/>
			<psa10 value="0.00260321807542" flag="0"/>
			<psa30 value="0.000459960313865" flag="0"/>
		</comp>
	</station>
	<station code="ESCA" name="ESCA" netid="FR" source="RESIF and other broad-band and accelerometric permanent networks in metropolitan France (RESIF)" insttype="" lat="43.831" lon="7.3744">
		<comp name="01.HNE" depth="0.0">
			<acc value="0.00884498824671" flag="0"/>
			<vel value="0.00952861144273" flag="0"/>
			<psa03 value="0.0216046772976" flag="0"/>
			<psa10 value="0.0152010366816" flag="0"/>
			<psa30 value="0.00144159351933" flag="0"/>
		</comp>
		<comp name="01.HNN" depth="0.0">
			<acc value="0.0091998341043" flag="0"/>
			<vel value="0.00636824879319" flag="0"/>
			<psa03 value="0.0237313924008" flag="0"/>
			<psa10 value="0.0110731738559" flag="0"/>
			<psa30 value="0.00124760910631" flag="0"/>
		</comp>
		<comp name="01.HNZ" depth="0.0">
			<acc value="0.00609391461037" flag="0"/>
			<vel value="0.00647579556591" flag="0"/>
			<psa03 value="0.0229339281144" flag="0"/>
			<psa10 value="0.0114778781656" flag="0"/>
			<psa30 value="0.000621266937137" flag="0"/>
		</comp>
	</station>
	<station code="ISO" name="ISO" netid="FR" source="RESIF and other broad-band and accelerometric permanent networks in metropolitan France (RESIF)" insttype="" lat="44.184" lon="7.05">
		<comp name="00.HNE" depth="0.0">
			<acc value="0.00196152441902" flag="0"/>
			<vel value="0.00116679150244" flag="0"/>
			<psa03 value="0.00612900692811" flag="0"/>
			<psa10 value="0.0023686222221" flag="0"/>
			<psa30 value="0.000214904587937" flag="0"/>
		</comp>
		<comp name="00.HNN" depth="0.0">
			<acc value="0.00242520088854" flag="0"/>
			<vel value="0.00213349076838" flag="0"/>
			<psa03 value="0.00795065559817" flag="0"/>
			<psa10 value="0.00316478566714" flag="0"/>
			<psa30 value="0.00032061392139" flag="0"/>
		</comp>
		<comp name="00.HNZ" depth="0.0">
			<acc value="0.00240508213952" flag="0"/>
			<vel value="0.00150755056347" flag="0"/>
			<psa03 value="0.00750648294472" flag="0"/>
			<psa10 value="0.00224696299089" flag="0"/>
			<psa30 value="0.000325602897719" flag="0"/>
		</comp>
	</station>
	<station code="MON" name="MON" netid="FR" source="RESIF and other broad-band and accelerometric permanent networks in metropolitan France (RESIF)" insttype="" lat="43.7303429" lon="7.4246883">
		<comp name="00.HNE" depth="0.0">
			<acc value="0.00984451447745" flag="0"/>
			<vel value="0.00862131821094" flag="0"/>
			<psa03 value="0.0506921081035" flag="0"/>
			<psa10 value="0.014763063918" flag="0"/>
			<psa30 value="0.00122997877172" flag="0"/>
		</comp>
		<comp name="00.HNN" depth="0.0">
			<acc value="0.0105285937345" flag="0"/>
			<vel value="0.00904657390393" flag="0"/>
			<psa03 value="0.0405997155736" flag="0"/>
			<psa10 value="0.0175067391105" flag="0"/>
			<psa30 value="0.00122438694296" flag="0"/>
		</comp>
		<comp name="00.HNZ" depth="0.0">
			<acc value="0.00674479130005" flag="0"/>
			<vel value="0.00646640806594" flag="0"/>
			<psa03 value="0.0125562718956" flag="0"/>
			<psa10 value="0.0193883550084" flag="0"/>
			<psa30 value="0.000965846586765" flag="0"/>
		</comp>
	</station>
	<station code="MVIF" name="MVIF" netid="FR" source="RESIF and other broad-band and accelerometric permanent networks in metropolitan France (RESIF)" insttype="" lat="43.896" lon="7.153">
		<comp name="00.HNE" depth="0.0">
			<acc value="0.00625882048039" flag="0"/>
			<vel value="0.00352427039564" flag="0"/>
			<psa03 value="0.0189108412921" flag="0"/>
			<psa10 value="0.00657395486724" flag="0"/>
			<psa30 value="0.000833369998341" flag="0"/>
		</comp>
		<comp name="00.HNN" depth="0.0">
			<acc value="0.00747186482041" flag="0"/>
			<vel value="0.00613489574934" flag="0"/>
			<psa03 value="0.0237622538202" flag="0"/>
			<psa10 value="0.0115051902874" flag="0"/>
			<psa30 value="0.00109967680653" flag="0"/>
		</comp>
		<comp name="00.HNZ" depth="0.0">
			<acc value="0.00440092935968" flag="0"/>
			<vel value="0.00217572953797" flag="0"/>
			<psa03 value="0.014616420089" flag="0"/>
			<psa10 value="0.00326963230022" flag="0"/>
			<psa30 value="0.000481996513238" flag="0"/>
		</comp>
	</station>
	<station code="NIMR" name="NIMR" netid="FR" source="RESIF and other broad-band and accelerometric permanent networks in metropolitan France (RESIF)" insttype="" lat="43.6802" lon="7.20276">
		<comp name="00.HNE" depth="0.0">
			<acc value="0.0263194244902" flag="0"/>
			<vel value="0.00777039557359" flag="0"/>
			<psa03 value="0.0258174081933" flag="0"/>
			<psa10 value="0.0146097500118" flag="0"/>
			<psa30 value="0.00115544570928" flag="0"/>
		</comp>
		<comp name="00.HNN" depth="0.0">
			<acc value="0.0159738709506" flag="0"/>
			<vel value="0.00999837398429" flag="0"/>
			<psa03 value="0.0288984794866" flag="0"/>
			<psa10 value="0.0168708994893" flag="0"/>
			<psa30 value="0.00131900654438" flag="0"/>
		</comp>
		<comp name="00.HNZ" depth="0.0">
			<acc value="0.0265727390285" flag="0"/>
			<vel value="0.00492344833498" flag="0"/>
			<psa03 value="0.0192980466301" flag="0"/>
			<psa10 value="0.00794298305866" flag="0"/>
			<psa30 value="0.000776378410424" flag="0"/>
		</comp>
	</station>
	<station code="NOCA" name="NOCA" netid="FR" source="RESIF and other broad-band and accelerometric permanent networks in metropolitan France (RESIF)" insttype="" lat="43.72633" lon="7.29985">
		<comp name="00.HNE" depth="0.0">
			<acc value="0.014028062735" flag="0"/>
			<vel value="0.0202826049727" flag="0"/>
			<psa03 value="0.0489328717707" flag="0"/>
			<psa10 value="0.0398559415105" flag="0"/>
			<psa30 value="0.00183304247173" flag="0"/>
		</comp>
		<comp name="00.HNN" depth="0.0">
			<acc value="0.0156728352107" flag="0"/>
			<vel value="0.0141413651936" flag="0"/>
			<psa03 value="0.0558705917774" flag="0"/>
			<psa10 value="0.0328142012798" flag="0"/>
			<psa30 value="0.00208408681052" flag="0"/>
		</comp>
		<comp name="00.HNZ" depth="0.0">
			<acc value="0.0118139424365" flag="0"/>
			<vel value="0.00975273762992" flag="0"/>
			<psa03 value="0.0141956435167" flag="0"/>
			<psa10 value="0.0227111895049" flag="0"/>
			<psa30 value="0.00120298187915" flag="0"/>
		</comp>
	</station>
	<station code="OGAG" name="OGAG" netid="FR" source="RESIF and other broad-band and accelerometric permanent networks in metropolitan France (RESIF)" insttype="" lat="44.78784" lon="6.539745">
		<comp name="00.HNE" depth="0.0">
			<acc value="0.00192440041559" flag="0"/>
			<vel value="0.00206208773793" flag="0"/>
			<psa03 value="0.00514815842306" flag="0"/>
			<psa10 value="0.00285569933232" flag="0"/>
			<psa30 value="0.000187367724692" flag="0"/>
		</comp>
		<comp name="00.HNN" depth="0.0">
			<acc value="0.00125818752694" flag="0"/>
			<vel value="0.0011823966802" flag="0"/>
			<psa03 value="0.00391827616813" flag="0"/>
			<psa10 value="0.00255555312098" flag="0"/>
			<psa30 value="0.000243808078172" flag="0"/>
		</comp>
		<comp name="00.HNZ" depth="0.0">
			<acc value="0.00141150056708" flag="0"/>
			<vel value="0.00116222144186" flag="0"/>
			<psa03 value="0.00373637805056" flag="0"/>
			<psa10 value="0.00219061644572" flag="0"/>
			<psa30 value="0.000251010534466" flag="0"/>
		</comp>
	</station>
	<station code="OGMO" name="OGMO" netid="FR" source="RESIF and other broad-band and accelerometric permanent networks in metropolitan France (RESIF)" insttype="" lat="45.20865" lon="6.68308">
		<comp name="00.HNE" depth="0.0">
			<acc value="0.00274505829081" flag="0"/>
			<vel value="0.00162032099272" flag="0"/>
			<psa03 value="0.0120090155904" flag="0"/>
			<psa10 value="0.00104445333053" flag="0"/>
			<psa30 value="0.000156747167585" flag="0"/>
		</comp>
		<comp name="00.HNN" depth="0.0">
			<acc value="0.00216671770844" flag="0"/>
			<vel value="0.00139285505943" flag="0"/>
			<psa03 value="0.0106687132603" flag="0"/>
			<psa10 value="0.00229295978796" flag="0"/>
			<psa30 value="0.000129923085934" flag="0"/>
		</comp>
		<comp name="00.HNZ" depth="0.0">
			<acc value="0.00407918466562" flag="0"/>
			<vel value="0.00208472856516" flag="0"/>
			<psa03 value="0.0161092741916" flag="0"/>
			<psa10 value="0.000750030349892" flag="0"/>
			<psa30 value="0.000139957435556" flag="0"/>
		</comp>
	</station>
	<station code="REVF" name="REVF" netid="FR" source="RESIF and other broad-band and accelerometric permanent networks in metropolitan France (RESIF)" insttype="" lat="43.738995" lon="7.366198">
		<comp name="00.HN1" depth="0.0">
			<acc value="0.00702640584294" flag="0"/>
			<vel value="0.00648802826745" flag="0"/>
			<psa03 value="0.0193267633762" flag="0"/>
			<psa10 value="0.015403224763" flag="0"/>
			<psa30 value="0.00149929046647" flag="0"/>
		</comp>
		<comp name="00.HN2" depth="0.0">
			<acc value="0.00945497808837" flag="0"/>
			<vel value="0.00805493657786" flag="0"/>
			<psa03 value="0.0228513184752" flag="0"/>
			<psa10 value="0.0210497769444" flag="0"/>
			<psa30 value="0.000984952435763" flag="0"/>
		</comp>
		<comp name="00.HNZ" depth="0.0">
			<acc value="0.00386454500994" flag="0"/>
			<vel value="0.00379847606626" flag="0"/>
			<psa03 value="0.00963691704431" flag="0"/>
			<psa10 value="0.0097717804575" flag="0"/>
			<psa30 value="0.000618065370883" flag="0"/>
		</comp>
	</station>
	<station code="SAOF" name="SAOF" netid="FR" source="RESIF and other broad-band and accelerometric permanent networks in metropolitan France (RESIF)" insttype="" lat="43.986" lon="7.5532">
		<comp name="00.HNE" depth="0.0">
			<acc value="0.00550108060847" flag="0"/>
			<vel value="0.00657865650784" flag="0"/>
			<psa03 value="0.0139217282358" flag="0"/>
			<psa10 value="0.0144362588313" flag="0"/>
			<psa30 value="0.000946950334978" flag="0"/>
		</comp>
		<comp name="00.HNN" depth="0.0">
			<acc value="0.00642375341266" flag="0"/>
			<vel value="0.0061929127686" flag="0"/>
			<psa03 value="0.0180079833051" flag="0"/>
			<psa10 value="0.0165231483275" flag="0"/>
			<psa30 value="0.00104665756509" flag="0"/>
		</comp>
		<comp name="00.HNZ" depth="0.0">
			<acc value="0.00679785490055" flag="0"/>
			<vel value="0.00501204647694" flag="0"/>
			<psa03 value="0.0191285979049" flag="0"/>
			<psa10 value="0.0154205715372" flag="0"/>
			<psa30 value="0.000712824044012" flag="0"/>
		</comp>
	</station>
	<station code="FIVI" name="FIVI" netid="GU" source="Regional Seismic Network of North Western Italy (RSNI)" insttype="" lat="44.2394" lon="10.1271">
		<comp name=".HNE" depth="0.0">
			<acc value="0.098900715287" flag="0"/>
			<vel value="0.0227265352058" flag="0"/>
			<psa03 value="0.0964891419319" flag="0"/>
			<psa10 value="0.0109574749414" flag="0"/>
			<psa30 value="0.000989084271977" flag="0"/>
		</comp>
		<comp name=".HNN" depth="0.0">
			<acc value="0.101734807061" flag="0"/>
			<vel value="0.0291845650267" flag="0"/>
			<psa03 value="0.100523638364" flag="0"/>
			<psa10 value="0.00970229304182" flag="0"/>
			<psa30 value="0.000969034402106" flag="0"/>
		</comp>
		<comp name=".HNZ" depth="0.0">
			<acc value="0.0858189262133" flag="0"/>
			<vel value="0.0217561299667" flag="0"/>
			<psa03 value="0.0656318113272" flag="0"/>
			<psa10 value="0.0132338682413" flag="0"/>
			<psa30 value="0.00154152743113" flag="0"/>
		</comp>
	</station>
	<station code="RSP" name="RSP" netid="GU" source="Regional Seismic Network of North Western Italy (RSNI)" insttype="" lat="45.1482" lon="7.2649">
		<comp name=".HHE" depth="0.0">
			<acc value="0.00147271751682" flag="0"/>
			<vel value="0.000748823474406" flag="0"/>
			<psa03 value="0.00394495176338" flag="0"/>
			<psa10 value="0.000889468454171" flag="0"/>
			<psa30 value="0.000147105617421" flag="0"/>
		</comp>
		<comp name=".HHN" depth="0.0">
			<acc value="0.00137205231193" flag="0"/>
			<vel value="0.000667531668689" flag="0"/>
			<psa03 value="0.00424286082131" flag="0"/>
			<psa10 value="0.00064657693411" flag="0"/>
			<psa30 value="8.80255578237e-05" flag="0"/>
		</comp>
		<comp name=".HHZ" depth="0.0">
			<acc value="0.00147140475151" flag="0"/>
			<vel value="0.000552324414159" flag="0"/>
			<psa03 value="0.00244555051483" flag="0"/>
			<psa10 value="0.00047823566514" flag="0"/>
			<psa30 value="9.51896717341e-05" flag="0"/>
		</comp>
	</station>
	<station code="ACQ" name="ACQ" netid="IT" source="Italian Strong Motion Network (RAN)" insttype="" lat="44.682598114" lon="8.4624004364">
		<comp name="00.HNE" depth="0.0">
			<acc value="0.100274845135" flag="0"/>
			<vel value="0.0370110789239" flag="0"/>
			<psa03 value="0.158414233749" flag="0"/>
			<psa10 value="0.0105687279389" flag="0"/>
			<psa30 value="0.00206976898704" flag="0"/>
		</comp>
		<comp name="00.HNN" depth="0.0">
			<acc value="0.09008365067" flag="0"/>
			<vel value="0.0247931732484" flag="0"/>
			<psa03 value="0.12975749163" flag="0"/>
			<psa10 value="0.0122677676794" flag="0"/>
			<psa30 value="0.00126773377281" flag="0"/>
		</comp>
		<comp name="00.HNZ" depth="0.0">
			<acc value="0.0444158784731" flag="0"/>
			<vel value="0.0133520223152" flag="0"/>
			<psa03 value="0.0573738632368" flag="0"/>
			<psa10 value="0.0130693251537" flag="0"/>
			<psa30 value="0.00164329823544" flag="0"/>
		</comp>
	</station>
	<station code="ALSD" name="ALSD" netid="IT" source="Italian Strong Motion Network (RAN)" insttype="" lat="44.938702" lon="8.5684">
		<comp name="00.HNE" depth="0.0">
			<acc value="0.0213913446302" flag="0"/>
