<?xml version="1.0" encoding="UTF-8" standalone="yes"?>
<!DOCTYPE earthquake SYSTEM "stationlist.dtd">
<stationlist created="" xmlns="ch.ethz.sed.shakemap.usgs.xml">
  <station code="LAKA" name="LAKA" netid="HA" insttype="120s" lat="38.2401" lon="21.9785">
    <comp name="--.HHN">
      <acc value="0.0134202921" flag="0"/>
      <vel value="0.0089781220" flag="0"/>
      <psa03 value="0.0192022331" flag="0"/>
      <psa10 value="0.0043406087" flag="0"/>
      <psa30 value="0.0010231178" flag="0"/>
    </comp>
    <comp name="--.HHE">
      <acc value="0.0107415170" flag="0"/>
      <vel value="0.0076403218" flag="0"/>
      <psa03 value="0.0316791366" flag="0"/>
      <psa10 value="0.0091419459" flag="0"/>
      <psa30 value="0.0009263367" flag="0"/>
    </comp>
    <comp name="--.HHZ">
      <acc value="0.0068457195" flag="0"/>
      <vel value="0.0060591711" flag="0"/>
      <psa03 value="0.0164468974" flag="0"/>
      <psa10 value="0.0078401769" flag="0"/>
      <psa30 value="0.0009047668" flag="0"/>
    </comp>
  </station>
  <station code="KLV1" name="KLV1" netid="HI" insttype="CMG-5TD,ACCELEROMETER,GURALP" lat="38.0326" lon="22.108">
    <comp name="--.HNE">
      <acc value="0.0405923594" flag="0"/>
      <vel value="0.0236956047" flag="0"/>
      <psa03 value="0.1025044774" flag="0"/>
      <psa10 value="0.0135473638" flag="0"/>
      <psa30 value="0.0015604387" flag="0"/>
    </comp>
    <comp name="--.HNZ">
      <acc value="0.0191088232" flag="0"/>
      <vel value="0.0109430389" flag="0"/>
      <psa03 value="0.0310608067" flag="0"/>
      <psa10 value="0.0141491457" flag="0"/>
      <psa30 value="0.0010369208" flag="0"/>
    </comp>
    <comp name="--.HNN">
      <acc value="0.0370121567" flag="0"/>
      <vel value="0.0157428555" flag="0"/>
      <psa03 value="0.1084891907" flag="0"/>
      <psa10 value="0.0151139195" flag="0"/>
      <psa30 value="0.0012217827" flag="0"/>
    </comp>
  </station>
  <station code="PYL1" name="PYL1" netid="HI" insttype="CMG-5TD,ACCELEROMETER,GURALP" lat="36.9142" lon="21.6952">
    <comp name="--.HNN">
      <acc value="0.1416123066" flag="0"/>
      <vel value="0.0447350704" flag="0"/>
      <psa03 value="0.2937822100" flag="0"/>
      <psa10 value="0.0400023811" flag="0"/>
      <psa30 value="0.0032047833" flag="0"/>
    </comp>
    <comp name="--.HNE">
      <acc value="0.1642710860" flag="0"/>
      <vel value="0.0814913475" flag="0"/>
      <psa03 value="0.2935031552" flag="0"/>
      <psa10 value="0.0313110533" flag="0"/>
      <psa30 value="0.0066029186" flag="0"/>
    </comp>
    <comp name="--.HNZ">
      <acc value="0.0945869255" flag="0"/>
      <vel value="0.0378855266" flag="0"/>
      <psa03 value="0.1497815923" flag="0"/>
      <psa10 value="0.0310365315" flag="0"/>
      <psa30 value="0.0032517998" flag="0"/>
    </comp>
  </station>
  <station code="ITM" name="ITM" netid="HL" insttype="DR24" lat="37.1787" lon="21.9252">
    <comp name="--.HHN">
      <acc value="0.4298361683" flag="0"/>
      <vel value="0.1322016278" flag="0"/>
      <psa03 value="0.3064544636" flag="0"/>
      <psa10 value="0.0612656650" flag="0"/>
      <psa30 value="0.0075021557" flag="0"/>
    </comp>
    <comp name="--.HHZ">
      <acc value="0.1796468745" flag="0"/>
      <vel value="0.0632114154" flag="0"/>
      <psa03 value="0.1158908646" flag="0"/>
      <psa10 value="0.0644122818" flag="0"/>
      <psa30 value="0.0039398743" flag="0"/>
    </comp>
    <comp name="--.HHE">
      <acc value="0.2745398216" flag="0"/>
      <vel value="0.0721580724" flag="0"/>
      <psa03 value="0.2220985207" flag="0"/>
      <psa10 value="0.0533437584" flag="0"/>
      <psa30 value="0.0028661469" flag="0"/>
    </comp>
  </station>
  <station code="KLV" name="KLV" netid="HL" insttype="120" lat="38.0435" lon="22.1504">
    <comp name="--.HHZ">
      <acc value="0.0092837578" flag="0"/>
      <vel value="0.0074977294" flag="0"/>
      <psa03 value="0.0264350979" flag="0"/>
      <psa10 value="0.0062546533" flag="0"/>
      <psa30 value="0.0008441997" flag="0"/>
    </comp>
    <comp name="--.HHN">
      <acc value="0.0107750018" flag="0"/>
      <vel value="0.0044205321" flag="0"/>
      <psa03 value="0.0355424402" flag="0"/>
      <psa10 value="0.0081619802" flag="0"/>
      <psa30 value="0.0005114221" flag="0"/>
    </comp>
    <comp name="--.HHE">
      <acc value="0.0089277578" flag="0"/>
      <vel value="0.0055960575" flag="0"/>
      <psa03 value="0.0207056454" flag="0"/>
      <psa10 value="0.0073579359" flag="0"/>
      <psa30 value="0.0007098054" flag="0"/>
    </comp>
  </station>
  <station code="PATC" name="PATC" netid="HL" insttype="CMG-5" lat="38.2693" lon="21.76">
    <comp name="00.HNZ">
      <acc value="0.0281316384" flag="0"/>
      <vel value="0.0182195775" flag="0"/>
      <psa03 value="0.0839151272" flag="0"/>
      <psa10 value="0.0197528072" flag="0"/>
      <psa30 value="0.0014836639" flag="0"/>
    </comp>
    <comp name="00.HNN">
      <acc value="0.0425996141" flag="0"/>
      <vel value="0.0383153327" flag="0"/>
      <psa03 value="0.1192189978" flag="0"/>
      <psa10 value="0.0323092560" flag="0"/>
      <psa30 value="0.0033227075" flag="0"/>
    </comp>
    <comp name="00.HNE">
      <acc value="0.0619401441" flag="0"/>
      <vel value="0.0443953719" flag="0"/>
      <psa03 value="0.1958255878" flag="0"/>
      <psa10 value="0.0532429892" flag="0"/>
      <psa30 value="0.0045699041" flag="0"/>
    </comp>
  </station>
  <station code="PATG" name="PATG" netid="HL" insttype="CMG-5" lat="38.2386" lon="21.7266">
    <comp name="00.HNE">
      <acc value="0.0517782787" flag="0"/>
      <vel value="0.0298096972" flag="0"/>
      <psa03 value="0.1112031813" flag="0"/>
      <psa10 value="0.0268149282" flag="0"/>
      <psa30 value="0.0052191365" flag="0"/>
    </comp>
    <comp name="00.HNN">
      <acc value="0.0499602116" flag="0"/>
      <vel value="0.0291244263" flag="0"/>
      <psa03 value="0.1112944076" flag="0"/>
      <psa10 value="0.0453349867" flag="0"/>
      <psa30 value="0.0059792386" flag="0"/>
    </comp>
    <comp name="00.HNZ">
      <acc value="0.0228533193" flag="0"/>
      <vel value="0.0284272989" flag="0"/>
      <psa03 value="0.0630363232" flag="0"/>
      <psa10 value="0.0265724217" flag="0"/>
      <psa30 value="0.0052744436" flag="0"/>
    </comp>
  </station>
  <station code="RLS" name="RLS" netid="HL" insttype="CMG3ESPC-120s" lat="38.0559" lon="21.4647">
    <comp name="--.HHZ">
      <acc value="0.0112829168" flag="0"/>
      <vel value="0.0086856127" flag="0"/>
      <psa03 value="0.0344161322" flag="0"/>
      <psa10 value="0.0139192827" flag="0"/>
      <psa30 value="0.0015094049" flag="0"/>
    </comp>
    <comp name="--.HHN">
      <acc value="0.0197655907" flag="0"/>
      <vel value="0.0096538713" flag="0"/>
      <psa03 value="0.0371774588" flag="0"/>
      <psa10 value="0.0135733749" flag="0"/>
      <psa30 value="0.0020278823" flag="0"/>
    </comp>
    <comp name="--.HHE">
      <acc value="0.0293315999" flag="0"/>
      <vel value="0.0232094299" flag="0"/>
      <psa03 value="0.0864802057" flag="0"/>
      <psa10 value="0.0178263635" flag="0"/>
      <psa30 value="0.0009833120" flag="0"/>
    </comp>
  </station>
  <station code="AXS" name="AXS" netid="HP" insttype="40," lat="38.1962" lon="21.3763">
    <comp name="--.HHZ">
      <acc value="0.0054646567" flag="0"/>
      <vel value="0.0042715609" flag="0"/>
      <psa03 value="0.0204739516" flag="0"/>
      <psa10 value="0.0037033105" flag="0"/>
      <psa30 value="0.0008711601" flag="0"/>
    </comp>
    <comp name="--.HHN">
      <acc value="0.0062555935" flag="0"/>
      <vel value="0.0042778329" flag="0"/>
      <psa03 value="0.0198801876" flag="0"/>
      <psa10 value="0.0049664125" flag="0"/>
      <psa30 value="0.0004426653" flag="0"/>
    </comp>
    <comp name="--.HHE">
      <acc value="0.0081767446" flag="0"/>
      <vel value="0.0046831529" flag="0"/>
      <psa03 value="0.0201073655" flag="0"/>
      <psa10 value="0.0072599547" flag="0"/>
      <psa30 value="0.0009009134" flag="0"/>
    </comp>
  </station>
  <station code="DRO" name="DRO" netid="HP" insttype="120P," lat="37.952" lon="21.71">
    <comp name="--.HHZ">
      <acc value="0.0475813938" flag="0"/>
      <vel value="0.0199116684" flag="0"/>
      <psa03 value="0.1641899353" flag="0"/>
      <psa10 value="0.0138019975" flag="0"/>
      <psa30 value="0.0023904184" flag="0"/>
    </comp>
    <comp name="--.HHE">
      <acc value="0.0935425828" flag="0"/>
      <vel value="0.0558352567" flag="0"/>
      <psa03 value="0.2174599974" flag="0"/>
      <psa10 value="0.0271384911" flag="0"/>
      <psa30 value="0.0026099655" flag="0"/>
    </comp>
    <comp name="--.HHN">
      <acc value="0.0633750905" flag="0"/>
      <vel value="0.0292678254" flag="0"/>
      <psa03 value="0.1749608534" flag="0"/>
      <psa10 value="0.0178423682" flag="0"/>
      <psa30 value="0.0022893494" flag="0"/>
    </comp>
  </station>
  <station code="GUR" name="GUR" netid="HP" insttype="40," lat="37.9363" lon="22.3423">
    <comp name="--.HHN">
      <acc value="0.0456601008" flag="0"/>
      <vel value="0.0329185876" flag="0"/>
      <psa03 value="0.1689850334" flag="0"/>
      <psa10 value="0.0180419732" flag="0"/>
      <psa30 value="0.0013678143" flag="0"/>
    </comp>
    <comp name="--.HHZ">
      <acc value="0.0195379419" flag="0"/>
      <vel value="0.0102050458" flag="0"/>
      <psa03 value="0.0384657695" flag="0"/>
      <psa10 value="0.0166428772" flag="0"/>
      <psa30 value="0.0009527006" flag="0"/>
    </comp>
    <comp name="--.HHE">
      <acc value="0.0265800961" flag="0"/>
      <vel value="0.0142360457" flag="0"/>
      <psa03 value="0.0655449288" flag="0"/>
      <psa10 value="0.0119998625" flag="0"/>
      <psa30 value="0.0008184313" flag="0"/>
    </comp>
  </station>
  <station code="LTHK" name="LTHK" netid="HP" insttype="40," lat="37.7095" lon="20.8367">
    <comp name="--.HHE">
      <acc value="0.1135323664" flag="0"/>
      <vel value="0.0477194180" flag="0"/>
      <psa03 value="0.2556437979" flag="0"/>
      <psa10 value="0.0237499366" flag="0"/>
      <psa30 value="0.0013876017" flag="0"/>
    </comp>
    <comp name="--.HHN">
      <acc value="0.1277024449" flag="0"/>
      <vel value="0.0417691543" flag="0"/>
      <psa03 value="0.2031834337" flag="0"/>
      <psa10 value="0.0215988446" flag="0"/>
      <psa30 value="0.0020672014" flag="0"/>
    </comp>
    <comp name="--.HHZ">
      <acc value="0.0505431807" flag="0"/>
      <vel value="0.0261854507" flag="0"/>
      <psa03 value="0.1188510284" flag="0"/>
      <psa10 value="0.0166129242" flag="0"/>
      <psa30 value="0.0011868461" flag="0"/>
    </comp>
  </station>
  <station code="UPR" name="UPR" netid="HP" insttype="120" lat="0" lon="0">
    <comp name="--.HHN">
      <acc value="0.0267030138" flag="0"/>
      <vel value="0.0241354769" flag="0"/>
      <psa03 value="0.0646373862" flag="0"/>
      <psa10 value="0.0380049092" flag="0"/>
      <psa30 value="0.0042331210" flag="0"/>
    </comp>
    <comp name="--.HHE">
      <acc value="0.0283786202" flag="0"/>
      <vel value="0.0200269336" flag="0"/>
      <psa03 value="0.0755287865" flag="0"/>
      <psa10 value="0.0299622266" flag="0"/>
      <psa30 value="0.0022928662" flag="0"/>
    </comp>
    <comp name="--.HHZ">
      <acc value="0.0196892899" flag="0"/>
      <vel value="0.0147666351" flag="0"/>
      <psa03 value="0.0534251055" flag="0"/>
      <psa10 value="0.0210894052" flag="0"/>
      <psa30 value="0.0011987647" flag="0"/>
    </comp>
  </station>
  <station code="VALY" name="VALY" netid="HP" insttype="DC_100" lat="37.1641" lon="21.9836">
    <comp name="--.HNE">
      <acc value="0.1577253716" flag="0"/>
      <vel value="0.0318850732" flag="0"/>
      <psa03 value="0.1317225148" flag="0"/>
      <psa10 value="0.0325723347" flag="0"/>
      <psa30 value="0.0018160405" flag="0"/>
    </comp>
    <comp name="--.HNN">
      <acc value="0.1829338717" flag="0"/>
      <vel value="0.0563287120" flag="0"/>
      <psa03 value="0.1199094434" flag="0"/>
      <psa10 value="0.0602957596" flag="0"/>
      <psa30 value="0.0053403081" flag="0"/>
    </comp>
    <comp name="--.HNZ">
      <acc value="0.1151397150" flag="0"/>
      <vel value="0.0259353855" flag="0"/>
      <psa03 value="0.0478007528" flag="0"/>
      <psa10 value="0.0273606490" flag="0"/>
      <psa30 value="0.0020870895" flag="0"/>
    </comp>
  </station>
  <station code="VLX" name="VLX" netid="HP" insttype="40," lat="37.3703" lon="22.3793">
    <comp name="--.HHZ">
      <acc value="0.0167257973" flag="0"/>
      <vel value="0.0136313668" flag="0"/>
      <psa03 value="0.0614090277" flag="0"/>
      <psa10 value="0.0194959033" flag="0"/>
      <psa30 value="0.0015006343" flag="0"/>
    </comp>
    <comp name="--.HHN">
      <acc value="0.0259730409" flag="0"/>
      <vel value="0.0186856799" flag="0"/>
      <psa03 value="0.0450364156" flag="0"/>
      <psa10 value="0.0365338834" flag="0"/>
      <psa30 value="0.0022145173" flag="0"/>
    </comp>
    <comp name="--.HHE">
      <acc value="0.0387073015" flag="0"/>
      <vel value="0.0341122120" flag="0"/>
      <psa03 value="0.0683760744" flag="0"/>
      <psa10 value="0.0578537008" flag="0"/>
      <psa30 value="0.0024861640" flag="0"/>
    </comp>
  </station>
  <station code="KLV" name="KLV" netid="MN" insttype="" lat="38.0437" lon="22.1504">
    <comp name="--.HHZ">
      <acc value="0.0098067708" flag="0"/>
      <vel value="0.0075956027" flag="0"/>
      <psa03 value="0.0270366730" flag="0"/>
      <psa10 value="0.0062961789" flag="0"/>
      <psa30 value="0.0008460984" flag="0"/>
    </comp>
    <comp name="--.HHE">
      <acc value="0.0093209072" flag="0"/>
      <vel value="0.0056584606" flag="0"/>
      <psa03 value="0.0212074005" flag="0"/>
      <psa10 value="0.0073959974" flag="0"/>
      <psa30 value="0.0007117213" flag="0"/>
    </comp>
    <comp name="--.HHN">
      <acc value="0.0110941897" flag="0"/>
      <vel value="0.0045513752" flag="0"/>
      <psa03 value="0.0364867154" flag="0"/>
      <psa10 value="0.0082129024" flag="0"/>
      <psa30 value="0.0005128758" flag="0"/>
    </comp>
  </station>
</stationlist>
