<stationlist created="1775820562">
	<station code="MALA" name="MALA" netid="CL" source="Corinth Riff Laboratory (CRLNET)" insttype="" lat="38.39341" lon="21.87263">
		<comp name="01.HNE" depth="0.0">
			<acc value="0.0333515759595762" flag="0"/>
			<vel value="0.0337402946066367" flag="0"/>
			<psa03 value="0.0741378363664763" flag="0"/>
			<psa10 value="0.0676300824138487" flag="0"/>
			<psa30 value="0.0028554476263781" flag="0"/>
		</comp>
		<comp name="01.HNN" depth="0.0">
			<acc value="0.0201152125701136" flag="0"/>
			<vel value="0.020205572383324" flag="0"/>
			<psa03 value="0.0573595088846244" flag="0"/>
			<psa10 value="0.0468558284589189" flag="0"/>
			<psa30 value="0.00286618575596649" flag="0"/>
		</comp>
		<comp name="01.HNZ" depth="0.0">
			<acc value="0.00915766502380103" flag="0"/>
			<vel value="0.00973172379648242" flag="0"/>
			<psa03 value="0.0199997663583675" flag="0"/>
			<psa10 value="0.0111381249155526" flag="0"/>
			<psa30 value="0.00188096236623214" flag="0"/>
		</comp>
	</station>
	<station code="AIGS" name="AIGS" netid="HA" source="Hellenic Seismological Network, University of Athens, Seismological Laboratory (HA)" insttype="" lat="38.25001" lon="22.0878">
		<comp name="--.HNE" depth="0.0">
			<acc value="0.0413362070483287" flag="0"/>
			<vel value="0.0268130000176818" flag="0"/>
			<psa03 value="0.104786247899992" flag="0"/>
			<psa10 value="0.018563541525921" flag="0"/>
			<psa30 value="0.00217894546230983" flag="0"/>
		</comp>
		<comp name="--.HNN" depth="0.0">
			<acc value="0.0235891376039508" flag="0"/>
			<vel value="0.0145221402924027" flag="0"/>
			<psa03 value="0.0643392931170748" flag="0"/>
			<psa10 value="0.00805359719128892" flag="0"/>
			<psa30 value="0.00245858425367403" flag="0"/>
		</comp>
		<comp name="--.HNZ" depth="0.0">
			<acc value="0.0179247390699437" flag="0"/>
			<vel value="0.010585145650605" flag="0"/>
			<psa03 value="0.0445184955851804" flag="0"/>
			<psa10 value="0.0111743661029134" flag="0"/>
			<psa30 value="0.00139371973615916" flag="0"/>
		</comp>
	</station>
	<station code="LTRS" name="LTRS" netid="HA" source="Hellenic Seismological Network, University of Athens, Seismological Laboratory (HA)" insttype="" lat="37.97528" lon="22.9765">
		<comp name="--.HNE" depth="0.0">
			<acc value="0.0143624045653019" flag="0"/>
			<vel value="0.012602926693109" flag="0"/>
			<psa03 value="0.0502902402389375" flag="0"/>
			<psa10 value="0.0241326039836972" flag="0"/>
			<psa30 value="0.00221787118206773" flag="0"/>
		</comp>
		<comp name="--.HNN" depth="0.0">
			<acc value="0.0137553347115896" flag="0"/>
			<vel value="0.0145232696143226" flag="0"/>
			<psa03 value="0.0310510913930806" flag="0"/>
			<psa10 value="0.0275433023942081" flag="0"/>
			<psa30 value="0.00175434192150244" flag="0"/>
		</comp>
		<comp name="--.HNZ" depth="0.0">
			<acc value="0.00729868597325389" flag="0"/>
			<vel value="0.00783352334959248" flag="0"/>
			<psa03 value="0.0178968826473087" flag="0"/>
			<psa10 value="0.0144119121738115" flag="0"/>
			<psa30 value="0.00142459185872577" flag="0"/>
		</comp>
	</station>
	<station code="XLKS" name="XLKS" netid="HA" source="Hellenic Seismological Network, University of Athens, Seismological Laboratory (HA)" insttype="" lat="38.0772" lon="22.6361">
		<comp name="--.HNE" depth="0.0">
			<acc value="0.0400551325938033" flag="0"/>
			<vel value="0.0252156535659561" flag="0"/>
			<psa03 value="0.0826835978305662" flag="0"/>
			<psa10 value="0.0441699537956241" flag="0"/>
			<psa30 value="0.00592789495485482" flag="0"/>
		</comp>
		<comp name="--.HNN" depth="0.0">
			<acc value="0.0410449434883689" flag="0"/>
			<vel value="0.0298626952287812" flag="0"/>
			<psa03 value="0.0849207081614798" flag="0"/>
			<psa10 value="0.0418625982003198" flag="0"/>
			<psa30 value="0.00458249680184339" flag="0"/>
		</comp>
		<comp name="--.HNZ" depth="0.0">
			<acc value="0.0195016743591208" flag="0"/>
			<vel value="0.0155454154807754" flag="0"/>
			<psa03 value="0.048232098734497" flag="0"/>
			<psa10 value="0.0155434425791876" flag="0"/>
			<psa30 value="0.00235299264605491" flag="0"/>
		</comp>
	</station>
	<station code="ARS1" name="ARS1" netid="HI" source="ITSAK Strong Motion Network" insttype="" lat="37.6349" lon="22.7293">
		<comp name="--.HNE" depth="0.0">
			<acc value="0.0119847557477796" flag="0"/>
			<vel value="0.0136639022387944" flag="0"/>
			<psa03 value="0.0295745985746776" flag="0"/>
			<psa10 value="0.0172709391767191" flag="0"/>
			<psa30 value="0.00136553214598965" flag="0"/>
		</comp>
		<comp name="--.HNN" depth="0.0">
			<acc value="0.0126942507053356" flag="0"/>
			<vel value="0.0108222944809535" flag="0"/>
			<psa03 value="0.0408943768491004" flag="0"/>
			<psa10 value="0.0223809465945919" flag="0"/>
			<psa30 value="0.00132168478350375" flag="0"/>
		</comp>
		<comp name="--.HNZ" depth="0.0">
			<acc value="0.0120557940311177" flag="0"/>
			<vel value="0.00537881700512738" flag="0"/>
			<psa03 value="0.0250108934996139" flag="0"/>
			<psa10 value="0.008097891975841" flag="0"/>
			<psa30 value="0.000985670811800527" flag="0"/>
		</comp>
	</station>
	<station code="KLV1" name="KLV1" netid="HI" source="ITSAK Strong Motion Network" insttype="" lat="38.03256" lon="22.10797">
		<comp name="--.HNE" depth="0.0">
			<acc value="0.0406370255734317" flag="0"/>
			<vel value="0.0242579283499298" flag="0"/>
			<psa03 value="0.102996559635262" flag="0"/>
			<psa10 value="0.013534070079961" flag="0"/>
			<psa30 value="0.00170646776042088" flag="0"/>
		</comp>
		<comp name="--.HNN" depth="0.0">
			<acc value="0.0369882998653459" flag="0"/>
			<vel value="0.0159632574361367" flag="0"/>
			<psa03 value="0.105860060858831" flag="0"/>
			<psa10 value="0.0151488163168145" flag="0"/>
			<psa30 value="0.00128454875201058" flag="0"/>
		</comp>
		<comp name="--.HNZ" depth="0.0">
			<acc value="0.0191792046668755" flag="0"/>
			<vel value="0.0112025494155606" flag="0"/>
			<psa03 value="0.0307378959467527" flag="0"/>
			<psa10 value="0.0141421166679033" flag="0"/>
			<psa30 value="0.00110423765933895" flag="0"/>
		</comp>
	</station>
	<station code="MSL1" name="MSL1" netid="HI" source="ITSAK Strong Motion Network" insttype="" lat="38.3727" lon="21.4243">
		<comp name="--.HNE" depth="0.0">
			<acc value="0.0227568310800429" flag="0"/>
			<vel value="0.0257467858807714" flag="0"/>
			<psa03 value="0.0587912594964091" flag="0"/>
			<psa10 value="0.0302613914462681" flag="0"/>
			<psa30 value="0.00722586636885089" flag="0"/>
		</comp>
		<comp name="--.HNN" depth="0.0">
			<acc value="0.0236103980079743" flag="0"/>
			<vel value="0.0240505301712368" flag="0"/>
			<psa03 value="0.0755248447716427" flag="0"/>
			<psa10 value="0.027205051312174" flag="0"/>
			<psa30 value="0.00436325998941386" flag="0"/>
		</comp>
		<comp name="--.HNZ" depth="0.0">
			<acc value="0.00939642873941986" flag="0"/>
			<vel value="0.0110128584105867" flag="0"/>
			<psa03 value="0.0279638791364198" flag="0"/>
			<psa10 value="0.0177541550081964" flag="0"/>
			<psa30 value="0.00117358807959727" flag="0"/>
		</comp>
	</station>
	<station code="NPS1" name="NPS1" netid="HI" source="ITSAK Strong Motion Network" insttype="" lat="36.51263" lon="23.06248">
		<comp name="--.HNE" depth="0.0">
			<acc value="0.0103305716030209" flag="0"/>
			<vel value="0.00913836122995729" flag="0"/>
			<psa03 value="0.0349436633688702" flag="0"/>
			<psa10 value="0.0159259884457738" flag="0"/>
			<psa30 value="0.00154942261519075" flag="0"/>
		</comp>
		<comp name="--.HNN" depth="0.0">
			<acc value="0.0110202684105695" flag="0"/>
			<vel value="0.0114182022205696" flag="0"/>
			<psa03 value="0.0271137772106727" flag="0"/>
			<psa10 value="0.0187165598725554" flag="0"/>
			<psa30 value="0.00116016541761179" flag="0"/>
		</comp>
		<comp name="--.HNZ" depth="0.0">
			<acc value="0.00637359233276638" flag="0"/>
			<vel value="0.00432292893301755" flag="0"/>
			<psa03 value="0.02666635514449" flag="0"/>
			<psa10 value="0.00920123479104759" flag="0"/>
			<psa30 value="0.00082817824450421" flag="0"/>
		</comp>
	</station>
	<station code="PYL1" name="PYL1" netid="HI" source="ITSAK Strong Motion Network" insttype="" lat="36.914188" lon="21.695161">
		<comp name="--.HNE" depth="0.0">
			<acc value="0.165501862031312" flag="0"/>
			<vel value="0.0818831688631903" flag="0"/>
			<psa03 value="0.294985368234266" flag="0"/>
			<psa10 value="0.0313446002684965" flag="0"/>
			<psa30 value="0.00691446061078772" flag="0"/>
		</comp>
		<comp name="--.HNN" depth="0.0">
			<acc value="0.142047104583916" flag="0"/>
			<vel value="0.0459500328153106" flag="0"/>
			<psa03 value="0.295477532507067" flag="0"/>
			<psa10 value="0.0400666460266624" flag="0"/>
			<psa30 value="0.00343172724762144" flag="0"/>
		</comp>
		<comp name="--.HNZ" depth="0.0">
			<acc value="0.0928863362771565" flag="0"/>
			<vel value="0.0380185245861163" flag="0"/>
			<psa03 value="0.15172082264256" flag="0"/>
			<psa10 value="0.0311070191513534" flag="0"/>
			<psa30 value="0.00361069607409453" flag="0"/>
		</comp>
	</station>
	<station code="VAS2" name="VAS2" netid="HI" source="ITSAK Strong Motion Network" insttype="" lat="38.630558" lon="20.608081">
		<comp name="--.HNE" depth="0.0">
			<acc value="0.0241480499623558" flag="0"/>
			<vel value="0.0233173328636665" flag="0"/>
			<psa03 value="0.0706479442502511" flag="0"/>
			<psa10 value="0.0293352277692699" flag="0"/>
			<psa30 value="0.00195031278649047" flag="0"/>
		</comp>
		<comp name="--.HNN" depth="0.0">
			<acc value="0.0325758281416485" flag="0"/>
			<vel value="0.0218464654355445" flag="0"/>
			<psa03 value="0.085278645814426" flag="0"/>
			<psa10 value="0.0343566456180385" flag="0"/>
			<psa30 value="0.0027104828769349" flag="0"/>
		</comp>
		<comp name="--.HNZ" depth="0.0">
			<acc value="0.018326328187508" flag="0"/>
			<vel value="0.0126523178880659" flag="0"/>
			<psa03 value="0.0579411575706619" flag="0"/>
			<psa10 value="0.0111743661029134" flag="0"/>
			<psa30 value="0.00120624989042861" flag="0"/>
		</comp>
	</station>
	<station code="ITM" name="ITM" netid="HL" source="National Observatory of Athens Seismic Network" insttype="" lat="37.17872" lon="21.92522">
		<comp name="--.HNE" depth="0.0">
			<acc value="0.269680104893168" flag="0"/>
			<vel value="0.074082590864476" flag="0"/>
			<psa03 value="0.219505265669241" flag="0"/>
			<psa10 value="0.052698713221199" flag="0"/>
			<psa30 value="0.00280444151083327" flag="0"/>
		</comp>
		<comp name="--.HNN" depth="0.0">
			<acc value="0.43003635664996" flag="0"/>
			<vel value="0.13156433610916" flag="0"/>
			<psa03 value="0.305141849136613" flag="0"/>
			<psa10 value="0.0602852017753932" flag="0"/>
			<psa30 value="0.00754801025650244" flag="0"/>
		</comp>
		<comp name="--.HNZ" depth="0.0">
			<acc value="0.176129118277037" flag="0"/>
			<vel value="0.060226486754251" flag="0"/>
			<psa03 value="0.106575936164723" flag="0"/>
			<psa10 value="0.0594959492506469" flag="0"/>
			<psa30 value="0.00380800920528111" flag="0"/>
		</comp>
	</station>
	<station code="PATC" name="PATC" netid="HL" source="National Observatory of Athens Seismic Network" insttype="" lat="38.26933" lon="21.76001">
		<comp name="00.HNE" depth="0.0">
			<acc value="0.0619220874565976" flag="0"/>
			<vel value="0.0440832212255535" flag="0"/>
			<psa03 value="0.195657669541702" flag="0"/>
			<psa10 value="0.0532020630456546" flag="0"/>
			<psa30 value="0.00490285100123022" flag="0"/>
		</comp>
		<comp name="00.HNN" depth="0.0">
			<acc value="0.0423846448121297" flag="0"/>
			<vel value="0.0386723505792026" flag="0"/>
			<psa03 value="0.119282722844313" flag="0"/>
			<psa10 value="0.0323835143061727" flag="0"/>
			<psa30 value="0.00359235176938104" flag="0"/>
		</comp>
		<comp name="00.HNZ" depth="0.0">
			<acc value="0.0278953795371463" flag="0"/>
			<vel value="0.0180759059181283" flag="0"/>
			<psa03 value="0.0840258640291144" flag="0"/>
			<psa10 value="0.019763527507423" flag="0"/>
			<psa30 value="0.00155702879031586" flag="0"/>
		</comp>
	</station>
	<station code="PATG" name="PATG" netid="HL" source="National Observatory of Athens Seismic Network" insttype="" lat="38.23865" lon="21.72657">
		<comp name="00.HNE" depth="0.0">
			<acc value="0.0517412950906006" flag="0"/>
			<vel value="0.0302365758767084" flag="0"/>
			<psa03 value="0.111810774339061" flag="0"/>
			<psa10 value="0.0269110950146919" flag="0"/>
			<psa30 value="0.00574131995325663" flag="0"/>
		</comp>
		<comp name="00.HNN" depth="0.0">
			<acc value="0.0495163550467589" flag="0"/>
			<vel value="0.0299981014439982" flag="0"/>
			<psa03 value="0.111855516545679" flag="0"/>
			<psa10 value="0.0454303417560608" flag="0"/>
			<psa30 value="0.00654354771792224" flag="0"/>
		</comp>
		<comp name="00.HNZ" depth="0.0">
			<acc value="0.0226097600510834" flag="0"/>
			<vel value="0.0287499782512499" flag="0"/>
			<psa03 value="0.0631312535383814" flag="0"/>
			<psa10 value="0.0264762007663623" flag="0"/>
			<psa30 value="0.00566346851374084" flag="0"/>
		</comp>
	</station>
	<station code="RIOA" name="RIOA" netid="HL" source="National Observatory of Athens Seismic Network" insttype="" lat="38.29585" lon="21.79118">
		<comp name="00.HNE" depth="0.0">
			<acc value="0.016728742109441" flag="0"/>
			<vel value="0.0104206174628219" flag="0"/>
			<psa03 value="0.0460844728168199" flag="0"/>
			<psa10 value="0.0166105442070334" flag="0"/>
			<psa30 value="0.00219952687735424" flag="0"/>
		</comp>
		<comp name="00.HNN" depth="0.0">
			<acc value="0.0188694277769773" flag="0"/>
			<vel value="0.0171508742162084" flag="0"/>
			<psa03 value="0.0427288073204495" flag="0"/>
			<psa10 value="0.0177259674180269" flag="0"/>
			<psa30 value="0.00436549709974477" flag="0"/>
		</comp>
		<comp name="00.HNZ" depth="0.0">
			<acc value="0.0125576688672222" flag="0"/>
			<vel value="0.00799020188537191" flag="0"/>
			<psa03 value="0.0285902700290757" flag="0"/>
			<psa10 value="0.00902002885424358" flag="0"/>
			<psa30 value="0.00122817357167156" flag="0"/>
		</comp>
	</station>
	<station code="ANX" name="ANX" netid="HP" source="University of Patras, Seismological Laboratory (PSLNET)" insttype="" lat="38.5933" lon="21.9209">
		<comp name="--.HNE" depth="0.0">
			<acc value="0.0158349923030956" flag="0"/>
			<vel value="0.0118657455825889" flag="0"/>
			<psa03 value="0.0386125243115685" flag="0"/>
			<psa10 value="0.0125233436324543" flag="0"/>
			<psa30 value="0.000803570030864161" flag="0"/>
		</comp>
		<comp name="--.HNN" depth="0.0">
			<acc value="0.0192816368244601" flag="0"/>
			<vel value="0.0127496464134491" flag="0"/>
			<psa03 value="0.0487690052139162" flag="0"/>
			<psa10 value="0.0156884073286308" flag="0"/>
			<psa30 value="0.000958825487829563" flag="0"/>
		</comp>
		<comp name="--.HNZ" depth="0.0">
			<acc value="0.00981888121013083" flag="0"/>
			<vel value="0.00839606100565334" flag="0"/>
			<psa03 value="0.021073579317206" flag="0"/>
			<psa10 value="0.00790057884465443" flag="0"/>
			<psa30 value="0.000800438076400881" flag="0"/>
		</comp>
	</station>
	<station code="GUR" name="GUR" netid="HP" source="University of Patras, Seismological Laboratory (PSLNET)" insttype="" lat="37.9363" lon="22.3423">
		<comp name="--.HNE" depth="0.0">
			<acc value="0.0255175654226897" flag="0"/>
			<vel value="0.0132106339472439" flag="0"/>
			<psa03 value="0.0794174167474324" flag="0"/>
			<psa10 value="0.0119958330164248" flag="0"/>
			<psa30 value="0.00095166673477064" flag="0"/>
		</comp>
		<comp name="--.HNN" depth="0.0">
			<acc value="0.0459820017686138" flag="0"/>
			<vel value="0.032380560397672" flag="0"/>
			<psa03 value="0.160311326313268" flag="0"/>
			<psa10 value="0.017170269211828" flag="0"/>
			<psa30 value="0.00132213220556993" flag="0"/>
		</comp>
		<comp name="--.HNZ" depth="0.0">
			<acc value="0.0192544351550201" flag="0"/>
			<vel value="0.0100805195144111" flag="0"/>
			<psa03 value="0.0365991250137463" flag="0"/>
			<psa10 value="0.0164293382702294" flag="0"/>
			<psa30 value="0.00109305210768438" flag="0"/>
		</comp>
	</station>
	<station code="LTK" name="LTK" netid="HP" source="University of Patras, Seismological Laboratory (PSLNET)" insttype="" lat="38.0228" lon="22.9673">
		<comp name="--.HNE" depth="0.0">
			<acc value="0.00459844492706739" flag="0"/>
			<vel value="0.00434248497088806" flag="0"/>
			<psa03 value="0.0111855516545679" flag="0"/>
			<psa10 value="0.00745763099913354" flag="0"/>
			<psa30 value="0.000527063193963241" flag="0"/>
		</comp>
		<comp name="--.HNN" depth="0.0">
			<acc value="0.00534062419038809" flag="0"/>
			<vel value="0.00346348087526522" flag="0"/>
			<psa03 value="0.0130199821259171" flag="0"/>
			<psa10 value="0.00827507111404936" flag="0"/>
			<psa30 value="0.000859050367070818" flag="0"/>
		</comp>
		<comp name="--.HNZ" depth="0.0">
			<acc value="0.00333368443668023" flag="0"/>
			<vel value="0.00289404598131941" flag="0"/>
			<psa03 value="0.00867998808394472" flag="0"/>
			<psa10 value="0.00317311729336783" flag="0"/>
			<psa30 value="0.000450106598579814" flag="0"/>
		</comp>
	</station>
	<station code="PDO" name="PDO" netid="HP" source="University of Patras, Seismological Laboratory (PSLNET)" insttype="" lat="38.5986" lon="21.1833">
		<comp name="--.HNE" depth="0.0">
			<acc value="0.0166359343181539" flag="0"/>
			<vel value="0.0108417716183361" flag="0"/>
			<psa03 value="0.0557040472397483" flag="0"/>
			<psa10 value="0.00873412615395283" flag="0"/>
			<psa30 value="0.00136329503565874" flag="0"/>
		</comp>
		<comp name="--.HNN" depth="0.0">
			<acc value="0.0196708376336378" flag="0"/>
			<vel value="0.0133314701702956" flag="0"/>
			<psa03 value="0.0831757621033672" flag="0"/>
			<psa10 value="0.0124629416535196" flag="0"/>
			<psa30 value="0.000872025606990116" flag="0"/>
		</comp>
		<comp name="--.HNZ" depth="0.0">
			<acc value="0.0101177628652711" flag="0"/>
			<vel value="0.00544485770636869" flag="0"/>
			<psa03 value="0.0311853180129354" flag="0"/>
			<psa10 value="0.00419189733806588" flag="0"/>
			<psa30 value="0.000655025904891498" flag="0"/>
		</comp>
	</station>
	<station code="PVO" name="PVO" netid="HP" source="University of Patras, Seismological Laboratory (PSLNET)" insttype="" lat="38.616" lon="21.525">
		<comp name="--.HNE" depth="0.0">
			<acc value="0.0137549963905" flag="0"/>
			<vel value="0.00743633231089276" flag="0"/>
			<psa03 value="0.0378071645924396" flag="0"/>
			<psa10 value="0.00688582559855202" flag="0"/>
			<psa30 value="0.00152168244708742" flag="0"/>
		</comp>
		<comp name="--.HNN" depth="0.0">
			<acc value="0.011403667443354" flag="0"/>
			<vel value="0.00755654761364793" flag="0"/>
			<psa03 value="0.0404469547829177" flag="0"/>
			<psa10 value="0.00461471119060855" flag="0"/>
			<psa30 value="0.00174718316844351" flag="0"/>
		</comp>
		<comp name="--.HNZ" depth="0.0">
			<acc value="0.00675273520656448" flag="0"/>
			<vel value="0.00441569292367859" flag="0"/>
			<psa03 value="0.0229974942017917" flag="0"/>
			<psa10 value="0.0037046547079929" flag="0"/>
			<psa30 value="0.000886343113107963" flag="0"/>
		</comp>
	</station>
	<station code="SERG" name="SERG" netid="HP" source="University of Patras, Seismological Laboratory (PSLNET)" insttype="" lat="38.4133" lon="22.0566">
		<comp name="--.HNE" depth="0.0">
			<acc value="0.012617058185772" flag="0"/>
			<vel value="0.00744744199863609" flag="0"/>
			<psa03 value="0.0309168647732258" flag="0"/>
			<psa10 value="0.0056334912353066" flag="0"/>
			<psa30 value="0.000553908517934204" flag="0"/>
		</comp>
		<comp name="--.HNN" depth="0.0">
			<acc value="0.0115561027591854" flag="0"/>
			<vel value="0.00819863064468171" flag="0"/>
			<psa03 value="0.0272480038305275" flag="0"/>
			<psa10 value="0.00508584662629895" flag="0"/>
			<psa30 value="0.000936454384520428" flag="0"/>
		</comp>
		<comp name="--.HNZ" depth="0.0">
			<acc value="0.00843667011773281" flag="0"/>
			<vel value="0.00556630173085764" flag="0"/>
			<psa03 value="0.0144069905310835" flag="0"/>
