<stationlist created="1778069961">
	<station code="BLY" name="BLY" netid="MN" source="Mediterranean Very Broadband Seismographic Network (MedNet)" insttype="" lat="44.7488" lon="17.1839">
		<comp name="--.HNE" depth="1.0">
			<acc value="0.029634165440881" flag="0"/>
			<vel value="0.013101174716161" flag="0"/>
			<psa03 value="0.0875712699169498" flag="0"/>
			<psa10 value="0.010641713398767" flag="0"/>
			<psa30 value="0.00063188264037473" flag="0"/>
		</comp>
		<comp name="--.HNN" depth="1.0">
			<acc value="0.0228579179133694" flag="0"/>
			<vel value="0.00825298566087125" flag="0"/>
			<psa03 value="0.0610047912678732" flag="0"/>
			<psa10 value="0.00622305771578185" flag="0"/>
			<psa30 value="0.000508617078801538" flag="0"/>
		</comp>
		<comp name="--.HNZ" depth="1.0">
			<acc value="0.0205581185759082" flag="0"/>
			<vel value="0.00822435184743285" flag="0"/>
			<psa03 value="0.0439655947965475" flag="0"/>
			<psa10 value="0.00563699795470275" flag="0"/>
			<psa30 value="0.000407342088580701" flag="0"/>
		</comp>
	</station>
	<station code="BOJS" name="BOJS" netid="SL" source="Seismic Network of the Republic of Slovenia (SNRS)" insttype="" lat="45.5043" lon="15.2518">
		<comp name="--.HNE" depth="0.0">
			<acc value="0.0350040779654395" flag="0"/>
			<vel value="0.0109834731844298" flag="0"/>
			<psa03 value="0.03391459261665" flag="0"/>
			<psa10 value="0.00545631209709824" flag="0"/>
			<psa30 value="0.000577621887441888" flag="0"/>
		</comp>
		<comp name="--.HNN" depth="0.0">
			<acc value="0.0304611251034412" flag="0"/>
			<vel value="0.0101239973095266" flag="0"/>
			<psa03 value="0.0379413912122945" flag="0"/>
			<psa10 value="0.00707105833395167" flag="0"/>
			<psa30 value="0.000456817929572554" flag="0"/>
		</comp>
		<comp name="--.HNZ" depth="0.0">
			<acc value="0.020196159391731" flag="0"/>
			<vel value="0.00693691830845673" flag="0"/>
			<psa03 value="0.0349436633688702" flag="0"/>
			<psa10 value="0.00586704555385397" flag="0"/>
			<psa30 value="0.000474714812219863" flag="0"/>
		</comp>
	</station>
	<station code="CADS" name="CADS" netid="SL" source="Seismic Network of the Republic of Slovenia (SNRS)" insttype="" lat="46.2281" lon="13.7368">
		<comp name="--.HNE" depth="0.0">
			<acc value="0.00434841795539746" flag="0"/>
			<vel value="0.00223263322573281" flag="0"/>
			<psa03 value="0.0180758514737818" flag="0"/>
			<psa10 value="0.00193689012450498" flag="0"/>
			<psa30 value="0.000206261572510233" flag="0"/>
		</comp>
		<comp name="--.HNN" depth="0.0">
			<acc value="0.00448962671865095" flag="0"/>
			<vel value="0.00315692406131029" flag="0"/>
			<psa03 value="0.0110960672413314" flag="0"/>
			<psa10 value="0.00219057843603058" flag="0"/>
			<psa30 value="0.000217447124164801" flag="0"/>
		</comp>
		<comp name="--.HNZ" depth="0.0">
			<acc value="0.00250482312701991" flag="0"/>
			<vel value="0.00158493602196689" flag="0"/>
			<psa03 value="0.00809833939790719" flag="0"/>
			<psa10 value="0.0029435897734161" flag="0"/>
			<psa30 value="0.000208498682841146" flag="0"/>
		</comp>
	</station>
	<station code="CEY" name="CEY" netid="SL" source="Seismic Network of the Republic of Slovenia (SNRS)" insttype="" lat="45.7381" lon="14.4221">
		<comp name="--.HNE" depth="0.0">
			<acc value="0.00991896425100913" flag="0"/>
			<vel value="0.00363584368967209" flag="0"/>
			<psa03 value="0.0184785313333462" flag="0"/>
			<psa10 value="0.00483215831477335" flag="0"/>
			<psa30 value="0.0003391459261665" flag="0"/>
		</comp>
		<comp name="--.HNN" depth="0.0">
			<acc value="0.0107829854475946" flag="0"/>
			<vel value="0.00555894554048993" flag="0"/>
			<psa03 value="0.0293508875415863" flag="0"/>
			<psa10 value="0.00635428818392695" flag="0"/>
			<psa30 value="0.000447422066182717" flag="0"/>
		</comp>
		<comp name="--.HNZ" depth="0.0">
			<acc value="0.00585737532045644" flag="0"/>
			<vel value="0.00422613154373968" flag="0"/>
			<psa03 value="0.0184785313333462" flag="0"/>
			<psa10 value="0.00533953493782455" flag="0"/>
			<psa30 value="0.000489927162470076" flag="0"/>
		</comp>
	</station>
	<station code="CRES" name="CRES" netid="SL" source="Seismic Network of the Republic of Slovenia (SNRS)" insttype="" lat="45.826" lon="15.4569">
		<comp name="--.HNE" depth="0.0">
			<acc value="0.0387097294246337" flag="0"/>
			<vel value="0.0128163838949253" flag="0"/>
			<psa03 value="0.0808044251525988" flag="0"/>
			<psa10 value="0.0065757621066874" flag="0"/>
			<psa30 value="0.000425050962873582" flag="0"/>
		</comp>
		<comp name="--.HNN" depth="0.0">
			<acc value="0.0313025509284283" flag="0"/>
			<vel value="0.0121010032377178" flag="0"/>
			<psa03 value="0.0446974644116535" flag="0"/>
			<psa10 value="0.00593147433138429" flag="0"/>
			<psa30 value="0.0003391459261665" flag="0"/>
		</comp>
		<comp name="--.HNZ" depth="0.0">
			<acc value="0.0229524540653897" flag="0"/>
			<vel value="0.00556418617381343" flag="0"/>
			<psa03 value="0.0272032616239092" flag="0"/>
			<psa10 value="0.00356371675714535" flag="0"/>
			<psa30 value="0.000300667628474786" flag="0"/>
		</comp>
	</station>
	<station code="CRNS" name="CRNS" netid="SL" source="Seismic Network of the Republic of Slovenia (SNRS)" insttype="" lat="46.0807" lon="14.2613">
		<comp name="--.HNE" depth="0.0">
			<acc value="0.0171894350562336" flag="0"/>
			<vel value="0.00664819685761408" flag="0"/>
			<psa03 value="0.0512745687845394" flag="0"/>
			<psa10 value="0.00389391424198819" flag="0"/>
			<psa30 value="0.000575384777110975" flag="0"/>
		</comp>
		<comp name="--.HNN" depth="0.0">
			<acc value="0.0114996913277401" flag="0"/>
			<vel value="0.00552195842576074" flag="0"/>
			<psa03 value="0.0260399642518342" flag="0"/>
			<psa10 value="0.00358787754871921" flag="0"/>
			<psa30 value="0.000317222244923547" flag="0"/>
		</comp>
		<comp name="--.HNZ" depth="0.0">
			<acc value="0.0052678841316754" flag="0"/>
			<vel value="0.00283509991073768" flag="0"/>
			<psa03 value="0.0133779197788633" flag="0"/>
			<psa10 value="0.00250064192789521" flag="0"/>
			<psa30 value="0.000234449162679744" flag="0"/>
		</comp>
	</station>
	<station code="GBAS" name="GBAS" netid="SL" source="Seismic Network of the Republic of Slovenia (SNRS)" insttype="" lat="45.9348" lon="14.4434">
		<comp name="--.HNE" depth="0.0">
			<acc value="0.00527923839839387" flag="0"/>
			<vel value="0.00188676927135462" flag="0"/>
			<psa03 value="0.0121251379935516" flag="0"/>
			<psa10 value="0.00224695361636961" flag="0"/>
			<psa30 value="0.000193286332590934" flag="0"/>
		</comp>
		<comp name="--.HNN" depth="0.0">
			<acc value="0.00555931270751756" flag="0"/>
			<vel value="0.00348251303109709" flag="0"/>
			<psa03 value="0.0123935912332613" flag="0"/>
			<psa10 value="0.00533148134063326" flag="0"/>
			<psa30 value="0.000387020087248051" flag="0"/>
		</comp>
		<comp name="--.HNZ" depth="0.0">
			<acc value="0.00463328377810693" flag="0"/>
			<vel value="0.00307398263628253" flag="0"/>
			<psa03 value="0.0159282255561047" flag="0"/>
			<psa10 value="0.00253285631666036" flag="0"/>
			<psa30 value="0.000367780938402194" flag="0"/>
		</comp>
	</station>
	<station code="GORS" name="GORS" netid="SL" source="Seismic Network of the Republic of Slovenia (SNRS)" insttype="" lat="46.3174" lon="13.9999">
		<comp name="--.HNE" depth="0.0">
			<acc value="0.00287416472251614" flag="0"/>
			<vel value="0.00167568090956498" flag="0"/>
			<psa03 value="0.00863524587732645" flag="0"/>
			<psa10 value="0.00174763059050969" flag="0"/>
			<psa30 value="0.000225053299289907" flag="0"/>
		</comp>
		<comp name="--.HNN" depth="0.0">
			<acc value="0.00217297212506889" flag="0"/>
			<vel value="0.00195323871543782" flag="0"/>
			<psa03 value="0.00595071348023014" flag="0"/>
			<psa10 value="0.00161474623685343" flag="0"/>
			<psa30 value="0.000211183215238243" flag="0"/>
		</comp>
		<comp name="--.HNZ" depth="0.0">
			<acc value="0.00207574488894871" flag="0"/>
			<vel value="0.00117247946848394" flag="0"/>
			<psa03 value="0.00514535376110125" flag="0"/>
			<psa10 value="0.00156239785511005" flag="0"/>
			<psa30 value="0.000201339929782223" flag="0"/>
		</comp>
	</station>
	<station code="KOGS" name="KOGS" netid="SL" source="Seismic Network of the Republic of Slovenia (SNRS)" insttype="" lat="46.4481" lon="16.2504">
		<comp name="--.HNE" depth="0.0">
			<acc value="0.068409528903853" flag="0"/>
			<vel value="0.0288753487919404" flag="0"/>
			<psa03 value="0.140669497607846" flag="0"/>
			<psa10 value="0.0259325829559503" flag="0"/>
			<psa30 value="0.00140982693054174" flag="0"/>
		</comp>
		<comp name="--.HNN" depth="0.0">
			<acc value="0.0757518719921877" flag="0"/>
			<vel value="0.0334568639358945" flag="0"/>
			<psa03 value="0.163174827536837" flag="0"/>
			<psa10 value="0.0171783228090193" flag="0"/>
			<psa30 value="0.00159058544527956" flag="0"/>
		</comp>
		<comp name="--.HNZ" depth="0.0">
			<acc value="0.0412489704382291" flag="0"/>
			<vel value="0.0146999496583636" flag="0"/>
			<psa03 value="0.086262974360028" flag="0"/>
			<psa10 value="0.0129461574849969" flag="0"/>
			<psa30 value="0.00113018813917754" flag="0"/>
		</comp>
	</station>
	<station code="LJU" name="LJU" netid="SL" source="Seismic Network of the Republic of Slovenia (SNRS)" insttype="" lat="46.0438" lon="14.5278">
		<comp name="--.HNE" depth="0.0">
			<acc value="0.011877576423997" flag="0"/>
			<vel value="0.00516965293085303" flag="0"/>
			<psa03 value="0.0216104857966253" flag="0"/>
			<psa10 value="0.00598784951172331" flag="0"/>
			<psa30 value="0.000502902402389374" flag="0"/>
		</comp>
		<comp name="--.HNN" depth="0.0">
			<acc value="0.0103603829367983" flag="0"/>
			<vel value="0.00543283282444425" flag="0"/>
			<psa03 value="0.0314985134592633" flag="0"/>
			<psa10 value="0.00562141083951966" flag="0"/>
			<psa30 value="0.000328407796578115" flag="0"/>
		</comp>
		<comp name="--.HNZ" depth="0.0">
			<acc value="0.00568552375733825" flag="0"/>
			<vel value="0.00323158420565215" flag="0"/>
			<psa03 value="0.011364520481041" flag="0"/>
			<psa10 value="0.00358385075012357" flag="0"/>
			<psa30 value="0.000555250784132752" flag="0"/>
		</comp>
	</station>
	<station code="MOZS" name="MOZS" netid="SL" source="Seismic Network of the Republic of Slovenia (SNRS)" insttype="" lat="46.2941" lon="14.4433">
		<comp name="--.HNE" depth="0.0">
			<acc value="0.00743540108544635" flag="0"/>
			<vel value="0.0031292420643673" flag="0"/>
			<psa03 value="0.0180311092671635" flag="0"/>
			<psa10 value="0.00372478870097112" flag="0"/>
			<psa30 value="0.000199102819451309" flag="0"/>
		</comp>
		<comp name="--.HNN" depth="0.0">
			<acc value="0.00538371264704767" flag="0"/>
			<vel value="0.00303756297022752" flag="0"/>
			<psa03 value="0.0134674041920998" flag="0"/>
			<psa10 value="0.00328184085545023" flag="0"/>
			<psa30 value="0.000359279919144722" flag="0"/>
		</comp>
		<comp name="--.HNZ" depth="0.0">
			<acc value="0.00397010356985099" flag="0"/>
			<vel value="0.00171786665127743" flag="0"/>
			<psa03 value="0.00782988615819756" flag="0"/>
			<psa10 value="0.00250466872649085" flag="0"/>
			<psa30 value="0.000248319246731408" flag="0"/>
		</comp>
	</station>
	<station code="PERS" name="PERS" netid="SL" source="Seismic Network of the Republic of Slovenia (SNRS)" insttype="" lat="46.6365" lon="15.1139">
		<comp name="--.HNE" depth="0.0">
			<acc value="0.00904536244503323" flag="0"/>
			<vel value="0.00534863642971754" flag="0"/>
			<psa03 value="0.0228185253753186" flag="0"/>
			<psa10 value="0.0039945842068793" flag="0"/>
			<psa30 value="0.000216999702098618" flag="0"/>
		</comp>
		<comp name="--.HNN" depth="0.0">
			<acc value="0.0153444120205538" flag="0"/>
			<vel value="0.00859062590466673" flag="0"/>
			<psa03 value="0.0548092031073829" flag="0"/>
			<psa10 value="0.00401471819985752" flag="0"/>
			<psa30 value="0.000291271765084949" flag="0"/>
		</comp>
		<comp name="--.HNZ" depth="0.0">
			<acc value="0.00675710208328206" flag="0"/>
			<vel value="0.00319839174377026" flag="0"/>
			<psa03 value="0.0183890469201097" flag="0"/>
			<psa10 value="0.00188051494416596" flag="0"/>
			<psa30 value="0.00017449460581126" flag="0"/>
		</comp>
	</station>
	<station code="VISS" name="VISS" netid="SL" source="Seismic Network of the Republic of Slovenia (SNRS)" insttype="" lat="45.8033" lon="14.8393">
		<comp name="--.HNE" depth="0.0">
			<acc value="0.0146940497908436" flag="0"/>
			<vel value="0.00805563187679728" flag="0"/>
			<psa03 value="0.0285455278224574" flag="0"/>
			<psa10 value="0.00604019789346669" flag="0"/>
			<psa30 value="0.000402232437498263" flag="0"/>
		</comp>
		<comp name="--.HNN" depth="0.0">
			<acc value="0.0124497945983972" flag="0"/>
			<vel value="0.00598739905294938" flag="0"/>
			<psa03 value="0.0410286034689552" flag="0"/>
			<psa10 value="0.00510195382068153" flag="0"/>
			<psa30 value="0.000526168349830876" flag="0"/>
		</comp>
		<comp name="--.HNZ" depth="0.0">
			<acc value="0.00903844977802704" flag="0"/>
			<vel value="0.00489578715337192" flag="0"/>
			<psa03 value="0.0211630637304425" flag="0"/>
			<psa10 value="0.0075905153527898" flag="0"/>
			<psa30 value="0.000470688013624219" flag="0"/>
		</comp>
	</station>
	<station code="VNDS" name="VNDS" netid="SL" source="Seismic Network of the Republic of Slovenia (SNRS)" insttype="" lat="46.1016" lon="14.7014">
		<comp name="--.HNE" depth="0.0">
			<acc value="0.0096680215725512" flag="0"/>
			<vel value="0.00470389680784979" flag="0"/>
			<psa03 value="0.02304223640841" flag="0"/>
			<psa10 value="0.00717172829884278" flag="0"/>
			<psa30 value="0.0003391459261665" flag="0"/>
		</comp>
		<comp name="--.HNN" depth="0.0">
			<acc value="0.00911519983637921" flag="0"/>
			<vel value="0.00392748928661825" flag="0"/>
			<psa03 value="0.0311853180129354" flag="0"/>
			<psa10 value="0.00318519768915477" flag="0"/>
			<psa30 value="0.000395521106505522" flag="0"/>
		</comp>
		<comp name="--.HNZ" depth="0.0">
			<acc value="0.00513978070837351" flag="0"/>
			<vel value="0.00327878870446104" flag="0"/>
			<psa03 value="0.0121251379935516" flag="0"/>
			<psa10 value="0.00294761657201174" flag="0"/>
			<psa30 value="0.000319011933188278" flag="0"/>
		</comp>
	</station>
	<station code="VOJS" name="VOJS" netid="SL" source="Seismic Network of the Republic of Slovenia (SNRS)" insttype="" lat="46.0322" lon="13.8877">
		<comp name="--.HNE" depth="0.0">
			<acc value="0.00577788004458393" flag="0"/>
			<vel value="0.00244310113648482" flag="0"/>
			<psa03 value="0.0115434893075141" flag="0"/>
			<psa10 value="0.00291540218324659" flag="0"/>
			<psa30 value="0.000321696465585374" flag="0"/>
		</comp>
		<comp name="--.HNN" depth="0.0">
			<acc value="0.00464369213548126" flag="0"/>
			<vel value="0.00229786385378403" flag="0"/>
			<psa03 value="0.00944060559645534" flag="0"/>
			<psa10 value="0.00490866748809059" flag="0"/>
			<psa30 value="0.000347646945423971" flag="0"/>
		</comp>
		<comp name="--.HNZ" depth="0.0">
			<acc value="0.00269576949112411" flag="0"/>
			<vel value="0.00205145553052085" flag="0"/>
			<psa03 value="0.00630865113317632" flag="0"/>
			<psa10 value="0.00248050793491699" flag="0"/>
			<psa30 value="0.000293956297482045" flag="0"/>
		</comp>
	</station>
</stationlist>
