<?xml version="1.0" encoding="UTF-8" standalone="yes"?>
<!DOCTYPE earthquake SYSTEM "stationlist.dtd">
<stationlist created="" xmlns="ch.ethz.sed.shakemap.usgs.xml">
  <station code="BEHE" name="BEHE" netid="HU" insttype="" lat="46.4703" lon="16.7755">
    <comp name="--.HHE">
      <acc value="0.0444849339" flag="0"/>
      <vel value="0.0193381346" flag="0"/>
      <psa03 value="0.1494004161" flag="0"/>
      <psa10 value="0.0122014526" flag="0"/>
      <psa30 value="0.0008989539" flag="0"/>
    </comp>
    <comp name="--.HHZ">
      <acc value="0.0159377701" flag="0"/>
      <vel value="0.0069164677" flag="0"/>
      <psa03 value="0.0545645755" flag="0"/>
      <psa10 value="0.0063203160" flag="0"/>
      <psa30 value="0.0004022298" flag="0"/>
    </comp>
    <comp name="--.HHN">
      <acc value="0.0361922210" flag="0"/>
      <vel value="0.0180981853" flag="0"/>
      <psa03 value="0.0916359363" flag="0"/>
      <psa10 value="0.0120316711" flag="0"/>
      <psa30 value="0.0009884837" flag="0"/>
    </comp>
  </station>
  <station code="BLY" name="BLY" netid="MN" insttype="" lat="44.7488" lon="17.1839">
    <comp name="--.HHE">
      <acc value="0.0321337520" flag="0"/>
      <vel value="0.0134948145" flag="0"/>
      <psa03 value="0.0894821078" flag="0"/>
      <psa10 value="0.0105844661" flag="0"/>
      <psa30 value="0.0006076276" flag="0"/>
    </comp>
    <comp name="--.HHN">
      <acc value="0.0224973508" flag="0"/>
      <vel value="0.0080572917" flag="0"/>
      <psa03 value="0.0580071091" flag="0"/>
      <psa10 value="0.0063327493" flag="0"/>
      <psa30 value="0.0005023061" flag="0"/>
    </comp>
    <comp name="--.HHZ">
      <acc value="0.0206935871" flag="0"/>
      <vel value="0.0082356152" flag="0"/>
      <psa03 value="0.0442126055" flag="0"/>
      <psa10 value="0.0056118150" flag="0"/>
      <psa30 value="0.0004298517" flag="0"/>
    </comp>
  </station>
</stationlist>
