<?xml version="1.0" encoding="UTF-8" standalone="yes"?>
<!DOCTYPE earthquake SYSTEM "stationlist.dtd">
<stationlist created="" xmlns="ch.ethz.sed.shakemap.usgs.xml">
  <station code="CEYT" name="CEYT" netid="KO" insttype="CMG-3ESP" lat="37.0105" lon="35.7478">
    <comp name="--.HHZ">
      <acc value="0.0359648146" flag="0"/>
      <vel value="0.0290546463" flag="0"/>
      <psa03 value="0.0691240101" flag="0"/>
      <psa10 value="0.0557634974" flag="0"/>
      <psa30 value="0.0166996135" flag="0"/>
    </comp>
    <comp name="--.HHN">
      <acc value="0.0760684839" flag="0"/>
      <vel value="0.0553486510" flag="0"/>
      <psa03 value="0.1176660007" flag="0"/>
      <psa10 value="0.0934011895" flag="0"/>
      <psa30 value="0.0048121315" flag="0"/>
    </comp>
    <comp name="--.HHE">
      <acc value="0.0520836234" flag="0"/>
      <vel value="0.0385394997" flag="0"/>
      <psa03 value="0.1583016901" flag="0"/>
      <psa10 value="0.0502544690" flag="0"/>
      <psa30 value="0.0140668416" flag="0"/>
    </comp>
  </station>
</stationlist>
