<?xml version="1.0" encoding="UTF-8" standalone="yes"?>
<!DOCTYPE earthquake SYSTEM "stationlist.dtd">
<stationlist created="" xmlns="ch.ethz.sed.shakemap.usgs.xml">
  <station code="URFA" name="URFA" netid="KO" insttype="CMG-3ESP" lat="37.4409" lon="38.8213">
    <comp name="--.HHN">
      <acc value="0.1327185173" flag="0"/>
      <vel value="0.0277430941" flag="0"/>
      <psa03 value="0.0930192391" flag="0"/>
      <psa10 value="0.0062295711" flag="0"/>
      <psa30 value="0.0007039652" flag="0"/>
    </comp>
    <comp name="--.HHE">
      <acc value="0.1035511859" flag="0"/>
      <vel value="0.0211877106" flag="0"/>
      <psa03 value="0.0874648192" flag="0"/>
      <psa10 value="0.0087844319" flag="0"/>
      <psa30 value="0.0017239348" flag="0"/>
    </comp>
    <comp name="--.HHZ">
      <acc value="0.0537848827" flag="0"/>
      <vel value="0.0105007480" flag="0"/>
      <psa03 value="0.0489643175" flag="0"/>
      <psa10 value="0.0043402142" flag="0"/>
      <psa30 value="0.0005332110" flag="0"/>
    </comp>
  </station>
</stationlist>
