<?xml version="1.0" encoding="UTF-8" standalone="yes"?>
<!DOCTYPE earthquake SYSTEM "stationlist.dtd">
<stationlist created="" xmlns="ch.ethz.sed.shakemap.usgs.xml">
  <station code="ARPRA" name="ARPRA" netid="KO" insttype="CMG-5T" lat="39.0929" lon="38.3356">
    <comp name="--.HNZ">
      <acc value="0.1299800990" flag="0"/>
      <vel value="0.0620756239" flag="0"/>
      <psa03 value="0.4002003410" flag="0"/>
      <psa10 value="0.0820395158" flag="0"/>
      <psa30 value="0.0123877654" flag="0"/>
    </comp>
    <comp name="--.HNN">
      <acc value="0.2729283850" flag="0"/>
      <vel value="0.1477153302" flag="0"/>
      <psa03 value="0.8053022918" flag="0"/>
      <psa10 value="0.1398749169" flag="0"/>
      <psa30 value="0.0130964057" flag="0"/>
    </comp>
    <comp name="--.HNE">
      <acc value="0.2415803834" flag="0"/>
      <vel value="0.1666048600" flag="0"/>
      <psa03 value="0.8624648113" flag="0"/>
      <psa10 value="0.2190653995" flag="0"/>
      <psa30 value="0.0207313598" flag="0"/>
    </comp>
  </station>
  <station code="DARE" name="DARE" netid="KO" insttype="CMG-3ESP" lat="38.5712" lon="37.4832">
    <comp name="--.HHE">
      <acc value="0.0595303809" flag="0"/>
      <vel value="0.0497784470" flag="0"/>
      <psa03 value="0.1541207063" flag="0"/>
      <psa10 value="0.0758859197" flag="0"/>
      <psa30 value="0.0115526250" flag="0"/>
    </comp>
  </station>
  <station code="DYBB" name="DYBB" netid="KO" insttype="CMG-3T" lat="37.9532" lon="40.1393">
    <comp name="--.HHE">
      <acc value="0.0817521822" flag="0"/>
      <vel value="0.0781796953" flag="0"/>
      <psa03 value="0.2674626098" flag="0"/>
      <psa10 value="0.1268699051" flag="0"/>
      <psa30 value="0.0186140175" flag="0"/>
    </comp>
    <comp name="--.HHZ">
      <acc value="0.0589844572" flag="0"/>
      <vel value="0.0472518088" flag="0"/>
      <psa03 value="0.1504122942" flag="0"/>
      <psa10 value="0.0738629234" flag="0"/>
      <psa30 value="0.0079566103" flag="0"/>
    </comp>
    <comp name="--.HHN">
      <acc value="0.1222864779" flag="0"/>
      <vel value="0.0951600904" flag="0"/>
      <psa03 value="0.3295830037" flag="0"/>
      <psa10 value="0.0884442927" flag="0"/>
      <psa30 value="0.0207180478" flag="0"/>
    </comp>
  </station>
  <station code="GAZ" name="GAZ" netid="KO" insttype="CMG-3T" lat="37.1721" lon="37.2096">
    <comp name="--.HHN">
      <acc value="0.1987780370" flag="0"/>
      <vel value="0.1965364272" flag="0"/>
      <psa03 value="0.5205897401" flag="0"/>
      <psa10 value="0.3690246166" flag="0"/>
      <psa30 value="0.0269077005" flag="0"/>
    </comp>
    <comp name="--.HHZ">
      <acc value="0.1536501086" flag="0"/>
      <vel value="0.1254524877" flag="0"/>
      <psa03 value="0.5099771874" flag="0"/>
      <psa10 value="0.2675558319" flag="0"/>
      <psa30 value="0.0228584748" flag="0"/>
    </comp>
  </station>
  <station code="KHMN" name="KHMN" netid="KO" insttype="CMG-5T" lat="37.3916" lon="37.1574">
    <comp name="--.HNE">
      <acc value="0.2353853103" flag="0"/>
      <vel value="0.1461548402" flag="0"/>
      <psa03 value="0.6038305920" flag="0"/>
      <psa10 value="0.1644672551" flag="0"/>
      <psa30 value="0.0350899188" flag="0"/>
    </comp>
    <comp name="--.HNN">
      <acc value="0.2096148857" flag="0"/>
      <vel value="0.2447058154" flag="0"/>
      <psa03 value="0.5092041995" flag="0"/>
      <psa10 value="0.2380048577" flag="0"/>
      <psa30 value="0.0611723356" flag="0"/>
    </comp>
  </station>
  <station code="KMRS" name="KMRS" netid="KO" insttype="CMG-3T" lat="37.5087" lon="36.9">
    <comp name="--.HHN">
      <acc value="0.2167151668" flag="0"/>
      <vel value="0.1853523847" flag="0"/>
      <psa03 value="0.5077149242" flag="0"/>
      <psa10 value="0.1908338418" flag="0"/>
      <psa30 value="0.0642747346" flag="0"/>
    </comp>
    <comp name="--.HHE">
      <acc value="0.1066421410" flag="0"/>
      <vel value="0.1060048979" flag="0"/>
      <psa03 value="0.2474429782" flag="0"/>
      <psa10 value="0.0767442595" flag="0"/>
      <psa30 value="0.0420667269" flag="0"/>
    </comp>
    <comp name="--.HHZ">
      <acc value="0.0753050612" flag="0"/>
      <vel value="0.1002848023" flag="0"/>
      <psa03 value="0.2485074132" flag="0"/>
      <psa10 value="0.1282369482" flag="0"/>
      <psa30 value="0.0314196032" flag="0"/>
    </comp>
  </station>
  <station code="SINE" name="SINE" netid="KO" insttype="CMG-6T" lat="39.1636" lon="39.3871">
    <comp name="--.HHZ">
      <acc value="0.0223414252" flag="0"/>
      <vel value="0.0163852806" flag="0"/>
      <psa03 value="0.0682548352" flag="0"/>
      <psa10 value="0.0210512469" flag="0"/>
      <psa30 value="0.0018190860" flag="0"/>
    </comp>
    <comp name="--.HHE">
      <acc value="0.0394845292" flag="0"/>
      <vel value="0.0266089809" flag="0"/>
      <psa03 value="0.0999883898" flag="0"/>
      <psa10 value="0.0222300383" flag="0"/>
      <psa30 value="0.0019614924" flag="0"/>
    </comp>
    <comp name="--.HHN">
      <acc value="0.0378116793" flag="0"/>
      <vel value="0.0180114798" flag="0"/>
      <psa03 value="0.0851309749" flag="0"/>
      <psa10 value="0.0191344720" flag="0"/>
      <psa30 value="0.0013213625" flag="0"/>
    </comp>
  </station>
  <station code="SVRC" name="SVRC" netid="KO" insttype="CMG-3T" lat="38.3775" lon="39.306">
    <comp name="--.HHZ">
      <acc value="0.1642016826" flag="0"/>
      <vel value="0.0795600960" flag="0"/>
      <psa03 value="0.3057796809" flag="0"/>
      <psa10 value="0.0487132289" flag="0"/>
      <psa30 value="0.0091215222" flag="0"/>
    </comp>
    <comp name="--.HHE">
      <acc value="0.2115523716" flag="0"/>
      <vel value="0.1073616486" flag="0"/>
      <psa03 value="0.5505144838" flag="0"/>
      <psa10 value="0.0636025354" flag="0"/>
      <psa30 value="0.0115979725" flag="0"/>
    </comp>
  </station>
</stationlist>
