<stationlist created="1778637319">
	<station code="ARPRA" name="ARPRA" netid="KO" source="Bogazici University Kandilli Observatory And Earthquake Research Institute (KOERI)" insttype="" lat="39.0929" lon="38.3356">
		<comp name="--.HNE" depth="0.0">
			<acc value="0.240625476553273" flag="0"/>
			<vel value="0.16496929423019" flag="0"/>
			<psa03 value="0.874179826790494" flag="0"/>
			<psa10 value="0.219104454594915" flag="0"/>
			<psa30 value="0.0204771215088251" flag="0"/>
		</comp>
		<comp name="--.HNN" depth="0.0">
			<acc value="0.272588720824159" flag="0"/>
			<vel value="0.149675712652295" flag="0"/>
			<psa03 value="0.805312431327851" flag="0"/>
			<psa10 value="0.140100370962011" flag="0"/>
			<psa30 value="0.0133560897754074" flag="0"/>
		</comp>
		<comp name="--.HNZ" depth="0.0">
			<acc value="0.129948723915289" flag="0"/>
			<vel value="0.0610784160539725" flag="0"/>
			<psa03 value="0.400407816719474" flag="0"/>
			<psa10 value="0.0823343867489182" flag="0"/>
			<psa30 value="0.0124266957076014" flag="0"/>
		</comp>
	</station>
	<station code="CMRD" name="CMRD" netid="KO" source="Bogazici University Kandilli Observatory And Earthquake Research Institute (KOERI)" insttype="" lat="37.6623" lon="34.9902">
		<comp name="--.HNE" depth="0.0">
			<acc value="0.00709573577379868" flag="0"/>
			<vel value="0.0108623425359549" flag="0"/>
			<psa03 value="0.012187347716558" flag="0"/>
			<psa10 value="0.0170683556947797" flag="0"/>
			<psa30 value="0.00452844832081106" flag="0"/>
		</comp>
		<comp name="--.HNN" depth="0.0">
			<acc value="0.00758636284917916" flag="0"/>
			<vel value="0.0161767845603407" flag="0"/>
			<psa03 value="0.0126454054043991" flag="0"/>
			<psa10 value="0.0281511292491737" flag="0"/>
			<psa30 value="0.0037292824633286" flag="0"/>
		</comp>
		<comp name="--.HNZ" depth="0.0">
			<acc value="0.00646984438700354" flag="0"/>
			<vel value="0.0126858058571356" flag="0"/>
			<psa03 value="0.0113777380943257" flag="0"/>
			<psa10 value="0.0233616757213795" flag="0"/>
			<psa30 value="0.00370970783326991" flag="0"/>
		</comp>
	</station>
	<station code="ERBG" name="ERBG" netid="KO" source="Bogazici University Kandilli Observatory And Earthquake Research Institute (KOERI)" insttype="" lat="40.712" lon="36.6768">
		<comp name="--.HNE" depth="0.0">
			<acc value="0.349333286259245" flag="0"/>
			<vel value="1.24902770665181" flag="0"/>
			<psa03 value="0.312466282690894" flag="0"/>
			<psa10 value="0.277199823127988" flag="0"/>
			<psa30 value="0.235581632793605" flag="0"/>
		</comp>
		<comp name="--.HNN" depth="0.0">
			<acc value="0.00655075685814598" flag="0"/>
			<vel value="0.0148581353040453" flag="0"/>
			<psa03 value="0.00796568784399215" flag="0"/>
			<psa10 value="0.0211867585187534" flag="0"/>
			<psa30 value="0.00417167551969755" flag="0"/>
		</comp>
		<comp name="--.HNZ" depth="0.0">
			<acc value="0.00331207713311825" flag="0"/>
			<vel value="0.00643228311229529" flag="0"/>
			<psa03 value="0.00427777817347627" flag="0"/>
			<psa10 value="0.0117358924452818" flag="0"/>
			<psa30 value="0.00294199114247644" flag="0"/>
		</comp>
	</station>
	<station code="KHMN" name="KHMN" netid="KO" source="Bogazici University Kandilli Observatory And Earthquake Research Institute (KOERI)" insttype="" lat="37.3916" lon="37.1574">
		<comp name="--.HNE" depth="0.0">
			<acc value="0.235576548182019" flag="0"/>
			<vel value="0.146389653787422" flag="0"/>
			<psa03 value="0.602833643105054" flag="0"/>
			<psa10 value="0.16526261783733" flag="0"/>
			<psa30 value="0.0353917611971362" flag="0"/>
		</comp>
		<comp name="--.HNN" depth="0.0">
			<acc value="0.208754802415561" flag="0"/>
			<vel value="0.246941585733322" flag="0"/>
			<psa03 value="0.51622261388043" flag="0"/>
			<psa10 value="0.238755516381153" flag="0"/>
			<psa30 value="0.0611276360725944" flag="0"/>
		</comp>
		<comp name="--.HNZ" depth="0.0">
			<acc value="0.125103496274598" flag="0"/>
			<vel value="0.102708196027214" flag="0"/>
			<psa03 value="0.316079667893305" flag="0"/>
			<psa10 value="0.133727618798348" flag="0"/>
			<psa30 value="0.0277371757850863" flag="0"/>
		</comp>
	</station>
	<station code="KRTS" name="KRTS" netid="KO" source="Bogazici University Kandilli Observatory And Earthquake Research Institute (KOERI)" insttype="" lat="36.573" lon="35.375">
		<comp name="--.HNE" depth="0.0">
			<acc value="0.0135990765172381" flag="0"/>
			<vel value="0.0262264250883698" flag="0"/>
			<psa03 value="0.0421633347806513" flag="0"/>
			<psa10 value="0.0301785979340035" flag="0"/>
			<psa30 value="0.0131224534647977" flag="0"/>
		</comp>
		<comp name="--.HNN" depth="0.0">
			<acc value="0.0151136234323206" flag="0"/>
			<vel value="0.0226106792598714" flag="0"/>
			<psa03 value="0.0429670729202003" flag="0"/>
			<psa10 value="0.0300567054842327" flag="0"/>
			<psa30 value="0.0132049297617838" flag="0"/>
		</comp>
		<comp name="--.HNZ" depth="0.0">
			<acc value="0.0092165221246159" flag="0"/>
			<vel value="0.0178660294729005" flag="0"/>
			<psa03 value="0.0254198766504189" flag="0"/>
			<psa10 value="0.0162768807634592" flag="0"/>
			<psa30 value="0.00922388937073189" flag="0"/>
		</comp>
	</station>
	<station code="KYHL" name="KYHL" netid="KO" source="Bogazici University Kandilli Observatory And Earthquake Research Institute (KOERI)" insttype="" lat="40.3244" lon="37.8955">
		<comp name="--.HNE" depth="0.0">
			<acc value="0.0176083885114187" flag="0"/>
			<vel value="0.0295785416899036" flag="0"/>
			<psa03 value="0.0464705419872126" flag="0"/>
			<psa10 value="0.0426488790290438" flag="0"/>
			<psa30 value="0.009720943131424" flag="0"/>
		</comp>
		<comp name="--.HNN" depth="0.0">
			<acc value="0.018481467126156" flag="0"/>
			<vel value="0.0174675742057107" flag="0"/>
			<psa03 value="0.0432970583217937" flag="0"/>
			<psa10 value="0.0249961239955594" flag="0"/>
			<psa30 value="0.00404758521598736" flag="0"/>
		</comp>
		<comp name="--.HNZ" depth="0.0">
			<acc value="0.012367000189059" flag="0"/>
			<vel value="0.0120664010268559" flag="0"/>
			<psa03 value="0.0566884636657555" flag="0"/>
			<psa10 value="0.017173953315125" flag="0"/>
			<psa30 value="0.00400367647391873" flag="0"/>
		</comp>
	</station>
	<station code="TUNC" name="TUNC" netid="KO" source="Bogazici University Kandilli Observatory And Earthquake Research Institute (KOERI)" insttype="" lat="39.6942" lon="37.5388">
		<comp name="--.HNE" depth="0.0">
			<acc value="0.0661873252526711" flag="0"/>
			<vel value="0.121958350592372" flag="0"/>
			<psa03 value="0.205449422516067" flag="0"/>
			<psa10 value="0.137048223772223" flag="0"/>
			<psa30 value="0.0211862101491238" flag="0"/>
		</comp>
		<comp name="--.HNN" depth="0.0">
			<acc value="0.0645993621134483" flag="0"/>
			<vel value="0.0650870226027517" flag="0"/>
			<psa03 value="0.162870862311986" flag="0"/>
			<psa10 value="0.108398470866898" flag="0"/>
			<psa30 value="0.0127374079574352" flag="0"/>
		</comp>
		<comp name="--.HNZ" depth="0.0">
			<acc value="0.0304160125401941" flag="0"/>
			<vel value="0.0467027622473848" flag="0"/>
			<psa03 value="0.0793771854321885" flag="0"/>
			<psa10 value="0.0753775633934687" flag="0"/>
			<psa30 value="0.0157748966761405" flag="0"/>
		</comp>
	</station>
</stationlist>
