<?xml version="1.0" encoding="UTF-8" standalone="yes"?>
<!DOCTYPE earthquake SYSTEM "stationlist.dtd">
<stationlist created="" xmlns="ch.ethz.sed.shakemap.usgs.xml">
  <station code="ARPRA" name="ARPRA" netid="KO" insttype="CMG-5T" lat="39.0929" lon="38.3356">
    <comp name="--.HNZ">
      <acc value="0.1299801064" flag="0"/>
      <vel value="0.0620756206" flag="0"/>
      <psa03 value="0.4002003410" flag="0"/>
      <psa10 value="0.0820395156" flag="0"/>
      <psa30 value="0.0123877614" flag="0"/>
    </comp>
    <comp name="--.HNE">
      <acc value="0.2415803819" flag="0"/>
      <vel value="0.1666048636" flag="0"/>
      <psa03 value="0.8624648113" flag="0"/>
      <psa10 value="0.2190653998" flag="0"/>
      <psa30 value="0.0207313362" flag="0"/>
    </comp>
    <comp name="--.HNN">
      <acc value="0.2729283884" flag="0"/>
      <vel value="0.1477153307" flag="0"/>
      <psa03 value="0.8053022918" flag="0"/>
      <psa10 value="0.1398749169" flag="0"/>
      <psa30 value="0.0130963975" flag="0"/>
    </comp>
  </station>
  <station code="DARE" name="DARE" netid="KO" insttype="CMG-3ESP" lat="38.5712" lon="37.4832">
    <comp name="--.HHE">
      <acc value="0.0595303808" flag="0"/>
      <vel value="0.0497784659" flag="0"/>
      <psa03 value="0.1541207062" flag="0"/>
      <psa10 value="0.0758859197" flag="0"/>
      <psa30 value="0.0115526254" flag="0"/>
    </comp>
    <comp name="--.HHZ">
      <acc value="0.1474864322" flag="0"/>
      <vel value="0.0618904508" flag="0"/>
      <psa03 value="0.1388065542" flag="0"/>
      <psa10 value="0.1095051821" flag="0"/>
      <psa30 value="0.0116178692" flag="0"/>
    </comp>
  </station>
  <station code="DYBB" name="DYBB" netid="KO" insttype="CMG-3T" lat="37.9532" lon="40.1393">
    <comp name="--.HHE">
      <acc value="0.0817521822" flag="0"/>
      <vel value="0.0781796982" flag="0"/>
      <psa03 value="0.2674626098" flag="0"/>
      <psa10 value="0.1268699051" flag="0"/>
      <psa30 value="0.0186140097" flag="0"/>
    </comp>
    <comp name="--.HHN">
      <acc value="0.1222864779" flag="0"/>
      <vel value="0.0951600890" flag="0"/>
      <psa03 value="0.3295830037" flag="0"/>
      <psa10 value="0.0884442927" flag="0"/>
      <psa30 value="0.0207180492" flag="0"/>
    </comp>
    <comp name="--.HHZ">
      <acc value="0.0589844572" flag="0"/>
      <vel value="0.0472518105" flag="0"/>
      <psa03 value="0.1504122942" flag="0"/>
      <psa10 value="0.0738629234" flag="0"/>
      <psa30 value="0.0079567480" flag="0"/>
    </comp>
  </station>
  <station code="GAZ" name="GAZ" netid="KO" insttype="CMG-3T" lat="37.1721" lon="37.2096">
    <comp name="--.HHN">
      <acc value="0.1987780371" flag="0"/>
      <vel value="0.1965364335" flag="0"/>
      <psa03 value="0.5205897401" flag="0"/>
      <psa10 value="0.3690246166" flag="0"/>
      <psa30 value="0.0269076972" flag="0"/>
    </comp>
    <comp name="--.HHZ">
      <acc value="0.1536501087" flag="0"/>
      <vel value="0.1254524902" flag="0"/>
      <psa03 value="0.5099771874" flag="0"/>
      <psa10 value="0.2675558319" flag="0"/>
      <psa30 value="0.0228584578" flag="0"/>
    </comp>
  </station>
  <station code="KHMN" name="KHMN" netid="KO" insttype="CMG-5T" lat="37.3916" lon="37.1574">
    <comp name="--.HNE">
      <acc value="0.2353853126" flag="0"/>
      <vel value="0.1461548391" flag="0"/>
      <psa03 value="0.6038305920" flag="0"/>
      <psa10 value="0.1644672551" flag="0"/>
      <psa30 value="0.0350899665" flag="0"/>
    </comp>
    <comp name="--.HNN">
      <acc value="0.2096148843" flag="0"/>
      <vel value="0.2447058310" flag="0"/>
      <psa03 value="0.5092041996" flag="0"/>
      <psa10 value="0.2380048576" flag="0"/>
      <psa30 value="0.0611729414" flag="0"/>
    </comp>
  </station>
  <station code="KMRS" name="KMRS" netid="KO" insttype="CMG-3T" lat="37.5087" lon="36.9">
    <comp name="--.HHE">
      <acc value="0.1066421410" flag="0"/>
      <vel value="0.1060048979" flag="0"/>
      <psa03 value="0.2474429782" flag="0"/>
      <psa10 value="0.0767442595" flag="0"/>
      <psa30 value="0.0420667377" flag="0"/>
    </comp>
    <comp name="--.HHN">
      <acc value="0.2167151669" flag="0"/>
      <vel value="0.1853523851" flag="0"/>
      <psa03 value="0.5077149242" flag="0"/>
      <psa10 value="0.1908338418" flag="0"/>
      <psa30 value="0.0642747326" flag="0"/>
    </comp>
    <comp name="--.HHZ">
      <acc value="0.0753050612" flag="0"/>
      <vel value="0.1002848030" flag="0"/>
      <psa03 value="0.2485074132" flag="0"/>
      <psa10 value="0.1282369482" flag="0"/>
      <psa30 value="0.0314196038" flag="0"/>
    </comp>
  </station>
  <station code="SINE" name="SINE" netid="KO" insttype="CMG-6T" lat="39.1636" lon="39.3871">
    <comp name="--.HHZ">
      <acc value="0.0223414244" flag="0"/>
      <vel value="0.0163852820" flag="0"/>
      <psa03 value="0.0682548352" flag="0"/>
      <psa10 value="0.0210512469" flag="0"/>
      <psa30 value="0.0018190874" flag="0"/>
    </comp>
    <comp name="--.HHE">
      <acc value="0.0394845291" flag="0"/>
      <vel value="0.0266089822" flag="0"/>
      <psa03 value="0.0999883898" flag="0"/>
      <psa10 value="0.0222300383" flag="0"/>
      <psa30 value="0.0019614890" flag="0"/>
    </comp>
    <comp name="--.HHN">
      <acc value="0.0378116793" flag="0"/>
      <vel value="0.0180114768" flag="0"/>
      <psa03 value="0.0851309749" flag="0"/>
      <psa10 value="0.0191344720" flag="0"/>
      <psa30 value="0.0013213623" flag="0"/>
    </comp>
  </station>
  <station code="SVRC" name="SVRC" netid="KO" insttype="CMG-3T" lat="38.3775" lon="39.306">
    <comp name="--.HHZ">
      <acc value="0.1642016827" flag="0"/>
      <vel value="0.0795600972" flag="0"/>
      <psa03 value="0.3057796809" flag="0"/>
      <psa10 value="0.0487132289" flag="0"/>
      <psa30 value="0.0091214663" flag="0"/>
    </comp>
    <comp name="--.HHE">
      <acc value="0.2115523718" flag="0"/>
      <vel value="0.1073612716" flag="0"/>
      <psa03 value="0.5505144839" flag="0"/>
      <psa10 value="0.0636025355" flag="0"/>
      <psa30 value="0.0115970040" flag="0"/>
    </comp>
  </station>
</stationlist>
