<stationlist created="1700818266">
	<station code="ARPRA" name="ARPRA" netid="KO" source="Bogazici University Kandilli Observatory And Earthquake Research Institute (KOERI)" insttype="" lat="39.0929" lon="38.3356">
		<comp name=".HNE" depth="0.0">
			<acc value="0.2395912772004" flag="0"/>
			<vel value="0.164726858725" flag="0"/>
			<psa03 value="0.874179826790494" flag="0"/>
			<psa10 value="0.219104454594915" flag="0"/>
			<psa30 value="0.0204771215088251" flag="0"/>
		</comp>
		<comp name=".HNN" depth="0.0">
			<acc value="0.2721032896506" flag="0"/>
			<vel value="0.149422191365" flag="0"/>
			<psa03 value="0.805312431327851" flag="0"/>
			<psa10 value="0.140100370962011" flag="0"/>
			<psa30 value="0.0133560897754074" flag="0"/>
		</comp>
		<comp name=".HNZ" depth="0.0">
			<acc value="0.12968239801188" flag="0"/>
			<vel value="0.0609782671101" flag="0"/>
			<psa03 value="0.400407816719474" flag="0"/>
			<psa10 value="0.0823343867489182" flag="0"/>
			<psa30 value="0.0124266957076014" flag="0"/>
		</comp>
	</station>
	<station code="CMRD" name="CMRD" netid="KO" source="Bogazici University Kandilli Observatory And Earthquake Research Institute (KOERI)" insttype="" lat="37.6623" lon="34.9902">
		<comp name=".HNE" depth="0.0">
			<acc value="0.0070929137006892" flag="0"/>
			<vel value="0.0108577035491" flag="0"/>
			<psa03 value="0.012187347716558" flag="0"/>
			<psa10 value="0.0170683556947797" flag="0"/>
			<psa30 value="0.00452844832081106" flag="0"/>
		</comp>
		<comp name=".HNN" depth="0.0">
			<acc value="0.007585265224578" flag="0"/>
			<vel value="0.016173071513" flag="0"/>
			<psa03 value="0.0126454054043991" flag="0"/>
			<psa10 value="0.0281511292491737" flag="0"/>
			<psa30 value="0.0037292824633286" flag="0"/>
		</comp>
		<comp name=".HNZ" depth="0.0">
			<acc value="0.0064661797161516" flag="0"/>
			<vel value="0.0126836788777" flag="0"/>
			<psa03 value="0.0113777380943257" flag="0"/>
			<psa10 value="0.0233616757213795" flag="0"/>
			<psa30 value="0.00370970783326991" flag="0"/>
		</comp>
	</station>
	<station code="GUMT" name="GUMT" netid="KO" source="Bogazici University Kandilli Observatory And Earthquake Research Institute (KOERI)" insttype="" lat="40.4665" lon="39.478">
		<comp name=".HNE" depth="0.0">
			<acc value="0.0031071938467644" flag="0"/>
			<vel value="0.0109092193129" flag="0"/>
			<psa03 value="0.00666515767979848" flag="0"/>
			<psa10 value="0.00768229578939609" flag="0"/>
			<psa30 value="0.00352749284575722" flag="0"/>
		</comp>
		<comp name=".HNN" depth="0.0">
			<acc value="0.00269714322375" flag="0"/>
			<vel value="0.00432171623797" flag="0"/>
			<psa03 value="0.00863459934358186" flag="0"/>
			<psa10 value="0.00437400710024408" flag="0"/>
			<psa30 value="0.00168175276203279" flag="0"/>
		</comp>
		<comp name=".HNZ" depth="0.0">
			<acc value="0.0036862932106422" flag="0"/>
			<vel value="0.00582499423576" flag="0"/>
			<psa03 value="0.0102391301150319" flag="0"/>
			<psa10 value="0.00636354530363561" flag="0"/>
			<psa30 value="0.00181322699239061" flag="0"/>
		</comp>
	</station>
	<station code="KHMN" name="KHMN" netid="KO" source="Bogazici University Kandilli Observatory And Earthquake Research Institute (KOERI)" insttype="" lat="37.3916" lon="37.1574">
		<comp name=".HNE" depth="0.0">
			<acc value="0.23485565707992" flag="0"/>
			<vel value="0.146298304029" flag="0"/>
			<psa03 value="0.602833643105054" flag="0"/>
			<psa10 value="0.16526261783733" flag="0"/>
			<psa30 value="0.0353917611971362" flag="0"/>
		</comp>
		<comp name=".HNN" depth="0.0">
			<acc value="0.20818067048406" flag="0"/>
			<vel value="0.246841227502" flag="0"/>
			<psa03 value="0.51622261388043" flag="0"/>
			<psa10 value="0.238755516381153" flag="0"/>
			<psa30 value="0.0611276360725944" flag="0"/>
		</comp>
		<comp name=".HNZ" depth="0.0">
			<acc value="0.12416681157012" flag="0"/>
			<vel value="0.102688020171" flag="0"/>
			<psa03 value="0.316079667893305" flag="0"/>
			<psa10 value="0.133727618798348" flag="0"/>
			<psa30 value="0.0277371757850863" flag="0"/>
		</comp>
	</station>
	<station code="KYHL" name="KYHL" netid="KO" source="Bogazici University Kandilli Observatory And Earthquake Research Institute (KOERI)" insttype="" lat="40.3244" lon="37.8955">
		<comp name=".HNE" depth="0.0">
			<acc value="0.017598559433616" flag="0"/>
			<vel value="0.0295652177227" flag="0"/>
			<psa03 value="0.0464705419872126" flag="0"/>
			<psa10 value="0.0426488790290438" flag="0"/>
			<psa30 value="0.009720943131424" flag="0"/>
		</comp>
		<comp name=".HNN" depth="0.0">
			<acc value="0.018458718485172" flag="0"/>
			<vel value="0.0174588974753" flag="0"/>
			<psa03 value="0.0432970583217937" flag="0"/>
			<psa10 value="0.0249961239955594" flag="0"/>
			<psa30 value="0.00404758521598736" flag="0"/>
		</comp>
		<comp name=".HNZ" depth="0.0">
			<acc value="0.012342923950068" flag="0"/>
			<vel value="0.0120608769468" flag="0"/>
			<psa03 value="0.0566884636657555" flag="0"/>
			<psa10 value="0.017173953315125" flag="0"/>
			<psa30 value="0.00400367647391873" flag="0"/>
		</comp>
	</station>
	<station code="RFHY" name="RFHY" netid="KO" source="Bogazici University Kandilli Observatory And Earthquake Research Institute (KOERI)" insttype="" lat="39.927" lon="38.833">
		<comp name=".HNE" depth="0.0">
			<acc value="0.0017219894775192" flag="0"/>
			<vel value="0.00511133320199" flag="0"/>
			<psa03 value="0.00260036741131884" flag="0"/>
			<psa10 value="0.00347755169885978" flag="0"/>
			<psa30 value="0.00206737507845107" flag="0"/>
		</comp>
		<comp name=".HNN" depth="0.0">
			<acc value="0.023299348949298" flag="0"/>
			<vel value="0.044651392104" flag="0"/>
			<psa03 value="0.0622244658153423" flag="0"/>
			<psa10 value="0.0751534785492633" flag="0"/>
			<psa30 value="0.014689163084973" flag="0"/>
		</comp>
		<comp name=".HNZ" depth="0.0">
			<acc value="0.019995738084678" flag="0"/>
			<vel value="0.0331322454866" flag="0"/>
			<psa03 value="0.0415185967574537" flag="0"/>
			<psa10 value="0.0411011777513727" flag="0"/>
			<psa30 value="0.00753852855720261" flag="0"/>
		</comp>
	</station>
	<station code="TUNC" name="TUNC" netid="KO" source="Bogazici University Kandilli Observatory And Earthquake Research Institute (KOERI)" insttype="" lat="39.6942" lon="37.5388">
		<comp name=".HNE" depth="0.0">
			<acc value="0.06606672072558" flag="0"/>
			<vel value="0.121925510843" flag="0"/>
			<psa03 value="0.205449422516067" flag="0"/>
			<psa10 value="0.137048223772223" flag="0"/>
			<psa30 value="0.0211862101491238" flag="0"/>
		</comp>
		<comp name=".HNN" depth="0.0">
			<acc value="0.064519770454422" flag="0"/>
			<vel value="0.0650404243134" flag="0"/>
			<psa03 value="0.162870862311986" flag="0"/>
			<psa10 value="0.108398470866898" flag="0"/>
			<psa30 value="0.0127374079574352" flag="0"/>
		</comp>
		<comp name=".HNZ" depth="0.0">
			<acc value="0.030385664411502" flag="0"/>
			<vel value="0.0466938144165" flag="0"/>
			<psa03 value="0.0793771854321885" flag="0"/>
			<psa10 value="0.0753775633934687" flag="0"/>
			<psa30 value="0.0157748966761405" flag="0"/>
		</comp>
	</station>
</stationlist>
