<?xml version="1.0" encoding="UTF-8" standalone="yes"?>
<!DOCTYPE earthquake SYSTEM "stationlist.dtd">
<stationlist created="" xmlns="ch.ethz.sed.shakemap.usgs.xml">
  <station code="KALE" name="KALE" netid="HA" insttype="40," lat="38.3911" lon="22.1398">
    <comp name="--.HHE">
      <acc value="0.0436414648" flag="0"/>
      <vel value="0.0365360559" flag="0"/>
      <psa03 value="0.1262909857" flag="0"/>
      <psa10 value="0.0424361019" flag="0"/>
      <psa30 value="0.0062373894" flag="0"/>
    </comp>
    <comp name="--.HHN">
      <acc value="0.0416837255" flag="0"/>
      <vel value="0.0346783005" flag="0"/>
      <psa03 value="0.1355431445" flag="0"/>
      <psa10 value="0.0459365507" flag="0"/>
      <psa30 value="0.0128341462" flag="0"/>
    </comp>
    <comp name="--.HHZ">
      <acc value="0.0250727841" flag="0"/>
      <vel value="0.0213770347" flag="0"/>
      <psa03 value="0.0710779531" flag="0"/>
      <psa10 value="0.0211338084" flag="0"/>
      <psa30 value="0.0070406641" flag="0"/>
    </comp>
  </station>
  <station code="LAM2" name="LAM2" netid="HI" insttype="CMG-5TD,ACCELEROMETER,GURALP" lat="38.902" lon="22.4313">
    <comp name="--.HNE">
      <acc value="0.1122480288" flag="0"/>
      <vel value="0.0615326183" flag="0"/>
      <psa03 value="0.4459725533" flag="0"/>
      <psa10 value="0.0588324421" flag="0"/>
      <psa30 value="0.0087312329" flag="0"/>
    </comp>
    <comp name="--.HNN">
      <acc value="0.1390253771" flag="0"/>
      <vel value="0.1009381532" flag="0"/>
      <psa03 value="0.5224310165" flag="0"/>
      <psa10 value="0.1512560966" flag="0"/>
      <psa30 value="0.0170988956" flag="0"/>
    </comp>
    <comp name="--.HNZ">
      <acc value="0.0697682456" flag="0"/>
      <vel value="0.0348087949" flag="0"/>
      <psa03 value="0.2074272841" flag="0"/>
      <psa10 value="0.0394917743" flag="0"/>
      <psa30 value="0.0131006781" flag="0"/>
    </comp>
  </station>
  <station code="VOL2" name="VOL2" netid="HI" insttype="CMG-5TD,ACCELEROMETER,GURALP" lat="39.366" lon="22.9506">
    <comp name="--.HNZ">
      <acc value="0.0772716675" flag="0"/>
      <vel value="0.0291928398" flag="0"/>
      <psa03 value="0.1009466977" flag="0"/>
      <psa10 value="0.0373363886" flag="0"/>
      <psa30 value="0.0057515250" flag="0"/>
    </comp>
    <comp name="--.HNN">
      <acc value="0.0968268815" flag="0"/>
      <vel value="0.0580982586" flag="0"/>
      <psa03 value="0.2555559426" flag="0"/>
      <psa10 value="0.0609921583" flag="0"/>
      <psa30 value="0.0061304772" flag="0"/>
    </comp>
    <comp name="--.HNE">
      <acc value="0.1134114625" flag="0"/>
      <vel value="0.0551090980" flag="0"/>
      <psa03 value="0.3072392321" flag="0"/>
      <psa10 value="0.0610604724" flag="0"/>
      <psa30 value="0.0091890001" flag="0"/>
    </comp>
  </station>
  <station code="EVR" name="EVR" netid="HL" insttype="DR24" lat="38.9166" lon="21.8105">
    <comp name="--.HHZ">
      <acc value="0.0482173062" flag="0"/>
      <vel value="0.0347080285" flag="0"/>
      <psa03 value="0.0918297363" flag="0"/>
      <psa10 value="0.0441859817" flag="0"/>
      <psa30 value="0.0105157575" flag="0"/>
    </comp>
    <comp name="--.HHE">
      <acc value="0.0687559121" flag="0"/>
      <vel value="0.0456858600" flag="0"/>
      <psa03 value="0.1143382467" flag="0"/>
      <psa10 value="0.0462033603" flag="0"/>
      <psa30 value="0.0114061365" flag="0"/>
    </comp>
    <comp name="--.HHN">
      <acc value="0.0778597630" flag="0"/>
      <vel value="0.0699493139" flag="0"/>
      <psa03 value="0.1677938956" flag="0"/>
      <psa10 value="0.0466364333" flag="0"/>
      <psa30 value="0.0238740986" flag="0"/>
    </comp>
  </station>
  <station code="KZN" name="KZN" netid="HL" insttype="120" lat="40.3033" lon="21.7821">
    <comp name="--.HHN">
      <acc value="0.1461883790" flag="0"/>
      <vel value="0.0820480729" flag="0"/>
      <psa03 value="0.3115885781" flag="0"/>
      <psa10 value="0.0682001427" flag="0"/>
      <psa30 value="0.0116500664" flag="0"/>
    </comp>
    <comp name="--.HHE">
      <acc value="0.2319845361" flag="0"/>
      <vel value="0.1121008702" flag="0"/>
      <psa03 value="0.7713766466" flag="0"/>
      <psa10 value="0.1258287688" flag="0"/>
      <psa30 value="0.0058256544" flag="0"/>
    </comp>
    <comp name="--.HHZ">
      <acc value="0.0536216003" flag="0"/>
      <vel value="0.0385725044" flag="0"/>
      <psa03 value="0.1563735078" flag="0"/>
      <psa10 value="0.0654359297" flag="0"/>
      <psa30 value="0.0085115173" flag="0"/>
    </comp>
  </station>
  <station code="LKR" name="LKR" netid="HL" insttype="30" lat="38.6496" lon="22.9989">
    <comp name="--.HHE">
      <acc value="0.0139883770" flag="0"/>
      <vel value="0.0098975178" flag="0"/>
      <psa03 value="0.0356628908" flag="0"/>
      <psa10 value="0.0086502093" flag="0"/>
      <psa30 value="0.0031390007" flag="0"/>
    </comp>
    <comp name="--.HHN">
      <acc value="0.0103248429" flag="0"/>
      <vel value="0.0073573328" flag="0"/>
      <psa03 value="0.0277030974" flag="0"/>
      <psa10 value="0.0072418291" flag="0"/>
      <psa30 value="0.0034895161" flag="0"/>
    </comp>
    <comp name="--.HHZ">
      <acc value="0.0067050107" flag="0"/>
      <vel value="0.0087622528" flag="0"/>
      <psa03 value="0.0156320409" flag="0"/>
      <psa10 value="0.0069756175" flag="0"/>
      <psa30 value="0.0036960913" flag="0"/>
    </comp>
  </station>
  <station code="NEO" name="NEO" netid="HL" insttype="120" lat="39.3057" lon="23.2219">
    <comp name="--.HHN">
      <acc value="0.0923156799" flag="0"/>
      <vel value="0.0579247384" flag="0"/>
      <psa03 value="0.3520062020" flag="0"/>
      <psa10 value="0.0811378187" flag="0"/>
      <psa30 value="0.0079115473" flag="0"/>
    </comp>
    <comp name="--.HHE">
      <acc value="0.0727314804" flag="0"/>
      <vel value="0.0913299938" flag="0"/>
      <psa03 value="0.1589644228" flag="0"/>
      <psa10 value="0.1086393496" flag="0"/>
      <psa30 value="0.0085056386" flag="0"/>
    </comp>
    <comp name="--.HHZ">
      <acc value="0.0494086170" flag="0"/>
      <vel value="0.0560312927" flag="0"/>
      <psa03 value="0.1214521360" flag="0"/>
      <psa10 value="0.0509500028" flag="0"/>
      <psa30 value="0.0084020295" flag="0"/>
    </comp>
  </station>
  <station code="PLG" name="PLG" netid="HL" insttype="CMG3ESPC-120s" lat="40.3733" lon="23.4444">
    <comp name="--.HHZ">
      <acc value="0.0310863630" flag="0"/>
      <vel value="0.0292010709" flag="0"/>
      <psa03 value="0.1609982120" flag="0"/>
      <psa10 value="0.0322147843" flag="0"/>
      <psa30 value="0.0080699232" flag="0"/>
    </comp>
  </station>
  <station code="TETR" name="TETR" netid="HL" insttype="60" lat="39.3445" lon="21.2747">
    <comp name="--.HHE">
      <acc value="0.2747415417" flag="0"/>
      <vel value="0.1104537463" flag="0"/>
      <psa03 value="0.5286130263" flag="0"/>
      <psa10 value="0.1342128883" flag="0"/>
      <psa30 value="0.0106143573" flag="0"/>
    </comp>
    <comp name="--.HHN">
      <acc value="0.2173320583" flag="0"/>
      <vel value="0.0885633059" flag="0"/>
      <psa03 value="0.5708716298" flag="0"/>
      <psa10 value="0.0570419793" flag="0"/>
      <psa30 value="0.0095380757" flag="0"/>
    </comp>
    <comp name="--.HHZ">
      <acc value="0.1122119911" flag="0"/>
      <vel value="0.0716183624" flag="0"/>
      <psa03 value="0.3325267757" flag="0"/>
      <psa10 value="0.0639967065" flag="0"/>
      <psa30 value="0.0080597523" flag="0"/>
    </comp>
  </station>
  <station code="THL" name="THL" netid="HL" insttype="120" lat="39.5647" lon="22.0144">
    <comp name="--.HHE">
      <acc value="0.7322181570" flag="0"/>
      <vel value="0.2649542243" flag="0"/>
      <psa03 value="0.6008147735" flag="0"/>
      <psa10 value="0.2164551167" flag="0"/>
      <psa30 value="0.0289174879" flag="0"/>
    </comp>
    <comp name="--.HHN">
      <acc value="0.7924216878" flag="0"/>
      <vel value="0.3792354767" flag="0"/>
      <psa03 value="0.4689548075" flag="0"/>
      <psa10 value="0.2945564742" flag="0"/>
      <psa30 value="0.0441356445" flag="0"/>
    </comp>
    <comp name="--.HHZ">
      <acc value="1.0350424806" flag="0"/>
      <vel value="0.2529028804" flag="0"/>
      <psa03 value="0.7732577334" flag="0"/>
      <psa10 value="0.1795434719" flag="0"/>
      <psa30 value="0.0290119790" flag="0"/>
    </comp>
  </station>
  <station code="ANX" name="ANX" netid="HP" insttype="120" lat="38.5933" lon="21.9209">
    <comp name="--.HHE">
      <acc value="0.1250378840" flag="0"/>
      <vel value="0.0634457009" flag="0"/>
      <psa03 value="0.4072765299" flag="0"/>
      <psa10 value="0.1352201913" flag="0"/>
      <psa30 value="0.0070949966" flag="0"/>
    </comp>
    <comp name="--.HHZ">
      <acc value="0.0594164830" flag="0"/>
      <vel value="0.0480762308" flag="0"/>
      <psa03 value="0.2545750574" flag="0"/>
      <psa10 value="0.0722388059" flag="0"/>
      <psa30 value="0.0088282736" flag="0"/>
    </comp>
    <comp name="--.HHN">
      <acc value="0.1315301972" flag="0"/>
      <vel value="0.1407316435" flag="0"/>
      <psa03 value="0.7085821888" flag="0"/>
      <psa10 value="0.1681890820" flag="0"/>
      <psa30 value="0.0106723305" flag="0"/>
    </comp>
  </station>
  <station code="EFP" name="EFP" netid="HP" insttype="40," lat="38.4269" lon="21.9058">
    <comp name="--.HHZ">
      <acc value="0.0268744903" flag="0"/>
      <vel value="0.0491438617" flag="0"/>
      <psa03 value="0.0875019664" flag="0"/>
      <psa10 value="0.0522748830" flag="0"/>
      <psa30 value="0.0140702207" flag="0"/>
    </comp>
    <comp name="--.HHN">
      <acc value="0.0431188336" flag="0"/>
      <vel value="0.0421716708" flag="0"/>
      <psa03 value="0.1336240358" flag="0"/>
      <psa10 value="0.0596736114" flag="0"/>
      <psa30 value="0.0088525806" flag="0"/>
    </comp>
    <comp name="--.HHE">
      <acc value="0.0427595848" flag="0"/>
      <vel value="0.0525340554" flag="0"/>
      <psa03 value="0.1015387544" flag="0"/>
      <psa10 value="0.1241898351" flag="0"/>
      <psa30 value="0.0099458329" flag="0"/>
    </comp>
  </station>
  <station code="PVO" name="PVO" netid="HP" insttype="DC_100" lat="38.616" lon="21.525">
    <comp name="--.HNN">
      <acc value="0.0288101117" flag="0"/>
      <vel value="0.0264978466" flag="0"/>
      <psa03 value="0.0760564566" flag="0"/>
      <psa10 value="0.0401198993" flag="0"/>
      <psa30 value="0.0071383453" flag="0"/>
    </comp>
    <comp name="--.HNE">
      <acc value="0.0255770380" flag="0"/>
      <vel value="0.0267062463" flag="0"/>
      <psa03 value="0.0907802801" flag="0"/>
      <psa10 value="0.0412087837" flag="0"/>
      <psa30 value="0.0090307687" flag="0"/>
    </comp>
    <comp name="--.HNZ">
      <acc value="0.0165231293" flag="0"/>
      <vel value="0.0222272006" flag="0"/>
      <psa03 value="0.0439089485" flag="0"/>
      <psa10 value="0.0366873390" flag="0"/>
      <psa30 value="0.0115574345" flag="0"/>
    </comp>
  </station>
  <station code="SERG" name="SERG" netid="HP" insttype="2000" lat="38.4133" lon="22.0566">
    <comp name="00.HHE">
      <acc value="0.0592115402" flag="0"/>
      <vel value="0.0584172999" flag="0"/>
      <psa03 value="0.1503515074" flag="0"/>
      <psa10 value="0.0788501853" flag="0"/>
      <psa30 value="0.0074945494" flag="0"/>
    </comp>
    <comp name="00.HHN">
      <acc value="0.0607327060" flag="0"/>
      <vel value="0.0406418474" flag="0"/>
      <psa03 value="0.1883780495" flag="0"/>
      <psa10 value="0.0699418431" flag="0"/>
      <psa30 value="0.0127905959" flag="0"/>
    </comp>
    <comp name="00.HHZ">
      <acc value="0.0427137950" flag="0"/>
      <vel value="0.0357825368" flag="0"/>
      <psa03 value="0.1584040616" flag="0"/>
      <psa10 value="0.0652145445" flag="0"/>
      <psa30 value="0.0100604354" flag="0"/>
    </comp>
  </station>
  <station code="AGG" name="AGG" netid="HT" insttype="120P," lat="39.0211" lon="22.336">
    <comp name="--.HHE">
      <acc value="0.1892630221" flag="0"/>
      <vel value="0.1306980942" flag="0"/>
      <psa03 value="0.6945274267" flag="0"/>
      <psa10 value="0.0865409295" flag="0"/>
      <psa30 value="0.0158984339" flag="0"/>
    </comp>
    <comp name="--.HHN">
      <acc value="0.1379949157" flag="0"/>
      <vel value="0.0923679828" flag="0"/>
      <psa03 value="0.3801131273" flag="0"/>
      <psa10 value="0.0536045531" flag="0"/>
      <psa30 value="0.0146841449" flag="0"/>
    </comp>
    <comp name="--.HHZ">
      <acc value="0.0649550098" flag="0"/>
      <vel value="0.0472165751" flag="0"/>
      <psa03 value="0.2015931440" flag="0"/>
      <psa10 value="0.0472887492" flag="0"/>
      <psa30 value="0.0114409039" flag="0"/>
    </comp>
  </station>
  <station code="GRG" name="GRG" netid="HT" insttype="100" lat="40.957" lon="22.401">
    <comp name="--.HHE">
      <acc value="0.0330964419" flag="0"/>
      <vel value="0.0409965832" flag="0"/>
      <psa03 value="0.0667917472" flag="0"/>
      <psa10 value="0.0513953275" flag="0"/>
      <psa30 value="0.0134742424" flag="0"/>
    </comp>
    <comp name="--.HHN">
      <acc value="0.0477625726" flag="0"/>
      <vel value="0.0441664599" flag="0"/>
      <psa03 value="0.0914337501" flag="0"/>
      <psa10 value="0.0602244650" flag="0"/>
      <psa30 value="0.0104320157" flag="0"/>
    </comp>
    <comp name="--.HHZ">
      <acc value="0.0428587176" flag="0"/>
      <vel value="0.0466633289" flag="0"/>
      <psa03 value="0.1066430829" flag="0"/>
      <psa10 value="0.0458500738" flag="0"/>
      <psa30 value="0.0135289665" flag="0"/>
    </comp>
  </station>
  <station code="KPRO" name="KPRO" netid="HT" insttype="100" lat="39.9549" lon="21.3632">
    <comp name="--.HHN">
      <acc value="0.0976306684" flag="0"/>
      <vel value="0.0655493516" flag="0"/>
      <psa03 value="0.1940061860" flag="0"/>
      <psa10 value="0.0511733918" flag="0"/>
      <psa30 value="0.0159439596" flag="0"/>
    </comp>
    <comp name="--.HHE">
      <acc value="0.0943315414" flag="0"/>
      <vel value="0.0617573364" flag="0"/>
      <psa03 value="0.3812869127" flag="0"/>
      <psa10 value="0.0802849956" flag="0"/>
      <psa30 value="0.0108804174" flag="0"/>
    </comp>
    <comp name="--.HHZ">
      <acc value="0.0424009846" flag="0"/>
      <vel value="0.0387883626" flag="0"/>
      <psa03 value="0.1120367969" flag="0"/>
      <psa10 value="0.0468701327" flag="0"/>
      <psa30 value="0.0098395046" flag="0"/>
    </comp>
  </station>
  <station code="LIT" name="LIT" netid="HT" insttype="100" lat="40.1033" lon="22.4892">
    <comp name="--.HHN">
      <acc value="0.2840736434" flag="0"/>
      <vel value="0.1059853389" flag="0"/>
      <psa03 value="0.5327198814" flag="0"/>
      <psa10 value="0.0981657830" flag="0"/>
      <psa30 value="0.0177162197" flag="0"/>
    </comp>
    <comp name="--.HHZ">
      <acc value="0.1255662466" flag="0"/>
      <vel value="0.0579924585" flag="0"/>
      <psa03 value="0.2066235776" flag="0"/>
      <psa10 value="0.0935865209" flag="0"/>
      <psa30 value="0.0125671905" flag="0"/>
    </comp>
    <comp name="--.HHE">
      <acc value="0.2674878122" flag="0"/>
      <vel value="0.1092216807" flag="0"/>
      <psa03 value="0.5003338242" flag="0"/>
      <psa10 value="0.0735577524" flag="0"/>
      <psa30 value="0.0119306686" flag="0"/>
    </comp>
  </station>
  <station code="PAIG" name="PAIG" netid="HT" insttype="100" lat="39.9363" lon="23.6768">
    <comp name="--.HHE">
      <acc value="0.0110783955" flag="0"/>
      <vel value="0.0070662612" flag="0"/>
      <psa03 value="0.0279571747" flag="0"/>
      <psa10 value="0.0095464120" flag="0"/>
      <psa30 value="0.0013017951" flag="0"/>
    </comp>
    <comp name="--.HHN">
      <acc value="0.0087202805" flag="0"/>
      <vel value="0.0100920424" flag="0"/>
      <psa03 value="0.0178652956" flag="0"/>
      <psa10 value="0.0190070246" flag="0"/>
      <psa30 value="0.0019718610" flag="0"/>
    </comp>
    <comp name="--.HHZ">
      <acc value="0.0056936422" flag="0"/>
      <vel value="0.0056967046" flag="0"/>
      <psa03 value="0.0106133665" flag="0"/>
      <psa10 value="0.0057006595" flag="0"/>
      <psa30 value="0.0011500492" flag="0"/>
    </comp>
  </station>
  <station code="THE" name="THE" netid="HT" insttype="30s-100Hz," lat="40.6319" lon="22.9628">
    <comp name="--.HHE">
      <acc value="0.0126679220" flag="0"/>
      <vel value="0.0088648718" flag="0"/>
      <psa03 value="0.0318505434" flag="0"/>
      <psa10 value="0.0191326099" flag="0"/>
      <psa30 value="0.0018787862" flag="0"/>
    </comp>
    <comp name="--.HHZ">
      <acc value="0.0139257997" flag="0"/>
      <vel value="0.0115376408" flag="0"/>
      <psa03 value="0.0226675320" flag="0"/>
      <psa10 value="0.0181297179" flag="0"/>
      <psa30 value="0.0029340381" flag="0"/>
    </comp>
    <comp name="--.HHN">
      <acc value="0.0102675912" flag="0"/>
      <vel value="0.0109655812" flag="0"/>
      <psa03 value="0.0311569181" flag="0"/>
      <psa10 value="0.0158835780" flag="0"/>
      <psa30 value="0.0028181986" flag="0"/>
    </comp>
  </station>
  <station code="XOR" name="XOR" netid="HT" insttype="Compact," lat="39.366" lon="23.1918">
    <comp name="--.HHE">
      <acc value="0.1004083257" flag="0"/>
      <vel value="0.1414840532" flag="0"/>
      <psa03 value="0.2231700147" flag="0"/>
      <psa10 value="0.2372855564" flag="0"/>
      <psa30 value="0.0221317013" flag="0"/>
    </comp>
    <comp name="--.HHZ">
      <acc value="0.1005756331" flag="0"/>
      <vel value="0.0703603547" flag="0"/>
      <psa03 value="0.2623369935" flag="0"/>
      <psa10 value="0.0968128502" flag="0"/>
      <psa30 value="0.0131471201" flag="0"/>
    </comp>
    <comp name="--.HHN">
      <acc value="0.1682532860" flag="0"/>
      <vel value="0.1432047432" flag="0"/>
      <psa03 value="0.4431704062" flag="0"/>
      <psa10 value="0.1837760922" flag="0"/>
      <psa30 value="0.0125686581" flag="0"/>
    </comp>
  </station>
  <station code="THL" name="THL" netid="MN" insttype="" lat="39.5647" lon="22.0144">
    <comp name="--.HHE">
      <acc value="0.7322181570" flag="0"/>
      <vel value="0.2649542243" flag="0"/>
      <psa03 value="0.6008147735" flag="0"/>
      <psa10 value="0.2164551167" flag="0"/>
      <psa30 value="0.0289174879" flag="0"/>
    </comp>
    <comp name="--.HHN">
      <acc value="0.7924216878" flag="0"/>
      <vel value="0.3792354767" flag="0"/>
      <psa03 value="0.4689548075" flag="0"/>
      <psa10 value="0.2945564742" flag="0"/>
      <psa30 value="0.0441356445" flag="0"/>
    </comp>
    <comp name="--.HHZ">
      <acc value="1.0350424806" flag="0"/>
      <vel value="0.2529028804" flag="0"/>
      <psa03 value="0.7732577334" flag="0"/>
      <psa10 value="0.1795434719" flag="0"/>
      <psa30 value="0.0290119790" flag="0"/>
    </comp>
  </station>
</stationlist>
