<stationlist created="1778070005">
	<station code="MALA" name="MALA" netid="CL" source="Corinth Riff Laboratory (CRLNET)" insttype="" lat="38.39341" lon="21.87263">
		<comp name="01.HNE" depth="0.0">
			<acc value="0.0866047929519577" flag="0"/>
			<vel value="0.138466874156738" flag="0"/>
			<psa03 value="0.18017686605178" flag="0"/>
			<psa10 value="0.281569865001843" flag="0"/>
			<psa30 value="0.0407431481907306" flag="0"/>
		</comp>
		<comp name="01.HNN" depth="0.0">
			<acc value="0.0882231581891846" flag="0"/>
			<vel value="0.111601862100931" flag="0"/>
			<psa03 value="0.164696062561858" flag="0"/>
			<psa10 value="0.193938673963428" flag="0"/>
			<psa30 value="0.0230807147061017" flag="0"/>
		</comp>
		<comp name="01.HNZ" depth="0.0">
			<acc value="0.0329555377207996" flag="0"/>
			<vel value="0.0789669111054873" flag="0"/>
			<psa03 value="0.0607599165876131" flag="0"/>
			<psa10 value="0.0914566497042769" flag="0"/>
			<psa30 value="0.0226140534910731" flag="0"/>
		</comp>
	</station>
	<station code="ROD3" name="ROD3" netid="CL" source="Corinth Riff Laboratory (CRLNET)" insttype="" lat="38.30811" lon="21.89204">
		<comp name="00.HNE" depth="0.0">
			<acc value="0.0702613618175409" flag="0"/>
			<vel value="0.0555856608828863" flag="0"/>
			<psa03 value="0.235344006812109" flag="0"/>
			<psa10 value="0.0664341232309423" flag="0"/>
			<psa30 value="0.00794442620714033" flag="0"/>
		</comp>
		<comp name="00.HNN" depth="0.0">
			<acc value="0.0576513919487417" flag="0"/>
			<vel value="0.0384395261261176" flag="0"/>
			<psa03 value="0.155479167998494" flag="0"/>
			<psa10 value="0.056866449767691" flag="0"/>
			<psa30 value="0.0073627775211028" flag="0"/>
		</comp>
		<comp name="00.HNZ" depth="0.0">
			<acc value="0.0165253308800698" flag="0"/>
			<vel value="0.0185573164619009" flag="0"/>
			<psa03 value="0.036554382807128" flag="0"/>
			<psa10 value="0.0298184436007472" flag="0"/>
			<psa30 value="0.00849520277061126" flag="0"/>
		</comp>
	</station>
	<station code="STC" name="STC" netid="EG" source="EUROSEISTEST Strong Motion Network" insttype="" lat="40.64865" lon="23.304856">
		<comp name="--.EN1" depth="0.0">
			<acc value="0.123335376072807" flag="0"/>
			<vel value="0.0770796786399143" flag="0"/>
			<psa03 value="0.334553912554581" flag="0"/>
			<psa10 value="0.110556513826505" flag="0"/>
			<psa30 value="0.00697148557669016" flag="0"/>
		</comp>
		<comp name="--.EN2" depth="0.0">
			<acc value="0.0771279253414206" flag="0"/>
			<vel value="0.0525921508657625" flag="0"/>
			<psa03 value="0.255802195640142" flag="0"/>
			<psa10 value="0.0758017164915741" flag="0"/>
			<psa30 value="0.00919389905070503" flag="0"/>
		</comp>
		<comp name="--.EN3" depth="0.0">
			<acc value="0.0575864365511913" flag="0"/>
			<vel value="0.0459215156985529" flag="0"/>
			<psa03 value="0.150018583828261" flag="0"/>
			<psa10 value="0.0486178906965396" flag="0"/>
			<psa30 value="0.00976803791789673" flag="0"/>
		</comp>
	</station>
	<station code="TST" name="TST" netid="EG" source="EUROSEISTEST Strong Motion Network" insttype="" lat="40.6638" lon="23.2906">
		<comp name="00.EN1" depth="0.0">
			<acc value="0.0620878535870958" flag="0"/>
			<vel value="0.0592509786349847" flag="0"/>
			<psa03 value="0.129802296681663" flag="0"/>
			<psa10 value="0.0868646643575761" flag="0"/>
			<psa30 value="0.00631444580105221" flag="0"/>
		</comp>
		<comp name="00.EN2" depth="0.0">
			<acc value="0.0274758164319681" flag="0"/>
			<vel value="0.0235639301977205" flag="0"/>
			<psa03 value="0.0656094817227498" flag="0"/>
			<psa10 value="0.0453577922312512" flag="0"/>
			<psa30 value="0.00642144622263832" flag="0"/>
		</comp>
		<comp name="00.EN3" depth="0.0">
			<acc value="0.0766529473456886" flag="0"/>
			<vel value="0.0591788984990429" flag="0"/>
			<psa03 value="0.213010527568586" flag="0"/>
			<psa10 value="0.103070920442759" flag="0"/>
			<psa30 value="0.00593269384519135" flag="0"/>
		</comp>
	</station>
	<station code="ART2" name="ART2" netid="HI" source="ITSAK Strong Motion Network" insttype="" lat="39.1474" lon="20.9937">
		<comp name="--.HNE" depth="0.0">
			<acc value="0.0187695791005138" flag="0"/>
			<vel value="0.0150436451033041" flag="0"/>
			<psa03 value="0.0517733932748363" flag="0"/>
			<psa10 value="0.0182364568257743" flag="0"/>
			<psa30 value="0.00536524208761988" flag="0"/>
		</comp>
		<comp name="--.HNN" depth="0.0">
			<acc value="0.0245050990990666" flag="0"/>
			<vel value="0.0233612600120633" flag="0"/>
			<psa03 value="0.0436021774927612" flag="0"/>
			<psa10 value="0.0152484501350047" flag="0"/>
			<psa30 value="0.00437445811971343" flag="0"/>
		</comp>
		<comp name="--.HNZ" depth="0.0">
			<acc value="0.0148270843337846" flag="0"/>
			<vel value="0.0138490506478389" flag="0"/>
			<psa03 value="0.0331019871150091" flag="0"/>
			<psa10 value="0.0162643774351902" flag="0"/>
			<psa30 value="0.00483710418442191" flag="0"/>
		</comp>
	</station>
	<station code="KLV1" name="KLV1" netid="HI" source="ITSAK Strong Motion Network" insttype="" lat="38.03256" lon="22.10797">
		<comp name="--.HNE" depth="0.0">
			<acc value="0.0310450046551651" flag="0"/>
			<vel value="0.0232308445683778" flag="0"/>
			<psa03 value="0.0950116065525718" flag="0"/>
			<psa10 value="0.0338862735493229" flag="0"/>
			<psa30 value="0.00656680960223448" flag="0"/>
		</comp>
		<comp name="--.HNN" depth="0.0">
			<acc value="0.0327216382314847" flag="0"/>
			<vel value="0.0221056077853075" flag="0"/>
			<psa03 value="0.138587316146215" flag="0"/>
			<psa10 value="0.0310655748168843" flag="0"/>
			<psa30 value="0.00454408810687324" flag="0"/>
		</comp>
		<comp name="--.HNZ" depth="0.0">
			<acc value="0.0107125306348219" flag="0"/>
			<vel value="0.0123345992693874" flag="0"/>
			<psa03 value="0.0452260949653826" flag="0"/>
			<psa10 value="0.027473043079288" flag="0"/>
			<psa30 value="0.00348925343758347" flag="0"/>
		</comp>
	</station>
	<station code="LAM2" name="LAM2" netid="HI" source="ITSAK Strong Motion Network" insttype="" lat="38.90203" lon="22.431301">
		<comp name="--.HNE" depth="0.0">
			<acc value="0.112400248602414" flag="0"/>
			<vel value="0.0640389749822199" flag="0"/>
			<psa03 value="0.444075626164255" flag="0"/>
			<psa10 value="0.0575947066168142" flag="0"/>
			<psa30 value="0.00930944420499767" flag="0"/>
		</comp>
		<comp name="--.HNN" depth="0.0">
			<acc value="0.138911099137199" flag="0"/>
			<vel value="0.106951241035455" flag="0"/>
			<psa03 value="0.517975855022846" flag="0"/>
			<psa10 value="0.15129633263962" flag="0"/>
			<psa30 value="0.0180468205132857" flag="0"/>
		</comp>
		<comp name="--.HNZ" depth="0.0">
			<acc value="0.0696966006948399" flag="0"/>
			<vel value="0.0375833505610863" flag="0"/>
			<psa03 value="0.207638921726227" flag="0"/>
			<psa10 value="0.0388593242395165" flag="0"/>
			<psa30 value="0.015344953194494" flag="0"/>
		</comp>
	</station>
	<station code="LMS2" name="LMS2" netid="HI" source="ITSAK Strong Motion Network" insttype="" lat="40.834985" lon="21.141815">
		<comp name="--.HNE" depth="0.0">
			<acc value="0.0226085774097516" flag="0"/>
			<vel value="0.0143463747190216" flag="0"/>
			<psa03 value="0.0648077567374455" flag="0"/>
			<psa10 value="0.0211456182934296" flag="0"/>
			<psa30 value="0.00364228336673142" flag="0"/>
		</comp>
		<comp name="--.HNN" depth="0.0">
			<acc value="0.0375660962577985" flag="0"/>
			<vel value="0.0211148505771216" flag="0"/>
			<psa03 value="0.0896999317635518" flag="0"/>
			<psa10 value="0.0279537367978668" flag="0"/>
			<psa30 value="0.00583987727987502" flag="0"/>
		</comp>
		<comp name="--.HNZ" depth="0.0">
			<acc value="0.012959784449977" flag="0"/>
			<vel value="0.0166931670528301" flag="0"/>
			<psa03 value="0.0380406918841439" flag="0"/>
			<psa10 value="0.0306105834259379" flag="0"/>
			<psa30 value="0.00432876175922166" flag="0"/>
		</comp>
	</station>
	<station code="MSL1" name="MSL1" netid="HI" source="ITSAK Strong Motion Network" insttype="" lat="38.3727" lon="21.4243">
		<comp name="--.HNE" depth="0.0">
			<acc value="0.0759610245671855" flag="0"/>
			<vel value="0.161784895274662" flag="0"/>
			<psa03 value="0.153599995320527" flag="0"/>
			<psa10 value="0.132429325414959" flag="0"/>
			<psa30 value="0.0335517333209758" flag="0"/>
		</comp>
		<comp name="--.HNN" depth="0.0">
			<acc value="0.0833820742723729" flag="0"/>
			<vel value="0.143061965830166" flag="0"/>
			<psa03 value="0.172570690926674" flag="0"/>
			<psa10 value="0.186533391346038" flag="0"/>
			<psa30 value="0.032536085230741" flag="0"/>
		</comp>
		<comp name="--.HNZ" depth="0.0">
			<acc value="0.035192012621809" flag="0"/>
			<vel value="0.0471919939861406" flag="0"/>
			<psa03 value="0.0498428181727547" flag="0"/>
			<psa10 value="0.119579811096258" flag="0"/>
			<psa30 value="0.0118656331951657" flag="0"/>
		</comp>
	</station>
	<station code="SKO1" name="SKO1" netid="HI" source="ITSAK Strong Motion Network" insttype="" lat="39.123383" lon="23.728705">
		<comp name="--.HNE" depth="0.0">
			<acc value="0.0204251582857207" flag="0"/>
			<vel value="0.0159563950644372" flag="0"/>
			<psa03 value="0.0383173013539846" flag="0"/>
			<psa10 value="0.0247717222550292" flag="0"/>
			<psa30 value="0.0026584929871154" flag="0"/>
		</comp>
		<comp name="--.HNN" depth="0.0">
			<acc value="0.0127188500479839" flag="0"/>
			<vel value="0.0152970717124198" flag="0"/>
			<psa03 value="0.0492939477735928" flag="0"/>
			<psa10 value="0.0205255822190679" flag="0"/>
			<psa30 value="0.00235793620169919" flag="0"/>
		</comp>
		<comp name="--.HNZ" depth="0.0">
			<acc value="0.0144335320762915" flag="0"/>
			<vel value="0.016287596176609" flag="0"/>
			<psa03 value="0.0400115672366372" flag="0"/>
			<psa10 value="0.0253848428712661" flag="0"/>
			<psa30 value="0.00247271318011124" flag="0"/>
		</comp>
	</station>
	<station code="VAS2" name="VAS2" netid="HI" source="ITSAK Strong Motion Network" insttype="" lat="38.630558" lon="20.608081">
		<comp name="--.HNE" depth="0.0">
			<acc value="0.119598028352939" flag="0"/>
			<vel value="0.104742972932555" flag="0"/>
			<psa03 value="0.231630403662793" flag="0"/>
			<psa10 value="0.20660295554673" flag="0"/>
			<psa30 value="0.0186686857114739" flag="0"/>
		</comp>
		<comp name="--.HNN" depth="0.0">
			<acc value="0.109936987379012" flag="0"/>
			<vel value="0.17683435187297" flag="0"/>
			<psa03 value="0.201384671988841" flag="0"/>
			<psa10 value="0.345942267351815" flag="0"/>
			<psa30 value="0.0472339001048433" flag="0"/>
		</comp>
		<comp name="--.HNZ" depth="0.0">
			<acc value="0.0601043121533472" flag="0"/>
			<vel value="0.0608371331284737" flag="0"/>
			<psa03 value="0.122951583787011" flag="0"/>
			<psa10 value="0.0623106814690023" flag="0"/>
			<psa30 value="0.00578069309508071" flag="0"/>
		</comp>
	</station>
	<station code="VOL2" name="VOL2" netid="HI" source="ITSAK Strong Motion Network" insttype="" lat="39.366" lon="22.9506">
		<comp name="--.HNE" depth="0.0">
			<acc value="0.113703105380519" flag="0"/>
			<vel value="0.0577651692520492" flag="0"/>
			<psa03 value="0.300085379183685" flag="0"/>
			<psa10 value="0.0607814314713498" flag="0"/>
			<psa30 value="0.0109020338729037" flag="0"/>
		</comp>
		<comp name="--.HNN" depth="0.0">
			<acc value="0.0966254168528574" flag="0"/>
			<vel value="0.056068193496518" flag="0"/>
			<psa03 value="0.25400951438353" flag="0"/>
			<psa10 value="0.0603497253731581" flag="0"/>
			<psa30 value="0.0071989227266549" flag="0"/>
		</comp>
		<comp name="--.HNZ" depth="0.0">
			<acc value="0.078180724166479" flag="0"/>
			<vel value="0.0370138719668412" flag="0"/>
			<psa03 value="0.101037370313095" flag="0"/>
			<psa10 value="0.0383234662415399" flag="0"/>
			<psa30 value="0.0078043770016597" flag="0"/>
		</comp>
	</station>
	<station code="ATHP" name="ATHP" netid="HL" source="National Observatory of Athens Seismic Network" insttype="" lat="38.000799" lon="23.773487">
		<comp name="00.HNE" depth="0.0">
			<acc value="0.00533205690073858" flag="0"/>
			<vel value="0.0104904252146736" flag="0"/>
			<psa03 value="0.0104925375270202" flag="0"/>
			<psa10 value="0.00906429984037571" flag="0"/>
			<psa30 value="0.00260013787137398" flag="0"/>
		</comp>
		<comp name="00.HNN" depth="0.0">
			<acc value="0.00513025920744144" flag="0"/>
			<vel value="0.00643224394733289" flag="0"/>
			<psa03 value="0.011630271750526" flag="0"/>
			<psa10 value="0.00648904455485485" flag="0"/>
			<psa30 value="0.00228082275998253" flag="0"/>
		</comp>
		<comp name="00.HNZ" depth="0.0">
			<acc value="0.00644273329056524" flag="0"/>
			<vel value="0.00653954889951167" flag="0"/>
			<psa03 value="0.00725699050560988" flag="0"/>
			<psa10 value="0.0076884686983298" flag="0"/>
			<psa30 value="0.00272354917176811" flag="0"/>
		</comp>
	</station>
	<station code="DLFA" name="DLFA" netid="HL" source="National Observatory of Athens Seismic Network" insttype="" lat="38.47836" lon="22.49583">
		<comp name="00.HNE" depth="0.0">
			<acc value="0.0299963182384363" flag="0"/>
			<vel value="0.0349823213079757" flag="0"/>
			<psa03 value="0.108987344876895" flag="0"/>
			<psa10 value="0.0456835350600806" flag="0"/>
			<psa30 value="0.00652611315631695" flag="0"/>
		</comp>
		<comp name="00.HNN" depth="0.0">
			<acc value="0.02370060523656" flag="0"/>
			<vel value="0.0268273192294157" flag="0"/>
			<psa03 value="0.0626615468533379" flag="0"/>
			<psa10 value="0.0653655926497227" flag="0"/>
			<psa30 value="0.00587121643926748" flag="0"/>
		</comp>
		<comp name="00.HNZ" depth="0.0">
			<acc value="0.0131972101303109" flag="0"/>
			<vel value="0.0178293923940787" flag="0"/>
			<psa03 value="0.0346143294877641" flag="0"/>
			<psa10 value="0.0328049681681333" flag="0"/>
			<psa30 value="0.00594031476672137" flag="0"/>
		</comp>
	</station>
	<station code="EFSA" name="EFSA" netid="HL" source="National Observatory of Athens Seismic Network" insttype="" lat="39.54015" lon="24.98864">
		<comp name="00.HNE" depth="0.0">
			<acc value="0.00277411032595912" flag="0"/>
			<vel value="0.0039507871537541" flag="0"/>
			<psa03 value="0.00348550954373656" flag="0"/>
			<psa10 value="0.00766871238954342" flag="0"/>
			<psa30 value="0.00234300854614996" flag="0"/>
		</comp>
		<comp name="00.HNN" depth="0.0">
			<acc value="0.00394668916533143" flag="0"/>
			<vel value="0.00491209634986819" flag="0"/>
			<psa03 value="0.00429957226045688" flag="0"/>
			<psa10 value="0.00786944631219039" flag="0"/>
			<psa30 value="0.00140210642433617" flag="0"/>
		</comp>
		<comp name="00.HNZ" depth="0.0">
			<acc value="0.00981730966225678" flag="0"/>
			<vel value="0.00362167633718692" flag="0"/>
			<psa03 value="0.00318731140415316" flag="0"/>
			<psa10 value="0.00657441146000957" flag="0"/>
			<psa30 value="0.00108614601434497" flag="0"/>
		</comp>
	</station>
	<station code="ITM" name="ITM" netid="HL" source="National Observatory of Athens Seismic Network" insttype="" lat="37.17872" lon="21.92522">
		<comp name="--.HNE" depth="0.0">
			<acc value="0.00314762904923806" flag="0"/>
			<vel value="0.00695740203910129" flag="0"/>
			<psa03 value="0.00808462996808611" flag="0"/>
			<psa10 value="0.00633697854371242" flag="0"/>
			<psa30 value="0.00338134670595868" flag="0"/>
		</comp>
		<comp name="--.HNN" depth="0.0">
			<acc value="0.00278030332206526" flag="0"/>
			<vel value="0.00617296122984506" flag="0"/>
			<psa03 value="0.00678522097195802" flag="0"/>
			<psa10 value="0.00474568390953655" flag="0"/>
			<psa30 value="0.00211824178145452" flag="0"/>
		</comp>
		<comp name="--.HNZ" depth="0.0">
			<acc value="0.00297904848633781" flag="0"/>
			<vel value="0.0050577511077528" flag="0"/>
			<psa03 value="0.00515653039693157" flag="0"/>
			<psa10 value="0.00565428519363536" flag="0"/>
			<psa30 value="0.00256271705909583" flag="0"/>
		</comp>
	</station>
	<station code="JAN" name="JAN" netid="HL" source="National Observatory of Athens Seismic Network" insttype="" lat="39.65616" lon="20.84874">
		<comp name="00.HNE" depth="0.0">
			<acc value="0.0287405234393669" flag="0"/>
			<vel value="0.0239167308964063" flag="0"/>
			<psa03 value="0.0835909854092375" flag="0"/>
			<psa10 value="0.035479041562367" flag="0"/>
			<psa30 value="0.00527275929442225" flag="0"/>
		</comp>
		<comp name="00.HNN" depth="0.0">
			<acc value="0.0398545667257563" flag="0"/>
			<vel value="0.0314143866396617" flag="0"/>
			<psa03 value="0.0897758742942717" flag="0"/>
			<psa10 value="0.0244262793711455" flag="0"/>
			<psa30 value="0.00515274717754854" flag="0"/>
		</comp>
		<comp name="00.HNZ" depth="0.0">
			<acc value="0.0179133606304317" flag="0"/>
			<vel value="0.0173212858370625" flag="0"/>
			<psa03 value="0.045945507206242" flag="0"/>
			<psa10 value="0.0204432136375841" flag="0"/>
			<psa30 value="0.00510149628244717" flag="0"/>
		</comp>
	</station>
	<station code="KYMI" name="KYMI" netid="HL" source="National Observatory of Athens Seismic Network" insttype="" lat="38.633147" lon="24.100138">
		<comp name="--.HNE" depth="1.0">
			<acc value="0.00350205411364587" flag="0"/>
			<vel value="0.00701761408018681" flag="0"/>
			<psa03 value="0.00923910488389817" flag="0"/>
			<psa10 value="0.00581077368522079" flag="0"/>
			<psa30 value="0.00203827981769948" flag="0"/>
		</comp>
		<comp name="--.HNN" depth="1.0">
			<acc value="0.00285606842120745" flag="0"/>
			<vel value="0.00548444496478767" flag="0"/>
			<psa03 value="0.00856125008350642" flag="0"/>
			<psa10 value="0.00495108454754512" flag="0"/>
			<psa30 value="0.00147751266962978" flag="0"/>
		</comp>
		<comp name="--.HNZ" depth="1.0">
			<acc value="0.00261161921164488" flag="0"/>
			<vel value="0.00590429087533278" flag="0"/>
			<psa03 value="0.00479654431001855" flag="0"/>
			<psa10 value="0.00492821881406358" flag="0"/>
			<psa30 value="0.00168451127810698" flag="0"/>
		</comp>
	</station>
	<station code="LIA" name="LIA" netid="HL" source="National Observatory of Athens Seismic Network" insttype="" lat="39.89725" lon="25.18055">
		<comp name="00.HNE" depth="0.0">
			<acc value="0.0114841736571675" flag="0"/>
			<vel value="0.00406228900884652" flag="0"/>
			<psa03 value="0.00551400069216078" flag="0"/>
			<psa10 value="0.00683515732688593" flag="0"/>
			<psa30 value="0.00146043903858655" flag="0"/>
		</comp>
		<comp name="00.HNN" depth="0.0">
			<acc value="0.00547521650557652" flag="0"/>
			<vel value="0.0065965198422124" flag="0"/>
			<psa03 value="0.00573423858913704" flag="0"/>
			<psa10 value="0.00980249405460305" flag="0"/>
			<psa30 value="0.00130503207697047" flag="0"/>
		</comp>
		<comp name="00.HNZ" depth="0.0">
			<acc value="0.00736425037234937" flag="0"/>
			<vel value="0.00413396920936842" flag="0"/>
			<psa03 value="0.00307718301493863" flag="0"/>
			<psa10 value="0.0065026138912745" flag="0"/>
			<psa30 value="0.00133810655966098" flag="0"/>
		</comp>
	</station>
	<station code="NOAC" name="NOAC" netid="HL" source="National Observatory of Athens Seismic Network" insttype="" lat="37.97384" lon="23.71767">
		<comp name="00.HNE" depth="0.0">
			<acc value="0.00749496425082237" flag="0"/>
			<vel value="0.00626051267222246" flag="0"/>
			<psa03 value="0.0268637483414974" flag="0"/>
			<psa10 value="0.0106006847433479" flag="0"/>
			<psa30 value="0.00266768651280635" flag="0"/>
		</comp>
		<comp name="00.HNN" depth="0.0">
			<acc value="0.00583484087938442" flag="0"/>
			<vel value="0.0051197582455018" flag="0"/>
			<psa03 value="0.016048317028472" flag="0"/>
			<psa10 value="0.00597845994988402" flag="0"/>
			<psa30 value="0.00235542041004224" flag="0"/>
		</comp>
		<comp name="00.HNZ" depth="0.0">
			<acc value="0.00448546394056223" flag="0"/>
			<vel value="0.0061321668461861" flag="0"/>
			<psa03 value="0.012308711225027" flag="0"/>
			<psa10 value="0.00849506463133912" flag="0"/>
			<psa30 value="0.00235366133517826" flag="0"/>
		</comp>
	</station>
	<station code="PATC" name="PATC" netid="HL" source="National Observatory of Athens Seismic Network" insttype="" lat="38.26933" lon="21.76001">
