<?xml version="1.0" encoding="UTF-8" standalone="yes"?>
<!DOCTYPE earthquake SYSTEM "stationlist.dtd">
<stationlist created="" xmlns="ch.ethz.sed.shakemap.usgs.xml">
  <station code="KLV" name="KLV" netid="MN" insttype="" lat="38.0437" lon="22.1504">
    <comp name="--.HHE">
      <acc value="0.0178347466" flag="0"/>
      <vel value="0.0087289190" flag="0"/>
      <psa03 value="0.0624476143" flag="0"/>
      <psa10 value="0.0085823385" flag="0"/>
      <psa30 value="0.0009853742" flag="0"/>
    </comp>
    <comp name="--.HHN">
      <acc value="0.0223122505" flag="0"/>
      <vel value="0.0113593588" flag="0"/>
      <psa03 value="0.0536437731" flag="0"/>
      <psa10 value="0.0103760532" flag="0"/>
      <psa30 value="0.0012287273" flag="0"/>
    </comp>
    <comp name="--.HHZ">
      <acc value="0.0246790170" flag="0"/>
      <vel value="0.0082845609" flag="0"/>
      <psa03 value="0.0455945036" flag="0"/>
      <psa10 value="0.0058756274" flag="0"/>
      <psa30 value="0.0006836901" flag="0"/>
    </comp>
  </station>
</stationlist>
