<stationlist xmlns:esm="https://esm-db.eu/esmws/shakemap/1/" created="1784080535">
	<station code="MALA" name="MALA" netid="CL" source="Corinth Riff Laboratory (CRLNET)" insttype="" lat="38.39341" lon="21.87263" esm:processing="automatic (Paolucci et al 2011)" esm:quality="best">
		<comp name="00.ENE" depth="0.0">
			<acc value="0.0268036017187128" flag="0"/>
			<vel value="0.0162441270877924" flag="0"/>
			<psa03 value="0.0757513827408367" flag="0"/>
			<psa10 value="0.0241534000442162" flag="0"/>
			<psa30 value="0.00167562475191684" flag="0"/>
		</comp>
		<comp name="00.ENN" depth="0.0">
			<acc value="0.025910882918496" flag="0"/>
			<vel value="0.0151799925517224" flag="0"/>
			<psa03 value="0.0716051705746595" flag="0"/>
			<psa10 value="0.0190780275756901" flag="0"/>
			<psa30 value="0.00195215244551818" flag="0"/>
		</comp>
		<comp name="00.ENZ" depth="0.0">
			<acc value="0.0110625913354257" flag="0"/>
			<vel value="0.00746442738957211" flag="0"/>
			<psa03 value="0.0337121863918972" flag="0"/>
			<psa10 value="0.00658026090998375" flag="0"/>
			<psa30 value="0.000451812169921177" flag="0"/>
		</comp>
	</station>
	<station code="ROD3" name="ROD3" netid="CL" source="Corinth Riff Laboratory (CRLNET)" insttype="" lat="38.30811" lon="21.89204" esm:processing="automatic (Paolucci et al 2011)" esm:quality="best">
		<comp name="00.HNE" depth="0.0">
			<acc value="0.0646474345362516" flag="0"/>
			<vel value="0.0325830132109311" flag="0"/>
			<psa03 value="0.236356636633801" flag="0"/>
			<psa10 value="0.0156090337093672" flag="0"/>
			<psa30 value="0.000916833652396292" flag="0"/>
		</comp>
		<comp name="00.HNN" depth="0.0">
			<acc value="0.0552389081030134" flag="0"/>
			<vel value="0.0258583454683808" flag="0"/>
			<psa03 value="0.205808196282735" flag="0"/>
			<psa10 value="0.0210904877662953" flag="0"/>
			<psa30 value="0.00153162510847871" flag="0"/>
		</comp>
		<comp name="00.HNZ" depth="0.0">
			<acc value="0.022708779306226" flag="0"/>
			<vel value="0.00922214785959001" flag="0"/>
			<psa03 value="0.0641032777776132" flag="0"/>
			<psa10 value="0.00651921295962902" flag="0"/>
			<psa30 value="0.000457361235435828" flag="0"/>
		</comp>
	</station>
	<station code="TRIZ" name="TRIZ" netid="CL" source="Corinth Riff Laboratory (CRLNET)" insttype="" lat="38.36543" lon="22.07272" esm:processing="automatic (Paolucci et al 2011)" esm:quality="good">
		<comp name="00.HNE" depth="0.0">
			<acc value="0.0215565711616516" flag="0"/>
			<vel value="0.00884708284437068" flag="0"/>
			<psa03 value="0.0408095393691836" flag="0"/>
			<psa10 value="0.00603587672220258" flag="0"/>
			<psa30 value="0.000706257358998505" flag="0"/>
		</comp>
		<comp name="00.HNN" depth="0.0">
			<acc value="0.0347704303058938" flag="0"/>
			<vel value="0.0183176426392215" flag="0"/>
			<psa03 value="0.121239396098333" flag="0"/>
			<psa10 value="0.0106040815308605" flag="0"/>
			<psa30 value="0.000887306383859299" flag="0"/>
		</comp>
		<comp name="00.HNZ" depth="0.0">
			<acc value="0.0221331369954751" flag="0"/>
			<vel value="0.00780427317158012" flag="0"/>
			<psa03 value="0.0331932718080197" flag="0"/>
			<psa10 value="0.00527107543287201" flag="0"/>
			<psa30 value="0.00119333082314168" flag="0"/>
		</comp>
	</station>
	<station code="AIGS" name="AIGS" netid="HA" source="Hellenic Seismological Network, University of Athens, Seismological Laboratory (HA)" insttype="" lat="38.25001" lon="22.0878" esm:processing="automatic (Paolucci et al 2011)" esm:quality="best">
		<comp name="--.HNE" depth="0.0">
			<acc value="0.0316605664936065" flag="0"/>
			<vel value="0.0152251982988985" flag="0"/>
			<psa03 value="0.0783493308836574" flag="0"/>
			<psa10 value="0.0124620483620492" flag="0"/>
			<psa30 value="0.00210755607358036" flag="0"/>
		</comp>
		<comp name="--.HNN" depth="0.0">
			<acc value="0.0257018827267405" flag="0"/>
			<vel value="0.0161044936336332" flag="0"/>
			<psa03 value="0.0663059966136514" flag="0"/>
			<psa10 value="0.00886320589390777" flag="0"/>
			<psa30 value="0.00091551023139146" flag="0"/>
		</comp>
		<comp name="--.HNZ" depth="0.0">
			<acc value="0.020791293544742" flag="0"/>
			<vel value="0.00714807566479352" flag="0"/>
			<psa03 value="0.0392765914647532" flag="0"/>
			<psa10 value="0.00823820636573153" flag="0"/>
			<psa30 value="0.000680420803703736" flag="0"/>
		</comp>
	</station>
	<station code="DRES" name="DRES" netid="HA" source="Hellenic Seismological Network, University of Athens, Seismological Laboratory (HA)" insttype="" lat="38.319719" lon="21.853176" esm:processing="manual (Paolucci et al 2011)" esm:quality="good">
		<comp name="--.HNE" depth="0.0">
			<acc value="0.0167678305619773" flag="0"/>
			<vel value="0.0101885432536909" flag="0"/>
			<psa03 value="0.0638026016092297" flag="0"/>
			<psa10 value="0.0133206480525591" flag="0"/>
			<psa30 value="0.000993304343204519" flag="0"/>
		</comp>
		<comp name="--.HNN" depth="0.0">
			<acc value="0.0168405101331737" flag="0"/>
			<vel value="0.0112058774258647" flag="0"/>
			<psa03 value="0.0539814353801668" flag="0"/>
			<psa10 value="0.00808523748230291" flag="0"/>
			<psa30 value="0.000586049343726174" flag="0"/>
		</comp>
		<comp name="--.HNZ" depth="0.0">
			<acc value="0.00940104812111711" flag="0"/>
			<vel value="0.00511477449077017" flag="0"/>
			<psa03 value="0.0303766346988013" flag="0"/>
			<psa10 value="0.00605186309372895" flag="0"/>
			<psa30 value="0.000430772182376295" flag="0"/>
		</comp>
	</station>
	<station code="KIAS" name="KIAS" netid="HA" source="Hellenic Seismological Network, University of Athens, Seismological Laboratory (HA)" insttype="" lat="37.9875" lon="22.7543" esm:processing="automatic (Paolucci et al 2011)" esm:quality="best">
		<comp name="--.HNE" depth="0.0">
			<acc value="0.0799360936039484" flag="0"/>
			<vel value="0.0287364859525255" flag="0"/>
			<psa03 value="0.121037684819421" flag="0"/>
			<psa10 value="0.0252566575046213" flag="0"/>
			<psa30 value="0.00213481642111009" flag="0"/>
		</comp>
		<comp name="--.HNN" depth="0.0">
			<acc value="0.107815967113775" flag="0"/>
			<vel value="0.0321627584773183" flag="0"/>
			<psa03 value="0.154090884848041" flag="0"/>
			<psa10 value="0.0210044345657217" flag="0"/>
			<psa30 value="0.00155939517727523" flag="0"/>
		</comp>
		<comp name="--.HNZ" depth="0.0">
			<acc value="0.088715096026375" flag="0"/>
			<vel value="0.0124693959792523" flag="0"/>
			<psa03 value="0.0585090061427476" flag="0"/>
			<psa10 value="0.0118651766347006" flag="0"/>
			<psa30 value="0.00129540789775123" flag="0"/>
		</comp>
	</station>
	<station code="ARS1" name="ARS1" netid="HI" source="ITSAK Strong Motion Network" insttype="" lat="37.6349" lon="22.7293" esm:processing="manual (Paolucci et al 2011)" esm:quality="best">
		<comp name="--.HNE" depth="0.0">
			<acc value="0.0939320275016211" flag="0"/>
			<vel value="0.0365451710824555" flag="0"/>
			<psa03 value="0.246154098167428" flag="0"/>
			<psa10 value="0.0237075198818238" flag="0"/>
			<psa30 value="0.00124286660464627" flag="0"/>
		</comp>
		<comp name="--.HNN" depth="0.0">
			<acc value="0.119726422845904" flag="0"/>
			<vel value="0.0587189494649309" flag="0"/>
			<psa03 value="0.369347134101527" flag="0"/>
			<psa10 value="0.0275692969556346" flag="0"/>
			<psa30 value="0.00171114522997453" flag="0"/>
		</comp>
		<comp name="--.HNZ" depth="0.0">
			<acc value="0.0889030451639735" flag="0"/>
			<vel value="0.0274660170842621" flag="0"/>
			<psa03 value="0.175779082001702" flag="0"/>
			<psa10 value="0.00710477768791402" flag="0"/>
			<psa30 value="0.000733085802920579" flag="0"/>
		</comp>
	</station>
	<station code="ATH5" name="ATH5" netid="HI" source="ITSAK Strong Motion Network" insttype="" lat="37.975421" lon="23.737098" esm:processing="manual (Paolucci et al 2011)" esm:quality="good">
		<comp name="--.HNE" depth="0.0">
			<acc value="0.00950500264236694" flag="0"/>
			<vel value="0.00447543087873309" flag="0"/>
			<psa03 value="0.0173472325023566" flag="0"/>
			<psa10 value="0.0032526246891706" flag="0"/>
			<psa30 value="0.000265542773197136" flag="0"/>
		</comp>
		<comp name="--.HNN" depth="0.0">
			<acc value="0.00607762461723542" flag="0"/>
			<vel value="0.0039321227574479" flag="0"/>
			<psa03 value="0.0226409113076051" flag="0"/>
			<psa10 value="0.00338530824443304" flag="0"/>
			<psa30 value="0.000248998500137161" flag="0"/>
		</comp>
		<comp name="--.HNZ" depth="0.0">
			<acc value="0.0150392281335491" flag="0"/>
			<vel value="0.00422826925606877" flag="0"/>
			<psa03 value="0.0206450121619865" flag="0"/>
			<psa10 value="0.00222513537304837" flag="0"/>
			<psa30 value="0.000202712790706578" flag="0"/>
		</comp>
	</station>
	<station code="KLV1" name="KLV1" netid="HI" source="ITSAK Strong Motion Network" insttype="" lat="38.03256" lon="22.10797" esm:processing="manual (Paolucci et al 2011)" esm:quality="best">
		<comp name="--.HNE" depth="0.0">
			<acc value="0.0472087749596035" flag="0"/>
			<vel value="0.0231521071870508" flag="0"/>
			<psa03 value="0.128953094592831" flag="0"/>
			<psa10 value="0.0164008639767515" flag="0"/>
			<psa30 value="0.00132583783024869" flag="0"/>
		</comp>
		<comp name="--.HNN" depth="0.0">
			<acc value="0.0533446796007425" flag="0"/>
			<vel value="0.0233059726339119" flag="0"/>
			<psa03 value="0.149083073938747" flag="0"/>
			<psa10 value="0.0152251235897118" flag="0"/>
			<psa30 value="0.00152227313479091" flag="0"/>
		</comp>
		<comp name="--.HNZ" depth="0.0">
			<acc value="0.0204059840316223" flag="0"/>
			<vel value="0.0096953468992878" flag="0"/>
			<psa03 value="0.0472280609189193" flag="0"/>
			<psa10 value="0.00932524306407401" flag="0"/>
			<psa30 value="0.000739501748777944" flag="0"/>
		</comp>
	</station>
	<station code="NAX1" name="NAX1" netid="HI" source="ITSAK Strong Motion Network" insttype="" lat="37.101394" lon="25.374103" esm:processing="manual (Paolucci et al 2011)" esm:quality="best">
		<comp name="--.HNE" depth="0.0">
			<acc value="0.00234146167980362" flag="0"/>
			<vel value="0.000971437728590088" flag="0"/>
			<psa03 value="0.00521837401200012" flag="0"/>
			<psa10 value="0.00105280114916078" flag="0"/>
			<psa30 value="0.000137627294215986" flag="0"/>
		</comp>
		<comp name="--.HNN" depth="0.0">
			<acc value="0.00352845164408947" flag="0"/>
			<vel value="0.00144704077929183" flag="0"/>
			<psa03 value="0.00904620994409508" flag="0"/>
			<psa10 value="0.000828968215858143" flag="0"/>
			<psa30 value="9.84429276107549e-05" flag="0"/>
		</comp>
		<comp name="--.HNZ" depth="0.0">
			<acc value="0.00200888069079611" flag="0"/>
			<vel value="0.00105152179541982" flag="0"/>
			<psa03 value="0.00522779911549579" flag="0"/>
			<psa10 value="0.000740685375363983" flag="0"/>
			<psa30 value="0.000134768914758534" flag="0"/>
		</comp>
	</station>
	<station code="NPS1" name="NPS1" netid="HI" source="ITSAK Strong Motion Network" insttype="" lat="36.51263" lon="23.06248" esm:processing="manual (Paolucci et al 2011)" esm:quality="best">
		<comp name="--.HNE" depth="0.0">
			<acc value="0.0751851449900353" flag="0"/>
			<vel value="0.0465186838009639" flag="0"/>
			<psa03 value="0.165418489413138" flag="0"/>
			<psa10 value="0.0320888882313608" flag="0"/>
			<psa30 value="0.00225119038031552" flag="0"/>
		</comp>
		<comp name="--.HNN" depth="0.0">
			<acc value="0.0798318035011121" flag="0"/>
			<vel value="0.0694328685029927" flag="0"/>
			<psa03 value="0.165752094846088" flag="0"/>
			<psa10 value="0.039645185048946" flag="0"/>
			<psa30 value="0.00311566743934177" flag="0"/>
		</comp>
		<comp name="--.HNZ" depth="0.0">
			<acc value="0.0640348176323128" flag="0"/>
			<vel value="0.0180106211358299" flag="0"/>
			<psa03 value="0.0728622851021963" flag="0"/>
			<psa10 value="0.0106123208266878" flag="0"/>
			<psa30 value="0.000552385863686389" flag="0"/>
		</comp>
	</station>
	<station code="SKY1" name="SKY1" netid="HI" source="ITSAK Strong Motion Network" insttype="" lat="38.904483" lon="24.564572" esm:processing="manual (Paolucci et al 2011)" esm:quality="bad">
		<comp name="--.HNE" depth="0.0">
			<acc value="0.00190284988115287" flag="0"/>
			<vel value="0.00118466885023259" flag="0"/>
			<psa03 value="0.00708644600474883" flag="0"/>
			<psa10 value="0.00102294964039329" flag="0"/>
			<psa30 value="0.000127600419047431" flag="0"/>
		</comp>
		<comp name="--.HNN" depth="0.0">
			<acc value="0.00190441275579417" flag="0"/>
			<vel value="0.00115599105320884" flag="0"/>
			<psa03 value="0.00738980724681216" flag="0"/>
			<psa10 value="0.00114721435669772" flag="0"/>
			<psa30 value="0.000126785625488175" flag="0"/>
		</comp>
		<comp name="--.HNZ" depth="0.0">
			<acc value="0.0023301521672024" flag="0"/>
			<vel value="0.000719421033462738" flag="0"/>
			<psa03 value="0.00626782732216952" flag="0"/>
			<psa10 value="0.000635324489473234" flag="0"/>
			<psa30 value="7.34077730607832e-05" flag="0"/>
		</comp>
	</station>
	<station code="ACHA" name="ACHA" netid="HL" source="National Observatory of Athens Seismic Network" insttype="" lat="38.07458" lon="23.74127" esm:processing="manual (Paolucci et al 2011)" esm:quality="best">
		<comp name="00.HNE" depth="0.0">
			<acc value="0.00995291388806832" flag="0"/>
			<vel value="0.0054826831160282" flag="0"/>
			<psa03 value="0.0460003910500882" flag="0"/>
			<psa10 value="0.00672522582569346" flag="0"/>
			<psa30 value="0.00038425451747595" flag="0"/>
		</comp>
		<comp name="00.HNN" depth="0.0">
			<acc value="0.0103344479971828" flag="0"/>
			<vel value="0.00682951372649688" flag="0"/>
			<psa03 value="0.0368183478890232" flag="0"/>
			<psa10 value="0.00772365352913186" flag="0"/>
			<psa30 value="0.000658473047690576" flag="0"/>
		</comp>
		<comp name="00.HNZ" depth="0.0">
			<acc value="0.0147520577899223" flag="0"/>
			<vel value="0.00427900698772773" flag="0"/>
			<psa03 value="0.0256973950346526" flag="0"/>
			<psa10 value="0.00386439451279444" flag="0"/>
			<psa30 value="0.000217038974120818" flag="0"/>
		</comp>
	</station>
	<station code="ALNA" name="ALNA" netid="HL" source="National Observatory of Athens Seismic Network" insttype="" lat="39.14804" lon="23.86669" esm:processing="manual (Paolucci et al 2011)" esm:quality="bad">
		<comp name="00.HNE" depth="0.0">
			<acc value="0.00190884352469897" flag="0"/>
			<vel value="0.00145371139892987" flag="0"/>
			<psa03 value="0.00505822863752892" flag="0"/>
			<psa10 value="0.00251340595393609" flag="0"/>
			<psa30 value="0.000162111455234105" flag="0"/>
		</comp>
		<comp name="00.HNN" depth="0.0">
			<acc value="0.00178104666398098" flag="0"/>
			<vel value="0.00135912652174054" flag="0"/>
			<psa03 value="0.00351271837743408" flag="0"/>
			<psa10 value="0.00226092352508687" flag="0"/>
			<psa30 value="0.000218763945162619" flag="0"/>
		</comp>
		<comp name="00.HNZ" depth="0.0">
			<acc value="0.00355822909750811" flag="0"/>
			<vel value="0.00110912158330364" flag="0"/>
			<psa03 value="0.00476319607221739" flag="0"/>
			<psa10 value="0.00155689981666148" flag="0"/>
			<psa30 value="0.000115042972595029" flag="0"/>
		</comp>
	</station>
	<station code="ATHP" name="ATHP" netid="HL" source="National Observatory of Athens Seismic Network" insttype="" lat="38.000799" lon="23.773487" esm:processing="manual (Paolucci et al 2011)" esm:quality="best">
		<comp name="00.HNE" depth="0.0">
			<acc value="0.0194335289567092" flag="0"/>
			<vel value="0.00943782852177829" flag="0"/>
			<psa03 value="0.0505003714436467" flag="0"/>
			<psa10 value="0.00349999201354472" flag="0"/>
			<psa30 value="0.000542025281512916" flag="0"/>
		</comp>
		<comp name="00.HNN" depth="0.0">
			<acc value="0.0134862133743027" flag="0"/>
			<vel value="0.00762602598701509" flag="0"/>
			<psa03 value="0.0348744925556412" flag="0"/>
			<psa10 value="0.00589599667460711" flag="0"/>
			<psa30 value="0.000421010494045689" flag="0"/>
		</comp>
		<comp name="00.HNZ" depth="0.0">
			<acc value="0.0289158377007492" flag="0"/>
			<vel value="0.00500934145444754" flag="0"/>
			<psa03 value="0.024582516491927" flag="0"/>
			<psa10 value="0.00209542060820723" flag="0"/>
			<psa30 value="0.000258765944057255" flag="0"/>
		</comp>
	</station>
	<station code="DLFA" name="DLFA" netid="HL" source="National Observatory of Athens Seismic Network" insttype="" lat="38.47836" lon="22.49583" esm:processing="manual (Paolucci et al 2011)" esm:quality="best">
		<comp name="00.HNE" depth="0.0">
			<acc value="0.0130161392845701" flag="0"/>
			<vel value="0.00839785782729439" flag="0"/>
			<psa03 value="0.0272393643700238" flag="0"/>
			<psa10 value="0.00888978765478324" flag="0"/>
			<psa30 value="0.000619967996919898" flag="0"/>
		</comp>
		<comp name="00.HNN" depth="0.0">
			<acc value="0.0159594282596998" flag="0"/>
			<vel value="0.0064761120144891" flag="0"/>
			<psa03 value="0.0362700667763999" flag="0"/>
			<psa10 value="0.0067215252680517" flag="0"/>
			<psa30 value="0.000502499121436161" flag="0"/>
		</comp>
		<comp name="00.HNZ" depth="0.0">
			<acc value="0.0136069449378148" flag="0"/>
			<vel value="0.00931350920525765" flag="0"/>
			<psa03 value="0.0344857688879368" flag="0"/>
			<psa10 value="0.00522417857620783" flag="0"/>
			<psa30 value="0.000656447548927838" flag="0"/>
		</comp>
	</station>
	<station code="DRPA" name="DRPA" netid="HL" source="National Observatory of Athens Seismic Network" insttype="" lat="37.94738" lon="23.63024" esm:processing="manual (Paolucci et al 2011)" esm:quality="best">
		<comp name="00.HNE" depth="0.0">
			<acc value="0.025807035308553" flag="0"/>
			<vel value="0.0135918111022582" flag="0"/>
			<psa03 value="0.0665167657840622" flag="0"/>
			<psa10 value="0.00825561783168269" flag="0"/>
			<psa30 value="0.000763982224657457" flag="0"/>
		</comp>
		<comp name="00.HNN" depth="0.0">
			<acc value="0.0241161547868467" flag="0"/>
			<vel value="0.0113110981045933" flag="0"/>
			<psa03 value="0.0598338907850668" flag="0"/>
			<psa10 value="0.00564617715654314" flag="0"/>
			<psa30 value="0.000428995997004282" flag="0"/>
		</comp>
		<comp name="00.HNZ" depth="0.0">
			<acc value="0.0188954566354471" flag="0"/>
			<vel value="0.00477613012133956" flag="0"/>
			<psa03 value="0.0245734065134301" flag="0"/>
			<psa10 value="0.00316562548840283" flag="0"/>
			<psa30 value="0.000316075026960944" flag="0"/>
		</comp>
	</station>
	<station code="ELIN" name="ELIN" netid="HL" source="National Observatory of Athens Seismic Network" insttype="" lat="38.099492" lon="22.487383" esm:processing="manual (Paolucci et al 2011)" esm:quality="good">
		<comp name="--.HNE" depth="0.0">
			<acc value="0.248179394768707" flag="0"/>
			<vel value="0.0995853790912873" flag="0"/>
			<psa03 value="0.515388350284197" flag="0"/>
			<psa10 value="0.0595439019911236" flag="0"/>
			<psa30 value="0.00344845573493386" flag="0"/>
		</comp>
		<comp name="--.HNN" depth="0.0">
			<acc value="0.312587579913046" flag="0"/>
			<vel value="0.123881973920506" flag="0"/>
			<psa03 value="0.853056094112882" flag="0"/>
			<psa10 value="0.0599460036285839" flag="0"/>
			<psa30 value="0.00392484041808441" flag="0"/>
		</comp>
		<comp name="--.HNZ" depth="0.0">
			<acc value="0.150659126601224" flag="0"/>
			<vel value="0.0606390372138052" flag="0"/>
			<psa03 value="0.488256511262155" flag="0"/>
			<psa10 value="0.023550200710211" flag="0"/>
			<psa30 value="0.00213016215445316" flag="0"/>
		</comp>
	</station>
	<station code="KIAA" name="KIAA" netid="HL" source="National Observatory of Athens Seismic Network" insttype="" lat="38.0139" lon="22.7495" esm:processing="manual (Paolucci et al 2011)" esm:quality="best">
		<comp name="00.HNE" depth="0.0">
			<acc value="0.0678728335055613" flag="0"/>
			<vel value="0.0579018475307002" flag="0"/>
			<psa03 value="0.162259623903613" flag="0"/>
			<psa10 value="0.0587977413116938" flag="0"/>
			<psa30 value="0.00357432511483141" flag="0"/>
		</comp>
		<comp name="00.HNN" depth="0.0">
			<acc value="0.0654753347176837" flag="0"/>
			<vel value="0.0640766861840309" flag="0"/>
