<?xml version="1.0" encoding="UTF-8" standalone="yes"?>
<!DOCTYPE earthquake SYSTEM "stationlist.dtd">
<stationlist created="" xmlns="ch.ethz.sed.shakemap.usgs.xml">
  <station code="PSAM" name="PSAM" netid="CL" insttype="CMG40-T" lat="38.3218" lon="22.1842">
    <comp name="00.HHE">
      <acc value="0.0246644221" flag="0"/>
      <vel value="0.0115078813" flag="0"/>
      <psa03 value="0.0613293657" flag="0"/>
      <psa10 value="0.0078473334" flag="0"/>
      <psa30 value="0.0006091118" flag="0"/>
    </comp>
    <comp name="00.HHN">
      <acc value="0.0203564469" flag="0"/>
      <vel value="0.0109503908" flag="0"/>
      <psa03 value="0.0396163155" flag="0"/>
      <psa10 value="0.0081271128" flag="0"/>
      <psa30 value="0.0007520826" flag="0"/>
    </comp>
    <comp name="00.HHZ">
      <acc value="0.0209457893" flag="0"/>
      <vel value="0.0049546718" flag="0"/>
      <psa03 value="0.0270464351" flag="0"/>
      <psa10 value="0.0031029866" flag="0"/>
      <psa30 value="0.0003679495" flag="0"/>
    </comp>
  </station>
  <station code="ROD3" name="ROD3" netid="CL" insttype="CMG40-T" lat="38.3081" lon="21.892">
    <comp name="00.HHE">
      <acc value="0.0802452793" flag="0"/>
      <vel value="0.0400969997" flag="0"/>
      <psa03 value="0.2882093560" flag="0"/>
      <psa10 value="0.0186060533" flag="0"/>
      <psa30 value="0.0011410157" flag="0"/>
    </comp>
    <comp name="00.HHN">
      <acc value="0.0672066522" flag="0"/>
      <vel value="0.0304902085" flag="0"/>
      <psa03 value="0.2473071344" flag="0"/>
      <psa10 value="0.0255146277" flag="0"/>
      <psa30 value="0.0016063830" flag="0"/>
    </comp>
    <comp name="00.HHZ">
      <acc value="0.0297840123" flag="0"/>
      <vel value="0.0115319285" flag="0"/>
      <psa03 value="0.0811626532" flag="0"/>
      <psa10 value="0.0082666810" flag="0"/>
      <psa30 value="0.0005463545" flag="0"/>
    </comp>
  </station>
  <station code="TRIZ" name="TRIZ" netid="CL" insttype="STS-2" lat="38.3654" lon="22.0727">
    <comp name="00.HH2">
      <acc value="0.0267590420" flag="0"/>
      <vel value="0.0113653854" flag="0"/>
      <psa03 value="0.0605592222" flag="0"/>
      <psa10 value="0.0074756385" flag="0"/>
      <psa30 value="0.0005039433" flag="0"/>
    </comp>
    <comp name="00.HH3">
      <acc value="0.0313703408" flag="0"/>
      <vel value="0.0182501906" flag="0"/>
      <psa03 value="0.1187168078" flag="0"/>
      <psa10 value="0.0099570313" flag="0"/>
      <psa30 value="0.0008593231" flag="0"/>
    </comp>
    <comp name="00.HHZ">
      <acc value="0.0225093012" flag="0"/>
      <vel value="0.0076313778" flag="0"/>
      <psa03 value="0.0330279691" flag="0"/>
      <psa10 value="0.0060471572" flag="0"/>
      <psa30 value="0.0003607398" flag="0"/>
    </comp>
  </station>
  <station code="ZIRI" name="ZIRI" netid="CL" insttype="TRILLIUM-40" lat="38.3051" lon="21.9476">
    <comp name="01.HHE">
      <acc value="0.1075254352" flag="0"/>
      <vel value="0.0605375399" flag="0"/>
      <psa03 value="0.3376331283" flag="0"/>
      <psa10 value="0.0231723771" flag="0"/>
      <psa30 value="0.0018637028" flag="0"/>
    </comp>
    <comp name="01.HHN">
      <acc value="0.0704829855" flag="0"/>
      <vel value="0.0418738082" flag="0"/>
      <psa03 value="0.1981311620" flag="0"/>
      <psa10 value="0.0200918785" flag="0"/>
      <psa30 value="0.0015148644" flag="0"/>
    </comp>
    <comp name="01.HHZ">
      <acc value="0.0471029775" flag="0"/>
      <vel value="0.0219311931" flag="0"/>
      <psa03 value="0.1323412907" flag="0"/>
      <psa10 value="0.0065039677" flag="0"/>
      <psa30 value="0.0006965952" flag="0"/>
    </comp>
  </station>
  <station code="KLV" name="KLV" netid="MN" insttype="" lat="38.0437" lon="22.1504">
    <comp name="--.HHE">
      <acc value="0.0178347463" flag="0"/>
      <vel value="0.0087289190" flag="0"/>
      <psa03 value="0.0624476143" flag="0"/>
      <psa10 value="0.0085823385" flag="0"/>
      <psa30 value="0.0009853742" flag="0"/>
    </comp>
    <comp name="--.HHN">
      <acc value="0.0223122499" flag="0"/>
      <vel value="0.0113593588" flag="0"/>
      <psa03 value="0.0536437731" flag="0"/>
      <psa10 value="0.0103760532" flag="0"/>
      <psa30 value="0.0012287273" flag="0"/>
    </comp>
    <comp name="--.HHZ">
      <acc value="0.0246790167" flag="0"/>
      <vel value="0.0082845609" flag="0"/>
      <psa03 value="0.0455945036" flag="0"/>
      <psa10 value="0.0058756274" flag="0"/>
      <psa30 value="0.0006836901" flag="0"/>
    </comp>
  </station>
</stationlist>
