<?xml version="1.0" encoding="UTF-8" standalone="yes"?>
<!DOCTYPE earthquake SYSTEM "stationlist.dtd">
<stationlist created="" xmlns="ch.ethz.sed.shakemap.usgs.xml">
  <station code="ARPRA" name="ARPRA" netid="KO" insttype="CMG-5T" lat="39.0929" lon="38.3356">
    <comp name="--.HNZ">
      <acc value="0.0700970152" flag="0"/>
      <vel value="0.0294263546" flag="0"/>
      <psa03 value="0.1100107859" flag="0"/>
      <psa10 value="0.0428191747" flag="0"/>
      <psa30 value="0.0032830089" flag="0"/>
    </comp>
    <comp name="--.HNN">
      <acc value="0.0975539893" flag="0"/>
      <vel value="0.0641603853" flag="0"/>
      <psa03 value="0.2463205768" flag="0"/>
      <psa10 value="0.0667424107" flag="0"/>
      <psa30 value="0.0036301435" flag="0"/>
    </comp>
    <comp name="--.HNE">
      <acc value="0.0838922952" flag="0"/>
      <vel value="0.0446299017" flag="0"/>
      <psa03 value="0.1757631683" flag="0"/>
      <psa10 value="0.0847893062" flag="0"/>
      <psa30 value="0.0040413958" flag="0"/>
    </comp>
  </station>
  <station code="DARE" name="DARE" netid="KO" insttype="CMG-3ESP" lat="38.5712" lon="37.4832">
    <comp name="--.HHE">
      <acc value="0.0588580923" flag="0"/>
      <vel value="0.0277532336" flag="0"/>
      <psa03 value="0.1053836718" flag="0"/>
      <psa10 value="0.0245723358" flag="0"/>
      <psa30 value="0.0023830032" flag="0"/>
    </comp>
    <comp name="--.HHN">
      <acc value="0.0824380676" flag="0"/>
      <vel value="0.0231895013" flag="0"/>
      <psa03 value="0.1028792685" flag="0"/>
      <psa10 value="0.0383930447" flag="0"/>
      <psa30 value="0.0035036224" flag="0"/>
    </comp>
    <comp name="--.HHZ">
      <acc value="0.0487529031" flag="0"/>
      <vel value="0.0301659575" flag="0"/>
      <psa03 value="0.1348425752" flag="0"/>
      <psa10 value="0.0259500484" flag="0"/>
      <psa30 value="0.0038335237" flag="0"/>
    </comp>
  </station>
  <station code="KMRS" name="KMRS" netid="KO" insttype="CMG-3T" lat="37.5087" lon="36.9">
    <comp name="--.HHE">
      <acc value="0.0294474928" flag="0"/>
      <vel value="0.0167832994" flag="0"/>
      <psa03 value="0.0651399046" flag="0"/>
      <psa10 value="0.0214589365" flag="0"/>
      <psa30 value="0.0020522552" flag="0"/>
    </comp>
    <comp name="--.HHZ">
      <acc value="0.0190105588" flag="0"/>
      <vel value="0.0138757606" flag="0"/>
      <psa03 value="0.0551195064" flag="0"/>
      <psa10 value="0.0109070924" flag="0"/>
      <psa30 value="0.0019794125" flag="0"/>
    </comp>
    <comp name="--.HHN">
      <acc value="0.1055183537" flag="0"/>
      <vel value="0.0273190475" flag="0"/>
      <psa03 value="0.0768625227" flag="0"/>
      <psa10 value="0.0413125301" flag="0"/>
      <psa30 value="0.0022641576" flag="0"/>
    </comp>
  </station>
  <station code="SARI" name="SARI" netid="KO" insttype="CMG-3T" lat="38.4072" lon="36.4181">
    <comp name="--.HHN">
      <acc value="0.0223655408" flag="0"/>
      <vel value="0.0089682718" flag="0"/>
      <psa03 value="0.0291113034" flag="0"/>
      <psa10 value="0.0133423783" flag="0"/>
      <psa30 value="0.0012401581" flag="0"/>
    </comp>
    <comp name="--.HHE">
      <acc value="0.0255923743" flag="0"/>
      <vel value="0.0091280258" flag="0"/>
      <psa03 value="0.0486690989" flag="0"/>
      <psa10 value="0.0164604585" flag="0"/>
      <psa30 value="0.0009163220" flag="0"/>
    </comp>
    <comp name="--.HHZ">
      <acc value="0.0231043983" flag="0"/>
      <vel value="0.0112336298" flag="0"/>
      <psa03 value="0.0329303036" flag="0"/>
      <psa10 value="0.0232309221" flag="0"/>
      <psa30 value="0.0013290307" flag="0"/>
    </comp>
  </station>
</stationlist>
