<stationlist created="1778118942">
	<station code="ABEA" name="ABEA" netid="HC" source="Seismological Network of Crete (HC)" insttype="" lat="35.5163" lon="24.0113">
		<comp name="--.HNE" depth="0.0">
			<acc value="0.0186679685374677" flag="0"/>
			<vel value="0.0605412011814027" flag="0"/>
			<psa03 value="0.0349022704374427" flag="0"/>
			<psa10 value="0.0502890951555808" flag="0"/>
			<psa30 value="0.0365178157927459" flag="0"/>
		</comp>
		<comp name="--.HNN" depth="0.0">
			<acc value="0.0190264158632214" flag="0"/>
			<vel value="0.0461470835314483" flag="0"/>
			<psa03 value="0.0399891803369578" flag="0"/>
			<psa10 value="0.0416144967561446" flag="0"/>
			<psa30 value="0.0238068904229823" flag="0"/>
		</comp>
		<comp name="--.HNZ" depth="0.0">
			<acc value="0.00913381718106052" flag="0"/>
			<vel value="0.0296293057774887" flag="0"/>
			<psa03 value="0.0163281832245174" flag="0"/>
			<psa10 value="0.0341778741164325" flag="0"/>
			<psa30 value="0.0148182549700031" flag="0"/>
		</comp>
	</station>
	<station code="ATEI" name="ATEI" netid="HC" source="Seismological Network of Crete (HC)" insttype="" lat="35.5193" lon="24.0432">
		<comp name="--.HNE" depth="0.0">
			<acc value="0.0144555058462133" flag="0"/>
			<vel value="0.0332865781859184" flag="0"/>
			<psa03 value="0.0322061439156572" flag="0"/>
			<psa10 value="0.0424532660706129" flag="0"/>
			<psa30 value="0.0267835342776807" flag="0"/>
		</comp>
		<comp name="--.HNN" depth="0.0">
			<acc value="0.0116707795939473" flag="0"/>
			<vel value="0.0324401672850365" flag="0"/>
			<psa03 value="0.0246985137595062" flag="0"/>
			<psa10 value="0.0312788083175622" flag="0"/>
			<psa30 value="0.0154562555677477" flag="0"/>
		</comp>
		<comp name="--.HNZ" depth="0.0">
			<acc value="0.00927512512099084" flag="0"/>
			<vel value="0.0313190480847901" flag="0"/>
			<psa03 value="0.0237786064659743" flag="0"/>
			<psa10 value="0.0236767340924365" flag="0"/>
			<psa30 value="0.0162468946103456" flag="0"/>
		</comp>
	</station>
	<station code="G0LD" name="G0LD" netid="HC" source="Seismological Network of Crete (HC)" insttype="" lat="35.4955" lon="24.0306">
		<comp name="--.HNE" depth="0.0">
			<acc value="0.0509917881108832" flag="0"/>
			<vel value="0.0876949027497171" flag="0"/>
			<psa03 value="0.075191611283341" flag="0"/>
			<psa10 value="0.138276385131822" flag="0"/>
			<psa30 value="0.0233925946445761" flag="0"/>
		</comp>
		<comp name="--.HNN" depth="0.0">
			<acc value="0.0443160778460541" flag="0"/>
			<vel value="0.0652725461970038" flag="0"/>
			<psa03 value="0.0930698841731088" flag="0"/>
			<psa10 value="0.097394581913239" flag="0"/>
			<psa30 value="0.0329405688176903" flag="0"/>
		</comp>
		<comp name="--.HNZ" depth="0.0">
			<acc value="0.0302729912397012" flag="0"/>
			<vel value="0.0457417827663251" flag="0"/>
			<psa03 value="0.0456559828180593" flag="0"/>
			<psa10 value="0.0805514511385004" flag="0"/>
			<psa30 value="0.0188521788643322" flag="0"/>
		</comp>
	</station>
	<station code="LENT" name="LENT" netid="HC" source="Seismological Network of Crete (HC)" insttype="" lat="35.5074" lon="24.0402">
		<comp name="--.HNE" depth="0.0">
			<acc value="0.0141843960822052" flag="0"/>
			<vel value="0.0414679900531934" flag="0"/>
			<psa03 value="0.0265033911362353" flag="0"/>
			<psa10 value="0.0365676411767733" flag="0"/>
			<psa30 value="0.0302080778035863" flag="0"/>
		</comp>
		<comp name="--.HNN" depth="0.0">
			<acc value="0.018794063075378" flag="0"/>
			<vel value="0.03680989122325" flag="0"/>
			<psa03 value="0.0343745297480831" flag="0"/>
			<psa10 value="0.0392108837786018" flag="0"/>
			<psa30 value="0.0184329360915479" flag="0"/>
		</comp>
		<comp name="--.HNZ" depth="0.0">
			<acc value="0.013396893361623" flag="0"/>
			<vel value="0.0324320969062639" flag="0"/>
			<psa03 value="0.0318561676064387" flag="0"/>
			<psa10 value="0.0358470459408837" flag="0"/>
			<psa30 value="0.019327687031087" flag="0"/>
		</comp>
	</station>
	<station code="MULT" name="MULT" netid="HC" source="Seismological Network of Crete (HC)" insttype="" lat="35.5091" lon="24.0118">
		<comp name="--.HNE" depth="0.0">
			<acc value="0.0198849860210528" flag="0"/>
			<vel value="0.0467989834498911" flag="0"/>
			<psa03 value="0.0487420466295234" flag="0"/>
			<psa10 value="0.0432750880120574" flag="0"/>
			<psa30 value="0.0272802788512465" flag="0"/>
		</comp>
		<comp name="--.HNN" depth="0.0">
			<acc value="0.0268748234237767" flag="0"/>
			<vel value="0.0525937032916492" flag="0"/>
			<psa03 value="0.0382539429901687" flag="0"/>
			<psa10 value="0.0359395495687731" flag="0"/>
			<psa30 value="0.029596807309906" flag="0"/>
		</comp>
		<comp name="--.HNZ" depth="0.0">
			<acc value="0.0219213510963791" flag="0"/>
			<vel value="0.0305229073259516" flag="0"/>
			<psa03 value="0.0264958828263651" flag="0"/>
			<psa10 value="0.0343605937207079" flag="0"/>
			<psa30 value="0.0180099230690277" flag="0"/>
		</comp>
	</station>
	<station code="NERO" name="NERO" netid="HC" source="Seismological Network of Crete (HC)" insttype="" lat="35.474" lon="24.0423">
		<comp name="--.HNE" depth="0.0">
			<acc value="0.0145347354281572" flag="0"/>
			<vel value="0.0313296147153511" flag="0"/>
			<psa03 value="0.0342100474977438" flag="0"/>
			<psa10 value="0.025884908498142" flag="0"/>
			<psa30 value="0.0158561053891428" flag="0"/>
		</comp>
		<comp name="--.HNN" depth="0.0">
			<acc value="0.0123805203471547" flag="0"/>
			<vel value="0.0292043286129771" flag="0"/>
			<psa03 value="0.0223731565910103" flag="0"/>
			<psa10 value="0.0210802627139345" flag="0"/>
			<psa30 value="0.0126440017697452" flag="0"/>
		</comp>
		<comp name="--.HNZ" depth="0.0">
			<acc value="0.0101312364244597" flag="0"/>
			<vel value="0.0293447994948827" flag="0"/>
			<psa03 value="0.0217903653797518" flag="0"/>
			<psa10 value="0.033490881106491" flag="0"/>
			<psa30 value="0.0154028470297092" flag="0"/>
		</comp>
	</station>
	<station code="PASK" name="PASK" netid="HC" source="Seismological Network of Crete (HC)" insttype="" lat="35.4996" lon="24.0121">
		<comp name="--.HNE" depth="0.0">
			<acc value="0.0272364960594812" flag="0"/>
			<vel value="0.0476736023165726" flag="0"/>
			<psa03 value="0.0483798663872139" flag="0"/>
			<psa10 value="0.0581376450837531" flag="0"/>
			<psa30 value="0.0266101261236068" flag="0"/>
		</comp>
		<comp name="--.HNN" depth="0.0">
			<acc value="0.0283131340533571" flag="0"/>
			<vel value="0.0666875916704016" flag="0"/>
			<psa03 value="0.0480491361443891" flag="0"/>
			<psa10 value="0.0485234894431141" flag="0"/>
			<psa30 value="0.0259518325148759" flag="0"/>
		</comp>
		<comp name="--.HNZ" depth="0.0">
			<acc value="0.0124218985596351" flag="0"/>
			<vel value="0.0326318544623842" flag="0"/>
			<psa03 value="0.0302806647995913" flag="0"/>
			<psa10 value="0.0299006388955977" flag="0"/>
			<psa30 value="0.0213552263456017" flag="0"/>
		</comp>
	</station>
	<station code="POLY" name="POLY" netid="HC" source="Seismological Network of Crete (HC)" insttype="" lat="35.5226" lon="24.0602">
		<comp name="--.HNE" depth="0.0">
			<acc value="0.0102478800300722" flag="0"/>
			<vel value="0.0276917350279647" flag="0"/>
			<psa03 value="0.0229008738413148" flag="0"/>
			<psa10 value="0.0337823541651842" flag="0"/>
			<psa30 value="0.0219673985656607" flag="0"/>
		</comp>
		<comp name="--.HNN" depth="0.0">
			<acc value="0.0124192328611304" flag="0"/>
			<vel value="0.0297534689655179" flag="0"/>
			<psa03 value="0.0263072817908068" flag="0"/>
			<psa10 value="0.0281957515801678" flag="0"/>
			<psa30 value="0.0207034064990953" flag="0"/>
		</comp>
		<comp name="--.HNZ" depth="0.0">
			<acc value="0.0103782622543176" flag="0"/>
			<vel value="0.0275106744934543" flag="0"/>
			<psa03 value="0.0221344037956088" flag="0"/>
			<psa10 value="0.0203977812529123" flag="0"/>
			<psa30 value="0.0151994668900698" flag="0"/>
		</comp>
	</station>
	<station code="SOUD" name="SOUD" netid="HC" source="Seismological Network of Crete (HC)" insttype="" lat="35.4878" lon="24.0678">
		<comp name="--.HNE" depth="0.0">
			<acc value="0.0250453291291591" flag="0"/>
			<vel value="0.0502291065442369" flag="0"/>
			<psa03 value="0.0629698641526265" flag="0"/>
			<psa10 value="0.0425306336957807" flag="0"/>
			<psa30 value="0.0179266358849598" flag="0"/>
		</comp>
		<comp name="--.HNN" depth="0.0">
			<acc value="0.0328125568292864" flag="0"/>
			<vel value="0.0395026164048955" flag="0"/>
			<psa03 value="0.0492834210348235" flag="0"/>
			<psa10 value="0.0569915354096348" flag="0"/>
			<psa30 value="0.0128136663424965" flag="0"/>
		</comp>
		<comp name="--.HNZ" depth="0.0">
			<acc value="0.00677076383307926" flag="0"/>
			<vel value="0.00666294251005905" flag="0"/>
			<psa03 value="0.00917979040774005" flag="0"/>
			<psa10 value="0.00380299310150315" flag="0"/>
			<psa30 value="0.0031174073462686" flag="0"/>
		</comp>
	</station>
	<station code="TEFL" name="TEFL" netid="HC" source="Seismological Network of Crete (HC)" insttype="" lat="35.093273" lon="25.163418">
		<comp name="--.HNE" depth="0.0">
			<acc value="0.220782990889767" flag="0"/>
			<vel value="0.13915573409414" flag="0"/>
			<psa03 value="0.300703711811642" flag="0"/>
			<psa10 value="0.155905522975799" flag="0"/>
			<psa30 value="0.0996004847098444" flag="0"/>
		</comp>
		<comp name="--.HNN" depth="0.0">
			<acc value="0.228743447552698" flag="0"/>
			<vel value="0.148327943873612" flag="0"/>
			<psa03 value="0.273381401842911" flag="0"/>
			<psa10 value="0.165790037776298" flag="0"/>
			<psa30 value="0.0699642014517538" flag="0"/>
		</comp>
		<comp name="--.HNZ" depth="0.0">
			<acc value="0.198208417041119" flag="0"/>
			<vel value="0.181712236672573" flag="0"/>
			<psa03 value="0.347143413214175" flag="0"/>
			<psa10 value="0.187216902200981" flag="0"/>
			<psa30 value="0.093430869336762" flag="0"/>
		</comp>
	</station>
	<station code="KRL1" name="KRL1" netid="HI" source="ITSAK Strong Motion Network" insttype="" lat="37.7951" lon="26.7065">
		<comp name="--.HNE" depth="0.0">
			<acc value="0.0152616957117024" flag="0"/>
			<vel value="0.0316585701945271" flag="0"/>
			<psa03 value="0.0217777838171314" flag="0"/>
			<psa10 value="0.0498916588275417" flag="0"/>
			<psa30 value="0.0168181724547191" flag="0"/>
		</comp>
		<comp name="--.HNN" depth="0.0">
			<acc value="0.0142455332515361" flag="0"/>
			<vel value="0.0186180537875487" flag="0"/>
			<psa03 value="0.0235707202987074" flag="0"/>
			<psa10 value="0.0481234766941532" flag="0"/>
			<psa30 value="0.00588359059233491" flag="0"/>
		</comp>
		<comp name="--.HNZ" depth="0.0">
			<acc value="0.00648389630077293" flag="0"/>
			<vel value="0.0108060658912692" flag="0"/>
			<psa03 value="0.011203427067893" flag="0"/>
			<psa10 value="0.0252559355817826" flag="0"/>
			<psa30 value="0.00380085303786014" flag="0"/>
		</comp>
	</station>
	<station code="NAX1" name="NAX1" netid="HI" source="ITSAK Strong Motion Network" insttype="" lat="37.101394" lon="25.374103">
		<comp name="--.HNE" depth="0.0">
			<acc value="0.00728346442317392" flag="0"/>
			<vel value="0.0160033802651442" flag="0"/>
			<psa03 value="0.0224366165240647" flag="0"/>
			<psa10 value="0.015184653721295" flag="0"/>
			<psa30 value="0.00409994785142552" flag="0"/>
		</comp>
		<comp name="--.HNN" depth="0.0">
			<acc value="0.00810287346399766" flag="0"/>
			<vel value="0.010254027055746" flag="0"/>
			<psa03 value="0.019816677340967" flag="0"/>
			<psa10 value="0.0130647864154835" flag="0"/>
			<psa30 value="0.00394123650424198" flag="0"/>
		</comp>
		<comp name="--.HNZ" depth="0.0">
			<acc value="0.00532134481058918" flag="0"/>
			<vel value="0.00780232432284851" flag="0"/>
			<psa03 value="0.0133971986965958" flag="0"/>
			<psa10 value="0.0106013325987459" flag="0"/>
			<psa30 value="0.00425537731452817" flag="0"/>
		</comp>
	</station>
	<station code="SIT2" name="SIT2" netid="HI" source="ITSAK Strong Motion Network" insttype="" lat="35.2059" lon="26.107">
		<comp name="--.HNE" depth="0.0">
			<acc value="1.15732839333232" flag="0"/>
			<vel value="0.917221742841229" flag="0"/>
			<psa03 value="3.95531935383044" flag="0"/>
			<psa10 value="0.594117357360582" flag="0"/>
			<psa30 value="0.107612108774023" flag="0"/>
		</comp>
		<comp name="--.HNN" depth="0.0">
			<acc value="1.54410911775462" flag="0"/>
			<vel value="0.825446191312465" flag="0"/>
			<psa03 value="4.9184191544827" flag="0"/>
			<psa10 value="0.468106819778736" flag="0"/>
			<psa30 value="0.191312753530831" flag="0"/>
		</comp>
		<comp name="--.HNZ" depth="0.0">
			<acc value="1.20994283049985" flag="0"/>
			<vel value="0.452159192404458" flag="0"/>
			<psa03 value="3.12563372455999" flag="0"/>
			<psa10 value="0.175765833623855" flag="0"/>
			<psa30 value="0.108187000191349" flag="0"/>
		</comp>
	</station>
	<station code="IMMV" name="IMMV" netid="HL" source="National Observatory of Athens Seismic Network" insttype="" lat="35.4606" lon="23.9811">
		<comp name="--.HNE" depth="0.0">
			<acc value="0.0128272405475494" flag="0"/>
			<vel value="0.0177917748163019" flag="0"/>
			<psa03 value="0.0347943518300282" flag="0"/>
			<psa10 value="0.033022602585345" flag="0"/>
			<psa30 value="0.0111425514726996" flag="0"/>
		</comp>
		<comp name="--.HNN" depth="0.0">
			<acc value="0.0137185381812455" flag="0"/>
			<vel value="0.0193379049242755" flag="0"/>
			<psa03 value="0.0484829825928787" flag="0"/>
			<psa10 value="0.0287917204351646" flag="0"/>
			<psa30 value="0.00987966447926476" flag="0"/>
		</comp>
		<comp name="--.HNZ" depth="0.0">
			<acc value="0.0141150719014283" flag="0"/>
			<vel value="0.0157551065058398" flag="0"/>
			<psa03 value="0.0439324728107341" flag="0"/>
			<psa10 value="0.0161921551508261" flag="0"/>
			<psa30 value="0.00751343106126951" flag="0"/>
		</comp>
	</station>
	<station code="KARP" name="KARP" netid="HL" source="National Observatory of Athens Seismic Network" insttype="" lat="35.5471" lon="27.16106">
		<comp name="--.HNE" depth="0.0">
			<acc value="0.215994572700421" flag="0"/>
			<vel value="0.269371369975532" flag="0"/>
			<psa03 value="0.578773882597005" flag="0"/>
			<psa10 value="0.400401544637399" flag="0"/>
			<psa30 value="0.0540896698419865" flag="0"/>
		</comp>
		<comp name="--.HNN" depth="0.0">
			<acc value="0.255083929720062" flag="0"/>
			<vel value="0.252039244215339" flag="0"/>
			<psa03 value="0.576146666890502" flag="0"/>
			<psa10 value="0.437323910563207" flag="0"/>
			<psa30 value="0.0385844026939616" flag="0"/>
		</comp>
		<comp name="--.HNZ" depth="0.0">
			<acc value="0.116988782632588" flag="0"/>
			<vel value="0.116822656250198" flag="0"/>
			<psa03 value="0.291357384329917" flag="0"/>
			<psa10 value="0.245000820101884" flag="0"/>
			<psa30 value="0.0544464568103886" flag="0"/>
		</comp>
	</station>
	<station code="KSTE" name="KSTE" netid="HL" source="National Observatory of Athens Seismic Network" insttype="" lat="35.1801" lon="25.3372">
		<comp name="--.HNE" depth="0.0">
			<acc value="0.0332502450058761" flag="0"/>
			<vel value="0.0582816246357257" flag="0"/>
			<psa03 value="0.0751064598091953" flag="0"/>
			<psa10 value="0.0443474790528762" flag="0"/>
			<psa30 value="0.0442705227048725" flag="0"/>
		</comp>
		<comp name="--.HNN" depth="0.0">
			<acc value="0.0307865541713848" flag="0"/>
			<vel value="0.0707062317607615" flag="0"/>
			<psa03 value="0.117091923431892" flag="0"/>
			<psa10 value="0.0392013843993206" flag="0"/>
			<psa30 value="0.0518241230938326" flag="0"/>
		</comp>
		<comp name="--.HNZ" depth="0.0">
			<acc value="0.0320233397026721" flag="0"/>
			<vel value="0.0540985211535838" flag="0"/>
			<psa03 value="0.0609880714104018" flag="0"/>
			<psa10 value="0.0359247885909456" flag="0"/>
			<psa30 value="0.0461416166557408" flag="0"/>
		</comp>
	</station>
	<station code="NISR" name="NISR" netid="HL" source="National Observatory of Athens Seismic Network" insttype="" lat="36.6106" lon="27.131">
		<comp name="--.HNE" depth="0.0">
			<acc value="0.0732213096542744" flag="0"/>
			<vel value="0.0705660066299896" flag="0"/>
			<psa03 value="0.291721658461411" flag="0"/>
			<psa10 value="0.112130238077889" flag="0"/>
			<psa30 value="0.0187698267422266" flag="0"/>
		</comp>
		<comp name="--.HNN" depth="0.0">
			<acc value="0.0486492840530112" flag="0"/>
			<vel value="0.0645271295549133" flag="0"/>
			<psa03 value="0.16065131944475" flag="0"/>
			<psa10 value="0.0806689914248322" flag="0"/>
			<psa30 value="0.0294501275930701" flag="0"/>
		</comp>
		<comp name="--.HNZ" depth="0.0">
			<acc value="0.0264388389252151" flag="0"/>
			<vel value="0.0356800286952416" flag="0"/>
			<psa03 value="0.079588819243505" flag="0"/>
			<psa10 value="0.08539095923211" flag="0"/>
			<psa30 value="0.00876985095960562" flag="0"/>
		</comp>
	</station>
	<station code="SIVA" name="SIVA" netid="HL" source="National Observatory of Athens Seismic Network" insttype="" lat="35.01777" lon="24.81204">
		<comp name="00.HNE" depth="0.0">
			<acc value="0.0422527792408328" flag="0"/>
			<vel value="0.052520659605597" flag="0"/>
			<psa03 value="0.113163048579977" flag="0"/>
			<psa10 value="0.0643009121200361" flag="0"/>
			<psa30 value="0.0254930504561682" flag="0"/>
		</comp>
		<comp name="00.HNN" depth="0.0">
			<acc value="0.0400202033766989" flag="0"/>
			<vel value="0.0723185637752723" flag="0"/>
			<psa03 value="0.0781577192321736" flag="0"/>
			<psa10 value="0.0514516084165923" flag="0"/>
			<psa30 value="0.0353614858582466" flag="0"/>
		</comp>
		<comp name="00.HNZ" depth="0.0">
			<acc value="0.0251944088533873" flag="0"/>
			<vel value="0.0356405697086825" flag="0"/>
			<psa03 value="0.0546315617812853" flag="0"/>
			<psa10 value="0.035379247451499" flag="0"/>
			<psa30 value="0.0203205578038767" flag="0"/>
		</comp>
	</station>
	<station code="DATC" name="DATC" netid="KO" source="Bogazici University Kandilli Observatory And Earthquake Research Institute (KOERI)" insttype="" lat="36.7584" lon="27.6602">
		<comp name="--.HNE" depth="0.0">
			<acc value="0.0800796879411236" flag="0"/>
			<vel value="0.128843854746823" flag="0"/>
			<psa03 value="0.103912227425032" flag="0"/>
			<psa10 value="0.309472811055018" flag="0"/>
			<psa30 value="0.0355671661502097" flag="0"/>
		</comp>
		<comp name="--.HNN" depth="0.0">
			<acc value="0.0732612709685204" flag="0"/>
			<vel value="0.105506234660446" flag="0"/>
			<psa03 value="0.0842914953563763" flag="0"/>
			<psa10 value="0.243557799509096" flag="0"/>
			<psa30 value="0.0266868378720519" flag="0"/>
		</comp>
		<comp name="--.HNZ" depth="0.0">
			<acc value="0.0658595276723953" flag="0"/>
			<vel value="0.117508679557772" flag="0"/>
			<psa03 value="0.109913197876538" flag="0"/>
			<psa10 value="0.168980059099438" flag="0"/>
			<psa30 value="0.0194750151241516" flag="0"/>
		</comp>
	</station>
	<station code="DIDI" name="DIDI" netid="KO" source="Bogazici University Kandilli Observatory And Earthquake Research Institute (KOERI)" insttype="" lat="37.3767" lon="27.2398">
		<comp name="--.HNE" depth="0.0">
			<acc value="0.0169665464140001" flag="0"/>
			<vel value="0.0413596175500547" flag="0"/>
			<psa03 value="0.0368970718540954" flag="0"/>
			<psa10 value="0.0599468774362283" flag="0"/>
			<psa30 value="0.0254034761889478" flag="0"/>
		</comp>
		<comp name="--.HNN" depth="0.0">
			<acc value="0.015185255920035" flag="0"/>
			<vel value="0.0413276107454734" flag="0"/>
			<psa03 value="0.0279885910859845" flag="0"/>
			<psa10 value="0.0493663765300146" flag="0"/>
			<psa30 value="0.0162918592557076" flag="0"/>
		</comp>
		<comp name="--.HNZ" depth="0.0">
			<acc value="0.0231115296712402" flag="0"/>
			<vel value="0.0228781040261057" flag="0"/>
			<psa03 value="0.0255655790107977" flag="0"/>
			<psa10 value="0.0323248201106833" flag="0"/>
			<psa30 value="0.00819529123115602" flag="0"/>
		</comp>
	</station>
