<?xml version="1.0" encoding="UTF-8" standalone="yes"?>
<!DOCTYPE earthquake SYSTEM "stationlist.dtd">
<stationlist created="" xmlns="ch.ethz.sed.shakemap.usgs.xml">
  <station code="KARP" name="KARP" netid="GE" insttype="STS-2/N" lat="35.5471" lon="27.1611">
    <comp name="--.HHE">
      <acc value="0.2203630055" flag="0"/>
      <vel value="0.2534114970" flag="0"/>
      <psa03 value="0.5987976031" flag="0"/>
      <psa10 value="0.4161538709" flag="0"/>
      <psa30 value="0.0563355853" flag="0"/>
    </comp>
    <comp name="--.HHZ">
      <acc value="0.1208718370" flag="0"/>
      <vel value="0.1143262514" flag="0"/>
      <psa03 value="0.3020087729" flag="0"/>
      <psa10 value="0.2490899832" flag="0"/>
      <psa30 value="0.0544323095" flag="0"/>
    </comp>
    <comp name="--.HHN">
      <acc value="0.2701370502" flag="0"/>
      <vel value="0.2562392825" flag="0"/>
      <psa03 value="0.6066928101" flag="0"/>
      <psa10 value="0.4345965704" flag="0"/>
      <psa30 value="0.0288418271" flag="0"/>
    </comp>
  </station>
  <station code="ZKR" name="ZKR" netid="GE" insttype="STS-2/N" lat="35.1147" lon="26.2169">
    <comp name="--.HHE">
      <acc value="1.5007057405" flag="0"/>
      <vel value="0.6626691596" flag="0"/>
      <psa03 value="3.6404153995" flag="0"/>
      <psa10 value="0.3117359962" flag="0"/>
      <psa30 value="0.0928122749" flag="0"/>
    </comp>
    <comp name="--.HHZ">
      <acc value="1.1175712293" flag="0"/>
      <vel value="0.3199190709" flag="0"/>
      <psa03 value="1.2636757415" flag="0"/>
      <psa10 value="0.1734929454" flag="0"/>
      <psa30 value="0.1292307712" flag="0"/>
    </comp>
    <comp name="--.HHN">
      <acc value="0.8546032620" flag="0"/>
      <vel value="0.2920828869" flag="0"/>
      <psa03 value="1.4776231091" flag="0"/>
      <psa10 value="0.1513584542" flag="0"/>
      <psa30 value="0.0931733230" flag="0"/>
    </comp>
  </station>
  <station code="IDI" name="IDI" netid="MN" insttype="" lat="35.288" lon="24.89">
    <comp name="--.HHE">
      <acc value="0.0186754590" flag="0"/>
      <vel value="0.0216710329" flag="0"/>
      <psa03 value="0.0521633869" flag="0"/>
      <psa10 value="0.0176403299" flag="0"/>
      <psa30 value="0.0159531887" flag="0"/>
    </comp>
    <comp name="--.HHZ">
      <acc value="0.0148859662" flag="0"/>
      <vel value="0.0298406570" flag="0"/>
      <psa03 value="0.0430626871" flag="0"/>
      <psa10 value="0.0223322605" flag="0"/>
      <psa30 value="0.0206359147" flag="0"/>
    </comp>
    <comp name="--.HHN">
      <acc value="0.0184490812" flag="0"/>
      <vel value="0.0315709885" flag="0"/>
      <psa03 value="0.0495149629" flag="0"/>
      <psa10 value="0.0342194791" flag="0"/>
      <psa30 value="0.0211664494" flag="0"/>
    </comp>
  </station>
</stationlist>
