<?xml version="1.0" encoding="UTF-8" standalone="yes"?>
<!DOCTYPE earthquake SYSTEM "stationlist.dtd">
<stationlist created="" xmlns="ch.ethz.sed.shakemap.usgs.xml">
  <station code="KARP" name="KARP" netid="GE" insttype="STS-2/N" lat="35.5471" lon="27.1611">
    <comp name="--.HHE">
      <acc value="0.2203630055" flag="0"/>
      <vel value="0.2534114970" flag="0"/>
      <psa03 value="0.5987976031" flag="0"/>
      <psa10 value="0.4161538709" flag="0"/>
      <psa30 value="0.0563355853" flag="0"/>
    </comp>
    <comp name="--.HHZ">
      <acc value="0.1208718370" flag="0"/>
      <vel value="0.1143262514" flag="0"/>
      <psa03 value="0.3020087729" flag="0"/>
      <psa10 value="0.2490899832" flag="0"/>
      <psa30 value="0.0544323095" flag="0"/>
    </comp>
    <comp name="--.HHN">
      <acc value="0.2701370502" flag="0"/>
      <vel value="0.2562392825" flag="0"/>
      <psa03 value="0.6066928101" flag="0"/>
      <psa10 value="0.4345965704" flag="0"/>
      <psa30 value="0.0288418271" flag="0"/>
    </comp>
  </station>
  <station code="ZKR" name="ZKR" netid="GE" insttype="STS-2/N" lat="35.1147" lon="26.2169">
    <comp name="--.HHE">
      <acc value="1.5007057405" flag="0"/>
      <vel value="0.6626691596" flag="0"/>
      <psa03 value="3.6404153995" flag="0"/>
      <psa10 value="0.3117359962" flag="0"/>
      <psa30 value="0.0928122749" flag="0"/>
    </comp>
    <comp name="--.HHZ">
      <acc value="1.1175712293" flag="0"/>
      <vel value="0.3199190709" flag="0"/>
      <psa03 value="1.2636757415" flag="0"/>
      <psa10 value="0.1734929454" flag="0"/>
      <psa30 value="0.1292307712" flag="0"/>
    </comp>
    <comp name="--.HHN">
      <acc value="0.8546032620" flag="0"/>
      <vel value="0.2920828869" flag="0"/>
      <psa03 value="1.4776231091" flag="0"/>
      <psa10 value="0.1513584542" flag="0"/>
      <psa30 value="0.0931733230" flag="0"/>
    </comp>
  </station>
  <station code="IMOD" name="IMOD" netid="HC" insttype="120" lat="34.9731" lon="24.7995">
    <comp name="--.HHE">
      <acc value="0.0279223289" flag="0"/>
      <vel value="0.0376789503" flag="0"/>
      <psa03 value="0.0667011633" flag="0"/>
      <psa10 value="0.0579407150" flag="0"/>
      <psa30 value="0.0183981022" flag="0"/>
    </comp>
    <comp name="--.HHZ">
      <acc value="0.0304871823" flag="0"/>
      <vel value="0.0329927712" flag="0"/>
      <psa03 value="0.0654267626" flag="0"/>
      <psa10 value="0.0439354055" flag="0"/>
      <psa30 value="0.0137603652" flag="0"/>
    </comp>
    <comp name="--.HHN">
      <acc value="0.0325359872" flag="0"/>
      <vel value="0.0576290678" flag="0"/>
      <psa03 value="0.0852826312" flag="0"/>
      <psa10 value="0.0528531053" flag="0"/>
      <psa30 value="0.0172663273" flag="0"/>
    </comp>
  </station>
  <station code="KNSS" name="KNSS" netid="HC" insttype="60" lat="35.3042" lon="25.1802">
    <comp name="--.HHZ">
      <acc value="0.0496392601" flag="0"/>
      <vel value="0.0336087242" flag="0"/>
      <psa03 value="0.0831639094" flag="0"/>
      <psa10 value="0.0219101078" flag="0"/>
      <psa30 value="0.0252540415" flag="0"/>
    </comp>
    <comp name="--.HHE">
      <acc value="0.0378713814" flag="0"/>
      <vel value="0.0605821892" flag="0"/>
      <psa03 value="0.1309433622" flag="0"/>
      <psa10 value="0.0580112538" flag="0"/>
      <psa30 value="0.0377813550" flag="0"/>
    </comp>
    <comp name="--.HHN">
      <acc value="0.0363664613" flag="0"/>
      <vel value="0.0422548065" flag="0"/>
      <psa03 value="0.1358869232" flag="0"/>
      <psa10 value="0.0406297375" flag="0"/>
      <psa30 value="0.0382735159" flag="0"/>
    </comp>
  </station>
  <station code="PFKS" name="PFKS" netid="HC" insttype="120" lat="35.0429" lon="25.4733">
    <comp name="--.HHN">
      <acc value="0.1254876784" flag="0"/>
      <vel value="0.0970532252" flag="0"/>
      <psa03 value="0.3361674454" flag="0"/>
      <psa10 value="0.0684675173" flag="0"/>
      <psa30 value="0.0326460049" flag="0"/>
    </comp>
    <comp name="--.HHE">
      <acc value="0.1407767271" flag="0"/>
      <vel value="0.0853492493" flag="0"/>
      <psa03 value="0.4679637949" flag="0"/>
      <psa10 value="0.0830006234" flag="0"/>
      <psa30 value="0.0334225966" flag="0"/>
    </comp>
    <comp name="--.HHZ">
      <acc value="0.0871944154" flag="0"/>
      <vel value="0.0606473439" flag="0"/>
      <psa03 value="0.1928002046" flag="0"/>
      <psa10 value="0.0482992314" flag="0"/>
      <psa30 value="0.0436995334" flag="0"/>
    </comp>
  </station>
  <station code="STIA" name="STIA" netid="HC" insttype="120" lat="35.2021" lon="26.0909">
    <comp name="--.HHE">
      <acc value="1.0625306011" flag="0"/>
      <vel value="0.2963805133" flag="0"/>
      <psa03 value="1.9853981229" flag="0"/>
      <psa10 value="0.3528287497" flag="0"/>
      <psa30 value="0.1245209850" flag="0"/>
    </comp>
    <comp name="--.HHN">
      <acc value="1.0474893191" flag="0"/>
      <vel value="0.5204757772" flag="0"/>
      <psa03 value="2.7460648441" flag="0"/>
      <psa10 value="0.2221503388" flag="0"/>
      <psa30 value="0.2139916358" flag="0"/>
    </comp>
    <comp name="--.HHZ">
      <acc value="1.1267510764" flag="0"/>
      <vel value="0.3186612461" flag="0"/>
      <psa03 value="1.3697155102" flag="0"/>
      <psa10 value="0.1126662439" flag="0"/>
      <psa30 value="0.1036185886" flag="0"/>
    </comp>
  </station>
  <station code="TEFL" name="TEFL" netid="HC" insttype="GEOtiny," lat="35.0933" lon="25.1634">
    <comp name="--.HHN">
      <acc value="0.0873973159" flag="0"/>
      <vel value="0.1181893770" flag="0"/>
      <psa03 value="0.1889877998" flag="0"/>
      <psa10 value="0.1184828310" flag="0"/>
      <psa30 value="0.0514547829" flag="0"/>
    </comp>
    <comp name="--.HHZ">
      <acc value="0.0422073899" flag="0"/>
      <vel value="0.0529960852" flag="0"/>
      <psa03 value="0.1108885427" flag="0"/>
      <psa10 value="0.0619797955" flag="0"/>
      <psa30 value="0.0366668196" flag="0"/>
    </comp>
    <comp name="--.HHE">
      <acc value="0.0910603384" flag="0"/>
      <vel value="0.1213732734" flag="0"/>
      <psa03 value="0.1949021054" flag="0"/>
      <psa10 value="0.0709469576" flag="0"/>
      <psa30 value="0.0642327849" flag="0"/>
    </comp>
  </station>
  <station code="SIT2" name="SIT2" netid="HI" insttype="CMG-5TD,ACCELEROMETER,GURALP" lat="35.2059" lon="26.107">
    <comp name="--.HNE">
      <acc value="1.1604813602" flag="0"/>
      <vel value="0.9072698862" flag="0"/>
      <psa03 value="3.9949585134" flag="0"/>
      <psa10 value="0.5919804522" flag="0"/>
      <psa30 value="0.1071064269" flag="0"/>
    </comp>
    <comp name="--.HNZ">
      <acc value="1.2015800972" flag="0"/>
      <vel value="0.4494962180" flag="0"/>
      <psa03 value="3.0721051004" flag="0"/>
      <psa10 value="0.1738434372" flag="0"/>
      <psa30 value="0.1066391753" flag="0"/>
    </comp>
    <comp name="--.HNN">
      <acc value="1.5390568285" flag="0"/>
      <vel value="0.8164526117" flag="0"/>
      <psa03 value="5.0490063120" flag="0"/>
      <psa10 value="0.4683529153" flag="0"/>
      <psa30 value="0.1897303119" flag="0"/>
    </comp>
  </station>
  <station code="IACM" name="IACM" netid="HL" insttype="120" lat="35.3058" lon="25.0709">
    <comp name="--.HHE">
      <acc value="0.1700201620" flag="0"/>
      <vel value="0.1868819612" flag="0"/>
      <psa03 value="0.4140794370" flag="0"/>
      <psa10 value="0.3090513820" flag="0"/>
      <psa30 value="0.0462705952" flag="0"/>
    </comp>
    <comp name="--.HHZ">
      <acc value="0.0880808920" flag="0"/>
      <vel value="0.0725192173" flag="0"/>
      <psa03 value="0.1898819904" flag="0"/>
      <psa10 value="0.0888760868" flag="0"/>
      <psa30 value="0.0279467821" flag="0"/>
    </comp>
    <comp name="--.HHN">
      <acc value="0.1560454940" flag="0"/>
      <vel value="0.2045590718" flag="0"/>
      <psa03 value="0.3716717563" flag="0"/>
      <psa10 value="0.3479543653" flag="0"/>
      <psa30 value="0.0467420535" flag="0"/>
    </comp>
  </station>
  <station code="IDI" name="IDI" netid="HL" insttype="120" lat="35.288" lon="24.89">
    <comp name="--.HHN">
      <acc value="0.0184045737" flag="0"/>
      <vel value="0.0319160375" flag="0"/>
      <psa03 value="0.0491770180" flag="0"/>
      <psa10 value="0.0345013177" flag="0"/>
      <psa30 value="0.0214305471" flag="0"/>
    </comp>
    <comp name="--.HHZ">
      <acc value="0.0147647231" flag="0"/>
      <vel value="0.0300903506" flag="0"/>
      <psa03 value="0.0426175384" flag="0"/>
      <psa10 value="0.0225150913" flag="0"/>
      <psa30 value="0.0208912309" flag="0"/>
    </comp>
    <comp name="--.HHE">
      <acc value="0.0182489865" flag="0"/>
      <vel value="0.0218275054" flag="0"/>
      <psa03 value="0.0514930180" flag="0"/>
      <psa10 value="0.0177858185" flag="0"/>
      <psa30 value="0.0161460165" flag="0"/>
    </comp>
  </station>
  <station code="KARP" name="KARP" netid="HL" insttype="120" lat="35.5471" lon="27.1611">
    <comp name="--.HHE">
      <acc value="0.2146498213" flag="0"/>
      <vel value="0.2520282367" flag="0"/>
      <psa03 value="0.5855113723" flag="0"/>
      <psa10 value="0.4134856893" flag="0"/>
      <psa30 value="0.0562539660" flag="0"/>
    </comp>
    <comp name="--.HHN">
      <acc value="0.2657608125" flag="0"/>
      <vel value="0.2531847718" flag="0"/>
      <psa03 value="0.5925724238" flag="0"/>
      <psa10 value="0.4317260247" flag="0"/>
      <psa30 value="0.0287850377" flag="0"/>
    </comp>
    <comp name="--.HHZ">
      <acc value="0.1173120039" flag="0"/>
      <vel value="0.1130378780" flag="0"/>
      <psa03 value="0.2929279788" flag="0"/>
      <psa10 value="0.2475781030" flag="0"/>
      <psa30 value="0.0543467779" flag="0"/>
    </comp>
  </station>
  <station code="KSTE" name="KSTE" netid="HL" insttype="60" lat="35.1801" lon="25.3372">
    <comp name="--.HHE">
      <acc value="0.0335062441" flag="0"/>
      <vel value="0.0584782346" flag="0"/>
      <psa03 value="0.0721253187" flag="0"/>
      <psa10 value="0.0461198503" flag="0"/>
      <psa30 value="0.0447072886" flag="0"/>
    </comp>
    <comp name="--.HHZ">
      <acc value="0.0342915895" flag="0"/>
      <vel value="0.0533241209" flag="0"/>
      <psa03 value="0.0641508953" flag="0"/>
      <psa10 value="0.0375417532" flag="0"/>
      <psa30 value="0.0481810562" flag="0"/>
    </comp>
    <comp name="--.HHN">
      <acc value="0.0307926124" flag="0"/>
      <vel value="0.0486845767" flag="0"/>
      <psa03 value="0.1151782535" flag="0"/>
      <psa10 value="0.0402010202" flag="0"/>
      <psa30 value="0.0364118196" flag="0"/>
    </comp>
  </station>
  <station code="NPS" name="NPS" netid="HL" insttype="CMG3ESPC-120s" lat="35.2613" lon="25.6104">
    <comp name="--.HHN">
      <acc value="0.0791727967" flag="0"/>
      <vel value="0.0665221821" flag="0"/>
      <psa03 value="0.2133977884" flag="0"/>
      <psa10 value="0.0871629762" flag="0"/>
      <psa30 value="0.0450484485" flag="0"/>
    </comp>
    <comp name="--.HHZ">
      <acc value="0.0866318357" flag="0"/>
      <vel value="0.0740276652" flag="0"/>
      <psa03 value="0.2142981122" flag="0"/>
      <psa10 value="0.0425576316" flag="0"/>
      <psa30 value="0.0629409808" flag="0"/>
    </comp>
    <comp name="--.HHE">
      <acc value="0.0509706163" flag="0"/>
      <vel value="0.0339483537" flag="0"/>
      <psa03 value="0.1666620997" flag="0"/>
      <psa10 value="0.0350247782" flag="0"/>
      <psa30 value="0.0227932802" flag="0"/>
    </comp>
  </station>
  <station code="SIVA" name="SIVA" netid="HL" insttype="60" lat="35.0178" lon="24.812">
    <comp name="--.HHN">
      <acc value="0.0347597378" flag="0"/>
      <vel value="0.0583887028" flag="0"/>
      <psa03 value="0.0701333839" flag="0"/>
      <psa10 value="0.0430842344" flag="0"/>
      <psa30 value="0.0298077616" flag="0"/>
    </comp>
    <comp name="--.HHE">
      <acc value="0.0453818813" flag="0"/>
      <vel value="0.0542892504" flag="0"/>
      <psa03 value="0.1206804533" flag="0"/>
      <psa10 value="0.0685951808" flag="0"/>
      <psa30 value="0.0278643256" flag="0"/>
    </comp>
    <comp name="--.HHZ">
      <acc value="0.0257145508" flag="0"/>
      <vel value="0.0360271924" flag="0"/>
      <psa03 value="0.0552290390" flag="0"/>
      <psa10 value="0.0355448369" flag="0"/>
      <psa30 value="0.0211817278" flag="0"/>
    </comp>
  </station>
  <station code="ZKR" name="ZKR" netid="HL" insttype="120" lat="35.1147" lon="26.2169">
    <comp name="--.HHN">
      <acc value="0.8237427253" flag="0"/>
      <vel value="0.2857272941" flag="0"/>
      <psa03 value="1.4359628787" flag="0"/>
      <psa10 value="0.1492298647" flag="0"/>
      <psa30 value="0.0932377232" flag="0"/>
    </comp>
    <comp name="--.HHE">
      <acc value="1.5186363268" flag="0"/>
      <vel value="0.6510962328" flag="0"/>
      <psa03 value="3.5411338796" flag="0"/>
      <psa10 value="0.3101671087" flag="0"/>
      <psa30 value="0.0928660788" flag="0"/>
    </comp>
    <comp name="--.HHZ">
      <acc value="1.0891898821" flag="0"/>
      <vel value="0.3170066255" flag="0"/>
      <psa03 value="1.2282538802" flag="0"/>
      <psa10 value="0.1715059672" flag="0"/>
      <psa30 value="0.1292871098" flag="0"/>
    </comp>
  </station>
  <station code="IDI" name="IDI" netid="MN" insttype="" lat="35.288" lon="24.89">
    <comp name="--.HHE">
      <acc value="0.0186754590" flag="0"/>
      <vel value="0.0216710329" flag="0"/>
      <psa03 value="0.0521633869" flag="0"/>
      <psa10 value="0.0176403299" flag="0"/>
      <psa30 value="0.0159531887" flag="0"/>
    </comp>
    <comp name="--.HHZ">
      <acc value="0.0148859662" flag="0"/>
      <vel value="0.0298406570" flag="0"/>
      <psa03 value="0.0430626871" flag="0"/>
      <psa10 value="0.0223322605" flag="0"/>
      <psa30 value="0.0206359147" flag="0"/>
    </comp>
    <comp name="--.HHN">
      <acc value="0.0184490812" flag="0"/>
      <vel value="0.0315709885" flag="0"/>
      <psa03 value="0.0495149629" flag="0"/>
      <psa10 value="0.0342194791" flag="0"/>
      <psa30 value="0.0211664494" flag="0"/>
    </comp>
  </station>
</stationlist>
