<stationlist created="1778138508">
	<station code="RDI1" name="RDI1" netid="HI" source="ITSAK Strong Motion Network" insttype="" lat="36.4514" lon="28.224">
		<comp name="--.HNE" depth="0.0">
			<acc value="0.017126130976339" flag="0"/>
			<vel value="0.015563270543684" flag="0"/>
			<psa03 value="0.0411732717980134" flag="0"/>
			<psa10 value="0.0309519835419897" flag="0"/>
			<psa30 value="0.00313499892829457" flag="0"/>
		</comp>
		<comp name="--.HNN" depth="0.0">
			<acc value="0.0129422158233279" flag="0"/>
			<vel value="0.0129000544648345" flag="0"/>
			<psa03 value="0.0324388963135057" flag="0"/>
			<psa10 value="0.0273046231722692" flag="0"/>
			<psa30 value="0.00199227343667284" flag="0"/>
		</comp>
		<comp name="--.HNZ" depth="0.0">
			<acc value="0.0104037731171823" flag="0"/>
			<vel value="0.00916374085139955" flag="0"/>
			<psa03 value="0.0366358644462037" flag="0"/>
			<psa10 value="0.0195972475964915" flag="0"/>
			<psa30 value="0.00118186600115676" flag="0"/>
		</comp>
	</station>
	<station code="SIT2" name="SIT2" netid="HI" source="ITSAK Strong Motion Network" insttype="" lat="35.2059" lon="26.107">
		<comp name="--.HNE" depth="0.0">
			<acc value="0.00907721713845176" flag="0"/>
			<vel value="0.00665531141805161" flag="0"/>
			<psa03 value="0.0246258188396613" flag="0"/>
			<psa10 value="0.00468389528506943" flag="0"/>
			<psa30 value="0.000470346574821035" flag="0"/>
		</comp>
		<comp name="--.HNN" depth="0.0">
			<acc value="0.00715319109005808" flag="0"/>
			<vel value="0.00537798641219423" flag="0"/>
			<psa03 value="0.0256738882690848" flag="0"/>
			<psa10 value="0.00513880182665804" flag="0"/>
			<psa30 value="0.000450975291568018" flag="0"/>
		</comp>
		<comp name="--.HNZ" depth="0.0">
			<acc value="0.00368280867109373" flag="0"/>
			<vel value="0.00179579539910387" flag="0"/>
			<psa03 value="0.00847896924217882" flag="0"/>
			<psa10 value="0.00184620945075304" flag="0"/>
			<psa30 value="0.000219406930465889" flag="0"/>
		</comp>
	</station>
	<station code="KLNA" name="KLNA" netid="HL" source="National Observatory of Athens Seismic Network" insttype="" lat="36.95708" lon="26.97274">
		<comp name="00.HNE" depth="0.0">
			<acc value="0.0468560124203803" flag="0"/>
			<vel value="0.0173354779790576" flag="0"/>
			<psa03 value="0.112076601608106" flag="0"/>
			<psa10 value="0.00633084313728019" flag="0"/>
			<psa30 value="0.00055528589954803" flag="0"/>
		</comp>
		<comp name="00.HNN" depth="0.0">
			<acc value="0.0621156278544546" flag="0"/>
			<vel value="0.0230404786564374" flag="0"/>
			<psa03 value="0.145113029692614" flag="0"/>
			<psa10 value="0.00528541450778934" flag="0"/>
			<psa30 value="0.000417213028940496" flag="0"/>
		</comp>
		<comp name="00.HNZ" depth="0.0">
			<acc value="0.0433153418143295" flag="0"/>
			<vel value="0.0126141556739209" flag="0"/>
			<psa03 value="0.0487506044883853" flag="0"/>
			<psa10 value="0.00326226470277802" flag="0"/>
			<psa30 value="0.000372548559721909" flag="0"/>
		</comp>
	</station>
	<station code="NISR" name="NISR" netid="HL" source="National Observatory of Athens Seismic Network" insttype="" lat="36.6106" lon="27.131">
		<comp name="--.HNE" depth="0.0">
			<acc value="0.792822622533828" flag="0"/>
			<vel value="0.391967739704722" flag="0"/>
			<psa03 value="1.39200263000848" flag="0"/>
			<psa10 value="0.258648274178611" flag="0"/>
			<psa30 value="0.02231188638629" flag="0"/>
		</comp>
		<comp name="--.HNN" depth="0.0">
			<acc value="0.636311141556816" flag="0"/>
			<vel value="0.20907584669405" flag="0"/>
			<psa03 value="0.900247803663624" flag="0"/>
			<psa10 value="0.112963453274557" flag="0"/>
			<psa30 value="0.0149133062666625" flag="0"/>
		</comp>
		<comp name="--.HNZ" depth="0.0">
			<acc value="0.585738605512933" flag="0"/>
			<vel value="0.122007233918045" flag="0"/>
			<psa03 value="0.449501277253099" flag="0"/>
			<psa10 value="0.150183003886978" flag="0"/>
			<psa30 value="0.00526406371837723" flag="0"/>
		</comp>
	</station>
	<station code="THRA" name="THRA" netid="HL" source="National Observatory of Athens Seismic Network" insttype="" lat="36.41502" lon="25.43244">
		<comp name="00.HNE" depth="0.0">
			<acc value="0.0200828070018058" flag="0"/>
			<vel value="0.0126005328386991" flag="0"/>
			<psa03 value="0.0420627031143284" flag="0"/>
			<psa10 value="0.0186585829145663" flag="0"/>
			<psa30 value="0.00257179120187718" flag="0"/>
		</comp>
		<comp name="00.HNN" depth="0.0">
			<acc value="0.0256442383304737" flag="0"/>
			<vel value="0.0179244120723323" flag="0"/>
			<psa03 value="0.0525786862050363" flag="0"/>
			<psa10 value="0.0177593389690591" flag="0"/>
			<psa30 value="0.00145375317901436" flag="0"/>
		</comp>
		<comp name="00.HNZ" depth="0.0">
			<acc value="0.0182105123648664" flag="0"/>
			<vel value="0.00815408088699742" flag="0"/>
			<psa03 value="0.0375960869104204" flag="0"/>
			<psa10 value="0.00785039176869576" flag="0"/>
			<psa30 value="0.000754159698963392" flag="0"/>
		</comp>
	</station>
	<station code="NAZL" name="NAZL" netid="KO" source="Bogazici University Kandilli Observatory And Earthquake Research Institute (KOERI)" insttype="" lat="37.9641" lon="28.2922">
		<comp name="--.HNE" depth="0.0">
			<acc value="0.00319531881179975" flag="0"/>
			<vel value="0.0023975499193372" flag="0"/>
			<psa03 value="0.0120114766909427" flag="0"/>
			<psa10 value="0.00364521124298013" flag="0"/>
			<psa30 value="0.000357973167090574" flag="0"/>
		</comp>
		<comp name="--.HNN" depth="0.0">
			<acc value="0.00391737797980598" flag="0"/>
			<vel value="0.00196145816708902" flag="0"/>
			<psa03 value="0.00992081019979954" flag="0"/>
			<psa10 value="0.00265184778127411" flag="0"/>
			<psa30 value="0.00024151459290629" flag="0"/>
		</comp>
		<comp name="--.HNZ" depth="0.0">
			<acc value="0.00123634267752869" flag="0"/>
			<vel value="0.000931144698602344" flag="0"/>
			<psa03 value="0.00512847515295645" flag="0"/>
			<psa10 value="0.00104438008349187" flag="0"/>
			<psa30 value="0.000138561340467118" flag="0"/>
		</comp>
	</station>
	<station code="ODEM" name="ODEM" netid="KO" source="Bogazici University Kandilli Observatory And Earthquake Research Institute (KOERI)" insttype="" lat="38.2762" lon="28.0747">
		<comp name="--.HNE" depth="0.0">
			<acc value="0.000740766075779433" flag="0"/>
			<vel value="0.000801743338596701" flag="0"/>
			<psa03 value="0.00214078504566967" flag="0"/>
			<psa10 value="0.000836956655207935" flag="0"/>
			<psa30 value="0.000285520919567804" flag="0"/>
		</comp>
		<comp name="--.HNN" depth="0.0">
			<acc value="0.000737680991912443" flag="0"/>
			<vel value="0.000620866255886072" flag="0"/>
			<psa03 value="0.00194749440908427" flag="0"/>
			<psa10 value="0.000918787486257085" flag="0"/>
			<psa30 value="0.000149108875126817" flag="0"/>
		</comp>
		<comp name="--.HNZ" depth="0.0">
			<acc value="0.000657209870333758" flag="0"/>
			<vel value="0.000590031630289298" flag="0"/>
			<psa03 value="0.00192804634339938" flag="0"/>
			<psa10 value="0.000605482590716964" flag="0"/>
			<psa30 value="0.000153682863027169" flag="0"/>
		</comp>
	</station>
	<station code="YKAV" name="YKAV" netid="KO" source="Bogazici University Kandilli Observatory And Earthquake Research Institute (KOERI)" insttype="" lat="37.1246" lon="27.2801">
		<comp name="--.HNE" depth="0.0">
			<acc value="0.0257761288262996" flag="0"/>
			<vel value="0.0116629617489349" flag="0"/>
			<psa03 value="0.0555966361294477" flag="0"/>
			<psa10 value="0.0106113954528673" flag="0"/>
			<psa30 value="0.000809351532231678" flag="0"/>
		</comp>
		<comp name="--.HNN" depth="0.0">
			<acc value="0.0154372887962099" flag="0"/>
			<vel value="0.00782470982773602" flag="0"/>
			<psa03 value="0.0347744338439225" flag="0"/>
			<psa10 value="0.0095193362342997" flag="0"/>
			<psa30 value="0.000559500657921042" flag="0"/>
		</comp>
		<comp name="--.HNZ" depth="0.0">
			<acc value="0.0187957921924424" flag="0"/>
			<vel value="0.008219482308342" flag="0"/>
			<psa03 value="0.032151770522" flag="0"/>
			<psa10 value="0.0147476569598898" flag="0"/>
			<psa30 value="0.000756133840156077" flag="0"/>
		</comp>
	</station>
</stationlist>
