<?xml version="1.0" encoding="UTF-8" standalone="yes"?>
<!DOCTYPE earthquake SYSTEM "stationlist.dtd">
<stationlist created="" xmlns="ch.ethz.sed.shakemap.usgs.xml">
  <station code="KARP" name="KARP" netid="GE" insttype="STS-2/N" lat="35.5471" lon="27.1611">
    <comp name="--.HHE">
      <acc value="0.0174168742" flag="0"/>
      <vel value="0.0060559291" flag="0"/>
      <psa03 value="0.0164109309" flag="0"/>
      <psa10 value="0.0122264038" flag="0"/>
      <psa30 value="0.0006526989" flag="0"/>
    </comp>
    <comp name="--.HHZ">
      <acc value="0.0158080123" flag="0"/>
      <vel value="0.0042562732" flag="0"/>
      <psa03 value="0.0134757465" flag="0"/>
      <psa10 value="0.0053263767" flag="0"/>
      <psa30 value="0.0005161463" flag="0"/>
    </comp>
    <comp name="--.HHN">
      <acc value="0.0149315835" flag="0"/>
      <vel value="0.0062423429" flag="0"/>
      <psa03 value="0.0157712952" flag="0"/>
      <psa10 value="0.0094382514" flag="0"/>
      <psa30 value="0.0005200255" flag="0"/>
    </comp>
  </station>
  <station code="RDI1" name="RDI1" netid="HI" insttype="CMG-5TD,ACCELEROMETER,GURALP" lat="36.4514" lon="28.224">
    <comp name="--.HNN">
      <acc value="0.0129673062" flag="0"/>
      <vel value="0.0127006718" flag="0"/>
      <psa03 value="0.0327041408" flag="0"/>
      <psa10 value="0.0272825907" flag="0"/>
      <psa30 value="0.0016800378" flag="0"/>
    </comp>
    <comp name="--.HNE">
      <acc value="0.0172655384" flag="0"/>
      <vel value="0.0155933035" flag="0"/>
      <psa03 value="0.0408673410" flag="0"/>
      <psa10 value="0.0307907331" flag="0"/>
      <psa30 value="0.0027410820" flag="0"/>
    </comp>
    <comp name="--.HNZ">
      <acc value="0.0094798361" flag="0"/>
      <vel value="0.0091696337" flag="0"/>
      <psa03 value="0.0369924580" flag="0"/>
      <psa10 value="0.0196023075" flag="0"/>
      <psa30 value="0.0010879873" flag="0"/>
    </comp>
  </station>
  <station code="ARG" name="ARG" netid="HL" insttype="LE3D20_DR24" lat="36.2136" lon="28.1212">
    <comp name="--.HHZ">
      <acc value="0.0143653050" flag="0"/>
      <vel value="0.0065762620" flag="0"/>
      <psa03 value="0.0158905440" flag="0"/>
      <psa10 value="0.0141993497" flag="0"/>
      <psa30 value="0.0010618028" flag="0"/>
    </comp>
    <comp name="--.HHE">
      <acc value="0.0300679437" flag="0"/>
      <vel value="0.0163701076" flag="0"/>
      <psa03 value="0.0558572474" flag="0"/>
      <psa10 value="0.0148504120" flag="0"/>
      <psa30 value="0.0017148974" flag="0"/>
    </comp>
    <comp name="--.HHN">
      <acc value="0.0174228726" flag="0"/>
      <vel value="0.0145027931" flag="0"/>
      <psa03 value="0.0482986765" flag="0"/>
      <psa10 value="0.0174051961" flag="0"/>
      <psa30 value="0.0014185440" flag="0"/>
    </comp>
  </station>
  <station code="KARP" name="KARP" netid="HL" insttype="120" lat="35.5471" lon="27.1611">
    <comp name="--.HHE">
      <acc value="0.0167374401" flag="0"/>
      <vel value="0.0059256481" flag="0"/>
      <psa03 value="0.0159845922" flag="0"/>
      <psa10 value="0.0121534847" flag="0"/>
      <psa30 value="0.0006503807" flag="0"/>
    </comp>
    <comp name="--.HHZ">
      <acc value="0.0152016562" flag="0"/>
      <vel value="0.0041998514" flag="0"/>
      <psa03 value="0.0130257643" flag="0"/>
      <psa10 value="0.0052977928" flag="0"/>
      <psa30 value="0.0005136514" flag="0"/>
    </comp>
    <comp name="--.HHN">
      <acc value="0.0140293556" flag="0"/>
      <vel value="0.0060876980" flag="0"/>
      <psa03 value="0.0153413009" flag="0"/>
      <psa10 value="0.0093691804" flag="0"/>
      <psa30 value="0.0005174934" flag="0"/>
    </comp>
  </station>
  <station code="KLNA" name="KLNA" netid="HL" insttype="CMG-5" lat="36.9571" lon="26.9727">
    <comp name="00.HNE">
      <acc value="0.0470643576" flag="0"/>
      <vel value="0.0173120404" flag="0"/>
      <psa03 value="0.1121566094" flag="0"/>
      <psa10 value="0.0063589253" flag="0"/>
      <psa30 value="0.0005831989" flag="0"/>
    </comp>
    <comp name="00.HNN">
      <acc value="0.0622464566" flag="0"/>
      <vel value="0.0229913869" flag="0"/>
      <psa03 value="0.1443989153" flag="0"/>
      <psa10 value="0.0052874722" flag="0"/>
      <psa30 value="0.0004251727" flag="0"/>
    </comp>
    <comp name="00.HNZ">
      <acc value="0.0432860461" flag="0"/>
      <vel value="0.0125582775" flag="0"/>
      <psa03 value="0.0486889630" flag="0"/>
      <psa10 value="0.0032723853" flag="0"/>
      <psa30 value="0.0004136436" flag="0"/>
    </comp>
  </station>
  <station code="NISR" name="NISR" netid="HL" insttype="65535" lat="36.6106" lon="27.131">
    <comp name="--.HHE">
      <acc value="0.8607390036" flag="0"/>
      <vel value="0.3970901339" flag="0"/>
      <psa03 value="1.4975939307" flag="0"/>
      <psa10 value="0.2479025592" flag="0"/>
      <psa30 value="0.0207138061" flag="0"/>
    </comp>
    <comp name="--.HHZ">
      <acc value="0.6321029716" flag="0"/>
      <vel value="0.1436311574" flag="0"/>
      <psa03 value="0.5127205991" flag="0"/>
      <psa10 value="0.1559676421" flag="0"/>
      <psa30 value="0.0052718454" flag="0"/>
    </comp>
    <comp name="--.HHN">
      <acc value="0.7278988374" flag="0"/>
      <vel value="0.2768701940" flag="0"/>
      <psa03 value="0.8577693462" flag="0"/>
      <psa10 value="0.1685261267" flag="0"/>
      <psa30 value="0.0827181473" flag="0"/>
    </comp>
  </station>
  <station code="RODB" name="RODB" netid="HL" insttype="CMG-5" lat="36.4471" lon="28.2212">
    <comp name="00.HNE">
      <acc value="0.0179919526" flag="0"/>
      <vel value="0.0133998330" flag="0"/>
      <psa03 value="0.0538129342" flag="0"/>
      <psa10 value="0.0318816919" flag="0"/>
      <psa30 value="0.0019029578" flag="0"/>
    </comp>
    <comp name="00.HNZ">
      <acc value="0.0125006600" flag="0"/>
      <vel value="0.0096029153" flag="0"/>
      <psa03 value="0.0220266949" flag="0"/>
      <psa10 value="0.0156152420" flag="0"/>
      <psa30 value="0.0011302037" flag="0"/>
    </comp>
    <comp name="00.HNN">
      <acc value="0.0179624214" flag="0"/>
      <vel value="0.0123945478" flag="0"/>
      <psa03 value="0.0502571368" flag="0"/>
      <psa10 value="0.0234840325" flag="0"/>
      <psa30 value="0.0023602740" flag="0"/>
    </comp>
  </station>
</stationlist>
