<?xml version="1.0" encoding="UTF-8" standalone="yes"?>
<!DOCTYPE earthquake SYSTEM "stationlist.dtd">
<stationlist created="" xmlns="ch.ethz.sed.shakemap.usgs.xml">
  <station code="KARS" name="KARS" netid="KO" insttype="CMG-3T" commtype="DIG" lat="40.6152" lon="43.0937">
    <comp name="--.HHE">
      <acc value="0.0258863573" flag="0"/>
      <vel value="0.0101526846" flag="0"/>
      <psa03 value="0.0321534092" flag="0"/>
      <psa10 value="0.0167954570" flag="0"/>
      <psa30 value="0.0024363814" flag="0"/>
    </comp>
    <comp name="--.HHN">
      <acc value="0.0167824253" flag="0"/>
      <vel value="0.0097533662" flag="0"/>
      <psa03 value="0.0250017018" flag="0"/>
      <psa10 value="0.0139957911" flag="0"/>
      <psa30 value="0.0031110566" flag="0"/>
    </comp>
    <comp name="--.HHZ">
      <acc value="0.0089870763" flag="0"/>
      <vel value="0.0088144668" flag="0"/>
      <psa03 value="0.0176057187" flag="0"/>
      <psa10 value="0.0183329459" flag="0"/>
      <psa30 value="0.0015982082" flag="0"/>
    </comp>
  </station>
</stationlist>
