<?xml version="1.0" encoding="UTF-8" standalone="yes"?>
<!DOCTYPE earthquake SYSTEM "stationlist.dtd">
<stationlist created="" xmlns="ch.ethz.sed.shakemap.usgs.xml">
  <station code="KARS" name="KARS" netid="KO" insttype="CMG-3T" commtype="DIG" lat="40.6152" lon="43.0937">
    <comp name="--.HHE">
      <acc value="0.0258863574" flag="0"/>
      <vel value="0.0101526844" flag="0"/>
      <psa03 value="0.0321534092" flag="0"/>
      <psa10 value="0.0167954570" flag="0"/>
      <psa30 value="0.0024363844" flag="0"/>
    </comp>
    <comp name="--.HHZ">
      <acc value="0.0089870762" flag="0"/>
      <vel value="0.0088144626" flag="0"/>
      <psa03 value="0.0176057187" flag="0"/>
      <psa10 value="0.0183329459" flag="0"/>
      <psa30 value="0.0015982074" flag="0"/>
    </comp>
    <comp name="--.HHN">
      <acc value="0.0167824251" flag="0"/>
      <vel value="0.0097533659" flag="0"/>
      <psa03 value="0.0250017018" flag="0"/>
      <psa10 value="0.0139957911" flag="0"/>
      <psa30 value="0.0031110475" flag="0"/>
    </comp>
  </station>
</stationlist>
