<?xml version="1.0" encoding="UTF-8" standalone="yes"?>
<!DOCTYPE earthquake SYSTEM "stationlist.dtd">
<stationlist created="" xmlns="ch.ethz.sed.shakemap.usgs.xml">
  <station code="APE" name="APE" netid="GE" insttype="STS-2/N" lat="37.0727" lon="25.523">
    <comp name="--.HHE">
      <acc value="0.3519550327" flag="0"/>
      <vel value="0.0857855425" flag="0"/>
      <psa03 value="0.4436744558" flag="0"/>
      <psa10 value="0.0331313415" flag="0"/>
      <psa30 value="0.0034618489" flag="0"/>
    </comp>
    <comp name="--.HHN">
      <acc value="0.4482296931" flag="0"/>
      <vel value="0.0984038533" flag="0"/>
      <psa03 value="0.3266018442" flag="0"/>
      <psa10 value="0.0223965465" flag="0"/>
      <psa30 value="0.0055613047" flag="0"/>
    </comp>
    <comp name="--.HHZ">
      <acc value="0.1300213383" flag="0"/>
      <vel value="0.0499529902" flag="0"/>
      <psa03 value="0.2047233957" flag="0"/>
      <psa10 value="0.0432683448" flag="0"/>
      <psa30 value="0.0043359331" flag="0"/>
    </comp>
  </station>
  <station code="THERA" name="THERA" netid="GE" insttype="STS-2/N" lat="36.367" lon="25.4753">
    <comp name="--.HHE">
      <acc value="0.3130313353" flag="0"/>
      <vel value="0.0723544804" flag="0"/>
      <psa03 value="0.4736135746" flag="0"/>
      <psa10 value="0.0524334745" flag="0"/>
      <psa30 value="0.0037560808" flag="0"/>
    </comp>
    <comp name="--.HHZ">
      <acc value="0.2041427733" flag="0"/>
      <vel value="0.0593740889" flag="0"/>
      <psa03 value="0.2334413623" flag="0"/>
      <psa10 value="0.0212204118" flag="0"/>
      <psa30 value="0.0037885340" flag="0"/>
    </comp>
    <comp name="--.HHN">
      <acc value="0.2035974701" flag="0"/>
      <vel value="0.0490585120" flag="0"/>
      <psa03 value="0.2241326834" flag="0"/>
      <psa10 value="0.0222239815" flag="0"/>
      <psa30 value="0.0015843013" flag="0"/>
    </comp>
  </station>
  <station code="SNT1" name="SNT1" netid="HA" insttype="30" lat="36.4159" lon="25.4282">
    <comp name="--.HHE">
      <acc value="0.1807736116" flag="0"/>
      <vel value="0.0667283522" flag="0"/>
      <psa03 value="0.2040195973" flag="0"/>
      <psa10 value="0.0824890611" flag="0"/>
      <psa30 value="0.0075969046" flag="0"/>
    </comp>
    <comp name="--.HHN">
      <acc value="0.1479902197" flag="0"/>
      <vel value="0.0453732897" flag="0"/>
      <psa03 value="0.2215308344" flag="0"/>
      <psa10 value="0.0521201928" flag="0"/>
      <psa30 value="0.0046763677" flag="0"/>
    </comp>
    <comp name="--.HHZ">
      <acc value="0.1823391550" flag="0"/>
      <vel value="0.0450894121" flag="0"/>
      <psa03 value="0.2332282014" flag="0"/>
      <psa10 value="0.0413407876" flag="0"/>
      <psa30 value="0.0034918437" flag="0"/>
    </comp>
  </station>
  <station code="NAX1" name="NAX1" netid="HI" insttype="CMG-5TD,ACCELEROMETER,GURALP" lat="37.1014" lon="25.3741">
    <comp name="--.HNN">
      <acc value="0.1646335621" flag="0"/>
      <vel value="0.0484796535" flag="0"/>
      <psa03 value="0.2474661391" flag="0"/>
      <psa10 value="0.0181779495" flag="0"/>
      <psa30 value="0.0024789090" flag="0"/>
    </comp>
    <comp name="--.HNE">
      <acc value="0.1776831908" flag="0"/>
      <vel value="0.0870197501" flag="0"/>
      <psa03 value="0.2591727801" flag="0"/>
      <psa10 value="0.0335959962" flag="0"/>
      <psa30 value="0.0037330415" flag="0"/>
    </comp>
    <comp name="--.HNZ">
      <acc value="0.1211531270" flag="0"/>
      <vel value="0.0332122753" flag="0"/>
      <psa03 value="0.1824745918" flag="0"/>
      <psa10 value="0.0312652133" flag="0"/>
      <psa30 value="0.0033536046" flag="0"/>
    </comp>
  </station>
  <station code="APE" name="APE" netid="HL" insttype="120" lat="37.0727" lon="25.523">
    <comp name="--.HHN">
      <acc value="0.4266957627" flag="0"/>
      <vel value="0.0945530360" flag="0"/>
      <psa03 value="0.3160343823" flag="0"/>
      <psa10 value="0.0221493186" flag="0"/>
      <psa30 value="0.0055261947" flag="0"/>
    </comp>
    <comp name="--.HHZ">
      <acc value="0.1185872080" flag="0"/>
      <vel value="0.0487916178" flag="0"/>
      <psa03 value="0.1993151926" flag="0"/>
      <psa10 value="0.0429742333" flag="0"/>
      <psa30 value="0.0043268102" flag="0"/>
    </comp>
    <comp name="--.HHE">
      <acc value="0.3063930039" flag="0"/>
      <vel value="0.0816046420" flag="0"/>
      <psa03 value="0.4296098011" flag="0"/>
      <psa10 value="0.0327827683" flag="0"/>
      <psa30 value="0.0034466347" flag="0"/>
    </comp>
  </station>
  <station code="MHLO" name="MHLO" netid="HL" insttype="20" lat="36.6898" lon="24.4017">
    <comp name="--.HHE">
      <acc value="0.2776783949" flag="0"/>
      <vel value="0.1721835804" flag="0"/>
      <psa03 value="0.7269581127" flag="0"/>
      <psa10 value="0.1603027864" flag="0"/>
      <psa30 value="0.0068430596" flag="0"/>
    </comp>
    <comp name="--.HHN">
      <acc value="0.1565832924" flag="0"/>
      <vel value="0.0961193633" flag="0"/>
      <psa03 value="0.3178719344" flag="0"/>
      <psa10 value="0.1466724750" flag="0"/>
      <psa30 value="0.0058112131" flag="0"/>
    </comp>
    <comp name="--.HHZ">
      <acc value="0.0912907572" flag="0"/>
      <vel value="0.0638459461" flag="0"/>
      <psa03 value="0.3149788546" flag="0"/>
      <psa10 value="0.0939445489" flag="0"/>
      <psa30 value="0.0041147761" flag="0"/>
    </comp>
  </station>
  <station code="NISR" name="NISR" netid="HL" insttype="65535" lat="36.6106" lon="27.131">
    <comp name="--.HHE">
      <acc value="0.0000000000" flag="0"/>
      <vel value="-100.0000000000" flag="0"/>
      <psa03 value="0.0000000000" flag="0"/>
      <psa10 value="0.0000000000" flag="0"/>
      <psa30 value="0.0000000000" flag="0"/>
    </comp>
    <comp name="--.HHN">
      <acc value="0.0786917463" flag="0"/>
      <vel value="0.0390766519" flag="0"/>
      <psa03 value="0.2511854222" flag="0"/>
      <psa10 value="0.0314218338" flag="0"/>
      <psa30 value="0.0048786042" flag="0"/>
    </comp>
    <comp name="--.HHZ">
      <acc value="0.0390164390" flag="0"/>
      <vel value="0.0220037671" flag="0"/>
      <psa03 value="0.1032791324" flag="0"/>
      <psa10 value="0.0276601574" flag="0"/>
      <psa30 value="0.0015261972" flag="0"/>
    </comp>
  </station>
  <station code="NISR2" name="NISR2" netid="HL" insttype="120" lat="36.5744" lon="27.1767">
    <comp name="--.HHE">
      <acc value="0.1222620514" flag="0"/>
      <vel value="0.1034977410" flag="0"/>
      <psa03 value="0.3251459388" flag="0"/>
      <psa10 value="0.1445601355" flag="0"/>
      <psa30 value="0.0071260920" flag="0"/>
    </comp>
    <comp name="--.HHN">
      <acc value="0.2101212155" flag="0"/>
      <vel value="0.1224290067" flag="0"/>
      <psa03 value="0.5045514569" flag="0"/>
      <psa10 value="0.1586986674" flag="0"/>
      <psa30 value="0.0066730673" flag="0"/>
    </comp>
    <comp name="--.HHZ">
      <acc value="0.0624847780" flag="0"/>
      <vel value="0.0356796231" flag="0"/>
      <psa03 value="0.2100164703" flag="0"/>
      <psa10 value="0.0262657590" flag="0"/>
      <psa30 value="0.0024006646" flag="0"/>
    </comp>
  </station>
  <station code="SAP3" name="SAP3" netid="HL" insttype="LE3D20_SMART24" lat="36.4356" lon="25.3454">
    <comp name="--.HHE">
      <acc value="0.9521199414" flag="0"/>
      <vel value="0.2420800690" flag="0"/>
      <psa03 value="1.0198720399" flag="0"/>
      <psa10 value="0.2636138626" flag="0"/>
      <psa30 value="0.0211961927" flag="0"/>
    </comp>
    <comp name="--.HHN">
      <acc value="0.8420054480" flag="0"/>
      <vel value="0.2218266081" flag="0"/>
      <psa03 value="1.0330745102" flag="0"/>
      <psa10 value="0.2788798318" flag="0"/>
      <psa30 value="0.0190535510" flag="0"/>
    </comp>
    <comp name="--.HHZ">
      <acc value="0.8177799087" flag="0"/>
      <vel value="0.1849101647" flag="0"/>
      <psa03 value="0.6416826483" flag="0"/>
      <psa10 value="0.1124066246" flag="0"/>
      <psa30 value="0.0105558219" flag="0"/>
    </comp>
  </station>
  <station code="THERA" name="THERA" netid="HL" insttype="120" lat="36.367" lon="25.4753">
    <comp name="--.HHE">
      <acc value="0.3124563734" flag="0"/>
      <vel value="0.0708476205" flag="0"/>
      <psa03 value="0.4605550460" flag="0"/>
      <psa10 value="0.0520273597" flag="0"/>
      <psa30 value="0.0037431671" flag="0"/>
    </comp>
    <comp name="--.HHN">
      <acc value="0.2052032372" flag="0"/>
      <vel value="0.0476940498" flag="0"/>
      <psa03 value="0.2165780464" flag="0"/>
      <psa10 value="0.0220707390" flag="0"/>
      <psa30 value="0.0015831458" flag="0"/>
    </comp>
    <comp name="--.HHZ">
      <acc value="0.1970520757" flag="0"/>
      <vel value="0.0576746917" flag="0"/>
      <psa03 value="0.2268839541" flag="0"/>
      <psa10 value="0.0210367690" flag="0"/>
      <psa30 value="0.0037871680" flag="0"/>
    </comp>
  </station>
  <station code="THRA" name="THRA" netid="HL" insttype="CMG-5" lat="36.415" lon="25.4324">
    <comp name="00.HNZ">
      <acc value="0.4149091738" flag="0"/>
      <vel value="0.1605164500" flag="0"/>
      <psa03 value="0.8298445051" flag="0"/>
      <psa10 value="0.0942075518" flag="0"/>
      <psa30 value="0.0068840669" flag="0"/>
    </comp>
    <comp name="00.HNE">
      <acc value="0.6276972321" flag="0"/>
      <vel value="0.2188552155" flag="0"/>
      <psa03 value="0.9839538191" flag="0"/>
      <psa10 value="0.1754658570" flag="0"/>
      <psa30 value="0.0150872486" flag="0"/>
    </comp>
    <comp name="00.HNN">
      <acc value="0.5229251466" flag="0"/>
      <vel value="0.2093035553" flag="0"/>
      <psa03 value="1.1054582218" flag="0"/>
      <psa10 value="0.1508656305" flag="0"/>
      <psa30 value="0.0105931171" flag="0"/>
    </comp>
  </station>
  <station code="TNSA" name="TNSA" netid="HL" insttype="CMG-5" lat="37.5394" lon="25.1631">
    <comp name="00.HNE">
      <acc value="0.0866879253" flag="0"/>
      <vel value="0.0321708433" flag="0"/>
      <psa03 value="0.1889138654" flag="0"/>
      <psa10 value="0.0140103171" flag="0"/>
      <psa30 value="0.0014211292" flag="0"/>
    </comp>
    <comp name="00.HNZ">
      <acc value="0.0904611153" flag="0"/>
      <vel value="0.0373095444" flag="0"/>
      <psa03 value="0.2694294251" flag="0"/>
      <psa10 value="0.0251694362" flag="0"/>
      <psa30 value="0.0017834853" flag="0"/>
    </comp>
    <comp name="00.HNN">
      <acc value="0.1569905780" flag="0"/>
      <vel value="0.0673517968" flag="0"/>
      <psa03 value="0.4432058930" flag="0"/>
      <psa10 value="0.0225195841" flag="0"/>
      <psa30 value="0.0024591085" flag="0"/>
    </comp>
  </station>
  <station code="CMBO" name="CMBO" netid="HT" insttype="120P," lat="36.4709" lon="25.4056">
    <comp name="--.HHE">
      <acc value="0.7436394930" flag="0"/>
      <vel value="0.2290508470" flag="0"/>
      <psa03 value="0.9922526033" flag="0"/>
      <psa10 value="0.2424974059" flag="0"/>
      <psa30 value="0.0236971419" flag="0"/>
    </comp>
    <comp name="--.HHN">
      <acc value="1.2725686666" flag="0"/>
      <vel value="0.3628917218" flag="0"/>
      <psa03 value="1.2622456202" flag="0"/>
      <psa10 value="0.2416545361" flag="0"/>
      <psa30 value="0.0146773915" flag="0"/>
    </comp>
    <comp name="--.HHZ">
      <acc value="0.9280159888" flag="0"/>
      <vel value="0.3004442249" flag="0"/>
      <psa03 value="1.1395747018" flag="0"/>
      <psa10 value="0.0936643250" flag="0"/>
      <psa30 value="0.0094307371" flag="0"/>
    </comp>
  </station>
  <station code="BODT" name="BODT" netid="KO" insttype="CMG-3ESP" lat="37.0622" lon="27.3103">
    <comp name="--.HHE">
      <acc value="0.0280130382" flag="0"/>
      <vel value="0.0137796653" flag="0"/>
      <psa03 value="0.0569938374" flag="0"/>
      <psa10 value="0.0149023026" flag="0"/>
      <psa30 value="0.0008354452" flag="0"/>
    </comp>
    <comp name="--.HHZ">
      <acc value="0.0137468626" flag="0"/>
      <vel value="0.0105373810" flag="0"/>
      <psa03 value="0.0399049873" flag="0"/>
      <psa10 value="0.0150373131" flag="0"/>
      <psa30 value="0.0011405685" flag="0"/>
    </comp>
    <comp name="--.HHN">
      <acc value="0.0246607099" flag="0"/>
      <vel value="0.0155551113" flag="0"/>
      <psa03 value="0.0581886585" flag="0"/>
      <psa10 value="0.0207148609" flag="0"/>
      <psa30 value="0.0011565945" flag="0"/>
    </comp>
  </station>
</stationlist>
