<?xml version="1.0" encoding="UTF-8" standalone="yes"?>
<!DOCTYPE earthquake SYSTEM "stationlist.dtd">
<stationlist created="" xmlns="ch.ethz.sed.shakemap.usgs.xml">
  <station code="BODT" name="BODT" netid="KO" insttype="CMG-3ESP" lat="37.0622" lon="27.3103">
    <comp name="--.HHE">
      <acc value="0.0280130382" flag="0"/>
      <vel value="0.0137796732" flag="0"/>
      <psa03 value="0.0569938374" flag="0"/>
      <psa10 value="0.0149023026" flag="0"/>
      <psa30 value="0.0008354455" flag="0"/>
    </comp>
    <comp name="--.HHZ">
      <acc value="0.0137468625" flag="0"/>
      <vel value="0.0105373798" flag="0"/>
      <psa03 value="0.0399049873" flag="0"/>
      <psa10 value="0.0150373131" flag="0"/>
      <psa30 value="0.0011405721" flag="0"/>
    </comp>
    <comp name="--.HHN">
      <acc value="0.0246607099" flag="0"/>
      <vel value="0.0155551092" flag="0"/>
      <psa03 value="0.0581886585" flag="0"/>
      <psa10 value="0.0207148609" flag="0"/>
      <psa30 value="0.0011565981" flag="0"/>
    </comp>
  </station>
</stationlist>
