<?xml version="1.0" encoding="UTF-8" standalone="yes"?>
<!DOCTYPE earthquake SYSTEM "stationlist.dtd">
<stationlist created="" xmlns="ch.ethz.sed.shakemap.usgs.xml">
  <station code="APE" name="APE" netid="GE" insttype="STS-2/N" lat="37.0727" lon="25.523">
    <comp name="--.HHE">
      <acc value="0.3519550327" flag="0"/>
      <vel value="0.0857855425" flag="0"/>
      <psa03 value="0.4436744558" flag="0"/>
      <psa10 value="0.0331313415" flag="0"/>
      <psa30 value="0.0034618489" flag="0"/>
    </comp>
    <comp name="--.HHN">
      <acc value="0.4482296931" flag="0"/>
      <vel value="0.0984038533" flag="0"/>
      <psa03 value="0.3266018442" flag="0"/>
      <psa10 value="0.0223965465" flag="0"/>
      <psa30 value="0.0055613047" flag="0"/>
    </comp>
    <comp name="--.HHZ">
      <acc value="0.1300213383" flag="0"/>
      <vel value="0.0499529902" flag="0"/>
      <psa03 value="0.2047233957" flag="0"/>
      <psa10 value="0.0432683448" flag="0"/>
      <psa30 value="0.0043359331" flag="0"/>
    </comp>
  </station>
  <station code="THERA" name="THERA" netid="GE" insttype="STS-2/N" lat="36.367" lon="25.4753">
    <comp name="--.HHE">
      <acc value="0.3130313353" flag="0"/>
      <vel value="0.0723544804" flag="0"/>
      <psa03 value="0.4736135746" flag="0"/>
      <psa10 value="0.0524334745" flag="0"/>
      <psa30 value="0.0037560808" flag="0"/>
    </comp>
    <comp name="--.HHZ">
      <acc value="0.2041427733" flag="0"/>
      <vel value="0.0593740889" flag="0"/>
      <psa03 value="0.2334413623" flag="0"/>
      <psa10 value="0.0212204118" flag="0"/>
      <psa30 value="0.0037885340" flag="0"/>
    </comp>
    <comp name="--.HHN">
      <acc value="0.2035974701" flag="0"/>
      <vel value="0.0490585120" flag="0"/>
      <psa03 value="0.2241326834" flag="0"/>
      <psa10 value="0.0222239815" flag="0"/>
      <psa30 value="0.0015843013" flag="0"/>
    </comp>
  </station>
  <station code="BODT" name="BODT" netid="KO" insttype="CMG-3ESP" lat="37.0622" lon="27.3103">
    <comp name="--.HHE">
      <acc value="0.0280130382" flag="0"/>
      <vel value="0.0137796653" flag="0"/>
      <psa03 value="0.0569938374" flag="0"/>
      <psa10 value="0.0149023026" flag="0"/>
      <psa30 value="0.0008354452" flag="0"/>
    </comp>
    <comp name="--.HHZ">
      <acc value="0.0137468626" flag="0"/>
      <vel value="0.0105373810" flag="0"/>
      <psa03 value="0.0399049873" flag="0"/>
      <psa10 value="0.0150373131" flag="0"/>
      <psa30 value="0.0011405685" flag="0"/>
    </comp>
    <comp name="--.HHN">
      <acc value="0.0246607099" flag="0"/>
      <vel value="0.0155551113" flag="0"/>
      <psa03 value="0.0581886585" flag="0"/>
      <psa10 value="0.0207148609" flag="0"/>
      <psa30 value="0.0011565945" flag="0"/>
    </comp>
  </station>
</stationlist>
