<?xml version="1.0" encoding="UTF-8" standalone="yes"?>
<!DOCTYPE earthquake SYSTEM "stationlist.dtd">
<stationlist created="" xmlns="ch.ethz.sed.shakemap.usgs.xml">
  <station code="APE" name="APE" netid="GE" insttype="STS-2/N" lat="37.0727" lon="25.523">
    <comp name="--.HHE">
      <acc value="0.3519550326" flag="0"/>
      <vel value="0.0857855422" flag="0"/>
      <psa03 value="0.4436744558" flag="0"/>
      <psa10 value="0.0331313393" flag="0"/>
      <psa30 value="0.0034618293" flag="0"/>
    </comp>
    <comp name="--.HHN">
      <acc value="0.4482296931" flag="0"/>
      <vel value="0.0984038531" flag="0"/>
      <psa03 value="0.3266018442" flag="0"/>
      <psa10 value="0.0223965467" flag="0"/>
      <psa30 value="0.0055612143" flag="0"/>
    </comp>
    <comp name="--.HHZ">
      <acc value="0.1300213383" flag="0"/>
      <vel value="0.0499529895" flag="0"/>
      <psa03 value="0.2047233957" flag="0"/>
      <psa10 value="0.0432683444" flag="0"/>
      <psa30 value="0.0043358334" flag="0"/>
    </comp>
  </station>
  <station code="THERA" name="THERA" netid="GE" insttype="STS-2/N" lat="36.367" lon="25.4753">
    <comp name="--.HHE">
      <acc value="0.3130313350" flag="0"/>
      <vel value="0.0723544819" flag="0"/>
      <psa03 value="0.4736135746" flag="0"/>
      <psa10 value="0.0524334678" flag="0"/>
      <psa30 value="0.0037554363" flag="0"/>
    </comp>
    <comp name="--.HHN">
      <acc value="0.2035974700" flag="0"/>
      <vel value="0.0490585112" flag="0"/>
      <psa03 value="0.2241326834" flag="0"/>
      <psa10 value="0.0222239813" flag="0"/>
      <psa30 value="0.0015842247" flag="0"/>
    </comp>
    <comp name="--.HHZ">
      <acc value="0.2041427729" flag="0"/>
      <vel value="0.0593740889" flag="0"/>
      <psa03 value="0.2334413623" flag="0"/>
      <psa10 value="0.0212204202" flag="0"/>
      <psa30 value="0.0037884896" flag="0"/>
    </comp>
  </station>
  <station code="BODT" name="BODT" netid="KO" insttype="CMG-3ESP" lat="37.0622" lon="27.3103">
    <comp name="--.HHE">
      <acc value="0.0280130382" flag="0"/>
      <vel value="0.0137796683" flag="0"/>
      <psa03 value="0.0569938374" flag="0"/>
      <psa10 value="0.0149023026" flag="0"/>
      <psa30 value="0.0008354453" flag="0"/>
    </comp>
    <comp name="--.HHZ">
      <acc value="0.0137468625" flag="0"/>
      <vel value="0.0105373794" flag="0"/>
      <psa03 value="0.0399049873" flag="0"/>
      <psa10 value="0.0150373131" flag="0"/>
      <psa30 value="0.0011405750" flag="0"/>
    </comp>
    <comp name="--.HHN">
      <acc value="0.0246607099" flag="0"/>
      <vel value="0.0155551110" flag="0"/>
      <psa03 value="0.0581886585" flag="0"/>
      <psa10 value="0.0207148609" flag="0"/>
      <psa30 value="0.0011565998" flag="0"/>
    </comp>
  </station>
</stationlist>
