<stationlist created="1778136138">
	<station code="KRL1" name="KRL1" netid="HI" source="ITSAK Strong Motion Network" insttype="" lat="37.7951" lon="26.7065">
		<comp name="--.HNE" depth="0.0">
			<acc value="0.00851051958389809" flag="0"/>
			<vel value="0.00512421311954526" flag="0"/>
			<psa03 value="0.0266216129378717" flag="0"/>
			<psa10 value="0.00406303978300526" flag="0"/>
			<psa30 value="0.000359279919144722" flag="0"/>
		</comp>
		<comp name="--.HNN" depth="0.0">
			<acc value="0.00582927022040147" flag="0"/>
			<vel value="0.00312106166806908" flag="0"/>
			<psa03 value="0.0150781236303576" flag="0"/>
			<psa10 value="0.0032697604596633" flag="0"/>
			<psa30 value="0.000488584896271528" flag="0"/>
		</comp>
		<comp name="--.HNZ" depth="0.0">
			<acc value="0.00536242437171597" flag="0"/>
			<vel value="0.00284936109953551" flag="0"/>
			<psa03 value="0.0120803957869334" flag="0"/>
			<psa10 value="0.0029435897734161" flag="0"/>
			<psa30 value="0.000304694427070431" flag="0"/>
		</comp>
	</station>
	<station code="MYT1" name="MYT1" netid="HI" source="ITSAK Strong Motion Network" insttype="" lat="39.085" lon="26.5694">
		<comp name="--.HNE" depth="0.0">
			<acc value="0.0278070079580773" flag="0"/>
			<vel value="0.0145027146363363" flag="0"/>
			<psa03 value="0.0750326804988418" flag="0"/>
			<psa10 value="0.0293875761510133" flag="0"/>
			<psa30 value="0.00197447357806433" flag="0"/>
		</comp>
		<comp name="--.HNN" depth="0.0">
			<acc value="0.0268399517504052" flag="0"/>
			<vel value="0.0156589609934458" flag="0"/>
			<psa03 value="0.0633102223648545" flag="0"/>
			<psa10 value="0.0303499810153723" flag="0"/>
			<psa30 value="0.00221921344826628" flag="0"/>
		</comp>
		<comp name="--.HNZ" depth="0.0">
			<acc value="0.0254663374748175" flag="0"/>
			<vel value="0.0127820652279673" flag="0"/>
			<psa03 value="0.0590149705295005" flag="0"/>
			<psa10 value="0.0179152269520222" flag="0"/>
			<psa30 value="0.000993724408991815" flag="0"/>
		</comp>
	</station>
	<station code="EFSA" name="EFSA" netid="HL" source="National Observatory of Athens Seismic Network" insttype="" lat="39.54015" lon="24.98864">
		<comp name="00.HNE" depth="0.0">
			<acc value="0.0106512363921117" flag="0"/>
			<vel value="0.00533896225800028" flag="0"/>
			<psa03 value="0.025189862326087" flag="0"/>
			<psa10 value="0.00698649556344313" flag="0"/>
			<psa30 value="0.00125278178531161" flag="0"/>
		</comp>
		<comp name="00.HNN" depth="0.0">
			<acc value="0.0119719178735462" flag="0"/>
			<vel value="0.00591694187478135" flag="0"/>
			<psa03 value="0.0327960374511932" flag="0"/>
			<psa10 value="0.0073005858539034" flag="0"/>
			<psa30 value="0.000866656542195924" flag="0"/>
		</comp>
		<comp name="00.HNZ" depth="0.0">
			<acc value="0.00921659820214229" flag="0"/>
			<vel value="0.00341586564435366" flag="0"/>
			<psa03 value="0.0165098742421423" flag="0"/>
			<psa10 value="0.00462276478779984" flag="0"/>
			<psa30 value="0.000300220206408603" flag="0"/>
		</comp>
	</station>
	<station code="LIA" name="LIA" netid="HL" source="National Observatory of Athens Seismic Network" insttype="" lat="39.89725" lon="25.18055">
		<comp name="00.HNE" depth="0.0">
			<acc value="0.0163928295258041" flag="0"/>
			<vel value="0.00919455588108231" flag="0"/>
			<psa03 value="0.0483215831477335" flag="0"/>
			<psa10 value="0.00568986641564562" flag="0"/>
			<psa30 value="0.000391494307909878" flag="0"/>
		</comp>
		<comp name="00.HNN" depth="0.0">
			<acc value="0.0159407217150916" flag="0"/>
			<vel value="0.00834097117467028" flag="0"/>
			<psa03 value="0.0497533337595182" flag="0"/>
			<psa10 value="0.00527510616029424" flag="0"/>
			<psa30 value="0.000960615176094294" flag="0"/>
		</comp>
		<comp name="00.HNZ" depth="0.0">
			<acc value="0.009147728751167" flag="0"/>
			<vel value="0.00480842587277984" flag="0"/>
			<psa03 value="0.0301562472607152" flag="0"/>
			<psa10 value="0.0061771090457186" flag="0"/>
			<psa30 value="0.00045771277370492" flag="0"/>
		</comp>
	</station>
	<station code="PRK" name="PRK" netid="HL" source="National Observatory of Athens Seismic Network" insttype="" lat="39.24565" lon="26.26499">
		<comp name="--.HNE" depth="0.0">
			<acc value="0.0576627752120273" flag="0"/>
			<vel value="0.0348530409584628" flag="0"/>
			<psa03 value="0.150602267477103" flag="0"/>
			<psa10 value="0.0839225095318261" flag="0"/>
			<psa30 value="0.00352881783598309" flag="0"/>
		</comp>
		<comp name="--.HNN" depth="0.0">
			<acc value="0.0655929757765459" flag="0"/>
			<vel value="0.0374661715138379" flag="0"/>
			<psa03 value="0.260578611344815" flag="0"/>
			<psa10 value="0.0597013159790247" flag="0"/>
			<psa30 value="0.00283978785406171" flag="0"/>
		</comp>
		<comp name="--.HNZ" depth="0.0">
			<acc value="0.0517504441361075" flag="0"/>
			<vel value="0.0320231128587137" flag="0"/>
			<psa03 value="0.110110570487567" flag="0"/>
			<psa10 value="0.0292667721931439" flag="0"/>
			<psa30 value="0.00211899090544135" flag="0"/>
		</comp>
	</station>
	<station code="SMG" name="SMG" netid="HL" source="National Observatory of Athens Seismic Network" insttype="" lat="37.70425" lon="26.83772">
		<comp name="00.HNE" depth="0.0">
			<acc value="0.00774244089942071" flag="0"/>
			<vel value="0.00526039282950903" flag="0"/>
			<psa03 value="0.0293508875415863" flag="0"/>
			<psa10 value="0.00667240527298287" flag="0"/>
			<psa30 value="0.000341830458563596" flag="0"/>
		</comp>
		<comp name="00.HNN" depth="0.0">
			<acc value="0.00882799305511003" flag="0"/>
			<vel value="0.0052243985334807" flag="0"/>
			<psa03 value="0.0221921344826628" flag="0"/>
			<psa10 value="0.00462276478779984" flag="0"/>
			<psa30 value="0.000214762591767704" flag="0"/>
		</comp>
		<comp name="00.HNZ" depth="0.0">
			<acc value="0.00474556480303128" flag="0"/>
			<vel value="0.00230936023464123" flag="0"/>
			<psa03 value="0.0140937950847556" flag="0"/>
			<psa10 value="0.00143756709864507" flag="0"/>
			<psa30 value="0.000175836872009808" flag="0"/>
		</comp>
	</station>
	<station code="BIGA" name="BIGA" netid="KO" source="Bogazici University Kandilli Observatory And Earthquake Research Institute (KOERI)" insttype="" lat="40.28134" lon="27.15048">
		<comp name="--.HNE" depth="0.0">
			<acc value="0.0340420786488678" flag="0"/>
			<vel value="0.019148269691725" flag="0"/>
			<psa03 value="0.088410600277705" flag="0"/>
			<psa10 value="0.0230695291544471" flag="0"/>
			<psa30 value="0.00288318779448143" flag="0"/>
		</comp>
		<comp name="--.HNN" depth="0.0">
			<acc value="0.0363389243575878" flag="0"/>
			<vel value="0.0196218876802622" flag="0"/>
			<psa03 value="0.0917215235674571" flag="0"/>
			<psa10 value="0.0366881620049167" flag="0"/>
			<psa30 value="0.00211183215238243" flag="0"/>
		</comp>
		<comp name="--.HNZ" depth="0.0">
			<acc value="0.0209045627561674" flag="0"/>
			<vel value="0.00843180299300722" flag="0"/>
			<psa03 value="0.0463976682631478" flag="0"/>
			<psa10 value="0.016683026581755" flag="0"/>
			<psa30 value="0.0021641805341258" flag="0"/>
		</comp>
	</station>
	<station code="DIDI" name="DIDI" netid="KO" source="Bogazici University Kandilli Observatory And Earthquake Research Institute (KOERI)" insttype="" lat="37.3767" lon="27.2398">
		<comp name="--.HNE" depth="0.0">
			<acc value="0.0056480317432699" flag="0"/>
			<vel value="0.0033816624010723" flag="0"/>
			<psa03 value="0.0099775120758746" flag="0"/>
			<psa10 value="0.00310466171724188" flag="0"/>
			<psa30 value="0.000735114454738205" flag="0"/>
		</comp>
		<comp name="--.HNN" depth="0.0">
			<acc value="0.0059677019151782" flag="0"/>
			<vel value="0.00316340414557197" flag="0"/>
			<psa03 value="0.0104249341420573" flag="0"/>
			<psa10 value="0.00525094536872037" flag="0"/>
			<psa30 value="0.000509613733382115" flag="0"/>
		</comp>
		<comp name="--.HNZ" depth="0.0">
			<acc value="0.0114127668084546" flag="0"/>
			<vel value="0.00247390011369844" flag="0"/>
			<psa03 value="0.00572700244713878" flag="0"/>
			<psa10 value="0.00191675613152676" flag="0"/>
			<psa30 value="0.000405811814027725" flag="0"/>
		</comp>
	</station>
	<station code="ENZZ" name="ENZZ" netid="KO" source="Bogazici University Kandilli Observatory And Earthquake Research Institute (KOERI)" insttype="" lat="40.607" lon="26.1406">
		<comp name="--.HNE" depth="0.0">
			<acc value="0.0628886165665263" flag="0"/>
			<vel value="0.0564279676373455" flag="0"/>
			<psa03 value="0.142280217046104" flag="0"/>
			<psa10 value="0.0505041079865728" flag="0"/>
			<psa30 value="0.00380800920528111" flag="0"/>
		</comp>
		<comp name="--.HNN" depth="0.0">
			<acc value="0.0631350070822457" flag="0"/>
			<vel value="0.0387231823259882" flag="0"/>
			<psa03 value="0.16930450984354" flag="0"/>
			<psa10 value="0.044963233118966" flag="0"/>
			<psa30 value="0.00563886030010079" flag="0"/>
		</comp>
		<comp name="--.HNZ" depth="0.0">
			<acc value="0.0263313316609564" flag="0"/>
			<vel value="0.016919411664103" flag="0"/>
			<psa03 value="0.0616995029265968" flag="0"/>
			<psa10 value="0.0158373988766697" flag="0"/>
			<psa30 value="0.00239684000854082" flag="0"/>
		</comp>
	</station>
	<station code="EZNE" name="EZNE" netid="KO" source="Bogazici University Kandilli Observatory And Earthquake Research Institute (KOERI)" insttype="" lat="39.756" lon="26.3655">
		<comp name="--.HNE" depth="0.0">
			<acc value="0.127725318084304" flag="0"/>
			<vel value="0.0731513672317848" flag="0"/>
			<psa03 value="0.309705554211677" flag="0"/>
			<psa10 value="0.0642314643991247" flag="0"/>
			<psa30 value="0.00392299667629007" flag="0"/>
		</comp>
		<comp name="--.HNN" depth="0.0">
			<acc value="0.258640449118202" flag="0"/>
			<vel value="0.138077930167916" flag="0"/>
			<psa03 value="0.613281426116651" flag="0"/>
			<psa10 value="0.0826178267868373" flag="0"/>
			<psa30 value="0.00618829459737317" flag="0"/>
		</comp>
		<comp name="--.HNZ" depth="0.0">
			<acc value="0.135139048748987" flag="0"/>
			<vel value="0.0460021625404284" flag="0"/>
			<psa03 value="0.295790727953395" flag="0"/>
			<psa10 value="0.0510235650054109" flag="0"/>
			<psa30 value="0.00431941262692795" flag="0"/>
		</comp>
	</station>
	<station code="GOMA" name="GOMA" netid="KO" source="Bogazici University Kandilli Observatory And Earthquake Research Institute (KOERI)" insttype="" lat="38.7077" lon="27.9175">
		<comp name="--.HNE" depth="0.0">
			<acc value="0.0029514540316395" flag="0"/>
			<vel value="0.00215973150439907" flag="0"/>
			<psa03 value="0.00850101925747163" flag="0"/>
			<psa10 value="0.00434894248329601" flag="0"/>
			<psa30 value="0.000328855218644297" flag="0"/>
		</comp>
		<comp name="--.HNN" depth="0.0">
			<acc value="0.00335636455791237" flag="0"/>
			<vel value="0.00286751362667907" flag="0"/>
			<psa03 value="0.00953009000969188" flag="0"/>
			<psa10 value="0.0051261146122554" flag="0"/>
			<psa30 value="0.000346752101291606" flag="0"/>
		</comp>
		<comp name="--.HNZ" depth="0.0">
			<acc value="0.00240999971311701" flag="0"/>
			<vel value="0.00139526187245655" flag="0"/>
			<psa03 value="0.00331092328975211" flag="0"/>
			<psa10 value="0.00303217934252028" flag="0"/>
			<psa30 value="0.000243397604003398" flag="0"/>
		</comp>
	</station>
	<station code="GONE" name="GONE" netid="KO" source="Bogazici University Kandilli Observatory And Earthquake Research Institute (KOERI)" insttype="" lat="40.0466" lon="27.686">
		<comp name="--.HNE" depth="0.0">
			<acc value="0.0141204486357956" flag="0"/>
			<vel value="0.0108678864474763" flag="0"/>
			<psa03 value="0.0487690052139162" flag="0"/>
			<psa10 value="0.0213017645709592" flag="0"/>
			<psa30 value="0.00167693790405283" flag="0"/>
		</comp>
		<comp name="--.HNN" depth="0.0">
			<acc value="0.0269029520243647" flag="0"/>
			<vel value="0.0243836694832054" flag="0"/>
			<psa03 value="0.0576727043309523" flag="0"/>
			<psa10 value="0.0454826901378041" flag="0"/>
			<psa30 value="0.00201474156402078" flag="0"/>
		</comp>
		<comp name="--.HNZ" depth="0.0">
			<acc value="0.0138755506968849" flag="0"/>
			<vel value="0.00721934460024257" flag="0"/>
			<psa03 value="0.0260847064584524" flag="0"/>
			<psa10 value="0.00835560708596225" flag="0"/>
			<psa30 value="0.00123264779233339" flag="0"/>
		</comp>
	</station>
	<station code="GORD" name="GORD" netid="KO" source="Bogazici University Kandilli Observatory And Earthquake Research Institute (KOERI)" insttype="" lat="38.9088" lon="28.1769">
		<comp name="--.HNE" depth="0.0">
			<acc value="0.0185255383776121" flag="0"/>
			<vel value="0.017287757957122" flag="0"/>
			<psa03 value="0.0237581117143023" flag="0"/>
			<psa10 value="0.032266737146899" flag="0"/>
			<psa30 value="0.00216149600172871" flag="0"/>
		</comp>
		<comp name="--.HNN" depth="0.0">
			<acc value="0.0140666399965603" flag="0"/>
			<vel value="0.0147384427679904" flag="0"/>
			<psa03 value="0.0262189330783073" flag="0"/>
			<psa10 value="0.029435897734161" flag="0"/>
			<psa30 value="0.00185411704226118" flag="0"/>
		</comp>
		<comp name="--.HNZ" depth="0.0">
			<acc value="0.0101976529462808" flag="0"/>
			<vel value="0.00838959439082522" flag="0"/>
			<psa03 value="0.0164203898289057" flag="0"/>
			<psa10 value="0.0136427936420434" flag="0"/>
			<psa30 value="0.00145412171509383" flag="0"/>
		</comp>
	</station>
	<station code="KRBN" name="KRBN" netid="KO" source="Bogazici University Kandilli Observatory And Earthquake Research Institute (KOERI)" insttype="" lat="38.5936" lon="26.5537">
		<comp name="--.HNE" depth="0.0">
			<acc value="0.175085384879697" flag="0"/>
			<vel value="0.100015276156755" flag="0"/>
			<psa03 value="0.49422241430543" flag="0"/>
			<psa10 value="0.0798151749642688" flag="0"/>
			<psa30 value="0.00466169050755773" flag="0"/>
		</comp>
		<comp name="--.HNN" depth="0.0">
			<acc value="0.155670599452701" flag="0"/>
			<vel value="0.0852097243927563" flag="0"/>
			<psa03 value="0.27337488243764" flag="0"/>
			<psa10 value="0.0930271011565783" flag="0"/>
			<psa30 value="0.00833636793711639" flag="0"/>
		</comp>
		<comp name="--.HNZ" depth="0.0">
			<acc value="0.139074262140969" flag="0"/>
			<vel value="0.0782506953513971" flag="0"/>
			<psa03 value="0.257178203641826" flag="0"/>
			<psa10 value="0.0741454425416014" flag="0"/>
			<psa30 value="0.00459099782110086" flag="0"/>
		</comp>
	</station>
	<station code="KUSD" name="KUSD" netid="KO" source="Bogazici University Kandilli Observatory And Earthquake Research Institute (KOERI)" insttype="" lat="37.8606" lon="27.2868">
		<comp name="--.HNE" depth="0.0">
			<acc value="0.0131762540232152" flag="0"/>
			<vel value="0.0104963411196687" flag="0"/>
			<psa03 value="0.0270242927974361" flag="0"/>
			<psa10 value="0.0152132450943448" flag="0"/>
			<psa30 value="0.00269034888395668" flag="0"/>
		</comp>
		<comp name="--.HNN" depth="0.0">
			<acc value="0.0172916850141318" flag="0"/>
			<vel value="0.012093529498044" flag="0"/>
			<psa03 value="0.0297535674011507" flag="0"/>
			<psa10 value="0.0252238664031169" flag="0"/>
			<psa30 value="0.00178297693373813" flag="0"/>
		</comp>
		<comp name="--.HNZ" depth="0.0">
			<acc value="0.00729873941321739" flag="0"/>
			<vel value="0.00609639975623672" flag="0"/>
			<psa03 value="0.0165546164487606" flag="0"/>
			<psa10 value="0.0113676524355043" flag="0"/>
			<psa30 value="0.00181250679010619" flag="0"/>
		</comp>
	</station>
	<station code="ODEM" name="ODEM" netid="KO" source="Bogazici University Kandilli Observatory And Earthquake Research Institute (KOERI)" insttype="" lat="38.2762" lon="28.0747">
		<comp name="--.HNE" depth="0.0">
			<acc value="0.00734035584863131" flag="0"/>
			<vel value="0.00686268837161296" flag="0"/>
			<psa03 value="0.0174942027877443" flag="0"/>
			<psa10 value="0.00791265924044136" flag="0"/>
			<psa30 value="0.00153599995320527" flag="0"/>
		</comp>
		<comp name="--.HNN" depth="0.0">
			<acc value="0.014170560904156" flag="0"/>
			<vel value="0.0125288351865205" flag="0"/>
			<psa03 value="0.0286797544423122" flag="0"/>
			<psa10 value="0.00914888640930421" flag="0"/>
			<psa30 value="0.00264426441113986" flag="0"/>
		</comp>
		<comp name="--.HNZ" depth="0.0">
			<acc value="0.00651887788117231" flag="0"/>
			<vel value="0.00646213966993779" flag="0"/>
			<psa03 value="0.020089250771604" flag="0"/>
			<psa10 value="0.0123985128759893" flag="0"/>
			<psa30 value="0.00147157117567496" flag="0"/>
		</comp>
	</station>
	<station code="SOMA" name="SOMA" netid="KO" source="Bogazici University Kandilli Observatory And Earthquake Research Institute (KOERI)" insttype="" lat="39.1564" lon="27.5341">
		<comp name="--.HNE" depth="0.0">
			<acc value="0.0193003282885343" flag="0"/>
			<vel value="0.0142686907595648" flag="0"/>
			<psa03 value="0.0493059116933355" flag="0"/>
			<psa10 value="0.0174360379191405" flag="0"/>
			<psa30 value="0.00160221841900031" flag="0"/>
		</comp>
		<comp name="--.HNN" depth="0.0">
			<acc value="0.0270406034843141" flag="0"/>
			<vel value="0.0169185253214881" flag="0"/>
			<psa03 value="0.0948534780307361" flag="0"/>
			<psa10 value="0.0265527099396796" flag="0"/>
			<psa30 value="0.0015740308288308" flag="0"/>
		</comp>
		<comp name="--.HNZ" depth="0.0">
			<acc value="0.0175634369491589" flag="0"/>
			<vel value="0.010109535404415" flag="0"/>
			<psa03 value="0.0727508279613099" flag="0"/>
			<psa10 value="0.0119555650304684" flag="0"/>
			<psa30 value="0.00156642465370569" flag="0"/>
		</comp>
	</station>
	<station code="SUSR" name="SUSR" netid="KO" source="Bogazici University Kandilli Observatory And Earthquake Research Institute (KOERI)" insttype="" lat="39.9627" lon="28.0835">
		<comp name="--.HNE" depth="0.0">
			<acc value="0.0116403933065618" flag="0"/>
			<vel value="0.00910854449697846" flag="0"/>
			<psa03 value="0.0448764332381266" flag="0"/>
			<psa10 value="0.00804957039269327" flag="0"/>
			<psa30 value="0.00171317909141363" flag="0"/>
		</comp>
		<comp name="--.HNN" depth="0.0">
			<acc value="0.0184937184721339" flag="0"/>
			<vel value="0.0101280243993639" flag="0"/>
			<psa03 value="0.062728573678817" flag="0"/>
			<psa10 value="0.0085045986340011" flag="0"/>
			<psa30 value="0.00113779431430265" flag="0"/>
		</comp>
		<comp name="--.HNZ" depth="0.0">
			<acc value="0.0124444988900938" flag="0"/>
			<vel value="0.00674059793058342" flag="0"/>
			<psa03 value="0.036554382807128" flag="0"/>
			<psa10 value="0.00529524015327246" flag="0"/>
			<psa30 value="0.000807149407393622" flag="0"/>
		</comp>
	</station>
	<station code="YENI" name="YENI" netid="KO" source="Bogazici University Kandilli Observatory And Earthquake Research Institute (KOERI)" insttype="" lat="39.9364" lon="27.24216">
		<comp name="--.HNE" depth="0.0">
			<acc value="0.14811268936008" flag="0"/>
			<vel value="0.0666391949896443" flag="0"/>
			<psa03 value="0.529300304294155" flag="0"/>
			<psa10 value="0.0552275427392637" flag="0"/>
			<psa30 value="0.0040773572891231" flag="0"/>
		</comp>
		<comp name="--.HNN" depth="0.0">
			<acc value="0.105496596070663" flag="0"/>
			<vel value="0.0679805876503824" flag="0"/>
			<psa03 value="0.260891806791143" flag="0"/>
			<psa10 value="0.0473954194707353" flag="0"/>
			<psa30 value="0.00337132526868678" flag="0"/>
		</comp>
		<comp name="--.HNZ" depth="0.0">
			<acc value="0.0383754514271193" flag="0"/>
			<vel value="0.021815607953121" flag="0"/>
			<psa03 value="0.171452135761217" flag="0"/>
			<psa10 value="0.0228198676415171" flag="0"/>
			<psa30 value="0.0030236783232628" flag="0"/>
		</comp>
	</station>
</stationlist>
