<?xml version="1.0" encoding="UTF-8" standalone="yes"?>
<!DOCTYPE earthquake SYSTEM "stationlist.dtd">
<stationlist created="" xmlns="ch.ethz.sed.shakemap.usgs.xml">
  <station code="MYT1" name="MYT1" netid="HI" insttype="CMG-5TD,ACCELEROMETER,GURALP" lat="39.085" lon="26.5694">
    <comp name="--.HNE">
      <acc value="0.0278599593" flag="0"/>
      <vel value="0.0144016463" flag="0"/>
      <psa03 value="0.0742456056" flag="0"/>
      <psa10 value="0.0294057321" flag="0"/>
      <psa30 value="0.0018809231" flag="0"/>
    </comp>
    <comp name="--.HNZ">
      <acc value="0.0256104183" flag="0"/>
      <vel value="0.0128182568" flag="0"/>
      <psa03 value="0.0583540953" flag="0"/>
      <psa10 value="0.0178705835" flag="0"/>
      <psa30 value="0.0009789419" flag="0"/>
    </comp>
    <comp name="--.HNN">
      <acc value="0.0268164259" flag="0"/>
      <vel value="0.0151691050" flag="0"/>
      <psa03 value="0.0644352844" flag="0"/>
      <psa10 value="0.0302325560" flag="0"/>
      <psa30 value="0.0019097954" flag="0"/>
    </comp>
  </station>
  <station code="PRK" name="PRK" netid="HL" insttype="120" lat="39.2456" lon="26.265">
    <comp name="--.HHN">
      <acc value="0.0546829883" flag="0"/>
      <vel value="0.0349632564" flag="0"/>
      <psa03 value="0.2269145433" flag="0"/>
      <psa10 value="0.0424378511" flag="0"/>
      <psa30 value="0.0020532311" flag="0"/>
    </comp>
    <comp name="--.HHE">
      <acc value="0.0672888650" flag="0"/>
      <vel value="0.0416582507" flag="0"/>
      <psa03 value="0.1654918725" flag="0"/>
      <psa10 value="0.0968049744" flag="0"/>
      <psa30 value="0.0039559705" flag="0"/>
    </comp>
    <comp name="--.HHZ">
      <acc value="0.0515812258" flag="0"/>
      <vel value="0.0312760423" flag="0"/>
      <psa03 value="0.1091278834" flag="0"/>
      <psa10 value="0.0294381620" flag="0"/>
      <psa30 value="0.0020819810" flag="0"/>
    </comp>
  </station>
  <station code="CHOS" name="CHOS" netid="HT" insttype="100" lat="38.3869" lon="26.0506">
    <comp name="--.HHE">
      <acc value="0.0776848905" flag="0"/>
      <vel value="0.0275542920" flag="0"/>
      <psa03 value="0.1374218216" flag="0"/>
      <psa10 value="0.0137363836" flag="0"/>
      <psa30 value="0.0010749221" flag="0"/>
    </comp>
    <comp name="--.HHZ">
      <acc value="0.0431340860" flag="0"/>
      <vel value="0.0121699740" flag="0"/>
      <psa03 value="0.0684161346" flag="0"/>
      <psa10 value="0.0063514703" flag="0"/>
      <psa30 value="0.0006142212" flag="0"/>
    </comp>
    <comp name="--.HHN">
      <acc value="0.0621099944" flag="0"/>
      <vel value="0.0207781146" flag="0"/>
      <psa03 value="0.1237072195" flag="0"/>
      <psa10 value="0.0169721052" flag="0"/>
      <psa30 value="0.0007914726" flag="0"/>
    </comp>
  </station>
  <station code="EZN" name="EZN" netid="KO" insttype="120s," lat="39.8255" lon="26.3247">
    <comp name="--.HHE">
      <acc value="0.0356644018" flag="0"/>
      <vel value="0.0346367345" flag="0"/>
      <psa03 value="0.0589371144" flag="0"/>
      <psa10 value="0.0384885875" flag="0"/>
      <psa30 value="0.0028665854" flag="0"/>
    </comp>
    <comp name="--.HHN">
      <acc value="0.0350086220" flag="0"/>
      <vel value="0.0150866685" flag="0"/>
      <psa03 value="0.0511367801" flag="0"/>
      <psa10 value="0.0148825368" flag="0"/>
      <psa30 value="0.0012090894" flag="0"/>
    </comp>
    <comp name="--.HHZ">
      <acc value="0.0247614917" flag="0"/>
      <vel value="0.0123881055" flag="0"/>
      <psa03 value="0.0567948729" flag="0"/>
      <psa10 value="0.0170334105" flag="0"/>
      <psa30 value="0.0012877052" flag="0"/>
    </comp>
  </station>
  <station code="KRBN" name="KRBN" netid="KO" insttype="100" lat="38.5936" lon="26.5537">
    <comp name="--.HNZ">
      <acc value="0.0222579350" flag="0"/>
      <vel value="0.0126508766" flag="0"/>
      <psa03 value="0.0403479085" flag="0"/>
      <psa10 value="0.0117824962" flag="0"/>
      <psa30 value="0.0006786428" flag="0"/>
    </comp>
    <comp name="--.HNN">
      <acc value="0.0248287196" flag="0"/>
      <vel value="0.0133497360" flag="0"/>
      <psa03 value="0.0436198843" flag="0"/>
      <psa10 value="0.0147890703" flag="0"/>
      <psa30 value="0.0012790580" flag="0"/>
    </comp>
    <comp name="--.HNE">
      <acc value="0.0280714523" flag="0"/>
      <vel value="0.0159571782" flag="0"/>
      <psa03 value="0.0786321849" flag="0"/>
      <psa10 value="0.0127162568" flag="0"/>
      <psa30 value="0.0006527167" flag="0"/>
    </comp>
  </station>
</stationlist>
