<?xml version="1.0" encoding="UTF-8" standalone="yes"?>
<!DOCTYPE earthquake SYSTEM "stationlist.dtd">
<stationlist created="" xmlns="ch.ethz.sed.shakemap.usgs.xml">
  <station code="MYT1" name="MYT1" netid="HI" insttype="CMG-5TD,ACCELEROMETER,GURALP" lat="39.085" lon="26.5694">
    <comp name="--.HNN">
      <acc value="0.0150983322" flag="0"/>
      <vel value="0.0081096051" flag="0"/>
      <psa03 value="0.0264766659" flag="0"/>
      <psa10 value="0.0104560502" flag="0"/>
      <psa30 value="0.0007262885" flag="0"/>
    </comp>
    <comp name="--.HNE">
      <acc value="0.0382606259" flag="0"/>
      <vel value="0.0104551847" flag="0"/>
      <psa03 value="0.0472383088" flag="0"/>
      <psa10 value="0.0074478042" flag="0"/>
      <psa30 value="0.0006155046" flag="0"/>
    </comp>
    <comp name="--.HNZ">
      <acc value="0.0306788575" flag="0"/>
      <vel value="0.0086124933" flag="0"/>
      <psa03 value="0.0246138221" flag="0"/>
      <psa10 value="0.0098970766" flag="0"/>
      <psa30 value="0.0005522976" flag="0"/>
    </comp>
  </station>
  <station code="PRK" name="PRK" netid="HL" insttype="120" lat="39.2456" lon="26.265">
    <comp name="--.HHE">
      <acc value="0.0464386623" flag="0"/>
      <vel value="0.0165043577" flag="0"/>
      <psa03 value="0.0694343809" flag="0"/>
      <psa10 value="0.0219264939" flag="0"/>
      <psa30 value="0.0011824632" flag="0"/>
    </comp>
    <comp name="--.HHZ">
      <acc value="0.0532314834" flag="0"/>
      <vel value="0.0179515220" flag="0"/>
      <psa03 value="0.0542301759" flag="0"/>
      <psa10 value="0.0099154825" flag="0"/>
      <psa30 value="0.0005509912" flag="0"/>
    </comp>
    <comp name="--.HHN">
      <acc value="0.0559212565" flag="0"/>
      <vel value="0.0234473275" flag="0"/>
      <psa03 value="0.0763396200" flag="0"/>
      <psa10 value="0.0268762110" flag="0"/>
      <psa30 value="0.0011491073" flag="0"/>
    </comp>
  </station>
  <station code="CHOS" name="CHOS" netid="HT" insttype="100" lat="38.3869" lon="26.0506">
    <comp name="--.HHN">
      <acc value="0.0445021519" flag="0"/>
      <vel value="0.0093964208" flag="0"/>
      <psa03 value="0.0452125779" flag="0"/>
      <psa10 value="0.0042752114" flag="0"/>
      <psa30 value="0.0002526838" flag="0"/>
    </comp>
    <comp name="--.HHE">
      <acc value="0.0637407586" flag="0"/>
      <vel value="0.0196427874" flag="0"/>
      <psa03 value="0.0690397051" flag="0"/>
      <psa10 value="0.0051274336" flag="0"/>
      <psa30 value="0.0003293313" flag="0"/>
    </comp>
    <comp name="--.HHZ">
      <acc value="0.0186923453" flag="0"/>
      <vel value="0.0040776851" flag="0"/>
      <psa03 value="0.0149365057" flag="0"/>
      <psa10 value="0.0021647851" flag="0"/>
      <psa30 value="0.0002096320" flag="0"/>
    </comp>
  </station>
</stationlist>
