<?xml version="1.0" encoding="UTF-8" standalone="yes"?>
<!DOCTYPE earthquake SYSTEM "stationlist.dtd">
<stationlist created="" xmlns="ch.ethz.sed.shakemap.usgs.xml">
  <station code="AKS" name="AKS" netid="KO" insttype="CMG-5T" commtype="DIG" lat="38.8785" lon="27.8129">
    <comp name="--.HNZ">
      <acc value="0.0446743052" flag="0"/>
      <vel value="0.0083459863" flag="0"/>
      <psa03 value="0.0336536277" flag="0"/>
      <psa10 value="0.0041926203" flag="0"/>
      <psa30 value="0.0006984927" flag="0"/>
    </comp>
    <comp name="--.HNN">
      <acc value="0.0696209329" flag="0"/>
      <vel value="0.0142831841" flag="0"/>
      <psa03 value="0.0648252229" flag="0"/>
      <psa10 value="0.0049836759" flag="0"/>
      <psa30 value="0.0010232457" flag="0"/>
    </comp>
    <comp name="--.HNE">
      <acc value="0.0644254844" flag="0"/>
      <vel value="0.0138355592" flag="0"/>
      <psa03 value="0.0663397207" flag="0"/>
      <psa10 value="0.0079688230" flag="0"/>
      <psa30 value="0.0008233670" flag="0"/>
    </comp>
  </station>
  <station code="BALB" name="BALB" netid="KO" insttype="CMG-5T" commtype="DIG" lat="39.6507" lon="27.8642">
    <comp name="--.HNE">
      <acc value="0.0192900866" flag="0"/>
      <vel value="0.0090702548" flag="0"/>
      <psa03 value="0.0356055777" flag="0"/>
      <psa10 value="0.0108585790" flag="0"/>
      <psa30 value="0.0006208910" flag="0"/>
    </comp>
    <comp name="--.HNZ">
      <acc value="0.0142975178" flag="0"/>
      <vel value="0.0046067328" flag="0"/>
      <psa03 value="0.0170946546" flag="0"/>
      <psa10 value="0.0037670134" flag="0"/>
      <psa30 value="0.0003536886" flag="0"/>
    </comp>
    <comp name="--.HNN">
      <acc value="0.0193348531" flag="0"/>
      <vel value="0.0109301401" flag="0"/>
      <psa03 value="0.0402601708" flag="0"/>
      <psa10 value="0.0092878532" flag="0"/>
      <psa30 value="0.0009720738" flag="0"/>
    </comp>
  </station>
  <station code="DST" name="DST" netid="KO" insttype="CMG-5T" commtype="DIG" lat="39.6041" lon="28.6267">
    <comp name="--.HNE">
      <acc value="0.0508940405" flag="0"/>
      <vel value="0.0162753561" flag="0"/>
      <psa03 value="0.0988923843" flag="0"/>
      <psa10 value="0.0087939144" flag="0"/>
      <psa30 value="0.0007041347" flag="0"/>
    </comp>
    <comp name="--.HNN">
      <acc value="0.0550119108" flag="0"/>
      <vel value="0.0225305118" flag="0"/>
      <psa03 value="0.0950307585" flag="0"/>
      <psa10 value="0.0073721395" flag="0"/>
      <psa30 value="0.0010232663" flag="0"/>
    </comp>
    <comp name="--.HNZ">
      <acc value="0.0376491217" flag="0"/>
      <vel value="0.0163871508" flag="0"/>
      <psa03 value="0.0880827585" flag="0"/>
      <psa10 value="0.0052575494" flag="0"/>
      <psa30 value="0.0003717792" flag="0"/>
    </comp>
  </station>
  <station code="GOMA" name="GOMA" netid="KO" insttype="CMG-5T" commtype="DIG" lat="38.7077" lon="27.9175">
    <comp name="--.HNN">
      <acc value="0.0441004594" flag="0"/>
      <vel value="0.0189151885" flag="0"/>
      <psa03 value="0.0566257448" flag="0"/>
      <psa10 value="0.0052608980" flag="0"/>
      <psa30 value="0.0006671477" flag="0"/>
    </comp>
    <comp name="--.HNE">
      <acc value="0.0300640857" flag="0"/>
      <vel value="0.0189005332" flag="0"/>
      <psa03 value="0.0751161370" flag="0"/>
      <psa10 value="0.0101502323" flag="0"/>
      <psa30 value="0.0006594058" flag="0"/>
    </comp>
    <comp name="--.HNZ">
      <acc value="0.0446891797" flag="0"/>
      <vel value="0.0151246677" flag="0"/>
      <psa03 value="0.0512248516" flag="0"/>
      <psa10 value="0.0034937949" flag="0"/>
      <psa30 value="0.0005734335" flag="0"/>
    </comp>
  </station>
  <station code="GONE" name="GONE" netid="KO" insttype="CMG-5T" commtype="DIG" lat="40.0466" lon="27.686">
    <comp name="--.HNZ">
      <acc value="0.0110162815" flag="0"/>
      <vel value="0.0029819608" flag="0"/>
      <psa03 value="0.0094471191" flag="0"/>
      <psa10 value="0.0041661824" flag="0"/>
      <psa30 value="0.0002752962" flag="0"/>
    </comp>
    <comp name="--.HNE">
      <acc value="0.0151989043" flag="0"/>
      <vel value="0.0080080401" flag="0"/>
      <psa03 value="0.0235516509" flag="0"/>
      <psa10 value="0.0075617334" flag="0"/>
      <psa30 value="0.0004546091" flag="0"/>
    </comp>
    <comp name="--.HNN">
      <acc value="0.0212195737" flag="0"/>
      <vel value="0.0103819433" flag="0"/>
      <psa03 value="0.0294944870" flag="0"/>
      <psa10 value="0.0106132122" flag="0"/>
      <psa30 value="0.0004746573" flag="0"/>
    </comp>
  </station>
  <station code="GORD" name="GORD" netid="KO" insttype="CMG-5T" commtype="DIG" lat="38.9088" lon="28.1769">
    <comp name="--.HNN">
      <acc value="0.0618119858" flag="0"/>
      <vel value="0.0249325134" flag="0"/>
      <psa03 value="0.0800446665" flag="0"/>
      <psa10 value="0.0362690915" flag="0"/>
      <psa30 value="0.0018683192" flag="0"/>
    </comp>
    <comp name="--.HNZ">
      <acc value="0.0515274896" flag="0"/>
      <vel value="0.0206028873" flag="0"/>
      <psa03 value="0.0704474380" flag="0"/>
      <psa10 value="0.0221706233" flag="0"/>
      <psa30 value="0.0024595124" flag="0"/>
    </comp>
    <comp name="--.HNE">
      <acc value="0.0434425271" flag="0"/>
      <vel value="0.0262772198" flag="0"/>
      <psa03 value="0.0845458222" flag="0"/>
      <psa10 value="0.0261521353" flag="0"/>
      <psa30 value="0.0015534305" flag="0"/>
    </comp>
  </station>
  <station code="KCTX" name="KCTX" netid="KO" insttype="CMG-3ESP" commtype="DIG" lat="40.2626" lon="28.3353">
    <comp name="--.HHE">
      <acc value="0.0143018323" flag="0"/>
      <vel value="0.0055061030" flag="0"/>
      <psa03 value="0.0386016654" flag="0"/>
      <psa10 value="0.0053782178" flag="0"/>
      <psa30 value="0.0002720643" flag="0"/>
    </comp>
    <comp name="--.HHZ">
      <acc value="0.0122977330" flag="0"/>
      <vel value="0.0055820354" flag="0"/>
      <psa03 value="0.0352764038" flag="0"/>
      <psa10 value="0.0030773043" flag="0"/>
      <psa30 value="0.0002905431" flag="0"/>
    </comp>
  </station>
  <station code="KULA" name="KULA" netid="KO" insttype="CMG-3T" commtype="DIG" lat="38.5145" lon="28.6607">
    <comp name="--.HHE">
      <acc value="0.0486969264" flag="0"/>
      <vel value="0.0125833984" flag="0"/>
      <psa03 value="0.0407045039" flag="0"/>
      <psa10 value="0.0076717705" flag="0"/>
      <psa30 value="0.0005451362" flag="0"/>
    </comp>
    <comp name="--.HHN">
      <acc value="0.0475073911" flag="0"/>
      <vel value="0.0120843766" flag="0"/>
      <psa03 value="0.0393972323" flag="0"/>
      <psa10 value="0.0028619985" flag="0"/>
      <psa30 value="0.0003340692" flag="0"/>
    </comp>
    <comp name="--.HHZ">
      <acc value="0.0287142649" flag="0"/>
      <vel value="0.0063093098" flag="0"/>
      <psa03 value="0.0363517177" flag="0"/>
      <psa10 value="0.0033121615" flag="0"/>
      <psa30 value="0.0003386561" flag="0"/>
    </comp>
  </station>
  <station code="ORLT" name="ORLT" netid="KO" insttype="CMG-5T" commtype="DIG" lat="40.0452" lon="28.8914">
    <comp name="--.HNE">
      <acc value="0.0356160854" flag="0"/>
      <vel value="0.0197713625" flag="0"/>
      <psa03 value="0.1270519740" flag="0"/>
      <psa10 value="0.0171136515" flag="0"/>
      <psa30 value="0.0007915186" flag="0"/>
    </comp>
    <comp name="--.HNN">
      <acc value="0.0463455183" flag="0"/>
      <vel value="0.0257780779" flag="0"/>
      <psa03 value="0.1340144654" flag="0"/>
      <psa10 value="0.0226907767" flag="0"/>
      <psa30 value="0.0010616978" flag="0"/>
    </comp>
    <comp name="--.HNZ">
      <acc value="0.0195560049" flag="0"/>
      <vel value="0.0088595666" flag="0"/>
      <psa03 value="0.0644712069" flag="0"/>
      <psa10 value="0.0110562408" flag="0"/>
      <psa30 value="0.0005923728" flag="0"/>
    </comp>
  </station>
  <station code="SHAP" name="SHAP" netid="KO" insttype="CMG-5T" commtype="DIG" lat="39.0231" lon="29.222">
    <comp name="--.HNE">
      <acc value="0.1222475978" flag="0"/>
      <vel value="0.0239169033" flag="0"/>
      <psa03 value="0.1076358981" flag="0"/>
      <psa10 value="0.0057373036" flag="0"/>
      <psa30 value="0.0003974603" flag="0"/>
    </comp>
    <comp name="--.HNZ">
      <acc value="0.0730232285" flag="0"/>
      <vel value="0.0131577327" flag="0"/>
      <psa03 value="0.0224794334" flag="0"/>
      <psa10 value="0.0026879715" flag="0"/>
      <psa30 value="0.0002573419" flag="0"/>
    </comp>
    <comp name="--.HNN">
      <acc value="0.1511353309" flag="0"/>
      <vel value="0.0338760834" flag="0"/>
      <psa03 value="0.1172559737" flag="0"/>
      <psa10 value="0.0082733433" flag="0"/>
      <psa30 value="0.0005840800" flag="0"/>
    </comp>
  </station>
  <station code="SIMA" name="SIMA" netid="KO" insttype="CMG-6T" commtype="DIG" lat="39.0833" lon="28.9825">
    <comp name="--.HHE">
      <acc value="0.0914554851" flag="0"/>
      <vel value="0.0157288130" flag="0"/>
      <psa03 value="0.1090650753" flag="0"/>
      <psa10 value="0.0055786889" flag="0"/>
      <psa30 value="0.0005616881" flag="0"/>
    </comp>
    <comp name="--.HHN">
      <acc value="0.0895705144" flag="0"/>
      <vel value="0.0195658366" flag="0"/>
      <psa03 value="0.1177481824" flag="0"/>
      <psa10 value="0.0049994062" flag="0"/>
      <psa30 value="0.0005885499" flag="0"/>
    </comp>
  </station>
  <station code="SMAA" name="SMAA" netid="KO" insttype="CMG-5T" commtype="DIG" lat="39.1005" lon="28.9805">
    <comp name="--.HNN">
      <acc value="0.0695398560" flag="0"/>
      <vel value="0.0255423270" flag="0"/>
      <psa03 value="0.1189421758" flag="0"/>
      <psa10 value="0.0210450252" flag="0"/>
      <psa30 value="0.0012113830" flag="0"/>
    </comp>
    <comp name="--.HNE">
      <acc value="0.0848627921" flag="0"/>
      <vel value="0.0267774344" flag="0"/>
      <psa03 value="0.1503366737" flag="0"/>
      <psa10 value="0.0269580900" flag="0"/>
      <psa30 value="0.0023013971" flag="0"/>
    </comp>
    <comp name="--.HNZ">
      <acc value="0.0443040189" flag="0"/>
      <vel value="0.0083337766" flag="0"/>
      <psa03 value="0.0405141981" flag="0"/>
      <psa10 value="0.0172069875" flag="0"/>
      <psa30 value="0.0007680825" flag="0"/>
    </comp>
  </station>
  <station code="SOMA" name="SOMA" netid="KO" insttype="CMG-5T" commtype="DIG" lat="39.1564" lon="27.5341">
    <comp name="--.HNZ">
      <acc value="0.0362906438" flag="0"/>
      <vel value="0.0084999697" flag="0"/>
      <psa03 value="0.0145822729" flag="0"/>
      <psa10 value="0.0049061305" flag="0"/>
      <psa30 value="0.0004173413" flag="0"/>
    </comp>
    <comp name="--.HNN">
      <acc value="0.0362939923" flag="0"/>
      <vel value="0.0114689951" flag="0"/>
      <psa03 value="0.0517709087" flag="0"/>
      <psa10 value="0.0065473764" flag="0"/>
      <psa30 value="0.0004062232" flag="0"/>
    </comp>
    <comp name="--.HNE">
      <acc value="0.0332015017" flag="0"/>
      <vel value="0.0072043578" flag="0"/>
      <psa03 value="0.0246570759" flag="0"/>
      <psa10 value="0.0060353343" flag="0"/>
      <psa30 value="0.0004571359" flag="0"/>
    </comp>
  </station>
  <station code="SUSR" name="SUSR" netid="KO" insttype="CMG-5T" commtype="DIG" lat="39.9627" lon="28.0835">
    <comp name="--.HNE">
      <acc value="0.0216503706" flag="0"/>
      <vel value="0.0068561555" flag="0"/>
      <psa03 value="0.0502120352" flag="0"/>
      <psa10 value="0.0033971602" flag="0"/>
      <psa30 value="0.0002864343" flag="0"/>
    </comp>
    <comp name="--.HNN">
      <acc value="0.0289717374" flag="0"/>
      <vel value="0.0086684130" flag="0"/>
      <psa03 value="0.0417151545" flag="0"/>
      <psa10 value="0.0022693560" flag="0"/>
      <psa30 value="0.0003151082" flag="0"/>
    </comp>
    <comp name="--.HNZ">
      <acc value="0.0258657126" flag="0"/>
      <vel value="0.0045112060" flag="0"/>
      <psa03 value="0.0252094909" flag="0"/>
      <psa10 value="0.0024223077" flag="0"/>
      <psa30 value="0.0004104314" flag="0"/>
    </comp>
  </station>
  <station code="TVSB" name="TVSB" netid="KO" insttype="CMG-3T" commtype="DIG" lat="39.4497" lon="29.4615">
    <comp name="--.HHE">
      <acc value="0.0346509333" flag="0"/>
      <vel value="0.0179678266" flag="0"/>
      <psa03 value="0.0637388515" flag="0"/>
      <psa10 value="0.0069141672" flag="0"/>
      <psa30 value="0.0006559201" flag="0"/>
    </comp>
    <comp name="--.HHN">
      <acc value="0.0408745842" flag="0"/>
      <vel value="0.0223449579" flag="0"/>
      <psa03 value="0.1164963829" flag="0"/>
      <psa10 value="0.0095723204" flag="0"/>
      <psa30 value="0.0007220768" flag="0"/>
    </comp>
    <comp name="--.HHZ">
      <acc value="0.0174575667" flag="0"/>
      <vel value="0.0087557407" flag="0"/>
      <psa03 value="0.0514836322" flag="0"/>
      <psa10 value="0.0039569771" flag="0"/>
      <psa30 value="0.0003654469" flag="0"/>
    </comp>
  </station>
  <station code="YAYO" name="YAYO" netid="KO" insttype="CMG-6T" commtype="DIG" lat="39.6113" lon="27.0726">
    <comp name="--.HHN">
      <acc value="0.0082830156" flag="0"/>
      <vel value="0.0048319875" flag="0"/>
      <psa03 value="0.0133974986" flag="0"/>
      <psa10 value="0.0044152007" flag="0"/>
      <psa30 value="0.0002266158" flag="0"/>
    </comp>
    <comp name="--.HHZ">
      <acc value="0.0059879475" flag="0"/>
      <vel value="0.0034051348" flag="0"/>
      <psa03 value="0.0083059695" flag="0"/>
      <psa10 value="0.0038280344" flag="0"/>
      <psa30 value="0.0002381492" flag="0"/>
    </comp>
  </station>
</stationlist>
