<?xml version="1.0" encoding="UTF-8" standalone="yes"?>
<!DOCTYPE earthquake SYSTEM "stationlist.dtd">
<stationlist created="" xmlns="ch.ethz.sed.shakemap.usgs.xml">
  <station code="KRL1" name="KRL1" netid="HI" insttype="CMG-5TD,ACCELEROMETER,GURALP" lat="37.7951" lon="26.7065">
    <comp name="--.HNN">
      <acc value="0.4412964975" flag="0"/>
      <vel value="0.1488667645" flag="0"/>
      <psa03 value="0.5829039624" flag="0"/>
      <psa10 value="0.0582076258" flag="0"/>
      <psa30 value="0.0061041054" flag="0"/>
    </comp>
    <comp name="--.HNE">
      <acc value="0.9412126396" flag="0"/>
      <vel value="0.2737489120" flag="0"/>
      <psa03 value="1.4679046764" flag="0"/>
      <psa10 value="0.0702244180" flag="0"/>
      <psa30 value="0.0073977048" flag="0"/>
    </comp>
    <comp name="--.HNZ">
      <acc value="0.1622052445" flag="0"/>
      <vel value="0.0541670858" flag="0"/>
      <psa03 value="0.3576548093" flag="0"/>
      <psa10 value="0.0229334982" flag="0"/>
      <psa30 value="0.0038793768" flag="0"/>
    </comp>
  </station>
  <station code="EAG2" name="EAG2" netid="HL" insttype="SMART24" lat="38.5438" lon="26.1079">
    <comp name="--.HHE">
      <acc value="0.3129889421" flag="0"/>
      <vel value="0.1904146366" flag="0"/>
      <psa03 value="1.0647095709" flag="0"/>
      <psa10 value="0.0761844368" flag="0"/>
      <psa30 value="0.0068717197" flag="0"/>
    </comp>
    <comp name="--.HHZ">
      <acc value="0.1159597267" flag="0"/>
      <vel value="0.0502785705" flag="0"/>
      <psa03 value="0.2664275332" flag="0"/>
      <psa10 value="0.0441261192" flag="0"/>
      <psa30 value="0.0029348252" flag="0"/>
    </comp>
    <comp name="--.HHN">
      <acc value="0.3137350462" flag="0"/>
      <vel value="0.1940019289" flag="0"/>
      <psa03 value="1.3010901480" flag="0"/>
      <psa10 value="0.1018526120" flag="0"/>
      <psa30 value="0.0063083347" flag="0"/>
    </comp>
  </station>
  <station code="KLNA" name="KLNA" netid="HL" insttype="CMG-5" lat="36.9571" lon="26.9727">
    <comp name="00.HNN">
      <acc value="0.0634959659" flag="0"/>
      <vel value="0.0272365556" flag="0"/>
      <psa03 value="0.2217633013" flag="0"/>
      <psa10 value="0.0175156831" flag="0"/>
      <psa30 value="0.0008848502" flag="0"/>
    </comp>
    <comp name="00.HNZ">
      <acc value="0.0571390729" flag="0"/>
      <vel value="0.0251461855" flag="0"/>
      <psa03 value="0.1160593982" flag="0"/>
      <psa10 value="0.0141171992" flag="0"/>
      <psa30 value="0.0010284795" flag="0"/>
    </comp>
    <comp name="00.HNE">
      <acc value="0.0928529770" flag="0"/>
      <vel value="0.0387647975" flag="0"/>
      <psa03 value="0.2938689808" flag="0"/>
      <psa10 value="0.0216462997" flag="0"/>
      <psa30 value="0.0016453263" flag="0"/>
    </comp>
  </station>
  <station code="SMG" name="SMG" netid="HL" insttype="120" lat="37.7043" lon="26.8377">
    <comp name="--.HHE">
      <acc value="0.3266749819" flag="0"/>
      <vel value="0.1271180792" flag="0"/>
      <psa03 value="1.1449958211" flag="0"/>
      <psa10 value="0.0576618191" flag="0"/>
      <psa30 value="0.0070442429" flag="0"/>
    </comp>
    <comp name="--.HHN">
      <acc value="0.4202766088" flag="0"/>
      <vel value="0.1379200766" flag="0"/>
      <psa03 value="1.3667552398" flag="0"/>
      <psa10 value="0.0996974697" flag="0"/>
      <psa30 value="0.0090771648" flag="0"/>
    </comp>
    <comp name="--.HHZ">
      <acc value="0.2611347737" flag="0"/>
      <vel value="0.0878258479" flag="0"/>
      <psa03 value="0.5001855495" flag="0"/>
      <psa10 value="0.0493967082" flag="0"/>
      <psa30 value="0.0102128933" flag="0"/>
    </comp>
  </station>
  <station code="CHOS" name="CHOS" netid="HT" insttype="100" lat="38.3869" lon="26.0506">
    <comp name="--.HHE">
      <acc value="0.0554587131" flag="0"/>
      <vel value="0.0265536851" flag="0"/>
      <psa03 value="0.2222748495" flag="0"/>
      <psa10 value="0.0209625106" flag="0"/>
      <psa30 value="0.0011629804" flag="0"/>
    </comp>
    <comp name="--.HHN">
      <acc value="0.0458763041" flag="0"/>
      <vel value="0.0241039171" flag="0"/>
      <psa03 value="0.1367657463" flag="0"/>
      <psa10 value="0.0321714457" flag="0"/>
      <psa30 value="0.0010916629" flag="0"/>
    </comp>
    <comp name="--.HHZ">
      <acc value="0.0228740728" flag="0"/>
      <vel value="0.0149420836" flag="0"/>
      <psa03 value="0.0459465928" flag="0"/>
      <psa10 value="0.0115999568" flag="0"/>
      <psa30 value="0.0009737702" flag="0"/>
    </comp>
  </station>
  <station code="CESE" name="CESE" netid="KO" insttype="100" lat="38.3306" lon="26.2997">
    <comp name="--.HNZ">
      <acc value="0.0024834902" flag="0"/>
      <vel value="0.0010574975" flag="0"/>
      <psa03 value="0.0070667361" flag="0"/>
      <psa10 value="0.0011363939" flag="0"/>
      <psa30 value="0.0000979268" flag="0"/>
    </comp>
    <comp name="--.HNN">
      <acc value="0.0049398527" flag="0"/>
      <vel value="0.0020042173" flag="0"/>
      <psa03 value="0.0129022516" flag="0"/>
      <psa10 value="0.0017702059" flag="0"/>
      <psa30 value="0.0001264300" flag="0"/>
    </comp>
    <comp name="--.HNE">
      <acc value="0.0029627241" flag="0"/>
      <vel value="0.0016375558" flag="0"/>
      <psa03 value="0.0070007000" flag="0"/>
      <psa10 value="0.0012479249" flag="0"/>
      <psa30 value="0.0001590093" flag="0"/>
    </comp>
  </station>
  <station code="GMLD" name="GMLD" netid="KO" insttype="100" lat="38.0764" lon="26.8747">
    <comp name="--.HNE">
      <acc value="0.2602106089" flag="0"/>
      <vel value="0.1142360854" flag="0"/>
      <psa03 value="0.4851690862" flag="0"/>
      <psa10 value="0.0968334601" flag="0"/>
      <psa30 value="0.0065651978" flag="0"/>
    </comp>
    <comp name="--.HNZ">
      <acc value="0.1437452850" flag="0"/>
      <vel value="0.0640863346" flag="0"/>
      <psa03 value="0.4082620329" flag="0"/>
      <psa10 value="0.0202779328" flag="0"/>
      <psa30 value="0.0024156769" flag="0"/>
    </comp>
    <comp name="--.HNN">
      <acc value="0.2746962810" flag="0"/>
      <vel value="0.1644219030" flag="0"/>
      <psa03 value="0.6588135998" flag="0"/>
      <psa10 value="0.1279485343" flag="0"/>
      <psa30 value="0.0083587899" flag="0"/>
    </comp>
  </station>
  <station code="GOMA" name="GOMA" netid="KO" insttype="100" lat="38.7077" lon="27.9175">
    <comp name="--.HNE">
      <acc value="0.0052403681" flag="0"/>
      <vel value="0.0023617019" flag="0"/>
      <psa03 value="0.0224842306" flag="0"/>
      <psa10 value="0.0013596298" flag="0"/>
      <psa30 value="0.0001017307" flag="0"/>
    </comp>
    <comp name="--.HNN">
      <acc value="0.0054141668" flag="0"/>
      <vel value="0.0030845892" flag="0"/>
      <psa03 value="0.0137444883" flag="0"/>
      <psa10 value="0.0024903575" flag="0"/>
      <psa30 value="0.0001279495" flag="0"/>
    </comp>
    <comp name="--.HNZ">
      <acc value="0.0049893275" flag="0"/>
      <vel value="0.0019514967" flag="0"/>
      <psa03 value="0.0098173137" flag="0"/>
      <psa10 value="0.0010022669" flag="0"/>
      <psa30 value="0.0001479782" flag="0"/>
    </comp>
  </station>
  <station code="KRBN" name="KRBN" netid="KO" insttype="100" lat="38.5936" lon="26.5537">
    <comp name="--.HNE">
      <acc value="0.0421829789" flag="0"/>
      <vel value="0.0248116743" flag="0"/>
      <psa03 value="0.1267315534" flag="0"/>
      <psa10 value="0.0140307550" flag="0"/>
      <psa30 value="0.0012386644" flag="0"/>
    </comp>
    <comp name="--.HNZ">
      <acc value="0.0231711448" flag="0"/>
      <vel value="0.0125448829" flag="0"/>
      <psa03 value="0.0781128194" flag="0"/>
      <psa10 value="0.0132922363" flag="0"/>
      <psa30 value="0.0006556720" flag="0"/>
    </comp>
    <comp name="--.HNN">
      <acc value="0.0423892212" flag="0"/>
      <vel value="0.0240804384" flag="0"/>
      <psa03 value="0.1201742901" flag="0"/>
      <psa10 value="0.0442282413" flag="0"/>
      <psa30 value="0.0015352025" flag="0"/>
    </comp>
  </station>
  <station code="KUSD" name="KUSD" netid="KO" insttype="100" lat="37.86" lon="27.2815">
    <comp name="--.HNZ">
      <acc value="0.0720870705" flag="0"/>
      <vel value="0.0209284028" flag="0"/>
      <psa03 value="0.0890872005" flag="0"/>
      <psa10 value="0.0107509629" flag="0"/>
      <psa30 value="0.0011760289" flag="0"/>
    </comp>
    <comp name="--.HNE">
      <acc value="0.0892959483" flag="0"/>
      <vel value="0.0212470868" flag="0"/>
      <psa03 value="0.0879222223" flag="0"/>
      <psa10 value="0.0168245381" flag="0"/>
      <psa30 value="0.0012318535" flag="0"/>
    </comp>
    <comp name="--.HNN">
      <acc value="0.0898576670" flag="0"/>
      <vel value="0.0242388191" flag="0"/>
      <psa03 value="0.0955938371" flag="0"/>
      <psa10 value="0.0266184729" flag="0"/>
      <psa30 value="0.0021728332" flag="0"/>
    </comp>
  </station>
  <station code="YKAV" name="YKAV" netid="KO" insttype="100" lat="37.1246" lon="27.2801">
    <comp name="--.HNN">
      <acc value="0.0066634492" flag="0"/>
      <vel value="0.0055902067" flag="0"/>
      <psa03 value="0.0113407260" flag="0"/>
      <psa10 value="0.0056487420" flag="0"/>
      <psa30 value="0.0002812679" flag="0"/>
    </comp>
    <comp name="--.HNE">
      <acc value="0.0058387380" flag="0"/>
      <vel value="0.0041470232" flag="0"/>
      <psa03 value="0.0126805629" flag="0"/>
      <psa10 value="0.0047617519" flag="0"/>
      <psa30 value="0.0002613637" flag="0"/>
    </comp>
    <comp name="--.HNZ">
      <acc value="0.0031608797" flag="0"/>
      <vel value="0.0022104761" flag="0"/>
      <psa03 value="0.0065974986" flag="0"/>
      <psa10 value="0.0023850780" flag="0"/>
      <psa30 value="0.0001823579" flag="0"/>
    </comp>
  </station>
  <station code="AYDN" name="AYDN" netid="TU" source="ODC" insttype="T" lat="37.6608" lon="27.8792">
    <comp name="--.HHZ">
      <acc value="0.0390634201" flag="0"/>
      <vel value="0.0142930032" flag="0"/>
      <psa03 value="0.0673597541" flag="0"/>
      <psa10 value="0.0128599033" flag="0"/>
      <psa30 value="0.0010262271" flag="0"/>
    </comp>
    <comp name="--.HHE">
      <acc value="0.1049025786" flag="0"/>
      <vel value="0.0320633354" flag="0"/>
      <psa03 value="0.2809784232" flag="0"/>
      <psa10 value="0.0189542885" flag="0"/>
      <psa30 value="0.0011677716" flag="0"/>
    </comp>
    <comp name="--.HHN">
      <acc value="0.0551319059" flag="0"/>
      <vel value="0.0227141668" flag="0"/>
      <psa03 value="0.1787529632" flag="0"/>
      <psa10 value="0.0159354628" flag="0"/>
      <psa30 value="0.0017512657" flag="0"/>
    </comp>
  </station>
</stationlist>
