<stationlist created="1778135854">
	<station code="KRL1" name="KRL1" netid="HI" source="ITSAK Strong Motion Network" insttype="" lat="37.7951" lon="26.7065">
		<comp name="--.HNE" depth="0.0">
			<acc value="0.947463754846525" flag="0"/>
			<vel value="0.278243731186706" flag="0"/>
			<psa03 value="1.48280146953614" flag="0"/>
			<psa10 value="0.0706300473676038" flag="0"/>
			<psa30 value="0.00733369508680092" flag="0"/>
		</comp>
		<comp name="--.HNN" depth="0.0">
			<acc value="0.446619807140412" flag="0"/>
			<vel value="0.149549730798844" flag="0"/>
			<psa03 value="0.594892379196541" flag="0"/>
			<psa10 value="0.0583040168663361" flag="0"/>
			<psa30 value="0.00668001144810797" flag="0"/>
		</comp>
		<comp name="--.HNZ" depth="0.0">
			<acc value="0.162254948657416" flag="0"/>
			<vel value="0.0558020948515391" flag="0"/>
			<psa03 value="0.363977850839641" flag="0"/>
			<psa10 value="0.0229889931825342" flag="0"/>
			<psa30 value="0.00436907647627424" flag="0"/>
		</comp>
	</station>
	<station code="MYT1" name="MYT1" netid="HI" source="ITSAK Strong Motion Network" insttype="" lat="39.085" lon="26.5694">
		<comp name="--.HNE" depth="0.0">
			<acc value="0.0219503362149166" flag="0"/>
			<vel value="0.0171183444619091" flag="0"/>
			<psa03 value="0.0633549645714728" flag="0"/>
			<psa10 value="0.0472907227072485" flag="0"/>
			<psa30 value="0.00193017879351224" flag="0"/>
		</comp>
		<comp name="--.HNN" depth="0.0">
			<acc value="0.0160436716244485" flag="0"/>
			<vel value="0.0204210879273513" flag="0"/>
			<psa03 value="0.0488584896271528" flag="0"/>
			<psa10 value="0.0380532467288401" flag="0"/>
			<psa30 value="0.00284113012026026" flag="0"/>
		</comp>
		<comp name="--.HNZ" depth="0.0">
			<acc value="0.0135258764472678" flag="0"/>
			<vel value="0.0124840633862347" flag="0"/>
			<psa03 value="0.0281875901695112" flag="0"/>
			<psa10 value="0.0212534429878114" flag="0"/>
			<psa30 value="0.00186753970424666" flag="0"/>
		</comp>
	</station>
	<station code="KLNA" name="KLNA" netid="HL" source="National Observatory of Athens Seismic Network" insttype="" lat="36.95708" lon="26.97274">
		<comp name="00.HNE" depth="0.0">
			<acc value="0.0930018685598484" flag="0"/>
			<vel value="0.0386551819950419" flag="0"/>
			<psa03 value="0.295298563680594" flag="0"/>
			<psa10 value="0.0216762568403541" flag="0"/>
			<psa30 value="0.00171452135761217" flag="0"/>
		</comp>
		<comp name="00.HNN" depth="0.0">
			<acc value="0.0632574688386453" flag="0"/>
			<vel value="0.0271786580990512" flag="0"/>
			<psa03 value="0.221787118206773" flag="0"/>
			<psa10 value="0.0175447614812229" flag="0"/>
			<psa30 value="0.000890369911703608" flag="0"/>
		</comp>
		<comp name="00.HNZ" depth="0.0">
			<acc value="0.0570844018863807" flag="0"/>
			<vel value="0.0251505978183482" flag="0"/>
			<psa03 value="0.116821901480308" flag="0"/>
			<psa10 value="0.0141541970636903" flag="0"/>
			<psa30 value="0.0011780623002591" flag="0"/>
		</comp>
	</station>
	<station code="PRK" name="PRK" netid="HL" source="National Observatory of Athens Seismic Network" insttype="" lat="39.24565" lon="26.26499">
		<comp name="--.HNE" depth="0.0">
			<acc value="0.0230609967596365" flag="0"/>
			<vel value="0.0171192669063488" flag="0"/>
			<psa03 value="0.0461739572300565" flag="0"/>
			<psa10 value="0.0157931040921176" flag="0"/>
			<psa30 value="0.0012841013299444" flag="0"/>
		</comp>
		<comp name="--.HNN" depth="0.0">
			<acc value="0.018623598814067" flag="0"/>
			<vel value="0.0157595641629942" flag="0"/>
			<psa03 value="0.0417892209814658" flag="0"/>
			<psa10 value="0.0162159179446602" flag="0"/>
			<psa30 value="0.00106710162784578" flag="0"/>
		</comp>
		<comp name="--.HNZ" depth="0.0">
			<acc value="0.0140454154621814" flag="0"/>
			<vel value="0.0125757226584045" flag="0"/>
			<psa03 value="0.0421024164277937" flag="0"/>
			<psa10 value="0.0096280754421859" flag="0"/>
			<psa30 value="0.000883211158644684" flag="0"/>
		</comp>
	</station>
	<station code="SMG" name="SMG" netid="HL" source="National Observatory of Athens Seismic Network" insttype="" lat="37.70425" lon="26.83772">
		<comp name="00.HNE" depth="0.0">
			<acc value="0.225361299412342" flag="0"/>
			<vel value="0.0809786015962534" flag="0"/>
			<psa03 value="0.800661787433973" flag="0"/>
			<psa10 value="0.0331687400323234" flag="0"/>
			<psa30 value="0.00559769747001198" flag="0"/>
		</comp>
		<comp name="00.HNN" depth="0.0">
			<acc value="0.269670643985794" flag="0"/>
			<vel value="0.0923937697252634" flag="0"/>
			<psa03 value="0.823614539429147" flag="0"/>
			<psa10 value="0.0658743982261477" flag="0"/>
			<psa30 value="0.00625227595283729" flag="0"/>
		</comp>
		<comp name="00.HNZ" depth="0.0">
			<acc value="0.182762673993232" flag="0"/>
			<vel value="0.0566782587659511" flag="0"/>
			<psa03 value="0.32594697521411" flag="0"/>
			<psa10 value="0.032278817542686" flag="0"/>
			<psa30 value="0.00767955234396016" flag="0"/>
		</comp>
	</station>
	<station code="DIDI" name="DIDI" netid="KO" source="Bogazici University Kandilli Observatory And Earthquake Research Institute (KOERI)" insttype="" lat="37.3767" lon="27.2398">
		<comp name="--.HNE" depth="0.0">
			<acc value="0.102721534327206" flag="0"/>
			<vel value="0.0502846922416336" flag="0"/>
			<psa03 value="0.300980823921114" flag="0"/>
			<psa10 value="0.0271325689374524" flag="0"/>
			<psa30 value="0.00446348253223879" flag="0"/>
		</comp>
		<comp name="--.HNN" depth="0.0">
			<acc value="0.118356879188456" flag="0"/>
			<vel value="0.0495674791412743" flag="0"/>
			<psa03 value="0.379413912122945" flag="0"/>
			<psa10 value="0.0249419905014218" flag="0"/>
			<psa30 value="0.00437399811900225" flag="0"/>
		</comp>
		<comp name="--.HNZ" depth="0.0">
			<acc value="0.194212957506803" flag="0"/>
			<vel value="0.0543215831346886" flag="0"/>
			<psa03 value="0.240578844986447" flag="0"/>
			<psa10 value="0.0191756149124589" flag="0"/>
			<psa30 value="0.00215970631346398" flag="0"/>
		</comp>
	</station>
	<station code="FOCM" name="FOCM" netid="KO" source="Bogazici University Kandilli Observatory And Earthquake Research Institute (KOERI)" insttype="" lat="38.7131" lon="26.7309">
		<comp name="--.HNE" depth="0.0">
			<acc value="0.0434719396854209" flag="0"/>
			<vel value="0.0208409112549534" flag="0"/>
			<psa03 value="0.113018813917754" flag="0"/>
			<psa10 value="0.0132360869838833" flag="0"/>
			<psa30 value="0.00162503694437563" flag="0"/>
		</comp>
		<comp name="--.HNN" depth="0.0">
			<acc value="0.0328233073975282" flag="0"/>
			<vel value="0.0181269826825007" flag="0"/>
			<psa03 value="0.0703794910105415" flag="0"/>
			<psa10 value="0.0207702271563341" flag="0"/>
			<psa30 value="0.00103712434941154" flag="0"/>
		</comp>
		<comp name="--.HNZ" depth="0.0">
			<acc value="0.0259713456704859" flag="0"/>
			<vel value="0.0114815983297701" flag="0"/>
			<psa03 value="0.090558226195382" flag="0"/>
			<psa10 value="0.00735696103424242" flag="0"/>
			<psa30 value="0.00095166673477064" flag="0"/>
		</comp>
	</station>
	<station code="GMLD" name="GMLD" netid="KO" source="Bogazici University Kandilli Observatory And Earthquake Research Institute (KOERI)" insttype="" lat="38.0766" lon="26.9157">
		<comp name="--.HNE" depth="0.0">
			<acc value="1.63011913255368" flag="0"/>
			<vel value="0.721541078203933" flag="0"/>
			<psa03 value="3.10734624963897" flag="0"/>
			<psa10 value="0.60964925378338" flag="0"/>
			<psa30 value="0.0443672669268106" flag="0"/>
		</comp>
		<comp name="--.HNN" depth="0.0">
			<acc value="1.72240121655595" flag="0"/>
			<vel value="1.04005560761958" flag="0"/>
			<psa03 value="4.13646174406584" flag="0"/>
			<psa10 value="0.804183893938963" flag="0"/>
			<psa30 value="0.0542253173110144" flag="0"/>
		</comp>
		<comp name="--.HNZ" depth="0.0">
			<acc value="0.864687817634065" flag="0"/>
			<vel value="0.411216423542941" flag="0"/>
			<psa03 value="2.60847064584524" flag="0"/>
			<psa10 value="0.126956906123478" flag="0"/>
			<psa30 value="0.0174776481712955" flag="0"/>
		</comp>
	</station>
	<station code="GORD" name="GORD" netid="KO" source="Bogazici University Kandilli Observatory And Earthquake Research Institute (KOERI)" insttype="" lat="38.9088" lon="28.1769">
		<comp name="--.HNE" depth="0.0">
			<acc value="0.0411394714012553" flag="0"/>
			<vel value="0.0304268622648349" flag="0"/>
			<psa03 value="0.137537543144567" flag="0"/>
			<psa10 value="0.0424062160107318" flag="0"/>
			<psa30 value="0.00367601969575721" flag="0"/>
		</comp>
		<comp name="--.HNN" depth="0.0">
			<acc value="0.0305983937591953" flag="0"/>
			<vel value="0.023622511302249" flag="0"/>
			<psa03 value="0.0799990654334699" flag="0"/>
			<psa10 value="0.0357378375363446" flag="0"/>
			<psa30 value="0.00534356173642019" flag="0"/>
		</comp>
		<comp name="--.HNZ" depth="0.0">
			<acc value="0.0296208751016514" flag="0"/>
			<vel value="0.0278328192622216" flag="0"/>
			<psa03 value="0.097627494841069" flag="0"/>
			<psa10 value="0.0382062650754746" flag="0"/>
			<psa30 value="0.00311808437922736" flag="0"/>
		</comp>
	</station>
	<station code="KRBN" name="KRBN" netid="KO" source="Bogazici University Kandilli Observatory And Earthquake Research Institute (KOERI)" insttype="" lat="38.5936" lon="26.5537">
		<comp name="--.HNE" depth="0.0">
			<acc value="0.268056884802561" flag="0"/>
			<vel value="0.15892327957158" flag="0"/>
			<psa03 value="0.804957039269327" flag="0"/>
			<psa10 value="0.0884566847505218" flag="0"/>
			<psa30 value="0.00796813957664801" flag="0"/>
		</comp>
		<comp name="--.HNN" depth="0.0">
			<acc value="0.268353686702583" flag="0"/>
			<vel value="0.153325430207088" flag="0"/>
			<psa03 value="0.742899598689784" flag="0"/>
			<psa10 value="0.278042389432059" flag="0"/>
			<psa30 value="0.00971174336856206" flag="0"/>
		</comp>
		<comp name="--.HNZ" depth="0.0">
			<acc value="0.14543083556007" flag="0"/>
			<vel value="0.0798574307167421" flag="0"/>
			<psa03 value="0.49681746228929" flag="0"/>
			<psa10 value="0.0835681512554094" flag="0"/>
			<psa30 value="0.00405453876374779" flag="0"/>
		</comp>
	</station>
	<station code="KUSD" name="KUSD" netid="KO" source="Bogazici University Kandilli Observatory And Earthquake Research Institute (KOERI)" insttype="" lat="37.8606" lon="27.2868">
		<comp name="--.HNE" depth="0.0">
			<acc value="0.557377046390173" flag="0"/>
			<vel value="0.138825693277083" flag="0"/>
			<psa03 value="0.565988913721138" flag="0"/>
			<psa10 value="0.106186678967144" flag="0"/>
			<psa30 value="0.0217008650539942" flag="0"/>
		</comp>
		<comp name="--.HNN" depth="0.0">
			<acc value="0.554790662904758" flag="0"/>
			<vel value="0.154780249074787" flag="0"/>
			<psa03 value="0.60294597638783" flag="0"/>
			<psa10 value="0.168058439389221" flag="0"/>
			<psa30 value="0.0149613464710839" flag="0"/>
		</comp>
		<comp name="--.HNZ" depth="0.0">
			<acc value="0.443678399623107" flag="0"/>
			<vel value="0.133741380962658" flag="0"/>
			<psa03 value="0.561469950852692" flag="0"/>
			<psa10 value="0.067932092308522" flag="0"/>
			<psa30 value="0.013487538185078" flag="0"/>
		</comp>
	</station>
	<station code="NAZL" name="NAZL" netid="KO" source="Bogazici University Kandilli Observatory And Earthquake Research Institute (KOERI)" insttype="" lat="37.9641" lon="28.2922">
		<comp name="--.HNE" depth="0.0">
			<acc value="0.12414032180844" flag="0"/>
			<vel value="0.0523547750531673" flag="0"/>
			<psa03 value="0.39945842068793" flag="0"/>
			<psa10 value="0.0412988463969296" flag="0"/>
			<psa30 value="0.00345991483779095" flag="0"/>
		</comp>
		<comp name="--.HNN" depth="0.0">
			<acc value="0.124294824327562" flag="0"/>
			<vel value="0.0645941026534019" flag="0"/>
			<psa03 value="0.329794804983281" flag="0"/>
			<psa10 value="0.0461712726976594" flag="0"/>
			<psa30 value="0.00342098911803306" flag="0"/>
		</comp>
		<comp name="--.HNZ" depth="0.0">
			<acc value="0.0677985178412199" flag="0"/>
			<vel value="0.0343070863538165" flag="0"/>
			<psa03 value="0.138969293756352" flag="0"/>
			<psa10 value="0.0196709111397232" flag="0"/>
			<psa30 value="0.00222234540272956" flag="0"/>
		</comp>
	</station>
	<station code="SOMA" name="SOMA" netid="KO" source="Bogazici University Kandilli Observatory And Earthquake Research Institute (KOERI)" insttype="" lat="39.1564" lon="27.5341">
		<comp name="--.HNE" depth="0.0">
			<acc value="0.0967182514678981" flag="0"/>
			<vel value="0.0621110392165442" flag="0"/>
			<psa03 value="0.18509850877979" flag="0"/>
			<psa10 value="0.042188768886567" flag="0"/>
			<psa30 value="0.00395073684439339" flag="0"/>
		</comp>
		<comp name="--.HNN" depth="0.0">
			<acc value="0.109786558379761" flag="0"/>
			<vel value="0.0546098869512249" flag="0"/>
			<psa03 value="0.269527052668469" flag="0"/>
			<psa10 value="0.0536691716827493" flag="0"/>
			<psa30 value="0.00507018685398255" flag="0"/>
		</comp>
		<comp name="--.HNZ" depth="0.0">
			<acc value="0.0599741736844223" flag="0"/>
			<vel value="0.0337670456863742" flag="0"/>
			<psa03 value="0.164875031388331" flag="0"/>
			<psa10 value="0.0287513419729014" flag="0"/>
			<psa30 value="0.00377400512825122" flag="0"/>
		</comp>
	</station>
	<station code="YKAV" name="YKAV" netid="KO" source="Bogazici University Kandilli Observatory And Earthquake Research Institute (KOERI)" insttype="" lat="37.1246" lon="27.2801">
		<comp name="--.HNE" depth="0.0">
			<acc value="0.0367581934590394" flag="0"/>
			<vel value="0.0261005924416639" flag="0"/>
			<psa03 value="0.0806254563261257" flag="0"/>
			<psa10 value="0.0299714619473817" flag="0"/>
			<psa30 value="0.00164561835942003" flag="0"/>
		</comp>
		<comp name="--.HNN" depth="0.0">
			<acc value="0.0418300631557828" flag="0"/>
			<vel value="0.0352954148931479" flag="0"/>
			<psa03 value="0.0712743351429069" flag="0"/>
			<psa10 value="0.035540524405158" flag="0"/>
			<psa30 value="0.00179997897225307" flag="0"/>
		</comp>
		<comp name="--.HNZ" depth="0.0">
			<acc value="0.0199152749854027" flag="0"/>
			<vel value="0.0139620204110084" flag="0"/>
			<psa03 value="0.0415207677417562" flag="0"/>
			<psa10 value="0.0149917711715843" flag="0"/>
			<psa30 value="0.00115658604108232" flag="0"/>
		</comp>
	</station>
</stationlist>
