<stationlist created="1644244155">
	<station code="KRL1" name="KRL1" netid="HI" source="ITSAK Strong Motion Network" insttype="" lat="37.7951" lon="26.7065">
		<comp name=".HNE" depth="0.0">
			<acc value="0.942253152" flag="0"/>
			<vel value="0.276748" flag="0"/>
			<psa03 value="1.48280146954" flag="0"/>
			<psa10 value="0.0706300473676" flag="0"/>
			<psa30 value="0.0073336950868" flag="0"/>
		</comp>
		<comp name=".HNN" depth="0.0">
			<acc value="0.443647062" flag="0"/>
			<vel value="0.148682" flag="0"/>
			<psa03 value="0.594892379197" flag="0"/>
			<psa10 value="0.0583040168663" flag="0"/>
			<psa30 value="0.00668001144811" flag="0"/>
		</comp>
		<comp name=".HNZ" depth="0.0">
			<acc value="0.161152044" flag="0"/>
			<vel value="0.055602" flag="0"/>
			<psa03 value="0.36397785084" flag="0"/>
			<psa10 value="0.0229889931825" flag="0"/>
			<psa30 value="0.00436907647627" flag="0"/>
		</comp>
	</station>
	<station code="MYT1" name="MYT1" netid="HI" source="ITSAK Strong Motion Network" insttype="" lat="39.085" lon="26.5694">
		<comp name=".HNE" depth="0.0">
			<acc value="0.021918474" flag="0"/>
			<vel value="0.017111" flag="0"/>
			<psa03 value="0.0633549645715" flag="0"/>
			<psa10 value="0.0472907227072" flag="0"/>
			<psa30 value="0.00193017879351" flag="0"/>
		</comp>
		<comp name=".HNN" depth="0.0">
			<acc value="0.016015938" flag="0"/>
			<vel value="0.02041" flag="0"/>
			<psa03 value="0.0488584896272" flag="0"/>
			<psa10 value="0.0380532467288" flag="0"/>
			<psa30 value="0.00284113012026" flag="0"/>
		</comp>
		<comp name=".HNZ" depth="0.0">
			<acc value="0.01350633" flag="0"/>
			<vel value="0.012476" flag="0"/>
			<psa03 value="0.0281875901695" flag="0"/>
			<psa10 value="0.0212534429878" flag="0"/>
			<psa30 value="0.00186753970425" flag="0"/>
		</comp>
	</station>
	<station code="KLNA" name="KLNA" netid="HL" source="National Observatory of Athens Seismic Network" insttype="" lat="36.95708" lon="26.97274">
		<comp name="00.HNE" depth="0.0">
			<acc value="0.093001866" flag="0"/>
			<vel value="0.038655" flag="0"/>
			<psa03 value="0.295298563681" flag="0"/>
			<psa10 value="0.0216762568404" flag="0"/>
			<psa30 value="0.00171452135761" flag="0"/>
		</comp>
		<comp name="00.HNN" depth="0.0">
			<acc value="0.063257442" flag="0"/>
			<vel value="0.027179" flag="0"/>
			<psa03 value="0.221787118207" flag="0"/>
			<psa10 value="0.0175447614812" flag="0"/>
			<psa30 value="0.000890369911704" flag="0"/>
		</comp>
		<comp name="00.HNZ" depth="0.0">
			<acc value="0.057084402" flag="0"/>
			<vel value="0.025151" flag="0"/>
			<psa03 value="0.11682190148" flag="0"/>
			<psa10 value="0.0141541970637" flag="0"/>
			<psa30 value="0.00117806230026" flag="0"/>
		</comp>
	</station>
	<station code="PRK" name="PRK" netid="HL" source="National Observatory of Athens Seismic Network" insttype="" lat="39.24565" lon="26.26499">
		<comp name=".HNE" depth="0.0">
			<acc value="0.023040678" flag="0"/>
			<vel value="0.017104" flag="0"/>
			<psa03 value="0.0461739572301" flag="0"/>
			<psa10 value="0.0157931040921" flag="0"/>
			<psa30 value="0.00128410132994" flag="0"/>
		</comp>
		<comp name=".HNN" depth="0.0">
			<acc value="0.018589704" flag="0"/>
			<vel value="0.015743" flag="0"/>
			<psa03 value="0.0417892209815" flag="0"/>
			<psa10 value="0.0162159179447" flag="0"/>
			<psa30 value="0.00106710162785" flag="0"/>
		</comp>
		<comp name=".HNZ" depth="0.0">
			<acc value="0.014038974" flag="0"/>
			<vel value="0.012566" flag="0"/>
			<psa03 value="0.0421024164278" flag="0"/>
			<psa10 value="0.00962807544219" flag="0"/>
			<psa30 value="0.000883211158645" flag="0"/>
		</comp>
	</station>
	<station code="SMG" name="SMG" netid="HL" source="National Observatory of Athens Seismic Network" insttype="" lat="37.70425" lon="26.83772">
		<comp name="00.HNE" depth="0.0">
			<acc value="0.225361248" flag="0"/>
			<vel value="0.080979" flag="0"/>
			<psa03 value="0.800661787434" flag="0"/>
			<psa10 value="0.0331687400323" flag="0"/>
			<psa30 value="0.00559769747001" flag="0"/>
		</comp>
		<comp name="00.HNN" depth="0.0">
			<acc value="0.26967066" flag="0"/>
			<vel value="0.092394" flag="0"/>
			<psa03 value="0.823614539429" flag="0"/>
			<psa10 value="0.0658743982261" flag="0"/>
			<psa30 value="0.00625227595284" flag="0"/>
		</comp>
		<comp name="00.HNZ" depth="0.0">
			<acc value="0.182762682" flag="0"/>
			<vel value="0.056678" flag="0"/>
			<psa03 value="0.325946975214" flag="0"/>
			<psa10 value="0.0322788175427" flag="0"/>
			<psa30 value="0.00767955234396" flag="0"/>
		</comp>
	</station>
	<station code="DIDI" name="DIDI" netid="KO" source="Bogazici University Kandilli Observatory And Earthquake Research Institute (KOERI)" insttype="" lat="37.3767" lon="27.2398">
		<comp name=".HNE" depth="0.0">
			<acc value="0.101886678" flag="0"/>
			<vel value="0.050217" flag="0"/>
			<psa03 value="0.300980823921" flag="0"/>
			<psa10 value="0.0271325689375" flag="0"/>
			<psa30 value="0.00446348253224" flag="0"/>
		</comp>
		<comp name=".HNN" depth="0.0">
			<acc value="0.11796147" flag="0"/>
			<vel value="0.049427" flag="0"/>
			<psa03 value="0.379413912123" flag="0"/>
			<psa10 value="0.0249419905014" flag="0"/>
			<psa30 value="0.004373998119" flag="0"/>
		</comp>
		<comp name=".HNZ" depth="0.0">
			<acc value="0.192214614" flag="0"/>
			<vel value="0.053899" flag="0"/>
			<psa03 value="0.240578844986" flag="0"/>
			<psa10 value="0.0191756149125" flag="0"/>
			<psa30 value="0.00215970631346" flag="0"/>
		</comp>
	</station>
	<station code="FOCM" name="FOCM" netid="KO" source="Bogazici University Kandilli Observatory And Earthquake Research Institute (KOERI)" insttype="" lat="38.7131" lon="26.7309">
		<comp name=".HNE" depth="0.0">
			<acc value="0.043397736" flag="0"/>
			<vel value="0.020818" flag="0"/>
			<psa03 value="0.113018813918" flag="0"/>
			<psa10 value="0.0132360869839" flag="0"/>
			<psa30 value="0.00162503694438" flag="0"/>
		</comp>
		<comp name=".HNN" depth="0.0">
			<acc value="0.032693244" flag="0"/>
			<vel value="0.018093" flag="0"/>
			<psa03 value="0.0703794910105" flag="0"/>
			<psa10 value="0.0207702271563" flag="0"/>
			<psa30 value="0.00103712434941" flag="0"/>
		</comp>
		<comp name=".HNZ" depth="0.0">
			<acc value="0.025886784" flag="0"/>
			<vel value="0.011447" flag="0"/>
			<psa03 value="0.0905582261954" flag="0"/>
			<psa10 value="0.00735696103424" flag="0"/>
			<psa30 value="0.000951666734771" flag="0"/>
		</comp>
	</station>
	<station code="GMLD" name="GMLD" netid="KO" source="Bogazici University Kandilli Observatory And Earthquake Research Institute (KOERI)" insttype="" lat="38.0766" lon="26.9157">
		<comp name=".HNE" depth="0.0">
			<acc value="1.61631342" flag="0"/>
			<vel value="0.719762" flag="0"/>
			<psa03 value="3.10734624964" flag="0"/>
			<psa10 value="0.609649253783" flag="0"/>
			<psa30 value="0.0443672669268" flag="0"/>
		</comp>
		<comp name=".HNN" depth="0.0">
			<acc value="1.71785799" flag="0"/>
			<vel value="1.037303" flag="0"/>
			<psa03 value="4.13646174407" flag="0"/>
			<psa10 value="0.804183893939" flag="0"/>
			<psa30 value="0.054225317311" flag="0"/>
		</comp>
		<comp name=".HNZ" depth="0.0">
			<acc value="0.849339108" flag="0"/>
			<vel value="0.408718" flag="0"/>
			<psa03 value="2.60847064585" flag="0"/>
			<psa10 value="0.126956906123" flag="0"/>
			<psa30 value="0.0174776481713" flag="0"/>
		</comp>
	</station>
	<station code="GORD" name="GORD" netid="KO" source="Bogazici University Kandilli Observatory And Earthquake Research Institute (KOERI)" insttype="" lat="38.9088" lon="28.1769">
		<comp name=".HNE" depth="0.0">
			<acc value="0.041110692" flag="0"/>
			<vel value="0.030388" flag="0"/>
			<psa03 value="0.137537543145" flag="0"/>
			<psa10 value="0.0424062160107" flag="0"/>
			<psa30 value="0.00367601969576" flag="0"/>
		</comp>
		<comp name=".HNN" depth="0.0">
			<acc value="0.030580212" flag="0"/>
			<vel value="0.023607" flag="0"/>
			<psa03 value="0.0799990654335" flag="0"/>
			<psa10 value="0.0357378375363" flag="0"/>
			<psa30 value="0.00534356173642" flag="0"/>
		</comp>
		<comp name=".HNZ" depth="0.0">
			<acc value="0.029595912" flag="0"/>
			<vel value="0.027798" flag="0"/>
			<psa03 value="0.0976274948411" flag="0"/>
			<psa10 value="0.0382062650755" flag="0"/>
			<psa30 value="0.00311808437923" flag="0"/>
		</comp>
	</station>
	<station code="KRBN" name="KRBN" netid="KO" source="Bogazici University Kandilli Observatory And Earthquake Research Institute (KOERI)" insttype="" lat="38.5936" lon="26.5537">
		<comp name=".HNE" depth="0.0">
			<acc value="0.267365052" flag="0"/>
			<vel value="0.158312" flag="0"/>
			<psa03 value="0.804957039269" flag="0"/>
			<psa10 value="0.0884566847505" flag="0"/>
			<psa30 value="0.00796813957665" flag="0"/>
		</comp>
		<comp name=".HNN" depth="0.0">
			<acc value="0.267732864" flag="0"/>
			<vel value="0.153095" flag="0"/>
			<psa03 value="0.74289959869" flag="0"/>
			<psa10 value="0.278042389432" flag="0"/>
			<psa30 value="0.00971174336856" flag="0"/>
		</comp>
		<comp name=".HNZ" depth="0.0">
			<acc value="0.144824598" flag="0"/>
			<vel value="0.079624" flag="0"/>
			<psa03 value="0.496817462289" flag="0"/>
			<psa10 value="0.0835681512554" flag="0"/>
			<psa30 value="0.00405453876375" flag="0"/>
		</comp>
	</station>
	<station code="KUSD" name="KUSD" netid="KO" source="Bogazici University Kandilli Observatory And Earthquake Research Institute (KOERI)" insttype="" lat="37.8606" lon="27.2868">
		<comp name=".HNE" depth="0.0">
			<acc value="0.551050002" flag="0"/>
			<vel value="0.137232" flag="0"/>
			<psa03 value="0.565988913721" flag="0"/>
			<psa10 value="0.106186678967" flag="0"/>
			<psa30 value="0.021700865054" flag="0"/>
		</comp>
		<comp name=".HNN" depth="0.0">
			<acc value="0.548773668" flag="0"/>
			<vel value="0.153605" flag="0"/>
			<psa03 value="0.602945976388" flag="0"/>
			<psa10 value="0.168058439389" flag="0"/>
			<psa30 value="0.0149613464711" flag="0"/>
		</comp>
		<comp name=".HNZ" depth="0.0">
			<acc value="0.435935862" flag="0"/>
			<vel value="0.13241" flag="0"/>
			<psa03 value="0.561469950853" flag="0"/>
			<psa10 value="0.0679320923085" flag="0"/>
			<psa30 value="0.0134875381851" flag="0"/>
		</comp>
	</station>
	<station code="NAZL" name="NAZL" netid="KO" source="Bogazici University Kandilli Observatory And Earthquake Research Institute (KOERI)" insttype="" lat="37.9641" lon="28.2922">
		<comp name=".HNE" depth="0.0">
			<acc value="0.123905724" flag="0"/>
			<vel value="0.0523" flag="0"/>
			<psa03 value="0.399458420688" flag="0"/>
			<psa10 value="0.0412988463969" flag="0"/>
			<psa30 value="0.00345991483779" flag="0"/>
		</comp>
		<comp name=".HNN" depth="0.0">
			<acc value="0.12383871" flag="0"/>
			<vel value="0.064491" flag="0"/>
			<psa03 value="0.329794804983" flag="0"/>
			<psa10 value="0.0461712726977" flag="0"/>
			<psa30 value="0.00342098911803" flag="0"/>
		</comp>
		<comp name=".HNZ" depth="0.0">
			<acc value="0.067638954" flag="0"/>
			<vel value="0.034188" flag="0"/>
			<psa03 value="0.138969293756" flag="0"/>
			<psa10 value="0.0196709111397" flag="0"/>
			<psa30 value="0.00222234540273" flag="0"/>
		</comp>
	</station>
	<station code="SOMA" name="SOMA" netid="KO" source="Bogazici University Kandilli Observatory And Earthquake Research Institute (KOERI)" insttype="" lat="39.1564" lon="27.5341">
		<comp name=".HNE" depth="0.0">
			<acc value="0.096516582" flag="0"/>
			<vel value="0.061962" flag="0"/>
			<psa03 value="0.18509850878" flag="0"/>
			<psa10 value="0.0421887688866" flag="0"/>
			<psa30 value="0.00395073684439" flag="0"/>
		</comp>
		<comp name=".HNN" depth="0.0">
			<acc value="0.109369398" flag="0"/>
			<vel value="0.054496" flag="0"/>
			<psa03 value="0.269527052668" flag="0"/>
			<psa10 value="0.0536691716827" flag="0"/>
			<psa30 value="0.00507018685398" flag="0"/>
		</comp>
		<comp name=".HNZ" depth="0.0">
			<acc value="0.059828304" flag="0"/>
			<vel value="0.033668" flag="0"/>
			<psa03 value="0.164875031388" flag="0"/>
			<psa10 value="0.0287513419729" flag="0"/>
			<psa30 value="0.00377400512825" flag="0"/>
		</comp>
	</station>
	<station code="YKAV" name="YKAV" netid="KO" source="Bogazici University Kandilli Observatory And Earthquake Research Institute (KOERI)" insttype="" lat="37.1246" lon="27.2801">
		<comp name=".HNE" depth="0.0">
			<acc value="0.03671949" flag="0"/>
			<vel value="0.026056" flag="0"/>
			<psa03 value="0.0806254563261" flag="0"/>
			<psa10 value="0.0299714619474" flag="0"/>
			<psa30 value="0.00164561835942" flag="0"/>
		</comp>
		<comp name=".HNN" depth="0.0">
			<acc value="0.04179042" flag="0"/>
			<vel value="0.03526" flag="0"/>
			<psa03 value="0.0712743351429" flag="0"/>
			<psa10 value="0.0355405244052" flag="0"/>
			<psa30 value="0.00179997897225" flag="0"/>
		</comp>
		<comp name=".HNZ" depth="0.0">
			<acc value="0.019838694" flag="0"/>
			<vel value="0.013945" flag="0"/>
			<psa03 value="0.0415207677418" flag="0"/>
			<psa10 value="0.0149917711716" flag="0"/>
			<psa30 value="0.00115658604108" flag="0"/>
		</comp>
	</station>
</stationlist>
