<stationlist xmlns:esm="https://esm-db.eu/esmws/shakemap/1/" created="1784080509">
	<station code="ROD3" name="ROD3" netid="CL" source="Corinth Riff Laboratory (CRLNET)" insttype="" lat="38.30811" lon="21.89204" esm:processing="automatic (Paolucci et al 2011)" esm:quality="best">
		<comp name="00.HNE" depth="0.0">
			<acc value="0.0318735296864949" flag="0"/>
			<vel value="0.0162483298245118" flag="0"/>
			<psa03 value="0.0738208590198104" flag="0"/>
			<psa10 value="0.0112691749650403" flag="0"/>
			<psa30 value="0.00108903756005971" flag="0"/>
		</comp>
		<comp name="00.HNN" depth="0.0">
			<acc value="0.0292784321050372" flag="0"/>
			<vel value="0.0147987702467957" flag="0"/>
			<psa03 value="0.11284061055348" flag="0"/>
			<psa10 value="0.0114985242207926" flag="0"/>
			<psa30 value="0.00129193610525801" flag="0"/>
		</comp>
		<comp name="00.HNZ" depth="0.0">
			<acc value="0.0125128092502369" flag="0"/>
			<vel value="0.00615706664447034" flag="0"/>
			<psa03 value="0.0215103299017018" flag="0"/>
			<psa10 value="0.00762521747698934" flag="0"/>
			<psa30 value="0.000664480424817573" flag="0"/>
		</comp>
	</station>
	<station code="AIGS" name="AIGS" netid="HA" source="Hellenic Seismological Network, University of Athens, Seismological Laboratory (HA)" insttype="" lat="38.25001" lon="22.0878" esm:processing="manual (Paolucci et al 2011)" esm:quality="good">
		<comp name="--.HNE" depth="0.0">
			<acc value="0.0162653733460038" flag="0"/>
			<vel value="0.00778044563692206" flag="0"/>
			<psa03 value="0.0512192055209949" flag="0"/>
			<psa10 value="0.00786016397853789" flag="0"/>
			<psa30 value="0.00145123519970969" flag="0"/>
		</comp>
		<comp name="--.HNN" depth="0.0">
			<acc value="0.0157421367760606" flag="0"/>
			<vel value="0.00804650157826827" flag="0"/>
			<psa03 value="0.02645407536933" flag="0"/>
			<psa10 value="0.0110008024991764" flag="0"/>
			<psa30 value="0.00153085578668282" flag="0"/>
		</comp>
		<comp name="--.HNZ" depth="0.0">
			<acc value="0.00779566625967826" flag="0"/>
			<vel value="0.00624221697117266" flag="0"/>
			<psa03 value="0.0170580948588176" flag="0"/>
			<psa10 value="0.00964780474471537" flag="0"/>
			<psa30 value="0.00164415475051646" flag="0"/>
		</comp>
	</station>
	<station code="ARG2" name="ARG2" netid="HI" source="ITSAK Strong Motion Network" insttype="" lat="38.1783" lon="20.4878" esm:processing="manual (Paolucci et al 2011)" esm:quality="good">
		<comp name="--.HNE" depth="0.0">
			<acc value="0.0863132884466132" flag="0"/>
			<vel value="0.0187937514498656" flag="0"/>
			<psa03 value="0.0921072058170902" flag="0"/>
			<psa10 value="0.00891509058101444" flag="0"/>
			<psa30 value="0.000681904495744524" flag="0"/>
		</comp>
		<comp name="--.HNN" depth="0.0">
			<acc value="0.0695272069785958" flag="0"/>
			<vel value="0.0210981281402411" flag="0"/>
			<psa03 value="0.0695974073617783" flag="0"/>
			<psa10 value="0.0117540802126472" flag="0"/>
			<psa30 value="0.000880080592688674" flag="0"/>
		</comp>
		<comp name="--.HNZ" depth="0.0">
			<acc value="0.0444675127752497" flag="0"/>
			<vel value="0.0110221894173114" flag="0"/>
			<psa03 value="0.0739160892862805" flag="0"/>
			<psa10 value="0.00575510265355508" flag="0"/>
			<psa30 value="0.000627382081819246" flag="0"/>
		</comp>
	</station>
	<station code="ARS1" name="ARS1" netid="HI" source="ITSAK Strong Motion Network" insttype="" lat="37.6349" lon="22.7293" esm:processing="manual (Paolucci et al 2011)" esm:quality="good">
		<comp name="--.HNE" depth="0.0">
			<acc value="0.00900766293709614" flag="0"/>
			<vel value="0.00645862355660328" flag="0"/>
			<psa03 value="0.0246792624841801" flag="0"/>
			<psa10 value="0.00938565112830672" flag="0"/>
			<psa30 value="0.000646760917655173" flag="0"/>
		</comp>
		<comp name="--.HNN" depth="0.0">
			<acc value="0.00977591118491624" flag="0"/>
			<vel value="0.00747049791664106" flag="0"/>
			<psa03 value="0.0389254275768802" flag="0"/>
			<psa10 value="0.00803357593498026" flag="0"/>
			<psa30 value="0.000823194376337583" flag="0"/>
		</comp>
		<comp name="--.HNZ" depth="0.0">
			<acc value="0.00609317913890535" flag="0"/>
			<vel value="0.0028258339671213" flag="0"/>
			<psa03 value="0.0186282171008813" flag="0"/>
			<psa10 value="0.00299442008438384" flag="0"/>
			<psa30 value="0.000451461313344344" flag="0"/>
		</comp>
	</station>
	<station code="KLV1" name="KLV1" netid="HI" source="ITSAK Strong Motion Network" insttype="" lat="38.03256" lon="22.10797" esm:processing="manual (Paolucci et al 2011)" esm:quality="bad">
		<comp name="--.HNE" depth="0.0">
			<acc value="0.0194453189842851" flag="0"/>
			<vel value="0.0105422887558721" flag="0"/>
			<psa03 value="0.0719100032681237" flag="0"/>
			<psa10 value="0.0110023504142234" flag="0"/>
			<psa30 value="0.000602595908602678" flag="0"/>
		</comp>
		<comp name="--.HNN" depth="0.0">
			<acc value="0.0176797987227762" flag="0"/>
			<vel value="0.010512466431685" flag="0"/>
			<psa03 value="0.0521001597134079" flag="0"/>
			<psa10 value="0.0119028966334836" flag="0"/>
			<psa30 value="0.000870209990889578" flag="0"/>
		</comp>
		<comp name="--.HNZ" depth="0.0">
			<acc value="0.00712441691469834" flag="0"/>
			<vel value="0.0052875447073832" flag="0"/>
			<psa03 value="0.0195059184734675" flag="0"/>
			<psa10 value="0.00638401228446876" flag="0"/>
			<psa30 value="0.000712577204743633" flag="0"/>
		</comp>
	</station>
	<station code="MSL1" name="MSL1" netid="HI" source="ITSAK Strong Motion Network" insttype="" lat="38.3727" lon="21.4243" esm:processing="manual (Paolucci et al 2011)" esm:quality="best">
		<comp name="--.HNE" depth="0.0">
			<acc value="0.0273174849121285" flag="0"/>
			<vel value="0.0275482860432458" flag="0"/>
			<psa03 value="0.0649172848265945" flag="0"/>
			<psa10 value="0.050563182062631" flag="0"/>
			<psa30 value="0.00185740846086157" flag="0"/>
		</comp>
		<comp name="--.HNN" depth="0.0">
			<acc value="0.0328081037409573" flag="0"/>
			<vel value="0.0318068599905077" flag="0"/>
			<psa03 value="0.0826979783350532" flag="0"/>
			<psa10 value="0.0425178003454343" flag="0"/>
			<psa30 value="0.00198121770428469" flag="0"/>
		</comp>
		<comp name="--.HNZ" depth="0.0">
			<acc value="0.0131714921510219" flag="0"/>
			<vel value="0.00929675841580477" flag="0"/>
			<psa03 value="0.0342209544702815" flag="0"/>
			<psa10 value="0.0173982256720795" flag="0"/>
			<psa30 value="0.000619068197731325" flag="0"/>
		</comp>
	</station>
	<station code="PATC" name="PATC" netid="HL" source="National Observatory of Athens Seismic Network" insttype="" lat="38.26933" lon="21.76001" esm:processing="manual (Paolucci et al 2011)" esm:quality="best">
		<comp name="00.HNE" depth="0.0">
			<acc value="0.0369331808971203" flag="0"/>
			<vel value="0.0247767546201016" flag="0"/>
			<psa03 value="0.0999478085516604" flag="0"/>
			<psa10 value="0.0305540521810194" flag="0"/>
			<psa30 value="0.00318800889827781" flag="0"/>
		</comp>
		<comp name="00.HNN" depth="0.0">
			<acc value="0.0344455237687626" flag="0"/>
			<vel value="0.0271666677272763" flag="0"/>
			<psa03 value="0.0741973058323674" flag="0"/>
			<psa10 value="0.0298222624535305" flag="0"/>
			<psa30 value="0.00291915442132264" flag="0"/>
		</comp>
		<comp name="00.HNZ" depth="0.0">
			<acc value="0.0143457716527744" flag="0"/>
			<vel value="0.0125623591668288" flag="0"/>
			<psa03 value="0.0407594110484401" flag="0"/>
			<psa10 value="0.0149079735175738" flag="0"/>
			<psa30 value="0.00105101024926949" flag="0"/>
		</comp>
	</station>
	<station code="PATG" name="PATG" netid="HL" source="National Observatory of Athens Seismic Network" insttype="" lat="38.23865" lon="21.72657" esm:processing="manual (Paolucci et al 2011)" esm:quality="best">
		<comp name="00.HNE" depth="0.0">
			<acc value="0.0327867864566612" flag="0"/>
			<vel value="0.0213718028420614" flag="0"/>
			<psa03 value="0.109023972303144" flag="0"/>
			<psa10 value="0.0311636081861069" flag="0"/>
			<psa30 value="0.00360262448952501" flag="0"/>
		</comp>
		<comp name="00.HNN" depth="0.0">
			<acc value="0.0318412095228889" flag="0"/>
			<vel value="0.0291570649628731" flag="0"/>
			<psa03 value="0.10351600326052" flag="0"/>
			<psa10 value="0.0338014954331959" flag="0"/>
			<psa30 value="0.00363613795962855" flag="0"/>
		</comp>
		<comp name="00.HNZ" depth="0.0">
			<acc value="0.0555216423350296" flag="0"/>
			<vel value="0.0144953713872003" flag="0"/>
			<psa03 value="0.0574368049064676" flag="0"/>
			<psa10 value="0.0180522614987118" flag="0"/>
			<psa30 value="0.00240753636246958" flag="0"/>
		</comp>
	</station>
	<station code="DSF" name="DSF" netid="HP" source="University of Patras, Seismological Laboratory (PSLNET)" insttype="" lat="38.4112" lon="22.5271" esm:processing="manual (Paolucci et al 2011)" esm:quality="good">
		<comp name="--.HNE" depth="1.0">
			<acc value="0.00414027580455672" flag="0"/>
			<vel value="0.00216155368811134" flag="0"/>
			<psa03 value="0.0103202735112133" flag="0"/>
			<psa10 value="0.0022356648987019" flag="0"/>
			<psa30 value="0.000226012576390805" flag="0"/>
		</comp>
		<comp name="--.HNN" depth="1.0">
			<acc value="0.00801962948501095" flag="0"/>
			<vel value="0.0035871354115769" flag="0"/>
			<psa03 value="0.0405096809633806" flag="0"/>
			<psa10 value="0.00323853266189472" flag="0"/>
			<psa30 value="0.000179478491131601" flag="0"/>
		</comp>
		<comp name="--.HNZ" depth="1.0">
			<acc value="0.00356232012336303" flag="0"/>
			<vel value="0.00152928685490484" flag="0"/>
			<psa03 value="0.00980922142734128" flag="0"/>
			<psa10 value="0.00200137890965374" flag="0"/>
			<psa30 value="0.0001823915877561" flag="0"/>
		</comp>
	</station>
	<station code="FSK" name="FSK" netid="HP" source="University of Patras, Seismological Laboratory (PSLNET)" insttype="" lat="38.4593" lon="20.5623" esm:processing="manual (Paolucci et al 2011)" esm:quality="good">
		<comp name="--.HNE" depth="0.0">
			<acc value="0.0181580028420984" flag="0"/>
			<vel value="0.00454165530691783" flag="0"/>
			<psa03 value="0.0223733779598336" flag="0"/>
			<psa10 value="0.00426616214353521" flag="0"/>
			<psa30 value="0.000556870275338782" flag="0"/>
		</comp>
		<comp name="--.HNN" depth="0.0">
			<acc value="0.00940532212033229" flag="0"/>
			<vel value="0.00396348540362507" flag="0"/>
			<psa03 value="0.0151665984627261" flag="0"/>
			<psa10 value="0.0048852817509523" flag="0"/>
			<psa30 value="0.00061905996801986" flag="0"/>
		</comp>
		<comp name="--.HNZ" depth="0.0">
			<acc value="0.0086372064772067" flag="0"/>
			<vel value="0.00318981393197593" flag="0"/>
			<psa03 value="0.009677965336453" flag="0"/>
			<psa10 value="0.00356082080877645" flag="0"/>
			<psa30 value="0.00035703302668558" flag="0"/>
		</comp>
	</station>
	<station code="GUR" name="GUR" netid="HP" source="University of Patras, Seismological Laboratory (PSLNET)" insttype="" lat="37.9363" lon="22.3423" esm:processing="manual (Paolucci et al 2011)" esm:quality="best">
		<comp name="--.HNE" depth="0.0">
			<acc value="0.0150456262411884" flag="0"/>
			<vel value="0.0107142478051347" flag="0"/>
			<psa03 value="0.0409428242403534" flag="0"/>
			<psa10 value="0.0115697498766519" flag="0"/>
			<psa30 value="0.000606711754175953" flag="0"/>
		</comp>
		<comp name="--.HNN" depth="0.0">
			<acc value="0.0143359184545646" flag="0"/>
			<vel value="0.0101184327292565" flag="0"/>
			<psa03 value="0.0589698387542788" flag="0"/>
			<psa10 value="0.0086961004489962" flag="0"/>
			<psa30 value="0.000643512525379886" flag="0"/>
		</comp>
		<comp name="--.HNZ" depth="0.0">
			<acc value="0.00950999311076331" flag="0"/>
			<vel value="0.00426603769911382" flag="0"/>
			<psa03 value="0.0191438437065253" flag="0"/>
			<psa10 value="0.00415169987347351" flag="0"/>
			<psa30 value="0.000439193521498738" flag="0"/>
		</comp>
	</station>
	<station code="LTHK" name="LTHK" netid="HP" source="University of Patras, Seismological Laboratory (PSLNET)" insttype="" lat="37.7095" lon="20.8367" esm:processing="manual (Paolucci et al 2011)" esm:quality="good">
		<comp name="--.HNE" depth="0.0">
			<acc value="0.892681915145026" flag="0"/>
			<vel value="0.15452173852737" flag="0"/>
			<psa03 value="0.599663641439718" flag="0"/>
			<psa10 value="0.0762714201072128" flag="0"/>
			<psa30 value="0.0048751204527908" flag="0"/>
		</comp>
		<comp name="--.HNN" depth="0.0">
			<acc value="0.623426407848806" flag="0"/>
			<vel value="0.119023353435234" flag="0"/>
			<psa03 value="0.393705581062538" flag="0"/>
			<psa10 value="0.070725545220165" flag="0"/>
			<psa30 value="0.00407584458803418" flag="0"/>
		</comp>
		<comp name="--.HNZ" depth="0.0">
			<acc value="0.720172792135024" flag="0"/>
			<vel value="0.11222606513437" flag="0"/>
			<psa03 value="0.366809591002035" flag="0"/>
			<psa10 value="0.0409902641536667" flag="0"/>
			<psa30 value="0.00243250384977382" flag="0"/>
		</comp>
	</station>
	<station code="LTK" name="LTK" netid="HP" source="University of Patras, Seismological Laboratory (PSLNET)" insttype="" lat="38.0228" lon="22.9673" esm:processing="manual (Paolucci et al 2011)" esm:quality="best">
		<comp name="--.HNE" depth="0.0">
			<acc value="0.0022530849900256" flag="0"/>
			<vel value="0.00160440091204312" flag="0"/>
			<psa03 value="0.00666229551104257" flag="0"/>
			<psa10 value="0.00382994379310358" flag="0"/>
			<psa30 value="0.0001905555270145" flag="0"/>
		</comp>
		<comp name="--.HNN" depth="0.0">
			<acc value="0.00284648356872821" flag="0"/>
			<vel value="0.00179129119370616" flag="0"/>
			<psa03 value="0.0094559193770195" flag="0"/>
			<psa10 value="0.0030711236812459" flag="0"/>
			<psa30 value="0.000265503083067964" flag="0"/>
		</comp>
		<comp name="--.HNZ" depth="0.0">
			<acc value="0.00258676468254379" flag="0"/>
			<vel value="0.00181220890476174" flag="0"/>
			<psa03 value="0.00784459974434155" flag="0"/>
			<psa10 value="0.0018304063726271" flag="0"/>
			<psa30 value="0.000189876640895732" flag="0"/>
		</comp>
	</station>
	<station code="PDO" name="PDO" netid="HP" source="University of Patras, Seismological Laboratory (PSLNET)" insttype="" lat="38.5986" lon="21.1833" esm:processing="manual (Paolucci et al 2011)" esm:quality="best">
		<comp name="--.HNE" depth="0.0">
			<acc value="0.0272790985286651" flag="0"/>
			<vel value="0.0118964779753449" flag="0"/>
			<psa03 value="0.117716079362738" flag="0"/>
			<psa10 value="0.00688148930239079" flag="0"/>
			<psa30 value="0.000707680682455941" flag="0"/>
		</comp>
		<comp name="--.HNN" depth="0.0">
			<acc value="0.0428619092180853" flag="0"/>
			<vel value="0.0191101451312246" flag="0"/>
			<psa03 value="0.198135438000345" flag="0"/>
			<psa10 value="0.0120961094328665" flag="0"/>
			<psa30 value="0.000518990630581886" flag="0"/>
		</comp>
		<comp name="--.HNZ" depth="0.0">
			<acc value="0.016464291053993" flag="0"/>
			<vel value="0.00835745086454575" flag="0"/>
			<psa03 value="0.0807365879862507" flag="0"/>
			<psa10 value="0.00652343761449044" flag="0"/>
			<psa30 value="0.000555556750826839" flag="0"/>
		</comp>
	</station>
	<station code="PYL" name="PYL" netid="HP" source="University of Patras, Seismological Laboratory (PSLNET)" insttype="" lat="36.8955" lon="21.742" esm:processing="manual (Paolucci et al 2011)" esm:quality="best">
		<comp name="--.HNE" depth="0.0">
			<acc value="0.0101478782753873" flag="0"/>
			<vel value="0.0041599562361866" flag="0"/>
			<psa03 value="0.0220817909352996" flag="0"/>
			<psa10 value="0.00326531552987853" flag="0"/>
			<psa30 value="0.00017450234117369" flag="0"/>
		</comp>
		<comp name="--.HNN" depth="0.0">
			<acc value="0.0107473422235107" flag="0"/>
			<vel value="0.00379679315808468" flag="0"/>
			<psa03 value="0.0179732583484939" flag="0"/>
			<psa10 value="0.00300922137739943" flag="0"/>
			<psa30 value="0.000163156667703347" flag="0"/>
		</comp>
		<comp name="--.HNZ" depth="0.0">
			<acc value="0.00650117653788862" flag="0"/>
			<vel value="0.00199920797780809" flag="0"/>
			<psa03 value="0.00693766596654333" flag="0"/>
			<psa10 value="0.00226849527667765" flag="0"/>
			<psa30 value="0.000140796358317778" flag="0"/>
		</comp>
	</station>
	<station code="SERG" name="SERG" netid="HP" source="University of Patras, Seismological Laboratory (PSLNET)" insttype="" lat="38.4133" lon="22.0566" esm:processing="manual (Paolucci et al 2011)" esm:quality="best">
		<comp name="--.HNE" depth="0.0">
			<acc value="0.0119348307855551" flag="0"/>
			<vel value="0.0072242682059608" flag="0"/>
			<psa03 value="0.0287975014431419" flag="0"/>
			<psa10 value="0.00542120725337518" flag="0"/>
			<psa30 value="0.00040824279929017" flag="0"/>
		</comp>
		<comp name="--.HNN" depth="0.0">
			<acc value="0.0117665138537888" flag="0"/>
			<vel value="0.00590076327143271" flag="0"/>
			<psa03 value="0.0307939592195051" flag="0"/>
			<psa10 value="0.00472163731656147" flag="0"/>
			<psa30 value="0.000501421914655672" flag="0"/>
		</comp>
		<comp name="--.HNZ" depth="0.0">
			<acc value="0.00810312435652031" flag="0"/>
			<vel value="0.00366537613093081" flag="0"/>
			<psa03 value="0.0147619961389536" flag="0"/>
			<psa10 value="0.00431811761660688" flag="0"/>
			<psa30 value="0.000523650262178374" flag="0"/>
		</comp>
	</station>
	<station code="UPR" name="UPR" netid="HP" source="University of Patras, Seismological Laboratory (PSLNET)" insttype="" lat="38.2836" lon="21.7864" esm:processing="manual (Paolucci et al 2011)" esm:quality="best">
		<comp name="--.HNE" depth="0.0">
			<acc value="0.0155086555109426" flag="0"/>
			<vel value="0.0143081469821188" flag="0"/>
			<psa03 value="0.0396790504173681" flag="0"/>
			<psa10 value="0.0233550115298898" flag="0"/>
			<psa30 value="0.00321779128787917" flag="0"/>
		</comp>
		<comp name="--.HNN" depth="0.0">
			<acc value="0.0182577719159581" flag="0"/>
			<vel value="0.0148974531246639" flag="0"/>
			<psa03 value="0.0355978399530349" flag="0"/>
			<psa10 value="0.0259260956016028" flag="0"/>
			<psa30 value="0.00251829557472186" flag="0"/>
		</comp>
		<comp name="--.HNZ" depth="0.0">
			<acc value="0.016411129955648" flag="0"/>
			<vel value="0.0152705299846851" flag="0"/>
			<psa03 value="0.0324321458663256" flag="0"/>
			<psa10 value="0.0207265861596208" flag="0"/>
			<psa30 value="0.00118065623351325" flag="0"/>
		</comp>
	</station>
	<station code="VALY" name="VALY" netid="HP" source="University of Patras, Seismological Laboratory (PSLNET)" insttype="" lat="37.1641" lon="21.9836" esm:processing="manual (Paolucci et al 2011)" esm:quality="good">
		<comp name="--.HNE" depth="0.0">
			<acc value="0.0187041410996322" flag="0"/>
			<vel value="0.00615441382517951" flag="0"/>
			<psa03 value="0.0561880555161069" flag="0"/>
			<psa10 value="0.00602263834521861" flag="0"/>
			<psa30 value="0.000375738614797719" flag="0"/>
		</comp>
		<comp name="--.HNN" depth="0.0">
			<acc value="0.0214070792096789" flag="0"/>
			<vel value="0.00579399405347336" flag="0"/>
			<psa03 value="0.0324219576914311" flag="0"/>
			<psa10 value="0.00717510703437836" flag="0"/>
			<psa30 value="0.000666149285370798" flag="0"/>
		</comp>
		<comp name="--.HNZ" depth="0.0">
			<acc value="0.0113779157350012" flag="0"/>
			<vel value="0.00371428737358611" flag="0"/>
			<psa03 value="0.0235072577612982" flag="0"/>
			<psa10 value="0.00534708406183538" flag="0"/>
			<psa30 value="0.000343198959205108" flag="0"/>
		</comp>
	</station>
	<station code="VVK" name="VVK" netid="HP" source="University of Patras, Seismological Laboratory (PSLNET)" insttype="" lat="38.4222" lon="21.8116" esm:processing="manual (Paolucci et al 2011)" esm:quality="best">
		<comp name="--.HNE" depth="0.0">
			<acc value="0.00833966066588402" flag="0"/>
			<vel value="0.00531305029630383" flag="0"/>
			<psa03 value="0.0244893644877106" flag="0"/>
			<psa10 value="0.00718155371145614" flag="0"/>
			<psa30 value="0.000921627824152595" flag="0"/>
		</comp>
		<comp name="--.HNN" depth="0.0">
			<acc value="0.00914015026844113" flag="0"/>
			<vel value="0.00694213757642111" flag="0"/>
