<?xml version="1.0" encoding="UTF-8" standalone="yes"?>
<!DOCTYPE earthquake SYSTEM "stationlist.dtd">
<stationlist created="" xmlns="ch.ethz.sed.shakemap.usgs.xml">
  <station code="KLV" name="KLV" netid="MN" insttype="" lat="38.0437" lon="22.1504">
    <comp name="--.HHN">
      <acc value="0.0064924431" flag="0"/>
      <vel value="0.0043423668" flag="0"/>
      <psa03 value="0.0130343569" flag="0"/>
      <psa10 value="0.0050303965" flag="0"/>
      <psa30 value="0.0004195327" flag="0"/>
    </comp>
    <comp name="--.HHZ">
      <acc value="0.0071308714" flag="0"/>
      <vel value="0.0052264450" flag="0"/>
      <psa03 value="0.0152381949" flag="0"/>
      <psa10 value="0.0058839633" flag="0"/>
      <psa30 value="0.0006091103" flag="0"/>
    </comp>
    <comp name="--.HHE">
      <acc value="0.0081936058" flag="0"/>
      <vel value="0.0039360077" flag="0"/>
      <psa03 value="0.0163826696" flag="0"/>
      <psa10 value="0.0046893508" flag="0"/>
      <psa30 value="0.0004006808" flag="0"/>
    </comp>
  </station>
</stationlist>
