<?xml version="1.0" encoding="UTF-8" standalone="yes"?>
<!DOCTYPE earthquake SYSTEM "stationlist.dtd">
<stationlist created="" xmlns="ch.ethz.sed.shakemap.usgs.xml">
  <station code="ATHR" name="ATHR" netid="HA" insttype="GEOtiny," lat="38.3172" lon="20.4165">
    <comp name="--.HHE">
      <acc value="0.0125451815" flag="0"/>
      <vel value="0.0058432452" flag="0"/>
      <psa03 value="0.0260859541" flag="0"/>
      <psa10 value="0.0097424599" flag="0"/>
      <psa30 value="0.0005427766" flag="0"/>
    </comp>
    <comp name="--.HHZ">
      <acc value="0.0117772508" flag="0"/>
      <vel value="0.0041703969" flag="0"/>
      <psa03 value="0.0188186920" flag="0"/>
      <psa10 value="0.0042449644" flag="0"/>
      <psa30 value="0.0003896888" flag="0"/>
    </comp>
    <comp name="--.HHN">
      <acc value="0.0121127937" flag="0"/>
      <vel value="0.0063283509" flag="0"/>
      <psa03 value="0.0358755872" flag="0"/>
      <psa10 value="0.0041622113" flag="0"/>
      <psa30 value="0.0003560464" flag="0"/>
    </comp>
  </station>
  <station code="HAVD" name="HAVD" netid="HA" insttype="GEOtiny," lat="38.2036" lon="20.3848">
    <comp name="--.HHN">
      <acc value="0.0355342099" flag="0"/>
      <vel value="0.0070419849" flag="0"/>
      <psa03 value="0.0453108357" flag="0"/>
      <psa10 value="0.0102330582" flag="0"/>
      <psa30 value="0.0006759757" flag="0"/>
    </comp>
    <comp name="--.HHE">
      <acc value="0.0294163006" flag="0"/>
      <vel value="0.0056378293" flag="0"/>
      <psa03 value="0.0377966142" flag="0"/>
      <psa10 value="0.0061550745" flag="0"/>
      <psa30 value="0.0003332165" flag="0"/>
    </comp>
    <comp name="--.HHZ">
      <acc value="0.0366618961" flag="0"/>
      <vel value="0.0050718895" flag="0"/>
      <psa03 value="0.0332076939" flag="0"/>
      <psa10 value="0.0036712559" flag="0"/>
      <psa30 value="0.0003667751" flag="0"/>
    </comp>
  </station>
  <station code="LAKA" name="LAKA" netid="HA" insttype="120s," lat="38.2401" lon="21.9785">
    <comp name="--.HHE">
      <acc value="0.0019861908" flag="0"/>
      <vel value="0.0016661448" flag="0"/>
      <psa03 value="0.0059071614" flag="0"/>
      <psa10 value="0.0029090302" flag="0"/>
      <psa30 value="0.0003280375" flag="0"/>
    </comp>
    <comp name="--.HHZ">
      <acc value="0.0016660933" flag="0"/>
      <vel value="0.0012475646" flag="0"/>
      <psa03 value="0.0042230640" flag="0"/>
      <psa10 value="0.0023584378" flag="0"/>
      <psa30 value="0.0002232923" flag="0"/>
    </comp>
    <comp name="--.HHN">
      <acc value="0.0025321126" flag="0"/>
      <vel value="0.0022012761" flag="0"/>
      <psa03 value="0.0045160120" flag="0"/>
      <psa10 value="0.0026439357" flag="0"/>
      <psa30 value="0.0007328050" flag="0"/>
    </comp>
  </station>
  <station code="ARG2" name="ARG2" netid="HI" insttype="CMG-5TD,ACCELEROMETER,GURALP" lat="38.1783" lon="20.4878">
    <comp name="--.HNE">
      <acc value="0.0900504440" flag="0"/>
      <vel value="0.0186317051" flag="0"/>
      <psa03 value="0.0925775160" flag="0"/>
      <psa10 value="0.0089223362" flag="0"/>
      <psa30 value="0.0006574066" flag="0"/>
    </comp>
    <comp name="--.HNN">
      <acc value="0.0707522383" flag="0"/>
      <vel value="0.0207027430" flag="0"/>
      <psa03 value="0.0687929837" flag="0"/>
      <psa10 value="0.0117489965" flag="0"/>
      <psa30 value="0.0008299249" flag="0"/>
    </comp>
    <comp name="--.HNZ">
      <acc value="0.0459460737" flag="0"/>
      <vel value="0.0107903387" flag="0"/>
      <psa03 value="0.0737209940" flag="0"/>
      <psa10 value="0.0057672371" flag="0"/>
      <psa30 value="0.0005749655" flag="0"/>
    </comp>
  </station>
  <station code="MSL1" name="MSL1" netid="HI" insttype="CMG-5TD,ACCELEROMETER,GURALP" lat="38.3727" lon="21.4243">
    <comp name="--.HNN">
      <acc value="0.0328593518" flag="0"/>
      <vel value="0.0318498387" flag="0"/>
      <psa03 value="0.0829146033" flag="0"/>
      <psa10 value="0.0425467400" flag="0"/>
      <psa30 value="0.0020014959" flag="0"/>
    </comp>
    <comp name="--.HNE">
      <acc value="0.0272656953" flag="0"/>
      <vel value="0.0274734274" flag="0"/>
      <psa03 value="0.0644703682" flag="0"/>
      <psa10 value="0.0505438843" flag="0"/>
      <psa30 value="0.0018421487" flag="0"/>
    </comp>
    <comp name="--.HNZ">
      <acc value="0.0139394195" flag="0"/>
      <vel value="0.0092578579" flag="0"/>
      <psa03 value="0.0340758571" flag="0"/>
      <psa10 value="0.0173503948" flag="0"/>
      <psa30 value="0.0006085328" flag="0"/>
    </comp>
  </station>
  <station code="ITM" name="ITM" netid="HL" insttype="DR24" lat="37.1787" lon="21.9252">
    <comp name="--.HHE">
      <acc value="0.0210615556" flag="0"/>
      <vel value="0.0070948404" flag="0"/>
      <psa03 value="0.0292479832" flag="0"/>
      <psa10 value="0.0041169856" flag="0"/>
      <psa30 value="0.0004091674" flag="0"/>
    </comp>
    <comp name="--.HHN">
      <acc value="0.0250171965" flag="0"/>
      <vel value="0.0083462175" flag="0"/>
      <psa03 value="0.0360778481" flag="0"/>
      <psa10 value="0.0058252271" flag="0"/>
      <psa30 value="0.0005315649" flag="0"/>
    </comp>
    <comp name="--.HHZ">
      <acc value="0.0127655538" flag="0"/>
      <vel value="0.0051642065" flag="0"/>
      <psa03 value="0.0234610347" flag="0"/>
      <psa10 value="0.0063606777" flag="0"/>
      <psa30 value="0.0005497727" flag="0"/>
    </comp>
  </station>
  <station code="KLV" name="KLV" netid="HL" insttype="120" lat="38.0435" lon="22.1504">
    <comp name="--.HHE">
      <acc value="0.0079639756" flag="0"/>
      <vel value="0.0038754622" flag="0"/>
      <psa03 value="0.0159689787" flag="0"/>
      <psa10 value="0.0046559098" flag="0"/>
      <psa30 value="0.0003996126" flag="0"/>
    </comp>
    <comp name="--.HHZ">
      <acc value="0.0069285596" flag="0"/>
      <vel value="0.0051585821" flag="0"/>
      <psa03 value="0.0149158044" flag="0"/>
      <psa10 value="0.0058393387" flag="0"/>
      <psa30 value="0.0006083048" flag="0"/>
    </comp>
    <comp name="--.HHN">
      <acc value="0.0062500447" flag="0"/>
      <vel value="0.0042710173" flag="0"/>
      <psa03 value="0.0126462494" flag="0"/>
      <psa10 value="0.0049968688" flag="0"/>
      <psa30 value="0.0004181809" flag="0"/>
    </comp>
  </station>
  <station code="ORTH" name="ORTH" netid="HL" insttype="30" lat="37.8511" lon="20.6963">
    <comp name="--.HHN">
      <acc value="0.2516949239" flag="0"/>
      <vel value="0.0472872707" flag="0"/>
      <psa03 value="0.2513789592" flag="0"/>
      <psa10 value="0.0173141111" flag="0"/>
      <psa30 value="0.0012244094" flag="0"/>
    </comp>
    <comp name="--.HHE">
      <acc value="0.3560352626" flag="0"/>
      <vel value="0.0901596257" flag="0"/>
      <psa03 value="0.3696292213" flag="0"/>
      <psa10 value="0.0192004866" flag="0"/>
      <psa30 value="0.0016106461" flag="0"/>
    </comp>
    <comp name="--.HHZ">
      <acc value="0.1395414604" flag="0"/>
      <vel value="0.0256754307" flag="0"/>
      <psa03 value="0.1071947604" flag="0"/>
      <psa10 value="0.0083622005" flag="0"/>
      <psa30 value="0.0006187237" flag="0"/>
    </comp>
  </station>
  <station code="PATC" name="PATC" netid="HL" insttype="CMG-5" lat="38.2693" lon="21.76">
    <comp name="00.HNE">
      <acc value="0.0370757812" flag="0"/>
      <vel value="0.0247785976" flag="0"/>
      <psa03 value="0.1004159738" flag="0"/>
      <psa10 value="0.0305867138" flag="0"/>
      <psa30 value="0.0030824818" flag="0"/>
    </comp>
    <comp name="00.HNZ">
      <acc value="0.0146413922" flag="0"/>
      <vel value="0.0125528206" flag="0"/>
      <psa03 value="0.0406475108" flag="0"/>
      <psa10 value="0.0148997976" flag="0"/>
      <psa30 value="0.0010517983" flag="0"/>
    </comp>
    <comp name="00.HNN">
      <acc value="0.0345602536" flag="0"/>
      <vel value="0.0270356219" flag="0"/>
      <psa03 value="0.0740770982" flag="0"/>
      <psa10 value="0.0298386733" flag="0"/>
      <psa30 value="0.0029241834" flag="0"/>
    </comp>
  </station>
  <station code="RLS" name="RLS" netid="HL" insttype="CMG3ESPC-120s" lat="38.0559" lon="21.4647">
    <comp name="--.HHE">
      <acc value="0.0311878961" flag="0"/>
      <vel value="0.0103008557" flag="0"/>
      <psa03 value="0.0760571692" flag="0"/>
      <psa10 value="0.0071174394" flag="0"/>
      <psa30 value="0.0006717979" flag="0"/>
    </comp>
    <comp name="--.HHN">
      <acc value="0.0320434781" flag="0"/>
      <vel value="0.0123236630" flag="0"/>
      <psa03 value="0.0546664524" flag="0"/>
      <psa10 value="0.0124196589" flag="0"/>
      <psa30 value="0.0005333015" flag="0"/>
    </comp>
    <comp name="--.HHZ">
      <acc value="0.0138212399" flag="0"/>
      <vel value="0.0069518141" flag="0"/>
      <psa03 value="0.0357414059" flag="0"/>
      <psa10 value="0.0067404245" flag="0"/>
      <psa30 value="0.0006497937" flag="0"/>
    </comp>
  </station>
  <station code="VLS" name="VLS" netid="HL" insttype="120P," lat="38.1768" lon="20.5886">
    <comp name="--.HHE">
      <acc value="0.1371909234" flag="0"/>
      <vel value="0.0142040793" flag="0"/>
      <psa03 value="0.0380299297" flag="0"/>
      <psa10 value="0.0072014754" flag="0"/>
      <psa30 value="0.0003718219" flag="0"/>
    </comp>
    <comp name="--.HHZ">
      <acc value="0.0390015912" flag="0"/>
      <vel value="0.0069505898" flag="0"/>
      <psa03 value="0.0337792785" flag="0"/>
      <psa10 value="0.0056180955" flag="0"/>
      <psa30 value="0.0003112166" flag="0"/>
    </comp>
    <comp name="--.HHN">
      <acc value="0.0743628560" flag="0"/>
      <vel value="0.0116291768" flag="0"/>
      <psa03 value="0.0477029956" flag="0"/>
      <psa10 value="0.0046684841" flag="0"/>
      <psa30 value="0.0004063582" flag="0"/>
    </comp>
  </station>
  <station code="AMT" name="AMT" netid="HP" insttype="CMG-3T," lat="37.5324" lon="21.7089">
    <comp name="00.HHE">
      <acc value="0.1414062195" flag="0"/>
      <vel value="0.0365968444" flag="0"/>
      <psa03 value="0.2187100131" flag="0"/>
      <psa10 value="0.0241491513" flag="0"/>
      <psa30 value="0.0010474970" flag="0"/>
    </comp>
    <comp name="00.HHN">
      <acc value="0.1358036859" flag="0"/>
      <vel value="0.0378242886" flag="0"/>
      <psa03 value="0.3210137215" flag="0"/>
      <psa10 value="0.0189560923" flag="0"/>
      <psa30 value="0.0012414364" flag="0"/>
    </comp>
    <comp name="00.HHZ">
      <acc value="0.0736405292" flag="0"/>
      <vel value="0.0260234886" flag="0"/>
      <psa03 value="0.1567446490" flag="0"/>
      <psa10 value="0.0126038463" flag="0"/>
      <psa30 value="0.0006724537" flag="0"/>
    </comp>
  </station>
  <station code="AXS" name="AXS" netid="HP" insttype="Compact," lat="38.1962" lon="21.3763">
    <comp name="--.HHE">
      <acc value="0.0109639547" flag="0"/>
      <vel value="0.0061145955" flag="0"/>
      <psa03 value="0.0244406136" flag="0"/>
      <psa10 value="0.0040593953" flag="0"/>
      <psa30 value="0.0003543567" flag="0"/>
    </comp>
    <comp name="--.HHN">
      <acc value="0.0121422492" flag="0"/>
      <vel value="0.0056717240" flag="0"/>
      <psa03 value="0.0366899508" flag="0"/>
      <psa10 value="0.0046081821" flag="0"/>
      <psa30 value="0.0004391125" flag="0"/>
    </comp>
    <comp name="--.HHZ">
      <acc value="0.0081366556" flag="0"/>
      <vel value="0.0044429385" flag="0"/>
      <psa03 value="0.0181048862" flag="0"/>
      <psa10 value="0.0044086939" flag="0"/>
      <psa30 value="0.0004040884" flag="0"/>
    </comp>
  </station>
  <station code="DRO" name="DRO" netid="HP" insttype="120P," lat="37.952" lon="21.71">
    <comp name="--.HHE">
      <acc value="0.0597914016" flag="0"/>
      <vel value="0.0300466625" flag="0"/>
      <psa03 value="0.1579278194" flag="0"/>
      <psa10 value="0.0238501527" flag="0"/>
      <psa30 value="0.0011999386" flag="0"/>
    </comp>
    <comp name="--.HHN">
      <acc value="0.0631873743" flag="0"/>
      <vel value="0.0252325380" flag="0"/>
      <psa03 value="0.1318954858" flag="0"/>
      <psa10 value="0.0145690056" flag="0"/>
      <psa30 value="0.0009001272" flag="0"/>
    </comp>
    <comp name="--.HHZ">
      <acc value="0.0411336316" flag="0"/>
      <vel value="0.0127634894" flag="0"/>
      <psa03 value="0.0644531659" flag="0"/>
      <psa10 value="0.0078158903" flag="0"/>
      <psa30 value="0.0012103201" flag="0"/>
    </comp>
  </station>
  <station code="FSK" name="FSK" netid="HP" insttype="40," lat="38.4593" lon="20.5623">
    <comp name="--.HHN">
      <acc value="0.0102556035" flag="0"/>
      <vel value="0.0038047263" flag="0"/>
      <psa03 value="0.0129950815" flag="0"/>
      <psa10 value="0.0051868985" flag="0"/>
      <psa30 value="0.0005895403" flag="0"/>
    </comp>
    <comp name="--.HHE">
      <acc value="0.0170578663" flag="0"/>
      <vel value="0.0044765863" flag="0"/>
      <psa03 value="0.0211461916" flag="0"/>
      <psa10 value="0.0042779414" flag="0"/>
      <psa30 value="0.0006017194" flag="0"/>
    </comp>
    <comp name="--.HHZ">
      <acc value="0.0086148971" flag="0"/>
      <vel value="0.0031740027" flag="0"/>
      <psa03 value="0.0097016802" flag="0"/>
      <psa10 value="0.0035708471" flag="0"/>
      <psa30 value="0.0003672861" flag="0"/>
    </comp>
  </station>
  <station code="PDO" name="PDO" netid="HP" insttype="120s" lat="38.5986" lon="21.1833">
    <comp name="--.HHE">
      <acc value="0.0281426283" flag="0"/>
      <vel value="0.0119994087" flag="0"/>
      <psa03 value="0.1164940820" flag="0"/>
      <psa10 value="0.0068265154" flag="0"/>
      <psa30 value="0.0007713383" flag="0"/>
    </comp>
    <comp name="--.HHZ">
      <acc value="0.0173966573" flag="0"/>
      <vel value="0.0089962763" flag="0"/>
      <psa03 value="0.0879526152" flag="0"/>
      <psa10 value="0.0067887887" flag="0"/>
      <psa30 value="0.0006081982" flag="0"/>
    </comp>
    <comp name="--.HHN">
      <acc value="0.0443904456" flag="0"/>
      <vel value="0.0196242208" flag="0"/>
      <psa03 value="0.2057057773" flag="0"/>
      <psa10 value="0.0125510859" flag="0"/>
      <psa30 value="0.0005482655" flag="0"/>
    </comp>
  </station>
  <station code="PLEV" name="PLEV" netid="HP" insttype="Compact," lat="38.4124" lon="21.4073">
    <comp name="--.HHE">
      <acc value="0.0114039640" flag="0"/>
      <vel value="0.0055339780" flag="0"/>
      <psa03 value="0.0313352340" flag="0"/>
      <psa10 value="0.0083483878" flag="0"/>
      <psa30 value="0.0004335192" flag="0"/>
    </comp>
    <comp name="--.HHN">
      <acc value="0.0069964375" flag="0"/>
      <vel value="0.0070302936" flag="0"/>
      <psa03 value="0.0197713349" flag="0"/>
      <psa10 value="0.0084953623" flag="0"/>
      <psa30 value="0.0006072826" flag="0"/>
    </comp>
    <comp name="--.HHZ">
      <acc value="0.0055620727" flag="0"/>
      <vel value="0.0035683170" flag="0"/>
      <psa03 value="0.0134813253" flag="0"/>
      <psa10 value="0.0050494303" flag="0"/>
      <psa30 value="0.0004977959" flag="0"/>
    </comp>
  </station>
  <station code="PYL" name="PYL" netid="HP" insttype="120s" lat="36.8955" lon="21.742">
    <comp name="--.HHE">
      <acc value="0.0090672368" flag="0"/>
      <vel value="0.0041287069" flag="0"/>
      <psa03 value="0.0223409487" flag="0"/>
      <psa10 value="0.0032526974" flag="0"/>
      <psa30 value="0.0002655306" flag="0"/>
    </comp>
    <comp name="--.HHN">
      <acc value="0.0089527432" flag="0"/>
      <vel value="0.0034071633" flag="0"/>
      <psa03 value="0.0161297814" flag="0"/>
      <psa10 value="0.0029337610" flag="0"/>
      <psa30 value="0.0003298685" flag="0"/>
    </comp>
    <comp name="--.HHZ">
      <acc value="0.0051863031" flag="0"/>
      <vel value="0.0017273978" flag="0"/>
      <psa03 value="0.0073200549" flag="0"/>
      <psa10 value="0.0022339683" flag="0"/>
      <psa30 value="0.0001959587" flag="0"/>
    </comp>
  </station>
  <station code="UPR" name="UPR" netid="HP" insttype="Horizon" lat="38.2836" lon="21.7864">
    <comp name="--.HHZ">
      <acc value="0.0161577675" flag="0"/>
      <vel value="0.0151919774" flag="0"/>
      <psa03 value="0.0316320611" flag="0"/>
      <psa10 value="0.0207298502" flag="0"/>
      <psa30 value="0.0011123437" flag="0"/>
    </comp>
    <comp name="--.HHE">
      <acc value="0.0156854571" flag="0"/>
      <vel value="0.0145267209" flag="0"/>
      <psa03 value="0.0391480525" flag="0"/>
      <psa10 value="0.0236947142" flag="0"/>
      <psa30 value="0.0030468124" flag="0"/>
    </comp>
    <comp name="--.HHN">
      <acc value="0.0185456520" flag="0"/>
      <vel value="0.0152183820" flag="0"/>
      <psa03 value="0.0348608523" flag="0"/>
      <psa10 value="0.0256899175" flag="0"/>
      <psa30 value="0.0023344239" flag="0"/>
    </comp>
  </station>
  <station code="VALY" name="VALY" netid="HP" insttype="DC_100" lat="37.1641" lon="21.9836">
    <comp name="--.HNZ">
      <acc value="0.0116813003" flag="0"/>
      <vel value="0.0037483511" flag="0"/>
      <psa03 value="0.0233436976" flag="0"/>
      <psa10 value="0.0053698142" flag="0"/>
      <psa30 value="0.0003708969" flag="0"/>
    </comp>
    <comp name="--.HNE">
      <acc value="0.0185164979" flag="0"/>
      <vel value="0.0061367675" flag="0"/>
      <psa03 value="0.0557671401" flag="0"/>
      <psa10 value="0.0060579713" flag="0"/>
      <psa30 value="0.0004580647" flag="0"/>
    </comp>
    <comp name="--.HNN">
      <acc value="0.0207290032" flag="0"/>
      <vel value="0.0057864431" flag="0"/>
      <psa03 value="0.0323476772" flag="0"/>
      <psa10 value="0.0072365745" flag="0"/>
      <psa30 value="0.0008240386" flag="0"/>
    </comp>
  </station>
  <station code="VVK" name="VVK" netid="HP" insttype="40," lat="38.4222" lon="21.8115">
    <comp name="--.HHE">
      <acc value="0.0079253334" flag="0"/>
      <vel value="0.0052085837" flag="0"/>
      <psa03 value="0.0229512698" flag="0"/>
      <psa10 value="0.0070355357" flag="0"/>
      <psa30 value="0.0008351427" flag="0"/>
    </comp>
    <comp name="--.HHZ">
      <acc value="0.0072008436" flag="0"/>
      <vel value="0.0035216568" flag="0"/>
      <psa03 value="0.0197187615" flag="0"/>
      <psa10 value="0.0039344775" flag="0"/>
      <psa30 value="0.0006568719" flag="0"/>
    </comp>
    <comp name="--.HHN">
      <acc value="0.0092732630" flag="0"/>
      <vel value="0.0068238195" flag="0"/>
      <psa03 value="0.0239911802" flag="0"/>
      <psa10 value="0.0090891058" flag="0"/>
      <psa30 value="0.0007145850" flag="0"/>
    </comp>
  </station>
  <station code="DMLN" name="DMLN" netid="HT" insttype="1s-100Hz," lat="38.2385" lon="20.3734">
    <comp name="--.HHE">
      <acc value="0.0712280772" flag="0"/>
      <vel value="0.0215469161" flag="0"/>
      <psa03 value="0.0877308714" flag="0"/>
      <psa10 value="0.0161633831" flag="0"/>
      <psa30 value="0.0010417252" flag="0"/>
    </comp>
    <comp name="--.HHN">
      <acc value="0.0615128719" flag="0"/>
      <vel value="0.0138102444" flag="0"/>
      <psa03 value="0.0903163576" flag="0"/>
      <psa10 value="0.0124627577" flag="0"/>
      <psa30 value="0.0009480081" flag="0"/>
    </comp>
    <comp name="--.HHZ">
      <acc value="0.0596902894" flag="0"/>
      <vel value="0.0129738939" flag="0"/>
      <psa03 value="0.0519090409" flag="0"/>
      <psa10 value="0.0059440174" flag="0"/>
      <psa30 value="0.0005609883" flag="0"/>
    </comp>
  </station>
  <station code="EVGI" name="EVGI" netid="HT" insttype="30" lat="38.621" lon="20.656">
    <comp name="--.HHE">
      <acc value="0.0233278071" flag="0"/>
      <vel value="0.0055077729" flag="0"/>
      <psa03 value="0.0315714967" flag="0"/>
      <psa10 value="0.0047070068" flag="0"/>
      <psa30 value="0.0004613367" flag="0"/>
    </comp>
    <comp name="--.HHZ">
      <acc value="0.0206135547" flag="0"/>
      <vel value="0.0040735507" flag="0"/>
