<?xml version="1.0" encoding="UTF-8" standalone="yes"?>
<!DOCTYPE earthquake SYSTEM "stationlist.dtd">
<stationlist created="" xmlns="ch.ethz.sed.shakemap.usgs.xml">
  <station code="ATHR" name="ATHR" netid="HA" insttype="GEOtiny," lat="38.3172" lon="20.4165">
    <comp name="--.HHN">
      <acc value="0.0121127923" flag="0"/>
      <vel value="0.0063281999" flag="0"/>
      <psa03 value="0.0358755876" flag="0"/>
      <psa10 value="0.0041622112" flag="0"/>
      <psa30 value="0.0003560627" flag="0"/>
    </comp>
    <comp name="--.HHE">
      <acc value="0.0125451878" flag="0"/>
      <vel value="0.0058440786" flag="0"/>
      <psa03 value="0.0260859540" flag="0"/>
      <psa10 value="0.0097424598" flag="0"/>
      <psa30 value="0.0005428649" flag="0"/>
    </comp>
    <comp name="--.HHZ">
      <acc value="0.0117772479" flag="0"/>
      <vel value="0.0041705538" flag="0"/>
      <psa03 value="0.0188186919" flag="0"/>
      <psa10 value="0.0042449645" flag="0"/>
      <psa30 value="0.0003897370" flag="0"/>
    </comp>
  </station>
  <station code="HAVD" name="HAVD" netid="HA" insttype="GEOtiny," lat="38.2036" lon="20.3848">
    <comp name="--.HHZ">
      <acc value="0.0366618951" flag="0"/>
      <vel value="0.0050719632" flag="0"/>
      <psa03 value="0.0332076940" flag="0"/>
      <psa10 value="0.0036712560" flag="0"/>
      <psa30 value="0.0003663172" flag="0"/>
    </comp>
    <comp name="--.HHN">
      <acc value="0.0355342095" flag="0"/>
      <vel value="0.0070400501" flag="0"/>
      <psa03 value="0.0453108356" flag="0"/>
      <psa10 value="0.0102330580" flag="0"/>
      <psa30 value="0.0006755129" flag="0"/>
    </comp>
    <comp name="--.HHE">
      <acc value="0.0294162971" flag="0"/>
      <vel value="0.0056399835" flag="0"/>
      <psa03 value="0.0377966132" flag="0"/>
      <psa10 value="0.0061550735" flag="0"/>
      <psa30 value="0.0003331277" flag="0"/>
    </comp>
  </station>
  <station code="ARG2" name="ARG2" netid="HI" insttype="CMG-5TD,ACCELEROMETER,GURALP" lat="38.1783" lon="20.4878">
    <comp name="--.HNZ">
      <acc value="0.0459460591" flag="0"/>
      <vel value="0.0107903397" flag="0"/>
      <psa03 value="0.0737209940" flag="0"/>
      <psa10 value="0.0057672371" flag="0"/>
      <psa30 value="0.0005753592" flag="0"/>
    </comp>
    <comp name="--.HNN">
      <acc value="0.0707522381" flag="0"/>
      <vel value="0.0207027434" flag="0"/>
      <psa03 value="0.0687929837" flag="0"/>
      <psa10 value="0.0117489976" flag="0"/>
      <psa30 value="0.0008297096" flag="0"/>
    </comp>
    <comp name="--.HNE">
      <acc value="0.0900504334" flag="0"/>
      <vel value="0.0186317050" flag="0"/>
      <psa03 value="0.0925775160" flag="0"/>
      <psa10 value="0.0089223367" flag="0"/>
      <psa30 value="0.0006573766" flag="0"/>
    </comp>
  </station>
  <station code="MSL1" name="MSL1" netid="HI" insttype="CMG-5TD,ACCELEROMETER,GURALP" lat="38.3727" lon="21.4243">
    <comp name="--.HNN">
      <acc value="0.0328593565" flag="0"/>
      <vel value="0.0318498429" flag="0"/>
      <psa03 value="0.0829146033" flag="0"/>
      <psa10 value="0.0425467403" flag="0"/>
      <psa30 value="0.0020015182" flag="0"/>
    </comp>
    <comp name="--.HNZ">
      <acc value="0.0139394043" flag="0"/>
      <vel value="0.0092578593" flag="0"/>
      <psa03 value="0.0340758572" flag="0"/>
      <psa10 value="0.0173503948" flag="0"/>
      <psa30 value="0.0006084909" flag="0"/>
    </comp>
    <comp name="--.HNE">
      <acc value="0.0272656994" flag="0"/>
      <vel value="0.0274734345" flag="0"/>
      <psa03 value="0.0644703682" flag="0"/>
      <psa10 value="0.0505438854" flag="0"/>
      <psa30 value="0.0018411945" flag="0"/>
    </comp>
  </station>
  <station code="ORTH" name="ORTH" netid="HL" insttype="30" lat="37.8511" lon="20.6963">
    <comp name="--.HHZ">
      <acc value="0.1395414621" flag="0"/>
      <vel value="0.0256754530" flag="0"/>
      <psa03 value="0.1071947604" flag="0"/>
      <psa10 value="0.0083622005" flag="0"/>
      <psa30 value="0.0006176830" flag="0"/>
    </comp>
    <comp name="--.HHN">
      <acc value="0.2516949277" flag="0"/>
      <vel value="0.0472871685" flag="0"/>
      <psa03 value="0.2513789594" flag="0"/>
      <psa10 value="0.0173141091" flag="0"/>
      <psa30 value="0.0012246765" flag="0"/>
    </comp>
    <comp name="--.HHE">
      <acc value="0.3560352622" flag="0"/>
      <vel value="0.0901596279" flag="0"/>
      <psa03 value="0.3696292213" flag="0"/>
      <psa10 value="0.0192004466" flag="0"/>
      <psa30 value="0.0016078198" flag="0"/>
    </comp>
  </station>
  <station code="RLS" name="RLS" netid="HL" insttype="CMG3ESPC-120s" lat="38.0559" lon="21.4647">
    <comp name="--.HHE">
      <acc value="0.0311878934" flag="0"/>
      <vel value="0.0103008558" flag="0"/>
      <psa03 value="0.0760571692" flag="0"/>
      <psa10 value="0.0071174394" flag="0"/>
      <psa30 value="0.0006718481" flag="0"/>
    </comp>
    <comp name="--.HHZ">
      <acc value="0.0141467817" flag="0"/>
      <vel value="0.0069518270" flag="0"/>
      <psa03 value="0.0357414059" flag="0"/>
      <psa10 value="0.0067404247" flag="0"/>
      <psa30 value="0.0006495074" flag="0"/>
    </comp>
    <comp name="--.HHN">
      <acc value="0.0320434765" flag="0"/>
      <vel value="0.0123236626" flag="0"/>
      <psa03 value="0.0546664524" flag="0"/>
      <psa10 value="0.0124196590" flag="0"/>
      <psa30 value="0.0005332652" flag="0"/>
    </comp>
  </station>
  <station code="VLS" name="VLS" netid="HL" insttype="120P," lat="38.1768" lon="20.5886">
    <comp name="--.HHN">
      <acc value="0.0743628550" flag="0"/>
      <vel value="0.0116291752" flag="0"/>
      <psa03 value="0.0477029956" flag="0"/>
      <psa10 value="0.0046684842" flag="0"/>
      <psa30 value="0.0004052708" flag="0"/>
    </comp>
    <comp name="--.HHE">
      <acc value="0.1371909246" flag="0"/>
      <vel value="0.0142040792" flag="0"/>
      <psa03 value="0.0380299297" flag="0"/>
      <psa10 value="0.0072014756" flag="0"/>
      <psa30 value="0.0003719303" flag="0"/>
    </comp>
    <comp name="--.HHZ">
      <acc value="0.0390015910" flag="0"/>
      <vel value="0.0069505896" flag="0"/>
      <psa03 value="0.0337792785" flag="0"/>
      <psa10 value="0.0056180957" flag="0"/>
      <psa30 value="0.0003112757" flag="0"/>
    </comp>
  </station>
  <station code="AMT" name="AMT" netid="HP" insttype="CMG-3T," lat="37.5324" lon="21.7089">
    <comp name="00.HHE">
      <acc value="0.1414062212" flag="0"/>
      <vel value="0.0365968450" flag="0"/>
      <psa03 value="0.2187100131" flag="0"/>
      <psa10 value="0.0241491480" flag="0"/>
      <psa30 value="0.0010477928" flag="0"/>
    </comp>
    <comp name="00.HHN">
      <acc value="0.1358036845" flag="0"/>
      <vel value="0.0378242886" flag="0"/>
      <psa03 value="0.3210137215" flag="0"/>
      <psa10 value="0.0189560914" flag="0"/>
      <psa30 value="0.0012415207" flag="0"/>
    </comp>
    <comp name="00.HHZ">
      <acc value="0.0736405317" flag="0"/>
      <vel value="0.0260234826" flag="0"/>
      <psa03 value="0.1567446490" flag="0"/>
      <psa10 value="0.0126038465" flag="0"/>
      <psa30 value="0.0006724155" flag="0"/>
    </comp>
  </station>
  <station code="AXS" name="AXS" netid="HP" insttype="Compact," lat="38.1962" lon="21.3763">
    <comp name="--.HHZ">
      <acc value="0.0081366555" flag="0"/>
      <vel value="0.0044429385" flag="0"/>
      <psa03 value="0.0181048862" flag="0"/>
      <psa10 value="0.0044086923" flag="0"/>
      <psa30 value="0.0004040628" flag="0"/>
    </comp>
    <comp name="--.HHN">
      <acc value="0.0121422495" flag="0"/>
      <vel value="0.0056717233" flag="0"/>
      <psa03 value="0.0366899508" flag="0"/>
      <psa10 value="0.0046081840" flag="0"/>
      <psa30 value="0.0004391047" flag="0"/>
    </comp>
    <comp name="--.HHE">
      <acc value="0.0109639560" flag="0"/>
      <vel value="0.0061145952" flag="0"/>
      <psa03 value="0.0244406136" flag="0"/>
      <psa10 value="0.0040593933" flag="0"/>
      <psa30 value="0.0003543166" flag="0"/>
    </comp>
  </station>
  <station code="DRO" name="DRO" netid="HP" insttype="120P," lat="37.952" lon="21.71">
    <comp name="--.HHE">
      <acc value="0.0597914013" flag="0"/>
      <vel value="0.0300466619" flag="0"/>
      <psa03 value="0.1579278194" flag="0"/>
      <psa10 value="0.0238501540" flag="0"/>
      <psa30 value="0.0011998553" flag="0"/>
    </comp>
    <comp name="--.HHZ">
      <acc value="0.0411336315" flag="0"/>
      <vel value="0.0127634898" flag="0"/>
      <psa03 value="0.0644531659" flag="0"/>
      <psa10 value="0.0078158904" flag="0"/>
      <psa30 value="0.0012102604" flag="0"/>
    </comp>
    <comp name="--.HHN">
      <acc value="0.0631873740" flag="0"/>
      <vel value="0.0252325386" flag="0"/>
      <psa03 value="0.1318954858" flag="0"/>
      <psa10 value="0.0145690056" flag="0"/>
      <psa30 value="0.0008999945" flag="0"/>
    </comp>
  </station>
  <station code="FSK" name="FSK" netid="HP" insttype="40," lat="38.4593" lon="20.5623">
    <comp name="--.HHE">
      <acc value="0.0170578657" flag="0"/>
      <vel value="0.0044765866" flag="0"/>
      <psa03 value="0.0211461916" flag="0"/>
      <psa10 value="0.0042779414" flag="0"/>
      <psa30 value="0.0006015438" flag="0"/>
    </comp>
    <comp name="--.HHN">
      <acc value="0.0102556056" flag="0"/>
      <vel value="0.0038047249" flag="0"/>
      <psa03 value="0.0129950815" flag="0"/>
      <psa10 value="0.0051868984" flag="0"/>
      <psa30 value="0.0005894261" flag="0"/>
    </comp>
    <comp name="--.HHZ">
      <acc value="0.0086148979" flag="0"/>
      <vel value="0.0031740028" flag="0"/>
      <psa03 value="0.0097016802" flag="0"/>
      <psa10 value="0.0035708627" flag="0"/>
      <psa30 value="0.0003674246" flag="0"/>
    </comp>
  </station>
  <station code="LTHK" name="LTHK" netid="HP" insttype="40," lat="37.7095" lon="20.8367">
    <comp name="--.HHZ">
      <acc value="0.7391658979" flag="0"/>
      <vel value="0.1075413225" flag="0"/>
      <psa03 value="0.3697678763" flag="0"/>
      <psa10 value="0.0402050201" flag="0"/>
      <psa30 value="0.0023866616" flag="0"/>
    </comp>
    <comp name="--.HHN">
      <acc value="0.7366945610" flag="0"/>
      <vel value="0.1144131354" flag="0"/>
      <psa03 value="0.3834790907" flag="0"/>
      <psa10 value="0.0697030571" flag="0"/>
      <psa30 value="0.0040375030" flag="0"/>
    </comp>
    <comp name="--.HHE">
      <acc value="0.9336276976" flag="0"/>
      <vel value="0.1534674983" flag="0"/>
      <psa03 value="0.6126488902" flag="0"/>
      <psa10 value="0.0760086112" flag="0"/>
      <psa30 value="0.0047385643" flag="0"/>
    </comp>
  </station>
  <station code="PLEV" name="PLEV" netid="HP" insttype="Compact," lat="38.4124" lon="21.4073">
    <comp name="--.HHE">
      <acc value="0.0114039637" flag="0"/>
      <vel value="0.0055339780" flag="0"/>
      <psa03 value="0.0313352340" flag="0"/>
      <psa10 value="0.0083483878" flag="0"/>
      <psa30 value="0.0004334255" flag="0"/>
    </comp>
    <comp name="--.HHZ">
      <acc value="0.0055620712" flag="0"/>
      <vel value="0.0035683175" flag="0"/>
      <psa03 value="0.0134813253" flag="0"/>
      <psa10 value="0.0050494303" flag="0"/>
      <psa30 value="0.0004977974" flag="0"/>
    </comp>
    <comp name="--.HHN">
      <acc value="0.0069964369" flag="0"/>
      <vel value="0.0070302925" flag="0"/>
      <psa03 value="0.0197713349" flag="0"/>
      <psa10 value="0.0084953623" flag="0"/>
      <psa30 value="0.0006073520" flag="0"/>
    </comp>
  </station>
  <station code="DMLN" name="DMLN" netid="HT" insttype="1s-100Hz," lat="38.2385" lon="20.3734">
    <comp name="--.HHN">
      <acc value="0.0615128743" flag="0"/>
      <vel value="0.0138096203" flag="0"/>
      <psa03 value="0.0903163596" flag="0"/>
      <psa10 value="0.0124627555" flag="0"/>
      <psa30 value="0.0009489975" flag="0"/>
    </comp>
    <comp name="--.HHZ">
      <acc value="0.0596902925" flag="0"/>
      <vel value="0.0129747766" flag="0"/>
      <psa03 value="0.0519090386" flag="0"/>
      <psa10 value="0.0059440196" flag="0"/>
      <psa30 value="0.0005612960" flag="0"/>
    </comp>
    <comp name="--.HHE">
      <acc value="0.0712280806" flag="0"/>
      <vel value="0.0215479150" flag="0"/>
      <psa03 value="0.0877308738" flag="0"/>
      <psa10 value="0.0161633806" flag="0"/>
      <psa30 value="0.0010416623" flag="0"/>
    </comp>
  </station>
  <station code="RTZL" name="RTZL" netid="HT" insttype="Compact," lat="38.076" lon="20.7715">
    <comp name="--.HHE">
      <acc value="0.1607337187" flag="0"/>
      <vel value="0.0241324183" flag="0"/>
      <psa03 value="0.0860835359" flag="0"/>
      <psa10 value="0.0113727618" flag="0"/>
      <psa30 value="0.0005219170" flag="0"/>
    </comp>
    <comp name="--.HHZ">
      <acc value="0.0662861155" flag="0"/>
      <vel value="0.0113175436" flag="0"/>
      <psa03 value="0.0588137161" flag="0"/>
      <psa10 value="0.0043665257" flag="0"/>
      <psa30 value="0.0003381822" flag="0"/>
    </comp>
    <comp name="--.HHN">
      <acc value="0.0999000227" flag="0"/>
      <vel value="0.0199570978" flag="0"/>
      <psa03 value="0.1304285926" flag="0"/>
      <psa10 value="0.0122981971" flag="0"/>
      <psa30 value="0.0006573635" flag="0"/>
    </comp>
  </station>
  <station code="STRF" name="STRF" netid="HT" insttype="30s-100Hz," lat="37.2497" lon="21.013">
    <comp name="--.HHZ">
      <acc value="0.1715736307" flag="0"/>
      <vel value="0.0658731421" flag="0"/>
      <psa03 value="0.6779040501" flag="0"/>
      <psa10 value="0.0335800284" flag="0"/>
      <psa30 value="0.0028816580" flag="0"/>
    </comp>
    <comp name="--.HHN">
      <acc value="0.3224124742" flag="0"/>
      <vel value="0.1491585571" flag="0"/>
      <psa03 value="0.6776278043" flag="0"/>
      <psa10 value="0.0684230864" flag="0"/>
      <psa30 value="0.0051858010" flag="0"/>
    </comp>
    <comp name="--.HHE">
      <acc value="0.2292219071" flag="0"/>
      <vel value="0.0926062535" flag="0"/>
      <psa03 value="0.5528287185" flag="0"/>
      <psa10 value="0.1031847185" flag="0"/>
      <psa30 value="0.0058295977" flag="0"/>
    </comp>
  </station>
</stationlist>
