<?xml version="1.0" encoding="UTF-8" standalone="yes"?>
<!DOCTYPE earthquake SYSTEM "stationlist.dtd">
<stationlist created="" xmlns="ch.ethz.sed.shakemap.usgs.xml">
  <station code="JMI" name="JMI" netid="NS" insttype="" commtype="DIG" lat="70.9268" lon="-8.72667">
    <comp name="00.HHE">
      <acc value="0.3457007132" flag="0"/>
      <vel value="0.1255736900" flag="0"/>
      <psa03 value="0.4568973057" flag="0"/>
      <psa10 value="0.0712587511" flag="0"/>
      <psa30 value="0.0141053768" flag="0"/>
    </comp>
    <comp name="00.HHN">
      <acc value="0.2463515561" flag="0"/>
      <vel value="0.2079768063" flag="0"/>
      <psa03 value="0.4854491410" flag="0"/>
      <psa10 value="0.2077173274" flag="0"/>
      <psa30 value="0.0214003273" flag="0"/>
    </comp>
    <comp name="00.HHZ">
      <acc value="0.2181887557" flag="0"/>
      <vel value="0.1115157142" flag="0"/>
      <psa03 value="0.4944391905" flag="0"/>
      <psa10 value="0.1096294783" flag="0"/>
      <psa30 value="0.0097043289" flag="0"/>
    </comp>
  </station>
  <station code="JNE" name="JNE" netid="NS" insttype="" commtype="DIG" lat="70.9883" lon="-8.29267">
    <comp name="00.HHN">
      <acc value="0.8898667915" flag="0"/>
      <vel value="0.6352266562" flag="0"/>
      <psa03 value="1.6300506088" flag="0"/>
      <psa10 value="0.3950684215" flag="0"/>
      <psa30 value="0.0415266922" flag="0"/>
    </comp>
    <comp name="00.HHZ">
      <acc value="0.5366740750" flag="0"/>
      <vel value="0.1853553955" flag="0"/>
      <psa03 value="0.9026306721" flag="0"/>
      <psa10 value="0.1198396340" flag="0"/>
      <psa30 value="0.0182201946" flag="0"/>
    </comp>
    <comp name="00.HHE">
      <acc value="0.8266673788" flag="0"/>
      <vel value="0.2562401646" flag="0"/>
      <psa03 value="0.7953642519" flag="0"/>
      <psa10 value="0.4424701811" flag="0"/>
      <psa30 value="0.0404717588" flag="0"/>
    </comp>
  </station>
  <station code="JNW" name="JNW" netid="NS" insttype="" commtype="DIG" lat="71.0273" lon="-8.42367">
    <comp name="00.HHE">
      <acc value="0.3466272494" flag="0"/>
      <vel value="0.1609936359" flag="0"/>
      <psa03 value="0.6985269909" flag="0"/>
      <psa10 value="0.2501338633" flag="0"/>
      <psa30 value="0.0223078418" flag="0"/>
    </comp>
    <comp name="00.HHN">
      <acc value="0.4703538662" flag="0"/>
      <vel value="0.2941107601" flag="0"/>
      <psa03 value="0.5477040378" flag="0"/>
      <psa10 value="0.3218758162" flag="0"/>
      <psa30 value="0.0309901835" flag="0"/>
    </comp>
    <comp name="00.HHZ">
      <acc value="0.2075671812" flag="0"/>
      <vel value="0.0864933447" flag="0"/>
      <psa03 value="0.4214932822" flag="0"/>
      <psa10 value="0.0960782776" flag="0"/>
      <psa30 value="0.0191601037" flag="0"/>
    </comp>
  </station>
</stationlist>
