<?xml version="1.0" encoding="UTF-8" standalone="yes"?>
<!DOCTYPE earthquake SYSTEM "stationlist.dtd">
<stationlist created="" xmlns="ch.ethz.sed.shakemap.usgs.xml">
  <station code="JNE" name="JNE" netid="NS" insttype="" commtype="DIG" lat="70.9883" lon="-8.29267">
    <comp name="00.HHE">
      <acc value="0.8275893747" flag="0"/>
      <vel value="0.2594951186" flag="0"/>
      <psa03 value="0.7954252572" flag="0"/>
      <psa10 value="0.4428435407" flag="0"/>
      <psa30 value="0.0470190567" flag="0"/>
    </comp>
    <comp name="00.HHZ">
      <acc value="0.5366946533" flag="0"/>
      <vel value="0.1848241749" flag="0"/>
      <psa03 value="0.9029440905" flag="0"/>
      <psa10 value="0.1194198467" flag="0"/>
      <psa30 value="0.0206822143" flag="0"/>
    </comp>
    <comp name="00.HHN">
      <acc value="0.8904120297" flag="0"/>
      <vel value="0.6384832216" flag="0"/>
      <psa03 value="1.6305443417" flag="0"/>
      <psa10 value="0.3957287905" flag="0"/>
      <psa30 value="0.0477305586" flag="0"/>
    </comp>
  </station>
  <station code="JNW" name="JNW" netid="NS" insttype="" commtype="DIG" lat="71.0273" lon="-8.42367">
    <comp name="00.HHE">
      <acc value="0.3463170434" flag="0"/>
      <vel value="0.1593927559" flag="0"/>
      <psa03 value="0.6985929587" flag="0"/>
      <psa10 value="0.2514950623" flag="0"/>
      <psa30 value="0.0289333206" flag="0"/>
    </comp>
    <comp name="00.HHN">
      <acc value="0.4710218574" flag="0"/>
      <vel value="0.2978162842" flag="0"/>
      <psa03 value="0.5482453220" flag="0"/>
      <psa10 value="0.3214840268" flag="0"/>
      <psa30 value="0.0323710780" flag="0"/>
    </comp>
    <comp name="00.HHZ">
      <acc value="0.2076610522" flag="0"/>
      <vel value="0.0885613093" flag="0"/>
      <psa03 value="0.4211933843" flag="0"/>
      <psa10 value="0.0954484047" flag="0"/>
      <psa30 value="0.0224126806" flag="0"/>
    </comp>
  </station>
</stationlist>
