<?xml version="1.0" encoding="UTF-8" standalone="yes"?>
<!DOCTYPE earthquake SYSTEM "stationlist.dtd">
<stationlist created="" xmlns="ch.ethz.sed.shakemap.usgs.xml">
  <station code="ARE2" name="ARE2" netid="HI" insttype="unknown" commtype="DIG" lat="36.6663" lon="22.3826">
    <comp name="--.HNE">
      <acc value="0.0210589975" flag="0"/>
      <vel value="0.0098420453" flag="0"/>
      <psa03 value="0.0437802463" flag="0"/>
      <psa10 value="0.0124161164" flag="0"/>
      <psa30 value="0.0009706671" flag="0"/>
    </comp>
    <comp name="--.HNN">
      <acc value="0.0168426072" flag="0"/>
      <vel value="0.0080340003" flag="0"/>
      <psa03 value="0.0533670800" flag="0"/>
      <psa10 value="0.0081407230" flag="0"/>
      <psa30 value="0.0004948507" flag="0"/>
    </comp>
    <comp name="--.HNZ">
      <acc value="0.0102144894" flag="0"/>
      <vel value="0.0047041280" flag="0"/>
      <psa03 value="0.0243733886" flag="0"/>
      <psa10 value="0.0050843645" flag="0"/>
      <psa30 value="0.0008145297" flag="0"/>
    </comp>
  </station>
  <station code="PET1" name="PET1" netid="HI" insttype="unknown" commtype="DIG" lat="36.9639" lon="21.9254">
    <comp name="--.HNE">
      <acc value="0.0188890719" flag="0"/>
      <vel value="0.0101373195" flag="0"/>
      <psa03 value="0.0476953410" flag="0"/>
      <psa10 value="0.0130651485" flag="0"/>
      <psa30 value="0.0011783840" flag="0"/>
    </comp>
    <comp name="--.HNZ">
      <acc value="0.0112994690" flag="0"/>
      <vel value="0.0062246958" flag="0"/>
      <psa03 value="0.0283519325" flag="0"/>
      <psa10 value="0.0056962852" flag="0"/>
      <psa30 value="0.0008414411" flag="0"/>
    </comp>
    <comp name="--.HNN">
      <acc value="0.0233395680" flag="0"/>
      <vel value="0.0183445664" flag="0"/>
      <psa03 value="0.0517286561" flag="0"/>
      <psa10 value="0.0168647204" flag="0"/>
      <psa30 value="0.0008901534" flag="0"/>
    </comp>
  </station>
</stationlist>
