<?xml version="1.0" encoding="UTF-8" standalone="yes"?>
<!DOCTYPE earthquake SYSTEM "stationlist.dtd">
<stationlist created="" xmlns="ch.ethz.sed.shakemap.usgs.xml">
  <station code="CHVC" name="CHVC" netid="CZ" insttype="" lat="50.5881" lon="16.0547">
    <comp name="--.HHE">
      <acc value="0.0027083613" flag="0"/>
      <vel value="0.0021536935" flag="0"/>
      <psa03 value="0.0053303460" flag="0"/>
      <psa10 value="0.0034151678" flag="0"/>
      <psa30 value="0.0005594175" flag="0"/>
    </comp>
    <comp name="--.HHN">
      <acc value="0.0030511638" flag="0"/>
      <vel value="0.0024064819" flag="0"/>
      <psa03 value="0.0040999835" flag="0"/>
      <psa10 value="0.0035793404" flag="0"/>
      <psa30 value="0.0003824956" flag="0"/>
    </comp>
    <comp name="--.HHZ">
      <acc value="0.0046461573" flag="0"/>
      <vel value="0.0022501019" flag="0"/>
      <psa03 value="0.0051941372" flag="0"/>
      <psa10 value="0.0019051037" flag="0"/>
      <psa30 value="0.0005984795" flag="0"/>
    </comp>
  </station>
  <station code="OSTC" name="OSTC" netid="CZ" insttype="" lat="50.5565" lon="16.2156">
    <comp name="--.HHE">
      <acc value="0.0067764495" flag="0"/>
      <vel value="0.0056144387" flag="0"/>
      <psa03 value="0.0133336671" flag="0"/>
      <psa10 value="0.0101383164" flag="0"/>
      <psa30 value="0.0015964745" flag="0"/>
    </comp>
    <comp name="--.HHN">
      <acc value="0.0117500645" flag="0"/>
      <vel value="0.0090513619" flag="0"/>
      <psa03 value="0.0195708657" flag="0"/>
      <psa10 value="0.0104984101" flag="0"/>
      <psa30 value="0.0011143721" flag="0"/>
    </comp>
    <comp name="--.HHZ">
      <acc value="0.0085092449" flag="0"/>
      <vel value="0.0040161878" flag="0"/>
      <psa03 value="0.0187113905" flag="0"/>
      <psa10 value="0.0071615040" flag="0"/>
      <psa30 value="0.0015525788" flag="0"/>
    </comp>
  </station>
  <station code="KSP" name="KSP" netid="PL" insttype="STS-2/N" lat="50.8428" lon="16.2931">
    <comp name="--.HHE">
      <acc value="0.0012997575" flag="0"/>
      <vel value="0.0004265555" flag="0"/>
      <psa03 value="0.0026493357" flag="0"/>
      <psa10 value="0.0004314783" flag="0"/>
      <psa30 value="0.0001548710" flag="0"/>
    </comp>
    <comp name="--.HHN">
      <acc value="0.0010400126" flag="0"/>
      <vel value="0.0006785494" flag="0"/>
      <psa03 value="0.0020209518" flag="0"/>
      <psa10 value="0.0003737108" flag="0"/>
      <psa30 value="0.0002526551" flag="0"/>
    </comp>
    <comp name="--.HHZ">
      <acc value="0.0024134154" flag="0"/>
      <vel value="0.0006255980" flag="0"/>
      <psa03 value="0.0017807685" flag="0"/>
      <psa10 value="0.0003227101" flag="0"/>
      <psa30 value="0.0002546772" flag="0"/>
    </comp>
  </station>
</stationlist>
