<?xml version="1.0" encoding="UTF-8" standalone="yes"?>
<!DOCTYPE earthquake SYSTEM "stationlist.dtd">
<stationlist created="" xmlns="ch.ethz.sed.shakemap.usgs.xml">
  <station code="ARPRA" name="ARPRA" netid="KO" insttype="CMG-5T" lat="39.0929" lon="38.3356">
    <comp name="--.HNN">
      <acc value="0.0343808540" flag="0"/>
      <vel value="0.0163355190" flag="0"/>
      <psa03 value="0.1146247675" flag="0"/>
      <psa10 value="0.0083865526" flag="0"/>
      <psa30 value="0.0005428760" flag="0"/>
    </comp>
    <comp name="--.HNZ">
      <acc value="0.0147388767" flag="0"/>
      <vel value="0.0048566355" flag="0"/>
      <psa03 value="0.0288477124" flag="0"/>
      <psa10 value="0.0040254135" flag="0"/>
      <psa30 value="0.0002553471" flag="0"/>
    </comp>
    <comp name="--.HNE">
      <acc value="0.0254364769" flag="0"/>
      <vel value="0.0115915855" flag="0"/>
      <psa03 value="0.0896591952" flag="0"/>
      <psa10 value="0.0098966799" flag="0"/>
      <psa30 value="0.0005012317" flag="0"/>
    </comp>
  </station>
  <station code="URFA" name="URFA" netid="KO" insttype="CMG-3ESP" lat="37.4409" lon="38.8213">
    <comp name="--.HHN">
      <acc value="0.0214298483" flag="0"/>
      <vel value="0.0064089978" flag="0"/>
      <psa03 value="0.0277876406" flag="0"/>
      <psa10 value="0.0028456590" flag="0"/>
      <psa30 value="0.0003290786" flag="0"/>
    </comp>
    <comp name="--.HHE">
      <acc value="0.0194403840" flag="0"/>
      <vel value="0.0054474067" flag="0"/>
      <psa03 value="0.0306527801" flag="0"/>
      <psa10 value="0.0031890860" flag="0"/>
      <psa30 value="0.0002703772" flag="0"/>
    </comp>
    <comp name="--.HHZ">
      <acc value="0.0153084561" flag="0"/>
      <vel value="0.0031640608" flag="0"/>
      <psa03 value="0.0130561927" flag="0"/>
      <psa10 value="0.0019837948" flag="0"/>
      <psa30 value="0.0004017680" flag="0"/>
    </comp>
  </station>
</stationlist>
