<?xml version="1.0" encoding="UTF-8" standalone="yes"?>
<!DOCTYPE earthquake SYSTEM "stationlist.dtd">
<stationlist created="" xmlns="ch.ethz.sed.shakemap.usgs.xml">
  <station code="KARP" name="KARP" netid="GE" insttype="STS-2/N" lat="35.5471" lon="27.1611">
    <comp name="--.HHZ">
      <acc value="0.0369905372" flag="0"/>
      <vel value="0.0148150780" flag="0"/>
      <psa03 value="0.0760961306" flag="0"/>
      <psa10 value="0.0133131320" flag="0"/>
      <psa30 value="0.0012767738" flag="0"/>
    </comp>
    <comp name="--.HHN">
      <acc value="0.0435503608" flag="0"/>
      <vel value="0.0154074918" flag="0"/>
      <psa03 value="0.0532689081" flag="0"/>
      <psa10 value="0.0239468185" flag="0"/>
      <psa30 value="0.0012863594" flag="0"/>
    </comp>
    <comp name="--.HHE">
      <acc value="0.0480778724" flag="0"/>
      <vel value="0.0208262581" flag="0"/>
      <psa03 value="0.0724956010" flag="0"/>
      <psa10 value="0.0183634797" flag="0"/>
      <psa30 value="0.0024766239" flag="0"/>
    </comp>
  </station>
  <station code="THERA" name="THERA" netid="GE" insttype="STS-2/N" lat="36.367" lon="25.4753">
    <comp name="--.HHN">
      <acc value="0.0088143245" flag="0"/>
      <vel value="0.0055825683" flag="0"/>
      <psa03 value="0.0320312602" flag="0"/>
      <psa10 value="0.0073472195" flag="0"/>
      <psa30 value="0.0008874954" flag="0"/>
    </comp>
    <comp name="--.HHE">
      <acc value="0.0161805299" flag="0"/>
      <vel value="0.0102547834" flag="0"/>
      <psa03 value="0.0547150372" flag="0"/>
      <psa10 value="0.0081457049" flag="0"/>
      <psa30 value="0.0014218113" flag="0"/>
    </comp>
    <comp name="--.HHZ">
      <acc value="0.0114999763" flag="0"/>
      <vel value="0.0068007192" flag="0"/>
      <psa03 value="0.0287116362" flag="0"/>
      <psa10 value="0.0072184057" flag="0"/>
      <psa30 value="0.0013363162" flag="0"/>
    </comp>
  </station>
  <station code="RDI1" name="RDI1" netid="HI" insttype="CMG-5TD,ACCELEROMETER,GURALP" lat="36.4514" lon="28.224">
    <comp name="--.HNZ">
      <acc value="0.0142657435" flag="0"/>
      <vel value="0.0152073036" flag="0"/>
      <psa03 value="0.0601392071" flag="0"/>
      <psa10 value="0.0291295044" flag="0"/>
      <psa30 value="0.0040381859" flag="0"/>
    </comp>
    <comp name="--.HNN">
      <acc value="0.0187164215" flag="0"/>
      <vel value="0.0225897843" flag="0"/>
      <psa03 value="0.0600654652" flag="0"/>
      <psa10 value="0.0393302363" flag="0"/>
      <psa30 value="0.0071829881" flag="0"/>
    </comp>
    <comp name="--.HNE">
      <acc value="0.0240519662" flag="0"/>
      <vel value="0.0261673569" flag="0"/>
      <psa03 value="0.0667725091" flag="0"/>
      <psa10 value="0.0316242785" flag="0"/>
      <psa30 value="0.0086704463" flag="0"/>
    </comp>
  </station>
  <station code="ARG" name="ARG" netid="HL" insttype="LE3D20_DR24" lat="36.2136" lon="28.1212">
    <comp name="--.HHE">
      <acc value="0.0918802771" flag="0"/>
      <vel value="0.0480001569" flag="0"/>
      <psa03 value="0.1384552408" flag="0"/>
      <psa10 value="0.0309224648" flag="0"/>
      <psa30 value="0.0040959015" flag="0"/>
    </comp>
    <comp name="--.HHN">
      <acc value="0.0435808835" flag="0"/>
      <vel value="0.0223530961" flag="0"/>
      <psa03 value="0.1105225379" flag="0"/>
      <psa10 value="0.0200809341" flag="0"/>
      <psa30 value="0.0025600745" flag="0"/>
    </comp>
    <comp name="--.HHZ">
      <acc value="0.0279722827" flag="0"/>
      <vel value="0.0157662291" flag="0"/>
      <psa03 value="0.0499976616" flag="0"/>
      <psa10 value="0.0198750362" flag="0"/>
      <psa30 value="0.0038033133" flag="0"/>
    </comp>
  </station>
  <station code="KARP" name="KARP" netid="HL" insttype="120" lat="35.5471" lon="27.1611">
    <comp name="--.HHZ">
      <acc value="0.0343323124" flag="0"/>
      <vel value="0.0142620989" flag="0"/>
      <psa03 value="0.0741775477" flag="0"/>
      <psa10 value="0.0132277203" flag="0"/>
      <psa30 value="0.0012745853" flag="0"/>
    </comp>
    <comp name="--.HHE">
      <acc value="0.0446334446" flag="0"/>
      <vel value="0.0200700815" flag="0"/>
      <psa03 value="0.0706681775" flag="0"/>
      <psa10 value="0.0182513473" flag="0"/>
      <psa30 value="0.0024700490" flag="0"/>
    </comp>
    <comp name="--.HHN">
      <acc value="0.0419981176" flag="0"/>
      <vel value="0.0148521302" flag="0"/>
      <psa03 value="0.0520395242" flag="0"/>
      <psa10 value="0.0237877088" flag="0"/>
      <psa30 value="0.0012819457" flag="0"/>
    </comp>
  </station>
  <station code="KLNA" name="KLNA" netid="HL" insttype="CMG-5" lat="36.9571" lon="26.9727">
    <comp name="00.HNE">
      <acc value="0.0565118050" flag="0"/>
      <vel value="0.0224708468" flag="0"/>
      <psa03 value="0.1890510925" flag="0"/>
      <psa10 value="0.0153347789" flag="0"/>
      <psa30 value="0.0024265446" flag="0"/>
    </comp>
    <comp name="00.HNN">
      <acc value="0.0583194478" flag="0"/>
      <vel value="0.0154625993" flag="0"/>
      <psa03 value="0.1272357802" flag="0"/>
      <psa10 value="0.0101738192" flag="0"/>
      <psa30 value="0.0013551285" flag="0"/>
    </comp>
    <comp name="00.HNZ">
      <acc value="0.0766940124" flag="0"/>
      <vel value="0.0165332974" flag="0"/>
      <psa03 value="0.0787517865" flag="0"/>
      <psa10 value="0.0051021109" flag="0"/>
      <psa30 value="0.0023311683" flag="0"/>
    </comp>
  </station>
  <station code="NISR" name="NISR" netid="HL" insttype="65535" lat="36.6106" lon="27.131">
    <comp name="--.HHN">
      <acc value="1.9178078037" flag="0"/>
      <vel value="0.5103137982" flag="0"/>
      <psa03 value="1.1335127932" flag="0"/>
      <psa10 value="0.3042188376" flag="0"/>
      <psa30 value="0.0437924325" flag="0"/>
    </comp>
    <comp name="--.HHE">
      <acc value="1.7185266724" flag="0"/>
      <vel value="0.8892306509" flag="0"/>
      <psa03 value="2.5823295707" flag="0"/>
      <psa10 value="0.7026770110" flag="0"/>
      <psa30 value="0.0751043489" flag="0"/>
    </comp>
    <comp name="--.HHZ">
      <acc value="1.5063705156" flag="0"/>
      <vel value="0.3423730986" flag="0"/>
      <psa03 value="1.0097651638" flag="0"/>
      <psa10 value="0.3890084187" flag="0"/>
      <psa30 value="0.0192062843" flag="0"/>
    </comp>
  </station>
  <station code="RODB" name="RODB" netid="HL" insttype="CMG-5" lat="36.4471" lon="28.2212">
    <comp name="00.HNE">
      <acc value="0.0235529851" flag="0"/>
      <vel value="0.0312038612" flag="0"/>
      <psa03 value="0.1144847445" flag="0"/>
      <psa10 value="0.0467819462" flag="0"/>
      <psa30 value="0.0065903378" flag="0"/>
    </comp>
    <comp name="00.HNZ">
      <acc value="0.0149225154" flag="0"/>
      <vel value="0.0144115986" flag="0"/>
      <psa03 value="0.0310608641" flag="0"/>
      <psa10 value="0.0268045726" flag="0"/>
      <psa30 value="0.0032575128" flag="0"/>
    </comp>
    <comp name="00.HNN">
      <acc value="0.0306739674" flag="0"/>
      <vel value="0.0299482966" flag="0"/>
      <psa03 value="0.1049097405" flag="0"/>
      <psa10 value="0.0365243588" flag="0"/>
      <psa30 value="0.0062789172" flag="0"/>
    </comp>
  </station>
  <station code="SMG" name="SMG" netid="HL" insttype="120" lat="37.7043" lon="26.8377">
    <comp name="--.HHE">
      <acc value="0.0157553069" flag="0"/>
      <vel value="0.0082137375" flag="0"/>
      <psa03 value="0.0658583054" flag="0"/>
      <psa10 value="0.0089492071" flag="0"/>
      <psa30 value="0.0016958796" flag="0"/>
    </comp>
    <comp name="--.HHN">
      <acc value="0.0135133112" flag="0"/>
      <vel value="0.0066858256" flag="0"/>
      <psa03 value="0.0389964607" flag="0"/>
      <psa10 value="0.0044969959" flag="0"/>
      <psa30 value="0.0014731836" flag="0"/>
    </comp>
    <comp name="--.HHZ">
      <acc value="0.0054815744" flag="0"/>
      <vel value="0.0037218974" flag="0"/>
      <psa03 value="0.0165437040" flag="0"/>
      <psa10 value="0.0054726932" flag="0"/>
      <psa30 value="0.0006537978" flag="0"/>
    </comp>
  </station>
  <station code="THERA" name="THERA" netid="HL" insttype="120" lat="36.367" lon="25.4753">
    <comp name="--.HHE">
      <acc value="0.0157653898" flag="0"/>
      <vel value="0.0101090153" flag="0"/>
      <psa03 value="0.0532334083" flag="0"/>
      <psa10 value="0.0080978378" flag="0"/>
      <psa30 value="0.0014178034" flag="0"/>
    </comp>
    <comp name="--.HHZ">
      <acc value="0.0111881538" flag="0"/>
      <vel value="0.0067142024" flag="0"/>
      <psa03 value="0.0279392510" flag="0"/>
      <psa10 value="0.0071748755" flag="0"/>
      <psa30 value="0.0013358450" flag="0"/>
    </comp>
    <comp name="--.HHN">
      <acc value="0.0085838244" flag="0"/>
      <vel value="0.0054655655" flag="0"/>
      <psa03 value="0.0311117156" flag="0"/>
      <psa10 value="0.0073024748" flag="0"/>
      <psa30 value="0.0008865348" flag="0"/>
    </comp>
  </station>
  <station code="CMBO" name="CMBO" netid="HT" insttype="120P," lat="36.4709" lon="25.4056">
    <comp name="--.HHN">
      <acc value="0.0738250322" flag="0"/>
      <vel value="0.0433705153" flag="0"/>
      <psa03 value="0.1716141127" flag="0"/>
      <psa10 value="0.0626146412" flag="0"/>
      <psa30 value="0.0070339565" flag="0"/>
    </comp>
    <comp name="--.HHE">
      <acc value="0.0580867288" flag="0"/>
      <vel value="0.0440938467" flag="0"/>
      <psa03 value="0.1641204783" flag="0"/>
      <psa10 value="0.0702631446" flag="0"/>
      <psa30 value="0.0067695971" flag="0"/>
    </comp>
    <comp name="--.HHZ">
      <acc value="0.0459182744" flag="0"/>
      <vel value="0.0266468192" flag="0"/>
      <psa03 value="0.1519669529" flag="0"/>
      <psa10 value="0.0224173342" flag="0"/>
      <psa30 value="0.0036979906" flag="0"/>
    </comp>
  </station>
  <station code="THT1" name="THT1" netid="HT" insttype="30" lat="36.3858" lon="25.4296">
    <comp name="--.HHE">
      <acc value="0.0143829883" flag="0"/>
      <vel value="0.0058447572" flag="0"/>
      <psa03 value="0.0220189383" flag="0"/>
      <psa10 value="0.0066738822" flag="0"/>
      <psa30 value="0.0022648383" flag="0"/>
    </comp>
    <comp name="--.HHN">
      <acc value="0.0141617753" flag="0"/>
      <vel value="0.0086565869" flag="0"/>
      <psa03 value="0.0375708391" flag="0"/>
      <psa10 value="0.0054602349" flag="0"/>
      <psa30 value="0.0015678785" flag="0"/>
    </comp>
    <comp name="--.HHZ">
      <acc value="0.0081021763" flag="0"/>
      <vel value="0.0037537377" flag="0"/>
      <psa03 value="0.0144047962" flag="0"/>
      <psa10 value="0.0036620915" flag="0"/>
      <psa30 value="0.0013423263" flag="0"/>
    </comp>
  </station>
  <station code="DATC" name="DATC" netid="KO" insttype="CMG-5T" lat="36.7584" lon="27.6602">
    <comp name="--.HNE">
      <acc value="0.1730531526" flag="0"/>
      <vel value="0.1559557376" flag="0"/>
      <psa03 value="0.3724893109" flag="0"/>
      <psa10 value="0.1844887947" flag="0"/>
      <psa30 value="0.0150224896" flag="0"/>
    </comp>
    <comp name="--.HNN">
      <acc value="0.1456132559" flag="0"/>
      <vel value="0.0700345951" flag="0"/>
      <psa03 value="0.3691895677" flag="0"/>
      <psa10 value="0.1161294028" flag="0"/>
      <psa30 value="0.0078043493" flag="0"/>
    </comp>
    <comp name="--.HNZ">
      <acc value="0.2493560240" flag="0"/>
      <vel value="0.0814626327" flag="0"/>
      <psa03 value="0.3562113212" flag="0"/>
      <psa10 value="0.1138127445" flag="0"/>
      <psa30 value="0.0062331848" flag="0"/>
    </comp>
  </station>
  <station code="YKAV" name="YKAV" netid="KO" insttype="CMG-5T" lat="37.1246" lon="27.2801">
    <comp name="--.HNE">
      <acc value="0.0291029167" flag="0"/>
      <vel value="0.0136957707" flag="0"/>
      <psa03 value="0.0360864069" flag="0"/>
      <psa10 value="0.0198678910" flag="0"/>
      <psa30 value="0.0019721660" flag="0"/>
    </comp>
    <comp name="--.HNZ">
      <acc value="0.0211553409" flag="0"/>
      <vel value="0.0105784866" flag="0"/>
      <psa03 value="0.0358780615" flag="0"/>
      <psa10 value="0.0222268009" flag="0"/>
      <psa30 value="0.0011199998" flag="0"/>
    </comp>
    <comp name="--.HNN">
      <acc value="0.0220906553" flag="0"/>
      <vel value="0.0106302335" flag="0"/>
      <psa03 value="0.0583611709" flag="0"/>
      <psa10 value="0.0071996760" flag="0"/>
      <psa30 value="0.0013925553" flag="0"/>
    </comp>
  </station>
  <station code="AYDN" name="AYDN" netid="TU" source="ODC" insttype="T" lat="37.6608" lon="27.8792">
    <comp name="--.HHE">
      <acc value="0.0161106012" flag="0"/>
      <vel value="0.0148049997" flag="0"/>
      <psa03 value="0.0418440860" flag="0"/>
      <psa10 value="0.0216936169" flag="0"/>
      <psa30 value="0.0024913498" flag="0"/>
    </comp>
    <comp name="--.HHZ">
      <acc value="0.0173684966" flag="0"/>
      <vel value="0.0094083944" flag="0"/>
      <psa03 value="0.0684865367" flag="0"/>
      <psa10 value="0.0179655005" flag="0"/>
      <psa30 value="0.0015512914" flag="0"/>
    </comp>
    <comp name="--.HHN">
      <acc value="0.0151850540" flag="0"/>
      <vel value="0.0149292177" flag="0"/>
      <psa03 value="0.0531625662" flag="0"/>
      <psa10 value="0.0116120490" flag="0"/>
      <psa30 value="0.0024639050" flag="0"/>
    </comp>
  </station>
</stationlist>
