<stationlist created="1778136519">
	<station code="KSS1" name="KSS1" netid="HI" source="ITSAK Strong Motion Network" insttype="" lat="35.4189" lon="26.9207">
		<comp name="--.HNE" depth="0.0">
			<acc value="0.0146122271637022" flag="0"/>
			<vel value="0.0079016457358488" flag="0"/>
			<psa03 value="0.0557935316529849" flag="0"/>
			<psa10 value="0.00699052236203878" flag="0"/>
			<psa30 value="0.00117716745612673" flag="0"/>
		</comp>
		<comp name="--.HNN" depth="0.0">
			<acc value="0.0146739339006796" flag="0"/>
			<vel value="0.00714690891841736" flag="0"/>
			<psa03 value="0.0340488192365048" flag="0"/>
			<psa10 value="0.00770326571346785" flag="0"/>
			<psa30 value="0.000999093473786008" flag="0"/>
		</comp>
		<comp name="--.HNZ" depth="0.0">
			<acc value="0.00915224349894449" flag="0"/>
			<vel value="0.00347297686259538" flag="0"/>
			<psa03 value="0.0114987471008958" flag="0"/>
			<psa10 value="0.00812205276741487" flag="0"/>
			<psa30 value="0.000769565953834274" flag="0"/>
		</comp>
	</station>
	<station code="NAX1" name="NAX1" netid="HI" source="ITSAK Strong Motion Network" insttype="" lat="37.101394" lon="25.374103">
		<comp name="--.HNE" depth="0.0">
			<acc value="0.00530814558211168" flag="0"/>
			<vel value="0.00399783089514624" flag="0"/>
			<psa03 value="0.0111855516545679" flag="0"/>
			<psa10 value="0.00460665759341726" flag="0"/>
			<psa30 value="0.000730192812010195" flag="0"/>
		</comp>
		<comp name="--.HNN" depth="0.0">
			<acc value="0.0110565785228867" flag="0"/>
			<vel value="0.00745218676213929" flag="0"/>
			<psa03 value="0.0192391488458569" flag="0"/>
			<psa10 value="0.00622945742746198" flag="0"/>
			<psa30 value="0.00134405588681288" flag="0"/>
		</comp>
		<comp name="--.HNZ" depth="0.0">
			<acc value="0.00624003462840783" flag="0"/>
			<vel value="0.00380779108672133" flag="0"/>
			<psa03 value="0.0152570924568307" flag="0"/>
			<psa10 value="0.00338653761893699" flag="0"/>
			<psa30 value="0.000880526626247588" flag="0"/>
		</comp>
	</station>
	<station code="RDI1" name="RDI1" netid="HI" source="ITSAK Strong Motion Network" insttype="" lat="36.4514" lon="28.224">
		<comp name="--.HNE" depth="0.0">
			<acc value="0.0243767139120602" flag="0"/>
			<vel value="0.0289992934560639" flag="0"/>
			<psa03 value="0.0665764034479884" flag="0"/>
			<psa10 value="0.0317996285098043" flag="0"/>
			<psa30 value="0.010164534499539" flag="0"/>
		</comp>
		<comp name="--.HNN" depth="0.0">
			<acc value="0.0185161827537379" flag="0"/>
			<vel value="0.0233674672517143" flag="0"/>
			<psa03 value="0.0611625964471775" flag="0"/>
			<psa10 value="0.0393498758766376" flag="0"/>
			<psa30 value="0.0105528968529856" flag="0"/>
		</comp>
		<comp name="--.HNZ" depth="0.0">
			<acc value="0.0142638426597906" flag="0"/>
			<vel value="0.0155330534149816" flag="0"/>
			<psa03 value="0.0602230101081938" flag="0"/>
			<psa10 value="0.0292385846029744" flag="0"/>
			<psa30 value="0.00440263313123794" flag="0"/>
		</comp>
	</station>
	<station code="SIT2" name="SIT2" netid="HI" source="ITSAK Strong Motion Network" insttype="" lat="35.2059" lon="26.107">
		<comp name="--.HNE" depth="0.0">
			<acc value="0.0268113475268895" flag="0"/>
			<vel value="0.0183666926524539" flag="0"/>
			<psa03 value="0.0834442153430768" flag="0"/>
			<psa10 value="0.0142145990426249" flag="0"/>
			<psa30 value="0.00113197782744228" flag="0"/>
		</comp>
		<comp name="--.HNN" depth="0.0">
			<acc value="0.0244339967096081" flag="0"/>
			<vel value="0.0165800544450651" flag="0"/>
			<psa03 value="0.0863972009798828" flag="0"/>
			<psa10 value="0.0164534990618033" flag="0"/>
			<psa30 value="0.000904239995755272" flag="0"/>
		</comp>
		<comp name="--.HNZ" depth="0.0">
			<acc value="0.0125005152566569" flag="0"/>
			<vel value="0.00672261497132152" flag="0"/>
			<psa03 value="0.0519904440904318" flag="0"/>
			<psa10 value="0.00552074087462855" flag="0"/>
			<psa30 value="0.000527958038095607" flag="0"/>
		</comp>
	</station>
	<station code="KARP" name="KARP" netid="HL" source="National Observatory of Athens Seismic Network" insttype="" lat="35.5471" lon="27.16106">
		<comp name="--.HNE" depth="0.0">
			<acc value="0.0365816086968749" flag="0"/>
			<vel value="0.0178257936792299" flag="0"/>
			<psa03 value="0.056464664752259" flag="0"/>
			<psa10 value="0.0164937670477597" flag="0"/>
			<psa30 value="0.00229795973191444" flag="0"/>
		</comp>
		<comp name="--.HNN" depth="0.0">
			<acc value="0.0345725410605673" flag="0"/>
			<vel value="0.0128591316702958" flag="0"/>
			<psa03 value="0.0445184955851804" flag="0"/>
			<psa10 value="0.0196266163551711" flag="0"/>
			<psa30 value="0.00120848700075952" flag="0"/>
		</comp>
		<comp name="--.HNZ" depth="0.0">
			<acc value="0.0277695277722608" flag="0"/>
			<vel value="0.0115218280475088" flag="0"/>
			<psa03 value="0.061744245133215" flag="0"/>
			<psa10 value="0.01087235620824" flag="0"/>
			<psa30 value="0.00114003142463356" flag="0"/>
		</comp>
	</station>
	<station code="KLNA" name="KLNA" netid="HL" source="National Observatory of Athens Seismic Network" insttype="" lat="36.95708" lon="26.97274">
		<comp name="00.HNE" depth="0.0">
			<acc value="0.0559773509259429" flag="0"/>
			<vel value="0.0208592683573285" flag="0"/>
			<psa03 value="0.189975409301182" flag="0"/>
			<psa10 value="0.0150803607406885" flag="0"/>
			<psa30 value="0.00293732586448954" flag="0"/>
		</comp>
		<comp name="00.HNN" depth="0.0">
			<acc value="0.0570777947555741" flag="0"/>
			<vel value="0.0152486923259639" flag="0"/>
			<psa03 value="0.126799413556182" flag="0"/>
			<psa10 value="0.0102280684329369" flag="0"/>
			<psa30 value="0.00168812345570739" flag="0"/>
		</comp>
		<comp name="00.HNZ" depth="0.0">
			<acc value="0.0762007632041527" flag="0"/>
			<vel value="0.0169608918041334" flag="0"/>
			<psa03 value="0.0789699946812497" flag="0"/>
			<psa10 value="0.00510598061927717" flag="0"/>
			<psa30 value="0.00308050092566801" flag="0"/>
		</comp>
	</station>
	<station code="NISR" name="NISR" netid="HL" source="National Observatory of Athens Seismic Network" insttype="" lat="36.6106" lon="27.131">
		<comp name="--.HNE" depth="0.0">
			<acc value="1.59958278968909" flag="0"/>
			<vel value="0.905901445701809" flag="0"/>
			<psa03 value="2.38046436091853" flag="0"/>
			<psa10 value="0.712968852150425" flag="0"/>
			<psa30 value="0.0940346956496217" flag="0"/>
		</comp>
		<comp name="--.HNN" depth="0.0">
			<acc value="1.68881348927489" flag="0"/>
			<vel value="0.534598736383074" flag="0"/>
			<psa03 value="1.30888851241092" flag="0"/>
			<psa10 value="0.343896653665228" flag="0"/>
			<psa30 value="0.0508249096080258" flag="0"/>
		</comp>
		<comp name="--.HNZ" depth="0.0">
			<acc value="1.31912538670953" flag="0"/>
			<vel value="0.317325049198104" flag="0"/>
			<psa03 value="0.969295164178239" flag="0"/>
			<psa10 value="0.412255586624888" flag="0"/>
			<psa30 value="0.0226655070286841" flag="0"/>
		</comp>
	</station>
	<station code="RODB" name="RODB" netid="HL" source="National Observatory of Athens Seismic Network" insttype="" lat="36.4471" lon="28.22116">
		<comp name="00.HNE" depth="0.0">
			<acc value="0.0235928324436595" flag="0"/>
			<vel value="0.0318982223918324" flag="0"/>
			<psa03 value="0.114629533356012" flag="0"/>
			<psa10 value="0.0467672388898147" flag="0"/>
			<psa30 value="0.00776187800413778" flag="0"/>
		</comp>
		<comp name="00.HNN" depth="0.0">
			<acc value="0.0307019453873273" flag="0"/>
			<vel value="0.0297578521785843" flag="0"/>
			<psa03 value="0.104786247899992" flag="0"/>
			<psa10 value="0.0366478940189602" flag="0"/>
			<psa30 value="0.00782541193753573" flag="0"/>
		</comp>
		<comp name="00.HNZ" depth="0.0">
			<acc value="0.0147274921916753" flag="0"/>
			<vel value="0.0159560318875423" flag="0"/>
			<psa03 value="0.0313195446327902" flag="0"/>
			<psa10 value="0.0267701570638444" flag="0"/>
			<psa30 value="0.00360264247690324" flag="0"/>
		</comp>
	</station>
	<station code="SMG" name="SMG" netid="HL" source="National Observatory of Athens Seismic Network" insttype="" lat="37.70425" lon="26.83772">
		<comp name="00.HNE" depth="0.0">
			<acc value="0.0148024074518858" flag="0"/>
			<vel value="0.00791524627810362" flag="0"/>
			<psa03 value="0.0650551684229671" flag="0"/>
			<psa10 value="0.00895560007671327" flag="0"/>
			<psa30 value="0.002127939346765" flag="0"/>
		</comp>
		<comp name="00.HNN" depth="0.0">
			<acc value="0.0118725998742614" flag="0"/>
			<vel value="0.00618836763477241" flag="0"/>
			<psa03 value="0.039507368443934" flag="0"/>
			<psa10 value="0.00407914697738784" flag="0"/>
			<psa30 value="0.00180892741357673" flag="0"/>
		</comp>
		<comp name="00.HNZ" depth="0.0">
			<acc value="0.00495012778219246" flag="0"/>
			<vel value="0.00363481872728141" flag="0"/>
			<psa03 value="0.0161519365891961" flag="0"/>
			<psa10 value="0.00539591011816357" flag="0"/>
			<psa30 value="0.000706032020436328" flag="0"/>
		</comp>
	</station>
	<station code="THRA" name="THRA" netid="HL" source="National Observatory of Athens Seismic Network" insttype="" lat="36.41502" lon="25.43244">
		<comp name="00.HNE" depth="0.0">
			<acc value="0.0421335821861784" flag="0"/>
			<vel value="0.0359060853057538" flag="0"/>
			<psa03 value="0.151094431749904" flag="0"/>
			<psa10 value="0.0433202992919431" flag="0"/>
			<psa30 value="0.00880660852867443" flag="0"/>
		</comp>
		<comp name="00.HNN" depth="0.0">
			<acc value="0.0328875098392755" flag="0"/>
			<vel value="0.0280685363229073" flag="0"/>
			<psa03 value="0.16129565485887" flag="0"/>
			<psa10 value="0.0358022663138749" flag="0"/>
			<psa30 value="0.00463708229391768" flag="0"/>
		</comp>
		<comp name="00.HNZ" depth="0.0">
			<acc value="0.0433860246592221" flag="0"/>
			<vel value="0.0192584994085121" flag="0"/>
			<psa03 value="0.0901108041291993" flag="0"/>
			<psa10 value="0.0135058824897915" flag="0"/>
			<psa30 value="0.00272032616239092" flag="0"/>
		</comp>
	</station>
	<station code="TNSA" name="TNSA" netid="HL" source="National Observatory of Athens Seismic Network" insttype="" lat="37.53942" lon="25.1631">
		<comp name="00.HNE" depth="0.0">
			<acc value="0.00439506936410761" flag="0"/>
			<vel value="0.00450735887454875" flag="0"/>
			<psa03 value="0.0100669964891111" flag="0"/>
			<psa10 value="0.00415162935210944" flag="0"/>
			<psa30 value="0.00101654293436713" flag="0"/>
		</comp>
		<comp name="00.HNN" depth="0.0">
			<acc value="0.0034420236116717" flag="0"/>
			<vel value="0.00280482951345241" flag="0"/>
			<psa03 value="0.00738246409201484" flag="0"/>
			<psa10 value="0.00336640362595877" flag="0"/>
			<psa30 value="0.000800438076400881" flag="0"/>
		</comp>
		<comp name="00.HNZ" depth="0.0">
			<acc value="0.00264010021362346" flag="0"/>
			<vel value="0.00244707467667015" flag="0"/>
			<psa03 value="0.00541380700081088" flag="0"/>
			<psa10 value="0.00387378024900997" flag="0"/>
			<psa30 value="0.000807149407393622" flag="0"/>
		</comp>
	</station>
	<station code="DATC" name="DATC" netid="KO" source="Bogazici University Kandilli Observatory And Earthquake Research Institute (KOERI)" insttype="" lat="36.7584" lon="27.6602">
		<comp name="--.HNE" depth="0.0">
			<acc value="0.172090660989189" flag="0"/>
			<vel value="0.15780963855685" flag="0"/>
			<psa03 value="0.37874277902367" flag="0"/>
			<psa10 value="0.184161606973204" flag="0"/>
			<psa30 value="0.0158982482776705" flag="0"/>
		</comp>
		<comp name="--.HNN" depth="0.0">
			<acc value="0.143676146220541" flag="0"/>
			<vel value="0.0679848272320906" flag="0"/>
			<psa03 value="0.371136603898564" flag="0"/>
			<psa10 value="0.116140925095577" flag="0"/>
			<psa30 value="0.00874978592626922" flag="0"/>
		</comp>
		<comp name="--.HNZ" depth="0.0">
			<acc value="0.252613258175134" flag="0"/>
			<vel value="0.0828672758736557" flag="0"/>
			<psa03 value="0.362143420368292" flag="0"/>
			<psa10 value="0.113849676694656" flag="0"/>
			<psa30 value="0.0071815715842988" flag="0"/>
		</comp>
	</station>
	<station code="NAZL" name="NAZL" netid="KO" source="Bogazici University Kandilli Observatory And Earthquake Research Institute (KOERI)" insttype="" lat="37.9641" lon="28.2922">
		<comp name="--.HNE" depth="0.0">
			<acc value="0.00729147884734271" flag="0"/>
			<vel value="0.0088390945515907" flag="0"/>
			<psa03 value="0.0194628598789482" flag="0"/>
			<psa10 value="0.0132642745740528" flag="0"/>
			<psa30 value="0.00200355601236621" flag="0"/>
		</comp>
		<comp name="--.HNN" depth="0.0">
			<acc value="0.00474953274438429" flag="0"/>
			<vel value="0.00523654692667574" flag="0"/>
			<psa03 value="0.0131542087457719" flag="0"/>
			<psa10 value="0.00817842794775389" flag="0"/>
			<psa30 value="0.00122011997448027" flag="0"/>
		</comp>
		<comp name="--.HNZ" depth="0.0">
			<acc value="0.00246716217566302" flag="0"/>
			<vel value="0.00232206079340233" flag="0"/>
			<psa03 value="0.00648761995964941" flag="0"/>
			<psa10 value="0.00429256730295699" flag="0"/>
			<psa30 value="0.000780751505488842" flag="0"/>
		</comp>
	</station>
	<station code="YKAV" name="YKAV" netid="KO" source="Bogazici University Kandilli Observatory And Earthquake Research Institute (KOERI)" insttype="" lat="37.1246" lon="27.2801">
		<comp name="--.HNE" depth="0.0">
			<acc value="0.02897449712483" flag="0"/>
			<vel value="0.0135335622601389" flag="0"/>
			<psa03 value="0.0367780938402194" flag="0"/>
			<psa10 value="0.0198118490905707" flag="0"/>
			<psa30 value="0.0018406943802757" flag="0"/>
		</comp>
		<comp name="--.HNN" depth="0.0">
			<acc value="0.0214212403099516" flag="0"/>
			<vel value="0.0105244730386807" flag="0"/>
			<psa03 value="0.0587017750831725" flag="0"/>
			<psa10 value="0.00720394268760793" flag="0"/>
			<psa30 value="0.00128186421961349" flag="0"/>
		</comp>
		<comp name="--.HNZ" depth="0.0">
			<acc value="0.0212879888418253" flag="0"/>
			<vel value="0.010615485182922" flag="0"/>
			<psa03 value="0.0358832497078539" flag="0"/>
			<psa10 value="0.0222239014493618" flag="0"/>
			<psa30 value="0.00103265012874971" flag="0"/>
		</comp>
	</station>
</stationlist>
