<?xml version="1.0" encoding="UTF-8" standalone="yes"?>
<!DOCTYPE earthquake SYSTEM "stationlist.dtd">
<stationlist created="" xmlns="ch.ethz.sed.shakemap.usgs.xml">
  <station code="KMRS" name="KMRS" netid="KO" insttype="CMG-3T" lat="37.5087" lon="36.9">
    <comp name="--.HHE">
      <acc value="0.0024802527" flag="0"/>
      <vel value="0.0008868032" flag="0"/>
      <psa03 value="0.0050936870" flag="0"/>
      <psa10 value="0.0006943558" flag="0"/>
      <psa30 value="0.0001615342" flag="0"/>
    </comp>
    <comp name="--.HHN">
      <acc value="0.0027717083" flag="0"/>
      <vel value="0.0010443032" flag="0"/>
      <psa03 value="0.0055956794" flag="0"/>
      <psa10 value="0.0006782983" flag="0"/>
      <psa30 value="0.0001765822" flag="0"/>
    </comp>
    <comp name="--.HHZ">
      <acc value="0.0017555209" flag="0"/>
      <vel value="0.0005060659" flag="0"/>
      <psa03 value="0.0037422919" flag="0"/>
      <psa10 value="0.0003894400" flag="0"/>
      <psa30 value="0.0000662474" flag="0"/>
    </comp>
  </station>
  <station code="ANDN" name="ANDN" netid="TU" insttype="T" lat="37.58" lon="36.3452">
    <comp name="--.HHZ">
      <acc value="0.0242171384" flag="0"/>
      <vel value="0.0104928073" flag="0"/>
      <psa03 value="0.0428884585" flag="0"/>
      <psa10 value="0.0181781932" flag="0"/>
      <psa30 value="0.0012552848" flag="0"/>
    </comp>
    <comp name="--.HHN">
      <acc value="0.1079254532" flag="0"/>
      <vel value="0.0305838681" flag="0"/>
      <psa03 value="0.0865927120" flag="0"/>
      <psa10 value="0.0143810317" flag="0"/>
      <psa30 value="0.0014324018" flag="0"/>
    </comp>
    <comp name="--.HHE">
      <acc value="0.0727010105" flag="0"/>
      <vel value="0.0184123314" flag="0"/>
      <psa03 value="0.0600798469" flag="0"/>
      <psa10 value="0.0193259212" flag="0"/>
      <psa30 value="0.0014437979" flag="0"/>
    </comp>
  </station>
</stationlist>
