<?xml version="1.0" encoding="UTF-8" standalone="yes"?>
<!DOCTYPE earthquake SYSTEM "stationlist.dtd">
<stationlist created="" xmlns="ch.ethz.sed.shakemap.usgs.xml">
  <station code="NPS" name="NPS" netid="HL" insttype="CMG3ESPC-120s" lat="35.2613" lon="25.6104">
    <comp name="--.HHE">
      <acc value="0.0065240979" flag="0"/>
      <vel value="0.0033648347" flag="0"/>
      <psa03 value="0.0248624918" flag="0"/>
      <psa10 value="0.0026883790" flag="0"/>
      <psa30 value="0.0001564571" flag="0"/>
    </comp>
    <comp name="--.HHN">
      <acc value="0.0165700862" flag="0"/>
      <vel value="0.0067896802" flag="0"/>
      <psa03 value="0.0648812364" flag="0"/>
      <psa10 value="0.0054830003" flag="0"/>
      <psa30 value="0.0003031828" flag="0"/>
    </comp>
    <comp name="--.HHZ">
      <acc value="0.0078303352" flag="0"/>
      <vel value="0.0039756757" flag="0"/>
      <psa03 value="0.0317205502" flag="0"/>
      <psa10 value="0.0026195362" flag="0"/>
      <psa30 value="0.0004303904" flag="0"/>
    </comp>
  </station>
</stationlist>
