<stationlist created="1778069280">
	<station code="KARP" name="KARP" netid="GE" source="GEOFON" insttype="" lat="35.5471" lon="27.16106">
		<comp name="--.HNE" depth="0.0">
			<acc value="0.00239360743160309" flag="0"/>
			<vel value="0.00273130808643032" flag="0"/>
			<psa03 value="0.0052348381743378" flag="0"/>
			<psa10 value="0.00548047288867211" flag="0"/>
			<psa30 value="0.000280981057562747" flag="0"/>
		</comp>
		<comp name="--.HNN" depth="0.0">
			<acc value="0.0020956684225488" flag="0"/>
			<vel value="0.00184405973983031" flag="0"/>
			<psa03 value="0.00384782976917137" flag="0"/>
			<psa10 value="0.00264157987874276" flag="0"/>
			<psa30 value="0.000369570626666925" flag="0"/>
		</comp>
		<comp name="--.HNZ" depth="0.0">
			<acc value="0.00116764847554646" flag="0"/>
			<vel value="0.00135735800837856" flag="0"/>
			<psa03 value="0.00447422066182718" flag="0"/>
			<psa10 value="0.00158655864668392" flag="0"/>
			<psa30 value="0.000341383036497413" flag="0"/>
		</comp>
	</station>
	<station code="KSS1" name="KSS1" netid="HI" source="ITSAK Strong Motion Network" insttype="" lat="35.4189" lon="26.9207">
		<comp name="--.HNE" depth="0.0">
			<acc value="0.00215190198469394" flag="0"/>
			<vel value="0.00138421509103656" flag="0"/>
			<psa03 value="0.00805359719128892" flag="0"/>
			<psa10 value="0.00260131189278632" flag="0"/>
			<psa30 value="0.000257715110121245" flag="0"/>
		</comp>
		<comp name="--.HNN" depth="0.0">
			<acc value="0.00231985220843409" flag="0"/>
			<vel value="0.00180789071482117" flag="0"/>
			<psa03 value="0.0105591607619121" flag="0"/>
			<psa10 value="0.00148991548038845" flag="0"/>
			<psa30 value="0.000199550241517492" flag="0"/>
		</comp>
		<comp name="--.HNZ" depth="0.0">
			<acc value="0.00130130982345939" flag="0"/>
			<vel value="0.00104709616881677" flag="0"/>
			<psa03 value="0.00246082136400495" flag="0"/>
			<psa10 value="0.00136508472392347" flag="0"/>
			<psa30 value="0.000229527519951734" flag="0"/>
		</comp>
	</station>
	<station code="SIT2" name="SIT2" netid="HI" source="ITSAK Strong Motion Network" insttype="" lat="35.2059" lon="26.107">
		<comp name="--.HNE" depth="0.0">
			<acc value="0.0677023304013258" flag="0"/>
			<vel value="0.0446782215179493" flag="0"/>
			<psa03 value="0.19391272348359" flag="0"/>
			<psa10 value="0.0239795856370627" flag="0"/>
			<psa30 value="0.00173733988298749" flag="0"/>
		</comp>
		<comp name="--.HNN" depth="0.0">
			<acc value="0.0601989322205813" flag="0"/>
			<vel value="0.0367706892488105" flag="0"/>
			<psa03 value="0.150825978510194" flag="0"/>
			<psa10 value="0.0238144868946413" flag="0"/>
			<psa30 value="0.0014134063070712" flag="0"/>
		</comp>
		<comp name="--.HNZ" depth="0.0">
			<acc value="0.0557647934461523" flag="0"/>
			<vel value="0.0150365593149103" flag="0"/>
			<psa03 value="0.070961139696579" flag="0"/>
			<psa10 value="0.00576637558896286" flag="0"/>
			<psa30 value="0.000511850843713029" flag="0"/>
		</comp>
	</station>
	<station code="KARP" name="KARP" netid="HL" source="National Observatory of Athens Seismic Network" insttype="" lat="35.5471" lon="27.16106">
		<comp name="--.HNE" depth="0.0">
			<acc value="0.00234501249270167" flag="0"/>
			<vel value="0.00267584381216046" flag="0"/>
			<psa03 value="0.00514535376110125" flag="0"/>
			<psa10 value="0.00537174932658971" flag="0"/>
			<psa30 value="0.000275164570702371" flag="0"/>
		</comp>
		<comp name="--.HNN" depth="0.0">
			<acc value="0.00205311279181595" flag="0"/>
			<vel value="0.001806627135904" flag="0"/>
			<psa03 value="0.0038030875625531" flag="0"/>
			<psa10 value="0.00258923149699939" flag="0"/>
			<psa30 value="0.000361964451541818" flag="0"/>
		</comp>
		<comp name="--.HNZ" depth="0.0">
			<acc value="0.00114392576514942" flag="0"/>
			<vel value="0.00132980855131586" flag="0"/>
			<psa03 value="0.00438473624859063" flag="0"/>
			<psa10 value="0.00155434425791876" flag="0"/>
			<psa30 value="0.00033422428343849" flag="0"/>
		</comp>
	</station>
</stationlist>
