<stationlist xmlns:esm="https://esm-db.eu/esmws/shakemap/1/" created="1783475681">
	<station code="KARP" name="KARP" netid="GE" source="GEOFON" insttype="" lat="35.5471" lon="27.16106" esm:processing="manual (Paolucci et al 2011)" esm:quality="good">
		<comp name="--.HNE" depth="0.0">
			<acc value="0.0686512735724628" flag="0"/>
			<vel value="0.0354410045299775" flag="0"/>
			<psa03 value="0.109170984148583" flag="0"/>
			<psa10 value="0.0464330146063762" flag="0"/>
			<psa30 value="0.00263307885948529" flag="0"/>
		</comp>
		<comp name="--.HNN" depth="0.0">
			<acc value="0.063298196356003" flag="0"/>
			<vel value="0.0415164556334663" flag="0"/>
			<psa03 value="0.140132591128427" flag="0"/>
			<psa10 value="0.0651817888676968" flag="0"/>
			<psa30 value="0.00269616537081706" flag="0"/>
		</comp>
		<comp name="--.HNZ" depth="0.0">
			<acc value="0.0404296222483219" flag="0"/>
			<vel value="0.0164376705984325" flag="0"/>
			<psa03 value="0.0514982798176308" flag="0"/>
			<psa10 value="0.0195420535846626" flag="0"/>
			<psa30 value="0.00119551176084022" flag="0"/>
		</comp>
	</station>
	<station code="KSS1" name="KSS1" netid="HI" source="ITSAK Strong Motion Network" insttype="" lat="35.4189" lon="26.9207" esm:processing="manual (Paolucci et al 2011)" esm:quality="good">
		<comp name="--.HNE" depth="0.0">
			<acc value="0.0365633397149731" flag="0"/>
			<vel value="0.0178834767710683" flag="0"/>
			<psa03 value="0.0604467211412851" flag="0"/>
			<psa10 value="0.0173635555444189" flag="0"/>
			<psa30 value="0.00160937717205923" flag="0"/>
		</comp>
		<comp name="--.HNN" depth="0.0">
			<acc value="0.0333959146375607" flag="0"/>
			<vel value="0.0108791379370373" flag="0"/>
			<psa03 value="0.057135797851533" flag="0"/>
			<psa10 value="0.0104857835430582" flag="0"/>
			<psa30 value="0.00122056739654645" flag="0"/>
		</comp>
		<comp name="--.HNZ" depth="0.0">
			<acc value="0.0281791855182567" flag="0"/>
			<vel value="0.00827377499035996" flag="0"/>
			<psa03 value="0.0438921046925246" flag="0"/>
			<psa10 value="0.011234768081848" flag="0"/>
			<psa30 value="0.00072616601341455" flag="0"/>
		</comp>
	</station>
	<station code="RGE1" name="RGE1" netid="HI" source="ITSAK Strong Motion Network" insttype="" lat="36.0269" lon="27.9306" esm:processing="manual (Paolucci et al 2011)" esm:quality="good">
		<comp name="--.HNE" depth="0.0">
			<acc value="0.00340480908431234" flag="0"/>
			<vel value="0.00316228512076434" flag="0"/>
			<psa03 value="0.00666217050274903" flag="0"/>
			<psa10 value="0.00467184573685502" flag="0"/>
			<psa30 value="0.000788151117393955" flag="0"/>
		</comp>
		<comp name="--.HNN" depth="0.0">
			<acc value="0.00394038346342921" flag="0"/>
			<vel value="0.00418193942080996" flag="0"/>
			<psa03 value="0.00873957634987977" flag="0"/>
			<psa10 value="0.0110233621186259" flag="0"/>
			<psa30 value="0.000463175787289726" flag="0"/>
		</comp>
		<comp name="--.HNZ" depth="0.0">
			<acc value="0.00290034870824782" flag="0"/>
			<vel value="0.00204511029730206" flag="0"/>
			<psa03 value="0.00661837072623965" flag="0"/>
			<psa10 value="0.00353879325581048" flag="0"/>
			<psa30 value="0.000344965794999447" flag="0"/>
		</comp>
	</station>
	<station code="SIT2" name="SIT2" netid="HI" source="ITSAK Strong Motion Network" insttype="" lat="35.2059" lon="26.107" esm:processing="manual (Paolucci et al 2011)" esm:quality="good">
		<comp name="--.HNE" depth="0.0">
			<acc value="0.116827255553923" flag="0"/>
			<vel value="0.0700757504082947" flag="0"/>
			<psa03 value="0.453462264076184" flag="0"/>
			<psa10 value="0.0443874009197889" flag="0"/>
			<psa30 value="0.00320130488353734" flag="0"/>
		</comp>
		<comp name="--.HNN" depth="0.0">
			<acc value="0.129074320675652" flag="0"/>
			<vel value="0.0765567797507809" flag="0"/>
			<psa03 value="0.314358743699977" flag="0"/>
			<psa10 value="0.0459618791706858" flag="0"/>
			<psa30 value="0.00300399175235077" flag="0"/>
		</comp>
		<comp name="--.HNZ" depth="0.0">
			<acc value="0.108435504027126" flag="0"/>
			<vel value="0.0388523621584846" flag="0"/>
			<psa03 value="0.184740571126844" flag="0"/>
			<psa10 value="0.0203474133037914" flag="0"/>
			<psa30 value="0.000989697610396171" flag="0"/>
		</comp>
	</station>
	<station code="KARP" name="KARP" netid="HL" source="National Observatory of Athens Seismic Network" insttype="" lat="35.5471" lon="27.16106" esm:processing="manual (Paolucci et al 2011)" esm:quality="good">
		<comp name="--.HNE" depth="0.0">
			<acc value="0.0728609153911763" flag="0"/>
			<vel value="0.0346036276363775" flag="0"/>
			<psa03 value="0.106978616024288" flag="0"/>
			<psa10 value="0.0454947705335911" flag="0"/>
			<psa30 value="0.00254762124484439" flag="0"/>
		</comp>
		<comp name="--.HNN" depth="0.0">
			<acc value="0.0688266315580373" flag="0"/>
			<vel value="0.0407467817172129" flag="0"/>
			<psa03 value="0.137313832111476" flag="0"/>
			<psa10 value="0.0638368381367516" flag="0"/>
			<psa30 value="0.00261831393130126" flag="0"/>
		</comp>
		<comp name="--.HNZ" depth="0.0">
			<acc value="0.0397578339931456" flag="0"/>
			<vel value="0.0160634246212011" flag="0"/>
			<psa03 value="0.0504692090654105" flag="0"/>
			<psa10 value="0.0191393737250981" flag="0"/>
			<psa30 value="0.00117000870306781" flag="0"/>
		</comp>
	</station>
	<station code="ZKR" name="ZKR" netid="HL" source="National Observatory of Athens Seismic Network" insttype="" lat="35.1147" lon="26.21691" esm:processing="manual (Paolucci et al 2011)" esm:quality="good">
		<comp name="00.HNE" depth="0.0">
			<acc value="0.100898066068205" flag="0"/>
			<vel value="0.0267933511285956" flag="0"/>
			<psa03 value="0.161832561338289" flag="0"/>
			<psa10 value="0.0240681752061669" flag="0"/>
			<psa30 value="0.00138700840516642" flag="0"/>
		</comp>
		<comp name="00.HNN" depth="0.0">
			<acc value="0.120419702400113" flag="0"/>
			<vel value="0.0505554916126701" flag="0"/>
			<psa03 value="0.174091925951695" flag="0"/>
			<psa10 value="0.0415404543126682" flag="0"/>
			<psa30 value="0.00364112077459495" flag="0"/>
		</comp>
		<comp name="00.HNZ" depth="0.0">
			<acc value="0.0665453374684712" flag="0"/>
			<vel value="0.0157981120167401" flag="0"/>
			<psa03 value="0.073421961060584" flag="0"/>
			<psa10 value="0.0178185837857267" flag="0"/>
			<psa30 value="0.000860840055335548" flag="0"/>
		</comp>
	</station>
	<station code="RDI1" name="RDI1" netid="HI" source="ITSAK Strong Motion Network" insttype="" lat="36.4514" lon="28.224" esm:processing="discarded" esm:quality="bad">
		<comp name="--.HNE" depth="0.0">
			<acc value="0" flag="1"/>
			<vel value="0" flag="1"/>
			<psa03 value="0" flag="1"/>
			<psa10 value="0" flag="1"/>
			<psa30 value="0" flag="1"/>
		</comp>
		<comp name="--.HNN" depth="0.0">
			<acc value="0" flag="1"/>
			<vel value="0" flag="1"/>
			<psa03 value="0" flag="1"/>
			<psa10 value="0" flag="1"/>
			<psa30 value="0" flag="1"/>
		</comp>
		<comp name="--.HNZ" depth="0.0">
			<acc value="0" flag="1"/>
			<vel value="0" flag="1"/>
			<psa03 value="0" flag="1"/>
			<psa10 value="0" flag="1"/>
			<psa30 value="0" flag="1"/>
		</comp>
	</station>
	<station code="AGNA" name="AGNA" netid="HL" source="National Observatory of Athens Seismic Network" insttype="" lat="35.1895" lon="25.71853" esm:processing="discarded" esm:quality="bad">
		<comp name="00.HNE" depth="0.0">
			<acc value="0" flag="1"/>
			<vel value="0" flag="1"/>
			<psa03 value="0" flag="1"/>
			<psa10 value="0" flag="1"/>
			<psa30 value="0" flag="1"/>
		</comp>
		<comp name="00.HNN" depth="0.0">
			<acc value="0" flag="1"/>
			<vel value="0" flag="1"/>
			<psa03 value="0" flag="1"/>
			<psa10 value="0" flag="1"/>
			<psa30 value="0" flag="1"/>
		</comp>
		<comp name="00.HNZ" depth="0.0">
			<acc value="0" flag="1"/>
			<vel value="0" flag="1"/>
			<psa03 value="0" flag="1"/>
			<psa10 value="0" flag="1"/>
			<psa30 value="0" flag="1"/>
		</comp>
	</station>
	<station code="ASTA" name="ASTA" netid="HL" source="National Observatory of Athens Seismic Network" insttype="" lat="36.54552" lon="26.35295" esm:processing="discarded" esm:quality="bad">
		<comp name="00.HNE" depth="0.0">
			<acc value="0" flag="1"/>
			<vel value="0" flag="1"/>
			<psa03 value="0" flag="1"/>
			<psa10 value="0" flag="1"/>
			<psa30 value="0" flag="1"/>
		</comp>
		<comp name="00.HNN" depth="0.0">
			<acc value="0" flag="1"/>
			<vel value="0" flag="1"/>
			<psa03 value="0" flag="1"/>
			<psa10 value="0" flag="1"/>
			<psa30 value="0" flag="1"/>
		</comp>
		<comp name="00.HNZ" depth="0.0">
			<acc value="0" flag="1"/>
			<vel value="0" flag="1"/>
			<psa03 value="0" flag="1"/>
			<psa10 value="0" flag="1"/>
			<psa30 value="0" flag="1"/>
		</comp>
	</station>
	<station code="IACM" name="IACM" netid="HL" source="National Observatory of Athens Seismic Network" insttype="" lat="35.3058" lon="25.0709" esm:processing="discarded" esm:quality="bad">
		<comp name="--.HNE" depth="0.0">
			<acc value="0" flag="1"/>
			<vel value="0" flag="1"/>
			<psa03 value="0" flag="1"/>
			<psa10 value="0" flag="1"/>
			<psa30 value="0" flag="1"/>
		</comp>
		<comp name="--.HNN" depth="0.0">
			<acc value="0" flag="1"/>
			<vel value="0" flag="1"/>
			<psa03 value="0" flag="1"/>
			<psa10 value="0" flag="1"/>
			<psa30 value="0" flag="1"/>
		</comp>
		<comp name="--.HNZ" depth="0.0">
			<acc value="0" flag="1"/>
			<vel value="0" flag="1"/>
			<psa03 value="0" flag="1"/>
			<psa10 value="0" flag="1"/>
			<psa30 value="0" flag="1"/>
		</comp>
	</station>
	<station code="NISR" name="NISR" netid="HL" source="National Observatory of Athens Seismic Network" insttype="" lat="36.6106" lon="27.131" esm:processing="discarded" esm:quality="bad">
		<comp name="00.HNE" depth="0.0">
			<acc value="0" flag="1"/>
			<vel value="0" flag="1"/>
			<psa03 value="0" flag="1"/>
			<psa10 value="0" flag="1"/>
			<psa30 value="0" flag="1"/>
		</comp>
		<comp name="00.HNN" depth="0.0">
			<acc value="0" flag="1"/>
			<vel value="0" flag="1"/>
			<psa03 value="0" flag="1"/>
			<psa10 value="0" flag="1"/>
			<psa30 value="0" flag="1"/>
		</comp>
		<comp name="00.HNZ" depth="0.0">
			<acc value="0" flag="1"/>
			<vel value="0" flag="1"/>
			<psa03 value="0" flag="1"/>
			<psa10 value="0" flag="1"/>
			<psa30 value="0" flag="1"/>
		</comp>
	</station>
	<station code="RODB" name="RODB" netid="HL" source="National Observatory of Athens Seismic Network" insttype="" lat="36.4471" lon="28.22116" esm:processing="discarded" esm:quality="bad">
		<comp name="00.HNE" depth="0.0">
			<acc value="0" flag="1"/>
			<vel value="0" flag="1"/>
			<psa03 value="0" flag="1"/>
			<psa10 value="0" flag="1"/>
			<psa30 value="0" flag="1"/>
		</comp>
		<comp name="00.HNN" depth="0.0">
			<acc value="0" flag="1"/>
			<vel value="0" flag="1"/>
			<psa03 value="0" flag="1"/>
			<psa10 value="0" flag="1"/>
			<psa30 value="0" flag="1"/>
		</comp>
		<comp name="00.HNZ" depth="0.0">
			<acc value="0" flag="1"/>
			<vel value="0" flag="1"/>
			<psa03 value="0" flag="1"/>
			<psa10 value="0" flag="1"/>
			<psa30 value="0" flag="1"/>
		</comp>
	</station>
	<station code="THRA" name="THRA" netid="HL" source="National Observatory of Athens Seismic Network" insttype="" lat="36.41502" lon="25.43244" esm:processing="discarded" esm:quality="bad">
		<comp name="00.HNE" depth="0.0">
			<acc value="0" flag="1"/>
			<vel value="0" flag="1"/>
			<psa03 value="0" flag="1"/>
			<psa10 value="0" flag="1"/>
			<psa30 value="0" flag="1"/>
		</comp>
		<comp name="00.HNN" depth="0.0">
			<acc value="0" flag="1"/>
			<vel value="0" flag="1"/>
			<psa03 value="0" flag="1"/>
			<psa10 value="0" flag="1"/>
			<psa30 value="0" flag="1"/>
		</comp>
		<comp name="00.HNZ" depth="0.0">
			<acc value="0" flag="1"/>
			<vel value="0" flag="1"/>
			<psa03 value="0" flag="1"/>
			<psa10 value="0" flag="1"/>
			<psa30 value="0" flag="1"/>
		</comp>
	</station>
	<station code="DATC" name="DATC" netid="KO" source="Bogazici University Kandilli Observatory And Earthquake Research Institute (KOERI)" insttype="" lat="36.7584" lon="27.6602" esm:processing="discarded" esm:quality="bad">
		<comp name="--.HNE" depth="0.0">
			<acc value="0" flag="1"/>
			<vel value="0" flag="1"/>
			<psa03 value="0" flag="1"/>
			<psa10 value="0" flag="1"/>
			<psa30 value="0" flag="1"/>
		</comp>
		<comp name="--.HNN" depth="0.0">
			<acc value="0" flag="1"/>
			<vel value="0" flag="1"/>
			<psa03 value="0" flag="1"/>
			<psa10 value="0" flag="1"/>
			<psa30 value="0" flag="1"/>
		</comp>
		<comp name="--.HNZ" depth="0.0">
			<acc value="0" flag="1"/>
			<vel value="0" flag="1"/>
			<psa03 value="0" flag="1"/>
			<psa10 value="0" flag="1"/>
			<psa30 value="0" flag="1"/>
		</comp>
	</station>
</stationlist>
