<?xml version="1.0" encoding="UTF-8" standalone="yes"?>
<!DOCTYPE earthquake SYSTEM "stationlist.dtd">
<stationlist created="" xmlns="ch.ethz.sed.shakemap.usgs.xml">
  <station code="ZKR" name="ZKR" netid="GE" source="GFZ" insttype="STS-2/N" lat="35.1147" lon="26.2169">
    <comp name="--.HHE">
      <acc value="0.0994202313" flag="0"/>
      <vel value="0.0278919432" flag="0"/>
      <psa03 value="0.1581460375" flag="0"/>
      <psa10 value="0.0248155992" flag="0"/>
      <psa30 value="0.0012791863" flag="0"/>
    </comp>
    <comp name="--.HHN">
      <acc value="0.0649856272" flag="0"/>
      <vel value="0.0261447648" flag="0"/>
      <psa03 value="0.0863719976" flag="0"/>
      <psa10 value="0.0208759070" flag="0"/>
      <psa30 value="0.0018294199" flag="0"/>
    </comp>
    <comp name="--.HHZ">
      <acc value="0.0715123061" flag="0"/>
      <vel value="0.0164879729" flag="0"/>
      <psa03 value="0.0777916342" flag="0"/>
      <psa10 value="0.0183497288" flag="0"/>
      <psa30 value="0.0008368308" flag="0"/>
    </comp>
  </station>
  <station code="FRMA" name="FRMA" netid="HC" source="NOA" insttype="60" lat="35.0187" lon="25.8555">
    <comp name="--.HHE">
      <acc value="0.0253067486" flag="0"/>
      <vel value="0.0118687624" flag="0"/>
      <psa03 value="0.0955018666" flag="0"/>
      <psa10 value="0.0182692125" flag="0"/>
      <psa30 value="0.0008025444" flag="0"/>
    </comp>
    <comp name="--.HHN">
      <acc value="0.0273471690" flag="0"/>
      <vel value="0.0119998991" flag="0"/>
      <psa03 value="0.0817468688" flag="0"/>
      <psa10 value="0.0114227452" flag="0"/>
      <psa30 value="0.0008182239" flag="0"/>
    </comp>
    <comp name="--.HHZ">
      <acc value="0.0168415740" flag="0"/>
      <vel value="0.0055961626" flag="0"/>
      <psa03 value="0.0316447182" flag="0"/>
      <psa10 value="0.0077672362" flag="0"/>
      <psa30 value="0.0005921603" flag="0"/>
    </comp>
  </station>
  <station code="KSTL" name="KSTL" netid="HC" source="NOA" insttype="1s-100Hz," lat="35.2092" lon="25.3374">
    <comp name="--.HHE">
      <acc value="0.0090561725" flag="0"/>
      <vel value="0.0077800897" flag="0"/>
      <psa03 value="0.0246924761" flag="0"/>
      <psa10 value="0.0142930219" flag="0"/>
      <psa30 value="0.0009516752" flag="0"/>
    </comp>
    <comp name="--.HHN">
      <acc value="0.0088435330" flag="0"/>
      <vel value="0.0084228301" flag="0"/>
      <psa03 value="0.0186812220" flag="0"/>
      <psa10 value="0.0120160630" flag="0"/>
      <psa30 value="0.0006342088" flag="0"/>
    </comp>
    <comp name="--.HHZ">
      <acc value="0.0064201888" flag="0"/>
      <vel value="0.0055894943" flag="0"/>
      <psa03 value="0.0117031083" flag="0"/>
      <psa10 value="0.0054925343" flag="0"/>
      <psa30 value="0.0008417039" flag="0"/>
    </comp>
  </station>
  <station code="STIA" name="STIA" netid="HC" source="NOA" insttype="120" lat="35.2021" lon="26.0909">
    <comp name="--.HHE">
      <acc value="0.0464952137" flag="0"/>
      <vel value="0.0199850387" flag="0"/>
      <psa03 value="0.1052916478" flag="0"/>
      <psa10 value="0.0246156299" flag="0"/>
      <psa30 value="0.0014896983" flag="0"/>
    </comp>
    <comp name="--.HHN">
      <acc value="0.0370200659" flag="0"/>
      <vel value="0.0299401016" flag="0"/>
      <psa03 value="0.1282896177" flag="0"/>
      <psa10 value="0.0362952981" flag="0"/>
      <psa30 value="0.0022236377" flag="0"/>
    </comp>
    <comp name="--.HHZ">
      <acc value="0.0405021023" flag="0"/>
      <vel value="0.0126921765" flag="0"/>
      <psa03 value="0.0570446348" flag="0"/>
      <psa10 value="0.0111160327" flag="0"/>
      <psa30 value="0.0006935403" flag="0"/>
    </comp>
  </station>
  <station code="LAST" name="LAST" netid="HL" source="NOA" insttype="30" lat="35.1615" lon="25.4782">
    <comp name="--.HHE">
      <acc value="0.0056450832" flag="0"/>
      <vel value="0.0062045339" flag="0"/>
      <psa03 value="0.0095543640" flag="0"/>
      <psa10 value="0.0115967967" flag="0"/>
      <psa30 value="0.0011173351" flag="0"/>
    </comp>
    <comp name="--.HHN">
      <acc value="0.0066767568" flag="0"/>
      <vel value="0.0066740819" flag="0"/>
      <psa03 value="0.0177151650" flag="0"/>
      <psa10 value="0.0083808748" flag="0"/>
      <psa30 value="0.0005648456" flag="0"/>
    </comp>
    <comp name="--.HHZ">
      <acc value="0.0035868856" flag="0"/>
      <vel value="0.0024401729" flag="0"/>
      <psa03 value="0.0073807238" flag="0"/>
      <psa10 value="0.0041432486" flag="0"/>
      <psa30 value="0.0005881667" flag="0"/>
    </comp>
  </station>
  <station code="NPS" name="NPS" netid="HL" source="NOA" insttype="120" lat="35.2613" lon="25.6104">
    <comp name="--.HHE">
      <acc value="0.0173365856" flag="0"/>
      <vel value="0.0190492326" flag="0"/>
      <psa03 value="0.0553256505" flag="0"/>
      <psa10 value="0.0121893722" flag="0"/>
      <psa30 value="0.0016374787" flag="0"/>
    </comp>
    <comp name="--.HHN">
      <acc value="0.0158885079" flag="0"/>
      <vel value="0.0135950207" flag="0"/>
      <psa03 value="0.0293410667" flag="0"/>
      <psa10 value="0.0242665899" flag="0"/>
      <psa30 value="0.0009852321" flag="0"/>
    </comp>
    <comp name="--.HHZ">
      <acc value="0.0107919053" flag="0"/>
      <vel value="0.0061303604" flag="0"/>
      <psa03 value="0.0242875300" flag="0"/>
      <psa10 value="0.0069959857" flag="0"/>
      <psa30 value="0.0005753898" flag="0"/>
    </comp>
  </station>
  <station code="ZKR" name="ZKR" netid="HL" source="NOA" insttype="120" lat="35.1147" lon="26.2169">
    <comp name="--.HHE">
      <acc value="0.0975845435" flag="0"/>
      <vel value="0.0272669055" flag="0"/>
      <psa03 value="0.1539171407" flag="0"/>
      <psa10 value="0.0245772498" flag="0"/>
      <psa30 value="0.0012782913" flag="0"/>
    </comp>
  </station>
</stationlist>
