<?xml version="1.0" encoding="UTF-8" standalone="yes"?>
<!DOCTYPE earthquake SYSTEM "stationlist.dtd">
<stationlist created="" xmlns="ch.ethz.sed.shakemap.usgs.xml">
  <station code="OSTC" name="OSTC" netid="CZ" insttype="" lat="50.5565" lon="16.2156">
    <comp name="--.HHE">
      <acc value="0.0134158009" flag="0"/>
      <vel value="0.0078325884" flag="0"/>
      <psa03 value="0.0323450210" flag="0"/>
      <psa10 value="0.0071593874" flag="0"/>
      <psa30 value="0.0021967647" flag="0"/>
    </comp>
    <comp name="--.HHN">
      <acc value="0.0221932250" flag="0"/>
      <vel value="0.0135679675" flag="0"/>
      <psa03 value="0.0245616720" flag="0"/>
      <psa10 value="0.0247041261" flag="0"/>
      <psa30 value="0.0021538394" flag="0"/>
    </comp>
    <comp name="--.HHZ">
      <acc value="0.0173645129" flag="0"/>
      <vel value="0.0124730401" flag="0"/>
      <psa03 value="0.0231039896" flag="0"/>
      <psa10 value="0.0080792816" flag="0"/>
      <psa30 value="0.0030448495" flag="0"/>
    </comp>
  </station>
  <station code="UPC" name="UPC" netid="CZ" insttype="" lat="50.5074" lon="16.0121">
    <comp name="--.HHE">
      <acc value="0.0038700639" flag="0"/>
      <vel value="0.0015514611" flag="0"/>
      <psa03 value="0.0070021674" flag="0"/>
      <psa10 value="0.0010942421" flag="0"/>
      <psa30 value="0.0001085142" flag="0"/>
    </comp>
    <comp name="--.HHZ">
      <acc value="0.0059203584" flag="0"/>
      <vel value="0.0026538837" flag="0"/>
      <psa03 value="0.0123035617" flag="0"/>
      <psa10 value="0.0020842289" flag="0"/>
      <psa30 value="0.0001682079" flag="0"/>
    </comp>
    <comp name="--.HHN">
      <acc value="0.0068209046" flag="0"/>
      <vel value="0.0024711100" flag="0"/>
      <psa03 value="0.0094664881" flag="0"/>
      <psa10 value="0.0017039883" flag="0"/>
      <psa30 value="0.0001641207" flag="0"/>
    </comp>
  </station>
</stationlist>
