<?xml version="1.0" encoding="UTF-8" standalone="yes"?>
<!DOCTYPE earthquake SYSTEM "stationlist.dtd">
<stationlist created="" xmlns="ch.ethz.sed.shakemap.usgs.xml">
  <station code="LIA" name="LIA" netid="HL" insttype="P6C" lat="39.8972" lon="25.1806">
    <comp name="--.HHZ">
      <acc value="0.0111765475" flag="0"/>
      <vel value="0.0042337704" flag="0"/>
      <psa03 value="0.0304860225" flag="0"/>
      <psa10 value="0.0031468963" flag="0"/>
      <psa30 value="0.0004071692" flag="0"/>
    </comp>
    <comp name="--.HHE">
      <acc value="0.0227134088" flag="0"/>
      <vel value="0.0090768604" flag="0"/>
      <psa03 value="0.0672717388" flag="0"/>
      <psa10 value="0.0040370661" flag="0"/>
      <psa30 value="0.0003725980" flag="0"/>
    </comp>
    <comp name="--.HHN">
      <acc value="0.0196363321" flag="0"/>
      <vel value="0.0106961990" flag="0"/>
      <psa03 value="0.0714403214" flag="0"/>
      <psa10 value="0.0068701996" flag="0"/>
      <psa30 value="0.0005188014" flag="0"/>
    </comp>
  </station>
  <station code="PLG" name="PLG" netid="HL" insttype="120" lat="40.3733" lon="23.4444">
    <comp name="--.HHZ">
      <acc value="0.0410047344" flag="0"/>
      <vel value="0.0091490625" flag="0"/>
      <psa03 value="0.0489613216" flag="0"/>
      <psa10 value="0.0060816078" flag="0"/>
      <psa30 value="0.0003978538" flag="0"/>
    </comp>
    <comp name="--.HHN">
      <acc value="0.0669135706" flag="0"/>
      <vel value="0.0140712893" flag="0"/>
      <psa03 value="0.0577254710" flag="0"/>
      <psa10 value="0.0151213076" flag="0"/>
      <psa30 value="0.0005347819" flag="0"/>
    </comp>
    <comp name="--.HHE">
      <acc value="0.0716805302" flag="0"/>
      <vel value="0.0121860780" flag="0"/>
      <psa03 value="0.0523836601" flag="0"/>
      <psa10 value="0.0084650197" flag="0"/>
      <psa30 value="0.0004589394" flag="0"/>
    </comp>
  </station>
  <station code="PRAS" name="PRAS" netid="HL" insttype="120" lat="41.3524" lon="24.55">
    <comp name="--.HHZ">
      <acc value="0.0138092775" flag="0"/>
      <vel value="0.0064081704" flag="0"/>
      <psa03 value="0.0245312631" flag="0"/>
      <psa10 value="0.0071105268" flag="0"/>
      <psa30 value="0.0004015163" flag="0"/>
    </comp>
    <comp name="--.HHN">
      <acc value="0.0371502106" flag="0"/>
      <vel value="0.0122214449" flag="0"/>
      <psa03 value="0.0345195955" flag="0"/>
      <psa10 value="0.0072635325" flag="0"/>
      <psa30 value="0.0006151224" flag="0"/>
    </comp>
    <comp name="--.HHE">
      <acc value="0.0278720028" flag="0"/>
      <vel value="0.0095153292" flag="0"/>
      <psa03 value="0.0563639171" flag="0"/>
      <psa10 value="0.0059076301" flag="0"/>
      <psa30 value="0.0005394157" flag="0"/>
    </comp>
  </station>
  <station code="HORT" name="HORT" netid="HT" insttype="100" lat="40.5978" lon="23.0996">
    <comp name="--.HHN">
      <acc value="0.0000098656" flag="0"/>
      <vel value="0.0000022334" flag="0"/>
      <psa03 value="0.0000115892" flag="0"/>
      <psa10 value="0.0000024077" flag="0"/>
      <psa30 value="0.0000005735" flag="0"/>
    </comp>
    <comp name="--.HHE">
      <acc value="0.0192288242" flag="0"/>
      <vel value="0.0037537421" flag="0"/>
      <psa03 value="0.0129971414" flag="0"/>
      <psa10 value="0.0020212062" flag="0"/>
      <psa30 value="0.0002386415" flag="0"/>
    </comp>
    <comp name="--.HHZ">
      <acc value="0.0165532771" flag="0"/>
      <vel value="0.0031046027" flag="0"/>
      <psa03 value="0.0099858444" flag="0"/>
      <psa10 value="0.0045073529" flag="0"/>
      <psa30 value="0.0001832723" flag="0"/>
    </comp>
  </station>
  <station code="KAVA" name="KAVA" netid="HT" insttype="Compact," lat="40.9967" lon="24.5137">
    <comp name="--.HHZ">
      <acc value="0.1097939647" flag="0"/>
      <vel value="0.0222244458" flag="0"/>
      <psa03 value="0.0840906539" flag="0"/>
      <psa10 value="0.0153103859" flag="0"/>
      <psa30 value="0.0015860442" flag="0"/>
    </comp>
    <comp name="--.HHN">
      <acc value="0.1450555655" flag="0"/>
      <vel value="0.0398276935" flag="0"/>
      <psa03 value="0.1559587866" flag="0"/>
      <psa10 value="0.0115626864" flag="0"/>
      <psa30 value="0.0010937986" flag="0"/>
    </comp>
    <comp name="--.HHE">
      <acc value="0.1702088136" flag="0"/>
      <vel value="0.0400432270" flag="0"/>
      <psa03 value="0.0774874242" flag="0"/>
      <psa10 value="0.0255989018" flag="0"/>
      <psa30 value="0.0015951944" flag="0"/>
    </comp>
  </station>
  <station code="KOKK" name="KOKK" netid="HT" insttype="Compact," lat="40.8178" lon="23.9992">
    <comp name="--.HHZ">
      <acc value="0.0606687891" flag="0"/>
      <vel value="0.0094908867" flag="0"/>
      <psa03 value="0.0328666974" flag="0"/>
      <psa10 value="0.0044547652" flag="0"/>
      <psa30 value="0.0003478363" flag="0"/>
    </comp>
    <comp name="--.HHE">
      <acc value="0.0811193048" flag="0"/>
      <vel value="0.0177477381" flag="0"/>
      <psa03 value="0.0583041771" flag="0"/>
      <psa10 value="0.0067951040" flag="0"/>
      <psa30 value="0.0004585939" flag="0"/>
    </comp>
    <comp name="--.HHN">
      <acc value="0.0513603522" flag="0"/>
      <vel value="0.0154666917" flag="0"/>
      <psa03 value="0.0459022783" flag="0"/>
      <psa10 value="0.0070918217" flag="0"/>
      <psa30 value="0.0004788773" flag="0"/>
    </comp>
  </station>
  <station code="OUR" name="OUR" netid="HT" insttype="100" lat="40.3325" lon="23.9791">
    <comp name="--.HHE">
      <acc value="1.3301988087" flag="0"/>
      <vel value="0.2184337523" flag="0"/>
      <psa03 value="0.6050285378" flag="0"/>
      <psa10 value="0.0621356885" flag="0"/>
      <psa30 value="0.0049310028" flag="0"/>
    </comp>
    <comp name="--.HHN">
      <acc value="1.5594558313" flag="0"/>
      <vel value="0.2658789599" flag="0"/>
      <psa03 value="0.6499608410" flag="0"/>
      <psa10 value="0.2827555695" flag="0"/>
      <psa30 value="0.0187284155" flag="0"/>
    </comp>
    <comp name="--.HHZ">
      <acc value="0.7115884115" flag="0"/>
      <vel value="0.1359117442" flag="0"/>
      <psa03 value="0.2545274002" flag="0"/>
      <psa10 value="0.0336921701" flag="0"/>
      <psa30 value="0.0033981518" flag="0"/>
    </comp>
  </station>
  <station code="PAIG" name="PAIG" netid="HT" insttype="100" lat="39.9363" lon="23.6768">
    <comp name="--.HHN">
      <acc value="0.1567695811" flag="0"/>
      <vel value="0.0265034028" flag="0"/>
      <psa03 value="0.1003217485" flag="0"/>
      <psa10 value="0.0103102642" flag="0"/>
      <psa30 value="0.0007183058" flag="0"/>
    </comp>
    <comp name="--.HHZ">
      <acc value="0.0769355434" flag="0"/>
      <vel value="0.0142822503" flag="0"/>
      <psa03 value="0.0554868149" flag="0"/>
      <psa10 value="0.0113009292" flag="0"/>
      <psa30 value="0.0007878354" flag="0"/>
    </comp>
    <comp name="--.HHE">
      <acc value="0.1044421677" flag="0"/>
      <vel value="0.0196225020" flag="0"/>
      <psa03 value="0.0949222204" flag="0"/>
      <psa10 value="0.0110930913" flag="0"/>
      <psa30 value="0.0010105129" flag="0"/>
    </comp>
  </station>
  <station code="SRS" name="SRS" netid="HT" insttype="100" lat="41.1087" lon="23.595">
    <comp name="--.HHE">
      <acc value="0.0243566490" flag="0"/>
      <vel value="0.0056265888" flag="0"/>
      <psa03 value="0.0138762299" flag="0"/>
      <psa10 value="0.0047157681" flag="0"/>
      <psa30 value="0.0004507195" flag="0"/>
    </comp>
    <comp name="--.HHN">
      <acc value="0.0337586595" flag="0"/>
      <vel value="0.0057299590" flag="0"/>
      <psa03 value="0.0153610823" flag="0"/>
      <psa10 value="0.0051748547" flag="0"/>
      <psa30 value="0.0004175438" flag="0"/>
    </comp>
    <comp name="--.HHZ">
      <acc value="0.0236869398" flag="0"/>
      <vel value="0.0044614582" flag="0"/>
      <psa03 value="0.0107001628" flag="0"/>
      <psa10 value="0.0043030665" flag="0"/>
      <psa30 value="0.0003859492" flag="0"/>
    </comp>
  </station>
  <station code="THAS" name="THAS" netid="HT" insttype="100" lat="40.6064" lon="24.7194">
    <comp name="--.HHZ">
      <acc value="0.3301872503" flag="0"/>
      <vel value="0.0894076443" flag="0"/>
      <psa03 value="0.5401378673" flag="0"/>
      <psa10 value="0.0382130646" flag="0"/>
      <psa30 value="0.0029586610" flag="0"/>
    </comp>
    <comp name="--.HHN">
      <acc value="0.3437336739" flag="0"/>
      <vel value="0.1539198347" flag="0"/>
      <psa03 value="0.9797660313" flag="0"/>
      <psa10 value="0.0334552056" flag="0"/>
      <psa30 value="0.0031317212" flag="0"/>
    </comp>
    <comp name="--.HHE">
      <acc value="0.1689409878" flag="0"/>
      <vel value="0.0572550208" flag="0"/>
      <psa03 value="0.2616831348" flag="0"/>
      <psa10 value="0.0290659901" flag="0"/>
      <psa30 value="0.0019787399" flag="0"/>
    </comp>
  </station>
</stationlist>
