<stationlist created="1778069942">
	<station code="ARE" name="ARE" netid="IT" source="Italian Strong Motion Network (RAN)" insttype="" lat="38.5614" lon="16.2088">
		<comp name="--.HGE" depth="0.0">
			<acc value="0.140609958" flag="0"/>
			<vel value="0.068987" flag="0"/>
			<psa03 value="0.258609954253611" flag="0"/>
			<psa10 value="0.0330237752828802" flag="0"/>
			<psa30 value="0.00198163233112326" flag="0"/>
		</comp>
		<comp name="--.HGN" depth="0.0">
			<acc value="0.13828599" flag="0"/>
			<vel value="0.050383" flag="0"/>
			<psa03 value="0.261160260030852" flag="0"/>
			<psa10 value="0.045575306505504" flag="0"/>
			<psa30 value="0.00197134162360105" flag="0"/>
		</comp>
		<comp name="--.HGZ" depth="0.0">
			<acc value="0.076211544" flag="0"/>
			<vel value="0.028489" flag="0"/>
			<psa03 value="0.143532998831416" flag="0"/>
			<psa10 value="0.0295365676990521" flag="0"/>
			<psa30 value="0.0014782825066677" flag="0"/>
		</comp>
	</station>
	<station code="BAG" name="BAG" netid="IT" source="Italian Strong Motion Network (RAN)" insttype="" lat="38.028912" lon="15.822113">
		<comp name="--.HGE" depth="0.0">
			<acc value="1.912368012" flag="0"/>
			<vel value="0.460126" flag="0"/>
			<psa03 value="1.92118560998197" flag="0"/>
			<psa10 value="0.106448420875861" flag="0"/>
			<psa30 value="0.00964060326003901" flag="0"/>
		</comp>
		<comp name="--.HGN" depth="0.0">
			<acc value="1.3056765" flag="0"/>
			<vel value="0.316951" flag="0"/>
			<psa03 value="0.788133969580857" flag="0"/>
			<psa10 value="0.147513712954243" flag="0"/>
			<psa30 value="0.00974485260145959" flag="0"/>
		</comp>
		<comp name="--.HGZ" depth="0.0">
			<acc value="1.151006556" flag="0"/>
			<vel value="0.188969" flag="0"/>
			<psa03 value="0.463797713805005" flag="0"/>
			<psa10 value="0.0628301384878405" flag="0"/>
			<psa30 value="0.00514982798176308" flag="0"/>
		</comp>
	</station>
	<station code="BRO" name="BRO" netid="IT" source="Italian Strong Motion Network (RAN)" insttype="" lat="38.6021" lon="16.3493">
		<comp name="--.HGE" depth="0.0">
			<acc value="0.127164318" flag="0"/>
			<vel value="0.041311" flag="0"/>
			<psa03 value="0.262905206088965" flag="0"/>
			<psa10 value="0.0246681681969179" flag="0"/>
			<psa30 value="0.0014988639217121" flag="0"/>
		</comp>
		<comp name="--.HGN" depth="0.0">
			<acc value="0.057014634" flag="0"/>
			<vel value="0.0363" flag="0"/>
			<psa03 value="0.213017645709592" flag="0"/>
			<psa10 value="0.0361445441945046" flag="0"/>
			<psa30 value="0.0016465132035524" flag="0"/>
		</comp>
		<comp name="--.HGZ" depth="0.0">
			<acc value="0.051769182" flag="0"/>
			<vel value="0.016454" flag="0"/>
			<psa03 value="0.0537353901485444" flag="0"/>
			<psa10 value="0.0202427165403047" flag="0"/>
			<psa30 value="0.00172615433133292" flag="0"/>
		</comp>
	</station>
	<station code="BVM" name="BVM" netid="IT" source="Italian Strong Motion Network (RAN)" insttype="" lat="37.931" lon="15.936">
		<comp name="--.HNE" depth="0.0">
			<acc value="0.681977202" flag="0"/>
			<vel value="0.223453" flag="0"/>
			<psa03 value="0.830728550281452" flag="0"/>
			<psa10 value="0.0833305701382664" flag="0"/>
			<psa30 value="0.00677083812754306" flag="0"/>
		</comp>
		<comp name="--.HNN" depth="0.0">
			<acc value="0.52443912" flag="0"/>
			<vel value="0.138205" flag="0"/>
			<psa03 value="0.721378597306396" flag="0"/>
			<psa10 value="0.0896808315235977" flag="0"/>
			<psa30 value="0.00678873501019037" flag="0"/>
		</comp>
		<comp name="--.HNZ" depth="0.0">
			<acc value="0.3870645" flag="0"/>
			<vel value="0.106078" flag="0"/>
			<psa03 value="0.479591712741255" flag="0"/>
			<psa10 value="0.0481524576067164" flag="0"/>
			<psa30 value="0.00435744350255348" flag="0"/>
		</comp>
	</station>
	<station code="CDI1" name="CDI1" netid="IT" source="Italian Strong Motion Network (RAN)" insttype="" lat="37.5032" lon="14.6473">
		<comp name="--.HNE" depth="0.0">
			<acc value="0.004593774" flag="0"/>
			<vel value="0.002951" flag="0"/>
			<psa03 value="0.0100222542824929" flag="0"/>
			<psa10 value="0.00291540218324659" flag="0"/>
			<psa30 value="0.000487690052139162" flag="0"/>
		</comp>
		<comp name="--.HNN" depth="0.0">
			<acc value="0.00518007" flag="0"/>
			<vel value="0.004197" flag="0"/>
			<psa03 value="0.015480803489922" flag="0"/>
			<psa10 value="0.00343485920208472" flag="0"/>
			<psa30 value="0.000706032020436328" flag="0"/>
		</comp>
		<comp name="--.HNZ" depth="0.0">
			<acc value="0.002124048" flag="0"/>
			<vel value="0.001712" flag="0"/>
			<psa03 value="0.00420576742211754" flag="0"/>
			<psa10 value="0.00228722160232605" flag="0"/>
			<psa30 value="0.000372255159064021" flag="0"/>
		</comp>
	</station>
	<station code="COR" name="COR" netid="IT" source="Italian Strong Motion Network (RAN)" insttype="" lat="39.1179" lon="16.38">
		<comp name="--.HGE" depth="0.0">
			<acc value="0.009136344" flag="0"/>
			<vel value="0.004612" flag="0"/>
			<psa03 value="0.0298877940210055" flag="0"/>
			<psa10 value="0.00661603009264384" flag="0"/>
			<psa30 value="0.000475609656352229" flag="0"/>
		</comp>
		<comp name="--.HGN" depth="0.0">
			<acc value="0.008699274" flag="0"/>
			<vel value="0.004886" flag="0"/>
			<psa03 value="0.0319011933188278" flag="0"/>
			<psa10 value="0.00709924592412118" flag="0"/>
			<psa30 value="0.000563304381324041" flag="0"/>
		</comp>
		<comp name="--.HGZ" depth="0.0">
			<acc value="0.005845824" flag="0"/>
			<vel value="0.003934" flag="0"/>
			<psa03 value="0.0166441008619971" flag="0"/>
			<psa10 value="0.00535966893080277" flag="0"/>
			<psa30 value="0.000535564213220713" flag="0"/>
		</comp>
	</station>
	<station code="CTV" name="CTV" netid="IT" source="Italian Strong Motion Network (RAN)" insttype="" lat="38.3498" lon="16.0804">
		<comp name="--.HNE" depth="0.0">
			<acc value="0.532114824" flag="0"/>
			<vel value="0.134927" flag="0"/>
			<psa03 value="0.769655438247511" flag="0"/>
			<psa10 value="0.109218858309665" flag="0"/>
			<psa30 value="0.00532074321104488" flag="0"/>
		</comp>
		<comp name="--.HNN" depth="0.0">
			<acc value="0.46699068" flag="0"/>
			<vel value="0.115419" flag="0"/>
			<psa03 value="0.356103222474825" flag="0"/>
			<psa10 value="0.0569469857396039" flag="0"/>
			<psa30 value="0.0040102439791957" flag="0"/>
		</comp>
		<comp name="--.HNZ" depth="0.0">
			<acc value="0.380984484" flag="0"/>
			<vel value="0.10506" flag="0"/>
			<psa03 value="0.519904440904318" flag="0"/>
			<psa10 value="0.118524789864199" flag="0"/>
			<psa30 value="0.00689656372814041" flag="0"/>
		</comp>
	</station>
	<station code="FRR" name="FRR" netid="IT" source="Italian Strong Motion Network (RAN)" insttype="" lat="38.0515" lon="16.1325">
		<comp name="--.HGE" depth="0.0">
			<acc value="1.38925785" flag="0"/>
			<vel value="0.548957" flag="0"/>
			<psa03 value="3.54644626539069" flag="0"/>
			<psa10 value="0.285161769349158" flag="0"/>
			<psa30 value="0.0213523232644378" flag="0"/>
		</comp>
		<comp name="--.HGN" depth="0.0">
			<acc value="2.189353704" flag="0"/>
			<vel value="0.698123" flag="0"/>
			<psa03 value="4.15990666033382" flag="0"/>
			<psa10 value="0.128921983838153" flag="0"/>
			<psa30 value="0.0162933219621098" flag="0"/>
		</comp>
		<comp name="--.HGZ" depth="0.0">
			<acc value="0.754916892" flag="0"/>
			<vel value="0.235012" flag="0"/>
			<psa03 value="1.55031745932312" flag="0"/>
			<psa10 value="0.0915412124747855" flag="0"/>
			<psa30 value="0.0080616507884802" flag="0"/>
		</comp>
	</station>
	<station code="FRZ" name="FRZ" netid="IT" source="Italian Strong Motion Network (RAN)" insttype="" lat="38.0379" lon="16.0874">
		<comp name="--.HGE" depth="0.0">
			<acc value="2.344312002" flag="0"/>
			<vel value="1.498043" flag="0"/>
			<psa03 value="5.78780710593302" flag="0"/>
			<psa10 value="1.31477390226949" flag="0"/>
			<psa30 value="0.0930266537345121" flag="0"/>
		</comp>
		<comp name="--.HGN" depth="0.0">
			<acc value="2.19755124" flag="0"/>
			<vel value="1.287634" flag="0"/>
			<psa03 value="5.89818612966029" flag="0"/>
			<psa10 value="0.753506633612778" flag="0"/>
			<psa30 value="0.0549904090441869" flag="0"/>
		</comp>
		<comp name="--.HGZ" depth="0.0">
			<acc value="1.054705398" flag="0"/>
			<vel value="0.345937" flag="0"/>
			<psa03 value="1.92364643134598" flag="0"/>
			<psa10 value="0.251920546942113" flag="0"/>
			<psa30 value="0.0173067329420137" flag="0"/>
		</comp>
	</station>
	<station code="GMB" name="GMB" netid="IT" source="Italian Strong Motion Network (RAN)" insttype="" lat="38.1666" lon="15.8363">
		<comp name="--.HGE" depth="0.0">
			<acc value="1.47604557" flag="0"/>
			<vel value="0.330556" flag="0"/>
			<psa03 value="1.16651881095158" flag="0"/>
			<psa10 value="0.0946056062060709" flag="0"/>
			<psa30 value="0.0111493104672071" flag="0"/>
		</comp>
		<comp name="--.HGN" depth="0.0">
			<acc value="2.093993088" flag="0"/>
			<vel value="0.631697" flag="0"/>
			<psa03 value="1.67461130930868" flag="0"/>
			<psa10 value="0.106629626812665" flag="0"/>
			<psa30 value="0.00996632652422003" flag="0"/>
		</comp>
		<comp name="--.HGZ" depth="0.0">
			<acc value="0.718403136" flag="0"/>
			<vel value="0.104457" flag="0"/>
			<psa03 value="0.457847000324775" flag="0"/>
			<psa10 value="0.0318761376831215" flag="0"/>
			<psa30 value="0.00424290345361071" flag="0"/>
		</comp>
	</station>
	<station code="GSM" name="GSM" netid="IT" source="Italian Strong Motion Network (RAN)" insttype="" lat="38.172" lon="14.8985">
		<comp name="--.HNE" depth="0.0">
			<acc value="0.008889096" flag="0"/>
			<vel value="0.005355" flag="0"/>
			<psa03 value="0.0145859593575566" flag="0"/>
			<psa10 value="0.00533953493782455" flag="0"/>
			<psa30 value="0.000384335554850954" flag="0"/>
		</comp>
		<comp name="--.HNN" depth="0.0">
			<acc value="0.010127886" flag="0"/>
			<vel value="0.007576" flag="0"/>
			<psa03 value="0.0203577040113136" flag="0"/>
			<psa10 value="0.0067207268561306" flag="0"/>
			<psa30 value="0.000441158157256159" flag="0"/>
		</comp>
		<comp name="--.HNZ" depth="0.0">
			<acc value="0.006325632" flag="0"/>
			<vel value="0.004247" flag="0"/>
			<psa03 value="0.0122146224067882" flag="0"/>
			<psa10 value="0.00525094536872037" flag="0"/>
			<psa30 value="0.000273822304503823" flag="0"/>
		</comp>
	</station>
	<station code="GTR" name="GTR" netid="IT" source="Italian Strong Motion Network (RAN)" insttype="" lat="38.4484" lon="15.918">
		<comp name="--.HGE" depth="0.0">
			<acc value="0.29637069" flag="0"/>
			<vel value="0.098883" flag="0"/>
			<psa03 value="0.432701880205306" flag="0"/>
			<psa10 value="0.0876150838440321" flag="0"/>
			<psa30 value="0.00585988680079505" flag="0"/>
		</comp>
		<comp name="--.HGN" depth="0.0">
			<acc value="0.30557772" flag="0"/>
			<vel value="0.087753" flag="0"/>
			<psa03 value="0.730013843183722" flag="0"/>
			<psa10 value="0.0605147292953449" flag="0"/>
			<psa30 value="0.0049006138908993" flag="0"/>
		</comp>
		<comp name="--.HGZ" depth="0.0">
			<acc value="0.250369302" flag="0"/>
			<vel value="0.05716" flag="0"/>
			<psa03 value="0.197089420153487" flag="0"/>
			<psa10 value="0.0500329725508824" flag="0"/>
			<psa30 value="0.00359235176938104" flag="0"/>
		</comp>
	</station>
	<station code="LMZ" name="LMZ" netid="IT" source="Italian Strong Motion Network (RAN)" insttype="" lat="38.9187" lon="16.2527">
		<comp name="--.HNE" depth="0.0">
			<acc value="0.024001518" flag="0"/>
			<vel value="0.023755" flag="0"/>
			<psa03 value="0.0532432258757434" flag="0"/>
			<psa10 value="0.0362895089439478" flag="0"/>
			<psa30 value="0.00300488659648313" flag="0"/>
		</comp>
		<comp name="--.HNN" depth="0.0">
			<acc value="0.024799974" flag="0"/>
			<vel value="0.019353" flag="0"/>
			<psa03 value="0.0625496048523439" flag="0"/>
			<psa10 value="0.0372317798153287" flag="0"/>
			<psa30 value="0.00271674678586146" flag="0"/>
		</comp>
		<comp name="--.HNZ" depth="0.0">
			<acc value="0.013773876" flag="0"/>
			<vel value="0.010478" flag="0"/>
			<psa03 value="0.0522141551235231" flag="0"/>
			<psa10 value="0.0141099022791382" flag="0"/>
			<psa30 value="0.00215299498247124" flag="0"/>
		</comp>
	</station>
	<station code="LPR1" name="LPR1" netid="IT" source="Italian Strong Motion Network (RAN)" insttype="" lat="38.4695" lon="14.9569">
		<comp name="--.HNE" depth="0.0">
			<acc value="0.040945758" flag="0"/>
			<vel value="0.016226" flag="0"/>
			<psa03 value="0.064876199596494" flag="0"/>
			<psa10 value="0.017770262202579" flag="0"/>
			<psa30 value="0.00116777159273689" flag="0"/>
		</comp>
		<comp name="--.HNN" depth="0.0">
			<acc value="0.043591434" flag="0"/>
			<vel value="0.018292" flag="0"/>
			<psa03 value="0.107381295883852" flag="0"/>
			<psa10 value="0.0187366938655337" flag="0"/>
			<psa30 value="0.00171765331207545" flag="0"/>
		</comp>
		<comp name="--.HNZ" depth="0.0">
			<acc value="0.027461664" flag="0"/>
			<vel value="0.011658" flag="0"/>
			<psa03 value="0.0621021827861612" flag="0"/>
			<psa10 value="0.00746568459632482" flag="0"/>
			<psa30 value="0.000799543232268516" flag="0"/>
		</comp>
	</station>
	<station code="MFG" name="MFG" netid="IT" source="Italian Strong Motion Network (RAN)" insttype="" lat="38.1888" lon="15.5406">
		<comp name="--.HNE" depth="0.0">
			<acc value="0.166094352" flag="0"/>
			<vel value="0.060294" flag="0"/>
			<psa03 value="0.207066932229362" flag="0"/>
			<psa10 value="0.0398693328954758" flag="0"/>
			<psa30 value="0.00223800517504595" flag="0"/>
		</comp>
		<comp name="--.HNN" depth="0.0">
			<acc value="0.189115956" flag="0"/>
			<vel value="0.062865" flag="0"/>
			<psa03 value="0.332434595173759" flag="0"/>
			<psa10 value="0.03814586309654" flag="0"/>
			<psa30 value="0.00260086447072014" flag="0"/>
		</comp>
		<comp name="--.HNZ" depth="0.0">
			<acc value="0.144555012" flag="0"/>
			<vel value="0.030662" flag="0"/>
			<psa03 value="0.20554569720434" flag="0"/>
			<psa10 value="0.019582321570619" flag="0"/>
			<psa30 value="0.00234493904886362" flag="0"/>
		</comp>
	</station>
	<station code="NCO" name="NCO" netid="IT" source="Italian Strong Motion Network (RAN)" insttype="" lat="38.5531" lon="15.938">
		<comp name="--.HNE" depth="0.0">
			<acc value="0.076198284" flag="0"/>
			<vel value="0.018986" flag="0"/>
			<psa03 value="0.0748984538789869" flag="0"/>
			<psa10 value="0.0140696342931817" flag="0"/>
			<psa30 value="0.00144875265029964" flag="0"/>
		</comp>
		<comp name="--.HNN" depth="0.0">
			<acc value="0.083419986" flag="0"/>
			<vel value="0.019125" flag="0"/>
			<psa03 value="0.0459949884035834" flag="0"/>
			<psa10 value="0.0181165668818044" flag="0"/>
			<psa30 value="0.00193599528037262" flag="0"/>
		</comp>
		<comp name="--.HNZ" depth="0.0">
			<acc value="0.057988326" flag="0"/>
			<vel value="0.011679" flag="0"/>
			<psa03 value="0.0527958038095607" flag="0"/>
			<psa10 value="0.0117703322950687" flag="0"/>
			<psa30 value="0.00192570457285042" flag="0"/>
		</comp>
	</station>
	<station code="PNI" name="PNI" netid="IT" source="Italian Strong Motion Network (RAN)" insttype="" lat="39.158" lon="16.4126">
		<comp name="--.HGE" depth="0.0">
			<acc value="0.015232884" flag="0"/>
			<vel value="0.009146" flag="0"/>
			<psa03 value="0.050379724652174" flag="0"/>
			<psa10 value="0.00558919645075451" flag="0"/>
			<psa30 value="0.000734667032672022" flag="0"/>
		</comp>
		<comp name="--.HGN" depth="0.0">
			<acc value="0.014104152" flag="0"/>
			<vel value="0.006815" flag="0"/>
			<psa03 value="0.0569568290250599" flag="0"/>
			<psa10 value="0.0104857835430582" flag="0"/>
			<psa30 value="0.000539591011816357" flag="0"/>
		</comp>
		<comp name="--.HGZ" depth="0.0">
			<acc value="0.008522202" flag="0"/>
			<vel value="0.004497" flag="0"/>
			<psa03 value="0.0280981057562747" flag="0"/>
			<psa10 value="0.00344291279927601" flag="0"/>
			<psa30 value="0.000632654801582362" flag="0"/>
		</comp>
	</station>
	<station code="RCU" name="RCU" netid="IT" source="Italian Strong Motion Network (RAN)" insttype="" lat="38.1214" lon="15.6662">
		<comp name="--.HNE" depth="0.0">
			<acc value="0.214099734" flag="0"/>
			<vel value="0.050235" flag="0"/>
			<psa03 value="0.227156183000966" flag="0"/>
			<psa10 value="0.0417095798536853" flag="0"/>
			<psa30 value="0.00340085512505484" flag="0"/>
		</comp>
		<comp name="--.HNN" depth="0.0">
			<acc value="0.21338451" flag="0"/>
			<vel value="0.065935" flag="0"/>
			<psa03 value="0.355655800408642" flag="0"/>
			<psa10 value="0.0321781475777949" flag="0"/>
			<psa30 value="0.00272703749338366" flag="0"/>
		</comp>
		<comp name="--.HNZ" depth="0.0">
			<acc value="0.169108554" flag="0"/>
			<vel value="0.046033" flag="0"/>
			<psa03 value="0.112974071711136" flag="0"/>
			<psa10 value="0.0276560527548861" flag="0"/>
			<psa30 value="0.00273553851264113" flag="0"/>
		</comp>
	</station>
	<station code="SCI" name="SCI" netid="IT" source="Italian Strong Motion Network (RAN)" insttype="" lat="38.2557" lon="15.7147">
		<comp name="--.HNE" depth="0.0">
			<acc value="0.350931102" flag="0"/>
			<vel value="0.129355" flag="0"/>
			<psa03 value="0.53744338589868" flag="0"/>
			<psa10 value="0.18313880012991" flag="0"/>
			<psa30 value="0.00954082813928027" flag="0"/>
		</comp>
		<comp name="--.HNN" depth="0.0">
			<acc value="0.32623833" flag="0"/>
			<vel value="0.146934" flag="0"/>
			<psa03 value="0.433820435370763" flag="0"/>
			<psa10 value="0.116277836247829" flag="0"/>
			<psa30 value="0.00705002949684108" flag="0"/>
		</comp>
		<comp name="--.HNZ" depth="0.0">
			<acc value="0.173750064" flag="0"/>
			<vel value="0.056011" flag="0"/>
			<psa03 value="0.151631338229323" flag="0"/>
			<psa10 value="0.0403807363171226" flag="0"/>
			<psa30 value="0.00619097912977026" flag="0"/>
		</comp>
	</station>
	<station code="SMA" name="SMA" netid="IT" source="Italian Strong Motion Network (RAN)" insttype="" lat="39.5564" lon="16.125">
		<comp name="--.HNE" depth="0.0">
			<acc value="0.01406835" flag="0"/>
			<vel value="0.009347" flag="0"/>
			<psa03 value="0.0305589271202796" flag="0"/>
			<psa10 value="0.0120602617939551" flag="0"/>
			<psa30 value="0.000827283400371845" flag="0"/>
		</comp>
		<comp name="--.HNN" depth="0.0">
			<acc value="0.011842302" flag="0"/>
			<vel value="0.008634" flag="0"/>
			<psa03 value="0.0288587232687853" flag="0"/>
			<psa10 value="0.00866969737642252" flag="0"/>
			<psa30 value="0.000749431960856052" flag="0"/>
		</comp>
		<comp name="--.HNZ" depth="0.0">
			<acc value="0.006580734" flag="0"/>
			<vel value="0.004764" flag="0"/>
			<psa03 value="0.0206261572510233" flag="0"/>
			<psa10 value="0.00649522613477451" flag="0"/>
			<psa30 value="0.000491269428668624" flag="0"/>
		</comp>
	</station>
	<station code="SRN" name="SRN" netid="IT" source="Italian Strong Motion Network (RAN)" insttype="" lat="38.572" lon="16.3235">
		<comp name="--.HGE" depth="0.0">
			<acc value="0.16780071" flag="0"/>
			<vel value="0.075112" flag="0"/>
			<psa03 value="0.407825213325547" flag="0"/>
			<psa10 value="0.0650972260971883" flag="0"/>
			<psa30 value="0.00258028305567573" flag="0"/>
		</comp>
		<comp name="--.HGN" depth="0.0">
			<acc value="0.127617198" flag="0"/>
			<vel value="0.06282" flag="0"/>
			<psa03 value="0.393328738381227" flag="0"/>
			<psa10 value="0.0960029053187595" flag="0"/>
			<psa30 value="0.00310287202897715" flag="0"/>
		</comp>
		<comp name="--.HGZ" depth="0.0">
			<acc value="0.084551778" flag="0"/>
			<vel value="0.022755" flag="0"/>
			<psa03 value="0.132123736143756" flag="0"/>
			<psa10 value="0.0207782807535254" flag="0"/>
			<psa30 value="0.00149752165551356" flag="0"/>
		</comp>
	</station>
	<station code="STI" name="STI" netid="IT" source="Italian Strong Motion Network (RAN)" insttype="" lat="38.4751" lon="16.4619">
		<comp name="--.HGE" depth="0.0">
			<acc value="0.055823376" flag="0"/>
			<vel value="0.02921" flag="0"/>
			<psa03 value="0.118522105331802" flag="0"/>
			<psa10 value="0.0320170756339691" flag="0"/>
			<psa30 value="0.001310051809783" flag="0"/>
