<?xml version="1.0" encoding="UTF-8" standalone="yes"?>
<!DOCTYPE earthquake SYSTEM "stationlist.dtd">
<stationlist created="" xmlns="ch.ethz.sed.shakemap.usgs.xml">
  <station code="AIO" name="AIO" netid="IV" insttype="" lat="37.9712" lon="15.233">
    <comp name="--.HHE">
      <acc value="0.0253644478" flag="0"/>
      <vel value="0.0082560183" flag="0"/>
      <psa03 value="0.0522550204" flag="0"/>
      <psa10 value="0.0030637015" flag="0"/>
      <psa30 value="0.0004520610" flag="0"/>
    </comp>
    <comp name="--.HHN">
      <acc value="0.0298231776" flag="0"/>
      <vel value="0.0090644889" flag="0"/>
      <psa03 value="0.0532527506" flag="0"/>
      <psa10 value="0.0061104119" flag="0"/>
      <psa30 value="0.0004942110" flag="0"/>
    </comp>
    <comp name="--.HHZ">
      <acc value="0.0143573620" flag="0"/>
      <vel value="0.0055365887" flag="0"/>
      <psa03 value="0.0260940953" flag="0"/>
      <psa10 value="0.0038564014" flag="0"/>
      <psa30 value="0.0004370776" flag="0"/>
    </comp>
  </station>
  <station code="ECBD" name="ECBD" netid="IV" insttype="" lat="37.7802" lon="15.0865">
    <comp name="--.HHE">
      <acc value="0.0189544974" flag="0"/>
      <vel value="0.0113097012" flag="0"/>
      <psa03 value="0.0675782717" flag="0"/>
      <psa10 value="0.0087022860" flag="0"/>
      <psa30 value="0.0006554279" flag="0"/>
    </comp>
    <comp name="--.HHN">
      <acc value="0.0192343246" flag="0"/>
      <vel value="0.0130579214" flag="0"/>
      <psa03 value="0.0606438861" flag="0"/>
      <psa10 value="0.0092583678" flag="0"/>
      <psa30 value="0.0006481254" flag="0"/>
    </comp>
    <comp name="--.HHZ">
      <acc value="0.0118742138" flag="0"/>
      <vel value="0.0065492405" flag="0"/>
      <psa03 value="0.0351864825" flag="0"/>
      <psa10 value="0.0057227923" flag="0"/>
      <psa30 value="0.0003343809" flag="0"/>
    </comp>
  </station>
  <station code="ECTS" name="ECTS" netid="IV" insttype="" lat="37.882" lon="15.121">
    <comp name="--.HHE">
      <acc value="0.0093136420" flag="0"/>
      <vel value="0.0058765445" flag="0"/>
      <psa03 value="0.0204060513" flag="0"/>
      <psa10 value="0.0077932349" flag="0"/>
      <psa30 value="0.0003846013" flag="0"/>
    </comp>
    <comp name="--.HHN">
      <acc value="0.0112178721" flag="0"/>
      <vel value="0.0052760184" flag="0"/>
      <psa03 value="0.0285197804" flag="0"/>
      <psa10 value="0.0074194910" flag="0"/>
      <psa30 value="0.0004829908" flag="0"/>
    </comp>
    <comp name="--.HHZ">
      <acc value="0.0054836434" flag="0"/>
      <vel value="0.0035455774" flag="0"/>
      <psa03 value="0.0182301690" flag="0"/>
      <psa10 value="0.0048403420" flag="0"/>
      <psa30 value="0.0003170775" flag="0"/>
    </comp>
  </station>
  <station code="EFIU" name="EFIU" netid="IV" insttype="" lat="37.7896" lon="15.2103">
    <comp name="--.HHE">
      <acc value="0.0072670070" flag="0"/>
      <vel value="0.0071676416" flag="0"/>
      <psa03 value="0.0209474787" flag="0"/>
      <psa10 value="0.0087164334" flag="0"/>
      <psa30 value="0.0013624352" flag="0"/>
    </comp>
    <comp name="--.HHN">
      <acc value="0.0077885085" flag="0"/>
      <vel value="0.0063933792" flag="0"/>
      <psa03 value="0.0266091480" flag="0"/>
      <psa10 value="0.0122538863" flag="0"/>
      <psa30 value="0.0011645009" flag="0"/>
    </comp>
    <comp name="--.HHZ">
      <acc value="0.0051890815" flag="0"/>
      <vel value="0.0046191204" flag="0"/>
      <psa03 value="0.0227416172" flag="0"/>
      <psa10 value="0.0063915591" flag="0"/>
      <psa30 value="0.0004985016" flag="0"/>
    </comp>
  </station>
  <station code="EMSG" name="EMSG" netid="IV" insttype="" lat="37.8208" lon="14.9498">
    <comp name="--.HHN">
      <acc value="0.0195792621" flag="0"/>
      <vel value="0.0156658185" flag="0"/>
      <psa03 value="0.0725578561" flag="0"/>
      <psa10 value="0.0100422835" flag="0"/>
      <psa30 value="0.0008825269" flag="0"/>
    </comp>
    <comp name="--.HHE">
      <acc value="0.0167968729" flag="0"/>
      <vel value="0.0116712368" flag="0"/>
      <psa03 value="0.0533658388" flag="0"/>
      <psa10 value="0.0096009226" flag="0"/>
      <psa30 value="0.0007388337" flag="0"/>
    </comp>
    <comp name="--.HHZ">
      <acc value="0.0112274664" flag="0"/>
      <vel value="0.0081113200" flag="0"/>
      <psa03 value="0.0266717326" flag="0"/>
      <psa10 value="0.0055153738" flag="0"/>
      <psa30 value="0.0004396892" flag="0"/>
    </comp>
  </station>
  <station code="EPIT" name="EPIT" netid="IV" insttype="" lat="37.8113" lon="15.0567">
    <comp name="--.HHE">
      <acc value="0.0281388589" flag="0"/>
      <vel value="0.0165088328" flag="0"/>
      <psa03 value="0.0906458713" flag="0"/>
      <psa10 value="0.0138030108" flag="0"/>
      <psa30 value="0.0005729941" flag="0"/>
    </comp>
    <comp name="--.HHN">
      <acc value="0.0259657284" flag="0"/>
      <vel value="0.0144507120" flag="0"/>
      <psa03 value="0.1043653496" flag="0"/>
      <psa10 value="0.0104380676" flag="0"/>
      <psa30 value="0.0009548015" flag="0"/>
    </comp>
    <comp name="--.HHZ">
      <acc value="0.0139708085" flag="0"/>
      <vel value="0.0073693360" flag="0"/>
      <psa03 value="0.0461389383" flag="0"/>
      <psa10 value="0.0039601854" flag="0"/>
      <psa30 value="0.0004028872" flag="0"/>
    </comp>
  </station>
  <station code="EPZF" name="EPZF" netid="IV" insttype="" lat="37.824" lon="14.857">
    <comp name="--.HHE">
      <acc value="0.0217406397" flag="0"/>
      <vel value="0.0132537521" flag="0"/>
      <psa03 value="0.0521128604" flag="0"/>
      <psa10 value="0.0090831737" flag="0"/>
      <psa30 value="0.0005287024" flag="0"/>
    </comp>
    <comp name="--.HHN">
      <acc value="0.0143339021" flag="0"/>
      <vel value="0.0073144242" flag="0"/>
      <psa03 value="0.0570247717" flag="0"/>
      <psa10 value="0.0088636962" flag="0"/>
      <psa30 value="0.0007081105" flag="0"/>
    </comp>
    <comp name="--.HHZ">
      <acc value="0.0070835743" flag="0"/>
      <vel value="0.0045615926" flag="0"/>
      <psa03 value="0.0207609231" flag="0"/>
      <psa10 value="0.0054101575" flag="0"/>
      <psa30 value="0.0005437652" flag="0"/>
    </comp>
  </station>
  <station code="EVRN" name="EVRN" netid="IV" insttype="" lat="37.6892" lon="15.1356">
    <comp name="--.HHE">
      <acc value="0.0244814673" flag="0"/>
      <vel value="0.0121708742" flag="0"/>
      <psa03 value="0.0782552349" flag="0"/>
      <psa10 value="0.0075611449" flag="0"/>
      <psa30 value="0.0009029953" flag="0"/>
    </comp>
    <comp name="--.HHN">
      <acc value="0.0314880491" flag="0"/>
      <vel value="0.0117030210" flag="0"/>
      <psa03 value="0.0676604734" flag="0"/>
      <psa10 value="0.0074602697" flag="0"/>
      <psa30 value="0.0009637253" flag="0"/>
    </comp>
    <comp name="--.HHZ">
      <acc value="0.0086952455" flag="0"/>
      <vel value="0.0043601311" flag="0"/>
      <psa03 value="0.0286043984" flag="0"/>
      <psa10 value="0.0036379290" flag="0"/>
      <psa30 value="0.0002087420" flag="0"/>
    </comp>
  </station>
  <station code="FERC" name="FERC" netid="IV" insttype="" lat="38.4527" lon="16.1281">
    <comp name="--.HNE">
      <acc value="0.5347690725" flag="0"/>
      <vel value="0.1919767186" flag="0"/>
      <psa03 value="1.0987689362" flag="0"/>
      <psa10 value="0.1535114413" flag="0"/>
      <psa30 value="0.0078994018" flag="0"/>
    </comp>
    <comp name="--.HNN">
      <acc value="0.5619773296" flag="0"/>
      <vel value="0.2709790109" flag="0"/>
      <psa03 value="1.7024550258" flag="0"/>
      <psa10 value="0.2268619342" flag="0"/>
      <psa30 value="0.0128658495" flag="0"/>
    </comp>
    <comp name="--.HNZ">
      <acc value="0.3245501139" flag="0"/>
      <vel value="0.0891128738" flag="0"/>
      <psa03 value="0.7739270413" flag="0"/>
      <psa10 value="0.0357450102" flag="0"/>
      <psa30 value="0.0042211933" flag="0"/>
    </comp>
  </station>
  <station code="HAGA" name="HAGA" netid="IV" insttype="" lat="37.285" lon="15.155">
    <comp name="--.HHE">
      <acc value="0.0052984892" flag="0"/>
      <vel value="0.0029131927" flag="0"/>
      <psa03 value="0.0151575057" flag="0"/>
      <psa10 value="0.0033288256" flag="0"/>
      <psa30 value="0.0001967436" flag="0"/>
    </comp>
    <comp name="--.HHN">
      <acc value="0.0052650491" flag="0"/>
      <vel value="0.0024668193" flag="0"/>
      <psa03 value="0.0071076898" flag="0"/>
      <psa10 value="0.0031887845" flag="0"/>
      <psa30 value="0.0002090752" flag="0"/>
    </comp>
    <comp name="--.HHZ">
      <acc value="0.0032421203" flag="0"/>
      <vel value="0.0012345115" flag="0"/>
      <psa03 value="0.0082352205" flag="0"/>
      <psa10 value="0.0009182071" flag="0"/>
      <psa30 value="0.0001117234" flag="0"/>
    </comp>
  </station>
  <station code="ILOS" name="ILOS" netid="IV" insttype="" lat="38.4457" lon="14.9483">
    <comp name="--.HNZ">
      <acc value="0.0638073624" flag="0"/>
      <vel value="0.0322255257" flag="0"/>
      <psa03 value="0.1557459234" flag="0"/>
      <psa10 value="0.0169902298" flag="0"/>
      <psa30 value="0.0010222046" flag="0"/>
    </comp>
  </station>
  <station code="IST3" name="IST3" netid="IV" insttype="" lat="38.7992" lon="15.2304">
    <comp name="--.HHE">
      <acc value="0.0524160353" flag="0"/>
      <vel value="0.0137264595" flag="0"/>
      <psa03 value="0.0787941115" flag="0"/>
      <psa10 value="0.0073702884" flag="0"/>
      <psa30 value="0.0007808340" flag="0"/>
    </comp>
    <comp name="--.HHN">
      <acc value="0.0585125762" flag="0"/>
      <vel value="0.0191626309" flag="0"/>
      <psa03 value="0.1023678476" flag="0"/>
      <psa10 value="0.0099214617" flag="0"/>
      <psa30 value="0.0008731880" flag="0"/>
    </comp>
    <comp name="--.HHZ">
      <acc value="0.0477549752" flag="0"/>
      <vel value="0.0103707792" flag="0"/>
      <psa03 value="0.0439973295" flag="0"/>
      <psa10 value="0.0083130823" flag="0"/>
      <psa30 value="0.0006522664" flag="0"/>
    </comp>
  </station>
  <station code="ISTR" name="ISTR" netid="IV" insttype="" lat="38.7866" lon="15.1918">
    <comp name="--.HHE">
      <acc value="0.0247235839" flag="0"/>
      <vel value="0.0098678699" flag="0"/>
      <psa03 value="0.0548886233" flag="0"/>
      <psa10 value="0.0075315037" flag="0"/>
      <psa30 value="0.0005680084" flag="0"/>
    </comp>
    <comp name="--.HHN">
      <acc value="0.0287075746" flag="0"/>
      <vel value="0.0095829741" flag="0"/>
      <psa03 value="0.0677492898" flag="0"/>
      <psa10 value="0.0088274564" flag="0"/>
      <psa30 value="0.0007319775" flag="0"/>
    </comp>
    <comp name="--.HHZ">
      <acc value="0.0216445476" flag="0"/>
      <vel value="0.0049638377" flag="0"/>
      <psa03 value="0.0321545573" flag="0"/>
      <psa10 value="0.0033627729" flag="0"/>
      <psa30 value="0.0004377010" flag="0"/>
    </comp>
  </station>
  <station code="IVGP" name="IVGP" netid="IV" insttype="" lat="38.3968" lon="14.9608">
    <comp name="--.HHE">
      <acc value="0.0563745989" flag="0"/>
      <vel value="0.0110216550" flag="0"/>
      <psa03 value="0.0563618395" flag="0"/>
      <psa10 value="0.0080464663" flag="0"/>
      <psa30 value="0.0007122109" flag="0"/>
    </comp>
    <comp name="--.HHN">
      <acc value="0.0481652280" flag="0"/>
      <vel value="0.0118553515" flag="0"/>
      <psa03 value="0.0695217065" flag="0"/>
      <psa10 value="0.0120987764" flag="0"/>
      <psa30 value="0.0006253980" flag="0"/>
    </comp>
    <comp name="--.HHZ">
      <acc value="0.0370886149" flag="0"/>
      <vel value="0.0097327224" flag="0"/>
      <psa03 value="0.0449429319" flag="0"/>
      <psa10 value="0.0067849270" flag="0"/>
      <psa30 value="0.0005075090" flag="0"/>
    </comp>
  </station>
  <station code="IVPL" name="IVPL" netid="IV" insttype="" lat="38.3763" lon="14.9801">
    <comp name="--.HHE">
      <acc value="0.0580452257" flag="0"/>
      <vel value="0.0275017684" flag="0"/>
      <psa03 value="0.1691983020" flag="0"/>
      <psa10 value="0.0261045207" flag="0"/>
      <psa30 value="0.0017375154" flag="0"/>
    </comp>
    <comp name="--.HHN">
      <acc value="0.0491750890" flag="0"/>
      <vel value="0.0272377007" flag="0"/>
      <psa03 value="0.1097838997" flag="0"/>
      <psa10 value="0.0266284419" flag="0"/>
      <psa30 value="0.0012284748" flag="0"/>
    </comp>
    <comp name="--.HHZ">
      <acc value="0.0295108842" flag="0"/>
      <vel value="0.0124813160" flag="0"/>
      <psa03 value="0.1194238200" flag="0"/>
      <psa10 value="0.0096863842" flag="0"/>
      <psa30 value="0.0007200999" flag="0"/>
    </comp>
  </station>
  <station code="JOPP" name="JOPP" netid="IV" insttype="" lat="38.6068" lon="15.8856">
    <comp name="--.HHE">
      <acc value="0.0568398994" flag="0"/>
      <vel value="0.0139801953" flag="0"/>
      <psa03 value="0.0589656910" flag="0"/>
      <psa10 value="0.0064098669" flag="0"/>
      <psa30 value="0.0007321457" flag="0"/>
    </comp>
    <comp name="--.HHN">
      <acc value="0.0488963267" flag="0"/>
      <vel value="0.0175520327" flag="0"/>
      <psa03 value="0.0863481044" flag="0"/>
      <psa10 value="0.0139575134" flag="0"/>
      <psa30 value="0.0019348511" flag="0"/>
    </comp>
    <comp name="--.HHZ">
      <acc value="0.0333049015" flag="0"/>
      <vel value="0.0087146660" flag="0"/>
      <psa03 value="0.0383319041" flag="0"/>
      <psa10 value="0.0108939438" flag="0"/>
      <psa30 value="0.0005517835" flag="0"/>
    </comp>
  </station>
  <station code="MILZ" name="MILZ" netid="IV" insttype="" lat="38.2713" lon="15.2313">
    <comp name="--.HHE">
      <acc value="0.1143245953" flag="0"/>
      <vel value="0.0691537196" flag="0"/>
      <psa03 value="0.3524375561" flag="0"/>
      <psa10 value="0.0667652052" flag="0"/>
      <psa30 value="0.0031528496" flag="0"/>
    </comp>
    <comp name="--.HHN">
      <acc value="0.0723843468" flag="0"/>
      <vel value="0.0398630634" flag="0"/>
      <psa03 value="0.2035406063" flag="0"/>
      <psa10 value="0.0405871068" flag="0"/>
      <psa30 value="0.0024228036" flag="0"/>
    </comp>
    <comp name="--.HHZ">
      <acc value="0.0933075522" flag="0"/>
      <vel value="0.0596044234" flag="0"/>
      <psa03 value="0.3378267528" flag="0"/>
      <psa10 value="0.0555387842" flag="0"/>
      <psa30 value="0.0022662761" flag="0"/>
    </comp>
  </station>
  <station code="MPNC" name="MPNC" netid="IV" insttype="" lat="38.1465" lon="15.3528">
    <comp name="--.HHE">
      <acc value="0.1398990490" flag="0"/>
      <vel value="0.0655416519" flag="0"/>
      <psa03 value="0.4442307810" flag="0"/>
      <psa10 value="0.0345094368" flag="0"/>
      <psa30 value="0.0024104512" flag="0"/>
    </comp>
    <comp name="--.HHN">
      <acc value="0.1576608682" flag="0"/>
      <vel value="0.0773679498" flag="0"/>
      <psa03 value="0.4854359238" flag="0"/>
      <psa10 value="0.0493381282" flag="0"/>
      <psa30 value="0.0025699335" flag="0"/>
    </comp>
    <comp name="--.HHZ">
      <acc value="0.1078634721" flag="0"/>
      <vel value="0.0230763764" flag="0"/>
      <psa03 value="0.1133410898" flag="0"/>
      <psa10 value="0.0099793840" flag="0"/>
      <psa30 value="0.0012262253" flag="0"/>
    </comp>
  </station>
  <station code="MSFR" name="MSFR" netid="IV" insttype="" lat="38.0339" lon="14.5916">
    <comp name="--.HHE">
      <acc value="0.0023980664" flag="0"/>
      <vel value="0.0029668198" flag="0"/>
      <psa03 value="0.0112918181" flag="0"/>
      <psa10 value="0.0031852862" flag="0"/>
      <psa30 value="0.0006958574" flag="0"/>
    </comp>
    <comp name="--.HHN">
      <acc value="0.0043164401" flag="0"/>
      <vel value="0.0026175318" flag="0"/>
      <psa03 value="0.0081417844" flag="0"/>
      <psa10 value="0.0022204147" flag="0"/>
      <psa30 value="0.0004763224" flag="0"/>
    </comp>
  </station>
  <station code="MSRU" name="MSRU" netid="IV" insttype="" lat="38.2639" lon="15.5083">
    <comp name="--.HHE">
      <acc value="0.1583275048" flag="0"/>
      <vel value="0.0980067459" flag="0"/>
      <psa03 value="0.3805158586" flag="0"/>
      <psa10 value="0.0478811266" flag="0"/>
      <psa30 value="0.0031055436" flag="0"/>
    </comp>
    <comp name="--.HHN">
      <acc value="0.1807181957" flag="0"/>
      <vel value="0.0785576761" flag="0"/>
      <psa03 value="0.5684853102" flag="0"/>
      <psa10 value="0.0546622113" flag="0"/>
      <psa30 value="0.0039703253" flag="0"/>
    </comp>
    <comp name="--.HHZ">
      <acc value="0.1075930174" flag="0"/>
      <vel value="0.0364873885" flag="0"/>
      <psa03 value="0.2653291545" flag="0"/>
      <psa10 value="0.0220426601" flag="0"/>
      <psa30 value="0.0021847839" flag="0"/>
    </comp>
  </station>
  <station code="MUCR" name="MUCR" netid="IV" insttype="" lat="38.043" lon="14.8739">
    <comp name="--.HHE">
      <acc value="0.0076896038" flag="0"/>
      <vel value="0.0039636618" flag="0"/>
      <psa03 value="0.0180521235" flag="0"/>
      <psa10 value="0.0054520164" flag="0"/>
      <psa30 value="0.0002941532" flag="0"/>
    </comp>
    <comp name="--.HHN">
      <acc value="0.0095759692" flag="0"/>
      <vel value="0.0054126013" flag="0"/>
      <psa03 value="0.0308318406" flag="0"/>
      <psa10 value="0.0069574039" flag="0"/>
      <psa30 value="0.0004710637" flag="0"/>
    </comp>
    <comp name="--.HHZ">
      <acc value="0.0052914668" flag="0"/>
      <vel value="0.0030144567" flag="0"/>
      <psa03 value="0.0122626523" flag="0"/>
      <psa10 value="0.0031817291" flag="0"/>
      <psa30 value="0.0002033373" flag="0"/>
    </comp>
  </station>
  <station code="PLAC" name="PLAC" netid="IV" insttype="" lat="38.4494" lon="16.4383">
    <comp name="--.HHE">
      <acc value="0.0570858000" flag="0"/>
      <vel value="0.0281847266" flag="0"/>
      <psa03 value="0.0881173049" flag="0"/>
      <psa10 value="0.0328186110" flag="0"/>
      <psa30 value="0.0017433038" flag="0"/>
    </comp>
    <comp name="--.HHN">
      <acc value="0.0425340765" flag="0"/>
      <vel value="0.0254283377" flag="0"/>
      <psa03 value="0.0887160298" flag="0"/>
      <psa10 value="0.0290490951" flag="0"/>
      <psa30 value="0.0012632152" flag="0"/>
    </comp>
    <comp name="--.HHZ">
      <acc value="0.0192700527" flag="0"/>
      <vel value="0.0116678942" flag="0"/>
      <psa03 value="0.0402175490" flag="0"/>
      <psa10 value="0.0151820537" flag="0"/>
      <psa30 value="0.0010018022" flag="0"/>
    </comp>
  </station>
  <station code="SERS" name="SERS" netid="IV" insttype="" lat="39.0359" lon="16.6886">
    <comp name="--.HHE">
      <acc value="0.0055606220" flag="0"/>
      <vel value="0.0038065181" flag="0"/>
      <psa03 value="0.0128309423" flag="0"/>
      <psa10 value="0.0052809823" flag="0"/>
      <psa30 value="0.0006983088" flag="0"/>
    </comp>
    <comp name="--.HHN">
      <acc value="0.0044549038" flag="0"/>
      <vel value="0.0038999758" flag="0"/>
      <psa03 value="0.0122947359" flag="0"/>
      <psa10 value="0.0057742419" flag="0"/>
      <psa30 value="0.0004506782" flag="0"/>
    </comp>
    <comp name="--.HHZ">
      <acc value="0.0038708212" flag="0"/>
      <vel value="0.0027910245" flag="0"/>
      <psa03 value="0.0090229741" flag="0"/>
      <psa10 value="0.0030766598" flag="0"/>
      <psa30 value="0.0004760258" flag="0"/>
    </comp>
  </station>
  <station code="CEL" name="CEL" netid="MN" insttype="" lat="38.2603" lon="15.8939">
    <comp name="--.HHE">
      <acc value="0.5217157765" flag="0"/>
      <vel value="0.2057004441" flag="0"/>
      <psa03 value="0.8372232954" flag="0"/>
      <psa10 value="0.1793905987" flag="0"/>
      <psa30 value="0.0131044610" flag="0"/>
    </comp>
    <comp name="--.HHN">
      <acc value="0.4551247889" flag="0"/>
      <vel value="0.2217042063" flag="0"/>
      <psa03 value="0.8871264099" flag="0"/>
