<?xml version="1.0" encoding="UTF-8" standalone="yes"?>
<!DOCTYPE earthquake SYSTEM "stationlist.dtd">
<stationlist created="" xmlns="ch.ethz.sed.shakemap.usgs.xml">
  <station code="GVD" name="GVD" netid="GE" insttype="STS-2/N" lat="34.8391" lon="24.0874">
    <comp name="--.HHE">
      <acc value="0.3152905732" flag="0"/>
      <vel value="0.1401799617" flag="0"/>
      <psa03 value="1.3646650146" flag="0"/>
      <psa10 value="0.1555526005" flag="0"/>
      <psa30 value="0.0083813626" flag="0"/>
    </comp>
    <comp name="--.HHN">
      <acc value="0.3537210369" flag="0"/>
      <vel value="0.1532693017" flag="0"/>
      <psa03 value="1.5017734774" flag="0"/>
      <psa10 value="0.0993498330" flag="0"/>
      <psa30 value="0.0094005320" flag="0"/>
    </comp>
    <comp name="--.HHZ">
      <acc value="0.1775559389" flag="0"/>
      <vel value="0.0711324933" flag="0"/>
      <psa03 value="0.2857224343" flag="0"/>
      <psa10 value="0.0473986415" flag="0"/>
      <psa30 value="0.0048890706" flag="0"/>
    </comp>
  </station>
  <station code="IMMV" name="IMMV" netid="GE" insttype="STS-2/N" lat="35.4606" lon="23.9811">
    <comp name="--.HHE">
      <acc value="0.0574330725" flag="0"/>
      <vel value="0.0483180315" flag="0"/>
      <psa03 value="0.2200275803" flag="0"/>
      <psa10 value="0.0913752560" flag="0"/>
      <psa30 value="0.0076822568" flag="0"/>
    </comp>
    <comp name="--.HHN">
      <acc value="0.0523166203" flag="0"/>
      <vel value="0.0347480157" flag="0"/>
      <psa03 value="0.1776422063" flag="0"/>
      <psa10 value="0.0456231511" flag="0"/>
      <psa30 value="0.0063151825" flag="0"/>
    </comp>
    <comp name="--.HHZ">
      <acc value="0.0476931115" flag="0"/>
      <vel value="0.0235463775" flag="0"/>
      <psa03 value="0.1175670541" flag="0"/>
      <psa10 value="0.0386549293" flag="0"/>
      <psa30 value="0.0032586451" flag="0"/>
    </comp>
  </station>
  <station code="IDI" name="IDI" netid="MN" insttype="" lat="35.288" lon="24.89">
    <comp name="--.HHN">
      <acc value="0.0521950672" flag="0"/>
      <vel value="0.0263079916" flag="0"/>
      <psa03 value="0.1178514254" flag="0"/>
      <psa10 value="0.0297924763" flag="0"/>
      <psa30 value="0.0015707011" flag="0"/>
    </comp>
    <comp name="--.HHE">
      <acc value="0.0572884685" flag="0"/>
      <vel value="0.0302730090" flag="0"/>
      <psa03 value="0.1500299709" flag="0"/>
      <psa10 value="0.0327260667" flag="0"/>
      <psa30 value="0.0016498969" flag="0"/>
    </comp>
    <comp name="--.HHZ">
      <acc value="0.0452938779" flag="0"/>
      <vel value="0.0258460583" flag="0"/>
      <psa03 value="0.1675708461" flag="0"/>
      <psa10 value="0.0256266912" flag="0"/>
      <psa30 value="0.0018970578" flag="0"/>
    </comp>
  </station>
</stationlist>
