<?xml version="1.0" encoding="UTF-8" standalone="yes"?>
<!DOCTYPE earthquake SYSTEM "stationlist.dtd">
<stationlist created="" xmlns="ch.ethz.sed.shakemap.usgs.xml">
  <station code="GVD" name="GVD" netid="GE" insttype="STS-2/N" lat="34.8391" lon="24.0874">
    <comp name="--.HHE">
      <acc value="0.3152905736" flag="0"/>
      <vel value="0.1401799639" flag="0"/>
      <psa03 value="1.3646650146" flag="0"/>
      <psa10 value="0.1555526039" flag="0"/>
      <psa30 value="0.0083808643" flag="0"/>
    </comp>
    <comp name="--.HHZ">
      <acc value="0.1775559390" flag="0"/>
      <vel value="0.0711324936" flag="0"/>
      <psa03 value="0.2857224343" flag="0"/>
      <psa10 value="0.0473986415" flag="0"/>
      <psa30 value="0.0048889465" flag="0"/>
    </comp>
    <comp name="--.HHN">
      <acc value="0.3537210363" flag="0"/>
      <vel value="0.1532693014" flag="0"/>
      <psa03 value="1.5017734774" flag="0"/>
      <psa10 value="0.0993498329" flag="0"/>
      <psa30 value="0.0094001872" flag="0"/>
    </comp>
  </station>
  <station code="IMMV" name="IMMV" netid="GE" insttype="STS-2/N" lat="35.4606" lon="23.9811">
    <comp name="--.HHN">
      <acc value="0.0523166204" flag="0"/>
      <vel value="0.0347480155" flag="0"/>
      <psa03 value="0.1776422063" flag="0"/>
      <psa10 value="0.0456231511" flag="0"/>
      <psa30 value="0.0063151755" flag="0"/>
    </comp>
    <comp name="--.HHZ">
      <acc value="0.0476931116" flag="0"/>
      <vel value="0.0235463772" flag="0"/>
      <psa03 value="0.1175670541" flag="0"/>
      <psa10 value="0.0386549293" flag="0"/>
      <psa30 value="0.0032586618" flag="0"/>
    </comp>
    <comp name="--.HHE">
      <acc value="0.0574330727" flag="0"/>
      <vel value="0.0483180319" flag="0"/>
      <psa03 value="0.2200275803" flag="0"/>
      <psa10 value="0.0913752560" flag="0"/>
      <psa30 value="0.0076822696" flag="0"/>
    </comp>
  </station>
  <station code="IDI" name="IDI" netid="MN" insttype="" lat="35.288" lon="24.89">
    <comp name="--.HHE">
      <acc value="0.0572884685" flag="0"/>
      <vel value="0.0302730087" flag="0"/>
      <psa03 value="0.1500299709" flag="0"/>
      <psa10 value="0.0327260667" flag="0"/>
      <psa30 value="0.0016499329" flag="0"/>
    </comp>
    <comp name="--.HHN">
      <acc value="0.0521950672" flag="0"/>
      <vel value="0.0263079913" flag="0"/>
      <psa03 value="0.1178514254" flag="0"/>
      <psa10 value="0.0297924763" flag="0"/>
      <psa30 value="0.0015707281" flag="0"/>
    </comp>
    <comp name="--.HHZ">
      <acc value="0.0452938779" flag="0"/>
      <vel value="0.0258460580" flag="0"/>
      <psa03 value="0.1675708461" flag="0"/>
      <psa10 value="0.0256266916" flag="0"/>
      <psa30 value="0.0018970703" flag="0"/>
    </comp>
  </station>
</stationlist>
