<stationlist created="1778138798">
	<station code="ABEA" name="ABEA" netid="HC" source="Seismological Network of Crete (HC)" insttype="" lat="35.5163" lon="24.0113">
		<comp name="--.HNE" depth="0.0">
			<acc value="0.0335244080012278" flag="0"/>
			<vel value="0.0368701020629691" flag="0"/>
			<psa03 value="0.112187900647931" flag="0"/>
			<psa10 value="0.107999744452961" flag="0"/>
			<psa30 value="0.00752134491884048" flag="0"/>
		</comp>
		<comp name="--.HNN" depth="0.0">
			<acc value="0.0364149638720827" flag="0"/>
			<vel value="0.0270697918342099" flag="0"/>
			<psa03 value="0.134275051313189" flag="0"/>
			<psa10 value="0.0461073806376174" flag="0"/>
			<psa30 value="0.00965593715844422" flag="0"/>
		</comp>
		<comp name="--.HNZ" depth="0.0">
			<acc value="0.024520061426124" flag="0"/>
			<vel value="0.0235267118451674" flag="0"/>
			<psa03 value="0.0919980423353148" flag="0"/>
			<psa10 value="0.0432821534803896" flag="0"/>
			<psa30 value="0.00306881037695991" flag="0"/>
		</comp>
	</station>
	<station code="ATEI" name="ATEI" netid="HC" source="Seismological Network of Crete (HC)" insttype="" lat="35.5193" lon="24.0432">
		<comp name="--.HNE" depth="0.0">
			<acc value="0.0347110324258408" flag="0"/>
			<vel value="0.0309406210371955" flag="0"/>
			<psa03 value="0.0731435589433633" flag="0"/>
			<psa10 value="0.0535296473262603" flag="0"/>
			<psa30 value="0.00556710962703263" flag="0"/>
		</comp>
		<comp name="--.HNN" depth="0.0">
			<acc value="0.0443496520584756" flag="0"/>
			<vel value="0.03383144591732" flag="0"/>
			<psa03 value="0.119222700001888" flag="0"/>
			<psa10 value="0.0655868423063782" flag="0"/>
			<psa30 value="0.0103083937138436" flag="0"/>
		</comp>
		<comp name="--.HNZ" depth="0.0">
			<acc value="0.0236709676922171" flag="0"/>
			<vel value="0.0123403296456335" flag="0"/>
			<psa03 value="0.0880447075297725" flag="0"/>
			<psa10 value="0.0296104746736144" flag="0"/>
			<psa30 value="0.00243970495181452" flag="0"/>
		</comp>
	</station>
	<station code="G0LD" name="G0LD" netid="HC" source="Seismological Network of Crete (HC)" insttype="" lat="35.4955" lon="24.0306">
		<comp name="--.HNE" depth="0.0">
			<acc value="0.125276790679296" flag="0"/>
			<vel value="0.103791061568269" flag="0"/>
			<psa03 value="0.299420168450123" flag="0"/>
			<psa10 value="0.187344605660665" flag="0"/>
			<psa30 value="0.0162014099305666" flag="0"/>
		</comp>
		<comp name="--.HNN" depth="0.0">
			<acc value="0.102673926954183" flag="0"/>
			<vel value="0.105099320173172" flag="0"/>
			<psa03 value="0.448171897521458" flag="0"/>
			<psa10 value="0.193364624457385" flag="0"/>
			<psa30 value="0.0198105723531816" flag="0"/>
		</comp>
		<comp name="--.HNZ" depth="0.0">
			<acc value="0.084072916410142" flag="0"/>
			<vel value="0.088018513724151" flag="0"/>
			<psa03 value="0.183897661484413" flag="0"/>
			<psa10 value="0.163139572195857" flag="0"/>
			<psa30 value="0.00671911885862922" flag="0"/>
		</comp>
	</station>
	<station code="LENT" name="LENT" netid="HC" source="Seismological Network of Crete (HC)" insttype="" lat="35.5074" lon="24.0402">
		<comp name="--.HNE" depth="0.0">
			<acc value="0.042508781976657" flag="0"/>
			<vel value="0.0496570461456486" flag="0"/>
			<psa03 value="0.14266375285683" flag="0"/>
			<psa10 value="0.0640721694666201" flag="0"/>
			<psa30 value="0.00663057715988304" flag="0"/>
		</comp>
		<comp name="--.HNN" depth="0.0">
			<acc value="0.0533399816145678" flag="0"/>
			<vel value="0.0470757689658902" flag="0"/>
			<psa03 value="0.0859909360606338" flag="0"/>
			<psa10 value="0.068488664537799" flag="0"/>
			<psa30 value="0.00969214122346464" flag="0"/>
		</comp>
		<comp name="--.HNZ" depth="0.0">
			<acc value="0.046195904042996" flag="0"/>
			<vel value="0.0306615507790561" flag="0"/>
			<psa03 value="0.172618174690079" flag="0"/>
			<psa10 value="0.0541477332715516" flag="0"/>
			<psa30 value="0.00379363172615023" flag="0"/>
		</comp>
	</station>
	<station code="MULT" name="MULT" netid="HC" source="Seismological Network of Crete (HC)" insttype="" lat="35.5091" lon="24.0118">
		<comp name="--.HNE" depth="0.0">
			<acc value="0.0749342035019418" flag="0"/>
			<vel value="0.0379973168055043" flag="0"/>
			<psa03 value="0.134415206431124" flag="0"/>
			<psa10 value="0.0508431906117786" flag="0"/>
			<psa30 value="0.00690493866828911" flag="0"/>
		</comp>
		<comp name="--.HNN" depth="0.0">
			<acc value="0.0499173162298285" flag="0"/>
			<vel value="0.0365013146466008" flag="0"/>
			<psa03 value="0.154671954591401" flag="0"/>
			<psa10 value="0.0448649795847718" flag="0"/>
			<psa30 value="0.0117084597946553" flag="0"/>
		</comp>
		<comp name="--.HNZ" depth="0.0">
			<acc value="0.0386110672357555" flag="0"/>
			<vel value="0.0264436285590884" flag="0"/>
			<psa03 value="0.0656755277646083" flag="0"/>
			<psa10 value="0.0750443538201896" flag="0"/>
			<psa30 value="0.00530382843594003" flag="0"/>
		</comp>
	</station>
	<station code="NERO" name="NERO" netid="HC" source="Seismological Network of Crete (HC)" insttype="" lat="35.474" lon="24.0423">
		<comp name="--.HNE" depth="0.0">
			<acc value="0.0533345355121834" flag="0"/>
			<vel value="0.0327788429905418" flag="0"/>
			<psa03 value="0.149522832237189" flag="0"/>
			<psa10 value="0.0473909144153106" flag="0"/>
			<psa30 value="0.00616046810079289" flag="0"/>
		</comp>
		<comp name="--.HNN" depth="0.0">
			<acc value="0.05186974114087" flag="0"/>
			<vel value="0.0334527714103044" flag="0"/>
			<psa03 value="0.119785487284108" flag="0"/>
			<psa10 value="0.0468297122386452" flag="0"/>
			<psa30 value="0.00803087283926534" flag="0"/>
		</comp>
		<comp name="--.HNZ" depth="0.0">
			<acc value="0.0288974113463594" flag="0"/>
			<vel value="0.0205926734238062" flag="0"/>
			<psa03 value="0.104842320289238" flag="0"/>
			<psa10 value="0.0307329371562394" flag="0"/>
			<psa30 value="0.00321646724183466" flag="0"/>
		</comp>
	</station>
	<station code="PASK" name="PASK" netid="HC" source="Seismological Network of Crete (HC)" insttype="" lat="35.4996" lon="24.0121">
		<comp name="--.HNE" depth="0.0">
			<acc value="0.0725673603819202" flag="0"/>
			<vel value="0.0602054586233204" flag="0"/>
			<psa03 value="0.193680705396313" flag="0"/>
			<psa10 value="0.144131407998343" flag="0"/>
			<psa30 value="0.0120372765771491" flag="0"/>
		</comp>
		<comp name="--.HNN" depth="0.0">
			<acc value="0.0634811396659622" flag="0"/>
			<vel value="0.0545385150890671" flag="0"/>
			<psa03 value="0.20979277274165" flag="0"/>
			<psa10 value="0.0756276599613162" flag="0"/>
			<psa30 value="0.012345006962802" flag="0"/>
		</comp>
		<comp name="--.HNZ" depth="0.0">
			<acc value="0.0367476097314254" flag="0"/>
			<vel value="0.0255171336102382" flag="0"/>
			<psa03 value="0.169759339473298" flag="0"/>
			<psa10 value="0.0471444893410819" flag="0"/>
			<psa30 value="0.00509949364977972" flag="0"/>
		</comp>
	</station>
	<station code="POLY" name="POLY" netid="HC" source="Seismological Network of Crete (HC)" insttype="" lat="35.5226" lon="24.0602">
		<comp name="--.HNE" depth="0.0">
			<acc value="0.0236480655251196" flag="0"/>
			<vel value="0.0293749595911357" flag="0"/>
			<psa03 value="0.069665677509198" flag="0"/>
			<psa10 value="0.0404027614847862" flag="0"/>
			<psa30 value="0.00601789698947169" flag="0"/>
		</comp>
		<comp name="--.HNN" depth="0.0">
			<acc value="0.038467979073251" flag="0"/>
			<vel value="0.0328163170092471" flag="0"/>
			<psa03 value="0.112132230293362" flag="0"/>
			<psa10 value="0.0603983735957114" flag="0"/>
			<psa30 value="0.00838592302625672" flag="0"/>
		</comp>
		<comp name="--.HNZ" depth="0.0">
			<acc value="0.0197393425433314" flag="0"/>
			<vel value="0.0169839554810142" flag="0"/>
			<psa03 value="0.0618274395143403" flag="0"/>
			<psa10 value="0.0303951954075303" flag="0"/>
			<psa30 value="0.00325624487691099" flag="0"/>
		</comp>
	</station>
	<station code="SOUD" name="SOUD" netid="HC" source="Seismological Network of Crete (HC)" insttype="" lat="35.4878" lon="24.0678">
		<comp name="--.HNE" depth="0.0">
			<acc value="0.0741172396646812" flag="0"/>
			<vel value="0.0483345744250392" flag="0"/>
			<psa03 value="0.185065968045397" flag="0"/>
			<psa10 value="0.0712838072024536" flag="0"/>
			<psa30 value="0.00810925553172481" flag="0"/>
		</comp>
		<comp name="--.HNN" depth="0.0">
			<acc value="0.0718854073890008" flag="0"/>
			<vel value="0.0588479820744151" flag="0"/>
			<psa03 value="0.148923230016369" flag="0"/>
			<psa10 value="0.104915645146645" flag="0"/>
			<psa30 value="0.00739816842568985" flag="0"/>
		</comp>
		<comp name="--.HNZ" depth="0.0">
			<acc value="0.00616379752380651" flag="0"/>
			<vel value="0.00848381724331271" flag="0"/>
			<psa03 value="0.00849109699871001" flag="0"/>
			<psa10 value="0.00562434508526801" flag="0"/>
			<psa30 value="0.00340900666329435" flag="0"/>
		</comp>
	</station>
	<station code="CH01" name="CH01" netid="HI" source="ITSAK Strong Motion Network" insttype="" lat="35.517" lon="24.0208">
		<comp name="--.HNE" depth="0.0">
			<acc value="0.0430481225267577" flag="0"/>
			<vel value="0.0384555844460148" flag="0"/>
			<psa03 value="0.0832474157745708" flag="0"/>
			<psa10 value="0.0728620242516865" flag="0"/>
			<psa30 value="0.00870492665869186" flag="0"/>
		</comp>
		<comp name="--.HNN" depth="0.0">
			<acc value="0.0361964766714214" flag="0"/>
			<vel value="0.0384003920713292" flag="0"/>
			<psa03 value="0.124059030802146" flag="0"/>
			<psa10 value="0.0456665726864266" flag="0"/>
			<psa30 value="0.0106270839921765" flag="0"/>
		</comp>
		<comp name="--.HNZ" depth="0.0">
			<acc value="0.0232205033118516" flag="0"/>
			<vel value="0.025234482320405" flag="0"/>
			<psa03 value="0.0717492374097601" flag="0"/>
			<psa10 value="0.0454572975727007" flag="0"/>
			<psa30 value="0.00398421726817606" flag="0"/>
		</comp>
	</station>
	<station code="SIT2" name="SIT2" netid="HI" source="ITSAK Strong Motion Network" insttype="" lat="35.2059" lon="26.107">
		<comp name="--.HNE" depth="0.0">
			<acc value="0.0677135814848866" flag="0"/>
			<vel value="0.0578072082923185" flag="0"/>
			<psa03 value="0.163628589591147" flag="0"/>
			<psa10 value="0.0578650732769896" flag="0"/>
			<psa30 value="0.00324719719420978" flag="0"/>
		</comp>
		<comp name="--.HNN" depth="0.0">
			<acc value="0.098613091442835" flag="0"/>
			<vel value="0.0687907024990514" flag="0"/>
			<psa03 value="0.176325951562046" flag="0"/>
			<psa10 value="0.0554987152673403" flag="0"/>
			<psa30 value="0.00386134829537475" flag="0"/>
		</comp>
		<comp name="--.HNZ" depth="0.0">
			<acc value="0.0212118558147975" flag="0"/>
			<vel value="0.0141467580603946" flag="0"/>
			<psa03 value="0.0446952837598576" flag="0"/>
			<psa10 value="0.0129041285851689" flag="0"/>
			<psa30 value="0.00202814310452593" flag="0"/>
		</comp>
	</station>
	<station code="AGNA" name="AGNA" netid="HL" source="National Observatory of Athens Seismic Network" insttype="" lat="35.1895" lon="25.71853">
		<comp name="00.HNE" depth="0.0">
			<acc value="0.0259846029649893" flag="0"/>
			<vel value="0.021252354407108" flag="0"/>
			<psa03 value="0.0719543603732005" flag="0"/>
			<psa10 value="0.0339402171228067" flag="0"/>
			<psa30 value="0.00260233280844365" flag="0"/>
		</comp>
		<comp name="00.HNN" depth="0.0">
			<acc value="0.0297088395884509" flag="0"/>
			<vel value="0.026892906566219" flag="0"/>
			<psa03 value="0.0840557766161343" flag="0"/>
			<psa10 value="0.0466022896728948" flag="0"/>
			<psa30 value="0.00334831035079591" flag="0"/>
		</comp>
		<comp name="00.HNZ" depth="0.0">
			<acc value="0.0194228800626337" flag="0"/>
			<vel value="0.0144266117275932" flag="0"/>
			<psa03 value="0.045763213879904" flag="0"/>
			<psa10 value="0.0192086862311864" flag="0"/>
			<psa30 value="0.00355940037613848" flag="0"/>
		</comp>
	</station>
	<station code="CHNB" name="CHNB" netid="HL" source="National Observatory of Athens Seismic Network" insttype="" lat="35.48765" lon="24.06605">
		<comp name="00.HNE" depth="0.0">
			<acc value="0.0896246030616044" flag="0"/>
			<vel value="0.0729486198114519" flag="0"/>
			<psa03 value="0.276146043320263" flag="0"/>
			<psa10 value="0.170138015808713" flag="0"/>
			<psa30 value="0.00899210401608285" flag="0"/>
		</comp>
		<comp name="00.HNN" depth="0.0">
			<acc value="0.104392720407741" flag="0"/>
			<vel value="0.100223263201806" flag="0"/>
			<psa03 value="0.300650249936867" flag="0"/>
			<psa10 value="0.106655092876507" flag="0"/>
			<psa30 value="0.0089395488678959" flag="0"/>
		</comp>
		<comp name="00.HNZ" depth="0.0">
			<acc value="0.0564934292211636" flag="0"/>
			<vel value="0.0333577014317012" flag="0"/>
			<psa03 value="0.160656215602317" flag="0"/>
			<psa10 value="0.0492783356979899" flag="0"/>
			<psa30 value="0.0037036753503154" flag="0"/>
		</comp>
	</station>
	<station code="HERG" name="HERG" netid="HL" source="National Observatory of Athens Seismic Network" insttype="" lat="35.32622" lon="25.06586">
		<comp name="00.HNE" depth="0.0">
			<acc value="0.0952734284971955" flag="0"/>
			<vel value="0.0969650486490965" flag="0"/>
			<psa03 value="0.270161417701526" flag="0"/>
			<psa10 value="0.184183416247282" flag="0"/>
			<psa30 value="0.00993801917831307" flag="0"/>
		</comp>
		<comp name="00.HNN" depth="0.0">
			<acc value="0.0987116069182647" flag="0"/>
			<vel value="0.0777497815214511" flag="0"/>
			<psa03 value="0.287257341889252" flag="0"/>
			<psa10 value="0.179776754327539" flag="0"/>
			<psa30 value="0.00988760250514399" flag="0"/>
		</comp>
		<comp name="00.HNZ" depth="0.0">
			<acc value="0.0851941950089584" flag="0"/>
			<vel value="0.0647330105151711" flag="0"/>
			<psa03 value="0.177401189458153" flag="0"/>
			<psa10 value="0.0804788763306305" flag="0"/>
			<psa30 value="0.00364157540316308" flag="0"/>
		</comp>
	</station>
	<station code="IACM" name="IACM" netid="HL" source="National Observatory of Athens Seismic Network" insttype="" lat="35.3058" lon="25.0709">
		<comp name="--.HNE" depth="0.0">
			<acc value="0.201175960379412" flag="0"/>
			<vel value="0.153753524797515" flag="0"/>
			<psa03 value="0.627465733191006" flag="0"/>
			<psa10 value="0.358112033164641" flag="0"/>
			<psa30 value="0.010533351116133" flag="0"/>
		</comp>
		<comp name="--.HNN" depth="0.0">
			<acc value="0.1763278651603" flag="0"/>
			<vel value="0.127894548115514" flag="0"/>
			<psa03 value="0.562814075338256" flag="0"/>
			<psa10 value="0.230799799354058" flag="0"/>
			<psa30 value="0.0118493274597915" flag="0"/>
		</comp>
		<comp name="--.HNZ" depth="0.0">
			<acc value="0.145777144889251" flag="0"/>
			<vel value="0.0720433746000325" flag="0"/>
			<psa03 value="0.277065083368624" flag="0"/>
			<psa10 value="0.0898890222063681" flag="0"/>
			<psa30 value="0.00404698225938022" flag="0"/>
		</comp>
	</station>
	<station code="IMMV" name="IMMV" netid="HL" source="National Observatory of Athens Seismic Network" insttype="" lat="35.4606" lon="23.9811">
		<comp name="--.HNE" depth="0.0">
			<acc value="0.0531693703259816" flag="0"/>
			<vel value="0.0469262487132156" flag="0"/>
			<psa03 value="0.205564742655225" flag="0"/>
			<psa10 value="0.0878546474390892" flag="0"/>
			<psa30 value="0.00801111403031577" flag="0"/>
		</comp>
		<comp name="--.HNN" depth="0.0">
			<acc value="0.0486879012237848" flag="0"/>
			<vel value="0.033294456053166" flag="0"/>
			<psa03 value="0.164513752395449" flag="0"/>
			<psa10 value="0.0439423284636519" flag="0"/>
			<psa30 value="0.00678390023342744" flag="0"/>
		</comp>
		<comp name="--.HNZ" depth="0.0">
			<acc value="0.0462125652069263" flag="0"/>
			<vel value="0.0230436858708008" flag="0"/>
			<psa03 value="0.112346661165068" flag="0"/>
			<psa10 value="0.0379745281261124" flag="0"/>
			<psa30 value="0.00361788841735165" flag="0"/>
		</comp>
	</station>
	<station code="KSTE" name="KSTE" netid="HL" source="National Observatory of Athens Seismic Network" insttype="" lat="35.1801" lon="25.3372">
		<comp name="--.HNE" depth="0.0">
			<acc value="0.0336560806652926" flag="0"/>
			<vel value="0.03048739682607" flag="0"/>
			<psa03 value="0.0636684364713944" flag="0"/>
			<psa10 value="0.0537088791995486" flag="0"/>
			<psa30 value="0.00308091638725745" flag="0"/>
		</comp>
		<comp name="--.HNN" depth="0.0">
			<acc value="0.0409879119286818" flag="0"/>
			<vel value="0.02872675542568" flag="0"/>
			<psa03 value="0.0984824614795605" flag="0"/>
			<psa10 value="0.0254323903960471" flag="0"/>
			<psa30 value="0.00480147599088433" flag="0"/>
		</comp>
		<comp name="--.HNZ" depth="0.0">
			<acc value="0.0257298516981114" flag="0"/>
			<vel value="0.0152179378814497" flag="0"/>
			<psa03 value="0.0624162649796243" flag="0"/>
			<psa10 value="0.0217913716964163" flag="0"/>
			<psa30 value="0.00259556902704351" flag="0"/>
		</comp>
	</station>
	<station code="SIVA" name="SIVA" netid="HL" source="National Observatory of Athens Seismic Network" insttype="" lat="35.01777" lon="24.81204">
		<comp name="00.HNE" depth="0.0">
			<acc value="0.772036490580343" flag="0"/>
			<vel value="0.285049543599889" flag="0"/>
			<psa03 value="1.5920916349233" flag="0"/>
			<psa10 value="0.272147638445221" flag="0"/>
			<psa30 value="0.0172631385982275" flag="0"/>
		</comp>
		<comp name="00.HNN" depth="0.0">
			<acc value="0.778569755285131" flag="0"/>
			<vel value="0.259410420057813" flag="0"/>
			<psa03 value="1.12639428475992" flag="0"/>
			<psa10 value="0.233785972173097" flag="0"/>
			<psa30 value="0.0115101058213552" flag="0"/>
		</comp>
		<comp name="00.HNZ" depth="0.0">
			<acc value="0.408877862812373" flag="0"/>
			<vel value="0.11778294214431" flag="0"/>
			<psa03 value="0.596893541268194" flag="0"/>
			<psa10 value="0.0981536171955535" flag="0"/>
			<psa30 value="0.00386034656234791" flag="0"/>
		</comp>
	</station>
	<station code="THRA" name="THRA" netid="HL" source="National Observatory of Athens Seismic Network" insttype="" lat="36.41502" lon="25.43244">
		<comp name="00.HNE" depth="0.0">
			<acc value="0.0220330616499543" flag="0"/>
			<vel value="0.0221329336424711" flag="0"/>
			<psa03 value="0.0593169659160659" flag="0"/>
			<psa10 value="0.0508580040932209" flag="0"/>
			<psa30 value="0.00272245368253006" flag="0"/>
		</comp>
		<comp name="00.HNN" depth="0.0">
			<acc value="0.0163388164112575" flag="0"/>
			<vel value="0.0123104478753444" flag="0"/>
			<psa03 value="0.0510418760653226" flag="0"/>
			<psa10 value="0.0214307571824689" flag="0"/>
			<psa30 value="0.00238851010207184" flag="0"/>
		</comp>
		<comp name="00.HNZ" depth="0.0">
			<acc value="0.013002245800287" flag="0"/>
			<vel value="0.00891234279524287" flag="0"/>
			<psa03 value="0.0353213737218341" flag="0"/>
			<psa10 value="0.00854532264817374" flag="0"/>
			<psa30 value="0.000883802714257492" flag="0"/>
		</comp>
	</station>
</stationlist>
