<?xml version="1.0" encoding="UTF-8" standalone="yes"?>
<!DOCTYPE earthquake SYSTEM "stationlist.dtd">
<stationlist created="" xmlns="ch.ethz.sed.shakemap.usgs.xml">
  <station code="KARP" name="KARP" netid="GE" insttype="STS-2/N" commtype="DIG" lat="35.5471" lon="27.1611">
    <comp name="--.HHE">
      <acc value="0.0082898441" flag="0"/>
      <vel value="0.0015792084" flag="0"/>
      <psa03 value="0.0043379771" flag="0"/>
      <psa10 value="0.0004502759" flag="0"/>
      <psa30 value="0.0000495503" flag="0"/>
    </comp>
    <comp name="--.HHZ">
      <acc value="0.0120247465" flag="0"/>
      <vel value="0.0090557685" flag="0"/>
      <psa03 value="0.0348542118" flag="0"/>
      <psa10 value="0.0221327432" flag="0"/>
      <psa30 value="0.0021412093" flag="0"/>
    </comp>
    <comp name="--.HHN">
      <acc value="0.0222494893" flag="0"/>
      <vel value="0.0161334059" flag="0"/>
      <psa03 value="0.0414499738" flag="0"/>
      <psa10 value="0.0326577711" flag="0"/>
      <psa30 value="0.0024373020" flag="0"/>
    </comp>
  </station>
  <station code="ZKR" name="ZKR" netid="GE" insttype="STS-2/N" commtype="DIG" lat="35.1147" lon="26.2169">
    <comp name="--.HHE">
      <acc value="0.2157292598" flag="0"/>
      <vel value="0.1208629167" flag="0"/>
      <psa03 value="0.7778450809" flag="0"/>
      <psa10 value="0.1537904735" flag="0"/>
      <psa30 value="0.0171394875" flag="0"/>
    </comp>
    <comp name="--.HHZ">
      <acc value="0.2046506919" flag="0"/>
      <vel value="0.0906137448" flag="0"/>
      <psa03 value="0.3616508214" flag="0"/>
      <psa10 value="0.0745676374" flag="0"/>
      <psa30 value="0.0176919949" flag="0"/>
    </comp>
    <comp name="--.HHN">
      <acc value="0.1219952012" flag="0"/>
      <vel value="0.0631665924" flag="0"/>
      <psa03 value="0.3781810234" flag="0"/>
      <psa10 value="0.0629842206" flag="0"/>
      <psa30 value="0.0097711991" flag="0"/>
    </comp>
  </station>
  <station code="IMOD" name="IMOD" netid="HC" insttype="120" commtype="DIG" lat="34.9731" lon="24.7995">
    <comp name="--.HHN">
      <acc value="0.0747141865" flag="0"/>
      <vel value="0.0542290577" flag="0"/>
      <psa03 value="0.1846286688" flag="0"/>
      <psa10 value="0.0649706786" flag="0"/>
      <psa30 value="0.0113361604" flag="0"/>
    </comp>
    <comp name="--.HHZ">
      <acc value="0.0277930272" flag="0"/>
      <vel value="0.0242382902" flag="0"/>
      <psa03 value="0.0701493060" flag="0"/>
      <psa10 value="0.0330496980" flag="0"/>
      <psa30 value="0.0089950888" flag="0"/>
    </comp>
    <comp name="--.HHE">
      <acc value="0.0469540462" flag="0"/>
      <vel value="0.0535942961" flag="0"/>
      <psa03 value="0.1874057202" flag="0"/>
      <psa10 value="0.0483955056" flag="0"/>
      <psa30 value="0.0085909950" flag="0"/>
    </comp>
  </station>
  <station code="IPPL" name="IPPL" netid="HC" insttype="60" commtype="DIG" lat="35.3486" lon="24.4632">
    <comp name="--.HHE">
      <acc value="0.0000000000" flag="0"/>
      <vel value="-100.0000000000" flag="0"/>
      <psa03 value="0.0000000000" flag="0"/>
      <psa10 value="0.0000000000" flag="0"/>
      <psa30 value="0.0000000000" flag="0"/>
    </comp>
    <comp name="--.HHN">
      <acc value="0.0000000000" flag="0"/>
      <vel value="-100.0000000000" flag="0"/>
      <psa03 value="0.0000000000" flag="0"/>
      <psa10 value="0.0000000000" flag="0"/>
      <psa30 value="0.0000000000" flag="0"/>
    </comp>
    <comp name="--.HHZ">
      <acc value="0.0198118914" flag="0"/>
      <vel value="0.0159958248" flag="0"/>
      <psa03 value="0.0605762827" flag="0"/>
      <psa10 value="0.0225934738" flag="0"/>
      <psa30 value="0.0064550583" flag="0"/>
    </comp>
  </station>
  <station code="KNSS" name="KNSS" netid="HC" insttype="60" commtype="DIG" lat="35.3042" lon="25.1802">
    <comp name="--.HHE">
      <acc value="0.0000000000" flag="0"/>
      <vel value="-100.0000000000" flag="0"/>
      <psa03 value="0.0000000000" flag="0"/>
      <psa10 value="0.0000000000" flag="0"/>
      <psa30 value="0.0000000000" flag="0"/>
    </comp>
    <comp name="--.HHZ">
      <acc value="0.0464331443" flag="0"/>
      <vel value="0.0558037179" flag="0"/>
      <psa03 value="0.1251079956" flag="0"/>
      <psa10 value="0.0491597152" flag="0"/>
      <psa30 value="0.0416196652" flag="0"/>
    </comp>
    <comp name="--.HHN">
      <acc value="0.0656121612" flag="0"/>
      <vel value="0.0860974090" flag="0"/>
      <psa03 value="0.2031023580" flag="0"/>
      <psa10 value="0.0652030302" flag="0"/>
      <psa30 value="0.0235776141" flag="0"/>
    </comp>
  </station>
  <station code="PFKS" name="PFKS" netid="HC" insttype="120" commtype="DIG" lat="35.0429" lon="25.4733">
    <comp name="--.HHE">
      <acc value="0.5716706962" flag="0"/>
      <vel value="0.3568219669" flag="0"/>
      <psa03 value="2.4989766861" flag="0"/>
      <psa10 value="0.1732258826" flag="0"/>
      <psa30 value="0.0204226386" flag="0"/>
    </comp>
    <comp name="--.HHZ">
      <acc value="0.2875712496" flag="0"/>
      <vel value="0.1252351345" flag="0"/>
      <psa03 value="0.7605875147" flag="0"/>
      <psa10 value="0.0861520222" flag="0"/>
      <psa30 value="0.0266119400" flag="0"/>
    </comp>
    <comp name="--.HHN">
      <acc value="0.6002760031" flag="0"/>
      <vel value="0.3043742441" flag="0"/>
      <psa03 value="1.4704252713" flag="0"/>
      <psa10 value="0.2428264686" flag="0"/>
      <psa30 value="0.0181767820" flag="0"/>
    </comp>
  </station>
  <station code="STIA" name="STIA" netid="HC" insttype="120" commtype="DIG" lat="35.2021" lon="26.0909">
    <comp name="--.HHN">
      <acc value="0.4051743665" flag="0"/>
      <vel value="0.2144813440" flag="0"/>
      <psa03 value="0.7930001950" flag="0"/>
      <psa10 value="0.1778743602" flag="0"/>
      <psa30 value="0.0322515881" flag="0"/>
    </comp>
    <comp name="--.HHE">
      <acc value="0.5076240873" flag="0"/>
      <vel value="0.2126379917" flag="0"/>
      <psa03 value="0.8621263680" flag="0"/>
      <psa10 value="0.2079042313" flag="0"/>
      <psa30 value="0.0212848510" flag="0"/>
    </comp>
    <comp name="--.HHZ">
      <acc value="0.3643913497" flag="0"/>
      <vel value="0.1675359432" flag="0"/>
      <psa03 value="0.6405313122" flag="0"/>
      <psa10 value="0.1256496981" flag="0"/>
      <psa30 value="0.0199594734" flag="0"/>
    </comp>
  </station>
  <station code="AGN1" name="AGN1" netid="HI" insttype="unknown" commtype="DIG" lat="35.1879" lon="25.7155">
    <comp name="--.HNE">
      <acc value="0.0009940052" flag="0"/>
      <vel value="0.0008955568" flag="0"/>
      <psa03 value="0.0014737578" flag="0"/>
      <psa10 value="0.0009260395" flag="0"/>
      <psa30 value="0.0002908964" flag="0"/>
    </comp>
    <comp name="--.HNN">
      <acc value="0.4523575258" flag="0"/>
      <vel value="0.1345809512" flag="0"/>
      <psa03 value="0.6349850692" flag="0"/>
      <psa10 value="0.0795188016" flag="0"/>
      <psa30 value="0.0696504749" flag="0"/>
    </comp>
    <comp name="--.HNZ">
      <acc value="0.1178952089" flag="0"/>
      <vel value="0.0645372994" flag="0"/>
      <psa03 value="0.1515724206" flag="0"/>
      <psa10 value="0.0683450251" flag="0"/>
      <psa30 value="0.0519001125" flag="0"/>
    </comp>
  </station>
  <station code="ARK1" name="ARK1" netid="HI" insttype="unknown" commtype="DIG" lat="35.1488" lon="25.2642">
    <comp name="--.HNE">
      <acc value="0.1323667760" flag="0"/>
      <vel value="0.1245813523" flag="0"/>
      <psa03 value="0.5088594028" flag="0"/>
      <psa10 value="0.2017645733" flag="0"/>
      <psa30 value="0.0795289072" flag="0"/>
    </comp>
    <comp name="--.HNN">
      <acc value="0.1555081774" flag="0"/>
      <vel value="0.1895004005" flag="0"/>
      <psa03 value="0.5795527808" flag="0"/>
      <psa10 value="0.2171816498" flag="0"/>
      <psa30 value="0.0602347137" flag="0"/>
    </comp>
    <comp name="--.HNZ">
      <acc value="0.1194586772" flag="0"/>
      <vel value="0.0931944965" flag="0"/>
      <psa03 value="0.2609926544" flag="0"/>
      <psa10 value="0.1427900141" flag="0"/>
      <psa30 value="0.0324940907" flag="0"/>
    </comp>
  </station>
  <station code="GOR1" name="GOR1" netid="HI" insttype="unknown" commtype="DIG" lat="35.0582" lon="24.9628">
    <comp name="--.HNE">
      <acc value="0.0756600810" flag="0"/>
      <vel value="0.0795426034" flag="0"/>
      <psa03 value="0.2215354246" flag="0"/>
      <psa10 value="0.1282492328" flag="0"/>
      <psa30 value="0.0289946365" flag="0"/>
    </comp>
    <comp name="--.HNN">
      <acc value="0.0582657448" flag="0"/>
      <vel value="0.0778370098" flag="0"/>
      <psa03 value="0.2801719745" flag="0"/>
      <psa10 value="0.1097784697" flag="0"/>
      <psa30 value="0.0413221089" flag="0"/>
    </comp>
    <comp name="--.HNZ">
      <acc value="0.0776378970" flag="0"/>
      <vel value="0.0652854348" flag="0"/>
      <psa03 value="0.1669797838" flag="0"/>
      <psa10 value="0.0830349623" flag="0"/>
      <psa30 value="0.0198601198" flag="0"/>
    </comp>
  </station>
  <station code="HER1" name="HER1" netid="HI" insttype="unknown" commtype="DIG" lat="35.3177" lon="25.1022">
    <comp name="--.HNE">
      <acc value="0.2021232220" flag="0"/>
      <vel value="0.3077280839" flag="0"/>
      <psa03 value="0.3387584964" flag="0"/>
      <psa10 value="0.4113419135" flag="0"/>
      <psa30 value="0.0636630400" flag="0"/>
    </comp>
    <comp name="--.HNN">
      <acc value="0.1410455496" flag="0"/>
      <vel value="0.2629098815" flag="0"/>
      <psa03 value="0.3718491517" flag="0"/>
      <psa10 value="0.5111113548" flag="0"/>
      <psa30 value="0.0545024873" flag="0"/>
    </comp>
    <comp name="--.HNZ">
      <acc value="0.1290462105" flag="0"/>
      <vel value="0.1330041505" flag="0"/>
      <psa03 value="0.3112158086" flag="0"/>
      <psa10 value="0.3444840382" flag="0"/>
      <psa30 value="0.0366205998" flag="0"/>
    </comp>
  </station>
  <station code="KSS1" name="KSS1" netid="HI" insttype="CMG-5TD,ACCELEROMETER,GURALP" commtype="DIG" lat="35.4189" lon="26.9207">
    <comp name="--.HNE">
      <acc value="0.0137855733" flag="0"/>
      <vel value="0.0138777750" flag="0"/>
      <psa03 value="0.0553098372" flag="0"/>
      <psa10 value="0.0110171460" flag="0"/>
      <psa30 value="0.0064266155" flag="0"/>
    </comp>
    <comp name="--.HNN">
      <acc value="0.0268431964" flag="0"/>
      <vel value="0.0157759620" flag="0"/>
      <psa03 value="0.1108486375" flag="0"/>
      <psa10 value="0.0165850251" flag="0"/>
      <psa30 value="0.0046545369" flag="0"/>
    </comp>
    <comp name="--.HNZ">
      <acc value="0.0095811907" flag="0"/>
      <vel value="0.0073176603" flag="0"/>
      <psa03 value="0.0257159975" flag="0"/>
      <psa10 value="0.0131058489" flag="0"/>
      <psa30 value="0.0057392924" flag="0"/>
    </comp>
  </station>
  <station code="SIT2" name="SIT2" netid="HI" insttype="CMG-5TD,ACCELEROMETER,GURALP" commtype="DIG" lat="35.2059" lon="26.107">
    <comp name="--.HNN">
      <acc value="1.1149473551" flag="0"/>
      <vel value="0.8270204063" flag="0"/>
      <psa03 value="2.7070854345" flag="0"/>
      <psa10 value="0.4647671607" flag="0"/>
      <psa30 value="0.0361684411" flag="0"/>
    </comp>
    <comp name="--.HNE">
      <acc value="0.7717782643" flag="0"/>
      <vel value="0.5401106965" flag="0"/>
      <psa03 value="1.7342967518" flag="0"/>
      <psa10 value="0.5699444795" flag="0"/>
      <psa30 value="0.0299903874" flag="0"/>
    </comp>
    <comp name="--.HNZ">
      <acc value="0.6482168551" flag="0"/>
      <vel value="0.2989922097" flag="0"/>
      <psa03 value="1.4998769020" flag="0"/>
      <psa10 value="0.1083251805" flag="0"/>
      <psa30 value="0.0180536342" flag="0"/>
    </comp>
  </station>
  <station code="HERG" name="HERG" netid="HL" insttype="CMG-5" commtype="DIG" lat="35.3262" lon="25.0659">
    <comp name="00.HNE">
      <acc value="0.1006074789" flag="0"/>
      <vel value="0.1941118135" flag="0"/>
      <psa03 value="0.2099183710" flag="0"/>
      <psa10 value="0.2828649170" flag="0"/>
      <psa30 value="0.0557854638" flag="0"/>
    </comp>
    <comp name="00.HNN">
      <acc value="0.1094529660" flag="0"/>
      <vel value="0.2172062356" flag="0"/>
      <psa03 value="0.3529132023" flag="0"/>
      <psa10 value="0.2689819267" flag="0"/>
      <psa30 value="0.0360315679" flag="0"/>
    </comp>
    <comp name="00.HNZ">
      <acc value="0.0964575967" flag="0"/>
      <vel value="0.0839510018" flag="0"/>
      <psa03 value="0.1957966425" flag="0"/>
      <psa10 value="0.1017211706" flag="0"/>
      <psa30 value="0.0320923674" flag="0"/>
    </comp>
  </station>
  <station code="IACM" name="IACM" netid="HL" insttype="120" commtype="DIG" lat="35.3058" lon="25.0709">
    <comp name="--.HHE">
      <acc value="0.2230961450" flag="0"/>
      <vel value="0.2604352789" flag="0"/>
      <psa03 value="0.8776039153" flag="0"/>
      <psa10 value="0.5885804250" flag="0"/>
      <psa30 value="0.0525709491" flag="0"/>
    </comp>
    <comp name="--.HHN">
      <acc value="0.1712243102" flag="0"/>
      <vel value="0.2581730956" flag="0"/>
      <psa03 value="0.4800701157" flag="0"/>
      <psa10 value="0.3292385759" flag="0"/>
      <psa30 value="0.0607317301" flag="0"/>
    </comp>
    <comp name="--.HHZ">
      <acc value="0.0985689107" flag="0"/>
      <vel value="0.0761895225" flag="0"/>
      <psa03 value="0.2974857108" flag="0"/>
      <psa10 value="0.1045479078" flag="0"/>
      <psa30 value="0.0281697973" flag="0"/>
    </comp>
  </station>
  <station code="IDI" name="IDI" netid="HL" insttype="120" commtype="DIG" lat="35.288" lon="24.89">
    <comp name="--.HHZ">
      <acc value="0.0203025483" flag="0"/>
      <vel value="0.0203049884" flag="0"/>
      <psa03 value="0.0558453940" flag="0"/>
      <psa10 value="0.0199706391" flag="0"/>
      <psa30 value="0.0126853756" flag="0"/>
    </comp>
    <comp name="--.HHN">
      <acc value="0.0245523589" flag="0"/>
      <vel value="0.0276249634" flag="0"/>
      <psa03 value="0.0816408684" flag="0"/>
      <psa10 value="0.0274406640" flag="0"/>
      <psa30 value="0.0100286112" flag="0"/>
    </comp>
    <comp name="--.HHE">
      <acc value="0.0199120147" flag="0"/>
      <vel value="0.0147064076" flag="0"/>
      <psa03 value="0.0631149535" flag="0"/>
      <psa10 value="0.0185196558" flag="0"/>
      <psa30 value="0.0096221875" flag="0"/>
    </comp>
  </station>
  <station code="KARP" name="KARP" netid="HL" insttype="120" commtype="DIG" lat="35.5471" lon="27.1611">
    <comp name="--.HHZ">
      <acc value="0.0116866576" flag="0"/>
      <vel value="0.0089914911" flag="0"/>
      <psa03 value="0.0340998773" flag="0"/>
      <psa10 value="0.0219928015" flag="0"/>
      <psa30 value="0.0021377248" flag="0"/>
    </comp>
    <comp name="--.HHE">
      <acc value="0.0052488961" flag="0"/>
      <vel value="0.0014878918" flag="0"/>
      <psa03 value="0.0042473451" flag="0"/>
      <psa10 value="0.0004452989" flag="0"/>
      <psa30 value="0.0000493258" flag="0"/>
    </comp>
    <comp name="--.HHN">
      <acc value="0.0202459051" flag="0"/>
      <vel value="0.0159525732" flag="0"/>
      <psa03 value="0.0403754969" flag="0"/>
      <psa10 value="0.0324734811" flag="0"/>
      <psa30 value="0.0024342331" flag="0"/>
    </comp>
  </station>
  <station code="SIVA" name="SIVA" netid="HL" insttype="60" commtype="DIG" lat="35.0178" lon="24.812">
    <comp name="--.HHZ">
      <acc value="0.0377159475" flag="0"/>
      <vel value="0.0262264782" flag="0"/>
      <psa03 value="0.1114011028" flag="0"/>
      <psa10 value="0.0391844072" flag="0"/>
      <psa30 value="0.0071687079" flag="0"/>
    </comp>
    <comp name="--.HHN">
      <acc value="0.0562858978" flag="0"/>
      <vel value="0.0519305511" flag="0"/>
      <psa03 value="0.1822860981" flag="0"/>
      <psa10 value="0.0745700196" flag="0"/>
      <psa30 value="0.0068732389" flag="0"/>
    </comp>
    <comp name="--.HHE">
      <acc value="0.0862645532" flag="0"/>
      <vel value="0.0506262877" flag="0"/>
      <psa03 value="0.2971045303" flag="0"/>
      <psa10 value="0.0478620668" flag="0"/>
      <psa30 value="0.0109860599" flag="0"/>
    </comp>
  </station>
  <station code="IDI" name="IDI" netid="MN" insttype="" commtype="DIG" lat="35.288" lon="24.89">
    <comp name="--.HHN">
      <acc value="0.0222200572" flag="0"/>
      <vel value="0.0245692163" flag="0"/>
      <psa03 value="0.0742804915" flag="0"/>
      <psa10 value="0.0244488629" flag="0"/>
      <psa30 value="0.0088936827" flag="0"/>
    </comp>
    <comp name="--.HHZ">
      <acc value="0.0184081685" flag="0"/>
      <vel value="0.0180534647" flag="0"/>
      <psa03 value="0.0507312836" flag="0"/>
      <psa10 value="0.0177592286" flag="0"/>
      <psa30 value="0.0112485323" flag="0"/>
    </comp>
    <comp name="--.HHE">
      <acc value="0.0185346762" flag="0"/>
      <vel value="0.0131195847" flag="0"/>
      <psa03 value="0.0570502259" flag="0"/>
      <psa10 value="0.0164848704" flag="0"/>
      <psa30 value="0.0085327036" flag="0"/>
    </comp>
  </station>
</stationlist>
