<?xml version="1.0" encoding="UTF-8" standalone="yes"?>
<!DOCTYPE earthquake SYSTEM "stationlist.dtd">
<stationlist created="" xmlns="ch.ethz.sed.shakemap.usgs.xml">
  <station code="ZKR" name="ZKR" netid="GE" insttype="STS-2/N" commtype="DIG" lat="35.1147" lon="26.2169">
    <comp name="--.HHE">
      <acc value="0.2142892004" flag="0"/>
      <vel value="0.1170701138" flag="0"/>
      <psa03 value="0.7785736297" flag="0"/>
      <psa10 value="0.1541077780" flag="0"/>
      <psa30 value="0.0194769735" flag="0"/>
    </comp>
    <comp name="--.HHZ">
      <acc value="0.2047324460" flag="0"/>
      <vel value="0.0905562226" flag="0"/>
      <psa03 value="0.3617368344" flag="0"/>
      <psa10 value="0.0743759350" flag="0"/>
      <psa30 value="0.0201435317" flag="0"/>
    </comp>
    <comp name="--.HHN">
      <acc value="0.1221408325" flag="0"/>
      <vel value="0.0641763442" flag="0"/>
      <psa03 value="0.3783130698" flag="0"/>
      <psa10 value="0.0627931951" flag="0"/>
      <psa30 value="0.0109334617" flag="0"/>
    </comp>
  </station>
  <station code="PFKS" name="PFKS" netid="HC" insttype="120" commtype="DIG" lat="35.0429" lon="25.4733">
    <comp name="--.HHN">
      <acc value="0.6003854944" flag="0"/>
      <vel value="0.3142517144" flag="0"/>
      <psa03 value="1.4710284525" flag="0"/>
      <psa10 value="0.2424172911" flag="0"/>
      <psa30 value="0.0248523793" flag="0"/>
    </comp>
    <comp name="--.HHZ">
      <acc value="0.2879544257" flag="0"/>
      <vel value="0.1273375877" flag="0"/>
      <psa03 value="0.7600442866" flag="0"/>
      <psa10 value="0.0865743777" flag="0"/>
      <psa30 value="0.0319559717" flag="0"/>
    </comp>
    <comp name="--.HHE">
      <acc value="0.5724550770" flag="0"/>
      <vel value="0.3606033217" flag="0"/>
      <psa03 value="2.4987104351" flag="0"/>
      <psa10 value="0.1735627116" flag="0"/>
      <psa30 value="0.0260418673" flag="0"/>
    </comp>
  </station>
  <station code="STIA" name="STIA" netid="HC" insttype="120" commtype="DIG" lat="35.2021" lon="26.0909">
    <comp name="--.HHN">
      <acc value="0.4049808424" flag="0"/>
      <vel value="0.2094854932" flag="0"/>
      <psa03 value="0.7927873450" flag="0"/>
      <psa10 value="0.1783712504" flag="0"/>
      <psa30 value="0.0339148238" flag="0"/>
    </comp>
    <comp name="--.HHZ">
      <acc value="0.3643638582" flag="0"/>
      <vel value="0.1699211805" flag="0"/>
      <psa03 value="0.6402439359" flag="0"/>
      <psa10 value="0.1258179808" flag="0"/>
      <psa30 value="0.0224516123" flag="0"/>
    </comp>
    <comp name="--.HHE">
      <acc value="0.5051100993" flag="0"/>
      <vel value="0.2128305400" flag="0"/>
      <psa03 value="0.8620342384" flag="0"/>
      <psa10 value="0.2110864080" flag="0"/>
      <psa30 value="0.0265346298" flag="0"/>
    </comp>
  </station>
  <station code="AGN1" name="AGN1" netid="HI" insttype="unknown" commtype="DIG" lat="35.1879" lon="25.7155">
    <comp name="--.HNZ">
      <acc value="0.1181594241" flag="0"/>
      <vel value="0.0722910010" flag="0"/>
      <psa03 value="0.1519606724" flag="0"/>
      <psa10 value="0.0700803379" flag="0"/>
      <psa30 value="0.0592985493" flag="0"/>
    </comp>
    <comp name="--.HNE">
      <acc value="0.0010623987" flag="0"/>
      <vel value="0.0012906129" flag="0"/>
      <psa03 value="0.0015446926" flag="0"/>
      <psa10 value="0.0008977573" flag="0"/>
      <psa30 value="0.0004205586" flag="0"/>
    </comp>
    <comp name="--.HNN">
      <acc value="0.4531509736" flag="0"/>
      <vel value="0.1495246916" flag="0"/>
      <psa03 value="0.6341880286" flag="0"/>
      <psa10 value="0.0824288976" flag="0"/>
      <psa30 value="0.0827695461" flag="0"/>
    </comp>
  </station>
  <station code="ARK1" name="ARK1" netid="HI" insttype="unknown" commtype="DIG" lat="35.1488" lon="25.2642">
    <comp name="--.HNE">
      <acc value="0.1319025146" flag="0"/>
      <vel value="0.1433430256" flag="0"/>
      <psa03 value="0.5090383817" flag="0"/>
      <psa10 value="0.2033033899" flag="0"/>
      <psa30 value="0.0916567483" flag="0"/>
    </comp>
    <comp name="--.HNN">
      <acc value="0.1543183602" flag="0"/>
      <vel value="0.2251297628" flag="0"/>
      <psa03 value="0.5781923801" flag="0"/>
      <psa10 value="0.2251252040" flag="0"/>
      <psa30 value="0.0750976577" flag="0"/>
    </comp>
    <comp name="--.HNZ">
      <acc value="0.1189280034" flag="0"/>
      <vel value="0.0894412646" flag="0"/>
      <psa03 value="0.2610718393" flag="0"/>
      <psa10 value="0.1421041176" flag="0"/>
      <psa30 value="0.0378754960" flag="0"/>
    </comp>
  </station>
  <station code="GOR1" name="GOR1" netid="HI" insttype="unknown" commtype="DIG" lat="35.0582" lon="24.9628">
    <comp name="--.HNZ">
      <acc value="0.0773536926" flag="0"/>
      <vel value="0.0600342637" flag="0"/>
      <psa03 value="0.1675459177" flag="0"/>
      <psa10 value="0.0834016652" flag="0"/>
      <psa30 value="0.0251244056" flag="0"/>
    </comp>
  </station>
  <station code="HER1" name="HER1" netid="HI" insttype="unknown" commtype="DIG" lat="35.3177" lon="25.1022">
    <comp name="--.HNN">
      <acc value="0.1423122523" flag="0"/>
      <vel value="0.2709545090" flag="0"/>
      <psa03 value="0.3711083523" flag="0"/>
      <psa10 value="0.5121823618" flag="0"/>
      <psa30 value="0.0592589790" flag="0"/>
    </comp>
    <comp name="--.HNE">
      <acc value="0.2004016639" flag="0"/>
      <vel value="0.3131347330" flag="0"/>
      <psa03 value="0.3398153276" flag="0"/>
      <psa10 value="0.4116164344" flag="0"/>
      <psa30 value="0.0682435794" flag="0"/>
    </comp>
    <comp name="--.HNZ">
      <acc value="0.1303755264" flag="0"/>
      <vel value="0.1374855104" flag="0"/>
      <psa03 value="0.3102234478" flag="0"/>
      <psa10 value="0.3447751894" flag="0"/>
      <psa30 value="0.0415272310" flag="0"/>
    </comp>
  </station>
  <station code="SIT2" name="SIT2" netid="HI" insttype="CMG-5TD,ACCELEROMETER,GURALP" commtype="DIG" lat="35.2059" lon="26.107">
    <comp name="--.HNN">
      <acc value="1.1152007210" flag="0"/>
      <vel value="0.8352778448" flag="0"/>
      <psa03 value="2.7072715390" flag="0"/>
      <psa10 value="0.4649145067" flag="0"/>
      <psa30 value="0.0378630761" flag="0"/>
    </comp>
    <comp name="--.HNZ">
      <acc value="0.6482627011" flag="0"/>
      <vel value="0.2991456094" flag="0"/>
      <psa03 value="1.4998538854" flag="0"/>
      <psa10 value="0.1078456499" flag="0"/>
      <psa30 value="0.0202061140" flag="0"/>
    </comp>
    <comp name="--.HNE">
      <acc value="0.7707498566" flag="0"/>
      <vel value="0.5561037931" flag="0"/>
      <psa03 value="1.7333017292" flag="0"/>
      <psa10 value="0.5720792057" flag="0"/>
      <psa30 value="0.0357626065" flag="0"/>
    </comp>
  </station>
  <station code="HERG" name="HERG" netid="HL" insttype="CMG-5" commtype="DIG" lat="35.3262" lon="25.0659">
    <comp name="00.HNZ">
      <acc value="0.0968461612" flag="0"/>
      <vel value="0.0856694309" flag="0"/>
      <psa03 value="0.1958691897" flag="0"/>
      <psa10 value="0.1016040785" flag="0"/>
      <psa30 value="0.0360779767" flag="0"/>
    </comp>
    <comp name="00.HNE">
      <acc value="0.1008836078" flag="0"/>
      <vel value="0.2019005118" flag="0"/>
      <psa03 value="0.2100107746" flag="0"/>
      <psa10 value="0.2838491946" flag="0"/>
      <psa30 value="0.0626328787" flag="0"/>
    </comp>
    <comp name="00.HNN">
      <acc value="0.1094486270" flag="0"/>
      <vel value="0.2286345282" flag="0"/>
      <psa03 value="0.3534363896" flag="0"/>
      <psa10 value="0.2688256560" flag="0"/>
      <psa30 value="0.0396093962" flag="0"/>
    </comp>
  </station>
  <station code="IACM" name="IACM" netid="HL" insttype="120" commtype="DIG" lat="35.3058" lon="25.0709">
    <comp name="--.HHE">
      <acc value="0.2241901668" flag="0"/>
      <vel value="0.2636646374" flag="0"/>
      <psa03 value="0.8762844389" flag="0"/>
      <psa10 value="0.5870016794" flag="0"/>
      <psa30 value="0.0580417576" flag="0"/>
    </comp>
    <comp name="--.HHN">
      <acc value="0.1706844353" flag="0"/>
      <vel value="0.2739369428" flag="0"/>
      <psa03 value="0.4806608244" flag="0"/>
      <psa10 value="0.3282953501" flag="0"/>
      <psa30 value="0.0696692305" flag="0"/>
    </comp>
    <comp name="--.HHZ">
      <acc value="0.0985028204" flag="0"/>
      <vel value="0.0816374913" flag="0"/>
      <psa03 value="0.2972118514" flag="0"/>
      <psa10 value="0.1049989746" flag="0"/>
      <psa30 value="0.0316680195" flag="0"/>
    </comp>
  </station>
  <station code="IDI" name="IDI" netid="HL" insttype="120" commtype="DIG" lat="35.288" lon="24.89">
    <comp name="--.HHE">
      <acc value="0.0202270699" flag="0"/>
      <vel value="0.0184844108" flag="0"/>
      <psa03 value="0.0634358854" flag="0"/>
      <psa10 value="0.0191692394" flag="0"/>
      <psa30 value="0.0109072075" flag="0"/>
    </comp>
    <comp name="--.HHN">
      <acc value="0.0240771233" flag="0"/>
      <vel value="0.0349013857" flag="0"/>
      <psa03 value="0.0817071621" flag="0"/>
      <psa10 value="0.0275798215" flag="0"/>
      <psa30 value="0.0125311851" flag="0"/>
    </comp>
    <comp name="--.HHZ">
      <acc value="0.0204416383" flag="0"/>
      <vel value="0.0244883280" flag="0"/>
      <psa03 value="0.0560215814" flag="0"/>
      <psa10 value="0.0207745197" flag="0"/>
      <psa30 value="0.0147637433" flag="0"/>
    </comp>
  </station>
  <station code="KARP" name="KARP" netid="HL" insttype="120" commtype="DIG" lat="35.5471" lon="27.1611">
    <comp name="--.HHE">
      <acc value="0.0228037728" flag="0"/>
      <vel value="0.0179977823" flag="0"/>
      <psa03 value="0.0317577720" flag="0"/>
      <psa10 value="0.0310129776" flag="0"/>
      <psa30 value="0.0031385510" flag="0"/>
    </comp>
    <comp name="--.HHN">
      <acc value="0.0202032176" flag="0"/>
      <vel value="0.0175284600" flag="0"/>
      <psa03 value="0.0403028958" flag="0"/>
      <psa10 value="0.0323405295" flag="0"/>
      <psa30 value="0.0037862501" flag="0"/>
    </comp>
    <comp name="--.HHZ">
      <acc value="0.0117334510" flag="0"/>
      <vel value="0.0097873683" flag="0"/>
      <psa03 value="0.0341218095" flag="0"/>
      <psa10 value="0.0220268208" flag="0"/>
      <psa30 value="0.0026130635" flag="0"/>
    </comp>
  </station>
  <station code="SIVA" name="SIVA" netid="HL" insttype="60" commtype="DIG" lat="35.0178" lon="24.812">
    <comp name="--.HHN">
      <acc value="0.0566955026" flag="0"/>
      <vel value="0.0575125153" flag="0"/>
      <psa03 value="0.1822834181" flag="0"/>
      <psa10 value="0.0739022515" flag="0"/>
      <psa30 value="0.0103073130" flag="0"/>
    </comp>
    <comp name="--.HHZ">
      <acc value="0.0375119328" flag="0"/>
      <vel value="0.0262789885" flag="0"/>
      <psa03 value="0.1115842395" flag="0"/>
      <psa10 value="0.0393518601" flag="0"/>
      <psa30 value="0.0083848282" flag="0"/>
    </comp>
    <comp name="--.HHE">
      <acc value="0.0863160579" flag="0"/>
      <vel value="0.0532899737" flag="0"/>
      <psa03 value="0.2968073291" flag="0"/>
      <psa10 value="0.0478022314" flag="0"/>
      <psa30 value="0.0136315418" flag="0"/>
    </comp>
  </station>
  <station code="THERA" name="THERA" netid="HL" insttype="DC" commtype="DIG" lat="36.367" lon="25.4753">
    <comp name="00.HNE">
      <acc value="0.0174763974" flag="0"/>
      <vel value="0.0172796157" flag="0"/>
      <psa03 value="0.0489003915" flag="0"/>
      <psa10 value="0.0129159733" flag="0"/>
      <psa30 value="0.0064856142" flag="0"/>
    </comp>
    <comp name="00.HNN">
      <acc value="0.0213360596" flag="0"/>
      <vel value="0.0106219704" flag="0"/>
      <psa03 value="0.0808174641" flag="0"/>
      <psa10 value="0.0093772730" flag="0"/>
      <psa30 value="0.0048907037" flag="0"/>
    </comp>
  </station>
  <station code="AKRO" name="AKRO" netid="HT" insttype="Compact," commtype="DIG" lat="36.3584" lon="25.3967">
    <comp name="--.HHN">
      <acc value="0.0389760205" flag="0"/>
      <vel value="0.0330340185" flag="0"/>
      <psa03 value="0.1184844012" flag="0"/>
      <psa10 value="0.0603897350" flag="0"/>
      <psa30 value="0.0170686525" flag="0"/>
    </comp>
  </station>
  <station code="GVRL" name="GVRL" netid="HT" insttype="" commtype="DIG" lat="36.3456" lon="25.4383">
    <comp name="--.HHZ">
      <acc value="0.0078505746" flag="0"/>
      <vel value="0.0039544514" flag="0"/>
      <psa03 value="0.0163678940" flag="0"/>
      <psa10 value="0.0063101771" flag="0"/>
      <psa30 value="0.0009289617" flag="0"/>
    </comp>
    <comp name="--.HHN">
      <acc value="0.0093716013" flag="0"/>
      <vel value="0.0081147574" flag="0"/>
      <psa03 value="0.0428184809" flag="0"/>
      <psa10 value="0.0089656678" flag="0"/>
      <psa30 value="0.0048231469" flag="0"/>
    </comp>
    <comp name="--.HHE">
      <acc value="0.0267947167" flag="0"/>
      <vel value="0.0197481914" flag="0"/>
      <psa03 value="0.0812425972" flag="0"/>
      <psa10 value="0.0171455061" flag="0"/>
      <psa30 value="0.0062645264" flag="0"/>
    </comp>
  </station>
  <station code="THR8" name="THR8" netid="HT" insttype="" commtype="DIG" lat="36.407" lon="25.4788">
    <comp name="--.HHN">
      <acc value="0.0081185018" flag="0"/>
      <vel value="0.0091559218" flag="0"/>
      <psa03 value="0.0199405908" flag="0"/>
      <psa10 value="0.0118330656" flag="0"/>
      <psa30 value="0.0032783215" flag="0"/>
    </comp>
    <comp name="--.HHE">
      <acc value="0.0094429385" flag="0"/>
      <vel value="0.0144735253" flag="0"/>
      <psa03 value="0.0281104424" flag="0"/>
      <psa10 value="0.0131702940" flag="0"/>
      <psa30 value="0.0059265370" flag="0"/>
    </comp>
    <comp name="--.HHZ">
      <acc value="0.0036039461" flag="0"/>
      <vel value="0.0032288702" flag="0"/>
      <psa03 value="0.0071237405" flag="0"/>
      <psa10 value="0.0053495524" flag="0"/>
      <psa30 value="0.0006283000" flag="0"/>
    </comp>
  </station>
  <station code="IDI" name="IDI" netid="MN" insttype="" commtype="DIG" lat="35.288" lon="24.89">
    <comp name="--.HHZ">
      <acc value="0.0185315377" flag="0"/>
      <vel value="0.0217761362" flag="0"/>
      <psa03 value="0.0508867090" flag="0"/>
      <psa10 value="0.0184706417" flag="0"/>
      <psa30 value="0.0130929026" flag="0"/>
    </comp>
    <comp name="--.HHE">
      <acc value="0.0188146572" flag="0"/>
      <vel value="0.0164689264" flag="0"/>
      <psa03 value="0.0573342490" flag="0"/>
      <psa10 value="0.0170651992" flag="0"/>
      <psa30 value="0.0096731802" flag="0"/>
    </comp>
  </station>
</stationlist>
