<stationlist created="1777341325">
	<station code="ATEI" name="ATEI" netid="HC" source="Seismological Network of Crete (HC)" insttype="" lat="35.5193" lon="24.0432">
		<comp name="--.HNE" depth="0.0">
			<acc value="0.0139535639877464" flag="0"/>
			<vel value="0.0229340422167938" flag="0"/>
			<psa03 value="0.0229403660408314" flag="0"/>
			<psa10 value="0.0289451899767803" flag="0"/>
			<psa30 value="0.0149000387211063" flag="0"/>
		</comp>
		<comp name="--.HNN" depth="0.0">
			<acc value="0.0154462327454663" flag="0"/>
			<vel value="0.046732196764312" flag="0"/>
			<psa03 value="0.0289774795116369" flag="0"/>
			<psa10 value="0.045156148873248" flag="0"/>
			<psa30 value="0.0179333963328278" flag="0"/>
		</comp>
		<comp name="--.HNZ" depth="0.0">
			<acc value="0.00914226144352374" flag="0"/>
			<vel value="0.0170998125996119" flag="0"/>
			<psa03 value="0.0171292336859991" flag="0"/>
			<psa10 value="0.0202945125368553" flag="0"/>
			<psa30 value="0.00807856266512903" flag="0"/>
		</comp>
	</station>
	<station code="G0LD" name="G0LD" netid="HC" source="Seismological Network of Crete (HC)" insttype="" lat="35.4955" lon="24.0306">
		<comp name="--.HNE" depth="0.0">
			<acc value="0.00216017750661657" flag="0"/>
			<vel value="0.0030725713403519" flag="0"/>
			<psa03 value="0.00192151384685164" flag="0"/>
			<psa10 value="0.00214781462592804" flag="0"/>
			<psa30 value="0.00167544869858694" flag="0"/>
		</comp>
		<comp name="--.HNN" depth="0.0">
			<acc value="0.00246208684328556" flag="0"/>
			<vel value="0.00207179537081305" flag="0"/>
			<psa03 value="0.001662578236607" flag="0"/>
			<psa10 value="0.0016683598956552" flag="0"/>
			<psa30 value="0.00141715283775381" flag="0"/>
		</comp>
		<comp name="--.HNZ" depth="0.0">
			<acc value="0.00401024900917227" flag="0"/>
			<vel value="0.00349926510865117" flag="0"/>
			<psa03 value="0.00290939911362102" flag="0"/>
			<psa10 value="0.00192796299152374" flag="0"/>
			<psa30 value="0.0016133229163921" flag="0"/>
		</comp>
	</station>
	<station code="MULT" name="MULT" netid="HC" source="Seismological Network of Crete (HC)" insttype="" lat="35.5091" lon="24.0118">
		<comp name="--.HNE" depth="0.0">
			<acc value="0.00201908494676374" flag="0"/>
			<vel value="0.00306882302678274" flag="0"/>
			<psa03 value="0.00131672923531321" flag="0"/>
			<psa10 value="0.00117597524633868" flag="0"/>
			<psa30 value="0.0011629239130019" flag="0"/>
		</comp>
		<comp name="--.HNN" depth="0.0">
			<acc value="0.00202207157342856" flag="0"/>
			<vel value="0.00341808294130161" flag="0"/>
			<psa03 value="0.00142651246820006" flag="0"/>
			<psa10 value="0.00124496903558862" flag="0"/>
			<psa30 value="0.000959840668066939" flag="0"/>
		</comp>
		<comp name="--.HNZ" depth="0.0">
			<acc value="0.00282462063664586" flag="0"/>
			<vel value="0.00875542958775908" flag="0"/>
			<psa03 value="0.00282022328428498" flag="0"/>
			<psa10 value="0.00318231315637863" flag="0"/>
			<psa30 value="0.00234818555576877" flag="0"/>
		</comp>
	</station>
	<station code="TEFL" name="TEFL" netid="HC" source="Seismological Network of Crete (HC)" insttype="" lat="35.093273" lon="25.163418">
		<comp name="--.HNE" depth="0.0">
			<acc value="0.35890257311213" flag="0"/>
			<vel value="0.256874077229657" flag="0"/>
			<psa03 value="0.98356107276067" flag="0"/>
			<psa10 value="0.342248662294208" flag="0"/>
			<psa30 value="0.0899537923306049" flag="0"/>
		</comp>
		<comp name="--.HNN" depth="0.0">
			<acc value="0.267811759518161" flag="0"/>
			<vel value="0.211178902708815" flag="0"/>
			<psa03 value="0.909107390569624" flag="0"/>
			<psa10 value="0.174475688158058" flag="0"/>
			<psa30 value="0.0845874435029984" flag="0"/>
		</comp>
		<comp name="--.HNZ" depth="0.0">
			<acc value="0.285668152037699" flag="0"/>
			<vel value="0.212883954001425" flag="0"/>
			<psa03 value="0.642482019613994" flag="0"/>
			<psa10 value="0.154320187955088" flag="0"/>
			<psa30 value="0.0777488438126644" flag="0"/>
		</comp>
	</station>
	<station code="AGN1" name="AGN1" netid="HI" source="ITSAK Strong Motion Network" insttype="" lat="35.1879" lon="25.7155">
		<comp name="--.HNE" depth="0.0">
			<acc value="0.00113127597888178" flag="0"/>
			<vel value="0.00218359561794173" flag="0"/>
			<psa03 value="0.00161912044237683" flag="0"/>
			<psa10 value="0.000981211367625069" flag="0"/>
			<psa30 value="0.000522599098792178" flag="0"/>
		</comp>
		<comp name="--.HNN" depth="0.0">
			<acc value="0.452431737661816" flag="0"/>
			<vel value="0.150548078225979" flag="0"/>
			<psa03 value="0.654799377245154" flag="0"/>
			<psa10 value="0.082557954059283" flag="0"/>
			<psa30 value="0.0830791835881812" flag="0"/>
		</comp>
		<comp name="--.HNZ" depth="0.0">
			<acc value="0.119112454943006" flag="0"/>
			<vel value="0.0732779212143014" flag="0"/>
			<psa03 value="0.154924919265569" flag="0"/>
			<psa10 value="0.0699892439439219" flag="0"/>
			<psa30 value="0.0592178495585738" flag="0"/>
		</comp>
	</station>
	<station code="ARK1" name="ARK1" netid="HI" source="ITSAK Strong Motion Network" insttype="" lat="35.148777" lon="25.264194">
		<comp name="--.HNE" depth="0.0">
			<acc value="0.13199400540298" flag="0"/>
			<vel value="0.150567344614481" flag="0"/>
			<psa03 value="0.513463306090748" flag="0"/>
			<psa10 value="0.204467639977673" flag="0"/>
			<psa30 value="0.0917420974637101" flag="0"/>
		</comp>
		<comp name="--.HNN" depth="0.0">
			<acc value="0.15585613741307" flag="0"/>
			<vel value="0.237778010158143" flag="0"/>
			<psa03 value="0.578958603166078" flag="0"/>
			<psa10 value="0.225732538672849" flag="0"/>
			<psa30 value="0.0750679395492474" flag="0"/>
		</comp>
		<comp name="--.HNZ" depth="0.0">
			<acc value="0.119191063187818" flag="0"/>
			<vel value="0.0891238797425961" flag="0"/>
			<psa03 value="0.268820912232797" flag="0"/>
			<psa10 value="0.142258923955541" flag="0"/>
			<psa30 value="0.0380267890881513" flag="0"/>
		</comp>
	</station>
	<station code="CH01" name="CH01" netid="HI" source="ITSAK Strong Motion Network" insttype="" lat="35.517" lon="24.0208">
		<comp name="--.HNE" depth="0.0">
			<acc value="0.0171202590465229" flag="0"/>
			<vel value="0.0455239319551951" flag="0"/>
			<psa03 value="0.0338855702735622" flag="0"/>
			<psa10 value="0.0362694739246461" flag="0"/>
			<psa30 value="0.0186867679066639" flag="0"/>
		</comp>
		<comp name="--.HNN" depth="0.0">
			<acc value="0.0271252556466567" flag="0"/>
			<vel value="0.0719619023698222" flag="0"/>
			<psa03 value="0.0436239679987846" flag="0"/>
			<psa10 value="0.0493014972322324" flag="0"/>
			<psa30 value="0.0271926513796993" flag="0"/>
		</comp>
		<comp name="--.HNZ" depth="0.0">
			<acc value="0.0121816245647662" flag="0"/>
			<vel value="0.0243847451724594" flag="0"/>
			<psa03 value="0.0190641691576446" flag="0"/>
			<psa10 value="0.0348041506041676" flag="0"/>
			<psa30 value="0.0112416447037905" flag="0"/>
		</comp>
	</station>
	<station code="CH02" name="CH02" netid="HI" source="ITSAK Strong Motion Network" insttype="" lat="35.5145" lon="24.0315">
		<comp name="--.HNE" depth="0.0">
			<acc value="0.0142857889006011" flag="0"/>
			<vel value="0.0414411613469167" flag="0"/>
			<psa03 value="0.0477580179009684" flag="0"/>
			<psa10 value="0.0416477877115391" flag="0"/>
			<psa30 value="0.017947467264958" flag="0"/>
		</comp>
		<comp name="--.HNN" depth="0.0">
			<acc value="0.0203941059650711" flag="0"/>
			<vel value="0.0594219428333108" flag="0"/>
			<psa03 value="0.035979432940021" flag="0"/>
			<psa10 value="0.0368862960360838" flag="0"/>
			<psa30 value="0.0232139794788788" flag="0"/>
		</comp>
		<comp name="--.HNZ" depth="0.0">
			<acc value="0.00927096600808032" flag="0"/>
			<vel value="0.0167810089830033" flag="0"/>
			<psa03 value="0.0199623757948428" flag="0"/>
			<psa10 value="0.0283371078193217" flag="0"/>
			<psa30 value="0.00843388537018108" flag="0"/>
		</comp>
	</station>
	<station code="CH03" name="CH03" netid="HI" source="ITSAK Strong Motion Network" insttype="" lat="35.53303" lon="24.0705">
		<comp name="--.HNE" depth="0.0">
			<acc value="0.0177866097919199" flag="0"/>
			<vel value="0.0279775742616612" flag="0"/>
			<psa03 value="0.0232454617727596" flag="0"/>
			<psa10 value="0.0331326536256961" flag="0"/>
			<psa30 value="0.0118247883341941" flag="0"/>
		</comp>
		<comp name="--.HNN" depth="0.0">
			<acc value="0.0189496970518798" flag="0"/>
			<vel value="0.0332665807012408" flag="0"/>
			<psa03 value="0.0327368978254832" flag="0"/>
			<psa10 value="0.0288679536102501" flag="0"/>
			<psa30 value="0.00837203710637047" flag="0"/>
		</comp>
		<comp name="--.HNZ" depth="0.0">
			<acc value="0.00916852249108143" flag="0"/>
			<vel value="0.0122377546181329" flag="0"/>
			<psa03 value="0.0251662608912744" flag="0"/>
			<psa10 value="0.0174790660273415" flag="0"/>
			<psa30 value="0.00735889332390046" flag="0"/>
		</comp>
	</station>
	<station code="GOR1" name="GOR1" netid="HI" source="ITSAK Strong Motion Network" insttype="" lat="35.0582" lon="24.9628">
		<comp name="--.HNE" depth="0.0">
			<acc value="0.0742145377886719" flag="0"/>
			<vel value="0.117417254385102" flag="0"/>
			<psa03 value="0.220329408241975" flag="0"/>
			<psa10 value="0.132359228149279" flag="0"/>
			<psa30 value="0.0375775893308719" flag="0"/>
		</comp>
		<comp name="--.HNN" depth="0.0">
			<acc value="0.0571422974123495" flag="0"/>
			<vel value="0.119169667965033" flag="0"/>
			<psa03 value="0.282292638001847" flag="0"/>
			<psa10 value="0.110046465038229" flag="0"/>
			<psa30 value="0.0550866125510637" flag="0"/>
		</comp>
		<comp name="--.HNZ" depth="0.0">
			<acc value="0.0770282409429902" flag="0"/>
			<vel value="0.0610694717848765" flag="0"/>
			<psa03 value="0.165403113394506" flag="0"/>
			<psa10 value="0.0834741097501012" flag="0"/>
			<psa30 value="0.025638995124264" flag="0"/>
		</comp>
	</station>
	<station code="HER1" name="HER1" netid="HI" source="ITSAK Strong Motion Network" insttype="" lat="35.317672" lon="25.10217">
		<comp name="--.HNE" depth="0.0">
			<acc value="0.199680208625135" flag="0"/>
			<vel value="0.314239606286262" flag="0"/>
			<psa03 value="0.340884394418156" flag="0"/>
			<psa10 value="0.412017744153472" flag="0"/>
			<psa30 value="0.0682192191884686" flag="0"/>
		</comp>
		<comp name="--.HNN" depth="0.0">
			<acc value="0.142372327335497" flag="0"/>
			<vel value="0.270426248701127" flag="0"/>
			<psa03 value="0.373698130667141" flag="0"/>
			<psa10 value="0.51209264362442" flag="0"/>
			<psa30 value="0.059374733284684" flag="0"/>
		</comp>
		<comp name="--.HNZ" depth="0.0">
			<acc value="0.130533507889286" flag="0"/>
			<vel value="0.137959342595891" flag="0"/>
			<psa03 value="0.310432189609039" flag="0"/>
			<psa10 value="0.344888537172962" flag="0"/>
			<psa30 value="0.0415416585976729" flag="0"/>
		</comp>
	</station>
	<station code="HER3" name="HER3" netid="HI" source="ITSAK Strong Motion Network" insttype="" lat="35.3296" lon="25.1065">
		<comp name="--.HNE" depth="0.0">
			<acc value="0.135942834469268" flag="0"/>
			<vel value="0.223490395240107" flag="0"/>
			<psa03 value="0.370841108070082" flag="0"/>
			<psa10 value="0.4181050574081" flag="0"/>
			<psa30 value="0.0412239842199711" flag="0"/>
		</comp>
		<comp name="--.HNN" depth="0.0">
			<acc value="0.172093627271067" flag="0"/>
			<vel value="0.23283937543301" flag="0"/>
			<psa03 value="0.308829208419403" flag="0"/>
			<psa10 value="0.467262383839724" flag="0"/>
			<psa30 value="0.0515810469912165" flag="0"/>
		</comp>
		<comp name="--.HNZ" depth="0.0">
			<acc value="0.088508023971535" flag="0"/>
			<vel value="0.0953891945185865" flag="0"/>
			<psa03 value="0.231859484552944" flag="0"/>
			<psa10 value="0.194339854061561" flag="0"/>
			<psa30 value="0.0374930137281533" flag="0"/>
		</comp>
	</station>
	<station code="KSS1" name="KSS1" netid="HI" source="ITSAK Strong Motion Network" insttype="" lat="35.4189" lon="26.9207">
		<comp name="--.HNE" depth="0.0">
			<acc value="0.0143356072988765" flag="0"/>
			<vel value="0.0215108643838616" flag="0"/>
			<psa03 value="0.056482319801486" flag="0"/>
			<psa10 value="0.011601910132107" flag="0"/>
			<psa30 value="0.00821749770222671" flag="0"/>
		</comp>
		<comp name="--.HNN" depth="0.0">
			<acc value="0.026680708162688" flag="0"/>
			<vel value="0.0203485185102943" flag="0"/>
			<psa03 value="0.113107669911361" flag="0"/>
			<psa10 value="0.0175426308631999" flag="0"/>
			<psa30 value="0.00575658926245343" flag="0"/>
		</comp>
		<comp name="--.HNZ" depth="0.0">
			<acc value="0.00991967299920793" flag="0"/>
			<vel value="0.0115473035354749" flag="0"/>
			<psa03 value="0.0256789667305201" flag="0"/>
			<psa10 value="0.0134160759366881" flag="0"/>
			<psa30 value="0.00711594056280572" flag="0"/>
		</comp>
	</station>
	<station code="RTH1" name="RTH1" netid="HI" source="ITSAK Strong Motion Network" insttype="" lat="35.365393" lon="24.471773">
		<comp name="--.HNE" depth="0.0">
			<acc value="0.0223570127218768" flag="0"/>
			<vel value="0.0399991288164047" flag="0"/>
			<psa03 value="0.0811476620926949" flag="0"/>
			<psa10 value="0.0324764726569272" flag="0"/>
			<psa30 value="0.0155263168756271" flag="0"/>
		</comp>
		<comp name="--.HNN" depth="0.0">
			<acc value="0.0177372098949172" flag="0"/>
			<vel value="0.0516765139906837" flag="0"/>
			<psa03 value="0.0753445953763382" flag="0"/>
			<psa10 value="0.0251330080634378" flag="0"/>
			<psa30 value="0.0180506174314837" flag="0"/>
		</comp>
		<comp name="--.HNZ" depth="0.0">
			<acc value="0.0113408623189397" flag="0"/>
			<vel value="0.0208430456907059" flag="0"/>
			<psa03 value="0.0353500136399148" flag="0"/>
			<psa10 value="0.0173051445058943" flag="0"/>
			<psa30 value="0.00878108920406442" flag="0"/>
		</comp>
	</station>
	<station code="SIT2" name="SIT2" netid="HI" source="ITSAK Strong Motion Network" insttype="" lat="35.2059" lon="26.107">
		<comp name="--.HNE" depth="0.0">
			<acc value="0.767489733970697" flag="0"/>
			<vel value="0.562474843772744" flag="0"/>
			<psa03 value="1.72566081655999" flag="0"/>
			<psa10 value="0.573379923605936" flag="0"/>
			<psa30 value="0.0368962608628714" flag="0"/>
		</comp>
		<comp name="--.HNN" depth="0.0">
			<acc value="1.11357077073769" flag="0"/>
			<vel value="0.840923751457461" flag="0"/>
			<psa03 value="2.72919412905019" flag="0"/>
			<psa10 value="0.466203373685499" flag="0"/>
			<psa30 value="0.0383524339938614" flag="0"/>
		</comp>
		<comp name="--.HNZ" depth="0.0">
			<acc value="0.6518795128189" flag="0"/>
			<vel value="0.302444486777343" flag="0"/>
			<psa03 value="1.53701131945665" flag="0"/>
			<psa10 value="0.108109514224743" flag="0"/>
			<psa30 value="0.0202264899056898" flag="0"/>
		</comp>
	</station>
	<station code="ANAF" name="ANAF" netid="HL" source="National Observatory of Athens Seismic Network" insttype="" lat="36.35675" lon="25.77262">
		<comp name="--.HNE" depth="0.0">
			<acc value="0.067790406745761" flag="0"/>
			<vel value="0.0368304021987245" flag="0"/>
			<psa03 value="0.170076975098239" flag="0"/>
			<psa10 value="0.0296207109767313" flag="0"/>
			<psa30 value="0.00783574824653214" flag="0"/>
		</comp>
		<comp name="--.HNN" depth="0.0">
			<acc value="0.0874365251442215" flag="0"/>
			<vel value="0.0519758747361586" flag="0"/>
			<psa03 value="0.247131704595903" flag="0"/>
			<psa10 value="0.0219822274646864" flag="0"/>
			<psa30 value="0.00533130525614186" flag="0"/>
		</comp>
		<comp name="--.HNZ" depth="0.0">
			<acc value="0.0393521099129325" flag="0"/>
			<vel value="0.0197204261982354" flag="0"/>
			<psa03 value="0.104116865981392" flag="0"/>
			<psa10 value="0.0107349623885738" flag="0"/>
			<psa30 value="0.0045115271998689" flag="0"/>
		</comp>
	</station>
	<station code="CHNB" name="CHNB" netid="HL" source="National Observatory of Athens Seismic Network" insttype="" lat="35.48765" lon="24.06605">
		<comp name="00.HNE" depth="0.0">
			<acc value="0.034658337159281" flag="0"/>
			<vel value="0.0586078141402712" flag="0"/>
			<psa03 value="0.0752834194487333" flag="0"/>
			<psa10 value="0.0783667964156582" flag="0"/>
			<psa30 value="0.0197047136739085" flag="0"/>
		</comp>
		<comp name="00.HNN" depth="0.0">
			<acc value="0.0488919271807225" flag="0"/>
			<vel value="0.085508775258859" flag="0"/>
			<psa03 value="0.0854171584675428" flag="0"/>
			<psa10 value="0.103708747695559" flag="0"/>
			<psa30 value="0.0165497146707085" flag="0"/>
		</comp>
		<comp name="00.HNZ" depth="0.0">
			<acc value="0.0294920312444226" flag="0"/>
			<vel value="0.023153984328994" flag="0"/>
			<psa03 value="0.0724253655333546" flag="0"/>
			<psa10 value="0.031079319477386" flag="0"/>
			<psa30 value="0.00633339413961239" flag="0"/>
		</comp>
	</station>
	<station code="HERG" name="HERG" netid="HL" source="National Observatory of Athens Seismic Network" insttype="" lat="35.32622" lon="25.06586">
		<comp name="00.HNE" depth="0.0">
			<acc value="0.100793496341213" flag="0"/>
			<vel value="0.201951835709197" flag="0"/>
			<psa03 value="0.210497152736636" flag="0"/>
			<psa10 value="0.283949520262165" flag="0"/>
			<psa30 value="0.0627130077623181" flag="0"/>
		</comp>
		<comp name="00.HNN" depth="0.0">
			<acc value="0.110059434205857" flag="0"/>
			<vel value="0.233214918658931" flag="0"/>
			<psa03 value="0.35574889995203" flag="0"/>
			<psa10 value="0.268915254315831" flag="0"/>
			<psa30 value="0.0395448163166717" flag="0"/>
		</comp>
		<comp name="00.HNZ" depth="0.0">
			<acc value="0.0967706404396035" flag="0"/>
			<vel value="0.0878364052073033" flag="0"/>
			<psa03 value="0.195390672839815" flag="0"/>
			<psa10 value="0.101580444205898" flag="0"/>
			<psa30 value="0.0361244363999553" flag="0"/>
		</comp>
	</station>
	<station code="IACM" name="IACM" netid="HL" source="National Observatory of Athens Seismic Network" insttype="" lat="35.3058" lon="25.0709">
		<comp name="--.HNE" depth="0.0">
			<acc value="0.22482528479828" flag="0"/>
			<vel value="0.26652358581415" flag="0"/>
			<psa03 value="0.875866105164272" flag="0"/>
			<psa10 value="0.593393769424999" flag="0"/>
			<psa30 value="0.0539796958899341" flag="0"/>
		</comp>
		<comp name="--.HNN" depth="0.0">
			<acc value="0.17284496097475" flag="0"/>
			<vel value="0.278063356113061" flag="0"/>
			<psa03 value="0.483571867596314" flag="0"/>
			<psa10 value="0.330956754260718" flag="0"/>
			<psa30 value="0.0735371448082753" flag="0"/>
		</comp>
		<comp name="--.HNZ" depth="0.0">
			<acc value="0.0943785158720989" flag="0"/>
			<vel value="0.0833099117231802" flag="0"/>
			<psa03 value="0.300570473818767" flag="0"/>
			<psa10 value="0.103104455164144" flag="0"/>
			<psa30 value="0.0319371990160285" flag="0"/>
		</comp>
	</station>
	<station code="IMMV" name="IMMV" netid="HL" source="National Observatory of Athens Seismic Network" insttype="" lat="35.4606" lon="23.9811">
		<comp name="--.HNE" depth="0.0">
			<acc value="0.0148569554583508" flag="0"/>
			<vel value="0.0254891719554043" flag="0"/>
			<psa03 value="0.0426354311589038" flag="0"/>
			<psa10 value="0.0419818673426751" flag="0"/>
			<psa30 value="0.00786707532179713" flag="0"/>
		</comp>
		<comp name="--.HNN" depth="0.0">
			<acc value="0.015403775506952" flag="0"/>
			<vel value="0.0335024633833171" flag="0"/>
			<psa03 value="0.0435895959301371" flag="0"/>
			<psa10 value="0.0439693865060655" flag="0"/>
			<psa30 value="0.00975121847036716" flag="0"/>
		</comp>
		<comp name="--.HNZ" depth="0.0">
			<acc value="0.00952617795969515" flag="0"/>
			<vel value="0.0227830084550382" flag="0"/>
			<psa03 value="0.0457205652213943" flag="0"/>
			<psa10 value="0.0195472436589595" flag="0"/>
			<psa30 value="0.00552956588993584" flag="0"/>
		</comp>
	</station>
	<station code="KARP" name="KARP" netid="HL" source="National Observatory of Athens Seismic Network" insttype="" lat="35.5471" lon="27.16106">
		<comp name="--.HNE" depth="0.0">
			<acc value="0.0174844718329716" flag="0"/>
			<vel value="0.0194961919106901" flag="0"/>
			<psa03 value="0.0302080740533192" flag="0"/>
