<?xml version="1.0" encoding="UTF-8" standalone="yes"?>
<!DOCTYPE earthquake SYSTEM "stationlist.dtd">
<stationlist created="" xmlns="ch.ethz.sed.shakemap.usgs.xml">
  <station code="KARP" name="KARP" netid="GE" insttype="STS-2/N" commtype="DIG" lat="35.5471" lon="27.1611">
    <comp name="--.HHE">
      <acc value="0.0106843568" flag="0"/>
      <vel value="0.0015792049" flag="0"/>
      <psa03 value="0.0043379771" flag="0"/>
      <psa10 value="0.0004501187" flag="0"/>
      <psa30 value="0.0000540547" flag="0"/>
    </comp>
    <comp name="--.HHN">
      <acc value="0.0222494896" flag="0"/>
      <vel value="0.0161334068" flag="0"/>
      <psa03 value="0.0414499738" flag="0"/>
      <psa10 value="0.0326577711" flag="0"/>
      <psa30 value="0.0031466994" flag="0"/>
    </comp>
    <comp name="--.HHZ">
      <acc value="0.0120247468" flag="0"/>
      <vel value="0.0090557713" flag="0"/>
      <psa03 value="0.0348542118" flag="0"/>
      <psa10 value="0.0221327432" flag="0"/>
      <psa30 value="0.0021412160" flag="0"/>
    </comp>
  </station>
  <station code="ZKR" name="ZKR" netid="GE" insttype="STS-2/N" commtype="DIG" lat="35.1147" lon="26.2169">
    <comp name="--.HHN">
      <acc value="0.1219952005" flag="0"/>
      <vel value="0.0631665924" flag="0"/>
      <psa03 value="0.3781810234" flag="0"/>
      <psa10 value="0.0629842202" flag="0"/>
      <psa30 value="0.0097712769" flag="0"/>
    </comp>
    <comp name="--.HHZ">
      <acc value="0.2046506909" flag="0"/>
      <vel value="0.0906136276" flag="0"/>
      <psa03 value="0.3616508213" flag="0"/>
      <psa10 value="0.0745676590" flag="0"/>
      <psa30 value="0.0176922888" flag="0"/>
    </comp>
    <comp name="--.HHE">
      <acc value="0.2157292594" flag="0"/>
      <vel value="0.1208629174" flag="0"/>
      <psa03 value="0.7778450809" flag="0"/>
      <psa10 value="0.1537904739" flag="0"/>
      <psa30 value="0.0171394427" flag="0"/>
    </comp>
  </station>
  <station code="IMOD" name="IMOD" netid="HC" insttype="120" commtype="DIG" lat="34.9731" lon="24.7995">
    <comp name="--.HHZ">
      <acc value="0.0277930275" flag="0"/>
      <vel value="0.0242382891" flag="0"/>
      <psa03 value="0.0701493060" flag="0"/>
      <psa10 value="0.0330496980" flag="0"/>
      <psa30 value="0.0089950783" flag="0"/>
    </comp>
    <comp name="--.HHE">
      <acc value="0.0469540458" flag="0"/>
      <vel value="0.0535942944" flag="0"/>
      <psa03 value="0.1874057202" flag="0"/>
      <psa10 value="0.0483955056" flag="0"/>
      <psa30 value="0.0085909653" flag="0"/>
    </comp>
    <comp name="--.HHN">
      <acc value="0.0747141864" flag="0"/>
      <vel value="0.0542290556" flag="0"/>
      <psa03 value="0.1846286688" flag="0"/>
      <psa10 value="0.0649706786" flag="0"/>
      <psa30 value="0.0113366801" flag="0"/>
    </comp>
  </station>
  <station code="IPPL" name="IPPL" netid="HC" insttype="60" commtype="DIG" lat="35.3486" lon="24.4632">
    <comp name="--.HHN">
      <acc value="0.0000000000" flag="0"/>
      <vel value="-100.0000000000" flag="0"/>
      <psa03 value="0.0000000000" flag="0"/>
      <psa10 value="0.0000000000" flag="0"/>
      <psa30 value="0.0000000000" flag="0"/>
    </comp>
    <comp name="--.HHE">
      <acc value="0.0000000000" flag="0"/>
      <vel value="-100.0000000000" flag="0"/>
      <psa03 value="0.0000000000" flag="0"/>
      <psa10 value="0.0000000000" flag="0"/>
      <psa30 value="0.0000000000" flag="0"/>
    </comp>
    <comp name="--.HHZ">
      <acc value="0.0198118914" flag="0"/>
      <vel value="0.0159958266" flag="0"/>
      <psa03 value="0.0605762827" flag="0"/>
      <psa10 value="0.0225934737" flag="0"/>
      <psa30 value="0.0064550592" flag="0"/>
    </comp>
  </station>
  <station code="PFKS" name="PFKS" netid="HC" insttype="120" commtype="DIG" lat="35.0429" lon="25.4733">
    <comp name="--.HHN">
      <acc value="0.6002760031" flag="0"/>
      <vel value="0.3043742465" flag="0"/>
      <psa03 value="1.4704252713" flag="0"/>
      <psa10 value="0.2428264737" flag="0"/>
      <psa30 value="0.0181757073" flag="0"/>
    </comp>
    <comp name="--.HHZ">
      <acc value="0.2875712497" flag="0"/>
      <vel value="0.1252351355" flag="0"/>
      <psa03 value="0.7605875147" flag="0"/>
      <psa10 value="0.0861520172" flag="0"/>
      <psa30 value="0.0266118572" flag="0"/>
    </comp>
    <comp name="--.HHE">
      <acc value="0.5716706962" flag="0"/>
      <vel value="0.3568219667" flag="0"/>
      <psa03 value="2.4989766861" flag="0"/>
      <psa10 value="0.1732258822" flag="0"/>
      <psa30 value="0.0204228258" flag="0"/>
    </comp>
  </station>
  <station code="STIA" name="STIA" netid="HC" insttype="120" commtype="DIG" lat="35.2021" lon="26.0909">
    <comp name="--.HHE">
      <acc value="0.5076240869" flag="0"/>
      <vel value="0.2126379896" flag="0"/>
      <psa03 value="0.8621263680" flag="0"/>
      <psa10 value="0.2079042068" flag="0"/>
      <psa30 value="0.0212855993" flag="0"/>
    </comp>
    <comp name="--.HHZ">
      <acc value="0.3643913496" flag="0"/>
      <vel value="0.1675359461" flag="0"/>
      <psa03 value="0.6405313122" flag="0"/>
      <psa10 value="0.1256496976" flag="0"/>
      <psa30 value="0.0199591458" flag="0"/>
    </comp>
    <comp name="--.HHN">
      <acc value="0.4051743664" flag="0"/>
      <vel value="0.2144813456" flag="0"/>
      <psa03 value="0.7930001950" flag="0"/>
      <psa10 value="0.1778743600" flag="0"/>
      <psa30 value="0.0322517282" flag="0"/>
    </comp>
  </station>
  <station code="AGN1" name="AGN1" netid="HI" insttype="unknown" commtype="DIG" lat="35.1879" lon="25.7155">
    <comp name="--.HNZ">
      <acc value="0.1178952086" flag="0"/>
      <vel value="0.0645373029" flag="0"/>
      <psa03 value="0.1515724206" flag="0"/>
      <psa10 value="0.0683450241" flag="0"/>
      <psa30 value="0.0519002401" flag="0"/>
    </comp>
    <comp name="--.HNE">
      <acc value="0.0009940069" flag="0"/>
      <vel value="0.0008955604" flag="0"/>
      <psa03 value="0.0014737579" flag="0"/>
      <psa10 value="0.0009260395" flag="0"/>
      <psa30 value="0.0003048243" flag="0"/>
    </comp>
    <comp name="--.HNN">
      <acc value="0.4523575246" flag="0"/>
      <vel value="0.1345809544" flag="0"/>
      <psa03 value="0.6349850692" flag="0"/>
      <psa10 value="0.0795188017" flag="0"/>
      <psa30 value="0.0696505863" flag="0"/>
    </comp>
  </station>
  <station code="ARK1" name="ARK1" netid="HI" insttype="unknown" commtype="DIG" lat="35.1488" lon="25.2642">
    <comp name="--.HNN">
      <acc value="0.1555081745" flag="0"/>
      <vel value="0.1895003995" flag="0"/>
      <psa03 value="0.5795527808" flag="0"/>
      <psa10 value="0.2171816498" flag="0"/>
      <psa30 value="0.0602347024" flag="0"/>
    </comp>
    <comp name="--.HNE">
      <acc value="0.1323667788" flag="0"/>
      <vel value="0.1245813489" flag="0"/>
      <psa03 value="0.5088594028" flag="0"/>
      <psa10 value="0.2017645743" flag="0"/>
      <psa30 value="0.0795289149" flag="0"/>
    </comp>
    <comp name="--.HNZ">
      <acc value="0.1194586776" flag="0"/>
      <vel value="0.0931944956" flag="0"/>
      <psa03 value="0.2609926544" flag="0"/>
      <psa10 value="0.1427900149" flag="0"/>
      <psa30 value="0.0324941950" flag="0"/>
    </comp>
  </station>
  <station code="GOR1" name="GOR1" netid="HI" insttype="unknown" commtype="DIG" lat="35.0582" lon="24.9628">
    <comp name="--.HNZ">
      <acc value="0.0776379044" flag="0"/>
      <vel value="0.0652854375" flag="0"/>
      <psa03 value="0.1669797838" flag="0"/>
      <psa10 value="0.0830349623" flag="0"/>
      <psa30 value="0.0198601793" flag="0"/>
    </comp>
    <comp name="--.HNE">
      <acc value="0.0756600780" flag="0"/>
      <vel value="0.0795426023" flag="0"/>
      <psa03 value="0.2215354246" flag="0"/>
      <psa10 value="0.1282492328" flag="0"/>
      <psa30 value="0.0289946276" flag="0"/>
    </comp>
    <comp name="--.HNN">
      <acc value="0.0582657476" flag="0"/>
      <vel value="0.0778370046" flag="0"/>
      <psa03 value="0.2801719745" flag="0"/>
      <psa10 value="0.1097784697" flag="0"/>
      <psa30 value="0.0413221046" flag="0"/>
    </comp>
  </station>
  <station code="HER1" name="HER1" netid="HI" insttype="unknown" commtype="DIG" lat="35.3177" lon="25.1022">
    <comp name="--.HNE">
      <acc value="0.2021232215" flag="0"/>
      <vel value="0.3077280766" flag="0"/>
      <psa03 value="0.3387584964" flag="0"/>
      <psa10 value="0.4113419135" flag="0"/>
      <psa30 value="0.0636631142" flag="0"/>
    </comp>
    <comp name="--.HNN">
      <acc value="0.1410455532" flag="0"/>
      <vel value="0.2629098825" flag="0"/>
      <psa03 value="0.3718491517" flag="0"/>
      <psa10 value="0.5111113548" flag="0"/>
      <psa30 value="0.0545024013" flag="0"/>
    </comp>
    <comp name="--.HNZ">
      <acc value="0.1290462114" flag="0"/>
      <vel value="0.1330041507" flag="0"/>
      <psa03 value="0.3112158086" flag="0"/>
      <psa10 value="0.3444840383" flag="0"/>
      <psa30 value="0.0366205508" flag="0"/>
    </comp>
  </station>
  <station code="KSS1" name="KSS1" netid="HI" insttype="CMG-5TD,ACCELEROMETER,GURALP" commtype="DIG" lat="35.4189" lon="26.9207">
    <comp name="--.HNE">
      <acc value="0.0137855718" flag="0"/>
      <vel value="0.0138777732" flag="0"/>
      <psa03 value="0.0553098372" flag="0"/>
      <psa10 value="0.0110171460" flag="0"/>
      <psa30 value="0.0064264684" flag="0"/>
    </comp>
    <comp name="--.HNN">
      <acc value="0.0268431948" flag="0"/>
      <vel value="0.0157759630" flag="0"/>
      <psa03 value="0.1108486375" flag="0"/>
      <psa10 value="0.0165850251" flag="0"/>
      <psa30 value="0.0046545411" flag="0"/>
    </comp>
    <comp name="--.HNZ">
      <acc value="0.0095811911" flag="0"/>
      <vel value="0.0073176632" flag="0"/>
      <psa03 value="0.0257159975" flag="0"/>
      <psa10 value="0.0131058489" flag="0"/>
      <psa30 value="0.0057393563" flag="0"/>
    </comp>
  </station>
  <station code="SIT2" name="SIT2" netid="HI" insttype="CMG-5TD,ACCELEROMETER,GURALP" commtype="DIG" lat="35.2059" lon="26.107">
    <comp name="--.HNE">
      <acc value="0.7717782654" flag="0"/>
      <vel value="0.5401106968" flag="0"/>
      <psa03 value="1.7342967518" flag="0"/>
      <psa10 value="0.5699444936" flag="0"/>
      <psa30 value="0.0299950163" flag="0"/>
    </comp>
    <comp name="--.HNN">
      <acc value="1.1149473519" flag="0"/>
      <vel value="0.8270204088" flag="0"/>
      <psa03 value="2.7070854345" flag="0"/>
      <psa10 value="0.4647671632" flag="0"/>
      <psa30 value="0.0361703509" flag="0"/>
    </comp>
    <comp name="--.HNZ">
      <acc value="0.6482168589" flag="0"/>
      <vel value="0.2989922067" flag="0"/>
      <psa03 value="1.4998769020" flag="0"/>
      <psa10 value="0.1083251775" flag="0"/>
      <psa30 value="0.0180528516" flag="0"/>
    </comp>
  </station>
  <station code="HERG" name="HERG" netid="HL" insttype="CMG-5" commtype="DIG" lat="35.3262" lon="25.0659">
    <comp name="00.HNZ">
      <acc value="0.0964575965" flag="0"/>
      <vel value="0.0839510006" flag="0"/>
      <psa03 value="0.1957966425" flag="0"/>
      <psa10 value="0.1017211706" flag="0"/>
      <psa30 value="0.0320923276" flag="0"/>
    </comp>
    <comp name="00.HNN">
      <acc value="0.1094529688" flag="0"/>
      <vel value="0.2172062395" flag="0"/>
      <psa03 value="0.3529132023" flag="0"/>
      <psa10 value="0.2689819267" flag="0"/>
      <psa30 value="0.0360317045" flag="0"/>
    </comp>
    <comp name="00.HNE">
      <acc value="0.1006074781" flag="0"/>
      <vel value="0.1941118123" flag="0"/>
      <psa03 value="0.2099183710" flag="0"/>
      <psa10 value="0.2828649170" flag="0"/>
      <psa30 value="0.0557853583" flag="0"/>
    </comp>
  </station>
  <station code="IACM" name="IACM" netid="HL" insttype="120" commtype="DIG" lat="35.3058" lon="25.0709">
    <comp name="--.HHN">
      <acc value="0.1712243102" flag="0"/>
      <vel value="0.2581730978" flag="0"/>
      <psa03 value="0.4800701156" flag="0"/>
      <psa10 value="0.3292385759" flag="0"/>
      <psa30 value="0.0607319684" flag="0"/>
    </comp>
    <comp name="--.HHE">
      <acc value="0.2230961451" flag="0"/>
      <vel value="0.2604352710" flag="0"/>
      <psa03 value="0.8776039153" flag="0"/>
      <psa10 value="0.5885804249" flag="0"/>
      <psa30 value="0.0525708651" flag="0"/>
    </comp>
    <comp name="--.HHZ">
      <acc value="0.0985689108" flag="0"/>
      <vel value="0.0761895281" flag="0"/>
      <psa03 value="0.2974857108" flag="0"/>
      <psa10 value="0.1045479078" flag="0"/>
      <psa30 value="0.0281697477" flag="0"/>
    </comp>
  </station>
  <station code="IDI" name="IDI" netid="HL" insttype="120" commtype="DIG" lat="35.288" lon="24.89">
    <comp name="--.HHE">
      <acc value="0.0199120147" flag="0"/>
      <vel value="0.0147064083" flag="0"/>
      <psa03 value="0.0631149535" flag="0"/>
      <psa10 value="0.0185196558" flag="0"/>
      <psa30 value="0.0096221680" flag="0"/>
    </comp>
    <comp name="--.HHN">
      <acc value="0.0245523589" flag="0"/>
      <vel value="0.0276249632" flag="0"/>
      <psa03 value="0.0816408684" flag="0"/>
      <psa10 value="0.0274406640" flag="0"/>
      <psa30 value="0.0100286148" flag="0"/>
    </comp>
    <comp name="--.HHZ">
      <acc value="0.0203025484" flag="0"/>
      <vel value="0.0203049897" flag="0"/>
      <psa03 value="0.0558453940" flag="0"/>
      <psa10 value="0.0199706391" flag="0"/>
      <psa30 value="0.0126853709" flag="0"/>
    </comp>
  </station>
  <station code="KARP" name="KARP" netid="HL" insttype="120" commtype="DIG" lat="35.5471" lon="27.1611">
    <comp name="--.HHN">
      <acc value="0.0202459052" flag="0"/>
      <vel value="0.0159525740" flag="0"/>
      <psa03 value="0.0403754969" flag="0"/>
      <psa10 value="0.0324734811" flag="0"/>
      <psa30 value="0.0031418521" flag="0"/>
    </comp>
    <comp name="--.HHZ">
      <acc value="0.0116866578" flag="0"/>
      <vel value="0.0089914939" flag="0"/>
      <psa03 value="0.0340998773" flag="0"/>
      <psa10 value="0.0219928015" flag="0"/>
      <psa30 value="0.0021377317" flag="0"/>
    </comp>
    <comp name="--.HHE">
      <acc value="0.0068593385" flag="0"/>
      <vel value="0.0014878883" flag="0"/>
      <psa03 value="0.0042473451" flag="0"/>
      <psa10 value="0.0004451462" flag="0"/>
      <psa30 value="0.0000539497" flag="0"/>
    </comp>
  </station>
  <station code="SIVA" name="SIVA" netid="HL" insttype="60" commtype="DIG" lat="35.0178" lon="24.812">
    <comp name="--.HHZ">
      <acc value="0.0377159478" flag="0"/>
      <vel value="0.0262264801" flag="0"/>
      <psa03 value="0.1114011028" flag="0"/>
      <psa10 value="0.0391844073" flag="0"/>
      <psa30 value="0.0071687065" flag="0"/>
    </comp>
    <comp name="--.HHE">
      <acc value="0.0862645535" flag="0"/>
      <vel value="0.0506262874" flag="0"/>
      <psa03 value="0.2971045303" flag="0"/>
      <psa10 value="0.0478620675" flag="0"/>
      <psa30 value="0.0109860664" flag="0"/>
    </comp>
    <comp name="--.HHN">
      <acc value="0.0562858978" flag="0"/>
      <vel value="0.0519305510" flag="0"/>
      <psa03 value="0.1822860981" flag="0"/>
      <psa10 value="0.0745700193" flag="0"/>
      <psa30 value="0.0068733127" flag="0"/>
    </comp>
  </station>
  <station code="IDI" name="IDI" netid="MN" insttype="" commtype="DIG" lat="35.288" lon="24.89">
    <comp name="--.HHE">
      <acc value="0.0185346762" flag="0"/>
      <vel value="0.0131195853" flag="0"/>
      <psa03 value="0.0570502259" flag="0"/>
      <psa10 value="0.0164848704" flag="0"/>
      <psa30 value="0.0085326861" flag="0"/>
    </comp>
    <comp name="--.HHN">
      <acc value="0.0222200572" flag="0"/>
      <vel value="0.0245692160" flag="0"/>
      <psa03 value="0.0742804915" flag="0"/>
      <psa10 value="0.0244488629" flag="0"/>
      <psa30 value="0.0088936858" flag="0"/>
    </comp>
    <comp name="--.HHZ">
      <acc value="0.0184081686" flag="0"/>
      <vel value="0.0180534658" flag="0"/>
      <psa03 value="0.0507312836" flag="0"/>
      <psa10 value="0.0177592286" flag="0"/>
      <psa30 value="0.0112485282" flag="0"/>
    </comp>
  </station>
</stationlist>
