<?xml version="1.0" encoding="UTF-8" standalone="yes"?>
<!DOCTYPE earthquake SYSTEM "stationlist.dtd">
<stationlist created="" xmlns="ch.ethz.sed.shakemap.usgs.xml">
  <station code="KARP" name="KARP" netid="GE" source="GFZ" insttype="STS-2/N" lat="35.5471" lon="27.1611">
    <comp name="--.HHE">
      <acc value="0.1422008353" flag="0"/>
      <vel value="0.0354160673" flag="0"/>
      <psa03 value="0.0928333037" flag="0"/>
      <psa10 value="0.0259562979" flag="0"/>
      <psa30 value="0.0022246563" flag="0"/>
    </comp>
    <comp name="--.HHN">
      <acc value="0.1368494135" flag="0"/>
      <vel value="0.0412734923" flag="0"/>
      <psa03 value="0.1269173281" flag="0"/>
      <psa10 value="0.0237277915" flag="0"/>
      <psa30 value="0.0018168209" flag="0"/>
    </comp>
    <comp name="--.HHZ">
      <acc value="0.0669920569" flag="0"/>
      <vel value="0.0162123726" flag="0"/>
      <psa03 value="0.0677659345" flag="0"/>
      <psa10 value="0.0092872215" flag="0"/>
      <psa30 value="0.0010527666" flag="0"/>
    </comp>
  </station>
  <station code="ZKR" name="ZKR" netid="GE" source="GFZ" insttype="STS-2/N" lat="35.1147" lon="26.2169">
    <comp name="--.HHE">
      <acc value="0.1196716289" flag="0"/>
      <vel value="0.0518416865" flag="0"/>
      <psa03 value="0.2885718810" flag="0"/>
      <psa10 value="0.0248145200" flag="0"/>
      <psa30 value="0.0012422112" flag="0"/>
    </comp>
    <comp name="--.HHN">
      <acc value="0.0644054717" flag="0"/>
      <vel value="0.0273060259" flag="0"/>
      <psa03 value="0.1444804010" flag="0"/>
      <psa10 value="0.0092636611" flag="0"/>
      <psa30 value="0.0008139954" flag="0"/>
    </comp>
    <comp name="--.HHZ">
      <acc value="0.0534758140" flag="0"/>
      <vel value="0.0175351084" flag="0"/>
      <psa03 value="0.0922432653" flag="0"/>
      <psa10 value="0.0081858028" flag="0"/>
      <psa30 value="0.0009587634" flag="0"/>
    </comp>
  </station>
  <station code="FRMA" name="FRMA" netid="HC" source="NOA" insttype="60" lat="35.0187" lon="25.8555">
    <comp name="--.HHE">
      <acc value="0.0469667184" flag="0"/>
      <vel value="0.0226523121" flag="0"/>
      <psa03 value="0.1582238366" flag="0"/>
      <psa10 value="0.0128785944" flag="0"/>
      <psa30 value="0.0010642505" flag="0"/>
    </comp>
    <comp name="--.HHN">
      <acc value="0.0431649561" flag="0"/>
      <vel value="0.0171444439" flag="0"/>
      <psa03 value="0.1042393692" flag="0"/>
      <psa10 value="0.0122243456" flag="0"/>
      <psa30 value="0.0008232389" flag="0"/>
    </comp>
    <comp name="--.HHZ">
      <acc value="0.0198322831" flag="0"/>
      <vel value="0.0079873832" flag="0"/>
      <psa03 value="0.0456995065" flag="0"/>
      <psa10 value="0.0054782749" flag="0"/>
      <psa30 value="0.0005953685" flag="0"/>
    </comp>
  </station>
  <station code="STIA" name="STIA" netid="HC" source="NOA" insttype="120" lat="35.2021" lon="26.0909">
    <comp name="--.HHE">
      <acc value="0.0554556806" flag="0"/>
      <vel value="0.0242597074" flag="0"/>
      <psa03 value="0.1298677533" flag="0"/>
      <psa10 value="0.0171859361" flag="0"/>
      <psa30 value="0.0011380253" flag="0"/>
    </comp>
    <comp name="--.HHN">
      <acc value="0.0568877957" flag="0"/>
      <vel value="0.0243632572" flag="0"/>
      <psa03 value="0.1757728357" flag="0"/>
      <psa10 value="0.0230842086" flag="0"/>
      <psa30 value="0.0012970995" flag="0"/>
    </comp>
    <comp name="--.HHZ">
      <acc value="0.0508966896" flag="0"/>
      <vel value="0.0180317469" flag="0"/>
      <psa03 value="0.0885835816" flag="0"/>
      <psa10 value="0.0126272001" flag="0"/>
      <psa30 value="0.0010219809" flag="0"/>
    </comp>
  </station>
  <station code="KARP" name="KARP" netid="HL" source="NOA" insttype="120" lat="35.5471" lon="27.1611">
    <comp name="--.HHE">
      <acc value="0.1373039010" flag="0"/>
      <vel value="0.0342928583" flag="0"/>
      <psa03 value="0.0906019020" flag="0"/>
      <psa10 value="0.0257626139" flag="0"/>
      <psa30 value="0.0022152006" flag="0"/>
    </comp>
    <comp name="--.HHN">
      <acc value="0.1278668564" flag="0"/>
      <vel value="0.0402302560" flag="0"/>
      <psa03 value="0.1228746579" flag="0"/>
      <psa10 value="0.0235502477" flag="0"/>
      <psa30 value="0.0018003850" flag="0"/>
    </comp>
    <comp name="--.HHZ">
      <acc value="0.0631924769" flag="0"/>
      <vel value="0.0159038789" flag="0"/>
      <psa03 value="0.0659781131" flag="0"/>
      <psa10 value="0.0092152041" flag="0"/>
      <psa30 value="0.0010460144" flag="0"/>
    </comp>
  </station>
  <station code="NPS" name="NPS" netid="HL" source="NOA" insttype="120" lat="35.2613" lon="25.6104">
    <comp name="--.HHE">
      <acc value="0.0242361198" flag="0"/>
      <vel value="0.0105821691" flag="0"/>
      <psa03 value="0.0479201805" flag="0"/>
      <psa10 value="0.0110357054" flag="0"/>
      <psa30 value="0.0006060199" flag="0"/>
    </comp>
    <comp name="--.HHN">
      <acc value="0.0165521053" flag="0"/>
      <vel value="0.0076463729" flag="0"/>
      <psa03 value="0.0437327141" flag="0"/>
      <psa10 value="0.0102056729" flag="0"/>
      <psa30 value="0.0006368774" flag="0"/>
    </comp>
    <comp name="--.HHZ">
      <acc value="0.0123117428" flag="0"/>
      <vel value="0.0067346293" flag="0"/>
      <psa03 value="0.0311702080" flag="0"/>
      <psa10 value="0.0051078209" flag="0"/>
      <psa30 value="0.0003453764" flag="0"/>
    </comp>
  </station>
  <station code="ZKR" name="ZKR" netid="HL" source="NOA" insttype="120" lat="35.1147" lon="26.2169">
    <comp name="--.HHE">
      <acc value="0.1161145117" flag="0"/>
      <vel value="0.0506846945" flag="0"/>
      <psa03 value="0.2805182960" flag="0"/>
      <psa10 value="0.0244024701" flag="0"/>
      <psa30 value="0.0012070320" flag="0"/>
    </comp>
  </station>
</stationlist>
