<stationlist xmlns:esm="https://esm-db.eu/esmws/shakemap/1/" created="1783475658">
	<station code="KARP" name="KARP" netid="GE" source="GEOFON" insttype="" lat="35.5471" lon="27.16106" esm:processing="manual (Paolucci et al 2011)" esm:quality="best">
		<comp name="--.HNE" depth="0.0">
			<acc value="0.126790499262075" flag="0"/>
			<vel value="0.0302410444377906" flag="0"/>
			<psa03 value="0.0735561876804388" flag="0"/>
			<psa10 value="0.0225218845454394" flag="0"/>
			<psa30 value="0.00216283826792726" flag="0"/>
		</comp>
		<comp name="--.HNN" depth="0.0">
			<acc value="0.116830134780649" flag="0"/>
			<vel value="0.0380484580135499" flag="0"/>
			<psa03 value="0.124114881159086" flag="0"/>
			<psa10 value="0.0243862922952228" flag="0"/>
			<psa30 value="0.0019829745973218" flag="0"/>
		</comp>
		<comp name="--.HNZ" depth="0.0">
			<acc value="0.0662608177094807" flag="0"/>
			<vel value="0.0170506434107762" flag="0"/>
			<psa03 value="0.0696636157046491" flag="0"/>
			<psa10 value="0.00952337867869914" flag="0"/>
			<psa30 value="0.00111184383446405" flag="0"/>
		</comp>
	</station>
	<station code="KSS1" name="KSS1" netid="HI" source="ITSAK Strong Motion Network" insttype="" lat="35.4189" lon="26.9207" esm:processing="manual (Paolucci et al 2011)" esm:quality="best">
		<comp name="--.HNE" depth="0.0">
			<acc value="0.083814819254807" flag="0"/>
			<vel value="0.0175704645569096" flag="0"/>
			<psa03 value="0.0851891614011894" flag="0"/>
			<psa10 value="0.0130065594639316" flag="0"/>
			<psa30 value="0.000753011337385513" flag="0"/>
		</comp>
		<comp name="--.HNN" depth="0.0">
			<acc value="0.0851507533240185" flag="0"/>
			<vel value="0.0236219414279557" flag="0"/>
			<psa03 value="0.0958825487829564" flag="0"/>
			<psa10 value="0.0153783438367662" flag="0"/>
			<psa30 value="0.00147157117567496" flag="0"/>
		</comp>
		<comp name="--.HNZ" depth="0.0">
			<acc value="0.0550697779030238" flag="0"/>
			<vel value="0.0135080245853251" flag="0"/>
			<psa03 value="0.0675607319935904" flag="0"/>
			<psa10 value="0.0153300222536184" flag="0"/>
			<psa30 value="0.00111676547719206" flag="0"/>
		</comp>
	</station>
	<station code="RGE1" name="RGE1" netid="HI" source="ITSAK Strong Motion Network" insttype="" lat="36.0269" lon="27.9306" esm:processing="manual (Paolucci et al 2011)" esm:quality="good">
		<comp name="--.HNE" depth="0.0">
			<acc value="0.00583345534150598" flag="0"/>
			<vel value="0.00528401077380997" flag="0"/>
			<psa03 value="0.0137496999126489" flag="0"/>
			<psa10 value="0.00662938213278321" flag="0"/>
			<psa30 value="0.000630454681195163" flag="0"/>
		</comp>
		<comp name="--.HNN" depth="0.0">
			<acc value="0.00785813909939264" flag="0"/>
			<vel value="0.00525894362664514" flag="0"/>
			<psa03 value="0.0190218265089144" flag="0"/>
			<psa10 value="0.00449866301436234" flag="0"/>
			<psa30 value="0.000552037871881459" flag="0"/>
		</comp>
		<comp name="--.HNZ" depth="0.0">
			<acc value="0.00263447445658394" flag="0"/>
			<vel value="0.00244436806724912" flag="0"/>
			<psa03 value="0.00748233681391527" flag="0"/>
			<psa10 value="0.00472909890457478" flag="0"/>
			<psa30 value="0.000331062373965868" flag="0"/>
		</comp>
	</station>
	<station code="SIT2" name="SIT2" netid="HI" source="ITSAK Strong Motion Network" insttype="" lat="35.2059" lon="26.107" esm:processing="manual (Paolucci et al 2011)" esm:quality="best">
		<comp name="--.HNE" depth="0.0">
			<acc value="0.145011348464847" flag="0"/>
			<vel value="0.0814083703772608" flag="0"/>
			<psa03 value="0.508629404836513" flag="0"/>
			<psa10 value="0.0406585854202221" flag="0"/>
			<psa30 value="0.00254627897864584" flag="0"/>
		</comp>
		<comp name="--.HNN" depth="0.0">
			<acc value="0.146329674136458" flag="0"/>
			<vel value="0.0786664091328702" flag="0"/>
			<psa03 value="0.549747492718705" flag="0"/>
			<psa10 value="0.0491108356724798" flag="0"/>
			<psa30 value="0.00282860230240714" flag="0"/>
		</comp>
		<comp name="--.HNZ" depth="0.0">
			<acc value="0.116093803409573" flag="0"/>
			<vel value="0.0424455783719049" flag="0"/>
			<psa03 value="0.230332879670863" flag="0"/>
			<psa10 value="0.0180118701183177" flag="0"/>
			<psa30 value="0.00116463963827361" flag="0"/>
		</comp>
	</station>
	<station code="AGNA" name="AGNA" netid="HL" source="National Observatory of Athens Seismic Network" insttype="" lat="35.1895" lon="25.71853" esm:processing="manual (Paolucci et al 2011)" esm:quality="bad">
		<comp name="00.HNE" depth="0.0">
			<acc value="0.0197110279873331" flag="0"/>
			<vel value="0.0100780177722856" flag="0"/>
			<psa03 value="0.055513130597595" flag="0"/>
			<psa10 value="0.00809835022596414" flag="0"/>
			<psa30 value="0.000404640295017021" flag="0"/>
		</comp>
		<comp name="00.HNN" depth="0.0">
			<acc value="0.032595388068609" flag="0"/>
			<vel value="0.0212990504556385" flag="0"/>
			<psa03 value="0.0934318352337556" flag="0"/>
			<psa10 value="0.0211651364614141" flag="0"/>
			<psa30 value="0.00102861168214249" flag="0"/>
		</comp>
		<comp name="00.HNZ" depth="0.0">
			<acc value="0.0113493245661133" flag="0"/>
			<vel value="0.00574480803913538" flag="0"/>
			<psa03 value="0.0274178944259627" flag="0"/>
			<psa10 value="0.0046393821800611" flag="0"/>
			<psa30 value="0.000405734456041505" flag="0"/>
		</comp>
	</station>
	<station code="IACM" name="IACM" netid="HL" source="National Observatory of Athens Seismic Network" insttype="" lat="35.3058" lon="25.0709" esm:processing="manual (Paolucci et al 2011)" esm:quality="bad">
		<comp name="--.HNE" depth="0.0">
			<acc value="0.0265460993848914" flag="0"/>
			<vel value="0.0251553809823507" flag="0"/>
			<psa03 value="0.0843838016820605" flag="0"/>
			<psa10 value="0.0283607425091239" flag="0"/>
			<psa30 value="0.00143040834558615" flag="0"/>
		</comp>
		<comp name="--.HNN" depth="0.0">
			<acc value="0.0311417394278373" flag="0"/>
			<vel value="0.0188564819562032" flag="0"/>
			<psa03 value="0.102683364188934" flag="0"/>
			<psa10 value="0.0225621525313959" flag="0"/>
			<psa30 value="0.00141206404087266" flag="0"/>
		</comp>
		<comp name="--.HNZ" depth="0.0">
			<acc value="0.0171193949471204" flag="0"/>
			<vel value="0.00911225390721821" flag="0"/>
			<psa03 value="0.0429077761469226" flag="0"/>
			<psa10 value="0.0108481954166662" flag="0"/>
			<psa30 value="0.000465318948830026" flag="0"/>
		</comp>
	</station>
	<station code="KARP" name="KARP" netid="HL" source="National Observatory of Athens Seismic Network" insttype="" lat="35.5471" lon="27.16106" esm:processing="manual (Paolucci et al 2011)" esm:quality="best">
		<comp name="--.HNE" depth="0.0">
			<acc value="0.124216419571233" flag="0"/>
			<vel value="0.0296269467460449" flag="0"/>
			<psa03 value="0.0720796948620358" flag="0"/>
			<psa10 value="0.0220668563041316" flag="0"/>
			<psa30 value="0.00211899090544135" flag="0"/>
		</comp>
		<comp name="--.HNN" depth="0.0">
			<acc value="0.114458175834837" flag="0"/>
			<vel value="0.0372761886688556" flag="0"/>
			<psa03 value="0.121564575381844" flag="0"/>
			<psa10 value="0.0238909960679586" flag="0"/>
			<psa30 value="0.00194270661136536" flag="0"/>
		</comp>
		<comp name="--.HNZ" depth="0.0">
			<acc value="0.0649155401841209" flag="0"/>
			<vel value="0.0167043426744385" flag="0"/>
			<psa03 value="0.0682318650928644" flag="0"/>
			<psa10 value="0.00933009234610821" flag="0"/>
			<psa30 value="0.00108947273115492" flag="0"/>
		</comp>
	</station>
	<station code="ZKR" name="ZKR" netid="HL" source="National Observatory of Athens Seismic Network" insttype="" lat="35.1147" lon="26.21691" esm:processing="manual (Paolucci et al 2011)" esm:quality="best">
		<comp name="00.HNE" depth="0.0">
			<acc value="0.120852382207019" flag="0"/>
			<vel value="0.0528281158685341" flag="0"/>
			<psa03 value="0.294851141614411" flag="0"/>
			<psa10 value="0.0225581257328003" flag="0"/>
			<psa30 value="0.00121654059795081" flag="0"/>
		</comp>
		<comp name="00.HNN" depth="0.0">
			<acc value="0.113520757556007" flag="0"/>
			<vel value="0.0502632862889918" flag="0"/>
			<psa03 value="0.259907478245541" flag="0"/>
			<psa10 value="0.0186843454837903" flag="0"/>
			<psa30 value="0.00171765331207545" flag="0"/>
		</comp>
		<comp name="00.HNZ" depth="0.0">
			<acc value="0.0517859515417302" flag="0"/>
			<vel value="0.0166461306945067" flag="0"/>
			<psa03 value="0.0879631782115223" flag="0"/>
			<psa10 value="0.00774353369942429" flag="0"/>
			<psa30 value="0.00102951817428643" flag="0"/>
		</comp>
	</station>
	<station code="RDI1" name="RDI1" netid="HI" source="ITSAK Strong Motion Network" insttype="" lat="36.4514" lon="28.224" esm:processing="discarded" esm:quality="bad">
		<comp name="--.HNE" depth="0.0">
			<acc value="0" flag="1"/>
			<vel value="0" flag="1"/>
			<psa03 value="0" flag="1"/>
			<psa10 value="0" flag="1"/>
			<psa30 value="0" flag="1"/>
		</comp>
		<comp name="--.HNN" depth="0.0">
			<acc value="0" flag="1"/>
			<vel value="0" flag="1"/>
			<psa03 value="0" flag="1"/>
			<psa10 value="0" flag="1"/>
			<psa30 value="0" flag="1"/>
		</comp>
		<comp name="--.HNZ" depth="0.0">
			<acc value="0" flag="1"/>
			<vel value="0" flag="1"/>
			<psa03 value="0" flag="1"/>
			<psa10 value="0" flag="1"/>
			<psa30 value="0" flag="1"/>
		</comp>
	</station>
	<station code="ASTA" name="ASTA" netid="HL" source="National Observatory of Athens Seismic Network" insttype="" lat="36.54552" lon="26.35295" esm:processing="discarded" esm:quality="bad">
		<comp name="00.HNE" depth="0.0">
			<acc value="0" flag="1"/>
			<vel value="0" flag="1"/>
			<psa03 value="0" flag="1"/>
			<psa10 value="0" flag="1"/>
			<psa30 value="0" flag="1"/>
		</comp>
		<comp name="00.HNN" depth="0.0">
			<acc value="0" flag="1"/>
			<vel value="0" flag="1"/>
			<psa03 value="0" flag="1"/>
			<psa10 value="0" flag="1"/>
			<psa30 value="0" flag="1"/>
		</comp>
		<comp name="00.HNZ" depth="0.0">
			<acc value="0" flag="1"/>
			<vel value="0" flag="1"/>
			<psa03 value="0" flag="1"/>
			<psa10 value="0" flag="1"/>
			<psa30 value="0" flag="1"/>
		</comp>
	</station>
	<station code="KLNA" name="KLNA" netid="HL" source="National Observatory of Athens Seismic Network" insttype="" lat="36.95708" lon="26.97274" esm:processing="discarded" esm:quality="bad">
		<comp name="00.HNE" depth="0.0">
			<acc value="0" flag="1"/>
			<vel value="0" flag="1"/>
			<psa03 value="0" flag="1"/>
			<psa10 value="0" flag="1"/>
			<psa30 value="0" flag="1"/>
		</comp>
		<comp name="00.HNN" depth="0.0">
			<acc value="0" flag="1"/>
			<vel value="0" flag="1"/>
			<psa03 value="0" flag="1"/>
			<psa10 value="0" flag="1"/>
			<psa30 value="0" flag="1"/>
		</comp>
		<comp name="00.HNZ" depth="0.0">
			<acc value="0" flag="1"/>
			<vel value="0" flag="1"/>
			<psa03 value="0" flag="1"/>
			<psa10 value="0" flag="1"/>
			<psa30 value="0" flag="1"/>
		</comp>
	</station>
	<station code="RODB" name="RODB" netid="HL" source="National Observatory of Athens Seismic Network" insttype="" lat="36.4471" lon="28.22116" esm:processing="discarded" esm:quality="bad">
		<comp name="00.HNE" depth="0.0">
			<acc value="0" flag="1"/>
			<vel value="0" flag="1"/>
			<psa03 value="0" flag="1"/>
			<psa10 value="0" flag="1"/>
			<psa30 value="0" flag="1"/>
		</comp>
		<comp name="00.HNN" depth="0.0">
			<acc value="0" flag="1"/>
			<vel value="0" flag="1"/>
			<psa03 value="0" flag="1"/>
			<psa10 value="0" flag="1"/>
			<psa30 value="0" flag="1"/>
		</comp>
		<comp name="00.HNZ" depth="0.0">
			<acc value="0" flag="1"/>
			<vel value="0" flag="1"/>
			<psa03 value="0" flag="1"/>
			<psa10 value="0" flag="1"/>
			<psa30 value="0" flag="1"/>
		</comp>
	</station>
	<station code="THRA" name="THRA" netid="HL" source="National Observatory of Athens Seismic Network" insttype="" lat="36.41502" lon="25.43244" esm:processing="discarded" esm:quality="bad">
		<comp name="00.HNE" depth="0.0">
			<acc value="0" flag="1"/>
			<vel value="0" flag="1"/>
			<psa03 value="0" flag="1"/>
			<psa10 value="0" flag="1"/>
			<psa30 value="0" flag="1"/>
		</comp>
		<comp name="00.HNN" depth="0.0">
			<acc value="0" flag="1"/>
			<vel value="0" flag="1"/>
			<psa03 value="0" flag="1"/>
			<psa10 value="0" flag="1"/>
			<psa30 value="0" flag="1"/>
		</comp>
		<comp name="00.HNZ" depth="0.0">
			<acc value="0" flag="1"/>
			<vel value="0" flag="1"/>
			<psa03 value="0" flag="1"/>
			<psa10 value="0" flag="1"/>
			<psa30 value="0" flag="1"/>
		</comp>
	</station>
</stationlist>
