<?xml version="1.0" encoding="UTF-8" standalone="yes"?>
<!DOCTYPE earthquake SYSTEM "stationlist.dtd">
<stationlist created="" xmlns="ch.ethz.sed.shakemap.usgs.xml">
  <station code="BSZH" name="BSZH" netid="HU" insttype="" lat="47.2996" lon="20.267">
    <comp name="--.HHN">
      <acc value="0.0350336538" flag="0"/>
      <vel value="0.0269304426" flag="0"/>
      <psa03 value="0.0688484430" flag="0"/>
      <psa10 value="0.0257949733" flag="0"/>
      <psa30 value="0.0013631743" flag="0"/>
    </comp>
    <comp name="--.HHE">
      <acc value="0.0397985411" flag="0"/>
      <vel value="0.0327676342" flag="0"/>
      <psa03 value="0.1253515047" flag="0"/>
      <psa10 value="0.0333071607" flag="0"/>
      <psa30 value="0.0030211873" flag="0"/>
    </comp>
    <comp name="--.HHZ">
      <acc value="0.0296614879" flag="0"/>
      <vel value="0.0072503424" flag="0"/>
      <psa03 value="0.0319348398" flag="0"/>
      <psa10 value="0.0060885995" flag="0"/>
      <psa30 value="0.0004698243" flag="0"/>
    </comp>
  </station>
  <station code="BORR" name="BORR" netid="RO" insttype="200" lat="47.0902" lon="21.7856">
    <comp name="--.HNN">
      <acc value="0.0205980096" flag="0"/>
      <vel value="0.0091047178" flag="0"/>
      <psa03 value="0.0473283985" flag="0"/>
      <psa10 value="0.0084293019" flag="0"/>
      <psa30 value="0.0015343469" flag="0"/>
    </comp>
    <comp name="--.HNE">
      <acc value="0.0186476505" flag="0"/>
      <vel value="0.0072820584" flag="0"/>
      <psa03 value="0.0438506841" flag="0"/>
      <psa10 value="0.0083062490" flag="0"/>
      <psa30 value="0.0009224583" flag="0"/>
    </comp>
    <comp name="--.HNZ">
      <acc value="0.0217315910" flag="0"/>
      <vel value="0.0036420529" flag="0"/>
      <psa03 value="0.0189754030" flag="0"/>
      <psa10 value="0.0041766967" flag="0"/>
      <psa30 value="0.0005104830" flag="0"/>
    </comp>
  </station>
</stationlist>
