<?xml version="1.0" encoding="UTF-8" standalone="yes"?>
<!DOCTYPE earthquake SYSTEM "stationlist.dtd">
<stationlist created="" xmlns="ch.ethz.sed.shakemap.usgs.xml">
  <station code="BSZH" name="BSZH" netid="HU" insttype="" lat="47.2996" lon="20.267">
    <comp name="--.HHZ">
      <acc value="0.0296614880" flag="0"/>
      <vel value="0.0072503456" flag="0"/>
      <psa03 value="0.0319348398" flag="0"/>
      <psa10 value="0.0060885995" flag="0"/>
      <psa30 value="0.0004696933" flag="0"/>
    </comp>
    <comp name="--.HHN">
      <acc value="0.0350336539" flag="0"/>
      <vel value="0.0269304412" flag="0"/>
      <psa03 value="0.0688484430" flag="0"/>
      <psa10 value="0.0257949734" flag="0"/>
      <psa30 value="0.0013633458" flag="0"/>
    </comp>
    <comp name="--.HHE">
      <acc value="0.0397985411" flag="0"/>
      <vel value="0.0327676274" flag="0"/>
      <psa03 value="0.1253515047" flag="0"/>
      <psa10 value="0.0333071607" flag="0"/>
      <psa30 value="0.0030211333" flag="0"/>
    </comp>
  </station>
  <station code="BORR" name="BORR" netid="RO" insttype="200" lat="47.0902" lon="21.7856">
    <comp name="--.HNE">
      <acc value="0.0186476506" flag="0"/>
      <vel value="0.0072820586" flag="0"/>
      <psa03 value="0.0438506841" flag="0"/>
      <psa10 value="0.0083062490" flag="0"/>
      <psa30 value="0.0009223739" flag="0"/>
    </comp>
  </station>
</stationlist>
