<?xml version="1.0" encoding="UTF-8" standalone="yes"?>
<!DOCTYPE earthquake SYSTEM "stationlist.dtd">
<stationlist created="" xmlns="ch.ethz.sed.shakemap.usgs.xml">
  <station code="PSAM" name="PSAM" netid="CL" insttype="CMG40-T" lat="38.3218" lon="22.1842">
    <comp name="00.HHE">
      <acc value="0.1951459872" flag="0"/>
      <vel value="0.0745584968" flag="0"/>
      <psa03 value="0.4300580660" flag="0"/>
      <psa10 value="0.0450676135" flag="0"/>
      <psa30 value="0.0064157581" flag="0"/>
    </comp>
    <comp name="00.HHZ">
      <acc value="0.0687450655" flag="0"/>
      <vel value="0.0280142834" flag="0"/>
      <psa03 value="0.0930478207" flag="0"/>
      <psa10 value="0.0263403222" flag="0"/>
      <psa30 value="0.0020850773" flag="0"/>
    </comp>
    <comp name="00.HHN">
      <acc value="0.1088996927" flag="0"/>
      <vel value="0.0627490956" flag="0"/>
      <psa03 value="0.1878594798" flag="0"/>
      <psa10 value="0.0945533219" flag="0"/>
      <psa30 value="0.0066366129" flag="0"/>
    </comp>
  </station>
  <station code="ROD3" name="ROD3" netid="CL" insttype="CMG40-T" lat="38.3081" lon="21.892">
    <comp name="00.HHE">
      <acc value="0.9095776631" flag="0"/>
      <vel value="0.3556786007" flag="0"/>
      <psa03 value="2.4340954704" flag="0"/>
      <psa10 value="0.1418665612" flag="0"/>
      <psa30 value="0.0131764892" flag="0"/>
    </comp>
    <comp name="00.HHZ">
      <acc value="0.3808763196" flag="0"/>
      <vel value="0.1111481378" flag="0"/>
      <psa03 value="0.5037957873" flag="0"/>
      <psa10 value="0.0708930273" flag="0"/>
      <psa30 value="0.0044905700" flag="0"/>
    </comp>
    <comp name="00.HHN">
      <acc value="0.7945128870" flag="0"/>
      <vel value="0.3106609717" flag="0"/>
      <psa03 value="1.9785896632" flag="0"/>
      <psa10 value="0.1370764698" flag="0"/>
      <psa30 value="0.0109781658" flag="0"/>
    </comp>
  </station>
  <station code="TRIZ" name="TRIZ" netid="CL" insttype="STS-2" lat="38.3654" lon="22.0727">
    <comp name="00.HH2">
      <acc value="0.1983846425" flag="0"/>
      <vel value="0.1110122477" flag="0"/>
      <psa03 value="0.6489006244" flag="0"/>
      <psa10 value="0.0629642961" flag="0"/>
      <psa30 value="0.0031637044" flag="0"/>
    </comp>
    <comp name="00.HH3">
      <acc value="0.1625603061" flag="0"/>
      <vel value="0.0942548165" flag="0"/>
      <psa03 value="0.4950486799" flag="0"/>
      <psa10 value="0.0699728755" flag="0"/>
      <psa30 value="0.0081634601" flag="0"/>
    </comp>
    <comp name="00.HHZ">
      <acc value="0.1463720990" flag="0"/>
      <vel value="0.0486557849" flag="0"/>
      <psa03 value="0.3609987767" flag="0"/>
      <psa10 value="0.0299955267" flag="0"/>
      <psa30 value="0.0017365304" flag="0"/>
    </comp>
  </station>
  <station code="ZIRI" name="ZIRI" netid="CL" insttype="TRILLIUM-40" lat="38.3051" lon="21.9476">
    <comp name="01.HHZ">
      <acc value="0.5747870746" flag="0"/>
      <vel value="0.1584584949" flag="0"/>
      <psa03 value="0.9914872193" flag="0"/>
      <psa10 value="0.0655055281" flag="0"/>
      <psa30 value="0.0038276350" flag="0"/>
    </comp>
    <comp name="01.HHN">
      <acc value="0.9756329499" flag="0"/>
      <vel value="0.3682089809" flag="0"/>
      <psa03 value="2.1638884635" flag="0"/>
      <psa10 value="0.1955304676" flag="0"/>
      <psa30 value="0.0121786897" flag="0"/>
    </comp>
    <comp name="01.HHE">
      <acc value="0.9766443869" flag="0"/>
      <vel value="0.4421602192" flag="0"/>
      <psa03 value="1.6469195510" flag="0"/>
      <psa10 value="0.2815221881" flag="0"/>
      <psa30 value="0.0213225848" flag="0"/>
    </comp>
  </station>
  <station code="KLV" name="KLV" netid="MN" insttype="" lat="38.0437" lon="22.1504">
    <comp name="--.HHE">
      <acc value="0.2007074437" flag="0"/>
      <vel value="0.0484417030" flag="0"/>
      <psa03 value="0.2499782819" flag="0"/>
      <psa10 value="0.0361793063" flag="0"/>
      <psa30 value="0.0019145280" flag="0"/>
    </comp>
    <comp name="--.HHN">
      <acc value="0.2468372258" flag="0"/>
      <vel value="0.0534220352" flag="0"/>
      <psa03 value="0.2883295653" flag="0"/>
      <psa10 value="0.0345560870" flag="0"/>
      <psa30 value="0.0015933552" flag="0"/>
    </comp>
    <comp name="--.HHZ">
      <acc value="0.2706268637" flag="0"/>
      <vel value="0.0683749784" flag="0"/>
      <psa03 value="0.2710252271" flag="0"/>
      <psa10 value="0.0389492613" flag="0"/>
      <psa30 value="0.0036019903" flag="0"/>
    </comp>
  </station>
</stationlist>
