<?xml version="1.0" encoding="UTF-8" standalone="yes"?>
<!DOCTYPE earthquake SYSTEM "stationlist.dtd">
<stationlist created="" xmlns="ch.ethz.sed.shakemap.usgs.xml">
  <station code="PSAM" name="PSAM" netid="CL" insttype="CMG40-T" lat="38.3218" lon="22.1842">
    <comp name="00.HHE">
      <acc value="0.1951459872" flag="0"/>
      <vel value="0.0745584968" flag="0"/>
      <psa03 value="0.4300580660" flag="0"/>
      <psa10 value="0.0450676135" flag="0"/>
      <psa30 value="0.0064157581" flag="0"/>
    </comp>
    <comp name="00.HHZ">
      <acc value="0.0687450655" flag="0"/>
      <vel value="0.0280142834" flag="0"/>
      <psa03 value="0.0930478207" flag="0"/>
      <psa10 value="0.0263403222" flag="0"/>
      <psa30 value="0.0020850773" flag="0"/>
    </comp>
    <comp name="00.HHN">
      <acc value="0.1088996927" flag="0"/>
      <vel value="0.0627490956" flag="0"/>
      <psa03 value="0.1878594798" flag="0"/>
      <psa10 value="0.0945533219" flag="0"/>
      <psa30 value="0.0066366129" flag="0"/>
    </comp>
  </station>
  <station code="ROD3" name="ROD3" netid="CL" insttype="CMG40-T" lat="38.3081" lon="21.892">
    <comp name="00.HHE">
      <acc value="0.9095776631" flag="0"/>
      <vel value="0.3556786007" flag="0"/>
      <psa03 value="2.4340954704" flag="0"/>
      <psa10 value="0.1418665612" flag="0"/>
      <psa30 value="0.0131764892" flag="0"/>
    </comp>
    <comp name="00.HHZ">
      <acc value="0.3808763196" flag="0"/>
      <vel value="0.1111481378" flag="0"/>
      <psa03 value="0.5037957873" flag="0"/>
      <psa10 value="0.0708930273" flag="0"/>
      <psa30 value="0.0044905700" flag="0"/>
    </comp>
    <comp name="00.HHN">
      <acc value="0.7945128870" flag="0"/>
      <vel value="0.3106609717" flag="0"/>
      <psa03 value="1.9785896632" flag="0"/>
      <psa10 value="0.1370764698" flag="0"/>
      <psa30 value="0.0109781658" flag="0"/>
    </comp>
  </station>
  <station code="TRIZ" name="TRIZ" netid="CL" insttype="STS-2" lat="38.3654" lon="22.0727">
    <comp name="00.HH2">
      <acc value="0.1983846425" flag="0"/>
      <vel value="0.1110122477" flag="0"/>
      <psa03 value="0.6489006244" flag="0"/>
      <psa10 value="0.0629642961" flag="0"/>
      <psa30 value="0.0031637044" flag="0"/>
    </comp>
    <comp name="00.HH3">
      <acc value="0.1625603061" flag="0"/>
      <vel value="0.0942548165" flag="0"/>
      <psa03 value="0.4950486799" flag="0"/>
      <psa10 value="0.0699728755" flag="0"/>
      <psa30 value="0.0081634601" flag="0"/>
    </comp>
    <comp name="00.HHZ">
      <acc value="0.1463720990" flag="0"/>
      <vel value="0.0486557849" flag="0"/>
      <psa03 value="0.3609987767" flag="0"/>
      <psa10 value="0.0299955267" flag="0"/>
      <psa30 value="0.0017365304" flag="0"/>
    </comp>
  </station>
  <station code="ZIRI" name="ZIRI" netid="CL" insttype="TRILLIUM-40" lat="38.3051" lon="21.9476">
    <comp name="01.HHZ">
      <acc value="0.5747870746" flag="0"/>
      <vel value="0.1584584949" flag="0"/>
      <psa03 value="0.9914872193" flag="0"/>
      <psa10 value="0.0655055281" flag="0"/>
      <psa30 value="0.0038276350" flag="0"/>
    </comp>
    <comp name="01.HHN">
      <acc value="0.9756329499" flag="0"/>
      <vel value="0.3682089809" flag="0"/>
      <psa03 value="2.1638884635" flag="0"/>
      <psa10 value="0.1955304676" flag="0"/>
      <psa30 value="0.0121786897" flag="0"/>
    </comp>
    <comp name="01.HHE">
      <acc value="0.9766443869" flag="0"/>
      <vel value="0.4421602192" flag="0"/>
      <psa03 value="1.6469195510" flag="0"/>
      <psa10 value="0.2815221881" flag="0"/>
      <psa30 value="0.0213225848" flag="0"/>
    </comp>
  </station>
  <station code="ACOR" name="ACOR" netid="HA" insttype="Horizon,120s,1200" lat="37.8905" lon="22.8694">
    <comp name="--.HHE">
      <acc value="0.0117896597" flag="0"/>
      <vel value="0.0041407603" flag="0"/>
      <psa03 value="0.0141801507" flag="0"/>
      <psa10 value="0.0054859301" flag="0"/>
      <psa30 value="0.0006989763" flag="0"/>
    </comp>
    <comp name="--.HHZ">
      <acc value="0.0099987438" flag="0"/>
      <vel value="0.0051471705" flag="0"/>
      <psa03 value="0.0248059509" flag="0"/>
      <psa10 value="0.0059456150" flag="0"/>
      <psa30 value="0.0004207657" flag="0"/>
    </comp>
    <comp name="--.HHN">
      <acc value="0.0085787460" flag="0"/>
      <vel value="0.0060053356" flag="0"/>
      <psa03 value="0.0253770266" flag="0"/>
      <psa10 value="0.0101892450" flag="0"/>
      <psa30 value="0.0008544179" flag="0"/>
    </comp>
  </station>
  <station code="AIGS" name="AIGS" netid="HA" insttype="DC" lat="38.25" lon="22.0878">
    <comp name="--.HNE">
      <acc value="0.6029296293" flag="0"/>
      <vel value="0.2907837676" flag="0"/>
      <psa03 value="1.4202989221" flag="0"/>
      <psa10 value="0.1759322485" flag="0"/>
      <psa30 value="0.0140591544" flag="0"/>
    </comp>
    <comp name="--.HNZ">
      <acc value="0.3020906252" flag="0"/>
      <vel value="0.1028831595" flag="0"/>
      <psa03 value="0.4727810537" flag="0"/>
      <psa10 value="0.1122103832" flag="0"/>
      <psa30 value="0.0051306018" flag="0"/>
    </comp>
    <comp name="--.HNN">
      <acc value="0.5341153626" flag="0"/>
      <vel value="0.2669103795" flag="0"/>
      <psa03 value="0.9743905166" flag="0"/>
      <psa10 value="0.1658263762" flag="0"/>
      <psa30 value="0.0132169878" flag="0"/>
    </comp>
  </station>
  <station code="ANTK" name="ANTK" netid="HA" insttype="25" lat="38.3605" lon="22.6385">
    <comp name="--.HHN">
      <acc value="0.0003681495" flag="0"/>
      <vel value="0.0001595646" flag="0"/>
      <psa03 value="0.0009856994" flag="0"/>
      <psa10 value="0.0001219262" flag="0"/>
      <psa30 value="0.0000059737" flag="0"/>
    </comp>
    <comp name="--.HHZ">
      <acc value="0.0048274438" flag="0"/>
      <vel value="0.0028529815" flag="0"/>
      <psa03 value="0.0165997237" flag="0"/>
      <psa10 value="0.0033348618" flag="0"/>
      <psa30 value="0.0002026819" flag="0"/>
    </comp>
    <comp name="--.HHE">
      <acc value="0.0071378671" flag="0"/>
      <vel value="0.0045657053" flag="0"/>
      <psa03 value="0.0135700239" flag="0"/>
      <psa10 value="0.0078306198" flag="0"/>
      <psa30 value="0.0005384686" flag="0"/>
    </comp>
  </station>
  <station code="ATHR" name="ATHR" netid="HA" insttype="GEOtiny," lat="38.3172" lon="20.4165">
    <comp name="--.HHE">
      <acc value="0.0119621430" flag="0"/>
      <vel value="0.0062781438" flag="0"/>
      <psa03 value="0.0365918399" flag="0"/>
      <psa10 value="0.0112508430" flag="0"/>
      <psa30 value="0.0013194976" flag="0"/>
    </comp>
    <comp name="--.HHN">
      <acc value="0.0133328820" flag="0"/>
      <vel value="0.0081821143" flag="0"/>
      <psa03 value="0.0316549746" flag="0"/>
      <psa10 value="0.0085139846" flag="0"/>
      <psa30 value="0.0013529537" flag="0"/>
    </comp>
    <comp name="--.HHZ">
      <acc value="0.0095932972" flag="0"/>
      <vel value="0.0060888740" flag="0"/>
      <psa03 value="0.0153968216" flag="0"/>
      <psa10 value="0.0068694508" flag="0"/>
      <psa30 value="0.0005697865" flag="0"/>
    </comp>
  </station>
  <station code="AXAR" name="AXAR" netid="HA" insttype="Horizon,120s,1200" lat="38.7664" lon="22.659">
    <comp name="--.HHZ">
      <acc value="0.0233789241" flag="0"/>
      <vel value="0.0168148831" flag="0"/>
      <psa03 value="0.0755989397" flag="0"/>
      <psa10 value="0.0249912577" flag="0"/>
      <psa30 value="0.0020785071" flag="0"/>
    </comp>
    <comp name="--.HHE">
      <acc value="0.0539904938" flag="0"/>
      <vel value="0.0406541225" flag="0"/>
      <psa03 value="0.1743759811" flag="0"/>
      <psa10 value="0.0312157244" flag="0"/>
      <psa30 value="0.0048089709" flag="0"/>
    </comp>
    <comp name="--.HHN">
      <acc value="0.0535056604" flag="0"/>
      <vel value="0.0355399425" flag="0"/>
      <psa03 value="0.1769680207" flag="0"/>
      <psa10 value="0.0440536256" flag="0"/>
      <psa30 value="0.0027871443" flag="0"/>
    </comp>
  </station>
  <station code="DOMV" name="DOMV" netid="HA" insttype="60" lat="38.2569" lon="22.9795">
    <comp name="--.HHZ">
      <acc value="0.0281446531" flag="0"/>
      <vel value="0.0089115181" flag="0"/>
      <psa03 value="0.0528428276" flag="0"/>
      <psa10 value="0.0080521020" flag="0"/>
      <psa30 value="0.0004111876" flag="0"/>
    </comp>
    <comp name="--.HHN">
      <acc value="0.0300416370" flag="0"/>
      <vel value="0.0135806551" flag="0"/>
      <psa03 value="0.0949200351" flag="0"/>
      <psa10 value="0.0121016668" flag="0"/>
      <psa30 value="0.0013109827" flag="0"/>
    </comp>
    <comp name="--.HHE">
      <acc value="0.0392830151" flag="0"/>
      <vel value="0.0114939638" flag="0"/>
      <psa03 value="0.0788165768" flag="0"/>
      <psa10 value="0.0087754374" flag="0"/>
      <psa30 value="0.0006054422" flag="0"/>
    </comp>
  </station>
  <station code="HAVD" name="HAVD" netid="HA" insttype="GEOtiny," lat="38.2036" lon="20.3848">
    <comp name="--.HHZ">
      <acc value="0.0142199175" flag="0"/>
      <vel value="0.0050485943" flag="0"/>
      <psa03 value="0.0266919647" flag="0"/>
      <psa10 value="0.0052862055" flag="0"/>
      <psa30 value="0.0004891902" flag="0"/>
    </comp>
    <comp name="--.HHE">
      <acc value="0.0156594395" flag="0"/>
      <vel value="0.0052975756" flag="0"/>
      <psa03 value="0.0208918569" flag="0"/>
      <psa10 value="0.0061004276" flag="0"/>
      <psa30 value="0.0005009113" flag="0"/>
    </comp>
    <comp name="--.HHN">
      <acc value="0.0191544801" flag="0"/>
      <vel value="0.0072483227" flag="0"/>
      <psa03 value="0.0394269212" flag="0"/>
      <psa10 value="0.0127630707" flag="0"/>
      <psa30 value="0.0013871035" flag="0"/>
    </comp>
  </station>
  <station code="KALE" name="KALE" netid="HA" insttype="40," lat="38.3911" lon="22.1398">
    <comp name="--.HHN">
      <acc value="0.1971000462" flag="0"/>
      <vel value="0.0965883966" flag="0"/>
      <psa03 value="0.4160572247" flag="0"/>
      <psa10 value="0.0805738724" flag="0"/>
      <psa30 value="0.0047946192" flag="0"/>
    </comp>
    <comp name="--.HHE">
      <acc value="0.1936129755" flag="0"/>
      <vel value="0.1015890688" flag="0"/>
      <psa03 value="0.3869623115" flag="0"/>
      <psa10 value="0.0927405831" flag="0"/>
      <psa30 value="0.0064146027" flag="0"/>
    </comp>
    <comp name="--.HHZ">
      <acc value="0.0972790046" flag="0"/>
      <vel value="0.0370366669" flag="0"/>
      <psa03 value="0.2107737023" flag="0"/>
      <psa10 value="0.0228475749" flag="0"/>
      <psa30 value="0.0015338675" flag="0"/>
    </comp>
  </station>
  <station code="KIAS" name="KIAS" netid="HA" insttype="DC" lat="37.9875" lon="22.7543">
    <comp name="--.HNE">
      <acc value="0.0732925091" flag="0"/>
      <vel value="0.0226057966" flag="0"/>
      <psa03 value="0.0933137293" flag="0"/>
      <psa10 value="0.0259685821" flag="0"/>
      <psa30 value="0.0033917971" flag="0"/>
    </comp>
    <comp name="--.HNZ">
      <acc value="0.0371144676" flag="0"/>
      <vel value="0.0126146080" flag="0"/>
      <psa03 value="0.0572188806" flag="0"/>
      <psa10 value="0.0174062270" flag="0"/>
      <psa30 value="0.0021002790" flag="0"/>
    </comp>
    <comp name="--.HNN">
      <acc value="0.0924637057" flag="0"/>
      <vel value="0.0236746542" flag="0"/>
      <psa03 value="0.0793811229" flag="0"/>
      <psa10 value="0.0268603940" flag="0"/>
      <psa30 value="0.0034007234" flag="0"/>
    </comp>
  </station>
  <station code="LAKA" name="LAKA" netid="HA" insttype="120s," lat="38.2401" lon="21.9785">
    <comp name="--.HHN">
      <acc value="0.2260415172" flag="0"/>
      <vel value="0.0987098032" flag="0"/>
      <psa03 value="0.2439594597" flag="0"/>
      <psa10 value="0.1272042538" flag="0"/>
      <psa30 value="0.0051427275" flag="0"/>
    </comp>
    <comp name="--.HHZ">
      <acc value="0.1895494944" flag="0"/>
      <vel value="0.0892532923" flag="0"/>
      <psa03 value="0.3197483978" flag="0"/>
      <psa10 value="0.0478580148" flag="0"/>
      <psa30 value="0.0035763932" flag="0"/>
    </comp>
    <comp name="--.HHE">
      <acc value="0.2114770076" flag="0"/>
      <vel value="0.1433492936" flag="0"/>
      <psa03 value="0.3385977858" flag="0"/>
      <psa10 value="0.1710945395" flag="0"/>
      <psa30 value="0.0132754832" flag="0"/>
    </comp>
  </station>
  <station code="LOUT" name="LOUT" netid="HA" insttype="30" lat="37.9879" lon="22.9743">
    <comp name="--.HHZ">
      <acc value="0.0253945239" flag="0"/>
      <vel value="0.0127836111" flag="0"/>
      <psa03 value="0.0735350160" flag="0"/>
      <psa10 value="0.0068267328" flag="0"/>
      <psa30 value="0.0004366813" flag="0"/>
    </comp>
    <comp name="--.HHE">
      <acc value="0.0255259256" flag="0"/>
      <vel value="0.0121085404" flag="0"/>
      <psa03 value="0.0670305000" flag="0"/>
      <psa10 value="0.0149107896" flag="0"/>
      <psa30 value="0.0010075211" flag="0"/>
    </comp>
    <comp name="--.HHN">
      <acc value="0.0222020217" flag="0"/>
      <vel value="0.0096355832" flag="0"/>
      <psa03 value="0.0689780513" flag="0"/>
      <psa10 value="0.0119943206" flag="0"/>
      <psa30 value="0.0007330902" flag="0"/>
    </comp>
  </station>
  <station code="PRDM" name="PRDM" netid="HA" insttype="25" lat="38.2804" lon="22.847">
    <comp name="--.HHE">
      <acc value="0.0089645414" flag="0"/>
      <vel value="0.0040822530" flag="0"/>
      <psa03 value="0.0166003632" flag="0"/>
      <psa10 value="0.0067729361" flag="0"/>
      <psa30 value="0.0003669935" flag="0"/>
    </comp>
    <comp name="--.HHZ">
      <acc value="0.0046110087" flag="0"/>
      <vel value="0.0023426082" flag="0"/>
      <psa03 value="0.0139938229" flag="0"/>
      <psa10 value="0.0019230054" flag="0"/>
      <psa30 value="0.0002208593" flag="0"/>
    </comp>
    <comp name="--.HHN">
      <acc value="0.0079443826" flag="0"/>
      <vel value="0.0028893325" flag="0"/>
      <psa03 value="0.0174244775" flag="0"/>
      <psa10 value="0.0017271430" flag="0"/>
      <psa30 value="0.0001930615" flag="0"/>
    </comp>
  </station>
  <station code="THAL" name="THAL" netid="HA" insttype="30" lat="38.0357" lon="22.6634">
    <comp name="--.HHE">
      <acc value="0.1627219922" flag="0"/>
      <vel value="0.0458591969" flag="0"/>
      <psa03 value="0.2103360852" flag="0"/>
      <psa10 value="0.0318770240" flag="0"/>
      <psa30 value="0.0022669019" flag="0"/>
    </comp>
    <comp name="--.HHN">
      <acc value="0.1185660382" flag="0"/>
      <vel value="0.0483888741" flag="0"/>
      <psa03 value="0.3032284671" flag="0"/>
      <psa10 value="0.0293290085" flag="0"/>
      <psa30 value="0.0015583218" flag="0"/>
    </comp>
    <comp name="--.HHZ">
      <acc value="0.0773067856" flag="0"/>
      <vel value="0.0246089360" flag="0"/>
      <psa03 value="0.0922943056" flag="0"/>
      <psa10 value="0.0147190573" flag="0"/>
      <psa30 value="0.0009457541" flag="0"/>
    </comp>
  </station>
  <station code="ARG2" name="ARG2" netid="HI" insttype="CMG-5TD,ACCELEROMETER,GURALP" lat="38.1783" lon="20.4878">
    <comp name="--.HNE">
      <acc value="0.0493320711" flag="0"/>
      <vel value="0.0129837101" flag="0"/>
      <psa03 value="0.0636409272" flag="0"/>
      <psa10 value="0.0116284134" flag="0"/>
      <psa30 value="0.0007701849" flag="0"/>
    </comp>
    <comp name="--.HNN">
      <acc value="0.0438575912" flag="0"/>
      <vel value="0.0152892092" flag="0"/>
      <psa03 value="0.0580335457" flag="0"/>
      <psa10 value="0.0098874561" flag="0"/>
      <psa30 value="0.0009983354" flag="0"/>
    </comp>
    <comp name="--.HNZ">
      <acc value="0.0298900401" flag="0"/>
      <vel value="0.0069189044" flag="0"/>
      <psa03 value="0.0476154078" flag="0"/>
      <psa10 value="0.0074377251" flag="0"/>
      <psa30 value="0.0005727071" flag="0"/>
    </comp>
  </station>
  <station code="KLV1" name="KLV1" netid="HI" insttype="CMG-5TD,ACCELEROMETER,GURALP" lat="38.0326" lon="22.108">
    <comp name="--.HNE">
      <acc value="0.5751034559" flag="0"/>
      <vel value="0.2184936014" flag="0"/>
      <psa03 value="0.9427246831" flag="0"/>
      <psa10 value="0.1411887840" flag="0"/>
      <psa30 value="0.0052742392" flag="0"/>
    </comp>
    <comp name="--.HNN">
      <acc value="0.4565355041" flag="0"/>
      <vel value="0.1552060810" flag="0"/>
      <psa03 value="0.6612229352" flag="0"/>
      <psa10 value="0.1015562989" flag="0"/>
      <psa30 value="0.0045587584" flag="0"/>
    </comp>
    <comp name="--.HNZ">
      <acc value="0.3337768980" flag="0"/>
      <vel value="0.0841165667" flag="0"/>
      <psa03 value="0.3239825692" flag="0"/>
      <psa10 value="0.0725445381" flag="0"/>
      <psa30 value="0.0057518187" flag="0"/>
    </comp>
  </station>
  <station code="KRI1" name="KRI1" netid="HI" insttype="CMG-5TD,ACCELEROMETER,GURALP" lat="37.6621" lon="20.8172">
    <comp name="--.HNE">
      <acc value="0.0286065023" flag="0"/>
      <vel value="0.0199575305" flag="0"/>
      <psa03 value="0.0859065095" flag="0"/>
      <psa10 value="0.0289970515" flag="0"/>
      <psa30 value="0.0026942369" flag="0"/>
    </comp>
    <comp name="--.HNN">
      <acc value="0.0332098368" flag="0"/>
      <vel value="0.0326683429" flag="0"/>
      <psa03 value="0.0961266372" flag="0"/>
      <psa10 value="0.0385654082" flag="0"/>
      <psa30 value="0.0024010076" flag="0"/>
    </comp>
    <comp name="--.HNZ">
      <acc value="0.0246461055" flag="0"/>
      <vel value="0.0112247393" flag="0"/>
      <psa03 value="0.0601467674" flag="0"/>
      <psa10 value="0.0128927283" flag="0"/>
      <psa30 value="0.0007568927" flag="0"/>
    </comp>
  </station>
  <station code="MSL1" name="MSL1" netid="HI" insttype="CMG-5TD,ACCELEROMETER,GURALP" lat="38.3727" lon="21.4243">
    <comp name="--.HNN">
      <acc value="0.1946430829" flag="0"/>
      <vel value="0.1165145449" flag="0"/>
      <psa03 value="0.4249230996" flag="0"/>
      <psa10 value="0.1758333070" flag="0"/>
      <psa30 value="0.0174590014" flag="0"/>
    </comp>
    <comp name="--.HNZ">
      <acc value="0.1116990750" flag="0"/>
      <vel value="0.0418835788" flag="0"/>
      <psa03 value="0.1547313392" flag="0"/>
      <psa10 value="0.0737965503" flag="0"/>
      <psa30 value="0.0039461950" flag="0"/>
    </comp>
    <comp name="--.HNE">
      <acc value="0.2182959145" flag="0"/>
      <vel value="0.1035870913" flag="0"/>
      <psa03 value="0.3631431712" flag="0"/>
      <psa10 value="0.2248520672" flag="0"/>
      <psa30 value="0.0163121333" flag="0"/>
    </comp>
  </station>
  <station code="PYL1" name="PYL1" netid="HI" insttype="CMG-5TD,ACCELEROMETER,GURALP" lat="36.9142" lon="21.6952">
    <comp name="--.HNE">
      <acc value="0.0093055719" flag="0"/>
      <vel value="0.0074462142" flag="0"/>
      <psa03 value="0.0254678273" flag="0"/>
      <psa10 value="0.0112078542" flag="0"/>
      <psa30 value="0.0011145103" flag="0"/>
    </comp>
    <comp name="--.HNN">
      <acc value="0.0093759705" flag="0"/>
      <vel value="0.0047508279" flag="0"/>
      <psa03 value="0.0264525374" flag="0"/>
      <psa10 value="0.0085102067" flag="0"/>
      <psa30 value="0.0007640727" flag="0"/>
    </comp>
    <comp name="--.HNZ">
      <acc value="0.0082731652" flag="0"/>
      <vel value="0.0038222175" flag="0"/>
      <psa03 value="0.0198929057" flag="0"/>
      <psa10 value="0.0057541092" flag="0"/>
      <psa30 value="0.0005411601" flag="0"/>
    </comp>
  </station>
  <station code="VAS2" name="VAS2" netid="HI" insttype="CMG-5TD,ACCELEROMETER,GURALP" lat="38.6306" lon="20.6081">
    <comp name="--.HNE">
      <acc value="0.0780313054" flag="0"/>
      <vel value="0.0359961916" flag="0"/>
      <psa03 value="0.1734682181" flag="0"/>
      <psa10 value="0.0673646621" flag="0"/>
      <psa30 value="0.0027542413" flag="0"/>
