<?xml version="1.0" encoding="UTF-8" standalone="yes"?>
<!DOCTYPE earthquake SYSTEM "stationlist.dtd">
<stationlist created="" xmlns="ch.ethz.sed.shakemap.usgs.xml">
  <station code="PSAM" name="PSAM" netid="CL" insttype="CMG40-T" lat="38.3218" lon="22.1842">
    <comp name="00.HHE">
      <acc value="0.1951459864" flag="0"/>
      <vel value="0.0745584965" flag="0"/>
      <psa03 value="0.4300580660" flag="0"/>
      <psa10 value="0.0450676117" flag="0"/>
      <psa30 value="0.0064154128" flag="0"/>
    </comp>
    <comp name="00.HHN">
      <acc value="0.1088996933" flag="0"/>
      <vel value="0.0627490967" flag="0"/>
      <psa03 value="0.1878594798" flag="0"/>
      <psa10 value="0.0945533211" flag="0"/>
      <psa30 value="0.0066362930" flag="0"/>
    </comp>
    <comp name="00.HHZ">
      <acc value="0.0687450668" flag="0"/>
      <vel value="0.0280142845" flag="0"/>
      <psa03 value="0.0930478207" flag="0"/>
      <psa10 value="0.0263403221" flag="0"/>
      <psa30 value="0.0020850179" flag="0"/>
    </comp>
  </station>
  <station code="ROD3" name="ROD3" netid="CL" insttype="CMG40-T" lat="38.3081" lon="21.892">
    <comp name="00.HHE">
      <acc value="0.9095776632" flag="0"/>
      <vel value="0.3556786011" flag="0"/>
      <psa03 value="2.4340954704" flag="0"/>
      <psa10 value="0.1418665606" flag="0"/>
      <psa30 value="0.0131766839" flag="0"/>
    </comp>
    <comp name="00.HHN">
      <acc value="0.7945128883" flag="0"/>
      <vel value="0.3106609719" flag="0"/>
      <psa03 value="1.9785896632" flag="0"/>
      <psa10 value="0.1370764721" flag="0"/>
      <psa30 value="0.0109780742" flag="0"/>
    </comp>
    <comp name="00.HHZ">
      <acc value="0.3808763182" flag="0"/>
      <vel value="0.1111481376" flag="0"/>
      <psa03 value="0.5037957873" flag="0"/>
      <psa10 value="0.0708930272" flag="0"/>
      <psa30 value="0.0044904947" flag="0"/>
    </comp>
  </station>
  <station code="TRIZ" name="TRIZ" netid="CL" insttype="STS-2" lat="38.3654" lon="22.0727">
    <comp name="00.HH3">
      <acc value="0.1625603060" flag="0"/>
      <vel value="0.0942548164" flag="0"/>
      <psa03 value="0.4950486799" flag="0"/>
      <psa10 value="0.0699728774" flag="0"/>
      <psa30 value="0.0081631653" flag="0"/>
    </comp>
    <comp name="00.HH2">
      <acc value="0.1983846424" flag="0"/>
      <vel value="0.1110122484" flag="0"/>
      <psa03 value="0.6489006244" flag="0"/>
      <psa10 value="0.0629642963" flag="0"/>
      <psa30 value="0.0031632929" flag="0"/>
    </comp>
    <comp name="00.HHZ">
      <acc value="0.1463720988" flag="0"/>
      <vel value="0.0486557849" flag="0"/>
      <psa03 value="0.3609987767" flag="0"/>
      <psa10 value="0.0299955267" flag="0"/>
      <psa30 value="0.0017365570" flag="0"/>
    </comp>
  </station>
  <station code="ZIRI" name="ZIRI" netid="CL" insttype="TRILLIUM-40" lat="38.3051" lon="21.9476">
    <comp name="01.HHE">
      <acc value="0.9766443869" flag="0"/>
      <vel value="0.4421602201" flag="0"/>
      <psa03 value="1.6469195510" flag="0"/>
      <psa10 value="0.2815221956" flag="0"/>
      <psa30 value="0.0213223710" flag="0"/>
    </comp>
    <comp name="01.HHZ">
      <acc value="0.5747870746" flag="0"/>
      <vel value="0.1584584943" flag="0"/>
      <psa03 value="0.9914872193" flag="0"/>
      <psa10 value="0.0655055261" flag="0"/>
      <psa30 value="0.0038276073" flag="0"/>
    </comp>
    <comp name="01.HHN">
      <acc value="0.9756329495" flag="0"/>
      <vel value="0.3682089808" flag="0"/>
      <psa03 value="2.1638884635" flag="0"/>
      <psa10 value="0.1955304622" flag="0"/>
      <psa30 value="0.0121784730" flag="0"/>
    </comp>
  </station>
  <station code="ACOR" name="ACOR" netid="HA" insttype="Horizon,120s,1200" lat="37.8905" lon="22.8694">
    <comp name="--.HHE">
      <acc value="0.0117896594" flag="0"/>
      <vel value="0.0041407607" flag="0"/>
      <psa03 value="0.0141801507" flag="0"/>
      <psa10 value="0.0054859302" flag="0"/>
      <psa30 value="0.0006989812" flag="0"/>
    </comp>
    <comp name="--.HHZ">
      <acc value="0.0099987436" flag="0"/>
      <vel value="0.0051471705" flag="0"/>
      <psa03 value="0.0248059509" flag="0"/>
      <psa10 value="0.0059456150" flag="0"/>
      <psa30 value="0.0004207600" flag="0"/>
    </comp>
    <comp name="--.HHN">
      <acc value="0.0085787456" flag="0"/>
      <vel value="0.0060053354" flag="0"/>
      <psa03 value="0.0253770266" flag="0"/>
      <psa10 value="0.0101892450" flag="0"/>
      <psa30 value="0.0008544569" flag="0"/>
    </comp>
  </station>
  <station code="AIGS" name="AIGS" netid="HA" insttype="DC" lat="38.25" lon="22.0878">
    <comp name="--.HNE">
      <acc value="0.6029296169" flag="0"/>
      <vel value="0.2907837928" flag="0"/>
      <psa03 value="1.4202989221" flag="0"/>
      <psa10 value="0.1759328823" flag="0"/>
      <psa30 value="0.0140602229" flag="0"/>
    </comp>
    <comp name="--.HNZ">
      <acc value="0.3020906296" flag="0"/>
      <vel value="0.1028831609" flag="0"/>
      <psa03 value="0.4727810537" flag="0"/>
      <psa10 value="0.1122101723" flag="0"/>
      <psa30 value="0.0051314770" flag="0"/>
    </comp>
    <comp name="--.HNN">
      <acc value="0.5341153563" flag="0"/>
      <vel value="0.2669103679" flag="0"/>
      <psa03 value="0.9743905166" flag="0"/>
      <psa10 value="0.1658259623" flag="0"/>
      <psa30 value="0.0132045602" flag="0"/>
    </comp>
  </station>
  <station code="ANTK" name="ANTK" netid="HA" insttype="25" lat="38.3605" lon="22.6385">
    <comp name="--.HHN">
      <acc value="0.0003681494" flag="0"/>
      <vel value="0.0001595650" flag="0"/>
      <psa03 value="0.0009856994" flag="0"/>
      <psa10 value="0.0001219262" flag="0"/>
      <psa30 value="0.0000059881" flag="0"/>
    </comp>
    <comp name="--.HHE">
      <acc value="0.0071378670" flag="0"/>
      <vel value="0.0045657048" flag="0"/>
      <psa03 value="0.0135700239" flag="0"/>
      <psa10 value="0.0078306202" flag="0"/>
      <psa30 value="0.0005383818" flag="0"/>
    </comp>
    <comp name="--.HHZ">
      <acc value="0.0048274437" flag="0"/>
      <vel value="0.0028529816" flag="0"/>
      <psa03 value="0.0165997237" flag="0"/>
      <psa10 value="0.0033348617" flag="0"/>
      <psa30 value="0.0002026818" flag="0"/>
    </comp>
  </station>
  <station code="ATHR" name="ATHR" netid="HA" insttype="GEOtiny," lat="38.3172" lon="20.4165">
    <comp name="--.HHE">
      <acc value="0.0119621376" flag="0"/>
      <vel value="0.0062817171" flag="0"/>
      <psa03 value="0.0365918406" flag="0"/>
      <psa10 value="0.0112508410" flag="0"/>
      <psa30 value="0.0013194788" flag="0"/>
    </comp>
    <comp name="--.HHZ">
      <acc value="0.0095932976" flag="0"/>
      <vel value="0.0060887692" flag="0"/>
      <psa03 value="0.0153968222" flag="0"/>
      <psa10 value="0.0068694514" flag="0"/>
      <psa30 value="0.0005697738" flag="0"/>
    </comp>
    <comp name="--.HHN">
      <acc value="0.0133328821" flag="0"/>
      <vel value="0.0081817209" flag="0"/>
      <psa03 value="0.0316549750" flag="0"/>
      <psa10 value="0.0085139824" flag="0"/>
      <psa30 value="0.0013529558" flag="0"/>
    </comp>
  </station>
  <station code="AXAR" name="AXAR" netid="HA" insttype="Horizon,120s,1200" lat="38.7664" lon="22.659">
    <comp name="--.HHE">
      <acc value="0.0539904937" flag="0"/>
      <vel value="0.0406541232" flag="0"/>
      <psa03 value="0.1743759811" flag="0"/>
      <psa10 value="0.0312157244" flag="0"/>
      <psa30 value="0.0048089665" flag="0"/>
    </comp>
    <comp name="--.HHN">
      <acc value="0.0535056604" flag="0"/>
      <vel value="0.0355399421" flag="0"/>
      <psa03 value="0.1769680207" flag="0"/>
      <psa10 value="0.0440536256" flag="0"/>
      <psa30 value="0.0027871102" flag="0"/>
    </comp>
    <comp name="--.HHZ">
      <acc value="0.0233789244" flag="0"/>
      <vel value="0.0168148834" flag="0"/>
      <psa03 value="0.0755989397" flag="0"/>
      <psa10 value="0.0249912577" flag="0"/>
      <psa30 value="0.0020784843" flag="0"/>
    </comp>
  </station>
  <station code="DOMV" name="DOMV" netid="HA" insttype="60" lat="38.2569" lon="22.9795">
    <comp name="--.HHE">
      <acc value="0.0392830150" flag="0"/>
      <vel value="0.0114939645" flag="0"/>
      <psa03 value="0.0788165768" flag="0"/>
      <psa10 value="0.0087754374" flag="0"/>
      <psa30 value="0.0006054377" flag="0"/>
    </comp>
    <comp name="--.HHZ">
      <acc value="0.0281446536" flag="0"/>
      <vel value="0.0089115175" flag="0"/>
      <psa03 value="0.0528428276" flag="0"/>
      <psa10 value="0.0080521021" flag="0"/>
      <psa30 value="0.0004112669" flag="0"/>
    </comp>
    <comp name="--.HHN">
      <acc value="0.0300416378" flag="0"/>
      <vel value="0.0135806550" flag="0"/>
      <psa03 value="0.0949200351" flag="0"/>
      <psa10 value="0.0121016668" flag="0"/>
      <psa30 value="0.0013110100" flag="0"/>
    </comp>
  </station>
  <station code="HAVD" name="HAVD" netid="HA" insttype="GEOtiny," lat="38.2036" lon="20.3848">
    <comp name="--.HHZ">
      <acc value="0.0142199177" flag="0"/>
      <vel value="0.0050485429" flag="0"/>
      <psa03 value="0.0266919651" flag="0"/>
      <psa10 value="0.0052862051" flag="0"/>
      <psa30 value="0.0004891961" flag="0"/>
    </comp>
    <comp name="--.HHN">
      <acc value="0.0191544796" flag="0"/>
      <vel value="0.0072483211" flag="0"/>
      <psa03 value="0.0394269214" flag="0"/>
      <psa10 value="0.0127630704" flag="0"/>
      <psa30 value="0.0013871163" flag="0"/>
    </comp>
    <comp name="--.HHE">
      <acc value="0.0156594398" flag="0"/>
      <vel value="0.0052972745" flag="0"/>
      <psa03 value="0.0208918570" flag="0"/>
      <psa10 value="0.0061004275" flag="0"/>
      <psa30 value="0.0005009190" flag="0"/>
    </comp>
  </station>
  <station code="KALE" name="KALE" netid="HA" insttype="40," lat="38.3911" lon="22.1398">
    <comp name="--.HHE">
      <acc value="0.1936129755" flag="0"/>
      <vel value="0.1015890693" flag="0"/>
      <psa03 value="0.3869623115" flag="0"/>
      <psa10 value="0.0927405846" flag="0"/>
      <psa30 value="0.0064144007" flag="0"/>
    </comp>
    <comp name="--.HHN">
      <acc value="0.1971000461" flag="0"/>
      <vel value="0.0965883974" flag="0"/>
      <psa03 value="0.4160572247" flag="0"/>
      <psa10 value="0.0805738742" flag="0"/>
      <psa30 value="0.0047948772" flag="0"/>
    </comp>
    <comp name="--.HHZ">
      <acc value="0.0972790046" flag="0"/>
      <vel value="0.0370366678" flag="0"/>
      <psa03 value="0.2107737023" flag="0"/>
      <psa10 value="0.0228475760" flag="0"/>
      <psa30 value="0.0015339030" flag="0"/>
    </comp>
  </station>
  <station code="KIAS" name="KIAS" netid="HA" insttype="DC" lat="37.9875" lon="22.7543">
    <comp name="--.HNN">
      <acc value="0.0924637187" flag="0"/>
      <vel value="0.0236746424" flag="0"/>
      <psa03 value="0.0793811229" flag="0"/>
      <psa10 value="0.0268603942" flag="0"/>
      <psa30 value="0.0034008493" flag="0"/>
    </comp>
    <comp name="--.HNE">
      <acc value="0.0732925056" flag="0"/>
      <vel value="0.0226057651" flag="0"/>
      <psa03 value="0.0933137293" flag="0"/>
      <psa10 value="0.0259685822" flag="0"/>
      <psa30 value="0.0033921049" flag="0"/>
    </comp>
    <comp name="--.HNZ">
      <acc value="0.0371144686" flag="0"/>
      <vel value="0.0126146068" flag="0"/>
      <psa03 value="0.0572188806" flag="0"/>
      <psa10 value="0.0174062271" flag="0"/>
      <psa30 value="0.0021007241" flag="0"/>
    </comp>
  </station>
  <station code="LAKA" name="LAKA" netid="HA" insttype="120s," lat="38.2401" lon="21.9785">
    <comp name="--.HHE">
      <acc value="0.2114770071" flag="0"/>
      <vel value="0.1433492928" flag="0"/>
      <psa03 value="0.3385977858" flag="0"/>
      <psa10 value="0.1710945402" flag="0"/>
      <psa30 value="0.0132757701" flag="0"/>
    </comp>
    <comp name="--.HHN">
      <acc value="0.2260415171" flag="0"/>
      <vel value="0.0987098034" flag="0"/>
      <psa03 value="0.2439594597" flag="0"/>
      <psa10 value="0.1272042545" flag="0"/>
      <psa30 value="0.0051428074" flag="0"/>
    </comp>
    <comp name="--.HHZ">
      <acc value="0.1895494945" flag="0"/>
      <vel value="0.0892532925" flag="0"/>
      <psa03 value="0.3197483978" flag="0"/>
      <psa10 value="0.0478580140" flag="0"/>
      <psa30 value="0.0035764269" flag="0"/>
    </comp>
  </station>
  <station code="LOUT" name="LOUT" netid="HA" insttype="30" lat="37.9879" lon="22.9743">
    <comp name="--.HHZ">
      <acc value="0.0253945257" flag="0"/>
      <vel value="0.0127836115" flag="0"/>
      <psa03 value="0.0735350160" flag="0"/>
      <psa10 value="0.0068267050" flag="0"/>
      <psa30 value="0.0004367168" flag="0"/>
    </comp>
    <comp name="--.HHN">
      <acc value="0.0222020214" flag="0"/>
      <vel value="0.0096355798" flag="0"/>
      <psa03 value="0.0689780513" flag="0"/>
      <psa10 value="0.0119943206" flag="0"/>
      <psa30 value="0.0007330918" flag="0"/>
    </comp>
    <comp name="--.HHE">
      <acc value="0.0255259267" flag="0"/>
      <vel value="0.0121085371" flag="0"/>
      <psa03 value="0.0670305000" flag="0"/>
      <psa10 value="0.0149107897" flag="0"/>
      <psa30 value="0.0010074939" flag="0"/>
    </comp>
  </station>
  <station code="PRDM" name="PRDM" netid="HA" insttype="25" lat="38.2804" lon="22.847">
    <comp name="--.HHN">
      <acc value="0.0079443827" flag="0"/>
      <vel value="0.0028893341" flag="0"/>
      <psa03 value="0.0174244775" flag="0"/>
      <psa10 value="0.0017271430" flag="0"/>
      <psa30 value="0.0001930546" flag="0"/>
    </comp>
    <comp name="--.HHE">
      <acc value="0.0089645413" flag="0"/>
      <vel value="0.0040822559" flag="0"/>
      <psa03 value="0.0166003632" flag="0"/>
      <psa10 value="0.0067729361" flag="0"/>
      <psa30 value="0.0003669758" flag="0"/>
    </comp>
    <comp name="--.HHZ">
      <acc value="0.0046110088" flag="0"/>
      <vel value="0.0023426091" flag="0"/>
      <psa03 value="0.0139938229" flag="0"/>
      <psa10 value="0.0019230054" flag="0"/>
      <psa30 value="0.0002208407" flag="0"/>
    </comp>
  </station>
  <station code="THAL" name="THAL" netid="HA" insttype="30" lat="38.0357" lon="22.6634">
    <comp name="--.HHE">
      <acc value="0.1627219921" flag="0"/>
      <vel value="0.0458591965" flag="0"/>
      <psa03 value="0.2103360852" flag="0"/>
      <psa10 value="0.0318770240" flag="0"/>
      <psa30 value="0.0022668802" flag="0"/>
    </comp>
    <comp name="--.HHZ">
      <acc value="0.0773067860" flag="0"/>
      <vel value="0.0246089356" flag="0"/>
      <psa03 value="0.0922943056" flag="0"/>
      <psa10 value="0.0147190573" flag="0"/>
      <psa30 value="0.0009458079" flag="0"/>
    </comp>
    <comp name="--.HHN">
      <acc value="0.1185660379" flag="0"/>
      <vel value="0.0483888748" flag="0"/>
      <psa03 value="0.3032284671" flag="0"/>
      <psa10 value="0.0293290085" flag="0"/>
      <psa30 value="0.0015582607" flag="0"/>
    </comp>
  </station>
  <station code="ARG2" name="ARG2" netid="HI" insttype="CMG-5TD,ACCELEROMETER,GURALP" lat="38.1783" lon="20.4878">
    <comp name="--.HNZ">
      <acc value="0.0298900420" flag="0"/>
      <vel value="0.0069189051" flag="0"/>
      <psa03 value="0.0476154078" flag="0"/>
      <psa10 value="0.0074377251" flag="0"/>
      <psa30 value="0.0005726355" flag="0"/>
    </comp>
    <comp name="--.HNN">
      <acc value="0.0438575884" flag="0"/>
      <vel value="0.0152892100" flag="0"/>
      <psa03 value="0.0580335457" flag="0"/>
      <psa10 value="0.0098874561" flag="0"/>
      <psa30 value="0.0009982752" flag="0"/>
    </comp>
    <comp name="--.HNE">
      <acc value="0.0493320730" flag="0"/>
      <vel value="0.0129837098" flag="0"/>
      <psa03 value="0.0636409272" flag="0"/>
      <psa10 value="0.0116284135" flag="0"/>
      <psa30 value="0.0007701767" flag="0"/>
    </comp>
  </station>
  <station code="KLV1" name="KLV1" netid="HI" insttype="CMG-5TD,ACCELEROMETER,GURALP" lat="38.0326" lon="22.108">
    <comp name="--.HNN">
      <acc value="0.4565355031" flag="0"/>
      <vel value="0.1552060845" flag="0"/>
      <psa03 value="0.6612229352" flag="0"/>
      <psa10 value="0.1015562964" flag="0"/>
      <psa30 value="0.0045588820" flag="0"/>
    </comp>
    <comp name="--.HNE">
      <acc value="0.5751034600" flag="0"/>
      <vel value="0.2184936049" flag="0"/>
      <psa03 value="0.9427246831" flag="0"/>
      <psa10 value="0.1411887879" flag="0"/>
      <psa30 value="0.0052750180" flag="0"/>
    </comp>
    <comp name="--.HNZ">
      <acc value="0.3337768982" flag="0"/>
      <vel value="0.0841165643" flag="0"/>
      <psa03 value="0.3239825692" flag="0"/>
      <psa10 value="0.0725445348" flag="0"/>
      <psa30 value="0.0057507949" flag="0"/>
    </comp>
  </station>
  <station code="KRI1" name="KRI1" netid="HI" insttype="CMG-5TD,ACCELEROMETER,GURALP" lat="37.6621" lon="20.8172">
    <comp name="--.HNZ">
      <acc value="0.0246460999" flag="0"/>
      <vel value="0.0112247398" flag="0"/>
      <psa03 value="0.0601467674" flag="0"/>
      <psa10 value="0.0128927283" flag="0"/>
      <psa30 value="0.0007568736" flag="0"/>
    </comp>
    <comp name="--.HNN">
      <acc value="0.0332098418" flag="0"/>
      <vel value="0.0326683406" flag="0"/>
      <psa03 value="0.0961266372" flag="0"/>
      <psa10 value="0.0385654082" flag="0"/>
      <psa30 value="0.0024008928" flag="0"/>
    </comp>
    <comp name="--.HNE">
      <acc value="0.0286065026" flag="0"/>
      <vel value="0.0199575329" flag="0"/>
      <psa03 value="0.0859065095" flag="0"/>
      <psa10 value="0.0289970516" flag="0"/>
      <psa30 value="0.0026943043" flag="0"/>
    </comp>
  </station>
  <station code="MSL1" name="MSL1" netid="HI" insttype="CMG-5TD,ACCELEROMETER,GURALP" lat="38.3727" lon="21.4243">
    <comp name="--.HNZ">
      <acc value="0.1116990754" flag="0"/>
      <vel value="0.0418835779" flag="0"/>
      <psa03 value="0.1547313392" flag="0"/>
      <psa10 value="0.0737965504" flag="0"/>
      <psa30 value="0.0039461855" flag="0"/>
    </comp>
    <comp name="--.HNN">
      <acc value="0.1946430784" flag="0"/>
      <vel value="0.1165145491" flag="0"/>
      <psa03 value="0.4249230996" flag="0"/>
      <psa10 value="0.1758333075" flag="0"/>
      <psa30 value="0.0174589859" flag="0"/>
    </comp>
    <comp name="--.HNE">
      <acc value="0.2182959117" flag="0"/>
      <vel value="0.1035870895" flag="0"/>
      <psa03 value="0.3631431712" flag="0"/>
      <psa10 value="0.2248520696" flag="0"/>
      <psa30 value="0.0163122388" flag="0"/>
    </comp>
  </station>
  <station code="PYL1" name="PYL1" netid="HI" insttype="CMG-5TD,ACCELEROMETER,GURALP" lat="36.9142" lon="21.6952">
    <comp name="--.HNE">
      <acc value="0.0093055687" flag="0"/>
      <vel value="0.0074462144" flag="0"/>
      <psa03 value="0.0254678273" flag="0"/>
      <psa10 value="0.0112078542" flag="0"/>
      <psa30 value="0.0011143987" flag="0"/>
    </comp>
    <comp name="--.HNZ">
      <acc value="0.0082731650" flag="0"/>
      <vel value="0.0038222154" flag="0"/>
      <psa03 value="0.0198929057" flag="0"/>
      <psa10 value="0.0057541092" flag="0"/>
      <psa30 value="0.0005411536" flag="0"/>
    </comp>
    <comp name="--.HNN">
      <acc value="0.0093759692" flag="0"/>
      <vel value="0.0047508285" flag="0"/>
      <psa03 value="0.0264525374" flag="0"/>
      <psa10 value="0.0085102067" flag="0"/>
      <psa30 value="0.0007640652" flag="0"/>
    </comp>
  </station>
  <station code="VAS2" name="VAS2" netid="HI" insttype="CMG-5TD,ACCELEROMETER,GURALP" lat="38.6306" lon="20.6081">
    <comp name="--.HNN">
      <acc value="0.0839364345" flag="0"/>
      <vel value="0.0474543939" flag="0"/>
      <psa03 value="0.1829004457" flag="0"/>
      <psa10 value="0.1035742388" flag="0"/>
      <psa30 value="0.0076143043" flag="0"/>
