<?xml version="1.0" encoding="UTF-8" standalone="yes"?>
<!DOCTYPE earthquake SYSTEM "stationlist.dtd">
<stationlist created="" xmlns="ch.ethz.sed.shakemap.usgs.xml">
  <station code="ARPRA" name="ARPRA" netid="KO" insttype="CMG-5T" lat="39.0929" lon="38.3356">
    <comp name="--.HNE">
      <acc value="0.0532199998" flag="0"/>
      <vel value="0.0215136113" flag="0"/>
      <psa03 value="0.1267687315" flag="0"/>
      <psa10 value="0.0153339475" flag="0"/>
      <psa30 value="0.0012512868" flag="0"/>
    </comp>
    <comp name="--.HNN">
      <acc value="0.0613187455" flag="0"/>
      <vel value="0.0252666007" flag="0"/>
      <psa03 value="0.1887594379" flag="0"/>
      <psa10 value="0.0171017087" flag="0"/>
      <psa30 value="0.0008718948" flag="0"/>
    </comp>
    <comp name="--.HNZ">
      <acc value="0.0221112596" flag="0"/>
      <vel value="0.0095826858" flag="0"/>
      <psa03 value="0.0678671995" flag="0"/>
      <psa10 value="0.0095220696" flag="0"/>
      <psa30 value="0.0012520821" flag="0"/>
    </comp>
  </station>
  <station code="DARE" name="DARE" netid="KO" insttype="CMG-3ESP" lat="38.5712" lon="37.4832">
    <comp name="--.HHE">
      <acc value="0.0191172024" flag="0"/>
      <vel value="0.0068387267" flag="0"/>
      <psa03 value="0.0313564755" flag="0"/>
      <psa10 value="0.0042584267" flag="0"/>
      <psa30 value="0.0005021180" flag="0"/>
    </comp>
    <comp name="--.HHZ">
      <acc value="0.0173466100" flag="0"/>
      <vel value="0.0068178643" flag="0"/>
      <psa03 value="0.0418299948" flag="0"/>
      <psa10 value="0.0055712377" flag="0"/>
      <psa30 value="0.0009956458" flag="0"/>
    </comp>
    <comp name="--.HHN">
      <acc value="0.0191915205" flag="0"/>
      <vel value="0.0068239553" flag="0"/>
      <psa03 value="0.0358100355" flag="0"/>
      <psa10 value="0.0050698331" flag="0"/>
      <psa30 value="0.0003292895" flag="0"/>
    </comp>
  </station>
</stationlist>
