<stationlist created="1778069768">
	<station code="PHP" name="PHP" netid="AC" source="Albanian Seismological Network (AC)" insttype="" lat="41.6847" lon="20.4408">
		<comp name="--.HNE" depth="0.0">
			<acc value="0.0267156382779826" flag="0"/>
			<vel value="0.0504407469533565" flag="0"/>
			<psa03 value="0.061954494806339" flag="0"/>
			<psa10 value="0.0622413656849389" flag="0"/>
			<psa30 value="0.0201411125831927" flag="0"/>
		</comp>
		<comp name="--.HNN" depth="0.0">
			<acc value="0.0356429754303138" flag="0"/>
			<vel value="0.0653113019295947" flag="0"/>
			<psa03 value="0.04870131997331" flag="0"/>
			<psa10 value="0.0751056403800655" flag="0"/>
			<psa30 value="0.0200809902670312" flag="0"/>
		</comp>
		<comp name="--.HNZ" depth="0.0">
			<acc value="0.0263827306750539" flag="0"/>
			<vel value="0.0536064706812058" flag="0"/>
			<psa03 value="0.0441820518440907" flag="0"/>
			<psa10 value="0.0789664386391232" flag="0"/>
			<psa30 value="0.0176329280949549" flag="0"/>
		</comp>
	</station>
	<station code="MMAA" name="MMAA" netid="EG" source="EUROSEISTEST Strong Motion Network" insttype="" lat="40.630855" lon="22.943725">
		<comp name="--.EN1" depth="0.0">
			<acc value="0.221755425794835" flag="0"/>
			<vel value="0.0652100139375528" flag="0"/>
			<psa03 value="1.75395969122053" flag="0"/>
			<psa10 value="0.216835704301098" flag="0"/>
			<psa30 value="0.0160962896335042" flag="0"/>
		</comp>
		<comp name="--.EN2" depth="0.0">
			<acc value="0.196526878635104" flag="0"/>
			<vel value="0.0608012483924613" flag="0"/>
			<psa03 value="2.36642009704932" flag="0"/>
			<psa10 value="0.313265422296826" flag="0"/>
			<psa30 value="0.0142293692925365" flag="0"/>
		</comp>
		<comp name="--.EN3" depth="0.0">
			<acc value="0.210473007839478" flag="0"/>
			<vel value="0.0481221877755428" flag="0"/>
			<psa03 value="0.747329006877358" flag="0"/>
			<psa10 value="0.0678937926305781" flag="0"/>
			<psa30 value="0.00490919562679772" flag="0"/>
		</comp>
	</station>
	<station code="SHTA" name="SHTA" netid="EG" source="EUROSEISTEST Strong Motion Network" insttype="" lat="40.613764" lon="22.952972">
		<comp name="--.EN1" depth="0.0">
			<acc value="1.08919645780155" flag="0"/>
			<vel value="0.359757494241645" flag="0"/>
			<psa03 value="1.45436734469861" flag="0"/>
			<psa10 value="0.308116301192935" flag="0"/>
			<psa30 value="0.0240457879154406" flag="0"/>
		</comp>
		<comp name="--.EN2" depth="0.0">
			<acc value="0.541819502330399" flag="0"/>
			<vel value="0.18040770311294" flag="0"/>
			<psa03 value="1.27923140947122" flag="0"/>
			<psa10 value="0.184431832703884" flag="0"/>
			<psa30 value="0.00959219460247226" flag="0"/>
		</comp>
		<comp name="--.EN3" depth="0.0">
			<acc value="0.415828677141958" flag="0"/>
			<vel value="0.126488807328219" flag="0"/>
			<psa03 value="0.542011155579504" flag="0"/>
			<psa10 value="0.103480410069348" flag="0"/>
			<psa30 value="0.00751809303678493" flag="0"/>
		</comp>
	</station>
	<station code="STC" name="STC" netid="EG" source="EUROSEISTEST Strong Motion Network" insttype="" lat="40.64865" lon="23.304856">
		<comp name="--.EN1" depth="0.0">
			<acc value="0.0964056397661428" flag="0"/>
			<vel value="0.0506087108132376" flag="0"/>
			<psa03 value="0.327705438043623" flag="0"/>
			<psa10 value="0.0601378850896674" flag="0"/>
			<psa30 value="0.00472298912483199" flag="0"/>
		</comp>
		<comp name="--.EN2" depth="0.0">
			<acc value="0.0714872998705169" flag="0"/>
			<vel value="0.0349781028325191" flag="0"/>
			<psa03 value="0.193992663561793" flag="0"/>
			<psa10 value="0.025073673507797" flag="0"/>
			<psa30 value="0.00529642711229205" flag="0"/>
		</comp>
		<comp name="--.EN3" depth="0.0">
			<acc value="0.0424858415473291" flag="0"/>
			<vel value="0.0193054323011743" flag="0"/>
			<psa03 value="0.155304006878322" flag="0"/>
			<psa10 value="0.0224979466285505" flag="0"/>
			<psa30 value="0.00238637996096109" flag="0"/>
		</comp>
	</station>
	<station code="LMS2" name="LMS2" netid="HI" source="ITSAK Strong Motion Network" insttype="" lat="40.834985" lon="21.141815">
		<comp name="--.HNE" depth="0.0">
			<acc value="0.00322104167700974" flag="0"/>
			<vel value="0.00314225421010818" flag="0"/>
			<psa03 value="0.0108276140016218" flag="0"/>
			<psa10 value="0.00412344176193992" flag="0"/>
			<psa30 value="0.000486795208006797" flag="0"/>
		</comp>
		<comp name="--.HNN" depth="0.0">
			<acc value="0.00439763061458754" flag="0"/>
			<vel value="0.00276597533882337" flag="0"/>
			<psa03 value="0.0128857555060623" flag="0"/>
			<psa10 value="0.00473551514847788" flag="0"/>
			<psa30 value="0.00062728573678817" flag="0"/>
		</comp>
		<comp name="--.HNZ" depth="0.0">
			<acc value="0.00221855726253832" flag="0"/>
			<vel value="0.00168670811779117" flag="0"/>
			<psa03 value="0.00447422066182718" flag="0"/>
			<psa10 value="0.00373284229816241" flag="0"/>
			<psa30 value="0.000449211754447448" flag="0"/>
		</comp>
	</station>
	<station code="AMYA" name="AMYA" netid="HL" source="National Observatory of Athens Seismic Network" insttype="" lat="40.6901" lon="21.67899">
		<comp name="00.HNE" depth="0.0">
			<acc value="0.00954044463644578" flag="0"/>
			<vel value="0.00104974152222282" flag="0"/>
			<psa03 value="0.00339496741295047" flag="0"/>
			<psa10 value="0.00374298115725765" flag="0"/>
			<psa30 value="0.00118149524742983" flag="0"/>
		</comp>
		<comp name="00.HNN" depth="0.0">
			<acc value="0.00611015652442796" flag="0"/>
			<vel value="0.000660562907338477" flag="0"/>
			<psa03 value="0.0034001210746682" flag="0"/>
			<psa10 value="0.00281309205666922" flag="0"/>
			<psa30 value="0.00103593831332971" flag="0"/>
		</comp>
		<comp name="00.HNZ" depth="0.0">
			<acc value="0.013387443910605" flag="0"/>
			<vel value="0.00158396160197652" flag="0"/>
			<psa03 value="0.00275769668126556" flag="0"/>
			<psa10 value="0.00174457596021871" flag="0"/>
			<psa30 value="0.000270612067346558" flag="0"/>
		</comp>
	</station>
	<station code="ARTB" name="ARTB" netid="HL" source="National Observatory of Athens Seismic Network" insttype="" lat="39.15702" lon="20.9785">
		<comp name="00.HNE" depth="0.0">
			<acc value="0.00235811026705166" flag="0"/>
			<vel value="0.00151366998736744" flag="0"/>
			<psa03 value="0.00658003094684025" flag="0"/>
			<psa10 value="0.00191255439265669" flag="0"/>
			<psa30 value="0.00032009068360353" flag="0"/>
		</comp>
		<comp name="00.HNN" depth="0.0">
			<acc value="0.00242672407876069" flag="0"/>
			<vel value="0.00135949844449901" flag="0"/>
			<psa03 value="0.00770893646046479" flag="0"/>
			<psa10 value="0.00157795042990873" flag="0"/>
			<psa30 value="0.000257205397970221" flag="0"/>
		</comp>
		<comp name="00.HNZ" depth="0.0">
			<acc value="0.00476698519811912" flag="0"/>
			<vel value="0.00129966564882544" flag="0"/>
			<psa03 value="0.00236686707978731" flag="0"/>
			<psa10 value="0.00192423547897019" flag="0"/>
			<psa30 value="0.000665444186578833" flag="0"/>
		</comp>
	</station>
	<station code="GINA" name="GINA" netid="HL" source="National Observatory of Athens Seismic Network" insttype="" lat="39.66886" lon="22.389">
		<comp name="00.HNE" depth="0.0">
			<acc value="0.00870811342615283" flag="0"/>
			<vel value="0.0133076721822681" flag="0"/>
			<psa03 value="0.023397471842678" flag="0"/>
			<psa10 value="0.0168069183758468" flag="0"/>
			<psa30 value="0.00237111582478789" flag="0"/>
		</comp>
		<comp name="00.HNN" depth="0.0">
			<acc value="0.0117725020133092" flag="0"/>
			<vel value="0.0140764769926736" flag="0"/>
			<psa03 value="0.0346759351313397" flag="0"/>
			<psa10 value="0.0163575167302039" flag="0"/>
			<psa30 value="0.00270925968349297" flag="0"/>
		</comp>
		<comp name="00.HNZ" depth="0.0">
			<acc value="0.00598250587289786" flag="0"/>
			<vel value="0.00552245300047903" flag="0"/>
			<psa03 value="0.0119087902009737" flag="0"/>
			<psa10 value="0.00970487321273571" flag="0"/>
			<psa30 value="0.000792629591151511" flag="0"/>
		</comp>
	</station>
	<station code="NASA" name="NASA" netid="HL" source="National Observatory of Athens Seismic Network" insttype="" lat="40.63111" lon="22.06706">
		<comp name="00.HNE" depth="0.0">
			<acc value="0.0489517109559389" flag="0"/>
			<vel value="0.040317250961886" flag="0"/>
			<psa03 value="0.115158014069881" flag="0"/>
			<psa10 value="0.0595360564715015" flag="0"/>
			<psa30 value="0.00420681118059527" flag="0"/>
		</comp>
		<comp name="00.HNN" depth="0.0">
			<acc value="0.0463940115469685" flag="0"/>
			<vel value="0.0420273349911531" flag="0"/>
			<psa03 value="0.134732331605593" flag="0"/>
			<psa10 value="0.0591224303208879" flag="0"/>
			<psa30 value="0.00765627885754633" flag="0"/>
		</comp>
		<comp name="00.HNZ" depth="0.0">
			<acc value="0.0280518826004601" flag="0"/>
			<vel value="0.0225432065980589" flag="0"/>
			<psa03 value="0.0671913156783198" flag="0"/>
			<psa10 value="0.0270630696705392" flag="0"/>
			<psa30 value="0.00337424186029684" flag="0"/>
		</comp>
	</station>
	<station code="OREA" name="OREA" netid="HL" source="National Observatory of Athens Seismic Network" insttype="" lat="40.72705" lon="22.91452">
		<comp name="00.HNE" depth="0.0">
			<acc value="0.193525872831745" flag="0"/>
			<vel value="0.0393714800161758" flag="0"/>
			<psa03 value="0.520397182092079" flag="0"/>
			<psa10 value="0.0264409897107928" flag="0"/>
			<psa30 value="0.00224026319810795" flag="0"/>
		</comp>
		<comp name="00.HNN" depth="0.0">
			<acc value="0.131542029844066" flag="0"/>
			<vel value="0.0265510093553557" flag="0"/>
			<psa03 value="0.30610488211265" flag="0"/>
			<psa10 value="0.0270067184375714" flag="0"/>
			<psa30 value="0.00318080550442048" flag="0"/>
		</comp>
		<comp name="00.HNZ" depth="0.0">
			<acc value="0.0936375869601981" flag="0"/>
			<vel value="0.0149276313883821" flag="0"/>
			<psa03 value="0.112369746027376" flag="0"/>
			<psa10 value="0.0181405067195568" flag="0"/>
			<psa30 value="0.00153118237081865" flag="0"/>
		</comp>
	</station>
	<station code="SOFA" name="SOFA" netid="HL" source="National Observatory of Athens Seismic Network" insttype="" lat="39.33773" lon="22.09691">
		<comp name="00.HNE" depth="0.0">
			<acc value="0.0167774516737405" flag="0"/>
			<vel value="0.0195299852549658" flag="0"/>
			<psa03 value="0.0272001143740989" flag="0"/>
			<psa10 value="0.0354584189462513" flag="0"/>
			<psa30 value="0.00176895739307898" flag="0"/>
		</comp>
		<comp name="00.HNN" depth="0.0">
			<acc value="0.0134955576025969" flag="0"/>
			<vel value="0.0151097031031269" flag="0"/>
			<psa03 value="0.0263627437982343" flag="0"/>
			<psa10 value="0.0222702277933082" flag="0"/>
			<psa30 value="0.00165142762814102" flag="0"/>
		</comp>
		<comp name="00.HNZ" depth="0.0">
			<acc value="0.00413523185235952" flag="0"/>
			<vel value="0.00456439946175216" flag="0"/>
			<psa03 value="0.00649093715418581" flag="0"/>
			<psa10 value="0.00831497113851918" flag="0"/>
			<psa30 value="0.00058780513712324" flag="0"/>
		</comp>
	</station>
	<station code="TRKA" name="TRKA" netid="HL" source="National Observatory of Athens Seismic Network" insttype="" lat="39.55381" lon="21.76624">
		<comp name="00.HNE" depth="0.0">
			<acc value="0.0149997405261558" flag="0"/>
			<vel value="0.0195508557092618" flag="0"/>
			<psa03 value="0.02775430473232" flag="0"/>
			<psa10 value="0.0491497659309766" flag="0"/>
			<psa30 value="0.00203373826684435" flag="0"/>
		</comp>
		<comp name="00.HNN" depth="0.0">
			<acc value="0.0170051273100608" flag="0"/>
			<vel value="0.0165959457400455" flag="0"/>
			<psa03 value="0.0224106148015585" flag="0"/>
			<psa10 value="0.0289943913611294" flag="0"/>
			<psa30 value="0.00250682502318867" flag="0"/>
		</comp>
		<comp name="00.HNZ" depth="0.0">
			<acc value="0.00662613289455834" flag="0"/>
			<vel value="0.00647015850484839" flag="0"/>
			<psa03 value="0.0126802384410514" flag="0"/>
			<psa10 value="0.010492604458556" flag="0"/>
			<psa30 value="0.000695541701223662" flag="0"/>
		</comp>
	</station>
	<station code="ANX" name="ANX" netid="HP" source="University of Patras, Seismological Laboratory (PSLNET)" insttype="" lat="38.5933" lon="21.9209">
		<comp name="--.HNE" depth="0.0">
			<acc value="0.00364902605759108" flag="0"/>
			<vel value="0.00435842001379435" flag="0"/>
			<psa03 value="0.00689029981921385" flag="0"/>
			<psa10 value="0.00836366068315354" flag="0"/>
			<psa30 value="0.000522588973301414" flag="0"/>
		</comp>
		<comp name="--.HNN" depth="0.0">
			<acc value="0.00406221753575657" flag="0"/>
			<vel value="0.00396610052713438" flag="0"/>
			<psa03 value="0.0112750360678045" flag="0"/>
			<psa10 value="0.00796903442078038" flag="0"/>
			<psa30 value="0.000679186696465365" flag="0"/>
		</comp>
		<comp name="--.HNZ" depth="0.0">
			<acc value="0.0035396831739227" flag="0"/>
			<vel value="0.00368572297514743" flag="0"/>
			<psa03 value="0.00532432258757434" flag="0"/>
			<psa10 value="0.00668851246736544" flag="0"/>
			<psa30 value="0.000610283698273227" flag="0"/>
		</comp>
	</station>
</stationlist>
