<?xml version="1.0" encoding="UTF-8" standalone="yes"?>
<!DOCTYPE earthquake SYSTEM "stationlist.dtd">
<stationlist created="" xmlns="ch.ethz.sed.shakemap.usgs.xml">
  <station code="LMS2" name="LMS2" netid="HI" insttype="CMG-5TD,ACCELEROMETER,GURALP" lat="40.835" lon="21.1418">
    <comp name="--.HNN">
      <acc value="0.0043857568" flag="0"/>
      <vel value="0.0029441040" flag="0"/>
      <psa03 value="0.0130471108" flag="0"/>
      <psa10 value="0.0047871418" flag="0"/>
      <psa30 value="0.0004901835" flag="0"/>
    </comp>
    <comp name="--.HNZ">
      <acc value="0.0022091105" flag="0"/>
      <vel value="0.0017457056" flag="0"/>
      <psa03 value="0.0043729751" flag="0"/>
      <psa10 value="0.0037150136" flag="0"/>
      <psa30 value="0.0003711711" flag="0"/>
    </comp>
    <comp name="--.HNE">
      <acc value="0.0032301124" flag="0"/>
      <vel value="0.0029691428" flag="0"/>
      <psa03 value="0.0106878657" flag="0"/>
      <psa10 value="0.0040793169" flag="0"/>
      <psa30 value="0.0003957820" flag="0"/>
    </comp>
  </station>
  <station code="PLN1" name="PLN1" netid="HI" insttype="CMG-5TD,ACCELEROMETER,GURALP" lat="39.998" lon="23.575">
    <comp name="--.HNZ">
      <acc value="0.0065577517" flag="0"/>
      <vel value="0.0038124976" flag="0"/>
      <psa03 value="0.0208444214" flag="0"/>
      <psa10 value="0.0051840270" flag="0"/>
      <psa30 value="0.0004107827" flag="0"/>
    </comp>
    <comp name="--.HNE">
      <acc value="0.0114794068" flag="0"/>
      <vel value="0.0092633351" flag="0"/>
      <psa03 value="0.0365925237" flag="0"/>
      <psa10 value="0.0137147876" flag="0"/>
      <psa30 value="0.0017505898" flag="0"/>
    </comp>
    <comp name="--.HNN">
      <acc value="0.0117838132" flag="0"/>
      <vel value="0.0083062230" flag="0"/>
      <psa03 value="0.0522810486" flag="0"/>
      <psa10 value="0.0204586973" flag="0"/>
      <psa30 value="0.0013805222" flag="0"/>
    </comp>
  </station>
  <station code="KZN" name="KZN" netid="HL" insttype="120" lat="40.3033" lon="21.7821">
    <comp name="--.HHZ">
      <acc value="0.0070821927" flag="0"/>
      <vel value="0.0040823901" flag="0"/>
      <psa03 value="0.0194788547" flag="0"/>
      <psa10 value="0.0069310401" flag="0"/>
      <psa30 value="0.0004954108" flag="0"/>
    </comp>
    <comp name="--.HHN">
      <acc value="0.0124154418" flag="0"/>
      <vel value="0.0066884907" flag="0"/>
      <psa03 value="0.0179260397" flag="0"/>
      <psa10 value="0.0058435977" flag="0"/>
      <psa30 value="0.0006100269" flag="0"/>
    </comp>
    <comp name="--.HHE">
      <acc value="0.0164128002" flag="0"/>
      <vel value="0.0080570261" flag="0"/>
      <psa03 value="0.0363394903" flag="0"/>
      <psa10 value="0.0136205732" flag="0"/>
      <psa30 value="0.0008713012" flag="0"/>
    </comp>
  </station>
  <station code="PLG" name="PLG" netid="HL" insttype="CMG3ESPC-120s" lat="40.3733" lon="23.4444">
    <comp name="--.HHZ">
      <acc value="0.0234586814" flag="0"/>
      <vel value="0.0103427347" flag="0"/>
      <psa03 value="0.0581142113" flag="0"/>
      <psa10 value="0.0091794876" flag="0"/>
      <psa30 value="0.0006325808" flag="0"/>
    </comp>
  </station>
  <station code="THL" name="THL" netid="HL" insttype="120" lat="39.5647" lon="22.0144">
    <comp name="--.HHE">
      <acc value="0.0084518589" flag="0"/>
      <vel value="0.0106644086" flag="0"/>
      <psa03 value="0.0100812078" flag="0"/>
      <psa10 value="0.0207059301" flag="0"/>
      <psa30 value="0.0010364887" flag="0"/>
    </comp>
    <comp name="--.HHZ">
      <acc value="0.0027898118" flag="0"/>
      <vel value="0.0039267400" flag="0"/>
      <psa03 value="0.0073364639" flag="0"/>
      <psa10 value="0.0047472168" flag="0"/>
      <psa30 value="0.0006894460" flag="0"/>
    </comp>
    <comp name="--.HHN">
      <acc value="0.0047965690" flag="0"/>
      <vel value="0.0047066937" flag="0"/>
      <psa03 value="0.0080543627" flag="0"/>
      <psa10 value="0.0095817786" flag="0"/>
      <psa30 value="0.0005718918" flag="0"/>
    </comp>
  </station>
  <station code="GRG" name="GRG" netid="HT" insttype="100" lat="40.957" lon="22.401">
    <comp name="--.HHN">
      <acc value="0.1054154710" flag="0"/>
      <vel value="0.0634589039" flag="0"/>
      <psa03 value="0.1968551402" flag="0"/>
      <psa10 value="0.0826535609" flag="0"/>
      <psa30 value="0.0056032141" flag="0"/>
    </comp>
    <comp name="--.HHZ">
      <acc value="0.0485414182" flag="0"/>
      <vel value="0.0315850309" flag="0"/>
      <psa03 value="0.1427015317" flag="0"/>
      <psa10 value="0.0470122683" flag="0"/>
      <psa30 value="0.0044840635" flag="0"/>
    </comp>
    <comp name="--.HHE">
      <acc value="0.0938477668" flag="0"/>
      <vel value="0.0441552072" flag="0"/>
      <psa03 value="0.1632362303" flag="0"/>
      <psa10 value="0.0588454014" flag="0"/>
      <psa30 value="0.0097588591" flag="0"/>
    </comp>
  </station>
  <station code="HORT" name="HORT" netid="HT" insttype="100" lat="40.5978" lon="23.0996">
    <comp name="--.HHN">
      <acc value="0.0000161055" flag="0"/>
      <vel value="0.0000028762" flag="0"/>
      <psa03 value="0.0000090570" flag="0"/>
      <psa10 value="0.0000016975" flag="0"/>
      <psa30 value="0.0000006347" flag="0"/>
    </comp>
    <comp name="--.HHZ">
      <acc value="0.0270581577" flag="0"/>
      <vel value="0.0182840772" flag="0"/>
      <psa03 value="0.0582919446" flag="0"/>
      <psa10 value="0.0094304049" flag="0"/>
      <psa30 value="0.0010518333" flag="0"/>
    </comp>
    <comp name="--.HHE">
      <acc value="0.0363390343" flag="0"/>
      <vel value="0.0141542936" flag="0"/>
      <psa03 value="0.1046577915" flag="0"/>
      <psa10 value="0.0062945459" flag="0"/>
      <psa30 value="0.0019958416" flag="0"/>
    </comp>
  </station>
  <station code="KNT" name="KNT" netid="HT" insttype="100" lat="41.162" lon="22.898">
    <comp name="--.HHN">
      <acc value="0.0251672000" flag="0"/>
      <vel value="0.0149510084" flag="0"/>
      <psa03 value="0.1079147710" flag="0"/>
      <psa10 value="0.0233971804" flag="0"/>
      <psa30 value="0.0008492664" flag="0"/>
    </comp>
    <comp name="--.HHZ">
      <acc value="0.0202988306" flag="0"/>
      <vel value="0.0083329358" flag="0"/>
      <psa03 value="0.0740310756" flag="0"/>
      <psa10 value="0.0107336381" flag="0"/>
      <psa30 value="0.0008075483" flag="0"/>
    </comp>
    <comp name="--.HHE">
      <acc value="0.0357237551" flag="0"/>
      <vel value="0.0115007303" flag="0"/>
      <psa03 value="0.0679108010" flag="0"/>
      <psa10 value="0.0114000909" flag="0"/>
      <psa30 value="0.0007906723" flag="0"/>
    </comp>
  </station>
  <station code="KPRO" name="KPRO" netid="HT" insttype="100" lat="39.9549" lon="21.3632">
    <comp name="--.HHZ">
      <acc value="0.0040063505" flag="0"/>
      <vel value="0.0035645759" flag="0"/>
      <psa03 value="0.0075732808" flag="0"/>
      <psa10 value="0.0047209479" flag="0"/>
      <psa30 value="0.0004267164" flag="0"/>
    </comp>
    <comp name="--.HHN">
      <acc value="0.0045001282" flag="0"/>
      <vel value="0.0044993031" flag="0"/>
      <psa03 value="0.0164583632" flag="0"/>
      <psa10 value="0.0058079120" flag="0"/>
      <psa30 value="0.0007792343" flag="0"/>
    </comp>
    <comp name="--.HHE">
      <acc value="0.0059971029" flag="0"/>
      <vel value="0.0060843673" flag="0"/>
      <psa03 value="0.0133431808" flag="0"/>
      <psa10 value="0.0124202152" flag="0"/>
      <psa30 value="0.0010219678" flag="0"/>
    </comp>
  </station>
  <station code="OUR" name="OUR" netid="HT" insttype="100" lat="40.3325" lon="23.9791">
    <comp name="--.HHE">
      <acc value="0.0137129565" flag="0"/>
      <vel value="0.0076992397" flag="0"/>
      <psa03 value="0.0313275876" flag="0"/>
      <psa10 value="0.0107473987" flag="0"/>
      <psa30 value="0.0007699585" flag="0"/>
    </comp>
    <comp name="--.HHN">
      <acc value="0.0155521694" flag="0"/>
      <vel value="0.0122250230" flag="0"/>
      <psa03 value="0.0672334883" flag="0"/>
      <psa10 value="0.0153950465" flag="0"/>
      <psa30 value="0.0011735940" flag="0"/>
    </comp>
    <comp name="--.HHZ">
      <acc value="0.0058170053" flag="0"/>
      <vel value="0.0043136423" flag="0"/>
      <psa03 value="0.0121811409" flag="0"/>
      <psa10 value="0.0081422451" flag="0"/>
      <psa30 value="0.0007068451" flag="0"/>
    </comp>
  </station>
  <station code="PAIG" name="PAIG" netid="HT" insttype="100" lat="39.9363" lon="23.6768">
    <comp name="--.HHE">
      <acc value="0.0021911563" flag="0"/>
      <vel value="0.0014165707" flag="0"/>
      <psa03 value="0.0087244291" flag="0"/>
      <psa10 value="0.0016971640" flag="0"/>
      <psa30 value="0.0001688283" flag="0"/>
    </comp>
    <comp name="--.HHZ">
      <acc value="0.0014661014" flag="0"/>
      <vel value="0.0012665394" flag="0"/>
      <psa03 value="0.0039008403" flag="0"/>
      <psa10 value="0.0018496023" flag="0"/>
      <psa30 value="0.0000873531" flag="0"/>
    </comp>
    <comp name="--.HHN">
      <acc value="0.0037938065" flag="0"/>
      <vel value="0.0019973383" flag="0"/>
      <psa03 value="0.0085944102" flag="0"/>
      <psa10 value="0.0023587674" flag="0"/>
      <psa30 value="0.0001878228" flag="0"/>
    </comp>
  </station>
  <station code="SOH" name="SOH" netid="HT" insttype="120P," lat="40.8217" lon="23.3539">
    <comp name="--.HHE">
      <acc value="0.0220892044" flag="0"/>
      <vel value="0.0128123503" flag="0"/>
      <psa03 value="0.0807259678" flag="0"/>
      <psa10 value="0.0130327482" flag="0"/>
      <psa30 value="0.0011764667" flag="0"/>
    </comp>
    <comp name="--.HHZ">
      <acc value="0.0184563179" flag="0"/>
      <vel value="0.0088833547" flag="0"/>
      <psa03 value="0.0562222772" flag="0"/>
      <psa10 value="0.0112073056" flag="0"/>
      <psa30 value="0.0007484014" flag="0"/>
    </comp>
    <comp name="--.HHN">
      <acc value="0.0251860810" flag="0"/>
      <vel value="0.0099840416" flag="0"/>
      <psa03 value="0.0618449452" flag="0"/>
      <psa10 value="0.0112093910" flag="0"/>
      <psa30 value="0.0013202633" flag="0"/>
    </comp>
  </station>
  <station code="SRS" name="SRS" netid="HT" insttype="100" lat="41.1087" lon="23.595">
    <comp name="--.HHN">
      <acc value="0.0101090431" flag="0"/>
      <vel value="0.0078662076" flag="0"/>
      <psa03 value="0.0359773087" flag="0"/>
      <psa10 value="0.0064057998" flag="0"/>
      <psa30 value="0.0009825403" flag="0"/>
    </comp>
    <comp name="--.HHZ">
      <acc value="0.0084472431" flag="0"/>
      <vel value="0.0053578432" flag="0"/>
      <psa03 value="0.0231244510" flag="0"/>
      <psa10 value="0.0064210957" flag="0"/>
      <psa30 value="0.0003564414" flag="0"/>
    </comp>
    <comp name="--.HHE">
      <acc value="0.0110006173" flag="0"/>
      <vel value="0.0059759213" flag="0"/>
      <psa03 value="0.0361133760" flag="0"/>
      <psa10 value="0.0067494413" flag="0"/>
      <psa30 value="0.0005684707" flag="0"/>
    </comp>
  </station>
  <station code="THE" name="THE" netid="HT" insttype="30s-100Hz," lat="40.6319" lon="22.9628">
    <comp name="--.HHE">
      <acc value="0.0523973020" flag="0"/>
      <vel value="0.0269328079" flag="0"/>
      <psa03 value="0.1355828746" flag="0"/>
      <psa10 value="0.0174581763" flag="0"/>
      <psa30 value="0.0014374453" flag="0"/>
    </comp>
    <comp name="--.HHN">
      <acc value="0.1974309413" flag="0"/>
      <vel value="0.0959738552" flag="0"/>
      <psa03 value="0.4370254819" flag="0"/>
      <psa10 value="0.0425928617" flag="0"/>
      <psa30 value="0.0051195245" flag="0"/>
    </comp>
    <comp name="--.HHZ">
      <acc value="0.0611075608" flag="0"/>
      <vel value="0.0276108723" flag="0"/>
      <psa03 value="0.1891777432" flag="0"/>
      <psa10 value="0.0127500834" flag="0"/>
      <psa30 value="0.0012712822" flag="0"/>
    </comp>
  </station>
  <station code="TYRN" name="TYRN" netid="HT" insttype="120P," lat="39.711" lon="22.2325">
    <comp name="--.HHE">
      <acc value="0.0095767950" flag="0"/>
      <vel value="0.0067024839" flag="0"/>
      <psa03 value="0.0237777585" flag="0"/>
      <psa10 value="0.0085006831" flag="0"/>
      <psa30 value="0.0012596264" flag="0"/>
    </comp>
    <comp name="--.HHN">
      <acc value="0.0086379982" flag="0"/>
      <vel value="0.0086381768" flag="0"/>
      <psa03 value="0.0220025069" flag="0"/>
      <psa10 value="0.0065139925" flag="0"/>
      <psa30 value="0.0007830947" flag="0"/>
    </comp>
    <comp name="--.HHZ">
      <acc value="0.0047071005" flag="0"/>
      <vel value="0.0044946148" flag="0"/>
      <psa03 value="0.0088493966" flag="0"/>
      <psa10 value="0.0080610204" flag="0"/>
      <psa30 value="0.0006405874" flag="0"/>
    </comp>
  </station>
  <station code="THL" name="THL" netid="MN" insttype="" lat="39.5647" lon="22.0144">
    <comp name="--.HHZ">
      <acc value="0.0027898118" flag="0"/>
      <vel value="0.0039267400" flag="0"/>
      <psa03 value="0.0073364639" flag="0"/>
      <psa10 value="0.0047472168" flag="0"/>
      <psa30 value="0.0006894460" flag="0"/>
    </comp>
  </station>
</stationlist>
