<?xml version="1.0" encoding="UTF-8" standalone="yes"?>
<!DOCTYPE earthquake SYSTEM "stationlist.dtd">
<stationlist created="" xmlns="ch.ethz.sed.shakemap.usgs.xml">
  <station code="AKS" name="AKS" netid="KO" insttype="CMG-5T" commtype="DIG" lat="38.8785" lon="27.8129">
    <comp name="--.HNZ">
      <acc value="0.0438592022" flag="0"/>
      <vel value="0.0105890342" flag="0"/>
      <psa03 value="0.0660785682" flag="0"/>
      <psa10 value="0.0049231970" flag="0"/>
      <psa30 value="0.0018265567" flag="0"/>
    </comp>
    <comp name="--.HNE">
      <acc value="0.0674497384" flag="0"/>
      <vel value="0.0261174941" flag="0"/>
      <psa03 value="0.1417979947" flag="0"/>
      <psa10 value="0.0211362387" flag="0"/>
      <psa30 value="0.0027056683" flag="0"/>
    </comp>
    <comp name="--.HNN">
      <acc value="0.0748405502" flag="0"/>
      <vel value="0.0185113387" flag="0"/>
      <psa03 value="0.1378208864" flag="0"/>
      <psa10 value="0.0148775293" flag="0"/>
      <psa30 value="0.0032297523" flag="0"/>
    </comp>
  </station>
  <station code="BALB" name="BALB" netid="KO" insttype="CMG-5T" commtype="DIG" lat="39.6507" lon="27.8642">
    <comp name="--.HNN">
      <acc value="0.0450691028" flag="0"/>
      <vel value="0.0181068726" flag="0"/>
      <psa03 value="0.1212502399" flag="0"/>
      <psa10 value="0.0167092738" flag="0"/>
      <psa30 value="0.0030828097" flag="0"/>
    </comp>
    <comp name="--.HNZ">
      <acc value="0.0278877354" flag="0"/>
      <vel value="0.0090093388" flag="0"/>
      <psa03 value="0.0375081734" flag="0"/>
      <psa10 value="0.0104028232" flag="0"/>
      <psa30 value="0.0021365042" flag="0"/>
    </comp>
    <comp name="--.HNE">
      <acc value="0.0404594602" flag="0"/>
      <vel value="0.0147682903" flag="0"/>
      <psa03 value="0.0829293490" flag="0"/>
      <psa10 value="0.0133061320" flag="0"/>
      <psa30 value="0.0020111021" flag="0"/>
    </comp>
  </station>
  <station code="DKL" name="DKL" netid="KO" insttype="CMG-3ESPC" commtype="DIG" lat="39.0713" lon="26.9053">
    <comp name="--.HHN">
      <acc value="0.0051088765" flag="0"/>
      <vel value="0.0035010963" flag="0"/>
      <psa03 value="0.0122371648" flag="0"/>
      <psa10 value="0.0054333070" flag="0"/>
      <psa30 value="0.0006164286" flag="0"/>
    </comp>
    <comp name="--.HHZ">
      <acc value="0.0039567669" flag="0"/>
      <vel value="0.0017405725" flag="0"/>
      <psa03 value="0.0091991113" flag="0"/>
      <psa10 value="0.0035004425" flag="0"/>
      <psa30 value="0.0006346564" flag="0"/>
    </comp>
    <comp name="--.HHE">
      <acc value="0.0036004906" flag="0"/>
      <vel value="0.0021387110" flag="0"/>
      <psa03 value="0.0075285935" flag="0"/>
      <psa10 value="0.0039842481" flag="0"/>
      <psa30 value="0.0008020545" flag="0"/>
    </comp>
  </station>
  <station code="DST" name="DST" netid="KO" insttype="CMG-5T" commtype="DIG" lat="39.6041" lon="28.6267">
    <comp name="--.HNE">
      <acc value="0.0526836172" flag="0"/>
      <vel value="0.0110374499" flag="0"/>
      <psa03 value="0.0663909368" flag="0"/>
      <psa10 value="0.0108457180" flag="0"/>
      <psa30 value="0.0013162452" flag="0"/>
    </comp>
    <comp name="--.HNN">
      <acc value="0.0397430401" flag="0"/>
      <vel value="0.0108014685" flag="0"/>
      <psa03 value="0.0500108293" flag="0"/>
      <psa10 value="0.0136359893" flag="0"/>
      <psa30 value="0.0011591316" flag="0"/>
    </comp>
    <comp name="--.HNZ">
      <acc value="0.0404383480" flag="0"/>
      <vel value="0.0117746936" flag="0"/>
      <psa03 value="0.0646725651" flag="0"/>
      <psa10 value="0.0085785300" flag="0"/>
      <psa30 value="0.0016300702" flag="0"/>
    </comp>
  </station>
  <station code="GOMA" name="GOMA" netid="KO" insttype="CMG-5T" commtype="DIG" lat="38.7077" lon="27.9175">
    <comp name="--.HNE">
      <acc value="0.0597352115" flag="0"/>
      <vel value="0.0250085125" flag="0"/>
      <psa03 value="0.1307676878" flag="0"/>
      <psa10 value="0.0163102925" flag="0"/>
      <psa30 value="0.0008253646" flag="0"/>
    </comp>
    <comp name="--.HNN">
      <acc value="0.0557872252" flag="0"/>
      <vel value="0.0229025318" flag="0"/>
      <psa03 value="0.0975614838" flag="0"/>
      <psa10 value="0.0106936516" flag="0"/>
      <psa30 value="0.0020643047" flag="0"/>
    </comp>
    <comp name="--.HNZ">
      <acc value="0.0532323196" flag="0"/>
      <vel value="0.0131590510" flag="0"/>
      <psa03 value="0.0644926543" flag="0"/>
      <psa10 value="0.0053546826" flag="0"/>
      <psa30 value="0.0019369407" flag="0"/>
    </comp>
  </station>
  <station code="GONE" name="GONE" netid="KO" insttype="CMG-5T" commtype="DIG" lat="40.0466" lon="27.686">
    <comp name="--.HNE">
      <acc value="0.0216556242" flag="0"/>
      <vel value="0.0080608040" flag="0"/>
      <psa03 value="0.0418274264" flag="0"/>
      <psa10 value="0.0086988947" flag="0"/>
      <psa30 value="0.0007725410" flag="0"/>
    </comp>
    <comp name="--.HNN">
      <acc value="0.0372263100" flag="0"/>
      <vel value="0.0159248413" flag="0"/>
      <psa03 value="0.0996875957" flag="0"/>
      <psa10 value="0.0128722017" flag="0"/>
      <psa30 value="0.0011907279" flag="0"/>
    </comp>
    <comp name="--.HNZ">
      <acc value="0.0164108895" flag="0"/>
      <vel value="0.0037143503" flag="0"/>
      <psa03 value="0.0185508964" flag="0"/>
      <psa10 value="0.0039841800" flag="0"/>
      <psa30 value="0.0004732224" flag="0"/>
    </comp>
  </station>
  <station code="GORD" name="GORD" netid="KO" insttype="CMG-5T" commtype="DIG" lat="38.9088" lon="28.1769">
    <comp name="--.HNE">
      <acc value="0.0290592043" flag="0"/>
      <vel value="0.0146827068" flag="0"/>
      <psa03 value="0.0617453773" flag="0"/>
      <psa10 value="0.0266942140" flag="0"/>
      <psa30 value="0.0047082329" flag="0"/>
    </comp>
    <comp name="--.HNZ">
      <acc value="0.0341010242" flag="0"/>
      <vel value="0.0161451867" flag="0"/>
      <psa03 value="0.0629455946" flag="0"/>
      <psa10 value="0.0198505937" flag="0"/>
      <psa30 value="0.0029789609" flag="0"/>
    </comp>
    <comp name="--.HNN">
      <acc value="0.0416080028" flag="0"/>
      <vel value="0.0278917595" flag="0"/>
      <psa03 value="0.0820522499" flag="0"/>
      <psa10 value="0.0439477467" flag="0"/>
      <psa30 value="0.0035122266" flag="0"/>
    </comp>
  </station>
  <station code="KCTX" name="KCTX" netid="KO" insttype="CMG-3ESP" commtype="DIG" lat="40.2626" lon="28.3353">
    <comp name="--.HHN">
      <acc value="0.0280457100" flag="0"/>
      <vel value="0.0139050540" flag="0"/>
      <psa03 value="0.0665347236" flag="0"/>
      <psa10 value="0.0127272178" flag="0"/>
      <psa30 value="0.0008104043" flag="0"/>
    </comp>
    <comp name="--.HHZ">
      <acc value="0.0242145593" flag="0"/>
      <vel value="0.0062706109" flag="0"/>
      <psa03 value="0.0423838084" flag="0"/>
      <psa10 value="0.0067081984" flag="0"/>
      <psa30 value="0.0003382997" flag="0"/>
    </comp>
    <comp name="--.HHE">
      <acc value="0.0211209771" flag="0"/>
      <vel value="0.0095319615" flag="0"/>
      <psa03 value="0.0406024812" flag="0"/>
      <psa10 value="0.0179561361" flag="0"/>
      <psa30 value="0.0008823031" flag="0"/>
    </comp>
  </station>
  <station code="KULA" name="KULA" netid="KO" insttype="CMG-3T" commtype="DIG" lat="38.5145" lon="28.6607">
    <comp name="--.HHN">
      <acc value="0.0351518920" flag="0"/>
      <vel value="0.0135504339" flag="0"/>
      <psa03 value="0.0645891830" flag="0"/>
      <psa10 value="0.0048444749" flag="0"/>
      <psa30 value="0.0005033711" flag="0"/>
    </comp>
    <comp name="--.HHZ">
      <acc value="0.0299550981" flag="0"/>
      <vel value="0.0097016484" flag="0"/>
      <psa03 value="0.0389994598" flag="0"/>
      <psa10 value="0.0085607140" flag="0"/>
      <psa30 value="0.0005854750" flag="0"/>
    </comp>
    <comp name="--.HHE">
      <acc value="0.0367430240" flag="0"/>
      <vel value="0.0102137668" flag="0"/>
      <psa03 value="0.0659577170" flag="0"/>
      <psa10 value="0.0114262910" flag="0"/>
      <psa30 value="0.0006558241" flag="0"/>
    </comp>
  </station>
  <station code="ORLT" name="ORLT" netid="KO" insttype="CMG-5T" commtype="DIG" lat="40.0452" lon="28.8914">
    <comp name="--.HNE">
      <acc value="0.0582579247" flag="0"/>
      <vel value="0.0244834402" flag="0"/>
      <psa03 value="0.1263627395" flag="0"/>
      <psa10 value="0.0213457505" flag="0"/>
      <psa30 value="0.0013963937" flag="0"/>
    </comp>
    <comp name="--.HNZ">
      <acc value="0.0196034745" flag="0"/>
      <vel value="0.0111095117" flag="0"/>
      <psa03 value="0.0546642158" flag="0"/>
      <psa10 value="0.0153383897" flag="0"/>
      <psa30 value="0.0024274301" flag="0"/>
    </comp>
    <comp name="--.HNN">
      <acc value="0.0779516780" flag="0"/>
      <vel value="0.0238252509" flag="0"/>
      <psa03 value="0.1052270598" flag="0"/>
      <psa10 value="0.0283823621" flag="0"/>
      <psa30 value="0.0023719452" flag="0"/>
    </comp>
  </station>
  <station code="SHAP" name="SHAP" netid="KO" insttype="CMG-5T" commtype="DIG" lat="39.0231" lon="29.222">
    <comp name="--.HNZ">
      <acc value="0.0242746223" flag="0"/>
      <vel value="0.0073920586" flag="0"/>
      <psa03 value="0.0255888389" flag="0"/>
      <psa10 value="0.0036709918" flag="0"/>
      <psa30 value="0.0005576688" flag="0"/>
    </comp>
    <comp name="--.HNE">
      <acc value="0.0350132699" flag="0"/>
      <vel value="0.0142575729" flag="0"/>
      <psa03 value="0.0661755682" flag="0"/>
      <psa10 value="0.0067567879" flag="0"/>
      <psa30 value="0.0004948258" flag="0"/>
    </comp>
    <comp name="--.HNN">
      <acc value="0.0403701368" flag="0"/>
      <vel value="0.0144988339" flag="0"/>
      <psa03 value="0.0558394092" flag="0"/>
      <psa10 value="0.0053303792" flag="0"/>
      <psa30 value="0.0007520055" flag="0"/>
    </comp>
  </station>
  <station code="SIMA" name="SIMA" netid="KO" insttype="CMG-6T" commtype="DIG" lat="39.0833" lon="28.9825">
    <comp name="--.HHE">
      <acc value="0.0501461353" flag="0"/>
      <vel value="0.0129964440" flag="0"/>
      <psa03 value="0.0649700268" flag="0"/>
      <psa10 value="0.0062324795" flag="0"/>
      <psa30 value="0.0013911978" flag="0"/>
    </comp>
    <comp name="--.HHZ">
      <acc value="0.0351542692" flag="0"/>
      <vel value="0.0065917251" flag="0"/>
      <psa03 value="0.0324562448" flag="0"/>
      <psa10 value="0.0038001396" flag="0"/>
      <psa30 value="0.0008662071" flag="0"/>
    </comp>
  </station>
  <station code="SMAA" name="SMAA" netid="KO" insttype="CMG-5T" commtype="DIG" lat="39.1005" lon="28.9805">
    <comp name="--.HNE">
      <acc value="0.0650161995" flag="0"/>
      <vel value="0.0239622716" flag="0"/>
      <psa03 value="0.0808209191" flag="0"/>
      <psa10 value="0.0357861891" flag="0"/>
      <psa30 value="0.0050793402" flag="0"/>
    </comp>
    <comp name="--.HNZ">
      <acc value="0.0227130654" flag="0"/>
      <vel value="0.0107861555" flag="0"/>
      <psa03 value="0.0205842737" flag="0"/>
      <psa10 value="0.0212567918" flag="0"/>
      <psa30 value="0.0008071436" flag="0"/>
    </comp>
    <comp name="--.HNN">
      <acc value="0.0549178392" flag="0"/>
      <vel value="0.0255730476" flag="0"/>
      <psa03 value="0.0921306489" flag="0"/>
      <psa10 value="0.0339931118" flag="0"/>
      <psa30 value="0.0021307711" flag="0"/>
    </comp>
  </station>
  <station code="SOMA" name="SOMA" netid="KO" insttype="CMG-5T" commtype="DIG" lat="39.1564" lon="27.5341">
    <comp name="--.HNE">
      <acc value="0.0299895105" flag="0"/>
      <vel value="0.0101097204" flag="0"/>
      <psa03 value="0.0516224237" flag="0"/>
      <psa10 value="0.0118202512" flag="0"/>
      <psa30 value="0.0016184224" flag="0"/>
    </comp>
    <comp name="--.HNN">
      <acc value="0.0319012695" flag="0"/>
      <vel value="0.0142671223" flag="0"/>
      <psa03 value="0.0530053093" flag="0"/>
      <psa10 value="0.0144589018" flag="0"/>
      <psa30 value="0.0011329751" flag="0"/>
    </comp>
    <comp name="--.HNZ">
      <acc value="0.0261175133" flag="0"/>
      <vel value="0.0088965476" flag="0"/>
      <psa03 value="0.0432952009" flag="0"/>
      <psa10 value="0.0069048721" flag="0"/>
      <psa30 value="0.0014956739" flag="0"/>
    </comp>
  </station>
  <station code="SUSR" name="SUSR" netid="KO" insttype="CMG-5T" commtype="DIG" lat="39.9627" lon="28.0835">
    <comp name="--.HNE">
      <acc value="0.0375380645" flag="0"/>
      <vel value="0.0074465336" flag="0"/>
      <psa03 value="0.0566856627" flag="0"/>
      <psa10 value="0.0039151039" flag="0"/>
      <psa30 value="0.0004654166" flag="0"/>
    </comp>
    <comp name="--.HNN">
      <acc value="0.0385768777" flag="0"/>
      <vel value="0.0098814079" flag="0"/>
      <psa03 value="0.0545772130" flag="0"/>
      <psa10 value="0.0031380565" flag="0"/>
      <psa30 value="0.0007752432" flag="0"/>
    </comp>
    <comp name="--.HNZ">
      <acc value="0.0533400823" flag="0"/>
      <vel value="0.0109154508" flag="0"/>
      <psa03 value="0.0405979406" flag="0"/>
      <psa10 value="0.0042670856" flag="0"/>
      <psa30 value="0.0011893841" flag="0"/>
    </comp>
  </station>
  <station code="TVSB" name="TVSB" netid="KO" insttype="CMG-3T" commtype="DIG" lat="39.4497" lon="29.4615">
    <comp name="--.HHN">
      <acc value="0.0235001428" flag="0"/>
      <vel value="0.0081588881" flag="0"/>
      <psa03 value="0.0416948816" flag="0"/>
      <psa10 value="0.0038143112" flag="0"/>
      <psa30 value="0.0004269169" flag="0"/>
    </comp>
    <comp name="--.HHE">
      <acc value="0.0411546097" flag="0"/>
      <vel value="0.0151420900" flag="0"/>
      <psa03 value="0.0556729944" flag="0"/>
      <psa10 value="0.0106818286" flag="0"/>
      <psa30 value="0.0005268033" flag="0"/>
    </comp>
    <comp name="--.HHZ">
      <acc value="0.0123251521" flag="0"/>
      <vel value="0.0048787475" flag="0"/>
      <psa03 value="0.0192110039" flag="0"/>
      <psa10 value="0.0056132917" flag="0"/>
      <psa30 value="0.0006919364" flag="0"/>
    </comp>
  </station>
  <station code="YAYO" name="YAYO" netid="KO" insttype="CMG-6T" commtype="DIG" lat="39.6113" lon="27.0726">
    <comp name="--.HHN">
      <acc value="0.0144329487" flag="0"/>
      <vel value="0.0084524021" flag="0"/>
      <psa03 value="0.0523149735" flag="0"/>
      <psa10 value="0.0061984347" flag="0"/>
      <psa30 value="0.0006532720" flag="0"/>
    </comp>
    <comp name="--.HHE">
      <acc value="0.0105389196" flag="0"/>
      <vel value="0.0055342654" flag="0"/>
      <psa03 value="0.0291466795" flag="0"/>
      <psa10 value="0.0067975049" flag="0"/>
      <psa30 value="0.0005944955" flag="0"/>
    </comp>
    <comp name="--.HHZ">
      <acc value="0.0096587201" flag="0"/>
      <vel value="0.0038452654" flag="0"/>
      <psa03 value="0.0324933937" flag="0"/>
      <psa10 value="0.0027624474" flag="0"/>
      <psa30 value="0.0008089217" flag="0"/>
    </comp>
  </station>
  <station code="YENI" name="YENI" netid="KO" insttype="CMG-5T" commtype="DIG" lat="39.9364" lon="27.2422">
    <comp name="--.HNE">
      <acc value="0.0225693719" flag="0"/>
      <vel value="0.0081693095" flag="0"/>
      <psa03 value="0.0625463110" flag="0"/>
      <psa10 value="0.0076470675" flag="0"/>
      <psa30 value="0.0011986338" flag="0"/>
    </comp>
    <comp name="--.HNN">
      <acc value="0.0268597038" flag="0"/>
      <vel value="0.0117691879" flag="0"/>
      <psa03 value="0.0605679919" flag="0"/>
      <psa10 value="0.0109722167" flag="0"/>
      <psa30 value="0.0007899825" flag="0"/>
    </comp>
    <comp name="--.HNZ">
      <acc value="0.0100697465" flag="0"/>
      <vel value="0.0029459443" flag="0"/>
      <psa03 value="0.0222189418" flag="0"/>
      <psa10 value="0.0030075368" flag="0"/>
      <psa30 value="0.0008993695" flag="0"/>
    </comp>
  </station>
</stationlist>
