<stationlist created="1775815929">
	<station code="AIGLE" name="AIGLE" netid="CH" source="Switzerland Seismological Network" insttype="" lat="46.34176" lon="6.95295">
		<comp name="--.HGE" depth="0.0">
			<acc value="0.00808948138694222" flag="0"/>
			<vel value="0.00469246355933495" flag="0"/>
			<psa03 value="0.0238475961275388" flag="0"/>
			<psa10 value="0.00799722201094989" flag="0"/>
			<psa30 value="0.000605362055545217" flag="0"/>
		</comp>
		<comp name="--.HGN" depth="0.0">
			<acc value="0.00680775633674769" flag="0"/>
			<vel value="0.00580731578458594" flag="0"/>
			<psa03 value="0.0157939989362499" flag="0"/>
			<psa10 value="0.0089032516949699" flag="0"/>
			<psa30 value="0.000768223687635726" flag="0"/>
		</comp>
		<comp name="--.HGZ" depth="0.0">
			<acc value="0.00394900081301121" flag="0"/>
			<vel value="0.00341582833517601" flag="0"/>
			<psa03 value="0.0104696763486756" flag="0"/>
			<psa10 value="0.00314090290460268" flag="0"/>
			<psa30 value="0.000397310794770253" flag="0"/>
		</comp>
	</station>
	<station code="BALST" name="BALST" netid="CH" source="Switzerland Seismological Network" insttype="" lat="47.33599" lon="7.69485">
		<comp name="--.HGE" depth="0.0">
			<acc value="0.0135794128447662" flag="0"/>
			<vel value="0.00767396549138114" flag="0"/>
			<psa03 value="0.0378966490056762" flag="0"/>
			<psa10 value="0.0137112492181694" flag="0"/>
			<psa30 value="0.00107605006916944" flag="0"/>
		</comp>
		<comp name="--.HGN" depth="0.0">
			<acc value="0.0212152030699004" flag="0"/>
			<vel value="0.0107436206870512" flag="0"/>
			<psa03 value="0.0294403719548228" flag="0"/>
			<psa10 value="0.0148266724291629" flag="0"/>
			<psa30 value="0.00182324491969457" flag="0"/>
		</comp>
		<comp name="--.HGZ" depth="0.0">
			<acc value="0.0126429266250406" flag="0"/>
			<vel value="0.00707715660770046" flag="0"/>
			<psa03 value="0.0255477999790332" flag="0"/>
			<psa10 value="0.00899989486126536" flag="0"/>
			<psa30 value="0.000679634118531548" flag="0"/>
		</comp>
	</station>
	<station code="BLOTZ" name="BLOTZ" netid="CH" source="Switzerland Seismological Network" insttype="" lat="47.620722" lon="7.44">
		<comp name="SF.HGE" depth="1.0">
			<acc value="0.0329084216114268" flag="0"/>
			<vel value="0.0100890750333731" flag="0"/>
			<psa03 value="0.0488584896271528" flag="0"/>
			<psa10 value="0.0106629626812665" flag="0"/>
			<psa30 value="0.00145904335782184" flag="0"/>
		</comp>
		<comp name="SF.HGN" depth="1.0">
			<acc value="0.0229120360381729" flag="0"/>
			<vel value="0.00842530044550454" flag="0"/>
			<psa03 value="0.0284560434092208" flag="0"/>
			<psa10 value="0.00784017686571976" flag="0"/>
			<psa30 value="0.001087235620824" flag="0"/>
		</comp>
		<comp name="SF.HGZ" depth="1.0">
			<acc value="0.0104969377462673" flag="0"/>
			<vel value="0.00277515646596211" flag="0"/>
			<psa03 value="0.0194628598789482" flag="0"/>
			<psa10 value="0.00382948546445788" flag="0"/>
			<psa30 value="0.00127828484308402" flag="0"/>
		</comp>
	</station>
	<station code="BNALP" name="BNALP" netid="CH" source="Switzerland Seismological Network" insttype="" lat="46.87034" lon="8.4249">
		<comp name="--.HGE" depth="0.0">
			<acc value="0.0276222008527066" flag="0"/>
			<vel value="0.00874996610245638" flag="0"/>
			<psa03 value="0.0504692090654105" flag="0"/>
			<psa10 value="0.00531940094484633" flag="0"/>
			<psa30 value="0.00223890001917832" flag="0"/>
		</comp>
		<comp name="--.HGN" depth="0.0">
			<acc value="0.0288827823268621" flag="0"/>
			<vel value="0.0166878748450518" flag="0"/>
			<psa03 value="0.0599098146618659" flag="0"/>
			<psa10 value="0.00812607956601051" flag="0"/>
			<psa30 value="0.00352747556978454" flag="0"/>
		</comp>
		<comp name="--.HGZ" depth="0.0">
			<acc value="0.023127625616207" flag="0"/>
			<vel value="0.0135421322286943" flag="0"/>
			<psa03 value="0.0435789092461967" flag="0"/>
			<psa10 value="0.00855292021714883" flag="0"/>
			<psa30 value="0.00155434425791876" flag="0"/>
		</comp>
	</station>
	<station code="BOBI" name="BOBI" netid="CH" source="Switzerland Seismological Network" insttype="" lat="47.54631" lon="8.33985">
		<comp name="SF.HGE" depth="1.0">
			<acc value="0.0780967987519413" flag="0"/>
			<vel value="0.0328728612490205" flag="0"/>
			<psa03 value="0.0892607022034522" flag="0"/>
			<psa10 value="0.0190145429686331" flag="0"/>
			<psa30 value="0.00338072113207661" flag="0"/>
		</comp>
		<comp name="SF.HGN" depth="1.0">
			<acc value="0.0695957962712924" flag="0"/>
			<vel value="0.0208208272443118" flag="0"/>
			<psa03 value="0.0842048328555875" flag="0"/>
			<psa10 value="0.0200494302077138" flag="0"/>
			<psa30 value="0.00187783041176887" flag="0"/>
		</comp>
		<comp name="SF.HGZ" depth="1.0">
			<acc value="0.0325079659333447" flag="0"/>
			<vel value="0.0177798623260323" flag="0"/>
			<psa03 value="0.0553908517934204" flag="0"/>
			<psa10 value="0.0118750290585555" flag="0"/>
			<psa30 value="0.00199147561657928" flag="0"/>
		</comp>
	</station>
	<station code="BOURR" name="BOURR" netid="CH" source="Switzerland Seismological Network" insttype="" lat="47.39364" lon="7.2301">
		<comp name="--.HGE" depth="0.0">
			<acc value="0.00662622773627015" flag="0"/>
			<vel value="0.00717070379901199" flag="0"/>
			<psa03 value="0.0157045145230134" flag="0"/>
			<psa10 value="0.0061771090457186" flag="0"/>
			<psa30 value="0.00128365390787822" flag="0"/>
		</comp>
		<comp name="--.HGN" depth="0.0">
			<acc value="0.00631242421241919" flag="0"/>
			<vel value="0.00501132948939667" flag="0"/>
			<psa03 value="0.0171362651347981" flag="0"/>
			<psa10 value="0.0109045705970052" flag="0"/>
			<psa30 value="0.00142951350145378" flag="0"/>
		</comp>
		<comp name="--.HGZ" depth="0.0">
			<acc value="0.00804059837564934" flag="0"/>
			<vel value="0.00518081172795194" flag="0"/>
			<psa03 value="0.0289482076820218" flag="0"/>
			<psa10 value="0.00574624159598464" flag="0"/>
			<psa30 value="0.00101117386957294" flag="0"/>
		</comp>
	</station>
	<station code="BRANT" name="BRANT" netid="CH" source="Switzerland Seismological Network" insttype="" lat="46.93801" lon="6.47298">
		<comp name="--.HGE" depth="0.0">
			<acc value="0.00326280071595676" flag="0"/>
			<vel value="0.00232469387615756" flag="0"/>
			<psa03 value="0.0119909113736968" flag="0"/>
			<psa10 value="0.00228319480373041" flag="0"/>
			<psa30 value="0.00100804191510966" flag="0"/>
		</comp>
		<comp name="--.HGN" depth="0.0">
			<acc value="0.00794969838503253" flag="0"/>
			<vel value="0.00402158774005907" flag="0"/>
			<psa03 value="0.0314985134592633" flag="0"/>
			<psa10 value="0.00422411172683104" flag="0"/>
			<psa30 value="0.000812965894253998" flag="0"/>
		</comp>
		<comp name="--.HGZ" depth="0.0">
			<acc value="0.00465531873766645" flag="0"/>
			<vel value="0.00217933206872502" flag="0"/>
			<psa03 value="0.0203129618046954" flag="0"/>
			<psa10 value="0.00225098041496525" flag="0"/>
			<psa30 value="0.000828625666570393" flag="0"/>
		</comp>
	</station>
	<station code="DAVOX" name="DAVOX" netid="CH" source="Switzerland Seismological Network" insttype="" lat="46.7805" lon="9.87952">
		<comp name="--.HGE" depth="0.0">
			<acc value="0.0221142794063843" flag="0"/>
			<vel value="0.0118730965489783" flag="0"/>
			<psa03 value="0.0891264755835973" flag="0"/>
			<psa10 value="0.0113354380467391" flag="0"/>
			<psa30 value="0.000820124647312921" flag="0"/>
		</comp>
		<comp name="--.HGN" depth="0.0">
			<acc value="0.0364786487185018" flag="0"/>
			<vel value="0.0168035127038238" flag="0"/>
			<psa03 value="0.0608941432074679" flag="0"/>
			<psa10 value="0.0128857555060623" flag="0"/>
			<psa30 value="0.00120401278009769" flag="0"/>
		</comp>
		<comp name="--.HGZ" depth="0.0">
			<acc value="0.0245188777721712" flag="0"/>
			<vel value="0.0100509903309816" flag="0"/>
			<psa03 value="0.0931980163858601" flag="0"/>
			<psa10 value="0.00656770850949611" flag="0"/>
			<psa30 value="0.00120401278009769" flag="0"/>
		</comp>
	</station>
	<station code="DIX" name="DIX" netid="CH" source="Switzerland Seismological Network" insttype="" lat="46.081053" lon="7.408391">
		<comp name="--.HGE" depth="0.0">
			<acc value="0.00525732477199339" flag="0"/>
			<vel value="0.00390496910094769" flag="0"/>
			<psa03 value="0.0121698802001699" flag="0"/>
			<psa10 value="0.00490464068949495" flag="0"/>
			<psa30 value="0.000572700244713878" flag="0"/>
		</comp>
		<comp name="--.HGN" depth="0.0">
			<acc value="0.00866101753654104" flag="0"/>
			<vel value="0.00665884108160721" flag="0"/>
			<psa03 value="0.0191496644326203" flag="0"/>
			<psa10 value="0.00447377323976099" flag="0"/>
			<psa30 value="0.000819229803180556" flag="0"/>
		</comp>
		<comp name="--.HGZ" depth="0.0">
			<acc value="0.00354108815270034" flag="0"/>
			<vel value="0.00274872147879138" flag="0"/>
			<psa03 value="0.00720349526554175" flag="0"/>
			<psa10 value="0.00339459121612828" flag="0"/>
			<psa30 value="0.000827730822438027" flag="0"/>
		</comp>
	</station>
	<station code="FIESA" name="FIESA" netid="CH" source="Switzerland Seismological Network" insttype="" lat="46.43521" lon="8.11051">
		<comp name="--.HGE" depth="0.0">
			<acc value="0.00844694775849692" flag="0"/>
			<vel value="0.00489216806944325" flag="0"/>
			<psa03 value="0.0249214090863774" flag="0"/>
			<psa10 value="0.0110414817492571" flag="0"/>
			<psa30 value="0.00264694894353696" flag="0"/>
		</comp>
		<comp name="--.HGN" depth="0.0">
			<acc value="0.00634291474932571" flag="0"/>
			<vel value="0.00500815301300875" flag="0"/>
			<psa03 value="0.00872473029056299" flag="0"/>
			<psa10 value="0.01268441557628" flag="0"/>
			<psa30 value="0.00162951116503746" flag="0"/>
		</comp>
		<comp name="--.HGZ" depth="0.0">
			<acc value="0.0062504014045835" flag="0"/>
			<vel value="0.00475153156560498" flag="0"/>
			<psa03 value="0.0151676080435941" flag="0"/>
			<psa10 value="0.00630596660077922" flag="0"/>
			<psa30 value="0.00220847531867789" flag="0"/>
		</comp>
	</station>
	<station code="FUORN" name="FUORN" netid="CH" source="Switzerland Seismological Network" insttype="" lat="46.620334" lon="10.263551">
		<comp name="--.HGE" depth="0.0">
			<acc value="0.00660366843263855" flag="0"/>
			<vel value="0.00318022378335837" flag="0"/>
			<psa03 value="0.0165993586553788" flag="0"/>
			<psa10 value="0.00317714409196348" flag="0"/>
			<psa30 value="0.000943613137579351" flag="0"/>
		</comp>
		<comp name="--.HGN" depth="0.0">
			<acc value="0.00805707275600776" flag="0"/>
			<vel value="0.0044348872403315" flag="0"/>
			<psa03 value="0.0129304977126805" flag="0"/>
			<psa10 value="0.00501336425157735" flag="0"/>
			<psa30 value="0.00103891403767627" flag="0"/>
		</comp>
		<comp name="--.HGZ" depth="0.0">
			<acc value="0.00803006103522144" flag="0"/>
			<vel value="0.00455202069897481" flag="0"/>
			<psa03 value="0.021565743590007" flag="0"/>
			<psa10 value="0.00261339228857325" flag="0"/>
			<psa30 value="0.000867551386328289" flag="0"/>
		</comp>
	</station>
	<station code="FUSIO" name="FUSIO" netid="CH" source="Switzerland Seismological Network" insttype="" lat="46.45481" lon="8.6629">
		<comp name="--.HGE" depth="0.0">
			<acc value="0.0417383426384051" flag="0"/>
			<vel value="0.00808649703546727" flag="0"/>
			<psa03 value="0.0304247005004248" flag="0"/>
			<psa10 value="0.0121005297799116" flag="0"/>
			<psa30 value="0.00371047119485328" flag="0"/>
		</comp>
		<comp name="--.HGN" depth="0.0">
			<acc value="0.0334390573301505" flag="0"/>
			<vel value="0.0115428068156909" flag="0"/>
			<psa03 value="0.0344514990960693" flag="0"/>
			<psa10 value="0.0107072574658186" flag="0"/>
			<psa30 value="0.0020375600893961" flag="0"/>
		</comp>
		<comp name="--.HGZ" depth="0.0">
			<acc value="0.024860584094651" flag="0"/>
			<vel value="0.00718088868558885" flag="0"/>
			<psa03 value="0.0203129618046954" flag="0"/>
			<psa10 value="0.00668851246736544" flag="0"/>
			<psa30 value="0.00135210948400417" flag="0"/>
		</comp>
	</station>
	<station code="GRIMS" name="GRIMS" netid="CH" source="Switzerland Seismological Network" insttype="" lat="46.578146" lon="8.318864">
		<comp name="--.HGE" depth="0.0">
			<acc value="0.00746030566305289" flag="0"/>
			<vel value="0.00290154760506724" flag="0"/>
			<psa03 value="0.00778514395157929" flag="0"/>
			<psa10 value="0.00295969696779868" flag="0"/>
			<psa30 value="0.00122548903927446" flag="0"/>
		</comp>
		<comp name="--.HGN" depth="0.0">
			<acc value="0.00694702579821928" flag="0"/>
			<vel value="0.00392598871263957" flag="0"/>
			<psa03 value="0.00899318353027262" flag="0"/>
			<psa10 value="0.00624556462184455" flag="0"/>
			<psa30 value="0.00136732183425438" flag="0"/>
		</comp>
		<comp name="--.HGZ" depth="0.0">
			<acc value="0.00710316488884051" flag="0"/>
			<vel value="0.00518596579358202" flag="0"/>
			<psa03 value="0.00626390892655805" flag="0"/>
			<psa10 value="0.00581872397070624" flag="0"/>
			<psa30 value="0.00258028305567573" flag="0"/>
		</comp>
	</station>
	<station code="GRYON" name="GRYON" netid="CH" source="Switzerland Seismological Network" insttype="" lat="46.25053" lon="7.11106">
		<comp name="--.HGE" depth="0.0">
			<acc value="0.00423121431929885" flag="0"/>
			<vel value="0.00354225061497407" flag="0"/>
			<psa03 value="0.0119461691670786" flag="0"/>
			<psa10 value="0.00254090991385165" flag="0"/>
			<psa30 value="0.000507376623051202" flag="0"/>
		</comp>
		<comp name="--.HGN" depth="0.0">
			<acc value="0.00431933262791629" flag="0"/>
			<vel value="0.00385860288826744" flag="0"/>
			<psa03 value="0.0134226619854815" flag="0"/>
			<psa10 value="0.00335432323017183" flag="0"/>
			<psa30 value="0.000625943470589622" flag="0"/>
		</comp>
		<comp name="--.HGZ" depth="0.0">
			<acc value="0.0048218082544774" flag="0"/>
			<vel value="0.00442021996591709" flag="0"/>
			<psa03 value="0.0143622483244652" flag="0"/>
			<psa10 value="0.00826299071826243" flag="0"/>
			<psa30 value="0.000639366132575103" flag="0"/>
		</comp>
	</station>
	<station code="HAMIK" name="HAMIK" netid="CH" source="Switzerland Seismological Network" insttype="" lat="47.24508" lon="8.27061">
		<comp name="SF.HGE" depth="1.0">
			<acc value="0.0495427202962144" flag="0"/>
			<vel value="0.0178534300631042" flag="0"/>
			<psa03 value="0.0533327102889799" flag="0"/>
			<psa10 value="0.0215473992852935" flag="0"/>
			<psa30 value="0.00307960608153564" flag="0"/>
		</comp>
		<comp name="SF.HGN" depth="1.0">
			<acc value="0.0547230122840077" flag="0"/>
			<vel value="0.0211311187997672" flag="0"/>
			<psa03 value="0.064697230770021" flag="0"/>
			<psa10 value="0.019288365273137" flag="0"/>
			<psa30 value="0.00356774355574099" flag="0"/>
		</comp>
		<comp name="SF.HGZ" depth="1.0">
			<acc value="0.0211193138037886" flag="0"/>
			<vel value="0.00865733742923906" flag="0"/>
			<psa03 value="0.0340488192365048" flag="0"/>
			<psa10 value="0.012752871152406" flag="0"/>
			<psa30 value="0.00250108934996139" flag="0"/>
		</comp>
	</station>
	<station code="HAUIG" name="HAUIG" netid="CH" source="Switzerland Seismological Network" insttype="" lat="47.66038" lon="7.70018">
		<comp name="--.HGE" depth="0.0">
			<acc value="0.0459947685984768" flag="0"/>
			<vel value="0.0181830300905256" flag="0"/>
			<psa03 value="0.081654527078346" flag="0"/>
			<psa10 value="0.0105502123205885" flag="0"/>
			<psa30 value="0.000804017452930343" flag="0"/>
		</comp>
		<comp name="--.HGN" depth="0.0">
			<acc value="0.0446453209318185" flag="0"/>
			<vel value="0.0110550902522107" flag="0"/>
			<psa03 value="0.0571805400581513" flag="0"/>
			<psa10 value="0.00690595959153024" flag="0"/>
			<psa30 value="0.00169930900736196" flag="0"/>
		</comp>
		<comp name="--.HGZ" depth="0.0">
			<acc value="0.0269543806102006" flag="0"/>
			<vel value="0.00608836941465637" flag="0"/>
			<psa03 value="0.0243845026069581" flag="0"/>
			<psa10 value="0.00654757451651789" flag="0"/>
			<psa30 value="0.000696636157046491" flag="0"/>
		</comp>
	</station>
	<station code="JAUN" name="JAUN" netid="CH" source="Switzerland Seismological Network" insttype="" lat="46.63395" lon="7.29096">
		<comp name="--.HGE" depth="0.0">
			<acc value="0.00972319002644789" flag="0"/>
			<vel value="0.00709936808185888" flag="0"/>
			<psa03 value="0.036554382807128" flag="0"/>
			<psa10 value="0.0046106843920129" flag="0"/>
			<psa30 value="0.000636681600178007" flag="0"/>
		</comp>
		<comp name="--.HGN" depth="0.0">
			<acc value="0.0106934384440269" flag="0"/>
			<vel value="0.00652867685947489" flag="0"/>
			<psa03 value="0.0418339631880841" flag="0"/>
			<psa10 value="0.00568986641564562" flag="0"/>
			<psa30 value="0.000821019491445287" flag="0"/>
		</comp>
		<comp name="--.HGZ" depth="0.0">
			<acc value="0.00921031064024085" flag="0"/>
			<vel value="0.00494725112899954" flag="0"/>
			<psa03 value="0.0187469845730559" flag="0"/>
			<psa10 value="0.00370868150658855" flag="0"/>
			<psa30 value="0.00051364053197776" flag="0"/>
		</comp>
	</station>
	<station code="LKBD2" name="LKBD2" netid="CH" source="Switzerland Seismological Network" insttype="" lat="46.37455" lon="7.64433">
		<comp name="--.HGE" depth="0.0">
			<acc value="0.0148608951064938" flag="0"/>
			<vel value="0.0123820735827911" flag="0"/>
			<psa03 value="0.0456817929572555" flag="0"/>
			<psa10 value="0.00858916140450963" flag="0"/>
			<psa30 value="0.00133734455582014" flag="0"/>
		</comp>
		<comp name="--.HGN" depth="0.0">
			<acc value="0.0103856013441922" flag="0"/>
			<vel value="0.00455038641168559" flag="0"/>
			<psa03 value="0.0141832794979921" flag="0"/>
			<psa10 value="0.00526705256310295" flag="0"/>
			<psa30 value="0.00135524143846745" flag="0"/>
		</comp>
		<comp name="--.HGZ" depth="0.0">
			<acc value="0.0087770581543094" flag="0"/>
			<vel value="0.00484441881226573" flag="0"/>
			<psa03 value="0.014317506117847" flag="0"/>
			<psa10 value="0.00565765202688046" flag="0"/>
			<psa30 value="0.000625943470589622" flag="0"/>
		</comp>
	</station>
	<station code="LLS" name="LLS" netid="CH" source="Switzerland Seismological Network" insttype="" lat="46.84676" lon="9.00825">
		<comp name="--.HGE" depth="0.0">
			<acc value="0.433395636663234" flag="0"/>
			<vel value="0.122159364644563" flag="0"/>
			<psa03 value="0.308900194492548" flag="0"/>
			<psa10 value="0.102618935411403" flag="0"/>
			<psa30 value="0.0123416902735841" flag="0"/>
		</comp>
		<comp name="--.HGN" depth="0.0">
			<acc value="0.652706762553657" flag="0"/>
			<vel value="0.148304361942394" flag="0"/>
			<psa03 value="0.375700308973628" flag="0"/>
			<psa10 value="0.0727481434289128" flag="0"/>
			<psa30 value="0.00741378363664763" flag="0"/>
		</comp>
		<comp name="--.HGZ" depth="0.0">
			<acc value="0.467671191810414" flag="0"/>
			<vel value="0.143737939604894" flag="0"/>
			<psa03 value="0.552253056289328" flag="0"/>
			<psa10 value="0.0976659731387607" flag="0"/>
			<psa30 value="0.0111640753953912" flag="0"/>
		</comp>
	</station>
	<station code="MTI01" name="MTI01" netid="CH" source="Switzerland Seismological Network" insttype="" lat="47.37911" lon="7.16541">
		<comp name="--.HGE" depth="0.0">
			<acc value="0.00903713193200346" flag="0"/>
			<vel value="0.00419823545230307" flag="0"/>
			<psa03 value="0.0153018346634489" flag="0"/>
			<psa10 value="0.00473148834988224" flag="0"/>
			<psa30 value="0.000943613137579351" flag="0"/>
		</comp>
		<comp name="--.HGN" depth="0.0">
			<acc value="0.00829628362094199" flag="0"/>
			<vel value="0.00277402054588132" flag="0"/>
			<psa03 value="0.013333177572245" flag="0"/>
			<psa10 value="0.00419592413666152" flag="0"/>
			<psa30 value="0.000863524587732645" flag="0"/>
		</comp>
		<comp name="--.HGZ" depth="0.0">
			<acc value="0.0102309461572388" flag="0"/>
			<vel value="0.00363638256117928" flag="0"/>
			<psa03 value="0.014809670390648" flag="0"/>
			<psa10 value="0.00400666460266624" flag="0"/>
			<psa30 value="0.000784778304084486" flag="0"/>
		</comp>
	</station>
