<?xml version="1.0" encoding="UTF-8" standalone="yes"?>
<!DOCTYPE earthquake SYSTEM "stationlist.dtd">
<stationlist created="" xmlns="ch.ethz.sed.shakemap.usgs.xml">
  <station code="BALST" name="BALST" netid="CH" insttype="STS2_gen3" lat="47.336" lon="7.69485">
    <comp name="--.HHE">
      <acc value="0.0129900732" flag="0"/>
      <vel value="0.0083218264" flag="0"/>
      <psa03 value="0.0375684561" flag="0"/>
      <psa10 value="0.0141132819" flag="0"/>
      <psa30 value="0.0008656305" flag="0"/>
    </comp>
    <comp name="--.HHN">
      <acc value="0.0214571888" flag="0"/>
      <vel value="0.0103655632" flag="0"/>
      <psa03 value="0.0312625879" flag="0"/>
      <psa10 value="0.0138096300" flag="0"/>
      <psa30 value="0.0016250110" flag="0"/>
    </comp>
    <comp name="--.HHZ">
      <acc value="0.0125827214" flag="0"/>
      <vel value="0.0069228570" flag="0"/>
      <psa03 value="0.0254205398" flag="0"/>
      <psa10 value="0.0089692488" flag="0"/>
      <psa30 value="0.0006510274" flag="0"/>
    </comp>
  </station>
  <station code="BERNI" name="BERNI" netid="CH" insttype="Trillium 240s_g2" lat="46.4136" lon="10.0231">
    <comp name="--.HHZ">
      <acc value="0.0086470534" flag="0"/>
      <vel value="0.0042179627" flag="0"/>
      <psa03 value="0.0144497030" flag="0"/>
      <psa10 value="0.0050371738" flag="0"/>
      <psa30 value="0.0006027755" flag="0"/>
    </comp>
    <comp name="--.HHN">
      <acc value="0.0092270795" flag="0"/>
      <vel value="0.0039615348" flag="0"/>
      <psa03 value="0.0136063241" flag="0"/>
      <psa10 value="0.0032974530" flag="0"/>
      <psa30 value="0.0007220098" flag="0"/>
    </comp>
    <comp name="--.HHE">
      <acc value="0.0105601266" flag="0"/>
      <vel value="0.0029202512" flag="0"/>
      <psa03 value="0.0112272524" flag="0"/>
      <psa10 value="0.0028488044" flag="0"/>
      <psa30 value="0.0004758495" flag="0"/>
    </comp>
  </station>
  <station code="BIBA" name="BIBA" netid="CH" insttype="EpiSensor ES-T" lat="46.3025" lon="7.93038">
    <comp name="--.HGE">
      <acc value="0.0132929613" flag="0"/>
      <vel value="0.0046800992" flag="0"/>
      <psa03 value="0.0286680636" flag="0"/>
      <psa10 value="0.0041344314" flag="0"/>
      <psa30 value="0.0008377047" flag="0"/>
    </comp>
    <comp name="--.HGZ">
      <acc value="0.0274959887" flag="0"/>
      <vel value="0.0048271730" flag="0"/>
      <psa03 value="0.0293386407" flag="0"/>
      <psa10 value="0.0042235984" flag="0"/>
      <psa30 value="0.0011260861" flag="0"/>
    </comp>
    <comp name="--.HGN">
      <acc value="0.0130861366" flag="0"/>
      <vel value="0.0073128888" flag="0"/>
      <psa03 value="0.0289537296" flag="0"/>
      <psa10 value="0.0077870272" flag="0"/>
      <psa30 value="0.0006978080" flag="0"/>
    </comp>
  </station>
  <station code="BNALP" name="BNALP" netid="CH" insttype="STS2_gen3" lat="46.8703" lon="8.4249">
    <comp name="--.HHN">
      <acc value="0.0291077653" flag="0"/>
      <vel value="0.0155702908" flag="0"/>
      <psa03 value="0.0631014677" flag="0"/>
      <psa10 value="0.0081632700" flag="0"/>
      <psa30 value="0.0029238740" flag="0"/>
    </comp>
    <comp name="--.HHE">
      <acc value="0.0243458656" flag="0"/>
      <vel value="0.0081048306" flag="0"/>
      <psa03 value="0.0514606381" flag="0"/>
      <psa10 value="0.0056068384" flag="0"/>
      <psa30 value="0.0018871892" flag="0"/>
    </comp>
    <comp name="--.HHZ">
      <acc value="0.0223792794" flag="0"/>
      <vel value="0.0134994837" flag="0"/>
      <psa03 value="0.0434696153" flag="0"/>
      <psa10 value="0.0085548271" flag="0"/>
      <psa30 value="0.0013724931" flag="0"/>
    </comp>
  </station>
  <station code="BOBI" name="BOBI" netid="CH" insttype="EpiSensor ES-T" lat="47.5463" lon="8.33992">
    <comp name="SF.HGN">
      <acc value="0.0691852318" flag="0"/>
      <vel value="0.0210238598" flag="0"/>
      <psa03 value="0.0845062585" flag="0"/>
      <psa10 value="0.0200676660" flag="0"/>
      <psa30 value="0.0017537792" flag="0"/>
    </comp>
    <comp name="SF.HGZ">
      <acc value="0.0329427414" flag="0"/>
      <vel value="0.0176888199" flag="0"/>
      <psa03 value="0.0552579005" flag="0"/>
      <psa10 value="0.0118283027" flag="0"/>
      <psa30 value="0.0018797662" flag="0"/>
    </comp>
    <comp name="SF.HGE">
      <acc value="0.0780293640" flag="0"/>
      <vel value="0.0324798076" flag="0"/>
      <psa03 value="0.0894462370" flag="0"/>
      <psa10 value="0.0189855737" flag="0"/>
      <psa30 value="0.0029798742" flag="0"/>
    </comp>
  </station>
  <station code="DAGMA" name="DAGMA" netid="CH" insttype="Trillium Compact 120s" lat="47.2309" lon="8.01248">
    <comp name="--.HHN">
      <acc value="0.0223541037" flag="0"/>
      <vel value="0.0085690849" flag="0"/>
      <psa03 value="0.0509225385" flag="0"/>
      <psa10 value="0.0072178601" flag="0"/>
      <psa30 value="0.0032933624" flag="0"/>
    </comp>
    <comp name="--.HHZ">
      <acc value="0.0145005299" flag="0"/>
      <vel value="0.0054659546" flag="0"/>
      <psa03 value="0.0357323914" flag="0"/>
      <psa10 value="0.0116435927" flag="0"/>
      <psa30 value="0.0012228788" flag="0"/>
    </comp>
    <comp name="--.HHE">
      <acc value="0.0294416303" flag="0"/>
      <vel value="0.0083234141" flag="0"/>
      <psa03 value="0.0345938287" flag="0"/>
      <psa10 value="0.0128104914" flag="0"/>
      <psa30 value="0.0019381626" flag="0"/>
    </comp>
  </station>
  <station code="DAVOX" name="DAVOX" netid="CH" insttype="STS2.5" lat="46.7805" lon="9.87952">
    <comp name="--.HHE">
      <acc value="0.0225983403" flag="0"/>
      <vel value="0.0125633120" flag="0"/>
      <psa03 value="0.0869308562" flag="0"/>
      <psa10 value="0.0115746205" flag="0"/>
      <psa30 value="0.0007354570" flag="0"/>
    </comp>
    <comp name="--.HHZ">
      <acc value="0.0243385491" flag="0"/>
      <vel value="0.0100642488" flag="0"/>
      <psa03 value="0.0919627275" flag="0"/>
      <psa10 value="0.0064812443" flag="0"/>
      <psa30 value="0.0010955837" flag="0"/>
    </comp>
    <comp name="--.HHN">
      <acc value="0.0367915818" flag="0"/>
      <vel value="0.0160469532" flag="0"/>
      <psa03 value="0.0612352599" flag="0"/>
      <psa10 value="0.0122269179" flag="0"/>
      <psa30 value="0.0010601738" flag="0"/>
    </comp>
  </station>
  <station code="EMBD" name="EMBD" netid="CH" insttype="Trillium 40s" lat="46.2165" lon="7.83223">
    <comp name="--.HHE">
      <acc value="0.0081535412" flag="0"/>
      <vel value="0.0055839077" flag="0"/>
      <psa03 value="0.0188472988" flag="0"/>
      <psa10 value="0.0060776688" flag="0"/>
      <psa30 value="0.0006650138" flag="0"/>
    </comp>
    <comp name="--.HHN">
      <acc value="0.0085788968" flag="0"/>
      <vel value="0.0057232976" flag="0"/>
      <psa03 value="0.0162454809" flag="0"/>
      <psa10 value="0.0065027971" flag="0"/>
      <psa30 value="0.0006439131" flag="0"/>
    </comp>
    <comp name="--.HHZ">
      <acc value="0.0087052460" flag="0"/>
      <vel value="0.0061343145" flag="0"/>
      <psa03 value="0.0187847956" flag="0"/>
      <psa10 value="0.0046454549" flag="0"/>
      <psa30 value="0.0005348925" flag="0"/>
    </comp>
  </station>
  <station code="EMING" name="EMING" netid="CH" insttype="Trillium Compact 120s" lat="47.8952" lon="8.84676">
    <comp name="--.HHE">
      <acc value="0.0585823888" flag="0"/>
      <vel value="0.0211477985" flag="0"/>
      <psa03 value="0.0505587296" flag="0"/>
      <psa10 value="0.0192923190" flag="0"/>
      <psa30 value="0.0039824349" flag="0"/>
    </comp>
    <comp name="--.HHN">
      <acc value="0.0544331133" flag="0"/>
      <vel value="0.0156548161" flag="0"/>
      <psa03 value="0.0351064682" flag="0"/>
      <psa10 value="0.0115629453" flag="0"/>
      <psa30 value="0.0014301948" flag="0"/>
    </comp>
    <comp name="--.HHZ">
      <acc value="0.0278551653" flag="0"/>
      <vel value="0.0090625609" flag="0"/>
      <psa03 value="0.0276988288" flag="0"/>
      <psa10 value="0.0095821817" flag="0"/>
      <psa30 value="0.0012331269" flag="0"/>
    </comp>
  </station>
  <station code="EMMET" name="EMMET" netid="CH" insttype="Trillium Compact 120s" lat="47.4376" lon="8.01358">
    <comp name="--.HHE">
      <acc value="0.0558517640" flag="0"/>
      <vel value="0.0381135423" flag="0"/>
      <psa03 value="0.1021532748" flag="0"/>
      <psa10 value="0.0269245656" flag="0"/>
      <psa30 value="0.0019847059" flag="0"/>
    </comp>
    <comp name="--.HHZ">
      <acc value="0.0218049210" flag="0"/>
      <vel value="0.0093719779" flag="0"/>
      <psa03 value="0.0811557927" flag="0"/>
      <psa10 value="0.0099951189" flag="0"/>
      <psa30 value="0.0007598325" flag="0"/>
    </comp>
    <comp name="--.HHN">
      <acc value="0.0295389027" flag="0"/>
      <vel value="0.0191655015" flag="0"/>
      <psa03 value="0.0587299414" flag="0"/>
      <psa10 value="0.0171128092" flag="0"/>
      <psa30 value="0.0025517110" flag="0"/>
    </comp>
  </station>
  <station code="FIESA" name="FIESA" netid="CH" insttype="STS2_gen2" lat="46.4352" lon="8.11051">
    <comp name="--.HHZ">
      <acc value="0.0062562711" flag="0"/>
      <vel value="0.0040904434" flag="0"/>
      <psa03 value="0.0147004284" flag="0"/>
      <psa10 value="0.0062473793" flag="0"/>
      <psa30 value="0.0018580214" flag="0"/>
    </comp>
    <comp name="--.HHE">
      <acc value="0.0080860613" flag="0"/>
      <vel value="0.0048624013" flag="0"/>
      <psa03 value="0.0242342829" flag="0"/>
      <psa10 value="0.0111020955" flag="0"/>
      <psa30 value="0.0022842686" flag="0"/>
    </comp>
    <comp name="--.HHN">
      <acc value="0.0063421342" flag="0"/>
      <vel value="0.0042007794" flag="0"/>
      <psa03 value="0.0095526443" flag="0"/>
      <psa10 value="0.0121125800" flag="0"/>
      <psa30 value="0.0014263060" flag="0"/>
    </comp>
  </station>
  <station code="FUORN" name="FUORN" netid="CH" insttype="Trillium 240s_g2" lat="46.6203" lon="10.2635">
    <comp name="--.HHE">
      <acc value="0.0066242987" flag="0"/>
      <vel value="0.0030681150" flag="0"/>
      <psa03 value="0.0164335640" flag="0"/>
      <psa10 value="0.0030816394" flag="0"/>
      <psa30 value="0.0007451235" flag="0"/>
    </comp>
    <comp name="--.HHZ">
      <acc value="0.0078740969" flag="0"/>
      <vel value="0.0045497486" flag="0"/>
      <psa03 value="0.0211118294" flag="0"/>
      <psa10 value="0.0025619739" flag="0"/>
      <psa30 value="0.0007294206" flag="0"/>
    </comp>
    <comp name="--.HHN">
      <acc value="0.0081951871" flag="0"/>
      <vel value="0.0041892263" flag="0"/>
      <psa03 value="0.0133975386" flag="0"/>
      <psa10 value="0.0051349269" flag="0"/>
      <psa30 value="0.0008868623" flag="0"/>
    </comp>
  </station>
  <station code="FUSIO" name="FUSIO" netid="CH" insttype="STS2.5" lat="46.4548" lon="8.6629">
    <comp name="--.HHN">
      <acc value="0.0363471638" flag="0"/>
      <vel value="0.0112951359" flag="0"/>
      <psa03 value="0.0346313168" flag="0"/>
      <psa10 value="0.0105147825" flag="0"/>
      <psa30 value="0.0018700369" flag="0"/>
    </comp>
    <comp name="--.HHE">
      <acc value="0.0418675971" flag="0"/>
      <vel value="0.0077251311" flag="0"/>
      <psa03 value="0.0300576922" flag="0"/>
      <psa10 value="0.0118457685" flag="0"/>
      <psa30 value="0.0032907681" flag="0"/>
    </comp>
    <comp name="--.HHZ">
      <acc value="0.0261494273" flag="0"/>
      <vel value="0.0074588834" flag="0"/>
      <psa03 value="0.0201154609" flag="0"/>
      <psa10 value="0.0064692470" flag="0"/>
      <psa30 value="0.0011874166" flag="0"/>
    </comp>
  </station>
  <station code="GRIMS" name="GRIMS" netid="CH" insttype="STS2_gen3" lat="46.5781" lon="8.31886">
    <comp name="--.HHZ">
      <acc value="0.0079189056" flag="0"/>
      <vel value="0.0043023451" flag="0"/>
      <psa03 value="0.0063234946" flag="0"/>
      <psa10 value="0.0058151959" flag="0"/>
      <psa30 value="0.0022382085" flag="0"/>
    </comp>
    <comp name="--.HHE">
      <acc value="0.0074355296" flag="0"/>
      <vel value="0.0025483699" flag="0"/>
      <psa03 value="0.0075333135" flag="0"/>
      <psa10 value="0.0029153209" flag="0"/>
      <psa30 value="0.0010849903" flag="0"/>
    </comp>
    <comp name="--.HHN">
      <acc value="0.0074154587" flag="0"/>
      <vel value="0.0035699803" flag="0"/>
      <psa03 value="0.0091101058" flag="0"/>
      <psa10 value="0.0061683716" flag="0"/>
      <psa30 value="0.0012576401" flag="0"/>
    </comp>
  </station>
  <station code="HAMIK" name="HAMIK" netid="CH" insttype="EpiSensor ES-T" lat="47.2451" lon="8.27061">
    <comp name="SF.HGE">
      <acc value="0.0495204596" flag="0"/>
      <vel value="0.0174029856" flag="0"/>
      <psa03 value="0.0535089083" flag="0"/>
      <psa10 value="0.0214828420" flag="0"/>
      <psa30 value="0.0028473721" flag="0"/>
    </comp>
    <comp name="SF.HGZ">
      <acc value="0.0209785126" flag="0"/>
      <vel value="0.0082613957" flag="0"/>
      <psa03 value="0.0341811507" flag="0"/>
      <psa10 value="0.0127966746" flag="0"/>
      <psa30 value="0.0023525459" flag="0"/>
    </comp>
    <comp name="SF.HGN">
      <acc value="0.0548425961" flag="0"/>
      <vel value="0.0204457829" flag="0"/>
      <psa03 value="0.0647982276" flag="0"/>
      <psa10 value="0.0192779354" flag="0"/>
      <psa30 value="0.0031943586" flag="0"/>
    </comp>
  </station>
  <station code="HASLI" name="HASLI" netid="CH" insttype="STS2_gen3" lat="46.7568" lon="8.15117">
    <comp name="--.HHN">
      <acc value="0.0230463433" flag="0"/>
      <vel value="0.0108439588" flag="0"/>
      <psa03 value="0.0499592517" flag="0"/>
      <psa10 value="0.0072100326" flag="0"/>
      <psa30 value="0.0026432866" flag="0"/>
    </comp>
    <comp name="--.HHZ">
      <acc value="0.0148301700" flag="0"/>
      <vel value="0.0075074650" flag="0"/>
      <psa03 value="0.0318969005" flag="0"/>
      <psa10 value="0.0076059522" flag="0"/>
      <psa30 value="0.0008803101" flag="0"/>
    </comp>
    <comp name="--.HHE">
      <acc value="0.0192737927" flag="0"/>
      <vel value="0.0108368401" flag="0"/>
      <psa03 value="0.0620528855" flag="0"/>
      <psa10 value="0.0048328067" flag="0"/>
      <psa30 value="0.0006675976" flag="0"/>
    </comp>
  </station>
  <station code="LAUCH" name="LAUCH" netid="CH" insttype="Trillium 40s" lat="46.4155" lon="7.77166">
    <comp name="--.HHE">
      <acc value="0.0229909512" flag="0"/>
      <vel value="0.0092282770" flag="0"/>
      <psa03 value="0.0280584225" flag="0"/>
      <psa10 value="0.0061652209" flag="0"/>
      <psa30 value="0.0008306513" flag="0"/>
    </comp>
    <comp name="--.HHZ">
      <acc value="0.0209257664" flag="0"/>
      <vel value="0.0068172295" flag="0"/>
      <psa03 value="0.0211134633" flag="0"/>
      <psa10 value="0.0063869850" flag="0"/>
      <psa30 value="0.0006214255" flag="0"/>
    </comp>
    <comp name="--.HHN">
      <acc value="0.0215871938" flag="0"/>
      <vel value="0.0080910659" flag="0"/>
      <psa03 value="0.0273649686" flag="0"/>
      <psa10 value="0.0053793938" flag="0"/>
      <psa30 value="0.0006306811" flag="0"/>
    </comp>
  </station>
  <station code="LLS" name="LLS" netid="CH" insttype="STS2_gen3" lat="46.8468" lon="9.00825">
    <comp name="--.HHN">
      <acc value="0.6896481324" flag="0"/>
      <vel value="0.1414347153" flag="0"/>
      <psa03 value="0.3642105934" flag="0"/>
      <psa10 value="0.0690678815" flag="0"/>
      <psa30 value="0.0067561515" flag="0"/>
    </comp>
    <comp name="--.HHE">
      <acc value="0.5327479526" flag="0"/>
      <vel value="0.1210526614" flag="0"/>
      <psa03 value="0.3111163825" flag="0"/>
      <psa10 value="0.1035680183" flag="0"/>
      <psa30 value="0.0107004826" flag="0"/>
    </comp>
    <comp name="--.HHZ">
      <acc value="0.4701814372" flag="0"/>
      <vel value="0.1396938701" flag="0"/>
      <psa03 value="0.5473126714" flag="0"/>
      <psa10 value="0.0959763523" flag="0"/>
      <psa30 value="0.0103245865" flag="0"/>
    </comp>
  </station>
  <station code="METMA" name="METMA" netid="CH" insttype="Trillium Compact 120s" lat="47.7122" lon="8.25262">
    <comp name="--.HHE">
      <acc value="0.0180874671" flag="0"/>
      <vel value="0.0109778542" flag="0"/>
      <psa03 value="0.0269333313" flag="0"/>
      <psa10 value="0.0139166108" flag="0"/>
      <psa30 value="0.0007827574" flag="0"/>
    </comp>
    <comp name="--.HHZ">
      <acc value="0.0112698922" flag="0"/>
      <vel value="0.0066310366" flag="0"/>
      <psa03 value="0.0175075468" flag="0"/>
      <psa10 value="0.0085413931" flag="0"/>
      <psa30 value="0.0006217686" flag="0"/>
    </comp>
    <comp name="--.HHN">
      <acc value="0.0153722792" flag="0"/>
      <vel value="0.0068516761" flag="0"/>
      <psa03 value="0.0218050201" flag="0"/>
      <psa10 value="0.0068922263" flag="0"/>
      <psa30 value="0.0006289394" flag="0"/>
    </comp>
  </station>
  <station code="MUO" name="MUO" netid="CH" insttype="STS2_gen3" lat="46.9676" lon="8.63706">
    <comp name="--.HHZ">
      <acc value="0.0462181360" flag="0"/>
      <vel value="0.0213608113" flag="0"/>
      <psa03 value="0.1210895084" flag="0"/>
      <psa10 value="0.0190591172" flag="0"/>
      <psa30 value="0.0061331087" flag="0"/>
    </comp>
    <comp name="--.HHE">
      <acc value="0.0834088045" flag="0"/>
      <vel value="0.0485941242" flag="0"/>
      <psa03 value="0.2558650382" flag="0"/>
      <psa10 value="0.0402539993" flag="0"/>
      <psa30 value="0.0130460570" flag="0"/>
    </comp>
    <comp name="--.HHN">
      <acc value="0.0680114848" flag="0"/>
      <vel value="0.0410457101" flag="0"/>
      <psa03 value="0.1811172166" flag="0"/>
      <psa10 value="0.0283588950" flag="0"/>
      <psa30 value="0.0069516672" flag="0"/>
    </comp>
  </station>
  <station code="NALPS" name="NALPS" netid="CH" insttype="Trillium 240s_g2" lat="46.5951" lon="8.74828">
    <comp name="--.HHE">
      <acc value="0.0737304174" flag="0"/>
      <vel value="0.0143192311" flag="0"/>
      <psa03 value="0.0248512781" flag="0"/>
      <psa10 value="0.0197137858" flag="0"/>
      <psa30 value="0.0038220275" flag="0"/>
    </comp>
    <comp name="--.HHZ">
      <acc value="0.0390754777" flag="0"/>
      <vel value="0.0118565155" flag="0"/>
      <psa03 value="0.0269639165" flag="0"/>
      <psa10 value="0.0129869651" flag="0"/>
      <psa30 value="0.0032518843" flag="0"/>
    </comp>
    <comp name="--.HHN">
      <acc value="0.0806160693" flag="0"/>
      <vel value="0.0154661983" flag="0"/>
      <psa03 value="0.0315635036" flag="0"/>
      <psa10 value="0.0081594148" flag="0"/>
      <psa30 value="0.0025200350" flag="0"/>
    </comp>
  </station>
  <station code="PANIX" name="PANIX" netid="CH" insttype="STS2.5" lat="46.8257" lon="9.11171">
    <comp name="--.HHE">
      <acc value="1.3781494366" flag="0"/>
      <vel value="0.2588435616" flag="0"/>
      <psa03 value="0.4077337178" flag="0"/>
      <psa10 value="0.1501519863" flag="0"/>
      <psa30 value="0.0172086191" flag="0"/>
    </comp>
    <comp name="--.HHZ">
      <acc value="0.5171038390" flag="0"/>
      <vel value="0.1055628434" flag="0"/>
      <psa03 value="0.3130602316" flag="0"/>
      <psa10 value="0.0926469607" flag="0"/>
      <psa30 value="0.0090099203" flag="0"/>
    </comp>
    <comp name="--.HHN">
      <acc value="0.7334529242" flag="0"/>
      <vel value="0.1363021608" flag="0"/>
      <psa03 value="0.2566481376" flag="0"/>
      <psa10 value="0.1040485384" flag="0"/>
      <psa30 value="0.0084843905" flag="0"/>
    </comp>
  </station>
  <station code="PLONS" name="PLONS" netid="CH" insttype="Trillium 240s_g2" lat="47.0492" lon="9.38076">
    <comp name="--.HHE">
      <acc value="0.1085273653" flag="0"/>
      <vel value="0.0274577849" flag="0"/>
      <psa03 value="0.1242681552" flag="0"/>
