<stationlist created="1631873528">
	<station code="AIGLE" name="AIGLE" netid="CH" source="Switzerland Seismological Network" insttype="" lat="46.34176" lon="6.95295">
		<comp name="--.HGE" depth="0.0">
			<acc value="-0.008089518" flag="0"/>
			<vel value="0.004692" flag="0"/>
			<psa03 value="0.0238475961275" flag="0"/>
			<psa10 value="0.00799722201095" flag="0"/>
			<psa30 value="0.000605362055545" flag="0"/>
		</comp>
		<comp name="--.HGN" depth="0.0">
			<acc value="0.006807786" flag="0"/>
			<vel value="0.005807" flag="0"/>
			<psa03 value="0.0157939989362" flag="0"/>
			<psa10 value="0.00890325169497" flag="0"/>
			<psa30 value="0.000768223687636" flag="0"/>
		</comp>
		<comp name="--.HGZ" depth="0.0">
			<acc value="-0.003949032" flag="0"/>
			<vel value="-0.003416" flag="0"/>
			<psa03 value="0.0104696763487" flag="0"/>
			<psa10 value="0.0031409029046" flag="0"/>
			<psa30 value="0.00039731079477" flag="0"/>
		</comp>
	</station>
	<station code="BALST" name="BALST" netid="CH" source="Switzerland Seismological Network" insttype="" lat="47.33599" lon="7.69485">
		<comp name="--.HGE" depth="0.0">
			<acc value="-0.013579362" flag="0"/>
			<vel value="-0.007674" flag="0"/>
			<psa03 value="0.0378966490057" flag="0"/>
			<psa10 value="0.0137112492182" flag="0"/>
			<psa30 value="0.00107605006917" flag="0"/>
		</comp>
		<comp name="--.HGN" depth="0.0">
			<acc value="-0.021215184" flag="0"/>
			<vel value="-0.010744" flag="0"/>
			<psa03 value="0.0294403719548" flag="0"/>
			<psa10 value="0.0148266724292" flag="0"/>
			<psa30 value="0.00182324491969" flag="0"/>
		</comp>
		<comp name="--.HGZ" depth="0.0">
			<acc value="0.0126429" flag="0"/>
			<vel value="0.007077" flag="0"/>
			<psa03 value="0.025547799979" flag="0"/>
			<psa10 value="0.00899989486127" flag="0"/>
			<psa30 value="0.000679634118532" flag="0"/>
		</comp>
	</station>
	<station code="BLOTZ" name="BLOTZ" netid="CH" source="Switzerland Seismological Network" insttype="" lat="47.620722" lon="7.44">
		<comp name="SF.HGE" depth="1.0">
			<acc value="0.032908464" flag="0"/>
			<vel value="-0.010089" flag="0"/>
			<psa03 value="0.0488584896272" flag="0"/>
			<psa10 value="0.0106629626813" flag="0"/>
			<psa30 value="0.00145904335782" flag="0"/>
		</comp>
		<comp name="SF.HGN" depth="1.0">
			<acc value="-0.022912056" flag="0"/>
			<vel value="-0.008425" flag="0"/>
			<psa03 value="0.0284560434092" flag="0"/>
			<psa10 value="0.00784017686572" flag="0"/>
			<psa30 value="0.00108723562082" flag="0"/>
		</comp>
		<comp name="SF.HGZ" depth="1.0">
			<acc value="0.010496922" flag="0"/>
			<vel value="-0.002775" flag="0"/>
			<psa03 value="0.0194628598789" flag="0"/>
			<psa10 value="0.00382948546446" flag="0"/>
			<psa30 value="0.00127828484308" flag="0"/>
		</comp>
	</station>
	<station code="BNALP" name="BNALP" netid="CH" source="Switzerland Seismological Network" insttype="" lat="46.87034" lon="8.4249">
		<comp name="--.HGE" depth="0.0">
			<acc value="-0.027622212" flag="0"/>
			<vel value="-0.00875" flag="0"/>
			<psa03 value="0.0504692090654" flag="0"/>
			<psa10 value="0.00531940094485" flag="0"/>
			<psa30 value="0.00223890001918" flag="0"/>
		</comp>
		<comp name="--.HGN" depth="0.0">
			<acc value="0.02888283" flag="0"/>
			<vel value="-0.016688" flag="0"/>
			<psa03 value="0.0599098146619" flag="0"/>
			<psa10 value="0.00812607956601" flag="0"/>
			<psa30 value="0.00352747556978" flag="0"/>
		</comp>
		<comp name="--.HGZ" depth="0.0">
			<acc value="0.023127582" flag="0"/>
			<vel value="0.013542" flag="0"/>
			<psa03 value="0.0435789092462" flag="0"/>
			<psa10 value="0.00855292021715" flag="0"/>
			<psa30 value="0.00155434425792" flag="0"/>
		</comp>
	</station>
	<station code="BOBI" name="BOBI" netid="CH" source="Switzerland Seismological Network" insttype="" lat="47.54631" lon="8.33985">
		<comp name="SF.HGE" depth="1.0">
			<acc value="-0.07809681" flag="0"/>
			<vel value="-0.032873" flag="0"/>
			<psa03 value="0.0892607022035" flag="0"/>
			<psa10 value="0.0190145429686" flag="0"/>
			<psa30 value="0.00338072113208" flag="0"/>
		</comp>
		<comp name="SF.HGN" depth="1.0">
			<acc value="-0.069595824" flag="0"/>
			<vel value="0.020821" flag="0"/>
			<psa03 value="0.0842048328556" flag="0"/>
			<psa10 value="0.0200494302077" flag="0"/>
			<psa30 value="0.00187783041177" flag="0"/>
		</comp>
		<comp name="SF.HGZ" depth="1.0">
			<acc value="0.032508012" flag="0"/>
			<vel value="0.01778" flag="0"/>
			<psa03 value="0.0553908517934" flag="0"/>
			<psa10 value="0.0118750290586" flag="0"/>
			<psa30 value="0.00199147561658" flag="0"/>
		</comp>
	</station>
	<station code="BOURR" name="BOURR" netid="CH" source="Switzerland Seismological Network" insttype="" lat="47.39364" lon="7.2301">
		<comp name="--.HGE" depth="0.0">
			<acc value="0.006626226" flag="0"/>
			<vel value="0.007171" flag="0"/>
			<psa03 value="0.015704514523" flag="0"/>
			<psa10 value="0.00617710904572" flag="0"/>
			<psa30 value="0.00128365390788" flag="0"/>
		</comp>
		<comp name="--.HGN" depth="0.0">
			<acc value="0.006312474" flag="0"/>
			<vel value="-0.005011" flag="0"/>
			<psa03 value="0.0171362651348" flag="0"/>
			<psa10 value="0.010904570597" flag="0"/>
			<psa30 value="0.00142951350145" flag="0"/>
		</comp>
		<comp name="--.HGZ" depth="0.0">
			<acc value="0.008040558" flag="0"/>
			<vel value="0.005181" flag="0"/>
			<psa03 value="0.028948207682" flag="0"/>
			<psa10 value="0.00574624159598" flag="0"/>
			<psa30 value="0.00101117386957" flag="0"/>
		</comp>
	</station>
	<station code="BRANT" name="BRANT" netid="CH" source="Switzerland Seismological Network" insttype="" lat="46.93801" lon="6.47298">
		<comp name="--.HGE" depth="-0.2">
			<acc value="-0.003262776" flag="0"/>
			<vel value="-0.002325" flag="0"/>
			<psa03 value="0.0119909113737" flag="0"/>
			<psa10 value="0.00228319480373" flag="0"/>
			<psa30 value="0.00100804191511" flag="0"/>
		</comp>
		<comp name="--.HGN" depth="-0.2">
			<acc value="-0.007949676" flag="0"/>
			<vel value="0.004022" flag="0"/>
			<psa03 value="0.0314985134593" flag="0"/>
			<psa10 value="0.00422411172683" flag="0"/>
			<psa30 value="0.000812965894254" flag="0"/>
		</comp>
		<comp name="--.HGZ" depth="-0.2">
			<acc value="-0.00465528" flag="0"/>
			<vel value="0.002179" flag="0"/>
			<psa03 value="0.0203129618047" flag="0"/>
			<psa10 value="0.00225098041497" flag="0"/>
			<psa30 value="0.00082862566657" flag="0"/>
		</comp>
	</station>
	<station code="DAVOX" name="DAVOX" netid="CH" source="Switzerland Seismological Network" insttype="" lat="46.7805" lon="9.87952">
		<comp name="--.HGE" depth="0.0">
			<acc value="0.022114314" flag="0"/>
			<vel value="0.011873" flag="0"/>
			<psa03 value="0.0891264755836" flag="0"/>
			<psa10 value="0.0113354380467" flag="0"/>
			<psa30 value="0.000820124647313" flag="0"/>
		</comp>
		<comp name="--.HGN" depth="0.0">
			<acc value="0.036478668" flag="0"/>
			<vel value="0.016804" flag="0"/>
			<psa03 value="0.0608941432075" flag="0"/>
			<psa10 value="0.0128857555061" flag="0"/>
			<psa30 value="0.0012040127801" flag="0"/>
		</comp>
		<comp name="--.HGZ" depth="0.0">
			<acc value="0.024518862" flag="0"/>
			<vel value="-0.010051" flag="0"/>
			<psa03 value="0.0931980163859" flag="0"/>
			<psa10 value="0.0065677085095" flag="0"/>
			<psa30 value="0.0012040127801" flag="0"/>
		</comp>
	</station>
	<station code="DIX" name="DIX" netid="CH" source="Switzerland Seismological Network" insttype="" lat="46.081053" lon="7.408391">
		<comp name="--.HGE" depth="0.0">
			<acc value="0.005257284" flag="0"/>
			<vel value="-0.003905" flag="0"/>
			<psa03 value="0.0121698802002" flag="0"/>
			<psa10 value="0.00490464068949" flag="0"/>
			<psa30 value="0.000572700244714" flag="0"/>
		</comp>
		<comp name="--.HGN" depth="0.0">
			<acc value="-0.008661024" flag="0"/>
			<vel value="0.006659" flag="0"/>
			<psa03 value="0.0191496644326" flag="0"/>
			<psa10 value="0.00447377323976" flag="0"/>
			<psa30 value="0.000819229803181" flag="0"/>
		</comp>
		<comp name="--.HGZ" depth="0.0">
			<acc value="-0.003541134" flag="0"/>
			<vel value="0.002749" flag="0"/>
			<psa03 value="0.00720349526554" flag="0"/>
			<psa10 value="0.00339459121613" flag="0"/>
			<psa30 value="0.000827730822438" flag="0"/>
		</comp>
	</station>
	<station code="FIESA" name="FIESA" netid="CH" source="Switzerland Seismological Network" insttype="" lat="46.43521" lon="8.11051">
		<comp name="--.HGE" depth="0.0">
			<acc value="-0.008446926" flag="0"/>
			<vel value="0.004892" flag="0"/>
			<psa03 value="0.0249214090864" flag="0"/>
			<psa10 value="0.0110414817493" flag="0"/>
			<psa30 value="0.00264694894354" flag="0"/>
		</comp>
		<comp name="--.HGN" depth="0.0">
			<acc value="-0.00634287" flag="0"/>
			<vel value="0.005008" flag="0"/>
			<psa03 value="0.00872473029056" flag="0"/>
			<psa10 value="0.0126844155763" flag="0"/>
			<psa30 value="0.00162951116504" flag="0"/>
		</comp>
		<comp name="--.HGZ" depth="0.0">
			<acc value="-0.006250356" flag="0"/>
			<vel value="0.004752" flag="0"/>
			<psa03 value="0.0151676080436" flag="0"/>
			<psa10 value="0.00630596660078" flag="0"/>
			<psa30 value="0.00220847531868" flag="0"/>
		</comp>
	</station>
	<station code="FUORN" name="FUORN" netid="CH" source="Switzerland Seismological Network" insttype="" lat="46.620334" lon="10.263551">
		<comp name="--.HGE" depth="0.0">
			<acc value="0.006603684" flag="0"/>
			<vel value="-0.00318" flag="0"/>
			<psa03 value="0.0165993586554" flag="0"/>
			<psa10 value="0.00317714409196" flag="0"/>
			<psa30 value="0.000943613137579" flag="0"/>
		</comp>
		<comp name="--.HGN" depth="0.0">
			<acc value="-0.008057082" flag="0"/>
			<vel value="-0.004435" flag="0"/>
			<psa03 value="0.0129304977127" flag="0"/>
			<psa10 value="0.00501336425158" flag="0"/>
			<psa30 value="0.00103891403768" flag="0"/>
		</comp>
		<comp name="--.HGZ" depth="0.0">
			<acc value="-0.008030052" flag="0"/>
			<vel value="-0.004552" flag="0"/>
			<psa03 value="0.02156574359" flag="0"/>
			<psa10 value="0.00261339228857" flag="0"/>
			<psa30 value="0.000867551386328" flag="0"/>
		</comp>
	</station>
	<station code="FUSIO" name="FUSIO" netid="CH" source="Switzerland Seismological Network" insttype="" lat="46.45481" lon="8.6629">
		<comp name="--.HGE" depth="0.0">
			<acc value="0.041738298" flag="0"/>
			<vel value="0.008086" flag="0"/>
			<psa03 value="0.0304247005004" flag="0"/>
			<psa10 value="0.0121005297799" flag="0"/>
			<psa30 value="0.00371047119485" flag="0"/>
		</comp>
		<comp name="--.HGN" depth="0.0">
			<acc value="-0.033439068" flag="0"/>
			<vel value="-0.011543" flag="0"/>
			<psa03 value="0.0344514990961" flag="0"/>
			<psa10 value="0.0107072574658" flag="0"/>
			<psa30 value="0.0020375600894" flag="0"/>
		</comp>
		<comp name="--.HGZ" depth="0.0">
			<acc value="0.024860562" flag="0"/>
			<vel value="0.007181" flag="0"/>
			<psa03 value="0.0203129618047" flag="0"/>
			<psa10 value="0.00668851246737" flag="0"/>
			<psa30 value="0.001352109484" flag="0"/>
		</comp>
	</station>
	<station code="GRIMS" name="GRIMS" netid="CH" source="Switzerland Seismological Network" insttype="" lat="46.578146" lon="8.318864">
		<comp name="--.HGE" depth="0.0">
			<acc value="0.00746028" flag="0"/>
			<vel value="0.002902" flag="0"/>
			<psa03 value="0.00778514395158" flag="0"/>
			<psa10 value="0.0029596969678" flag="0"/>
			<psa30 value="0.00122548903927" flag="0"/>
		</comp>
		<comp name="--.HGN" depth="0.0">
			<acc value="0.006947016" flag="0"/>
			<vel value="-0.003926" flag="0"/>
			<psa03 value="0.00899318353027" flag="0"/>
			<psa10 value="0.00624556462184" flag="0"/>
			<psa30 value="0.00136732183425" flag="0"/>
		</comp>
		<comp name="--.HGZ" depth="0.0">
			<acc value="-0.007103178" flag="0"/>
			<vel value="-0.005186" flag="0"/>
			<psa03 value="0.00626390892656" flag="0"/>
			<psa10 value="0.00581872397071" flag="0"/>
			<psa30 value="0.00258028305568" flag="0"/>
		</comp>
	</station>
	<station code="GRYON" name="GRYON" netid="CH" source="Switzerland Seismological Network" insttype="" lat="46.25053" lon="7.11106">
		<comp name="--.HGE" depth="0.0">
			<acc value="-0.004231164" flag="0"/>
			<vel value="-0.003542" flag="0"/>
			<psa03 value="0.0119461691671" flag="0"/>
			<psa10 value="0.00254090991385" flag="0"/>
			<psa30 value="0.000507376623051" flag="0"/>
		</comp>
		<comp name="--.HGN" depth="0.0">
			<acc value="-0.004319292" flag="0"/>
			<vel value="-0.003859" flag="0"/>
			<psa03 value="0.0134226619855" flag="0"/>
			<psa10 value="0.00335432323017" flag="0"/>
			<psa30 value="0.00062594347059" flag="0"/>
		</comp>
		<comp name="--.HGZ" depth="0.0">
			<acc value="-0.004821846" flag="0"/>
			<vel value="-0.00442" flag="0"/>
			<psa03 value="0.0143622483245" flag="0"/>
			<psa10 value="0.00826299071826" flag="0"/>
			<psa30 value="0.000639366132575" flag="0"/>
		</comp>
	</station>
	<station code="HAMIK" name="HAMIK" netid="CH" source="Switzerland Seismological Network" insttype="" lat="47.24508" lon="8.27061">
		<comp name="SF.HGE" depth="1.0">
			<acc value="-0.049542726" flag="0"/>
			<vel value="-0.017853" flag="0"/>
			<psa03 value="0.053332710289" flag="0"/>
			<psa10 value="0.0215473992853" flag="0"/>
			<psa30 value="0.00307960608154" flag="0"/>
		</comp>
		<comp name="SF.HGN" depth="1.0">
			<acc value="0.054723" flag="0"/>
			<vel value="0.021131" flag="0"/>
			<psa03 value="0.06469723077" flag="0"/>
			<psa10 value="0.0192883652731" flag="0"/>
			<psa30 value="0.00356774355574" flag="0"/>
		</comp>
		<comp name="SF.HGZ" depth="1.0">
			<acc value="0.021119304" flag="0"/>
			<vel value="0.008657" flag="0"/>
			<psa03 value="0.0340488192365" flag="0"/>
			<psa10 value="0.0127528711524" flag="0"/>
			<psa30 value="0.00250108934996" flag="0"/>
		</comp>
	</station>
	<station code="HAUIG" name="HAUIG" netid="CH" source="Switzerland Seismological Network" insttype="" lat="47.66038" lon="7.70018">
		<comp name="--.HGE" depth="0.0">
			<acc value="0.045994758" flag="0"/>
			<vel value="-0.018183" flag="0"/>
			<psa03 value="0.0816545270783" flag="0"/>
			<psa10 value="0.0105502123206" flag="0"/>
			<psa30 value="0.00080401745293" flag="0"/>
		</comp>
		<comp name="--.HGN" depth="0.0">
			<acc value="0.044645298" flag="0"/>
			<vel value="0.011055" flag="0"/>
			<psa03 value="0.0571805400582" flag="0"/>
			<psa10 value="0.00690595959153" flag="0"/>
			<psa30 value="0.00169930900736" flag="0"/>
		</comp>
		<comp name="--.HGZ" depth="0.0">
			<acc value="-0.026954418" flag="0"/>
			<vel value="0.006088" flag="0"/>
			<psa03 value="0.024384502607" flag="0"/>
			<psa10 value="0.00654757451652" flag="0"/>
			<psa30 value="0.000696636157046" flag="0"/>
		</comp>
	</station>
	<station code="JAUN" name="JAUN" netid="CH" source="Switzerland Seismological Network" insttype="" lat="46.63395" lon="7.29096">
		<comp name="--.HGE" depth="0.0">
			<acc value="0.00972315" flag="0"/>
			<vel value="-0.007099" flag="0"/>
			<psa03 value="0.0365543828071" flag="0"/>
			<psa10 value="0.00461068439201" flag="0"/>
			<psa30 value="0.000636681600178" flag="0"/>
		</comp>
		<comp name="--.HGN" depth="0.0">
			<acc value="0.010693476" flag="0"/>
			<vel value="0.006529" flag="0"/>
			<psa03 value="0.0418339631881" flag="0"/>
			<psa10 value="0.00568986641565" flag="0"/>
			<psa30 value="0.000821019491445" flag="0"/>
		</comp>
		<comp name="--.HGZ" depth="0.0">
			<acc value="-0.009210294" flag="0"/>
			<vel value="-0.004947" flag="0"/>
			<psa03 value="0.0187469845731" flag="0"/>
			<psa10 value="0.00370868150659" flag="0"/>
			<psa30 value="0.000513640531978" flag="0"/>
		</comp>
	</station>
	<station code="LKBD2" name="LKBD2" netid="CH" source="Switzerland Seismological Network" insttype="" lat="46.37455" lon="7.64433">
		<comp name="--.HGE" depth="0.0">
			<acc value="-0.01486089" flag="0"/>
			<vel value="-0.012382" flag="0"/>
			<psa03 value="0.0456817929573" flag="0"/>
			<psa10 value="0.00858916140451" flag="0"/>
			<psa30 value="0.00133734455582" flag="0"/>
		</comp>
		<comp name="--.HGN" depth="0.0">
			<acc value="0.01038564" flag="0"/>
			<vel value="-0.00455" flag="0"/>
			<psa03 value="0.014183279498" flag="0"/>
			<psa10 value="0.0052670525631" flag="0"/>
			<psa30 value="0.00135524143847" flag="0"/>
		</comp>
		<comp name="--.HGZ" depth="0.0">
			<acc value="0.0087771" flag="0"/>
			<vel value="0.004844" flag="0"/>
			<psa03 value="0.0143175061178" flag="0"/>
			<psa10 value="0.00565765202688" flag="0"/>
			<psa30 value="0.00062594347059" flag="0"/>
		</comp>
	</station>
	<station code="LLS" name="LLS" netid="CH" source="Switzerland Seismological Network" insttype="" lat="46.84676" lon="9.00825">
		<comp name="--.HGE" depth="0.0">
			<acc value="0.433395654" flag="0"/>
			<vel value="0.122159" flag="0"/>
			<psa03 value="0.308900194493" flag="0"/>
			<psa10 value="0.102618935411" flag="0"/>
			<psa30 value="0.0123416902736" flag="0"/>
		</comp>
		<comp name="--.HGN" depth="0.0">
			<acc value="0.652706772" flag="0"/>
			<vel value="-0.148303" flag="0"/>
			<psa03 value="0.375700308974" flag="0"/>
			<psa10 value="0.0727481434289" flag="0"/>
			<psa30 value="0.00741378363665" flag="0"/>
		</comp>
		<comp name="--.HGZ" depth="0.0">
			<acc value="-0.467671224" flag="0"/>
			<vel value="0.143739" flag="0"/>
			<psa03 value="0.552253056289" flag="0"/>
			<psa10 value="0.0976659731388" flag="0"/>
			<psa30 value="0.0111640753954" flag="0"/>
		</comp>
	</station>
	<station code="MTI01" name="MTI01" netid="CH" source="Switzerland Seismological Network" insttype="" lat="47.37911" lon="7.16541">
		<comp name="--.HGE" depth="0.0">
			<acc value="0.00897855" flag="0"/>
			<vel value="-0.004188" flag="0"/>
			<psa03 value="0.0153018346634" flag="0"/>
			<psa10 value="0.00473148834988" flag="0"/>
			<psa30 value="0.000943613137579" flag="0"/>
		</comp>
		<comp name="--.HGN" depth="0.0">
			<acc value="0.008304126" flag="0"/>
			<vel value="0.002765" flag="0"/>
			<psa03 value="0.0133331775722" flag="0"/>
			<psa10 value="0.00419592413666" flag="0"/>
			<psa30 value="0.000863524587733" flag="0"/>
		</comp>
		<comp name="--.HGZ" depth="0.0">
			<acc value="-0.01019949" flag="0"/>
			<vel value="0.003624" flag="0"/>
			<psa03 value="0.0148096703906" flag="0"/>
			<psa10 value="0.00400666460267" flag="0"/>
			<psa30 value="0.000784778304084" flag="0"/>
		</comp>
	</station>
	<station code="MUGIO" name="MUGIO" netid="CH" source="Switzerland Seismological Network" insttype="" lat="45.92184" lon="9.04171">
		<comp name="--.HGE" depth="0.0">
			<acc value="0.017089284" flag="0"/>
			<vel value="-0.006399" flag="0"/>
			<psa03 value="0.0188364689863" flag="0"/>
			<psa10 value="0.00268587466329" flag="0"/>
			<psa30 value="0.00194986536442" flag="0"/>
		</comp>
		<comp name="--.HGN" depth="0.0">
			<acc value="0.017115702" flag="0"/>
			<vel value="0.006628" flag="0"/>
			<psa03 value="0.0187917267797" flag="0"/>
			<psa10 value="0.00396639661671" flag="0"/>
			<psa30 value="0.000934664696256" flag="0"/>
		</comp>
		<comp name="--.HGZ" depth="0.0">
			<acc value="-0.01368738" flag="0"/>
			<vel value="0.006056" flag="0"/>
			<psa03 value="0.02156574359" flag="0"/>
			<psa10 value="0.00306842052988" flag="0"/>
			<psa30 value="0.000595071348023" flag="0"/>
		</comp>
	</station>
	<station code="MUTEZ" name="MUTEZ" netid="CH" source="Switzerland Seismological Network" insttype="" lat="47.50647" lon="7.64884">
		<comp name="--.HGE" depth="0.0">
			<acc value="-0.02228955" flag="0"/>
			<vel value="0.007739" flag="0"/>
			<psa03 value="0.0478294188749" flag="0"/>
			<psa10 value="0.00747373819352" flag="0"/>
			<psa30 value="0.000799095810202" flag="0"/>
		</comp>
		<comp name="--.HGN" depth="0.0">
			<acc value="-0.026512656" flag="0"/>
			<vel value="0.007893" flag="0"/>
			<psa03 value="0.028948207682" flag="0"/>
			<psa10 value="0.01258777241" flag="0"/>
			<psa30 value="0.00166619977446" flag="0"/>
		</comp>
		<comp name="--.HGZ" depth="0.0">
			<acc value="-0.019992816" flag="0"/>
