<?xml version="1.0" encoding="UTF-8" standalone="yes"?>
<!DOCTYPE earthquake SYSTEM "stationlist.dtd">
<stationlist created="" xmlns="ch.ethz.sed.shakemap.usgs.xml">
  <station code="ARPRA" name="ARPRA" netid="KO" insttype="CMG-5T" lat="39.0929" lon="38.3356">
    <comp name="--.HNN">
      <acc value="0.0259613139" flag="0"/>
      <vel value="0.0163602277" flag="0"/>
      <psa03 value="0.0577313062" flag="0"/>
      <psa10 value="0.0170970633" flag="0"/>
      <psa30 value="0.0011666272" flag="0"/>
    </comp>
    <comp name="--.HNZ">
      <acc value="0.0134376776" flag="0"/>
      <vel value="0.0081605744" flag="0"/>
      <psa03 value="0.0354044149" flag="0"/>
      <psa10 value="0.0097558150" flag="0"/>
      <psa30 value="0.0009759307" flag="0"/>
    </comp>
    <comp name="--.HNE">
      <acc value="0.0245852087" flag="0"/>
      <vel value="0.0169720791" flag="0"/>
      <psa03 value="0.0605244249" flag="0"/>
      <psa10 value="0.0126411883" flag="0"/>
      <psa30 value="0.0010696915" flag="0"/>
    </comp>
  </station>
  <station code="DARE" name="DARE" netid="KO" insttype="CMG-3ESP" lat="38.5712" lon="37.4832">
    <comp name="--.HHZ">
      <acc value="0.0070106168" flag="0"/>
      <vel value="0.0040729383" flag="0"/>
      <psa03 value="0.0236742946" flag="0"/>
      <psa10 value="0.0038510534" flag="0"/>
      <psa30 value="0.0007924684" flag="0"/>
    </comp>
    <comp name="--.HHE">
      <acc value="0.0072175747" flag="0"/>
      <vel value="0.0035061047" flag="0"/>
      <psa03 value="0.0174484156" flag="0"/>
      <psa10 value="0.0039455597" flag="0"/>
      <psa30 value="0.0005633638" flag="0"/>
    </comp>
  </station>
  <station code="URFA" name="URFA" netid="KO" insttype="CMG-3ESP" lat="37.4409" lon="38.8213">
    <comp name="--.HHN">
      <acc value="0.0405536901" flag="0"/>
      <vel value="0.0108916582" flag="0"/>
      <psa03 value="0.0532870206" flag="0"/>
      <psa10 value="0.0197001436" flag="0"/>
      <psa30 value="0.0031995091" flag="0"/>
    </comp>
    <comp name="--.HHE">
      <acc value="0.0485238923" flag="0"/>
      <vel value="0.0138173452" flag="0"/>
      <psa03 value="0.0403902475" flag="0"/>
      <psa10 value="0.0157093519" flag="0"/>
      <psa30 value="0.0046008232" flag="0"/>
    </comp>
    <comp name="--.HHZ">
      <acc value="0.0326162548" flag="0"/>
      <vel value="0.0128938177" flag="0"/>
      <psa03 value="0.0379777062" flag="0"/>
      <psa10 value="0.0201838845" flag="0"/>
      <psa30 value="0.0041474758" flag="0"/>
    </comp>
  </station>
</stationlist>
