<stationlist created="1778136154">
	<station code="ALT" name="ALT" netid="KO" source="Bogazici University Kandilli Observatory And Earthquake Research Institute (KOERI)" insttype="" lat="39.0541" lon="30.1104">
		<comp name="--.HNE" depth="0.0">
			<acc value="0.0401345065309239" flag="0"/>
			<vel value="0.0195467216813036" flag="0"/>
			<psa03 value="0.0876052405585761" flag="0"/>
			<psa10 value="0.0206856643858256" flag="0"/>
			<psa30 value="0.00256596554955788" flag="0"/>
		</comp>
		<comp name="--.HNN" depth="0.0">
			<acc value="0.0628832921092676" flag="0"/>
			<vel value="0.0161868931501914" flag="0"/>
			<psa03 value="0.0835784419629317" flag="0"/>
			<psa10 value="0.0149877443729887" flag="0"/>
			<psa30 value="0.00208677651667619" flag="0"/>
		</comp>
		<comp name="--.HNZ" depth="0.0">
			<acc value="0.037753749188644" flag="0"/>
			<vel value="0.0128912686451495" flag="0"/>
			<psa03 value="0.0604914633479034" flag="0"/>
			<psa10 value="0.0184628715610298" flag="0"/>
			<psa30 value="0.00323978318122906" flag="0"/>
		</comp>
	</station>
	<station code="BASM" name="BASM" netid="KO" source="Bogazici University Kandilli Observatory And Earthquake Research Institute (KOERI)" insttype="" lat="37.9194" lon="30.035">
		<comp name="--.HNE" depth="0.0">
			<acc value="0.0204825428042363" flag="0"/>
			<vel value="0.00700237417863789" flag="0"/>
			<psa03 value="0.0804464874996526" flag="0"/>
			<psa10 value="0.0327499529783764" flag="0"/>
			<psa30 value="0.00534937822328057" flag="0"/>
		</comp>
		<comp name="--.HNN" depth="0.0">
			<acc value="0.0244997207527895" flag="0"/>
			<vel value="0.00890964490731622" flag="0"/>
			<psa03 value="0.113466235983937" flag="0"/>
			<psa10 value="0.0533993761768412" flag="0"/>
			<psa30 value="0.00517667330573404" flag="0"/>
		</comp>
		<comp name="--.HNZ" depth="0.0">
			<acc value="0.014468878913737" flag="0"/>
			<vel value="0.00593477574224195" flag="0"/>
			<psa03 value="0.0548539453140012" flag="0"/>
			<psa10 value="0.0200856713950746" flag="0"/>
			<psa30 value="0.00187783041176887" flag="0"/>
		</comp>
	</station>
	<station code="ESKT" name="ESKT" netid="KO" source="Bogazici University Kandilli Observatory And Earthquake Research Institute (KOERI)" insttype="" lat="39.5212" lon="30.8492">
		<comp name="--.HNE" depth="0.0">
			<acc value="0.0699711782540912" flag="0"/>
			<vel value="0.0256885885751012" flag="0"/>
			<psa03 value="0.134450330887907" flag="0"/>
			<psa10 value="0.0100669964891111" flag="0"/>
			<psa30 value="0.00100893675924203" flag="0"/>
		</comp>
		<comp name="--.HNN" depth="0.0">
			<acc value="0.0657283289332702" flag="0"/>
			<vel value="0.032974615197184" flag="0"/>
			<psa03 value="0.230467106290718" flag="0"/>
			<psa10 value="0.0156964609258221" flag="0"/>
			<psa30 value="0.00152928862221253" flag="0"/>
		</comp>
		<comp name="--.HNZ" depth="0.0">
			<acc value="0.0291746016922321" flag="0"/>
			<vel value="0.00842964398040085" flag="0"/>
			<psa03 value="0.0621916671993977" flag="0"/>
			<psa10 value="0.012152878161655" flag="0"/>
			<psa30 value="0.00193778496863735" flag="0"/>
		</comp>
	</station>
	<station code="GPA" name="GPA" netid="KO" source="Bogazici University Kandilli Observatory And Earthquake Research Institute (KOERI)" insttype="" lat="40.2911" lon="30.3171">
		<comp name="--.HNE" depth="0.0">
			<acc value="0.000821330786453376" flag="0"/>
			<vel value="6.91231864753317e-05" flag="0"/>
			<psa03 value="0.0208498682841146" flag="0"/>
			<psa10 value="0.00367244031922775" flag="0"/>
			<psa30 value="0.000436683936594332" flag="0"/>
		</comp>
		<comp name="--.HNN" depth="0.0">
			<acc value="0.000706112224146017" flag="0"/>
			<vel value="5.16211900660971e-05" flag="0"/>
			<psa03 value="0.023221205234883" flag="0"/>
			<psa10 value="0.00308452772426365" flag="0"/>
			<psa30 value="0.000414760255351379" flag="0"/>
		</comp>
		<comp name="--.HNZ" depth="0.0">
			<acc value="0.000690985258875614" flag="0"/>
			<vel value="4.81298275432702e-05" flag="0"/>
			<psa03 value="0.00796411277805237" flag="0"/>
			<psa10 value="0.00383753906164917" flag="0"/>
			<psa30 value="0.000354358276416712" flag="0"/>
		</comp>
	</station>
	<station code="KHL" name="KHL" netid="KO" source="Bogazici University Kandilli Observatory And Earthquake Research Institute (KOERI)" insttype="" lat="38.3231" lon="29.5286">
		<comp name="--.HNE" depth="0.0">
			<acc value="0.0203030690559945" flag="0"/>
			<vel value="0.00848107117422156" flag="0"/>
			<psa03 value="0.0343172724762144" flag="0"/>
			<psa10 value="0.00702676354939958" flag="0"/>
			<psa30 value="0.00233151638687814" flag="0"/>
		</comp>
		<comp name="--.HNN" depth="0.0">
			<acc value="0.0188109028278994" flag="0"/>
			<vel value="0.00947785614296294" flag="0"/>
			<psa03 value="0.0470240591558036" flag="0"/>
			<psa10 value="0.0143434565976856" flag="0"/>
			<psa30 value="0.00219550007875859" flag="0"/>
		</comp>
		<comp name="--.HNZ" depth="0.0">
			<acc value="0.0129025112471828" flag="0"/>
			<vel value="0.00657447891850438" flag="0"/>
			<psa03 value="0.0244739870201947" flag="0"/>
			<psa10 value="0.0078442036643154" flag="0"/>
			<psa30 value="0.00214941560594177" flag="0"/>
		</comp>
	</station>
	<station code="KRMN" name="KRMN" netid="KO" source="Bogazici University Kandilli Observatory And Earthquake Research Institute (KOERI)" insttype="" lat="37.174" lon="33.2636">
		<comp name="--.HNE" depth="0.0">
			<acc value="0.00584120912020385" flag="0"/>
			<vel value="0.00373230885619278" flag="0"/>
			<psa03 value="0.0323486153850105" flag="0"/>
			<psa10 value="0.0231097971404035" flag="0"/>
			<psa30 value="0.00297490931804889" flag="0"/>
		</comp>
		<comp name="--.HNN" depth="0.0">
			<acc value="0.00423433571064595" flag="0"/>
			<vel value="0.00263198351818992" flag="0"/>
			<psa03 value="0.0166888430686154" flag="0"/>
			<psa10 value="0.0150199587617538" flag="0"/>
			<psa30 value="0.00242279048837941" flag="0"/>
		</comp>
		<comp name="--.HNZ" depth="0.0">
			<acc value="0.00600325991239003" flag="0"/>
			<vel value="0.00368995915192023" flag="0"/>
			<psa03 value="0.0296640829879142" flag="0"/>
			<psa10 value="0.00556503565918064" flag="0"/>
			<psa30 value="0.00151586596022705" flag="0"/>
		</comp>
	</station>
	<station code="MNVG" name="MNVG" netid="KO" source="Bogazici University Kandilli Observatory And Earthquake Research Institute (KOERI)" insttype="" lat="36.7935" lon="31.4161">
		<comp name="--.HNE" depth="0.0">
			<acc value="0.0410270064082435" flag="0"/>
			<vel value="0.0818468301986876" flag="0"/>
			<psa03 value="0.112168711992007" flag="0"/>
			<psa10 value="0.0793843075145348" flag="0"/>
			<psa30 value="0.0467202595728655" flag="0"/>
		</comp>
		<comp name="--.HNN" depth="0.0">
			<acc value="0.0493016360039147" flag="0"/>
			<vel value="0.0991580402059611" flag="0"/>
			<psa03 value="0.0782988615819756" flag="0"/>
			<psa10 value="0.0825252104191375" flag="0"/>
			<psa30 value="0.0616641565833683" flag="0"/>
		</comp>
		<comp name="--.HNZ" depth="0.0">
			<acc value="0.0414408775979805" flag="0"/>
			<vel value="0.115924069524514" flag="0"/>
			<psa03 value="0.0684108339193375" flag="0"/>
			<psa10 value="0.0936633353346901" flag="0"/>
			<psa30 value="0.0689933774495074" flag="0"/>
		</comp>
	</station>
	<station code="SHAP" name="SHAP" netid="KO" source="Bogazici University Kandilli Observatory And Earthquake Research Institute (KOERI)" insttype="" lat="39.0231" lon="29.222">
		<comp name="--.HNE" depth="0.0">
			<acc value="0.0139926272419318" flag="0"/>
			<vel value="0.00699660819301142" flag="0"/>
			<psa03 value="0.0363754139806549" flag="0"/>
			<psa10 value="0.0108079274307097" flag="0"/>
			<psa30 value="0.00127291577828983" flag="0"/>
		</comp>
		<comp name="--.HNN" depth="0.0">
			<acc value="0.0114827784867914" flag="0"/>
			<vel value="0.0102406431089804" flag="0"/>
			<psa03 value="0.0319011933188278" flag="0"/>
			<psa10 value="0.00914485961070856" flag="0"/>
			<psa30 value="0.00160624521759596" flag="0"/>
		</comp>
		<comp name="--.HNZ" depth="0.0">
			<acc value="0.0122608295198195" flag="0"/>
			<vel value="0.00586733686028609" flag="0"/>
			<psa03 value="0.0209393526973512" flag="0"/>
			<psa10 value="0.00697844196625185" flag="0"/>
			<psa30 value="0.00116061283967797" flag="0"/>
		</comp>
	</station>
	<station code="YUVA" name="YUVA" netid="KO" source="Bogazici University Kandilli Observatory And Earthquake Research Institute (KOERI)" insttype="" lat="40.391" lon="31.6872">
		<comp name="--.HNE" depth="0.0">
			<acc value="0.0145197851514186" flag="0"/>
			<vel value="0.00651461516315453" flag="0"/>
			<psa03 value="0.0640260976707469" flag="0"/>
			<psa10 value="0.0341915468756171" flag="0"/>
			<psa30 value="0.00327289241412658" flag="0"/>
		</comp>
		<comp name="--.HNN" depth="0.0">
			<acc value="0.0206545182631107" flag="0"/>
			<vel value="0.00919310651038863" flag="0"/>
			<psa03 value="0.0809833939790719" flag="0"/>
			<psa10 value="0.0199165458540575" flag="0"/>
			<psa30 value="0.00205187759551394" flag="0"/>
		</comp>
		<comp name="--.HNZ" depth="0.0">
			<acc value="0.0156740029606852" flag="0"/>
			<vel value="0.00765385091584448" flag="0"/>
			<psa03 value="0.0675159897869721" flag="0"/>
			<psa10 value="0.0133166229557962" flag="0"/>
			<psa30 value="0.00236238850944475" flag="0"/>
		</comp>
	</station>
</stationlist>
