<?xml version="1.0" encoding="UTF-8" standalone="yes"?>
<!DOCTYPE earthquake SYSTEM "stationlist.dtd">
<stationlist created="" xmlns="ch.ethz.sed.shakemap.usgs.xml">
  <station code="ESKT" name="ESKT" netid="KO" insttype="100" lat="39.5212" lon="30.8492">
    <comp name="--.HNN">
      <acc value="0.0105053382" flag="0"/>
      <vel value="0.0052448516" flag="0"/>
      <psa03 value="0.0367135508" flag="0"/>
      <psa10 value="0.0025020496" flag="0"/>
      <psa30 value="0.0002317851" flag="0"/>
    </comp>
    <comp name="--.HNE">
      <acc value="0.0111252420" flag="0"/>
      <vel value="0.0043849568" flag="0"/>
      <psa03 value="0.0212223821" flag="0"/>
      <psa10 value="0.0015940879" flag="0"/>
      <psa30 value="0.0001492402" flag="0"/>
    </comp>
    <comp name="--.HNZ">
      <acc value="0.0050027169" flag="0"/>
      <vel value="0.0015625035" flag="0"/>
      <psa03 value="0.0097129288" flag="0"/>
      <psa10 value="0.0019309330" flag="0"/>
      <psa30 value="0.0003071979" flag="0"/>
    </comp>
  </station>
</stationlist>
