<stationlist xmlns:esm="https://esm-db.eu/esmws/shakemap/1/" created="1780970081">
	<station code="SFIR" name="SFIR" netid="HI" source="ITSAK Strong Motion Network" insttype="" lat="36.421468" lon="25.428495" esm:processing="manual (Paolucci et al 2011)" esm:quality="good">
		<comp name="--.HNE" depth="0.0">
			<acc value="0.00592065315214055" flag="0"/>
			<vel value="0.00463956035146842" flag="0"/>
			<psa03 value="0.0145886812722868" flag="0"/>
			<psa10 value="0.00776244234870951" flag="0"/>
			<psa30 value="0.000628817228972011" flag="0"/>
		</comp>
		<comp name="--.HNN" depth="0.0">
			<acc value="0.00651359266985677" flag="0"/>
			<vel value="0.00467922002487972" flag="0"/>
			<psa03 value="0.0211922658627738" flag="0"/>
			<psa10 value="0.00738202839815226" flag="0"/>
			<psa30 value="0.000371081457325374" flag="0"/>
		</comp>
		<comp name="--.HNZ" depth="0.0">
			<acc value="0.011552262565713" flag="0"/>
			<vel value="0.00355692013389709" flag="0"/>
			<psa03 value="0.0168750905481802" flag="0"/>
			<psa10 value="0.00171127422289377" flag="0"/>
			<psa30 value="0.000154638902922557" flag="0"/>
		</comp>
	</station>
</stationlist>
