<?xml version="1.0" encoding="UTF-8" standalone="yes"?>
<!DOCTYPE earthquake SYSTEM "stationlist.dtd">
<stationlist created="" xmlns="ch.ethz.sed.shakemap.usgs.xml">
  <station code="APE" name="APE" netid="GE" source="GFZ" insttype="STS-2/N" lat="37.0727" lon="25.523">
    <comp name="--.HHE">
      <acc value="0.0007194407" flag="0"/>
      <vel value="0.0005048058" flag="0"/>
      <psa03 value="0.0018234699" flag="0"/>
      <psa10 value="0.0004507264" flag="0"/>
      <psa30 value="0.0000648832" flag="0"/>
    </comp>
    <comp name="--.HHN">
      <acc value="0.0009423928" flag="0"/>
      <vel value="0.0007593636" flag="0"/>
      <psa03 value="0.0018404747" flag="0"/>
      <psa10 value="0.0006954613" flag="0"/>
      <psa30 value="0.0000733216" flag="0"/>
    </comp>
    <comp name="--.HHZ">
      <acc value="0.0005660186" flag="0"/>
      <vel value="0.0002543566" flag="0"/>
      <psa03 value="0.0009254301" flag="0"/>
      <psa10 value="0.0002260832" flag="0"/>
      <psa30 value="0.0000277900" flag="0"/>
    </comp>
  </station>
  <station code="SANT" name="SANT" netid="GE" source="GFZ" insttype="STS-2/N" lat="36.3705" lon="25.4593">
    <comp name="--.HHE">
      <acc value="0.0063572616" flag="0"/>
      <vel value="0.0029584339" flag="0"/>
      <psa03 value="0.0058843389" flag="0"/>
      <psa10 value="0.0026525345" flag="0"/>
      <psa30 value="0.0002574601" flag="0"/>
    </comp>
    <comp name="--.HHN">
      <acc value="0.0043344751" flag="0"/>
      <vel value="0.0008872948" flag="0"/>
      <psa03 value="0.0027010920" flag="0"/>
      <psa10 value="0.0011473964" flag="0"/>
      <psa30 value="0.0000586328" flag="0"/>
    </comp>
    <comp name="--.HHZ">
      <acc value="0.0060097829" flag="0"/>
      <vel value="0.0016959174" flag="0"/>
      <psa03 value="0.0046969208" flag="0"/>
      <psa10 value="0.0017003336" flag="0"/>
      <psa30 value="0.0000838659" flag="0"/>
    </comp>
  </station>
  <station code="KOSK" name="KOSK" netid="HC" source="NOA" insttype="120" lat="36.7516" lon="26.9785">
    <comp name="--.HHE">
      <acc value="0.0158499843" flag="0"/>
      <vel value="0.0060694978" flag="0"/>
      <psa03 value="0.0303870761" flag="0"/>
      <psa10 value="0.0036733335" flag="0"/>
      <psa30 value="0.0002257682" flag="0"/>
    </comp>
    <comp name="--.HHN">
      <acc value="0.0103193927" flag="0"/>
      <vel value="0.0051057100" flag="0"/>
      <psa03 value="0.0320790364" flag="0"/>
      <psa10 value="0.0034387669" flag="0"/>
      <psa30 value="0.0002251041" flag="0"/>
    </comp>
    <comp name="--.HHZ">
      <acc value="0.0161758615" flag="0"/>
      <vel value="0.0061123501" flag="0"/>
      <psa03 value="0.0179332167" flag="0"/>
      <psa10 value="0.0036747912" flag="0"/>
      <psa30 value="0.0002682840" flag="0"/>
    </comp>
  </station>
  <station code="APE" name="APE" netid="HL" source="NOA" insttype="120" lat="37.0727" lon="25.523">
    <comp name="--.HHE">
      <acc value="0.0006507230" flag="0"/>
      <vel value="0.0004975583" flag="0"/>
      <psa03 value="0.0017685386" flag="0"/>
      <psa10 value="0.0004475932" flag="0"/>
      <psa30 value="0.0000647807" flag="0"/>
    </comp>
    <comp name="--.HHN">
      <acc value="0.0008451802" flag="0"/>
      <vel value="0.0007469862" flag="0"/>
      <psa03 value="0.0018069555" flag="0"/>
      <psa10 value="0.0006903561" flag="0"/>
      <psa30 value="0.0000730014" flag="0"/>
    </comp>
    <comp name="--.HHZ">
      <acc value="0.0005357791" flag="0"/>
      <vel value="0.0002505828" flag="0"/>
      <psa03 value="0.0009019085" flag="0"/>
      <psa10 value="0.0002240923" flag="0"/>
      <psa30 value="0.0000277327" flag="0"/>
    </comp>
  </station>
  <station code="SANT" name="SANT" netid="HL" source="NOA" insttype="120" lat="36.3705" lon="25.4593">
    <comp name="--.HHE">
      <acc value="0.0062714267" flag="0"/>
      <vel value="0.0029179702" flag="0"/>
      <psa03 value="0.0058051055" flag="0"/>
      <psa10 value="0.0026167348" flag="0"/>
      <psa30 value="0.0002539434" flag="0"/>
    </comp>
    <comp name="--.HHN">
      <acc value="0.0042759864" flag="0"/>
      <vel value="0.0008752962" flag="0"/>
      <psa03 value="0.0026646450" flag="0"/>
      <psa10 value="0.0011318277" flag="0"/>
      <psa30 value="0.0000578546" flag="0"/>
    </comp>
    <comp name="--.HHZ">
      <acc value="0.0059285541" flag="0"/>
      <vel value="0.0016729421" flag="0"/>
      <psa03 value="0.0046335420" flag="0"/>
      <psa10 value="0.0016773394" flag="0"/>
      <psa30 value="0.0000827435" flag="0"/>
    </comp>
  </station>
</stationlist>
