<stationlist created="1739419350">
	<station code="ABEA" name="ABEA" netid="HC" source="Seismological Network of Crete (HC)" insttype="" lat="35.5163" lon="24.0113">
		<comp name=".HNE" depth="0.0">
			<acc value="0.0083919199813242" flag="0"/>
			<vel value="0.00287800926278" flag="0"/>
			<psa03 value="0.0146406508608309" flag="0"/>
			<psa10 value="0.00374007283959432" flag="0"/>
			<psa30 value="0.000904212607981262" flag="0"/>
		</comp>
		<comp name=".HNN" depth="0.0">
			<acc value="0.0088634860242936" flag="0"/>
			<vel value="0.00329995496983" flag="0"/>
			<psa03 value="0.0165388690563939" flag="0"/>
			<psa10 value="0.00411987901552044" flag="0"/>
			<psa30 value="0.00117162490606617" flag="0"/>
		</comp>
		<comp name=".HNZ" depth="0.0">
			<acc value="0.0060289924572168" flag="0"/>
			<vel value="0.00243264414307" flag="0"/>
			<psa03 value="0.00525318881830609" flag="0"/>
			<psa10 value="0.00268516803545453" flag="0"/>
			<psa30 value="0.000660546830900429" flag="0"/>
		</comp>
	</station>
	<station code="ATEI" name="ATEI" netid="HC" source="Seismological Network of Crete (HC)" insttype="" lat="35.5193" lon="24.0432">
		<comp name=".HNE" depth="0.0">
			<acc value="0.005967569568" flag="0"/>
			<vel value="0.00623095754421" flag="0"/>
			<psa03 value="0.0119008977510722" flag="0"/>
			<psa10 value="0.00817871429968384" flag="0"/>
			<psa30 value="0.00183880743696815" flag="0"/>
		</comp>
		<comp name=".HNN" depth="0.0">
			<acc value="0.0043942170337896" flag="0"/>
			<vel value="0.00521082290924" flag="0"/>
			<psa03 value="0.0125607591720021" flag="0"/>
			<psa10 value="0.0097745397027692" flag="0"/>
			<psa30 value="0.00160142827426227" flag="0"/>
		</comp>
		<comp name=".HNZ" depth="0.0">
			<acc value="0.0031060719582504" flag="0"/>
			<vel value="0.00267412058331" flag="0"/>
			<psa03 value="0.00648742715604048" flag="0"/>
			<psa10 value="0.00551932640955533" flag="0"/>
			<psa30 value="0.0011530369038685" flag="0"/>
		</comp>
	</station>
	<station code="G0LD" name="G0LD" netid="HC" source="Seismological Network of Crete (HC)" insttype="" lat="35.4955" lon="24.0306">
		<comp name=".HNE" depth="0.0">
			<acc value="0.0095226925687932" flag="0"/>
			<vel value="0.00414244815525" flag="0"/>
			<psa03 value="0.0167706461292605" flag="0"/>
			<psa10 value="0.00547819743494573" flag="0"/>
			<psa30 value="0.00135011443845614" flag="0"/>
		</comp>
		<comp name=".HNN" depth="0.0">
			<acc value="0.010904069067534" flag="0"/>
			<vel value="0.00395133928297" flag="0"/>
			<psa03 value="0.0147111047468113" flag="0"/>
			<psa10 value="0.00493020457059708" flag="0"/>
			<psa30 value="0.00140360454441422" flag="0"/>
		</comp>
		<comp name=".HNZ" depth="0.0">
			<acc value="0.010429560804648" flag="0"/>
			<vel value="0.00508936521142" flag="0"/>
			<psa03 value="0.00660800089865741" flag="0"/>
			<psa10 value="0.00267042580885362" flag="0"/>
			<psa30 value="0.0027321578670518" flag="0"/>
		</comp>
	</station>
	<station code="PASK" name="PASK" netid="HC" source="Seismological Network of Crete (HC)" insttype="" lat="35.4996" lon="24.0121">
		<comp name=".HNE" depth="0.0">
			<acc value="0.014801299815408" flag="0"/>
			<vel value="0.0109604646302" flag="0"/>
			<psa03 value="0.0288630318258791" flag="0"/>
			<psa10 value="0.0203725720829147" flag="0"/>
			<psa30 value="0.00341063135425619" flag="0"/>
		</comp>
		<comp name=".HNN" depth="0.0">
			<acc value="0.015252190031742" flag="0"/>
			<vel value="0.0103079657138" flag="0"/>
			<psa03 value="0.0234838265216042" flag="0"/>
			<psa10 value="0.0174646725738323" flag="0"/>
			<psa30 value="0.00310362393318653" flag="0"/>
		</comp>
		<comp name=".HNZ" depth="0.0">
			<acc value="0.0093775014933816" flag="0"/>
			<vel value="0.00771026887967" flag="0"/>
			<psa03 value="0.0199497694909876" flag="0"/>
			<psa10 value="0.0123952245602833" flag="0"/>
			<psa30 value="0.00110017902729416" flag="0"/>
		</comp>
	</station>
	<station code="POLY" name="POLY" netid="HC" source="Seismological Network of Crete (HC)" insttype="" lat="35.5226" lon="24.0602">
		<comp name=".HNE" depth="0.0">
			<acc value="0.0021912899825052" flag="0"/>
			<vel value="0.00201531772002" flag="0"/>
			<psa03 value="0.00392016887163382" flag="0"/>
			<psa10 value="0.0013789627166984" flag="0"/>
			<psa30 value="0.000747415658451205" flag="0"/>
		</comp>
		<comp name=".HNN" depth="0.0">
			<acc value="0.0025452686489712" flag="0"/>
			<vel value="0.00259754106481" flag="0"/>
			<psa03 value="0.0066935111206032" flag="0"/>
			<psa10 value="0.00186183134500097" flag="0"/>
			<psa30 value="0.00100691868258945" flag="0"/>
		</comp>
		<comp name=".HNZ" depth="0.0">
			<acc value="0.0042169981994958" flag="0"/>
			<vel value="0.00143639193624" flag="0"/>
			<psa03 value="0.0044310008888329" flag="0"/>
			<psa10 value="0.00110523184900022" flag="0"/>
			<psa30 value="0.000818460833595593" flag="0"/>
		</comp>
	</station>
	<station code="ARK1" name="ARK1" netid="HI" source="ITSAK Strong Motion Network" insttype="" lat="35.148777" lon="25.264194">
		<comp name=".HNE" depth="0.0">
			<acc value="0.0087245051951058" flag="0"/>
			<vel value="0.00799635768008" flag="0"/>
			<psa03 value="0.0194902130059802" flag="0"/>
			<psa10 value="0.0115970591857662" flag="0"/>
			<psa30 value="0.00254398415146347" flag="0"/>
		</comp>
		<comp name=".HNN" depth="0.0">
			<acc value="0.0083668214201538" flag="0"/>
			<vel value="0.00745650381369" flag="0"/>
			<psa03 value="0.0282711540752234" flag="0"/>
			<psa10 value="0.0107562337977201" flag="0"/>
			<psa30 value="0.00189471176535363" flag="0"/>
		</comp>
		<comp name=".HNZ" depth="0.0">
			<acc value="0.0066987506936772" flag="0"/>
			<vel value="0.00610948385863" flag="0"/>
			<psa03 value="0.0157163549334607" flag="0"/>
			<psa10 value="0.00759046861253046" flag="0"/>
			<psa30 value="0.00133637863269263" flag="0"/>
		</comp>
	</station>
	<station code="CH01" name="CH01" netid="HI" source="ITSAK Strong Motion Network" insttype="" lat="35.517" lon="24.0208">
		<comp name=".HNE" depth="0.0">
			<acc value="0.00599659579368" flag="0"/>
			<vel value="0.00744184222504" flag="0"/>
			<psa03 value="0.0134292476946756" flag="0"/>
			<psa10 value="0.010359124678661" flag="0"/>
			<psa30 value="0.00157985476179211" flag="0"/>
		</comp>
		<comp name=".HNN" depth="0.0">
			<acc value="0.006674329077447" flag="0"/>
			<vel value="0.00778332233313" flag="0"/>
			<psa03 value="0.0125296620598491" flag="0"/>
			<psa10 value="0.0158238638783321" flag="0"/>
			<psa30 value="0.00148858631987125" flag="0"/>
		</comp>
		<comp name=".HNZ" depth="0.0">
			<acc value="0.0082133868034884" flag="0"/>
			<vel value="0.00459648570092" flag="0"/>
			<psa03 value="0.00608032336448847" flag="0"/>
			<psa10 value="0.0101989543806644" flag="0"/>
			<psa30 value="0.0007564388082757" flag="0"/>
		</comp>
	</station>
	<station code="CH02" name="CH02" netid="HI" source="ITSAK Strong Motion Network" insttype="" lat="35.5145" lon="24.0315">
		<comp name=".HNE" depth="0.0">
			<acc value="0.006227554452687" flag="0"/>
			<vel value="0.00640709551321" flag="0"/>
			<psa03 value="0.011959328705158" flag="0"/>
			<psa10 value="0.0171481647317352" flag="0"/>
			<psa30 value="0.00233165446066558" flag="0"/>
		</comp>
		<comp name=".HNN" depth="0.0">
			<acc value="0.007018427374836" flag="0"/>
			<vel value="0.00614883255749" flag="0"/>
			<psa03 value="0.0129966565376063" flag="0"/>
			<psa10 value="0.0127432579282802" flag="0"/>
			<psa30 value="0.00208084513744437" flag="0"/>
		</comp>
		<comp name=".HNZ" depth="0.0">
			<acc value="0.0057096637437438" flag="0"/>
			<vel value="0.00348593934535" flag="0"/>
			<psa03 value="0.00642808924082732" flag="0"/>
			<psa10 value="0.0072302356863937" flag="0"/>
			<psa30 value="0.000675456256076503" flag="0"/>
		</comp>
	</station>
	<station code="CH03" name="CH03" netid="HI" source="ITSAK Strong Motion Network" insttype="" lat="35.53303" lon="24.0705">
		<comp name=".HNE" depth="0.0">
			<acc value="0.0029901232463862" flag="0"/>
			<vel value="0.00454146164335" flag="0"/>
			<psa03 value="0.00859800968011306" flag="0"/>
			<psa10 value="0.00672274409880634" flag="0"/>
			<psa30 value="0.00126842131835214" flag="0"/>
		</comp>
		<comp name=".HNN" depth="0.0">
			<acc value="0.0038734614393612" flag="0"/>
			<vel value="0.00411325810491" flag="0"/>
			<psa03 value="0.00901484132961048" flag="0"/>
			<psa10 value="0.00755916857031861" flag="0"/>
			<psa30 value="0.00123158064867471" flag="0"/>
		</comp>
		<comp name=".HNZ" depth="0.0">
			<acc value="0.0027347947938402" flag="0"/>
			<vel value="0.00257694738761" flag="0"/>
			<psa03 value="0.00546656656030113" flag="0"/>
			<psa10 value="0.00472029941542603" flag="0"/>
			<psa30 value="0.00082297733070761" flag="0"/>
		</comp>
	</station>
	<station code="GOR1" name="GOR1" netid="HI" source="ITSAK Strong Motion Network" insttype="" lat="35.0582" lon="24.9628">
		<comp name=".HNE" depth="0.0">
			<acc value="0.0057446848422804" flag="0"/>
			<vel value="0.00744912368411" flag="0"/>
			<psa03 value="0.0122548040081162" flag="0"/>
			<psa10 value="0.0137940165984037" flag="0"/>
			<psa30 value="0.00191655883761683" flag="0"/>
		</comp>
		<comp name=".HNN" depth="0.0">
			<acc value="0.0054347674676226" flag="0"/>
			<vel value="0.00729603000121" flag="0"/>
			<psa03 value="0.00966402300657866" flag="0"/>
			<psa10 value="0.0124291455573934" flag="0"/>
			<psa30 value="0.00363720469696088" flag="0"/>
		</comp>
		<comp name=".HNZ" depth="0.0">
			<acc value="0.0077226856645692" flag="0"/>
			<vel value="0.00426491219288" flag="0"/>
			<psa03 value="0.00892578334664956" flag="0"/>
			<psa10 value="0.00831741255026653" flag="0"/>
			<psa30 value="0.00151298272768141" flag="0"/>
		</comp>
	</station>
	<station code="HER3" name="HER3" netid="HI" source="ITSAK Strong Motion Network" insttype="" lat="35.3296" lon="25.1065">
		<comp name=".HNE" depth="0.0">
			<acc value="0.024918273012174" flag="0"/>
			<vel value="0.0217637081266" flag="0"/>
			<psa03 value="0.0534656720466537" flag="0"/>
			<psa10 value="0.0400680255600631" flag="0"/>
			<psa30 value="0.00301477513072151" flag="0"/>
		</comp>
		<comp name=".HNN" depth="0.0">
			<acc value="0.033173341298622" flag="0"/>
			<vel value="0.0296495069345" flag="0"/>
			<psa03 value="0.0692521709497152" flag="0"/>
			<psa10 value="0.0744497594310689" flag="0"/>
			<psa30 value="0.0031289379017809" flag="0"/>
		</comp>
		<comp name=".HNZ" depth="0.0">
			<acc value="0.029058622033212" flag="0"/>
			<vel value="0.0112699508396" flag="0"/>
			<psa03 value="0.0380613547113021" flag="0"/>
			<psa10 value="0.0221371614782878" flag="0"/>
			<psa30 value="0.00106686244523504" flag="0"/>
		</comp>
	</station>
	<station code="KIS1" name="KIS1" netid="HI" source="ITSAK Strong Motion Network" insttype="" lat="35.493933" lon="23.658993">
		<comp name=".HNE" depth="0.0">
			<acc value="0.0049034545872066" flag="0"/>
			<vel value="0.00433687027027" flag="0"/>
			<psa03 value="0.00940699230770134" flag="0"/>
			<psa10 value="0.00784585162415083" flag="0"/>
			<psa30 value="0.00134135719166401" flag="0"/>
		</comp>
		<comp name=".HNN" depth="0.0">
			<acc value="0.0047704823804856" flag="0"/>
			<vel value="0.00539298412426" flag="0"/>
			<psa03 value="0.00845938851799446" flag="0"/>
			<psa10 value="0.0145955965741448" flag="0"/>
			<psa30 value="0.00132596408861264" flag="0"/>
		</comp>
		<comp name=".HNZ" depth="0.0">
			<acc value="0.0056009371124424" flag="0"/>
			<vel value="0.00356596785221" flag="0"/>
			<psa03 value="0.00758003794758287" flag="0"/>
			<psa10 value="0.00641018620586709" flag="0"/>
			<psa30 value="0.000760882071370768" flag="0"/>
		</comp>
	</station>
	<station code="KRL1" name="KRL1" netid="HI" source="ITSAK Strong Motion Network" insttype="" lat="37.7951" lon="26.7065">
		<comp name=".HNE" depth="0.0">
			<acc value="0.02545021634592" flag="0"/>
			<vel value="0.00988569247043" flag="0"/>
			<psa03 value="0.04734658960404" flag="0"/>
			<psa10 value="0.0158935472445174" flag="0"/>
			<psa30 value="0.00193553363627124" flag="0"/>
		</comp>
		<comp name=".HNN" depth="0.0">
			<acc value="0.017232628094724" flag="0"/>
			<vel value="0.00734552412546" flag="0"/>
			<psa03 value="0.0351500759158584" flag="0"/>
			<psa10 value="0.0129350306322987" flag="0"/>
			<psa30 value="0.00231770082797026" flag="0"/>
		</comp>
		<comp name=".HNZ" depth="0.0">
			<acc value="0.010456067372982" flag="0"/>
			<vel value="0.00452262158146" flag="0"/>
			<psa03 value="0.0180699665778324" flag="0"/>
			<psa10 value="0.00903142797526449" flag="0"/>
			<psa30 value="0.00107601055125078" flag="0"/>
		</comp>
	</station>
	<station code="KTL1" name="KTL1" netid="HI" source="ITSAK Strong Motion Network" insttype="" lat="35.20778" lon="25.34272">
		<comp name=".HNE" depth="0.0">
			<acc value="0.0078687387663996" flag="0"/>
			<vel value="0.00482509735212" flag="0"/>
			<psa03 value="0.0224219566987691" flag="0"/>
			<psa10 value="0.0074646126189687" flag="0"/>
			<psa30 value="0.00175939280113678" flag="0"/>
		</comp>
		<comp name=".HNN" depth="0.0">
			<acc value="0.0090677585497602" flag="0"/>
			<vel value="0.00604177966654" flag="0"/>
			<psa03 value="0.0242029600981576" flag="0"/>
			<psa10 value="0.00862716150712105" flag="0"/>
			<psa30 value="0.00113406866814861" flag="0"/>
		</comp>
		<comp name=".HNZ" depth="0.0">
			<acc value="0.009110446828167" flag="0"/>
			<vel value="0.00350771991807" flag="0"/>
			<psa03 value="0.00754938487534318" flag="0"/>
			<psa10 value="0.00329869672559266" flag="0"/>
			<psa30 value="0.00128155489672147" flag="0"/>
		</comp>
	</station>
	<station code="NAX1" name="NAX1" netid="HI" source="ITSAK Strong Motion Network" insttype="" lat="37.101394" lon="25.374103">
		<comp name=".HNE" depth="0.0">
			<acc value="0.099741681141366" flag="0"/>
			<vel value="0.0207332304958" flag="0"/>
			<psa03 value="0.093980569501622" flag="0"/>
			<psa10 value="0.012839145217849" flag="0"/>
			<psa30 value="0.0020634950297518" flag="0"/>
		</comp>
		<comp name=".HNN" depth="0.0">
			<acc value="0.093266834714898" flag="0"/>
			<vel value="0.0212095221078" flag="0"/>
			<psa03 value="0.0359498841075372" flag="0"/>
			<psa10 value="0.00832435707281695" flag="0"/>
			<psa30 value="0.00233599141463121" flag="0"/>
		</comp>
		<comp name=".HNZ" depth="0.0">
			<acc value="0.056618478691248" flag="0"/>
			<vel value="0.00996539992637" flag="0"/>
			<psa03 value="0.0516054342316014" flag="0"/>
			<psa10 value="0.0103827821833492" flag="0"/>
			<psa30 value="0.0034626764686565" flag="0"/>
		</comp>
	</station>
	<station code="RTH1" name="RTH1" netid="HI" source="ITSAK Strong Motion Network" insttype="" lat="35.365393" lon="24.471773">
		<comp name=".HNE" depth="0.0">
			<acc value="0.0037905143597964" flag="0"/>
			<vel value="0.00296852889718" flag="0"/>
			<psa03 value="0.010236027695973" flag="0"/>
			<psa10 value="0.00377705169551336" flag="0"/>
			<psa30 value="0.00159603104172556" flag="0"/>
		</comp>
		<comp name=".HNN" depth="0.0">
			<acc value="0.0047551375747824" flag="0"/>
			<vel value="0.00319785610671" flag="0"/>
			<psa03 value="0.00982513068439414" flag="0"/>
			<psa10 value="0.00392492750718513" flag="0"/>
			<psa30 value="0.00122396556087968" flag="0"/>
		</comp>
		<comp name=".HNZ" depth="0.0">
			<acc value="0.0060225749039898" flag="0"/>
			<vel value="0.00315033898915" flag="0"/>
			<psa03 value="0.00546851851253155" flag="0"/>
			<psa10 value="0.00331300767362381" flag="0"/>
			<psa30 value="0.000944328598800596" flag="0"/>
		</comp>
	</station>
	<station code="SFR2" name="SFR2" netid="HI" source="ITSAK Strong Motion Network" insttype="" lat="36.399841" lon="25.438209">
		<comp name=".HNE" depth="0.0">
			<acc value="0.16997789384634" flag="0"/>
			<vel value="0.0593219363714" flag="0"/>
			<psa03 value="0.272295850763929" flag="0"/>
			<psa10 value="0.0541198464240432" flag="0"/>
			<psa30 value="0.015363017724534" flag="0"/>
		</comp>
		<comp name=".HNN" depth="0.0">
			<acc value="0.1692994411248" flag="0"/>
			<vel value="0.0614466267332" flag="0"/>
			<psa03 value="0.391530478639449" flag="0"/>
			<psa10 value="0.0562669911621066" flag="0"/>
			<psa30 value="0.0103163825763996" flag="0"/>
		</comp>
		<comp name=".HNZ" depth="0.0">
			<acc value="0.22294711603818" flag="0"/>
			<vel value="0.0565033429388" flag="0"/>
			<psa03 value="0.229086780041493" flag="0"/>
			<psa10 value="0.0287686095292049" flag="0"/>
			<psa30 value="0.00409509961358494" flag="0"/>
		</comp>
	</station>
	<station code="AMGA" name="AMGA" netid="HL" source="National Observatory of Athens Seismic Network" insttype="" lat="36.831561" lon="25.893836">
		<comp name="00.HNE" depth="0.0">
			<acc value="0.45250024164882" flag="0"/>
			<vel value="0.0990790523687" flag="0"/>
			<psa03 value="0.289494906783535" flag="0"/>
			<psa10 value="0.0186301579065261" flag="0"/>
			<psa30 value="0.00569874418047949" flag="0"/>
		</comp>
		<comp name="00.HNN" depth="0.0">
			<acc value="0.36570543864642" flag="0"/>
			<vel value="0.112701263307" flag="0"/>
			<psa03 value="0.307318566679984" flag="0"/>
			<psa10 value="0.0239912374267292" flag="0"/>
			<psa30 value="0.00452515351921216" flag="0"/>
		</comp>
		<comp name="00.HNZ" depth="0.0">
			<acc value="0.26695576317186" flag="0"/>
			<vel value="0.0729509492129" flag="0"/>
			<psa03 value="0.26507433070672" flag="0"/>
			<psa10 value="0.0272417840094841" flag="0"/>
			<psa30 value="0.00557313085924162" flag="0"/>
		</comp>
	</station>
	<station code="ANAF" name="ANAF" netid="HL" source="National Observatory of Athens Seismic Network" insttype="" lat="36.35675" lon="25.77262">
		<comp name=".HNE" depth="0.0">
			<acc value="1.0956064146996" flag="0"/>
			<vel value="0.30100248803" flag="0"/>
			<psa03 value="2.23512356596681" flag="0"/>
			<psa10 value="0.125668724936185" flag="0"/>
			<psa30 value="0.0109836492795442" flag="0"/>
		</comp>
		<comp name=".HNN" depth="0.0">
			<acc value="1.1201481139794" flag="0"/>
			<vel value="0.344638090533" flag="0"/>
			<psa03 value="1.66640239097886" flag="0"/>
			<psa10 value="0.152272417300276" flag="0"/>
			<psa30 value="0.0142481355357213" flag="0"/>
		</comp>
		<comp name=".HNZ" depth="0.0">
			<acc value="0.63586384891722" flag="0"/>
			<vel value="0.197482058406" flag="0"/>
			<psa03 value="0.735556727021148" flag="0"/>
			<psa10 value="0.0708884635127569" flag="0"/>
			<psa30 value="0.00682517963463766" flag="0"/>
		</comp>
	</station>
	<station code="ASTA" name="ASTA" netid="HL" source="National Observatory of Athens Seismic Network" insttype="" lat="36.54552" lon="26.35295">
		<comp name="00.HNE" depth="0.0">
			<acc value="0.050123381910612" flag="0"/>
			<vel value="0.0224184142366" flag="0"/>
			<psa03 value="0.0719460264880084" flag="0"/>
			<psa10 value="0.0119149171172725" flag="0"/>
			<psa30 value="0.00244328560568029" flag="0"/>
		</comp>
		<comp name="00.HNN" depth="0.0">
			<acc value="0.04933172342409" flag="0"/>
			<vel value="0.0173358782258" flag="0"/>
			<psa03 value="0.0668314637148512" flag="0"/>
			<psa10 value="0.0112566453850243" flag="0"/>
			<psa30 value="0.00209657763798049" flag="0"/>
		</comp>
		<comp name="00.HNZ" depth="0.0">
			<acc value="0.038859905166126" flag="0"/>
			<vel value="0.0172517178878" flag="0"/>
			<psa03 value="0.0663997840763951" flag="0"/>
			<psa10 value="0.00970366750785458" flag="0"/>
			<psa30 value="0.00312931063480462" flag="0"/>
		</comp>
	</station>
	<station code="CHNB" name="CHNB" netid="HL" source="National Observatory of Athens Seismic Network" insttype="" lat="35.48765" lon="24.06605">
		<comp name="00.HNE" depth="0.0">
			<acc value="0.01034146675188" flag="0"/>
			<vel value="0.0107040826996" flag="0"/>
			<psa03 value="0.0212445453676838" flag="0"/>
			<psa10 value="0.0255191411428745" flag="0"/>
			<psa30 value="0.0011134509481592" flag="0"/>
		</comp>
		<comp name="00.HNN" depth="0.0">
			<acc value="0.0100617007537332" flag="0"/>
