<stationlist xmlns:esm="https://esm-db.eu/esmws/shakemap/1/" created="1784339621">
	<station code="ACOM" name="ACOM" netid="OX" source="North-East Italy Seismic Network" insttype="" lat="46.548" lon="13.5137" esm:processing="manual (Paolucci et al 2011)" esm:quality="best">
		<comp name="--.HNE" depth="0.0">
			<acc value="0.0228978353865738" flag="0"/>
			<vel value="0.00894565337116232" flag="0"/>
			<psa03 value="0.0608941432074679" flag="0"/>
			<psa10 value="0.0093381459432995" flag="0"/>
			<psa30 value="0.000463976682631478" flag="0"/>
		</comp>
		<comp name="--.HNN" depth="0.0">
			<acc value="0.0188793531602676" flag="0"/>
			<vel value="0.00776190995878341" flag="0"/>
			<psa03 value="0.0520799285036683" flag="0"/>
			<psa10 value="0.00630193980218358" flag="0"/>
			<psa30 value="0.000970011039484131" flag="0"/>
		</comp>
		<comp name="--.HNZ" depth="0.0">
			<acc value="0.00938176881951475" flag="0"/>
			<vel value="0.00436210784301343" flag="0"/>
			<psa03 value="0.0267110973511082" flag="0"/>
			<psa10 value="0.00473954194707353" flag="0"/>
			<psa30 value="0.000404916969895359" flag="0"/>
		</comp>
	</station>
	<station code="BOO" name="BOO" netid="OX" source="North-East Italy Seismic Network" insttype="" lat="46.3195" lon="13.0984" esm:processing="manual (Paolucci et al 2011)" esm:quality="bad">
		<comp name="--.HNE" depth="0.0">
			<acc value="0.0081629963033046" flag="0"/>
			<vel value="0.00437149050337288" flag="0"/>
			<psa03 value="0.0179863670605452" flag="0"/>
			<psa10 value="0.00440934446223068" flag="0"/>
			<psa30 value="0.000489479740403893" flag="0"/>
		</comp>
		<comp name="--.HNN" depth="0.0">
			<acc value="0.0151374510157377" flag="0"/>
			<vel value="0.0048677935922195" flag="0"/>
			<psa03 value="0.0392836574108426" flag="0"/>
			<psa10 value="0.00542409770833309" flag="0"/>
			<psa30 value="0.000326170686247201" flag="0"/>
		</comp>
		<comp name="--.HNZ" depth="0.0">
			<acc value="0.0051535918198885" flag="0"/>
			<vel value="0.00227330237010608" flag="0"/>
			<psa03 value="0.00899318353027262" flag="0"/>
			<psa10 value="0.00277849103099468" flag="0"/>
			<psa30 value="0.000336013971703221" flag="0"/>
		</comp>
	</station>
	<station code="DRE" name="DRE" netid="OX" source="North-East Italy Seismic Network" insttype="" lat="46.1733" lon="13.645" esm:processing="manual (Paolucci et al 2011)" esm:quality="best">
		<comp name="--.HNE" depth="0.0">
			<acc value="0.0103056910984557" flag="0"/>
			<vel value="0.00539856297564098" flag="0"/>
			<psa03 value="0.0272032616239092" flag="0"/>
			<psa10 value="0.00524691857012473" flag="0"/>
			<psa30 value="0.000407154080226273" flag="0"/>
		</comp>
		<comp name="--.HNN" depth="0.0">
			<acc value="0.0125160253054085" flag="0"/>
			<vel value="0.0062804166277068" flag="0"/>
			<psa03 value="0.0463529260565295" flag="0"/>
			<psa10 value="0.00391002143637077" flag="0"/>
			<psa30 value="0.000580306419838984" flag="0"/>
		</comp>
		<comp name="--.HNZ" depth="0.0">
			<acc value="0.00620569170863772" flag="0"/>
			<vel value="0.00329090620643701" flag="0"/>
			<psa03 value="0.013333177572245" flag="0"/>
			<psa10 value="0.00349526118101939" flag="0"/>
			<psa30 value="0.000482768409411152" flag="0"/>
		</comp>
	</station>
	<station code="FUSE" name="FUSE" netid="OX" source="North-East Italy Seismic Network" insttype="" lat="46.4142" lon="13.0011" esm:processing="manual (Paolucci et al 2011)" esm:quality="good">
		<comp name="--.HNE" depth="0.0">
			<acc value="0.00380289000601224" flag="0"/>
			<vel value="0.00341217626805413" flag="0"/>
			<psa03 value="0.0175389449943625" flag="0"/>
			<psa10 value="0.00436102287908295" flag="0"/>
			<psa30 value="0.000297088251945324" flag="0"/>
		</comp>
		<comp name="--.HNN" depth="0.0">
			<acc value="0.0085128973142923" flag="0"/>
			<vel value="0.00510163550918343" flag="0"/>
			<psa03 value="0.0186575001598193" flag="0"/>
			<psa10 value="0.00452209482290873" flag="0"/>
			<psa30 value="0.000331539751041394" flag="0"/>
		</comp>
		<comp name="--.HNZ" depth="0.0">
			<acc value="0.00454655063236413" flag="0"/>
			<vel value="0.00228585360669626" flag="0"/>
			<psa03 value="0.0140043106715191" flag="0"/>
			<psa10 value="0.00285500020431192" flag="0"/>
			<psa30 value="0.000366886094269828" flag="0"/>
		</comp>
	</station>
	<station code="PLRO" name="PLRO" netid="OX" source="North-East Italy Seismic Network" insttype="" lat="46.5491" lon="13.1481" esm:processing="manual (Paolucci et al 2011)" esm:quality="good">
		<comp name="--.HNE" depth="0.0">
			<acc value="0.0449259932890148" flag="0"/>
			<vel value="0.0195027931863209" flag="0"/>
			<psa03 value="0.114316337909684" flag="0"/>
			<psa10 value="0.0103126312034455" flag="0"/>
			<psa30 value="0.000859050367070818" flag="0"/>
		</comp>
		<comp name="--.HNN" depth="0.0">
			<acc value="0.0478936663669304" flag="0"/>
			<vel value="0.0204108826482414" flag="0"/>
			<psa03 value="0.154897519312457" flag="0"/>
			<psa10 value="0.0118669754613642" flag="0"/>
			<psa30 value="0.00122414677307592" flag="0"/>
		</comp>
		<comp name="--.HNZ" depth="0.0">
			<acc value="0.023202428946044" flag="0"/>
			<vel value="0.00959928817004676" flag="0"/>
			<psa03 value="0.0529300304294155" flag="0"/>
			<psa10 value="0.00649925293337015" flag="0"/>
			<psa30 value="0.00139371973615916" flag="0"/>
		</comp>
	</station>
	<station code="PRED" name="PRED" netid="OX" source="North-East Italy Seismic Network" insttype="" lat="46.4428" lon="13.565" esm:processing="manual (Paolucci et al 2011)" esm:quality="best">
		<comp name="--.HNE" depth="0.0">
			<acc value="0.00441029385338265" flag="0"/>
			<vel value="0.00254309652827485" flag="0"/>
			<psa03 value="0.0120356535803151" flag="0"/>
			<psa10 value="0.0030523133354985" flag="0"/>
			<psa30 value="0.000327065530379566" flag="0"/>
		</comp>
		<comp name="--.HNN" depth="0.0">
			<acc value="0.00330850856619716" flag="0"/>
			<vel value="0.00209421906002563" flag="0"/>
			<psa03 value="0.0120356535803151" flag="0"/>
			<psa10 value="0.00394223582513592" flag="0"/>
			<psa30 value="0.00034898921162252" flag="0"/>
		</comp>
		<comp name="--.HNZ" depth="0.0">
			<acc value="0.00411238414586784" flag="0"/>
			<vel value="0.00219867857732199" flag="0"/>
			<psa03 value="0.00970905883616497" flag="0"/>
			<psa10 value="0.00268587466329485" flag="0"/>
			<psa30 value="0.000540933278014905" flag="0"/>
		</comp>
	</station>
	<station code="BOVC" name="BOVC" netid="SL" source="Seismic Network of the Republic of Slovenia (SNRS)" insttype="" lat="46.3382" lon="13.5543" esm:processing="manual (Paolucci et al 2011)" esm:quality="good">
		<comp name="--.HGE" depth="0.0">
			<acc value="0.0146278005217303" flag="0"/>
			<vel value="0.0086876529929715" flag="0"/>
			<psa03 value="0.038885003023946" flag="0"/>
			<psa10 value="0.00702111245799251" flag="0"/>
			<psa30 value="0.000784756934212171" flag="0"/>
		</comp>
		<comp name="--.HGN" depth="0.0">
			<acc value="0.0133314473964665" flag="0"/>
			<vel value="0.00499173596737255" flag="0"/>
			<psa03 value="0.0330412435077244" flag="0"/>
			<psa10 value="0.00955648713287174" flag="0"/>
			<psa30 value="0.000782170669134802" flag="0"/>
		</comp>
		<comp name="--.HGZ" depth="0.0">
			<acc value="0.0107298609044811" flag="0"/>
			<vel value="0.0043768726516547" flag="0"/>
			<psa03 value="0.0308090539694558" flag="0"/>
			<psa10 value="0.00517573099177703" flag="0"/>
			<psa30 value="0.000612395307766992" flag="0"/>
		</comp>
	</station>
	<station code="CADS" name="CADS" netid="SL" source="Seismic Network of the Republic of Slovenia (SNRS)" insttype="" lat="46.2281" lon="13.7368" esm:processing="manual (Paolucci et al 2011)" esm:quality="best">
		<comp name="--.HNE" depth="0.0">
			<acc value="0.019373764364737" flag="0"/>
			<vel value="0.0121999151554257" flag="0"/>
			<psa03 value="0.0610283698273227" flag="0"/>
			<psa10 value="0.00963210224078154" flag="0"/>
			<psa30 value="0.000570015712316782" flag="0"/>
		</comp>
		<comp name="--.HNN" depth="0.0">
			<acc value="0.0145875030360825" flag="0"/>
			<vel value="0.00887059885893033" flag="0"/>
			<psa03 value="0.0702452643906867" flag="0"/>
			<psa10 value="0.00739722902019887" flag="0"/>
			<psa30 value="0.000412075722954283" flag="0"/>
		</comp>
		<comp name="--.HNZ" depth="0.0">
			<acc value="0.0121583038411648" flag="0"/>
			<vel value="0.00488465685317173" flag="0"/>
			<psa03 value="0.0419234476013206" flag="0"/>
			<psa10 value="0.0040670665816009" flag="0"/>
			<psa30 value="0.000677844430266817" flag="0"/>
		</comp>
	</station>
	<station code="CRNS" name="CRNS" netid="SL" source="Seismic Network of the Republic of Slovenia (SNRS)" insttype="" lat="46.0807" lon="14.2613" esm:processing="manual (Paolucci et al 2011)" esm:quality="good">
		<comp name="--.HNE" depth="0.0">
			<acc value="0.00667869466218916" flag="0"/>
			<vel value="0.00414263981047455" flag="0"/>
			<psa03 value="0.0139595684649008" flag="0"/>
			<psa10 value="0.00344693959787166" flag="0"/>
			<psa30 value="0.00035391085435053" flag="0"/>
		</comp>
		<comp name="--.HNN" depth="0.0">
			<acc value="0.00475055538613121" flag="0"/>
			<vel value="0.00263315400603945" flag="0"/>
			<psa03 value="0.0096643166295467" flag="0"/>
			<psa10 value="0.00299191135656383" flag="0"/>
			<psa30 value="0.000282770745827477" flag="0"/>
		</comp>
		<comp name="--.HNZ" depth="0.0">
			<acc value="0.00249063738255871" flag="0"/>
			<vel value="0.00107877662691401" flag="0"/>
			<psa03 value="0.00599545568684842" flag="0"/>
			<psa10 value="0.00167917501438374" flag="0"/>
			<psa30 value="0.000327065530379566" flag="0"/>
		</comp>
	</station>
	<station code="DOBS" name="DOBS" netid="SL" source="Seismic Network of the Republic of Slovenia (SNRS)" insttype="" lat="46.1495" lon="15.4695" esm:processing="manual (Paolucci et al 2011)" esm:quality="good">
		<comp name="--.HNE" depth="0.0">
			<acc value="0.00208901145342276" flag="0"/>
			<vel value="0.000980495420919248" flag="0"/>
			<psa03 value="0.00292367186901685" flag="0"/>
			<psa10 value="0.00143331916911059" flag="0"/>
			<psa30 value="0.000199064840714571" flag="0"/>
		</comp>
		<comp name="--.HNN" depth="0.0">
			<acc value="0.0023487828706689" flag="0"/>
			<vel value="0.000921240054044423" flag="0"/>
			<psa03 value="0.00265162275985893" flag="0"/>
			<psa10 value="0.00172537058639617" flag="0"/>
			<psa30 value="0.000155482409321549" flag="0"/>
		</comp>
		<comp name="--.HNZ" depth="0.0">
			<acc value="0.0011302925885554" flag="0"/>
			<vel value="0.00058770583652934" flag="0"/>
			<psa03 value="0.00188292453919731" flag="0"/>
			<psa10 value="0.000685387727792008" flag="0"/>
			<psa30 value="0.000178454621222013" flag="0"/>
		</comp>
	</station>
	<station code="GORS" name="GORS" netid="SL" source="Seismic Network of the Republic of Slovenia (SNRS)" insttype="" lat="46.3174" lon="13.9999" esm:processing="manual (Paolucci et al 2011)" esm:quality="best">
		<comp name="--.HNE" depth="0.0">
			<acc value="0.00630141148464162" flag="0"/>
			<vel value="0.00374299713055534" flag="0"/>
			<psa03 value="0.0203129618046954" flag="0"/>
			<psa10 value="0.00444155885099584" flag="0"/>
			<psa30 value="0.000473372546021315" flag="0"/>
		</comp>
		<comp name="--.HNN" depth="0.0">
			<acc value="0.00576964286207947" flag="0"/>
			<vel value="0.00323449052146465" flag="0"/>
			<psa03 value="0.0165993586553788" flag="0"/>
			<psa10 value="0.00311674211302881" flag="0"/>
			<psa30 value="0.00032930264071048" flag="0"/>
		</comp>
		<comp name="--.HNZ" depth="0.0">
			<acc value="0.00540108513310895" flag="0"/>
			<vel value="0.00233802477788191" flag="0"/>
			<psa03 value="0.0151228658369759" flag="0"/>
			<psa10 value="0.00186440774978338" flag="0"/>
			<psa30 value="0.000425050962873582" flag="0"/>
		</comp>
	</station>
	<station code="JAVS" name="JAVS" netid="SL" source="Seismic Network of the Republic of Slovenia (SNRS)" insttype="" lat="45.8934" lon="14.0643" esm:processing="manual (Paolucci et al 2011)" esm:quality="good">
		<comp name="--.HNE" depth="0.0">
			<acc value="0.00285759078199106" flag="0"/>
			<vel value="0.00293317777746403" flag="0"/>
			<psa03 value="0.00918047990653081" flag="0"/>
			<psa10 value="0.00460448330567682" flag="0"/>
			<psa30 value="0.000255200655790951" flag="0"/>
		</comp>
		<comp name="--.HNN" depth="0.0">
			<acc value="0.00265454074660109" flag="0"/>
			<vel value="0.00195085294554433" flag="0"/>
			<psa03 value="0.00665484189230081" flag="0"/>
			<psa10 value="0.00160284950122429" flag="0"/>
			<psa30 value="0.000176584093662705" flag="0"/>
		</comp>
		<comp name="--.HNZ" depth="0.0">
			<acc value="0.00239370838667059" flag="0"/>
			<vel value="0.00136595088829096" flag="0"/>
			<psa03 value="0.00801966212262512" flag="0"/>
			<psa10 value="0.00169495302450856" flag="0"/>
			<psa30 value="0.00015960450530697" flag="0"/>
		</comp>
	</station>
	<station code="KOGS" name="KOGS" netid="SL" source="Seismic Network of the Republic of Slovenia (SNRS)" insttype="" lat="46.4481" lon="16.2504" esm:processing="manual (Paolucci et al 2011)" esm:quality="best">
		<comp name="--.HNE" depth="0.0">
			<acc value="0.00295879653387694" flag="0"/>
			<vel value="0.00241555298453973" flag="0"/>
			<psa03 value="0.00948534780307361" flag="0"/>
			<psa10 value="0.0027986250239729" flag="0"/>
			<psa30 value="0.000639813554641286" flag="0"/>
		</comp>
		<comp name="--.HNN" depth="0.0">
			<acc value="0.00283401336953248" flag="0"/>
			<vel value="0.00227585114425053" flag="0"/>
			<psa03 value="0.0072929796787783" flag="0"/>
			<psa10 value="0.00280265182256854" flag="0"/>
			<psa30 value="0.000315432556658816" flag="0"/>
		</comp>
		<comp name="--.HNZ" depth="0.0">
			<acc value="0.00164716555965707" flag="0"/>
			<vel value="0.00112441180014677" flag="0"/>
			<psa03 value="0.00375834535593483" flag="0"/>
			<psa10 value="0.00118387878711947" flag="0"/>
			<psa30 value="0.000321249043519191" flag="0"/>
		</comp>
	</station>
	<station code="LEGS" name="LEGS" netid="SL" source="Seismic Network of the Republic of Slovenia (SNRS)" insttype="" lat="45.9488" lon="15.3177" esm:processing="manual (Paolucci et al 2011)" esm:quality="best">
		<comp name="--.HNE" depth="0.0">
			<acc value="0.00166118406027187" flag="0"/>
			<vel value="0.00121498964364395" flag="0"/>
			<psa03 value="0.00686973568522036" flag="0"/>
			<psa10 value="0.00120858975063792" flag="0"/>
			<psa30 value="7.81652561897628e-05" flag="0"/>
		</comp>
		<comp name="--.HNN" depth="0.0">
			<acc value="0.00126493117992524" flag="0"/>
			<vel value="0.000651650502348981" flag="0"/>
			<psa03 value="0.0067218469820607" flag="0"/>
			<psa10 value="0.00104667418077629" flag="0"/>
			<psa30 value="0.000107907187384121" flag="0"/>
		</comp>
		<comp name="--.HNZ" depth="0.0">
			<acc value="0.000908980542666813" flag="0"/>
			<vel value="0.000632150106602636" flag="0"/>
			<psa03 value="0.00237277551155566" flag="0"/>
			<psa10 value="0.000659805583882434" flag="0"/>
			<psa30 value="0.000145780568705463" flag="0"/>
		</comp>
	</station>
	<station code="LJU" name="LJU" netid="SL" source="Seismic Network of the Republic of Slovenia (SNRS)" insttype="" lat="46.0438" lon="14.5278" esm:processing="manual (Paolucci et al 2011)" esm:quality="best">
		<comp name="--.HNE" depth="0.0">
			<acc value="0.00270981431358985" flag="0"/>
			<vel value="0.00235508242730874" flag="0"/>
			<psa03 value="0.00662184657950422" flag="0"/>
			<psa10 value="0.00258923149699939" flag="0"/>
			<psa30 value="0.000494848805198085" flag="0"/>
		</comp>
		<comp name="--.HNN" depth="0.0">
			<acc value="0.00295842613629746" flag="0"/>
			<vel value="0.00193014500495035" flag="0"/>
			<psa03 value="0.0090379257368909" flag="0"/>
			<psa10 value="0.00249258833070392" flag="0"/>
			<psa30 value="0.000620126983729246" flag="0"/>
		</comp>
		<comp name="--.HNZ" depth="0.0">
			<acc value="0.00218728386013946" flag="0"/>
			<vel value="0.00161647357616052" flag="0"/>
			<psa03 value="0.00697978423245039" flag="0"/>
			<psa10 value="0.00213420325569156" flag="0"/>
			<psa30 value="0.000467108637094757" flag="0"/>
		</comp>
	</station>
	<station code="MOZS" name="MOZS" netid="SL" source="Seismic Network of the Republic of Slovenia (SNRS)" insttype="" lat="46.2941" lon="14.4433" esm:processing="manual (Paolucci et al 2011)" esm:quality="good">
		<comp name="--.HNE" depth="0.0">
			<acc value="0.0112833954852983" flag="0"/>
			<vel value="0.00509895933232952" flag="0"/>
			<psa03 value="0.0330644906909028" flag="0"/>
			<psa10 value="0.00440129086503939" flag="0"/>
			<psa30 value="0.000678291852333" flag="0"/>
		</comp>
		<comp name="--.HNN" depth="0.0">
			<acc value="0.00896174051670309" flag="0"/>
			<vel value="0.00455509437142283" flag="0"/>
			<psa03 value="0.0277849103099468" flag="0"/>
			<psa10 value="0.00486034590494286" flag="0"/>
			<psa30 value="0.00103891403767627" flag="0"/>
		</comp>
		<comp name="--.HNZ" depth="0.0">
			<acc value="0.0046353466813009" flag="0"/>
			<vel value="0.00223720886655464" flag="0"/>
			<psa03 value="0.014809670390648" flag="0"/>
			<psa10 value="0.00328184085545023" flag="0"/>
			<psa30 value="0.00102101715502896" flag="0"/>
		</comp>
	</station>
	<station code="PERS" name="PERS" netid="SL" source="Seismic Network of the Republic of Slovenia (SNRS)" insttype="" lat="46.6365" lon="15.1139" esm:processing="manual (Paolucci et al 2011)" esm:quality="best">
		<comp name="--.HNE" depth="0.0">
			<acc value="0.00816567254737581" flag="0"/>
			<vel value="0.00439414175315029" flag="0"/>
			<psa03 value="0.0223263611025176" flag="0"/>
			<psa10 value="0.00528315975748553" flag="0"/>
			<psa30 value="0.000241160493672485" flag="0"/>
		</comp>
		<comp name="--.HNN" depth="0.0">
			<acc value="0.00928874723302949" flag="0"/>
			<vel value="0.00472651469690105" flag="0"/>
			<psa03 value="0.0262636752849255" flag="0"/>
			<psa10 value="0.00255299030963859" flag="0"/>
			<psa30 value="0.000476057078418411" flag="0"/>
		</comp>
		<comp name="--.HNZ" depth="0.0">
			<acc value="0.00600398296124972" flag="0"/>
			<vel value="0.00261424315011677" flag="0"/>
			<psa03 value="0.0115882315141324" flag="0"/>
			<psa10 value="0.00235970397704765" flag="0"/>
			<psa30 value="0.000455475663374006" flag="0"/>
		</comp>
	</station>
	<station code="ROBS" name="ROBS" netid="SL" source="Seismic Network of the Republic of Slovenia (SNRS)" insttype="" lat="46.2445" lon="13.5094" esm:processing="manual (Paolucci et al 2011)" esm:quality="best">
		<comp name="--.HNE" depth="0.0">
			<acc value="0.00583720243139395" flag="0"/>
			<vel value="0.00328914764986181" flag="0"/>
			<psa03 value="0.0181645678967955" flag="0"/>
			<psa10 value="0.00433367411587918" flag="0"/>
			<psa30 value="0.000159401002242279" flag="0"/>
		</comp>
		<comp name="--.HNN" depth="0.0">
			<acc value="0.00591255986304712" flag="0"/>
			<vel value="0.00416417107131421" flag="0"/>
			<psa03 value="0.0184484109187765" flag="0"/>
			<psa10 value="0.00500528595062096" flag="0"/>
			<psa30 value="0.000264616539963903" flag="0"/>
		</comp>
		<comp name="--.HNZ" depth="0.0">
			<acc value="0.00339811330664772" flag="0"/>
			<vel value="0.00169310048066781" flag="0"/>
			<psa03 value="0.00766770391127994" flag="0"/>
			<psa10 value="0.00144944699531388" flag="0"/>
			<psa30 value="0.000191743040577055" flag="0"/>
		</comp>
	</station>
	<station code="VISS" name="VISS" netid="SL" source="Seismic Network of the Republic of Slovenia (SNRS)" insttype="" lat="45.8033" lon="14.8393" esm:processing="manual (Paolucci et al 2011)" esm:quality="best">
		<comp name="--.HNE" depth="0.0">
			<acc value="0.00130486930945076" flag="0"/>
			<vel value="0.000829774738941126" flag="0"/>
			<psa03 value="0.00493888349189672" flag="0"/>
			<psa10 value="0.00191302176736596" flag="0"/>
			<psa30 value="0.000216501881249597" flag="0"/>
		</comp>
		<comp name="--.HNN" depth="0.0">
			<acc value="0.000992350046402856" flag="0"/>
