<?xml version="1.0" encoding="UTF-8" standalone="yes"?>
<!DOCTYPE earthquake SYSTEM "stationlist.dtd">
<stationlist created="" xmlns="ch.ethz.sed.shakemap.usgs.xml">
  <station code="BGDS" name="BGDS" netid="BW" insttype="" lat="47.6353" lon="13.0275">
    <comp name="--.HHE">
      <acc value="0.0187198940" flag="0"/>
      <vel value="0.0063372200" flag="0"/>
      <psa03 value="0.0505907180" flag="0"/>
      <psa10 value="0.0028857662" flag="0"/>
      <psa30 value="0.0003222959" flag="0"/>
    </comp>
    <comp name="--.HHZ">
      <acc value="0.0191923630" flag="0"/>
      <vel value="0.0062801783" flag="0"/>
      <psa03 value="0.0311163697" flag="0"/>
      <psa10 value="0.0039982285" flag="0"/>
      <psa30 value="0.0005074025" flag="0"/>
    </comp>
    <comp name="--.HHN">
      <acc value="0.0189142160" flag="0"/>
      <vel value="0.0078436660" flag="0"/>
      <psa03 value="0.0484698920" flag="0"/>
      <psa10 value="0.0031641080" flag="0"/>
      <psa30 value="0.0005521551" flag="0"/>
    </comp>
  </station>
  <station code="RJOB" name="RJOB" netid="BW" insttype="Trillium Compact 120s" lat="47.7373" lon="12.7956">
    <comp name="--.HHE">
      <acc value="0.0429406563" flag="0"/>
      <vel value="0.0149771211" flag="0"/>
      <psa03 value="0.1199065676" flag="0"/>
      <psa10 value="0.0054274588" flag="0"/>
      <psa30 value="0.0005159059" flag="0"/>
    </comp>
    <comp name="--.HHN">
      <acc value="0.0234325493" flag="0"/>
      <vel value="0.0075712971" flag="0"/>
      <psa03 value="0.0631005314" flag="0"/>
      <psa10 value="0.0037451688" flag="0"/>
      <psa30 value="0.0004882925" flag="0"/>
    </comp>
    <comp name="--.HHZ">
      <acc value="0.0304156877" flag="0"/>
      <vel value="0.0119127128" flag="0"/>
      <psa03 value="0.0900876836" flag="0"/>
      <psa10 value="0.0041744823" flag="0"/>
      <psa30 value="0.0003883381" flag="0"/>
    </comp>
  </station>
  <station code="RMOA" name="RMOA" netid="BW" insttype="" lat="47.7617" lon="12.8645">
    <comp name="--.HHE">
      <acc value="0.0339255719" flag="0"/>
      <vel value="0.0161085630" flag="0"/>
      <psa03 value="0.0751127248" flag="0"/>
      <psa10 value="0.0066379883" flag="0"/>
      <psa30 value="0.0005025505" flag="0"/>
    </comp>
    <comp name="--.HHN">
      <acc value="0.0277936813" flag="0"/>
      <vel value="0.0097517295" flag="0"/>
      <psa03 value="0.1034069657" flag="0"/>
      <psa10 value="0.0063301717" flag="0"/>
      <psa30 value="0.0006597787" flag="0"/>
    </comp>
    <comp name="--.HHZ">
      <acc value="0.0188021044" flag="0"/>
      <vel value="0.0069061312" flag="0"/>
      <psa03 value="0.0438246972" flag="0"/>
      <psa10 value="0.0047952694" flag="0"/>
      <psa30 value="0.0006683059" flag="0"/>
    </comp>
  </station>
  <station code="RNHA" name="RNHA" netid="BW" insttype="" lat="47.8057" lon="12.8188">
    <comp name="--.HHZ">
      <acc value="0.0195152809" flag="0"/>
      <vel value="0.0073682341" flag="0"/>
      <psa03 value="0.0568900468" flag="0"/>
      <psa10 value="0.0051199186" flag="0"/>
      <psa30 value="0.0006568530" flag="0"/>
    </comp>
    <comp name="--.HHN">
      <acc value="0.0494745885" flag="0"/>
      <vel value="0.0164270053" flag="0"/>
      <psa03 value="0.0906674392" flag="0"/>
      <psa10 value="0.0043815161" flag="0"/>
      <psa30 value="0.0006942519" flag="0"/>
    </comp>
    <comp name="--.HHE">
      <acc value="0.0309113770" flag="0"/>
      <vel value="0.0143687354" flag="0"/>
      <psa03 value="0.0830946641" flag="0"/>
      <psa10 value="0.0058521120" flag="0"/>
      <psa30 value="0.0007594617" flag="0"/>
    </comp>
  </station>
  <station code="RNON" name="RNON" netid="BW" insttype="Trillium Compact 120s" lat="47.7405" lon="12.8671">
    <comp name="--.HHZ">
      <acc value="0.0230153419" flag="0"/>
      <vel value="0.0107918161" flag="0"/>
      <psa03 value="0.1035298693" flag="0"/>
      <psa10 value="0.0027904531" flag="0"/>
      <psa30 value="0.0004080526" flag="0"/>
    </comp>
    <comp name="--.HHE">
      <acc value="0.0339808457" flag="0"/>
      <vel value="0.0148885516" flag="0"/>
      <psa03 value="0.1143926228" flag="0"/>
      <psa10 value="0.0062514495" flag="0"/>
      <psa30 value="0.0004932991" flag="0"/>
    </comp>
    <comp name="--.HHN">
      <acc value="0.0400062424" flag="0"/>
      <vel value="0.0160362195" flag="0"/>
      <psa03 value="0.1333862426" flag="0"/>
      <psa10 value="0.0040936186" flag="0"/>
      <psa30 value="0.0004949103" flag="0"/>
    </comp>
  </station>
  <station code="RTBE" name="RTBE" netid="BW" insttype="Trillium Compact 120s" lat="47.7451" lon="12.8241">
    <comp name="--.HHE">
      <acc value="0.0958251030" flag="0"/>
      <vel value="0.0310494113" flag="0"/>
      <psa03 value="0.1251180822" flag="0"/>
      <psa10 value="0.0071357995" flag="0"/>
      <psa30 value="0.0006592884" flag="0"/>
    </comp>
    <comp name="--.HHN">
      <acc value="0.1210229500" flag="0"/>
      <vel value="0.0341025970" flag="0"/>
      <psa03 value="0.1728521414" flag="0"/>
      <psa10 value="0.0060309259" flag="0"/>
      <psa30 value="0.0009211709" flag="0"/>
    </comp>
    <comp name="--.HHZ">
      <acc value="0.0313302083" flag="0"/>
      <vel value="0.0106426105" flag="0"/>
      <psa03 value="0.0698728506" flag="0"/>
      <psa10 value="0.0043895975" flag="0"/>
      <psa30 value="0.0004144869" flag="0"/>
    </comp>
  </station>
  <station code="RTSA" name="RTSA" netid="BW" insttype="Trillium Compact 120s" lat="47.7683" lon="12.8417">
    <comp name="--.HHN">
      <acc value="0.0696381314" flag="0"/>
      <vel value="0.0199983001" flag="0"/>
      <psa03 value="0.1033916400" flag="0"/>
      <psa10 value="0.0087610299" flag="0"/>
      <psa30 value="0.0008001768" flag="0"/>
    </comp>
    <comp name="--.HHZ">
      <acc value="0.0213504530" flag="0"/>
      <vel value="0.0086345074" flag="0"/>
      <psa03 value="0.0480537782" flag="0"/>
      <psa10 value="0.0057173177" flag="0"/>
      <psa30 value="0.0005256531" flag="0"/>
    </comp>
    <comp name="--.HHE">
      <acc value="0.0316917834" flag="0"/>
      <vel value="0.0121762681" flag="0"/>
      <psa03 value="0.0518579577" flag="0"/>
      <psa10 value="0.0074436997" flag="0"/>
      <psa30 value="0.0005352643" flag="0"/>
    </comp>
  </station>
  <station code="ARSA" name="ARSA" netid="OE" source="ODC" insttype="STS-2" lat="47.2505" lon="15.5232">
    <comp name="--.HHE">
      <acc value="0.0032100094" flag="0"/>
      <vel value="0.0020789125" flag="0"/>
      <psa03 value="0.0059682996" flag="0"/>
      <psa10 value="0.0024543341" flag="0"/>
      <psa30 value="0.0004832281" flag="0"/>
    </comp>
    <comp name="--.HHN">
      <acc value="0.0038815078" flag="0"/>
      <vel value="0.0027279270" flag="0"/>
      <psa03 value="0.0079435696" flag="0"/>
      <psa10 value="0.0038205590" flag="0"/>
      <psa30 value="0.0003937464" flag="0"/>
    </comp>
    <comp name="--.HHZ">
      <acc value="0.0041286680" flag="0"/>
      <vel value="0.0037511212" flag="0"/>
      <psa03 value="0.0102492078" flag="0"/>
      <psa10 value="0.0043060599" flag="0"/>
      <psa30 value="0.0008345722" flag="0"/>
    </comp>
  </station>
  <station code="BIOA" name="BIOA" netid="OE" source="ODC" insttype="STS-2.5/Quanterra" lat="47.6913" lon="13.6383">
    <comp name="--.HHE">
      <acc value="0.0397191541" flag="0"/>
      <vel value="0.0136208600" flag="0"/>
      <psa03 value="0.0960246588" flag="0"/>
      <psa10 value="0.0101741170" flag="0"/>
      <psa30 value="0.0007846484" flag="0"/>
    </comp>
    <comp name="--.HHN">
      <acc value="0.0383905615" flag="0"/>
      <vel value="0.0138346982" flag="0"/>
      <psa03 value="0.0949222168" flag="0"/>
      <psa10 value="0.0128058733" flag="0"/>
      <psa30 value="0.0015089689" flag="0"/>
    </comp>
    <comp name="--.HHZ">
      <acc value="0.0428943405" flag="0"/>
      <vel value="0.0175991837" flag="0"/>
      <psa03 value="0.1321467787" flag="0"/>
      <psa10 value="0.0076340713" flag="0"/>
      <psa30 value="0.0007344522" flag="0"/>
    </comp>
  </station>
  <station code="CONA" name="CONA" netid="OE" source="ODC" insttype="STS-2" lat="47.9282" lon="15.8618">
    <comp name="--.HHN">
      <acc value="0.0101644126" flag="0"/>
      <vel value="0.0075536367" flag="0"/>
      <psa03 value="0.0232880991" flag="0"/>
      <psa10 value="0.0057687178" flag="0"/>
      <psa30 value="0.0013445753" flag="0"/>
    </comp>
    <comp name="--.HHE">
      <acc value="0.0096387671" flag="0"/>
      <vel value="0.0045717304" flag="0"/>
      <psa03 value="0.0188560613" flag="0"/>
      <psa10 value="0.0036422957" flag="0"/>
      <psa30 value="0.0004986949" flag="0"/>
    </comp>
    <comp name="--.HHZ">
      <acc value="0.0085690741" flag="0"/>
      <vel value="0.0058227836" flag="0"/>
      <psa03 value="0.0229144949" flag="0"/>
      <psa10 value="0.0042190189" flag="0"/>
      <psa30 value="0.0007799201" flag="0"/>
    </comp>
  </station>
  <station code="CSNA" name="CSNA" netid="OE" source="ODC" insttype="STS-2" lat="47.9282" lon="15.8588">
    <comp name="--.HHE">
      <acc value="0.0255559253" flag="0"/>
      <vel value="0.0065495415" flag="0"/>
      <psa03 value="0.0281699921" flag="0"/>
      <psa10 value="0.0037699981" flag="0"/>
      <psa30 value="0.0004990270" flag="0"/>
    </comp>
    <comp name="--.HHZ">
      <acc value="0.0191927874" flag="0"/>
      <vel value="0.0074434460" flag="0"/>
      <psa03 value="0.0190145835" flag="0"/>
      <psa10 value="0.0048044182" flag="0"/>
      <psa30 value="0.0007560949" flag="0"/>
    </comp>
    <comp name="--.HHN">
      <acc value="0.0290887453" flag="0"/>
      <vel value="0.0098891401" flag="0"/>
      <psa03 value="0.0333083937" flag="0"/>
      <psa10 value="0.0047335408" flag="0"/>
      <psa30 value="0.0013381733" flag="0"/>
    </comp>
  </station>
  <station code="KBA" name="KBA" netid="OE" source="ODC" insttype="STS-2" lat="47.0784" lon="13.3447">
    <comp name="--.HHE">
      <acc value="0.0128332486" flag="0"/>
      <vel value="0.0047436571" flag="0"/>
      <psa03 value="0.0352211374" flag="0"/>
      <psa10 value="0.0046014516" flag="0"/>
      <psa30 value="0.0003433724" flag="0"/>
    </comp>
    <comp name="--.HHN">
      <acc value="0.0149302326" flag="0"/>
      <vel value="0.0077477287" flag="0"/>
      <psa03 value="0.0485992312" flag="0"/>
      <psa10 value="0.0066569399" flag="0"/>
      <psa30 value="0.0004401537" flag="0"/>
    </comp>
    <comp name="--.HHZ">
      <acc value="0.0130162793" flag="0"/>
      <vel value="0.0059002750" flag="0"/>
      <psa03 value="0.0360263209" flag="0"/>
      <psa10 value="0.0030721623" flag="0"/>
      <psa30 value="0.0006055977" flag="0"/>
    </comp>
  </station>
  <station code="MOA" name="MOA" netid="OE" source="ODC" insttype="STS-2" lat="47.8495" lon="14.2659">
    <comp name="--.HHN">
      <acc value="0.1388590181" flag="0"/>
      <vel value="0.0427991599" flag="0"/>
      <psa03 value="0.3122705826" flag="0"/>
      <psa10 value="0.0275610852" flag="0"/>
      <psa30 value="0.0022115834" flag="0"/>
    </comp>
    <comp name="--.HHE">
      <acc value="0.1088080327" flag="0"/>
      <vel value="0.0563850114" flag="0"/>
      <psa03 value="0.2707303849" flag="0"/>
      <psa10 value="0.0244535573" flag="0"/>
      <psa30 value="0.0027043797" flag="0"/>
    </comp>
    <comp name="--.HHZ">
      <acc value="0.0943012783" flag="0"/>
      <vel value="0.0552443210" flag="0"/>
      <psa03 value="0.2607936315" flag="0"/>
      <psa10 value="0.0521389579" flag="0"/>
      <psa30 value="0.0045128679" flag="0"/>
    </comp>
  </station>
  <station code="SOKA" name="SOKA" netid="OE" source="ODC" insttype="STS-2" lat="46.678" lon="15.0327">
    <comp name="--.HHE">
      <acc value="0.0029833205" flag="0"/>
      <vel value="0.0029133567" flag="0"/>
      <psa03 value="0.0116426763" flag="0"/>
      <psa10 value="0.0024392130" flag="0"/>
      <psa30 value="0.0002554502" flag="0"/>
    </comp>
    <comp name="--.HHN">
      <acc value="0.0022191162" flag="0"/>
      <vel value="0.0020214748" flag="0"/>
      <psa03 value="0.0063480013" flag="0"/>
      <psa10 value="0.0032485359" flag="0"/>
      <psa30 value="0.0002745630" flag="0"/>
    </comp>
    <comp name="--.HHZ">
      <acc value="0.0028358796" flag="0"/>
      <vel value="0.0018632171" flag="0"/>
      <psa03 value="0.0076812228" flag="0"/>
      <psa10 value="0.0058303874" flag="0"/>
      <psa30 value="0.0004182038" flag="0"/>
    </comp>
  </station>
</stationlist>
