<?xml version="1.0" encoding="UTF-8" standalone="yes"?>
<!DOCTYPE earthquake SYSTEM "stationlist.dtd">
<stationlist created="" xmlns="ch.ethz.sed.shakemap.usgs.xml">
  <station code="LTHK" name="LTHK" netid="HP" source="NOA" insttype="40," lat="37.7095" lon="20.8367">
    <comp name="--.HHE">
      <acc value="0.1641175056" flag="0"/>
      <vel value="0.0323024270" flag="0"/>
      <psa03 value="0.1053147237" flag="0"/>
      <psa10 value="0.0238834234" flag="0"/>
      <psa30 value="0.0011449824" flag="0"/>
    </comp>
    <comp name="--.HHN">
      <acc value="0.1289977392" flag="0"/>
      <vel value="0.0383491333" flag="0"/>
      <psa03 value="0.1461150029" flag="0"/>
      <psa10 value="0.0281275567" flag="0"/>
      <psa30 value="0.0014261730" flag="0"/>
    </comp>
    <comp name="--.HHZ">
      <acc value="0.0726500737" flag="0"/>
      <vel value="0.0168534090" flag="0"/>
      <psa03 value="0.0924370681" flag="0"/>
      <psa10 value="0.0138723166" flag="0"/>
      <psa30 value="0.0009086365" flag="0"/>
    </comp>
  </station>
</stationlist>
