<?xml version="1.0" encoding="UTF-8" standalone="yes"?>
<!DOCTYPE earthquake SYSTEM "stationlist.dtd">
<stationlist created="" xmlns="ch.ethz.sed.shakemap.usgs.xml">
  <station code="ACOR" name="ACOR" netid="HA" insttype="30" lat="37.8902" lon="22.8692">
    <comp name="--.HHE">
      <acc value="0.0025094662" flag="0"/>
      <vel value="0.0028007225" flag="0"/>
      <psa03 value="0.0070511484" flag="0"/>
      <psa10 value="0.0024546820" flag="0"/>
      <psa30 value="0.0020832414" flag="0"/>
    </comp>
    <comp name="--.HHZ">
      <acc value="0.0019545985" flag="0"/>
      <vel value="0.0017785666" flag="0"/>
      <psa03 value="0.0045437062" flag="0"/>
      <psa10 value="0.0028165756" flag="0"/>
      <psa30 value="0.0015467421" flag="0"/>
    </comp>
    <comp name="--.HHN">
      <acc value="0.0105963865" flag="0"/>
      <vel value="0.0116782487" flag="0"/>
      <psa03 value="0.0236290020" flag="0"/>
      <psa10 value="0.0109502930" flag="0"/>
      <psa30 value="0.0032900301" flag="0"/>
    </comp>
  </station>
  <station code="KALE" name="KALE" netid="HA" insttype="40," lat="38.3911" lon="22.1398">
    <comp name="--.HHE">
      <acc value="0.2333670559" flag="0"/>
      <vel value="0.0694538279" flag="0"/>
      <psa03 value="0.2406673258" flag="0"/>
      <psa10 value="0.0288117839" flag="0"/>
      <psa30 value="0.0057631372" flag="0"/>
    </comp>
    <comp name="--.HHZ">
      <acc value="0.1692821328" flag="0"/>
      <vel value="0.0447682613" flag="0"/>
      <psa03 value="0.1703502875" flag="0"/>
      <psa10 value="0.0210556616" flag="0"/>
      <psa30 value="0.0116244378" flag="0"/>
    </comp>
    <comp name="--.HHN">
      <acc value="0.1913951179" flag="0"/>
      <vel value="0.0719810973" flag="0"/>
      <psa03 value="0.2712372848" flag="0"/>
      <psa10 value="0.0220411405" flag="0"/>
      <psa30 value="0.0064411198" flag="0"/>
    </comp>
  </station>
  <station code="LAKA" name="LAKA" netid="HA" insttype="120s" lat="38.2401" lon="21.9785">
    <comp name="--.HHN">
      <acc value="0.2789308507" flag="0"/>
      <vel value="0.0708429845" flag="0"/>
      <psa03 value="0.1581907367" flag="0"/>
      <psa10 value="0.0519970442" flag="0"/>
      <psa30 value="0.0272102051" flag="0"/>
    </comp>
    <comp name="--.HHZ">
      <acc value="0.2419658811" flag="0"/>
      <vel value="0.0488312346" flag="0"/>
      <psa03 value="0.1588798643" flag="0"/>
      <psa10 value="0.0484932516" flag="0"/>
      <psa30 value="0.0124263372" flag="0"/>
    </comp>
    <comp name="--.HHE">
      <acc value="0.2423136237" flag="0"/>
      <vel value="0.0472431055" flag="0"/>
      <psa03 value="0.1695826605" flag="0"/>
      <psa10 value="0.0416764009" flag="0"/>
      <psa30 value="0.0110688472" flag="0"/>
    </comp>
  </station>
  <station code="THAL" name="THAL" netid="HA" insttype="30" lat="38.0357" lon="22.6634">
    <comp name="--.HHN">
      <acc value="0.0313431221" flag="0"/>
      <vel value="0.0098865580" flag="0"/>
      <psa03 value="0.0540067087" flag="0"/>
      <psa10 value="0.0070665204" flag="0"/>
      <psa30 value="0.0030128058" flag="0"/>
    </comp>
    <comp name="--.HHZ">
      <acc value="0.0230441564" flag="0"/>
      <vel value="0.0069715722" flag="0"/>
      <psa03 value="0.0328545024" flag="0"/>
      <psa10 value="0.0071232083" flag="0"/>
      <psa30 value="0.0009831601" flag="0"/>
    </comp>
    <comp name="--.HHE">
      <acc value="0.0360045208" flag="0"/>
      <vel value="0.0118712945" flag="0"/>
      <psa03 value="0.0647710606" flag="0"/>
      <psa10 value="0.0077406620" flag="0"/>
      <psa30 value="0.0047823222" flag="0"/>
    </comp>
  </station>
  <station code="KLV1" name="KLV1" netid="HI" insttype="CMG-5TD,ACCELEROMETER,GURALP" lat="38.0326" lon="22.108">
    <comp name="--.HNN">
      <acc value="0.1268727562" flag="0"/>
      <vel value="0.0398244879" flag="0"/>
      <psa03 value="0.2542732826" flag="0"/>
      <psa10 value="0.0251691265" flag="0"/>
      <psa30 value="0.0054571745" flag="0"/>
    </comp>
    <comp name="--.HNE">
      <acc value="0.1134699583" flag="0"/>
      <vel value="0.0485301779" flag="0"/>
      <psa03 value="0.2857446763" flag="0"/>
      <psa10 value="0.0245027873" flag="0"/>
      <psa30 value="0.0052916263" flag="0"/>
    </comp>
    <comp name="--.HNZ">
      <acc value="0.0887088119" flag="0"/>
      <vel value="0.0280016279" flag="0"/>
      <psa03 value="0.1228152238" flag="0"/>
      <psa10 value="0.0183557712" flag="0"/>
      <psa30 value="0.0063506722" flag="0"/>
    </comp>
  </station>
  <station code="MSL1" name="MSL1" netid="HI" insttype="CMG-5TD,ACCELEROMETER,GURALP" lat="38.3727" lon="21.4243">
    <comp name="--.HNN">
      <acc value="0.0773597308" flag="0"/>
      <vel value="0.0655191471" flag="0"/>
      <psa03 value="0.2026377779" flag="0"/>
      <psa10 value="0.1255120114" flag="0"/>
      <psa30 value="0.0087665625" flag="0"/>
    </comp>
    <comp name="--.HNZ">
      <acc value="0.0470323592" flag="0"/>
      <vel value="0.0338947336" flag="0"/>
      <psa03 value="0.0838843803" flag="0"/>
      <psa10 value="0.0564773104" flag="0"/>
      <psa30 value="0.0041440357" flag="0"/>
    </comp>
    <comp name="--.HNE">
      <acc value="0.0567449385" flag="0"/>
      <vel value="0.0497215426" flag="0"/>
      <psa03 value="0.1136580416" flag="0"/>
      <psa10 value="0.1244438185" flag="0"/>
      <psa30 value="0.0097635590" flag="0"/>
    </comp>
  </station>
  <station code="EVR" name="EVR" netid="HL" insttype="DR24" lat="38.9166" lon="21.8105">
    <comp name="--.HHE">
      <acc value="0.0313989816" flag="0"/>
      <vel value="0.0138663899" flag="0"/>
      <psa03 value="0.1109466211" flag="0"/>
      <psa10 value="0.0130461365" flag="0"/>
      <psa30 value="0.0053050351" flag="0"/>
    </comp>
    <comp name="--.HHZ">
      <acc value="0.0200270126" flag="0"/>
      <vel value="0.0193941409" flag="0"/>
      <psa03 value="0.0708994493" flag="0"/>
      <psa10 value="0.0142572688" flag="0"/>
      <psa30 value="0.0056654614" flag="0"/>
    </comp>
    <comp name="--.HHN">
      <acc value="0.0309960478" flag="0"/>
      <vel value="0.0114538386" flag="0"/>
      <psa03 value="0.0910308612" flag="0"/>
      <psa10 value="0.0105101009" flag="0"/>
      <psa30 value="0.0082120445" flag="0"/>
    </comp>
  </station>
  <station code="KLV" name="KLV" netid="HL" insttype="120" lat="38.0435" lon="22.1504">
    <comp name="--.HHE">
      <acc value="0.0504508948" flag="0"/>
      <vel value="0.0120976279" flag="0"/>
      <psa03 value="0.0456840354" flag="0"/>
      <psa10 value="0.0049195326" flag="0"/>
      <psa30 value="0.0025968138" flag="0"/>
    </comp>
    <comp name="--.HHN">
      <acc value="0.0394427231" flag="0"/>
      <vel value="0.0106484015" flag="0"/>
      <psa03 value="0.0394637647" flag="0"/>
      <psa10 value="0.0073119634" flag="0"/>
      <psa30 value="0.0054574892" flag="0"/>
    </comp>
    <comp name="--.HHZ">
      <acc value="0.0414359270" flag="0"/>
      <vel value="0.0142937954" flag="0"/>
      <psa03 value="0.0495949511" flag="0"/>
      <psa10 value="0.0076829611" flag="0"/>
      <psa30 value="0.0078514863" flag="0"/>
    </comp>
  </station>
  <station code="LKR" name="LKR" netid="HL" insttype="30" lat="38.6496" lon="22.9989">
    <comp name="--.HHZ">
      <acc value="0.0093824351" flag="0"/>
      <vel value="0.0035324808" flag="0"/>
      <psa03 value="0.0112814042" flag="0"/>
      <psa10 value="0.0019893208" flag="0"/>
      <psa30 value="0.0024300700" flag="0"/>
    </comp>
    <comp name="--.HHN">
      <acc value="0.0186088278" flag="0"/>
      <vel value="0.0055171898" flag="0"/>
      <psa03 value="0.0286759964" flag="0"/>
      <psa10 value="0.0029720929" flag="0"/>
      <psa30 value="0.0012079157" flag="0"/>
    </comp>
    <comp name="--.HHE">
      <acc value="0.0264391160" flag="0"/>
      <vel value="0.0078072126" flag="0"/>
      <psa03 value="0.0336771101" flag="0"/>
      <psa10 value="0.0015981852" flag="0"/>
      <psa30 value="0.0018352433" flag="0"/>
    </comp>
  </station>
  <station code="PATC" name="PATC" netid="HL" insttype="CMG-5" lat="38.2693" lon="21.76">
    <comp name="00.HNZ">
      <acc value="0.2336903867" flag="0"/>
      <vel value="0.1705085513" flag="0"/>
      <psa03 value="0.3849827011" flag="0"/>
      <psa10 value="0.1838822328" flag="0"/>
      <psa30 value="0.0258728270" flag="0"/>
    </comp>
    <comp name="00.HNE">
      <acc value="0.2915897785" flag="0"/>
      <vel value="0.2349411665" flag="0"/>
      <psa03 value="0.4878343250" flag="0"/>
      <psa10 value="0.2904614581" flag="0"/>
      <psa30 value="0.0543717683" flag="0"/>
    </comp>
    <comp name="00.HNN">
      <acc value="0.3726872669" flag="0"/>
      <vel value="0.2149213502" flag="0"/>
      <psa03 value="0.5551960690" flag="0"/>
      <psa10 value="0.3175084901" flag="0"/>
      <psa30 value="0.0497929822" flag="0"/>
    </comp>
  </station>
  <station code="PATG" name="PATG" netid="HL" insttype="CMG-5" lat="38.2386" lon="21.7266">
    <comp name="00.HNE">
      <acc value="0.2172935889" flag="0"/>
      <vel value="0.1485067224" flag="0"/>
      <psa03 value="0.4616061677" flag="0"/>
      <psa10 value="0.2858591536" flag="0"/>
      <psa30 value="0.0394687246" flag="0"/>
    </comp>
    <comp name="00.HNN">
      <acc value="0.1838261620" flag="0"/>
      <vel value="0.1543294711" flag="0"/>
      <psa03 value="0.4725726042" flag="0"/>
      <psa10 value="0.2779557968" flag="0"/>
      <psa30 value="0.0840057482" flag="0"/>
    </comp>
    <comp name="00.HNZ">
      <acc value="0.1306081116" flag="0"/>
      <vel value="0.1146801925" flag="0"/>
      <psa03 value="0.2333362839" flag="0"/>
      <psa10 value="0.1448178072" flag="0"/>
      <psa30 value="0.0277944239" flag="0"/>
    </comp>
  </station>
  <station code="RIOA" name="RIOA" netid="HL" insttype="CMG-5" lat="38.2959" lon="21.7912">
    <comp name="00.HNE">
      <acc value="0.5048160636" flag="0"/>
      <vel value="0.1472778622" flag="0"/>
      <psa03 value="0.6575627675" flag="0"/>
      <psa10 value="0.2473717346" flag="0"/>
      <psa30 value="0.0342651635" flag="0"/>
    </comp>
    <comp name="00.HNN">
      <acc value="0.5003718664" flag="0"/>
      <vel value="0.2155850848" flag="0"/>
      <psa03 value="0.5363580039" flag="0"/>
      <psa10 value="0.2647574117" flag="0"/>
      <psa30 value="0.0295811152" flag="0"/>
    </comp>
    <comp name="00.HNZ">
      <acc value="0.5446351004" flag="0"/>
      <vel value="0.1228705020" flag="0"/>
      <psa03 value="0.2887077361" flag="0"/>
      <psa10 value="0.1021203654" flag="0"/>
      <psa30 value="0.0328065499" flag="0"/>
    </comp>
  </station>
  <station code="RLS" name="RLS" netid="HL" insttype="CMG3ESPC-120s" lat="38.0559" lon="21.4647">
    <comp name="--.HHE">
      <acc value="0.0371337146" flag="0"/>
      <vel value="0.0121741022" flag="0"/>
      <psa03 value="0.0505846722" flag="0"/>
      <psa10 value="0.0110425185" flag="0"/>
      <psa30 value="0.0015395185" flag="0"/>
    </comp>
    <comp name="--.HHZ">
      <acc value="0.0189638352" flag="0"/>
      <vel value="0.0089653959" flag="0"/>
      <psa03 value="0.0352708452" flag="0"/>
      <psa10 value="0.0100811375" flag="0"/>
      <psa30 value="0.0017050771" flag="0"/>
    </comp>
    <comp name="--.HHN">
      <acc value="0.0350348611" flag="0"/>
      <vel value="0.0116177366" flag="0"/>
      <psa03 value="0.0526595899" flag="0"/>
      <psa10 value="0.0177076210" flag="0"/>
      <psa30 value="0.0042958487" flag="0"/>
    </comp>
  </station>
  <station code="VLS" name="VLS" netid="HL" insttype="120P," lat="38.1768" lon="20.5886">
    <comp name="--.HHN">
      <acc value="0.0383089942" flag="0"/>
      <vel value="0.0113794624" flag="0"/>
      <psa03 value="0.0271753586" flag="0"/>
      <psa10 value="0.0091263945" flag="0"/>
      <psa30 value="0.0008322684" flag="0"/>
    </comp>
    <comp name="--.HHZ">
      <acc value="0.0152538027" flag="0"/>
      <vel value="0.0044875012" flag="0"/>
      <psa03 value="0.0191228233" flag="0"/>
      <psa10 value="0.0060627461" flag="0"/>
      <psa30 value="0.0006904450" flag="0"/>
    </comp>
    <comp name="--.HHE">
      <acc value="0.0294867161" flag="0"/>
      <vel value="0.0047420869" flag="0"/>
      <psa03 value="0.0193740253" flag="0"/>
      <psa10 value="0.0102519612" flag="0"/>
      <psa30 value="0.0003464471" flag="0"/>
    </comp>
  </station>
  <station code="AMPL" name="AMPL" netid="HP" insttype="Compact," lat="38.9224" lon="21.2135">
    <comp name="--.HHZ">
      <acc value="0.0053412146" flag="0"/>
      <vel value="0.0048591638" flag="0"/>
      <psa03 value="0.0140476800" flag="0"/>
      <psa10 value="0.0073539045" flag="0"/>
      <psa30 value="0.0019196151" flag="0"/>
    </comp>
    <comp name="--.HHE">
      <acc value="0.0123694946" flag="0"/>
      <vel value="0.0082723416" flag="0"/>
      <psa03 value="0.0295436654" flag="0"/>
      <psa10 value="0.0080560090" flag="0"/>
      <psa30 value="0.0032887854" flag="0"/>
    </comp>
    <comp name="--.HHN">
      <acc value="0.0134778974" flag="0"/>
      <vel value="0.0066937325" flag="0"/>
      <psa03 value="0.0262423571" flag="0"/>
      <psa10 value="0.0109254565" flag="0"/>
      <psa30 value="0.0015069075" flag="0"/>
    </comp>
  </station>
  <station code="AMT" name="AMT" netid="HP" insttype="CMG-3T," lat="37.5324" lon="21.7089">
    <comp name="00.HHE">
      <acc value="0.0151132101" flag="0"/>
      <vel value="0.0099291163" flag="0"/>
      <psa03 value="0.0517522562" flag="0"/>
      <psa10 value="0.0138996623" flag="0"/>
      <psa30 value="0.0022755447" flag="0"/>
    </comp>
    <comp name="00.HHN">
      <acc value="0.0291294411" flag="0"/>
      <vel value="0.0110102840" flag="0"/>
      <psa03 value="0.0497208980" flag="0"/>
      <psa10 value="0.0162498912" flag="0"/>
      <psa30 value="0.0027738222" flag="0"/>
    </comp>
    <comp name="00.HHZ">
      <acc value="0.0174583101" flag="0"/>
      <vel value="0.0065142856" flag="0"/>
      <psa03 value="0.0437537888" flag="0"/>
      <psa10 value="0.0084653950" flag="0"/>
      <psa30 value="0.0014923828" flag="0"/>
    </comp>
  </station>
  <station code="ANX" name="ANX" netid="HP" insttype="120" lat="38.5933" lon="21.9209">
    <comp name="--.HHE">
      <acc value="0.1872888162" flag="0"/>
      <vel value="0.0626853909" flag="0"/>
      <psa03 value="0.3128435139" flag="0"/>
      <psa10 value="0.0287736622" flag="0"/>
      <psa30 value="0.0086799289" flag="0"/>
    </comp>
    <comp name="--.HHN">
      <acc value="0.1672818095" flag="0"/>
      <vel value="0.0655692356" flag="0"/>
      <psa03 value="0.4021713945" flag="0"/>
      <psa10 value="0.0482717345" flag="0"/>
      <psa30 value="0.0172731454" flag="0"/>
    </comp>
    <comp name="--.HHZ">
      <acc value="0.0835959192" flag="0"/>
      <vel value="0.0368423279" flag="0"/>
      <psa03 value="0.2594567357" flag="0"/>
      <psa10 value="0.0234440344" flag="0"/>
      <psa30 value="0.0106663361" flag="0"/>
    </comp>
  </station>
  <station code="AXS" name="AXS" netid="HP" insttype="40," lat="38.1962" lon="21.3763">
    <comp name="--.HHE">
      <acc value="0.0223045192" flag="0"/>
      <vel value="0.0083426323" flag="0"/>
      <psa03 value="0.0572669311" flag="0"/>
      <psa10 value="0.0074769288" flag="0"/>
      <psa30 value="0.0017359827" flag="0"/>
    </comp>
    <comp name="--.HHN">
      <acc value="0.0283025672" flag="0"/>
      <vel value="0.0148319804" flag="0"/>
      <psa03 value="0.0535745167" flag="0"/>
      <psa10 value="0.0165957121" flag="0"/>
      <psa30 value="0.0017116725" flag="0"/>
    </comp>
    <comp name="--.HHZ">
      <acc value="0.0236149433" flag="0"/>
      <vel value="0.0060309821" flag="0"/>
      <psa03 value="0.0320325270" flag="0"/>
      <psa10 value="0.0036456120" flag="0"/>
      <psa30 value="0.0011996957" flag="0"/>
    </comp>
  </station>
  <station code="DRO" name="DRO" netid="HP" insttype="120P," lat="37.952" lon="21.71">
    <comp name="--.HHN">
      <acc value="0.1806490702" flag="0"/>
      <vel value="0.0386660021" flag="0"/>
      <psa03 value="0.1925276752" flag="0"/>
      <psa10 value="0.0415358317" flag="0"/>
      <psa30 value="0.0068857380" flag="0"/>
    </comp>
    <comp name="--.HHZ">
      <acc value="0.1094948826" flag="0"/>
      <vel value="0.0263663725" flag="0"/>
      <psa03 value="0.1108598051" flag="0"/>
      <psa10 value="0.0268968792" flag="0"/>
      <psa30 value="0.0063673990" flag="0"/>
    </comp>
    <comp name="--.HHE">
      <acc value="0.1561169289" flag="0"/>
      <vel value="0.0469001639" flag="0"/>
      <psa03 value="0.2300373155" flag="0"/>
      <psa10 value="0.0218956931" flag="0"/>
      <psa30 value="0.0129437447" flag="0"/>
    </comp>
  </station>
  <station code="EFP" name="EFP" netid="HP" insttype="40," lat="38.4269" lon="21.9058">
    <comp name="--.HHN">
      <acc value="0.9758033069" flag="0"/>
      <vel value="0.4537961849" flag="0"/>
      <psa03 value="2.7695153834" flag="0"/>
      <psa10 value="0.1756937982" flag="0"/>
      <psa30 value="0.0417585214" flag="0"/>
    </comp>
    <comp name="--.HHE">
      <acc value="0.6135735429" flag="0"/>
      <vel value="0.2138010944" flag="0"/>
      <psa03 value="1.2828372667" flag="0"/>
      <psa10 value="0.1235026411" flag="0"/>
      <psa30 value="0.0270236769" flag="0"/>
    </comp>
    <comp name="--.HHZ">
      <acc value="0.7409395496" flag="0"/>
      <vel value="0.2212211249" flag="0"/>
      <psa03 value="2.0889392423" flag="0"/>
      <psa10 value="0.0832087423" flag="0"/>
      <psa30 value="0.0170056343" flag="0"/>
    </comp>
  </station>
  <station code="FSK" name="FSK" netid="HP" insttype="DC_100" lat="38.4593" lon="20.5623">
    <comp name="--.HNN">
      <acc value="0.0075897989" flag="0"/>
      <vel value="0.0047764997" flag="0"/>
      <psa03 value="0.0139596851" flag="0"/>
      <psa10 value="0.0075957740" flag="0"/>
      <psa30 value="0.0007596952" flag="0"/>
    </comp>
    <comp name="--.HNE">
      <acc value="0.0171523010" flag="0"/>
      <vel value="0.0077851663" flag="0"/>
      <psa03 value="0.0181274177" flag="0"/>
      <psa10 value="0.0147940627" flag="0"/>
      <psa30 value="0.0012566245" flag="0"/>
    </comp>
    <comp name="--.HNZ">
      <acc value="0.0045107731" flag="0"/>
      <vel value="0.0032609107" flag="0"/>
      <psa03 value="0.0076789217" flag="0"/>
      <psa10 value="0.0050536602" flag="0"/>
      <psa30 value="0.0007605114" flag="0"/>
    </comp>
  </station>
  <station code="GUR" name="GUR" netid="HP" insttype="40," lat="37.9363" lon="22.3423">
    <comp name="--.HHN">
      <acc value="0.0606926737" flag="0"/>
      <vel value="0.0215070409" flag="0"/>
      <psa03 value="0.1597610543" flag="0"/>
      <psa10 value="0.0091520442" flag="0"/>
      <psa30 value="0.0014814330" flag="0"/>
    </comp>
    <comp name="--.HHE">
      <acc value="0.0648866421" flag="0"/>
      <vel value="0.0204287734" flag="0"/>
      <psa03 value="0.1251784932" flag="0"/>
      <psa10 value="0.0086622484" flag="0"/>
      <psa30 value="0.0027791257" flag="0"/>
    </comp>
    <comp name="--.HHZ">
      <acc value="0.0319837750" flag="0"/>
      <vel value="0.0097665910" flag="0"/>
      <psa03 value="0.0510567829" flag="0"/>
      <psa10 value="0.0057728877" flag="0"/>
      <psa30 value="0.0027008773" flag="0"/>
    </comp>
  </station>
  <station code="LTHK" name="LTHK" netid="HP" insttype="40," lat="37.7095" lon="20.8367">
    <comp name="--.HHZ">
      <acc value="0.0069290763" flag="0"/>
      <vel value="0.0034361908" flag="0"/>
      <psa03 value="0.0227338135" flag="0"/>
      <psa10 value="0.0044149178" flag="0"/>
      <psa30 value="0.0006529939" flag="0"/>
    </comp>
    <comp name="--.HHN">
      <acc value="0.0117533683" flag="0"/>
      <vel value="0.0125208949" flag="0"/>
