<stationlist created="1778136187">
	<station code="MALA" name="MALA" netid="CL" source="Corinth Riff Laboratory (CRLNET)" insttype="" lat="38.39341" lon="21.87263">
		<comp name="01.HNE" depth="0.0">
			<acc value="2.09217004816319" flag="0"/>
			<vel value="0.971032074734041" flag="0"/>
			<psa03 value="2.16462795619199" flag="0"/>
			<psa10 value="1.6811521724942" flag="0"/>
			<psa30 value="0.168407428600844" flag="0"/>
		</comp>
		<comp name="01.HNN" depth="0.0">
			<acc value="1.76370622205448" flag="0"/>
			<vel value="0.976541252530769" flag="0"/>
			<psa03 value="3.21862011749862" flag="0"/>
			<psa10 value="1.33959508881304" flag="0"/>
			<psa30 value="0.103603263957005" flag="0"/>
		</comp>
		<comp name="01.HNZ" depth="0.0">
			<acc value="0.8428973159879" flag="0"/>
			<vel value="0.287927017304067" flag="0"/>
			<psa03 value="0.735561876804388" flag="0"/>
			<psa10 value="0.294387164931779" flag="0"/>
			<psa30 value="0.04506121855146" flag="0"/>
		</comp>
	</station>
	<station code="AIGS" name="AIGS" netid="HA" source="Hellenic Seismological Network, University of Athens, Seismological Laboratory (HA)" insttype="" lat="38.25001" lon="22.0878">
		<comp name="--.HNE" depth="0.0">
			<acc value="0.550752945918419" flag="0"/>
			<vel value="0.18806085836178" flag="0"/>
			<psa03 value="1.27318423152954" flag="0"/>
			<psa10 value="0.0493967383727706" flag="0"/>
			<psa30 value="0.0141470383106313" flag="0"/>
		</comp>
		<comp name="--.HNN" depth="0.0">
			<acc value="0.544173509845952" flag="0"/>
			<vel value="0.154802273460502" flag="0"/>
			<psa03 value="0.66093187616511" flag="0"/>
			<psa10 value="0.0338573225921786" flag="0"/>
			<psa30 value="0.0173255246687934" flag="0"/>
		</comp>
		<comp name="--.HNZ" depth="0.0">
			<acc value="0.362611744887551" flag="0"/>
			<vel value="0.074339867837944" flag="0"/>
			<psa03 value="0.217805061817747" flag="0"/>
			<psa10 value="0.0250950088480563" flag="0"/>
			<psa30 value="0.0191921695289077" flag="0"/>
		</comp>
	</station>
	<station code="XLKS" name="XLKS" netid="HA" source="Hellenic Seismological Network, University of Athens, Seismological Laboratory (HA)" insttype="" lat="38.0772" lon="22.6361">
		<comp name="--.HNE" depth="0.0">
			<acc value="0.0278559150950312" flag="0"/>
			<vel value="0.0167202196155323" flag="0"/>
			<psa03 value="0.058612290669936" flag="0"/>
			<psa10 value="0.0169850364764283" flag="0"/>
			<psa30 value="0.00456325765299754" flag="0"/>
		</comp>
		<comp name="--.HNN" depth="0.0">
			<acc value="0.0289511492258443" flag="0"/>
			<vel value="0.0149104154444775" flag="0"/>
			<psa03 value="0.0479636454947873" flag="0"/>
			<psa10 value="0.0177944229941529" flag="0"/>
			<psa30 value="0.00336685104802495" flag="0"/>
		</comp>
		<comp name="--.HNZ" depth="0.0">
			<acc value="0.0206583745766622" flag="0"/>
			<vel value="0.00831230824034746" flag="0"/>
			<psa03 value="0.0382098444520041" flag="0"/>
			<psa10 value="0.00626569861482278" flag="0"/>
			<psa30 value="0.00273867046710441" flag="0"/>
		</comp>
	</station>
	<station code="ARS1" name="ARS1" netid="HI" source="ITSAK Strong Motion Network" insttype="" lat="37.6349" lon="22.7293">
		<comp name="--.HNE" depth="0.0">
			<acc value="0.0153568802644262" flag="0"/>
			<vel value="0.0139720167219931" flag="0"/>
			<psa03 value="0.0319906777320643" flag="0"/>
			<psa10 value="0.0117139571147297" flag="0"/>
			<psa30 value="0.00215523209280215" flag="0"/>
		</comp>
		<comp name="--.HNN" depth="0.0">
			<acc value="0.0138552650929952" flag="0"/>
			<vel value="0.0116040728313499" flag="0"/>
			<psa03 value="0.0493059116933355" flag="0"/>
			<psa10 value="0.010159612856811" flag="0"/>
			<psa30 value="0.00342009427390069" flag="0"/>
		</comp>
		<comp name="--.HNZ" depth="0.0">
			<acc value="0.00729387567454682" flag="0"/>
			<vel value="0.00627820469105294" flag="0"/>
			<psa03 value="0.0224605877223724" flag="0"/>
			<psa10 value="0.00420397773385281" flag="0"/>
			<psa30 value="0.00170199353975906" flag="0"/>
		</comp>
	</station>
	<station code="KLV1" name="KLV1" netid="HI" source="ITSAK Strong Motion Network" insttype="" lat="38.03256" lon="22.10797">
		<comp name="--.HNE" depth="0.0">
			<acc value="0.113771711401749" flag="0"/>
			<vel value="0.0487820129967829" flag="0"/>
			<psa03 value="0.290287436539347" flag="0"/>
			<psa10 value="0.0246681681969179" flag="0"/>
			<psa30 value="0.0057395302649919" flag="0"/>
		</comp>
		<comp name="--.HNN" depth="0.0">
			<acc value="0.126388406994051" flag="0"/>
			<vel value="0.0392673603318316" flag="0"/>
			<psa03 value="0.257357172468299" flag="0"/>
			<psa10 value="0.0253446703609862" flag="0"/>
			<psa30 value="0.00603796078313577" flag="0"/>
		</comp>
		<comp name="--.HNZ" depth="0.0">
			<acc value="0.0854185615493257" flag="0"/>
			<vel value="0.0273812539079516" flag="0"/>
			<psa03 value="0.125949311630435" flag="0"/>
			<psa10 value="0.0183823355891169" flag="0"/>
			<psa30 value="0.00730774460696232" flag="0"/>
		</comp>
	</station>
	<station code="LAM2" name="LAM2" netid="HI" source="ITSAK Strong Motion Network" insttype="" lat="38.90203" lon="22.431301">
		<comp name="--.HNE" depth="0.0">
			<acc value="0.0182138633236178" flag="0"/>
			<vel value="0.00835363478815408" flag="0"/>
			<psa03 value="0.0481426143212604" flag="0"/>
			<psa10 value="0.00514624860523362" flag="0"/>
			<psa30 value="0.00143532998831416" flag="0"/>
		</comp>
		<comp name="--.HNN" depth="0.0">
			<acc value="0.0207968621683621" flag="0"/>
			<vel value="0.00801894810296528" flag="0"/>
			<psa03 value="0.0582096108103716" flag="0"/>
			<psa10 value="0.00306036693268979" flag="0"/>
			<psa30 value="0.00243487088416635" flag="0"/>
		</comp>
		<comp name="--.HNZ" depth="0.0">
			<acc value="0.00832849060031262" flag="0"/>
			<vel value="0.00553504131401764" flag="0"/>
			<psa03 value="0.0168230696884702" flag="0"/>
			<psa10 value="0.00296775056498997" flag="0"/>
			<psa30 value="0.0015118391616314" flag="0"/>
		</comp>
	</station>
	<station code="PYL1" name="PYL1" netid="HI" source="ITSAK Strong Motion Network" insttype="" lat="36.914188" lon="21.695161">
		<comp name="--.HNE" depth="0.0">
			<acc value="0.00189575565604366" flag="0"/>
			<vel value="0.00259621795062864" flag="0"/>
			<psa03 value="0.00568226024052051" flag="0"/>
			<psa10 value="0.00366438672203646" flag="0"/>
			<psa30 value="0.00165232969041278" flag="0"/>
		</comp>
		<comp name="--.HNN" depth="0.0">
			<acc value="0.00228717280670737" flag="0"/>
			<vel value="0.00277732119937813" flag="0"/>
			<psa03 value="0.00496638493462817" flag="0"/>
			<psa10 value="0.00508181982770331" flag="0"/>
			<psa30 value="0.0012711260900251" flag="0"/>
		</comp>
		<comp name="--.HNZ" depth="0.0">
			<acc value="0.00176647573151147" flag="0"/>
			<vel value="0.00168566328016127" flag="0"/>
			<psa03 value="0.00308721225666075" flag="0"/>
			<psa10 value="0.00274627664222952" flag="0"/>
			<psa30 value="0.00120222309183296" flag="0"/>
		</comp>
	</station>
	<station code="VAS2" name="VAS2" netid="HI" source="ITSAK Strong Motion Network" insttype="" lat="38.630558" lon="20.608081">
		<comp name="--.HNE" depth="0.0">
			<acc value="0.0254705863814415" flag="0"/>
			<vel value="0.0262121117995308" flag="0"/>
			<psa03 value="0.0644287775303113" flag="0"/>
			<psa10 value="0.0441457930040502" flag="0"/>
			<psa30 value="0.00307065764021199" flag="0"/>
		</comp>
		<comp name="--.HNN" depth="0.0">
			<acc value="0.0313218517913845" flag="0"/>
			<vel value="0.0299031975076388" flag="0"/>
			<psa03 value="0.0741825785730946" flag="0"/>
			<psa10 value="0.0530289107060419" flag="0"/>
			<psa30 value="0.00411717785301337" flag="0"/>
		</comp>
		<comp name="--.HNZ" depth="0.0">
			<acc value="0.0136245583030221" flag="0"/>
			<vel value="0.0123643066123634" flag="0"/>
			<psa03 value="0.0397310794770253" flag="0"/>
			<psa10 value="0.0279258482607943" flag="0"/>
			<psa30 value="0.00279370338124489" flag="0"/>
		</comp>
	</station>
	<station code="DLFA" name="DLFA" netid="HL" source="National Observatory of Athens Seismic Network" insttype="" lat="38.47836" lon="22.49583">
		<comp name="00.HNE" depth="0.0">
			<acc value="0.0299073877891562" flag="0"/>
			<vel value="0.0100574082662556" flag="0"/>
			<psa03 value="0.0381651022453858" flag="0"/>
			<psa10 value="0.00703481714659087" flag="0"/>
			<psa30 value="0.00232659474415013" flag="0"/>
		</comp>
		<comp name="00.HNN" depth="0.0">
			<acc value="0.051414112810549" flag="0"/>
			<vel value="0.0115360946130959" flag="0"/>
			<psa03 value="0.0557040472397483" flag="0"/>
			<psa10 value="0.00746568459632482" flag="0"/>
			<psa30 value="0.00287021255456213" flag="0"/>
		</comp>
		<comp name="00.HNZ" depth="0.0">
			<acc value="0.0340259453878005" flag="0"/>
			<vel value="0.00890505044091475" flag="0"/>
			<psa03 value="0.0319906777320643" flag="0"/>
			<psa10 value="0.00390196783917948" flag="0"/>
			<psa30 value="0.00296059181193104" flag="0"/>
		</comp>
	</station>
	<station code="PATC" name="PATC" netid="HL" source="National Observatory of Athens Seismic Network" insttype="" lat="38.26933" lon="21.76001">
		<comp name="00.HNE" depth="0.0">
			<acc value="0.292112180779252" flag="0"/>
			<vel value="0.237687491851073" flag="0"/>
			<psa03 value="0.489792935850221" flag="0"/>
			<psa10 value="0.289772453741171" flag="0"/>
			<psa30 value="0.0614444723488726" flag="0"/>
		</comp>
		<comp name="00.HNN" depth="0.0">
			<acc value="0.370122118348624" flag="0"/>
			<vel value="0.216831178668635" flag="0"/>
			<psa03 value="0.557532636670284" flag="0"/>
			<psa10 value="0.317867427542982" flag="0"/>
			<psa30 value="0.0554194868056561" flag="0"/>
		</comp>
		<comp name="00.HNZ" depth="0.0">
			<acc value="0.233163696877515" flag="0"/>
			<vel value="0.169814085623028" flag="0"/>
			<psa03 value="0.384738234710519" flag="0"/>
			<psa10 value="0.183960267043421" flag="0"/>
			<psa30 value="0.0273804407621176" flag="0"/>
		</comp>
	</station>
	<station code="PATG" name="PATG" netid="HL" source="National Observatory of Athens Seismic Network" insttype="" lat="38.23865" lon="21.72657">
		<comp name="00.HNE" depth="0.0">
			<acc value="0.219246916055995" flag="0"/>
			<vel value="0.153671328993806" flag="0"/>
			<psa03 value="0.465095237796935" flag="0"/>
			<psa10 value="0.286619470440781" flag="0"/>
			<psa30 value="0.0452370554234698" flag="0"/>
		</comp>
		<comp name="00.HNN" depth="0.0">
			<acc value="0.182379194986738" flag="0"/>
			<vel value="0.165033424162037" flag="0"/>
			<psa03 value="0.473730483674261" flag="0"/>
			<psa10 value="0.279910823980438" flag="0"/>
			<psa30 value="0.0931461154261829" flag="0"/>
		</comp>
		<comp name="00.HNZ" depth="0.0">
			<acc value="0.130893214337057" flag="0"/>
			<vel value="0.113517552217403" flag="0"/>
			<psa03 value="0.233241123101051" flag="0"/>
			<psa10 value="0.145137901782813" flag="0"/>
			<psa30 value="0.0307468443880763" flag="0"/>
		</comp>
	</station>
	<station code="RIOA" name="RIOA" netid="HL" source="National Observatory of Athens Seismic Network" insttype="" lat="38.29585" lon="21.79118">
		<comp name="00.HNE" depth="0.0">
			<acc value="0.506054408365499" flag="0"/>
			<vel value="0.149996597439428" flag="0"/>
			<psa03 value="0.660573938512164" flag="0"/>
			<psa10 value="0.247112549418913" flag="0"/>
			<psa30 value="0.0374850207047881" flag="0"/>
		</comp>
		<comp name="00.HNN" depth="0.0">
			<acc value="0.494762482884146" flag="0"/>
			<vel value="0.215362679784504" flag="0"/>
			<psa03 value="0.53900936313032" flag="0"/>
			<psa10 value="0.265136499933018" flag="0"/>
			<psa30 value="0.0333208635348255" flag="0"/>
		</comp>
		<comp name="00.HNZ" depth="0.0">
			<acc value="0.541595523349005" flag="0"/>
			<vel value="0.123953957309879" flag="0"/>
			<psa03 value="0.289661045646691" flag="0"/>
			<psa10 value="0.101898138462783" flag="0"/>
			<psa30 value="0.0342899797301773" flag="0"/>
		</comp>
	</station>
	<station code="ANX" name="ANX" netid="HP" source="University of Patras, Seismological Laboratory (PSLNET)" insttype="" lat="38.5933" lon="21.9209">
		<comp name="--.HNE" depth="0.0">
			<acc value="0.231595689069227" flag="0"/>
			<vel value="0.075977160431283" flag="0"/>
			<psa03 value="0.374044847328752" flag="0"/>
			<psa10 value="0.0353230772809932" flag="0"/>
			<psa30 value="0.0103479775466739" flag="0"/>
		</comp>
		<comp name="--.HNN" depth="0.0">
			<acc value="0.209549657019763" flag="0"/>
			<vel value="0.081064694424493" flag="0"/>
			<psa03 value="0.514535376110125" flag="0"/>
			<psa10 value="0.0625160481973802" flag="0"/>
			<psa30 value="0.0252189447603889" flag="0"/>
		</comp>
		<comp name="--.HNZ" depth="0.0">
			<acc value="0.102284685648376" flag="0"/>
			<vel value="0.0461776640366306" flag="0"/>
			<psa03 value="0.31843028450224" flag="0"/>
			<psa10 value="0.0295325409004565" flag="0"/>
			<psa30 value="0.0148553074413986" flag="0"/>
		</comp>
	</station>
	<station code="GUR" name="GUR" netid="HP" source="University of Patras, Seismological Laboratory (PSLNET)" insttype="" lat="37.9363" lon="22.3423">
		<comp name="--.HNE" depth="0.0">
			<acc value="0.0635411920812675" flag="0"/>
			<vel value="0.0225364927912953" flag="0"/>
			<psa03 value="0.148946805832227" flag="0"/>
			<psa10 value="0.00884284971603523" flag="0"/>
			<psa30 value="0.00267737364403738" flag="0"/>
		</comp>
		<comp name="--.HNN" depth="0.0">
			<acc value="0.0567415836423762" flag="0"/>
			<vel value="0.0210712092099335" flag="0"/>
			<psa03 value="0.155121230345548" flag="0"/>
			<psa10 value="0.010091157280685" flag="0"/>
			<psa30 value="0.00151765564849178" flag="0"/>
		</comp>
		<comp name="--.HNZ" depth="0.0">
			<acc value="0.0293672850986442" flag="0"/>
			<vel value="0.00981079776915864" flag="0"/>
			<psa03 value="0.0513193109911577" flag="0"/>
			<psa10 value="0.00568583961704997" flag="0"/>
			<psa30 value="0.00260041704865395" flag="0"/>
		</comp>
	</station>
	<station code="LTK" name="LTK" netid="HP" source="University of Patras, Seismological Laboratory (PSLNET)" insttype="" lat="38.0228" lon="22.9673">
		<comp name="--.HNE" depth="0.0">
			<acc value="0.00475863481262123" flag="0"/>
			<vel value="0.00280001154143295" flag="0"/>
			<psa03 value="0.0153465768700672" flag="0"/>
			<psa10 value="0.00329794804983281" flag="0"/>
			<psa30 value="0.00104249341420573" flag="0"/>
		</comp>
		<comp name="--.HNN" depth="0.0">
			<acc value="0.00421470364726624" flag="0"/>
			<vel value="0.00299252472298658" flag="0"/>
			<psa03 value="0.0105591607619121" flag="0"/>
			<psa10 value="0.00319325128634605" flag="0"/>
			<psa30 value="0.00146575468881458" flag="0"/>
		</comp>
		<comp name="--.HNZ" depth="0.0">
			<acc value="0.00377175543659345" flag="0"/>
			<vel value="0.00225174933435005" flag="0"/>
			<psa03 value="0.00859050367070818" flag="0"/>
			<psa10 value="0.00185232735399645" flag="0"/>
			<psa30 value="0.00112705618471427" flag="0"/>
		</comp>
	</station>
	<station code="PDO" name="PDO" netid="HP" source="University of Patras, Seismological Laboratory (PSLNET)" insttype="" lat="38.5986" lon="21.1833">
		<comp name="--.HNE" depth="0.0">
			<acc value="0.0439011132418525" flag="0"/>
			<vel value="0.0167420074211136" flag="0"/>
			<psa03 value="0.0842048328555875" flag="0"/>
			<psa10 value="0.011053562145044" flag="0"/>
			<psa30 value="0.00327960374511932" flag="0"/>
		</comp>
		<comp name="--.HNN" depth="0.0">
			<acc value="0.0490063311407201" flag="0"/>
			<vel value="0.0180001901544221" flag="0"/>
			<psa03 value="0.105860060858831" flag="0"/>
			<psa10 value="0.0154991477946355" flag="0"/>
			<psa30 value="0.0019494179423581" flag="0"/>
		</comp>
		<comp name="--.HNZ" depth="0.0">
			<acc value="0.0234816157570129" flag="0"/>
			<vel value="0.00774031177369838" flag="0"/>
			<psa03 value="0.045771277370492" flag="0"/>
			<psa10 value="0.00595563512295815" flag="0"/>
			<psa30 value="0.00252256560913816" flag="0"/>
		</comp>
	</station>
	<station code="PVO" name="PVO" netid="HP" source="University of Patras, Seismological Laboratory (PSLNET)" insttype="" lat="38.616" lon="21.525">
		<comp name="--.HNE" depth="0.0">
			<acc value="0.0378452405254322" flag="0"/>
			<vel value="0.0256498326232065" flag="0"/>
			<psa03 value="0.0714085617627617" flag="0"/>
			<psa10 value="0.0276479991576948" flag="0"/>
			<psa30 value="0.0143707493437227" flag="0"/>
		</comp>
		<comp name="--.HNN" depth="0.0">
			<acc value="0.0405746078757538" flag="0"/>
			<vel value="0.0275901394691195" flag="0"/>
			<psa03 value="0.0780304083422659" flag="0"/>
			<psa10 value="0.0342559756531474" flag="0"/>
			<psa30 value="0.0165380618323118" flag="0"/>
		</comp>
		<comp name="--.HNZ" depth="0.0">
			<acc value="0.0418993550478186" flag="0"/>
			<vel value="0.0205841212907911" flag="0"/>
			<psa03 value="0.071945468242181" flag="0"/>
			<psa10 value="0.0142669474243683" flag="0"/>
			<psa30 value="0.0101690087202008" flag="0"/>
		</comp>
	</station>
	<station code="PYL" name="PYL" netid="HP" source="University of Patras, Seismological Laboratory (PSLNET)" insttype="" lat="36.8955" lon="21.742">
		<comp name="--.HNE" depth="0.0">
			<acc value="0.00250166056840175" flag="0"/>
			<vel value="0.00221533113451618" flag="0"/>
			<psa03 value="0.00697978423245039" flag="0"/>
			<psa10 value="0.00242010595598232" flag="0"/>
			<psa30 value="0.000999988317918374" flag="0"/>
		</comp>
		<comp name="--.HNN" depth="0.0">
			<acc value="0.00171811903751167" flag="0"/>
			<vel value="0.00242969925670929" flag="0"/>
			<psa03 value="0.00550329141404743" flag="0"/>
			<psa10 value="0.00237178437283459" flag="0"/>
			<psa30 value="0.000863524587732645" flag="0"/>
		</comp>
		<comp name="--.HNZ" depth="0.0">
			<acc value="0.00163939174638733" flag="0"/>
			<vel value="0.002118322603973" flag="0"/>
			<psa03 value="0.00402679859564446" flag="0"/>
			<psa10 value="0.00284291980852499" flag="0"/>
			<psa30 value="0.000903345151622907" flag="0"/>
		</comp>
	</station>
	<station code="SERG" name="SERG" netid="HP" source="University of Patras, Seismological Laboratory (PSLNET)" insttype="" lat="38.4133" lon="22.0566">
		<comp name="--.HNE" depth="0.0">
			<acc value="0.888113134899337" flag="0"/>
			<vel value="0.241318232254781" flag="0"/>
			<psa03 value="0.820795780412195" flag="0"/>
			<psa10 value="0.082609773189646" flag="0"/>
			<psa30 value="0.0200758281096185" flag="0"/>
		</comp>
		<comp name="--.HNN" depth="0.0">
			<acc value="0.788261357239387" flag="0"/>
			<vel value="0.265512565273864" flag="0"/>
			<psa03 value="0.767284101296742" flag="0"/>
			<psa10 value="0.0574140943766987" flag="0"/>
			<psa30 value="0.00949653335472818" flag="0"/>
		</comp>
		<comp name="--.HNZ" depth="0.0">
			<acc value="0.46684450960597" flag="0"/>
			<vel value="0.125840734795817" flag="0"/>
			<psa03 value="0.420218804558808" flag="0"/>
			<psa10 value="0.0324439162851074" flag="0"/>
			<psa30 value="0.00991353072041047" flag="0"/>
		</comp>
	</station>
	<station code="UPR" name="UPR" netid="HP" source="University of Patras, Seismological Laboratory (PSLNET)" insttype="" lat="38.2836" lon="21.7864">
		<comp name="--.HNE" depth="2.0">
			<acc value="0.373505497242602" flag="0"/>
			<vel value="0.187686760705677" flag="0"/>
			<psa03 value="0.500531065438606" flag="0"/>
			<psa10 value="0.271176697826485" flag="0"/>
			<psa30 value="0.0439449004963341" flag="0"/>
		</comp>
		<comp name="--.HNN" depth="2.0">
			<acc value="0.484430518362012" flag="0"/>
			<vel value="0.26385036705566" flag="0"/>
			<psa03 value="0.846969971283884" flag="0"/>
			<psa10 value="0.401999330601782" flag="0"/>
			<psa30 value="0.0331763462074485" flag="0"/>
		</comp>
		<comp name="--.HNZ" depth="2.0">
			<acc value="0.3070332226228" flag="0"/>
			<vel value="0.167169475518809" flag="0"/>
			<psa03 value="0.376505668692757" flag="0"/>
			<psa10 value="0.250950088480563" flag="0"/>
			<psa30 value="0.024443114897628" flag="0"/>
		</comp>
	</station>
</stationlist>
