<?xml version="1.0" encoding="UTF-8" standalone="yes"?>
<!DOCTYPE earthquake SYSTEM "stationlist.dtd">
<stationlist created="" xmlns="ch.ethz.sed.shakemap.usgs.xml">
  <station code="CAVT" name="CAVT" netid="IV" insttype="" commtype="DIG" lat="37.6788" lon="12.7556">
    <comp name="--.HHE">
      <acc value="0.0468060128" flag="0"/>
      <vel value="0.0835355199" flag="0"/>
      <psa03 value="0.1322829380" flag="0"/>
      <psa10 value="0.1656780973" flag="0"/>
      <psa30 value="0.0176431658" flag="0"/>
    </comp>
    <comp name="--.HHN">
      <acc value="0.0437666334" flag="0"/>
      <vel value="0.0525808545" flag="0"/>
      <psa03 value="0.1200977220" flag="0"/>
      <psa10 value="0.1261888399" flag="0"/>
      <psa30 value="0.0257617027" flag="0"/>
    </comp>
    <comp name="--.HHZ">
      <acc value="0.0440812299" flag="0"/>
      <vel value="0.0450759205" flag="0"/>
      <psa03 value="0.1134887048" flag="0"/>
      <psa10 value="0.0626995506" flag="0"/>
      <psa30 value="0.0162299933" flag="0"/>
    </comp>
  </station>
  <station code="CRJA" name="CRJA" netid="IV" insttype="" commtype="DIG" lat="37.8016" lon="13.0043">
    <comp name="--.HHE">
      <acc value="0.0403215378" flag="0"/>
      <vel value="0.0615157876" flag="0"/>
      <psa03 value="0.0651725127" flag="0"/>
      <psa10 value="0.1307854965" flag="0"/>
      <psa30 value="0.0112205972" flag="0"/>
    </comp>
    <comp name="--.HHN">
      <acc value="0.0368312313" flag="0"/>
      <vel value="0.0482848070" flag="0"/>
      <psa03 value="0.0964606454" flag="0"/>
      <psa10 value="0.0759345691" flag="0"/>
      <psa30 value="0.0087927938" flag="0"/>
    </comp>
    <comp name="--.HHZ">
      <acc value="0.0398602244" flag="0"/>
      <vel value="0.0616986654" flag="0"/>
      <psa03 value="0.0569099876" flag="0"/>
      <psa10 value="0.1332008716" flag="0"/>
      <psa30 value="0.0175194556" flag="0"/>
    </comp>
  </station>
  <station code="LEVAN" name="LEVAN" netid="IV" insttype="" commtype="DIG" lat="37.9913" lon="12.3456">
    <comp name="--.HHE">
      <acc value="0.1114179997" flag="0"/>
      <vel value="0.0973213308" flag="0"/>
      <psa03 value="0.2067191674" flag="0"/>
      <psa10 value="0.2217232134" flag="0"/>
      <psa30 value="0.0265990613" flag="0"/>
    </comp>
    <comp name="--.HHN">
      <acc value="0.0895112282" flag="0"/>
      <vel value="0.0741217079" flag="0"/>
      <psa03 value="0.1694279339" flag="0"/>
      <psa10 value="0.0849346259" flag="0"/>
      <psa30 value="0.0109188433" flag="0"/>
    </comp>
    <comp name="--.HHZ">
      <acc value="0.0854468426" flag="0"/>
      <vel value="0.0616580430" flag="0"/>
      <psa03 value="0.2208321059" flag="0"/>
      <psa10 value="0.1229512211" flag="0"/>
      <psa30 value="0.0138343982" flag="0"/>
    </comp>
  </station>
  <station code="MARET" name="MARET" netid="IV" insttype="" commtype="DIG" lat="37.9687" lon="12.0725">
    <comp name="--.HHE">
      <acc value="0.3267137120" flag="0"/>
      <vel value="0.1280530922" flag="0"/>
      <psa03 value="0.7514926837" flag="0"/>
      <psa10 value="0.0805079893" flag="0"/>
      <psa30 value="0.0102683757" flag="0"/>
    </comp>
    <comp name="--.HHN">
      <acc value="0.4185424312" flag="0"/>
      <vel value="0.1215995464" flag="0"/>
      <psa03 value="0.8170031727" flag="0"/>
      <psa10 value="0.0792535686" flag="0"/>
      <psa30 value="0.0122435498" flag="0"/>
    </comp>
    <comp name="--.HHZ">
      <acc value="0.1998398060" flag="0"/>
      <vel value="0.0792076199" flag="0"/>
      <psa03 value="0.2574011653" flag="0"/>
      <psa10 value="0.0610313278" flag="0"/>
      <psa30 value="0.0077302778" flag="0"/>
    </comp>
  </station>
  <station code="MARS" name="MARS" netid="IV" insttype="" commtype="DIG" lat="37.7532" lon="12.5647">
    <comp name="--.HHN">
      <acc value="0.0585117220" flag="0"/>
      <vel value="0.0783599848" flag="0"/>
      <psa03 value="0.1669606191" flag="0"/>
      <psa10 value="0.1154872663" flag="0"/>
      <psa30 value="0.0341062276" flag="0"/>
    </comp>
    <comp name="--.HHE">
      <acc value="0.0737136983" flag="0"/>
      <vel value="0.1032333798" flag="0"/>
      <psa03 value="0.1777981280" flag="0"/>
      <psa10 value="0.1351013255" flag="0"/>
      <psa30 value="0.0319358856" flag="0"/>
    </comp>
    <comp name="--.HHZ">
      <acc value="0.0563627889" flag="0"/>
      <vel value="0.0639546727" flag="0"/>
      <psa03 value="0.1986965032" flag="0"/>
      <psa10 value="0.1271742509" flag="0"/>
      <psa30 value="0.0252605061" flag="0"/>
    </comp>
  </station>
  <station code="MBFT" name="MBFT" netid="IV" insttype="" commtype="DIG" lat="37.9461" lon="12.9535">
    <comp name="--.HHE">
      <acc value="0.0327422408" flag="0"/>
      <vel value="0.0227544445" flag="0"/>
      <psa03 value="0.1143505242" flag="0"/>
      <psa10 value="0.0491804306" flag="0"/>
      <psa30 value="0.0030779667" flag="0"/>
    </comp>
    <comp name="--.HHN">
      <acc value="0.0302944392" flag="0"/>
      <vel value="0.0235734705" flag="0"/>
      <psa03 value="0.0766619867" flag="0"/>
      <psa10 value="0.0551076268" flag="0"/>
      <psa30 value="0.0048718242" flag="0"/>
    </comp>
    <comp name="--.HHZ">
      <acc value="0.0158563423" flag="0"/>
      <vel value="0.0159472787" flag="0"/>
      <psa03 value="0.0549482332" flag="0"/>
      <psa10 value="0.0424006926" flag="0"/>
      <psa30 value="0.0034961262" flag="0"/>
    </comp>
  </station>
  <station code="MFNL" name="MFNL" netid="IV" insttype="" commtype="DIG" lat="37.7908" lon="12.9224">
    <comp name="--.HHE">
      <acc value="0.0245610009" flag="0"/>
      <vel value="0.0311868647" flag="0"/>
      <psa03 value="0.0551595825" flag="0"/>
      <psa10 value="0.0475543014" flag="0"/>
      <psa30 value="0.0070965670" flag="0"/>
    </comp>
    <comp name="--.HHN">
      <acc value="0.0169437148" flag="0"/>
      <vel value="0.0196824882" flag="0"/>
      <psa03 value="0.0421931360" flag="0"/>
      <psa10 value="0.0428925540" flag="0"/>
      <psa30 value="0.0051580618" flag="0"/>
    </comp>
    <comp name="--.HHZ">
      <acc value="0.0179997992" flag="0"/>
      <vel value="0.0196288305" flag="0"/>
      <psa03 value="0.0310559277" flag="0"/>
      <psa10 value="0.0370251863" flag="0"/>
      <psa30 value="0.0041184401" flag="0"/>
    </comp>
  </station>
  <station code="MMGO" name="MMGO" netid="IV" insttype="" commtype="DIG" lat="37.6619" lon="12.9767">
    <comp name="--.HHN">
      <acc value="0.0189237274" flag="0"/>
      <vel value="0.0210658341" flag="0"/>
      <psa03 value="0.0468851556" flag="0"/>
      <psa10 value="0.0406638505" flag="0"/>
      <psa30 value="0.0038373824" flag="0"/>
    </comp>
    <comp name="--.HHE">
      <acc value="0.0141743054" flag="0"/>
      <vel value="0.0136347869" flag="0"/>
      <psa03 value="0.0425039366" flag="0"/>
      <psa10 value="0.0243815218" flag="0"/>
      <psa30 value="0.0036072348" flag="0"/>
    </comp>
    <comp name="--.HHZ">
      <acc value="0.0157232654" flag="0"/>
      <vel value="0.0107269825" flag="0"/>
      <psa03 value="0.0503258612" flag="0"/>
      <psa10 value="0.0115374726" flag="0"/>
      <psa30 value="0.0019414124" flag="0"/>
    </comp>
  </station>
  <station code="MPG" name="MPG" netid="IV" insttype="" commtype="DIG" lat="38.1617" lon="13.36">
    <comp name="--.HHE">
      <acc value="0.0201056155" flag="0"/>
      <vel value="0.0195823950" flag="0"/>
      <psa03 value="0.0453504323" flag="0"/>
      <psa10 value="0.0317186336" flag="0"/>
      <psa30 value="0.0030433105" flag="0"/>
    </comp>
    <comp name="--.HHN">
      <acc value="0.0173574035" flag="0"/>
      <vel value="0.0151329752" flag="0"/>
      <psa03 value="0.0599048267" flag="0"/>
      <psa10 value="0.0198659670" flag="0"/>
      <psa30 value="0.0035341582" flag="0"/>
    </comp>
    <comp name="--.HHZ">
      <acc value="0.0079938098" flag="0"/>
      <vel value="0.0114347594" flag="0"/>
      <psa03 value="0.0226023884" flag="0"/>
      <psa10 value="0.0239281546" flag="0"/>
      <psa30 value="0.0022693069" flag="0"/>
    </comp>
  </station>
  <station code="USI" name="USI" netid="IV" insttype="" commtype="DIG" lat="38.7079" lon="13.1791">
    <comp name="--.HHN">
      <acc value="0.1993019392" flag="0"/>
      <vel value="0.1544860228" flag="0"/>
      <psa03 value="0.5052773311" flag="0"/>
      <psa10 value="0.1674278845" flag="0"/>
      <psa30 value="0.0215011301" flag="0"/>
    </comp>
    <comp name="--.HHZ">
      <acc value="0.0718874981" flag="0"/>
      <vel value="0.0430006913" flag="0"/>
      <psa03 value="0.3664819722" flag="0"/>
      <psa10 value="0.0443262112" flag="0"/>
      <psa30 value="0.0083836039" flag="0"/>
    </comp>
    <comp name="--.HHE">
      <acc value="0.2808373889" flag="0"/>
      <vel value="0.2147369528" flag="0"/>
      <psa03 value="0.7764201447" flag="0"/>
      <psa10 value="0.2604885080" flag="0"/>
      <psa30 value="0.0181441649" flag="0"/>
    </comp>
  </station>
</stationlist>
