<?xml version="1.0" encoding="UTF-8" standalone="yes"?>
<!DOCTYPE earthquake SYSTEM "stationlist.dtd">
<stationlist created="" xmlns="ch.ethz.sed.shakemap.usgs.xml">
  <station code="DARE" name="DARE" netid="KO" insttype="CMG-3ESP" lat="38.5712" lon="37.4832">
    <comp name="--.HHN">
      <acc value="0.0051276980" flag="0"/>
      <vel value="0.0038425564" flag="0"/>
      <psa03 value="0.0149163910" flag="0"/>
      <psa10 value="0.0072217846" flag="0"/>
      <psa30 value="0.0009071746" flag="0"/>
    </comp>
    <comp name="--.HHZ">
      <acc value="0.0045108819" flag="0"/>
      <vel value="0.0034796499" flag="0"/>
      <psa03 value="0.0151329707" flag="0"/>
      <psa10 value="0.0082270559" flag="0"/>
      <psa30 value="0.0008079517" flag="0"/>
    </comp>
    <comp name="--.HHE">
      <acc value="0.0072349636" flag="0"/>
      <vel value="0.0035506793" flag="0"/>
      <psa03 value="0.0244047568" flag="0"/>
      <psa10 value="0.0071267977" flag="0"/>
      <psa30 value="0.0013521287" flag="0"/>
    </comp>
  </station>
  <station code="GAZ" name="GAZ" netid="KO" insttype="CMG-3T" lat="37.1721" lon="37.2096">
    <comp name="--.HHE">
      <acc value="0.0170181102" flag="0"/>
      <vel value="0.0055001942" flag="0"/>
      <psa03 value="0.0210881086" flag="0"/>
      <psa10 value="0.0062384632" flag="0"/>
      <psa30 value="0.0011012298" flag="0"/>
    </comp>
    <comp name="--.HHZ">
      <acc value="0.0068885218" flag="0"/>
      <vel value="0.0034707671" flag="0"/>
      <psa03 value="0.0142546079" flag="0"/>
      <psa10 value="0.0054376463" flag="0"/>
      <psa30 value="0.0009325461" flag="0"/>
    </comp>
    <comp name="--.HHN">
      <acc value="0.0090680661" flag="0"/>
      <vel value="0.0062986494" flag="0"/>
      <psa03 value="0.0193642563" flag="0"/>
      <psa10 value="0.0099252530" flag="0"/>
      <psa30 value="0.0010839700" flag="0"/>
    </comp>
  </station>
  <station code="KHMN" name="KHMN" netid="KO" insttype="CMG-5T" lat="37.3916" lon="37.1574">
    <comp name="--.HNE">
      <acc value="0.0365402559" flag="0"/>
      <vel value="0.0120476902" flag="0"/>
      <psa03 value="0.0342562007" flag="0"/>
      <psa10 value="0.0065292589" flag="0"/>
      <psa30 value="0.0014348454" flag="0"/>
    </comp>
    <comp name="--.HNZ">
      <acc value="0.0197066189" flag="0"/>
      <vel value="0.0072241372" flag="0"/>
      <psa03 value="0.0279493522" flag="0"/>
      <psa10 value="0.0041146034" flag="0"/>
      <psa30 value="0.0011633432" flag="0"/>
    </comp>
    <comp name="--.HNN">
      <acc value="0.0319020712" flag="0"/>
      <vel value="0.0123125624" flag="0"/>
      <psa03 value="0.0380374063" flag="0"/>
      <psa10 value="0.0088379509" flag="0"/>
      <psa30 value="0.0017096713" flag="0"/>
    </comp>
  </station>
  <station code="SVRC" name="SVRC" netid="KO" insttype="CMG-3T" lat="38.3775" lon="39.306">
    <comp name="--.HHE">
      <acc value="0.0160946296" flag="0"/>
      <vel value="0.0070642448" flag="0"/>
      <psa03 value="0.0501235286" flag="0"/>
      <psa10 value="0.0034561906" flag="0"/>
      <psa30 value="0.0011083252" flag="0"/>
    </comp>
    <comp name="--.HHN">
      <acc value="0.0150052412" flag="0"/>
      <vel value="0.0069151273" flag="0"/>
      <psa03 value="0.0339000018" flag="0"/>
      <psa10 value="0.0025533946" flag="0"/>
      <psa30 value="0.0005513222" flag="0"/>
    </comp>
    <comp name="--.HHZ">
      <acc value="0.0128901130" flag="0"/>
      <vel value="0.0045518529" flag="0"/>
      <psa03 value="0.0205237916" flag="0"/>
      <psa10 value="0.0029807152" flag="0"/>
      <psa30 value="0.0013339367" flag="0"/>
    </comp>
  </station>
  <station code="URFA" name="URFA" netid="KO" insttype="CMG-3ESP" lat="37.4409" lon="38.8213">
    <comp name="--.HHZ">
      <acc value="0.0308538171" flag="0"/>
      <vel value="0.0081907761" flag="0"/>
      <psa03 value="0.0393450896" flag="0"/>
      <psa10 value="0.0119237438" flag="0"/>
      <psa30 value="0.0011227970" flag="0"/>
    </comp>
    <comp name="--.HHN">
      <acc value="0.0391160064" flag="0"/>
      <vel value="0.0100528034" flag="0"/>
      <psa03 value="0.0543547953" flag="0"/>
      <psa10 value="0.0071157539" flag="0"/>
      <psa30 value="0.0024849636" flag="0"/>
    </comp>
    <comp name="--.HHE">
      <acc value="0.0573653017" flag="0"/>
      <vel value="0.0198441539" flag="0"/>
      <psa03 value="0.1042369949" flag="0"/>
      <psa10 value="0.0073394167" flag="0"/>
      <psa30 value="0.0037778123" flag="0"/>
    </comp>
  </station>
</stationlist>
