<?xml version="1.0" encoding="UTF-8" standalone="yes"?>
<!DOCTYPE earthquake SYSTEM "stationlist.dtd">
<stationlist created="" xmlns="ch.ethz.sed.shakemap.usgs.xml">
  <station code="APE" name="APE" netid="GE" insttype="STS-2/N" lat="37.0727" lon="25.523">
    <comp name="--.HHZ">
      <acc value="0.2465164960" flag="0"/>
      <vel value="0.0583086764" flag="0"/>
      <psa03 value="0.2293951473" flag="0"/>
      <psa10 value="0.0492547073" flag="0"/>
      <psa30 value="0.0178416212" flag="0"/>
    </comp>
    <comp name="--.HHN">
      <acc value="0.5868469401" flag="0"/>
      <vel value="0.0959267543" flag="0"/>
      <psa03 value="0.3369426612" flag="0"/>
      <psa10 value="0.0545588406" flag="0"/>
      <psa30 value="0.0190723628" flag="0"/>
    </comp>
    <comp name="--.HHE">
      <acc value="0.5018423235" flag="0"/>
      <vel value="0.1143250406" flag="0"/>
      <psa03 value="0.3707883488" flag="0"/>
      <psa10 value="0.0461498384" flag="0"/>
      <psa30 value="0.0185664908" flag="0"/>
    </comp>
  </station>
  <station code="THERA" name="THERA" netid="GE" insttype="STS-2/N" lat="36.367" lon="25.4753">
    <comp name="--.HHE">
      <acc value="0.3849278582" flag="0"/>
      <vel value="0.0804228640" flag="0"/>
      <psa03 value="0.2559550648" flag="0"/>
      <psa10 value="0.0726230581" flag="0"/>
      <psa30 value="0.0162682173" flag="0"/>
    </comp>
    <comp name="--.HHN">
      <acc value="0.3285380259" flag="0"/>
      <vel value="0.0662230490" flag="0"/>
      <psa03 value="0.2222860610" flag="0"/>
      <psa10 value="0.0515732470" flag="0"/>
      <psa30 value="0.0052328478" flag="0"/>
    </comp>
    <comp name="--.HHZ">
      <acc value="0.2453074982" flag="0"/>
      <vel value="0.0603831961" flag="0"/>
      <psa03 value="0.2372639648" flag="0"/>
      <psa10 value="0.0328469601" flag="0"/>
      <psa30 value="0.0175094191" flag="0"/>
    </comp>
  </station>
  <station code="ZKR" name="ZKR" netid="GE" insttype="STS-2/N" lat="35.1147" lon="26.2169">
    <comp name="--.HHE">
      <acc value="0.0124001652" flag="0"/>
      <vel value="0.0080208279" flag="0"/>
      <psa03 value="0.0397445233" flag="0"/>
      <psa10 value="0.0112132713" flag="0"/>
      <psa30 value="0.0030126297" flag="0"/>
    </comp>
    <comp name="--.HHN">
      <acc value="0.0073834486" flag="0"/>
      <vel value="0.0051068620" flag="0"/>
      <psa03 value="0.0160290133" flag="0"/>
      <psa10 value="0.0050576583" flag="0"/>
      <psa30 value="0.0012916227" flag="0"/>
    </comp>
    <comp name="--.HHZ">
      <acc value="0.0090945360" flag="0"/>
      <vel value="0.0049150093" flag="0"/>
      <psa03 value="0.0233449618" flag="0"/>
      <psa10 value="0.0047207876" flag="0"/>
      <psa30 value="0.0022493853" flag="0"/>
    </comp>
  </station>
  <station code="SERI" name="SERI" netid="HA" insttype="30" lat="37.1609" lon="24.4853">
    <comp name="--.HHN">
      <acc value="0.1587904901" flag="0"/>
      <vel value="0.0784128912" flag="0"/>
      <psa03 value="0.2743000521" flag="0"/>
      <psa10 value="0.0514014132" flag="0"/>
      <psa30 value="0.0063716127" flag="0"/>
    </comp>
    <comp name="--.HHE">
      <acc value="0.1607380378" flag="0"/>
      <vel value="0.0604552832" flag="0"/>
      <psa03 value="0.2140288250" flag="0"/>
      <psa10 value="0.0260717913" flag="0"/>
      <psa30 value="0.0059195069" flag="0"/>
    </comp>
    <comp name="--.HHZ">
      <acc value="0.1250634147" flag="0"/>
      <vel value="0.0513523928" flag="0"/>
      <psa03 value="0.2127020572" flag="0"/>
      <psa10 value="0.0348794285" flag="0"/>
      <psa30 value="0.0103177873" flag="0"/>
    </comp>
  </station>
  <station code="SNT1" name="SNT1" netid="HA" insttype="30" lat="36.4159" lon="25.4282">
    <comp name="--.HHZ">
      <acc value="0.3193683299" flag="0"/>
      <vel value="0.0898013115" flag="0"/>
      <psa03 value="0.2254820118" flag="0"/>
      <psa10 value="0.0981197882" flag="0"/>
      <psa30 value="0.0254962618" flag="0"/>
    </comp>
    <comp name="--.HHE">
      <acc value="0.4673870226" flag="0"/>
      <vel value="0.1185812932" flag="0"/>
      <psa03 value="0.5166167782" flag="0"/>
      <psa10 value="0.1613205306" flag="0"/>
      <psa30 value="0.0368134920" flag="0"/>
    </comp>
    <comp name="--.HHN">
      <acc value="0.3244473221" flag="0"/>
      <vel value="0.1444321234" flag="0"/>
      <psa03 value="0.3825173400" flag="0"/>
      <psa10 value="0.1970899871" flag="0"/>
      <psa30 value="0.0728858152" flag="0"/>
    </comp>
  </station>
  <station code="IPPL" name="IPPL" netid="HC" insttype="60" lat="35.3486" lon="24.4632">
    <comp name="--.HHN">
      <acc value="0.0000000000" flag="0"/>
      <vel value="-100.0000000000" flag="0"/>
      <psa03 value="0.0000000000" flag="0"/>
      <psa10 value="0.0000000000" flag="0"/>
      <psa30 value="0.0000000000" flag="0"/>
    </comp>
    <comp name="--.HHE">
      <acc value="0.0000000000" flag="0"/>
      <vel value="-100.0000000000" flag="0"/>
      <psa03 value="0.0000000000" flag="0"/>
      <psa10 value="0.0000000000" flag="0"/>
      <psa30 value="0.0000000000" flag="0"/>
    </comp>
    <comp name="--.HHZ">
      <acc value="0.0138300708" flag="0"/>
      <vel value="0.0079212401" flag="0"/>
      <psa03 value="0.0382640435" flag="0"/>
      <psa10 value="0.0074205796" flag="0"/>
      <psa30 value="0.0019073565" flag="0"/>
    </comp>
  </station>
  <station code="KNSS" name="KNSS" netid="HC" insttype="60" lat="35.3042" lon="25.1802">
    <comp name="--.HHE">
      <acc value="0.0000000000" flag="0"/>
      <vel value="-100.0000000000" flag="0"/>
      <psa03 value="0.0000000000" flag="0"/>
      <psa10 value="0.0000000000" flag="0"/>
      <psa30 value="0.0000000000" flag="0"/>
    </comp>
    <comp name="--.HHN">
      <acc value="0.0308796176" flag="0"/>
      <vel value="0.0141837981" flag="0"/>
      <psa03 value="0.0736410085" flag="0"/>
      <psa10 value="0.0131367396" flag="0"/>
      <psa30 value="0.0031290158" flag="0"/>
    </comp>
    <comp name="--.HHZ">
      <acc value="0.0354695964" flag="0"/>
      <vel value="0.0154304394" flag="0"/>
      <psa03 value="0.0868077677" flag="0"/>
      <psa10 value="0.0120026795" flag="0"/>
      <psa30 value="0.0024179725" flag="0"/>
    </comp>
  </station>
  <station code="STIA" name="STIA" netid="HC" insttype="120" lat="35.2021" lon="26.0909">
    <comp name="--.HHE">
      <acc value="0.0189012153" flag="0"/>
      <vel value="0.0131424662" flag="0"/>
      <psa03 value="0.0465551104" flag="0"/>
      <psa10 value="0.0172019551" flag="0"/>
      <psa30 value="0.0034613260" flag="0"/>
    </comp>
    <comp name="--.HHN">
      <acc value="0.0223182089" flag="0"/>
      <vel value="0.0118362236" flag="0"/>
      <psa03 value="0.0702903662" flag="0"/>
      <psa10 value="0.0110196943" flag="0"/>
      <psa30 value="0.0025937535" flag="0"/>
    </comp>
    <comp name="--.HHZ">
      <acc value="0.0150363561" flag="0"/>
      <vel value="0.0086899504" flag="0"/>
      <psa03 value="0.0419856342" flag="0"/>
      <psa10 value="0.0070008969" flag="0"/>
      <psa30 value="0.0024005320" flag="0"/>
    </comp>
  </station>
  <station code="NAX1" name="NAX1" netid="HI" insttype="CMG-5TD,ACCELEROMETER,GURALP" lat="37.1014" lon="25.3741">
    <comp name="--.HNE">
      <acc value="0.5707259811" flag="0"/>
      <vel value="0.1349669984" flag="0"/>
      <psa03 value="0.7098030165" flag="0"/>
      <psa10 value="0.0949918308" flag="0"/>
      <psa30 value="0.0078045604" flag="0"/>
    </comp>
    <comp name="--.HNN">
      <acc value="0.4026298481" flag="0"/>
      <vel value="0.0900807772" flag="0"/>
      <psa03 value="0.4322558440" flag="0"/>
      <psa10 value="0.0567872915" flag="0"/>
      <psa30 value="0.0126219905" flag="0"/>
    </comp>
    <comp name="--.HNZ">
      <acc value="0.2374003218" flag="0"/>
      <vel value="0.0724409964" flag="0"/>
      <psa03 value="0.4020258199" flag="0"/>
      <psa10 value="0.0799020871" flag="0"/>
      <psa30 value="0.0164915573" flag="0"/>
    </comp>
  </station>
  <station code="SFR2" name="SFR2" netid="HI" insttype="unknown" lat="36.3998" lon="25.4382">
    <comp name="--.HNE">
      <acc value="0.7558095463" flag="0"/>
      <vel value="0.3174815973" flag="0"/>
      <psa03 value="1.6857509853" flag="0"/>
      <psa10 value="0.2483598915" flag="0"/>
      <psa30 value="0.0475214107" flag="0"/>
    </comp>
    <comp name="--.HNN">
      <acc value="1.0800791885" flag="0"/>
      <vel value="0.4896473795" flag="0"/>
      <psa03 value="1.4578078662" flag="0"/>
      <psa10 value="0.3946166475" flag="0"/>
      <psa30 value="0.0536355572" flag="0"/>
    </comp>
    <comp name="--.HNZ">
      <acc value="0.8522339075" flag="0"/>
      <vel value="0.2308535424" flag="0"/>
      <psa03 value="1.2087385685" flag="0"/>
      <psa10 value="0.1213721736" flag="0"/>
      <psa30 value="0.0280051260" flag="0"/>
    </comp>
  </station>
  <station code="AMGA" name="AMGA" netid="HL" insttype="SMART24" lat="36.8316" lon="25.8938">
    <comp name="--.HHE">
      <acc value="1.6269584730" flag="0"/>
      <vel value="0.2822087892" flag="0"/>
      <psa03 value="1.3400282815" flag="0"/>
      <psa10 value="0.2236392690" flag="0"/>
      <psa30 value="0.0526578592" flag="0"/>
    </comp>
    <comp name="--.HHN">
      <acc value="1.7012052888" flag="0"/>
      <vel value="0.3678061626" flag="0"/>
      <psa03 value="1.1582123406" flag="0"/>
      <psa10 value="0.1701483770" flag="0"/>
      <psa30 value="0.0391852095" flag="0"/>
    </comp>
    <comp name="--.HHZ">
      <acc value="1.0602990756" flag="0"/>
      <vel value="0.2667966731" flag="0"/>
      <psa03 value="0.9202979010" flag="0"/>
      <psa10 value="0.1971750794" flag="0"/>
      <psa30 value="0.0511603337" flag="0"/>
    </comp>
  </station>
  <station code="APE" name="APE" netid="HL" insttype="120" lat="37.0727" lon="25.523">
    <comp name="--.HHN">
      <acc value="0.5060889032" flag="0"/>
      <vel value="0.0911397697" flag="0"/>
      <psa03 value="0.3297138547" flag="0"/>
      <psa10 value="0.0539983429" flag="0"/>
      <psa30 value="0.0190489038" flag="0"/>
    </comp>
    <comp name="--.HHZ">
      <acc value="0.2371008368" flag="0"/>
      <vel value="0.0547806174" flag="0"/>
      <psa03 value="0.2227149206" flag="0"/>
      <psa10 value="0.0488641776" flag="0"/>
      <psa30 value="0.0178211733" flag="0"/>
    </comp>
    <comp name="--.HHE">
      <acc value="0.4294347965" flag="0"/>
      <vel value="0.1109693904" flag="0"/>
      <psa03 value="0.3601969184" flag="0"/>
      <psa10 value="0.0455329353" flag="0"/>
      <psa30 value="0.0185307433" flag="0"/>
    </comp>
  </station>
  <station code="IACM" name="IACM" netid="HL" insttype="120" lat="35.3058" lon="25.0709">
    <comp name="--.HHN">
      <acc value="0.0882004503" flag="0"/>
      <vel value="0.0574306169" flag="0"/>
      <psa03 value="0.2649206526" flag="0"/>
      <psa10 value="0.0682096447" flag="0"/>
      <psa30 value="0.0052429446" flag="0"/>
    </comp>
    <comp name="--.HHE">
      <acc value="0.0872396967" flag="0"/>
      <vel value="0.0507354076" flag="0"/>
      <psa03 value="0.2324724954" flag="0"/>
      <psa10 value="0.1124600447" flag="0"/>
      <psa30 value="0.0088729919" flag="0"/>
    </comp>
    <comp name="--.HHZ">
      <acc value="0.0689624228" flag="0"/>
      <vel value="0.0289866985" flag="0"/>
      <psa03 value="0.1219296925" flag="0"/>
      <psa10 value="0.0258877117" flag="0"/>
      <psa30 value="0.0023920226" flag="0"/>
    </comp>
  </station>
  <station code="IDI" name="IDI" netid="HL" insttype="120" lat="35.288" lon="24.89">
    <comp name="--.HHE">
      <acc value="0.0214531932" flag="0"/>
      <vel value="0.0106200047" flag="0"/>
      <psa03 value="0.0407131715" flag="0"/>
      <psa10 value="0.0065582190" flag="0"/>
      <psa30 value="0.0021267499" flag="0"/>
    </comp>
    <comp name="--.HHN">
      <acc value="0.0297909199" flag="0"/>
      <vel value="0.0104496963" flag="0"/>
      <psa03 value="0.0804034411" flag="0"/>
      <psa10 value="0.0051378121" flag="0"/>
      <psa30 value="0.0014473551" flag="0"/>
    </comp>
    <comp name="--.HHZ">
      <acc value="0.0232101673" flag="0"/>
      <vel value="0.0089870917" flag="0"/>
      <psa03 value="0.0371198787" flag="0"/>
      <psa10 value="0.0074919481" flag="0"/>
      <psa30 value="0.0011495729" flag="0"/>
    </comp>
  </station>
  <station code="MHLO" name="MHLO" netid="HL" insttype="20" lat="36.6898" lon="24.4017">
    <comp name="--.HHZ">
      <acc value="0.1515568723" flag="0"/>
      <vel value="0.0797280212" flag="0"/>
      <psa03 value="0.2405540995" flag="0"/>
      <psa10 value="0.0615050098" flag="0"/>
      <psa30 value="0.0112670320" flag="0"/>
    </comp>
    <comp name="--.HHN">
      <acc value="0.2965393251" flag="0"/>
      <vel value="0.1231473549" flag="0"/>
      <psa03 value="0.4411385830" flag="0"/>
      <psa10 value="0.1128748896" flag="0"/>
      <psa30 value="0.0131371710" flag="0"/>
    </comp>
    <comp name="--.HHE">
      <acc value="0.3423859268" flag="0"/>
      <vel value="0.1997425057" flag="0"/>
      <psa03 value="0.7769341457" flag="0"/>
      <psa10 value="0.1128476690" flag="0"/>
      <psa30 value="0.0161485464" flag="0"/>
    </comp>
  </station>
  <station code="MILA" name="MILA" netid="HL" insttype="CMG-5" lat="36.7429" lon="24.4282">
    <comp name="00.HNN">
      <acc value="0.3855120080" flag="0"/>
      <vel value="0.2046910131" flag="0"/>
      <psa03 value="0.9172365796" flag="0"/>
      <psa10 value="0.1252176495" flag="0"/>
      <psa30 value="0.0136027194" flag="0"/>
    </comp>
    <comp name="00.HNE">
      <acc value="0.2806565911" flag="0"/>
      <vel value="0.1384100327" flag="0"/>
      <psa03 value="0.6738933801" flag="0"/>
      <psa10 value="0.1538613310" flag="0"/>
      <psa30 value="0.0182497530" flag="0"/>
    </comp>
    <comp name="00.HNZ">
      <acc value="0.2307561562" flag="0"/>
      <vel value="0.1012578646" flag="0"/>
      <psa03 value="0.5610944749" flag="0"/>
      <psa10 value="0.1088603271" flag="0"/>
      <psa30 value="0.0097786173" flag="0"/>
    </comp>
  </station>
  <station code="NISR" name="NISR" netid="HL" insttype="65535" lat="36.6106" lon="27.131">
    <comp name="--.HHN">
      <acc value="0.0437731049" flag="0"/>
      <vel value="0.0477203630" flag="0"/>
      <psa03 value="0.0814233851" flag="0"/>
      <psa10 value="0.0417707411" flag="0"/>
      <psa30 value="0.0164669241" flag="0"/>
    </comp>
    <comp name="--.HHE">
      <acc value="0.0000000000" flag="0"/>
      <vel value="-100.0000000000" flag="0"/>
      <psa03 value="0.0000000000" flag="0"/>
      <psa10 value="0.0000000000" flag="0"/>
      <psa30 value="0.0000000000" flag="0"/>
    </comp>
    <comp name="--.HHZ">
      <acc value="0.0274521428" flag="0"/>
      <vel value="0.0202179175" flag="0"/>
      <psa03 value="0.0517644330" flag="0"/>
      <psa10 value="0.0251554628" flag="0"/>
      <psa30 value="0.0035527856" flag="0"/>
    </comp>
  </station>
  <station code="NISR2" name="NISR2" netid="HL" insttype="120" lat="36.5744" lon="27.1767">
    <comp name="--.HHN">
      <acc value="0.0664449352" flag="0"/>
      <vel value="0.0977028698" flag="0"/>
      <psa03 value="0.2232474922" flag="0"/>
      <psa10 value="0.1177378440" flag="0"/>
      <psa30 value="0.0148115778" flag="0"/>
    </comp>
    <comp name="--.HHZ">
      <acc value="0.0236981152" flag="0"/>
      <vel value="0.0178688307" flag="0"/>
      <psa03 value="0.0668854935" flag="0"/>
      <psa10 value="0.0326338685" flag="0"/>
      <psa30 value="0.0040062075" flag="0"/>
    </comp>
    <comp name="--.HHE">
      <acc value="0.0597593819" flag="0"/>
      <vel value="0.0653687628" flag="0"/>
      <psa03 value="0.1705704895" flag="0"/>
      <psa10 value="0.0820226151" flag="0"/>
      <psa30 value="0.0119908221" flag="0"/>
    </comp>
  </station>
  <station code="NPS" name="NPS" netid="HL" insttype="CMG3ESPC-120s" lat="35.2613" lon="25.6104">
    <comp name="--.HHE">
      <acc value="0.0154301822" flag="0"/>
      <vel value="0.0075035379" flag="0"/>
      <psa03 value="0.0590413013" flag="0"/>
      <psa10 value="0.0080980314" flag="0"/>
      <psa30 value="0.0013251925" flag="0"/>
    </comp>
    <comp name="--.HHZ">
      <acc value="0.0263843880" flag="0"/>
      <vel value="0.0097762114" flag="0"/>
      <psa03 value="0.0410578009" flag="0"/>
      <psa10 value="0.0084318344" flag="0"/>
      <psa30 value="0.0022646519" flag="0"/>
    </comp>
    <comp name="--.HHN">
      <acc value="0.0314366910" flag="0"/>
      <vel value="0.0162056087" flag="0"/>
      <psa03 value="0.0816423743" flag="0"/>
      <psa10 value="0.0180733582" flag="0"/>
      <psa30 value="0.0020657853" flag="0"/>
    </comp>
  </station>
  <station code="SANT" name="SANT" netid="HL" insttype="30" lat="36.3705" lon="25.4593">
    <comp name="--.HHE">
      <acc value="1.0529885633" flag="0"/>
      <vel value="0.2089133494" flag="0"/>
      <psa03 value="0.6303798672" flag="0"/>
      <psa10 value="0.1145464349" flag="0"/>
      <psa30 value="0.0157833251" flag="0"/>
    </comp>
    <comp name="--.HHN">
      <acc value="0.8576903739" flag="0"/>
      <vel value="0.1157402882" flag="0"/>
      <psa03 value="0.3790718584" flag="0"/>
      <psa10 value="0.0558906957" flag="0"/>
      <psa30 value="0.0111015102" flag="0"/>
    </comp>
    <comp name="--.HHZ">
      <acc value="0.7097262129" flag="0"/>
      <vel value="0.1167911730" flag="0"/>
      <psa03 value="0.3509921626" flag="0"/>
      <psa10 value="0.0565081610" flag="0"/>
      <psa30 value="0.0162607046" flag="0"/>
    </comp>
  </station>
  <station code="SAP3" name="SAP3" netid="HL" insttype="65535" lat="36.4356" lon="25.3454">
    <comp name="--.HHE">
      <acc value="0.7778432560" flag="0"/>
      <vel value="0.3177690229" flag="0"/>
      <psa03 value="0.7417666636" flag="0"/>
      <psa10 value="0.3030720230" flag="0"/>
      <psa30 value="0.0646189282" flag="0"/>
    </comp>
    <comp name="--.HHN">
      <acc value="0.6492091197" flag="0"/>
      <vel value="0.2658926673" flag="0"/>
      <psa03 value="1.2445380564" flag="0"/>
      <psa10 value="0.1734104832" flag="0"/>
      <psa30 value="0.0614990729" flag="0"/>
    </comp>
    <comp name="--.HHZ">
      <acc value="0.6420683259" flag="0"/>
      <vel value="0.1642047575" flag="0"/>
      <psa03 value="0.5652509997" flag="0"/>
      <psa10 value="0.1033457750" flag="0"/>
      <psa30 value="0.0140488454" flag="0"/>
    </comp>
  </station>
  <station code="SMG" name="SMG" netid="HL" insttype="120" lat="37.7043" lon="26.8377">
    <comp name="--.HHE">
      <acc value="0.0374811776" flag="0"/>
      <vel value="0.0210710146" flag="0"/>
      <psa03 value="0.0908689545" flag="0"/>
      <psa10 value="0.0186898066" flag="0"/>
      <psa30 value="0.0034750359" flag="0"/>
    </comp>
    <comp name="--.HHN">
      <acc value="0.0387479106" flag="0"/>
      <vel value="0.0223417422" flag="0"/>
      <psa03 value="0.1311896514" flag="0"/>
      <psa10 value="0.0207866061" flag="0"/>
      <psa30 value="0.0024334307" flag="0"/>
    </comp>
    <comp name="--.HHZ">
      <acc value="0.0265741616" flag="0"/>
      <vel value="0.0108975658" flag="0"/>
      <psa03 value="0.0486507453" flag="0"/>
      <psa10 value="0.0112920548" flag="0"/>
      <psa30 value="0.0021914931" flag="0"/>
    </comp>
  </station>
  <station code="THERA" name="THERA" netid="HL" insttype="120" lat="36.367" lon="25.4753">
    <comp name="--.HHN">
      <acc value="0.6431678596" flag="0"/>
      <vel value="0.1299128324" flag="0"/>
      <psa03 value="0.4304741822" flag="0"/>
      <psa10 value="0.1024708103" flag="0"/>
      <psa30 value="0.0104782474" flag="0"/>
    </comp>
    <comp name="--.HHE">
      <acc value="0.4103946603" flag="0"/>
      <vel value="0.0802833503" flag="0"/>
