<?xml version="1.0" encoding="UTF-8" standalone="yes"?>
<!DOCTYPE earthquake SYSTEM "stationlist.dtd">
<stationlist created="" xmlns="ch.ethz.sed.shakemap.usgs.xml">
  <station code="APE" name="APE" netid="GE" insttype="STS-2/N" lat="37.0727" lon="25.523">
    <comp name="--.HHZ">
      <acc value="0.2465164960" flag="0"/>
      <vel value="0.0583086764" flag="0"/>
      <psa03 value="0.2293951473" flag="0"/>
      <psa10 value="0.0492547073" flag="0"/>
      <psa30 value="0.0178416212" flag="0"/>
    </comp>
    <comp name="--.HHN">
      <acc value="0.5868469401" flag="0"/>
      <vel value="0.0959267543" flag="0"/>
      <psa03 value="0.3369426612" flag="0"/>
      <psa10 value="0.0545588406" flag="0"/>
      <psa30 value="0.0190723628" flag="0"/>
    </comp>
    <comp name="--.HHE">
      <acc value="0.5018423235" flag="0"/>
      <vel value="0.1143250406" flag="0"/>
      <psa03 value="0.3707883488" flag="0"/>
      <psa10 value="0.0461498384" flag="0"/>
      <psa30 value="0.0185664908" flag="0"/>
    </comp>
  </station>
  <station code="THERA" name="THERA" netid="GE" insttype="STS-2/N" lat="36.367" lon="25.4753">
    <comp name="--.HHE">
      <acc value="0.3849278582" flag="0"/>
      <vel value="0.0804228640" flag="0"/>
      <psa03 value="0.2559550648" flag="0"/>
      <psa10 value="0.0726230581" flag="0"/>
      <psa30 value="0.0162682173" flag="0"/>
    </comp>
    <comp name="--.HHN">
      <acc value="0.3285380259" flag="0"/>
      <vel value="0.0662230490" flag="0"/>
      <psa03 value="0.2222860610" flag="0"/>
      <psa10 value="0.0515732470" flag="0"/>
      <psa30 value="0.0052328478" flag="0"/>
    </comp>
    <comp name="--.HHZ">
      <acc value="0.2453074982" flag="0"/>
      <vel value="0.0603831961" flag="0"/>
      <psa03 value="0.2372639648" flag="0"/>
      <psa10 value="0.0328469601" flag="0"/>
      <psa30 value="0.0175094191" flag="0"/>
    </comp>
  </station>
  <station code="ZKR" name="ZKR" netid="GE" insttype="STS-2/N" lat="35.1147" lon="26.2169">
    <comp name="--.HHE">
      <acc value="0.0124001652" flag="0"/>
      <vel value="0.0080208279" flag="0"/>
      <psa03 value="0.0397445233" flag="0"/>
      <psa10 value="0.0112132713" flag="0"/>
      <psa30 value="0.0030126297" flag="0"/>
    </comp>
    <comp name="--.HHN">
      <acc value="0.0073834486" flag="0"/>
      <vel value="0.0051068620" flag="0"/>
      <psa03 value="0.0160290133" flag="0"/>
      <psa10 value="0.0050576583" flag="0"/>
      <psa30 value="0.0012916227" flag="0"/>
    </comp>
    <comp name="--.HHZ">
      <acc value="0.0090945360" flag="0"/>
      <vel value="0.0049150093" flag="0"/>
      <psa03 value="0.0233449618" flag="0"/>
      <psa10 value="0.0047207876" flag="0"/>
      <psa30 value="0.0022493853" flag="0"/>
    </comp>
  </station>
  <station code="IDI" name="IDI" netid="MN" insttype="" lat="35.288" lon="24.89">
    <comp name="--.HHE">
      <acc value="0.0220586794" flag="0"/>
      <vel value="0.0106657554" flag="0"/>
      <psa03 value="0.0410101489" flag="0"/>
      <psa10 value="0.0065295016" flag="0"/>
      <psa30 value="0.0021017755" flag="0"/>
    </comp>
    <comp name="--.HHZ">
      <acc value="0.0242899620" flag="0"/>
      <vel value="0.0090765323" flag="0"/>
      <psa03 value="0.0376533435" flag="0"/>
      <psa10 value="0.0074323159" flag="0"/>
      <psa30 value="0.0011390226" flag="0"/>
    </comp>
    <comp name="--.HHN">
      <acc value="0.0308233819" flag="0"/>
      <vel value="0.0105596928" flag="0"/>
      <psa03 value="0.0811253937" flag="0"/>
      <psa10 value="0.0051206616" flag="0"/>
      <psa30 value="0.0014297215" flag="0"/>
    </comp>
  </station>
</stationlist>
