<?xml version="1.0" encoding="UTF-8" standalone="yes"?>
<!DOCTYPE earthquake SYSTEM "stationlist.dtd">
<stationlist created="" xmlns="ch.ethz.sed.shakemap.usgs.xml">
  <station code="APE" name="APE" netid="GE" insttype="STS-2/N" lat="37.0727" lon="25.523">
    <comp name="--.HHZ">
      <acc value="0.2465164957" flag="0"/>
      <vel value="0.0583086706" flag="0"/>
      <psa03 value="0.2293951473" flag="0"/>
      <psa10 value="0.0492547087" flag="0"/>
      <psa30 value="0.0178414124" flag="0"/>
    </comp>
    <comp name="--.HHN">
      <acc value="0.5868469402" flag="0"/>
      <vel value="0.0959267539" flag="0"/>
      <psa03 value="0.3369426612" flag="0"/>
      <psa10 value="0.0545588402" flag="0"/>
      <psa30 value="0.0190727562" flag="0"/>
    </comp>
    <comp name="--.HHE">
      <acc value="0.5018423235" flag="0"/>
      <vel value="0.1143250400" flag="0"/>
      <psa03 value="0.3707883488" flag="0"/>
      <psa10 value="0.0461498656" flag="0"/>
      <psa30 value="0.0185662931" flag="0"/>
    </comp>
  </station>
  <station code="THERA" name="THERA" netid="GE" insttype="STS-2/N" lat="36.367" lon="25.4753">
    <comp name="--.HHE">
      <acc value="0.3849278586" flag="0"/>
      <vel value="0.0804228785" flag="0"/>
      <psa03 value="0.2559550648" flag="0"/>
      <psa10 value="0.0726230436" flag="0"/>
      <psa30 value="0.0162687634" flag="0"/>
    </comp>
    <comp name="--.HHN">
      <acc value="0.3285380257" flag="0"/>
      <vel value="0.0662230527" flag="0"/>
      <psa03 value="0.2222860610" flag="0"/>
      <psa10 value="0.0515732472" flag="0"/>
      <psa30 value="0.0052324470" flag="0"/>
    </comp>
    <comp name="--.HHZ">
      <acc value="0.2453074986" flag="0"/>
      <vel value="0.0603831946" flag="0"/>
      <psa03 value="0.2372639649" flag="0"/>
      <psa10 value="0.0328469311" flag="0"/>
      <psa30 value="0.0175085603" flag="0"/>
    </comp>
  </station>
  <station code="ZKR" name="ZKR" netid="GE" insttype="STS-2/N" lat="35.1147" lon="26.2169">
    <comp name="--.HHZ">
      <acc value="0.0090945358" flag="0"/>
      <vel value="0.0049150059" flag="0"/>
      <psa03 value="0.0233449618" flag="0"/>
      <psa10 value="0.0047207876" flag="0"/>
      <psa30 value="0.0022493867" flag="0"/>
    </comp>
    <comp name="--.HHN">
      <acc value="0.0073834486" flag="0"/>
      <vel value="0.0051068622" flag="0"/>
      <psa03 value="0.0160290133" flag="0"/>
      <psa10 value="0.0050576583" flag="0"/>
      <psa30 value="0.0012916237" flag="0"/>
    </comp>
    <comp name="--.HHE">
      <acc value="0.0124001647" flag="0"/>
      <vel value="0.0080208283" flag="0"/>
      <psa03 value="0.0397445233" flag="0"/>
      <psa10 value="0.0112132713" flag="0"/>
      <psa30 value="0.0030126226" flag="0"/>
    </comp>
  </station>
</stationlist>
