<stationlist created="1739289527">
	<station code="KTHA" name="KTHA" netid="GE" source="GEOFON" insttype="" lat="36.2566" lon="23.0621">
		<comp name=".HNE" depth="0.0">
			<acc value="0.007952497861518" flag="0"/>
			<vel value="0.0107146663909" flag="0"/>
			<psa03 value="0.0258841886587975" flag="0"/>
			<psa10 value="0.00846188055806311" flag="0"/>
			<psa30 value="0.0027156369809562" flag="0"/>
		</comp>
		<comp name=".HNN" depth="0.0">
			<acc value="0.0075772377045342" flag="0"/>
			<vel value="0.00958425502677" flag="0"/>
			<psa03 value="0.021254032975371" flag="0"/>
			<psa10 value="0.00769230051466636" flag="0"/>
			<psa30 value="0.00423024523298569" flag="0"/>
		</comp>
		<comp name=".HNZ" depth="0.0">
			<acc value="0.0060593174537928" flag="0"/>
			<vel value="0.0275265410658" flag="0"/>
			<psa03 value="0.012010686274002" flag="0"/>
			<psa10 value="0.0098746975877365" flag="0"/>
			<psa30 value="0.0079278451808435" flag="0"/>
		</comp>
	</station>
	<station code="ATHU" name="ATHU" netid="HA" source="Hellenic Seismological Network, University of Athens, Seismological Laboratory (HA)" insttype="" lat="37.9665" lon="23.7845">
		<comp name=".HNE" depth="0.0">
			<acc value="0.0009355805341458" flag="0"/>
			<vel value="0.000829631891587" flag="0"/>
			<psa03 value="0.00219188429662759" flag="0"/>
			<psa10 value="0.000791686937563348" flag="0"/>
			<psa30 value="0.000166348597903112" flag="0"/>
		</comp>
		<comp name=".HNN" depth="0.0">
			<acc value="0.00052525068524706" flag="0"/>
			<vel value="0.000505428223117" flag="0"/>
			<psa03 value="0.00134444705455638" flag="0"/>
			<psa10 value="0.000500527727818537" flag="0"/>
			<psa30 value="0.000213569616689087" flag="0"/>
		</comp>
		<comp name=".HNZ" depth="0.0">
			<acc value="0.00085735116556392" flag="0"/>
			<vel value="0.000699384392163" flag="0"/>
			<psa03 value="0.0041762193623693" flag="0"/>
			<psa10 value="0.000650765844416843" flag="0"/>
			<psa30 value="0.000133381830683558" flag="0"/>
		</comp>
	</station>
	<station code="KIAS" name="KIAS" netid="HA" source="Hellenic Seismological Network, University of Athens, Seismological Laboratory (HA)" insttype="" lat="37.9875" lon="22.7543">
		<comp name=".HNE" depth="0.0">
			<acc value="0.008777179239669" flag="0"/>
			<vel value="0.0178152034439" flag="0"/>
			<psa03 value="0.0160927275225448" flag="0"/>
			<psa10 value="0.0285472717416326" flag="0"/>
			<psa30 value="0.00661723210916091" flag="0"/>
		</comp>
		<comp name=".HNN" depth="0.0">
			<acc value="0.0079698135916584" flag="0"/>
			<vel value="0.0143622974454" flag="0"/>
			<psa03 value="0.0135430364825961" flag="0"/>
			<psa10 value="0.0140441712949413" flag="0"/>
			<psa30 value="0.00457131866075102" flag="0"/>
		</comp>
		<comp name=".HNZ" depth="0.0">
			<acc value="0.006292417058385" flag="0"/>
			<vel value="0.0097010798392" flag="0"/>
			<psa03 value="0.00902528668302183" flag="0"/>
			<psa10 value="0.0144600429068801" flag="0"/>
			<psa30 value="0.0029144524431694" flag="0"/>
		</comp>
	</station>
	<station code="ABEA" name="ABEA" netid="HC" source="Seismological Network of Crete (HC)" insttype="" lat="35.5163" lon="24.0113">
		<comp name=".HNE" depth="0.0">
			<acc value="0.0037795121463204" flag="0"/>
			<vel value="0.00394666560471" flag="0"/>
			<psa03 value="0.00530966391367475" flag="0"/>
			<psa10 value="0.00517984360795068" flag="0"/>
			<psa30 value="0.0010571340924453" flag="0"/>
		</comp>
		<comp name=".HNN" depth="0.0">
			<acc value="0.009772928610996" flag="0"/>
			<vel value="0.0033820084928" flag="0"/>
			<psa03 value="0.00884028289098788" flag="0"/>
			<psa10 value="0.00680846118338697" flag="0"/>
			<psa30 value="0.00121161943050584" flag="0"/>
		</comp>
		<comp name=".HNZ" depth="0.0">
			<acc value="0.01039817822454" flag="0"/>
			<vel value="0.00301664512259" flag="0"/>
			<psa03 value="0.0045438849944362" flag="0"/>
			<psa10 value="0.00605165307980577" flag="0"/>
			<psa30 value="0.000984136965079437" flag="0"/>
		</comp>
	</station>
	<station code="ATEI" name="ATEI" netid="HC" source="Seismological Network of Crete (HC)" insttype="" lat="35.5193" lon="24.0432">
		<comp name=".HNE" depth="0.0">
			<acc value="0.024359579527668" flag="0"/>
			<vel value="0.0128762664012" flag="0"/>
			<psa03 value="0.045123478792355" flag="0"/>
			<psa10 value="0.0128518285580687" flag="0"/>
			<psa30 value="0.00283588390505552" flag="0"/>
		</comp>
		<comp name=".HNN" depth="0.0">
			<acc value="0.026387015560572" flag="0"/>
			<vel value="0.0142806990415" flag="0"/>
			<psa03 value="0.0820520657550178" flag="0"/>
			<psa10 value="0.0158368659896332" flag="0"/>
			<psa30 value="0.0033779552312878" flag="0"/>
		</comp>
		<comp name=".HNZ" depth="0.0">
			<acc value="0.012289317295698" flag="0"/>
			<vel value="0.00695256637753" flag="0"/>
			<psa03 value="0.0299871401466864" flag="0"/>
			<psa10 value="0.010655428994874" flag="0"/>
			<psa30 value="0.00184696943599374" flag="0"/>
		</comp>
	</station>
	<station code="G0LD" name="G0LD" netid="HC" source="Seismological Network of Crete (HC)" insttype="" lat="35.4955" lon="24.0306">
		<comp name=".HNE" depth="0.0">
			<acc value="0.024611534991684" flag="0"/>
			<vel value="0.0184170011626" flag="0"/>
			<psa03 value="0.0528012269887115" flag="0"/>
			<psa10 value="0.0463748408556391" flag="0"/>
			<psa30 value="0.00267433299477144" flag="0"/>
		</comp>
		<comp name=".HNN" depth="0.0">
			<acc value="0.031225871776722" flag="0"/>
			<vel value="0.0133536665528" flag="0"/>
			<psa03 value="0.042467420028977" flag="0"/>
			<psa10 value="0.0327482756625349" flag="0"/>
			<psa30 value="0.00202886190214221" flag="0"/>
		</comp>
		<comp name=".HNZ" depth="0.0">
			<acc value="0.01818962284905" flag="0"/>
			<vel value="0.0103402254855" flag="0"/>
			<psa03 value="0.026116305597895" flag="0"/>
			<psa10 value="0.0137319302980047" flag="0"/>
			<psa30 value="0.00201735301473472" flag="0"/>
		</comp>
	</station>
	<station code="POLY" name="POLY" netid="HC" source="Seismological Network of Crete (HC)" insttype="" lat="35.5226" lon="24.0602">
		<comp name=".HNE" depth="0.0">
			<acc value="0.0069917408583774" flag="0"/>
			<vel value="0.00529082217338" flag="0"/>
			<psa03 value="0.0135904406645596" flag="0"/>
			<psa10 value="0.00567557582277936" flag="0"/>
			<psa30 value="0.00100951531293514" flag="0"/>
		</comp>
		<comp name=".HNN" depth="0.0">
			<acc value="0.0088094054655714" flag="0"/>
			<vel value="0.00527108061243" flag="0"/>
			<psa03 value="0.0170807500054408" flag="0"/>
			<psa10 value="0.00552001458013342" flag="0"/>
			<psa30 value="0.00104160254272494" flag="0"/>
		</comp>
		<comp name=".HNZ" depth="0.0">
			<acc value="0.006283232647599" flag="0"/>
			<vel value="0.00325261991435" flag="0"/>
			<psa03 value="0.0115663651732487" flag="0"/>
			<psa10 value="0.00437307422594749" flag="0"/>
			<psa30 value="0.0010533130059834" flag="0"/>
		</comp>
	</station>
	<station code="ARK1" name="ARK1" netid="HI" source="ITSAK Strong Motion Network" insttype="" lat="35.148777" lon="25.264194">
		<comp name=".HNE" depth="0.0">
			<acc value="0.045596802207852" flag="0"/>
			<vel value="0.0287791481781" flag="0"/>
			<psa03 value="0.152501456639801" flag="0"/>
			<psa10 value="0.0324866733326841" flag="0"/>
			<psa30 value="0.00683858885628799" flag="0"/>
		</comp>
		<comp name=".HNN" depth="0.0">
			<acc value="0.053539820624604" flag="0"/>
			<vel value="0.0240075038444" flag="0"/>
			<psa03 value="0.12136826921876" flag="0"/>
			<psa10 value="0.028118910864858" flag="0"/>
			<psa30 value="0.00464534023100371" flag="0"/>
		</comp>
		<comp name=".HNZ" depth="0.0">
			<acc value="0.021804707026734" flag="0"/>
			<vel value="0.0155314430594" flag="0"/>
			<psa03 value="0.0630455931278994" flag="0"/>
			<psa10 value="0.0212353092350365" flag="0"/>
			<psa30 value="0.00319402638023978" flag="0"/>
		</comp>
	</station>
	<station code="ARS1" name="ARS1" netid="HI" source="ITSAK Strong Motion Network" insttype="" lat="37.6349" lon="22.7293">
		<comp name=".HNE" depth="0.0">
			<acc value="0.0089834364305742" flag="0"/>
			<vel value="0.0120448799459" flag="0"/>
			<psa03 value="0.0188674686271904" flag="0"/>
			<psa10 value="0.0172361061824511" flag="0"/>
			<psa30 value="0.00321041809111066" flag="0"/>
		</comp>
		<comp name=".HNN" depth="0.0">
			<acc value="0.0084865973742228" flag="0"/>
			<vel value="0.0103814225967" flag="0"/>
			<psa03 value="0.0239344735622374" flag="0"/>
			<psa10 value="0.0222061791754039" flag="0"/>
			<psa30 value="0.00464533398056219" flag="0"/>
		</comp>
		<comp name=".HNZ" depth="0.0">
			<acc value="0.006939957410688" flag="0"/>
			<vel value="0.0101762889735" flag="0"/>
			<psa03 value="0.0194055732844243" flag="0"/>
			<psa10 value="0.0077753108574315" flag="0"/>
			<psa30 value="0.00436855606206747" flag="0"/>
		</comp>
	</station>
	<station code="ATH5" name="ATH5" netid="HI" source="ITSAK Strong Motion Network" insttype="" lat="37.975421" lon="23.737098">
		<comp name=".HNE" depth="0.0">
			<acc value="0.022070857834116" flag="0"/>
			<vel value="0.0170800947843" flag="0"/>
			<psa03 value="0.0726371451878108" flag="0"/>
			<psa10 value="0.0154857789818733" flag="0"/>
			<psa30 value="0.00223149095032328" flag="0"/>
		</comp>
		<comp name=".HNN" depth="0.0">
			<acc value="0.021853542349788" flag="0"/>
			<vel value="0.0198852719379" flag="0"/>
			<psa03 value="0.0895692147707057" flag="0"/>
			<psa10 value="0.0193134700476159" flag="0"/>
			<psa30 value="0.00416182486713743" flag="0"/>
		</comp>
		<comp name=".HNZ" depth="0.0">
			<acc value="0.012553482789156" flag="0"/>
			<vel value="0.0114535825171" flag="0"/>
			<psa03 value="0.0344231423434017" flag="0"/>
			<psa10 value="0.0252697983751336" flag="0"/>
			<psa30 value="0.00422938600939916" flag="0"/>
		</comp>
	</station>
	<station code="CH01" name="CH01" netid="HI" source="ITSAK Strong Motion Network" insttype="" lat="35.517" lon="24.0208">
		<comp name=".HNE" depth="0.0">
			<acc value="0.022627787701086" flag="0"/>
			<vel value="0.0161805960477" flag="0"/>
			<psa03 value="0.0755779597940945" flag="0"/>
			<psa10 value="0.0181481891034606" flag="0"/>
			<psa30 value="0.00456250516022232" flag="0"/>
		</comp>
		<comp name=".HNN" depth="0.0">
			<acc value="0.033291139689492" flag="0"/>
			<vel value="0.0189934820913" flag="0"/>
			<psa03 value="0.0754441384290132" flag="0"/>
			<psa10 value="0.0163368753628173" flag="0"/>
			<psa30 value="0.0046616117255698" flag="0"/>
		</comp>
		<comp name=".HNZ" depth="0.0">
			<acc value="0.01811681008836" flag="0"/>
			<vel value="0.00790437317663" flag="0"/>
			<psa03 value="0.0231117003075663" flag="0"/>
			<psa10 value="0.0155601051555922" flag="0"/>
			<psa30 value="0.00152032081796071" flag="0"/>
		</comp>
	</station>
	<station code="CH02" name="CH02" netid="HI" source="ITSAK Strong Motion Network" insttype="" lat="35.5145" lon="24.0315">
		<comp name=".HNE" depth="0.0">
			<acc value="0.02418800169504" flag="0"/>
			<vel value="0.0150706553341" flag="0"/>
			<psa03 value="0.0603269026112774" flag="0"/>
			<psa10 value="0.0190720796816848" flag="0"/>
			<psa30 value="0.00415794961042245" flag="0"/>
		</comp>
		<comp name=".HNN" depth="0.0">
			<acc value="0.03394805940564" flag="0"/>
			<vel value="0.0186200755681" flag="0"/>
			<psa03 value="0.0934965166020711" flag="0"/>
			<psa10 value="0.018126422661553" flag="0"/>
			<psa30 value="0.00354054329361671" flag="0"/>
		</comp>
		<comp name=".HNZ" depth="0.0">
			<acc value="0.011469956529114" flag="0"/>
			<vel value="0.00876699508984" flag="0"/>
			<psa03 value="0.0237030545860375" flag="0"/>
			<psa10 value="0.0115078426506039" flag="0"/>
			<psa30 value="0.00161033803115642" flag="0"/>
		</comp>
	</station>
	<station code="CH03" name="CH03" netid="HI" source="ITSAK Strong Motion Network" insttype="" lat="35.53303" lon="24.0705">
		<comp name=".HNE" depth="0.0">
			<acc value="0.018439307846004" flag="0"/>
			<vel value="0.0102362013065" flag="0"/>
			<psa03 value="0.0382422469028228" flag="0"/>
			<psa10 value="0.0127435804496803" flag="0"/>
			<psa30 value="0.00247771726160773" flag="0"/>
		</comp>
		<comp name=".HNN" depth="0.0">
			<acc value="0.016983723835044" flag="0"/>
			<vel value="0.0142037500088" flag="0"/>
			<psa03 value="0.037584677300399" flag="0"/>
			<psa10 value="0.0188573460816321" flag="0"/>
			<psa30 value="0.00250742756310268" flag="0"/>
		</comp>
		<comp name=".HNZ" depth="0.0">
			<acc value="0.015802141490478" flag="0"/>
			<vel value="0.00739652042371" flag="0"/>
			<psa03 value="0.0243031229834692" flag="0"/>
			<psa10 value="0.00646627398392603" flag="0"/>
			<psa30 value="0.00149044800569757" flag="0"/>
		</comp>
	</station>
	<station code="GOR1" name="GOR1" netid="HI" source="ITSAK Strong Motion Network" insttype="" lat="35.0582" lon="24.9628">
		<comp name=".HNE" depth="0.0">
			<acc value="0.01759248600549" flag="0"/>
			<vel value="0.0140751946066" flag="0"/>
			<psa03 value="0.0459299488837472" flag="0"/>
			<psa10 value="0.0186777560596821" flag="0"/>
			<psa30 value="0.0041830391891505" flag="0"/>
		</comp>
		<comp name=".HNN" depth="0.0">
			<acc value="0.019607033362968" flag="0"/>
			<vel value="0.0148927406397" flag="0"/>
			<psa03 value="0.0508010528205068" flag="0"/>
			<psa10 value="0.0141525928523236" flag="0"/>
			<psa30 value="0.00396062945559533" flag="0"/>
		</comp>
		<comp name=".HNZ" depth="0.0">
			<acc value="0.012212994347094" flag="0"/>
			<vel value="0.00947900676528" flag="0"/>
			<psa03 value="0.0247183405937461" flag="0"/>
			<psa10 value="0.0123931281714046" flag="0"/>
			<psa30 value="0.00243606179380645" flag="0"/>
		</comp>
	</station>
	<station code="GTH2" name="GTH2" netid="HI" source="ITSAK Strong Motion Network" insttype="" lat="36.7603" lon="22.5659">
		<comp name=".HNE" depth="0.0">
			<acc value="0.0074171388414198" flag="0"/>
			<vel value="0.00586497683432" flag="0"/>
			<psa03 value="0.0178487084309853" flag="0"/>
			<psa10 value="0.00812564453408594" flag="0"/>
			<psa30 value="0.00170447145453411" flag="0"/>
		</comp>
		<comp name=".HNN" depth="0.0">
			<acc value="0.0098258816583624" flag="0"/>
			<vel value="0.00806070490774" flag="0"/>
			<psa03 value="0.026136168892917" flag="0"/>
			<psa10 value="0.00837005853779496" flag="0"/>
			<psa30 value="0.00167329782693494" flag="0"/>
		</comp>
		<comp name=".HNZ" depth="0.0">
			<acc value="0.015702626520558" flag="0"/>
			<vel value="0.00368407401552" flag="0"/>
			<psa03 value="0.00898342388379477" flag="0"/>
			<psa10 value="0.00337427759182841" flag="0"/>
			<psa30 value="0.000874339691544843" flag="0"/>
		</comp>
	</station>
	<station code="HER3" name="HER3" netid="HI" source="ITSAK Strong Motion Network" insttype="" lat="35.3296" lon="25.1065">
		<comp name=".HNE" depth="0.0">
			<acc value="0.09446373326502" flag="0"/>
			<vel value="0.0567212743147" flag="0"/>
			<psa03 value="0.240126719716595" flag="0"/>
			<psa10 value="0.0792797568948442" flag="0"/>
			<psa30 value="0.00755743314284281" flag="0"/>
		</comp>
		<comp name=".HNN" depth="0.0">
			<acc value="0.10843072317426" flag="0"/>
			<vel value="0.0539738695214" flag="0"/>
			<psa03 value="0.293256530972754" flag="0"/>
			<psa10 value="0.0778686284144515" flag="0"/>
			<psa30 value="0.00448304031275382" flag="0"/>
		</comp>
		<comp name=".HNZ" depth="0.0">
			<acc value="0.064093757642736" flag="0"/>
			<vel value="0.0269822808165" flag="0"/>
			<psa03 value="0.13972481858339" flag="0"/>
			<psa10 value="0.0544907797468266" flag="0"/>
			<psa30 value="0.0028602521860041" flag="0"/>
		</comp>
	</station>
	<station code="KIS1" name="KIS1" netid="HI" source="ITSAK Strong Motion Network" insttype="" lat="35.493933" lon="23.658993">
		<comp name=".HNE" depth="0.0">
			<acc value="0.013352759488398" flag="0"/>
			<vel value="0.0118888286327" flag="0"/>
			<psa03 value="0.0294232694597186" flag="0"/>
			<psa10 value="0.0136054241050857" flag="0"/>
			<psa30 value="0.0031477095619762" flag="0"/>
		</comp>
		<comp name=".HNN" depth="0.0">
			<acc value="0.013201958088402" flag="0"/>
			<vel value="0.0139083665145" flag="0"/>
			<psa03 value="0.0254281870967796" flag="0"/>
			<psa10 value="0.0208074321402611" flag="0"/>
			<psa30 value="0.00356536285445666" flag="0"/>
		</comp>
		<comp name=".HNZ" depth="0.0">
			<acc value="0.011152216778934" flag="0"/>
			<vel value="0.00896959627797" flag="0"/>
			<psa03 value="0.0171398672029193" flag="0"/>
			<psa10 value="0.0130899777717697" flag="0"/>
			<psa30 value="0.00165569478582136" flag="0"/>
		</comp>
	</station>
	<station code="KOR2" name="KOR2" netid="HI" source="ITSAK Strong Motion Network" insttype="" lat="37.9401" lon="22.9495">
		<comp name=".HNE" depth="0.0">
			<acc value="0.013035428373168" flag="0"/>
			<vel value="0.0236006687305" flag="0"/>
			<psa03 value="0.0274807345263029" flag="0"/>
			<psa10 value="0.0437815665639893" flag="0"/>
			<psa30 value="0.00832939761505528" flag="0"/>
		</comp>
		<comp name=".HNN" depth="0.0">
			<acc value="0.014056776276954" flag="0"/>
			<vel value="0.0215341575525" flag="0"/>
			<psa03 value="0.0310747486537583" flag="0"/>
			<psa10 value="0.038327760276007" flag="0"/>
			<psa30 value="0.00598021157634283" flag="0"/>
		</comp>
		<comp name=".HNZ" depth="0.0">
			<acc value="0.010469966431542" flag="0"/>
			<vel value="0.0107450978818" flag="0"/>
			<psa03 value="0.0225224268960611" flag="0"/>
			<psa10 value="0.0230006261786082" flag="0"/>
			<psa30 value="0.0023228628365972" flag="0"/>
		</comp>
	</station>
	<station code="KRL1" name="KRL1" netid="HI" source="ITSAK Strong Motion Network" insttype="" lat="37.7951" lon="26.7065">
		<comp name=".HNE" depth="0.0">
			<acc value="0.048316807913052" flag="0"/>
			<vel value="0.0265635242367" flag="0"/>
			<psa03 value="0.0941376944937941" flag="0"/>
			<psa10 value="0.0393791686766475" flag="0"/>
			<psa30 value="0.00640140572838885" flag="0"/>
		</comp>
		<comp name=".HNN" depth="0.0">
			<acc value="0.042948504882516" flag="0"/>
			<vel value="0.0327235613892" flag="0"/>
			<psa03 value="0.14256095438034" flag="0"/>
			<psa10 value="0.0696599496298931" flag="0"/>
			<psa30 value="0.00421580719320211" flag="0"/>
		</comp>
		<comp name=".HNZ" depth="0.0">
			<acc value="0.023212457876166" flag="0"/>
			<vel value="0.0181430074592" flag="0"/>
			<psa03 value="0.0607795055104488" flag="0"/>
			<psa10 value="0.0301509511025368" flag="0"/>
			<psa30 value="0.00473755508979226" flag="0"/>
		</comp>
	</station>
	<station code="KTL1" name="KTL1" netid="HI" source="ITSAK Strong Motion Network" insttype="" lat="35.20778" lon="25.34272">
		<comp name=".HNE" depth="0.0">
			<acc value="0.036021114424362" flag="0"/>
			<vel value="0.0227403176158" flag="0"/>
			<psa03 value="0.103905101953016" flag="0"/>
			<psa10 value="0.0213770011214119" flag="0"/>
			<psa30 value="0.00459856213215128" flag="0"/>
		</comp>
		<comp name=".HNN" depth="0.0">
			<acc value="0.040782859043106" flag="0"/>
			<vel value="0.0261170144988" flag="0"/>
			<psa03 value="0.117988347399046" flag="0"/>
			<psa10 value="0.0334029940344285" flag="0"/>
			<psa30 value="0.00300484593129376" flag="0"/>
		</comp>
		<comp name=".HNZ" depth="0.0">
			<acc value="0.018840846355206" flag="0"/>
			<vel value="0.0102336717443" flag="0"/>
			<psa03 value="0.0394790606065339" flag="0"/>
			<psa10 value="0.00933896991093547" flag="0"/>
			<psa30 value="0.00141613620790921" flag="0"/>
		</comp>
	</station>
	<station code="MYT1" name="MYT1" netid="HI" source="ITSAK Strong Motion Network" insttype="" lat="39.085" lon="26.5694">
		<comp name=".HNE" depth="0.0">
			<acc value="0.0048352710962616" flag="0"/>
			<vel value="0.00778766508048" flag="0"/>
			<psa03 value="0.011913974138132" flag="0"/>
			<psa10 value="0.0131803953240157" flag="0"/>
			<psa30 value="0.00162122375228235" flag="0"/>
		</comp>
		<comp name=".HNN" depth="0.0">
			<acc value="0.004505094754362" flag="0"/>
			<vel value="0.00594609197778" flag="0"/>
