<?xml version="1.0" encoding="UTF-8" standalone="yes"?>
<!DOCTYPE earthquake SYSTEM "stationlist.dtd">
<stationlist created="" xmlns="ch.ethz.sed.shakemap.usgs.xml">
  <station code="AMRR" name="AMRR" netid="RO" insttype="330" lat="44.6102" lon="27.3351">
    <comp name="--.HHZ">
      <acc value="0.3260853070" flag="0"/>
      <vel value="0.0802064659" flag="0"/>
      <psa03 value="0.2336530831" flag="0"/>
      <psa10 value="0.0527074334" flag="0"/>
      <psa30 value="0.0092732817" flag="0"/>
    </comp>
    <comp name="--.HHN">
      <acc value="0.4133455549" flag="0"/>
      <vel value="0.2015228605" flag="0"/>
      <psa03 value="0.6044792907" flag="0"/>
      <psa10 value="0.1276844048" flag="0"/>
      <psa30 value="0.0321529275" flag="0"/>
    </comp>
    <comp name="--.HHE">
      <acc value="0.3700830533" flag="0"/>
      <vel value="0.1778385460" flag="0"/>
      <psa03 value="0.7367526150" flag="0"/>
      <psa10 value="0.1950966593" flag="0"/>
      <psa30 value="0.0108465290" flag="0"/>
    </comp>
  </station>
  <station code="ARR" name="ARR" netid="RO" insttype="w/attenuator" lat="45.3657" lon="24.6332">
    <comp name="--.HHE">
      <acc value="0.0494422635" flag="0"/>
      <vel value="0.0303609850" flag="0"/>
      <psa03 value="0.1266547904" flag="0"/>
      <psa10 value="0.0271520261" flag="0"/>
      <psa30 value="0.0021239181" flag="0"/>
    </comp>
    <comp name="--.HHZ">
      <acc value="0.0280608309" flag="0"/>
      <vel value="0.0168681957" flag="0"/>
      <psa03 value="0.0799546103" flag="0"/>
      <psa10 value="0.0181973839" flag="0"/>
      <psa30 value="0.0024035617" flag="0"/>
    </comp>
    <comp name="--.HHN">
      <acc value="0.0412861111" flag="0"/>
      <vel value="0.0189586430" flag="0"/>
      <psa03 value="0.1772553413" flag="0"/>
      <psa10 value="0.0136399148" flag="0"/>
      <psa30 value="0.0044960600" flag="0"/>
    </comp>
  </station>
  <station code="BAC" name="BAC" netid="RO" insttype="2.5V" lat="46.5669" lon="26.9124">
    <comp name="--.HNE">
      <acc value="0.2322585648" flag="0"/>
      <vel value="0.1080479542" flag="0"/>
      <psa03 value="0.2754440132" flag="0"/>
      <psa10 value="0.1635313178" flag="0"/>
      <psa30 value="0.0096537884" flag="0"/>
    </comp>
    <comp name="--.HNN">
      <acc value="0.3249917136" flag="0"/>
      <vel value="0.2168220392" flag="0"/>
      <psa03 value="0.5435285774" flag="0"/>
      <psa10 value="0.1553637057" flag="0"/>
      <psa30 value="0.0171520510" flag="0"/>
    </comp>
    <comp name="--.HNZ">
      <acc value="0.2208867038" flag="0"/>
      <vel value="0.0511551964" flag="0"/>
      <psa03 value="0.1166784482" flag="0"/>
      <psa10 value="0.0582286624" flag="0"/>
      <psa30 value="0.0050811273" flag="0"/>
    </comp>
  </station>
  <station code="BAPR" name="BAPR" netid="RO" insttype="2.5V" lat="44.4059" lon="26.119">
    <comp name="--.HNZ">
      <acc value="0.2095203483" flag="0"/>
      <vel value="0.0610271225" flag="0"/>
      <psa03 value="0.1895705834" flag="0"/>
      <psa10 value="0.0293874391" flag="0"/>
      <psa30 value="0.0064508963" flag="0"/>
    </comp>
    <comp name="--.HNE">
      <acc value="0.3132435735" flag="0"/>
      <vel value="0.1515883492" flag="0"/>
      <psa03 value="0.6501319295" flag="0"/>
      <psa10 value="0.1158976711" flag="0"/>
      <psa30 value="0.0092415820" flag="0"/>
    </comp>
    <comp name="--.HNN">
      <acc value="0.2598125241" flag="0"/>
      <vel value="0.1806179389" flag="0"/>
      <psa03 value="0.6104457005" flag="0"/>
      <psa10 value="0.0943372559" flag="0"/>
      <psa30 value="0.0228911333" flag="0"/>
    </comp>
  </station>
  <station code="BIR" name="BIR" netid="RO" insttype="MBB2/Quanterra" lat="46.2334" lon="27.6436">
    <comp name="--.HHE">
      <acc value="1.8214651226" flag="0"/>
      <vel value="0.7742003611" flag="0"/>
      <psa03 value="1.5500832713" flag="0"/>
      <psa10 value="0.7631709824" flag="0"/>
      <psa30 value="0.0529196716" flag="0"/>
    </comp>
    <comp name="--.HHZ">
      <acc value="1.1952505985" flag="0"/>
      <vel value="0.2307357538" flag="0"/>
      <psa03 value="1.1976272466" flag="0"/>
      <psa10 value="0.2599669177" flag="0"/>
      <psa30 value="0.0109558180" flag="0"/>
    </comp>
    <comp name="--.HHN">
      <acc value="1.3112287918" flag="0"/>
      <vel value="0.8491974035" flag="0"/>
      <psa03 value="1.8833323885" flag="0"/>
      <psa10 value="1.0421299368" flag="0"/>
      <psa30 value="0.0704145462" flag="0"/>
    </comp>
  </station>
  <station code="BISRR" name="BISRR" netid="RO" insttype="CMG40T.1to100/Basalt" lat="45.5481" lon="26.7099">
    <comp name="--.HHZ">
      <acc value="0.9324069193" flag="0"/>
      <vel value="0.2092955554" flag="0"/>
      <psa03 value="1.1574277002" flag="0"/>
      <psa10 value="0.1916186807" flag="0"/>
      <psa30 value="0.0193711971" flag="0"/>
    </comp>
    <comp name="--.HHE">
      <acc value="0.9303640486" flag="0"/>
      <vel value="0.4762620338" flag="0"/>
      <psa03 value="2.0204442737" flag="0"/>
      <psa10 value="0.5050440942" flag="0"/>
      <psa30 value="0.0648412538" flag="0"/>
    </comp>
    <comp name="--.HHN">
      <acc value="0.5348545118" flag="0"/>
      <vel value="0.4050578400" flag="0"/>
      <psa03 value="1.4572324577" flag="0"/>
      <psa10 value="0.3822136335" flag="0"/>
      <psa30 value="0.0471005810" flag="0"/>
    </comp>
  </station>
  <station code="BIZ" name="BIZ" netid="RO" insttype="PBB.1to100/Quanterra" lat="46.9387" lon="26.1029">
    <comp name="--.HHE">
      <acc value="0.1556167669" flag="0"/>
      <vel value="0.0281607428" flag="0"/>
      <psa03 value="0.0532110279" flag="0"/>
      <psa10 value="0.0191840165" flag="0"/>
      <psa30 value="0.0028475533" flag="0"/>
    </comp>
    <comp name="--.HHZ">
      <acc value="0.0000059019" flag="0"/>
      <vel value="0.0000006157" flag="0"/>
      <psa03 value="0.0000017948" flag="0"/>
      <psa10 value="0.0000002833" flag="0"/>
      <psa30 value="0.0000000670" flag="0"/>
    </comp>
    <comp name="--.HHN">
      <acc value="0.0569951611" flag="0"/>
      <vel value="0.0967872034" flag="0"/>
      <psa03 value="0.0784911352" flag="0"/>
      <psa10 value="0.1093345112" flag="0"/>
      <psa30 value="0.0269916346" flag="0"/>
    </comp>
  </station>
  <station code="BOSR" name="BOSR" netid="RO" insttype="Seismometer/Basalt" lat="46.0749" lon="25.6611">
    <comp name="--.HHE">
      <acc value="0.1656513260" flag="0"/>
      <vel value="0.1645531900" flag="0"/>
      <psa03 value="0.3530403933" flag="0"/>
      <psa10 value="0.1083949512" flag="0"/>
      <psa30 value="0.0239860283" flag="0"/>
    </comp>
    <comp name="--.HHN">
      <acc value="0.1619462255" flag="0"/>
      <vel value="0.1071805560" flag="0"/>
      <psa03 value="0.2729510021" flag="0"/>
      <psa10 value="0.0794596872" flag="0"/>
      <psa30 value="0.0127638279" flag="0"/>
    </comp>
    <comp name="--.HHZ">
      <acc value="0.1016113476" flag="0"/>
      <vel value="0.0589454231" flag="0"/>
      <psa03 value="0.1857140290" flag="0"/>
      <psa10 value="0.0450459339" flag="0"/>
      <psa30 value="0.0087328265" flag="0"/>
    </comp>
  </station>
  <station code="BSTR" name="BSTR" netid="RO" insttype="2.5V" lat="44.4458" lon="26.0984">
    <comp name="--.HNE">
      <acc value="0.3959119132" flag="0"/>
      <vel value="0.1709656124" flag="0"/>
      <psa03 value="0.9420131484" flag="0"/>
      <psa10 value="0.1001636478" flag="0"/>
      <psa30 value="0.0068973031" flag="0"/>
    </comp>
    <comp name="--.HNN">
      <acc value="0.2993132315" flag="0"/>
      <vel value="0.2060521081" flag="0"/>
      <psa03 value="0.9715456914" flag="0"/>
      <psa10 value="0.1316265073" flag="0"/>
      <psa30 value="0.0237537651" flag="0"/>
    </comp>
    <comp name="--.HNZ">
      <acc value="0.3154448538" flag="0"/>
      <vel value="0.0687534486" flag="0"/>
      <psa03 value="0.5365167994" flag="0"/>
      <psa10 value="0.0305525046" flag="0"/>
      <psa30 value="0.0046988406" flag="0"/>
    </comp>
  </station>
  <station code="BUC" name="BUC" netid="RO" insttype="200" lat="44.4107" lon="26.0938">
    <comp name="--.HNE">
      <acc value="0.3200644810" flag="0"/>
      <vel value="0.2464912198" flag="0"/>
      <psa03 value="1.1412885499" flag="0"/>
      <psa10 value="0.1267226933" flag="0"/>
      <psa30 value="0.0094403903" flag="0"/>
    </comp>
    <comp name="--.HNZ">
      <acc value="0.1878757148" flag="0"/>
      <vel value="0.0584294011" flag="0"/>
      <psa03 value="0.2994814051" flag="0"/>
      <psa10 value="0.0298206573" flag="0"/>
      <psa30 value="0.0058126721" flag="0"/>
    </comp>
    <comp name="--.HNN">
      <acc value="0.2939367802" flag="0"/>
      <vel value="0.2103186617" flag="0"/>
      <psa03 value="0.6826870024" flag="0"/>
      <psa10 value="0.1178972982" flag="0"/>
      <psa30 value="0.0241790238" flag="0"/>
    </comp>
  </station>
  <station code="BUC1" name="BUC1" netid="RO" insttype="and" lat="44.3479" lon="26.0281">
    <comp name="--.HHE">
      <acc value="0.6987518387" flag="0"/>
      <vel value="0.4003232252" flag="0"/>
      <psa03 value="1.7751853301" flag="0"/>
      <psa10 value="0.2227383886" flag="0"/>
      <psa30 value="0.0178075015" flag="0"/>
    </comp>
    <comp name="--.HHZ">
      <acc value="0.3513927928" flag="0"/>
      <vel value="0.0808029161" flag="0"/>
      <psa03 value="0.3281828471" flag="0"/>
      <psa10 value="0.0459352164" flag="0"/>
      <psa30 value="0.0044660949" flag="0"/>
    </comp>
    <comp name="--.HHN">
      <acc value="0.3873458737" flag="0"/>
      <vel value="0.2153734724" flag="0"/>
      <psa03 value="0.7138971568" flag="0"/>
      <psa10 value="0.1849130373" flag="0"/>
      <psa30 value="0.0283694448" flag="0"/>
    </comp>
  </station>
  <station code="CFR" name="CFR" netid="RO" insttype="CMG3T_100sec/Quanterra" lat="45.178" lon="28.1362">
    <comp name="--.HHE">
      <acc value="1.0095146894" flag="0"/>
      <vel value="0.2235835574" flag="0"/>
      <psa03 value="0.4723321611" flag="0"/>
      <psa10 value="0.0891673110" flag="0"/>
      <psa30 value="0.0069087843" flag="0"/>
    </comp>
    <comp name="--.HHN">
      <acc value="1.1940440175" flag="0"/>
      <vel value="0.2133337563" flag="0"/>
      <psa03 value="0.4529540480" flag="0"/>
      <psa10 value="0.0805818584" flag="0"/>
      <psa30 value="0.0090987550" flag="0"/>
    </comp>
    <comp name="--.HHZ">
      <acc value="0.5595612064" flag="0"/>
      <vel value="0.0954945937" flag="0"/>
      <psa03 value="0.2445187200" flag="0"/>
      <psa10 value="0.0455133284" flag="0"/>
      <psa30 value="0.0058923568" flag="0"/>
    </comp>
  </station>
  <station code="CIOR" name="CIOR" netid="RO" insttype="200" lat="44.4489" lon="25.8799">
    <comp name="--.HNE">
      <acc value="0.4767223599" flag="0"/>
      <vel value="0.2308012122" flag="0"/>
      <psa03 value="1.0881334166" flag="0"/>
      <psa10 value="0.1765335850" flag="0"/>
      <psa30 value="0.0084363497" flag="0"/>
    </comp>
    <comp name="--.HNN">
      <acc value="0.6514846920" flag="0"/>
      <vel value="0.2174492838" flag="0"/>
      <psa03 value="1.2672422764" flag="0"/>
      <psa10 value="0.1243971882" flag="0"/>
      <psa30 value="0.0231894272" flag="0"/>
    </comp>
    <comp name="--.HNZ">
      <acc value="0.2546271353" flag="0"/>
      <vel value="0.0500978193" flag="0"/>
      <psa03 value="0.1655390172" flag="0"/>
      <psa10 value="0.0249802233" flag="0"/>
      <psa30 value="0.0026438839" flag="0"/>
    </comp>
  </station>
  <station code="CLISU" name="CLISU" netid="RO" insttype="2.5V" lat="44.1901" lon="27.3557">
    <comp name="--.HNE">
      <acc value="0.1466888076" flag="0"/>
      <vel value="0.0257603365" flag="0"/>
      <psa03 value="0.0681973650" flag="0"/>
      <psa10 value="0.0188029693" flag="0"/>
      <psa30 value="0.0007446052" flag="0"/>
    </comp>
    <comp name="--.HNZ">
      <acc value="0.2562410753" flag="0"/>
      <vel value="0.0775186106" flag="0"/>
      <psa03 value="0.2412974173" flag="0"/>
      <psa10 value="0.0597264843" flag="0"/>
      <psa30 value="0.0040593266" flag="0"/>
    </comp>
    <comp name="--.HNN">
      <acc value="0.2481925454" flag="0"/>
      <vel value="0.2263113767" flag="0"/>
      <psa03 value="0.5817052721" flag="0"/>
      <psa10 value="0.2630592951" flag="0"/>
      <psa30 value="0.0182966478" flag="0"/>
    </comp>
  </station>
  <station code="COPR" name="COPR" netid="RO" insttype="200" lat="45.8442" lon="26.1687">
    <comp name="--.HNZ">
      <acc value="0.0985102138" flag="0"/>
      <vel value="0.0770205808" flag="0"/>
      <psa03 value="0.2377683208" flag="0"/>
      <psa10 value="0.0763532352" flag="0"/>
      <psa30 value="0.0109651388" flag="0"/>
    </comp>
    <comp name="--.HNE">
      <acc value="0.2228767629" flag="0"/>
      <vel value="0.2223701032" flag="0"/>
      <psa03 value="0.7486601794" flag="0"/>
      <psa10 value="0.3328265086" flag="0"/>
      <psa30 value="0.0242104843" flag="0"/>
    </comp>
    <comp name="--.HNN">
      <acc value="0.2608886909" flag="0"/>
      <vel value="0.1826663039" flag="0"/>
      <psa03 value="0.6394069122" flag="0"/>
      <psa10 value="0.1368259659" flag="0"/>
      <psa30 value="0.0125701212" flag="0"/>
    </comp>
  </station>
  <station code="DOPR" name="DOPR" netid="RO" insttype="330" lat="45.9675" lon="25.3886">
    <comp name="--.HHE">
      <acc value="0.1215498052" flag="0"/>
      <vel value="0.0474090270" flag="0"/>
      <psa03 value="0.1645037859" flag="0"/>
      <psa10 value="0.0448456596" flag="0"/>
      <psa30 value="0.0131193491" flag="0"/>
    </comp>
    <comp name="--.HHN">
      <acc value="0.0881072488" flag="0"/>
      <vel value="0.0503788398" flag="0"/>
      <psa03 value="0.2099472010" flag="0"/>
      <psa10 value="0.0239302449" flag="0"/>
      <psa30 value="0.0118032964" flag="0"/>
    </comp>
    <comp name="--.HHZ">
      <acc value="0.0699774531" flag="0"/>
      <vel value="0.0244857249" flag="0"/>
      <psa03 value="0.0728292712" flag="0"/>
      <psa10 value="0.0136279590" flag="0"/>
      <psa30 value="0.0060759497" flag="0"/>
    </comp>
  </station>
  <station code="GIRR" name="GIRR" netid="RO" insttype="CMG40T.1to100/Quanterra" lat="46.9551" lon="26.5009">
    <comp name="--.HHN">
      <acc value="0.1252397615" flag="0"/>
      <vel value="0.0647039864" flag="0"/>
      <psa03 value="0.1507106752" flag="0"/>
      <psa10 value="0.0469362478" flag="0"/>
      <psa30 value="0.0030614245" flag="0"/>
    </comp>
    <comp name="--.HHE">
      <acc value="0.1277363683" flag="0"/>
      <vel value="0.0414374457" flag="0"/>
      <psa03 value="0.1646850676" flag="0"/>
      <psa10 value="0.0502317452" flag="0"/>
      <psa30 value="0.0028969536" flag="0"/>
    </comp>
    <comp name="--.HHZ">
      <acc value="0.0984151840" flag="0"/>
      <vel value="0.0210272599" flag="0"/>
      <psa03 value="0.0885818428" flag="0"/>
      <psa10 value="0.0219974312" flag="0"/>
      <psa30 value="0.0009493006" flag="0"/>
    </comp>
  </station>
  <station code="GISR" name="GISR" netid="RO" insttype="2.5V" lat="45.4411" lon="28.0541">
    <comp name="--.HNE">
      <acc value="1.4526112725" flag="0"/>
      <vel value="0.5861938574" flag="0"/>
      <psa03 value="1.0747181624" flag="0"/>
      <psa10 value="0.7867921515" flag="0"/>
      <psa30 value="0.0838294757" flag="0"/>
    </comp>
    <comp name="--.HNN">
      <acc value="1.0183778292" flag="0"/>
      <vel value="0.3928637695" flag="0"/>
      <psa03 value="1.2431560558" flag="0"/>
      <psa10 value="0.6176229280" flag="0"/>
      <psa30 value="0.0706444577" flag="0"/>
    </comp>
    <comp name="--.HNZ">
      <acc value="0.9244240965" flag="0"/>
      <vel value="0.2179080705" flag="0"/>
      <psa03 value="0.6253324192" flag="0"/>
      <psa10 value="0.2309239881" flag="0"/>
      <psa30 value="0.0156826241" flag="0"/>
    </comp>
  </station>
  <station code="HARR" name="HARR" netid="RO" insttype="MBB2/Quanterra" lat="44.6893" lon="27.9303">
    <comp name="--.HHE">
      <acc value="0.3457166346" flag="0"/>
      <vel value="0.2865399067" flag="0"/>
      <psa03 value="0.4048071211" flag="0"/>
      <psa10 value="0.1814136552" flag="0"/>
      <psa30 value="0.0188657967" flag="0"/>
    </comp>
    <comp name="--.HHN">
      <acc value="0.4160159165" flag="0"/>
      <vel value="0.2852185450" flag="0"/>
      <psa03 value="0.5853939773" flag="0"/>
      <psa10 value="0.1773998316" flag="0"/>
      <psa30 value="0.0145619789" flag="0"/>
    </comp>
    <comp name="--.HHZ">
      <acc value="0.2985754350" flag="0"/>
      <vel value="0.0996188678" flag="0"/>
      <psa03 value="0.3146487780" flag="0"/>
      <psa10 value="0.0622414318" flag="0"/>
      <psa30 value="0.0076448953" flag="0"/>
    </comp>
  </station>
  <station code="HUMR" name="HUMR" netid="RO" insttype="Seismometer/Quanterra" lat="44.5281" lon="24.9804">
    <comp name="--.HHE">
      <acc value="0.0001847177" flag="0"/>
      <vel value="0.0000624728" flag="0"/>
      <psa03 value="0.0000975136" flag="0"/>
      <psa10 value="0.0000296941" flag="0"/>
      <psa30 value="0.0000147193" flag="0"/>
    </comp>
    <comp name="--.HHN">
      <acc value="0.0001494315" flag="0"/>
      <vel value="0.0000759726" flag="0"/>
      <psa03 value="0.0000663895" flag="0"/>
      <psa10 value="0.0000567656" flag="0"/>
      <psa30 value="0.0000284205" flag="0"/>
    </comp>
    <comp name="--.HHZ">
      <acc value="0.3764084925" flag="0"/>
      <vel value="0.0718740122" flag="0"/>
      <psa03 value="0.3268011397" flag="0"/>
      <psa10 value="0.0146358229" flag="0"/>
      <psa30 value="0.0018841619" flag="0"/>
    </comp>
  </station>
  <station code="INCR" name="INCR" netid="RO" insttype="200" lat="44.441" lon="26.1611">
    <comp name="--.HNZ">
      <acc value="0.3950900542" flag="0"/>
      <vel value="0.0665245997" flag="0"/>
      <psa03 value="0.3149736571" flag="0"/>
      <psa10 value="0.0262560561" flag="0"/>
      <psa30 value="0.0039084908" flag="0"/>
    </comp>
    <comp name="--.HNE">
      <acc value="0.2590758019" flag="0"/>
      <vel value="0.1253355806" flag="0"/>
      <psa03 value="0.8383639791" flag="0"/>
      <psa10 value="0.0610169834" flag="0"/>
      <psa30 value="0.0084368244" flag="0"/>
    </comp>
    <comp name="--.HNN">
      <acc value="0.2956109174" flag="0"/>
      <vel value="0.1983882845" flag="0"/>
      <psa03 value="0.4752646293" flag="0"/>
      <psa10 value="0.1265179214" flag="0"/>
      <psa30 value="0.0270259759" flag="0"/>
    </comp>
  </station>
  <station code="ISR" name="ISR" netid="RO" insttype="CMG3ESP/Quanterra" lat="45.1187" lon="26.5432">
    <comp name="--.HHE">
      <acc value="0.2527460963" flag="0"/>
      <vel value="0.1076570498" flag="0"/>
      <psa03 value="0.5539214916" flag="0"/>
      <psa10 value="0.1196315352" flag="0"/>
      <psa30 value="0.0202961557" flag="0"/>
    </comp>
    <comp name="--.HHZ">
      <acc value="0.1268685010" flag="0"/>
      <vel value="0.0619215134" flag="0"/>
      <psa03 value="0.2214480985" flag="0"/>
      <psa10 value="0.0758457147" flag="0"/>
      <psa30 value="0.0095302203" flag="0"/>
    </comp>
    <comp name="--.HHN">
      <acc value="0.2468004865" flag="0"/>
      <vel value="0.1060959637" flag="0"/>
      <psa03 value="0.5221681453" flag="0"/>
      <psa10 value="0.1466526454" flag="0"/>
      <psa30 value="0.0256097367" flag="0"/>
    </comp>
  </station>
  <station code="IZVR" name="IZVR" netid="RO" insttype="CMG40T.1to100/Quanterra" lat="45.5442" lon="27.7655">
    <comp name="--.HHZ">
      <acc value="0.5531486609" flag="0"/>
      <vel value="0.0930439477" flag="0"/>
      <psa03 value="0.2245396510" flag="0"/>
      <psa10 value="0.0456969294" flag="0"/>
      <psa30 value="0.0047263142" flag="0"/>
    </comp>
    <comp name="--.HHN">
