<?xml version="1.0" encoding="UTF-8" standalone="yes"?>
<!DOCTYPE earthquake SYSTEM "stationlist.dtd">
<stationlist created="" xmlns="ch.ethz.sed.shakemap.usgs.xml">
  <station code="KBN" name="KBN" netid="AC" insttype="" lat="40.6236" lon="20.7874">
    <comp name="--.HHN">
      <acc value="0.1832482573" flag="0"/>
      <vel value="0.0554747509" flag="0"/>
      <psa03 value="0.3211584751" flag="0"/>
      <psa10 value="0.0315789706" flag="0"/>
      <psa30 value="0.0019375245" flag="0"/>
    </comp>
    <comp name="--.HHZ">
      <acc value="0.1655344576" flag="0"/>
      <vel value="0.0343251779" flag="0"/>
      <psa03 value="0.1841648769" flag="0"/>
      <psa10 value="0.0176914634" flag="0"/>
      <psa30 value="0.0011063716" flag="0"/>
    </comp>
    <comp name="--.HHE">
      <acc value="0.2046754466" flag="0"/>
      <vel value="0.0515028017" flag="0"/>
      <psa03 value="0.1594658854" flag="0"/>
      <psa10 value="0.0191310336" flag="0"/>
      <psa30 value="0.0019102490" flag="0"/>
    </comp>
  </station>
  <station code="PHP" name="PHP" netid="AC" insttype="" lat="41.6847" lon="20.4408">
    <comp name="--.HHN">
      <acc value="0.0168305262" flag="0"/>
      <vel value="0.0104505084" flag="0"/>
      <psa03 value="0.0412676758" flag="0"/>
      <psa10 value="0.0088375642" flag="0"/>
      <psa30 value="0.0013272265" flag="0"/>
    </comp>
    <comp name="--.HHZ">
      <acc value="0.0120203105" flag="0"/>
      <vel value="0.0087206958" flag="0"/>
      <psa03 value="0.0376740179" flag="0"/>
      <psa10 value="0.0113549594" flag="0"/>
      <psa30 value="0.0008180605" flag="0"/>
    </comp>
    <comp name="--.HHE">
      <acc value="0.1002198754" flag="0"/>
      <vel value="0.0156684821" flag="0"/>
      <psa03 value="0.0797710418" flag="0"/>
      <psa10 value="0.0243923720" flag="0"/>
      <psa30 value="0.0019811769" flag="0"/>
    </comp>
  </station>
  <station code="LMS2" name="LMS2" netid="HI" insttype="CMG-5TD,ACCELEROMETER,GURALP" lat="40.835" lon="21.1418">
    <comp name="--.HNE">
      <acc value="2.1024283303" flag="0"/>
      <vel value="0.9743156610" flag="0"/>
      <psa03 value="3.5873914330" flag="0"/>
      <psa10 value="0.4018793687" flag="0"/>
      <psa30 value="0.0335751751" flag="0"/>
    </comp>
    <comp name="--.HNN">
      <acc value="2.7714321394" flag="0"/>
      <vel value="0.6859794471" flag="0"/>
      <psa03 value="2.0318519452" flag="0"/>
      <psa10 value="0.1555946930" flag="0"/>
      <psa30 value="0.0122329648" flag="0"/>
    </comp>
    <comp name="--.HNZ">
      <acc value="0.7852332741" flag="0"/>
      <vel value="0.2585938265" flag="0"/>
      <psa03 value="0.8181744293" flag="0"/>
      <psa10 value="0.1933241509" flag="0"/>
      <psa30 value="0.0173786366" flag="0"/>
    </comp>
  </station>
  <station code="KZN" name="KZN" netid="HL" insttype="120" lat="40.3033" lon="21.7821">
    <comp name="--.HHZ">
      <acc value="0.0547741224" flag="0"/>
      <vel value="0.0271147490" flag="0"/>
      <psa03 value="0.1519238609" flag="0"/>
      <psa10 value="0.0181061086" flag="0"/>
      <psa30 value="0.0014325640" flag="0"/>
    </comp>
    <comp name="--.HHE">
      <acc value="0.0810529445" flag="0"/>
      <vel value="0.0424162759" flag="0"/>
      <psa03 value="0.2746638069" flag="0"/>
      <psa10 value="0.0218380745" flag="0"/>
      <psa30 value="0.0018597383" flag="0"/>
    </comp>
    <comp name="--.HHN">
      <acc value="0.1152501123" flag="0"/>
      <vel value="0.0530252290" flag="0"/>
      <psa03 value="0.4322868549" flag="0"/>
      <psa10 value="0.0216171274" flag="0"/>
      <psa30 value="0.0015581662" flag="0"/>
    </comp>
  </station>
  <station code="PENT" name="PENT" netid="HL" insttype="30s-100Hz," lat="40.1959" lon="21.1384">
    <comp name="--.HHE">
      <acc value="0.0215046697" flag="0"/>
      <vel value="0.0109181133" flag="0"/>
      <psa03 value="0.0554074359" flag="0"/>
      <psa10 value="0.0143286722" flag="0"/>
      <psa30 value="0.0016893578" flag="0"/>
    </comp>
    <comp name="--.HHZ">
      <acc value="0.0189140118" flag="0"/>
      <vel value="0.0117915447" flag="0"/>
      <psa03 value="0.0583474763" flag="0"/>
      <psa10 value="0.0130664080" flag="0"/>
      <psa30 value="0.0011419126" flag="0"/>
    </comp>
    <comp name="--.HHN">
      <acc value="0.0328427280" flag="0"/>
      <vel value="0.0145254592" flag="0"/>
      <psa03 value="0.0497264740" flag="0"/>
      <psa10 value="0.0248183185" flag="0"/>
      <psa30 value="0.0008191106" flag="0"/>
    </comp>
  </station>
  <station code="GRG" name="GRG" netid="HT" insttype="100" lat="40.957" lon="22.401">
    <comp name="--.HHZ">
      <acc value="0.0332640147" flag="0"/>
      <vel value="0.0167449524" flag="0"/>
      <psa03 value="0.0593116844" flag="0"/>
      <psa10 value="0.0208136972" flag="0"/>
      <psa30 value="0.0030411986" flag="0"/>
    </comp>
    <comp name="--.HHN">
      <acc value="0.0789775105" flag="0"/>
      <vel value="0.0315037415" flag="0"/>
      <psa03 value="0.1008134501" flag="0"/>
      <psa10 value="0.0409634623" flag="0"/>
      <psa30 value="0.0058068371" flag="0"/>
    </comp>
    <comp name="--.HHE">
      <acc value="0.0963622839" flag="0"/>
      <vel value="0.0346790054" flag="0"/>
      <psa03 value="0.1017291867" flag="0"/>
      <psa10 value="0.0323378737" flag="0"/>
      <psa30 value="0.0060264494" flag="0"/>
    </comp>
  </station>
  <station code="KNT" name="KNT" netid="HT" insttype="100" lat="41.162" lon="22.898">
    <comp name="--.HHN">
      <acc value="0.0105217520" flag="0"/>
      <vel value="0.0070662546" flag="0"/>
      <psa03 value="0.0332971713" flag="0"/>
      <psa10 value="0.0109167386" flag="0"/>
      <psa30 value="0.0007324828" flag="0"/>
    </comp>
    <comp name="--.HHZ">
      <acc value="0.0072488559" flag="0"/>
      <vel value="0.0052674012" flag="0"/>
      <psa03 value="0.0253243173" flag="0"/>
      <psa10 value="0.0059660160" flag="0"/>
      <psa30 value="0.0008623035" flag="0"/>
    </comp>
    <comp name="--.HHE">
      <acc value="0.0070017199" flag="0"/>
      <vel value="0.0028689850" flag="0"/>
      <psa03 value="0.0080834393" flag="0"/>
      <psa10 value="0.0028961614" flag="0"/>
      <psa30 value="0.0006158785" flag="0"/>
    </comp>
  </station>
  <station code="KPRO" name="KPRO" netid="HT" insttype="100" lat="39.9549" lon="21.3632">
    <comp name="--.HHN">
      <acc value="0.0280683960" flag="0"/>
      <vel value="0.0177573161" flag="0"/>
      <psa03 value="0.0786795065" flag="0"/>
      <psa10 value="0.0332416438" flag="0"/>
      <psa30 value="0.0029265584" flag="0"/>
    </comp>
    <comp name="--.HHE">
      <acc value="0.0275631856" flag="0"/>
      <vel value="0.0155059144" flag="0"/>
      <psa03 value="0.0719689248" flag="0"/>
      <psa10 value="0.0182001808" flag="0"/>
      <psa30 value="0.0030248511" flag="0"/>
    </comp>
    <comp name="--.HHZ">
      <acc value="0.0142525191" flag="0"/>
      <vel value="0.0088445407" flag="0"/>
      <psa03 value="0.0410917245" flag="0"/>
      <psa10 value="0.0152106067" flag="0"/>
      <psa30 value="0.0010023372" flag="0"/>
    </comp>
  </station>
  <station code="LIT" name="LIT" netid="HT" insttype="100" lat="40.1033" lon="22.4892">
    <comp name="--.HHZ">
      <acc value="0.0119082787" flag="0"/>
      <vel value="0.0081286263" flag="0"/>
      <psa03 value="0.0265753931" flag="0"/>
      <psa10 value="0.0097044835" flag="0"/>
      <psa30 value="0.0013040116" flag="0"/>
    </comp>
    <comp name="--.HHE">
      <acc value="0.0187330034" flag="0"/>
      <vel value="0.0094191052" flag="0"/>
      <psa03 value="0.0507627196" flag="0"/>
      <psa10 value="0.0110949211" flag="0"/>
      <psa30 value="0.0011725411" flag="0"/>
    </comp>
    <comp name="--.HHN">
      <acc value="0.0185127343" flag="0"/>
      <vel value="0.0146360468" flag="0"/>
      <psa03 value="0.0540683758" flag="0"/>
      <psa10 value="0.0167840280" flag="0"/>
      <psa30 value="0.0015695237" flag="0"/>
    </comp>
  </station>
  <station code="NEST" name="NEST" netid="HT" insttype="120P," lat="40.4147" lon="21.0489">
    <comp name="--.HHE">
      <acc value="0.2327888987" flag="0"/>
      <vel value="0.0930489149" flag="0"/>
      <psa03 value="0.5756588027" flag="0"/>
      <psa10 value="0.0286845585" flag="0"/>
      <psa30 value="0.0026486831" flag="0"/>
    </comp>
    <comp name="--.HHN">
      <acc value="0.1414122100" flag="0"/>
      <vel value="0.0408755082" flag="0"/>
      <psa03 value="0.1778485755" flag="0"/>
      <psa10 value="0.0265162844" flag="0"/>
      <psa30 value="0.0015589513" flag="0"/>
    </comp>
    <comp name="--.HHZ">
      <acc value="0.2020541252" flag="0"/>
      <vel value="0.0498059813" flag="0"/>
      <psa03 value="0.3142250489" flag="0"/>
      <psa10 value="0.0237216083" flag="0"/>
      <psa30 value="0.0015475179" flag="0"/>
    </comp>
  </station>
  <station code="TYRN" name="TYRN" netid="HT" insttype="120P," lat="39.711" lon="22.2325">
    <comp name="--.HHN">
      <acc value="0.0074507060" flag="0"/>
      <vel value="0.0082063400" flag="0"/>
      <psa03 value="0.0165654624" flag="0"/>
      <psa10 value="0.0107072101" flag="0"/>
      <psa30 value="0.0013052527" flag="0"/>
    </comp>
    <comp name="--.HHZ">
      <acc value="0.0052182099" flag="0"/>
      <vel value="0.0056306523" flag="0"/>
      <psa03 value="0.0144686371" flag="0"/>
      <psa10 value="0.0099246129" flag="0"/>
      <psa30 value="0.0012603243" flag="0"/>
    </comp>
    <comp name="--.HHE">
      <acc value="0.0083780743" flag="0"/>
      <vel value="0.0072465355" flag="0"/>
      <psa03 value="0.0270543342" flag="0"/>
      <psa10 value="0.0078009913" flag="0"/>
      <psa30 value="0.0010502302" flag="0"/>
    </comp>
  </station>
</stationlist>
