<stationlist created="1775820679">
	<station code="E02" name="E02" netid="EG" source="EUROSEISTEST Strong Motion Network" insttype="" lat="40.674206" lon="23.315498">
		<comp name="--.EN1" depth="0.0">
			<acc value="0.0167841497664849" flag="0"/>
			<vel value="0.0173799722019009" flag="0"/>
			<psa03 value="0.0371364548995391" flag="0"/>
			<psa10 value="0.0296915944223988" flag="0"/>
			<psa30 value="0.00187318804784985" flag="0"/>
		</comp>
		<comp name="--.EN2" depth="0.0">
			<acc value="0.0202171601261762" flag="0"/>
			<vel value="0.0176080377533785" flag="0"/>
			<psa03 value="0.0450041167183124" flag="0"/>
			<psa10 value="0.0271257269462947" flag="0"/>
			<psa30 value="0.00154851851925148" flag="0"/>
		</comp>
		<comp name="--.EN3" depth="0.0">
			<acc value="0.00881203750691913" flag="0"/>
			<vel value="0.00876411750757291" flag="0"/>
			<psa03 value="0.0166677656160101" flag="0"/>
			<psa10 value="0.0177336722687688" flag="0"/>
			<psa30 value="0.00089699598408162" flag="0"/>
		</comp>
	</station>
	<station code="E03" name="E03" netid="EG" source="EUROSEISTEST Strong Motion Network" insttype="" lat="40.676239" lon="23.324046">
		<comp name="--.EN1" depth="0.0">
			<acc value="0.0134494869130967" flag="0"/>
			<vel value="0.0158489756068906" flag="0"/>
			<psa03 value="0.0293933872718066" flag="0"/>
			<psa10 value="0.0261211047700135" flag="0"/>
			<psa30 value="0.00151192557431766" flag="0"/>
		</comp>
		<comp name="--.EN2" depth="0.0">
			<acc value="0.0120136638726229" flag="0"/>
			<vel value="0.0128964443133742" flag="0"/>
			<psa03 value="0.0320493027965" flag="0"/>
			<psa10 value="0.0308291610306009" flag="0"/>
			<psa30 value="0.00118098927641004" flag="0"/>
		</comp>
		<comp name="--.EN3" depth="0.0">
			<acc value="0.00618344339048052" flag="0"/>
			<vel value="0.00565428612884729" flag="0"/>
			<psa03 value="0.0113912806580872" flag="0"/>
			<psa10 value="0.0107126324718186" flag="0"/>
			<psa30 value="0.000504971108105972" flag="0"/>
		</comp>
	</station>
	<station code="STC" name="STC" netid="EG" source="EUROSEISTEST Strong Motion Network" insttype="" lat="40.64865" lon="23.304856">
		<comp name="--.EN1" depth="0.0">
			<acc value="0.00859802440890525" flag="0"/>
			<vel value="0.00834190642320708" flag="0"/>
			<psa03 value="0.0219921573933354" flag="0"/>
			<psa10 value="0.0102739105961505" flag="0"/>
			<psa30 value="0.000905270073864852" flag="0"/>
		</comp>
		<comp name="--.EN2" depth="0.0">
			<acc value="0.00884191952790803" flag="0"/>
			<vel value="0.0072362094833681" flag="0"/>
			<psa03 value="0.0247200099751836" flag="0"/>
			<psa10 value="0.00899305449572634" flag="0"/>
			<psa30 value="0.0012453644784499" flag="0"/>
		</comp>
		<comp name="--.EN3" depth="0.0">
			<acc value="0.00490101904012573" flag="0"/>
			<vel value="0.00439290527206056" flag="0"/>
			<psa03 value="0.01367867046771" flag="0"/>
			<psa10 value="0.00625632710721552" flag="0"/>
			<psa30 value="0.000671805180881285" flag="0"/>
		</comp>
	</station>
	<station code="KRK1" name="KRK1" netid="HI" source="ITSAK Strong Motion Network" insttype="" lat="39.618861" lon="19.9202">
		<comp name="--.HNE" depth="0.0">
			<acc value="0.0163863346888142" flag="0"/>
			<vel value="0.00995255099726052" flag="0"/>
			<psa03 value="0.0536727690993365" flag="0"/>
			<psa10 value="0.0104763330681587" flag="0"/>
			<psa30 value="0.00091148798577171" flag="0"/>
		</comp>
		<comp name="--.HNN" depth="0.0">
			<acc value="0.0150735276456917" flag="0"/>
			<vel value="0.0100136298723757" flag="0"/>
			<psa03 value="0.0370020527668801" flag="0"/>
			<psa10 value="0.0101718222708222" flag="0"/>
			<psa30 value="0.000851679752938803" flag="0"/>
		</comp>
		<comp name="--.HNZ" depth="0.0">
			<acc value="0.00678689107082622" flag="0"/>
			<vel value="0.00366544585997195" flag="0"/>
			<psa03 value="0.0284127363710268" flag="0"/>
			<psa10 value="0.00354544033677259" flag="0"/>
			<psa30 value="0.000704021794237902" flag="0"/>
		</comp>
	</station>
	<station code="LMS2" name="LMS2" netid="HI" source="ITSAK Strong Motion Network" insttype="" lat="40.834985" lon="21.141815">
		<comp name="--.HNE" depth="0.0">
			<acc value="2.10361190477248" flag="0"/>
			<vel value="0.987684892213856" flag="0"/>
			<psa03 value="3.60607588482922" flag="0"/>
			<psa10 value="0.403520821273034" flag="0"/>
			<psa30 value="0.0337416318841948" flag="0"/>
		</comp>
		<comp name="--.HNN" depth="0.0">
			<acc value="2.78881892898684" flag="0"/>
			<vel value="0.692867028437824" flag="0"/>
			<psa03 value="2.04366071582747" flag="0"/>
			<psa10 value="0.156452669221366" flag="0"/>
			<psa30 value="0.0126260105779088" flag="0"/>
		</comp>
		<comp name="--.HNZ" depth="0.0">
			<acc value="0.790833273569513" flag="0"/>
			<vel value="0.260556290845181" flag="0"/>
			<psa03 value="0.827901094386234" flag="0"/>
			<psa10 value="0.194549597955877" flag="0"/>
			<psa30 value="0.0168113520028979" flag="0"/>
		</comp>
	</station>
</stationlist>
