<stationlist created="1779846960">
	<station code="AGRP" name="AGRP" netid="CL" source="Corinth Riff Laboratory (CRLNET)" insttype="" lat="38.3959" lon="21.72277">
		<comp name="00.HNE" depth="0.0">
			<acc value="0.000736098232363171" flag="0"/>
			<vel value="0.000103026306847766" flag="0"/>
			<psa03 value="0.000147497858981064" flag="0"/>
			<psa10 value="9.90476869112388e-05" flag="0"/>
			<psa30 value="3.79974585513975e-05" flag="0"/>
		</comp>
		<comp name="00.HNN" depth="0.0">
			<acc value="0.000589070679020494" flag="0"/>
			<vel value="9.44797083664588e-05" flag="0"/>
			<psa03 value="0.000169117740085381" flag="0"/>
			<psa10 value="8.89048836529537e-05" flag="0"/>
			<psa30 value="6.27816850203274e-05" flag="0"/>
		</comp>
		<comp name="00.HNZ" depth="0.0">
			<acc value="0.000507503995952356" flag="0"/>
			<vel value="0.000305732296247665" flag="0"/>
			<psa03 value="0.000563706003236234" flag="0"/>
			<psa10 value="0.000222094751749665" flag="0"/>
			<psa30 value="0.000123190100843556" flag="0"/>
		</comp>
	</station>
	<station code="MALA" name="MALA" netid="CL" source="Corinth Riff Laboratory (CRLNET)" insttype="" lat="38.39341" lon="21.87263">
		<comp name="01.HNE" depth="0.0">
			<acc value="0.0529693835771089" flag="0"/>
			<vel value="0.00353089216086039" flag="0"/>
			<psa03 value="0.00174871642982021" flag="0"/>
			<psa10 value="0.000382062389836318" flag="0"/>
			<psa30 value="5.63795942462949e-05" flag="0"/>
		</comp>
		<comp name="01.HNN" depth="0.0">
			<acc value="0.0480641507133249" flag="0"/>
			<vel value="0.00459609515314147" flag="0"/>
			<psa03 value="0.00206390592936769" flag="0"/>
			<psa10 value="0.000301916182105957" flag="0"/>
			<psa30 value="5.11947032468525e-05" flag="0"/>
		</comp>
		<comp name="01.HNZ" depth="0.0">
			<acc value="0.0751344451829553" flag="0"/>
			<vel value="0.00702582033841274" flag="0"/>
			<psa03 value="0.00222705947837458" flag="0"/>
			<psa10 value="0.00017227526493003" flag="0"/>
			<psa30 value="2.39605537404266e-05" flag="0"/>
		</comp>
	</station>
	<station code="TRIZ" name="TRIZ" netid="CL" source="Corinth Riff Laboratory (CRLNET)" insttype="" lat="38.36543" lon="22.07272">
		<comp name="00.HNE" depth="0.0">
			<acc value="0.0261897232083055" flag="0"/>
			<vel value="0.00855258571933903" flag="0"/>
			<psa03 value="0.00542145029031225" flag="0"/>
			<psa10 value="0.00493963503907259" flag="0"/>
			<psa30 value="0.00337211296926992" flag="0"/>
		</comp>
		<comp name="00.HNN" depth="0.0">
			<acc value="0.0269489226539843" flag="0"/>
			<vel value="0.00864200049989" flag="0"/>
			<psa03 value="0.00576989785242351" flag="0"/>
			<psa10 value="0.00470232588099409" flag="0"/>
			<psa30 value="0.00321725916929907" flag="0"/>
		</comp>
		<comp name="00.HNZ" depth="0.0">
			<acc value="0.026288083152333" flag="0"/>
			<vel value="0.00807443645254393" flag="0"/>
			<psa03 value="0.00521536046599696" flag="0"/>
			<psa10 value="0.00498443831957693" flag="0"/>
			<psa30 value="0.00305625454519692" flag="0"/>
		</comp>
	</station>
	<station code="KTHA" name="KTHA" netid="GE" source="GEOFON" insttype="" lat="36.2566" lon="23.0621">
		<comp name="--.HNE" depth="0.0">
			<acc value="0.00136062780411915" flag="0"/>
			<vel value="0.00262600881907199" flag="0"/>
			<psa03 value="0.00242670112162519" flag="0"/>
			<psa10 value="0.00295984302819975" flag="0"/>
			<psa30 value="0.00136793186877436" flag="0"/>
		</comp>
		<comp name="--.HNN" depth="0.0">
			<acc value="0.00342605972321497" flag="0"/>
			<vel value="0.00706482365408542" flag="0"/>
			<psa03 value="0.0052388955537395" flag="0"/>
			<psa10 value="0.00451852901785383" flag="0"/>
			<psa30 value="0.00417718921828308" flag="0"/>
		</comp>
		<comp name="--.HNZ" depth="0.0">
			<acc value="0.000636025159952373" flag="0"/>
			<vel value="0.00101013482867135" flag="0"/>
			<psa03 value="0.00103866499786525" flag="0"/>
			<psa10 value="0.00177804915421917" flag="0"/>
			<psa30 value="0.000697138734101451" flag="0"/>
		</comp>
	</station>
	<station code="ATHU" name="ATHU" netid="HA" source="Hellenic Seismological Network, University of Athens, Seismological Laboratory (HA)" insttype="" lat="37.9665" lon="23.7845">
		<comp name="--.HNE" depth="0.0">
			<acc value="7.31641006568245e-05" flag="0"/>
			<vel value="3.40025599726283e-05" flag="0"/>
			<psa03 value="7.61324898962661e-05" flag="0"/>
			<psa10 value="4.0786910917203e-05" flag="0"/>
			<psa30 value="1.93973478046325e-05" flag="0"/>
		</comp>
		<comp name="--.HNN" depth="0.0">
			<acc value="6.89555684555076e-05" flag="0"/>
			<vel value="3.46197080218782e-05" flag="0"/>
			<psa03 value="9.38713409928658e-05" flag="0"/>
			<psa10 value="4.42386740032894e-05" flag="0"/>
			<psa30 value="1.71862410431834e-05" flag="0"/>
		</comp>
		<comp name="--.HNZ" depth="0.0">
			<acc value="6.73488691172138e-05" flag="0"/>
			<vel value="3.81473321623837e-05" flag="0"/>
			<psa03 value="7.96025633182905e-05" flag="0"/>
			<psa10 value="3.61653230212518e-05" flag="0"/>
			<psa30 value="2.02895195368081e-05" flag="0"/>
		</comp>
	</station>
	<station code="KIAS" name="KIAS" netid="HA" source="Hellenic Seismological Network, University of Athens, Seismological Laboratory (HA)" insttype="" lat="37.9875" lon="22.7543">
		<comp name="--.HNE" depth="0.0">
			<acc value="0.00280038630485774" flag="0"/>
			<vel value="0.00107959679940028" flag="0"/>
			<psa03 value="0.002079702874274" flag="0"/>
			<psa10 value="0.00129272130050622" flag="0"/>
			<psa30 value="0.000554894415280271" flag="0"/>
		</comp>
		<comp name="--.HNN" depth="0.0">
			<acc value="0.00265438534851785" flag="0"/>
			<vel value="0.00121233851224925" flag="0"/>
			<psa03 value="0.00215811887624143" flag="0"/>
			<psa10 value="0.00193770168354095" flag="0"/>
			<psa30 value="0.000499571792094711" flag="0"/>
		</comp>
		<comp name="--.HNZ" depth="0.0">
			<acc value="0.00392333354723107" flag="0"/>
			<vel value="0.0011213232808557" flag="0"/>
			<psa03 value="0.00193261223831464" flag="0"/>
			<psa10 value="0.00147599219129972" flag="0"/>
			<psa30 value="0.000622766203121023" flag="0"/>
		</comp>
	</station>
	<station code="AGR3" name="AGR3" netid="HI" source="ITSAK Strong Motion Network" insttype="" lat="38.5893" lon="21.4162">
		<comp name="--.HNE" depth="0.0">
			<acc value="0.0012273720198528" flag="0"/>
			<vel value="0.000206715132124098" flag="0"/>
			<psa03 value="0.000489687305916428" flag="0"/>
			<psa10 value="0.000144650934953411" flag="0"/>
			<psa30 value="0.000112436667127469" flag="0"/>
		</comp>
		<comp name="--.HNN" depth="0.0">
			<acc value="0.0015108558456578" flag="0"/>
			<vel value="0.000196314269682165" flag="0"/>
			<psa03 value="0.000579822061081262" flag="0"/>
			<psa10 value="0.000130747386958496" flag="0"/>
			<psa30 value="7.11054395531185e-05" flag="0"/>
		</comp>
		<comp name="--.HNZ" depth="0.0">
			<acc value="0.00316286132197952" flag="0"/>
			<vel value="0.000430098162232465" flag="0"/>
			<psa03 value="0.000769211601025355" flag="0"/>
			<psa10 value="0.000131149879442263" flag="0"/>
			<psa30 value="6.17158396735549e-05" flag="0"/>
		</comp>
	</station>
	<station code="AKR1" name="AKR1" netid="HI" source="ITSAK Strong Motion Network" insttype="" lat="38.153583" lon="22.31326">
		<comp name="--.HNE" depth="0.0">
			<acc value="0.00227725283180659" flag="0"/>
			<vel value="0.000294087292860252" flag="0"/>
			<psa03 value="0.000774014572191166" flag="0"/>
			<psa10 value="0.000167451200242048" flag="0"/>
			<psa30 value="0.000107838497937796" flag="0"/>
		</comp>
		<comp name="--.HNN" depth="0.0">
			<acc value="0.00189960187914665" flag="0"/>
			<vel value="0.000262090526431482" flag="0"/>
			<psa03 value="0.000857156229006158" flag="0"/>
			<psa10 value="0.000211309652524486" flag="0"/>
			<psa30 value="8.05444567685771e-05" flag="0"/>
		</comp>
		<comp name="--.HNZ" depth="0.0">
			<acc value="0.00210004601281742" flag="0"/>
			<vel value="0.000238851417162954" flag="0"/>
			<psa03 value="0.000277366193159271" flag="0"/>
			<psa10 value="0.000192390952964108" flag="0"/>
			<psa30 value="9.00620208543534e-05" flag="0"/>
		</comp>
	</station>
	<station code="AOL1" name="AOL1" netid="HI" source="ITSAK Strong Motion Network" insttype="" lat="37.642378" lon="21.624555">
		<comp name="--.HNE" depth="0.0">
			<acc value="0.00208485157415866" flag="0"/>
			<vel value="0.00037751437189647" flag="0"/>
			<psa03 value="0.000597683921426299" flag="0"/>
			<psa10 value="0.000123666610274721" flag="0"/>
			<psa30 value="7.59089673987798e-05" flag="0"/>
		</comp>
		<comp name="--.HNN" depth="0.0">
			<acc value="0.00264188111190998" flag="0"/>
			<vel value="0.000243377120316094" flag="0"/>
			<psa03 value="0.000571110831335444" flag="0"/>
			<psa10 value="0.00010562538095227" flag="0"/>
			<psa30 value="7.2178909102546e-05" flag="0"/>
		</comp>
		<comp name="--.HNZ" depth="0.0">
			<acc value="0.00908954744582475" flag="0"/>
			<vel value="0.0009649361969766" flag="0"/>
			<psa03 value="0.000639181543487666" flag="0"/>
			<psa10 value="0.000111646207048418" flag="0"/>
			<psa30 value="5.69548732411964e-05" flag="0"/>
		</comp>
	</station>
	<station code="ARE2" name="ARE2" netid="HI" source="ITSAK Strong Motion Network" insttype="" lat="36.66629" lon="22.382635">
		<comp name="--.HNE" depth="0.0">
			<acc value="0.00189481043807204" flag="0"/>
			<vel value="0.000118923155361467" flag="0"/>
			<psa03 value="0.000297221390304962" flag="0"/>
			<psa10 value="0.000148000741822921" flag="0"/>
			<psa30 value="4.52444392794919e-05" flag="0"/>
		</comp>
		<comp name="--.HNN" depth="0.0">
			<acc value="0.00186393388450285" flag="0"/>
			<vel value="0.000183917703664568" flag="0"/>
			<psa03 value="0.000170606119933597" flag="0"/>
			<psa10 value="8.86766312276363e-05" flag="0"/>
			<psa30 value="4.75715498194061e-05" flag="0"/>
		</comp>
		<comp name="--.HNZ" depth="0.0">
			<acc value="0.00369355037256738" flag="0"/>
			<vel value="0.000164547507920855" flag="0"/>
			<psa03 value="0.000196485468997343" flag="0"/>
			<psa10 value="0.000117933498550451" flag="0"/>
			<psa30 value="5.35833217675459e-05" flag="0"/>
		</comp>
	</station>
	<station code="ARG2" name="ARG2" netid="HI" source="ITSAK Strong Motion Network" insttype="" lat="38.1783" lon="20.4878">
		<comp name="--.HNE" depth="0.0">
			<acc value="0.0392537279066996" flag="0"/>
			<vel value="0.00257523329068694" flag="0"/>
			<psa03 value="0.00181904449365525" flag="0"/>
			<psa10 value="0.00022840523326468" flag="0"/>
			<psa30 value="8.42021404785392e-05" flag="0"/>
		</comp>
		<comp name="--.HNN" depth="0.0">
			<acc value="0.0296403824340265" flag="0"/>
			<vel value="0.0026194143113357" flag="0"/>
			<psa03 value="0.00213112148232886" flag="0"/>
			<psa10 value="0.000290388006311494" flag="0"/>
			<psa30 value="9.22949487227181e-05" flag="0"/>
		</comp>
		<comp name="--.HNZ" depth="0.0">
			<acc value="0.0525406203434202" flag="0"/>
			<vel value="0.00434093063952118" flag="0"/>
			<psa03 value="0.0018583552032646" flag="0"/>
			<psa10 value="0.00020535112303534" flag="0"/>
			<psa30 value="9.2212944592565e-05" flag="0"/>
		</comp>
	</station>
	<station code="ARS1" name="ARS1" netid="HI" source="ITSAK Strong Motion Network" insttype="" lat="37.6349" lon="22.7293">
		<comp name="--.HNE" depth="0.0">
			<acc value="0.0038894662162814" flag="0"/>
			<vel value="0.000361862421142087" flag="0"/>
			<psa03 value="0.000732528588271246" flag="0"/>
			<psa10 value="0.000113267354480424" flag="0"/>
			<psa30 value="7.23735118381029e-05" flag="0"/>
		</comp>
		<comp name="--.HNN" depth="0.0">
			<acc value="0.00491908822891857" flag="0"/>
			<vel value="0.000481535475851019" flag="0"/>
			<psa03 value="0.00092158058144275" flag="0"/>
			<psa10 value="0.000203787987258515" flag="0"/>
			<psa30 value="6.81879871714514e-05" flag="0"/>
		</comp>
		<comp name="--.HNZ" depth="0.0">
			<acc value="0.0074427115612243" flag="0"/>
			<vel value="0.000600833056844791" flag="0"/>
			<psa03 value="0.00105009259407922" flag="0"/>
			<psa10 value="0.000166167794910371" flag="0"/>
			<psa30 value="7.70946644349042e-05" flag="0"/>
		</comp>
	</station>
	<station code="ART2" name="ART2" netid="HI" source="ITSAK Strong Motion Network" insttype="" lat="39.1474" lon="20.9937">
		<comp name="--.HNE" depth="0.0">
			<acc value="0.00317747258300966" flag="0"/>
			<vel value="0.000171175983775852" flag="0"/>
			<psa03 value="0.000236488302094314" flag="0"/>
			<psa10 value="0.000123216888100017" flag="0"/>
			<psa30 value="5.47776652095963e-05" flag="0"/>
		</comp>
		<comp name="--.HNN" depth="0.0">
			<acc value="0.00260914232021584" flag="0"/>
			<vel value="0.000285990421050603" flag="0"/>
			<psa03 value="0.000353253544543013" flag="0"/>
			<psa10 value="0.000116222147389003" flag="0"/>
			<psa30 value="4.67055289078159e-05" flag="0"/>
		</comp>
		<comp name="--.HNZ" depth="0.0">
			<acc value="0.00420326113435008" flag="0"/>
			<vel value="0.0003217914004678" flag="0"/>
			<psa03 value="0.000414529250892977" flag="0"/>
			<psa10 value="0.000112366364618736" flag="0"/>
			<psa30 value="5.16556419846608e-05" flag="0"/>
		</comp>
	</station>
	<station code="AST1" name="AST1" netid="HI" source="ITSAK Strong Motion Network" insttype="" lat="38.5416" lon="21.0895">
		<comp name="--.HNE" depth="0.0">
			<acc value="0.00825975559441" flag="0"/>
			<vel value="0.000714562790098533" flag="0"/>
			<psa03 value="0.000936162032414496" flag="0"/>
			<psa10 value="0.000178238072045848" flag="0"/>
			<psa30 value="7.60130953903876e-05" flag="0"/>
		</comp>
		<comp name="--.HNN" depth="0.0">
			<acc value="0.0034386823670755" flag="0"/>
			<vel value="0.000308350600718533" flag="0"/>
			<psa03 value="0.000760370764713092" flag="0"/>
			<psa10 value="0.000113349537659" flag="0"/>
			<psa30 value="5.20330823529487e-05" flag="0"/>
		</comp>
		<comp name="--.HNZ" depth="0.0">
			<acc value="0.0153043245473127" flag="0"/>
			<vel value="0.00149236881636967" flag="0"/>
			<psa03 value="0.00150628484257186" flag="0"/>
			<psa10 value="0.000156678714156902" flag="0"/>
			<psa30 value="5.59237828011612e-05" flag="0"/>
		</comp>
	</station>
	<station code="ATH5" name="ATH5" netid="HI" source="ITSAK Strong Motion Network" insttype="" lat="37.975421" lon="23.737098">
		<comp name="--.HNE" depth="0.0">
			<acc value="0.00208003652082754" flag="0"/>
			<vel value="0.000486027058711942" flag="0"/>
			<psa03 value="0.00038060683768402" flag="0"/>
			<psa10 value="0.000142570484634061" flag="0"/>
			<psa30 value="0.000132842107429439" flag="0"/>
		</comp>
		<comp name="--.HNN" depth="0.0">
			<acc value="0.00162519008806591" flag="0"/>
			<vel value="0.000393574317034389" flag="0"/>
			<psa03 value="0.000413453333264766" flag="0"/>
			<psa10 value="0.000167347584979618" flag="0"/>
			<psa30 value="0.000217191028464844" flag="0"/>
		</comp>
		<comp name="--.HNZ" depth="0.0">
			<acc value="0.00312531667283263" flag="0"/>
			<vel value="0.000761733467585275" flag="0"/>
			<psa03 value="0.000652267493375371" flag="0"/>
			<psa10 value="0.000407182667214014" flag="0"/>
			<psa30 value="0.000202871772592494" flag="0"/>
		</comp>
	</station>
	<station code="GTH2" name="GTH2" netid="HI" source="ITSAK Strong Motion Network" insttype="" lat="36.7603" lon="22.5659">
		<comp name="--.HNE" depth="0.0">
			<acc value="0.00666846355357298" flag="0"/>
			<vel value="0.000974845343867583" flag="0"/>
			<psa03 value="0.00218721439091846" flag="0"/>
			<psa10 value="0.000146065086251242" flag="0"/>
			<psa30 value="5.0554657591567e-05" flag="0"/>
		</comp>
		<comp name="--.HNN" depth="0.0">
			<acc value="0.00478894496301355" flag="0"/>
			<vel value="0.000818847797515284" flag="0"/>
			<psa03 value="0.00160279074733438" flag="0"/>
			<psa10 value="0.000129710223525201" flag="0"/>
			<psa30 value="5.97568882882061e-05" flag="0"/>
		</comp>
		<comp name="--.HNZ" depth="0.0">
			<acc value="0.0209744671533141" flag="0"/>
			<vel value="0.00266316723742482" flag="0"/>
			<psa03 value="0.00171369181143287" flag="0"/>
			<psa10 value="0.000130423708289982" flag="0"/>
			<psa30 value="6.34638851603362e-05" flag="0"/>
		</comp>
	</station>
	<station code="KAC1" name="KAC1" netid="HI" source="ITSAK Strong Motion Network" insttype="" lat="38.143412" lon="21.549694">
		<comp name="--.HNE" depth="0.0">
			<acc value="0.00179113432283507" flag="0"/>
			<vel value="0.00037049794253435" flag="0"/>
			<psa03 value="0.00204706659769917" flag="0"/>
			<psa10 value="0.000177699515861271" flag="0"/>
			<psa30 value="5.93605534390817e-05" flag="0"/>
		</comp>
		<comp name="--.HNN" depth="0.0">
			<acc value="0.0016337087293341" flag="0"/>
			<vel value="0.000321403456914433" flag="0"/>
			<psa03 value="0.00176147329703331" flag="0"/>
			<psa10 value="0.000162214124795725" flag="0"/>
			<psa30 value="9.03198113694103e-05" flag="0"/>
		</comp>
		<comp name="--.HNZ" depth="0.0">
			<acc value="0.00600425012573755" flag="0"/>
			<vel value="0.000513132318944291" flag="0"/>
			<psa03 value="0.00151190940137013" flag="0"/>
			<psa10 value="0.000177145431304409" flag="0"/>
			<psa30 value="6.45474725678511e-05" flag="0"/>
		</comp>
	</station>
	<station code="KIF1" name="KIF1" netid="HI" source="ITSAK Strong Motion Network" insttype="" lat="38.077273" lon="23.814551">
		<comp name="--.HNE" depth="0.0">
			<acc value="0.004821541072856" flag="0"/>
			<vel value="0.000369419187267932" flag="0"/>
			<psa03 value="0.000349678153068115" flag="0"/>
			<psa10 value="0.000148868411606211" flag="0"/>
			<psa30 value="5.48192695284872e-05" flag="0"/>
		</comp>
		<comp name="--.HNN" depth="0.0">
			<acc value="0.00267083796585776" flag="0"/>
			<vel value="0.00033913276881195" flag="0"/>
			<psa03 value="0.000393410908547024" flag="0"/>
			<psa10 value="0.000130126530400203" flag="0"/>
			<psa30 value="8.85369588888044e-05" flag="0"/>
		</comp>
		<comp name="--.HNZ" depth="0.0">
			<acc value="0.00597529174432943" flag="0"/>
			<vel value="0.000535300254946219" flag="0"/>
			<psa03 value="0.000516473707662981" flag="0"/>
			<psa10 value="0.000172303860574225" flag="0"/>
			<psa30 value="7.59158688975733e-05" flag="0"/>
		</comp>
	</station>
	<station code="KLV1" name="KLV1" netid="HI" source="ITSAK Strong Motion Network" insttype="" lat="38.03256" lon="22.10797">
		<comp name="--.HNE" depth="0.0">
			<acc value="0.00743055181335163" flag="0"/>
			<vel value="0.000752361927760549" flag="0"/>
			<psa03 value="0.00192916295382693" flag="0"/>
			<psa10 value="9.79906881795969e-05" flag="0"/>
			<psa30 value="4.71871233112553e-05" flag="0"/>
		</comp>
		<comp name="--.HNN" depth="0.0">
			<acc value="0.0124184587419725" flag="0"/>
			<vel value="0.00162896662414764" flag="0"/>
			<psa03 value="0.00249343177918167" flag="0"/>
			<psa10 value="0.000156538226334487" flag="0"/>
			<psa30 value="7.59038238288905e-05" flag="0"/>
		</comp>
		<comp name="--.HNZ" depth="0.0">
			<acc value="0.0117474847463076" flag="0"/>
			<vel value="0.00102983492721205" flag="0"/>
			<psa03 value="0.00123417005523454" flag="0"/>
			<psa10 value="0.000265946963384202" flag="0"/>
			<psa30 value="6.27845042173705e-05" flag="0"/>
		</comp>
	</station>
	<station code="KMV1" name="KMV1" netid="HI" source="ITSAK Strong Motion Network" insttype="" lat="38.7794" lon="22.7846">
		<comp name="--.HNE" depth="0.0">
			<acc value="0.00544800822215042" flag="0"/>
			<vel value="0.000670607238854902" flag="0"/>
			<psa03 value="0.00139212412243258" flag="0"/>
			<psa10 value="0.000426148552514835" flag="0"/>
			<psa30 value="0.000259384917352895" flag="0"/>
		</comp>
		<comp name="--.HNN" depth="0.0">
			<acc value="0.00378618107230403" flag="0"/>
			<vel value="0.000577739546598275" flag="0"/>
			<psa03 value="0.00498306675737611" flag="0"/>
			<psa10 value="0.00025172332582569" flag="0"/>
			<psa30 value="0.000124635925789355" flag="0"/>
		</comp>
		<comp name="--.HNZ" depth="0.0">
			<acc value="0.00966792649656911" flag="0"/>
			<vel value="0.000996330656190516" flag="0"/>
