<?xml version="1.0" encoding="UTF-8" standalone="yes"?>
<!DOCTYPE earthquake SYSTEM "stationlist.dtd">
<stationlist created="" xmlns="ch.ethz.sed.shakemap.usgs.xml">
  <station code="KLV" name="KLV" netid="HL" insttype="120" commtype="DIG" lat="38.0435" lon="22.1504">
    <comp name="--.HHN">
      <acc value="0.0039184244" flag="0"/>
      <vel value="0.0005106925" flag="0"/>
      <psa03 value="0.0004432963" flag="0"/>
      <psa10 value="0.0000506846" flag="0"/>
      <psa30 value="0.0000048574" flag="0"/>
    </comp>
    <comp name="--.HHE">
      <acc value="0.0041276773" flag="0"/>
      <vel value="0.0004081294" flag="0"/>
      <psa03 value="0.0002902666" flag="0"/>
      <psa10 value="0.0000311114" flag="0"/>
      <psa30 value="0.0000078923" flag="0"/>
    </comp>
    <comp name="--.HHZ">
      <acc value="0.0019944404" flag="0"/>
      <vel value="0.0002049763" flag="0"/>
      <psa03 value="0.0002356577" flag="0"/>
      <psa10 value="0.0000199633" flag="0"/>
      <psa30 value="0.0000079806" flag="0"/>
    </comp>
  </station>
  <station code="GUR" name="GUR" netid="HP" insttype="40," commtype="DIG" lat="37.9363" lon="22.3423">
    <comp name="--.HHN">
      <acc value="0.0054189609" flag="0"/>
      <vel value="0.0002674466" flag="0"/>
      <psa03 value="0.0009762971" flag="0"/>
      <psa10 value="0.0000257045" flag="0"/>
      <psa30 value="0.0000043799" flag="0"/>
    </comp>
    <comp name="--.HHE">
      <acc value="0.0079063371" flag="0"/>
      <vel value="0.0003646573" flag="0"/>
      <psa03 value="0.0008538431" flag="0"/>
      <psa10 value="0.0000292573" flag="0"/>
      <psa30 value="0.0000084621" flag="0"/>
    </comp>
    <comp name="--.HHZ">
      <acc value="0.0028393387" flag="0"/>
      <vel value="0.0001974438" flag="0"/>
      <psa03 value="0.0002890998" flag="0"/>
      <psa10 value="0.0000189340" flag="0"/>
      <psa30 value="0.0000062077" flag="0"/>
    </comp>
  </station>
  <station code="KLV" name="KLV" netid="MN" insttype="" commtype="DIG" lat="38.0437" lon="22.1504">
    <comp name="--.HHE">
      <acc value="0.0053054336" flag="0"/>
      <vel value="0.0005001803" flag="0"/>
      <psa03 value="0.0003012019" flag="0"/>
      <psa10 value="0.0000326419" flag="0"/>
      <psa30 value="0.0000079229" flag="0"/>
    </comp>
    <comp name="--.HHN">
      <acc value="0.0046556107" flag="0"/>
      <vel value="0.0005397944" flag="0"/>
      <psa03 value="0.0004677901" flag="0"/>
      <psa10 value="0.0000519486" flag="0"/>
      <psa30 value="0.0000050367" flag="0"/>
    </comp>
    <comp name="--.HHZ">
      <acc value="0.0025202772" flag="0"/>
      <vel value="0.0002165792" flag="0"/>
      <psa03 value="0.0002542817" flag="0"/>
      <psa10 value="0.0000202127" flag="0"/>
      <psa30 value="0.0000079914" flag="0"/>
    </comp>
  </station>
</stationlist>
