<stationlist created="1778138560">
	<station code="S2114" name="S2114" netid="S2" source="IceSMN Icelandic Strong Motion Network (IceSMN)" insttype="" lat="63.7515" lon="-20.2168">
		<comp name="00.HN1" depth="0.0">
			<acc value="1.77068929978479" flag="0"/>
			<vel value="0.906561685352565" flag="0"/>
			<psa03 value="3.8474392073" flag="0"/>
			<psa10 value="0.390686091036118" flag="0"/>
			<psa30 value="0.0433531652677719" flag="0"/>
		</comp>
		<comp name="00.HN2" depth="0.0">
			<acc value="1.96643883322836" flag="0"/>
			<vel value="0.75738424542065" flag="0"/>
			<psa03 value="3.00098513386847" flag="0"/>
			<psa10 value="0.280666312765794" flag="0"/>
			<psa30 value="0.0431968249109973" flag="0"/>
		</comp>
		<comp name="00.HNZ" depth="0.0">
			<acc value="1.32014137410418" flag="0"/>
			<vel value="0.315226071112903" flag="0"/>
			<psa03 value="1.09254279226519" flag="0"/>
			<psa10 value="0.225673779780289" flag="0"/>
			<psa30 value="0.0248029930765847" flag="0"/>
		</comp>
	</station>
	<station code="S2119" name="S2119" netid="S2" source="IceSMN Icelandic Strong Motion Network (IceSMN)" insttype="" lat="64.1301" lon="-20.32">
		<comp name="00.HN1" depth="0.0">
			<acc value="0.751359085287775" flag="0"/>
			<vel value="0.3743665848233" flag="0"/>
			<psa03 value="2.08934340874737" flag="0"/>
			<psa10 value="0.180555005882948" flag="0"/>
			<psa30 value="0.0171655704681515" flag="0"/>
		</comp>
		<comp name="00.HN2" depth="0.0">
			<acc value="0.574209780615622" flag="0"/>
			<vel value="0.285793208087171" flag="0"/>
			<psa03 value="2.02098371358632" flag="0"/>
			<psa10 value="0.118938536594478" flag="0"/>
			<psa30 value="0.0292428871977665" flag="0"/>
		</comp>
		<comp name="00.HNZ" depth="0.0">
			<acc value="0.580700468839572" flag="0"/>
			<vel value="0.189621310209693" flag="0"/>
			<psa03 value="1.24681284522999" flag="0"/>
			<psa10 value="0.103116478460608" flag="0"/>
			<psa30 value="0.0206740312197581" flag="0"/>
		</comp>
	</station>
	<station code="S2405" name="S2405" netid="S2" source="IceSMN Icelandic Strong Motion Network (IceSMN)" insttype="" lat="64.0447" lon="-21.9848">
		<comp name="00.HN1" depth="0.0">
			<acc value="0.344128965750776" flag="0"/>
			<vel value="0.152302272673622" flag="0"/>
			<psa03 value="0.84776466024624" flag="0"/>
			<psa10 value="0.123672557700007" flag="0"/>
			<psa30 value="0.011762174186302" flag="0"/>
		</comp>
		<comp name="00.HN2" depth="0.0">
			<acc value="0.294022556301601" flag="0"/>
			<vel value="0.109683743559281" flag="0"/>
			<psa03 value="0.765276945840967" flag="0"/>
			<psa10 value="0.0741278531064139" flag="0"/>
			<psa30 value="0.0120645425500762" flag="0"/>
		</comp>
		<comp name="00.HNZ" depth="0.0">
			<acc value="0.152669536497124" flag="0"/>
			<vel value="0.0546429488415449" flag="0"/>
			<psa03 value="0.337547006666008" flag="0"/>
			<psa10 value="0.027044136541304" flag="0"/>
			<psa30 value="0.00524065008402569" flag="0"/>
		</comp>
	</station>
	<station code="S2602" name="S2602" netid="S2" source="IceSMN Icelandic Strong Motion Network (IceSMN)" insttype="" lat="63.8464" lon="-22.4268">
		<comp name="00.HN1" depth="0.0">
			<acc value="0.165751559026667" flag="0"/>
			<vel value="0.111681581501384" flag="0"/>
			<psa03 value="0.331393536528922" flag="0"/>
			<psa10 value="0.0678393090211614" flag="0"/>
			<psa30 value="0.0120947703858518" flag="0"/>
		</comp>
		<comp name="00.HN2" depth="0.0">
			<acc value="0.304280738204346" flag="0"/>
			<vel value="0.16708260444845" flag="0"/>
			<psa03 value="0.717965811712214" flag="0"/>
			<psa10 value="0.0864928572271483" flag="0"/>
			<psa30 value="0.0223946152000129" flag="0"/>
		</comp>
		<comp name="00.HNZ" depth="0.0">
			<acc value="0.0858357337613616" flag="0"/>
			<vel value="0.0332304371773715" flag="0"/>
			<psa03 value="0.179588501023623" flag="0"/>
			<psa10 value="0.0350040388458013" flag="0"/>
			<psa30 value="0.0140667501865166" flag="0"/>
		</comp>
	</station>
	<station code="S2604" name="S2604" netid="S2" source="IceSMN Icelandic Strong Motion Network (IceSMN)" insttype="" lat="63.9843" lon="-21.6486">
		<comp name="00.HN1" depth="0.0">
			<acc value="0.438515651768783" flag="0"/>
			<vel value="0.252637230349908" flag="0"/>
			<psa03 value="1.53081457562091" flag="0"/>
			<psa10 value="0.140983179443884" flag="0"/>
			<psa30 value="0.0153469649944369" flag="0"/>
		</comp>
		<comp name="00.HN2" depth="0.0">
			<acc value="0.542132204533613" flag="0"/>
			<vel value="0.183863502668235" flag="0"/>
			<psa03 value="1.52912296355719" flag="0"/>
			<psa10 value="0.136631286151972" flag="0"/>
			<psa30 value="0.0142305877065801" flag="0"/>
		</comp>
		<comp name="00.HNZ" depth="0.0">
			<acc value="0.382585053725306" flag="0"/>
			<vel value="0.150636553260864" flag="0"/>
			<psa03 value="1.73685205792574" flag="0"/>
			<psa10 value="0.075611788910081" flag="0"/>
			<psa30 value="0.00726587299508654" flag="0"/>
		</comp>
	</station>
</stationlist>
