<?xml version="1.0" encoding="UTF-8" standalone="yes"?>
<!DOCTYPE earthquake SYSTEM "stationlist.dtd">
<stationlist created="" xmlns="ch.ethz.sed.shakemap.usgs.xml">
  <station code="ASB" name="ASB" netid="VI" source="ODC" insttype="STS-2.5" lat="64.7482" lon="-21.3254">
    <comp name="--.HHE">
      <acc value="0.0816994819" flag="0"/>
      <vel value="0.0400219116" flag="0"/>
      <psa03 value="0.1728766521" flag="0"/>
      <psa10 value="0.0331391119" flag="0"/>
      <psa30 value="0.0066378728" flag="0"/>
    </comp>
    <comp name="--.HHN">
      <acc value="0.1035899323" flag="0"/>
      <vel value="0.0710569743" flag="0"/>
      <psa03 value="0.2326918783" flag="0"/>
      <psa10 value="0.0462332516" flag="0"/>
      <psa30 value="0.0063320132" flag="0"/>
    </comp>
    <comp name="--.HHZ">
      <acc value="0.0461673525" flag="0"/>
      <vel value="0.0285294519" flag="0"/>
      <psa03 value="0.1834067701" flag="0"/>
      <psa10 value="0.0194797798" flag="0"/>
      <psa30 value="0.0055983029" flag="0"/>
    </comp>
  </station>
  <station code="SKR" name="SKR" netid="VI" source="ODC" insttype="LE-3D/5s" lat="64.5601" lon="-18.3865">
    <comp name="--.HHE">
      <acc value="0.2439882954" flag="0"/>
      <vel value="0.2368928151" flag="0"/>
      <psa03 value="0.5195161448" flag="0"/>
      <psa10 value="0.2316144721" flag="0"/>
      <psa30 value="0.0405326103" flag="0"/>
    </comp>
    <comp name="--.HHN">
      <acc value="0.1822817166" flag="0"/>
      <vel value="0.1465483687" flag="0"/>
      <psa03 value="0.4840882948" flag="0"/>
      <psa10 value="0.2320820695" flag="0"/>
      <psa30 value="0.0545236717" flag="0"/>
    </comp>
    <comp name="--.HHZ">
      <acc value="0.4837474180" flag="0"/>
      <vel value="0.1965574363" flag="0"/>
      <psa03 value="0.6560496722" flag="0"/>
      <psa10 value="0.1895809967" flag="0"/>
      <psa30 value="0.0232153050" flag="0"/>
    </comp>
  </station>
</stationlist>
