<?xml version="1.0" encoding="UTF-8" standalone="yes"?>
<!DOCTYPE earthquake SYSTEM "stationlist.dtd">
<stationlist created="" xmlns="ch.ethz.sed.shakemap.usgs.xml">
  <station code="THERA" name="THERA" netid="GE" insttype="STS-2/N" lat="36.367" lon="25.4753">
    <comp name="--.HHZ">
      <acc value="0.1615983200" flag="0"/>
      <vel value="0.0362913803" flag="0"/>
      <psa03 value="0.1290356864" flag="0"/>
      <psa10 value="0.0229003455" flag="0"/>
      <psa30 value="0.0012880286" flag="0"/>
    </comp>
    <comp name="--.HHE">
      <acc value="0.1489551930" flag="0"/>
      <vel value="0.0374583368" flag="0"/>
      <psa03 value="0.1671975894" flag="0"/>
      <psa10 value="0.0292820299" flag="0"/>
      <psa30 value="0.0022899879" flag="0"/>
    </comp>
    <comp name="--.HHN">
      <acc value="0.1451496453" flag="0"/>
      <vel value="0.0307439372" flag="0"/>
      <psa03 value="0.1800839586" flag="0"/>
      <psa10 value="0.0130485997" flag="0"/>
      <psa30 value="0.0012270753" flag="0"/>
    </comp>
  </station>
  <station code="SNT1" name="SNT1" netid="HA" insttype="30" lat="36.4159" lon="25.4282">
    <comp name="--.HHE">
      <acc value="0.1405707882" flag="0"/>
      <vel value="0.0786757379" flag="0"/>
      <psa03 value="0.4651909526" flag="0"/>
      <psa10 value="0.0513685125" flag="0"/>
      <psa30 value="0.0045572991" flag="0"/>
    </comp>
    <comp name="--.HHN">
      <acc value="0.1587142002" flag="0"/>
      <vel value="0.0803700434" flag="0"/>
      <psa03 value="0.2632791051" flag="0"/>
      <psa10 value="0.0578711547" flag="0"/>
      <psa30 value="0.0038816471" flag="0"/>
    </comp>
    <comp name="--.HHZ">
      <acc value="0.1394922278" flag="0"/>
      <vel value="0.0408061299" flag="0"/>
      <psa03 value="0.3184755734" flag="0"/>
      <psa10 value="0.0310036520" flag="0"/>
      <psa30 value="0.0021541380" flag="0"/>
    </comp>
  </station>
  <station code="SFR2" name="SFR2" netid="HI" insttype="unknown" lat="36.3998" lon="25.4382">
    <comp name="--.HNE">
      <acc value="0.3338636743" flag="0"/>
      <vel value="0.1561083609" flag="0"/>
      <psa03 value="1.2420380083" flag="0"/>
      <psa10 value="0.0672867868" flag="0"/>
      <psa30 value="0.0071195221" flag="0"/>
    </comp>
    <comp name="--.HNZ">
      <acc value="0.4553898233" flag="0"/>
      <vel value="0.1355189082" flag="0"/>
      <psa03 value="0.8307851764" flag="0"/>
      <psa10 value="0.0509531306" flag="0"/>
      <psa30 value="0.0037983631" flag="0"/>
    </comp>
    <comp name="--.HNN">
      <acc value="0.4935171657" flag="0"/>
      <vel value="0.1928657951" flag="0"/>
      <psa03 value="1.5914952512" flag="0"/>
      <psa10 value="0.0995203122" flag="0"/>
      <psa30 value="0.0062078148" flag="0"/>
    </comp>
  </station>
  <station code="AMGA" name="AMGA" netid="HL" insttype="SMART24" lat="36.8316" lon="25.8938">
    <comp name="--.HHE">
      <acc value="0.1813117264" flag="0"/>
      <vel value="0.0278564642" flag="0"/>
      <psa03 value="0.0983133195" flag="0"/>
      <psa10 value="0.0108443062" flag="0"/>
      <psa30 value="0.0033946628" flag="0"/>
    </comp>
    <comp name="--.HHZ">
      <acc value="0.1000569202" flag="0"/>
      <vel value="0.0274613731" flag="0"/>
      <psa03 value="0.1085549544" flag="0"/>
      <psa10 value="0.0169565612" flag="0"/>
      <psa30 value="0.0020864653" flag="0"/>
    </comp>
    <comp name="--.HHN">
      <acc value="0.1603022380" flag="0"/>
      <vel value="0.0484148679" flag="0"/>
      <psa03 value="0.1596218718" flag="0"/>
      <psa10 value="0.0169790149" flag="0"/>
      <psa30 value="0.0014146276" flag="0"/>
    </comp>
  </station>
  <station code="MHLO" name="MHLO" netid="HL" insttype="20" lat="36.6898" lon="24.4017">
    <comp name="--.HHE">
      <acc value="0.0878291434" flag="0"/>
      <vel value="0.0403795635" flag="0"/>
      <psa03 value="0.2481951994" flag="0"/>
      <psa10 value="0.0507933529" flag="0"/>
      <psa30 value="0.0027256020" flag="0"/>
    </comp>
    <comp name="--.HHZ">
      <acc value="0.0331165205" flag="0"/>
      <vel value="0.0190106434" flag="0"/>
      <psa03 value="0.0851949527" flag="0"/>
      <psa10 value="0.0247118377" flag="0"/>
      <psa30 value="0.0016568239" flag="0"/>
    </comp>
    <comp name="--.HHN">
      <acc value="0.0768195502" flag="0"/>
      <vel value="0.0351817186" flag="0"/>
      <psa03 value="0.2118940051" flag="0"/>
      <psa10 value="0.0669232725" flag="0"/>
      <psa30 value="0.0022367775" flag="0"/>
    </comp>
  </station>
  <station code="MILA" name="MILA" netid="HL" insttype="CMG-5" lat="36.7429" lon="24.4282">
    <comp name="00.HNN">
      <acc value="0.1271144348" flag="0"/>
      <vel value="0.0796162636" flag="0"/>
      <psa03 value="0.3123520491" flag="0"/>
      <psa10 value="0.0451502015" flag="0"/>
      <psa30 value="0.0032330994" flag="0"/>
    </comp>
    <comp name="00.HNZ">
      <acc value="0.0658762373" flag="0"/>
      <vel value="0.0322158198" flag="0"/>
      <psa03 value="0.1248584494" flag="0"/>
      <psa10 value="0.0230632516" flag="0"/>
      <psa30 value="0.0016652229" flag="0"/>
    </comp>
    <comp name="00.HNE">
      <acc value="0.0925719263" flag="0"/>
      <vel value="0.0454192724" flag="0"/>
      <psa03 value="0.1920491115" flag="0"/>
      <psa10 value="0.0309539084" flag="0"/>
      <psa30 value="0.0020226211" flag="0"/>
    </comp>
  </station>
  <station code="SANT" name="SANT" netid="HL" insttype="30" lat="36.3705" lon="25.4593">
    <comp name="--.HHE">
      <acc value="0.5232643798" flag="0"/>
      <vel value="0.1322723212" flag="0"/>
      <psa03 value="0.7872467669" flag="0"/>
      <psa10 value="0.0498780812" flag="0"/>
      <psa30 value="0.0046951633" flag="0"/>
    </comp>
    <comp name="--.HHN">
      <acc value="0.3650574593" flag="0"/>
      <vel value="0.0499320671" flag="0"/>
      <psa03 value="0.1659698199" flag="0"/>
      <psa10 value="0.0342252524" flag="0"/>
      <psa30 value="0.0019955632" flag="0"/>
    </comp>
    <comp name="--.HHZ">
      <acc value="0.3779049613" flag="0"/>
      <vel value="0.0586491423" flag="0"/>
      <psa03 value="0.2501018012" flag="0"/>
      <psa10 value="0.0264346181" flag="0"/>
      <psa30 value="0.0020538625" flag="0"/>
    </comp>
  </station>
  <station code="SAP3" name="SAP3" netid="HL" insttype="65535" lat="36.4356" lon="25.3454">
    <comp name="--.HHN">
      <acc value="0.5433342808" flag="0"/>
      <vel value="0.1488619399" flag="0"/>
      <psa03 value="0.7975524346" flag="0"/>
      <psa10 value="0.0410556718" flag="0"/>
      <psa30 value="0.0036827135" flag="0"/>
    </comp>
    <comp name="--.HHE">
      <acc value="0.5851036407" flag="0"/>
      <vel value="0.1674468515" flag="0"/>
      <psa03 value="0.6341664914" flag="0"/>
      <psa10 value="0.0384320008" flag="0"/>
      <psa30 value="0.0049705222" flag="0"/>
    </comp>
    <comp name="--.HHZ">
      <acc value="0.3866751564" flag="0"/>
      <vel value="0.0906078198" flag="0"/>
      <psa03 value="0.5118713897" flag="0"/>
      <psa10 value="0.0230173197" flag="0"/>
      <psa30 value="0.0018249925" flag="0"/>
    </comp>
  </station>
  <station code="THERA" name="THERA" netid="HL" insttype="120" lat="36.367" lon="25.4753">
    <comp name="--.HHE">
      <acc value="0.1484163368" flag="0"/>
      <vel value="0.0365593493" flag="0"/>
      <psa03 value="0.1622007112" flag="0"/>
      <psa10 value="0.0290098717" flag="0"/>
      <psa30 value="0.0022753192" flag="0"/>
    </comp>
    <comp name="--.HHN">
      <acc value="0.2864379812" flag="0"/>
      <vel value="0.0601578780" flag="0"/>
      <psa03 value="0.3503422056" flag="0"/>
      <psa10 value="0.0257610565" flag="0"/>
      <psa30 value="0.0024161897" flag="0"/>
    </comp>
    <comp name="--.HHZ">
      <acc value="0.1612511357" flag="0"/>
      <vel value="0.0351809725" flag="0"/>
      <psa03 value="0.1258458236" flag="0"/>
      <psa10 value="0.0227316251" flag="0"/>
      <psa30 value="0.0012751267" flag="0"/>
    </comp>
  </station>
  <station code="THRA" name="THRA" netid="HL" insttype="CMG-5" lat="36.415" lon="25.4324">
    <comp name="00.HNN">
      <acc value="0.3815750524" flag="0"/>
      <vel value="0.1645122021" flag="0"/>
      <psa03 value="1.2686400254" flag="0"/>
      <psa10 value="0.1716455110" flag="0"/>
      <psa30 value="0.0081853982" flag="0"/>
    </comp>
    <comp name="00.HNE">
      <acc value="0.6031531262" flag="0"/>
      <vel value="0.2142604731" flag="0"/>
      <psa03 value="1.3812678609" flag="0"/>
      <psa10 value="0.1393387843" flag="0"/>
      <psa30 value="0.0092871790" flag="0"/>
    </comp>
    <comp name="00.HNZ">
      <acc value="0.4430301948" flag="0"/>
      <vel value="0.1361876299" flag="0"/>
      <psa03 value="0.8957542249" flag="0"/>
      <psa10 value="0.0625277890" flag="0"/>
      <psa30 value="0.0058138429" flag="0"/>
    </comp>
  </station>
  <station code="AKRO" name="AKRO" netid="HT" insttype="Compact," lat="36.3584" lon="25.3967">
    <comp name="--.HHE">
      <acc value="0.9204852921" flag="0"/>
      <vel value="0.3490951585" flag="0"/>
      <psa03 value="1.3129633252" flag="0"/>
      <psa10 value="0.1547443765" flag="0"/>
      <psa30 value="0.0100615403" flag="0"/>
    </comp>
    <comp name="--.HHN">
      <acc value="0.7343927402" flag="0"/>
      <vel value="0.1656675951" flag="0"/>
      <psa03 value="0.5367076895" flag="0"/>
      <psa10 value="0.0570096549" flag="0"/>
      <psa30 value="0.0049532516" flag="0"/>
    </comp>
    <comp name="--.HHZ">
      <acc value="0.4770141052" flag="0"/>
      <vel value="0.1322336601" flag="0"/>
      <psa03 value="0.4769498510" flag="0"/>
      <psa10 value="0.0516605877" flag="0"/>
      <psa30 value="0.0046592641" flag="0"/>
    </comp>
  </station>
  <station code="CMBO" name="CMBO" netid="HT" insttype="120P," lat="36.4709" lon="25.4056">
    <comp name="--.HHE">
      <acc value="0.5278381357" flag="0"/>
      <vel value="0.1733972120" flag="0"/>
      <psa03 value="0.5177614368" flag="0"/>
      <psa10 value="0.0541460546" flag="0"/>
      <psa30 value="0.0041001768" flag="0"/>
    </comp>
    <comp name="--.HHZ">
      <acc value="0.3313285759" flag="0"/>
      <vel value="0.1038123009" flag="0"/>
      <psa03 value="0.5615964301" flag="0"/>
      <psa10 value="0.0288587333" flag="0"/>
      <psa30 value="0.0034183198" flag="0"/>
    </comp>
    <comp name="--.HHN">
      <acc value="0.6789037724" flag="0"/>
      <vel value="0.2305908466" flag="0"/>
      <psa03 value="0.7869983474" flag="0"/>
      <psa10 value="0.0961574772" flag="0"/>
      <psa30 value="0.0077542017" flag="0"/>
    </comp>
  </station>
</stationlist>
