<?xml version="1.0" encoding="UTF-8" standalone="yes"?>
<!DOCTYPE earthquake SYSTEM "stationlist.dtd">
<stationlist created="" xmlns="ch.ethz.sed.shakemap.usgs.xml">
  <station code="THERA" name="THERA" netid="GE" insttype="STS-2/N" lat="36.367" lon="25.4753">
    <comp name="--.HHZ">
      <acc value="0.1615983196" flag="0"/>
      <vel value="0.0362913792" flag="0"/>
      <psa03 value="0.1290356864" flag="0"/>
      <psa10 value="0.0229003472" flag="0"/>
      <psa30 value="0.0012876415" flag="0"/>
    </comp>
    <comp name="--.HHE">
      <acc value="0.1489551929" flag="0"/>
      <vel value="0.0374583258" flag="0"/>
      <psa03 value="0.1671975894" flag="0"/>
      <psa10 value="0.0292819929" flag="0"/>
      <psa30 value="0.0022905056" flag="0"/>
    </comp>
    <comp name="--.HHN">
      <acc value="0.1451496450" flag="0"/>
      <vel value="0.0307439435" flag="0"/>
      <psa03 value="0.1800839586" flag="0"/>
      <psa10 value="0.0130486014" flag="0"/>
      <psa30 value="0.0012262827" flag="0"/>
    </comp>
  </station>
  <station code="SERI" name="SERI" netid="HA" insttype="30" lat="37.1609" lon="24.4853">
    <comp name="--.HHE">
      <acc value="0.0284861421" flag="0"/>
      <vel value="0.0096693702" flag="0"/>
      <psa03 value="0.0301127259" flag="0"/>
      <psa10 value="0.0032617519" flag="0"/>
      <psa30 value="0.0005729616" flag="0"/>
    </comp>
    <comp name="--.HHN">
      <acc value="0.0282498787" flag="0"/>
      <vel value="0.0117064156" flag="0"/>
      <psa03 value="0.0358487291" flag="0"/>
      <psa10 value="0.0069221895" flag="0"/>
      <psa30 value="0.0006316769" flag="0"/>
    </comp>
    <comp name="--.HHZ">
      <acc value="0.0226855792" flag="0"/>
      <vel value="0.0082783312" flag="0"/>
      <psa03 value="0.0239240967" flag="0"/>
      <psa10 value="0.0055747981" flag="0"/>
      <psa30 value="0.0007778640" flag="0"/>
    </comp>
  </station>
  <station code="SNT1" name="SNT1" netid="HA" insttype="30" lat="36.4159" lon="25.4282">
    <comp name="--.HHN">
      <acc value="0.1587142001" flag="0"/>
      <vel value="0.0803700510" flag="0"/>
      <psa03 value="0.2632791051" flag="0"/>
      <psa10 value="0.0578711576" flag="0"/>
      <psa30 value="0.0038823268" flag="0"/>
    </comp>
    <comp name="--.HHE">
      <acc value="0.1405707882" flag="0"/>
      <vel value="0.0786757674" flag="0"/>
      <psa03 value="0.4651909526" flag="0"/>
      <psa10 value="0.0513685122" flag="0"/>
      <psa30 value="0.0045577109" flag="0"/>
    </comp>
    <comp name="--.HHZ">
      <acc value="0.1394922281" flag="0"/>
      <vel value="0.0408061280" flag="0"/>
      <psa03 value="0.3184755734" flag="0"/>
      <psa10 value="0.0310036593" flag="0"/>
      <psa30 value="0.0021538286" flag="0"/>
    </comp>
  </station>
  <station code="NAX1" name="NAX1" netid="HI" insttype="CMG-5TD,ACCELEROMETER,GURALP" lat="37.1014" lon="25.3741">
    <comp name="--.HNE">
      <acc value="0.0744862779" flag="0"/>
      <vel value="0.0224764637" flag="0"/>
      <psa03 value="0.1417345295" flag="0"/>
      <psa10 value="0.0087110276" flag="0"/>
      <psa30 value="0.0007663259" flag="0"/>
    </comp>
    <comp name="--.HNZ">
      <acc value="0.0405805117" flag="0"/>
      <vel value="0.0074699233" flag="0"/>
      <psa03 value="0.0376369609" flag="0"/>
      <psa10 value="0.0067066467" flag="0"/>
      <psa30 value="0.0011829938" flag="0"/>
    </comp>
    <comp name="--.HNN">
      <acc value="0.0592513502" flag="0"/>
      <vel value="0.0119224321" flag="0"/>
      <psa03 value="0.0329075284" flag="0"/>
      <psa10 value="0.0051649838" flag="0"/>
      <psa30 value="0.0010005152" flag="0"/>
    </comp>
  </station>
  <station code="SFR2" name="SFR2" netid="HI" insttype="unknown" lat="36.3998" lon="25.4382">
    <comp name="--.HNN">
      <acc value="0.4935171657" flag="0"/>
      <vel value="0.1928658211" flag="0"/>
      <psa03 value="1.5914952512" flag="0"/>
      <psa10 value="0.0995202945" flag="0"/>
      <psa30 value="0.0062069520" flag="0"/>
    </comp>
    <comp name="--.HNE">
      <acc value="0.3338636735" flag="0"/>
      <vel value="0.1561083478" flag="0"/>
      <psa03 value="1.2420380083" flag="0"/>
      <psa10 value="0.0672867574" flag="0"/>
      <psa30 value="0.0071134773" flag="0"/>
    </comp>
    <comp name="--.HNZ">
      <acc value="0.4553898226" flag="0"/>
      <vel value="0.1355189094" flag="0"/>
      <psa03 value="0.8307851764" flag="0"/>
      <psa10 value="0.0509531277" flag="0"/>
      <psa30 value="0.0037969537" flag="0"/>
    </comp>
  </station>
  <station code="MHLO" name="MHLO" netid="HL" insttype="20" lat="36.6898" lon="24.4017">
    <comp name="--.HHN">
      <acc value="0.0768195500" flag="0"/>
      <vel value="0.0351817381" flag="0"/>
      <psa03 value="0.2118940051" flag="0"/>
      <psa10 value="0.0669232713" flag="0"/>
      <psa30 value="0.0022374633" flag="0"/>
    </comp>
    <comp name="--.HHZ">
      <acc value="0.0331165206" flag="0"/>
      <vel value="0.0190106585" flag="0"/>
      <psa03 value="0.0851949526" flag="0"/>
      <psa10 value="0.0247118374" flag="0"/>
      <psa30 value="0.0016569059" flag="0"/>
    </comp>
    <comp name="--.HHE">
      <acc value="0.0878291434" flag="0"/>
      <vel value="0.0403796764" flag="0"/>
      <psa03 value="0.2481951992" flag="0"/>
      <psa10 value="0.0507933529" flag="0"/>
      <psa30 value="0.0027254254" flag="0"/>
    </comp>
  </station>
  <station code="MILA" name="MILA" netid="HL" insttype="CMG-5" lat="36.7429" lon="24.4282">
    <comp name="00.HNN">
      <acc value="0.1271144355" flag="0"/>
      <vel value="0.0796162983" flag="0"/>
      <psa03 value="0.3123520491" flag="0"/>
      <psa10 value="0.0451501997" flag="0"/>
      <psa30 value="0.0032339432" flag="0"/>
    </comp>
    <comp name="00.HNZ">
      <acc value="0.0658762382" flag="0"/>
      <vel value="0.0322158225" flag="0"/>
      <psa03 value="0.1248584494" flag="0"/>
      <psa10 value="0.0230632518" flag="0"/>
      <psa30 value="0.0016648677" flag="0"/>
    </comp>
    <comp name="00.HNE">
      <acc value="0.0925719254" flag="0"/>
      <vel value="0.0454192756" flag="0"/>
      <psa03 value="0.1920491115" flag="0"/>
      <psa10 value="0.0309539097" flag="0"/>
      <psa30 value="0.0020218022" flag="0"/>
    </comp>
  </station>
  <station code="SANT" name="SANT" netid="HL" insttype="30" lat="36.3705" lon="25.4593">
    <comp name="--.HHE">
      <acc value="0.5232643796" flag="0"/>
      <vel value="0.1322723214" flag="0"/>
      <psa03 value="0.7872467669" flag="0"/>
      <psa10 value="0.0498780853" flag="0"/>
      <psa30 value="0.0046964566" flag="0"/>
    </comp>
    <comp name="--.HHN">
      <acc value="0.3650574593" flag="0"/>
      <vel value="0.0499320967" flag="0"/>
      <psa03 value="0.1659698199" flag="0"/>
      <psa10 value="0.0342252534" flag="0"/>
      <psa30 value="0.0019936828" flag="0"/>
    </comp>
    <comp name="--.HHZ">
      <acc value="0.3779049611" flag="0"/>
      <vel value="0.0586491124" flag="0"/>
      <psa03 value="0.2501018011" flag="0"/>
      <psa10 value="0.0264346331" flag="0"/>
      <psa30 value="0.0020558113" flag="0"/>
    </comp>
  </station>
  <station code="SAP3" name="SAP3" netid="HL" insttype="65535" lat="36.4356" lon="25.3454">
    <comp name="--.HHE">
      <acc value="0.5851036406" flag="0"/>
      <vel value="0.1674468806" flag="0"/>
      <psa03 value="0.6341664914" flag="0"/>
      <psa10 value="0.0384320055" flag="0"/>
      <psa30 value="0.0049698893" flag="0"/>
    </comp>
    <comp name="--.HHZ">
      <acc value="0.3866751564" flag="0"/>
      <vel value="0.0906078212" flag="0"/>
      <psa03 value="0.5118713897" flag="0"/>
      <psa10 value="0.0230173169" flag="0"/>
      <psa30 value="0.0018250363" flag="0"/>
    </comp>
    <comp name="--.HHN">
      <acc value="0.5433342806" flag="0"/>
      <vel value="0.1488618609" flag="0"/>
      <psa03 value="0.7975524346" flag="0"/>
      <psa10 value="0.0410556724" flag="0"/>
      <psa30 value="0.0036740325" flag="0"/>
    </comp>
  </station>
  <station code="THERA" name="THERA" netid="HL" insttype="120" lat="36.367" lon="25.4753">
    <comp name="--.HHN">
      <acc value="0.2864379803" flag="0"/>
      <vel value="0.0601578907" flag="0"/>
      <psa03 value="0.3503422056" flag="0"/>
      <psa10 value="0.0257610599" flag="0"/>
      <psa30 value="0.0024146108" flag="0"/>
    </comp>
    <comp name="--.HHE">
      <acc value="0.1484163367" flag="0"/>
      <vel value="0.0365593602" flag="0"/>
      <psa03 value="0.1622007112" flag="0"/>
      <psa10 value="0.0290098350" flag="0"/>
      <psa30 value="0.0022758337" flag="0"/>
    </comp>
    <comp name="--.HHZ">
      <acc value="0.1612511352" flag="0"/>
      <vel value="0.0351809714" flag="0"/>
      <psa03 value="0.1258458236" flag="0"/>
      <psa10 value="0.0227316267" flag="0"/>
      <psa30 value="0.0012748367" flag="0"/>
    </comp>
  </station>
  <station code="THRA" name="THRA" netid="HL" insttype="CMG-5" lat="36.415" lon="25.4324">
    <comp name="00.HNZ">
      <acc value="0.4430301931" flag="0"/>
      <vel value="0.1361876259" flag="0"/>
      <psa03 value="0.8957542249" flag="0"/>
      <psa10 value="0.0625277853" flag="0"/>
      <psa30 value="0.0058142622" flag="0"/>
    </comp>
    <comp name="00.HNN">
      <acc value="0.3815750526" flag="0"/>
      <vel value="0.1645122370" flag="0"/>
      <psa03 value="1.2686400254" flag="0"/>
      <psa10 value="0.1716455571" flag="0"/>
      <psa30 value="0.0081857476" flag="0"/>
    </comp>
    <comp name="00.HNE">
      <acc value="0.6031531236" flag="0"/>
      <vel value="0.2142604804" flag="0"/>
      <psa03 value="1.3812678609" flag="0"/>
      <psa10 value="0.1393387740" flag="0"/>
      <psa30 value="0.0092842413" flag="0"/>
    </comp>
  </station>
  <station code="AKRO" name="AKRO" netid="HT" insttype="Compact," lat="36.3584" lon="25.3967">
    <comp name="--.HHE">
      <acc value="0.9204852921" flag="0"/>
      <vel value="0.3490951757" flag="0"/>
      <psa03 value="1.3129633252" flag="0"/>
      <psa10 value="0.1547443554" flag="0"/>
      <psa30 value="0.0100672370" flag="0"/>
    </comp>
    <comp name="--.HHZ">
      <acc value="0.4770141050" flag="0"/>
      <vel value="0.1322336632" flag="0"/>
      <psa03 value="0.4769498510" flag="0"/>
      <psa10 value="0.0516605323" flag="0"/>
      <psa30 value="0.0046575693" flag="0"/>
    </comp>
    <comp name="--.HHN">
      <acc value="0.7343927403" flag="0"/>
      <vel value="0.1656675971" flag="0"/>
      <psa03 value="0.5367076895" flag="0"/>
      <psa10 value="0.0570096524" flag="0"/>
      <psa30 value="0.0049527830" flag="0"/>
    </comp>
  </station>
  <station code="CMBO" name="CMBO" netid="HT" insttype="120P," lat="36.4709" lon="25.4056">
    <comp name="--.HHN">
      <acc value="0.6789037724" flag="0"/>
      <vel value="0.2305908652" flag="0"/>
      <psa03 value="0.7869983474" flag="0"/>
      <psa10 value="0.0961574990" flag="0"/>
      <psa30 value="0.0077537648" flag="0"/>
    </comp>
    <comp name="--.HHE">
      <acc value="0.5278381357" flag="0"/>
      <vel value="0.1733972305" flag="0"/>
      <psa03 value="0.5177614368" flag="0"/>
      <psa10 value="0.0541460539" flag="0"/>
      <psa30 value="0.0040842381" flag="0"/>
    </comp>
    <comp name="--.HHZ">
      <acc value="0.3313285759" flag="0"/>
      <vel value="0.1038122937" flag="0"/>
      <psa03 value="0.5615964301" flag="0"/>
      <psa10 value="0.0288587372" flag="0"/>
      <psa30 value="0.0034189925" flag="0"/>
    </comp>
  </station>
</stationlist>
