<?xml version="1.0" encoding="UTF-8" standalone="yes"?>
<!DOCTYPE earthquake SYSTEM "stationlist.dtd">
<stationlist created="" xmlns="ch.ethz.sed.shakemap.usgs.xml">
  <station code="THERA" name="THERA" netid="GE" insttype="STS-2/N" lat="36.367" lon="25.4753">
    <comp name="--.HHE">
      <acc value="0.1489551930" flag="0"/>
      <vel value="0.0374583262" flag="0"/>
      <psa03 value="0.1671975894" flag="0"/>
      <psa10 value="0.0292819978" flag="0"/>
      <psa30 value="0.0022904477" flag="0"/>
    </comp>
    <comp name="--.HHN">
      <acc value="0.1451496450" flag="0"/>
      <vel value="0.0307439432" flag="0"/>
      <psa03 value="0.1800839586" flag="0"/>
      <psa10 value="0.0130486015" flag="0"/>
      <psa30 value="0.0012264017" flag="0"/>
    </comp>
    <comp name="--.HHZ">
      <acc value="0.1615983197" flag="0"/>
      <vel value="0.0362913786" flag="0"/>
      <psa03 value="0.1290356864" flag="0"/>
      <psa10 value="0.0229003468" flag="0"/>
      <psa30 value="0.0012877462" flag="0"/>
    </comp>
  </station>
</stationlist>
