<?xml version="1.0" encoding="UTF-8" standalone="yes"?>
<!DOCTYPE earthquake SYSTEM "stationlist.dtd">
<stationlist created="" xmlns="ch.ethz.sed.shakemap.usgs.xml">
  <station code="THERA" name="THERA" netid="GE" insttype="STS-2/N" lat="36.367" lon="25.4753">
    <comp name="--.HHZ">
      <acc value="0.1615983200" flag="0"/>
      <vel value="0.0362913803" flag="0"/>
      <psa03 value="0.1290356864" flag="0"/>
      <psa10 value="0.0229003455" flag="0"/>
      <psa30 value="0.0012880286" flag="0"/>
    </comp>
    <comp name="--.HHE">
      <acc value="0.1489551930" flag="0"/>
      <vel value="0.0374583368" flag="0"/>
      <psa03 value="0.1671975894" flag="0"/>
      <psa10 value="0.0292820299" flag="0"/>
      <psa30 value="0.0022899879" flag="0"/>
    </comp>
    <comp name="--.HHN">
      <acc value="0.1451496453" flag="0"/>
      <vel value="0.0307439372" flag="0"/>
      <psa03 value="0.1800839586" flag="0"/>
      <psa10 value="0.0130485997" flag="0"/>
      <psa30 value="0.0012270753" flag="0"/>
    </comp>
  </station>
</stationlist>
