<?xml version="1.0" encoding="UTF-8" standalone="yes"?>
<!DOCTYPE earthquake SYSTEM "stationlist.dtd">
<stationlist created="" xmlns="ch.ethz.sed.shakemap.usgs.xml">
  <station code="APE" name="APE" netid="GE" insttype="STS-2/N" lat="37.0727" lon="25.523">
    <comp name="--.HHE">
      <acc value="0.0679166620" flag="0"/>
      <vel value="0.0136905210" flag="0"/>
      <psa03 value="0.0502501588" flag="0"/>
      <psa10 value="0.0044966783" flag="0"/>
      <psa30 value="0.0012218129" flag="0"/>
    </comp>
    <comp name="--.HHZ">
      <acc value="0.0233460235" flag="0"/>
      <vel value="0.0060851063" flag="0"/>
      <psa03 value="0.0359653379" flag="0"/>
      <psa10 value="0.0055027863" flag="0"/>
      <psa30 value="0.0013750167" flag="0"/>
    </comp>
    <comp name="--.HHN">
      <acc value="0.0629729155" flag="0"/>
      <vel value="0.0102688527" flag="0"/>
      <psa03 value="0.0468543407" flag="0"/>
      <psa10 value="0.0048399780" flag="0"/>
      <psa30 value="0.0011996808" flag="0"/>
    </comp>
  </station>
  <station code="THERA" name="THERA" netid="GE" insttype="STS-2/N" lat="36.367" lon="25.4753">
    <comp name="--.HHZ">
      <acc value="0.1615983196" flag="0"/>
      <vel value="0.0362913788" flag="0"/>
      <psa03 value="0.1290356864" flag="0"/>
      <psa10 value="0.0229003470" flag="0"/>
      <psa30 value="0.0012876974" flag="0"/>
    </comp>
    <comp name="--.HHN">
      <acc value="0.1451496450" flag="0"/>
      <vel value="0.0307439422" flag="0"/>
      <psa03 value="0.1800839586" flag="0"/>
      <psa10 value="0.0130486014" flag="0"/>
      <psa30 value="0.0012263632" flag="0"/>
    </comp>
    <comp name="--.HHE">
      <acc value="0.1489551929" flag="0"/>
      <vel value="0.0374583260" flag="0"/>
      <psa03 value="0.1671975894" flag="0"/>
      <psa10 value="0.0292819953" flag="0"/>
      <psa30 value="0.0022904786" flag="0"/>
    </comp>
  </station>
</stationlist>
