<?xml version="1.0" encoding="UTF-8" standalone="yes"?>
<!DOCTYPE earthquake SYSTEM "stationlist.dtd">
<stationlist created="" xmlns="ch.ethz.sed.shakemap.usgs.xml">
  <station code="BISRR" name="BISRR" netid="RO" insttype="CMG40T.1to100/Basalt" lat="45.5481" lon="26.7099">
    <comp name="--.HHE">
      <acc value="0.0336254922" flag="0"/>
      <vel value="0.0092740138" flag="0"/>
      <psa03 value="0.0566764561" flag="0"/>
      <psa10 value="0.0071790280" flag="0"/>
      <psa30 value="0.0004630388" flag="0"/>
    </comp>
    <comp name="--.HHZ">
      <acc value="0.0357806641" flag="0"/>
      <vel value="0.0068736792" flag="0"/>
      <psa03 value="0.0255281038" flag="0"/>
      <psa10 value="0.0029814227" flag="0"/>
      <psa30 value="0.0001950607" flag="0"/>
    </comp>
    <comp name="--.HHN">
      <acc value="0.0180468521" flag="0"/>
      <vel value="0.0070194381" flag="0"/>
      <psa03 value="0.0299827951" flag="0"/>
      <psa10 value="0.0069292243" flag="0"/>
      <psa30 value="0.0005781627" flag="0"/>
    </comp>
  </station>
  <station code="BOSR" name="BOSR" netid="RO" insttype="Seismometer/Basalt" lat="46.0749" lon="25.6611">
    <comp name="--.HHE">
      <acc value="0.0043732204" flag="0"/>
      <vel value="0.0029442682" flag="0"/>
      <psa03 value="0.0078980570" flag="0"/>
      <psa10 value="0.0041165831" flag="0"/>
      <psa30 value="0.0002339651" flag="0"/>
    </comp>
    <comp name="--.HHN">
      <acc value="0.0048192459" flag="0"/>
      <vel value="0.0014463921" flag="0"/>
      <psa03 value="0.0062681225" flag="0"/>
      <psa10 value="0.0011396238" flag="0"/>
      <psa30 value="0.0000747756" flag="0"/>
    </comp>
    <comp name="--.HHZ">
      <acc value="0.0054520381" flag="0"/>
      <vel value="0.0010669313" flag="0"/>
      <psa03 value="0.0042003273" flag="0"/>
      <psa10 value="0.0006660413" flag="0"/>
      <psa30 value="0.0000670598" flag="0"/>
    </comp>
  </station>
  <station code="DOPR" name="DOPR" netid="RO" insttype="330" lat="45.9675" lon="25.3886">
    <comp name="--.HHE">
      <acc value="0.0048917330" flag="0"/>
      <vel value="0.0009859345" flag="0"/>
      <psa03 value="0.0037838682" flag="0"/>
      <psa10 value="0.0005206473" flag="0"/>
      <psa30 value="0.0001068653" flag="0"/>
    </comp>
    <comp name="--.HHN">
      <acc value="0.0037186709" flag="0"/>
      <vel value="0.0009721065" flag="0"/>
      <psa03 value="0.0061189039" flag="0"/>
      <psa10 value="0.0008717530" flag="0"/>
      <psa30 value="0.0000922458" flag="0"/>
    </comp>
    <comp name="--.HHZ">
      <acc value="0.0034784444" flag="0"/>
      <vel value="0.0007764026" flag="0"/>
      <psa03 value="0.0018887412" flag="0"/>
      <psa10 value="0.0004536850" flag="0"/>
      <psa30 value="0.0000440291" flag="0"/>
    </comp>
  </station>
  <station code="LEHL" name="LEHL" netid="RO" insttype="200" lat="44.4739" lon="26.8194">
    <comp name="--.HNE">
      <acc value="0.0379530968" flag="0"/>
      <vel value="0.0149866265" flag="0"/>
      <psa03 value="0.0600528019" flag="0"/>
      <psa10 value="0.0069209954" flag="0"/>
      <psa30 value="0.0005192921" flag="0"/>
    </comp>
    <comp name="--.HNN">
      <acc value="0.0284258548" flag="0"/>
      <vel value="0.0135172736" flag="0"/>
      <psa03 value="0.0569477699" flag="0"/>
      <psa10 value="0.0073002043" flag="0"/>
      <psa30 value="0.0007412836" flag="0"/>
    </comp>
    <comp name="--.HNZ">
      <acc value="0.0232525712" flag="0"/>
      <vel value="0.0050325887" flag="0"/>
      <psa03 value="0.0101938506" flag="0"/>
      <psa10 value="0.0012195073" flag="0"/>
      <psa30 value="0.0001124061" flag="0"/>
    </comp>
  </station>
  <station code="MLR" name="MLR" netid="RO" insttype="330HR" lat="45.4909" lon="25.945">
    <comp name="--.HHE">
      <acc value="0.0028531025" flag="0"/>
      <vel value="0.0012972581" flag="0"/>
      <psa03 value="0.0057477620" flag="0"/>
      <psa10 value="0.0010079994" flag="0"/>
      <psa30 value="0.0000830783" flag="0"/>
    </comp>
    <comp name="--.HHN">
      <acc value="0.0041788627" flag="0"/>
      <vel value="0.0013898544" flag="0"/>
      <psa03 value="0.0069156562" flag="0"/>
      <psa10 value="0.0006741078" flag="0"/>
      <psa30 value="0.0000592488" flag="0"/>
    </comp>
    <comp name="--.HHZ">
      <acc value="0.0056592204" flag="0"/>
      <vel value="0.0024976526" flag="0"/>
      <psa03 value="0.0081297073" flag="0"/>
      <psa10 value="0.0014976082" flag="0"/>
      <psa30 value="0.0001119165" flag="0"/>
    </comp>
  </station>
  <station code="NEHR" name="NEHR" netid="RO" insttype="Seismometer/Basalt" lat="45.4272" lon="26.2952">
    <comp name="--.HHE">
      <acc value="0.0150147464" flag="0"/>
      <vel value="0.0032894497" flag="0"/>
      <psa03 value="0.0237019064" flag="0"/>
      <psa10 value="0.0019387769" flag="0"/>
      <psa30 value="0.0001082091" flag="0"/>
    </comp>
    <comp name="--.HHZ">
      <acc value="0.0280494812" flag="0"/>
      <vel value="0.0047088293" flag="0"/>
      <psa03 value="0.0221502754" flag="0"/>
      <psa10 value="0.0016425132" flag="0"/>
      <psa30 value="0.0001607306" flag="0"/>
    </comp>
    <comp name="--.HHN">
      <acc value="0.0158935737" flag="0"/>
      <vel value="0.0032447543" flag="0"/>
      <psa03 value="0.0213237918" flag="0"/>
      <psa10 value="0.0014606670" flag="0"/>
      <psa30 value="0.0000825100" flag="0"/>
    </comp>
  </station>
  <station code="ODBI" name="ODBI" netid="RO" insttype="200" lat="45.7633" lon="27.0558">
    <comp name="--.HNE">
      <acc value="0.0226863594" flag="0"/>
      <vel value="0.0034004904" flag="0"/>
      <psa03 value="0.0128657208" flag="0"/>
      <psa10 value="0.0026430135" flag="0"/>
      <psa30 value="0.0001973314" flag="0"/>
    </comp>
    <comp name="--.HNN">
      <acc value="0.0169180417" flag="0"/>
      <vel value="0.0035996408" flag="0"/>
      <psa03 value="0.0097993022" flag="0"/>
      <psa10 value="0.0016187186" flag="0"/>
      <psa30 value="0.0000966270" flag="0"/>
    </comp>
    <comp name="--.HNZ">
      <acc value="0.0380863543" flag="0"/>
      <vel value="0.0035666882" flag="0"/>
      <psa03 value="0.0105206820" flag="0"/>
      <psa10 value="0.0012964026" flag="0"/>
      <psa30 value="0.0001089997" flag="0"/>
    </comp>
  </station>
  <station code="PANC" name="PANC" netid="RO" insttype="Seismometer/Basalt" lat="45.8723" lon="27.1477">
    <comp name="--.HHE">
      <acc value="0.0770981601" flag="0"/>
      <vel value="0.0148191826" flag="0"/>
      <psa03 value="0.0194566044" flag="0"/>
      <psa10 value="0.0040171005" flag="0"/>
      <psa30 value="0.0002022096" flag="0"/>
    </comp>
    <comp name="--.HHN">
      <acc value="0.0006350494" flag="0"/>
      <vel value="-100.0000000000" flag="0"/>
      <psa03 value="0.0002972184" flag="0"/>
      <psa10 value="0.0000482965" flag="0"/>
      <psa30 value="0.0000280460" flag="0"/>
    </comp>
    <comp name="--.HHZ">
      <acc value="0.0694062417" flag="0"/>
      <vel value="0.0086039257" flag="0"/>
      <psa03 value="0.0169838645" flag="0"/>
      <psa10 value="0.0016922040" flag="0"/>
      <psa30 value="0.0001217636" flag="0"/>
    </comp>
  </station>
  <station code="PGOR" name="PGOR" netid="RO" insttype="CMG40T.1to100/Quanterra" lat="44.9199" lon="26.9768">
    <comp name="--.HHE">
      <acc value="0.0574675211" flag="0"/>
      <vel value="0.0151246230" flag="0"/>
      <psa03 value="0.0532164307" flag="0"/>
      <psa10 value="0.0046100953" flag="0"/>
      <psa30 value="0.0004152502" flag="0"/>
    </comp>
    <comp name="--.HHZ">
      <acc value="0.0627591236" flag="0"/>
      <vel value="0.0066279302" flag="0"/>
      <psa03 value="0.0186761560" flag="0"/>
      <psa10 value="0.0013267705" flag="0"/>
      <psa30 value="0.0001503279" flag="0"/>
    </comp>
    <comp name="--.HHN">
      <acc value="0.0695706878" flag="0"/>
      <vel value="0.0149950842" flag="0"/>
      <psa03 value="0.0740455072" flag="0"/>
      <psa10 value="0.0051613164" flag="0"/>
      <psa30 value="0.0004096543" flag="0"/>
    </comp>
  </station>
  <station code="PLAR" name="PLAR" netid="RO" insttype="200" lat="44.9142" lon="26.0274">
    <comp name="--.HNN">
      <acc value="0.0411771685" flag="0"/>
      <vel value="0.0170838747" flag="0"/>
      <psa03 value="0.0638104657" flag="0"/>
      <psa10 value="0.0042405261" flag="0"/>
      <psa30 value="0.0005432025" flag="0"/>
    </comp>
    <comp name="--.HNE">
      <acc value="0.0295907591" flag="0"/>
      <vel value="0.0094115392" flag="0"/>
      <psa03 value="0.0745078143" flag="0"/>
      <psa10 value="0.0046956482" flag="0"/>
      <psa30 value="0.0003005351" flag="0"/>
    </comp>
    <comp name="--.HNZ">
      <acc value="0.0532755553" flag="0"/>
      <vel value="0.0096370658" flag="0"/>
      <psa03 value="0.0238713748" flag="0"/>
      <psa10 value="0.0016533327" flag="0"/>
      <psa30 value="0.0002325816" flag="0"/>
    </comp>
  </station>
  <station code="PLOR" name="PLOR" netid="RO" insttype="330" lat="45.8512" lon="26.6498">
    <comp name="--.HHE">
      <acc value="0.0041377545" flag="0"/>
      <vel value="0.0017466811" flag="0"/>
      <psa03 value="0.0116559473" flag="0"/>
      <psa10 value="0.0013702829" flag="0"/>
      <psa30 value="0.0000641279" flag="0"/>
    </comp>
    <comp name="--.HHN">
      <acc value="0.0036193897" flag="0"/>
      <vel value="0.0015483517" flag="0"/>
      <psa03 value="0.0087397632" flag="0"/>
      <psa10 value="0.0007839905" flag="0"/>
      <psa30 value="0.0000538867" flag="0"/>
    </comp>
    <comp name="--.HHZ">
      <acc value="0.0052529769" flag="0"/>
      <vel value="0.0011292118" flag="0"/>
      <psa03 value="0.0041625850" flag="0"/>
      <psa10 value="0.0004260460" flag="0"/>
      <psa30 value="0.0000208525" flag="0"/>
    </comp>
  </station>
  <station code="PLOR4" name="PLOR4" netid="RO" insttype="330" lat="45.8512" lon="26.6498">
    <comp name="--.HHZ">
      <acc value="0.0052529769" flag="0"/>
      <vel value="0.0011292118" flag="0"/>
      <psa03 value="0.0041625850" flag="0"/>
      <psa10 value="0.0004260460" flag="0"/>
      <psa30 value="0.0000208525" flag="0"/>
    </comp>
    <comp name="--.HHN">
      <acc value="0.0036193897" flag="0"/>
      <vel value="0.0015483517" flag="0"/>
      <psa03 value="0.0087397632" flag="0"/>
      <psa10 value="0.0007839905" flag="0"/>
      <psa30 value="0.0000538867" flag="0"/>
    </comp>
    <comp name="--.HHE">
      <acc value="0.0041377545" flag="0"/>
      <vel value="0.0017466811" flag="0"/>
      <psa03 value="0.0116559473" flag="0"/>
      <psa10 value="0.0013702829" flag="0"/>
      <psa30 value="0.0000641279" flag="0"/>
    </comp>
  </station>
  <station code="SAHR" name="SAHR" netid="RO" insttype="2.5V" lat="45.7266" lon="26.6855">
    <comp name="--.HNN">
      <acc value="0.0146419333" flag="0"/>
      <vel value="0.0054327068" flag="0"/>
      <psa03 value="0.0317689213" flag="0"/>
      <psa10 value="0.0035818770" flag="0"/>
      <psa30 value="0.0001902446" flag="0"/>
    </comp>
    <comp name="--.HNZ">
      <acc value="0.0155984516" flag="0"/>
      <vel value="0.0033096399" flag="0"/>
      <psa03 value="0.0126032005" flag="0"/>
      <psa10 value="0.0018991726" flag="0"/>
      <psa30 value="0.0001050209" flag="0"/>
    </comp>
    <comp name="--.HNE">
      <acc value="0.0136075706" flag="0"/>
      <vel value="0.0049833551" flag="0"/>
      <psa03 value="0.0222419795" flag="0"/>
      <psa10 value="0.0022625452" flag="0"/>
      <psa30 value="0.0002302128" flag="0"/>
    </comp>
  </station>
  <station code="SCHL" name="SCHL" netid="RO" insttype="200" lat="45.5007" lon="27.8302">
    <comp name="--.HNE">
      <acc value="0.0304294986" flag="0"/>
      <vel value="0.0089021129" flag="0"/>
      <psa03 value="0.0396690346" flag="0"/>
      <psa10 value="0.0029811556" flag="0"/>
      <psa30 value="0.0002219065" flag="0"/>
    </comp>
    <comp name="--.HNN">
      <acc value="0.0323515446" flag="0"/>
      <vel value="0.0058258063" flag="0"/>
      <psa03 value="0.0205874795" flag="0"/>
      <psa10 value="0.0036290623" flag="0"/>
      <psa30 value="0.0001914329" flag="0"/>
    </comp>
    <comp name="--.HNZ">
      <acc value="0.0456182758" flag="0"/>
      <vel value="0.0062855387" flag="0"/>
      <psa03 value="0.0132698791" flag="0"/>
      <psa10 value="0.0010342481" flag="0"/>
      <psa30 value="0.0000704635" flag="0"/>
    </comp>
  </station>
  <station code="SULR" name="SULR" netid="RO" insttype="330" lat="44.6777" lon="26.2526">
    <comp name="--.HHE">
      <acc value="0.0183679906" flag="0"/>
      <vel value="0.0069026649" flag="0"/>
      <psa03 value="0.0449403678" flag="0"/>
      <psa10 value="0.0021264078" flag="0"/>
      <psa30 value="0.0002369929" flag="0"/>
    </comp>
    <comp name="--.HHN">
      <acc value="0.0241558660" flag="0"/>
      <vel value="0.0105305979" flag="0"/>
      <psa03 value="0.0578385645" flag="0"/>
      <psa10 value="0.0061197242" flag="0"/>
      <psa30 value="0.0006166134" flag="0"/>
    </comp>
    <comp name="--.HHZ">
      <acc value="0.0257336137" flag="0"/>
      <vel value="0.0045763618" flag="0"/>
      <psa03 value="0.0235647243" flag="0"/>
      <psa10 value="0.0013159054" flag="0"/>
      <psa30 value="0.0001127537" flag="0"/>
    </comp>
  </station>
  <station code="TESR" name="TESR" netid="RO" insttype="200" lat="46.5118" lon="26.6489">
    <comp name="--.HNE">
      <acc value="0.0042892317" flag="0"/>
      <vel value="0.0011658949" flag="0"/>
      <psa03 value="0.0038418748" flag="0"/>
      <psa10 value="0.0008709671" flag="0"/>
      <psa30 value="0.0000748023" flag="0"/>
    </comp>
    <comp name="--.HNN">
      <acc value="0.0041758573" flag="0"/>
      <vel value="0.0010329453" flag="0"/>
      <psa03 value="0.0032812147" flag="0"/>
      <psa10 value="0.0005766162" flag="0"/>
      <psa30 value="0.0000730019" flag="0"/>
    </comp>
    <comp name="--.HNZ">
      <acc value="0.0034116967" flag="0"/>
      <vel value="0.0005712579" flag="0"/>
      <psa03 value="0.0018293694" flag="0"/>
      <psa10 value="0.0002799759" flag="0"/>
      <psa30 value="0.0000439951" flag="0"/>
    </comp>
  </station>
  <station code="TUDR" name="TUDR" netid="RO" insttype="CMG40T.1to100/Quanterra" lat="45.5939" lon="27.6687">
    <comp name="--.HHZ">
      <acc value="0.1521318733" flag="0"/>
      <vel value="0.0172181387" flag="0"/>
      <psa03 value="0.0138759274" flag="0"/>
      <psa10 value="0.0013642244" flag="0"/>
      <psa30 value="0.0001494617" flag="0"/>
    </comp>
    <comp name="--.HHE">
      <acc value="0.0747216418" flag="0"/>
      <vel value="0.0188082802" flag="0"/>
      <psa03 value="0.0556695512" flag="0"/>
      <psa10 value="0.0033055978" flag="0"/>
      <psa30 value="0.0003557941" flag="0"/>
    </comp>
    <comp name="--.HHN">
      <acc value="0.0892878452" flag="0"/>
      <vel value="0.0157355197" flag="0"/>
      <psa03 value="0.0644226078" flag="0"/>
      <psa10 value="0.0035519586" flag="0"/>
      <psa30 value="0.0003006766" flag="0"/>
    </comp>
  </station>
  <station code="VOIR" name="VOIR" netid="RO" insttype="330" lat="45.4371" lon="25.0495">
    <comp name="--.HHE">
      <acc value="0.0022200395" flag="0"/>
      <vel value="0.0011764275" flag="0"/>
      <psa03 value="0.0059492489" flag="0"/>
      <psa10 value="0.0006462582" flag="0"/>
      <psa30 value="0.0000565646" flag="0"/>
    </comp>
    <comp name="--.HHZ">
      <acc value="0.0035325637" flag="0"/>
      <vel value="0.0007956877" flag="0"/>
      <psa03 value="0.0044659972" flag="0"/>
      <psa10 value="0.0003575695" flag="0"/>
      <psa30 value="0.0000237884" flag="0"/>
    </comp>
    <comp name="--.HHN">
      <acc value="0.0028034483" flag="0"/>
      <vel value="0.0008585984" flag="0"/>
      <psa03 value="0.0048059950" flag="0"/>
      <psa10 value="0.0004359922" flag="0"/>
      <psa30 value="0.0000323346" flag="0"/>
    </comp>
  </station>
  <station code="VRI" name="VRI" netid="RO" insttype="Linear" lat="45.8657" lon="26.7277">
    <comp name="--.HHN">
      <acc value="0.0071188107" flag="0"/>
      <vel value="0.0031621817" flag="0"/>
      <psa03 value="0.0187727138" flag="0"/>
      <psa10 value="0.0017942871" flag="0"/>
      <psa30 value="0.0001121878" flag="0"/>
    </comp>
    <comp name="--.HHE">
      <acc value="0.0156925251" flag="0"/>
      <vel value="0.0045417781" flag="0"/>
      <psa03 value="0.0382817169" flag="0"/>
      <psa10 value="0.0017626267" flag="0"/>
      <psa30 value="0.0001482860" flag="0"/>
    </comp>
    <comp name="--.HHZ">
      <acc value="0.0166404413" flag="0"/>
      <vel value="0.0031101451" flag="0"/>
      <psa03 value="0.0100161563" flag="0"/>
      <psa10 value="0.0008930468" flag="0"/>
      <psa30 value="0.0000695671" flag="0"/>
    </comp>
  </station>
</stationlist>
