<stationlist created="1778069553">
	<station code="BISRR" name="BISRR" netid="RO" source="Romanian Seismic Network (NIEP)" insttype="" lat="45.5481" lon="26.7099">
		<comp name="--.HNE" depth="0.0">
			<acc value="0.0909304541357106" flag="0"/>
			<vel value="0.0126843924641492" flag="0"/>
			<psa03 value="0.0857260678806087" flag="0"/>
			<psa10 value="0.00805762398988456" flag="0"/>
			<psa30 value="0.000612968230670323" flag="0"/>
		</comp>
		<comp name="--.HNN" depth="0.0">
			<acc value="0.0733273885460108" flag="0"/>
			<vel value="0.0182349688642482" flag="0"/>
			<psa03 value="0.0697531001178857" flag="0"/>
			<psa10 value="0.00738917542300758" flag="0"/>
			<psa30 value="0.000385677821049502" flag="0"/>
		</comp>
		<comp name="--.HNZ" depth="0.0">
			<acc value="0.080050738275452" flag="0"/>
			<vel value="0.0123721857161505" flag="0"/>
			<psa03 value="0.03753871135273" flag="0"/>
			<psa10 value="0.0038133782700753" flag="0"/>
			<psa30 value="0.000221026500694262" flag="0"/>
		</comp>
	</station>
	<station code="COPA" name="COPA" netid="RO" source="Romanian Seismic Network (NIEP)" insttype="" lat="44.1343" lon="25.2172">
		<comp name="--.HNE" depth="0.0">
			<acc value="0.0326588349921605" flag="0"/>
			<vel value="0.0112441023523769" flag="0"/>
			<psa03 value="0.0473372546021315" flag="0"/>
			<psa10 value="0.00302412574532899" flag="0"/>
			<psa30 value="0.000270242927974361" flag="0"/>
		</comp>
		<comp name="--.HNN" depth="0.0">
			<acc value="0.0366184622573327" flag="0"/>
			<vel value="0.0152557166481567" flag="0"/>
			<psa03 value="0.0877842093850492" flag="0"/>
			<psa10 value="0.00382143186726659" flag="0"/>
			<psa30 value="0.000399547905101167" flag="0"/>
		</comp>
		<comp name="--.HNZ" depth="0.0">
			<acc value="0.018729445824607" flag="0"/>
			<vel value="0.00410972882283222" flag="0"/>
			<psa03 value="0.0214762591767704" flag="0"/>
			<psa10 value="0.000914083281211292" flag="0"/>
			<psa30 value="7.38246409201484e-05" flag="0"/>
		</comp>
	</station>
	<station code="GHRR" name="GHRR" netid="RO" source="Romanian Seismic Network (NIEP)" insttype="" lat="46.0605" lon="27.408">
		<comp name="--.HNE" depth="0.0">
			<acc value="0.141810826703283" flag="0"/>
			<vel value="0.0420885676755679" flag="0"/>
			<psa03 value="0.290555889779057" flag="0"/>
			<psa10 value="0.0163125611109557" flag="0"/>
			<psa30 value="0.00094182344931462" flag="0"/>
		</comp>
		<comp name="--.HNN" depth="0.0">
			<acc value="0.158726848345496" flag="0"/>
			<vel value="0.0489685713469643" flag="0"/>
			<psa03 value="0.194002207896826" flag="0"/>
			<psa10 value="0.0178507981744919" flag="0"/>
			<psa30 value="0.00084786481541625" flag="0"/>
		</comp>
		<comp name="--.HNZ" depth="0.0">
			<acc value="0.0592888348350301" flag="0"/>
			<vel value="0.0169550908231619" flag="0"/>
			<psa03 value="0.0776277284827015" flag="0"/>
			<psa10 value="0.00341875200770214" flag="0"/>
			<psa30 value="0.000291271765084949" flag="0"/>
		</comp>
	</station>
	<station code="HUMR" name="HUMR" netid="RO" source="Romanian Seismic Network (NIEP)" insttype="" lat="44.5281" lon="24.9804">
		<comp name="--.HNE" depth="0.0">
			<acc value="0.0680244920974985" flag="0"/>
			<vel value="0.026000896354045" flag="0"/>
			<psa03 value="0.147872992873388" flag="0"/>
			<psa10 value="0.00726837146513825" flag="0"/>
			<psa30 value="0.000581648686037533" flag="0"/>
		</comp>
		<comp name="--.HNN" depth="0.0">
			<acc value="0.0410269988381251" flag="0"/>
			<vel value="0.0162680960823519" flag="0"/>
			<psa03 value="0.0737798987135301" flag="0"/>
			<psa10 value="0.0029798309607769" flag="0"/>
			<psa30 value="0.000319906777320643" flag="0"/>
		</comp>
		<comp name="--.HNZ" depth="0.0">
			<acc value="0.0465139090388114" flag="0"/>
			<vel value="0.00869899429780357" flag="0"/>
			<psa03 value="0.0192391488458569" flag="0"/>
			<psa10 value="0.00103488723908063" flag="0"/>
			<psa30 value="0.000101117386957294" flag="0"/>
		</comp>
	</station>
	<station code="LEHL" name="LEHL" netid="RO" source="Romanian Seismic Network (NIEP)" insttype="" lat="44.4739" lon="26.8194">
		<comp name="--.HNE" depth="0.0">
			<acc value="0.107258162502993" flag="0"/>
			<vel value="0.0255611520106596" flag="0"/>
			<psa03 value="0.0588807439096456" flag="0"/>
			<psa10 value="0.00399055740828366" flag="0"/>
			<psa30 value="0.000754353603584062" flag="0"/>
		</comp>
		<comp name="--.HNN" depth="0.0">
			<acc value="0.071451022169696" flag="0"/>
			<vel value="0.0252288833933929" flag="0"/>
			<psa03 value="0.0962852286425208" flag="0"/>
			<psa10 value="0.00596368872014944" flag="0"/>
			<psa30 value="0.000628180580920535" flag="0"/>
		</comp>
		<comp name="--.HNZ" depth="0.0">
			<acc value="0.124174982459967" flag="0"/>
			<vel value="0.0168247817548307" flag="0"/>
			<psa03 value="0.0248766668797591" flag="0"/>
			<psa10 value="0.00145367429302765" flag="0"/>
			<psa30 value="0.000206708994576415" flag="0"/>
		</comp>
	</station>
	<station code="MLR" name="MLR" netid="RO" source="Romanian Seismic Network (NIEP)" insttype="" lat="45.4909" lon="25.945">
		<comp name="--.HNE" depth="0.0">
			<acc value="0.0107246784042483" flag="0"/>
			<vel value="0.00393505798347945" flag="0"/>
			<psa03 value="0.0165993586553788" flag="0"/>
			<psa10 value="0.00227514120653912" flag="0"/>
			<psa30 value="0.000253688311525601" flag="0"/>
		</comp>
		<comp name="--.HNN" depth="0.0">
			<acc value="0.00998995056810658" flag="0"/>
			<vel value="0.00457943056067681" flag="0"/>
			<psa03 value="0.0225053299289907" flag="0"/>
			<psa10 value="0.00351136837540197" flag="0"/>
			<psa30 value="0.000310510913930806" flag="0"/>
		</comp>
		<comp name="--.HNZ" depth="0.0">
			<acc value="0.0110948140545194" flag="0"/>
			<vel value="0.00400584102563314" flag="0"/>
			<psa03 value="0.0234896584745927" flag="0"/>
			<psa10 value="0.00217447124164801" flag="0"/>
			<psa30 value="0.000163756476222875" flag="0"/>
		</comp>
	</station>
	<station code="PLOR" name="PLOR" netid="RO" source="Romanian Seismic Network (NIEP)" insttype="" lat="45.8512" lon="26.6498">
		<comp name="--.HNE" depth="0.0">
			<acc value="0.0250812087527678" flag="0"/>
			<vel value="0.00868733722888561" flag="0"/>
			<psa03 value="0.0440263313123794" flag="0"/>
			<psa10 value="0.0037408958953537" flag="0"/>
			<psa30 value="0.000271137772106727" flag="0"/>
		</comp>
		<comp name="--.HNN" depth="0.0">
			<acc value="0.0300995141233966" flag="0"/>
			<vel value="0.011734517656837" flag="0"/>
			<psa03 value="0.0777619551025563" flag="0"/>
			<psa10 value="0.00602006390048846" flag="0"/>
			<psa30 value="0.000347646945423971" flag="0"/>
		</comp>
		<comp name="--.HNZ" depth="0.0">
			<acc value="0.0168491279092474" flag="0"/>
			<vel value="0.00549204569120215" flag="0"/>
			<psa03 value="0.0350331477821068" flag="0"/>
			<psa10 value="0.00226708760934783" flag="0"/>
			<psa30 value="0.000192838910524751" flag="0"/>
		</comp>
	</station>
	<station code="PLOR4" name="PLOR4" netid="RO" source="Romanian Seismic Network (NIEP)" insttype="" lat="45.8512" lon="26.6498">
		<comp name="--.HNE" depth="0.0">
			<acc value="0.0250812070660741" flag="0"/>
			<vel value="0.00868740664640938" flag="0"/>
			<psa03 value="0.0440263313123794" flag="0"/>
			<psa10 value="0.0037408958953537" flag="0"/>
			<psa30 value="0.000271585194172909" flag="0"/>
		</comp>
		<comp name="--.HNN" depth="0.0">
			<acc value="0.0300995436721778" flag="0"/>
			<vel value="0.0117345563052144" flag="0"/>
			<psa03 value="0.0777619551025563" flag="0"/>
			<psa10 value="0.00602006390048846" flag="0"/>
			<psa30 value="0.000347646945423971" flag="0"/>
		</comp>
		<comp name="--.HNZ" depth="0.0">
			<acc value="0.0168491456869837" flag="0"/>
			<vel value="0.00549203193993756" flag="0"/>
			<psa03 value="0.0350331477821068" flag="0"/>
			<psa10 value="0.00226708760934783" flag="0"/>
			<psa30 value="0.000192838910524751" flag="0"/>
		</comp>
	</station>
	<station code="SULR" name="SULR" netid="RO" source="Romanian Seismic Network (NIEP)" insttype="" lat="44.6777" lon="26.2526">
		<comp name="--.HNE" depth="0.0">
			<acc value="0.0547726885171179" flag="0"/>
			<vel value="0.0158426672956705" flag="0"/>
			<psa03 value="0.0476951922550777" flag="0"/>
			<psa10 value="0.00625361821903584" flag="0"/>
			<psa30 value="0.000575832199177157" flag="0"/>
		</comp>
		<comp name="--.HNN" depth="0.0">
			<acc value="0.063520682752745" flag="0"/>
			<vel value="0.0120794887195983" flag="0"/>
			<psa03 value="0.0444737533785621" flag="0"/>
			<psa10 value="0.00351136837540197" flag="0"/>
			<psa30 value="0.000390599463777512" flag="0"/>
		</comp>
		<comp name="--.HNZ" depth="0.0">
			<acc value="0.0799915713228596" flag="0"/>
			<vel value="0.0131641080669775" flag="0"/>
			<psa03 value="0.0457265351638737" flag="0"/>
			<psa10 value="0.00209393526973512" flag="0"/>
			<psa30 value="0.000238923383341571" flag="0"/>
		</comp>
	</station>
</stationlist>
