<?xml version="1.0" encoding="UTF-8" standalone="yes"?>
<!DOCTYPE earthquake SYSTEM "stationlist.dtd">
<stationlist created="" xmlns="ch.ethz.sed.shakemap.usgs.xml">
  <station code="ATHR" name="ATHR" netid="HA" insttype="GEOtiny," commtype="DIG" lat="38.3172" lon="20.4165">
    <comp name="--.HHN">
      <acc value="0.0066541511" flag="0"/>
      <vel value="0.0048017047" flag="0"/>
      <psa03 value="0.0133428125" flag="0"/>
      <psa10 value="0.0078162751" flag="0"/>
      <psa30 value="0.0005204099" flag="0"/>
    </comp>
    <comp name="--.HHE">
      <acc value="0.0058922518" flag="0"/>
      <vel value="0.0059321947" flag="0"/>
      <psa03 value="0.0124613899" flag="0"/>
      <psa10 value="0.0098263554" flag="0"/>
      <psa30 value="0.0007436548" flag="0"/>
    </comp>
    <comp name="--.HHZ">
      <acc value="0.0059595414" flag="0"/>
      <vel value="0.0033483123" flag="0"/>
      <psa03 value="0.0093625010" flag="0"/>
      <psa10 value="0.0071752818" flag="0"/>
      <psa30 value="0.0002920112" flag="0"/>
    </comp>
  </station>
  <station code="HAVD" name="HAVD" netid="HA" insttype="GEOtiny," commtype="DIG" lat="38.2036" lon="20.3848">
    <comp name="--.HHE">
      <acc value="0.0101540353" flag="0"/>
      <vel value="0.0061235799" flag="0"/>
      <psa03 value="0.0236206098" flag="0"/>
      <psa10 value="0.0108761297" flag="0"/>
      <psa30 value="0.0004808265" flag="0"/>
    </comp>
    <comp name="--.HHZ">
      <acc value="0.0098746219" flag="0"/>
      <vel value="0.0039848823" flag="0"/>
      <psa03 value="0.0180758057" flag="0"/>
      <psa10 value="0.0056318926" flag="0"/>
      <psa30 value="0.0003520838" flag="0"/>
    </comp>
    <comp name="--.HHN">
      <acc value="0.0121595160" flag="0"/>
      <vel value="0.0088050753" flag="0"/>
      <psa03 value="0.0216667634" flag="0"/>
      <psa10 value="0.0156337524" flag="0"/>
      <psa30 value="0.0007270169" flag="0"/>
    </comp>
  </station>
  <station code="VSK1" name="VSK1" netid="HI" insttype="unknown" commtype="DIG" lat="38.4091" lon="20.564">
    <comp name="--.HNE">
      <acc value="0.0072220477" flag="0"/>
      <vel value="0.0055312265" flag="0"/>
      <psa03 value="0.0110218601" flag="0"/>
      <psa10 value="0.0071688018" flag="0"/>
      <psa30 value="0.0006338011" flag="0"/>
    </comp>
    <comp name="--.HNN">
      <acc value="0.0073032831" flag="0"/>
      <vel value="0.0062188560" flag="0"/>
      <psa03 value="0.0201218490" flag="0"/>
      <psa10 value="0.0120217914" flag="0"/>
      <psa30 value="0.0005930425" flag="0"/>
    </comp>
    <comp name="--.HNZ">
      <acc value="0.0037994526" flag="0"/>
      <vel value="0.0021844595" flag="0"/>
      <psa03 value="0.0086783734" flag="0"/>
      <psa10 value="0.0048295135" flag="0"/>
      <psa30 value="0.0002848429" flag="0"/>
    </comp>
  </station>
  <station code="ZAK2" name="ZAK2" netid="HI" insttype="unknown" commtype="DIG" lat="37.7875" lon="20.9">
    <comp name="--.HNE">
      <acc value="0.0704293804" flag="0"/>
      <vel value="0.0368805039" flag="0"/>
      <psa03 value="0.1355346435" flag="0"/>
      <psa10 value="0.0421370235" flag="0"/>
      <psa30 value="0.0025382161" flag="0"/>
    </comp>
    <comp name="--.HNZ">
      <acc value="0.0552642270" flag="0"/>
      <vel value="0.0146333690" flag="0"/>
      <psa03 value="0.0552820729" flag="0"/>
      <psa10 value="0.0243139472" flag="0"/>
      <psa30 value="0.0015953002" flag="0"/>
    </comp>
    <comp name="--.HNN">
      <acc value="0.0686892822" flag="0"/>
      <vel value="0.0465799950" flag="0"/>
      <psa03 value="0.1468809475" flag="0"/>
      <psa10 value="0.0467804525" flag="0"/>
      <psa30 value="0.0019221912" flag="0"/>
    </comp>
  </station>
  <station code="ORTH" name="ORTH" netid="HL" insttype="30" commtype="DIG" lat="37.8511" lon="20.6963">
    <comp name="--.HHE">
      <acc value="0.0350482467" flag="0"/>
      <vel value="0.0174378907" flag="0"/>
      <psa03 value="0.0837493181" flag="0"/>
      <psa10 value="0.0145551185" flag="0"/>
      <psa30 value="0.0008870188" flag="0"/>
    </comp>
    <comp name="--.HHN">
      <acc value="0.0350262624" flag="0"/>
      <vel value="0.0214981654" flag="0"/>
      <psa03 value="0.0733914669" flag="0"/>
      <psa10 value="0.0146014431" flag="0"/>
      <psa30 value="0.0010310562" flag="0"/>
    </comp>
    <comp name="--.HHZ">
      <acc value="0.0173416408" flag="0"/>
      <vel value="0.0079804487" flag="0"/>
      <psa03 value="0.0300897287" flag="0"/>
      <psa10 value="0.0114470404" flag="0"/>
      <psa30 value="0.0008977201" flag="0"/>
    </comp>
  </station>
  <station code="FSK" name="FSK" netid="HP" insttype="40," commtype="DIG" lat="38.4593" lon="20.5623">
    <comp name="--.HHE">
      <acc value="0.0077602735" flag="0"/>
      <vel value="0.0043768615" flag="0"/>
      <psa03 value="0.0107482125" flag="0"/>
      <psa10 value="0.0050747945" flag="0"/>
      <psa30 value="0.0010352910" flag="0"/>
    </comp>
    <comp name="--.HHN">
      <acc value="0.0042961832" flag="0"/>
      <vel value="0.0027567916" flag="0"/>
      <psa03 value="0.0112848616" flag="0"/>
      <psa10 value="0.0057934063" flag="0"/>
      <psa30 value="0.0004499229" flag="0"/>
    </comp>
    <comp name="--.HHZ">
      <acc value="0.0033368537" flag="0"/>
      <vel value="0.0027002209" flag="0"/>
      <psa03 value="0.0057281692" flag="0"/>
      <psa10 value="0.0049091247" flag="0"/>
      <psa30 value="0.0004129414" flag="0"/>
    </comp>
  </station>
  <station code="LTHK" name="LTHK" netid="HP" insttype="40," commtype="DIG" lat="37.7095" lon="20.8367">
    <comp name="--.HHZ">
      <acc value="0.0212658620" flag="0"/>
      <vel value="0.0073987465" flag="0"/>
      <psa03 value="0.0309647256" flag="0"/>
      <psa10 value="0.0080568797" flag="0"/>
      <psa30 value="0.0004314010" flag="0"/>
    </comp>
    <comp name="--.HHN">
      <acc value="0.0317421393" flag="0"/>
      <vel value="0.0147497137" flag="0"/>
      <psa03 value="0.0431992081" flag="0"/>
      <psa10 value="0.0174404158" flag="0"/>
      <psa30 value="0.0008731650" flag="0"/>
    </comp>
    <comp name="--.HHE">
      <acc value="0.0286532297" flag="0"/>
      <vel value="0.0097695075" flag="0"/>
      <psa03 value="0.0600915469" flag="0"/>
      <psa10 value="0.0115315234" flag="0"/>
      <psa30 value="0.0007582276" flag="0"/>
    </comp>
  </station>
  <station code="DMLN" name="DMLN" netid="HT" insttype="1s-100Hz," commtype="DIG" lat="38.2385" lon="20.3734">
    <comp name="--.HHE">
      <acc value="0.0287919741" flag="0"/>
      <vel value="0.0185216553" flag="0"/>
      <psa03 value="0.0471208694" flag="0"/>
      <psa10 value="0.0235443386" flag="0"/>
      <psa30 value="0.0015169670" flag="0"/>
    </comp>
    <comp name="--.HHN">
      <acc value="0.0221691228" flag="0"/>
      <vel value="0.0121460802" flag="0"/>
      <psa03 value="0.0463870017" flag="0"/>
      <psa10 value="0.0166278138" flag="0"/>
      <psa30 value="0.0008879539" flag="0"/>
    </comp>
    <comp name="--.HHZ">
      <acc value="0.0129124941" flag="0"/>
      <vel value="0.0068510088" flag="0"/>
      <psa03 value="0.0241749206" flag="0"/>
      <psa10 value="0.0080897094" flag="0"/>
      <psa30 value="0.0005259040" flag="0"/>
    </comp>
  </station>
  <station code="ITHC" name="ITHC" netid="HT" insttype="60s," commtype="DIG" lat="38.4622" lon="20.632">
    <comp name="--.HHE">
      <acc value="0.0174457792" flag="0"/>
      <vel value="0.0128662587" flag="0"/>
      <psa03 value="0.0426677227" flag="0"/>
      <psa10 value="0.0110856329" flag="0"/>
      <psa30 value="0.0007457272" flag="0"/>
    </comp>
    <comp name="--.HHZ">
      <acc value="0.0042668457" flag="0"/>
      <vel value="0.0033784267" flag="0"/>
      <psa03 value="0.0094026255" flag="0"/>
      <psa10 value="0.0045108602" flag="0"/>
      <psa30 value="0.0007746586" flag="0"/>
    </comp>
    <comp name="--.HHN">
      <acc value="0.0098788873" flag="0"/>
      <vel value="0.0061996137" flag="0"/>
      <psa03 value="0.0213693363" flag="0"/>
      <psa10 value="0.0077279228" flag="0"/>
      <psa30 value="0.0006416575" flag="0"/>
    </comp>
  </station>
  <station code="PSDA" name="PSDA" netid="HT" insttype="30" commtype="DIG" lat="38.114" lon="20.5841">
    <comp name="--.HHE">
      <acc value="0.0203864519" flag="0"/>
      <vel value="0.0081244894" flag="0"/>
      <psa03 value="0.0282379909" flag="0"/>
      <psa10 value="0.0046127638" flag="0"/>
      <psa30 value="0.0004954919" flag="0"/>
    </comp>
    <comp name="--.HHN">
      <acc value="0.0002300836" flag="0"/>
      <vel value="0.0000740253" flag="0"/>
      <psa03 value="0.0003112183" flag="0"/>
      <psa10 value="0.0000714105" flag="0"/>
      <psa30 value="0.0000058611" flag="0"/>
    </comp>
    <comp name="--.HHZ">
      <acc value="0.0144455240" flag="0"/>
      <vel value="0.0046773735" flag="0"/>
      <psa03 value="0.0172624130" flag="0"/>
      <psa10 value="0.0033146818" flag="0"/>
      <psa30 value="0.0002790145" flag="0"/>
    </comp>
  </station>
  <station code="RTZL" name="RTZL" netid="HT" insttype="Compact," commtype="DIG" lat="38.076" lon="20.7715">
    <comp name="--.HHN">
      <acc value="0.0189908131" flag="0"/>
      <vel value="0.0070136666" flag="0"/>
      <psa03 value="0.0222044004" flag="0"/>
      <psa10 value="0.0081267297" flag="0"/>
      <psa30 value="0.0005546989" flag="0"/>
    </comp>
    <comp name="--.HHE">
      <acc value="0.0133801724" flag="0"/>
      <vel value="0.0067749135" flag="0"/>
      <psa03 value="0.0215155368" flag="0"/>
      <psa10 value="0.0091694812" flag="0"/>
      <psa30 value="0.0006249351" flag="0"/>
    </comp>
    <comp name="--.HHZ">
      <acc value="0.0086121119" flag="0"/>
      <vel value="0.0047792861" flag="0"/>
      <psa03 value="0.0166019334" flag="0"/>
      <psa10 value="0.0061000624" flag="0"/>
      <psa30 value="0.0003492228" flag="0"/>
    </comp>
  </station>
  <station code="STRF" name="STRF" netid="HT" insttype="30s-100Hz," commtype="DIG" lat="37.2497" lon="21.013">
    <comp name="--.HHE">
      <acc value="0.0204340919" flag="0"/>
      <vel value="0.0129131786" flag="0"/>
      <psa03 value="0.1020411525" flag="0"/>
      <psa10 value="0.0073788670" flag="0"/>
      <psa30 value="0.0013630716" flag="0"/>
    </comp>
    <comp name="--.HHN">
      <acc value="0.0180068356" flag="0"/>
      <vel value="0.0080889683" flag="0"/>
      <psa03 value="0.0789915408" flag="0"/>
      <psa10 value="0.0105409186" flag="0"/>
      <psa30 value="0.0019043193" flag="0"/>
    </comp>
    <comp name="--.HHZ">
      <acc value="0.0132499330" flag="0"/>
      <vel value="0.0069310908" flag="0"/>
      <psa03 value="0.0365659575" flag="0"/>
      <psa10 value="0.0104532747" flag="0"/>
      <psa30 value="0.0011591656" flag="0"/>
    </comp>
  </station>
</stationlist>
