<stationlist created="1778069619">
	<station code="KHMN" name="KHMN" netid="KO" source="Bogazici University Kandilli Observatory And Earthquake Research Institute (KOERI)" insttype="" lat="37.3916" lon="37.1574">
		<comp name="--.HNE" depth="0.0">
			<acc value="0.152585711355363" flag="0"/>
			<vel value="0.154885606617554" flag="0"/>
			<psa03 value="0.437489296313461" flag="0"/>
			<psa10 value="0.192778955967883" flag="0"/>
			<psa30 value="0.0471560486653275" flag="0"/>
		</comp>
		<comp name="--.HNN" depth="0.0">
			<acc value="0.165717499821868" flag="0"/>
			<vel value="0.212097740470162" flag="0"/>
			<psa03 value="0.335656034050275" flag="0"/>
			<psa10 value="0.18510790464318" flag="0"/>
			<psa30 value="0.131244104361641" flag="0"/>
		</comp>
		<comp name="--.HNZ" depth="0.0">
			<acc value="0.0995514133649977" flag="0"/>
			<vel value="0.127701883415786" flag="0"/>
			<psa03 value="0.308318545806511" flag="0"/>
			<psa10 value="0.112077885312572" flag="0"/>
			<psa30 value="0.0515944755618601" flag="0"/>
		</comp>
	</station>
</stationlist>
