<stationlist created="1778136659">
	<station code="ARPRA" name="ARPRA" netid="KO" source="Bogazici University Kandilli Observatory And Earthquake Research Institute (KOERI)" insttype="" lat="39.0929" lon="38.3356">
		<comp name="--.HNE" depth="0.0">
			<acc value="0.0327883848631591" flag="0"/>
			<vel value="0.0131034143015872" flag="0"/>
			<psa03 value="0.0791621399367906" flag="0"/>
			<psa10 value="0.016462953089829" flag="0"/>
			<psa30 value="0.00112597156925523" flag="0"/>
		</comp>
		<comp name="--.HNN" depth="0.0">
			<acc value="0.0302127023808571" flag="0"/>
			<vel value="0.0124458146634545" flag="0"/>
			<psa03 value="0.103969918747042" flag="0"/>
			<psa10 value="0.0116760797329934" flag="0"/>
			<psa30 value="0.000690159261328449" flag="0"/>
		</comp>
		<comp name="--.HNZ" depth="0.0">
			<acc value="0.0155132005475446" flag="0"/>
			<vel value="0.00631643651045801" flag="0"/>
			<psa03 value="0.0347942320304434" flag="0"/>
			<psa10 value="0.0105676938078559" flag="0"/>
			<psa30 value="0.000460865998859307" flag="0"/>
		</comp>
	</station>
</stationlist>
