<?xml version="1.0" encoding="UTF-8" standalone="yes"?>
<!DOCTYPE earthquake SYSTEM "stationlist.dtd">
<stationlist created="" xmlns="ch.ethz.sed.shakemap.usgs.xml">
  <station code="ARPRA" name="ARPRA" netid="KO" insttype="CMG-5T" lat="39.0929" lon="38.3356">
    <comp name="--.HNN">
      <acc value="0.0304268543" flag="0"/>
      <vel value="0.0122917960" flag="0"/>
      <psa03 value="0.1047573615" flag="0"/>
      <psa10 value="0.0116603568" flag="0"/>
      <psa30 value="0.0006864828" flag="0"/>
    </comp>
    <comp name="--.HNZ">
      <acc value="0.0156366120" flag="0"/>
      <vel value="0.0062520969" flag="0"/>
      <psa03 value="0.0339843173" flag="0"/>
      <psa10 value="0.0105770579" flag="0"/>
      <psa30 value="0.0004316244" flag="0"/>
    </comp>
    <comp name="--.HNE">
      <acc value="0.0327457006" flag="0"/>
      <vel value="0.0130016323" flag="0"/>
      <psa03 value="0.0785629595" flag="0"/>
      <psa10 value="0.0164867378" flag="0"/>
      <psa30 value="0.0011287308" flag="0"/>
    </comp>
  </station>
</stationlist>
