<?xml version="1.0" encoding="UTF-8" standalone="yes"?>
<!DOCTYPE earthquake SYSTEM "stationlist.dtd">
<stationlist created="" xmlns="ch.ethz.sed.shakemap.usgs.xml">
  <station code="DARE" name="DARE" netid="KO" insttype="CMG-3ESP" lat="38.5712" lon="37.4832">
    <comp name="--.HHZ">
      <acc value="0.0151692923" flag="0"/>
      <vel value="0.0080587120" flag="0"/>
      <psa03 value="0.0225865575" flag="0"/>
      <psa10 value="0.0134359396" flag="0"/>
      <psa30 value="0.0013316592" flag="0"/>
    </comp>
    <comp name="--.HHE">
      <acc value="0.0141468940" flag="0"/>
      <vel value="0.0071299554" flag="0"/>
      <psa03 value="0.0195877482" flag="0"/>
      <psa10 value="0.0085097655" flag="0"/>
      <psa30 value="0.0006978941" flag="0"/>
    </comp>
    <comp name="--.HHN">
      <acc value="0.0120614956" flag="0"/>
      <vel value="0.0081159249" flag="0"/>
      <psa03 value="0.0223476727" flag="0"/>
      <psa10 value="0.0120588170" flag="0"/>
      <psa30 value="0.0016118587" flag="0"/>
    </comp>
  </station>
  <station code="GAZ" name="GAZ" netid="KO" insttype="CMG-3T" lat="37.1721" lon="37.2096">
    <comp name="--.HHE">
      <acc value="0.0860017124" flag="0"/>
      <vel value="0.0398363714" flag="0"/>
      <psa03 value="0.2105536600" flag="0"/>
      <psa10 value="0.0495871801" flag="0"/>
      <psa30 value="0.0081585934" flag="0"/>
    </comp>
    <comp name="--.HHN">
      <acc value="0.0803510421" flag="0"/>
      <vel value="0.0441173927" flag="0"/>
      <psa03 value="0.1409679839" flag="0"/>
      <psa10 value="0.0805128686" flag="0"/>
      <psa30 value="0.0080130698" flag="0"/>
    </comp>
    <comp name="--.HHZ">
      <acc value="0.0668786577" flag="0"/>
      <vel value="0.0384199094" flag="0"/>
      <psa03 value="0.1354296355" flag="0"/>
      <psa10 value="0.0459753503" flag="0"/>
      <psa30 value="0.0083213035" flag="0"/>
    </comp>
  </station>
  <station code="KHMN" name="KHMN" netid="KO" insttype="CMG-5T" lat="37.3916" lon="37.1574">
    <comp name="--.HNZ">
      <acc value="0.5646946970" flag="0"/>
      <vel value="0.1528673239" flag="0"/>
      <psa03 value="0.5432289042" flag="0"/>
      <psa10 value="0.1306958158" flag="0"/>
      <psa30 value="0.0295256132" flag="0"/>
    </comp>
    <comp name="--.HNE">
      <acc value="0.8719572994" flag="0"/>
      <vel value="0.2032759658" flag="0"/>
      <psa03 value="0.9097426930" flag="0"/>
      <psa10 value="0.2251082712" flag="0"/>
      <psa30 value="0.0269091416" flag="0"/>
    </comp>
    <comp name="--.HNN">
      <acc value="1.0880158291" flag="0"/>
      <vel value="0.2146909844" flag="0"/>
      <psa03 value="1.0589128285" flag="0"/>
      <psa10 value="0.0924395200" flag="0"/>
      <psa30 value="0.0313503322" flag="0"/>
    </comp>
  </station>
  <station code="SARI" name="SARI" netid="KO" insttype="CMG-3T" lat="38.4072" lon="36.4181">
    <comp name="--.HHE">
      <acc value="0.0637702181" flag="0"/>
      <vel value="0.0334889846" flag="0"/>
      <psa03 value="0.1189588832" flag="0"/>
      <psa10 value="0.0200807084" flag="0"/>
      <psa30 value="0.0018738930" flag="0"/>
    </comp>
    <comp name="--.HHN">
      <acc value="0.0658329439" flag="0"/>
      <vel value="0.0232622682" flag="0"/>
      <psa03 value="0.0896619771" flag="0"/>
      <psa10 value="0.0177901377" flag="0"/>
      <psa30 value="0.0011600486" flag="0"/>
    </comp>
    <comp name="--.HHZ">
      <acc value="0.0480421402" flag="0"/>
      <vel value="0.0170573063" flag="0"/>
      <psa03 value="0.0694411042" flag="0"/>
      <psa10 value="0.0132144984" flag="0"/>
      <psa30 value="0.0008468941" flag="0"/>
    </comp>
  </station>
</stationlist>
