<?xml version="1.0" encoding="UTF-8" standalone="yes"?>
<!DOCTYPE earthquake SYSTEM "stationlist.dtd">
<stationlist created="" xmlns="ch.ethz.sed.shakemap.usgs.xml">
  <station code="GAZ" name="GAZ" netid="KO" insttype="CMG-3T" lat="37.1721" lon="37.2096">
    <comp name="--.HHN">
      <acc value="0.0803510422" flag="0"/>
      <vel value="0.0441173900" flag="0"/>
      <psa03 value="0.1409679839" flag="0"/>
      <psa10 value="0.0805128621" flag="0"/>
      <psa30 value="0.0080135964" flag="0"/>
    </comp>
    <comp name="--.HHE">
      <acc value="0.0860017124" flag="0"/>
      <vel value="0.0398364027" flag="0"/>
      <psa03 value="0.2105536599" flag="0"/>
      <psa10 value="0.0495871823" flag="0"/>
      <psa30 value="0.0081578221" flag="0"/>
    </comp>
    <comp name="--.HHZ">
      <acc value="0.0668786575" flag="0"/>
      <vel value="0.0384198992" flag="0"/>
      <psa03 value="0.1354296355" flag="0"/>
      <psa10 value="0.0459753647" flag="0"/>
      <psa30 value="0.0083212928" flag="0"/>
    </comp>
  </station>
  <station code="KHMN" name="KHMN" netid="KO" insttype="CMG-5T" lat="37.3916" lon="37.1574">
    <comp name="--.HNE">
      <acc value="0.8719585449" flag="0"/>
      <vel value="0.2032759531" flag="0"/>
      <psa03 value="0.9097426930" flag="0"/>
      <psa10 value="0.2251083903" flag="0"/>
      <psa30 value="0.0269152321" flag="0"/>
    </comp>
    <comp name="--.HNN">
      <acc value="1.0880135615" flag="0"/>
      <vel value="0.2146909821" flag="0"/>
      <psa03 value="1.0589128285" flag="0"/>
      <psa10 value="0.0924393879" flag="0"/>
      <psa30 value="0.0313465019" flag="0"/>
    </comp>
    <comp name="--.HNZ">
      <acc value="0.5646972891" flag="0"/>
      <vel value="0.1528673248" flag="0"/>
      <psa03 value="0.5432289042" flag="0"/>
      <psa10 value="0.1306958031" flag="0"/>
      <psa30 value="0.0295251050" flag="0"/>
    </comp>
  </station>
  <station code="SARI" name="SARI" netid="KO" insttype="CMG-3T" lat="38.4072" lon="36.4181">
    <comp name="--.HHE">
      <acc value="0.0637702180" flag="0"/>
      <vel value="0.0334889772" flag="0"/>
      <psa03 value="0.1189588832" flag="0"/>
      <psa10 value="0.0200807080" flag="0"/>
      <psa30 value="0.0018742004" flag="0"/>
    </comp>
    <comp name="--.HHN">
      <acc value="0.0658329439" flag="0"/>
      <vel value="0.0232622688" flag="0"/>
      <psa03 value="0.0896619771" flag="0"/>
      <psa10 value="0.0177901380" flag="0"/>
      <psa30 value="0.0011605808" flag="0"/>
    </comp>
    <comp name="--.HHZ">
      <acc value="0.0480421402" flag="0"/>
      <vel value="0.0170573036" flag="0"/>
      <psa03 value="0.0694411042" flag="0"/>
      <psa10 value="0.0132144981" flag="0"/>
      <psa30 value="0.0008468697" flag="0"/>
    </comp>
  </station>
</stationlist>
