<?xml version="1.0" encoding="UTF-8" standalone="yes"?>
<!DOCTYPE earthquake SYSTEM "stationlist.dtd">
<stationlist created="" xmlns="ch.ethz.sed.shakemap.usgs.xml">
  <station code="KARP" name="KARP" netid="GE" insttype="STS-2/N" lat="35.5471" lon="27.1611">
    <comp name="--.HHN">
      <acc value="0.0991514911" flag="0"/>
      <vel value="0.0424064141" flag="0"/>
      <psa03 value="0.1684836977" flag="0"/>
      <psa10 value="0.0610331741" flag="0"/>
      <psa30 value="0.0023366913" flag="0"/>
    </comp>
    <comp name="--.HHE">
      <acc value="0.0953673960" flag="0"/>
      <vel value="0.0376611033" flag="0"/>
      <psa03 value="0.2007188469" flag="0"/>
      <psa10 value="0.0378722649" flag="0"/>
      <psa30 value="0.0042164160" flag="0"/>
    </comp>
    <comp name="--.HHZ">
      <acc value="0.0732882179" flag="0"/>
      <vel value="0.0298154355" flag="0"/>
      <psa03 value="0.1538527910" flag="0"/>
      <psa10 value="0.0232885599" flag="0"/>
      <psa30 value="0.0027899680" flag="0"/>
    </comp>
  </station>
  <station code="THERA" name="THERA" netid="GE" insttype="STS-2/N" lat="36.367" lon="25.4753">
    <comp name="--.HHE">
      <acc value="0.0208314822" flag="0"/>
      <vel value="0.0176627749" flag="0"/>
      <psa03 value="0.0827391203" flag="0"/>
      <psa10 value="0.0149886335" flag="0"/>
      <psa30 value="0.0026524327" flag="0"/>
    </comp>
    <comp name="--.HHZ">
      <acc value="0.0219477290" flag="0"/>
      <vel value="0.0079875460" flag="0"/>
      <psa03 value="0.0477234687" flag="0"/>
      <psa10 value="0.0079153185" flag="0"/>
      <psa30 value="0.0018117305" flag="0"/>
    </comp>
    <comp name="--.HHN">
      <acc value="0.0213472732" flag="0"/>
      <vel value="0.0077113927" flag="0"/>
      <psa03 value="0.0364162701" flag="0"/>
      <psa10 value="0.0136516463" flag="0"/>
      <psa30 value="0.0011536583" flag="0"/>
    </comp>
  </station>
  <station code="SNT1" name="SNT1" netid="HA" insttype="30" lat="36.4159" lon="25.4282">
    <comp name="--.HHE">
      <acc value="0.0109926055" flag="0"/>
      <vel value="0.0140076654" flag="0"/>
      <psa03 value="0.0292119372" flag="0"/>
      <psa10 value="0.0145840356" flag="0"/>
      <psa30 value="0.0059471301" flag="0"/>
    </comp>
    <comp name="--.HHN">
      <acc value="0.0106824385" flag="0"/>
      <vel value="0.0085674868" flag="0"/>
      <psa03 value="0.0233699501" flag="0"/>
      <psa10 value="0.0122003393" flag="0"/>
      <psa30 value="0.0022239273" flag="0"/>
    </comp>
    <comp name="--.HHZ">
      <acc value="0.0085607713" flag="0"/>
      <vel value="0.0058872059" flag="0"/>
      <psa03 value="0.0191423050" flag="0"/>
      <psa10 value="0.0088057875" flag="0"/>
      <psa30 value="0.0012917199" flag="0"/>
    </comp>
  </station>
  <station code="SNT5" name="SNT5" netid="HA" insttype="1s-100Hz," lat="36.4037" lon="25.3953">
    <comp name="--.HHN">
      <acc value="0.0342816135" flag="0"/>
      <vel value="0.0124149950" flag="0"/>
      <psa03 value="0.0634088153" flag="0"/>
      <psa10 value="0.0075300528" flag="0"/>
      <psa30 value="0.0030671743" flag="0"/>
    </comp>
    <comp name="--.HHZ">
      <acc value="0.0125577289" flag="0"/>
      <vel value="0.0065433620" flag="0"/>
      <psa03 value="0.0280628181" flag="0"/>
      <psa10 value="0.0080097834" flag="0"/>
      <psa30 value="0.0017285471" flag="0"/>
    </comp>
    <comp name="--.HHE">
      <acc value="0.0353070220" flag="0"/>
      <vel value="0.0159071672" flag="0"/>
      <psa03 value="0.1081901698" flag="0"/>
      <psa10 value="0.0098708690" flag="0"/>
      <psa30 value="0.0073525837" flag="0"/>
    </comp>
  </station>
  <station code="ARG" name="ARG" netid="HL" insttype="LE3D20_DR24" lat="36.2136" lon="28.1212">
    <comp name="--.HHZ">
      <acc value="0.0383450586" flag="0"/>
      <vel value="0.0245036861" flag="0"/>
      <psa03 value="0.0563425727" flag="0"/>
      <psa10 value="0.0296465217" flag="0"/>
      <psa30 value="0.0046491712" flag="0"/>
    </comp>
    <comp name="--.HHN">
      <acc value="0.0623302358" flag="0"/>
      <vel value="0.0431649338" flag="0"/>
      <psa03 value="0.1743324649" flag="0"/>
      <psa10 value="0.0447097248" flag="0"/>
      <psa30 value="0.0054635122" flag="0"/>
    </comp>
    <comp name="--.HHE">
      <acc value="0.1196719901" flag="0"/>
      <vel value="0.0658312721" flag="0"/>
      <psa03 value="0.1906368906" flag="0"/>
      <psa10 value="0.0546488674" flag="0"/>
      <psa30 value="0.0090352277" flag="0"/>
    </comp>
  </station>
  <station code="KARP" name="KARP" netid="HL" insttype="120" lat="35.5471" lon="27.1611">
    <comp name="--.HHE">
      <acc value="0.0885056247" flag="0"/>
      <vel value="0.0371251912" flag="0"/>
      <psa03 value="0.1955827078" flag="0"/>
      <psa10 value="0.0376347352" flag="0"/>
      <psa30 value="0.0041960524" flag="0"/>
    </comp>
    <comp name="--.HHN">
      <acc value="0.0701783658" flag="0"/>
      <vel value="0.0418152605" flag="0"/>
      <psa03 value="0.1645530797" flag="0"/>
      <psa10 value="0.0607684921" flag="0"/>
      <psa30 value="0.0023195512" flag="0"/>
    </comp>
    <comp name="--.HHZ">
      <acc value="0.0694406452" flag="0"/>
      <vel value="0.0292666394" flag="0"/>
      <psa03 value="0.1500778958" flag="0"/>
      <psa10 value="0.0231239334" flag="0"/>
      <psa30 value="0.0027842587" flag="0"/>
    </comp>
  </station>
  <station code="KLNA" name="KLNA" netid="HL" insttype="CMG-5" lat="36.9571" lon="26.9727">
    <comp name="00.HNN">
      <acc value="0.1004859712" flag="0"/>
      <vel value="0.0462467146" flag="0"/>
      <psa03 value="0.3299217958" flag="0"/>
      <psa10 value="0.0280272062" flag="0"/>
      <psa30 value="0.0031064746" flag="0"/>
    </comp>
    <comp name="00.HNE">
      <acc value="0.1324714107" flag="0"/>
      <vel value="0.0497643284" flag="0"/>
      <psa03 value="0.3662459359" flag="0"/>
      <psa10 value="0.0325446658" flag="0"/>
      <psa30 value="0.0037952868" flag="0"/>
    </comp>
    <comp name="00.HNZ">
      <acc value="0.1408693575" flag="0"/>
      <vel value="0.0393869096" flag="0"/>
      <psa03 value="0.0904323893" flag="0"/>
      <psa10 value="0.0187550160" flag="0"/>
      <psa30 value="0.0019301768" flag="0"/>
    </comp>
  </station>
  <station code="NISR" name="NISR" netid="HL" insttype="65535" lat="36.6106" lon="27.131">
    <comp name="--.HHE">
      <acc value="1.7871690535" flag="0"/>
      <vel value="0.6319721136" flag="0"/>
      <psa03 value="2.4074474016" flag="0"/>
      <psa10 value="0.3002178278" flag="0"/>
      <psa30 value="0.0384769086" flag="0"/>
    </comp>
    <comp name="--.HHN">
      <acc value="1.4480124061" flag="0"/>
      <vel value="0.7379613726" flag="0"/>
      <psa03 value="0.9688247866" flag="0"/>
      <psa10 value="0.4512554953" flag="0"/>
      <psa30 value="0.3215192120" flag="0"/>
    </comp>
    <comp name="--.HHZ">
      <acc value="0.7006288104" flag="0"/>
      <vel value="0.2703737378" flag="0"/>
      <psa03 value="0.6104341637" flag="0"/>
      <psa10 value="0.2661125624" flag="0"/>
      <psa30 value="0.0123965264" flag="0"/>
    </comp>
  </station>
  <station code="SAP3" name="SAP3" netid="HL" insttype="LE3D20_SMART24" lat="36.4356" lon="25.3454">
    <comp name="--.HHZ">
      <acc value="0.0291616939" flag="0"/>
      <vel value="0.0179845621" flag="0"/>
      <psa03 value="0.0670414901" flag="0"/>
      <psa10 value="0.0218484670" flag="0"/>
      <psa30 value="0.0044430613" flag="0"/>
    </comp>
    <comp name="--.HHN">
      <acc value="0.0327379393" flag="0"/>
      <vel value="0.0315046008" flag="0"/>
      <psa03 value="0.1153586363" flag="0"/>
      <psa10 value="0.0326752162" flag="0"/>
      <psa30 value="0.0082468922" flag="0"/>
    </comp>
    <comp name="--.HHE">
      <acc value="0.0315358767" flag="0"/>
      <vel value="0.0329328935" flag="0"/>
      <psa03 value="0.1245431061" flag="0"/>
      <psa10 value="0.0451784138" flag="0"/>
      <psa30 value="0.0085173985" flag="0"/>
    </comp>
  </station>
  <station code="THERA" name="THERA" netid="HL" insttype="120" lat="36.367" lon="25.4753">
    <comp name="--.HHZ">
      <acc value="0.0213408268" flag="0"/>
      <vel value="0.0078733984" flag="0"/>
      <psa03 value="0.0463100933" flag="0"/>
      <psa10 value="0.0078581431" flag="0"/>
      <psa30 value="0.0018108515" flag="0"/>
    </comp>
    <comp name="--.HHN">
      <acc value="0.0209035390" flag="0"/>
      <vel value="0.0075397384" flag="0"/>
      <psa03 value="0.0353407456" flag="0"/>
      <psa10 value="0.0135644897" flag="0"/>
      <psa30 value="0.0011512505" flag="0"/>
    </comp>
    <comp name="--.HHE">
      <acc value="0.0205029883" flag="0"/>
      <vel value="0.0173603997" flag="0"/>
      <psa03 value="0.0804114717" flag="0"/>
      <psa10 value="0.0148818268" flag="0"/>
      <psa30 value="0.0026539073" flag="0"/>
    </comp>
  </station>
  <station code="CMBO" name="CMBO" netid="HT" insttype="120P," lat="36.4709" lon="25.4056">
    <comp name="--.HHN">
      <acc value="0.0831205616" flag="0"/>
      <vel value="0.0813054301" flag="0"/>
      <psa03 value="0.3051414974" flag="0"/>
      <psa10 value="0.1007199191" flag="0"/>
      <psa30 value="0.0088251632" flag="0"/>
    </comp>
    <comp name="--.HHE">
      <acc value="0.0819856371" flag="0"/>
      <vel value="0.0513265469" flag="0"/>
      <psa03 value="0.2553040951" flag="0"/>
      <psa10 value="0.1320702460" flag="0"/>
      <psa30 value="0.0122555247" flag="0"/>
    </comp>
    <comp name="--.HHZ">
      <acc value="0.0815295566" flag="0"/>
      <vel value="0.0387911245" flag="0"/>
      <psa03 value="0.3304859467" flag="0"/>
      <psa10 value="0.0275518555" flag="0"/>
      <psa30 value="0.0054413372" flag="0"/>
    </comp>
  </station>
  <station code="THT1" name="THT1" netid="HT" insttype="30" lat="36.3858" lon="25.4296">
    <comp name="--.HHE">
      <acc value="0.0246354014" flag="0"/>
      <vel value="0.0100546114" flag="0"/>
      <psa03 value="0.0396987042" flag="0"/>
      <psa10 value="0.0113707997" flag="0"/>
      <psa30 value="0.0028462488" flag="0"/>
    </comp>
    <comp name="--.HHN">
      <acc value="0.0249461654" flag="0"/>
      <vel value="0.0102774697" flag="0"/>
      <psa03 value="0.0435439188" flag="0"/>
      <psa10 value="0.0088636296" flag="0"/>
      <psa30 value="0.0023163012" flag="0"/>
    </comp>
    <comp name="--.HHZ">
      <acc value="0.0153504599" flag="0"/>
      <vel value="0.0051694224" flag="0"/>
      <psa03 value="0.0211840928" flag="0"/>
      <psa10 value="0.0060302487" flag="0"/>
      <psa30 value="0.0021180761" flag="0"/>
    </comp>
  </station>
</stationlist>
