<stationlist created="1778136818">
	<station code="KRL1" name="KRL1" netid="HI" source="ITSAK Strong Motion Network" insttype="" lat="37.7951" lon="26.7065">
		<comp name="--.HNE" depth="0.0">
			<acc value="0.0240371592237812" flag="0"/>
			<vel value="0.0207541054213211" flag="0"/>
			<psa03 value="0.0758949026646531" flag="0"/>
			<psa10 value="0.0329470050773775" flag="0"/>
			<psa30 value="0.00236630633951473" flag="0"/>
		</comp>
		<comp name="--.HNN" depth="0.0">
			<acc value="0.0186596451207951" flag="0"/>
			<vel value="0.0246517617799049" flag="0"/>
			<psa03 value="0.0328502751278229" flag="0"/>
			<psa10 value="0.0300528596044631" flag="0"/>
			<psa30 value="0.00302198977532436" flag="0"/>
		</comp>
		<comp name="--.HNZ" depth="0.0">
			<acc value="0.0115644819124583" flag="0"/>
			<vel value="0.0105710668208774" flag="0"/>
			<psa03 value="0.0238446681339143" flag="0"/>
			<psa10 value="0.0244937669668615" flag="0"/>
			<psa30 value="0.00171421699596421" flag="0"/>
		</comp>
	</station>
	<station code="NAX1" name="NAX1" netid="HI" source="ITSAK Strong Motion Network" insttype="" lat="37.101394" lon="25.374103">
		<comp name="--.HNE" depth="0.0">
			<acc value="0.00791201527259278" flag="0"/>
			<vel value="0.00756520927639003" flag="0"/>
			<psa03 value="0.0221769639066897" flag="0"/>
			<psa10 value="0.00911961131698007" flag="0"/>
			<psa30 value="0.000916422687671544" flag="0"/>
		</comp>
		<comp name="--.HNN" depth="0.0">
			<acc value="0.0120825917659892" flag="0"/>
			<vel value="0.0109366945447835" flag="0"/>
			<psa03 value="0.0213425583709967" flag="0"/>
			<psa10 value="0.0138189482500192" flag="0"/>
			<psa30 value="0.00263175163229674" flag="0"/>
		</comp>
		<comp name="--.HNZ" depth="0.0">
			<acc value="0.00939923338913822" flag="0"/>
			<vel value="0.0112339891982867" flag="0"/>
			<psa03 value="0.0288631125603722" flag="0"/>
			<psa10 value="0.00792166102117321" flag="0"/>
			<psa30 value="0.00195517556245203" flag="0"/>
		</comp>
	</station>
	<station code="RDI1" name="RDI1" netid="HI" source="ITSAK Strong Motion Network" insttype="" lat="36.4514" lon="28.224">
		<comp name="--.HNE" depth="0.0">
			<acc value="0.0216405444160823" flag="0"/>
			<vel value="0.0443335681045623" flag="0"/>
			<psa03 value="0.0429788236986298" flag="0"/>
			<psa10 value="0.0490101329306562" flag="0"/>
			<psa30 value="0.0126499504971189" flag="0"/>
		</comp>
		<comp name="--.HNN" depth="0.0">
			<acc value="0.0198716753333436" flag="0"/>
			<vel value="0.0317198477275809" flag="0"/>
			<psa03 value="0.0438102095030228" flag="0"/>
			<psa10 value="0.0493307079171729" flag="0"/>
			<psa30 value="0.0119727931387808" flag="0"/>
		</comp>
		<comp name="--.HNZ" depth="0.0">
			<acc value="0.0153193821641611" flag="0"/>
			<vel value="0.0151616073804879" flag="0"/>
			<psa03 value="0.0360226259054921" flag="0"/>
			<psa10 value="0.0299520004230442" flag="0"/>
			<psa30 value="0.00413158661400251" flag="0"/>
		</comp>
	</station>
	<station code="AGNA" name="AGNA" netid="HL" source="National Observatory of Athens Seismic Network" insttype="" lat="35.1895" lon="25.71853">
		<comp name="00.HNE" depth="0.0">
			<acc value="0.00658724316440189" flag="0"/>
			<vel value="0.00514847230369342" flag="0"/>
			<psa03 value="0.0195156378673059" flag="0"/>
			<psa10 value="0.00826543504452607" flag="0"/>
			<psa30 value="0.00111176791999967" flag="0"/>
		</comp>
		<comp name="00.HNN" depth="0.0">
			<acc value="0.0107811825763718" flag="0"/>
			<vel value="0.00783793701651472" flag="0"/>
			<psa03 value="0.022900535277261" flag="0"/>
			<psa10 value="0.0102267765362439" flag="0"/>
			<psa30 value="0.00156298281077311" flag="0"/>
		</comp>
		<comp name="00.HNZ" depth="0.0">
			<acc value="0.0126576957929349" flag="0"/>
			<vel value="0.00366749740491499" flag="0"/>
			<psa03 value="0.0223994239560508" flag="0"/>
			<psa10 value="0.00503976854745218" flag="0"/>
			<psa30 value="0.000981855251426189" flag="0"/>
		</comp>
	</station>
	<station code="KARP" name="KARP" netid="HL" source="National Observatory of Athens Seismic Network" insttype="" lat="35.5471" lon="27.16106">
		<comp name="--.HNE" depth="0.0">
			<acc value="0.0768609420984994" flag="0"/>
			<vel value="0.0308533566126167" flag="0"/>
			<psa03 value="0.165905250825119" flag="0"/>
			<psa10 value="0.0298273102879029" flag="0"/>
			<psa30 value="0.00341046634332482" flag="0"/>
		</comp>
		<comp name="--.HNN" depth="0.0">
			<acc value="0.053657027140133" flag="0"/>
			<vel value="0.035721282326683" flag="0"/>
			<psa03 value="0.149686072217879" flag="0"/>
			<psa10 value="0.0520454340044929" flag="0"/>
			<psa30 value="0.00238890637832389" flag="0"/>
		</comp>
		<comp name="--.HNZ" depth="0.0">
			<acc value="0.0577178911110784" flag="0"/>
			<vel value="0.0229722365442866" flag="0"/>
			<psa03 value="0.124474360398945" flag="0"/>
			<psa10 value="0.0184232360739931" flag="0"/>
			<psa30 value="0.00238760587550322" flag="0"/>
		</comp>
	</station>
	<station code="KLNA" name="KLNA" netid="HL" source="National Observatory of Athens Seismic Network" insttype="" lat="36.95708" lon="26.97274">
		<comp name="00.HNE" depth="0.0">
			<acc value="0.132610834664114" flag="0"/>
			<vel value="0.0497055009533495" flag="0"/>
			<psa03 value="0.365761979936205" flag="0"/>
			<psa10 value="0.0328123224053202" flag="0"/>
			<psa30 value="0.00417940519841789" flag="0"/>
		</comp>
		<comp name="00.HNN" depth="0.0">
			<acc value="0.100605841731613" flag="0"/>
			<vel value="0.0450794823193578" flag="0"/>
			<psa03 value="0.328521533772454" flag="0"/>
			<psa10 value="0.028005248335279" flag="0"/>
			<psa30 value="0.00333592348855787" flag="0"/>
		</comp>
		<comp name="00.HNZ" depth="0.0">
			<acc value="0.140037660311449" flag="0"/>
			<vel value="0.040628780866467" flag="0"/>
			<psa03 value="0.090831215038929" flag="0"/>
			<psa10 value="0.0186938033727106" flag="0"/>
			<psa30 value="0.00224735283443069" flag="0"/>
		</comp>
	</station>
	<station code="NISR" name="NISR" netid="HL" source="National Observatory of Athens Seismic Network" insttype="" lat="36.6106" lon="27.131">
		<comp name="--.HNE" depth="0.0">
			<acc value="1.53120836185032" flag="0"/>
			<vel value="0.610472377052699" flag="0"/>
			<psa03 value="2.23839578273335" flag="0"/>
			<psa10 value="0.297167825909907" flag="0"/>
			<psa30 value="0.0413827580712859" flag="0"/>
		</comp>
		<comp name="--.HNN" depth="0.0">
			<acc value="1.2859900470493" flag="0"/>
			<vel value="0.307493574995575" flag="0"/>
			<psa03 value="0.954654574514814" flag="0"/>
			<psa10 value="0.260102980545756" flag="0"/>
			<psa30 value="0.0515145359185512" flag="0"/>
		</comp>
		<comp name="--.HNZ" depth="0.0">
			<acc value="0.692685466644805" flag="0"/>
			<vel value="0.267496453699552" flag="0"/>
			<psa03 value="0.610685829937853" flag="0"/>
			<psa10 value="0.280385404157094" flag="0"/>
			<psa30 value="0.0145183767711874" flag="0"/>
		</comp>
	</station>
	<station code="RODB" name="RODB" netid="HL" source="National Observatory of Athens Seismic Network" insttype="" lat="36.4471" lon="28.22116">
		<comp name="00.HNE" depth="0.0">
			<acc value="0.0165656978005288" flag="0"/>
			<vel value="0.033437950591554" flag="0"/>
			<psa03 value="0.0480143317554558" flag="0"/>
			<psa10 value="0.0481426479641336" flag="0"/>
			<psa30 value="0.0115969299063414" flag="0"/>
		</comp>
		<comp name="00.HNN" depth="0.0">
			<acc value="0.0245140303073483" flag="0"/>
			<vel value="0.0357025494850033" flag="0"/>
			<psa03 value="0.0405951006845044" flag="0"/>
			<psa10 value="0.0478608392958812" flag="0"/>
			<psa30 value="0.0115310088727316" flag="0"/>
		</comp>
		<comp name="00.HNZ" depth="0.0">
			<acc value="0.0122871463920204" flag="0"/>
			<vel value="0.0209348352063565" flag="0"/>
			<psa03 value="0.0321799963501568" flag="0"/>
			<psa10 value="0.0293399880052168" flag="0"/>
			<psa30 value="0.00411377501740585" flag="0"/>
		</comp>
	</station>
	<station code="THRA" name="THRA" netid="HL" source="National Observatory of Athens Seismic Network" insttype="" lat="36.41502" lon="25.43244">
		<comp name="00.HNE" depth="0.0">
			<acc value="0.0552517931381141" flag="0"/>
			<vel value="0.0459784437828426" flag="0"/>
			<psa03 value="0.179158222519581" flag="0"/>
			<psa10 value="0.057875810238538" flag="0"/>
			<psa30 value="0.014601792297067" flag="0"/>
		</comp>
		<comp name="00.HNN" depth="0.0">
			<acc value="0.0379019118972622" flag="0"/>
			<vel value="0.0410350721900159" flag="0"/>
			<psa03 value="0.107186871437488" flag="0"/>
			<psa10 value="0.0571377913484235" flag="0"/>
			<psa30 value="0.00637004240073287" flag="0"/>
		</comp>
		<comp name="00.HNZ" depth="0.0">
			<acc value="0.0468140292196443" flag="0"/>
			<vel value="0.0245751287543967" flag="0"/>
			<psa03 value="0.176947409397342" flag="0"/>
			<psa10 value="0.0218878412120559" flag="0"/>
			<psa30 value="0.00322402232565506" flag="0"/>
		</comp>
	</station>
	<station code="TNSA" name="TNSA" netid="HL" source="National Observatory of Athens Seismic Network" insttype="" lat="37.53942" lon="25.1631">
		<comp name="00.HNE" depth="0.0">
			<acc value="0.00931960382263975" flag="0"/>
			<vel value="0.00609330563247721" flag="0"/>
			<psa03 value="0.0223760890769313" flag="0"/>
			<psa10 value="0.00750067407033526" flag="0"/>
			<psa30 value="0.00200281392659246" flag="0"/>
		</comp>
		<comp name="00.HNN" depth="0.0">
			<acc value="0.00755858994970985" flag="0"/>
			<vel value="0.00446716588470156" flag="0"/>
			<psa03 value="0.0199943948430426" flag="0"/>
			<psa10 value="0.007578616421138" flag="0"/>
			<psa30 value="0.00109619699267222" flag="0"/>
		</comp>
		<comp name="00.HNZ" depth="0.0">
			<acc value="0.00733061905306384" flag="0"/>
			<vel value="0.00476070322640535" flag="0"/>
			<psa03 value="0.0244759938103079" flag="0"/>
			<psa10 value="0.00428483884953777" flag="0"/>
			<psa30 value="0.00153066494070678" flag="0"/>
		</comp>
	</station>
</stationlist>
