<?xml version="1.0" encoding="UTF-8" standalone="yes"?>
<!DOCTYPE earthquake SYSTEM "stationlist.dtd">
<stationlist created="" xmlns="ch.ethz.sed.shakemap.usgs.xml">
  <station code="CAYL" name="CAYL" netid="KO" insttype="CMG-6T" commtype="DIG" lat="40.3745" lon="36.159">
    <comp name="--.HHN">
      <acc value="0.1545664564" flag="0"/>
      <vel value="0.0286168992" flag="0"/>
      <psa03 value="0.1573082600" flag="0"/>
      <psa10 value="0.0095885638" flag="0"/>
      <psa30 value="0.0005741024" flag="0"/>
    </comp>
    <comp name="--.HHZ">
      <acc value="0.2754947632" flag="0"/>
      <vel value="0.0527840614" flag="0"/>
      <psa03 value="0.0962514935" flag="0"/>
      <psa10 value="0.0055913762" flag="0"/>
      <psa30 value="0.0006162130" flag="0"/>
    </comp>
    <comp name="--.HHE">
      <acc value="0.1509753811" flag="0"/>
      <vel value="0.0258743010" flag="0"/>
      <psa03 value="0.1719043288" flag="0"/>
      <psa10 value="0.0085883985" flag="0"/>
      <psa30 value="0.0005782984" flag="0"/>
    </comp>
  </station>
  <station code="ERBG" name="ERBG" netid="KO" insttype="CMG-5T" commtype="DIG" lat="40.712" lon="36.6768">
    <comp name="--.HNN">
      <acc value="0.0164634695" flag="0"/>
      <vel value="0.0113180678" flag="0"/>
      <psa03 value="0.0388229428" flag="0"/>
      <psa10 value="0.0112518217" flag="0"/>
      <psa30 value="0.0010320305" flag="0"/>
    </comp>
    <comp name="--.HNZ">
      <acc value="0.0202064864" flag="0"/>
      <vel value="0.0064479983" flag="0"/>
      <psa03 value="0.0351286912" flag="0"/>
      <psa10 value="0.0051993916" flag="0"/>
      <psa30 value="0.0009934991" flag="0"/>
    </comp>
    <comp name="--.HNE">
      <acc value="0.0216952849" flag="0"/>
      <vel value="0.0074358541" flag="0"/>
      <psa03 value="0.0364946895" flag="0"/>
      <psa10 value="0.0096002711" flag="0"/>
      <psa30 value="0.0007936442" flag="0"/>
    </comp>
  </station>
  <station code="GULF" name="GULF" netid="KO" insttype="CMG-5T" commtype="DIG" lat="40.914" lon="35.879">
    <comp name="--.HNE">
      <acc value="0.0208962009" flag="0"/>
      <vel value="0.0110426681" flag="0"/>
      <psa03 value="0.0501345733" flag="0"/>
      <psa10 value="0.0091930749" flag="0"/>
      <psa30 value="0.0006315319" flag="0"/>
    </comp>
    <comp name="--.HNN">
      <acc value="0.0144768822" flag="0"/>
      <vel value="0.0076604872" flag="0"/>
      <psa03 value="0.0404174997" flag="0"/>
      <psa10 value="0.0051719893" flag="0"/>
      <psa30 value="0.0004280289" flag="0"/>
    </comp>
    <comp name="--.HNZ">
      <acc value="0.0180241330" flag="0"/>
      <vel value="0.0067739562" flag="0"/>
      <psa03 value="0.0425906351" flag="0"/>
      <psa10 value="0.0057050317" flag="0"/>
      <psa30 value="0.0003703238" flag="0"/>
    </comp>
  </station>
  <station code="RSDY" name="RSDY" netid="KO" insttype="CMG-3T" commtype="DIG" lat="40.3971" lon="37.3273">
    <comp name="--.HHE">
      <acc value="0.0172404603" flag="0"/>
      <vel value="0.0141292904" flag="0"/>
      <psa03 value="0.0505817900" flag="0"/>
      <psa10 value="0.0094872639" flag="0"/>
      <psa30 value="0.0005484279" flag="0"/>
    </comp>
    <comp name="--.HHN">
      <acc value="0.0106208580" flag="0"/>
      <vel value="0.0073478617" flag="0"/>
      <psa03 value="0.0334385382" flag="0"/>
      <psa10 value="0.0081155471" flag="0"/>
      <psa30 value="0.0006924642" flag="0"/>
    </comp>
    <comp name="--.HHZ">
      <acc value="0.0137839343" flag="0"/>
      <vel value="0.0074671008" flag="0"/>
      <psa03 value="0.0441832311" flag="0"/>
      <psa10 value="0.0059255073" flag="0"/>
      <psa30 value="0.0002763557" flag="0"/>
    </comp>
  </station>
  <station code="SVSK" name="SVSK" netid="KO" insttype="CMG-3T" commtype="DIG" lat="39.9157" lon="36.9925">
    <comp name="--.HHZ">
      <acc value="0.0550536180" flag="0"/>
      <vel value="0.0157070808" flag="0"/>
      <psa03 value="0.0599102020" flag="0"/>
      <psa10 value="0.0061073917" flag="0"/>
      <psa30 value="0.0003568641" flag="0"/>
    </comp>
    <comp name="--.HHN">
      <acc value="0.0838543090" flag="0"/>
      <vel value="0.0209229335" flag="0"/>
      <psa03 value="0.1068360842" flag="0"/>
      <psa10 value="0.0058576718" flag="0"/>
      <psa30 value="0.0004108915" flag="0"/>
    </comp>
    <comp name="--.HHE">
      <acc value="0.0878312674" flag="0"/>
      <vel value="0.0264898074" flag="0"/>
      <psa03 value="0.1600382037" flag="0"/>
      <psa10 value="0.0075384647" flag="0"/>
      <psa30 value="0.0005345302" flag="0"/>
    </comp>
  </station>
  <station code="TOKT" name="TOKT" netid="KO" insttype="CMG-3T" commtype="DIG" lat="40.3173" lon="36.5443">
    <comp name="--.HHE">
      <acc value="0.0237097266" flag="0"/>
      <vel value="0.0065293442" flag="0"/>
      <psa03 value="0.0384565146" flag="0"/>
      <psa10 value="0.0079408171" flag="0"/>
      <psa30 value="0.0007447409" flag="0"/>
    </comp>
    <comp name="--.HHZ">
      <acc value="0.0000748863" flag="0"/>
      <vel value="0.0000052696" flag="0"/>
      <psa03 value="0.0000192258" flag="0"/>
      <psa10 value="0.0000041898" flag="0"/>
      <psa30 value="0.0000012804" flag="0"/>
    </comp>
    <comp name="--.HHN">
      <acc value="0.0220546243" flag="0"/>
      <vel value="0.0070569671" flag="0"/>
      <psa03 value="0.0509554365" flag="0"/>
      <psa10 value="0.0052191021" flag="0"/>
      <psa30 value="0.0006984581" flag="0"/>
    </comp>
  </station>
  <station code="YOZ" name="YOZ" netid="KO" insttype="CMG-3T" commtype="DIG" lat="39.6376" lon="35.3152">
    <comp name="--.HHN">
      <acc value="0.1679503108" flag="0"/>
      <vel value="0.0404517689" flag="0"/>
      <psa03 value="0.3491053529" flag="0"/>
      <psa10 value="0.0221601483" flag="0"/>
      <psa30 value="0.0011339901" flag="0"/>
    </comp>
    <comp name="--.HHZ">
      <acc value="0.1535988373" flag="0"/>
      <vel value="0.0328182608" flag="0"/>
      <psa03 value="0.1547194171" flag="0"/>
      <psa10 value="0.0065755924" flag="0"/>
      <psa30 value="0.0006508452" flag="0"/>
    </comp>
    <comp name="--.HHE">
      <acc value="0.1353772983" flag="0"/>
      <vel value="0.0374886629" flag="0"/>
      <psa03 value="0.2202513057" flag="0"/>
      <psa10 value="0.0215565778" flag="0"/>
      <psa30 value="0.0012046491" flag="0"/>
    </comp>
  </station>
</stationlist>
