<?xml version="1.0" encoding="UTF-8" standalone="yes"?>
<!DOCTYPE earthquake SYSTEM "stationlist.dtd">
<stationlist created="" xmlns="ch.ethz.sed.shakemap.usgs.xml">
  <station code="CAYL" name="CAYL" netid="KO" insttype="CMG-6T" commtype="DIG" lat="40.3745" lon="36.159">
    <comp name="--.HHZ">
      <acc value="0.2754947640" flag="0"/>
      <vel value="0.0527840615" flag="0"/>
      <psa03 value="0.0962514935" flag="0"/>
      <psa10 value="0.0055913760" flag="0"/>
      <psa30 value="0.0006162493" flag="0"/>
    </comp>
    <comp name="--.HHN">
      <acc value="0.1545664547" flag="0"/>
      <vel value="0.0286168992" flag="0"/>
      <psa03 value="0.1573082600" flag="0"/>
      <psa10 value="0.0095885639" flag="0"/>
      <psa30 value="0.0005741139" flag="0"/>
    </comp>
    <comp name="--.HHE">
      <acc value="0.1509753804" flag="0"/>
      <vel value="0.0258743008" flag="0"/>
      <psa03 value="0.1719043288" flag="0"/>
      <psa10 value="0.0085883984" flag="0"/>
      <psa30 value="0.0005783252" flag="0"/>
    </comp>
  </station>
  <station code="ERBG" name="ERBG" netid="KO" insttype="CMG-5T" commtype="DIG" lat="40.712" lon="36.6768">
    <comp name="--.HNN">
      <acc value="0.0164634665" flag="0"/>
      <vel value="0.0113180016" flag="0"/>
      <psa03 value="0.0388229428" flag="0"/>
      <psa10 value="0.0112518190" flag="0"/>
      <psa30 value="0.0010331175" flag="0"/>
    </comp>
    <comp name="--.HNZ">
      <acc value="0.0202064881" flag="0"/>
      <vel value="0.0064480636" flag="0"/>
      <psa03 value="0.0351286912" flag="0"/>
      <psa10 value="0.0051993913" flag="0"/>
      <psa30 value="0.0009892805" flag="0"/>
    </comp>
    <comp name="--.HNE">
      <acc value="0.0216952916" flag="0"/>
      <vel value="0.0074357741" flag="0"/>
      <psa03 value="0.0364946895" flag="0"/>
      <psa10 value="0.0096002694" flag="0"/>
      <psa30 value="0.0007935974" flag="0"/>
    </comp>
  </station>
  <station code="GULF" name="GULF" netid="KO" insttype="CMG-5T" commtype="DIG" lat="40.914" lon="35.879">
    <comp name="--.HNE">
      <acc value="0.0208962051" flag="0"/>
      <vel value="0.0110426733" flag="0"/>
      <psa03 value="0.0501345733" flag="0"/>
      <psa10 value="0.0091930728" flag="0"/>
      <psa30 value="0.0006341932" flag="0"/>
    </comp>
    <comp name="--.HNN">
      <acc value="0.0144768867" flag="0"/>
      <vel value="0.0076604644" flag="0"/>
      <psa03 value="0.0404174997" flag="0"/>
      <psa10 value="0.0051719816" flag="0"/>
      <psa30 value="0.0004278403" flag="0"/>
    </comp>
    <comp name="--.HNZ">
      <acc value="0.0180241348" flag="0"/>
      <vel value="0.0067739475" flag="0"/>
      <psa03 value="0.0425906351" flag="0"/>
      <psa10 value="0.0057050322" flag="0"/>
      <psa30 value="0.0003702158" flag="0"/>
    </comp>
  </station>
  <station code="RSDY" name="RSDY" netid="KO" insttype="CMG-3T" commtype="DIG" lat="40.3971" lon="37.3273">
    <comp name="--.HHE">
      <acc value="0.0172404603" flag="0"/>
      <vel value="0.0141292908" flag="0"/>
      <psa03 value="0.0505817900" flag="0"/>
      <psa10 value="0.0094872639" flag="0"/>
      <psa30 value="0.0005484621" flag="0"/>
    </comp>
    <comp name="--.HHN">
      <acc value="0.0106208579" flag="0"/>
      <vel value="0.0073478620" flag="0"/>
      <psa03 value="0.0334385382" flag="0"/>
      <psa10 value="0.0081155471" flag="0"/>
      <psa30 value="0.0006925260" flag="0"/>
    </comp>
    <comp name="--.HHZ">
      <acc value="0.0137839343" flag="0"/>
      <vel value="0.0074671007" flag="0"/>
      <psa03 value="0.0441832311" flag="0"/>
      <psa10 value="0.0059255073" flag="0"/>
      <psa30 value="0.0002763779" flag="0"/>
    </comp>
  </station>
  <station code="SVSK" name="SVSK" netid="KO" insttype="CMG-3T" commtype="DIG" lat="39.9157" lon="36.9925">
    <comp name="--.HHZ">
      <acc value="0.0550536180" flag="0"/>
      <vel value="0.0157070807" flag="0"/>
      <psa03 value="0.0599102020" flag="0"/>
      <psa10 value="0.0061073917" flag="0"/>
      <psa30 value="0.0003568993" flag="0"/>
    </comp>
    <comp name="--.HHE">
      <acc value="0.0878312673" flag="0"/>
      <vel value="0.0264898074" flag="0"/>
      <psa03 value="0.1600382037" flag="0"/>
      <psa10 value="0.0075384647" flag="0"/>
      <psa30 value="0.0005345331" flag="0"/>
    </comp>
    <comp name="--.HHN">
      <acc value="0.0838543092" flag="0"/>
      <vel value="0.0209229335" flag="0"/>
      <psa03 value="0.1068360842" flag="0"/>
      <psa10 value="0.0058576718" flag="0"/>
      <psa30 value="0.0004108803" flag="0"/>
    </comp>
  </station>
  <station code="TOKT" name="TOKT" netid="KO" insttype="CMG-3T" commtype="DIG" lat="40.3173" lon="36.5443">
    <comp name="--.HHN">
      <acc value="0.0220546236" flag="0"/>
      <vel value="0.0070569673" flag="0"/>
      <psa03 value="0.0509554365" flag="0"/>
      <psa10 value="0.0052191021" flag="0"/>
      <psa30 value="0.0006984560" flag="0"/>
    </comp>
    <comp name="--.HHE">
      <acc value="0.0237097264" flag="0"/>
      <vel value="0.0065293441" flag="0"/>
      <psa03 value="0.0384565146" flag="0"/>
      <psa10 value="0.0079408169" flag="0"/>
      <psa30 value="0.0007447328" flag="0"/>
    </comp>
    <comp name="--.HHZ">
      <acc value="0.0000748870" flag="0"/>
      <vel value="0.0000052697" flag="0"/>
      <psa03 value="0.0000192258" flag="0"/>
      <psa10 value="0.0000041898" flag="0"/>
      <psa30 value="0.0000012808" flag="0"/>
    </comp>
  </station>
  <station code="YOZ" name="YOZ" netid="KO" insttype="CMG-3T" commtype="DIG" lat="39.6376" lon="35.3152">
    <comp name="--.HHE">
      <acc value="0.1353772982" flag="0"/>
      <vel value="0.0374886605" flag="0"/>
      <psa03 value="0.2202513057" flag="0"/>
      <psa10 value="0.0215565778" flag="0"/>
      <psa30 value="0.0012047174" flag="0"/>
    </comp>
    <comp name="--.HHN">
      <acc value="0.1679503097" flag="0"/>
      <vel value="0.0404517693" flag="0"/>
      <psa03 value="0.3491053529" flag="0"/>
      <psa10 value="0.0221601483" flag="0"/>
      <psa30 value="0.0011339432" flag="0"/>
    </comp>
    <comp name="--.HHZ">
      <acc value="0.1535988371" flag="0"/>
      <vel value="0.0328182610" flag="0"/>
      <psa03 value="0.1547194171" flag="0"/>
      <psa10 value="0.0065755924" flag="0"/>
      <psa30 value="0.0006507524" flag="0"/>
    </comp>
  </station>
</stationlist>
