<stationlist created="1778118901">
	<station code="IMMV" name="IMMV" netid="GE" source="GEOFON" insttype="" lat="35.4606" lon="23.9811">
		<comp name="--.HNE" depth="0.0">
			<acc value="0.00813958939858268" flag="0"/>
			<vel value="0.00921113231114345" flag="0"/>
			<psa03 value="0.0228632675819369" flag="0"/>
			<psa10 value="0.0217849804024365" flag="0"/>
			<psa30 value="0.00221160727314117" flag="0"/>
		</comp>
		<comp name="--.HNN" depth="0.0">
			<acc value="0.00933596333109513" flag="0"/>
			<vel value="0.0122672882126799" flag="0"/>
			<psa03 value="0.0296640829879142" flag="0"/>
			<psa10 value="0.0256990286374029" flag="0"/>
			<psa30 value="0.00276954258967102" flag="0"/>
		</comp>
		<comp name="--.HNZ" depth="0.0">
			<acc value="0.00662360811127931" flag="0"/>
			<vel value="0.00576191413430929" flag="0"/>
			<psa03 value="0.0292166609217315" flag="0"/>
			<psa10 value="0.0115126171849475" flag="0"/>
			<psa30 value="0.00139193004789443" flag="0"/>
		</comp>
	</station>
	<station code="CH01" name="CH01" netid="HI" source="ITSAK Strong Motion Network" insttype="" lat="35.517" lon="24.0208">
		<comp name="--.HNE" depth="0.0">
			<acc value="0.0114384635992303" flag="0"/>
			<vel value="0.0125857779345505" flag="0"/>
			<psa03 value="0.0203740515038381" flag="0"/>
			<psa10 value="0.0167962395434381" flag="0"/>
			<psa30 value="0.00544312933060466" flag="0"/>
		</comp>
		<comp name="--.HNN" depth="0.0">
			<acc value="0.00900611908924985" flag="0"/>
			<vel value="0.0101432033854412" flag="0"/>
			<psa03 value="0.0263121310703835" flag="0"/>
			<psa10 value="0.0205734766418581" flag="0"/>
			<psa30 value="0.00415422353025434" flag="0"/>
		</comp>
		<comp name="--.HNZ" depth="0.0">
			<acc value="0.00828978464712532" flag="0"/>
			<vel value="0.00981319075545686" flag="0"/>
			<psa03 value="0.0121787403755297" flag="0"/>
			<psa10 value="0.020990601774351" flag="0"/>
			<psa30 value="0.00201494535524094" flag="0"/>
		</comp>
	</station>
	<station code="KRL1" name="KRL1" netid="HI" source="ITSAK Strong Motion Network" insttype="" lat="37.7951" lon="26.7065">
		<comp name="--.HNE" depth="0.0">
			<acc value="0.0153413314937786" flag="0"/>
			<vel value="0.0215459320427467" flag="0"/>
			<psa03 value="0.0336767231051132" flag="0"/>
			<psa10 value="0.0373838827487512" flag="0"/>
			<psa30 value="0.00685781804677143" flag="0"/>
		</comp>
		<comp name="--.HNN" depth="0.0">
			<acc value="0.0172780314626685" flag="0"/>
			<vel value="0.0232850885530026" flag="0"/>
			<psa03 value="0.0332406291118731" flag="0"/>
			<psa10 value="0.0525290172893957" flag="0"/>
			<psa30 value="0.00317714067831208" flag="0"/>
		</comp>
		<comp name="--.HNZ" depth="0.0">
			<acc value="0.0108656629492282" flag="0"/>
			<vel value="0.0121745532489032" flag="0"/>
			<psa03 value="0.0237900421193604" flag="0"/>
			<psa10 value="0.0285115693765275" flag="0"/>
			<psa30 value="0.00271302389118311" flag="0"/>
		</comp>
	</station>
	<station code="KSS1" name="KSS1" netid="HI" source="ITSAK Strong Motion Network" insttype="" lat="35.4189" lon="26.9207">
		<comp name="--.HNE" depth="0.0">
			<acc value="0.185723396795294" flag="0"/>
			<vel value="0.133026645975308" flag="0"/>
			<psa03 value="0.538606683270755" flag="0"/>
			<psa10 value="0.166862480206315" flag="0"/>
			<psa30 value="0.0190507841559939" flag="0"/>
		</comp>
		<comp name="--.HNN" depth="0.0">
			<acc value="0.302668349709331" flag="0"/>
			<vel value="0.147441305092176" flag="0"/>
			<psa03 value="0.723615707637309" flag="0"/>
			<psa10 value="0.0978955006587124" flag="0"/>
			<psa30 value="0.0192046973467608" flag="0"/>
		</comp>
		<comp name="--.HNZ" depth="0.0">
			<acc value="0.21849847621914" flag="0"/>
			<vel value="0.111478053738112" flag="0"/>
			<psa03 value="0.77019234472693" flag="0"/>
			<psa10 value="0.0902526369241792" flag="0"/>
			<psa30 value="0.0137479378275964" flag="0"/>
		</comp>
	</station>
	<station code="NAX1" name="NAX1" netid="HI" source="ITSAK Strong Motion Network" insttype="" lat="37.101394" lon="25.374103">
		<comp name="--.HNE" depth="0.0">
			<acc value="0.0119786672368534" flag="0"/>
			<vel value="0.0102864109019462" flag="0"/>
			<psa03 value="0.0485760304235471" flag="0"/>
			<psa10 value="0.0180400825669216" flag="0"/>
			<psa30 value="0.00398462104492214" flag="0"/>
		</comp>
		<comp name="--.HNN" depth="0.0">
			<acc value="0.0163440728009241" flag="0"/>
			<vel value="0.0144233008405416" flag="0"/>
			<psa03 value="0.0384693010065689" flag="0"/>
			<psa10 value="0.0261155787789183" flag="0"/>
			<psa30 value="0.004201852518774" flag="0"/>
		</comp>
		<comp name="--.HNZ" depth="0.0">
			<acc value="0.0118841431513719" flag="0"/>
			<vel value="0.00869997959836212" flag="0"/>
			<psa03 value="0.0197151081124873" flag="0"/>
			<psa10 value="0.0138716186141354" flag="0"/>
			<psa30 value="0.0021442995493194" flag="0"/>
		</comp>
	</station>
	<station code="RDI1" name="RDI1" netid="HI" source="ITSAK Strong Motion Network" insttype="" lat="36.4514" lon="28.224">
		<comp name="--.HNE" depth="0.0">
			<acc value="0.222279333272513" flag="0"/>
			<vel value="0.343538860643946" flag="0"/>
			<psa03 value="0.485900363874431" flag="0"/>
			<psa10 value="0.4560671553455" flag="0"/>
			<psa30 value="0.0834486895637386" flag="0"/>
		</comp>
		<comp name="--.HNN" depth="0.0">
			<acc value="0.247781714660809" flag="0"/>
			<vel value="0.262985654334934" flag="0"/>
			<psa03 value="0.398787287588656" flag="0"/>
			<psa10 value="0.458177197809618" flag="0"/>
			<psa30 value="0.0811001711383456" flag="0"/>
		</comp>
		<comp name="--.HNZ" depth="0.0">
			<acc value="0.151064784447875" flag="0"/>
			<vel value="0.185778503489788" flag="0"/>
			<psa03 value="0.236507304184185" flag="0"/>
			<psa10 value="0.449741054751743" flag="0"/>
			<psa30 value="0.0367610918017044" flag="0"/>
		</comp>
	</station>
	<station code="RGE1" name="RGE1" netid="HI" source="ITSAK Strong Motion Network" insttype="" lat="36.0269" lon="27.9306">
		<comp name="--.HNE" depth="0.0">
			<acc value="0.438748391993971" flag="0"/>
			<vel value="0.256455188453714" flag="0"/>
			<psa03 value="0.888403102344733" flag="0"/>
			<psa10 value="0.372745472558309" flag="0"/>
			<psa30 value="0.0165452777101172" flag="0"/>
		</comp>
		<comp name="--.HNN" depth="0.0">
			<acc value="0.366796291002431" flag="0"/>
			<vel value="0.305619369090786" flag="0"/>
			<psa03 value="1.04808068020029" flag="0"/>
			<psa10 value="0.293672924390056" flag="0"/>
			<psa30 value="0.0243088303406872" flag="0"/>
		</comp>
		<comp name="--.HNZ" depth="0.0">
			<acc value="0.166053217150401" flag="0"/>
			<vel value="0.116445584920307" flag="0"/>
			<psa03 value="0.472513635044115" flag="0"/>
			<psa10 value="0.215757912902965" flag="0"/>
			<psa30 value="0.0115387218837004" flag="0"/>
		</comp>
	</station>
	<station code="SIT2" name="SIT2" netid="HI" source="ITSAK Strong Motion Network" insttype="" lat="35.2059" lon="26.107">
		<comp name="--.HNE" depth="0.0">
			<acc value="0.240634657390054" flag="0"/>
			<vel value="0.17331660674983" flag="0"/>
			<psa03 value="0.725047458249094" flag="0"/>
			<psa10 value="0.158764588230474" flag="0"/>
			<psa30 value="0.0092007873689814" flag="0"/>
		</comp>
		<comp name="--.HNN" depth="0.0">
			<acc value="0.196960220230006" flag="0"/>
			<vel value="0.150826482690477" flag="0"/>
			<psa03 value="0.666166714339448" flag="0"/>
			<psa10 value="0.159497465574881" flag="0"/>
			<psa30 value="0.013455771218379" flag="0"/>
		</comp>
		<comp name="--.HNZ" depth="0.0">
			<acc value="0.0819167725081674" flag="0"/>
			<vel value="0.045505105897445" flag="0"/>
			<psa03 value="0.223129384405321" flag="0"/>
			<psa10 value="0.0412907927997383" flag="0"/>
			<psa30 value="0.0102200148357456" flag="0"/>
		</comp>
	</station>
	<station code="GVD" name="GVD" netid="HL" source="National Observatory of Athens Seismic Network" insttype="" lat="34.83914" lon="24.08738">
		<comp name="00.HNE" depth="1.0">
			<acc value="0.00630191827639024" flag="0"/>
			<vel value="0.00692575474845576" flag="0"/>
			<psa03 value="0.0180530513948129" flag="0"/>
			<psa10 value="0.0141880364502772" flag="0"/>
			<psa30 value="0.00214227504020953" flag="0"/>
		</comp>
		<comp name="00.HNN" depth="1.0">
			<acc value="0.00717793016448952" flag="0"/>
			<vel value="0.00953518718510972" flag="0"/>
			<psa03 value="0.0223286275994851" flag="0"/>
			<psa10 value="0.00775164866494564" flag="0"/>
			<psa30 value="0.0052890220384418" flag="0"/>
		</comp>
		<comp name="00.HNZ" depth="1.0">
			<acc value="0.00393219315888318" flag="0"/>
			<vel value="0.00405564404745167" flag="0"/>
			<psa03 value="0.0107049643596765" flag="0"/>
			<psa10 value="0.00544990040416211" flag="0"/>
			<psa30 value="0.00191953903503865" flag="0"/>
		</comp>
	</station>
	<station code="IACM" name="IACM" netid="HL" source="National Observatory of Athens Seismic Network" insttype="" lat="35.3058" lon="25.0709">
		<comp name="--.HNE" depth="0.0">
			<acc value="0.0971425011485923" flag="0"/>
			<vel value="0.10840568632329" flag="0"/>
			<psa03 value="0.272659007131748" flag="0"/>
			<psa10 value="0.217092765888384" flag="0"/>
			<psa30 value="0.0150624638580412" flag="0"/>
		</comp>
		<comp name="--.HNN" depth="0.0">
			<acc value="0.0979384996461975" flag="0"/>
			<vel value="0.0934255184788154" flag="0"/>
			<psa03 value="0.341696231943741" flag="0"/>
			<psa10 value="0.184725358776594" flag="0"/>
			<psa30 value="0.00996051003735966" flag="0"/>
		</comp>
		<comp name="--.HNZ" depth="0.0">
			<acc value="0.0613398294884984" flag="0"/>
			<vel value="0.041820707128662" flag="0"/>
			<psa03 value="0.127962710928257" flag="0"/>
			<psa10 value="0.0693575790113801" flag="0"/>
			<psa30 value="0.00444692791579003" flag="0"/>
		</comp>
	</station>
	<station code="IKRA" name="IKRA" netid="HL" source="National Observatory of Athens Seismic Network" insttype="" lat="37.61117" lon="26.29283">
		<comp name="00.HNE" depth="0.0">
			<acc value="0.0239597148082245" flag="0"/>
			<vel value="0.0259172134968661" flag="0"/>
			<psa03 value="0.0420798006011243" flag="0"/>
			<psa10 value="0.0326366082651249" flag="0"/>
			<psa30 value="0.00430716574526044" flag="0"/>
		</comp>
		<comp name="00.HNN" depth="0.0">
			<acc value="0.0255243899139588" flag="0"/>
			<vel value="0.0258758616303794" flag="0"/>
			<psa03 value="0.0642304424517793" flag="0"/>
			<psa10 value="0.0383367908742411" flag="0"/>
			<psa30 value="0.00400798675945317" flag="0"/>
		</comp>
		<comp name="00.HNZ" depth="0.0">
			<acc value="0.0102704385611144" flag="0"/>
			<vel value="0.0108361933101706" flag="0"/>
			<psa03 value="0.0330307610424791" flag="0"/>
			<psa10 value="0.0149477814671595" flag="0"/>
			<psa30 value="0.00269114014982703" flag="0"/>
		</comp>
	</station>
	<station code="IMMV" name="IMMV" netid="HL" source="National Observatory of Athens Seismic Network" insttype="" lat="35.4606" lon="23.9811">
		<comp name="--.HNE" depth="0.0">
			<acc value="0.00797443267997049" flag="0"/>
			<vel value="0.00902423423367784" flag="0"/>
			<psa03 value="0.0223711033091359" flag="0"/>
			<psa10 value="0.0213420325569156" flag="0"/>
			<psa30 value="0.0021668650665229" flag="0"/>
		</comp>
		<comp name="--.HNN" depth="0.0">
			<acc value="0.0091465151908425" flag="0"/>
			<vel value="0.0120183971888649" flag="0"/>
			<psa03 value="0.0290376920952584" flag="0"/>
			<psa10 value="0.0251795716185648" flag="0"/>
			<psa30 value="0.002713167409332" flag="0"/>
		</comp>
		<comp name="--.HNZ" depth="0.0">
			<acc value="0.00648919453164238" flag="0"/>
			<vel value="0.00564499436264692" flag="0"/>
			<psa03 value="0.0286350122356939" flag="0"/>
			<psa10 value="0.0112790628664001" flag="0"/>
			<psa30 value="0.00136329503565874" flag="0"/>
		</comp>
	</station>
	<station code="KLNA" name="KLNA" netid="HL" source="National Observatory of Athens Seismic Network" insttype="" lat="36.95708" lon="26.97274">
		<comp name="00.HNE" depth="0.0">
			<acc value="0.0391175662416847" flag="0"/>
			<vel value="0.0249798609952868" flag="0"/>
			<psa03 value="0.107470780297089" flag="0"/>
			<psa10 value="0.0271325689374524" flag="0"/>
			<psa30 value="0.0032541006873469" flag="0"/>
		</comp>
		<comp name="00.HNN" depth="0.0">
			<acc value="0.0369538131097962" flag="0"/>
			<vel value="0.0171479881454937" flag="0"/>
			<psa03 value="0.10201223108966" flag="0"/>
			<psa10 value="0.0276359187619079" flag="0"/>
			<psa30 value="0.00244739870201946" flag="0"/>
		</comp>
		<comp name="00.HNZ" depth="0.0">
			<acc value="0.0657523545888839" flag="0"/>
			<vel value="0.0191710069614496" flag="0"/>
			<psa03 value="0.0725718591348368" flag="0"/>
			<psa10 value="0.0152454594831099" flag="0"/>
			<psa30 value="0.00234180709440034" flag="0"/>
		</comp>
	</station>
	<station code="KSL" name="KSL" netid="HL" source="National Observatory of Athens Seismic Network" insttype="" lat="36.15031" lon="29.58561">
		<comp name="00.HNE" depth="0.0">
			<acc value="0.0139272738786862" flag="0"/>
			<vel value="0.037641720974041" flag="0"/>
			<psa03 value="0.0510955999580663" flag="0"/>
			<psa10 value="0.0366680280119384" flag="0"/>
			<psa30 value="0.0230413415642776" flag="0"/>
		</comp>
		<comp name="00.HNN" depth="0.0">
			<acc value="0.0132476393530887" flag="0"/>
			<vel value="0.0326872740073" flag="0"/>
			<psa03 value="0.0188812111929107" flag="0"/>
			<psa10 value="0.0347552986790073" flag="0"/>
			<psa30 value="0.0145237676903572" flag="0"/>
		</comp>
		<comp name="00.HNZ" depth="0.0">
			<acc value="0.00903351233331864" flag="0"/>
			<vel value="0.0184399793153725" flag="0"/>
			<psa03 value="0.0214315169701522" flag="0"/>
			<psa10 value="0.0316063421772134" flag="0"/>
			<psa30 value="0.00611357511232065" flag="0"/>
		</comp>
	</station>
	<station code="NISR" name="NISR" netid="HL" source="National Observatory of Athens Seismic Network" insttype="" lat="36.6106" lon="27.131">
		<comp name="00.HNE" depth="0.0">
			<acc value="0.135003910768161" flag="0"/>
			<vel value="0.0990940177466332" flag="0"/>
			<psa03 value="0.382008960106804" flag="0"/>
			<psa10 value="0.147654650905091" flag="0"/>
			<psa30 value="0.0160700583510847" flag="0"/>
		</comp>
		<comp name="00.HNN" depth="0.0">
			<acc value="0.106765546152962" flag="0"/>
			<vel value="0.0793861133116456" flag="0"/>
			<psa03 value="0.350420962234304" flag="0"/>
			<psa10 value="0.118524789864199" flag="0"/>
			<psa30 value="0.020907138308586" flag="0"/>
		</comp>
		<comp name="00.HNZ" depth="0.0">
			<acc value="0.0675993134810838" flag="0"/>
			<vel value="0.0631462715964981" flag="0"/>
			<psa03 value="0.160445552933123" flag="0"/>
			<psa10 value="0.106090035800849" flag="0"/>
			<psa30 value="0.00888088059166076" flag="0"/>
		</comp>
	</station>
	<station code="RODB" name="RODB" netid="HL" source="National Observatory of Athens Seismic Network" insttype="" lat="36.4471" lon="28.22116">
		<comp name="00.HNE" depth="0.0">
			<acc value="0.265825898563904" flag="0"/>
			<vel value="0.351084231482116" flag="0"/>
			<psa03 value="0.536548541766315" flag="0"/>
			<psa10 value="0.667196232513734" flag="0"/>
			<psa30 value="0.107937441512117" flag="0"/>
		</comp>
		<comp name="00.HNN" depth="0.0">
			<acc value="0.220819079882327" flag="0"/>
			<vel value="0.294222510820076" flag="0"/>
			<psa03 value="0.546928733701754" flag="0"/>
			<psa10 value="0.35087509563148" flag="0"/>
			<psa30 value="0.0794737919277714" flag="0"/>
		</comp>
		<comp name="00.HNZ" depth="0.0">
			<acc value="0.153798087133318" flag="0"/>
			<vel value="0.216589600767516" flag="0"/>
			<psa03 value="0.323530896056723" flag="0"/>
			<psa10 value="0.558416295250995" flag="0"/>
			<psa30 value="0.0412957144424663" flag="0"/>
		</comp>
	</station>
	<station code="TNSA" name="TNSA" netid="HL" source="National Observatory of Athens Seismic Network" insttype="" lat="37.53942" lon="25.1631">
		<comp name="00.HNE" depth="0.0">
			<acc value="0.0103825021797043" flag="0"/>
			<vel value="0.00716489587347731" flag="0"/>
			<psa03 value="0.0219684234495714" flag="0"/>
			<psa10 value="0.0155192817876137" flag="0"/>
			<psa30 value="0.00132078993937138" flag="0"/>
		</comp>
		<comp name="00.HNN" depth="0.0">
			<acc value="0.00919425315914536" flag="0"/>
			<vel value="0.0073503579900181" flag="0"/>
			<psa03 value="0.0329750062776663" flag="0"/>
			<psa10 value="0.0105421587233972" flag="0"/>
			<psa30 value="0.00208498682841146" flag="0"/>
		</comp>
		<comp name="00.HNZ" depth="0.0">
			<acc value="0.00930719500371772" flag="0"/>
			<vel value="0.00738271047165556" flag="0"/>
			<psa03 value="0.0198655397385127" flag="0"/>
			<psa10 value="0.00635026138533131" flag="0"/>
			<psa30 value="0.00158118958188972" flag="0"/>
		</comp>
	</station>
	<station code="ZKR" name="ZKR" netid="HL" source="National Observatory of Athens Seismic Network" insttype="" lat="35.1147" lon="26.21691">
		<comp name="00.HNE" depth="0.0">
			<acc value="0.0589386969351191" flag="0"/>
			<vel value="0.0538130718097077" flag="0"/>
			<psa03 value="0.191496644326203" flag="0"/>
			<psa10 value="0.0967317558645712" flag="0"/>
			<psa30 value="0.00771176673272532" flag="0"/>
		</comp>
		<comp name="00.HNN" depth="0.0">
			<acc value="0.0660806150181661" flag="0"/>
			<vel value="0.0686766025353283" flag="0"/>
			<psa03 value="0.105502123205885" flag="0"/>
			<psa10 value="0.0855614165602534" flag="0"/>
			<psa30 value="0.00847238424523594" flag="0"/>
		</comp>
		<comp name="00.HNZ" depth="0.0">
			<acc value="0.0343296416550602" flag="0"/>
			<vel value="0.0310141828769228" flag="0"/>
			<psa03 value="0.0641603242906017" flag="0"/>
			<psa10 value="0.0482732615645858" flag="0"/>
			<psa30 value="0.00597487427180401" flag="0"/>
		</comp>
	</station>
	<station code="CAME" name="CAME" netid="KO" source="Bogazici University Kandilli Observatory And Earthquake Research Institute (KOERI)" insttype="" lat="36.9435" lon="29.3023">
		<comp name="--.HNE" depth="0.0">
			<acc value="0.111595719636864" flag="0"/>
			<vel value="0.181419935432529" flag="0"/>
			<psa03 value="0.273509109057495" flag="0"/>
			<psa10 value="0.329114276020617" flag="0"/>
			<psa30 value="0.0316913523697881" flag="0"/>
		</comp>
		<comp name="--.HNN" depth="0.0">
			<acc value="0.11152887008394" flag="0"/>
			<vel value="0.164740865546293" flag="0"/>
			<psa03 value="0.237849570382733" flag="0"/>
			<psa10 value="0.285387270070514" flag="0"/>
			<psa30 value="0.0315459401982787" flag="0"/>
		</comp>
		<comp name="--.HNZ" depth="0.0">
			<acc value="0.0614722746009" flag="0"/>
			<vel value="0.131501969746449" flag="0"/>
			<psa03 value="0.183622015961387" flag="0"/>
			<psa10 value="0.225154416676864" flag="0"/>
			<psa30 value="0.0356854891546012" flag="0"/>
		</comp>
	</station>
	<station code="DEMR" name="DEMR" netid="KO" source="Bogazici University Kandilli Observatory And Earthquake Research Institute (KOERI)" insttype="" lat="36.2365" lon="29.9056">
		<comp name="--.HNE" depth="0.0">
			<acc value="0.0358339795808962" flag="0"/>
			<vel value="0.0812231141479075" flag="0"/>
			<psa03 value="0.050379724652174" flag="0"/>
			<psa10 value="0.128197160090937" flag="0"/>
			<psa30 value="0.027114672054805" flag="0"/>
		</comp>
		<comp name="--.HNN" depth="0.0">
			<acc value="0.0383645073278667" flag="0"/>
			<vel value="0.0910862137121257" flag="0"/>
			<psa03 value="0.0536906479419261" flag="0"/>
			<psa10 value="0.126662949825996" flag="0"/>
			<psa30 value="0.0282417282395193" flag="0"/>
		</comp>
		<comp name="--.HNZ" depth="0.0">
			<acc value="0.0382600100085687" flag="0"/>
			<vel value="0.0703378319406263" flag="0"/>
			<psa03 value="0.0510061155448298" flag="0"/>
			<psa10 value="0.11862545982909" flag="0"/>
			<psa30 value="0.0199134138995942" flag="0"/>
		</comp>
	</station>
	<station code="YKAV" name="YKAV" netid="KO" source="Bogazici University Kandilli Observatory And Earthquake Research Institute (KOERI)" insttype="" lat="37.1246" lon="27.2801">
