<?xml version="1.0" encoding="UTF-8" standalone="yes"?>
<!DOCTYPE earthquake SYSTEM "stationlist.dtd">
<stationlist created="" xmlns="ch.ethz.sed.shakemap.usgs.xml">
  <station code="ZKR" name="ZKR" netid="GE" source="GFZ" insttype="STS-2/N" lat="35.1147" lon="26.2169">
    <comp name="--.HHE">
      <acc value="0.0625678677" flag="0"/>
      <vel value="0.0519763354" flag="0"/>
      <psa03 value="0.1912870521" flag="0"/>
      <psa10 value="0.0917647160" flag="0"/>
      <psa30 value="0.0079448565" flag="0"/>
    </comp>
    <comp name="--.HHN">
      <acc value="0.0346328191" flag="0"/>
      <vel value="0.0376390494" flag="0"/>
      <psa03 value="0.0595401258" flag="0"/>
      <psa10 value="0.0478216686" flag="0"/>
      <psa30 value="0.0042565580" flag="0"/>
    </comp>
    <comp name="--.HHZ">
      <acc value="0.0364275713" flag="0"/>
      <vel value="0.0310211522" flag="0"/>
      <psa03 value="0.0681233684" flag="0"/>
      <psa10 value="0.0500259534" flag="0"/>
      <psa30 value="0.0060291261" flag="0"/>
    </comp>
  </station>
  <station code="FRMA" name="FRMA" netid="HC" source="NOA" insttype="60" lat="35.0187" lon="25.8555">
    <comp name="--.HHE">
      <acc value="0.0460982630" flag="0"/>
      <vel value="0.0413631888" flag="0"/>
      <psa03 value="0.1213495937" flag="0"/>
      <psa10 value="0.0654189782" flag="0"/>
      <psa30 value="0.0079093086" flag="0"/>
    </comp>
    <comp name="--.HHN">
      <acc value="0.0473908510" flag="0"/>
      <vel value="0.0447309940" flag="0"/>
      <psa03 value="0.1670840381" flag="0"/>
      <psa10 value="0.0648654170" flag="0"/>
      <psa30 value="0.0096120458" flag="0"/>
    </comp>
    <comp name="--.HHZ">
      <acc value="0.0269782914" flag="0"/>
      <vel value="0.0170168262" flag="0"/>
      <psa03 value="0.0682233939" flag="0"/>
      <psa10 value="0.0140637417" flag="0"/>
      <psa30 value="0.0021109590" flag="0"/>
    </comp>
  </station>
  <station code="KOSK" name="KOSK" netid="HC" source="NOA" insttype="120" lat="36.7516" lon="26.9785">
    <comp name="--.HHE">
      <acc value="0.2342128740" flag="0"/>
      <vel value="0.2901929273" flag="0"/>
      <psa03 value="0.6301001912" flag="0"/>
      <psa10 value="0.5881334639" flag="0"/>
      <psa30 value="0.0239609297" flag="0"/>
    </comp>
    <comp name="--.HHN">
      <acc value="0.3433376792" flag="0"/>
      <vel value="0.2579296124" flag="0"/>
      <psa03 value="1.0454139278" flag="0"/>
      <psa10 value="0.6740543272" flag="0"/>
      <psa30 value="0.0260784582" flag="0"/>
    </comp>
    <comp name="--.HHZ">
      <acc value="0.1829849657" flag="0"/>
      <vel value="0.1247146264" flag="0"/>
      <psa03 value="0.5223410168" flag="0"/>
      <psa10 value="0.1561727846" flag="0"/>
      <psa30 value="0.0132160524" flag="0"/>
    </comp>
  </station>
  <station code="STIA" name="STIA" netid="HC" source="NOA" insttype="120" lat="35.2021" lon="26.0909">
    <comp name="--.HHE">
      <acc value="0.0687051387" flag="0"/>
      <vel value="0.0650299149" flag="0"/>
      <psa03 value="0.2265942477" flag="0"/>
      <psa10 value="0.1095960358" flag="0"/>
      <psa30 value="0.0088054232" flag="0"/>
    </comp>
    <comp name="--.HHN">
      <acc value="0.0783978308" flag="0"/>
      <vel value="0.0555344328" flag="0"/>
      <psa03 value="0.1710792073" flag="0"/>
      <psa10 value="0.1103719301" flag="0"/>
      <psa30 value="0.0093484377" flag="0"/>
    </comp>
    <comp name="--.HHZ">
      <acc value="0.0625523489" flag="0"/>
      <vel value="0.0451905939" flag="0"/>
      <psa03 value="0.2258981785" flag="0"/>
      <psa10 value="0.0509413517" flag="0"/>
      <psa30 value="0.0111934278" flag="0"/>
    </comp>
  </station>
  <station code="ARG" name="ARG" netid="HL" source="NOA" insttype="LE3D20_DR24" lat="36.2136" lon="28.1212">
    <comp name="--.HHE">
      <acc value="0.2713586718" flag="0"/>
      <vel value="0.2655644366" flag="0"/>
      <psa03 value="0.7980532038" flag="0"/>
      <psa10 value="0.5845866870" flag="0"/>
      <psa30 value="0.0398855914" flag="0"/>
    </comp>
    <comp name="--.HHN">
      <acc value="0.3373481086" flag="0"/>
      <vel value="0.5411726485" flag="0"/>
      <psa03 value="0.6943019847" flag="0"/>
      <psa10 value="0.6198591591" flag="0"/>
      <psa30 value="0.0641435174" flag="0"/>
    </comp>
    <comp name="--.HHZ">
      <acc value="0.1428566226" flag="0"/>
      <vel value="0.1334715251" flag="0"/>
      <psa03 value="0.3733305716" flag="0"/>
      <psa10 value="0.3133774009" flag="0"/>
      <psa30 value="0.0183019527" flag="0"/>
    </comp>
  </station>
  <station code="NPS" name="NPS" netid="HL" source="NOA" insttype="120" lat="35.2613" lon="25.6104">
    <comp name="--.HHE">
      <acc value="0.0526239209" flag="0"/>
      <vel value="0.0287044202" flag="0"/>
      <psa03 value="0.1050657075" flag="0"/>
      <psa10 value="0.0243584190" flag="0"/>
      <psa30 value="0.0026698032" flag="0"/>
    </comp>
    <comp name="--.HHN">
      <acc value="0.0415787186" flag="0"/>
      <vel value="0.0345157905" flag="0"/>
      <psa03 value="0.1551609108" flag="0"/>
      <psa10 value="0.0662151698" flag="0"/>
      <psa30 value="0.0054633516" flag="0"/>
    </comp>
    <comp name="--.HHZ">
      <acc value="0.0495199187" flag="0"/>
      <vel value="0.0339846769" flag="0"/>
      <psa03 value="0.0872344977" flag="0"/>
      <psa10 value="0.0374253877" flag="0"/>
      <psa30 value="0.0032100347" flag="0"/>
    </comp>
  </station>
  <station code="ZKR" name="ZKR" netid="HL" source="NOA" insttype="120" lat="35.1147" lon="26.2169">
    <comp name="--.HHE">
      <acc value="0.0617644200" flag="0"/>
      <vel value="0.0513099915" flag="0"/>
      <psa03 value="0.1866511779" flag="0"/>
      <psa10 value="0.0910075907" flag="0"/>
      <psa30 value="0.0079417541" flag="0"/>
    </comp>
  </station>
</stationlist>
