<?xml version="1.0" encoding="UTF-8" standalone="yes"?>
<!DOCTYPE earthquake SYSTEM "stationlist.dtd">
<stationlist created="" xmlns="ch.ethz.sed.shakemap.usgs.xml">
  <station code="DARE" name="DARE" netid="KO" insttype="CMG-3ESP" lat="38.5712" lon="37.4832">
    <comp name="--.HHZ">
      <acc value="0.0283657503" flag="0"/>
      <vel value="0.0088421235" flag="0"/>
      <psa03 value="0.0466066949" flag="0"/>
      <psa10 value="0.0101932996" flag="0"/>
      <psa30 value="0.0005175406" flag="0"/>
    </comp>
    <comp name="--.HHE">
      <acc value="0.0456339539" flag="0"/>
      <vel value="0.0157415687" flag="0"/>
      <psa03 value="0.0584532805" flag="0"/>
      <psa10 value="0.0076580753" flag="0"/>
      <psa30 value="0.0006168941" flag="0"/>
    </comp>
    <comp name="--.HHN">
      <acc value="0.0323734073" flag="0"/>
      <vel value="0.0106211931" flag="0"/>
      <psa03 value="0.0578155300" flag="0"/>
      <psa10 value="0.0090454073" flag="0"/>
      <psa30 value="0.0004677810" flag="0"/>
    </comp>
  </station>
  <station code="GAZ" name="GAZ" netid="KO" insttype="CMG-3T" lat="37.1721" lon="37.2096">
    <comp name="--.HHE">
      <acc value="0.0069460803" flag="0"/>
      <vel value="0.0033727185" flag="0"/>
      <psa03 value="0.0175566599" flag="0"/>
      <psa10 value="0.0040253521" flag="0"/>
      <psa30 value="0.0010870953" flag="0"/>
    </comp>
    <comp name="--.HHZ">
      <acc value="0.0040801386" flag="0"/>
      <vel value="0.0018493301" flag="0"/>
      <psa03 value="0.0083030427" flag="0"/>
      <psa10 value="0.0023212618" flag="0"/>
      <psa30 value="0.0002400713" flag="0"/>
    </comp>
    <comp name="--.HHN">
      <acc value="0.0049088619" flag="0"/>
      <vel value="0.0024163803" flag="0"/>
      <psa03 value="0.0108751555" flag="0"/>
      <psa10 value="0.0031592623" flag="0"/>
      <psa30 value="0.0002529358" flag="0"/>
    </comp>
  </station>
  <station code="SARI" name="SARI" netid="KO" insttype="CMG-3T" lat="38.4072" lon="36.4181">
    <comp name="--.HHE">
      <acc value="0.0247180804" flag="0"/>
      <vel value="0.0064595363" flag="0"/>
      <psa03 value="0.0563231493" flag="0"/>
      <psa10 value="0.0050136256" flag="0"/>
      <psa30 value="0.0003994435" flag="0"/>
    </comp>
    <comp name="--.HHZ">
      <acc value="0.0117877669" flag="0"/>
      <vel value="0.0047488553" flag="0"/>
      <psa03 value="0.0280247221" flag="0"/>
      <psa10 value="0.0051765513" flag="0"/>
      <psa30 value="0.0002724175" flag="0"/>
    </comp>
    <comp name="--.HHN">
      <acc value="0.0179640813" flag="0"/>
      <vel value="0.0072194876" flag="0"/>
      <psa03 value="0.0434898172" flag="0"/>
      <psa10 value="0.0088145967" flag="0"/>
      <psa30 value="0.0002452520" flag="0"/>
    </comp>
  </station>
  <station code="ANDN" name="ANDN" netid="TU" insttype="T" lat="37.58" lon="36.3452">
    <comp name="--.HHE">
      <acc value="0.0566529493" flag="0"/>
      <vel value="0.0185307269" flag="0"/>
      <psa03 value="0.1184299273" flag="0"/>
      <psa10 value="0.0144154282" flag="0"/>
      <psa30 value="0.0010376567" flag="0"/>
    </comp>
    <comp name="--.HHN">
      <acc value="0.0922006196" flag="0"/>
      <vel value="0.0374805506" flag="0"/>
      <psa03 value="0.1696918818" flag="0"/>
      <psa10 value="0.0271626038" flag="0"/>
      <psa30 value="0.0008735049" flag="0"/>
    </comp>
    <comp name="--.HHZ">
      <acc value="0.0314995956" flag="0"/>
      <vel value="0.0099604499" flag="0"/>
      <psa03 value="0.0434950864" flag="0"/>
      <psa10 value="0.0104189273" flag="0"/>
      <psa30 value="0.0009627185" flag="0"/>
    </comp>
  </station>
</stationlist>
