<?xml version="1.0" encoding="UTF-8" standalone="yes"?>
<!DOCTYPE earthquake SYSTEM "stationlist.dtd">
<stationlist created="" xmlns="ch.ethz.sed.shakemap.usgs.xml">
  <station code="GAZ" name="GAZ" netid="KO" insttype="CMG-3T" lat="37.1721" lon="37.2096">
    <comp name="--.HHZ">
      <acc value="0.0040801385" flag="0"/>
      <vel value="0.0018493301" flag="0"/>
      <psa03 value="0.0083030427" flag="0"/>
      <psa10 value="0.0023212618" flag="0"/>
      <psa30 value="0.0002400707" flag="0"/>
    </comp>
    <comp name="--.HHN">
      <acc value="0.0049088617" flag="0"/>
      <vel value="0.0024163798" flag="0"/>
      <psa03 value="0.0108751555" flag="0"/>
      <psa10 value="0.0031592623" flag="0"/>
      <psa30 value="0.0002529347" flag="0"/>
    </comp>
    <comp name="--.HHE">
      <acc value="0.0069460805" flag="0"/>
      <vel value="0.0033727186" flag="0"/>
      <psa03 value="0.0175566599" flag="0"/>
      <psa10 value="0.0040253521" flag="0"/>
      <psa30 value="0.0010870935" flag="0"/>
    </comp>
  </station>
  <station code="SARI" name="SARI" netid="KO" insttype="CMG-3T" lat="38.4072" lon="36.4181">
    <comp name="--.HHE">
      <acc value="0.0247180807" flag="0"/>
      <vel value="0.0064595306" flag="0"/>
      <psa03 value="0.0563231493" flag="0"/>
      <psa10 value="0.0050136256" flag="0"/>
      <psa30 value="0.0003994131" flag="0"/>
    </comp>
    <comp name="--.HHN">
      <acc value="0.0179640815" flag="0"/>
      <vel value="0.0072194896" flag="0"/>
      <psa03 value="0.0434898172" flag="0"/>
      <psa10 value="0.0088145967" flag="0"/>
      <psa30 value="0.0002451876" flag="0"/>
    </comp>
    <comp name="--.HHZ">
      <acc value="0.0117877672" flag="0"/>
      <vel value="0.0047488489" flag="0"/>
      <psa03 value="0.0280247221" flag="0"/>
      <psa10 value="0.0051765513" flag="0"/>
      <psa30 value="0.0002723878" flag="0"/>
    </comp>
  </station>
  <station code="URFA" name="URFA" netid="KO" insttype="CMG-3ESP" lat="37.4409" lon="38.8213">
    <comp name="--.HHE">
      <acc value="0.0175290752" flag="0"/>
      <vel value="0.0057375780" flag="0"/>
      <psa03 value="0.0432817129" flag="0"/>
      <psa10 value="0.0071988213" flag="0"/>
      <psa30 value="0.0003498994" flag="0"/>
    </comp>
    <comp name="--.HHN">
      <acc value="0.0149566949" flag="0"/>
      <vel value="0.0062039189" flag="0"/>
      <psa03 value="0.0266930600" flag="0"/>
      <psa10 value="0.0038403511" flag="0"/>
      <psa30 value="0.0006373298" flag="0"/>
    </comp>
    <comp name="--.HHZ">
      <acc value="0.0135603888" flag="0"/>
      <vel value="0.0077746150" flag="0"/>
      <psa03 value="0.0335657014" flag="0"/>
      <psa10 value="0.0045973663" flag="0"/>
      <psa30 value="0.0003357663" flag="0"/>
    </comp>
  </station>
  <station code="ANDN" name="ANDN" netid="TU" insttype="T" lat="37.58" lon="36.3452">
    <comp name="--.HHE">
      <acc value="0.0566529493" flag="0"/>
      <vel value="0.0185307284" flag="0"/>
      <psa03 value="0.1184299273" flag="0"/>
      <psa10 value="0.0144154282" flag="0"/>
      <psa30 value="0.0010376597" flag="0"/>
    </comp>
    <comp name="--.HHN">
      <acc value="0.0922006194" flag="0"/>
      <vel value="0.0374805503" flag="0"/>
      <psa03 value="0.1696918818" flag="0"/>
      <psa10 value="0.0271626038" flag="0"/>
      <psa30 value="0.0008735013" flag="0"/>
    </comp>
    <comp name="--.HHZ">
      <acc value="0.0314995956" flag="0"/>
      <vel value="0.0099604498" flag="0"/>
      <psa03 value="0.0434950864" flag="0"/>
      <psa10 value="0.0104189273" flag="0"/>
      <psa30 value="0.0009627211" flag="0"/>
    </comp>
  </station>
</stationlist>
