<?xml version="1.0" encoding="UTF-8" standalone="yes"?>
<!DOCTYPE earthquake SYSTEM "stationlist.dtd">
<stationlist created="" xmlns="ch.ethz.sed.shakemap.usgs.xml">
  <station code="KARP" name="KARP" netid="GE" insttype="STS-2/N" lat="35.5471" lon="27.1611">
    <comp name="--.HHE">
      <acc value="0.0067322648" flag="0"/>
      <vel value="0.0006621354" flag="0"/>
      <psa03 value="0.0029707758" flag="0"/>
      <psa10 value="0.0001618228" flag="0"/>
      <psa30 value="0.0000123162" flag="0"/>
    </comp>
    <comp name="--.HHN">
      <acc value="0.0057620914" flag="0"/>
      <vel value="0.0007520606" flag="0"/>
      <psa03 value="0.0025076877" flag="0"/>
      <psa10 value="0.0001397679" flag="0"/>
      <psa30 value="0.0000092453" flag="0"/>
    </comp>
    <comp name="--.HHZ">
      <acc value="0.0060311601" flag="0"/>
      <vel value="0.0007976589" flag="0"/>
      <psa03 value="0.0044072291" flag="0"/>
      <psa10 value="0.0001964686" flag="0"/>
      <psa30 value="0.0000150145" flag="0"/>
    </comp>
  </station>
  <station code="ZKR" name="ZKR" netid="GE" insttype="STS-2/N" lat="35.1147" lon="26.2169">
    <comp name="--.HHE">
      <acc value="5.3275918014" flag="0"/>
      <vel value="1.4788314679" flag="0"/>
      <psa03 value="7.3506804688" flag="0"/>
      <psa10 value="0.9263702152" flag="0"/>
      <psa30 value="0.0944724885" flag="0"/>
    </comp>
    <comp name="--.HHN">
      <acc value="1.2383368874" flag="0"/>
      <vel value="0.4951126671" flag="0"/>
      <psa03 value="2.6464891270" flag="0"/>
      <psa10 value="0.1927662076" flag="0"/>
      <psa30 value="0.0179156777" flag="0"/>
    </comp>
    <comp name="--.HHZ">
      <acc value="2.5560682708" flag="0"/>
      <vel value="0.6887059782" flag="0"/>
      <psa03 value="4.0326785491" flag="0"/>
      <psa10 value="0.2187852998" flag="0"/>
      <psa30 value="0.0742476243" flag="0"/>
    </comp>
  </station>
  <station code="KNSS" name="KNSS" netid="HC" insttype="60" lat="35.3042" lon="25.1802">
    <comp name="--.HHE">
      <acc value="0.0335739317" flag="0"/>
      <vel value="0.0197972096" flag="0"/>
      <psa03 value="0.1152400485" flag="0"/>
      <psa10 value="0.0317335460" flag="0"/>
      <psa30 value="0.0035248883" flag="0"/>
    </comp>
    <comp name="--.HHN">
      <acc value="0.0284173154" flag="0"/>
      <vel value="0.0196214369" flag="0"/>
      <psa03 value="0.1161423925" flag="0"/>
      <psa10 value="0.0260621032" flag="0"/>
      <psa30 value="0.0048738716" flag="0"/>
    </comp>
    <comp name="--.HHZ">
      <acc value="0.0248322430" flag="0"/>
      <vel value="0.0118955359" flag="0"/>
      <psa03 value="0.0664995166" flag="0"/>
      <psa10 value="0.0149061485" flag="0"/>
      <psa30 value="0.0033520112" flag="0"/>
    </comp>
  </station>
  <station code="PFKS" name="PFKS" netid="HC" insttype="120" lat="35.0429" lon="25.4733">
    <comp name="--.HHN">
      <acc value="0.1820923210" flag="0"/>
      <vel value="0.0595435366" flag="0"/>
      <psa03 value="0.2319032384" flag="0"/>
      <psa10 value="0.0545218331" flag="0"/>
      <psa30 value="0.0054659814" flag="0"/>
    </comp>
    <comp name="--.HHZ">
      <acc value="0.0953200944" flag="0"/>
      <vel value="0.0312057093" flag="0"/>
      <psa03 value="0.1319297986" flag="0"/>
      <psa10 value="0.0251140320" flag="0"/>
      <psa30 value="0.0040763612" flag="0"/>
    </comp>
    <comp name="--.HHE">
      <acc value="0.1604777851" flag="0"/>
      <vel value="0.0640235928" flag="0"/>
      <psa03 value="0.3668067131" flag="0"/>
      <psa10 value="0.0500745455" flag="0"/>
      <psa30 value="0.0053919513" flag="0"/>
    </comp>
  </station>
  <station code="STIA" name="STIA" netid="HC" insttype="120" lat="35.2021" lon="26.0909">
    <comp name="--.HHN">
      <acc value="0.0000000000" flag="0"/>
      <vel value="-100.0000000000" flag="0"/>
      <psa03 value="0.0000000000" flag="0"/>
      <psa10 value="0.0000000000" flag="0"/>
      <psa30 value="0.0000000000" flag="0"/>
    </comp>
    <comp name="--.HHE">
      <acc value="0.6075050816" flag="0"/>
      <vel value="0.4844847742" flag="0"/>
      <psa03 value="1.1632821385" flag="0"/>
      <psa10 value="0.5443064316" flag="0"/>
      <psa30 value="0.0511907840" flag="0"/>
    </comp>
    <comp name="--.HHZ">
      <acc value="0.7224475183" flag="0"/>
      <vel value="0.1786305967" flag="0"/>
      <psa03 value="1.4022223869" flag="0"/>
      <psa10 value="0.1195892327" flag="0"/>
      <psa30 value="0.0074798947" flag="0"/>
    </comp>
  </station>
  <station code="TEFL" name="TEFL" netid="HC" insttype="GEOtiny," lat="35.0933" lon="25.1634">
    <comp name="--.HHE">
      <acc value="0.0858456938" flag="0"/>
      <vel value="0.0610626342" flag="0"/>
      <psa03 value="0.1949119011" flag="0"/>
      <psa10 value="0.0968517642" flag="0"/>
      <psa30 value="0.0189301046" flag="0"/>
    </comp>
    <comp name="--.HHZ">
      <acc value="0.0548059794" flag="0"/>
      <vel value="0.0235027611" flag="0"/>
      <psa03 value="0.1082496060" flag="0"/>
      <psa10 value="0.0305676525" flag="0"/>
      <psa30 value="0.0055060677" flag="0"/>
    </comp>
    <comp name="--.HHN">
      <acc value="0.0953368881" flag="0"/>
      <vel value="0.0650011552" flag="0"/>
      <psa03 value="0.1968304339" flag="0"/>
      <psa10 value="0.0658560810" flag="0"/>
      <psa30 value="0.0146147677" flag="0"/>
    </comp>
  </station>
  <station code="IACM" name="IACM" netid="HL" insttype="120" lat="35.3058" lon="25.0709">
    <comp name="--.HHE">
      <acc value="0.1079733048" flag="0"/>
      <vel value="0.1323031445" flag="0"/>
      <psa03 value="0.3724525916" flag="0"/>
      <psa10 value="0.1911344744" flag="0"/>
      <psa30 value="0.0143102189" flag="0"/>
    </comp>
    <comp name="--.HHZ">
      <acc value="0.0659542799" flag="0"/>
      <vel value="0.0520266928" flag="0"/>
      <psa03 value="0.2008814496" flag="0"/>
      <psa10 value="0.0833855510" flag="0"/>
      <psa30 value="0.0062275410" flag="0"/>
    </comp>
    <comp name="--.HHN">
      <acc value="0.1009557197" flag="0"/>
      <vel value="0.0911328010" flag="0"/>
      <psa03 value="0.2594784472" flag="0"/>
      <psa10 value="0.1751221542" flag="0"/>
      <psa30 value="0.0122611960" flag="0"/>
    </comp>
  </station>
  <station code="IDI" name="IDI" netid="HL" insttype="120" lat="35.288" lon="24.89">
    <comp name="--.HHE">
      <acc value="0.0158638283" flag="0"/>
      <vel value="0.0114182466" flag="0"/>
      <psa03 value="0.0522663926" flag="0"/>
      <psa10 value="0.0122303728" flag="0"/>
      <psa30 value="0.0019992125" flag="0"/>
    </comp>
    <comp name="--.HHN">
      <acc value="0.0146516132" flag="0"/>
      <vel value="0.0177318741" flag="0"/>
      <psa03 value="0.0385591986" flag="0"/>
      <psa10 value="0.0130120219" flag="0"/>
      <psa30 value="0.0062237283" flag="0"/>
    </comp>
    <comp name="--.HHZ">
      <acc value="0.0107909454" flag="0"/>
      <vel value="0.0123480115" flag="0"/>
      <psa03 value="0.0320583822" flag="0"/>
      <psa10 value="0.0119792473" flag="0"/>
      <psa30 value="0.0031067674" flag="0"/>
    </comp>
  </station>
  <station code="KARP" name="KARP" netid="HL" insttype="120" lat="35.5471" lon="27.1611">
    <comp name="--.HHN">
      <acc value="0.0053373103" flag="0"/>
      <vel value="0.0006988818" flag="0"/>
      <psa03 value="0.0024483501" flag="0"/>
      <psa10 value="0.0001380050" flag="0"/>
      <psa30 value="0.0000091579" flag="0"/>
    </comp>
    <comp name="--.HHE">
      <acc value="0.0055595919" flag="0"/>
      <vel value="0.0006056107" flag="0"/>
      <psa03 value="0.0029079423" flag="0"/>
      <psa10 value="0.0001597197" flag="0"/>
      <psa30 value="0.0000119741" flag="0"/>
    </comp>
    <comp name="--.HHZ">
      <acc value="0.0053056760" flag="0"/>
      <vel value="0.0007743866" flag="0"/>
      <psa03 value="0.0042860759" flag="0"/>
      <psa10 value="0.0001944787" flag="0"/>
      <psa30 value="0.0000148985" flag="0"/>
    </comp>
  </station>
  <station code="SIVA" name="SIVA" netid="HL" insttype="60" lat="35.0178" lon="24.812">
    <comp name="--.HHE">
      <acc value="0.0287092363" flag="0"/>
      <vel value="0.0306950752" flag="0"/>
      <psa03 value="0.1001785225" flag="0"/>
      <psa10 value="0.0400710278" flag="0"/>
      <psa30 value="0.0055326859" flag="0"/>
    </comp>
    <comp name="--.HHZ">
      <acc value="0.0144596432" flag="0"/>
      <vel value="0.0145222374" flag="0"/>
      <psa03 value="0.0471086189" flag="0"/>
      <psa10 value="0.0166170971" flag="0"/>
      <psa30 value="0.0065171789" flag="0"/>
    </comp>
    <comp name="--.HHN">
      <acc value="0.0199160773" flag="0"/>
      <vel value="0.0178286427" flag="0"/>
      <psa03 value="0.0674480175" flag="0"/>
      <psa10 value="0.0298304055" flag="0"/>
      <psa30 value="0.0065421188" flag="0"/>
    </comp>
  </station>
  <station code="ZKR" name="ZKR" netid="HL" insttype="120" lat="35.1147" lon="26.2169">
    <comp name="--.HHN">
      <acc value="1.2397674449" flag="0"/>
      <vel value="0.4807892303" flag="0"/>
      <psa03 value="2.5669802960" flag="0"/>
      <psa10 value="0.1902207337" flag="0"/>
      <psa30 value="0.0177919639" flag="0"/>
    </comp>
    <comp name="--.HHE">
      <acc value="5.3006819975" flag="0"/>
      <vel value="1.4486497910" flag="0"/>
      <psa03 value="7.1340276488" flag="0"/>
      <psa10 value="0.9169179373" flag="0"/>
      <psa30 value="0.0945269007" flag="0"/>
    </comp>
    <comp name="--.HHZ">
      <acc value="2.6194119943" flag="0"/>
      <vel value="0.6800777558" flag="0"/>
      <psa03 value="3.9129536775" flag="0"/>
      <psa10 value="0.2161752925" flag="0"/>
      <psa30 value="0.0742098988" flag="0"/>
    </comp>
  </station>
  <station code="IDI" name="IDI" netid="MN" insttype="" lat="35.288" lon="24.89">
    <comp name="--.HHE">
      <acc value="0.0160391498" flag="0"/>
      <vel value="0.0114551967" flag="0"/>
      <psa03 value="0.0529587316" flag="0"/>
      <psa10 value="0.0121530808" flag="0"/>
      <psa30 value="0.0019750186" flag="0"/>
    </comp>
    <comp name="--.HHZ">
      <acc value="0.0109430161" flag="0"/>
      <vel value="0.0123157373" flag="0"/>
      <psa03 value="0.0322592582" flag="0"/>
      <psa10 value="0.0118687146" flag="0"/>
      <psa30 value="0.0030663807" flag="0"/>
    </comp>
    <comp name="--.HHN">
      <acc value="0.0149607874" flag="0"/>
      <vel value="0.0176267628" flag="0"/>
      <psa03 value="0.0392413076" flag="0"/>
      <psa10 value="0.0129327386" flag="0"/>
      <psa30 value="0.0061494793" flag="0"/>
    </comp>
  </station>
</stationlist>
