<?xml version="1.0" encoding="UTF-8" standalone="yes"?>
<!DOCTYPE earthquake SYSTEM "stationlist.dtd">
<stationlist created="" xmlns="ch.ethz.sed.shakemap.usgs.xml">
  <station code="KARP" name="KARP" netid="GE" insttype="STS-2/N" lat="35.5471" lon="27.1611">
    <comp name="--.HHE">
      <acc value="0.0067322870" flag="0"/>
      <vel value="0.0006625957" flag="0"/>
      <psa03 value="0.0029708807" flag="0"/>
      <psa10 value="0.0001619396" flag="0"/>
      <psa30 value="0.0000123112" flag="0"/>
    </comp>
    <comp name="--.HHN">
      <acc value="0.0057618193" flag="0"/>
      <vel value="0.0007524396" flag="0"/>
      <psa03 value="0.0025079947" flag="0"/>
      <psa10 value="0.0001400913" flag="0"/>
      <psa30 value="0.0000101180" flag="0"/>
    </comp>
    <comp name="--.HHZ">
      <acc value="0.0060306880" flag="0"/>
      <vel value="0.0007998205" flag="0"/>
      <psa03 value="0.0044067251" flag="0"/>
      <psa10 value="0.0001969966" flag="0"/>
      <psa30 value="0.0000164730" flag="0"/>
    </comp>
  </station>
  <station code="ZKR" name="ZKR" netid="GE" insttype="STS-2/N" lat="35.1147" lon="26.2169">
    <comp name="--.HHE">
      <acc value="5.3164081323" flag="0"/>
      <vel value="1.4574294367" flag="0"/>
      <psa03 value="7.3558110204" flag="0"/>
      <psa10 value="0.9383101654" flag="0"/>
      <psa30 value="0.1101277280" flag="0"/>
    </comp>
    <comp name="--.HHN">
      <acc value="1.2376737779" flag="0"/>
      <vel value="0.4954775535" flag="0"/>
      <psa03 value="2.6469546167" flag="0"/>
      <psa10 value="0.1930089556" flag="0"/>
      <psa30 value="0.0191603535" flag="0"/>
    </comp>
    <comp name="--.HHZ">
      <acc value="2.5629835955" flag="0"/>
      <vel value="0.6893135211" flag="0"/>
      <psa03 value="4.0262284742" flag="0"/>
      <psa10 value="0.2194388132" flag="0"/>
      <psa30 value="0.0829022313" flag="0"/>
    </comp>
  </station>
  <station code="IDI" name="IDI" netid="MN" insttype="" lat="35.288" lon="24.89">
    <comp name="--.HHE">
      <acc value="0.0161137507" flag="0"/>
      <vel value="0.0112546262" flag="0"/>
      <psa03 value="0.0529687194" flag="0"/>
      <psa10 value="0.0122288983" flag="0"/>
      <psa30 value="0.0024028442" flag="0"/>
    </comp>
    <comp name="--.HHZ">
      <acc value="0.0109207066" flag="0"/>
      <vel value="0.0124330021" flag="0"/>
      <psa03 value="0.0323723794" flag="0"/>
      <psa10 value="0.0119322365" flag="0"/>
      <psa30 value="0.0037044343" flag="0"/>
    </comp>
    <comp name="--.HHN">
      <acc value="0.0148718338" flag="0"/>
      <vel value="0.0177710512" flag="0"/>
      <psa03 value="0.0394082458" flag="0"/>
      <psa10 value="0.0131363930" flag="0"/>
      <psa30 value="0.0072661414" flag="0"/>
    </comp>
  </station>
</stationlist>
