<stationlist created="1778069735">
	<station code="DRA2" name="DRA2" netid="HI" source="ITSAK Strong Motion Network" insttype="" lat="41.1593" lon="24.1485">
		<comp name="--.HNE" depth="0.0">
			<acc value="0.0671417018255122" flag="0"/>
			<vel value="0.0318322341098884" flag="0"/>
			<psa03 value="0.207201158849216" flag="0"/>
			<psa10 value="0.0271889441177914" flag="0"/>
			<psa30 value="0.00154942261519075" flag="0"/>
		</comp>
		<comp name="--.HNN" depth="0.0">
			<acc value="0.0500777189336579" flag="0"/>
			<vel value="0.021735943786989" flag="0"/>
			<psa03 value="0.121340864348753" flag="0"/>
			<psa10 value="0.0151125751294536" flag="0"/>
			<psa30 value="0.00113197782744228" flag="0"/>
		</comp>
		<comp name="--.HNZ" depth="0.0">
			<acc value="0.0355820283595507" flag="0"/>
			<vel value="0.0113520409878801" flag="0"/>
			<psa03 value="0.0463529260565295" flag="0"/>
			<psa10 value="0.00829117830843194" flag="0"/>
			<psa30 value="0.0004841106756097" flag="0"/>
		</comp>
	</station>
	<station code="LMN1" name="LMN1" netid="HI" source="ITSAK Strong Motion Network" insttype="" lat="39.875" lon="25.0588">
		<comp name="--.HNE" depth="0.0">
			<acc value="0.126741028894787" flag="0"/>
			<vel value="0.0717926017236308" flag="0"/>
			<psa03 value="0.681737002242607" flag="0"/>
			<psa10 value="0.03945859943872" flag="0"/>
			<psa30 value="0.0040540913416816" flag="0"/>
		</comp>
		<comp name="--.HNN" depth="0.0">
			<acc value="0.124360655290778" flag="0"/>
			<vel value="0.0443116475279078" flag="0"/>
			<psa03 value="0.429927863394973" flag="0"/>
			<psa10 value="0.0286345648136277" flag="0"/>
			<psa30 value="0.00322412340891266" flag="0"/>
		</comp>
		<comp name="--.HNZ" depth="0.0">
			<acc value="0.15923872120082" flag="0"/>
			<vel value="0.0352476248689156" flag="0"/>
			<psa03 value="0.117179839133254" flag="0"/>
			<psa10 value="0.0138884283563777" flag="0"/>
			<psa30 value="0.00181519132250328" flag="0"/>
		</comp>
	</station>
	<station code="MYT1" name="MYT1" netid="HI" source="ITSAK Strong Motion Network" insttype="" lat="39.085" lon="26.5694">
		<comp name="--.HNE" depth="0.0">
			<acc value="0.00497711353141219" flag="0"/>
			<vel value="0.00415557716335407" flag="0"/>
			<psa03 value="0.0112750360678045" flag="0"/>
			<psa10 value="0.00799319521235425" flag="0"/>
			<psa30 value="0.000671133099274076" flag="0"/>
		</comp>
		<comp name="--.HNN" depth="0.0">
			<acc value="0.0064172458794532" flag="0"/>
			<vel value="0.00433514763072883" flag="0"/>
			<psa03 value="0.0156150301097768" flag="0"/>
			<psa10 value="0.0121649585574419" flag="0"/>
			<psa30 value="0.000969116195351766" flag="0"/>
		</comp>
		<comp name="--.HNZ" depth="0.0">
			<acc value="0.00442094369726097" flag="0"/>
			<vel value="0.00294284278739483" flag="0"/>
			<psa03 value="0.0105591607619121" flag="0"/>
			<psa10 value="0.0074093094159858" flag="0"/>
			<psa30 value="0.00038523039898332" flag="0"/>
		</comp>
	</station>
	<station code="SFL1" name="SFL1" netid="HI" source="ITSAK Strong Motion Network" insttype="" lat="41.189954" lon="26.304374">
		<comp name="--.HNE" depth="0.0">
			<acc value="0.0611422177421374" flag="0"/>
			<vel value="0.0380971390737363" flag="0"/>
			<psa03 value="0.192928394937988" flag="0"/>
			<psa10 value="0.0313003054839444" flag="0"/>
			<psa30 value="0.00202547969360916" flag="0"/>
		</comp>
		<comp name="--.HNN" depth="0.0">
			<acc value="0.052470840360315" flag="0"/>
			<vel value="0.0317171359753123" flag="0"/>
			<psa03 value="0.205724666030814" flag="0"/>
			<psa10 value="0.038371363817896" flag="0"/>
			<psa30 value="0.00192480972871805" flag="0"/>
		</comp>
		<comp name="--.HNZ" depth="0.0">
			<acc value="0.0240409985456622" flag="0"/>
			<vel value="0.0148618244519243" flag="0"/>
			<psa03 value="0.0870235918725386" flag="0"/>
			<psa10 value="0.0143635905906638" flag="0"/>
			<psa30 value="0.000650551684229671" flag="0"/>
		</comp>
	</station>
	<station code="THS1" name="THS1" netid="HI" source="ITSAK Strong Motion Network" insttype="" lat="40.738476" lon="24.575145">
		<comp name="--.HNE" depth="0.0">
			<acc value="0.0959838277168392" flag="0"/>
			<vel value="0.0344802046918374" flag="0"/>
			<psa03 value="0.299414846689475" flag="0"/>
			<psa10 value="0.0169125541017067" flag="0"/>
			<psa30 value="0.00135434659433509" flag="0"/>
		</comp>
		<comp name="--.HNN" depth="0.0">
			<acc value="0.161959075850332" flag="0"/>
			<vel value="0.0836569612389206" flag="0"/>
			<psa03 value="0.574131995325663" flag="0"/>
			<psa10 value="0.0234319410280551" flag="0"/>
			<psa30 value="0.00234851842539308" flag="0"/>
		</comp>
		<comp name="--.HNZ" depth="0.0">
			<acc value="0.116054244565831" flag="0"/>
			<vel value="0.0354289308297848" flag="0"/>
			<psa03 value="0.220623820834698" flag="0"/>
			<psa10 value="0.0170897332399151" flag="0"/>
			<psa30 value="0.00114853244389104" flag="0"/>
		</comp>
	</station>
	<station code="EFSA" name="EFSA" netid="HL" source="National Observatory of Athens Seismic Network" insttype="" lat="39.54015" lon="24.98864">
		<comp name="00.HNE" depth="0.0">
			<acc value="0.0203910906789795" flag="0"/>
			<vel value="0.0142074104140278" flag="0"/>
			<psa03 value="0.0291271765084949" flag="0"/>
			<psa10 value="0.0206333160040822" flag="0"/>
			<psa30 value="0.00184606344506989" flag="0"/>
		</comp>
		<comp name="00.HNN" depth="0.0">
			<acc value="0.0112312071215122" flag="0"/>
			<vel value="0.00768454059219309" flag="0"/>
			<psa03 value="0.0271137772106727" flag="0"/>
			<psa10 value="0.00920928838823887" flag="0"/>
			<psa30 value="0.00135210948400417" flag="0"/>
		</comp>
		<comp name="00.HNZ" depth="0.0">
			<acc value="0.0174861706381164" flag="0"/>
			<vel value="0.00732848196253137" flag="0"/>
			<psa03 value="0.0517219908507221" flag="0"/>
			<psa10 value="0.00834352669017532" flag="0"/>
			<psa30 value="0.000582543530169898" flag="0"/>
		</comp>
	</station>
	<station code="KYMI" name="KYMI" netid="HL" source="National Observatory of Athens Seismic Network" insttype="" lat="38.633147" lon="24.100138">
		<comp name="--.HNE" depth="1.0">
			<acc value="0.00142891637292331" flag="0"/>
			<vel value="0.00128387220991206" flag="0"/>
			<psa03 value="0.00344514990960693" flag="0"/>
			<psa10 value="0.00188051494416596" flag="0"/>
			<psa30 value="0.000387020087248051" flag="0"/>
		</comp>
		<comp name="--.HNN" depth="1.0">
			<acc value="0.00121935785094949" flag="0"/>
			<vel value="0.00126593869041238" flag="0"/>
			<psa03 value="0.00304247005004248" flag="0"/>
			<psa10 value="0.00219460523462623" flag="0"/>
			<psa30 value="0.000229527519951734" flag="0"/>
		</comp>
		<comp name="--.HNZ" depth="1.0">
			<acc value="0.000855353676124824" flag="0"/>
			<vel value="0.000757942948055993" flag="0"/>
			<psa03 value="0.00331092328975211" flag="0"/>
			<psa10 value="0.00171138940314889" flag="0"/>
			<psa30 value="0.00027337488243764" flag="0"/>
		</comp>
	</station>
	<station code="PRK" name="PRK" netid="HL" source="National Observatory of Athens Seismic Network" insttype="" lat="39.24565" lon="26.26499">
		<comp name="--.HNE" depth="0.0">
			<acc value="0.011597099440818" flag="0"/>
			<vel value="0.00826511302065774" flag="0"/>
			<psa03 value="0.0487690052139162" flag="0"/>
			<psa10 value="0.0118025466838339" flag="0"/>
			<psa30 value="0.00133466002342305" flag="0"/>
		</comp>
		<comp name="--.HNN" depth="0.0">
			<acc value="0.00912455031221545" flag="0"/>
			<vel value="0.00763584440651325" flag="0"/>
			<psa03 value="0.0332882017239942" flag="0"/>
			<psa10 value="0.0151367359210275" flag="0"/>
			<psa30 value="0.00125770342803962" flag="0"/>
		</comp>
		<comp name="--.HNZ" depth="0.0">
			<acc value="0.00795657746208425" flag="0"/>
			<vel value="0.00549981606013713" flag="0"/>
			<psa03 value="0.0218789390363349" flag="0"/>
			<psa10 value="0.00736904143002936" flag="0"/>
			<psa30 value="0.000702452643906866" flag="0"/>
		</comp>
	</station>
	<station code="SMTH" name="SMTH" netid="HL" source="National Observatory of Athens Seismic Network" insttype="" lat="40.47094" lon="25.53045">
		<comp name="00.HNE" depth="0.0">
			<acc value="0.0482014933068804" flag="0"/>
			<vel value="0.0104982385846652" flag="0"/>
			<psa03 value="0.0446527222050352" flag="0"/>
			<psa10 value="0.00331808204281103" flag="0"/>
			<psa30 value="0.000409391190557186" flag="0"/>
		</comp>
		<comp name="00.HNN" depth="0.0">
			<acc value="0.0687698189861695" flag="0"/>
			<vel value="0.0173800343747295" flag="0"/>
			<psa03 value="0.0415207677417562" flag="0"/>
			<psa10 value="0.00407109338019655" flag="0"/>
			<psa30 value="0.000488137474205345" flag="0"/>
		</comp>
		<comp name="00.HNZ" depth="0.0">
			<acc value="0.0504025086274034" flag="0"/>
			<vel value="0.0100432209641371" flag="0"/>
			<psa03 value="0.0276506836900919" flag="0"/>
			<psa10 value="0.00485229230775157" flag="0"/>
			<psa30 value="0.00045279113097691" flag="0"/>
		</comp>
	</station>
	<station code="UKOP" name="UKOP" netid="KO" source="Bogazici University Kandilli Observatory And Earthquake Research Institute (KOERI)" insttype="" lat="41.1288" lon="26.6323">
		<comp name="--.HNE" depth="0.0">
			<acc value="0.0419045995654282" flag="0"/>
			<vel value="0.0367215587496359" flag="0"/>
			<psa03 value="0.215970631346398" flag="0"/>
			<psa10 value="0.0386290789280173" flag="0"/>
			<psa30 value="0.00487421598899452" flag="0"/>
		</comp>
		<comp name="--.HNN" depth="0.0">
			<acc value="0.0492166173900826" flag="0"/>
			<vel value="0.0368512113878879" flag="0"/>
			<psa03 value="0.121519833175226" flag="0"/>
			<psa10 value="0.0473994462693309" flag="0"/>
			<psa30 value="0.00618784717530698" flag="0"/>
		</comp>
		<comp name="--.HNZ" depth="0.0">
			<acc value="0.0236866327888444" flag="0"/>
			<vel value="0.0153014279301051" flag="0"/>
			<psa03 value="0.0769565953834274" flag="0"/>
			<psa10 value="0.0183541479989474" flag="0"/>
			<psa30 value="0.00234896584745927" flag="0"/>
		</comp>
	</station>
</stationlist>
