<?xml version="1.0" encoding="UTF-8" standalone="yes"?>
<!DOCTYPE earthquake SYSTEM "stationlist.dtd">
<stationlist created="" xmlns="ch.ethz.sed.shakemap.usgs.xml">
  <station code="LMN1" name="LMN1" netid="HI" insttype="CMG-5TD,ACCELEROMETER,GURALP" lat="39.875" lon="25.0588">
    <comp name="--.HNE">
      <acc value="0.1260092325" flag="0"/>
      <vel value="0.0705024764" flag="0"/>
      <psa03 value="0.6886205413" flag="0"/>
      <psa10 value="0.0396384483" flag="0"/>
      <psa30 value="0.0033775658" flag="0"/>
    </comp>
    <comp name="--.HNN">
      <acc value="0.1247126137" flag="0"/>
      <vel value="0.0447049887" flag="0"/>
      <psa03 value="0.4377157481" flag="0"/>
      <psa10 value="0.0284644673" flag="0"/>
      <psa30 value="0.0027953086" flag="0"/>
    </comp>
    <comp name="--.HNZ">
      <acc value="0.1618437739" flag="0"/>
      <vel value="0.0344937919" flag="0"/>
      <psa03 value="0.1177123888" flag="0"/>
      <psa10 value="0.0138151612" flag="0"/>
      <psa30 value="0.0015952471" flag="0"/>
    </comp>
  </station>
  <station code="PLN1" name="PLN1" netid="HI" insttype="CMG-5TD,ACCELEROMETER,GURALP" lat="39.998" lon="23.575">
    <comp name="--.HNE">
      <acc value="0.0073114917" flag="0"/>
      <vel value="0.0071276316" flag="0"/>
      <psa03 value="0.0192522423" flag="0"/>
      <psa10 value="0.0138850724" flag="0"/>
      <psa30 value="0.0011067248" flag="0"/>
    </comp>
    <comp name="--.HNN">
      <acc value="0.0074571316" flag="0"/>
      <vel value="0.0078935541" flag="0"/>
      <psa03 value="0.0210285194" flag="0"/>
      <psa10 value="0.0134759152" flag="0"/>
      <psa30 value="0.0016236047" flag="0"/>
    </comp>
    <comp name="--.HNZ">
      <acc value="0.0076358550" flag="0"/>
      <vel value="0.0043708935" flag="0"/>
      <psa03 value="0.0248339113" flag="0"/>
      <psa10 value="0.0061024151" flag="0"/>
      <psa30 value="0.0003940425" flag="0"/>
    </comp>
  </station>
  <station code="THS1" name="THS1" netid="HI" insttype="CMG-5TD,ACCELEROMETER,GURALP" lat="40.7385" lon="24.5751">
    <comp name="--.HNE">
      <acc value="0.0973321226" flag="0"/>
      <vel value="0.0342043500" flag="0"/>
      <psa03 value="0.2980662086" flag="0"/>
      <psa10 value="0.0168269702" flag="0"/>
      <psa30 value="0.0013204441" flag="0"/>
    </comp>
    <comp name="--.HNN">
      <acc value="0.1614474806" flag="0"/>
      <vel value="0.0832818580" flag="0"/>
      <psa03 value="0.5894783220" flag="0"/>
      <psa10 value="0.0232979369" flag="0"/>
      <psa30 value="0.0022927595" flag="0"/>
    </comp>
    <comp name="--.HNZ">
      <acc value="0.1173953472" flag="0"/>
      <vel value="0.0351681172" flag="0"/>
      <psa03 value="0.2200595444" flag="0"/>
      <psa10 value="0.0170642929" flag="0"/>
      <psa30 value="0.0011322811" flag="0"/>
    </comp>
  </station>
  <station code="LIA" name="LIA" netid="HL" insttype="P6C" lat="39.8972" lon="25.1806">
    <comp name="--.HHE">
      <acc value="0.1184801055" flag="0"/>
      <vel value="0.0549864302" flag="0"/>
      <psa03 value="0.1267292275" flag="0"/>
      <psa10 value="0.0359143553" flag="0"/>
      <psa30 value="0.0029949452" flag="0"/>
    </comp>
    <comp name="--.HHZ">
      <acc value="0.0629183396" flag="0"/>
      <vel value="0.0208173115" flag="0"/>
      <psa03 value="0.1059331285" flag="0"/>
      <psa10 value="0.0242370973" flag="0"/>
      <psa30 value="0.0016120392" flag="0"/>
    </comp>
    <comp name="--.HHN">
      <acc value="0.0964229306" flag="0"/>
      <vel value="0.0352506435" flag="0"/>
      <psa03 value="0.1155663115" flag="0"/>
      <psa10 value="0.0203862851" flag="0"/>
      <psa30 value="0.0030903050" flag="0"/>
    </comp>
  </station>
  <station code="RDO" name="RDO" netid="HL" insttype="CMG3EPSC60_DR24" lat="41.145" lon="25.5355">
    <comp name="--.HHE">
      <acc value="0.0079635528" flag="0"/>
      <vel value="0.0028472734" flag="0"/>
      <psa03 value="0.0213466043" flag="0"/>
      <psa10 value="0.0028010579" flag="0"/>
      <psa30 value="0.0002050439" flag="0"/>
    </comp>
    <comp name="--.HHN">
      <acc value="0.0094483278" flag="0"/>
      <vel value="0.0032685276" flag="0"/>
      <psa03 value="0.0235172336" flag="0"/>
      <psa10 value="0.0026803706" flag="0"/>
      <psa30 value="0.0003138999" flag="0"/>
    </comp>
    <comp name="--.HHZ">
      <acc value="0.0067312506" flag="0"/>
      <vel value="0.0032367110" flag="0"/>
      <psa03 value="0.0127674483" flag="0"/>
      <psa10 value="0.0051965496" flag="0"/>
      <psa30 value="0.0002787974" flag="0"/>
    </comp>
  </station>
  <station code="SMTH" name="SMTH" netid="HL" insttype="CMG3ESPC60_P6C" lat="40.4709" lon="25.5304">
    <comp name="--.HHE">
      <acc value="0.0459026602" flag="0"/>
      <vel value="0.0105870882" flag="0"/>
      <psa03 value="0.0447532413" flag="0"/>
      <psa10 value="0.0033910437" flag="0"/>
      <psa30 value="0.0003584766" flag="0"/>
    </comp>
    <comp name="--.HHZ">
      <acc value="0.0484354327" flag="0"/>
      <vel value="0.0096596095" flag="0"/>
      <psa03 value="0.0276673775" flag="0"/>
      <psa10 value="0.0047623520" flag="0"/>
      <psa30 value="0.0004577600" flag="0"/>
    </comp>
    <comp name="--.HHN">
      <acc value="0.0686531290" flag="0"/>
      <vel value="0.0169517427" flag="0"/>
      <psa03 value="0.0407421594" flag="0"/>
      <psa10 value="0.0040255868" flag="0"/>
      <psa30 value="0.0003215404" flag="0"/>
    </comp>
  </station>
  <station code="ALN" name="ALN" netid="HT" insttype="100" lat="40.885" lon="26.046">
    <comp name="--.HHN">
      <acc value="0.0075448892" flag="0"/>
      <vel value="0.0043816810" flag="0"/>
      <psa03 value="0.0191086459" flag="0"/>
      <psa10 value="0.0047856853" flag="0"/>
      <psa30 value="0.0007105563" flag="0"/>
    </comp>
    <comp name="--.HHZ">
      <acc value="0.0091314897" flag="0"/>
      <vel value="0.0042331347" flag="0"/>
      <psa03 value="0.0150738252" flag="0"/>
      <psa10 value="0.0056702666" flag="0"/>
      <psa30 value="0.0005796504" flag="0"/>
    </comp>
    <comp name="--.HHE">
      <acc value="0.0121334024" flag="0"/>
      <vel value="0.0037611394" flag="0"/>
      <psa03 value="0.0162883284" flag="0"/>
      <psa10 value="0.0045873131" flag="0"/>
      <psa30 value="0.0007909673" flag="0"/>
    </comp>
  </station>
  <station code="KAVA" name="KAVA" netid="HT" insttype="Compact," lat="40.9967" lon="24.5137">
    <comp name="--.HHZ">
      <acc value="0.0629372924" flag="0"/>
      <vel value="0.0229521827" flag="0"/>
      <psa03 value="0.1793614744" flag="0"/>
      <psa10 value="0.0144268179" flag="0"/>
      <psa30 value="0.0009861010" flag="0"/>
    </comp>
    <comp name="--.HHN">
      <acc value="0.1036222435" flag="0"/>
      <vel value="0.0467388675" flag="0"/>
      <psa03 value="0.3087455434" flag="0"/>
      <psa10 value="0.0253398625" flag="0"/>
      <psa30 value="0.0024079982" flag="0"/>
    </comp>
    <comp name="--.HHE">
      <acc value="0.1473454012" flag="0"/>
      <vel value="0.0534694882" flag="0"/>
      <psa03 value="0.1534348832" flag="0"/>
      <psa10 value="0.0200222846" flag="0"/>
      <psa30 value="0.0027833138" flag="0"/>
    </comp>
  </station>
  <station code="OUR" name="OUR" netid="HT" insttype="100" lat="40.3325" lon="23.9791">
    <comp name="--.HHN">
      <acc value="0.0185990111" flag="0"/>
      <vel value="0.0116148863" flag="0"/>
      <psa03 value="0.0469470925" flag="0"/>
      <psa10 value="0.0089750466" flag="0"/>
      <psa30 value="0.0010538338" flag="0"/>
    </comp>
    <comp name="--.HHE">
      <acc value="0.0201911100" flag="0"/>
      <vel value="0.0093775579" flag="0"/>
      <psa03 value="0.0665334384" flag="0"/>
      <psa10 value="0.0090950098" flag="0"/>
      <psa30 value="0.0006610735" flag="0"/>
    </comp>
    <comp name="--.HHZ">
      <acc value="0.0174164114" flag="0"/>
      <vel value="0.0094710016" flag="0"/>
      <psa03 value="0.0454656446" flag="0"/>
      <psa10 value="0.0070834721" flag="0"/>
      <psa30 value="0.0005470453" flag="0"/>
    </comp>
  </station>
  <station code="PAIG" name="PAIG" netid="HT" insttype="100" lat="39.9363" lon="23.6768">
    <comp name="--.HHE">
      <acc value="0.0028308544" flag="0"/>
      <vel value="0.0007799970" flag="0"/>
      <psa03 value="0.0030162063" flag="0"/>
      <psa10 value="0.0012311832" flag="0"/>
      <psa30 value="0.0001229215" flag="0"/>
    </comp>
    <comp name="--.HHN">
      <acc value="0.0018413607" flag="0"/>
      <vel value="0.0012791592" flag="0"/>
      <psa03 value="0.0029665971" flag="0"/>
      <psa10 value="0.0013859152" flag="0"/>
      <psa30 value="0.0002020652" flag="0"/>
    </comp>
    <comp name="--.HHZ">
      <acc value="0.0012497418" flag="0"/>
      <vel value="0.0008206803" flag="0"/>
      <psa03 value="0.0026407417" flag="0"/>
      <psa10 value="0.0011100525" flag="0"/>
      <psa30 value="0.0001009709" flag="0"/>
    </comp>
  </station>
  <station code="THAS" name="THAS" netid="HT" insttype="100" lat="40.6064" lon="24.7194">
    <comp name="--.HHE">
      <acc value="0.1041685466" flag="0"/>
      <vel value="0.0368229821" flag="0"/>
      <psa03 value="0.3424728701" flag="0"/>
      <psa10 value="0.0148453469" flag="0"/>
      <psa30 value="0.0010970497" flag="0"/>
    </comp>
    <comp name="--.HHN">
      <acc value="0.0964882248" flag="0"/>
      <vel value="0.0330900800" flag="0"/>
      <psa03 value="0.2193578543" flag="0"/>
      <psa10 value="0.0130862057" flag="0"/>
      <psa30 value="0.0010395280" flag="0"/>
    </comp>
    <comp name="--.HHZ">
      <acc value="0.0790610930" flag="0"/>
      <vel value="0.0418882003" flag="0"/>
      <psa03 value="0.1752257554" flag="0"/>
      <psa10 value="0.0157150142" flag="0"/>
      <psa30 value="0.0014676404" flag="0"/>
    </comp>
  </station>
  <station code="EZN" name="EZN" netid="KO" insttype="120s," lat="39.8255" lon="26.3247">
    <comp name="--.HHE">
      <acc value="0.0111431508" flag="0"/>
      <vel value="0.0067002802" flag="0"/>
      <psa03 value="0.0327002118" flag="0"/>
      <psa10 value="0.0090990965" flag="0"/>
      <psa30 value="0.0004515960" flag="0"/>
    </comp>
    <comp name="--.HHZ">
      <acc value="0.0066017415" flag="0"/>
      <vel value="0.0040641720" flag="0"/>
      <psa03 value="0.0193464719" flag="0"/>
      <psa10 value="0.0045476062" flag="0"/>
      <psa30 value="0.0004416413" flag="0"/>
    </comp>
    <comp name="--.HHN">
      <acc value="0.0100877388" flag="0"/>
      <vel value="0.0052977543" flag="0"/>
      <psa03 value="0.0180527982" flag="0"/>
      <psa10 value="0.0076790632" flag="0"/>
      <psa30 value="0.0005445326" flag="0"/>
    </comp>
  </station>
</stationlist>
