<stationlist created="1778135710">
	<station code="S2114" name="S2114" netid="S2" source="IceSMN Icelandic Strong Motion Network (IceSMN)" insttype="" lat="63.7515" lon="-20.2168">
		<comp name="00.HN1" depth="0.0">
			<acc value="0.113754654339435" flag="0"/>
			<vel value="0.0333923232128233" flag="0"/>
			<psa03 value="0.1975640043122" flag="0"/>
			<psa10 value="0.026407289978373" flag="0"/>
			<psa30 value="0.0181503690395377" flag="0"/>
		</comp>
		<comp name="00.HN2" depth="0.0">
			<acc value="0.105357858935636" flag="0"/>
			<vel value="0.0370782322316247" flag="0"/>
			<psa03 value="0.178691920796103" flag="0"/>
			<psa10 value="0.0415620720331454" flag="0"/>
			<psa30 value="0.0101858839314725" flag="0"/>
		</comp>
		<comp name="00.HNZ" depth="0.0">
			<acc value="0.0605435717680077" flag="0"/>
			<vel value="0.017278080255242" flag="0"/>
			<psa03 value="0.0846123499445484" flag="0"/>
			<psa10 value="0.0200024975673065" flag="0"/>
			<psa30 value="0.0148378229329495" flag="0"/>
		</comp>
	</station>
	<station code="S2119" name="S2119" netid="S2" source="IceSMN Icelandic Strong Motion Network (IceSMN)" insttype="" lat="64.1301" lon="-20.32">
		<comp name="00.HN1" depth="0.0">
			<acc value="0.0304059912231093" flag="0"/>
			<vel value="0.0206608055269295" flag="0"/>
			<psa03 value="0.102692792477001" flag="0"/>
			<psa10 value="0.0151897774982299" flag="0"/>
			<psa30 value="0.0134433613900648" flag="0"/>
		</comp>
		<comp name="00.HN2" depth="0.0">
			<acc value="0.0207116083028037" flag="0"/>
			<vel value="0.0281281575327059" flag="0"/>
			<psa03 value="0.0505441035072559" flag="0"/>
			<psa10 value="0.0316442475261129" flag="0"/>
			<psa30 value="0.00826329573613091" flag="0"/>
		</comp>
		<comp name="00.HNZ" depth="0.0">
			<acc value="0.0146508069107529" flag="0"/>
			<vel value="0.0149128810064595" flag="0"/>
			<psa03 value="0.0269376959484978" flag="0"/>
			<psa10 value="0.00985195983147131" flag="0"/>
			<psa30 value="0.00865256152305025" flag="0"/>
		</comp>
	</station>
	<station code="S2405" name="S2405" netid="S2" source="IceSMN Icelandic Strong Motion Network (IceSMN)" insttype="" lat="64.0447" lon="-21.9848">
		<comp name="00.HN1" depth="0.0">
			<acc value="0.416642894055031" flag="0"/>
			<vel value="0.204046896312735" flag="0"/>
			<psa03 value="0.644685415579493" flag="0"/>
			<psa10 value="0.31848831828799" flag="0"/>
			<psa30 value="0.0384595410891769" flag="0"/>
		</comp>
		<comp name="00.HN2" depth="0.0">
			<acc value="0.480548314317099" flag="0"/>
			<vel value="0.186851177064737" flag="0"/>
			<psa03 value="0.652727656670784" flag="0"/>
			<psa10 value="0.194273519667258" flag="0"/>
			<psa30 value="0.0434140526345932" flag="0"/>
		</comp>
		<comp name="00.HNZ" depth="0.0">
			<acc value="0.481092677128166" flag="0"/>
			<vel value="0.0997876825889442" flag="0"/>
			<psa03 value="0.233871805359234" flag="0"/>
			<psa10 value="0.0910077288153801" flag="0"/>
			<psa30 value="0.0281116922616257" flag="0"/>
		</comp>
	</station>
	<station code="S2602" name="S2602" netid="S2" source="IceSMN Icelandic Strong Motion Network (IceSMN)" insttype="" lat="63.8464" lon="-22.4268">
		<comp name="00.HN1" depth="0.0">
			<acc value="0.708065220131717" flag="0"/>
			<vel value="0.743486657891729" flag="0"/>
			<psa03 value="1.13188606523015" flag="0"/>
			<psa10 value="0.917204080267531" flag="0"/>
			<psa30 value="0.128328714480712" flag="0"/>
		</comp>
		<comp name="00.HN2" depth="0.0">
			<acc value="0.926583138209231" flag="0"/>
			<vel value="0.720900980235181" flag="0"/>
			<psa03 value="2.67863011276396" flag="0"/>
			<psa10 value="1.11848801434283" flag="0"/>
			<psa30 value="0.145132160959946" flag="0"/>
		</comp>
		<comp name="00.HNZ" depth="0.0">
			<acc value="1.05779785953839" flag="0"/>
			<vel value="0.285173431791243" flag="0"/>
			<psa03 value="0.759389805846245" flag="0"/>
			<psa10 value="0.432179499772745" flag="0"/>
			<psa30 value="0.0538155950191798" flag="0"/>
		</comp>
	</station>
	<station code="S2604" name="S2604" netid="S2" source="IceSMN Icelandic Strong Motion Network (IceSMN)" insttype="" lat="63.9843" lon="-21.6486">
		<comp name="00.HN1" depth="0.0">
			<acc value="0.290940011799606" flag="0"/>
			<vel value="0.191454348739699" flag="0"/>
			<psa03 value="0.577044351356576" flag="0"/>
			<psa10 value="0.224599903641249" flag="0"/>
			<psa30 value="0.0824423280661344" flag="0"/>
		</comp>
		<comp name="00.HN2" depth="0.0">
			<acc value="0.210357729258501" flag="0"/>
			<vel value="0.158752012906539" flag="0"/>
			<psa03 value="0.302476683429155" flag="0"/>
			<psa10 value="0.27808806196924" flag="0"/>
			<psa30 value="0.0351901411741607" flag="0"/>
		</comp>
		<comp name="00.HNZ" depth="0.0">
			<acc value="0.265447278812155" flag="0"/>
			<vel value="0.108137385912519" flag="0"/>
			<psa03 value="0.375242066278597" flag="0"/>
			<psa10 value="0.119321796983455" flag="0"/>
			<psa30 value="0.0573963422261413" flag="0"/>
		</comp>
	</station>
</stationlist>
