<?xml version="1.0" encoding="UTF-8" standalone="yes"?>
<!DOCTYPE earthquake SYSTEM "stationlist.dtd">
<stationlist created="" xmlns="ch.ethz.sed.shakemap.usgs.xml">
  <station code="ASB" name="ASB" netid="VI" source="ODC" insttype="STS-2.5" lat="64.7482" lon="-21.3254">
    <comp name="--.HHN">
      <acc value="0.0510172742" flag="0"/>
      <vel value="0.0148720163" flag="0"/>
      <psa03 value="0.1151052752" flag="0"/>
      <psa10 value="0.0220488865" flag="0"/>
      <psa30 value="0.0028956992" flag="0"/>
    </comp>
    <comp name="--.HHE">
      <acc value="0.0380582201" flag="0"/>
      <vel value="0.0180299198" flag="0"/>
      <psa03 value="0.0934902770" flag="0"/>
      <psa10 value="0.0189499882" flag="0"/>
      <psa30 value="0.0093753043" flag="0"/>
    </comp>
    <comp name="--.HHZ">
      <acc value="0.0272998858" flag="0"/>
      <vel value="0.0107916623" flag="0"/>
      <psa03 value="0.0494466581" flag="0"/>
      <psa10 value="0.0218719198" flag="0"/>
      <psa30 value="0.0080272289" flag="0"/>
    </comp>
  </station>
</stationlist>
