<?xml version="1.0" encoding="UTF-8" standalone="yes"?>
<!DOCTYPE earthquake SYSTEM "stationlist.dtd">
<stationlist created="" xmlns="ch.ethz.sed.shakemap.usgs.xml">
  <station code="BZS" name="BZS" netid="MN" insttype="" lat="45.6188" lon="21.6401">
    <comp name="--.HHE">
      <acc value="0.0837084832" flag="0"/>
      <vel value="0.0319807947" flag="0"/>
      <psa03 value="0.2470504630" flag="0"/>
      <psa10 value="0.0123713435" flag="0"/>
      <psa30 value="0.0011278956" flag="0"/>
    </comp>
    <comp name="--.HHZ">
      <acc value="0.0475666517" flag="0"/>
      <vel value="0.0087913104" flag="0"/>
      <psa03 value="0.0460354655" flag="0"/>
      <psa10 value="0.0037229612" flag="0"/>
      <psa30 value="0.0003294930" flag="0"/>
    </comp>
    <comp name="--.HHN">
      <acc value="0.0377236163" flag="0"/>
      <vel value="0.0157366121" flag="0"/>
      <psa03 value="0.0645214872" flag="0"/>
      <psa10 value="0.0043500331" flag="0"/>
      <psa30 value="0.0003206567" flag="0"/>
    </comp>
  </station>
  <station code="BORR" name="BORR" netid="RO" insttype="CMG40T.1to100/Quanterra" lat="47.0902" lon="21.7856">
    <comp name="--.HHZ">
      <acc value="0.0348755890" flag="0"/>
      <vel value="0.0125864540" flag="0"/>
      <psa03 value="0.0544567130" flag="0"/>
      <psa10 value="0.0060109882" flag="0"/>
      <psa30 value="0.0004165663" flag="0"/>
    </comp>
  </station>
  <station code="BZS" name="BZS" netid="RO" insttype="w/attenuator" lat="45.6188" lon="21.6401">
    <comp name="--.HHE">
      <acc value="0.0628010052" flag="0"/>
      <vel value="0.0238307834" flag="0"/>
      <psa03 value="0.1857652108" flag="0"/>
      <psa10 value="0.0092595809" flag="0"/>
      <psa30 value="0.0008482760" flag="0"/>
    </comp>
    <comp name="--.HHN">
      <acc value="0.0268055253" flag="0"/>
      <vel value="0.0118081503" flag="0"/>
      <psa03 value="0.0481258828" flag="0"/>
      <psa10 value="0.0032771171" flag="0"/>
      <psa30 value="0.0002416859" flag="0"/>
    </comp>
    <comp name="--.HHZ">
      <acc value="0.0366800705" flag="0"/>
      <vel value="0.0066828989" flag="0"/>
      <psa03 value="0.0344690167" flag="0"/>
      <psa10 value="0.0028080898" flag="0"/>
      <psa30 value="0.0002440194" flag="0"/>
    </comp>
  </station>
  <station code="DEV" name="DEV" netid="RO" insttype="CMG40T.1to100/Quanterra" lat="45.887" lon="22.898">
    <comp name="--.HHN">
      <acc value="0.0190405342" flag="0"/>
      <vel value="0.0053875608" flag="0"/>
      <psa03 value="0.0268456456" flag="0"/>
      <psa10 value="0.0077578267" flag="0"/>
      <psa30 value="0.0002668936" flag="0"/>
    </comp>
    <comp name="--.HHE">
      <acc value="0.0223803736" flag="0"/>
      <vel value="0.0066931676" flag="0"/>
      <psa03 value="0.0362202016" flag="0"/>
      <psa10 value="0.0043743284" flag="0"/>
      <psa30 value="0.0002300382" flag="0"/>
    </comp>
    <comp name="--.HHZ">
      <acc value="0.0145517053" flag="0"/>
      <vel value="0.0040602130" flag="0"/>
      <psa03 value="0.0254197797" flag="0"/>
      <psa10 value="0.0030622097" flag="0"/>
      <psa30 value="0.0001894120" flag="0"/>
    </comp>
  </station>
  <station code="DRGR" name="DRGR" netid="RO" insttype="330" lat="46.7917" lon="22.7111">
    <comp name="--.HHN">
      <acc value="0.0402550278" flag="0"/>
      <vel value="0.0093385363" flag="0"/>
      <psa03 value="0.0657507698" flag="0"/>
      <psa10 value="0.0038411103" flag="0"/>
      <psa30 value="0.0003094245" flag="0"/>
    </comp>
    <comp name="--.HHZ">
      <acc value="0.0256609679" flag="0"/>
      <vel value="0.0102976109" flag="0"/>
      <psa03 value="0.0403541985" flag="0"/>
      <psa10 value="0.0054360358" flag="0"/>
      <psa30 value="0.0002846188" flag="0"/>
    </comp>
    <comp name="--.HHE">
      <acc value="0.0470450948" flag="0"/>
      <vel value="0.0097391365" flag="0"/>
      <psa03 value="0.0577361186" flag="0"/>
      <psa10 value="0.0031629577" flag="0"/>
      <psa30 value="0.0003787466" flag="0"/>
    </comp>
  </station>
  <station code="JIMR" name="JIMR" netid="RO" insttype="200" lat="45.7818" lon="20.7024">
    <comp name="--.HNN">
      <acc value="0.0756210455" flag="0"/>
      <vel value="0.0444467850" flag="0"/>
      <psa03 value="0.1256704039" flag="0"/>
      <psa10 value="0.0349444296" flag="0"/>
      <psa30 value="0.0016388217" flag="0"/>
    </comp>
    <comp name="--.HNE">
      <acc value="0.0850596935" flag="0"/>
      <vel value="0.0323546172" flag="0"/>
      <psa03 value="0.2224357579" flag="0"/>
      <psa10 value="0.0184352244" flag="0"/>
      <psa30 value="0.0012000629" flag="0"/>
    </comp>
    <comp name="--.HNZ">
      <acc value="0.0433459718" flag="0"/>
      <vel value="0.0062054402" flag="0"/>
      <psa03 value="0.0289453907" flag="0"/>
      <psa10 value="0.0034388513" flag="0"/>
      <psa30 value="0.0019205674" flag="0"/>
    </comp>
  </station>
  <station code="SNMR" name="SNMR" netid="RO" insttype="200" lat="46.0713" lon="20.6017">
    <comp name="--.HNE">
      <acc value="0.0567648023" flag="0"/>
      <vel value="0.0197559850" flag="0"/>
      <psa03 value="0.0787503410" flag="0"/>
      <psa10 value="0.0189662168" flag="0"/>
      <psa30 value="0.0012822551" flag="0"/>
    </comp>
    <comp name="--.HNN">
      <acc value="0.0726613407" flag="0"/>
      <vel value="0.0255536263" flag="0"/>
      <psa03 value="0.1189578097" flag="0"/>
      <psa10 value="0.0121327631" flag="0"/>
      <psa30 value="0.0011726338" flag="0"/>
    </comp>
    <comp name="--.HNZ">
      <acc value="0.1182613698" flag="0"/>
      <vel value="0.0136427756" flag="0"/>
      <psa03 value="0.0386452750" flag="0"/>
      <psa10 value="0.0046180771" flag="0"/>
      <psa30 value="0.0003133658" flag="0"/>
    </comp>
  </station>
  <station code="SURR" name="SURR" netid="RO" insttype="Linear" lat="45.754" lon="22.1246">
    <comp name="--.HHE">
      <acc value="0.1096272185" flag="0"/>
      <vel value="0.0144241692" flag="0"/>
      <psa03 value="0.0397410950" flag="0"/>
      <psa10 value="0.0043345070" flag="0"/>
      <psa30 value="0.0003220676" flag="0"/>
    </comp>
    <comp name="--.HHZ">
      <acc value="0.0382346459" flag="0"/>
      <vel value="0.0170822116" flag="0"/>
      <psa03 value="0.0703624801" flag="0"/>
      <psa10 value="0.0039557641" flag="0"/>
      <psa30 value="0.0004387462" flag="0"/>
    </comp>
    <comp name="--.HHN">
      <acc value="0.1055661600" flag="0"/>
      <vel value="0.0169817456" flag="0"/>
      <psa03 value="0.0870985085" flag="0"/>
      <psa10 value="0.0035273132" flag="0"/>
      <psa30 value="0.0004567805" flag="0"/>
    </comp>
  </station>
  <station code="TIM" name="TIM" netid="RO" insttype="2.5V" lat="45.7365" lon="21.2211">
    <comp name="--.HNN">
      <acc value="0.0538077205" flag="0"/>
      <vel value="0.0208191007" flag="0"/>
      <psa03 value="0.1046069191" flag="0"/>
      <psa10 value="0.0179167063" flag="0"/>
      <psa30 value="0.0017611383" flag="0"/>
    </comp>
    <comp name="--.HNE">
      <acc value="0.0525711596" flag="0"/>
      <vel value="0.0245679144" flag="0"/>
      <psa03 value="0.0952024416" flag="0"/>
      <psa10 value="0.0194525373" flag="0"/>
      <psa30 value="0.0020074917" flag="0"/>
    </comp>
    <comp name="--.HNZ">
      <acc value="0.0691118744" flag="0"/>
      <vel value="0.0103470880" flag="0"/>
      <psa03 value="0.0350650161" flag="0"/>
      <psa10 value="0.0041475056" flag="0"/>
      <psa30 value="0.0006703543" flag="0"/>
    </comp>
  </station>
</stationlist>
