<?xml version="1.0" encoding="UTF-8" standalone="yes"?>
<!DOCTYPE earthquake SYSTEM "stationlist.dtd">
<stationlist created="" xmlns="ch.ethz.sed.shakemap.usgs.xml">
  <station code="TOKT" name="TOKT" netid="KO" insttype="120s," lat="40.3173" lon="36.5445">
    <comp name="--.HHN">
      <acc value="0.0046915917" flag="0"/>
      <vel value="0.0030004436" flag="0"/>
      <psa03 value="0.0100042499" flag="0"/>
      <psa10 value="0.0032039272" flag="0"/>
      <psa30 value="0.0004117695" flag="0"/>
    </comp>
    <comp name="--.HHE">
      <acc value="0.0053743681" flag="0"/>
      <vel value="0.0020952432" flag="0"/>
      <psa03 value="0.0108194826" flag="0"/>
      <psa10 value="0.0017151528" flag="0"/>
      <psa30 value="0.0002510395" flag="0"/>
    </comp>
    <comp name="--.HHZ">
      <acc value="0.0050211260" flag="0"/>
      <vel value="0.0022857125" flag="0"/>
      <psa03 value="0.0111812123" flag="0"/>
      <psa10 value="0.0012856924" flag="0"/>
      <psa30 value="0.0003446337" flag="0"/>
    </comp>
  </station>
</stationlist>
