<stationlist created="1778136215">
	<station code="ARPRA" name="ARPRA" netid="KO" source="Bogazici University Kandilli Observatory And Earthquake Research Institute (KOERI)" insttype="" lat="39.0929" lon="38.3356">
		<comp name="--.HNE" depth="0.0">
			<acc value="0.0334534940032673" flag="0"/>
			<vel value="0.0144465847499487" flag="0"/>
			<psa03 value="0.114584791149394" flag="0"/>
			<psa10 value="0.00833547309298403" flag="0"/>
			<psa30 value="0.00107739233536798" flag="0"/>
		</comp>
		<comp name="--.HNN" depth="0.0">
			<acc value="0.0362023216020788" flag="0"/>
			<vel value="0.0174543625064802" flag="0"/>
			<psa03 value="0.125591373977489" flag="0"/>
			<psa10 value="0.00908043083317825" flag="0"/>
			<psa30 value="0.00100222542824929" flag="0"/>
		</comp>
		<comp name="--.HNZ" depth="0.0">
			<acc value="0.014764956383534" flag="0"/>
			<vel value="0.00510970084559331" flag="0"/>
			<psa03 value="0.0369570626666925" flag="0"/>
			<psa10 value="0.00481605112039077" flag="0"/>
			<psa30 value="0.000547197186941463" flag="0"/>
		</comp>
	</station>
	<station code="KOZK" name="KOZK" netid="KO" source="Bogazici University Kandilli Observatory And Earthquake Research Institute (KOERI)" insttype="" lat="39.2101" lon="34.868">
		<comp name="--.HNE" depth="0.0">
			<acc value="0.00398897895098245" flag="0"/>
			<vel value="0.00382035134556648" flag="0"/>
			<psa03 value="0.0110065828280949" flag="0"/>
			<psa10 value="0.00797306121937603" flag="0"/>
			<psa30 value="0.000656368171090046" flag="0"/>
		</comp>
		<comp name="--.HNN" depth="0.0">
			<acc value="0.005160130677396" flag="0"/>
			<vel value="0.0055422410374241" flag="0"/>
			<psa03 value="0.0122593646134065" flag="0"/>
			<psa10 value="0.0103569259879975" flag="0"/>
			<psa30 value="0.000613415652736506" flag="0"/>
		</comp>
		<comp name="--.HNZ" depth="0.0">
			<acc value="0.00295982464048717" flag="0"/>
			<vel value="0.00188207423973642" flag="0"/>
			<psa03 value="0.00957483221631016" flag="0"/>
			<psa10 value="0.00202547969360916" flag="0"/>
			<psa30 value="0.000334671705504673" flag="0"/>
		</comp>
	</station>
	<station code="KYHL" name="KYHL" netid="KO" source="Bogazici University Kandilli Observatory And Earthquake Research Institute (KOERI)" insttype="" lat="40.3244" lon="37.8955">
		<comp name="--.HNE" depth="0.0">
			<acc value="0.0159355067477963" flag="0"/>
			<vel value="0.00997313365146337" flag="0"/>
			<psa03 value="0.0450106598579814" flag="0"/>
			<psa10 value="0.0058509383594714" flag="0"/>
			<psa30 value="0.000604914633479034" flag="0"/>
		</comp>
		<comp name="--.HNN" depth="0.0">
			<acc value="0.0156691551533357" flag="0"/>
			<vel value="0.0071684550321773" flag="0"/>
			<psa03 value="0.0424603540807399" flag="0"/>
			<psa10 value="0.00581872397070624" flag="0"/>
			<psa30 value="0.000557935316529849" flag="0"/>
		</comp>
		<comp name="--.HNZ" depth="0.0">
			<acc value="0.00837212216035903" flag="0"/>
			<vel value="0.00392448907456348" flag="0"/>
			<psa03 value="0.0404469547829177" flag="0"/>
			<psa10 value="0.00242413275457796" flag="0"/>
			<psa30 value="0.000391046885843695" flag="0"/>
		</comp>
	</station>
	<station code="TUNC" name="TUNC" netid="KO" source="Bogazici University Kandilli Observatory And Earthquake Research Institute (KOERI)" insttype="" lat="39.6942" lon="37.5388">
		<comp name="--.HNE" depth="0.0">
			<acc value="0.455639908169054" flag="0"/>
			<vel value="0.140437389670178" flag="0"/>
			<psa03 value="0.833323598265311" flag="0"/>
			<psa10 value="0.0747695963239263" flag="0"/>
			<psa30 value="0.0043596806128844" flag="0"/>
		</comp>
		<comp name="--.HNN" depth="0.0">
			<acc value="0.459482772147535" flag="0"/>
			<vel value="0.183825454678256" flag="0"/>
			<psa03 value="0.991755751900612" flag="0"/>
			<psa10 value="0.113515452411217" flag="0"/>
			<psa30 value="0.0135394391447552" flag="0"/>
		</comp>
		<comp name="--.HNZ" depth="0.0">
			<acc value="0.239864116224385" flag="0"/>
			<vel value="0.0807022803244311" flag="0"/>
			<psa03 value="0.453014842010002" flag="0"/>
			<psa10 value="0.063470399464548" flag="0"/>
			<psa30 value="0.00701468315361265" flag="0"/>
		</comp>
	</station>
</stationlist>
