<?xml version="1.0" encoding="UTF-8" standalone="yes"?>
<!DOCTYPE earthquake SYSTEM "stationlist.dtd">
<stationlist created="" xmlns="ch.ethz.sed.shakemap.usgs.xml">
  <station code="A060B" name="A060B" netid="8D" insttype="STS2.5" lat="46.993" lon="7.97764">
    <comp name="--.HHE">
      <acc value="0.0060556807" flag="0"/>
      <vel value="0.0088738424" flag="0"/>
      <psa03 value="0.0240409335" flag="0"/>
      <psa10 value="0.0089452646" flag="0"/>
      <psa30 value="0.0034571221" flag="0"/>
    </comp>
    <comp name="--.HHN">
      <acc value="0.0078135746" flag="0"/>
      <vel value="0.0097321810" flag="0"/>
      <psa03 value="0.0236331265" flag="0"/>
      <psa10 value="0.0129481995" flag="0"/>
      <psa30 value="0.0040079799" flag="0"/>
    </comp>
    <comp name="--.HHZ">
      <acc value="0.0063348656" flag="0"/>
      <vel value="0.0099962903" flag="0"/>
      <psa03 value="0.0109604249" flag="0"/>
      <psa10 value="0.0085100581" flag="0"/>
      <psa30 value="0.0032313901" flag="0"/>
    </comp>
  </station>
  <station code="OBER" name="OBER" netid="BW" insttype="Trillium Compact 120s" lat="47.407" lon="10.2934">
    <comp name="--.HHN">
      <acc value="0.0110634458" flag="0"/>
      <vel value="0.0070500536" flag="0"/>
      <psa03 value="0.0277825861" flag="0"/>
      <psa10 value="0.0101456342" flag="0"/>
      <psa30 value="0.0013160557" flag="0"/>
    </comp>
    <comp name="--.HHE">
      <acc value="0.0106944464" flag="0"/>
      <vel value="0.0050370833" flag="0"/>
      <psa03 value="0.0279896512" flag="0"/>
      <psa10 value="0.0114427341" flag="0"/>
      <psa30 value="0.0018174674" flag="0"/>
    </comp>
    <comp name="--.HHZ">
      <acc value="0.0101255798" flag="0"/>
      <vel value="0.0044675969" flag="0"/>
      <psa03 value="0.0171694961" flag="0"/>
      <psa10 value="0.0055098302" flag="0"/>
      <psa30 value="0.0018404516" flag="0"/>
    </comp>
  </station>
  <station code="ACB" name="ACB" netid="CH" insttype="Trillium 240s_g2" lat="47.5877" lon="8.25474">
    <comp name="--.HHE">
      <acc value="0.0187017144" flag="0"/>
      <vel value="0.0243000282" flag="0"/>
      <psa03 value="0.0508710110" flag="0"/>
      <psa10 value="0.0815462756" flag="0"/>
      <psa30 value="0.0073318932" flag="0"/>
    </comp>
    <comp name="--.HHN">
      <acc value="0.0208966279" flag="0"/>
      <vel value="0.0272233127" flag="0"/>
      <psa03 value="0.0623636313" flag="0"/>
      <psa10 value="0.0405514663" flag="0"/>
      <psa30 value="0.0077749144" flag="0"/>
    </comp>
    <comp name="--.HHZ">
      <acc value="0.0110184766" flag="0"/>
      <vel value="0.0115779371" flag="0"/>
      <psa03 value="0.0246004799" flag="0"/>
      <psa10 value="0.0145019767" flag="0"/>
      <psa30 value="0.0061957929" flag="0"/>
    </comp>
  </station>
  <station code="BALST" name="BALST" netid="CH" insttype="STS2_gen3" lat="47.336" lon="7.69485">
    <comp name="--.HHZ">
      <acc value="0.0136013186" flag="0"/>
      <vel value="0.0118282715" flag="0"/>
      <psa03 value="0.0270588510" flag="0"/>
      <psa10 value="0.0115278326" flag="0"/>
      <psa30 value="0.0029265031" flag="0"/>
    </comp>
    <comp name="--.HHE">
      <acc value="0.0110132750" flag="0"/>
      <vel value="0.0108095984" flag="0"/>
      <psa03 value="0.0305341049" flag="0"/>
      <psa10 value="0.0107466997" flag="0"/>
      <psa30 value="0.0025961145" flag="0"/>
    </comp>
    <comp name="--.HHN">
      <acc value="0.0235731878" flag="0"/>
      <vel value="0.0203301712" flag="0"/>
      <psa03 value="0.0673537181" flag="0"/>
      <psa10 value="0.0198992068" flag="0"/>
      <psa30 value="0.0063512542" flag="0"/>
    </comp>
  </station>
  <station code="BERGE" name="BERGE" netid="CH" insttype="Trillium Compact 120s" lat="47.8716" lon="8.17798">
    <comp name="--.HHN">
      <acc value="0.0071289771" flag="0"/>
      <vel value="0.0055336149" flag="0"/>
      <psa03 value="0.0162565175" flag="0"/>
      <psa10 value="0.0083004910" flag="0"/>
      <psa30 value="0.0022340395" flag="0"/>
    </comp>
    <comp name="--.HHZ">
      <acc value="0.0175014638" flag="0"/>
      <vel value="0.0152772423" flag="0"/>
      <psa03 value="0.0229027983" flag="0"/>
      <psa10 value="0.0118370440" flag="0"/>
      <psa30 value="0.0025827315" flag="0"/>
    </comp>
    <comp name="--.HHE">
      <acc value="0.0168592621" flag="0"/>
      <vel value="0.0127741211" flag="0"/>
      <psa03 value="0.0242166066" flag="0"/>
      <psa10 value="0.0140796814" flag="0"/>
      <psa30 value="0.0026700308" flag="0"/>
    </comp>
  </station>
  <station code="BLOTZ" name="BLOTZ" netid="CH" insttype="EpiSensor ES-T" lat="47.6207" lon="7.44006">
    <comp name="SF.HGN">
      <acc value="0.0059411705" flag="0"/>
      <vel value="0.0042018975" flag="0"/>
      <psa03 value="0.0091453334" flag="0"/>
      <psa10 value="0.0037373605" flag="0"/>
      <psa30 value="0.0006630476" flag="0"/>
    </comp>
    <comp name="SF.HGZ">
      <acc value="0.0015497487" flag="0"/>
      <vel value="0.0013751330" flag="0"/>
      <psa03 value="0.0037646449" flag="0"/>
      <psa10 value="0.0015426900" flag="0"/>
      <psa30 value="0.0011060621" flag="0"/>
    </comp>
    <comp name="SF.HGE">
      <acc value="0.0063670373" flag="0"/>
      <vel value="0.0054439919" flag="0"/>
      <psa03 value="0.0129215035" flag="0"/>
      <psa10 value="0.0061375647" flag="0"/>
      <psa30 value="0.0007288721" flag="0"/>
    </comp>
  </station>
  <station code="BNALP" name="BNALP" netid="CH" insttype="STS2_gen3" lat="46.8703" lon="8.4249">
    <comp name="--.HHE">
      <acc value="0.0128455436" flag="0"/>
      <vel value="0.0167059850" flag="0"/>
      <psa03 value="0.0287568101" flag="0"/>
      <psa10 value="0.0131223625" flag="0"/>
      <psa30 value="0.0041174370" flag="0"/>
    </comp>
    <comp name="--.HHZ">
      <acc value="0.0123124547" flag="0"/>
      <vel value="0.0145749824" flag="0"/>
      <psa03 value="0.0200021975" flag="0"/>
      <psa10 value="0.0209211122" flag="0"/>
      <psa30 value="0.0031682349" flag="0"/>
    </comp>
    <comp name="--.HHN">
      <acc value="0.0100449274" flag="0"/>
      <vel value="0.0094209395" flag="0"/>
      <psa03 value="0.0211420532" flag="0"/>
      <psa10 value="0.0135892302" flag="0"/>
      <psa30 value="0.0033445912" flag="0"/>
    </comp>
  </station>
  <station code="BOBI" name="BOBI" netid="CH" insttype="EpiSensor ES-T" lat="47.5463" lon="8.33992">
    <comp name="SF.HGZ">
      <acc value="0.0161477932" flag="0"/>
      <vel value="0.0367987304" flag="0"/>
      <psa03 value="0.0388876630" flag="0"/>
      <psa10 value="0.0404161396" flag="0"/>
      <psa30 value="0.0131732849" flag="0"/>
    </comp>
    <comp name="SF.HGE">
      <acc value="0.0218840798" flag="0"/>
      <vel value="0.0315233913" flag="0"/>
      <psa03 value="0.0368732493" flag="0"/>
      <psa10 value="0.0279213024" flag="0"/>
      <psa30 value="0.0113993953" flag="0"/>
    </comp>
    <comp name="SF.HGN">
      <acc value="0.0166627257" flag="0"/>
      <vel value="0.0356115230" flag="0"/>
      <psa03 value="0.0557267252" flag="0"/>
      <psa10 value="0.0480657302" flag="0"/>
      <psa30 value="0.0105411607" flag="0"/>
    </comp>
  </station>
  <station code="BULAC" name="BULAC" netid="CH" insttype="ABBT" lat="47.5424" lon="8.52044">
    <comp name="BT.HG2">
      <acc value="0.0059779768" flag="0"/>
      <vel value="0.0126222314" flag="0"/>
      <psa03 value="0.0123114208" flag="0"/>
      <psa10 value="0.0161491169" flag="0"/>
      <psa30 value="0.0055561217" flag="0"/>
    </comp>
    <comp name="BT.HG1">
      <acc value="0.0055616627" flag="0"/>
      <vel value="0.0072216388" flag="0"/>
      <psa03 value="0.0178970693" flag="0"/>
      <psa10 value="0.0092833472" flag="0"/>
      <psa30 value="0.0035239275" flag="0"/>
    </comp>
    <comp name="BT.HGZ">
      <acc value="0.0068018614" flag="0"/>
      <vel value="0.0179976409" flag="0"/>
      <psa03 value="0.0098020427" flag="0"/>
      <psa10 value="0.0116876083" flag="0"/>
      <psa30 value="0.0064108937" flag="0"/>
    </comp>
  </station>
  <station code="DAGMA" name="DAGMA" netid="CH" insttype="Trillium Compact 120s" lat="47.2309" lon="8.01248">
    <comp name="--.HHE">
      <acc value="0.0137613091" flag="0"/>
      <vel value="0.0174266880" flag="0"/>
      <psa03 value="0.0342339964" flag="0"/>
      <psa10 value="0.0240880515" flag="0"/>
      <psa30 value="0.0060600078" flag="0"/>
    </comp>
    <comp name="--.HHN">
      <acc value="0.0132167452" flag="0"/>
      <vel value="0.0215884702" flag="0"/>
      <psa03 value="0.0296824604" flag="0"/>
      <psa10 value="0.0328396410" flag="0"/>
      <psa30 value="0.0109664485" flag="0"/>
    </comp>
    <comp name="--.HHZ">
      <acc value="0.0102966680" flag="0"/>
      <vel value="0.0236075704" flag="0"/>
      <psa03 value="0.0188299507" flag="0"/>
      <psa10 value="0.0248532646" flag="0"/>
      <psa30 value="0.0077171864" flag="0"/>
    </comp>
  </station>
  <station code="DAVOX" name="DAVOX" netid="CH" insttype="STS2.5" lat="46.7805" lon="9.87952">
    <comp name="--.HHN">
      <acc value="0.0034914470" flag="0"/>
      <vel value="0.0029066268" flag="0"/>
      <psa03 value="0.0095806699" flag="0"/>
      <psa10 value="0.0048280130" flag="0"/>
      <psa30 value="0.0007575838" flag="0"/>
    </comp>
    <comp name="--.HHE">
      <acc value="0.0041065580" flag="0"/>
      <vel value="0.0036100830" flag="0"/>
      <psa03 value="0.0135655034" flag="0"/>
      <psa10 value="0.0043567206" flag="0"/>
      <psa30 value="0.0009004598" flag="0"/>
    </comp>
    <comp name="--.HHZ">
      <acc value="0.0027864432" flag="0"/>
      <vel value="0.0026191678" flag="0"/>
      <psa03 value="0.0074386210" flag="0"/>
      <psa10 value="0.0035163751" flag="0"/>
      <psa30 value="0.0011985556" flag="0"/>
    </comp>
  </station>
  <station code="EMING" name="EMING" netid="CH" insttype="Trillium Compact 120s" lat="47.8952" lon="8.84676">
    <comp name="--.HHE">
      <acc value="0.0247399670" flag="0"/>
      <vel value="0.0232125067" flag="0"/>
      <psa03 value="0.0474749719" flag="0"/>
      <psa10 value="0.0170362289" flag="0"/>
      <psa30 value="0.0072963762" flag="0"/>
    </comp>
    <comp name="--.HHZ">
      <acc value="0.0074837668" flag="0"/>
      <vel value="0.0110532248" flag="0"/>
      <psa03 value="0.0261473943" flag="0"/>
      <psa10 value="0.0119122370" flag="0"/>
      <psa30 value="0.0030219953" flag="0"/>
    </comp>
    <comp name="--.HHN">
      <acc value="0.0252538073" flag="0"/>
      <vel value="0.0155152802" flag="0"/>
      <psa03 value="0.0356532401" flag="0"/>
      <psa10 value="0.0175615624" flag="0"/>
      <psa30 value="0.0034452870" flag="0"/>
    </comp>
  </station>
  <station code="EMMET" name="EMMET" netid="CH" insttype="Trillium Compact 120s" lat="47.4376" lon="8.01358">
    <comp name="--.HHN">
      <acc value="0.0231802316" flag="0"/>
      <vel value="0.0132582256" flag="0"/>
      <psa03 value="0.0607896969" flag="0"/>
      <psa10 value="0.0257488913" flag="0"/>
      <psa30 value="0.0051840991" flag="0"/>
    </comp>
    <comp name="--.HHZ">
      <acc value="0.0167221637" flag="0"/>
      <vel value="0.0126748884" flag="0"/>
      <psa03 value="0.0788077288" flag="0"/>
      <psa10 value="0.0117306867" flag="0"/>
      <psa30 value="0.0041664880" flag="0"/>
    </comp>
    <comp name="--.HHE">
      <acc value="0.0199735303" flag="0"/>
      <vel value="0.0183140839" flag="0"/>
      <psa03 value="0.0981285194" flag="0"/>
      <psa10 value="0.0147646146" flag="0"/>
      <psa30 value="0.0078745940" flag="0"/>
    </comp>
  </station>
  <station code="EWZT0" name="EWZT0" netid="CH" insttype="EpiSensor ES-T" lat="47.3668" lon="8.49677">
    <comp name="--.HGN">
      <acc value="0.0733326849" flag="0"/>
      <vel value="0.0734479014" flag="0"/>
      <psa03 value="0.1201054793" flag="0"/>
      <psa10 value="0.1269639299" flag="0"/>
      <psa30 value="0.0122417569" flag="0"/>
    </comp>
    <comp name="--.HGZ">
      <acc value="0.0249567130" flag="0"/>
      <vel value="0.0310309893" flag="0"/>
      <psa03 value="0.0580963721" flag="0"/>
      <psa10 value="0.0387383674" flag="0"/>
      <psa30 value="0.0084244774" flag="0"/>
    </comp>
    <comp name="--.HGE">
      <acc value="0.0526148547" flag="0"/>
      <vel value="0.0571342991" flag="0"/>
      <psa03 value="0.1260229313" flag="0"/>
      <psa10 value="0.0798942045" flag="0"/>
      <psa30 value="0.0139182270" flag="0"/>
    </comp>
  </station>
  <station code="FIESA" name="FIESA" netid="CH" insttype="STS2_gen2" lat="46.4352" lon="8.11051">
    <comp name="--.HHE">
      <acc value="0.0046131232" flag="0"/>
      <vel value="0.0042040184" flag="0"/>
      <psa03 value="0.0094742667" flag="0"/>
      <psa10 value="0.0054008705" flag="0"/>
      <psa30 value="0.0010960771" flag="0"/>
    </comp>
    <comp name="--.HHZ">
      <acc value="0.0047071665" flag="0"/>
      <vel value="0.0029982713" flag="0"/>
      <psa03 value="0.0105482801" flag="0"/>
      <psa10 value="0.0050839415" flag="0"/>
      <psa30 value="0.0007264697" flag="0"/>
    </comp>
    <comp name="--.HHN">
      <acc value="0.0034081948" flag="0"/>
      <vel value="0.0045373898" flag="0"/>
      <psa03 value="0.0095697509" flag="0"/>
      <psa10 value="0.0078418068" flag="0"/>
      <psa30 value="0.0009126030" flag="0"/>
    </comp>
  </station>
  <station code="FLACH" name="FLACH" netid="CH" insttype="Trillium Compact 120s" lat="47.5724" lon="8.5679">
    <comp name="01.HHE">
      <acc value="0.0209943535" flag="0"/>
      <vel value="0.0287274532" flag="0"/>
      <psa03 value="0.0391553692" flag="0"/>
      <psa10 value="0.0391734613" flag="0"/>
      <psa30 value="0.0100014536" flag="0"/>
    </comp>
    <comp name="01.HHN">
      <acc value="0.0177722183" flag="0"/>
      <vel value="0.0268128893" flag="0"/>
      <psa03 value="0.0337479762" flag="0"/>
      <psa10 value="0.0483854694" flag="0"/>
      <psa30 value="0.0072276512" flag="0"/>
    </comp>
    <comp name="01.HHZ">
      <acc value="0.0131455984" flag="0"/>
      <vel value="0.0209455350" flag="0"/>
      <psa03 value="0.0258367746" flag="0"/>
      <psa10 value="0.0356787239" flag="0"/>
      <psa30 value="0.0092835284" flag="0"/>
    </comp>
  </station>
  <station code="FUORN" name="FUORN" netid="CH" insttype="Trillium 240s_g2" lat="46.6203" lon="10.2635">
    <comp name="--.HHN">
      <acc value="0.0075330123" flag="0"/>
      <vel value="0.0072534676" flag="0"/>
      <psa03 value="0.0165343825" flag="0"/>
      <psa10 value="0.0090949913" flag="0"/>
      <psa30 value="0.0005882718" flag="0"/>
    </comp>
    <comp name="--.HHE">
      <acc value="0.0048970608" flag="0"/>
      <vel value="0.0041863695" flag="0"/>
      <psa03 value="0.0122186715" flag="0"/>
      <psa10 value="0.0077122839" flag="0"/>
      <psa30 value="0.0016580939" flag="0"/>
    </comp>
    <comp name="--.HHZ">
      <acc value="0.0056205861" flag="0"/>
      <vel value="0.0036298348" flag="0"/>
      <psa03 value="0.0152126408" flag="0"/>
      <psa10 value="0.0032551220" flag="0"/>
      <psa30 value="0.0017648883" flag="0"/>
    </comp>
  </station>
  <station code="HAMIK" name="HAMIK" netid="CH" insttype="EpiSensor ES-T" lat="47.2451" lon="8.27061">
    <comp name="SF.HGE">
      <acc value="0.0332679889" flag="0"/>
      <vel value="0.0394987144" flag="0"/>
      <psa03 value="0.0766746941" flag="0"/>
      <psa10 value="0.0307096457" flag="0"/>
      <psa30 value="0.0211528403" flag="0"/>
    </comp>
    <comp name="SF.HGZ">
      <acc value="0.0183619243" flag="0"/>
      <vel value="0.0357223520" flag="0"/>
      <psa03 value="0.0399274917" flag="0"/>
      <psa10 value="0.0311338542" flag="0"/>
      <psa30 value="0.0081045361" flag="0"/>
    </comp>
    <comp name="SF.HGN">
      <acc value="0.0416852688" flag="0"/>
      <vel value="0.0526566278" flag="0"/>
      <psa03 value="0.0922025710" flag="0"/>
      <psa10 value="0.0621760996" flag="0"/>
      <psa30 value="0.0123157682" flag="0"/>
    </comp>
  </station>
  <station code="HAUIG" name="HAUIG" netid="CH" insttype="Trillium Compact 120s" lat="47.6604" lon="7.70018">
    <comp name="--.HHE">
      <acc value="0.0350497560" flag="0"/>
      <vel value="0.0195345215" flag="0"/>
      <psa03 value="0.0971067796" flag="0"/>
      <psa10 value="0.0205188001" flag="0"/>
      <psa30 value="0.0023827597" flag="0"/>
    </comp>
    <comp name="--.HHN">
      <acc value="0.0380506089" flag="0"/>
      <vel value="0.0250636682" flag="0"/>
      <psa03 value="0.0732143290" flag="0"/>
      <psa10 value="0.0187703474" flag="0"/>
      <psa30 value="0.0031595916" flag="0"/>
    </comp>
    <comp name="--.HHZ">
      <acc value="0.0131185861" flag="0"/>
      <vel value="0.0070489576" flag="0"/>
      <psa03 value="0.0250075848" flag="0"/>
      <psa10 value="0.0061620962" flag="0"/>
      <psa30 value="0.0022269729" flag="0"/>
    </comp>
  </station>
  <station code="LAUCH" name="LAUCH" netid="CH" insttype="Trillium 40s" lat="46.4155" lon="7.77166">
    <comp name="--.HHE">
      <acc value="0.0150411577" flag="0"/>
      <vel value="0.0131167149" flag="0"/>
      <psa03 value="0.0286102778" flag="0"/>
      <psa10 value="0.0178936670" flag="0"/>
      <psa30 value="0.0009843418" flag="0"/>
    </comp>
    <comp name="--.HHZ">
      <acc value="0.0080999925" flag="0"/>
      <vel value="0.0056519790" flag="0"/>
      <psa03 value="0.0223195058" flag="0"/>
      <psa10 value="0.0109569000" flag="0"/>
      <psa30 value="0.0006197736" flag="0"/>
    </comp>
    <comp name="--.HHN">
      <acc value="0.0122295597" flag="0"/>
      <vel value="0.0100687360" flag="0"/>
      <psa03 value="0.0305096155" flag="0"/>
      <psa10 value="0.0120446297" flag="0"/>
      <psa30 value="0.0010759818" flag="0"/>
    </comp>
  </station>
  <station code="LIENZ" name="LIENZ" netid="CH" insttype="STS2.5" lat="47.2944" lon="9.49177">
    <comp name="--.HHN">
      <acc value="0.0184081010" flag="0"/>
      <vel value="0.0236564109" flag="0"/>
      <psa03 value="0.0401290514" flag="0"/>
      <psa10 value="0.0258031133" flag="0"/>
      <psa30 value="0.0057275722" flag="0"/>
    </comp>
    <comp name="--.HHE">
      <acc value="0.0211527725" flag="0"/>
      <vel value="0.0158623251" flag="0"/>
      <psa03 value="0.0338636254" flag="0"/>
      <psa10 value="0.0177841544" flag="0"/>
      <psa30 value="0.0040625833" flag="0"/>
    </comp>
    <comp name="--.HHZ">
      <acc value="0.0182583482" flag="0"/>
      <vel value="0.0185924632" flag="0"/>
      <psa03 value="0.0321072060" flag="0"/>
      <psa10 value="0.0209178312" flag="0"/>
      <psa30 value="0.0024597335" flag="0"/>
    </comp>
  </station>
  <station code="LLS" name="LLS" netid="CH" insttype="STS2_gen3" lat="46.8468" lon="9.00825">
    <comp name="--.HHZ">
      <acc value="0.0415696194" flag="0"/>
      <vel value="0.0181954002" flag="0"/>
      <psa03 value="0.0530307854" flag="0"/>
      <psa10 value="0.0221991841" flag="0"/>
      <psa30 value="0.0053096862" flag="0"/>
    </comp>
    <comp name="--.HHE">
      <acc value="0.0274914798" flag="0"/>
      <vel value="0.0138126552" flag="0"/>
      <psa03 value="0.0396898568" flag="0"/>
      <psa10 value="0.0230549673" flag="0"/>
      <psa30 value="0.0037834933" flag="0"/>
    </comp>
    <comp name="--.HHN">
      <acc value="0.0355106942" flag="0"/>
      <vel value="0.0161010919" flag="0"/>
      <psa03 value="0.0351669603" flag="0"/>
      <psa10 value="0.0156841291" flag="0"/>
      <psa30 value="0.0046759208" flag="0"/>
    </comp>
  </station>
  <station code="METMA" name="METMA" netid="CH" insttype="Trillium Compact 120s" lat="47.7122" lon="8.25262">
    <comp name="--.HHN">
      <acc value="0.0177032249" flag="0"/>
      <vel value="0.0102469771" flag="0"/>
      <psa03 value="0.0525945365" flag="0"/>
