<?xml version="1.0" encoding="UTF-8" standalone="yes"?>
<!DOCTYPE earthquake SYSTEM "stationlist.dtd">
<stationlist created="" xmlns="ch.ethz.sed.shakemap.usgs.xml">
  <station code="A060B" name="A060B" netid="8D" insttype="STS2.5" lat="46.993" lon="7.97764">
    <comp name="--.HHE">
      <acc value="0.0060556810" flag="0"/>
      <vel value="0.0088738428" flag="0"/>
      <psa03 value="0.0240409335" flag="0"/>
      <psa10 value="0.0089452646" flag="0"/>
      <psa30 value="0.0034571235" flag="0"/>
    </comp>
    <comp name="--.HHN">
      <acc value="0.0078135740" flag="0"/>
      <vel value="0.0097321810" flag="0"/>
      <psa03 value="0.0236331265" flag="0"/>
      <psa10 value="0.0129481995" flag="0"/>
      <psa30 value="0.0040079826" flag="0"/>
    </comp>
    <comp name="--.HHZ">
      <acc value="0.0063348655" flag="0"/>
      <vel value="0.0099962903" flag="0"/>
      <psa03 value="0.0109604249" flag="0"/>
      <psa10 value="0.0085100580" flag="0"/>
      <psa30 value="0.0032313823" flag="0"/>
    </comp>
  </station>
  <station code="OBER" name="OBER" netid="BW" insttype="Trillium Compact 120s" lat="47.407" lon="10.2934">
    <comp name="--.HHN">
      <acc value="0.0110634460" flag="0"/>
      <vel value="0.0070500532" flag="0"/>
      <psa03 value="0.0277825861" flag="0"/>
      <psa10 value="0.0101456342" flag="0"/>
      <psa30 value="0.0013160357" flag="0"/>
    </comp>
    <comp name="--.HHE">
      <acc value="0.0106944462" flag="0"/>
      <vel value="0.0050370837" flag="0"/>
      <psa03 value="0.0279896512" flag="0"/>
      <psa10 value="0.0114427341" flag="0"/>
      <psa30 value="0.0018174681" flag="0"/>
    </comp>
    <comp name="--.HHZ">
      <acc value="0.0101255805" flag="0"/>
      <vel value="0.0044675971" flag="0"/>
      <psa03 value="0.0171694961" flag="0"/>
      <psa10 value="0.0055098302" flag="0"/>
      <psa30 value="0.0018404492" flag="0"/>
    </comp>
  </station>
  <station code="ACB" name="ACB" netid="CH" insttype="Trillium 240s_g2" lat="47.5877" lon="8.25474">
    <comp name="--.HHE">
      <acc value="0.0187017144" flag="0"/>
      <vel value="0.0243000281" flag="0"/>
      <psa03 value="0.0508710110" flag="0"/>
      <psa10 value="0.0815462756" flag="0"/>
      <psa30 value="0.0073318940" flag="0"/>
    </comp>
    <comp name="--.HHN">
      <acc value="0.0208966273" flag="0"/>
      <vel value="0.0272233123" flag="0"/>
      <psa03 value="0.0623636313" flag="0"/>
      <psa10 value="0.0405514663" flag="0"/>
      <psa30 value="0.0077749155" flag="0"/>
    </comp>
    <comp name="--.HHZ">
      <acc value="0.0110184764" flag="0"/>
      <vel value="0.0115779374" flag="0"/>
      <psa03 value="0.0246004799" flag="0"/>
      <psa10 value="0.0145019767" flag="0"/>
      <psa30 value="0.0061957866" flag="0"/>
    </comp>
  </station>
  <station code="BALST" name="BALST" netid="CH" insttype="STS2_gen3" lat="47.336" lon="7.69485">
    <comp name="--.HHN">
      <acc value="0.0235731881" flag="0"/>
      <vel value="0.0203301711" flag="0"/>
      <psa03 value="0.0673537181" flag="0"/>
      <psa10 value="0.0198992068" flag="0"/>
      <psa30 value="0.0063512655" flag="0"/>
    </comp>
    <comp name="--.HHE">
      <acc value="0.0110132752" flag="0"/>
      <vel value="0.0108095980" flag="0"/>
      <psa03 value="0.0305341049" flag="0"/>
      <psa10 value="0.0107466997" flag="0"/>
      <psa30 value="0.0025961048" flag="0"/>
    </comp>
    <comp name="--.HHZ">
      <acc value="0.0136013184" flag="0"/>
      <vel value="0.0118282711" flag="0"/>
      <psa03 value="0.0270588510" flag="0"/>
      <psa10 value="0.0115278326" flag="0"/>
      <psa30 value="0.0029265129" flag="0"/>
    </comp>
  </station>
  <station code="BERGE" name="BERGE" netid="CH" insttype="Trillium Compact 120s" lat="47.8716" lon="8.17798">
    <comp name="--.HHN">
      <acc value="0.0071289774" flag="0"/>
      <vel value="0.0055336149" flag="0"/>
      <psa03 value="0.0162565175" flag="0"/>
      <psa10 value="0.0083004910" flag="0"/>
      <psa30 value="0.0022340407" flag="0"/>
    </comp>
    <comp name="--.HHE">
      <acc value="0.0168592614" flag="0"/>
      <vel value="0.0127741212" flag="0"/>
      <psa03 value="0.0242166066" flag="0"/>
      <psa10 value="0.0140796814" flag="0"/>
      <psa30 value="0.0026700291" flag="0"/>
    </comp>
    <comp name="--.HHZ">
      <acc value="0.0175014632" flag="0"/>
      <vel value="0.0152772422" flag="0"/>
      <psa03 value="0.0229027983" flag="0"/>
      <psa10 value="0.0118370440" flag="0"/>
      <psa30 value="0.0025827332" flag="0"/>
    </comp>
  </station>
  <station code="BLOTZ" name="BLOTZ" netid="CH" insttype="EpiSensor ES-T" lat="47.6207" lon="7.44006">
    <comp name="SF.HGE">
      <acc value="0.0063670377" flag="0"/>
      <vel value="0.0054439920" flag="0"/>
      <psa03 value="0.0129215035" flag="0"/>
      <psa10 value="0.0061375647" flag="0"/>
      <psa30 value="0.0007288720" flag="0"/>
    </comp>
    <comp name="SF.HGN">
      <acc value="0.0059411708" flag="0"/>
      <vel value="0.0042018974" flag="0"/>
      <psa03 value="0.0091453334" flag="0"/>
      <psa10 value="0.0037373605" flag="0"/>
      <psa30 value="0.0006630465" flag="0"/>
    </comp>
    <comp name="SF.HGZ">
      <acc value="0.0015497492" flag="0"/>
      <vel value="0.0013751329" flag="0"/>
      <psa03 value="0.0037646449" flag="0"/>
      <psa10 value="0.0015426900" flag="0"/>
      <psa30 value="0.0011060611" flag="0"/>
    </comp>
  </station>
  <station code="BNALP" name="BNALP" netid="CH" insttype="STS2_gen3" lat="46.8703" lon="8.4249">
    <comp name="--.HHE">
      <acc value="0.0128455438" flag="0"/>
      <vel value="0.0167059855" flag="0"/>
      <psa03 value="0.0287568101" flag="0"/>
      <psa10 value="0.0131223624" flag="0"/>
      <psa30 value="0.0041173945" flag="0"/>
    </comp>
    <comp name="--.HHN">
      <acc value="0.0100449274" flag="0"/>
      <vel value="0.0094209395" flag="0"/>
      <psa03 value="0.0211420532" flag="0"/>
      <psa10 value="0.0135892301" flag="0"/>
      <psa30 value="0.0033445832" flag="0"/>
    </comp>
    <comp name="--.HHZ">
      <acc value="0.0123124547" flag="0"/>
      <vel value="0.0145749819" flag="0"/>
      <psa03 value="0.0200021975" flag="0"/>
      <psa10 value="0.0209211124" flag="0"/>
      <psa30 value="0.0031681577" flag="0"/>
    </comp>
  </station>
  <station code="BOBI" name="BOBI" netid="CH" insttype="EpiSensor ES-T" lat="47.5463" lon="8.33992">
    <comp name="SF.HGE">
      <acc value="0.0218840816" flag="0"/>
      <vel value="0.0315233894" flag="0"/>
      <psa03 value="0.0368732493" flag="0"/>
      <psa10 value="0.0279213024" flag="0"/>
      <psa30 value="0.0113993806" flag="0"/>
    </comp>
    <comp name="SF.HGN">
      <acc value="0.0166627258" flag="0"/>
      <vel value="0.0356115236" flag="0"/>
      <psa03 value="0.0557267252" flag="0"/>
      <psa10 value="0.0480657302" flag="0"/>
      <psa30 value="0.0105412072" flag="0"/>
    </comp>
    <comp name="SF.HGZ">
      <acc value="0.0161477921" flag="0"/>
      <vel value="0.0367987303" flag="0"/>
      <psa03 value="0.0388876630" flag="0"/>
      <psa10 value="0.0404161396" flag="0"/>
      <psa30 value="0.0131732690" flag="0"/>
    </comp>
  </station>
  <station code="BULAC" name="BULAC" netid="CH" insttype="ABBT" lat="47.5424" lon="8.52044">
    <comp name="BT.HGZ">
      <acc value="0.0068018614" flag="0"/>
      <vel value="0.0179976410" flag="0"/>
      <psa03 value="0.0098020427" flag="0"/>
      <psa10 value="0.0116876084" flag="0"/>
      <psa30 value="0.0064109011" flag="0"/>
    </comp>
    <comp name="BT.HG2">
      <acc value="0.0059779768" flag="0"/>
      <vel value="0.0126222318" flag="0"/>
      <psa03 value="0.0123114208" flag="0"/>
      <psa10 value="0.0161491169" flag="0"/>
      <psa30 value="0.0055561109" flag="0"/>
    </comp>
    <comp name="BT.HG1">
      <acc value="0.0055616627" flag="0"/>
      <vel value="0.0072216384" flag="0"/>
      <psa03 value="0.0178970693" flag="0"/>
      <psa10 value="0.0092833472" flag="0"/>
      <psa30 value="0.0035239249" flag="0"/>
    </comp>
  </station>
  <station code="DAGMA" name="DAGMA" netid="CH" insttype="Trillium Compact 120s" lat="47.2309" lon="8.01248">
    <comp name="--.HHZ">
      <acc value="0.0102966668" flag="0"/>
      <vel value="0.0236075695" flag="0"/>
      <psa03 value="0.0188299507" flag="0"/>
      <psa10 value="0.0248532646" flag="0"/>
      <psa30 value="0.0077171945" flag="0"/>
    </comp>
    <comp name="--.HHN">
      <acc value="0.0132167461" flag="0"/>
      <vel value="0.0215884704" flag="0"/>
      <psa03 value="0.0296824604" flag="0"/>
      <psa10 value="0.0328396410" flag="0"/>
      <psa30 value="0.0109664370" flag="0"/>
    </comp>
    <comp name="--.HHE">
      <acc value="0.0137613086" flag="0"/>
      <vel value="0.0174266874" flag="0"/>
      <psa03 value="0.0342339964" flag="0"/>
      <psa10 value="0.0240880515" flag="0"/>
      <psa30 value="0.0060599990" flag="0"/>
    </comp>
  </station>
  <station code="DAVOX" name="DAVOX" netid="CH" insttype="STS2.5" lat="46.7805" lon="9.87952">
    <comp name="--.HHZ">
      <acc value="0.0027864436" flag="0"/>
      <vel value="0.0026191677" flag="0"/>
      <psa03 value="0.0074386210" flag="0"/>
      <psa10 value="0.0035163751" flag="0"/>
      <psa30 value="0.0011985476" flag="0"/>
    </comp>
    <comp name="--.HHE">
      <acc value="0.0041065581" flag="0"/>
      <vel value="0.0036100828" flag="0"/>
      <psa03 value="0.0135655034" flag="0"/>
      <psa10 value="0.0043567206" flag="0"/>
      <psa30 value="0.0009004536" flag="0"/>
    </comp>
    <comp name="--.HHN">
      <acc value="0.0034914470" flag="0"/>
      <vel value="0.0029066270" flag="0"/>
      <psa03 value="0.0095806699" flag="0"/>
      <psa10 value="0.0048280130" flag="0"/>
      <psa30 value="0.0007575757" flag="0"/>
    </comp>
  </station>
  <station code="EMING" name="EMING" netid="CH" insttype="Trillium Compact 120s" lat="47.8952" lon="8.84676">
    <comp name="--.HHE">
      <acc value="0.0247399658" flag="0"/>
      <vel value="0.0232125067" flag="0"/>
      <psa03 value="0.0474749719" flag="0"/>
      <psa10 value="0.0170362289" flag="0"/>
      <psa30 value="0.0072963769" flag="0"/>
    </comp>
    <comp name="--.HHN">
      <acc value="0.0252538060" flag="0"/>
      <vel value="0.0155152802" flag="0"/>
      <psa03 value="0.0356532401" flag="0"/>
      <psa10 value="0.0175615623" flag="0"/>
      <psa30 value="0.0034452879" flag="0"/>
    </comp>
    <comp name="--.HHZ">
      <acc value="0.0074837652" flag="0"/>
      <vel value="0.0110532249" flag="0"/>
      <psa03 value="0.0261473943" flag="0"/>
      <psa10 value="0.0119122370" flag="0"/>
      <psa30 value="0.0030219968" flag="0"/>
    </comp>
  </station>
  <station code="EMMET" name="EMMET" netid="CH" insttype="Trillium Compact 120s" lat="47.4376" lon="8.01358">
    <comp name="--.HHE">
      <acc value="0.0199735300" flag="0"/>
      <vel value="0.0183140840" flag="0"/>
      <psa03 value="0.0981285194" flag="0"/>
      <psa10 value="0.0147646147" flag="0"/>
      <psa30 value="0.0078745969" flag="0"/>
    </comp>
    <comp name="--.HHN">
      <acc value="0.0231802303" flag="0"/>
      <vel value="0.0132582256" flag="0"/>
      <psa03 value="0.0607896969" flag="0"/>
      <psa10 value="0.0257488913" flag="0"/>
      <psa30 value="0.0051841201" flag="0"/>
    </comp>
    <comp name="--.HHZ">
      <acc value="0.0167221635" flag="0"/>
      <vel value="0.0126748885" flag="0"/>
      <psa03 value="0.0788077288" flag="0"/>
      <psa10 value="0.0117306867" flag="0"/>
      <psa30 value="0.0041664908" flag="0"/>
    </comp>
  </station>
  <station code="EWZT0" name="EWZT0" netid="CH" insttype="EpiSensor ES-T" lat="47.3668" lon="8.49677">
    <comp name="--.HGN">
      <acc value="0.0733326859" flag="0"/>
      <vel value="0.0734478993" flag="0"/>
      <psa03 value="0.1201054793" flag="0"/>
      <psa10 value="0.1269639295" flag="0"/>
      <psa30 value="0.0122418497" flag="0"/>
    </comp>
    <comp name="--.HGE">
      <acc value="0.0526148552" flag="0"/>
      <vel value="0.0571343000" flag="0"/>
      <psa03 value="0.1260229313" flag="0"/>
      <psa10 value="0.0798942047" flag="0"/>
      <psa30 value="0.0139182060" flag="0"/>
    </comp>
    <comp name="--.HGZ">
      <acc value="0.0249567110" flag="0"/>
      <vel value="0.0310309885" flag="0"/>
      <psa03 value="0.0580963721" flag="0"/>
      <psa10 value="0.0387383676" flag="0"/>
      <psa30 value="0.0084246127" flag="0"/>
    </comp>
  </station>
  <station code="FIESA" name="FIESA" netid="CH" insttype="STS2_gen2" lat="46.4352" lon="8.11051">
    <comp name="--.HHN">
      <acc value="0.0034081952" flag="0"/>
      <vel value="0.0045373891" flag="0"/>
      <psa03 value="0.0095697509" flag="0"/>
      <psa10 value="0.0078418068" flag="0"/>
      <psa30 value="0.0009125899" flag="0"/>
    </comp>
    <comp name="--.HHZ">
      <acc value="0.0047071664" flag="0"/>
      <vel value="0.0029982715" flag="0"/>
      <psa03 value="0.0105482801" flag="0"/>
      <psa10 value="0.0050839415" flag="0"/>
      <psa30 value="0.0007264708" flag="0"/>
    </comp>
    <comp name="--.HHE">
      <acc value="0.0046131234" flag="0"/>
      <vel value="0.0042040183" flag="0"/>
      <psa03 value="0.0094742667" flag="0"/>
      <psa10 value="0.0054008705" flag="0"/>
      <psa30 value="0.0010960715" flag="0"/>
    </comp>
  </station>
  <station code="FLACH" name="FLACH" netid="CH" insttype="Trillium Compact 120s" lat="47.5724" lon="8.5679">
    <comp name="01.HHZ">
      <acc value="0.0131455987" flag="0"/>
      <vel value="0.0209455353" flag="0"/>
      <psa03 value="0.0258367746" flag="0"/>
      <psa10 value="0.0356787239" flag="0"/>
      <psa30 value="0.0092835262" flag="0"/>
    </comp>
    <comp name="01.HHE">
      <acc value="0.0209943537" flag="0"/>
      <vel value="0.0287274531" flag="0"/>
      <psa03 value="0.0391553692" flag="0"/>
      <psa10 value="0.0391734613" flag="0"/>
      <psa30 value="0.0100014327" flag="0"/>
    </comp>
    <comp name="01.HHN">
      <acc value="0.0177722184" flag="0"/>
      <vel value="0.0268128884" flag="0"/>
      <psa03 value="0.0337479762" flag="0"/>
      <psa10 value="0.0483854695" flag="0"/>
      <psa30 value="0.0072276515" flag="0"/>
    </comp>
  </station>
  <station code="FUORN" name="FUORN" netid="CH" insttype="Trillium 240s_g2" lat="46.6203" lon="10.2635">
    <comp name="--.HHN">
      <acc value="0.0075330121" flag="0"/>
      <vel value="0.0072534674" flag="0"/>
      <psa03 value="0.0165343825" flag="0"/>
      <psa10 value="0.0090949913" flag="0"/>
      <psa30 value="0.0005882711" flag="0"/>
    </comp>
    <comp name="--.HHE">
      <acc value="0.0048970609" flag="0"/>
      <vel value="0.0041863694" flag="0"/>
      <psa03 value="0.0122186715" flag="0"/>
      <psa10 value="0.0077122839" flag="0"/>
      <psa30 value="0.0016580879" flag="0"/>
    </comp>
    <comp name="--.HHZ">
      <acc value="0.0056205863" flag="0"/>
      <vel value="0.0036298345" flag="0"/>
      <psa03 value="0.0152126408" flag="0"/>
      <psa10 value="0.0032551220" flag="0"/>
      <psa30 value="0.0017648876" flag="0"/>
    </comp>
  </station>
  <station code="FUSIO" name="FUSIO" netid="CH" insttype="STS2.5" lat="46.4548" lon="8.6629">
    <comp name="--.HHE">
      <acc value="0.0047888322" flag="0"/>
      <vel value="0.0034437348" flag="0"/>
      <psa03 value="0.0107798182" flag="0"/>
      <psa10 value="0.0042084605" flag="0"/>
      <psa30 value="0.0013613983" flag="0"/>
    </comp>
    <comp name="--.HHZ">
      <acc value="0.0046685384" flag="0"/>
      <vel value="0.0031343308" flag="0"/>
      <psa03 value="0.0128839135" flag="0"/>
      <psa10 value="0.0043331766" flag="0"/>
      <psa30 value="0.0007822232" flag="0"/>
    </comp>
    <comp name="--.HHN">
      <acc value="0.0050207407" flag="0"/>
      <vel value="0.0026554413" flag="0"/>
      <psa03 value="0.0099857210" flag="0"/>
      <psa10 value="0.0047347594" flag="0"/>
      <psa30 value="0.0008639581" flag="0"/>
    </comp>
  </station>
  <station code="HAMIK" name="HAMIK" netid="CH" insttype="EpiSensor ES-T" lat="47.2451" lon="8.27061">
    <comp name="SF.HGZ">
      <acc value="0.0183619234" flag="0"/>
      <vel value="0.0357223527" flag="0"/>
      <psa03 value="0.0399274917" flag="0"/>
      <psa10 value="0.0311338542" flag="0"/>
      <psa30 value="0.0081044488" flag="0"/>
    </comp>
    <comp name="SF.HGE">
      <acc value="0.0332679882" flag="0"/>
      <vel value="0.0394987134" flag="0"/>
      <psa03 value="0.0766746941" flag="0"/>
      <psa10 value="0.0307096448" flag="0"/>
      <psa30 value="0.0211528278" flag="0"/>
    </comp>
    <comp name="SF.HGN">
      <acc value="0.0416852690" flag="0"/>
      <vel value="0.0526566274" flag="0"/>
      <psa03 value="0.0922025710" flag="0"/>
      <psa10 value="0.0621761009" flag="0"/>
      <psa30 value="0.0123157296" flag="0"/>
    </comp>
  </station>
  <station code="HAUIG" name="HAUIG" netid="CH" insttype="Trillium Compact 120s" lat="47.6604" lon="7.70018">
    <comp name="--.HHZ">
      <acc value="0.0131185856" flag="0"/>
      <vel value="0.0070489578" flag="0"/>
      <psa03 value="0.0250075848" flag="0"/>
      <psa10 value="0.0061620962" flag="0"/>
      <psa30 value="0.0022269774" flag="0"/>
    </comp>
    <comp name="--.HHE">
      <acc value="0.0350497557" flag="0"/>
      <vel value="0.0195345221" flag="0"/>
      <psa03 value="0.0971067796" flag="0"/>
      <psa10 value="0.0205188001" flag="0"/>
      <psa30 value="0.0023827647" flag="0"/>
    </comp>
    <comp name="--.HHN">
      <acc value="0.0380506094" flag="0"/>
      <vel value="0.0250636682" flag="0"/>
      <psa03 value="0.0732143290" flag="0"/>
      <psa10 value="0.0187703474" flag="0"/>
      <psa30 value="0.0031595900" flag="0"/>
    </comp>
  </station>
  <station code="LAUCH" name="LAUCH" netid="CH" insttype="Trillium 40s" lat="46.4155" lon="7.77166">
    <comp name="--.HHZ">
      <acc value="0.0080999921" flag="0"/>
      <vel value="0.0056519781" flag="0"/>
      <psa03 value="0.0223195058" flag="0"/>
      <psa10 value="0.0109569000" flag="0"/>
      <psa30 value="0.0006198026" flag="0"/>
    </comp>
    <comp name="--.HHE">
      <acc value="0.0150411578" flag="0"/>
      <vel value="0.0131167144" flag="0"/>
      <psa03 value="0.0286102778" flag="0"/>
      <psa10 value="0.0178936669" flag="0"/>
      <psa30 value="0.0009843532" flag="0"/>
    </comp>
    <comp name="--.HHN">
      <acc value="0.0122295595" flag="0"/>
      <vel value="0.0100687163" flag="0"/>
      <psa03 value="0.0305096154" flag="0"/>
      <psa10 value="0.0120446297" flag="0"/>
      <psa30 value="0.0010759207" flag="0"/>
    </comp>
  </station>
  <station code="LIENZ" name="LIENZ" netid="CH" insttype="STS2.5" lat="47.2944" lon="9.49177">
    <comp name="--.HHN">
      <acc value="0.0184081009" flag="0"/>
      <vel value="0.0236564109" flag="0"/>
      <psa03 value="0.0401290514" flag="0"/>
      <psa10 value="0.0258031133" flag="0"/>
      <psa30 value="0.0057275543" flag="0"/>
    </comp>
    <comp name="--.HHZ">
      <acc value="0.0182583482" flag="0"/>
      <vel value="0.0185924633" flag="0"/>
      <psa03 value="0.0321072060" flag="0"/>
      <psa10 value="0.0209178313" flag="0"/>
      <psa30 value="0.0024597172" flag="0"/>
    </comp>
    <comp name="--.HHE">
      <acc value="0.0211527723" flag="0"/>
      <vel value="0.0158623250" flag="0"/>
      <psa03 value="0.0338636254" flag="0"/>
      <psa10 value="0.0177841544" flag="0"/>
      <psa30 value="0.0040625882" flag="0"/>
    </comp>
  </station>
  <station code="LLS" name="LLS" netid="CH" insttype="STS2_gen3" lat="46.8468" lon="9.00825">
    <comp name="--.HHN">
      <acc value="0.0355106951" flag="0"/>
      <vel value="0.0161010921" flag="0"/>
      <psa03 value="0.0351669603" flag="0"/>
