<?xml version="1.0" encoding="UTF-8" standalone="yes"?>
<!DOCTYPE earthquake SYSTEM "stationlist.dtd">
<stationlist created="" xmlns="ch.ethz.sed.shakemap.usgs.xml">
  <station code="A060B" name="A060B" netid="8D" insttype="STS2.5" lat="46.993" lon="7.97764">
    <comp name="--.HHE">
      <acc value="0.0060556816" flag="0"/>
      <vel value="0.0088738428" flag="0"/>
      <psa03 value="0.0240409335" flag="0"/>
      <psa10 value="0.0089452646" flag="0"/>
      <psa30 value="0.0034571223" flag="0"/>
    </comp>
    <comp name="--.HHN">
      <acc value="0.0078135741" flag="0"/>
      <vel value="0.0097321813" flag="0"/>
      <psa03 value="0.0236331265" flag="0"/>
      <psa10 value="0.0129481995" flag="0"/>
      <psa30 value="0.0040079812" flag="0"/>
    </comp>
    <comp name="--.HHZ">
      <acc value="0.0063348656" flag="0"/>
      <vel value="0.0099962901" flag="0"/>
      <psa03 value="0.0109604249" flag="0"/>
      <psa10 value="0.0085100580" flag="0"/>
      <psa30 value="0.0032313846" flag="0"/>
    </comp>
  </station>
  <station code="ACB" name="ACB" netid="CH" insttype="Trillium 240s_g2" lat="47.5877" lon="8.25474">
    <comp name="--.HHZ">
      <acc value="0.0110184767" flag="0"/>
      <vel value="0.0115779374" flag="0"/>
      <psa03 value="0.0246004799" flag="0"/>
      <psa10 value="0.0145019767" flag="0"/>
      <psa30 value="0.0061957865" flag="0"/>
    </comp>
    <comp name="--.HHN">
      <acc value="0.0208966272" flag="0"/>
      <vel value="0.0272233123" flag="0"/>
      <psa03 value="0.0623636313" flag="0"/>
      <psa10 value="0.0405514663" flag="0"/>
      <psa30 value="0.0077749156" flag="0"/>
    </comp>
    <comp name="--.HHE">
      <acc value="0.0187017136" flag="0"/>
      <vel value="0.0243000281" flag="0"/>
      <psa03 value="0.0508710110" flag="0"/>
      <psa10 value="0.0815462756" flag="0"/>
      <psa30 value="0.0073318940" flag="0"/>
    </comp>
  </station>
  <station code="BALST" name="BALST" netid="CH" insttype="STS2_gen3" lat="47.336" lon="7.69485">
    <comp name="--.HHN">
      <acc value="0.0235731881" flag="0"/>
      <vel value="0.0203301714" flag="0"/>
      <psa03 value="0.0673537181" flag="0"/>
      <psa10 value="0.0198992068" flag="0"/>
      <psa30 value="0.0063512637" flag="0"/>
    </comp>
    <comp name="--.HHZ">
      <acc value="0.0136013192" flag="0"/>
      <vel value="0.0118282710" flag="0"/>
      <psa03 value="0.0270588510" flag="0"/>
      <psa10 value="0.0115278326" flag="0"/>
      <psa30 value="0.0029265127" flag="0"/>
    </comp>
    <comp name="--.HHE">
      <acc value="0.0110132728" flag="0"/>
      <vel value="0.0108095978" flag="0"/>
      <psa03 value="0.0305341049" flag="0"/>
      <psa10 value="0.0107466997" flag="0"/>
      <psa30 value="0.0025961054" flag="0"/>
    </comp>
  </station>
  <station code="BERGE" name="BERGE" netid="CH" insttype="Trillium Compact 120s" lat="47.8716" lon="8.17798">
    <comp name="--.HHN">
      <acc value="0.0071289773" flag="0"/>
      <vel value="0.0055336149" flag="0"/>
      <psa03 value="0.0162565175" flag="0"/>
      <psa10 value="0.0083004910" flag="0"/>
      <psa30 value="0.0022340407" flag="0"/>
    </comp>
    <comp name="--.HHZ">
      <acc value="0.0175014637" flag="0"/>
      <vel value="0.0152772422" flag="0"/>
      <psa03 value="0.0229027983" flag="0"/>
      <psa10 value="0.0118370440" flag="0"/>
      <psa30 value="0.0025827332" flag="0"/>
    </comp>
    <comp name="--.HHE">
      <acc value="0.0168592608" flag="0"/>
      <vel value="0.0127741212" flag="0"/>
      <psa03 value="0.0242166066" flag="0"/>
      <psa10 value="0.0140796814" flag="0"/>
      <psa30 value="0.0026700291" flag="0"/>
    </comp>
  </station>
  <station code="BLOTZ" name="BLOTZ" netid="CH" insttype="EpiSensor ES-T" lat="47.6207" lon="7.44006">
    <comp name="SF.HGZ">
      <acc value="0.0015497502" flag="0"/>
      <vel value="0.0013751327" flag="0"/>
      <psa03 value="0.0037646449" flag="0"/>
      <psa10 value="0.0015426900" flag="0"/>
      <psa30 value="0.0011060612" flag="0"/>
    </comp>
    <comp name="SF.HGE">
      <acc value="0.0063670372" flag="0"/>
      <vel value="0.0054439921" flag="0"/>
      <psa03 value="0.0129215035" flag="0"/>
      <psa10 value="0.0061375647" flag="0"/>
      <psa30 value="0.0007288720" flag="0"/>
    </comp>
    <comp name="SF.HGN">
      <acc value="0.0059411706" flag="0"/>
      <vel value="0.0042018974" flag="0"/>
      <psa03 value="0.0091453334" flag="0"/>
      <psa10 value="0.0037373605" flag="0"/>
      <psa30 value="0.0006630466" flag="0"/>
    </comp>
  </station>
  <station code="BNALP" name="BNALP" netid="CH" insttype="STS2_gen3" lat="46.8703" lon="8.4249">
    <comp name="--.HHE">
      <acc value="0.0128455445" flag="0"/>
      <vel value="0.0167059853" flag="0"/>
      <psa03 value="0.0287568101" flag="0"/>
      <psa10 value="0.0131223625" flag="0"/>
      <psa30 value="0.0041174207" flag="0"/>
    </comp>
    <comp name="--.HHZ">
      <acc value="0.0123124542" flag="0"/>
      <vel value="0.0145749822" flag="0"/>
      <psa03 value="0.0200021975" flag="0"/>
      <psa10 value="0.0209211122" flag="0"/>
      <psa30 value="0.0031681966" flag="0"/>
    </comp>
    <comp name="--.HHN">
      <acc value="0.0100449287" flag="0"/>
      <vel value="0.0094209396" flag="0"/>
      <psa03 value="0.0211420532" flag="0"/>
      <psa10 value="0.0135892301" flag="0"/>
      <psa30 value="0.0033445908" flag="0"/>
    </comp>
  </station>
  <station code="BOBI" name="BOBI" netid="CH" insttype="EpiSensor ES-T" lat="47.5463" lon="8.33992">
    <comp name="SF.HGZ">
      <acc value="0.0161477969" flag="0"/>
      <vel value="0.0367987303" flag="0"/>
      <psa03 value="0.0388876630" flag="0"/>
      <psa10 value="0.0404161396" flag="0"/>
      <psa30 value="0.0131732690" flag="0"/>
    </comp>
    <comp name="SF.HGN">
      <acc value="0.0166627238" flag="0"/>
      <vel value="0.0356115236" flag="0"/>
      <psa03 value="0.0557267252" flag="0"/>
      <psa10 value="0.0480657302" flag="0"/>
      <psa30 value="0.0105412072" flag="0"/>
    </comp>
    <comp name="SF.HGE">
      <acc value="0.0218840756" flag="0"/>
      <vel value="0.0315233894" flag="0"/>
      <psa03 value="0.0368732493" flag="0"/>
      <psa10 value="0.0279213024" flag="0"/>
      <psa30 value="0.0113993806" flag="0"/>
    </comp>
  </station>
  <station code="BOURR" name="BOURR" netid="CH" insttype="STS2.5" lat="47.3936" lon="7.2301">
    <comp name="--.HHZ">
      <acc value="0.0090760617" flag="0"/>
      <vel value="0.0065897860" flag="0"/>
      <psa03 value="0.0211514472" flag="0"/>
      <psa10 value="0.0124137106" flag="0"/>
      <psa30 value="0.0014486551" flag="0"/>
    </comp>
    <comp name="--.HHE">
      <acc value="0.0087332024" flag="0"/>
      <vel value="0.0138466789" flag="0"/>
      <psa03 value="0.0200992936" flag="0"/>
      <psa10 value="0.0118569533" flag="0"/>
      <psa30 value="0.0018459913" flag="0"/>
    </comp>
    <comp name="--.HHN">
      <acc value="0.0096255592" flag="0"/>
      <vel value="0.0111829304" flag="0"/>
      <psa03 value="0.0142160105" flag="0"/>
      <psa10 value="0.0216449705" flag="0"/>
      <psa30 value="0.0038060453" flag="0"/>
    </comp>
  </station>
  <station code="BULAC" name="BULAC" netid="CH" insttype="ABBT" lat="47.5424" lon="8.52044">
    <comp name="BT.HGZ">
      <acc value="0.0068018622" flag="0"/>
      <vel value="0.0179976410" flag="0"/>
      <psa03 value="0.0098020427" flag="0"/>
      <psa10 value="0.0116876084" flag="0"/>
      <psa30 value="0.0064109010" flag="0"/>
    </comp>
    <comp name="BT.HG2">
      <acc value="0.0059779775" flag="0"/>
      <vel value="0.0126222316" flag="0"/>
      <psa03 value="0.0123114207" flag="0"/>
      <psa10 value="0.0161491169" flag="0"/>
      <psa30 value="0.0055561107" flag="0"/>
    </comp>
    <comp name="BT.HG1">
      <acc value="0.0055616631" flag="0"/>
      <vel value="0.0072216384" flag="0"/>
      <psa03 value="0.0178970693" flag="0"/>
      <psa10 value="0.0092833472" flag="0"/>
      <psa30 value="0.0035239250" flag="0"/>
    </comp>
  </station>
  <station code="CHASS" name="CHASS" netid="CH" insttype="Trillium 240s_g2" lat="47.1609" lon="7.12129">
    <comp name="--.HHE">
      <acc value="0.0055839062" flag="0"/>
      <vel value="0.0080198059" flag="0"/>
      <psa03 value="0.0136997409" flag="0"/>
      <psa10 value="0.0113347052" flag="0"/>
      <psa30 value="0.0019157370" flag="0"/>
    </comp>
    <comp name="--.HHZ">
      <acc value="0.0047556055" flag="0"/>
      <vel value="0.0062278454" flag="0"/>
      <psa03 value="0.0113812674" flag="0"/>
      <psa10 value="0.0110800918" flag="0"/>
      <psa30 value="0.0021622800" flag="0"/>
    </comp>
    <comp name="--.HHN">
      <acc value="0.0083042278" flag="0"/>
      <vel value="0.0098876157" flag="0"/>
      <psa03 value="0.0174843882" flag="0"/>
      <psa10 value="0.0137351160" flag="0"/>
      <psa30 value="0.0034573708" flag="0"/>
    </comp>
  </station>
  <station code="DAGMA" name="DAGMA" netid="CH" insttype="Trillium Compact 120s" lat="47.2309" lon="8.01248">
    <comp name="--.HHE">
      <acc value="0.0137613081" flag="0"/>
      <vel value="0.0174266876" flag="0"/>
      <psa03 value="0.0342339964" flag="0"/>
      <psa10 value="0.0240880515" flag="0"/>
      <psa30 value="0.0060600005" flag="0"/>
    </comp>
    <comp name="--.HHN">
      <acc value="0.0132167462" flag="0"/>
      <vel value="0.0215884703" flag="0"/>
      <psa03 value="0.0296824604" flag="0"/>
      <psa10 value="0.0328396410" flag="0"/>
      <psa30 value="0.0109664392" flag="0"/>
    </comp>
    <comp name="--.HHZ">
      <acc value="0.0102966664" flag="0"/>
      <vel value="0.0236075695" flag="0"/>
      <psa03 value="0.0188299507" flag="0"/>
      <psa10 value="0.0248532646" flag="0"/>
      <psa30 value="0.0077171942" flag="0"/>
    </comp>
  </station>
  <station code="DAVOX" name="DAVOX" netid="CH" insttype="STS2.5" lat="46.7805" lon="9.87952">
    <comp name="--.HHE">
      <acc value="0.0041065575" flag="0"/>
      <vel value="0.0036100830" flag="0"/>
      <psa03 value="0.0135655034" flag="0"/>
      <psa10 value="0.0043567206" flag="0"/>
      <psa30 value="0.0009004600" flag="0"/>
    </comp>
    <comp name="--.HHZ">
      <acc value="0.0027864448" flag="0"/>
      <vel value="0.0026191678" flag="0"/>
      <psa03 value="0.0074386210" flag="0"/>
      <psa10 value="0.0035163751" flag="0"/>
      <psa30 value="0.0011985553" flag="0"/>
    </comp>
    <comp name="--.HHN">
      <acc value="0.0034914470" flag="0"/>
      <vel value="0.0029066269" flag="0"/>
      <psa03 value="0.0095806699" flag="0"/>
      <psa10 value="0.0048280130" flag="0"/>
      <psa30 value="0.0007575833" flag="0"/>
    </comp>
  </station>
  <station code="EMBD" name="EMBD" netid="CH" insttype="Trillium 40s" lat="46.2165" lon="7.83223">
    <comp name="--.HHE">
      <acc value="0.0049383673" flag="0"/>
      <vel value="0.0044273154" flag="0"/>
      <psa03 value="0.0092199997" flag="0"/>
      <psa10 value="0.0063510509" flag="0"/>
      <psa30 value="0.0003529375" flag="0"/>
    </comp>
    <comp name="--.HHZ">
      <acc value="0.0039379782" flag="0"/>
      <vel value="0.0032531468" flag="0"/>
      <psa03 value="0.0094349625" flag="0"/>
      <psa10 value="0.0043781960" flag="0"/>
      <psa30 value="0.0003789514" flag="0"/>
    </comp>
    <comp name="--.HHN">
      <acc value="0.0051648565" flag="0"/>
      <vel value="0.0046140009" flag="0"/>
      <psa03 value="0.0135322395" flag="0"/>
      <psa10 value="0.0055423958" flag="0"/>
      <psa30 value="0.0003894731" flag="0"/>
    </comp>
  </station>
  <station code="EMING" name="EMING" netid="CH" insttype="Trillium Compact 120s" lat="47.8952" lon="8.84676">
    <comp name="--.HHE">
      <acc value="0.0247399655" flag="0"/>
      <vel value="0.0232125069" flag="0"/>
      <psa03 value="0.0474749719" flag="0"/>
      <psa10 value="0.0170362289" flag="0"/>
      <psa30 value="0.0072963767" flag="0"/>
    </comp>
    <comp name="--.HHZ">
      <acc value="0.0074837649" flag="0"/>
      <vel value="0.0110532248" flag="0"/>
      <psa03 value="0.0261473943" flag="0"/>
      <psa10 value="0.0119122370" flag="0"/>
      <psa30 value="0.0030219968" flag="0"/>
    </comp>
    <comp name="--.HHN">
      <acc value="0.0252538061" flag="0"/>
      <vel value="0.0155152802" flag="0"/>
      <psa03 value="0.0356532401" flag="0"/>
      <psa10 value="0.0175615623" flag="0"/>
      <psa30 value="0.0034452877" flag="0"/>
    </comp>
  </station>
  <station code="EMMET" name="EMMET" netid="CH" insttype="Trillium Compact 120s" lat="47.4376" lon="8.01358">
    <comp name="--.HHN">
      <acc value="0.0231802303" flag="0"/>
      <vel value="0.0132582255" flag="0"/>
      <psa03 value="0.0607896969" flag="0"/>
      <psa10 value="0.0257488913" flag="0"/>
      <psa30 value="0.0051841199" flag="0"/>
    </comp>
    <comp name="--.HHZ">
      <acc value="0.0167221627" flag="0"/>
      <vel value="0.0126748885" flag="0"/>
      <psa03 value="0.0788077288" flag="0"/>
      <psa10 value="0.0117306867" flag="0"/>
      <psa30 value="0.0041664907" flag="0"/>
    </comp>
    <comp name="--.HHE">
      <acc value="0.0199735300" flag="0"/>
      <vel value="0.0183140840" flag="0"/>
      <psa03 value="0.0981285194" flag="0"/>
      <psa10 value="0.0147646147" flag="0"/>
      <psa30 value="0.0078745968" flag="0"/>
    </comp>
  </station>
  <station code="EWZT0" name="EWZT0" netid="CH" insttype="EpiSensor ES-T" lat="47.3668" lon="8.49677">
    <comp name="--.HGE">
      <acc value="0.0526148585" flag="0"/>
      <vel value="0.0571343000" flag="0"/>
      <psa03 value="0.1260229313" flag="0"/>
      <psa10 value="0.0798942047" flag="0"/>
      <psa30 value="0.0139182079" flag="0"/>
    </comp>
    <comp name="--.HGZ">
      <acc value="0.0249567109" flag="0"/>
      <vel value="0.0310309888" flag="0"/>
      <psa03 value="0.0580963721" flag="0"/>
      <psa10 value="0.0387383676" flag="0"/>
      <psa30 value="0.0084246076" flag="0"/>
    </comp>
    <comp name="--.HGN">
      <acc value="0.0733326821" flag="0"/>
      <vel value="0.0734478994" flag="0"/>
      <psa03 value="0.1201054793" flag="0"/>
      <psa10 value="0.1269639295" flag="0"/>
      <psa30 value="0.0122418513" flag="0"/>
    </comp>
  </station>
  <station code="FIESA" name="FIESA" netid="CH" insttype="STS2_gen2" lat="46.4352" lon="8.11051">
    <comp name="--.HHE">
      <acc value="0.0046131237" flag="0"/>
      <vel value="0.0042040183" flag="0"/>
      <psa03 value="0.0094742667" flag="0"/>
      <psa10 value="0.0054008705" flag="0"/>
      <psa30 value="0.0010960750" flag="0"/>
    </comp>
    <comp name="--.HHZ">
      <acc value="0.0047071669" flag="0"/>
      <vel value="0.0029982712" flag="0"/>
      <psa03 value="0.0105482801" flag="0"/>
      <psa10 value="0.0050839415" flag="0"/>
      <psa30 value="0.0007264709" flag="0"/>
    </comp>
    <comp name="--.HHN">
      <acc value="0.0034081952" flag="0"/>
      <vel value="0.0045373896" flag="0"/>
      <psa03 value="0.0095697509" flag="0"/>
      <psa10 value="0.0078418068" flag="0"/>
      <psa30 value="0.0009125991" flag="0"/>
    </comp>
  </station>
  <station code="FLACH" name="FLACH" netid="CH" insttype="Trillium Compact 120s" lat="47.5724" lon="8.5679">
    <comp name="01.HHE">
      <acc value="0.0209943503" flag="0"/>
      <vel value="0.0287274533" flag="0"/>
      <psa03 value="0.0391553692" flag="0"/>
      <psa10 value="0.0391734613" flag="0"/>
      <psa30 value="0.0100014311" flag="0"/>
    </comp>
    <comp name="01.HHN">
      <acc value="0.0177722169" flag="0"/>
      <vel value="0.0268128884" flag="0"/>
      <psa03 value="0.0337479762" flag="0"/>
      <psa10 value="0.0483854695" flag="0"/>
      <psa30 value="0.0072276512" flag="0"/>
    </comp>
    <comp name="01.HHZ">
      <acc value="0.0131456012" flag="0"/>
      <vel value="0.0209455353" flag="0"/>
      <psa03 value="0.0258367746" flag="0"/>
      <psa10 value="0.0356787239" flag="0"/>
      <psa30 value="0.0092835269" flag="0"/>
    </comp>
  </station>
  <station code="FUORN" name="FUORN" netid="CH" insttype="Trillium 240s_g2" lat="46.6203" lon="10.2635">
    <comp name="--.HHZ">
      <acc value="0.0056205862" flag="0"/>
      <vel value="0.0036298347" flag="0"/>
      <psa03 value="0.0152126408" flag="0"/>
      <psa10 value="0.0032551220" flag="0"/>
      <psa30 value="0.0017648880" flag="0"/>
    </comp>
    <comp name="--.HHE">
      <acc value="0.0048970619" flag="0"/>
      <vel value="0.0041863695" flag="0"/>
      <psa03 value="0.0122186715" flag="0"/>
      <psa10 value="0.0077122839" flag="0"/>
      <psa30 value="0.0016580941" flag="0"/>
    </comp>
    <comp name="--.HHN">
      <acc value="0.0075330136" flag="0"/>
      <vel value="0.0072534676" flag="0"/>
      <psa03 value="0.0165343825" flag="0"/>
      <psa10 value="0.0090949913" flag="0"/>
      <psa30 value="0.0005882718" flag="0"/>
    </comp>
  </station>
  <station code="HAMIK" name="HAMIK" netid="CH" insttype="EpiSensor ES-T" lat="47.2451" lon="8.27061">
    <comp name="SF.HGZ">
      <acc value="0.0183619285" flag="0"/>
      <vel value="0.0357223528" flag="0"/>
      <psa03 value="0.0399274917" flag="0"/>
      <psa10 value="0.0311338542" flag="0"/>
      <psa30 value="0.0081044465" flag="0"/>
    </comp>
    <comp name="SF.HGN">
      <acc value="0.0416852746" flag="0"/>
      <vel value="0.0526566273" flag="0"/>
      <psa03 value="0.0922025710" flag="0"/>
      <psa10 value="0.0621761008" flag="0"/>
      <psa30 value="0.0123157263" flag="0"/>
    </comp>
    <comp name="SF.HGE">
      <acc value="0.0332679933" flag="0"/>
      <vel value="0.0394987135" flag="0"/>
      <psa03 value="0.0766746941" flag="0"/>
      <psa10 value="0.0307096449" flag="0"/>
      <psa30 value="0.0211528289" flag="0"/>
    </comp>
  </station>
  <station code="HAUIG" name="HAUIG" netid="CH" insttype="Trillium Compact 120s" lat="47.6604" lon="7.70018">
    <comp name="--.HHZ">
      <acc value="0.0131185844" flag="0"/>
      <vel value="0.0070489577" flag="0"/>
      <psa03 value="0.0250075848" flag="0"/>
      <psa10 value="0.0061620962" flag="0"/>
      <psa30 value="0.0022269772" flag="0"/>
    </comp>
    <comp name="--.HHN">
      <acc value="0.0380506106" flag="0"/>
      <vel value="0.0250636682" flag="0"/>
      <psa03 value="0.0732143290" flag="0"/>
      <psa10 value="0.0187703474" flag="0"/>
      <psa30 value="0.0031595901" flag="0"/>
    </comp>
    <comp name="--.HHE">
      <acc value="0.0350497558" flag="0"/>
      <vel value="0.0195345221" flag="0"/>
      <psa03 value="0.0971067796" flag="0"/>
      <psa10 value="0.0205188001" flag="0"/>
      <psa30 value="0.0023827646" flag="0"/>
    </comp>
  </station>
  <station code="JAUN" name="JAUN" netid="CH" insttype="Trillium 240s_g2" lat="46.6339" lon="7.29096">
    <comp name="--.HHE">
      <acc value="0.0079424073" flag="0"/>
      <vel value="0.0065532774" flag="0"/>
      <psa03 value="0.0235846350" flag="0"/>
      <psa10 value="0.0098250792" flag="0"/>
      <psa30 value="0.0008223777" flag="0"/>
    </comp>
    <comp name="--.HHN">
      <acc value="0.0085817510" flag="0"/>
      <vel value="0.0099810078" flag="0"/>
      <psa03 value="0.0257858677" flag="0"/>
      <psa10 value="0.0111318508" flag="0"/>
      <psa30 value="0.0010784026" flag="0"/>
    </comp>
    <comp name="--.HHZ">
      <acc value="0.0045302029" flag="0"/>
      <vel value="0.0042848172" flag="0"/>
      <psa03 value="0.0166578281" flag="0"/>
      <psa10 value="0.0086807182" flag="0"/>
      <psa30 value="0.0006986162" flag="0"/>
    </comp>
  </station>
  <station code="LAUCH" name="LAUCH" netid="CH" insttype="Trillium 40s" lat="46.4155" lon="7.77166">
    <comp name="--.HHN">
      <acc value="0.0122295591" flag="0"/>
      <vel value="0.0100687361" flag="0"/>
      <psa03 value="0.0305096155" flag="0"/>
