<stationlist created="1778032509">
	<station code="ACB" name="ACB" netid="CH" source="Switzerland Seismological Network" insttype="" lat="47.58772" lon="8.25474">
		<comp name="--.HGE" depth="0.0">
			<acc value="0.0189170872939949" flag="0"/>
			<vel value="0.0256962333485678" flag="0"/>
			<psa03 value="0.0552959651694682" flag="0"/>
			<psa10 value="0.0808293745493224" flag="0"/>
			<psa30 value="0.00836717345084145" flag="0"/>
		</comp>
		<comp name="--.HGN" depth="0.0">
			<acc value="0.0206135392261898" flag="0"/>
			<vel value="0.0273587511681572" flag="0"/>
			<psa03 value="0.0584262298260897" flag="0"/>
			<psa10 value="0.0426149580318935" flag="0"/>
			<psa30 value="0.00761425524037696" flag="0"/>
		</comp>
		<comp name="--.HGZ" depth="0.0">
			<acc value="0.0112244595801384" flag="0"/>
			<vel value="0.0121779547891936" flag="0"/>
			<psa03 value="0.0251922001096042" flag="0"/>
			<psa10 value="0.0148027424840466" flag="0"/>
			<psa30 value="0.00703471934898616" flag="0"/>
		</comp>
	</station>
	<station code="AIGLE" name="AIGLE" netid="CH" source="Switzerland Seismological Network" insttype="" lat="46.34176" lon="6.95295">
		<comp name="--.HGE" depth="0.0">
			<acc value="0.00301129166268218" flag="0"/>
			<vel value="0.00524941099648549" flag="0"/>
			<psa03 value="0.00772808095784368" flag="0"/>
			<psa10 value="0.0102253936321308" flag="0"/>
			<psa30 value="0.000688210486398713" flag="0"/>
		</comp>
		<comp name="--.HGN" depth="0.0">
			<acc value="0.00435657764908944" flag="0"/>
			<vel value="0.00590705693223839" flag="0"/>
			<psa03 value="0.00779697289137761" flag="0"/>
			<psa10 value="0.0138165818432346" flag="0"/>
			<psa30 value="0.000980825495706579" flag="0"/>
		</comp>
		<comp name="--.HGZ" depth="0.0">
			<acc value="0.00220555495267409" flag="0"/>
			<vel value="0.00279625100816752" flag="0"/>
			<psa03 value="0.00565608953193476" flag="0"/>
			<psa10 value="0.00677033287632695" flag="0"/>
			<psa30 value="0.000464714639231985" flag="0"/>
		</comp>
	</station>
	<station code="BALST" name="BALST" netid="CH" source="Switzerland Seismological Network" insttype="" lat="47.33599" lon="7.69485">
		<comp name="--.HGE" depth="0.0">
			<acc value="0.0107269305800922" flag="0"/>
			<vel value="0.0113529135654078" flag="0"/>
			<psa03 value="0.0280513921212329" flag="0"/>
			<psa10 value="0.0110429121637547" flag="0"/>
			<psa30 value="0.00280412992651354" flag="0"/>
		</comp>
		<comp name="--.HGN" depth="0.0">
			<acc value="0.0240714295199186" flag="0"/>
			<vel value="0.0207595143753705" flag="0"/>
			<psa03 value="0.0679285572249874" flag="0"/>
			<psa10 value="0.0198443570912616" flag="0"/>
			<psa30 value="0.00723500345011846" flag="0"/>
		</comp>
		<comp name="--.HGZ" depth="0.0">
			<acc value="0.0136815008371392" flag="0"/>
			<vel value="0.0115904816509024" flag="0"/>
			<psa03 value="0.027332323653136" flag="0"/>
			<psa10 value="0.0115968819865343" flag="0"/>
			<psa30 value="0.00325120475135683" flag="0"/>
		</comp>
	</station>
	<station code="BLOTZ" name="BLOTZ" netid="CH" source="Switzerland Seismological Network" insttype="" lat="47.620722" lon="7.44">
		<comp name="SF.HGE" depth="1.0">
			<acc value="0.0063861471739012" flag="0"/>
			<vel value="0.00557243336264493" flag="0"/>
			<psa03 value="0.0129597908141858" flag="0"/>
			<psa10 value="0.00615112841955209" flag="0"/>
			<psa30 value="0.000807403434430497" flag="0"/>
		</comp>
		<comp name="SF.HGN" depth="1.0">
			<acc value="0.00594410310417578" flag="0"/>
			<vel value="0.00426413585375385" flag="0"/>
			<psa03 value="0.00912987954928833" flag="0"/>
			<psa10 value="0.00372598807842282" flag="0"/>
			<psa30 value="0.000734591319319386" flag="0"/>
		</comp>
		<comp name="SF.HGZ" depth="1.0">
			<acc value="0.00151165296004217" flag="0"/>
			<vel value="0.00179146204015421" flag="0"/>
			<psa03 value="0.0037624793890227" flag="0"/>
			<psa10 value="0.00155635614783153" flag="0"/>
			<psa30 value="0.00119020738706658" flag="0"/>
		</comp>
	</station>
	<station code="BNALP" name="BNALP" netid="CH" source="Switzerland Seismological Network" insttype="" lat="46.87034" lon="8.4249">
		<comp name="--.HGE" depth="0.0">
			<acc value="0.0116872699369332" flag="0"/>
			<vel value="0.0157842875488208" flag="0"/>
			<psa03 value="0.0277100544051009" flag="0"/>
			<psa10 value="0.0136984996458912" flag="0"/>
			<psa30 value="0.00387004928843926" flag="0"/>
		</comp>
		<comp name="--.HGN" depth="0.0">
			<acc value="0.0102070877393344" flag="0"/>
			<vel value="0.00966391875074158" flag="0"/>
			<psa03 value="0.0205659366111335" flag="0"/>
			<psa10 value="0.0143202336452093" flag="0"/>
			<psa30 value="0.00391255543759575" flag="0"/>
		</comp>
		<comp name="--.HGZ" depth="0.0">
			<acc value="0.0124532931037209" flag="0"/>
			<vel value="0.0148937543379715" flag="0"/>
			<psa03 value="0.0200721122310148" flag="0"/>
			<psa10 value="0.0210666343111444" flag="0"/>
			<psa30 value="0.00319405325701753" flag="0"/>
		</comp>
	</station>
	<station code="BOBI" name="BOBI" netid="CH" source="Switzerland Seismological Network" insttype="" lat="47.54631" lon="8.33985">
		<comp name="SF.HGE" depth="1.0">
			<acc value="0.0216663491488371" flag="0"/>
			<vel value="0.0328116654042581" flag="0"/>
			<psa03 value="0.0369085075074815" flag="0"/>
			<psa10 value="0.028121078508421" flag="0"/>
			<psa30 value="0.0120289276907452" flag="0"/>
		</comp>
		<comp name="SF.HGN" depth="1.0">
			<acc value="0.0163721332840857" flag="0"/>
			<vel value="0.0353784545277998" flag="0"/>
			<psa03 value="0.0557769345314398" flag="0"/>
			<psa10 value="0.0479771495007442" flag="0"/>
			<psa30 value="0.011235635139012" flag="0"/>
		</comp>
		<comp name="SF.HGZ" depth="1.0">
			<acc value="0.0160837370584692" flag="0"/>
			<vel value="0.0372647603291376" flag="0"/>
			<psa03 value="0.0390418076823136" flag="0"/>
			<psa10 value="0.0403598961448774" flag="0"/>
			<psa30 value="0.0148387263261095" flag="0"/>
		</comp>
	</station>
	<station code="BOURR" name="BOURR" netid="CH" source="Switzerland Seismological Network" insttype="" lat="47.39364" lon="7.2301">
		<comp name="--.HGE" depth="0.0">
			<acc value="0.00864973642249689" flag="0"/>
			<vel value="0.0133380030974261" flag="0"/>
			<psa03 value="0.0202581675249931" flag="0"/>
			<psa10 value="0.0111584938829401" flag="0"/>
			<psa30 value="0.00186959822670862" flag="0"/>
		</comp>
		<comp name="--.HGN" depth="0.0">
			<acc value="0.00972274081058936" flag="0"/>
			<vel value="0.0110935299839759" flag="0"/>
			<psa03 value="0.0143538180574908" flag="0"/>
			<psa10 value="0.0221695805009039" flag="0"/>
			<psa30 value="0.00435770784342513" flag="0"/>
		</comp>
		<comp name="--.HGZ" depth="0.0">
			<acc value="0.00909119620635705" flag="0"/>
			<vel value="0.00693052916738964" flag="0"/>
			<psa03 value="0.021131905093326" flag="0"/>
			<psa10 value="0.0124764127511137" flag="0"/>
			<psa30 value="0.00159974045411846" flag="0"/>
		</comp>
	</station>
	<station code="BRANT" name="BRANT" netid="CH" source="Switzerland Seismological Network" insttype="" lat="46.93801" lon="6.47298">
		<comp name="--.HGE" depth="0.0">
			<acc value="0.00406368237409514" flag="0"/>
			<vel value="0.00422814267537478" flag="0"/>
			<psa03 value="0.010063406234588" flag="0"/>
			<psa10 value="0.00446108880650707" flag="0"/>
			<psa30 value="0.00248328825565815" flag="0"/>
		</comp>
		<comp name="--.HGN" depth="0.0">
			<acc value="0.00892214630613393" flag="0"/>
			<vel value="0.00761455977089541" flag="0"/>
			<psa03 value="0.0276005601724691" flag="0"/>
			<psa10 value="0.00808263949768821" flag="0"/>
			<psa30 value="0.00220595613376752" flag="0"/>
		</comp>
		<comp name="--.HGZ" depth="0.0">
			<acc value="0.00489835306842174" flag="0"/>
			<vel value="0.00535200095348012" flag="0"/>
			<psa03 value="0.0137399531732238" flag="0"/>
			<psa10 value="0.00466645287961394" flag="0"/>
			<psa30 value="0.00564546856791275" flag="0"/>
		</comp>
	</station>
	<station code="BULAC" name="BULAC" netid="CH" source="Switzerland Seismological Network" insttype="" lat="47.54236" lon="8.52044">
		<comp name="SF.HGE" depth="0.5">
			<acc value="0.0227126696786055" flag="0"/>
			<vel value="0.0301588485803292" flag="0"/>
			<psa03 value="0.0764040718112827" flag="0"/>
			<psa10 value="0.0386327867325274" flag="0"/>
			<psa30 value="0.0107972919342848" flag="0"/>
		</comp>
		<comp name="SF.HGN" depth="0.5">
			<acc value="0.0227333943797224" flag="0"/>
			<vel value="0.0356519662314466" flag="0"/>
			<psa03 value="0.042673938918168" flag="0"/>
			<psa10 value="0.0527782963031699" flag="0"/>
			<psa30 value="0.0111043022721973" flag="0"/>
		</comp>
		<comp name="SF.HGZ" depth="0.5">
			<acc value="0.0135612123788655" flag="0"/>
			<vel value="0.0244052855359773" flag="0"/>
			<psa03 value="0.0268381945653465" flag="0"/>
			<psa10 value="0.0337153072236492" flag="0"/>
			<psa30 value="0.0126510147343059" flag="0"/>
		</comp>
	</station>
	<station code="CHAMB" name="CHAMB" netid="CH" source="Switzerland Seismological Network" insttype="" lat="46.78233" lon="6.61184">
		<comp name="--.HGE" depth="0.0">
			<acc value="0.00198710604020898" flag="0"/>
			<vel value="0.00310632825713913" flag="0"/>
			<psa03 value="0.00631838145239051" flag="0"/>
			<psa10 value="0.00380419224343947" flag="0"/>
			<psa30 value="0.000944275261933755" flag="0"/>
		</comp>
		<comp name="--.HGN" depth="0.0">
			<acc value="0.00222848275673362" flag="0"/>
			<vel value="0.00317258326263548" flag="0"/>
			<psa03 value="0.00652172044342777" flag="0"/>
			<psa10 value="0.00464454955361418" flag="0"/>
			<psa30 value="0.000930156305791706" flag="0"/>
		</comp>
		<comp name="--.HGZ" depth="0.0">
			<acc value="0.00194208250710958" flag="0"/>
			<vel value="0.00268621029974746" flag="0"/>
			<psa03 value="0.00501241017256651" flag="0"/>
			<psa10 value="0.00463006843804747" flag="0"/>
			<psa30 value="0.00215847298824332" flag="0"/>
		</comp>
	</station>
	<station code="CHASS" name="CHASS" netid="CH" source="Switzerland Seismological Network" insttype="" lat="47.1609" lon="7.12129">
		<comp name="--.HGE" depth="0.0">
			<acc value="0.00551549367918486" flag="0"/>
			<vel value="0.00834353722247772" flag="0"/>
			<psa03 value="0.0128344921491825" flag="0"/>
			<psa10 value="0.0114096152059975" flag="0"/>
			<psa30 value="0.00189169594057173" flag="0"/>
		</comp>
		<comp name="--.HGN" depth="0.0">
			<acc value="0.00833672917411584" flag="0"/>
			<vel value="0.00985984371854552" flag="0"/>
			<psa03 value="0.018276396919512" flag="0"/>
			<psa10 value="0.0145184736526149" flag="0"/>
			<psa30 value="0.00415104665313589" flag="0"/>
		</comp>
		<comp name="--.HGZ" depth="0.0">
			<acc value="0.00481266563558352" flag="0"/>
			<vel value="0.00625516603007969" flag="0"/>
			<psa03 value="0.0114875044803778" flag="0"/>
			<psa10 value="0.0112059335880949" flag="0"/>
			<psa30 value="0.00234732154019862" flag="0"/>
		</comp>
	</station>
	<station code="DAVOX" name="DAVOX" netid="CH" source="Switzerland Seismological Network" insttype="" lat="46.7805" lon="9.87952">
		<comp name="--.HGE" depth="0.0">
			<acc value="0.00385709886348823" flag="0"/>
			<vel value="0.00350956951147536" flag="0"/>
			<psa03 value="0.0134522036424724" flag="0"/>
			<psa10 value="0.00433524359485962" flag="0"/>
			<psa30 value="0.000947759451078573" flag="0"/>
		</comp>
		<comp name="--.HGN" depth="0.0">
			<acc value="0.00376117962855387" flag="0"/>
			<vel value="0.00310274227849647" flag="0"/>
			<psa03 value="0.00976624201766878" flag="0"/>
			<psa10 value="0.0049947993184301" flag="0"/>
			<psa30 value="0.00081830728175631" flag="0"/>
		</comp>
		<comp name="--.HGZ" depth="0.0">
			<acc value="0.00284405900885163" flag="0"/>
			<vel value="0.00274828938853235" flag="0"/>
			<psa03 value="0.00746347879386083" flag="0"/>
			<psa10 value="0.00358340152338764" flag="0"/>
			<psa30 value="0.00129377049761347" flag="0"/>
		</comp>
	</station>
	<station code="DIX" name="DIX" netid="CH" source="Switzerland Seismological Network" insttype="" lat="46.081053" lon="7.408391">
		<comp name="--.HGE" depth="0.0">
			<acc value="0.0038891655327011" flag="0"/>
			<vel value="0.00321014638942094" flag="0"/>
			<psa03 value="0.00937548566324087" flag="0"/>
			<psa10 value="0.00459581741910152" flag="0"/>
			<psa30 value="0.00050141420581508" flag="0"/>
		</comp>
		<comp name="--.HGN" depth="0.0">
			<acc value="0.00301947222677937" flag="0"/>
			<vel value="0.00251344182094672" flag="0"/>
			<psa03 value="0.0053817679740687" flag="0"/>
			<psa10 value="0.00367065105324309" flag="0"/>
			<psa30 value="0.000508000996320895" flag="0"/>
		</comp>
		<comp name="--.HGZ" depth="0.0">
			<acc value="0.0028819932641803" flag="0"/>
			<vel value="0.00303362530473992" flag="0"/>
			<psa03 value="0.00454572528564445" flag="0"/>
			<psa10 value="0.00453423458953228" flag="0"/>
			<psa30 value="0.000399246968985448" flag="0"/>
		</comp>
	</station>
	<station code="EWZT0" name="EWZT0" netid="CH" source="Switzerland Seismological Network" insttype="" lat="47.36683" lon="8.49675">
		<comp name="--.HGE" depth="0.0">
			<acc value="0.0526741825840417" flag="0"/>
			<vel value="0.0580904513762692" flag="0"/>
			<psa03 value="0.125858056228492" flag="0"/>
			<psa10 value="0.0803691515618551" flag="0"/>
			<psa30 value="0.0149473368543893" flag="0"/>
		</comp>
		<comp name="--.HGN" depth="0.0">
			<acc value="0.073188797612546" flag="0"/>
			<vel value="0.0727015804285852" flag="0"/>
			<psa03 value="0.120046160802174" flag="0"/>
			<psa10 value="0.126760077232944" flag="0"/>
			<psa30 value="0.0134506468726947" flag="0"/>
		</comp>
		<comp name="--.HGZ" depth="0.0">
			<acc value="0.0250235027765638" flag="0"/>
			<vel value="0.0325087023186311" flag="0"/>
			<psa03 value="0.0577674309755654" flag="0"/>
			<psa10 value="0.0387060965889513" flag="0"/>
			<psa30 value="0.00929972522784337" flag="0"/>
		</comp>
	</station>
	<station code="FIESA" name="FIESA" netid="CH" source="Switzerland Seismological Network" insttype="" lat="46.43521" lon="8.11051">
		<comp name="--.HGE" depth="0.0">
			<acc value="0.00465737103345961" flag="0"/>
			<vel value="0.00443892472226872" flag="0"/>
			<psa03 value="0.00975496588009258" flag="0"/>
			<psa10 value="0.0052949476392937" flag="0"/>
			<psa30 value="0.00123385309087922" flag="0"/>
		</comp>
		<comp name="--.HGN" depth="0.0">
			<acc value="0.00345561127478244" flag="0"/>
			<vel value="0.00481181421427189" flag="0"/>
			<psa03 value="0.00971672701879835" flag="0"/>
			<psa10 value="0.0080940374402665" flag="0"/>
			<psa30 value="0.00104491026184184" flag="0"/>
		</comp>
		<comp name="--.HGZ" depth="0.0">
			<acc value="0.00476736519991761" flag="0"/>
			<vel value="0.00314919533454278" flag="0"/>
			<psa03 value="0.0106146758264379" flag="0"/>
			<psa10 value="0.00515248695198005" flag="0"/>
			<psa30 value="0.00081245559202754" flag="0"/>
		</comp>
	</station>
	<station code="FUORN" name="FUORN" netid="CH" source="Switzerland Seismological Network" insttype="" lat="46.620334" lon="10.263551">
		<comp name="--.HGE" depth="0.0">
			<acc value="0.00567015298420282" flag="0"/>
			<vel value="0.00462417591133922" flag="0"/>
			<psa03 value="0.013613823724011" flag="0"/>
			<psa10 value="0.00824697819681413" flag="0"/>
			<psa30 value="0.00183515094474449" flag="0"/>
		</comp>
		<comp name="--.HGN" depth="0.0">
			<acc value="0.00736871770468538" flag="0"/>
			<vel value="0.00669356553926324" flag="0"/>
			<psa03 value="0.0159710567020507" flag="0"/>
			<psa10 value="0.00910903374127445" flag="0"/>
			<psa30 value="0.000623578496513067" flag="0"/>
		</comp>
		<comp name="--.HGZ" depth="0.0">
			<acc value="0.00589292532347704" flag="0"/>
			<vel value="0.00405383418987213" flag="0"/>
			<psa03 value="0.0155336566327038" flag="0"/>
			<psa10 value="0.00346935037430972" flag="0"/>
			<psa30 value="0.00199523696632517" flag="0"/>
		</comp>
	</station>
	<station code="FUSIO" name="FUSIO" netid="CH" source="Switzerland Seismological Network" insttype="" lat="46.45481" lon="8.6629">
		<comp name="--.HGE" depth="0.0">
			<acc value="0.00482905262420338" flag="0"/>
			<vel value="0.00420168393153985" flag="0"/>
			<psa03 value="0.0108689224867428" flag="0"/>
			<psa10 value="0.00427167922779483" flag="0"/>
			<psa30 value="0.00158637217270575" flag="0"/>
		</comp>
		<comp name="--.HGN" depth="0.0">
			<acc value="0.00512824764685745" flag="0"/>
			<vel value="0.00282878329217915" flag="0"/>
			<psa03 value="0.0100482776282364" flag="0"/>
			<psa10 value="0.0049276567455828" flag="0"/>
			<psa30 value="0.00102400293933406" flag="0"/>
		</comp>
		<comp name="--.HGZ" depth="0.0">
			<acc value="0.00475891243055428" flag="0"/>
			<vel value="0.00304673670958564" flag="0"/>
			<psa03 value="0.0131653161480039" flag="0"/>
			<psa10 value="0.00449936290445453" flag="0"/>
			<psa30 value="0.000935983775163603" flag="0"/>
		</comp>
	</station>
	<station code="GIMEL" name="GIMEL" netid="CH" source="Switzerland Seismological Network" insttype="" lat="46.53364" lon="6.26545">
		<comp name="--.HGE" depth="0.0">
			<acc value="0.00140240811607518" flag="0"/>
			<vel value="0.00158136389187085" flag="0"/>
			<psa03 value="0.0039506171777511" flag="0"/>
			<psa10 value="0.00188392569926977" flag="0"/>
			<psa30 value="0.000792758297598717" flag="0"/>
		</comp>
		<comp name="--.HGN" depth="0.0">
			<acc value="0.00180136950237959" flag="0"/>
			<vel value="0.00217639745712065" flag="0"/>
			<psa03 value="0.00479456273343622" flag="0"/>
			<psa10 value="0.00407513667654577" flag="0"/>
			<psa30 value="0.000720823532269533" flag="0"/>
		</comp>
		<comp name="--.HGZ" depth="0.0">
			<acc value="0.00113913823879328" flag="0"/>
			<vel value="0.00201784984233259" flag="0"/>
			<psa03 value="0.00358658557546333" flag="0"/>
			<psa10 value="0.00255847643963164" flag="0"/>
			<psa30 value="0.00174474193475672" flag="0"/>
		</comp>
	</station>
	<station code="GRIMS" name="GRIMS" netid="CH" source="Switzerland Seismological Network" insttype="" lat="46.578146" lon="8.318864">
		<comp name="--.HGE" depth="0.0">
			<acc value="0.00178177596842273" flag="0"/>
			<vel value="0.00264157384571741" flag="0"/>
			<psa03 value="0.00481467441727909" flag="0"/>
			<psa10 value="0.00349602050044952" flag="0"/>
			<psa30 value="0.00137922303342332" flag="0"/>
		</comp>
		<comp name="--.HGN" depth="0.0">
			<acc value="0.00205775294337234" flag="0"/>
			<vel value="0.00230878374991846" flag="0"/>
			<psa03 value="0.00469725908702665" flag="0"/>
			<psa10 value="0.00511540074520236" flag="0"/>
			<psa30 value="0.000862117006851927" flag="0"/>
		</comp>
		<comp name="--.HGZ" depth="0.0">
			<acc value="0.00199750864772307" flag="0"/>
			<vel value="0.00281216344251223" flag="0"/>
			<psa03 value="0.00394033199119796" flag="0"/>
			<psa10 value="0.00567723671407445" flag="0"/>
			<psa30 value="0.000941845830162782" flag="0"/>
		</comp>
	</station>
	<station code="GRYON" name="GRYON" netid="CH" source="Switzerland Seismological Network" insttype="" lat="46.25053" lon="7.11106">
		<comp name="--.HGE" depth="0.0">
			<acc value="0.00251898509535511" flag="0"/>
			<vel value="0.00327986734742075" flag="0"/>
			<psa03 value="0.00757063693423083" flag="0"/>
			<psa10 value="0.0059010206011514" flag="0"/>
			<psa30 value="0.000475970332783023" flag="0"/>
		</comp>
		<comp name="--.HGN" depth="0.0">
			<acc value="0.00242927212728534" flag="0"/>
			<vel value="0.00264483744807801" flag="0"/>
			<psa03 value="0.00570844195832888" flag="0"/>
			<psa10 value="0.00569583232095732" flag="0"/>
			<psa30 value="0.000440350681488373" flag="0"/>
		</comp>
		<comp name="--.HGZ" depth="0.0">
			<acc value="0.00231287057539533" flag="0"/>
			<vel value="0.00282029517224712" flag="0"/>
			<psa03 value="0.00592204660340026" flag="0"/>
			<psa10 value="0.00504233512369706" flag="0"/>
			<psa30 value="0.000422869940141579" flag="0"/>
		</comp>
	</station>
