<?xml version="1.0" encoding="UTF-8" standalone="yes"?>
<!DOCTYPE earthquake SYSTEM "stationlist.dtd">
<stationlist created="" xmlns="ch.ethz.sed.shakemap.usgs.xml">
  <station code="A060B" name="A060B" netid="8D" insttype="STS2.5" lat="46.993" lon="7.97764">
    <comp name="--.HHN">
      <acc value="0.0078135751" flag="0"/>
      <vel value="0.0097321799" flag="0"/>
      <psa03 value="0.0236331265" flag="0"/>
      <psa10 value="0.0129481995" flag="0"/>
      <psa30 value="0.0040080441" flag="0"/>
    </comp>
    <comp name="--.HHZ">
      <acc value="0.0063348659" flag="0"/>
      <vel value="0.0099962908" flag="0"/>
      <psa03 value="0.0109604249" flag="0"/>
      <psa10 value="0.0085100580" flag="0"/>
      <psa30 value="0.0032314404" flag="0"/>
    </comp>
    <comp name="--.HHE">
      <acc value="0.0060556795" flag="0"/>
      <vel value="0.0088738418" flag="0"/>
      <psa03 value="0.0240409335" flag="0"/>
      <psa10 value="0.0089452646" flag="0"/>
      <psa30 value="0.0034571563" flag="0"/>
    </comp>
  </station>
  <station code="OBER" name="OBER" netid="BW" insttype="Trillium Compact 120s" lat="47.407" lon="10.2934">
    <comp name="--.HHZ">
      <acc value="0.0101255805" flag="0"/>
      <vel value="0.0044675968" flag="0"/>
      <psa03 value="0.0171694961" flag="0"/>
      <psa10 value="0.0055098302" flag="0"/>
      <psa30 value="0.0018404502" flag="0"/>
    </comp>
    <comp name="--.HHE">
      <acc value="0.0106944463" flag="0"/>
      <vel value="0.0050370837" flag="0"/>
      <psa03 value="0.0279896512" flag="0"/>
      <psa10 value="0.0114427341" flag="0"/>
      <psa30 value="0.0018174680" flag="0"/>
    </comp>
    <comp name="--.HHN">
      <acc value="0.0110634460" flag="0"/>
      <vel value="0.0070500533" flag="0"/>
      <psa03 value="0.0277825861" flag="0"/>
      <psa10 value="0.0101456342" flag="0"/>
      <psa30 value="0.0013160357" flag="0"/>
    </comp>
  </station>
  <station code="ACB" name="ACB" netid="CH" insttype="Trillium 240s_g2" lat="47.5877" lon="8.25474">
    <comp name="--.HHZ">
      <acc value="0.0110184765" flag="0"/>
      <vel value="0.0115779372" flag="0"/>
      <psa03 value="0.0246004799" flag="0"/>
      <psa10 value="0.0145019767" flag="0"/>
      <psa30 value="0.0061957922" flag="0"/>
    </comp>
    <comp name="--.HHE">
      <acc value="0.0187017144" flag="0"/>
      <vel value="0.0243000283" flag="0"/>
      <psa03 value="0.0508710110" flag="0"/>
      <psa10 value="0.0815462756" flag="0"/>
      <psa30 value="0.0073318937" flag="0"/>
    </comp>
    <comp name="--.HHN">
      <acc value="0.0208966278" flag="0"/>
      <vel value="0.0272233126" flag="0"/>
      <psa03 value="0.0623636313" flag="0"/>
      <psa10 value="0.0405514663" flag="0"/>
      <psa30 value="0.0077749147" flag="0"/>
    </comp>
  </station>
  <station code="BALST" name="BALST" netid="CH" insttype="STS2_gen3" lat="47.336" lon="7.69485">
    <comp name="--.HHZ">
      <acc value="0.0136013183" flag="0"/>
      <vel value="0.0118282718" flag="0"/>
      <psa03 value="0.0270588510" flag="0"/>
      <psa10 value="0.0115278327" flag="0"/>
      <psa30 value="0.0029264973" flag="0"/>
    </comp>
    <comp name="--.HHE">
      <acc value="0.0110132751" flag="0"/>
      <vel value="0.0108095992" flag="0"/>
      <psa03 value="0.0305341049" flag="0"/>
      <psa10 value="0.0107466997" flag="0"/>
      <psa30 value="0.0025961253" flag="0"/>
    </comp>
    <comp name="--.HHN">
      <acc value="0.0235731875" flag="0"/>
      <vel value="0.0203301703" flag="0"/>
      <psa03 value="0.0673537181" flag="0"/>
      <psa10 value="0.0198992068" flag="0"/>
      <psa30 value="0.0063512432" flag="0"/>
    </comp>
  </station>
  <station code="BERGE" name="BERGE" netid="CH" insttype="Trillium Compact 120s" lat="47.8716" lon="8.17798">
    <comp name="--.HHE">
      <acc value="0.0168592618" flag="0"/>
      <vel value="0.0127741211" flag="0"/>
      <psa03 value="0.0242166066" flag="0"/>
      <psa10 value="0.0140796814" flag="0"/>
      <psa30 value="0.0026700297" flag="0"/>
    </comp>
    <comp name="--.HHN">
      <acc value="0.0071289772" flag="0"/>
      <vel value="0.0055336150" flag="0"/>
      <psa03 value="0.0162565175" flag="0"/>
      <psa10 value="0.0083004910" flag="0"/>
      <psa30 value="0.0022340404" flag="0"/>
    </comp>
    <comp name="--.HHZ">
      <acc value="0.0175014636" flag="0"/>
      <vel value="0.0152772422" flag="0"/>
      <psa03 value="0.0229027983" flag="0"/>
      <psa10 value="0.0118370440" flag="0"/>
      <psa30 value="0.0025827323" flag="0"/>
    </comp>
  </station>
  <station code="BLOTZ" name="BLOTZ" netid="CH" insttype="EpiSensor ES-T" lat="47.6207" lon="7.44006">
    <comp name="SF.HGZ">
      <acc value="0.0015497484" flag="0"/>
      <vel value="0.0013751331" flag="0"/>
      <psa03 value="0.0037646449" flag="0"/>
      <psa10 value="0.0015426900" flag="0"/>
      <psa30 value="0.0011060625" flag="0"/>
    </comp>
    <comp name="SF.HGE">
      <acc value="0.0063670369" flag="0"/>
      <vel value="0.0054439920" flag="0"/>
      <psa03 value="0.0129215035" flag="0"/>
      <psa10 value="0.0061375647" flag="0"/>
      <psa30 value="0.0007288724" flag="0"/>
    </comp>
    <comp name="SF.HGN">
      <acc value="0.0059411701" flag="0"/>
      <vel value="0.0042018974" flag="0"/>
      <psa03 value="0.0091453334" flag="0"/>
      <psa10 value="0.0037373605" flag="0"/>
      <psa30 value="0.0006630491" flag="0"/>
    </comp>
  </station>
  <station code="BNALP" name="BNALP" netid="CH" insttype="STS2_gen3" lat="46.8703" lon="8.4249">
    <comp name="--.HHE">
      <acc value="0.0128455438" flag="0"/>
      <vel value="0.0167059851" flag="0"/>
      <psa03 value="0.0287568101" flag="0"/>
      <psa10 value="0.0131223625" flag="0"/>
      <psa30 value="0.0041173942" flag="0"/>
    </comp>
    <comp name="--.HHN">
      <acc value="0.0100449274" flag="0"/>
      <vel value="0.0094209396" flag="0"/>
      <psa03 value="0.0211420532" flag="0"/>
      <psa10 value="0.0135892303" flag="0"/>
      <psa30 value="0.0033445625" flag="0"/>
    </comp>
    <comp name="--.HHZ">
      <acc value="0.0123124546" flag="0"/>
      <vel value="0.0145749819" flag="0"/>
      <psa03 value="0.0200021975" flag="0"/>
      <psa10 value="0.0209211122" flag="0"/>
      <psa30 value="0.0031682976" flag="0"/>
    </comp>
  </station>
  <station code="BOBI" name="BOBI" netid="CH" insttype="EpiSensor ES-T" lat="47.5463" lon="8.33992">
    <comp name="SF.HGE">
      <acc value="0.0218840807" flag="0"/>
      <vel value="0.0315233907" flag="0"/>
      <psa03 value="0.0368732493" flag="0"/>
      <psa10 value="0.0279213024" flag="0"/>
      <psa30 value="0.0113993877" flag="0"/>
    </comp>
    <comp name="SF.HGZ">
      <acc value="0.0161477929" flag="0"/>
      <vel value="0.0367987300" flag="0"/>
      <psa03 value="0.0388876630" flag="0"/>
      <psa10 value="0.0404161396" flag="0"/>
      <psa30 value="0.0131732771" flag="0"/>
    </comp>
    <comp name="SF.HGN">
      <acc value="0.0166627255" flag="0"/>
      <vel value="0.0356115236" flag="0"/>
      <psa03 value="0.0557267252" flag="0"/>
      <psa10 value="0.0480657302" flag="0"/>
      <psa30 value="0.0105411654" flag="0"/>
    </comp>
  </station>
  <station code="BOURR" name="BOURR" netid="CH" insttype="STS2.5" lat="47.3936" lon="7.2301">
    <comp name="--.HHN">
      <acc value="0.0096255606" flag="0"/>
      <vel value="0.0111829302" flag="0"/>
      <psa03 value="0.0142160105" flag="0"/>
      <psa10 value="0.0216449705" flag="0"/>
      <psa30 value="0.0038060442" flag="0"/>
    </comp>
    <comp name="--.HHE">
      <acc value="0.0087332029" flag="0"/>
      <vel value="0.0138466791" flag="0"/>
      <psa03 value="0.0200992936" flag="0"/>
      <psa10 value="0.0118569533" flag="0"/>
      <psa30 value="0.0018459830" flag="0"/>
    </comp>
    <comp name="--.HHZ">
      <acc value="0.0090760610" flag="0"/>
      <vel value="0.0065897868" flag="0"/>
      <psa03 value="0.0211514472" flag="0"/>
      <psa10 value="0.0124137107" flag="0"/>
      <psa30 value="0.0014486542" flag="0"/>
    </comp>
  </station>
  <station code="BULAC" name="BULAC" netid="CH" insttype="ABBT" lat="47.5424" lon="8.52044">
    <comp name="BT.HGZ">
      <acc value="0.0068018614" flag="0"/>
      <vel value="0.0179976410" flag="0"/>
      <psa03 value="0.0098020427" flag="0"/>
      <psa10 value="0.0116876083" flag="0"/>
      <psa30 value="0.0064108984" flag="0"/>
    </comp>
    <comp name="BT.HG1">
      <acc value="0.0055616627" flag="0"/>
      <vel value="0.0072216385" flag="0"/>
      <psa03 value="0.0178970693" flag="0"/>
      <psa10 value="0.0092833472" flag="0"/>
      <psa30 value="0.0035239270" flag="0"/>
    </comp>
    <comp name="BT.HG2">
      <acc value="0.0059779768" flag="0"/>
      <vel value="0.0126222320" flag="0"/>
      <psa03 value="0.0123114207" flag="0"/>
      <psa10 value="0.0161491169" flag="0"/>
      <psa30 value="0.0055560994" flag="0"/>
    </comp>
  </station>
  <station code="DAGMA" name="DAGMA" netid="CH" insttype="Trillium Compact 120s" lat="47.2309" lon="8.01248">
    <comp name="--.HHE">
      <acc value="0.0137613082" flag="0"/>
      <vel value="0.0174266874" flag="0"/>
      <psa03 value="0.0342339964" flag="0"/>
      <psa10 value="0.0240880515" flag="0"/>
      <psa30 value="0.0060600055" flag="0"/>
    </comp>
    <comp name="--.HHZ">
      <acc value="0.0102966676" flag="0"/>
      <vel value="0.0236075702" flag="0"/>
      <psa03 value="0.0188299507" flag="0"/>
      <psa10 value="0.0248532646" flag="0"/>
      <psa30 value="0.0077171530" flag="0"/>
    </comp>
    <comp name="--.HHN">
      <acc value="0.0132167459" flag="0"/>
      <vel value="0.0215884710" flag="0"/>
      <psa03 value="0.0296824604" flag="0"/>
      <psa10 value="0.0328396410" flag="0"/>
      <psa30 value="0.0109664528" flag="0"/>
    </comp>
  </station>
  <station code="DAVOX" name="DAVOX" netid="CH" insttype="STS2.5" lat="46.7805" lon="9.87952">
    <comp name="--.HHE">
      <acc value="0.0041065581" flag="0"/>
      <vel value="0.0036100830" flag="0"/>
      <psa03 value="0.0135655034" flag="0"/>
      <psa10 value="0.0043567206" flag="0"/>
      <psa30 value="0.0009004597" flag="0"/>
    </comp>
    <comp name="--.HHN">
      <acc value="0.0034914471" flag="0"/>
      <vel value="0.0029066268" flag="0"/>
      <psa03 value="0.0095806699" flag="0"/>
      <psa10 value="0.0048280130" flag="0"/>
      <psa30 value="0.0007575891" flag="0"/>
    </comp>
    <comp name="--.HHZ">
      <acc value="0.0027864429" flag="0"/>
      <vel value="0.0026191678" flag="0"/>
      <psa03 value="0.0074386210" flag="0"/>
      <psa10 value="0.0035163751" flag="0"/>
      <psa30 value="0.0011985579" flag="0"/>
    </comp>
  </station>
  <station code="EMBD" name="EMBD" netid="CH" insttype="Trillium 40s" lat="46.2165" lon="7.83223">
    <comp name="--.HHN">
      <acc value="0.0051648564" flag="0"/>
      <vel value="0.0046140008" flag="0"/>
      <psa03 value="0.0135322395" flag="0"/>
      <psa10 value="0.0055423958" flag="0"/>
      <psa30 value="0.0003895011" flag="0"/>
    </comp>
    <comp name="--.HHZ">
      <acc value="0.0039379787" flag="0"/>
      <vel value="0.0032531512" flag="0"/>
      <psa03 value="0.0094349625" flag="0"/>
      <psa10 value="0.0043781960" flag="0"/>
      <psa30 value="0.0003788961" flag="0"/>
    </comp>
    <comp name="--.HHE">
      <acc value="0.0049383688" flag="0"/>
      <vel value="0.0044273164" flag="0"/>
      <psa03 value="0.0092199997" flag="0"/>
      <psa10 value="0.0063510509" flag="0"/>
      <psa30 value="0.0003529555" flag="0"/>
    </comp>
  </station>
  <station code="EMING" name="EMING" netid="CH" insttype="Trillium Compact 120s" lat="47.8952" lon="8.84676">
    <comp name="--.HHZ">
      <acc value="0.0074837650" flag="0"/>
      <vel value="0.0110532251" flag="0"/>
      <psa03 value="0.0261473943" flag="0"/>
      <psa10 value="0.0119122370" flag="0"/>
      <psa30 value="0.0030219965" flag="0"/>
    </comp>
    <comp name="--.HHN">
      <acc value="0.0252538059" flag="0"/>
      <vel value="0.0155152805" flag="0"/>
      <psa03 value="0.0356532401" flag="0"/>
      <psa10 value="0.0175615623" flag="0"/>
      <psa30 value="0.0034452876" flag="0"/>
    </comp>
    <comp name="--.HHE">
      <acc value="0.0247399655" flag="0"/>
      <vel value="0.0232125065" flag="0"/>
      <psa03 value="0.0474749719" flag="0"/>
      <psa10 value="0.0170362289" flag="0"/>
      <psa30 value="0.0072963762" flag="0"/>
    </comp>
  </station>
  <station code="EMMET" name="EMMET" netid="CH" insttype="Trillium Compact 120s" lat="47.4376" lon="8.01358">
    <comp name="--.HHZ">
      <acc value="0.0167221634" flag="0"/>
      <vel value="0.0126748883" flag="0"/>
      <psa03 value="0.0788077288" flag="0"/>
      <psa10 value="0.0117306867" flag="0"/>
      <psa30 value="0.0041664843" flag="0"/>
    </comp>
    <comp name="--.HHN">
      <acc value="0.0231802315" flag="0"/>
      <vel value="0.0132582250" flag="0"/>
      <psa03 value="0.0607896969" flag="0"/>
      <psa10 value="0.0257488913" flag="0"/>
      <psa30 value="0.0051840929" flag="0"/>
    </comp>
    <comp name="--.HHE">
      <acc value="0.0199735300" flag="0"/>
      <vel value="0.0183140842" flag="0"/>
      <psa03 value="0.0981285194" flag="0"/>
      <psa10 value="0.0147646146" flag="0"/>
      <psa30 value="0.0078745924" flag="0"/>
    </comp>
  </station>
  <station code="EWZT0" name="EWZT0" netid="CH" insttype="EpiSensor ES-T" lat="47.3668" lon="8.49677">
    <comp name="--.HGE">
      <acc value="0.0526148548" flag="0"/>
      <vel value="0.0571342991" flag="0"/>
      <psa03 value="0.1260229313" flag="0"/>
      <psa10 value="0.0798942046" flag="0"/>
      <psa30 value="0.0139182275" flag="0"/>
    </comp>
    <comp name="--.HGN">
      <acc value="0.0733326849" flag="0"/>
      <vel value="0.0734479013" flag="0"/>
      <psa03 value="0.1201054793" flag="0"/>
      <psa10 value="0.1269639299" flag="0"/>
      <psa30 value="0.0122417514" flag="0"/>
    </comp>
    <comp name="--.HGZ">
      <acc value="0.0249567129" flag="0"/>
      <vel value="0.0310309892" flag="0"/>
      <psa03 value="0.0580963721" flag="0"/>
      <psa10 value="0.0387383674" flag="0"/>
      <psa30 value="0.0084244946" flag="0"/>
    </comp>
  </station>
  <station code="FIESA" name="FIESA" netid="CH" insttype="STS2_gen2" lat="46.4352" lon="8.11051">
    <comp name="--.HHN">
      <acc value="0.0034081944" flag="0"/>
      <vel value="0.0045373893" flag="0"/>
      <psa03 value="0.0095697509" flag="0"/>
      <psa10 value="0.0078418068" flag="0"/>
      <psa30 value="0.0009125800" flag="0"/>
    </comp>
    <comp name="--.HHE">
      <acc value="0.0046131232" flag="0"/>
      <vel value="0.0042040178" flag="0"/>
      <psa03 value="0.0094742667" flag="0"/>
      <psa10 value="0.0054008705" flag="0"/>
      <psa30 value="0.0010960794" flag="0"/>
    </comp>
    <comp name="--.HHZ">
      <acc value="0.0047071665" flag="0"/>
      <vel value="0.0029982714" flag="0"/>
      <psa03 value="0.0105482801" flag="0"/>
      <psa10 value="0.0050839415" flag="0"/>
      <psa30 value="0.0007264454" flag="0"/>
    </comp>
  </station>
  <station code="FLACH" name="FLACH" netid="CH" insttype="Trillium Compact 120s" lat="47.5724" lon="8.5679">
    <comp name="01.HHN">
      <acc value="0.0177722185" flag="0"/>
      <vel value="0.0268128886" flag="0"/>
      <psa03 value="0.0337479762" flag="0"/>
      <psa10 value="0.0483854695" flag="0"/>
      <psa30 value="0.0072276515" flag="0"/>
    </comp>
    <comp name="01.HHZ">
      <acc value="0.0131455987" flag="0"/>
      <vel value="0.0209455352" flag="0"/>
      <psa03 value="0.0258367746" flag="0"/>
      <psa10 value="0.0356787239" flag="0"/>
      <psa30 value="0.0092835271" flag="0"/>
    </comp>
    <comp name="01.HHE">
      <acc value="0.0209943537" flag="0"/>
      <vel value="0.0287274535" flag="0"/>
      <psa03 value="0.0391553692" flag="0"/>
      <psa10 value="0.0391734613" flag="0"/>
      <psa30 value="0.0100014325" flag="0"/>
    </comp>
  </station>
  <station code="FUORN" name="FUORN" netid="CH" insttype="Trillium 240s_g2" lat="46.6203" lon="10.2635">
    <comp name="--.HHZ">
      <acc value="0.0056205858" flag="0"/>
      <vel value="0.0036298347" flag="0"/>
      <psa03 value="0.0152126408" flag="0"/>
      <psa10 value="0.0032551220" flag="0"/>
      <psa30 value="0.0017648849" flag="0"/>
    </comp>
    <comp name="--.HHN">
      <acc value="0.0075330122" flag="0"/>
      <vel value="0.0072534677" flag="0"/>
      <psa03 value="0.0165343825" flag="0"/>
      <psa10 value="0.0090949913" flag="0"/>
      <psa30 value="0.0005882725" flag="0"/>
    </comp>
    <comp name="--.HHE">
      <acc value="0.0048970609" flag="0"/>
      <vel value="0.0041863694" flag="0"/>
      <psa03 value="0.0122186715" flag="0"/>
      <psa10 value="0.0077122839" flag="0"/>
      <psa30 value="0.0016580941" flag="0"/>
    </comp>
  </station>
  <station code="FUSIO" name="FUSIO" netid="CH" insttype="STS2.5" lat="46.4548" lon="8.6629">
    <comp name="--.HHE">
      <acc value="0.0047888329" flag="0"/>
      <vel value="0.0034437346" flag="0"/>
      <psa03 value="0.0107798182" flag="0"/>
      <psa10 value="0.0042084605" flag="0"/>
      <psa30 value="0.0013613549" flag="0"/>
    </comp>
    <comp name="--.HHZ">
      <acc value="0.0046685378" flag="0"/>
      <vel value="0.0031343309" flag="0"/>
      <psa03 value="0.0128839135" flag="0"/>
      <psa10 value="0.0043331766" flag="0"/>
      <psa30 value="0.0007822104" flag="0"/>
    </comp>
    <comp name="--.HHN">
      <acc value="0.0050207409" flag="0"/>
      <vel value="0.0026554418" flag="0"/>
      <psa03 value="0.0099857210" flag="0"/>
      <psa10 value="0.0047347594" flag="0"/>
      <psa30 value="0.0008639626" flag="0"/>
    </comp>
  </station>
  <station code="GRIMS" name="GRIMS" netid="CH" insttype="STS2_gen3" lat="46.5781" lon="8.31886">
    <comp name="--.HHE">
      <acc value="0.0017277732" flag="0"/>
      <vel value="0.0024066931" flag="0"/>
      <psa03 value="0.0047743754" flag="0"/>
      <psa10 value="0.0034270023" flag="0"/>
      <psa30 value="0.0012191285" flag="0"/>
    </comp>
    <comp name="--.HHN">
      <acc value="0.0020598644" flag="0"/>
      <vel value="0.0021638426" flag="0"/>
      <psa03 value="0.0048559570" flag="0"/>
      <psa10 value="0.0051095295" flag="0"/>
      <psa30 value="0.0008010959" flag="0"/>
    </comp>
    <comp name="--.HHZ">
      <acc value="0.0019591357" flag="0"/>
      <vel value="0.0026624994" flag="0"/>
      <psa03 value="0.0038922614" flag="0"/>
      <psa10 value="0.0056368614" flag="0"/>
      <psa30 value="0.0008234022" flag="0"/>
    </comp>
  </station>
  <station code="HAMIK" name="HAMIK" netid="CH" insttype="EpiSensor ES-T" lat="47.2451" lon="8.27061">
    <comp name="SF.HGZ">
      <acc value="0.0183619252" flag="0"/>
      <vel value="0.0357223509" flag="0"/>
      <psa03 value="0.0399274917" flag="0"/>
      <psa10 value="0.0311338543" flag="0"/>
      <psa30 value="0.0081045937" flag="0"/>
    </comp>
    <comp name="SF.HGE">
      <acc value="0.0332679889" flag="0"/>
      <vel value="0.0394987139" flag="0"/>
      <psa03 value="0.0766746941" flag="0"/>
      <psa10 value="0.0307096461" flag="0"/>
      <psa30 value="0.0211529352" flag="0"/>
    </comp>
    <comp name="SF.HGN">
      <acc value="0.0416852683" flag="0"/>
      <vel value="0.0526566284" flag="0"/>
      <psa03 value="0.0922025710" flag="0"/>
      <psa10 value="0.0621760998" flag="0"/>
      <psa30 value="0.0123159032" flag="0"/>
    </comp>
  </station>
  <station code="HASLI" name="HASLI" netid="CH" insttype="STS2_gen3" lat="46.7567" lon="8.15108">
    <comp name="--.HHZ">
      <acc value="0.0082077413" flag="0"/>
      <vel value="0.0064364237" flag="0"/>
      <psa03 value="0.0099489918" flag="0"/>
