<stationlist created="1778205388">
	<station code="3502" name="3502" netid="TK" source="Turkish National Strong Motion Network (TNSMN)" insttype="" lat="38.45514" lon="27.22673">
		<comp name="00.HNE" depth="None">
			<acc value="0.291289556227847" flag="0"/>
			<vel value="0.159315680737191" flag="0"/>
			<psa03 value="1.20271525610576" flag="0"/>
			<psa10 value="0.104873942624964" flag="0"/>
			<psa30 value="0.00717575509743842" flag="0"/>
		</comp>
		<comp name="00.HNN" depth="None">
			<acc value="0.298663687534237" flag="0"/>
			<vel value="0.171125015647899" flag="0"/>
			<psa03 value="1.13698895458352" flag="0"/>
			<psa10 value="0.0926807964773528" flag="0"/>
			<psa30 value="0.0106772801873844" flag="0"/>
		</comp>
		<comp name="00.HNZ" depth="None">
			<acc value="0.152211155597031" flag="0"/>
			<vel value="0.0558036486450927" flag="0"/>
			<psa03 value="0.386483180768631" flag="0"/>
			<psa10 value="0.0540517175493355" flag="0"/>
			<psa30 value="0.00280265182256854" flag="0"/>
		</comp>
	</station>
</stationlist>
