<?xml version="1.0" encoding="UTF-8" standalone="yes"?>
<!DOCTYPE earthquake SYSTEM "stationlist.dtd">
<stationlist created="" xmlns="ch.ethz.sed.shakemap.usgs.xml">
  <station code="CEYT" name="CEYT" netid="KO" insttype="CMG-3ESP" lat="37.0105" lon="35.7478">
    <comp name="--.HHE">
      <acc value="0.0083056814" flag="0"/>
      <vel value="0.0047154399" flag="0"/>
      <psa03 value="0.0322770678" flag="0"/>
      <psa10 value="0.0045274207" flag="0"/>
      <psa30 value="0.0002524478" flag="0"/>
    </comp>
    <comp name="--.HHZ">
      <acc value="0.0045513722" flag="0"/>
      <vel value="0.0022642697" flag="0"/>
      <psa03 value="0.0180689790" flag="0"/>
      <psa10 value="0.0022655104" flag="0"/>
      <psa30 value="0.0002355150" flag="0"/>
    </comp>
    <comp name="--.HHN">
      <acc value="0.0062158673" flag="0"/>
      <vel value="0.0031813421" flag="0"/>
      <psa03 value="0.0213188648" flag="0"/>
      <psa10 value="0.0023885155" flag="0"/>
      <psa30 value="0.0002760514" flag="0"/>
    </comp>
  </station>
  <station code="GAZ" name="GAZ" netid="KO" insttype="CMG-3T" lat="37.1721" lon="37.2096">
    <comp name="--.HHE">
      <acc value="0.1127486737" flag="0"/>
      <vel value="0.0471782740" flag="0"/>
      <psa03 value="0.1896672579" flag="0"/>
      <psa10 value="0.0361807902" flag="0"/>
      <psa30 value="0.0024283319" flag="0"/>
    </comp>
    <comp name="--.HHN">
      <acc value="0.1040171960" flag="0"/>
      <vel value="0.0323122602" flag="0"/>
      <psa03 value="0.1714219651" flag="0"/>
      <psa10 value="0.0265766692" flag="0"/>
      <psa30 value="0.0020148947" flag="0"/>
    </comp>
    <comp name="--.HHZ">
      <acc value="0.0830161137" flag="0"/>
      <vel value="0.0298949386" flag="0"/>
      <psa03 value="0.1548766380" flag="0"/>
      <psa10 value="0.0182552486" flag="0"/>
      <psa30 value="0.0013221189" flag="0"/>
    </comp>
  </station>
  <station code="KHMN" name="KHMN" netid="KO" insttype="CMG-5T" lat="37.3916" lon="37.1574">
    <comp name="--.HNE">
      <acc value="0.3538338136" flag="0"/>
      <vel value="0.0892186608" flag="0"/>
      <psa03 value="0.2618286629" flag="0"/>
      <psa10 value="0.0209387434" flag="0"/>
      <psa30 value="0.0023333386" flag="0"/>
    </comp>
    <comp name="--.HNN">
      <acc value="0.4144734931" flag="0"/>
      <vel value="0.1390357632" flag="0"/>
      <psa03 value="0.6654563633" flag="0"/>
      <psa10 value="0.0442638463" flag="0"/>
      <psa30 value="0.0034666569" flag="0"/>
    </comp>
    <comp name="--.HNZ">
      <acc value="0.1755279597" flag="0"/>
      <vel value="0.0539376565" flag="0"/>
      <psa03 value="0.2410261233" flag="0"/>
      <psa10 value="0.0170262906" flag="0"/>
      <psa30 value="0.0018417593" flag="0"/>
    </comp>
  </station>
  <station code="KMRS" name="KMRS" netid="KO" insttype="CMG-3T" lat="37.5053" lon="36.9">
    <comp name="--.HHZ">
      <acc value="0.4146453546" flag="0"/>
      <vel value="0.0750335604" flag="0"/>
      <psa03 value="0.3177418291" flag="0"/>
      <psa10 value="0.0251488365" flag="0"/>
      <psa30 value="0.0025912114" flag="0"/>
    </comp>
  </station>
  <station code="ANDN" name="ANDN" netid="TU" insttype="T" lat="37.58" lon="36.3452">
    <comp name="--.HHN">
      <acc value="0.2408274383" flag="0"/>
      <vel value="0.1501467404" flag="0"/>
      <psa03 value="0.7255046982" flag="0"/>
      <psa10 value="0.0504731364" flag="0"/>
      <psa30 value="0.0045324843" flag="0"/>
    </comp>
    <comp name="--.HHZ">
      <acc value="0.1324937714" flag="0"/>
      <vel value="0.0754831800" flag="0"/>
      <psa03 value="0.1974434655" flag="0"/>
      <psa10 value="0.0760139906" flag="0"/>
      <psa30 value="0.0033565291" flag="0"/>
    </comp>
    <comp name="--.HHE">
      <acc value="0.2126556406" flag="0"/>
      <vel value="0.1031872673" flag="0"/>
      <psa03 value="0.3787330648" flag="0"/>
      <psa10 value="0.0531417836" flag="0"/>
      <psa30 value="0.0038611628" flag="0"/>
    </comp>
  </station>
</stationlist>
