<?xml version="1.0" encoding="UTF-8" standalone="yes"?>
<!DOCTYPE earthquake SYSTEM "stationlist.dtd">
<stationlist created="" xmlns="ch.ethz.sed.shakemap.usgs.xml">
  <station code="KMRS" name="KMRS" netid="KO" insttype="CMG-3T" lat="37.5053" lon="36.9">
    <comp name="--.HHN">
      <acc value="0.0344572874" flag="0"/>
      <vel value="0.0154249763" flag="0"/>
      <psa03 value="0.0757981659" flag="0"/>
      <psa10 value="0.0045835828" flag="0"/>
      <psa30 value="0.0005081605" flag="0"/>
    </comp>
    <comp name="--.HHE">
      <acc value="0.0148760454" flag="0"/>
      <vel value="0.0094671441" flag="0"/>
      <psa03 value="0.0395138514" flag="0"/>
      <psa10 value="0.0062657180" flag="0"/>
      <psa30 value="0.0004745980" flag="0"/>
    </comp>
    <comp name="--.HHZ">
      <acc value="0.0181525634" flag="0"/>
      <vel value="0.0095710076" flag="0"/>
      <psa03 value="0.0475821742" flag="0"/>
      <psa10 value="0.0033183844" flag="0"/>
      <psa30 value="0.0002902549" flag="0"/>
    </comp>
  </station>
  <station code="SARI" name="SARI" netid="KO" insttype="CMG-3T" lat="38.4072" lon="36.4181">
    <comp name="--.HHE">
      <acc value="0.1644821932" flag="0"/>
      <vel value="0.0292782809" flag="0"/>
      <psa03 value="0.1793345504" flag="0"/>
      <psa10 value="0.0075940170" flag="0"/>
      <psa30 value="0.0006730213" flag="0"/>
    </comp>
  </station>
  <station code="ANDN" name="ANDN" netid="TU" insttype="T" lat="37.58" lon="36.3452">
    <comp name="--.HHE">
      <acc value="0.0629426882" flag="0"/>
      <vel value="0.0215917220" flag="0"/>
      <psa03 value="0.0813143633" flag="0"/>
      <psa10 value="0.0128025566" flag="0"/>
      <psa30 value="0.0005062854" flag="0"/>
    </comp>
    <comp name="--.HHN">
      <acc value="0.0638032675" flag="0"/>
      <vel value="0.0179676829" flag="0"/>
      <psa03 value="0.0740235986" flag="0"/>
      <psa10 value="0.0133165752" flag="0"/>
      <psa30 value="0.0005534422" flag="0"/>
    </comp>
    <comp name="--.HHZ">
      <acc value="0.0309530036" flag="0"/>
      <vel value="0.0142626298" flag="0"/>
      <psa03 value="0.0534487196" flag="0"/>
      <psa10 value="0.0125535762" flag="0"/>
      <psa30 value="0.0007625716" flag="0"/>
    </comp>
  </station>
</stationlist>
