<?xml version="1.0" encoding="UTF-8" standalone="yes"?>
<!DOCTYPE earthquake SYSTEM "stationlist.dtd">
<stationlist created="" xmlns="ch.ethz.sed.shakemap.usgs.xml">
  <station code="BNGB" name="BNGB" netid="KO" insttype="CMG-3ESPC" lat="38.9913" lon="40.6792">
    <comp name="--.HHN">
      <acc value="0.1047978460" flag="0"/>
      <vel value="0.0273332557" flag="0"/>
      <psa03 value="0.1608749251" flag="0"/>
      <psa10 value="0.0126924654" flag="0"/>
      <psa30 value="0.0019955430" flag="0"/>
    </comp>
  </station>
  <station code="KARO" name="KARO" netid="KO" insttype="CMG-3T" lat="39.3089" lon="41.0493">
    <comp name="--.HHE">
      <acc value="0.0620785722" flag="0"/>
      <vel value="0.0249601111" flag="0"/>
      <psa03 value="0.1737547359" flag="0"/>
      <psa10 value="0.0242747864" flag="0"/>
      <psa30 value="0.0036877772" flag="0"/>
    </comp>
    <comp name="--.HHN">
      <acc value="0.0569185802" flag="0"/>
      <vel value="0.0269020543" flag="0"/>
      <psa03 value="0.1968011685" flag="0"/>
      <psa10 value="0.0219439233" flag="0"/>
      <psa30 value="0.0014512669" flag="0"/>
    </comp>
    <comp name="--.HHZ">
      <acc value="0.0619937704" flag="0"/>
      <vel value="0.0158910043" flag="0"/>
      <psa03 value="0.0998417970" flag="0"/>
      <psa10 value="0.0115721534" flag="0"/>
      <psa30 value="0.0014182536" flag="0"/>
    </comp>
  </station>
  <station code="VRTB" name="VRTB" netid="KO" insttype="CMG-3ESPC" lat="39.1603" lon="41.4558">
    <comp name="--.HHZ">
      <acc value="0.0086980933" flag="0"/>
      <vel value="0.0057870882" flag="0"/>
      <psa03 value="0.0171453926" flag="0"/>
      <psa10 value="0.0106040628" flag="0"/>
      <psa30 value="0.0014790441" flag="0"/>
    </comp>
  </station>
  <station code="YEDI" name="YEDI" netid="KO" insttype="CMG-3T" lat="39.4377" lon="40.5443">
    <comp name="--.HHE">
      <acc value="0.9909952830" flag="0"/>
      <vel value="0.3397573074" flag="0"/>
      <psa03 value="1.9931552014" flag="0"/>
      <psa10 value="0.1069710007" flag="0"/>
      <psa30 value="0.0073043177" flag="0"/>
    </comp>
    <comp name="--.HHN">
      <acc value="0.7931381013" flag="0"/>
      <vel value="0.2025970487" flag="0"/>
      <psa03 value="0.4429206986" flag="0"/>
      <psa10 value="0.0322554631" flag="0"/>
      <psa30 value="0.0036933064" flag="0"/>
    </comp>
    <comp name="--.HHZ">
      <acc value="0.0000549414" flag="0"/>
      <vel value="0.0000101760" flag="0"/>
      <psa03 value="0.0000402696" flag="0"/>
      <psa10 value="0.0000041189" flag="0"/>
      <psa30 value="0.0000010277" flag="0"/>
    </comp>
  </station>
</stationlist>
