<?xml version="1.0" encoding="UTF-8" standalone="yes"?>
<!DOCTYPE earthquake SYSTEM "stationlist.dtd">
<stationlist created="" xmlns="ch.ethz.sed.shakemap.usgs.xml">
  <station code="BNGB" name="BNGB" netid="KO" insttype="CMG-3ESPC" lat="38.9913" lon="40.6792">
    <comp name="--.HHN">
      <acc value="0.1047978455" flag="0"/>
      <vel value="0.0273332552" flag="0"/>
      <psa03 value="0.1608749251" flag="0"/>
      <psa10 value="0.0126924646" flag="0"/>
      <psa30 value="0.0019955657" flag="0"/>
    </comp>
  </station>
  <station code="KARO" name="KARO" netid="KO" insttype="CMG-3T" lat="39.3089" lon="41.0493">
    <comp name="--.HHZ">
      <acc value="0.0619937698" flag="0"/>
      <vel value="0.0158910042" flag="0"/>
      <psa03 value="0.0998417970" flag="0"/>
      <psa10 value="0.0115721534" flag="0"/>
      <psa30 value="0.0014182331" flag="0"/>
    </comp>
    <comp name="--.HHE">
      <acc value="0.0620785705" flag="0"/>
      <vel value="0.0249601118" flag="0"/>
      <psa03 value="0.1737547359" flag="0"/>
      <psa10 value="0.0242747864" flag="0"/>
      <psa30 value="0.0036877919" flag="0"/>
    </comp>
    <comp name="--.HHN">
      <acc value="0.0569185798" flag="0"/>
      <vel value="0.0269020546" flag="0"/>
      <psa03 value="0.1968011685" flag="0"/>
      <psa10 value="0.0219439233" flag="0"/>
      <psa30 value="0.0014512382" flag="0"/>
    </comp>
  </station>
  <station code="SINE" name="SINE" netid="KO" insttype="CMG-6T" lat="39.1636" lon="39.3871">
    <comp name="--.HHE">
      <acc value="0.1088154997" flag="0"/>
      <vel value="0.0163599836" flag="0"/>
      <psa03 value="0.0700735088" flag="0"/>
      <psa10 value="0.0030822210" flag="0"/>
      <psa30 value="0.0002691666" flag="0"/>
    </comp>
    <comp name="--.HHN">
      <acc value="0.1207715272" flag="0"/>
      <vel value="0.0217968768" flag="0"/>
      <psa03 value="0.0612647192" flag="0"/>
      <psa10 value="0.0048377808" flag="0"/>
      <psa30 value="0.0003160177" flag="0"/>
    </comp>
    <comp name="--.HHZ">
      <acc value="0.0816717713" flag="0"/>
      <vel value="0.0164021130" flag="0"/>
      <psa03 value="0.0526019818" flag="0"/>
      <psa10 value="0.0042279680" flag="0"/>
      <psa30 value="0.0002909229" flag="0"/>
    </comp>
  </station>
  <station code="VRTB" name="VRTB" netid="KO" insttype="CMG-3ESPC" lat="39.1603" lon="41.4558">
    <comp name="--.HHZ">
      <acc value="0.0086980933" flag="0"/>
      <vel value="0.0057870858" flag="0"/>
      <psa03 value="0.0171453926" flag="0"/>
      <psa10 value="0.0106040628" flag="0"/>
      <psa30 value="0.0014869239" flag="0"/>
    </comp>
  </station>
  <station code="YEDI" name="YEDI" netid="KO" insttype="CMG-3T" lat="39.4377" lon="40.5443">
    <comp name="--.HHE">
      <acc value="0.9909952828" flag="0"/>
      <vel value="0.3397573074" flag="0"/>
      <psa03 value="1.9931552014" flag="0"/>
      <psa10 value="0.1069710009" flag="0"/>
      <psa30 value="0.0073041466" flag="0"/>
    </comp>
    <comp name="--.HHN">
      <acc value="0.7931381004" flag="0"/>
      <vel value="0.2025970484" flag="0"/>
      <psa03 value="0.4429206986" flag="0"/>
      <psa10 value="0.0322554626" flag="0"/>
      <psa30 value="0.0036934800" flag="0"/>
    </comp>
    <comp name="--.HHZ">
      <acc value="0.0000549414" flag="0"/>
      <vel value="0.0000101761" flag="0"/>
      <psa03 value="0.0000402696" flag="0"/>
      <psa10 value="0.0000041192" flag="0"/>
      <psa30 value="0.0000010295" flag="0"/>
    </comp>
  </station>
</stationlist>
