<stationlist created="1778550946">
	<station code="1701" name="1701" netid="TK" source="Turkish National Strong Motion Network (TNSMN)" insttype="" lat="40.14145" lon="26.39948">
		<comp name="00.HNE" depth="0.0">
			<acc value="0.0794461112170487" flag="0"/>
			<vel value="0.0742552251908197" flag="0"/>
			<psa03 value="0.240265649540119" flag="0"/>
			<psa10 value="0.0988498519258802" flag="0"/>
			<psa30 value="0.0082661226727257" flag="0"/>
		</comp>
		<comp name="00.HNN" depth="0.0">
			<acc value="0.0745223675487325" flag="0"/>
			<vel value="0.0745892679850862" flag="0"/>
			<psa03 value="0.226127112248745" flag="0"/>
			<psa10 value="0.165493368683796" flag="0"/>
			<psa30 value="0.00621558734341031" flag="0"/>
		</comp>
		<comp name="00.HNZ" depth="0.0">
			<acc value="0.0508026917326159" flag="0"/>
			<vel value="0.02463534566747" flag="0"/>
			<psa03 value="0.1444725851704" flag="0"/>
			<psa10 value="0.0311432603387142" flag="0"/>
			<psa30 value="0.00380129787428837" flag="0"/>
		</comp>
	</station>
	<station code="3502" name="3502" netid="TK" source="Turkish National Strong Motion Network (TNSMN)" insttype="" lat="38.45514" lon="27.22673">
		<comp name="00.HNE" depth="None">
			<acc value="0.25081443287571" flag="0"/>
			<vel value="0.129989280979881" flag="0"/>
			<psa03 value="0.535474728807476" flag="0"/>
			<psa10 value="0.100388088989416" flag="0"/>
			<psa30 value="0.00673817631671172" flag="0"/>
		</comp>
		<comp name="00.HNN" depth="None">
			<acc value="0.289216934277422" flag="0"/>
			<vel value="0.138223311872133" flag="0"/>
			<psa03 value="0.576637558896286" flag="0"/>
			<psa10 value="0.107052440665208" flag="0"/>
			<psa30 value="0.00682363393135262" flag="0"/>
		</comp>
		<comp name="00.HNZ" depth="None">
			<acc value="0.107086587459412" flag="0"/>
			<vel value="0.060169242894759" flag="0"/>
			<psa03 value="0.270198185767743" flag="0"/>
			<psa10 value="0.0439162654840985" flag="0"/>
			<psa30 value="0.00406393462713762" flag="0"/>
		</comp>
	</station>
</stationlist>
