<?xml version="1.0" encoding="UTF-8" standalone="yes"?>
<!DOCTYPE earthquake SYSTEM "stationlist.dtd">
<stationlist created="" xmlns="ch.ethz.sed.shakemap.usgs.xml">
  <station code="ARPRA" name="ARPRA" netid="KO" insttype="CMG-5T" lat="39.0929" lon="38.3356">
    <comp name="--.HNE">
      <acc value="0.0606036185" flag="0"/>
      <vel value="0.0263353097" flag="0"/>
      <psa03 value="0.1046741732" flag="0"/>
      <psa10 value="0.0294530377" flag="0"/>
      <psa30 value="0.0032791100" flag="0"/>
    </comp>
    <comp name="--.HNZ">
      <acc value="0.0430410954" flag="0"/>
      <vel value="0.0179774660" flag="0"/>
      <psa03 value="0.0593731642" flag="0"/>
      <psa10 value="0.0179845844" flag="0"/>
      <psa30 value="0.0012823636" flag="0"/>
    </comp>
    <comp name="--.HNN">
      <acc value="0.0672598999" flag="0"/>
      <vel value="0.0384962320" flag="0"/>
      <psa03 value="0.1439257386" flag="0"/>
      <psa10 value="0.0306383019" flag="0"/>
      <psa30 value="0.0027632856" flag="0"/>
    </comp>
  </station>
  <station code="DARE" name="DARE" netid="KO" insttype="CMG-3ESP" lat="38.5712" lon="37.4832">
    <comp name="--.HHE">
      <acc value="0.1759744322" flag="0"/>
      <vel value="0.0504792188" flag="0"/>
      <psa03 value="0.1321920940" flag="0"/>
      <psa10 value="0.0423874414" flag="0"/>
      <psa30 value="0.0039233298" flag="0"/>
    </comp>
    <comp name="--.HHZ">
      <acc value="0.0767161288" flag="0"/>
      <vel value="0.0334025883" flag="0"/>
      <psa03 value="0.0797144585" flag="0"/>
      <psa10 value="0.0386386975" flag="0"/>
      <psa30 value="0.0018324260" flag="0"/>
    </comp>
    <comp name="--.HHN">
      <acc value="0.1317662589" flag="0"/>
      <vel value="0.0435604657" flag="0"/>
      <psa03 value="0.1103362194" flag="0"/>
      <psa10 value="0.0386581437" flag="0"/>
      <psa30 value="0.0030581522" flag="0"/>
    </comp>
  </station>
  <station code="GAZ" name="GAZ" netid="KO" insttype="CMG-3T" lat="37.1721" lon="37.2096">
    <comp name="--.HHZ">
      <acc value="0.0178020147" flag="0"/>
      <vel value="0.0085837786" flag="0"/>
      <psa03 value="0.0618024682" flag="0"/>
      <psa10 value="0.0100118649" flag="0"/>
      <psa30 value="0.0010127116" flag="0"/>
    </comp>
    <comp name="--.HHE">
      <acc value="0.0399599537" flag="0"/>
      <vel value="0.0217726608" flag="0"/>
      <psa03 value="0.1249997593" flag="0"/>
      <psa10 value="0.0419550343" flag="0"/>
      <psa30 value="0.0020140634" flag="0"/>
    </comp>
    <comp name="--.HHN">
      <acc value="0.0253369678" flag="0"/>
      <vel value="0.0184471911" flag="0"/>
      <psa03 value="0.0671059275" flag="0"/>
      <psa10 value="0.0282619878" flag="0"/>
      <psa30 value="0.0023001716" flag="0"/>
    </comp>
  </station>
  <station code="KMRS" name="KMRS" netid="KO" insttype="CMG-3T" lat="37.5087" lon="36.9">
    <comp name="--.HHN">
      <acc value="0.0318343291" flag="0"/>
      <vel value="0.0179142721" flag="0"/>
      <psa03 value="0.0732415284" flag="0"/>
      <psa10 value="0.0267230586" flag="0"/>
      <psa30 value="0.0037844749" flag="0"/>
    </comp>
    <comp name="--.HHE">
      <acc value="0.0185990173" flag="0"/>
      <vel value="0.0158339582" flag="0"/>
      <psa03 value="0.0522214999" flag="0"/>
      <psa10 value="0.0109842857" flag="0"/>
      <psa30 value="0.0025284168" flag="0"/>
    </comp>
    <comp name="--.HHZ">
      <acc value="0.0253890537" flag="0"/>
      <vel value="0.0107689213" flag="0"/>
      <psa03 value="0.0533677563" flag="0"/>
      <psa10 value="0.0110620737" flag="0"/>
      <psa30 value="0.0022294639" flag="0"/>
    </comp>
  </station>
  <station code="URFA" name="URFA" netid="KO" insttype="CMG-3ESP" lat="37.4409" lon="38.8213">
    <comp name="--.HHZ">
      <acc value="0.0578894508" flag="0"/>
      <vel value="0.0178305746" flag="0"/>
      <psa03 value="0.0629207273" flag="0"/>
      <psa10 value="0.0159952278" flag="0"/>
      <psa30 value="0.0012002477" flag="0"/>
    </comp>
    <comp name="--.HHE">
      <acc value="0.0925322043" flag="0"/>
      <vel value="0.0369353088" flag="0"/>
      <psa03 value="0.1099041747" flag="0"/>
      <psa10 value="0.0247787871" flag="0"/>
      <psa30 value="0.0029124855" flag="0"/>
    </comp>
  </station>
</stationlist>
