<?xml version="1.0" encoding="UTF-8" standalone="yes"?>
<!DOCTYPE earthquake SYSTEM "stationlist.dtd">
<stationlist created="" xmlns="ch.ethz.sed.shakemap.usgs.xml">
  <station code="ARPRA" name="ARPRA" netid="KO" insttype="CMG-5T" lat="39.0929" lon="38.3356">
    <comp name="--.HNE">
      <acc value="0.0606036216" flag="0"/>
      <vel value="0.0263353103" flag="0"/>
      <psa03 value="0.1046741733" flag="0"/>
      <psa10 value="0.0294530377" flag="0"/>
      <psa30 value="0.0032791100" flag="0"/>
    </comp>
    <comp name="--.HNZ">
      <acc value="0.0430411236" flag="0"/>
      <vel value="0.0179774669" flag="0"/>
      <psa03 value="0.0593731642" flag="0"/>
      <psa10 value="0.0179845844" flag="0"/>
      <psa30 value="0.0012823636" flag="0"/>
    </comp>
    <comp name="--.HNN">
      <acc value="0.0672599192" flag="0"/>
      <vel value="0.0384962318" flag="0"/>
      <psa03 value="0.1439257386" flag="0"/>
      <psa10 value="0.0306383019" flag="0"/>
      <psa30 value="0.0027632856" flag="0"/>
    </comp>
  </station>
  <station code="DARE" name="DARE" netid="KO" insttype="CMG-3ESP" lat="38.5712" lon="37.4832">
    <comp name="--.HHN">
      <acc value="0.1317662591" flag="0"/>
      <vel value="0.0435604660" flag="0"/>
      <psa03 value="0.1103362194" flag="0"/>
      <psa10 value="0.0386581437" flag="0"/>
      <psa30 value="0.0030581522" flag="0"/>
    </comp>
    <comp name="--.HHZ">
      <acc value="0.0767161287" flag="0"/>
      <vel value="0.0334025882" flag="0"/>
      <psa03 value="0.0797144585" flag="0"/>
      <psa10 value="0.0386386975" flag="0"/>
      <psa30 value="0.0018324260" flag="0"/>
    </comp>
    <comp name="--.HHE">
      <acc value="0.1759744324" flag="0"/>
      <vel value="0.0504792190" flag="0"/>
      <psa03 value="0.1321920940" flag="0"/>
      <psa10 value="0.0423874414" flag="0"/>
      <psa30 value="0.0039233298" flag="0"/>
    </comp>
  </station>
  <station code="GAZ" name="GAZ" netid="KO" insttype="CMG-3T" lat="37.1721" lon="37.2096">
    <comp name="--.HHE">
      <acc value="0.0399599518" flag="0"/>
      <vel value="0.0217726608" flag="0"/>
      <psa03 value="0.1249997593" flag="0"/>
      <psa10 value="0.0419550343" flag="0"/>
      <psa30 value="0.0020140634" flag="0"/>
    </comp>
    <comp name="--.HHN">
      <acc value="0.0253369675" flag="0"/>
      <vel value="0.0184471911" flag="0"/>
      <psa03 value="0.0671059275" flag="0"/>
      <psa10 value="0.0282619878" flag="0"/>
      <psa30 value="0.0023001716" flag="0"/>
    </comp>
    <comp name="--.HHZ">
      <acc value="0.0178020158" flag="0"/>
      <vel value="0.0085837786" flag="0"/>
      <psa03 value="0.0618024682" flag="0"/>
      <psa10 value="0.0100118649" flag="0"/>
      <psa30 value="0.0010127117" flag="0"/>
    </comp>
  </station>
  <station code="KMRS" name="KMRS" netid="KO" insttype="CMG-3T" lat="37.5087" lon="36.9">
    <comp name="--.HHE">
      <acc value="0.0185990177" flag="0"/>
      <vel value="0.0158339585" flag="0"/>
      <psa03 value="0.0522214999" flag="0"/>
      <psa10 value="0.0109842857" flag="0"/>
      <psa30 value="0.0025284168" flag="0"/>
    </comp>
    <comp name="--.HHN">
      <acc value="0.0318343290" flag="0"/>
      <vel value="0.0179142721" flag="0"/>
      <psa03 value="0.0732415284" flag="0"/>
      <psa10 value="0.0267230586" flag="0"/>
      <psa30 value="0.0037844749" flag="0"/>
    </comp>
    <comp name="--.HHZ">
      <acc value="0.0253890529" flag="0"/>
      <vel value="0.0107689213" flag="0"/>
      <psa03 value="0.0533677563" flag="0"/>
      <psa10 value="0.0110620737" flag="0"/>
      <psa30 value="0.0022294649" flag="0"/>
    </comp>
  </station>
  <station code="SARI" name="SARI" netid="KO" insttype="CMG-3T" lat="38.4072" lon="36.4181">
    <comp name="--.HHN">
      <acc value="0.0257704064" flag="0"/>
      <vel value="0.0125241447" flag="0"/>
      <psa03 value="0.0531908056" flag="0"/>
      <psa10 value="0.0218827180" flag="0"/>
      <psa30 value="0.0013710129" flag="0"/>
    </comp>
    <comp name="--.HHZ">
      <acc value="0.0205423402" flag="0"/>
      <vel value="0.0103727250" flag="0"/>
      <psa03 value="0.0455776470" flag="0"/>
      <psa10 value="0.0167702103" flag="0"/>
      <psa30 value="0.0008795954" flag="0"/>
    </comp>
  </station>
  <station code="URFA" name="URFA" netid="KO" insttype="CMG-3ESP" lat="37.4409" lon="38.8213">
    <comp name="--.HHZ">
      <acc value="0.0578894506" flag="0"/>
      <vel value="0.0178305748" flag="0"/>
      <psa03 value="0.0629207273" flag="0"/>
      <psa10 value="0.0159952278" flag="0"/>
      <psa30 value="0.0012002477" flag="0"/>
    </comp>
  </station>
</stationlist>
