<?xml version="1.0" encoding="UTF-8" standalone="yes"?>
<!DOCTYPE earthquake SYSTEM "stationlist.dtd">
<stationlist created="" xmlns="ch.ethz.sed.shakemap.usgs.xml">
  <station code="LSK" name="LSK" netid="AC" insttype="" lat="40.1499" lon="20.5987">
    <comp name="--.HHE">
      <acc value="1.2852106357" flag="0"/>
      <vel value="0.0366228032" flag="0"/>
      <psa03 value="0.0683231191" flag="0"/>
      <psa10 value="0.0195535980" flag="0"/>
      <psa30 value="0.0013787055" flag="0"/>
    </comp>
    <comp name="--.HHN">
      <acc value="0.0174205392" flag="0"/>
      <vel value="0.0060724701" flag="0"/>
      <psa03 value="0.0211012711" flag="0"/>
      <psa10 value="0.0058952869" flag="0"/>
      <psa30 value="0.0004431855" flag="0"/>
    </comp>
    <comp name="--.HHZ">
      <acc value="0.0135348863" flag="0"/>
      <vel value="0.0055465055" flag="0"/>
      <psa03 value="0.0238821647" flag="0"/>
      <psa10 value="0.0062991413" flag="0"/>
      <psa30 value="0.0003543587" flag="0"/>
    </comp>
  </station>
  <station code="VLO" name="VLO" netid="AC" insttype="" lat="40.4686" lon="19.4955">
    <comp name="--.HHE">
      <acc value="0.0563242550" flag="0"/>
      <vel value="0.0170424866" flag="0"/>
      <psa03 value="0.0677656830" flag="0"/>
      <psa10 value="0.0068386508" flag="0"/>
      <psa30 value="0.0004711744" flag="0"/>
    </comp>
    <comp name="--.HHN">
      <acc value="0.0763156321" flag="0"/>
      <vel value="0.0177387382" flag="0"/>
      <psa03 value="0.0734832570" flag="0"/>
      <psa10 value="0.0072649469" flag="0"/>
      <psa30 value="0.0004515845" flag="0"/>
    </comp>
    <comp name="--.HHZ">
      <acc value="0.0199943462" flag="0"/>
      <vel value="0.0062664238" flag="0"/>
      <psa03 value="0.0433540160" flag="0"/>
      <psa10 value="0.0056543284" flag="0"/>
      <psa30 value="0.0003337665" flag="0"/>
    </comp>
  </station>
  <station code="JAN" name="JAN" netid="HL" insttype="CMG3EPSC60_DR24" lat="39.6562" lon="20.8487">
    <comp name="--.HHZ">
      <acc value="0.0052503834" flag="0"/>
      <vel value="0.0020454080" flag="0"/>
      <psa03 value="0.0110840180" flag="0"/>
      <psa10 value="0.0014454051" flag="0"/>
      <psa30 value="0.0001303630" flag="0"/>
    </comp>
    <comp name="--.HHE">
      <acc value="0.0099758042" flag="0"/>
      <vel value="0.0043992848" flag="0"/>
      <psa03 value="0.0228090875" flag="0"/>
      <psa10 value="0.0029288640" flag="0"/>
      <psa30 value="0.0002834536" flag="0"/>
    </comp>
    <comp name="--.HHN">
      <acc value="0.0114773568" flag="0"/>
      <vel value="0.0050213913" flag="0"/>
      <psa03 value="0.0398964353" flag="0"/>
      <psa10 value="0.0030566707" flag="0"/>
      <psa30 value="0.0003092479" flag="0"/>
    </comp>
  </station>
  <station code="KEK" name="KEK" netid="HL" insttype="120" lat="39.7127" lon="19.7962">
    <comp name="--.HHE">
      <acc value="0.0524380265" flag="0"/>
      <vel value="0.0173683654" flag="0"/>
      <psa03 value="0.0548003231" flag="0"/>
      <psa10 value="0.0060972966" flag="0"/>
      <psa30 value="0.0003934358" flag="0"/>
    </comp>
    <comp name="--.HHN">
      <acc value="0.0352551216" flag="0"/>
      <vel value="0.0109974966" flag="0"/>
      <psa03 value="0.0654935101" flag="0"/>
      <psa10 value="0.0084958288" flag="0"/>
      <psa30 value="0.0004232508" flag="0"/>
    </comp>
    <comp name="--.HHZ">
      <acc value="0.0259905321" flag="0"/>
      <vel value="0.0128135568" flag="0"/>
      <psa03 value="0.0549546261" flag="0"/>
      <psa10 value="0.0095836528" flag="0"/>
      <psa30 value="0.0004541845" flag="0"/>
    </comp>
  </station>
  <station code="PRMD" name="PRMD" netid="HP" insttype="120P," lat="39.5299" lon="21.0965">
    <comp name="--.HHE">
      <acc value="0.0064448900" flag="0"/>
      <vel value="0.0041318596" flag="0"/>
      <psa03 value="0.0172259080" flag="0"/>
      <psa10 value="0.0043442045" flag="0"/>
      <psa30 value="0.0002871152" flag="0"/>
    </comp>
    <comp name="--.HHN">
      <acc value="0.0048793425" flag="0"/>
      <vel value="0.0029921689" flag="0"/>
      <psa03 value="0.0138440343" flag="0"/>
      <psa10 value="0.0027111868" flag="0"/>
      <psa30 value="0.0002465884" flag="0"/>
    </comp>
    <comp name="--.HHZ">
      <acc value="0.0026849469" flag="0"/>
      <vel value="0.0017690085" flag="0"/>
      <psa03 value="0.0062138129" flag="0"/>
      <psa10 value="0.0014875276" flag="0"/>
      <psa30 value="0.0001067892" flag="0"/>
    </comp>
  </station>
  <station code="IGT" name="IGT" netid="HT" insttype="100" lat="39.5315" lon="20.3299">
    <comp name="--.HHN">
      <acc value="0.0087280718" flag="0"/>
      <vel value="0.0035426976" flag="0"/>
      <psa03 value="0.0196036239" flag="0"/>
      <psa10 value="0.0016895924" flag="0"/>
      <psa30 value="0.0001562544" flag="0"/>
    </comp>
    <comp name="--.HHE">
      <acc value="0.0086195868" flag="0"/>
      <vel value="0.0029113440" flag="0"/>
      <psa03 value="0.0110053381" flag="0"/>
      <psa10 value="0.0017525505" flag="0"/>
      <psa30 value="0.0002237611" flag="0"/>
    </comp>
    <comp name="--.HHZ">
      <acc value="0.0064406657" flag="0"/>
      <vel value="0.0025455077" flag="0"/>
      <psa03 value="0.0120977965" flag="0"/>
      <psa10 value="0.0022681700" flag="0"/>
      <psa30 value="0.0001151377" flag="0"/>
    </comp>
  </station>
  <station code="KPRO" name="KPRO" netid="HT" insttype="100" lat="39.9549" lon="21.3632">
    <comp name="--.HHE">
      <acc value="0.0025960965" flag="0"/>
      <vel value="0.0016900589" flag="0"/>
      <psa03 value="0.0070926843" flag="0"/>
      <psa10 value="0.0018150776" flag="0"/>
      <psa30 value="0.0000869365" flag="0"/>
    </comp>
    <comp name="--.HHZ">
      <acc value="0.0014174150" flag="0"/>
      <vel value="0.0008191877" flag="0"/>
      <psa03 value="0.0040912284" flag="0"/>
      <psa10 value="0.0008629807" flag="0"/>
      <psa30 value="0.0000485773" flag="0"/>
    </comp>
    <comp name="--.HHN">
      <acc value="0.0028897257" flag="0"/>
      <vel value="0.0014805998" flag="0"/>
      <psa03 value="0.0085982343" flag="0"/>
      <psa10 value="0.0016803289" flag="0"/>
      <psa30 value="0.0000977436" flag="0"/>
    </comp>
  </station>
  <station code="SCTE" name="SCTE" netid="IV" insttype="" lat="40.0724" lon="18.4675">
    <comp name="--.HHE">
      <acc value="0.0251725271" flag="0"/>
      <vel value="0.0071020874" flag="0"/>
      <psa03 value="0.0439457509" flag="0"/>
      <psa10 value="0.0027120371" flag="0"/>
      <psa30 value="0.0001564928" flag="0"/>
    </comp>
    <comp name="--.HHN">
      <acc value="0.0204708797" flag="0"/>
      <vel value="0.0054254144" flag="0"/>
      <psa03 value="0.0262482033" flag="0"/>
      <psa10 value="0.0011290094" flag="0"/>
      <psa30 value="0.0001342509" flag="0"/>
    </comp>
    <comp name="--.HHZ">
      <acc value="0.0164479639" flag="0"/>
      <vel value="0.0040150170" flag="0"/>
      <psa03 value="0.0239514753" flag="0"/>
      <psa10 value="0.0008319410" flag="0"/>
      <psa30 value="0.0000750705" flag="0"/>
    </comp>
  </station>
  <station code="KEK" name="KEK" netid="MN" insttype="" lat="39.7127" lon="19.7962">
    <comp name="--.HHE">
      <acc value="0.0524379902" flag="0"/>
      <vel value="0.0173683534" flag="0"/>
      <psa03 value="0.0548002851" flag="0"/>
      <psa10 value="0.0060972924" flag="0"/>
      <psa30 value="0.0003934355" flag="0"/>
    </comp>
    <comp name="--.HHN">
      <acc value="0.0352550972" flag="0"/>
      <vel value="0.0109974890" flag="0"/>
      <psa03 value="0.0654934647" flag="0"/>
      <psa10 value="0.0084958229" flag="0"/>
      <psa30 value="0.0004232505" flag="0"/>
    </comp>
    <comp name="--.HHZ">
      <acc value="0.0259905141" flag="0"/>
      <vel value="0.0128135479" flag="0"/>
      <psa03 value="0.0549545880" flag="0"/>
      <psa10 value="0.0095836462" flag="0"/>
      <psa30 value="0.0004541841" flag="0"/>
    </comp>
  </station>
</stationlist>
