<stationlist created="1778135930">
	<station code="KRK1" name="KRK1" netid="HI" source="ITSAK Strong Motion Network" insttype="" lat="39.618861" lon="19.9202">
		<comp name="--.HNE" depth="0.0">
			<acc value="0.112919908419481" flag="0"/>
			<vel value="0.0395085272589654" flag="0"/>
			<psa03 value="0.125725600597344" flag="0"/>
			<psa10 value="0.00859721500170092" flag="0"/>
			<psa30 value="0.000589702283228822" flag="0"/>
		</comp>
		<comp name="--.HNN" depth="0.0">
			<acc value="0.0797763084693068" flag="0"/>
			<vel value="0.0327194061151036" flag="0"/>
			<psa03 value="0.130602501118735" flag="0"/>
			<psa10 value="0.00721199628479922" flag="0"/>
			<psa30 value="0.000581648686037533" flag="0"/>
		</comp>
		<comp name="--.HNZ" depth="0.0">
			<acc value="0.0642916495055939" flag="0"/>
			<vel value="0.0157966917489697" flag="0"/>
			<psa03 value="0.100133058411692" flag="0"/>
			<psa10 value="0.00378519067990579" flag="0"/>
			<psa30 value="0.000464871526763843" flag="0"/>
		</comp>
	</station>
	<station code="VAS2" name="VAS2" netid="HI" source="ITSAK Strong Motion Network" insttype="" lat="38.630558" lon="20.608081">
		<comp name="--.HNE" depth="0.0">
			<acc value="0.00913808438871858" flag="0"/>
			<vel value="0.0054668191487906" flag="0"/>
			<psa03 value="0.0216104857966253" flag="0"/>
			<psa10 value="0.0117501983020905" flag="0"/>
			<psa30 value="0.000394178840306974" flag="0"/>
		</comp>
		<comp name="--.HNN" depth="0.0">
			<acc value="0.00886695694630666" flag="0"/>
			<vel value="0.00483576290870283" flag="0"/>
			<psa03 value="0.021073579317206" flag="0"/>
			<psa10 value="0.00743749700615531" flag="0"/>
			<psa30 value="0.000310958335996989" flag="0"/>
		</comp>
		<comp name="--.HNZ" depth="0.0">
			<acc value="0.00371527456979222" flag="0"/>
			<vel value="0.0027076162640693" flag="0"/>
			<psa03 value="0.0131989509523902" flag="0"/>
			<psa10 value="0.00306842052988108" flag="0"/>
			<psa30 value="0.000193286332590934" flag="0"/>
		</comp>
	</station>
	<station code="AMYA" name="AMYA" netid="HL" source="National Observatory of Athens Seismic Network" insttype="" lat="40.6901" lon="21.67899">
		<comp name="00.HNE" depth="0.0">
			<acc value="0.000573348252849775" flag="0"/>
			<vel value="0.000429690357829767" flag="0"/>
			<psa03 value="0.000286131462943134" flag="0"/>
			<psa10 value="0.000262445110309721" flag="0"/>
			<psa30 value="9.80023775931505e-05" flag="0"/>
		</comp>
		<comp name="00.HNN" depth="0.0">
			<acc value="0.000799800374130407" flag="0"/>
			<vel value="0.000419624369024076" flag="0"/>
			<psa03 value="0.000393100788719352" flag="0"/>
			<psa10 value="0.000243091967907552" flag="0"/>
			<psa30 value="0.000160818661259401" flag="0"/>
		</comp>
		<comp name="00.HNZ" depth="0.0">
			<acc value="0.00141569508789376" flag="0"/>
			<vel value="0.000284130517890151" flag="0"/>
			<psa03 value="0.000277857456985768" flag="0"/>
			<psa10 value="0.000227205900885341" flag="0"/>
			<psa30 value="8.82862066006977e-05" flag="0"/>
		</comp>
	</station>
	<station code="ARTB" name="ARTB" netid="HL" source="National Observatory of Athens Seismic Network" insttype="" lat="39.15702" lon="20.9785">
		<comp name="00.HNE" depth="0.0">
			<acc value="0.00854048116333765" flag="0"/>
			<vel value="0.00351844793206275" flag="0"/>
			<psa03 value="0.0222890728958447" flag="0"/>
			<psa10 value="0.00191535793775204" flag="0"/>
			<psa30 value="0.000132476327989802" flag="0"/>
		</comp>
		<comp name="00.HNN" depth="0.0">
			<acc value="0.0137259450273742" flag="0"/>
			<vel value="0.00439971294618916" flag="0"/>
			<psa03 value="0.0304048657356288" flag="0"/>
			<psa10 value="0.00485763398192615" flag="0"/>
			<psa30 value="0.000269805894149684" flag="0"/>
		</comp>
		<comp name="00.HNZ" depth="0.0">
			<acc value="0.0326987530960087" flag="0"/>
			<vel value="0.00471379893388763" flag="0"/>
			<psa03 value="0.00644876834506606" flag="0"/>
			<psa10 value="0.00345965621649724" flag="0"/>
			<psa30 value="0.000235302384503272" flag="0"/>
		</comp>
	</station>
	<station code="JAN" name="JAN" netid="HL" source="National Observatory of Athens Seismic Network" insttype="" lat="39.65616" lon="20.84874">
		<comp name="00.HNE" depth="0.0">
			<acc value="0.0102129867379343" flag="0"/>
			<vel value="0.00450706428226806" flag="0"/>
			<psa03 value="0.0231764630282648" flag="0"/>
			<psa10 value="0.0030523133354985" flag="0"/>
			<psa30 value="0.000246082136400495" flag="0"/>
		</comp>
		<comp name="00.HNN" depth="0.0">
			<acc value="0.0119133196331779" flag="0"/>
			<vel value="0.005009821752789" flag="0"/>
			<psa03 value="0.0402232437498263" flag="0"/>
			<psa10 value="0.00308452772426365" flag="0"/>
			<psa30 value="0.000282323323761295" flag="0"/>
		</comp>
		<comp name="00.HNZ" depth="0.0">
			<acc value="0.00512277396485414" flag="0"/>
			<vel value="0.00201782165581097" flag="0"/>
			<psa03 value="0.0108276140016218" flag="0"/>
			<psa10 value="0.00136911152251912" flag="0"/>
			<psa30 value="0.000171362651347981" flag="0"/>
		</comp>
	</station>
	<station code="NASA" name="NASA" netid="HL" source="National Observatory of Athens Seismic Network" insttype="" lat="40.63111" lon="22.06706">
		<comp name="00.HNE" depth="0.0">
			<acc value="0.00154801557884574" flag="0"/>
			<vel value="0.000900314624094291" flag="0"/>
			<psa03 value="0.00288051601536264" flag="0"/>
			<psa10 value="0.00112363783392917" flag="0"/>
			<psa30 value="0.000172739711387487" flag="0"/>
		</comp>
		<comp name="00.HNN" depth="0.0">
			<acc value="0.00148525688138603" flag="0"/>
			<vel value="0.000933513199601669" flag="0"/>
			<psa03 value="0.00354385292692601" flag="0"/>
			<psa10 value="0.00102199789765807" flag="0"/>
			<psa30 value="0.000147921595954813" flag="0"/>
		</comp>
		<comp name="00.HNZ" depth="0.0">
			<acc value="0.0012635622382781" flag="0"/>
			<vel value="0.000609354877854668" flag="0"/>
			<psa03 value="0.0029232857757304" flag="0"/>
			<psa10 value="0.00099083509108595" flag="0"/>
			<psa30 value="0.000131698294678062" flag="0"/>
		</comp>
	</station>
	<station code="PRGA" name="PRGA" netid="HL" source="National Observatory of Athens Seismic Network" insttype="" lat="39.28557" lon="20.40157">
		<comp name="00.HNE" depth="0.0">
			<acc value="0.0241451898846144" flag="0"/>
			<vel value="0.00870651699098981" flag="0"/>
			<psa03 value="0.0654147344465995" flag="0"/>
			<psa10 value="0.00355023385744344" flag="0"/>
			<psa30 value="0.000293614554690019" flag="0"/>
		</comp>
		<comp name="00.HNN" depth="0.0">
			<acc value="0.0195446769530481" flag="0"/>
			<vel value="0.00665445446503908" flag="0"/>
			<psa03 value="0.0482604991047311" flag="0"/>
			<psa10 value="0.00325934185290191" flag="0"/>
			<psa30 value="0.000234569705758334" flag="0"/>
		</comp>
		<comp name="00.HNZ" depth="0.0">
			<acc value="0.00504905319439061" flag="0"/>
			<vel value="0.00170710324090823" flag="0"/>
			<psa03 value="0.00778147707320851" flag="0"/>
			<psa10 value="0.000860660569225186" flag="0"/>
			<psa30 value="0.000132141657382271" flag="0"/>
		</comp>
	</station>
	<station code="SOFA" name="SOFA" netid="HL" source="National Observatory of Athens Seismic Network" insttype="" lat="39.33773" lon="22.09691">
		<comp name="00.HNE" depth="0.0">
			<acc value="0.00128364099539695" flag="0"/>
			<vel value="0.00111797455407125" flag="0"/>
			<psa03 value="0.00390485861261689" flag="0"/>
			<psa10 value="0.00152518337966438" flag="0"/>
			<psa30 value="0.000161346860312578" flag="0"/>
		</comp>
		<comp name="00.HNN" depth="0.0">
			<acc value="0.00194515285580151" flag="0"/>
			<vel value="0.00127900029357721" flag="0"/>
			<psa03 value="0.00424616507665761" flag="0"/>
			<psa10 value="0.00125141805655529" flag="0"/>
			<psa30 value="0.000188602129382169" flag="0"/>
		</comp>
		<comp name="00.HNZ" depth="0.0">
			<acc value="0.00316716347331459" flag="0"/>
			<vel value="0.000642077218742342" flag="0"/>
			<psa03 value="0.0014712978243314" flag="0"/>
			<psa10 value="0.000867038921448797" flag="0"/>
			<psa30 value="0.000145716892612205" flag="0"/>
		</comp>
	</station>
	<station code="TRKA" name="TRKA" netid="HL" source="National Observatory of Athens Seismic Network" insttype="" lat="39.55381" lon="21.76624">
		<comp name="00.HNE" depth="0.0">
			<acc value="0.00183125783814898" flag="0"/>
			<vel value="0.0015926316980902" flag="0"/>
			<psa03 value="0.00686762226395903" flag="0"/>
			<psa10 value="0.00400515094659473" flag="0"/>
			<psa30 value="0.000176395396266661" flag="0"/>
		</comp>
		<comp name="00.HNN" depth="0.0">
			<acc value="0.00176297550456954" flag="0"/>
			<vel value="0.00107150046172688" flag="0"/>
			<psa03 value="0.00595960117452297" flag="0"/>
			<psa10 value="0.00221853962361277" flag="0"/>
			<psa30 value="0.000143691862630568" flag="0"/>
		</comp>
		<comp name="00.HNZ" depth="0.0">
			<acc value="0.00138671261375167" flag="0"/>
			<vel value="0.000875908640803629" flag="0"/>
			<psa03 value="0.00452207104940569" flag="0"/>
			<psa10 value="0.00088980040975218" flag="0"/>
			<psa30 value="8.42791182343019e-05" flag="0"/>
		</comp>
	</station>
	<station code="MESG" name="MESG" netid="IV" source="Italian National Seismic Network (INSN)" insttype="" lat="40.589408" lon="17.850423">
		<comp name="--.HNE" depth="0.0">
			<acc value="0.00853799274162776" flag="0"/>
			<vel value="0.00209843092052463" flag="0"/>
			<psa03 value="0.0108059144064858" flag="0"/>
			<psa10 value="0.00101091603072691" flag="0"/>
			<psa30 value="0.000112951102247927" flag="0"/>
		</comp>
		<comp name="--.HNN" depth="0.0">
			<acc value="0.00836962336612965" flag="0"/>
			<vel value="0.00212692641982306" flag="0"/>
			<psa03 value="0.0101200245686412" flag="0"/>
			<psa10 value="0.00081743098672716" flag="0"/>
			<psa30 value="0.00014948978577716" flag="0"/>
		</comp>
		<comp name="--.HNZ" depth="0.0">
			<acc value="0.00451739971405894" flag="0"/>
			<vel value="0.000999327253693507" flag="0"/>
			<psa03 value="0.00476257037970584" flag="0"/>
			<psa10 value="0.000526987019679077" flag="0"/>
			<psa30 value="0.000106796788304591" flag="0"/>
		</comp>
	</station>
</stationlist>
