<?xml version="1.0" encoding="UTF-8" standalone="yes"?>
<!DOCTYPE earthquake SYSTEM "stationlist.dtd">
<stationlist created="" xmlns="ch.ethz.sed.shakemap.usgs.xml">
  <station code="SAFT" name="SAFT" netid="KO" insttype="100" lat="41.2398" lon="32.6872">
    <comp name="--.HNN">
      <acc value="0.0661382774" flag="0"/>
      <vel value="0.0169745107" flag="0"/>
      <psa03 value="0.0806439112" flag="0"/>
      <psa10 value="0.0134660776" flag="0"/>
      <psa30 value="0.0037831475" flag="0"/>
    </comp>
    <comp name="--.HNZ">
      <acc value="0.0332388186" flag="0"/>
      <vel value="0.0117662684" flag="0"/>
      <psa03 value="0.0325036407" flag="0"/>
      <psa10 value="0.0254226597" flag="0"/>
      <psa30 value="0.0037677854" flag="0"/>
    </comp>
    <comp name="--.HNE">
      <acc value="0.0562126853" flag="0"/>
      <vel value="0.0168888299" flag="0"/>
      <psa03 value="0.0746210555" flag="0"/>
      <psa10 value="0.0182499409" flag="0"/>
      <psa30 value="0.0028332243" flag="0"/>
    </comp>
  </station>
  <station code="YUVA" name="YUVA" netid="KO" insttype="100" lat="40.391" lon="31.6872">
    <comp name="--.HNE">
      <acc value="0.0632756865" flag="0"/>
      <vel value="0.0437636743" flag="0"/>
      <psa03 value="0.1983768307" flag="0"/>
      <psa10 value="0.0330745657" flag="0"/>
      <psa30 value="0.0047637306" flag="0"/>
    </comp>
    <comp name="--.HNN">
      <acc value="0.0625951814" flag="0"/>
      <vel value="0.0383682279" flag="0"/>
      <psa03 value="0.1211395144" flag="0"/>
      <psa10 value="0.0367067501" flag="0"/>
      <psa30 value="0.0048494937" flag="0"/>
    </comp>
    <comp name="--.HNZ">
      <acc value="0.0486077962" flag="0"/>
      <vel value="0.0295882249" flag="0"/>
      <psa03 value="0.2221575068" flag="0"/>
      <psa10 value="0.0281917696" flag="0"/>
      <psa30 value="0.0048487442" flag="0"/>
    </comp>
  </station>
</stationlist>
