<stationlist created="1778069672">
	<station code="KMON" name="KMON" netid="KO" source="Bogazici University Kandilli Observatory And Earthquake Research Institute (KOERI)" insttype="" lat="41.3738" lon="33.7839">
		<comp name="--.HNE" depth="0.0">
			<acc value="0.00653047479281948" flag="0"/>
			<vel value="0.00527024960832998" flag="0"/>
			<psa03 value="0.00953009000969188" flag="0"/>
			<psa10 value="0.0120481813981682" flag="0"/>
			<psa30 value="0.000757038135981158" flag="0"/>
		</comp>
		<comp name="--.HNN" depth="0.0">
			<acc value="0.00629863350028836" flag="0"/>
			<vel value="0.00677894036065388" flag="0"/>
			<psa03 value="0.0128857555060623" flag="0"/>
			<psa10 value="0.0134414537122612" flag="0"/>
			<psa30 value="0.00141116919674029" flag="0"/>
		</comp>
		<comp name="--.HNZ" depth="0.0">
			<acc value="0.00452666091278333" flag="0"/>
			<vel value="0.00461639577651602" flag="0"/>
			<psa03 value="0.00926163676998225" flag="0"/>
			<psa10 value="0.00700662955642136" flag="0"/>
			<psa30 value="0.00113242524950846" flag="0"/>
		</comp>
	</station>
	<station code="YUVA" name="YUVA" netid="KO" source="Bogazici University Kandilli Observatory And Earthquake Research Institute (KOERI)" insttype="" lat="40.391" lon="31.6872">
		<comp name="--.HNE" depth="0.0">
			<acc value="0.0635101614353348" flag="0"/>
			<vel value="0.0441295031439709" flag="0"/>
			<psa03 value="0.196149833814503" flag="0"/>
			<psa10 value="0.0330479360744541" flag="0"/>
			<psa30 value="0.00536101119700132" flag="0"/>
		</comp>
		<comp name="--.HNN" depth="0.0">
			<acc value="0.0623576830272613" flag="0"/>
			<vel value="0.0383936808385523" flag="0"/>
			<psa03 value="0.119506433877404" flag="0"/>
			<psa10 value="0.0366358136231733" flag="0"/>
			<psa30 value="0.00488808607304619" flag="0"/>
		</comp>
		<comp name="--.HNZ" depth="0.0">
			<acc value="0.0485860709275477" flag="0"/>
			<vel value="0.0295040850390442" flag="0"/>
			<psa03 value="0.224024228537687" flag="0"/>
			<psa10 value="0.0282640993428284" flag="0"/>
			<psa30 value="0.0054003843388254" flag="0"/>
		</comp>
	</station>
</stationlist>
