<?xml version="1.0" encoding="UTF-8" standalone="yes"?>
<!DOCTYPE earthquake SYSTEM "stationlist.dtd">
<stationlist created="" xmlns="ch.ethz.sed.shakemap.usgs.xml">
  <station code="KMRS" name="KMRS" netid="KO" insttype="CMG-3T" lat="37.5087" lon="36.9">
    <comp name="--.HHN">
      <acc value="0.0173718131" flag="0"/>
      <vel value="0.0058260815" flag="0"/>
      <psa03 value="0.0208195800" flag="0"/>
      <psa10 value="0.0042809800" flag="0"/>
      <psa30 value="0.0004627781" flag="0"/>
    </comp>
    <comp name="--.HHZ">
      <acc value="0.0051690672" flag="0"/>
      <vel value="0.0020759396" flag="0"/>
      <psa03 value="0.0104731535" flag="0"/>
      <psa10 value="0.0018744758" flag="0"/>
      <psa30 value="0.0002361683" flag="0"/>
    </comp>
    <comp name="--.HHE">
      <acc value="0.0051495477" flag="0"/>
      <vel value="0.0036066776" flag="0"/>
      <psa03 value="0.0082852856" flag="0"/>
      <psa10 value="0.0039977922" flag="0"/>
      <psa30 value="0.0004526317" flag="0"/>
    </comp>
  </station>
  <station code="SARI" name="SARI" netid="KO" insttype="CMG-3T" lat="38.4072" lon="36.4181">
    <comp name="--.HHE">
      <acc value="0.0566153395" flag="0"/>
      <vel value="0.0098993468" flag="0"/>
      <psa03 value="0.0453321337" flag="0"/>
      <psa10 value="0.0092797136" flag="0"/>
      <psa30 value="0.0003023020" flag="0"/>
    </comp>
  </station>
  <station code="ANDN" name="ANDN" netid="TU" insttype="T" lat="37.58" lon="36.3452">
    <comp name="--.HHN">
      <acc value="0.0333916497" flag="0"/>
      <vel value="0.0181833908" flag="0"/>
      <psa03 value="0.0351697149" flag="0"/>
      <psa10 value="0.0376948245" flag="0"/>
      <psa30 value="0.0021197884" flag="0"/>
    </comp>
    <comp name="--.HHZ">
      <acc value="0.0131979668" flag="0"/>
      <vel value="0.0132179693" flag="0"/>
      <psa03 value="0.0173416025" flag="0"/>
      <psa10 value="0.0188751607" flag="0"/>
      <psa30 value="0.0019004138" flag="0"/>
    </comp>
    <comp name="--.HHE">
      <acc value="0.0152257783" flag="0"/>
      <vel value="0.0148831221" flag="0"/>
      <psa03 value="0.0287387707" flag="0"/>
      <psa10 value="0.0301270084" flag="0"/>
      <psa30 value="0.0028134901" flag="0"/>
    </comp>
  </station>
</stationlist>
