<?xml version="1.0" encoding="UTF-8" standalone="yes"?>
<!DOCTYPE earthquake SYSTEM "stationlist.dtd">
<stationlist created="" xmlns="ch.ethz.sed.shakemap.usgs.xml">
  <station code="ALAN" name="ALAN" netid="KO" insttype="CMG-5T" commtype="DIG" lat="36.557" lon="32.0327">
    <comp name="--.HNE">
      <acc value="0.0129299896" flag="0"/>
      <vel value="0.0049237915" flag="0"/>
      <psa03 value="0.0195056329" flag="0"/>
      <psa10 value="0.0026004142" flag="0"/>
      <psa30 value="0.0006380647" flag="0"/>
    </comp>
    <comp name="--.HNN">
      <acc value="0.0124643630" flag="0"/>
      <vel value="0.0052447351" flag="0"/>
      <psa03 value="0.0291453231" flag="0"/>
      <psa10 value="0.0036876236" flag="0"/>
      <psa30 value="0.0005650798" flag="0"/>
    </comp>
    <comp name="--.HNZ">
      <acc value="0.0134406099" flag="0"/>
      <vel value="0.0022606481" flag="0"/>
      <psa03 value="0.0054316657" flag="0"/>
      <psa10 value="0.0014508170" flag="0"/>
      <psa30 value="0.0005585202" flag="0"/>
    </comp>
  </station>
</stationlist>
