<stationlist created="1778136860">
	<station code="S2119" name="S2119" netid="S2" source="IceSMN Icelandic Strong Motion Network (IceSMN)" insttype="" lat="64.1301" lon="-20.32">
		<comp name="00.HN1" depth="0.0">
			<acc value="0.0104780051386075" flag="0"/>
			<vel value="0.0414831734473061" flag="0"/>
			<psa03 value="0.0220060098734764" flag="0"/>
			<psa10 value="0.0172418065600594" flag="0"/>
			<psa30 value="0.0250901070964605" flag="0"/>
		</comp>
		<comp name="00.HN2" depth="0.0">
			<acc value="0.011352974247068" flag="0"/>
			<vel value="0.0502994365208749" flag="0"/>
			<psa03 value="0.0221048158980843" flag="0"/>
			<psa10 value="0.0185241908867244" flag="0"/>
			<psa30 value="0.0491393485738378" flag="0"/>
		</comp>
		<comp name="00.HNZ" depth="0.0">
			<acc value="0.0117564548141594" flag="0"/>
			<vel value="0.0450273403416224" flag="0"/>
			<psa03 value="0.0117476519222182" flag="0"/>
			<psa10 value="0.0158085853662015" flag="0"/>
			<psa30 value="0.0380151183150252" flag="0"/>
		</comp>
	</station>
	<station code="S2604" name="S2604" netid="S2" source="IceSMN Icelandic Strong Motion Network (IceSMN)" insttype="" lat="63.9843" lon="-21.6486">
		<comp name="00.HN1" depth="0.0">
			<acc value="0.013669398525547" flag="0"/>
			<vel value="0.0702258969788925" flag="0"/>
			<psa03 value="0.013775103939274" flag="0"/>
			<psa10 value="0.0209748357299448" flag="0"/>
			<psa30 value="0.0348118194455203" flag="0"/>
		</comp>
		<comp name="00.HN2" depth="0.0">
			<acc value="0.0158726501527756" flag="0"/>
			<vel value="0.0686156819038355" flag="0"/>
			<psa03 value="0.0159078142312881" flag="0"/>
			<psa10 value="0.021865686619421" flag="0"/>
			<psa30 value="0.0744897945832353" flag="0"/>
		</comp>
		<comp name="00.HNZ" depth="0.0">
			<acc value="0.017447510477463" flag="0"/>
			<vel value="0.080693671686541" flag="0"/>
			<psa03 value="0.0177422860164723" flag="0"/>
			<psa10 value="0.0198100029404869" flag="0"/>
			<psa30 value="0.0732090830758826" flag="0"/>
		</comp>
	</station>
</stationlist>
