<?xml version="1.0" encoding="UTF-8" standalone="yes"?>
<!DOCTYPE earthquake SYSTEM "stationlist.dtd">
<stationlist created="" xmlns="ch.ethz.sed.shakemap.usgs.xml">
  <station code="ADA" name="ADA" netid="VI" source="ODC" insttype="CMG-3ESP" lat="65.0188" lon="-15.5745">
    <comp name="--.HHE">
      <acc value="0.0108667981" flag="0"/>
      <vel value="0.0348917445" flag="0"/>
      <psa03 value="0.0171550662" flag="0"/>
      <psa10 value="0.0282264405" flag="0"/>
      <psa30 value="0.0252162247" flag="0"/>
    </comp>
    <comp name="--.HHN">
      <acc value="0.0073529873" flag="0"/>
      <vel value="0.0244650972" flag="0"/>
      <psa03 value="0.0111001923" flag="0"/>
      <psa10 value="0.0196264300" flag="0"/>
      <psa30 value="0.0142714107" flag="0"/>
    </comp>
    <comp name="--.HHZ">
      <acc value="0.0083386163" flag="0"/>
      <vel value="0.0359107844" flag="0"/>
      <psa03 value="0.0092097182" flag="0"/>
      <psa10 value="0.0222183105" flag="0"/>
      <psa30 value="0.0263225090" flag="0"/>
    </comp>
  </station>
  <station code="FAG" name="FAG" netid="VI" source="ODC" insttype="CMG-3T" lat="63.8748" lon="-16.6536">
    <comp name="--.HHE">
      <acc value="0.0133076884" flag="0"/>
      <vel value="0.0585965995" flag="0"/>
      <psa03 value="0.0134507316" flag="0"/>
      <psa10 value="0.0159700996" flag="0"/>
      <psa30 value="0.0382268523" flag="0"/>
    </comp>
    <comp name="--.HHN">
      <acc value="0.0074577602" flag="0"/>
      <vel value="0.0268303218" flag="0"/>
      <psa03 value="0.0106911454" flag="0"/>
      <psa10 value="0.0158058534" flag="0"/>
      <psa30 value="0.0197184333" flag="0"/>
    </comp>
    <comp name="--.HHZ">
      <acc value="0.0080600370" flag="0"/>
      <vel value="0.0257316719" flag="0"/>
      <psa03 value="0.0101736623" flag="0"/>
      <psa10 value="0.0131621581" flag="0"/>
      <psa30 value="0.0108406307" flag="0"/>
    </comp>
  </station>
  <station code="GOD" name="GOD" netid="VI" source="ODC" insttype="CMG-3ESP" lat="63.6598" lon="-19.3224">
    <comp name="--.HHZ">
      <acc value="0.0173646808" flag="0"/>
      <vel value="0.0692828599" flag="0"/>
      <psa03 value="0.0181641692" flag="0"/>
      <psa10 value="0.0324600199" flag="0"/>
      <psa30 value="0.0594084663" flag="0"/>
    </comp>
    <comp name="--.HHE">
      <acc value="6698.4572430743" flag="0"/>
      <vel value="285.8780750432" flag="0"/>
      <psa03 value="987.6376210840" flag="0"/>
      <psa10 value="97.4270664979" flag="0"/>
      <psa30 value="7.7583231570" flag="0"/>
    </comp>
    <comp name="--.HHN">
      <acc value="0.0269651905" flag="0"/>
      <vel value="0.1288028771" flag="0"/>
      <psa03 value="0.0270276318" flag="0"/>
      <psa10 value="0.0523057716" flag="0"/>
      <psa30 value="0.1122808834" flag="0"/>
    </comp>
  </station>
  <station code="SKR" name="SKR" netid="VI" source="ODC" insttype="LE-3D/5s" lat="64.5601" lon="-18.3865">
    <comp name="--.HHE">
      <acc value="0.6602706229" flag="0"/>
      <vel value="2.1992673503" flag="0"/>
      <psa03 value="0.6877232106" flag="0"/>
      <psa10 value="1.0448622797" flag="0"/>
      <psa30 value="1.2093212441" flag="0"/>
    </comp>
    <comp name="--.HHN">
      <acc value="0.5490090596" flag="0"/>
      <vel value="2.0444970246" flag="0"/>
      <psa03 value="0.5632961997" flag="0"/>
      <psa10 value="0.7726690086" flag="0"/>
      <psa30 value="0.9912604296" flag="0"/>
    </comp>
    <comp name="--.HHZ">
      <acc value="0.3736065494" flag="0"/>
      <vel value="1.2442387403" flag="0"/>
      <psa03 value="0.3927675676" flag="0"/>
      <psa10 value="0.7349965234" flag="0"/>
      <psa30 value="1.1360678799" flag="0"/>
    </comp>
  </station>
</stationlist>
