<?xml version="1.0" encoding="UTF-8" standalone="yes"?>
<!DOCTYPE earthquake SYSTEM "stationlist.dtd">
<stationlist created="" xmlns="ch.ethz.sed.shakemap.usgs.xml">
  <station code="GAZ" name="GAZ" netid="KO" insttype="CMG-3T" commtype="DIG" lat="37.1721" lon="37.2096">
    <comp name="--.HHN">
      <acc value="0.2872717672" flag="0"/>
      <vel value="0.1259581068" flag="0"/>
      <psa03 value="0.5434963948" flag="0"/>
      <psa10 value="0.0944822295" flag="0"/>
      <psa30 value="0.0178765026" flag="0"/>
    </comp>
    <comp name="--.HHE">
      <acc value="0.3112009509" flag="0"/>
      <vel value="0.1163983489" flag="0"/>
      <psa03 value="0.5470121510" flag="0"/>
      <psa10 value="0.1256932572" flag="0"/>
      <psa30 value="0.0203761075" flag="0"/>
    </comp>
    <comp name="--.HHZ">
      <acc value="0.1672785133" flag="0"/>
      <vel value="0.1019758521" flag="0"/>
      <psa03 value="0.2954137730" flag="0"/>
      <psa10 value="0.0679492340" flag="0"/>
      <psa30 value="0.0289190810" flag="0"/>
    </comp>
  </station>
  <station code="KHMN" name="KHMN" netid="KO" insttype="CMG-5T" commtype="DIG" lat="37.3916" lon="37.1574">
    <comp name="--.HNN">
      <acc value="0.1738826597" flag="0"/>
      <vel value="0.0542972185" flag="0"/>
      <psa03 value="0.2853347959" flag="0"/>
      <psa10 value="0.0402176134" flag="0"/>
      <psa30 value="0.0141733918" flag="0"/>
    </comp>
    <comp name="--.HNE">
      <acc value="0.1828182714" flag="0"/>
      <vel value="0.0578510231" flag="0"/>
      <psa03 value="0.3404705523" flag="0"/>
      <psa10 value="0.0296800933" flag="0"/>
      <psa30 value="0.0102493255" flag="0"/>
    </comp>
    <comp name="--.HNZ">
      <acc value="0.1374317237" flag="0"/>
      <vel value="0.0499605720" flag="0"/>
      <psa03 value="0.2086267864" flag="0"/>
      <psa10 value="0.0400131679" flag="0"/>
      <psa30 value="0.0081739017" flag="0"/>
    </comp>
  </station>
  <station code="KOZT" name="KOZT" netid="KO" insttype="CMG-3T" commtype="DIG" lat="37.4795" lon="35.8264">
    <comp name="--.HHZ">
      <acc value="0.0146632801" flag="0"/>
      <vel value="0.0098796319" flag="0"/>
      <psa03 value="0.0512171438" flag="0"/>
      <psa10 value="0.0062717017" flag="0"/>
      <psa30 value="0.0022802171" flag="0"/>
    </comp>
    <comp name="--.HHE">
      <acc value="0.0219143555" flag="0"/>
      <vel value="0.0184389929" flag="0"/>
      <psa03 value="0.0789215568" flag="0"/>
      <psa10 value="0.0144668625" flag="0"/>
      <psa30 value="0.0020680513" flag="0"/>
    </comp>
    <comp name="--.HHN">
      <acc value="0.0277172285" flag="0"/>
      <vel value="0.0116060933" flag="0"/>
      <psa03 value="0.0791258833" flag="0"/>
      <psa10 value="0.0100329069" flag="0"/>
      <psa30 value="0.0019172747" flag="0"/>
    </comp>
  </station>
  <station code="NURH" name="NURH" netid="KO" insttype="CMG-6T" commtype="DIG" lat="37.9693" lon="37.4363">
    <comp name="--.HHE">
      <acc value="0.0607271161" flag="0"/>
      <vel value="0.0343512068" flag="0"/>
      <psa03 value="0.2209688349" flag="0"/>
      <psa10 value="0.0186381791" flag="0"/>
      <psa30 value="0.0015729026" flag="0"/>
    </comp>
    <comp name="--.HHZ">
      <acc value="0.0414361957" flag="0"/>
      <vel value="0.0224163687" flag="0"/>
      <psa03 value="0.1312646674" flag="0"/>
      <psa10 value="0.0150758285" flag="0"/>
      <psa30 value="0.0010761570" flag="0"/>
    </comp>
    <comp name="--.HHN">
      <acc value="0.1017280404" flag="0"/>
      <vel value="0.0414081301" flag="0"/>
      <psa03 value="0.3294049436" flag="0"/>
      <psa10 value="0.0135044828" flag="0"/>
      <psa30 value="0.0012973218" flag="0"/>
    </comp>
  </station>
  <station code="TAHT" name="TAHT" netid="KO" insttype="CMG-3ESPC" commtype="DIG" lat="36.3755" lon="36.1855">
    <comp name="--.HHZ">
      <acc value="0.1905019478" flag="0"/>
      <vel value="0.0644263155" flag="0"/>
      <psa03 value="0.3170812371" flag="0"/>
      <psa10 value="0.0849818702" flag="0"/>
      <psa30 value="0.0048620123" flag="0"/>
    </comp>
    <comp name="--.HHN">
      <acc value="0.2501587937" flag="0"/>
      <vel value="0.0959769921" flag="0"/>
      <psa03 value="0.5177860845" flag="0"/>
      <psa10 value="0.1128230711" flag="0"/>
      <psa30 value="0.0065629578" flag="0"/>
    </comp>
    <comp name="--.HHE">
      <acc value="0.4214762901" flag="0"/>
      <vel value="0.2154809411" flag="0"/>
      <psa03 value="0.5946428020" flag="0"/>
      <psa10 value="0.1269644312" flag="0"/>
      <psa30 value="0.0083960560" flag="0"/>
    </comp>
  </station>
  <station code="ANDN" name="ANDN" netid="TU" insttype="T" commtype="DIG" lat="37.58" lon="36.3452">
    <comp name="--.HHN">
      <acc value="0.2197191196" flag="0"/>
      <vel value="0.0615722347" flag="0"/>
      <psa03 value="0.4975394391" flag="0"/>
      <psa10 value="0.0384695308" flag="0"/>
      <psa30 value="0.0069271673" flag="0"/>
    </comp>
    <comp name="--.HHE">
      <acc value="0.1394887558" flag="0"/>
      <vel value="0.0462741888" flag="0"/>
      <psa03 value="0.2072610159" flag="0"/>
      <psa10 value="0.0502241857" flag="0"/>
      <psa30 value="0.0071517715" flag="0"/>
    </comp>
    <comp name="--.HHZ">
      <acc value="0.0877742578" flag="0"/>
      <vel value="0.0338308342" flag="0"/>
      <psa03 value="0.2156985075" flag="0"/>
      <psa10 value="0.0182011674" flag="0"/>
      <psa30 value="0.0121490067" flag="0"/>
    </comp>
  </station>
</stationlist>
