<?xml version="1.0" encoding="UTF-8" standalone="yes"?>
<!DOCTYPE earthquake SYSTEM "stationlist.dtd">
<stationlist created="" xmlns="ch.ethz.sed.shakemap.usgs.xml">
  <station code="BNN" name="BNN" netid="KO" insttype="CMG-3T" lat="38.8521" lon="35.8472">
    <comp name="--.HHE">
      <acc value="0.0182362099" flag="0"/>
      <vel value="0.0110190291" flag="0"/>
      <psa03 value="0.0332536236" flag="0"/>
      <psa10 value="0.0160387022" flag="0"/>
      <psa30 value="0.0035007695" flag="0"/>
    </comp>
    <comp name="--.HHZ">
      <acc value="0.0119300547" flag="0"/>
      <vel value="0.0053661874" flag="0"/>
      <psa03 value="0.0298302448" flag="0"/>
      <psa10 value="0.0083309712" flag="0"/>
      <psa30 value="0.0037463662" flag="0"/>
    </comp>
    <comp name="--.HHN">
      <acc value="0.0177356034" flag="0"/>
      <vel value="0.0100227657" flag="0"/>
      <psa03 value="0.0700795504" flag="0"/>
      <psa10 value="0.0129488515" flag="0"/>
      <psa30 value="0.0027202531" flag="0"/>
    </comp>
  </station>
  <station code="DARE" name="DARE" netid="KO" insttype="CMG-3ESP" lat="38.5712" lon="37.4832">
    <comp name="--.HHN">
      <acc value="0.0354882938" flag="0"/>
      <vel value="0.0216665895" flag="0"/>
      <psa03 value="0.0991179304" flag="0"/>
      <psa10 value="0.0304625714" flag="0"/>
      <psa30 value="0.0065740173" flag="0"/>
    </comp>
    <comp name="--.HHZ">
      <acc value="0.0336970344" flag="0"/>
      <vel value="0.0218215963" flag="0"/>
      <psa03 value="0.0853026664" flag="0"/>
      <psa10 value="0.0325818373" flag="0"/>
      <psa30 value="0.0071603434" flag="0"/>
    </comp>
  </station>
  <station code="GAZ" name="GAZ" netid="KO" insttype="CMG-3T" lat="37.1721" lon="37.2096">
    <comp name="--.HHE">
      <acc value="0.0201822536" flag="0"/>
      <vel value="0.0150843803" flag="0"/>
      <psa03 value="0.0544374725" flag="0"/>
      <psa10 value="0.0293874159" flag="0"/>
      <psa30 value="0.0040564200" flag="0"/>
    </comp>
    <comp name="--.HHZ">
      <acc value="0.0218021458" flag="0"/>
      <vel value="0.0118811324" flag="0"/>
      <psa03 value="0.0365600984" flag="0"/>
      <psa10 value="0.0183138869" flag="0"/>
      <psa30 value="0.0029713094" flag="0"/>
    </comp>
    <comp name="--.HHN">
      <acc value="0.0179722853" flag="0"/>
      <vel value="0.0132496740" flag="0"/>
      <psa03 value="0.0500437336" flag="0"/>
      <psa10 value="0.0298282617" flag="0"/>
      <psa30 value="0.0024853994" flag="0"/>
    </comp>
  </station>
  <station code="KMRS" name="KMRS" netid="KO" insttype="CMG-3T" lat="37.5053" lon="36.9">
    <comp name="--.HHE">
      <acc value="0.0292438422" flag="0"/>
      <vel value="0.0235074901" flag="0"/>
      <psa03 value="0.0601639675" flag="0"/>
      <psa10 value="0.0431105196" flag="0"/>
      <psa30 value="0.0085904994" flag="0"/>
    </comp>
    <comp name="--.HHN">
      <acc value="0.0418290155" flag="0"/>
      <vel value="0.0258939879" flag="0"/>
      <psa03 value="0.0857683513" flag="0"/>
      <psa10 value="0.0277055254" flag="0"/>
      <psa30 value="0.0081274697" flag="0"/>
    </comp>
    <comp name="--.HHZ">
      <acc value="0.0179665545" flag="0"/>
      <vel value="0.0240362293" flag="0"/>
      <psa03 value="0.0373635389" flag="0"/>
      <psa10 value="0.0395021464" flag="0"/>
      <psa30 value="0.0069882814" flag="0"/>
    </comp>
  </station>
  <station code="SARI" name="SARI" netid="KO" insttype="CMG-3T" lat="38.4072" lon="36.4181">
    <comp name="--.HHE">
      <acc value="0.1000116559" flag="0"/>
      <vel value="0.0427551255" flag="0"/>
      <psa03 value="0.3285030244" flag="0"/>
      <psa10 value="0.0446387545" flag="0"/>
      <psa30 value="0.0053078742" flag="0"/>
    </comp>
    <comp name="--.HHZ">
      <acc value="0.0858432815" flag="0"/>
      <vel value="0.0352211766" flag="0"/>
      <psa03 value="0.2074178413" flag="0"/>
      <psa10 value="0.0341343954" flag="0"/>
      <psa30 value="0.0110225308" flag="0"/>
    </comp>
    <comp name="--.HHN">
      <acc value="0.0952780249" flag="0"/>
      <vel value="0.0437785021" flag="0"/>
      <psa03 value="0.2189126986" flag="0"/>
      <psa10 value="0.0536775965" flag="0"/>
      <psa30 value="0.0115377738" flag="0"/>
    </comp>
  </station>
  <station code="ANDN" name="ANDN" netid="TU" insttype="T" lat="37.58" lon="36.3452">
    <comp name="--.HHE">
      <acc value="0.0885796071" flag="0"/>
      <vel value="0.0486123214" flag="0"/>
      <psa03 value="0.2127783664" flag="0"/>
      <psa10 value="0.0667158260" flag="0"/>
      <psa30 value="0.0098314994" flag="0"/>
    </comp>
    <comp name="--.HHZ">
      <acc value="0.0520761518" flag="0"/>
      <vel value="0.0460240402" flag="0"/>
      <psa03 value="0.1127322584" flag="0"/>
      <psa10 value="0.0820166366" flag="0"/>
      <psa30 value="0.0110320975" flag="0"/>
    </comp>
    <comp name="--.HHN">
      <acc value="0.0955867142" flag="0"/>
      <vel value="0.0584129968" flag="0"/>
      <psa03 value="0.3217510945" flag="0"/>
      <psa10 value="0.0879485431" flag="0"/>
      <psa30 value="0.0109315983" flag="0"/>
    </comp>
  </station>
</stationlist>
