<stationlist xmlns:esm="https://esm-db.eu/esmws/shakemap/1/" created="1784339626">
	<station code="BLY" name="BLY" netid="MN" source="Mediterranean Very Broadband Seismographic Network (MedNet)" insttype="" lat="44.7488" lon="17.1839" esm:processing="manual (Paolucci et al 2011)" esm:quality="best">
		<comp name="--.HNE" depth="1.0">
			<acc value="0.00634400982891135" flag="0"/>
			<vel value="0.00444503734112778" flag="0"/>
			<psa03 value="0.014988639217121" flag="0"/>
			<psa10 value="0.00360801154169743" flag="0"/>
			<psa30 value="0.000263531596981621" flag="0"/>
		</comp>
		<comp name="--.HNN" depth="1.0">
			<acc value="0.00385319457134616" flag="0"/>
			<vel value="0.00242802708731536" flag="0"/>
			<psa03 value="0.00720349526554175" flag="0"/>
			<psa10 value="0.00309258132145494" flag="0"/>
			<psa30 value="0.000341830458563596" flag="0"/>
		</comp>
		<comp name="--.HNZ" depth="1.0">
			<acc value="0.00428451332024393" flag="0"/>
			<vel value="0.00224853631300245" flag="0"/>
			<psa03 value="0.00944060559645534" flag="0"/>
			<psa10 value="0.00185232735399645" flag="0"/>
			<psa30 value="0.000357042808813809" flag="0"/>
		</comp>
	</station>
	<station code="BOJS" name="BOJS" netid="SL" source="Seismic Network of the Republic of Slovenia (SNRS)" insttype="" lat="45.5043" lon="15.2518" esm:processing="manual (Paolucci et al 2011)" esm:quality="best">
		<comp name="--.HNE" depth="0.0">
			<acc value="0.0172740731042645" flag="0"/>
			<vel value="0.00411641438876141" flag="0"/>
			<psa03 value="0.0235091875766508" flag="0"/>
			<psa10 value="0.00198373820979664" flag="0"/>
			<psa30 value="0.000170809297048628" flag="0"/>
		</comp>
		<comp name="--.HNN" depth="0.0">
			<acc value="0.0196453369294104" flag="0"/>
			<vel value="0.00464484401499376" flag="0"/>
			<psa03 value="0.0201638631007271" flag="0"/>
			<psa10 value="0.00258068095744973" flag="0"/>
			<psa30 value="0.000131224812791484" flag="0"/>
		</comp>
		<comp name="--.HNZ" depth="0.0">
			<acc value="0.0135752331739229" flag="0"/>
			<vel value="0.00284937833753146" flag="0"/>
			<psa03 value="0.0170357743697822" flag="0"/>
			<psa10 value="0.00198757494833476" flag="0"/>
			<psa30 value="0.000112336751654435" flag="0"/>
		</comp>
	</station>
	<station code="CADS" name="CADS" netid="SL" source="Seismic Network of the Republic of Slovenia (SNRS)" insttype="" lat="46.2281" lon="13.7368" esm:processing="manual (Paolucci et al 2011)" esm:quality="best">
		<comp name="--.HNE" depth="0.0">
			<acc value="0.00313181243065329" flag="0"/>
			<vel value="0.00102895980890234" flag="0"/>
			<psa03 value="0.00544854062658871" flag="0"/>
			<psa10 value="0.000946465022880455" flag="0"/>
			<psa30 value="6.20300011103876e-05" flag="0"/>
		</comp>
		<comp name="--.HNN" depth="0.0">
			<acc value="0.00250207991424932" flag="0"/>
			<vel value="0.00139335017204769" flag="0"/>
			<psa03 value="0.00644644722779707" flag="0"/>
			<psa10 value="0.00117256134831078" flag="0"/>
			<psa30 value="6.30603948896576e-05" flag="0"/>
		</comp>
		<comp name="--.HNZ" depth="0.0">
			<acc value="0.00145495550172465" flag="0"/>
			<vel value="0.000747968106636755" flag="0"/>
			<psa03 value="0.00458741977945514" flag="0"/>
			<psa10 value="0.00122442587783146" flag="0"/>
			<psa30 value="3.53316471888418e-05" flag="0"/>
		</comp>
	</station>
	<station code="CEY" name="CEY" netid="SL" source="Seismic Network of the Republic of Slovenia (SNRS)" insttype="" lat="45.7381" lon="14.4221" esm:processing="manual (Paolucci et al 2011)" esm:quality="best">
		<comp name="--.HNE" depth="0.0">
			<acc value="0.00447977089281695" flag="0"/>
			<vel value="0.00149360067515777" flag="0"/>
			<psa03 value="0.0093902587773248" flag="0"/>
			<psa10 value="0.00110393438023673" flag="0"/>
			<psa30 value="6.69816377255863e-05" flag="0"/>
		</comp>
		<comp name="--.HNN" depth="0.0">
			<acc value="0.00593981001782428" flag="0"/>
			<vel value="0.00193095240341415" flag="0"/>
			<psa03 value="0.0130557854546347" flag="0"/>
			<psa10 value="0.00234045223097357" flag="0"/>
			<psa30 value="9.88632419130795e-05" flag="0"/>
		</comp>
		<comp name="--.HNZ" depth="0.0">
			<acc value="0.0043720062076564" flag="0"/>
			<vel value="0.00185204003399335" flag="0"/>
			<psa03 value="0.0086514611376949" flag="0"/>
			<psa10 value="0.0013576875573267" flag="0"/>
			<psa30 value="0.000101659878999202" flag="0"/>
		</comp>
	</station>
	<station code="CRES" name="CRES" netid="SL" source="Seismic Network of the Republic of Slovenia (SNRS)" insttype="" lat="45.826" lon="15.4569" esm:processing="manual (Paolucci et al 2011)" esm:quality="best">
		<comp name="--.HNE" depth="0.0">
			<acc value="0.0288421866314539" flag="0"/>
			<vel value="0.00590578420463749" flag="0"/>
			<psa03 value="0.0331807892102647" flag="0"/>
			<psa10 value="0.00319444333494377" flag="0"/>
			<psa30 value="0.000121594578481453" flag="0"/>
		</comp>
		<comp name="--.HNN" depth="0.0">
			<acc value="0.0166524284128366" flag="0"/>
			<vel value="0.00520464892128429" flag="0"/>
			<psa03 value="0.0305078777680139" flag="0"/>
			<psa10 value="0.00201966605858974" flag="0"/>
			<psa30 value="0.00014630644989668" flag="0"/>
		</comp>
		<comp name="--.HNZ" depth="0.0">
			<acc value="0.0133821080504463" flag="0"/>
			<vel value="0.00326956880551783" flag="0"/>
			<psa03 value="0.010910699342768" flag="0"/>
			<psa10 value="0.00180494652197409" flag="0"/>
			<psa30 value="0.000106035266503316" flag="0"/>
		</comp>
	</station>
	<station code="CRNS" name="CRNS" netid="SL" source="Seismic Network of the Republic of Slovenia (SNRS)" insttype="" lat="46.0807" lon="14.2613" esm:processing="manual (Paolucci et al 2011)" esm:quality="good">
		<comp name="--.HNE" depth="0.0">
			<acc value="0.0106507977731348" flag="0"/>
			<vel value="0.00330890292320217" flag="0"/>
			<psa03 value="0.0292033434323465" flag="0"/>
			<psa10 value="0.00215274292115341" flag="0"/>
			<psa30 value="0.000134658529841732" flag="0"/>
		</comp>
		<comp name="--.HNN" depth="0.0">
			<acc value="0.00668895196098032" flag="0"/>
			<vel value="0.00228794429191908" flag="0"/>
			<psa03 value="0.0140385432658438" flag="0"/>
			<psa10 value="0.00127606738476413" flag="0"/>
			<psa30 value="0.000103035308656444" flag="0"/>
		</comp>
		<comp name="--.HNZ" depth="0.0">
			<acc value="0.00350596982710231" flag="0"/>
			<vel value="0.000952434341640747" flag="0"/>
			<psa03 value="0.00617316349907716" flag="0"/>
			<psa10 value="0.000738542166981485" flag="0"/>
			<psa30 value="8.47757657180042e-05" flag="0"/>
		</comp>
	</station>
	<station code="DOBS" name="DOBS" netid="SL" source="Seismic Network of the Republic of Slovenia (SNRS)" insttype="" lat="46.1495" lon="15.4695" esm:processing="manual (Paolucci et al 2011)" esm:quality="best">
		<comp name="--.HNE" depth="0.0">
			<acc value="0.0396092076742857" flag="0"/>
			<vel value="0.0104737982926475" flag="0"/>
			<psa03 value="0.0289847299919598" flag="0"/>
			<psa10 value="0.00457985823686903" flag="0"/>
			<psa30 value="0.000295151974244985" flag="0"/>
		</comp>
		<comp name="--.HNN" depth="0.0">
			<acc value="0.0281934382807897" flag="0"/>
			<vel value="0.00734420328356428" flag="0"/>
			<psa03 value="0.0292815074644932" flag="0"/>
			<psa10 value="0.00301589939791017" flag="0"/>
			<psa30 value="0.000220203076956631" flag="0"/>
		</comp>
		<comp name="--.HNZ" depth="0.0">
			<acc value="0.0187176495577087" flag="0"/>
			<vel value="0.00461406807211329" flag="0"/>
			<psa03 value="0.0143997442769886" flag="0"/>
			<psa10 value="0.00221582702204022" flag="0"/>
			<psa30 value="0.000146873857276604" flag="0"/>
		</comp>
	</station>
	<station code="GBAS" name="GBAS" netid="SL" source="Seismic Network of the Republic of Slovenia (SNRS)" insttype="" lat="45.9348" lon="14.4434" esm:processing="manual (Paolucci et al 2011)" esm:quality="best">
		<comp name="--.HNE" depth="0.0">
			<acc value="0.00264514560299007" flag="0"/>
			<vel value="0.00116670978863378" flag="0"/>
			<psa03 value="0.00743122405295628" flag="0"/>
			<psa10 value="0.00151617950195098" flag="0"/>
			<psa30 value="7.52892388446563e-05" flag="0"/>
		</comp>
		<comp name="--.HNN" depth="0.0">
			<acc value="0.00315040574965959" flag="0"/>
			<vel value="0.00112852989334817" flag="0"/>
			<psa03 value="0.0042478015782991" flag="0"/>
			<psa10 value="0.000970472648425125" flag="0"/>
			<psa30 value="7.45492874827601e-05" flag="0"/>
		</comp>
		<comp name="--.HNZ" depth="0.0">
			<acc value="0.00304480520519929" flag="0"/>
			<vel value="0.000843814995276994" flag="0"/>
			<psa03 value="0.00402422198860272" flag="0"/>
			<psa10 value="0.00102619653517164" flag="0"/>
			<psa30 value="0.000130952555172432" flag="0"/>
		</comp>
	</station>
	<station code="GBRS" name="GBRS" netid="SL" source="Seismic Network of the Republic of Slovenia (SNRS)" insttype="" lat="45.5311" lon="14.8101" esm:processing="manual (Paolucci et al 2011)" esm:quality="best">
		<comp name="--.HNE" depth="0.0">
			<acc value="0.0194166935270238" flag="0"/>
			<vel value="0.00435003920584855" flag="0"/>
			<psa03 value="0.0104310647047603" flag="0"/>
			<psa10 value="0.00179238717435372" flag="0"/>
			<psa30 value="0.000124385258142067" flag="0"/>
		</comp>
		<comp name="--.HNN" depth="0.0">
			<acc value="0.0146102832484859" flag="0"/>
			<vel value="0.00229872453910346" flag="0"/>
			<psa03 value="0.00809708977787599" flag="0"/>
			<psa10 value="0.00133104438609565" flag="0"/>
			<psa30 value="0.000115649353910452" flag="0"/>
		</comp>
		<comp name="--.HNZ" depth="0.0">
			<acc value="0.0074169994216643" flag="0"/>
			<vel value="0.0015944682394064" flag="0"/>
			<psa03 value="0.0079127468368942" flag="0"/>
			<psa10 value="0.00164421521025079" flag="0"/>
			<psa30 value="0.000149761131877497" flag="0"/>
		</comp>
	</station>
	<station code="GCIS" name="GCIS" netid="SL" source="Seismic Network of the Republic of Slovenia (SNRS)" insttype="" lat="45.8672" lon="15.6275" esm:processing="manual (Paolucci et al 2011)" esm:quality="best">
		<comp name="--.HNE" depth="0.0">
			<acc value="0.0208547188410561" flag="0"/>
			<vel value="0.00534643464734499" flag="0"/>
			<psa03 value="0.023862539109437" flag="0"/>
			<psa10 value="0.00165388921048271" flag="0"/>
			<psa30 value="0.000171180285166118" flag="0"/>
		</comp>
		<comp name="--.HNN" depth="0.0">
			<acc value="0.0196752608662928" flag="0"/>
			<vel value="0.00399993857559016" flag="0"/>
			<psa03 value="0.0173746379636765" flag="0"/>
			<psa10 value="0.00286299004966676" flag="0"/>
			<psa30 value="0.0001327738476989" flag="0"/>
		</comp>
		<comp name="--.HNZ" depth="0.0">
			<acc value="0.0142541380912081" flag="0"/>
			<vel value="0.00327859817795895" flag="0"/>
			<psa03 value="0.0125886529469015" flag="0"/>
			<psa10 value="0.00147854435255596" flag="0"/>
			<psa30 value="0.000111955945177819" flag="0"/>
		</comp>
	</station>
	<station code="GOLS" name="GOLS" netid="SL" source="Seismic Network of the Republic of Slovenia (SNRS)" insttype="" lat="46.0108" lon="15.6245" esm:processing="manual (Paolucci et al 2011)" esm:quality="good">
		<comp name="--.HNE" depth="0.0">
			<acc value="0.0396539779545375" flag="0"/>
			<vel value="0.0112292430488968" flag="0"/>
			<psa03 value="0.0598975147913932" flag="0"/>
			<psa10 value="0.00410027646694282" flag="0"/>
			<psa30 value="0.000256099621593059" flag="0"/>
		</comp>
		<comp name="--.HNN" depth="0.0">
			<acc value="0.0261552369663986" flag="0"/>
			<vel value="0.0095081402739657" flag="0"/>
			<psa03 value="0.0437023638171228" flag="0"/>
			<psa10 value="0.00444320387170039" flag="0"/>
			<psa30 value="0.00029324124871024" flag="0"/>
		</comp>
		<comp name="--.HNZ" depth="0.0">
			<acc value="0.0169086844791118" flag="0"/>
			<vel value="0.00480066382276944" flag="0"/>
			<psa03 value="0.0192137689116441" flag="0"/>
			<psa10 value="0.00259336148497082" flag="0"/>
			<psa30 value="0.000174883616431304" flag="0"/>
		</comp>
	</station>
	<station code="GORS" name="GORS" netid="SL" source="Seismic Network of the Republic of Slovenia (SNRS)" insttype="" lat="46.3174" lon="13.9999" esm:processing="manual (Paolucci et al 2011)" esm:quality="best">
		<comp name="--.HNE" depth="0.0">
			<acc value="0.00144173775083217" flag="0"/>
			<vel value="0.000610590014425408" flag="0"/>
			<psa03 value="0.00300796228357231" flag="0"/>
			<psa10 value="0.00049535103723141" flag="0"/>
			<psa30 value="4.7950429084765e-05" flag="0"/>
		</comp>
		<comp name="--.HNN" depth="0.0">
			<acc value="0.00164100072199297" flag="0"/>
			<vel value="0.000786441382219043" flag="0"/>
			<psa03 value="0.00337589941801839" flag="0"/>
			<psa10 value="0.00075689119501454" flag="0"/>
			<psa30 value="5.45217823734198e-05" flag="0"/>
		</comp>
		<comp name="--.HNZ" depth="0.0">
			<acc value="0.00127417783343414" flag="0"/>
			<vel value="0.000606828029808547" flag="0"/>
			<psa03 value="0.00287647505756389" flag="0"/>
			<psa10 value="0.000845480501121296" flag="0"/>
			<psa30 value="5.75966019505431e-05" flag="0"/>
		</comp>
	</station>
	<station code="KNDS" name="KNDS" netid="SL" source="Seismic Network of the Republic of Slovenia (SNRS)" insttype="" lat="45.5278" lon="14.3807" esm:processing="manual (Paolucci et al 2011)" esm:quality="best">
		<comp name="--.HNE" depth="0.0">
			<acc value="0.00687468369662632" flag="0"/>
			<vel value="0.00220500136395209" flag="0"/>
			<psa03 value="0.0076966133784883" flag="0"/>
			<psa10 value="0.00220808791561268" flag="0"/>
			<psa30 value="0.000115003048075029" flag="0"/>
		</comp>
		<comp name="--.HNN" depth="0.0">
			<acc value="0.00568554916184106" flag="0"/>
			<vel value="0.00240584070342596" flag="0"/>
			<psa03 value="0.0105216084632566" flag="0"/>
			<psa10 value="0.00176601929479861" flag="0"/>
			<psa30 value="0.000134808383518803" flag="0"/>
		</comp>
		<comp name="--.HNZ" depth="0.0">
			<acc value="0.00250894535459229" flag="0"/>
			<vel value="0.00090225031884277" flag="0"/>
			<psa03 value="0.00574993689468338" flag="0"/>
			<psa10 value="0.00132074491474372" flag="0"/>
			<psa30 value="0.000147473610548769" flag="0"/>
		</comp>
	</station>
	<station code="KOGS" name="KOGS" netid="SL" source="Seismic Network of the Republic of Slovenia (SNRS)" insttype="" lat="46.4481" lon="16.2504" esm:processing="manual (Paolucci et al 2011)" esm:quality="best">
		<comp name="--.HNE" depth="0.0">
			<acc value="0.0450902780864208" flag="0"/>
			<vel value="0.0142098251359363" flag="0"/>
			<psa03 value="0.0560712300688067" flag="0"/>
			<psa10 value="0.00599624690944858" flag="0"/>
			<psa30 value="0.000507691184132583" flag="0"/>
		</comp>
		<comp name="--.HNN" depth="0.0">
			<acc value="0.0407578048324204" flag="0"/>
			<vel value="0.0161481927029128" flag="0"/>
			<psa03 value="0.0733544010355172" flag="0"/>
			<psa10 value="0.00824924897224617" flag="0"/>
			<psa30 value="0.000723742163117523" flag="0"/>
		</comp>
		<comp name="--.HNZ" depth="0.0">
			<acc value="0.0177429862558207" flag="0"/>
			<vel value="0.00576781226088556" flag="0"/>
			<psa03 value="0.0333881232576286" flag="0"/>
			<psa10 value="0.00385549798594574" flag="0"/>
			<psa30 value="0.000416646038255033" flag="0"/>
		</comp>
	</station>
	<station code="LEGS" name="LEGS" netid="SL" source="Seismic Network of the Republic of Slovenia (SNRS)" insttype="" lat="45.9488" lon="15.3177" esm:processing="manual (Paolucci et al 2011)" esm:quality="best">
		<comp name="--.HNE" depth="0.0">
			<acc value="0.020175124964209" flag="0"/>
			<vel value="0.0122280563104425" flag="0"/>
			<psa03 value="0.074525343188083" flag="0"/>
			<psa10 value="0.00555202295051338" flag="0"/>
			<psa30 value="0.000512907571359157" flag="0"/>
		</comp>
		<comp name="--.HNN" depth="0.0">
			<acc value="0.0190476704781977" flag="0"/>
			<vel value="0.00698455507149578" flag="0"/>
			<psa03 value="0.0333812295718087" flag="0"/>
			<psa10 value="0.00464676641923305" flag="0"/>
			<psa30 value="0.000240597370686804" flag="0"/>
		</comp>
		<comp name="--.HNZ" depth="0.0">
			<acc value="0.0108208128605723" flag="0"/>
			<vel value="0.00447123742001815" flag="0"/>
			<psa03 value="0.0226080185035886" flag="0"/>
			<psa10 value="0.00413614524932025" flag="0"/>
			<psa30 value="0.000228696061449801" flag="0"/>
		</comp>
	</station>
	<station code="LJU" name="LJU" netid="SL" source="Seismic Network of the Republic of Slovenia (SNRS)" insttype="" lat="46.0438" lon="14.5278" esm:processing="manual (Paolucci et al 2011)" esm:quality="best">
		<comp name="--.HNE" depth="0.0">
			<acc value="0.00601780187519948" flag="0"/>
			<vel value="0.0034880081149552" flag="0"/>
			<psa03 value="0.0120301745441892" flag="0"/>
			<psa10 value="0.00382555904951216" flag="0"/>
			<psa30 value="0.000203930514604087" flag="0"/>
		</comp>
		<comp name="--.HNN" depth="0.0">
			<acc value="0.0070784865451828" flag="0"/>
			<vel value="0.00243195950172343" flag="0"/>
			<psa03 value="0.00929690558791002" flag="0"/>
			<psa10 value="0.00195211213034817" flag="0"/>
			<psa30 value="0.00020969848784984" flag="0"/>
		</comp>
		<comp name="--.HNZ" depth="0.0">
			<acc value="0.00364452525389246" flag="0"/>
			<vel value="0.00185169495407549" flag="0"/>
			<psa03 value="0.00658020022888788" flag="0"/>
			<psa10 value="0.00206809653249559" flag="0"/>
			<psa30 value="0.000380803585743668" flag="0"/>
		</comp>
	</station>
	<station code="MOZS" name="MOZS" netid="SL" source="Seismic Network of the Republic of Slovenia (SNRS)" insttype="" lat="46.2941" lon="14.4433" esm:processing="manual (Paolucci et al 2011)" esm:quality="best">
		<comp name="--.HNE" depth="0.0">
			<acc value="0.00375282192788319" flag="0"/>
			<vel value="0.00155659990802645" flag="0"/>
			<psa03 value="0.00748237132143161" flag="0"/>
			<psa10 value="0.00115131056555095" flag="0"/>
			<psa30 value="0.000107422689142569" flag="0"/>
		</comp>
		<comp name="--.HNN" depth="0.0">
			<acc value="0.00290877342831188" flag="0"/>
			<vel value="0.00130071500371524" flag="0"/>
			<psa03 value="0.00793563962947385" flag="0"/>
			<psa10 value="0.00108038926580059" flag="0"/>
			<psa30 value="0.000144838071374088" flag="0"/>
		</comp>
		<comp name="--.HNZ" depth="0.0">
			<acc value="0.00211653656268597" flag="0"/>
			<vel value="0.00111815320714738" flag="0"/>
			<psa03 value="0.0030701900386679" flag="0"/>
			<psa10 value="0.00108992239732106" flag="0"/>
			<psa30 value="0.000140578310018981" flag="0"/>
		</comp>
	</station>
	<station code="PERS" name="PERS" netid="SL" source="Seismic Network of the Republic of Slovenia (SNRS)" insttype="" lat="46.6365" lon="15.1139" esm:processing="manual (Paolucci et al 2011)" esm:quality="good">
		<comp name="--.HNE" depth="0.0">
			<acc value="0.00967881401868931" flag="0"/>
			<vel value="0.00469512026258155" flag="0"/>
			<psa03 value="0.0333067350535688" flag="0"/>
			<psa10 value="0.00185544560947703" flag="0"/>
			<psa30 value="0.000127748645012467" flag="0"/>
		</comp>
		<comp name="--.HNN" depth="0.0">
			<acc value="0.012896061067172" flag="0"/>
			<vel value="0.00717169220449076" flag="0"/>
			<psa03 value="0.0339264557945271" flag="0"/>
			<psa10 value="0.00258252631406905" flag="0"/>
			<psa30 value="0.000220989691565885" flag="0"/>
		</comp>
		<comp name="--.HNZ" depth="0.0">
			<acc value="0.00427381992852772" flag="0"/>
			<vel value="0.00238964989086911" flag="0"/>
			<psa03 value="0.0168117855732691" flag="0"/>
			<psa10 value="0.00143368681065061" flag="0"/>
			<psa30 value="9.52509388134633e-05" flag="0"/>
		</comp>
	</station>
	<station code="SKDS" name="SKDS" netid="SL" source="Seismic Network of the Republic of Slovenia (SNRS)" insttype="" lat="45.5464" lon="14.0143" esm:processing="manual (Paolucci et al 2011)" esm:quality="best">
		<comp name="--.HNE" depth="0.0">
			<acc value="0.00318038395700781" flag="0"/>
			<vel value="0.00104041811583031" flag="0"/>
			<psa03 value="0.00382337567570769" flag="0"/>
			<psa10 value="0.00061882855294833" flag="0"/>
