<?xml version="1.0" encoding="UTF-8" standalone="yes"?>
<!DOCTYPE earthquake SYSTEM "stationlist.dtd">
<stationlist created="" xmlns="ch.ethz.sed.shakemap.usgs.xml">
  <station code="BLY" name="BLY" netid="MN" insttype="" lat="44.7488" lon="17.1839">
    <comp name="--.HHE">
      <acc value="0.0064319832" flag="0"/>
      <vel value="0.0043717271" flag="0"/>
      <psa03 value="0.0149141123" flag="0"/>
      <psa10 value="0.0035478931" flag="0"/>
      <psa30 value="0.0002381604" flag="0"/>
    </comp>
    <comp name="--.HHN">
      <acc value="0.0038479466" flag="0"/>
      <vel value="0.0025827642" flag="0"/>
      <psa03 value="0.0076542394" flag="0"/>
      <psa10 value="0.0030507938" flag="0"/>
      <psa30 value="0.0002944317" flag="0"/>
    </comp>
    <comp name="--.HHZ">
      <acc value="0.0043194377" flag="0"/>
      <vel value="0.0021832748" flag="0"/>
      <psa03 value="0.0094776041" flag="0"/>
      <psa10 value="0.0018836014" flag="0"/>
      <psa30 value="0.0003215979" flag="0"/>
    </comp>
  </station>
</stationlist>
