<stationlist created="1778136171">
	<station code="BLY" name="BLY" netid="MN" source="Mediterranean Very Broadband Seismographic Network (MedNet)" insttype="" lat="44.7488" lon="17.1839">
		<comp name="--.HNE" depth="1.0">
			<acc value="0.00634400982891135" flag="0"/>
			<vel value="0.00444503734112778" flag="0"/>
			<psa03 value="0.014988639217121" flag="0"/>
			<psa10 value="0.00360801154169743" flag="0"/>
			<psa30 value="0.000263531596981621" flag="0"/>
		</comp>
		<comp name="--.HNN" depth="1.0">
			<acc value="0.00385319457134616" flag="0"/>
			<vel value="0.00242802708731536" flag="0"/>
			<psa03 value="0.00720349526554175" flag="0"/>
			<psa10 value="0.00309258132145494" flag="0"/>
			<psa30 value="0.000341830458563596" flag="0"/>
		</comp>
		<comp name="--.HNZ" depth="1.0">
			<acc value="0.00428451332024393" flag="0"/>
			<vel value="0.00224853631300245" flag="0"/>
			<psa03 value="0.00944060559645534" flag="0"/>
			<psa10 value="0.00185232735399645" flag="0"/>
			<psa30 value="0.000357042808813809" flag="0"/>
		</comp>
	</station>
	<station code="BOJS" name="BOJS" netid="SL" source="Seismic Network of the Republic of Slovenia (SNRS)" insttype="" lat="45.5043" lon="15.2518">
		<comp name="--.HNE" depth="0.0">
			<acc value="0.0172740731042645" flag="0"/>
			<vel value="0.00411641438876141" flag="0"/>
			<psa03 value="0.0235091875766508" flag="0"/>
			<psa10 value="0.00198373820979664" flag="0"/>
			<psa30 value="0.000170809297048628" flag="0"/>
		</comp>
		<comp name="--.HNN" depth="0.0">
			<acc value="0.0196453369294104" flag="0"/>
			<vel value="0.00464484401499376" flag="0"/>
			<psa03 value="0.0201638631007271" flag="0"/>
			<psa10 value="0.00258068095744973" flag="0"/>
			<psa30 value="0.000131224812791484" flag="0"/>
		</comp>
		<comp name="--.HNZ" depth="0.0">
			<acc value="0.0135752331739229" flag="0"/>
			<vel value="0.00284937833753146" flag="0"/>
			<psa03 value="0.0170357743697822" flag="0"/>
			<psa10 value="0.00198757494833476" flag="0"/>
			<psa30 value="0.000112336751654435" flag="0"/>
		</comp>
	</station>
	<station code="CADS" name="CADS" netid="SL" source="Seismic Network of the Republic of Slovenia (SNRS)" insttype="" lat="46.2281" lon="13.7368">
		<comp name="--.HNE" depth="0.0">
			<acc value="0.00313181243065329" flag="0"/>
			<vel value="0.00102895980890234" flag="0"/>
			<psa03 value="0.00544854062658871" flag="0"/>
			<psa10 value="0.000946465022880455" flag="0"/>
			<psa30 value="6.20300011103876e-05" flag="0"/>
		</comp>
		<comp name="--.HNN" depth="0.0">
			<acc value="0.00250207991424932" flag="0"/>
			<vel value="0.00139335017204769" flag="0"/>
			<psa03 value="0.00644644722779707" flag="0"/>
			<psa10 value="0.00117256134831078" flag="0"/>
			<psa30 value="6.30603948896576e-05" flag="0"/>
		</comp>
		<comp name="--.HNZ" depth="0.0">
			<acc value="0.00145495550172465" flag="0"/>
			<vel value="0.000747968106636755" flag="0"/>
			<psa03 value="0.00458741977945514" flag="0"/>
			<psa10 value="0.00122442587783146" flag="0"/>
			<psa30 value="3.53316471888418e-05" flag="0"/>
		</comp>
	</station>
	<station code="CEY" name="CEY" netid="SL" source="Seismic Network of the Republic of Slovenia (SNRS)" insttype="" lat="45.7381" lon="14.4221">
		<comp name="--.HNE" depth="0.0">
			<acc value="0.00447977089281695" flag="0"/>
			<vel value="0.00149360067515777" flag="0"/>
			<psa03 value="0.0093902587773248" flag="0"/>
			<psa10 value="0.00110393438023673" flag="0"/>
			<psa30 value="6.69816377255863e-05" flag="0"/>
		</comp>
		<comp name="--.HNN" depth="0.0">
			<acc value="0.00593981001782428" flag="0"/>
			<vel value="0.00193095240341415" flag="0"/>
			<psa03 value="0.0130557854546347" flag="0"/>
			<psa10 value="0.00234045223097357" flag="0"/>
			<psa30 value="9.88632419130795e-05" flag="0"/>
		</comp>
		<comp name="--.HNZ" depth="0.0">
			<acc value="0.0043720062076564" flag="0"/>
			<vel value="0.00185204003399335" flag="0"/>
			<psa03 value="0.0086514611376949" flag="0"/>
			<psa10 value="0.0013576875573267" flag="0"/>
			<psa30 value="0.000101659878999202" flag="0"/>
		</comp>
	</station>
	<station code="CRES" name="CRES" netid="SL" source="Seismic Network of the Republic of Slovenia (SNRS)" insttype="" lat="45.826" lon="15.4569">
		<comp name="--.HNE" depth="0.0">
			<acc value="0.0288421866314539" flag="0"/>
			<vel value="0.00590578420463749" flag="0"/>
			<psa03 value="0.0331807892102647" flag="0"/>
			<psa10 value="0.00319444333494377" flag="0"/>
			<psa30 value="0.000121594578481453" flag="0"/>
		</comp>
		<comp name="--.HNN" depth="0.0">
			<acc value="0.0166524284128366" flag="0"/>
			<vel value="0.00520464892128429" flag="0"/>
			<psa03 value="0.0305078777680139" flag="0"/>
			<psa10 value="0.00201966605858974" flag="0"/>
			<psa30 value="0.00014630644989668" flag="0"/>
		</comp>
		<comp name="--.HNZ" depth="0.0">
			<acc value="0.0133821080504463" flag="0"/>
			<vel value="0.00326956880551783" flag="0"/>
			<psa03 value="0.010910699342768" flag="0"/>
			<psa10 value="0.00180494652197409" flag="0"/>
			<psa30 value="0.000106035266503316" flag="0"/>
		</comp>
	</station>
	<station code="DOBS" name="DOBS" netid="SL" source="Seismic Network of the Republic of Slovenia (SNRS)" insttype="" lat="46.1495" lon="15.4695">
		<comp name="--.HNE" depth="0.0">
			<acc value="0.0396092076742857" flag="0"/>
			<vel value="0.0104737982926475" flag="0"/>
			<psa03 value="0.0289847299919598" flag="0"/>
			<psa10 value="0.00457985823686903" flag="0"/>
			<psa30 value="0.000295151974244985" flag="0"/>
		</comp>
		<comp name="--.HNN" depth="0.0">
			<acc value="0.0281934382807897" flag="0"/>
			<vel value="0.00734420328356428" flag="0"/>
			<psa03 value="0.0292815074644932" flag="0"/>
			<psa10 value="0.00301589939791017" flag="0"/>
			<psa30 value="0.000220203076956631" flag="0"/>
		</comp>
		<comp name="--.HNZ" depth="0.0">
			<acc value="0.0187176495577087" flag="0"/>
			<vel value="0.00461406807211329" flag="0"/>
			<psa03 value="0.0143997442769886" flag="0"/>
			<psa10 value="0.00221582702204022" flag="0"/>
			<psa30 value="0.000146873857276604" flag="0"/>
		</comp>
	</station>
	<station code="GCIS" name="GCIS" netid="SL" source="Seismic Network of the Republic of Slovenia (SNRS)" insttype="" lat="45.8672" lon="15.6275">
		<comp name="--.HNE" depth="0.0">
			<acc value="0.0208547188410561" flag="0"/>
			<vel value="0.00534643464734499" flag="0"/>
			<psa03 value="0.023862539109437" flag="0"/>
			<psa10 value="0.00165388921048271" flag="0"/>
			<psa30 value="0.000171180285166118" flag="0"/>
		</comp>
		<comp name="--.HNN" depth="0.0">
			<acc value="0.0196752608662928" flag="0"/>
			<vel value="0.00399993857559016" flag="0"/>
			<psa03 value="0.0173746379636765" flag="0"/>
			<psa10 value="0.00286299004966676" flag="0"/>
			<psa30 value="0.0001327738476989" flag="0"/>
		</comp>
		<comp name="--.HNZ" depth="0.0">
			<acc value="0.0142541380912081" flag="0"/>
			<vel value="0.00327859817795895" flag="0"/>
			<psa03 value="0.0125886529469015" flag="0"/>
			<psa10 value="0.00147854435255596" flag="0"/>
			<psa30 value="0.000111955945177819" flag="0"/>
		</comp>
	</station>
	<station code="KOGS" name="KOGS" netid="SL" source="Seismic Network of the Republic of Slovenia (SNRS)" insttype="" lat="46.4481" lon="16.2504">
		<comp name="--.HNE" depth="0.0">
			<acc value="0.0450902780864208" flag="0"/>
			<vel value="0.0142098251359363" flag="0"/>
			<psa03 value="0.0560712300688067" flag="0"/>
			<psa10 value="0.00599624690944858" flag="0"/>
			<psa30 value="0.000507691184132583" flag="0"/>
		</comp>
		<comp name="--.HNN" depth="0.0">
			<acc value="0.0407578048324204" flag="0"/>
			<vel value="0.0161481927029128" flag="0"/>
			<psa03 value="0.0733544010355172" flag="0"/>
			<psa10 value="0.00824924897224617" flag="0"/>
			<psa30 value="0.000723742163117523" flag="0"/>
		</comp>
		<comp name="--.HNZ" depth="0.0">
			<acc value="0.0177429862558207" flag="0"/>
			<vel value="0.00576781226088556" flag="0"/>
			<psa03 value="0.0333881232576286" flag="0"/>
			<psa10 value="0.00385549798594574" flag="0"/>
			<psa30 value="0.000416646038255033" flag="0"/>
		</comp>
	</station>
	<station code="LEGS" name="LEGS" netid="SL" source="Seismic Network of the Republic of Slovenia (SNRS)" insttype="" lat="45.9488" lon="15.3177">
		<comp name="--.HNE" depth="0.0">
			<acc value="0.020175124964209" flag="0"/>
			<vel value="0.0122280563104425" flag="0"/>
			<psa03 value="0.074525343188083" flag="0"/>
			<psa10 value="0.00555202295051338" flag="0"/>
			<psa30 value="0.000512907571359157" flag="0"/>
		</comp>
		<comp name="--.HNN" depth="0.0">
			<acc value="0.0190476704781977" flag="0"/>
			<vel value="0.00698455507149578" flag="0"/>
			<psa03 value="0.0333812295718087" flag="0"/>
			<psa10 value="0.00464676641923305" flag="0"/>
			<psa30 value="0.000240597370686804" flag="0"/>
		</comp>
		<comp name="--.HNZ" depth="0.0">
			<acc value="0.0108208128605723" flag="0"/>
			<vel value="0.00447123742001815" flag="0"/>
			<psa03 value="0.0226080185035886" flag="0"/>
			<psa10 value="0.00413614524932025" flag="0"/>
			<psa30 value="0.000228696061449801" flag="0"/>
		</comp>
	</station>
	<station code="MOZS" name="MOZS" netid="SL" source="Seismic Network of the Republic of Slovenia (SNRS)" insttype="" lat="46.2941" lon="14.4433">
		<comp name="--.HNE" depth="0.0">
			<acc value="0.00375282192788319" flag="0"/>
			<vel value="0.00155659990802645" flag="0"/>
			<psa03 value="0.00748237132143161" flag="0"/>
			<psa10 value="0.00115131056555095" flag="0"/>
			<psa30 value="0.000107422689142569" flag="0"/>
		</comp>
		<comp name="--.HNN" depth="0.0">
			<acc value="0.00290877342831188" flag="0"/>
			<vel value="0.00130071500371524" flag="0"/>
			<psa03 value="0.00793563962947385" flag="0"/>
			<psa10 value="0.00108038926580059" flag="0"/>
			<psa30 value="0.000144838071374088" flag="0"/>
		</comp>
		<comp name="--.HNZ" depth="0.0">
			<acc value="0.00211653656268597" flag="0"/>
			<vel value="0.00111815320714738" flag="0"/>
			<psa03 value="0.0030701900386679" flag="0"/>
			<psa10 value="0.00108992239732106" flag="0"/>
			<psa30 value="0.000140578310018981" flag="0"/>
		</comp>
	</station>
	<station code="PERS" name="PERS" netid="SL" source="Seismic Network of the Republic of Slovenia (SNRS)" insttype="" lat="46.6365" lon="15.1139">
		<comp name="--.HNE" depth="0.0">
			<acc value="0.00967881401868931" flag="0"/>
			<vel value="0.00469512026258155" flag="0"/>
			<psa03 value="0.0333067350535688" flag="0"/>
			<psa10 value="0.00185544560947703" flag="0"/>
			<psa30 value="0.000127748645012467" flag="0"/>
		</comp>
		<comp name="--.HNN" depth="0.0">
			<acc value="0.012896061067172" flag="0"/>
			<vel value="0.00717169220449076" flag="0"/>
			<psa03 value="0.0339264557945271" flag="0"/>
			<psa10 value="0.00258252631406905" flag="0"/>
			<psa30 value="0.000220989691565885" flag="0"/>
		</comp>
		<comp name="--.HNZ" depth="0.0">
			<acc value="0.00427381992852772" flag="0"/>
			<vel value="0.00238964989086911" flag="0"/>
			<psa03 value="0.0168117855732691" flag="0"/>
			<psa10 value="0.00143368681065061" flag="0"/>
			<psa30 value="9.52509388134633e-05" flag="0"/>
		</comp>
	</station>
	<station code="VISS" name="VISS" netid="SL" source="Seismic Network of the Republic of Slovenia (SNRS)" insttype="" lat="45.8033" lon="14.8393">
		<comp name="--.HNE" depth="0.0">
			<acc value="0.010446258881034" flag="0"/>
			<vel value="0.00384495780985493" flag="0"/>
			<psa03 value="0.0107220025977686" flag="0"/>
			<psa10 value="0.00142764410566428" flag="0"/>
			<psa30 value="0.000100895297099447" flag="0"/>
		</comp>
		<comp name="--.HNN" depth="0.0">
			<acc value="0.00884702803499422" flag="0"/>
			<vel value="0.00286707084920804" flag="0"/>
			<psa03 value="0.017059111853256" flag="0"/>
			<psa10 value="0.00126100978571067" flag="0"/>
			<psa30 value="0.000149505789441656" flag="0"/>
		</comp>
		<comp name="--.HNZ" depth="0.0">
			<acc value="0.00456577086586949" flag="0"/>
			<vel value="0.00173056127247831" flag="0"/>
			<psa03 value="0.0111626470226818" flag="0"/>
			<psa10 value="0.00171988959830951" flag="0"/>
			<psa30 value="0.000196188035557037" flag="0"/>
		</comp>
	</station>
	<station code="VNDS" name="VNDS" netid="SL" source="Seismic Network of the Republic of Slovenia (SNRS)" insttype="" lat="46.1016" lon="14.7014">
		<comp name="--.HNE" depth="0.0">
			<acc value="0.00583674334608811" flag="0"/>
			<vel value="0.00272099062465185" flag="0"/>
			<psa03 value="0.0108243121096359" flag="0"/>
			<psa10 value="0.00248025844557386" flag="0"/>
			<psa30 value="0.000191435962942926" flag="0"/>
		</comp>
		<comp name="--.HNN" depth="0.0">
			<acc value="0.00498466570414524" flag="0"/>
			<vel value="0.00168966634620902" flag="0"/>
			<psa03 value="0.0121574824568599" flag="0"/>
			<psa10 value="0.00165465250323153" flag="0"/>
			<psa30 value="0.000110010464736666" flag="0"/>
		</comp>
		<comp name="--.HNZ" depth="0.0">
			<acc value="0.00346866236127726" flag="0"/>
			<vel value="0.0018337101794388" flag="0"/>
			<psa03 value="0.00756932369614954" flag="0"/>
			<psa10 value="0.0012622119747255" flag="0"/>
			<psa30 value="0.000286071581046714" flag="0"/>
		</comp>
	</station>
</stationlist>
