<?xml version="1.0" encoding="UTF-8" standalone="yes"?>
<!DOCTYPE earthquake SYSTEM "stationlist.dtd">
<stationlist created="" xmlns="ch.ethz.sed.shakemap.usgs.xml">
  <station code="ZKR" name="ZKR" netid="GE" insttype="STS-2/N" lat="35.1147" lon="26.2169">
    <comp name="--.HHE">
      <acc value="0.0207403336" flag="0"/>
      <vel value="0.0104974916" flag="0"/>
      <psa03 value="0.0557816984" flag="0"/>
      <psa10 value="0.0113016029" flag="0"/>
      <psa30 value="0.0004498551" flag="0"/>
    </comp>
    <comp name="--.HHZ">
      <acc value="0.0171196759" flag="0"/>
      <vel value="0.0066964529" flag="0"/>
      <psa03 value="0.0286718408" flag="0"/>
      <psa10 value="0.0050963502" flag="0"/>
      <psa30 value="0.0002564893" flag="0"/>
    </comp>
    <comp name="--.HHN">
      <acc value="0.0123925754" flag="0"/>
      <vel value="0.0053318272" flag="0"/>
      <psa03 value="0.0345268697" flag="0"/>
      <psa10 value="0.0036174063" flag="0"/>
      <psa30 value="0.0002553211" flag="0"/>
    </comp>
  </station>
  <station code="IMOD" name="IMOD" netid="HC" insttype="120" lat="34.9731" lon="24.7995">
    <comp name="--.HHN">
      <acc value="0.0478708814" flag="0"/>
      <vel value="0.0213101779" flag="0"/>
      <psa03 value="0.1182514689" flag="0"/>
      <psa10 value="0.0201126545" flag="0"/>
      <psa30 value="0.0010353263" flag="0"/>
    </comp>
    <comp name="--.HHZ">
      <acc value="0.0361960846" flag="0"/>
      <vel value="0.0159258376" flag="0"/>
      <psa03 value="0.0779305466" flag="0"/>
      <psa10 value="0.0066352997" flag="0"/>
      <psa30 value="0.0003815625" flag="0"/>
    </comp>
    <comp name="--.HHE">
      <acc value="0.0535119972" flag="0"/>
      <vel value="0.0224693689" flag="0"/>
      <psa03 value="0.1074435287" flag="0"/>
      <psa10 value="0.0143136716" flag="0"/>
      <psa30 value="0.0008512465" flag="0"/>
    </comp>
  </station>
  <station code="KNSS" name="KNSS" netid="HC" insttype="60" lat="35.3042" lon="25.1802">
    <comp name="--.HHZ">
      <acc value="0.1458957216" flag="0"/>
      <vel value="0.0339673180" flag="0"/>
      <psa03 value="0.1957149573" flag="0"/>
      <psa10 value="0.0193006478" flag="0"/>
      <psa30 value="0.0013767420" flag="0"/>
    </comp>
    <comp name="--.HHE">
      <acc value="0.1285819136" flag="0"/>
      <vel value="0.0531194627" flag="0"/>
      <psa03 value="0.2393738555" flag="0"/>
      <psa10 value="0.0316336879" flag="0"/>
      <psa30 value="0.0023128465" flag="0"/>
    </comp>
    <comp name="--.HHN">
      <acc value="0.0000000000" flag="0"/>
      <vel value="-100.0000000000" flag="0"/>
      <psa03 value="0.0000000000" flag="0"/>
      <psa10 value="0.0000000000" flag="0"/>
      <psa30 value="0.0000000000" flag="0"/>
    </comp>
  </station>
  <station code="PFKS" name="PFKS" netid="HC" insttype="120" lat="35.0429" lon="25.4733">
    <comp name="--.HHE">
      <acc value="0.9390029229" flag="0"/>
      <vel value="0.3001043571" flag="0"/>
      <psa03 value="1.2206429921" flag="0"/>
      <psa10 value="0.0895272269" flag="0"/>
      <psa30 value="0.0065572530" flag="0"/>
    </comp>
    <comp name="--.HHN">
      <acc value="0.8433664748" flag="0"/>
      <vel value="0.3327391081" flag="0"/>
      <psa03 value="1.4533028844" flag="0"/>
      <psa10 value="0.1042277323" flag="0"/>
      <psa30 value="0.0067346246" flag="0"/>
    </comp>
    <comp name="--.HHZ">
      <acc value="0.4112419688" flag="0"/>
      <vel value="0.1194848135" flag="0"/>
      <psa03 value="0.6819506697" flag="0"/>
      <psa10 value="0.0317863376" flag="0"/>
      <psa30 value="0.0028511691" flag="0"/>
    </comp>
  </station>
  <station code="STIA" name="STIA" netid="HC" insttype="120" lat="35.2021" lon="26.0909">
    <comp name="--.HHE">
      <acc value="0.0269302703" flag="0"/>
      <vel value="0.0134910807" flag="0"/>
      <psa03 value="0.0608295902" flag="0"/>
      <psa10 value="0.0095807246" flag="0"/>
      <psa30 value="0.0004618989" flag="0"/>
    </comp>
    <comp name="--.HHN">
      <acc value="0.0295070105" flag="0"/>
      <vel value="0.0102450429" flag="0"/>
      <psa03 value="0.0603342756" flag="0"/>
      <psa10 value="0.0080937446" flag="0"/>
      <psa30 value="0.0003576417" flag="0"/>
    </comp>
    <comp name="--.HHZ">
      <acc value="0.0356052419" flag="0"/>
      <vel value="0.0095434721" flag="0"/>
      <psa03 value="0.0580047634" flag="0"/>
      <psa10 value="0.0036967475" flag="0"/>
      <psa30 value="0.0002385256" flag="0"/>
    </comp>
  </station>
  <station code="SIT2" name="SIT2" netid="HI" insttype="CMG-5TD,ACCELEROMETER,GURALP" lat="35.2059" lon="26.107">
    <comp name="--.HNN">
      <acc value="0.0621975065" flag="0"/>
      <vel value="0.0313008559" flag="0"/>
      <psa03 value="0.1919765676" flag="0"/>
      <psa10 value="0.0143114911" flag="0"/>
      <psa30 value="0.0009473010" flag="0"/>
    </comp>
    <comp name="--.HNZ">
      <acc value="0.0525809790" flag="0"/>
      <vel value="0.0174991047" flag="0"/>
      <psa03 value="0.1400774861" flag="0"/>
      <psa10 value="0.0048385300" flag="0"/>
      <psa30 value="0.0003916005" flag="0"/>
    </comp>
    <comp name="--.HNE">
      <acc value="0.0565346072" flag="0"/>
      <vel value="0.0353277954" flag="0"/>
      <psa03 value="0.1628958227" flag="0"/>
      <psa10 value="0.0203396968" flag="0"/>
      <psa30 value="0.0012295203" flag="0"/>
    </comp>
  </station>
  <station code="IACM" name="IACM" netid="HL" insttype="120" lat="35.3058" lon="25.0709">
    <comp name="--.HHN">
      <acc value="0.2677932136" flag="0"/>
      <vel value="0.0835357139" flag="0"/>
      <psa03 value="0.5648050750" flag="0"/>
      <psa10 value="0.0983034402" flag="0"/>
      <psa30 value="0.0036797670" flag="0"/>
    </comp>
    <comp name="--.HHE">
      <acc value="0.3233725783" flag="0"/>
      <vel value="0.1040342926" flag="0"/>
      <psa03 value="0.6293247683" flag="0"/>
      <psa10 value="0.1217394639" flag="0"/>
      <psa30 value="0.0049908619" flag="0"/>
    </comp>
    <comp name="--.HHZ">
      <acc value="0.2539700695" flag="0"/>
      <vel value="0.0614899190" flag="0"/>
      <psa03 value="0.3369506227" flag="0"/>
      <psa10 value="0.0544610595" flag="0"/>
      <psa30 value="0.0023385419" flag="0"/>
    </comp>
  </station>
  <station code="IDI" name="IDI" netid="HL" insttype="120" lat="35.288" lon="24.89">
    <comp name="--.HHE">
      <acc value="0.0961860693" flag="0"/>
      <vel value="0.0263899889" flag="0"/>
      <psa03 value="0.1195627099" flag="0"/>
      <psa10 value="0.0114400043" flag="0"/>
      <psa30 value="0.0006575970" flag="0"/>
    </comp>
    <comp name="--.HHN">
      <acc value="0.1181177403" flag="0"/>
      <vel value="0.0232307405" flag="0"/>
      <psa03 value="0.1930525725" flag="0"/>
      <psa10 value="0.0119603598" flag="0"/>
      <psa30 value="0.0012160860" flag="0"/>
    </comp>
    <comp name="--.HHZ">
      <acc value="0.0770044786" flag="0"/>
      <vel value="0.0213768861" flag="0"/>
      <psa03 value="0.1606348425" flag="0"/>
      <psa10 value="0.0087319625" flag="0"/>
      <psa30 value="0.0005236385" flag="0"/>
    </comp>
  </station>
  <station code="NPS" name="NPS" netid="HL" insttype="CMG3ESPC-120s" lat="35.2613" lon="25.6104">
    <comp name="--.HHE">
      <acc value="0.0425241931" flag="0"/>
      <vel value="0.0103122061" flag="0"/>
      <psa03 value="0.0387086033" flag="0"/>
      <psa10 value="0.0062413195" flag="0"/>
      <psa30 value="0.0003502972" flag="0"/>
    </comp>
    <comp name="--.HHN">
      <acc value="0.1288673578" flag="0"/>
      <vel value="0.0292510758" flag="0"/>
      <psa03 value="0.0964627961" flag="0"/>
      <psa10 value="0.0118199070" flag="0"/>
      <psa30 value="0.0005614468" flag="0"/>
    </comp>
    <comp name="--.HHZ">
      <acc value="0.0854329057" flag="0"/>
      <vel value="0.0197159318" flag="0"/>
      <psa03 value="0.0650846055" flag="0"/>
      <psa10 value="0.0074020255" flag="0"/>
      <psa30 value="0.0006193085" flag="0"/>
    </comp>
  </station>
  <station code="SIVA" name="SIVA" netid="HL" insttype="60" lat="35.0178" lon="24.812">
    <comp name="--.HHN">
      <acc value="0.0734199767" flag="0"/>
      <vel value="0.0237906128" flag="0"/>
      <psa03 value="0.1173599117" flag="0"/>
      <psa10 value="0.0182927607" flag="0"/>
      <psa30 value="0.0012861593" flag="0"/>
    </comp>
    <comp name="--.HHE">
      <acc value="0.0927720696" flag="0"/>
      <vel value="0.0315551843" flag="0"/>
      <psa03 value="0.1788438379" flag="0"/>
      <psa10 value="0.0196265397" flag="0"/>
      <psa30 value="0.0013502153" flag="0"/>
    </comp>
    <comp name="--.HHZ">
      <acc value="0.0534710924" flag="0"/>
      <vel value="0.0142805331" flag="0"/>
      <psa03 value="0.1059347182" flag="0"/>
      <psa10 value="0.0101414743" flag="0"/>
      <psa30 value="0.0005381080" flag="0"/>
    </comp>
  </station>
  <station code="VAM" name="VAM" netid="HL" insttype="CMG3ESPC-120s" lat="35.407" lon="24.1997">
    <comp name="--.HHE">
      <acc value="0.0178751157" flag="0"/>
      <vel value="0.0096442954" flag="0"/>
      <psa03 value="0.0567712518" flag="0"/>
      <psa10 value="0.0071927878" flag="0"/>
      <psa30 value="0.0004282967" flag="0"/>
    </comp>
    <comp name="--.HHN">
      <acc value="0.0262030357" flag="0"/>
      <vel value="0.0107564099" flag="0"/>
      <psa03 value="0.0648096994" flag="0"/>
      <psa10 value="0.0084025255" flag="0"/>
      <psa30 value="0.0008068997" flag="0"/>
    </comp>
    <comp name="--.HHZ">
      <acc value="0.0134264248" flag="0"/>
      <vel value="0.0066967851" flag="0"/>
      <psa03 value="0.0328532108" flag="0"/>
      <psa10 value="0.0031584946" flag="0"/>
      <psa30 value="0.0002348725" flag="0"/>
    </comp>
  </station>
  <station code="ZKR" name="ZKR" netid="HL" insttype="120" lat="35.1147" lon="26.2169">
    <comp name="--.HHN">
      <acc value="0.0120612923" flag="0"/>
      <vel value="0.0052314291" flag="0"/>
      <psa03 value="0.0335646883" flag="0"/>
      <psa10 value="0.0035807083" flag="0"/>
      <psa30 value="0.0002551072" flag="0"/>
    </comp>
    <comp name="--.HHE">
      <acc value="0.0202150600" flag="0"/>
      <vel value="0.0102673046" flag="0"/>
      <psa03 value="0.0541627037" flag="0"/>
      <psa10 value="0.0111943083" flag="0"/>
      <psa30 value="0.0004450770" flag="0"/>
    </comp>
    <comp name="--.HHZ">
      <acc value="0.0165915710" flag="0"/>
      <vel value="0.0065790715" flag="0"/>
      <psa03 value="0.0279573790" flag="0"/>
      <psa10 value="0.0050398774" flag="0"/>
      <psa30 value="0.0002554992" flag="0"/>
    </comp>
  </station>
  <station code="IDI" name="IDI" netid="MN" insttype="" lat="35.288" lon="24.89">
    <comp name="--.HHN">
      <acc value="0.1289043078" flag="0"/>
      <vel value="0.0235278052" flag="0"/>
      <psa03 value="0.1953891166" flag="0"/>
      <psa10 value="0.0120174590" flag="0"/>
      <psa30 value="0.0012101366" flag="0"/>
    </comp>
    <comp name="--.HHE">
      <acc value="0.1054339148" flag="0"/>
      <vel value="0.0277772666" flag="0"/>
      <psa03 value="0.1219828144" flag="0"/>
      <psa10 value="0.0113879103" flag="0"/>
      <psa30 value="0.0006559611" flag="0"/>
    </comp>
    <comp name="--.HHZ">
      <acc value="0.0786108119" flag="0"/>
      <vel value="0.0225653718" flag="0"/>
      <psa03 value="0.1631843344" flag="0"/>
      <psa10 value="0.0087685373" flag="0"/>
      <psa30 value="0.0005270848" flag="0"/>
    </comp>
  </station>
</stationlist>
