<?xml version="1.0" encoding="UTF-8" standalone="yes"?>
<!DOCTYPE earthquake SYSTEM "stationlist.dtd">
<stationlist created="" xmlns="ch.ethz.sed.shakemap.usgs.xml">
  <station code="ZKR" name="ZKR" netid="GE" insttype="STS-2/N" lat="35.1147" lon="26.2169">
    <comp name="--.HHE">
      <acc value="0.0062022360" flag="0"/>
      <vel value="0.0061806973" flag="0"/>
      <psa03 value="0.0119752354" flag="0"/>
      <psa10 value="0.0083674520" flag="0"/>
      <psa30 value="0.0015048570" flag="0"/>
    </comp>
    <comp name="--.HHN">
      <acc value="0.0027662902" flag="0"/>
      <vel value="0.0029047504" flag="0"/>
      <psa03 value="0.0059627912" flag="0"/>
      <psa10 value="0.0052527744" flag="0"/>
      <psa30 value="0.0005868025" flag="0"/>
    </comp>
    <comp name="--.HHZ">
      <acc value="0.0028827928" flag="0"/>
      <vel value="0.0034971818" flag="0"/>
      <psa03 value="0.0070444194" flag="0"/>
      <psa10 value="0.0052365913" flag="0"/>
      <psa30 value="0.0007548427" flag="0"/>
    </comp>
  </station>
  <station code="SIT2" name="SIT2" netid="HI" insttype="CMG-5TD,ACCELEROMETER,GURALP" lat="35.2059" lon="26.107">
    <comp name="--.HNE">
      <acc value="0.0243500910" flag="0"/>
      <vel value="0.0226505371" flag="0"/>
      <psa03 value="0.0385900056" flag="0"/>
      <psa10 value="0.0223758528" flag="0"/>
      <psa30 value="0.0018104397" flag="0"/>
    </comp>
    <comp name="--.HNZ">
      <acc value="0.0084166499" flag="0"/>
      <vel value="0.0042553402" flag="0"/>
      <psa03 value="0.0143827460" flag="0"/>
      <psa10 value="0.0042097030" flag="0"/>
      <psa30 value="0.0006623560" flag="0"/>
    </comp>
    <comp name="--.HNN">
      <acc value="0.0237469133" flag="0"/>
      <vel value="0.0194475993" flag="0"/>
      <psa03 value="0.0437372534" flag="0"/>
      <psa10 value="0.0189615824" flag="0"/>
      <psa30 value="0.0012823556" flag="0"/>
    </comp>
  </station>
  <station code="ZKR" name="ZKR" netid="HL" insttype="120" lat="35.1147" lon="26.2169">
    <comp name="--.HHE">
      <acc value="0.0061057100" flag="0"/>
      <vel value="0.0061107304" flag="0"/>
      <psa03 value="0.0116748384" flag="0"/>
      <psa10 value="0.0083076307" flag="0"/>
      <psa30 value="0.0015052199" flag="0"/>
    </comp>
    <comp name="--.HHN">
      <acc value="0.0027112824" flag="0"/>
      <vel value="0.0028908683" flag="0"/>
      <psa03 value="0.0058108450" flag="0"/>
      <psa10 value="0.0052158654" flag="0"/>
      <psa30 value="0.0005861097" flag="0"/>
    </comp>
    <comp name="--.HHZ">
      <acc value="0.0028550144" flag="0"/>
      <vel value="0.0034651249" flag="0"/>
      <psa03 value="0.0068531854" flag="0"/>
      <psa10 value="0.0052043621" flag="0"/>
      <psa30 value="0.0007551980" flag="0"/>
    </comp>
  </station>
</stationlist>
