<stationlist created="1778069399">
	<station code="IMMV" name="IMMV" netid="GE" source="GEOFON" insttype="" lat="35.4606" lon="23.9811">
		<comp name="--.HNE" depth="0.0">
			<acc value="0.00170848347737851" flag="0"/>
			<vel value="0.00194773504083741" flag="0"/>
			<psa03 value="0.00438473624859063" flag="0"/>
			<psa10 value="0.0041395489563225" flag="0"/>
			<psa30 value="0.000635786756045642" flag="0"/>
		</comp>
		<comp name="--.HNN" depth="0.0">
			<acc value="0.00170527892433617" flag="0"/>
			<vel value="0.00286777603078707" flag="0"/>
			<psa03 value="0.00492164272800989" flag="0"/>
			<psa10 value="0.00583483116508882" flag="0"/>
			<psa30 value="0.000510508577514481" flag="0"/>
		</comp>
		<comp name="--.HNZ" depth="0.0">
			<acc value="0.00153237927635921" flag="0"/>
			<vel value="0.00137494760642195" flag="0"/>
			<psa03 value="0.00366886094269828" flag="0"/>
			<psa10 value="0.00339056441753263" flag="0"/>
			<psa30 value="0.000367333516336011" flag="0"/>
		</comp>
	</station>
</stationlist>
