<stationlist created="1631873490">
	<station code="BLY" name="BLY" netid="MN" source="Mediterranean Very Broadband Seismographic Network (MedNet)" insttype="" lat="44.7488" lon="17.1839">
		<comp name="--.HNE" depth="1.0">
			<acc value="-0.025503264" flag="0"/>
			<vel value="0.026145" flag="0"/>
			<psa03 value="0.0851891614012" flag="0"/>
			<psa10 value="0.0315620473927" flag="0"/>
			<psa30 value="0.00181563874457" flag="0"/>
		</comp>
		<comp name="--.HNN" depth="1.0">
			<acc value="0.018566754" flag="0"/>
			<vel value="0.012637" flag="0"/>
			<psa03 value="0.077359275243" flag="0"/>
			<psa10 value="0.0189178998023" flag="0"/>
			<psa30 value="0.00189706956061" flag="0"/>
		</comp>
		<comp name="--.HNZ" depth="1.0">
			<acc value="-0.022312092" flag="0"/>
			<vel value="0.010482" flag="0"/>
			<psa03 value="0.0410733456756" flag="0"/>
			<psa10 value="0.012966291478" flag="0"/>
			<psa30 value="0.00086620912013" flag="0"/>
		</comp>
	</station>
</stationlist>
