<?xml version="1.0" encoding="UTF-8" standalone="yes"?>
<!DOCTYPE earthquake SYSTEM "stationlist.dtd">
<stationlist created="" xmlns="ch.ethz.sed.shakemap.usgs.xml">
  <station code="BLY" name="BLY" netid="MN" insttype="" lat="44.7488" lon="17.1839">
    <comp name="--.HHE">
      <acc value="0.0244839352" flag="0"/>
      <vel value="0.0255359147" flag="0"/>
      <psa03 value="0.0890362668" flag="0"/>
      <psa10 value="0.0311902256" flag="0"/>
      <psa30 value="0.0018217068" flag="0"/>
    </comp>
    <comp name="--.HHN">
      <acc value="0.0196340704" flag="0"/>
      <vel value="0.0125651443" flag="0"/>
      <psa03 value="0.0728734071" flag="0"/>
      <psa10 value="0.0176069779" flag="0"/>
      <psa30 value="0.0017428104" flag="0"/>
    </comp>
    <comp name="--.HHZ">
      <acc value="0.0227913704" flag="0"/>
      <vel value="0.0104414495" flag="0"/>
      <psa03 value="0.0419881914" flag="0"/>
      <psa10 value="0.0129749227" flag="0"/>
      <psa30 value="0.0007821561" flag="0"/>
    </comp>
  </station>
</stationlist>
