<?xml version="1.0" encoding="UTF-8" standalone="yes"?>
<!DOCTYPE earthquake SYSTEM "stationlist.dtd">
<stationlist created="" xmlns="ch.ethz.sed.shakemap.usgs.xml">
  <station code="SARI" name="SARI" netid="KO" insttype="CMG-3T" lat="38.4072" lon="36.4181">
    <comp name="--.HHZ">
      <acc value="0.0281080450" flag="0"/>
      <vel value="0.0098556255" flag="0"/>
      <psa03 value="0.0620570870" flag="0"/>
      <psa10 value="0.0038605209" flag="0"/>
      <psa30 value="0.0003232120" flag="0"/>
    </comp>
    <comp name="--.HHE">
      <acc value="0.0636913632" flag="0"/>
      <vel value="0.0199052231" flag="0"/>
      <psa03 value="0.1182159275" flag="0"/>
      <psa10 value="0.0050024373" flag="0"/>
      <psa30 value="0.0005173815" flag="0"/>
    </comp>
    <comp name="--.HHN">
      <acc value="0.0514856980" flag="0"/>
      <vel value="0.0117989178" flag="0"/>
      <psa03 value="0.0785086466" flag="0"/>
      <psa10 value="0.0043077819" flag="0"/>
      <psa30 value="0.0002868880" flag="0"/>
    </comp>
  </station>
  <station code="ANDN" name="ANDN" netid="TU" insttype="T" lat="37.58" lon="36.3452">
    <comp name="--.HHE">
      <acc value="0.0424804414" flag="0"/>
      <vel value="0.0119110890" flag="0"/>
      <psa03 value="0.0699961371" flag="0"/>
      <psa10 value="0.0160964712" flag="0"/>
      <psa30 value="0.0008710492" flag="0"/>
    </comp>
    <comp name="--.HHN">
      <acc value="0.0727924588" flag="0"/>
      <vel value="0.0188206475" flag="0"/>
      <psa03 value="0.1044005653" flag="0"/>
      <psa10 value="0.0126383839" flag="0"/>
      <psa30 value="0.0008396939" flag="0"/>
    </comp>
    <comp name="--.HHZ">
      <acc value="0.0235685619" flag="0"/>
      <vel value="0.0095841686" flag="0"/>
      <psa03 value="0.0374848610" flag="0"/>
      <psa10 value="0.0110744461" flag="0"/>
      <psa30 value="0.0006394525" flag="0"/>
    </comp>
  </station>
</stationlist>
