<stationlist created="1778136416">
	<station code="MALA" name="MALA" netid="CL" source="Corinth Riff Laboratory (CRLNET)" insttype="" lat="38.39341" lon="21.87263">
		<comp name="01.HNE" depth="0.0">
			<acc value="0.211290766864766" flag="0"/>
			<vel value="0.368086021068872" flag="0"/>
			<psa03 value="0.336501791592322" flag="0"/>
			<psa10 value="0.763650068069327" flag="0"/>
			<psa30 value="0.166289042499523" flag="0"/>
		</comp>
		<comp name="01.HNN" depth="0.0">
			<acc value="0.18188158491857" flag="0"/>
			<vel value="0.269105012041769" flag="0"/>
			<psa03 value="0.288045894126877" flag="0"/>
			<psa10 value="0.711807833776782" flag="0"/>
			<psa30 value="0.0967181071000816" flag="0"/>
		</comp>
		<comp name="01.HNZ" depth="0.0">
			<acc value="0.0831629201597239" flag="0"/>
			<vel value="0.159026220112786" flag="0"/>
			<psa03 value="0.135740544228328" flag="0"/>
			<psa10 value="0.188999230271382" flag="0"/>
			<psa30 value="0.0858053575171934" flag="0"/>
		</comp>
	</station>
	<station code="ROD3" name="ROD3" netid="CL" source="Corinth Riff Laboratory (CRLNET)" insttype="" lat="38.30811" lon="21.89204">
		<comp name="00.HNE" depth="0.0">
			<acc value="0.082805490320354" flag="0"/>
			<vel value="0.0959163185719099" flag="0"/>
			<psa03 value="0.39651072522288" flag="0"/>
			<psa10 value="0.15329104477924" flag="0"/>
			<psa30 value="0.0396895159023116" flag="0"/>
		</comp>
		<comp name="00.HNN" depth="0.0">
			<acc value="0.10229921383106" flag="0"/>
			<vel value="0.0945595412216779" flag="0"/>
			<psa03 value="0.284360045790683" flag="0"/>
			<psa10 value="0.150259328942983" flag="0"/>
			<psa30 value="0.0345419982378542" flag="0"/>
		</comp>
		<comp name="00.HNZ" depth="0.0">
			<acc value="0.0331418525212598" flag="0"/>
			<vel value="0.0445712936985178" flag="0"/>
			<psa03 value="0.0770342489742478" flag="0"/>
			<psa10 value="0.0646415471852267" flag="0"/>
			<psa30 value="0.026678298973058" flag="0"/>
		</comp>
	</station>
	<station code="E02" name="E02" netid="EG" source="EUROSEISTEST Strong Motion Network" insttype="" lat="40.674206" lon="23.315498">
		<comp name="--.EN1" depth="0.0">
			<acc value="0.0924619687263145" flag="0"/>
			<vel value="0.115674886907048" flag="0"/>
			<psa03 value="0.219421473095552" flag="0"/>
			<psa10 value="0.382081701037566" flag="0"/>
			<psa30 value="0.037371555682168" flag="0"/>
		</comp>
		<comp name="--.EN2" depth="0.0">
			<acc value="0.10012270708183" flag="0"/>
			<vel value="0.1533997488188" flag="0"/>
			<psa03 value="0.29533916893733" flag="0"/>
			<psa10 value="0.273243491040145" flag="0"/>
			<psa30 value="0.061168518780676" flag="0"/>
		</comp>
		<comp name="--.EN3" depth="0.0">
			<acc value="0.0528703386254532" flag="0"/>
			<vel value="0.0542376412726642" flag="0"/>
			<psa03 value="0.0974744676216075" flag="0"/>
			<psa10 value="0.0946192555613812" flag="0"/>
			<psa30 value="0.0258368632320661" flag="0"/>
		</comp>
	</station>
	<station code="MMAA" name="MMAA" netid="EG" source="EUROSEISTEST Strong Motion Network" insttype="" lat="40.630855" lon="22.943725">
		<comp name="--.EN1" depth="0.0">
			<acc value="0.112110106340405" flag="0"/>
			<vel value="0.0936535921789863" flag="0"/>
			<psa03 value="0.324040611933431" flag="0"/>
			<psa10 value="0.21040156807145" flag="0"/>
			<psa30 value="0.0578943752183021" flag="0"/>
		</comp>
		<comp name="--.EN2" depth="0.0">
			<acc value="0.0973334120683467" flag="0"/>
			<vel value="0.102029134127601" flag="0"/>
			<psa03 value="0.361588828485186" flag="0"/>
			<psa10 value="0.213187657635959" flag="0"/>
			<psa30 value="0.0360862438698994" flag="0"/>
		</comp>
		<comp name="--.EN3" depth="0.0">
			<acc value="0.0841337753838476" flag="0"/>
			<vel value="0.0500491471348272" flag="0"/>
			<psa03 value="0.131404413230713" flag="0"/>
			<psa10 value="0.046920952032762" flag="0"/>
			<psa30 value="0.0288542414518811" flag="0"/>
		</comp>
	</station>
	<station code="STC" name="STC" netid="EG" source="EUROSEISTEST Strong Motion Network" insttype="" lat="40.64865" lon="23.304856">
		<comp name="--.EN1" depth="0.0">
			<acc value="0.0868442182476819" flag="0"/>
			<vel value="0.0772075791760559" flag="0"/>
			<psa03 value="0.297445204284949" flag="0"/>
			<psa10 value="0.0911218563758083" flag="0"/>
			<psa30 value="0.045864281616882" flag="0"/>
		</comp>
		<comp name="--.EN2" depth="0.0">
			<acc value="0.0815994593996971" flag="0"/>
			<vel value="0.0837541462342291" flag="0"/>
			<psa03 value="0.207928628417872" flag="0"/>
			<psa10 value="0.0780835926548702" flag="0"/>
			<psa30 value="0.0419168967886764" flag="0"/>
		</comp>
		<comp name="--.EN3" depth="0.0">
			<acc value="0.0414188093039782" flag="0"/>
			<vel value="0.0628789088673615" flag="0"/>
			<psa03 value="0.0917486091449972" flag="0"/>
			<psa10 value="0.0509416383834352" flag="0"/>
			<psa30 value="0.0260680885495887" flag="0"/>
		</comp>
	</station>
	<station code="TST" name="TST" netid="EG" source="EUROSEISTEST Strong Motion Network" insttype="" lat="40.6638" lon="23.2906">
		<comp name="00.EN1" depth="0.0">
			<acc value="0.0801894951762052" flag="0"/>
			<vel value="0.0554678804581595" flag="0"/>
			<psa03 value="0.159315845559693" flag="0"/>
			<psa10 value="0.0877990312551183" flag="0"/>
			<psa30 value="0.0302451369252397" flag="0"/>
		</comp>
		<comp name="00.EN2" depth="0.0">
			<acc value="0.0315664557621304" flag="0"/>
			<vel value="0.0357011247977022" flag="0"/>
			<psa03 value="0.070347675813086" flag="0"/>
			<psa10 value="0.0417719621876058" flag="0"/>
			<psa30 value="0.0174581515168673" flag="0"/>
		</comp>
		<comp name="00.EN3" depth="0.0">
			<acc value="0.0587270509718957" flag="0"/>
			<vel value="0.079771077903554" flag="0"/>
			<psa03 value="0.193345454020623" flag="0"/>
			<psa10 value="0.112694275442507" flag="0"/>
			<psa30 value="0.0644087667645289" flag="0"/>
		</comp>
	</station>
	<station code="W02" name="W02" netid="EG" source="EUROSEISTEST Strong Motion Network" insttype="" lat="40.661088" lon="23.260065">
		<comp name="--.EN1" depth="0.0">
			<acc value="0.0683299576330719" flag="0"/>
			<vel value="0.116491647008856" flag="0"/>
			<psa03 value="0.146945619842733" flag="0"/>
			<psa10 value="0.130029258800443" flag="0"/>
			<psa30 value="0.083204771907645" flag="0"/>
		</comp>
		<comp name="--.EN2" depth="0.0">
			<acc value="0.0739062862076539" flag="0"/>
			<vel value="0.164491965736161" flag="0"/>
			<psa03 value="0.201045255761582" flag="0"/>
			<psa10 value="0.170063235854658" flag="0"/>
			<psa30 value="0.121674713685789" flag="0"/>
		</comp>
		<comp name="--.EN3" depth="0.0">
			<acc value="0.0299864563923122" flag="0"/>
			<vel value="0.0437073564544931" flag="0"/>
			<psa03 value="0.0738010608332" flag="0"/>
			<psa10 value="0.071397747250173" flag="0"/>
			<psa30 value="0.0215709539698541" flag="0"/>
		</comp>
	</station>
	<station code="AIGS" name="AIGS" netid="HA" source="Hellenic Seismological Network, University of Athens, Seismological Laboratory (HA)" insttype="" lat="38.25001" lon="22.0878">
		<comp name="--.HNE" depth="0.0">
			<acc value="0.0524835676517904" flag="0"/>
			<vel value="0.124036303815368" flag="0"/>
			<psa03 value="0.174852543464206" flag="0"/>
			<psa10 value="0.0692488554492977" flag="0"/>
			<psa30 value="0.0833108835673544" flag="0"/>
		</comp>
		<comp name="--.HNN" depth="0.0">
			<acc value="0.0519935743800265" flag="0"/>
			<vel value="0.144762386900389" flag="0"/>
			<psa03 value="0.169528220876632" flag="0"/>
			<psa10 value="0.072405865548283" flag="0"/>
			<psa30 value="0.0670649883442599" flag="0"/>
		</comp>
		<comp name="--.HNZ" depth="0.0">
			<acc value="0.034825355116308" flag="0"/>
			<vel value="0.0962525066101226" flag="0"/>
			<psa03 value="0.0548986875206194" flag="0"/>
			<psa10 value="0.0611066686889046" flag="0"/>
			<psa30 value="0.057549663262752" flag="0"/>
		</comp>
	</station>
	<station code="KIAS" name="KIAS" netid="HA" source="Hellenic Seismological Network, University of Athens, Seismological Laboratory (HA)" insttype="" lat="37.9875" lon="22.7543">
		<comp name="--.HNE" depth="0.0">
			<acc value="0.0330714806536125" flag="0"/>
			<vel value="0.107740364474879" flag="0"/>
			<psa03 value="0.0638918710508921" flag="0"/>
			<psa10 value="0.110930247712814" flag="0"/>
			<psa30 value="0.0679701231841475" flag="0"/>
		</comp>
		<comp name="--.HNN" depth="0.0">
			<acc value="0.0366549999475908" flag="0"/>
			<vel value="0.106135080286126" flag="0"/>
			<psa03 value="0.0597308458353928" flag="0"/>
			<psa10 value="0.0967599434547407" flag="0"/>
			<psa30 value="0.0511327359895595" flag="0"/>
		</comp>
		<comp name="--.HNZ" depth="0.0">
			<acc value="0.0260616786463941" flag="0"/>
			<vel value="0.0477062881236487" flag="0"/>
			<psa03 value="0.0429077761469226" flag="0"/>
			<psa10 value="0.0510557793941761" flag="0"/>
			<psa30 value="0.0300770535550008" flag="0"/>
		</comp>
	</station>
	<station code="LTRS" name="LTRS" netid="HA" source="Hellenic Seismological Network, University of Athens, Seismological Laboratory (HA)" insttype="" lat="37.97528" lon="22.9765">
		<comp name="--.HNE" depth="0.0">
			<acc value="0.037914477522959" flag="0"/>
			<vel value="0.0737474202974892" flag="0"/>
			<psa03 value="0.0594176503890649" flag="0"/>
			<psa10 value="0.101048483959102" flag="0"/>
			<psa30 value="0.0201496527505387" flag="0"/>
		</comp>
		<comp name="--.HNN" depth="0.0">
			<acc value="0.0346716394957833" flag="0"/>
			<vel value="0.0683231661429681" flag="0"/>
			<psa03 value="0.0637576444310373" flag="0"/>
			<psa10 value="0.0715803718361759" flag="0"/>
			<psa30 value="0.0238153817387737" flag="0"/>
		</comp>
		<comp name="--.HNZ" depth="0.0">
			<acc value="0.0264616778343746" flag="0"/>
			<vel value="0.0356379865792154" flag="0"/>
			<psa03 value="0.0481873565278787" flag="0"/>
			<psa10 value="0.0536208500996016" flag="0"/>
			<psa30 value="0.0141277991617855" flag="0"/>
		</comp>
	</station>
	<station code="XLKS" name="XLKS" netid="HA" source="Hellenic Seismological Network, University of Athens, Seismological Laboratory (HA)" insttype="" lat="38.0772" lon="22.6361">
		<comp name="--.HNE" depth="0.0">
			<acc value="0.114316692160873" flag="0"/>
			<vel value="0.141798602257669" flag="0"/>
			<psa03 value="0.18380098478786" flag="0"/>
			<psa10 value="0.153602232430858" flag="0"/>
			<psa30 value="0.0734626764686066" flag="0"/>
		</comp>
		<comp name="--.HNN" depth="0.0">
			<acc value="0.0750647536180743" flag="0"/>
			<vel value="0.12044222323319" flag="0"/>
			<psa03 value="0.140982693054174" flag="0"/>
			<psa10 value="0.229994628588829" flag="0"/>
			<psa30 value="0.0729986997859751" flag="0"/>
		</comp>
		<comp name="--.HNZ" depth="0.0">
			<acc value="0.0381658652083076" flag="0"/>
			<vel value="0.0546475311544906" flag="0"/>
			<psa03 value="0.12505446749807" flag="0"/>
			<psa10 value="0.0649160201603843" flag="0"/>
			<psa30 value="0.0236659427686687" flag="0"/>
		</comp>
	</station>
	<station code="ART2" name="ART2" netid="HI" source="ITSAK Strong Motion Network" insttype="" lat="39.1474" lon="20.9937">
		<comp name="--.HNE" depth="0.0">
			<acc value="0.0719614728309295" flag="0"/>
			<vel value="0.104158543583483" flag="0"/>
			<psa03 value="0.247260775646139" flag="0"/>
			<psa10 value="0.0947864341360157" flag="0"/>
			<psa30 value="0.0681459209993429" flag="0"/>
		</comp>
		<comp name="--.HNN" depth="0.0">
			<acc value="0.086176915803246" flag="0"/>
			<vel value="0.0991693987014736" flag="0"/>
			<psa03 value="0.153852004440036" flag="0"/>
			<psa10 value="0.123114483230427" flag="0"/>
			<psa30 value="0.0488584366317987" flag="0"/>
		</comp>
		<comp name="--.HNZ" depth="0.0">
			<acc value="0.0535247065632556" flag="0"/>
			<vel value="0.0633111344386343" flag="0"/>
			<psa03 value="0.176166920193934" flag="0"/>
			<psa10 value="0.0696330603484491" flag="0"/>
			<psa30 value="0.0282554584521401" flag="0"/>
		</comp>
	</station>
	<station code="KLV1" name="KLV1" netid="HI" source="ITSAK Strong Motion Network" insttype="" lat="38.03256" lon="22.10797">
		<comp name="--.HNE" depth="0.0">
			<acc value="0.0458475604309905" flag="0"/>
			<vel value="0.0693266153169579" flag="0"/>
			<psa03 value="0.116239887822247" flag="0"/>
			<psa10 value="0.0916843186360082" flag="0"/>
			<psa30 value="0.0288691357718869" flag="0"/>
		</comp>
		<comp name="--.HNN" depth="0.0">
			<acc value="0.0451216307526706" flag="0"/>
			<vel value="0.0851699869790215" flag="0"/>
			<psa03 value="0.117724184066268" flag="0"/>
			<psa10 value="0.100213771170667" flag="0"/>
			<psa30 value="0.025075689474689" flag="0"/>
		</comp>
		<comp name="--.HNZ" depth="0.0">
			<acc value="0.0326324117743099" flag="0"/>
			<vel value="0.0516187411893611" flag="0"/>
			<psa03 value="0.043202367153142" flag="0"/>
			<psa10 value="0.0808756301133844" flag="0"/>
			<psa30 value="0.0208185174579233" flag="0"/>
		</comp>
	</station>
	<station code="KRK1" name="KRK1" netid="HI" source="ITSAK Strong Motion Network" insttype="" lat="39.618861" lon="19.9202">
		<comp name="--.HNE" depth="0.0">
			<acc value="0.263395011496345" flag="0"/>
			<vel value="0.311932789618617" flag="0"/>
			<psa03 value="0.589286579011344" flag="0"/>
			<psa10 value="0.520026669212885" flag="0"/>
			<psa30 value="0.0619355629272816" flag="0"/>
		</comp>
		<comp name="--.HNN" depth="0.0">
			<acc value="0.249467895859332" flag="0"/>
			<vel value="0.198853242489319" flag="0"/>
			<psa03 value="0.585384153826277" flag="0"/>
			<psa10 value="0.244976638500218" flag="0"/>
			<psa30 value="0.053355577878659" flag="0"/>
		</comp>
		<comp name="--.HNZ" depth="0.0">
			<acc value="0.0974142817977672" flag="0"/>
			<vel value="0.165523114437003" flag="0"/>
			<psa03 value="0.266092085628271" flag="0"/>
			<psa10 value="0.276491866229099" flag="0"/>
			<psa30 value="0.0623119278593634" flag="0"/>
		</comp>
	</station>
	<station code="LAM2" name="LAM2" netid="HI" source="ITSAK Strong Motion Network" insttype="" lat="38.90203" lon="22.431301">
		<comp name="--.HNE" depth="0.0">
			<acc value="0.171483461160137" flag="0"/>
			<vel value="0.216976016770683" flag="0"/>
			<psa03 value="0.450159737538451" flag="0"/>
			<psa10 value="0.203099969376224" flag="0"/>
			<psa30 value="0.0664333875527357" flag="0"/>
		</comp>
		<comp name="--.HNN" depth="0.0">
			<acc value="0.227363996998751" flag="0"/>
			<vel value="0.186309430499425" flag="0"/>
			<psa03 value="0.486787913975676" flag="0"/>
			<psa10 value="0.219849043920084" flag="0"/>
			<psa30 value="0.056732364907254" flag="0"/>
		</comp>
		<comp name="--.HNZ" depth="0.0">
			<acc value="0.123794479216938" flag="0"/>
			<vel value="0.120523427995273" flag="0"/>
			<psa03 value="0.286374095878218" flag="0"/>
			<psa10 value="0.109613026325176" flag="0"/>
			<psa30 value="0.0621721452663834" flag="0"/>
		</comp>
	</station>
	<station code="LMS2" name="LMS2" netid="HI" source="ITSAK Strong Motion Network" insttype="" lat="40.834985" lon="21.141815">
		<comp name="--.HNE" depth="0.0">
			<acc value="0.135797599751835" flag="0"/>
			<vel value="0.167009379485646" flag="0"/>
			<psa03 value="0.299830299785949" flag="0"/>
			<psa10 value="0.196046742134503" flag="0"/>
			<psa30 value="0.0538071877952472" flag="0"/>
		</comp>
		<comp name="--.HNN" depth="0.0">
			<acc value="0.137896750416414" flag="0"/>
			<vel value="0.245447840753356" flag="0"/>
			<psa03 value="0.380079053371859" flag="0"/>
			<psa10 value="0.273727483102286" flag="0"/>
			<psa30 value="0.0496154734483322" flag="0"/>
		</comp>
		<comp name="--.HNZ" depth="0.0">
			<acc value="0.0965060508240462" flag="0"/>
			<vel value="0.167159227646398" flag="0"/>
			<psa03 value="0.218591438943422" flag="0"/>
			<psa10 value="0.319985357459386" flag="0"/>
			<psa30 value="0.101595903563132" flag="0"/>
		</comp>
	</station>
	<station code="MSL1" name="MSL1" netid="HI" source="ITSAK Strong Motion Network" insttype="" lat="38.3727" lon="21.4243">
		<comp name="--.HNE" depth="0.0">
			<acc value="0.247876547571479" flag="0"/>
			<vel value="0.44752118196275" flag="0"/>
			<psa03 value="0.354491566660034" flag="0"/>
			<psa10 value="0.749993823409924" flag="0"/>
			<psa30 value="0.104071320881009" flag="0"/>
		</comp>
		<comp name="--.HNN" depth="0.0">
			<acc value="0.278120263069053" flag="0"/>
			<vel value="0.344049080797859" flag="0"/>
			<psa03 value="0.447106326932997" flag="0"/>
			<psa10 value="0.681032935087807" flag="0"/>
			<psa30 value="0.0978083726582162" flag="0"/>
		</comp>
		<comp name="--.HNZ" depth="0.0">
			<acc value="0.101353150491081" flag="0"/>
			<vel value="0.195766755202489" flag="0"/>
			<psa03 value="0.18132351179288" flag="0"/>
			<psa10 value="0.304214332706649" flag="0"/>
			<psa30 value="0.077274432385375" flag="0"/>
		</comp>
	</station>
	<station code="PYL1" name="PYL1" netid="HI" source="ITSAK Strong Motion Network" insttype="" lat="36.914188" lon="21.695161">
		<comp name="--.HNE" depth="0.0">
			<acc value="0.00917529009819312" flag="0"/>
			<vel value="0.0404801243607898" flag="0"/>
			<psa03 value="0.0119412194325982" flag="0"/>
			<psa10 value="0.0197149828958472" flag="0"/>
			<psa30 value="0.0177920869717783" flag="0"/>
		</comp>
		<comp name="--.HNN" depth="0.0">
			<acc value="0.00562623877630654" flag="0"/>
			<vel value="0.0212899931229444" flag="0"/>
			<psa03 value="0.006708901463047" flag="0"/>
			<psa10 value="0.0153813776907737" flag="0"/>
			<psa30 value="0.0160958712724855" flag="0"/>
		</comp>
		<comp name="--.HNZ" depth="0.0">
			<acc value="0.00619637713569231" flag="0"/>
			<vel value="0.018753500015866" flag="0"/>
			<psa03 value="0.00954305014898222" flag="0"/>
			<psa10 value="0.0152568225646055" flag="0"/>
			<psa30 value="0.0132893361866467" flag="0"/>
		</comp>
	</station>
	<station code="SKO1" name="SKO1" netid="HI" source="ITSAK Strong Motion Network" insttype="" lat="39.123383" lon="23.728705">
		<comp name="--.HNE" depth="0.0">
			<acc value="0.0242672008103866" flag="0"/>
			<vel value="0.0293693791154274" flag="0"/>
			<psa03 value="0.058610174303161" flag="0"/>
			<psa10 value="0.0276424436762194" flag="0"/>
			<psa30 value="0.0103953828097433" flag="0"/>
		</comp>
		<comp name="--.HNN" depth="0.0">
			<acc value="0.0203390870765564" flag="0"/>
			<vel value="0.0227696099260104" flag="0"/>
			<psa03 value="0.0630958204136165" flag="0"/>
			<psa10 value="0.0276084120468044" flag="0"/>
			<psa30 value="0.00751239932625312" flag="0"/>
		</comp>
		<comp name="--.HNZ" depth="0.0">
			<acc value="0.0204320942699417" flag="0"/>
			<vel value="0.026722278639113" flag="0"/>
			<psa03 value="0.0431912908985551" flag="0"/>
			<psa10 value="0.0274894635420512" flag="0"/>
			<psa30 value="0.00723600518315872" flag="0"/>
		</comp>
	</station>
	<station code="VAS2" name="VAS2" netid="HI" source="ITSAK Strong Motion Network" insttype="" lat="38.630558" lon="20.608081">
		<comp name="--.HNE" depth="0.0">
			<acc value="0.309199766615282" flag="0"/>
			<vel value="0.432067796015444" flag="0"/>
			<psa03 value="0.709772352266683" flag="0"/>
			<psa10 value="1.04078670701142" flag="0"/>
			<psa30 value="0.0877254980503461" flag="0"/>
		</comp>
		<comp name="--.HNN" depth="0.0">
			<acc value="0.37760317331422" flag="0"/>
			<vel value="0.61501307217058" flag="0"/>
			<psa03 value="0.902832308209134" flag="0"/>
			<psa10 value="0.880527670635387" flag="0"/>
			<psa30 value="0.253076258393412" flag="0"/>
		</comp>
		<comp name="--.HNZ" depth="0.0">
			<acc value="0.25378462046921" flag="0"/>
			<vel value="0.269209646656557" flag="0"/>
			<psa03 value="0.405099544190227" flag="0"/>
			<psa10 value="0.671520564943591" flag="0"/>
			<psa30 value="0.0531514276877472" flag="0"/>
		</comp>
	</station>
	<station code="VOL2" name="VOL2" netid="HI" source="ITSAK Strong Motion Network" insttype="" lat="39.366" lon="22.9506">
		<comp name="--.HNE" depth="0.0">
			<acc value="0.105050642997163" flag="0"/>
			<vel value="0.100990272937372" flag="0"/>
