<?xml version="1.0" encoding="UTF-8" standalone="yes"?>
<!DOCTYPE earthquake SYSTEM "stationlist.dtd">
<stationlist created="" xmlns="ch.ethz.sed.shakemap.usgs.xml">
  <station code="KBN" name="KBN" netid="AC" insttype="" lat="40.6236" lon="20.7874">
    <comp name="--.HHN">
      <acc value="0.1293082728" flag="0"/>
      <vel value="0.2363008939" flag="0"/>
      <psa03 value="0.1968866956" flag="0"/>
      <psa10 value="0.4174277143" flag="0"/>
      <psa30 value="0.0690671371" flag="0"/>
    </comp>
    <comp name="--.HHE">
      <acc value="0.1034869552" flag="0"/>
      <vel value="0.1159768285" flag="0"/>
      <psa03 value="0.1707498016" flag="0"/>
      <psa10 value="0.2306574857" flag="0"/>
      <psa30 value="0.0464464702" flag="0"/>
    </comp>
    <comp name="--.HHZ">
      <acc value="0.0838940721" flag="0"/>
      <vel value="0.1356006486" flag="0"/>
      <psa03 value="0.1369483948" flag="0"/>
      <psa10 value="0.1548380118" flag="0"/>
      <psa30 value="0.0650933549" flag="0"/>
    </comp>
  </station>
  <station code="KALE" name="KALE" netid="HA" insttype="40," lat="38.3911" lon="22.1398">
    <comp name="--.HHN">
      <acc value="0.0974639671" flag="0"/>
      <vel value="0.1200989535" flag="0"/>
      <psa03 value="0.1882066211" flag="0"/>
      <psa10 value="0.1001395405" flag="0"/>
      <psa30 value="0.0369164270" flag="0"/>
    </comp>
    <comp name="--.HHE">
      <acc value="0.0824701420" flag="0"/>
      <vel value="0.1279285242" flag="0"/>
      <psa03 value="0.1531599442" flag="0"/>
      <psa10 value="0.1229854271" flag="0"/>
      <psa30 value="0.0649450019" flag="0"/>
    </comp>
    <comp name="--.HHZ">
      <acc value="0.0393013521" flag="0"/>
      <vel value="0.0679917560" flag="0"/>
      <psa03 value="0.1227707155" flag="0"/>
      <psa10 value="0.0613887604" flag="0"/>
      <psa30 value="0.0323514123" flag="0"/>
    </comp>
  </station>
  <station code="LAKA" name="LAKA" netid="HA" insttype="120s" lat="38.2401" lon="21.9785">
    <comp name="--.HHE">
      <acc value="0.0208391088" flag="0"/>
      <vel value="0.0597270320" flag="0"/>
      <psa03 value="0.0367087531" flag="0"/>
      <psa10 value="0.0412687169" flag="0"/>
      <psa30 value="0.0407181540" flag="0"/>
    </comp>
    <comp name="--.HHN">
      <acc value="0.0213503816" flag="0"/>
      <vel value="0.0767825629" flag="0"/>
      <psa03 value="0.0402941797" flag="0"/>
      <psa10 value="0.0510594813" flag="0"/>
      <psa30 value="0.0425726963" flag="0"/>
    </comp>
    <comp name="--.HHZ">
      <acc value="0.0150427174" flag="0"/>
      <vel value="0.0563300287" flag="0"/>
      <psa03 value="0.0295872130" flag="0"/>
      <psa10 value="0.0323833951" flag="0"/>
      <psa30 value="0.0314384080" flag="0"/>
    </comp>
  </station>
  <station code="ART2" name="ART2" netid="HI" insttype="CMG-5TD,ACCELEROMETER,GURALP" lat="39.1474" lon="20.9937">
    <comp name="--.HNE">
      <acc value="0.0708367904" flag="0"/>
      <vel value="0.0942880668" flag="0"/>
      <psa03 value="0.2497429333" flag="0"/>
      <psa10 value="0.0945784186" flag="0"/>
      <psa30 value="0.0676790355" flag="0"/>
    </comp>
    <comp name="--.HNN">
      <acc value="0.0870865713" flag="0"/>
      <vel value="0.0859155620" flag="0"/>
      <psa03 value="0.1528957748" flag="0"/>
      <psa10 value="0.1236097208" flag="0"/>
      <psa30 value="0.0483304376" flag="0"/>
    </comp>
    <comp name="--.HNZ">
      <acc value="0.0526792653" flag="0"/>
      <vel value="0.0647911822" flag="0"/>
      <psa03 value="0.1785961601" flag="0"/>
      <psa10 value="0.0685740929" flag="0"/>
      <psa30 value="0.0272220492" flag="0"/>
    </comp>
  </station>
  <station code="KRK1" name="KRK1" netid="HI" insttype="CMG-5TD,ACCELEROMETER,GURALP" lat="39.6189" lon="19.9202">
    <comp name="--.HNE">
      <acc value="0.2629697069" flag="0"/>
      <vel value="0.3089379233" flag="0"/>
      <psa03 value="0.5947982955" flag="0"/>
      <psa10 value="0.5194071858" flag="0"/>
      <psa30 value="0.0618794800" flag="0"/>
    </comp>
    <comp name="--.HNN">
      <acc value="0.2493052346" flag="0"/>
      <vel value="0.2031387663" flag="0"/>
      <psa03 value="0.5835807681" flag="0"/>
      <psa10 value="0.2445060847" flag="0"/>
      <psa30 value="0.0530507461" flag="0"/>
    </comp>
    <comp name="--.HNZ">
      <acc value="0.0966952007" flag="0"/>
      <vel value="0.1538428718" flag="0"/>
      <psa03 value="0.2666146551" flag="0"/>
      <psa10 value="0.2767149513" flag="0"/>
      <psa30 value="0.0602962440" flag="0"/>
    </comp>
  </station>
  <station code="LAM2" name="LAM2" netid="HI" insttype="CMG-5TD,ACCELEROMETER,GURALP" lat="38.902" lon="22.4313">
    <comp name="--.HNN">
      <acc value="0.2280669564" flag="0"/>
      <vel value="0.1789189123" flag="0"/>
      <psa03 value="0.4851441472" flag="0"/>
      <psa10 value="0.2188895161" flag="0"/>
      <psa30 value="0.0560865527" flag="0"/>
    </comp>
    <comp name="--.HNE">
      <acc value="0.1690845335" flag="0"/>
      <vel value="0.1773916200" flag="0"/>
      <psa03 value="0.4545947862" flag="0"/>
      <psa10 value="0.2024333147" flag="0"/>
      <psa30 value="0.0621326505" flag="0"/>
    </comp>
    <comp name="--.HNZ">
      <acc value="0.1243248746" flag="0"/>
      <vel value="0.1171424119" flag="0"/>
      <psa03 value="0.2845051477" flag="0"/>
      <psa10 value="0.1096663106" flag="0"/>
      <psa30 value="0.0609249343" flag="0"/>
    </comp>
  </station>
  <station code="LMS2" name="LMS2" netid="HI" insttype="CMG-5TD,ACCELEROMETER,GURALP" lat="40.835" lon="21.1418">
    <comp name="--.HNZ">
      <acc value="0.0958069809" flag="0"/>
      <vel value="0.1573604609" flag="0"/>
      <psa03 value="0.2206480012" flag="0"/>
      <psa10 value="0.3189212744" flag="0"/>
      <psa30 value="0.1004403408" flag="0"/>
    </comp>
    <comp name="--.HNE">
      <acc value="0.1358900234" flag="0"/>
      <vel value="0.1485139469" flag="0"/>
      <psa03 value="0.3000411087" flag="0"/>
      <psa10 value="0.1966542528" flag="0"/>
      <psa30 value="0.0538597195" flag="0"/>
    </comp>
    <comp name="--.HNN">
      <acc value="0.1354838909" flag="0"/>
      <vel value="0.2127252344" flag="0"/>
      <psa03 value="0.3742632641" flag="0"/>
      <psa10 value="0.2726712653" flag="0"/>
      <psa30 value="0.0463675579" flag="0"/>
    </comp>
  </station>
  <station code="MSL1" name="MSL1" netid="HI" insttype="CMG-5TD,ACCELEROMETER,GURALP" lat="38.3727" lon="21.4243">
    <comp name="--.HNZ">
      <acc value="0.1003853665" flag="0"/>
      <vel value="0.1959803118" flag="0"/>
      <psa03 value="0.1784410513" flag="0"/>
      <psa10 value="0.3045172112" flag="0"/>
      <psa30 value="0.0747174025" flag="0"/>
    </comp>
    <comp name="--.HNN">
      <acc value="0.2773398841" flag="0"/>
      <vel value="0.3596826497" flag="0"/>
      <psa03 value="0.4433454706" flag="0"/>
      <psa10 value="0.6805643770" flag="0"/>
      <psa30 value="0.0978941750" flag="0"/>
    </comp>
    <comp name="--.HNE">
      <acc value="0.2466800506" flag="0"/>
      <vel value="0.4313169587" flag="0"/>
      <psa03 value="0.3537307878" flag="0"/>
      <psa10 value="0.7488406867" flag="0"/>
      <psa30 value="0.1033993693" flag="0"/>
    </comp>
  </station>
  <station code="VOL2" name="VOL2" netid="HI" insttype="CMG-5TD,ACCELEROMETER,GURALP" lat="39.366" lon="22.9506">
    <comp name="--.HNE">
      <acc value="0.1052324829" flag="0"/>
      <vel value="0.0926472411" flag="0"/>
      <psa03 value="0.3091406413" flag="0"/>
      <psa10 value="0.0532975416" flag="0"/>
      <psa30 value="0.0181066195" flag="0"/>
    </comp>
    <comp name="--.HNZ">
      <acc value="0.0672496391" flag="0"/>
      <vel value="0.0616041992" flag="0"/>
      <psa03 value="0.1885868055" flag="0"/>
      <psa10 value="0.0603816852" flag="0"/>
      <psa30 value="0.0146078858" flag="0"/>
    </comp>
    <comp name="--.HNN">
      <acc value="0.2123369253" flag="0"/>
      <vel value="0.1173673441" flag="0"/>
      <psa03 value="0.6045310363" flag="0"/>
      <psa10 value="0.0994075876" flag="0"/>
      <psa30 value="0.0321774159" flag="0"/>
    </comp>
  </station>
  <station code="EVR" name="EVR" netid="HL" insttype="DR24" lat="38.9166" lon="21.8105">
    <comp name="--.HHE">
      <acc value="0.1729540170" flag="0"/>
      <vel value="0.2326602916" flag="0"/>
      <psa03 value="0.2609963956" flag="0"/>
      <psa10 value="0.2764920213" flag="0"/>
      <psa30 value="0.1120342393" flag="0"/>
    </comp>
    <comp name="--.HHZ">
      <acc value="0.2412413488" flag="0"/>
      <vel value="0.2286406203" flag="0"/>
      <psa03 value="0.3059163260" flag="0"/>
      <psa10 value="0.4995435325" flag="0"/>
      <psa30 value="0.0677751564" flag="0"/>
    </comp>
    <comp name="--.HHN">
      <acc value="0.2975106350" flag="0"/>
      <vel value="0.2536369813" flag="0"/>
      <psa03 value="0.6090872494" flag="0"/>
      <psa10 value="0.2703795103" flag="0"/>
      <psa30 value="0.0911715345" flag="0"/>
    </comp>
  </station>
  <station code="JAN" name="JAN" netid="HL" insttype="CMG3EPSC60_DR24" lat="39.6562" lon="20.8487">
    <comp name="--.HHN">
      <acc value="0.2111560236" flag="0"/>
      <vel value="0.2502390931" flag="0"/>
      <psa03 value="0.4571816851" flag="0"/>
      <psa10 value="0.2233745451" flag="0"/>
      <psa30 value="0.0930961999" flag="0"/>
    </comp>
    <comp name="--.HHE">
      <acc value="0.1928080503" flag="0"/>
      <vel value="0.2889273652" flag="0"/>
      <psa03 value="0.5428148085" flag="0"/>
      <psa10 value="0.3801518589" flag="0"/>
      <psa30 value="0.1534942510" flag="0"/>
    </comp>
    <comp name="--.HHZ">
      <acc value="0.0882407043" flag="0"/>
      <vel value="0.2044056238" flag="0"/>
      <psa03 value="0.2229099481" flag="0"/>
      <psa10 value="0.1303722465" flag="0"/>
      <psa30 value="0.0971526321" flag="0"/>
    </comp>
  </station>
  <station code="KZN" name="KZN" netid="HL" insttype="120" lat="40.3033" lon="21.7821">
    <comp name="--.HHE">
      <acc value="0.6939646426" flag="0"/>
      <vel value="0.4831122427" flag="0"/>
      <psa03 value="2.0567298219" flag="0"/>
      <psa10 value="0.4890326896" flag="0"/>
      <psa30 value="0.1105734296" flag="0"/>
    </comp>
    <comp name="--.HHZ">
      <acc value="0.1734898745" flag="0"/>
      <vel value="0.2730619024" flag="0"/>
      <psa03 value="0.3204634735" flag="0"/>
      <psa10 value="0.2210749777" flag="0"/>
      <psa30 value="0.1944425534" flag="0"/>
    </comp>
    <comp name="--.HHN">
      <acc value="0.4082871272" flag="0"/>
      <vel value="0.3028876255" flag="0"/>
      <psa03 value="1.3721194844" flag="0"/>
      <psa10 value="0.2143261036" flag="0"/>
      <psa30 value="0.1537719346" flag="0"/>
    </comp>
  </station>
  <station code="LKR" name="LKR" netid="HL" insttype="30" lat="38.6496" lon="22.9989">
    <comp name="--.HHE">
      <acc value="0.0189399154" flag="0"/>
      <vel value="0.0320225365" flag="0"/>
      <psa03 value="0.0443893027" flag="0"/>
      <psa10 value="0.0180205858" flag="0"/>
      <psa30 value="0.0117657011" flag="0"/>
    </comp>
    <comp name="--.HHN">
      <acc value="0.2194397785" flag="0"/>
      <vel value="0.0367954657" flag="0"/>
      <psa03 value="0.0640334941" flag="0"/>
      <psa10 value="0.0206951529" flag="0"/>
      <psa30 value="0.0219234681" flag="0"/>
    </comp>
    <comp name="--.HHZ">
      <acc value="0.0104767174" flag="0"/>
      <vel value="0.0251205483" flag="0"/>
      <psa03 value="0.0215653926" flag="0"/>
      <psa10 value="0.0204328121" flag="0"/>
      <psa30 value="0.0140046594" flag="0"/>
    </comp>
  </station>
  <station code="NEO" name="NEO" netid="HL" insttype="120" lat="39.3057" lon="23.2219">
    <comp name="--.HHE">
      <acc value="0.1430658577" flag="0"/>
      <vel value="0.0747211552" flag="0"/>
      <psa03 value="0.4761365360" flag="0"/>
      <psa10 value="0.0822431858" flag="0"/>
      <psa30 value="0.0228089885" flag="0"/>
    </comp>
    <comp name="--.HHN">
      <acc value="0.1109455703" flag="0"/>
      <vel value="0.0999475992" flag="0"/>
      <psa03 value="0.3772930529" flag="0"/>
      <psa10 value="0.1516588468" flag="0"/>
      <psa30 value="0.0250136103" flag="0"/>
    </comp>
    <comp name="--.HHZ">
      <acc value="0.0536861414" flag="0"/>
      <vel value="0.0680240669" flag="0"/>
      <psa03 value="0.1172320362" flag="0"/>
      <psa10 value="0.0659151488" flag="0"/>
      <psa30 value="0.0283990179" flag="0"/>
    </comp>
  </station>
  <station code="PATC" name="PATC" netid="HL" insttype="CMG-5" lat="38.2693" lon="21.76">
    <comp name="00.HNE">
      <acc value="0.1235957236" flag="0"/>
      <vel value="0.2572979095" flag="0"/>
      <psa03 value="0.2168455484" flag="0"/>
      <psa10 value="0.3678116285" flag="0"/>
      <psa30 value="0.2007903287" flag="0"/>
    </comp>
    <comp name="00.HNN">
      <acc value="0.0853397525" flag="0"/>
      <vel value="0.2397722657" flag="0"/>
      <psa03 value="0.1523395629" flag="0"/>
      <psa10 value="0.3328311349" flag="0"/>
      <psa30 value="0.2079398463" flag="0"/>
    </comp>
    <comp name="00.HNZ">
      <acc value="0.0644896695" flag="0"/>
      <vel value="0.1005470649" flag="0"/>
      <psa03 value="0.1082542703" flag="0"/>
      <psa10 value="0.2586144022" flag="0"/>
      <psa30 value="0.0640365742" flag="0"/>
    </comp>
  </station>
  <station code="PENT" name="PENT" netid="HL" insttype="30" lat="40.1959" lon="21.1384">
    <comp name="--.HHE">
      <acc value="0.1725537615" flag="0"/>
      <vel value="0.2067129155" flag="0"/>
      <psa03 value="0.5114461239" flag="0"/>
      <psa10 value="0.2455201317" flag="0"/>
      <psa30 value="0.1807670692" flag="0"/>
    </comp>
    <comp name="--.HHN">
      <acc value="0.0053601056" flag="0"/>
      <vel value="0.0059430042" flag="0"/>
      <psa03 value="0.0138862784" flag="0"/>
      <psa10 value="0.0089980774" flag="0"/>
      <psa30 value="0.0033349382" flag="0"/>
    </comp>
    <comp name="--.HHZ">
      <acc value="0.1401843274" flag="0"/>
      <vel value="0.3737771741" flag="0"/>
      <psa03 value="0.3529323873" flag="0"/>
      <psa10 value="0.1888719066" flag="0"/>
      <psa30 value="0.1945957446" flag="0"/>
    </comp>
  </station>
  <station code="PLG" name="PLG" netid="HL" insttype="CMG3ESPC-120s" lat="40.3733" lon="23.4444">
    <comp name="--.HHZ">
      <acc value="0.0239623016" flag="0"/>
      <vel value="0.0348576994" flag="0"/>
      <psa03 value="0.0639919811" flag="0"/>
      <psa10 value="0.0265879152" flag="0"/>
      <psa30 value="0.0178575636" flag="0"/>
    </comp>
  </station>
  <station code="TETR" name="TETR" netid="HL" insttype="60" lat="39.3445" lon="21.2747">
    <comp name="--.HHE">
      <acc value="1.1242207197" flag="0"/>
      <vel value="0.6715388091" flag="0"/>
      <psa03 value="2.5448890324" flag="0"/>
      <psa10 value="0.8758969365" flag="0"/>
      <psa30 value="0.2608159211" flag="0"/>
    </comp>
    <comp name="--.HHN">
      <acc value="1.0572746022" flag="0"/>
      <vel value="0.4698840907" flag="0"/>
      <psa03 value="2.4415851161" flag="0"/>
      <psa10 value="0.5204602589" flag="0"/>
      <psa30 value="0.1615835100" flag="0"/>
    </comp>
    <comp name="--.HHZ">
      <acc value="0.4309660413" flag="0"/>
      <vel value="0.3722402775" flag="0"/>
      <psa03 value="1.5250941831" flag="0"/>
      <psa10 value="0.4892311735" flag="0"/>
      <psa30 value="0.1926638387" flag="0"/>
    </comp>
  </station>
  <station code="THL" name="THL" netid="HL" insttype="120" lat="39.5647" lon="22.0144">
    <comp name="--.HHE">
      <acc value="0.5755984023" flag="0"/>
      <vel value="0.6199445782" flag="0"/>
      <psa03 value="1.5189427932" flag="0"/>
      <psa10 value="0.4883130414" flag="0"/>
      <psa30 value="0.2089793450" flag="0"/>
    </comp>
    <comp name="--.HHZ">
      <acc value="0.4784937345" flag="0"/>
      <vel value="0.4195310995" flag="0"/>
      <psa03 value="0.6748182067" flag="0"/>
      <psa10 value="0.4642157509" flag="0"/>
      <psa30 value="0.1601378563" flag="0"/>
    </comp>
    <comp name="--.HHN">
      <acc value="0.6508095172" flag="0"/>
      <vel value="0.4747598845" flag="0"/>
      <psa03 value="1.2092853789" flag="0"/>
      <psa10 value="0.3378723603" flag="0"/>
      <psa30 value="0.2862126536" flag="0"/>
    </comp>
  </station>
  <station code="AMPL" name="AMPL" netid="HP" insttype="Compact," lat="38.9224" lon="21.2135">
    <comp name="--.HHN">
      <acc value="0.1056771873" flag="0"/>
      <vel value="0.1084955262" flag="0"/>
      <psa03 value="0.1907689747" flag="0"/>
      <psa10 value="0.1209900467" flag="0"/>
      <psa30 value="0.0429845108" flag="0"/>
    </comp>
    <comp name="--.HHE">
      <acc value="0.0934644403" flag="0"/>
      <vel value="0.1298599583" flag="0"/>
      <psa03 value="0.3030020173" flag="0"/>
      <psa10 value="0.1486188024" flag="0"/>
      <psa30 value="0.0366375849" flag="0"/>
    </comp>
    <comp name="--.HHZ">
      <acc value="0.0594556664" flag="0"/>
      <vel value="0.0792401253" flag="0"/>
      <psa03 value="0.1156379902" flag="0"/>
      <psa10 value="0.1399762578" flag="0"/>
      <psa30 value="0.0276208183" flag="0"/>
    </comp>
  </station>
  <station code="ANX" name="ANX" netid="HP" insttype="120" lat="38.5933" lon="21.9209">
    <comp name="--.HHZ">
      <acc value="0.1086889409" flag="0"/>
      <vel value="0.1335942110" flag="0"/>
      <psa03 value="0.2571914624" flag="0"/>
      <psa10 value="0.1683847762" flag="0"/>
      <psa30 value="0.0533443794" flag="0"/>
    </comp>
    <comp name="--.HHN">
      <acc value="0.1500340678" flag="0"/>
      <vel value="0.1579599910" flag="0"/>
      <psa03 value="0.4902519778" flag="0"/>
      <psa10 value="0.1800501298" flag="0"/>
      <psa30 value="0.0452907553" flag="0"/>
    </comp>
    <comp name="--.HHE">
      <acc value="0.1517069286" flag="0"/>
      <vel value="0.1538316482" flag="0"/>
      <psa03 value="0.3776121140" flag="0"/>
      <psa10 value="0.2789108151" flag="0"/>
      <psa30 value="0.0469890473" flag="0"/>
    </comp>
  </station>
  <station code="AXS" name="AXS" netid="HP" insttype="40," lat="38.1962" lon="21.3763">
    <comp name="--.HHN">
      <acc value="0.0349024159" flag="0"/>
      <vel value="0.0498707189" flag="0"/>
      <psa03 value="0.0813301698" flag="0"/>
      <psa10 value="0.0445888346" flag="0"/>
      <psa30 value="0.0349070055" flag="0"/>
    </comp>
    <comp name="--.HHE">
      <acc value="0.0382397953" flag="0"/>
      <vel value="0.0662638838" flag="0"/>
      <psa03 value="0.0792493215" flag="0"/>
      <psa10 value="0.0672208712" flag="0"/>
      <psa30 value="0.0273755243" flag="0"/>
    </comp>
    <comp name="--.HHZ">
      <acc value="0.0233506576" flag="0"/>
      <vel value="0.0595923651" flag="0"/>
      <psa03 value="0.0363274185" flag="0"/>
      <psa10 value="0.0396070787" flag="0"/>
      <psa30 value="0.0272050697" flag="0"/>
    </comp>
  </station>
  <station code="EFP" name="EFP" netid="HP" insttype="40," lat="38.4269" lon="21.9058">
    <comp name="--.HHE">
      <acc value="0.1342248923" flag="0"/>
      <vel value="0.1371686848" flag="0"/>
      <psa03 value="0.1979334562" flag="0"/>
      <psa10 value="0.2050036430" flag="0"/>
      <psa30 value="0.0542608808" flag="0"/>
    </comp>
    <comp name="--.HHN">
      <acc value="0.0876491260" flag="0"/>
      <vel value="0.1211029019" flag="0"/>
      <psa03 value="0.2050664256" flag="0"/>
      <psa10 value="0.2081689233" flag="0"/>
      <psa30 value="0.0612470988" flag="0"/>
    </comp>
    <comp name="--.HHZ">
      <acc value="0.0629043419" flag="0"/>
      <vel value="0.0985598473" flag="0"/>
      <psa03 value="0.1526998242" flag="0"/>
      <psa10 value="0.1027990160" flag="0"/>
      <psa30 value="0.0524650573" flag="0"/>
    </comp>
  </station>
