<stationlist created="1778069491">
	<station code="KARP" name="KARP" netid="GE" source="GEOFON" insttype="" lat="35.5471" lon="27.16106">
		<comp name="--.HNE" depth="0.0">
			<acc value="0.0670950409440158" flag="0"/>
			<vel value="0.0290108312362886" flag="0"/>
			<psa03 value="0.0840706062357326" flag="0"/>
			<psa10 value="0.0273782036517867" flag="0"/>
			<psa30 value="0.000864866853931193" flag="0"/>
		</comp>
		<comp name="--.HNN" depth="0.0">
			<acc value="0.0716520216673975" flag="0"/>
			<vel value="0.0350816124243116" flag="0"/>
			<psa03 value="0.0977169792543055" flag="0"/>
			<psa10 value="0.0337204114399267" flag="0"/>
			<psa30 value="0.00189214791788671" flag="0"/>
		</comp>
		<comp name="--.HNZ" depth="0.0">
			<acc value="0.0490723210498032" flag="0"/>
			<vel value="0.0191666105654544" flag="0"/>
			<psa03 value="0.0539143589750175" flag="0"/>
			<psa10 value="0.0208588167254383" flag="0"/>
			<psa30 value="0.00113197782744228" flag="0"/>
		</comp>
	</station>
	<station code="KSS1" name="KSS1" netid="HI" source="ITSAK Strong Motion Network" insttype="" lat="35.4189" lon="26.9207">
		<comp name="--.HNE" depth="0.0">
			<acc value="0.0219934336151891" flag="0"/>
			<vel value="0.00755054534073877" flag="0"/>
			<psa03 value="0.0747194850525138" flag="0"/>
			<psa10 value="0.00440934446223068" flag="0"/>
			<psa30 value="0.000570463134382965" flag="0"/>
		</comp>
		<comp name="--.HNN" depth="0.0">
			<acc value="0.0192182613535938" flag="0"/>
			<vel value="0.00861989991192244" flag="0"/>
			<psa03 value="0.0799095810202334" flag="0"/>
			<psa10 value="0.00464289878077806" flag="0"/>
			<psa30 value="0.000358832497078539" flag="0"/>
		</comp>
		<comp name="--.HNZ" depth="0.0">
			<acc value="0.0151594603843137" flag="0"/>
			<vel value="0.00499338196937753" flag="0"/>
			<psa03 value="0.0201339929782223" flag="0"/>
			<psa10 value="0.00285500020431192" flag="0"/>
			<psa30 value="0.000480978721146421" flag="0"/>
		</comp>
	</station>
	<station code="KARP" name="KARP" netid="HL" source="National Observatory of Athens Seismic Network" insttype="" lat="35.5471" lon="27.16106">
		<comp name="--.HNE" depth="0.0">
			<acc value="0.0657328750567637" flag="0"/>
			<vel value="0.0284217489004805" flag="0"/>
			<psa03 value="0.0823704023842383" flag="0"/>
			<psa10 value="0.0268225054455877" flag="0"/>
			<psa30 value="0.000847417393350067" flag="0"/>
		</comp>
		<comp name="--.HNN" depth="0.0">
			<acc value="0.0701972871770354" flag="0"/>
			<vel value="0.0343693477331842" flag="0"/>
			<psa03 value="0.0957483221631016" flag="0"/>
			<psa10 value="0.0330358556786671" flag="0"/>
			<psa30 value="0.001853669620195" flag="0"/>
		</comp>
		<comp name="--.HNZ" depth="0.0">
			<acc value="0.0480760495792388" flag="0"/>
			<vel value="0.0187774762143523" flag="0"/>
			<psa03 value="0.0527958038095607" flag="0"/>
			<psa10 value="0.0204360028728956" flag="0"/>
			<psa30 value="0.00110915930206696" flag="0"/>
		</comp>
	</station>
</stationlist>
