<?xml version="1.0" encoding="UTF-8" standalone="yes"?>
<!DOCTYPE earthquake SYSTEM "stationlist.dtd">
<stationlist created="" xmlns="ch.ethz.sed.shakemap.usgs.xml">
  <station code="KARP" name="KARP" netid="GE" insttype="STS-2/N" lat="35.5471" lon="27.1611">
    <comp name="--.HHE">
      <acc value="0.0810530882" flag="0"/>
      <vel value="0.0296073081" flag="0"/>
      <psa03 value="0.0937839372" flag="0"/>
      <psa10 value="0.0280029540" flag="0"/>
      <psa30 value="0.0010725349" flag="0"/>
    </comp>
    <comp name="--.HHZ">
      <acc value="0.0617609941" flag="0"/>
      <vel value="0.0232957297" flag="0"/>
      <psa03 value="0.0646551424" flag="0"/>
      <psa10 value="0.0250756696" flag="0"/>
      <psa30 value="0.0012864420" flag="0"/>
    </comp>
    <comp name="--.HHN">
      <acc value="0.0922863102" flag="0"/>
      <vel value="0.0433579745" flag="0"/>
      <psa03 value="0.1236422393" flag="0"/>
      <psa10 value="0.0412164828" flag="0"/>
      <psa30 value="0.0022035003" flag="0"/>
    </comp>
  </station>
  <station code="ARG" name="ARG" netid="HL" insttype="LE3D20_DR24" lat="36.2136" lon="28.1212">
    <comp name="--.HHE">
      <acc value="0.0127309767" flag="0"/>
      <vel value="0.0077114608" flag="0"/>
      <psa03 value="0.0388096846" flag="0"/>
      <psa10 value="0.0150966846" flag="0"/>
      <psa30 value="0.0011285642" flag="0"/>
    </comp>
    <comp name="--.HHN">
      <acc value="0.0078106720" flag="0"/>
      <vel value="0.0065327714" flag="0"/>
      <psa03 value="0.0195834363" flag="0"/>
      <psa10 value="0.0135780228" flag="0"/>
      <psa30 value="0.0010508022" flag="0"/>
    </comp>
    <comp name="--.HHZ">
      <acc value="0.0064523605" flag="0"/>
      <vel value="0.0054526471" flag="0"/>
      <psa03 value="0.0200923535" flag="0"/>
      <psa10 value="0.0071212514" flag="0"/>
      <psa30 value="0.0007289108" flag="0"/>
    </comp>
  </station>
  <station code="KARP" name="KARP" netid="HL" insttype="120" lat="35.5471" lon="27.1611">
    <comp name="--.HHE">
      <acc value="0.0754403129" flag="0"/>
      <vel value="0.0288601491" flag="0"/>
      <psa03 value="0.0911783443" flag="0"/>
      <psa10 value="0.0277924927" flag="0"/>
      <psa30 value="0.0010654831" flag="0"/>
    </comp>
    <comp name="--.HHN">
      <acc value="0.0888679078" flag="0"/>
      <vel value="0.0424595380" flag="0"/>
      <psa03 value="0.1202526841" flag="0"/>
      <psa10 value="0.0410678949" flag="0"/>
      <psa30 value="0.0021859564" flag="0"/>
    </comp>
    <comp name="--.HHZ">
      <acc value="0.0595622721" flag="0"/>
      <vel value="0.0230176105" flag="0"/>
      <psa03 value="0.0631170879" flag="0"/>
      <psa10 value="0.0249255547" flag="0"/>
      <psa30 value="0.0012798733" flag="0"/>
    </comp>
  </station>
</stationlist>
