<?xml version="1.0" encoding="UTF-8" standalone="yes"?>
<!DOCTYPE earthquake SYSTEM "stationlist.dtd">
<stationlist created="" xmlns="ch.ethz.sed.shakemap.usgs.xml">
  <station code="BLY" name="BLY" netid="MN" insttype="" lat="44.7488" lon="17.1839">
    <comp name="--.HHN">
      <acc value="0.0096302100" flag="0"/>
      <vel value="0.0055269984" flag="0"/>
      <psa03 value="0.0211266374" flag="0"/>
      <psa10 value="0.0056787431" flag="0"/>
      <psa30 value="0.0003298960" flag="0"/>
    </comp>
    <comp name="--.HHZ">
      <acc value="0.0101932677" flag="0"/>
      <vel value="0.0039022431" flag="0"/>
      <psa03 value="0.0323520079" flag="0"/>
      <psa10 value="0.0025853269" flag="0"/>
      <psa30 value="0.0002271847" flag="0"/>
    </comp>
    <comp name="--.HHE">
      <acc value="0.0138635332" flag="0"/>
      <vel value="0.0068020772" flag="0"/>
      <psa03 value="0.0619273620" flag="0"/>
      <psa10 value="0.0035358991" flag="0"/>
      <psa30 value="0.0002108269" flag="0"/>
    </comp>
  </station>
  <station code="BH09A" name="BH09A" netid="Y5" insttype="STS2_gen3" lat="44.7856" lon="16.6156">
    <comp name="--.HH2">
      <acc value="0.0412658687" flag="0"/>
      <vel value="0.0139004815" flag="0"/>
      <psa03 value="0.0616667523" flag="0"/>
      <psa10 value="0.0102874600" flag="0"/>
      <psa30 value="0.0007015273" flag="0"/>
    </comp>
    <comp name="--.HHZ">
      <acc value="0.0349892924" flag="0"/>
      <vel value="0.0069996903" flag="0"/>
      <psa03 value="0.0367558904" flag="0"/>
      <psa10 value="0.0042036584" flag="0"/>
      <psa30 value="0.0006680703" flag="0"/>
    </comp>
    <comp name="--.HH1">
      <acc value="0.0508190405" flag="0"/>
      <vel value="0.0161802166" flag="0"/>
      <psa03 value="0.0459930823" flag="0"/>
      <psa10 value="0.0056509930" flag="0"/>
      <psa30 value="0.0007944186" flag="0"/>
    </comp>
  </station>
  <station code="BH11A" name="BH11A" netid="Y5" insttype="STS2_gen3" lat="44.4818" lon="16.5313">
    <comp name="--.HH1">
      <acc value="0.0084516303" flag="0"/>
      <vel value="0.0033300231" flag="0"/>
      <psa03 value="0.0155998809" flag="0"/>
      <psa10 value="0.0021170525" flag="0"/>
      <psa30 value="0.0002212816" flag="0"/>
    </comp>
    <comp name="--.HH2">
      <acc value="0.0152137861" flag="0"/>
      <vel value="0.0059207873" flag="0"/>
      <psa03 value="0.0311334522" flag="0"/>
      <psa10 value="0.0022747414" flag="0"/>
      <psa30 value="0.0002400505" flag="0"/>
    </comp>
    <comp name="--.HHZ">
      <acc value="0.0041407807" flag="0"/>
      <vel value="0.0016009549" flag="0"/>
      <psa03 value="0.0075480469" flag="0"/>
      <psa10 value="0.0013045775" flag="0"/>
      <psa30 value="0.0001562462" flag="0"/>
    </comp>
  </station>
  <station code="BH12A" name="BH12A" netid="Y5" insttype="STS2_gen3" lat="44.3931" lon="17.1573">
    <comp name="--.HH1">
      <acc value="0.0128758651" flag="0"/>
      <vel value="0.0048486242" flag="0"/>
      <psa03 value="0.0339137834" flag="0"/>
      <psa10 value="0.0034007876" flag="0"/>
      <psa30 value="0.0002611933" flag="0"/>
    </comp>
    <comp name="--.HH2">
      <acc value="0.0133056130" flag="0"/>
      <vel value="0.0049708299" flag="0"/>
      <psa03 value="0.0179461907" flag="0"/>
      <psa10 value="0.0030332994" flag="0"/>
      <psa30 value="0.0002451284" flag="0"/>
    </comp>
    <comp name="--.HHZ">
      <acc value="0.0080496626" flag="0"/>
      <vel value="0.0047981712" flag="0"/>
      <psa03 value="0.0143169047" flag="0"/>
      <psa10 value="0.0033415321" flag="0"/>
      <psa30 value="0.0002499600" flag="0"/>
    </comp>
  </station>
  <station code="BH13A" name="BH13A" netid="Y5" insttype="STS2_gen2" lat="44.8908" lon="16.3202">
    <comp name="--.HH2">
      <acc value="0.0293343560" flag="0"/>
      <vel value="0.0043816345" flag="0"/>
      <psa03 value="0.0266944053" flag="0"/>
      <psa10 value="0.0026890962" flag="0"/>
      <psa30 value="0.0002724162" flag="0"/>
    </comp>
    <comp name="--.HHZ">
      <acc value="0.0188563546" flag="0"/>
      <vel value="0.0032456142" flag="0"/>
      <psa03 value="0.0189752262" flag="0"/>
      <psa10 value="0.0025384505" flag="0"/>
      <psa30 value="0.0003405985" flag="0"/>
    </comp>
    <comp name="--.HH1">
      <acc value="53.0900428820" flag="0"/>
      <vel value="2.9491267513" flag="0"/>
      <psa03 value="16.8351142712" flag="0"/>
      <psa10 value="2.0949382553" flag="0"/>
      <psa30 value="1.0745429802" flag="0"/>
    </comp>
  </station>
  <station code="BH20A" name="BH20A" netid="Y5" insttype="STS2_gen3" lat="45.0928" lon="17.6625">
    <comp name="--.HH1">
      <acc value="0.1517897959" flag="0"/>
      <vel value="0.0160992913" flag="0"/>
      <psa03 value="0.0542517754" flag="0"/>
      <psa10 value="0.0034284125" flag="0"/>
      <psa30 value="0.0003416339" flag="0"/>
    </comp>
    <comp name="--.HHZ">
      <acc value="0.0684249453" flag="0"/>
      <vel value="0.0085336154" flag="0"/>
      <psa03 value="0.0180613712" flag="0"/>
      <psa10 value="0.0025457128" flag="0"/>
      <psa30 value="0.0002026519" flag="0"/>
    </comp>
    <comp name="--.HH2">
      <acc value="0.1764556486" flag="0"/>
      <vel value="0.0187184874" flag="0"/>
      <psa03 value="0.0466608650" flag="0"/>
      <psa10 value="0.0029931285" flag="0"/>
      <psa30 value="0.0003439727" flag="0"/>
    </comp>
  </station>
</stationlist>
