<stationlist xmlns:esm="https://esm-db.eu/esmws/shakemap/1/" created="1784339676">
	<station code="BLY" name="BLY" netid="MN" source="Mediterranean Very Broadband Seismographic Network (MedNet)" insttype="" lat="44.7488" lon="17.1839" esm:processing="manual (Paolucci et al 2011)" esm:quality="best">
		<comp name="--.HNE" depth="1.0">
			<acc value="0.0131501101889543" flag="0"/>
			<vel value="0.00657442358067585" flag="0"/>
			<psa03 value="0.0611187206903924" flag="0"/>
			<psa10 value="0.00371239975638872" flag="0"/>
			<psa30 value="0.000253454837014175" flag="0"/>
		</comp>
		<comp name="--.HNN" depth="1.0">
			<acc value="0.0100605166947401" flag="0"/>
			<vel value="0.00553732158101288" flag="0"/>
			<psa03 value="0.0219298199304343" flag="0"/>
			<psa10 value="0.00570502136715251" flag="0"/>
			<psa30 value="0.000334719595405615" flag="0"/>
		</comp>
		<comp name="--.HNZ" depth="1.0">
			<acc value="0.0100653690746701" flag="0"/>
			<vel value="0.00395039232779044" flag="0"/>
			<psa03 value="0.0319509369052739" flag="0"/>
			<psa10 value="0.0025986458194058" flag="0"/>
			<psa30 value="0.000253254745634013" flag="0"/>
		</comp>
	</station>
	<station code="BOJS" name="BOJS" netid="SL" source="Seismic Network of the Republic of Slovenia (SNRS)" insttype="" lat="45.5043" lon="15.2518" esm:processing="manual (Paolucci et al 2011)" esm:quality="best">
		<comp name="--.HNE" depth="0.0">
			<acc value="0.00725372690514419" flag="0"/>
			<vel value="0.00136823059866372" flag="0"/>
			<psa03 value="0.00843541883112319" flag="0"/>
			<psa10 value="0.000951892042550626" flag="0"/>
			<psa30 value="0.000116173294869105" flag="0"/>
		</comp>
		<comp name="--.HNN" depth="0.0">
			<acc value="0.00484358258098272" flag="0"/>
			<vel value="0.00181387315476076" flag="0"/>
			<psa03 value="0.00781554378306375" flag="0"/>
			<psa10 value="0.00126111737096122" flag="0"/>
			<psa30 value="0.000114682011182776" flag="0"/>
		</comp>
		<comp name="--.HNZ" depth="0.0">
			<acc value="0.00385601292163219" flag="0"/>
			<vel value="0.000999836687259554" flag="0"/>
			<psa03 value="0.00475624476537038" flag="0"/>
			<psa10 value="0.000630439615093764" flag="0"/>
			<psa30 value="0.000141833054597918" flag="0"/>
		</comp>
	</station>
	<station code="CESS" name="CESS" netid="SL" source="Seismic Network of the Republic of Slovenia (SNRS)" insttype="" lat="45.9733" lon="15.4632" esm:processing="manual (Paolucci et al 2011)" esm:quality="best">
		<comp name="--.HNE" depth="0.0">
			<acc value="0.00609012470696321" flag="0"/>
			<vel value="0.00256211047894473" flag="0"/>
			<psa03 value="0.00972836515957248" flag="0"/>
			<psa10 value="0.00196781113908045" flag="0"/>
			<psa30 value="0.000196329503261889" flag="0"/>
		</comp>
		<comp name="--.HNN" depth="0.0">
			<acc value="0.00782014739613942" flag="0"/>
			<vel value="0.00277185954619043" flag="0"/>
			<psa03 value="0.0172818740060045" flag="0"/>
			<psa10 value="0.00158489776513616" flag="0"/>
			<psa30 value="0.000132390085297581" flag="0"/>
		</comp>
		<comp name="--.HNZ" depth="0.0">
			<acc value="0.0063201063861734" flag="0"/>
			<vel value="0.00161537809249012" flag="0"/>
			<psa03 value="0.00896930250560527" flag="0"/>
			<psa10 value="0.00123657469044195" flag="0"/>
			<psa30 value="0.000116244731892988" flag="0"/>
		</comp>
	</station>
	<station code="CRES" name="CRES" netid="SL" source="Seismic Network of the Republic of Slovenia (SNRS)" insttype="" lat="45.826" lon="15.4569" esm:processing="manual (Paolucci et al 2011)" esm:quality="best">
		<comp name="--.HNE" depth="0.0">
			<acc value="0.00950918954256611" flag="0"/>
			<vel value="0.00613099436750764" flag="0"/>
			<psa03 value="0.0306627369849998" flag="0"/>
			<psa10 value="0.00175196184012183" flag="0"/>
			<psa30 value="0.000170015025681842" flag="0"/>
		</comp>
		<comp name="--.HNN" depth="0.0">
			<acc value="0.00669094586703604" flag="0"/>
			<vel value="0.00224449434485118" flag="0"/>
			<psa03 value="0.0101009796871903" flag="0"/>
			<psa10 value="0.00144612122812192" flag="0"/>
			<psa30 value="0.000101721933891266" flag="0"/>
		</comp>
		<comp name="--.HNZ" depth="0.0">
			<acc value="0.00605980938647242" flag="0"/>
			<vel value="0.00176887554942599" flag="0"/>
			<psa03 value="0.00821923914570894" flag="0"/>
			<psa10 value="0.000902789102222153" flag="0"/>
			<psa30 value="8.85972949172791e-05" flag="0"/>
		</comp>
	</station>
	<station code="CRNS" name="CRNS" netid="SL" source="Seismic Network of the Republic of Slovenia (SNRS)" insttype="" lat="46.0807" lon="14.2613" esm:processing="manual (Paolucci et al 2011)" esm:quality="best">
		<comp name="--.HNE" depth="0.0">
			<acc value="0.00295499495111435" flag="0"/>
			<vel value="0.00145666683165972" flag="0"/>
			<psa03 value="0.00600317372245645" flag="0"/>
			<psa10 value="0.000806600386443199" flag="0"/>
			<psa30 value="7.05859845687085e-05" flag="0"/>
		</comp>
		<comp name="--.HNN" depth="0.0">
			<acc value="0.00246273585157805" flag="0"/>
			<vel value="0.00102848442680667" flag="0"/>
			<psa03 value="0.00412440277873549" flag="0"/>
			<psa10 value="0.00108445816815537" flag="0"/>
			<psa30 value="7.36413367103177e-05" flag="0"/>
		</comp>
		<comp name="--.HNZ" depth="0.0">
			<acc value="0.00106344370329369" flag="0"/>
			<vel value="0.000475903641428815" flag="0"/>
			<psa03 value="0.00185249446345811" flag="0"/>
			<psa10 value="0.000451797351232994" flag="0"/>
			<psa30 value="3.98937397696782e-05" flag="0"/>
		</comp>
	</station>
	<station code="DOBS" name="DOBS" netid="SL" source="Seismic Network of the Republic of Slovenia (SNRS)" insttype="" lat="46.1495" lon="15.4695" esm:processing="manual (Paolucci et al 2011)" esm:quality="best">
		<comp name="--.HNE" depth="0.0">
			<acc value="0.00720828158121851" flag="0"/>
			<vel value="0.00244394265146867" flag="0"/>
			<psa03 value="0.00856081646105531" flag="0"/>
			<psa10 value="0.002700027926101" flag="0"/>
			<psa30 value="0.000232590303799366" flag="0"/>
		</comp>
		<comp name="--.HNN" depth="0.0">
			<acc value="0.0104307702466196" flag="0"/>
			<vel value="0.00255563176967986" flag="0"/>
			<psa03 value="0.00629449770876579" flag="0"/>
			<psa10 value="0.00172850766921253" flag="0"/>
			<psa30 value="0.000256246011498788" flag="0"/>
		</comp>
		<comp name="--.HNZ" depth="0.0">
			<acc value="0.00493370528960839" flag="0"/>
			<vel value="0.00129084321166155" flag="0"/>
			<psa03 value="0.00333966785118677" flag="0"/>
			<psa10 value="0.00125041767778421" flag="0"/>
			<psa30 value="0.000147406262337469" flag="0"/>
		</comp>
	</station>
	<station code="GBAS" name="GBAS" netid="SL" source="Seismic Network of the Republic of Slovenia (SNRS)" insttype="" lat="45.9348" lon="14.4434" esm:processing="manual (Paolucci et al 2011)" esm:quality="best">
		<comp name="--.HNE" depth="0.0">
			<acc value="0.00095735405457001" flag="0"/>
			<vel value="0.000511678213792124" flag="0"/>
			<psa03 value="0.00252123798318469" flag="0"/>
			<psa10 value="0.000717973577851913" flag="0"/>
			<psa30 value="3.03088177062734e-05" flag="0"/>
		</comp>
		<comp name="--.HNN" depth="0.0">
			<acc value="0.000940843669653963" flag="0"/>
			<vel value="0.000524302491263025" flag="0"/>
			<psa03 value="0.00294569058025209" flag="0"/>
			<psa10 value="0.000582236792988168" flag="0"/>
			<psa30 value="3.74649786157474e-05" flag="0"/>
		</comp>
		<comp name="--.HNZ" depth="0.0">
			<acc value="0.000885279007079722" flag="0"/>
			<vel value="0.000541196695449457" flag="0"/>
			<psa03 value="0.00232424055807283" flag="0"/>
			<psa10 value="0.000730560817943284" flag="0"/>
			<psa30 value="6.56083045615575e-05" flag="0"/>
		</comp>
	</station>
	<station code="GBRS" name="GBRS" netid="SL" source="Seismic Network of the Republic of Slovenia (SNRS)" insttype="" lat="45.5311" lon="14.8101" esm:processing="manual (Paolucci et al 2011)" esm:quality="best">
		<comp name="--.HNE" depth="0.0">
			<acc value="0.00448648610586158" flag="0"/>
			<vel value="0.000993357180928604" flag="0"/>
			<psa03 value="0.00299549173089819" flag="0"/>
			<psa10 value="0.00144661520615653" flag="0"/>
			<psa30 value="0.000107193748195183" flag="0"/>
		</comp>
		<comp name="--.HNN" depth="0.0">
			<acc value="0.00389897750168583" flag="0"/>
			<vel value="0.00108967227997276" flag="0"/>
			<psa03 value="0.00272092243525959" flag="0"/>
			<psa10 value="0.000869405679797125" flag="0"/>
			<psa30 value="8.77077307796075e-05" flag="0"/>
		</comp>
		<comp name="--.HNZ" depth="0.0">
			<acc value="0.0023019364481977" flag="0"/>
			<vel value="0.000898222577958186" flag="0"/>
			<psa03 value="0.00284978871941286" flag="0"/>
			<psa10 value="0.000935973995869793" flag="0"/>
			<psa30 value="8.782149482643e-05" flag="0"/>
		</comp>
	</station>
	<station code="GCIS" name="GCIS" netid="SL" source="Seismic Network of the Republic of Slovenia (SNRS)" insttype="" lat="45.8672" lon="15.6275" esm:processing="manual (Paolucci et al 2011)" esm:quality="best">
		<comp name="--.HNE" depth="0.0">
			<acc value="0.00867266446159247" flag="0"/>
			<vel value="0.00258117566140726" flag="0"/>
			<psa03 value="0.00967587405206952" flag="0"/>
			<psa10 value="0.00149452017650008" flag="0"/>
			<psa30 value="9.72788661223268e-05" flag="0"/>
		</comp>
		<comp name="--.HNN" depth="0.0">
			<acc value="0.00831231017196261" flag="0"/>
			<vel value="0.00211238231661214" flag="0"/>
			<psa03 value="0.00838989823749082" flag="0"/>
			<psa10 value="0.00175321395431986" flag="0"/>
			<psa30 value="0.000115649744561172" flag="0"/>
		</comp>
		<comp name="--.HNZ" depth="0.0">
			<acc value="0.00402060648205469" flag="0"/>
			<vel value="0.00146261216024816" flag="0"/>
			<psa03 value="0.00643527396154709" flag="0"/>
			<psa10 value="0.00106156993317294" flag="0"/>
			<psa30 value="6.02773719863256e-05" flag="0"/>
		</comp>
	</station>
	<station code="GOLS" name="GOLS" netid="SL" source="Seismic Network of the Republic of Slovenia (SNRS)" insttype="" lat="46.0108" lon="15.6245" esm:processing="manual (Paolucci et al 2011)" esm:quality="bad">
		<comp name="--.HNE" depth="0.0">
			<acc value="0.0115028135726751" flag="0"/>
			<vel value="0.00444749840965207" flag="0"/>
			<psa03 value="0.0209147240394901" flag="0"/>
			<psa10 value="0.00438526628361952" flag="0"/>
			<psa30 value="0.000196198127371381" flag="0"/>
		</comp>
		<comp name="--.HNN" depth="0.0">
			<acc value="0.00827159070228007" flag="0"/>
			<vel value="0.00335940941549605" flag="0"/>
			<psa03 value="0.0166266144524416" flag="0"/>
			<psa10 value="0.00247766702390557" flag="0"/>
			<psa30 value="0.000149506154048968" flag="0"/>
		</comp>
		<comp name="--.HNZ" depth="0.0">
			<acc value="0.00442235547973708" flag="0"/>
			<vel value="0.00213264251668733" flag="0"/>
			<psa03 value="0.00980125345160578" flag="0"/>
			<psa10 value="0.00183746832482119" flag="0"/>
			<psa30 value="0.000117806241585342" flag="0"/>
		</comp>
	</station>
	<station code="GROS" name="GROS" netid="SL" source="Seismic Network of the Republic of Slovenia (SNRS)" insttype="" lat="46.461" lon="15.5018" esm:processing="manual (Paolucci et al 2011)" esm:quality="best">
		<comp name="--.HNE" depth="0.0">
			<acc value="0.00287474632348345" flag="0"/>
			<vel value="0.00114100911002206" flag="0"/>
			<psa03 value="0.00817076588249871" flag="0"/>
			<psa10 value="0.00142726380703319" flag="0"/>
			<psa30 value="9.25323212185846e-05" flag="0"/>
		</comp>
		<comp name="--.HNN" depth="0.0">
			<acc value="0.00367992890072711" flag="0"/>
			<vel value="0.00109552637348229" flag="0"/>
			<psa03 value="0.00531211427131312" flag="0"/>
			<psa10 value="0.00110362510193435" flag="0"/>
			<psa30 value="8.29172897385577e-05" flag="0"/>
		</comp>
		<comp name="--.HNZ" depth="0.0">
			<acc value="0.00332533597694484" flag="0"/>
			<vel value="0.00177756703870053" flag="0"/>
			<psa03 value="0.00627617943797636" flag="0"/>
			<psa10 value="0.00143477977367969" flag="0"/>
			<psa30 value="0.000111859337215587" flag="0"/>
		</comp>
	</station>
	<station code="JAVS" name="JAVS" netid="SL" source="Seismic Network of the Republic of Slovenia (SNRS)" insttype="" lat="45.8934" lon="14.0643" esm:processing="manual (Paolucci et al 2011)" esm:quality="best">
		<comp name="--.HNE" depth="0.0">
			<acc value="0.00107998178152488" flag="0"/>
			<vel value="0.000765686028363381" flag="0"/>
			<psa03 value="0.00273669821990938" flag="0"/>
			<psa10 value="0.00100065980442606" flag="0"/>
			<psa30 value="9.66380814861233e-05" flag="0"/>
		</comp>
		<comp name="--.HNN" depth="0.0">
			<acc value="0.000945114126628174" flag="0"/>
			<vel value="0.000504129197930293" flag="0"/>
			<psa03 value="0.00214671838143222" flag="0"/>
			<psa10 value="0.000658466276409227" flag="0"/>
			<psa30 value="6.24809359303648e-05" flag="0"/>
		</comp>
		<comp name="--.HNZ" depth="0.0">
			<acc value="0.000523563381378468" flag="0"/>
			<vel value="0.000357102846528634" flag="0"/>
			<psa03 value="0.00162392447155768" flag="0"/>
			<psa10 value="0.000627506510632937" flag="0"/>
			<psa30 value="6.27835471227045e-05" flag="0"/>
		</comp>
	</station>
	<station code="KNDS" name="KNDS" netid="SL" source="Seismic Network of the Republic of Slovenia (SNRS)" insttype="" lat="45.5278" lon="14.3807" esm:processing="manual (Paolucci et al 2011)" esm:quality="best">
		<comp name="--.HNE" depth="0.0">
			<acc value="0.00184640718323989" flag="0"/>
			<vel value="0.00142724646826365" flag="0"/>
			<psa03 value="0.00336749554099028" flag="0"/>
			<psa10 value="0.00148363508041777" flag="0"/>
			<psa30 value="0.000140236347261428" flag="0"/>
		</comp>
		<comp name="--.HNN" depth="0.0">
			<acc value="0.00177093901677134" flag="0"/>
			<vel value="0.00112560330280643" flag="0"/>
			<psa03 value="0.00427443908509069" flag="0"/>
			<psa10 value="0.000846981186471835" flag="0"/>
			<psa30 value="0.000142610527976749" flag="0"/>
		</comp>
		<comp name="--.HNZ" depth="0.0">
			<acc value="0.000731943593767335" flag="0"/>
			<vel value="0.000611233228711069" flag="0"/>
			<psa03 value="0.00202531059917915" flag="0"/>
			<psa10 value="0.000870933730241557" flag="0"/>
			<psa30 value="7.76179998844796e-05" flag="0"/>
		</comp>
	</station>
	<station code="KOGS" name="KOGS" netid="SL" source="Seismic Network of the Republic of Slovenia (SNRS)" insttype="" lat="46.4481" lon="16.2504" esm:processing="manual (Paolucci et al 2011)" esm:quality="best">
		<comp name="--.HNE" depth="0.0">
			<acc value="0.0140448000346658" flag="0"/>
			<vel value="0.00603218265246996" flag="0"/>
			<psa03 value="0.0236530538778972" flag="0"/>
			<psa10 value="0.00418256207422314" flag="0"/>
			<psa30 value="0.000547910046349702" flag="0"/>
		</comp>
		<comp name="--.HNN" depth="0.0">
			<acc value="0.0146395848392819" flag="0"/>
			<vel value="0.0045538626736467" flag="0"/>
			<psa03 value="0.0333009039381097" flag="0"/>
			<psa10 value="0.0022906604168873" flag="0"/>
			<psa30 value="0.000379745208339471" flag="0"/>
		</comp>
		<comp name="--.HNZ" depth="0.0">
			<acc value="0.00954127373713329" flag="0"/>
			<vel value="0.00329923997148734" flag="0"/>
			<psa03 value="0.0192872438310701" flag="0"/>
			<psa10 value="0.00226794399015951" flag="0"/>
			<psa30 value="0.000216320580176787" flag="0"/>
		</comp>
	</station>
	<station code="LEGS" name="LEGS" netid="SL" source="Seismic Network of the Republic of Slovenia (SNRS)" insttype="" lat="45.9488" lon="15.3177" esm:processing="manual (Paolucci et al 2011)" esm:quality="good">
		<comp name="--.HNE" depth="0.0">
			<acc value="0.00731530839943608" flag="0"/>
			<vel value="0.00395506269436808" flag="0"/>
			<psa03 value="0.0178812483470437" flag="0"/>
			<psa10 value="0.00395482308137073" flag="0"/>
			<psa30 value="0.000197163100150459" flag="0"/>
		</comp>
		<comp name="--.HNN" depth="0.0">
			<acc value="0.00361305470890947" flag="0"/>
			<vel value="0.00258314135835736" flag="0"/>
			<psa03 value="0.00770067484543516" flag="0"/>
			<psa10 value="0.00253541100540922" flag="0"/>
			<psa30 value="0.000135442331764908" flag="0"/>
		</comp>
		<comp name="--.HNZ" depth="0.0">
			<acc value="0.00212520757274138" flag="0"/>
			<vel value="0.00147245948936466" flag="0"/>
			<psa03 value="0.00534502172468868" flag="0"/>
			<psa10 value="0.00120956352608622" flag="0"/>
			<psa30 value="8.08948120094315e-05" flag="0"/>
		</comp>
	</station>
	<station code="MOZS" name="MOZS" netid="SL" source="Seismic Network of the Republic of Slovenia (SNRS)" insttype="" lat="46.2941" lon="14.4433" esm:processing="manual (Paolucci et al 2011)" esm:quality="good">
		<comp name="--.HNE" depth="0.0">
			<acc value="0.00145727272036243" flag="0"/>
			<vel value="0.000866214796796281" flag="0"/>
			<psa03 value="0.00366089909211892" flag="0"/>
			<psa10 value="0.00137130342024658" flag="0"/>
			<psa30 value="0.000119921863505745" flag="0"/>
		</comp>
		<comp name="--.HNN" depth="0.0">
			<acc value="0.000984643715419049" flag="0"/>
			<vel value="0.000790244307417631" flag="0"/>
			<psa03 value="0.00233407649611281" flag="0"/>
			<psa10 value="0.000695872074672284" flag="0"/>
			<psa30 value="9.33019034494515e-05" flag="0"/>
		</comp>
		<comp name="--.HNZ" depth="0.0">
			<acc value="0.000559950148327666" flag="0"/>
			<vel value="0.000477388542078327" flag="0"/>
			<psa03 value="0.00194788099068093" flag="0"/>
			<psa10 value="0.000450079737448729" flag="0"/>
			<psa30 value="8.81293537621703e-05" flag="0"/>
		</comp>
	</station>
	<station code="PDKS" name="PDKS" netid="SL" source="Seismic Network of the Republic of Slovenia (SNRS)" insttype="" lat="46.0612" lon="14.9977" esm:processing="manual (Paolucci et al 2011)" esm:quality="best">
		<comp name="--.HNE" depth="0.0">
			<acc value="0.00314234917319564" flag="0"/>
			<vel value="0.00129094701054331" flag="0"/>
			<psa03 value="0.00405057529688209" flag="0"/>
			<psa10 value="0.00180706740466057" flag="0"/>
			<psa30 value="0.000104852349599366" flag="0"/>
		</comp>
		<comp name="--.HNN" depth="0.0">
			<acc value="0.00179111673811813" flag="0"/>
			<vel value="0.00128559476474751" flag="0"/>
			<psa03 value="0.00427892668706132" flag="0"/>
			<psa10 value="0.00208646689006692" flag="0"/>
			<psa30 value="7.24296353475565e-05" flag="0"/>
		</comp>
		<comp name="--.HNZ" depth="0.0">
			<acc value="0.00194158821134658" flag="0"/>
			<vel value="0.00116607493060134" flag="0"/>
			<psa03 value="0.00285687707960733" flag="0"/>
			<psa10 value="0.00129159048340392" flag="0"/>
			<psa30 value="0.00011144317683431" flag="0"/>
		</comp>
	</station>
	<station code="SKDS" name="SKDS" netid="SL" source="Seismic Network of the Republic of Slovenia (SNRS)" insttype="" lat="45.5464" lon="14.0143" esm:processing="manual (Paolucci et al 2011)" esm:quality="best">
		<comp name="--.HNE" depth="0.0">
			<acc value="0.000951599533792242" flag="0"/>
			<vel value="0.00046969145317851" flag="0"/>
			<psa03 value="0.00188213916815787" flag="0"/>
			<psa10 value="0.000430582020037536" flag="0"/>
			<psa30 value="3.0631570206815e-05" flag="0"/>
		</comp>
		<comp name="--.HNN" depth="0.0">
			<acc value="0.00110268269725555" flag="0"/>
			<vel value="0.000699661582815151" flag="0"/>
			<psa03 value="0.00253285887019653" flag="0"/>
			<psa10 value="0.000906503254517179" flag="0"/>
			<psa30 value="6.57124325531653e-05" flag="0"/>
		</comp>
		<comp name="--.HNZ" depth="0.0">
			<acc value="0.00083474870049132" flag="0"/>
			<vel value="0.00048844728298095" flag="0"/>
			<psa03 value="0.00224895773892122" flag="0"/>
			<psa10 value="0.000450662051413935" flag="0"/>
			<psa30 value="3.50865918926604e-05" flag="0"/>
		</comp>
	</station>
	<station code="VISS" name="VISS" netid="SL" source="Seismic Network of the Republic of Slovenia (SNRS)" insttype="" lat="45.8033" lon="14.8393" esm:processing="manual (Paolucci et al 2011)" esm:quality="best">
		<comp name="--.HNE" depth="0.0">
			<acc value="0.00244812425696591" flag="0"/>
			<vel value="0.00131135618089171" flag="0"/>
			<psa03 value="0.00476551100423425" flag="0"/>
