<?xml version="1.0" encoding="UTF-8" standalone="yes"?>
<!DOCTYPE earthquake SYSTEM "stationlist.dtd">
<stationlist created="" xmlns="ch.ethz.sed.shakemap.usgs.xml">
  <station code="BLY" name="BLY" netid="MN" insttype="" lat="44.7488" lon="17.1839">
    <comp name="--.HHE">
      <acc value="0.0138635333" flag="0"/>
      <vel value="0.0068020774" flag="0"/>
      <psa03 value="0.0619273620" flag="0"/>
      <psa10 value="0.0035358991" flag="0"/>
      <psa30 value="0.0002108348" flag="0"/>
    </comp>
    <comp name="--.HHN">
      <acc value="0.0096302100" flag="0"/>
      <vel value="0.0055269981" flag="0"/>
      <psa03 value="0.0211266374" flag="0"/>
      <psa10 value="0.0056787431" flag="0"/>
      <psa30 value="0.0003299252" flag="0"/>
    </comp>
    <comp name="--.HHZ">
      <acc value="0.0101932678" flag="0"/>
      <vel value="0.0039022430" flag="0"/>
      <psa03 value="0.0323520079" flag="0"/>
      <psa10 value="0.0025853269" flag="0"/>
      <psa30 value="0.0002271830" flag="0"/>
    </comp>
  </station>
  <station code="BH09A" name="BH09A" netid="Y5" insttype="STS2_gen3" lat="44.7856" lon="16.6156">
    <comp name="--.HHZ">
      <acc value="0.0349892925" flag="0"/>
      <vel value="0.0069996901" flag="0"/>
      <psa03 value="0.0367558904" flag="0"/>
      <psa10 value="0.0042036584" flag="0"/>
      <psa30 value="0.0006680705" flag="0"/>
    </comp>
    <comp name="--.HH2">
      <acc value="0.0412658689" flag="0"/>
      <vel value="0.0139004813" flag="0"/>
      <psa03 value="0.0616667523" flag="0"/>
      <psa10 value="0.0102874600" flag="0"/>
      <psa30 value="0.0007015323" flag="0"/>
    </comp>
    <comp name="--.HH1">
      <acc value="0.0508190402" flag="0"/>
      <vel value="0.0161802166" flag="0"/>
      <psa03 value="0.0459930823" flag="0"/>
      <psa10 value="0.0056509930" flag="0"/>
      <psa30 value="0.0007944783" flag="0"/>
    </comp>
  </station>
  <station code="BH11A" name="BH11A" netid="Y5" insttype="STS2_gen3" lat="44.4818" lon="16.5313">
    <comp name="--.HH2">
      <acc value="0.0152137861" flag="0"/>
      <vel value="0.0059207873" flag="0"/>
      <psa03 value="0.0311334522" flag="0"/>
      <psa10 value="0.0022747414" flag="0"/>
      <psa30 value="0.0002400557" flag="0"/>
    </comp>
    <comp name="--.HHZ">
      <acc value="0.0041407807" flag="0"/>
      <vel value="0.0016009549" flag="0"/>
      <psa03 value="0.0075480469" flag="0"/>
      <psa10 value="0.0013045775" flag="0"/>
      <psa30 value="0.0001562455" flag="0"/>
    </comp>
    <comp name="--.HH1">
      <acc value="0.0084516303" flag="0"/>
      <vel value="0.0033300231" flag="0"/>
      <psa03 value="0.0155998809" flag="0"/>
      <psa10 value="0.0021170525" flag="0"/>
      <psa30 value="0.0002212825" flag="0"/>
    </comp>
  </station>
  <station code="BH12A" name="BH12A" netid="Y5" insttype="STS2_gen3" lat="44.3931" lon="17.1573">
    <comp name="--.HHZ">
      <acc value="0.0080496627" flag="0"/>
      <vel value="0.0047981711" flag="0"/>
      <psa03 value="0.0143169047" flag="0"/>
      <psa10 value="0.0033415321" flag="0"/>
      <psa30 value="0.0002499651" flag="0"/>
    </comp>
    <comp name="--.HH1">
      <acc value="0.0128758651" flag="0"/>
      <vel value="0.0048486250" flag="0"/>
      <psa03 value="0.0339137834" flag="0"/>
      <psa10 value="0.0034007876" flag="0"/>
      <psa30 value="0.0002611861" flag="0"/>
    </comp>
    <comp name="--.HH2">
      <acc value="0.0133056130" flag="0"/>
      <vel value="0.0049708299" flag="0"/>
      <psa03 value="0.0179461907" flag="0"/>
      <psa10 value="0.0030332994" flag="0"/>
      <psa30 value="0.0002451276" flag="0"/>
    </comp>
  </station>
  <station code="BH13A" name="BH13A" netid="Y5" insttype="STS2_gen2" lat="44.8908" lon="16.3202">
    <comp name="--.HHZ">
      <acc value="0.0188563546" flag="0"/>
      <vel value="0.0032456143" flag="0"/>
      <psa03 value="0.0189752262" flag="0"/>
      <psa10 value="0.0025384505" flag="0"/>
      <psa30 value="0.0003406004" flag="0"/>
    </comp>
    <comp name="--.HH1">
      <acc value="53.0900428845" flag="0"/>
      <vel value="2.9491319085" flag="0"/>
      <psa03 value="16.8351157080" flag="0"/>
      <psa10 value="2.0949427954" flag="0"/>
      <psa30 value="1.0744634491" flag="0"/>
    </comp>
    <comp name="--.HH2">
      <acc value="0.0293343560" flag="0"/>
      <vel value="0.0043816344" flag="0"/>
      <psa03 value="0.0266944053" flag="0"/>
      <psa10 value="0.0026890962" flag="0"/>
      <psa30 value="0.0002724142" flag="0"/>
    </comp>
  </station>
  <station code="BH20A" name="BH20A" netid="Y5" insttype="STS2_gen3" lat="45.0928" lon="17.6625">
    <comp name="--.HHZ">
      <acc value="0.0684249450" flag="0"/>
      <vel value="0.0085336151" flag="0"/>
      <psa03 value="0.0180613712" flag="0"/>
      <psa10 value="0.0025457128" flag="0"/>
      <psa30 value="0.0002026300" flag="0"/>
    </comp>
    <comp name="--.HH1">
      <acc value="0.1517897964" flag="0"/>
      <vel value="0.0160992885" flag="0"/>
      <psa03 value="0.0542517754" flag="0"/>
      <psa10 value="0.0034284125" flag="0"/>
      <psa30 value="0.0003416277" flag="0"/>
    </comp>
    <comp name="--.HH2">
      <acc value="0.1764556481" flag="0"/>
      <vel value="0.0187184916" flag="0"/>
      <psa03 value="0.0466608650" flag="0"/>
      <psa10 value="0.0029931285" flag="0"/>
      <psa30 value="0.0003439409" flag="0"/>
    </comp>
  </station>
</stationlist>
