<?xml version="1.0" encoding="UTF-8" standalone="yes"?>
<!DOCTYPE earthquake SYSTEM "stationlist.dtd">
<stationlist created="" xmlns="ch.ethz.sed.shakemap.usgs.xml">
  <station code="AKS" name="AKS" netid="KO" insttype="CMG-5T" commtype="DIG" lat="38.8785" lon="27.8129">
    <comp name="--.HNZ">
      <acc value="0.0871832436" flag="0"/>
      <vel value="0.0164169697" flag="0"/>
      <psa03 value="0.0435145383" flag="0"/>
      <psa10 value="0.0054627874" flag="0"/>
      <psa30 value="0.0010026402" flag="0"/>
    </comp>
    <comp name="--.HNN">
      <acc value="0.1475354622" flag="0"/>
      <vel value="0.0336840885" flag="0"/>
      <psa03 value="0.1494679840" flag="0"/>
      <psa10 value="0.0114055123" flag="0"/>
      <psa30 value="0.0012591264" flag="0"/>
    </comp>
  </station>
  <station code="AYVL" name="AYVL" netid="KO" insttype="CMG-6T" commtype="DIG" lat="39.2907" lon="26.69">
    <comp name="--.HHE">
      <acc value="0.0123587568" flag="0"/>
      <vel value="0.0028574067" flag="0"/>
      <psa03 value="0.0100850591" flag="0"/>
      <psa10 value="0.0020698327" flag="0"/>
      <psa30 value="0.0000855488" flag="0"/>
    </comp>
    <comp name="--.HHZ">
      <acc value="0.0510919784" flag="0"/>
      <vel value="0.0085032098" flag="0"/>
      <psa03 value="0.0226300295" flag="0"/>
      <psa10 value="0.0039248802" flag="0"/>
      <psa30 value="0.0003159412" flag="0"/>
    </comp>
    <comp name="--.HHN">
      <acc value="0.1113586131" flag="0"/>
      <vel value="0.0110513303" flag="0"/>
      <psa03 value="0.0565115969" flag="0"/>
      <psa10 value="0.0071941406" flag="0"/>
      <psa30 value="0.0004604367" flag="0"/>
    </comp>
  </station>
  <station code="BALB" name="BALB" netid="KO" insttype="CMG-5T" commtype="DIG" lat="39.6507" lon="27.8642">
    <comp name="--.HNN">
      <acc value="0.0803815924" flag="0"/>
      <vel value="0.0238519213" flag="0"/>
      <psa03 value="0.1432545403" flag="0"/>
      <psa10 value="0.0310691936" flag="0"/>
      <psa30 value="0.0015680738" flag="0"/>
    </comp>
    <comp name="--.HNZ">
      <acc value="0.0556155788" flag="0"/>
      <vel value="0.0191410851" flag="0"/>
      <psa03 value="0.0844491080" flag="0"/>
      <psa10 value="0.0224210217" flag="0"/>
      <psa30 value="0.0008965940" flag="0"/>
    </comp>
    <comp name="--.HNE">
      <acc value="0.0633416345" flag="0"/>
      <vel value="0.0317665276" flag="0"/>
      <psa03 value="0.0821210149" flag="0"/>
      <psa10 value="0.0422820317" flag="0"/>
      <psa30 value="0.0029223995" flag="0"/>
    </comp>
  </station>
  <station code="CANM" name="CANM" netid="KO" insttype="CMG-5T" commtype="DIG" lat="40.0113" lon="27.0529">
    <comp name="--.HNE">
      <acc value="0.0257912200" flag="0"/>
      <vel value="0.0112841021" flag="0"/>
      <psa03 value="0.0613188395" flag="0"/>
      <psa10 value="0.0164143663" flag="0"/>
      <psa30 value="0.0007102784" flag="0"/>
    </comp>
    <comp name="--.HNN">
      <acc value="0.0286983526" flag="0"/>
      <vel value="0.0235876822" flag="0"/>
      <psa03 value="0.0731119265" flag="0"/>
      <psa10 value="0.0380744076" flag="0"/>
      <psa30 value="0.0021577102" flag="0"/>
    </comp>
    <comp name="--.HNZ">
      <acc value="0.0224073040" flag="0"/>
      <vel value="0.0093130566" flag="0"/>
      <psa03 value="0.0330180569" flag="0"/>
      <psa10 value="0.0077077819" flag="0"/>
      <psa30 value="0.0006090034" flag="0"/>
    </comp>
  </station>
  <station code="DST" name="DST" netid="KO" insttype="CMG-5T" commtype="DIG" lat="39.6041" lon="28.6267">
    <comp name="--.HNE">
      <acc value="0.0389442084" flag="0"/>
      <vel value="0.0083262306" flag="0"/>
      <psa03 value="0.0461177874" flag="0"/>
      <psa10 value="0.0104953256" flag="0"/>
      <psa30 value="0.0010427626" flag="0"/>
    </comp>
    <comp name="--.HNN">
      <acc value="0.0342760585" flag="0"/>
      <vel value="0.0119986949" flag="0"/>
      <psa03 value="0.0415566451" flag="0"/>
      <psa10 value="0.0097898115" flag="0"/>
      <psa30 value="0.0011666173" flag="0"/>
    </comp>
    <comp name="--.HNZ">
      <acc value="0.0290955169" flag="0"/>
      <vel value="0.0074317068" flag="0"/>
      <psa03 value="0.0385136498" flag="0"/>
      <psa10 value="0.0050686237" flag="0"/>
      <psa30 value="0.0007924774" flag="0"/>
    </comp>
  </station>
  <station code="EDC" name="EDC" netid="KO" insttype="CMG-3T" commtype="DIG" lat="40.3465" lon="27.8618">
    <comp name="--.HHZ">
      <acc value="0.0140240142" flag="0"/>
      <vel value="0.0057951947" flag="0"/>
      <psa03 value="0.0241426460" flag="0"/>
      <psa10 value="0.0080094469" flag="0"/>
      <psa30 value="0.0004814292" flag="0"/>
    </comp>
    <comp name="--.HHE">
      <acc value="0.0252706413" flag="0"/>
      <vel value="0.0145738938" flag="0"/>
      <psa03 value="0.0509926068" flag="0"/>
      <psa10 value="0.0187490445" flag="0"/>
      <psa30 value="0.0012448835" flag="0"/>
    </comp>
    <comp name="--.HHN">
      <acc value="0.0249511579" flag="0"/>
      <vel value="0.0139105555" flag="0"/>
      <psa03 value="0.0456226097" flag="0"/>
      <psa10 value="0.0172293651" flag="0"/>
      <psa30 value="0.0008430489" flag="0"/>
    </comp>
  </station>
  <station code="GEDZ" name="GEDZ" netid="KO" insttype="CMG-6T" commtype="DIG" lat="39.0445" lon="29.4105">
    <comp name="--.HHZ">
      <acc value="0.0172203883" flag="0"/>
      <vel value="0.0055025392" flag="0"/>
      <psa03 value="0.0208867969" flag="0"/>
      <psa10 value="0.0049227035" flag="0"/>
      <psa30 value="0.0003455014" flag="0"/>
    </comp>
    <comp name="--.HHE">
      <acc value="0.0346546560" flag="0"/>
      <vel value="0.0135027660" flag="0"/>
      <psa03 value="0.0775047998" flag="0"/>
      <psa10 value="0.0148874542" flag="0"/>
      <psa30 value="0.0008048142" flag="0"/>
    </comp>
    <comp name="--.HHN">
      <acc value="0.0423372780" flag="0"/>
      <vel value="0.0138370360" flag="0"/>
      <psa03 value="0.0876059027" flag="0"/>
      <psa10 value="0.0141815944" flag="0"/>
      <psa30 value="0.0018128762" flag="0"/>
    </comp>
  </station>
  <station code="GONE" name="GONE" netid="KO" insttype="CMG-5T" commtype="DIG" lat="40.0466" lon="27.686">
    <comp name="--.HNE">
      <acc value="0.0280979474" flag="0"/>
      <vel value="0.0120849047" flag="0"/>
      <psa03 value="0.0533590096" flag="0"/>
      <psa10 value="0.0127439872" flag="0"/>
      <psa30 value="0.0010785995" flag="0"/>
    </comp>
    <comp name="--.HNN">
      <acc value="0.0257989738" flag="0"/>
      <vel value="0.0207083867" flag="0"/>
      <psa03 value="0.0698300148" flag="0"/>
      <psa10 value="0.0282855491" flag="0"/>
      <psa30 value="0.0012655849" flag="0"/>
    </comp>
    <comp name="--.HNZ">
      <acc value="0.0147595282" flag="0"/>
      <vel value="0.0065384030" flag="0"/>
      <psa03 value="0.0317959761" flag="0"/>
      <psa10 value="0.0053933849" flag="0"/>
      <psa30 value="0.0003805152" flag="0"/>
    </comp>
  </station>
  <station code="GORD" name="GORD" netid="KO" insttype="CMG-5T" commtype="DIG" lat="38.9088" lon="28.1769">
    <comp name="--.HNN">
      <acc value="0.0368470734" flag="0"/>
      <vel value="0.0147273778" flag="0"/>
      <psa03 value="0.0469803219" flag="0"/>
      <psa10 value="0.0172667218" flag="0"/>
      <psa30 value="0.0016053004" flag="0"/>
    </comp>
    <comp name="--.HNE">
      <acc value="0.0288290658" flag="0"/>
      <vel value="0.0121190561" flag="0"/>
      <psa03 value="0.0475812674" flag="0"/>
      <psa10 value="0.0174205115" flag="0"/>
      <psa30 value="0.0022606298" flag="0"/>
    </comp>
    <comp name="--.HNZ">
      <acc value="0.0318264679" flag="0"/>
      <vel value="0.0104809409" flag="0"/>
      <psa03 value="0.0298149483" flag="0"/>
      <psa10 value="0.0171470609" flag="0"/>
      <psa30 value="0.0011588521" flag="0"/>
    </comp>
  </station>
  <station code="KCTX" name="KCTX" netid="KO" insttype="CMG-3ESP" commtype="DIG" lat="40.2626" lon="28.3353">
    <comp name="--.HHE">
      <acc value="0.0172454830" flag="0"/>
      <vel value="0.0109796186" flag="0"/>
      <psa03 value="0.0311062127" flag="0"/>
      <psa10 value="0.0198596070" flag="0"/>
      <psa30 value="0.0012651448" flag="0"/>
    </comp>
  </station>
  <station code="ORLT" name="ORLT" netid="KO" insttype="CMG-5T" commtype="DIG" lat="40.0452" lon="28.8914">
    <comp name="--.HNE">
      <acc value="0.0213949212" flag="0"/>
      <vel value="0.0126904630" flag="0"/>
      <psa03 value="0.0591526909" flag="0"/>
      <psa10 value="0.0209869944" flag="0"/>
      <psa30 value="0.0012166388" flag="0"/>
    </comp>
    <comp name="--.HNN">
      <acc value="0.0243252853" flag="0"/>
      <vel value="0.0119478132" flag="0"/>
      <psa03 value="0.0675680361" flag="0"/>
      <psa10 value="0.0166941526" flag="0"/>
      <psa30 value="0.0008975054" flag="0"/>
    </comp>
    <comp name="--.HNZ">
      <acc value="0.0103016439" flag="0"/>
      <vel value="0.0064000037" flag="0"/>
      <psa03 value="0.0208174519" flag="0"/>
      <psa10 value="0.0102935419" flag="0"/>
      <psa30 value="0.0006806871" flag="0"/>
    </comp>
  </station>
  <station code="SIMA" name="SIMA" netid="KO" insttype="CMG-6T" commtype="DIG" lat="39.0833" lon="28.9825">
    <comp name="--.HHE">
      <acc value="0.0296106371" flag="0"/>
      <vel value="0.0102711712" flag="0"/>
      <psa03 value="0.0714404168" flag="0"/>
      <psa10 value="0.0033364968" flag="0"/>
      <psa30 value="0.0002905305" flag="0"/>
    </comp>
    <comp name="--.HHN">
      <acc value="0.0225732970" flag="0"/>
      <vel value="0.0083694422" flag="0"/>
      <psa03 value="0.0560225285" flag="0"/>
      <psa10 value="0.0084162581" flag="0"/>
      <psa30 value="0.0007755261" flag="0"/>
    </comp>
    <comp name="--.HHZ">
      <acc value="0.0175881240" flag="0"/>
      <vel value="0.0049154865" flag="0"/>
      <psa03 value="0.0312117360" flag="0"/>
      <psa10 value="0.0037534931" flag="0"/>
      <psa30 value="0.0003252701" flag="0"/>
    </comp>
  </station>
  <station code="SMAA" name="SMAA" netid="KO" insttype="CMG-5T" commtype="DIG" lat="39.1005" lon="28.9805">
    <comp name="--.HNN">
      <acc value="0.0337495593" flag="0"/>
      <vel value="0.0252720409" flag="0"/>
      <psa03 value="0.0849371993" flag="0"/>
      <psa10 value="0.0371879557" flag="0"/>
      <psa30 value="0.0028726228" flag="0"/>
    </comp>
    <comp name="--.HNZ">
      <acc value="0.0185951514" flag="0"/>
      <vel value="0.0099168268" flag="0"/>
      <psa03 value="0.0216346542" flag="0"/>
      <psa10 value="0.0307123326" flag="0"/>
      <psa30 value="0.0009539422" flag="0"/>
    </comp>
    <comp name="--.HNE">
      <acc value="0.0330806593" flag="0"/>
      <vel value="0.0189510342" flag="0"/>
      <psa03 value="0.0652749594" flag="0"/>
      <psa10 value="0.0333677602" flag="0"/>
      <psa30 value="0.0023567605" flag="0"/>
    </comp>
  </station>
  <station code="SOMA" name="SOMA" netid="KO" insttype="CMG-5T" commtype="DIG" lat="39.1564" lon="27.5341">
    <comp name="--.HNE">
      <acc value="0.1480487890" flag="0"/>
      <vel value="0.0275202193" flag="0"/>
      <psa03 value="0.0711854270" flag="0"/>
      <psa10 value="0.0245574902" flag="0"/>
      <psa30 value="0.0015043736" flag="0"/>
    </comp>
    <comp name="--.HNN">
      <acc value="0.1221921969" flag="0"/>
      <vel value="0.0388629008" flag="0"/>
      <psa03 value="0.0849306978" flag="0"/>
      <psa10 value="0.0423274243" flag="0"/>
      <psa30 value="0.0031174872" flag="0"/>
    </comp>
    <comp name="--.HNZ">
      <acc value="0.1440494722" flag="0"/>
      <vel value="0.0274668443" flag="0"/>
      <psa03 value="0.0692595142" flag="0"/>
      <psa10 value="0.0139496604" flag="0"/>
      <psa30 value="0.0011375059" flag="0"/>
    </comp>
  </station>
  <station code="SUSR" name="SUSR" netid="KO" insttype="CMG-5T" commtype="DIG" lat="39.9627" lon="28.0835">
    <comp name="--.HNE">
      <acc value="0.0433379049" flag="0"/>
      <vel value="0.0087703665" flag="0"/>
      <psa03 value="0.0351768599" flag="0"/>
      <psa10 value="0.0032566234" flag="0"/>
      <psa30 value="0.0003338156" flag="0"/>
    </comp>
    <comp name="--.HNN">
      <acc value="0.0408797582" flag="0"/>
      <vel value="0.0112840617" flag="0"/>
      <psa03 value="0.0518672576" flag="0"/>
      <psa10 value="0.0037390935" flag="0"/>
      <psa30 value="0.0003277252" flag="0"/>
    </comp>
    <comp name="--.HNZ">
      <acc value="0.0388780051" flag="0"/>
      <vel value="0.0080060590" flag="0"/>
      <psa03 value="0.0368639734" flag="0"/>
      <psa10 value="0.0044930432" flag="0"/>
      <psa30 value="0.0003171337" flag="0"/>
    </comp>
  </station>
  <station code="YAYO" name="YAYO" netid="KO" insttype="CMG-6T" commtype="DIG" lat="39.6113" lon="27.0726">
    <comp name="--.HHE">
      <acc value="0.0143694940" flag="0"/>
      <vel value="0.0074134924" flag="0"/>
      <psa03 value="0.0294757750" flag="0"/>
      <psa10 value="0.0067047156" flag="0"/>
      <psa30 value="0.0003755439" flag="0"/>
    </comp>
    <comp name="--.HHN">
      <acc value="0.0165692338" flag="0"/>
      <vel value="0.0097365495" flag="0"/>
      <psa03 value="0.0394637433" flag="0"/>
      <psa10 value="0.0087587585" flag="0"/>
      <psa30 value="0.0005494545" flag="0"/>
    </comp>
    <comp name="--.HHZ">
      <acc value="0.0181033422" flag="0"/>
      <vel value="0.0052859673" flag="0"/>
      <psa03 value="0.0305789820" flag="0"/>
      <psa10 value="0.0047948146" flag="0"/>
      <psa30 value="0.0004085565" flag="0"/>
    </comp>
  </station>
  <station code="YENI" name="YENI" netid="KO" insttype="CMG-5T" commtype="DIG" lat="39.9364" lon="27.2422">
    <comp name="--.HNE">
      <acc value="0.0450236115" flag="0"/>
      <vel value="0.0184462338" flag="0"/>
      <psa03 value="0.1036661448" flag="0"/>
      <psa10 value="0.0147659931" flag="0"/>
      <psa30 value="0.0007037405" flag="0"/>
    </comp>
    <comp name="--.HNN">
      <acc value="0.0697926458" flag="0"/>
      <vel value="0.0262287685" flag="0"/>
      <psa03 value="0.0863486466" flag="0"/>
      <psa10 value="0.0264623409" flag="0"/>
      <psa30 value="0.0012894420" flag="0"/>
    </comp>
    <comp name="--.HNZ">
      <acc value="0.0180284472" flag="0"/>
      <vel value="0.0057939458" flag="0"/>
      <psa03 value="0.0341804174" flag="0"/>
      <psa10 value="0.0054986753" flag="0"/>
      <psa30 value="0.0005816529" flag="0"/>
    </comp>
  </station>
</stationlist>
