<?xml version="1.0" encoding="UTF-8" standalone="yes"?>
<!DOCTYPE earthquake SYSTEM "stationlist.dtd">
<stationlist created="" xmlns="ch.ethz.sed.shakemap.usgs.xml">
  <station code="KARP" name="KARP" netid="GE" insttype="STS-2/N" commtype="DIG" lat="35.5471" lon="27.1611">
    <comp name="--.HHE">
      <acc value="0.0638370901" flag="0"/>
      <vel value="0.0609380479" flag="0"/>
      <psa03 value="0.1414694695" flag="0"/>
      <psa10 value="0.1100525053" flag="0"/>
      <psa30 value="0.0132151860" flag="0"/>
    </comp>
    <comp name="--.HHZ">
      <acc value="0.0502689783" flag="0"/>
      <vel value="0.0382883281" flag="0"/>
      <psa03 value="0.1328402176" flag="0"/>
      <psa10 value="0.0466856724" flag="0"/>
      <psa30 value="0.0111982303" flag="0"/>
    </comp>
    <comp name="--.HHN">
      <acc value="0.0705691013" flag="0"/>
      <vel value="0.0634378543" flag="0"/>
      <psa03 value="0.1943831943" flag="0"/>
      <psa10 value="0.1214136142" flag="0"/>
      <psa30 value="0.0104756470" flag="0"/>
    </comp>
  </station>
  <station code="THERA" name="THERA" netid="GE" insttype="STS-2/N" commtype="DIG" lat="36.367" lon="25.4753">
    <comp name="--.HHZ">
      <acc value="0.0175809681" flag="0"/>
      <vel value="0.0110695526" flag="0"/>
      <psa03 value="0.0655124310" flag="0"/>
      <psa10 value="0.0107385417" flag="0"/>
      <psa30 value="0.0061724700" flag="0"/>
    </comp>
    <comp name="--.HHE">
      <acc value="0.0231354184" flag="0"/>
      <vel value="0.0131904380" flag="0"/>
      <psa03 value="0.0508209957" flag="0"/>
      <psa10 value="0.0216721635" flag="0"/>
      <psa30 value="0.0048764849" flag="0"/>
    </comp>
    <comp name="--.HHN">
      <acc value="0.0141724812" flag="0"/>
      <vel value="0.0071169629" flag="0"/>
      <psa03 value="0.0442409753" flag="0"/>
      <psa10 value="0.0065358515" flag="0"/>
      <psa30 value="0.0026148186" flag="0"/>
    </comp>
  </station>
  <station code="ZKR" name="ZKR" netid="GE" insttype="STS-2/N" commtype="DIG" lat="35.1147" lon="26.2169">
    <comp name="--.HHE">
      <acc value="0.9619423813" flag="0"/>
      <vel value="0.7879423374" flag="0"/>
      <psa03 value="1.7459215844" flag="0"/>
      <psa10 value="0.8136654338" flag="0"/>
      <psa30 value="0.0928913035" flag="0"/>
    </comp>
    <comp name="--.HHZ">
      <acc value="0.9966472452" flag="0"/>
      <vel value="0.4869338690" flag="0"/>
      <psa03 value="0.8774538005" flag="0"/>
      <psa10 value="0.4389843680" flag="0"/>
      <psa30 value="0.2124767653" flag="0"/>
    </comp>
    <comp name="--.HHN">
      <acc value="0.7001659737" flag="0"/>
      <vel value="0.2535276201" flag="0"/>
      <psa03 value="1.1808789764" flag="0"/>
      <psa10 value="0.2779241178" flag="0"/>
      <psa30 value="0.0518151543" flag="0"/>
    </comp>
  </station>
  <station code="IMOD" name="IMOD" netid="HC" insttype="120" commtype="DIG" lat="34.9731" lon="24.7995">
    <comp name="--.HHE">
      <acc value="0.0527341484" flag="0"/>
      <vel value="0.0556808944" flag="0"/>
      <psa03 value="0.1593288996" flag="0"/>
      <psa10 value="0.0794759989" flag="0"/>
      <psa30 value="0.0066816540" flag="0"/>
    </comp>
    <comp name="--.HHN">
      <acc value="0.0524340213" flag="0"/>
      <vel value="0.0535198423" flag="0"/>
      <psa03 value="0.1238653365" flag="0"/>
      <psa10 value="0.0635190969" flag="0"/>
      <psa30 value="0.0094549467" flag="0"/>
    </comp>
    <comp name="--.HHZ">
      <acc value="0.0344759004" flag="0"/>
      <vel value="0.0322554097" flag="0"/>
      <psa03 value="0.0820050766" flag="0"/>
      <psa10 value="0.0490033003" flag="0"/>
      <psa30 value="0.0073823371" flag="0"/>
    </comp>
  </station>
  <station code="IPPL" name="IPPL" netid="HC" insttype="60" commtype="DIG" lat="35.3486" lon="24.4632">
    <comp name="--.HHE">
      <acc value="0.0000000000" flag="0"/>
      <vel value="-100.0000000000" flag="0"/>
      <psa03 value="0.0000000000" flag="0"/>
      <psa10 value="0.0000000000" flag="0"/>
      <psa30 value="0.0000000000" flag="0"/>
    </comp>
    <comp name="--.HHN">
      <acc value="0.0000000000" flag="0"/>
      <vel value="-100.0000000000" flag="0"/>
      <psa03 value="0.0000000000" flag="0"/>
      <psa10 value="0.0000000000" flag="0"/>
      <psa30 value="0.0000000000" flag="0"/>
    </comp>
    <comp name="--.HHZ">
      <acc value="0.0181145608" flag="0"/>
      <vel value="0.0170430110" flag="0"/>
      <psa03 value="0.0390365140" flag="0"/>
      <psa10 value="0.0229837383" flag="0"/>
      <psa30 value="0.0057754975" flag="0"/>
    </comp>
  </station>
  <station code="KNSS" name="KNSS" netid="HC" insttype="60" commtype="DIG" lat="35.3042" lon="25.1802">
    <comp name="--.HHE">
      <acc value="0.0000000000" flag="0"/>
      <vel value="-100.0000000000" flag="0"/>
      <psa03 value="0.0000000000" flag="0"/>
      <psa10 value="0.0000000000" flag="0"/>
      <psa30 value="0.0000000000" flag="0"/>
    </comp>
    <comp name="--.HHN">
      <acc value="0.0484388511" flag="0"/>
      <vel value="0.0310979794" flag="0"/>
      <psa03 value="0.2260487898" flag="0"/>
      <psa10 value="0.0437069411" flag="0"/>
      <psa30 value="0.0165172125" flag="0"/>
    </comp>
    <comp name="--.HHZ">
      <acc value="0.0457288904" flag="0"/>
      <vel value="0.0289777083" flag="0"/>
      <psa03 value="0.0977413509" flag="0"/>
      <psa10 value="0.0340393565" flag="0"/>
      <psa30 value="0.0134470978" flag="0"/>
    </comp>
  </station>
  <station code="PFKS" name="PFKS" netid="HC" insttype="120" commtype="DIG" lat="35.0429" lon="25.4733">
    <comp name="--.HHN">
      <acc value="0.3118437638" flag="0"/>
      <vel value="0.1192795318" flag="0"/>
      <psa03 value="0.3945541041" flag="0"/>
      <psa10 value="0.0815283298" flag="0"/>
      <psa30 value="0.0119754793" flag="0"/>
    </comp>
    <comp name="--.HHZ">
      <acc value="0.1313891912" flag="0"/>
      <vel value="0.0737507604" flag="0"/>
      <psa03 value="0.2538434498" flag="0"/>
      <psa10 value="0.0834997129" flag="0"/>
      <psa30 value="0.0092569933" flag="0"/>
    </comp>
    <comp name="--.HHE">
      <acc value="0.2733595789" flag="0"/>
      <vel value="0.1085251494" flag="0"/>
      <psa03 value="0.6439085604" flag="0"/>
      <psa10 value="0.1262671018" flag="0"/>
      <psa30 value="0.0134710216" flag="0"/>
    </comp>
  </station>
  <station code="STIA" name="STIA" netid="HC" insttype="120" commtype="DIG" lat="35.2021" lon="26.0909">
    <comp name="--.HHN">
      <acc value="0.7832205576" flag="0"/>
      <vel value="0.3844904269" flag="0"/>
      <psa03 value="2.0543994667" flag="0"/>
      <psa10 value="0.3010371042" flag="0"/>
      <psa30 value="0.1148294800" flag="0"/>
    </comp>
    <comp name="--.HHZ">
      <acc value="0.6274573246" flag="0"/>
      <vel value="0.2564135102" flag="0"/>
      <psa03 value="1.8661972652" flag="0"/>
      <psa10 value="0.2250430340" flag="0"/>
      <psa30 value="0.0667998872" flag="0"/>
    </comp>
    <comp name="--.HHE">
      <acc value="0.5730170404" flag="0"/>
      <vel value="0.5599299887" flag="0"/>
      <psa03 value="1.6607206601" flag="0"/>
      <psa10 value="0.2266122378" flag="0"/>
      <psa30 value="0.0889915940" flag="0"/>
    </comp>
  </station>
  <station code="AGN1" name="AGN1" netid="HI" insttype="unknown" commtype="DIG" lat="35.1879" lon="25.7155">
    <comp name="--.HNZ">
      <acc value="0.1214277815" flag="0"/>
      <vel value="0.0470760880" flag="0"/>
      <psa03 value="0.2254903730" flag="0"/>
      <psa10 value="0.0416131458" flag="0"/>
      <psa30 value="0.0144867457" flag="0"/>
    </comp>
    <comp name="--.HNN">
      <acc value="0.3885929075" flag="0"/>
      <vel value="0.0998940806" flag="0"/>
      <psa03 value="0.6100262754" flag="0"/>
      <psa10 value="0.0832757359" flag="0"/>
      <psa30 value="0.0169021457" flag="0"/>
    </comp>
    <comp name="--.HNE">
      <acc value="0.0002670514" flag="0"/>
      <vel value="0.0005042620" flag="0"/>
      <psa03 value="0.0006190614" flag="0"/>
      <psa10 value="0.0003514585" flag="0"/>
      <psa30 value="0.0001636586" flag="0"/>
    </comp>
  </station>
  <station code="ARK1" name="ARK1" netid="HI" insttype="unknown" commtype="DIG" lat="35.1488" lon="25.2642">
    <comp name="--.HNN">
      <acc value="0.1086103471" flag="0"/>
      <vel value="0.0851385167" flag="0"/>
      <psa03 value="0.1989207702" flag="0"/>
      <psa10 value="0.1317153341" flag="0"/>
      <psa30 value="0.0270939680" flag="0"/>
    </comp>
    <comp name="--.HNZ">
      <acc value="0.0639087141" flag="0"/>
      <vel value="0.0510023335" flag="0"/>
      <psa03 value="0.1661714623" flag="0"/>
      <psa10 value="0.0879547754" flag="0"/>
      <psa30 value="0.0124640561" flag="0"/>
    </comp>
  </station>
  <station code="GOR1" name="GOR1" netid="HI" insttype="unknown" commtype="DIG" lat="35.0582" lon="24.9628">
    <comp name="--.HNE">
      <acc value="0.0552808205" flag="0"/>
      <vel value="0.0602570887" flag="0"/>
      <psa03 value="0.1561567746" flag="0"/>
      <psa10 value="0.1070653698" flag="0"/>
      <psa30 value="0.0189636514" flag="0"/>
    </comp>
    <comp name="--.HNN">
      <acc value="0.0438144587" flag="0"/>
      <vel value="0.0726053232" flag="0"/>
      <psa03 value="0.1300512777" flag="0"/>
      <psa10 value="0.1276870223" flag="0"/>
      <psa30 value="0.0143052392" flag="0"/>
    </comp>
    <comp name="--.HNZ">
      <acc value="0.0402424235" flag="0"/>
      <vel value="0.0405979793" flag="0"/>
      <psa03 value="0.0978319508" flag="0"/>
      <psa10 value="0.0591539905" flag="0"/>
      <psa30 value="0.0119945711" flag="0"/>
    </comp>
  </station>
  <station code="HER1" name="HER1" netid="HI" insttype="unknown" commtype="DIG" lat="35.3177" lon="25.1022">
    <comp name="--.HNN">
      <acc value="0.1466345981" flag="0"/>
      <vel value="0.2914944187" flag="0"/>
      <psa03 value="0.3166023161" flag="0"/>
      <psa10 value="0.4604459473" flag="0"/>
      <psa30 value="0.0284588434" flag="0"/>
    </comp>
    <comp name="--.HNE">
      <acc value="0.1432028092" flag="0"/>
      <vel value="0.2439543907" flag="0"/>
      <psa03 value="0.2545914917" flag="0"/>
      <psa10 value="0.3820224735" flag="0"/>
      <psa30 value="0.0347255661" flag="0"/>
    </comp>
    <comp name="--.HNZ">
      <acc value="0.1061079373" flag="0"/>
      <vel value="0.1085428901" flag="0"/>
      <psa03 value="0.2544392220" flag="0"/>
      <psa10 value="0.1545531342" flag="0"/>
      <psa30 value="0.0107780032" flag="0"/>
    </comp>
  </station>
  <station code="KSS1" name="KSS1" netid="HI" insttype="CMG-5TD,ACCELEROMETER,GURALP" commtype="DIG" lat="35.4189" lon="26.9207">
    <comp name="--.HNE">
      <acc value="0.0925711203" flag="0"/>
      <vel value="0.0580469596" flag="0"/>
      <psa03 value="0.3445104526" flag="0"/>
      <psa10 value="0.0658824862" flag="0"/>
      <psa30 value="0.0196801164" flag="0"/>
    </comp>
    <comp name="--.HNZ">
      <acc value="0.0563945933" flag="0"/>
      <vel value="0.0498264172" flag="0"/>
      <psa03 value="0.0907552647" flag="0"/>
      <psa10 value="0.0447663593" flag="0"/>
      <psa30 value="0.0281688120" flag="0"/>
    </comp>
    <comp name="--.HNN">
      <acc value="0.1661489184" flag="0"/>
      <vel value="0.1032335886" flag="0"/>
      <psa03 value="0.6829895009" flag="0"/>
      <psa10 value="0.0832910053" flag="0"/>
      <psa30 value="0.0246329568" flag="0"/>
    </comp>
  </station>
  <station code="SIT2" name="SIT2" netid="HI" insttype="CMG-5TD,ACCELEROMETER,GURALP" commtype="DIG" lat="35.2059" lon="26.107">
    <comp name="--.HNE">
      <acc value="1.5026885587" flag="0"/>
      <vel value="0.9880188191" flag="0"/>
      <psa03 value="6.3003278581" flag="0"/>
      <psa10 value="0.5898485900" flag="0"/>
      <psa30 value="0.0926839332" flag="0"/>
    </comp>
    <comp name="--.HNN">
      <acc value="1.5084034844" flag="0"/>
      <vel value="0.9006968477" flag="0"/>
      <psa03 value="4.2514428652" flag="0"/>
      <psa10 value="0.7317276928" flag="0"/>
      <psa30 value="0.1160373464" flag="0"/>
    </comp>
    <comp name="--.HNZ">
      <acc value="1.1649240924" flag="0"/>
      <vel value="0.5335020446" flag="0"/>
      <psa03 value="4.4479958854" flag="0"/>
      <psa10 value="0.2685556350" flag="0"/>
      <psa30 value="0.0600407761" flag="0"/>
    </comp>
  </station>
  <station code="ANAF" name="ANAF" netid="HL" insttype="LE3D20_SMART24" commtype="DIG" lat="36.3567" lon="25.7726">
    <comp name="--.HHZ">
      <acc value="0.0473707978" flag="0"/>
      <vel value="0.0379162639" flag="0"/>
      <psa03 value="0.1440287828" flag="0"/>
      <psa10 value="0.0245093198" flag="0"/>
      <psa30 value="0.0059202592" flag="0"/>
    </comp>
    <comp name="--.HHN">
      <acc value="0.1029413458" flag="0"/>
      <vel value="0.0796763631" flag="0"/>
      <psa03 value="0.3546748992" flag="0"/>
      <psa10 value="0.0461477700" flag="0"/>
      <psa30 value="0.0094029125" flag="0"/>
    </comp>
    <comp name="--.HHE">
      <acc value="0.1148689509" flag="0"/>
      <vel value="0.0713526774" flag="0"/>
      <psa03 value="0.5188172988" flag="0"/>
      <psa10 value="0.0785615753" flag="0"/>
      <psa30 value="0.0113263331" flag="0"/>
    </comp>
  </station>
  <station code="HERG" name="HERG" netid="HL" insttype="CMG-5" commtype="DIG" lat="35.3262" lon="25.0659">
    <comp name="00.HNN">
      <acc value="0.0841546775" flag="0"/>
      <vel value="0.1479929640" flag="0"/>
      <psa03 value="0.3154621468" flag="0"/>
      <psa10 value="0.2492835121" flag="0"/>
      <psa30 value="0.0278184816" flag="0"/>
    </comp>
    <comp name="00.HNE">
      <acc value="0.1114488377" flag="0"/>
      <vel value="0.1771044870" flag="0"/>
      <psa03 value="0.2763279737" flag="0"/>
      <psa10 value="0.2823987940" flag="0"/>
      <psa30 value="0.0294644807" flag="0"/>
    </comp>
    <comp name="00.HNZ">
      <acc value="0.0809577437" flag="0"/>
      <vel value="0.0741255883" flag="0"/>
      <psa03 value="0.1596866877" flag="0"/>
      <psa10 value="0.0973057820" flag="0"/>
      <psa30 value="0.0119815404" flag="0"/>
    </comp>
  </station>
  <station code="IACM" name="IACM" netid="HL" insttype="120" commtype="DIG" lat="35.3058" lon="25.0709">
    <comp name="--.HHE">
      <acc value="0.1822706313" flag="0"/>
      <vel value="0.2475694103" flag="0"/>
      <psa03 value="0.3500457689" flag="0"/>
      <psa10 value="0.5381735455" flag="0"/>
      <psa30 value="0.0426441361" flag="0"/>
    </comp>
    <comp name="--.HHN">
      <acc value="0.1324693389" flag="0"/>
      <vel value="0.1584767699" flag="0"/>
      <psa03 value="0.4222685409" flag="0"/>
      <psa10 value="0.2409121154" flag="0"/>
      <psa30 value="0.0337593405" flag="0"/>
    </comp>
    <comp name="--.HHZ">
      <acc value="0.1018418659" flag="0"/>
      <vel value="0.0938817617" flag="0"/>
      <psa03 value="0.2951540977" flag="0"/>
      <psa10 value="0.0911499013" flag="0"/>
      <psa30 value="0.0109464863" flag="0"/>
    </comp>
  </station>
  <station code="IDI" name="IDI" netid="HL" insttype="120" commtype="DIG" lat="35.288" lon="24.89">
    <comp name="--.HHE">
      <acc value="0.0189951874" flag="0"/>
      <vel value="0.0198450376" flag="0"/>
      <psa03 value="0.0519512091" flag="0"/>
      <psa10 value="0.0192272766" flag="0"/>
      <psa30 value="0.0051716657" flag="0"/>
    </comp>
    <comp name="--.HHZ">
      <acc value="0.0161747538" flag="0"/>
      <vel value="0.0193694755" flag="0"/>
      <psa03 value="0.0458456238" flag="0"/>
      <psa10 value="0.0159970760" flag="0"/>
      <psa30 value="0.0119584579" flag="0"/>
    </comp>
    <comp name="--.HHN">
      <acc value="0.0220385306" flag="0"/>
      <vel value="0.0223403458" flag="0"/>
      <psa03 value="0.0665954648" flag="0"/>
      <psa10 value="0.0268034170" flag="0"/>
      <psa30 value="0.0061788164" flag="0"/>
    </comp>
  </station>
  <station code="KARP" name="KARP" netid="HL" insttype="120" commtype="DIG" lat="35.5471" lon="27.1611">
    <comp name="--.HHE">
      <acc value="0.0626490643" flag="0"/>
      <vel value="0.0604911530" flag="0"/>
      <psa03 value="0.1375261853" flag="0"/>
      <psa10 value="0.1094967139" flag="0"/>
      <psa30 value="0.0131963664" flag="0"/>
    </comp>
    <comp name="--.HHZ">
      <acc value="0.0489215391" flag="0"/>
      <vel value="0.0377871134" flag="0"/>
      <psa03 value="0.1296460305" flag="0"/>
      <psa10 value="0.0464270372" flag="0"/>
      <psa30 value="0.0111843155" flag="0"/>
    </comp>
    <comp name="--.HHN">
      <acc value="0.0691473854" flag="0"/>
      <vel value="0.0627785845" flag="0"/>
      <psa03 value="0.1887317563" flag="0"/>
      <psa10 value="0.1206504379" flag="0"/>
      <psa30 value="0.0104626829" flag="0"/>
    </comp>
  </station>
  <station code="SANT" name="SANT" netid="HL" insttype="30" commtype="DIG" lat="36.3705" lon="25.4593">
    <comp name="--.HHZ">
      <acc value="0.0197969318" flag="0"/>
      <vel value="0.0129496621" flag="0"/>
      <psa03 value="0.0688256692" flag="0"/>
      <psa10 value="0.0117766640" flag="0"/>
      <psa30 value="0.0049686996" flag="0"/>
    </comp>
    <comp name="--.HHN">
      <acc value="0.0235855852" flag="0"/>
      <vel value="0.0181863723" flag="0"/>
      <psa03 value="0.0604725550" flag="0"/>
      <psa10 value="0.0273748963" flag="0"/>
      <psa30 value="0.0050295554" flag="0"/>
    </comp>
    <comp name="--.HHE">
      <acc value="0.0319047399" flag="0"/>
      <vel value="0.0220483713" flag="0"/>
      <psa03 value="0.1209003345" flag="0"/>
      <psa10 value="0.0324475177" flag="0"/>
      <psa30 value="0.0054732251" flag="0"/>
    </comp>
  </station>
  <station code="SIVA" name="SIVA" netid="HL" insttype="60" commtype="DIG" lat="35.0178" lon="24.812">
    <comp name="--.HHN">
      <acc value="0.0605106806" flag="0"/>
      <vel value="0.0516600270" flag="0"/>
      <psa03 value="0.1192487458" flag="0"/>
      <psa10 value="0.0865340156" flag="0"/>
      <psa30 value="0.0105046729" flag="0"/>
    </comp>
    <comp name="--.HHE">
      <acc value="0.0639771926" flag="0"/>
      <vel value="0.0512801559" flag="0"/>
      <psa03 value="0.1839725273" flag="0"/>
      <psa10 value="0.0771649182" flag="0"/>
      <psa30 value="0.0102017356" flag="0"/>
    </comp>
    <comp name="--.HHZ">
      <acc value="0.0327815954" flag="0"/>
      <vel value="0.0369413056" flag="0"/>
      <psa03 value="0.0838790917" flag="0"/>
      <psa10 value="0.0434388137" flag="0"/>
      <psa30 value="0.0100539211" flag="0"/>
    </comp>
  </station>
  <station code="THERA" name="THERA" netid="HL" insttype="120" commtype="DIG" lat="36.367" lon="25.4753">
    <comp name="--.HHN">
      <acc value="0.0276332796" flag="0"/>
      <vel value="0.0139604850" flag="0"/>
      <psa03 value="0.0858269032" flag="0"/>
      <psa10 value="0.0130189543" flag="0"/>
      <psa30 value="0.0052287443" flag="0"/>
    </comp>
    <comp name="--.HHE">
      <acc value="0.0226920914" flag="0"/>
      <vel value="0.0130217187" flag="0"/>
      <psa03 value="0.0494662502" flag="0"/>
      <psa10 value="0.0215586020" flag="0"/>
      <psa30 value="0.0048782017" flag="0"/>
    </comp>
    <comp name="--.HHZ">
      <acc value="0.0171321131" flag="0"/>
      <vel value="0.0110375040" flag="0"/>
      <psa03 value="0.0637987456" flag="0"/>
      <psa10 value="0.0106985535" flag="0"/>
      <psa30 value="0.0061762436" flag="0"/>
    </comp>
  </station>
  <station code="AKRO" name="AKRO" netid="HT" insttype="Compact," commtype="DIG" lat="36.3584" lon="25.3967">
    <comp name="--.HHZ">
      <acc value="0.0430024140" flag="0"/>
      <vel value="0.0170000178" flag="0"/>
      <psa03 value="0.0760396240" flag="0"/>
      <psa10 value="0.0130859944" flag="0"/>
      <psa30 value="0.0028215556" flag="0"/>
    </comp>
