<stationlist created="1777026308">
	<station code="ATEI" name="ATEI" netid="HC" source="Seismological Network of Crete (HC)" insttype="" lat="35.5193" lon="24.0432">
		<comp name="--.HNE" depth="0.0">
			<acc value="0.0107794752886098" flag="0"/>
			<vel value="0.0225721608943767" flag="0"/>
			<psa03 value="0.0253464056374798" flag="0"/>
			<psa10 value="0.0222503964795675" flag="0"/>
			<psa30 value="0.0093272787197726" flag="0"/>
		</comp>
		<comp name="--.HNN" depth="0.0">
			<acc value="0.0120543857654504" flag="0"/>
			<vel value="0.0291737884807463" flag="0"/>
			<psa03 value="0.0265393179954023" flag="0"/>
			<psa10 value="0.037299419653496" flag="0"/>
			<psa30 value="0.0126104020439134" flag="0"/>
		</comp>
		<comp name="--.HNZ" depth="0.0">
			<acc value="0.00749806647592197" flag="0"/>
			<vel value="0.0145322383861826" flag="0"/>
			<psa03 value="0.0215465979292843" flag="0"/>
			<psa10 value="0.0227021420304932" flag="0"/>
			<psa30 value="0.00428624894295665" flag="0"/>
		</comp>
	</station>
	<station code="G0LD" name="G0LD" netid="HC" source="Seismological Network of Crete (HC)" insttype="" lat="35.4955" lon="24.0306">
		<comp name="--.HNE" depth="0.0">
			<acc value="0.00812390695660794" flag="0"/>
			<vel value="0.00449499116438215" flag="0"/>
			<psa03 value="0.00257469855593503" flag="0"/>
			<psa10 value="0.00206100551587554" flag="0"/>
			<psa30 value="0.00163840020263924" flag="0"/>
		</comp>
		<comp name="--.HNN" depth="0.0">
			<acc value="0.00861420141926053" flag="0"/>
			<vel value="0.0037373785126113" flag="0"/>
			<psa03 value="0.00201994321887697" flag="0"/>
			<psa10 value="0.001929786315435" flag="0"/>
			<psa30 value="0.00128183408188368" flag="0"/>
		</comp>
		<comp name="--.HNZ" depth="0.0">
			<acc value="0.00869319678425916" flag="0"/>
			<vel value="0.00615490739598024" flag="0"/>
			<psa03 value="0.00388841514050304" flag="0"/>
			<psa10 value="0.00245822972065463" flag="0"/>
			<psa30 value="0.0023570840619178" flag="0"/>
		</comp>
	</station>
	<station code="MULT" name="MULT" netid="HC" source="Seismological Network of Crete (HC)" insttype="" lat="35.5091" lon="24.0118">
		<comp name="--.HNE" depth="0.0">
			<acc value="0.0159408034580359" flag="0"/>
			<vel value="0.00287946066865903" flag="0"/>
			<psa03 value="0.00161988335098869" flag="0"/>
			<psa10 value="0.00110619167820727" flag="0"/>
			<psa30 value="0.000814427024710053" flag="0"/>
		</comp>
		<comp name="--.HNN" depth="0.0">
			<acc value="0.00885860213643844" flag="0"/>
			<vel value="0.00269753610689268" flag="0"/>
			<psa03 value="0.00138493630903564" flag="0"/>
			<psa10 value="0.00134922605929227" flag="0"/>
			<psa30 value="0.000944665808640309" flag="0"/>
		</comp>
		<comp name="--.HNZ" depth="0.0">
			<acc value="0.0208398235916489" flag="0"/>
			<vel value="0.00719637515771892" flag="0"/>
			<psa03 value="0.00454029621504996" flag="0"/>
			<psa10 value="0.00368938002832034" flag="0"/>
			<psa30 value="0.00280814206729698" flag="0"/>
		</comp>
	</station>
	<station code="TEFL" name="TEFL" netid="HC" source="Seismological Network of Crete (HC)" insttype="" lat="35.093273" lon="25.163418">
		<comp name="--.HNE" depth="0.0">
			<acc value="0.238458150783457" flag="0"/>
			<vel value="0.145295583745215" flag="0"/>
			<psa03 value="0.356426153150064" flag="0"/>
			<psa10 value="0.175546219075478" flag="0"/>
			<psa30 value="0.0569743009344882" flag="0"/>
		</comp>
		<comp name="--.HNN" depth="0.0">
			<acc value="0.241951184085872" flag="0"/>
			<vel value="0.130474496540572" flag="0"/>
			<psa03 value="0.326866674146317" flag="0"/>
			<psa10 value="0.177451285276764" flag="0"/>
			<psa30 value="0.0817107929390164" flag="0"/>
		</comp>
		<comp name="--.HNZ" depth="0.0">
			<acc value="0.237039930433339" flag="0"/>
			<vel value="0.138421941407362" flag="0"/>
			<psa03 value="0.527413980254445" flag="0"/>
			<psa10 value="0.151827007794138" flag="0"/>
			<psa30 value="0.0555231648038413" flag="0"/>
		</comp>
	</station>
	<station code="AGN1" name="AGN1" netid="HI" source="ITSAK Strong Motion Network" insttype="" lat="35.1879" lon="25.7155">
		<comp name="--.HNE" depth="0.0">
			<acc value="0.000453202941819563" flag="0"/>
			<vel value="0.00137305430408837" flag="0"/>
			<psa03 value="0.000622101676677755" flag="0"/>
			<psa10 value="0.000472141921616405" flag="0"/>
			<psa30 value="0.000519415554564664" flag="0"/>
		</comp>
		<comp name="--.HNN" depth="0.0">
			<acc value="0.394657984058647" flag="0"/>
			<vel value="0.100127257494475" flag="0"/>
			<psa03 value="0.609541004100049" flag="0"/>
			<psa10 value="0.0833604097180321" flag="0"/>
			<psa30 value="0.0150680331832483" flag="0"/>
		</comp>
		<comp name="--.HNZ" depth="0.0">
			<acc value="0.12149916853257" flag="0"/>
			<vel value="0.0468692923007014" flag="0"/>
			<psa03 value="0.229347297299535" flag="0"/>
			<psa10 value="0.0417516058389806" flag="0"/>
			<psa30 value="0.0125388489705401" flag="0"/>
		</comp>
	</station>
	<station code="CH01" name="CH01" netid="HI" source="ITSAK Strong Motion Network" insttype="" lat="35.517" lon="24.0208">
		<comp name="--.HNE" depth="0.0">
			<acc value="0.013929931175453" flag="0"/>
			<vel value="0.029451527858885" flag="0"/>
			<psa03 value="0.0332952316873614" flag="0"/>
			<psa10 value="0.0414381750757307" flag="0"/>
			<psa30 value="0.00926928237779958" flag="0"/>
		</comp>
		<comp name="--.HNN" depth="0.0">
			<acc value="0.0177702412276254" flag="0"/>
			<vel value="0.0381329282125945" flag="0"/>
			<psa03 value="0.0422460251543337" flag="0"/>
			<psa10 value="0.0431611329632349" flag="0"/>
			<psa30 value="0.0133916821332184" flag="0"/>
		</comp>
		<comp name="--.HNZ" depth="0.0">
			<acc value="0.0115765519614463" flag="0"/>
			<vel value="0.016875419579563" flag="0"/>
			<psa03 value="0.0189701486063278" flag="0"/>
			<psa10 value="0.0445979956483361" flag="0"/>
			<psa30 value="0.00605984726847468" flag="0"/>
		</comp>
	</station>
	<station code="CH02" name="CH02" netid="HI" source="ITSAK Strong Motion Network" insttype="" lat="35.5145" lon="24.0315">
		<comp name="--.HNE" depth="0.0">
			<acc value="0.0144856026463183" flag="0"/>
			<vel value="0.0303557310802651" flag="0"/>
			<psa03 value="0.0282258411776194" flag="0"/>
			<psa10 value="0.0485306411668013" flag="0"/>
			<psa30 value="0.00959134371278243" flag="0"/>
		</comp>
		<comp name="--.HNN" depth="0.0">
			<acc value="0.014526421330317" flag="0"/>
			<vel value="0.0281033825060416" flag="0"/>
			<psa03 value="0.0311927538668576" flag="0"/>
			<psa10 value="0.0369722817322142" flag="0"/>
			<psa30 value="0.0123660983599933" flag="0"/>
		</comp>
		<comp name="--.HNZ" depth="0.0">
			<acc value="0.00823773630146615" flag="0"/>
			<vel value="0.0142264457222267" flag="0"/>
			<psa03 value="0.0218722562212979" flag="0"/>
			<psa10 value="0.0329165568103426" flag="0"/>
			<psa30 value="0.00470794437820966" flag="0"/>
		</comp>
	</station>
	<station code="CH03" name="CH03" netid="HI" source="ITSAK Strong Motion Network" insttype="" lat="35.53303" lon="24.0705">
		<comp name="--.HNE" depth="0.0">
			<acc value="0.0260767838230484" flag="0"/>
			<vel value="0.0169000306463546" flag="0"/>
			<psa03 value="0.0242656647728682" flag="0"/>
			<psa10 value="0.0304449087007856" flag="0"/>
			<psa30 value="0.00529992234384461" flag="0"/>
		</comp>
		<comp name="--.HNN" depth="0.0">
			<acc value="0.0265439348121743" flag="0"/>
			<vel value="0.0246912870824695" flag="0"/>
			<psa03 value="0.0293380346466451" flag="0"/>
			<psa10 value="0.0204261950101729" flag="0"/>
			<psa30 value="0.0108140997143666" flag="0"/>
		</comp>
		<comp name="--.HNZ" depth="0.0">
			<acc value="0.0129620593508645" flag="0"/>
			<vel value="0.0121887560903367" flag="0"/>
			<psa03 value="0.0198640711055563" flag="0"/>
			<psa10 value="0.0188599900067779" flag="0"/>
			<psa30 value="0.00343338807010945" flag="0"/>
		</comp>
	</station>
	<station code="GOR1" name="GOR1" netid="HI" source="ITSAK Strong Motion Network" insttype="" lat="35.0582" lon="24.9628">
		<comp name="--.HNE" depth="0.0">
			<acc value="0.0563749050723655" flag="0"/>
			<vel value="0.0604998043531271" flag="0"/>
			<psa03 value="0.155586202655682" flag="0"/>
			<psa10 value="0.108156444833666" flag="0"/>
			<psa30 value="0.0190647312782157" flag="0"/>
		</comp>
		<comp name="--.HNN" depth="0.0">
			<acc value="0.0422690753223987" flag="0"/>
			<vel value="0.0751244804963601" flag="0"/>
			<psa03 value="0.12975216836103" flag="0"/>
			<psa10 value="0.127943205609459" flag="0"/>
			<psa30 value="0.0149112861328588" flag="0"/>
		</comp>
		<comp name="--.HNZ" depth="0.0">
			<acc value="0.0387098718415843" flag="0"/>
			<vel value="0.040425574460073" flag="0"/>
			<psa03 value="0.100806573774113" flag="0"/>
			<psa10 value="0.0592480636434419" flag="0"/>
			<psa30 value="0.0124790100065025" flag="0"/>
		</comp>
	</station>
	<station code="HER1" name="HER1" netid="HI" source="ITSAK Strong Motion Network" insttype="" lat="35.317672" lon="25.10217">
		<comp name="--.HNE" depth="0.0">
			<acc value="0.143254828795128" flag="0"/>
			<vel value="0.243019567433902" flag="0"/>
			<psa03 value="0.24982148694745" flag="0"/>
			<psa10 value="0.381581177880331" flag="0"/>
			<psa30 value="0.0348418714363209" flag="0"/>
		</comp>
		<comp name="--.HNN" depth="0.0">
			<acc value="0.146824697226578" flag="0"/>
			<vel value="0.289934799653069" flag="0"/>
			<psa03 value="0.314202064344739" flag="0"/>
			<psa10 value="0.460700439143093" flag="0"/>
			<psa30 value="0.0286764163385125" flag="0"/>
		</comp>
		<comp name="--.HNZ" depth="0.0">
			<acc value="0.106126428838105" flag="0"/>
			<vel value="0.108634067758257" flag="0"/>
			<psa03 value="0.25460263700851" flag="0"/>
			<psa10 value="0.154772467916416" flag="0"/>
			<psa30 value="0.0109884779327344" flag="0"/>
		</comp>
	</station>
	<station code="HER3" name="HER3" netid="HI" source="ITSAK Strong Motion Network" insttype="" lat="35.3296" lon="25.1065">
		<comp name="--.HNE" depth="0.0">
			<acc value="0.176139884770989" flag="0"/>
			<vel value="0.154134761801084" flag="0"/>
			<psa03 value="0.431051346702895" flag="0"/>
			<psa10 value="0.311414869706773" flag="0"/>
			<psa30 value="0.0198472614503324" flag="0"/>
		</comp>
		<comp name="--.HNN" depth="0.0">
			<acc value="0.177634975168566" flag="0"/>
			<vel value="0.223247287306266" flag="0"/>
			<psa03 value="0.462931125248433" flag="0"/>
			<psa10 value="0.556868089777981" flag="0"/>
			<psa30 value="0.0290750260777848" flag="0"/>
		</comp>
		<comp name="--.HNZ" depth="0.0">
			<acc value="0.0919730926152075" flag="0"/>
			<vel value="0.0873334620480944" flag="0"/>
			<psa03 value="0.233346583065922" flag="0"/>
			<psa10 value="0.190479693344858" flag="0"/>
			<psa30 value="0.0110722734837784" flag="0"/>
		</comp>
	</station>
	<station code="KSS1" name="KSS1" netid="HI" source="ITSAK Strong Motion Network" insttype="" lat="35.4189" lon="26.9207">
		<comp name="--.HNE" depth="0.0">
			<acc value="0.0926066014951227" flag="0"/>
			<vel value="0.0640503643889175" flag="0"/>
			<psa03 value="0.346909543554717" flag="0"/>
			<psa10 value="0.0654155534593738" flag="0"/>
			<psa30 value="0.0207084735014042" flag="0"/>
		</comp>
		<comp name="--.HNN" depth="0.0">
			<acc value="0.166028290322924" flag="0"/>
			<vel value="0.10741991322552" flag="0"/>
			<psa03 value="0.696218037694803" flag="0"/>
			<psa10 value="0.0829299787040899" flag="0"/>
			<psa30 value="0.0251894020075932" flag="0"/>
		</comp>
		<comp name="--.HNZ" depth="0.0">
			<acc value="0.056246328375142" flag="0"/>
			<vel value="0.0525312243551478" flag="0"/>
			<psa03 value="0.0923059273146706" flag="0"/>
			<psa10 value="0.0445533751924499" flag="0"/>
			<psa30 value="0.0281581420053815" flag="0"/>
		</comp>
	</station>
	<station code="RTH1" name="RTH1" netid="HI" source="ITSAK Strong Motion Network" insttype="" lat="35.365393" lon="24.471773">
		<comp name="--.HNE" depth="0.0">
			<acc value="0.0192736240798471" flag="0"/>
			<vel value="0.0236257863953364" flag="0"/>
			<psa03 value="0.0626867516479794" flag="0"/>
			<psa10 value="0.0270508026079143" flag="0"/>
			<psa30 value="0.0116442063715253" flag="0"/>
		</comp>
		<comp name="--.HNN" depth="0.0">
			<acc value="0.0197475761254942" flag="0"/>
			<vel value="0.0251491382948691" flag="0"/>
			<psa03 value="0.0666441179707432" flag="0"/>
			<psa10 value="0.0231792598872096" flag="0"/>
			<psa30 value="0.00988170794798798" flag="0"/>
		</comp>
		<comp name="--.HNZ" depth="0.0">
			<acc value="0.0223032502653468" flag="0"/>
			<vel value="0.0200501359643249" flag="0"/>
			<psa03 value="0.0245071391026907" flag="0"/>
			<psa10 value="0.0218996619951292" flag="0"/>
			<psa30 value="0.00511748525828304" flag="0"/>
		</comp>
	</station>
	<station code="SIT2" name="SIT2" netid="HI" source="ITSAK Strong Motion Network" insttype="" lat="35.2059" lon="26.107">
		<comp name="--.HNE" depth="0.0">
			<acc value="1.50388903552704" flag="0"/>
			<vel value="0.976460353504154" flag="0"/>
			<psa03 value="6.26669980477336" flag="0"/>
			<psa10 value="0.591349914029609" flag="0"/>
			<psa30 value="0.0926385701839615" flag="0"/>
		</comp>
		<comp name="--.HNN" depth="0.0">
			<acc value="1.51034329682978" flag="0"/>
			<vel value="0.904793290170103" flag="0"/>
			<psa03 value="4.34500416853532" flag="0"/>
			<psa10 value="0.734055987606619" flag="0"/>
			<psa30 value="0.116878809314172" flag="0"/>
		</comp>
		<comp name="--.HNZ" depth="0.0">
			<acc value="1.16207651280541" flag="0"/>
			<vel value="0.534509809121973" flag="0"/>
			<psa03 value="4.55195254451625" flag="0"/>
			<psa10 value="0.269173421418134" flag="0"/>
			<psa30 value="0.0601836935409975" flag="0"/>
		</comp>
	</station>
	<station code="AMGA" name="AMGA" netid="HL" source="National Observatory of Athens Seismic Network" insttype="" lat="36.831561" lon="25.893836">
		<comp name="00.HNE" depth="0.0">
			<acc value="0.0126226514595948" flag="0"/>
			<vel value="0.026249932999289" flag="0"/>
			<psa03 value="0.0255572451253944" flag="0"/>
			<psa10 value="0.0198521444821427" flag="0"/>
			<psa30 value="0.00934391898877543" flag="0"/>
		</comp>
		<comp name="00.HNN" depth="0.0">
			<acc value="0.0126304341275036" flag="0"/>
			<vel value="0.0147442112713472" flag="0"/>
			<psa03 value="0.0331721141564292" flag="0"/>
			<psa10 value="0.0171942421591581" flag="0"/>
			<psa30 value="0.00379371631508728" flag="0"/>
		</comp>
		<comp name="00.HNZ" depth="0.0">
			<acc value="0.00910734789456459" flag="0"/>
			<vel value="0.0125519659165585" flag="0"/>
			<psa03 value="0.0312518228840567" flag="0"/>
			<psa10 value="0.013077431315644" flag="0"/>
			<psa30 value="0.00509538171069816" flag="0"/>
		</comp>
	</station>
	<station code="ANAF" name="ANAF" netid="HL" source="National Observatory of Athens Seismic Network" insttype="" lat="36.35675" lon="25.77262">
		<comp name="--.HNE" depth="0.0">
			<acc value="0.111697597950315" flag="0"/>
			<vel value="0.0739889322201794" flag="0"/>
			<psa03 value="0.495802386141477" flag="0"/>
			<psa10 value="0.0748066630742966" flag="0"/>
			<psa30 value="0.011556433056974" flag="0"/>
		</comp>
		<comp name="--.HNN" depth="0.0">
			<acc value="0.103049077799551" flag="0"/>
			<vel value="0.0812298909574537" flag="0"/>
			<psa03 value="0.356915393893195" flag="0"/>
			<psa10 value="0.0478034304926631" flag="0"/>
			<psa30 value="0.00992290651052389" flag="0"/>
		</comp>
		<comp name="--.HNZ" depth="0.0">
			<acc value="0.0459035086465765" flag="0"/>
			<vel value="0.0354985456968741" flag="0"/>
			<psa03 value="0.147235326534456" flag="0"/>
			<psa10 value="0.0232131452569491" flag="0"/>
			<psa30 value="0.00643974368474782" flag="0"/>
		</comp>
	</station>
	<station code="CHNB" name="CHNB" netid="HL" source="National Observatory of Athens Seismic Network" insttype="" lat="35.48765" lon="24.06605">
		<comp name="00.HNE" depth="0.0">
			<acc value="0.0311406352540397" flag="0"/>
			<vel value="0.0456908134301073" flag="0"/>
			<psa03 value="0.0906627142932057" flag="0"/>
			<psa10 value="0.0836042733728024" flag="0"/>
			<psa30 value="0.0115445406024906" flag="0"/>
		</comp>
		<comp name="00.HNN" depth="0.0">
			<acc value="0.0312941308678832" flag="0"/>
			<vel value="0.0435012117241207" flag="0"/>
			<psa03 value="0.0624171712896037" flag="0"/>
			<psa10 value="0.0741717760161448" flag="0"/>
			<psa30 value="0.0102576170167856" flag="0"/>
		</comp>
		<comp name="00.HNZ" depth="0.0">
			<acc value="0.016163613404664" flag="0"/>
			<vel value="0.018886750845418" flag="0"/>
			<psa03 value="0.060464635693703" flag="0"/>
			<psa10 value="0.0198575954682437" flag="0"/>
			<psa30 value="0.00425015571862434" flag="0"/>
		</comp>
	</station>
	<station code="HERG" name="HERG" netid="HL" source="National Observatory of Athens Seismic Network" insttype="" lat="35.32622" lon="25.06586">
		<comp name="00.HNE" depth="0.0">
			<acc value="0.111593326161375" flag="0"/>
			<vel value="0.176967804842669" flag="0"/>
			<psa03 value="0.276443083830925" flag="0"/>
			<psa10 value="0.282342673816474" flag="0"/>
			<psa30 value="0.0295269526823711" flag="0"/>
		</comp>
		<comp name="00.HNN" depth="0.0">
			<acc value="0.0841319355049228" flag="0"/>
			<vel value="0.147778558928661" flag="0"/>
			<psa03 value="0.316708897076771" flag="0"/>
			<psa10 value="0.249396936323055" flag="0"/>
			<psa30 value="0.0278442912143069" flag="0"/>
		</comp>
		<comp name="00.HNZ" depth="0.0">
			<acc value="0.0803925994194385" flag="0"/>
			<vel value="0.0745190764963446" flag="0"/>
			<psa03 value="0.159623595113118" flag="0"/>
			<psa10 value="0.0972847896398646" flag="0"/>
			<psa30 value="0.0121242681732637" flag="0"/>
		</comp>
	</station>
	<station code="IACM" name="IACM" netid="HL" source="National Observatory of Athens Seismic Network" insttype="" lat="35.3058" lon="25.0709">
		<comp name="--.HNE" depth="0.0">
			<acc value="0.180763800355121" flag="0"/>
			<vel value="0.248604238916768" flag="0"/>
			<psa03 value="0.350511011300946" flag="0"/>
			<psa10 value="0.535084006689387" flag="0"/>
			<psa30 value="0.0403458260463018" flag="0"/>
		</comp>
		<comp name="--.HNN" depth="0.0">
			<acc value="0.132193474183435" flag="0"/>
			<vel value="0.168864196502948" flag="0"/>
			<psa03 value="0.432258510004873" flag="0"/>
			<psa10 value="0.237527190010615" flag="0"/>
			<psa30 value="0.0370731725824045" flag="0"/>
		</comp>
		<comp name="--.HNZ" depth="0.0">
			<acc value="0.101555856484097" flag="0"/>
			<vel value="0.0949574045374112" flag="0"/>
			<psa03 value="0.29474396284101" flag="0"/>
			<psa10 value="0.0924631477297515" flag="0"/>
			<psa30 value="0.0111477626512319" flag="0"/>
		</comp>
	</station>
	<station code="IMMV" name="IMMV" netid="HL" source="National Observatory of Athens Seismic Network" insttype="" lat="35.4606" lon="23.9811">
		<comp name="--.HNE" depth="0.0">
			<acc value="0.0129295920133929" flag="0"/>
			<vel value="0.0171842236588936" flag="0"/>
			<psa03 value="0.0308440015970646" flag="0"/>
			<psa10 value="0.03638359398454" flag="0"/>
			<psa30 value="0.00496776700685033" flag="0"/>
		</comp>
		<comp name="--.HNN" depth="0.0">
			<acc value="0.0106007859576347" flag="0"/>
			<vel value="0.0222626836782262" flag="0"/>
			<psa03 value="0.0321874708036395" flag="0"/>
			<psa10 value="0.0238675411074625" flag="0"/>
			<psa30 value="0.00749580489362003" flag="0"/>
		</comp>
		<comp name="--.HNZ" depth="0.0">
			<acc value="0.00757894852884834" flag="0"/>
			<vel value="0.0141259007241869" flag="0"/>
			<psa03 value="0.0285706999603213" flag="0"/>
			<psa10 value="0.0219232829349005" flag="0"/>
			<psa30 value="0.00369762244934028" flag="0"/>
		</comp>
	</station>
	<station code="KARP" name="KARP" netid="HL" source="National Observatory of Athens Seismic Network" insttype="" lat="35.5471" lon="27.16106">
		<comp name="--.HNE" depth="0.0">
			<acc value="0.0620869296088538" flag="0"/>
			<vel value="0.061619705462045" flag="0"/>
