<?xml version="1.0" encoding="UTF-8" standalone="yes"?>
<!DOCTYPE earthquake SYSTEM "stationlist.dtd">
<stationlist created="" xmlns="ch.ethz.sed.shakemap.usgs.xml">
  <station code="AKS" name="AKS" netid="KO" insttype="CMG-5T" commtype="DIG" lat="38.8785" lon="27.8129">
    <comp name="--.HNZ">
      <acc value="0.0364846453" flag="0"/>
      <vel value="0.0088316022" flag="0"/>
      <psa03 value="0.0384100424" flag="0"/>
      <psa10 value="0.0103765031" flag="0"/>
      <psa30 value="0.0007494744" flag="0"/>
    </comp>
    <comp name="--.HNE">
      <acc value="0.0593373595" flag="0"/>
      <vel value="0.0254766444" flag="0"/>
      <psa03 value="0.1754248835" flag="0"/>
      <psa10 value="0.0243230808" flag="0"/>
      <psa30 value="0.0012432982" flag="0"/>
    </comp>
    <comp name="--.HNN">
      <acc value="0.0631079498" flag="0"/>
      <vel value="0.0306733535" flag="0"/>
      <psa03 value="0.1232650199" flag="0"/>
      <psa10 value="0.0145103432" flag="0"/>
      <psa30 value="0.0015975213" flag="0"/>
    </comp>
  </station>
  <station code="DST" name="DST" netid="KO" insttype="CMG-5T" commtype="DIG" lat="39.6041" lon="28.6267">
    <comp name="--.HNE">
      <acc value="0.1637641528" flag="0"/>
      <vel value="0.0507122945" flag="0"/>
      <psa03 value="0.2285184607" flag="0"/>
      <psa10 value="0.0303905923" flag="0"/>
      <psa30 value="0.0021603136" flag="0"/>
    </comp>
    <comp name="--.HNN">
      <acc value="0.0947666503" flag="0"/>
      <vel value="0.0330695018" flag="0"/>
      <psa03 value="0.1281270010" flag="0"/>
      <psa10 value="0.0182617516" flag="0"/>
      <psa30 value="0.0016125983" flag="0"/>
    </comp>
    <comp name="--.HNZ">
      <acc value="0.1193287807" flag="0"/>
      <vel value="0.0304946578" flag="0"/>
      <psa03 value="0.1261267424" flag="0"/>
      <psa10 value="0.0131776742" flag="0"/>
      <psa30 value="0.0010593447" flag="0"/>
    </comp>
  </station>
  <station code="GEDZ" name="GEDZ" netid="KO" insttype="CMG-6T" commtype="DIG" lat="39.0445" lon="29.4105">
    <comp name="--.HHE">
      <acc value="0.2157969147" flag="0"/>
      <vel value="0.0619827049" flag="0"/>
      <psa03 value="0.4123375573" flag="0"/>
      <psa10 value="0.0498978628" flag="0"/>
      <psa30 value="0.0028422251" flag="0"/>
    </comp>
    <comp name="--.HHN">
      <acc value="0.2424571365" flag="0"/>
      <vel value="0.0879071108" flag="0"/>
      <psa03 value="0.5713250849" flag="0"/>
      <psa10 value="0.0741191227" flag="0"/>
      <psa30 value="0.0034511168" flag="0"/>
    </comp>
    <comp name="--.HHZ">
      <acc value="0.0771804443" flag="0"/>
      <vel value="0.0232920918" flag="0"/>
      <psa03 value="0.1813028411" flag="0"/>
      <psa10 value="0.0113104284" flag="0"/>
      <psa30 value="0.0007479814" flag="0"/>
    </comp>
  </station>
  <station code="GOMA" name="GOMA" netid="KO" insttype="CMG-5T" commtype="DIG" lat="38.7077" lon="27.9175">
    <comp name="--.HNE">
      <acc value="0.0694477300" flag="0"/>
      <vel value="0.0337917353" flag="0"/>
      <psa03 value="0.2795546607" flag="0"/>
      <psa10 value="0.0175449947" flag="0"/>
      <psa30 value="0.0014585292" flag="0"/>
    </comp>
    <comp name="--.HNZ">
      <acc value="0.0490435994" flag="0"/>
      <vel value="0.0141597511" flag="0"/>
      <psa03 value="0.0647316264" flag="0"/>
      <psa10 value="0.0181446279" flag="0"/>
      <psa30 value="0.0010789862" flag="0"/>
    </comp>
  </station>
  <station code="GORD" name="GORD" netid="KO" insttype="CMG-5T" commtype="DIG" lat="38.9088" lon="28.1769">
    <comp name="--.HNZ">
      <acc value="0.0485734195" flag="0"/>
      <vel value="0.0335168949" flag="0"/>
      <psa03 value="0.1115591313" flag="0"/>
      <psa10 value="0.0227270622" flag="0"/>
      <psa30 value="0.0017547245" flag="0"/>
    </comp>
    <comp name="--.HNN">
      <acc value="0.0777375074" flag="0"/>
      <vel value="0.0537130878" flag="0"/>
      <psa03 value="0.1123184623" flag="0"/>
      <psa10 value="0.0655406707" flag="0"/>
      <psa30 value="0.0029923840" flag="0"/>
    </comp>
    <comp name="--.HNE">
      <acc value="0.0953902549" flag="0"/>
      <vel value="0.0645122320" flag="0"/>
      <psa03 value="0.1581497437" flag="0"/>
      <psa10 value="0.0582423053" flag="0"/>
      <psa30 value="0.0029527107" flag="0"/>
    </comp>
  </station>
  <station code="KCTX" name="KCTX" netid="KO" insttype="CMG-3ESP" commtype="DIG" lat="40.2626" lon="28.3353">
    <comp name="--.HHE">
      <acc value="0.0335329300" flag="0"/>
      <vel value="0.0262415096" flag="0"/>
      <psa03 value="0.1234326137" flag="0"/>
      <psa10 value="0.0299610690" flag="0"/>
      <psa30 value="0.0023308553" flag="0"/>
    </comp>
    <comp name="--.HHN">
      <acc value="0.0580838949" flag="0"/>
      <vel value="0.0345069007" flag="0"/>
      <psa03 value="0.1836778234" flag="0"/>
      <psa10 value="0.0297019388" flag="0"/>
      <psa30 value="0.0025472908" flag="0"/>
    </comp>
    <comp name="--.HHZ">
      <acc value="0.0251604693" flag="0"/>
      <vel value="0.0123995931" flag="0"/>
      <psa03 value="0.0400024646" flag="0"/>
      <psa10 value="0.0096438350" flag="0"/>
      <psa30 value="0.0007515358" flag="0"/>
    </comp>
  </station>
  <station code="KULA" name="KULA" netid="KO" insttype="CMG-3T" commtype="DIG" lat="38.5145" lon="28.6607">
    <comp name="--.HHN">
      <acc value="0.0467358155" flag="0"/>
      <vel value="0.0080888709" flag="0"/>
      <psa03 value="0.0201105795" flag="0"/>
      <psa10 value="0.0117651573" flag="0"/>
      <psa30 value="0.0006990403" flag="0"/>
    </comp>
  </station>
  <station code="MDNY" name="MDNY" netid="KO" insttype="CMG-5T" commtype="DIG" lat="40.3709" lon="28.8846">
    <comp name="--.HNZ">
      <acc value="0.0838693708" flag="0"/>
      <vel value="0.0191777803" flag="0"/>
      <psa03 value="0.0568089920" flag="0"/>
      <psa10 value="0.0089194632" flag="0"/>
      <psa30 value="0.0005059674" flag="0"/>
    </comp>
    <comp name="--.HNN">
      <acc value="0.1034825767" flag="0"/>
      <vel value="0.0406616855" flag="0"/>
      <psa03 value="0.2501963760" flag="0"/>
      <psa10 value="0.0163198505" flag="0"/>
      <psa30 value="0.0010597244" flag="0"/>
    </comp>
    <comp name="--.HNE">
      <acc value="0.0835458302" flag="0"/>
      <vel value="0.0328851892" flag="0"/>
      <psa03 value="0.2350554277" flag="0"/>
      <psa10 value="0.0146458213" flag="0"/>
      <psa30 value="0.0011970754" flag="0"/>
    </comp>
  </station>
  <station code="ORLT" name="ORLT" netid="KO" insttype="CMG-5T" commtype="DIG" lat="40.0452" lon="28.8914">
    <comp name="--.HNE">
      <acc value="0.0489497821" flag="0"/>
      <vel value="0.0217552492" flag="0"/>
      <psa03 value="0.1495849832" flag="0"/>
      <psa10 value="0.0195725201" flag="0"/>
      <psa30 value="0.0009321213" flag="0"/>
    </comp>
    <comp name="--.HNZ">
      <acc value="0.0245193611" flag="0"/>
      <vel value="0.0101889543" flag="0"/>
      <psa03 value="0.0334495424" flag="0"/>
      <psa10 value="0.0102694317" flag="0"/>
      <psa30 value="0.0007924284" flag="0"/>
    </comp>
    <comp name="--.HNN">
      <acc value="0.0440922609" flag="0"/>
      <vel value="0.0183323904" flag="0"/>
      <psa03 value="0.1191447928" flag="0"/>
      <psa10 value="0.0182577000" flag="0"/>
      <psa30 value="0.0008344616" flag="0"/>
    </comp>
  </station>
  <station code="SHAP" name="SHAP" netid="KO" insttype="CMG-5T" commtype="DIG" lat="39.0231" lon="29.222">
    <comp name="--.HNN">
      <acc value="0.4657571620" flag="0"/>
      <vel value="0.0976241299" flag="0"/>
      <psa03 value="0.6021911722" flag="0"/>
      <psa10 value="0.0458315735" flag="0"/>
      <psa30 value="0.0020827746" flag="0"/>
    </comp>
    <comp name="--.HNZ">
      <acc value="0.1501377403" flag="0"/>
      <vel value="0.0355893785" flag="0"/>
      <psa03 value="0.1221179714" flag="0"/>
      <psa10 value="0.0190667679" flag="0"/>
      <psa30 value="0.0018788159" flag="0"/>
    </comp>
    <comp name="--.HNE">
      <acc value="0.4907135416" flag="0"/>
      <vel value="0.1151329727" flag="0"/>
      <psa03 value="0.5558700311" flag="0"/>
      <psa10 value="0.0224687761" flag="0"/>
      <psa30 value="0.0023045250" flag="0"/>
    </comp>
  </station>
  <station code="SIMA" name="SIMA" netid="KO" insttype="CMG-6T" commtype="DIG" lat="39.0833" lon="28.9825">
    <comp name="--.HHE">
      <acc value="0.3889658805" flag="0"/>
      <vel value="0.1208487711" flag="0"/>
      <psa03 value="0.6490966230" flag="0"/>
      <psa10 value="0.0632270890" flag="0"/>
      <psa30 value="0.0037190450" flag="0"/>
    </comp>
    <comp name="--.HHZ">
      <acc value="0.5801876207" flag="0"/>
      <vel value="0.0982597733" flag="0"/>
      <psa03 value="0.2519078187" flag="0"/>
      <psa10 value="0.0375594543" flag="0"/>
      <psa30 value="0.0026478797" flag="0"/>
    </comp>
    <comp name="--.HHN">
      <acc value="0.4067715941" flag="0"/>
      <vel value="0.1288098596" flag="0"/>
      <psa03 value="0.6413618230" flag="0"/>
      <psa10 value="0.0882115172" flag="0"/>
      <psa30 value="0.0050495226" flag="0"/>
    </comp>
  </station>
  <station code="SMAA" name="SMAA" netid="KO" insttype="CMG-5T" commtype="DIG" lat="39.1005" lon="28.9805">
    <comp name="--.HNN">
      <acc value="0.4598360427" flag="0"/>
      <vel value="0.3032284474" flag="0"/>
      <psa03 value="1.3551378742" flag="0"/>
      <psa10 value="0.6230409568" flag="0"/>
      <psa30 value="0.0274902747" flag="0"/>
    </comp>
    <comp name="--.HNE">
      <acc value="0.7803805332" flag="0"/>
      <vel value="0.3759227186" flag="0"/>
      <psa03 value="2.3648211096" flag="0"/>
      <psa10 value="0.5232291065" flag="0"/>
      <psa30 value="0.0282570475" flag="0"/>
    </comp>
    <comp name="--.HNZ">
      <acc value="0.8393866701" flag="0"/>
      <vel value="0.1529362570" flag="0"/>
      <psa03 value="0.4399897731" flag="0"/>
      <psa10 value="0.3918851544" flag="0"/>
      <psa30 value="0.0111855204" flag="0"/>
    </comp>
  </station>
  <station code="SOMA" name="SOMA" netid="KO" insttype="CMG-5T" commtype="DIG" lat="39.1564" lon="27.5341">
    <comp name="--.HNE">
      <acc value="0.0612900356" flag="0"/>
      <vel value="0.0308888208" flag="0"/>
      <psa03 value="0.1101291235" flag="0"/>
      <psa10 value="0.0153834209" flag="0"/>
      <psa30 value="0.0014499118" flag="0"/>
    </comp>
    <comp name="--.HNN">
      <acc value="0.0455564822" flag="0"/>
      <vel value="0.0239591566" flag="0"/>
      <psa03 value="0.1265558882" flag="0"/>
      <psa10 value="0.0274702245" flag="0"/>
      <psa30 value="0.0012163892" flag="0"/>
    </comp>
    <comp name="--.HNZ">
      <acc value="0.0325904612" flag="0"/>
      <vel value="0.0227131006" flag="0"/>
      <psa03 value="0.1078075452" flag="0"/>
      <psa10 value="0.0129512190" flag="0"/>
      <psa30 value="0.0010422291" flag="0"/>
    </comp>
  </station>
  <station code="SUSR" name="SUSR" netid="KO" insttype="CMG-5T" commtype="DIG" lat="39.9627" lon="28.0835">
    <comp name="--.HNE">
      <acc value="0.0638028482" flag="0"/>
      <vel value="0.0240057813" flag="0"/>
      <psa03 value="0.1562638362" flag="0"/>
      <psa10 value="0.0109446250" flag="0"/>
      <psa30 value="0.0006721819" flag="0"/>
    </comp>
    <comp name="--.HNZ">
      <acc value="0.0507635736" flag="0"/>
      <vel value="0.0160973480" flag="0"/>
      <psa03 value="0.0724817287" flag="0"/>
      <psa10 value="0.0084011560" flag="0"/>
      <psa30 value="0.0005107000" flag="0"/>
    </comp>
    <comp name="--.HNN">
      <acc value="0.0778191228" flag="0"/>
      <vel value="0.0258939942" flag="0"/>
      <psa03 value="0.2462743740" flag="0"/>
      <psa10 value="0.0253969558" flag="0"/>
      <psa30 value="0.0018028554" flag="0"/>
    </comp>
  </station>
  <station code="TVSB" name="TVSB" netid="KO" insttype="CMG-3T" commtype="DIG" lat="39.4497" lon="29.4615">
    <comp name="--.HHZ">
      <acc value="0.0710427876" flag="0"/>
      <vel value="0.0280885596" flag="0"/>
      <psa03 value="0.1149596663" flag="0"/>
      <psa10 value="0.0264690623" flag="0"/>
      <psa30 value="0.0017405598" flag="0"/>
    </comp>
    <comp name="--.HHN">
      <acc value="0.1520433870" flag="0"/>
      <vel value="0.0438093100" flag="0"/>
      <psa03 value="0.1784860350" flag="0"/>
      <psa10 value="0.0193061293" flag="0"/>
      <psa30 value="0.0019213327" flag="0"/>
    </comp>
    <comp name="--.HHE">
      <acc value="0.1737405840" flag="0"/>
      <vel value="0.0456603462" flag="0"/>
      <psa03 value="0.3273243785" flag="0"/>
      <psa10 value="0.0198568323" flag="0"/>
      <psa30 value="0.0016331153" flag="0"/>
    </comp>
  </station>
</stationlist>
