<?xml version="1.0" encoding="UTF-8" standalone="yes"?>
<!DOCTYPE earthquake SYSTEM "stationlist.dtd">
<stationlist created="" xmlns="ch.ethz.sed.shakemap.usgs.xml">
  <station code="KARS" name="KARS" netid="KO" insttype="CMG-3T" lat="40.6152" lon="43.0937">
    <comp name="--.HHZ">
      <acc value="0.0030474200" flag="0"/>
      <vel value="0.0022777136" flag="0"/>
      <psa03 value="0.0066753271" flag="0"/>
      <psa10 value="0.0042450901" flag="0"/>
      <psa30 value="0.0007127887" flag="0"/>
    </comp>
    <comp name="--.HHN">
      <acc value="0.0034607228" flag="0"/>
      <vel value="0.0025997573" flag="0"/>
      <psa03 value="0.0090328705" flag="0"/>
      <psa10 value="0.0044235954" flag="0"/>
      <psa30 value="0.0008530623" flag="0"/>
    </comp>
    <comp name="--.HHE">
      <acc value="0.0049603110" flag="0"/>
      <vel value="0.0032247424" flag="0"/>
      <psa03 value="0.0122965965" flag="0"/>
      <psa10 value="0.0040712200" flag="0"/>
      <psa30 value="0.0004414378" flag="0"/>
    </comp>
  </station>
</stationlist>
