<?xml version="1.0" encoding="UTF-8" standalone="yes"?>
<!DOCTYPE earthquake SYSTEM "stationlist.dtd">
<stationlist created="" xmlns="ch.ethz.sed.shakemap.usgs.xml">
  <station code="DST" name="DST" netid="KO" source="KOERI" insttype="100" lat="39.6041" lon="28.6267">
    <comp name="--.HNE">
      <acc value="0.2023520352" flag="0"/>
      <vel value="0.1024842613" flag="0"/>
      <psa03 value="0.4065321413" flag="0"/>
      <psa10 value="0.1515606099" flag="0"/>
      <psa30 value="0.0228398394" flag="0"/>
    </comp>
    <comp name="--.HNN">
      <acc value="0.1834362373" flag="0"/>
      <vel value="0.1179272794" flag="0"/>
      <psa03 value="0.5585706584" flag="0"/>
      <psa10 value="0.1458936415" flag="0"/>
      <psa30 value="0.0225679694" flag="0"/>
    </comp>
    <comp name="--.HNZ">
      <acc value="0.1926862272" flag="0"/>
      <vel value="0.0661372898" flag="0"/>
      <psa03 value="0.5126349038" flag="0"/>
      <psa10 value="0.0721463924" flag="0"/>
      <psa30 value="0.0076144029" flag="0"/>
    </comp>
  </station>
  <station code="EDC" name="EDC" netid="KO" source="KOERI" insttype="120s," lat="40.3465" lon="27.8618">
    <comp name="--.HHE">
      <acc value="0.0357682421" flag="0"/>
      <vel value="0.0230628058" flag="0"/>
      <psa03 value="0.1311573564" flag="0"/>
      <psa10 value="0.0241171109" flag="0"/>
      <psa30 value="0.0030221291" flag="0"/>
    </comp>
    <comp name="--.HHN">
      <acc value="0.0434004743" flag="0"/>
      <vel value="0.0269057571" flag="0"/>
      <psa03 value="0.1386140889" flag="0"/>
      <psa10 value="0.0346748352" flag="0"/>
      <psa30 value="0.0017982831" flag="0"/>
    </comp>
    <comp name="--.HHZ">
      <acc value="0.0170282698" flag="0"/>
      <vel value="0.0091623458" flag="0"/>
      <psa03 value="0.0326266989" flag="0"/>
      <psa10 value="0.0149289692" flag="0"/>
      <psa30 value="0.0008365698" flag="0"/>
    </comp>
  </station>
  <station code="FOCM" name="FOCM" netid="KO" source="KOERI" insttype="100" lat="38.7131" lon="26.7309">
    <comp name="--.HNE">
      <acc value="0.0800388241" flag="0"/>
      <vel value="0.0831853022" flag="0"/>
      <psa03 value="0.2845450781" flag="0"/>
      <psa10 value="0.1306892745" flag="0"/>
      <psa30 value="0.0126311357" flag="0"/>
    </comp>
    <comp name="--.HNN">
      <acc value="0.0845082777" flag="0"/>
      <vel value="0.0601715733" flag="0"/>
      <psa03 value="0.2760918919" flag="0"/>
      <psa10 value="0.0600174167" flag="0"/>
      <psa30 value="0.0087648834" flag="0"/>
    </comp>
    <comp name="--.HNZ">
      <acc value="0.0528105595" flag="0"/>
      <vel value="0.0356230299" flag="0"/>
      <psa03 value="0.1679004669" flag="0"/>
      <psa10 value="0.0533214886" flag="0"/>
      <psa30 value="0.0054025786" flag="0"/>
    </comp>
  </station>
  <station code="GOMA" name="GOMA" netid="KO" source="KOERI" insttype="100" lat="38.7077" lon="27.9175">
    <comp name="--.HNE">
      <acc value="0.3127944126" flag="0"/>
      <vel value="0.1291692321" flag="0"/>
      <psa03 value="1.0600569751" flag="0"/>
      <psa10 value="0.0530429166" flag="0"/>
      <psa30 value="0.0331221547" flag="0"/>
    </comp>
    <comp name="--.HNN">
      <acc value="0.1788640243" flag="0"/>
      <vel value="0.0859346085" flag="0"/>
      <psa03 value="0.5542661176" flag="0"/>
      <psa10 value="0.0530539325" flag="0"/>
      <psa30 value="0.0118560569" flag="0"/>
    </comp>
    <comp name="--.HNZ">
      <acc value="0.1439276565" flag="0"/>
      <vel value="0.0493592979" flag="0"/>
      <psa03 value="0.5047052051" flag="0"/>
      <psa10 value="0.0427030601" flag="0"/>
      <psa30 value="0.0150850490" flag="0"/>
    </comp>
  </station>
  <station code="GONE" name="GONE" netid="KO" source="KOERI" insttype="100" lat="40.0466" lon="27.686">
    <comp name="--.HNE">
      <acc value="0.0993881219" flag="0"/>
      <vel value="0.0778862952" flag="0"/>
      <psa03 value="0.1762189193" flag="0"/>
      <psa10 value="0.0818185986" flag="0"/>
      <psa30 value="0.0188606685" flag="0"/>
    </comp>
    <comp name="--.HNN">
      <acc value="0.1501978724" flag="0"/>
      <vel value="0.0966799026" flag="0"/>
      <psa03 value="0.2992156937" flag="0"/>
      <psa10 value="0.1836802235" flag="0"/>
      <psa30 value="0.0177397541" flag="0"/>
    </comp>
    <comp name="--.HNZ">
      <acc value="0.0815450210" flag="0"/>
      <vel value="0.0360700138" flag="0"/>
      <psa03 value="0.0961284288" flag="0"/>
      <psa10 value="0.0550162935" flag="0"/>
      <psa30 value="0.0161427326" flag="0"/>
    </comp>
  </station>
  <station code="ORLT" name="ORLT" netid="KO" source="KOERI" insttype="100" lat="40.0452" lon="28.8914">
    <comp name="--.HNE">
      <acc value="0.5318560883" flag="0"/>
      <vel value="0.3089350852" flag="0"/>
      <psa03 value="1.2607834249" flag="0"/>
      <psa10 value="0.2538436215" flag="0"/>
      <psa30 value="0.0143484089" flag="0"/>
    </comp>
    <comp name="--.HNN">
      <acc value="0.3550450408" flag="0"/>
      <vel value="0.1628459322" flag="0"/>
      <psa03 value="1.0372302029" flag="0"/>
      <psa10 value="0.1379906875" flag="0"/>
      <psa30 value="0.0202818034" flag="0"/>
    </comp>
    <comp name="--.HNZ">
      <acc value="0.1575004503" flag="0"/>
      <vel value="0.1171195750" flag="0"/>
      <psa03 value="0.2551709988" flag="0"/>
      <psa10 value="0.1032156764" flag="0"/>
      <psa30 value="0.0113213673" flag="0"/>
    </comp>
  </station>
  <station code="SHAP" name="SHAP" netid="KO" source="KOERI" insttype="100" lat="39.0231" lon="29.222">
    <comp name="--.HNE">
      <acc value="0.1657614225" flag="0"/>
      <vel value="0.0542680515" flag="0"/>
      <psa03 value="0.3391395162" flag="0"/>
      <psa10 value="0.0423770398" flag="0"/>
      <psa30 value="0.0266158888" flag="0"/>
    </comp>
    <comp name="--.HNN">
      <acc value="0.1244485448" flag="0"/>
      <vel value="0.0591524912" flag="0"/>
      <psa03 value="0.3654893047" flag="0"/>
      <psa10 value="0.0641915480" flag="0"/>
      <psa30 value="0.0190539016" flag="0"/>
    </comp>
    <comp name="--.HNZ">
      <acc value="0.1022059764" flag="0"/>
      <vel value="0.0293429051" flag="0"/>
      <psa03 value="0.1765553699" flag="0"/>
      <psa10 value="0.0209683939" flag="0"/>
      <psa30 value="0.0125868825" flag="0"/>
    </comp>
  </station>
  <station code="SMAA" name="SMAA" netid="KO" source="KOERI" insttype="100" lat="39.1005" lon="28.9805">
    <comp name="--.HNE">
      <acc value="0.2593200696" flag="0"/>
      <vel value="0.2834500009" flag="0"/>
      <psa03 value="0.7122390189" flag="0"/>
      <psa10 value="0.2823153489" flag="0"/>
      <psa30 value="0.0793144613" flag="0"/>
    </comp>
    <comp name="--.HNN">
      <acc value="0.2291092226" flag="0"/>
      <vel value="0.3335665202" flag="0"/>
      <psa03 value="1.2066212702" flag="0"/>
      <psa10 value="0.3978606796" flag="0"/>
      <psa30 value="0.0716308667" flag="0"/>
    </comp>
    <comp name="--.HNZ">
      <acc value="0.0805379085" flag="0"/>
      <vel value="0.0577636729" flag="0"/>
      <psa03 value="0.1853258236" flag="0"/>
      <psa10 value="0.0977727154" flag="0"/>
      <psa30 value="0.0098196238" flag="0"/>
    </comp>
  </station>
</stationlist>
