<?xml version="1.0" encoding="UTF-8" standalone="yes"?>
<!DOCTYPE earthquake SYSTEM "stationlist.dtd">
<stationlist created="" xmlns="ch.ethz.sed.shakemap.usgs.xml">
  <station code="BMYO" name="BMYO" netid="KO" insttype="CMG-5T" lat="39.8098" lon="26.6009">
    <comp name="--.HNE">
      <acc value="0.0325169203" flag="0"/>
      <vel value="0.0238988089" flag="0"/>
      <psa03 value="0.0836999124" flag="0"/>
      <psa10 value="0.0277136899" flag="0"/>
      <psa30 value="0.0028605006" flag="0"/>
    </comp>
    <comp name="--.HNZ">
      <acc value="0.0195518582" flag="0"/>
      <vel value="0.0135974291" flag="0"/>
      <psa03 value="0.0499228221" flag="0"/>
      <psa10 value="0.0189786980" flag="0"/>
      <psa30 value="0.0011940126" flag="0"/>
    </comp>
    <comp name="--.HNN">
      <acc value="0.0325014215" flag="0"/>
      <vel value="0.0194515119" flag="0"/>
      <psa03 value="0.0610146315" flag="0"/>
      <psa10 value="0.0188723378" flag="0"/>
      <psa30 value="0.0017433113" flag="0"/>
    </comp>
  </station>
  <station code="DKL" name="DKL" netid="KO" insttype="CMG-3ESPC" lat="39.0713" lon="26.9053">
    <comp name="--.HHE">
      <acc value="0.0430891258" flag="0"/>
      <vel value="0.0274257225" flag="0"/>
      <psa03 value="0.0862967895" flag="0"/>
      <psa10 value="0.0319036298" flag="0"/>
      <psa30 value="0.0033895854" flag="0"/>
    </comp>
    <comp name="--.HHZ">
      <acc value="0.0254429606" flag="0"/>
      <vel value="0.0100892446" flag="0"/>
      <psa03 value="0.0389925475" flag="0"/>
      <psa10 value="0.0149331582" flag="0"/>
      <psa30 value="0.0013324653" flag="0"/>
    </comp>
  </station>
  <station code="EZN" name="EZN" netid="KO" insttype="CMG-3ESP" lat="39.8255" lon="26.3246">
    <comp name="--.HHE">
      <acc value="0.0551242959" flag="0"/>
      <vel value="0.0276118786" flag="0"/>
      <psa03 value="0.0718381696" flag="0"/>
      <psa10 value="0.0305701381" flag="0"/>
      <psa30 value="0.0016890830" flag="0"/>
    </comp>
    <comp name="--.HHZ">
      <acc value="0.0384021717" flag="0"/>
      <vel value="0.0104258816" flag="0"/>
      <psa03 value="0.0432869187" flag="0"/>
      <psa10 value="0.0098611848" flag="0"/>
      <psa30 value="0.0006697051" flag="0"/>
    </comp>
    <comp name="--.HHN">
      <acc value="0.0521571391" flag="0"/>
      <vel value="0.0186731481" flag="0"/>
      <psa03 value="0.0908185125" flag="0"/>
      <psa10 value="0.0225496213" flag="0"/>
      <psa30 value="0.0010935422" flag="0"/>
    </comp>
  </station>
  <station code="EZNE" name="EZNE" netid="KO" insttype="CMG-5T" lat="39.756" lon="26.3655">
    <comp name="--.HNE">
      <acc value="0.0763678843" flag="0"/>
      <vel value="0.0432379765" flag="0"/>
      <psa03 value="0.1541207110" flag="0"/>
      <psa10 value="0.0320812876" flag="0"/>
      <psa30 value="0.0023908915" flag="0"/>
    </comp>
    <comp name="--.HNN">
      <acc value="0.1716778039" flag="0"/>
      <vel value="0.0691043552" flag="0"/>
      <psa03 value="0.2643581163" flag="0"/>
      <psa10 value="0.0273540192" flag="0"/>
      <psa30 value="0.0024339260" flag="0"/>
    </comp>
    <comp name="--.HNZ">
      <acc value="0.0768255365" flag="0"/>
      <vel value="0.0342432834" flag="0"/>
      <psa03 value="0.1410937389" flag="0"/>
      <psa10 value="0.0109169422" flag="0"/>
      <psa30 value="0.0007999882" flag="0"/>
    </comp>
  </station>
</stationlist>
