<stationlist created="1728289907">
	<station code="ATH5" name="ATH5" netid="HI" source="ITSAK Strong Motion Network" insttype="" lat="37.975421" lon="23.737098">
		<comp name=".HNE" depth="0.0">
			<acc value="0.0037267717698924" flag="0"/>
			<vel value="0.00215086409499" flag="0"/>
			<psa03 value="0.0138591290367796" flag="0"/>
			<psa10 value="0.00205387769994336" flag="0"/>
			<psa30 value="0.000222571879711501" flag="0"/>
		</comp>
		<comp name=".HNN" depth="0.0">
			<acc value="0.002597362868445" flag="0"/>
			<vel value="0.00167741703478" flag="0"/>
			<psa03 value="0.00903235616177691" flag="0"/>
			<psa10 value="0.00257333187685631" flag="0"/>
			<psa30 value="0.000206109838660897" flag="0"/>
		</comp>
		<comp name=".HNZ" depth="0.0">
			<acc value="0.001680098458479" flag="0"/>
			<vel value="0.00124351487667" flag="0"/>
			<psa03 value="0.00621692746592026" flag="0"/>
			<psa10 value="0.00116111934033452" flag="0"/>
			<psa30 value="0.000200077551030725" flag="0"/>
		</comp>
	</station>
	<station code="KRL1" name="KRL1" netid="HI" source="ITSAK Strong Motion Network" insttype="" lat="37.7951" lon="26.7065">
		<comp name=".HNE" depth="0.0">
			<acc value="0.014103141632778" flag="0"/>
			<vel value="0.00723601794974" flag="0"/>
			<psa03 value="0.0236140200420869" flag="0"/>
			<psa10 value="0.00613615883414817" flag="0"/>
			<psa30 value="0.00067800767509801" flag="0"/>
		</comp>
		<comp name=".HNN" depth="0.0">
			<acc value="0.0089273468620326" flag="0"/>
			<vel value="0.00562673372519" flag="0"/>
			<psa03 value="0.0249717688404798" flag="0"/>
			<psa10 value="0.00756444376353829" flag="0"/>
			<psa30 value="0.000868688015067841" flag="0"/>
		</comp>
		<comp name=".HNZ" depth="0.0">
			<acc value="0.0080718027690198" flag="0"/>
			<vel value="0.00542135067859" flag="0"/>
			<psa03 value="0.0128619731363316" flag="0"/>
			<psa10 value="0.00606727473968598" flag="0"/>
			<psa30 value="0.000683064051724065" flag="0"/>
		</comp>
	</station>
	<station code="MYT1" name="MYT1" netid="HI" source="ITSAK Strong Motion Network" insttype="" lat="39.085" lon="26.5694">
		<comp name=".HNE" depth="0.0">
			<acc value="0.045719956736532" flag="0"/>
			<vel value="0.0334630584073" flag="0"/>
			<psa03 value="0.111372971662963" flag="0"/>
			<psa10 value="0.0299206408456218" flag="0"/>
			<psa30 value="0.00144962738486827" flag="0"/>
		</comp>
		<comp name=".HNN" depth="0.0">
			<acc value="0.04414000059474" flag="0"/>
			<vel value="0.0339661240734" flag="0"/>
			<psa03 value="0.142604884373628" flag="0"/>
			<psa10 value="0.0438096934272173" flag="0"/>
			<psa30 value="0.00218358798531872" flag="0"/>
		</comp>
		<comp name=".HNZ" depth="0.0">
			<acc value="0.043157194412076" flag="0"/>
			<vel value="0.0238047954766" flag="0"/>
			<psa03 value="0.0869393738903959" flag="0"/>
			<psa10 value="0.0238199017015991" flag="0"/>
			<psa30 value="0.00140361162821514" flag="0"/>
		</comp>
	</station>
	<station code="NAX1" name="NAX1" netid="HI" source="ITSAK Strong Motion Network" insttype="" lat="37.101394" lon="25.374103">
		<comp name=".HNE" depth="0.0">
			<acc value="0.003006446966928" flag="0"/>
			<vel value="0.00209902192797" flag="0"/>
			<psa03 value="0.00566084896179268" flag="0"/>
			<psa10 value="0.00388146165903648" flag="0"/>
			<psa30 value="0.000327995191613468" flag="0"/>
		</comp>
		<comp name=".HNN" depth="0.0">
			<acc value="0.0020486579511072" flag="0"/>
			<vel value="0.00149507230994" flag="0"/>
			<psa03 value="0.00659634973620059" flag="0"/>
			<psa10 value="0.0020737816747322" flag="0"/>
			<psa30 value="0.000281804162934522" flag="0"/>
		</comp>
		<comp name=".HNZ" depth="0.0">
			<acc value="0.001411340888403" flag="0"/>
			<vel value="0.000986127572474" flag="0"/>
			<psa03 value="0.00431107497557854" flag="0"/>
			<psa10 value="0.00146566951528745" flag="0"/>
			<psa30 value="0.000251115385162059" flag="0"/>
		</comp>
	</station>
	<station code="PLN1" name="PLN1" netid="HI" source="ITSAK Strong Motion Network" insttype="" lat="39.998" lon="23.575">
		<comp name=".HNE" depth="0.0">
			<acc value="0.0023038245045204" flag="0"/>
			<vel value="0.00191089266579" flag="0"/>
			<psa03 value="0.00686813336554975" flag="0"/>
			<psa10 value="0.00320699330694166" flag="0"/>
			<psa30 value="0.000290659723530254" flag="0"/>
		</comp>
		<comp name=".HNN" depth="0.0">
			<acc value="0.0021115405583358" flag="0"/>
			<vel value="0.00176152451187" flag="0"/>
			<psa03 value="0.00547923992589464" flag="0"/>
			<psa10 value="0.00239627983552962" flag="0"/>
			<psa30 value="0.000406497058643577" flag="0"/>
		</comp>
		<comp name=".HNZ" depth="0.0">
			<acc value="0.0020884872283782" flag="0"/>
			<vel value="0.000886052751607" flag="0"/>
			<psa03 value="0.00627120124360474" flag="0"/>
			<psa10 value="0.00138294419138863" flag="0"/>
			<psa30 value="0.000172070487367029" flag="0"/>
		</comp>
	</station>
	<station code="SKY1" name="SKY1" netid="HI" source="ITSAK Strong Motion Network" insttype="" lat="38.904483" lon="24.564572">
		<comp name=".HNE" depth="0.0">
			<acc value="0.04644125217831" flag="0"/>
			<vel value="0.0306604324425" flag="0"/>
			<psa03 value="0.182646724448915" flag="0"/>
			<psa10 value="0.0128793000654224" flag="0"/>
			<psa30 value="0.0012231445689897" flag="0"/>
		</comp>
		<comp name=".HNN" depth="0.0">
			<acc value="0.050789751832206" flag="0"/>
			<vel value="0.0324474297912" flag="0"/>
			<psa03 value="0.15016606234789" flag="0"/>
			<psa10 value="0.0122057273195348" flag="0"/>
			<psa30 value="0.000815161031665852" flag="0"/>
		</comp>
		<comp name=".HNZ" depth="0.0">
			<acc value="0.024848661607266" flag="0"/>
			<vel value="0.0123738568279" flag="0"/>
			<psa03 value="0.0940334584220171" flag="0"/>
			<psa10 value="0.00875649257467685" flag="0"/>
			<psa30 value="0.000572782266932411" flag="0"/>
		</comp>
	</station>
	<station code="EFSA" name="EFSA" netid="HL" source="National Observatory of Athens Seismic Network" insttype="" lat="39.54015" lon="24.98864">
		<comp name="00.HNE" depth="0.0">
			<acc value="0.02660611944915" flag="0"/>
			<vel value="0.0166610567141" flag="0"/>
			<psa03 value="0.0602825819670722" flag="0"/>
			<psa10 value="0.0151987359041799" flag="0"/>
			<psa30 value="0.000822711271417562" flag="0"/>
		</comp>
		<comp name="00.HNN" depth="0.0">
			<acc value="0.034059774988056" flag="0"/>
			<vel value="0.0180971305955" flag="0"/>
			<psa03 value="0.126037568120209" flag="0"/>
			<psa10 value="0.00903032258953355" flag="0"/>
			<psa30 value="0.000667336238998953" flag="0"/>
		</comp>
		<comp name="00.HNZ" depth="0.0">
			<acc value="0.023678740596504" flag="0"/>
			<vel value="0.0087506679906" flag="0"/>
			<psa03 value="0.0741567875231608" flag="0"/>
			<psa10 value="0.00883508746867523" flag="0"/>
			<psa30 value="0.000388707234321428" flag="0"/>
		</comp>
	</station>
	<station code="LIA" name="LIA" netid="HL" source="National Observatory of Athens Seismic Network" insttype="" lat="39.89725" lon="25.18055">
		<comp name="00.HNE" depth="0.0">
			<acc value="0.03498023206524" flag="0"/>
			<vel value="0.0214583328077" flag="0"/>
			<psa03 value="0.0861025215776491" flag="0"/>
			<psa10 value="0.0161393141503544" flag="0"/>
			<psa30 value="0.00139866442548595" flag="0"/>
		</comp>
		<comp name="00.HNN" depth="0.0">
			<acc value="0.01954940667654" flag="0"/>
			<vel value="0.0166651839013" flag="0"/>
			<psa03 value="0.0725675103664007" flag="0"/>
			<psa10 value="0.0130141486859975" flag="0"/>
			<psa30 value="0.00113207218172703" flag="0"/>
		</comp>
		<comp name="00.HNZ" depth="0.0">
			<acc value="0.014604942814128" flag="0"/>
			<vel value="0.00775095566659" flag="0"/>
			<psa03 value="0.033879291211778" flag="0"/>
			<psa10 value="0.00637035153577473" flag="0"/>
			<psa30 value="0.000588855883810157" flag="0"/>
		</comp>
	</station>
	<station code="PRK" name="PRK" netid="HL" source="National Observatory of Athens Seismic Network" insttype="" lat="39.24565" lon="26.26499">
		<comp name=".HNE" depth="0.0">
			<acc value="0.092109248080452" flag="0"/>
			<vel value="0.0385723358206" flag="0"/>
			<psa03 value="0.148706434404951" flag="0"/>
			<psa10 value="0.0583370270419121" flag="0"/>
			<psa30 value="0.00308239440183436" flag="0"/>
		</comp>
		<comp name=".HNN" depth="0.0">
			<acc value="0.071201720342886" flag="0"/>
			<vel value="0.0356421657847" flag="0"/>
			<psa03 value="0.140099655914526" flag="0"/>
			<psa10 value="0.0308246926096208" flag="0"/>
			<psa30 value="0.00243525632377989" flag="0"/>
		</comp>
		<comp name=".HNZ" depth="0.0">
			<acc value="0.057601545322242" flag="0"/>
			<vel value="0.0244122894311" flag="0"/>
			<psa03 value="0.0678338947044574" flag="0"/>
			<psa10 value="0.0166580466388379" flag="0"/>
			<psa30 value="0.00121597784422972" flag="0"/>
		</comp>
	</station>
	<station code="PSRA" name="PSRA" netid="HL" source="National Observatory of Athens Seismic Network" insttype="" lat="38.53978" lon="25.56202">
		<comp name="00.HNE" depth="0.0">
			<acc value="0.38102243771448" flag="0"/>
			<vel value="0.103946784376" flag="0"/>
			<psa03 value="0.701631312964921" flag="0"/>
			<psa10 value="0.0369226659454173" flag="0"/>
			<psa30 value="0.00253871796927498" flag="0"/>
		</comp>
		<comp name="00.HNN" depth="0.0">
			<acc value="0.3606614324022" flag="0"/>
			<vel value="0.113809992998" flag="0"/>
			<psa03 value="0.551520535526885" flag="0"/>
			<psa10 value="0.0192907660435739" flag="0"/>
			<psa30 value="0.00181422747533363" flag="0"/>
		</comp>
		<comp name="00.HNZ" depth="0.0">
			<acc value="0.23681300073222" flag="0"/>
			<vel value="0.0737451208967" flag="0"/>
			<psa03 value="0.218867769748822" flag="0"/>
			<psa10 value="0.0180543522622333" flag="0"/>
			<psa30 value="0.00110664174708385" flag="0"/>
		</comp>
	</station>
	<station code="SMG" name="SMG" netid="HL" source="National Observatory of Athens Seismic Network" insttype="" lat="37.70425" lon="26.83772">
		<comp name="00.HNE" depth="0.0">
			<acc value="0.016173648388968" flag="0"/>
			<vel value="0.0075886700518" flag="0"/>
			<psa03 value="0.0406097813445454" flag="0"/>
			<psa10 value="0.0069666415058121" flag="0"/>
			<psa30 value="0.000468989453668509" flag="0"/>
		</comp>
		<comp name="00.HNN" depth="0.0">
			<acc value="0.013669433342556" flag="0"/>
			<vel value="0.0067568448301" flag="0"/>
			<psa03 value="0.0309370858884524" flag="0"/>
			<psa10 value="0.00778315497081499" flag="0"/>
			<psa30 value="0.000410921101714408" flag="0"/>
		</comp>
		<comp name="00.HNZ" depth="0.0">
			<acc value="0.0062258886240402" flag="0"/>
			<vel value="0.00323943541877" flag="0"/>
			<psa03 value="0.015671795992084" flag="0"/>
			<psa10 value="0.00271113663074683" flag="0"/>
			<psa30 value="0.000332199923281243" flag="0"/>
		</comp>
	</station>
	<station code="TNSA" name="TNSA" netid="HL" source="National Observatory of Athens Seismic Network" insttype="" lat="37.53942" lon="25.1631">
		<comp name="00.HNE" depth="0.0">
			<acc value="0.0069080159486712" flag="0"/>
			<vel value="0.00370322806718" flag="0"/>
			<psa03 value="0.0231037075905587" flag="0"/>
			<psa10 value="0.00458710231051064" flag="0"/>
			<psa30 value="0.000237237642913058" flag="0"/>
		</comp>
		<comp name="00.HNN" depth="0.0">
			<acc value="0.011572304062188" flag="0"/>
			<vel value="0.00579983825432" flag="0"/>
			<psa03 value="0.0287603739836291" flag="0"/>
			<psa10 value="0.00707725508342566" flag="0"/>
			<psa30 value="0.000591978121894774" flag="0"/>
		</comp>
		<comp name="00.HNZ" depth="0.0">
			<acc value="0.0074242347479724" flag="0"/>
			<vel value="0.0031648136691" flag="0"/>
			<psa03 value="0.0205532287380236" flag="0"/>
			<psa10 value="0.00317928412759399" flag="0"/>
			<psa30 value="0.000243361407957345" flag="0"/>
		</comp>
	</station>
	<station code="BIGA" name="BIGA" netid="KO" source="Bogazici University Kandilli Observatory And Earthquake Research Institute (KOERI)" insttype="" lat="40.28134" lon="27.15048">
		<comp name=".HNE" depth="0.0">
			<acc value="0.013239148686312" flag="0"/>
			<vel value="0.00775197419396" flag="0"/>
			<psa03 value="0.0361894182046838" flag="0"/>
			<psa10 value="0.00929467947689632" flag="0"/>
			<psa30 value="0.000747248616138647" flag="0"/>
		</comp>
		<comp name=".HNN" depth="0.0">
			<acc value="0.014825985747492" flag="0"/>
			<vel value="0.00953578695927" flag="0"/>
			<psa03 value="0.0312870205282249" flag="0"/>
			<psa10 value="0.0105429815457714" flag="0"/>
			<psa30 value="0.000660834974988406" flag="0"/>
		</comp>
		<comp name=".HNZ" depth="0.0">
			<acc value="0.0070501740775836" flag="0"/>
			<vel value="0.00369236464857" flag="0"/>
			<psa03 value="0.0171928303468768" flag="0"/>
			<psa10 value="0.00403460633535891" flag="0"/>
			<psa30 value="0.000748820178580207" flag="0"/>
		</comp>
	</station>
	<station code="CANM" name="CANM" netid="KO" source="Bogazici University Kandilli Observatory And Earthquake Research Institute (KOERI)" insttype="" lat="40.0113" lon="27.0529">
		<comp name=".HNE" depth="0.0">
			<acc value="0.020430619719456" flag="0"/>
			<vel value="0.011121186122" flag="0"/>
			<psa03 value="0.0504992515775346" flag="0"/>
			<psa10 value="0.0105319970681079" flag="0"/>
			<psa30 value="0.000802660672328649" flag="0"/>
		</comp>
		<comp name=".HNN" depth="0.0">
			<acc value="0.025995440592114" flag="0"/>
			<vel value="0.017529296821" flag="0"/>
			<psa03 value="0.0586577191195441" flag="0"/>
			<psa10 value="0.024582137821004" flag="0"/>
			<psa30 value="0.00129655036926368" flag="0"/>
		</comp>
		<comp name=".HNZ" depth="0.0">
			<acc value="0.016253737628106" flag="0"/>
			<vel value="0.00954968926718" flag="0"/>
			<psa03 value="0.0275927028811277" flag="0"/>
			<psa10 value="0.0090626956716126" flag="0"/>
			<psa30 value="0.000448493564663001" flag="0"/>
		</comp>
	</station>
	<station code="CESE" name="CESE" netid="KO" source="Bogazici University Kandilli Observatory And Earthquake Research Institute (KOERI)" insttype="" lat="38.3306" lon="26.2997">
		<comp name=".HNE" depth="0.0">
			<acc value="0.064246950708948" flag="0"/>
			<vel value="0.0516946950021" flag="0"/>
			<psa03 value="0.150730526824387" flag="0"/>
			<psa10 value="0.0388912426039412" flag="0"/>
			<psa30 value="0.0029258944511479" flag="0"/>
		</comp>
		<comp name=".HNN" depth="0.0">
			<acc value="0.082435975335852" flag="0"/>
			<vel value="0.0614386460506" flag="0"/>
			<psa03 value="0.176747979519519" flag="0"/>
			<psa10 value="0.0518998643614451" flag="0"/>
			<psa30 value="0.00387450958391254" flag="0"/>
		</comp>
		<comp name=".HNZ" depth="0.0">
			<acc value="0.052082265934884" flag="0"/>
			<vel value="0.0313015346034" flag="0"/>
			<psa03 value="0.108371939525702" flag="0"/>
			<psa10 value="0.0178369616111806" flag="0"/>
			<psa30 value="0.00133692773156653" flag="0"/>
		</comp>
	</station>
	<station code="ENZZ" name="ENZZ" netid="KO" source="Bogazici University Kandilli Observatory And Earthquake Research Institute (KOERI)" insttype="" lat="40.607" lon="26.1406">
		<comp name=".HNE" depth="0.0">
			<acc value="0.026739116917854" flag="0"/>
			<vel value="0.0160958363472" flag="0"/>
			<psa03 value="0.0597813977240292" flag="0"/>
			<psa10 value="0.0187818085776347" flag="0"/>
			<psa30 value="0.00161280954904871" flag="0"/>
		</comp>
		<comp name=".HNN" depth="0.0">
			<acc value="0.0272161929063" flag="0"/>
			<vel value="0.0154340388564" flag="0"/>
			<psa03 value="0.051502890980317" flag="0"/>
			<psa10 value="0.0147974443205583" flag="0"/>
			<psa30 value="0.00151034140687347" flag="0"/>
		</comp>
		<comp name=".HNZ" depth="0.0">
			<acc value="0.040740859134486" flag="0"/>
			<vel value="0.00618327914669" flag="0"/>
			<psa03 value="0.0358294646720214" flag="0"/>
			<psa10 value="0.00550860491804103" flag="0"/>
			<psa30 value="0.00147188885957892" flag="0"/>
		</comp>
	</station>
	<station code="EZNE" name="EZNE" netid="KO" source="Bogazici University Kandilli Observatory And Earthquake Research Institute (KOERI)" insttype="" lat="39.756" lon="26.3655">
		<comp name=".HNE" depth="0.0">
			<acc value="0.076347938117154" flag="0"/>
			<vel value="0.0431099646221" flag="0"/>
			<psa03 value="0.159633845792396" flag="0"/>
			<psa10 value="0.0321151812231399" flag="0"/>
			<psa30 value="0.0024215739590565" flag="0"/>
		</comp>
		<comp name=".HNN" depth="0.0">
			<acc value="0.17069013837534" flag="0"/>
			<vel value="0.0694027849048" flag="0"/>
			<psa03 value="0.260577678659066" flag="0"/>
			<psa10 value="0.0274919330806243" flag="0"/>
			<psa30 value="0.00248531943188029" flag="0"/>
		</comp>
		<comp name=".HNZ" depth="0.0">
			<acc value="0.075065541004224" flag="0"/>
			<vel value="0.0342163262783" flag="0"/>
			<psa03 value="0.139962438491131" flag="0"/>
			<psa10 value="0.0109185276738616" flag="0"/>
			<psa30 value="0.000862910861524252" flag="0"/>
		</comp>
	</station>
	<station code="FOCM" name="FOCM" netid="KO" source="Bogazici University Kandilli Observatory And Earthquake Research Institute (KOERI)" insttype="" lat="38.7131" lon="26.7309">
		<comp name=".HNE" depth="0.0">
			<acc value="0.034663057753794" flag="0"/>
			<vel value="0.0189184409405" flag="0"/>
			<psa03 value="0.0802699372811664" flag="0"/>
			<psa10 value="0.0180351228633854" flag="0"/>
			<psa30 value="0.00140942711762855" flag="0"/>
		</comp>
		<comp name=".HNN" depth="0.0">
			<acc value="0.028594378761666" flag="0"/>
			<vel value="0.0102817469135" flag="0"/>
			<psa03 value="0.0796355567149574" flag="0"/>
			<psa10 value="0.00825444494146518" flag="0"/>
			<psa30 value="0.000733545677136595" flag="0"/>
		</comp>
		<comp name=".HNZ" depth="0.0">
			<acc value="0.019227147547998" flag="0"/>
			<vel value="0.00617754949338" flag="0"/>
			<psa03 value="0.0244651623635994" flag="0"/>
			<psa10 value="0.00432002180526106" flag="0"/>
			<psa30 value="0.000522019320801856" flag="0"/>
		</comp>
	</station>
	<station code="GMLD" name="GMLD" netid="KO" source="Bogazici University Kandilli Observatory And Earthquake Research Institute (KOERI)" insttype="" lat="38.0766" lon="26.9157">
		<comp name=".HNE" depth="0.0">
			<acc value="0.030188594889222" flag="0"/>
			<vel value="0.0206187674051" flag="0"/>
			<psa03 value="0.0696779022773476" flag="0"/>
			<psa10 value="0.0129602838677144" flag="0"/>
			<psa30 value="0.00114216826720965" flag="0"/>
		</comp>
		<comp name=".HNN" depth="0.0">
			<acc value="0.03171836806866" flag="0"/>
			<vel value="0.0195261974162" flag="0"/>
			<psa03 value="0.0582784596203824" flag="0"/>
			<psa10 value="0.0114609917344365" flag="0"/>
			<psa30 value="0.000891600626663935" flag="0"/>
		</comp>
		<comp name=".HNZ" depth="0.0">
			<acc value="0.01819272949008" flag="0"/>
			<vel value="0.00685636315178" flag="0"/>
			<psa03 value="0.0400833584507978" flag="0"/>
			<psa10 value="0.00765571965383746" flag="0"/>
			<psa30 value="0.000709728838967409" flag="0"/>
		</comp>
	</station>
	<station code="GOKC" name="GOKC" netid="KO" source="Bogazici University Kandilli Observatory And Earthquake Research Institute (KOERI)" insttype="" lat="40.1998" lon="25.9183">
		<comp name=".HNE" depth="0.0">
			<acc value="0.032142870030132" flag="0"/>
			<vel value="0.0202339516672" flag="0"/>
			<psa03 value="0.0817153924102569" flag="0"/>
			<psa10 value="0.0157665000782672" flag="0"/>
			<psa30 value="0.00584940624443925" flag="0"/>
		</comp>
		<comp name=".HNN" depth="0.0">
			<acc value="0.0291387096072" flag="0"/>
			<vel value="0.0217094175152" flag="0"/>
			<psa03 value="0.0709672533155387" flag="0"/>
			<psa10 value="0.0173705938416054" flag="0"/>
			<psa30 value="0.00489955332136517" flag="0"/>
		</comp>
		<comp name=".HNZ" depth="0.0">
			<acc value="0.030575072279874" flag="0"/>
			<vel value="0.0164150518707" flag="0"/>
			<psa03 value="0.065688476539065" flag="0"/>
			<psa10 value="0.0154248215062334" flag="0"/>
			<psa30 value="0.00721833317913713" flag="0"/>
		</comp>
	</station>
