<?xml version="1.0" encoding="UTF-8" standalone="yes"?>
<!DOCTYPE earthquake SYSTEM "stationlist.dtd">
<stationlist created="" xmlns="ch.ethz.sed.shakemap.usgs.xml">
  <station code="DKL" name="DKL" netid="KO" insttype="CMG-3ESPC" lat="39.0713" lon="26.9053">
    <comp name="--.HHZ">
      <acc value="0.0254429606" flag="0"/>
      <vel value="0.0100892449" flag="0"/>
      <psa03 value="0.0389925475" flag="0"/>
      <psa10 value="0.0149331582" flag="0"/>
      <psa30 value="0.0013325224" flag="0"/>
    </comp>
    <comp name="--.HHE">
      <acc value="0.0430891255" flag="0"/>
      <vel value="0.0274257218" flag="0"/>
      <psa03 value="0.0862967895" flag="0"/>
      <psa10 value="0.0319036298" flag="0"/>
      <psa30 value="0.0033896114" flag="0"/>
    </comp>
  </station>
  <station code="EZN" name="EZN" netid="KO" insttype="CMG-3ESP" lat="39.8255" lon="26.3246">
    <comp name="--.HHN">
      <acc value="0.0521571391" flag="0"/>
      <vel value="0.0186731484" flag="0"/>
      <psa03 value="0.0908185125" flag="0"/>
      <psa10 value="0.0225496214" flag="0"/>
      <psa30 value="0.0010935378" flag="0"/>
    </comp>
    <comp name="--.HHE">
      <acc value="0.0551242959" flag="0"/>
      <vel value="0.0276118795" flag="0"/>
      <psa03 value="0.0718381696" flag="0"/>
      <psa10 value="0.0305701378" flag="0"/>
      <psa30 value="0.0016891110" flag="0"/>
    </comp>
    <comp name="--.HHZ">
      <acc value="0.0384021715" flag="0"/>
      <vel value="0.0104258814" flag="0"/>
      <psa03 value="0.0432869187" flag="0"/>
      <psa10 value="0.0098611847" flag="0"/>
      <psa30 value="0.0006697383" flag="0"/>
    </comp>
  </station>
  <station code="EZNE" name="EZNE" netid="KO" insttype="CMG-5T" lat="39.756" lon="26.3655">
    <comp name="--.HNN">
      <acc value="0.1716777941" flag="0"/>
      <vel value="0.0691043431" flag="0"/>
      <psa03 value="0.2643581163" flag="0"/>
      <psa10 value="0.0273540163" flag="0"/>
      <psa30 value="0.0024370582" flag="0"/>
    </comp>
    <comp name="--.HNE">
      <acc value="0.0763678766" flag="0"/>
      <vel value="0.0432379574" flag="0"/>
      <psa03 value="0.1541207110" flag="0"/>
      <psa10 value="0.0320812870" flag="0"/>
      <psa30 value="0.0023873155" flag="0"/>
    </comp>
    <comp name="--.HNZ">
      <acc value="0.0768255285" flag="0"/>
      <vel value="0.0342432819" flag="0"/>
      <psa03 value="0.1410937389" flag="0"/>
      <psa10 value="0.0109169427" flag="0"/>
      <psa30 value="0.0007983080" flag="0"/>
    </comp>
  </station>
</stationlist>
