<?xml version="1.0" encoding="UTF-8" standalone="yes"?>
<!DOCTYPE earthquake SYSTEM "stationlist.dtd">
<stationlist created="" xmlns="ch.ethz.sed.shakemap.usgs.xml">
  <station code="MYT1" name="MYT1" netid="HI" insttype="CMG-5TD,ACCELEROMETER,GURALP" lat="39.085" lon="26.5694">
    <comp name="--.HNE">
      <acc value="0.0461229079" flag="0"/>
      <vel value="0.0333080231" flag="0"/>
      <psa03 value="0.1098796357" flag="0"/>
      <psa10 value="0.0298562317" flag="0"/>
      <psa30 value="0.0014295826" flag="0"/>
    </comp>
    <comp name="--.HNZ">
      <acc value="0.0430800102" flag="0"/>
      <vel value="0.0234977533" flag="0"/>
      <psa03 value="0.0867490482" flag="0"/>
      <psa10 value="0.0237816247" flag="0"/>
      <psa30 value="0.0014087872" flag="0"/>
    </comp>
    <comp name="--.HNN">
      <acc value="0.0442770001" flag="0"/>
      <vel value="0.0333702789" flag="0"/>
      <psa03 value="0.1416111825" flag="0"/>
      <psa10 value="0.0436437903" flag="0"/>
      <psa30 value="0.0021607659" flag="0"/>
    </comp>
  </station>
  <station code="SKY1" name="SKY1" netid="HI" insttype="CMG-5TD,ACCELEROMETER,GURALP" lat="38.9045" lon="24.5646">
    <comp name="--.HNE">
      <acc value="0.0464472038" flag="0"/>
      <vel value="0.0305450781" flag="0"/>
      <psa03 value="0.1795553703" flag="0"/>
      <psa10 value="0.0128344574" flag="0"/>
      <psa30 value="0.0011922409" flag="0"/>
    </comp>
    <comp name="--.HNZ">
      <acc value="0.0250240126" flag="0"/>
      <vel value="0.0124559270" flag="0"/>
      <psa03 value="0.0929787210" flag="0"/>
      <psa10 value="0.0087549454" flag="0"/>
      <psa30 value="0.0005476831" flag="0"/>
    </comp>
    <comp name="--.HNN">
      <acc value="0.0508356013" flag="0"/>
      <vel value="0.0324868256" flag="0"/>
      <psa03 value="0.1484377218" flag="0"/>
      <psa10 value="0.0121740150" flag="0"/>
      <psa30 value="0.0008278162" flag="0"/>
    </comp>
  </station>
  <station code="EFSA" name="EFSA" netid="HL" insttype="CMG-5" lat="39.5401" lon="24.9886">
    <comp name="00.HNE">
      <acc value="0.0270675879" flag="0"/>
      <vel value="0.0166817444" flag="0"/>
      <psa03 value="0.0598728911" flag="0"/>
      <psa10 value="0.0152239785" flag="0"/>
      <psa30 value="0.0008607199" flag="0"/>
    </comp>
    <comp name="00.HNN">
      <acc value="0.0342523229" flag="0"/>
      <vel value="0.0181671918" flag="0"/>
      <psa03 value="0.1257841818" flag="0"/>
      <psa10 value="0.0090396629" flag="0"/>
      <psa30 value="0.0006872202" flag="0"/>
    </comp>
    <comp name="00.HNZ">
      <acc value="0.0236508899" flag="0"/>
      <vel value="0.0087539728" flag="0"/>
      <psa03 value="0.0738620747" flag="0"/>
      <psa10 value="0.0088375101" flag="0"/>
      <psa30 value="0.0003989801" flag="0"/>
    </comp>
  </station>
  <station code="LIA" name="LIA" netid="HL" insttype="GMG5TD" lat="39.8972" lon="25.1806">
    <comp name="00.HNE">
      <acc value="0.0354169166" flag="0"/>
      <vel value="0.0215143993" flag="0"/>
      <psa03 value="0.0861537324" flag="0"/>
      <psa10 value="0.0161233052" flag="0"/>
      <psa30 value="0.0013807493" flag="0"/>
    </comp>
    <comp name="00.HNN">
      <acc value="0.0202360415" flag="0"/>
      <vel value="0.0165831750" flag="0"/>
      <psa03 value="0.0726378571" flag="0"/>
      <psa10 value="0.0130080740" flag="0"/>
      <psa30 value="0.0011340249" flag="0"/>
    </comp>
    <comp name="00.HNZ">
      <acc value="0.0154184526" flag="0"/>
      <vel value="0.0076800582" flag="0"/>
      <psa03 value="0.0338669601" flag="0"/>
      <psa10 value="0.0063677980" flag="0"/>
      <psa30 value="0.0005816878" flag="0"/>
    </comp>
  </station>
  <station code="PRK" name="PRK" netid="HL" insttype="CMG5T" lat="39.2456" lon="26.265">
    <comp name="--.HNE">
      <acc value="0.0934604508" flag="0"/>
      <vel value="0.0380452605" flag="0"/>
      <psa03 value="0.1501561696" flag="0"/>
      <psa10 value="0.0582527088" flag="0"/>
      <psa30 value="0.0028777964" flag="0"/>
    </comp>
    <comp name="--.HNN">
      <acc value="0.0710679236" flag="0"/>
      <vel value="0.0353866182" flag="0"/>
      <psa03 value="0.1390670350" flag="0"/>
      <psa10 value="0.0308234581" flag="0"/>
      <psa30 value="0.0024547983" flag="0"/>
    </comp>
    <comp name="--.HNZ">
      <acc value="0.0586843441" flag="0"/>
      <vel value="0.0241529321" flag="0"/>
      <psa03 value="0.0659658343" flag="0"/>
      <psa10 value="0.0166285685" flag="0"/>
      <psa30 value="0.0011544509" flag="0"/>
    </comp>
  </station>
  <station code="PSRA" name="PSRA" netid="HL" insttype="CMG-5" lat="38.5398" lon="25.562">
    <comp name="00.HNE">
      <acc value="0.3833905042" flag="0"/>
      <vel value="0.1034243263" flag="0"/>
      <psa03 value="0.7013697521" flag="0"/>
      <psa10 value="0.0369561731" flag="0"/>
      <psa30 value="0.0025828715" flag="0"/>
    </comp>
    <comp name="00.HNN">
      <acc value="0.3603528980" flag="0"/>
      <vel value="0.1133958767" flag="0"/>
      <psa03 value="0.5481319483" flag="0"/>
      <psa10 value="0.0192775464" flag="0"/>
      <psa30 value="0.0018307752" flag="0"/>
    </comp>
    <comp name="00.HNZ">
      <acc value="0.2398203474" flag="0"/>
      <vel value="0.0734198461" flag="0"/>
      <psa03 value="0.2184787087" flag="0"/>
      <psa10 value="0.0180948471" flag="0"/>
      <psa30 value="0.0011138569" flag="0"/>
    </comp>
  </station>
  <station code="CHOS" name="CHOS" netid="HT" insttype="100" lat="38.3869" lon="26.0506">
    <comp name="--.HHE">
      <acc value="0.3064863075" flag="0"/>
      <vel value="0.0989988975" flag="0"/>
      <psa03 value="0.4706759228" flag="0"/>
      <psa10 value="0.0809790723" flag="0"/>
      <psa30 value="0.0032240210" flag="0"/>
    </comp>
    <comp name="--.HHN">
      <acc value="0.1587207415" flag="0"/>
      <vel value="0.0549731583" flag="0"/>
      <psa03 value="0.2158109937" flag="0"/>
      <psa10 value="0.0580783868" flag="0"/>
      <psa30 value="0.0032641075" flag="0"/>
    </comp>
    <comp name="--.HHZ">
      <acc value="0.0616069118" flag="0"/>
      <vel value="0.0226324820" flag="0"/>
      <psa03 value="0.1490015734" flag="0"/>
      <psa10 value="0.0182366613" flag="0"/>
      <psa30 value="0.0009387314" flag="0"/>
    </comp>
  </station>
  <station code="LES3" name="LES3" netid="HT" insttype="" lat="39.3032" lon="26.1807">
    <comp name="--.HHE">
      <acc value="0.1245388501" flag="0"/>
      <vel value="0.0482738163" flag="0"/>
      <psa03 value="0.2518420161" flag="0"/>
      <psa10 value="0.0222306756" flag="0"/>
      <psa30 value="0.0015755985" flag="0"/>
    </comp>
    <comp name="--.HHN">
      <acc value="0.1016628046" flag="0"/>
      <vel value="0.0331221558" flag="0"/>
      <psa03 value="0.1587540991" flag="0"/>
      <psa10 value="0.0193419172" flag="0"/>
      <psa30 value="0.0016666495" flag="0"/>
    </comp>
    <comp name="--.HHZ">
      <acc value="0.0720619718" flag="0"/>
      <vel value="0.0193677112" flag="0"/>
      <psa03 value="0.0748891632" flag="0"/>
      <psa10 value="0.0122975470" flag="0"/>
      <psa30 value="0.0016106304" flag="0"/>
    </comp>
  </station>
  <station code="SIGR" name="SIGR" netid="HT" insttype="100" lat="39.2114" lon="25.8553">
    <comp name="--.HHN">
      <acc value="0.3909586013" flag="0"/>
      <vel value="0.1437151283" flag="0"/>
      <psa03 value="0.4138793011" flag="0"/>
      <psa10 value="0.0976057719" flag="0"/>
      <psa30 value="0.0065219057" flag="0"/>
    </comp>
    <comp name="--.HHE">
      <acc value="0.3500425549" flag="0"/>
      <vel value="0.1643609623" flag="0"/>
      <psa03 value="0.7315533514" flag="0"/>
      <psa10 value="0.0829703526" flag="0"/>
      <psa30 value="0.0077201777" flag="0"/>
    </comp>
    <comp name="--.HHZ">
      <acc value="0.7702914028" flag="0"/>
      <vel value="0.1067498429" flag="0"/>
      <psa03 value="0.4854665469" flag="0"/>
      <psa10 value="0.0683413808" flag="0"/>
      <psa30 value="0.0039869790" flag="0"/>
    </comp>
  </station>
  <station code="BMYO" name="BMYO" netid="KO" insttype="CMG-5T" lat="39.8098" lon="26.6009">
    <comp name="--.HNZ">
      <acc value="0.0195518588" flag="0"/>
      <vel value="0.0135974311" flag="0"/>
      <psa03 value="0.0499228221" flag="0"/>
      <psa10 value="0.0189786980" flag="0"/>
      <psa30 value="0.0011941026" flag="0"/>
    </comp>
    <comp name="--.HNE">
      <acc value="0.0325169183" flag="0"/>
      <vel value="0.0238988094" flag="0"/>
      <psa03 value="0.0836999124" flag="0"/>
      <psa10 value="0.0277136900" flag="0"/>
      <psa30 value="0.0028605366" flag="0"/>
    </comp>
    <comp name="--.HNN">
      <acc value="0.0325014223" flag="0"/>
      <vel value="0.0194515152" flag="0"/>
      <psa03 value="0.0610146315" flag="0"/>
      <psa10 value="0.0188723378" flag="0"/>
      <psa30 value="0.0017432054" flag="0"/>
    </comp>
  </station>
  <station code="DKL" name="DKL" netid="KO" insttype="CMG-3ESPC" lat="39.0713" lon="26.9053">
    <comp name="--.HHE">
      <acc value="0.0430891257" flag="0"/>
      <vel value="0.0274257237" flag="0"/>
      <psa03 value="0.0862967895" flag="0"/>
      <psa10 value="0.0319036298" flag="0"/>
      <psa30 value="0.0033895946" flag="0"/>
    </comp>
    <comp name="--.HHZ">
      <acc value="0.0254429607" flag="0"/>
      <vel value="0.0100892437" flag="0"/>
      <psa03 value="0.0389925475" flag="0"/>
      <psa10 value="0.0149331582" flag="0"/>
      <psa30 value="0.0013324647" flag="0"/>
    </comp>
  </station>
  <station code="EZN" name="EZN" netid="KO" insttype="CMG-3ESP" lat="39.8255" lon="26.3246">
    <comp name="--.HHE">
      <acc value="0.0551242959" flag="0"/>
      <vel value="0.0276118785" flag="0"/>
      <psa03 value="0.0718381696" flag="0"/>
      <psa10 value="0.0305701380" flag="0"/>
      <psa30 value="0.0016890856" flag="0"/>
    </comp>
    <comp name="--.HHN">
      <acc value="0.0521571391" flag="0"/>
      <vel value="0.0186731488" flag="0"/>
      <psa03 value="0.0908185125" flag="0"/>
      <psa10 value="0.0225496213" flag="0"/>
      <psa30 value="0.0010935470" flag="0"/>
    </comp>
    <comp name="--.HHZ">
      <acc value="0.0384021717" flag="0"/>
      <vel value="0.0104258825" flag="0"/>
      <psa03 value="0.0432869187" flag="0"/>
      <psa10 value="0.0098611848" flag="0"/>
      <psa30 value="0.0006697120" flag="0"/>
    </comp>
  </station>
  <station code="EZNE" name="EZNE" netid="KO" insttype="CMG-5T" lat="39.756" lon="26.3655">
    <comp name="--.HNE">
      <acc value="0.0763678846" flag="0"/>
      <vel value="0.0432379694" flag="0"/>
      <psa03 value="0.1541207110" flag="0"/>
      <psa10 value="0.0320812873" flag="0"/>
      <psa30 value="0.0023896911" flag="0"/>
    </comp>
    <comp name="--.HNN">
      <acc value="0.1716778025" flag="0"/>
      <vel value="0.0691043516" flag="0"/>
      <psa03 value="0.2643581163" flag="0"/>
      <psa10 value="0.0273540187" flag="0"/>
      <psa30 value="0.0024347011" flag="0"/>
    </comp>
    <comp name="--.HNZ">
      <acc value="0.0768255331" flag="0"/>
      <vel value="0.0342432852" flag="0"/>
      <psa03 value="0.1410937389" flag="0"/>
      <psa10 value="0.0109169425" flag="0"/>
      <psa30 value="0.0007998701" flag="0"/>
    </comp>
  </station>
</stationlist>
