<?xml version="1.0" encoding="UTF-8" standalone="yes"?>
<!DOCTYPE earthquake SYSTEM "stationlist.dtd">
<stationlist created="" xmlns="ch.ethz.sed.shakemap.usgs.xml">
  <station code="ARG" name="ARG" netid="HL" insttype="LE3D20_DR24" lat="36.2136" lon="28.1212">
    <comp name="--.HHE">
      <acc value="0.0077792884" flag="0"/>
      <vel value="0.0045921188" flag="0"/>
      <psa03 value="0.0186099578" flag="0"/>
      <psa10 value="0.0034931689" flag="0"/>
      <psa30 value="0.0002682125" flag="0"/>
    </comp>
    <comp name="--.HHN">
      <acc value="0.0050566803" flag="0"/>
      <vel value="0.0036095985" flag="0"/>
      <psa03 value="0.0135136723" flag="0"/>
      <psa10 value="0.0021001653" flag="0"/>
      <psa30 value="0.0003120856" flag="0"/>
    </comp>
    <comp name="--.HHZ">
      <acc value="0.0039440399" flag="0"/>
      <vel value="0.0018404411" flag="0"/>
      <psa03 value="0.0085296414" flag="0"/>
      <psa10 value="0.0021843829" flag="0"/>
      <psa30 value="0.0003015172" flag="0"/>
    </comp>
  </station>
  <station code="APMY" name="APMY" netid="KO" insttype="CMG-6T" lat="37.4717" lon="29.3018">
    <comp name="--.HHZ">
      <acc value="0.0233132328" flag="0"/>
      <vel value="0.0100665437" flag="0"/>
      <psa03 value="0.0515301285" flag="0"/>
      <psa10 value="0.0142020948" flag="0"/>
      <psa30 value="0.0010009298" flag="0"/>
    </comp>
    <comp name="--.HHE">
      <acc value="0.0250689323" flag="0"/>
      <vel value="0.0086404419" flag="0"/>
      <psa03 value="0.0453622623" flag="0"/>
      <psa10 value="0.0083738117" flag="0"/>
      <psa30 value="0.0007746578" flag="0"/>
    </comp>
    <comp name="--.HHN">
      <acc value="0.0313767591" flag="0"/>
      <vel value="0.0143887821" flag="0"/>
      <psa03 value="0.0611561024" flag="0"/>
      <psa10 value="0.0146100852" flag="0"/>
      <psa30 value="0.0008384586" flag="0"/>
    </comp>
  </station>
  <station code="AYDB" name="AYDB" netid="KO" insttype="CMG-3ESPC" lat="37.9467" lon="27.8908">
    <comp name="--.HHE">
      <acc value="0.0140706791" flag="0"/>
      <vel value="0.0079565875" flag="0"/>
      <psa03 value="0.0371669175" flag="0"/>
      <psa10 value="0.0069738966" flag="0"/>
      <psa30 value="0.0004367987" flag="0"/>
    </comp>
  </station>
  <station code="BODM" name="BODM" netid="KO" insttype="ACEBOX" lat="37.031" lon="27.4247">
    <comp name="--.HNE">
      <acc value="0.0193612758" flag="0"/>
      <vel value="0.0139805146" flag="0"/>
      <psa03 value="0.0414528589" flag="0"/>
      <psa10 value="0.0054580985" flag="0"/>
      <psa30 value="0.0005869422" flag="0"/>
    </comp>
    <comp name="--.HNN">
      <acc value="0.0140379017" flag="0"/>
      <vel value="0.0108854564" flag="0"/>
      <psa03 value="0.0412234351" flag="0"/>
      <psa10 value="0.0080639168" flag="0"/>
      <psa30 value="0.0008027716" flag="0"/>
    </comp>
    <comp name="--.HNZ">
      <acc value="0.0032259181" flag="0"/>
      <vel value="0.0030943359" flag="0"/>
      <psa03 value="0.0079899284" flag="0"/>
      <psa10 value="0.0034583004" flag="0"/>
      <psa30 value="0.0005079300" flag="0"/>
    </comp>
  </station>
  <station code="CAME" name="CAME" netid="KO" insttype="CMG-5T" lat="36.9435" lon="29.3023">
    <comp name="--.HNE">
      <acc value="0.0270334556" flag="0"/>
      <vel value="0.0132341727" flag="0"/>
      <psa03 value="0.0771277668" flag="0"/>
      <psa10 value="0.0058446912" flag="0"/>
      <psa30 value="0.0006382410" flag="0"/>
    </comp>
    <comp name="--.HNZ">
      <acc value="0.0173985548" flag="0"/>
      <vel value="0.0076707061" flag="0"/>
      <psa03 value="0.0280186650" flag="0"/>
      <psa10 value="0.0043202272" flag="0"/>
      <psa30 value="0.0006022570" flag="0"/>
    </comp>
    <comp name="--.HNN">
      <acc value="0.0227246359" flag="0"/>
      <vel value="0.0079792671" flag="0"/>
      <psa03 value="0.0568765680" flag="0"/>
      <psa10 value="0.0064342912" flag="0"/>
      <psa30 value="0.0006136525" flag="0"/>
    </comp>
  </station>
  <station code="DAT" name="DAT" netid="KO" insttype="CMG-3T" lat="36.7308" lon="27.5767">
    <comp name="--.HHZ">
      <acc value="0.0000290001" flag="0"/>
      <vel value="0.0000030967" flag="0"/>
      <psa03 value="0.0000123990" flag="0"/>
      <psa10 value="0.0000037411" flag="0"/>
      <psa30 value="0.0000006464" flag="0"/>
    </comp>
    <comp name="--.HHE">
      <acc value="0.0066033093" flag="0"/>
      <vel value="0.0054506105" flag="0"/>
      <psa03 value="0.0112406129" flag="0"/>
      <psa10 value="0.0094283885" flag="0"/>
      <psa30 value="0.0005136816" flag="0"/>
    </comp>
    <comp name="--.HHN">
      <acc value="0.0073642242" flag="0"/>
      <vel value="0.0041045729" flag="0"/>
      <psa03 value="0.0134288725" flag="0"/>
      <psa10 value="0.0043671594" flag="0"/>
      <psa30 value="0.0007555824" flag="0"/>
    </comp>
  </station>
  <station code="NAZL" name="NAZL" netid="KO" insttype="CMG-5T" lat="37.9641" lon="28.2922">
    <comp name="--.HNE">
      <acc value="0.0182425093" flag="0"/>
      <vel value="0.0105856627" flag="0"/>
      <psa03 value="0.0556648649" flag="0"/>
      <psa10 value="0.0103763509" flag="0"/>
      <psa30 value="0.0006707012" flag="0"/>
    </comp>
    <comp name="--.HNZ">
      <acc value="0.0092056748" flag="0"/>
      <vel value="0.0044289348" flag="0"/>
      <psa03 value="0.0141307476" flag="0"/>
      <psa10 value="0.0028546440" flag="0"/>
      <psa30 value="0.0003773869" flag="0"/>
    </comp>
    <comp name="--.HNN">
      <acc value="0.0208276632" flag="0"/>
      <vel value="0.0094984891" flag="0"/>
      <psa03 value="0.0708736308" flag="0"/>
      <psa10 value="0.0103622161" flag="0"/>
      <psa30 value="0.0004948431" flag="0"/>
    </comp>
  </station>
  <station code="YER" name="YER" netid="KO" insttype="CMG-3T" lat="37.1336" lon="28.284">
    <comp name="--.HHZ">
      <acc value="0.0309767749" flag="0"/>
      <vel value="0.0169220566" flag="0"/>
      <psa03 value="0.0610516199" flag="0"/>
      <psa10 value="0.0125336711" flag="0"/>
      <psa30 value="0.0019539081" flag="0"/>
    </comp>
    <comp name="--.HHE">
      <acc value="0.0608561610" flag="0"/>
      <vel value="0.0221282144" flag="0"/>
      <psa03 value="0.0920606924" flag="0"/>
      <psa10 value="0.0161911520" flag="0"/>
      <psa30 value="0.0011299180" flag="0"/>
    </comp>
    <comp name="--.HHN">
      <acc value="0.0577387203" flag="0"/>
      <vel value="0.0185072846" flag="0"/>
      <psa03 value="0.1041415124" flag="0"/>
      <psa10 value="0.0114719688" flag="0"/>
      <psa30 value="0.0012118884" flag="0"/>
    </comp>
  </station>
</stationlist>
