<stationlist created="1631873504">
	<station code="KRL1" name="KRL1" netid="HI" source="ITSAK Strong Motion Network" insttype="" lat="37.7951" lon="26.7065">
		<comp name="--.HNE" depth="0.0">
			<acc value="-0.267188694" flag="0"/>
			<vel value="0.097317" flag="0"/>
			<psa03 value="0.587465172898" flag="0"/>
			<psa10 value="0.0425350735658" flag="0"/>
			<psa30 value="0.00324067802536" flag="0"/>
		</comp>
		<comp name="--.HNN" depth="0.0">
			<acc value="-0.16882479" flag="0"/>
			<vel value="-0.063973" flag="0"/>
			<psa03 value="0.306081435476" flag="0"/>
			<psa10 value="0.0444880708847" flag="0"/>
			<psa30 value="0.00861913868294" flag="0"/>
		</comp>
		<comp name="--.HNZ" depth="0.0">
			<acc value="-0.16598103" flag="0"/>
			<vel value="-0.047305" flag="0"/>
			<psa03 value="0.246842753913" flag="0"/>
			<psa10 value="0.0229849663839" flag="0"/>
			<psa30 value="0.00338295824241" flag="0"/>
		</comp>
	</station>
	<station code="KLNA" name="KLNA" netid="HL" source="National Observatory of Athens Seismic Network" insttype="" lat="36.95708" lon="26.97274">
		<comp name="--.HNE" depth="0.0">
			<acc value="0.054831324" flag="0"/>
			<vel value="-0.022961" flag="0"/>
			<psa03 value="0.148544125973" flag="0"/>
			<psa10 value="0.0072119962848" flag="0"/>
			<psa30 value="0.00105815318652" flag="0"/>
		</comp>
		<comp name="--.HNN" depth="0.0">
			<acc value="0.03743706" flag="0"/>
			<vel value="0.015762" flag="0"/>
			<psa03 value="0.0967326507087" flag="0"/>
			<psa10 value="0.00701870995221" flag="0"/>
			<psa30 value="0.00049932302586" flag="0"/>
		</comp>
		<comp name="--.HNZ" depth="0.0">
			<acc value="0.05815122" flag="0"/>
			<vel value="0.016212" flag="0"/>
			<psa03 value="0.0699320689444" flag="0"/>
			<psa10 value="0.00864150978625" flag="0"/>
			<psa30 value="0.000700662955642" flag="0"/>
		</comp>
	</station>
	<station code="GMLD" name="GMLD" netid="KO" source="Bogazici University Kandilli Observatory And Earthquake Research Institute (KOERI)" insttype="" lat="38.0766" lon="26.9157">
		<comp name="--.HNE" depth="0.0">
			<acc value="0.543595536" flag="0"/>
			<vel value="0.242497" flag="0"/>
			<psa03 value="0.982359888511" flag="0"/>
			<psa10 value="0.104648441904" flag="0"/>
			<psa30 value="0.0111904732973" flag="0"/>
		</comp>
		<comp name="--.HNN" depth="0.0">
			<acc value="-0.56802678" flag="0"/>
			<vel value="0.223572" flag="0"/>
			<psa03 value="0.663258470909" flag="0"/>
			<psa10 value="0.200377524918" flag="0"/>
			<psa30 value="0.00922897495915" flag="0"/>
		</comp>
		<comp name="--.HNZ" depth="0.0">
			<acc value="0.37294566" flag="0"/>
			<vel value="0.114796" flag="0"/>
			<psa03 value="0.528181749129" flag="0"/>
			<psa10 value="0.0399941636519" flag="0"/>
			<psa30 value="0.0034491767082" flag="0"/>
		</comp>
	</station>
</stationlist>
