<stationlist xmlns:esm="https://esm-db.eu/esmws/shakemap/1/" created="1780710980">
	<station code="KOS2" name="KOS2" netid="HI" source="ITSAK Strong Motion Network" insttype="" lat="36.8941" lon="27.2888" esm:processing="manual (Paolucci et al 2011)" esm:quality="good">
		<comp name="--.HNE" depth="0.0">
			<acc value="0.0363412614168321" flag="0"/>
			<vel value="0.0219913126091517" flag="0"/>
			<psa03 value="0.1218832408332" flag="0"/>
			<psa10 value="0.0242181518337025" flag="0"/>
			<psa30 value="0.00494838155599269" flag="0"/>
		</comp>
		<comp name="--.HNN" depth="0.0">
			<acc value="0.0315834322434101" flag="0"/>
			<vel value="0.0286515216142745" flag="0"/>
			<psa03 value="0.150140643997479" flag="0"/>
			<psa10 value="0.0221544857509524" flag="0"/>
			<psa30 value="0.00384222661198971" flag="0"/>
		</comp>
		<comp name="--.HNZ" depth="0.0">
			<acc value="0.00851417766311247" flag="0"/>
			<vel value="0.00724768879649139" flag="0"/>
			<psa03 value="0.0207915557239437" flag="0"/>
			<psa10 value="0.0147076455593369" flag="0"/>
			<psa30 value="0.00148767375941877" flag="0"/>
		</comp>
	</station>
	<station code="KRL1" name="KRL1" netid="HI" source="ITSAK Strong Motion Network" insttype="" lat="37.7951" lon="26.7065" esm:processing="manual (Paolucci et al 2011)" esm:quality="best">
		<comp name="--.HNE" depth="0.0">
			<acc value="0.270064686022357" flag="0"/>
			<vel value="0.0974663381836428" flag="0"/>
			<psa03 value="0.587465172897908" flag="0"/>
			<psa10 value="0.0425350735657924" flag="0"/>
			<psa30 value="0.00324067802536142" flag="0"/>
		</comp>
		<comp name="--.HNN" depth="0.0">
			<acc value="0.170047695222899" flag="0"/>
			<vel value="0.0641205877457229" flag="0"/>
			<psa03 value="0.306081435475597" flag="0"/>
			<psa10 value="0.04448807088468" flag="0"/>
			<psa30 value="0.00861913868294387" flag="0"/>
		</comp>
		<comp name="--.HNZ" depth="0.0">
			<acc value="0.169505629666393" flag="0"/>
			<vel value="0.0477581510227706" flag="0"/>
			<psa03 value="0.246842753913005" flag="0"/>
			<psa10 value="0.0229849663839386" flag="0"/>
			<psa30 value="0.00338295824240753" flag="0"/>
		</comp>
	</station>
	<station code="MYT1" name="MYT1" netid="HI" source="ITSAK Strong Motion Network" insttype="" lat="39.085" lon="26.5694" esm:processing="manual (Paolucci et al 2011)" esm:quality="good">
		<comp name="--.HNE" depth="0.0">
			<acc value="0.00684082346642517" flag="0"/>
			<vel value="0.00498632969364785" flag="0"/>
			<psa03 value="0.0214698233120898" flag="0"/>
			<psa10 value="0.00880334349080389" flag="0"/>
			<psa30 value="0.000580057071767583" flag="0"/>
		</comp>
		<comp name="--.HNN" depth="0.0">
			<acc value="0.006755462103445" flag="0"/>
			<vel value="0.00483369844540832" flag="0"/>
			<psa03 value="0.0182068141850101" flag="0"/>
			<psa10 value="0.00481424923287706" flag="0"/>
			<psa30 value="0.000556691721845265" flag="0"/>
		</comp>
		<comp name="--.HNZ" depth="0.0">
			<acc value="0.00766752522951604" flag="0"/>
			<vel value="0.00429596633405187" flag="0"/>
			<psa03 value="0.0182940269936879" flag="0"/>
			<psa10 value="0.00541575720484249" flag="0"/>
			<psa30 value="0.000552632442519448" flag="0"/>
		</comp>
	</station>
	<station code="NAX1" name="NAX1" netid="HI" source="ITSAK Strong Motion Network" insttype="" lat="37.101394" lon="25.374103" esm:processing="manual (Paolucci et al 2011)" esm:quality="best">
		<comp name="--.HNE" depth="0.0">
			<acc value="0.0340814077802792" flag="0"/>
			<vel value="0.00830430262245175" flag="0"/>
			<psa03 value="0.0535518444220721" flag="0"/>
			<psa10 value="0.0048632631048098" flag="0"/>
			<psa30 value="0.000562581278666339" flag="0"/>
		</comp>
		<comp name="--.HNN" depth="0.0">
			<acc value="0.0393969767686545" flag="0"/>
			<vel value="0.0110206919685732" flag="0"/>
			<psa03 value="0.047650338892711" flag="0"/>
			<psa10 value="0.00499404411216534" flag="0"/>
			<psa30 value="0.000413823299179432" flag="0"/>
		</comp>
		<comp name="--.HNZ" depth="0.0">
			<acc value="0.0239552994689965" flag="0"/>
			<vel value="0.00686396125308786" flag="0"/>
			<psa03 value="0.0436572801013895" flag="0"/>
			<psa10 value="0.00441110924557383" flag="0"/>
			<psa30 value="0.000329282855039607" flag="0"/>
		</comp>
	</station>
	<station code="KLNA" name="KLNA" netid="HL" source="National Observatory of Athens Seismic Network" insttype="" lat="36.95708" lon="26.97274" esm:processing="manual (Paolucci et al 2011)" esm:quality="good">
		<comp name="00.HNE" depth="0.0">
			<acc value="0.0548313683656737" flag="0"/>
			<vel value="0.0229609827636262" flag="0"/>
			<psa03 value="0.148544125972662" flag="0"/>
			<psa10 value="0.00721199628479922" flag="0"/>
			<psa30 value="0.00105815318652213" flag="0"/>
		</comp>
		<comp name="00.HNN" depth="0.0">
			<acc value="0.0374370658361693" flag="0"/>
			<vel value="0.0157625717056925" flag="0"/>
			<psa03 value="0.0967326507087035" flag="0"/>
			<psa10 value="0.00701870995220829" flag="0"/>
			<psa30 value="0.000499323025859913" flag="0"/>
		</comp>
		<comp name="00.HNZ" depth="0.0">
			<acc value="0.0581512025344526" flag="0"/>
			<vel value="0.0162119920121002" flag="0"/>
			<psa03 value="0.0699320689443588" flag="0"/>
			<psa10 value="0.00864150978625301" flag="0"/>
			<psa30 value="0.000700662955642136" flag="0"/>
		</comp>
	</station>
	<station code="PRK" name="PRK" netid="HL" source="National Observatory of Athens Seismic Network" insttype="" lat="39.24565" lon="26.26499" esm:processing="manual (Paolucci et al 2011)" esm:quality="best">
		<comp name="--.HNE" depth="0.0">
			<acc value="0.00615463151703088" flag="0"/>
			<vel value="0.00466238379955315" flag="0"/>
			<psa03 value="0.0166372193216281" flag="0"/>
			<psa10 value="0.00997571990499458" flag="0"/>
			<psa30 value="0.000556509938971129" flag="0"/>
		</comp>
		<comp name="--.HNN" depth="0.0">
			<acc value="0.00694820135109431" flag="0"/>
			<vel value="0.00529881772046654" flag="0"/>
			<psa03 value="0.0219669213465824" flag="0"/>
			<psa10 value="0.0092835065492464" flag="0"/>
			<psa30 value="0.000590327022932713" flag="0"/>
		</comp>
		<comp name="--.HNZ" depth="0.0">
			<acc value="0.00746165896254244" flag="0"/>
			<vel value="0.00402839304228423" flag="0"/>
			<psa03 value="0.0194240706035024" flag="0"/>
			<psa10 value="0.00253294967048388" flag="0"/>
			<psa30 value="0.000317533352734755" flag="0"/>
		</comp>
	</station>
	<station code="THRA" name="THRA" netid="HL" source="National Observatory of Athens Seismic Network" insttype="" lat="36.41502" lon="25.43244" esm:processing="manual (Paolucci et al 2011)" esm:quality="good">
		<comp name="00.HNE" depth="0.0">
			<acc value="0.0449300070448906" flag="0"/>
			<vel value="0.025245843535901" flag="0"/>
			<psa03 value="0.168607492335692" flag="0"/>
			<psa10 value="0.050369492981725" flag="0"/>
			<psa30 value="0.00200995064936736" flag="0"/>
		</comp>
		<comp name="00.HNN" depth="0.0">
			<acc value="0.0375360650257132" flag="0"/>
			<vel value="0.025581143466856" flag="0"/>
			<psa03 value="0.0989257825144577" flag="0"/>
			<psa10 value="0.0448447994978354" flag="0"/>
			<psa30 value="0.00233985479556547" flag="0"/>
		</comp>
		<comp name="00.HNZ" depth="0.0">
			<acc value="0.0332993233129826" flag="0"/>
			<vel value="0.0232800706791697" flag="0"/>
			<psa03 value="0.0976541253563637" flag="0"/>
			<psa10 value="0.0116472300093242" flag="0"/>
			<psa30 value="0.000944794879688971" flag="0"/>
		</comp>
	</station>
	<station code="GMLD" name="GMLD" netid="KO" source="Bogazici University Kandilli Observatory And Earthquake Research Institute (KOERI)" insttype="" lat="38.0766" lon="26.9157" esm:processing="manual (Paolucci et al 2011)" esm:quality="good">
		<comp name="--.HNE" depth="0.0">
			<acc value="0.55250537319603" flag="0"/>
			<vel value="0.243342646996612" flag="0"/>
			<psa03 value="0.982359888510775" flag="0"/>
			<psa10 value="0.104648441903608" flag="0"/>
			<psa30 value="0.0111904732972959" flag="0"/>
		</comp>
		<comp name="--.HNN" depth="0.0">
			<acc value="0.571075256248551" flag="0"/>
			<vel value="0.223936290645785" flag="0"/>
			<psa03 value="0.663258470909261" flag="0"/>
			<psa10 value="0.200377524917864" flag="0"/>
			<psa30 value="0.00922897495915091" flag="0"/>
		</comp>
		<comp name="--.HNZ" depth="0.0">
			<acc value="0.378122376264211" flag="0"/>
			<vel value="0.115503436219893" flag="0"/>
			<psa03 value="0.528181749128698" flag="0"/>
			<psa10 value="0.0399941636519408" flag="0"/>
			<psa30 value="0.00344917670820257" flag="0"/>
		</comp>
	</station>
</stationlist>
