<stationlist created="1642764330">
	<station code="KRL1" name="KRL1" netid="HI" source="ITSAK Strong Motion Network" insttype="" lat="37.7951" lon="26.7065">
		<comp name=".HNE" depth="0.0">
			<acc value="0.267188694" flag="0"/>
			<vel value="0.097317" flag="0"/>
			<psa03 value="0.587465172898" flag="0"/>
			<psa10 value="0.0425350735658" flag="0"/>
			<psa30 value="0.00324067802536" flag="0"/>
		</comp>
		<comp name=".HNN" depth="0.0">
			<acc value="0.16882479" flag="0"/>
			<vel value="0.063973" flag="0"/>
			<psa03 value="0.306081435476" flag="0"/>
			<psa10 value="0.0444880708847" flag="0"/>
			<psa30 value="0.00861913868294" flag="0"/>
		</comp>
		<comp name=".HNZ" depth="0.0">
			<acc value="0.16598103" flag="0"/>
			<vel value="0.047305" flag="0"/>
			<psa03 value="0.246842753913" flag="0"/>
			<psa10 value="0.0229849663839" flag="0"/>
			<psa30 value="0.00338295824241" flag="0"/>
		</comp>
	</station>
	<station code="MYT1" name="MYT1" netid="HI" source="ITSAK Strong Motion Network" insttype="" lat="39.085" lon="26.5694">
		<comp name=".HNE" depth="0.0">
			<acc value="0.00686562" flag="0"/>
			<vel value="0.005098" flag="0"/>
			<psa03 value="0.0214762591768" flag="0"/>
			<psa10 value="0.0087864745357" flag="0"/>
			<psa30 value="0.000612520808604" flag="0"/>
		</comp>
		<comp name=".HNN" depth="0.0">
			<acc value="0.006781164" flag="0"/>
			<vel value="0.004899" flag="0"/>
			<psa03 value="0.0182100780936" flag="0"/>
			<psa10 value="0.00481605112039" flag="0"/>
			<psa30 value="0.000585228062567" flag="0"/>
		</comp>
		<comp name=".HNZ" depth="0.0">
			<acc value="0.007814628" flag="0"/>
			<vel value="0.004293" flag="0"/>
			<psa03 value="0.0182995625069" flag="0"/>
			<psa10 value="0.00543215130552" flag="0"/>
			<psa30 value="0.000592834237692" flag="0"/>
		</comp>
	</station>
	<station code="NAX1" name="NAX1" netid="HI" source="ITSAK Strong Motion Network" insttype="" lat="37.101394" lon="25.374103">
		<comp name=".HNE" depth="0.0">
			<acc value="0.03369468" flag="0"/>
			<vel value="0.008237" flag="0"/>
			<psa03 value="0.0535564213221" flag="0"/>
			<psa10 value="0.00488853349511" flag="0"/>
			<psa30 value="0.000614310496869" flag="0"/>
		</comp>
		<comp name=".HNN" depth="0.0">
			<acc value="0.039244602" flag="0"/>
			<vel value="0.010748" flag="0"/>
			<psa03 value="0.0476951922551" flag="0"/>
			<psa10 value="0.00500933745298" flag="0"/>
			<psa30 value="0.000502007558257" flag="0"/>
		</comp>
		<comp name=".HNZ" depth="0.0">
			<acc value="0.02374356" flag="0"/>
			<vel value="0.006823" flag="0"/>
			<psa03 value="0.0436683936594" flag="0"/>
			<psa10 value="0.00442142485802" flag="0"/>
			<psa30 value="0.000355700542615" flag="0"/>
		</comp>
	</station>
	<station code="RDI1" name="RDI1" netid="HI" source="ITSAK Strong Motion Network" insttype="" lat="36.4514" lon="28.224">
		<comp name=".HNE" depth="0.0">
			<acc value="0.003050922" flag="0"/>
			<vel value="0.003117" flag="0"/>
			<psa03 value="0.0056375180339" flag="0"/>
			<psa10 value="0.00348720758383" flag="0"/>
			<psa30 value="0.00156016074478" flag="0"/>
		</comp>
		<comp name=".HNN" depth="0.0">
			<acc value="0.002356404" flag="0"/>
			<vel value="0.003527" flag="0"/>
			<psa03 value="0.00581648686038" flag="0"/>
			<psa10 value="0.00450196082993" flag="0"/>
			<psa30 value="0.00142190732633" flag="0"/>
		</comp>
		<comp name=".HNZ" depth="0.0">
			<acc value="0.004692918" flag="0"/>
			<vel value="0.001735" flag="0"/>
			<psa03 value="0.00680081540598" flag="0"/>
			<psa10 value="0.00349526118102" flag="0"/>
			<psa30 value="0.000689924826054" flag="0"/>
		</comp>
	</station>
	<station code="SKY1" name="SKY1" netid="HI" source="ITSAK Strong Motion Network" insttype="" lat="38.904483" lon="24.564572">
		<comp name=".HNE" depth="0.0">
			<acc value="0.001100478" flag="0"/>
			<vel value="0.001179" flag="0"/>
			<psa03 value="0.00290824343019" flag="0"/>
			<psa10 value="0.00141743310567" flag="0"/>
			<psa30 value="0.00025905737632" flag="0"/>
		</comp>
		<comp name=".HNN" depth="0.0">
			<acc value="0.00143157" flag="0"/>
			<vel value="0.000957" flag="0"/>
			<psa03 value="0.00223711033091" flag="0"/>
			<psa10 value="0.00181205936804" flag="0"/>
			<psa30 value="0.000188812111929" flag="0"/>
		</comp>
		<comp name=".HNZ" depth="0.0">
			<acc value="0.00139689" flag="0"/>
			<vel value="0.000529" flag="0"/>
			<psa03 value="0.00156597723164" flag="0"/>
			<psa10 value="0.000821466913511" flag="0"/>
			<psa30 value="0.000264426441114" flag="0"/>
		</comp>
	</station>
	<station code="ASTA" name="ASTA" netid="HL" source="National Observatory of Athens Seismic Network" insttype="" lat="36.54543" lon="26.3528">
		<comp name="00.HNE" depth="0.0">
			<acc value="0.007798104" flag="0"/>
			<vel value="0.003482" flag="0"/>
			<psa03 value="0.0216552280032" flag="0"/>
			<psa10 value="0.00236373077564" flag="0"/>
			<psa30 value="0.000266216129379" flag="0"/>
		</comp>
		<comp name="00.HNN" depth="0.0">
			<acc value="0.007118478" flag="0"/>
			<vel value="0.003065" flag="0"/>
			<psa03 value="0.016644100862" flag="0"/>
			<psa10 value="0.00256507070543" flag="0"/>
			<psa30 value="0.000344962413027" flag="0"/>
		</comp>
		<comp name="00.HNZ" depth="0.0">
			<acc value="0.005806248" flag="0"/>
			<vel value="0.002718" flag="0"/>
			<psa03 value="0.0154360612833" flag="0"/>
			<psa10 value="0.00278251782959" flag="0"/>
			<psa30 value="0.000342725302696" flag="0"/>
		</comp>
	</station>
	<station code="KLNA" name="KLNA" netid="HL" source="National Observatory of Athens Seismic Network" insttype="" lat="36.95708" lon="26.97274">
		<comp name="00.HNE" depth="0.0">
			<acc value="0.054831324" flag="0"/>
			<vel value="0.022961" flag="0"/>
			<psa03 value="0.148544125973" flag="0"/>
			<psa10 value="0.0072119962848" flag="0"/>
			<psa30 value="0.00105815318652" flag="0"/>
		</comp>
		<comp name="00.HNN" depth="0.0">
			<acc value="0.03743706" flag="0"/>
			<vel value="0.015762" flag="0"/>
			<psa03 value="0.0967326507087" flag="0"/>
			<psa10 value="0.00701870995221" flag="0"/>
			<psa30 value="0.00049932302586" flag="0"/>
		</comp>
		<comp name="00.HNZ" depth="0.0">
			<acc value="0.05815122" flag="0"/>
			<vel value="0.016212" flag="0"/>
			<psa03 value="0.0699320689444" flag="0"/>
			<psa10 value="0.00864150978625" flag="0"/>
			<psa30 value="0.000700662955642" flag="0"/>
		</comp>
	</station>
	<station code="PRK" name="PRK" netid="HL" source="National Observatory of Athens Seismic Network" insttype="" lat="39.24565" lon="26.26499">
		<comp name=".HNE" depth="0.0">
			<acc value="0.006128466" flag="0"/>
			<vel value="0.004661" flag="0"/>
			<psa03 value="0.016644100862" flag="0"/>
			<psa10 value="0.00997438012141" flag="0"/>
			<psa30 value="0.000555698206199" flag="0"/>
		</comp>
		<comp name=".HNN" depth="0.0">
			<acc value="0.006971394" flag="0"/>
			<vel value="0.005293" flag="0"/>
			<psa03 value="0.0219684234496" flag="0"/>
			<psa10 value="0.00928177076296" flag="0"/>
			<psa30 value="0.000589254861163" flag="0"/>
		</comp>
		<comp name=".HNZ" depth="0.0">
			<acc value="0.007451814" flag="0"/>
			<vel value="0.004022" flag="0"/>
			<psa03 value="0.0194181176723" flag="0"/>
			<psa10 value="0.00253285631666" flag="0"/>
			<psa30 value="0.000317222244924" flag="0"/>
		</comp>
	</station>
	<station code="RODB" name="RODB" netid="HL" source="National Observatory of Athens Seismic Network" insttype="" lat="36.4471" lon="28.22116">
		<comp name="00.HNE" depth="0.0">
			<acc value="0.00281265" flag="0"/>
			<vel value="0.002833" flag="0"/>
			<psa03 value="0.00720349526554" flag="0"/>
			<psa10 value="0.00436907647627" flag="0"/>
			<psa30 value="0.00113824173637" flag="0"/>
		</comp>
		<comp name="00.HNN" depth="0.0">
			<acc value="0.002791638" flag="0"/>
			<vel value="0.002718" flag="0"/>
			<psa03 value="0.00572700244714" flag="0"/>
			<psa10 value="0.00449390723274" flag="0"/>
			<psa30 value="0.00111766032132" flag="0"/>
		</comp>
		<comp name="00.HNZ" depth="0.0">
			<acc value="0.003831018" flag="0"/>
			<vel value="0.00146" flag="0"/>
			<psa03 value="0.00277401681033" flag="0"/>
			<psa10 value="0.0030482865369" flag="0"/>
			<psa30 value="0.000626838314722" flag="0"/>
		</comp>
	</station>
	<station code="THRA" name="THRA" netid="HL" source="National Observatory of Athens Seismic Network" insttype="" lat="36.41502" lon="25.43244">
		<comp name="00.HNE" depth="0.0">
			<acc value="0.045270762" flag="0"/>
			<vel value="0.025266" flag="0"/>
			<psa03 value="0.168633376744" flag="0"/>
			<psa10 value="0.0503591432371" flag="0"/>
			<psa30 value="0.00200803023303" flag="0"/>
		</comp>
		<comp name="00.HNN" depth="0.0">
			<acc value="0.037731228" flag="0"/>
			<vel value="0.02561" flag="0"/>
			<psa03 value="0.0989697610396" flag="0"/>
			<psa10 value="0.0448384023625" flag="0"/>
			<psa30 value="0.00233733287374" flag="0"/>
		</comp>
		<comp name="00.HNZ" depth="0.0">
			<acc value="0.033683154" flag="0"/>
			<vel value="0.023297" flag="0"/>
			<psa03 value="0.0976722370477" flag="0"/>
			<psa10 value="0.0116455015386" flag="0"/>
			<psa30 value="0.000944507981712" flag="0"/>
		</comp>
	</station>
	<station code="TNSA" name="TNSA" netid="HL" source="National Observatory of Athens Seismic Network" insttype="" lat="37.53942" lon="25.1631">
		<comp name="00.HNE" depth="0.0">
			<acc value="0.012087918" flag="0"/>
			<vel value="0.003845" flag="0"/>
			<psa03 value="0.0275164570702" flag="0"/>
			<psa10 value="0.00353955596557" flag="0"/>
			<psa30 value="0.000426840651138" flag="0"/>
		</comp>
		<comp name="00.HNN" depth="0.0">
			<acc value="0.01612059" flag="0"/>
			<vel value="0.005399" flag="0"/>
			<psa03 value="0.0249214090864" flag="0"/>
			<psa10 value="0.00171944300034" flag="0"/>
			<psa30 value="0.000210735793172" flag="0"/>
		</comp>
		<comp name="00.HNZ" depth="0.0">
			<acc value="0.008880018" flag="0"/>
			<vel value="0.003285" flag="0"/>
			<psa03 value="0.015704514523" flag="0"/>
			<psa10 value="0.00191272933293" flag="0"/>
			<psa30 value="0.000246976980533" flag="0"/>
		</comp>
	</station>
	<station code="AKS" name="AKS" netid="KO" source="Bogazici University Kandilli Observatory And Earthquake Research Institute (KOERI)" insttype="" lat="38.8785" lon="27.8129">
		<comp name=".HNE" depth="0.0">
			<acc value="0.004563174" flag="0"/>
			<vel value="0.003486" flag="0"/>
			<psa03 value="0.00867998808394" flag="0"/>
			<psa10 value="0.00233554318547" flag="0"/>
			<psa30 value="0.000565541491655" flag="0"/>
		</comp>
		<comp name=".HNN" depth="0.0">
			<acc value="0.006083484" flag="0"/>
			<vel value="0.003258" flag="0"/>
			<psa03 value="0.0137805996384" flag="0"/>
			<psa10 value="0.00177581818068" flag="0"/>
			<psa30 value="0.000540485855949" flag="0"/>
		</comp>
		<comp name=".HNZ" depth="0.0">
			<acc value="0.001630062" flag="0"/>
			<vel value="0.00112" flag="0"/>
			<psa03 value="0.00384782976917" flag="0"/>
			<psa10 value="0.000849654503681" flag="0"/>
			<psa30 value="0.000533774524956" flag="0"/>
		</comp>
	</station>
	<station code="DATC" name="DATC" netid="KO" source="Bogazici University Kandilli Observatory And Earthquake Research Institute (KOERI)" insttype="" lat="36.7584" lon="27.6602">
		<comp name=".HNE" depth="0.0">
			<acc value="0.055465152" flag="0"/>
			<vel value="0.026281" flag="0"/>
			<psa03 value="0.24303966635" flag="0"/>
			<psa10 value="0.0360921958128" flag="0"/>
			<psa30 value="0.00593460628585" flag="0"/>
		</comp>
		<comp name=".HNN" depth="0.0">
			<acc value="0.04317303" flag="0"/>
			<vel value="0.037453" flag="0"/>
			<psa03 value="0.142369701459" flag="0"/>
			<psa10 value="0.068773693215" flag="0"/>
			<psa30 value="0.00716949118851" flag="0"/>
		</comp>
		<comp name=".HNZ" depth="0.0">
			<acc value="0.043962714" flag="0"/>
			<vel value="0.024356" flag="0"/>
			<psa03 value="0.0686345449524" flag="0"/>
			<psa10 value="0.0485551374663" flag="0"/>
			<psa30 value="0.00301428245987" flag="0"/>
		</comp>
	</station>
	<station code="DIDI" name="DIDI" netid="KO" source="Bogazici University Kandilli Observatory And Earthquake Research Institute (KOERI)" insttype="" lat="37.3767" lon="27.2398">
		<comp name=".HNE" depth="0.0">
			<acc value="0.069710778" flag="0"/>
			<vel value="0.026051" flag="0"/>
			<psa03 value="0.26473963656" flag="0"/>
			<psa10 value="0.0185836755189" flag="0"/>
			<psa30 value="0.00325857490801" flag="0"/>
		</comp>
		<comp name=".HNN" depth="0.0">
			<acc value="0.062609844" flag="0"/>
			<vel value="0.029001" flag="0"/>
			<psa03 value="0.350555188854" flag="0"/>
			<psa10 value="0.0179917361253" flag="0"/>
			<psa30 value="0.00301070308334" flag="0"/>
		</comp>
		<comp name=".HNZ" depth="0.0">
			<acc value="0.05145441" flag="0"/>
			<vel value="0.015667" flag="0"/>
			<psa03 value="0.10438356804" flag="0"/>
			<psa10 value="0.00746165779773" flag="0"/>
			<psa30 value="0.00118969527398" flag="0"/>
		</comp>
	</station>
	<station code="EZNE" name="EZNE" netid="KO" source="Bogazici University Kandilli Observatory And Earthquake Research Institute (KOERI)" insttype="" lat="39.756" lon="26.3655">
		<comp name=".HNE" depth="0.0">
			<acc value="0.011044458" flag="0"/>
			<vel value="0.005088" flag="0"/>
			<psa03 value="0.0236686273011" flag="0"/>
			<psa10 value="0.00686569160557" flag="0"/>
			<psa30 value="0.00157984731569" flag="0"/>
		</comp>
		<comp name=".HNN" depth="0.0">
			<acc value="0.017009112" flag="0"/>
			<vel value="0.006753" flag="0"/>
			<psa03 value="0.036688609427" flag="0"/>
			<psa10 value="0.00638650257269" flag="0"/>
			<psa30 value="0.00155702879032" flag="0"/>
		</comp>
		<comp name=".HNZ" depth="0.0">
			<acc value="0.019644282" flag="0"/>
			<vel value="0.004058" flag="0"/>
			<psa03 value="0.017583687201" flag="0"/>
			<psa10 value="0.00504960543894" flag="0"/>
			<psa30 value="0.000869788496659" flag="0"/>
		</comp>
	</station>
	<station code="FOCM" name="FOCM" netid="KO" source="Bogazici University Kandilli Observatory And Earthquake Research Institute (KOERI)" insttype="" lat="38.7131" lon="26.7309">
		<comp name=".HNE" depth="0.0">
			<acc value="0.010247022" flag="0"/>
			<vel value="0.006253" flag="0"/>
			<psa03 value="0.0330197484843" flag="0"/>
			<psa10 value="0.00608046587942" flag="0"/>
			<psa30 value="0.000793726745408" flag="0"/>
		</comp>
		<comp name=".HNN" depth="0.0">
			<acc value="0.01399185" flag="0"/>
			<vel value="0.006826" flag="0"/>
			<psa03 value="0.0232659474415" flag="0"/>
			<psa10 value="0.00566167882548" flag="0"/>
			<psa30 value="0.000538248745618" flag="0"/>
		</comp>
		<comp name=".HNZ" depth="0.0">
			<acc value="0.009714684" flag="0"/>
			<vel value="0.004069" flag="0"/>
			<psa03 value="0.0318564511122" flag="0"/>
			<psa10 value="0.00256104390683" flag="0"/>
			<psa30 value="0.000386125243116" flag="0"/>
		</comp>
	</station>
	<station code="GMLD" name="GMLD" netid="KO" source="Bogazici University Kandilli Observatory And Earthquake Research Institute (KOERI)" insttype="" lat="38.0766" lon="26.9157">
		<comp name=".HNE" depth="0.0">
			<acc value="0.543595536" flag="0"/>
			<vel value="0.242497" flag="0"/>
			<psa03 value="0.982359888511" flag="0"/>
			<psa10 value="0.104648441904" flag="0"/>
			<psa30 value="0.0111904732973" flag="0"/>
		</comp>
		<comp name=".HNN" depth="0.0">
			<acc value="0.56802678" flag="0"/>
			<vel value="0.223572" flag="0"/>
			<psa03 value="0.663258470909" flag="0"/>
			<psa10 value="0.200377524918" flag="0"/>
			<psa30 value="0.00922897495915" flag="0"/>
		</comp>
		<comp name=".HNZ" depth="0.0">
			<acc value="0.37294566" flag="0"/>
			<vel value="0.114796" flag="0"/>
			<psa03 value="0.528181749129" flag="0"/>
			<psa10 value="0.0399941636519" flag="0"/>
			<psa30 value="0.0034491767082" flag="0"/>
		</comp>
	</station>
	<station code="GOMA" name="GOMA" netid="KO" source="Bogazici University Kandilli Observatory And Earthquake Research Institute (KOERI)" insttype="" lat="38.7077" lon="27.9175">
		<comp name=".HNE" depth="0.0">
			<acc value="0.00677994" flag="0"/>
			<vel value="0.004497" flag="0"/>
			<psa03 value="0.0236238850944" flag="0"/>
			<psa10 value="0.00186038095119" flag="0"/>
			<psa30 value="0.000263979019048" flag="0"/>
		</comp>
		<comp name=".HNN" depth="0.0">
			<acc value="0.005020134" flag="0"/>
			<vel value="0.003149" flag="0"/>
			<psa03 value="0.0189259533995" flag="0"/>
			<psa10 value="0.0016670946186" flag="0"/>
			<psa30 value="0.000263531596982" flag="0"/>
		</comp>
		<comp name=".HNZ" depth="0.0">
			<acc value="0.00284886" flag="0"/>
			<vel value="0.00188" flag="0"/>
			<psa03 value="0.00939586338984" flag="0"/>
			<psa10 value="0.000914083281211" flag="0"/>
			<psa30 value="0.000255030577724" flag="0"/>
		</comp>
	</station>
	<station code="GORD" name="GORD" netid="KO" source="Bogazici University Kandilli Observatory And Earthquake Research Institute (KOERI)" insttype="" lat="38.9088" lon="28.1769">
		<comp name=".HNE" depth="0.0">
			<acc value="0.012280392" flag="0"/>
			<vel value="0.01099" flag="0"/>
			<psa03 value="0.0356147964681" flag="0"/>
			<psa10 value="0.0175407346826" flag="0"/>
			<psa30 value="0.00214404654115" flag="0"/>
		</comp>
		<comp name=".HNN" depth="0.0">
			<acc value="0.012975012" flag="0"/>
			<vel value="0.012667" flag="0"/>
			<psa03 value="0.0309168647732" flag="0"/>
			<psa10 value="0.0110012137633" flag="0"/>
			<psa30 value="0.00107515522504" flag="0"/>
		</comp>
		<comp name=".HNZ" depth="0.0">
			<acc value="0.012891372" flag="0"/>
			<vel value="0.011143" flag="0"/>
			<psa03 value="0.0276059414835" flag="0"/>
			<psa10 value="0.0100790768849" flag="0"/>
			<psa30 value="0.00159684935421" flag="0"/>
		</comp>
	</station>
	<station code="KUSD" name="KUSD" netid="KO" source="Bogazici University Kandilli Observatory And Earthquake Research Institute (KOERI)" insttype="" lat="37.8606" lon="27.2868">
		<comp name=".HNE" depth="0.0">
			<acc value="0.09197136" flag="0"/>
			<vel value="0.041767" flag="0"/>
			<psa03 value="0.249303575277" flag="0"/>
			<psa10 value="0.0289808694929" flag="0"/>
			<psa30 value="0.00217581350785" flag="0"/>
		</comp>
		<comp name=".HNN" depth="0.0">
			<acc value="0.06733377" flag="0"/>
			<vel value="0.028454" flag="0"/>
			<psa03 value="0.17543419215" flag="0"/>
			<psa10 value="0.0199648674372" flag="0"/>
			<psa30 value="0.00354671471863" flag="0"/>
		</comp>
		<comp name=".HNZ" depth="0.0">
			<acc value="0.088691244" flag="0"/>
			<vel value="0.033626" flag="0"/>
			<psa03 value="0.142951350145" flag="0"/>
			<psa10 value="0.00963210224078" flag="0"/>
			<psa30 value="0.00170736260455" flag="0"/>
		</comp>
	</station>
	<station code="NAZL" name="NAZL" netid="KO" source="Bogazici University Kandilli Observatory And Earthquake Research Institute (KOERI)" insttype="" lat="37.9641" lon="28.2922">
		<comp name=".HNE" depth="0.0">
			<acc value="0.024197766" flag="0"/>
			<vel value="0.013617" flag="0"/>
			<psa03 value="0.107157584851" flag="0"/>
			<psa10 value="0.0111663125057" flag="0"/>
			<psa30 value="0.00163935445049" flag="0"/>
		</comp>
		<comp name=".HNN" depth="0.0">
			<acc value="0.02459934" flag="0"/>
			<vel value="0.017606" flag="0"/>
			<psa03 value="0.0707374286635" flag="0"/>
			<psa10 value="0.010546185522" flag="0"/>
			<psa30 value="0.00193017879351" flag="0"/>
		</comp>
		<comp name=".HNZ" depth="0.0">
			<acc value="0.015183516" flag="0"/>
			<vel value="0.009126" flag="0"/>
			<psa03 value="0.0414760255351" flag="0"/>
			<psa10 value="0.00516235579962" flag="0"/>
			<psa30 value="0.000996408941389" flag="0"/>
		</comp>
	</station>
	<station code="SOMA" name="SOMA" netid="KO" source="Bogazici University Kandilli Observatory And Earthquake Research Institute (KOERI)" insttype="" lat="39.1564" lon="27.5341">
		<comp name=".HNE" depth="0.0">
			<acc value="0.028352634" flag="0"/>
			<vel value="0.01451" flag="0"/>
			<psa03 value="0.101833262263" flag="0"/>
			<psa10 value="0.00743749700616" flag="0"/>
