<?xml version="1.0" encoding="UTF-8" standalone="yes"?>
<!DOCTYPE earthquake SYSTEM "stationlist.dtd">
<stationlist created="" xmlns="ch.ethz.sed.shakemap.usgs.xml">
  <station code="KRL1" name="KRL1" netid="HI" insttype="CMG-5TD,ACCELEROMETER,GURALP" lat="37.7951" lon="26.7065">
    <comp name="--.HNE">
      <acc value="0.2716985419" flag="0"/>
      <vel value="0.0958168018" flag="0"/>
      <psa03 value="0.5884187290" flag="0"/>
      <psa10 value="0.0423726880" flag="0"/>
      <psa30 value="0.0034458992" flag="0"/>
    </comp>
    <comp name="--.HNN">
      <acc value="0.1677611824" flag="0"/>
      <vel value="0.0631569332" flag="0"/>
      <psa03 value="0.2997005482" flag="0"/>
      <psa10 value="0.0444885732" flag="0"/>
      <psa30 value="0.0080947708" flag="0"/>
    </comp>
    <comp name="--.HNZ">
      <acc value="0.1807376911" flag="0"/>
      <vel value="0.0468803525" flag="0"/>
      <psa03 value="0.2455326991" flag="0"/>
      <psa10 value="0.0230065121" flag="0"/>
      <psa30 value="0.0030081731" flag="0"/>
    </comp>
  </station>
  <station code="EAG2" name="EAG2" netid="HL" insttype="SMART24" lat="38.5438" lon="26.1079">
    <comp name="--.HHN">
      <acc value="0.1970102000" flag="0"/>
      <vel value="0.1006571737" flag="0"/>
      <psa03 value="0.6880786603" flag="0"/>
      <psa10 value="0.0430786702" flag="0"/>
      <psa30 value="0.0030149675" flag="0"/>
    </comp>
    <comp name="--.HHE">
      <acc value="0.2487679947" flag="0"/>
      <vel value="0.1472424232" flag="0"/>
      <psa03 value="0.7541305381" flag="0"/>
      <psa10 value="0.0542633357" flag="0"/>
      <psa30 value="0.0043340960" flag="0"/>
    </comp>
    <comp name="--.HHZ">
      <acc value="0.0450429671" flag="0"/>
      <vel value="0.0227969467" flag="0"/>
      <psa03 value="0.1242760328" flag="0"/>
      <psa10 value="0.0149864594" flag="0"/>
      <psa30 value="0.0009971247" flag="0"/>
    </comp>
  </station>
  <station code="GMLD" name="GMLD" netid="KO" insttype="100" lat="38.0764" lon="26.8747">
    <comp name="--.HNZ">
      <acc value="0.0611676576" flag="0"/>
      <vel value="0.0181140090" flag="0"/>
      <psa03 value="0.0838521948" flag="0"/>
      <psa10 value="0.0063519253" flag="0"/>
      <psa30 value="0.0005636329" flag="0"/>
    </comp>
    <comp name="--.HNE">
      <acc value="0.0887503765" flag="0"/>
      <vel value="0.0385579546" flag="0"/>
      <psa03 value="0.1557373091" flag="0"/>
      <psa10 value="0.0165563892" flag="0"/>
      <psa30 value="0.0016785364" flag="0"/>
    </comp>
    <comp name="--.HNN">
      <acc value="0.0908655633" flag="0"/>
      <vel value="0.0355020908" flag="0"/>
      <psa03 value="0.1071230020" flag="0"/>
      <psa10 value="0.0318100150" flag="0"/>
      <psa30 value="0.0014720491" flag="0"/>
    </comp>
  </station>
  <station code="KRBN" name="KRBN" netid="KO" insttype="100" lat="38.5936" lon="26.5537">
    <comp name="--.HNZ">
      <acc value="0.0117687416" flag="0"/>
      <vel value="0.0058069769" flag="0"/>
      <psa03 value="0.0322851840" flag="0"/>
      <psa10 value="0.0056172963" flag="0"/>
      <psa30 value="0.0004129906" flag="0"/>
    </comp>
  </station>
  <station code="KUSD" name="KUSD" netid="KO" insttype="100" lat="37.86" lon="27.2815">
    <comp name="--.HNZ">
      <acc value="0.0141188622" flag="0"/>
      <vel value="0.0053409653" flag="0"/>
      <psa03 value="0.0225894657" flag="0"/>
      <psa10 value="0.0015276970" flag="0"/>
      <psa30 value="0.0002541874" flag="0"/>
    </comp>
    <comp name="--.HNN">
      <acc value="0.0113989879" flag="0"/>
      <vel value="0.0045272826" flag="0"/>
      <psa03 value="0.0272147037" flag="0"/>
      <psa10 value="0.0031404982" flag="0"/>
      <psa30 value="0.0004886393" flag="0"/>
    </comp>
    <comp name="--.HNE">
      <acc value="0.0150842604" flag="0"/>
      <vel value="0.0065202280" flag="0"/>
      <psa03 value="0.0393125052" flag="0"/>
      <psa10 value="0.0046210038" flag="0"/>
      <psa30 value="0.0003124029" flag="0"/>
    </comp>
  </station>
  <station code="AYDN" name="AYDN" netid="TU" source="ODC" insttype="T" lat="37.6608" lon="27.8792">
    <comp name="--.HHZ">
      <acc value="0.0162706784" flag="0"/>
      <vel value="0.0068165667" flag="0"/>
      <psa03 value="0.0409348842" flag="0"/>
      <psa10 value="0.0041746094" flag="0"/>
      <psa30 value="0.0003896234" flag="0"/>
    </comp>
    <comp name="--.HHN">
      <acc value="0.0152352028" flag="0"/>
      <vel value="0.0064966933" flag="0"/>
      <psa03 value="0.0690914763" flag="0"/>
      <psa10 value="0.0049208910" flag="0"/>
      <psa30 value="0.0005113443" flag="0"/>
    </comp>
    <comp name="--.HHE">
      <acc value="0.0198677806" flag="0"/>
      <vel value="0.0100388408" flag="0"/>
      <psa03 value="0.0715551389" flag="0"/>
      <psa10 value="0.0074165581" flag="0"/>
      <psa30 value="0.0005897345" flag="0"/>
    </comp>
  </station>
</stationlist>
