<?xml version="1.0" encoding="UTF-8" standalone="yes"?>
<!DOCTYPE earthquake SYSTEM "stationlist.dtd">
<stationlist created="" xmlns="ch.ethz.sed.shakemap.usgs.xml">
  <station code="BAYT" name="BAYT" netid="KO" insttype="CMG-3ESPC" lat="40.3937" lon="40.141">
    <comp name="--.HHE">
      <acc value="0.1057077441" flag="0"/>
      <vel value="0.0466681021" flag="0"/>
      <psa03 value="0.2139386749" flag="0"/>
      <psa10 value="0.0340955786" flag="0"/>
      <psa30 value="0.0015552773" flag="0"/>
    </comp>
    <comp name="--.HHN">
      <acc value="0.0787488762" flag="0"/>
      <vel value="0.0276085239" flag="0"/>
      <psa03 value="0.1827647965" flag="0"/>
      <psa10 value="0.0221027031" flag="0"/>
      <psa30 value="0.0015189647" flag="0"/>
    </comp>
    <comp name="--.HHZ">
      <acc value="0.0123012442" flag="0"/>
      <vel value="0.0048726183" flag="0"/>
      <psa03 value="0.0554394780" flag="0"/>
      <psa10 value="0.0014347113" flag="0"/>
      <psa30 value="0.0001212247" flag="0"/>
    </comp>
  </station>
  <station code="ERZN" name="ERZN" netid="KO" insttype="CMG-3ESP" lat="39.5867" lon="39.722">
    <comp name="--.HHN">
      <acc value="0.0477256068" flag="0"/>
      <vel value="0.0199055915" flag="0"/>
      <psa03 value="0.0971419948" flag="0"/>
      <psa10 value="0.0123431181" flag="0"/>
      <psa30 value="0.0013408101" flag="0"/>
    </comp>
    <comp name="--.HHZ">
      <acc value="0.0287441437" flag="0"/>
      <vel value="0.0066284395" flag="0"/>
      <psa03 value="0.0327625555" flag="0"/>
      <psa10 value="0.0082012552" flag="0"/>
      <psa30 value="0.0013318922" flag="0"/>
    </comp>
  </station>
  <station code="GUMT" name="GUMT" netid="KO" insttype="CMG-5T" lat="40.4665" lon="39.478">
    <comp name="--.HNZ">
      <acc value="0.1322700131" flag="0"/>
      <vel value="0.0224045097" flag="0"/>
      <psa03 value="0.1157032571" flag="0"/>
      <psa10 value="0.0141203874" flag="0"/>
      <psa30 value="0.0013413509" flag="0"/>
    </comp>
    <comp name="--.HNE">
      <acc value="0.1395068720" flag="0"/>
      <vel value="0.0531088953" flag="0"/>
      <psa03 value="0.1551134823" flag="0"/>
      <psa10 value="0.0344031146" flag="0"/>
      <psa30 value="0.0036723211" flag="0"/>
    </comp>
    <comp name="--.HNN">
      <acc value="0.0889790910" flag="0"/>
      <vel value="0.0233786892" flag="0"/>
      <psa03 value="0.0969811832" flag="0"/>
      <psa10 value="0.0128595322" flag="0"/>
      <psa30 value="0.0012120832" flag="0"/>
    </comp>
  </station>
  <station code="KTUT" name="KTUT" netid="KO" insttype="CMG-3T" lat="40.987" lon="39.7667">
    <comp name="--.HHE">
      <acc value="0.0907286184" flag="0"/>
      <vel value="0.0198612357" flag="0"/>
      <psa03 value="0.0666761230" flag="0"/>
      <psa10 value="0.0184689977" flag="0"/>
      <psa30 value="0.0020228409" flag="0"/>
    </comp>
    <comp name="--.HHZ">
      <acc value="0.0354057172" flag="0"/>
      <vel value="0.0162207980" flag="0"/>
      <psa03 value="0.1028216141" flag="0"/>
      <psa10 value="0.0170211695" flag="0"/>
      <psa30 value="0.0009020130" flag="0"/>
    </comp>
  </station>
  <station code="RFHY" name="RFHY" netid="KO" insttype="CMG-5T" lat="39.927" lon="38.833">
    <comp name="--.HNZ">
      <acc value="0.1186246407" flag="0"/>
      <vel value="0.0600292600" flag="0"/>
      <psa03 value="0.2705203872" flag="0"/>
      <psa10 value="0.0944087769" flag="0"/>
      <psa30 value="0.0067043544" flag="0"/>
    </comp>
    <comp name="--.HNE">
      <acc value="0.0052190373" flag="0"/>
      <vel value="0.0045974262" flag="0"/>
      <psa03 value="0.0121045338" flag="0"/>
      <psa10 value="0.0055425255" flag="0"/>
      <psa30 value="0.0012045621" flag="0"/>
    </comp>
    <comp name="--.HNN">
      <acc value="0.1260590266" flag="0"/>
      <vel value="0.1118488078" flag="0"/>
      <psa03 value="0.2959450149" flag="0"/>
      <psa10 value="0.1565768111" flag="0"/>
      <psa30 value="0.0176060595" flag="0"/>
    </comp>
  </station>
  <station code="YEDI" name="YEDI" netid="KO" insttype="CMG-3T" lat="39.4377" lon="40.5443">
    <comp name="--.HHZ">
      <acc value="0.0000437448" flag="0"/>
      <vel value="0.0000039555" flag="0"/>
      <psa03 value="0.0000105423" flag="0"/>
      <psa10 value="0.0000037065" flag="0"/>
      <psa30 value="0.0000006089" flag="0"/>
    </comp>
    <comp name="--.HHE">
      <acc value="0.0066225461" flag="0"/>
      <vel value="0.0051673802" flag="0"/>
      <psa03 value="0.0199631083" flag="0"/>
      <psa10 value="0.0066721783" flag="0"/>
      <psa30 value="0.0006550620" flag="0"/>
    </comp>
    <comp name="--.HHN">
      <acc value="0.0052134553" flag="0"/>
      <vel value="0.0052774456" flag="0"/>
      <psa03 value="0.0106311380" flag="0"/>
      <psa10 value="0.0114877176" flag="0"/>
      <psa30 value="0.0009228076" flag="0"/>
    </comp>
  </station>
</stationlist>
