<?xml version="1.0" encoding="UTF-8" standalone="yes"?>
<!DOCTYPE earthquake SYSTEM "stationlist.dtd">
<stationlist created="" xmlns="ch.ethz.sed.shakemap.usgs.xml">
  <station code="BAYT" name="BAYT" netid="KO" insttype="CMG-3ESPC" lat="40.3937" lon="40.141">
    <comp name="--.HHN">
      <acc value="0.0787488763" flag="0"/>
      <vel value="0.0276085241" flag="0"/>
      <psa03 value="0.1827647965" flag="0"/>
      <psa10 value="0.0221027030" flag="0"/>
      <psa30 value="0.0015189212" flag="0"/>
    </comp>
    <comp name="--.HHZ">
      <acc value="0.0123012441" flag="0"/>
      <vel value="0.0048726184" flag="0"/>
      <psa03 value="0.0554394780" flag="0"/>
      <psa10 value="0.0014347129" flag="0"/>
      <psa30 value="0.0001212179" flag="0"/>
    </comp>
    <comp name="--.HHE">
      <acc value="0.1057077439" flag="0"/>
      <vel value="0.0466681027" flag="0"/>
      <psa03 value="0.2139386749" flag="0"/>
      <psa10 value="0.0340955786" flag="0"/>
      <psa30 value="0.0015552689" flag="0"/>
    </comp>
  </station>
  <station code="ERZN" name="ERZN" netid="KO" insttype="CMG-3ESP" lat="39.5867" lon="39.722">
    <comp name="--.HHN">
      <acc value="0.0477256067" flag="0"/>
      <vel value="0.0199056001" flag="0"/>
      <psa03 value="0.0971419948" flag="0"/>
      <psa10 value="0.0123431182" flag="0"/>
      <psa30 value="0.0013408217" flag="0"/>
    </comp>
    <comp name="--.HHZ">
      <acc value="0.0287441437" flag="0"/>
      <vel value="0.0066284359" flag="0"/>
      <psa03 value="0.0327625555" flag="0"/>
      <psa10 value="0.0082012552" flag="0"/>
      <psa30 value="0.0013318638" flag="0"/>
    </comp>
  </station>
  <station code="GUMT" name="GUMT" netid="KO" insttype="CMG-5T" lat="40.4665" lon="39.478">
    <comp name="--.HNE">
      <acc value="0.1395068753" flag="0"/>
      <vel value="0.0531088981" flag="0"/>
      <psa03 value="0.1551134823" flag="0"/>
      <psa10 value="0.0344030954" flag="0"/>
      <psa30 value="0.0036774339" flag="0"/>
    </comp>
    <comp name="--.HNN">
      <acc value="0.0889790895" flag="0"/>
      <vel value="0.0233786856" flag="0"/>
      <psa03 value="0.0969811832" flag="0"/>
      <psa10 value="0.0128595279" flag="0"/>
      <psa30 value="0.0012134533" flag="0"/>
    </comp>
    <comp name="--.HNZ">
      <acc value="0.1322700095" flag="0"/>
      <vel value="0.0224044997" flag="0"/>
      <psa03 value="0.1157032571" flag="0"/>
      <psa10 value="0.0141203856" flag="0"/>
      <psa30 value="0.0013398266" flag="0"/>
    </comp>
  </station>
  <station code="KTUT" name="KTUT" netid="KO" insttype="CMG-3T" lat="40.987" lon="39.7667">
    <comp name="--.HHE">
      <acc value="0.0907286187" flag="0"/>
      <vel value="0.0198612342" flag="0"/>
      <psa03 value="0.0666761230" flag="0"/>
      <psa10 value="0.0184689975" flag="0"/>
      <psa30 value="0.0020224439" flag="0"/>
    </comp>
    <comp name="--.HHZ">
      <acc value="0.0354057172" flag="0"/>
      <vel value="0.0162208034" flag="0"/>
      <psa03 value="0.1028216141" flag="0"/>
      <psa10 value="0.0170211695" flag="0"/>
      <psa30 value="0.0009019767" flag="0"/>
    </comp>
  </station>
  <station code="RFHY" name="RFHY" netid="KO" insttype="CMG-5T" lat="39.927" lon="38.833">
    <comp name="--.HNE">
      <acc value="0.0052190353" flag="0"/>
      <vel value="0.0044778644" flag="0"/>
      <psa03 value="0.0121045337" flag="0"/>
      <psa10 value="0.0055425265" flag="0"/>
      <psa30 value="0.0015037727" flag="0"/>
    </comp>
    <comp name="--.HNN">
      <acc value="0.1260590273" flag="0"/>
      <vel value="0.1118488152" flag="0"/>
      <psa03 value="0.2959450149" flag="0"/>
      <psa10 value="0.1565768288" flag="0"/>
      <psa30 value="0.0176040274" flag="0"/>
    </comp>
    <comp name="--.HNZ">
      <acc value="0.1186246475" flag="0"/>
      <vel value="0.0600292496" flag="0"/>
      <psa03 value="0.2705203872" flag="0"/>
      <psa10 value="0.0944087760" flag="0"/>
      <psa30 value="0.0067066313" flag="0"/>
    </comp>
  </station>
  <station code="YEDI" name="YEDI" netid="KO" insttype="CMG-3T" lat="39.4377" lon="40.5443">
    <comp name="--.HHE">
      <acc value="0.0066225466" flag="0"/>
      <vel value="0.0051673802" flag="0"/>
      <psa03 value="0.0199631083" flag="0"/>
      <psa10 value="0.0066721783" flag="0"/>
      <psa30 value="0.0006550609" flag="0"/>
    </comp>
    <comp name="--.HHN">
      <acc value="0.0052134548" flag="0"/>
      <vel value="0.0052774459" flag="0"/>
      <psa03 value="0.0106311380" flag="0"/>
      <psa10 value="0.0114877176" flag="0"/>
      <psa30 value="0.0009227554" flag="0"/>
    </comp>
    <comp name="--.HHZ">
      <acc value="0.0000437446" flag="0"/>
      <vel value="0.0000039555" flag="0"/>
      <psa03 value="0.0000105423" flag="0"/>
      <psa10 value="0.0000037001" flag="0"/>
      <psa30 value="0.0000005916" flag="0"/>
    </comp>
  </station>
</stationlist>
