<?xml version="1.0" encoding="UTF-8" standalone="yes"?>
<!DOCTYPE earthquake SYSTEM "stationlist.dtd">
<stationlist created="" xmlns="ch.ethz.sed.shakemap.usgs.xml">
  <station code="KBN" name="KBN" netid="AC" insttype="" lat="40.6236" lon="20.7874">
    <comp name="--.HHN">
      <acc value="0.0197115534" flag="0"/>
      <vel value="0.0323652190" flag="0"/>
      <psa03 value="0.0658824048" flag="0"/>
      <psa10 value="0.0517662652" flag="0"/>
      <psa30 value="0.0123724976" flag="0"/>
    </comp>
    <comp name="--.HHE">
      <acc value="0.0238409746" flag="0"/>
      <vel value="0.0266153480" flag="0"/>
      <psa03 value="0.0517682377" flag="0"/>
      <psa10 value="0.0327707793" flag="0"/>
      <psa30 value="0.0098705831" flag="0"/>
    </comp>
    <comp name="--.HHZ">
      <acc value="0.0134878659" flag="0"/>
      <vel value="0.0276281135" flag="0"/>
      <psa03 value="0.0287362207" flag="0"/>
      <psa10 value="0.0237866100" flag="0"/>
      <psa30 value="0.0065016919" flag="0"/>
    </comp>
  </station>
  <station code="KALE" name="KALE" netid="HA" insttype="40," lat="38.3911" lon="22.1398">
    <comp name="--.HHN">
      <acc value="0.1223696102" flag="0"/>
      <vel value="0.1183875953" flag="0"/>
      <psa03 value="0.2554675942" flag="0"/>
      <psa10 value="0.2239326124" flag="0"/>
      <psa30 value="0.0328371608" flag="0"/>
    </comp>
    <comp name="--.HHE">
      <acc value="0.1264051145" flag="0"/>
      <vel value="0.1281255841" flag="0"/>
      <psa03 value="0.2659346300" flag="0"/>
      <psa10 value="0.2461634453" flag="0"/>
      <psa30 value="0.0162270515" flag="0"/>
    </comp>
    <comp name="--.HHZ">
      <acc value="0.0960160817" flag="0"/>
      <vel value="0.1028804249" flag="0"/>
      <psa03 value="0.1357432906" flag="0"/>
      <psa10 value="0.0917533830" flag="0"/>
      <psa30 value="0.0162564341" flag="0"/>
    </comp>
  </station>
  <station code="LAKA" name="LAKA" netid="HA" insttype="120s" lat="38.2401" lon="21.9785">
    <comp name="--.HHN">
      <acc value="0.0414434960" flag="0"/>
      <vel value="0.0595362294" flag="0"/>
      <psa03 value="0.0655482195" flag="0"/>
      <psa10 value="0.0528264362" flag="0"/>
      <psa30 value="0.0186266869" flag="0"/>
    </comp>
    <comp name="--.HHE">
      <acc value="0.0227364356" flag="0"/>
      <vel value="0.0254186489" flag="0"/>
      <psa03 value="0.0611356316" flag="0"/>
      <psa10 value="0.0270022888" flag="0"/>
      <psa30 value="0.0100899265" flag="0"/>
    </comp>
    <comp name="--.HHZ">
      <acc value="0.0199079479" flag="0"/>
      <vel value="0.0311162471" flag="0"/>
      <psa03 value="0.0285550092" flag="0"/>
      <psa10 value="0.0557921690" flag="0"/>
      <psa30 value="0.0067126557" flag="0"/>
    </comp>
  </station>
  <station code="ART2" name="ART2" netid="HI" insttype="CMG-5TD,ACCELEROMETER,GURALP" lat="39.1474" lon="20.9937">
    <comp name="--.HNE">
      <acc value="0.0286781442" flag="0"/>
      <vel value="0.0325837647" flag="0"/>
      <psa03 value="0.0802960800" flag="0"/>
      <psa10 value="0.0316389555" flag="0"/>
      <psa30 value="0.0137289567" flag="0"/>
    </comp>
    <comp name="--.HNN">
      <acc value="0.0247012767" flag="0"/>
      <vel value="0.0281004859" flag="0"/>
      <psa03 value="0.0588858779" flag="0"/>
      <psa10 value="0.0344385950" flag="0"/>
      <psa30 value="0.0091791252" flag="0"/>
    </comp>
    <comp name="--.HNZ">
      <acc value="0.0190702383" flag="0"/>
      <vel value="0.0199490526" flag="0"/>
      <psa03 value="0.0684416761" flag="0"/>
      <psa10 value="0.0250378391" flag="0"/>
      <psa30 value="0.0060634198" flag="0"/>
    </comp>
  </station>
  <station code="LAM2" name="LAM2" netid="HI" insttype="CMG-5TD,ACCELEROMETER,GURALP" lat="38.902" lon="22.4313">
    <comp name="--.HNE">
      <acc value="0.1989337424" flag="0"/>
      <vel value="0.1595456019" flag="0"/>
      <psa03 value="0.6183472848" flag="0"/>
      <psa10 value="0.1673959284" flag="0"/>
      <psa30 value="0.0143708442" flag="0"/>
    </comp>
    <comp name="--.HNZ">
      <acc value="0.1688801688" flag="0"/>
      <vel value="0.1996393755" flag="0"/>
      <psa03 value="0.2853407659" flag="0"/>
      <psa10 value="0.2466744093" flag="0"/>
      <psa30 value="0.0220086156" flag="0"/>
    </comp>
    <comp name="--.HNN">
      <acc value="0.2285474567" flag="0"/>
      <vel value="0.2582403520" flag="0"/>
      <psa03 value="0.4663282701" flag="0"/>
      <psa10 value="0.3056532919" flag="0"/>
      <psa30 value="0.0277588433" flag="0"/>
    </comp>
  </station>
  <station code="LMS2" name="LMS2" netid="HI" insttype="CMG-5TD,ACCELEROMETER,GURALP" lat="40.835" lon="21.1418">
    <comp name="--.HNE">
      <acc value="0.0486342694" flag="0"/>
      <vel value="0.0243167194" flag="0"/>
      <psa03 value="0.0793831756" flag="0"/>
      <psa10 value="0.0316087181" flag="0"/>
      <psa30 value="0.0062507246" flag="0"/>
    </comp>
    <comp name="--.HNZ">
      <acc value="0.0187051516" flag="0"/>
      <vel value="0.0284818881" flag="0"/>
      <psa03 value="0.0481903163" flag="0"/>
      <psa10 value="0.0391868871" flag="0"/>
      <psa30 value="0.0106102901" flag="0"/>
    </comp>
    <comp name="--.HNN">
      <acc value="0.0594067121" flag="0"/>
      <vel value="0.0302179602" flag="0"/>
      <psa03 value="0.1384016618" flag="0"/>
      <psa10 value="0.0384139962" flag="0"/>
      <psa30 value="0.0056375661" flag="0"/>
    </comp>
  </station>
  <station code="MSL1" name="MSL1" netid="HI" insttype="CMG-5TD,ACCELEROMETER,GURALP" lat="38.3727" lon="21.4243">
    <comp name="--.HNZ">
      <acc value="0.0844095841" flag="0"/>
      <vel value="0.1175621341" flag="0"/>
      <psa03 value="0.1232604212" flag="0"/>
      <psa10 value="0.2247790967" flag="0"/>
      <psa30 value="0.0171100011" flag="0"/>
    </comp>
    <comp name="--.HNE">
      <acc value="0.1775045259" flag="0"/>
      <vel value="0.3327221069" flag="0"/>
      <psa03 value="0.2235864619" flag="0"/>
      <psa10 value="0.4137458359" flag="0"/>
      <psa30 value="0.0562466221" flag="0"/>
    </comp>
    <comp name="--.HNN">
      <acc value="0.1428963258" flag="0"/>
      <vel value="0.2519861190" flag="0"/>
      <psa03 value="0.2378492988" flag="0"/>
      <psa10 value="0.3900642627" flag="0"/>
      <psa30 value="0.0568059972" flag="0"/>
    </comp>
  </station>
  <station code="VOL2" name="VOL2" netid="HI" insttype="CMG-5TD,ACCELEROMETER,GURALP" lat="39.366" lon="22.9506">
    <comp name="--.HNE">
      <acc value="0.3847971370" flag="0"/>
      <vel value="0.2380081479" flag="0"/>
      <psa03 value="0.9145842438" flag="0"/>
      <psa10 value="0.1933897598" flag="0"/>
      <psa30 value="0.0190089123" flag="0"/>
    </comp>
    <comp name="--.HNN">
      <acc value="0.2905190765" flag="0"/>
      <vel value="0.2230513999" flag="0"/>
      <psa03 value="0.9415415910" flag="0"/>
      <psa10 value="0.1576974295" flag="0"/>
      <psa30 value="0.0139159614" flag="0"/>
    </comp>
    <comp name="--.HNZ">
      <acc value="0.1124472395" flag="0"/>
      <vel value="0.0908079885" flag="0"/>
      <psa03 value="0.3633687144" flag="0"/>
      <psa10 value="0.1292426482" flag="0"/>
      <psa30 value="0.0108395799" flag="0"/>
    </comp>
  </station>
  <station code="EVR" name="EVR" netid="HL" insttype="DR24" lat="38.9166" lon="21.8105">
    <comp name="--.HHN">
      <acc value="0.1381171268" flag="0"/>
      <vel value="0.1640492977" flag="0"/>
      <psa03 value="0.3887402249" flag="0"/>
      <psa10 value="0.1400734868" flag="0"/>
      <psa30 value="0.0403933201" flag="0"/>
    </comp>
    <comp name="--.HHZ">
      <acc value="0.1305522422" flag="0"/>
      <vel value="0.1416843129" flag="0"/>
      <psa03 value="0.2193930995" flag="0"/>
      <psa10 value="0.1527106074" flag="0"/>
      <psa30 value="0.0197737202" flag="0"/>
    </comp>
    <comp name="--.HHE">
      <acc value="0.1562113876" flag="0"/>
      <vel value="0.0876411523" flag="0"/>
      <psa03 value="0.3177805239" flag="0"/>
      <psa10 value="0.1489467706" flag="0"/>
      <psa30 value="0.0324133914" flag="0"/>
    </comp>
  </station>
  <station code="JAN" name="JAN" netid="HL" insttype="CMG3EPSC60_DR24" lat="39.6562" lon="20.8487">
    <comp name="--.HHE">
      <acc value="0.0410009841" flag="0"/>
      <vel value="0.0454432965" flag="0"/>
      <psa03 value="0.1297838381" flag="0"/>
      <psa10 value="0.0680127588" flag="0"/>
      <psa30 value="0.0131661970" flag="0"/>
    </comp>
    <comp name="--.HHZ">
      <acc value="0.0436508466" flag="0"/>
      <vel value="0.0253365641" flag="0"/>
      <psa03 value="0.0753361828" flag="0"/>
      <psa10 value="0.0407536604" flag="0"/>
      <psa30 value="0.0112136884" flag="0"/>
    </comp>
  </station>
  <station code="KZN" name="KZN" netid="HL" insttype="120" lat="40.3033" lon="21.7821">
    <comp name="--.HHZ">
      <acc value="0.1376644311" flag="0"/>
      <vel value="0.0631258351" flag="0"/>
      <psa03 value="0.2317769877" flag="0"/>
      <psa10 value="0.0718509399" flag="0"/>
      <psa30 value="0.0228559931" flag="0"/>
    </comp>
    <comp name="--.HHE">
      <acc value="0.3585160010" flag="0"/>
      <vel value="0.2021799938" flag="0"/>
      <psa03 value="1.2790903484" flag="0"/>
      <psa10 value="0.1555128279" flag="0"/>
      <psa30 value="0.0150061862" flag="0"/>
    </comp>
    <comp name="--.HHN">
      <acc value="0.2794359819" flag="0"/>
      <vel value="0.1544164414" flag="0"/>
      <psa03 value="0.6201610578" flag="0"/>
      <psa10 value="0.1133309028" flag="0"/>
      <psa30 value="0.0278148603" flag="0"/>
    </comp>
  </station>
  <station code="LKR" name="LKR" netid="HL" insttype="30" lat="38.6496" lon="22.9989">
    <comp name="--.HHZ">
      <acc value="0.0158131718" flag="0"/>
      <vel value="0.0216681400" flag="0"/>
      <psa03 value="0.0281043003" flag="0"/>
      <psa10 value="0.0308595381" flag="0"/>
      <psa30 value="0.0068242500" flag="0"/>
    </comp>
    <comp name="--.HHN">
      <acc value="0.0278433678" flag="0"/>
      <vel value="0.0235358221" flag="0"/>
      <psa03 value="0.0496701560" flag="0"/>
      <psa10 value="0.0232845048" flag="0"/>
      <psa30 value="0.0070101589" flag="0"/>
    </comp>
    <comp name="--.HHE">
      <acc value="0.0310144598" flag="0"/>
      <vel value="0.0261490032" flag="0"/>
      <psa03 value="0.0506526363" flag="0"/>
      <psa10 value="0.0227716123" flag="0"/>
      <psa30 value="0.0102016646" flag="0"/>
    </comp>
  </station>
  <station code="NEO" name="NEO" netid="HL" insttype="120" lat="39.3057" lon="23.2219">
    <comp name="--.HHE">
      <acc value="0.2926739252" flag="0"/>
      <vel value="0.2441744276" flag="0"/>
      <psa03 value="0.6218428366" flag="0"/>
      <psa10 value="0.2792219108" flag="0"/>
      <psa30 value="0.0198876138" flag="0"/>
    </comp>
    <comp name="--.HHN">
      <acc value="0.2903374856" flag="0"/>
      <vel value="0.2265552856" flag="0"/>
      <psa03 value="1.0366967738" flag="0"/>
      <psa10 value="0.2118966179" flag="0"/>
      <psa30 value="0.0156951987" flag="0"/>
    </comp>
    <comp name="--.HHZ">
      <acc value="0.1521849349" flag="0"/>
      <vel value="0.1448833204" flag="0"/>
      <psa03 value="0.3782728426" flag="0"/>
      <psa10 value="0.2719884164" flag="0"/>
      <psa30 value="0.0192025835" flag="0"/>
    </comp>
  </station>
  <station code="PATC" name="PATC" netid="HL" insttype="CMG-5" lat="38.2693" lon="21.76">
    <comp name="00.HNN">
      <acc value="0.0684867528" flag="0"/>
      <vel value="0.1237365050" flag="0"/>
      <psa03 value="0.1076055286" flag="0"/>
      <psa10 value="0.2107395562" flag="0"/>
      <psa30 value="0.0424427151" flag="0"/>
    </comp>
    <comp name="00.HNE">
      <acc value="0.0815627690" flag="0"/>
      <vel value="0.1252188628" flag="0"/>
      <psa03 value="0.1496937057" flag="0"/>
      <psa10 value="0.1933399878" flag="0"/>
      <psa30 value="0.0594544676" flag="0"/>
    </comp>
    <comp name="00.HNZ">
      <acc value="0.0557571557" flag="0"/>
      <vel value="0.0673511481" flag="0"/>
      <psa03 value="0.0772194328" flag="0"/>
      <psa10 value="0.1182871674" flag="0"/>
      <psa30 value="0.0192798173" flag="0"/>
    </comp>
  </station>
  <station code="PATG" name="PATG" netid="HL" insttype="CMG-5" lat="38.2386" lon="21.7266">
    <comp name="00.HNZ">
      <acc value="0.0534289047" flag="0"/>
      <vel value="0.0762333347" flag="0"/>
      <psa03 value="0.1167073996" flag="0"/>
      <psa10 value="0.1036543589" flag="0"/>
      <psa30 value="0.0218611112" flag="0"/>
    </comp>
    <comp name="00.HNN">
      <acc value="0.1054663919" flag="0"/>
      <vel value="0.1431347253" flag="0"/>
      <psa03 value="0.2328667314" flag="0"/>
      <psa10 value="0.2269126149" flag="0"/>
      <psa30 value="0.0515238906" flag="0"/>
    </comp>
    <comp name="00.HNE">
      <acc value="0.0909442119" flag="0"/>
      <vel value="0.1177333206" flag="0"/>
      <psa03 value="0.2048404006" flag="0"/>
      <psa10 value="0.2070837419" flag="0"/>
      <psa30 value="0.0553410296" flag="0"/>
    </comp>
  </station>
  <station code="PENT" name="PENT" netid="HL" insttype="30" lat="40.1959" lon="21.1384">
    <comp name="--.HHN">
      <acc value="0.0017852763" flag="0"/>
      <vel value="0.0012930406" flag="0"/>
      <psa03 value="0.0030778367" flag="0"/>
      <psa10 value="0.0015685834" flag="0"/>
      <psa30 value="0.0003461612" flag="0"/>
    </comp>
    <comp name="--.HHZ">
      <acc value="0.0339787239" flag="0"/>
      <vel value="0.0286959035" flag="0"/>
      <psa03 value="0.0690411754" flag="0"/>
      <psa10 value="0.0522922253" flag="0"/>
      <psa30 value="0.0081998695" flag="0"/>
    </comp>
    <comp name="--.HHE">
      <acc value="0.0415678988" flag="0"/>
      <vel value="0.0227082936" flag="0"/>
      <psa03 value="0.1044309435" flag="0"/>
      <psa10 value="0.0366297558" flag="0"/>
      <psa30 value="0.0061766062" flag="0"/>
    </comp>
  </station>
  <station code="PLG" name="PLG" netid="HL" insttype="CMG3ESPC-120s" lat="40.3733" lon="23.4444">
    <comp name="--.HHZ">
      <acc value="0.0562951379" flag="0"/>
      <vel value="0.0474675417" flag="0"/>
      <psa03 value="0.1409624817" flag="0"/>
      <psa10 value="0.0610640597" flag="0"/>
      <psa30 value="0.0140938123" flag="0"/>
    </comp>
  </station>
  <station code="TETR" name="TETR" netid="HL" insttype="60" lat="39.3445" lon="21.2747">
    <comp name="--.HHZ">
      <acc value="0.2018536166" flag="0"/>
      <vel value="0.0956374852" flag="0"/>
      <psa03 value="0.5025123946" flag="0"/>
      <psa10 value="0.1570146876" flag="0"/>
      <psa30 value="0.0111552494" flag="0"/>
    </comp>
    <comp name="--.HHE">
      <acc value="0.4930920940" flag="0"/>
      <vel value="0.2140335943" flag="0"/>
      <psa03 value="1.2694920236" flag="0"/>
      <psa10 value="0.2266131784" flag="0"/>
      <psa30 value="0.0218886736" flag="0"/>
    </comp>
    <comp name="--.HHN">
      <acc value="0.5105367463" flag="0"/>
      <vel value="0.2335383828" flag="0"/>
      <psa03 value="1.1673195713" flag="0"/>
      <psa10 value="0.1663503740" flag="0"/>
      <psa30 value="0.0233635408" flag="0"/>
    </comp>
  </station>
  <station code="THL" name="THL" netid="HL" insttype="120" lat="39.5647" lon="22.0144">
    <comp name="--.HHE">
      <acc value="1.6528534798" flag="0"/>
      <vel value="0.5704271089" flag="0"/>
      <psa03 value="2.0249006475" flag="0"/>
      <psa10 value="0.7444532504" flag="0"/>
      <psa30 value="0.0545103764" flag="0"/>
    </comp>
    <comp name="--.HHN">
      <acc value="1.8635757083" flag="0"/>
      <vel value="0.4970184735" flag="0"/>
      <psa03 value="2.0389261929" flag="0"/>
      <psa10 value="0.4090549219" flag="0"/>
      <psa30 value="0.1117227443" flag="0"/>
    </comp>
    <comp name="--.HHZ">
      <acc value="1.3979120979" flag="0"/>
      <vel value="0.9203228581" flag="0"/>
      <psa03 value="1.6816972233" flag="0"/>
      <psa10 value="0.9691302546" flag="0"/>
      <psa30 value="0.0894719580" flag="0"/>
    </comp>
  </station>
  <station code="AMPL" name="AMPL" netid="HP" insttype="Compact," lat="38.9224" lon="21.2135">
    <comp name="--.HHN">
      <acc value="0.0454785083" flag="0"/>
      <vel value="0.0520159801" flag="0"/>
      <psa03 value="0.1339944483" flag="0"/>
      <psa10 value="0.0674109481" flag="0"/>
      <psa30 value="0.0094033796" flag="0"/>
    </comp>
    <comp name="--.HHE">
      <acc value="0.0505245258" flag="0"/>
      <vel value="0.0457082573" flag="0"/>
      <psa03 value="0.1089264777" flag="0"/>
      <psa10 value="0.1078235417" flag="0"/>
      <psa30 value="0.0094579454" flag="0"/>
    </comp>
    <comp name="--.HHZ">
      <acc value="0.0333031570" flag="0"/>
      <vel value="0.0425073280" flag="0"/>
      <psa03 value="0.0866170415" flag="0"/>
      <psa10 value="0.0658652840" flag="0"/>
      <psa30 value="0.0103772384" flag="0"/>
    </comp>
  </station>
  <station code="ANX" name="ANX" netid="HP" insttype="120" lat="38.5933" lon="21.9209">
    <comp name="--.HHE">
      <acc value="0.2550986190" flag="0"/>
      <vel value="0.1971219013" flag="0"/>
      <psa03 value="0.3720892280" flag="0"/>
      <psa10 value="0.2328563892" flag="0"/>
      <psa30 value="0.0173256555" flag="0"/>
    </comp>
    <comp name="--.HHZ">
      <acc value="0.1002519500" flag="0"/>
      <vel value="0.0937439877" flag="0"/>
      <psa03 value="0.2883982016" flag="0"/>
      <psa10 value="0.0693228538" flag="0"/>
      <psa30 value="0.0142906181" flag="0"/>
    </comp>
    <comp name="--.HHN">
      <acc value="0.2429409313" flag="0"/>
      <vel value="0.1735923077" flag="0"/>
      <psa03 value="0.9554258013" flag="0"/>
      <psa10 value="0.3076608148" flag="0"/>
      <psa30 value="0.0161961739" flag="0"/>
    </comp>
  </station>
  <station code="EFP" name="EFP" netid="HP" insttype="40," lat="38.4269" lon="21.9058">
    <comp name="--.HHE">
      <acc value="0.1043827897" flag="0"/>
      <vel value="0.1258958690" flag="0"/>
      <psa03 value="0.3348649958" flag="0"/>
      <psa10 value="0.1644747238" flag="0"/>
      <psa30 value="0.0241908810" flag="0"/>
    </comp>
    <comp name="--.HHZ">
      <acc value="0.0671000181" flag="0"/>
      <vel value="0.0634320651" flag="0"/>
      <psa03 value="0.1600256316" flag="0"/>
      <psa10 value="0.1356151600" flag="0"/>
      <psa30 value="0.0172901000" flag="0"/>
    </comp>
    <comp name="--.HHN">
      <acc value="0.1024250523" flag="0"/>
      <vel value="0.1221415951" flag="0"/>
      <psa03 value="0.2052423613" flag="0"/>
      <psa10 value="0.1661435808" flag="0"/>
      <psa30 value="0.0180856762" flag="0"/>
    </comp>
  </station>
  <station code="PLEV" name="PLEV" netid="HP" insttype="Compact," lat="38.4124" lon="21.4073">
    <comp name="--.HHN">
      <acc value="0.0308938498" flag="0"/>
      <vel value="0.0545432794" flag="0"/>
      <psa03 value="0.0513080112" flag="0"/>
      <psa10 value="0.0850009692" flag="0"/>
      <psa30 value="0.0092849013" flag="0"/>
    </comp>
    <comp name="--.HHE">
      <acc value="0.0320804463" flag="0"/>
      <vel value="0.0559234602" flag="0"/>
      <psa03 value="0.0596785159" flag="0"/>
      <psa10 value="0.0880983963" flag="0"/>
      <psa30 value="0.0092065910" flag="0"/>
    </comp>
    <comp name="--.HHZ">
      <acc value="0.0238196195" flag="0"/>
      <vel value="0.0404221193" flag="0"/>
      <psa03 value="0.0411665783" flag="0"/>
      <psa10 value="0.0581949510" flag="0"/>
      <psa30 value="0.0159158527" flag="0"/>
    </comp>
  </station>
  <station code="PRMD" name="PRMD" netid="HP" insttype="120P," lat="39.5299" lon="21.0965">
    <comp name="--.HHN">
      <acc value="0.1105740357" flag="0"/>
      <vel value="0.0776585096" flag="0"/>
      <psa03 value="0.5247178778" flag="0"/>
      <psa10 value="0.1046131632" flag="0"/>
