<stationlist created="1778136304">
	<station code="MALA" name="MALA" netid="CL" source="Corinth Riff Laboratory (CRLNET)" insttype="" lat="38.39341" lon="21.87263">
		<comp name="01.HNE" depth="0.0">
			<acc value="0.159039691575875" flag="0"/>
			<vel value="0.266582033587232" flag="0"/>
			<psa03 value="0.29435897734161" flag="0"/>
			<psa10 value="0.405917405635344" flag="0"/>
			<psa30 value="0.078774918660394" flag="0"/>
		</comp>
		<comp name="01.HNN" depth="0.0">
			<acc value="0.180733996876815" flag="0"/>
			<vel value="0.249506679980539" flag="0"/>
			<psa03 value="0.32335192723025" flag="0"/>
			<psa10 value="0.418191087754868" flag="0"/>
			<psa30 value="0.056525961575326" flag="0"/>
		</comp>
		<comp name="01.HNZ" depth="0.0">
			<acc value="0.0755732440943888" flag="0"/>
			<vel value="0.119233758409131" flag="0"/>
			<psa03 value="0.117090354720017" flag="0"/>
			<psa10 value="0.184391134493155" flag="0"/>
			<psa30 value="0.0320134962574396" flag="0"/>
		</comp>
	</station>
	<station code="ROD3" name="ROD3" netid="CL" source="Corinth Riff Laboratory (CRLNET)" insttype="" lat="38.30811" lon="21.89204">
		<comp name="00.HNE" depth="0.0">
			<acc value="0.0867295554828321" flag="0"/>
			<vel value="0.0944707250988761" flag="0"/>
			<psa03 value="0.223576806471504" flag="0"/>
			<psa10 value="0.0831493642014624" flag="0"/>
			<psa30 value="0.0202879061689891" flag="0"/>
		</comp>
		<comp name="00.HNN" depth="0.0">
			<acc value="0.0822073005401528" flag="0"/>
			<vel value="0.0854323323554617" flag="0"/>
			<psa03 value="0.398608318762183" flag="0"/>
			<psa10 value="0.0777816416734683" flag="0"/>
			<psa30 value="0.0150119051645625" flag="0"/>
		</comp>
		<comp name="00.HNZ" depth="0.0">
			<acc value="0.0294486269468053" flag="0"/>
			<vel value="0.0328496073414369" flag="0"/>
			<psa03 value="0.063712902224419" flag="0"/>
			<psa10 value="0.0908767907065041" flag="0"/>
			<psa30 value="0.00912964726045835" flag="0"/>
		</comp>
	</station>
	<station code="MMAA" name="MMAA" netid="EG" source="EUROSEISTEST Strong Motion Network" insttype="" lat="40.630855" lon="22.943725">
		<comp name="--.EN1" depth="0.0">
			<acc value="0.180246402393338" flag="0"/>
			<vel value="0.158748719057744" flag="0"/>
			<psa03 value="0.449368893484199" flag="0"/>
			<psa10 value="0.506311320641263" flag="0"/>
			<psa30 value="0.0213220558148968" flag="0"/>
		</comp>
		<comp name="--.EN2" depth="0.0">
			<acc value="0.145677015139538" flag="0"/>
			<vel value="0.176147692799748" flag="0"/>
			<psa03 value="0.353607633103565" flag="0"/>
			<psa10 value="0.423482613645491" flag="0"/>
			<psa30 value="0.0226821759161917" flag="0"/>
		</comp>
		<comp name="--.EN3" depth="0.0">
			<acc value="0.0913335795707226" flag="0"/>
			<vel value="0.0601682840462876" flag="0"/>
			<psa03 value="0.268165722996428" flag="0"/>
			<psa10 value="0.128075139349296" flag="0"/>
			<psa30 value="0.0143375614597529" flag="0"/>
		</comp>
	</station>
	<station code="PRR" name="PRR" netid="EG" source="EUROSEISTEST Strong Motion Network" insttype="" lat="40.682635" lon="23.300668">
		<comp name="--.EN1" depth="0.0">
			<acc value="0.0128580977406569" flag="0"/>
			<vel value="0.0108984605643757" flag="0"/>
			<psa03 value="0.0388140530113603" flag="0"/>
			<psa10 value="0.0144002423828654" flag="0"/>
			<psa30 value="0.00314661365604503" flag="0"/>
		</comp>
		<comp name="--.EN2" depth="0.0">
			<acc value="0.0348371802155679" flag="0"/>
			<vel value="0.0415514239641936" flag="0"/>
			<psa03 value="0.125459592332203" flag="0"/>
			<psa10 value="0.0804354109510199" flag="0"/>
			<psa30 value="0.00834186177405476" flag="0"/>
		</comp>
		<comp name="--.EN3" depth="0.0">
			<acc value="0.0178851797887767" flag="0"/>
			<vel value="0.033260061589573" flag="0"/>
			<psa03 value="0.0613892125675838" flag="0"/>
			<psa10 value="0.043074652234263" flag="0"/>
			<psa30 value="0.0102296001608148" flag="0"/>
		</comp>
	</station>
	<station code="STC" name="STC" netid="EG" source="EUROSEISTEST Strong Motion Network" insttype="" lat="40.64865" lon="23.304856">
		<comp name="--.EN1" depth="0.0">
			<acc value="0.193493740631882" flag="0"/>
			<vel value="0.176069696026391" flag="0"/>
			<psa03 value="0.522350978189107" flag="0"/>
			<psa10 value="0.244356827440583" flag="0"/>
			<psa30 value="0.0143597395956072" flag="0"/>
		</comp>
		<comp name="--.EN2" depth="0.0">
			<acc value="0.116180411030225" flag="0"/>
			<vel value="0.0921299159358357" flag="0"/>
			<psa03 value="0.240924980930731" flag="0"/>
			<psa10 value="0.105135139686892" flag="0"/>
			<psa30 value="0.015575095106955" flag="0"/>
		</comp>
		<comp name="--.EN3" depth="0.0">
			<acc value="0.0745881374884819" flag="0"/>
			<vel value="0.100567705643849" flag="0"/>
			<psa03 value="0.163074375793558" flag="0"/>
			<psa10 value="0.13125393992929" flag="0"/>
			<psa30 value="0.0152343141985465" flag="0"/>
		</comp>
	</station>
	<station code="TST" name="TST" netid="EG" source="EUROSEISTEST Strong Motion Network" insttype="" lat="40.6638" lon="23.2906">
		<comp name="00.EN1" depth="0.0">
			<acc value="0.126813084135477" flag="0"/>
			<vel value="0.160224389820459" flag="0"/>
			<psa03 value="0.222227096454323" flag="0"/>
			<psa10 value="0.220716776403044" flag="0"/>
			<psa30 value="0.018759746074443" flag="0"/>
		</comp>
		<comp name="00.EN2" depth="0.0">
			<acc value="0.0431749636245298" flag="0"/>
			<vel value="0.0556688234846462" flag="0"/>
			<psa03 value="0.13622208654468" flag="0"/>
			<psa10 value="0.0763019471296498" flag="0"/>
			<psa30 value="0.0086836085797701" flag="0"/>
		</comp>
		<comp name="00.EN3" depth="0.0">
			<acc value="0.0904425591183339" flag="0"/>
			<vel value="0.0939298358397902" flag="0"/>
			<psa03 value="0.232306576670527" flag="0"/>
			<psa10 value="0.213777886735807" flag="0"/>
			<psa30 value="0.0108307099813823" flag="0"/>
		</comp>
	</station>
	<station code="AIGS" name="AIGS" netid="HA" source="Hellenic Seismological Network, University of Athens, Seismological Laboratory (HA)" insttype="" lat="38.25001" lon="22.0878">
		<comp name="--.HNE" depth="0.0">
			<acc value="0.0738008369337901" flag="0"/>
			<vel value="0.110129386212587" flag="0"/>
			<psa03 value="0.175434192150244" flag="0"/>
			<psa10 value="0.163568558955078" flag="0"/>
			<psa30 value="0.0311316273649935" flag="0"/>
		</comp>
		<comp name="--.HNN" depth="0.0">
			<acc value="0.0683084058462029" flag="0"/>
			<vel value="0.0933105620112056" flag="0"/>
			<psa03 value="0.162637921057418" flag="0"/>
			<psa10 value="0.0956284130493646" flag="0"/>
			<psa30 value="0.0364085232135525" flag="0"/>
		</comp>
		<comp name="--.HNZ" depth="0.0">
			<acc value="0.0332673279812495" flag="0"/>
			<vel value="0.0515820078831187" flag="0"/>
			<psa03 value="0.0595518770089197" flag="0"/>
			<psa10 value="0.0891170797202075" flag="0"/>
			<psa30 value="0.0164217320951043" flag="0"/>
		</comp>
	</station>
	<station code="KIAS" name="KIAS" netid="HA" source="Hellenic Seismological Network, University of Athens, Seismological Laboratory (HA)" insttype="" lat="37.9875" lon="22.7543">
		<comp name="--.HNE" depth="0.0">
			<acc value="0.0471926205563925" flag="0"/>
			<vel value="0.0767489756052527" flag="0"/>
			<psa03 value="0.0953009000969188" flag="0"/>
			<psa10 value="0.0945170166369667" flag="0"/>
			<psa30 value="0.0196758327824512" flag="0"/>
		</comp>
		<comp name="--.HNN" depth="0.0">
			<acc value="0.0405923781272" flag="0"/>
			<vel value="0.0979093337458685" flag="0"/>
			<psa03 value="0.0811176205989267" flag="0"/>
			<psa10 value="0.11156245509233" flag="0"/>
			<psa30 value="0.0400934913506333" flag="0"/>
		</comp>
		<comp name="--.HNZ" depth="0.0">
			<acc value="0.0234314895916639" flag="0"/>
			<vel value="0.0404857240709652" flag="0"/>
			<psa03 value="0.0544512654544367" flag="0"/>
			<psa10 value="0.0580301945618323" flag="0"/>
			<psa30 value="0.0136700863880806" flag="0"/>
		</comp>
	</station>
	<station code="LTRS" name="LTRS" netid="HA" source="Hellenic Seismological Network, University of Athens, Seismological Laboratory (HA)" insttype="" lat="37.97528" lon="22.9765">
		<comp name="--.HNE" depth="0.0">
			<acc value="0.0422286785289319" flag="0"/>
			<vel value="0.0653719658824566" flag="0"/>
			<psa03 value="0.0885000846909415" flag="0"/>
			<psa10 value="0.115375833362405" flag="0"/>
			<psa30 value="0.0182029193405777" flag="0"/>
		</comp>
		<comp name="--.HNN" depth="0.0">
			<acc value="0.0481786085365288" flag="0"/>
			<vel value="0.057329130742614" flag="0"/>
			<psa03 value="0.0697531001178857" flag="0"/>
			<psa10 value="0.0969975245718837" flag="0"/>
			<psa30 value="0.013338099214973" flag="0"/>
		</comp>
		<comp name="--.HNZ" depth="0.0">
			<acc value="0.0366588100008262" flag="0"/>
			<vel value="0.0478152876167912" flag="0"/>
			<psa03 value="0.0607151743809948" flag="0"/>
			<psa10 value="0.0644609919190765" flag="0"/>
			<psa30 value="0.00667777433777706" flag="0"/>
		</comp>
	</station>
	<station code="XLKS" name="XLKS" netid="HA" source="Hellenic Seismological Network, University of Athens, Seismological Laboratory (HA)" insttype="" lat="38.0772" lon="22.6361">
		<comp name="--.HNE" depth="0.0">
			<acc value="0.12592044156126" flag="0"/>
			<vel value="0.149894208847721" flag="0"/>
			<psa03 value="0.236999468456985" flag="0"/>
			<psa10 value="0.284074533728334" flag="0"/>
			<psa30 value="0.028498101083442" flag="0"/>
		</comp>
		<comp name="--.HNN" depth="0.0">
			<acc value="0.0922876830263891" flag="0"/>
			<vel value="0.119685396035154" flag="0"/>
			<psa03 value="0.225008557083289" flag="0"/>
			<psa10 value="0.294564344069988" flag="0"/>
			<psa30 value="0.0340367388407179" flag="0"/>
		</comp>
		<comp name="--.HNZ" depth="0.0">
			<acc value="0.042872436273943" flag="0"/>
			<vel value="0.0481135762400774" flag="0"/>
			<psa03 value="0.111363352272878" flag="0"/>
			<psa10 value="0.0794447094934695" flag="0"/>
			<psa30 value="0.011628946922155" flag="0"/>
		</comp>
	</station>
	<station code="ART2" name="ART2" netid="HI" source="ITSAK Strong Motion Network" insttype="" lat="39.1474" lon="20.9937">
		<comp name="--.HNE" depth="0.0">
			<acc value="0.0283039827883661" flag="0"/>
			<vel value="0.0337377575959632" flag="0"/>
			<psa03 value="0.0799206745608823" flag="0"/>
			<psa10 value="0.0317461192745887" flag="0"/>
			<psa30 value="0.0139685003445835" flag="0"/>
		</comp>
		<comp name="--.HNN" depth="0.0">
			<acc value="0.0247128034652716" flag="0"/>
			<vel value="0.033797948063119" flag="0"/>
			<psa03 value="0.0602204736859233" flag="0"/>
			<psa10 value="0.0353434700814312" flag="0"/>
			<psa30 value="0.00978564325084036" flag="0"/>
		</comp>
		<comp name="--.HNZ" depth="0.0">
			<acc value="0.0192149891604679" flag="0"/>
			<vel value="0.0248995317018447" flag="0"/>
			<psa03 value="0.0685654171224114" flag="0"/>
			<psa10 value="0.0251443150624664" flag="0"/>
			<psa30 value="0.00619154807632281" flag="0"/>
		</comp>
	</station>
	<station code="KLV1" name="KLV1" netid="HI" source="ITSAK Strong Motion Network" insttype="" lat="38.03256" lon="22.10797">
		<comp name="--.HNE" depth="0.0">
			<acc value="0.0612201942877058" flag="0"/>
			<vel value="0.0733351931292462" flag="0"/>
			<psa03 value="0.178834599853232" flag="0"/>
			<psa10 value="0.137499064846876" flag="0"/>
			<psa30 value="0.00857215936599468" flag="0"/>
		</comp>
		<comp name="--.HNN" depth="0.0">
			<acc value="0.0667280322740526" flag="0"/>
			<vel value="0.0684338136576191" flag="0"/>
			<psa03 value="0.153152573254344" flag="0"/>
			<psa10 value="0.111433597537269" flag="0"/>
			<psa30 value="0.00725047458249094" flag="0"/>
		</comp>
		<comp name="--.HNZ" depth="0.0">
			<acc value="0.0253703132110286" flag="0"/>
			<vel value="0.0348415146647935" flag="0"/>
			<psa03 value="0.0552118829669474" flag="0"/>
			<psa10 value="0.0647146802306021" flag="0"/>
			<psa30 value="0.00774263885529193" flag="0"/>
		</comp>
	</station>
	<station code="KRK1" name="KRK1" netid="HI" source="ITSAK Strong Motion Network" insttype="" lat="39.618861" lon="19.9202">
		<comp name="--.HNE" depth="0.0">
			<acc value="0.0427862150559122" flag="0"/>
			<vel value="0.0335936837811605" flag="0"/>
			<psa03 value="0.119551176084022" flag="0"/>
			<psa10 value="0.0389874640030296" flag="0"/>
			<psa30 value="0.00666390425372539" flag="0"/>
		</comp>
		<comp name="--.HNN" depth="0.0">
			<acc value="0.0633193565550886" flag="0"/>
			<vel value="0.0536985931649805" flag="0"/>
			<psa03 value="0.107068100437524" flag="0"/>
			<psa10 value="0.0452652430136393" flag="0"/>
			<psa30 value="0.0143210854943764" flag="0"/>
		</comp>
		<comp name="--.HNZ" depth="0.0">
			<acc value="0.0345872509336373" flag="0"/>
			<vel value="0.0216369935138723" flag="0"/>
			<psa03 value="0.0618337295464516" flag="0"/>
			<psa10 value="0.0164414186660163" flag="0"/>
			<psa30 value="0.00475743882972083" flag="0"/>
		</comp>
	</station>
	<station code="LAM2" name="LAM2" netid="HI" source="ITSAK Strong Motion Network" insttype="" lat="38.90203" lon="22.431301">
		<comp name="--.HNE" depth="0.0">
			<acc value="0.197769947658629" flag="0"/>
			<vel value="0.164193506617945" flag="0"/>
			<psa03 value="0.618292553257897" flag="0"/>
			<psa10 value="0.167373883627962" flag="0"/>
			<psa30 value="0.013866952097201" flag="0"/>
		</comp>
		<comp name="--.HNN" depth="0.0">
			<acc value="0.228121800253543" flag="0"/>
			<vel value="0.268486343402871" flag="0"/>
			<psa03 value="0.46393194042486" flag="0"/>
			<psa10 value="0.306306488774887" flag="0"/>
			<psa30 value="0.0277580649859758" flag="0"/>
		</comp>
		<comp name="--.HNZ" depth="0.0">
			<acc value="0.169753551606021" flag="0"/>
			<vel value="0.207753483464891" flag="0"/>
			<psa03 value="0.288050326208434" flag="0"/>
			<psa10 value="0.246508529629567" flag="0"/>
			<psa30 value="0.0209317465222261" flag="0"/>
		</comp>
	</station>
	<station code="LMS2" name="LMS2" netid="HI" source="ITSAK Strong Motion Network" insttype="" lat="40.834985" lon="21.141815">
		<comp name="--.HNE" depth="0.0">
			<acc value="0.0488350235089095" flag="0"/>
			<vel value="0.026336048378925" flag="0"/>
			<psa03 value="0.0798200966069968" flag="0"/>
			<psa10 value="0.0317513069266566" flag="0"/>
			<psa30 value="0.0065471270944517" flag="0"/>
		</comp>
		<comp name="--.HNN" depth="0.0">
			<acc value="0.0593986627844922" flag="0"/>
			<vel value="0.0300562245225485" flag="0"/>
			<psa03 value="0.140177333335045" flag="0"/>
			<psa10 value="0.0385968645392521" flag="0"/>
			<psa30 value="0.00591581455906789" flag="0"/>
		</comp>
		<comp name="--.HNZ" depth="0.0">
			<acc value="0.0188457638168785" flag="0"/>
			<vel value="0.0294509983113502" flag="0"/>
			<psa03 value="0.047739934461696" flag="0"/>
			<psa10 value="0.0393337686822551" flag="0"/>
			<psa30 value="0.0107994264114523" flag="0"/>
		</comp>
	</station>
	<station code="MSL1" name="MSL1" netid="HI" source="ITSAK Strong Motion Network" insttype="" lat="38.3727" lon="21.4243">
		<comp name="--.HNE" depth="0.0">
			<acc value="0.177109807385668" flag="0"/>
			<vel value="0.330308661704132" flag="0"/>
			<psa03 value="0.223979486331068" flag="0"/>
			<psa10 value="0.414542808227214" flag="0"/>
			<psa30 value="0.0569362476100155" flag="0"/>
		</comp>
		<comp name="--.HNN" depth="0.0">
			<acc value="0.143337138883938" flag="0"/>
			<vel value="0.249440460270662" flag="0"/>
			<psa03 value="0.239236578787899" flag="0"/>
			<psa10 value="0.390313561077222" flag="0"/>
			<psa30 value="0.05769641770046" flag="0"/>
		</comp>
		<comp name="--.HNZ" depth="0.0">
			<acc value="0.0842565402342565" flag="0"/>
			<vel value="0.12221558169082" flag="0"/>
			<psa03 value="0.123667459092903" flag="0"/>
			<psa10 value="0.224542343290326" flag="0"/>
			<psa30 value="0.01729778450069" flag="0"/>
		</comp>
	</station>
	<station code="SKO1" name="SKO1" netid="HI" source="ITSAK Strong Motion Network" insttype="" lat="39.123383" lon="23.728705">
		<comp name="--.HNE" depth="0.0">
			<acc value="0.0448208244092532" flag="0"/>
			<vel value="0.0383268200218893" flag="0"/>
			<psa03 value="0.14782825066677" flag="0"/>
			<psa10 value="0.0672676705402407" flag="0"/>
			<psa30 value="0.004566837029527" flag="0"/>
		</comp>
		<comp name="--.HNN" depth="0.0">
			<acc value="0.0519764937553018" flag="0"/>
			<vel value="0.0497086995568349" flag="0"/>
			<psa03 value="0.0948982202373544" flag="0"/>
			<psa10 value="0.0552074087462855" flag="0"/>
			<psa30 value="0.00425722095972856" flag="0"/>
		</comp>
		<comp name="--.HNZ" depth="0.0">
			<acc value="0.0385265200822246" flag="0"/>
			<vel value="0.0324406158216245" flag="0"/>
			<psa03 value="0.0975380104278324" flag="0"/>
			<psa10 value="0.0333781335592969" flag="0"/>
			<psa30 value="0.00587823110550854" flag="0"/>
		</comp>
	</station>
	<station code="THS1" name="THS1" netid="HI" source="ITSAK Strong Motion Network" insttype="" lat="40.738476" lon="24.575145">
		<comp name="--.HNE" depth="0.0">
			<acc value="0.0134316965420662" flag="0"/>
			<vel value="0.0141235892673572" flag="0"/>
			<psa03 value="0.0385677821049503" flag="0"/>
			<psa10 value="0.0380129787428837" flag="0"/>
			<psa30 value="0.00289795272266546" flag="0"/>
		</comp>
		<comp name="--.HNN" depth="0.0">
			<acc value="0.0199494034036615" flag="0"/>
			<vel value="0.0164224757070252" flag="0"/>
			<psa03 value="0.0573595088846244" flag="0"/>
			<psa10 value="0.0418344106101503" flag="0"/>
			<psa30 value="0.00288005584001815" flag="0"/>
		</comp>
		<comp name="--.HNZ" depth="0.0">
			<acc value="0.00872196058860651" flag="0"/>
			<vel value="0.00932444846147157" flag="0"/>
			<psa03 value="0.0205366728377867" flag="0"/>
			<psa10 value="0.0145166089372983" flag="0"/>
			<psa30 value="0.00242368533251178" flag="0"/>
		</comp>
	</station>
	<station code="VAS2" name="VAS2" netid="HI" source="ITSAK Strong Motion Network" insttype="" lat="38.630558" lon="20.608081">
		<comp name="--.HNE" depth="0.0">
			<acc value="0.159745253227928" flag="0"/>
			<vel value="0.271304604955881" flag="0"/>
			<psa03 value="0.282368065967913" flag="0"/>
			<psa10 value="0.547088910801447" flag="0"/>
			<psa30 value="0.0487976402261519" flag="0"/>
		</comp>
		<comp name="--.HNN" depth="0.0">
			<acc value="0.196369309387345" flag="0"/>
			<vel value="0.337451532462154" flag="0"/>
			<psa03 value="0.298922682416674" flag="0"/>
			<psa10 value="0.738796738342889" flag="0"/>
			<psa30 value="0.0711490569643757" flag="0"/>
		</comp>
		<comp name="--.HNZ" depth="0.0">
			<acc value="0.0919803774231298" flag="0"/>
			<vel value="0.117119976027702" flag="0"/>
			<psa03 value="0.153421026494054" flag="0"/>
			<psa10 value="0.274144448391475" flag="0"/>
			<psa30 value="0.0168168057795436" flag="0"/>
		</comp>
	</station>
	<station code="VOL2" name="VOL2" netid="HI" source="ITSAK Strong Motion Network" insttype="" lat="39.366" lon="22.9506">
		<comp name="--.HNE" depth="0.0">
			<acc value="0.386260539207558" flag="0"/>
			<vel value="0.242123272419206" flag="0"/>
			<psa03 value="0.904016284722181" flag="0"/>
			<psa10 value="0.194031290331128" flag="0"/>
			<psa30 value="0.0193241590384316" flag="0"/>
		</comp>
		<comp name="--.HNN" depth="0.0">
			<acc value="0.289177084625866" flag="0"/>
			<vel value="0.22748301035735" flag="0"/>
			<psa03 value="0.934709438462315" flag="0"/>
			<psa10 value="0.15767735260965" flag="0"/>
			<psa30 value="0.0142893185276774" flag="0"/>
		</comp>
		<comp name="--.HNZ" depth="0.0">
			<acc value="0.111934027561807" flag="0"/>
			<vel value="0.0972652328525902" flag="0"/>
			<psa03 value="0.365633312484517" flag="0"/>
			<psa10 value="0.129207886538444" flag="0"/>
			<psa30 value="0.0109994240750359" flag="0"/>
		</comp>
	</station>
	<station code="DLFA" name="DLFA" netid="HL" source="National Observatory of Athens Seismic Network" insttype="" lat="38.47836" lon="22.49583">
		<comp name="00.HNE" depth="0.0">
			<acc value="0.147892105298285" flag="0"/>
