<?xml version="1.0" encoding="UTF-8" standalone="yes"?>
<!DOCTYPE earthquake SYSTEM "stationlist.dtd">
<stationlist created="" xmlns="ch.ethz.sed.shakemap.usgs.xml">
  <station code="CLDR" name="CLDR" netid="KO" insttype="CMG-3ESP" lat="39.144" lon="43.9172">
    <comp name="--.HHE">
      <acc value="0.0039216482" flag="0"/>
      <vel value="0.0030157675" flag="0"/>
      <psa03 value="0.0156861362" flag="0"/>
      <psa10 value="0.0064642328" flag="0"/>
      <psa30 value="0.0008412404" flag="0"/>
    </comp>
    <comp name="--.HHN">
      <acc value="0.0032004629" flag="0"/>
      <vel value="0.0036602083" flag="0"/>
      <psa03 value="0.0102762490" flag="0"/>
      <psa10 value="0.0073188236" flag="0"/>
      <psa30 value="0.0009900520" flag="0"/>
    </comp>
    <comp name="--.HHZ">
      <acc value="0.0016431384" flag="0"/>
      <vel value="0.0017595210" flag="0"/>
      <psa03 value="0.0055515097" flag="0"/>
      <psa10 value="0.0032780188" flag="0"/>
      <psa30 value="0.0005590753" flag="0"/>
    </comp>
  </station>
</stationlist>
