<?xml version="1.0" encoding="UTF-8" standalone="yes"?>
<!DOCTYPE earthquake SYSTEM "stationlist.dtd">
<stationlist created="" xmlns="ch.ethz.sed.shakemap.usgs.xml">
  <station code="CBAC" name="CBAC" netid="IV" insttype="" lat="40.8109" lon="14.0806">
    <comp name="--.HHE">
      <acc value="0.0042994319" flag="0"/>
      <vel value="0.0044371000" flag="0"/>
      <psa03 value="0.0111093761" flag="0"/>
      <psa10 value="0.0065507269" flag="0"/>
      <psa30 value="0.0014401495" flag="0"/>
    </comp>
    <comp name="--.HHN">
      <acc value="0.0049071327" flag="0"/>
      <vel value="0.0051661213" flag="0"/>
      <psa03 value="0.0086526604" flag="0"/>
      <psa10 value="0.0104220529" flag="0"/>
      <psa30 value="0.0011731578" flag="0"/>
    </comp>
    <comp name="--.HHZ">
      <acc value="0.0070220098" flag="0"/>
      <vel value="0.0025726561" flag="0"/>
      <psa03 value="0.0103275736" flag="0"/>
      <psa10 value="0.0044621534" flag="0"/>
      <psa30 value="0.0003769776" flag="0"/>
    </comp>
  </station>
  <station code="CERA" name="CERA" netid="IV" insttype="" lat="41.5978" lon="14.0183">
    <comp name="--.HHN">
      <acc value="0.0745836035" flag="0"/>
      <vel value="0.0432247568" flag="0"/>
      <psa03 value="0.1472194087" flag="0"/>
      <psa10 value="0.0390626679" flag="0"/>
      <psa30 value="0.0023945998" flag="0"/>
    </comp>
    <comp name="--.HHE">
      <acc value="0.0505819160" flag="0"/>
      <vel value="0.0320659708" flag="0"/>
      <psa03 value="0.1367067579" flag="0"/>
      <psa10 value="0.0515185690" flag="0"/>
      <psa30 value="0.0024681025" flag="0"/>
    </comp>
    <comp name="--.HHZ">
      <acc value="0.0486514087" flag="0"/>
      <vel value="0.0315169999" flag="0"/>
      <psa03 value="0.1442825095" flag="0"/>
      <psa10 value="0.0551576022" flag="0"/>
      <psa30 value="0.0034749485" flag="0"/>
    </comp>
  </station>
  <station code="CERT" name="CERT" netid="IV" insttype="" lat="41.949" lon="12.9818">
    <comp name="--.HHN">
      <acc value="0.0012086733" flag="0"/>
      <vel value="0.0012813771" flag="0"/>
      <psa03 value="0.0027920040" flag="0"/>
      <psa10 value="0.0012772490" flag="0"/>
      <psa30 value="0.0002331115" flag="0"/>
    </comp>
    <comp name="--.HHZ">
      <acc value="0.0011990393" flag="0"/>
      <vel value="0.0011850364" flag="0"/>
      <psa03 value="0.0021007818" flag="0"/>
      <psa10 value="0.0013673196" flag="0"/>
      <psa30 value="0.0001553029" flag="0"/>
    </comp>
  </station>
  <station code="CRTO" name="CRTO" netid="IV" insttype="" lat="40.8212" lon="14.4223">
    <comp name="--.HHE">
      <acc value="0.0300481027" flag="0"/>
      <vel value="0.0200959059" flag="0"/>
      <psa03 value="0.1005963822" flag="0"/>
      <psa10 value="0.0259016940" flag="0"/>
      <psa30 value="0.0012770426" flag="0"/>
    </comp>
    <comp name="--.HHN">
      <acc value="0.0268843250" flag="0"/>
      <vel value="0.0132646839" flag="0"/>
      <psa03 value="0.0754689006" flag="0"/>
      <psa10 value="0.0155456841" flag="0"/>
      <psa30 value="0.0011196296" flag="0"/>
    </comp>
    <comp name="--.HHZ">
      <acc value="0.0134495999" flag="0"/>
      <vel value="0.0058086632" flag="0"/>
      <psa03 value="0.0379541679" flag="0"/>
      <psa10 value="0.0028394942" flag="0"/>
      <psa30 value="0.0005985181" flag="0"/>
    </comp>
  </station>
  <station code="CSOB" name="CSOB" netid="IV" insttype="" lat="40.8265" lon="14.144">
    <comp name="--.HHZ">
      <acc value="0.0142630207" flag="0"/>
      <vel value="0.0061361820" flag="0"/>
      <psa03 value="0.0392462215" flag="0"/>
      <psa10 value="0.0064348443" flag="0"/>
      <psa30 value="0.0005677234" flag="0"/>
    </comp>
  </station>
  <station code="FAGN" name="FAGN" netid="IV" insttype="" lat="42.2657" lon="13.5838">
    <comp name="--.HHN">
      <acc value="0.0036055066" flag="0"/>
      <vel value="0.0024189210" flag="0"/>
      <psa03 value="0.0083790560" flag="0"/>
      <psa10 value="0.0020683754" flag="0"/>
      <psa30 value="0.0002834900" flag="0"/>
    </comp>
    <comp name="--.HHZ">
      <acc value="0.0028485819" flag="0"/>
      <vel value="0.0020567723" flag="0"/>
      <psa03 value="0.0086757274" flag="0"/>
      <psa10 value="0.0013356928" flag="0"/>
      <psa30 value="0.0003882151" flag="0"/>
    </comp>
    <comp name="--.HHE">
      <acc value="0.0039684066" flag="0"/>
      <vel value="0.0038917717" flag="0"/>
      <psa03 value="0.0116071849" flag="0"/>
      <psa10 value="0.0035459011" flag="0"/>
      <psa30 value="0.0004206199" flag="0"/>
    </comp>
  </station>
  <station code="FIAM" name="FIAM" netid="IV" insttype="" lat="42.268" lon="13.1172">
    <comp name="--.HHN">
      <acc value="0.0009394344" flag="0"/>
      <vel value="0.0010455283" flag="0"/>
      <psa03 value="0.0019460023" flag="0"/>
      <psa10 value="0.0017006361" flag="0"/>
      <psa30 value="0.0001950709" flag="0"/>
    </comp>
    <comp name="--.HHZ">
      <acc value="0.0009764251" flag="0"/>
      <vel value="0.0009648669" flag="0"/>
      <psa03 value="0.0020678442" flag="0"/>
      <psa10 value="0.0014363503" flag="0"/>
      <psa30 value="0.0001925010" flag="0"/>
    </comp>
    <comp name="--.HHE">
      <acc value="0.0010382708" flag="0"/>
      <vel value="0.0012644714" flag="0"/>
      <psa03 value="0.0026847278" flag="0"/>
      <psa10 value="0.0024036746" flag="0"/>
      <psa30 value="0.0003008938" flag="0"/>
    </comp>
  </station>
  <station code="GATE" name="GATE" netid="IV" insttype="" lat="41.5131" lon="14.9102">
    <comp name="--.HHE">
      <acc value="0.0017587717" flag="0"/>
      <vel value="0.0013173238" flag="0"/>
      <psa03 value="0.0054739664" flag="0"/>
      <psa10 value="0.0029580979" flag="0"/>
      <psa30 value="0.0004607228" flag="0"/>
    </comp>
    <comp name="--.HHZ">
      <acc value="0.0012388621" flag="0"/>
      <vel value="0.0011722769" flag="0"/>
      <psa03 value="0.0044354137" flag="0"/>
      <psa10 value="0.0016665947" flag="0"/>
      <psa30 value="0.0003157951" flag="0"/>
    </comp>
    <comp name="--.HHN">
      <acc value="0.0017120654" flag="0"/>
      <vel value="0.0014479293" flag="0"/>
      <psa03 value="0.0044139535" flag="0"/>
      <psa10 value="0.0023974050" flag="0"/>
      <psa30 value="0.0003140070" flag="0"/>
    </comp>
  </station>
  <station code="GIUL" name="GIUL" netid="IV" insttype="" lat="41.5583" lon="13.2546">
    <comp name="--.HHE">
      <acc value="0.0026188183" flag="0"/>
      <vel value="0.0012249212" flag="0"/>
      <psa03 value="0.0043106382" flag="0"/>
      <psa10 value="0.0017977369" flag="0"/>
      <psa30 value="0.0003641815" flag="0"/>
    </comp>
    <comp name="--.HHN">
      <acc value="0.0024689813" flag="0"/>
      <vel value="0.0020468536" flag="0"/>
      <psa03 value="0.0055318383" flag="0"/>
      <psa10 value="0.0028728934" flag="0"/>
      <psa30 value="0.0004389446" flag="0"/>
    </comp>
    <comp name="--.HHZ">
      <acc value="0.0017423837" flag="0"/>
      <vel value="0.0012101186" flag="0"/>
      <psa03 value="0.0032272265" flag="0"/>
      <psa10 value="0.0018638795" flag="0"/>
      <psa30 value="0.0004260130" flag="0"/>
    </comp>
  </station>
  <station code="GUAR" name="GUAR" netid="IV" insttype="" lat="41.7945" lon="13.3123">
    <comp name="--.HHN">
      <acc value="0.0040930165" flag="0"/>
      <vel value="0.0030519227" flag="0"/>
      <psa03 value="0.0131146467" flag="0"/>
      <psa10 value="0.0026812147" flag="0"/>
      <psa30 value="0.0003005764" flag="0"/>
    </comp>
    <comp name="--.HHZ">
      <acc value="0.0027261495" flag="0"/>
      <vel value="0.0018647694" flag="0"/>
      <psa03 value="0.0085720978" flag="0"/>
      <psa10 value="0.0030466225" flag="0"/>
      <psa30 value="0.0003327664" flag="0"/>
    </comp>
  </station>
  <station code="IFOR" name="IFOR" netid="IV" insttype="" lat="40.7115" lon="13.8552">
    <comp name="--.HHE">
      <acc value="9567.7686726689" flag="0"/>
      <vel value="4026.0304875247" flag="0"/>
      <psa03 value="30160.3656570126" flag="0"/>
      <psa10 value="6924.0635862814" flag="0"/>
      <psa30 value="249.5028989829" flag="0"/>
    </comp>
    <comp name="--.HHN">
      <acc value="11021.7226273174" flag="0"/>
      <vel value="7342.1274608457" flag="0"/>
      <psa03 value="33607.0167859861" flag="0"/>
      <psa10 value="13907.5636565413" flag="0"/>
      <psa30 value="453.8872045869" flag="0"/>
    </comp>
    <comp name="--.HHZ">
      <acc value="6127.1754762549" flag="0"/>
      <vel value="2259.0362658763" flag="0"/>
      <psa03 value="10793.0761788013" flag="0"/>
      <psa10 value="2646.9598196300" flag="0"/>
      <psa30 value="122.4221409411" flag="0"/>
    </comp>
  </station>
  <station code="IMTC" name="IMTC" netid="IV" insttype="" lat="40.7209" lon="13.8758">
    <comp name="--.HHE">
      <acc value="1934.1303565709" flag="0"/>
      <vel value="835.3451024116" flag="0"/>
      <psa03 value="4479.6230775758" flag="0"/>
      <psa10 value="1836.2932083652" flag="0"/>
      <psa30 value="95.2674512235" flag="0"/>
    </comp>
    <comp name="--.HHN">
      <acc value="2481.8045934613" flag="0"/>
      <vel value="1171.0801426008" flag="0"/>
      <psa03 value="4377.0950123501" flag="0"/>
      <psa10 value="1484.6903173833" flag="0"/>
      <psa30 value="142.7722730034" flag="0"/>
    </comp>
    <comp name="--.HHZ">
      <acc value="1837.7239170893" flag="0"/>
      <vel value="763.2881251121" flag="0"/>
      <psa03 value="4563.3445769655" flag="0"/>
      <psa10 value="1241.4066257014" flag="0"/>
      <psa30 value="90.3300167202" flag="0"/>
    </comp>
  </station>
  <station code="INTR" name="INTR" netid="IV" insttype="" lat="42.0115" lon="13.9046">
    <comp name="--.HHN">
      <acc value="0.0083947118" flag="0"/>
      <vel value="0.0061495884" flag="0"/>
      <psa03 value="0.0190491527" flag="0"/>
      <psa10 value="0.0087622094" flag="0"/>
      <psa30 value="0.0005970676" flag="0"/>
    </comp>
    <comp name="--.HHZ">
      <acc value="0.0044957926" flag="0"/>
      <vel value="0.0025000388" flag="0"/>
      <psa03 value="0.0114811161" flag="0"/>
      <psa10 value="0.0030803804" flag="0"/>
      <psa30 value="0.0003033946" flag="0"/>
    </comp>
    <comp name="--.HHE">
      <acc value="0.0067734635" flag="0"/>
      <vel value="0.0054194176" flag="0"/>
      <psa03 value="0.0220738208" flag="0"/>
      <psa10 value="0.0065538268" flag="0"/>
      <psa30 value="0.0004465924" flag="0"/>
    </comp>
  </station>
  <station code="IOCA" name="IOCA" netid="IV" insttype="" lat="40.7468" lon="13.9014">
    <comp name="--.HHN">
      <acc value="0.0155823051" flag="0"/>
      <vel value="0.0095294880" flag="0"/>
      <psa03 value="0.0474637806" flag="0"/>
      <psa10 value="0.0070881014" flag="0"/>
      <psa30 value="0.0005332702" flag="0"/>
    </comp>
    <comp name="--.HHZ">
      <acc value="0.0114667885" flag="0"/>
      <vel value="0.0040197587" flag="0"/>
      <psa03 value="0.0174251316" flag="0"/>
      <psa10 value="0.0024212268" flag="0"/>
      <psa30 value="0.0002827949" flag="0"/>
    </comp>
  </station>
  <station code="LPEL" name="LPEL" netid="IV" insttype="" lat="42.0468" lon="14.1832">
    <comp name="--.HHE">
      <acc value="0.0047543890" flag="0"/>
      <vel value="0.0016877126" flag="0"/>
      <psa03 value="0.0119147061" flag="0"/>
      <psa10 value="0.0021564727" flag="0"/>
      <psa30 value="0.0003223927" flag="0"/>
    </comp>
    <comp name="--.HHZ">
      <acc value="0.0033481125" flag="0"/>
      <vel value="0.0014487288" flag="0"/>
      <psa03 value="0.0050383737" flag="0"/>
      <psa10 value="0.0026464061" flag="0"/>
      <psa30 value="0.0003512134" flag="0"/>
    </comp>
    <comp name="--.HHN">
      <acc value="0.0044710723" flag="0"/>
      <vel value="0.0017158176" flag="0"/>
      <psa03 value="0.0103137721" flag="0"/>
      <psa10 value="0.0034156069" flag="0"/>
      <psa30 value="0.0003439902" flag="0"/>
    </comp>
  </station>
  <station code="MOCO" name="MOCO" netid="IV" insttype="" lat="41.37" lon="15.158">
    <comp name="--.HHE">
      <acc value="0.0010284616" flag="0"/>
      <vel value="0.0012288127" flag="0"/>
      <psa03 value="0.0025293877" flag="0"/>
      <psa10 value="0.0015451465" flag="0"/>
      <psa30 value="0.0004165432" flag="0"/>
    </comp>
    <comp name="--.HHN">
      <acc value="0.0007164364" flag="0"/>
      <vel value="0.0011719911" flag="0"/>
      <psa03 value="0.0014864330" flag="0"/>
      <psa10 value="0.0009130439" flag="0"/>
      <psa30 value="0.0005386461" flag="0"/>
    </comp>
    <comp name="--.HHZ">
      <acc value="0.0006003763" flag="0"/>
      <vel value="0.0004900767" flag="0"/>
      <psa03 value="0.0012661693" flag="0"/>
      <psa10 value="0.0005236303" flag="0"/>
      <psa30 value="0.0003575992" flag="0"/>
    </comp>
  </station>
  <station code="MRB1" name="MRB1" netid="IV" insttype="" lat="41.1227" lon="14.9681">
    <comp name="--.HHE">
      <acc value="0.0036760059" flag="0"/>
      <vel value="0.0041899656" flag="0"/>
      <psa03 value="0.0092783543" flag="0"/>
      <psa10 value="0.0068067277" flag="0"/>
      <psa30 value="0.0008170010" flag="0"/>
    </comp>
    <comp name="--.HHN">
      <acc value="0.0046823299" flag="0"/>
      <vel value="0.0041252878" flag="0"/>
      <psa03 value="0.0099877281" flag="0"/>
      <psa10 value="0.0067669545" flag="0"/>
      <psa30 value="0.0007187648" flag="0"/>
    </comp>
    <comp name="--.HHZ">
      <acc value="0.0019108695" flag="0"/>
      <vel value="0.0016291884" flag="0"/>
      <psa03 value="0.0053489414" flag="0"/>
      <psa10 value="0.0040694091" flag="0"/>
      <psa30 value="0.0004003517" flag="0"/>
    </comp>
  </station>
  <station code="MTCE" name="MTCE" netid="IV" insttype="" lat="42.0228" lon="12.7422">
    <comp name="--.HHE">
      <acc value="0.0006611535" flag="0"/>
      <vel value="0.0007412103" flag="0"/>
      <psa03 value="0.0016795022" flag="0"/>
      <psa10 value="0.0013447252" flag="0"/>
      <psa30 value="0.0001493962" flag="0"/>
    </comp>
    <comp name="--.HHZ">
      <acc value="0.0005053472" flag="0"/>
      <vel value="0.0004784897" flag="0"/>
      <psa03 value="0.0007577065" flag="0"/>
      <psa10 value="0.0011302613" flag="0"/>
      <psa30 value="0.0001650354" flag="0"/>
    </comp>
    <comp name="--.HHN">
      <acc value="0.0006470251" flag="0"/>
      <vel value="0.0006177620" flag="0"/>
      <psa03 value="0.0011929194" flag="0"/>
      <psa10 value="0.0012127393" flag="0"/>
      <psa30 value="0.0002564387" flag="0"/>
    </comp>
  </station>
  <station code="OVO" name="OVO" netid="IV" insttype="" lat="40.8275" lon="14.3967">
    <comp name="--.HHN">
      <acc value="0.0084098003" flag="0"/>
      <vel value="0.0086675980" flag="0"/>
      <psa03 value="0.0216637709" flag="0"/>
      <psa10 value="0.0081457428" flag="0"/>
      <psa30 value="0.0010780262" flag="0"/>
    </comp>
    <comp name="--.HHZ">
      <acc value="0.0075583187" flag="0"/>
      <vel value="0.0048502164" flag="0"/>
      <psa03 value="0.0237473750" flag="0"/>
      <psa10 value="0.0039303728" flag="0"/>
      <psa30 value="0.0005195639" flag="0"/>
    </comp>
    <comp name="--.HHE">
      <acc value="0.0063744931" flag="0"/>
      <vel value="0.0047203426" flag="0"/>
      <psa03 value="0.0181899224" flag="0"/>
      <psa10 value="0.0080488052" flag="0"/>
      <psa30 value="0.0005445365" flag="0"/>
    </comp>
  </station>
  <station code="PAOL" name="PAOL" netid="IV" insttype="" lat="41.0312" lon="14.5675">
    <comp name="--.HHE">
      <acc value="0.0072141931" flag="0"/>
      <vel value="0.0046193669" flag="0"/>
      <psa03 value="0.0162535791" flag="0"/>
      <psa10 value="0.0036304011" flag="0"/>
      <psa30 value="0.0003688009" flag="0"/>
    </comp>
    <comp name="--.HHN">
      <acc value="0.0056365599" flag="0"/>
      <vel value="0.0032474195" flag="0"/>
      <psa03 value="0.0128841855" flag="0"/>
      <psa10 value="0.0043358574" flag="0"/>
      <psa30 value="0.0003851763" flag="0"/>
    </comp>
    <comp name="--.HHZ">
      <acc value="0.0024279939" flag="0"/>
      <vel value="0.0021571285" flag="0"/>
      <psa03 value="0.0060019334" flag="0"/>
      <psa10 value="0.0016011834" flag="0"/>
      <psa30 value="0.0006130157" flag="0"/>
    </comp>
  </station>
  <station code="PIGN" name="PIGN" netid="IV" insttype="" lat="41.2" lon="14.1799">
    <comp name="--.HHE">
      <acc value="0.0352923228" flag="0"/>
      <vel value="0.0134840647" flag="0"/>
      <psa03 value="0.0511989027" flag="0"/>
      <psa10 value="0.0085979769" flag="0"/>
      <psa30 value="0.0010635010" flag="0"/>
    </comp>
    <comp name="--.HHN">
      <acc value="0.0358887840" flag="0"/>
      <vel value="0.0168099476" flag="0"/>
      <psa03 value="0.0823331561" flag="0"/>
      <psa10 value="0.0154928349" flag="0"/>
      <psa30 value="0.0013129106" flag="0"/>
    </comp>
    <comp name="--.HHZ">
      <acc value="0.0180909639" flag="0"/>
      <vel value="0.0074663654" flag="0"/>
      <psa03 value="0.0352425971" flag="0"/>
      <psa10 value="0.0050430795" flag="0"/>
      <psa30 value="0.0007235154" flag="0"/>
    </comp>
  </station>
  <station code="POFI" name="POFI" netid="IV" insttype="" lat="41.7174" lon="13.712">
    <comp name="--.HHZ">
      <acc value="0.0033409388" flag="0"/>
      <vel value="0.0024360334" flag="0"/>
      <psa03 value="0.0082388668" flag="0"/>
      <psa10 value="0.0041297628" flag="0"/>
      <psa30 value="0.0007794391" flag="0"/>
    </comp>
    <comp name="--.HHE">
      <acc value="0.0050642330" flag="0"/>
      <vel value="0.0032626144" flag="0"/>
      <psa03 value="0.0131901781" flag="0"/>
      <psa10 value="0.0042347186" flag="0"/>
      <psa30 value="0.0006874371" flag="0"/>
    </comp>
  </station>
  <station code="PTMR" name="PTMR" netid="IV" insttype="" lat="40.7614" lon="14.0349">
    <comp name="--.HHE">
      <acc value="0.0163943135" flag="0"/>
      <vel value="0.0123707137" flag="0"/>
      <psa03 value="0.0368679462" flag="0"/>
      <psa10 value="0.0124354261" flag="0"/>
      <psa30 value="0.0008627245" flag="0"/>
    </comp>
    <comp name="--.HHN">
      <acc value="0.0202480960" flag="0"/>
      <vel value="0.0076128409" flag="0"/>
      <psa03 value="0.0254116055" flag="0"/>
      <psa10 value="0.0123771801" flag="0"/>
      <psa30 value="0.0007792669" flag="0"/>
    </comp>
    <comp name="--.HHZ">
      <acc value="0.0138152034" flag="0"/>
      <vel value="0.0062713559" flag="0"/>
      <psa03 value="0.0543536430" flag="0"/>
      <psa10 value="0.0048988573" flag="0"/>
      <psa30 value="0.0003497596" flag="0"/>
    </comp>
  </station>
  <station code="PTQR" name="PTQR" netid="IV" insttype="" lat="42.0219" lon="13.4006">
    <comp name="--.HHE">
      <acc value="0.0015738878" flag="0"/>
      <vel value="0.0008845707" flag="0"/>
      <psa03 value="0.0051844894" flag="0"/>
      <psa10 value="0.0014736548" flag="0"/>
      <psa30 value="0.0003128431" flag="0"/>
    </comp>
    <comp name="--.HHZ">
      <acc value="0.0015911462" flag="0"/>
      <vel value="0.0011368479" flag="0"/>
      <psa03 value="0.0024562637" flag="0"/>
      <psa10 value="0.0012827466" flag="0"/>
      <psa30 value="0.0002755787" flag="0"/>
    </comp>
    <comp name="--.HHN">
      <acc value="0.0017641026" flag="0"/>
      <vel value="0.0008690218" flag="0"/>
      <psa03 value="0.0042760674" flag="0"/>
      <psa10 value="0.0012072025" flag="0"/>
      <psa30 value="0.0003524754" flag="0"/>
    </comp>
  </station>
  <station code="PTRJ" name="PTRJ" netid="IV" insttype="" lat="41.3641" lon="14.529">
    <comp name="--.HHE">
      <acc value="0.0001869383" flag="0"/>
      <vel value="0.0000221110" flag="0"/>
      <psa03 value="0.0000986838" flag="0"/>
      <psa10 value="0.0000455276" flag="0"/>
      <psa30 value="0.0000051084" flag="0"/>
