<stationlist created="1738818143">
	<station code="BODA" name="BODA" netid="KO" source="Bogazici University Kandilli Observatory And Earthquake Research Institute (KOERI)" insttype="" lat="37.0348" lon="27.4304">
		<comp name=".HNE" depth="0.0">
			<acc value="0.0053313041920344" flag="0"/>
			<vel value="0.00251929476519" flag="0"/>
			<psa03 value="0.0150549035634539" flag="0"/>
			<psa10 value="0.00302417291474036" flag="0"/>
			<psa30 value="0.000309335674262002" flag="0"/>
		</comp>
		<comp name=".HNN" depth="0.0">
			<acc value="0.005720942912016" flag="0"/>
			<vel value="0.00333727059604" flag="0"/>
			<psa03 value="0.0143106472288912" flag="0"/>
			<psa10 value="0.0035452802480401" flag="0"/>
			<psa30 value="0.000343284225270309" flag="0"/>
		</comp>
		<comp name=".HNZ" depth="0.0">
			<acc value="0.004407878279319" flag="0"/>
			<vel value="0.00211914814081" flag="0"/>
			<psa03 value="0.00433747971955551" flag="0"/>
			<psa10 value="0.00201279677541002" flag="0"/>
			<psa30 value="0.000268238029869844" flag="0"/>
		</comp>
	</station>
	<station code="BODM" name="BODM" netid="KO" source="Bogazici University Kandilli Observatory And Earthquake Research Institute (KOERI)" insttype="" lat="37.031" lon="27.4247">
		<comp name=".HNE" depth="0.0">
			<acc value="0.007562687128002" flag="0"/>
			<vel value="0.00502006577604" flag="0"/>
			<psa03 value="0.0240771913499211" flag="0"/>
			<psa10 value="0.0040256535547902" flag="0"/>
			<psa30 value="0.000293891942857116" flag="0"/>
		</comp>
		<comp name=".HNN" depth="0.0">
			<acc value="0.009834853055592" flag="0"/>
			<vel value="0.00706876668343" flag="0"/>
			<psa03 value="0.0203144394819295" flag="0"/>
			<psa10 value="0.00527599669638745" flag="0"/>
			<psa30 value="0.000446836840330863" flag="0"/>
		</comp>
		<comp name=".HNZ" depth="0.0">
			<acc value="0.001871817859929" flag="0"/>
			<vel value="0.00167496608754" flag="0"/>
			<psa03 value="0.0039990282623499" flag="0"/>
			<psa10 value="0.0019119270464083" flag="0"/>
			<psa30 value="0.000264893615610267" flag="0"/>
		</comp>
	</station>
	<station code="CESE" name="CESE" netid="KO" source="Bogazici University Kandilli Observatory And Earthquake Research Institute (KOERI)" insttype="" lat="38.3306" lon="26.2997">
		<comp name=".HNE" depth="0.0">
			<acc value="0.036538806500076" flag="0"/>
			<vel value="0.00268704820295" flag="0"/>
			<psa03 value="0.00246985534756418" flag="0"/>
			<psa10 value="0.00231297158239239" flag="0"/>
			<psa30 value="0.000792240867486849" flag="0"/>
		</comp>
		<comp name=".HNN" depth="0.0">
			<acc value="0.027677592012192" flag="0"/>
			<vel value="0.00341725303494" flag="0"/>
			<psa03 value="0.00370499348450951" flag="0"/>
			<psa10 value="0.00318978646394904" flag="0"/>
			<psa30 value="0.00101616262828646" flag="0"/>
		</comp>
		<comp name=".HNZ" depth="0.0">
			<acc value="0.0052325160268986" flag="0"/>
			<vel value="0.00109711943937" flag="0"/>
			<psa03 value="0.0027087049917985" flag="0"/>
			<psa10 value="0.0017805904163128" flag="0"/>
			<psa30 value="0.000363070952710285" flag="0"/>
		</comp>
	</station>
	<station code="DATC" name="DATC" netid="KO" source="Bogazici University Kandilli Observatory And Earthquake Research Institute (KOERI)" insttype="" lat="36.7584" lon="27.6602">
		<comp name=".HNE" depth="0.0">
			<acc value="0.18634660102302" flag="0"/>
			<vel value="0.0170204813469" flag="0"/>
			<psa03 value="0.0237753614593642" flag="0"/>
			<psa10 value="0.00800042842660594" flag="0"/>
			<psa30 value="0.000953404512536655" flag="0"/>
		</comp>
		<comp name=".HNN" depth="0.0">
			<acc value="0.23869413018138" flag="0"/>
			<vel value="0.0206894619676" flag="0"/>
			<psa03 value="0.0301905937286445" flag="0"/>
			<psa10 value="0.00954816158134094" flag="0"/>
			<psa30 value="0.000993115580699359" flag="0"/>
		</comp>
		<comp name=".HNZ" depth="0.0">
			<acc value="0.20330674069326" flag="0"/>
			<vel value="0.0351693660638" flag="0"/>
			<psa03 value="0.0342599466366457" flag="0"/>
			<psa10 value="0.0104106615302204" flag="0"/>
			<psa30 value="0.000959097181313299" flag="0"/>
		</comp>
	</station>
	<station code="DIDI" name="DIDI" netid="KO" source="Bogazici University Kandilli Observatory And Earthquake Research Institute (KOERI)" insttype="" lat="37.3767" lon="27.2398">
		<comp name=".HNE" depth="0.0">
			<acc value="0.012218105567604" flag="0"/>
			<vel value="0.00670095209487" flag="0"/>
			<psa03 value="0.0455330059213689" flag="0"/>
			<psa10 value="0.0105047674517941" flag="0"/>
			<psa30 value="0.00123580051155185" flag="0"/>
		</comp>
		<comp name=".HNN" depth="0.0">
			<acc value="0.017567701814154" flag="0"/>
			<vel value="0.0112855540094" flag="0"/>
			<psa03 value="0.0483379521520329" flag="0"/>
			<psa10 value="0.0147719173170388" flag="0"/>
			<psa30 value="0.00152056406323987" flag="0"/>
		</comp>
		<comp name=".HNZ" depth="0.0">
			<acc value="0.022567423752042" flag="0"/>
			<vel value="0.00531356517652" flag="0"/>
			<psa03 value="0.0238495122047969" flag="0"/>
			<psa10 value="0.00766030245744109" flag="0"/>
			<psa30 value="0.000707065850059129" flag="0"/>
		</comp>
	</station>
	<station code="GMLD" name="GMLD" netid="KO" source="Bogazici University Kandilli Observatory And Earthquake Research Institute (KOERI)" insttype="" lat="38.0766" lon="26.9157">
		<comp name=".HNE" depth="0.0">
			<acc value="0.01443446829051" flag="0"/>
			<vel value="0.00729139458961" flag="0"/>
			<psa03 value="0.02610536216462" flag="0"/>
			<psa10 value="0.00535350354960662" flag="0"/>
			<psa30 value="0.00054730537087674" flag="0"/>
		</comp>
		<comp name=".HNN" depth="0.0">
			<acc value="0.01304203558698" flag="0"/>
			<vel value="0.00689667313708" flag="0"/>
			<psa03 value="0.0216671684165047" flag="0"/>
			<psa10 value="0.0086710056615818" flag="0"/>
			<psa30 value="0.000524337859810138" flag="0"/>
		</comp>
		<comp name=".HNZ" depth="0.0">
			<acc value="0.0097565731110894" flag="0"/>
			<vel value="0.00255020332343" flag="0"/>
			<psa03 value="0.0215012628948282" flag="0"/>
			<psa10 value="0.00257499159617986" flag="0"/>
			<psa30 value="0.000469795288299316" flag="0"/>
		</comp>
	</station>
	<station code="KUSD" name="KUSD" netid="KO" source="Bogazici University Kandilli Observatory And Earthquake Research Institute (KOERI)" insttype="" lat="37.8606" lon="27.2868">
		<comp name=".HNE" depth="0.0">
			<acc value="0.016322429032896" flag="0"/>
			<vel value="0.00207036102214" flag="0"/>
			<psa03 value="0.00789013531296677" flag="0"/>
			<psa10 value="0.00268746951603927" flag="0"/>
			<psa30 value="0.000579432915837632" flag="0"/>
		</comp>
		<comp name=".HNN" depth="0.0">
			<acc value="0.04259998318749" flag="0"/>
			<vel value="0.00252380187563" flag="0"/>
			<psa03 value="0.0057569308475758" flag="0"/>
			<psa10 value="0.00345838722617958" flag="0"/>
			<psa30 value="0.000635393185430891" flag="0"/>
		</comp>
		<comp name=".HNZ" depth="0.0">
			<acc value="0.0074122401759354" flag="0"/>
			<vel value="0.00151685343097" flag="0"/>
			<psa03 value="0.00424084734157249" flag="0"/>
			<psa10 value="0.00172057647974829" flag="0"/>
			<psa30 value="0.000363945567941161" flag="0"/>
		</comp>
	</station>
	<station code="YKAV" name="YKAV" netid="KO" source="Bogazici University Kandilli Observatory And Earthquake Research Institute (KOERI)" insttype="" lat="37.1246" lon="27.2801">
		<comp name=".HNE" depth="0.0">
			<acc value="0.0079766710384188" flag="0"/>
			<vel value="0.0065416373519" flag="0"/>
			<psa03 value="0.0231528280320697" flag="0"/>
			<psa10 value="0.00795643332466027" flag="0"/>
			<psa30 value="0.000659106631331419" flag="0"/>
		</comp>
		<comp name=".HNN" depth="0.0">
			<acc value="0.0090584356825524" flag="0"/>
			<vel value="0.00342165089757" flag="0"/>
			<psa03 value="0.0259904613238294" flag="0"/>
			<psa10 value="0.00553511214275369" flag="0"/>
			<psa30 value="0.00051324399989425" flag="0"/>
		</comp>
		<comp name=".HNZ" depth="0.0">
			<acc value="0.0075901006012758" flag="0"/>
			<vel value="0.00313734826985" flag="0"/>
			<psa03 value="0.0125046083168277" flag="0"/>
			<psa10 value="0.00474816657398318" flag="0"/>
			<psa30 value="0.000516815955271034" flag="0"/>
		</comp>
	</station>
</stationlist>
