<?xml version="1.0" encoding="UTF-8" standalone="yes"?>
<!DOCTYPE earthquake SYSTEM "stationlist.dtd">
<stationlist created="" xmlns="ch.ethz.sed.shakemap.usgs.xml">
  <station code="THERA" name="THERA" netid="GE" insttype="STS-2/N" lat="36.367" lon="25.4753">
    <comp name="--.HHZ">
      <acc value="0.2432472900" flag="0"/>
      <vel value="0.0631052126" flag="0"/>
      <psa03 value="0.1817476001" flag="0"/>
      <psa10 value="0.0316937276" flag="0"/>
      <psa30 value="0.0024627758" flag="0"/>
    </comp>
    <comp name="--.HHE">
      <acc value="0.2654503864" flag="0"/>
      <vel value="0.0690833089" flag="0"/>
      <psa03 value="0.1939422143" flag="0"/>
      <psa10 value="0.0536107633" flag="0"/>
      <psa30 value="0.0039060477" flag="0"/>
    </comp>
    <comp name="--.HHN">
      <acc value="0.2040300487" flag="0"/>
      <vel value="0.0550139711" flag="0"/>
      <psa03 value="0.1792522572" flag="0"/>
      <psa10 value="0.0145485187" flag="0"/>
      <psa30 value="0.0012758632" flag="0"/>
    </comp>
  </station>
</stationlist>
