<?xml version="1.0" encoding="UTF-8" standalone="yes"?>
<!DOCTYPE earthquake SYSTEM "stationlist.dtd">
<stationlist created="" xmlns="ch.ethz.sed.shakemap.usgs.xml">
  <station code="THERA" name="THERA" netid="GE" insttype="STS-2/N" lat="36.367" lon="25.4753">
    <comp name="--.HHE">
      <acc value="0.2654503871" flag="0"/>
      <vel value="0.0690832996" flag="0"/>
      <psa03 value="0.1939422143" flag="0"/>
      <psa10 value="0.0536107973" flag="0"/>
      <psa30 value="0.0039166345" flag="0"/>
    </comp>
    <comp name="--.HHN">
      <acc value="0.2040300494" flag="0"/>
      <vel value="0.0550139618" flag="0"/>
      <psa03 value="0.1792522572" flag="0"/>
      <psa10 value="0.0145482854" flag="0"/>
      <psa30 value="0.0012785978" flag="0"/>
    </comp>
    <comp name="--.HHZ">
      <acc value="0.2432472897" flag="0"/>
      <vel value="0.0631051704" flag="0"/>
      <psa03 value="0.1817476001" flag="0"/>
      <psa10 value="0.0316935805" flag="0"/>
      <psa30 value="0.0024665375" flag="0"/>
    </comp>
  </station>
  <station code="SNT1" name="SNT1" netid="HA" insttype="30" lat="36.4159" lon="25.4282">
    <comp name="--.HHN">
      <acc value="0.2048523221" flag="0"/>
      <vel value="0.0913786182" flag="0"/>
      <psa03 value="0.3409740609" flag="0"/>
      <psa10 value="0.0897206161" flag="0"/>
      <psa30 value="0.0057637663" flag="0"/>
    </comp>
    <comp name="--.HHZ">
      <acc value="0.1583638828" flag="0"/>
      <vel value="0.0502263110" flag="0"/>
      <psa03 value="0.3791167347" flag="0"/>
      <psa10 value="0.0348596845" flag="0"/>
      <psa30 value="0.0028083951" flag="0"/>
    </comp>
    <comp name="--.HHE">
      <acc value="0.2802194199" flag="0"/>
      <vel value="0.1122411756" flag="0"/>
      <psa03 value="0.4168740216" flag="0"/>
      <psa10 value="0.0814706622" flag="0"/>
      <psa30 value="0.0069654835" flag="0"/>
    </comp>
  </station>
  <station code="THERA" name="THERA" netid="HL" insttype="120" lat="36.367" lon="25.4753">
    <comp name="--.HHN">
      <acc value="0.1968916462" flag="0"/>
      <vel value="0.0540782799" flag="0"/>
      <psa03 value="0.1732426012" flag="0"/>
      <psa10 value="0.0144674467" flag="0"/>
      <psa30 value="0.0012697524" flag="0"/>
    </comp>
    <comp name="--.HHE">
      <acc value="0.2673244187" flag="0"/>
      <vel value="0.0676057771" flag="0"/>
      <psa03 value="0.1879896017" flag="0"/>
      <psa10 value="0.0532032544" flag="0"/>
      <psa30 value="0.0038796577" flag="0"/>
    </comp>
    <comp name="--.HHZ">
      <acc value="0.2377248158" flag="0"/>
      <vel value="0.0618862692" flag="0"/>
      <psa03 value="0.1764674319" flag="0"/>
      <psa10 value="0.0315015341" flag="0"/>
      <psa30 value="0.0024330674" flag="0"/>
    </comp>
  </station>
  <station code="CMBO" name="CMBO" netid="HT" insttype="120P," lat="36.4709" lon="25.4056">
    <comp name="--.HHE">
      <acc value="0.7504299745" flag="0"/>
      <vel value="0.2380621778" flag="0"/>
      <psa03 value="0.9196890596" flag="0"/>
      <psa10 value="0.1869145177" flag="0"/>
      <psa30 value="0.0230340709" flag="0"/>
    </comp>
    <comp name="--.HHN">
      <acc value="0.9667662965" flag="0"/>
      <vel value="0.4061490471" flag="0"/>
      <psa03 value="1.3239925083" flag="0"/>
      <psa10 value="0.3258091245" flag="0"/>
      <psa30 value="0.0189200566" flag="0"/>
    </comp>
    <comp name="--.HHZ">
      <acc value="0.7452135898" flag="0"/>
      <vel value="0.2173361960" flag="0"/>
      <psa03 value="1.5006284952" flag="0"/>
      <psa10 value="0.0942550797" flag="0"/>
      <psa30 value="0.0075750047" flag="0"/>
    </comp>
  </station>
</stationlist>
