<stationlist created="1778205401">
	<station code="3502" name="3502" netid="TK" source="Turkish National Strong Motion Network (TNSMN)" insttype="" lat="38.45514" lon="27.22673">
		<comp name="00.HNE" depth="None">
			<acc value="0.0640530210878415" flag="0"/>
			<vel value="0.0613726757709085" flag="0"/>
			<psa03 value="0.131900025110665" flag="0"/>
			<psa10 value="0.115871129589669" flag="0"/>
			<psa30 value="0.01192021868724" flag="0"/>
		</comp>
		<comp name="00.HNN" depth="None">
			<acc value="0.0983868635709127" flag="0"/>
			<vel value="0.0818511050749152" flag="0"/>
			<psa03 value="0.207514354295544" flag="0"/>
			<psa10 value="0.112867137837318" flag="0"/>
			<psa30 value="0.0108164284499672" flag="0"/>
		</comp>
		<comp name="00.HNZ" depth="None">
			<acc value="0.0405292963068737" flag="0"/>
			<vel value="0.0323582631927593" flag="0"/>
			<psa03 value="0.0684555761259558" flag="0"/>
			<psa10 value="0.0676421628096356" flag="0"/>
			<psa30 value="0.00402456148531354" flag="0"/>
		</comp>
	</station>
</stationlist>
