<?xml version="1.0" encoding="UTF-8" standalone="yes"?>
<!DOCTYPE earthquake SYSTEM "stationlist.dtd">
<stationlist created="" xmlns="ch.ethz.sed.shakemap.usgs.xml">
  <station code="CEYT" name="CEYT" netid="KO" insttype="CMG-3ESP" lat="37.0105" lon="35.7478">
    <comp name="--.HHN">
      <acc value="0.0315649010" flag="0"/>
      <vel value="0.0157760502" flag="0"/>
      <psa03 value="0.0876743776" flag="0"/>
      <psa10 value="0.0109830522" flag="0"/>
      <psa30 value="0.0007205918" flag="0"/>
    </comp>
    <comp name="--.HHZ">
      <acc value="0.0212893051" flag="0"/>
      <vel value="0.0094688105" flag="0"/>
      <psa03 value="0.0482854351" flag="0"/>
      <psa10 value="0.0070335936" flag="0"/>
      <psa30 value="0.0005818158" flag="0"/>
    </comp>
    <comp name="--.HHE">
      <acc value="0.0450248780" flag="0"/>
      <vel value="0.0165632176" flag="0"/>
      <psa03 value="0.1593703195" flag="0"/>
      <psa10 value="0.0089176407" flag="0"/>
      <psa30 value="0.0006800380" flag="0"/>
    </comp>
  </station>
  <station code="CMRD" name="CMRD" netid="KO" insttype="CMG-5T" lat="37.6623" lon="34.9902">
    <comp name="--.HNN">
      <acc value="0.0054000021" flag="0"/>
      <vel value="0.0030389766" flag="0"/>
      <psa03 value="0.0238053130" flag="0"/>
      <psa10 value="0.0032017387" flag="0"/>
      <psa30 value="0.0002948451" flag="0"/>
    </comp>
    <comp name="--.HNZ">
      <acc value="0.0030263404" flag="0"/>
      <vel value="0.0030240522" flag="0"/>
      <psa03 value="0.0070507022" flag="0"/>
      <psa10 value="0.0029127397" flag="0"/>
      <psa30 value="0.0002775193" flag="0"/>
    </comp>
    <comp name="--.HNE">
      <acc value="0.0045697873" flag="0"/>
      <vel value="0.0019763026" flag="0"/>
      <psa03 value="0.0190108069" flag="0"/>
      <psa10 value="0.0018262033" flag="0"/>
      <psa30 value="0.0002932028" flag="0"/>
    </comp>
  </station>
  <station code="GAZ" name="GAZ" netid="KO" insttype="CMG-3T" lat="37.1721" lon="37.2096">
    <comp name="--.HHE">
      <acc value="0.1180290305" flag="0"/>
      <vel value="0.0414061718" flag="0"/>
      <psa03 value="0.2150854382" flag="0"/>
      <psa10 value="0.0366742729" flag="0"/>
      <psa30 value="0.0028951347" flag="0"/>
    </comp>
  </station>
</stationlist>
