<?xml version="1.0" encoding="UTF-8" standalone="yes"?>
<!DOCTYPE earthquake SYSTEM "stationlist.dtd">
<stationlist created="" xmlns="ch.ethz.sed.shakemap.usgs.xml">
  <station code="AKS" name="AKS" netid="KO" insttype="CMG-5T" commtype="DIG" lat="38.8785" lon="27.8129">
    <comp name="--.HNN">
      <acc value="0.1158013849" flag="0"/>
      <vel value="0.0377237247" flag="0"/>
      <psa03 value="0.1505782213" flag="0"/>
      <psa10 value="0.0132176629" flag="0"/>
      <psa30 value="0.0013702499" flag="0"/>
    </comp>
    <comp name="--.HNZ">
      <acc value="0.0780602549" flag="0"/>
      <vel value="0.0215707623" flag="0"/>
      <psa03 value="0.1016670104" flag="0"/>
      <psa10 value="0.0079376890" flag="0"/>
      <psa30 value="0.0011332451" flag="0"/>
    </comp>
  </station>
  <station code="BALB" name="BALB" netid="KO" insttype="CMG-5T" commtype="DIG" lat="39.6507" lon="27.8642">
    <comp name="--.HNN">
      <acc value="0.0333108105" flag="0"/>
      <vel value="0.0123693831" flag="0"/>
      <psa03 value="0.0736889395" flag="0"/>
      <psa10 value="0.0163544671" flag="0"/>
      <psa30 value="0.0015892838" flag="0"/>
    </comp>
    <comp name="--.HNZ">
      <acc value="0.0251697923" flag="0"/>
      <vel value="0.0076421888" flag="0"/>
      <psa03 value="0.0385044773" flag="0"/>
      <psa10 value="0.0073471853" flag="0"/>
      <psa30 value="0.0007846096" flag="0"/>
    </comp>
    <comp name="--.HNE">
      <acc value="0.0401961542" flag="0"/>
      <vel value="0.0170118317" flag="0"/>
      <psa03 value="0.0757022236" flag="0"/>
      <psa10 value="0.0235779762" flag="0"/>
      <psa30 value="0.0012350372" flag="0"/>
    </comp>
  </station>
  <station code="DKL" name="DKL" netid="KO" insttype="CMG-3ESPC" commtype="DIG" lat="39.0713" lon="26.9053">
    <comp name="--.HHZ">
      <acc value="0.0186319365" flag="0"/>
      <vel value="0.0060267518" flag="0"/>
      <psa03 value="0.0464779952" flag="0"/>
      <psa10 value="0.0055670059" flag="0"/>
      <psa30 value="0.0005405893" flag="0"/>
    </comp>
    <comp name="--.HHE">
      <acc value="0.0156314245" flag="0"/>
      <vel value="0.0098795058" flag="0"/>
      <psa03 value="0.0271300102" flag="0"/>
      <psa10 value="0.0087566627" flag="0"/>
      <psa30 value="0.0006478734" flag="0"/>
    </comp>
  </station>
  <station code="DST" name="DST" netid="KO" insttype="CMG-5T" commtype="DIG" lat="39.6041" lon="28.6267">
    <comp name="--.HNE">
      <acc value="0.0355475557" flag="0"/>
      <vel value="0.0134994104" flag="0"/>
      <psa03 value="0.0910128828" flag="0"/>
      <psa10 value="0.0087732147" flag="0"/>
      <psa30 value="0.0005050517" flag="0"/>
    </comp>
    <comp name="--.HNN">
      <acc value="0.0402226171" flag="0"/>
      <vel value="0.0202501263" flag="0"/>
      <psa03 value="0.0947912874" flag="0"/>
      <psa10 value="0.0099138499" flag="0"/>
      <psa30 value="0.0008754883" flag="0"/>
    </comp>
    <comp name="--.HNZ">
      <acc value="0.0384816910" flag="0"/>
      <vel value="0.0140822403" flag="0"/>
      <psa03 value="0.0548574560" flag="0"/>
      <psa10 value="0.0068633623" flag="0"/>
      <psa30 value="0.0007862221" flag="0"/>
    </comp>
  </station>
  <station code="GOMA" name="GOMA" netid="KO" insttype="CMG-5T" commtype="DIG" lat="38.7077" lon="27.9175">
    <comp name="--.HNZ">
      <acc value="0.1063193830" flag="0"/>
      <vel value="0.0401096754" flag="0"/>
      <psa03 value="0.1739299493" flag="0"/>
      <psa10 value="0.0077132528" flag="0"/>
      <psa30 value="0.0009393372" flag="0"/>
    </comp>
    <comp name="--.HNN">
      <acc value="0.2013357325" flag="0"/>
      <vel value="0.0931183570" flag="0"/>
      <psa03 value="0.3395628846" flag="0"/>
      <psa10 value="0.0282953307" flag="0"/>
      <psa30 value="0.0023522882" flag="0"/>
    </comp>
  </station>
  <station code="GONE" name="GONE" netid="KO" insttype="CMG-5T" commtype="DIG" lat="40.0466" lon="27.686">
    <comp name="--.HNZ">
      <acc value="0.0156107556" flag="0"/>
      <vel value="0.0050531292" flag="0"/>
      <psa03 value="0.0402753778" flag="0"/>
      <psa10 value="0.0056215556" flag="0"/>
      <psa30 value="0.0003897903" flag="0"/>
    </comp>
    <comp name="--.HNE">
      <acc value="0.0256151691" flag="0"/>
      <vel value="0.0124707128" flag="0"/>
      <psa03 value="0.0564984170" flag="0"/>
      <psa10 value="0.0169676020" flag="0"/>
      <psa30 value="0.0006532974" flag="0"/>
    </comp>
    <comp name="--.HNN">
      <acc value="0.0442046902" flag="0"/>
      <vel value="0.0266626617" flag="0"/>
      <psa03 value="0.1561404655" flag="0"/>
      <psa10 value="0.0168370063" flag="0"/>
      <psa30 value="0.0009762566" flag="0"/>
    </comp>
  </station>
  <station code="GORD" name="GORD" netid="KO" insttype="CMG-5T" commtype="DIG" lat="38.9088" lon="28.1769">
    <comp name="--.HNN">
      <acc value="0.1026778448" flag="0"/>
      <vel value="0.0535290294" flag="0"/>
      <psa03 value="0.1928749234" flag="0"/>
      <psa10 value="0.0764429103" flag="0"/>
      <psa30 value="0.0039996133" flag="0"/>
    </comp>
    <comp name="--.HNE">
      <acc value="0.0723696376" flag="0"/>
      <vel value="0.0351111566" flag="0"/>
      <psa03 value="0.1320268845" flag="0"/>
      <psa10 value="0.0460312732" flag="0"/>
      <psa30 value="0.0027498455" flag="0"/>
    </comp>
    <comp name="--.HNZ">
      <acc value="0.1303516627" flag="0"/>
      <vel value="0.0475211781" flag="0"/>
      <psa03 value="0.1709542187" flag="0"/>
      <psa10 value="0.0421343212" flag="0"/>
      <psa30 value="0.0045302304" flag="0"/>
    </comp>
  </station>
  <station code="KCTX" name="KCTX" netid="KO" insttype="CMG-5T" commtype="DIG" lat="40.2626" lon="28.3353">
    <comp name="--.HNE">
      <acc value="0.0232070209" flag="0"/>
      <vel value="0.0082695979" flag="0"/>
      <psa03 value="0.0276945371" flag="0"/>
      <psa10 value="0.0082115567" flag="0"/>
      <psa30 value="0.0005459714" flag="0"/>
    </comp>
    <comp name="--.HNZ">
      <acc value="0.0123470970" flag="0"/>
      <vel value="0.0045613836" flag="0"/>
      <psa03 value="0.0237226841" flag="0"/>
      <psa10 value="0.0043644656" flag="0"/>
      <psa30 value="0.0006529591" flag="0"/>
    </comp>
    <comp name="--.HNN">
      <acc value="0.0252958645" flag="0"/>
      <vel value="0.0114045130" flag="0"/>
      <psa03 value="0.0482980224" flag="0"/>
      <psa10 value="0.0063953647" flag="0"/>
      <psa30 value="0.0006384480" flag="0"/>
    </comp>
  </station>
  <station code="KULA" name="KULA" netid="KO" insttype="CMG-3T" commtype="DIG" lat="38.5145" lon="28.6607">
    <comp name="--.HHZ">
      <acc value="0.0475296570" flag="0"/>
      <vel value="0.0118646383" flag="0"/>
      <psa03 value="0.0355658442" flag="0"/>
      <psa10 value="0.0053261867" flag="0"/>
      <psa30 value="0.0005317813" flag="0"/>
    </comp>
  </station>
  <station code="ORLT" name="ORLT" netid="KO" insttype="CMG-5T" commtype="DIG" lat="40.0452" lon="28.8914">
    <comp name="--.HNE">
      <acc value="0.0450717525" flag="0"/>
      <vel value="0.0276972936" flag="0"/>
      <psa03 value="0.2341698669" flag="0"/>
      <psa10 value="0.0292923493" flag="0"/>
      <psa30 value="0.0013334516" flag="0"/>
    </comp>
    <comp name="--.HNN">
      <acc value="0.0513502072" flag="0"/>
      <vel value="0.0257012794" flag="0"/>
      <psa03 value="0.1941039354" flag="0"/>
      <psa10 value="0.0325957173" flag="0"/>
      <psa30 value="0.0015889472" flag="0"/>
    </comp>
    <comp name="--.HNZ">
      <acc value="0.0208665997" flag="0"/>
      <vel value="0.0154470793" flag="0"/>
      <psa03 value="0.0447719647" flag="0"/>
      <psa10 value="0.0227264925" flag="0"/>
      <psa30 value="0.0010425061" flag="0"/>
    </comp>
  </station>
  <station code="SHAP" name="SHAP" netid="KO" insttype="CMG-5T" commtype="DIG" lat="39.0231" lon="29.222">
    <comp name="--.HNE">
      <acc value="0.1768735269" flag="0"/>
      <vel value="0.0559678727" flag="0"/>
      <psa03 value="0.3813386083" flag="0"/>
      <psa10 value="0.0087908577" flag="0"/>
      <psa30 value="0.0008219200" flag="0"/>
    </comp>
    <comp name="--.HNN">
      <acc value="0.2122420850" flag="0"/>
      <vel value="0.0713869027" flag="0"/>
      <psa03 value="0.2785477766" flag="0"/>
      <psa10 value="0.0169968436" flag="0"/>
      <psa30 value="0.0011978480" flag="0"/>
    </comp>
    <comp name="--.HNZ">
      <acc value="0.0915470813" flag="0"/>
      <vel value="0.0255105054" flag="0"/>
      <psa03 value="0.0903555889" flag="0"/>
      <psa10 value="0.0057549068" flag="0"/>
      <psa30 value="0.0005186596" flag="0"/>
    </comp>
  </station>
  <station code="SMAA" name="SMAA" netid="KO" insttype="CMG-5T" commtype="DIG" lat="39.1005" lon="28.9805">
    <comp name="--.HNZ">
      <acc value="0.0477012933" flag="0"/>
      <vel value="0.0143004320" flag="0"/>
      <psa03 value="0.0572271753" flag="0"/>
      <psa10 value="0.0272742442" flag="0"/>
      <psa30 value="0.0010163150" flag="0"/>
    </comp>
    <comp name="--.HNE">
      <acc value="0.1650061362" flag="0"/>
      <vel value="0.0548537144" flag="0"/>
      <psa03 value="0.3193040072" flag="0"/>
      <psa10 value="0.0267586802" flag="0"/>
      <psa30 value="0.0028771436" flag="0"/>
    </comp>
    <comp name="--.HNN">
      <acc value="0.1165698699" flag="0"/>
      <vel value="0.0346317260" flag="0"/>
      <psa03 value="0.2708597366" flag="0"/>
      <psa10 value="0.0229473759" flag="0"/>
      <psa30 value="0.0022541344" flag="0"/>
    </comp>
  </station>
  <station code="SOMA" name="SOMA" netid="KO" insttype="CMG-5T" commtype="DIG" lat="39.1564" lon="27.5341">
    <comp name="--.HNE">
      <acc value="0.1076890815" flag="0"/>
      <vel value="0.0287240717" flag="0"/>
      <psa03 value="0.1233138029" flag="0"/>
      <psa10 value="0.0220142489" flag="0"/>
      <psa30 value="0.0007702655" flag="0"/>
    </comp>
    <comp name="--.HNN">
      <acc value="0.0934862230" flag="0"/>
      <vel value="0.0315370023" flag="0"/>
      <psa03 value="0.1293817758" flag="0"/>
      <psa10 value="0.0266548097" flag="0"/>
      <psa30 value="0.0012960706" flag="0"/>
    </comp>
    <comp name="--.HNZ">
      <acc value="0.0792543876" flag="0"/>
      <vel value="0.0232512233" flag="0"/>
      <psa03 value="0.0534564948" flag="0"/>
      <psa10 value="0.0217347342" flag="0"/>
      <psa30 value="0.0008010628" flag="0"/>
    </comp>
  </station>
  <station code="SUSR" name="SUSR" netid="KO" insttype="CMG-5T" commtype="DIG" lat="39.9627" lon="28.0835">
    <comp name="--.HNE">
      <acc value="0.0257287981" flag="0"/>
      <vel value="0.0063144062" flag="0"/>
      <psa03 value="0.0386174194" flag="0"/>
      <psa10 value="0.0054369351" flag="0"/>
      <psa30 value="0.0003869692" flag="0"/>
    </comp>
    <comp name="--.HNN">
      <acc value="0.0412254807" flag="0"/>
      <vel value="0.0110699014" flag="0"/>
      <psa03 value="0.0541603401" flag="0"/>
      <psa10 value="0.0040224779" flag="0"/>
      <psa30 value="0.0003522714" flag="0"/>
    </comp>
    <comp name="--.HNZ">
      <acc value="0.0282232906" flag="0"/>
      <vel value="0.0057945866" flag="0"/>
      <psa03 value="0.0409816960" flag="0"/>
      <psa10 value="0.0042620737" flag="0"/>
      <psa30 value="0.0003894476" flag="0"/>
    </comp>
  </station>
  <station code="TVSB" name="TVSB" netid="KO" insttype="CMG-3T" commtype="DIG" lat="39.4497" lon="29.4615">
    <comp name="--.HHE">
      <acc value="0.0478117749" flag="0"/>
      <vel value="0.0297122999" flag="0"/>
      <psa03 value="0.1507427257" flag="0"/>
      <psa10 value="0.0128315100" flag="0"/>
      <psa30 value="0.0010542527" flag="0"/>
    </comp>
    <comp name="--.HHN">
      <acc value="0.0436017960" flag="0"/>
      <vel value="0.0175242202" flag="0"/>
      <psa03 value="0.1939137694" flag="0"/>
      <psa10 value="0.0096833913" flag="0"/>
      <psa30 value="0.0005712112" flag="0"/>
    </comp>
    <comp name="--.HHZ">
      <acc value="0.0221440326" flag="0"/>
      <vel value="0.0090472120" flag="0"/>
      <psa03 value="0.0722436067" flag="0"/>
      <psa10 value="0.0068104129" flag="0"/>
      <psa30 value="0.0004700877" flag="0"/>
    </comp>
  </station>
  <station code="YAYO" name="YAYO" netid="KO" insttype="CMG-6T" commtype="DIG" lat="39.6113" lon="27.0726">
    <comp name="--.HHZ">
      <acc value="0.0150818921" flag="0"/>
      <vel value="0.0077531335" flag="0"/>
      <psa03 value="0.0500807510" flag="0"/>
      <psa10 value="0.0048545792" flag="0"/>
      <psa30 value="0.0003759715" flag="0"/>
    </comp>
  </station>
  <station code="YENI" name="YENI" netid="KO" insttype="CMG-5T" commtype="DIG" lat="39.9364" lon="27.2422">
    <comp name="--.HNE">
      <acc value="0.0478684531" flag="0"/>
      <vel value="0.0202715075" flag="0"/>
      <psa03 value="0.1092455212" flag="0"/>
      <psa10 value="0.0211660593" flag="0"/>
      <psa30 value="0.0011531872" flag="0"/>
    </comp>
    <comp name="--.HNZ">
      <acc value="0.0130490274" flag="0"/>
      <vel value="0.0046400384" flag="0"/>
      <psa03 value="0.0184435446" flag="0"/>
      <psa10 value="0.0058785808" flag="0"/>
      <psa30 value="0.0004633947" flag="0"/>
    </comp>
    <comp name="--.HNN">
      <acc value="0.0532976213" flag="0"/>
      <vel value="0.0159615508" flag="0"/>
      <psa03 value="0.0697854122" flag="0"/>
      <psa10 value="0.0115561858" flag="0"/>
      <psa30 value="0.0006196151" flag="0"/>
    </comp>
  </station>
</stationlist>
