<stationlist created="1675692128">
	<station code="ARPRA" name="ARPRA" netid="KO" source="Bogazici University Kandilli Observatory And Earthquake Research Institute (KOERI)" insttype="" lat="39.0929" lon="38.3356">
		<comp name=".HNE" depth="0.0">
			<acc value="0.059210857035" flag="0"/>
			<vel value="0.0267117437417" flag="0"/>
			<psa03 value="0.152272097696" flag="0"/>
			<psa10 value="0.0339856288811" flag="0"/>
			<psa30 value="0.00207355798804" flag="0"/>
		</comp>
		<comp name=".HNN" depth="0.0">
			<acc value="0.0570613801283" flag="0"/>
			<vel value="0.0294335425229" flag="0"/>
			<psa03 value="0.144582348704" flag="0"/>
			<psa10 value="0.0339777983624" flag="0"/>
			<psa30 value="0.00155814092752" flag="0"/>
		</comp>
		<comp name=".HNZ" depth="0.0">
			<acc value="0.0333392376445" flag="0"/>
			<vel value="0.0165111904926" flag="0"/>
			<psa03 value="0.0498354523957" flag="0"/>
			<psa10 value="0.0133428251467" flag="0"/>
			<psa30 value="0.00138311860399" flag="0"/>
		</comp>
	</station>
	<station code="KYHL" name="KYHL" netid="KO" source="Bogazici University Kandilli Observatory And Earthquake Research Institute (KOERI)" insttype="" lat="40.3244" lon="37.8955">
		<comp name=".HNE" depth="0.0">
			<acc value="0.00540144809273" flag="0"/>
			<vel value="0.0045401766355" flag="0"/>
			<psa03 value="0.0197365053633" flag="0"/>
			<psa10 value="0.00571327800789" flag="0"/>
			<psa30 value="0.000772438774443" flag="0"/>
		</comp>
		<comp name=".HNN" depth="0.0">
			<acc value="0.00728017409555" flag="0"/>
			<vel value="0.00519902472139" flag="0"/>
			<psa03 value="0.0168089754913" flag="0"/>
			<psa10 value="0.00396931029108" flag="0"/>
			<psa30 value="0.000602455847241" flag="0"/>
		</comp>
		<comp name=".HNZ" depth="0.0">
			<acc value="0.00333355823685" flag="0"/>
			<vel value="0.00220131796615" flag="0"/>
			<psa03 value="0.0143397116543" flag="0"/>
			<psa10 value="0.0030677447074" flag="0"/>
			<psa30 value="0.000480042060849" flag="0"/>
		</comp>
	</station>
</stationlist>
