<?xml version="1.0" encoding="UTF-8" standalone="yes"?>
<!DOCTYPE earthquake SYSTEM "stationlist.dtd">
<stationlist created="" xmlns="ch.ethz.sed.shakemap.usgs.xml">
  <station code="ARPRA" name="ARPRA" netid="KO" insttype="CMG-5T" lat="39.0929" lon="38.3356">
    <comp name="--.HNE">
      <acc value="0.0591763809" flag="0"/>
      <vel value="0.0267510422" flag="0"/>
      <psa03 value="0.1497836304" flag="0"/>
      <psa10 value="0.0340352328" flag="0"/>
      <psa30 value="0.0018930155" flag="0"/>
    </comp>
    <comp name="--.HNZ">
      <acc value="0.0339359639" flag="0"/>
      <vel value="0.0166545811" flag="0"/>
      <psa03 value="0.0493684591" flag="0"/>
      <psa10 value="0.0133703906" flag="0"/>
      <psa30 value="0.0012395280" flag="0"/>
    </comp>
    <comp name="--.HNN">
      <acc value="0.0569771900" flag="0"/>
      <vel value="0.0293029712" flag="0"/>
      <psa03 value="0.1448363638" flag="0"/>
      <psa10 value="0.0339909841" flag="0"/>
      <psa30 value="0.0013879209" flag="0"/>
    </comp>
  </station>
  <station code="DYBB" name="DYBB" netid="KO" insttype="CMG-3T" lat="37.9532" lon="40.1393">
    <comp name="--.HHE">
      <acc value="0.0103695694" flag="0"/>
      <vel value="0.0085525077" flag="0"/>
      <psa03 value="0.0166176551" flag="0"/>
      <psa10 value="0.0133991274" flag="0"/>
      <psa30 value="0.0023921581" flag="0"/>
    </comp>
    <comp name="--.HHZ">
      <acc value="0.0049194174" flag="0"/>
      <vel value="0.0050238539" flag="0"/>
      <psa03 value="0.0128728811" flag="0"/>
      <psa10 value="0.0076187699" flag="0"/>
      <psa30 value="0.0007028767" flag="0"/>
    </comp>
    <comp name="--.HHN">
      <acc value="0.0053462679" flag="0"/>
      <vel value="0.0072578113" flag="0"/>
      <psa03 value="0.0152841184" flag="0"/>
      <psa10 value="0.0074230158" flag="0"/>
      <psa30 value="0.0021031264" flag="0"/>
    </comp>
  </station>
  <station code="ERZN" name="ERZN" netid="KO" insttype="CMG-3ESP" lat="39.5867" lon="39.722">
    <comp name="--.HHN">
      <acc value="0.0574894203" flag="0"/>
      <vel value="0.0273456165" flag="0"/>
      <psa03 value="0.1621917541" flag="0"/>
      <psa10 value="0.0091255718" flag="0"/>
      <psa30 value="0.0007943238" flag="0"/>
    </comp>
    <comp name="--.HHZ">
      <acc value="0.0212465361" flag="0"/>
      <vel value="0.0078347948" flag="0"/>
      <psa03 value="0.0304071273" flag="0"/>
      <psa10 value="0.0070920677" flag="0"/>
      <psa30 value="0.0009167375" flag="0"/>
    </comp>
  </station>
</stationlist>
