<?xml version="1.0" encoding="UTF-8" standalone="yes"?>
<!DOCTYPE earthquake SYSTEM "stationlist.dtd">
<stationlist created="" xmlns="ch.ethz.sed.shakemap.usgs.xml">
  <station code="MYT1" name="MYT1" netid="HI" insttype="CMG-5TD,ACCELEROMETER,GURALP" commtype="DIG" lat="39.085" lon="26.5694">
    <comp name="--.HNE">
      <acc value="0.0569119096" flag="0"/>
      <vel value="0.0416855794" flag="0"/>
      <psa03 value="0.1207958858" flag="0"/>
      <psa10 value="0.0877337280" flag="0"/>
      <psa30 value="0.0040870843" flag="0"/>
    </comp>
    <comp name="--.HNZ">
      <acc value="0.0259697988" flag="0"/>
      <vel value="0.0147592517" flag="0"/>
      <psa03 value="0.0557737951" flag="0"/>
      <psa10 value="0.0311524966" flag="0"/>
      <psa30 value="0.0021191081" flag="0"/>
    </comp>
    <comp name="--.HNN">
      <acc value="0.0421455555" flag="0"/>
      <vel value="0.0401657579" flag="0"/>
      <psa03 value="0.0978723229" flag="0"/>
      <psa10 value="0.0649706616" flag="0"/>
      <psa30 value="0.0053636632" flag="0"/>
    </comp>
  </station>
  <station code="AKS" name="AKS" netid="KO" insttype="CMG-5T" commtype="DIG" lat="38.8785" lon="27.8129">
    <comp name="--.HNN">
      <acc value="0.2475174034" flag="0"/>
      <vel value="0.0935899657" flag="0"/>
      <psa03 value="0.7096212754" flag="0"/>
      <psa10 value="0.0482744890" flag="0"/>
      <psa30 value="0.0084819955" flag="0"/>
    </comp>
    <comp name="--.HNE">
      <acc value="0.2395350410" flag="0"/>
      <vel value="0.1051484242" flag="0"/>
      <psa03 value="0.9882731334" flag="0"/>
      <psa10 value="0.0533755846" flag="0"/>
      <psa30 value="0.0050429011" flag="0"/>
    </comp>
    <comp name="--.HNZ">
      <acc value="0.0941053429" flag="0"/>
      <vel value="0.0396160162" flag="0"/>
      <psa03 value="0.2032850558" flag="0"/>
      <psa10 value="0.0235826051" flag="0"/>
      <psa30 value="0.0049067147" flag="0"/>
    </comp>
  </station>
  <station code="AYDB" name="AYDB" netid="KO" insttype="CMG-3ESPC" commtype="DIG" lat="37.9467" lon="27.8908">
    <comp name="--.HHE">
      <acc value="0.0561363803" flag="0"/>
      <vel value="0.0303626927" flag="0"/>
      <psa03 value="0.2745537696" flag="0"/>
      <psa10 value="0.0168326041" flag="0"/>
      <psa30 value="0.0020962512" flag="0"/>
    </comp>
    <comp name="--.HHN">
      <acc value="0.0760221901" flag="0"/>
      <vel value="0.0362535470" flag="0"/>
      <psa03 value="0.3122606450" flag="0"/>
      <psa10 value="0.0177363782" flag="0"/>
      <psa30 value="0.0020834345" flag="0"/>
    </comp>
    <comp name="--.HHZ">
      <acc value="0.0492530219" flag="0"/>
      <vel value="0.0175416453" flag="0"/>
      <psa03 value="0.1030070888" flag="0"/>
      <psa10 value="0.0143707085" flag="0"/>
      <psa30 value="0.0017464404" flag="0"/>
    </comp>
  </station>
  <station code="AYVL" name="AYVL" netid="KO" insttype="CMG-6T" commtype="DIG" lat="39.2907" lon="26.69">
    <comp name="--.HHE">
      <acc value="0.0946015500" flag="0"/>
      <vel value="0.0430661793" flag="0"/>
      <psa03 value="0.2252846085" flag="0"/>
      <psa10 value="0.0234640236" flag="0"/>
      <psa30 value="0.0013126091" flag="0"/>
    </comp>
    <comp name="--.HHZ">
      <acc value="0.0539722723" flag="0"/>
      <vel value="0.0196243853" flag="0"/>
      <psa03 value="0.0891906087" flag="0"/>
      <psa10 value="0.0170252131" flag="0"/>
      <psa30 value="0.0007778050" flag="0"/>
    </comp>
    <comp name="--.HHN">
      <acc value="0.1086891154" flag="0"/>
      <vel value="0.0607399150" flag="0"/>
      <psa03 value="0.3218704071" flag="0"/>
      <psa10 value="0.0401792198" flag="0"/>
      <psa30 value="0.0022793923" flag="0"/>
    </comp>
  </station>
  <station code="BALB" name="BALB" netid="KO" insttype="CMG-5T" commtype="DIG" lat="39.6507" lon="27.8642">
    <comp name="--.HNE">
      <acc value="0.1819527393" flag="0"/>
      <vel value="0.0641561807" flag="0"/>
      <psa03 value="0.4621051064" flag="0"/>
      <psa10 value="0.0652677098" flag="0"/>
      <psa30 value="0.0079143957" flag="0"/>
    </comp>
    <comp name="--.HNN">
      <acc value="0.1706151888" flag="0"/>
      <vel value="0.0953813758" flag="0"/>
      <psa03 value="0.4649976105" flag="0"/>
      <psa10 value="0.1197721666" flag="0"/>
      <psa30 value="0.0082832015" flag="0"/>
    </comp>
    <comp name="--.HNZ">
      <acc value="0.1409177708" flag="0"/>
      <vel value="0.0510639974" flag="0"/>
      <psa03 value="0.2565454087" flag="0"/>
      <psa10 value="0.0426229026" flag="0"/>
      <psa30 value="0.0050651756" flag="0"/>
    </comp>
  </station>
  <station code="BIGA" name="BIGA" netid="KO" insttype="CMG-5T" commtype="DIG" lat="40.2813" lon="27.1505">
    <comp name="--.HNZ">
      <acc value="0.0231446769" flag="0"/>
      <vel value="0.0115966304" flag="0"/>
      <psa03 value="0.0665063905" flag="0"/>
      <psa10 value="0.0146963218" flag="0"/>
      <psa30 value="0.0011336606" flag="0"/>
    </comp>
    <comp name="--.HNE">
      <acc value="0.0682058468" flag="0"/>
      <vel value="0.0337200470" flag="0"/>
      <psa03 value="0.2670280555" flag="0"/>
      <psa10 value="0.0219641666" flag="0"/>
      <psa30 value="0.0018091991" flag="0"/>
    </comp>
    <comp name="--.HNN">
      <acc value="0.1076928419" flag="0"/>
      <vel value="0.0507530090" flag="0"/>
      <psa03 value="0.3085657700" flag="0"/>
      <psa10 value="0.0232236854" flag="0"/>
      <psa30 value="0.0024500882" flag="0"/>
    </comp>
  </station>
  <station code="BLCB" name="BLCB" netid="KO" insttype="CMG-3T" commtype="DIG" lat="38.3853" lon="27.042">
    <comp name="--.HHE">
      <acc value="0.0472299662" flag="0"/>
      <vel value="0.0300510846" flag="0"/>
      <psa03 value="0.2008804078" flag="0"/>
      <psa10 value="0.0167290889" flag="0"/>
      <psa30 value="0.0028140812" flag="0"/>
    </comp>
    <comp name="--.HHN">
      <acc value="0.0000698460" flag="0"/>
      <vel value="0.0000152283" flag="0"/>
      <psa03 value="0.0000927124" flag="0"/>
      <psa10 value="0.0000129524" flag="0"/>
      <psa30 value="0.0000021458" flag="0"/>
    </comp>
    <comp name="--.HHZ">
      <acc value="0.0344865363" flag="0"/>
      <vel value="0.0182966718" flag="0"/>
      <psa03 value="0.1041243810" flag="0"/>
      <psa10 value="0.0158980255" flag="0"/>
      <psa30 value="0.0020135827" flag="0"/>
    </comp>
  </station>
  <station code="BMYO" name="BMYO" netid="KO" insttype="CMG-5T" commtype="DIG" lat="39.8098" lon="26.6009">
    <comp name="--.HNZ">
      <acc value="0.0202990402" flag="0"/>
      <vel value="0.0176532364" flag="0"/>
      <psa03 value="0.0667287611" flag="0"/>
      <psa10 value="0.0348203490" flag="0"/>
      <psa30 value="0.0023893662" flag="0"/>
    </comp>
    <comp name="--.HNE">
      <acc value="0.0755380563" flag="0"/>
      <vel value="0.0521478277" flag="0"/>
      <psa03 value="0.1911266879" flag="0"/>
      <psa10 value="0.0661843568" flag="0"/>
      <psa30 value="0.0038272570" flag="0"/>
    </comp>
    <comp name="--.HNN">
      <acc value="0.0725871141" flag="0"/>
      <vel value="0.0473563864" flag="0"/>
      <psa03 value="0.1486455371" flag="0"/>
      <psa10 value="0.0402094420" flag="0"/>
      <psa30 value="0.0025536426" flag="0"/>
    </comp>
  </station>
  <station code="CANM" name="CANM" netid="KO" insttype="CMG-5T" commtype="DIG" lat="40.0113" lon="27.0529">
    <comp name="--.HNZ">
      <acc value="0.0314038960" flag="0"/>
      <vel value="0.0185835378" flag="0"/>
      <psa03 value="0.0778487239" flag="0"/>
      <psa10 value="0.0212425693" flag="0"/>
      <psa30 value="0.0024574538" flag="0"/>
    </comp>
    <comp name="--.HNE">
      <acc value="0.0326614254" flag="0"/>
      <vel value="0.0277293207" flag="0"/>
      <psa03 value="0.0954143777" flag="0"/>
      <psa10 value="0.0350041815" flag="0"/>
      <psa30 value="0.0031415168" flag="0"/>
    </comp>
    <comp name="--.HNN">
      <acc value="0.0403258930" flag="0"/>
      <vel value="0.0335921005" flag="0"/>
      <psa03 value="0.0950405225" flag="0"/>
      <psa10 value="0.0596374513" flag="0"/>
      <psa30 value="0.0031340660" flag="0"/>
    </comp>
  </station>
  <station code="DKL" name="DKL" netid="KO" insttype="CMG-3ESPC" commtype="DIG" lat="39.0713" lon="26.9053">
    <comp name="--.HHZ">
      <acc value="0.0173070512" flag="0"/>
      <vel value="0.0109616655" flag="0"/>
      <psa03 value="0.0452614264" flag="0"/>
      <psa10 value="0.0106200419" flag="0"/>
      <psa30 value="0.0014460453" flag="0"/>
    </comp>
    <comp name="--.HHE">
      <acc value="0.0229959422" flag="0"/>
      <vel value="0.0122478645" flag="0"/>
      <psa03 value="0.0564948665" flag="0"/>
      <psa10 value="0.0127422544" flag="0"/>
      <psa30 value="0.0019159928" flag="0"/>
    </comp>
    <comp name="--.HHN">
      <acc value="0.0243878217" flag="0"/>
      <vel value="0.0166074207" flag="0"/>
      <psa03 value="0.0655882947" flag="0"/>
      <psa10 value="0.0203867693" flag="0"/>
      <psa30 value="0.0019391710" flag="0"/>
    </comp>
  </station>
  <station code="DST" name="DST" netid="KO" insttype="CMG-5T" commtype="DIG" lat="39.6041" lon="28.6267">
    <comp name="--.HNN">
      <acc value="0.0909888193" flag="0"/>
      <vel value="0.0376544120" flag="0"/>
      <psa03 value="0.1836461638" flag="0"/>
      <psa10 value="0.0283401946" flag="0"/>
      <psa30 value="0.0047767947" flag="0"/>
    </comp>
    <comp name="--.HNE">
      <acc value="0.0907621184" flag="0"/>
      <vel value="0.0345874994" flag="0"/>
      <psa03 value="0.2332782688" flag="0"/>
      <psa10 value="0.0330928566" flag="0"/>
      <psa30 value="0.0041236161" flag="0"/>
    </comp>
  </station>
  <station code="EDC" name="EDC" netid="KO" insttype="CMG-3T" commtype="DIG" lat="40.3465" lon="27.8618">
    <comp name="--.HHE">
      <acc value="0.0603368224" flag="0"/>
      <vel value="0.0555978668" flag="0"/>
      <psa03 value="0.1443381502" flag="0"/>
      <psa10 value="0.0768308444" flag="0"/>
      <psa30 value="0.0045513825" flag="0"/>
    </comp>
    <comp name="--.HHZ">
      <acc value="0.0237585693" flag="0"/>
      <vel value="0.0124499836" flag="0"/>
      <psa03 value="0.0629166537" flag="0"/>
      <psa10 value="0.0145568173" flag="0"/>
      <psa30 value="0.0013077268" flag="0"/>
    </comp>
    <comp name="--.HHN">
      <acc value="0.1232814063" flag="0"/>
      <vel value="0.0797578063" flag="0"/>
      <psa03 value="0.3639371154" flag="0"/>
      <psa10 value="0.0465385216" flag="0"/>
      <psa30 value="0.0034573030" flag="0"/>
    </comp>
  </station>
  <station code="FOCM" name="FOCM" netid="KO" insttype="CMG-5T" commtype="DIG" lat="38.7131" lon="26.7309">
    <comp name="--.HNZ">
      <acc value="0.0253016733" flag="0"/>
      <vel value="0.0124546971" flag="0"/>
      <psa03 value="0.1066844910" flag="0"/>
      <psa10 value="0.0190621342" flag="0"/>
      <psa30 value="0.0020605604" flag="0"/>
    </comp>
    <comp name="--.HNE">
      <acc value="0.0313683512" flag="0"/>
      <vel value="0.0237566501" flag="0"/>
      <psa03 value="0.1359842497" flag="0"/>
      <psa10 value="0.0139617084" flag="0"/>
      <psa30 value="0.0022147946" flag="0"/>
    </comp>
    <comp name="--.HNN">
      <acc value="0.0264272765" flag="0"/>
      <vel value="0.0163194296" flag="0"/>
      <psa03 value="0.0639698473" flag="0"/>
      <psa10 value="0.0184828500" flag="0"/>
      <psa30 value="0.0031522547" flag="0"/>
    </comp>
  </station>
  <station code="GOMA" name="GOMA" netid="KO" insttype="CMG-5T" commtype="DIG" lat="38.7077" lon="27.9175">
    <comp name="--.HNZ">
      <acc value="0.1942436990" flag="0"/>
      <vel value="0.0545842931" flag="0"/>
      <psa03 value="0.3695757462" flag="0"/>
      <psa10 value="0.0239323095" flag="0"/>
      <psa30 value="0.0036313774" flag="0"/>
    </comp>
  </station>
  <station code="GONE" name="GONE" netid="KO" insttype="CMG-5T" commtype="DIG" lat="40.0466" lon="27.686">
    <comp name="--.HNE">
      <acc value="0.0755754832" flag="0"/>
      <vel value="0.0339525042" flag="0"/>
      <psa03 value="0.1664880966" flag="0"/>
      <psa10 value="0.0477576672" flag="0"/>
      <psa30 value="0.0028964679" flag="0"/>
    </comp>
    <comp name="--.HNN">
      <acc value="0.1475506947" flag="0"/>
      <vel value="0.0691786433" flag="0"/>
      <psa03 value="0.4365010248" flag="0"/>
      <psa10 value="0.0430929952" flag="0"/>
      <psa30 value="0.0039506702" flag="0"/>
    </comp>
    <comp name="--.HNZ">
      <acc value="0.0435288939" flag="0"/>
      <vel value="0.0140886919" flag="0"/>
      <psa03 value="0.0794169853" flag="0"/>
      <psa10 value="0.0125354042" flag="0"/>
      <psa30 value="0.0011690693" flag="0"/>
    </comp>
  </station>
  <station code="GORD" name="GORD" netid="KO" insttype="CMG-5T" commtype="DIG" lat="38.9088" lon="28.1769">
    <comp name="--.HNZ">
      <acc value="0.1083674745" flag="0"/>
      <vel value="0.0503164910" flag="0"/>
      <psa03 value="0.2797571490" flag="0"/>
      <psa10 value="0.0554090906" flag="0"/>
      <psa30 value="0.0061582284" flag="0"/>
    </comp>
    <comp name="--.HNE">
      <acc value="0.0977809099" flag="0"/>
      <vel value="0.0786305597" flag="0"/>
      <psa03 value="0.2071287971" flag="0"/>
      <psa10 value="0.0797419035" flag="0"/>
      <psa30 value="0.0152669987" flag="0"/>
    </comp>
    <comp name="--.HNN">
      <acc value="0.1230825750" flag="0"/>
      <vel value="0.0823105113" flag="0"/>
      <psa03 value="0.2350301640" flag="0"/>
      <psa10 value="0.0932468153" flag="0"/>
      <psa30 value="0.0077133435" flag="0"/>
    </comp>
  </station>
  <station code="KCTX" name="KCTX" netid="KO" insttype="CMG-3ESP" commtype="DIG" lat="40.2626" lon="28.3353">
    <comp name="--.HHZ">
      <acc value="0.0388441175" flag="0"/>
      <vel value="0.0195572058" flag="0"/>
      <psa03 value="0.1130501375" flag="0"/>
      <psa10 value="0.0217914149" flag="0"/>
      <psa30 value="0.0011449693" flag="0"/>
    </comp>
    <comp name="--.HHE">
      <acc value="0.0763712910" flag="0"/>
      <vel value="0.0480828765" flag="0"/>
      <psa03 value="0.2034600290" flag="0"/>
      <psa10 value="0.0647283837" flag="0"/>
      <psa30 value="0.0035529747" flag="0"/>
    </comp>
    <comp name="--.HHN">
      <acc value="0.0853678169" flag="0"/>
      <vel value="0.0397123795" flag="0"/>
      <psa03 value="0.1757627329" flag="0"/>
      <psa10 value="0.0387660864" flag="0"/>
      <psa30 value="0.0025236318" flag="0"/>
    </comp>
  </station>
  <station code="KRBG" name="KRBG" netid="KO" insttype="CMG-3ESP" commtype="DIG" lat="40.3932" lon="27.2977">
    <comp name="--.HHN">
      <acc value="0.0214543390" flag="0"/>
      <vel value="0.0127428468" flag="0"/>
      <psa03 value="0.0530926829" flag="0"/>
      <psa10 value="0.0205369104" flag="0"/>
      <psa30 value="0.0017956777" flag="0"/>
    </comp>
    <comp name="--.HHE">
      <acc value="0.0271387738" flag="0"/>
      <vel value="0.0205721538" flag="0"/>
      <psa03 value="0.0909173312" flag="0"/>
      <psa10 value="0.0204733213" flag="0"/>
      <psa30 value="0.0013043574" flag="0"/>
    </comp>
    <comp name="--.HHZ">
      <acc value="0.0155933014" flag="0"/>
      <vel value="0.0093017668" flag="0"/>
      <psa03 value="0.0519793876" flag="0"/>
      <psa10 value="0.0100580762" flag="0"/>
      <psa30 value="0.0016454920" flag="0"/>
    </comp>
  </station>
  <station code="KULA" name="KULA" netid="KO" insttype="CMG-3T" commtype="DIG" lat="38.5145" lon="28.6607">
    <comp name="--.HHE">
      <acc value="0.0624670797" flag="0"/>
      <vel value="0.0244928251" flag="0"/>
      <psa03 value="0.1148035159" flag="0"/>
      <psa10 value="0.0198629042" flag="0"/>
      <psa30 value="0.0021815508" flag="0"/>
    </comp>
    <comp name="--.HHN">
      <acc value="0.0423202576" flag="0"/>
      <vel value="0.0194758665" flag="0"/>
      <psa03 value="0.0915355599" flag="0"/>
      <psa10 value="0.0132557536" flag="0"/>
      <psa30 value="0.0011728185" flag="0"/>
    </comp>
    <comp name="--.HHZ">
      <acc value="0.0400670545" flag="0"/>
      <vel value="0.0229998184" flag="0"/>
      <psa03 value="0.0838963220" flag="0"/>
      <psa10 value="0.0196797272" flag="0"/>
      <psa30 value="0.0016180513" flag="0"/>
    </comp>
  </station>
  <station code="MDNY" name="MDNY" netid="KO" insttype="CMG-3ESP" commtype="DIG" lat="40.3709" lon="28.8846">
    <comp name="--.HHN">
      <acc value="0.3534406946" flag="0"/>
      <vel value="0.1653695514" flag="0"/>
      <psa03 value="1.4252680147" flag="0"/>
      <psa10 value="0.0384711565" flag="0"/>
      <psa30 value="0.0035443398" flag="0"/>
    </comp>
    <comp name="--.HHZ">
      <acc value="0.1250572549" flag="0"/>
      <vel value="0.0436977134" flag="0"/>
      <psa03 value="0.2359347083" flag="0"/>
      <psa10 value="0.0298941714" flag="0"/>
      <psa30 value="0.0037894070" flag="0"/>
    </comp>
    <comp name="--.HHE">
      <acc value="0.3046568911" flag="0"/>
      <vel value="0.1253076208" flag="0"/>
      <psa03 value="1.1873867772" flag="0"/>
      <psa10 value="0.0552492146" flag="0"/>
      <psa30 value="0.0042001374" flag="0"/>
    </comp>
  </station>
  <station code="NAZL" name="NAZL" netid="KO" insttype="CMG-5T" commtype="DIG" lat="37.9641" lon="28.2922">
    <comp name="--.HNE">
      <acc value="0.0466049667" flag="0"/>
      <vel value="0.0331087873" flag="0"/>
      <psa03 value="0.1965647147" flag="0"/>
      <psa10 value="0.0286156757" flag="0"/>
      <psa30 value="0.0033132981" flag="0"/>
    </comp>
    <comp name="--.HNN">
      <acc value="0.0455074524" flag="0"/>
      <vel value="0.0266513455" flag="0"/>
      <psa03 value="0.2090166438" flag="0"/>
      <psa10 value="0.0198813939" flag="0"/>
      <psa30 value="0.0012244649" flag="0"/>
    </comp>
    <comp name="--.HNZ">
      <acc value="0.0377722894" flag="0"/>
      <vel value="0.0164782786" flag="0"/>
      <psa03 value="0.1268081028" flag="0"/>
      <psa10 value="0.0144694083" flag="0"/>
      <psa30 value="0.0004537137" flag="0"/>
    </comp>
  </station>
  <station code="ORLT" name="ORLT" netid="KO" insttype="CMG-5T" commtype="DIG" lat="40.0452" lon="28.8914">
    <comp name="--.HNN">
      <acc value="0.2090739523" flag="0"/>
      <vel value="0.1225390316" flag="0"/>
      <psa03 value="0.7158373043" flag="0"/>
      <psa10 value="0.1186588126" flag="0"/>
      <psa30 value="0.0073837931" flag="0"/>
    </comp>
    <comp name="--.HNE">
      <acc value="0.1294622912" flag="0"/>
      <vel value="0.0769521116" flag="0"/>
      <psa03 value="0.2790791247" flag="0"/>
      <psa10 value="0.0892928200" flag="0"/>
      <psa30 value="0.0047248427" flag="0"/>
    </comp>
    <comp name="--.HNZ">
      <acc value="0.0588819857" flag="0"/>
      <vel value="0.0413041903" flag="0"/>
      <psa03 value="0.1434637392" flag="0"/>
      <psa10 value="0.0726023094" flag="0"/>
      <psa30 value="0.0053763285" flag="0"/>
    </comp>
  </station>
  <station code="SHAP" name="SHAP" netid="KO" insttype="CMG-5T" commtype="DIG" lat="39.0231" lon="29.222">
    <comp name="--.HNE">
      <acc value="0.0849940246" flag="0"/>
      <vel value="0.0373205363" flag="0"/>
      <psa03 value="0.2955788014" flag="0"/>
      <psa10 value="0.0207048134" flag="0"/>
      <psa30 value="0.0019358144" flag="0"/>
    </comp>
    <comp name="--.HNN">
      <acc value="0.1331009495" flag="0"/>
      <vel value="0.0414986641" flag="0"/>
      <psa03 value="0.2008635391" flag="0"/>
      <psa10 value="0.0280427394" flag="0"/>
      <psa30 value="0.0015878120" flag="0"/>
    </comp>
    <comp name="--.HNZ">
      <acc value="0.0515846377" flag="0"/>
      <vel value="0.0160251863" flag="0"/>
      <psa03 value="0.0860406731" flag="0"/>
      <psa10 value="0.0141145683" flag="0"/>
      <psa30 value="0.0010901807" flag="0"/>
    </comp>
  </station>
