<?xml version="1.0" encoding="UTF-8" standalone="yes"?>
<!DOCTYPE earthquake SYSTEM "stationlist.dtd">
<stationlist created="" xmlns="ch.ethz.sed.shakemap.usgs.xml">
  <station code="ASB" name="ASB" netid="VI" source="ODC" insttype="STS-2.5" lat="64.7482" lon="-21.3254">
    <comp name="--.HHE">
      <acc value="0.0551069343" flag="0"/>
      <vel value="0.0225316841" flag="0"/>
      <psa03 value="0.1298971738" flag="0"/>
      <psa10 value="0.0220504136" flag="0"/>
      <psa30 value="0.0034139451" flag="0"/>
    </comp>
    <comp name="--.HHZ">
      <acc value="0.0411602889" flag="0"/>
      <vel value="0.0126602328" flag="0"/>
      <psa03 value="0.0495654761" flag="0"/>
      <psa10 value="0.0156040059" flag="0"/>
      <psa30 value="0.0057838694" flag="0"/>
    </comp>
    <comp name="--.HHN">
      <acc value="0.0582769509" flag="0"/>
      <vel value="0.0250024611" flag="0"/>
      <psa03 value="0.1131609702" flag="0"/>
      <psa10 value="0.0186632654" flag="0"/>
      <psa30 value="0.0021909076" flag="0"/>
    </comp>
  </station>
</stationlist>
