<stationlist created="1778136398">
	<station code="S2119" name="S2119" netid="S2" source="IceSMN Icelandic Strong Motion Network (IceSMN)" insttype="" lat="64.1301" lon="-20.32">
		<comp name="00.HN1" depth="0.0">
			<acc value="0.0450217978731608" flag="0"/>
			<vel value="0.020973842162811" flag="0"/>
			<psa03 value="0.158959061507588" flag="0"/>
			<psa10 value="0.0172422472142404" flag="0"/>
			<psa30 value="0.00990678044226645" flag="0"/>
		</comp>
		<comp name="00.HN2" depth="0.0">
			<acc value="0.0301605637384569" flag="0"/>
			<vel value="0.0210375548073852" flag="0"/>
			<psa03 value="0.101204256368418" flag="0"/>
			<psa10 value="0.0300140764102482" flag="0"/>
			<psa30 value="0.00708840290524359" flag="0"/>
		</comp>
		<comp name="00.HNZ" depth="0.0">
			<acc value="0.0321122709824202" flag="0"/>
			<vel value="0.0133469054196903" flag="0"/>
			<psa03 value="0.0366528916158345" flag="0"/>
			<psa10 value="0.0148465088208661" flag="0"/>
			<psa30 value="0.00404295865950336" flag="0"/>
		</comp>
	</station>
</stationlist>
