<?xml version="1.0" encoding="UTF-8" standalone="yes"?>
<!DOCTYPE earthquake SYSTEM "stationlist.dtd">
<stationlist created="" xmlns="ch.ethz.sed.shakemap.usgs.xml">
  <station code="AGRB" name="AGRB" netid="KO" insttype="120s," lat="39.5755" lon="42.992">
    <comp name="--.HHE">
      <acc value="0.0208010343" flag="0"/>
      <vel value="0.0256473771" flag="0"/>
      <psa03 value="0.0281845587" flag="0"/>
      <psa10 value="0.0484373915" flag="0"/>
      <psa30 value="0.0067504053" flag="0"/>
    </comp>
    <comp name="--.HHN">
      <acc value="0.0127433265" flag="0"/>
      <vel value="0.0156247865" flag="0"/>
      <psa03 value="0.0287013870" flag="0"/>
      <psa10 value="0.0412930364" flag="0"/>
      <psa30 value="0.0022132492" flag="0"/>
    </comp>
    <comp name="--.HHZ">
      <acc value="0.0146185623" flag="0"/>
      <vel value="0.0144192586" flag="0"/>
      <psa03 value="0.0308456447" flag="0"/>
      <psa10 value="0.0257384843" flag="0"/>
      <psa30 value="0.0018216042" flag="0"/>
    </comp>
  </station>
  <station code="KARO" name="KARO" netid="KO" insttype="120s," lat="39.3089" lon="41.0493">
    <comp name="--.HHN">
      <acc value="0.2007557600" flag="0"/>
      <vel value="0.1365756532" flag="0"/>
      <psa03 value="0.6441298055" flag="0"/>
      <psa10 value="0.0676051791" flag="0"/>
      <psa30 value="0.0054817922" flag="0"/>
    </comp>
    <comp name="--.HHE">
      <acc value="0.1879665538" flag="0"/>
      <vel value="0.0955576949" flag="0"/>
      <psa03 value="0.7387009561" flag="0"/>
      <psa10 value="0.0754081398" flag="0"/>
      <psa30 value="0.0084733129" flag="0"/>
    </comp>
    <comp name="--.HHZ">
      <acc value="0.0902442933" flag="0"/>
      <vel value="0.0516395717" flag="0"/>
      <psa03 value="0.3314614027" flag="0"/>
      <psa10 value="0.0253159588" flag="0"/>
      <psa30 value="0.0036207620" flag="0"/>
    </comp>
  </station>
  <station code="KOPR" name="KOPR" netid="KO" insttype="120s," lat="39.9917" lon="41.8535">
    <comp name="--.HHE">
      <acc value="0.0077111276" flag="0"/>
      <vel value="0.0111678810" flag="0"/>
      <psa03 value="0.0156325435" flag="0"/>
      <psa10 value="0.0221752685" flag="0"/>
      <psa30 value="0.0051243341" flag="0"/>
    </comp>
    <comp name="--.HHN">
      <acc value="0.0075377635" flag="0"/>
      <vel value="0.0141281068" flag="0"/>
      <psa03 value="0.0142472685" flag="0"/>
      <psa10 value="0.0150221223" flag="0"/>
      <psa30 value="0.0062186698" flag="0"/>
    </comp>
    <comp name="--.HHZ">
      <acc value="0.0065384275" flag="0"/>
      <vel value="0.0094495200" flag="0"/>
      <psa03 value="0.0153929268" flag="0"/>
      <psa10 value="0.0177816395" flag="0"/>
      <psa30 value="0.0053751065" flag="0"/>
    </comp>
  </station>
  <station code="MLAZ" name="MLAZ" netid="KO" insttype="120s," lat="39.141" lon="42.5496">
    <comp name="--.HHZ">
      <acc value="0.0569891048" flag="0"/>
      <vel value="0.0420278443" flag="0"/>
      <psa03 value="0.0740178189" flag="0"/>
      <psa10 value="0.1130565044" flag="0"/>
      <psa30 value="0.0120862148" flag="0"/>
    </comp>
    <comp name="--.HHN">
      <acc value="0.0807710571" flag="0"/>
      <vel value="0.0970784886" flag="0"/>
      <psa03 value="0.1788705051" flag="0"/>
      <psa10 value="0.1868352772" flag="0"/>
      <psa30 value="0.0288146516" flag="0"/>
    </comp>
    <comp name="--.HHE">
      <acc value="0.1145128107" flag="0"/>
      <vel value="0.1677955621" flag="0"/>
      <psa03 value="0.1478016866" flag="0"/>
      <psa10 value="0.2989219508" flag="0"/>
      <psa30 value="0.0268860097" flag="0"/>
    </comp>
  </station>
  <station code="VANB" name="VANB" netid="KO" insttype="360s," lat="38.509" lon="43.4058">
    <comp name="--.HHZ">
      <acc value="0.0124098706" flag="0"/>
      <vel value="0.0155932181" flag="0"/>
      <psa03 value="0.0166198202" flag="0"/>
      <psa10 value="0.0395433746" flag="0"/>
      <psa30 value="0.0019951864" flag="0"/>
    </comp>
    <comp name="--.HHN">
      <acc value="0.0152718479" flag="0"/>
      <vel value="0.0209348314" flag="0"/>
      <psa03 value="0.0209672344" flag="0"/>
      <psa10 value="0.0408042305" flag="0"/>
      <psa30 value="0.0042437607" flag="0"/>
    </comp>
    <comp name="--.HHE">
      <acc value="0.0137740780" flag="0"/>
      <vel value="0.0179370585" flag="0"/>
      <psa03 value="0.0252896424" flag="0"/>
      <psa10 value="0.0321758600" flag="0"/>
      <psa30 value="0.0043022184" flag="0"/>
    </comp>
  </station>
</stationlist>
