<stationlist xmlns:esm="https://esm-db.eu/esmws/shakemap/1/" created="1780710931">
	<station code="TRIZ" name="TRIZ" netid="CL" source="Corinth Riff Laboratory (CRLNET)" insttype="" lat="38.36543" lon="22.07272" esm:processing="manual (Paolucci et al 2011)" esm:quality="bad">
		<comp name="00.HNE" depth="0.0">
			<acc value="0.0457471863378674" flag="0"/>
			<vel value="0.0362667800278701" flag="0"/>
			<psa03 value="0.118701074158275" flag="0"/>
			<psa10 value="0.0345217443604599" flag="0"/>
			<psa30 value="0.014119298142528" flag="0"/>
		</comp>
		<comp name="00.HNN" depth="0.0">
			<acc value="0.0934411246825376" flag="0"/>
			<vel value="0.0601177383470077" flag="0"/>
			<psa03 value="0.291674444944514" flag="0"/>
			<psa10 value="0.0403968435115052" flag="0"/>
			<psa30 value="0.0191751674903927" flag="0"/>
		</comp>
		<comp name="00.HNZ" depth="0.0">
			<acc value="0.0451923947888745" flag="0"/>
			<vel value="0.0331415544031897" flag="0"/>
			<psa03 value="0.0904687417821455" flag="0"/>
			<psa10 value="0.0208789507184165" flag="0"/>
			<psa30 value="0.019695071931297" flag="0"/>
		</comp>
	</station>
	<station code="KTHA" name="KTHA" netid="GE" source="GEOFON" insttype="" lat="36.2566" lon="23.0621" esm:processing="manual (Paolucci et al 2011)" esm:quality="good">
		<comp name="--.HNE" depth="0.0">
			<acc value="2.60217884763851" flag="0"/>
			<vel value="2.37121875348299" flag="0"/>
			<psa03 value="6.2402850414636" flag="0"/>
			<psa10 value="2.94153610613232" flag="0"/>
			<psa30 value="0.475864686929953" flag="0"/>
		</comp>
		<comp name="--.HNN" depth="0.0">
			<acc value="1.23191667784533" flag="0"/>
			<vel value="0.992796433139922" flag="0"/>
			<psa03 value="3.97691103526509" flag="0"/>
			<psa10 value="1.01975452995819" flag="0"/>
			<psa30 value="0.120014257922521" flag="0"/>
		</comp>
		<comp name="--.HNZ" depth="0.0">
			<acc value="0.526156308342059" flag="0"/>
			<vel value="0.346304846726378" flag="0"/>
			<psa03 value="1.22011997448027" flag="0"/>
			<psa10 value="0.867952276499589" flag="0"/>
			<psa30 value="0.0588588202284027" flag="0"/>
		</comp>
	</station>
	<station code="AGN1" name="AGN1" netid="HI" source="ITSAK Strong Motion Network" insttype="" lat="35.1879" lon="25.7155" esm:processing="automatic (Paolucci et al 2011)" esm:quality="best">
		<comp name="--.HNE" depth="0.0">
			<acc value="0.19706220294896" flag="0"/>
			<vel value="0.125388542765203" flag="0"/>
			<psa03 value="0.739873763005687" flag="0"/>
			<psa10 value="0.129791823071293" flag="0"/>
			<psa30 value="0.0232026253933931" flag="0"/>
		</comp>
		<comp name="--.HNN" depth="0.0">
			<acc value="0.16219678759489" flag="0"/>
			<vel value="0.0709683619368905" flag="0"/>
			<psa03 value="0.457980630635794" flag="0"/>
			<psa10 value="0.116599439140603" flag="0"/>
			<psa30 value="0.0261176268312656" flag="0"/>
		</comp>
		<comp name="--.HNZ" depth="0.0">
			<acc value="0.118069006539219" flag="0"/>
			<vel value="0.0620736933796851" flag="0"/>
			<psa03 value="0.271060539763797" flag="0"/>
			<psa10 value="0.0472376455121848" flag="0"/>
			<psa30 value="0.0194857425014763" flag="0"/>
		</comp>
	</station>
	<station code="AIG2" name="AIG2" netid="HI" source="ITSAK Strong Motion Network" insttype="" lat="38.2417" lon="22.0726" esm:processing="automatic (Paolucci et al 2011)" esm:quality="best">
		<comp name="--.HNE" depth="0.0">
			<acc value="0.087111495870813" flag="0"/>
			<vel value="0.0967021269679538" flag="0"/>
			<psa03 value="0.244630872261368" flag="0"/>
			<psa10 value="0.084725710162486" flag="0"/>
			<psa30 value="0.0345892347003771" flag="0"/>
		</comp>
		<comp name="--.HNN" depth="0.0">
			<acc value="0.0707200886978263" flag="0"/>
			<vel value="0.0821282112016066" flag="0"/>
			<psa03 value="0.163639965344601" flag="0"/>
			<psa10 value="0.106832592134922" flag="0"/>
			<psa30 value="0.0488733176174343" flag="0"/>
		</comp>
		<comp name="--.HNZ" depth="0.0">
			<acc value="0.0673986305793909" flag="0"/>
			<vel value="0.0622632203558744" flag="0"/>
			<psa03 value="0.202477079779496" flag="0"/>
			<psa10 value="0.0952554702074116" flag="0"/>
			<psa30 value="0.024220557826421" flag="0"/>
		</comp>
	</station>
	<station code="AOL1" name="AOL1" netid="HI" source="ITSAK Strong Motion Network" insttype="" lat="37.642378" lon="21.624555" esm:processing="automatic (Paolucci et al 2011)" esm:quality="best">
		<comp name="--.HNE" depth="0.0">
			<acc value="0.174469562693142" flag="0"/>
			<vel value="0.210401152825922" flag="0"/>
			<psa03 value="0.432622367441976" flag="0"/>
			<psa10 value="0.225135214103028" flag="0"/>
			<psa30 value="0.0895950152300494" flag="0"/>
		</comp>
		<comp name="--.HNN" depth="0.0">
			<acc value="0.199310973805633" flag="0"/>
			<vel value="0.251828257505745" flag="0"/>
			<psa03 value="0.366561574571991" flag="0"/>
			<psa10 value="0.236911294210541" flag="0"/>
			<psa30 value="0.137888601109768" flag="0"/>
		</comp>
		<comp name="--.HNZ" depth="0.0">
			<acc value="0.172791494627975" flag="0"/>
			<vel value="0.147881339598772" flag="0"/>
			<psa03 value="0.294266285363888" flag="0"/>
			<psa10 value="0.111728886490393" flag="0"/>
			<psa30 value="0.0797112404784792" flag="0"/>
		</comp>
	</station>
	<station code="ARE2" name="ARE2" netid="HI" source="ITSAK Strong Motion Network" insttype="" lat="36.66629" lon="22.382635" esm:processing="manual (Paolucci et al 2011)" esm:quality="good">
		<comp name="--.HNE" depth="0.0">
			<acc value="0.31248171178957" flag="0"/>
			<vel value="0.262268945168483" flag="0"/>
			<psa03 value="0.85255797778189" flag="0"/>
			<psa10 value="0.254238942082173" flag="0"/>
			<psa30 value="0.0787422896235737" flag="0"/>
		</comp>
		<comp name="--.HNN" depth="0.0">
			<acc value="0.271999960591437" flag="0"/>
			<vel value="0.206763062705361" flag="0"/>
			<psa03 value="0.660033348970093" flag="0"/>
			<psa10 value="0.143864915344589" flag="0"/>
			<psa30 value="0.0360715662308994" flag="0"/>
		</comp>
		<comp name="--.HNZ" depth="0.0">
			<acc value="0.158716445026849" flag="0"/>
			<vel value="0.12109794161534" flag="0"/>
			<psa03 value="0.42409880279765" flag="0"/>
			<psa10 value="0.12513172686279" flag="0"/>
			<psa30 value="0.0412122301079855" flag="0"/>
		</comp>
	</station>
	<station code="ARG2" name="ARG2" netid="HI" source="ITSAK Strong Motion Network" insttype="" lat="38.1783" lon="20.4878" esm:processing="manual (Paolucci et al 2011)" esm:quality="good">
		<comp name="--.HNE" depth="0.0">
			<acc value="0.39026414282362" flag="0"/>
			<vel value="0.163656922728043" flag="0"/>
			<psa03 value="0.800008913329447" flag="0"/>
			<psa10 value="0.0663939182712294" flag="0"/>
			<psa30 value="0.0122755123591274" flag="0"/>
		</comp>
		<comp name="--.HNN" depth="0.0">
			<acc value="0.401395096112758" flag="0"/>
			<vel value="0.167332458936033" flag="0"/>
			<psa03 value="0.845221491777117" flag="0"/>
			<psa10 value="0.0619756680840441" flag="0"/>
			<psa30 value="0.0149536472723923" flag="0"/>
		</comp>
		<comp name="--.HNZ" depth="0.0">
			<acc value="0.227159994045732" flag="0"/>
			<vel value="0.0807144912527932" flag="0"/>
			<psa03 value="0.706567223275695" flag="0"/>
			<psa10 value="0.0268500649350277" flag="0"/>
			<psa30 value="0.0139974772641896" flag="0"/>
		</comp>
	</station>
	<station code="ARK1" name="ARK1" netid="HI" source="ITSAK Strong Motion Network" insttype="" lat="35.148777" lon="25.264194" esm:processing="manual (Paolucci et al 2011)" esm:quality="good">
		<comp name="--.HNE" depth="0.0">
			<acc value="0.276148972135625" flag="0"/>
			<vel value="0.233199742476344" flag="0"/>
			<psa03 value="0.707892144380411" flag="0"/>
			<psa10 value="0.343461702652178" flag="0"/>
			<psa30 value="0.092679832917415" flag="0"/>
		</comp>
		<comp name="--.HNN" depth="0.0">
			<acc value="0.265462608172757" flag="0"/>
			<vel value="0.193437053438542" flag="0"/>
			<psa03 value="0.698724953765689" flag="0"/>
			<psa10 value="0.340303933465467" flag="0"/>
			<psa30 value="0.0570560463497208" flag="0"/>
		</comp>
		<comp name="--.HNZ" depth="0.0">
			<acc value="0.164750922114113" flag="0"/>
			<vel value="0.126296022148007" flag="0"/>
			<psa03 value="0.442554775415258" flag="0"/>
			<psa10 value="0.181345618257211" flag="0"/>
			<psa30 value="0.0363430442149835" flag="0"/>
		</comp>
	</station>
	<station code="ARS1" name="ARS1" netid="HI" source="ITSAK Strong Motion Network" insttype="" lat="37.6349" lon="22.7293" esm:processing="manual (Paolucci et al 2011)" esm:quality="good">
		<comp name="--.HNE" depth="0.0">
			<acc value="0.377517038199376" flag="0"/>
			<vel value="0.28421087093808" flag="0"/>
			<psa03 value="1.21734595766994" flag="0"/>
			<psa10 value="0.234307329884764" flag="0"/>
			<psa30 value="0.0536839366109334" flag="0"/>
		</comp>
		<comp name="--.HNN" depth="0.0">
			<acc value="0.63623249564899" flag="0"/>
			<vel value="0.396002591128709" flag="0"/>
			<psa03 value="1.35313855475639" flag="0"/>
			<psa10 value="0.359214595523059" flag="0"/>
			<psa30 value="0.0383588360000429" flag="0"/>
		</comp>
		<comp name="--.HNZ" depth="0.0">
			<acc value="0.24470171189412" flag="0"/>
			<vel value="0.126789458634127" flag="0"/>
			<psa03 value="0.58974702543544" flag="0"/>
			<psa10 value="0.0655442007413048" flag="0"/>
			<psa30 value="0.0412787124039513" flag="0"/>
		</comp>
	</station>
	<station code="ART2" name="ART2" netid="HI" source="ITSAK Strong Motion Network" insttype="" lat="39.1474" lon="20.9937" esm:processing="manual (Paolucci et al 2011)" esm:quality="good">
		<comp name="--.HNE" depth="0.0">
			<acc value="0.114873992100143" flag="0"/>
			<vel value="0.0457054911484052" flag="0"/>
			<psa03 value="0.407882686893054" flag="0"/>
			<psa10 value="0.0213596449716334" flag="0"/>
			<psa30 value="0.021914208375407" flag="0"/>
		</comp>
		<comp name="--.HNN" depth="0.0">
			<acc value="0.0879029871163427" flag="0"/>
			<vel value="0.0585784465927637" flag="0"/>
			<psa03 value="0.200090630022453" flag="0"/>
			<psa10 value="0.0528622493644254" flag="0"/>
			<psa30 value="0.0180541459985803" flag="0"/>
		</comp>
		<comp name="--.HNZ" depth="0.0">
			<acc value="0.0721091505587696" flag="0"/>
			<vel value="0.0333898400239615" flag="0"/>
			<psa03 value="0.146905763035865" flag="0"/>
			<psa10 value="0.0353688555131012" flag="0"/>
			<psa30 value="0.0169507445703224" flag="0"/>
		</comp>
	</station>
	<station code="ATH5" name="ATH5" netid="HI" source="ITSAK Strong Motion Network" insttype="" lat="37.975421" lon="23.737098" esm:processing="manual (Paolucci et al 2011)" esm:quality="good">
		<comp name="--.HNE" depth="0.0">
			<acc value="0.121302855034227" flag="0"/>
			<vel value="0.0826614795272424" flag="0"/>
			<psa03 value="0.299951753168894" flag="0"/>
			<psa10 value="0.152374058859186" flag="0"/>
			<psa30 value="0.0242162719100734" flag="0"/>
		</comp>
		<comp name="--.HNN" depth="0.0">
			<acc value="0.106773805901429" flag="0"/>
			<vel value="0.0957833244662254" flag="0"/>
			<psa03 value="0.27959404915758" flag="0"/>
			<psa10 value="0.0821587717469339" flag="0"/>
			<psa30 value="0.0392277296525698" flag="0"/>
		</comp>
		<comp name="--.HNZ" depth="0.0">
			<acc value="0.0885184579879383" flag="0"/>
			<vel value="0.0481397854695377" flag="0"/>
			<psa03 value="0.153331542080817" flag="0"/>
			<psa10 value="0.0435216392217253" flag="0"/>
			<psa30 value="0.0172897309034987" flag="0"/>
		</comp>
	</station>
	<station code="CH01" name="CH01" netid="HI" source="ITSAK Strong Motion Network" insttype="" lat="35.517" lon="24.0208" esm:processing="manual (Paolucci et al 2011)" esm:quality="good">
		<comp name="--.HNE" depth="0.0">
			<acc value="1.47458319711985" flag="0"/>
			<vel value="0.685035790439955" flag="0"/>
			<psa03 value="3.78675665713743" flag="0"/>
			<psa10 value="0.562841746907608" flag="0"/>
			<psa30 value="0.117055008376789" flag="0"/>
		</comp>
		<comp name="--.HNN" depth="0.0">
			<acc value="1.21876975111705" flag="0"/>
			<vel value="0.721590013304639" flag="0"/>
			<psa03 value="2.67862642582269" flag="0"/>
			<psa10 value="1.04705219763807" flag="0"/>
			<psa30 value="0.123206166942669" flag="0"/>
		</comp>
		<comp name="--.HNZ" depth="0.0">
			<acc value="0.917427170814656" flag="0"/>
			<vel value="0.47072154185917" flag="0"/>
			<psa03 value="1.57291227366534" flag="0"/>
			<psa10 value="1.13329011636239" flag="0"/>
			<psa30 value="0.0577192362258353" flag="0"/>
		</comp>
	</station>
	<station code="CH02" name="CH02" netid="HI" source="ITSAK Strong Motion Network" insttype="" lat="35.5145" lon="24.0315" esm:processing="manual (Paolucci et al 2011)" esm:quality="good">
		<comp name="--.HNE" depth="0.0">
			<acc value="1.13252136951112" flag="0"/>
			<vel value="0.902660319006483" flag="0"/>
			<psa03 value="4.74540735994834" flag="0"/>
			<psa10 value="1.01439587874857" flag="0"/>
			<psa30 value="0.126467897877562" flag="0"/>
		</comp>
		<comp name="--.HNN" depth="0.0">
			<acc value="1.63465117205756" flag="0"/>
			<vel value="0.611503592817614" flag="0"/>
			<psa03 value="3.68294364360811" flag="0"/>
			<psa10 value="0.64963285498841" flag="0"/>
			<psa30 value="0.104165240435962" flag="0"/>
		</comp>
		<comp name="--.HNZ" depth="0.0">
			<acc value="1.00736880880136" flag="0"/>
			<vel value="0.479177476271861" flag="0"/>
			<psa03 value="2.40189561379652" flag="0"/>
			<psa10 value="0.696359870423858" flag="0"/>
			<psa30 value="0.0517402342032547" flag="0"/>
		</comp>
	</station>
	<station code="CH03" name="CH03" netid="HI" source="ITSAK Strong Motion Network" insttype="" lat="35.53303" lon="24.0705" esm:processing="manual (Paolucci et al 2011)" esm:quality="good">
		<comp name="--.HNE" depth="0.0">
			<acc value="0.921428773263916" flag="0"/>
			<vel value="0.531973960145272" flag="0"/>
			<psa03 value="3.68433340233947" flag="0"/>
			<psa10 value="0.695620621452242" flag="0"/>
			<psa30 value="0.108295034014519" flag="0"/>
		</comp>
		<comp name="--.HNN" depth="0.0">
			<acc value="1.26108598287593" flag="0"/>
			<vel value="0.878675062396056" flag="0"/>
			<psa03 value="4.13762909762129" flag="0"/>
			<psa10 value="0.937632733566936" flag="0"/>
			<psa30 value="0.0901281038778894" flag="0"/>
		</comp>
		<comp name="--.HNZ" depth="0.0">
			<acc value="0.834712849457731" flag="0"/>
			<vel value="0.413559745195322" flag="0"/>
			<psa03 value="2.53925187964169" flag="0"/>
			<psa10 value="0.510642227541472" flag="0"/>
			<psa30 value="0.0540944201565204" flag="0"/>
		</comp>
	</station>
	<station code="GOR1" name="GOR1" netid="HI" source="ITSAK Strong Motion Network" insttype="" lat="35.0582" lon="24.9628" esm:processing="manual (Paolucci et al 2011)" esm:quality="good">
		<comp name="--.HNE" depth="0.0">
			<acc value="0.247736676089453" flag="0"/>
			<vel value="0.179438275673288" flag="0"/>
			<psa03 value="0.548134561224576" flag="0"/>
			<psa10 value="0.3718633541222" flag="0"/>
			<psa30 value="0.0861101977113247" flag="0"/>
		</comp>
		<comp name="--.HNN" depth="0.0">
			<acc value="0.261737698244098" flag="0"/>
			<vel value="0.202054489402412" flag="0"/>
			<psa03 value="0.753866273274154" flag="0"/>
			<psa10 value="0.447719989251992" flag="0"/>
			<psa30 value="0.0592422911777111" flag="0"/>
		</comp>
		<comp name="--.HNZ" depth="0.0">
			<acc value="0.217771584199046" flag="0"/>
			<vel value="0.175345340080484" flag="0"/>
			<psa03 value="0.46247026138513" flag="0"/>
			<psa10 value="0.269767100746476" flag="0"/>
			<psa30 value="0.0427522987966445" flag="0"/>
		</comp>
	</station>
	<station code="GTH2" name="GTH2" netid="HI" source="ITSAK Strong Motion Network" insttype="" lat="36.7603" lon="22.5659" esm:processing="automatic (Paolucci et al 2011)" esm:quality="best">
		<comp name="--.HNE" depth="0.0">
			<acc value="0.711138909975594" flag="0"/>
			<vel value="0.793841916692264" flag="0"/>
			<psa03 value="1.25875488633357" flag="0"/>
			<psa10 value="0.511108038399156" flag="0"/>
			<psa30 value="0.227303911101894" flag="0"/>
		</comp>
		<comp name="--.HNN" depth="0.0">
			<acc value="0.55821990019264" flag="0"/>
			<vel value="0.473058938242969" flag="0"/>
			<psa03 value="1.46592261017855" flag="0"/>
			<psa10 value="0.489104400766151" flag="0"/>
			<psa30 value="0.105530610885054" flag="0"/>
		</comp>
		<comp name="--.HNZ" depth="0.0">
			<acc value="0.377807869115949" flag="0"/>
			<vel value="0.198057363270669" flag="0"/>
			<psa03 value="0.74660695904688" flag="0"/>
			<psa10 value="0.165367249768717" flag="0"/>
			<psa30 value="0.044303451552902" flag="0"/>
		</comp>
	</station>
	<station code="HER1" name="HER1" netid="HI" source="ITSAK Strong Motion Network" insttype="" lat="35.317672" lon="25.10217" esm:processing="manual (Paolucci et al 2011)" esm:quality="good">
		<comp name="--.HNE" depth="0.0">
			<acc value="0.658540799180924" flag="0"/>
			<vel value="0.644744903250753" flag="0"/>
			<psa03 value="1.6044022837773" flag="0"/>
			<psa10 value="1.58425542914706" flag="0"/>
			<psa30 value="0.0795144474419063" flag="0"/>
		</comp>
		<comp name="--.HNN" depth="0.0">
			<acc value="0.631968351506011" flag="0"/>
			<vel value="0.602406750005644" flag="0"/>
			<psa03 value="1.63487163555565" flag="0"/>
			<psa10 value="1.26594310251761" flag="0"/>
			<psa30 value="0.0789499567138326" flag="0"/>
		</comp>
		<comp name="--.HNZ" depth="0.0">
			<acc value="0.543997900124367" flag="0"/>
			<vel value="0.66609739042938" flag="0"/>
			<psa03 value="1.24319010524321" flag="0"/>
			<psa10 value="1.01318511854165" flag="0"/>
			<psa30 value="0.0379555610363091" flag="0"/>
		</comp>
	</station>
	<station code="HER2" name="HER2" netid="HI" source="ITSAK Strong Motion Network" insttype="" lat="35.337866" lon="25.135624" esm:processing="manual (Paolucci et al 2011)" esm:quality="good">
		<comp name="--.HNE" depth="0.0">
			<acc value="0.72604975217898" flag="0"/>
			<vel value="0.521929671697195" flag="0"/>
			<psa03 value="1.93616476141324" flag="0"/>
			<psa10 value="0.796940693409756" flag="0"/>
			<psa30 value="0.053980865967446" flag="0"/>
		</comp>
		<comp name="--.HNN" depth="0.0">
			<acc value="0.553956513645999" flag="0"/>
			<vel value="0.398215103530421" flag="0"/>
			<psa03 value="1.83287625238976" flag="0"/>
			<psa10 value="0.706463939768864" flag="0"/>
			<psa30 value="0.0355652360223413" flag="0"/>
		</comp>
		<comp name="--.HNZ" depth="0.0">
			<acc value="0.342597667671963" flag="0"/>
			<vel value="0.157598095960986" flag="0"/>
			<psa03 value="0.898661115221817" flag="0"/>
			<psa10 value="0.15268348953185" flag="0"/>
			<psa30 value="0.0284104920556672" flag="0"/>
		</comp>
	</station>
	<station code="KIS1" name="KIS1" netid="HI" source="ITSAK Strong Motion Network" insttype="" lat="35.493933" lon="23.658993" esm:processing="manual (Paolucci et al 2011)" esm:quality="good">
		<comp name="--.HNE" depth="0.0">
			<acc value="3.11838304453148" flag="0"/>
			<vel value="2.2870169149659" flag="0"/>
			<psa03 value="9.17893205920106" flag="0"/>
			<psa10 value="2.00889755960417" flag="0"/>
			<psa30 value="0.363907200399396" flag="0"/>
		</comp>
		<comp name="--.HNN" depth="0.0">
			<acc value="3.7343456631875" flag="0"/>
			<vel value="1.87564290007279" flag="0"/>
			<psa03 value="7.18753680570544" flag="0"/>
			<psa10 value="1.84974385645242" flag="0"/>
			<psa30 value="0.164122632318919" flag="0"/>
		</comp>
		<comp name="--.HNZ" depth="0.0">
			<acc value="1.48024171740083" flag="0"/>
			<vel value="1.14525090279825" flag="0"/>
			<psa03 value="3.53441913792186" flag="0"/>
			<psa10 value="1.22484938026019" flag="0"/>
			<psa30 value="0.143809700020178" flag="0"/>
		</comp>
	</station>
	<station code="KLV1" name="KLV1" netid="HI" source="ITSAK Strong Motion Network" insttype="" lat="38.03256" lon="22.10797" esm:processing="manual (Paolucci et al 2011)" esm:quality="good">
		<comp name="--.HNE" depth="0.0">
			<acc value="0.175234074636166" flag="0"/>
			<vel value="0.14211417950793" flag="0"/>
			<psa03 value="0.904329480168509" flag="0"/>
