<?xml version="1.0" encoding="UTF-8" standalone="yes"?>
<!DOCTYPE earthquake SYSTEM "stationlist.dtd">
<stationlist created="" xmlns="ch.ethz.sed.shakemap.usgs.xml">
  <station code="GVD" name="GVD" netid="GE" source="GFZ" insttype="STS-2/N" lat="34.8391" lon="24.0874">
    <comp name="--.HHE">
      <acc value="0.8858258251" flag="0"/>
      <vel value="0.6431466631" flag="0"/>
      <psa03 value="1.8220752177" flag="0"/>
      <psa10 value="0.3136814607" flag="0"/>
      <psa30 value="0.0783032223" flag="0"/>
    </comp>
    <comp name="--.HHN">
      <acc value="0.6919904291" flag="0"/>
      <vel value="0.4957677743" flag="0"/>
      <psa03 value="1.9825134607" flag="0"/>
      <psa10 value="0.4610996220" flag="0"/>
      <psa30 value="0.0573344597" flag="0"/>
    </comp>
    <comp name="--.HHZ">
      <acc value="0.3770197960" flag="0"/>
      <vel value="0.1764572735" flag="0"/>
      <psa03 value="0.9751136472" flag="0"/>
      <psa10 value="0.1967227549" flag="0"/>
      <psa30 value="0.0342528677" flag="0"/>
    </comp>
  </station>
  <station code="KTHA" name="KTHA" netid="GE" source="GFZ" insttype="STS-2/N" lat="36.2566" lon="23.0621">
    <comp name="--.HHE">
      <acc value="2.7104906253" flag="0"/>
      <vel value="1.4750244952" flag="0"/>
      <psa03 value="7.1104118219" flag="0"/>
      <psa10 value="2.6316205360" flag="0"/>
      <psa30 value="0.3578873575" flag="0"/>
    </comp>
    <comp name="--.HHN">
      <acc value="1.2675413217" flag="0"/>
      <vel value="1.0659336378" flag="0"/>
      <psa03 value="3.9028361187" flag="0"/>
      <psa10 value="1.0532538496" flag="0"/>
      <psa30 value="0.1102308360" flag="0"/>
    </comp>
    <comp name="--.HHZ">
      <acc value="3.2067458609" flag="0"/>
      <vel value="0.3552041141" flag="0"/>
      <psa03 value="0.9648794883" flag="0"/>
      <psa10 value="0.8960094983" flag="0"/>
      <psa30 value="0.0631360419" flag="0"/>
    </comp>
  </station>
  <station code="THERA" name="THERA" netid="GE" source="GFZ" insttype="STS-2/N" lat="36.367" lon="25.4753">
    <comp name="--.HHE">
      <acc value="0.1128655697" flag="0"/>
      <vel value="0.0286086581" flag="0"/>
      <psa03 value="0.1283745854" flag="0"/>
      <psa10 value="0.0132592881" flag="0"/>
      <psa30 value="0.0059158628" flag="0"/>
    </comp>
    <comp name="--.HHN">
      <acc value="0.1967341004" flag="0"/>
      <vel value="0.1032907449" flag="0"/>
      <psa03 value="0.6434981071" flag="0"/>
      <psa10 value="0.0763848778" flag="0"/>
      <psa30 value="0.0286768778" flag="0"/>
    </comp>
    <comp name="--.HHZ">
      <acc value="0.1761629125" flag="0"/>
      <vel value="0.1011149879" flag="0"/>
      <psa03 value="0.3845455430" flag="0"/>
      <psa10 value="0.0804554588" flag="0"/>
      <psa30 value="0.0153480148" flag="0"/>
    </comp>
  </station>
  <station code="SNT5" name="SNT5" netid="HA" source="NOA" insttype="1s-100Hz," lat="36.4037" lon="25.3953">
    <comp name="--.HHE">
      <acc value="0.8348479669" flag="0"/>
      <vel value="0.5586740506" flag="0"/>
      <psa03 value="2.5770468909" flag="0"/>
      <psa10 value="0.2691310439" flag="0"/>
      <psa30 value="0.1395975238" flag="0"/>
    </comp>
    <comp name="--.HHN">
      <acc value="0.6258274999" flag="0"/>
      <vel value="0.3256175977" flag="0"/>
      <psa03 value="1.5511151983" flag="0"/>
      <psa10 value="0.1489779946" flag="0"/>
      <psa30 value="0.1389936050" flag="0"/>
    </comp>
    <comp name="--.HHZ">
      <acc value="0.2279097469" flag="0"/>
      <vel value="0.1533092259" flag="0"/>
      <psa03 value="0.2864840889" flag="0"/>
      <psa10 value="0.1286684532" flag="0"/>
      <psa30 value="0.0444394372" flag="0"/>
    </comp>
  </station>
  <station code="CHAN" name="CHAN" netid="HC" source="NOA" insttype="120" lat="35.5193" lon="24.0428">
    <comp name="--.HHE">
      <acc value="35.7639232552" flag="0"/>
      <vel value="1.2576203865" flag="0"/>
      <psa03 value="5.4407085118" flag="0"/>
      <psa10 value="1.2966686801" flag="0"/>
      <psa30 value="0.1174124449" flag="0"/>
    </comp>
    <comp name="--.HHN">
      <acc value="0.0163871141" flag="0"/>
      <vel value="-100.0000000000" flag="0"/>
      <psa03 value="0.0000004987" flag="0"/>
      <psa10 value="0.0000005140" flag="0"/>
      <psa30 value="0.0000006628" flag="0"/>
    </comp>
    <comp name="--.HHZ">
      <acc value="1.9901302020" flag="0"/>
      <vel value="0.9103305845" flag="0"/>
      <psa03 value="4.7436288271" flag="0"/>
      <psa10 value="0.8184321123" flag="0"/>
      <psa30 value="0.0923604489" flag="0"/>
    </comp>
  </station>
  <station code="CH01" name="CH01" netid="HI" source="NOA" insttype="CMG-5TD,ACCELEROMETER,GURALP" lat="35.517" lon="24.0208">
    <comp name="--.HNE">
      <acc value="1.4896128305" flag="0"/>
      <vel value="0.6845266754" flag="0"/>
      <psa03 value="3.6880824202" flag="0"/>
      <psa10 value="0.5603225670" flag="0"/>
      <psa30 value="0.1167759764" flag="0"/>
    </comp>
    <comp name="--.HNN">
      <acc value="1.2090840924" flag="0"/>
      <vel value="0.7364316905" flag="0"/>
      <psa03 value="2.6588734430" flag="0"/>
      <psa10 value="1.0480312095" flag="0"/>
      <psa30 value="0.1226981852" flag="0"/>
    </comp>
    <comp name="--.HNZ">
      <acc value="0.9267154968" flag="0"/>
      <vel value="0.4478619278" flag="0"/>
      <psa03 value="1.5624083197" flag="0"/>
      <psa10 value="1.1317855439" flag="0"/>
      <psa30 value="0.0578753713" flag="0"/>
    </comp>
  </station>
  <station code="NPS1" name="NPS1" netid="HI" source="NOA" insttype="CMG-5TD,ACCELEROMETER,GURALP" lat="36.5126" lon="23.0625">
    <comp name="--.HNE">
      <acc value="1.2368273619" flag="0"/>
      <vel value="1.1409778460" flag="0"/>
      <psa03 value="3.1394866144" flag="0"/>
      <psa10 value="1.4782412149" flag="0"/>
      <psa30 value="0.2750062795" flag="0"/>
    </comp>
    <comp name="--.HNN">
      <acc value="1.3847036240" flag="0"/>
      <vel value="1.1813164813" flag="0"/>
      <psa03 value="3.8583630510" flag="0"/>
      <psa10 value="1.7323514652" flag="0"/>
      <psa30 value="0.1925810894" flag="0"/>
    </comp>
    <comp name="--.HNZ">
      <acc value="1.0868423130" flag="0"/>
      <vel value="0.6186770382" flag="0"/>
      <psa03 value="2.0048887482" flag="0"/>
      <psa10 value="0.7673441552" flag="0"/>
      <psa30 value="0.0727240708" flag="0"/>
    </comp>
  </station>
  <station code="PYL1" name="PYL1" netid="HI" source="NOA" insttype="CMG-5TD,ACCELEROMETER,GURALP" lat="36.9142" lon="21.6952">
    <comp name="--.HNE">
      <acc value="0.1673411200" flag="0"/>
      <vel value="0.1086714606" flag="0"/>
      <psa03 value="0.2851851983" flag="0"/>
      <psa10 value="0.1093259252" flag="0"/>
      <psa30 value="0.0462015446" flag="0"/>
    </comp>
    <comp name="--.HNN">
      <acc value="0.1372745291" flag="0"/>
      <vel value="0.0734173034" flag="0"/>
      <psa03 value="0.2331724172" flag="0"/>
      <psa10 value="0.0932758400" flag="0"/>
      <psa30 value="0.0401798210" flag="0"/>
    </comp>
    <comp name="--.HNZ">
      <acc value="0.1710656499" flag="0"/>
      <vel value="0.0803298801" flag="0"/>
      <psa03 value="0.3050604465" flag="0"/>
      <psa10 value="0.0754914762" flag="0"/>
      <psa30 value="0.0217361563" flag="0"/>
    </comp>
  </station>
  <station code="ANKY" name="ANKY" netid="HL" source="NOA" insttype="60" lat="35.867" lon="23.3012">
    <comp name="--.HHE">
      <acc value="1.1363102060" flag="0"/>
      <vel value="0.8203768182" flag="0"/>
      <psa03 value="2.8116724225" flag="0"/>
      <psa10 value="0.6079548540" flag="0"/>
      <psa30 value="0.1080700989" flag="0"/>
    </comp>
    <comp name="--.HHN">
      <acc value="1.3893035472" flag="0"/>
      <vel value="0.8402890775" flag="0"/>
      <psa03 value="2.9888864050" flag="0"/>
      <psa10 value="0.6997239021" flag="0"/>
      <psa30 value="0.1065554054" flag="0"/>
    </comp>
    <comp name="--.HHZ">
      <acc value="1.0611173984" flag="0"/>
      <vel value="0.5363069672" flag="0"/>
      <psa03 value="2.6466502663" flag="0"/>
      <psa10 value="0.3564396575" flag="0"/>
      <psa30 value="0.0519825065" flag="0"/>
    </comp>
  </station>
  <station code="GVD" name="GVD" netid="HL" source="NOA" insttype="120" lat="34.8391" lon="24.0874">
    <comp name="--.HHE">
      <acc value="0.8593007814" flag="0"/>
      <vel value="0.6298458545" flag="0"/>
      <psa03 value="1.7798019571" flag="0"/>
      <psa10 value="0.3102962280" flag="0"/>
      <psa30 value="0.0780402173" flag="0"/>
    </comp>
    <comp name="--.HHN">
      <acc value="0.6715707012" flag="0"/>
      <vel value="0.4872456751" flag="0"/>
      <psa03 value="1.9251068990" flag="0"/>
      <psa10 value="0.4579884351" flag="0"/>
      <psa30 value="0.0573476005" flag="0"/>
    </comp>
    <comp name="--.HHZ">
      <acc value="0.3668408864" flag="0"/>
      <vel value="0.1750873085" flag="0"/>
      <psa03 value="0.9458452899" flag="0"/>
      <psa10 value="0.1955630420" flag="0"/>
      <psa30 value="0.0342549240" flag="0"/>
    </comp>
  </station>
  <station code="IACM" name="IACM" netid="HL" source="NOA" insttype="120" lat="35.3058" lon="25.0709">
    <comp name="--.HHE">
      <acc value="1.7298166470" flag="0"/>
      <vel value="0.5228332723" flag="0"/>
      <psa03 value="1.7332163832" flag="0"/>
      <psa10 value="0.2964711001" flag="0"/>
      <psa30 value="0.0429101072" flag="0"/>
    </comp>
    <comp name="--.HHN">
      <acc value="3.6750780341" flag="0"/>
      <vel value="0.6921713426" flag="0"/>
      <psa03 value="2.6132264474" flag="0"/>
      <psa10 value="1.5812810317" flag="0"/>
      <psa30 value="0.0951441247" flag="0"/>
    </comp>
    <comp name="--.HHZ">
      <acc value="2.9528891961" flag="0"/>
      <vel value="0.4811979886" flag="0"/>
      <psa03 value="1.4912085434" flag="0"/>
      <psa10 value="0.6854692689" flag="0"/>
      <psa30 value="0.0765958842" flag="0"/>
    </comp>
  </station>
  <station code="ITM" name="ITM" netid="HL" source="NOA" insttype="DR24" lat="37.1787" lon="21.9252">
    <comp name="--.HHE">
      <acc value="0.1013166485" flag="0"/>
      <vel value="0.0319166381" flag="0"/>
      <psa03 value="0.1674687611" flag="0"/>
      <psa10 value="0.0205086535" flag="0"/>
      <psa30 value="0.0089232331" flag="0"/>
    </comp>
    <comp name="--.HHN">
      <acc value="0.0919825771" flag="0"/>
      <vel value="0.0355794354" flag="0"/>
      <psa03 value="0.1599402280" flag="0"/>
      <psa10 value="0.0167822834" flag="0"/>
      <psa30 value="0.0141593642" flag="0"/>
    </comp>
    <comp name="--.HHZ">
      <acc value="0.1365459692" flag="0"/>
      <vel value="0.0799018967" flag="0"/>
      <psa03 value="0.2301782011" flag="0"/>
      <psa10 value="0.0848559325" flag="0"/>
      <psa30 value="0.0450735518" flag="0"/>
    </comp>
  </station>
  <station code="KTHA" name="KTHA" netid="HL" source="NOA" insttype="120" lat="36.2566" lon="23.0621">
    <comp name="--.HHZ">
      <acc value="2.2853425606" flag="0"/>
      <vel value="0.3529840805" flag="0"/>
      <psa03 value="0.9366568074" flag="0"/>
      <psa10 value="0.8910407442" flag="0"/>
      <psa30 value="0.0630205313" flag="0"/>
    </comp>
  </station>
  <station code="MHLO" name="MHLO" netid="HL" source="NOA" insttype="20" lat="36.6898" lon="24.4017">
    <comp name="--.HHE">
      <acc value="2.3403029092" flag="0"/>
      <vel value="1.6718015357" flag="0"/>
      <psa03 value="4.4974079999" flag="0"/>
      <psa10 value="3.7715145741" flag="0"/>
      <psa30 value="0.2984980346" flag="0"/>
    </comp>
    <comp name="--.HHN">
      <acc value="1.5780555580" flag="0"/>
      <vel value="1.4238064658" flag="0"/>
      <psa03 value="3.7070778413" flag="0"/>
      <psa10 value="2.7677204144" flag="0"/>
      <psa30 value="0.2315526405" flag="0"/>
    </comp>
    <comp name="--.HHZ">
      <acc value="0.9517391972" flag="0"/>
      <vel value="0.9674838767" flag="0"/>
      <psa03 value="2.2026648005" flag="0"/>
      <psa10 value="1.4294939674" flag="0"/>
      <psa30 value="0.1030529945" flag="0"/>
    </comp>
  </station>
  <station code="MNVA" name="MNVA" netid="HL" source="NOA" insttype="CMG-5" lat="36.6871" lon="23.0373">
    <comp name="00.HNE">
      <acc value="0.3945940011" flag="0"/>
      <vel value="0.4937672471" flag="0"/>
      <psa03 value="1.0140373258" flag="0"/>
      <psa10 value="0.5805510238" flag="0"/>
      <psa30 value="0.0919122991" flag="0"/>
    </comp>
    <comp name="00.HNN">
      <acc value="0.2891413119" flag="0"/>
      <vel value="0.2912212730" flag="0"/>
      <psa03 value="0.7913491802" flag="0"/>
      <psa10 value="0.2467697585" flag="0"/>
      <psa30 value="0.1200926228" flag="0"/>
    </comp>
    <comp name="00.HNZ">
      <acc value="0.2350529172" flag="0"/>
      <vel value="0.2383539194" flag="0"/>
      <psa03 value="0.7257787304" flag="0"/>
      <psa10 value="0.2699074720" flag="0"/>
      <psa30 value="0.0907597672" flag="0"/>
    </comp>
  </station>
  <station code="SAP3" name="SAP3" netid="HL" source="NOA" insttype="LE3D20_SMART24" lat="36.4356" lon="25.3454">
    <comp name="--.HHE">
      <acc value="0.8236535983" flag="0"/>
      <vel value="0.9942574621" flag="0"/>
      <psa03 value="2.4768373465" flag="0"/>
      <psa10 value="1.1294674560" flag="0"/>
      <psa30 value="0.4205274692" flag="0"/>
    </comp>
    <comp name="--.HHN">
      <acc value="1.3583029607" flag="0"/>
      <vel value="1.0060026806" flag="0"/>
      <psa03 value="2.9285016815" flag="0"/>
      <psa10 value="1.3019204980" flag="0"/>
      <psa30 value="0.2263149354" flag="0"/>
    </comp>
    <comp name="--.HHZ">
      <acc value="0.8064008733" flag="0"/>
      <vel value="0.4136547070" flag="0"/>
      <psa03 value="2.1222922115" flag="0"/>
      <psa10 value="0.4392371925" flag="0"/>
      <psa30 value="0.0964430005" flag="0"/>
    </comp>
  </station>
  <station code="THERA" name="THERA" netid="HL" source="NOA" insttype="120" lat="36.367" lon="25.4753">
    <comp name="--.HHE">
      <acc value="0.1151245668" flag="0"/>
      <vel value="0.0280008099" flag="0"/>
      <psa03 value="0.1246921128" flag="0"/>
      <psa10 value="0.0130841011" flag="0"/>
      <psa30 value="0.0059151571" flag="0"/>
    </comp>
    <comp name="--.HHN">
      <acc value="0.1915422511" flag="0"/>
      <vel value="0.1016333166" flag="0"/>
      <psa03 value="0.6261916242" flag="0"/>
      <psa10 value="0.0759728565" flag="0"/>
      <psa30 value="0.0286889199" flag="0"/>
    </comp>
    <comp name="--.HHZ">
      <acc value="0.1717479244" flag="0"/>
      <vel value="0.0992375783" flag="0"/>
      <psa03 value="0.3732694307" flag="0"/>
      <psa10 value="0.0799553904" flag="0"/>
      <psa30 value="0.0153585369" flag="0"/>
    </comp>
  </station>
  <station code="VLI" name="VLI" netid="HL" source="NOA" insttype="60" lat="36.718" lon="22.9469">
    <comp name="--.HHE">
      <acc value="0.8756315563" flag="0"/>
      <vel value="0.8224369979" flag="0"/>
      <psa03 value="1.5672442535" flag="0"/>
      <psa10 value="1.0363153496" flag="0"/>
      <psa30 value="0.1657406429" flag="0"/>
    </comp>
    <comp name="--.HHN">
      <acc value="0.7706881729" flag="0"/>
      <vel value="0.7964785705" flag="0"/>
      <psa03 value="2.3483401507" flag="0"/>
      <psa10 value="1.0128082822" flag="0"/>
      <psa30 value="0.1786679786" flag="0"/>
    </comp>
    <comp name="--.HHZ">
      <acc value="0.4786284783" flag="0"/>
      <vel value="0.3454541012" flag="0"/>
      <psa03 value="0.8438420100" flag="0"/>
      <psa10 value="0.4027794665" flag="0"/>
      <psa30 value="0.0716233245" flag="0"/>
    </comp>
  </station>
  <station code="YDRA" name="YDRA" netid="HL" source="NOA" insttype="CMG-5" lat="37.3492" lon="23.4653">
    <comp name="00.HNE">
      <acc value="0.4062623003" flag="0"/>
      <vel value="0.1984389964" flag="0"/>
      <psa03 value="0.9065271404" flag="0"/>
      <psa10 value="0.1792360267" flag="0"/>
      <psa30 value="0.0644639025" flag="0"/>
    </comp>
    <comp name="00.HNZ">
      <acc value="0.2846927048" flag="0"/>
      <vel value="0.2182957435" flag="0"/>
      <psa03 value="0.4918369440" flag="0"/>
      <psa10 value="0.1378261109" flag="0"/>
      <psa30 value="0.0673707434" flag="0"/>
    </comp>
    <comp name="00.HNN">
      <acc value="0.5115445390" flag="0"/>
      <vel value="0.3683833133" flag="0"/>
      <psa03 value="0.8118237189" flag="0"/>
      <psa10 value="0.2417379028" flag="0"/>
      <psa30 value="0.0772172567" flag="0"/>
    </comp>
  </station>
  <station code="PYL" name="PYL" netid="HP" source="NOA" insttype="120s" lat="36.8955" lon="21.742">
    <comp name="--.HHZ">
      <acc value="0.0063107237" flag="0"/>
      <vel value="0.0042722427" flag="0"/>
      <psa03 value="0.0149600913" flag="0"/>
      <psa10 value="0.0040303264" flag="0"/>
      <psa30 value="0.0013225284" flag="0"/>
    </comp>
    <comp name="--.HHE">
      <acc value="0.1344674267" flag="0"/>
      <vel value="0.0885772906" flag="0"/>
      <psa03 value="0.2630883542" flag="0"/>
      <psa10 value="0.1069459158" flag="0"/>
      <psa30 value="0.0304848330" flag="0"/>
    </comp>
    <comp name="--.HHN">
      <acc value="0.0079882741" flag="0"/>
      <vel value="0.0031623132" flag="0"/>
      <psa03 value="0.0134058565" flag="0"/>
      <psa10 value="0.0033043392" flag="0"/>
      <psa30 value="0.0013329819" flag="0"/>
    </comp>
  </station>
  <station code="VLX" name="VLX" netid="HP" source="NOA" insttype="40," lat="37.3703" lon="22.3793">
    <comp name="--.HHE">
      <acc value="0.0691153079" flag="0"/>
      <vel value="0.1143013629" flag="0"/>
      <psa03 value="0.1160029058" flag="0"/>
      <psa10 value="0.0906639082" flag="0"/>
      <psa30 value="0.0571825590" flag="0"/>
    </comp>
    <comp name="--.HHN">
      <acc value="0.0601947017" flag="0"/>
      <vel value="0.0999260769" flag="0"/>
      <psa03 value="0.1284458398" flag="0"/>
      <psa10 value="0.0604906941" flag="0"/>
      <psa30 value="0.0340946740" flag="0"/>
    </comp>
    <comp name="--.HHZ">
      <acc value="0.0366762824" flag="0"/>
      <vel value="0.0538491358" flag="0"/>
      <psa03 value="0.0830968886" flag="0"/>
      <psa10 value="0.0589901893" flag="0"/>
      <psa30 value="0.0343550674" flag="0"/>
    </comp>
  </station>
</stationlist>
