<?xml version="1.0" encoding="UTF-8" standalone="yes"?>
<!DOCTYPE earthquake SYSTEM "stationlist.dtd">
<stationlist created="" xmlns="ch.ethz.sed.shakemap.usgs.xml">
  <station code="APE" name="APE" netid="GE" insttype="STS-2/N" lat="37.0727" lon="25.523">
    <comp name="--.HHE">
      <acc value="0.2046531778" flag="0"/>
      <vel value="0.0488322217" flag="0"/>
      <psa03 value="0.2247240210" flag="0"/>
      <psa10 value="0.0097695026" flag="0"/>
      <psa30 value="0.0024143740" flag="0"/>
    </comp>
    <comp name="--.HHN">
      <acc value="0.1924995039" flag="0"/>
      <vel value="0.0423373407" flag="0"/>
      <psa03 value="0.1430628143" flag="0"/>
      <psa10 value="0.0075928809" flag="0"/>
      <psa30 value="0.0032347164" flag="0"/>
    </comp>
    <comp name="--.HHZ">
      <acc value="0.0886503996" flag="0"/>
      <vel value="0.0173574495" flag="0"/>
      <psa03 value="0.0927387700" flag="0"/>
      <psa10 value="0.0072887689" flag="0"/>
      <psa30 value="0.0030364551" flag="0"/>
    </comp>
  </station>
  <station code="THERA" name="THERA" netid="GE" insttype="STS-2/N" lat="36.367" lon="25.4753">
    <comp name="--.HHE">
      <acc value="0.2506387247" flag="0"/>
      <vel value="0.0635128196" flag="0"/>
      <psa03 value="0.2554374603" flag="0"/>
      <psa10 value="0.0207416787" flag="0"/>
      <psa30 value="0.0025011918" flag="0"/>
    </comp>
    <comp name="--.HHN">
      <acc value="0.1513777087" flag="0"/>
      <vel value="0.0408795614" flag="0"/>
      <psa03 value="0.1674614278" flag="0"/>
      <psa10 value="0.0128147876" flag="0"/>
      <psa30 value="0.0011932561" flag="0"/>
    </comp>
    <comp name="--.HHZ">
      <acc value="0.1692686102" flag="0"/>
      <vel value="0.0496215993" flag="0"/>
      <psa03 value="0.1671889772" flag="0"/>
      <psa10 value="0.0120274487" flag="0"/>
      <psa30 value="0.0016165532" flag="0"/>
    </comp>
  </station>
</stationlist>
