<?xml version="1.0" encoding="UTF-8" standalone="yes"?>
<!DOCTYPE earthquake SYSTEM "stationlist.dtd">
<stationlist created="" xmlns="ch.ethz.sed.shakemap.usgs.xml">
  <station code="KLMT" name="KLMT" netid="HC" source="NOA" insttype="120" lat="37.0616" lon="22.0635">
    <comp name="--.HHE">
      <acc value="0.1026676033" flag="0"/>
      <vel value="0.0678534818" flag="0"/>
      <psa03 value="0.3422166166" flag="0"/>
      <psa10 value="0.0898942937" flag="0"/>
      <psa30 value="0.0063745843" flag="0"/>
    </comp>
    <comp name="--.HHN">
      <acc value="0.0841123326" flag="0"/>
      <vel value="0.0708034562" flag="0"/>
      <psa03 value="0.5180466961" flag="0"/>
      <psa10 value="0.1106203677" flag="0"/>
      <psa30 value="0.0059891404" flag="0"/>
    </comp>
    <comp name="--.HHZ">
      <acc value="0.0560722521" flag="0"/>
      <vel value="0.0287125284" flag="0"/>
      <psa03 value="0.1720991877" flag="0"/>
      <psa10 value="0.0377842508" flag="0"/>
      <psa30 value="0.0023231782" flag="0"/>
    </comp>
  </station>
  <station code="KEF3" name="KEF3" netid="HL" source="NOA" insttype="SMART24" lat="38.2031" lon="20.3482">
    <comp name="--.HHE">
      <acc value="0.0629892785" flag="0"/>
      <vel value="0.0202031001" flag="0"/>
      <psa03 value="0.0822733939" flag="0"/>
      <psa10 value="0.0195727951" flag="0"/>
      <psa30 value="0.0017416007" flag="0"/>
    </comp>
    <comp name="--.HHN">
      <acc value="0.0507677783" flag="0"/>
      <vel value="0.0185130027" flag="0"/>
      <psa03 value="0.1043915749" flag="0"/>
      <psa10 value="0.0155590098" flag="0"/>
      <psa30 value="0.0025130034" flag="0"/>
    </comp>
    <comp name="--.HHZ">
      <acc value="0.0483348343" flag="0"/>
      <vel value="0.0114555049" flag="0"/>
      <psa03 value="0.0516047547" flag="0"/>
      <psa10 value="0.0076330242" flag="0"/>
      <psa30 value="0.0008986424" flag="0"/>
    </comp>
  </station>
  <station code="KEF5" name="KEF5" netid="HL" source="NOA" insttype="SMART24" lat="38.2778" lon="20.4683">
    <comp name="--.HHE">
      <acc value="0.0527068257" flag="0"/>
      <vel value="0.0228694660" flag="0"/>
      <psa03 value="0.0828191939" flag="0"/>
      <psa10 value="0.0251861646" flag="0"/>
      <psa30 value="0.0019986920" flag="0"/>
    </comp>
    <comp name="--.HHN">
      <acc value="0.0475625863" flag="0"/>
      <vel value="0.0231029375" flag="0"/>
      <psa03 value="0.0924994787" flag="0"/>
      <psa10 value="0.0188197012" flag="0"/>
      <psa30 value="0.0022368156" flag="0"/>
    </comp>
    <comp name="--.HHZ">
      <acc value="0.0379451993" flag="0"/>
      <vel value="0.0166895917" flag="0"/>
      <psa03 value="0.0951796232" flag="0"/>
      <psa10 value="0.0121841757" flag="0"/>
      <psa30 value="0.0015639845" flag="0"/>
    </comp>
  </station>
  <station code="VLS" name="VLS" netid="HL" source="NOA" insttype="120P," lat="38.1768" lon="20.5886">
    <comp name="--.HHE">
      <acc value="0.0505123609" flag="0"/>
      <vel value="0.0069133258" flag="0"/>
      <psa03 value="0.0252029818" flag="0"/>
      <psa10 value="0.0055778566" flag="0"/>
      <psa30 value="0.0006298597" flag="0"/>
    </comp>
    <comp name="--.HHN">
      <acc value="0.0272329185" flag="0"/>
      <vel value="0.0097981119" flag="0"/>
      <psa03 value="0.0322938232" flag="0"/>
      <psa10 value="0.0086616870" flag="0"/>
      <psa30 value="0.0007263880" flag="0"/>
    </comp>
    <comp name="--.HHZ">
      <acc value="0.0150223533" flag="0"/>
      <vel value="0.0043272137" flag="0"/>
      <psa03 value="0.0235749458" flag="0"/>
      <psa10 value="0.0033539094" flag="0"/>
      <psa30 value="0.0005067908" flag="0"/>
    </comp>
  </station>
  <station code="DRO" name="DRO" netid="HP" source="NOA" insttype="120P," lat="37.952" lon="21.71">
    <comp name="--.HHE">
      <acc value="0.0380791496" flag="0"/>
      <vel value="0.0220947238" flag="0"/>
      <psa03 value="0.1193656283" flag="0"/>
      <psa10 value="0.0147623552" flag="0"/>
      <psa30 value="0.0010182239" flag="0"/>
    </comp>
    <comp name="--.HHN">
      <acc value="0.0446042660" flag="0"/>
      <vel value="0.0160997676" flag="0"/>
      <psa03 value="0.1084270094" flag="0"/>
      <psa10 value="0.0167960706" flag="0"/>
      <psa30 value="0.0010474189" flag="0"/>
    </comp>
    <comp name="--.HHZ">
      <acc value="0.0231066238" flag="0"/>
      <vel value="0.0101401802" flag="0"/>
      <psa03 value="0.0384195098" flag="0"/>
      <psa10 value="0.0081183963" flag="0"/>
      <psa30 value="0.0015534845" flag="0"/>
    </comp>
  </station>
  <station code="FSK" name="FSK" netid="HP" source="NOA" insttype="DC_100" lat="38.4593" lon="20.5623">
    <comp name="--.HNE">
      <acc value="0.0124347973" flag="0"/>
      <vel value="0.0049559952" flag="0"/>
      <psa03 value="0.0154386933" flag="0"/>
      <psa10 value="0.0046841173" flag="0"/>
      <psa30 value="0.0015972749" flag="0"/>
    </comp>
    <comp name="--.HNN">
      <acc value="0.0061302924" flag="0"/>
      <vel value="0.0039631026" flag="0"/>
      <psa03 value="0.0133268361" flag="0"/>
      <psa10 value="0.0044507474" flag="0"/>
      <psa30 value="0.0006786536" flag="0"/>
    </comp>
    <comp name="--.HNZ">
      <acc value="0.0069128090" flag="0"/>
      <vel value="0.0030515664" flag="0"/>
      <psa03 value="0.0094587277" flag="0"/>
      <psa10 value="0.0036532314" flag="0"/>
      <psa30 value="0.0007266174" flag="0"/>
    </comp>
  </station>
  <station code="LTHK" name="LTHK" netid="HP" source="NOA" insttype="40," lat="37.7095" lon="20.8367">
    <comp name="--.HHE">
      <acc value="0.1591495963" flag="0"/>
      <vel value="0.0303721905" flag="0"/>
      <psa03 value="0.2252720768" flag="0"/>
      <psa10 value="0.0155780821" flag="0"/>
      <psa30 value="0.0015575930" flag="0"/>
    </comp>
    <comp name="--.HHN">
      <acc value="0.1629630720" flag="0"/>
      <vel value="0.0411347826" flag="0"/>
      <psa03 value="0.1956734004" flag="0"/>
      <psa10 value="0.0143637754" flag="0"/>
      <psa30 value="0.0014810728" flag="0"/>
    </comp>
    <comp name="--.HHZ">
      <acc value="0.0697211175" flag="0"/>
      <vel value="0.0183602849" flag="0"/>
      <psa03 value="0.0896623448" flag="0"/>
      <psa10 value="0.0080017931" flag="0"/>
      <psa30 value="0.0007221434" flag="0"/>
    </comp>
  </station>
</stationlist>
