<stationlist xmlns:esm="https://esm-db.eu/esmws/shakemap/1/" created="1783994045">
	<station code="ARG2" name="ARG2" netid="HI" source="ITSAK Strong Motion Network" insttype="" lat="38.1783" lon="20.4878" esm:processing="manual (Paolucci et al 2011)" esm:quality="best">
		<comp name="--.HNE" depth="0.0">
			<acc value="0.0294862915444623" flag="0"/>
			<vel value="0.0102442981728117" flag="0"/>
			<psa03 value="0.0612968230670323" flag="0"/>
			<psa10 value="0.00633012739235309" flag="0"/>
			<psa30 value="0.000918110079806936" flag="0"/>
		</comp>
		<comp name="--.HNN" depth="0.0">
			<acc value="0.0350160796147165" flag="0"/>
			<vel value="0.0152906229488528" flag="0"/>
			<psa03 value="0.0753906181517879" flag="0"/>
			<psa10 value="0.0107757130419446" flag="0"/>
			<psa30 value="0.00105860060858831" flag="0"/>
		</comp>
		<comp name="--.HNZ" depth="0.0">
			<acc value="0.0198648900313966" flag="0"/>
			<vel value="0.00814462074548878" flag="0"/>
			<psa03 value="0.0557935316529849" flag="0"/>
			<psa10 value="0.007010656355017" flag="0"/>
			<psa30 value="0.000737351565069118" flag="0"/>
		</comp>
	</station>
	<station code="KLV1" name="KLV1" netid="HI" source="ITSAK Strong Motion Network" insttype="" lat="38.03256" lon="22.10797" esm:processing="manual (Paolucci et al 2011)" esm:quality="good">
		<comp name="--.HNE" depth="0.0">
			<acc value="0.0203497563618245" flag="0"/>
			<vel value="0.0139305366474033" flag="0"/>
			<psa03 value="0.0479606198639142" flag="0"/>
			<psa10 value="0.0130572559166242" flag="0"/>
			<psa30 value="0.00102044353687551" flag="0"/>
		</comp>
		<comp name="--.HNN" depth="0.0">
			<acc value="0.0191026464645635" flag="0"/>
			<vel value="0.00834627939893558" flag="0"/>
			<psa03 value="0.0384305223960096" flag="0"/>
			<psa10 value="0.0161329274772871" flag="0"/>
			<psa30 value="0.00063371682437916" flag="0"/>
		</comp>
		<comp name="--.HNZ" depth="0.0">
			<acc value="0.00905585660823922" flag="0"/>
			<vel value="0.00722515330875105" flag="0"/>
			<psa03 value="0.0179944016762133" flag="0"/>
			<psa10 value="0.0165731410142541" flag="0"/>
			<psa30 value="0.000861904284428719" flag="0"/>
		</comp>
	</station>
	<station code="KRI1" name="KRI1" netid="HI" source="ITSAK Strong Motion Network" insttype="" lat="37.6621" lon="20.8172" esm:processing="manual (Paolucci et al 2011)" esm:quality="best">
		<comp name="--.HNE" depth="0.0">
			<acc value="0.0744091773524887" flag="0"/>
			<vel value="0.0261636417323531" flag="0"/>
			<psa03 value="0.198700139591745" flag="0"/>
			<psa10 value="0.0212212285990463" flag="0"/>
			<psa30 value="0.00187783041176887" flag="0"/>
		</comp>
		<comp name="--.HNN" depth="0.0">
			<acc value="0.0636684631318517" flag="0"/>
			<vel value="0.0231294282031111" flag="0"/>
			<psa03 value="0.152839377808016" flag="0"/>
			<psa10 value="0.0226346349061175" flag="0"/>
			<psa30 value="0.00167425337165573" flag="0"/>
		</comp>
		<comp name="--.HNZ" depth="0.0">
			<acc value="0.0517748256965399" flag="0"/>
			<vel value="0.016087346536865" flag="0"/>
			<psa03 value="0.0845180283019153" flag="0"/>
			<psa10 value="0.0118750290585555" flag="0"/>
			<psa30 value="0.00133287033515832" flag="0"/>
		</comp>
	</station>
	<station code="MSL1" name="MSL1" netid="HI" source="ITSAK Strong Motion Network" insttype="" lat="38.3727" lon="21.4243" esm:processing="manual (Paolucci et al 2011)" esm:quality="bad">
		<comp name="--.HNE" depth="0.0">
			<acc value="0.0155995353391064" flag="0"/>
			<vel value="0.0185045395708797" flag="0"/>
			<psa03 value="0.0444430170484136" flag="0"/>
			<psa10 value="0.0302521759331741" flag="0"/>
			<psa30 value="0.00248044410891541" flag="0"/>
		</comp>
		<comp name="--.HNN" depth="0.0">
			<acc value="0.0157674419479488" flag="0"/>
			<vel value="0.0174513199838297" flag="0"/>
			<psa03 value="0.05815701407493" flag="0"/>
			<psa10 value="0.0231083708161668" flag="0"/>
			<psa30 value="0.0023908738003199" flag="0"/>
		</comp>
		<comp name="--.HNZ" depth="0.0">
			<acc value="0.00774263063176496" flag="0"/>
			<vel value="0.00680355371558131" flag="0"/>
			<psa03 value="0.0254478342316423" flag="0"/>
			<psa10 value="0.0170109750186032" flag="0"/>
			<psa30 value="0.000678524428081323" flag="0"/>
		</comp>
	</station>
	<station code="PYL1" name="PYL1" netid="HI" source="ITSAK Strong Motion Network" insttype="" lat="36.914188" lon="21.695161" esm:processing="manual (Paolucci et al 2011)" esm:quality="best">
		<comp name="--.HNE" depth="0.0">
			<acc value="0.0299450905125258" flag="0"/>
			<vel value="0.0143878040191451" flag="0"/>
			<psa03 value="0.095658837749865" flag="0"/>
			<psa10 value="0.00798514161516296" flag="0"/>
			<psa30 value="0.000943165715513168" flag="0"/>
		</comp>
		<comp name="--.HNN" depth="0.0">
			<acc value="0.0283379406139154" flag="0"/>
			<vel value="0.0100754060191225" flag="0"/>
			<psa03 value="0.0552566251735656" flag="0"/>
			<psa10 value="0.00649925293337015" flag="0"/>
			<psa30 value="0.000979854324940151" flag="0"/>
		</comp>
		<comp name="--.HNZ" depth="0.0">
			<acc value="0.0198923880744389" flag="0"/>
			<vel value="0.00554632934033719" flag="0"/>
			<psa03 value="0.0199550241517492" flag="0"/>
			<psa10 value="0.00453014842010001" flag="0"/>
			<psa30 value="0.00064876199596494" flag="0"/>
		</comp>
	</station>
	<station code="VAS2" name="VAS2" netid="HI" source="ITSAK Strong Motion Network" insttype="" lat="38.630558" lon="20.608081" esm:processing="manual (Paolucci et al 2011)" esm:quality="good">
		<comp name="--.HNE" depth="0.0">
			<acc value="0.0231178536121341" flag="0"/>
			<vel value="0.0196135638259087" flag="0"/>
			<psa03 value="0.0548933551654635" flag="0"/>
			<psa10 value="0.0389873839728639" flag="0"/>
			<psa30 value="0.00239996815278015" flag="0"/>
		</comp>
		<comp name="--.HNN" depth="0.0">
			<acc value="0.0247572756165755" flag="0"/>
			<vel value="0.0203107575621314" flag="0"/>
			<psa03 value="0.0788608491442311" flag="0"/>
			<psa10 value="0.044574545344802" flag="0"/>
			<psa30 value="0.00241090304382832" flag="0"/>
		</comp>
		<comp name="--.HNZ" depth="0.0">
			<acc value="0.0111005029180438" flag="0"/>
			<vel value="0.00780424484699152" flag="0"/>
			<psa03 value="0.0321321338045101" flag="0"/>
			<psa10 value="0.0155164241369303" flag="0"/>
			<psa30 value="0.000745247181466152" flag="0"/>
		</comp>
	</station>
	<station code="ITM" name="ITM" netid="HL" source="National Observatory of Athens Seismic Network" insttype="" lat="37.17872" lon="21.92522" esm:processing="manual (Paolucci et al 2011)" esm:quality="best">
		<comp name="--.HNE" depth="0.0">
			<acc value="0.0325139880739201" flag="0"/>
			<vel value="0.0119571529791447" flag="0"/>
			<psa03 value="0.0666211456546067" flag="0"/>
			<psa10 value="0.00993411213545488" flag="0"/>
			<psa30 value="0.000850996769879529" flag="0"/>
		</comp>
		<comp name="--.HNN" depth="0.0">
			<acc value="0.057742232162874" flag="0"/>
			<vel value="0.0210955138688309" flag="0"/>
			<psa03 value="0.0998646051719826" flag="0"/>
			<psa10 value="0.0113716792340999" flag="0"/>
			<psa30 value="0.00139237746996062" flag="0"/>
		</comp>
		<comp name="--.HNZ" depth="0.0">
			<acc value="0.0251414248765372" flag="0"/>
			<vel value="0.010031839556142" flag="0"/>
			<psa03 value="0.0469345747425671" flag="0"/>
			<psa10 value="0.00835963388455789" flag="0"/>
			<psa30 value="0.00112392423025099" flag="0"/>
		</comp>
	</station>
	<station code="PATC" name="PATC" netid="HL" source="National Observatory of Athens Seismic Network" insttype="" lat="38.26933" lon="21.76001" esm:processing="manual (Paolucci et al 2011)" esm:quality="good">
		<comp name="00.HNE" depth="0.0">
			<acc value="0.018592386502013" flag="0"/>
			<vel value="0.0179071725822663" flag="0"/>
			<psa03 value="0.0520389264901528" flag="0"/>
			<psa10 value="0.0286711274464827" flag="0"/>
			<psa30 value="0.00340886040360525" flag="0"/>
		</comp>
		<comp name="00.HNN" depth="0.0">
			<acc value="0.0175384792959449" flag="0"/>
			<vel value="0.0213594826392085" flag="0"/>
			<psa03 value="0.0511218657393788" flag="0"/>
			<psa10 value="0.0315021243611345" flag="0"/>
			<psa30 value="0.00313845624065653" flag="0"/>
		</comp>
		<comp name="00.HNZ" depth="0.0">
			<acc value="0.0101552571988582" flag="0"/>
			<vel value="0.0093308382897664" flag="0"/>
			<psa03 value="0.0276230512457448" flag="0"/>
			<psa10 value="0.0214441605703953" flag="0"/>
			<psa30 value="0.00122866785154851" flag="0"/>
		</comp>
	</station>
	<station code="ANX" name="ANX" netid="HP" source="University of Patras, Seismological Laboratory (PSLNET)" insttype="" lat="38.5933" lon="21.9209" esm:processing="manual (Paolucci et al 2011)" esm:quality="good">
		<comp name="--.HNE" depth="0.0">
			<acc value="0.0109833459632052" flag="0"/>
			<vel value="0.00981903420805021" flag="0"/>
			<psa03 value="0.0248766668797591" flag="0"/>
			<psa10 value="0.0103206848006367" flag="0"/>
			<psa30 value="0.000717217572090896" flag="0"/>
		</comp>
		<comp name="--.HNN" depth="0.0">
			<acc value="0.0107698168369589" flag="0"/>
			<vel value="0.00912687703769081" flag="0"/>
			<psa03 value="0.02304223640841" flag="0"/>
			<psa10 value="0.0171823496076149" flag="0"/>
			<psa30 value="0.000647867151832575" flag="0"/>
		</comp>
		<comp name="--.HNZ" depth="0.0">
			<acc value="0.00461640242969592" flag="0"/>
			<vel value="0.0039490323247529" flag="0"/>
			<psa03 value="0.0110513250347131" flag="0"/>
			<psa10 value="0.00504557864034251" flag="0"/>
			<psa30 value="0.000572252822647696" flag="0"/>
		</comp>
	</station>
	<station code="AGRP" name="AGRP" netid="CL" source="Corinth Riff Laboratory (CRLNET)" insttype="" lat="38.3959" lon="21.72277" esm:processing="discarded" esm:quality="bad">
		<comp name="00.HNE" depth="0.0">
			<acc value="0" flag="1"/>
			<vel value="0" flag="1"/>
			<psa03 value="0" flag="1"/>
			<psa10 value="0" flag="1"/>
			<psa30 value="0" flag="1"/>
		</comp>
		<comp name="00.HNN" depth="0.0">
			<acc value="0" flag="1"/>
			<vel value="0" flag="1"/>
			<psa03 value="0" flag="1"/>
			<psa10 value="0" flag="1"/>
			<psa30 value="0" flag="1"/>
		</comp>
		<comp name="00.HNZ" depth="0.0">
			<acc value="0" flag="1"/>
			<vel value="0" flag="1"/>
			<psa03 value="0" flag="1"/>
			<psa10 value="0" flag="1"/>
			<psa30 value="0" flag="1"/>
		</comp>
	</station>
	<station code="ROD3" name="ROD3" netid="CL" source="Corinth Riff Laboratory (CRLNET)" insttype="" lat="38.30811" lon="21.89204" esm:processing="discarded" esm:quality="good">
		<comp name="00.HNE" depth="0.0">
			<acc value="0" flag="1"/>
			<vel value="0" flag="1"/>
			<psa03 value="0" flag="1"/>
			<psa10 value="0" flag="1"/>
			<psa30 value="0" flag="1"/>
		</comp>
		<comp name="00.HNN" depth="0.0">
			<acc value="0" flag="1"/>
			<vel value="0" flag="1"/>
			<psa03 value="0" flag="1"/>
			<psa10 value="0" flag="1"/>
			<psa30 value="0" flag="1"/>
		</comp>
		<comp name="00.HNZ" depth="0.0">
			<acc value="0" flag="1"/>
			<vel value="0" flag="1"/>
			<psa03 value="0" flag="1"/>
			<psa10 value="0" flag="1"/>
			<psa30 value="0" flag="1"/>
		</comp>
	</station>
	<station code="ARS1" name="ARS1" netid="HI" source="ITSAK Strong Motion Network" insttype="" lat="37.6349" lon="22.7293" esm:processing="discarded" esm:quality="bad">
		<comp name="--.HNE" depth="0.0">
			<acc value="0" flag="1"/>
			<vel value="0" flag="1"/>
			<psa03 value="0" flag="1"/>
			<psa10 value="0" flag="1"/>
			<psa30 value="0" flag="1"/>
		</comp>
		<comp name="--.HNN" depth="0.0">
			<acc value="0" flag="1"/>
			<vel value="0" flag="1"/>
			<psa03 value="0" flag="1"/>
			<psa10 value="0" flag="1"/>
			<psa30 value="0" flag="1"/>
		</comp>
		<comp name="--.HNZ" depth="0.0">
			<acc value="0" flag="1"/>
			<vel value="0" flag="1"/>
			<psa03 value="0" flag="1"/>
			<psa10 value="0" flag="1"/>
			<psa30 value="0" flag="1"/>
		</comp>
	</station>
	<station code="ART2" name="ART2" netid="HI" source="ITSAK Strong Motion Network" insttype="" lat="39.1474" lon="20.9937" esm:processing="discarded" esm:quality="bad">
		<comp name="--.HNE" depth="0.0">
			<acc value="0" flag="1"/>
			<vel value="0" flag="1"/>
			<psa03 value="0" flag="1"/>
			<psa10 value="0" flag="1"/>
			<psa30 value="0" flag="1"/>
		</comp>
		<comp name="--.HNN" depth="0.0">
			<acc value="0" flag="1"/>
			<vel value="0" flag="1"/>
			<psa03 value="0" flag="1"/>
			<psa10 value="0" flag="1"/>
			<psa30 value="0" flag="1"/>
		</comp>
		<comp name="--.HNZ" depth="0.0">
			<acc value="0" flag="1"/>
			<vel value="0" flag="1"/>
			<psa03 value="0" flag="1"/>
			<psa10 value="0" flag="1"/>
			<psa30 value="0" flag="1"/>
		</comp>
	</station>
	<station code="LAM2" name="LAM2" netid="HI" source="ITSAK Strong Motion Network" insttype="" lat="38.90203" lon="22.431301" esm:processing="discarded" esm:quality="bad">
		<comp name="--.HNE" depth="0.0">
			<acc value="0" flag="1"/>
			<vel value="0" flag="1"/>
			<psa03 value="0" flag="1"/>
			<psa10 value="0" flag="1"/>
			<psa30 value="0" flag="1"/>
		</comp>
		<comp name="--.HNN" depth="0.0">
			<acc value="0" flag="1"/>
			<vel value="0" flag="1"/>
			<psa03 value="0" flag="1"/>
			<psa10 value="0" flag="1"/>
			<psa30 value="0" flag="1"/>
		</comp>
		<comp name="--.HNZ" depth="0.0">
			<acc value="0" flag="1"/>
			<vel value="0" flag="1"/>
			<psa03 value="0" flag="1"/>
			<psa10 value="0" flag="1"/>
			<psa30 value="0" flag="1"/>
		</comp>
	</station>
	<station code="NPS1" name="NPS1" netid="HI" source="ITSAK Strong Motion Network" insttype="" lat="36.51263" lon="23.06248" esm:processing="discarded" esm:quality="bad">
		<comp name="--.HNE" depth="0.0">
			<acc value="0" flag="1"/>
			<vel value="0" flag="1"/>
			<psa03 value="0" flag="1"/>
			<psa10 value="0" flag="1"/>
			<psa30 value="0" flag="1"/>
		</comp>
		<comp name="--.HNN" depth="0.0">
			<acc value="0" flag="1"/>
			<vel value="0" flag="1"/>
			<psa03 value="0" flag="1"/>
			<psa10 value="0" flag="1"/>
			<psa30 value="0" flag="1"/>
		</comp>
		<comp name="--.HNZ" depth="0.0">
			<acc value="0" flag="1"/>
			<vel value="0" flag="1"/>
			<psa03 value="0" flag="1"/>
			<psa10 value="0" flag="1"/>
			<psa30 value="0" flag="1"/>
		</comp>
	</station>
	<station code="DLFA" name="DLFA" netid="HL" source="National Observatory of Athens Seismic Network" insttype="" lat="38.47836" lon="22.49583" esm:processing="discarded" esm:quality="bad">
		<comp name="00.HNE" depth="0.0">
			<acc value="0" flag="1"/>
			<vel value="0" flag="1"/>
			<psa03 value="0" flag="1"/>
			<psa10 value="0" flag="1"/>
			<psa30 value="0" flag="1"/>
		</comp>
		<comp name="00.HNN" depth="0.0">
			<acc value="0" flag="1"/>
			<vel value="0" flag="1"/>
			<psa03 value="0" flag="1"/>
			<psa10 value="0" flag="1"/>
			<psa30 value="0" flag="1"/>
		</comp>
		<comp name="00.HNZ" depth="0.0">
			<acc value="0" flag="1"/>
			<vel value="0" flag="1"/>
			<psa03 value="0" flag="1"/>
			<psa10 value="0" flag="1"/>
			<psa30 value="0" flag="1"/>
		</comp>
	</station>
	<station code="LXRA" name="LXRA" netid="HL" source="National Observatory of Athens Seismic Network" insttype="" lat="38.20006" lon="20.43718" esm:processing="discarded" esm:quality="good">
		<comp name="00.HNE" depth="0.0">
			<acc value="0" flag="1"/>
			<vel value="0" flag="1"/>
			<psa03 value="0" flag="1"/>
			<psa10 value="0" flag="1"/>
			<psa30 value="0" flag="1"/>
		</comp>
		<comp name="00.HNN" depth="0.0">
			<acc value="0" flag="1"/>
			<vel value="0" flag="1"/>
			<psa03 value="0" flag="1"/>
			<psa10 value="0" flag="1"/>
			<psa30 value="0" flag="1"/>
		</comp>
		<comp name="00.HNZ" depth="0.0">
			<acc value="0" flag="1"/>
			<vel value="0" flag="1"/>
			<psa03 value="0" flag="1"/>
			<psa10 value="0" flag="1"/>
			<psa30 value="0" flag="1"/>
		</comp>
	</station>
	<station code="MNVA" name="MNVA" netid="HL" source="National Observatory of Athens Seismic Network" insttype="" lat="36.68709" lon="23.03734" esm:processing="discarded" esm:quality="bad">
		<comp name="00.HNE" depth="0.0">
			<acc value="0" flag="1"/>
			<vel value="0" flag="1"/>
			<psa03 value="0" flag="1"/>
			<psa10 value="0" flag="1"/>
			<psa30 value="0" flag="1"/>
		</comp>
		<comp name="00.HNN" depth="0.0">
			<acc value="0" flag="1"/>
			<vel value="0" flag="1"/>
			<psa03 value="0" flag="1"/>
			<psa10 value="0" flag="1"/>
			<psa30 value="0" flag="1"/>
		</comp>
		<comp name="00.HNZ" depth="0.0">
			<acc value="0" flag="1"/>
			<vel value="0" flag="1"/>
			<psa03 value="0" flag="1"/>
			<psa10 value="0" flag="1"/>
			<psa30 value="0" flag="1"/>
		</comp>
	</station>
	<station code="PATG" name="PATG" netid="HL" source="National Observatory of Athens Seismic Network" insttype="" lat="38.23865" lon="21.72657" esm:processing="automatic (Paolucci et al 2011)" esm:quality="bad">
		<comp name="00.HNE" depth="0.0">
			<acc value="0" flag="1"/>
			<vel value="0" flag="1"/>
			<psa03 value="0" flag="1"/>
			<psa10 value="0" flag="1"/>
			<psa30 value="0" flag="1"/>
		</comp>
		<comp name="00.HNN" depth="0.0">
			<acc value="0" flag="1"/>
			<vel value="0" flag="1"/>
			<psa03 value="0" flag="1"/>
			<psa10 value="0" flag="1"/>
			<psa30 value="0" flag="1"/>
		</comp>
		<comp name="00.HNZ" depth="0.0">
			<acc value="0" flag="1"/>
			<vel value="0" flag="1"/>
			<psa03 value="0" flag="1"/>
			<psa10 value="0" flag="1"/>
			<psa30 value="0" flag="1"/>
		</comp>
	</station>
	<station code="RIOA" name="RIOA" netid="HL" source="National Observatory of Athens Seismic Network" insttype="" lat="38.29585" lon="21.79118" esm:processing="automatic (Paolucci et al 2011)" esm:quality="bad">
		<comp name="00.HNE" depth="0.0">
			<acc value="0" flag="1"/>
			<vel value="0" flag="1"/>
			<psa03 value="0" flag="1"/>
			<psa10 value="0" flag="1"/>
			<psa30 value="0" flag="1"/>
		</comp>
		<comp name="00.HNN" depth="0.0">
			<acc value="0" flag="1"/>
			<vel value="0" flag="1"/>
			<psa03 value="0" flag="1"/>
			<psa10 value="0" flag="1"/>
			<psa30 value="0" flag="1"/>
		</comp>
		<comp name="00.HNZ" depth="0.0">
			<acc value="0" flag="1"/>
			<vel value="0" flag="1"/>
			<psa03 value="0" flag="1"/>
			<psa10 value="0" flag="1"/>
			<psa30 value="0" flag="1"/>
		</comp>
	</station>
	<station code="FSK" name="FSK" netid="HP" source="University of Patras, Seismological Laboratory (PSLNET)" insttype="" lat="38.4593" lon="20.5623" esm:processing="discarded" esm:quality="good">
		<comp name="--.HNE" depth="0.0">
			<acc value="0" flag="1"/>
			<vel value="0" flag="1"/>
			<psa03 value="0" flag="1"/>
			<psa10 value="0" flag="1"/>
			<psa30 value="0" flag="1"/>
		</comp>
		<comp name="--.HNN" depth="0.0">
			<acc value="0" flag="1"/>
			<vel value="0" flag="1"/>
			<psa03 value="0" flag="1"/>
			<psa10 value="0" flag="1"/>
			<psa30 value="0" flag="1"/>
		</comp>
		<comp name="--.HNZ" depth="0.0">
			<acc value="0" flag="1"/>
			<vel value="0" flag="1"/>
			<psa03 value="0" flag="1"/>
			<psa10 value="0" flag="1"/>
			<psa30 value="0" flag="1"/>
		</comp>
	</station>
</stationlist>
