<?xml version="1.0" encoding="UTF-8" standalone="yes"?>
<!DOCTYPE earthquake SYSTEM "stationlist.dtd">
<stationlist created="" xmlns="ch.ethz.sed.shakemap.usgs.xml">
  <station code="TASB" name="TASB" netid="KO" insttype="120s," lat="39.9839" lon="44.2384">
    <comp name="--.HHE">
      <acc value="0.0389043901" flag="0"/>
      <vel value="0.0392672417" flag="0"/>
      <psa03 value="0.1262585099" flag="0"/>
      <psa10 value="0.0452982924" flag="0"/>
      <psa30 value="0.0247193230" flag="0"/>
    </comp>
    <comp name="--.HHZ">
      <acc value="0.0604394592" flag="0"/>
      <vel value="0.0396918670" flag="0"/>
      <psa03 value="0.0544282266" flag="0"/>
      <psa10 value="0.0310277086" flag="0"/>
      <psa30 value="0.0159916838" flag="0"/>
    </comp>
    <comp name="--.HHN">
      <acc value="0.0430992844" flag="0"/>
      <vel value="0.0464460864" flag="0"/>
      <psa03 value="0.1129341304" flag="0"/>
      <psa10 value="0.0410208922" flag="0"/>
      <psa30 value="0.0211357879" flag="0"/>
    </comp>
  </station>
</stationlist>
