<?xml version="1.0" encoding="UTF-8" standalone="yes"?>
<!DOCTYPE earthquake SYSTEM "stationlist.dtd">
<stationlist created="" xmlns="ch.ethz.sed.shakemap.usgs.xml">
  <station code="DARE" name="DARE" netid="KO" insttype="CMG-3ESP" lat="38.5712" lon="37.4832">
    <comp name="--.HHN">
      <acc value="0.0146091203" flag="0"/>
      <vel value="0.0045890185" flag="0"/>
      <psa03 value="0.0251538233" flag="0"/>
      <psa10 value="0.0036038947" flag="0"/>
      <psa30 value="0.0003041238" flag="0"/>
    </comp>
    <comp name="--.HHZ">
      <acc value="0.0081625874" flag="0"/>
      <vel value="0.0052260796" flag="0"/>
      <psa03 value="0.0222019219" flag="0"/>
      <psa10 value="0.0045400994" flag="0"/>
      <psa30 value="0.0002765512" flag="0"/>
    </comp>
  </station>
  <station code="GAZ" name="GAZ" netid="KO" insttype="CMG-3T" lat="37.1721" lon="37.2096">
    <comp name="--.HHN">
      <acc value="0.0230603861" flag="0"/>
      <vel value="0.0112130739" flag="0"/>
      <psa03 value="0.0854580028" flag="0"/>
      <psa10 value="0.0046871643" flag="0"/>
      <psa30 value="0.0002932522" flag="0"/>
    </comp>
    <comp name="--.HHE">
      <acc value="0.0309558421" flag="0"/>
      <vel value="0.0142722377" flag="0"/>
      <psa03 value="0.0911570103" flag="0"/>
      <psa10 value="0.0076637623" flag="0"/>
      <psa30 value="0.0006733855" flag="0"/>
    </comp>
    <comp name="--.HHZ">
      <acc value="0.0145062639" flag="0"/>
      <vel value="0.0066225428" flag="0"/>
      <psa03 value="0.0615017223" flag="0"/>
      <psa10 value="0.0034581745" flag="0"/>
      <psa30 value="0.0002382728" flag="0"/>
    </comp>
  </station>
  <station code="KMRS" name="KMRS" netid="KO" insttype="CMG-3T" lat="37.5053" lon="36.9">
    <comp name="--.HHE">
      <acc value="0.0135996721" flag="0"/>
      <vel value="0.0076623705" flag="0"/>
      <psa03 value="0.0248794741" flag="0"/>
      <psa10 value="0.0066795534" flag="0"/>
      <psa30 value="0.0008994626" flag="0"/>
    </comp>
    <comp name="--.HHN">
      <acc value="0.0158816207" flag="0"/>
      <vel value="0.0101251059" flag="0"/>
      <psa03 value="0.0373834705" flag="0"/>
      <psa10 value="0.0059658220" flag="0"/>
      <psa30 value="0.0005305307" flag="0"/>
    </comp>
    <comp name="--.HHZ">
      <acc value="0.0092911187" flag="0"/>
      <vel value="0.0036508135" flag="0"/>
      <psa03 value="0.0187427031" flag="0"/>
      <psa10 value="0.0037084141" flag="0"/>
      <psa30 value="0.0006096173" flag="0"/>
    </comp>
  </station>
  <station code="SARI" name="SARI" netid="KO" insttype="CMG-3T" lat="38.4072" lon="36.4181">
    <comp name="--.HHE">
      <acc value="0.1506444314" flag="0"/>
      <vel value="0.0356403507" flag="0"/>
      <psa03 value="0.1833595594" flag="0"/>
      <psa10 value="0.0134647562" flag="0"/>
      <psa30 value="0.0011785759" flag="0"/>
    </comp>
    <comp name="--.HHN">
      <acc value="0.0731123201" flag="0"/>
      <vel value="0.0222550121" flag="0"/>
      <psa03 value="0.1211146326" flag="0"/>
      <psa10 value="0.0217251914" flag="0"/>
      <psa30 value="0.0011648202" flag="0"/>
    </comp>
    <comp name="--.HHZ">
      <acc value="0.0716017325" flag="0"/>
      <vel value="0.0191826140" flag="0"/>
      <psa03 value="0.0696545962" flag="0"/>
      <psa10 value="0.0101313876" flag="0"/>
      <psa30 value="0.0006750500" flag="0"/>
    </comp>
  </station>
  <station code="ANDN" name="ANDN" netid="TU" insttype="T" lat="37.58" lon="36.3452">
    <comp name="--.HHZ">
      <acc value="0.0320314871" flag="0"/>
      <vel value="0.0235718502" flag="0"/>
      <psa03 value="0.1117645502" flag="0"/>
      <psa10 value="0.0368451781" flag="0"/>
      <psa30 value="0.0017517035" flag="0"/>
    </comp>
    <comp name="--.HHE">
      <acc value="0.0596533299" flag="0"/>
      <vel value="0.0323171543" flag="0"/>
      <psa03 value="0.1750029645" flag="0"/>
      <psa10 value="0.0456817650" flag="0"/>
      <psa30 value="0.0023186169" flag="0"/>
    </comp>
    <comp name="--.HHN">
      <acc value="0.0619050681" flag="0"/>
      <vel value="0.0325461419" flag="0"/>
      <psa03 value="0.1921223205" flag="0"/>
      <psa10 value="0.0285440559" flag="0"/>
      <psa30 value="0.0021003822" flag="0"/>
    </comp>
  </station>
</stationlist>
