<?xml version="1.0" encoding="UTF-8" standalone="yes"?>
<!DOCTYPE earthquake SYSTEM "stationlist.dtd">
<stationlist created="" xmlns="ch.ethz.sed.shakemap.usgs.xml">
  <station code="BNN" name="BNN" netid="KO" insttype="CMG-3T" lat="38.8521" lon="35.8472">
    <comp name="--.HHE">
      <acc value="0.0061070439" flag="0"/>
      <vel value="0.0041100172" flag="0"/>
      <psa03 value="0.0149183562" flag="0"/>
      <psa10 value="0.0068044932" flag="0"/>
      <psa30 value="0.0003450698" flag="0"/>
    </comp>
    <comp name="--.HHN">
      <acc value="0.0053774648" flag="0"/>
      <vel value="0.0033111926" flag="0"/>
      <psa03 value="0.0150573535" flag="0"/>
      <psa10 value="0.0072486388" flag="0"/>
      <psa30 value="0.0004000709" flag="0"/>
    </comp>
  </station>
  <station code="DARE" name="DARE" netid="KO" insttype="CMG-3ESP" lat="38.5712" lon="37.4832">
    <comp name="--.HHN">
      <acc value="0.0146091203" flag="0"/>
      <vel value="0.0045890188" flag="0"/>
      <psa03 value="0.0251538233" flag="0"/>
      <psa10 value="0.0036038948" flag="0"/>
      <psa30 value="0.0003041275" flag="0"/>
    </comp>
    <comp name="--.HHZ">
      <acc value="0.0081625874" flag="0"/>
      <vel value="0.0052260794" flag="0"/>
      <psa03 value="0.0222019219" flag="0"/>
      <psa10 value="0.0045400994" flag="0"/>
      <psa30 value="0.0002765426" flag="0"/>
    </comp>
  </station>
  <station code="GAZ" name="GAZ" netid="KO" insttype="CMG-3T" lat="37.1721" lon="37.2096">
    <comp name="--.HHE">
      <acc value="0.0309558421" flag="0"/>
      <vel value="0.0142722378" flag="0"/>
      <psa03 value="0.0911570103" flag="0"/>
      <psa10 value="0.0076637622" flag="0"/>
      <psa30 value="0.0006733872" flag="0"/>
    </comp>
    <comp name="--.HHN">
      <acc value="0.0230603860" flag="0"/>
      <vel value="0.0112130739" flag="0"/>
      <psa03 value="0.0854580028" flag="0"/>
      <psa10 value="0.0046871643" flag="0"/>
      <psa30 value="0.0002932517" flag="0"/>
    </comp>
    <comp name="--.HHZ">
      <acc value="0.0145062637" flag="0"/>
      <vel value="0.0066225427" flag="0"/>
      <psa03 value="0.0615017223" flag="0"/>
      <psa10 value="0.0034581745" flag="0"/>
      <psa30 value="0.0002382610" flag="0"/>
    </comp>
  </station>
  <station code="KMRS" name="KMRS" netid="KO" insttype="CMG-3T" lat="37.5053" lon="36.9">
    <comp name="--.HHE">
      <acc value="0.0135996722" flag="0"/>
      <vel value="0.0076623705" flag="0"/>
      <psa03 value="0.0248794741" flag="0"/>
      <psa10 value="0.0066795533" flag="0"/>
      <psa30 value="0.0008994624" flag="0"/>
    </comp>
    <comp name="--.HHN">
      <acc value="0.0158816206" flag="0"/>
      <vel value="0.0101251062" flag="0"/>
      <psa03 value="0.0373834705" flag="0"/>
      <psa10 value="0.0059658221" flag="0"/>
      <psa30 value="0.0005305377" flag="0"/>
    </comp>
    <comp name="--.HHZ">
      <acc value="0.0092911187" flag="0"/>
      <vel value="0.0036508135" flag="0"/>
      <psa03 value="0.0187427031" flag="0"/>
      <psa10 value="0.0037084141" flag="0"/>
      <psa30 value="0.0006096211" flag="0"/>
    </comp>
  </station>
  <station code="SARI" name="SARI" netid="KO" insttype="CMG-3T" lat="38.4072" lon="36.4181">
    <comp name="--.HHN">
      <acc value="0.0731123203" flag="0"/>
      <vel value="0.0222550121" flag="0"/>
      <psa03 value="0.1211146326" flag="0"/>
      <psa10 value="0.0217251910" flag="0"/>
      <psa30 value="0.0011646575" flag="0"/>
    </comp>
    <comp name="--.HHE">
      <acc value="0.1506444318" flag="0"/>
      <vel value="0.0356403489" flag="0"/>
      <psa03 value="0.1833595594" flag="0"/>
      <psa10 value="0.0134647560" flag="0"/>
      <psa30 value="0.0011787007" flag="0"/>
    </comp>
  </station>
  <station code="ANDN" name="ANDN" netid="TU" insttype="T" lat="37.58" lon="36.3452">
    <comp name="--.HHE">
      <acc value="0.0596533295" flag="0"/>
      <vel value="0.0323171539" flag="0"/>
      <psa03 value="0.1750029645" flag="0"/>
      <psa10 value="0.0456817655" flag="0"/>
      <psa30 value="0.0023184872" flag="0"/>
    </comp>
    <comp name="--.HHZ">
      <acc value="0.0320314873" flag="0"/>
      <vel value="0.0235718499" flag="0"/>
      <psa03 value="0.1117645502" flag="0"/>
      <psa10 value="0.0368451782" flag="0"/>
      <psa30 value="0.0017519433" flag="0"/>
    </comp>
    <comp name="--.HHN">
      <acc value="0.0619050680" flag="0"/>
      <vel value="0.0325461413" flag="0"/>
      <psa03 value="0.1921223205" flag="0"/>
      <psa10 value="0.0285440559" flag="0"/>
      <psa30 value="0.0021003127" flag="0"/>
    </comp>
  </station>
</stationlist>
