<?xml version="1.0" encoding="UTF-8" standalone="yes"?>
<!DOCTYPE earthquake SYSTEM "stationlist.dtd">
<stationlist created="" xmlns="ch.ethz.sed.shakemap.usgs.xml">
  <station code="BNN" name="BNN" netid="KO" insttype="CMG-3T" lat="38.8521" lon="35.8472">
    <comp name="--.HHE">
      <acc value="0.0061070437" flag="0"/>
      <vel value="0.0041100173" flag="0"/>
      <psa03 value="0.0149183562" flag="0"/>
      <psa10 value="0.0068044932" flag="0"/>
      <psa30 value="0.0003450724" flag="0"/>
    </comp>
    <comp name="--.HHN">
      <acc value="0.0053774648" flag="0"/>
      <vel value="0.0033111924" flag="0"/>
      <psa03 value="0.0150573535" flag="0"/>
      <psa10 value="0.0072486388" flag="0"/>
      <psa30 value="0.0004000722" flag="0"/>
    </comp>
  </station>
  <station code="DARE" name="DARE" netid="KO" insttype="CMG-3ESP" lat="38.5712" lon="37.4832">
    <comp name="--.HHZ">
      <acc value="0.0081625872" flag="0"/>
      <vel value="0.0052260795" flag="0"/>
      <psa03 value="0.0222019219" flag="0"/>
      <psa10 value="0.0045400994" flag="0"/>
      <psa30 value="0.0002765234" flag="0"/>
    </comp>
    <comp name="--.HHN">
      <acc value="0.0146091203" flag="0"/>
      <vel value="0.0045890182" flag="0"/>
      <psa03 value="0.0251538233" flag="0"/>
      <psa10 value="0.0036038948" flag="0"/>
      <psa30 value="0.0003041244" flag="0"/>
    </comp>
  </station>
  <station code="GAZ" name="GAZ" netid="KO" insttype="CMG-3T" lat="37.1721" lon="37.2096">
    <comp name="--.HHE">
      <acc value="0.0309558423" flag="0"/>
      <vel value="0.0142722379" flag="0"/>
      <psa03 value="0.0911570103" flag="0"/>
      <psa10 value="0.0076637623" flag="0"/>
      <psa30 value="0.0006733860" flag="0"/>
    </comp>
    <comp name="--.HHN">
      <acc value="0.0230603862" flag="0"/>
      <vel value="0.0112130742" flag="0"/>
      <psa03 value="0.0854580028" flag="0"/>
      <psa10 value="0.0046871643" flag="0"/>
      <psa30 value="0.0002932521" flag="0"/>
    </comp>
    <comp name="--.HHZ">
      <acc value="0.0145062636" flag="0"/>
      <vel value="0.0066225426" flag="0"/>
      <psa03 value="0.0615017223" flag="0"/>
      <psa10 value="0.0034581745" flag="0"/>
      <psa30 value="0.0002382370" flag="0"/>
    </comp>
  </station>
  <station code="KMRS" name="KMRS" netid="KO" insttype="CMG-3T" lat="37.5053" lon="36.9">
    <comp name="--.HHE">
      <acc value="0.0135996723" flag="0"/>
      <vel value="0.0076623705" flag="0"/>
      <psa03 value="0.0248794741" flag="0"/>
      <psa10 value="0.0066795533" flag="0"/>
      <psa30 value="0.0008994629" flag="0"/>
    </comp>
    <comp name="--.HHZ">
      <acc value="0.0092911188" flag="0"/>
      <vel value="0.0036508133" flag="0"/>
      <psa03 value="0.0187427031" flag="0"/>
      <psa10 value="0.0037084141" flag="0"/>
      <psa30 value="0.0006096240" flag="0"/>
    </comp>
    <comp name="--.HHN">
      <acc value="0.0158816206" flag="0"/>
      <vel value="0.0101251062" flag="0"/>
      <psa03 value="0.0373834705" flag="0"/>
      <psa10 value="0.0059658221" flag="0"/>
      <psa30 value="0.0005305434" flag="0"/>
    </comp>
  </station>
  <station code="SARI" name="SARI" netid="KO" insttype="CMG-3T" lat="38.4072" lon="36.4181">
    <comp name="--.HHE">
      <acc value="0.1506444315" flag="0"/>
      <vel value="0.0356403489" flag="0"/>
      <psa03 value="0.1833595594" flag="0"/>
      <psa10 value="0.0134647559" flag="0"/>
      <psa30 value="0.0011786880" flag="0"/>
    </comp>
    <comp name="--.HHN">
      <acc value="0.0731123204" flag="0"/>
      <vel value="0.0222550118" flag="0"/>
      <psa03 value="0.1211146326" flag="0"/>
      <psa10 value="0.0217251911" flag="0"/>
      <psa30 value="0.0011646343" flag="0"/>
    </comp>
  </station>
  <station code="ANDN" name="ANDN" netid="TU" insttype="T" lat="37.58" lon="36.3452">
    <comp name="--.HHN">
      <acc value="0.0619050680" flag="0"/>
      <vel value="0.0325461415" flag="0"/>
      <psa03 value="0.1921223205" flag="0"/>
      <psa10 value="0.0285440560" flag="0"/>
      <psa30 value="0.0021003115" flag="0"/>
    </comp>
    <comp name="--.HHE">
      <acc value="0.0596533295" flag="0"/>
      <vel value="0.0323171540" flag="0"/>
      <psa03 value="0.1750029645" flag="0"/>
      <psa10 value="0.0456817655" flag="0"/>
      <psa30 value="0.0023184926" flag="0"/>
    </comp>
    <comp name="--.HHZ">
      <acc value="0.0320314873" flag="0"/>
      <vel value="0.0235718500" flag="0"/>
      <psa03 value="0.1117645502" flag="0"/>
      <psa10 value="0.0368451782" flag="0"/>
      <psa30 value="0.0017519495" flag="0"/>
    </comp>
  </station>
</stationlist>
