<?xml version="1.0" encoding="UTF-8" standalone="yes"?>
<!DOCTYPE earthquake SYSTEM "stationlist.dtd">
<stationlist created="" xmlns="ch.ethz.sed.shakemap.usgs.xml">
  <station code="APE" name="APE" netid="GE" insttype="STS-2/N" lat="37.0727" lon="25.523">
    <comp name="--.HHE">
      <acc value="0.5014383116" flag="0"/>
      <vel value="0.1018711179" flag="0"/>
      <psa03 value="0.4845191366" flag="0"/>
      <psa10 value="0.0435846466" flag="0"/>
      <psa30 value="0.0205913475" flag="0"/>
    </comp>
    <comp name="--.HHN">
      <acc value="0.5430425676" flag="0"/>
      <vel value="0.1172769572" flag="0"/>
      <psa03 value="0.4070066427" flag="0"/>
      <psa10 value="0.0569976477" flag="0"/>
      <psa30 value="0.0217634101" flag="0"/>
    </comp>
    <comp name="--.HHZ">
      <acc value="0.2531266738" flag="0"/>
      <vel value="0.0739186278" flag="0"/>
      <psa03 value="0.3814024843" flag="0"/>
      <psa10 value="0.0419645721" flag="0"/>
      <psa30 value="0.0223872617" flag="0"/>
    </comp>
  </station>
  <station code="THERA" name="THERA" netid="GE" insttype="STS-2/N" lat="36.367" lon="25.4753">
    <comp name="--.HHE">
      <acc value="0.3504983363" flag="0"/>
      <vel value="0.1279944526" flag="0"/>
      <psa03 value="0.5144515497" flag="0"/>
      <psa10 value="0.1105821054" flag="0"/>
      <psa30 value="0.0182112083" flag="0"/>
    </comp>
    <comp name="--.HHZ">
      <acc value="0.3148501300" flag="0"/>
      <vel value="0.0878786303" flag="0"/>
      <psa03 value="0.3034780175" flag="0"/>
      <psa10 value="0.0850559518" flag="0"/>
      <psa30 value="0.0129841425" flag="0"/>
    </comp>
    <comp name="--.HHN">
      <acc value="0.2431287457" flag="0"/>
      <vel value="0.0612289819" flag="0"/>
      <psa03 value="0.2811773949" flag="0"/>
      <psa10 value="0.0471183272" flag="0"/>
      <psa30 value="0.0048311767" flag="0"/>
    </comp>
  </station>
  <station code="ZKR" name="ZKR" netid="GE" insttype="STS-2/N" lat="35.1147" lon="26.2169">
    <comp name="--.HHZ">
      <acc value="0.0082013180" flag="0"/>
      <vel value="0.0049591182" flag="0"/>
      <psa03 value="0.0168535416" flag="0"/>
      <psa10 value="0.0072827377" flag="0"/>
      <psa30 value="0.0014835850" flag="0"/>
    </comp>
    <comp name="--.HHN">
      <acc value="0.0066218095" flag="0"/>
      <vel value="0.0061495857" flag="0"/>
      <psa03 value="0.0172202917" flag="0"/>
      <psa10 value="0.0099011270" flag="0"/>
      <psa30 value="0.0017103694" flag="0"/>
    </comp>
    <comp name="--.HHE">
      <acc value="0.0172491700" flag="0"/>
      <vel value="0.0112027924" flag="0"/>
      <psa03 value="0.0386990467" flag="0"/>
      <psa10 value="0.0158950834" flag="0"/>
      <psa30 value="0.0033919237" flag="0"/>
    </comp>
  </station>
  <station code="SERI" name="SERI" netid="HA" insttype="30" lat="37.1609" lon="24.4853">
    <comp name="--.HHN">
      <acc value="0.1411819515" flag="0"/>
      <vel value="0.0776603772" flag="0"/>
      <psa03 value="0.2232627053" flag="0"/>
      <psa10 value="0.0684615777" flag="0"/>
      <psa30 value="0.0071251058" flag="0"/>
    </comp>
    <comp name="--.HHZ">
      <acc value="0.1001656186" flag="0"/>
      <vel value="0.0646506928" flag="0"/>
      <psa03 value="0.1681921422" flag="0"/>
      <psa10 value="0.0380147141" flag="0"/>
      <psa30 value="0.0096208324" flag="0"/>
    </comp>
    <comp name="--.HHE">
      <acc value="0.1149851456" flag="0"/>
      <vel value="0.0538394465" flag="0"/>
      <psa03 value="0.1736016367" flag="0"/>
      <psa10 value="0.0298671872" flag="0"/>
      <psa30 value="0.0060066897" flag="0"/>
    </comp>
  </station>
  <station code="SNT1" name="SNT1" netid="HA" insttype="30" lat="36.4159" lon="25.4282">
    <comp name="--.HHZ">
      <acc value="0.2481456794" flag="0"/>
      <vel value="0.1340027716" flag="0"/>
      <psa03 value="0.4094299964" flag="0"/>
      <psa10 value="0.1359797444" flag="0"/>
      <psa30 value="0.0250897962" flag="0"/>
    </comp>
    <comp name="--.HHN">
      <acc value="0.2850693793" flag="0"/>
      <vel value="0.2024588596" flag="0"/>
      <psa03 value="0.6418587447" flag="0"/>
      <psa10 value="0.2343291504" flag="0"/>
      <psa30 value="0.0625040299" flag="0"/>
    </comp>
    <comp name="--.HHE">
      <acc value="0.3740439320" flag="0"/>
      <vel value="0.2041462913" flag="0"/>
      <psa03 value="0.7974041459" flag="0"/>
      <psa10 value="0.1835924460" flag="0"/>
      <psa30 value="0.0466843122" flag="0"/>
    </comp>
  </station>
  <station code="IPPL" name="IPPL" netid="HC" insttype="60" lat="35.3486" lon="24.4632">
    <comp name="--.HHE">
      <acc value="0.0000000000" flag="0"/>
      <vel value="-100.0000000000" flag="0"/>
      <psa03 value="0.0000000000" flag="0"/>
      <psa10 value="0.0000000000" flag="0"/>
      <psa30 value="0.0000000000" flag="0"/>
    </comp>
    <comp name="--.HHZ">
      <acc value="0.0130402938" flag="0"/>
      <vel value="0.0090804188" flag="0"/>
      <psa03 value="0.0382876377" flag="0"/>
      <psa10 value="0.0109311663" flag="0"/>
      <psa30 value="0.0016125961" flag="0"/>
    </comp>
    <comp name="--.HHN">
      <acc value="0.0000000000" flag="0"/>
      <vel value="-100.0000000000" flag="0"/>
      <psa03 value="0.0000000000" flag="0"/>
      <psa10 value="0.0000000000" flag="0"/>
      <psa30 value="0.0000000000" flag="0"/>
    </comp>
  </station>
  <station code="KNSS" name="KNSS" netid="HC" insttype="60" lat="35.3042" lon="25.1802">
    <comp name="--.HHE">
      <acc value="0.0000000000" flag="0"/>
      <vel value="-100.0000000000" flag="0"/>
      <psa03 value="0.0000000000" flag="0"/>
      <psa10 value="0.0000000000" flag="0"/>
      <psa30 value="0.0000000000" flag="0"/>
    </comp>
    <comp name="--.HHN">
      <acc value="0.0299640393" flag="0"/>
      <vel value="0.0149759948" flag="0"/>
      <psa03 value="0.0693987776" flag="0"/>
      <psa10 value="0.0171756518" flag="0"/>
      <psa30 value="0.0036026566" flag="0"/>
    </comp>
    <comp name="--.HHZ">
      <acc value="0.0384670587" flag="0"/>
      <vel value="0.0176947706" flag="0"/>
      <psa03 value="0.0750140951" flag="0"/>
      <psa10 value="0.0218236470" flag="0"/>
      <psa30 value="0.0027177860" flag="0"/>
    </comp>
  </station>
  <station code="PFKS" name="PFKS" netid="HC" insttype="120" lat="35.0429" lon="25.4733">
    <comp name="--.HHE">
      <acc value="0.0280610987" flag="0"/>
      <vel value="0.0157602500" flag="0"/>
      <psa03 value="0.0744710586" flag="0"/>
      <psa10 value="0.0304474211" flag="0"/>
      <psa30 value="0.0028650810" flag="0"/>
    </comp>
    <comp name="--.HHN">
      <acc value="0.0366929099" flag="0"/>
      <vel value="0.0132380103" flag="0"/>
      <psa03 value="0.0597988093" flag="0"/>
      <psa10 value="0.0157141227" flag="0"/>
      <psa30 value="0.0024704001" flag="0"/>
    </comp>
    <comp name="--.HHZ">
      <acc value="0.0161766928" flag="0"/>
      <vel value="0.0098271811" flag="0"/>
      <psa03 value="0.0311253698" flag="0"/>
      <psa10 value="0.0187571030" flag="0"/>
      <psa30 value="0.0012191254" flag="0"/>
    </comp>
  </station>
  <station code="STIA" name="STIA" netid="HC" insttype="120" lat="35.2021" lon="26.0909">
    <comp name="--.HHN">
      <acc value="0.0172272406" flag="0"/>
      <vel value="0.0130829448" flag="0"/>
      <psa03 value="0.0373723625" flag="0"/>
      <psa10 value="0.0260730989" flag="0"/>
      <psa30 value="0.0030580797" flag="0"/>
    </comp>
    <comp name="--.HHE">
      <acc value="0.0173939862" flag="0"/>
      <vel value="0.0158906939" flag="0"/>
      <psa03 value="0.0418213666" flag="0"/>
      <psa10 value="0.0297008234" flag="0"/>
      <psa30 value="0.0037385170" flag="0"/>
    </comp>
    <comp name="--.HHZ">
      <acc value="0.0192525125" flag="0"/>
      <vel value="0.0110997689" flag="0"/>
      <psa03 value="0.0569006478" flag="0"/>
      <psa10 value="0.0138910344" flag="0"/>
      <psa30 value="0.0029811654" flag="0"/>
    </comp>
  </station>
  <station code="NAX1" name="NAX1" netid="HI" insttype="CMG-5TD,ACCELEROMETER,GURALP" lat="37.1014" lon="25.3741">
    <comp name="--.HNE">
      <acc value="0.4678257795" flag="0"/>
      <vel value="0.1399769170" flag="0"/>
      <psa03 value="0.9001162146" flag="0"/>
      <psa10 value="0.0751293921" flag="0"/>
      <psa30 value="0.0087107806" flag="0"/>
    </comp>
    <comp name="--.HNN">
      <acc value="0.5885437074" flag="0"/>
      <vel value="0.1336582741" flag="0"/>
      <psa03 value="0.6094462492" flag="0"/>
      <psa10 value="0.0547390336" flag="0"/>
      <psa30 value="0.0142095830" flag="0"/>
    </comp>
    <comp name="--.HNZ">
      <acc value="0.2827231912" flag="0"/>
      <vel value="0.0940977866" flag="0"/>
      <psa03 value="0.4201730539" flag="0"/>
      <psa10 value="0.0599196880" flag="0"/>
      <psa30 value="0.0188248394" flag="0"/>
    </comp>
  </station>
  <station code="SFR2" name="SFR2" netid="HI" insttype="unknown" lat="36.3998" lon="25.4382">
    <comp name="--.HNE">
      <acc value="0.9655094255" flag="0"/>
      <vel value="0.4279377471" flag="0"/>
      <psa03 value="2.7793645925" flag="0"/>
      <psa10 value="0.2962175213" flag="0"/>
      <psa30 value="0.0477141276" flag="0"/>
    </comp>
    <comp name="--.HNZ">
      <acc value="0.6942934492" flag="0"/>
      <vel value="0.2925999140" flag="0"/>
      <psa03 value="1.8133152016" flag="0"/>
      <psa10 value="0.2328411133" flag="0"/>
      <psa30 value="0.0247665842" flag="0"/>
    </comp>
    <comp name="--.HNN">
      <acc value="1.2101128121" flag="0"/>
      <vel value="0.4214250227" flag="0"/>
      <psa03 value="2.2417818217" flag="0"/>
      <psa10 value="0.5278925984" flag="0"/>
      <psa30 value="0.0429158910" flag="0"/>
    </comp>
  </station>
  <station code="AMGA" name="AMGA" netid="HL" insttype="SMART24" lat="36.8316" lon="25.8938">
    <comp name="--.HHZ">
      <acc value="1.0349951212" flag="0"/>
      <vel value="0.2879959803" flag="0"/>
      <psa03 value="1.1472859048" flag="0"/>
      <psa10 value="0.1802885130" flag="0"/>
      <psa30 value="0.0404108414" flag="0"/>
    </comp>
    <comp name="--.HHE">
      <acc value="1.5945678626" flag="0"/>
      <vel value="0.3149044241" flag="0"/>
      <psa03 value="2.1360625764" flag="0"/>
      <psa10 value="0.2473133320" flag="0"/>
      <psa30 value="0.0508574488" flag="0"/>
    </comp>
    <comp name="--.HHN">
      <acc value="1.9561009042" flag="0"/>
      <vel value="0.4899171907" flag="0"/>
      <psa03 value="2.6662903430" flag="0"/>
      <psa10 value="0.2016655377" flag="0"/>
      <psa30 value="0.0321714128" flag="0"/>
    </comp>
  </station>
  <station code="APE" name="APE" netid="HL" insttype="120" lat="37.0727" lon="25.523">
    <comp name="--.HHN">
      <acc value="0.4939488906" flag="0"/>
      <vel value="0.1142373654" flag="0"/>
      <psa03 value="0.3962228169" flag="0"/>
      <psa10 value="0.0565194415" flag="0"/>
      <psa30 value="0.0217284527" flag="0"/>
    </comp>
    <comp name="--.HHE">
      <acc value="0.4800693513" flag="0"/>
      <vel value="0.0994350492" flag="0"/>
      <psa03 value="0.4707258279" flag="0"/>
      <psa10 value="0.0425702431" flag="0"/>
      <psa30 value="0.0205706538" flag="0"/>
    </comp>
    <comp name="--.HHZ">
      <acc value="0.2226803926" flag="0"/>
      <vel value="0.0711758102" flag="0"/>
      <psa03 value="0.3681664092" flag="0"/>
      <psa10 value="0.0416577947" flag="0"/>
      <psa30 value="0.0223529900" flag="0"/>
    </comp>
  </station>
  <station code="IACM" name="IACM" netid="HL" insttype="120" lat="35.3058" lon="25.0709">
    <comp name="--.HHE">
      <acc value="0.1366549862" flag="0"/>
      <vel value="0.1138441048" flag="0"/>
      <psa03 value="0.4863812043" flag="0"/>
      <psa10 value="0.1645785186" flag="0"/>
      <psa30 value="0.0094221960" flag="0"/>
    </comp>
    <comp name="--.HHZ">
      <acc value="0.0740246582" flag="0"/>
      <vel value="0.0343214482" flag="0"/>
      <psa03 value="0.1594147490" flag="0"/>
      <psa10 value="0.0693604619" flag="0"/>
      <psa30 value="0.0038337764" flag="0"/>
    </comp>
    <comp name="--.HHN">
      <acc value="0.0911522753" flag="0"/>
      <vel value="0.0789480701" flag="0"/>
      <psa03 value="0.2854969924" flag="0"/>
      <psa10 value="0.1881410852" flag="0"/>
      <psa30 value="0.0081877712" flag="0"/>
    </comp>
  </station>
  <station code="IDI" name="IDI" netid="HL" insttype="120" lat="35.288" lon="24.89">
    <comp name="--.HHE">
      <acc value="0.0243610182" flag="0"/>
      <vel value="0.0125477801" flag="0"/>
      <psa03 value="0.0471808277" flag="0"/>
      <psa10 value="0.0194244775" flag="0"/>
      <psa30 value="0.0027208290" flag="0"/>
    </comp>
    <comp name="--.HHN">
      <acc value="0.0193511014" flag="0"/>
      <vel value="0.0103124533" flag="0"/>
      <psa03 value="0.0591142977" flag="0"/>
      <psa10 value="0.0137061494" flag="0"/>
      <psa30 value="0.0016642216" flag="0"/>
    </comp>
    <comp name="--.HHZ">
      <acc value="0.0195141520" flag="0"/>
      <vel value="0.0113770569" flag="0"/>
      <psa03 value="0.0492547179" flag="0"/>
      <psa10 value="0.0199427153" flag="0"/>
      <psa30 value="0.0015819221" flag="0"/>
    </comp>
  </station>
  <station code="MHLO" name="MHLO" netid="HL" insttype="20" lat="36.6898" lon="24.4017">
    <comp name="--.HHE">
      <acc value="0.3187183764" flag="0"/>
      <vel value="0.2395575932" flag="0"/>
      <psa03 value="1.2427862345" flag="0"/>
      <psa10 value="0.2217440552" flag="0"/>
      <psa30 value="0.0184494808" flag="0"/>
    </comp>
    <comp name="--.HHZ">
      <acc value="0.1303517955" flag="0"/>
      <vel value="0.1125214523" flag="0"/>
      <psa03 value="0.3203741998" flag="0"/>
      <psa10 value="0.1435509029" flag="0"/>
      <psa30 value="0.0106039770" flag="0"/>
    </comp>
    <comp name="--.HHN">
      <acc value="0.2779201624" flag="0"/>
      <vel value="0.1565211891" flag="0"/>
      <psa03 value="0.5180026338" flag="0"/>
      <psa10 value="0.2912436941" flag="0"/>
      <psa30 value="0.0146801457" flag="0"/>
    </comp>
  </station>
  <station code="MILA" name="MILA" netid="HL" insttype="CMG-5" lat="36.7429" lon="24.4282">
    <comp name="00.HNZ">
      <acc value="0.2631800548" flag="0"/>
      <vel value="0.1962643352" flag="0"/>
      <psa03 value="0.6323759233" flag="0"/>
      <psa10 value="0.1892607557" flag="0"/>
      <psa30 value="0.0133454313" flag="0"/>
    </comp>
    <comp name="00.HNN">
      <acc value="0.5222813919" flag="0"/>
      <vel value="0.3446587941" flag="0"/>
      <psa03 value="1.2488845814" flag="0"/>
      <psa10 value="0.2754642341" flag="0"/>
      <psa30 value="0.0165882544" flag="0"/>
    </comp>
    <comp name="00.HNE">
      <acc value="0.4389322103" flag="0"/>
      <vel value="0.2777447718" flag="0"/>
      <psa03 value="0.7971152268" flag="0"/>
      <psa10 value="0.2100100206" flag="0"/>
      <psa30 value="0.0163273256" flag="0"/>
    </comp>
  </station>
  <station code="NISR" name="NISR" netid="HL" insttype="65535" lat="36.6106" lon="27.131">
    <comp name="--.HHE">
      <acc value="0.0000000000" flag="0"/>
      <vel value="-100.0000000000" flag="0"/>
      <psa03 value="0.0000000000" flag="0"/>
      <psa10 value="0.0000000000" flag="0"/>
      <psa30 value="0.0000000000" flag="0"/>
    </comp>
    <comp name="--.HHN">
      <acc value="0.0726069836" flag="0"/>
      <vel value="0.0724720388" flag="0"/>
      <psa03 value="0.1533465025" flag="0"/>
      <psa10 value="0.0658401093" flag="0"/>
      <psa30 value="0.0186959588" flag="0"/>
    </comp>
    <comp name="--.HHZ">
      <acc value="0.0441237451" flag="0"/>
      <vel value="0.0245497310" flag="0"/>
      <psa03 value="0.0887462044" flag="0"/>
      <psa10 value="0.0462051970" flag="0"/>
      <psa30 value="0.0045644758" flag="0"/>
    </comp>
  </station>
  <station code="NISR2" name="NISR2" netid="HL" insttype="120" lat="36.5744" lon="27.1767">
    <comp name="--.HHZ">
      <acc value="0.0398693601" flag="0"/>
      <vel value="0.0302893387" flag="0"/>
      <psa03 value="0.0791977059" flag="0"/>
      <psa10 value="0.0442213151" flag="0"/>
      <psa30 value="0.0046479484" flag="0"/>
    </comp>
    <comp name="--.HHN">
      <acc value="0.1358690608" flag="0"/>
      <vel value="0.1208669755" flag="0"/>
      <psa03 value="0.2946636033" flag="0"/>
      <psa10 value="0.2275924672" flag="0"/>
      <psa30 value="0.0194106664" flag="0"/>
    </comp>
    <comp name="--.HHE">
      <acc value="0.0987424756" flag="0"/>
      <vel value="0.1176974945" flag="0"/>
      <psa03 value="0.2249958553" flag="0"/>
      <psa10 value="0.2441817111" flag="0"/>
      <psa30 value="0.0154686936" flag="0"/>
    </comp>
  </station>
  <station code="NPS" name="NPS" netid="HL" insttype="CMG3ESPC-120s" lat="35.2613" lon="25.6104">
    <comp name="--.HHE">
      <acc value="0.0159929459" flag="0"/>
      <vel value="0.0112694448" flag="0"/>
      <psa03 value="0.0472970009" flag="0"/>
      <psa10 value="0.0201870300" flag="0"/>
      <psa30 value="0.0017935673" flag="0"/>
    </comp>
    <comp name="--.HHN">
      <acc value="0.0286956246" flag="0"/>
      <vel value="0.0155357262" flag="0"/>
      <psa03 value="0.0540281140" flag="0"/>
      <psa10 value="0.0441566445" flag="0"/>
      <psa30 value="0.0029693134" flag="0"/>
    </comp>
    <comp name="--.HHZ">
      <acc value="0.0208560026" flag="0"/>
      <vel value="0.0101449520" flag="0"/>
      <psa03 value="0.0508305047" flag="0"/>
      <psa10 value="0.0148792757" flag="0"/>
      <psa30 value="0.0024098309" flag="0"/>
    </comp>
  </station>
  <station code="SANT" name="SANT" netid="HL" insttype="30" lat="36.3705" lon="25.4593">
    <comp name="--.HHE">
      <acc value="0.8890976908" flag="0"/>
      <vel value="0.2315773303" flag="0"/>
      <psa03 value="0.7960036296" flag="0"/>
      <psa10 value="0.2092305060" flag="0"/>
      <psa30 value="0.0183677768" flag="0"/>
    </comp>
    <comp name="--.HHN">
      <acc value="0.5953873757" flag="0"/>
      <vel value="0.1029889098" flag="0"/>
      <psa03 value="0.3162452681" flag="0"/>
      <psa10 value="0.1278039405" flag="0"/>
      <psa30 value="0.0100447939" flag="0"/>
    </comp>
    <comp name="--.HHZ">
      <acc value="0.5496419258" flag="0"/>
      <vel value="0.1289349726" flag="0"/>
      <psa03 value="0.4882736615" flag="0"/>
      <psa10 value="0.0690454012" flag="0"/>
      <psa30 value="0.0125612058" flag="0"/>
    </comp>
  </station>
  <station code="SAP3" name="SAP3" netid="HL" insttype="65535" lat="36.4356" lon="25.3454">
    <comp name="--.HHZ">
      <acc value="0.5131406469" flag="0"/>
      <vel value="0.2077015105" flag="0"/>
      <psa03 value="0.8155976100" flag="0"/>
      <psa10 value="0.1064186853" flag="0"/>
      <psa30 value="0.0164310471" flag="0"/>
    </comp>
    <comp name="--.HHN">
      <acc value="0.5687138286" flag="0"/>
      <vel value="0.2454035858" flag="0"/>
      <psa03 value="1.4918707579" flag="0"/>
      <psa10 value="0.2583299204" flag="0"/>
      <psa30 value="0.0714867296" flag="0"/>
    </comp>
    <comp name="--.HHE">
      <acc value="0.6836689811" flag="0"/>
      <vel value="0.2720168459" flag="0"/>
      <psa03 value="0.9155100166" flag="0"/>
      <psa10 value="0.2767635560" flag="0"/>
      <psa30 value="0.1034865995" flag="0"/>
    </comp>
  </station>
  <station code="SMG" name="SMG" netid="HL" insttype="120" lat="37.7043" lon="26.8377">
    <comp name="--.HHE">
      <acc value="0.0485836668" flag="0"/>
      <vel value="0.0206028121" flag="0"/>
      <psa03 value="0.1825471306" flag="0"/>
      <psa10 value="0.0155522412" flag="0"/>
      <psa30 value="0.0044346099" flag="0"/>
    </comp>
    <comp name="--.HHN">
      <acc value="0.0516873158" flag="0"/>
      <vel value="0.0255692354" flag="0"/>
