<?xml version="1.0" encoding="UTF-8" standalone="yes"?>
<!DOCTYPE earthquake SYSTEM "stationlist.dtd">
<stationlist created="" xmlns="ch.ethz.sed.shakemap.usgs.xml">
  <station code="APE" name="APE" netid="GE" insttype="STS-2/N" lat="37.0727" lon="25.523">
    <comp name="--.HHZ">
      <acc value="0.2531266735" flag="0"/>
      <vel value="0.0739186393" flag="0"/>
      <psa03 value="0.3814024843" flag="0"/>
      <psa10 value="0.0419645785" flag="0"/>
      <psa30 value="0.0223876291" flag="0"/>
    </comp>
    <comp name="--.HHE">
      <acc value="0.5014383117" flag="0"/>
      <vel value="0.1018711243" flag="0"/>
      <psa03 value="0.4845191366" flag="0"/>
      <psa10 value="0.0435846612" flag="0"/>
      <psa30 value="0.0205906483" flag="0"/>
    </comp>
    <comp name="--.HHN">
      <acc value="0.5430425676" flag="0"/>
      <vel value="0.1172769716" flag="0"/>
      <psa03 value="0.4070066427" flag="0"/>
      <psa10 value="0.0569976494" flag="0"/>
      <psa30 value="0.0217627217" flag="0"/>
    </comp>
  </station>
  <station code="THERA" name="THERA" netid="GE" insttype="STS-2/N" lat="36.367" lon="25.4753">
    <comp name="--.HHE">
      <acc value="0.3504983364" flag="0"/>
      <vel value="0.1279944339" flag="0"/>
      <psa03 value="0.5144515497" flag="0"/>
      <psa10 value="0.1105821337" flag="0"/>
      <psa30 value="0.0182102968" flag="0"/>
    </comp>
    <comp name="--.HHN">
      <acc value="0.2431287462" flag="0"/>
      <vel value="0.0612289748" flag="0"/>
      <psa03 value="0.2811773949" flag="0"/>
      <psa10 value="0.0471183124" flag="0"/>
      <psa30 value="0.0048312656" flag="0"/>
    </comp>
    <comp name="--.HHZ">
      <acc value="0.3148501302" flag="0"/>
      <vel value="0.0878786293" flag="0"/>
      <psa03 value="0.3034780175" flag="0"/>
      <psa10 value="0.0850559099" flag="0"/>
      <psa30 value="0.0129845031" flag="0"/>
    </comp>
  </station>
  <station code="ZKR" name="ZKR" netid="GE" insttype="STS-2/N" lat="35.1147" lon="26.2169">
    <comp name="--.HHE">
      <acc value="0.0172491699" flag="0"/>
      <vel value="0.0112027836" flag="0"/>
      <psa03 value="0.0386990467" flag="0"/>
      <psa10 value="0.0158950834" flag="0"/>
      <psa30 value="0.0033919234" flag="0"/>
    </comp>
    <comp name="--.HHZ">
      <acc value="0.0082013183" flag="0"/>
      <vel value="0.0049591170" flag="0"/>
      <psa03 value="0.0168535416" flag="0"/>
      <psa10 value="0.0072826790" flag="0"/>
      <psa30 value="0.0014835143" flag="0"/>
    </comp>
    <comp name="--.HHN">
      <acc value="0.0066218095" flag="0"/>
      <vel value="0.0061495841" flag="0"/>
      <psa03 value="0.0172202917" flag="0"/>
      <psa10 value="0.0099011270" flag="0"/>
      <psa30 value="0.0017103845" flag="0"/>
    </comp>
  </station>
  <station code="SERI" name="SERI" netid="HA" insttype="30" lat="37.1609" lon="24.4853">
    <comp name="--.HHE">
      <acc value="0.1149851460" flag="0"/>
      <vel value="0.0538394564" flag="0"/>
      <psa03 value="0.1736016366" flag="0"/>
      <psa10 value="0.0298671881" flag="0"/>
      <psa30 value="0.0060065706" flag="0"/>
    </comp>
    <comp name="--.HHZ">
      <acc value="0.1001656196" flag="0"/>
      <vel value="0.0646507379" flag="0"/>
      <psa03 value="0.1681921423" flag="0"/>
      <psa10 value="0.0380147133" flag="0"/>
      <psa30 value="0.0096206021" flag="0"/>
    </comp>
    <comp name="--.HHN">
      <acc value="0.1411819514" flag="0"/>
      <vel value="0.0776603458" flag="0"/>
      <psa03 value="0.2232627052" flag="0"/>
      <psa10 value="0.0684615768" flag="0"/>
      <psa30 value="0.0071254913" flag="0"/>
    </comp>
  </station>
  <station code="SNT1" name="SNT1" netid="HA" insttype="30" lat="36.4159" lon="25.4282">
    <comp name="--.HHN">
      <acc value="0.2850693791" flag="0"/>
      <vel value="0.2024587889" flag="0"/>
      <psa03 value="0.6418587446" flag="0"/>
      <psa10 value="0.2343291043" flag="0"/>
      <psa30 value="0.0625023663" flag="0"/>
    </comp>
    <comp name="--.HHZ">
      <acc value="0.2481456789" flag="0"/>
      <vel value="0.1340027731" flag="0"/>
      <psa03 value="0.4094299964" flag="0"/>
      <psa10 value="0.1359797282" flag="0"/>
      <psa30 value="0.0250901401" flag="0"/>
    </comp>
    <comp name="--.HHE">
      <acc value="0.3740439320" flag="0"/>
      <vel value="0.2041463731" flag="0"/>
      <psa03 value="0.7974041457" flag="0"/>
      <psa10 value="0.1835925259" flag="0"/>
      <psa30 value="0.0466854605" flag="0"/>
    </comp>
  </station>
  <station code="IPPL" name="IPPL" netid="HC" insttype="60" lat="35.3486" lon="24.4632">
    <comp name="--.HHE">
      <acc value="0.0000000000" flag="0"/>
      <vel value="-100.0000000000" flag="0"/>
      <psa03 value="0.0000000000" flag="0"/>
      <psa10 value="0.0000000000" flag="0"/>
      <psa30 value="0.0000000000" flag="0"/>
    </comp>
    <comp name="--.HHZ">
      <acc value="0.0130402937" flag="0"/>
      <vel value="0.0090804608" flag="0"/>
      <psa03 value="0.0382876377" flag="0"/>
      <psa10 value="0.0109311663" flag="0"/>
      <psa30 value="0.0016126055" flag="0"/>
    </comp>
    <comp name="--.HHN">
      <acc value="0.0000000000" flag="0"/>
      <vel value="-100.0000000000" flag="0"/>
      <psa03 value="0.0000000000" flag="0"/>
      <psa10 value="0.0000000000" flag="0"/>
      <psa30 value="0.0000000000" flag="0"/>
    </comp>
  </station>
  <station code="KNSS" name="KNSS" netid="HC" insttype="60" lat="35.3042" lon="25.1802">
    <comp name="--.HHE">
      <acc value="0.0000000000" flag="0"/>
      <vel value="-100.0000000000" flag="0"/>
      <psa03 value="0.0000000000" flag="0"/>
      <psa10 value="0.0000000000" flag="0"/>
      <psa30 value="0.0000000000" flag="0"/>
    </comp>
    <comp name="--.HHN">
      <acc value="0.0299640393" flag="0"/>
      <vel value="0.0149759993" flag="0"/>
      <psa03 value="0.0693987776" flag="0"/>
      <psa10 value="0.0171756517" flag="0"/>
      <psa30 value="0.0036026576" flag="0"/>
    </comp>
    <comp name="--.HHZ">
      <acc value="0.0384670587" flag="0"/>
      <vel value="0.0176947854" flag="0"/>
      <psa03 value="0.0750140952" flag="0"/>
      <psa10 value="0.0218236470" flag="0"/>
      <psa30 value="0.0027177819" flag="0"/>
    </comp>
  </station>
  <station code="PFKS" name="PFKS" netid="HC" insttype="120" lat="35.0429" lon="25.4733">
    <comp name="--.HHE">
      <acc value="0.0280610988" flag="0"/>
      <vel value="0.0157602487" flag="0"/>
      <psa03 value="0.0744710586" flag="0"/>
      <psa10 value="0.0304474211" flag="0"/>
      <psa30 value="0.0028650935" flag="0"/>
    </comp>
    <comp name="--.HHN">
      <acc value="0.0366929098" flag="0"/>
      <vel value="0.0132380108" flag="0"/>
      <psa03 value="0.0597988093" flag="0"/>
      <psa10 value="0.0157141227" flag="0"/>
      <psa30 value="0.0024704070" flag="0"/>
    </comp>
    <comp name="--.HHZ">
      <acc value="0.0161766928" flag="0"/>
      <vel value="0.0098271776" flag="0"/>
      <psa03 value="0.0311253698" flag="0"/>
      <psa10 value="0.0187571030" flag="0"/>
      <psa30 value="0.0012191070" flag="0"/>
    </comp>
  </station>
  <station code="STIA" name="STIA" netid="HC" insttype="120" lat="35.2021" lon="26.0909">
    <comp name="--.HHZ">
      <acc value="0.0192525123" flag="0"/>
      <vel value="0.0110997587" flag="0"/>
      <psa03 value="0.0569006478" flag="0"/>
      <psa10 value="0.0138910344" flag="0"/>
      <psa30 value="0.0029810018" flag="0"/>
    </comp>
    <comp name="--.HHN">
      <acc value="0.0172272404" flag="0"/>
      <vel value="0.0130829553" flag="0"/>
      <psa03 value="0.0373723625" flag="0"/>
      <psa10 value="0.0260730987" flag="0"/>
      <psa30 value="0.0030580464" flag="0"/>
    </comp>
    <comp name="--.HHE">
      <acc value="0.0173939863" flag="0"/>
      <vel value="0.0158906981" flag="0"/>
      <psa03 value="0.0418213666" flag="0"/>
      <psa10 value="0.0297008234" flag="0"/>
      <psa30 value="0.0037385401" flag="0"/>
    </comp>
  </station>
  <station code="NAX1" name="NAX1" netid="HI" insttype="CMG-5TD,ACCELEROMETER,GURALP" lat="37.1014" lon="25.3741">
    <comp name="--.HNE">
      <acc value="0.4678257780" flag="0"/>
      <vel value="0.1399769168" flag="0"/>
      <psa03 value="0.9001162146" flag="0"/>
      <psa10 value="0.0751293860" flag="0"/>
      <psa30 value="0.0087109391" flag="0"/>
    </comp>
    <comp name="--.HNN">
      <acc value="0.5885437048" flag="0"/>
      <vel value="0.1336582720" flag="0"/>
      <psa03 value="0.6094462492" flag="0"/>
      <psa10 value="0.0547390332" flag="0"/>
      <psa30 value="0.0142097329" flag="0"/>
    </comp>
    <comp name="--.HNZ">
      <acc value="0.2827231917" flag="0"/>
      <vel value="0.0940977870" flag="0"/>
      <psa03 value="0.4201730539" flag="0"/>
      <psa10 value="0.0599196880" flag="0"/>
      <psa30 value="0.0188253373" flag="0"/>
    </comp>
  </station>
  <station code="SFR2" name="SFR2" netid="HI" insttype="unknown" lat="36.3998" lon="25.4382">
    <comp name="--.HNE">
      <acc value="0.9655094256" flag="0"/>
      <vel value="0.4279377462" flag="0"/>
      <psa03 value="2.7793645925" flag="0"/>
      <psa10 value="0.2962176203" flag="0"/>
      <psa30 value="0.0477130204" flag="0"/>
    </comp>
    <comp name="--.HNN">
      <acc value="1.2101128116" flag="0"/>
      <vel value="0.4214250309" flag="0"/>
      <psa03 value="2.2417818217" flag="0"/>
      <psa10 value="0.5278927057" flag="0"/>
      <psa30 value="0.0429143645" flag="0"/>
    </comp>
    <comp name="--.HNZ">
      <acc value="0.6942934488" flag="0"/>
      <vel value="0.2925999254" flag="0"/>
      <psa03 value="1.8133152016" flag="0"/>
      <psa10 value="0.2328411089" flag="0"/>
      <psa30 value="0.0247681001" flag="0"/>
    </comp>
  </station>
  <station code="AMGA" name="AMGA" netid="HL" insttype="SMART24" lat="36.8316" lon="25.8938">
    <comp name="--.HHN">
      <acc value="1.9561009038" flag="0"/>
      <vel value="0.4899172970" flag="0"/>
      <psa03 value="2.6662903433" flag="0"/>
      <psa10 value="0.2016655485" flag="0"/>
      <psa30 value="0.0321704599" flag="0"/>
    </comp>
    <comp name="--.HHZ">
      <acc value="1.0349951204" flag="0"/>
      <vel value="0.2879960881" flag="0"/>
      <psa03 value="1.1472859049" flag="0"/>
      <psa10 value="0.1802885232" flag="0"/>
      <psa30 value="0.0404118140" flag="0"/>
    </comp>
    <comp name="--.HHE">
      <acc value="1.5945678630" flag="0"/>
      <vel value="0.3149047116" flag="0"/>
      <psa03 value="2.1360625771" flag="0"/>
      <psa10 value="0.2473133186" flag="0"/>
      <psa30 value="0.0508593663" flag="0"/>
    </comp>
  </station>
  <station code="APE" name="APE" netid="HL" insttype="120" lat="37.0727" lon="25.523">
    <comp name="--.HHN">
      <acc value="0.4939488905" flag="0"/>
      <vel value="0.1142373797" flag="0"/>
      <psa03 value="0.3962228169" flag="0"/>
      <psa10 value="0.0565194432" flag="0"/>
      <psa30 value="0.0217277711" flag="0"/>
    </comp>
    <comp name="--.HHE">
      <acc value="0.4800693514" flag="0"/>
      <vel value="0.0994350557" flag="0"/>
      <psa03 value="0.4707258279" flag="0"/>
      <psa10 value="0.0425702577" flag="0"/>
      <psa30 value="0.0205699601" flag="0"/>
    </comp>
    <comp name="--.HHZ">
      <acc value="0.2226803926" flag="0"/>
      <vel value="0.0711758217" flag="0"/>
      <psa03 value="0.3681664092" flag="0"/>
      <psa10 value="0.0416578010" flag="0"/>
      <psa30 value="0.0223533503" flag="0"/>
    </comp>
  </station>
  <station code="IACM" name="IACM" netid="HL" insttype="120" lat="35.3058" lon="25.0709">
    <comp name="--.HHE">
      <acc value="0.1366549861" flag="0"/>
      <vel value="0.1138440719" flag="0"/>
      <psa03 value="0.4863812043" flag="0"/>
      <psa10 value="0.1645785186" flag="0"/>
      <psa30 value="0.0094222340" flag="0"/>
    </comp>
    <comp name="--.HHN">
      <acc value="0.0911522752" flag="0"/>
      <vel value="0.0789480637" flag="0"/>
      <psa03 value="0.2854969924" flag="0"/>
      <psa10 value="0.1881410852" flag="0"/>
      <psa30 value="0.0081875324" flag="0"/>
    </comp>
    <comp name="--.HHZ">
      <acc value="0.0740246582" flag="0"/>
      <vel value="0.0343214899" flag="0"/>
      <psa03 value="0.1594147490" flag="0"/>
      <psa10 value="0.0693604619" flag="0"/>
      <psa30 value="0.0038338449" flag="0"/>
    </comp>
  </station>
  <station code="IDI" name="IDI" netid="HL" insttype="120" lat="35.288" lon="24.89">
    <comp name="--.HHE">
      <acc value="0.0243610182" flag="0"/>
      <vel value="0.0125477806" flag="0"/>
      <psa03 value="0.0471808277" flag="0"/>
      <psa10 value="0.0194244775" flag="0"/>
      <psa30 value="0.0027208782" flag="0"/>
    </comp>
    <comp name="--.HHN">
      <acc value="0.0193511014" flag="0"/>
      <vel value="0.0103124597" flag="0"/>
      <psa03 value="0.0591142977" flag="0"/>
      <psa10 value="0.0137061494" flag="0"/>
      <psa30 value="0.0016641960" flag="0"/>
    </comp>
    <comp name="--.HHZ">
      <acc value="0.0195141520" flag="0"/>
      <vel value="0.0113770643" flag="0"/>
      <psa03 value="0.0492547179" flag="0"/>
      <psa10 value="0.0199427153" flag="0"/>
      <psa30 value="0.0015820527" flag="0"/>
    </comp>
  </station>
  <station code="MHLO" name="MHLO" netid="HL" insttype="20" lat="36.6898" lon="24.4017">
    <comp name="--.HHN">
      <acc value="0.2779201644" flag="0"/>
      <vel value="0.1565220078" flag="0"/>
      <psa03 value="0.5180026356" flag="0"/>
      <psa10 value="0.2912436883" flag="0"/>
      <psa30 value="0.0146804769" flag="0"/>
    </comp>
    <comp name="--.HHZ">
      <acc value="0.1303517955" flag="0"/>
      <vel value="0.1125217086" flag="0"/>
      <psa03 value="0.3203742002" flag="0"/>
      <psa10 value="0.1435509032" flag="0"/>
      <psa30 value="0.0106036611" flag="0"/>
    </comp>
    <comp name="--.HHE">
      <acc value="0.3187183771" flag="0"/>
      <vel value="0.2395579706" flag="0"/>
      <psa03 value="1.2427862353" flag="0"/>
      <psa10 value="0.2217440577" flag="0"/>
      <psa30 value="0.0184497544" flag="0"/>
    </comp>
  </station>
  <station code="MILA" name="MILA" netid="HL" insttype="CMG-5" lat="36.7429" lon="24.4282">
    <comp name="00.HNE">
      <acc value="0.4389322086" flag="0"/>
      <vel value="0.2777447984" flag="0"/>
      <psa03 value="0.7971152268" flag="0"/>
      <psa10 value="0.2100100214" flag="0"/>
      <psa30 value="0.0163272438" flag="0"/>
    </comp>
    <comp name="00.HNN">
      <acc value="0.5222813906" flag="0"/>
      <vel value="0.3446588063" flag="0"/>
      <psa03 value="1.2488845814" flag="0"/>
      <psa10 value="0.2754642383" flag="0"/>
      <psa30 value="0.0165899395" flag="0"/>
    </comp>
    <comp name="00.HNZ">
      <acc value="0.2631800566" flag="0"/>
      <vel value="0.1962643186" flag="0"/>
      <psa03 value="0.6323759233" flag="0"/>
      <psa10 value="0.1892607556" flag="0"/>
      <psa30 value="0.0133442746" flag="0"/>
    </comp>
  </station>
  <station code="NISR" name="NISR" netid="HL" insttype="65535" lat="36.6106" lon="27.131">
    <comp name="--.HHN">
      <acc value="0.0726069829" flag="0"/>
      <vel value="0.0724721665" flag="0"/>
      <psa03 value="0.1533465027" flag="0"/>
      <psa10 value="0.0658401096" flag="0"/>
      <psa30 value="0.0186965233" flag="0"/>
    </comp>
    <comp name="--.HHZ">
      <acc value="0.0441237454" flag="0"/>
      <vel value="0.0245497316" flag="0"/>
      <psa03 value="0.0887462044" flag="0"/>
      <psa10 value="0.0462051970" flag="0"/>
      <psa30 value="0.0045648293" flag="0"/>
    </comp>
    <comp name="--.HHE">
      <acc value="0.0000000000" flag="0"/>
      <vel value="-100.0000000000" flag="0"/>
      <psa03 value="0.0000000000" flag="0"/>
      <psa10 value="0.0000000000" flag="0"/>
      <psa30 value="0.0000000000" flag="0"/>
    </comp>
  </station>
  <station code="NISR2" name="NISR2" netid="HL" insttype="120" lat="36.5744" lon="27.1767">
    <comp name="--.HHE">
      <acc value="0.0987424755" flag="0"/>
      <vel value="0.1176975790" flag="0"/>
      <psa03 value="0.2249958553" flag="0"/>
      <psa10 value="0.2441817109" flag="0"/>
      <psa30 value="0.0154682924" flag="0"/>
    </comp>
    <comp name="--.HHN">
      <acc value="0.1358690609" flag="0"/>
      <vel value="0.1208669254" flag="0"/>
      <psa03 value="0.2946636033" flag="0"/>
      <psa10 value="0.2275924672" flag="0"/>
      <psa30 value="0.0194111181" flag="0"/>
    </comp>
    <comp name="--.HHZ">
      <acc value="0.0398693602" flag="0"/>
      <vel value="0.0302893396" flag="0"/>
      <psa03 value="0.0791977059" flag="0"/>
      <psa10 value="0.0442213150" flag="0"/>
      <psa30 value="0.0046479867" flag="0"/>
    </comp>
  </station>
  <station code="NPS" name="NPS" netid="HL" insttype="CMG3ESPC-120s" lat="35.2613" lon="25.6104">
    <comp name="--.HHE">
      <acc value="0.0159929459" flag="0"/>
      <vel value="0.0112694443" flag="0"/>
      <psa03 value="0.0472970009" flag="0"/>
      <psa10 value="0.0201870299" flag="0"/>
      <psa30 value="0.0017935424" flag="0"/>
    </comp>
    <comp name="--.HHZ">
      <acc value="0.0208560027" flag="0"/>
      <vel value="0.0101449519" flag="0"/>
      <psa03 value="0.0508305047" flag="0"/>
      <psa10 value="0.0148792757" flag="0"/>
      <psa30 value="0.0024100986" flag="0"/>
    </comp>
    <comp name="--.HHN">
      <acc value="0.0286956248" flag="0"/>
      <vel value="0.0155357413" flag="0"/>
      <psa03 value="0.0540281140" flag="0"/>
      <psa10 value="0.0441566445" flag="0"/>
      <psa30 value="0.0029694421" flag="0"/>
    </comp>
  </station>
  <station code="SANT" name="SANT" netid="HL" insttype="30" lat="36.3705" lon="25.4593">
    <comp name="--.HHZ">
      <acc value="0.5496419250" flag="0"/>
      <vel value="0.1289345947" flag="0"/>
      <psa03 value="0.4882736608" flag="0"/>
      <psa10 value="0.0690454017" flag="0"/>
      <psa30 value="0.0125605228" flag="0"/>
    </comp>
    <comp name="--.HHN">
      <acc value="0.5953873766" flag="0"/>
      <vel value="0.1029891981" flag="0"/>
      <psa03 value="0.3162452675" flag="0"/>
      <psa10 value="0.1278039367" flag="0"/>
      <psa30 value="0.0100424530" flag="0"/>
    </comp>
    <comp name="--.HHE">
      <acc value="0.8890976913" flag="0"/>
      <vel value="0.2315773735" flag="0"/>
      <psa03 value="0.7960036295" flag="0"/>
      <psa10 value="0.2092304921" flag="0"/>
      <psa30 value="0.0183672319" flag="0"/>
    </comp>
  </station>
  <station code="SAP3" name="SAP3" netid="HL" insttype="65535" lat="36.4356" lon="25.3454">
    <comp name="--.HHE">
      <acc value="0.6836689812" flag="0"/>
      <vel value="0.2720168406" flag="0"/>
      <psa03 value="0.9155100166" flag="0"/>
      <psa10 value="0.2767635542" flag="0"/>
      <psa30 value="0.1034866816" flag="0"/>
    </comp>
    <comp name="--.HHN">
      <acc value="0.5687138287" flag="0"/>
      <vel value="0.2454036023" flag="0"/>
      <psa03 value="1.4918707579" flag="0"/>
      <psa10 value="0.2583299207" flag="0"/>
      <psa30 value="0.0714867540" flag="0"/>
    </comp>
    <comp name="--.HHZ">
      <acc value="0.5131406469" flag="0"/>
      <vel value="0.2077015408" flag="0"/>
      <psa03 value="0.8155976100" flag="0"/>
      <psa10 value="0.1064186852" flag="0"/>
      <psa30 value="0.0164313004" flag="0"/>
    </comp>
  </station>
  <station code="SMG" name="SMG" netid="HL" insttype="120" lat="37.7043" lon="26.8377">
    <comp name="--.HHE">
      <acc value="0.0485836665" flag="0"/>
      <vel value="0.0206028106" flag="0"/>
      <psa03 value="0.1825471306" flag="0"/>
      <psa10 value="0.0155522412" flag="0"/>
      <psa30 value="0.0044345784" flag="0"/>
    </comp>
    <comp name="--.HHZ">
      <acc value="0.0309560550" flag="0"/>
      <vel value="0.0092303407" flag="0"/>
