<stationlist created="1739289516">
	<station code="KTHA" name="KTHA" netid="GE" source="GEOFON" insttype="" lat="36.2566" lon="23.0621">
		<comp name=".HNE" depth="0.0">
			<acc value="0.0083979200086386" flag="0"/>
			<vel value="0.0105670677077" flag="0"/>
			<psa03 value="0.0202538052568489" flag="0"/>
			<psa10 value="0.0123128747300301" flag="0"/>
			<psa30 value="0.00288443649642626" flag="0"/>
		</comp>
		<comp name=".HNN" depth="0.0">
			<acc value="0.008819147524515" flag="0"/>
			<vel value="0.0119474640825" flag="0"/>
			<psa03 value="0.0159555009840444" flag="0"/>
			<psa10 value="0.0151068135647615" flag="0"/>
			<psa30 value="0.00388822090888821" flag="0"/>
		</comp>
		<comp name=".HNZ" depth="0.0">
			<acc value="0.0063831267845364" flag="0"/>
			<vel value="0.0264120552193" flag="0"/>
			<psa03 value="0.0123856759590178" flag="0"/>
			<psa10 value="0.011101326033378" flag="0"/>
			<psa30 value="0.00934141465620988" flag="0"/>
		</comp>
	</station>
	<station code="ATHU" name="ATHU" netid="HA" source="Hellenic Seismological Network, University of Athens, Seismological Laboratory (HA)" insttype="" lat="37.9665" lon="23.7845">
		<comp name=".HNE" depth="0.0">
			<acc value="0.00091827599186928" flag="0"/>
			<vel value="0.000855889959432" flag="0"/>
			<psa03 value="0.00248118292087953" flag="0"/>
			<psa10 value="0.000781040919815671" flag="0"/>
			<psa30 value="0.000184519033376194" flag="0"/>
		</comp>
		<comp name=".HNN" depth="0.0">
			<acc value="0.00064981365491604" flag="0"/>
			<vel value="0.000543630567949" flag="0"/>
			<psa03 value="0.00130039538960259" flag="0"/>
			<psa10 value="0.000450195233382841" flag="0"/>
			<psa30 value="0.000188251507196782" flag="0"/>
		</comp>
		<comp name=".HNZ" depth="0.0">
			<acc value="0.00100224101115852" flag="0"/>
			<vel value="0.0006283951764" flag="0"/>
			<psa03 value="0.00422595638116058" flag="0"/>
			<psa10 value="0.00052322305939679" flag="0"/>
			<psa30 value="0.000178285820977386" flag="0"/>
		</comp>
	</station>
	<station code="ABEA" name="ABEA" netid="HC" source="Seismological Network of Crete (HC)" insttype="" lat="35.5163" lon="24.0113">
		<comp name=".HNE" depth="0.0">
			<acc value="0.010952983640304" flag="0"/>
			<vel value="0.00606527966798" flag="0"/>
			<psa03 value="0.0361698205522856" flag="0"/>
			<psa10 value="0.00507623268173866" flag="0"/>
			<psa30 value="0.00178721276907297" flag="0"/>
		</comp>
		<comp name=".HNN" depth="0.0">
			<acc value="0.016923154258998" flag="0"/>
			<vel value="0.00488709016983" flag="0"/>
			<psa03 value="0.0375423958536242" flag="0"/>
			<psa10 value="0.00545360799352038" flag="0"/>
			<psa30 value="0.00113371249872109" flag="0"/>
		</comp>
		<comp name=".HNZ" depth="0.0">
			<acc value="0.0062077502715294" flag="0"/>
			<vel value="0.00266417566243" flag="0"/>
			<psa03 value="0.0102786835164951" flag="0"/>
			<psa10 value="0.00348860954075886" flag="0"/>
			<psa30 value="0.00094876962216344" flag="0"/>
		</comp>
	</station>
	<station code="ATEI" name="ATEI" netid="HC" source="Seismological Network of Crete (HC)" insttype="" lat="35.5193" lon="24.0432">
		<comp name=".HNE" depth="0.0">
			<acc value="0.026554288379874" flag="0"/>
			<vel value="0.0144565027981" flag="0"/>
			<psa03 value="0.0564248993309013" flag="0"/>
			<psa10 value="0.0294102732862631" flag="0"/>
			<psa30 value="0.00287935261797831" flag="0"/>
		</comp>
		<comp name=".HNN" depth="0.0">
			<acc value="0.021208619969112" flag="0"/>
			<vel value="0.0142514744622" flag="0"/>
			<psa03 value="0.064019287838444" flag="0"/>
			<psa10 value="0.0202962676531384" flag="0"/>
			<psa30 value="0.00315015493230371" flag="0"/>
		</comp>
		<comp name=".HNZ" depth="0.0">
			<acc value="0.011452861378278" flag="0"/>
			<vel value="0.0099823137773" flag="0"/>
			<psa03 value="0.0298987306441587" flag="0"/>
			<psa10 value="0.0253910720338916" flag="0"/>
			<psa30 value="0.0014353935252766" flag="0"/>
		</comp>
	</station>
	<station code="G0LD" name="G0LD" netid="HC" source="Seismological Network of Crete (HC)" insttype="" lat="35.4955" lon="24.0306">
		<comp name=".HNE" depth="0.0">
			<acc value="0.01745549332551" flag="0"/>
			<vel value="0.0106575207234" flag="0"/>
			<psa03 value="0.0383510457769113" flag="0"/>
			<psa10 value="0.0215821415859499" flag="0"/>
			<psa30 value="0.00250256119906223" flag="0"/>
		</comp>
		<comp name=".HNN" depth="0.0">
			<acc value="0.01968315115989" flag="0"/>
			<vel value="0.00898818173572" flag="0"/>
			<psa03 value="0.056280061611294" flag="0"/>
			<psa10 value="0.0177572782075226" flag="0"/>
			<psa30 value="0.0014269474449299" flag="0"/>
		</comp>
		<comp name=".HNZ" depth="0.0">
			<acc value="0.010966204342662" flag="0"/>
			<vel value="0.0100476908368" flag="0"/>
			<psa03 value="0.0291033237857159" flag="0"/>
			<psa10 value="0.00822237844223409" flag="0"/>
			<psa30 value="0.00246713322713639" flag="0"/>
		</comp>
	</station>
	<station code="POLY" name="POLY" netid="HC" source="Seismological Network of Crete (HC)" insttype="" lat="35.5226" lon="24.0602">
		<comp name=".HNE" depth="0.0">
			<acc value="0.007055799128163" flag="0"/>
			<vel value="0.00361287104962" flag="0"/>
			<psa03 value="0.0154788235731861" flag="0"/>
			<psa10 value="0.00457750261207922" flag="0"/>
			<psa30 value="0.00107662902972133" flag="0"/>
		</comp>
		<comp name=".HNN" depth="0.0">
			<acc value="0.0059131916343264" flag="0"/>
			<vel value="0.0032620910841" flag="0"/>
			<psa03 value="0.0151263353788153" flag="0"/>
			<psa10 value="0.00260468184426345" flag="0"/>
			<psa30 value="0.00131831483188792" flag="0"/>
		</comp>
		<comp name=".HNZ" depth="0.0">
			<acc value="0.004881029945622" flag="0"/>
			<vel value="0.00311427462654" flag="0"/>
			<psa03 value="0.0126270942955394" flag="0"/>
			<psa10 value="0.00247674211888457" flag="0"/>
			<psa30 value="0.000866757418426862" flag="0"/>
		</comp>
	</station>
	<station code="ARK1" name="ARK1" netid="HI" source="ITSAK Strong Motion Network" insttype="" lat="35.148777" lon="25.264194">
		<comp name=".HNE" depth="0.0">
			<acc value="0.067117090004946" flag="0"/>
			<vel value="0.0561118718092" flag="0"/>
			<psa03 value="0.22783069683211" flag="0"/>
			<psa10 value="0.0676849037927422" flag="0"/>
			<psa30 value="0.00898713452022259" flag="0"/>
		</comp>
		<comp name=".HNN" depth="0.0">
			<acc value="0.047784463238376" flag="0"/>
			<vel value="0.0287762041287" flag="0"/>
			<psa03 value="0.121973955176114" flag="0"/>
			<psa10 value="0.0447490069021403" flag="0"/>
			<psa30 value="0.00443969702480426" flag="0"/>
		</comp>
		<comp name=".HNZ" depth="0.0">
			<acc value="0.02658111648087" flag="0"/>
			<vel value="0.0205807506848" flag="0"/>
			<psa03 value="0.0627775180775077" flag="0"/>
			<psa10 value="0.0440594112198924" flag="0"/>
			<psa30 value="0.00387242694594707" flag="0"/>
		</comp>
	</station>
	<station code="ARS1" name="ARS1" netid="HI" source="ITSAK Strong Motion Network" insttype="" lat="37.6349" lon="22.7293">
		<comp name=".HNE" depth="0.0">
			<acc value="0.014872207919286" flag="0"/>
			<vel value="0.0181482894892" flag="0"/>
			<psa03 value="0.0271543769692186" flag="0"/>
			<psa10 value="0.0259912599183927" flag="0"/>
			<psa30 value="0.00273962377829872" flag="0"/>
		</comp>
		<comp name=".HNN" depth="0.0">
			<acc value="0.01497881387892" flag="0"/>
			<vel value="0.0159382128788" flag="0"/>
			<psa03 value="0.0262839130552596" flag="0"/>
			<psa10 value="0.0233473366464622" flag="0"/>
			<psa30 value="0.00415725664785112" flag="0"/>
		</comp>
		<comp name=".HNZ" depth="0.0">
			<acc value="0.0056908064629908" flag="0"/>
			<vel value="0.00986153340698" flag="0"/>
			<psa03 value="0.0142691848468209" flag="0"/>
			<psa10 value="0.00692738203007401" flag="0"/>
			<psa30 value="0.00435199663175101" flag="0"/>
		</comp>
	</station>
	<station code="ATH5" name="ATH5" netid="HI" source="ITSAK Strong Motion Network" insttype="" lat="37.975421" lon="23.737098">
		<comp name=".HNE" depth="0.0">
			<acc value="0.033681526719948" flag="0"/>
			<vel value="0.018774978105" flag="0"/>
			<psa03 value="0.119224856395041" flag="0"/>
			<psa10 value="0.0170537916050146" flag="0"/>
			<psa30 value="0.0024471033585883" flag="0"/>
		</comp>
		<comp name=".HNN" depth="0.0">
			<acc value="0.031834055175198" flag="0"/>
			<vel value="0.0232457394646" flag="0"/>
			<psa03 value="0.106312313502139" flag="0"/>
			<psa10 value="0.0188857110856619" flag="0"/>
			<psa30 value="0.00548901653705126" flag="0"/>
		</comp>
		<comp name=".HNZ" depth="0.0">
			<acc value="0.016939432479084" flag="0"/>
			<vel value="0.0134124890951" flag="0"/>
			<psa03 value="0.053289488500394" flag="0"/>
			<psa10 value="0.0225456254120264" flag="0"/>
			<psa30 value="0.00371946431292123" flag="0"/>
		</comp>
	</station>
	<station code="CH01" name="CH01" netid="HI" source="ITSAK Strong Motion Network" insttype="" lat="35.517" lon="24.0208">
		<comp name=".HNE" depth="0.0">
			<acc value="0.017561879982186" flag="0"/>
			<vel value="0.0162046500426" flag="0"/>
			<psa03 value="0.0424143670353308" flag="0"/>
			<psa10 value="0.0363860353962645" flag="0"/>
			<psa30 value="0.00431700889731757" flag="0"/>
		</comp>
		<comp name=".HNN" depth="0.0">
			<acc value="0.021948638667468" flag="0"/>
			<vel value="0.0168119748444" flag="0"/>
			<psa03 value="0.0618605458743407" flag="0"/>
			<psa10 value="0.0304182950627758" flag="0"/>
			<psa30 value="0.00311337603755114" flag="0"/>
		</comp>
		<comp name=".HNZ" depth="0.0">
			<acc value="0.012596669159634" flag="0"/>
			<vel value="0.0104906050243" flag="0"/>
			<psa03 value="0.0230616032388515" flag="0"/>
			<psa10 value="0.0240025613019043" flag="0"/>
			<psa30 value="0.0013990573681841" flag="0"/>
		</comp>
	</station>
	<station code="CH03" name="CH03" netid="HI" source="ITSAK Strong Motion Network" insttype="" lat="35.53303" lon="24.0705">
		<comp name=".HNE" depth="0.0">
			<acc value="0.0176246392161" flag="0"/>
			<vel value="0.013246322951" flag="0"/>
			<psa03 value="0.0397495134184993" flag="0"/>
			<psa10 value="0.0235982995215182" flag="0"/>
			<psa30 value="0.00285567459109131" flag="0"/>
		</comp>
		<comp name=".HNN" depth="0.0">
			<acc value="0.021786769607634" flag="0"/>
			<vel value="0.0199941042536" flag="0"/>
			<psa03 value="0.0567593069003417" flag="0"/>
			<psa10 value="0.0441793479148732" flag="0"/>
			<psa30 value="0.00276894092874897" flag="0"/>
		</comp>
		<comp name=".HNZ" depth="0.0">
			<acc value="0.011304157747002" flag="0"/>
			<vel value="0.0110903084355" flag="0"/>
			<psa03 value="0.0279312747890335" flag="0"/>
			<psa10 value="0.0148729574479277" flag="0"/>
			<psa30 value="0.00142773905987447" flag="0"/>
		</comp>
	</station>
	<station code="GOR1" name="GOR1" netid="HI" source="ITSAK Strong Motion Network" insttype="" lat="35.0582" lon="24.9628">
		<comp name=".HNE" depth="0.0">
			<acc value="0.015768820180152" flag="0"/>
			<vel value="0.021373919774" flag="0"/>
			<psa03 value="0.0476843880233533" flag="0"/>
			<psa10 value="0.0336449113102578" flag="0"/>
			<psa30 value="0.00470915237488756" flag="0"/>
		</comp>
		<comp name=".HNN" depth="0.0">
			<acc value="0.016227253362888" flag="0"/>
			<vel value="0.0177564790313" flag="0"/>
			<psa03 value="0.0526316897160391" flag="0"/>
			<psa10 value="0.0356305028459297" flag="0"/>
			<psa30 value="0.00525140204629364" flag="0"/>
		</comp>
		<comp name=".HNZ" depth="0.0">
			<acc value="0.014707858824924" flag="0"/>
			<vel value="0.0155823542965" flag="0"/>
			<psa03 value="0.0309131259678653" flag="0"/>
			<psa10 value="0.044794966196509" flag="0"/>
			<psa30 value="0.00269115827602691" flag="0"/>
		</comp>
	</station>
	<station code="GTH2" name="GTH2" netid="HI" source="ITSAK Strong Motion Network" insttype="" lat="36.7603" lon="22.5659">
		<comp name=".HNE" depth="0.0">
			<acc value="0.00927485886933" flag="0"/>
			<vel value="0.00859354117716" flag="0"/>
			<psa03 value="0.0167795555736348" flag="0"/>
			<psa10 value="0.0123984713378705" flag="0"/>
			<psa30 value="0.00126018608530961" flag="0"/>
		</comp>
		<comp name=".HNN" depth="0.0">
			<acc value="0.0086744777093424" flag="0"/>
			<vel value="0.0102193972967" flag="0"/>
			<psa03 value="0.0202587430839516" flag="0"/>
			<psa10 value="0.0129469929872364" flag="0"/>
			<psa30 value="0.00181408017390902" flag="0"/>
		</comp>
		<comp name=".HNZ" depth="0.0">
			<acc value="0.01944565966185" flag="0"/>
			<vel value="0.00396682129551" flag="0"/>
			<psa03 value="0.00913346312004172" flag="0"/>
			<psa10 value="0.00431514460716373" flag="0"/>
			<psa30 value="0.000793200097694782" flag="0"/>
		</comp>
	</station>
	<station code="HER3" name="HER3" netid="HI" source="ITSAK Strong Motion Network" insttype="" lat="35.3296" lon="25.1065">
		<comp name=".HNE" depth="0.0">
			<acc value="0.14030004977616" flag="0"/>
			<vel value="0.0936853791189" flag="0"/>
			<psa03 value="0.356664168917252" flag="0"/>
			<psa10 value="0.291630569093859" flag="0"/>
			<psa30 value="0.0116270419011437" flag="0"/>
		</comp>
		<comp name=".HNN" depth="0.0">
			<acc value="0.10507516566702" flag="0"/>
			<vel value="0.0733111927114" flag="0"/>
			<psa03 value="0.322304288577271" flag="0"/>
			<psa10 value="0.138875884845786" flag="0"/>
			<psa30 value="0.00714741764799052" flag="0"/>
		</comp>
		<comp name=".HNZ" depth="0.0">
			<acc value="0.054504790009536" flag="0"/>
			<vel value="0.039450877862" flag="0"/>
			<psa03 value="0.151885551255524" flag="0"/>
			<psa10 value="0.0959965192981946" flag="0"/>
			<psa30 value="0.00292241567903152" flag="0"/>
		</comp>
	</station>
	<station code="KIS1" name="KIS1" netid="HI" source="ITSAK Strong Motion Network" insttype="" lat="35.493933" lon="23.658993">
		<comp name=".HNE" depth="0.0">
			<acc value="0.01483638728103" flag="0"/>
			<vel value="0.0141384806746" flag="0"/>
			<psa03 value="0.0341375869684493" flag="0"/>
			<psa10 value="0.0260906321263505" flag="0"/>
			<psa30 value="0.00270976596702812" flag="0"/>
		</comp>
		<comp name=".HNN" depth="0.0">
			<acc value="0.01071269577789" flag="0"/>
			<vel value="0.0136552822534" flag="0"/>
			<psa03 value="0.0239333823441128" flag="0"/>
			<psa10 value="0.0300314119336369" flag="0"/>
			<psa30 value="0.00219450829207193" flag="0"/>
		</comp>
		<comp name=".HNZ" depth="0.0">
			<acc value="0.0099954622883238" flag="0"/>
			<vel value="0.0101208252045" flag="0"/>
			<psa03 value="0.0259502789744565" flag="0"/>
			<psa10 value="0.0153791697320306" flag="0"/>
			<psa30 value="0.00137775960314583" flag="0"/>
		</comp>
	</station>
	<station code="KOR2" name="KOR2" netid="HI" source="ITSAK Strong Motion Network" insttype="" lat="37.9401" lon="22.9495">
		<comp name=".HNE" depth="0.0">
			<acc value="0.018427446609336" flag="0"/>
			<vel value="0.0221661165482" flag="0"/>
			<psa03 value="0.0347061064008858" flag="0"/>
			<psa10 value="0.0445244832786313" flag="0"/>
			<psa30 value="0.00637107663589903" flag="0"/>
		</comp>
		<comp name=".HNN" depth="0.0">
			<acc value="0.01773587060421" flag="0"/>
			<vel value="0.025821739603" flag="0"/>
			<psa03 value="0.0353967432980393" flag="0"/>
			<psa10 value="0.0492388418314464" flag="0"/>
			<psa30 value="0.00549957848672914" flag="0"/>
		</comp>
		<comp name=".HNZ" depth="0.0">
			<acc value="0.011473244006046" flag="0"/>
			<vel value="0.0129383432247" flag="0"/>
			<psa03 value="0.022626780163158" flag="0"/>
			<psa10 value="0.0283869223692851" flag="0"/>
			<psa30 value="0.00207358423978006" flag="0"/>
		</comp>
	</station>
	<station code="KRL1" name="KRL1" netid="HI" source="ITSAK Strong Motion Network" insttype="" lat="37.7951" lon="26.7065">
		<comp name=".HNE" depth="0.0">
			<acc value="0.074298554256792" flag="0"/>
			<vel value="0.0297575730255" flag="0"/>
			<psa03 value="0.139108569426842" flag="0"/>
			<psa10 value="0.0362835523572924" flag="0"/>
			<psa30 value="0.00707749468260871" flag="0"/>
		</comp>
		<comp name=".HNN" depth="0.0">
			<acc value="0.064391709823458" flag="0"/>
			<vel value="0.0333782484521" flag="0"/>
			<psa03 value="0.181636407520562" flag="0"/>
			<psa10 value="0.0811858131617046" flag="0"/>
			<psa30 value="0.0040099431390547" flag="0"/>
		</comp>
		<comp name=".HNZ" depth="0.0">
			<acc value="0.031904481447804" flag="0"/>
			<vel value="0.0195476149472" flag="0"/>
			<psa03 value="0.0556730734843646" flag="0"/>
			<psa10 value="0.0271579884584691" flag="0"/>
			<psa30 value="0.00434558620709089" flag="0"/>
		</comp>
	</station>
	<station code="KTL1" name="KTL1" netid="HI" source="ITSAK Strong Motion Network" insttype="" lat="35.20778" lon="25.34272">
		<comp name=".HNE" depth="0.0">
			<acc value="0.034339827806694" flag="0"/>
			<vel value="0.0347674527206" flag="0"/>
			<psa03 value="0.0825135546595532" flag="0"/>
			<psa10 value="0.0402784444990978" flag="0"/>
			<psa30 value="0.0053710420551654" flag="0"/>
		</comp>
		<comp name=".HNN" depth="0.0">
			<acc value="0.043915242915624" flag="0"/>
			<vel value="0.0325775579118" flag="0"/>
			<psa03 value="0.114610321537943" flag="0"/>
			<psa10 value="0.0636249148383918" flag="0"/>
			<psa30 value="0.00309756332336597" flag="0"/>
		</comp>
		<comp name=".HNZ" depth="0.0">
			<acc value="0.01733077906536" flag="0"/>
			<vel value="0.0101161754174" flag="0"/>
			<psa03 value="0.0307027214046045" flag="0"/>
			<psa10 value="0.0166234168448001" flag="0"/>
			<psa30 value="0.00194698251970409" flag="0"/>
		</comp>
	</station>
	<station code="NAX1" name="NAX1" netid="HI" source="ITSAK Strong Motion Network" insttype="" lat="37.101394" lon="25.374103">
		<comp name=".HNE" depth="0.0">
			<acc value="0.45962302537278" flag="0"/>
			<vel value="0.140075655009" flag="0"/>
			<psa03 value="0.904342658260644" flag="0"/>
			<psa10 value="0.0753998998733344" flag="0"/>
			<psa30 value="0.00851055044885548" flag="0"/>
		</comp>
		<comp name=".HNN" depth="0.0">
			<acc value="0.58867500602496" flag="0"/>
			<vel value="0.131650983599" flag="0"/>
			<psa03 value="0.623151572399816" flag="0"/>
			<psa10 value="0.0546643674961179" flag="0"/>
			<psa30 value="0.0142001340225257" flag="0"/>
		</comp>
		<comp name=".HNZ" depth="0.0">
			<acc value="0.27264259782672" flag="0"/>
			<vel value="0.0968836194909" flag="0"/>
			<psa03 value="0.426221776767691" flag="0"/>
			<psa10 value="0.0601270693732002" flag="0"/>
			<psa30 value="0.0187334559995112" flag="0"/>
		</comp>
	</station>
	<station code="NMA1" name="NMA1" netid="HI" source="ITSAK Strong Motion Network" insttype="" lat="37.81873" lon="22.662702">
		<comp name=".HNE" depth="0.0">
			<acc value="0.0087553557075852" flag="0"/>
			<vel value="0.0136572569234" flag="0"/>
			<psa03 value="0.0153753049968303" flag="0"/>
			<psa10 value="0.0218055645116463" flag="0"/>
			<psa30 value="0.00303254047425671" flag="0"/>
		</comp>
		<comp name=".HNN" depth="0.0">
			<acc value="0.0082384722720918" flag="0"/>
			<vel value="0.0109896915622" flag="0"/>
			<psa03 value="0.0183935778592588" flag="0"/>
			<psa10 value="0.0202725285805306" flag="0"/>
			<psa30 value="0.00234200743816727" flag="0"/>
		</comp>
		<comp name=".HNZ" depth="0.0">
			<acc value="0.007369604622777" flag="0"/>
			<vel value="0.00918618945335" flag="0"/>
			<psa03 value="0.00944964682604625" flag="0"/>
			<psa10 value="0.00907420893429336" flag="0"/>
			<psa30 value="0.00309000657276862" flag="0"/>
		</comp>
	</station>
	<station code="PET1" name="PET1" netid="HI" source="ITSAK Strong Motion Network" insttype="" lat="36.963862" lon="21.92538">
		<comp name=".HNE" depth="0.0">
			<acc value="0.0054959369173374" flag="0"/>
			<vel value="0.00632064822462" flag="0"/>
			<psa03 value="0.013015795826366" flag="0"/>
			<psa10 value="0.00903106888900303" flag="0"/>
			<psa30 value="0.000936413491132381" flag="0"/>
		</comp>
		<comp name=".HNN" depth="0.0">
			<acc value="0.0043876185202614" flag="0"/>
			<vel value="0.00590458456804" flag="0"/>
			<psa03 value="0.0113210754865168" flag="0"/>
