<?xml version="1.0" encoding="UTF-8" standalone="yes"?>
<!DOCTYPE earthquake SYSTEM "stationlist.dtd">
<stationlist created="" xmlns="ch.ethz.sed.shakemap.usgs.xml">
  <station code="JAN2" name="JAN2" netid="HI" insttype="unknown" commtype="DIG" lat="39.664" lon="20.8522">
    <comp name="--.HNN">
      <acc value="0.4660258806" flag="0"/>
      <vel value="0.3214834489" flag="0"/>
      <psa03 value="1.8133982948" flag="0"/>
      <psa10 value="0.1858060245" flag="0"/>
      <psa30 value="0.0267379186" flag="0"/>
    </comp>
    <comp name="--.HNE">
      <acc value="0.3438779940" flag="0"/>
      <vel value="0.1297069339" flag="0"/>
      <psa03 value="1.1723512566" flag="0"/>
      <psa10 value="0.1369133570" flag="0"/>
      <psa30 value="0.0134596797" flag="0"/>
    </comp>
    <comp name="--.HNZ">
      <acc value="0.1957656310" flag="0"/>
      <vel value="0.1063584529" flag="0"/>
      <psa03 value="0.2396696349" flag="0"/>
      <psa10 value="0.0618357608" flag="0"/>
      <psa30 value="0.0094677516" flag="0"/>
    </comp>
  </station>
  <station code="JAN3" name="JAN3" netid="HI" insttype="unknown" commtype="DIG" lat="39.684" lon="20.8379">
    <comp name="--.HNN">
      <acc value="0.3250573929" flag="0"/>
      <vel value="0.1594657951" flag="0"/>
      <psa03 value="0.4562120716" flag="0"/>
      <psa10 value="0.1086697541" flag="0"/>
      <psa30 value="0.0223846432" flag="0"/>
    </comp>
    <comp name="--.HNE">
      <acc value="0.6337261525" flag="0"/>
      <vel value="0.2032571500" flag="0"/>
      <psa03 value="0.7572363384" flag="0"/>
      <psa10 value="0.1014349603" flag="0"/>
      <psa30 value="0.0103867837" flag="0"/>
    </comp>
    <comp name="--.HNZ">
      <acc value="0.2963366604" flag="0"/>
      <vel value="0.1103819404" flag="0"/>
      <psa03 value="0.4193241949" flag="0"/>
      <psa10 value="0.0766181337" flag="0"/>
      <psa30 value="0.0137499930" flag="0"/>
    </comp>
  </station>
  <station code="KNS1" name="KNS1" netid="HI" insttype="unknown" commtype="DIG" lat="40.048" lon="20.7524">
    <comp name="--.HNN">
      <acc value="0.0533282178" flag="0"/>
      <vel value="0.0268188450" flag="0"/>
      <psa03 value="0.1607761041" flag="0"/>
      <psa10 value="0.0222823789" flag="0"/>
      <psa30 value="0.0030746144" flag="0"/>
    </comp>
    <comp name="--.HNZ">
      <acc value="0.0356863000" flag="0"/>
      <vel value="0.0223574140" flag="0"/>
      <psa03 value="0.0936115170" flag="0"/>
      <psa10 value="0.0188576267" flag="0"/>
      <psa30 value="0.0065723757" flag="0"/>
    </comp>
    <comp name="--.HNE">
      <acc value="0.0629060211" flag="0"/>
      <vel value="0.0444962879" flag="0"/>
      <psa03 value="0.1355769108" flag="0"/>
      <psa10 value="0.0422491963" flag="0"/>
      <psa30 value="0.0207274985" flag="0"/>
    </comp>
  </station>
  <station code="KRK1" name="KRK1" netid="HI" insttype="CMG-5TD,ACCELEROMETER,GURALP" commtype="DIG" lat="39.6189" lon="19.9202">
    <comp name="--.HNE">
      <acc value="0.0785805698" flag="0"/>
      <vel value="0.0391273175" flag="0"/>
      <psa03 value="0.2033631364" flag="0"/>
      <psa10 value="0.0146974883" flag="0"/>
      <psa30 value="0.0022616338" flag="0"/>
    </comp>
    <comp name="--.HNZ">
      <acc value="0.0518143833" flag="0"/>
      <vel value="0.0141416815" flag="0"/>
      <psa03 value="0.1235483882" flag="0"/>
      <psa10 value="0.0091386011" flag="0"/>
      <psa30 value="0.0015464954" flag="0"/>
    </comp>
    <comp name="--.HNN">
      <acc value="0.0742672471" flag="0"/>
      <vel value="0.0319386010" flag="0"/>
      <psa03 value="0.1205723679" flag="0"/>
      <psa10 value="0.0221103375" flag="0"/>
      <psa30 value="0.0034463916" flag="0"/>
    </comp>
  </station>
  <station code="LEF2" name="LEF2" netid="HI" insttype="unknown" commtype="DIG" lat="38.8301" lon="20.7083">
    <comp name="--.HNN">
      <acc value="0.0287191867" flag="0"/>
      <vel value="0.0309107735" flag="0"/>
      <psa03 value="0.0931438779" flag="0"/>
      <psa10 value="0.0621809477" flag="0"/>
      <psa30 value="0.0046748335" flag="0"/>
    </comp>
    <comp name="--.HNE">
      <acc value="0.0384315698" flag="0"/>
      <vel value="0.0324972341" flag="0"/>
      <psa03 value="0.0716617481" flag="0"/>
      <psa10 value="0.0491386477" flag="0"/>
      <psa30 value="0.0059779802" flag="0"/>
    </comp>
    <comp name="--.HNZ">
      <acc value="0.0177845145" flag="0"/>
      <vel value="0.0150146048" flag="0"/>
      <psa03 value="0.0405153612" flag="0"/>
      <psa10 value="0.0255848880" flag="0"/>
      <psa30 value="0.0024676811" flag="0"/>
    </comp>
  </station>
  <station code="PRE2" name="PRE2" netid="HI" insttype="unknown" commtype="DIG" lat="38.9577" lon="20.7548">
    <comp name="--.HNE">
      <acc value="0.0482755854" flag="0"/>
      <vel value="0.0440339210" flag="0"/>
      <psa03 value="0.1082675156" flag="0"/>
      <psa10 value="0.0638488243" flag="0"/>
      <psa30 value="0.0054184926" flag="0"/>
    </comp>
    <comp name="--.HNN">
      <acc value="0.0361556653" flag="0"/>
      <vel value="0.0341464109" flag="0"/>
      <psa03 value="0.1063790611" flag="0"/>
      <psa10 value="0.0379091162" flag="0"/>
      <psa30 value="0.0052169438" flag="0"/>
    </comp>
    <comp name="--.HNZ">
      <acc value="0.0202813264" flag="0"/>
      <vel value="0.0151960621" flag="0"/>
      <psa03 value="0.0549178207" flag="0"/>
      <psa10 value="0.0162777099" flag="0"/>
      <psa30 value="0.0022586878" flag="0"/>
    </comp>
  </station>
  <station code="ARTB" name="ARTB" netid="HL" insttype="CMG-5" commtype="DIG" lat="39.157" lon="20.9785">
    <comp name="00.HNE">
      <acc value="0.0584678893" flag="0"/>
      <vel value="0.0273270012" flag="0"/>
      <psa03 value="0.1767091076" flag="0"/>
      <psa10 value="0.0202222093" flag="0"/>
      <psa30 value="0.0026753870" flag="0"/>
    </comp>
    <comp name="00.HNN">
      <acc value="0.0533347109" flag="0"/>
      <vel value="0.0191630068" flag="0"/>
      <psa03 value="0.1536760908" flag="0"/>
      <psa10 value="0.0130350385" flag="0"/>
      <psa30 value="0.0035757884" flag="0"/>
    </comp>
    <comp name="00.HNZ">
      <acc value="0.0401954376" flag="0"/>
      <vel value="0.0191146675" flag="0"/>
      <psa03 value="0.0725708222" flag="0"/>
      <psa10 value="0.0183950636" flag="0"/>
      <psa30 value="0.0021043603" flag="0"/>
    </comp>
  </station>
  <station code="JAN" name="JAN" netid="HL" insttype="CMG3EPSC60_DR24" commtype="DIG" lat="39.6562" lon="20.8487">
    <comp name="--.HHE">
      <acc value="0.1891597965" flag="0"/>
      <vel value="0.0889615103" flag="0"/>
      <psa03 value="0.3606425830" flag="0"/>
      <psa10 value="0.1122357040" flag="0"/>
      <psa30 value="0.0081642854" flag="0"/>
    </comp>
    <comp name="--.HHN">
      <acc value="0.2163581396" flag="0"/>
      <vel value="0.1228966585" flag="0"/>
      <psa03 value="0.3963981547" flag="0"/>
      <psa10 value="0.1173949956" flag="0"/>
      <psa30 value="0.0300914838" flag="0"/>
    </comp>
    <comp name="--.HHZ">
      <acc value="0.0001006043" flag="0"/>
      <vel value="0.0000365797" flag="0"/>
      <psa03 value="0.0002990485" flag="0"/>
      <psa10 value="0.0000170409" flag="0"/>
      <psa30 value="0.0000016845" flag="0"/>
    </comp>
  </station>
  <station code="KEK" name="KEK" netid="HL" insttype="120" commtype="DIG" lat="39.7127" lon="19.7962">
    <comp name="--.HHE">
      <acc value="0.0217213184" flag="0"/>
      <vel value="0.0105710868" flag="0"/>
      <psa03 value="0.0584939373" flag="0"/>
      <psa10 value="0.0113534838" flag="0"/>
      <psa30 value="0.0028496704" flag="0"/>
    </comp>
    <comp name="--.HHN">
      <acc value="0.0134685139" flag="0"/>
      <vel value="0.0112237436" flag="0"/>
      <psa03 value="0.0500827871" flag="0"/>
      <psa10 value="0.0108964854" flag="0"/>
      <psa30 value="0.0029232404" flag="0"/>
    </comp>
    <comp name="--.HHZ">
      <acc value="0.0101250532" flag="0"/>
      <vel value="0.0067981682" flag="0"/>
      <psa03 value="0.0390709051" flag="0"/>
      <psa10 value="0.0078728421" flag="0"/>
      <psa30 value="0.0018752958" flag="0"/>
    </comp>
  </station>
  <station code="OTHN" name="OTHN" netid="HL" insttype="30" commtype="DIG" lat="39.8416" lon="19.4057">
    <comp name="--.HHZ">
      <acc value="0.0248186551" flag="0"/>
      <vel value="0.0121458484" flag="0"/>
      <psa03 value="0.0658012218" flag="0"/>
      <psa10 value="0.0103684824" flag="0"/>
      <psa30 value="0.0010177831" flag="0"/>
    </comp>
    <comp name="--.HHE">
      <acc value="0.0461973170" flag="0"/>
      <vel value="0.0226211311" flag="0"/>
      <psa03 value="0.0930013350" flag="0"/>
      <psa10 value="0.0314838435" flag="0"/>
      <psa30 value="0.0018453531" flag="0"/>
    </comp>
    <comp name="--.HHN">
      <acc value="0.0311457018" flag="0"/>
      <vel value="0.0202264692" flag="0"/>
      <psa03 value="0.0919822815" flag="0"/>
      <psa10 value="0.0223512690" flag="0"/>
      <psa30 value="0.0021629337" flag="0"/>
    </comp>
  </station>
  <station code="PENT" name="PENT" netid="HL" insttype="Horizon,120s,1200" commtype="DIG" lat="40.1961" lon="21.1381">
    <comp name="--.HHN">
      <acc value="0.0098344166" flag="0"/>
      <vel value="0.0073375855" flag="0"/>
      <psa03 value="0.0227130626" flag="0"/>
      <psa10 value="0.0122998131" flag="0"/>
      <psa30 value="0.0016228544" flag="0"/>
    </comp>
    <comp name="--.HHE">
      <acc value="0.0101669979" flag="0"/>
      <vel value="0.0048553020" flag="0"/>
      <psa03 value="0.0342067772" flag="0"/>
      <psa10 value="0.0046501792" flag="0"/>
      <psa30 value="0.0024436617" flag="0"/>
    </comp>
    <comp name="--.HHZ">
      <acc value="0.0057372742" flag="0"/>
      <vel value="0.0052875405" flag="0"/>
      <psa03 value="0.0210843245" flag="0"/>
      <psa10 value="0.0046672887" flag="0"/>
      <psa30 value="0.0019930831" flag="0"/>
    </comp>
  </station>
  <station code="PRGA" name="PRGA" netid="HL" insttype="CMG-5" commtype="DIG" lat="39.2856" lon="20.4016">
    <comp name="00.HNN">
      <acc value="0.0939045132" flag="0"/>
      <vel value="0.0421663162" flag="0"/>
      <psa03 value="0.1601485712" flag="0"/>
      <psa10 value="0.0338845361" flag="0"/>
      <psa30 value="0.0078827652" flag="0"/>
    </comp>
    <comp name="00.HNZ">
      <acc value="0.0490429685" flag="0"/>
      <vel value="0.0127097822" flag="0"/>
      <psa03 value="0.0591966936" flag="0"/>
      <psa10 value="0.0097192491" flag="0"/>
      <psa30 value="0.0019006201" flag="0"/>
    </comp>
    <comp name="00.HNE">
      <acc value="0.1446421926" flag="0"/>
      <vel value="0.0605591240" flag="0"/>
      <psa03 value="0.2526975587" flag="0"/>
      <psa10 value="0.0231756494" flag="0"/>
      <psa30 value="0.0029320731" flag="0"/>
    </comp>
  </station>
  <station code="TETR" name="TETR" netid="HL" insttype="60" commtype="DIG" lat="39.3445" lon="21.2747">
    <comp name="--.HHE">
      <acc value="0.0788321519" flag="0"/>
      <vel value="0.0505095288" flag="0"/>
      <psa03 value="0.2081910632" flag="0"/>
      <psa10 value="0.0537167502" flag="0"/>
      <psa30 value="0.0139715305" flag="0"/>
    </comp>
    <comp name="--.HHZ">
      <acc value="0.0248302730" flag="0"/>
      <vel value="0.0196595876" flag="0"/>
      <psa03 value="0.0635032679" flag="0"/>
      <psa10 value="0.0309058122" flag="0"/>
      <psa30 value="0.0041337602" flag="0"/>
    </comp>
    <comp name="--.HHN">
      <acc value="0.0597537722" flag="0"/>
      <vel value="0.0380773688" flag="0"/>
      <psa03 value="0.1249747700" flag="0"/>
      <psa10 value="0.0470640424" flag="0"/>
      <psa30 value="0.0198210237" flag="0"/>
    </comp>
  </station>
  <station code="AMPL" name="AMPL" netid="HP" insttype="Compact," commtype="DIG" lat="38.9224" lon="21.2135">
    <comp name="--.HHZ">
      <acc value="0.0067951081" flag="0"/>
      <vel value="0.0060504601" flag="0"/>
      <psa03 value="0.0144634475" flag="0"/>
      <psa10 value="0.0087324577" flag="0"/>
      <psa30 value="0.0008402149" flag="0"/>
    </comp>
    <comp name="--.HHE">
      <acc value="0.0107750913" flag="0"/>
      <vel value="0.0093728255" flag="0"/>
      <psa03 value="0.0352276730" flag="0"/>
      <psa10 value="0.0125689615" flag="0"/>
      <psa30 value="0.0047605278" flag="0"/>
    </comp>
    <comp name="--.HHN">
      <acc value="0.0095093763" flag="0"/>
      <vel value="0.0078452220" flag="0"/>
      <psa03 value="0.0245406905" flag="0"/>
      <psa10 value="0.0103193108" flag="0"/>
      <psa30 value="0.0019466790" flag="0"/>
    </comp>
  </station>
  <station code="KSTR" name="KSTR" netid="HP" insttype="Compact," commtype="DIG" lat="39.2492" lon="20.576">
    <comp name="--.HHZ">
      <acc value="0.0422753665" flag="0"/>
      <vel value="0.0170298073" flag="0"/>
      <psa03 value="0.0413298985" flag="0"/>
      <psa10 value="0.0201268110" flag="0"/>
      <psa30 value="0.0026947941" flag="0"/>
    </comp>
    <comp name="--.HHE">
      <acc value="0.0665874770" flag="0"/>
      <vel value="0.0192614176" flag="0"/>
      <psa03 value="0.0628403476" flag="0"/>
      <psa10 value="0.0220471986" flag="0"/>
      <psa30 value="0.0038167691" flag="0"/>
    </comp>
    <comp name="--.HHN">
      <acc value="0.0366165743" flag="0"/>
      <vel value="0.0172775808" flag="0"/>
      <psa03 value="0.0961892920" flag="0"/>
      <psa10 value="0.0204496061" flag="0"/>
      <psa30 value="0.0028575354" flag="0"/>
    </comp>
  </station>
  <station code="PRMD" name="PRMD" netid="HP" insttype="120P," commtype="DIG" lat="39.5299" lon="21.0965">
    <comp name="--.HHE">
      <acc value="0.0557801698" flag="0"/>
      <vel value="0.0532415792" flag="0"/>
      <psa03 value="0.1482621091" flag="0"/>
      <psa10 value="0.1197010061" flag="0"/>
      <psa30 value="0.0060292988" flag="0"/>
    </comp>
    <comp name="--.HHN">
      <acc value="0.0901268996" flag="0"/>
      <vel value="0.0995143901" flag="0"/>
      <psa03 value="0.2139455468" flag="0"/>
      <psa10 value="0.1220096396" flag="0"/>
      <psa30 value="0.0246297037" flag="0"/>
    </comp>
    <comp name="--.HHZ">
      <acc value="0.0360810488" flag="0"/>
      <vel value="0.0283430516" flag="0"/>
      <psa03 value="0.0862079218" flag="0"/>
      <psa10 value="0.0593141688" flag="0"/>
      <psa30 value="0.0059498244" flag="0"/>
    </comp>
  </station>
  <station code="DRAG" name="DRAG" netid="HT" insttype="30" commtype="DIG" lat="38.6839" lon="20.5746">
    <comp name="--.HHZ">
      <acc value="0.0164240662" flag="0"/>
      <vel value="0.0082591760" flag="0"/>
      <psa03 value="0.0297543417" flag="0"/>
      <psa10 value="0.0080558732" flag="0"/>
      <psa30 value="0.0006183639" flag="0"/>
    </comp>
    <comp name="--.HHN">
      <acc value="0.0441309513" flag="0"/>
      <vel value="0.0254628691" flag="0"/>
      <psa03 value="0.0837232860" flag="0"/>
      <psa10 value="0.0198501548" flag="0"/>
      <psa30 value="0.0013071225" flag="0"/>
    </comp>
    <comp name="--.HHE">
      <acc value="0.0523621974" flag="0"/>
      <vel value="0.0263818173" flag="0"/>
      <psa03 value="0.1127854126" flag="0"/>
      <psa10 value="0.0232412590" flag="0"/>
      <psa30 value="0.0016918522" flag="0"/>
    </comp>
  </station>
  <station code="EVGI" name="EVGI" netid="HT" insttype="30" commtype="DIG" lat="38.621" lon="20.656">
    <comp name="--.HHN">
      <acc value="0.0111130222" flag="0"/>
      <vel value="0.0115803881" flag="0"/>
      <psa03 value="0.0238150839" flag="0"/>
      <psa10 value="0.0123570322" flag="0"/>
      <psa30 value="0.0006361562" flag="0"/>
    </comp>
    <comp name="--.HHE">
      <acc value="0.0096988074" flag="0"/>
      <vel value="0.0047601537" flag="0"/>
      <psa03 value="0.0221773756" flag="0"/>
      <psa10 value="0.0072576129" flag="0"/>
      <psa30 value="0.0007831711" flag="0"/>
    </comp>
    <comp name="--.HHZ">
      <acc value="0.0077483965" flag="0"/>
      <vel value="0.0047805571" flag="0"/>
      <psa03 value="0.0154165037" flag="0"/>
      <psa10 value="0.0078442850" flag="0"/>
      <psa30 value="0.0003711592" flag="0"/>
    </comp>
  </station>
  <station code="IGT" name="IGT" netid="HT" insttype="Compact," commtype="DIG" lat="39.5315" lon="20.3299">
    <comp name="--.HHE">
      <acc value="0.3732788123" flag="0"/>
      <vel value="0.1025787402" flag="0"/>
      <psa03 value="0.4453190422" flag="0"/>
      <psa10 value="0.1000980157" flag="0"/>
      <psa30 value="0.0135012653" flag="0"/>
    </comp>
    <comp name="--.HHN">
      <acc value="0.3968668020" flag="0"/>
      <vel value="0.1038031538" flag="0"/>
      <psa03 value="0.3784771615" flag="0"/>
      <psa10 value="0.0857861195" flag="0"/>
      <psa30 value="0.0084560627" flag="0"/>
    </comp>
    <comp name="--.HHZ">
      <acc value="0.4170478124" flag="0"/>
      <vel value="0.0855685550" flag="0"/>
      <psa03 value="0.3754632543" flag="0"/>
      <psa10 value="0.0552900222" flag="0"/>
      <psa30 value="0.0075463267" flag="0"/>
    </comp>
  </station>
  <station code="KPRO" name="KPRO" netid="HT" insttype="100" commtype="DIG" lat="39.9549" lon="21.3632">
    <comp name="--.HHE">
      <acc value="0.0226163986" flag="0"/>
      <vel value="0.0144144175" flag="0"/>
      <psa03 value="0.0948612447" flag="0"/>
      <psa10 value="0.0199736296" flag="0"/>
      <psa30 value="0.0028991173" flag="0"/>
    </comp>
    <comp name="--.HHN">
      <acc value="0.0176429260" flag="0"/>
      <vel value="0.0095762230" flag="0"/>
      <psa03 value="0.0797206937" flag="0"/>
      <psa10 value="0.0153197614" flag="0"/>
      <psa30 value="0.0043734892" flag="0"/>
    </comp>
    <comp name="--.HHZ">
      <acc value="0.0081767387" flag="0"/>
      <vel value="0.0071679984" flag="0"/>
      <psa03 value="0.0188182384" flag="0"/>
      <psa10 value="0.0135243071" flag="0"/>
      <psa30 value="0.0032465240" flag="0"/>
    </comp>
  </station>
  <station code="LKD2" name="LKD2" netid="HT" insttype="100" commtype="DIG" lat="38.7889" lon="20.6578">
    <comp name="--.HHN">
      <acc value="0.0079884302" flag="0"/>
      <vel value="0.0051408398" flag="0"/>
      <psa03 value="0.0237006715" flag="0"/>
      <psa10 value="0.0070037701" flag="0"/>
      <psa30 value="0.0009871750" flag="0"/>
    </comp>
    <comp name="--.HHE">
      <acc value="0.0100898972" flag="0"/>
      <vel value="0.0081194762" flag="0"/>
      <psa03 value="0.0262070087" flag="0"/>
      <psa10 value="0.0114202234" flag="0"/>
      <psa30 value="0.0010549309" flag="0"/>
    </comp>
    <comp name="--.HHZ">
      <acc value="0.0045823435" flag="0"/>
      <vel value="0.0047411929" flag="0"/>
      <psa03 value="0.0137075014" flag="0"/>
      <psa10 value="0.0076784147" flag="0"/>
      <psa30 value="0.0007413882" flag="0"/>
    </comp>
  </station>
  <station code="NYDR" name="NYDR" netid="HT" insttype="1s-100Hz," commtype="DIG" lat="38.7135" lon="20.6983">
    <comp name="--.HHE">
      <acc value="0.0099584030" flag="0"/>
      <vel value="0.0086738253" flag="0"/>
      <psa03 value="0.0319163917" flag="0"/>
      <psa10 value="0.0114794270" flag="0"/>
      <psa30 value="0.0010584378" flag="0"/>
    </comp>
    <comp name="--.HHN">
      <acc value="0.0130306070" flag="0"/>
      <vel value="0.0076202145" flag="0"/>
      <psa03 value="0.0286692338" flag="0"/>
      <psa10 value="0.0108837829" flag="0"/>
      <psa30 value="0.0009488962" flag="0"/>
    </comp>
    <comp name="--.HHZ">
      <acc value="0.0047494023" flag="0"/>
      <vel value="0.0040229565" flag="0"/>
      <psa03 value="0.0091516988" flag="0"/>
      <psa10 value="0.0045110083" flag="0"/>
      <psa30 value="0.0005393085" flag="0"/>
    </comp>
  </station>
  <station code="TSLK" name="TSLK" netid="HT" insttype="1s-100Hz," commtype="DIG" lat="38.8249" lon="20.6554">
