<?xml version="1.0" encoding="UTF-8" standalone="yes"?>
<!DOCTYPE earthquake SYSTEM "stationlist.dtd">
<stationlist created="" xmlns="ch.ethz.sed.shakemap.usgs.xml">
  <station code="NPS1" name="NPS1" netid="HI" insttype="unknown" commtype="DIG" lat="36.5126" lon="23.0625">
    <comp name="--.HNE">
      <acc value="0.0079331872" flag="0"/>
      <vel value="0.0003873568" flag="0"/>
      <psa03 value="0.0008382016" flag="0"/>
      <psa10 value="0.0001305213" flag="0"/>
      <psa30 value="0.0000804697" flag="0"/>
    </comp>
    <comp name="--.HNN">
      <acc value="0.0044939447" flag="0"/>
      <vel value="0.0002446544" flag="0"/>
      <psa03 value="0.0005184797" flag="0"/>
      <psa10 value="0.0001500022" flag="0"/>
      <psa30 value="0.0001379146" flag="0"/>
    </comp>
    <comp name="--.HNZ">
      <acc value="0.0450203069" flag="0"/>
      <vel value="0.0012735881" flag="0"/>
      <psa03 value="0.0004768588" flag="0"/>
      <psa10 value="0.0001342714" flag="0"/>
      <psa30 value="0.0000656565" flag="0"/>
    </comp>
  </station>
</stationlist>
