<?xml version="1.0" encoding="UTF-8" standalone="yes"?>
<!DOCTYPE earthquake SYSTEM "stationlist.dtd">
<stationlist created="" xmlns="ch.ethz.sed.shakemap.usgs.xml">
  <station code="BNN" name="BNN" netid="KO" insttype="CMG-3T" lat="38.8521" lon="35.8472">
    <comp name="--.HHN">
      <acc value="0.0291127810" flag="0"/>
      <vel value="0.0155871546" flag="0"/>
      <psa03 value="0.0687520702" flag="0"/>
      <psa10 value="0.0328303287" flag="0"/>
      <psa30 value="0.0032964683" flag="0"/>
    </comp>
    <comp name="--.HHZ">
      <acc value="0.0201572636" flag="0"/>
      <vel value="0.0112664098" flag="0"/>
      <psa03 value="0.0442608044" flag="0"/>
      <psa10 value="0.0149265373" flag="0"/>
      <psa30 value="0.0019931936" flag="0"/>
    </comp>
    <comp name="--.HHE">
      <acc value="0.0298466220" flag="0"/>
      <vel value="0.0181298396" flag="0"/>
      <psa03 value="0.0603799687" flag="0"/>
      <psa10 value="0.0160796657" flag="0"/>
      <psa30 value="0.0022686906" flag="0"/>
    </comp>
  </station>
  <station code="DARE" name="DARE" netid="KO" insttype="CMG-3ESP" lat="38.5712" lon="37.4832">
    <comp name="--.HHE">
      <acc value="0.0831916277" flag="0"/>
      <vel value="0.0240232159" flag="0"/>
      <psa03 value="0.1148300759" flag="0"/>
      <psa10 value="0.0225428299" flag="0"/>
      <psa30 value="0.0014629081" flag="0"/>
    </comp>
    <comp name="--.HHN">
      <acc value="0.0875118152" flag="0"/>
      <vel value="0.0280822453" flag="0"/>
      <psa03 value="0.1713920588" flag="0"/>
      <psa10 value="0.0275885218" flag="0"/>
      <psa30 value="0.0018954173" flag="0"/>
    </comp>
    <comp name="--.HHZ">
      <acc value="0.0488368177" flag="0"/>
      <vel value="0.0175685116" flag="0"/>
      <psa03 value="0.1121724345" flag="0"/>
      <psa10 value="0.0139641827" flag="0"/>
      <psa30 value="0.0014974242" flag="0"/>
    </comp>
  </station>
  <station code="SARI" name="SARI" netid="KO" insttype="CMG-3T" lat="38.4072" lon="36.4181">
    <comp name="--.HHE">
      <acc value="1.1501264977" flag="0"/>
      <vel value="0.2566436816" flag="0"/>
      <psa03 value="1.2153619945" flag="0"/>
      <psa10 value="0.1263840329" flag="0"/>
      <psa30 value="0.0115326717" flag="0"/>
    </comp>
    <comp name="--.HHZ">
      <acc value="0.6993709969" flag="0"/>
      <vel value="0.1754329299" flag="0"/>
      <psa03 value="0.7282030504" flag="0"/>
      <psa10 value="0.0922441906" flag="0"/>
      <psa30 value="0.0122924672" flag="0"/>
    </comp>
    <comp name="--.HHN">
      <acc value="1.1680261072" flag="0"/>
      <vel value="0.2660179798" flag="0"/>
      <psa03 value="1.3881813584" flag="0"/>
      <psa10 value="0.0919978292" flag="0"/>
      <psa30 value="0.0140089136" flag="0"/>
    </comp>
  </station>
  <station code="ANDN" name="ANDN" netid="TU" insttype="T" lat="37.58" lon="36.3452">
    <comp name="--.HHZ">
      <acc value="0.1557912799" flag="0"/>
      <vel value="0.1163428422" flag="0"/>
      <psa03 value="0.3031076731" flag="0"/>
      <psa10 value="0.1559138604" flag="0"/>
      <psa30 value="0.0090867215" flag="0"/>
    </comp>
    <comp name="--.HHN">
      <acc value="0.2602827234" flag="0"/>
      <vel value="0.1351898350" flag="0"/>
      <psa03 value="0.4679878459" flag="0"/>
      <psa10 value="0.1337819422" flag="0"/>
      <psa30 value="0.0058859336" flag="0"/>
    </comp>
    <comp name="--.HHE">
      <acc value="0.1753543665" flag="0"/>
      <vel value="0.1095217694" flag="0"/>
      <psa03 value="0.4149695505" flag="0"/>
      <psa10 value="0.1257923365" flag="0"/>
      <psa30 value="0.0092960506" flag="0"/>
    </comp>
  </station>
</stationlist>
