<?xml version="1.0" encoding="UTF-8" standalone="yes"?>
<!DOCTYPE earthquake SYSTEM "stationlist.dtd">
<stationlist created="" xmlns="ch.ethz.sed.shakemap.usgs.xml">
  <station code="ARPRA" name="ARPRA" netid="KO" insttype="CMG-5T" lat="39.0929" lon="38.3356">
    <comp name="--.HNE">
      <acc value="0.0041469439" flag="0"/>
      <vel value="0.0018751500" flag="0"/>
      <psa03 value="0.0123156567" flag="0"/>
      <psa10 value="0.0029603565" flag="0"/>
      <psa30 value="0.0001848749" flag="0"/>
    </comp>
    <comp name="--.HNZ">
      <acc value="0.0017355441" flag="0"/>
      <vel value="0.0010833346" flag="0"/>
      <psa03 value="0.0047504511" flag="0"/>
      <psa10 value="0.0010489139" flag="0"/>
      <psa30 value="0.0002298016" flag="0"/>
    </comp>
    <comp name="--.HNN">
      <acc value="0.0039593311" flag="0"/>
      <vel value="0.0018443075" flag="0"/>
      <psa03 value="0.0076814560" flag="0"/>
      <psa10 value="0.0027073140" flag="0"/>
      <psa30 value="0.0003016259" flag="0"/>
    </comp>
  </station>
  <station code="DARE" name="DARE" netid="KO" insttype="CMG-3ESP" lat="38.5712" lon="37.4832">
    <comp name="--.HHE">
      <acc value="0.0175023860" flag="0"/>
      <vel value="0.0062835925" flag="0"/>
      <psa03 value="0.0259876169" flag="0"/>
      <psa10 value="0.0073953303" flag="0"/>
      <psa30 value="0.0003756323" flag="0"/>
    </comp>
    <comp name="--.HHN">
      <acc value="0.0157240333" flag="0"/>
      <vel value="0.0052014547" flag="0"/>
      <psa03 value="0.0147388048" flag="0"/>
      <psa10 value="0.0036447895" flag="0"/>
      <psa30 value="0.0004247703" flag="0"/>
    </comp>
    <comp name="--.HHZ">
      <acc value="0.0139969446" flag="0"/>
      <vel value="0.0081746836" flag="0"/>
      <psa03 value="0.0194499074" flag="0"/>
      <psa10 value="0.0067163066" flag="0"/>
      <psa30 value="0.0006886631" flag="0"/>
    </comp>
  </station>
  <station code="GAZ" name="GAZ" netid="KO" insttype="CMG-3T" lat="37.1721" lon="37.2096">
    <comp name="--.HHE">
      <acc value="0.0030581433" flag="0"/>
      <vel value="0.0016389244" flag="0"/>
      <psa03 value="0.0065318465" flag="0"/>
      <psa10 value="0.0026691774" flag="0"/>
      <psa30 value="0.0001807410" flag="0"/>
    </comp>
    <comp name="--.HHN">
      <acc value="0.0040849853" flag="0"/>
      <vel value="0.0023769100" flag="0"/>
      <psa03 value="0.0088076050" flag="0"/>
      <psa10 value="0.0030812151" flag="0"/>
      <psa30 value="0.0001997747" flag="0"/>
    </comp>
    <comp name="--.HHZ">
      <acc value="0.0023241716" flag="0"/>
      <vel value="0.0021930649" flag="0"/>
      <psa03 value="0.0060788219" flag="0"/>
      <psa10 value="0.0017800119" flag="0"/>
      <psa30 value="0.0001180911" flag="0"/>
    </comp>
  </station>
  <station code="KMRS" name="KMRS" netid="KO" insttype="CMG-3T" lat="37.5053" lon="36.9">
    <comp name="--.HHE">
      <acc value="0.0029633542" flag="0"/>
      <vel value="0.0016864341" flag="0"/>
      <psa03 value="0.0071605042" flag="0"/>
      <psa10 value="0.0016447816" flag="0"/>
      <psa30 value="0.0001202340" flag="0"/>
    </comp>
    <comp name="--.HHN">
      <acc value="0.0050588424" flag="0"/>
      <vel value="0.0025323317" flag="0"/>
      <psa03 value="0.0112964438" flag="0"/>
      <psa10 value="0.0023333025" flag="0"/>
      <psa30 value="0.0001249267" flag="0"/>
    </comp>
    <comp name="--.HHZ">
      <acc value="0.0022424011" flag="0"/>
      <vel value="0.0011588977" flag="0"/>
      <psa03 value="0.0055163708" flag="0"/>
      <psa10 value="0.0015398664" flag="0"/>
      <psa30 value="0.0000848006" flag="0"/>
    </comp>
  </station>
  <station code="SARI" name="SARI" netid="KO" insttype="CMG-3T" lat="38.4072" lon="36.4181">
    <comp name="--.HHZ">
      <acc value="0.0142638487" flag="0"/>
      <vel value="0.0033726792" flag="0"/>
      <psa03 value="0.0192118997" flag="0"/>
      <psa10 value="0.0030026922" flag="0"/>
      <psa30 value="0.0001083931" flag="0"/>
    </comp>
    <comp name="--.HHN">
      <acc value="0.0175515961" flag="0"/>
      <vel value="0.0051375989" flag="0"/>
      <psa03 value="0.0277766191" flag="0"/>
      <psa10 value="0.0018939365" flag="0"/>
      <psa30 value="0.0001929229" flag="0"/>
    </comp>
    <comp name="--.HHE">
      <acc value="0.0196895089" flag="0"/>
      <vel value="0.0045287503" flag="0"/>
      <psa03 value="0.0221272559" flag="0"/>
      <psa10 value="0.0022275584" flag="0"/>
      <psa30 value="0.0001310180" flag="0"/>
    </comp>
  </station>
  <station code="ANDN" name="ANDN" netid="TU" insttype="T" lat="37.58" lon="36.3452">
    <comp name="--.HHE">
      <acc value="0.0062122292" flag="0"/>
      <vel value="0.0034317983" flag="0"/>
      <psa03 value="0.0123740294" flag="0"/>
      <psa10 value="0.0025275007" flag="0"/>
      <psa30 value="0.0002240962" flag="0"/>
    </comp>
    <comp name="--.HHN">
      <acc value="0.0062128773" flag="0"/>
      <vel value="0.0028277334" flag="0"/>
      <psa03 value="0.0134734442" flag="0"/>
      <psa10 value="0.0021897773" flag="0"/>
      <psa30 value="0.0003127348" flag="0"/>
    </comp>
    <comp name="--.HHZ">
      <acc value="0.0025031210" flag="0"/>
      <vel value="0.0020715150" flag="0"/>
      <psa03 value="0.0060655140" flag="0"/>
      <psa10 value="0.0018591702" flag="0"/>
      <psa30 value="0.0002354073" flag="0"/>
    </comp>
  </station>
</stationlist>
