<?xml version="1.0" encoding="UTF-8" standalone="yes"?>
<!DOCTYPE earthquake SYSTEM "stationlist.dtd">
<stationlist created="" xmlns="ch.ethz.sed.shakemap.usgs.xml">
  <station code="ASB" name="ASB" netid="VI" source="ODC" insttype="STS-2.5" lat="64.7482" lon="-21.3254">
    <comp name="--.HHZ">
      <acc value="0.0428227077" flag="0"/>
      <vel value="0.0167424940" flag="0"/>
      <psa03 value="0.0533952681" flag="0"/>
      <psa10 value="0.0211903446" flag="0"/>
      <psa30 value="0.0062654636" flag="0"/>
    </comp>
    <comp name="--.HHN">
      <acc value="0.0548101492" flag="0"/>
      <vel value="0.0208882996" flag="0"/>
      <psa03 value="0.1312989468" flag="0"/>
      <psa10 value="0.0351819142" flag="0"/>
      <psa30 value="0.0034863354" flag="0"/>
    </comp>
    <comp name="--.HHE">
      <acc value="0.0520548922" flag="0"/>
      <vel value="0.0259422871" flag="0"/>
      <psa03 value="0.1093377771" flag="0"/>
      <psa10 value="0.0306654759" flag="0"/>
      <psa30 value="0.0061492258" flag="0"/>
    </comp>
  </station>
</stationlist>
