<stationlist created="1778136276">
	<station code="S2114" name="S2114" netid="S2" source="IceSMN Icelandic Strong Motion Network (IceSMN)" insttype="" lat="63.7515" lon="-20.2168">
		<comp name="00.HN1" depth="0.0">
			<acc value="0.259857963945276" flag="0"/>
			<vel value="0.162970392673087" flag="0"/>
			<psa03 value="0.608941506051443" flag="0"/>
			<psa10 value="0.0998960501228908" flag="0"/>
			<psa30 value="0.0104314018625179" flag="0"/>
		</comp>
		<comp name="00.HN2" depth="0.0">
			<acc value="0.251814941216623" flag="0"/>
			<vel value="0.113377940995845" flag="0"/>
			<psa03 value="0.346066904400476" flag="0"/>
			<psa10 value="0.0819854036305131" flag="0"/>
			<psa30 value="0.00623860119339419" flag="0"/>
		</comp>
		<comp name="00.HNZ" depth="0.0">
			<acc value="0.0990671247781085" flag="0"/>
			<vel value="0.0387196813260057" flag="0"/>
			<psa03 value="0.237405664460261" flag="0"/>
			<psa10 value="0.0406735144208518" flag="0"/>
			<psa30 value="0.00830897292869448" flag="0"/>
		</comp>
	</station>
	<station code="S2119" name="S2119" netid="S2" source="IceSMN Icelandic Strong Motion Network (IceSMN)" insttype="" lat="64.1301" lon="-20.32">
		<comp name="00.HN1" depth="0.0">
			<acc value="0.0423858272106476" flag="0"/>
			<vel value="0.0372091126843736" flag="0"/>
			<psa03 value="0.170921978992208" flag="0"/>
			<psa10 value="0.0406248249453576" flag="0"/>
			<psa30 value="0.0059377433463362" flag="0"/>
		</comp>
		<comp name="00.HN2" depth="0.0">
			<acc value="0.0659493595484654" flag="0"/>
			<vel value="0.0496692514128694" flag="0"/>
			<psa03 value="0.14327885610417" flag="0"/>
			<psa10 value="0.0442299612678923" flag="0"/>
			<psa30 value="0.00816482254606877" flag="0"/>
		</comp>
		<comp name="00.HNZ" depth="0.0">
			<acc value="0.0270443568970678" flag="0"/>
			<vel value="0.0164997433972418" flag="0"/>
			<psa03 value="0.0397368719560677" flag="0"/>
			<psa10 value="0.0153015845923703" flag="0"/>
			<psa30 value="0.00401364546764669" flag="0"/>
		</comp>
	</station>
	<station code="S2405" name="S2405" netid="S2" source="IceSMN Icelandic Strong Motion Network (IceSMN)" insttype="" lat="64.0447" lon="-21.9848">
		<comp name="00.HN1" depth="0.0">
			<acc value="0.927322568389564" flag="0"/>
			<vel value="0.368512615661408" flag="0"/>
			<psa03 value="1.13980425643728" flag="0"/>
			<psa10 value="0.212081154335526" flag="0"/>
			<psa30 value="0.0131228143220586" flag="0"/>
		</comp>
		<comp name="00.HN2" depth="0.0">
			<acc value="0.697625662586772" flag="0"/>
			<vel value="0.213162906191795" flag="0"/>
			<psa03 value="0.552345298500325" flag="0"/>
			<psa10 value="0.202354840015082" flag="0"/>
			<psa30 value="0.0315397660213687" flag="0"/>
		</comp>
		<comp name="00.HNZ" depth="0.0">
			<acc value="0.650151842144691" flag="0"/>
			<vel value="0.129727523889107" flag="0"/>
			<psa03 value="0.267837597093201" flag="0"/>
			<psa10 value="0.0750824038406474" flag="0"/>
			<psa30 value="0.0266075176174804" flag="0"/>
		</comp>
	</station>
	<station code="S2602" name="S2602" netid="S2" source="IceSMN Icelandic Strong Motion Network (IceSMN)" insttype="" lat="63.8464" lon="-22.4268">
		<comp name="00.HN1" depth="0.0">
			<acc value="3.22630241688008" flag="0"/>
			<vel value="2.32138153316705" flag="0"/>
			<psa03 value="7.28126234787748" flag="0"/>
			<psa10 value="1.51263300451147" flag="0"/>
			<psa30 value="0.160409853032056" flag="0"/>
		</comp>
		<comp name="00.HN2" depth="0.0">
			<acc value="2.02628695031653" flag="0"/>
			<vel value="1.27725684354012" flag="0"/>
			<psa03 value="3.79283925698745" flag="0"/>
			<psa10 value="1.24989203921477" flag="0"/>
			<psa30 value="0.0986887043091129" flag="0"/>
		</comp>
		<comp name="00.HNZ" depth="0.0">
			<acc value="2.40327261405923" flag="0"/>
			<vel value="0.559109849565299" flag="0"/>
			<psa03 value="2.81209762099919" flag="0"/>
			<psa10 value="0.503315112155034" flag="0"/>
			<psa30 value="0.0412536095158217" flag="0"/>
		</comp>
	</station>
	<station code="S2604" name="S2604" netid="S2" source="IceSMN Icelandic Strong Motion Network (IceSMN)" insttype="" lat="63.9843" lon="-21.6486">
		<comp name="00.HN1" depth="0.0">
			<acc value="0.249776396696458" flag="0"/>
			<vel value="0.169746859074303" flag="0"/>
			<psa03 value="0.51075983533091" flag="0"/>
			<psa10 value="0.252268441545986" flag="0"/>
			<psa30 value="0.0299145516922197" flag="0"/>
		</comp>
		<comp name="00.HN2" depth="0.0">
			<acc value="0.205743470962373" flag="0"/>
			<vel value="0.154825198871459" flag="0"/>
			<psa03 value="0.463908981695306" flag="0"/>
			<psa10 value="0.190301481539138" flag="0"/>
			<psa30 value="0.014886746173856" flag="0"/>
		</comp>
		<comp name="00.HNZ" depth="0.0">
			<acc value="0.300636383686732" flag="0"/>
			<vel value="0.0958141601932738" flag="0"/>
			<psa03 value="0.443939617154037" flag="0"/>
			<psa10 value="0.0981555673245837" flag="0"/>
			<psa30 value="0.0150488952487674" flag="0"/>
		</comp>
	</station>
</stationlist>
