<?xml version="1.0" encoding="UTF-8" standalone="yes"?>
<!DOCTYPE earthquake SYSTEM "stationlist.dtd">
<stationlist created="" xmlns="ch.ethz.sed.shakemap.usgs.xml">
  <station code="ACOR" name="ACOR" netid="HA" insttype="Horizon,120s,1200" commtype="DIG" lat="37.8905" lon="22.8694">
    <comp name="--.HHE">
      <acc value="0.1273359932" flag="0"/>
      <vel value="0.1537017561" flag="0"/>
      <psa03 value="0.2209104515" flag="0"/>
      <psa10 value="0.3077226158" flag="0"/>
      <psa30 value="0.0302193110" flag="0"/>
    </comp>
    <comp name="--.HHN">
      <acc value="0.0783315605" flag="0"/>
      <vel value="0.1136655478" flag="0"/>
      <psa03 value="0.1750464840" flag="0"/>
      <psa10 value="0.1850357131" flag="0"/>
      <psa30 value="0.0357009029" flag="0"/>
    </comp>
    <comp name="--.HHZ">
      <acc value="0.0981084085" flag="0"/>
      <vel value="0.0797198096" flag="0"/>
      <psa03 value="0.2497709917" flag="0"/>
      <psa10 value="0.1060055768" flag="0"/>
      <psa30 value="0.0325763065" flag="0"/>
    </comp>
  </station>
  <station code="ALIO" name="ALIO" netid="HA" insttype="25" commtype="DIG" lat="38.0657" lon="23.6727">
    <comp name="--.HHE">
      <acc value="0.1696774077" flag="0"/>
      <vel value="0.0682984005" flag="0"/>
      <psa03 value="0.3958080203" flag="0"/>
      <psa10 value="0.0408392328" flag="0"/>
      <psa30 value="0.0079596750" flag="0"/>
    </comp>
    <comp name="--.HHN">
      <acc value="0.2070792288" flag="0"/>
      <vel value="0.0542696122" flag="0"/>
      <psa03 value="0.2231828268" flag="0"/>
      <psa10 value="0.0457192391" flag="0"/>
      <psa30 value="0.0066828122" flag="0"/>
    </comp>
    <comp name="--.HHZ">
      <acc value="0.1615804163" flag="0"/>
      <vel value="0.0759309856" flag="0"/>
      <psa03 value="0.2901135300" flag="0"/>
      <psa10 value="0.0283755193" flag="0"/>
      <psa30 value="0.0167123248" flag="0"/>
    </comp>
  </station>
  <station code="AMPE" name="AMPE" netid="HA" insttype="1s-100Hz," commtype="DIG" lat="38.3015" lon="23.2688">
    <comp name="--.HHE">
      <acc value="1.0963873640" flag="0"/>
      <vel value="0.7951401055" flag="0"/>
      <psa03 value="2.1129955671" flag="0"/>
      <psa10 value="0.9516843452" flag="0"/>
      <psa30 value="0.1042479189" flag="0"/>
    </comp>
    <comp name="--.HHN">
      <acc value="0.8611083944" flag="0"/>
      <vel value="0.5799627750" flag="0"/>
      <psa03 value="1.6398553044" flag="0"/>
      <psa10 value="0.5953087948" flag="0"/>
      <psa30 value="0.1136877112" flag="0"/>
    </comp>
    <comp name="--.HHZ">
      <acc value="0.3861219009" flag="0"/>
      <vel value="0.3333037219" flag="0"/>
      <psa03 value="1.1634913478" flag="0"/>
      <psa10 value="0.4824559290" flag="0"/>
      <psa30 value="0.0647171911" flag="0"/>
    </comp>
  </station>
  <station code="ANTK" name="ANTK" netid="HA" insttype="25" commtype="DIG" lat="38.3605" lon="22.6385">
    <comp name="--.HHN">
      <acc value="0.0821304228" flag="0"/>
      <vel value="0.0990052105" flag="0"/>
      <psa03 value="0.2698295167" flag="0"/>
      <psa10 value="0.1423940481" flag="0"/>
      <psa30 value="0.0203190907" flag="0"/>
    </comp>
    <comp name="--.HHE">
      <acc value="0.1090107836" flag="0"/>
      <vel value="0.1266603063" flag="0"/>
      <psa03 value="0.2967769720" flag="0"/>
      <psa10 value="0.1850767520" flag="0"/>
      <psa30 value="0.0128685936" flag="0"/>
    </comp>
    <comp name="--.HHZ">
      <acc value="0.1056561690" flag="0"/>
      <vel value="0.1524441882" flag="0"/>
      <psa03 value="0.2049459453" flag="0"/>
      <psa10 value="0.1834934823" flag="0"/>
      <psa30 value="0.0169117145" flag="0"/>
    </comp>
  </station>
  <station code="ATAL" name="ATAL" netid="HA" insttype="120s," commtype="DIG" lat="38.6926" lon="23.0213">
    <comp name="--.HHE">
      <acc value="1.3888260657" flag="0"/>
      <vel value="0.7011796371" flag="0"/>
      <psa03 value="2.7456883110" flag="0"/>
      <psa10 value="0.3548078351" flag="0"/>
      <psa30 value="0.0594570881" flag="0"/>
    </comp>
    <comp name="--.HHZ">
      <acc value="1.4492369630" flag="0"/>
      <vel value="0.8237661683" flag="0"/>
      <psa03 value="3.6196203503" flag="0"/>
      <psa10 value="0.3703755026" flag="0"/>
      <psa30 value="0.0781576941" flag="0"/>
    </comp>
    <comp name="--.HHN">
      <acc value="1.2850192995" flag="0"/>
      <vel value="0.5189706298" flag="0"/>
      <psa03 value="2.2258430200" flag="0"/>
      <psa10 value="0.3646721227" flag="0"/>
      <psa30 value="0.0667799155" flag="0"/>
    </comp>
  </station>
  <station code="ATHU" name="ATHU" netid="HA" insttype="60s," commtype="DIG" lat="37.9665" lon="23.7845">
    <comp name="--.HHN">
      <acc value="0.1674017323" flag="0"/>
      <vel value="0.1270574656" flag="0"/>
      <psa03 value="0.4405328038" flag="0"/>
      <psa10 value="0.0729943143" flag="0"/>
      <psa30 value="0.0181658361" flag="0"/>
    </comp>
    <comp name="--.HHE">
      <acc value="0.1356777504" flag="0"/>
      <vel value="0.1231402938" flag="0"/>
      <psa03 value="0.3052024834" flag="0"/>
      <psa10 value="0.1003240958" flag="0"/>
      <psa30 value="0.0201044713" flag="0"/>
    </comp>
    <comp name="--.HHZ">
      <acc value="0.1096220223" flag="0"/>
      <vel value="0.0640586337" flag="0"/>
      <psa03 value="0.1673361683" flag="0"/>
      <psa10 value="0.0570440241" flag="0"/>
      <psa30 value="0.0151950296" flag="0"/>
    </comp>
  </station>
  <station code="AXAR" name="AXAR" netid="HA" insttype="Horizon,120s,1200" commtype="DIG" lat="38.7664" lon="22.659">
    <comp name="--.HHE">
      <acc value="0.4899340659" flag="0"/>
      <vel value="0.2396919216" flag="0"/>
      <psa03 value="1.7217251037" flag="0"/>
      <psa10 value="0.2288073692" flag="0"/>
      <psa30 value="0.0293318988" flag="0"/>
    </comp>
    <comp name="--.HHZ">
      <acc value="0.1982822865" flag="0"/>
      <vel value="0.0965636973" flag="0"/>
      <psa03 value="0.4267506193" flag="0"/>
      <psa10 value="0.1072419744" flag="0"/>
      <psa30 value="0.0119020824" flag="0"/>
    </comp>
    <comp name="--.HHN">
      <acc value="0.3696646974" flag="0"/>
      <vel value="0.1990707960" flag="0"/>
      <psa03 value="1.2751422390" flag="0"/>
      <psa10 value="0.1264367058" flag="0"/>
      <psa30 value="0.0283175206" flag="0"/>
    </comp>
  </station>
  <station code="DOMV" name="DOMV" netid="HA" insttype="60" commtype="DIG" lat="38.2569" lon="22.9795">
    <comp name="--.HHE">
      <acc value="1.7641411373" flag="0"/>
      <vel value="1.0785361658" flag="0"/>
      <psa03 value="3.6580060943" flag="0"/>
      <psa10 value="0.7937207292" flag="0"/>
      <psa30 value="0.0487115093" flag="0"/>
    </comp>
    <comp name="--.HHZ">
      <acc value="1.1934271583" flag="0"/>
      <vel value="0.4128060308" flag="0"/>
      <psa03 value="2.3121137607" flag="0"/>
      <psa10 value="0.2509961491" flag="0"/>
      <psa30 value="0.0371053049" flag="0"/>
    </comp>
    <comp name="--.HHN">
      <acc value="2.7458921183" flag="0"/>
      <vel value="0.7645313380" flag="0"/>
      <psa03 value="3.4185761352" flag="0"/>
      <psa10 value="0.4963292670" flag="0"/>
      <psa30 value="0.0322076987" flag="0"/>
    </comp>
  </station>
  <station code="EPID" name="EPID" netid="HA" insttype="30" commtype="DIG" lat="37.6144" lon="23.1189">
    <comp name="--.HHE">
      <acc value="0.1368302215" flag="0"/>
      <vel value="0.1145498700" flag="0"/>
      <psa03 value="0.4137301240" flag="0"/>
      <psa10 value="0.1022356507" flag="0"/>
      <psa30 value="0.0199124516" flag="0"/>
    </comp>
    <comp name="--.HHN">
      <acc value="0.1314323583" flag="0"/>
      <vel value="0.1019273130" flag="0"/>
      <psa03 value="0.2957237018" flag="0"/>
      <psa10 value="0.0773096466" flag="0"/>
      <psa30 value="0.0150193301" flag="0"/>
    </comp>
    <comp name="--.HHZ">
      <acc value="0.0800745890" flag="0"/>
      <vel value="0.1129567178" flag="0"/>
      <psa03 value="0.1742610049" flag="0"/>
      <psa10 value="0.1193150015" flag="0"/>
      <psa30 value="0.0526365497" flag="0"/>
    </comp>
  </station>
  <station code="ERTR" name="ERTR" netid="HA" insttype="Horizon,120s,1200" commtype="DIG" lat="38.4066" lon="23.7865">
    <comp name="--.HHZ">
      <acc value="0.2431445500" flag="0"/>
      <vel value="0.1552765770" flag="0"/>
      <psa03 value="0.4424378592" flag="0"/>
      <psa10 value="0.0853498827" flag="0"/>
      <psa30 value="0.0382325518" flag="0"/>
    </comp>
    <comp name="--.HHE">
      <acc value="0.4119270672" flag="0"/>
      <vel value="0.1293508895" flag="0"/>
      <psa03 value="0.5694297427" flag="0"/>
      <psa10 value="0.0615719539" flag="0"/>
      <psa30 value="0.0305992749" flag="0"/>
    </comp>
    <comp name="--.HHN">
      <acc value="0.3330106222" flag="0"/>
      <vel value="0.1184637736" flag="0"/>
      <psa03 value="0.5516838901" flag="0"/>
      <psa10 value="0.0574816896" flag="0"/>
      <psa30 value="0.0124520877" flag="0"/>
    </comp>
  </station>
  <station code="KALE" name="KALE" netid="HA" insttype="40," commtype="DIG" lat="38.3911" lon="22.1398">
    <comp name="--.HHN">
      <acc value="0.1591955981" flag="0"/>
      <vel value="0.1697327309" flag="0"/>
      <psa03 value="0.4123609537" flag="0"/>
      <psa10 value="0.1596437096" flag="0"/>
      <psa30 value="0.0407263084" flag="0"/>
    </comp>
    <comp name="--.HHZ">
      <acc value="0.0947134177" flag="0"/>
      <vel value="0.1004251670" flag="0"/>
      <psa03 value="0.2767539532" flag="0"/>
      <psa10 value="0.0877529133" flag="0"/>
      <psa30 value="0.0258713115" flag="0"/>
    </comp>
    <comp name="--.HHE">
      <acc value="0.1035945101" flag="0"/>
      <vel value="0.1141306165" flag="0"/>
      <psa03 value="0.3324708600" flag="0"/>
      <psa10 value="0.1144180678" flag="0"/>
      <psa30 value="0.0179025396" flag="0"/>
    </comp>
  </station>
  <station code="KARY" name="KARY" netid="HA" insttype="60" commtype="DIG" lat="38.0321" lon="24.437">
    <comp name="--.HHZ">
      <acc value="0.1512997437" flag="0"/>
      <vel value="0.0998918867" flag="0"/>
      <psa03 value="0.1749489918" flag="0"/>
      <psa10 value="0.0773200993" flag="0"/>
      <psa30 value="0.0276217287" flag="0"/>
    </comp>
    <comp name="--.HHN">
      <acc value="0.2573051522" flag="0"/>
      <vel value="0.0973887906" flag="0"/>
      <psa03 value="0.2924364404" flag="0"/>
      <psa10 value="0.1344959616" flag="0"/>
      <psa30 value="0.0124719451" flag="0"/>
    </comp>
    <comp name="--.HHE">
      <acc value="0.1514310951" flag="0"/>
      <vel value="0.0643885420" flag="0"/>
      <psa03 value="0.2279580057" flag="0"/>
      <psa10 value="0.0719134496" flag="0"/>
      <psa30 value="0.0144170326" flag="0"/>
    </comp>
  </station>
  <station code="LAKA" name="LAKA" netid="HA" insttype="120s," commtype="DIG" lat="38.2401" lon="21.9785">
    <comp name="--.HHN">
      <acc value="0.0313756468" flag="0"/>
      <vel value="0.0580380899" flag="0"/>
      <psa03 value="0.0709959919" flag="0"/>
      <psa10 value="0.0632556765" flag="0"/>
      <psa30 value="0.0246921249" flag="0"/>
    </comp>
    <comp name="--.HHE">
      <acc value="0.0329518484" flag="0"/>
      <vel value="0.0384643549" flag="0"/>
      <psa03 value="0.0657951723" flag="0"/>
      <psa10 value="0.0401572675" flag="0"/>
      <psa30 value="0.0118542474" flag="0"/>
    </comp>
    <comp name="--.HHZ">
      <acc value="0.0255484011" flag="0"/>
      <vel value="0.0523955932" flag="0"/>
      <psa03 value="0.0649616644" flag="0"/>
      <psa10 value="0.0544092773" flag="0"/>
      <psa30 value="0.0289628156" flag="0"/>
    </comp>
  </station>
  <station code="LOUT" name="LOUT" netid="HA" insttype="30" commtype="DIG" lat="37.9879" lon="22.9743">
    <comp name="--.HHN">
      <acc value="0.3349216937" flag="0"/>
      <vel value="0.2736494669" flag="0"/>
      <psa03 value="0.8496181608" flag="0"/>
      <psa10 value="0.3380892394" flag="0"/>
      <psa30 value="0.0524715603" flag="0"/>
    </comp>
    <comp name="--.HHZ">
      <acc value="0.2230593365" flag="0"/>
      <vel value="0.2428259921" flag="0"/>
      <psa03 value="0.4069636271" flag="0"/>
      <psa10 value="0.3615777811" flag="0"/>
      <psa30 value="0.0296078684" flag="0"/>
    </comp>
    <comp name="--.HHE">
      <acc value="0.3707226724" flag="0"/>
      <vel value="0.3798088061" flag="0"/>
      <psa03 value="0.9997288698" flag="0"/>
      <psa10 value="0.5931407628" flag="0"/>
      <psa30 value="0.0459273878" flag="0"/>
    </comp>
  </station>
  <station code="MDRA" name="MDRA" netid="HA" insttype="60" commtype="DIG" lat="38.0606" lon="23.4662">
    <comp name="--.HHN">
      <acc value="0.2866426388" flag="0"/>
      <vel value="0.1631922601" flag="0"/>
      <psa03 value="0.7568634918" flag="0"/>
      <psa10 value="0.1983972752" flag="0"/>
      <psa30 value="0.0146523597" flag="0"/>
    </comp>
    <comp name="--.HHE">
      <acc value="0.2059153859" flag="0"/>
      <vel value="0.1053964585" flag="0"/>
      <psa03 value="0.2830209213" flag="0"/>
      <psa10 value="0.1484080821" flag="0"/>
      <psa30 value="0.0160554133" flag="0"/>
    </comp>
    <comp name="--.HHZ">
      <acc value="0.1402473245" flag="0"/>
      <vel value="0.1514654349" flag="0"/>
      <psa03 value="0.3731784560" flag="0"/>
      <psa10 value="0.1432930952" flag="0"/>
      <psa30 value="0.0250369200" flag="0"/>
    </comp>
  </station>
  <station code="MRTH" name="MRTH" netid="HA" insttype="S100," commtype="DIG" lat="38.1225" lon="23.9409">
    <comp name="--.HHE">
      <acc value="0.6058764030" flag="0"/>
      <vel value="0.2820964876" flag="0"/>
      <psa03 value="1.5526369249" flag="0"/>
      <psa10 value="0.2188542006" flag="0"/>
      <psa30 value="0.0174053957" flag="0"/>
    </comp>
    <comp name="--.HHZ">
      <acc value="0.3240210358" flag="0"/>
      <vel value="0.1491155382" flag="0"/>
      <psa03 value="0.7363052837" flag="0"/>
      <psa10 value="0.0697481189" flag="0"/>
      <psa30 value="0.0256848356" flag="0"/>
    </comp>
    <comp name="--.HHN">
      <acc value="0.5191063126" flag="0"/>
      <vel value="0.2183630375" flag="0"/>
      <psa03 value="0.8165480774" flag="0"/>
      <psa10 value="0.1221655529" flag="0"/>
      <psa30 value="0.0249846493" flag="0"/>
    </comp>
  </station>
  <station code="PRDM" name="PRDM" netid="HA" insttype="25" commtype="DIG" lat="38.2804" lon="22.847">
    <comp name="--.HHN">
      <acc value="0.2339571440" flag="0"/>
      <vel value="0.1113050292" flag="0"/>
      <psa03 value="0.6142765606" flag="0"/>
      <psa10 value="0.1068543728" flag="0"/>
      <psa30 value="0.0132206563" flag="0"/>
    </comp>
    <comp name="--.HHZ">
      <acc value="0.1465646356" flag="0"/>
      <vel value="0.0672041432" flag="0"/>
      <psa03 value="0.4967586233" flag="0"/>
      <psa10 value="0.0613047329" flag="0"/>
      <psa30 value="0.0141839950" flag="0"/>
    </comp>
    <comp name="--.HHE">
      <acc value="0.2276732382" flag="0"/>
      <vel value="0.1198325296" flag="0"/>
      <psa03 value="0.5976716903" flag="0"/>
      <psa10 value="0.1190625519" flag="0"/>
      <psa30 value="0.0129415248" flag="0"/>
    </comp>
  </station>
  <station code="PSAH" name="PSAH" netid="HA" insttype="25" commtype="DIG" lat="38.5694" lon="23.6473">
    <comp name="--.HHE">
      <acc value="1.2749441743" flag="0"/>
      <vel value="0.2822667617" flag="0"/>
      <psa03 value="1.7260887733" flag="0"/>
      <psa10 value="0.4414683745" flag="0"/>
      <psa30 value="0.0407356568" flag="0"/>
    </comp>
    <comp name="--.HHN">
      <acc value="0.9539024414" flag="0"/>
      <vel value="0.2376343985" flag="0"/>
      <psa03 value="1.3729410677" flag="0"/>
      <psa10 value="0.3381244798" flag="0"/>
      <psa30 value="0.0514094609" flag="0"/>
    </comp>
    <comp name="--.HHZ">
      <acc value="0.6724983328" flag="0"/>
      <vel value="0.2223426408" flag="0"/>
      <psa03 value="1.0143022879" flag="0"/>
      <psa10 value="0.4164687937" flag="0"/>
      <psa30 value="0.0435680982" flag="0"/>
    </comp>
  </station>
  <station code="THAL" name="THAL" netid="HA" insttype="30" commtype="DIG" lat="38.0357" lon="22.6634">
    <comp name="--.HHN">
      <acc value="0.4057662345" flag="0"/>
      <vel value="0.3315449169" flag="0"/>
      <psa03 value="1.2745199921" flag="0"/>
      <psa10 value="0.4168630924" flag="0"/>
      <psa30 value="0.0998216435" flag="0"/>
    </comp>
    <comp name="--.HHZ">
      <acc value="0.3596429133" flag="0"/>
      <vel value="0.2022723370" flag="0"/>
      <psa03 value="0.6891782284" flag="0"/>
      <psa10 value="0.1375320578" flag="0"/>
      <psa30 value="0.0192545107" flag="0"/>
    </comp>
    <comp name="--.HHE">
      <acc value="0.6081615587" flag="0"/>
      <vel value="0.4536527847" flag="0"/>
      <psa03 value="2.1782231952" flag="0"/>
      <psa10 value="0.4256108488" flag="0"/>
      <psa30 value="0.0559055022" flag="0"/>
    </comp>
  </station>
  <station code="THIV" name="THIV" netid="HA" insttype="25" commtype="DIG" lat="38.299" lon="23.332">
    <comp name="--.HHN">
      <acc value="0.4119581849" flag="0"/>
      <vel value="0.2081899275" flag="0"/>
      <psa03 value="0.8538271920" flag="0"/>
      <psa10 value="0.1794678240" flag="0"/>
      <psa30 value="0.0352246714" flag="0"/>
    </comp>
    <comp name="--.HHE">
      <acc value="0.3745486382" flag="0"/>
      <vel value="0.2141163309" flag="0"/>
      <psa03 value="0.5892125866" flag="0"/>
      <psa10 value="0.3593261120" flag="0"/>
      <psa30 value="0.0543413483" flag="0"/>
    </comp>
    <comp name="--.HHZ">
      <acc value="0.3876562600" flag="0"/>
      <vel value="0.1240718435" flag="0"/>
      <psa03 value="0.4861427906" flag="0"/>
      <psa10 value="0.1887255645" flag="0"/>
      <psa30 value="0.0230983074" flag="0"/>
    </comp>
  </station>
  <station code="VILL" name="VILL" netid="HA" insttype="Horizon,120s,1200" commtype="DIG" lat="38.1642" lon="23.3122">
    <comp name="--.HHE">
      <acc value="0.5244944824" flag="0"/>
      <vel value="0.3859813462" flag="0"/>
      <psa03 value="1.3144784385" flag="0"/>
      <psa10 value="0.4065046545" flag="0"/>
      <psa30 value="0.0270176810" flag="0"/>
    </comp>
    <comp name="--.HHN">
      <acc value="0.3953426332" flag="0"/>
      <vel value="0.2411395428" flag="0"/>
      <psa03 value="0.5701671702" flag="0"/>
      <psa10 value="0.1721910935" flag="0"/>
      <psa30 value="0.0201286088" flag="0"/>
    </comp>
    <comp name="--.HHZ">
      <acc value="0.1553182668" flag="0"/>
      <vel value="0.1424710025" flag="0"/>
      <psa03 value="0.4390516529" flag="0"/>
      <psa10 value="0.1541801708" flag="0"/>
      <psa30 value="0.0329402459" flag="0"/>
    </comp>
  </station>
  <station code="AIG2" name="AIG2" netid="HI" insttype="unknown" commtype="DIG" lat="38.2417" lon="22.0726">
    <comp name="--.HNE">
      <acc value="0.0766103938" flag="0"/>
      <vel value="0.1005127144" flag="0"/>
      <psa03 value="0.2807089025" flag="0"/>
      <psa10 value="0.1659329280" flag="0"/>
      <psa30 value="0.0274056122" flag="0"/>
    </comp>
    <comp name="--.HNZ">
      <acc value="0.0468671515" flag="0"/>
      <vel value="0.0449699611" flag="0"/>
      <psa03 value="0.1102366108" flag="0"/>
      <psa10 value="0.0832588690" flag="0"/>
      <psa30 value="0.0199932112" flag="0"/>
    </comp>
    <comp name="--.HNN">
      <acc value="0.0634109962" flag="0"/>
      <vel value="0.0762661301" flag="0"/>
      <psa03 value="0.2113675250" flag="0"/>
      <psa10 value="0.0836122303" flag="0"/>
      <psa30 value="0.0479490228" flag="0"/>
    </comp>
  </station>
  <station code="AKR1" name="AKR1" netid="HI" insttype="unknown" commtype="DIG" lat="38.1536" lon="22.3133">
    <comp name="--.HNE">
