<?xml version="1.0" encoding="UTF-8" standalone="yes"?>
<!DOCTYPE earthquake SYSTEM "stationlist.dtd">
<stationlist created="" xmlns="ch.ethz.sed.shakemap.usgs.xml">
  <station code="GAZ" name="GAZ" netid="KO" insttype="CMG-3T" lat="37.1721" lon="37.2096">
    <comp name="--.HHN">
      <acc value="0.0062379846" flag="0"/>
      <vel value="0.0020612409" flag="0"/>
      <psa03 value="0.0146805979" flag="0"/>
      <psa10 value="0.0022027868" flag="0"/>
      <psa30 value="0.0001401328" flag="0"/>
    </comp>
    <comp name="--.HHZ">
      <acc value="0.0055834301" flag="0"/>
      <vel value="0.0017436989" flag="0"/>
      <psa03 value="0.0133395957" flag="0"/>
      <psa10 value="0.0014360175" flag="0"/>
      <psa30 value="0.0001549362" flag="0"/>
    </comp>
    <comp name="--.HHE">
      <acc value="0.0082252769" flag="0"/>
      <vel value="0.0027020904" flag="0"/>
      <psa03 value="0.0210353841" flag="0"/>
      <psa10 value="0.0017783057" flag="0"/>
      <psa30 value="0.0002260527" flag="0"/>
    </comp>
  </station>
  <station code="KMRS" name="KMRS" netid="KO" insttype="CMG-3T" lat="37.5053" lon="36.9">
    <comp name="--.HHE">
      <acc value="0.0137663374" flag="0"/>
      <vel value="0.0065708536" flag="0"/>
      <psa03 value="0.0289274846" flag="0"/>
      <psa10 value="0.0038521486" flag="0"/>
      <psa30 value="0.0002632099" flag="0"/>
    </comp>
    <comp name="--.HHN">
      <acc value="0.0157162335" flag="0"/>
      <vel value="0.0088489530" flag="0"/>
      <psa03 value="0.0387179858" flag="0"/>
      <psa10 value="0.0052706580" flag="0"/>
      <psa30 value="0.0005679211" flag="0"/>
    </comp>
    <comp name="--.HHZ">
      <acc value="0.0128020028" flag="0"/>
      <vel value="0.0075781382" flag="0"/>
      <psa03 value="0.0425781285" flag="0"/>
      <psa10 value="0.0022982729" flag="0"/>
      <psa30 value="0.0002440814" flag="0"/>
    </comp>
  </station>
  <station code="URFA" name="URFA" netid="KO" insttype="CMG-3ESP" lat="37.4409" lon="38.8213">
    <comp name="--.HHN">
      <acc value="0.0287326546" flag="0"/>
      <vel value="0.0078704417" flag="0"/>
      <psa03 value="0.0323133026" flag="0"/>
      <psa10 value="0.0052397020" flag="0"/>
      <psa30 value="0.0004083686" flag="0"/>
    </comp>
    <comp name="--.HHE">
      <acc value="0.0211165496" flag="0"/>
      <vel value="0.0065487973" flag="0"/>
      <psa03 value="0.0247090731" flag="0"/>
      <psa10 value="0.0061008822" flag="0"/>
      <psa30 value="0.0004473896" flag="0"/>
    </comp>
    <comp name="--.HHZ">
      <acc value="0.0161166603" flag="0"/>
      <vel value="0.0054349785" flag="0"/>
      <psa03 value="0.0291917758" flag="0"/>
      <psa10 value="0.0049052030" flag="0"/>
      <psa30 value="0.0003220908" flag="0"/>
    </comp>
  </station>
</stationlist>
