<?xml version="1.0" encoding="UTF-8" standalone="yes"?>
<!DOCTYPE earthquake SYSTEM "stationlist.dtd">
<stationlist created="" xmlns="ch.ethz.sed.shakemap.usgs.xml">
  <station code="PSAM" name="PSAM" netid="CL" insttype="CMG40-T" lat="38.3218" lon="22.1842">
    <comp name="00.HHZ">
      <acc value="0.3613430899" flag="0"/>
      <vel value="0.1545895481" flag="0"/>
      <psa03 value="0.4298448540" flag="0"/>
      <psa10 value="0.2176160829" flag="0"/>
      <psa30 value="0.0095184781" flag="0"/>
    </comp>
    <comp name="00.HHE">
      <acc value="0.6300969475" flag="0"/>
      <vel value="0.3587161846" flag="0"/>
      <psa03 value="1.1988888696" flag="0"/>
      <psa10 value="0.3138745740" flag="0"/>
      <psa30 value="0.0264244846" flag="0"/>
    </comp>
    <comp name="00.HHN">
      <acc value="0.7881038132" flag="0"/>
      <vel value="0.3905681890" flag="0"/>
      <psa03 value="0.9417906262" flag="0"/>
      <psa10 value="0.4400276378" flag="0"/>
      <psa30 value="0.0294637438" flag="0"/>
    </comp>
  </station>
  <station code="ROD3" name="ROD3" netid="CL" insttype="CMG40-T" lat="38.3081" lon="21.892">
    <comp name="00.HHN">
      <acc value="0.3989151811" flag="0"/>
      <vel value="0.1567173440" flag="0"/>
      <psa03 value="1.4178592035" flag="0"/>
      <psa10 value="0.0587502158" flag="0"/>
      <psa30 value="0.0052113226" flag="0"/>
    </comp>
    <comp name="00.HHE">
      <acc value="0.3570694273" flag="0"/>
      <vel value="0.1028989763" flag="0"/>
      <psa03 value="0.7172342900" flag="0"/>
      <psa10 value="0.0490554396" flag="0"/>
      <psa30 value="0.0034679256" flag="0"/>
    </comp>
    <comp name="00.HHZ">
      <acc value="0.1614336271" flag="0"/>
      <vel value="0.0490023649" flag="0"/>
      <psa03 value="0.2230930457" flag="0"/>
      <psa10 value="0.0441853276" flag="0"/>
      <psa30 value="0.0037959453" flag="0"/>
    </comp>
  </station>
  <station code="TRIZ" name="TRIZ" netid="CL" insttype="STS-2" lat="38.3654" lon="22.0727">
    <comp name="00.HHZ">
      <acc value="0.5315243482" flag="0"/>
      <vel value="0.1605128259" flag="0"/>
      <psa03 value="0.8297286617" flag="0"/>
      <psa10 value="0.0727037019" flag="0"/>
      <psa30 value="0.0050562212" flag="0"/>
    </comp>
    <comp name="00.HH2">
      <acc value="0.6609527665" flag="0"/>
      <vel value="0.3140527715" flag="0"/>
      <psa03 value="1.8201383060" flag="0"/>
      <psa10 value="0.1302416869" flag="0"/>
      <psa30 value="0.0124078041" flag="0"/>
    </comp>
    <comp name="00.HH3">
      <acc value="1.1798286319" flag="0"/>
      <vel value="0.5947188867" flag="0"/>
      <psa03 value="4.3768511848" flag="0"/>
      <psa10 value="0.1466622296" flag="0"/>
      <psa30 value="0.0146565498" flag="0"/>
    </comp>
  </station>
  <station code="ZIRI" name="ZIRI" netid="CL" insttype="TRILLIUM-40" lat="38.3051" lon="21.9476">
    <comp name="01.HHN">
      <acc value="0.3977806715" flag="0"/>
      <vel value="0.2078873182" flag="0"/>
      <psa03 value="0.9704095131" flag="0"/>
      <psa10 value="0.0927782843" flag="0"/>
      <psa30 value="0.0091537930" flag="0"/>
    </comp>
    <comp name="01.HHZ">
      <acc value="0.2233247310" flag="0"/>
      <vel value="0.0689929605" flag="0"/>
      <psa03 value="0.5391351762" flag="0"/>
      <psa10 value="0.0307388909" flag="0"/>
      <psa30 value="0.0032659608" flag="0"/>
    </comp>
    <comp name="01.HHE">
      <acc value="0.5525723862" flag="0"/>
      <vel value="0.2410772541" flag="0"/>
      <psa03 value="1.3840713100" flag="0"/>
      <psa10 value="0.1314063251" flag="0"/>
      <psa30 value="0.0081121283" flag="0"/>
    </comp>
  </station>
  <station code="ACOR" name="ACOR" netid="HA" insttype="Horizon,120s,1200" lat="37.8905" lon="22.8694">
    <comp name="--.HHE">
      <acc value="0.0121493418" flag="0"/>
      <vel value="0.0071063062" flag="0"/>
      <psa03 value="0.0280466504" flag="0"/>
      <psa10 value="0.0074710336" flag="0"/>
      <psa30 value="0.0009780629" flag="0"/>
    </comp>
    <comp name="--.HHZ">
      <acc value="0.0084871553" flag="0"/>
      <vel value="0.0055449665" flag="0"/>
      <psa03 value="0.0219749285" flag="0"/>
      <psa10 value="0.0057114730" flag="0"/>
      <psa30 value="0.0004966727" flag="0"/>
    </comp>
    <comp name="--.HHN">
      <acc value="0.0105980091" flag="0"/>
      <vel value="0.0052322579" flag="0"/>
      <psa03 value="0.0209656456" flag="0"/>
      <psa10 value="0.0074121492" flag="0"/>
      <psa30 value="0.0012525977" flag="0"/>
    </comp>
  </station>
  <station code="AIGS" name="AIGS" netid="HA" insttype="DC" lat="38.25" lon="22.0878">
    <comp name="--.HNN">
      <acc value="0.3742395282" flag="0"/>
      <vel value="0.1460711332" flag="0"/>
      <psa03 value="0.7629349461" flag="0"/>
      <psa10 value="0.0576306497" flag="0"/>
      <psa30 value="0.0053404096" flag="0"/>
    </comp>
    <comp name="--.HNE">
      <acc value="0.3244483030" flag="0"/>
      <vel value="0.1487881541" flag="0"/>
      <psa03 value="1.0375409602" flag="0"/>
      <psa10 value="0.1010906144" flag="0"/>
      <psa30 value="0.0133738202" flag="0"/>
    </comp>
    <comp name="--.HNZ">
      <acc value="0.2767405482" flag="0"/>
      <vel value="0.0546483677" flag="0"/>
      <psa03 value="0.1977931498" flag="0"/>
      <psa10 value="0.0480138779" flag="0"/>
      <psa30 value="0.0029932382" flag="0"/>
    </comp>
  </station>
  <station code="AMPE" name="AMPE" netid="HA" insttype="1s-100Hz," lat="38.3015" lon="23.2688">
    <comp name="--.HHN">
      <acc value="0.0299987041" flag="0"/>
      <vel value="0.0224566110" flag="0"/>
      <psa03 value="0.1010940860" flag="0"/>
      <psa10 value="0.0307599228" flag="0"/>
      <psa30 value="0.0025633535" flag="0"/>
    </comp>
    <comp name="--.HHE">
      <acc value="0.0887541628" flag="0"/>
      <vel value="0.0550995216" flag="0"/>
      <psa03 value="0.3390240935" flag="0"/>
      <psa10 value="0.0332289217" flag="0"/>
      <psa30 value="0.0027114920" flag="0"/>
    </comp>
    <comp name="--.HHZ">
      <acc value="0.0219856730" flag="0"/>
      <vel value="0.0120621392" flag="0"/>
      <psa03 value="0.0848494458" flag="0"/>
      <psa10 value="0.0191948885" flag="0"/>
      <psa30 value="0.0008978548" flag="0"/>
    </comp>
  </station>
  <station code="ANTK" name="ANTK" netid="HA" insttype="25" lat="38.3605" lon="22.6385">
    <comp name="--.HHE">
      <acc value="0.1928906090" flag="0"/>
      <vel value="0.0554228770" flag="0"/>
      <psa03 value="0.2127130375" flag="0"/>
      <psa10 value="0.0291318110" flag="0"/>
      <psa30 value="0.0031750150" flag="0"/>
    </comp>
    <comp name="--.HHN">
      <acc value="0.0213493396" flag="0"/>
      <vel value="0.0032476928" flag="0"/>
      <psa03 value="0.0093374784" flag="0"/>
      <psa10 value="0.0006519897" flag="0"/>
      <psa30 value="0.0000583659" flag="0"/>
    </comp>
    <comp name="--.HHZ">
      <acc value="0.1730907088" flag="0"/>
      <vel value="0.0332309745" flag="0"/>
      <psa03 value="0.1487447568" flag="0"/>
      <psa10 value="0.0179652074" flag="0"/>
      <psa30 value="0.0020211284" flag="0"/>
    </comp>
  </station>
  <station code="ATAL" name="ATAL" netid="HA" insttype="120s," lat="38.6926" lon="23.0213">
    <comp name="--.HHZ">
      <acc value="0.0828372628" flag="0"/>
      <vel value="0.0167920211" flag="0"/>
      <psa03 value="0.0260824105" flag="0"/>
      <psa10 value="0.0227755301" flag="0"/>
      <psa30 value="0.0076794392" flag="0"/>
    </comp>
    <comp name="--.HHE">
      <acc value="0.0468408845" flag="0"/>
      <vel value="0.0180395030" flag="0"/>
      <psa03 value="0.1166982318" flag="0"/>
      <psa10 value="0.0274049298" flag="0"/>
      <psa30 value="0.0020067950" flag="0"/>
    </comp>
    <comp name="--.HHN">
      <acc value="0.0758905779" flag="0"/>
      <vel value="0.0372570242" flag="0"/>
      <psa03 value="0.1739423581" flag="0"/>
      <psa10 value="0.0413365386" flag="0"/>
      <psa30 value="0.0032194735" flag="0"/>
    </comp>
  </station>
  <station code="AXAR" name="AXAR" netid="HA" insttype="Horizon,120s,1200" lat="38.7664" lon="22.659">
    <comp name="--.HHE">
      <acc value="0.3951749088" flag="0"/>
      <vel value="0.2594482756" flag="0"/>
      <psa03 value="1.0021463946" flag="0"/>
      <psa10 value="0.1661746697" flag="0"/>
      <psa30 value="0.0190386941" flag="0"/>
    </comp>
    <comp name="--.HHN">
      <acc value="0.4792805995" flag="0"/>
      <vel value="0.2560127337" flag="0"/>
      <psa03 value="1.4674507038" flag="0"/>
      <psa10 value="0.1163566079" flag="0"/>
      <psa30 value="0.0101857460" flag="0"/>
    </comp>
    <comp name="--.HHZ">
      <acc value="0.3218511737" flag="0"/>
      <vel value="0.1283483288" flag="0"/>
      <psa03 value="0.6603243004" flag="0"/>
      <psa10 value="0.0698057816" flag="0"/>
      <psa30 value="0.0068180183" flag="0"/>
    </comp>
  </station>
  <station code="DOMV" name="DOMV" netid="HA" insttype="60" lat="38.2569" lon="22.9795">
    <comp name="--.HHE">
      <acc value="0.2938221105" flag="0"/>
      <vel value="0.0639242513" flag="0"/>
      <psa03 value="0.3403342714" flag="0"/>
      <psa10 value="0.0315942700" flag="0"/>
      <psa30 value="0.0023657201" flag="0"/>
    </comp>
    <comp name="--.HHN">
      <acc value="0.2087062463" flag="0"/>
      <vel value="0.0605222032" flag="0"/>
      <psa03 value="0.3862496205" flag="0"/>
      <psa10 value="0.0406045722" flag="0"/>
      <psa30 value="0.0022613710" flag="0"/>
    </comp>
    <comp name="--.HHZ">
      <acc value="0.1636004082" flag="0"/>
      <vel value="0.0496318814" flag="0"/>
      <psa03 value="0.3289280385" flag="0"/>
      <psa10 value="0.0238272963" flag="0"/>
      <psa30 value="0.0020674163" flag="0"/>
    </comp>
  </station>
  <station code="EPID" name="EPID" netid="HA" insttype="30" lat="37.6144" lon="23.1189">
    <comp name="--.HHN">
      <acc value="0.0191003988" flag="0"/>
      <vel value="0.0127996793" flag="0"/>
      <psa03 value="0.0353249914" flag="0"/>
      <psa10 value="0.0130111779" flag="0"/>
      <psa30 value="0.0011967602" flag="0"/>
    </comp>
    <comp name="--.HHE">
      <acc value="0.0232115881" flag="0"/>
      <vel value="0.0134135992" flag="0"/>
      <psa03 value="0.0313929584" flag="0"/>
      <psa10 value="0.0169185201" flag="0"/>
      <psa30 value="0.0010479844" flag="0"/>
    </comp>
    <comp name="--.HHZ">
      <acc value="0.0132134550" flag="0"/>
      <vel value="0.0105069023" flag="0"/>
      <psa03 value="0.0251782928" flag="0"/>
      <psa10 value="0.0110764876" flag="0"/>
      <psa30 value="0.0007555416" flag="0"/>
    </comp>
  </station>
  <station code="ERTR" name="ERTR" netid="HA" insttype="Horizon,120s,1200" lat="38.4066" lon="23.7865">
    <comp name="--.HHN">
      <acc value="0.0120780799" flag="0"/>
      <vel value="0.0088592371" flag="0"/>
      <psa03 value="0.0345754491" flag="0"/>
      <psa10 value="0.0131787588" flag="0"/>
      <psa30 value="0.0006281445" flag="0"/>
    </comp>
    <comp name="--.HHZ">
      <acc value="0.0092604495" flag="0"/>
      <vel value="0.0054218066" flag="0"/>
      <psa03 value="0.0236479473" flag="0"/>
      <psa10 value="0.0080881786" flag="0"/>
      <psa30 value="0.0008770270" flag="0"/>
    </comp>
    <comp name="--.HHE">
      <acc value="0.0083753115" flag="0"/>
      <vel value="0.0063722017" flag="0"/>
      <psa03 value="0.0237808803" flag="0"/>
      <psa10 value="0.0093813123" flag="0"/>
      <psa30 value="0.0007820660" flag="0"/>
    </comp>
  </station>
  <station code="KALE" name="KALE" netid="HA" insttype="40," lat="38.3911" lon="22.1398">
    <comp name="--.HHZ">
      <acc value="0.6317294517" flag="0"/>
      <vel value="0.1732090758" flag="0"/>
      <psa03 value="0.9233462456" flag="0"/>
      <psa10 value="0.2163584462" flag="0"/>
      <psa30 value="0.0091802063" flag="0"/>
    </comp>
    <comp name="--.HHN">
      <acc value="0.7554359005" flag="0"/>
      <vel value="0.3337861306" flag="0"/>
      <psa03 value="1.6748226894" flag="0"/>
      <psa10 value="0.2204043551" flag="0"/>
      <psa30 value="0.0137498125" flag="0"/>
    </comp>
    <comp name="--.HHE">
      <acc value="0.8453601666" flag="0"/>
      <vel value="0.2895248297" flag="0"/>
      <psa03 value="1.4821531934" flag="0"/>
      <psa10 value="0.1816565913" flag="0"/>
      <psa30 value="0.0131812759" flag="0"/>
    </comp>
  </station>
  <station code="KIAS" name="KIAS" netid="HA" insttype="DC" lat="37.9875" lon="22.7543">
    <comp name="--.HNZ">
      <acc value="0.0483054115" flag="0"/>
      <vel value="0.0146093727" flag="0"/>
      <psa03 value="0.0681039217" flag="0"/>
      <psa10 value="0.0174851067" flag="0"/>
      <psa30 value="0.0027269363" flag="0"/>
    </comp>
    <comp name="--.HNE">
      <acc value="0.0852726565" flag="0"/>
      <vel value="0.0270136747" flag="0"/>
      <psa03 value="0.1157284029" flag="0"/>
      <psa10 value="0.0310487639" flag="0"/>
      <psa30 value="0.0073270585" flag="0"/>
    </comp>
    <comp name="--.HNN">
      <acc value="0.1139438423" flag="0"/>
      <vel value="0.0285216433" flag="0"/>
      <psa03 value="0.1392296915" flag="0"/>
      <psa10 value="0.0243960579" flag="0"/>
      <psa30 value="0.0051995618" flag="0"/>
    </comp>
  </station>
  <station code="LAKA" name="LAKA" netid="HA" insttype="120s," lat="38.2401" lon="21.9785">
    <comp name="--.HHE">
      <acc value="0.0522378750" flag="0"/>
      <vel value="0.0224576535" flag="0"/>
      <psa03 value="0.1020357387" flag="0"/>
      <psa10 value="0.0309496314" flag="0"/>
      <psa30 value="0.0028526879" flag="0"/>
    </comp>
    <comp name="--.HHN">
      <acc value="0.0800281330" flag="0"/>
      <vel value="0.0283236421" flag="0"/>
      <psa03 value="0.1313376034" flag="0"/>
      <psa10 value="0.0236861273" flag="0"/>
      <psa30 value="0.0030559513" flag="0"/>
    </comp>
    <comp name="--.HHZ">
      <acc value="0.0451586726" flag="0"/>
      <vel value="0.0194556307" flag="0"/>
      <psa03 value="0.0902421434" flag="0"/>
      <psa10 value="0.0244653825" flag="0"/>
      <psa30 value="0.0021959994" flag="0"/>
    </comp>
  </station>
  <station code="LOUT" name="LOUT" netid="HA" insttype="30" lat="37.9879" lon="22.9743">
    <comp name="--.HHE">
      <acc value="0.0660625420" flag="0"/>
      <vel value="0.0276110613" flag="0"/>
      <psa03 value="0.1917632474" flag="0"/>
      <psa10 value="0.0168183981" flag="0"/>
      <psa30 value="0.0014888005" flag="0"/>
    </comp>
    <comp name="--.HHN">
      <acc value="0.0535218716" flag="0"/>
      <vel value="0.0238585131" flag="0"/>
      <psa03 value="0.1502299686" flag="0"/>
      <psa10 value="0.0216816019" flag="0"/>
      <psa30 value="0.0016626725" flag="0"/>
    </comp>
    <comp name="--.HHZ">
      <acc value="0.0301275083" flag="0"/>
      <vel value="0.0132091957" flag="0"/>
      <psa03 value="0.0594258695" flag="0"/>
      <psa10 value="0.0104256929" flag="0"/>
      <psa30 value="0.0008983926" flag="0"/>
    </comp>
  </station>
  <station code="MDRA" name="MDRA" netid="HA" insttype="60" lat="38.0606" lon="23.4662">
    <comp name="--.HHE">
      <acc value="0.0206413872" flag="0"/>
      <vel value="0.0117553012" flag="0"/>
      <psa03 value="0.0524251742" flag="0"/>
      <psa10 value="0.0150131629" flag="0"/>
      <psa30 value="0.0010204047" flag="0"/>
    </comp>
    <comp name="--.HHN">
      <acc value="0.0223756428" flag="0"/>
      <vel value="0.0206956230" flag="0"/>
      <psa03 value="0.0596231981" flag="0"/>
      <psa10 value="0.0351342268" flag="0"/>
      <psa30 value="0.0016196031" flag="0"/>
    </comp>
    <comp name="--.HHZ">
      <acc value="0.0189354363" flag="0"/>
      <vel value="0.0133699044" flag="0"/>
      <psa03 value="0.0844174046" flag="0"/>
      <psa10 value="0.0195803187" flag="0"/>
      <psa30 value="0.0022190085" flag="0"/>
    </comp>
  </station>
  <station code="MRKA" name="MRKA" netid="HA" insttype="Horizon,120s,1200" lat="38.7047" lon="23.5863">
    <comp name="--.HHN">
      <acc value="0.0191961199" flag="0"/>
      <vel value="0.0109843443" flag="0"/>
      <psa03 value="0.0432051678" flag="0"/>
      <psa10 value="0.0177282680" flag="0"/>
      <psa30 value="0.0014617686" flag="0"/>
    </comp>
    <comp name="--.HHE">
      <acc value="0.0172880716" flag="0"/>
      <vel value="0.0094687473" flag="0"/>
      <psa03 value="0.0377179143" flag="0"/>
      <psa10 value="0.0179954853" flag="0"/>
      <psa30 value="0.0009217865" flag="0"/>
    </comp>
    <comp name="--.HHZ">
      <acc value="0.0158136770" flag="0"/>
      <vel value="0.0097109007" flag="0"/>
      <psa03 value="0.0440142944" flag="0"/>
      <psa10 value="0.0147956886" flag="0"/>
      <psa30 value="0.0008911246" flag="0"/>
    </comp>
  </station>
  <station code="PRDM" name="PRDM" netid="HA" insttype="25" lat="38.2804" lon="22.847">
    <comp name="--.HHN">
      <acc value="0.1098088097" flag="0"/>
      <vel value="0.0256858726" flag="0"/>
      <psa03 value="0.0857365646" flag="0"/>
      <psa10 value="0.0196558992" flag="0"/>
      <psa30 value="0.0015921975" flag="0"/>
    </comp>
    <comp name="--.HHE">
      <acc value="0.1303949646" flag="0"/>
      <vel value="0.0233663068" flag="0"/>
      <psa03 value="0.0702865187" flag="0"/>
      <psa10 value="0.0112753052" flag="0"/>
      <psa30 value="0.0012037401" flag="0"/>
    </comp>
    <comp name="--.HHZ">
      <acc value="0.1067761257" flag="0"/>
      <vel value="0.0209583069" flag="0"/>
      <psa03 value="0.0747883928" flag="0"/>
      <psa10 value="0.0130753809" flag="0"/>
      <psa30 value="0.0012166009" flag="0"/>
    </comp>
  </station>
  <station code="PSAH" name="PSAH" netid="HA" insttype="25" lat="38.5694" lon="23.6473">
    <comp name="--.HHZ">
      <acc value="0.0051226885" flag="0"/>
      <vel value="0.0041214068" flag="0"/>
      <psa03 value="0.0132394617" flag="0"/>
      <psa10 value="0.0071475066" flag="0"/>
      <psa30 value="0.0008674270" flag="0"/>
    </comp>
    <comp name="--.HHN">
      <acc value="0.0070590180" flag="0"/>
      <vel value="0.0088504014" flag="0"/>
      <psa03 value="0.0127637937" flag="0"/>
      <psa10 value="0.0120377594" flag="0"/>
      <psa30 value="0.0005620160" flag="0"/>
    </comp>
    <comp name="--.HHE">
      <acc value="0.0066162118" flag="0"/>
      <vel value="0.0054806553" flag="0"/>
      <psa03 value="0.0161225527" flag="0"/>
      <psa10 value="0.0096114368" flag="0"/>
      <psa30 value="0.0006619517" flag="0"/>
    </comp>
  </station>
  <station code="STFN" name="STFN" netid="HA" insttype="1s-100Hz," lat="38.1766" lon="23.544">
    <comp name="--.HHE">
      <acc value="0.0226305337" flag="0"/>
      <vel value="0.0193115156" flag="0"/>
      <psa03 value="0.0484262759" flag="0"/>
      <psa10 value="0.0245654097" flag="0"/>
      <psa30 value="0.0017504459" flag="0"/>
    </comp>
    <comp name="--.HHN">
      <acc value="0.0229309365" flag="0"/>
      <vel value="0.0195152772" flag="0"/>
      <psa03 value="0.0572591566" flag="0"/>
      <psa10 value="0.0261006312" flag="0"/>
      <psa30 value="0.0012786344" flag="0"/>
    </comp>
    <comp name="--.HHZ">
      <acc value="0.0190521486" flag="0"/>
      <vel value="0.0143658153" flag="0"/>
      <psa03 value="0.0525471013" flag="0"/>
      <psa10 value="0.0208024444" flag="0"/>
      <psa30 value="0.0021125361" flag="0"/>
    </comp>
  </station>
  <station code="THAL" name="THAL" netid="HA" insttype="30" lat="38.0357" lon="22.6634">
    <comp name="--.HHE">
      <acc value="0.1831085942" flag="0"/>
      <vel value="0.0509606496" flag="0"/>
      <psa03 value="0.1900835011" flag="0"/>
      <psa10 value="0.0511211296" flag="0"/>
      <psa30 value="0.0029238707" flag="0"/>
    </comp>
    <comp name="--.HHN">
      <acc value="0.1716102164" flag="0"/>
      <vel value="0.0410326802" flag="0"/>
