<?xml version="1.0" encoding="UTF-8" standalone="yes"?>
<!DOCTYPE earthquake SYSTEM "stationlist.dtd">
<stationlist created="" xmlns="ch.ethz.sed.shakemap.usgs.xml">
  <station code="PSAM" name="PSAM" netid="CL" insttype="CMG40-T" lat="38.3218" lon="22.1842">
    <comp name="00.HHZ">
      <acc value="0.3613430899" flag="0"/>
      <vel value="0.1545895481" flag="0"/>
      <psa03 value="0.4298448540" flag="0"/>
      <psa10 value="0.2176160829" flag="0"/>
      <psa30 value="0.0095184781" flag="0"/>
    </comp>
    <comp name="00.HHE">
      <acc value="0.6300969475" flag="0"/>
      <vel value="0.3587161846" flag="0"/>
      <psa03 value="1.1988888696" flag="0"/>
      <psa10 value="0.3138745740" flag="0"/>
      <psa30 value="0.0264244846" flag="0"/>
    </comp>
    <comp name="00.HHN">
      <acc value="0.7881038132" flag="0"/>
      <vel value="0.3905681890" flag="0"/>
      <psa03 value="0.9417906262" flag="0"/>
      <psa10 value="0.4400276378" flag="0"/>
      <psa30 value="0.0294637438" flag="0"/>
    </comp>
  </station>
  <station code="ROD3" name="ROD3" netid="CL" insttype="CMG40-T" lat="38.3081" lon="21.892">
    <comp name="00.HHN">
      <acc value="0.3989151811" flag="0"/>
      <vel value="0.1567173440" flag="0"/>
      <psa03 value="1.4178592035" flag="0"/>
      <psa10 value="0.0587502158" flag="0"/>
      <psa30 value="0.0052113226" flag="0"/>
    </comp>
    <comp name="00.HHE">
      <acc value="0.3570694273" flag="0"/>
      <vel value="0.1028989763" flag="0"/>
      <psa03 value="0.7172342900" flag="0"/>
      <psa10 value="0.0490554396" flag="0"/>
      <psa30 value="0.0034679256" flag="0"/>
    </comp>
    <comp name="00.HHZ">
      <acc value="0.1614336271" flag="0"/>
      <vel value="0.0490023649" flag="0"/>
      <psa03 value="0.2230930457" flag="0"/>
      <psa10 value="0.0441853276" flag="0"/>
      <psa30 value="0.0037959453" flag="0"/>
    </comp>
  </station>
  <station code="TRIZ" name="TRIZ" netid="CL" insttype="STS-2" lat="38.3654" lon="22.0727">
    <comp name="00.HHZ">
      <acc value="0.5315243482" flag="0"/>
      <vel value="0.1605128259" flag="0"/>
      <psa03 value="0.8297286617" flag="0"/>
      <psa10 value="0.0727037019" flag="0"/>
      <psa30 value="0.0050562212" flag="0"/>
    </comp>
    <comp name="00.HH2">
      <acc value="0.6609527665" flag="0"/>
      <vel value="0.3140527715" flag="0"/>
      <psa03 value="1.8201383060" flag="0"/>
      <psa10 value="0.1302416869" flag="0"/>
      <psa30 value="0.0124078041" flag="0"/>
    </comp>
    <comp name="00.HH3">
      <acc value="1.1798286319" flag="0"/>
      <vel value="0.5947188867" flag="0"/>
      <psa03 value="4.3768511848" flag="0"/>
      <psa10 value="0.1466622296" flag="0"/>
      <psa30 value="0.0146565498" flag="0"/>
    </comp>
  </station>
  <station code="ZIRI" name="ZIRI" netid="CL" insttype="TRILLIUM-40" lat="38.3051" lon="21.9476">
    <comp name="01.HHN">
      <acc value="0.3977806715" flag="0"/>
      <vel value="0.2078873182" flag="0"/>
      <psa03 value="0.9704095131" flag="0"/>
      <psa10 value="0.0927782843" flag="0"/>
      <psa30 value="0.0091537930" flag="0"/>
    </comp>
    <comp name="01.HHZ">
      <acc value="0.2233247310" flag="0"/>
      <vel value="0.0689929605" flag="0"/>
      <psa03 value="0.5391351762" flag="0"/>
      <psa10 value="0.0307388909" flag="0"/>
      <psa30 value="0.0032659608" flag="0"/>
    </comp>
    <comp name="01.HHE">
      <acc value="0.5525723862" flag="0"/>
      <vel value="0.2410772541" flag="0"/>
      <psa03 value="1.3840713100" flag="0"/>
      <psa10 value="0.1314063251" flag="0"/>
      <psa30 value="0.0081121283" flag="0"/>
    </comp>
  </station>
  <station code="KLV" name="KLV" netid="MN" insttype="" lat="38.0437" lon="22.1504">
    <comp name="--.HHE">
      <acc value="0.0399966387" flag="0"/>
      <vel value="0.0120082241" flag="0"/>
      <psa03 value="0.0627712156" flag="0"/>
      <psa10 value="0.0135666199" flag="0"/>
      <psa30 value="0.0013283919" flag="0"/>
    </comp>
    <comp name="--.HHN">
      <acc value="0.0327284515" flag="0"/>
      <vel value="0.0162556941" flag="0"/>
      <psa03 value="0.0972937500" flag="0"/>
      <psa10 value="0.0140515978" flag="0"/>
      <psa30 value="0.0012531471" flag="0"/>
    </comp>
    <comp name="--.HHZ">
      <acc value="0.0375890878" flag="0"/>
      <vel value="0.0153084949" flag="0"/>
      <psa03 value="0.0442715323" flag="0"/>
      <psa10 value="0.0132234640" flag="0"/>
      <psa30 value="0.0011404613" flag="0"/>
    </comp>
  </station>
</stationlist>
