<?xml version="1.0" encoding="UTF-8" standalone="yes"?>
<!DOCTYPE earthquake SYSTEM "stationlist.dtd">
<stationlist created="" xmlns="ch.ethz.sed.shakemap.usgs.xml">
  <station code="BNGB" name="BNGB" netid="KO" insttype="CMG-3ESPC" commtype="DIG" lat="38.9913" lon="40.6792">
    <comp name="--.HHE">
      <acc value="0.0143023488" flag="0"/>
      <vel value="0.0078747431" flag="0"/>
      <psa03 value="0.0255855781" flag="0"/>
      <psa10 value="0.0106622893" flag="0"/>
      <psa30 value="0.0007657158" flag="0"/>
    </comp>
    <comp name="--.HHZ">
      <acc value="0.0096076555" flag="0"/>
      <vel value="0.0069129596" flag="0"/>
      <psa03 value="0.0240431012" flag="0"/>
      <psa10 value="0.0070859793" flag="0"/>
      <psa30 value="0.0005464908" flag="0"/>
    </comp>
  </station>
  <station code="DYBB" name="DYBB" netid="KO" insttype="CMG-3T" commtype="DIG" lat="37.9532" lon="40.1393">
    <comp name="--.HHE">
      <acc value="0.0199657049" flag="0"/>
      <vel value="0.0121428767" flag="0"/>
      <psa03 value="0.0252242518" flag="0"/>
      <psa10 value="0.0171610229" flag="0"/>
      <psa30 value="0.0009332487" flag="0"/>
    </comp>
    <comp name="--.HHN">
      <acc value="0.0227806301" flag="0"/>
      <vel value="0.0114261769" flag="0"/>
      <psa03 value="0.0520636140" flag="0"/>
      <psa10 value="0.0141129271" flag="0"/>
      <psa30 value="0.0006764871" flag="0"/>
    </comp>
    <comp name="--.HHZ">
      <acc value="0.0160371508" flag="0"/>
      <vel value="0.0074354819" flag="0"/>
      <psa03 value="0.0202033410" flag="0"/>
      <psa10 value="0.0174348061" flag="0"/>
      <psa30 value="0.0009465930" flag="0"/>
    </comp>
  </station>
  <station code="KARO" name="KARO" netid="KO" insttype="CMG-3T" commtype="DIG" lat="39.3089" lon="41.0493">
    <comp name="--.HHZ">
      <acc value="0.0063827460" flag="0"/>
      <vel value="0.0033093914" flag="0"/>
      <psa03 value="0.0128870957" flag="0"/>
      <psa10 value="0.0034560882" flag="0"/>
      <psa30 value="0.0002982731" flag="0"/>
    </comp>
    <comp name="--.HHN">
      <acc value="0.0096064952" flag="0"/>
      <vel value="0.0065317972" flag="0"/>
      <psa03 value="0.0152493828" flag="0"/>
      <psa10 value="0.0072577989" flag="0"/>
      <psa30 value="0.0004956754" flag="0"/>
    </comp>
    <comp name="--.HHE">
      <acc value="0.0092834017" flag="0"/>
      <vel value="0.0080355298" flag="0"/>
      <psa03 value="0.0303276865" flag="0"/>
      <psa10 value="0.0099997679" flag="0"/>
      <psa30 value="0.0007639284" flag="0"/>
    </comp>
  </station>
  <station code="LICE" name="LICE" netid="KO" insttype="CMG-3ESPC" commtype="DIG" lat="38.4532" lon="40.6446">
    <comp name="--.HHE">
      <acc value="0.1385247226" flag="0"/>
      <vel value="0.0303915580" flag="0"/>
      <psa03 value="0.1494627271" flag="0"/>
      <psa10 value="0.0256050495" flag="0"/>
      <psa30 value="0.0012330630" flag="0"/>
    </comp>
    <comp name="--.HHN">
      <acc value="0.1447274170" flag="0"/>
      <vel value="0.0599734743" flag="0"/>
      <psa03 value="0.1884515619" flag="0"/>
      <psa10 value="0.0257401893" flag="0"/>
      <psa30 value="0.0020479901" flag="0"/>
    </comp>
    <comp name="--.HHZ">
      <acc value="0.0960067183" flag="0"/>
      <vel value="0.0410715846" flag="0"/>
      <psa03 value="0.1136418376" flag="0"/>
      <psa10 value="0.0228220500" flag="0"/>
      <psa30 value="0.0015835012" flag="0"/>
    </comp>
  </station>
  <station code="SINE" name="SINE" netid="KO" insttype="CMG-6T" commtype="DIG" lat="39.1636" lon="39.3871">
    <comp name="--.HHN">
      <acc value="0.0052206516" flag="0"/>
      <vel value="0.0031965426" flag="0"/>
      <psa03 value="0.0114633314" flag="0"/>
      <psa10 value="0.0021945345" flag="0"/>
      <psa30 value="0.0000956073" flag="0"/>
    </comp>
    <comp name="--.HHZ">
      <acc value="0.0043527766" flag="0"/>
      <vel value="0.0028250850" flag="0"/>
      <psa03 value="0.0086746411" flag="0"/>
      <psa10 value="0.0016075360" flag="0"/>
      <psa30 value="0.0001091079" flag="0"/>
    </comp>
    <comp name="--.HHE">
      <acc value="0.0062624837" flag="0"/>
      <vel value="0.0024958807" flag="0"/>
      <psa03 value="0.0255188499" flag="0"/>
      <psa10 value="0.0026296247" flag="0"/>
      <psa30 value="0.0000999858" flag="0"/>
    </comp>
  </station>
  <station code="SVAN" name="SVAN" netid="KO" insttype="CMG-3T" commtype="DIG" lat="38.1511" lon="41.1984">
    <comp name="--.HHE">
      <acc value="0.0161373437" flag="0"/>
      <vel value="0.0046346069" flag="0"/>
      <psa03 value="0.0242436209" flag="0"/>
      <psa10 value="0.0027539902" flag="0"/>
      <psa30 value="0.0002018232" flag="0"/>
    </comp>
    <comp name="--.HHZ">
      <acc value="0.0102827269" flag="0"/>
      <vel value="0.0047672330" flag="0"/>
      <psa03 value="0.0205561948" flag="0"/>
      <psa10 value="0.0022068196" flag="0"/>
      <psa30 value="0.0003198988" flag="0"/>
    </comp>
  </station>
  <station code="SVRC" name="SVRC" netid="KO" insttype="CMG-3T" commtype="DIG" lat="38.3775" lon="39.306">
    <comp name="--.HHZ">
      <acc value="0.0222888579" flag="0"/>
      <vel value="0.0064270353" flag="0"/>
      <psa03 value="0.0520743173" flag="0"/>
      <psa10 value="0.0052424682" flag="0"/>
      <psa30 value="0.0002962031" flag="0"/>
    </comp>
  </station>
  <station code="YEDI" name="YEDI" netid="KO" insttype="CMG-3T" commtype="DIG" lat="39.4377" lon="40.5443">
    <comp name="--.HHN">
      <acc value="0.0048270880" flag="0"/>
      <vel value="0.0025550649" flag="0"/>
      <psa03 value="0.0133554602" flag="0"/>
      <psa10 value="0.0038019688" flag="0"/>
      <psa30 value="0.0002158629" flag="0"/>
    </comp>
    <comp name="--.HHZ">
      <acc value="0.0000420540" flag="0"/>
      <vel value="0.0000055083" flag="0"/>
      <psa03 value="0.0000238584" flag="0"/>
      <psa10 value="0.0000042902" flag="0"/>
      <psa30 value="0.0000008662" flag="0"/>
    </comp>
  </station>
</stationlist>
