<?xml version="1.0" encoding="UTF-8" standalone="yes"?>
<!DOCTYPE earthquake SYSTEM "stationlist.dtd">
<stationlist created="" xmlns="ch.ethz.sed.shakemap.usgs.xml">
  <station code="KBS" name="KBS" netid="GE" insttype="" lat="78.9154" lon="11.9385">
    <comp name="00.HH1">
      <acc value="0.0381159213" flag="0"/>
      <vel value="0.0106031898" flag="0"/>
      <psa03 value="0.0728129842" flag="0"/>
      <psa10 value="0.0077465273" flag="0"/>
      <psa30 value="0.0006616638" flag="0"/>
    </comp>
    <comp name="00.HHZ">
      <acc value="0.0351071762" flag="0"/>
      <vel value="0.0091337614" flag="0"/>
      <psa03 value="0.0463898318" flag="0"/>
      <psa10 value="0.0055931017" flag="0"/>
      <psa30 value="0.0005601355" flag="0"/>
    </comp>
    <comp name="00.HH2">
      <acc value="0.0340434243" flag="0"/>
      <vel value="0.0141534742" flag="0"/>
      <psa03 value="0.0712569241" flag="0"/>
      <psa10 value="0.0140822325" flag="0"/>
      <psa30 value="0.0008070479" flag="0"/>
    </comp>
  </station>
</stationlist>
