<stationlist created="1775054405">
	<station code="CMRD" name="CMRD" netid="KO" source="Bogazici University Kandilli Observatory And Earthquake Research Institute (KOERI)" insttype="" lat="37.6623" lon="34.9902">
		<comp name="--.HNE" depth="0.0">
			<acc value="0.0032082533258274" flag="0"/>
			<vel value="0.00236153476937" flag="0"/>
			<psa03 value="0.00499169916516579" flag="0"/>
			<psa10 value="0.00356773931397175" flag="0"/>
			<psa30 value="0.000517267860206547" flag="0"/>
		</comp>
		<comp name="--.HNN" depth="0.0">
			<acc value="0.002918357265837" flag="0"/>
			<vel value="0.00295276732121" flag="0"/>
			<psa03 value="0.00799677258546193" flag="0"/>
			<psa10 value="0.00429077783670756" flag="0"/>
			<psa30 value="0.000367247583558241" flag="0"/>
		</comp>
		<comp name="--.HNZ" depth="0.0">
			<acc value="0.0025153547717184" flag="0"/>
			<vel value="0.00252188128194" flag="0"/>
			<psa03 value="0.00513961977144267" flag="0"/>
			<psa10 value="0.00436328232729161" flag="0"/>
			<psa30 value="0.000722260814982239" flag="0"/>
		</comp>
	</station>
	<station code="KHMN" name="KHMN" netid="KO" source="Bogazici University Kandilli Observatory And Earthquake Research Institute (KOERI)" insttype="" lat="37.3916" lon="37.1574">
		<comp name="--.HNE" depth="0.0">
			<acc value="0.20234482201164" flag="0"/>
			<vel value="0.0718308128461" flag="0"/>
			<psa03 value="0.244410857686706" flag="0"/>
			<psa10 value="0.0310383086356286" flag="0"/>
			<psa30 value="0.00398344180013458" flag="0"/>
		</comp>
		<comp name="--.HNN" depth="0.0">
			<acc value="0.11864572015878" flag="0"/>
			<vel value="0.0432814406675" flag="0"/>
			<psa03 value="0.234913436862256" flag="0"/>
			<psa10 value="0.0210164859890552" flag="0"/>
			<psa30 value="0.00590641377090337" flag="0"/>
		</comp>
		<comp name="--.HNZ" depth="0.0">
			<acc value="0.065540033334126" flag="0"/>
			<vel value="0.0293075004554" flag="0"/>
			<psa03 value="0.0957172470478281" flag="0"/>
			<psa10 value="0.0197036515201959" flag="0"/>
			<psa30 value="0.00394136484607599" flag="0"/>
		</comp>
	</station>
	<station code="KRTS" name="KRTS" netid="KO" source="Bogazici University Kandilli Observatory And Earthquake Research Institute (KOERI)" insttype="" lat="36.573" lon="35.375">
		<comp name="--.HNE" depth="0.0">
			<acc value="0.021162869111778" flag="0"/>
			<vel value="0.0181289575239" flag="0"/>
			<psa03 value="0.0408413435593851" flag="0"/>
			<psa10 value="0.0342161941549574" flag="0"/>
			<psa30 value="0.00279718654988261" flag="0"/>
		</comp>
		<comp name="--.HNN" depth="0.0">
			<acc value="0.017275652344362" flag="0"/>
			<vel value="0.0172206824875" flag="0"/>
			<psa03 value="0.0328971584419563" flag="0"/>
			<psa10 value="0.0225213688051557" flag="0"/>
			<psa30 value="0.00217409506479427" flag="0"/>
		</comp>
		<comp name="--.HNZ" depth="0.0">
			<acc value="0.012643457683368" flag="0"/>
			<vel value="0.00811404124627" flag="0"/>
			<psa03 value="0.0322731066849272" flag="0"/>
			<psa10 value="0.0123690365754519" flag="0"/>
			<psa30 value="0.00162205776586808" flag="0"/>
		</comp>
	</station>
	<station code="NIG" name="NIG" netid="KO" source="Bogazici University Kandilli Observatory And Earthquake Research Institute (KOERI)" insttype="" lat="38.108" lon="34.6142">
		<comp name="--.HNE" depth="0.0">
			<acc value="0.0049618892583114" flag="0"/>
			<vel value="0.00732503122812" flag="0"/>
			<psa03 value="0.0141591827680413" flag="0"/>
			<psa10 value="0.0128446599581897" flag="0"/>
			<psa30 value="0.00192316073329294" flag="0"/>
		</comp>
		<comp name="--.HNN" depth="0.0">
			<acc value="0.0079498682073006" flag="0"/>
			<vel value="0.0117858779861" flag="0"/>
			<psa03 value="0.0168298479677636" flag="0"/>
			<psa10 value="0.0171486372630606" flag="0"/>
			<psa30 value="0.00200015312532753" flag="0"/>
		</comp>
		<comp name="--.HNZ" depth="0.0">
			<acc value="0.003894718034127" flag="0"/>
			<vel value="0.00410579069908" flag="0"/>
			<psa03 value="0.0113047931578938" flag="0"/>
			<psa10 value="0.0084768553000645" flag="0"/>
			<psa30 value="0.000949910947769822" flag="0"/>
		</comp>
	</station>
</stationlist>
