<?xml version="1.0" encoding="UTF-8" standalone="yes"?>
<!DOCTYPE earthquake SYSTEM "stationlist.dtd">
<stationlist created="" xmlns="ch.ethz.sed.shakemap.usgs.xml">
  <station code="CEYT" name="CEYT" netid="KO" insttype="CMG-3ESP" commtype="DIG" lat="37.0105" lon="35.7478">
    <comp name="--.HHZ">
      <acc value="0.0100183859" flag="0"/>
      <vel value="0.0050001352" flag="0"/>
      <psa03 value="0.0215190205" flag="0"/>
      <psa10 value="0.0071343429" flag="0"/>
      <psa30 value="0.0006547655" flag="0"/>
    </comp>
    <comp name="--.HHN">
      <acc value="0.0162257898" flag="0"/>
      <vel value="0.0063610861" flag="0"/>
      <psa03 value="0.0249641950" flag="0"/>
      <psa10 value="0.0083287783" flag="0"/>
      <psa30 value="0.0009694245" flag="0"/>
    </comp>
    <comp name="--.HHE">
      <acc value="0.0195986588" flag="0"/>
      <vel value="0.0071818161" flag="0"/>
      <psa03 value="0.0586306402" flag="0"/>
      <psa10 value="0.0077047956" flag="0"/>
      <psa30 value="0.0008287086" flag="0"/>
    </comp>
  </station>
  <station code="GAZ" name="GAZ" netid="KO" insttype="CMG-3T" commtype="DIG" lat="37.1721" lon="37.2096">
    <comp name="--.HHE">
      <acc value="0.0934154886" flag="0"/>
      <vel value="0.0338294481" flag="0"/>
      <psa03 value="0.2011824943" flag="0"/>
      <psa10 value="0.0492226838" flag="0"/>
      <psa30 value="0.0057163632" flag="0"/>
    </comp>
    <comp name="--.HHZ">
      <acc value="0.0468962945" flag="0"/>
      <vel value="0.0217799866" flag="0"/>
      <psa03 value="0.1021399426" flag="0"/>
      <psa10 value="0.0282281238" flag="0"/>
      <psa30 value="0.0081975968" flag="0"/>
    </comp>
  </station>
  <station code="KHMN" name="KHMN" netid="KO" insttype="CMG-5T" commtype="DIG" lat="37.3916" lon="37.1574">
    <comp name="--.HNZ">
      <acc value="0.0665131559" flag="0"/>
      <vel value="0.0276370950" flag="0"/>
      <psa03 value="0.0952138313" flag="0"/>
      <psa10 value="0.0193667499" flag="0"/>
      <psa30 value="0.0034638080" flag="0"/>
    </comp>
    <comp name="--.HNE">
      <acc value="0.2045483302" flag="0"/>
      <vel value="0.0708375520" flag="0"/>
      <psa03 value="0.2417265161" flag="0"/>
      <psa10 value="0.0307578847" flag="0"/>
      <psa30 value="0.0035725648" flag="0"/>
    </comp>
    <comp name="--.HNN">
      <acc value="0.1197406129" flag="0"/>
      <vel value="0.0435553341" flag="0"/>
      <psa03 value="0.2318246801" flag="0"/>
      <psa10 value="0.0209476037" flag="0"/>
      <psa30 value="0.0052468835" flag="0"/>
    </comp>
  </station>
  <station code="KMRS" name="KMRS" netid="KO" insttype="CMG-3T" commtype="DIG" lat="37.5087" lon="36.9">
    <comp name="--.HHN">
      <acc value="0.1020398283" flag="0"/>
      <vel value="0.0321536534" flag="0"/>
      <psa03 value="0.0724698969" flag="0"/>
      <psa10 value="0.0171241698" flag="0"/>
      <psa30 value="0.0039749443" flag="0"/>
    </comp>
    <comp name="--.HHE">
      <acc value="0.0775309520" flag="0"/>
      <vel value="0.0277443125" flag="0"/>
      <psa03 value="0.0966294138" flag="0"/>
      <psa10 value="0.0167986631" flag="0"/>
      <psa30 value="0.0043582942" flag="0"/>
    </comp>
    <comp name="--.HHZ">
      <acc value="0.0808771071" flag="0"/>
      <vel value="0.0247651182" flag="0"/>
      <psa03 value="0.1237678576" flag="0"/>
      <psa10 value="0.0185905950" flag="0"/>
      <psa30 value="0.0023685106" flag="0"/>
    </comp>
  </station>
  <station code="KOZT" name="KOZT" netid="KO" insttype="CMG-3T" commtype="DIG" lat="37.4795" lon="35.8264">
    <comp name="--.HHZ">
      <acc value="0.0151863047" flag="0"/>
      <vel value="0.0126833110" flag="0"/>
      <psa03 value="0.0507985728" flag="0"/>
      <psa10 value="0.0097774967" flag="0"/>
      <psa30 value="0.0012163789" flag="0"/>
    </comp>
    <comp name="--.HHN">
      <acc value="0.0300132877" flag="0"/>
      <vel value="0.0155407344" flag="0"/>
      <psa03 value="0.0875786511" flag="0"/>
      <psa10 value="0.0120878876" flag="0"/>
      <psa30 value="0.0007955354" flag="0"/>
    </comp>
    <comp name="--.HHE">
      <acc value="0.0423595930" flag="0"/>
      <vel value="0.0284908514" flag="0"/>
      <psa03 value="0.0860560472" flag="0"/>
      <psa10 value="0.0310662978" flag="0"/>
      <psa30 value="0.0021099531" flag="0"/>
    </comp>
  </station>
  <station code="NURH" name="NURH" netid="KO" insttype="CMG-6T" commtype="DIG" lat="37.9693" lon="37.4363">
    <comp name="--.HHE">
      <acc value="0.0357262955" flag="0"/>
      <vel value="0.0131706150" flag="0"/>
      <psa03 value="0.0547473216" flag="0"/>
      <psa10 value="0.0103136016" flag="0"/>
      <psa30 value="0.0006979619" flag="0"/>
    </comp>
    <comp name="--.HHZ">
      <acc value="0.0306755101" flag="0"/>
      <vel value="0.0120025924" flag="0"/>
      <psa03 value="0.0604908681" flag="0"/>
      <psa10 value="0.0076780300" flag="0"/>
      <psa30 value="0.0008330579" flag="0"/>
    </comp>
    <comp name="--.HHN">
      <acc value="0.0544336288" flag="0"/>
      <vel value="0.0188497606" flag="0"/>
      <psa03 value="0.1177490097" flag="0"/>
      <psa10 value="0.0079712753" flag="0"/>
      <psa30 value="0.0007850240" flag="0"/>
    </comp>
  </station>
  <station code="SARI" name="SARI" netid="KO" insttype="CMG-3T" commtype="DIG" lat="38.4072" lon="36.4181">
    <comp name="--.HHN">
      <acc value="0.0624954703" flag="0"/>
      <vel value="0.0290902884" flag="0"/>
      <psa03 value="0.1453865980" flag="0"/>
      <psa10 value="0.0118899827" flag="0"/>
      <psa30 value="0.0014503256" flag="0"/>
    </comp>
    <comp name="--.HHZ">
      <acc value="0.0404444423" flag="0"/>
      <vel value="0.0175440604" flag="0"/>
      <psa03 value="0.1102980988" flag="0"/>
      <psa10 value="0.0150387948" flag="0"/>
      <psa30 value="0.0012163093" flag="0"/>
    </comp>
  </station>
  <station code="TAHT" name="TAHT" netid="KO" insttype="CMG-3ESPC" commtype="DIG" lat="36.3755" lon="36.1855">
    <comp name="--.HHE">
      <acc value="0.3949555236" flag="0"/>
      <vel value="0.0863453760" flag="0"/>
      <psa03 value="0.2435600623" flag="0"/>
      <psa10 value="0.0573420226" flag="0"/>
      <psa30 value="0.0021678075" flag="0"/>
    </comp>
    <comp name="--.HHN">
      <acc value="0.3124596497" flag="0"/>
      <vel value="0.0566848811" flag="0"/>
      <psa03 value="0.2446390920" flag="0"/>
      <psa10 value="0.0310409991" flag="0"/>
      <psa30 value="0.0015017268" flag="0"/>
    </comp>
    <comp name="--.HHZ">
      <acc value="0.1703885100" flag="0"/>
      <vel value="0.0387028163" flag="0"/>
      <psa03 value="0.1149229338" flag="0"/>
      <psa10 value="0.0151521337" flag="0"/>
      <psa30 value="0.0015422856" flag="0"/>
    </comp>
  </station>
  <station code="ANDN" name="ANDN" netid="TU" insttype="T" commtype="DIG" lat="37.58" lon="36.3452">
    <comp name="--.HHN">
      <acc value="0.4842796927" flag="0"/>
      <vel value="0.1065119516" flag="0"/>
      <psa03 value="0.7280220158" flag="0"/>
      <psa10 value="0.0398986568" flag="0"/>
      <psa30 value="0.0051228425" flag="0"/>
    </comp>
    <comp name="--.HHE">
      <acc value="0.2547126379" flag="0"/>
      <vel value="0.0787386755" flag="0"/>
      <psa03 value="0.4012446333" flag="0"/>
      <psa10 value="0.0407124853" flag="0"/>
      <psa30 value="0.0069013317" flag="0"/>
    </comp>
    <comp name="--.HHZ">
      <acc value="0.1333204375" flag="0"/>
      <vel value="0.0384108793" flag="0"/>
      <psa03 value="0.1729503381" flag="0"/>
      <psa10 value="0.0343120825" flag="0"/>
      <psa30 value="0.0048151518" flag="0"/>
    </comp>
  </station>
</stationlist>
