<stationlist xmlns:esm="https://esm-db.eu/esmws/shakemap/1/" created="1784080545">
	<station code="MALA" name="MALA" netid="CL" source="Corinth Riff Laboratory (CRLNET)" insttype="" lat="38.39341" lon="21.87263" esm:processing="automatic (Paolucci et al 2011)" esm:quality="good">
		<comp name="00.HNE" depth="0.0">
			<acc value="0.0205107827787622" flag="0"/>
			<vel value="0.0167763709797283" flag="0"/>
			<psa03 value="0.0454121333307443" flag="0"/>
			<psa10 value="0.0318935265396053" flag="0"/>
			<psa30 value="0.0031437330485515" flag="0"/>
		</comp>
		<comp name="00.HNN" depth="0.0">
			<acc value="0.0312575278951954" flag="0"/>
			<vel value="0.0138818087411716" flag="0"/>
			<psa03 value="0.0551885778472565" flag="0"/>
			<psa10 value="0.0247498208041485" flag="0"/>
			<psa30 value="0.00316129733710215" flag="0"/>
		</comp>
		<comp name="00.HNZ" depth="0.0">
			<acc value="0.0150515727788617" flag="0"/>
			<vel value="0.0062363833070317" flag="0"/>
			<psa03 value="0.019110629266669" flag="0"/>
			<psa10 value="0.00619175861112952" flag="0"/>
			<psa30 value="0.00115924127321321" flag="0"/>
		</comp>
	</station>
	<station code="ROD3" name="ROD3" netid="CL" source="Corinth Riff Laboratory (CRLNET)" insttype="" lat="38.30811" lon="21.89204" esm:processing="automatic (Paolucci et al 2011)" esm:quality="good">
		<comp name="00.HNE" depth="0.0">
			<acc value="0.0490220966551168" flag="0"/>
			<vel value="0.0151457385686189" flag="0"/>
			<psa03 value="0.0776260954726959" flag="0"/>
			<psa10 value="0.0200307706902621" flag="0"/>
			<psa30 value="0.00170229558122831" flag="0"/>
		</comp>
		<comp name="00.HNN" depth="0.0">
			<acc value="0.046532723971386" flag="0"/>
			<vel value="0.018134519366897" flag="0"/>
			<psa03 value="0.0905284137297875" flag="0"/>
			<psa10 value="0.0101901872373794" flag="0"/>
			<psa30 value="0.0021662024586171" flag="0"/>
		</comp>
		<comp name="00.HNZ" depth="0.0">
			<acc value="0.0338725048904811" flag="0"/>
			<vel value="0.0117001735333966" flag="0"/>
			<psa03 value="0.0405615489827267" flag="0"/>
			<psa10 value="0.0112882215392589" flag="0"/>
			<psa30 value="0.00157846789908546" flag="0"/>
		</comp>
	</station>
	<station code="AIGS" name="AIGS" netid="HA" source="Hellenic Seismological Network, University of Athens, Seismological Laboratory (HA)" insttype="" lat="38.25001" lon="22.0878" esm:processing="manual (Paolucci et al 2011)" esm:quality="good">
		<comp name="--.HNE" depth="0.0">
			<acc value="0.0200369694640849" flag="0"/>
			<vel value="0.00750439335801575" flag="0"/>
			<psa03 value="0.0397941491879175" flag="0"/>
			<psa10 value="0.00696141178436588" flag="0"/>
			<psa30 value="0.00133120016464438" flag="0"/>
		</comp>
		<comp name="--.HNN" depth="0.0">
			<acc value="0.0181580081638134" flag="0"/>
			<vel value="0.00932732098134795" flag="0"/>
			<psa03 value="0.0285707937165322" flag="0"/>
			<psa10 value="0.00705804724849111" flag="0"/>
			<psa30 value="0.00189119528240595" flag="0"/>
		</comp>
		<comp name="--.HNZ" depth="0.0">
			<acc value="0.0204648625857443" flag="0"/>
			<vel value="0.00634740420689219" flag="0"/>
			<psa03 value="0.01716716979283" flag="0"/>
			<psa10 value="0.00929993638764396" flag="0"/>
			<psa30 value="0.00127522937352083" flag="0"/>
		</comp>
	</station>
	<station code="ARG2" name="ARG2" netid="HI" source="ITSAK Strong Motion Network" insttype="" lat="38.1783" lon="20.4878" esm:processing="manual (Paolucci et al 2011)" esm:quality="best">
		<comp name="--.HNE" depth="0.0">
			<acc value="0.0259464988165519" flag="0"/>
			<vel value="0.0063594519454637" flag="0"/>
			<psa03 value="0.0432367730781843" flag="0"/>
			<psa10 value="0.00496046720036445" flag="0"/>
			<psa30 value="0.000252410887649193" flag="0"/>
		</comp>
		<comp name="--.HNN" depth="0.0">
			<acc value="0.0267823409730993" flag="0"/>
			<vel value="0.00733039909810966" flag="0"/>
			<psa03 value="0.0333423467876566" flag="0"/>
			<psa10 value="0.0049640219670785" flag="0"/>
			<psa30 value="0.000340151491700248" flag="0"/>
		</comp>
		<comp name="--.HNZ" depth="0.0">
			<acc value="0.0182893615303876" flag="0"/>
			<vel value="0.00418665167853348" flag="0"/>
			<psa03 value="0.0250946077071049" flag="0"/>
			<psa10 value="0.00325638829786907" flag="0"/>
			<psa30 value="0.00022313582331981" flag="0"/>
		</comp>
	</station>
	<station code="ARS1" name="ARS1" netid="HI" source="ITSAK Strong Motion Network" insttype="" lat="37.6349" lon="22.7293" esm:processing="manual (Paolucci et al 2011)" esm:quality="best">
		<comp name="--.HNE" depth="0.0">
			<acc value="0.0612874292951184" flag="0"/>
			<vel value="0.0484369066679551" flag="0"/>
			<psa03 value="0.201679693623318" flag="0"/>
			<psa10 value="0.0467957649895867" flag="0"/>
			<psa30 value="0.0035412837593378" flag="0"/>
		</comp>
		<comp name="--.HNN" depth="0.0">
			<acc value="0.0857490377711768" flag="0"/>
			<vel value="0.0307465434842846" flag="0"/>
			<psa03 value="0.235713969060152" flag="0"/>
			<psa10 value="0.0366350706436382" flag="0"/>
			<psa30 value="0.00224285378638999" flag="0"/>
		</comp>
		<comp name="--.HNZ" depth="0.0">
			<acc value="0.0685487059529157" flag="0"/>
			<vel value="0.0242346988523263" flag="0"/>
			<psa03 value="0.156410757278329" flag="0"/>
			<psa10 value="0.00960927656742262" flag="0"/>
			<psa30 value="0.00111474780490613" flag="0"/>
		</comp>
	</station>
	<station code="ART2" name="ART2" netid="HI" source="ITSAK Strong Motion Network" insttype="" lat="39.1474" lon="20.9937" esm:processing="manual (Paolucci et al 2011)" esm:quality="bad">
		<comp name="--.HNE" depth="0.0">
			<acc value="0.00300567680127015" flag="0"/>
			<vel value="0.00108409740336311" flag="0"/>
			<psa03 value="0.00456559085943178" flag="0"/>
			<psa10 value="0.00206524212465416" flag="0"/>
			<psa30 value="0.000135497374473565" flag="0"/>
		</comp>
		<comp name="--.HNN" depth="0.0">
			<acc value="0.00271933732275443" flag="0"/>
			<vel value="0.00120860500414916" flag="0"/>
			<psa03 value="0.00357514959653297" flag="0"/>
			<psa10 value="0.00254675035033649" flag="0"/>
			<psa30 value="0.000121508374854499" flag="0"/>
		</comp>
		<comp name="--.HNZ" depth="0.0">
			<acc value="0.00175232602628239" flag="0"/>
			<vel value="0.00093539948499528" flag="0"/>
			<psa03 value="0.00289684099004223" flag="0"/>
			<psa10 value="0.00125161189751899" flag="0"/>
			<psa30 value="0.000125250419621442" flag="0"/>
		</comp>
	</station>
	<station code="ATH5" name="ATH5" netid="HI" source="ITSAK Strong Motion Network" insttype="" lat="37.975421" lon="23.737098" esm:processing="manual (Paolucci et al 2011)" esm:quality="good">
		<comp name="--.HNE" depth="0.0">
			<acc value="0.0147139766098553" flag="0"/>
			<vel value="0.00460737406738731" flag="0"/>
			<psa03 value="0.0330211328005064" flag="0"/>
			<psa10 value="0.00414199001149684" flag="0"/>
			<psa30 value="0.000409968069830932" flag="0"/>
		</comp>
		<comp name="--.HNN" depth="0.0">
			<acc value="0.0118514207869605" flag="0"/>
			<vel value="0.00338767892243076" flag="0"/>
			<psa03 value="0.0236164472862145" flag="0"/>
			<psa10 value="0.00296125616868979" flag="0"/>
			<psa30 value="0.000356397359576011" flag="0"/>
		</comp>
		<comp name="--.HNZ" depth="0.0">
			<acc value="0.00781327260338865" flag="0"/>
			<vel value="0.00201222292324201" flag="0"/>
			<psa03 value="0.013950625983418" flag="0"/>
			<psa10 value="0.00205627199917801" flag="0"/>
			<psa30 value="0.000276529803117187" flag="0"/>
		</comp>
	</station>
	<station code="KLV1" name="KLV1" netid="HI" source="ITSAK Strong Motion Network" insttype="" lat="38.03256" lon="22.10797" esm:processing="manual (Paolucci et al 2011)" esm:quality="best">
		<comp name="--.HNE" depth="0.0">
			<acc value="0.0276931643501525" flag="0"/>
			<vel value="0.0187139479359452" flag="0"/>
			<psa03 value="0.0897003276233568" flag="0"/>
			<psa10 value="0.0217505389914597" flag="0"/>
			<psa30 value="0.00131830014341522" flag="0"/>
		</comp>
		<comp name="--.HNN" depth="0.0">
			<acc value="0.0259528770794154" flag="0"/>
			<vel value="0.0183142607268324" flag="0"/>
			<psa03 value="0.113084876734809" flag="0"/>
			<psa10 value="0.0223332919709815" flag="0"/>
			<psa30 value="0.00268764783514403" flag="0"/>
		</comp>
		<comp name="--.HNZ" depth="0.0">
			<acc value="0.0202020674701061" flag="0"/>
			<vel value="0.00903978664410783" flag="0"/>
			<psa03 value="0.0413523357434647" flag="0"/>
			<psa10 value="0.0149234329792146" flag="0"/>
			<psa30 value="0.00158204209419" flag="0"/>
		</comp>
	</station>
	<station code="NPS1" name="NPS1" netid="HI" source="ITSAK Strong Motion Network" insttype="" lat="36.51263" lon="23.06248" esm:processing="manual (Paolucci et al 2011)" esm:quality="best">
		<comp name="--.HNE" depth="0.0">
			<acc value="0.0105841376043204" flag="0"/>
			<vel value="0.00548296533909758" flag="0"/>
			<psa03 value="0.0212775032801567" flag="0"/>
			<psa10 value="0.00688236217271722" flag="0"/>
			<psa30 value="0.000855682257666128" flag="0"/>
		</comp>
		<comp name="--.HNN" depth="0.0">
			<acc value="0.011479164581131" flag="0"/>
			<vel value="0.00585699652948453" flag="0"/>
			<psa03 value="0.0291114102588989" flag="0"/>
			<psa10 value="0.0117754463155136" flag="0"/>
			<psa30 value="0.000816672538048373" flag="0"/>
		</comp>
		<comp name="--.HNZ" depth="0.0">
			<acc value="0.00895673311654303" flag="0"/>
			<vel value="0.00415514566250311" flag="0"/>
			<psa03 value="0.0191851524326279" flag="0"/>
			<psa10 value="0.00425498312176856" flag="0"/>
			<psa30 value="0.000749906031760805" flag="0"/>
		</comp>
	</station>
	<station code="VAS2" name="VAS2" netid="HI" source="ITSAK Strong Motion Network" insttype="" lat="38.630558" lon="20.608081" esm:processing="manual (Paolucci et al 2011)" esm:quality="best">
		<comp name="--.HNE" depth="0.0">
			<acc value="0.0124800928626754" flag="0"/>
			<vel value="0.0115258754174562" flag="0"/>
			<psa03 value="0.0327530473327867" flag="0"/>
			<psa10 value="0.0288793468649969" flag="0"/>
			<psa30 value="0.00130268754665509" flag="0"/>
		</comp>
		<comp name="--.HNN" depth="0.0">
			<acc value="0.0179858756342508" flag="0"/>
			<vel value="0.0137647815344321" flag="0"/>
			<psa03 value="0.0385635025594639" flag="0"/>
			<psa10 value="0.0295438233833232" flag="0"/>
			<psa30 value="0.00216553303926962" flag="0"/>
		</comp>
		<comp name="--.HNZ" depth="0.0">
			<acc value="0.0107694956736755" flag="0"/>
			<vel value="0.00597464371332334" flag="0"/>
			<psa03 value="0.016179601767124" flag="0"/>
			<psa10 value="0.0118653069558359" flag="0"/>
			<psa30 value="0.000577431064472019" flag="0"/>
		</comp>
	</station>
	<station code="ACHA" name="ACHA" netid="HL" source="National Observatory of Athens Seismic Network" insttype="" lat="38.07458" lon="23.74127" esm:processing="manual (Paolucci et al 2011)" esm:quality="good">
		<comp name="00.HNE" depth="0.0">
			<acc value="0.0311000811545537" flag="0"/>
			<vel value="0.0114311074055147" flag="0"/>
			<psa03 value="0.0773742558729066" flag="0"/>
			<psa10 value="0.00679616646265417" flag="0"/>
			<psa30 value="0.000538241749623475" flag="0"/>
		</comp>
		<comp name="00.HNN" depth="0.0">
			<acc value="0.0235851048145673" flag="0"/>
			<vel value="0.0106528391216791" flag="0"/>
			<psa03 value="0.0966505380406686" flag="0"/>
			<psa10 value="0.00562026434617499" flag="0"/>
			<psa30 value="0.000557242018714116" flag="0"/>
		</comp>
		<comp name="00.HNZ" depth="0.0">
			<acc value="0.0196129174002684" flag="0"/>
			<vel value="0.00933662633420337" flag="0"/>
			<psa03 value="0.0795695575508509" flag="0"/>
			<psa10 value="0.00334148495072994" flag="0"/>
			<psa30 value="0.000362290979166178" flag="0"/>
		</comp>
	</station>
	<station code="KIAA" name="KIAA" netid="HL" source="National Observatory of Athens Seismic Network" insttype="" lat="38.0139" lon="22.7495" esm:processing="manual (Paolucci et al 2011)" esm:quality="best">
		<comp name="00.HNE" depth="0.0">
			<acc value="0.0360594115408928" flag="0"/>
			<vel value="0.017652857952892" flag="0"/>
			<psa03 value="0.107880646563528" flag="0"/>
			<psa10 value="0.0340611551343718" flag="0"/>
			<psa30 value="0.00308135641640776" flag="0"/>
		</comp>
		<comp name="00.HNN" depth="0.0">
			<acc value="0.0338361404476613" flag="0"/>
			<vel value="0.015672433038772" flag="0"/>
			<psa03 value="0.121069489009399" flag="0"/>
			<psa10 value="0.037050598170308" flag="0"/>
			<psa30 value="0.00317951666904293" flag="0"/>
		</comp>
		<comp name="00.HNZ" depth="0.0">
			<acc value="0.0253996479596163" flag="0"/>
			<vel value="0.0112892537168595" flag="0"/>
			<psa03 value="0.0580943172131849" flag="0"/>
			<psa10 value="0.0191915719724477" flag="0"/>
			<psa30 value="0.00112500775540956" flag="0"/>
		</comp>
	</station>
	<station code="RIOA" name="RIOA" netid="HL" source="National Observatory of Athens Seismic Network" insttype="" lat="38.29585" lon="21.79118" esm:processing="manual (Paolucci et al 2011)" esm:quality="good">
		<comp name="00.HNE" depth="0.0">
			<acc value="0.018226149195377" flag="0"/>
			<vel value="0.0171607059105076" flag="0"/>
			<psa03 value="0.0355160298460291" flag="0"/>
			<psa10 value="0.0331850895993108" flag="0"/>
			<psa30 value="0.00306380567042374" flag="0"/>
		</comp>
		<comp name="00.HNN" depth="0.0">
			<acc value="0.024995777502255" flag="0"/>
			<vel value="0.0194336016770051" flag="0"/>
			<psa03 value="0.0415346863649724" flag="0"/>
			<psa10 value="0.019552975913683" flag="0"/>
			<psa30 value="0.00459717704041276" flag="0"/>
		</comp>
		<comp name="00.HNZ" depth="0.0">
			<acc value="0.0454229689919454" flag="0"/>
			<vel value="0.0191487337332244" flag="0"/>
			<psa03 value="0.03812643193902" flag="0"/>
			<psa10 value="0.0148016117841282" flag="0"/>
			<psa30 value="0.00764320382474362" flag="0"/>
		</comp>
	</station>
	<station code="VELA" name="VELA" netid="HL" source="National Observatory of Athens Seismic Network" insttype="" lat="37.974944" lon="22.766063" esm:processing="manual (Paolucci et al 2011)" esm:quality="best">
		<comp name="00.HNE" depth="0.0">
			<acc value="0.0541569070247834" flag="0"/>
			<vel value="0.0179775374782665" flag="0"/>
			<psa03 value="0.115986193932711" flag="0"/>
			<psa10 value="0.0238572241740194" flag="0"/>
			<psa30 value="0.00407499744858389" flag="0"/>
		</comp>
		<comp name="00.HNN" depth="0.0">
			<acc value="0.0615028793661445" flag="0"/>
			<vel value="0.0225247663977233" flag="0"/>
			<psa03 value="0.15127085428487" flag="0"/>
			<psa10 value="0.0255610089163969" flag="0"/>
			<psa30 value="0.00285656881699823" flag="0"/>
		</comp>
		<comp name="00.HNZ" depth="0.0">
			<acc value="0.041438789947056" flag="0"/>
			<vel value="0.010829484855257" flag="0"/>
			<psa03 value="0.0537160688427165" flag="0"/>
			<psa10 value="0.016515638454978" flag="0"/>
			<psa30 value="0.00096328475038873" flag="0"/>
		</comp>
	</station>
	<station code="ZARA" name="ZARA" netid="HL" source="National Observatory of Athens Seismic Network" insttype="" lat="37.4865" lon="21.6491" esm:processing="manual (Paolucci et al 2011)" esm:quality="best">
		<comp name="00.HNE" depth="0.0">
			<acc value="0.0892387885285198" flag="0"/>
			<vel value="0.0474921510581783" flag="0"/>
			<psa03 value="0.186431975203287" flag="0"/>
			<psa10 value="0.0409477700886151" flag="0"/>
			<psa30 value="0.00597534917090938" flag="0"/>
		</comp>
		<comp name="00.HNN" depth="0.0">
			<acc value="0.0997452967641935" flag="0"/>
			<vel value="0.049413268799619" flag="0"/>
			<psa03 value="0.286436891704802" flag="0"/>
			<psa10 value="0.0425765254857031" flag="0"/>
			<psa30 value="0.00308185186589498" flag="0"/>
		</comp>
		<comp name="00.HNZ" depth="0.0">
			<acc value="0.0437076284202833" flag="0"/>
			<vel value="0.0220793774579267" flag="0"/>
			<psa03 value="0.129313722649694" flag="0"/>
			<psa10 value="0.0264005939097792" flag="0"/>
			<psa30 value="0.00196240791656165" flag="0"/>
		</comp>
	</station>
	<station code="DSF" name="DSF" netid="HP" source="University of Patras, Seismological Laboratory (PSLNET)" insttype="" lat="38.4112" lon="22.5271" esm:processing="manual (Paolucci et al 2011)" esm:quality="best">
		<comp name="--.HNE" depth="1.0">
			<acc value="0.0225773365705198" flag="0"/>
			<vel value="0.00605599414706561" flag="0"/>
			<psa03 value="0.0441935942753792" flag="0"/>
			<psa10 value="0.0034000666439779" flag="0"/>
			<psa30 value="0.000226704601400378" flag="0"/>
		</comp>
		<comp name="--.HNN" depth="1.0">
			<acc value="0.0288957511302944" flag="0"/>
			<vel value="0.00732117378683777" flag="0"/>
			<psa03 value="0.0467678325141998" flag="0"/>
			<psa10 value="0.0030598248858825" flag="0"/>
			<psa30 value="0.000232949806781229" flag="0"/>
		</comp>
		<comp name="--.HNZ" depth="1.0">
			<acc value="0.0109873285094039" flag="0"/>
			<vel value="0.00333199114496275" flag="0"/>
			<psa03 value="0.0226302465385914" flag="0"/>
			<psa10 value="0.00153903152359741" flag="0"/>
			<psa30 value="0.000131758012175955" flag="0"/>
		</comp>
	</station>
	<station code="FSK" name="FSK" netid="HP" source="University of Patras, Seismological Laboratory (PSLNET)" insttype="" lat="38.4593" lon="20.5623" esm:processing="manual (Paolucci et al 2011)" esm:quality="good">
		<comp name="--.HNE" depth="0.0">
			<acc value="0.0119232639724485" flag="0"/>
			<vel value="0.00257305838592299" flag="0"/>
			<psa03 value="0.00699911925623886" flag="0"/>
			<psa10 value="0.00411625486920079" flag="0"/>
			<psa30 value="0.000280356619125134" flag="0"/>
		</comp>
		<comp name="--.HNN" depth="0.0">
			<acc value="0.00594491360186794" flag="0"/>
			<vel value="0.00162005417069832" flag="0"/>
			<psa03 value="0.00586571865320299" flag="0"/>
			<psa10 value="0.00328468181279846" flag="0"/>
			<psa30 value="0.000281860026009882" flag="0"/>
		</comp>
		<comp name="--.HNZ" depth="0.0">
			<acc value="0.00426184784251146" flag="0"/>
			<vel value="0.00139737374281706" flag="0"/>
			<psa03 value="0.00330510924674685" flag="0"/>
			<psa10 value="0.00224274747726369" flag="0"/>
			<psa30 value="0.000164937697146189" flag="0"/>
		</comp>
	</station>
	<station code="GUR" name="GUR" netid="HP" source="University of Patras, Seismological Laboratory (PSLNET)" insttype="" lat="37.9363" lon="22.3423" esm:processing="manual (Paolucci et al 2011)" esm:quality="good">
		<comp name="--.HNE" depth="0.0">
			<acc value="0.0541197289551344" flag="0"/>
			<vel value="0.051246984811025" flag="0"/>
			<psa03 value="0.141785236326116" flag="0"/>
			<psa10 value="0.0627625189588604" flag="0"/>
			<psa30 value="0.00855438251917104" flag="0"/>
		</comp>
		<comp name="--.HNN" depth="0.0">
			<acc value="0.0719241570907309" flag="0"/>
			<vel value="0.160864502642927" flag="0"/>
			<psa03 value="0.150313572119951" flag="0"/>
			<psa10 value="0.103070005382174" flag="0"/>
			<psa30 value="0.0360057252025719" flag="0"/>
		</comp>
		<comp name="--.HNZ" depth="0.0">
			<acc value="0.0341739250300697" flag="0"/>
			<vel value="0.0284042855305221" flag="0"/>
			<psa03 value="0.112692861182429" flag="0"/>
			<psa10 value="0.0212386844585996" flag="0"/>
			<psa30 value="0.00553160102476015" flag="0"/>
		</comp>
	</station>
	<station code="LTHK" name="LTHK" netid="HP" source="University of Patras, Seismological Laboratory (PSLNET)" insttype="" lat="37.7095" lon="20.8367" esm:processing="manual (Paolucci et al 2011)" esm:quality="best">
		<comp name="--.HNE" depth="0.0">
			<acc value="0.0227417846069163" flag="0"/>
			<vel value="0.00772280218703878" flag="0"/>
			<psa03 value="0.0436014743211995" flag="0"/>
			<psa10 value="0.00683664242526823" flag="0"/>
			<psa30 value="0.000438328464192893" flag="0"/>
		</comp>
		<comp name="--.HNN" depth="0.0">
			<acc value="0.0268374873032129" flag="0"/>
			<vel value="0.0100359260172293" flag="0"/>
			<psa03 value="0.0357599548589943" flag="0"/>
			<psa10 value="0.00697166777627532" flag="0"/>
			<psa30 value="0.000433913822786278" flag="0"/>
		</comp>
