<?xml version="1.0" encoding="UTF-8" standalone="yes"?>
<!DOCTYPE earthquake SYSTEM "stationlist.dtd">
<stationlist created="" xmlns="ch.ethz.sed.shakemap.usgs.xml">
  <station code="PSAM" name="PSAM" netid="CL" insttype="CMG40-T" lat="38.3218" lon="22.1842">
    <comp name="00.HHN">
      <acc value="0.0120402075" flag="0"/>
      <vel value="0.0067082358" flag="0"/>
      <psa03 value="0.0316928340" flag="0"/>
      <psa10 value="0.0082413896" flag="0"/>
      <psa30 value="0.0005310624" flag="0"/>
    </comp>
    <comp name="00.HHE">
      <acc value="0.0128706585" flag="0"/>
      <vel value="0.0071152840" flag="0"/>
      <psa03 value="0.0299025160" flag="0"/>
      <psa10 value="0.0102367758" flag="0"/>
      <psa30 value="0.0008355166" flag="0"/>
    </comp>
    <comp name="00.HHZ">
      <acc value="0.0135221608" flag="0"/>
      <vel value="0.0028641202" flag="0"/>
      <psa03 value="0.0110106543" flag="0"/>
      <psa10 value="0.0027821118" flag="0"/>
      <psa30 value="0.0004251249" flag="0"/>
    </comp>
  </station>
  <station code="ROD3" name="ROD3" netid="CL" insttype="CMG40-T" lat="38.3081" lon="21.892">
    <comp name="00.HHE">
      <acc value="0.0627359503" flag="0"/>
      <vel value="0.0195507463" flag="0"/>
      <psa03 value="0.0978050385" flag="0"/>
      <psa10 value="0.0253393450" flag="0"/>
      <psa30 value="0.0017542971" flag="0"/>
    </comp>
    <comp name="00.HHZ">
      <acc value="0.0464300028" flag="0"/>
      <vel value="0.0142979016" flag="0"/>
      <psa03 value="0.0501146031" flag="0"/>
      <psa10 value="0.0145372480" flag="0"/>
      <psa30 value="0.0020960823" flag="0"/>
    </comp>
    <comp name="00.HHN">
      <acc value="0.0581214083" flag="0"/>
      <vel value="0.0197337430" flag="0"/>
      <psa03 value="0.1092541447" flag="0"/>
      <psa10 value="0.0117549876" flag="0"/>
      <psa30 value="0.0021124682" flag="0"/>
    </comp>
  </station>
  <station code="TRIZ" name="TRIZ" netid="CL" insttype="STS-2" lat="38.3654" lon="22.0727">
    <comp name="00.HH3">
      <acc value="0.0119579039" flag="0"/>
      <vel value="0.0072003720" flag="0"/>
      <psa03 value="0.0435886860" flag="0"/>
      <psa10 value="0.0057778841" flag="0"/>
      <psa30 value="0.0008211396" flag="0"/>
    </comp>
    <comp name="00.HH2">
      <acc value="0.0109422542" flag="0"/>
      <vel value="0.0070380281" flag="0"/>
      <psa03 value="0.0467057915" flag="0"/>
      <psa10 value="0.0047775924" flag="0"/>
      <psa30 value="0.0010139594" flag="0"/>
    </comp>
    <comp name="00.HHZ">
      <acc value="0.0138458842" flag="0"/>
      <vel value="0.0043589727" flag="0"/>
      <psa03 value="0.0149189501" flag="0"/>
      <psa10 value="0.0056412311" flag="0"/>
      <psa30 value="0.0005507008" flag="0"/>
    </comp>
  </station>
  <station code="ZIRI" name="ZIRI" netid="CL" insttype="TRILLIUM-40" lat="38.3051" lon="21.9476">
    <comp name="01.HHE">
      <acc value="0.0319357482" flag="0"/>
      <vel value="0.0201917412" flag="0"/>
      <psa03 value="0.0663072128" flag="0"/>
      <psa10 value="0.0189396412" flag="0"/>
      <psa30 value="0.0017894949" flag="0"/>
    </comp>
    <comp name="01.HHN">
      <acc value="0.0344536511" flag="0"/>
      <vel value="0.0234481568" flag="0"/>
      <psa03 value="0.0828980939" flag="0"/>
      <psa10 value="0.0145378228" flag="0"/>
      <psa30 value="0.0013496721" flag="0"/>
    </comp>
    <comp name="01.HHZ">
      <acc value="0.0385853057" flag="0"/>
      <vel value="0.0150691095" flag="0"/>
      <psa03 value="0.0523489067" flag="0"/>
      <psa10 value="0.0121560567" flag="0"/>
      <psa30 value="0.0012537451" flag="0"/>
    </comp>
  </station>
  <station code="ACOR" name="ACOR" netid="HA" insttype="Horizon,120s,1200" lat="37.8905" lon="22.8694">
    <comp name="--.HHE">
      <acc value="0.0185278363" flag="0"/>
      <vel value="0.0057479052" flag="0"/>
      <psa03 value="0.0224271558" flag="0"/>
      <psa10 value="0.0061372498" flag="0"/>
      <psa30 value="0.0006530695" flag="0"/>
    </comp>
    <comp name="--.HHN">
      <acc value="0.0188194555" flag="0"/>
      <vel value="0.0068810951" flag="0"/>
      <psa03 value="0.0276433251" flag="0"/>
      <psa10 value="0.0047354703" flag="0"/>
      <psa30 value="0.0008934049" flag="0"/>
    </comp>
    <comp name="--.HHZ">
      <acc value="0.0145640873" flag="0"/>
      <vel value="0.0045328486" flag="0"/>
      <psa03 value="0.0438061860" flag="0"/>
      <psa10 value="0.0038565733" flag="0"/>
      <psa30 value="0.0003145293" flag="0"/>
    </comp>
  </station>
  <station code="DOMV" name="DOMV" netid="HA" insttype="60" lat="38.2569" lon="22.9795">
    <comp name="--.HHN">
      <acc value="0.0280087076" flag="0"/>
      <vel value="0.0079676587" flag="0"/>
      <psa03 value="0.0519660291" flag="0"/>
      <psa10 value="0.0032618881" flag="0"/>
      <psa30 value="0.0002131762" flag="0"/>
    </comp>
    <comp name="--.HHE">
      <acc value="0.0234246865" flag="0"/>
      <vel value="0.0066419287" flag="0"/>
      <psa03 value="0.0445865540" flag="0"/>
      <psa10 value="0.0020274472" flag="0"/>
      <psa30 value="0.0002130387" flag="0"/>
    </comp>
    <comp name="--.HHZ">
      <acc value="0.0143513849" flag="0"/>
      <vel value="0.0049675841" flag="0"/>
      <psa03 value="0.0293225523" flag="0"/>
      <psa10 value="0.0019293672" flag="0"/>
      <psa30 value="0.0001557648" flag="0"/>
    </comp>
  </station>
  <station code="EPID" name="EPID" netid="HA" insttype="30" lat="37.6144" lon="23.1189">
    <comp name="--.HHN">
      <acc value="0.0557903445" flag="0"/>
      <vel value="0.0143472828" flag="0"/>
      <psa03 value="0.0694711935" flag="0"/>
      <psa10 value="0.0052196983" flag="0"/>
      <psa30 value="0.0007921896" flag="0"/>
    </comp>
    <comp name="--.HHZ">
      <acc value="0.0365950085" flag="0"/>
      <vel value="0.0103460354" flag="0"/>
      <psa03 value="0.0338414562" flag="0"/>
      <psa10 value="0.0045797398" flag="0"/>
      <psa30 value="0.0007136380" flag="0"/>
    </comp>
    <comp name="--.HHE">
      <acc value="0.0556786186" flag="0"/>
      <vel value="0.0127574859" flag="0"/>
      <psa03 value="0.0975487770" flag="0"/>
      <psa10 value="0.0055070543" flag="0"/>
      <psa30 value="0.0009591408" flag="0"/>
    </comp>
  </station>
  <station code="KALE" name="KALE" netid="HA" insttype="40," lat="38.3911" lon="22.1398">
    <comp name="--.HHE">
      <acc value="0.0197928610" flag="0"/>
      <vel value="0.0075234757" flag="0"/>
      <psa03 value="0.0527181799" flag="0"/>
      <psa10 value="0.0115492912" flag="0"/>
      <psa30 value="0.0004250322" flag="0"/>
    </comp>
    <comp name="--.HHN">
      <acc value="0.0203220348" flag="0"/>
      <vel value="0.0055526947" flag="0"/>
      <psa03 value="0.0470335394" flag="0"/>
      <psa10 value="0.0066949810" flag="0"/>
      <psa30 value="0.0005208865" flag="0"/>
    </comp>
    <comp name="--.HHZ">
      <acc value="0.0169978627" flag="0"/>
      <vel value="0.0044408550" flag="0"/>
      <psa03 value="0.0184657058" flag="0"/>
      <psa10 value="0.0023704466" flag="0"/>
      <psa30 value="0.0004899948" flag="0"/>
    </comp>
  </station>
  <station code="LAKA" name="LAKA" netid="HA" insttype="120s," lat="38.2401" lon="21.9785">
    <comp name="--.HHE">
      <acc value="0.0066046697" flag="0"/>
      <vel value="0.0076099777" flag="0"/>
      <psa03 value="0.0128670448" flag="0"/>
      <psa10 value="0.0081212363" flag="0"/>
      <psa30 value="0.0012836991" flag="0"/>
    </comp>
    <comp name="--.HHN">
      <acc value="0.0064912792" flag="0"/>
      <vel value="0.0055029807" flag="0"/>
      <psa03 value="0.0132098691" flag="0"/>
      <psa10 value="0.0071144193" flag="0"/>
      <psa30 value="0.0008215215" flag="0"/>
    </comp>
    <comp name="--.HHZ">
      <acc value="0.0059536601" flag="0"/>
      <vel value="0.0039686135" flag="0"/>
      <psa03 value="0.0070428148" flag="0"/>
      <psa10 value="0.0046038666" flag="0"/>
      <psa30 value="0.0011969478" flag="0"/>
    </comp>
  </station>
  <station code="LOUT" name="LOUT" netid="HA" insttype="30" lat="37.9879" lon="22.9743">
    <comp name="--.HHE">
      <acc value="0.0435808615" flag="0"/>
      <vel value="0.0138905172" flag="0"/>
      <psa03 value="0.0779305008" flag="0"/>
      <psa10 value="0.0095433943" flag="0"/>
      <psa30 value="0.0006180793" flag="0"/>
    </comp>
    <comp name="--.HHN">
      <acc value="0.0362738309" flag="0"/>
      <vel value="0.0123689788" flag="0"/>
      <psa03 value="0.0809046922" flag="0"/>
      <psa10 value="0.0146793858" flag="0"/>
      <psa30 value="0.0008386101" flag="0"/>
    </comp>
    <comp name="--.HHZ">
      <acc value="0.0196322926" flag="0"/>
      <vel value="0.0052549056" flag="0"/>
      <psa03 value="0.0287728921" flag="0"/>
      <psa10 value="0.0029210915" flag="0"/>
      <psa30 value="0.0002859895" flag="0"/>
    </comp>
  </station>
  <station code="THAL" name="THAL" netid="HA" insttype="30" lat="38.0357" lon="22.6634">
    <comp name="--.HHN">
      <acc value="0.0523189621" flag="0"/>
      <vel value="0.0161951525" flag="0"/>
      <psa03 value="0.1421891844" flag="0"/>
      <psa10 value="0.0127452087" flag="0"/>
      <psa30 value="0.0012377443" flag="0"/>
    </comp>
    <comp name="--.HHZ">
      <acc value="0.0454470248" flag="0"/>
      <vel value="0.0181344478" flag="0"/>
      <psa03 value="0.0874831493" flag="0"/>
      <psa10 value="0.0121255698" flag="0"/>
      <psa30 value="0.0005036537" flag="0"/>
    </comp>
    <comp name="--.HHE">
      <acc value="0.0864672804" flag="0"/>
      <vel value="0.0261697770" flag="0"/>
      <psa03 value="0.1522919445" flag="0"/>
      <psa10 value="0.0176447247" flag="0"/>
      <psa30 value="0.0018188687" flag="0"/>
    </comp>
  </station>
  <station code="ARS1" name="ARS1" netid="HI" insttype="CMG-5TD,ACCELEROMETER,GURALP" lat="37.6349" lon="22.7293">
    <comp name="--.HNZ">
      <acc value="0.0688519050" flag="0"/>
      <vel value="0.0240667330" flag="0"/>
      <psa03 value="0.1534916168" flag="0"/>
      <psa10 value="0.0095878410" flag="0"/>
      <psa30 value="0.0010158228" flag="0"/>
    </comp>
    <comp name="--.HNE">
      <acc value="0.0623344468" flag="0"/>
      <vel value="0.0483574368" flag="0"/>
      <psa03 value="0.2007325894" flag="0"/>
      <psa10 value="0.0466928059" flag="0"/>
      <psa30 value="0.0036197519" flag="0"/>
    </comp>
    <comp name="--.HNN">
      <acc value="0.0856112666" flag="0"/>
      <vel value="0.0310000577" flag="0"/>
      <psa03 value="0.2355198140" flag="0"/>
      <psa10 value="0.0364990380" flag="0"/>
      <psa30 value="0.0022231818" flag="0"/>
    </comp>
  </station>
  <station code="KLV1" name="KLV1" netid="HI" insttype="CMG-5TD,ACCELEROMETER,GURALP" lat="38.0326" lon="22.108">
    <comp name="--.HNE">
      <acc value="0.0276339444" flag="0"/>
      <vel value="0.0183422859" flag="0"/>
      <psa03 value="0.0872219972" flag="0"/>
      <psa10 value="0.0217500578" flag="0"/>
      <psa30 value="0.0012641344" flag="0"/>
    </comp>
    <comp name="--.HNN">
      <acc value="0.0257179946" flag="0"/>
      <vel value="0.0182111764" flag="0"/>
      <psa03 value="0.1130536346" flag="0"/>
      <psa10 value="0.0223514816" flag="0"/>
      <psa30 value="0.0025928957" flag="0"/>
    </comp>
    <comp name="--.HNZ">
      <acc value="0.0213817955" flag="0"/>
      <vel value="0.0091717797" flag="0"/>
      <psa03 value="0.0404932799" flag="0"/>
      <psa10 value="0.0149236021" flag="0"/>
      <psa30 value="0.0014490035" flag="0"/>
    </comp>
  </station>
  <station code="MSL1" name="MSL1" netid="HI" insttype="CMG-5TD,ACCELEROMETER,GURALP" lat="38.3727" lon="21.4243">
    <comp name="--.HNE">
      <acc value="0.0135912632" flag="0"/>
      <vel value="0.0105375717" flag="0"/>
      <psa03 value="0.0338835770" flag="0"/>
      <psa10 value="0.0251200930" flag="0"/>
      <psa30 value="0.0017601995" flag="0"/>
    </comp>
    <comp name="--.HNN">
      <acc value="0.0131968058" flag="0"/>
      <vel value="0.0108151486" flag="0"/>
      <psa03 value="0.0379226028" flag="0"/>
      <psa10 value="0.0248649670" flag="0"/>
      <psa30 value="0.0014613112" flag="0"/>
    </comp>
    <comp name="--.HNZ">
      <acc value="0.0162224066" flag="0"/>
      <vel value="0.0056553591" flag="0"/>
      <psa03 value="0.0138402432" flag="0"/>
      <psa10 value="0.0111035558" flag="0"/>
      <psa30 value="0.0006787747" flag="0"/>
    </comp>
  </station>
  <station code="ITM" name="ITM" netid="HL" insttype="DR24" lat="37.1787" lon="21.9252">
    <comp name="--.HHE">
      <acc value="0.0542975352" flag="0"/>
      <vel value="0.0340985917" flag="0"/>
      <psa03 value="0.1329648014" flag="0"/>
      <psa10 value="0.0201811518" flag="0"/>
      <psa30 value="0.0024997049" flag="0"/>
    </comp>
    <comp name="--.HHN">
      <acc value="0.0666442170" flag="0"/>
      <vel value="0.0188283565" flag="0"/>
      <psa03 value="0.1023126921" flag="0"/>
      <psa10 value="0.0144291562" flag="0"/>
      <psa30 value="0.0021146404" flag="0"/>
    </comp>
    <comp name="--.HHZ">
      <acc value="0.0659872960" flag="0"/>
      <vel value="0.0153713403" flag="0"/>
      <psa03 value="0.0410195889" flag="0"/>
      <psa10 value="0.0155473439" flag="0"/>
      <psa30 value="0.0013351436" flag="0"/>
    </comp>
  </station>
  <station code="KLV" name="KLV" netid="HL" insttype="120" lat="38.0435" lon="22.1504">
    <comp name="--.HHN">
      <acc value="0.0102180109" flag="0"/>
      <vel value="0.0081039645" flag="0"/>
      <psa03 value="0.0252549541" flag="0"/>
      <psa10 value="0.0131994178" flag="0"/>
      <psa30 value="0.0010595157" flag="0"/>
    </comp>
    <comp name="--.HHZ">
      <acc value="0.0082409086" flag="0"/>
      <vel value="0.0067084760" flag="0"/>
      <psa03 value="0.0230307335" flag="0"/>
      <psa10 value="0.0142952371" flag="0"/>
      <psa30 value="0.0007018700" flag="0"/>
    </comp>
    <comp name="--.HHE">
      <acc value="0.0089640880" flag="0"/>
      <vel value="0.0053785431" flag="0"/>
      <psa03 value="0.0281744862" flag="0"/>
      <psa10 value="0.0045174881" flag="0"/>
      <psa30 value="0.0009935396" flag="0"/>
    </comp>
  </station>
  <station code="PATC" name="PATC" netid="HL" insttype="CMG-5" lat="38.2693" lon="21.76">
    <comp name="00.HNN">
      <acc value="0.0249060515" flag="0"/>
      <vel value="0.0240930813" flag="0"/>
      <psa03 value="0.0867539718" flag="0"/>
      <psa10 value="0.0367752443" flag="0"/>
      <psa30 value="0.0052806461" flag="0"/>
    </comp>
    <comp name="00.HNZ">
      <acc value="0.0258457644" flag="0"/>
      <vel value="0.0182873285" flag="0"/>
      <psa03 value="0.0451010507" flag="0"/>
      <psa10 value="0.0191875947" flag="0"/>
      <psa30 value="0.0042156942" flag="0"/>
    </comp>
    <comp name="00.HNE">
      <acc value="0.0293899850" flag="0"/>
      <vel value="0.0248004919" flag="0"/>
      <psa03 value="0.0611568994" flag="0"/>
      <psa10 value="0.0366128147" flag="0"/>
      <psa30 value="0.0071072725" flag="0"/>
    </comp>
  </station>
  <station code="PATG" name="PATG" netid="HL" insttype="CMG-5" lat="38.2386" lon="21.7266">
    <comp name="00.HNE">
      <acc value="0.0299035978" flag="0"/>
      <vel value="0.0279538385" flag="0"/>
      <psa03 value="0.0708561638" flag="0"/>
      <psa10 value="0.0399619117" flag="0"/>
      <psa30 value="0.0097833693" flag="0"/>
    </comp>
    <comp name="00.HNN">
      <acc value="0.0406182488" flag="0"/>
      <vel value="0.0345106129" flag="0"/>
      <psa03 value="0.1175594287" flag="0"/>
      <psa10 value="0.0579816001" flag="0"/>
      <psa30 value="0.0091091126" flag="0"/>
    </comp>
    <comp name="00.HNZ">
      <acc value="0.0728646032" flag="0"/>
      <vel value="0.0185005093" flag="0"/>
      <psa03 value="0.0452993024" flag="0"/>
      <psa10 value="0.0284079707" flag="0"/>
      <psa30 value="0.0040082564" flag="0"/>
    </comp>
  </station>
  <station code="RIOA" name="RIOA" netid="HL" insttype="CMG-5" lat="38.2959" lon="21.7912">
    <comp name="00.HNN">
      <acc value="0.0274316513" flag="0"/>
      <vel value="0.0184655956" flag="0"/>
      <psa03 value="0.0415439592" flag="0"/>
      <psa10 value="0.0193657531" flag="0"/>
      <psa30 value="0.0040866115" flag="0"/>
    </comp>
    <comp name="00.HNE">
      <acc value="0.0185906708" flag="0"/>
      <vel value="0.0171931632" flag="0"/>
      <psa03 value="0.0353743339" flag="0"/>
      <psa10 value="0.0331665859" flag="0"/>
      <psa30 value="0.0027834144" flag="0"/>
    </comp>
    <comp name="00.HNZ">
      <acc value="0.0461338163" flag="0"/>
      <vel value="0.0182361855" flag="0"/>
      <psa03 value="0.0379283492" flag="0"/>
      <psa10 value="0.0148395854" flag="0"/>
      <psa30 value="0.0069092907" flag="0"/>
    </comp>
  </station>
  <station code="RLS" name="RLS" netid="HL" insttype="CMG3ESPC-120s" lat="38.0559" lon="21.4647">
    <comp name="--.HHE">
      <acc value="0.0121126875" flag="0"/>
      <vel value="0.0087491201" flag="0"/>
      <psa03 value="0.0225277649" flag="0"/>
      <psa10 value="0.0173090946" flag="0"/>
      <psa30 value="0.0012702227" flag="0"/>
    </comp>
    <comp name="--.HHN">
      <acc value="0.0128028775" flag="0"/>
      <vel value="0.0107489455" flag="0"/>
      <psa03 value="0.0244771976" flag="0"/>
      <psa10 value="0.0172654173" flag="0"/>
      <psa30 value="0.0012319964" flag="0"/>
    </comp>
    <comp name="--.HHZ">
      <acc value="0.0140001474" flag="0"/>
      <vel value="0.0050547917" flag="0"/>
      <psa03 value="0.0140362716" flag="0"/>
      <psa10 value="0.0058195634" flag="0"/>
      <psa30 value="0.0008846835" flag="0"/>
    </comp>
  </station>
  <station code="VLI" name="VLI" netid="HL" insttype="60" lat="36.718" lon="22.9469">
    <comp name="--.HHE">
      <acc value="0.0197890774" flag="0"/>
      <vel value="0.0105479091" flag="0"/>
      <psa03 value="0.0314024565" flag="0"/>
      <psa10 value="0.0163672125" flag="0"/>
      <psa30 value="0.0018536289" flag="0"/>
    </comp>
    <comp name="--.HHN">
      <acc value="0.0186014860" flag="0"/>
      <vel value="0.0141136253" flag="0"/>
      <psa03 value="0.0351101928" flag="0"/>
      <psa10 value="0.0354631283" flag="0"/>
      <psa30 value="0.0024398877" flag="0"/>
    </comp>
    <comp name="--.HHZ">
      <acc value="0.0146768792" flag="0"/>
      <vel value="0.0091589312" flag="0"/>
      <psa03 value="0.0450349191" flag="0"/>
      <psa10 value="0.0093488116" flag="0"/>
      <psa30 value="0.0020344597" flag="0"/>
    </comp>
  </station>
  <station code="AXS" name="AXS" netid="HP" insttype="Compact," lat="38.1962" lon="21.3763">
    <comp name="--.HHN">
      <acc value="0.0075121872" flag="0"/>
      <vel value="0.0041600410" flag="0"/>
      <psa03 value="0.0163215343" flag="0"/>
      <psa10 value="0.0060389569" flag="0"/>
      <psa30 value="0.0003421956" flag="0"/>
    </comp>
    <comp name="--.HHE">
      <acc value="0.0071489212" flag="0"/>
      <vel value="0.0036758596" flag="0"/>
      <psa03 value="0.0093684104" flag="0"/>
      <psa10 value="0.0034811365" flag="0"/>
      <psa30 value="0.0005001562" flag="0"/>
    </comp>
    <comp name="--.HHZ">
      <acc value="0.0097423653" flag="0"/>
      <vel value="0.0025865849" flag="0"/>
      <psa03 value="0.0057602157" flag="0"/>
      <psa10 value="0.0027408621" flag="0"/>
      <psa30 value="0.0003483611" flag="0"/>
    </comp>
  </station>
  <station code="DRO" name="DRO" netid="HP" insttype="120P," lat="37.952" lon="21.71">
    <comp name="--.HHE">
      <acc value="0.0578652814" flag="0"/>
      <vel value="0.0335030895" flag="0"/>
      <psa03 value="0.1288896877" flag="0"/>
      <psa10 value="0.0282913143" flag="0"/>
      <psa30 value="0.0029192549" flag="0"/>
    </comp>
    <comp name="--.HHN">
      <acc value="0.0490613111" flag="0"/>
