<?xml version="1.0" encoding="UTF-8" standalone="yes"?>
<!DOCTYPE earthquake SYSTEM "stationlist.dtd">
<stationlist created="" xmlns="ch.ethz.sed.shakemap.usgs.xml">
  <station code="PSAM" name="PSAM" netid="CL" insttype="CMG40-T" lat="38.3218" lon="22.1842">
    <comp name="00.HHN">
      <acc value="0.0120402075" flag="0"/>
      <vel value="0.0067082358" flag="0"/>
      <psa03 value="0.0316928340" flag="0"/>
      <psa10 value="0.0082413896" flag="0"/>
      <psa30 value="0.0005310624" flag="0"/>
    </comp>
    <comp name="00.HHE">
      <acc value="0.0128706585" flag="0"/>
      <vel value="0.0071152840" flag="0"/>
      <psa03 value="0.0299025160" flag="0"/>
      <psa10 value="0.0102367758" flag="0"/>
      <psa30 value="0.0008355166" flag="0"/>
    </comp>
    <comp name="00.HHZ">
      <acc value="0.0135221608" flag="0"/>
      <vel value="0.0028641202" flag="0"/>
      <psa03 value="0.0110106543" flag="0"/>
      <psa10 value="0.0027821118" flag="0"/>
      <psa30 value="0.0004251249" flag="0"/>
    </comp>
  </station>
  <station code="ROD3" name="ROD3" netid="CL" insttype="CMG40-T" lat="38.3081" lon="21.892">
    <comp name="00.HHE">
      <acc value="0.0627359503" flag="0"/>
      <vel value="0.0195507463" flag="0"/>
      <psa03 value="0.0978050385" flag="0"/>
      <psa10 value="0.0253393450" flag="0"/>
      <psa30 value="0.0017542971" flag="0"/>
    </comp>
    <comp name="00.HHZ">
      <acc value="0.0464300028" flag="0"/>
      <vel value="0.0142979016" flag="0"/>
      <psa03 value="0.0501146031" flag="0"/>
      <psa10 value="0.0145372480" flag="0"/>
      <psa30 value="0.0020960823" flag="0"/>
    </comp>
    <comp name="00.HHN">
      <acc value="0.0581214083" flag="0"/>
      <vel value="0.0197337430" flag="0"/>
      <psa03 value="0.1092541447" flag="0"/>
      <psa10 value="0.0117549876" flag="0"/>
      <psa30 value="0.0021124682" flag="0"/>
    </comp>
  </station>
  <station code="TRIZ" name="TRIZ" netid="CL" insttype="STS-2" lat="38.3654" lon="22.0727">
    <comp name="00.HH3">
      <acc value="0.0119579039" flag="0"/>
      <vel value="0.0072003720" flag="0"/>
      <psa03 value="0.0435886860" flag="0"/>
      <psa10 value="0.0057778841" flag="0"/>
      <psa30 value="0.0008211396" flag="0"/>
    </comp>
    <comp name="00.HH2">
      <acc value="0.0109422542" flag="0"/>
      <vel value="0.0070380281" flag="0"/>
      <psa03 value="0.0467057915" flag="0"/>
      <psa10 value="0.0047775924" flag="0"/>
      <psa30 value="0.0010139594" flag="0"/>
    </comp>
    <comp name="00.HHZ">
      <acc value="0.0138458842" flag="0"/>
      <vel value="0.0043589727" flag="0"/>
      <psa03 value="0.0149189501" flag="0"/>
      <psa10 value="0.0056412311" flag="0"/>
      <psa30 value="0.0005507008" flag="0"/>
    </comp>
  </station>
  <station code="ZIRI" name="ZIRI" netid="CL" insttype="TRILLIUM-40" lat="38.3051" lon="21.9476">
    <comp name="01.HHE">
      <acc value="0.0319357482" flag="0"/>
      <vel value="0.0201917412" flag="0"/>
      <psa03 value="0.0663072128" flag="0"/>
      <psa10 value="0.0189396412" flag="0"/>
      <psa30 value="0.0017894949" flag="0"/>
    </comp>
    <comp name="01.HHN">
      <acc value="0.0344536511" flag="0"/>
      <vel value="0.0234481568" flag="0"/>
      <psa03 value="0.0828980939" flag="0"/>
      <psa10 value="0.0145378228" flag="0"/>
      <psa30 value="0.0013496721" flag="0"/>
    </comp>
    <comp name="01.HHZ">
      <acc value="0.0385853057" flag="0"/>
      <vel value="0.0150691095" flag="0"/>
      <psa03 value="0.0523489067" flag="0"/>
      <psa10 value="0.0121560567" flag="0"/>
      <psa30 value="0.0012537451" flag="0"/>
    </comp>
  </station>
  <station code="KLV" name="KLV" netid="MN" insttype="" lat="38.0437" lon="22.1504">
    <comp name="--.HHE">
      <acc value="0.0095258472" flag="0"/>
      <vel value="0.0054765265" flag="0"/>
      <psa03 value="0.0289083464" flag="0"/>
      <psa10 value="0.0045493849" flag="0"/>
      <psa30 value="0.0009978253" flag="0"/>
    </comp>
    <comp name="--.HHN">
      <acc value="0.0105781804" flag="0"/>
      <vel value="0.0082100465" flag="0"/>
      <psa03 value="0.0258112866" flag="0"/>
      <psa10 value="0.0132855402" flag="0"/>
      <psa30 value="0.0010620292" flag="0"/>
    </comp>
    <comp name="--.HHZ">
      <acc value="0.0088537882" flag="0"/>
      <vel value="0.0067713854" flag="0"/>
      <psa03 value="0.0236074425" flag="0"/>
      <psa10 value="0.0143791654" flag="0"/>
      <psa30 value="0.0007035366" flag="0"/>
    </comp>
  </station>
</stationlist>
