<stationlist created="1739289478">
	<station code="ATHU" name="ATHU" netid="HA" source="Hellenic Seismological Network, University of Athens, Seismological Laboratory (HA)" insttype="" lat="37.9665" lon="23.7845">
		<comp name=".HNE" depth="0.0">
			<acc value="0.00021200136875748" flag="0"/>
			<vel value="0.000145324488749" flag="0"/>
			<psa03 value="0.000521284654619286" flag="0"/>
			<psa10 value="0.000227035850557812" flag="0"/>
			<psa30 value="2.6690871329317e-05" flag="0"/>
		</comp>
		<comp name=".HNN" depth="0.0">
			<acc value="0.00017522112976884" flag="0"/>
			<vel value="0.000112412652154" flag="0"/>
			<psa03 value="0.000388217774813898" flag="0"/>
			<psa10 value="0.000181684228071397" flag="0"/>
			<psa30 value="3.04688576049745e-05" flag="0"/>
		</comp>
		<comp name=".HNZ" depth="0.0">
			<acc value="0.0003095977579638" flag="0"/>
			<vel value="0.000125161150298" flag="0"/>
			<psa03 value="0.0008329606157496" flag="0"/>
			<psa10 value="0.000178288275567011" flag="0"/>
			<psa30 value="2.63276750688544e-05" flag="0"/>
		</comp>
	</station>
	<station code="ABEA" name="ABEA" netid="HC" source="Seismological Network of Crete (HC)" insttype="" lat="35.5163" lon="24.0113">
		<comp name=".HNE" depth="0.0">
			<acc value="0.0040459020963948" flag="0"/>
			<vel value="0.00143747072352" flag="0"/>
			<psa03 value="0.00157669364092235" flag="0"/>
			<psa10 value="0.00177576548730955" flag="0"/>
			<psa30 value="0.00075221957043824" flag="0"/>
		</comp>
		<comp name=".HNN" depth="0.0">
			<acc value="0.0041165171014572" flag="0"/>
			<vel value="0.00180763444866" flag="0"/>
			<psa03 value="0.00242861140441847" flag="0"/>
			<psa10 value="0.00175697369557224" flag="0"/>
			<psa30 value="0.00140783211613643" flag="0"/>
		</comp>
		<comp name=".HNZ" depth="0.0">
			<acc value="0.0050083750713516" flag="0"/>
			<vel value="0.00144390900014" flag="0"/>
			<psa03 value="0.00163236139114094" flag="0"/>
			<psa10 value="0.0011934219880364" flag="0"/>
			<psa30 value="0.000653303121876486" flag="0"/>
		</comp>
	</station>
	<station code="ATEI" name="ATEI" netid="HC" source="Seismological Network of Crete (HC)" insttype="" lat="35.5193" lon="24.0432">
		<comp name=".HNE" depth="0.0">
			<acc value="0.014149266952104" flag="0"/>
			<vel value="0.00633051348595" flag="0"/>
			<psa03 value="0.0391734648414472" flag="0"/>
			<psa10 value="0.00634894839916654" flag="0"/>
			<psa30 value="0.000928143776635844" flag="0"/>
		</comp>
		<comp name=".HNN" depth="0.0">
			<acc value="0.015891612300384" flag="0"/>
			<vel value="0.00662260208311" flag="0"/>
			<psa03 value="0.0423891856796615" flag="0"/>
			<psa10 value="0.00605352820403439" flag="0"/>
			<psa30 value="0.00097275881549587" flag="0"/>
		</comp>
		<comp name=".HNZ" depth="0.0">
			<acc value="0.013283662522428" flag="0"/>
			<vel value="0.00379671335927" flag="0"/>
			<psa03 value="0.0232964885905295" flag="0"/>
			<psa10 value="0.0036328687065992" flag="0"/>
			<psa30 value="0.000728729160146926" flag="0"/>
		</comp>
	</station>
	<station code="G0LD" name="G0LD" netid="HC" source="Seismological Network of Crete (HC)" insttype="" lat="35.4955" lon="24.0306">
		<comp name=".HNE" depth="0.0">
			<acc value="0.0045724828589256" flag="0"/>
			<vel value="0.00324927842976" flag="0"/>
			<psa03 value="0.00220658562859259" flag="0"/>
			<psa10 value="0.00183136034207323" flag="0"/>
			<psa30 value="0.00158132663012762" flag="0"/>
		</comp>
		<comp name=".HNN" depth="0.0">
			<acc value="0.0046781971320096" flag="0"/>
			<vel value="0.00243469222329" flag="0"/>
			<psa03 value="0.00188189680184383" flag="0"/>
			<psa10 value="0.00191581910111497" flag="0"/>
			<psa30 value="0.00112522631155433" flag="0"/>
		</comp>
		<comp name=".HNZ" depth="0.0">
			<acc value="0.0093989396601834" flag="0"/>
			<vel value="0.00405454529626" flag="0"/>
			<psa03 value="0.0026918947961744" flag="0"/>
			<psa10 value="0.00207620128814629" flag="0"/>
			<psa30 value="0.00162733821983615" flag="0"/>
		</comp>
	</station>
	<station code="PASK" name="PASK" netid="HC" source="Seismological Network of Crete (HC)" insttype="" lat="35.4996" lon="24.0121">
		<comp name=".HNE" depth="0.0">
			<acc value="0.019396860073884" flag="0"/>
			<vel value="0.010809308094" flag="0"/>
			<psa03 value="0.0459324177971867" flag="0"/>
			<psa10 value="0.0146004718971231" flag="0"/>
			<psa30 value="0.00118405218764858" flag="0"/>
		</comp>
		<comp name=".HNN" depth="0.0">
			<acc value="0.022148887683666" flag="0"/>
			<vel value="0.0094875153895" flag="0"/>
			<psa03 value="0.0382880676465953" flag="0"/>
			<psa10 value="0.0107114980216621" flag="0"/>
			<psa30 value="0.00138476121280117" flag="0"/>
		</comp>
		<comp name=".HNZ" depth="0.0">
			<acc value="0.013207652112432" flag="0"/>
			<vel value="0.00616249417115" flag="0"/>
			<psa03 value="0.0444544500974901" flag="0"/>
			<psa10 value="0.00612082313072602" flag="0"/>
			<psa30 value="0.000917800695627046" flag="0"/>
		</comp>
	</station>
	<station code="POLY" name="POLY" netid="HC" source="Seismological Network of Crete (HC)" insttype="" lat="35.5226" lon="24.0602">
		<comp name=".HNE" depth="0.0">
			<acc value="0.001888126004622" flag="0"/>
			<vel value="0.00174825096067" flag="0"/>
			<psa03 value="0.00137438238723455" flag="0"/>
			<psa10 value="0.000973729739190911" flag="0"/>
			<psa30 value="0.00102559033615887" flag="0"/>
		</comp>
		<comp name=".HNN" depth="0.0">
			<acc value="0.0011988571080792" flag="0"/>
			<vel value="0.00247498102845" flag="0"/>
			<psa03 value="0.00185590517117053" flag="0"/>
			<psa10 value="0.00143556955256339" flag="0"/>
			<psa30 value="0.00106543880925777" flag="0"/>
		</comp>
		<comp name=".HNZ" depth="0.0">
			<acc value="0.0021311652906996" flag="0"/>
			<vel value="0.00175718114053" flag="0"/>
			<psa03 value="0.00158311822016879" flag="0"/>
			<psa10 value="0.00103032696504065" flag="0"/>
			<psa30 value="0.000571687142298602" flag="0"/>
		</comp>
	</station>
	<station code="ARK1" name="ARK1" netid="HI" source="ITSAK Strong Motion Network" insttype="" lat="35.148777" lon="25.264194">
		<comp name=".HNE" depth="0.0">
			<acc value="0.029747539745244" flag="0"/>
			<vel value="0.0184488576523" flag="0"/>
			<psa03 value="0.0938356328167279" flag="0"/>
			<psa10 value="0.0231974110896568" flag="0"/>
			<psa30 value="0.00134315595665492" flag="0"/>
		</comp>
		<comp name=".HNN" depth="0.0">
			<acc value="0.028161584325858" flag="0"/>
			<vel value="0.0160241383498" flag="0"/>
			<psa03 value="0.0877133626632553" flag="0"/>
			<psa10 value="0.013994600511085" flag="0"/>
			<psa30 value="0.000920396700933056" flag="0"/>
		</comp>
		<comp name=".HNZ" depth="0.0">
			<acc value="0.018355266819948" flag="0"/>
			<vel value="0.0101214410394" flag="0"/>
			<psa03 value="0.0482835995932554" flag="0"/>
			<psa10 value="0.0148155345814522" flag="0"/>
			<psa30 value="0.000541827455908969" flag="0"/>
		</comp>
	</station>
	<station code="CH01" name="CH01" netid="HI" source="ITSAK Strong Motion Network" insttype="" lat="35.517" lon="24.0208">
		<comp name=".HNE" depth="0.0">
			<acc value="0.014037799940016" flag="0"/>
			<vel value="0.00647580166093" flag="0"/>
			<psa03 value="0.0259515655180398" flag="0"/>
			<psa10 value="0.00669303931852205" flag="0"/>
			<psa30 value="0.000743506076544375" flag="0"/>
		</comp>
		<comp name=".HNN" depth="0.0">
			<acc value="0.026403145249176" flag="0"/>
			<vel value="0.00864836798953" flag="0"/>
			<psa03 value="0.0599747230311089" flag="0"/>
			<psa10 value="0.00630439310385914" flag="0"/>
			<psa30 value="0.000699333462824567" flag="0"/>
		</comp>
		<comp name=".HNZ" depth="0.0">
			<acc value="0.012275577681804" flag="0"/>
			<vel value="0.00432586250952" flag="0"/>
			<psa03 value="0.0205494836982841" flag="0"/>
			<psa10 value="0.00415395658547252" flag="0"/>
			<psa30 value="0.000394873918875953" flag="0"/>
		</comp>
	</station>
	<station code="CH02" name="CH02" netid="HI" source="ITSAK Strong Motion Network" insttype="" lat="35.5145" lon="24.0315">
		<comp name=".HNE" depth="0.0">
			<acc value="0.016910693103822" flag="0"/>
			<vel value="0.00635864818323" flag="0"/>
			<psa03 value="0.0429178925789416" flag="0"/>
			<psa10 value="0.00713174056780025" flag="0"/>
			<psa30 value="0.000505146588481028" flag="0"/>
		</comp>
		<comp name=".HNN" depth="0.0">
			<acc value="0.023589828530562" flag="0"/>
			<vel value="0.00904041286656" flag="0"/>
			<psa03 value="0.0521567572124026" flag="0"/>
			<psa10 value="0.00552918112485992" flag="0"/>
			<psa30 value="0.000696034390112258" flag="0"/>
		</comp>
		<comp name=".HNZ" depth="0.0">
			<acc value="0.011910137780646" flag="0"/>
			<vel value="0.0054072446189" flag="0"/>
			<psa03 value="0.0158495512570743" flag="0"/>
			<psa10 value="0.0041890443786431" flag="0"/>
			<psa30 value="0.000390160663937672" flag="0"/>
		</comp>
	</station>
	<station code="CH03" name="CH03" netid="HI" source="ITSAK Strong Motion Network" insttype="" lat="35.53303" lon="24.0705">
		<comp name=".HNE" depth="0.0">
			<acc value="0.012273589478628" flag="0"/>
			<vel value="0.00481346808954" flag="0"/>
			<psa03 value="0.0348151110177609" flag="0"/>
			<psa10 value="0.00584325318060704" flag="0"/>
			<psa30 value="0.000423921702524013" flag="0"/>
		</comp>
		<comp name=".HNN" depth="0.0">
			<acc value="0.01523521374579" flag="0"/>
			<vel value="0.00590350716855" flag="0"/>
			<psa03 value="0.0491043622979913" flag="0"/>
			<psa10 value="0.00454222965044096" flag="0"/>
			<psa30 value="0.000329980843986667" flag="0"/>
		</comp>
		<comp name=".HNZ" depth="0.0">
			<acc value="0.010346417843712" flag="0"/>
			<vel value="0.00429036978133" flag="0"/>
			<psa03 value="0.0181832774695461" flag="0"/>
			<psa10 value="0.00251841441072017" flag="0"/>
			<psa30 value="0.000211653070456227" flag="0"/>
		</comp>
	</station>
	<station code="GOR1" name="GOR1" netid="HI" source="ITSAK Strong Motion Network" insttype="" lat="35.0582" lon="24.9628">
		<comp name=".HNE" depth="0.0">
			<acc value="0.013290628066524" flag="0"/>
			<vel value="0.00788722774231" flag="0"/>
			<psa03 value="0.0451333075683608" flag="0"/>
			<psa10 value="0.00730360976578546" flag="0"/>
			<psa30 value="0.000786849468667214" flag="0"/>
		</comp>
		<comp name=".HNN" depth="0.0">
			<acc value="0.010337065393434" flag="0"/>
			<vel value="0.00661910644464" flag="0"/>
			<psa03 value="0.0324412350101219" flag="0"/>
			<psa10 value="0.0054560897204075" flag="0"/>
			<psa30 value="0.000788525517194632" flag="0"/>
		</comp>
		<comp name=".HNZ" depth="0.0">
			<acc value="0.01507838266863" flag="0"/>
			<vel value="0.00503246518703" flag="0"/>
			<psa03 value="0.0154029057835642" flag="0"/>
			<psa10 value="0.00653812077467668" flag="0"/>
			<psa30 value="0.00043826168893584" flag="0"/>
		</comp>
	</station>
	<station code="HER3" name="HER3" netid="HI" source="ITSAK Strong Motion Network" insttype="" lat="35.3296" lon="25.1065">
		<comp name=".HNE" depth="0.0">
			<acc value="0.080428678736808" flag="0"/>
			<vel value="0.0327064237678" flag="0"/>
			<psa03 value="0.1630384567474" flag="0"/>
			<psa10 value="0.0307795527443237" flag="0"/>
			<psa30 value="0.00172782320980988" flag="0"/>
		</comp>
		<comp name=".HNN" depth="0.0">
			<acc value="0.059823110307084" flag="0"/>
			<vel value="0.0258303053566" flag="0"/>
			<psa03 value="0.231194357158126" flag="0"/>
			<psa10 value="0.0387598526500083" flag="0"/>
			<psa30 value="0.00134128427016691" flag="0"/>
		</comp>
		<comp name=".HNZ" depth="0.0">
			<acc value="0.039591153931614" flag="0"/>
			<vel value="0.0169155259624" flag="0"/>
			<psa03 value="0.139795750365935" flag="0"/>
			<psa10 value="0.0161626988244581" flag="0"/>
			<psa30 value="0.000728400857150019" flag="0"/>
		</comp>
	</station>
	<station code="KRL1" name="KRL1" netid="HI" source="ITSAK Strong Motion Network" insttype="" lat="37.7951" lon="26.7065">
		<comp name=".HNE" depth="0.0">
			<acc value="0.013456235627298" flag="0"/>
			<vel value="0.00476515789504" flag="0"/>
			<psa03 value="0.020668724670341" flag="0"/>
			<psa10 value="0.00386502010111168" flag="0"/>
			<psa30 value="0.000376054443011053" flag="0"/>
		</comp>
		<comp name=".HNN" depth="0.0">
			<acc value="0.011106632538702" flag="0"/>
			<vel value="0.00441951878803" flag="0"/>
			<psa03 value="0.0206746899092443" flag="0"/>
			<psa10 value="0.00584770191279705" flag="0"/>
			<psa30 value="0.000479664327490269" flag="0"/>
		</comp>
		<comp name=".HNZ" depth="0.0">
			<acc value="0.0064635032085504" flag="0"/>
			<vel value="0.00251487084208" flag="0"/>
			<psa03 value="0.0106968830951575" flag="0"/>
			<psa10 value="0.00307673077144063" flag="0"/>
			<psa30 value="0.000240445485624917" flag="0"/>
		</comp>
	</station>
	<station code="KTL1" name="KTL1" netid="HI" source="ITSAK Strong Motion Network" insttype="" lat="35.20778" lon="25.34272">
		<comp name=".HNE" depth="0.0">
			<acc value="0.019111243345884" flag="0"/>
			<vel value="0.0149879222775" flag="0"/>
			<psa03 value="0.0568678870099613" flag="0"/>
			<psa10 value="0.00809988314000261" flag="0"/>
			<psa30 value="0.000806322425318589" flag="0"/>
		</comp>
		<comp name=".HNN" depth="0.0">
			<acc value="0.029505216924588" flag="0"/>
			<vel value="0.0162389091054" flag="0"/>
			<psa03 value="0.093865572300078" flag="0"/>
			<psa10 value="0.0112161548902176" flag="0"/>
			<psa30 value="0.000665256309547702" flag="0"/>
		</comp>
		<comp name=".HNZ" depth="0.0">
			<acc value="0.014652988741332" flag="0"/>
			<vel value="0.00467064552685" flag="0"/>
			<psa03 value="0.0256284112981195" flag="0"/>
			<psa10 value="0.00366326822041445" flag="0"/>
			<psa30 value="0.000391119789975011" flag="0"/>
		</comp>
	</station>
	<station code="NAX1" name="NAX1" netid="HI" source="ITSAK Strong Motion Network" insttype="" lat="37.101394" lon="25.374103">
		<comp name=".HNE" depth="0.0">
			<acc value="0.1176403128918" flag="0"/>
			<vel value="0.0300835558146" flag="0"/>
			<psa03 value="0.137533590091866" flag="0"/>
			<psa10 value="0.00932499836039578" flag="0"/>
			<psa30 value="0.00091913599241708" flag="0"/>
		</comp>
		<comp name=".HNN" depth="0.0">
			<acc value="0.11436562541442" flag="0"/>
			<vel value="0.0199083076068" flag="0"/>
			<psa03 value="0.0710034171695747" flag="0"/>
			<psa10 value="0.00526723752237846" flag="0"/>
			<psa30 value="0.0012104290391505" flag="0"/>
		</comp>
		<comp name=".HNZ" depth="0.0">
			<acc value="0.051196800386406" flag="0"/>
			<vel value="0.014127639817" flag="0"/>
			<psa03 value="0.0682223475208293" flag="0"/>
			<psa10 value="0.00586987572546243" flag="0"/>
			<psa30 value="0.00185490850358339" flag="0"/>
		</comp>
	</station>
	<station code="RKL1" name="RKL1" netid="HI" source="ITSAK Strong Motion Network" insttype="" lat="36.336699" lon="28.171224">
		<comp name=".HNE" depth="0.0">
			<acc value="0.001833862947612" flag="0"/>
			<vel value="0.00174912352525" flag="0"/>
			<psa03 value="0.00685069015272561" flag="0"/>
			<psa10 value="0.00343491957781296" flag="0"/>
			<psa30 value="0.000326174315781086" flag="0"/>
		</comp>
		<comp name=".HNN" depth="0.0">
			<acc value="0.0018312447037572" flag="0"/>
			<vel value="0.00215307286585" flag="0"/>
			<psa03 value="0.00423088997621876" flag="0"/>
			<psa10 value="0.00441512107386114" flag="0"/>
			<psa30 value="0.000455821029240933" flag="0"/>
		</comp>
		<comp name=".HNZ" depth="0.0">
			<acc value="0.0039519336608406" flag="0"/>
			<vel value="0.000808571095715" flag="0"/>
			<psa03 value="0.00285391920136996" flag="0"/>
			<psa10 value="0.000916558315144385" flag="0"/>
			<psa30 value="0.000214257292452377" flag="0"/>
		</comp>
	</station>
	<station code="RPN1" name="RPN1" netid="HI" source="ITSAK Strong Motion Network" insttype="" lat="36.448678" lon="28.218047">
		<comp name=".HNE" depth="0.0">
			<acc value="0.0041084618360262" flag="0"/>
			<vel value="0.00280289372092" flag="0"/>
			<psa03 value="0.00819796755429779" flag="0"/>
			<psa10 value="0.00235306548841603" flag="0"/>
			<psa30 value="0.00104417583819335" flag="0"/>
		</comp>
		<comp name=".HNN" depth="0.0">
			<acc value="0.0038628038577732" flag="0"/>
			<vel value="0.00222106063905" flag="0"/>
			<psa03 value="0.00417411993944108" flag="0"/>
			<psa10 value="0.00246527714063571" flag="0"/>
			<psa30 value="0.00110359310762937" flag="0"/>
		</comp>
		<comp name=".HNZ" depth="0.0">
			<acc value="0.0096307072805376" flag="0"/>
			<vel value="0.00138488694346" flag="0"/>
			<psa03 value="0.00420635644995228" flag="0"/>
			<psa10 value="0.00180873310094114" flag="0"/>
			<psa30 value="0.000366749790165518" flag="0"/>
		</comp>
	</station>
	<station code="RTH1" name="RTH1" netid="HI" source="ITSAK Strong Motion Network" insttype="" lat="35.365393" lon="24.471773">
		<comp name=".HNE" depth="0.0">
			<acc value="0.010681017402372" flag="0"/>
			<vel value="0.00455538501241" flag="0"/>
			<psa03 value="0.0264004572340783" flag="0"/>
			<psa10 value="0.00313315044646657" flag="0"/>
			<psa30 value="0.000681468581449945" flag="0"/>
		</comp>
		<comp name=".HNN" depth="0.0">
			<acc value="0.012921264146928" flag="0"/>
			<vel value="0.00538933987409" flag="0"/>
			<psa03 value="0.0279615919015738" flag="0"/>
			<psa10 value="0.0039595591763621" flag="0"/>
			<psa30 value="0.000620154311347359" flag="0"/>
		</comp>
		<comp name=".HNZ" depth="0.0">
			<acc value="0.011515775544072" flag="0"/>
			<vel value="0.00369247034627" flag="0"/>
			<psa03 value="0.0125985559466488" flag="0"/>
			<psa10 value="0.00234574781615502" flag="0"/>
			<psa30 value="0.000277200967370459" flag="0"/>
		</comp>
	</station>
	<station code="SFR2" name="SFR2" netid="HI" source="ITSAK Strong Motion Network" insttype="" lat="36.399841" lon="25.438209">
		<comp name=".HNE" depth="0.0">
			<acc value="0.54831115704372" flag="0"/>
			<vel value="0.16073244791" flag="0"/>
			<psa03 value="0.919059966544604" flag="0"/>
			<psa10 value="0.0541405327947295" flag="0"/>
			<psa30 value="0.00547148787587412" flag="0"/>
		</comp>
		<comp name=".HNN" depth="0.0">
			<acc value="0.5972941468329" flag="0"/>
			<vel value="0.221134842548" flag="0"/>
			<psa03 value="0.677858988163863" flag="0"/>
			<psa10 value="0.0634940461688389" flag="0"/>
			<psa30 value="0.00375646218051615" flag="0"/>
		</comp>
		<comp name=".HNZ" depth="0.0">
			<acc value="0.71841601424358" flag="0"/>
			<vel value="0.199879324905" flag="0"/>
			<psa03 value="0.990384441441812" flag="0"/>
			<psa10 value="0.0398182665147289" flag="0"/>
			<psa30 value="0.00354418311807088" flag="0"/>
		</comp>
	</station>
	<station code="ANAF" name="ANAF" netid="HL" source="National Observatory of Athens Seismic Network" insttype="" lat="36.35675" lon="25.77262">
		<comp name=".HNE" depth="0.0">
			<acc value="1.9562010494424" flag="0"/>
			<vel value="0.510704462336" flag="0"/>
			<psa03 value="3.24659207079127" flag="0"/>
			<psa10 value="0.115639975580933" flag="0"/>
			<psa30 value="0.00879080568107198" flag="0"/>
		</comp>
		<comp name=".HNN" depth="0.0">
			<acc value="2.1906516622926" flag="0"/>
			<vel value="0.524936229781" flag="0"/>
			<psa03 value="2.60713420984704" flag="0"/>
			<psa10 value="0.0771950537933642" flag="0"/>
			<psa30 value="0.0102017816513" flag="0"/>
		</comp>
		<comp name=".HNZ" depth="0.0">
			<acc value="1.01588481135252" flag="0"/>
			<vel value="0.181977841184" flag="0"/>
			<psa03 value="1.30067332989031" flag="0"/>
			<psa10 value="0.0347403063748084" flag="0"/>
			<psa30 value="0.00464493770434146" flag="0"/>
		</comp>
	</station>
	<station code="ASTA" name="ASTA" netid="HL" source="National Observatory of Athens Seismic Network" insttype="" lat="36.54552" lon="26.35295">
		<comp name="00.HNE" depth="0.0">
			<acc value="0.026873852929026" flag="0"/>
			<vel value="0.00779861780045" flag="0"/>
			<psa03 value="0.0274053962021711" flag="0"/>
			<psa10 value="0.00713195386317426" flag="0"/>
			<psa30 value="0.000843605468056306" flag="0"/>
		</comp>
