<?xml version="1.0" encoding="UTF-8" standalone="yes"?>
<!DOCTYPE earthquake SYSTEM "stationlist.dtd">
<stationlist created="" xmlns="ch.ethz.sed.shakemap.usgs.xml">
  <station code="BNGB" name="BNGB" netid="KO" insttype="CMG-3ESPC" lat="38.9913" lon="40.6792">
    <comp name="--.HHN">
      <acc value="0.0189365178" flag="0"/>
      <vel value="0.0077560009" flag="0"/>
      <psa03 value="0.0462711970" flag="0"/>
      <psa10 value="0.0083202517" flag="0"/>
      <psa30 value="0.0011831294" flag="0"/>
    </comp>
    <comp name="--.HHE">
      <acc value="0.0221166012" flag="0"/>
      <vel value="0.0111100227" flag="0"/>
      <psa03 value="0.0633252010" flag="0"/>
      <psa10 value="0.0094168056" flag="0"/>
      <psa30 value="0.0009297226" flag="0"/>
    </comp>
  </station>
</stationlist>
