<?xml version="1.0" encoding="UTF-8" standalone="yes"?>
<!DOCTYPE earthquake SYSTEM "stationlist.dtd">
<stationlist created="" xmlns="ch.ethz.sed.shakemap.usgs.xml">
  <station code="GVD" name="GVD" netid="GE" insttype="STS-2/N" lat="34.8391" lon="24.0874">
    <comp name="--.HHE">
      <acc value="0.0409700417" flag="0"/>
      <vel value="0.0244628128" flag="0"/>
      <psa03 value="0.1628233091" flag="0"/>
      <psa10 value="0.0193252812" flag="0"/>
      <psa30 value="0.0014626076" flag="0"/>
    </comp>
    <comp name="--.HHZ">
      <acc value="0.0235808049" flag="0"/>
      <vel value="0.0076906676" flag="0"/>
      <psa03 value="0.0542375061" flag="0"/>
      <psa10 value="0.0096176022" flag="0"/>
      <psa30 value="0.0004177482" flag="0"/>
    </comp>
    <comp name="--.HHN">
      <acc value="0.0391756304" flag="0"/>
      <vel value="0.0222013960" flag="0"/>
      <psa03 value="0.0734911929" flag="0"/>
      <psa10 value="0.0119310300" flag="0"/>
      <psa30 value="0.0013767722" flag="0"/>
    </comp>
  </station>
  <station code="GVDS" name="GVDS" netid="HC" insttype="60" lat="34.8389" lon="24.0585">
    <comp name="--.HHZ">
      <acc value="0.0159223548" flag="0"/>
      <vel value="0.0043807454" flag="0"/>
      <psa03 value="0.0243787951" flag="0"/>
      <psa10 value="0.0045690092" flag="0"/>
      <psa30 value="0.0003542255" flag="0"/>
    </comp>
    <comp name="--.HHE">
      <acc value="0.0332740006" flag="0"/>
      <vel value="0.0158718273" flag="0"/>
      <psa03 value="0.1071547588" flag="0"/>
      <psa10 value="0.0091074201" flag="0"/>
      <psa30 value="0.0007432447" flag="0"/>
    </comp>
    <comp name="--.HHN">
      <acc value="0.0232771433" flag="0"/>
      <vel value="0.0120780906" flag="0"/>
      <psa03 value="0.0884138997" flag="0"/>
      <psa10 value="0.0123508946" flag="0"/>
      <psa30 value="0.0008664221" flag="0"/>
    </comp>
  </station>
  <station code="IMOD" name="IMOD" netid="HC" insttype="120" lat="34.9731" lon="24.7995">
    <comp name="--.HHZ">
      <acc value="0.0667542899" flag="0"/>
      <vel value="0.0268314365" flag="0"/>
      <psa03 value="0.1185368303" flag="0"/>
      <psa10 value="0.0153618827" flag="0"/>
      <psa30 value="0.0008551312" flag="0"/>
    </comp>
    <comp name="--.HHN">
      <acc value="0.1352524349" flag="0"/>
      <vel value="0.0796294233" flag="0"/>
      <psa03 value="0.3206119855" flag="0"/>
      <psa10 value="0.0557965023" flag="0"/>
      <psa30 value="0.0046243982" flag="0"/>
    </comp>
    <comp name="--.HHE">
      <acc value="0.0710588542" flag="0"/>
      <vel value="0.0296255685" flag="0"/>
      <psa03 value="0.1229045099" flag="0"/>
      <psa10 value="0.0330935014" flag="0"/>
      <psa30 value="0.0014817644" flag="0"/>
    </comp>
  </station>
  <station code="PFKS" name="PFKS" netid="HC" insttype="120" lat="35.0429" lon="25.4733">
    <comp name="--.HHZ">
      <acc value="0.0082761770" flag="0"/>
      <vel value="0.0030509786" flag="0"/>
      <psa03 value="0.0157139644" flag="0"/>
      <psa10 value="0.0025482749" flag="0"/>
      <psa30 value="0.0002332079" flag="0"/>
    </comp>
    <comp name="--.HHE">
      <acc value="0.0124621650" flag="0"/>
      <vel value="0.0075665795" flag="0"/>
      <psa03 value="0.0198078346" flag="0"/>
      <psa10 value="0.0103693237" flag="0"/>
      <psa30 value="0.0004317457" flag="0"/>
    </comp>
    <comp name="--.HHN">
      <acc value="0.0140059164" flag="0"/>
      <vel value="0.0071256737" flag="0"/>
      <psa03 value="0.0379934020" flag="0"/>
      <psa10 value="0.0072257638" flag="0"/>
      <psa30 value="0.0003034541" flag="0"/>
    </comp>
  </station>
  <station code="GVD" name="GVD" netid="HL" insttype="120" lat="34.8391" lon="24.0874">
    <comp name="--.HHE">
      <acc value="0.0408871805" flag="0"/>
      <vel value="0.0239386648" flag="0"/>
      <psa03 value="0.1584712794" flag="0"/>
      <psa10 value="0.0191054400" flag="0"/>
      <psa30 value="0.0014624036" flag="0"/>
    </comp>
    <comp name="--.HHN">
      <acc value="0.0381611065" flag="0"/>
      <vel value="0.0217786686" flag="0"/>
      <psa03 value="0.0715327865" flag="0"/>
      <psa10 value="0.0118694690" flag="0"/>
      <psa30 value="0.0013713251" flag="0"/>
    </comp>
    <comp name="--.HHZ">
      <acc value="0.0227643856" flag="0"/>
      <vel value="0.0074955909" flag="0"/>
      <psa03 value="0.0525624108" flag="0"/>
      <psa10 value="0.0095390134" flag="0"/>
      <psa30 value="0.0004149488" flag="0"/>
    </comp>
  </station>
  <station code="IDI" name="IDI" netid="HL" insttype="120" lat="35.288" lon="24.89">
    <comp name="--.HHN">
      <acc value="0.0060061944" flag="0"/>
      <vel value="0.0033159144" flag="0"/>
      <psa03 value="0.0154828711" flag="0"/>
      <psa10 value="0.0039257939" flag="0"/>
      <psa30 value="0.0002593136" flag="0"/>
    </comp>
    <comp name="--.HHZ">
      <acc value="0.0057581933" flag="0"/>
      <vel value="0.0032174377" flag="0"/>
      <psa03 value="0.0128739064" flag="0"/>
      <psa10 value="0.0030389136" flag="0"/>
      <psa30 value="0.0002568391" flag="0"/>
    </comp>
    <comp name="--.HHE">
      <acc value="0.0074839073" flag="0"/>
      <vel value="0.0031460820" flag="0"/>
      <psa03 value="0.0139917140" flag="0"/>
      <psa10 value="0.0046654422" flag="0"/>
      <psa30 value="0.0002740887" flag="0"/>
    </comp>
  </station>
  <station code="SIVA" name="SIVA" netid="HL" insttype="60" lat="35.0178" lon="24.812">
    <comp name="--.HHE">
      <acc value="0.0760368520" flag="0"/>
      <vel value="0.0455284773" flag="0"/>
      <psa03 value="0.2288946534" flag="0"/>
      <psa10 value="0.0428860456" flag="0"/>
      <psa30 value="0.0021707330" flag="0"/>
    </comp>
    <comp name="--.HHN">
      <acc value="0.0872941961" flag="0"/>
      <vel value="0.0557441581" flag="0"/>
      <psa03 value="0.1460852362" flag="0"/>
      <psa10 value="0.0453204323" flag="0"/>
      <psa30 value="0.0023239770" flag="0"/>
    </comp>
    <comp name="--.HHZ">
      <acc value="0.0576849040" flag="0"/>
      <vel value="0.0240376725" flag="0"/>
      <psa03 value="0.0699288735" flag="0"/>
      <psa10 value="0.0159947105" flag="0"/>
      <psa30 value="0.0015557791" flag="0"/>
    </comp>
  </station>
  <station code="IDI" name="IDI" netid="MN" insttype="" lat="35.288" lon="24.89">
    <comp name="--.HHZ">
      <acc value="0.0058070532" flag="0"/>
      <vel value="0.0032399654" flag="0"/>
      <psa03 value="0.0129989351" flag="0"/>
      <psa10 value="0.0030270487" flag="0"/>
      <psa30 value="0.0002553018" flag="0"/>
    </comp>
    <comp name="--.HHN">
      <acc value="0.0065187878" flag="0"/>
      <vel value="0.0033235657" flag="0"/>
      <psa03 value="0.0157127678" flag="0"/>
      <psa10 value="0.0038929768" flag="0"/>
      <psa30 value="0.0002567690" flag="0"/>
    </comp>
    <comp name="--.HHE">
      <acc value="0.0077614515" flag="0"/>
      <vel value="0.0031464577" flag="0"/>
      <psa03 value="0.0141213261" flag="0"/>
      <psa10 value="0.0046336920" flag="0"/>
      <psa30 value="0.0002728187" flag="0"/>
    </comp>
  </station>
</stationlist>
