<stationlist created="1778136644">
	<station code="ABEA" name="ABEA" netid="HC" source="Seismological Network of Crete (HC)" insttype="" lat="35.5163" lon="24.0113">
		<comp name="--.HNE" depth="0.0">
			<acc value="0.00837080615126454" flag="0"/>
			<vel value="0.00725541992281013" flag="0"/>
			<psa03 value="0.0168921737111148" flag="0"/>
			<psa10 value="0.0119485624711195" flag="0"/>
			<psa30 value="0.000934864742701708" flag="0"/>
		</comp>
		<comp name="--.HNN" depth="0.0">
			<acc value="0.00756465510078509" flag="0"/>
			<vel value="0.00703596091576053" flag="0"/>
			<psa03 value="0.0205874875179393" flag="0"/>
			<psa10 value="0.0127974874582221" flag="0"/>
			<psa30 value="0.00121640568507499" flag="0"/>
		</comp>
		<comp name="--.HNZ" depth="0.0">
			<acc value="0.00655682433917595" flag="0"/>
			<vel value="0.00546653228408171" flag="0"/>
			<psa03 value="0.0110096433973518" flag="0"/>
			<psa10 value="0.010654563625064" flag="0"/>
			<psa30 value="0.00148163377596487" flag="0"/>
		</comp>
	</station>
	<station code="ATEI" name="ATEI" netid="HC" source="Seismological Network of Crete (HC)" insttype="" lat="35.5193" lon="24.0432">
		<comp name="--.HNE" depth="0.0">
			<acc value="0.00669401023601462" flag="0"/>
			<vel value="0.00683637309191497" flag="0"/>
			<psa03 value="0.0182231030244743" flag="0"/>
			<psa10 value="0.0114297174751718" flag="0"/>
			<psa30 value="0.00102350644811404" flag="0"/>
		</comp>
		<comp name="--.HNN" depth="0.0">
			<acc value="0.00750319115763903" flag="0"/>
			<vel value="0.00780772020965183" flag="0"/>
			<psa03 value="0.0206215692027427" flag="0"/>
			<psa10 value="0.013447178622093" flag="0"/>
			<psa30 value="0.00125064753676338" flag="0"/>
		</comp>
		<comp name="--.HNZ" depth="0.0">
			<acc value="0.00565745581183327" flag="0"/>
			<vel value="0.0043940044139748" flag="0"/>
			<psa03 value="0.0126135777751426" flag="0"/>
			<psa10 value="0.0110327761797897" flag="0"/>
			<psa30 value="0.00105369563550001" flag="0"/>
		</comp>
	</station>
	<station code="DEYA" name="DEYA" netid="HC" source="Seismological Network of Crete (HC)" insttype="" lat="35.4825" lon="24.014">
		<comp name="--.HNE" depth="0.0">
			<acc value="0.0108064891638701" flag="0"/>
			<vel value="0.00971993614920159" flag="0"/>
			<psa03 value="0.0218463143986263" flag="0"/>
			<psa10 value="0.0110314917196675" flag="0"/>
			<psa30 value="0.00079676142736572" flag="0"/>
		</comp>
		<comp name="--.HNN" depth="0.0">
			<acc value="0.00773333136871385" flag="0"/>
			<vel value="0.00523455718521649" flag="0"/>
			<psa03 value="0.020875867298733" flag="0"/>
			<psa10 value="0.0085919626128457" flag="0"/>
			<psa30 value="0.000825542136033585" flag="0"/>
		</comp>
		<comp name="--.HNZ" depth="0.0">
			<acc value="0.00417913253716718" flag="0"/>
			<vel value="0.00353906196251701" flag="0"/>
			<psa03 value="0.0111362819948448" flag="0"/>
			<psa10 value="0.0055569742160139" flag="0"/>
			<psa30 value="0.00132383894783274" flag="0"/>
		</comp>
	</station>
	<station code="G0LD" name="G0LD" netid="HC" source="Seismological Network of Crete (HC)" insttype="" lat="35.4955" lon="24.0306">
		<comp name="--.HNE" depth="0.0">
			<acc value="0.0223363817004292" flag="0"/>
			<vel value="0.0166696468152785" flag="0"/>
			<psa03 value="0.0591100459588533" flag="0"/>
			<psa10 value="0.0310301612208755" flag="0"/>
			<psa30 value="0.00220698536861625" flag="0"/>
		</comp>
		<comp name="--.HNN" depth="0.0">
			<acc value="0.0246758773811802" flag="0"/>
			<vel value="0.0262640145168864" flag="0"/>
			<psa03 value="0.0550834979696772" flag="0"/>
			<psa10 value="0.0398878148719814" flag="0"/>
			<psa30 value="0.00267956729985133" flag="0"/>
		</comp>
		<comp name="--.HNZ" depth="0.0">
			<acc value="0.0191139582007392" flag="0"/>
			<vel value="0.018889229700575" flag="0"/>
			<psa03 value="0.031353337421416" flag="0"/>
			<psa10 value="0.0372494438428528" flag="0"/>
			<psa30 value="0.00268790014352537" flag="0"/>
		</comp>
	</station>
	<station code="LENT" name="LENT" netid="HC" source="Seismological Network of Crete (HC)" insttype="" lat="35.5074" lon="24.0402">
		<comp name="--.HNE" depth="0.0">
			<acc value="0.00888303233606171" flag="0"/>
			<vel value="0.00725393029670234" flag="0"/>
			<psa03 value="0.0198480661390636" flag="0"/>
			<psa10 value="0.011343753342994" flag="0"/>
			<psa30 value="0.00109093070630598" flag="0"/>
		</comp>
		<comp name="--.HNN" depth="0.0">
			<acc value="0.00949048334065768" flag="0"/>
			<vel value="0.00887423681418275" flag="0"/>
			<psa03 value="0.0228412787476295" flag="0"/>
			<psa10 value="0.0103101164321256" flag="0"/>
			<psa30 value="0.00160593773966225" flag="0"/>
		</comp>
		<comp name="--.HNZ" depth="0.0">
			<acc value="0.00777312830584083" flag="0"/>
			<vel value="0.00620410951764865" flag="0"/>
			<psa03 value="0.0219398258015972" flag="0"/>
			<psa10 value="0.011225780840396" flag="0"/>
			<psa30 value="0.00142025689755118" flag="0"/>
		</comp>
	</station>
	<station code="MULT" name="MULT" netid="HC" source="Seismological Network of Crete (HC)" insttype="" lat="35.5091" lon="24.0118">
		<comp name="--.HNE" depth="0.0">
			<acc value="0.00525801033114812" flag="0"/>
			<vel value="0.00270408755027445" flag="0"/>
			<psa03 value="0.0129335078230639" flag="0"/>
			<psa10 value="0.00464958519971284" flag="0"/>
			<psa30 value="0.000856297090062941" flag="0"/>
		</comp>
		<comp name="--.HNN" depth="0.0">
			<acc value="0.00678441588948253" flag="0"/>
			<vel value="0.0034952379858325" flag="0"/>
			<psa03 value="0.0108179321297163" flag="0"/>
			<psa10 value="0.00794968193989384" flag="0"/>
			<psa30 value="0.0013977076954412" flag="0"/>
		</comp>
		<comp name="--.HNZ" depth="0.0">
			<acc value="0.0173001074491483" flag="0"/>
			<vel value="0.00567938543272976" flag="0"/>
			<psa03 value="0.01268163046036" flag="0"/>
			<psa10 value="0.00942938652558161" flag="0"/>
			<psa30 value="0.00243135064838223" flag="0"/>
		</comp>
	</station>
	<station code="NERO" name="NERO" netid="HC" source="Seismological Network of Crete (HC)" insttype="" lat="35.474" lon="24.0423">
		<comp name="--.HNE" depth="0.0">
			<acc value="0.00785502548399147" flag="0"/>
			<vel value="0.0075876970039094" flag="0"/>
			<psa03 value="0.013776492052051" flag="0"/>
			<psa10 value="0.00812688961654733" flag="0"/>
			<psa30 value="0.000798351428531472" flag="0"/>
		</comp>
		<comp name="--.HNN" depth="0.0">
			<acc value="0.0103767593676948" flag="0"/>
			<vel value="0.00620370558976598" flag="0"/>
			<psa03 value="0.0183090514264466" flag="0"/>
			<psa10 value="0.0103735031311585" flag="0"/>
			<psa30 value="0.00148427676354976" flag="0"/>
		</comp>
		<comp name="--.HNZ" depth="0.0">
			<acc value="0.00740939773562502" flag="0"/>
			<vel value="0.00567501446075339" flag="0"/>
			<psa03 value="0.0141937762055239" flag="0"/>
			<psa10 value="0.00819776743685932" flag="0"/>
			<psa30 value="0.000942120014995489" flag="0"/>
		</comp>
	</station>
	<station code="PASK" name="PASK" netid="HC" source="Seismological Network of Crete (HC)" insttype="" lat="35.4996" lon="24.0121">
		<comp name="--.HNE" depth="0.0">
			<acc value="0.0156437651157242" flag="0"/>
			<vel value="0.0129304059401102" flag="0"/>
			<psa03 value="0.0427802272092814" flag="0"/>
			<psa10 value="0.0242142290738398" flag="0"/>
			<psa30 value="0.00159465324211661" flag="0"/>
		</comp>
		<comp name="--.HNN" depth="0.0">
			<acc value="0.0136156126869473" flag="0"/>
			<vel value="0.0115303984261291" flag="0"/>
			<psa03 value="0.0310898121516535" flag="0"/>
			<psa10 value="0.0137529832551467" flag="0"/>
			<psa30 value="0.00192267028413656" flag="0"/>
		</comp>
		<comp name="--.HNZ" depth="0.0">
			<acc value="0.00730934044028544" flag="0"/>
			<vel value="0.00440610064564688" flag="0"/>
			<psa03 value="0.0197790537548116" flag="0"/>
			<psa10 value="0.00744597575934628" flag="0"/>
			<psa30 value="0.00136766591365312" flag="0"/>
		</comp>
	</station>
	<station code="SOUD" name="SOUD" netid="HC" source="Seismological Network of Crete (HC)" insttype="" lat="35.4878" lon="24.0678">
		<comp name="--.HNE" depth="0.0">
			<acc value="0.0148246736603047" flag="0"/>
			<vel value="0.0116864763914653" flag="0"/>
			<psa03 value="0.0325620659312109" flag="0"/>
			<psa10 value="0.0230827734954419" flag="0"/>
			<psa30 value="0.00137843527290352" flag="0"/>
		</comp>
		<comp name="--.HNN" depth="0.0">
			<acc value="0.0202912753003576" flag="0"/>
			<vel value="0.0128269881507645" flag="0"/>
			<psa03 value="0.0315173691210455" flag="0"/>
			<psa10 value="0.0134619311618848" flag="0"/>
			<psa30 value="0.00162004367410855" flag="0"/>
		</comp>
		<comp name="--.HNZ" depth="0.0">
			<acc value="0.00964472886051905" flag="0"/>
			<vel value="0.00750082850509448" flag="0"/>
			<psa03 value="0.0116240161277666" flag="0"/>
			<psa10 value="0.00859201230366118" flag="0"/>
			<psa30 value="0.00401961627984961" flag="0"/>
		</comp>
	</station>
	<station code="KSS1" name="KSS1" netid="HI" source="ITSAK Strong Motion Network" insttype="" lat="35.4189" lon="26.9207">
		<comp name="--.HNE" depth="0.0">
			<acc value="0.000678167028709956" flag="0"/>
			<vel value="0.000425719106377336" flag="0"/>
			<psa03 value="0.00128208183918306" flag="0"/>
			<psa10 value="0.000516865157749036" flag="0"/>
			<psa30 value="9.48048545750523e-05" flag="0"/>
		</comp>
		<comp name="--.HNN" depth="0.0">
			<acc value="0.000757199463302697" flag="0"/>
			<vel value="0.000484366504745882" flag="0"/>
			<psa03 value="0.00179850423322626" flag="0"/>
			<psa10 value="0.00074696780326525" flag="0"/>
			<psa30 value="0.000106434212202476" flag="0"/>
		</comp>
		<comp name="--.HNZ" depth="0.0">
			<acc value="0.00112804128431963" flag="0"/>
			<vel value="0.000323809956702391" flag="0"/>
			<psa03 value="0.000540640917345315" flag="0"/>
			<psa10 value="0.000804726316982125" flag="0"/>
			<psa30 value="9.95365938110416e-05" flag="0"/>
		</comp>
	</station>
	<station code="SIT2" name="SIT2" netid="HI" source="ITSAK Strong Motion Network" insttype="" lat="35.2059" lon="26.107">
		<comp name="--.HNE" depth="0.0">
			<acc value="0.00631494774005024" flag="0"/>
			<vel value="0.00613803059736169" flag="0"/>
			<psa03 value="0.0139938723378467" flag="0"/>
			<psa10 value="0.0062654355230909" flag="0"/>
			<psa30 value="0.000357644160920226" flag="0"/>
		</comp>
		<comp name="--.HNN" depth="0.0">
			<acc value="0.00777688075422383" flag="0"/>
			<vel value="0.00620469915103622" flag="0"/>
			<psa03 value="0.0162703681966142" flag="0"/>
			<psa10 value="0.00580798209404754" flag="0"/>
			<psa30 value="0.000365358187561673" flag="0"/>
		</comp>
		<comp name="--.HNZ" depth="0.0">
			<acc value="0.00353357366882626" flag="0"/>
			<vel value="0.00208372515273274" flag="0"/>
			<psa03 value="0.00596374272493242" flag="0"/>
			<psa10 value="0.0012091399824006" flag="0"/>
			<psa30 value="0.000185911833975887" flag="0"/>
		</comp>
	</station>
	<station code="ANKY" name="ANKY" netid="HL" source="National Observatory of Athens Seismic Network" insttype="" lat="35.86704" lon="23.30117">
		<comp name="00.HNE" depth="0.0">
			<acc value="0.00529301343987873" flag="0"/>
			<vel value="0.00112896032644697" flag="0"/>
			<psa03 value="0.00347014850010038" flag="0"/>
			<psa10 value="0.00164908994723869" flag="0"/>
			<psa30 value="0.000244235554406673" flag="0"/>
		</comp>
		<comp name="00.HNN" depth="0.0">
			<acc value="0.0063361313206511" flag="0"/>
			<vel value="0.00093435986200279" flag="0"/>
			<psa03 value="0.00286587083946197" flag="0"/>
			<psa10 value="0.00128121764782057" flag="0"/>
			<psa30 value="0.000242585471138786" flag="0"/>
		</comp>
		<comp name="00.HNZ" depth="0.0">
			<acc value="0.00927661845991927" flag="0"/>
			<vel value="0.000788544904808791" flag="0"/>
			<psa03 value="0.0020162875405062" flag="0"/>
			<psa10 value="0.000829808330102805" flag="0"/>
			<psa30 value="0.000206177994217709" flag="0"/>
		</comp>
	</station>
	<station code="IACM" name="IACM" netid="HL" source="National Observatory of Athens Seismic Network" insttype="" lat="35.3058" lon="25.0709">
		<comp name="--.HNE" depth="0.0">
			<acc value="0.0250738498111433" flag="0"/>
			<vel value="0.019127180977816" flag="0"/>
			<psa03 value="0.053276013649309" flag="0"/>
			<psa10 value="0.0529880889507157" flag="0"/>
			<psa30 value="0.00164838200971612" flag="0"/>
		</comp>
		<comp name="--.HNN" depth="0.0">
			<acc value="0.0317868549986503" flag="0"/>
			<vel value="0.0240472835245963" flag="0"/>
			<psa03 value="0.0818408798901461" flag="0"/>
			<psa10 value="0.0378072407941714" flag="0"/>
			<psa30 value="0.00191894399562314" flag="0"/>
		</comp>
		<comp name="--.HNZ" depth="0.0">
			<acc value="0.0221957789317061" flag="0"/>
			<vel value="0.0153526690553176" flag="0"/>
			<psa03 value="0.039328891804418" flag="0"/>
			<psa10 value="0.0169190658050584" flag="0"/>
			<psa30 value="0.000885655753679233" flag="0"/>
		</comp>
	</station>
	<station code="IMMV" name="IMMV" netid="HL" source="National Observatory of Athens Seismic Network" insttype="" lat="35.4606" lon="23.9811">
		<comp name="--.HNE" depth="0.0">
			<acc value="0.00594912664898303" flag="0"/>
			<vel value="0.00516805531485069" flag="0"/>
			<psa03 value="0.0168540696243982" flag="0"/>
			<psa10 value="0.00778530058170923" flag="0"/>
			<psa30 value="0.000321315113674415" flag="0"/>
		</comp>
		<comp name="--.HNN" depth="0.0">
			<acc value="0.00836925565848069" flag="0"/>
			<vel value="0.00460999802964715" flag="0"/>
			<psa03 value="0.016922536399588" flag="0"/>
			<psa10 value="0.0071206220187634" flag="0"/>
			<psa30 value="0.000345864656627608" flag="0"/>
		</comp>
		<comp name="--.HNZ" depth="0.0">
			<acc value="0.00374665569417512" flag="0"/>
			<vel value="0.00266808633158355" flag="0"/>
			<psa03 value="0.0122571947915065" flag="0"/>
			<psa10 value="0.00381769829440247" flag="0"/>
			<psa30 value="0.000220778219223376" flag="0"/>
		</comp>
	</station>
	<station code="SIVA" name="SIVA" netid="HL" source="National Observatory of Athens Seismic Network" insttype="" lat="35.01777" lon="24.81204">
		<comp name="00.HNE" depth="0.0">
			<acc value="0.0698232328857768" flag="0"/>
			<vel value="0.0424303560211789" flag="0"/>
			<psa03 value="0.213360029888309" flag="0"/>
			<psa10 value="0.0396374895391687" flag="0"/>
			<psa30 value="0.00200639958079355" flag="0"/>
		</comp>
		<comp name="00.HNN" depth="0.0">
			<acc value="0.0853175586316706" flag="0"/>
			<vel value="0.0590794767024157" flag="0"/>
			<psa03 value="0.157057841811116" flag="0"/>
			<psa10 value="0.0540321056118693" flag="0"/>
			<psa30 value="0.00266163694538476" flag="0"/>
		</comp>
		<comp name="00.HNZ" depth="0.0">
			<acc value="0.0574677343804907" flag="0"/>
			<vel value="0.0234295678260725" flag="0"/>
			<psa03 value="0.069605022449551" flag="0"/>
			<psa10 value="0.0155235477338317" flag="0"/>
			<psa30 value="0.00155925256366164" flag="0"/>
		</comp>
	</station>
</stationlist>
