<stationlist created="1778550951">
	<station code="4802" name="4802" netid="TK" source="Turkish National Strong Motion Network (TNSMN)" insttype="" lat="37.03304" lon="27.43997">
		<comp name="00.HNE" depth="None">
			<acc value="0.403187465323197" flag="0"/>
			<vel value="0.158007821798745" flag="0"/>
			<psa03 value="0.534669369088348" flag="0"/>
			<psa10 value="0.114795974364632" flag="0"/>
			<psa30 value="0.00790594790944862" flag="0"/>
		</comp>
		<comp name="00.HNN" depth="None">
			<acc value="0.373832398449598" flag="0"/>
			<vel value="0.131696999198847" flag="0"/>
			<psa03 value="0.729700647737394" flag="0"/>
			<psa10 value="0.108103435098671" flag="0"/>
			<psa30 value="0.008097891975841" flag="0"/>
		</comp>
		<comp name="00.HNZ" depth="None">
			<acc value="0.200073149527231" flag="0"/>
			<vel value="0.0795795257446371" flag="0"/>
			<psa03 value="0.316282658584563" flag="0"/>
			<psa10 value="0.0582275076930189" flag="0"/>
			<psa30 value="0.00330108000429609" flag="0"/>
		</comp>
	</station>
</stationlist>
