<stationlist created="1778136449">
	<station code="KRL1" name="KRL1" netid="HI" source="ITSAK Strong Motion Network" insttype="" lat="37.7951" lon="26.7065">
		<comp name="--.HNE" depth="0.0">
			<acc value="0.00780019985754486" flag="0"/>
			<vel value="0.00589603545326035" flag="0"/>
			<psa03 value="0.0228021719902998" flag="0"/>
			<psa10 value="0.0079255697175915" flag="0"/>
			<psa30 value="0.000547613516292578" flag="0"/>
		</comp>
		<comp name="--.HNN" depth="0.0">
			<acc value="0.00529892695044304" flag="0"/>
			<vel value="0.00528882704970582" flag="0"/>
			<psa03 value="0.0137368305705081" flag="0"/>
			<psa10 value="0.0107899400930968" flag="0"/>
			<psa30 value="0.000628721233029575" flag="0"/>
		</comp>
		<comp name="--.HNZ" depth="0.0">
			<acc value="0.00380054861757355" flag="0"/>
			<vel value="0.0034808344737876" flag="0"/>
			<psa03 value="0.00938144569348027" flag="0"/>
			<psa10 value="0.00699283886623862" flag="0"/>
			<psa30 value="0.000364465394043831" flag="0"/>
		</comp>
	</station>
	<station code="RDI1" name="RDI1" netid="HI" source="ITSAK Strong Motion Network" insttype="" lat="36.4514" lon="28.224">
		<comp name="--.HNE" depth="0.0">
			<acc value="0.0222921175119731" flag="0"/>
			<vel value="0.0196441458972394" flag="0"/>
			<psa03 value="0.0463082083167395" flag="0"/>
			<psa10 value="0.0282901134561742" flag="0"/>
			<psa30 value="0.00536995073288091" flag="0"/>
		</comp>
		<comp name="--.HNN" depth="0.0">
			<acc value="0.0145964158642827" flag="0"/>
			<vel value="0.0143686857392035" flag="0"/>
			<psa03 value="0.0507989224708973" flag="0"/>
			<psa10 value="0.022920224602387" flag="0"/>
			<psa30 value="0.00510275136554788" flag="0"/>
		</comp>
		<comp name="--.HNZ" depth="0.0">
			<acc value="0.0117745119375213" flag="0"/>
			<vel value="0.00882120452829326" flag="0"/>
			<psa03 value="0.0264386472639519" flag="0"/>
			<psa10 value="0.0139139242292005" flag="0"/>
			<psa30 value="0.00229924085509125" flag="0"/>
		</comp>
	</station>
	<station code="KLNA" name="KLNA" netid="HL" source="National Observatory of Athens Seismic Network" insttype="" lat="36.95708" lon="26.97274">
		<comp name="00.HNE" depth="0.0">
			<acc value="0.00779188851867269" flag="0"/>
			<vel value="0.00378896422358032" flag="0"/>
			<psa03 value="0.0217447124164801" flag="0"/>
			<psa10 value="0.00386975345041432" flag="0"/>
			<psa30 value="0.000246529558466677" flag="0"/>
		</comp>
		<comp name="00.HNN" depth="0.0">
			<acc value="0.00664770346774219" flag="0"/>
			<vel value="0.00500371185536478" flag="0"/>
			<psa03 value="0.02304223640841" flag="0"/>
			<psa10 value="0.00682139682102171" flag="0"/>
			<psa30 value="0.000589254861162639" flag="0"/>
		</comp>
		<comp name="00.HNZ" depth="0.0">
			<acc value="0.00581259244877905" flag="0"/>
			<vel value="0.00302753261158176" flag="0"/>
			<psa03 value="0.0124830756464978" flag="0"/>
			<psa10 value="0.00264963347593405" flag="0"/>
			<psa30 value="0.000379413912122944" flag="0"/>
		</comp>
	</station>
	<station code="KSL" name="KSL" netid="HL" source="National Observatory of Athens Seismic Network" insttype="" lat="36.15031" lon="29.58561">
		<comp name="00.HNE" depth="0.0">
			<acc value="0.0129518561930533" flag="0"/>
			<vel value="0.0146103482774516" flag="0"/>
			<psa03 value="0.0282770745827477" flag="0"/>
			<psa10 value="0.0144199657710028" flag="0"/>
			<psa30 value="0.00215075787214032" flag="0"/>
		</comp>
		<comp name="00.HNN" depth="0.0">
			<acc value="0.00935597393855509" flag="0"/>
			<vel value="0.0103290121828441" flag="0"/>
			<psa03 value="0.0217447124164801" flag="0"/>
			<psa10 value="0.0180601917014654" flag="0"/>
			<psa30 value="0.0016594884434717" flag="0"/>
		</comp>
		<comp name="00.HNZ" depth="0.0">
			<acc value="0.0105740579076617" flag="0"/>
			<vel value="0.00548753519376842" flag="0"/>
			<psa03 value="0.0306484115335162" flag="0"/>
			<psa10 value="0.00841198226630127" flag="0"/>
			<psa30 value="0.000639813554641286" flag="0"/>
		</comp>
	</station>
	<station code="NISR" name="NISR" netid="HL" source="National Observatory of Athens Seismic Network" insttype="" lat="36.6106" lon="27.131">
		<comp name="--.HNE" depth="0.0">
			<acc value="0.00709826689454402" flag="0"/>
			<vel value="0.00795127574217097" flag="0"/>
			<psa03 value="0.0190601800193838" flag="0"/>
			<psa10 value="0.013952857133908" flag="0"/>
			<psa30 value="0.00156016074477914" flag="0"/>
		</comp>
		<comp name="--.HNN" depth="0.0">
			<acc value="0.0045037657193698" flag="0"/>
			<vel value="0.00361263365403914" flag="0"/>
			<psa03 value="0.0112302938611862" flag="0"/>
			<psa10 value="0.00539591011816357" flag="0"/>
			<psa30 value="0.00151586596022705" flag="0"/>
		</comp>
		<comp name="--.HNZ" depth="0.0">
			<acc value="0.00410794436345962" flag="0"/>
			<vel value="0.00374537253122105" flag="0"/>
			<psa03 value="0.00836679263761682" flag="0"/>
			<psa10 value="0.00738514862441193" flag="0"/>
			<psa30 value="0.000753011337385513" flag="0"/>
		</comp>
	</station>
	<station code="RODB" name="RODB" netid="HL" source="National Observatory of Athens Seismic Network" insttype="" lat="36.4471" lon="28.22116">
		<comp name="00.HNE" depth="0.0">
			<acc value="0.0123669898706947" flag="0"/>
			<vel value="0.0151556918360201" flag="0"/>
			<psa03 value="0.0377176801792031" flag="0"/>
			<psa10 value="0.0236775757423894" flag="0"/>
			<psa30 value="0.00413910153425632" flag="0"/>
		</comp>
		<comp name="00.HNN" depth="0.0">
			<acc value="0.0125474930705399" flag="0"/>
			<vel value="0.0129438392793126" flag="0"/>
			<psa03 value="0.0458160195771103" flag="0"/>
			<psa10 value="0.0246963557870875" flag="0"/>
			<psa30 value="0.00470464302591127" flag="0"/>
		</comp>
		<comp name="00.HNZ" depth="0.0">
			<acc value="0.0106162029146938" flag="0"/>
			<vel value="0.0138877011245708" flag="0"/>
			<psa03 value="0.0239818227473937" flag="0"/>
			<psa10 value="0.0191474273222894" flag="0"/>
			<psa30 value="0.00176060583042899" flag="0"/>
		</comp>
	</station>
	<station code="SMG" name="SMG" netid="HL" source="National Observatory of Athens Seismic Network" insttype="" lat="37.70425" lon="26.83772">
		<comp name="00.HNE" depth="0.0">
			<acc value="0.00388279909702195" flag="0"/>
			<vel value="0.00290056845198309" flag="0"/>
			<psa03 value="0.0212078059370608" flag="0"/>
			<psa10 value="0.00302412574532899" flag="0"/>
			<psa30 value="0.000395968528571705" flag="0"/>
		</comp>
		<comp name="00.HNN" depth="0.0">
			<acc value="0.00556710732244542" flag="0"/>
			<vel value="0.0035967999367929" flag="0"/>
			<psa03 value="0.0197313131186578" flag="0"/>
			<psa10 value="0.00289526819026837" flag="0"/>
			<psa30 value="0.000280981057562747" flag="0"/>
		</comp>
		<comp name="00.HNZ" depth="0.0">
			<acc value="0.00347913185220224" flag="0"/>
			<vel value="0.0014210074136503" flag="0"/>
			<psa03 value="0.0114540048942776" flag="0"/>
			<psa10 value="0.00205769408237432" flag="0"/>
			<psa30 value="0.000318117089055912" flag="0"/>
		</comp>
	</station>
	<station code="BASM" name="BASM" netid="KO" source="Bogazici University Kandilli Observatory And Earthquake Research Institute (KOERI)" insttype="" lat="37.9194" lon="30.035">
		<comp name="--.HNE" depth="0.0">
			<acc value="0.0109335651909495" flag="0"/>
			<vel value="0.0113042778559535" flag="0"/>
			<psa03 value="0.0289929498886401" flag="0"/>
			<psa10 value="0.0125112632366673" flag="0"/>
			<psa30 value="0.00114450564529539" flag="0"/>
		</comp>
		<comp name="--.HNN" depth="0.0">
			<acc value="0.00875835224257998" flag="0"/>
			<vel value="0.00817246399587822" flag="0"/>
			<psa03 value="0.0305141849136613" flag="0"/>
			<psa10 value="0.0129582378807839" flag="0"/>
			<psa30 value="0.00109797375041239" flag="0"/>
		</comp>
		<comp name="--.HNZ" depth="0.0">
			<acc value="0.00866831621412067" flag="0"/>
			<vel value="0.00585718333885248" flag="0"/>
			<psa03 value="0.0208946104907329" flag="0"/>
			<psa10 value="0.00558919645075451" flag="0"/>
			<psa30 value="0.000854128724342808" flag="0"/>
		</comp>
	</station>
	<station code="DATC" name="DATC" netid="KO" source="Bogazici University Kandilli Observatory And Earthquake Research Institute (KOERI)" insttype="" lat="36.7584" lon="27.6602">
		<comp name="--.HNE" depth="0.0">
			<acc value="0.0320070809128971" flag="0"/>
			<vel value="0.0307267591479148" flag="0"/>
			<psa03 value="0.0675159897869721" flag="0"/>
			<psa10 value="0.114747652781484" flag="0"/>
			<psa30 value="0.00379369169916326" flag="0"/>
		</comp>
		<comp name="--.HNN" depth="0.0">
			<acc value="0.0346188561624479" flag="0"/>
			<vel value="0.0256090782776737" flag="0"/>
			<psa03 value="0.0861287477401731" flag="0"/>
			<psa10 value="0.0467672388898147" flag="0"/>
			<psa30 value="0.00347199523357789" flag="0"/>
		</comp>
		<comp name="--.HNZ" depth="0.0">
			<acc value="0.0350395059936665" flag="0"/>
			<vel value="0.0180738824585445" flag="0"/>
			<psa03 value="0.0384335554850954" flag="0"/>
			<psa10 value="0.0331123648519844" flag="0"/>
			<psa30 value="0.00272524780511893" flag="0"/>
		</comp>
	</station>
	<station code="DEMR" name="DEMR" netid="KO" source="Bogazici University Kandilli Observatory And Earthquake Research Institute (KOERI)" insttype="" lat="36.2365" lon="29.9056">
		<comp name="--.HNE" depth="0.0">
			<acc value="0.00766584042850567" flag="0"/>
			<vel value="0.00496437509196664" flag="0"/>
			<psa03 value="0.0166888430686154" flag="0"/>
			<psa10 value="0.00905627004160439" flag="0"/>
			<psa30 value="0.00133510744548923" flag="0"/>
		</comp>
		<comp name="--.HNN" depth="0.0">
			<acc value="0.00705783435892037" flag="0"/>
			<vel value="0.00590993661459246" flag="0"/>
			<psa03 value="0.0225053299289907" flag="0"/>
			<psa10 value="0.00562141083951966" flag="0"/>
			<psa30 value="0.00197939522079234" flag="0"/>
		</comp>
		<comp name="--.HNZ" depth="0.0">
			<acc value="0.00544829297110868" flag="0"/>
			<vel value="0.00401106428559706" flag="0"/>
			<psa03 value="0.0168230696884702" flag="0"/>
			<psa10 value="0.00778380168538074" flag="0"/>
			<psa30 value="0.000557487894463666" flag="0"/>
		</comp>
	</station>
	<station code="DIDI" name="DIDI" netid="KO" source="Bogazici University Kandilli Observatory And Earthquake Research Institute (KOERI)" insttype="" lat="37.3767" lon="27.2398">
		<comp name="--.HNE" depth="0.0">
			<acc value="0.0216589513100649" flag="0"/>
			<vel value="0.0119408321757355" flag="0"/>
			<psa03 value="0.0560172426860762" flag="0"/>
			<psa10 value="0.0147622436516326" flag="0"/>
			<psa30 value="0.00252256560913816" flag="0"/>
		</comp>
		<comp name="--.HNN" depth="0.0">
			<acc value="0.0222923131858676" flag="0"/>
			<vel value="0.0130710257992494" flag="0"/>
			<psa03 value="0.0469345747425671" flag="0"/>
			<psa10 value="0.0130266934569098" flag="0"/>
			<psa30 value="0.00320622652626535" flag="0"/>
		</comp>
		<comp name="--.HNZ" depth="0.0">
			<acc value="0.0373300110346491" flag="0"/>
			<vel value="0.0117471672164898" flag="0"/>
			<psa03 value="0.0232659474415013" flag="0"/>
			<psa10 value="0.0125998528057715" flag="0"/>
			<psa30 value="0.00163488022983165" flag="0"/>
		</comp>
	</station>
	<station code="FETI" name="FETI" netid="KO" source="Bogazici University Kandilli Observatory And Earthquake Research Institute (KOERI)" insttype="" lat="36.6903" lon="29.096">
		<comp name="--.HNE" depth="0.0">
			<acc value="0.0379668289635327" flag="0"/>
			<vel value="0.031673016559146" flag="0"/>
			<psa03 value="0.103533466114681" flag="0"/>
			<psa10 value="0.0505081347851684" flag="0"/>
			<psa30 value="0.0022133969614059" flag="0"/>
		</comp>
		<comp name="--.HNN" depth="0.0">
			<acc value="0.00430883865111804" flag="0"/>
			<vel value="0.00152971122306374" flag="0"/>
			<psa03 value="0.00290824343018766" flag="0"/>
			<psa10 value="0.00161877303544907" flag="0"/>
			<psa30 value="0.000830415354835124" flag="0"/>
		</comp>
		<comp name="--.HNZ" depth="0.0">
			<acc value="0.0538022984422207" flag="0"/>
			<vel value="0.0213012729764157" flag="0"/>
			<psa03 value="0.0593729081824466" flag="0"/>
			<psa10 value="0.0182333440410781" flag="0"/>
			<psa30 value="0.00152257729121979" flag="0"/>
		</comp>
	</station>
	<station code="GOMA" name="GOMA" netid="KO" source="Bogazici University Kandilli Observatory And Earthquake Research Institute (KOERI)" insttype="" lat="38.7077" lon="27.9175">
		<comp name="--.HNE" depth="0.0">
			<acc value="0.00901943412222242" flag="0"/>
			<vel value="0.0052496756929888" flag="0"/>
			<psa03 value="0.0295298563680594" flag="0"/>
			<psa10 value="0.00342277880629779" flag="0"/>
			<psa30 value="0.000425498384939764" flag="0"/>
		</comp>
		<comp name="--.HNN" depth="0.0">
			<acc value="0.00479760702577613" flag="0"/>
			<vel value="0.00320682589544174" flag="0"/>
			<psa03 value="0.0147201859774114" flag="0"/>
			<psa10 value="0.00335835002876748" flag="0"/>
			<psa30 value="0.000358832497078539" flag="0"/>
		</comp>
		<comp name="--.HNZ" depth="0.0">
			<acc value="0.0032766268787331" flag="0"/>
			<vel value="0.00202971639219783" flag="0"/>
			<psa03 value="0.0110065828280949" flag="0"/>
			<psa10 value="0.00174763059050969" flag="0"/>
			<psa30 value="0.000351226321953433" flag="0"/>
		</comp>
	</station>
	<station code="GORD" name="GORD" netid="KO" source="Bogazici University Kandilli Observatory And Earthquake Research Institute (KOERI)" insttype="" lat="38.9088" lon="28.1769">
		<comp name="--.HNE" depth="0.0">
			<acc value="0.00355460560725711" flag="0"/>
			<vel value="0.00362817036996247" flag="0"/>
			<psa03 value="0.00747194850525138" flag="0"/>
			<psa10 value="0.00757440815840723" flag="0"/>
			<psa30 value="0.000510955999580663" flag="0"/>
		</comp>
		<comp name="--.HNN" depth="0.0">
			<acc value="0.00294115166593479" flag="0"/>
			<vel value="0.00308881429653405" flag="0"/>
			<psa03 value="0.00876947249718126" flag="0"/>
			<psa10 value="0.00662408368983513" flag="0"/>
			<psa30 value="0.000382098444520041" flag="0"/>
		</comp>
		<comp name="--.HNZ" depth="0.0">
			<acc value="0.00265780422082021" flag="0"/>
			<vel value="0.00266642839114577" flag="0"/>
			<psa03 value="0.00662184657950422" flag="0"/>
			<psa10 value="0.00474356874566917" flag="0"/>
			<psa30 value="0.000334671705504673" flag="0"/>
		</comp>
	</station>
	<station code="KEMT" name="KEMT" netid="KO" source="Bogazici University Kandilli Observatory And Earthquake Research Institute (KOERI)" insttype="" lat="36.6037" lon="30.5558">
		<comp name="--.HNE" depth="0.0">
			<acc value="0.0136741578297966" flag="0"/>
			<vel value="0.00910369457850022" flag="0"/>
			<psa03 value="0.0584333218434629" flag="0"/>
			<psa10 value="0.0102482024259151" flag="0"/>
			<psa30 value="0.000972248149815045" flag="0"/>
		</comp>
		<comp name="--.HNN" depth="0.0">
			<acc value="0.0150205315199071" flag="0"/>
			<vel value="0.00991676226292579" flag="0"/>
			<psa03 value="0.0531089992558886" flag="0"/>
			<psa10 value="0.00684555761259558" flag="0"/>
			<psa30 value="0.00202592711567534" flag="0"/>
		</comp>
		<comp name="--.HNZ" depth="0.0">
			<acc value="0.00608144826096256" flag="0"/>
			<vel value="0.0033726491361673" flag="0"/>
			<psa03 value="0.0118119425472237" flag="0"/>
			<psa10 value="0.00289929498886401" flag="0"/>
			<psa30 value="0.00040670665816009" flag="0"/>
		</comp>
	</station>
	<station code="KHL" name="KHL" netid="KO" source="Bogazici University Kandilli Observatory And Earthquake Research Institute (KOERI)" insttype="" lat="38.3231" lon="29.5286">
		<comp name="--.HNE" depth="0.0">
			<acc value="0.00745722854473101" flag="0"/>
			<vel value="0.0095058158390747" flag="0"/>
			<psa03 value="0.024205533780485" flag="0"/>
			<psa10 value="0.0112267144846567" flag="0"/>
			<psa30 value="0.00600664123850298" flag="0"/>
		</comp>
		<comp name="--.HNN" depth="0.0">
			<acc value="0.00901038959897849" flag="0"/>
			<vel value="0.00950863450339686" flag="0"/>
			<psa03 value="0.0241160493672485" flag="0"/>
			<psa10 value="0.0113877864284825" flag="0"/>
			<psa30 value="0.00598382271312766" flag="0"/>
		</comp>
		<comp name="--.HNZ" depth="0.0">
			<acc value="0.00589275268293846" flag="0"/>
			<vel value="0.00527069579665721" flag="0"/>
			<psa03 value="0.0169125541017067" flag="0"/>
			<psa10 value="0.00525094536872037" flag="0"/>
			<psa30 value="0.0028970578785331" flag="0"/>
		</comp>
	</station>
	<station code="KUSD" name="KUSD" netid="KO" source="Bogazici University Kandilli Observatory And Earthquake Research Institute (KOERI)" insttype="" lat="37.8606" lon="27.2868">
		<comp name="--.HNE" depth="0.0">
			<acc value="0.00643217327618012" flag="0"/>
			<vel value="0.00458048955091776" flag="0"/>
			<psa03 value="0.0114092626876593" flag="0"/>
			<psa10 value="0.00851265223119238" flag="0"/>
			<psa30 value="0.000935112118321879" flag="0"/>
		</comp>
		<comp name="--.HNN" depth="0.0">
			<acc value="0.0119716030555389" flag="0"/>
			<vel value="0.0055045790628103" flag="0"/>
			<psa03 value="0.0240713071606302" flag="0"/>
			<psa10 value="0.0103931671753583" flag="0"/>
			<psa30 value="0.000641603242906017" flag="0"/>
		</comp>
		<comp name="--.HNZ" depth="0.0">
			<acc value="0.00422923800144847" flag="0"/>
			<vel value="0.00418693423934475" flag="0"/>
			<psa03 value="0.00872473029056299" flag="0"/>
			<psa10 value="0.00883882291743958" flag="0"/>
			<psa30 value="0.000811176205989267" flag="0"/>
		</comp>
	</station>
	<station code="ODEM" name="ODEM" netid="KO" source="Bogazici University Kandilli Observatory And Earthquake Research Institute (KOERI)" insttype="" lat="38.2762" lon="28.0747">
		<comp name="--.HNE" depth="0.0">
			<acc value="0.0113994092041016" flag="0"/>
			<vel value="0.0102875009386482" flag="0"/>
			<psa03 value="0.0202682195980771" flag="0"/>
			<psa10 value="0.00827507111404936" flag="0"/>
			<psa30 value="0.000871130762857751" flag="0"/>
		</comp>
		<comp name="--.HNN" depth="0.0">
			<acc value="0.0136644568036171" flag="0"/>
			<vel value="0.00773624648584885" flag="0"/>
			<psa03 value="0.0382545866586224" flag="0"/>
			<psa10 value="0.00962404864359026" flag="0"/>
			<psa30 value="0.000713638195561434" flag="0"/>
		</comp>
		<comp name="--.HNZ" depth="0.0">
			<acc value="0.0108743803315682" flag="0"/>
			<vel value="0.00662132188659256" flag="0"/>
			<psa03 value="0.0306484115335162" flag="0"/>
			<psa10 value="0.00630596660077922" flag="0"/>
			<psa30 value="0.000487690052139162" flag="0"/>
		</comp>
	</station>
	<station code="SHAP" name="SHAP" netid="KO" source="Bogazici University Kandilli Observatory And Earthquake Research Institute (KOERI)" insttype="" lat="39.0231" lon="29.222">
		<comp name="--.HNE" depth="0.0">
			<acc value="0.00322114855455188" flag="0"/>
			<vel value="0.00184907216219618" flag="0"/>
			<psa03 value="0.00953009000969188" flag="0"/>
			<psa10 value="0.00260131189278632" flag="0"/>
			<psa30 value="0.00027337488243764" flag="0"/>
		</comp>
		<comp name="--.HNN" depth="0.0">
			<acc value="0.00417497738623362" flag="0"/>
			<vel value="0.00401592435547016" flag="0"/>
			<psa03 value="0.0154360612833038" flag="0"/>
			<psa10 value="0.00298385775937254" flag="0"/>
			<psa30 value="0.000374044847328752" flag="0"/>
		</comp>
		<comp name="--.HNZ" depth="0.0">
			<acc value="0.00267804771707392" flag="0"/>
			<vel value="0.00184293444487142" flag="0"/>
			<psa03 value="0.00867998808394472" flag="0"/>
			<psa10 value="0.00167514821578809" flag="0"/>
			<psa30 value="0.000191944066392386" flag="0"/>
		</comp>
	</station>
	<station code="SMAA" name="SMAA" netid="KO" source="Bogazici University Kandilli Observatory And Earthquake Research Institute (KOERI)" insttype="" lat="39.1005" lon="28.9805">
		<comp name="--.HNE" depth="0.0">
			<acc value="0.0126772393655475" flag="0"/>
			<vel value="0.0121048244937872" flag="0"/>
			<psa03 value="0.0171362651347981" flag="0"/>
			<psa10 value="0.0141864114524554" flag="0"/>
			<psa30 value="0.00155926590064677" flag="0"/>
