<?xml version="1.0" encoding="UTF-8" standalone="yes"?>
<!DOCTYPE earthquake SYSTEM "stationlist.dtd">
<stationlist created="" xmlns="ch.ethz.sed.shakemap.usgs.xml">
  <station code="RDI1" name="RDI1" netid="HI" insttype="CMG-5TD,ACCELEROMETER,GURALP" lat="36.4514" lon="28.224">
    <comp name="--.HNZ">
      <acc value="0.0117515549" flag="0"/>
      <vel value="0.0089359222" flag="0"/>
      <psa03 value="0.0267836145" flag="0"/>
      <psa10 value="0.0139148051" flag="0"/>
      <psa30 value="0.0020627858" flag="0"/>
    </comp>
    <comp name="--.HNN">
      <acc value="0.0146309039" flag="0"/>
      <vel value="0.0131305425" flag="0"/>
      <psa03 value="0.0511306866" flag="0"/>
      <psa10 value="0.0229197667" flag="0"/>
      <psa30 value="0.0044926594" flag="0"/>
    </comp>
    <comp name="--.HNE">
      <acc value="0.0221948242" flag="0"/>
      <vel value="0.0188386750" flag="0"/>
      <psa03 value="0.0467450923" flag="0"/>
      <psa10 value="0.0284027668" flag="0"/>
      <psa30 value="0.0047638212" flag="0"/>
    </comp>
  </station>
  <station code="ARG" name="ARG" netid="HL" insttype="LE3D20_DR24" lat="36.2136" lon="28.1212">
    <comp name="--.HHZ">
      <acc value="0.0096139405" flag="0"/>
      <vel value="0.0046488878" flag="0"/>
      <psa03 value="0.0225222641" flag="0"/>
      <psa10 value="0.0059245671" flag="0"/>
      <psa30 value="0.0005381732" flag="0"/>
    </comp>
    <comp name="--.HHE">
      <acc value="0.0147491183" flag="0"/>
      <vel value="0.0076437581" flag="0"/>
      <psa03 value="0.0404952802" flag="0"/>
      <psa10 value="0.0078442736" flag="0"/>
      <psa30 value="0.0006907886" flag="0"/>
    </comp>
    <comp name="--.HHN">
      <acc value="0.0098405829" flag="0"/>
      <vel value="0.0045686050" flag="0"/>
      <psa03 value="0.0246291168" flag="0"/>
      <psa10 value="0.0055739448" flag="0"/>
      <psa30 value="0.0005218301" flag="0"/>
    </comp>
  </station>
  <station code="AYDN" name="AYDN" netid="TU" source="ODC" insttype="T" lat="37.6608" lon="27.8792">
    <comp name="--.HHN">
      <acc value="0.0701557668" flag="0"/>
      <vel value="0.0352175969" flag="0"/>
      <psa03 value="0.2288251431" flag="0"/>
      <psa10 value="0.0170046669" flag="0"/>
      <psa30 value="0.0021174094" flag="0"/>
    </comp>
    <comp name="--.HHE">
      <acc value="0.0834337733" flag="0"/>
      <vel value="0.0431629190" flag="0"/>
      <psa03 value="0.2035747745" flag="0"/>
      <psa10 value="0.0290361528" flag="0"/>
      <psa30 value="0.0021785551" flag="0"/>
    </comp>
    <comp name="--.HHZ">
      <acc value="0.0362803875" flag="0"/>
      <vel value="0.0146444082" flag="0"/>
      <psa03 value="0.0733042191" flag="0"/>
      <psa10 value="0.0128945844" flag="0"/>
      <psa30 value="0.0018414973" flag="0"/>
    </comp>
  </station>
</stationlist>
