<?xml version="1.0" encoding="UTF-8" standalone="yes"?>
<!DOCTYPE earthquake SYSTEM "stationlist.dtd">
<stationlist created="" xmlns="ch.ethz.sed.shakemap.usgs.xml">
  <station code="BODT" name="BODT" netid="KO" insttype="CMG-3ESP" commtype="DIG" lat="37.0622" lon="27.3103">
    <comp name="--.HHE">
      <acc value="0.0209823436" flag="0"/>
      <vel value="0.0114261548" flag="0"/>
      <psa03 value="0.0570196276" flag="0"/>
      <psa10 value="0.0151125731" flag="0"/>
      <psa30 value="0.0008693238" flag="0"/>
    </comp>
    <comp name="--.HHN">
      <acc value="0.0171239896" flag="0"/>
      <vel value="0.0104471929" flag="0"/>
      <psa03 value="0.0468224605" flag="0"/>
      <psa10 value="0.0128993499" flag="0"/>
      <psa30 value="0.0009285184" flag="0"/>
    </comp>
    <comp name="--.HHZ">
      <acc value="0.0113448869" flag="0"/>
      <vel value="0.0058266050" flag="0"/>
      <psa03 value="0.0275247825" flag="0"/>
      <psa10 value="0.0109887734" flag="0"/>
      <psa30 value="0.0008931419" flag="0"/>
    </comp>
  </station>
</stationlist>
