<?xml version="1.0" encoding="UTF-8" standalone="yes"?>
<!DOCTYPE earthquake SYSTEM "stationlist.dtd">
<stationlist created="" xmlns="ch.ethz.sed.shakemap.usgs.xml">
  <station code="APE" name="APE" netid="GE" insttype="STS-2/N" commtype="DIG" lat="37.0727" lon="25.523">
    <comp name="--.HHE">
      <acc value="0.2834880346" flag="0"/>
      <vel value="0.0882435252" flag="0"/>
      <psa03 value="0.3024249423" flag="0"/>
      <psa10 value="0.0438354230" flag="0"/>
      <psa30 value="0.0040824862" flag="0"/>
    </comp>
    <comp name="--.HHZ">
      <acc value="0.1309099981" flag="0"/>
      <vel value="0.0308505224" flag="0"/>
      <psa03 value="0.1071275822" flag="0"/>
      <psa10 value="0.0290983132" flag="0"/>
      <psa30 value="0.0052249724" flag="0"/>
    </comp>
    <comp name="--.HHN">
      <acc value="0.3290798058" flag="0"/>
      <vel value="0.0686205623" flag="0"/>
      <psa03 value="0.2512970597" flag="0"/>
      <psa10 value="0.0218677926" flag="0"/>
      <psa30 value="0.0042881697" flag="0"/>
    </comp>
  </station>
  <station code="THERA" name="THERA" netid="GE" insttype="STS-2/N" commtype="DIG" lat="36.367" lon="25.4753">
    <comp name="--.HHE">
      <acc value="0.2645626544" flag="0"/>
      <vel value="0.0528082491" flag="0"/>
      <psa03 value="0.2274045875" flag="0"/>
      <psa10 value="0.0330188376" flag="0"/>
      <psa30 value="0.0040637989" flag="0"/>
    </comp>
    <comp name="--.HHZ">
      <acc value="0.2321760472" flag="0"/>
      <vel value="0.0526654149" flag="0"/>
      <psa03 value="0.1892937378" flag="0"/>
      <psa10 value="0.0182024034" flag="0"/>
      <psa30 value="0.0023998886" flag="0"/>
    </comp>
    <comp name="--.HHN">
      <acc value="0.1583393249" flag="0"/>
      <vel value="0.0345657916" flag="0"/>
      <psa03 value="0.1291439506" flag="0"/>
      <psa10 value="0.0184311399" flag="0"/>
      <psa30 value="0.0017415969" flag="0"/>
    </comp>
  </station>
  <station code="BODT" name="BODT" netid="KO" insttype="CMG-3ESP" commtype="DIG" lat="37.0622" lon="27.3103">
    <comp name="--.HHZ">
      <acc value="0.0113448869" flag="0"/>
      <vel value="0.0058266041" flag="0"/>
      <psa03 value="0.0275247825" flag="0"/>
      <psa10 value="0.0109887734" flag="0"/>
      <psa30 value="0.0008931416" flag="0"/>
    </comp>
    <comp name="--.HHN">
      <acc value="0.0171239896" flag="0"/>
      <vel value="0.0104471928" flag="0"/>
      <psa03 value="0.0468224605" flag="0"/>
      <psa10 value="0.0128993499" flag="0"/>
      <psa30 value="0.0009285225" flag="0"/>
    </comp>
    <comp name="--.HHE">
      <acc value="0.0209823436" flag="0"/>
      <vel value="0.0114261542" flag="0"/>
      <psa03 value="0.0570196276" flag="0"/>
      <psa10 value="0.0151125731" flag="0"/>
      <psa30 value="0.0008693237" flag="0"/>
    </comp>
  </station>
</stationlist>
