<?xml version="1.0" encoding="UTF-8" standalone="yes"?>
<!DOCTYPE earthquake SYSTEM "stationlist.dtd">
<stationlist created="" xmlns="ch.ethz.sed.shakemap.usgs.xml">
  <station code="IMMV" name="IMMV" netid="GE" insttype="STS-2/N" lat="35.4606" lon="23.9811">
    <comp name="--.HHE">
      <acc value="0.0029639489" flag="0"/>
      <vel value="0.0014925142" flag="0"/>
      <psa03 value="0.0098906160" flag="0"/>
      <psa10 value="0.0010395275" flag="0"/>
      <psa30 value="0.0000896441" flag="0"/>
    </comp>
    <comp name="--.HHZ">
      <acc value="0.0027819325" flag="0"/>
      <vel value="0.0010696120" flag="0"/>
      <psa03 value="0.0068332123" flag="0"/>
      <psa10 value="0.0005600565" flag="0"/>
      <psa30 value="0.0000531352" flag="0"/>
    </comp>
    <comp name="--.HHN">
      <acc value="0.0033281170" flag="0"/>
      <vel value="0.0011695149" flag="0"/>
      <psa03 value="0.0080997063" flag="0"/>
      <psa10 value="0.0012211211" flag="0"/>
      <psa30 value="0.0000901868" flag="0"/>
    </comp>
  </station>
  <station code="CHAN" name="CHAN" netid="HC" insttype="120" lat="35.5193" lon="24.0428">
    <comp name="--.HHE">
      <acc value="0.0040510084" flag="0"/>
      <vel value="0.0025421514" flag="0"/>
      <psa03 value="0.0100612240" flag="0"/>
      <psa10 value="0.0028091799" flag="0"/>
      <psa30 value="0.0001665002" flag="0"/>
    </comp>
    <comp name="--.HHZ">
      <acc value="0.0037348173" flag="0"/>
      <vel value="0.0014083437" flag="0"/>
      <psa03 value="0.0088172586" flag="0"/>
      <psa10 value="0.0014215503" flag="0"/>
      <psa30 value="0.0001138677" flag="0"/>
    </comp>
    <comp name="--.HHN">
      <acc value="0.0041584683" flag="0"/>
      <vel value="0.0023482068" flag="0"/>
      <psa03 value="0.0103167412" flag="0"/>
      <psa10 value="0.0028180441" flag="0"/>
      <psa30 value="0.0002472529" flag="0"/>
    </comp>
  </station>
  <station code="KNDR" name="KNDR" netid="HC" insttype="120" lat="35.2348" lon="23.6248">
    <comp name="--.HHE">
      <acc value="0.0112555326" flag="0"/>
      <vel value="0.0057245423" flag="0"/>
      <psa03 value="0.0283187547" flag="0"/>
      <psa10 value="0.0029550651" flag="0"/>
      <psa30 value="0.0003134707" flag="0"/>
    </comp>
    <comp name="--.HHN">
      <acc value="0.0147239039" flag="0"/>
      <vel value="0.0034783866" flag="0"/>
      <psa03 value="0.0231878670" flag="0"/>
      <psa10 value="0.0031602554" flag="0"/>
      <psa30 value="0.0001916200" flag="0"/>
    </comp>
    <comp name="--.HHZ">
      <acc value="0.0118953047" flag="0"/>
      <vel value="0.0027368917" flag="0"/>
      <psa03 value="0.0147477451" flag="0"/>
      <psa10 value="0.0017226939" flag="0"/>
      <psa30 value="0.0001372256" flag="0"/>
    </comp>
  </station>
  <station code="ANKY" name="ANKY" netid="HL" insttype="60" lat="35.867" lon="23.3012">
    <comp name="--.HHN">
      <acc value="0.0133462787" flag="0"/>
      <vel value="0.0037996666" flag="0"/>
      <psa03 value="0.0259168998" flag="0"/>
      <psa10 value="0.0022132663" flag="0"/>
      <psa30 value="0.0001107703" flag="0"/>
    </comp>
    <comp name="--.HHE">
      <acc value="0.0108095401" flag="0"/>
      <vel value="0.0032176483" flag="0"/>
      <psa03 value="0.0187960902" flag="0"/>
      <psa10 value="0.0020495950" flag="0"/>
      <psa30 value="0.0001327639" flag="0"/>
    </comp>
    <comp name="--.HHZ">
      <acc value="0.0114057302" flag="0"/>
      <vel value="0.0030017994" flag="0"/>
      <psa03 value="0.0176117563" flag="0"/>
      <psa10 value="0.0011087577" flag="0"/>
      <psa30 value="0.0000775334" flag="0"/>
    </comp>
  </station>
  <station code="IMMV" name="IMMV" netid="HL" insttype="120" lat="35.4606" lon="23.9811">
    <comp name="--.HHN">
      <acc value="0.0032499619" flag="0"/>
      <vel value="0.0011471054" flag="0"/>
      <psa03 value="0.0078901858" flag="0"/>
      <psa10 value="0.0012101786" flag="0"/>
      <psa30 value="0.0000900348" flag="0"/>
    </comp>
    <comp name="--.HHE">
      <acc value="0.0028721716" flag="0"/>
      <vel value="0.0014690327" flag="0"/>
      <psa03 value="0.0096186915" flag="0"/>
      <psa10 value="0.0010276857" flag="0"/>
      <psa30 value="0.0000887529" flag="0"/>
    </comp>
    <comp name="--.HHZ">
      <acc value="0.0027144834" flag="0"/>
      <vel value="0.0010407246" flag="0"/>
      <psa03 value="0.0066366217" flag="0"/>
      <psa10 value="0.0005539887" flag="0"/>
      <psa30 value="0.0000529013" flag="0"/>
    </comp>
  </station>
  <station code="KTHA" name="KTHA" netid="HL" insttype="120" lat="36.2566" lon="23.0621">
    <comp name="--.HHE">
      <acc value="0.0046526614" flag="0"/>
      <vel value="0.0023900409" flag="0"/>
      <psa03 value="0.0127014850" flag="0"/>
      <psa10 value="0.0019756270" flag="0"/>
      <psa30 value="0.0001484075" flag="0"/>
    </comp>
    <comp name="--.HHN">
      <acc value="0.0032589085" flag="0"/>
      <vel value="0.0011024275" flag="0"/>
      <psa03 value="0.0055659922" flag="0"/>
      <psa10 value="0.0007061050" flag="0"/>
      <psa30 value="0.0000704315" flag="0"/>
    </comp>
    <comp name="--.HHZ">
      <acc value="0.0024393993" flag="0"/>
      <vel value="0.0009888356" flag="0"/>
      <psa03 value="0.0036226811" flag="0"/>
      <psa10 value="0.0008888825" flag="0"/>
      <psa30 value="0.0001022317" flag="0"/>
    </comp>
  </station>
  <station code="VAM" name="VAM" netid="HL" insttype="CMG3ESPC-120s" lat="35.407" lon="24.1997">
    <comp name="--.HHE">
      <acc value="0.0023889570" flag="0"/>
      <vel value="0.0010730946" flag="0"/>
      <psa03 value="0.0050560053" flag="0"/>
      <psa10 value="0.0011994707" flag="0"/>
      <psa30 value="0.0000908481" flag="0"/>
    </comp>
    <comp name="--.HHZ">
      <acc value="0.0013972823" flag="0"/>
      <vel value="0.0006838231" flag="0"/>
      <psa03 value="0.0039831431" flag="0"/>
      <psa10 value="0.0006744821" flag="0"/>
      <psa30 value="0.0000483550" flag="0"/>
    </comp>
    <comp name="--.HHN">
      <acc value="0.0033411491" flag="0"/>
      <vel value="0.0012726348" flag="0"/>
      <psa03 value="0.0066333155" flag="0"/>
      <psa10 value="0.0012602426" flag="0"/>
      <psa30 value="0.0000941034" flag="0"/>
    </comp>
  </station>
</stationlist>
