<?xml version="1.0" encoding="UTF-8" standalone="yes"?>
<!DOCTYPE earthquake SYSTEM "stationlist.dtd">
<stationlist created="" xmlns="ch.ethz.sed.shakemap.usgs.xml">
  <station code="GVD" name="GVD" netid="GE" insttype="STS-2/N" lat="34.8391" lon="24.0874">
    <comp name="--.HHZ">
      <acc value="0.1336111549" flag="0"/>
      <vel value="0.0335401473" flag="0"/>
      <psa03 value="0.1656107845" flag="0"/>
      <psa10 value="0.0094409980" flag="0"/>
      <psa30 value="0.0018146645" flag="0"/>
    </comp>
    <comp name="--.HHE">
      <acc value="0.4319401071" flag="0"/>
      <vel value="0.0599256882" flag="0"/>
      <psa03 value="0.2390759278" flag="0"/>
      <psa10 value="0.0475421261" flag="0"/>
      <psa30 value="0.0098000998" flag="0"/>
    </comp>
    <comp name="--.HHN">
      <acc value="0.1696773676" flag="0"/>
      <vel value="0.0464003055" flag="0"/>
      <psa03 value="0.2970861817" flag="0"/>
      <psa10 value="0.0182877061" flag="0"/>
      <psa30 value="0.0017688309" flag="0"/>
    </comp>
  </station>
  <station code="IMMV" name="IMMV" netid="GE" insttype="STS-2/N" lat="35.4606" lon="23.9811">
    <comp name="--.HHE">
      <acc value="0.0581703860" flag="0"/>
      <vel value="0.0178950064" flag="0"/>
      <psa03 value="0.1227458893" flag="0"/>
      <psa10 value="0.0297296156" flag="0"/>
      <psa30 value="0.0023951518" flag="0"/>
    </comp>
    <comp name="--.HHN">
      <acc value="0.0622923368" flag="0"/>
      <vel value="0.0201002117" flag="0"/>
      <psa03 value="0.1457371959" flag="0"/>
      <psa10 value="0.0255726772" flag="0"/>
      <psa30 value="0.0020990390" flag="0"/>
    </comp>
    <comp name="--.HHZ">
      <acc value="0.0444450114" flag="0"/>
      <vel value="0.0164459215" flag="0"/>
      <psa03 value="0.0739689577" flag="0"/>
      <psa10 value="0.0143437577" flag="0"/>
      <psa30 value="0.0019352207" flag="0"/>
    </comp>
  </station>
  <station code="THERA" name="THERA" netid="GE" insttype="STS-2/N" lat="36.367" lon="25.4753">
    <comp name="--.HHE">
      <acc value="0.0239475472" flag="0"/>
      <vel value="0.0122503992" flag="0"/>
      <psa03 value="0.0487105691" flag="0"/>
      <psa10 value="0.0134178508" flag="0"/>
      <psa30 value="0.0010762871" flag="0"/>
    </comp>
    <comp name="--.HHN">
      <acc value="0.0129180198" flag="0"/>
      <vel value="0.0059310235" flag="0"/>
      <psa03 value="0.0224308559" flag="0"/>
      <psa10 value="0.0030645063" flag="0"/>
      <psa30 value="0.0004929894" flag="0"/>
    </comp>
    <comp name="--.HHZ">
      <acc value="0.0237960711" flag="0"/>
      <vel value="0.0110235566" flag="0"/>
      <psa03 value="0.0426032425" flag="0"/>
      <psa10 value="0.0064836338" flag="0"/>
      <psa30 value="0.0006156778" flag="0"/>
    </comp>
  </station>
  <station code="ZKR" name="ZKR" netid="GE" insttype="STS-2/N" lat="35.1147" lon="26.2169">
    <comp name="--.HHE">
      <acc value="0.0564739902" flag="0"/>
      <vel value="0.0350113785" flag="0"/>
      <psa03 value="0.2053236166" flag="0"/>
      <psa10 value="0.0336328576" flag="0"/>
      <psa30 value="0.0022777670" flag="0"/>
    </comp>
    <comp name="--.HHN">
      <acc value="0.0359709449" flag="0"/>
      <vel value="0.0159416436" flag="0"/>
      <psa03 value="0.1477181300" flag="0"/>
      <psa10 value="0.0139837084" flag="0"/>
      <psa30 value="0.0014337372" flag="0"/>
    </comp>
    <comp name="--.HHZ">
      <acc value="0.0308415557" flag="0"/>
      <vel value="0.0168297629" flag="0"/>
      <psa03 value="0.1238647975" flag="0"/>
      <psa10 value="0.0130927213" flag="0"/>
      <psa30 value="0.0018401127" flag="0"/>
    </comp>
  </station>
</stationlist>
