<?xml version="1.0" encoding="UTF-8" standalone="yes"?>
<!DOCTYPE earthquake SYSTEM "stationlist.dtd">
<stationlist created="" xmlns="ch.ethz.sed.shakemap.usgs.xml">
  <station code="GVD" name="GVD" netid="GE" insttype="STS-2/N" lat="34.8391" lon="24.0874">
    <comp name="--.HHE">
      <acc value="0.4319955658" flag="0"/>
      <vel value="0.0581799683" flag="0"/>
      <psa03 value="0.2386401151" flag="0"/>
      <psa10 value="0.0479972874" flag="0"/>
      <psa30 value="0.0075832695" flag="0"/>
    </comp>
    <comp name="--.HHN">
      <acc value="0.1696598467" flag="0"/>
      <vel value="0.0468262007" flag="0"/>
      <psa03 value="0.2971049681" flag="0"/>
      <psa10 value="0.0183521724" flag="0"/>
      <psa30 value="0.0016665098" flag="0"/>
    </comp>
    <comp name="--.HHZ">
      <acc value="0.1336287968" flag="0"/>
      <vel value="0.0335879786" flag="0"/>
      <psa03 value="0.1655905516" flag="0"/>
      <psa10 value="0.0094679812" flag="0"/>
      <psa30 value="0.0015253827" flag="0"/>
    </comp>
  </station>
  <station code="IMMV" name="IMMV" netid="GE" insttype="STS-2/N" lat="35.4606" lon="23.9811">
    <comp name="--.HHE">
      <acc value="0.0581504791" flag="0"/>
      <vel value="0.0174948807" flag="0"/>
      <psa03 value="0.1227249554" flag="0"/>
      <psa10 value="0.0297572236" flag="0"/>
      <psa30 value="0.0021322448" flag="0"/>
    </comp>
    <comp name="--.HHN">
      <acc value="0.0622680431" flag="0"/>
      <vel value="0.0202519283" flag="0"/>
      <psa03 value="0.1456896364" flag="0"/>
      <psa10 value="0.0254357547" flag="0"/>
      <psa30 value="0.0018866755" flag="0"/>
    </comp>
    <comp name="--.HHZ">
      <acc value="0.0444654954" flag="0"/>
      <vel value="0.0163332676" flag="0"/>
      <psa03 value="0.0739935593" flag="0"/>
      <psa10 value="0.0143386507" flag="0"/>
      <psa30 value="0.0017591988" flag="0"/>
    </comp>
  </station>
  <station code="ZKR" name="ZKR" netid="GE" insttype="STS-2/N" lat="35.1147" lon="26.2169">
    <comp name="--.HHE">
      <acc value="0.0564896394" flag="0"/>
      <vel value="0.0350382831" flag="0"/>
      <psa03 value="0.2053273881" flag="0"/>
      <psa10 value="0.0336155791" flag="0"/>
      <psa30 value="0.0021506179" flag="0"/>
    </comp>
    <comp name="--.HHN">
      <acc value="0.0359667242" flag="0"/>
      <vel value="0.0160045844" flag="0"/>
      <psa03 value="0.1477137775" flag="0"/>
      <psa10 value="0.0140051508" flag="0"/>
      <psa30 value="0.0012150800" flag="0"/>
    </comp>
    <comp name="--.HHZ">
      <acc value="0.0308482569" flag="0"/>
      <vel value="0.0167296453" flag="0"/>
      <psa03 value="0.1238367931" flag="0"/>
      <psa10 value="0.0130900541" flag="0"/>
      <psa30 value="0.0017116379" flag="0"/>
    </comp>
  </station>
  <station code="CHAN" name="CHAN" netid="HC" insttype="120" lat="35.5193" lon="24.0428">
    <comp name="--.HHE">
      <acc value="0.0478151641" flag="0"/>
      <vel value="0.0289575677" flag="0"/>
      <psa03 value="0.0925862173" flag="0"/>
      <psa10 value="0.0573502781" flag="0"/>
      <psa30 value="0.0051339312" flag="0"/>
    </comp>
    <comp name="--.HHN">
      <acc value="0.0505622221" flag="0"/>
      <vel value="0.0382524744" flag="0"/>
      <psa03 value="0.0886495810" flag="0"/>
      <psa10 value="0.0828381238" flag="0"/>
      <psa30 value="0.0093395527" flag="0"/>
    </comp>
    <comp name="--.HHZ">
      <acc value="0.0444476201" flag="0"/>
      <vel value="0.0207669150" flag="0"/>
      <psa03 value="0.0726729671" flag="0"/>
      <psa10 value="0.0336524272" flag="0"/>
      <psa30 value="0.0043970190" flag="0"/>
    </comp>
  </station>
  <station code="DEYA" name="DEYA" netid="HC" insttype="DC" lat="35.4825" lon="24.014">
    <comp name="--.HNE">
      <acc value="0.0063245038" flag="0"/>
      <vel value="0.0044182092" flag="0"/>
      <psa03 value="0.0164255999" flag="0"/>
      <psa10 value="0.0063162239" flag="0"/>
      <psa30 value="0.0006777399" flag="0"/>
    </comp>
    <comp name="--.HNZ">
      <acc value="0.0051630700" flag="0"/>
      <vel value="0.0019966663" flag="0"/>
      <psa03 value="0.0085222148" flag="0"/>
      <psa10 value="0.0025438514" flag="0"/>
      <psa30 value="0.0002294885" flag="0"/>
    </comp>
    <comp name="--.HNN">
      <acc value="0.0081071063" flag="0"/>
      <vel value="0.0032863895" flag="0"/>
      <psa03 value="0.0192724644" flag="0"/>
      <psa10 value="0.0080137089" flag="0"/>
      <psa30 value="0.0002773019" flag="0"/>
    </comp>
  </station>
  <station code="GVDS" name="GVDS" netid="HC" insttype="60" lat="34.8389" lon="24.0585">
    <comp name="--.HHE">
      <acc value="0.1783363059" flag="0"/>
      <vel value="0.0397457096" flag="0"/>
      <psa03 value="0.1768439659" flag="0"/>
      <psa10 value="0.0119518920" flag="0"/>
      <psa30 value="0.0019985016" flag="0"/>
    </comp>
    <comp name="--.HHN">
      <acc value="0.1717975689" flag="0"/>
      <vel value="0.0470831947" flag="0"/>
      <psa03 value="0.2427998021" flag="0"/>
      <psa10 value="0.0154940871" flag="0"/>
      <psa30 value="0.0018097923" flag="0"/>
    </comp>
    <comp name="--.HHZ">
      <acc value="0.1066656650" flag="0"/>
      <vel value="0.0245604553" flag="0"/>
      <psa03 value="0.0717209202" flag="0"/>
      <psa10 value="0.0058942887" flag="0"/>
      <psa30 value="0.0011692640" flag="0"/>
    </comp>
  </station>
  <station code="IPPL" name="IPPL" netid="HC" insttype="60" lat="35.3486" lon="24.4632">
    <comp name="--.HHN">
      <acc value="0.1454883140" flag="0"/>
      <vel value="0.0396146618" flag="0"/>
      <psa03 value="0.2061531830" flag="0"/>
      <psa10 value="0.0321188506" flag="0"/>
      <psa30 value="0.0025800203" flag="0"/>
    </comp>
    <comp name="--.HHZ">
      <acc value="0.1223369269" flag="0"/>
      <vel value="0.0358650300" flag="0"/>
      <psa03 value="0.1140527355" flag="0"/>
      <psa10 value="0.0125077554" flag="0"/>
      <psa30 value="0.0022827958" flag="0"/>
    </comp>
    <comp name="--.HHE">
      <acc value="0.1460248483" flag="0"/>
      <vel value="0.0490799311" flag="0"/>
      <psa03 value="0.1669847856" flag="0"/>
      <psa10 value="0.0300902763" flag="0"/>
      <psa30 value="0.0070173253" flag="0"/>
    </comp>
  </station>
  <station code="KNDR" name="KNDR" netid="HC" insttype="120" lat="35.2348" lon="23.6248">
    <comp name="--.HHZ">
      <acc value="0.0368177977" flag="0"/>
      <vel value="0.0096068550" flag="0"/>
      <psa03 value="0.0503638469" flag="0"/>
      <psa10 value="0.0073070191" flag="0"/>
      <psa30 value="0.0006397276" flag="0"/>
    </comp>
    <comp name="--.HHE">
      <acc value="0.0331293161" flag="0"/>
      <vel value="0.0113565833" flag="0"/>
      <psa03 value="0.0838493737" flag="0"/>
      <psa10 value="0.0154799774" flag="0"/>
      <psa30 value="0.0011051052" flag="0"/>
    </comp>
    <comp name="--.HHN">
      <acc value="0.0404871084" flag="0"/>
      <vel value="0.0124588067" flag="0"/>
      <psa03 value="0.0736230186" flag="0"/>
      <psa10 value="0.0172942611" flag="0"/>
      <psa30 value="0.0011974644" flag="0"/>
    </comp>
  </station>
  <station code="KNSS" name="KNSS" netid="HC" insttype="60" lat="35.3042" lon="25.1802">
    <comp name="--.HHZ">
      <acc value="0.2091320940" flag="0"/>
      <vel value="0.0534309440" flag="0"/>
      <psa03 value="0.2678641922" flag="0"/>
      <psa10 value="0.0329003854" flag="0"/>
      <psa30 value="0.0035283759" flag="0"/>
    </comp>
    <comp name="--.HHE">
      <acc value="0.1776260094" flag="0"/>
      <vel value="0.0714138613" flag="0"/>
      <psa03 value="0.5741855261" flag="0"/>
      <psa10 value="0.0673180845" flag="0"/>
      <psa30 value="0.0060580824" flag="0"/>
    </comp>
    <comp name="--.HHN">
      <acc value="0.2526036371" flag="0"/>
      <vel value="0.0838362158" flag="0"/>
      <psa03 value="0.7160579113" flag="0"/>
      <psa10 value="0.0746936140" flag="0"/>
      <psa30 value="0.0067551835" flag="0"/>
    </comp>
  </station>
  <station code="PASK" name="PASK" netid="HC" insttype="DC" lat="35.4996" lon="24.0121">
    <comp name="--.HNN">
      <acc value="0.0513927337" flag="0"/>
      <vel value="0.0289688481" flag="0"/>
      <psa03 value="0.0636492680" flag="0"/>
      <psa10 value="0.0510785572" flag="0"/>
      <psa30 value="0.0054274369" flag="0"/>
    </comp>
    <comp name="--.HNZ">
      <acc value="0.0345055086" flag="0"/>
      <vel value="0.0174913515" flag="0"/>
      <psa03 value="0.1104219485" flag="0"/>
      <psa10 value="0.0245127735" flag="0"/>
      <psa30 value="0.0030488549" flag="0"/>
    </comp>
    <comp name="--.HNE">
      <acc value="0.0575153358" flag="0"/>
      <vel value="0.0277176780" flag="0"/>
      <psa03 value="0.1038609243" flag="0"/>
      <psa10 value="0.0502634867" flag="0"/>
      <psa30 value="0.0056868225" flag="0"/>
    </comp>
  </station>
  <station code="PFKS" name="PFKS" netid="HC" insttype="120" lat="35.0429" lon="25.4733">
    <comp name="--.HHE">
      <acc value="0.4920138727" flag="0"/>
      <vel value="0.2079992361" flag="0"/>
      <psa03 value="1.9021151015" flag="0"/>
      <psa10 value="0.0614024085" flag="0"/>
      <psa30 value="0.0048040851" flag="0"/>
    </comp>
    <comp name="--.HHZ">
      <acc value="0.2417546104" flag="0"/>
      <vel value="0.1199299979" flag="0"/>
      <psa03 value="0.7514844297" flag="0"/>
      <psa10 value="0.0493954582" flag="0"/>
      <psa30 value="0.0028223334" flag="0"/>
    </comp>
    <comp name="--.HHN">
      <acc value="0.6684015741" flag="0"/>
      <vel value="0.3397470789" flag="0"/>
      <psa03 value="1.9496801412" flag="0"/>
      <psa10 value="0.1099891025" flag="0"/>
      <psa30 value="0.0078000307" flag="0"/>
    </comp>
  </station>
  <station code="RODP" name="RODP" netid="HC" insttype="120" lat="35.5604" lon="23.7577">
    <comp name="--.HHE">
      <acc value="0.0380317874" flag="0"/>
      <vel value="0.0177757849" flag="0"/>
      <psa03 value="0.0701840578" flag="0"/>
      <psa10 value="0.0284774590" flag="0"/>
      <psa30 value="0.0018803128" flag="0"/>
    </comp>
    <comp name="--.HHZ">
      <acc value="0.0173270408" flag="0"/>
      <vel value="0.0067693593" flag="0"/>
      <psa03 value="0.0302663120" flag="0"/>
      <psa10 value="0.0094294457" flag="0"/>
      <psa30 value="0.0013635728" flag="0"/>
    </comp>
    <comp name="--.HHN">
      <acc value="0.0285488580" flag="0"/>
      <vel value="0.0117453311" flag="0"/>
      <psa03 value="0.0518629625" flag="0"/>
      <psa10 value="0.0184508272" flag="0"/>
      <psa30 value="0.0020587220" flag="0"/>
    </comp>
  </station>
  <station code="STIA" name="STIA" netid="HC" insttype="120" lat="35.2021" lon="26.0909">
    <comp name="--.HHN">
      <acc value="0.0548427155" flag="0"/>
      <vel value="0.0335976701" flag="0"/>
      <psa03 value="0.1097540682" flag="0"/>
      <psa10 value="0.0407016236" flag="0"/>
      <psa30 value="0.0020003597" flag="0"/>
    </comp>
    <comp name="--.HHE">
      <acc value="0.0456730917" flag="0"/>
      <vel value="0.0254374276" flag="0"/>
      <psa03 value="0.1075965214" flag="0"/>
      <psa10 value="0.0348948863" flag="0"/>
      <psa30 value="0.0032673871" flag="0"/>
    </comp>
    <comp name="--.HHZ">
      <acc value="0.0371039702" flag="0"/>
      <vel value="0.0173387449" flag="0"/>
      <psa03 value="0.1186929332" flag="0"/>
      <psa10 value="0.0187854666" flag="0"/>
      <psa30 value="0.0015841932" flag="0"/>
    </comp>
  </station>
  <station code="TEFL" name="TEFL" netid="HC" insttype="GEOtiny," lat="35.0933" lon="25.1634">
    <comp name="--.HHN">
      <acc value="1.8379779236" flag="0"/>
      <vel value="0.3490406689" flag="0"/>
      <psa03 value="1.9599503891" flag="0"/>
      <psa10 value="0.1744059763" flag="0"/>
      <psa30 value="0.0135255250" flag="0"/>
    </comp>
    <comp name="--.HHZ">
      <acc value="0.6828804592" flag="0"/>
      <vel value="0.1835937066" flag="0"/>
      <psa03 value="1.3500844187" flag="0"/>
      <psa10 value="0.1102552965" flag="0"/>
      <psa30 value="0.0085294059" flag="0"/>
    </comp>
    <comp name="--.HHE">
      <acc value="1.9297042141" flag="0"/>
      <vel value="0.5332274784" flag="0"/>
      <psa03 value="4.2695794353" flag="0"/>
      <psa10 value="0.2043807269" flag="0"/>
      <psa30 value="0.0114795822" flag="0"/>
    </comp>
  </station>
  <station code="GVD" name="GVD" netid="HL" insttype="120" lat="34.8391" lon="24.0874">
    <comp name="--.HHN">
      <acc value="0.1649532049" flag="0"/>
      <vel value="0.0455239249" flag="0"/>
      <psa03 value="0.2891957857" flag="0"/>
      <psa10 value="0.0181620194" flag="0"/>
      <psa30 value="0.0016616544" flag="0"/>
    </comp>
    <comp name="--.HHE">
      <acc value="0.4477051830" flag="0"/>
      <vel value="0.0569872756" flag="0"/>
      <psa03 value="0.2314513742" flag="0"/>
      <psa10 value="0.0476851686" flag="0"/>
      <psa30 value="0.0075851697" flag="0"/>
    </comp>
    <comp name="--.HHZ">
      <acc value="0.1311961914" flag="0"/>
      <vel value="0.0324308879" flag="0"/>
      <psa03 value="0.1604525387" flag="0"/>
      <psa10 value="0.0094031235" flag="0"/>
      <psa30 value="0.0015252376" flag="0"/>
    </comp>
  </station>
  <station code="IACM" name="IACM" netid="HL" insttype="120" lat="35.3058" lon="25.0709">
    <comp name="--.HHZ">
      <acc value="0.6619303397" flag="0"/>
      <vel value="0.1515820872" flag="0"/>
      <psa03 value="0.5984804774" flag="0"/>
      <psa10 value="0.1606683675" flag="0"/>
      <psa30 value="0.0096777817" flag="0"/>
    </comp>
    <comp name="--.HHE">
      <acc value="0.5640695689" flag="0"/>
      <vel value="0.2528204997" flag="0"/>
      <psa03 value="0.9865823122" flag="0"/>
      <psa10 value="0.3287322548" flag="0"/>
      <psa30 value="0.0181854716" flag="0"/>
    </comp>
    <comp name="--.HHN">
      <acc value="0.5119686002" flag="0"/>
      <vel value="0.3240555540" flag="0"/>
      <psa03 value="0.9438444725" flag="0"/>
      <psa10 value="0.4437729577" flag="0"/>
      <psa30 value="0.0206615522" flag="0"/>
    </comp>
  </station>
  <station code="IMMV" name="IMMV" netid="HL" insttype="120" lat="35.4606" lon="23.9811">
    <comp name="--.HHZ">
      <acc value="0.0432771883" flag="0"/>
      <vel value="0.0160922059" flag="0"/>
      <psa03 value="0.0717726027" flag="0"/>
      <psa10 value="0.0142208208" flag="0"/>
      <psa30 value="0.0017583090" flag="0"/>
    </comp>
    <comp name="--.HHN">
      <acc value="0.0603050353" flag="0"/>
      <vel value="0.0197619249" flag="0"/>
      <psa03 value="0.1414778191" flag="0"/>
      <psa10 value="0.0252292093" flag="0"/>
      <psa30 value="0.0018864966" flag="0"/>
    </comp>
    <comp name="--.HHE">
      <acc value="0.0570677125" flag="0"/>
      <vel value="0.0170995717" flag="0"/>
      <psa03 value="0.1194885945" flag="0"/>
      <psa10 value="0.0295611395" flag="0"/>
      <psa30 value="0.0021322309" flag="0"/>
    </comp>
  </station>
  <station code="KSTE" name="KSTE" netid="HL" insttype="60" lat="35.1801" lon="25.3372">
    <comp name="--.HHE">
      <acc value="0.2997670300" flag="0"/>
      <vel value="0.1453765801" flag="0"/>
      <psa03 value="0.7200050767" flag="0"/>
      <psa10 value="0.0680918788" flag="0"/>
      <psa30 value="0.0060203707" flag="0"/>
    </comp>
    <comp name="--.HHN">
      <acc value="0.2861783810" flag="0"/>
      <vel value="0.1576454322" flag="0"/>
      <psa03 value="0.8936850477" flag="0"/>
      <psa10 value="0.0485577199" flag="0"/>
      <psa30 value="0.0049501030" flag="0"/>
    </comp>
    <comp name="--.HHZ">
      <acc value="0.1596776577" flag="0"/>
      <vel value="0.0682512541" flag="0"/>
      <psa03 value="0.4273301753" flag="0"/>
      <psa10 value="0.0326637585" flag="0"/>
      <psa30 value="0.0034193905" flag="0"/>
    </comp>
  </station>
  <station code="NPS" name="NPS" netid="HL" insttype="CMG3ESPC-120s" lat="35.2613" lon="25.6104">
    <comp name="--.HHE">
      <acc value="0.0574458183" flag="0"/>
      <vel value="0.0258192952" flag="0"/>
      <psa03 value="0.1948516547" flag="0"/>
      <psa10 value="0.0262343085" flag="0"/>
      <psa30 value="0.0009684434" flag="0"/>
    </comp>
    <comp name="--.HHZ">
      <acc value="0.0675975562" flag="0"/>
      <vel value="0.0393013305" flag="0"/>
      <psa03 value="0.2730190889" flag="0"/>
      <psa10 value="0.0255704362" flag="0"/>
      <psa30 value="0.0018061516" flag="0"/>
    </comp>
    <comp name="--.HHN">
      <acc value="0.1303086302" flag="0"/>
      <vel value="0.0531898558" flag="0"/>
      <psa03 value="0.4137609321" flag="0"/>
      <psa10 value="0.0439937623" flag="0"/>
      <psa30 value="0.0024719112" flag="0"/>
    </comp>
  </station>
  <station code="SIVA" name="SIVA" netid="HL" insttype="GMG5TD" lat="35.0178" lon="24.812">
    <comp name="00.HNN">
      <acc value="8.1949745875" flag="0"/>
      <vel value="4.9418005100" flag="0"/>
      <psa03 value="12.4914982476" flag="0"/>
      <psa10 value="2.9022804562" flag="0"/>
      <psa30 value="0.2162463855" flag="0"/>
    </comp>
    <comp name="00.HNE">
      <acc value="9.4587414033" flag="0"/>
      <vel value="2.7800389607" flag="0"/>
      <psa03 value="14.4106484901" flag="0"/>
      <psa10 value="1.3342869772" flag="0"/>
      <psa30 value="0.0877364918" flag="0"/>
    </comp>
    <comp name="00.HNZ">
      <acc value="7.5611543810" flag="0"/>
      <vel value="1.2097261828" flag="0"/>
      <psa03 value="3.6892899087" flag="0"/>
      <psa10 value="0.5920384424" flag="0"/>
      <psa30 value="0.0468969166" flag="0"/>
    </comp>
  </station>
  <station code="VAM" name="VAM" netid="HL" insttype="CMG3ESPC-120s" lat="35.407" lon="24.1997">
    <comp name="--.HHE">
      <acc value="0.1192711907" flag="0"/>
      <vel value="0.0340457698" flag="0"/>
      <psa03 value="0.0947844494" flag="0"/>
      <psa10 value="0.0200437384" flag="0"/>
      <psa30 value="0.0028335294" flag="0"/>
    </comp>
    <comp name="--.HHN">
      <acc value="0.1271939447" flag="0"/>
      <vel value="0.0355620681" flag="0"/>
      <psa03 value="0.1536952497" flag="0"/>
      <psa10 value="0.0233026322" flag="0"/>
      <psa30 value="0.0032882639" flag="0"/>
    </comp>
    <comp name="--.HHZ">
      <acc value="0.0617331252" flag="0"/>
      <vel value="0.0184122011" flag="0"/>
      <psa03 value="0.1090767654" flag="0"/>
      <psa10 value="0.0129693443" flag="0"/>
      <psa30 value="0.0017533758" flag="0"/>
    </comp>
  </station>
  <station code="ZKR" name="ZKR" netid="HL" insttype="120" lat="35.1147" lon="26.2169">
    <comp name="--.HHE">
      <acc value="0.0551287653" flag="0"/>
      <vel value="0.0345682319" flag="0"/>
      <psa03 value="0.1997201978" flag="0"/>
      <psa10 value="0.0331643567" flag="0"/>
      <psa30 value="0.0021465814" flag="0"/>
    </comp>
    <comp name="--.HHN">
      <acc value="0.0349294559" flag="0"/>
      <vel value="0.0155936277" flag="0"/>
      <psa03 value="0.1436490885" flag="0"/>
      <psa10 value="0.0139275079" flag="0"/>
      <psa30 value="0.0012148875" flag="0"/>
    </comp>
    <comp name="--.HHZ">
      <acc value="0.0302373693" flag="0"/>
      <vel value="0.0163404168" flag="0"/>
      <psa03 value="0.1202761709" flag="0"/>
      <psa10 value="0.0129793447" flag="0"/>
      <psa30 value="0.0017063798" flag="0"/>
    </comp>
  </station>
</stationlist>
