<?xml version="1.0" encoding="UTF-8" standalone="yes"?>
<!DOCTYPE earthquake SYSTEM "stationlist.dtd">
<stationlist created="" xmlns="ch.ethz.sed.shakemap.usgs.xml">
  <station code="GVD" name="GVD" netid="GE" insttype="STS-2/N" lat="34.8391" lon="24.0874">
    <comp name="--.HHE">
      <acc value="0.4319955658" flag="0"/>
      <vel value="0.0581799683" flag="0"/>
      <psa03 value="0.2386401151" flag="0"/>
      <psa10 value="0.0479972874" flag="0"/>
      <psa30 value="0.0075832695" flag="0"/>
    </comp>
    <comp name="--.HHN">
      <acc value="0.1696598467" flag="0"/>
      <vel value="0.0468262007" flag="0"/>
      <psa03 value="0.2971049681" flag="0"/>
      <psa10 value="0.0183521724" flag="0"/>
      <psa30 value="0.0016665098" flag="0"/>
    </comp>
    <comp name="--.HHZ">
      <acc value="0.1336287968" flag="0"/>
      <vel value="0.0335879786" flag="0"/>
      <psa03 value="0.1655905516" flag="0"/>
      <psa10 value="0.0094679812" flag="0"/>
      <psa30 value="0.0015253827" flag="0"/>
    </comp>
  </station>
  <station code="IMMV" name="IMMV" netid="GE" insttype="STS-2/N" lat="35.4606" lon="23.9811">
    <comp name="--.HHE">
      <acc value="0.0581504791" flag="0"/>
      <vel value="0.0174948807" flag="0"/>
      <psa03 value="0.1227249554" flag="0"/>
      <psa10 value="0.0297572236" flag="0"/>
      <psa30 value="0.0021322448" flag="0"/>
    </comp>
    <comp name="--.HHN">
      <acc value="0.0622680431" flag="0"/>
      <vel value="0.0202519283" flag="0"/>
      <psa03 value="0.1456896364" flag="0"/>
      <psa10 value="0.0254357547" flag="0"/>
      <psa30 value="0.0018866755" flag="0"/>
    </comp>
    <comp name="--.HHZ">
      <acc value="0.0444654954" flag="0"/>
      <vel value="0.0163332676" flag="0"/>
      <psa03 value="0.0739935593" flag="0"/>
      <psa10 value="0.0143386507" flag="0"/>
      <psa30 value="0.0017591988" flag="0"/>
    </comp>
  </station>
  <station code="ZKR" name="ZKR" netid="GE" insttype="STS-2/N" lat="35.1147" lon="26.2169">
    <comp name="--.HHE">
      <acc value="0.0564896394" flag="0"/>
      <vel value="0.0350382831" flag="0"/>
      <psa03 value="0.2053273881" flag="0"/>
      <psa10 value="0.0336155791" flag="0"/>
      <psa30 value="0.0021506179" flag="0"/>
    </comp>
    <comp name="--.HHN">
      <acc value="0.0359667242" flag="0"/>
      <vel value="0.0160045844" flag="0"/>
      <psa03 value="0.1477137775" flag="0"/>
      <psa10 value="0.0140051508" flag="0"/>
      <psa30 value="0.0012150800" flag="0"/>
    </comp>
    <comp name="--.HHZ">
      <acc value="0.0308482569" flag="0"/>
      <vel value="0.0167296453" flag="0"/>
      <psa03 value="0.1238367931" flag="0"/>
      <psa10 value="0.0130900541" flag="0"/>
      <psa30 value="0.0017116379" flag="0"/>
    </comp>
  </station>
</stationlist>
