<stationlist created="1778138321">
	<station code="KUBB" name="KUBB" netid="BS" source="National Seismic Network of Bulgaria (BS)" insttype="" lat="43.8024" lon="26.4941">
		<comp name="--.HNE" depth="0.0">
			<acc value="0.0259742887327209" flag="0"/>
			<vel value="0.0062262050291575" flag="0"/>
			<psa03 value="0.0522815936072804" flag="0"/>
			<psa10 value="0.00250643072623296" flag="0"/>
			<psa30 value="0.000189344261877963" flag="0"/>
		</comp>
		<comp name="--.HNN" depth="0.0">
			<acc value="0.035493852779424" flag="0"/>
			<vel value="0.0057436836359475" flag="0"/>
			<psa03 value="0.0325290689536911" flag="0"/>
			<psa10 value="0.00213834009203528" flag="0"/>
			<psa30 value="0.000188516160145317" flag="0"/>
		</comp>
		<comp name="--.HNZ" depth="0.0">
			<acc value="0.0165809635020686" flag="0"/>
			<vel value="0.00285941876746018" flag="0"/>
			<psa03 value="0.00902689551357835" flag="0"/>
			<psa10 value="0.00110122423976295" flag="0"/>
			<psa30 value="0.000104903791809145" flag="0"/>
		</comp>
	</station>
	<station code="RUSAM" name="RUSAM" netid="BS" source="National Seismic Network of Bulgaria (BS)" insttype="" lat="43.8462" lon="25.9612">
		<comp name="--.HNE" depth="0.0">
			<acc value="0.00698750816069683" flag="0"/>
			<vel value="0.00268796585129735" flag="0"/>
			<psa03 value="0.01823719249952" flag="0"/>
			<psa10 value="0.00178877298962018" flag="0"/>
			<psa30 value="0.000112760868291758" flag="0"/>
		</comp>
		<comp name="--.HNN" depth="0.0">
			<acc value="0.00709915582924051" flag="0"/>
			<vel value="0.0024401339776639" flag="0"/>
			<psa03 value="0.0179414372300786" flag="0"/>
			<psa10 value="0.0015958136835753" flag="0"/>
			<psa30 value="0.000603670094349108" flag="0"/>
		</comp>
		<comp name="--.HNZ" depth="0.0">
			<acc value="0.0130446778454739" flag="0"/>
			<vel value="0.00233433089855523" flag="0"/>
			<psa03 value="0.0116453417592176" flag="0"/>
			<psa10 value="0.00144777391572896" flag="0"/>
			<psa30 value="0.000298973086749539" flag="0"/>
		</comp>
	</station>
	<station code="SILAM" name="SILAM" netid="BS" source="National Seismic Network of Bulgaria (BS)" insttype="" lat="44.1046" lon="27.2665">
		<comp name="--.HNE" depth="0.0">
			<acc value="0.027780903139302" flag="0"/>
			<vel value="0.0113577924615198" flag="0"/>
			<psa03 value="0.0891661776549121" flag="0"/>
			<psa10 value="0.00322571314079073" flag="0"/>
			<psa30 value="0.000829648137202849" flag="0"/>
		</comp>
		<comp name="--.HNN" depth="0.0">
			<acc value="0.0320260956122068" flag="0"/>
			<vel value="0.0125680010314208" flag="0"/>
			<psa03 value="0.133705732348438" flag="0"/>
			<psa10 value="0.00334955314145812" flag="0"/>
			<psa30 value="0.000269824541218199" flag="0"/>
		</comp>
		<comp name="--.HNZ" depth="0.0">
			<acc value="0.017326604973083" flag="0"/>
			<vel value="0.00488728719361491" flag="0"/>
			<psa03 value="0.0201732530456626" flag="0"/>
			<psa10 value="0.000740710337955586" flag="0"/>
			<psa30 value="9.0718203646401e-05" flag="0"/>
		</comp>
	</station>
	<station code="VRI" name="VRI" netid="EU" source="Generic European Strong Motion Network" insttype="" lat="45.8657" lon="26.7277">
		<comp name="00.HNE" depth="0.0">
			<acc value="0.0329973740282965" flag="0"/>
			<vel value="0.0167481912771934" flag="0"/>
			<psa03 value="0.0939925911312051" flag="0"/>
			<psa10 value="0.00740175142347455" flag="0"/>
			<psa30 value="0.00204402415657049" flag="0"/>
		</comp>
		<comp name="00.HNN" depth="0.0">
			<acc value="0.0104410304663315" flag="0"/>
			<vel value="0.00580139778752397" flag="0"/>
			<psa03 value="0.0388284367767041" flag="0"/>
			<psa10 value="0.00421893948403283" flag="0"/>
			<psa30 value="0.000393530444460647" flag="0"/>
		</comp>
		<comp name="00.HNZ" depth="0.0">
			<acc value="0.0328860080333024" flag="0"/>
			<vel value="0.0058154998560015" flag="0"/>
			<psa03 value="0.0172974362348257" flag="0"/>
			<psa10 value="0.00200239897723104" flag="0"/>
			<psa30 value="0.000240433453578006" flag="0"/>
		</comp>
	</station>
	<station code="BISRR" name="BISRR" netid="RO" source="Romanian Seismic Network (NIEP)" insttype="" lat="45.5481" lon="26.7099">
		<comp name="--.HNE" depth="0.0">
			<acc value="0.0476386972608632" flag="0"/>
			<vel value="0.0104371795534805" flag="0"/>
			<psa03 value="0.0501731674759582" flag="0"/>
			<psa10 value="0.0115062994233704" flag="0"/>
			<psa30 value="0.00061472504543542" flag="0"/>
		</comp>
		<comp name="--.HNN" depth="0.0">
			<acc value="0.032124596633508" flag="0"/>
			<vel value="0.00910511411480236" flag="0"/>
			<psa03 value="0.0442016781442527" flag="0"/>
			<psa10 value="0.0141518287391831" flag="0"/>
			<psa30 value="0.000562060254565137" flag="0"/>
		</comp>
		<comp name="--.HNZ" depth="0.0">
			<acc value="0.056225945529217" flag="0"/>
			<vel value="0.0079520174340253" flag="0"/>
			<psa03 value="0.0277206905263508" flag="0"/>
			<psa10 value="0.00637290592374589" flag="0"/>
			<psa30 value="0.000259399996476514" flag="0"/>
		</comp>
	</station>
	<station code="COPA" name="COPA" netid="RO" source="Romanian Seismic Network (NIEP)" insttype="" lat="44.1343" lon="25.2172">
		<comp name="--.HNE" depth="0.0">
			<acc value="0.0173658747219647" flag="0"/>
			<vel value="0.00594050785839178" flag="0"/>
			<psa03 value="0.0384377989196838" flag="0"/>
			<psa10 value="0.00150389521161512" flag="0"/>
			<psa30 value="0.000138683614192157" flag="0"/>
		</comp>
		<comp name="--.HNN" depth="0.0">
			<acc value="0.0251384044502013" flag="0"/>
			<vel value="0.00793770937639289" flag="0"/>
			<psa03 value="0.0490746936660633" flag="0"/>
			<psa10 value="0.00254454192278952" flag="0"/>
			<psa30 value="0.000271193095420159" flag="0"/>
		</comp>
		<comp name="--.HNZ" depth="0.0">
			<acc value="0.0590275380881482" flag="0"/>
			<vel value="0.0071138744843021" flag="0"/>
			<psa03 value="0.0201721396906601" flag="0"/>
			<psa10 value="0.00107408720769509" flag="0"/>
			<psa30 value="0.000123756948290424" flag="0"/>
		</comp>
	</station>
	<station code="GHRR" name="GHRR" netid="RO" source="Romanian Seismic Network (NIEP)" insttype="" lat="46.0605" lon="27.408">
		<comp name="--.HNE" depth="0.0">
			<acc value="0.0588195766445241" flag="0"/>
			<vel value="0.0125477331788311" flag="0"/>
			<psa03 value="0.0562087235520633" flag="0"/>
			<psa10 value="0.00880911699825585" flag="0"/>
			<psa30 value="0.000518747176956166" flag="0"/>
		</comp>
		<comp name="--.HNN" depth="0.0">
			<acc value="0.0648893289944527" flag="0"/>
			<vel value="0.019926130234375" flag="0"/>
			<psa03 value="0.0895887473147818" flag="0"/>
			<psa10 value="0.015041325789012" flag="0"/>
			<psa30 value="0.000936134514315387" flag="0"/>
		</comp>
		<comp name="--.HNZ" depth="0.0">
			<acc value="0.0861771903569685" flag="0"/>
			<vel value="0.017249637254542" flag="0"/>
			<psa03 value="0.0529647117772806" flag="0"/>
			<psa10 value="0.00553395144089044" flag="0"/>
			<psa30 value="0.000369168205581966" flag="0"/>
		</comp>
	</station>
	<station code="HUMR" name="HUMR" netid="RO" source="Romanian Seismic Network (NIEP)" insttype="" lat="44.5281" lon="24.9804">
		<comp name="--.HNE" depth="0.0">
			<acc value="0.0293747466866015" flag="0"/>
			<vel value="0.0130108708065761" flag="0"/>
			<psa03 value="0.0573556745321027" flag="0"/>
			<psa10 value="0.00365680912065898" flag="0"/>
			<psa30 value="0.000272579254954705" flag="0"/>
		</comp>
		<comp name="--.HNN" depth="0.0">
			<acc value="0.0291778096242258" flag="0"/>
			<vel value="0.00616787112875985" flag="0"/>
			<psa03 value="0.0229978255763992" flag="0"/>
			<psa10 value="0.00220408663492419" flag="0"/>
			<psa30 value="0.000201512320556236" flag="0"/>
		</comp>
		<comp name="--.HNZ" depth="0.0">
			<acc value="0.066574226549547" flag="0"/>
			<vel value="0.0106314158143947" flag="0"/>
			<psa03 value="0.0315658983775166" flag="0"/>
			<psa10 value="0.00165886836844933" flag="0"/>
			<psa30 value="0.000180661499187506" flag="0"/>
		</comp>
	</station>
	<station code="LEHL" name="LEHL" netid="RO" source="Romanian Seismic Network (NIEP)" insttype="" lat="44.4739" lon="26.8194">
		<comp name="--.HNE" depth="0.0">
			<acc value="0.0767572312206448" flag="0"/>
			<vel value="0.0207083728682299" flag="0"/>
			<psa03 value="0.104597939516854" flag="0"/>
			<psa10 value="0.0109353719147345" flag="0"/>
			<psa30 value="0.00141233553946381" flag="0"/>
		</comp>
		<comp name="--.HNN" depth="0.0">
			<acc value="0.080812790439002" flag="0"/>
			<vel value="0.0265783629625235" flag="0"/>
			<psa03 value="0.12437073895086" flag="0"/>
			<psa10 value="0.0125662715163171" flag="0"/>
			<psa30 value="0.000791747136860982" flag="0"/>
		</comp>
		<comp name="--.HNZ" depth="0.0">
			<acc value="0.043585469172352" flag="0"/>
			<vel value="0.00910975732593896" flag="0"/>
			<psa03 value="0.0275387175340334" flag="0"/>
			<psa10 value="0.00214816621171823" flag="0"/>
			<psa30 value="0.00066780231154077" flag="0"/>
		</comp>
	</station>
	<station code="LEOM" name="LEOM" netid="RO" source="Romanian Seismic Network (NIEP)" insttype="" lat="46.4733" lon="28.2467">
		<comp name="--.HNE" depth="0.0">
			<acc value="0.199321435246725" flag="0"/>
			<vel value="0.0260643100877526" flag="0"/>
			<psa03 value="0.0712173688428516" flag="0"/>
			<psa10 value="0.0128977287862281" flag="0"/>
			<psa30 value="0.00090822339450893" flag="0"/>
		</comp>
		<comp name="--.HNN" depth="0.0">
			<acc value="0.165257153678417" flag="0"/>
			<vel value="0.0208390549170776" flag="0"/>
			<psa03 value="0.0954674700847927" flag="0"/>
			<psa10 value="0.00841659255795962" flag="0"/>
			<psa30 value="0.000549534424791704" flag="0"/>
		</comp>
		<comp name="--.HNZ" depth="0.0">
			<acc value="0.162706180022675" flag="0"/>
			<vel value="0.0148906796595546" flag="0"/>
			<psa03 value="0.030008730118584" flag="0"/>
			<psa10 value="0.0033748387227537" flag="0"/>
			<psa30 value="0.000824077611929947" flag="0"/>
		</comp>
	</station>
	<station code="MLR" name="MLR" netid="RO" source="Romanian Seismic Network (NIEP)" insttype="" lat="45.4909" lon="25.945">
		<comp name="--.HNE" depth="0.0">
			<acc value="0.0116850320306668" flag="0"/>
			<vel value="0.00742571608111152" flag="0"/>
			<psa03 value="0.0328056367540856" flag="0"/>
			<psa10 value="0.00503879488917566" flag="0"/>
			<psa30 value="0.000700085023029017" flag="0"/>
		</comp>
		<comp name="--.HNN" depth="0.0">
			<acc value="0.00974824477475845" flag="0"/>
			<vel value="0.00593607028283201" flag="0"/>
			<psa03 value="0.0369891092011322" flag="0"/>
			<psa10 value="0.00416743779105597" flag="0"/>
			<psa30 value="0.000446144659060923" flag="0"/>
		</comp>
		<comp name="--.HNZ" depth="0.0">
			<acc value="0.0106660076827272" flag="0"/>
			<vel value="0.0051585660867" flag="0"/>
			<psa03 value="0.0331910945804344" flag="0"/>
			<psa10 value="0.00626443139406968" flag="0"/>
			<psa30 value="0.000220590185933668" flag="0"/>
		</comp>
	</station>
	<station code="OTISU" name="OTISU" netid="RO" source="Romanian Seismic Network (NIEP)" insttype="" lat="44.4278" lon="24.3755">
		<comp name="--.HNE" depth="0.0">
			<acc value="0.0169494909312807" flag="0"/>
			<vel value="0.00330564692774582" flag="0"/>
			<psa03 value="0.0130869906468226" flag="0"/>
			<psa10 value="0.00139414477712484" flag="0"/>
			<psa30 value="0.000183492168476504" flag="0"/>
		</comp>
		<comp name="--.HNN" depth="0.0">
			<acc value="0.0168403090519648" flag="0"/>
			<vel value="0.00383081862722024" flag="0"/>
			<psa03 value="0.019635470024358" flag="0"/>
			<psa10 value="0.00170071047622057" flag="0"/>
			<psa30 value="0.000128073731651871" flag="0"/>
		</comp>
		<comp name="--.HNZ" depth="0.0">
			<acc value="0.0307040354986472" flag="0"/>
			<vel value="0.00616345497611794" flag="0"/>
			<psa03 value="0.0138681673959342" flag="0"/>
			<psa10 value="0.00104246499569119" flag="0"/>
			<psa30 value="9.26535076319413e-05" flag="0"/>
		</comp>
	</station>
	<station code="PLOR" name="PLOR" netid="RO" source="Romanian Seismic Network (NIEP)" insttype="" lat="45.8512" lon="26.6498">
		<comp name="--.HNE" depth="0.0">
			<acc value="0.00988984016824306" flag="0"/>
			<vel value="0.0057074930601382" flag="0"/>
			<psa03 value="0.0215542716147186" flag="0"/>
			<psa10 value="0.00422465111239559" flag="0"/>
			<psa30 value="0.000370798365655306" flag="0"/>
		</comp>
		<comp name="--.HNN" depth="0.0">
			<acc value="0.0123898714854046" flag="0"/>
			<vel value="0.0057323170739779" flag="0"/>
			<psa03 value="0.0340658087759711" flag="0"/>
			<psa10 value="0.00358270796182018" flag="0"/>
			<psa30 value="0.000385388134239056" flag="0"/>
		</comp>
		<comp name="--.HNZ" depth="0.0">
			<acc value="0.0120243204892702" flag="0"/>
			<vel value="0.00328608474824128" flag="0"/>
			<psa03 value="0.0135150359297942" flag="0"/>
			<psa10 value="0.00198426629165432" flag="0"/>
			<psa30 value="0.000141503345256365" flag="0"/>
		</comp>
	</station>
	<station code="PLOR4" name="PLOR4" netid="RO" source="Romanian Seismic Network (NIEP)" insttype="" lat="45.8512" lon="26.6498">
		<comp name="--.HNE" depth="0.0">
			<acc value="0.00988984016824306" flag="0"/>
			<vel value="0.0057074930601382" flag="0"/>
			<psa03 value="0.0215542716147186" flag="0"/>
			<psa10 value="0.00422465111239559" flag="0"/>
			<psa30 value="0.000370798365655306" flag="0"/>
		</comp>
		<comp name="--.HNN" depth="0.0">
			<acc value="0.0123898714854046" flag="0"/>
			<vel value="0.0057323170739779" flag="0"/>
			<psa03 value="0.0340658087759711" flag="0"/>
			<psa10 value="0.00358270796182018" flag="0"/>
			<psa30 value="0.000385388134239056" flag="0"/>
		</comp>
		<comp name="--.HNZ" depth="0.0">
			<acc value="0.0120243204892702" flag="0"/>
			<vel value="0.00328608474824128" flag="0"/>
			<psa03 value="0.0135150359297942" flag="0"/>
			<psa10 value="0.00198426629165432" flag="0"/>
			<psa30 value="0.000141503345256365" flag="0"/>
		</comp>
	</station>
	<station code="SULR" name="SULR" netid="RO" source="Romanian Seismic Network (NIEP)" insttype="" lat="44.6777" lon="26.2526">
		<comp name="--.HNE" depth="0.0">
			<acc value="0.111728350670334" flag="0"/>
			<vel value="0.0282108300047846" flag="0"/>
			<psa03 value="0.096319453607798" flag="0"/>
			<psa10 value="0.0174738888093743" flag="0"/>
			<psa30 value="0.00123013357364687" flag="0"/>
		</comp>
		<comp name="--.HNN" depth="0.0">
			<acc value="0.113586311797144" flag="0"/>
			<vel value="0.0330047710038344" flag="0"/>
			<psa03 value="0.110376843174227" flag="0"/>
			<psa10 value="0.0121917435806811" flag="0"/>
			<psa30 value="0.00103455905529485" flag="0"/>
		</comp>
		<comp name="--.HNZ" depth="0.0">
			<acc value="0.0671901217290479" flag="0"/>
			<vel value="0.0151253304484455" flag="0"/>
			<psa03 value="0.0360294675045827" flag="0"/>
			<psa10 value="0.00268585878433942" flag="0"/>
			<psa30 value="0.000171884680787327" flag="0"/>
		</comp>
	</station>
	<station code="TESR" name="TESR" netid="RO" source="Romanian Seismic Network (NIEP)" insttype="" lat="46.5118" lon="26.6489">
		<comp name="--.HNE" depth="0.0">
			<acc value="0.00607762234954432" flag="0"/>
			<vel value="0.00228949065507334" flag="0"/>
			<psa03 value="0.00583056267844414" flag="0"/>
			<psa10 value="0.00244464257057379" flag="0"/>
			<psa30 value="0.000204620677511293" flag="0"/>
		</comp>
		<comp name="--.HNN" depth="0.0">
			<acc value="0.00438328405819781" flag="0"/>
			<vel value="0.00160485334890207" flag="0"/>
			<psa03 value="0.0106076043944618" flag="0"/>
			<psa10 value="0.000989152518685752" flag="0"/>
			<psa30 value="0.000153311432171674" flag="0"/>
		</comp>
		<comp name="--.HNZ" depth="0.0">
			<acc value="0.0151310236170445" flag="0"/>
			<vel value="0.00272492500284216" flag="0"/>
			<psa03 value="0.00329002979728411" flag="0"/>
			<psa10 value="0.000841648274599414" flag="0"/>
			<psa30 value="7.60529548016987e-05" flag="0"/>
		</comp>
	</station>
	<station code="VLAD" name="VLAD" netid="RO" source="Romanian Seismic Network (NIEP)" insttype="" lat="43.9986" lon="24.4038">
		<comp name="--.HNE" depth="0.0">
			<acc value="0.0181808659104886" flag="0"/>
			<vel value="0.00213727798751944" flag="0"/>
			<psa03 value="0.0104805412896237" flag="0"/>
			<psa10 value="0.000807528162748338" flag="0"/>
			<psa30 value="0.000103309897159124" flag="0"/>
		</comp>
		<comp name="--.HNN" depth="0.0">
			<acc value="0.0221642148033294" flag="0"/>
			<vel value="0.00255879753402469" flag="0"/>
			<psa03 value="0.0127291323050304" flag="0"/>
			<psa10 value="0.000596943099236898" flag="0"/>
			<psa30 value="0.000105464707873404" flag="0"/>
		</comp>
		<comp name="--.HNZ" depth="0.0">
			<acc value="0.0568960331710089" flag="0"/>
			<vel value="0.00805999124877187" flag="0"/>
			<psa03 value="0.0137901140482179" flag="0"/>
			<psa10 value="0.000854809009715924" flag="0"/>
			<psa30 value="0.000149393477313889" flag="0"/>
		</comp>
	</station>
	<station code="VOIR" name="VOIR" netid="RO" source="Romanian Seismic Network (NIEP)" insttype="" lat="45.4371" lon="25.0495">
		<comp name="--.HNE" depth="0.0">
			<acc value="0.00687821213791998" flag="0"/>
			<vel value="0.00227126647693762" flag="0"/>
			<psa03 value="0.0178961529802176" flag="0"/>
			<psa10 value="0.00095023050670199" flag="0"/>
			<psa30 value="9.38183504217566e-05" flag="0"/>
		</comp>
		<comp name="--.HNN" depth="0.0">
			<acc value="0.00541979994817485" flag="0"/>
			<vel value="0.00149241630309249" flag="0"/>
			<psa03 value="0.00928045267504771" flag="0"/>
			<psa10 value="0.00129078617231146" flag="0"/>
			<psa30 value="8.80277389579807e-05" flag="0"/>
		</comp>
		<comp name="--.HNZ" depth="0.0">
			<acc value="0.00738177075624446" flag="0"/>
			<vel value="0.00151773229592699" flag="0"/>
			<psa03 value="0.0103371235857765" flag="0"/>
			<psa10 value="0.000700620064986147" flag="0"/>
			<psa30 value="5.55737661245843e-05" flag="0"/>
		</comp>
	</station>
</stationlist>
