<?xml version="1.0" encoding="UTF-8" standalone="yes"?>
<!DOCTYPE earthquake SYSTEM "stationlist.dtd">
<stationlist created="" xmlns="ch.ethz.sed.shakemap.usgs.xml">
  <station code="BISRR" name="BISRR" netid="RO" insttype="CMG40T.1to100/Basalt" lat="45.5481" lon="26.7099">
    <comp name="--.HHE">
      <acc value="0.0949284794" flag="0"/>
      <vel value="0.0215710610" flag="0"/>
      <psa03 value="0.1233561414" flag="0"/>
      <psa10 value="0.0261922890" flag="0"/>
      <psa30 value="0.0010335069" flag="0"/>
    </comp>
    <comp name="--.HHZ">
      <acc value="0.1162323365" flag="0"/>
      <vel value="0.0151296552" flag="0"/>
      <psa03 value="0.0581195164" flag="0"/>
      <psa10 value="0.0130888852" flag="0"/>
      <psa30 value="0.0004777696" flag="0"/>
    </comp>
    <comp name="--.HHN">
      <acc value="0.0006423238" flag="0"/>
      <vel value="0.0001980594" flag="0"/>
      <psa03 value="0.0005863967" flag="0"/>
      <psa10 value="0.0001399958" flag="0"/>
      <psa30 value="0.0000079304" flag="0"/>
    </comp>
  </station>
  <station code="GHRR" name="GHRR" netid="RO" insttype="w/attenuator" lat="46.0605" lon="27.408">
    <comp name="--.HHE">
      <acc value="0.0598944080" flag="0"/>
      <vel value="0.0133634834" flag="0"/>
      <psa03 value="0.0515220024" flag="0"/>
      <psa10 value="0.0091123028" flag="0"/>
      <psa30 value="0.0005013650" flag="0"/>
    </comp>
    <comp name="--.HHN">
      <acc value="0.0665158691" flag="0"/>
      <vel value="0.0208819633" flag="0"/>
      <psa03 value="0.0956175434" flag="0"/>
      <psa10 value="0.0150824657" flag="0"/>
      <psa30 value="0.0009319758" flag="0"/>
    </comp>
    <comp name="--.HHZ">
      <acc value="0.0861731818" flag="0"/>
      <vel value="0.0168056332" flag="0"/>
      <psa03 value="0.0550646635" flag="0"/>
      <psa10 value="0.0055310023" flag="0"/>
      <psa30 value="0.0003598997" flag="0"/>
    </comp>
  </station>
  <station code="LEHL" name="LEHL" netid="RO" insttype="Seismometer/Basalt" lat="44.4739" lon="26.8194">
    <comp name="--.HHN">
      <acc value="0.0279551703" flag="0"/>
      <vel value="0.0086129821" flag="0"/>
      <psa03 value="0.0417401137" flag="0"/>
      <psa10 value="0.0041101569" flag="0"/>
      <psa30 value="0.0002677935" flag="0"/>
    </comp>
    <comp name="--.HHE">
      <acc value="0.0264044711" flag="0"/>
      <vel value="0.0070619390" flag="0"/>
      <psa03 value="0.0360398139" flag="0"/>
      <psa10 value="0.0038272149" flag="0"/>
      <psa30 value="0.0004832367" flag="0"/>
    </comp>
    <comp name="--.HHZ">
      <acc value="0.0157972780" flag="0"/>
      <vel value="0.0030777747" flag="0"/>
      <psa03 value="0.0093335643" flag="0"/>
      <psa10 value="0.0006610930" flag="0"/>
      <psa30 value="0.0000928414" flag="0"/>
    </comp>
  </station>
  <station code="MLR" name="MLR" netid="RO" insttype="330HR" lat="45.4909" lon="25.945">
    <comp name="--.HHE">
      <acc value="0.1218640092" flag="0"/>
      <vel value="0.0756673135" flag="0"/>
      <psa03 value="0.3350223790" flag="0"/>
      <psa10 value="0.0515223305" flag="0"/>
      <psa30 value="0.0068193652" flag="0"/>
    </comp>
    <comp name="--.HHN">
      <acc value="0.0976385539" flag="0"/>
      <vel value="0.0581483503" flag="0"/>
      <psa03 value="0.3679218977" flag="0"/>
      <psa10 value="0.0397668135" flag="0"/>
      <psa30 value="0.0041609904" flag="0"/>
    </comp>
    <comp name="--.HHZ">
      <acc value="0.0109396693" flag="0"/>
      <vel value="0.0051721178" flag="0"/>
      <psa03 value="0.0334673755" flag="0"/>
      <psa10 value="0.0062611183" flag="0"/>
      <psa30 value="0.0002286592" flag="0"/>
    </comp>
  </station>
  <station code="PLOR" name="PLOR" netid="RO" insttype="330" lat="45.8512" lon="26.6498">
    <comp name="--.HHE">
      <acc value="0.0049829886" flag="0"/>
      <vel value="0.0028407436" flag="0"/>
      <psa03 value="0.0113017175" flag="0"/>
      <psa10 value="0.0020402846" flag="0"/>
      <psa30 value="0.0001793105" flag="0"/>
    </comp>
    <comp name="--.HHN">
      <acc value="0.0062958409" flag="0"/>
      <vel value="0.0031970354" flag="0"/>
      <psa03 value="0.0176239750" flag="0"/>
      <psa10 value="0.0017800959" flag="0"/>
      <psa30 value="0.0001719484" flag="0"/>
    </comp>
    <comp name="--.HHZ">
      <acc value="0.0063209720" flag="0"/>
      <vel value="0.0016377498" flag="0"/>
      <psa03 value="0.0067572318" flag="0"/>
      <psa10 value="0.0009758153" flag="0"/>
      <psa30 value="0.0000664710" flag="0"/>
    </comp>
  </station>
  <station code="PLOR4" name="PLOR4" netid="RO" insttype="330" lat="45.8512" lon="26.6498">
    <comp name="--.HHZ">
      <acc value="0.0063209720" flag="0"/>
      <vel value="0.0016377498" flag="0"/>
      <psa03 value="0.0067572318" flag="0"/>
      <psa10 value="0.0009758153" flag="0"/>
      <psa30 value="0.0000664710" flag="0"/>
    </comp>
    <comp name="--.HHN">
      <acc value="0.0062958409" flag="0"/>
      <vel value="0.0031970354" flag="0"/>
      <psa03 value="0.0176239750" flag="0"/>
      <psa10 value="0.0017800959" flag="0"/>
      <psa30 value="0.0001719484" flag="0"/>
    </comp>
    <comp name="--.HHE">
      <acc value="0.0049829886" flag="0"/>
      <vel value="0.0028407436" flag="0"/>
      <psa03 value="0.0113017175" flag="0"/>
      <psa10 value="0.0020402846" flag="0"/>
      <psa30 value="0.0001793105" flag="0"/>
    </comp>
  </station>
  <station code="SULR" name="SULR" netid="RO" insttype="330" lat="44.6777" lon="26.2526">
    <comp name="--.HHZ">
      <acc value="0.0622205737" flag="0"/>
      <vel value="0.0138918304" flag="0"/>
      <psa03 value="0.0339900764" flag="0"/>
      <psa10 value="0.0025786260" flag="0"/>
      <psa30 value="0.0001783159" flag="0"/>
    </comp>
    <comp name="--.HHE">
      <acc value="0.0789793676" flag="0"/>
      <vel value="0.0246749094" flag="0"/>
      <psa03 value="0.0981160700" flag="0"/>
      <psa10 value="0.0171709661" flag="0"/>
      <psa30 value="0.0012420525" flag="0"/>
    </comp>
    <comp name="--.HHN">
      <acc value="0.0712095014" flag="0"/>
      <vel value="0.0229997089" flag="0"/>
      <psa03 value="0.1049703862" flag="0"/>
      <psa10 value="0.0115244781" flag="0"/>
      <psa30 value="0.0009106150" flag="0"/>
    </comp>
  </station>
  <station code="TESR" name="TESR" netid="RO" insttype="330" lat="46.5118" lon="26.6489">
    <comp name="--.HHE">
      <acc value="0.0070078052" flag="0"/>
      <vel value="0.0023580309" flag="0"/>
      <psa03 value="0.0059061152" flag="0"/>
      <psa10 value="0.0024825246" flag="0"/>
      <psa30 value="0.0002199824" flag="0"/>
    </comp>
    <comp name="--.HHN">
      <acc value="0.0052359202" flag="0"/>
      <vel value="0.0016540373" flag="0"/>
      <psa03 value="0.0108699673" flag="0"/>
      <psa10 value="0.0009388806" flag="0"/>
      <psa30 value="0.0001351168" flag="0"/>
    </comp>
    <comp name="--.HHZ">
      <acc value="0.0163542186" flag="0"/>
      <vel value="0.0026919746" flag="0"/>
      <psa03 value="0.0033728122" flag="0"/>
      <psa10 value="0.0008540492" flag="0"/>
      <psa30 value="0.0000935907" flag="0"/>
    </comp>
  </station>
  <station code="VOIR" name="VOIR" netid="RO" insttype="330" lat="45.4371" lon="25.0495">
    <comp name="--.HHN">
      <acc value="0.0056842532" flag="0"/>
      <vel value="0.0016706896" flag="0"/>
      <psa03 value="0.0077322934" flag="0"/>
      <psa10 value="0.0007087431" flag="0"/>
      <psa30 value="0.0000673430" flag="0"/>
    </comp>
    <comp name="--.HHE">
      <acc value="0.0053260679" flag="0"/>
      <vel value="0.0021997873" flag="0"/>
      <psa03 value="0.0196385047" flag="0"/>
      <psa10 value="0.0015266150" flag="0"/>
      <psa30 value="0.0000821019" flag="0"/>
    </comp>
    <comp name="--.HHZ">
      <acc value="0.0083269375" flag="0"/>
      <vel value="0.0015494704" flag="0"/>
      <psa03 value="0.0103355934" flag="0"/>
      <psa10 value="0.0006773095" flag="0"/>
      <psa30 value="0.0000386137" flag="0"/>
    </comp>
  </station>
  <station code="VRI" name="VRI" netid="RO" insttype="Linear" lat="45.8657" lon="26.7277">
    <comp name="--.HHE">
      <acc value="0.0360181246" flag="0"/>
      <vel value="0.0168776716" flag="0"/>
      <psa03 value="0.0961821806" flag="0"/>
      <psa10 value="0.0075537536" flag="0"/>
      <psa30 value="0.0005183101" flag="0"/>
    </comp>
    <comp name="--.HHZ">
      <acc value="0.0353820425" flag="0"/>
      <vel value="0.0061657031" flag="0"/>
      <psa03 value="0.0176088002" flag="0"/>
      <psa10 value="0.0019851302" flag="0"/>
      <psa30 value="0.0001936601" flag="0"/>
    </comp>
    <comp name="--.HHN">
      <acc value="0.0108025728" flag="0"/>
      <vel value="0.0059195400" flag="0"/>
      <psa03 value="0.0399970912" flag="0"/>
      <psa10 value="0.0042627685" flag="0"/>
      <psa30 value="0.0002385221" flag="0"/>
    </comp>
  </station>
</stationlist>
