<?xml version="1.0" encoding="UTF-8" standalone="yes"?>
<!DOCTYPE earthquake SYSTEM "stationlist.dtd">
<stationlist created="" xmlns="ch.ethz.sed.shakemap.usgs.xml">
  <station code="ARPRA" name="ARPRA" netid="KO" insttype="CMG-5T" lat="39.0929" lon="38.3356">
    <comp name="--.HNE">
      <acc value="0.0184264473" flag="0"/>
      <vel value="0.0125240221" flag="0"/>
      <psa03 value="0.0595237667" flag="0"/>
      <psa10 value="0.0133061879" flag="0"/>
      <psa30 value="0.0012387053" flag="0"/>
    </comp>
    <comp name="--.HNN">
      <acc value="0.0221755588" flag="0"/>
      <vel value="0.0117140951" flag="0"/>
      <psa03 value="0.0511506256" flag="0"/>
      <psa10 value="0.0141107197" flag="0"/>
      <psa30 value="0.0007824002" flag="0"/>
    </comp>
    <comp name="--.HNZ">
      <acc value="0.0080422604" flag="0"/>
      <vel value="0.0039361111" flag="0"/>
      <psa03 value="0.0224919549" flag="0"/>
      <psa10 value="0.0071878412" flag="0"/>
      <psa30 value="0.0005135269" flag="0"/>
    </comp>
  </station>
  <station code="DARE" name="DARE" netid="KO" insttype="CMG-3ESP" lat="38.5712" lon="37.4832">
    <comp name="--.HHE">
      <acc value="0.0033241558" flag="0"/>
      <vel value="0.0017655197" flag="0"/>
      <psa03 value="0.0059343634" flag="0"/>
      <psa10 value="0.0026466826" flag="0"/>
      <psa30 value="0.0002739639" flag="0"/>
    </comp>
    <comp name="--.HHN">
      <acc value="0.0036761383" flag="0"/>
      <vel value="0.0026172627" flag="0"/>
      <psa03 value="0.0105899764" flag="0"/>
      <psa10 value="0.0028291723" flag="0"/>
      <psa30 value="0.0002650202" flag="0"/>
    </comp>
    <comp name="--.HHZ">
      <acc value="0.0029757362" flag="0"/>
      <vel value="0.0018624219" flag="0"/>
      <psa03 value="0.0088535729" flag="0"/>
      <psa10 value="0.0027630305" flag="0"/>
      <psa30 value="0.0002637492" flag="0"/>
    </comp>
  </station>
  <station code="URFA" name="URFA" netid="KO" insttype="CMG-3ESP" lat="37.4409" lon="38.8213">
    <comp name="--.HHN">
      <acc value="0.0376612440" flag="0"/>
      <vel value="0.0092793369" flag="0"/>
      <psa03 value="0.0327608880" flag="0"/>
      <psa10 value="0.0063715910" flag="0"/>
      <psa30 value="0.0012200922" flag="0"/>
    </comp>
    <comp name="--.HHE">
      <acc value="0.0550418178" flag="0"/>
      <vel value="0.0111162354" flag="0"/>
      <psa03 value="0.0306433415" flag="0"/>
      <psa10 value="0.0067171963" flag="0"/>
      <psa30 value="0.0005824420" flag="0"/>
    </comp>
    <comp name="--.HHZ">
      <acc value="0.0428482880" flag="0"/>
      <vel value="0.0055550948" flag="0"/>
      <psa03 value="0.0189423205" flag="0"/>
      <psa10 value="0.0064019274" flag="0"/>
      <psa30 value="0.0011924183" flag="0"/>
    </comp>
  </station>
</stationlist>
