<?xml version="1.0" encoding="UTF-8" standalone="yes"?>
<!DOCTYPE earthquake SYSTEM "stationlist.dtd">
<stationlist created="" xmlns="ch.ethz.sed.shakemap.usgs.xml">
  <station code="ARPRA" name="ARPRA" netid="KO" insttype="CMG-5T" lat="39.0929" lon="38.3356">
    <comp name="--.HNE">
      <acc value="0.0184264488" flag="0"/>
      <vel value="0.0125240253" flag="0"/>
      <psa03 value="0.0595237667" flag="0"/>
      <psa10 value="0.0133061880" flag="0"/>
      <psa30 value="0.0012383528" flag="0"/>
    </comp>
    <comp name="--.HNN">
      <acc value="0.0221755572" flag="0"/>
      <vel value="0.0117140952" flag="0"/>
      <psa03 value="0.0511506256" flag="0"/>
      <psa10 value="0.0141107197" flag="0"/>
      <psa30 value="0.0007823554" flag="0"/>
    </comp>
    <comp name="--.HNZ">
      <acc value="0.0080422604" flag="0"/>
      <vel value="0.0039361107" flag="0"/>
      <psa03 value="0.0224919549" flag="0"/>
      <psa10 value="0.0071878412" flag="0"/>
      <psa30 value="0.0005134776" flag="0"/>
    </comp>
  </station>
  <station code="DARE" name="DARE" netid="KO" insttype="CMG-3ESP" lat="38.5712" lon="37.4832">
    <comp name="--.HHE">
      <acc value="0.0033241557" flag="0"/>
      <vel value="0.0017655196" flag="0"/>
      <psa03 value="0.0059343634" flag="0"/>
      <psa10 value="0.0026466826" flag="0"/>
      <psa30 value="0.0002739668" flag="0"/>
    </comp>
    <comp name="--.HHN">
      <acc value="0.0036761383" flag="0"/>
      <vel value="0.0026172605" flag="0"/>
      <psa03 value="0.0105899764" flag="0"/>
      <psa10 value="0.0028291723" flag="0"/>
      <psa30 value="0.0002650290" flag="0"/>
    </comp>
    <comp name="--.HHZ">
      <acc value="0.0029757361" flag="0"/>
      <vel value="0.0018624225" flag="0"/>
      <psa03 value="0.0088535729" flag="0"/>
      <psa10 value="0.0027630305" flag="0"/>
      <psa30 value="0.0002637477" flag="0"/>
    </comp>
  </station>
  <station code="URFA" name="URFA" netid="KO" insttype="CMG-3ESP" lat="37.4409" lon="38.8213">
    <comp name="--.HHE">
      <acc value="0.0550418178" flag="0"/>
      <vel value="0.0111162354" flag="0"/>
      <psa03 value="0.0306433415" flag="0"/>
      <psa10 value="0.0067171961" flag="0"/>
      <psa30 value="0.0005824437" flag="0"/>
    </comp>
    <comp name="--.HHN">
      <acc value="0.0376612440" flag="0"/>
      <vel value="0.0092793361" flag="0"/>
      <psa03 value="0.0327608880" flag="0"/>
      <psa10 value="0.0063715910" flag="0"/>
      <psa30 value="0.0012200868" flag="0"/>
    </comp>
    <comp name="--.HHZ">
      <acc value="0.0428482880" flag="0"/>
      <vel value="0.0055550943" flag="0"/>
      <psa03 value="0.0189423205" flag="0"/>
      <psa10 value="0.0064019274" flag="0"/>
      <psa30 value="0.0011924426" flag="0"/>
    </comp>
  </station>
</stationlist>
