<?xml version="1.0" encoding="UTF-8" standalone="yes"?>
<!DOCTYPE earthquake SYSTEM "stationlist.dtd">
<stationlist created="" xmlns="ch.ethz.sed.shakemap.usgs.xml">
  <station code="ANDN" name="ANDN" netid="TU" insttype="T" lat="37.58" lon="36.3452">
    <comp name="--.HHE">
      <acc value="0.1095503998" flag="0"/>
      <vel value="0.0538964234" flag="0"/>
      <psa03 value="0.1984750056" flag="0"/>
      <psa10 value="0.0344301085" flag="0"/>
      <psa30 value="0.0018493004" flag="0"/>
    </comp>
    <comp name="--.HHZ">
      <acc value="0.0589563982" flag="0"/>
      <vel value="0.0303793866" flag="0"/>
      <psa03 value="0.1047772447" flag="0"/>
      <psa10 value="0.0312667469" flag="0"/>
      <psa30 value="0.0017425777" flag="0"/>
    </comp>
    <comp name="--.HHN">
      <acc value="0.1288100777" flag="0"/>
      <vel value="0.0624120723" flag="0"/>
      <psa03 value="0.3571260222" flag="0"/>
      <psa10 value="0.0506182139" flag="0"/>
      <psa30 value="0.0048337560" flag="0"/>
    </comp>
  </station>
</stationlist>
