<?xml version="1.0" encoding="UTF-8" standalone="yes"?>
<!DOCTYPE earthquake SYSTEM "stationlist.dtd">
<stationlist created="" xmlns="ch.ethz.sed.shakemap.usgs.xml">
  <station code="KSP" name="KSP" netid="PL" insttype="STS-2/N" lat="50.8428" lon="16.2931">
    <comp name="--.HHE">
      <acc value="0.0033948171" flag="0"/>
      <vel value="0.0011984041" flag="0"/>
      <psa03 value="0.0028596797" flag="0"/>
      <psa10 value="0.0010416450" flag="0"/>
      <psa30 value="0.0002853663" flag="0"/>
    </comp>
    <comp name="--.HHN">
      <acc value="0.0030188524" flag="0"/>
      <vel value="0.0020350871" flag="0"/>
      <psa03 value="0.0040963337" flag="0"/>
      <psa10 value="0.0013354316" flag="0"/>
      <psa30 value="0.0005780974" flag="0"/>
    </comp>
    <comp name="--.HHZ">
      <acc value="0.0030220376" flag="0"/>
      <vel value="0.0018066722" flag="0"/>
      <psa03 value="0.0022004382" flag="0"/>
      <psa10 value="0.0013875609" flag="0"/>
      <psa30 value="0.0006055837" flag="0"/>
    </comp>
  </station>
</stationlist>
