<stationlist created="1778032511">
	<station code="BNALP" name="BNALP" netid="CH" source="Switzerland Seismological Network" insttype="" lat="46.87034" lon="8.4249">
		<comp name="--.HGE" depth="0.0">
			<acc value="0.00820639002246331" flag="0"/>
			<vel value="0.0111549293151557" flag="0"/>
			<psa03 value="0.0224069817483854" flag="0"/>
			<psa10 value="0.0186113466603905" flag="0"/>
			<psa30 value="0.00288079542189274" flag="0"/>
		</comp>
		<comp name="--.HGN" depth="0.0">
			<acc value="0.0107974977295979" flag="0"/>
			<vel value="0.0157515062456207" flag="0"/>
			<psa03 value="0.020837079573023" flag="0"/>
			<psa10 value="0.0283784243063465" flag="0"/>
			<psa30 value="0.00269880878283547" flag="0"/>
		</comp>
		<comp name="--.HGZ" depth="0.0">
			<acc value="0.00842413027788008" flag="0"/>
			<vel value="0.00837821061780209" flag="0"/>
			<psa03 value="0.0122236626222522" flag="0"/>
			<psa10 value="0.0123991501328534" flag="0"/>
			<psa30 value="0.00357110323472962" flag="0"/>
		</comp>
	</station>
	<station code="FUSIO" name="FUSIO" netid="CH" source="Switzerland Seismological Network" insttype="" lat="46.45481" lon="8.6629">
		<comp name="--.HGE" depth="0.0">
			<acc value="0.0301750094304168" flag="0"/>
			<vel value="0.0333885152912796" flag="0"/>
			<psa03 value="0.0807149407393623" flag="0"/>
			<psa10 value="0.0429176194323786" flag="0"/>
			<psa30 value="0.00310958335996989" flag="0"/>
		</comp>
		<comp name="--.HGN" depth="0.0">
			<acc value="0.01661237980368" flag="0"/>
			<vel value="0.0199881111407654" flag="0"/>
			<psa03 value="0.0346304679225423" flag="0"/>
			<psa10 value="0.0289043603195359" flag="0"/>
			<psa30 value="0.0038236689775975" flag="0"/>
		</comp>
		<comp name="--.HGZ" depth="0.0">
			<acc value="0.0207748350972098" flag="0"/>
			<vel value="0.0186744623096182" flag="0"/>
			<psa03 value="0.058120126397135" flag="0"/>
			<psa10 value="0.0400384584364928" flag="0"/>
			<psa30 value="0.00235120295779018" flag="0"/>
		</comp>
	</station>
	<station code="GRIMS" name="GRIMS" netid="CH" source="Switzerland Seismological Network" insttype="" lat="46.578146" lon="8.318864">
		<comp name="--.HGE" depth="0.0">
			<acc value="0.00632910398184375" flag="0"/>
			<vel value="0.00564568301268118" flag="0"/>
			<psa03 value="0.0141495493173599" flag="0"/>
			<psa10 value="0.0106350285809679" flag="0"/>
			<psa30 value="0.00142364326771346" flag="0"/>
		</comp>
		<comp name="--.HGN" depth="0.0">
			<acc value="0.00726146069456715" flag="0"/>
			<vel value="0.0113443974017825" flag="0"/>
			<psa03 value="0.0158347586104668" flag="0"/>
			<psa10 value="0.0198004641835851" flag="0"/>
			<psa30 value="0.00200763132905725" flag="0"/>
		</comp>
		<comp name="--.HGZ" depth="0.0">
			<acc value="0.00622805165329338" flag="0"/>
			<vel value="0.00881330848967856" flag="0"/>
			<psa03 value="0.0145615661947823" flag="0"/>
			<psa10 value="0.0115802993254915" flag="0"/>
			<psa30 value="0.00175524710984058" flag="0"/>
		</comp>
	</station>
	<station code="LIENZ" name="LIENZ" netid="CH" source="Switzerland Seismological Network" insttype="" lat="47.294601" lon="9.4927">
		<comp name="--.HGE" depth="0.0">
			<acc value="0.00865666023190145" flag="0"/>
			<vel value="0.0215635090545646" flag="0"/>
			<psa03 value="0.0127134776221848" flag="0"/>
			<psa10 value="0.0259010889450246" flag="0"/>
			<psa30 value="0.00562858494944616" flag="0"/>
		</comp>
		<comp name="--.HGN" depth="0.0">
			<acc value="0.00834333831147024" flag="0"/>
			<vel value="0.0183857572258646" flag="0"/>
			<psa03 value="0.0131227990085462" flag="0"/>
			<psa10 value="0.0228646571713096" flag="0"/>
			<psa30 value="0.00409787021379089" flag="0"/>
		</comp>
		<comp name="--.HGZ" depth="0.0">
			<acc value="0.00542387899212257" flag="0"/>
			<vel value="0.0144030145461095" flag="0"/>
			<psa03 value="0.00822059991294415" flag="0"/>
			<psa10 value="0.0173761423341692" flag="0"/>
			<psa30 value="0.0031446141485894" flag="0"/>
		</comp>
	</station>
	<station code="LLS" name="LLS" netid="CH" source="Switzerland Seismological Network" insttype="" lat="46.84676" lon="9.00825">
		<comp name="--.HGE" depth="0.0">
			<acc value="0.0063623174114873" flag="0"/>
			<vel value="0.00705405484597573" flag="0"/>
			<psa03 value="0.0166888430686154" flag="0"/>
			<psa10 value="0.00971666501129008" flag="0"/>
			<psa30 value="0.00305365560169705" flag="0"/>
		</comp>
		<comp name="--.HGN" depth="0.0">
			<acc value="0.00628235022589746" flag="0"/>
			<vel value="0.00737513774357242" flag="0"/>
			<psa03 value="0.0173152339612712" flag="0"/>
			<psa10 value="0.0130387738526968" flag="0"/>
			<psa30 value="0.00176150067456136" flag="0"/>
		</comp>
		<comp name="--.HGZ" depth="0.0">
			<acc value="0.00683963366651778" flag="0"/>
			<vel value="0.0113277594971445" flag="0"/>
			<psa03 value="0.0120803957869334" flag="0"/>
			<psa10 value="0.0144723141527462" flag="0"/>
			<psa30 value="0.00162906374297127" flag="0"/>
		</comp>
	</station>
	<station code="MMK" name="MMK" netid="CH" source="Switzerland Seismological Network" insttype="" lat="46.0507" lon="7.96409">
		<comp name="--.HGE" depth="0.0">
			<acc value="0.0224341155227886" flag="0"/>
			<vel value="0.016477603575899" flag="0"/>
			<psa03 value="0.0747519675759542" flag="0"/>
			<psa10 value="0.0152588392607239" flag="0"/>
			<psa30 value="0.00241596379574554" flag="0"/>
		</comp>
		<comp name="--.HGN" depth="0.0">
			<acc value="0.0218132970954971" flag="0"/>
			<vel value="0.0161657652117171" flag="0"/>
			<psa03 value="0.0651191106965612" flag="0"/>
			<psa10 value="0.0211019879031428" flag="0"/>
			<psa30 value="0.00316916098302703" flag="0"/>
		</comp>
		<comp name="--.HGZ" depth="0.0">
			<acc value="0.0160826748507856" flag="0"/>
			<vel value="0.012709008942169" flag="0"/>
			<psa03 value="0.0290960889314431" flag="0"/>
			<psa10 value="0.0157785890041021" flag="0"/>
			<psa30 value="0.00284335314985633" flag="0"/>
		</comp>
	</station>
	<station code="SBUA2" name="SBUA2" netid="CH" source="Switzerland Seismological Network" insttype="" lat="47.15909" lon="9.47102">
		<comp name="--.HGE" depth="1.0">
			<acc value="0.017053169928383" flag="0"/>
			<vel value="0.0113962107539094" flag="0"/>
			<psa03 value="0.0521102228799642" flag="0"/>
			<psa10 value="0.0253040737707075" flag="0"/>
			<psa30 value="0.00185192455591455" flag="0"/>
		</comp>
		<comp name="--.HGN" depth="1.0">
			<acc value="0.0137909043458213" flag="0"/>
			<vel value="0.0132432275599617" flag="0"/>
			<psa03 value="0.0423038076279837" flag="0"/>
			<psa10 value="0.0209442524539367" flag="0"/>
			<psa30 value="0.0027652661019744" flag="0"/>
		</comp>
		<comp name="--.HGZ" depth="1.0">
			<acc value="0.00665058192676897" flag="0"/>
			<vel value="0.0121911845477631" flag="0"/>
			<psa03 value="0.0157776845170846" flag="0"/>
			<psa10 value="0.0164510329251904" flag="0"/>
			<psa30 value="0.00255916411539404" flag="0"/>
		</comp>
	</station>
	<station code="SBUB" name="SBUB" netid="CH" source="Switzerland Seismological Network" insttype="" lat="47.145928" lon="9.434239">
		<comp name="--.HGE" depth="1.0">
			<acc value="0.00896622770773768" flag="0"/>
			<vel value="0.0102855347564144" flag="0"/>
			<psa03 value="0.0204469274252726" flag="0"/>
			<psa10 value="0.0142427291359091" flag="0"/>
			<psa30 value="0.00269423014618987" flag="0"/>
		</comp>
		<comp name="--.HGN" depth="1.0">
			<acc value="0.00761356227864787" flag="0"/>
			<vel value="0.0092213419285319" flag="0"/>
			<psa03 value="0.0121120289249944" flag="0"/>
			<psa10 value="0.0127013892171983" flag="0"/>
			<psa30 value="0.00380810768511051" flag="0"/>
		</comp>
		<comp name="--.HGZ" depth="1.0">
			<acc value="0.00566565656568294" flag="0"/>
			<vel value="0.00897302736007711" flag="0"/>
			<psa03 value="0.0109158422616135" flag="0"/>
			<psa10 value="0.0114399940934671" flag="0"/>
			<psa30 value="0.00199747003091811" flag="0"/>
		</comp>
	</station>
	<station code="SCEL" name="SCEL" netid="CH" source="Switzerland Seismological Network" insttype="" lat="46.5074" lon="9.85542">
		<comp name="--.HGE" depth="1.0">
			<acc value="0.048449637346518" flag="0"/>
			<vel value="0.0263752290089077" flag="0"/>
			<psa03 value="0.0850101925747163" flag="0"/>
			<psa10 value="0.0420035361511673" flag="0"/>
			<psa30 value="0.00336416651562785" flag="0"/>
		</comp>
		<comp name="--.HGN" depth="1.0">
			<acc value="0.0675792553408021" flag="0"/>
			<vel value="0.0338244886795875" flag="0"/>
			<psa03 value="0.0892607022034522" flag="0"/>
			<psa10 value="0.0419310537764457" flag="0"/>
			<psa30 value="0.00496101586983397" flag="0"/>
		</comp>
		<comp name="--.HGZ" depth="1.0">
			<acc value="0.023045637897107" flag="0"/>
			<vel value="0.0154169177948995" flag="0"/>
			<psa03 value="0.0376729379725848" flag="0"/>
			<psa10 value="0.0201984217557526" flag="0"/>
			<psa30 value="0.00248050793491699" flag="0"/>
		</comp>
	</station>
	<station code="SCUC" name="SCUC" netid="CH" source="Switzerland Seismological Network" insttype="" lat="46.798" lon="10.3038">
		<comp name="--.HGE" depth="0.0">
			<acc value="0.0478721890572634" flag="0"/>
			<vel value="0.0381866995388909" flag="0"/>
			<psa03 value="0.18563541525921" flag="0"/>
			<psa10 value="0.0364022593046259" flag="0"/>
			<psa30 value="0.00339772317059156" flag="0"/>
		</comp>
		<comp name="--.HGN" depth="0.0">
			<acc value="0.0324588636898324" flag="0"/>
			<vel value="0.0249376738558316" flag="0"/>
			<psa03 value="0.0623706360258708" flag="0"/>
			<psa10 value="0.0376183524805105" flag="0"/>
			<psa30 value="0.0026174190871689" flag="0"/>
		</comp>
		<comp name="--.HGZ" depth="0.0">
			<acc value="0.0243603569708192" flag="0"/>
			<vel value="0.0168955853161981" flag="0"/>
			<psa03 value="0.056643633578732" flag="0"/>
			<psa10 value="0.0179836825281481" flag="0"/>
			<psa30 value="0.00279057142678161" flag="0"/>
		</comp>
	</station>
	<station code="SCUG" name="SCUG" netid="CH" source="Switzerland Seismological Network" insttype="" lat="46.856125" lon="9.523831">
		<comp name="--.HGE" depth="1.0">
			<acc value="0.0254639323838433" flag="0"/>
			<vel value="0.0378975214775665" flag="0"/>
			<psa03 value="0.0638471288442738" flag="0"/>
			<psa10 value="0.0650851457014014" flag="0"/>
			<psa30 value="0.00767418327916597" flag="0"/>
		</comp>
		<comp name="--.HGN" depth="1.0">
			<acc value="0.0251238422683448" flag="0"/>
			<vel value="0.0387118083312965" flag="0"/>
			<psa03 value="0.061252080860414" flag="0"/>
			<psa10 value="0.0628341652864361" flag="0"/>
			<psa30 value="0.00623616875845472" flag="0"/>
		</comp>
		<comp name="--.HGZ" depth="1.0">
			<acc value="0.0169899758849229" flag="0"/>
			<vel value="0.0246051540895494" flag="0"/>
			<psa03 value="0.0309616069798441" flag="0"/>
			<psa10 value="0.0353311308781845" flag="0"/>
			<psa30 value="0.00570955298655766" flag="0"/>
		</comp>
	</station>
	<station code="SGRA" name="SGRA" netid="CH" source="Switzerland Seismological Network" insttype="" lat="46.193636" lon="7.835612">
		<comp name="--.HGE" depth="1.0">
			<acc value="0.0170768225251843" flag="0"/>
			<vel value="0.0208324403210002" flag="0"/>
			<psa03 value="0.0385528898772243" flag="0"/>
			<psa10 value="0.0322381143668739" flag="0"/>
			<psa30 value="0.00330365301746354" flag="0"/>
		</comp>
		<comp name="--.HGN" depth="1.0">
			<acc value="0.0272194618524584" flag="0"/>
			<vel value="0.0317479510805911" flag="0"/>
			<psa03 value="0.0546469482171976" flag="0"/>
			<psa10 value="0.0649309163546859" flag="0"/>
			<psa30 value="0.00347822041503293" flag="0"/>
		</comp>
		<comp name="--.HGZ" depth="1.0">
			<acc value="0.0123516425912581" flag="0"/>
			<vel value="0.0122554335184508" flag="0"/>
			<psa03 value="0.0322184416052815" flag="0"/>
			<psa10 value="0.0299231047588378" flag="0"/>
			<psa30 value="0.0019267484709641" flag="0"/>
		</comp>
	</station>
	<station code="SGT00" name="SGT00" netid="CH" source="Switzerland Seismological Network" insttype="" lat="47.423989" lon="9.310302">
		<comp name="SF.HGE" depth="1.0">
			<acc value="0.0119566164492262" flag="0"/>
			<vel value="0.0222388331086872" flag="0"/>
			<psa03 value="0.0282391207031355" flag="0"/>
			<psa10 value="0.0301082395231135" flag="0"/>
			<psa30 value="0.0083577453262625" flag="0"/>
		</comp>
		<comp name="SF.HGN" depth="1.0">
			<acc value="0.0125948357152295" flag="0"/>
			<vel value="0.0181850980818005" flag="0"/>
			<psa03 value="0.0225864545751004" flag="0"/>
			<psa10 value="0.0417218551183367" flag="0"/>
			<psa30 value="0.00457315919933893" flag="0"/>
		</comp>
		<comp name="SF.HGZ" depth="1.0">
			<acc value="0.0118227284160295" flag="0"/>
			<vel value="0.0168828155702974" flag="0"/>
			<psa03 value="0.0203591012947218" flag="0"/>
			<psa10 value="0.0337958138068182" flag="0"/>
			<psa30 value="0.00378550118754012" flag="0"/>
		</comp>
	</station>
	<station code="SLTM2" name="SLTM2" netid="CH" source="Switzerland Seismological Network" insttype="" lat="46.92358" lon="9.000898">
		<comp name="--.HGE" depth="1.0">
			<acc value="0.0198295033734187" flag="0"/>
			<vel value="0.0235120498351396" flag="0"/>
			<psa03 value="0.0562816502580594" flag="0"/>
			<psa10 value="0.0353397573354754" flag="0"/>
			<psa30 value="0.00271841341487923" flag="0"/>
		</comp>
		<comp name="--.HGN" depth="1.0">
			<acc value="0.0216354294398979" flag="0"/>
			<vel value="0.0215534184230399" flag="0"/>
			<psa03 value="0.0643159741595143" flag="0"/>
			<psa10 value="0.0347173661051238" flag="0"/>
			<psa30 value="0.00261799030400812" flag="0"/>
		</comp>
		<comp name="--.HGZ" depth="1.0">
			<acc value="0.0124254599298014" flag="0"/>
			<vel value="0.016639588695693" flag="0"/>
			<psa03 value="0.034067462531372" flag="0"/>
			<psa10 value="0.0229977759897839" flag="0"/>
			<psa30 value="0.00176740812378191" flag="0"/>
		</comp>
	</station>
	<station code="SNIB" name="SNIB" netid="CH" source="Switzerland Seismological Network" insttype="" lat="46.177142" lon="7.802367">
		<comp name="--.HGE" depth="1.0">
			<acc value="0.0340975609370424" flag="0"/>
			<vel value="0.0187416291083517" flag="0"/>
			<psa03 value="0.120184826238182" flag="0"/>
			<psa10 value="0.0149195758486905" flag="0"/>
			<psa30 value="0.00134932094839253" flag="0"/>
		</comp>
		<comp name="--.HGN" depth="1.0">
			<acc value="0.0308827102728198" flag="0"/>
			<vel value="0.0227880445552198" flag="0"/>
			<psa03 value="0.095907801337615" flag="0"/>
			<psa10 value="0.0317187837137676" flag="0"/>
			<psa30 value="0.00187519401406672" flag="0"/>
		</comp>
		<comp name="--.HGZ" depth="1.0">
			<acc value="0.0216617232608025" flag="0"/>
			<vel value="0.00729565624629805" flag="0"/>
			<psa03 value="0.0414236633852332" flag="0"/>
			<psa10 value="0.0071185045347352" flag="0"/>
			<psa30 value="0.00179185911853827" flag="0"/>
		</comp>
	</station>
	<station code="STSP" name="STSP" netid="CH" source="Switzerland Seismological Network" insttype="" lat="46.62645" lon="10.33317">
		<comp name="--.HGE" depth="1.0">
			<acc value="0.0637247122689274" flag="0"/>
			<vel value="0.0441612388407808" flag="0"/>
			<psa03 value="0.198207975318944" flag="0"/>
			<psa10 value="0.0474719286440525" flag="0"/>
			<psa30 value="0.00468495645499923" flag="0"/>
		</comp>
		<comp name="--.HGN" depth="1.0">
			<acc value="0.0542280361941741" flag="0"/>
			<vel value="0.0389376530432014" flag="0"/>
			<psa03 value="0.129662914779752" flag="0"/>
			<psa10 value="0.0334586695312098" flag="0"/>
			<psa30 value="0.00358877239285158" flag="0"/>
		</comp>
		<comp name="--.HGZ" depth="1.0">
			<acc value="0.0337685539894743" flag="0"/>
			<vel value="0.0281606928301154" flag="0"/>
			<psa03 value="0.108947273115492" flag="0"/>
			<psa10 value="0.0327298189853982" flag="0"/>
			<psa30 value="0.00385722563256121" flag="0"/>
		</comp>
	</station>
	<station code="SVAM" name="SVAM" netid="CH" source="Switzerland Seismological Network" insttype="" lat="46.693377" lon="9.526099">
		<comp name="--.HGE" depth="0.0">
			<acc value="0.0406544783223863" flag="0"/>
			<vel value="0.0311773905539804" flag="0"/>
			<psa03 value="0.129483945953278" flag="0"/>
			<psa10 value="0.0340626893205565" flag="0"/>
			<psa30 value="0.00330779133528883" flag="0"/>
		</comp>
		<comp name="--.HGN" depth="0.0">
			<acc value="0.0394962660243565" flag="0"/>
			<vel value="0.0285231218357631" flag="0"/>
			<psa03 value="0.100490996064638" flag="0"/>
			<psa10 value="0.0283285281203588" flag="0"/>
			<psa30 value="0.00234941326952545" flag="0"/>
		</comp>
		<comp name="--.HGZ" depth="0.0">
			<acc value="0.0154950442294678" flag="0"/>
			<vel value="0.0114920029858847" flag="0"/>
			<psa03 value="0.0317669666989729" flag="0"/>
			<psa10 value="0.0301566946827813" flag="0"/>
			<psa30 value="0.0024308440855707" flag="0"/>
		</comp>
	</station>
	<station code="SVIL" name="SVIL" netid="CH" source="Switzerland Seismological Network" insttype="" lat="46.29225" lon="7.88653">
		<comp name="--.HGE" depth="0.0">
			<acc value="0.0902097497697491" flag="0"/>
			<vel value="0.0498804569510164" flag="0"/>
			<psa03 value="0.27053271313131" flag="0"/>
			<psa10 value="0.0330221600560449" flag="0"/>
			<psa30 value="0.00293089103214588" flag="0"/>
		</comp>
		<comp name="--.HGN" depth="0.0">
			<acc value="0.086816442305991" flag="0"/>
			<vel value="0.0483228151679206" flag="0"/>
			<psa03 value="0.180822999469504" flag="0"/>
			<psa10 value="0.0586424660253851" flag="0"/>
			<psa30 value="0.00375545003013449" flag="0"/>
		</comp>
		<comp name="--.HGZ" depth="0.0">
			<acc value="0.03352675118341" flag="0"/>
			<vel value="0.023172676504173" flag="0"/>
			<psa03 value="0.0916692080519965" flag="0"/>
			<psa10 value="0.0196392335028352" flag="0"/>
			<psa30 value="0.00126290605716294" flag="0"/>
		</comp>
	</station>
	<station code="SVIO" name="SVIO" netid="CH" source="Switzerland Seismological Network" insttype="" lat="46.2908" lon="7.88033">
		<comp name="--.HGE" depth="0.0">
			<acc value="0.0132200558641559" flag="0"/>
			<vel value="0.00732677359507423" flag="0"/>
			<psa03 value="0.0301112290961574" flag="0"/>
			<psa10 value="0.00881449110426632" flag="0"/>
			<psa30 value="0.00146076791453873" flag="0"/>
		</comp>
		<comp name="--.HGN" depth="0.0">
			<acc value="0.0188439752530991" flag="0"/>
			<vel value="0.0139388341850989" flag="0"/>
			<psa03 value="0.0485835309202647" flag="0"/>
			<psa10 value="0.0168214243368012" flag="0"/>
			<psa30 value="0.00173494430654361" flag="0"/>
		</comp>
		<comp name="--.HGZ" depth="0.0">
			<acc value="0.00941388185538576" flag="0"/>
			<vel value="0.00812882886898451" flag="0"/>
			<psa03 value="0.0207366523472648" flag="0"/>
			<psa10 value="0.0142891534612881" flag="0"/>
			<psa30 value="0.00133723171003776" flag="0"/>
		</comp>
	</station>
	<station code="SZER" name="SZER" netid="CH" source="Switzerland Seismological Network" insttype="" lat="46.69749" lon="10.09768">
		<comp name="--.HGE" depth="0.0">
			<acc value="0.0258934012252536" flag="0"/>
			<vel value="0.0182100573093688" flag="0"/>
			<psa03 value="0.060088783488339" flag="0"/>
			<psa10 value="0.0193850084394324" flag="0"/>
			<psa30 value="0.00287200224282686" flag="0"/>
		</comp>
		<comp name="--.HGN" depth="0.0">
			<acc value="0.0218315445881497" flag="0"/>
			<vel value="0.0183148269955785" flag="0"/>
			<psa03 value="0.0464424104697661" flag="0"/>
			<psa10 value="0.0247768917590003" flag="0"/>
			<psa30 value="0.00193554785830644" flag="0"/>
		</comp>
		<comp name="--.HGZ" depth="0.0">
			<acc value="0.0194451359537915" flag="0"/>
			<vel value="0.0155579215179838" flag="0"/>
			<psa03 value="0.0302009894673334" flag="0"/>
			<psa10 value="0.0269231754104788" flag="0"/>
			<psa30 value="0.00338832730720172" flag="0"/>
		</comp>
	</station>
	<station code="VDL" name="VDL" netid="CH" source="Switzerland Seismological Network" insttype="" lat="46.48318" lon="9.44956">
		<comp name="--.HGE" depth="0.0">
