<?xml version="1.0" encoding="UTF-8" standalone="yes"?>
<!DOCTYPE earthquake SYSTEM "stationlist.dtd">
<stationlist created="" xmlns="ch.ethz.sed.shakemap.usgs.xml">
  <station code="FIVI" name="FIVI" netid="GU" source="INGV" insttype="" lat="44.2393" lon="10.1273">
    <comp name="--.HNE">
      <acc value="0.0418843280" flag="0"/>
      <vel value="0.0518625111" flag="0"/>
      <psa03 value="0.0809018653" flag="0"/>
      <psa10 value="0.0611508830" flag="0"/>
      <psa30 value="0.0110708441" flag="0"/>
    </comp>
    <comp name="--.HNN">
      <acc value="0.0416370401" flag="0"/>
      <vel value="0.0428479625" flag="0"/>
      <psa03 value="0.0900383349" flag="0"/>
      <psa10 value="0.1064649438" flag="0"/>
      <psa30 value="0.0125979175" flag="0"/>
    </comp>
    <comp name="--.HNZ">
      <acc value="0.0421555859" flag="0"/>
      <vel value="0.0398551564" flag="0"/>
      <psa03 value="0.0442288396" flag="0"/>
      <psa10 value="0.0554403049" flag="0"/>
      <psa30 value="0.0104965816" flag="0"/>
    </comp>
  </station>
  <station code="GORR" name="GORR" netid="GU" source="INGV" insttype="" lat="44.6071" lon="9.2926">
    <comp name="--.HHE">
      <acc value="0.0956742168" flag="0"/>
      <vel value="0.1153607859" flag="0"/>
      <psa03 value="0.1756944885" flag="0"/>
      <psa10 value="0.1310788302" flag="0"/>
      <psa30 value="0.0135703021" flag="0"/>
    </comp>
    <comp name="--.HHN">
      <acc value="0.0483130369" flag="0"/>
      <vel value="0.0544794229" flag="0"/>
      <psa03 value="0.1163069490" flag="0"/>
      <psa10 value="0.0913261834" flag="0"/>
      <psa30 value="0.0121188051" flag="0"/>
    </comp>
    <comp name="--.HHZ">
      <acc value="0.0586352725" flag="0"/>
      <vel value="0.0813579110" flag="0"/>
      <psa03 value="0.0685601014" flag="0"/>
      <psa10 value="0.1209278444" flag="0"/>
      <psa30 value="0.0114743455" flag="0"/>
    </comp>
  </station>
  <station code="MAIM" name="MAIM" netid="GU" source="INGV" insttype="" lat="43.9142" lon="10.4915">
    <comp name="--.HHE">
      <acc value="0.0253558213" flag="0"/>
      <vel value="0.0355084394" flag="0"/>
      <psa03 value="0.0527789901" flag="0"/>
      <psa10 value="0.0506055264" flag="0"/>
      <psa30 value="0.0119597070" flag="0"/>
    </comp>
    <comp name="--.HHN">
      <acc value="0.0360075718" flag="0"/>
      <vel value="0.0631346381" flag="0"/>
      <psa03 value="0.0563000980" flag="0"/>
      <psa10 value="0.0689022202" flag="0"/>
      <psa30 value="0.0186433620" flag="0"/>
    </comp>
    <comp name="--.HHZ">
      <acc value="0.0197613640" flag="0"/>
      <vel value="0.0440654937" flag="0"/>
      <psa03 value="0.0351943415" flag="0"/>
      <psa10 value="0.0369420005" flag="0"/>
      <psa30 value="0.0129830975" flag="0"/>
    </comp>
  </station>
  <station code="POPM" name="POPM" netid="GU" source="INGV" insttype="" lat="44.045" lon="10.757">
    <comp name="--.HHE">
      <acc value="0.0475079242" flag="0"/>
      <vel value="0.0303784660" flag="0"/>
      <psa03 value="0.1202387413" flag="0"/>
      <psa10 value="0.0255638938" flag="0"/>
      <psa30 value="0.0154268736" flag="0"/>
    </comp>
    <comp name="--.HHN">
      <acc value="0.0467556614" flag="0"/>
      <vel value="0.0426505551" flag="0"/>
      <psa03 value="0.1300193754" flag="0"/>
      <psa10 value="0.0575555659" flag="0"/>
      <psa30 value="0.0155525246" flag="0"/>
    </comp>
    <comp name="--.HHZ">
      <acc value="0.0343072999" flag="0"/>
      <vel value="0.0253257775" flag="0"/>
      <psa03 value="0.0596467141" flag="0"/>
      <psa10 value="0.0301635972" flag="0"/>
      <psa30 value="0.0147353271" flag="0"/>
    </comp>
  </station>
  <station code="ASOL" name="ASOL" netid="IV" source="INGV" insttype="" lat="45.8003" lon="11.9023">
    <comp name="--.HNE">
      <acc value="0.3322126435" flag="0"/>
      <vel value="0.1746908176" flag="0"/>
      <psa03 value="0.4986971744" flag="0"/>
      <psa10 value="0.1473366827" flag="0"/>
      <psa30 value="0.0529654543" flag="0"/>
    </comp>
    <comp name="--.HNN">
      <acc value="0.3068831880" flag="0"/>
      <vel value="0.1521448208" flag="0"/>
      <psa03 value="0.5349274160" flag="0"/>
      <psa10 value="0.0943797670" flag="0"/>
      <psa30 value="0.0400095121" flag="0"/>
    </comp>
    <comp name="--.HNZ">
      <acc value="0.1880002199" flag="0"/>
      <vel value="0.0745793995" flag="0"/>
      <psa03 value="0.2458120950" flag="0"/>
      <psa10 value="0.0599687577" flag="0"/>
      <psa30 value="0.0176650619" flag="0"/>
    </comp>
  </station>
  <station code="ATCA" name="ATCA" netid="IV" source="INGV" insttype="" lat="43.5659" lon="12.2661">
    <comp name="--.HHE">
      <acc value="0.0155966076" flag="0"/>
      <vel value="0.0192860139" flag="0"/>
      <psa03 value="0.0501504386" flag="0"/>
      <psa10 value="0.0420281720" flag="0"/>
      <psa30 value="0.0046461880" flag="0"/>
    </comp>
    <comp name="--.HHN">
      <acc value="0.0209980355" flag="0"/>
      <vel value="0.0247837935" flag="0"/>
      <psa03 value="0.0370306264" flag="0"/>
      <psa10 value="0.0288623758" flag="0"/>
      <psa30 value="0.0071039278" flag="0"/>
    </comp>
    <comp name="--.HHZ">
      <acc value="0.0147392273" flag="0"/>
      <vel value="0.0192667294" flag="0"/>
      <psa03 value="0.0379921837" flag="0"/>
      <psa10 value="0.0293186123" flag="0"/>
      <psa30 value="0.0054255883" flag="0"/>
    </comp>
  </station>
  <station code="ATPC" name="ATPC" netid="IV" source="INGV" insttype="" lat="43.4807" lon="12.457">
    <comp name="--.HHE">
      <acc value="0.0524807614" flag="0"/>
      <vel value="0.0504214409" flag="0"/>
      <psa03 value="0.2076238896" flag="0"/>
      <psa10 value="0.0709934900" flag="0"/>
      <psa30 value="0.0103640584" flag="0"/>
    </comp>
    <comp name="--.HHN">
      <acc value="0.0298075975" flag="0"/>
      <vel value="0.0354996618" flag="0"/>
      <psa03 value="0.0949026089" flag="0"/>
      <psa10 value="0.0701777197" flag="0"/>
      <psa30 value="0.0116468898" flag="0"/>
    </comp>
    <comp name="--.HHZ">
      <acc value="0.0218671028" flag="0"/>
      <vel value="0.0332330662" flag="0"/>
      <psa03 value="0.0641883745" flag="0"/>
      <psa10 value="0.0764321221" flag="0"/>
      <psa30 value="0.0093768879" flag="0"/>
    </comp>
  </station>
  <station code="BAG8" name="BAG8" netid="IV" source="INGV" insttype="" lat="45.8228" lon="10.4664">
    <comp name="--.HNE">
      <acc value="0.1167606890" flag="0"/>
      <vel value="0.1078406884" flag="0"/>
      <psa03 value="0.3103150370" flag="0"/>
      <psa10 value="0.1542778609" flag="0"/>
      <psa30 value="0.0100527556" flag="0"/>
    </comp>
    <comp name="--.HNN">
      <acc value="0.1904867646" flag="0"/>
      <vel value="0.1216823410" flag="0"/>
      <psa03 value="0.5572820505" flag="0"/>
      <psa10 value="0.1680590379" flag="0"/>
      <psa30 value="0.0169786554" flag="0"/>
    </comp>
    <comp name="--.HNZ">
      <acc value="0.0667367150" flag="0"/>
      <vel value="0.0601237143" flag="0"/>
      <psa03 value="0.2295462972" flag="0"/>
      <psa10 value="0.0751051128" flag="0"/>
      <psa30 value="0.0076342509" flag="0"/>
    </comp>
  </station>
  <station code="BDI" name="BDI" netid="IV" source="INGV" insttype="" lat="44.0624" lon="10.597">
    <comp name="--.HHE">
      <acc value="0.0384011036" flag="0"/>
      <vel value="0.0537299133" flag="0"/>
      <psa03 value="0.0887694044" flag="0"/>
      <psa10 value="0.0733368440" flag="0"/>
      <psa30 value="0.0112544699" flag="0"/>
    </comp>
    <comp name="--.HHN">
      <acc value="0.0646805698" flag="0"/>
      <vel value="0.0534486469" flag="0"/>
      <psa03 value="0.1069081135" flag="0"/>
      <psa10 value="0.1013781256" flag="0"/>
      <psa30 value="0.0097425824" flag="0"/>
    </comp>
    <comp name="--.HHZ">
      <acc value="0.0286918691" flag="0"/>
      <vel value="0.0227690770" flag="0"/>
      <psa03 value="0.0667298127" flag="0"/>
      <psa10 value="0.0309225857" flag="0"/>
      <psa30 value="0.0077478348" flag="0"/>
    </comp>
  </station>
  <station code="BOB" name="BOB" netid="IV" source="INGV" insttype="" lat="44.7679" lon="9.44782">
    <comp name="--.HHE">
      <acc value="0.0448522168" flag="0"/>
      <vel value="0.0642058152" flag="0"/>
      <psa03 value="0.0896624782" flag="0"/>
      <psa10 value="0.0784150230" flag="0"/>
      <psa30 value="0.0112045527" flag="0"/>
    </comp>
    <comp name="--.HHN">
      <acc value="0.0493589190" flag="0"/>
      <vel value="0.0468020687" flag="0"/>
      <psa03 value="0.1412648195" flag="0"/>
      <psa10 value="0.0855403883" flag="0"/>
      <psa30 value="0.0147517620" flag="0"/>
    </comp>
    <comp name="--.HHZ">
      <acc value="0.0307007755" flag="0"/>
      <vel value="0.0293160273" flag="0"/>
      <psa03 value="0.0785694325" flag="0"/>
      <psa10 value="0.0734965719" flag="0"/>
      <psa30 value="0.0059236448" flag="0"/>
    </comp>
  </station>
  <station code="BOTT" name="BOTT" netid="IV" source="INGV" insttype="" lat="45.5494" lon="10.3095">
    <comp name="--.HNE">
      <acc value="0.5510358914" flag="0"/>
      <vel value="0.2754020470" flag="0"/>
      <psa03 value="1.6293718383" flag="0"/>
      <psa10 value="0.1682506424" flag="0"/>
      <psa30 value="0.0169180481" flag="0"/>
    </comp>
    <comp name="--.HNN">
      <acc value="0.3160420466" flag="0"/>
      <vel value="0.1849790329" flag="0"/>
      <psa03 value="0.9228445113" flag="0"/>
      <psa10 value="0.1976474763" flag="0"/>
      <psa30 value="0.0153751563" flag="0"/>
    </comp>
    <comp name="--.HNZ">
      <acc value="0.2266891987" flag="0"/>
      <vel value="0.1274596874" flag="0"/>
      <psa03 value="0.5883372825" flag="0"/>
      <psa10 value="0.1445896706" flag="0"/>
      <psa30 value="0.0063876339" flag="0"/>
    </comp>
  </station>
  <station code="BRIS" name="BRIS" netid="IV" source="INGV" insttype="" lat="44.2245" lon="11.7666">
    <comp name="--.HHE">
      <acc value="0.0664432944" flag="0"/>
      <vel value="0.0505344614" flag="0"/>
      <psa03 value="0.1266989512" flag="0"/>
      <psa10 value="0.0585890640" flag="0"/>
      <psa30 value="0.0142225253" flag="0"/>
    </comp>
    <comp name="--.HHN">
      <acc value="0.0392793094" flag="0"/>
      <vel value="0.0437541244" flag="0"/>
      <psa03 value="0.1389759091" flag="0"/>
      <psa10 value="0.0582581519" flag="0"/>
      <psa30 value="0.0137802499" flag="0"/>
    </comp>
    <comp name="--.HHZ">
      <acc value="0.0368965363" flag="0"/>
      <vel value="0.0376270631" flag="0"/>
      <psa03 value="0.1098833579" flag="0"/>
      <psa10 value="0.0624867358" flag="0"/>
      <psa30 value="0.0073414469" flag="0"/>
    </comp>
  </station>
  <station code="CAFI" name="CAFI" netid="IV" source="INGV" insttype="" lat="43.3292" lon="11.9663">
    <comp name="--.HHE">
      <acc value="0.0151080453" flag="0"/>
      <vel value="0.0224259347" flag="0"/>
      <psa03 value="0.0313051020" flag="0"/>
      <psa10 value="0.0309039505" flag="0"/>
      <psa30 value="0.0067914967" flag="0"/>
    </comp>
    <comp name="--.HHN">
      <acc value="0.0126765955" flag="0"/>
      <vel value="0.0156008075" flag="0"/>
      <psa03 value="0.0325186350" flag="0"/>
      <psa10 value="0.0311169311" flag="0"/>
      <psa30 value="0.0056772462" flag="0"/>
    </comp>
    <comp name="--.HHZ">
      <acc value="0.0138635510" flag="0"/>
      <vel value="0.0171228360" flag="0"/>
      <psa03 value="0.0213840759" flag="0"/>
      <psa10 value="0.0478343938" flag="0"/>
      <psa30 value="0.0047905898" flag="0"/>
    </comp>
  </station>
  <station code="CNCS" name="CNCS" netid="IV" source="INGV" insttype="" lat="45.606" lon="10.217">
    <comp name="--.HNE">
      <acc value="0.5166115561" flag="0"/>
      <vel value="0.3761559227" flag="0"/>
      <psa03 value="1.7482371575" flag="0"/>
      <psa10 value="0.2891897752" flag="0"/>
      <psa30 value="0.0285063829" flag="0"/>
    </comp>
    <comp name="--.HNN">
      <acc value="0.4840464306" flag="0"/>
      <vel value="0.2446554285" flag="0"/>
      <psa03 value="1.6705656614" flag="0"/>
      <psa10 value="0.2344054438" flag="0"/>
      <psa30 value="0.0143863497" flag="0"/>
    </comp>
    <comp name="--.HNZ">
      <acc value="0.2348923937" flag="0"/>
      <vel value="0.1319327319" flag="0"/>
      <psa03 value="0.6791647532" flag="0"/>
      <psa10 value="0.1273530628" flag="0"/>
      <psa30 value="0.0082266091" flag="0"/>
    </comp>
  </station>
  <station code="CPGN" name="CPGN" netid="IV" source="INGV" insttype="" lat="43.8011" lon="12.3205">
    <comp name="--.HNE">
      <acc value="0.0634685505" flag="0"/>
      <vel value="0.0588960794" flag="0"/>
      <psa03 value="0.1583736805" flag="0"/>
      <psa10 value="0.1446581459" flag="0"/>
      <psa30 value="0.0296799916" flag="0"/>
    </comp>
    <comp name="--.HNN">
      <acc value="0.0432307358" flag="0"/>
      <vel value="0.0585054115" flag="0"/>
      <psa03 value="0.1365518927" flag="0"/>
      <psa10 value="0.0866780854" flag="0"/>
      <psa30 value="0.0232871464" flag="0"/>
    </comp>
    <comp name="--.HNZ">
      <acc value="0.0258269716" flag="0"/>
      <vel value="0.0526198594" flag="0"/>
      <psa03 value="0.0696593428" flag="0"/>
      <psa10 value="0.0815321425" flag="0"/>
      <psa30 value="0.0280154952" flag="0"/>
    </comp>
  </station>
  <station code="CRMI" name="CRMI" netid="IV" source="INGV" insttype="" lat="43.7956" lon="10.9795">
    <comp name="--.HHE">
      <acc value="0.0199925564" flag="0"/>
      <vel value="0.0292083153" flag="0"/>
      <psa03 value="0.0847979769" flag="0"/>
      <psa10 value="0.0500212682" flag="0"/>
      <psa30 value="0.0102982411" flag="0"/>
    </comp>
    <comp name="--.HHN">
      <acc value="0.0215175643" flag="0"/>
      <vel value="0.0413279974" flag="0"/>
      <psa03 value="0.0452074879" flag="0"/>
      <psa10 value="0.0593890791" flag="0"/>
      <psa30 value="0.0161361466" flag="0"/>
    </comp>
    <comp name="--.HHZ">
      <acc value="0.0190884148" flag="0"/>
      <vel value="0.0333041979" flag="0"/>
      <psa03 value="0.0351229753" flag="0"/>
      <psa10 value="0.0250812299" flag="0"/>
      <psa30 value="0.0181759700" flag="0"/>
    </comp>
  </station>
  <station code="CRND" name="CRND" netid="IV" source="INGV" insttype="" lat="45.8361" lon="12.0131">
    <comp name="--.HNE">
      <acc value="0.1594531206" flag="0"/>
      <vel value="0.0412453002" flag="0"/>
      <psa03 value="0.1381692834" flag="0"/>
      <psa10 value="0.0723627203" flag="0"/>
      <psa30 value="0.0102899051" flag="0"/>
    </comp>
    <comp name="--.HNN">
      <acc value="0.1495049146" flag="0"/>
      <vel value="0.0710030551" flag="0"/>
      <psa03 value="0.2005724837" flag="0"/>
      <psa10 value="0.0548251013" flag="0"/>
      <psa30 value="0.0282328294" flag="0"/>
    </comp>
    <comp name="--.HNZ">
      <acc value="0.1037739756" flag="0"/>
      <vel value="0.0335856373" flag="0"/>
      <psa03 value="0.0836943582" flag="0"/>
      <psa10 value="0.0330584568" flag="0"/>
      <psa30 value="0.0106428280" flag="0"/>
    </comp>
  </station>
  <station code="CSNT" name="CSNT" netid="IV" source="INGV" insttype="" lat="43.4731" lon="11.2902">
    <comp name="--.HHE">
      <acc value="0.0146721200" flag="0"/>
      <vel value="0.0224525992" flag="0"/>
      <psa03 value="0.0365410852" flag="0"/>
      <psa10 value="0.0279753984" flag="0"/>
      <psa30 value="0.0074245312" flag="0"/>
    </comp>
    <comp name="--.HHN">
      <acc value="0.0182737987" flag="0"/>
      <vel value="0.0306887714" flag="0"/>
      <psa03 value="0.0345568437" flag="0"/>
      <psa10 value="0.0488783161" flag="0"/>
      <psa30 value="0.0083088520" flag="0"/>
    </comp>
    <comp name="--.HHZ">
      <acc value="0.0096033011" flag="0"/>
      <vel value="0.0225378426" flag="0"/>
      <psa03 value="0.0259905125" flag="0"/>
      <psa10 value="0.0232149303" flag="0"/>
      <psa30 value="0.0110509668" flag="0"/>
    </comp>
  </station>
  <station code="CTI" name="CTI" netid="IV" source="INGV" insttype="" lat="46.0482" lon="11.6497">
    <comp name="--.HHE">
      <acc value="0.2575615241" flag="0"/>
      <vel value="0.0837843317" flag="0"/>
      <psa03 value="0.3635094282" flag="0"/>
      <psa10 value="0.0445464718" flag="0"/>
      <psa30 value="0.0080236658" flag="0"/>
    </comp>
    <comp name="--.HHN">
      <acc value="0.2600255549" flag="0"/>
      <vel value="0.0972864929" flag="0"/>
      <psa03 value="0.6188248912" flag="0"/>
      <psa10 value="0.0378173844" flag="0"/>
      <psa30 value="0.0105080557" flag="0"/>
    </comp>
    <comp name="--.HHZ">
      <acc value="0.0176028700" flag="0"/>
      <vel value="0.0091789757" flag="0"/>
      <psa03 value="0.0326484843" flag="0"/>
      <psa10 value="0.0066175260" flag="0"/>
      <psa30 value="0.0027520536" flag="0"/>
    </comp>
  </station>
  <station code="CTL8" name="CTL8" netid="IV" source="INGV" insttype="" lat="45.2763" lon="9.7622">
    <comp name="--.HNE">
      <acc value="0.3105654553" flag="0"/>
      <vel value="0.2146860794" flag="0"/>
      <psa03 value="0.7335919363" flag="0"/>
      <psa10 value="0.1926600023" flag="0"/>
      <psa30 value="0.0333638409" flag="0"/>
    </comp>
    <comp name="--.HNN">
      <acc value="0.3631633230" flag="0"/>
      <vel value="0.2858873127" flag="0"/>
      <psa03 value="0.7919586537" flag="0"/>
      <psa10 value="0.4670706382" flag="0"/>
      <psa30 value="0.0451694214" flag="0"/>
    </comp>
    <comp name="--.HNZ">
      <acc value="0.0441946674" flag="0"/>
      <vel value="0.0376980115" flag="0"/>
      <psa03 value="0.1501352223" flag="0"/>
      <psa10 value="0.0593862401" flag="0"/>
      <psa30 value="0.0202689516" flag="0"/>
    </comp>
  </station>
  <station code="FIR" name="FIR" netid="IV" source="INGV" insttype="" lat="43.7744" lon="11.2551">
    <comp name="--.HHE">
      <acc value="0.0681043508" flag="0"/>
      <vel value="0.0758058585" flag="0"/>
      <psa03 value="0.0912118506" flag="0"/>
      <psa10 value="0.1528551233" flag="0"/>
      <psa30 value="0.0143270797" flag="0"/>
    </comp>
    <comp name="--.HHN">
      <acc value="0.0783752664" flag="0"/>
      <vel value="0.0674919034" flag="0"/>
      <psa03 value="0.0882814090" flag="0"/>
      <psa10 value="0.0976665328" flag="0"/>
      <psa30 value="0.0150687885" flag="0"/>
    </comp>
    <comp name="--.HHZ">
      <acc value="0.0342670610" flag="0"/>
      <vel value="0.0447401313" flag="0"/>
      <psa03 value="0.0588421859" flag="0"/>
      <psa10 value="0.0498611842" flag="0"/>
      <psa30 value="0.0182825673" flag="0"/>
    </comp>
  </station>
  <station code="FNVD" name="FNVD" netid="IV" source="INGV" insttype="" lat="44.1678" lon="11.1229">
    <comp name="--.HHE">
      <acc value="0.0646196486" flag="0"/>
      <vel value="0.0537245421" flag="0"/>
      <psa03 value="0.1193228088" flag="0"/>
      <psa10 value="0.0607917914" flag="0"/>
      <psa30 value="0.0261176115" flag="0"/>
    </comp>
    <comp name="--.HHN">
      <acc value="0.0700208074" flag="0"/>
      <vel value="0.1509779713" flag="0"/>
      <psa03 value="0.1291582060" flag="0"/>
      <psa10 value="0.1032049252" flag="0"/>
      <psa30 value="0.0715405766" flag="0"/>
    </comp>
    <comp name="--.HHZ">
      <acc value="0.0418193869" flag="0"/>
      <vel value="0.0376406785" flag="0"/>
      <psa03 value="0.1358331536" flag="0"/>
      <psa10 value="0.0620884150" flag="0"/>
      <psa30 value="0.0202059985" flag="0"/>
    </comp>
  </station>
  <station code="FRE8" name="FRE8" netid="IV" source="INGV" insttype="" lat="46.015" lon="12.3552">
    <comp name="--.HNE">
      <acc value="0.0821509670" flag="0"/>
      <vel value="0.0757432723" flag="0"/>
      <psa03 value="0.1704552450" flag="0"/>
      <psa10 value="0.1209811672" flag="0"/>
