<?xml version="1.0" encoding="UTF-8" standalone="yes"?>
<!DOCTYPE earthquake SYSTEM "stationlist.dtd">
<stationlist created="" xmlns="ch.ethz.sed.shakemap.usgs.xml">
  <station code="LACI" name="LACI" netid="AC" insttype="" lat="41.6367" lon="19.7178">
    <comp name="00.HHE">
      <acc value="0.0849205362" flag="0"/>
      <vel value="0.0636453082" flag="0"/>
      <psa03 value="0.2561163809" flag="0"/>
      <psa10 value="0.0972091796" flag="0"/>
      <psa30 value="0.0101367428" flag="0"/>
    </comp>
    <comp name="00.HHN">
      <acc value="0.0660844120" flag="0"/>
      <vel value="0.0538332119" flag="0"/>
      <psa03 value="0.1880572994" flag="0"/>
      <psa10 value="0.0449349049" flag="0"/>
      <psa30 value="0.0072193608" flag="0"/>
    </comp>
    <comp name="00.HHZ">
      <acc value="0.0626302530" flag="0"/>
      <vel value="0.0620054865" flag="0"/>
      <psa03 value="0.1608033057" flag="0"/>
      <psa10 value="0.0744596491" flag="0"/>
      <psa30 value="0.0075113845" flag="0"/>
    </comp>
  </station>
  <station code="BARME" name="BARME" netid="ME" insttype="CMG-5" lat="42.1055" lon="19.0889">
    <comp name="--.HNE">
      <acc value="0.8758821317" flag="0"/>
      <vel value="0.5202209384" flag="0"/>
      <psa03 value="2.9995819633" flag="0"/>
      <psa10 value="0.8587880317" flag="0"/>
      <psa30 value="0.0504596533" flag="0"/>
    </comp>
    <comp name="--.HNZ">
      <acc value="0.2642937004" flag="0"/>
      <vel value="0.1940352575" flag="0"/>
      <psa03 value="0.7121156962" flag="0"/>
      <psa10 value="0.3959441206" flag="0"/>
      <psa30 value="0.0147641593" flag="0"/>
    </comp>
    <comp name="--.HNN">
      <acc value="0.7977126340" flag="0"/>
      <vel value="0.4747866082" flag="0"/>
      <psa03 value="2.1238087347" flag="0"/>
      <psa10 value="0.6872139194" flag="0"/>
      <psa30 value="0.0672379779" flag="0"/>
    </comp>
  </station>
  <station code="DAGME" name="DAGME" netid="ME" insttype="CMG-5" lat="42.5684" lon="19.0677">
    <comp name="--.HNE">
      <acc value="3.6292836947" flag="0"/>
      <vel value="2.1444021198" flag="0"/>
      <psa03 value="6.6491079634" flag="0"/>
      <psa10 value="1.1859286285" flag="0"/>
      <psa30 value="0.1125356365" flag="0"/>
    </comp>
    <comp name="--.HNN">
      <acc value="2.2139391047" flag="0"/>
      <vel value="1.1381828774" flag="0"/>
      <psa03 value="5.6850721630" flag="0"/>
      <psa10 value="0.6260789058" flag="0"/>
      <psa30 value="0.0403530785" flag="0"/>
    </comp>
    <comp name="--.HNZ">
      <acc value="0.1141106149" flag="0"/>
      <vel value="0.0663692660" flag="0"/>
      <psa03 value="0.2897235326" flag="0"/>
      <psa10 value="0.0580078248" flag="0"/>
      <psa30 value="0.0028283138" flag="0"/>
    </comp>
  </station>
  <station code="DIVS" name="DIVS" netid="MN" insttype="" lat="44.0981" lon="19.9917">
    <comp name="--.HHE">
      <acc value="0.0435315734" flag="0"/>
      <vel value="0.0482628436" flag="0"/>
      <psa03 value="0.1013029194" flag="0"/>
      <psa10 value="0.0687350233" flag="0"/>
      <psa30 value="0.0134651567" flag="0"/>
    </comp>
    <comp name="--.HHN">
      <acc value="0.0360977510" flag="0"/>
      <vel value="0.0547057602" flag="0"/>
      <psa03 value="0.1008344340" flag="0"/>
      <psa10 value="0.1371092792" flag="0"/>
      <psa30 value="0.0117514708" flag="0"/>
    </comp>
    <comp name="--.HHZ">
      <acc value="0.0355516344" flag="0"/>
      <vel value="0.0358065279" flag="0"/>
      <psa03 value="0.0710593997" flag="0"/>
      <psa10 value="0.0666496752" flag="0"/>
      <psa30 value="0.0075983990" flag="0"/>
    </comp>
  </station>
  <station code="PDG" name="PDG" netid="MN" insttype="" lat="42.4297" lon="19.2608">
    <comp name="--.HHE">
      <acc value="0.4095435417" flag="0"/>
      <vel value="0.2027219101" flag="0"/>
      <psa03 value="1.0549332985" flag="0"/>
      <psa10 value="0.2438646972" flag="0"/>
      <psa30 value="0.0126157820" flag="0"/>
    </comp>
    <comp name="--.HHN">
      <acc value="0.5827859747" flag="0"/>
      <vel value="0.2461170484" flag="0"/>
      <psa03 value="0.7903824740" flag="0"/>
      <psa10 value="0.2126156813" flag="0"/>
      <psa30 value="0.0231834475" flag="0"/>
    </comp>
    <comp name="--.HHZ">
      <acc value="0.2935960993" flag="0"/>
      <vel value="0.1651963276" flag="0"/>
      <psa03 value="0.7562340860" flag="0"/>
      <psa10 value="0.2837923926" flag="0"/>
      <psa30 value="0.0174345295" flag="0"/>
    </comp>
  </station>
  <station code="BH02A" name="BH02A" netid="Y5" insttype="STS2_gen3" lat="43.8746" lon="18.4241">
    <comp name="--.HH1">
      <acc value="0.2115464475" flag="0"/>
      <vel value="0.2114728056" flag="0"/>
      <psa03 value="0.4968725959" flag="0"/>
      <psa10 value="0.2746837996" flag="0"/>
      <psa30 value="0.0256911480" flag="0"/>
    </comp>
    <comp name="--.HH2">
      <acc value="0.2008385006" flag="0"/>
      <vel value="0.2294484486" flag="0"/>
      <psa03 value="0.4924614041" flag="0"/>
      <psa10 value="0.3791454845" flag="0"/>
      <psa30 value="0.0388662962" flag="0"/>
    </comp>
    <comp name="--.HHZ">
      <acc value="0.2446670498" flag="0"/>
      <vel value="0.2104209721" flag="0"/>
      <psa03 value="0.4129343989" flag="0"/>
      <psa10 value="0.2264340319" flag="0"/>
      <psa30 value="0.0260982438" flag="0"/>
    </comp>
  </station>
  <station code="BH03A" name="BH03A" netid="Y5" insttype="STS2_gen3" lat="43.8212" lon="17.6885">
    <comp name="--.HH1">
      <acc value="0.3691649543" flag="0"/>
      <vel value="0.2141665661" flag="0"/>
      <psa03 value="1.3764851003" flag="0"/>
      <psa10 value="0.1777487513" flag="0"/>
      <psa30 value="0.0179704816" flag="0"/>
    </comp>
    <comp name="--.HHZ">
      <acc value="0.1786046242" flag="0"/>
      <vel value="0.1016155246" flag="0"/>
      <psa03 value="0.5630356798" flag="0"/>
      <psa10 value="0.1716177762" flag="0"/>
      <psa30 value="0.0132773020" flag="0"/>
    </comp>
    <comp name="--.HH2">
      <acc value="0.6409577862" flag="0"/>
      <vel value="0.4624396160" flag="0"/>
      <psa03 value="1.7194000090" flag="0"/>
      <psa10 value="0.3669679301" flag="0"/>
      <psa30 value="0.0247427036" flag="0"/>
    </comp>
  </station>
  <station code="BH04A" name="BH04A" netid="Y5" insttype="STS2_gen2" lat="43.3483" lon="17.7935">
    <comp name="--.HHZ">
      <acc value="0.6254956986" flag="0"/>
      <vel value="0.4018421412" flag="0"/>
      <psa03 value="1.2806317939" flag="0"/>
      <psa10 value="0.7082982426" flag="0"/>
      <psa30 value="0.0252689722" flag="0"/>
    </comp>
    <comp name="--.HH1">
      <acc value="0.8824798414" flag="0"/>
      <vel value="0.4988898223" flag="0"/>
      <psa03 value="2.8972221910" flag="0"/>
      <psa10 value="0.6335997333" flag="0"/>
      <psa30 value="0.0538363982" flag="0"/>
    </comp>
    <comp name="--.HH2">
      <acc value="0.8583804777" flag="0"/>
      <vel value="0.5047936025" flag="0"/>
      <psa03 value="2.8640937806" flag="0"/>
      <psa10 value="0.3899986593" flag="0"/>
      <psa30 value="0.0331539634" flag="0"/>
    </comp>
  </station>
  <station code="BH10A" name="BH10A" netid="Y5" insttype="STS2_gen3" lat="44.0685" lon="17.1657">
    <comp name="--.HH1">
      <acc value="0.2039766888" flag="0"/>
      <vel value="0.1315522652" flag="0"/>
      <psa03 value="0.3489842808" flag="0"/>
      <psa10 value="0.1981827202" flag="0"/>
      <psa30 value="0.0123989023" flag="0"/>
    </comp>
    <comp name="--.HHZ">
      <acc value="0.0554798426" flag="0"/>
      <vel value="0.0341235432" flag="0"/>
      <psa03 value="0.1670302468" flag="0"/>
      <psa10 value="0.0271599587" flag="0"/>
      <psa30 value="0.0028675317" flag="0"/>
    </comp>
    <comp name="--.HH2">
      <acc value="0.1101360796" flag="0"/>
      <vel value="0.1027533162" flag="0"/>
      <psa03 value="0.2936104797" flag="0"/>
      <psa10 value="0.1607578974" flag="0"/>
      <psa30 value="0.0194735445" flag="0"/>
    </comp>
  </station>
  <station code="BH17A" name="BH17A" netid="Y5" insttype="STS2_gen3" lat="44.3837" lon="18.5514">
    <comp name="--.HH1">
      <acc value="0.0953432612" flag="0"/>
      <vel value="0.1106968996" flag="0"/>
      <psa03 value="0.2234184024" flag="0"/>
      <psa10 value="0.1945679365" flag="0"/>
      <psa30 value="0.0141680888" flag="0"/>
    </comp>
    <comp name="--.HHZ">
      <acc value="0.1322130054" flag="0"/>
      <vel value="0.1839002612" flag="0"/>
      <psa03 value="0.2278204939" flag="0"/>
      <psa10 value="0.2151471562" flag="0"/>
      <psa30 value="0.0385840516" flag="0"/>
    </comp>
    <comp name="--.HH2">
      <acc value="0.1781201297" flag="0"/>
      <vel value="0.2404206070" flag="0"/>
      <psa03 value="0.2699253488" flag="0"/>
      <psa10 value="0.4136916177" flag="0"/>
      <psa30 value="0.0661091082" flag="0"/>
    </comp>
  </station>
</stationlist>
