<?xml version="1.0" encoding="UTF-8" standalone="yes"?>
<!DOCTYPE earthquake SYSTEM "stationlist.dtd">
<stationlist created="" xmlns="ch.ethz.sed.shakemap.usgs.xml">
  <station code="LACI" name="LACI" netid="AC" insttype="" lat="41.6367" lon="19.7178">
    <comp name="00.HHN">
      <acc value="0.0660844120" flag="0"/>
      <vel value="0.0538332122" flag="0"/>
      <psa03 value="0.1880572994" flag="0"/>
      <psa10 value="0.0449349049" flag="0"/>
      <psa30 value="0.0072193720" flag="0"/>
    </comp>
    <comp name="00.HHE">
      <acc value="0.0849205363" flag="0"/>
      <vel value="0.0636453091" flag="0"/>
      <psa03 value="0.2561163809" flag="0"/>
      <psa10 value="0.0972091796" flag="0"/>
      <psa30 value="0.0101367423" flag="0"/>
    </comp>
    <comp name="00.HHZ">
      <acc value="0.0626302529" flag="0"/>
      <vel value="0.0620054863" flag="0"/>
      <psa03 value="0.1608033057" flag="0"/>
      <psa10 value="0.0744596491" flag="0"/>
      <psa30 value="0.0075113937" flag="0"/>
    </comp>
  </station>
  <station code="BARME" name="BARME" netid="ME" insttype="CMG-5" lat="42.1055" lon="19.0889">
    <comp name="--.HNN">
      <acc value="0.7977126410" flag="0"/>
      <vel value="0.4747866085" flag="0"/>
      <psa03 value="2.1238087347" flag="0"/>
      <psa10 value="0.6872139196" flag="0"/>
      <psa30 value="0.0672381712" flag="0"/>
    </comp>
    <comp name="--.HNE">
      <acc value="0.8758821169" flag="0"/>
      <vel value="0.5202209346" flag="0"/>
      <psa03 value="2.9995819633" flag="0"/>
      <psa10 value="0.8587880319" flag="0"/>
      <psa30 value="0.0504598118" flag="0"/>
    </comp>
    <comp name="--.HNZ">
      <acc value="0.2642936986" flag="0"/>
      <vel value="0.1940352577" flag="0"/>
      <psa03 value="0.7121156962" flag="0"/>
      <psa10 value="0.3959441206" flag="0"/>
      <psa30 value="0.0147641833" flag="0"/>
    </comp>
  </station>
  <station code="DAGME" name="DAGME" netid="ME" insttype="CMG-5" lat="42.5684" lon="19.0677">
    <comp name="--.HNZ">
      <acc value="0.1141106137" flag="0"/>
      <vel value="0.0663692662" flag="0"/>
      <psa03 value="0.2897235326" flag="0"/>
      <psa10 value="0.0580078250" flag="0"/>
      <psa30 value="0.0028282565" flag="0"/>
    </comp>
    <comp name="--.HNN">
      <acc value="2.2139390970" flag="0"/>
      <vel value="1.1381828747" flag="0"/>
      <psa03 value="5.6850721630" flag="0"/>
      <psa10 value="0.6260789046" flag="0"/>
      <psa30 value="0.0403533255" flag="0"/>
    </comp>
    <comp name="--.HNE">
      <acc value="3.6292837096" flag="0"/>
      <vel value="2.1444021189" flag="0"/>
      <psa03 value="6.6491079634" flag="0"/>
      <psa10 value="1.1859286289" flag="0"/>
      <psa30 value="0.1125363623" flag="0"/>
    </comp>
  </station>
  <station code="DIVS" name="DIVS" netid="MN" insttype="" lat="44.0981" lon="19.9917">
    <comp name="--.HHZ">
      <acc value="0.0355516345" flag="0"/>
      <vel value="0.0358065285" flag="0"/>
      <psa03 value="0.0710593997" flag="0"/>
      <psa10 value="0.0666496752" flag="0"/>
      <psa30 value="0.0075984030" flag="0"/>
    </comp>
    <comp name="--.HHN">
      <acc value="0.0360977506" flag="0"/>
      <vel value="0.0547057598" flag="0"/>
      <psa03 value="0.1008344340" flag="0"/>
      <psa10 value="0.1371092792" flag="0"/>
      <psa30 value="0.0117514856" flag="0"/>
    </comp>
    <comp name="--.HHE">
      <acc value="0.0435315730" flag="0"/>
      <vel value="0.0482628427" flag="0"/>
      <psa03 value="0.1013029194" flag="0"/>
      <psa10 value="0.0687350233" flag="0"/>
      <psa30 value="0.0134651638" flag="0"/>
    </comp>
  </station>
  <station code="PDG" name="PDG" netid="MN" insttype="" lat="42.4297" lon="19.2608">
    <comp name="--.HHE">
      <acc value="0.4095435420" flag="0"/>
      <vel value="0.2027219102" flag="0"/>
      <psa03 value="1.0549332985" flag="0"/>
      <psa10 value="0.2438646971" flag="0"/>
      <psa30 value="0.0126157298" flag="0"/>
    </comp>
    <comp name="--.HHN">
      <acc value="0.5827859751" flag="0"/>
      <vel value="0.2461170489" flag="0"/>
      <psa03 value="0.7903824740" flag="0"/>
      <psa10 value="0.2126156813" flag="0"/>
      <psa30 value="0.0231834340" flag="0"/>
    </comp>
    <comp name="--.HHZ">
      <acc value="0.2935960993" flag="0"/>
      <vel value="0.1651963283" flag="0"/>
      <psa03 value="0.7562340860" flag="0"/>
      <psa10 value="0.2837923926" flag="0"/>
      <psa30 value="0.0174345504" flag="0"/>
    </comp>
  </station>
  <station code="BH02A" name="BH02A" netid="Y5" insttype="STS2_gen3" lat="43.8746" lon="18.4241">
    <comp name="--.HHZ">
      <acc value="0.2446670498" flag="0"/>
      <vel value="0.2104209725" flag="0"/>
      <psa03 value="0.4129343989" flag="0"/>
      <psa10 value="0.2264340319" flag="0"/>
      <psa30 value="0.0260982454" flag="0"/>
    </comp>
    <comp name="--.HH2">
      <acc value="0.2008385007" flag="0"/>
      <vel value="0.2294484484" flag="0"/>
      <psa03 value="0.4924614041" flag="0"/>
      <psa10 value="0.3791454845" flag="0"/>
      <psa30 value="0.0388662983" flag="0"/>
    </comp>
    <comp name="--.HH1">
      <acc value="0.2115464475" flag="0"/>
      <vel value="0.2114728067" flag="0"/>
      <psa03 value="0.4968725959" flag="0"/>
      <psa10 value="0.2746837996" flag="0"/>
      <psa30 value="0.0256911508" flag="0"/>
    </comp>
  </station>
  <station code="BH03A" name="BH03A" netid="Y5" insttype="STS2_gen3" lat="43.8212" lon="17.6885">
    <comp name="--.HH1">
      <acc value="0.3691649544" flag="0"/>
      <vel value="0.2141665662" flag="0"/>
      <psa03 value="1.3764851003" flag="0"/>
      <psa10 value="0.1777487513" flag="0"/>
      <psa30 value="0.0179704818" flag="0"/>
    </comp>
    <comp name="--.HH2">
      <acc value="0.6409577863" flag="0"/>
      <vel value="0.4624396159" flag="0"/>
      <psa03 value="1.7194000090" flag="0"/>
      <psa10 value="0.3669679301" flag="0"/>
      <psa30 value="0.0247427043" flag="0"/>
    </comp>
    <comp name="--.HHZ">
      <acc value="0.1786046242" flag="0"/>
      <vel value="0.1016155238" flag="0"/>
      <psa03 value="0.5630356798" flag="0"/>
      <psa10 value="0.1716177762" flag="0"/>
      <psa30 value="0.0132773043" flag="0"/>
    </comp>
  </station>
  <station code="BH04A" name="BH04A" netid="Y5" insttype="STS2_gen2" lat="43.3483" lon="17.7935">
    <comp name="--.HHZ">
      <acc value="0.6254956986" flag="0"/>
      <vel value="0.4018421412" flag="0"/>
      <psa03 value="1.2806317939" flag="0"/>
      <psa10 value="0.7082982426" flag="0"/>
      <psa30 value="0.0252689764" flag="0"/>
    </comp>
    <comp name="--.HH2">
      <acc value="0.8583804777" flag="0"/>
      <vel value="0.5047936016" flag="0"/>
      <psa03 value="2.8640937806" flag="0"/>
      <psa10 value="0.3899986593" flag="0"/>
      <psa30 value="0.0331539632" flag="0"/>
    </comp>
    <comp name="--.HH1">
      <acc value="0.8824798414" flag="0"/>
      <vel value="0.4988898212" flag="0"/>
      <psa03 value="2.8972221910" flag="0"/>
      <psa10 value="0.6335997333" flag="0"/>
      <psa30 value="0.0538364062" flag="0"/>
    </comp>
  </station>
  <station code="BH10A" name="BH10A" netid="Y5" insttype="STS2_gen3" lat="44.0685" lon="17.1657">
    <comp name="--.HH2">
      <acc value="0.1101360789" flag="0"/>
      <vel value="0.1027533162" flag="0"/>
      <psa03 value="0.2936104797" flag="0"/>
      <psa10 value="0.1607578974" flag="0"/>
      <psa30 value="0.0194735426" flag="0"/>
    </comp>
    <comp name="--.HHZ">
      <acc value="0.0554798407" flag="0"/>
      <vel value="0.0341235431" flag="0"/>
      <psa03 value="0.1670302468" flag="0"/>
      <psa10 value="0.0271599590" flag="0"/>
      <psa30 value="0.0028674595" flag="0"/>
    </comp>
    <comp name="--.HH1">
      <acc value="0.2039766886" flag="0"/>
      <vel value="0.1315522652" flag="0"/>
      <psa03 value="0.3489842808" flag="0"/>
      <psa10 value="0.1981827202" flag="0"/>
      <psa30 value="0.0123989022" flag="0"/>
    </comp>
  </station>
  <station code="BH17A" name="BH17A" netid="Y5" insttype="STS2_gen3" lat="44.3837" lon="18.5514">
    <comp name="--.HH1">
      <acc value="0.0953432616" flag="0"/>
      <vel value="0.1106969216" flag="0"/>
      <psa03 value="0.2234184024" flag="0"/>
      <psa10 value="0.1945679365" flag="0"/>
      <psa30 value="0.0141680860" flag="0"/>
    </comp>
    <comp name="--.HHZ">
      <acc value="0.1322130047" flag="0"/>
      <vel value="0.1839002554" flag="0"/>
      <psa03 value="0.2278204939" flag="0"/>
      <psa10 value="0.2151471562" flag="0"/>
      <psa30 value="0.0385840714" flag="0"/>
    </comp>
    <comp name="--.HH2">
      <acc value="0.1781201310" flag="0"/>
      <vel value="0.2404206081" flag="0"/>
      <psa03 value="0.2699253488" flag="0"/>
      <psa10 value="0.4136916177" flag="0"/>
      <psa30 value="0.0661091224" flag="0"/>
    </comp>
  </station>
</stationlist>
