<stationlist created="1778138256">
	<station code="KRL1" name="KRL1" netid="HI" source="ITSAK Strong Motion Network" insttype="" lat="37.7951" lon="26.7065">
		<comp name="--.HNE" depth="0.0">
			<acc value="0.0143391715925349" flag="0"/>
			<vel value="0.0104347215564942" flag="0"/>
			<psa03 value="0.0304253358416827" flag="0"/>
			<psa10 value="0.021752046591351" flag="0"/>
			<psa30 value="0.0011043003419758" flag="0"/>
		</comp>
		<comp name="--.HNN" depth="0.0">
			<acc value="0.0142437932562684" flag="0"/>
			<vel value="0.0164736134826287" flag="0"/>
			<psa03 value="0.0321067675407995" flag="0"/>
			<psa10 value="0.0196454045366499" flag="0"/>
			<psa30 value="0.00152082772654002" flag="0"/>
		</comp>
		<comp name="--.HNZ" depth="0.0">
			<acc value="0.00753419226413397" flag="0"/>
			<vel value="0.00712573418366805" flag="0"/>
			<psa03 value="0.0153218209850427" flag="0"/>
			<psa10 value="0.0127184434719668" flag="0"/>
			<psa30 value="0.00104776576350785" flag="0"/>
		</comp>
	</station>
	<station code="KSS1" name="KSS1" netid="HI" source="ITSAK Strong Motion Network" insttype="" lat="35.4189" lon="26.9207">
		<comp name="--.HNE" depth="0.0">
			<acc value="0.00821675103692831" flag="0"/>
			<vel value="0.00293267560001595" flag="0"/>
			<psa03 value="0.0313809069560764" flag="0"/>
			<psa10 value="0.00137494631782154" flag="0"/>
			<psa30 value="0.000217095045543632" flag="0"/>
		</comp>
		<comp name="--.HNN" depth="0.0">
			<acc value="0.00878386364358347" flag="0"/>
			<vel value="0.00237391386230896" flag="0"/>
			<psa03 value="0.0141228704667014" flag="0"/>
			<psa10 value="0.00195928201938107" flag="0"/>
			<psa30 value="0.000230475319941968" flag="0"/>
		</comp>
		<comp name="--.HNZ" depth="0.0">
			<acc value="0.00801514797067415" flag="0"/>
			<vel value="0.00171203552601245" flag="0"/>
			<psa03 value="0.00671040091134667" flag="0"/>
			<psa10 value="0.0016841289871533" flag="0"/>
			<psa30 value="0.00019683009631943" flag="0"/>
		</comp>
	</station>
	<station code="KLNA" name="KLNA" netid="HL" source="National Observatory of Athens Seismic Network" insttype="" lat="36.95708" lon="26.97274">
		<comp name="00.HNE" depth="0.0">
			<acc value="0.109556778032101" flag="0"/>
			<vel value="0.0394917913877966" flag="0"/>
			<psa03 value="0.345820804764504" flag="0"/>
			<psa10 value="0.013025505375796" flag="0"/>
			<psa30 value="0.00275230836858884" flag="0"/>
		</comp>
		<comp name="00.HNN" depth="0.0">
			<acc value="0.0911428431997373" flag="0"/>
			<vel value="0.0323288860386302" flag="0"/>
			<psa03 value="0.183758881457349" flag="0"/>
			<psa10 value="0.0141735454903154" flag="0"/>
			<psa30 value="0.00163713772317277" flag="0"/>
		</comp>
		<comp name="00.HNZ" depth="0.0">
			<acc value="0.114169104822253" flag="0"/>
			<vel value="0.0244366274039623" flag="0"/>
			<psa03 value="0.102020737539726" flag="0"/>
			<psa10 value="0.00718572914430198" flag="0"/>
			<psa30 value="0.00115167295934603" flag="0"/>
		</comp>
	</station>
	<station code="NISR" name="NISR" netid="HL" source="National Observatory of Athens Seismic Network" insttype="" lat="36.6106" lon="27.131">
		<comp name="--.HNE" depth="0.0">
			<acc value="0.968897994681416" flag="0"/>
			<vel value="0.31586269254813" flag="0"/>
			<psa03 value="1.33140986603639" flag="0"/>
			<psa10 value="0.0860520755278657" flag="0"/>
			<psa30 value="0.00797085636343341" flag="0"/>
		</comp>
		<comp name="--.HNN" depth="0.0">
			<acc value="0.762141369678187" flag="0"/>
			<vel value="0.181732294489321" flag="0"/>
			<psa03 value="0.546669089142137" flag="0"/>
			<psa10 value="0.0670064688499108" flag="0"/>
			<psa30 value="0.00612527743623795" flag="0"/>
		</comp>
		<comp name="--.HNZ" depth="0.0">
			<acc value="0.243858718102838" flag="0"/>
			<vel value="0.0918420165066244" flag="0"/>
			<psa03 value="0.299998206742097" flag="0"/>
			<psa10 value="0.047978012057916" flag="0"/>
			<psa30 value="0.00333354291418929" flag="0"/>
		</comp>
	</station>
</stationlist>
