<?xml version="1.0" encoding="UTF-8" standalone="yes"?>
<!DOCTYPE earthquake SYSTEM "stationlist.dtd">
<stationlist created="" xmlns="ch.ethz.sed.shakemap.usgs.xml">
  <station code="KARP" name="KARP" netid="GE" insttype="STS-2/N" lat="35.5471" lon="27.1611">
    <comp name="--.HHZ">
      <acc value="0.0331304047" flag="0"/>
      <vel value="0.0105630563" flag="0"/>
      <psa03 value="0.0364178753" flag="0"/>
      <psa10 value="0.0053646875" flag="0"/>
      <psa30 value="0.0006308990" flag="0"/>
    </comp>
    <comp name="--.HHN">
      <acc value="0.0313852880" flag="0"/>
      <vel value="0.0116640880" flag="0"/>
      <psa03 value="0.0386244779" flag="0"/>
      <psa10 value="0.0157955372" flag="0"/>
      <psa30 value="0.0009762064" flag="0"/>
    </comp>
    <comp name="--.HHE">
      <acc value="0.0369640319" flag="0"/>
      <vel value="0.0100223351" flag="0"/>
      <psa03 value="0.0400088223" flag="0"/>
      <psa10 value="0.0078914956" flag="0"/>
      <psa30 value="0.0004601485" flag="0"/>
    </comp>
  </station>
  <station code="ARG" name="ARG" netid="HL" insttype="LE3D20_DR24" lat="36.2136" lon="28.1212">
    <comp name="--.HHN">
      <acc value="0.0273941421" flag="0"/>
      <vel value="0.0121909325" flag="0"/>
      <psa03 value="0.1168556720" flag="0"/>
      <psa10 value="0.0083313564" flag="0"/>
      <psa30 value="0.0014567534" flag="0"/>
    </comp>
    <comp name="--.HHZ">
      <acc value="0.0171354909" flag="0"/>
      <vel value="0.0101980169" flag="0"/>
      <psa03 value="0.0516489922" flag="0"/>
      <psa10 value="0.0103686782" flag="0"/>
      <psa30 value="0.0019783034" flag="0"/>
    </comp>
    <comp name="--.HHE">
      <acc value="0.0450064353" flag="0"/>
      <vel value="0.0233648369" flag="0"/>
      <psa03 value="0.1128610359" flag="0"/>
      <psa10 value="0.0186214084" flag="0"/>
      <psa30 value="0.0038688528" flag="0"/>
    </comp>
  </station>
  <station code="KARP" name="KARP" netid="HL" insttype="120" lat="35.5471" lon="27.1611">
    <comp name="--.HHE">
      <acc value="0.0355066212" flag="0"/>
      <vel value="0.0097085695" flag="0"/>
      <psa03 value="0.0387723552" flag="0"/>
      <psa10 value="0.0078262677" flag="0"/>
      <psa30 value="0.0004563305" flag="0"/>
    </comp>
    <comp name="--.HHZ">
      <acc value="0.0317397369" flag="0"/>
      <vel value="0.0102192196" flag="0"/>
      <psa03 value="0.0355687589" flag="0"/>
      <psa10 value="0.0053339827" flag="0"/>
      <psa30 value="0.0006287516" flag="0"/>
    </comp>
    <comp name="--.HHN">
      <acc value="0.0297659323" flag="0"/>
      <vel value="0.0113883004" flag="0"/>
      <psa03 value="0.0376841762" flag="0"/>
      <psa10 value="0.0157071795" flag="0"/>
      <psa30 value="0.0009682990" flag="0"/>
    </comp>
  </station>
  <station code="KLNA" name="KLNA" netid="HL" insttype="CMG-5" lat="36.9571" lon="26.9727">
    <comp name="00.HNZ">
      <acc value="0.1154044105" flag="0"/>
      <vel value="0.0245552176" flag="0"/>
      <psa03 value="0.1018031888" flag="0"/>
      <psa10 value="0.0071665846" flag="0"/>
      <psa30 value="0.0010568497" flag="0"/>
    </comp>
    <comp name="00.HNE">
      <acc value="0.1086532295" flag="0"/>
      <vel value="0.0393802140" flag="0"/>
      <psa03 value="0.3440639052" flag="0"/>
      <psa10 value="0.0130183118" flag="0"/>
      <psa30 value="0.0025775034" flag="0"/>
    </comp>
    <comp name="00.HNN">
      <acc value="0.0907585958" flag="0"/>
      <vel value="0.0322387840" flag="0"/>
      <psa03 value="0.1837071242" flag="0"/>
      <psa10 value="0.0141731431" flag="0"/>
      <psa30 value="0.0015980678" flag="0"/>
    </comp>
  </station>
  <station code="NISR" name="NISR" netid="HL" insttype="65535" lat="36.6106" lon="27.131">
    <comp name="--.HHE">
      <acc value="1.0531905456" flag="0"/>
      <vel value="0.3343492303" flag="0"/>
      <psa03 value="1.4084635237" flag="0"/>
      <psa10 value="0.0892487974" flag="0"/>
      <psa30 value="0.0065234421" flag="0"/>
    </comp>
    <comp name="--.HHZ">
      <acc value="0.2624550550" flag="0"/>
      <vel value="0.0998818047" flag="0"/>
      <psa03 value="0.3299942610" flag="0"/>
      <psa10 value="0.0440566486" flag="0"/>
      <psa30 value="0.0027174886" flag="0"/>
    </comp>
    <comp name="--.HHN">
      <acc value="0.7345893350" flag="0"/>
      <vel value="0.1865626549" flag="0"/>
      <psa03 value="0.4978845252" flag="0"/>
      <psa10 value="0.0953688871" flag="0"/>
      <psa30 value="0.0353545329" flag="0"/>
    </comp>
  </station>
</stationlist>
