<stationlist created="1770374105">
	<station code="KRL1" name="KRL1" netid="HI" source="ITSAK Strong Motion Network" insttype="" lat="37.7951" lon="26.7065">
		<comp name="--.HNE" depth="0.0">
			<acc value="0.007459123722747" flag="0"/>
			<vel value="0.00277562643096" flag="0"/>
			<psa03 value="0.0222501067728899" flag="0"/>
			<psa10 value="0.0042971035682855" flag="0"/>
			<psa30 value="0.000512289770017163" flag="0"/>
		</comp>
		<comp name="--.HNN" depth="0.0">
			<acc value="0.005106046859574" flag="0"/>
			<vel value="0.00343359291569" flag="0"/>
			<psa03 value="0.0122750332127786" flag="0"/>
			<psa10 value="0.00460084322076485" flag="0"/>
			<psa30 value="0.00046198195820274" flag="0"/>
		</comp>
		<comp name="--.HNZ" depth="0.0">
			<acc value="0.00331281205206" flag="0"/>
			<vel value="0.00135663896381" flag="0"/>
			<psa03 value="0.00689061402144931" flag="0"/>
			<psa10 value="0.00187399574458239" flag="0"/>
			<psa30 value="0.000306247292588577" flag="0"/>
		</comp>
	</station>
	<station code="MYT1" name="MYT1" netid="HI" source="ITSAK Strong Motion Network" insttype="" lat="39.085" lon="26.5694">
		<comp name="--.HNE" depth="0.0">
			<acc value="0.010548248451306" flag="0"/>
			<vel value="0.00835237383128" flag="0"/>
			<psa03 value="0.0330172861914836" flag="0"/>
			<psa10 value="0.0145608964629419" flag="0"/>
			<psa30 value="0.00116883847147696" flag="0"/>
		</comp>
		<comp name="--.HNN" depth="0.0">
			<acc value="0.0083563837680996" flag="0"/>
			<vel value="0.00892483086556" flag="0"/>
			<psa03 value="0.0223720940206047" flag="0"/>
			<psa10 value="0.0135931373536289" flag="0"/>
			<psa30 value="0.00134155793412874" flag="0"/>
		</comp>
		<comp name="--.HNZ" depth="0.0">
			<acc value="0.0047706517843908" flag="0"/>
			<vel value="0.00401560212864" flag="0"/>
			<psa03 value="0.015019360844354" flag="0"/>
			<psa10 value="0.00427033054470481" flag="0"/>
			<psa30 value="0.00070471434011611" flag="0"/>
		</comp>
	</station>
	<station code="PLM1" name="PLM1" netid="HI" source="ITSAK Strong Motion Network" insttype="" lat="38.9751" lon="26.3688">
		<comp name="--.HNE" depth="0.0">
			<acc value="0.0073976469069564" flag="0"/>
			<vel value="0.00277877036783" flag="0"/>
			<psa03 value="0.0198642664310164" flag="0"/>
			<psa10 value="0.00224999600431904" flag="0"/>
			<psa30 value="0.000285035158221993" flag="0"/>
		</comp>
		<comp name="--.HNN" depth="0.0">
			<acc value="0.0047609989520076" flag="0"/>
			<vel value="0.00183048671652" flag="0"/>
			<psa03 value="0.0137841084420456" flag="0"/>
			<psa10 value="0.00218194938718869" flag="0"/>
			<psa30 value="0.000279946097138391" flag="0"/>
		</comp>
		<comp name="--.HNZ" depth="0.0">
			<acc value="0.00436573249698" flag="0"/>
			<vel value="0.00136141573071" flag="0"/>
			<psa03 value="0.00439778970437919" flag="0"/>
			<psa10 value="0.000887526880239564" flag="0"/>
			<psa30 value="0.000288070281159208" flag="0"/>
		</comp>
	</station>
	<station code="PRK" name="PRK" netid="HL" source="National Observatory of Athens Seismic Network" insttype="" lat="39.24565" lon="26.26499">
		<comp name="--.HNE" depth="0.0">
			<acc value="0.0079124297387418" flag="0"/>
			<vel value="0.00686036084892" flag="0"/>
			<psa03 value="0.0258596401575695" flag="0"/>
			<psa10 value="0.00780382587142698" flag="0"/>
			<psa30 value="0.000538028923026988" flag="0"/>
		</comp>
		<comp name="--.HNN" depth="0.0">
			<acc value="0.0051714314300046" flag="0"/>
			<vel value="0.00357179101946" flag="0"/>
			<psa03 value="0.017339073107654" flag="0"/>
			<psa10 value="0.00449529060343744" flag="0"/>
			<psa30 value="0.000534527857766122" flag="0"/>
		</comp>
		<comp name="--.HNZ" depth="0.0">
			<acc value="0.005585376750027" flag="0"/>
			<vel value="0.0029871256161" flag="0"/>
			<psa03 value="0.0111418578850528" flag="0"/>
			<psa10 value="0.00304816817618087" flag="0"/>
			<psa30 value="0.000321330843883045" flag="0"/>
		</comp>
	</station>
	<station code="SMG" name="SMG" netid="HL" source="National Observatory of Athens Seismic Network" insttype="" lat="37.70425" lon="26.83772">
		<comp name="00.HNE" depth="0.0">
			<acc value="0.0045993562456164" flag="0"/>
			<vel value="0.00265148198378" flag="0"/>
			<psa03 value="0.0156331436919508" flag="0"/>
			<psa10 value="0.00270619239696685" flag="0"/>
			<psa30 value="0.00050031600806281" flag="0"/>
		</comp>
		<comp name="00.HNN" depth="0.0">
			<acc value="0.0058746794945202" flag="0"/>
			<vel value="0.00286691617595" flag="0"/>
			<psa03 value="0.018552650897085" flag="0"/>
			<psa10 value="0.00290130071256022" flag="0"/>
			<psa30 value="0.00026995462796069" flag="0"/>
		</comp>
		<comp name="00.HNZ" depth="0.0">
			<acc value="0.0034816420206408" flag="0"/>
			<vel value="0.00197442650967" flag="0"/>
			<psa03 value="0.00699707224565584" flag="0"/>
			<psa10 value="0.00267602985196986" flag="0"/>
			<psa30 value="0.000412416591408425" flag="0"/>
		</comp>
	</station>
	<station code="LES3" name="LES3" netid="HT" source="Aristotle University of Thessaloniki Seismological Network" insttype="" lat="39.303248" lon="26.180664">
		<comp name="--.HNE" depth="0.0">
			<acc value="0.027596627553894" flag="0"/>
			<vel value="0.0175661799108" flag="0"/>
			<psa03 value="0.0360856326835719" flag="0"/>
			<psa10 value="0.0182365974600642" flag="0"/>
			<psa30 value="0.00756202928064861" flag="0"/>
		</comp>
		<comp name="--.HNN" depth="0.0">
			<acc value="0.030829846091202" flag="0"/>
			<vel value="0.0172750142556" flag="0"/>
			<psa03 value="0.0326640570626366" flag="0"/>
			<psa10 value="0.0201702893076772" flag="0"/>
			<psa30 value="0.00662261579910863" flag="0"/>
		</comp>
		<comp name="--.HNZ" depth="0.0">
			<acc value="0.04178750910258" flag="0"/>
			<vel value="0.0259481355124" flag="0"/>
			<psa03 value="0.0609343751450759" flag="0"/>
			<psa10 value="0.0218579967350008" flag="0"/>
			<psa30 value="0.0113569106729382" flag="0"/>
		</comp>
	</station>
	<station code="AKS" name="AKS" netid="KO" source="Bogazici University Kandilli Observatory And Earthquake Research Institute (KOERI)" insttype="" lat="38.8785" lon="27.8129">
		<comp name="--.HNE" depth="0.0">
			<acc value="0.11855468777304" flag="0"/>
			<vel value="0.0286742189129" flag="0"/>
			<psa03 value="0.152466037626728" flag="0"/>
			<psa10 value="0.0128623358166092" flag="0"/>
			<psa30 value="0.00192400599761972" flag="0"/>
		</comp>
		<comp name="--.HNN" depth="0.0">
			<acc value="0.10764246176928" flag="0"/>
			<vel value="0.027606811437" flag="0"/>
			<psa03 value="0.149250793382544" flag="0"/>
			<psa10 value="0.00891443147482164" flag="0"/>
			<psa30 value="0.00226452376358559" flag="0"/>
		</comp>
		<comp name="--.HNZ" depth="0.0">
			<acc value="0.11206861417332" flag="0"/>
			<vel value="0.0210580587124" flag="0"/>
			<psa03 value="0.0671670588628118" flag="0"/>
			<psa10 value="0.00671822739332987" flag="0"/>
			<psa30 value="0.00181945073801456" flag="0"/>
		</comp>
	</station>
	<station code="ALT" name="ALT" netid="KO" source="Bogazici University Kandilli Observatory And Earthquake Research Institute (KOERI)" insttype="" lat="39.0541" lon="30.1104">
		<comp name="--.HNE" depth="0.0">
			<acc value="0.0092326863633684" flag="0"/>
			<vel value="0.00299938111581" flag="0"/>
			<psa03 value="0.0139289565791598" flag="0"/>
			<psa10 value="0.00180095110104679" flag="0"/>
			<psa30 value="0.000396964109423886" flag="0"/>
		</comp>
		<comp name="--.HNN" depth="0.0">
			<acc value="0.016306907748894" flag="0"/>
			<vel value="0.00523007126822" flag="0"/>
			<psa03 value="0.0439848669065743" flag="0"/>
			<psa10 value="0.00213434513989176" flag="0"/>
			<psa30 value="0.000608773765773885" flag="0"/>
		</comp>
		<comp name="--.HNZ" depth="0.0">
			<acc value="0.0055081182786798" flag="0"/>
			<vel value="0.00201271156356" flag="0"/>
			<psa03 value="0.0180771493453312" flag="0"/>
			<psa10 value="0.00193172132643163" flag="0"/>
			<psa30 value="0.000455784776836701" flag="0"/>
		</comp>
	</station>
	<station code="ARMT" name="ARMT" netid="KO" source="Bogazici University Kandilli Observatory And Earthquake Research Institute (KOERI)" insttype="" lat="40.5683" lon="28.866">
		<comp name="--.HNE" depth="0.0">
			<acc value="0.026647420611666" flag="0"/>
			<vel value="0.0102534352418" flag="0"/>
			<psa03 value="0.0321259406858975" flag="0"/>
			<psa10 value="0.0107324319084233" flag="0"/>
			<psa30 value="0.000417061143879056" flag="0"/>
		</comp>
		<comp name="--.HNN" depth="0.0">
			<acc value="0.023829755235354" flag="0"/>
			<vel value="0.0137553806514" flag="0"/>
			<psa03 value="0.0454575321717497" flag="0"/>
			<psa10 value="0.012970191086513" flag="0"/>
			<psa30 value="0.00100287466469161" flag="0"/>
		</comp>
		<comp name="--.HNZ" depth="0.0">
			<acc value="0.015344575300908" flag="0"/>
			<vel value="0.00771369701657" flag="0"/>
			<psa03 value="0.0441894012892843" flag="0"/>
			<psa10 value="0.0071274268445431" flag="0"/>
			<psa30 value="0.000771989109240091" flag="0"/>
		</comp>
	</station>
	<station code="ASYA" name="ASYA" netid="KO" source="Bogazici University Kandilli Observatory And Earthquake Research Institute (KOERI)" insttype="" lat="40.8956" lon="27.465">
		<comp name="--.HNE" depth="0.0">
			<acc value="0.2573515420374" flag="0"/>
			<vel value="0.0361755758539" flag="0"/>
			<psa03 value="0.0816441428989851" flag="0"/>
			<psa10 value="0.0042112247542251" flag="0"/>
			<psa30 value="0.000567222627800791" flag="0"/>
		</comp>
		<comp name="--.HNN" depth="0.0">
			<acc value="0.40286272355634" flag="0"/>
			<vel value="0.0629544735174" flag="0"/>
			<psa03 value="0.0560737198169021" flag="0"/>
			<psa10 value="0.00908009026141192" flag="0"/>
			<psa30 value="0.000884895078288204" flag="0"/>
		</comp>
		<comp name="--.HNZ" depth="0.0">
			<acc value="0.26265767915976" flag="0"/>
			<vel value="0.0387002516715" flag="0"/>
			<psa03 value="0.173931709622035" flag="0"/>
			<psa10 value="0.00481064571290705" flag="0"/>
			<psa30 value="0.000547665030120313" flag="0"/>
		</comp>
	</station>
	<station code="BALB" name="BALB" netid="KO" source="Bogazici University Kandilli Observatory And Earthquake Research Institute (KOERI)" insttype="" lat="39.6507" lon="27.8642">
		<comp name="--.HNE" depth="0.0">
			<acc value="0.040209768958524" flag="0"/>
			<vel value="0.0106773952344" flag="0"/>
			<psa03 value="0.0772673790011076" flag="0"/>
			<psa10 value="0.0106961763816729" flag="0"/>
			<psa30 value="0.00115183265742671" flag="0"/>
		</comp>
		<comp name="--.HNN" depth="0.0">
			<acc value="0.05600218887531" flag="0"/>
			<vel value="0.0196324885945" flag="0"/>
			<psa03 value="0.0918227494730572" flag="0"/>
			<psa10 value="0.00972146243669517" flag="0"/>
			<psa30 value="0.00191327591180761" flag="0"/>
		</comp>
		<comp name="--.HNZ" depth="0.0">
			<acc value="0.033781722176034" flag="0"/>
			<vel value="0.00930217627915" flag="0"/>
			<psa03 value="0.0414742474653504" flag="0"/>
			<psa10 value="0.00369535534603142" flag="0"/>
			<psa30 value="0.000801342095396981" flag="0"/>
		</comp>
	</station>
	<station code="BASM" name="BASM" netid="KO" source="Bogazici University Kandilli Observatory And Earthquake Research Institute (KOERI)" insttype="" lat="37.9194" lon="30.035">
		<comp name="--.HNE" depth="0.0">
			<acc value="0.0064448875973154" flag="0"/>
			<vel value="0.00453507631582" flag="0"/>
			<psa03 value="0.0133120342006782" flag="0"/>
			<psa10 value="0.00681964536179136" flag="0"/>
			<psa30 value="0.000575739181561349" flag="0"/>
		</comp>
		<comp name="--.HNN" depth="0.0">
			<acc value="0.0043366092210132" flag="0"/>
			<vel value="0.0046841010042" flag="0"/>
			<psa03 value="0.0101547762197118" flag="0"/>
			<psa10 value="0.00781039161884529" flag="0"/>
			<psa30 value="0.000518723633727847" flag="0"/>
		</comp>
		<comp name="--.HNZ" depth="0.0">
			<acc value="0.002446209824775" flag="0"/>
			<vel value="0.00259214425949" flag="0"/>
			<psa03 value="0.00502913133234932" flag="0"/>
			<psa10 value="0.0040461856962071" flag="0"/>
			<psa30 value="0.000269697215075225" flag="0"/>
		</comp>
	</station>
	<station code="BIGA" name="BIGA" netid="KO" source="Bogazici University Kandilli Observatory And Earthquake Research Institute (KOERI)" insttype="" lat="40.28134" lon="27.15048">
		<comp name="--.HNE" depth="0.0">
			<acc value="0.021478709266182" flag="0"/>
			<vel value="0.00662403667123" flag="0"/>
			<psa03 value="0.0434978138083364" flag="0"/>
			<psa10 value="0.00443056694082855" flag="0"/>
			<psa30 value="0.000433003840629416" flag="0"/>
		</comp>
		<comp name="--.HNN" depth="0.0">
			<acc value="0.027315033676212" flag="0"/>
			<vel value="0.00865265795556" flag="0"/>
			<psa03 value="0.0834011082475582" flag="0"/>
			<psa10 value="0.00317454006332256" flag="0"/>
			<psa30 value="0.000551869735742754" flag="0"/>
		</comp>
		<comp name="--.HNZ" depth="0.0">
			<acc value="0.011656593677442" flag="0"/>
			<vel value="0.00335224013074" flag="0"/>
			<psa03 value="0.0170580792327913" flag="0"/>
			<psa10 value="0.00171499927434672" flag="0"/>
			<psa30 value="0.000632540600625655" flag="0"/>
		</comp>
	</station>
	<station code="BMYO" name="BMYO" netid="KO" source="Bogazici University Kandilli Observatory And Earthquake Research Institute (KOERI)" insttype="" lat="39.8098" lon="26.6009">
		<comp name="--.HNE" depth="0.0">
			<acc value="0.01255003421067" flag="0"/>
			<vel value="0.00672540553941" flag="0"/>
			<psa03 value="0.0300445267608025" flag="0"/>
			<psa10 value="0.00596827380634385" flag="0"/>
			<psa30 value="0.000931258566310832" flag="0"/>
		</comp>
		<comp name="--.HNN" depth="0.0">
			<acc value="0.017727891425934" flag="0"/>
			<vel value="0.00886950319537" flag="0"/>
			<psa03 value="0.0490065172745953" flag="0"/>
			<psa10 value="0.00459064957674855" flag="0"/>
			<psa30 value="0.00090430615584591" flag="0"/>
		</comp>
		<comp name="--.HNZ" depth="0.0">
			<acc value="0.0069044298575694" flag="0"/>
			<vel value="0.00342154299529" flag="0"/>
			<psa03 value="0.0166651183052363" flag="0"/>
			<psa10 value="0.00475800394441658" flag="0"/>
			<psa30 value="0.000554142802991418" flag="0"/>
		</comp>
	</station>
	<station code="BOTS" name="BOTS" netid="KO" source="Bogazici University Kandilli Observatory And Earthquake Research Institute (KOERI)" insttype="" lat="40.9902" lon="27.981">
		<comp name="--.HNE" depth="0.0">
			<acc value="0.01821587020764" flag="0"/>
			<vel value="0.0105308995619" flag="0"/>
			<psa03 value="0.0473027064889516" flag="0"/>
			<psa10 value="0.00617329238782241" flag="0"/>
			<psa30 value="0.000380534479374963" flag="0"/>
		</comp>
		<comp name="--.HNN" depth="0.0">
			<acc value="0.01674851012634" flag="0"/>
			<vel value="0.00867984147516" flag="0"/>
			<psa03 value="0.0378904501605533" flag="0"/>
			<psa10 value="0.00625781876851444" flag="0"/>
			<psa30 value="0.000689496300746677" flag="0"/>
		</comp>
		<comp name="--.HNZ" depth="0.0">
			<acc value="0.0040894865579298" flag="0"/>
			<vel value="0.00213683797799" flag="0"/>
			<psa03 value="0.0102978351758485" flag="0"/>
			<psa10 value="0.00152738981489235" flag="0"/>
			<psa30 value="0.000428342151606852" flag="0"/>
		</comp>
	</station>
	<station code="BRGA" name="BRGA" netid="KO" source="Bogazici University Kandilli Observatory And Earthquake Research Institute (KOERI)" insttype="" lat="40.8846" lon="29.065">
		<comp name="--.HNE" depth="0.0">
			<acc value="0.01295058191523" flag="0"/>
			<vel value="0.00622634551248" flag="0"/>
			<psa03 value="0.0224549380502971" flag="0"/>
			<psa10 value="0.00787592111613421" flag="0"/>
			<psa30 value="0.000751428424280134" flag="0"/>
		</comp>
		<comp name="--.HNN" depth="0.0">
			<acc value="0.014501648780724" flag="0"/>
			<vel value="0.00630610241449" flag="0"/>
			<psa03 value="0.0181333913523714" flag="0"/>
			<psa10 value="0.00603038588973024" flag="0"/>
			<psa30 value="0.000758197362268801" flag="0"/>
		</comp>
		<comp name="--.HNZ" depth="0.0">
			<acc value="0.0096559881634134" flag="0"/>
			<vel value="0.00323418034218" flag="0"/>
			<psa03 value="0.0117804535743242" flag="0"/>
			<psa10 value="0.0031600057411224" flag="0"/>
			<psa30 value="0.00078779770856506" flag="0"/>
		</comp>
	</station>
	<station code="BUYK" name="BUYK" netid="KO" source="Bogazici University Kandilli Observatory And Earthquake Research Institute (KOERI)" insttype="" lat="41.0168" lon="28.5828">
		<comp name="--.HNE" depth="0.0">
			<acc value="0.00922433533632" flag="0"/>
			<vel value="0.0100685761236" flag="0"/>
			<psa03 value="0.0218471738305549" flag="0"/>
			<psa10 value="0.0168788800179806" flag="0"/>
			<psa30 value="0.00136969833995909" flag="0"/>
		</comp>
		<comp name="--.HNN" depth="0.0">
			<acc value="0.017451302134086" flag="0"/>
			<vel value="0.0145830359254" flag="0"/>
			<psa03 value="0.0271155202284759" flag="0"/>
			<psa10 value="0.0251593798104231" flag="0"/>
			<psa30 value="0.00239454383511018" flag="0"/>
		</comp>
		<comp name="--.HNZ" depth="0.0">
			<acc value="0.0058951546565556" flag="0"/>
			<vel value="0.00694920995711" flag="0"/>
			<psa03 value="0.00996517251358511" flag="0"/>
			<psa10 value="0.014793044341584" flag="0"/>
			<psa30 value="0.000789904983580523" flag="0"/>
		</comp>
	</station>
	<station code="CANM" name="CANM" netid="KO" source="Bogazici University Kandilli Observatory And Earthquake Research Institute (KOERI)" insttype="" lat="40.0113" lon="27.0529">
		<comp name="--.HNE" depth="0.0">
			<acc value="0.012039895795242" flag="0"/>
			<vel value="0.00742908699833" flag="0"/>
			<psa03 value="0.0217113341026544" flag="0"/>
			<psa10 value="0.00935288333262403" flag="0"/>
			<psa30 value="0.000635950149407538" flag="0"/>
		</comp>
		<comp name="--.HNN" depth="0.0">
			<acc value="0.013849507266" flag="0"/>
			<vel value="0.00726250934505" flag="0"/>
			<psa03 value="0.0322914698805609" flag="0"/>
			<psa10 value="0.00622597025245495" flag="0"/>
			<psa30 value="0.00069823589011645" flag="0"/>
		</comp>
		<comp name="--.HNZ" depth="0.0">
			<acc value="0.01496688767835" flag="0"/>
			<vel value="0.00558757347775" flag="0"/>
			<psa03 value="0.0243504151788214" flag="0"/>
			<psa10 value="0.00347798836841086" flag="0"/>
			<psa30 value="0.000717015675854414" flag="0"/>
		</comp>
	</station>
	<station code="CESE" name="CESE" netid="KO" source="Bogazici University Kandilli Observatory And Earthquake Research Institute (KOERI)" insttype="" lat="38.3306" lon="26.2997">
		<comp name="--.HNE" depth="0.0">
			<acc value="0.040705604481786" flag="0"/>
			<vel value="0.00256797238361" flag="0"/>
			<psa03 value="0.00511237968568519" flag="0"/>
			<psa10 value="0.00153142566818356" flag="0"/>
			<psa30 value="0.000610878957314806" flag="0"/>
		</comp>
		<comp name="--.HNN" depth="0.0">
			<acc value="0.031442161086378" flag="0"/>
			<vel value="0.00265240697333" flag="0"/>
			<psa03 value="0.00729132871788621" flag="0"/>
			<psa10 value="0.00325870243554354" flag="0"/>
			<psa30 value="0.000505478902164862" flag="0"/>
		</comp>
		<comp name="--.HNZ" depth="0.0">
			<acc value="0.0064533700372062" flag="0"/>
			<vel value="0.00175533860874" flag="0"/>
			<psa03 value="0.0031841113223739" flag="0"/>
			<psa10 value="0.001405655461527" flag="0"/>
			<psa30 value="0.000531704545733009" flag="0"/>
		</comp>
	</station>
	<station code="DIDI" name="DIDI" netid="KO" source="Bogazici University Kandilli Observatory And Earthquake Research Institute (KOERI)" insttype="" lat="37.3767" lon="27.2398">
		<comp name="--.HNE" depth="0.0">
			<acc value="0.11259334963596" flag="0"/>
			<vel value="0.0114431872929" flag="0"/>
			<psa03 value="0.0505757878977383" flag="0"/>
			<psa10 value="0.0129801329950943" flag="0"/>
			<psa30 value="0.00132868676897572" flag="0"/>
		</comp>
		<comp name="--.HNN" depth="0.0">
			<acc value="0.13247944592664" flag="0"/>
			<vel value="0.0107715134099" flag="0"/>
			<psa03 value="0.0513746793622294" flag="0"/>
