<?xml version="1.0" encoding="UTF-8" standalone="yes"?>
<!DOCTYPE earthquake SYSTEM "stationlist.dtd">
<stationlist created="" xmlns="ch.ethz.sed.shakemap.usgs.xml">
  <station code="AKS" name="AKS" netid="KO" insttype="CMG-5T" commtype="DIG" lat="38.8785" lon="27.8129">
    <comp name="--.HNZ">
      <acc value="0.1148248694" flag="0"/>
      <vel value="0.0209299766" flag="0"/>
      <psa03 value="0.0658866607" flag="0"/>
      <psa10 value="0.0066367889" flag="0"/>
      <psa30 value="0.0016527892" flag="0"/>
    </comp>
    <comp name="--.HNE">
      <acc value="0.1178732448" flag="0"/>
      <vel value="0.0282043710" flag="0"/>
      <psa03 value="0.1550140700" flag="0"/>
      <psa10 value="0.0127023338" flag="0"/>
      <psa30 value="0.0017503548" flag="0"/>
    </comp>
    <comp name="--.HNN">
      <acc value="0.1081436697" flag="0"/>
      <vel value="0.0273410525" flag="0"/>
      <psa03 value="0.1488706502" flag="0"/>
      <psa10 value="0.0088301324" flag="0"/>
      <psa30 value="0.0019861860" flag="0"/>
    </comp>
  </station>
  <station code="BALB" name="BALB" netid="KO" insttype="CMG-5T" commtype="DIG" lat="39.6507" lon="27.8642">
    <comp name="--.HNZ">
      <acc value="0.0338916960" flag="0"/>
      <vel value="0.0087665527" flag="0"/>
      <psa03 value="0.0406883840" flag="0"/>
      <psa10 value="0.0036269179" flag="0"/>
      <psa30 value="0.0006506734" flag="0"/>
    </comp>
    <comp name="--.HNN">
      <acc value="0.0561273782" flag="0"/>
      <vel value="0.0193895740" flag="0"/>
      <psa03 value="0.0909552064" flag="0"/>
      <psa10 value="0.0097470309" flag="0"/>
      <psa30 value="0.0017573397" flag="0"/>
    </comp>
    <comp name="--.HNE">
      <acc value="0.0409242556" flag="0"/>
      <vel value="0.0106597196" flag="0"/>
      <psa03 value="0.0769175952" flag="0"/>
      <psa10 value="0.0106437604" flag="0"/>
      <psa30 value="0.0010265149" flag="0"/>
    </comp>
  </station>
  <station code="DST" name="DST" netid="KO" insttype="CMG-5T" commtype="DIG" lat="39.6041" lon="28.6267">
    <comp name="--.HNZ">
      <acc value="0.0551244113" flag="0"/>
      <vel value="0.0190030516" flag="0"/>
      <psa03 value="0.0571289835" flag="0"/>
      <psa10 value="0.0059833562" flag="0"/>
      <psa30 value="0.0009164271" flag="0"/>
    </comp>
    <comp name="--.HNN">
      <acc value="0.0563200842" flag="0"/>
      <vel value="0.0206640005" flag="0"/>
      <psa03 value="0.0616086261" flag="0"/>
      <psa10 value="0.0114299160" flag="0"/>
      <psa30 value="0.0015931866" flag="0"/>
    </comp>
    <comp name="--.HNE">
      <acc value="0.0519454822" flag="0"/>
      <vel value="0.0159185116" flag="0"/>
      <psa03 value="0.0745801456" flag="0"/>
      <psa10 value="0.0145561167" flag="0"/>
      <psa30 value="0.0010399559" flag="0"/>
    </comp>
  </station>
  <station code="GEDZ" name="GEDZ" netid="KO" insttype="CMG-6T" commtype="DIG" lat="39.0445" lon="29.4105">
    <comp name="--.HHE">
      <acc value="0.1037035585" flag="0"/>
      <vel value="0.0386364231" flag="0"/>
      <psa03 value="0.2607080532" flag="0"/>
      <psa10 value="0.0515036039" flag="0"/>
      <psa30 value="0.0024202562" flag="0"/>
    </comp>
    <comp name="--.HHN">
      <acc value="0.1310564323" flag="0"/>
      <vel value="0.0627771678" flag="0"/>
      <psa03 value="0.4760348965" flag="0"/>
      <psa10 value="0.0430723620" flag="0"/>
      <psa30 value="0.0016925498" flag="0"/>
    </comp>
    <comp name="--.HHZ">
      <acc value="0.0528105923" flag="0"/>
      <vel value="0.0179562034" flag="0"/>
      <psa03 value="0.0620973065" flag="0"/>
      <psa10 value="0.0174404918" flag="0"/>
      <psa30 value="0.0007069598" flag="0"/>
    </comp>
  </station>
  <station code="GOMA" name="GOMA" netid="KO" insttype="CMG-5T" commtype="DIG" lat="38.7077" lon="27.9175">
    <comp name="--.HNE">
      <acc value="0.0789809439" flag="0"/>
      <vel value="0.0305065120" flag="0"/>
      <psa03 value="0.2486876001" flag="0"/>
      <psa10 value="0.0133735874" flag="0"/>
      <psa30 value="0.0012005736" flag="0"/>
    </comp>
    <comp name="--.HNZ">
      <acc value="0.1530835496" flag="0"/>
      <vel value="0.0308167563" flag="0"/>
      <psa03 value="0.0765625058" flag="0"/>
      <psa10 value="0.0054356909" flag="0"/>
      <psa30 value="0.0012407284" flag="0"/>
    </comp>
    <comp name="--.HNN">
      <acc value="0.0800764392" flag="0"/>
      <vel value="0.0321600562" flag="0"/>
      <psa03 value="0.2092048047" flag="0"/>
      <psa10 value="0.0086050294" flag="0"/>
      <psa30 value="0.0011874850" flag="0"/>
    </comp>
  </station>
  <station code="GONE" name="GONE" netid="KO" insttype="CMG-5T" commtype="DIG" lat="40.0466" lon="27.686">
    <comp name="--.HNE">
      <acc value="0.0336845990" flag="0"/>
      <vel value="0.0130815900" flag="0"/>
      <psa03 value="0.0588039936" flag="0"/>
      <psa10 value="0.0099970306" flag="0"/>
      <psa30 value="0.0007701771" flag="0"/>
    </comp>
    <comp name="--.HNN">
      <acc value="0.0405467728" flag="0"/>
      <vel value="0.0147819621" flag="0"/>
      <psa03 value="0.0927397087" flag="0"/>
      <psa10 value="0.0143042070" flag="0"/>
      <psa30 value="0.0009939874" flag="0"/>
    </comp>
    <comp name="--.HNZ">
      <acc value="0.0242023816" flag="0"/>
      <vel value="0.0063168163" flag="0"/>
      <psa03 value="0.0257880493" flag="0"/>
      <psa10 value="0.0050978029" flag="0"/>
      <psa30 value="0.0006321700" flag="0"/>
    </comp>
  </station>
  <station code="GORD" name="GORD" netid="KO" insttype="CMG-5T" commtype="DIG" lat="38.9088" lon="28.1769">
    <comp name="--.HNE">
      <acc value="0.0981131910" flag="0"/>
      <vel value="0.0348901831" flag="0"/>
      <psa03 value="0.1651467415" flag="0"/>
      <psa10 value="0.0356795699" flag="0"/>
      <psa30 value="0.0032686793" flag="0"/>
    </comp>
    <comp name="--.HNN">
      <acc value="0.0946801785" flag="0"/>
      <vel value="0.0426404310" flag="0"/>
      <psa03 value="0.1847635064" flag="0"/>
      <psa10 value="0.0450916758" flag="0"/>
      <psa30 value="0.0035987723" flag="0"/>
    </comp>
    <comp name="--.HNZ">
      <acc value="0.1345882457" flag="0"/>
      <vel value="0.0346915025" flag="0"/>
      <psa03 value="0.1214458731" flag="0"/>
      <psa10 value="0.0407098106" flag="0"/>
      <psa30 value="0.0049003431" flag="0"/>
    </comp>
  </station>
  <station code="KULA" name="KULA" netid="KO" insttype="CMG-3T" commtype="DIG" lat="38.5145" lon="28.6607">
    <comp name="--.HHE">
      <acc value="0.1058303007" flag="0"/>
      <vel value="0.0320962227" flag="0"/>
      <psa03 value="0.1083060999" flag="0"/>
      <psa10 value="0.0151382674" flag="0"/>
      <psa30 value="0.0012501658" flag="0"/>
    </comp>
    <comp name="--.HHN">
      <acc value="0.0905060513" flag="0"/>
      <vel value="0.0188045351" flag="0"/>
      <psa03 value="0.0851438133" flag="0"/>
      <psa10 value="0.0063208107" flag="0"/>
      <psa30 value="0.0008467217" flag="0"/>
    </comp>
    <comp name="--.HHZ">
      <acc value="0.0683979105" flag="0"/>
      <vel value="0.0141803878" flag="0"/>
      <psa03 value="0.0692653865" flag="0"/>
      <psa10 value="0.0063268047" flag="0"/>
      <psa30 value="0.0008468798" flag="0"/>
    </comp>
  </station>
  <station code="ODEM" name="ODEM" netid="KO" insttype="CMG-5T" commtype="DIG" lat="38.2762" lon="28.0747">
    <comp name="--.HNE">
      <acc value="0.0404289710" flag="0"/>
      <vel value="0.0074510271" flag="0"/>
      <psa03 value="0.0294925432" flag="0"/>
      <psa10 value="0.0111576789" flag="0"/>
      <psa30 value="0.0007176528" flag="0"/>
    </comp>
    <comp name="--.HNN">
      <acc value="0.0406639282" flag="0"/>
      <vel value="0.0100175427" flag="0"/>
      <psa03 value="0.0485557779" flag="0"/>
      <psa10 value="0.0101479750" flag="0"/>
      <psa30 value="0.0007903971" flag="0"/>
    </comp>
    <comp name="--.HNZ">
      <acc value="0.0554151127" flag="0"/>
      <vel value="0.0089930033" flag="0"/>
      <psa03 value="0.0232647196" flag="0"/>
      <psa10 value="0.0122142323" flag="0"/>
      <psa30 value="0.0007861388" flag="0"/>
    </comp>
  </station>
  <station code="ORLT" name="ORLT" netid="KO" insttype="CMG-5T" commtype="DIG" lat="40.0452" lon="28.8914">
    <comp name="--.HNE">
      <acc value="0.0606127736" flag="0"/>
      <vel value="0.0197762126" flag="0"/>
      <psa03 value="0.1060625825" flag="0"/>
      <psa10 value="0.0214647706" flag="0"/>
      <psa30 value="0.0011189139" flag="0"/>
    </comp>
    <comp name="--.HNZ">
      <acc value="0.0310406886" flag="0"/>
      <vel value="0.0090765641" flag="0"/>
      <psa03 value="0.0468855706" flag="0"/>
      <psa10 value="0.0125116033" flag="0"/>
      <psa30 value="0.0007618447" flag="0"/>
    </comp>
    <comp name="--.HNN">
      <acc value="0.0945855624" flag="0"/>
      <vel value="0.0353241184" flag="0"/>
      <psa03 value="0.2017255137" flag="0"/>
      <psa10 value="0.0265235922" flag="0"/>
      <psa30 value="0.0014420793" flag="0"/>
    </comp>
  </station>
  <station code="SHAP" name="SHAP" netid="KO" insttype="CMG-5T" commtype="DIG" lat="39.0231" lon="29.222">
    <comp name="--.HNE">
      <acc value="0.1999198421" flag="0"/>
      <vel value="0.0580507761" flag="0"/>
      <psa03 value="0.1790455088" flag="0"/>
      <psa10 value="0.0152756667" flag="0"/>
      <psa30 value="0.0010038816" flag="0"/>
    </comp>
    <comp name="--.HNN">
      <acc value="0.1777061076" flag="0"/>
      <vel value="0.0417632065" flag="0"/>
      <psa03 value="0.2928478082" flag="0"/>
      <psa10 value="0.0124103892" flag="0"/>
      <psa30 value="0.0008713939" flag="0"/>
    </comp>
    <comp name="--.HNZ">
      <acc value="0.0950967767" flag="0"/>
      <vel value="0.0241459291" flag="0"/>
      <psa03 value="0.1000512837" flag="0"/>
      <psa10 value="0.0058936245" flag="0"/>
      <psa30 value="0.0004893376" flag="0"/>
    </comp>
  </station>
  <station code="SIMA" name="SIMA" netid="KO" insttype="CMG-6T" commtype="DIG" lat="39.0833" lon="28.9825">
    <comp name="--.HHE">
      <acc value="0.2572249503" flag="0"/>
      <vel value="0.0524936694" flag="0"/>
      <psa03 value="0.3731755633" flag="0"/>
      <psa10 value="0.0084475409" flag="0"/>
      <psa30 value="0.0013169461" flag="0"/>
    </comp>
    <comp name="--.HHN">
      <acc value="0.1945357684" flag="0"/>
      <vel value="0.0609944614" flag="0"/>
      <psa03 value="0.4643171843" flag="0"/>
      <psa10 value="0.0108585202" flag="0"/>
      <psa30 value="0.0014231212" flag="0"/>
    </comp>
    <comp name="--.HHZ">
      <acc value="0.1644297953" flag="0"/>
      <vel value="0.0267092174" flag="0"/>
      <psa03 value="0.1579648936" flag="0"/>
      <psa10 value="0.0065554376" flag="0"/>
      <psa30 value="0.0005559181" flag="0"/>
    </comp>
  </station>
  <station code="SMAA" name="SMAA" netid="KO" insttype="CMG-5T" commtype="DIG" lat="39.1005" lon="28.9805">
    <comp name="--.HNN">
      <acc value="0.1284517969" flag="0"/>
      <vel value="0.0407435228" flag="0"/>
      <psa03 value="0.3243346381" flag="0"/>
      <psa10 value="0.0408670421" flag="0"/>
      <psa30 value="0.0030242667" flag="0"/>
    </comp>
    <comp name="--.HNE">
      <acc value="0.1408483368" flag="0"/>
      <vel value="0.0452066993" flag="0"/>
      <psa03 value="0.3522794532" flag="0"/>
      <psa10 value="0.0497287959" flag="0"/>
      <psa30 value="0.0038420249" flag="0"/>
    </comp>
    <comp name="--.HNZ">
      <acc value="0.0624638471" flag="0"/>
      <vel value="0.0147031917" flag="0"/>
      <psa03 value="0.0678160992" flag="0"/>
      <psa10 value="0.0292603557" flag="0"/>
      <psa30 value="0.0012925230" flag="0"/>
    </comp>
  </station>
  <station code="SOMA" name="SOMA" netid="KO" insttype="CMG-5T" commtype="DIG" lat="39.1564" lon="27.5341">
    <comp name="--.HNE">
      <acc value="0.0594107532" flag="0"/>
      <vel value="0.0143562077" flag="0"/>
      <psa03 value="0.0813548045" flag="0"/>
      <psa10 value="0.0062854772" flag="0"/>
      <psa30 value="0.0009873107" flag="0"/>
    </comp>
    <comp name="--.HNN">
      <acc value="0.0602287340" flag="0"/>
      <vel value="0.0176694292" flag="0"/>
      <psa03 value="0.1071991168" flag="0"/>
      <psa10 value="0.0083917056" flag="0"/>
      <psa30 value="0.0007491846" flag="0"/>
    </comp>
    <comp name="--.HNZ">
      <acc value="0.0596410173" flag="0"/>
      <vel value="0.0139893070" flag="0"/>
      <psa03 value="0.0336566571" flag="0"/>
      <psa10 value="0.0051516620" flag="0"/>
      <psa30 value="0.0010412107" flag="0"/>
    </comp>
  </station>
  <station code="SUSR" name="SUSR" netid="KO" insttype="CMG-5T" commtype="DIG" lat="39.9627" lon="28.0835">
    <comp name="--.HNN">
      <acc value="0.0520324456" flag="0"/>
      <vel value="0.0143228171" flag="0"/>
      <psa03 value="0.0484243033" flag="0"/>
      <psa10 value="0.0029712046" flag="0"/>
      <psa30 value="0.0006680205" flag="0"/>
    </comp>
    <comp name="--.HNZ">
      <acc value="0.0485861818" flag="0"/>
      <vel value="0.0121396237" flag="0"/>
      <psa03 value="0.0443151730" flag="0"/>
      <psa10 value="0.0023103447" flag="0"/>
      <psa30 value="0.0009163996" flag="0"/>
    </comp>
    <comp name="--.HNE">
      <acc value="0.0438739507" flag="0"/>
      <vel value="0.0118499289" flag="0"/>
      <psa03 value="0.0921083190" flag="0"/>
      <psa10 value="0.0032457318" flag="0"/>
      <psa30 value="0.0006248502" flag="0"/>
    </comp>
  </station>
  <station code="TVSB" name="TVSB" netid="KO" insttype="CMG-3T" commtype="DIG" lat="39.4497" lon="29.4615">
    <comp name="--.HHN">
      <acc value="0.0757711683" flag="0"/>
      <vel value="0.0322287346" flag="0"/>
      <psa03 value="0.2070596989" flag="0"/>
      <psa10 value="0.0139605370" flag="0"/>
      <psa30 value="0.0009721109" flag="0"/>
    </comp>
    <comp name="--.HHE">
      <acc value="0.0499713919" flag="0"/>
      <vel value="0.0249153182" flag="0"/>
      <psa03 value="0.1464931064" flag="0"/>
      <psa10 value="0.0110409902" flag="0"/>
      <psa30 value="0.0009408895" flag="0"/>
    </comp>
    <comp name="--.HHZ">
      <acc value="0.0309408242" flag="0"/>
      <vel value="0.0119825273" flag="0"/>
      <psa03 value="0.0777829621" flag="0"/>
      <psa10 value="0.0053409804" flag="0"/>
      <psa30 value="0.0008882571" flag="0"/>
    </comp>
  </station>
  <station code="YAYO" name="YAYO" netid="KO" insttype="CMG-6T" commtype="DIG" lat="39.6113" lon="27.0726">
    <comp name="--.HHE">
      <acc value="0.0181927096" flag="0"/>
      <vel value="0.0142991473" flag="0"/>
      <psa03 value="0.0513513900" flag="0"/>
      <psa10 value="0.0103573099" flag="0"/>
      <psa30 value="0.0006715747" flag="0"/>
    </comp>
    <comp name="--.HHZ">
      <acc value="0.0124642452" flag="0"/>
      <vel value="0.0058495603" flag="0"/>
      <psa03 value="0.0413763614" flag="0"/>
      <psa10 value="0.0038689640" flag="0"/>
      <psa30 value="0.0003185830" flag="0"/>
    </comp>
    <comp name="--.HHN">
      <acc value="0.0229254619" flag="0"/>
      <vel value="0.0117816764" flag="0"/>
      <psa03 value="0.0853813402" flag="0"/>
      <psa10 value="0.0043776675" flag="0"/>
      <psa30 value="0.0006461437" flag="0"/>
    </comp>
  </station>
</stationlist>
