<stationlist created="1778070008">
	<station code="MALA" name="MALA" netid="CL" source="Corinth Riff Laboratory (CRLNET)" insttype="" lat="38.39341" lon="21.87263">
		<comp name="01.HNE" depth="0.0">
			<acc value="0.159664627322828" flag="0"/>
			<vel value="0.144399957826969" flag="0"/>
			<psa03 value="0.429883121188355" flag="0"/>
			<psa10 value="0.342575863725857" flag="0"/>
			<psa30 value="0.0627339427436112" flag="0"/>
		</comp>
		<comp name="01.HNN" depth="0.0">
			<acc value="0.107961785644716" flag="0"/>
			<vel value="0.170547693293707" flag="0"/>
			<psa03 value="0.291048054051858" flag="0"/>
			<psa10 value="0.286438264503977" flag="0"/>
			<psa30 value="0.0314774846221527" flag="0"/>
		</comp>
		<comp name="01.HNZ" depth="0.0">
			<acc value="0.0552322531792722" flag="0"/>
			<vel value="0.0994341585852326" flag="0"/>
			<psa03 value="0.114226853496448" flag="0"/>
			<psa10 value="0.128265615667063" flag="0"/>
			<psa30 value="0.0359024888566998" flag="0"/>
		</comp>
	</station>
	<station code="ROD3" name="ROD3" netid="CL" source="Corinth Riff Laboratory (CRLNET)" insttype="" lat="38.30811" lon="21.89204">
		<comp name="00.HNE" depth="0.0">
			<acc value="0.0768225898011161" flag="0"/>
			<vel value="0.0615930026818277" flag="0"/>
			<psa03 value="0.302278347913044" flag="0"/>
			<psa10 value="0.0571402720721949" flag="0"/>
			<psa30 value="0.00989071219503515" flag="0"/>
		</comp>
		<comp name="00.HNN" depth="0.0">
			<acc value="0.0792907665561059" flag="0"/>
			<vel value="0.0585143912413755" flag="0"/>
			<psa03 value="0.277893845306086" flag="0"/>
			<psa10 value="0.0660717113573343" flag="0"/>
			<psa30 value="0.0134454805108568" flag="0"/>
		</comp>
		<comp name="00.HNZ" depth="0.0">
			<acc value="0.0296476771387584" flag="0"/>
			<vel value="0.0265048474115658" flag="0"/>
			<psa03 value="0.0678739274399183" flag="0"/>
			<psa10 value="0.0380935147147966" flag="0"/>
			<psa30 value="0.0127103660561186" flag="0"/>
		</comp>
	</station>
	<station code="MMAA" name="MMAA" netid="EG" source="EUROSEISTEST Strong Motion Network" insttype="" lat="40.630855" lon="22.943725">
		<comp name="--.EN1" depth="0.0">
			<acc value="0.169969568164615" flag="0"/>
			<vel value="0.145721643662935" flag="0"/>
			<psa03 value="0.444450400990976" flag="0"/>
			<psa10 value="0.315850483544557" flag="0"/>
			<psa30 value="0.0162704128350189" flag="0"/>
		</comp>
		<comp name="--.EN2" depth="0.0">
			<acc value="0.217033916778368" flag="0"/>
			<vel value="0.164698751399169" flag="0"/>
			<psa03 value="0.609595216025399" flag="0"/>
			<psa10 value="0.269889688867242" flag="0"/>
			<psa30 value="0.0189076275375083" flag="0"/>
		</comp>
		<comp name="--.EN3" depth="0.0">
			<acc value="0.0847757609842731" flag="0"/>
			<vel value="0.059944590646055" flag="0"/>
			<psa03 value="0.253680263405751" flag="0"/>
			<psa10 value="0.0763606310169778" flag="0"/>
			<psa30 value="0.0116811363179705" flag="0"/>
		</comp>
	</station>
	<station code="PRR" name="PRR" netid="EG" source="EUROSEISTEST Strong Motion Network" insttype="" lat="40.682635" lon="23.300668">
		<comp name="--.EN1" depth="0.0">
			<acc value="0.0146104189884287" flag="0"/>
			<vel value="0.0141480152033569" flag="0"/>
			<psa03 value="0.0519686614187272" flag="0"/>
			<psa10 value="0.0200981682800228" flag="0"/>
			<psa30 value="0.00167143030738706" flag="0"/>
		</comp>
		<comp name="--.EN2" depth="0.0">
			<acc value="0.0495977623385299" flag="0"/>
			<vel value="0.0358580578598017" flag="0"/>
			<psa03 value="0.128333563968578" flag="0"/>
			<psa10 value="0.0551799328996133" flag="0"/>
			<psa30 value="0.00710816421434292" flag="0"/>
		</comp>
		<comp name="--.EN3" depth="0.0">
			<acc value="0.028643565330687" flag="0"/>
			<vel value="0.0218176081202642" flag="0"/>
			<psa03 value="0.0564727931288899" flag="0"/>
			<psa10 value="0.0206733776348117" flag="0"/>
			<psa30 value="0.0105976728771506" flag="0"/>
		</comp>
	</station>
	<station code="STC" name="STC" netid="EG" source="EUROSEISTEST Strong Motion Network" insttype="" lat="40.64865" lon="23.304856">
		<comp name="--.EN1" depth="0.0">
			<acc value="0.255543373498604" flag="0"/>
			<vel value="0.174168796450366" flag="0"/>
			<psa03 value="0.729450155827006" flag="0"/>
			<psa10 value="0.154943179225356" flag="0"/>
			<psa30 value="0.00922884636579858" flag="0"/>
		</comp>
		<comp name="--.EN2" depth="0.0">
			<acc value="0.188148605605061" flag="0"/>
			<vel value="0.125944089621367" flag="0"/>
			<psa03 value="0.651571913443122" flag="0"/>
			<psa10 value="0.150474308184434" flag="0"/>
			<psa30 value="0.0168057716332344" flag="0"/>
		</comp>
		<comp name="--.EN3" depth="0.0">
			<acc value="0.122661916263002" flag="0"/>
			<vel value="0.110264384825252" flag="0"/>
			<psa03 value="0.328916393263423" flag="0"/>
			<psa10 value="0.0841089743069268" flag="0"/>
			<psa30 value="0.016117819393085" flag="0"/>
		</comp>
	</station>
	<station code="TST" name="TST" netid="EG" source="EUROSEISTEST Strong Motion Network" insttype="" lat="40.6638" lon="23.2906">
		<comp name="00.EN1" depth="0.0">
			<acc value="0.144032085355692" flag="0"/>
			<vel value="0.102782744761884" flag="0"/>
			<psa03 value="0.24868499499378" flag="0"/>
			<psa10 value="0.132821663783255" flag="0"/>
			<psa30 value="0.0107834868530979" flag="0"/>
		</comp>
		<comp name="00.EN2" depth="0.0">
			<acc value="0.0640414113574857" flag="0"/>
			<vel value="0.0505955222407082" flag="0"/>
			<psa03 value="0.171737032985559" flag="0"/>
			<psa10 value="0.074203225599453" flag="0"/>
			<psa30 value="0.0115616867383282" flag="0"/>
		</comp>
		<comp name="00.EN3" depth="0.0">
			<acc value="0.200428962470478" flag="0"/>
			<vel value="0.113506260904094" flag="0"/>
			<psa03 value="0.443045016224647" flag="0"/>
			<psa10 value="0.174556093484625" flag="0"/>
			<psa30 value="0.0106211335979767" flag="0"/>
		</comp>
	</station>
	<station code="AIGS" name="AIGS" netid="HA" source="Hellenic Seismological Network, University of Athens, Seismological Laboratory (HA)" insttype="" lat="38.25001" lon="22.0878">
		<comp name="--.HNE" depth="0.0">
			<acc value="0.0602260034077155" flag="0"/>
			<vel value="0.0462219568227746" flag="0"/>
			<psa03 value="0.185411704226118" flag="0"/>
			<psa10 value="0.0427605742871485" flag="0"/>
			<psa30 value="0.019229752982467" flag="0"/>
		</comp>
		<comp name="--.HNN" depth="0.0">
			<acc value="0.0503268036930957" flag="0"/>
			<vel value="0.0542291017464051" flag="0"/>
			<psa03 value="0.129976110226079" flag="0"/>
			<psa10 value="0.031497618615131" flag="0"/>
			<psa30 value="0.0308859926506592" flag="0"/>
		</comp>
		<comp name="--.HNZ" depth="0.0">
			<acc value="0.0230384430384404" flag="0"/>
			<vel value="0.0342099995923039" flag="0"/>
			<psa03 value="0.054988171933856" flag="0"/>
			<psa10 value="0.0335432323017183" flag="0"/>
			<psa30 value="0.0167112141719245" flag="0"/>
		</comp>
	</station>
	<station code="KIAS" name="KIAS" netid="HA" source="Hellenic Seismological Network, University of Athens, Seismological Laboratory (HA)" insttype="" lat="37.9875" lon="22.7543">
		<comp name="--.HNE" depth="0.0">
			<acc value="0.029375503333986" flag="0"/>
			<vel value="0.0502789311722193" flag="0"/>
			<psa03 value="0.0991934720727085" flag="0"/>
			<psa10 value="0.0538020560364056" flag="0"/>
			<psa30 value="0.0143515101948768" flag="0"/>
		</comp>
		<comp name="--.HNN" depth="0.0">
			<acc value="0.023330547132219" flag="0"/>
			<vel value="0.0480699768440732" flag="0"/>
			<psa03 value="0.0837574107894047" flag="0"/>
			<psa10 value="0.0535644749192626" flag="0"/>
			<psa30 value="0.0181541503353638" flag="0"/>
		</comp>
		<comp name="--.HNZ" depth="0.0">
			<acc value="0.0146299432779871" flag="0"/>
			<vel value="0.0293686444381231" flag="0"/>
			<psa03 value="0.0418339631880841" flag="0"/>
			<psa10 value="0.0399861100547495" flag="0"/>
			<psa30 value="0.0176516953550406" flag="0"/>
		</comp>
	</station>
	<station code="XLKS" name="XLKS" netid="HA" source="Hellenic Seismological Network, University of Athens, Seismological Laboratory (HA)" insttype="" lat="38.0772" lon="22.6361">
		<comp name="--.HNE" depth="0.0">
			<acc value="0.0628690220012154" flag="0"/>
			<vel value="0.0924947977994472" flag="0"/>
			<psa03 value="0.129260234920187" flag="0"/>
			<psa10 value="0.153880081533957" flag="0"/>
			<psa30 value="0.0405252536444996" flag="0"/>
		</comp>
		<comp name="--.HNN" depth="0.0">
			<acc value="0.0665637351630537" flag="0"/>
			<vel value="0.0729590551158604" flag="0"/>
			<psa03 value="0.22679824534802" flag="0"/>
			<psa10 value="0.081466162388483" flag="0"/>
			<psa30 value="0.0254265485990977" flag="0"/>
		</comp>
		<comp name="--.HNZ" depth="0.0">
			<acc value="0.0295430892485772" flag="0"/>
			<vel value="0.039593801760363" flag="0"/>
			<psa03 value="0.100401511651402" flag="0"/>
			<psa10 value="0.0461229511145116" flag="0"/>
			<psa30 value="0.0160476872477755" flag="0"/>
		</comp>
	</station>
	<station code="ART2" name="ART2" netid="HI" source="ITSAK Strong Motion Network" insttype="" lat="39.1474" lon="20.9937">
		<comp name="--.HNE" depth="0.0">
			<acc value="0.0289887834053105" flag="0"/>
			<vel value="0.0204701079993352" flag="0"/>
			<psa03 value="0.0772808538521925" flag="0"/>
			<psa10 value="0.02785802670753" flag="0"/>
			<psa30 value="0.00614439828624209" flag="0"/>
		</comp>
		<comp name="--.HNN" depth="0.0">
			<acc value="0.024639642374832" flag="0"/>
			<vel value="0.0200368957353878" flag="0"/>
			<psa03 value="0.0654607999983846" flag="0"/>
			<psa10 value="0.021614041199144" flag="0"/>
			<psa30 value="0.00540300083895239" flag="0"/>
		</comp>
		<comp name="--.HNZ" depth="0.0">
			<acc value="0.0168384880877352" flag="0"/>
			<vel value="0.0158714114714073" flag="0"/>
			<psa03 value="0.0459159219129377" flag="0"/>
			<psa10 value="0.0176348832244816" flag="0"/>
			<psa30 value="0.0046227920706131" flag="0"/>
		</comp>
	</station>
	<station code="DRA2" name="DRA2" netid="HI" source="ITSAK Strong Motion Network" insttype="" lat="41.1593" lon="24.1485">
		<comp name="--.HNE" depth="0.0">
			<acc value="0.0326588177507245" flag="0"/>
			<vel value="0.0198128689195179" flag="0"/>
			<psa03 value="0.0896893998158948" flag="0"/>
			<psa10 value="0.0183820827227556" flag="0"/>
			<psa30 value="0.00778239221195837" flag="0"/>
		</comp>
		<comp name="--.HNN" depth="0.0">
			<acc value="0.0257165366830686" flag="0"/>
			<vel value="0.0253783472764527" flag="0"/>
			<psa03 value="0.0796099456432343" flag="0"/>
			<psa10 value="0.0250025556716044" flag="0"/>
			<psa30 value="0.00723755778600522" flag="0"/>
		</comp>
		<comp name="--.HNZ" depth="0.0">
			<acc value="0.0151105232357715" flag="0"/>
			<vel value="0.0155682723140556" flag="0"/>
			<psa03 value="0.0307419557745374" flag="0"/>
			<psa10 value="0.0131762587999904" flag="0"/>
			<psa30 value="0.00574674777718541" flag="0"/>
		</comp>
	</station>
	<station code="KLV1" name="KLV1" netid="HI" source="ITSAK Strong Motion Network" insttype="" lat="38.03256" lon="22.10797">
		<comp name="--.HNE" depth="0.0">
			<acc value="0.0571569756753112" flag="0"/>
			<vel value="0.0401319117543859" flag="0"/>
			<psa03 value="0.196817975725008" flag="0"/>
			<psa10 value="0.0389993660165917" flag="0"/>
			<psa30 value="0.00985798470975851" flag="0"/>
		</comp>
		<comp name="--.HNN" depth="0.0">
			<acc value="0.0492928988044691" flag="0"/>
			<vel value="0.0298566729058278" flag="0"/>
			<psa03 value="0.225797853833022" flag="0"/>
			<psa10 value="0.0338524200566994" flag="0"/>
			<psa30 value="0.00663972984951413" flag="0"/>
		</comp>
		<comp name="--.HNZ" depth="0.0">
			<acc value="0.0188253715277481" flag="0"/>
			<vel value="0.0158755112787219" flag="0"/>
			<psa03 value="0.0937870358475356" flag="0"/>
			<psa10 value="0.0192691683628223" flag="0"/>
			<psa30 value="0.0048957414021832" flag="0"/>
		</comp>
	</station>
	<station code="LAM2" name="LAM2" netid="HI" source="ITSAK Strong Motion Network" insttype="" lat="38.90203" lon="22.431301">
		<comp name="--.HNE" depth="0.0">
			<acc value="0.234787252095997" flag="0"/>
			<vel value="0.14550797288048" flag="0"/>
			<psa03 value="0.833537717781818" flag="0"/>
			<psa10 value="0.0846853649896467" flag="0"/>
			<psa30 value="0.0201936393961849" flag="0"/>
		</comp>
		<comp name="--.HNN" depth="0.0">
			<acc value="0.25191493757135" flag="0"/>
			<vel value="0.189099998485816" flag="0"/>
			<psa03 value="0.855074311144131" flag="0"/>
			<psa10 value="0.271843628306398" flag="0"/>
			<psa30 value="0.0341734204880446" flag="0"/>
		</comp>
		<comp name="--.HNZ" depth="0.0">
			<acc value="0.106188968107727" flag="0"/>
			<vel value="0.0742401909188503" flag="0"/>
			<psa03 value="0.371419146362495" flag="0"/>
			<psa10 value="0.0560336432036988" flag="0"/>
			<psa30 value="0.0278545685617767" flag="0"/>
		</comp>
	</station>
	<station code="LMS2" name="LMS2" netid="HI" source="ITSAK Strong Motion Network" insttype="" lat="40.834985" lon="21.141815">
		<comp name="--.HNE" depth="0.0">
			<acc value="0.0402288957577938" flag="0"/>
			<vel value="0.023838993892892" flag="0"/>
			<psa03 value="0.0731140361544742" flag="0"/>
			<psa10 value="0.0459520265963898" flag="0"/>
			<psa30 value="0.00542600819639466" flag="0"/>
		</comp>
		<comp name="--.HNN" depth="0.0">
			<acc value="0.0334568444099955" flag="0"/>
			<vel value="0.0304050257132587" flag="0"/>
			<psa03 value="0.0832495877934921" flag="0"/>
			<psa10 value="0.0543534193971378" flag="0"/>
			<psa30 value="0.00854190169240207" flag="0"/>
		</comp>
		<comp name="--.HNZ" depth="0.0">
			<acc value="0.0182341617555295" flag="0"/>
			<vel value="0.0202519336566932" flag="0"/>
			<psa03 value="0.0476553340151175" flag="0"/>
			<psa10 value="0.0472845836216512" flag="0"/>
			<psa30 value="0.00618929459374468" flag="0"/>
		</comp>
	</station>
	<station code="MSL1" name="MSL1" netid="HI" source="ITSAK Strong Motion Network" insttype="" lat="38.3727" lon="21.4243">
		<comp name="--.HNE" depth="0.0">
			<acc value="0.107136396403413" flag="0"/>
			<vel value="0.21237309411935" flag="0"/>
			<psa03 value="0.1988343662116" flag="0"/>
			<psa10 value="0.190004491735484" flag="0"/>
			<psa30 value="0.0387020087248051" flag="0"/>
		</comp>
		<comp name="--.HNN" depth="0.0">
			<acc value="0.113485004477082" flag="0"/>
			<vel value="0.184801604817633" flag="0"/>
			<psa03 value="0.24670852729315" flag="0"/>
			<psa10 value="0.215945128288625" flag="0"/>
			<psa30 value="0.0531004982366311" flag="0"/>
		</comp>
		<comp name="--.HNZ" depth="0.0">
			<acc value="0.0476844101521826" flag="0"/>
			<vel value="0.0548817483685196" flag="0"/>
			<psa03 value="0.0958825487829564" flag="0"/>
			<psa10 value="0.144996963831966" flag="0"/>
			<psa30 value="0.020865528056431" flag="0"/>
		</comp>
	</station>
	<station code="SKO1" name="SKO1" netid="HI" source="ITSAK Strong Motion Network" insttype="" lat="39.123383" lon="23.728705">
		<comp name="--.HNE" depth="0.0">
			<acc value="0.0424470695496223" flag="0"/>
			<vel value="0.0370513772338024" flag="0"/>
			<psa03 value="0.102552522768011" flag="0"/>
			<psa10 value="0.0379746068813535" flag="0"/>
			<psa30 value="0.00735033192340774" flag="0"/>
		</comp>
		<comp name="--.HNN" depth="0.0">
			<acc value="0.0396725412870931" flag="0"/>
			<vel value="0.0433237312599742" flag="0"/>
			<psa03 value="0.09422019995903" flag="0"/>
			<psa10 value="0.0553721293819831" flag="0"/>
			<psa30 value="0.00654108331467615" flag="0"/>
		</comp>
		<comp name="--.HNZ" depth="0.0">
			<acc value="0.0357430206371769" flag="0"/>
			<vel value="0.0403532948274017" flag="0"/>
			<psa03 value="0.0721475137936976" flag="0"/>
			<psa10 value="0.0642363703440943" flag="0"/>
			<psa30 value="0.00635651442123053" flag="0"/>
		</comp>
	</station>
	<station code="SKY1" name="SKY1" netid="HI" source="ITSAK Strong Motion Network" insttype="" lat="38.904483" lon="24.564572">
		<comp name="--.HNE" depth="0.0">
			<acc value="0.0140753807804601" flag="0"/>
			<vel value="0.0179331898724589" flag="0"/>
			<psa03 value="0.0385422329212737" flag="0"/>
			<psa10 value="0.0281800192879827" flag="0"/>
			<psa30 value="0.0038328801594983" flag="0"/>
		</comp>
		<comp name="--.HNN" depth="0.0">
			<acc value="0.0179420049392041" flag="0"/>
			<vel value="0.0133820770220459" flag="0"/>
			<psa03 value="0.0361849882237289" flag="0"/>
			<psa10 value="0.0164553794631112" flag="0"/>
			<psa30 value="0.00219004966337561" flag="0"/>
		</comp>
		<comp name="--.HNZ" depth="0.0">
			<acc value="0.0112476073643945" flag="0"/>
			<vel value="0.0103183817910894" flag="0"/>
			<psa03 value="0.0308348655751851" flag="0"/>
			<psa10 value="0.0138267009510881" flag="0"/>
			<psa30 value="0.0033631771689798" flag="0"/>
		</comp>
	</station>
	<station code="THS1" name="THS1" netid="HI" source="ITSAK Strong Motion Network" insttype="" lat="40.738476" lon="24.575145">
		<comp name="--.HNE" depth="0.0">
			<acc value="0.0140637084057127" flag="0"/>
			<vel value="0.0114722154077302" flag="0"/>
			<psa03 value="0.033617440532117" flag="0"/>
			<psa10 value="0.0187598827501663" flag="0"/>
			<psa30 value="0.00279649983772149" flag="0"/>
		</comp>
		<comp name="--.HNN" depth="0.0">
			<acc value="0.0266976429108096" flag="0"/>
			<vel value="0.0170737771372549" flag="0"/>
			<psa03 value="0.0756635487969096" flag="0"/>
			<psa10 value="0.0208362940522041" flag="0"/>
			<psa30 value="0.00242250506240286" flag="0"/>
		</comp>
		<comp name="--.HNZ" depth="0.0">
			<acc value="0.0134511323211843" flag="0"/>
			<vel value="0.00903619403216677" flag="0"/>
			<psa03 value="0.0386304913721432" flag="0"/>
			<psa10 value="0.0137428200818752" flag="0"/>
			<psa30 value="0.00219260858289115" flag="0"/>
		</comp>
	</station>
	<station code="VAS2" name="VAS2" netid="HI" source="ITSAK Strong Motion Network" insttype="" lat="38.630558" lon="20.608081">
		<comp name="--.HNE" depth="0.0">
			<acc value="0.133212940807747" flag="0"/>
			<vel value="0.106522754033278" flag="0"/>
			<psa03 value="0.291800976215788" flag="0"/>
			<psa10 value="0.315094703477502" flag="0"/>
			<psa30 value="0.0229050490137476" flag="0"/>
		</comp>
		<comp name="--.HNN" depth="0.0">
			<acc value="0.119400195771179" flag="0"/>
			<vel value="0.170736839359221" flag="0"/>
			<psa03 value="0.31593122055949" flag="0"/>
			<psa10 value="0.412557539910827" flag="0"/>
			<psa30 value="0.0448604417842263" flag="0"/>
		</comp>
		<comp name="--.HNZ" depth="0.0">
			<acc value="0.0672282532998872" flag="0"/>
			<vel value="0.0651241018634247" flag="0"/>
			<psa03 value="0.17210681789876" flag="0"/>
			<psa10 value="0.102426702766369" flag="0"/>
			<psa30 value="0.00933193486154103" flag="0"/>
		</comp>
	</station>
	<station code="VOL2" name="VOL2" netid="HI" source="ITSAK Strong Motion Network" insttype="" lat="39.366" lon="22.9506">
		<comp name="--.HNE" depth="0.0">
			<acc value="0.29450497444056" flag="0"/>
			<vel value="0.229813166720576" flag="0"/>
			<psa03 value="0.909559420516395" flag="0"/>
			<psa10 value="0.145986730904324" flag="0"/>
			<psa30 value="0.0255174354048549" flag="0"/>
		</comp>
		<comp name="--.HNN" depth="0.0">
			<acc value="0.423784381325929" flag="0"/>
			<vel value="0.191538465998136" flag="0"/>
			<psa03 value="0.785176347412086" flag="0"/>
			<psa10 value="0.200688004595471" flag="0"/>
			<psa30 value="0.0166754813354483" flag="0"/>
		</comp>
		<comp name="--.HNZ" depth="0.0">
			<acc value="0.189685811071123" flag="0"/>
			<vel value="0.108531349321554" flag="0"/>
			<psa03 value="0.289889474588425" flag="0"/>
			<psa10 value="0.0840281939554527" flag="0"/>
			<psa30 value="0.0172024445775143" flag="0"/>
		</comp>
	</station>
	<station code="ATHP" name="ATHP" netid="HL" source="National Observatory of Athens Seismic Network" insttype="" lat="38.000799" lon="23.773487">
		<comp name="00.HNE" depth="0.0">
			<acc value="0.0113705170108896" flag="0"/>
