<?xml version="1.0" encoding="UTF-8" standalone="yes"?>
<!DOCTYPE earthquake SYSTEM "stationlist.dtd">
<stationlist created="" xmlns="ch.ethz.sed.shakemap.usgs.xml">
  <station code="KBN" name="KBN" netid="AC" insttype="" lat="40.6236" lon="20.7874">
    <comp name="--.HHE">
      <acc value="0.0181202923" flag="0"/>
      <vel value="0.0247731672" flag="0"/>
      <psa03 value="0.0496706601" flag="0"/>
      <psa10 value="0.0619955798" flag="0"/>
      <psa30 value="0.0072945601" flag="0"/>
    </comp>
    <comp name="--.HHN">
      <acc value="0.0307479082" flag="0"/>
      <vel value="0.0477043881" flag="0"/>
      <psa03 value="0.0653752138" flag="0"/>
      <psa10 value="0.1492620714" flag="0"/>
      <psa30 value="0.0114825881" flag="0"/>
    </comp>
    <comp name="--.HHZ">
      <acc value="0.0197871455" flag="0"/>
      <vel value="0.0318109304" flag="0"/>
      <psa03 value="0.0449814944" flag="0"/>
      <psa10 value="0.0645019672" flag="0"/>
      <psa30 value="0.0067756234" flag="0"/>
    </comp>
  </station>
  <station code="KALE" name="KALE" netid="HA" insttype="40," lat="38.3911" lon="22.1398">
    <comp name="--.HHE">
      <acc value="0.0655322542" flag="0"/>
      <vel value="0.0568878746" flag="0"/>
      <psa03 value="0.2441811765" flag="0"/>
      <psa10 value="0.0615517946" flag="0"/>
      <psa30 value="0.0136861109" flag="0"/>
    </comp>
    <comp name="--.HHZ">
      <acc value="0.0387748803" flag="0"/>
      <vel value="0.0493366058" flag="0"/>
      <psa03 value="0.0879907537" flag="0"/>
      <psa10 value="0.0288613665" flag="0"/>
      <psa30 value="0.0143972052" flag="0"/>
    </comp>
    <comp name="--.HHN">
      <acc value="0.0726789108" flag="0"/>
      <vel value="0.0684403207" flag="0"/>
      <psa03 value="0.1699083055" flag="0"/>
      <psa10 value="0.0666374147" flag="0"/>
      <psa30 value="0.0231609608" flag="0"/>
    </comp>
  </station>
  <station code="LAKA" name="LAKA" netid="HA" insttype="120s" lat="38.2401" lon="21.9785">
    <comp name="--.HHZ">
      <acc value="0.0118338093" flag="0"/>
      <vel value="0.0227968036" flag="0"/>
      <psa03 value="0.0327071553" flag="0"/>
      <psa10 value="0.0193284880" flag="0"/>
      <psa30 value="0.0085477627" flag="0"/>
    </comp>
    <comp name="--.HHN">
      <acc value="0.0148593758" flag="0"/>
      <vel value="0.0278961622" flag="0"/>
      <psa03 value="0.0319895968" flag="0"/>
      <psa10 value="0.0172571060" flag="0"/>
      <psa30 value="0.0156073268" flag="0"/>
    </comp>
    <comp name="--.HHE">
      <acc value="0.0158704307" flag="0"/>
      <vel value="0.0208426713" flag="0"/>
      <psa03 value="0.0416606323" flag="0"/>
      <psa10 value="0.0142532707" flag="0"/>
      <psa30 value="0.0090168278" flag="0"/>
    </comp>
  </station>
  <station code="ART2" name="ART2" netid="HI" insttype="CMG-5TD,ACCELEROMETER,GURALP" lat="39.1474" lon="20.9937">
    <comp name="--.HNN">
      <acc value="0.0250538473" flag="0"/>
      <vel value="0.0165257731" flag="0"/>
      <psa03 value="0.0646036018" flag="0"/>
      <psa10 value="0.0212308632" flag="0"/>
      <psa30 value="0.0046025553" flag="0"/>
    </comp>
    <comp name="--.HNE">
      <acc value="0.0290982036" flag="0"/>
      <vel value="0.0218653048" flag="0"/>
      <psa03 value="0.0784911215" flag="0"/>
      <psa10 value="0.0275690930" flag="0"/>
      <psa30 value="0.0060257612" flag="0"/>
    </comp>
    <comp name="--.HNZ">
      <acc value="0.0170546578" flag="0"/>
      <vel value="0.0127315718" flag="0"/>
      <psa03 value="0.0462443634" flag="0"/>
      <psa10 value="0.0176394051" flag="0"/>
      <psa30 value="0.0045929525" flag="0"/>
    </comp>
  </station>
  <station code="LAM2" name="LAM2" netid="HI" insttype="CMG-5TD,ACCELEROMETER,GURALP" lat="38.902" lon="22.4313">
    <comp name="--.HNZ">
      <acc value="0.1064373536" flag="0"/>
      <vel value="0.0659031040" flag="0"/>
      <psa03 value="0.3681657165" flag="0"/>
      <psa10 value="0.0550945553" flag="0"/>
      <psa30 value="0.0278403725" flag="0"/>
    </comp>
    <comp name="--.HNE">
      <acc value="0.2365345724" flag="0"/>
      <vel value="0.1322414889" flag="0"/>
      <psa03 value="0.8391626387" flag="0"/>
      <psa10 value="0.0835340395" flag="0"/>
      <psa30 value="0.0214226772" flag="0"/>
    </comp>
    <comp name="--.HNN">
      <acc value="0.2524733092" flag="0"/>
      <vel value="0.1995739446" flag="0"/>
      <psa03 value="0.8558688274" flag="0"/>
      <psa10 value="0.2724973580" flag="0"/>
      <psa30 value="0.0333686920" flag="0"/>
    </comp>
  </station>
  <station code="LMS2" name="LMS2" netid="HI" insttype="CMG-5TD,ACCELEROMETER,GURALP" lat="40.835" lon="21.1418">
    <comp name="--.HNZ">
      <acc value="0.0184753633" flag="0"/>
      <vel value="0.0184048825" flag="0"/>
      <psa03 value="0.0477018751" flag="0"/>
      <psa10 value="0.0474098455" flag="0"/>
      <psa30 value="0.0064554271" flag="0"/>
    </comp>
    <comp name="--.HNE">
      <acc value="0.0402466769" flag="0"/>
      <vel value="0.0240258698" flag="0"/>
      <psa03 value="0.0742687588" flag="0"/>
      <psa10 value="0.0459020914" flag="0"/>
      <psa30 value="0.0054116506" flag="0"/>
    </comp>
    <comp name="--.HNN">
      <acc value="0.0333710605" flag="0"/>
      <vel value="0.0315999865" flag="0"/>
      <psa03 value="0.0842938522" flag="0"/>
      <psa10 value="0.0542704133" flag="0"/>
      <psa30 value="0.0086355710" flag="0"/>
    </comp>
  </station>
  <station code="MSL1" name="MSL1" netid="HI" insttype="CMG-5TD,ACCELEROMETER,GURALP" lat="38.3727" lon="21.4243">
    <comp name="--.HNN">
      <acc value="0.1134515020" flag="0"/>
      <vel value="0.1840811644" flag="0"/>
      <psa03 value="0.2450861186" flag="0"/>
      <psa10 value="0.2158636958" flag="0"/>
      <psa30 value="0.0529114367" flag="0"/>
    </comp>
    <comp name="--.HNE">
      <acc value="0.1067861144" flag="0"/>
      <vel value="0.2136895666" flag="0"/>
      <psa03 value="0.1995976353" flag="0"/>
      <psa10 value="0.1899196889" flag="0"/>
      <psa30 value="0.0390919516" flag="0"/>
    </comp>
    <comp name="--.HNZ">
      <acc value="0.0476886705" flag="0"/>
      <vel value="0.0525516571" flag="0"/>
      <psa03 value="0.0945807192" flag="0"/>
      <psa10 value="0.1443927262" flag="0"/>
      <psa30 value="0.0206803952" flag="0"/>
    </comp>
  </station>
  <station code="VOL2" name="VOL2" netid="HI" insttype="CMG-5TD,ACCELEROMETER,GURALP" lat="39.366" lon="22.9506">
    <comp name="--.HNE">
      <acc value="0.2936890149" flag="0"/>
      <vel value="0.2276270689" flag="0"/>
      <psa03 value="0.9146355912" flag="0"/>
      <psa10 value="0.1455893133" flag="0"/>
      <psa30 value="0.0249832691" flag="0"/>
    </comp>
    <comp name="--.HNN">
      <acc value="0.4228548955" flag="0"/>
      <vel value="0.1955570907" flag="0"/>
      <psa03 value="0.7744386022" flag="0"/>
      <psa10 value="0.2003787860" flag="0"/>
      <psa30 value="0.0167788892" flag="0"/>
    </comp>
    <comp name="--.HNZ">
      <acc value="0.1888548680" flag="0"/>
      <vel value="0.1064286939" flag="0"/>
      <psa03 value="0.2849452796" flag="0"/>
      <psa10 value="0.0830186690" flag="0"/>
      <psa30 value="0.0172349751" flag="0"/>
    </comp>
  </station>
  <station code="EVR" name="EVR" netid="HL" insttype="DR24" lat="38.9166" lon="21.8105">
    <comp name="--.HHZ">
      <acc value="0.0762256273" flag="0"/>
      <vel value="0.0647298850" flag="0"/>
      <psa03 value="0.1986841562" flag="0"/>
      <psa10 value="0.0608942622" flag="0"/>
      <psa30 value="0.0172677871" flag="0"/>
    </comp>
    <comp name="--.HHN">
      <acc value="0.1336927296" flag="0"/>
      <vel value="0.1135817355" flag="0"/>
      <psa03 value="0.4073415571" flag="0"/>
      <psa10 value="0.0646676776" flag="0"/>
      <psa30 value="0.0417361275" flag="0"/>
    </comp>
    <comp name="--.HHE">
      <acc value="0.1197729394" flag="0"/>
      <vel value="0.0596072242" flag="0"/>
      <psa03 value="0.2397223810" flag="0"/>
      <psa10 value="0.0539387069" flag="0"/>
      <psa30 value="0.0205018080" flag="0"/>
    </comp>
  </station>
  <station code="JAN" name="JAN" netid="HL" insttype="CMG3EPSC60_DR24" lat="39.6562" lon="20.8487">
    <comp name="--.HHN">
      <acc value="0.0382383311" flag="0"/>
      <vel value="0.0323741360" flag="0"/>
      <psa03 value="0.1051878116" flag="0"/>
      <psa10 value="0.0430362669" flag="0"/>
      <psa30 value="0.0052807658" flag="0"/>
    </comp>
    <comp name="--.HHE">
      <acc value="0.0446862654" flag="0"/>
      <vel value="0.0326678362" flag="0"/>
      <psa03 value="0.1221148797" flag="0"/>
      <psa10 value="0.0415380112" flag="0"/>
      <psa30 value="0.0067363109" flag="0"/>
    </comp>
    <comp name="--.HHZ">
      <acc value="0.0233218408" flag="0"/>
      <vel value="0.0180630384" flag="0"/>
      <psa03 value="0.0642970434" flag="0"/>
      <psa10 value="0.0195937510" flag="0"/>
      <psa30 value="0.0049177968" flag="0"/>
    </comp>
  </station>
  <station code="KZN" name="KZN" netid="HL" insttype="120" lat="40.3033" lon="21.7821">
    <comp name="--.HHE">
      <acc value="0.2458036761" flag="0"/>
      <vel value="0.1281347203" flag="0"/>
      <psa03 value="0.9224032563" flag="0"/>
      <psa10 value="0.2036391638" flag="0"/>
      <psa30 value="0.0077966441" flag="0"/>
    </comp>
    <comp name="--.HHZ">
      <acc value="0.0788383820" flag="0"/>
      <vel value="0.0564110622" flag="0"/>
      <psa03 value="0.2148182079" flag="0"/>
      <psa10 value="0.0798325505" flag="0"/>
      <psa30 value="0.0136583845" flag="0"/>
    </comp>
    <comp name="--.HHN">
      <acc value="0.1944153847" flag="0"/>
      <vel value="0.1163404435" flag="0"/>
      <psa03 value="0.4578855591" flag="0"/>
      <psa10 value="0.1810485030" flag="0"/>
      <psa30 value="0.0164016515" flag="0"/>
    </comp>
  </station>
  <station code="LKR" name="LKR" netid="HL" insttype="30" lat="38.6496" lon="22.9989">
    <comp name="--.HHN">
      <acc value="0.0264530351" flag="0"/>
      <vel value="0.0182562061" flag="0"/>
      <psa03 value="0.0554253396" flag="0"/>
      <psa10 value="0.0186747224" flag="0"/>
      <psa30 value="0.0073163494" flag="0"/>
    </comp>
    <comp name="--.HHZ">
      <acc value="0.0126829223" flag="0"/>
      <vel value="0.0228177035" flag="0"/>
      <psa03 value="0.0324099748" flag="0"/>
      <psa10 value="0.0156545909" flag="0"/>
      <psa30 value="0.0087340783" flag="0"/>
    </comp>
    <comp name="--.HHE">
      <acc value="0.0258506434" flag="0"/>
      <vel value="0.0206687275" flag="0"/>
      <psa03 value="0.0644193380" flag="0"/>
      <psa10 value="0.0184023830" flag="0"/>
      <psa30 value="0.0087342552" flag="0"/>
    </comp>
  </station>
  <station code="NEO" name="NEO" netid="HL" insttype="120" lat="39.3057" lon="23.2219">
    <comp name="--.HHE">
      <acc value="0.3812877317" flag="0"/>
      <vel value="0.3485787893" flag="0"/>
      <psa03 value="0.9115071460" flag="0"/>
      <psa10 value="0.2989932960" flag="0"/>
      <psa30 value="0.0209211527" flag="0"/>
    </comp>
    <comp name="--.HHZ">
      <acc value="0.1712033815" flag="0"/>
      <vel value="0.1197563533" flag="0"/>
      <psa03 value="0.4528471974" flag="0"/>
      <psa10 value="0.1059481257" flag="0"/>
      <psa30 value="0.0151067318" flag="0"/>
    </comp>
    <comp name="--.HHN">
      <acc value="0.2856837720" flag="0"/>
      <vel value="0.2545325577" flag="0"/>
      <psa03 value="0.9787681171" flag="0"/>
      <psa10 value="0.4091559274" flag="0"/>
      <psa30 value="0.0228595056" flag="0"/>
    </comp>
  </station>
  <station code="PENT" name="PENT" netid="HL" insttype="30" lat="40.1959" lon="21.1384">
    <comp name="--.HHZ">
      <acc value="0.0332739331" flag="0"/>
      <vel value="0.0337437792" flag="0"/>
      <psa03 value="0.1298178464" flag="0"/>
      <psa10 value="0.0690302376" flag="0"/>
      <psa30 value="0.0087218394" flag="0"/>
    </comp>
    <comp name="--.HHN">
      <acc value="0.0016106433" flag="0"/>
      <vel value="0.0017766367" flag="0"/>
      <psa03 value="0.0047129787" flag="0"/>
      <psa10 value="0.0020280361" flag="0"/>
      <psa30 value="0.0003774361" flag="0"/>
    </comp>
    <comp name="--.HHE">
      <acc value="0.0346136803" flag="0"/>
      <vel value="0.0249532441" flag="0"/>
      <psa03 value="0.1513886930" flag="0"/>
      <psa10 value="0.0428743612" flag="0"/>
      <psa30 value="0.0087706845" flag="0"/>
    </comp>
  </station>
  <station code="PLG" name="PLG" netid="HL" insttype="CMG3ESPC-120s" lat="40.3733" lon="23.4444">
    <comp name="--.HHZ">
      <acc value="0.0582135874" flag="0"/>
      <vel value="0.0513292222" flag="0"/>
      <psa03 value="0.2541853706" flag="0"/>
      <psa10 value="0.0469230669" flag="0"/>
      <psa30 value="0.0212294611" flag="0"/>
    </comp>
  </station>
  <station code="TETR" name="TETR" netid="HL" insttype="60" lat="39.3445" lon="21.2747">
    <comp name="--.HHN">
      <acc value="0.2864133291" flag="0"/>
      <vel value="0.1311939096" flag="0"/>
      <psa03 value="0.6454925904" flag="0"/>
      <psa10 value="0.0839881796" flag="0"/>
      <psa30 value="0.0173359371" flag="0"/>
    </comp>
    <comp name="--.HHE">
      <acc value="0.4939396075" flag="0"/>
      <vel value="0.1878031909" flag="0"/>
      <psa03 value="0.9134432084" flag="0"/>
      <psa10 value="0.1156987247" flag="0"/>
      <psa30 value="0.0133246571" flag="0"/>
    </comp>
    <comp name="--.HHZ">
      <acc value="0.1396073383" flag="0"/>
      <vel value="0.0830219699" flag="0"/>
      <psa03 value="0.5224433324" flag="0"/>
      <psa10 value="0.0753942085" flag="0"/>
      <psa30 value="0.0126211588" flag="0"/>
    </comp>
  </station>
  <station code="THL" name="THL" netid="HL" insttype="120" lat="39.5647" lon="22.0144">
    <comp name="--.HHE">
      <acc value="1.0472929523" flag="0"/>
      <vel value="0.3627928715" flag="0"/>
      <psa03 value="0.9214265643" flag="0"/>
      <psa10 value="0.2110235653" flag="0"/>
      <psa30 value="0.0431892211" flag="0"/>
    </comp>
    <comp name="--.HHN">
      <acc value="1.0723929535" flag="0"/>
      <vel value="0.3936975146" flag="0"/>
      <psa03 value="0.8640813271" flag="0"/>
      <psa10 value="0.2602119610" flag="0"/>
      <psa30 value="0.0521167682" flag="0"/>
    </comp>
    <comp name="--.HHZ">
      <acc value="0.7534986076" flag="0"/>
      <vel value="0.2913584026" flag="0"/>
      <psa03 value="1.3637410207" flag="0"/>
      <psa10 value="0.3101840171" flag="0"/>
      <psa30 value="0.0301078419" flag="0"/>
    </comp>
  </station>
  <station code="AMPL" name="AMPL" netid="HP" insttype="Compact," lat="38.9224" lon="21.2135">
    <comp name="--.HHE">
      <acc value="0.0460879608" flag="0"/>
      <vel value="0.0414797462" flag="0"/>
      <psa03 value="0.1416129107" flag="0"/>
      <psa10 value="0.0444969281" flag="0"/>
      <psa30 value="0.0116662641" flag="0"/>
    </comp>
    <comp name="--.HHN">
      <acc value="0.0464026249" flag="0"/>
      <vel value="0.0298301207" flag="0"/>
      <psa03 value="0.1021210937" flag="0"/>
      <psa10 value="0.0419479217" flag="0"/>
      <psa30 value="0.0080699506" flag="0"/>
    </comp>
    <comp name="--.HHZ">
      <acc value="0.0253378343" flag="0"/>
      <vel value="0.0192745081" flag="0"/>
      <psa03 value="0.0666082394" flag="0"/>
      <psa10 value="0.0397070329" flag="0"/>
      <psa30 value="0.0046833198" flag="0"/>
    </comp>
  </station>
  <station code="ANX" name="ANX" netid="HP" insttype="120" lat="38.5933" lon="21.9209">
    <comp name="--.HHE">
      <acc value="0.1522517228" flag="0"/>
      <vel value="0.1159245260" flag="0"/>
      <psa03 value="0.7460949778" flag="0"/>
      <psa10 value="0.1109255385" flag="0"/>
      <psa30 value="0.0123221020" flag="0"/>
    </comp>
    <comp name="--.HHZ">
      <acc value="0.1187493364" flag="0"/>
      <vel value="0.0902086440" flag="0"/>
      <psa03 value="0.2407281530" flag="0"/>
      <psa10 value="0.0987295469" flag="0"/>
      <psa30 value="0.0177046803" flag="0"/>
    </comp>
    <comp name="--.HHN">
      <acc value="0.2696892789" flag="0"/>
      <vel value="0.1557916348" flag="0"/>
      <psa03 value="0.8134499872" flag="0"/>
      <psa10 value="0.1559189953" flag="0"/>
      <psa30 value="0.0167174340" flag="0"/>
    </comp>
  </station>
  <station code="EFP" name="EFP" netid="HP" insttype="40," lat="38.4269" lon="21.9058">
    <comp name="--.HHN">
      <acc value="0.0902144481" flag="0"/>
      <vel value="0.0790259464" flag="0"/>
      <psa03 value="0.3944400037" flag="0"/>
      <psa10 value="0.1106201506" flag="0"/>
      <psa30 value="0.0190085010" flag="0"/>
    </comp>
    <comp name="--.HHE">
      <acc value="0.0816631949" flag="0"/>
      <vel value="0.0848861688" flag="0"/>
      <psa03 value="0.2814622371" flag="0"/>
      <psa10 value="0.1536627783" flag="0"/>
      <psa30 value="0.0232496817" flag="0"/>
    </comp>
    <comp name="--.HHZ">
      <acc value="0.0459602855" flag="0"/>
      <vel value="0.0628976220" flag="0"/>
      <psa03 value="0.1285572500" flag="0"/>
      <psa10 value="0.0546048037" flag="0"/>
      <psa30 value="0.0245216849" flag="0"/>
    </comp>
  </station>
  <station code="PLEV" name="PLEV" netid="HP" insttype="Compact," lat="38.4124" lon="21.4073">
    <comp name="--.HHZ">
      <acc value="0.0148798872" flag="0"/>
      <vel value="0.0357138676" flag="0"/>
      <psa03 value="0.0351583425" flag="0"/>
      <psa10 value="0.0282459882" flag="0"/>
      <psa30 value="0.0211479407" flag="0"/>
    </comp>
    <comp name="--.HHE">
      <acc value="0.0233112353" flag="0"/>
      <vel value="0.0279802303" flag="0"/>
      <psa03 value="0.0472555792" flag="0"/>
      <psa10 value="0.0452593444" flag="0"/>
      <psa30 value="0.0081917465" flag="0"/>
    </comp>
    <comp name="--.HHN">
      <acc value="0.0280906950" flag="0"/>
      <vel value="0.0280937653" flag="0"/>
      <psa03 value="0.0642874212" flag="0"/>
      <psa10 value="0.0644427702" flag="0"/>
      <psa30 value="0.0089375530" flag="0"/>
    </comp>
  </station>
  <station code="PRMD" name="PRMD" netid="HP" insttype="120P," lat="39.5299" lon="21.0965">
    <comp name="--.HHE">
      <acc value="0.1092991307" flag="0"/>
      <vel value="0.0601324147" flag="0"/>
      <psa03 value="0.3488652657" flag="0"/>
      <psa10 value="0.0601369388" flag="0"/>
      <psa30 value="0.0106527920" flag="0"/>
    </comp>
    <comp name="--.HHN">
      <acc value="0.0696871474" flag="0"/>
      <vel value="0.0555362254" flag="0"/>
      <psa03 value="0.3376388965" flag="0"/>
      <psa10 value="0.0755944069" flag="0"/>
      <psa30 value="0.0063200581" flag="0"/>
    </comp>
    <comp name="--.HHZ">
      <acc value="0.0555154688" flag="0"/>
      <vel value="0.0362634357" flag="0"/>
      <psa03 value="0.1346960786" flag="0"/>
      <psa10 value="0.0507359177" flag="0"/>
      <psa30 value="0.0103675237" flag="0"/>
    </comp>
  </station>
  <station code="PVO" name="PVO" netid="HP" insttype="120P," lat="38.616" lon="21.525">
    <comp name="--.HHE">
      <acc value="0.0434237273" flag="0"/>
      <vel value="0.0395063191" flag="0"/>
      <psa03 value="0.1645130138" flag="0"/>
      <psa10 value="0.0438558673" flag="0"/>
      <psa30 value="0.0170439785" flag="0"/>
    </comp>
    <comp name="--.HHN">
      <acc value="0.0510039332" flag="0"/>
      <vel value="0.0457655145" flag="0"/>
      <psa03 value="0.1837462393" flag="0"/>
      <psa10 value="0.0361694771" flag="0"/>
      <psa30 value="0.0131353979" flag="0"/>
    </comp>
    <comp name="--.HHZ">
      <acc value="0.0345488901" flag="0"/>
      <vel value="0.0389114862" flag="0"/>
      <psa03 value="0.1082265595" flag="0"/>
      <psa10 value="0.0537292242" flag="0"/>
      <psa30 value="0.0262615361" flag="0"/>
    </comp>
  </station>
