<stationlist created="1778069531">
	<station code="IMMV" name="IMMV" netid="GE" source="GEOFON" insttype="" lat="35.4606" lon="23.9811">
		<comp name="--.HNE" depth="0.0">
			<acc value="0.000627614930751707" flag="0"/>
			<vel value="0.000792017937476284" flag="0"/>
			<psa03 value="0.00170020385149433" flag="0"/>
			<psa10 value="0.00209393526973512" flag="0"/>
			<psa30 value="0.000172257495480346" flag="0"/>
		</comp>
		<comp name="--.HNN" depth="0.0">
			<acc value="0.000649882819054928" flag="0"/>
			<vel value="0.000596279011924015" flag="0"/>
			<psa03 value="0.00219236812429532" flag="0"/>
			<psa10 value="0.00136508472392347" flag="0"/>
			<psa30 value="0.000208051260774964" flag="0"/>
		</comp>
		<comp name="--.HNZ" depth="0.0">
			<acc value="0.000410542001590684" flag="0"/>
			<vel value="0.000487239097138144" flag="0"/>
			<psa03 value="0.00201339929782223" flag="0"/>
			<psa10 value="0.000769118531768091" flag="0"/>
			<psa30 value="0.000102907075222025" flag="0"/>
		</comp>
	</station>
</stationlist>
