<?xml version="1.0" encoding="UTF-8" standalone="yes"?>
<!DOCTYPE earthquake SYSTEM "stationlist.dtd">
<stationlist created="" xmlns="ch.ethz.sed.shakemap.usgs.xml">
  <station code="ART2" name="ART2" netid="HI" insttype="CMG-5TD,ACCELEROMETER,GURALP" lat="39.1474" lon="20.9937">
    <comp name="--.HNN">
      <acc value="0.0127253281" flag="0"/>
      <vel value="0.0030420872" flag="0"/>
      <psa03 value="0.0116535644" flag="0"/>
      <psa10 value="0.0044989709" flag="0"/>
      <psa30 value="0.0003941986" flag="0"/>
    </comp>
    <comp name="--.HNE">
      <acc value="0.0099031727" flag="0"/>
      <vel value="0.0035178329" flag="0"/>
      <psa03 value="0.0181735308" flag="0"/>
      <psa10 value="0.0054671990" flag="0"/>
      <psa30 value="0.0004064586" flag="0"/>
    </comp>
    <comp name="--.HNZ">
      <acc value="0.0070061030" flag="0"/>
      <vel value="0.0023593689" flag="0"/>
      <psa03 value="0.0094695507" flag="0"/>
      <psa10 value="0.0033157431" flag="0"/>
      <psa30 value="0.0003081736" flag="0"/>
    </comp>
  </station>
  <station code="MSL1" name="MSL1" netid="HI" insttype="CMG-5TD,ACCELEROMETER,GURALP" lat="38.3727" lon="21.4243">
    <comp name="--.HNE">
      <acc value="0.0444142574" flag="0"/>
      <vel value="0.0333850503" flag="0"/>
      <psa03 value="0.1283307123" flag="0"/>
      <psa10 value="0.0494791798" flag="0"/>
      <psa30 value="0.0028019821" flag="0"/>
    </comp>
    <comp name="--.HNN">
      <acc value="0.0444929289" flag="0"/>
      <vel value="0.0390605566" flag="0"/>
      <psa03 value="0.1099451693" flag="0"/>
      <psa10 value="0.0307164733" flag="0"/>
      <psa30 value="0.0016837720" flag="0"/>
    </comp>
    <comp name="--.HNZ">
      <acc value="0.0180794048" flag="0"/>
      <vel value="0.0131841820" flag="0"/>
      <psa03 value="0.0454647603" flag="0"/>
      <psa10 value="0.0210539638" flag="0"/>
      <psa30 value="0.0007691779" flag="0"/>
    </comp>
  </station>
  <station code="JAN" name="JAN" netid="HL" insttype="CMG3EPSC60_DR24" lat="39.6562" lon="20.8487">
    <comp name="--.HHE">
      <acc value="0.0080616088" flag="0"/>
      <vel value="0.0061244936" flag="0"/>
      <psa03 value="0.0248619024" flag="0"/>
      <psa10 value="0.0111324218" flag="0"/>
      <psa30 value="0.0008171294" flag="0"/>
    </comp>
    <comp name="--.HHN">
      <acc value="0.0498532929" flag="0"/>
      <vel value="0.0044531338" flag="0"/>
      <psa03 value="0.0154942553" flag="0"/>
      <psa10 value="0.0053212660" flag="0"/>
      <psa30 value="0.0002744212" flag="0"/>
    </comp>
  </station>
  <station code="TETR" name="TETR" netid="HL" insttype="60" lat="39.3445" lon="21.2747">
    <comp name="--.HHE">
      <acc value="0.0149743609" flag="0"/>
      <vel value="0.0082083609" flag="0"/>
      <psa03 value="0.0463427225" flag="0"/>
      <psa10 value="0.0090835209" flag="0"/>
      <psa30 value="0.0004860596" flag="0"/>
    </comp>
    <comp name="--.HHN">
      <acc value="0.0113191923" flag="0"/>
      <vel value="0.0058489607" flag="0"/>
      <psa03 value="0.0257129230" flag="0"/>
      <psa10 value="0.0079860634" flag="0"/>
      <psa30 value="0.0004585529" flag="0"/>
    </comp>
    <comp name="--.HHZ">
      <acc value="0.0075218452" flag="0"/>
      <vel value="0.0029127229" flag="0"/>
      <psa03 value="0.0146983118" flag="0"/>
      <psa10 value="0.0070295771" flag="0"/>
      <psa30 value="0.0004280043" flag="0"/>
    </comp>
  </station>
  <station code="VLS" name="VLS" netid="HL" insttype="120P," lat="38.1768" lon="20.5886">
    <comp name="--.HHN">
      <acc value="0.0148210473" flag="0"/>
      <vel value="0.0045125292" flag="0"/>
      <psa03 value="0.0255405578" flag="0"/>
      <psa10 value="0.0028621617" flag="0"/>
      <psa30 value="0.0002425605" flag="0"/>
    </comp>
    <comp name="--.HHE">
      <acc value="0.0254987062" flag="0"/>
      <vel value="0.0060820275" flag="0"/>
      <psa03 value="0.0268534398" flag="0"/>
      <psa10 value="0.0037469426" flag="0"/>
      <psa30 value="0.0003119388" flag="0"/>
    </comp>
    <comp name="--.HHZ">
      <acc value="0.0100744939" flag="0"/>
      <vel value="0.0032323409" flag="0"/>
      <psa03 value="0.0184724247" flag="0"/>
      <psa10 value="0.0039620286" flag="0"/>
      <psa30 value="0.0001948681" flag="0"/>
    </comp>
  </station>
  <station code="AMPL" name="AMPL" netid="HP" insttype="Compact," lat="38.9224" lon="21.2135">
    <comp name="--.HHE">
      <acc value="0.0256849805" flag="0"/>
      <vel value="0.0097849346" flag="0"/>
      <psa03 value="0.0559182689" flag="0"/>
      <psa10 value="0.0070928011" flag="0"/>
      <psa30 value="0.0003776966" flag="0"/>
    </comp>
    <comp name="--.HHZ">
      <acc value="0.0174453827" flag="0"/>
      <vel value="0.0051466402" flag="0"/>
      <psa03 value="0.0333295868" flag="0"/>
      <psa10 value="0.0035979220" flag="0"/>
      <psa30 value="0.0002939923" flag="0"/>
    </comp>
    <comp name="--.HHN">
      <acc value="0.0418671429" flag="0"/>
      <vel value="0.0094458456" flag="0"/>
      <psa03 value="0.0547257121" flag="0"/>
      <psa10 value="0.0140363535" flag="0"/>
      <psa30 value="0.0008726151" flag="0"/>
    </comp>
  </station>
  <station code="AXS" name="AXS" netid="HP" insttype="40," lat="38.1962" lon="21.3763">
    <comp name="--.HHN">
      <acc value="0.0025670960" flag="0"/>
      <vel value="0.0013529698" flag="0"/>
      <psa03 value="0.0074726607" flag="0"/>
      <psa10 value="0.0012791797" flag="0"/>
      <psa30 value="0.0000872171" flag="0"/>
    </comp>
    <comp name="--.HHE">
      <acc value="0.0026128287" flag="0"/>
      <vel value="0.0013915853" flag="0"/>
      <psa03 value="0.0113272319" flag="0"/>
      <psa10 value="0.0008394511" flag="0"/>
      <psa30 value="0.0000935136" flag="0"/>
    </comp>
    <comp name="--.HHZ">
      <acc value="0.0012272648" flag="0"/>
      <vel value="0.0005832082" flag="0"/>
      <psa03 value="0.0035471402" flag="0"/>
      <psa10 value="0.0005914894" flag="0"/>
      <psa30 value="0.0000526758" flag="0"/>
    </comp>
  </station>
  <station code="FSK" name="FSK" netid="HP" insttype="40," lat="38.4593" lon="20.5623">
    <comp name="--.HHN">
      <acc value="0.0149029121" flag="0"/>
      <vel value="0.0063744858" flag="0"/>
      <psa03 value="0.0373558647" flag="0"/>
      <psa10 value="0.0084447497" flag="0"/>
      <psa30 value="0.0005265820" flag="0"/>
    </comp>
    <comp name="--.HHE">
      <acc value="0.0296419433" flag="0"/>
      <vel value="0.0130471976" flag="0"/>
      <psa03 value="0.0956943214" flag="0"/>
      <psa10 value="0.0104976415" flag="0"/>
      <psa30 value="0.0008201007" flag="0"/>
    </comp>
    <comp name="--.HHZ">
      <acc value="0.0104357341" flag="0"/>
      <vel value="0.0051127346" flag="0"/>
      <psa03 value="0.0248057521" flag="0"/>
      <psa10 value="0.0054727430" flag="0"/>
      <psa30 value="0.0003913261" flag="0"/>
    </comp>
  </station>
  <station code="KSTR" name="KSTR" netid="HP" insttype="Compact," lat="39.2492" lon="20.576">
    <comp name="--.HHN">
      <acc value="0.0173003090" flag="0"/>
      <vel value="0.0057275663" flag="0"/>
      <psa03 value="0.0236799342" flag="0"/>
      <psa10 value="0.0076714184" flag="0"/>
      <psa30 value="0.0003926000" flag="0"/>
    </comp>
    <comp name="--.HHZ">
      <acc value="0.0132495962" flag="0"/>
      <vel value="0.0063519055" flag="0"/>
      <psa03 value="0.0218405553" flag="0"/>
      <psa10 value="0.0076459220" flag="0"/>
      <psa30 value="0.0005678826" flag="0"/>
    </comp>
    <comp name="--.HHE">
      <acc value="0.0249322289" flag="0"/>
      <vel value="0.0070784676" flag="0"/>
      <psa03 value="0.0497696217" flag="0"/>
      <psa10 value="0.0061057650" flag="0"/>
      <psa30 value="0.0007216456" flag="0"/>
    </comp>
  </station>
  <station code="PDO" name="PDO" netid="HP" insttype="120s" lat="38.5986" lon="21.1833">
    <comp name="--.HHE">
      <acc value="0.0268167086" flag="0"/>
      <vel value="0.0143107241" flag="0"/>
      <psa03 value="0.0497484176" flag="0"/>
      <psa10 value="0.0153435549" flag="0"/>
      <psa30 value="0.0006614238" flag="0"/>
    </comp>
    <comp name="--.HHZ">
      <acc value="0.0195287786" flag="0"/>
      <vel value="0.0063740834" flag="0"/>
      <psa03 value="0.0251343771" flag="0"/>
      <psa10 value="0.0067149444" flag="0"/>
      <psa30 value="0.0004943630" flag="0"/>
    </comp>
    <comp name="--.HHN">
      <acc value="0.0239496430" flag="0"/>
      <vel value="0.0110865381" flag="0"/>
      <psa03 value="0.0523618380" flag="0"/>
      <psa10 value="0.0148499501" flag="0"/>
      <psa30 value="0.0006655908" flag="0"/>
    </comp>
  </station>
  <station code="PLEV" name="PLEV" netid="HP" insttype="Compact," lat="38.4124" lon="21.4073">
    <comp name="--.HHE">
      <acc value="0.0153378970" flag="0"/>
      <vel value="0.0083314382" flag="0"/>
      <psa03 value="0.0271654549" flag="0"/>
      <psa10 value="0.0089686081" flag="0"/>
      <psa30 value="0.0006691636" flag="0"/>
    </comp>
    <comp name="--.HHZ">
      <acc value="0.0089505957" flag="0"/>
      <vel value="0.0037189248" flag="0"/>
      <psa03 value="0.0215134619" flag="0"/>
      <psa10 value="0.0046461892" flag="0"/>
      <psa30 value="0.0002650377" flag="0"/>
    </comp>
    <comp name="--.HHN">
      <acc value="0.0104222621" flag="0"/>
      <vel value="0.0049163948" flag="0"/>
      <psa03 value="0.0270809724" flag="0"/>
      <psa10 value="0.0066152636" flag="0"/>
      <psa30 value="0.0003831323" flag="0"/>
    </comp>
  </station>
  <station code="PRMD" name="PRMD" netid="HP" insttype="120P," lat="39.5299" lon="21.0965">
    <comp name="--.HHZ">
      <acc value="0.0029195930" flag="0"/>
      <vel value="0.0028091161" flag="0"/>
      <psa03 value="0.0099005004" flag="0"/>
      <psa10 value="0.0046344006" flag="0"/>
      <psa30 value="0.0004204635" flag="0"/>
    </comp>
    <comp name="--.HHE">
      <acc value="0.0083303070" flag="0"/>
      <vel value="0.0058481987" flag="0"/>
      <psa03 value="0.0170829120" flag="0"/>
      <psa10 value="0.0073318361" flag="0"/>
      <psa30 value="0.0005494400" flag="0"/>
    </comp>
    <comp name="--.HHN">
      <acc value="0.0053126989" flag="0"/>
      <vel value="0.0049117564" flag="0"/>
      <psa03 value="0.0145473289" flag="0"/>
      <psa10 value="0.0065334823" flag="0"/>
      <psa30 value="0.0006031602" flag="0"/>
    </comp>
  </station>
  <station code="PVO" name="PVO" netid="HP" insttype="120P," lat="38.616" lon="21.525">
    <comp name="--.HHE">
      <acc value="0.0255048486" flag="0"/>
      <vel value="0.0086039339" flag="0"/>
      <psa03 value="0.0726806502" flag="0"/>
      <psa10 value="0.0068395284" flag="0"/>
      <psa30 value="0.0005209002" flag="0"/>
    </comp>
    <comp name="--.HHN">
      <acc value="0.0307332629" flag="0"/>
      <vel value="0.0128891897" flag="0"/>
      <psa03 value="0.0655930353" flag="0"/>
      <psa10 value="0.0085626199" flag="0"/>
      <psa30 value="0.0012241725" flag="0"/>
    </comp>
    <comp name="--.HHZ">
      <acc value="0.0179920116" flag="0"/>
      <vel value="0.0067871418" flag="0"/>
      <psa03 value="0.0412850088" flag="0"/>
      <psa10 value="0.0042443397" flag="0"/>
      <psa30 value="0.0003674784" flag="0"/>
    </comp>
  </station>
  <station code="DRAG" name="DRAG" netid="HT" insttype="30s-100Hz," lat="38.6839" lon="20.5746">
    <comp name="--.HHE">
      <acc value="0.3375925241" flag="0"/>
      <vel value="0.1395177124" flag="0"/>
      <psa03 value="1.0622314985" flag="0"/>
      <psa10 value="0.1244013990" flag="0"/>
      <psa30 value="0.0057849920" flag="0"/>
    </comp>
    <comp name="--.HHN">
      <acc value="0.2655068363" flag="0"/>
      <vel value="0.0820107361" flag="0"/>
      <psa03 value="0.5383697953" flag="0"/>
      <psa10 value="0.0942032633" flag="0"/>
      <psa30 value="0.0030407205" flag="0"/>
    </comp>
    <comp name="--.HHZ">
      <acc value="0.1156111899" flag="0"/>
      <vel value="0.0386059885" flag="0"/>
      <psa03 value="0.2138341614" flag="0"/>
      <psa10 value="0.0307977200" flag="0"/>
      <psa30 value="0.0014931455" flag="0"/>
    </comp>
  </station>
  <station code="EVGI" name="EVGI" netid="HT" insttype="30" lat="38.621" lon="20.656">
    <comp name="--.HHZ">
      <acc value="0.1206603907" flag="0"/>
      <vel value="0.0272114292" flag="0"/>
      <psa03 value="0.1973331224" flag="0"/>
      <psa10 value="0.0124921232" flag="0"/>
      <psa30 value="0.0006917090" flag="0"/>
    </comp>
    <comp name="--.HHE">
      <acc value="0.1380323009" flag="0"/>
      <vel value="0.0311476768" flag="0"/>
      <psa03 value="0.2307705919" flag="0"/>
      <psa10 value="0.0226008653" flag="0"/>
      <psa30 value="0.0013330476" flag="0"/>
    </comp>
    <comp name="--.HHN">
      <acc value="0.1508119192" flag="0"/>
      <vel value="0.0405894642" flag="0"/>
      <psa03 value="0.1571755833" flag="0"/>
      <psa10 value="0.0236065685" flag="0"/>
      <psa30 value="0.0013099950" flag="0"/>
    </comp>
  </station>
  <station code="LKD2" name="LKD2" netid="HT" insttype="100" lat="38.7889" lon="20.6578">
    <comp name="--.HHZ">
      <acc value="0.2028433311" flag="0"/>
      <vel value="0.0458192579" flag="0"/>
      <psa03 value="0.2348170226" flag="0"/>
      <psa10 value="0.0444915001" flag="0"/>
      <psa30 value="0.0035656124" flag="0"/>
    </comp>
    <comp name="--.HHE">
      <acc value="0.2932708392" flag="0"/>
      <vel value="0.0748007577" flag="0"/>
      <psa03 value="0.4245244211" flag="0"/>
      <psa10 value="0.0779655165" flag="0"/>
      <psa30 value="0.0068622890" flag="0"/>
    </comp>
    <comp name="--.HHN">
      <acc value="0.2920532582" flag="0"/>
      <vel value="0.1146965380" flag="0"/>
      <psa03 value="0.6963066844" flag="0"/>
      <psa10 value="0.0571567242" flag="0"/>
      <psa30 value="0.0032615858" flag="0"/>
    </comp>
  </station>
  <station code="NYDR" name="NYDR" netid="HT" insttype="1s-100Hz," lat="38.7135" lon="20.6983">
    <comp name="--.HHN">
      <acc value="0.2993206326" flag="0"/>
      <vel value="0.0557554660" flag="0"/>
      <psa03 value="0.3028937793" flag="0"/>
      <psa10 value="0.0324941163" flag="0"/>
      <psa30 value="0.0018510599" flag="0"/>
    </comp>
    <comp name="--.HHE">
      <acc value="0.2376060790" flag="0"/>
      <vel value="0.0425457810" flag="0"/>
      <psa03 value="0.1597275908" flag="0"/>
      <psa10 value="0.0519031537" flag="0"/>
      <psa30 value="0.0026161919" flag="0"/>
    </comp>
    <comp name="--.HHZ">
      <acc value="0.1154301984" flag="0"/>
      <vel value="0.0322040121" flag="0"/>
      <psa03 value="0.1831144362" flag="0"/>
      <psa10 value="0.0368790200" flag="0"/>
      <psa30 value="0.0014135565" flag="0"/>
    </comp>
  </station>
  <station code="PSDA" name="PSDA" netid="HT" insttype="30" lat="38.114" lon="20.5841">
    <comp name="--.HHE">
      <acc value="0.0258259236" flag="0"/>
      <vel value="0.0098047758" flag="0"/>
      <psa03 value="0.0659117714" flag="0"/>
      <psa10 value="0.0060630902" flag="0"/>
      <psa30 value="0.0004022945" flag="0"/>
    </comp>
    <comp name="--.HHN">
      <acc value="0.0213983224" flag="0"/>
      <vel value="0.0089124717" flag="0"/>
      <psa03 value="0.0552632640" flag="0"/>
      <psa10 value="0.0042264120" flag="0"/>
      <psa30 value="0.0003613633" flag="0"/>
    </comp>
    <comp name="--.HHZ">
      <acc value="0.0131928950" flag="0"/>
      <vel value="0.0032594650" flag="0"/>
      <psa03 value="0.0239711627" flag="0"/>
      <psa10 value="0.0035962128" flag="0"/>
      <psa30 value="0.0001832669" flag="0"/>
    </comp>
  </station>
  <station code="TSLK" name="TSLK" netid="HT" insttype="1s-100Hz," lat="38.8249" lon="20.6554">
    <comp name="--.HHZ">
      <acc value="0.3205916149" flag="0"/>
      <vel value="0.0924508997" flag="0"/>
      <psa03 value="0.3720024083" flag="0"/>
      <psa10 value="0.0475501561" flag="0"/>
      <psa30 value="0.0033268306" flag="0"/>
    </comp>
    <comp name="--.HHN">
      <acc value="0.4492540571" flag="0"/>
      <vel value="0.1704575843" flag="0"/>
      <psa03 value="0.9347167561" flag="0"/>
      <psa10 value="0.1045505604" flag="0"/>
      <psa30 value="0.0078969659" flag="0"/>
    </comp>
    <comp name="--.HHE">
      <acc value="0.4247390957" flag="0"/>
      <vel value="0.1617797670" flag="0"/>
      <psa03 value="0.6406366279" flag="0"/>
      <psa10 value="0.1500412329" flag="0"/>
      <psa30 value="0.0146601527" flag="0"/>
    </comp>
  </station>
</stationlist>
