<stationlist created="1775820754">
	<station code="ROD3" name="ROD3" netid="CL" source="Corinth Riff Laboratory (CRLNET)" insttype="" lat="38.30811" lon="21.89204">
		<comp name="00.HNE" depth="0.0">
			<acc value="0.0126616245508983" flag="0"/>
			<vel value="0.00482536874752252" flag="0"/>
			<psa03 value="0.0264497547706122" flag="0"/>
			<psa10 value="0.00309876910636923" flag="0"/>
			<psa30 value="0.000522570555234699" flag="0"/>
		</comp>
		<comp name="00.HNN" depth="0.0">
			<acc value="0.0119122413589546" flag="0"/>
			<vel value="0.00452741019038588" flag="0"/>
			<psa03 value="0.0259530578043649" flag="0"/>
			<psa10 value="0.00520090125293054" flag="0"/>
			<psa30 value="0.000499207288782448" flag="0"/>
		</comp>
		<comp name="00.HNZ" depth="0.0">
			<acc value="0.00431520369156094" flag="0"/>
			<vel value="0.00172967190100502" flag="0"/>
			<psa03 value="0.00691160173989037" flag="0"/>
			<psa10 value="0.00274457126750242" flag="0"/>
			<psa30 value="0.000216294601893247" flag="0"/>
		</comp>
	</station>
	<station code="AIGS" name="AIGS" netid="HA" source="Hellenic Seismological Network, University of Athens, Seismological Laboratory (HA)" insttype="" lat="38.25001" lon="22.0878">
		<comp name="--.HNE" depth="0.0">
			<acc value="0.0107909578289476" flag="0"/>
			<vel value="0.00381812670952077" flag="0"/>
			<psa03 value="0.0156426586451798" flag="0"/>
			<psa10 value="0.00442882916945172" flag="0"/>
			<psa30 value="0.00174244115734408" flag="0"/>
		</comp>
		<comp name="--.HNN" depth="0.0">
			<acc value="0.0112757581968326" flag="0"/>
			<vel value="0.00391825378179831" flag="0"/>
			<psa03 value="0.0150879916928843" flag="0"/>
			<psa10 value="0.00508142068168165" flag="0"/>
			<psa30 value="0.0019190129585222" flag="0"/>
		</comp>
		<comp name="--.HNZ" depth="0.0">
			<acc value="0.0116714110050773" flag="0"/>
			<vel value="0.00406953317545522" flag="0"/>
			<psa03 value="0.0126693366772225" flag="0"/>
			<psa10 value="0.00473756837188765" flag="0"/>
			<psa30 value="0.00202042801010501" flag="0"/>
		</comp>
	</station>
	<station code="CORS" name="CORS" netid="HA" source="Hellenic Seismological Network, University of Athens, Seismological Laboratory (HA)" insttype="" lat="38.2562" lon="22.0748">
		<comp name="00.HNE" depth="0.0">
			<acc value="0.00378555498008413" flag="0"/>
			<vel value="0.00435829132209276" flag="0"/>
			<psa03 value="0.0092807925413234" flag="0"/>
			<psa10 value="0.011730152690053" flag="0"/>
			<psa30 value="0.000429571764312942" flag="0"/>
		</comp>
		<comp name="00.HNN" depth="0.0">
			<acc value="0.0029164263515083" flag="0"/>
			<vel value="0.00284848146074146" flag="0"/>
			<psa03 value="0.0093370228288137" flag="0"/>
			<psa10 value="0.00822061582546966" flag="0"/>
			<psa30 value="0.000362999072948658" flag="0"/>
		</comp>
		<comp name="00.HNZ" depth="0.0">
			<acc value="0.00225334796126625" flag="0"/>
			<vel value="0.00205167412475324" flag="0"/>
			<psa03 value="0.00669601909922391" flag="0"/>
			<psa10 value="0.00262169062726247" flag="0"/>
			<psa30 value="0.000202198511846487" flag="0"/>
		</comp>
	</station>
	<station code="DRES" name="DRES" netid="HA" source="Hellenic Seismological Network, University of Athens, Seismological Laboratory (HA)" insttype="" lat="38.319719" lon="21.853176">
		<comp name="--.HNE" depth="0.0">
			<acc value="0.0058073094991076" flag="0"/>
			<vel value="0.00477143652532901" flag="0"/>
			<psa03 value="0.0158114250334798" flag="0"/>
			<psa10 value="0.005878420197738" flag="0"/>
			<psa30 value="0.000814962216413511" flag="0"/>
		</comp>
		<comp name="--.HNN" depth="0.0">
			<acc value="0.00558529416013508" flag="0"/>
			<vel value="0.00473466842751234" flag="0"/>
			<psa03 value="0.0117574780939592" flag="0"/>
			<psa10 value="0.00485004113517778" flag="0"/>
			<psa30 value="0.000578417900679601" flag="0"/>
		</comp>
		<comp name="--.HNZ" depth="0.0">
			<acc value="0.00399212729150988" flag="0"/>
			<vel value="0.00250329878273942" flag="0"/>
			<psa03 value="0.00510965326809508" flag="0"/>
			<psa10 value="0.00322743848946168" flag="0"/>
			<psa30 value="0.000582971639844243" flag="0"/>
		</comp>
	</station>
	<station code="KIAS" name="KIAS" netid="HA" source="Hellenic Seismological Network, University of Athens, Seismological Laboratory (HA)" insttype="" lat="37.9875" lon="22.7543">
		<comp name="--.HNE" depth="0.0">
			<acc value="0.00254078632841385" flag="0"/>
			<vel value="0.00305912760199606" flag="0"/>
			<psa03 value="0.00403270399580617" flag="0"/>
			<psa10 value="0.00458039030336472" flag="0"/>
			<psa30 value="0.00111283163630241" flag="0"/>
		</comp>
		<comp name="--.HNN" depth="0.0">
			<acc value="0.00255374828962943" flag="0"/>
			<vel value="0.00247212909119003" flag="0"/>
			<psa03 value="0.00353786327233023" flag="0"/>
			<psa10 value="0.0037083290961028" flag="0"/>
			<psa30 value="0.000813137147595661" flag="0"/>
		</comp>
		<comp name="--.HNZ" depth="0.0">
			<acc value="0.00256784298973925" flag="0"/>
			<vel value="0.00157595141715806" flag="0"/>
			<psa03 value="0.0029416427860628" flag="0"/>
			<psa10 value="0.00270922939502623" flag="0"/>
			<psa30 value="0.00077100670040808" flag="0"/>
		</comp>
	</station>
	<station code="ARG2" name="ARG2" netid="HI" source="ITSAK Strong Motion Network" insttype="" lat="38.1783" lon="20.4878">
		<comp name="--.HNE" depth="0.0">
			<acc value="0.0211393958194668" flag="0"/>
			<vel value="0.00969044401749142" flag="0"/>
			<psa03 value="0.0455945360392496" flag="0"/>
			<psa10 value="0.00538187089751509" flag="0"/>
			<psa30 value="0.000306474833703547" flag="0"/>
		</comp>
		<comp name="--.HNN" depth="0.0">
			<acc value="0.0201254558962663" flag="0"/>
			<vel value="0.0083370978710984" flag="0"/>
			<psa03 value="0.0411489707090181" flag="0"/>
			<psa10 value="0.00681065179725883" flag="0"/>
			<psa30 value="0.000490693964402509" flag="0"/>
		</comp>
		<comp name="--.HNZ" depth="0.0">
			<acc value="0.0113945911159273" flag="0"/>
			<vel value="0.00592770017626243" flag="0"/>
			<psa03 value="0.0534999451505183" flag="0"/>
			<psa10 value="0.00408183087002059" flag="0"/>
			<psa30 value="0.000346829746601986" flag="0"/>
		</comp>
	</station>
	<station code="ART2" name="ART2" netid="HI" source="ITSAK Strong Motion Network" insttype="" lat="39.1474" lon="20.9937">
		<comp name="--.HNE" depth="0.0">
			<acc value="0.00938346050913007" flag="0"/>
			<vel value="0.00338451612390979" flag="0"/>
			<psa03 value="0.0184449289172616" flag="0"/>
			<psa10 value="0.00548646767031761" flag="0"/>
			<psa30 value="0.000429189525449928" flag="0"/>
		</comp>
		<comp name="--.HNN" depth="0.0">
			<acc value="0.0117160136146402" flag="0"/>
			<vel value="0.00301890070472595" flag="0"/>
			<psa03 value="0.011550981341646" flag="0"/>
			<psa10 value="0.00450570551214404" flag="0"/>
			<psa30 value="0.000419898936035627" flag="0"/>
		</comp>
		<comp name="--.HNZ" depth="0.0">
			<acc value="0.007082366402044" flag="0"/>
			<vel value="0.00227518615792073" flag="0"/>
			<psa03 value="0.00950478198892512" flag="0"/>
			<psa10 value="0.00330429279943287" flag="0"/>
			<psa30 value="0.000350180619622352" flag="0"/>
		</comp>
	</station>
	<station code="KRK1" name="KRK1" netid="HI" source="ITSAK Strong Motion Network" insttype="" lat="39.618861" lon="19.9202">
		<comp name="--.HNE" depth="0.0">
			<acc value="0.0176860241652169" flag="0"/>
			<vel value="0.0101517598033867" flag="0"/>
			<psa03 value="0.0342435340910652" flag="0"/>
			<psa10 value="0.00536186425969338" flag="0"/>
			<psa30 value="0.000362780881411265" flag="0"/>
		</comp>
		<comp name="--.HNN" depth="0.0">
			<acc value="0.0168739573188264" flag="0"/>
			<vel value="0.0106902470503756" flag="0"/>
			<psa03 value="0.0304973275899659" flag="0"/>
			<psa10 value="0.00560760397622385" flag="0"/>
			<psa30 value="0.000435608049603795" flag="0"/>
		</comp>
		<comp name="--.HNZ" depth="0.0">
			<acc value="0.00763141459906025" flag="0"/>
			<vel value="0.00262334875173159" flag="0"/>
			<psa03 value="0.016471039042177" flag="0"/>
			<psa10 value="0.0016673370153946" flag="0"/>
			<psa30 value="0.000184446893180473" flag="0"/>
		</comp>
	</station>
	<station code="LMS2" name="LMS2" netid="HI" source="ITSAK Strong Motion Network" insttype="" lat="40.834985" lon="21.141815">
		<comp name="--.HNE" depth="0.0">
			<acc value="0.000843269074199766" flag="0"/>
			<vel value="0.000886040088277307" flag="0"/>
			<psa03 value="0.00226368836970278" flag="0"/>
			<psa10 value="0.00142404515631605" flag="0"/>
			<psa30 value="0.000147222669446" flag="0"/>
		</comp>
		<comp name="--.HNN" depth="0.0">
			<acc value="0.000913964231784186" flag="0"/>
			<vel value="0.000766034218818092" flag="0"/>
			<psa03 value="0.00218812363083791" flag="0"/>
			<psa10 value="0.00120217670861956" flag="0"/>
			<psa30 value="8.17132972195208e-05" flag="0"/>
		</comp>
		<comp name="--.HNZ" depth="0.0">
			<acc value="0.000555825065527712" flag="0"/>
			<vel value="0.000554039088372454" flag="0"/>
			<psa03 value="0.00124844614744246" flag="0"/>
			<psa10 value="0.00112447191261884" flag="0"/>
			<psa30 value="0.000105866583454221" flag="0"/>
		</comp>
	</station>
	<station code="MSL1" name="MSL1" netid="HI" source="ITSAK Strong Motion Network" insttype="" lat="38.3727" lon="21.4243">
		<comp name="--.HNE" depth="0.0">
			<acc value="0.0443989515262777" flag="0"/>
			<vel value="0.0335246785763747" flag="0"/>
			<psa03 value="0.128025626902879" flag="0"/>
			<psa10 value="0.0494487694882874" flag="0"/>
			<psa30 value="0.00289072691313711" flag="0"/>
		</comp>
		<comp name="--.HNN" depth="0.0">
			<acc value="0.0444842518920547" flag="0"/>
			<vel value="0.0391305904895903" flag="0"/>
			<psa03 value="0.109120093254064" flag="0"/>
			<psa10 value="0.0307608971334706" flag="0"/>
			<psa30 value="0.0017805429522306" flag="0"/>
		</comp>
		<comp name="--.HNZ" depth="0.0">
			<acc value="0.0180349567018106" flag="0"/>
			<vel value="0.0131304823832879" flag="0"/>
			<psa03 value="0.0458107066096473" flag="0"/>
			<psa10 value="0.0210919128607074" flag="0"/>
			<psa30 value="0.0007828522767861" flag="0"/>
		</comp>
	</station>
	<station code="VAS2" name="VAS2" netid="HI" source="ITSAK Strong Motion Network" insttype="" lat="38.630558" lon="20.608081">
		<comp name="--.HNE" depth="0.0">
			<acc value="0.150111731694783" flag="0"/>
			<vel value="0.142034053185588" flag="0"/>
			<psa03 value="0.397496207172905" flag="0"/>
			<psa10 value="0.228915989560866" flag="0"/>
			<psa30 value="0.0110895104589582" flag="0"/>
		</comp>
		<comp name="--.HNN" depth="0.0">
			<acc value="0.16622989666921" flag="0"/>
			<vel value="0.106871327789673" flag="0"/>
			<psa03 value="0.374419178433139" flag="0"/>
			<psa10 value="0.298364875208804" flag="0"/>
			<psa30 value="0.00746968399658282" flag="0"/>
		</comp>
		<comp name="--.HNZ" depth="0.0">
			<acc value="0.0643145324731492" flag="0"/>
			<vel value="0.0484894351423007" flag="0"/>
			<psa03 value="0.165317284792301" flag="0"/>
			<psa10 value="0.0804382161369069" flag="0"/>
			<psa30 value="0.00301199828010535" flag="0"/>
		</comp>
	</station>
	<station code="GINA" name="GINA" netid="HL" source="National Observatory of Athens Seismic Network" insttype="" lat="39.66886" lon="22.389">
		<comp name="00.HNE" depth="0.0">
			<acc value="0.0062309344865925" flag="0"/>
			<vel value="0.00201675651484083" flag="0"/>
			<psa03 value="0.0080889980960276" flag="0"/>
			<psa10 value="0.00309650536265773" flag="0"/>
			<psa30 value="0.00041611266958887" flag="0"/>
		</comp>
		<comp name="00.HNN" depth="0.0">
			<acc value="0.00531751029941116" flag="0"/>
			<vel value="0.00253203225991069" flag="0"/>
			<psa03 value="0.00730849717289104" flag="0"/>
			<psa10 value="0.00383122004952562" flag="0"/>
			<psa30 value="0.000497849021719371" flag="0"/>
		</comp>
		<comp name="00.HNZ" depth="0.0">
			<acc value="0.0107319467715904" flag="0"/>
			<vel value="0.00151187421985364" flag="0"/>
			<psa03 value="0.00354773957762869" flag="0"/>
			<psa10 value="0.00213374931917173" flag="0"/>
			<psa30 value="0.000296212226772978" flag="0"/>
		</comp>
	</station>
	<station code="SOFA" name="SOFA" netid="HL" source="National Observatory of Athens Seismic Network" insttype="" lat="39.33773" lon="22.09691">
		<comp name="00.HNE" depth="0.0">
			<acc value="0.010580485440318" flag="0"/>
			<vel value="0.00729418296361533" flag="0"/>
			<psa03 value="0.026736690445368" flag="0"/>
			<psa10 value="0.00878584483161631" flag="0"/>
			<psa30 value="0.000687268913608663" flag="0"/>
		</comp>
		<comp name="00.HNN" depth="0.0">
			<acc value="0.0124497526717459" flag="0"/>
			<vel value="0.00975659086311978" flag="0"/>
			<psa03 value="0.025382892429546" flag="0"/>
			<psa10 value="0.00730091380596481" flag="0"/>
			<psa30 value="0.000971872610958324" flag="0"/>
		</comp>
		<comp name="00.HNZ" depth="0.0">
			<acc value="0.00351010855742554" flag="0"/>
			<vel value="0.00257987036973664" flag="0"/>
			<psa03 value="0.00987898841888524" flag="0"/>
			<psa10 value="0.00317859173797794" flag="0"/>
			<psa30 value="0.000256344455520556" flag="0"/>
		</comp>
	</station>
	<station code="TRKA" name="TRKA" netid="HL" source="National Observatory of Athens Seismic Network" insttype="" lat="39.55381" lon="21.76624">
		<comp name="00.HNE" depth="0.0">
			<acc value="0.00394994935214862" flag="0"/>
			<vel value="0.00384595383177834" flag="0"/>
			<psa03 value="0.0112094834586603" flag="0"/>
			<psa10 value="0.00814295099304905" flag="0"/>
			<psa30 value="0.000467121882031749" flag="0"/>
		</comp>
		<comp name="00.HNN" depth="0.0">
			<acc value="0.00341588329061018" flag="0"/>
			<vel value="0.00302599509690803" flag="0"/>
			<psa03 value="0.0113004321919268" flag="0"/>
			<psa10 value="0.00554904525327264" flag="0"/>
			<psa30 value="0.000371263891285838" flag="0"/>
		</comp>
		<comp name="00.HNZ" depth="0.0">
			<acc value="0.00392777547670347" flag="0"/>
			<vel value="0.00175340957656351" flag="0"/>
			<psa03 value="0.00864843554659756" flag="0"/>
			<psa10 value="0.00209234915473694" flag="0"/>
			<psa30 value="0.000148301204435133" flag="0"/>
		</comp>
	</station>
	<station code="ANX" name="ANX" netid="HP" source="University of Patras, Seismological Laboratory (PSLNET)" insttype="" lat="38.5933" lon="21.9209">
		<comp name="--.HNE" depth="0.0">
			<acc value="0.00617805657077303" flag="0"/>
			<vel value="0.0043059176442704" flag="0"/>
			<psa03 value="0.0236965411337175" flag="0"/>
			<psa10 value="0.00592630477611173" flag="0"/>
			<psa30 value="0.000329104978672855" flag="0"/>
		</comp>
		<comp name="--.HNN" depth="0.0">
			<acc value="0.00911133920809941" flag="0"/>
			<vel value="0.00597396750245902" flag="0"/>
			<psa03 value="0.0229131116311914" flag="0"/>
			<psa10 value="0.00589429546813198" flag="0"/>
			<psa30 value="0.000482911730117162" flag="0"/>
		</comp>
		<comp name="--.HNZ" depth="0.0">
			<acc value="0.00453162002135481" flag="0"/>
			<vel value="0.00284919067700701" flag="0"/>
			<psa03 value="0.0105348417617614" flag="0"/>
			<psa10 value="0.00280850948746957" flag="0"/>
			<psa30 value="0.000187223730778434" flag="0"/>
		</comp>
	</station>
	<station code="LTHK" name="LTHK" netid="HP" source="University of Patras, Seismological Laboratory (PSLNET)" insttype="" lat="37.7095" lon="20.8367">
		<comp name="--.HNE" depth="0.0">
			<acc value="0.00312147131561335" flag="0"/>
			<vel value="0.00193794879760871" flag="0"/>
			<psa03 value="0.00975327957044119" flag="0"/>
			<psa10 value="0.00228413592216827" flag="0"/>
			<psa30 value="0.000248462188567123" flag="0"/>
		</comp>
		<comp name="--.HNN" depth="0.0">
			<acc value="0.00358967614559678" flag="0"/>
			<vel value="0.001630853215854" flag="0"/>
			<psa03 value="0.0096028998168747" flag="0"/>
			<psa10 value="0.00213751691250419" flag="0"/>
			<psa30 value="0.000265641503696094" flag="0"/>
		</comp>
		<comp name="--.HNZ" depth="0.0">
			<acc value="0.00171764749522564" flag="0"/>
			<vel value="0.00112486630873868" flag="0"/>
			<psa03 value="0.00514026401988958" flag="0"/>
			<psa10 value="0.0020146913540409" flag="0"/>
			<psa30 value="0.000142414929081765" flag="0"/>
		</comp>
	</station>
	<station code="PDO" name="PDO" netid="HP" source="University of Patras, Seismological Laboratory (PSLNET)" insttype="" lat="38.5986" lon="21.1833">
		<comp name="--.HNE" depth="0.0">
			<acc value="0.026442791755911" flag="0"/>
			<vel value="0.014320337748041" flag="0"/>
			<psa03 value="0.0510064101744975" flag="0"/>
			<psa10 value="0.015358393355671" flag="0"/>
			<psa30 value="0.000676610707556392" flag="0"/>
		</comp>
		<comp name="--.HNN" depth="0.0">
			<acc value="0.0230270334569668" flag="0"/>
			<vel value="0.0109321743099803" flag="0"/>
			<psa03 value="0.0515626397301938" flag="0"/>
			<psa10 value="0.0141328862343527" flag="0"/>
			<psa30 value="0.000670861055834697" flag="0"/>
		</comp>
		<comp name="--.HNZ" depth="0.0">
			<acc value="0.0183219682102942" flag="0"/>
			<vel value="0.00626576160977063" flag="0"/>
			<psa03 value="0.0232981449502399" flag="0"/>
			<psa10 value="0.00651684983432281" flag="0"/>
			<psa30 value="0.000475300288395863" flag="0"/>
		</comp>
	</station>
	<station code="PVO" name="PVO" netid="HP" source="University of Patras, Seismological Laboratory (PSLNET)" insttype="" lat="38.616" lon="21.525">
		<comp name="--.HNE" depth="0.0">
			<acc value="0.0243980615331448" flag="0"/>
			<vel value="0.00858174834164804" flag="0"/>
			<psa03 value="0.0720679981096418" flag="0"/>
			<psa10 value="0.00655885261677808" flag="0"/>
			<psa30 value="0.000466887647765888" flag="0"/>
		</comp>
		<comp name="--.HNN" depth="0.0">
			<acc value="0.0300535347863216" flag="0"/>
			<vel value="0.0127605737410698" flag="0"/>
			<psa03 value="0.0644198508323578" flag="0"/>
			<psa10 value="0.00856498707584558" flag="0"/>
			<psa30 value="0.00113846760539014" flag="0"/>
		</comp>
		<comp name="--.HNZ" depth="0.0">
			<acc value="0.0167928249563893" flag="0"/>
			<vel value="0.00663247430775477" flag="0"/>
			<psa03 value="0.0395942869896959" flag="0"/>
			<psa10 value="0.00398616625144922" flag="0"/>
			<psa30 value="0.000326712033693979" flag="0"/>
		</comp>
	</station>
	<station code="SERG" name="SERG" netid="HP" source="University of Patras, Seismological Laboratory (PSLNET)" insttype="" lat="38.4133" lon="22.0566">
		<comp name="--.HNE" depth="0.0">
			<acc value="0.00589748908910772" flag="0"/>
			<vel value="0.00302752558573453" flag="0"/>
			<psa03 value="0.00983428428555821" flag="0"/>
			<psa10 value="0.00378602463367611" flag="0"/>
			<psa30 value="0.000295775322830005" flag="0"/>
		</comp>
		<comp name="--.HNN" depth="0.0">
			<acc value="0.00631304567606225" flag="0"/>
			<vel value="0.0024959258573824" flag="0"/>
			<psa03 value="0.0177895703988061" flag="0"/>
			<psa10 value="0.00434301457839944" flag="0"/>
			<psa30 value="0.000317194710509639" flag="0"/>
		</comp>
		<comp name="--.HNZ" depth="0.0">
			<acc value="0.0025902165188177" flag="0"/>
			<vel value="0.00150014292983881" flag="0"/>
			<psa03 value="0.00533287866766509" flag="0"/>
			<psa10 value="0.00245853161565451" flag="0"/>
			<psa30 value="0.000212470637636772" flag="0"/>
		</comp>
	</station>
</stationlist>
