<?xml version="1.0" encoding="UTF-8" standalone="yes"?>
<!DOCTYPE earthquake SYSTEM "stationlist.dtd">
<stationlist created="" xmlns="ch.ethz.sed.shakemap.usgs.xml">
  <station code="AGRB" name="AGRB" netid="KO" insttype="CMG-3T" lat="39.5755" lon="42.992">
    <comp name="--.HHE">
      <acc value="0.0123631480" flag="0"/>
      <vel value="0.0111510920" flag="0"/>
      <psa03 value="0.0421609360" flag="0"/>
      <psa10 value="0.0242011216" flag="0"/>
      <psa30 value="0.0010624206" flag="0"/>
    </comp>
    <comp name="--.HHN">
      <acc value="0.0091657924" flag="0"/>
      <vel value="0.0084355577" flag="0"/>
      <psa03 value="0.0252387302" flag="0"/>
      <psa10 value="0.0151330293" flag="0"/>
      <psa30 value="0.0013373654" flag="0"/>
    </comp>
    <comp name="--.HHZ">
      <acc value="0.0080919659" flag="0"/>
      <vel value="0.0058797528" flag="0"/>
      <psa03 value="0.0257134541" flag="0"/>
      <psa10 value="0.0097398255" flag="0"/>
      <psa30 value="0.0008333180" flag="0"/>
    </comp>
  </station>
  <station code="CLDR" name="CLDR" netid="KO" insttype="CMG-3ESP" lat="39.144" lon="43.9172">
    <comp name="--.HHE">
      <acc value="0.0899351538" flag="0"/>
      <vel value="0.0503764742" flag="0"/>
      <psa03 value="0.2446728512" flag="0"/>
      <psa10 value="0.0515623574" flag="0"/>
      <psa30 value="0.0049056941" flag="0"/>
    </comp>
    <comp name="--.HHN">
      <acc value="0.0564912044" flag="0"/>
      <vel value="0.0379753822" flag="0"/>
      <psa03 value="0.1485582533" flag="0"/>
      <psa10 value="0.0366854641" flag="0"/>
      <psa30 value="0.0058226700" flag="0"/>
    </comp>
    <comp name="--.HHZ">
      <acc value="0.0501922390" flag="0"/>
      <vel value="0.0191485088" flag="0"/>
      <psa03 value="0.0782484949" flag="0"/>
      <psa10 value="0.0243111852" flag="0"/>
      <psa30 value="0.0027623944" flag="0"/>
    </comp>
  </station>
  <station code="TASB" name="TASB" netid="KO" insttype="CMG-3T" lat="39.9838" lon="44.2384">
    <comp name="--.HHN">
      <acc value="0.0431590427" flag="0"/>
      <vel value="0.0290057590" flag="0"/>
      <psa03 value="0.0985803193" flag="0"/>
      <psa10 value="0.0304624319" flag="0"/>
      <psa30 value="0.0047541363" flag="0"/>
    </comp>
    <comp name="--.HHE">
      <acc value="0.0506480969" flag="0"/>
      <vel value="0.0316667226" flag="0"/>
      <psa03 value="0.1188060637" flag="0"/>
      <psa10 value="0.0304790966" flag="0"/>
      <psa30 value="0.0084071053" flag="0"/>
    </comp>
    <comp name="--.HHZ">
      <acc value="0.0437734909" flag="0"/>
      <vel value="0.0177554530" flag="0"/>
      <psa03 value="0.0945280350" flag="0"/>
      <psa10 value="0.0236301075" flag="0"/>
      <psa30 value="0.0061011287" flag="0"/>
    </comp>
  </station>
</stationlist>
