<?xml version="1.0" encoding="UTF-8" standalone="yes"?>
<!DOCTYPE earthquake SYSTEM "stationlist.dtd">
<stationlist created="" xmlns="ch.ethz.sed.shakemap.usgs.xml">
  <station code="CLDR" name="CLDR" netid="KO" insttype="CMG-3ESP" lat="39.144" lon="43.9172">
    <comp name="--.HHZ">
      <acc value="0.0501922392" flag="0"/>
      <vel value="0.0191485085" flag="0"/>
      <psa03 value="0.0782484949" flag="0"/>
      <psa10 value="0.0243111852" flag="0"/>
      <psa30 value="0.0027623951" flag="0"/>
    </comp>
    <comp name="--.HHE">
      <acc value="0.0899351537" flag="0"/>
      <vel value="0.0503764758" flag="0"/>
      <psa03 value="0.2446728512" flag="0"/>
      <psa10 value="0.0515623574" flag="0"/>
      <psa30 value="0.0049056962" flag="0"/>
    </comp>
    <comp name="--.HHN">
      <acc value="0.0564912045" flag="0"/>
      <vel value="0.0379753824" flag="0"/>
      <psa03 value="0.1485582533" flag="0"/>
      <psa10 value="0.0366854641" flag="0"/>
      <psa30 value="0.0058226678" flag="0"/>
    </comp>
  </station>
  <station code="TASB" name="TASB" netid="KO" insttype="CMG-3T" lat="39.9838" lon="44.2384">
    <comp name="--.HHE">
      <acc value="0.0506480968" flag="0"/>
      <vel value="0.0316667234" flag="0"/>
      <psa03 value="0.1188060637" flag="0"/>
      <psa10 value="0.0304790966" flag="0"/>
      <psa30 value="0.0084070936" flag="0"/>
    </comp>
    <comp name="--.HHN">
      <acc value="0.0431590438" flag="0"/>
      <vel value="0.0290057592" flag="0"/>
      <psa03 value="0.0985803193" flag="0"/>
      <psa10 value="0.0304624319" flag="0"/>
      <psa30 value="0.0047541345" flag="0"/>
    </comp>
    <comp name="--.HHZ">
      <acc value="0.0437734901" flag="0"/>
      <vel value="0.0177554530" flag="0"/>
      <psa03 value="0.0945280350" flag="0"/>
      <psa10 value="0.0236301075" flag="0"/>
      <psa30 value="0.0061011310" flag="0"/>
    </comp>
  </station>
</stationlist>
