<stationlist created="1778136716">
	<station code="KSS1" name="KSS1" netid="HI" source="ITSAK Strong Motion Network" insttype="" lat="35.4189" lon="26.9207">
		<comp name="--.HNE" depth="0.0">
			<acc value="0.0792471638945792" flag="0"/>
			<vel value="0.0360807039142229" flag="0"/>
			<psa03 value="0.265750833855117" flag="0"/>
			<psa10 value="0.0152928408881538" flag="0"/>
			<psa30 value="0.00118448482047366" flag="0"/>
		</comp>
		<comp name="--.HNN" depth="0.0">
			<acc value="0.0753664813561393" flag="0"/>
			<vel value="0.038476137746882" flag="0"/>
			<psa03 value="0.24929909817495" flag="0"/>
			<psa10 value="0.0215931560655984" flag="0"/>
			<psa30 value="0.00126607470457116" flag="0"/>
		</comp>
		<comp name="--.HNZ" depth="0.0">
			<acc value="0.0499150535115777" flag="0"/>
			<vel value="0.0186481998142753" flag="0"/>
			<psa03 value="0.0582498327239356" flag="0"/>
			<psa10 value="0.0182170792920797" flag="0"/>
			<psa30 value="0.00102917171924207" flag="0"/>
		</comp>
	</station>
	<station code="RDI1" name="RDI1" netid="HI" source="ITSAK Strong Motion Network" insttype="" lat="36.4514" lon="28.224">
		<comp name="--.HNE" depth="0.0">
			<acc value="0.125970176206881" flag="0"/>
			<vel value="0.0598692978596634" flag="0"/>
			<psa03 value="0.478014541116901" flag="0"/>
			<psa10 value="0.0299298477055283" flag="0"/>
			<psa30 value="0.00307030797616709" flag="0"/>
		</comp>
		<comp name="--.HNN" depth="0.0">
			<acc value="0.185487102722516" flag="0"/>
			<vel value="0.105247183622862" flag="0"/>
			<psa03 value="0.783987935353541" flag="0"/>
			<psa10 value="0.0682464584930746" flag="0"/>
			<psa30 value="0.00598170625870266" flag="0"/>
		</comp>
		<comp name="--.HNZ" depth="0.0">
			<acc value="0.146904805046862" flag="0"/>
			<vel value="0.0411291774447693" flag="0"/>
			<psa03 value="0.292606154554933" flag="0"/>
			<psa10 value="0.0336804036614674" flag="0"/>
			<psa30 value="0.00174369446953482" flag="0"/>
		</comp>
	</station>
	<station code="SIT2" name="SIT2" netid="HI" source="ITSAK Strong Motion Network" insttype="" lat="35.2059" lon="26.107">
		<comp name="--.HNE" depth="0.0">
			<acc value="0.0492299759933147" flag="0"/>
			<vel value="0.0337963886003249" flag="0"/>
			<psa03 value="0.134988952772342" flag="0"/>
			<psa10 value="0.0201053931336339" flag="0"/>
			<psa30 value="0.001191639877795" flag="0"/>
		</comp>
		<comp name="--.HNN" depth="0.0">
			<acc value="0.0494682932027482" flag="0"/>
			<vel value="0.0300244168205571" flag="0"/>
			<psa03 value="0.153936082926717" flag="0"/>
			<psa10 value="0.0147219761961666" flag="0"/>
			<psa30 value="0.00113769307491712" flag="0"/>
		</comp>
		<comp name="--.HNZ" depth="0.0">
			<acc value="0.0310631040481258" flag="0"/>
			<vel value="0.0119502607846011" flag="0"/>
			<psa03 value="0.0644978195389601" flag="0"/>
			<psa10 value="0.00564249581889161" flag="0"/>
			<psa30 value="0.000394771776692914" flag="0"/>
		</comp>
	</station>
	<station code="KARP" name="KARP" netid="HL" source="National Observatory of Athens Seismic Network" insttype="" lat="35.5471" lon="27.16106">
		<comp name="--.HNE" depth="0.0">
			<acc value="0.320776074008796" flag="0"/>
			<vel value="0.0847251892562692" flag="0"/>
			<psa03 value="0.329029692435587" flag="0"/>
			<psa10 value="0.035024470199252" flag="0"/>
			<psa30 value="0.00235636505595522" flag="0"/>
		</comp>
		<comp name="--.HNN" depth="0.0">
			<acc value="0.347708502686818" flag="0"/>
			<vel value="0.102563279649725" flag="0"/>
			<psa03 value="0.581462727386676" flag="0"/>
			<psa10 value="0.113663444645561" flag="0"/>
			<psa30 value="0.00501410674330608" flag="0"/>
		</comp>
		<comp name="--.HNZ" depth="0.0">
			<acc value="0.175990924661651" flag="0"/>
			<vel value="0.0616424128124853" flag="0"/>
			<psa03 value="0.293326931469783" flag="0"/>
			<psa10 value="0.0247902972355222" flag="0"/>
			<psa30 value="0.00131571174278099" flag="0"/>
		</comp>
	</station>
	<station code="KLNA" name="KLNA" netid="HL" source="National Observatory of Athens Seismic Network" insttype="" lat="36.95708" lon="26.97274">
		<comp name="00.HNE" depth="0.0">
			<acc value="0.0313199565483783" flag="0"/>
			<vel value="0.00962151189299236" flag="0"/>
			<psa03 value="0.033838934371647" flag="0"/>
			<psa10 value="0.00396781066048324" flag="0"/>
			<psa30 value="0.000292300509307651" flag="0"/>
		</comp>
		<comp name="00.HNN" depth="0.0">
			<acc value="0.027061982285643" flag="0"/>
			<vel value="0.00888668917685877" flag="0"/>
			<psa03 value="0.0585862768865864" flag="0"/>
			<psa10 value="0.00304708622951034" flag="0"/>
			<psa30 value="0.00024117918006224" flag="0"/>
		</comp>
		<comp name="00.HNZ" depth="0.0">
			<acc value="0.022576264494722" flag="0"/>
			<vel value="0.00657584779524815" flag="0"/>
			<psa03 value="0.0282578198585581" flag="0"/>
			<psa10 value="0.00234270659906574" flag="0"/>
			<psa30 value="0.000198950406050628" flag="0"/>
		</comp>
	</station>
	<station code="NISR" name="NISR" netid="HL" source="National Observatory of Athens Seismic Network" insttype="" lat="36.6106" lon="27.131">
		<comp name="--.HNE" depth="0.0">
			<acc value="0.0164680152770451" flag="0"/>
			<vel value="0.00645377065603144" flag="0"/>
			<psa03 value="0.0530569887234422" flag="0"/>
			<psa10 value="0.00432887801694181" flag="0"/>
			<psa30 value="0.000632843172755371" flag="0"/>
		</comp>
		<comp name="--.HNN" depth="0.0">
			<acc value="0.0124368826008801" flag="0"/>
			<vel value="0.00509981000115757" flag="0"/>
			<psa03 value="0.0277081714678584" flag="0"/>
			<psa10 value="0.00291468839630198" flag="0"/>
			<psa30 value="0.000458584649814775" flag="0"/>
		</comp>
		<comp name="--.HNZ" depth="0.0">
			<acc value="0.00814925523234425" flag="0"/>
			<vel value="0.00272312398991291" flag="0"/>
			<psa03 value="0.0205023008851439" flag="0"/>
			<psa10 value="0.00403130611675843" flag="0"/>
			<psa30 value="0.000386340462951328" flag="0"/>
		</comp>
	</station>
	<station code="RODB" name="RODB" netid="HL" source="National Observatory of Athens Seismic Network" insttype="" lat="36.4471" lon="28.22116">
		<comp name="00.HNE" depth="0.0">
			<acc value="0.231141481342056" flag="0"/>
			<vel value="0.113233619936509" flag="0"/>
			<psa03 value="1.00376966147991" flag="0"/>
			<psa10 value="0.0618904924412321" flag="0"/>
			<psa30 value="0.00519123431048379" flag="0"/>
		</comp>
		<comp name="00.HNN" depth="0.0">
			<acc value="0.148512796610308" flag="0"/>
			<vel value="0.071259601958234" flag="0"/>
			<psa03 value="0.363913190796356" flag="0"/>
			<psa10 value="0.0413727857438922" flag="0"/>
			<psa30 value="0.00454702955170527" flag="0"/>
		</comp>
		<comp name="00.HNZ" depth="0.0">
			<acc value="0.360882454296546" flag="0"/>
			<vel value="0.0673971684923925" flag="0"/>
			<psa03 value="0.21084275896452" flag="0"/>
			<psa10 value="0.0322201844291005" flag="0"/>
			<psa30 value="0.00164044356717063" flag="0"/>
		</comp>
	</station>
</stationlist>
