<?xml version="1.0" encoding="UTF-8" standalone="yes"?>
<!DOCTYPE earthquake SYSTEM "stationlist.dtd">
<stationlist created="" xmlns="ch.ethz.sed.shakemap.usgs.xml">
  <station code="KARP" name="KARP" netid="GE" insttype="STS-2/N" lat="35.5471" lon="27.1611">
    <comp name="--.HHE">
      <acc value="0.3693312997" flag="0"/>
      <vel value="0.0999352456" flag="0"/>
      <psa03 value="0.4519868856" flag="0"/>
      <psa10 value="0.0340367917" flag="0"/>
      <psa30 value="0.0029217095" flag="0"/>
    </comp>
    <comp name="--.HHZ">
      <acc value="0.2303882616" flag="0"/>
      <vel value="0.0769823820" flag="0"/>
      <psa03 value="0.3680299258" flag="0"/>
      <psa10 value="0.0318742443" flag="0"/>
      <psa30 value="0.0016330879" flag="0"/>
    </comp>
    <comp name="--.HHN">
      <acc value="0.4368018720" flag="0"/>
      <vel value="0.1176161450" flag="0"/>
      <psa03 value="0.6600558526" flag="0"/>
      <psa10 value="0.1354698670" flag="0"/>
      <psa30 value="0.0058180061" flag="0"/>
    </comp>
  </station>
  <station code="RDI1" name="RDI1" netid="HI" insttype="CMG-5TD,ACCELEROMETER,GURALP" lat="36.4514" lon="28.224">
    <comp name="--.HNZ">
      <acc value="0.1478984755" flag="0"/>
      <vel value="0.0407580213" flag="0"/>
      <psa03 value="0.2884898080" flag="0"/>
      <psa10 value="0.0337192872" flag="0"/>
      <psa30 value="0.0016766397" flag="0"/>
    </comp>
    <comp name="--.HNN">
      <acc value="0.1845943682" flag="0"/>
      <vel value="0.1046609646" flag="0"/>
      <psa03 value="0.7771575427" flag="0"/>
      <psa10 value="0.0680059028" flag="0"/>
      <psa30 value="0.0060579768" flag="0"/>
    </comp>
    <comp name="--.HNE">
      <acc value="0.1256213287" flag="0"/>
      <vel value="0.0594516706" flag="0"/>
      <psa03 value="0.4753595385" flag="0"/>
      <psa10 value="0.0299173278" flag="0"/>
      <psa30 value="0.0028899408" flag="0"/>
    </comp>
  </station>
  <station code="ARG" name="ARG" netid="HL" insttype="LE3D20_DR24" lat="36.2136" lon="28.1212">
    <comp name="--.HHE">
      <acc value="0.0978631276" flag="0"/>
      <vel value="0.0392756334" flag="0"/>
      <psa03 value="0.3000898087" flag="0"/>
      <psa10 value="0.0156728882" flag="0"/>
      <psa30 value="0.0014893474" flag="0"/>
    </comp>
    <comp name="--.HHN">
      <acc value="0.1075026449" flag="0"/>
      <vel value="0.0400108695" flag="0"/>
      <psa03 value="0.1504398171" flag="0"/>
      <psa10 value="0.0256447169" flag="0"/>
      <psa30 value="0.0019766671" flag="0"/>
    </comp>
    <comp name="--.HHZ">
      <acc value="0.0700175756" flag="0"/>
      <vel value="0.0214019757" flag="0"/>
      <psa03 value="0.1214872214" flag="0"/>
      <psa10 value="0.0131924412" flag="0"/>
      <psa30 value="0.0009772332" flag="0"/>
    </comp>
  </station>
  <station code="KARP" name="KARP" netid="HL" insttype="120" lat="35.5471" lon="27.1611">
    <comp name="--.HHZ">
      <acc value="0.2144739421" flag="0"/>
      <vel value="0.0751924479" flag="0"/>
      <psa03 value="0.3583103212" flag="0"/>
      <psa10 value="0.0316779233" flag="0"/>
      <psa30 value="0.0015833178" flag="0"/>
    </comp>
    <comp name="--.HHE">
      <acc value="0.3549755215" flag="0"/>
      <vel value="0.0961434381" flag="0"/>
      <psa03 value="0.4411428092" flag="0"/>
      <psa10 value="0.0336399528" flag="0"/>
      <psa30 value="0.0028597972" flag="0"/>
    </comp>
    <comp name="--.HHN">
      <acc value="0.4148726235" flag="0"/>
      <vel value="0.1145871567" flag="0"/>
      <psa03 value="0.6416810237" flag="0"/>
      <psa10 value="0.1342452456" flag="0"/>
      <psa30 value="0.0057658278" flag="0"/>
    </comp>
  </station>
  <station code="RODB" name="RODB" netid="HL" insttype="CMG-5" lat="36.4471" lon="28.2212">
    <comp name="00.HNE">
      <acc value="0.2318131916" flag="0"/>
      <vel value="0.1130186028" flag="0"/>
      <psa03 value="1.0028150989" flag="0"/>
      <psa10 value="0.0618632385" flag="0"/>
      <psa30 value="0.0052558729" flag="0"/>
    </comp>
    <comp name="00.HNN">
      <acc value="0.1484540318" flag="0"/>
      <vel value="0.0710797547" flag="0"/>
      <psa03 value="0.3640652017" flag="0"/>
      <psa10 value="0.0413521319" flag="0"/>
      <psa30 value="0.0046392252" flag="0"/>
    </comp>
    <comp name="00.HNZ">
      <acc value="0.3629903811" flag="0"/>
      <vel value="0.0674491021" flag="0"/>
      <psa03 value="0.2102954645" flag="0"/>
      <psa10 value="0.0322516492" flag="0"/>
      <psa30 value="0.0016325599" flag="0"/>
    </comp>
  </station>
</stationlist>
