<?xml version="1.0" encoding="UTF-8" standalone="yes"?>
<!DOCTYPE earthquake SYSTEM "stationlist.dtd">
<stationlist created="" xmlns="ch.ethz.sed.shakemap.usgs.xml">
  <station code="BMYO" name="BMYO" netid="KO" insttype="CMG-5T" commtype="DIG" lat="39.8098" lon="26.6009">
    <comp name="--.HNZ">
      <acc value="0.0186037453" flag="0"/>
      <vel value="0.0135697076" flag="0"/>
      <psa03 value="0.0369039994" flag="0"/>
      <psa10 value="0.0212427300" flag="0"/>
      <psa30 value="0.0030219318" flag="0"/>
    </comp>
    <comp name="--.HNE">
      <acc value="0.0360073521" flag="0"/>
      <vel value="0.0213924262" flag="0"/>
      <psa03 value="0.1304499530" flag="0"/>
      <psa10 value="0.0305541940" flag="0"/>
      <psa30 value="0.0084533062" flag="0"/>
    </comp>
    <comp name="--.HNN">
      <acc value="0.0340106755" flag="0"/>
      <vel value="0.0232166300" flag="0"/>
      <psa03 value="0.0761781807" flag="0"/>
      <psa10 value="0.0187065243" flag="0"/>
      <psa30 value="0.0072542520" flag="0"/>
    </comp>
  </station>
  <station code="EZN" name="EZN" netid="KO" insttype="CMG-3ESP" commtype="DIG" lat="39.8255" lon="26.3246">
    <comp name="--.HHE">
      <acc value="0.0306933199" flag="0"/>
      <vel value="0.0268823335" flag="0"/>
      <psa03 value="0.0519150947" flag="0"/>
      <psa10 value="0.0460256025" flag="0"/>
      <psa30 value="0.0021870625" flag="0"/>
    </comp>
    <comp name="--.HHN">
      <acc value="0.0430043317" flag="0"/>
      <vel value="0.0133441367" flag="0"/>
      <psa03 value="0.0406012368" flag="0"/>
      <psa10 value="0.0193706425" flag="0"/>
      <psa30 value="0.0023488981" flag="0"/>
    </comp>
    <comp name="--.HHZ">
      <acc value="0.0175862070" flag="0"/>
      <vel value="0.0192363275" flag="0"/>
      <psa03 value="0.0359222966" flag="0"/>
      <psa10 value="0.0392037720" flag="0"/>
      <psa30 value="0.0027876318" flag="0"/>
    </comp>
  </station>
  <station code="GELI" name="GELI" netid="KO" insttype="CMG-3ESP" commtype="DIG" lat="40.398" lon="26.4742">
    <comp name="--.HHZ">
      <acc value="0.0101308269" flag="0"/>
      <vel value="0.0077941833" flag="0"/>
      <psa03 value="0.0232118455" flag="0"/>
      <psa10 value="0.0101110714" flag="0"/>
      <psa30 value="0.0014926428" flag="0"/>
    </comp>
  </station>
  <station code="LAPK" name="LAPK" netid="KO" insttype="CMG-5T" commtype="DIG" lat="40.3151" lon="26.6425">
    <comp name="--.HNE">
      <acc value="0.0380631838" flag="0"/>
      <vel value="0.0440083404" flag="0"/>
      <psa03 value="0.0992524421" flag="0"/>
      <psa10 value="0.0686599423" flag="0"/>
      <psa30 value="0.0094342303" flag="0"/>
    </comp>
    <comp name="--.HNN">
      <acc value="0.0381484260" flag="0"/>
      <vel value="0.0325972492" flag="0"/>
      <psa03 value="0.0891003326" flag="0"/>
      <psa10 value="0.0711286338" flag="0"/>
      <psa30 value="0.0089105037" flag="0"/>
    </comp>
    <comp name="--.HNZ">
      <acc value="0.0258524283" flag="0"/>
      <vel value="0.0214575416" flag="0"/>
      <psa03 value="0.0560665640" flag="0"/>
      <psa10 value="0.0262212724" flag="0"/>
      <psa30 value="0.0043489057" flag="0"/>
    </comp>
  </station>
</stationlist>
