<?xml version="1.0" encoding="UTF-8" standalone="yes"?>
<!DOCTYPE earthquake SYSTEM "stationlist.dtd">
<stationlist created="" xmlns="ch.ethz.sed.shakemap.usgs.xml">
  <station code="DRA2" name="DRA2" netid="HI" insttype="CMG-5TD,ACCELEROMETER,GURALP" commtype="DIG" lat="41.1593" lon="24.1485">
    <comp name="--.HNN">
      <acc value="0.1268668652" flag="0"/>
      <vel value="0.0440261558" flag="0"/>
      <psa03 value="0.1457300567" flag="0"/>
      <psa10 value="0.0418017585" flag="0"/>
      <psa30 value="0.0032972744" flag="0"/>
    </comp>
    <comp name="--.HNE">
      <acc value="0.1139402195" flag="0"/>
      <vel value="0.0596832827" flag="0"/>
      <psa03 value="0.3167875696" flag="0"/>
      <psa10 value="0.0875545661" flag="0"/>
      <psa30 value="0.0049450618" flag="0"/>
    </comp>
    <comp name="--.HNZ">
      <acc value="0.1242756968" flag="0"/>
      <vel value="0.0355030455" flag="0"/>
      <psa03 value="0.1410084194" flag="0"/>
      <psa10 value="0.0300729750" flag="0"/>
      <psa30 value="0.0014069996" flag="0"/>
    </comp>
  </station>
  <station code="KMT1" name="KMT1" netid="HI" insttype="unknown" commtype="DIG" lat="41.1159" lon="25.4066">
    <comp name="--.HNN">
      <acc value="0.1173248821" flag="0"/>
      <vel value="0.0778803664" flag="0"/>
      <psa03 value="0.3051021500" flag="0"/>
      <psa10 value="0.1057278219" flag="0"/>
      <psa30 value="0.0095826113" flag="0"/>
    </comp>
    <comp name="--.HNE">
      <acc value="0.0616083654" flag="0"/>
      <vel value="0.0452024196" flag="0"/>
      <psa03 value="0.1831875769" flag="0"/>
      <psa10 value="0.0844621417" flag="0"/>
      <psa30 value="0.0097321644" flag="0"/>
    </comp>
    <comp name="--.HNZ">
      <acc value="0.0599923762" flag="0"/>
      <vel value="0.0311257265" flag="0"/>
      <psa03 value="0.1044449069" flag="0"/>
      <psa10 value="0.0417060611" flag="0"/>
      <psa30 value="0.0084276151" flag="0"/>
    </comp>
  </station>
  <station code="PLN1" name="PLN1" netid="HI" insttype="CMG-5TD,ACCELEROMETER,GURALP" commtype="DIG" lat="39.998" lon="23.575">
    <comp name="--.HNN">
      <acc value="0.1195874553" flag="0"/>
      <vel value="0.0719891159" flag="0"/>
      <psa03 value="0.3809976278" flag="0"/>
      <psa10 value="0.0891901181" flag="0"/>
      <psa30 value="0.0078691970" flag="0"/>
    </comp>
    <comp name="--.HNE">
      <acc value="0.0856563171" flag="0"/>
      <vel value="0.0792689340" flag="0"/>
      <psa03 value="0.2248225070" flag="0"/>
      <psa10 value="0.1179502977" flag="0"/>
      <psa30 value="0.0074135390" flag="0"/>
    </comp>
    <comp name="--.HNZ">
      <acc value="0.0615284270" flag="0"/>
      <vel value="0.0337356126" flag="0"/>
      <psa03 value="0.1705495921" flag="0"/>
      <psa10 value="0.0440738172" flag="0"/>
      <psa30 value="0.0022454733" flag="0"/>
    </comp>
  </station>
  <station code="SGR1" name="SGR1" netid="HI" insttype="unknown" commtype="DIG" lat="39.2114" lon="25.8552">
    <comp name="--.HNE">
      <acc value="0.0429638696" flag="0"/>
      <vel value="0.0336006585" flag="0"/>
      <psa03 value="0.0612723405" flag="0"/>
      <psa10 value="0.0694091810" flag="0"/>
      <psa30 value="0.0060295365" flag="0"/>
    </comp>
    <comp name="--.HNZ">
      <acc value="0.0250769491" flag="0"/>
      <vel value="0.0163255098" flag="0"/>
      <psa03 value="0.0523085740" flag="0"/>
      <psa10 value="0.0178707175" flag="0"/>
      <psa30 value="0.0025705057" flag="0"/>
    </comp>
    <comp name="--.HNN">
      <acc value="0.0454089117" flag="0"/>
      <vel value="0.0435720338" flag="0"/>
      <psa03 value="0.1088026883" flag="0"/>
      <psa10 value="0.0517816112" flag="0"/>
      <psa30 value="0.0073707717" flag="0"/>
    </comp>
  </station>
  <station code="SKY1" name="SKY1" netid="HI" insttype="CMG-5TD,ACCELEROMETER,GURALP" commtype="DIG" lat="38.9045" lon="24.5646">
    <comp name="--.HNN">
      <acc value="0.0490087947" flag="0"/>
      <vel value="0.0357907937" flag="0"/>
      <psa03 value="0.1543577887" flag="0"/>
      <psa10 value="0.0251473593" flag="0"/>
      <psa30 value="0.0020102364" flag="0"/>
    </comp>
    <comp name="--.HNE">
      <acc value="0.0476420209" flag="0"/>
      <vel value="0.0261734977" flag="0"/>
      <psa03 value="0.1967220367" flag="0"/>
      <psa10 value="0.0192723964" flag="0"/>
      <psa30 value="0.0015106634" flag="0"/>
    </comp>
    <comp name="--.HNZ">
      <acc value="0.0264293113" flag="0"/>
      <vel value="0.0136348728" flag="0"/>
      <psa03 value="0.0784082610" flag="0"/>
      <psa10 value="0.0123246547" flag="0"/>
      <psa30 value="0.0014469423" flag="0"/>
    </comp>
  </station>
  <station code="EFSA" name="EFSA" netid="HL" insttype="CMG-5" commtype="DIG" lat="39.5401" lon="24.9886">
    <comp name="00.HNE">
      <acc value="0.1437588774" flag="0"/>
      <vel value="0.0676730355" flag="0"/>
      <psa03 value="0.1762169314" flag="0"/>
      <psa10 value="0.0890978252" flag="0"/>
      <psa30 value="0.0053240768" flag="0"/>
    </comp>
    <comp name="00.HNZ">
      <acc value="0.0750705634" flag="0"/>
      <vel value="0.0334151718" flag="0"/>
      <psa03 value="0.1702574521" flag="0"/>
      <psa10 value="0.0515935547" flag="0"/>
      <psa30 value="0.0022311063" flag="0"/>
    </comp>
    <comp name="00.HNN">
      <acc value="0.1273046254" flag="0"/>
      <vel value="0.0709010910" flag="0"/>
      <psa03 value="0.1916969125" flag="0"/>
      <psa10 value="0.0592593815" flag="0"/>
      <psa30 value="0.0059830102" flag="0"/>
    </comp>
  </station>
  <station code="LIA" name="LIA" netid="HL" insttype="60s" commtype="DIG" lat="39.8972" lon="25.1806">
    <comp name="--.HHE">
      <acc value="0.5341655980" flag="0"/>
      <vel value="0.2514321659" flag="0"/>
      <psa03 value="0.8562365033" flag="0"/>
      <psa10 value="0.2209010036" flag="0"/>
      <psa30 value="0.0163497589" flag="0"/>
    </comp>
    <comp name="--.HHZ">
      <acc value="0.4513721003" flag="0"/>
      <vel value="0.1666959376" flag="0"/>
      <psa03 value="0.5224457422" flag="0"/>
      <psa10 value="0.0786922926" flag="0"/>
      <psa30 value="0.0056951962" flag="0"/>
    </comp>
    <comp name="--.HHN">
      <acc value="0.6999044801" flag="0"/>
      <vel value="0.2523092600" flag="0"/>
      <psa03 value="0.6767704864" flag="0"/>
      <psa10 value="0.2021642069" flag="0"/>
      <psa30 value="0.0170857326" flag="0"/>
    </comp>
  </station>
  <station code="PLG" name="PLG" netid="HL" insttype="120" commtype="DIG" lat="40.3733" lon="23.4444">
    <comp name="--.HHE">
      <acc value="0.0427681138" flag="0"/>
      <vel value="0.0177172349" flag="0"/>
      <psa03 value="0.0819859430" flag="0"/>
      <psa10 value="0.0163678069" flag="0"/>
      <psa30 value="0.0016154082" flag="0"/>
    </comp>
    <comp name="--.HHN">
      <acc value="0.0333066964" flag="0"/>
      <vel value="0.0218142030" flag="0"/>
      <psa03 value="0.1473747618" flag="0"/>
      <psa10 value="0.0259999239" flag="0"/>
      <psa30 value="0.0014220726" flag="0"/>
    </comp>
    <comp name="--.HHZ">
      <acc value="0.0350226515" flag="0"/>
      <vel value="0.0184282430" flag="0"/>
      <psa03 value="0.0892998945" flag="0"/>
      <psa10 value="0.0137830683" flag="0"/>
      <psa30 value="0.0016220550" flag="0"/>
    </comp>
  </station>
  <station code="PRAS" name="PRAS" netid="HL" insttype="120" commtype="DIG" lat="41.3524" lon="24.55">
    <comp name="--.HHN">
      <acc value="0.0467774923" flag="0"/>
      <vel value="0.0173184177" flag="0"/>
      <psa03 value="0.0824627590" flag="0"/>
      <psa10 value="0.0168813028" flag="0"/>
      <psa30 value="0.0011193052" flag="0"/>
    </comp>
    <comp name="--.HHE">
      <acc value="0.0335327846" flag="0"/>
      <vel value="0.0238033862" flag="0"/>
      <psa03 value="0.1069107232" flag="0"/>
      <psa10 value="0.0291358498" flag="0"/>
      <psa30 value="0.0023620630" flag="0"/>
    </comp>
    <comp name="--.HHZ">
      <acc value="0.0241323339" flag="0"/>
      <vel value="0.0154268124" flag="0"/>
      <psa03 value="0.0459584638" flag="0"/>
      <psa10 value="0.0293054678" flag="0"/>
      <psa30 value="0.0014278428" flag="0"/>
    </comp>
  </station>
  <station code="RDO" name="RDO" netid="HL" insttype="120" commtype="DIG" lat="41.145" lon="25.5355">
    <comp name="--.HHN">
      <acc value="0.0193175403" flag="0"/>
      <vel value="0.0093601552" flag="0"/>
      <psa03 value="0.0294791042" flag="0"/>
      <psa10 value="0.0148199602" flag="0"/>
      <psa30 value="0.0016482911" flag="0"/>
    </comp>
    <comp name="--.HHE">
      <acc value="0.0168056563" flag="0"/>
      <vel value="0.0076265459" flag="0"/>
      <psa03 value="0.0333593679" flag="0"/>
      <psa10 value="0.0105061659" flag="0"/>
      <psa30 value="0.0010285675" flag="0"/>
    </comp>
    <comp name="--.HHZ">
      <acc value="0.0115285290" flag="0"/>
      <vel value="0.0055241011" flag="0"/>
      <psa03 value="0.0168113085" flag="0"/>
      <psa10 value="0.0127940201" flag="0"/>
      <psa30 value="0.0012747797" flag="0"/>
    </comp>
  </station>
  <station code="ALN" name="ALN" netid="HT" insttype="100" commtype="DIG" lat="40.885" lon="26.046">
    <comp name="--.HHE">
      <acc value="0.0290221918" flag="0"/>
      <vel value="0.0161143469" flag="0"/>
      <psa03 value="0.0588123739" flag="0"/>
      <psa10 value="0.0156369680" flag="0"/>
      <psa30 value="0.0027762162" flag="0"/>
    </comp>
    <comp name="--.HHN">
      <acc value="0.0258903960" flag="0"/>
      <vel value="0.0158702736" flag="0"/>
      <psa03 value="0.0576451458" flag="0"/>
      <psa10 value="0.0203045953" flag="0"/>
      <psa30 value="0.0027425624" flag="0"/>
    </comp>
    <comp name="--.HHZ">
      <acc value="0.0203926550" flag="0"/>
      <vel value="0.0123186021" flag="0"/>
      <psa03 value="0.0468464193" flag="0"/>
      <psa10 value="0.0083080429" flag="0"/>
      <psa30 value="0.0014763973" flag="0"/>
    </comp>
  </station>
  <station code="AOS2" name="AOS2" netid="HT" insttype="100" commtype="DIG" lat="39.1478" lon="23.8436">
    <comp name="--.HHN">
      <acc value="0.0421205116" flag="0"/>
      <vel value="0.0386677192" flag="0"/>
      <psa03 value="0.1370353716" flag="0"/>
      <psa10 value="0.0321066890" flag="0"/>
      <psa30 value="0.0020198223" flag="0"/>
    </comp>
    <comp name="--.HHZ">
      <acc value="0.0278549491" flag="0"/>
      <vel value="0.0204034207" flag="0"/>
      <psa03 value="0.0662965678" flag="0"/>
      <psa10 value="0.0284793679" flag="0"/>
      <psa30 value="0.0016479575" flag="0"/>
    </comp>
    <comp name="--.HHE">
      <acc value="0.0354921878" flag="0"/>
      <vel value="0.0274970824" flag="0"/>
      <psa03 value="0.1110702418" flag="0"/>
      <psa10 value="0.0392137256" flag="0"/>
      <psa30 value="0.0026239570" flag="0"/>
    </comp>
  </station>
  <station code="HMT1" name="HMT1" netid="HT" insttype="Compact," commtype="DIG" lat="40.2581" lon="24.2476">
    <comp name="--.HHE">
      <acc value="0.3225642483" flag="0"/>
      <vel value="0.1008628163" flag="0"/>
      <psa03 value="0.3175367782" flag="0"/>
      <psa10 value="0.0220502071" flag="0"/>
      <psa30 value="0.0029099080" flag="0"/>
    </comp>
    <comp name="--.HHN">
      <acc value="0.2905227718" flag="0"/>
      <vel value="0.1051215672" flag="0"/>
      <psa03 value="0.5949148187" flag="0"/>
      <psa10 value="0.0259310264" flag="0"/>
      <psa30 value="0.0024356614" flag="0"/>
    </comp>
    <comp name="--.HHZ">
      <acc value="0.3158917416" flag="0"/>
      <vel value="0.1131715668" flag="0"/>
      <psa03 value="0.1898721623" flag="0"/>
      <psa10 value="0.0297844870" flag="0"/>
      <psa30 value="0.0028692016" flag="0"/>
    </comp>
  </station>
  <station code="KAVA" name="KAVA" netid="HT" insttype="Compact," commtype="DIG" lat="40.9967" lon="24.5137">
    <comp name="--.HHZ">
      <acc value="0.1369664158" flag="0"/>
      <vel value="0.0390222022" flag="0"/>
      <psa03 value="0.2582863404" flag="0"/>
      <psa10 value="0.0275017286" flag="0"/>
      <psa30 value="0.0027603382" flag="0"/>
    </comp>
    <comp name="--.HHN">
      <acc value="0.1724825638" flag="0"/>
      <vel value="0.0601857680" flag="0"/>
      <psa03 value="0.4006869770" flag="0"/>
      <psa10 value="0.0643649703" flag="0"/>
      <psa30 value="0.0068566742" flag="0"/>
    </comp>
    <comp name="--.HHE">
      <acc value="0.2111521298" flag="0"/>
      <vel value="0.0829038586" flag="0"/>
      <psa03 value="0.3903392946" flag="0"/>
      <psa10 value="0.0518986753" flag="0"/>
      <psa30 value="0.0090949290" flag="0"/>
    </comp>
  </station>
  <station code="KOKK" name="KOKK" netid="HT" insttype="Compact," commtype="DIG" lat="40.8178" lon="23.9992">
    <comp name="--.HHN">
      <acc value="0.0627470262" flag="0"/>
      <vel value="0.0567389030" flag="0"/>
      <psa03 value="0.1118588748" flag="0"/>
      <psa10 value="0.1361461171" flag="0"/>
      <psa30 value="0.0088711467" flag="0"/>
    </comp>
    <comp name="--.HHE">
      <acc value="0.0500473504" flag="0"/>
      <vel value="0.0338923118" flag="0"/>
      <psa03 value="0.1106839200" flag="0"/>
      <psa10 value="0.0463768439" flag="0"/>
      <psa30 value="0.0041386216" flag="0"/>
    </comp>
    <comp name="--.HHZ">
      <acc value="0.0407650148" flag="0"/>
      <vel value="0.0298438751" flag="0"/>
      <psa03 value="0.1089859093" flag="0"/>
      <psa10 value="0.0547997304" flag="0"/>
      <psa30 value="0.0028403276" flag="0"/>
    </comp>
  </station>
  <station code="LES3" name="LES3" netid="HT" insttype="" commtype="DIG" lat="39.3032" lon="26.1807">
    <comp name="--.HHN">
      <acc value="0.0372849208" flag="0"/>
      <vel value="0.0328314854" flag="0"/>
      <psa03 value="0.1215126036" flag="0"/>
      <psa10 value="0.0471591006" flag="0"/>
      <psa30 value="0.0044381605" flag="0"/>
    </comp>
    <comp name="--.HHE">
      <acc value="0.0210303980" flag="0"/>
      <vel value="0.0170328906" flag="0"/>
      <psa03 value="0.0623326336" flag="0"/>
      <psa10 value="0.0195198867" flag="0"/>
      <psa30 value="0.0023232996" flag="0"/>
    </comp>
    <comp name="--.HHZ">
      <acc value="0.0121630306" flag="0"/>
      <vel value="0.0107220394" flag="0"/>
      <psa03 value="0.0433235794" flag="0"/>
      <psa10 value="0.0175580506" flag="0"/>
      <psa30 value="0.0010745424" flag="0"/>
    </comp>
  </station>
  <station code="OUR" name="OUR" netid="HT" insttype="100" commtype="DIG" lat="40.3325" lon="23.9791">
    <comp name="--.HHZ">
      <acc value="0.1135220109" flag="0"/>
      <vel value="0.0465219633" flag="0"/>
      <psa03 value="0.1840051943" flag="0"/>
      <psa10 value="0.0413285451" flag="0"/>
      <psa30 value="0.0040560584" flag="0"/>
    </comp>
    <comp name="--.HHN">
      <acc value="0.1260807631" flag="0"/>
      <vel value="0.0690552813" flag="0"/>
      <psa03 value="0.3056485459" flag="0"/>
      <psa10 value="0.0823374084" flag="0"/>
      <psa30 value="0.0042097432" flag="0"/>
    </comp>
    <comp name="--.HHE">
      <acc value="0.1368141371" flag="0"/>
      <vel value="0.0669108722" flag="0"/>
      <psa03 value="0.4041497244" flag="0"/>
      <psa10 value="0.0517293318" flag="0"/>
      <psa30 value="0.0033490833" flag="0"/>
    </comp>
  </station>
  <station code="PAIG" name="PAIG" netid="HT" insttype="100" commtype="DIG" lat="39.9363" lon="23.6768">
    <comp name="--.HHE">
      <acc value="0.0476564025" flag="0"/>
      <vel value="0.0210102303" flag="0"/>
      <psa03 value="0.0890523813" flag="0"/>
      <psa10 value="0.0213383220" flag="0"/>
      <psa30 value="0.0034393448" flag="0"/>
    </comp>
    <comp name="--.HHZ">
      <acc value="0.0327534634" flag="0"/>
      <vel value="0.0151203915" flag="0"/>
      <psa03 value="0.0497103365" flag="0"/>
      <psa10 value="0.0247155152" flag="0"/>
      <psa30 value="0.0018325064" flag="0"/>
    </comp>
    <comp name="--.HHN">
      <acc value="0.0347051843" flag="0"/>
      <vel value="0.0277301333" flag="0"/>
      <psa03 value="0.0852952418" flag="0"/>
      <psa10 value="0.0324682189" flag="0"/>
      <psa30 value="0.0041525712" flag="0"/>
    </comp>
  </station>
  <station code="SIGR" name="SIGR" netid="HT" insttype="100" commtype="DIG" lat="39.2114" lon="25.8553">
    <comp name="--.HHE">
      <acc value="0.0453768469" flag="0"/>
      <vel value="0.0355906785" flag="0"/>
      <psa03 value="0.0639771497" flag="0"/>
      <psa10 value="0.0765885577" flag="0"/>
      <psa30 value="0.0066217379" flag="0"/>
    </comp>
    <comp name="--.HHN">
      <acc value="0.0455257498" flag="0"/>
      <vel value="0.0450799709" flag="0"/>
      <psa03 value="0.1191809396" flag="0"/>
      <psa10 value="0.0552643310" flag="0"/>
      <psa30 value="0.0071950872" flag="0"/>
    </comp>
    <comp name="--.HHZ">
      <acc value="0.0280597451" flag="0"/>
      <vel value="0.0192956458" flag="0"/>
      <psa03 value="0.0528379415" flag="0"/>
      <psa10 value="0.0189902962" flag="0"/>
      <psa30 value="0.0026699221" flag="0"/>
    </comp>
  </station>
  <station code="SOH" name="SOH" netid="HT" insttype="120P," commtype="DIG" lat="40.8206" lon="23.3557">
    <comp name="--.HHZ">
      <acc value="0.0237122814" flag="0"/>
      <vel value="0.0258737711" flag="0"/>
      <psa03 value="0.0460553116" flag="0"/>
      <psa10 value="0.0294146262" flag="0"/>
      <psa30 value="0.0016029146" flag="0"/>
    </comp>
    <comp name="--.HHN">
      <acc value="0.0324279720" flag="0"/>
      <vel value="0.0309476620" flag="0"/>
      <psa03 value="0.0695210421" flag="0"/>
      <psa10 value="0.0426222290" flag="0"/>
      <psa30 value="0.0033291518" flag="0"/>
    </comp>
    <comp name="--.HHE">
      <acc value="0.0436440872" flag="0"/>
      <vel value="0.0373117978" flag="0"/>
      <psa03 value="0.0773567578" flag="0"/>
      <psa10 value="0.0370725120" flag="0"/>
      <psa30 value="0.0025010351" flag="0"/>
    </comp>
  </station>
  <station code="THAS" name="THAS" netid="HT" insttype="100" commtype="DIG" lat="40.6064" lon="24.7194">
    <comp name="--.HHE">
      <acc value="0.2090002019" flag="0"/>
      <vel value="0.0625056156" flag="0"/>
      <psa03 value="0.3405569781" flag="0"/>
      <psa10 value="0.0353113854" flag="0"/>
      <psa30 value="0.0033893116" flag="0"/>
    </comp>
    <comp name="--.HHN">
      <acc value="0.1575223168" flag="0"/>
      <vel value="0.0461388269" flag="0"/>
      <psa03 value="0.1969196287" flag="0"/>
      <psa10 value="0.0251503623" flag="0"/>
      <psa30 value="0.0018222053" flag="0"/>
    </comp>
    <comp name="--.HHZ">
      <acc value="0.1726371455" flag="0"/>
      <vel value="0.0364416734" flag="0"/>
      <psa03 value="0.1372227157" flag="0"/>
      <psa10 value="0.0382168388" flag="0"/>
      <psa30 value="0.0027545273" flag="0"/>
    </comp>
  </station>
  <station code="ENEZ" name="ENEZ" netid="KO" insttype="CMG-3T" commtype="DIG" lat="40.7362" lon="26.153">
    <comp name="--.HHE">
      <acc value="0.1231082299" flag="0"/>
      <vel value="0.0529714994" flag="0"/>
      <psa03 value="0.2462217754" flag="0"/>
      <psa10 value="0.0278660123" flag="0"/>
      <psa30 value="0.0053798865" flag="0"/>
    </comp>
  </station>
  <station code="EZN" name="EZN" netid="KO" insttype="CMG-3ESP" commtype="DIG" lat="39.8255" lon="26.3246">
    <comp name="--.HHN">
      <acc value="0.0430043317" flag="0"/>
      <vel value="0.0133441376" flag="0"/>
      <psa03 value="0.0406012368" flag="0"/>
      <psa10 value="0.0193706425" flag="0"/>
      <psa30 value="0.0023488971" flag="0"/>
    </comp>
    <comp name="--.HHZ">
      <acc value="0.0175862069" flag="0"/>
      <vel value="0.0192363280" flag="0"/>
      <psa03 value="0.0359222966" flag="0"/>
      <psa10 value="0.0392037720" flag="0"/>
      <psa30 value="0.0027876298" flag="0"/>
    </comp>
