<?xml version="1.0" encoding="UTF-8" standalone="yes"?>
<!DOCTYPE earthquake SYSTEM "stationlist.dtd">
<stationlist created="" xmlns="ch.ethz.sed.shakemap.usgs.xml">
  <station code="DRA2" name="DRA2" netid="HI" insttype="CMG-5TD,ACCELEROMETER,GURALP" commtype="DIG" lat="41.1593" lon="24.1485">
    <comp name="--.HNN">
      <acc value="0.1268668652" flag="0"/>
      <vel value="0.0440261557" flag="0"/>
      <psa03 value="0.1457300567" flag="0"/>
      <psa10 value="0.0418017585" flag="0"/>
      <psa30 value="0.0032972654" flag="0"/>
    </comp>
    <comp name="--.HNZ">
      <acc value="0.1242756968" flag="0"/>
      <vel value="0.0355030455" flag="0"/>
      <psa03 value="0.1410084194" flag="0"/>
      <psa10 value="0.0300729750" flag="0"/>
      <psa30 value="0.0014070005" flag="0"/>
    </comp>
    <comp name="--.HNE">
      <acc value="0.1139402195" flag="0"/>
      <vel value="0.0596832827" flag="0"/>
      <psa03 value="0.3167875696" flag="0"/>
      <psa10 value="0.0875545661" flag="0"/>
      <psa30 value="0.0049450237" flag="0"/>
    </comp>
  </station>
  <station code="KMT1" name="KMT1" netid="HI" insttype="unknown" commtype="DIG" lat="41.1159" lon="25.4066">
    <comp name="--.HNZ">
      <acc value="0.0599923761" flag="0"/>
      <vel value="0.0311257240" flag="0"/>
      <psa03 value="0.1044449069" flag="0"/>
      <psa10 value="0.0417060611" flag="0"/>
      <psa30 value="0.0084275867" flag="0"/>
    </comp>
    <comp name="--.HNE">
      <acc value="0.0616083652" flag="0"/>
      <vel value="0.0452024206" flag="0"/>
      <psa03 value="0.1831875769" flag="0"/>
      <psa10 value="0.0844621417" flag="0"/>
      <psa30 value="0.0097320645" flag="0"/>
    </comp>
    <comp name="--.HNN">
      <acc value="0.1173248822" flag="0"/>
      <vel value="0.0778803660" flag="0"/>
      <psa03 value="0.3051021500" flag="0"/>
      <psa10 value="0.1057278219" flag="0"/>
      <psa30 value="0.0095826701" flag="0"/>
    </comp>
  </station>
  <station code="PLN1" name="PLN1" netid="HI" insttype="CMG-5TD,ACCELEROMETER,GURALP" commtype="DIG" lat="39.998" lon="23.575">
    <comp name="--.HNE">
      <acc value="0.0856563160" flag="0"/>
      <vel value="0.0792689326" flag="0"/>
      <psa03 value="0.2248225070" flag="0"/>
      <psa10 value="0.1179502977" flag="0"/>
      <psa30 value="0.0074135138" flag="0"/>
    </comp>
    <comp name="--.HNZ">
      <acc value="0.0615284259" flag="0"/>
      <vel value="0.0337356122" flag="0"/>
      <psa03 value="0.1705495921" flag="0"/>
      <psa10 value="0.0440738173" flag="0"/>
      <psa30 value="0.0022454963" flag="0"/>
    </comp>
    <comp name="--.HNN">
      <acc value="0.1195874547" flag="0"/>
      <vel value="0.0719891161" flag="0"/>
      <psa03 value="0.3809976278" flag="0"/>
      <psa10 value="0.0891901181" flag="0"/>
      <psa30 value="0.0078692246" flag="0"/>
    </comp>
  </station>
  <station code="SGR1" name="SGR1" netid="HI" insttype="unknown" commtype="DIG" lat="39.2114" lon="25.8552">
    <comp name="--.HNN">
      <acc value="0.0454089108" flag="0"/>
      <vel value="0.0435720351" flag="0"/>
      <psa03 value="0.1088026883" flag="0"/>
      <psa10 value="0.0517816111" flag="0"/>
      <psa30 value="0.0073707652" flag="0"/>
    </comp>
    <comp name="--.HNE">
      <acc value="0.0429638703" flag="0"/>
      <vel value="0.0336006577" flag="0"/>
      <psa03 value="0.0612723405" flag="0"/>
      <psa10 value="0.0694091811" flag="0"/>
      <psa30 value="0.0060295599" flag="0"/>
    </comp>
    <comp name="--.HNZ">
      <acc value="0.0250769497" flag="0"/>
      <vel value="0.0163255089" flag="0"/>
      <psa03 value="0.0523085740" flag="0"/>
      <psa10 value="0.0178707175" flag="0"/>
      <psa30 value="0.0025704892" flag="0"/>
    </comp>
  </station>
  <station code="SKY1" name="SKY1" netid="HI" insttype="CMG-5TD,ACCELEROMETER,GURALP" commtype="DIG" lat="38.9045" lon="24.5646">
    <comp name="--.HNE">
      <acc value="0.0476420210" flag="0"/>
      <vel value="0.0261734976" flag="0"/>
      <psa03 value="0.1967220367" flag="0"/>
      <psa10 value="0.0192723964" flag="0"/>
      <psa30 value="0.0015106711" flag="0"/>
    </comp>
    <comp name="--.HNN">
      <acc value="0.0490087947" flag="0"/>
      <vel value="0.0357907936" flag="0"/>
      <psa03 value="0.1543577887" flag="0"/>
      <psa10 value="0.0251473593" flag="0"/>
      <psa30 value="0.0020102453" flag="0"/>
    </comp>
    <comp name="--.HNZ">
      <acc value="0.0264293115" flag="0"/>
      <vel value="0.0136348728" flag="0"/>
      <psa03 value="0.0784082610" flag="0"/>
      <psa10 value="0.0123246547" flag="0"/>
      <psa30 value="0.0014469473" flag="0"/>
    </comp>
  </station>
  <station code="EFSA" name="EFSA" netid="HL" insttype="CMG-5" commtype="DIG" lat="39.5401" lon="24.9886">
    <comp name="00.HNN">
      <acc value="0.1273046255" flag="0"/>
      <vel value="0.0709010903" flag="0"/>
      <psa03 value="0.1916969125" flag="0"/>
      <psa10 value="0.0592593812" flag="0"/>
      <psa30 value="0.0059828986" flag="0"/>
    </comp>
    <comp name="00.HNE">
      <acc value="0.1437588775" flag="0"/>
      <vel value="0.0676730357" flag="0"/>
      <psa03 value="0.1762169314" flag="0"/>
      <psa10 value="0.0890978252" flag="0"/>
      <psa30 value="0.0053241924" flag="0"/>
    </comp>
    <comp name="00.HNZ">
      <acc value="0.0750705634" flag="0"/>
      <vel value="0.0334151719" flag="0"/>
      <psa03 value="0.1702574521" flag="0"/>
      <psa10 value="0.0515935548" flag="0"/>
      <psa30 value="0.0022312001" flag="0"/>
    </comp>
  </station>
  <station code="LIA" name="LIA" netid="HL" insttype="60s" commtype="DIG" lat="39.8972" lon="25.1806">
    <comp name="--.HHE">
      <acc value="0.5341655980" flag="0"/>
      <vel value="0.2514321660" flag="0"/>
      <psa03 value="0.8562365033" flag="0"/>
      <psa10 value="0.2209010041" flag="0"/>
      <psa30 value="0.0163497513" flag="0"/>
    </comp>
    <comp name="--.HHN">
      <acc value="0.6999044801" flag="0"/>
      <vel value="0.2523092600" flag="0"/>
      <psa03 value="0.6767704864" flag="0"/>
      <psa10 value="0.2021642063" flag="0"/>
      <psa30 value="0.0170857058" flag="0"/>
    </comp>
    <comp name="--.HHZ">
      <acc value="0.4513721003" flag="0"/>
      <vel value="0.1666959378" flag="0"/>
      <psa03 value="0.5224457422" flag="0"/>
      <psa10 value="0.0786922928" flag="0"/>
      <psa30 value="0.0056951937" flag="0"/>
    </comp>
  </station>
  <station code="PLG" name="PLG" netid="HL" insttype="120" commtype="DIG" lat="40.3733" lon="23.4444">
    <comp name="--.HHE">
      <acc value="0.0427681138" flag="0"/>
      <vel value="0.0177172348" flag="0"/>
      <psa03 value="0.0819859430" flag="0"/>
      <psa10 value="0.0163678069" flag="0"/>
      <psa30 value="0.0016154085" flag="0"/>
    </comp>
    <comp name="--.HHN">
      <acc value="0.0333066965" flag="0"/>
      <vel value="0.0218142029" flag="0"/>
      <psa03 value="0.1473747618" flag="0"/>
      <psa10 value="0.0259999239" flag="0"/>
      <psa30 value="0.0014220762" flag="0"/>
    </comp>
    <comp name="--.HHZ">
      <acc value="0.0350226515" flag="0"/>
      <vel value="0.0184282430" flag="0"/>
      <psa03 value="0.0892998945" flag="0"/>
      <psa10 value="0.0137830683" flag="0"/>
      <psa30 value="0.0016220563" flag="0"/>
    </comp>
  </station>
  <station code="PRAS" name="PRAS" netid="HL" insttype="120" commtype="DIG" lat="41.3524" lon="24.55">
    <comp name="--.HHE">
      <acc value="0.0335327846" flag="0"/>
      <vel value="0.0238033862" flag="0"/>
      <psa03 value="0.1069107232" flag="0"/>
      <psa10 value="0.0291358498" flag="0"/>
      <psa30 value="0.0023620646" flag="0"/>
    </comp>
    <comp name="--.HHZ">
      <acc value="0.0241323340" flag="0"/>
      <vel value="0.0154268125" flag="0"/>
      <psa03 value="0.0459584638" flag="0"/>
      <psa10 value="0.0293054678" flag="0"/>
      <psa30 value="0.0014278449" flag="0"/>
    </comp>
    <comp name="--.HHN">
      <acc value="0.0467774924" flag="0"/>
      <vel value="0.0173184177" flag="0"/>
      <psa03 value="0.0824627590" flag="0"/>
      <psa10 value="0.0168813028" flag="0"/>
      <psa30 value="0.0011193074" flag="0"/>
    </comp>
  </station>
  <station code="RDO" name="RDO" netid="HL" insttype="120" commtype="DIG" lat="41.145" lon="25.5355">
    <comp name="--.HHE">
      <acc value="0.0168056564" flag="0"/>
      <vel value="0.0076265458" flag="0"/>
      <psa03 value="0.0333593679" flag="0"/>
      <psa10 value="0.0105061659" flag="0"/>
      <psa30 value="0.0010285694" flag="0"/>
    </comp>
    <comp name="--.HHN">
      <acc value="0.0193175404" flag="0"/>
      <vel value="0.0093601552" flag="0"/>
      <psa03 value="0.0294791042" flag="0"/>
      <psa10 value="0.0148199602" flag="0"/>
      <psa30 value="0.0016482931" flag="0"/>
    </comp>
    <comp name="--.HHZ">
      <acc value="0.0115285290" flag="0"/>
      <vel value="0.0055241011" flag="0"/>
      <psa03 value="0.0168113085" flag="0"/>
      <psa10 value="0.0127940201" flag="0"/>
      <psa30 value="0.0012747786" flag="0"/>
    </comp>
  </station>
  <station code="ALN" name="ALN" netid="HT" insttype="100" commtype="DIG" lat="40.885" lon="26.046">
    <comp name="--.HHE">
      <acc value="0.0290221918" flag="0"/>
      <vel value="0.0161143469" flag="0"/>
      <psa03 value="0.0588123739" flag="0"/>
      <psa10 value="0.0156369680" flag="0"/>
      <psa30 value="0.0027762154" flag="0"/>
    </comp>
    <comp name="--.HHN">
      <acc value="0.0258903959" flag="0"/>
      <vel value="0.0158702737" flag="0"/>
      <psa03 value="0.0576451458" flag="0"/>
      <psa10 value="0.0203045953" flag="0"/>
      <psa30 value="0.0027425617" flag="0"/>
    </comp>
    <comp name="--.HHZ">
      <acc value="0.0203926550" flag="0"/>
      <vel value="0.0123186020" flag="0"/>
      <psa03 value="0.0468464193" flag="0"/>
      <psa10 value="0.0083080429" flag="0"/>
      <psa30 value="0.0014763954" flag="0"/>
    </comp>
  </station>
  <station code="AOS2" name="AOS2" netid="HT" insttype="100" commtype="DIG" lat="39.1478" lon="23.8436">
    <comp name="--.HHE">
      <acc value="0.0354921878" flag="0"/>
      <vel value="0.0274970826" flag="0"/>
      <psa03 value="0.1110702418" flag="0"/>
      <psa10 value="0.0392137256" flag="0"/>
      <psa30 value="0.0026239524" flag="0"/>
    </comp>
    <comp name="--.HHN">
      <acc value="0.0421205116" flag="0"/>
      <vel value="0.0386677193" flag="0"/>
      <psa03 value="0.1370353716" flag="0"/>
      <psa10 value="0.0321066890" flag="0"/>
      <psa30 value="0.0020198212" flag="0"/>
    </comp>
    <comp name="--.HHZ">
      <acc value="0.0278549491" flag="0"/>
      <vel value="0.0204034206" flag="0"/>
      <psa03 value="0.0662965678" flag="0"/>
      <psa10 value="0.0284793679" flag="0"/>
      <psa30 value="0.0016479565" flag="0"/>
    </comp>
  </station>
  <station code="HMT1" name="HMT1" netid="HT" insttype="Compact," commtype="DIG" lat="40.2581" lon="24.2476">
    <comp name="--.HHE">
      <acc value="0.3225642483" flag="0"/>
      <vel value="0.1008628164" flag="0"/>
      <psa03 value="0.3175367782" flag="0"/>
      <psa10 value="0.0220502071" flag="0"/>
      <psa30 value="0.0029098914" flag="0"/>
    </comp>
    <comp name="--.HHZ">
      <acc value="0.3158917414" flag="0"/>
      <vel value="0.1131715677" flag="0"/>
      <psa03 value="0.1898721623" flag="0"/>
      <psa10 value="0.0297844872" flag="0"/>
      <psa30 value="0.0028691631" flag="0"/>
    </comp>
    <comp name="--.HHN">
      <acc value="0.2905227719" flag="0"/>
      <vel value="0.1051215663" flag="0"/>
      <psa03 value="0.5949148187" flag="0"/>
      <psa10 value="0.0259310265" flag="0"/>
      <psa30 value="0.0024356819" flag="0"/>
    </comp>
  </station>
  <station code="KAVA" name="KAVA" netid="HT" insttype="Compact," commtype="DIG" lat="40.9967" lon="24.5137">
    <comp name="--.HHE">
      <acc value="0.2111521298" flag="0"/>
      <vel value="0.0829038586" flag="0"/>
      <psa03 value="0.3903392946" flag="0"/>
      <psa10 value="0.0518986753" flag="0"/>
      <psa30 value="0.0090949288" flag="0"/>
    </comp>
    <comp name="--.HHN">
      <acc value="0.1724825638" flag="0"/>
      <vel value="0.0601857679" flag="0"/>
      <psa03 value="0.4006869770" flag="0"/>
      <psa10 value="0.0643649703" flag="0"/>
      <psa30 value="0.0068566759" flag="0"/>
    </comp>
    <comp name="--.HHZ">
      <acc value="0.1369664158" flag="0"/>
      <vel value="0.0390222023" flag="0"/>
      <psa03 value="0.2582863404" flag="0"/>
      <psa10 value="0.0275017286" flag="0"/>
      <psa30 value="0.0027603368" flag="0"/>
    </comp>
  </station>
  <station code="KOKK" name="KOKK" netid="HT" insttype="Compact," commtype="DIG" lat="40.8178" lon="23.9992">
    <comp name="--.HHZ">
      <acc value="0.0407650149" flag="0"/>
      <vel value="0.0298438750" flag="0"/>
      <psa03 value="0.1089859093" flag="0"/>
      <psa10 value="0.0547997304" flag="0"/>
      <psa30 value="0.0028403287" flag="0"/>
    </comp>
    <comp name="--.HHE">
      <acc value="0.0500473504" flag="0"/>
      <vel value="0.0338923118" flag="0"/>
      <psa03 value="0.1106839200" flag="0"/>
      <psa10 value="0.0463768439" flag="0"/>
      <psa30 value="0.0041386217" flag="0"/>
    </comp>
    <comp name="--.HHN">
      <acc value="0.0627470263" flag="0"/>
      <vel value="0.0567389030" flag="0"/>
      <psa03 value="0.1118588748" flag="0"/>
      <psa10 value="0.1361461171" flag="0"/>
      <psa30 value="0.0088711466" flag="0"/>
    </comp>
  </station>
  <station code="LES3" name="LES3" netid="HT" insttype="" commtype="DIG" lat="39.3032" lon="26.1807">
    <comp name="--.HHE">
      <acc value="0.0210303983" flag="0"/>
      <vel value="0.0170329269" flag="0"/>
      <psa03 value="0.0623326335" flag="0"/>
      <psa10 value="0.0195198865" flag="0"/>
      <psa30 value="0.0023232964" flag="0"/>
    </comp>
    <comp name="--.HHN">
      <acc value="0.0372849212" flag="0"/>
      <vel value="0.0328314726" flag="0"/>
      <psa03 value="0.1215126035" flag="0"/>
      <psa10 value="0.0471591005" flag="0"/>
      <psa30 value="0.0044381667" flag="0"/>
    </comp>
    <comp name="--.HHZ">
      <acc value="0.0121630310" flag="0"/>
      <vel value="0.0107220532" flag="0"/>
      <psa03 value="0.0433235795" flag="0"/>
      <psa10 value="0.0175580506" flag="0"/>
      <psa30 value="0.0010745371" flag="0"/>
    </comp>
  </station>
  <station code="OUR" name="OUR" netid="HT" insttype="100" commtype="DIG" lat="40.3325" lon="23.9791">
    <comp name="--.HHN">
      <acc value="0.1260807631" flag="0"/>
      <vel value="0.0690552810" flag="0"/>
      <psa03 value="0.3056485459" flag="0"/>
      <psa10 value="0.0823374084" flag="0"/>
      <psa30 value="0.0042097474" flag="0"/>
    </comp>
    <comp name="--.HHE">
      <acc value="0.1368141371" flag="0"/>
      <vel value="0.0669108719" flag="0"/>
      <psa03 value="0.4041497244" flag="0"/>
      <psa10 value="0.0517293318" flag="0"/>
      <psa30 value="0.0033490849" flag="0"/>
    </comp>
    <comp name="--.HHZ">
      <acc value="0.1135220109" flag="0"/>
      <vel value="0.0465219634" flag="0"/>
      <psa03 value="0.1840051943" flag="0"/>
      <psa10 value="0.0413285451" flag="0"/>
      <psa30 value="0.0040560555" flag="0"/>
    </comp>
  </station>
  <station code="PAIG" name="PAIG" netid="HT" insttype="100" commtype="DIG" lat="39.9363" lon="23.6768">
    <comp name="--.HHN">
      <acc value="0.0347051845" flag="0"/>
      <vel value="0.0277301334" flag="0"/>
      <psa03 value="0.0852952418" flag="0"/>
      <psa10 value="0.0324682189" flag="0"/>
      <psa30 value="0.0041525683" flag="0"/>
    </comp>
    <comp name="--.HHE">
      <acc value="0.0476564025" flag="0"/>
      <vel value="0.0210102302" flag="0"/>
      <psa03 value="0.0890523813" flag="0"/>
      <psa10 value="0.0213383220" flag="0"/>
      <psa30 value="0.0034393466" flag="0"/>
    </comp>
    <comp name="--.HHZ">
      <acc value="0.0327534633" flag="0"/>
      <vel value="0.0151203916" flag="0"/>
      <psa03 value="0.0497103365" flag="0"/>
      <psa10 value="0.0247155152" flag="0"/>
      <psa30 value="0.0018325072" flag="0"/>
    </comp>
  </station>
  <station code="SIGR" name="SIGR" netid="HT" insttype="100" commtype="DIG" lat="39.2114" lon="25.8553">
    <comp name="--.HHE">
      <acc value="0.0453768470" flag="0"/>
      <vel value="0.0355906783" flag="0"/>
      <psa03 value="0.0639771497" flag="0"/>
      <psa10 value="0.0765885577" flag="0"/>
      <psa30 value="0.0066217328" flag="0"/>
    </comp>
    <comp name="--.HHZ">
      <acc value="0.0280597451" flag="0"/>
      <vel value="0.0192956461" flag="0"/>
      <psa03 value="0.0528379415" flag="0"/>
      <psa10 value="0.0189902962" flag="0"/>
      <psa30 value="0.0026699198" flag="0"/>
    </comp>
    <comp name="--.HHN">
      <acc value="0.0455257498" flag="0"/>
      <vel value="0.0450799709" flag="0"/>
      <psa03 value="0.1191809396" flag="0"/>
      <psa10 value="0.0552643310" flag="0"/>
      <psa30 value="0.0071950877" flag="0"/>
    </comp>
  </station>
  <station code="THAS" name="THAS" netid="HT" insttype="100" commtype="DIG" lat="40.6064" lon="24.7194">
    <comp name="--.HHN">
      <acc value="0.1575223167" flag="0"/>
      <vel value="0.0461388269" flag="0"/>
      <psa03 value="0.1969196287" flag="0"/>
      <psa10 value="0.0251503623" flag="0"/>
      <psa30 value="0.0018222046" flag="0"/>
    </comp>
    <comp name="--.HHZ">
      <acc value="0.1726371455" flag="0"/>
      <vel value="0.0364416733" flag="0"/>
      <psa03 value="0.1372227157" flag="0"/>
      <psa10 value="0.0382168388" flag="0"/>
      <psa30 value="0.0027545274" flag="0"/>
    </comp>
    <comp name="--.HHE">
      <acc value="0.2090002020" flag="0"/>
      <vel value="0.0625056156" flag="0"/>
      <psa03 value="0.3405569781" flag="0"/>
      <psa10 value="0.0353113855" flag="0"/>
      <psa30 value="0.0033893123" flag="0"/>
    </comp>
  </station>
  <station code="BMYO" name="BMYO" netid="KO" insttype="CMG-5T" commtype="DIG" lat="39.8098" lon="26.6009">
    <comp name="--.HNZ">
      <acc value="0.0186037453" flag="0"/>
      <vel value="0.0135697076" flag="0"/>
      <psa03 value="0.0369039994" flag="0"/>
      <psa10 value="0.0212427300" flag="0"/>
      <psa30 value="0.0030219318" flag="0"/>
    </comp>
    <comp name="--.HNE">
      <acc value="0.0360073521" flag="0"/>
      <vel value="0.0213924262" flag="0"/>
      <psa03 value="0.1304499530" flag="0"/>
      <psa10 value="0.0305541940" flag="0"/>
      <psa30 value="0.0084533062" flag="0"/>
    </comp>
    <comp name="--.HNN">
      <acc value="0.0340106755" flag="0"/>
      <vel value="0.0232166300" flag="0"/>
      <psa03 value="0.0761781807" flag="0"/>
      <psa10 value="0.0187065243" flag="0"/>
      <psa30 value="0.0072542520" flag="0"/>
    </comp>
  </station>
  <station code="ERIK" name="ERIK" netid="KO" insttype="CMG-3ESP" commtype="DIG" lat="40.6708" lon="26.5132">
    <comp name="--.HHE">
      <acc value="0.0479967039" flag="0"/>
      <vel value="0.0198992713" flag="0"/>
      <psa03 value="0.0880891339" flag="0"/>
      <psa10 value="0.0249707833" flag="0"/>
      <psa30 value="0.0025094109" flag="0"/>
    </comp>
    <comp name="--.HHZ">
      <acc value="0.0258362433" flag="0"/>
      <vel value="0.0144222272" flag="0"/>
      <psa03 value="0.0516310394" flag="0"/>
      <psa10 value="0.0181401109" flag="0"/>
      <psa30 value="0.0011567939" flag="0"/>
    </comp>
    <comp name="--.HHN">
      <acc value="0.0508253640" flag="0"/>
      <vel value="0.0315560341" flag="0"/>
      <psa03 value="0.1224895026" flag="0"/>
      <psa10 value="0.0292050910" flag="0"/>
      <psa30 value="0.0030897883" flag="0"/>
    </comp>
  </station>
  <station code="EZN" name="EZN" netid="KO" insttype="CMG-3ESP" commtype="DIG" lat="39.8255" lon="26.3246">
