<?xml version="1.0" encoding="UTF-8" standalone="yes"?>
<!DOCTYPE earthquake SYSTEM "stationlist.dtd">
<stationlist created="" xmlns="ch.ethz.sed.shakemap.usgs.xml">
  <station code="CUKT" name="CUKT" netid="KO" insttype="CMG-3ESP" lat="37.2473" lon="43.6077">
    <comp name="--.HHE">
      <acc value="0.0539028168" flag="0"/>
      <vel value="0.0195279344" flag="0"/>
      <psa03 value="0.0871590085" flag="0"/>
      <psa10 value="0.0064282306" flag="0"/>
      <psa30 value="0.0004744874" flag="0"/>
    </comp>
    <comp name="--.HHZ">
      <acc value="0.0353199785" flag="0"/>
      <vel value="0.0087027682" flag="0"/>
      <psa03 value="0.0339460958" flag="0"/>
      <psa10 value="0.0027091941" flag="0"/>
      <psa30 value="0.0002169829" flag="0"/>
    </comp>
    <comp name="--.HHN">
      <acc value="0.0275771599" flag="0"/>
      <vel value="0.0083967987" flag="0"/>
      <psa03 value="0.0420728530" flag="0"/>
      <psa10 value="0.0056359291" flag="0"/>
      <psa30 value="0.0003111711" flag="0"/>
    </comp>
  </station>
</stationlist>
