<?xml version="1.0" encoding="UTF-8" standalone="yes"?>
<!DOCTYPE earthquake SYSTEM "stationlist.dtd">
<stationlist created="" xmlns="ch.ethz.sed.shakemap.usgs.xml">
  <station code="CUKT" name="CUKT" netid="KO" insttype="CMG-3ESP" lat="37.2473" lon="43.6077">
    <comp name="--.HHN">
      <acc value="0.0275771600" flag="0"/>
      <vel value="0.0083967993" flag="0"/>
      <psa03 value="0.0420728530" flag="0"/>
      <psa10 value="0.0056359291" flag="0"/>
      <psa30 value="0.0003111686" flag="0"/>
    </comp>
    <comp name="--.HHE">
      <acc value="0.0539028164" flag="0"/>
      <vel value="0.0195279336" flag="0"/>
      <psa03 value="0.0871590085" flag="0"/>
      <psa10 value="0.0064282306" flag="0"/>
      <psa30 value="0.0004744926" flag="0"/>
    </comp>
    <comp name="--.HHZ">
      <acc value="0.0353199784" flag="0"/>
      <vel value="0.0087027681" flag="0"/>
      <psa03 value="0.0339460958" flag="0"/>
      <psa10 value="0.0027091941" flag="0"/>
      <psa30 value="0.0002169763" flag="0"/>
    </comp>
  </station>
</stationlist>
