<?xml version="1.0" encoding="UTF-8" standalone="yes"?>
<!DOCTYPE earthquake SYSTEM "stationlist.dtd">
<stationlist created="" xmlns="ch.ethz.sed.shakemap.usgs.xml">
  <station code="ATHR" name="ATHR" netid="HA" insttype="GEOtiny," lat="38.3172" lon="20.4165">
    <comp name="--.HHE">
      <acc value="0.3681183329" flag="0"/>
      <vel value="0.0801422616" flag="0"/>
      <psa03 value="0.2019018327" flag="0"/>
      <psa10 value="0.0723431635" flag="0"/>
      <psa30 value="0.0052619807" flag="0"/>
    </comp>
    <comp name="--.HHN">
      <acc value="0.1940890240" flag="0"/>
      <vel value="0.0421119480" flag="0"/>
      <psa03 value="0.1189094446" flag="0"/>
      <psa10 value="0.0351947095" flag="0"/>
      <psa30 value="0.0017095478" flag="0"/>
    </comp>
    <comp name="--.HHZ">
      <acc value="0.2465225644" flag="0"/>
      <vel value="0.0429321940" flag="0"/>
      <psa03 value="0.1311424933" flag="0"/>
      <psa10 value="0.0342066754" flag="0"/>
      <psa30 value="0.0017380786" flag="0"/>
    </comp>
  </station>
  <station code="HAVD" name="HAVD" netid="HA" insttype="GEOtiny," lat="38.2036" lon="20.3848">
    <comp name="--.HHE">
      <acc value="2.2575048532" flag="0"/>
      <vel value="0.5448905118" flag="0"/>
      <psa03 value="0.9033511875" flag="0"/>
      <psa10 value="0.0870490720" flag="0"/>
      <psa30 value="0.0093575215" flag="0"/>
    </comp>
    <comp name="--.HHZ">
      <acc value="1.3987960631" flag="0"/>
      <vel value="0.1989060349" flag="0"/>
      <psa03 value="0.4787687728" flag="0"/>
      <psa10 value="0.0437529686" flag="0"/>
      <psa30 value="0.0021392577" flag="0"/>
    </comp>
    <comp name="--.HHN">
      <acc value="3.0160815524" flag="0"/>
      <vel value="0.4862845450" flag="0"/>
      <psa03 value="0.6198700935" flag="0"/>
      <psa10 value="0.0768223617" flag="0"/>
      <psa30 value="0.0077609974" flag="0"/>
    </comp>
  </station>
  <station code="ARG2" name="ARG2" netid="HI" insttype="CMG-5TD,ACCELEROMETER,GURALP" lat="38.1783" lon="20.4878">
    <comp name="--.HNN">
      <acc value="4.0286663565" flag="0"/>
      <vel value="0.8161636550" flag="0"/>
      <psa03 value="2.7490718354" flag="0"/>
      <psa10 value="0.1791370087" flag="0"/>
      <psa30 value="0.0246320130" flag="0"/>
    </comp>
    <comp name="--.HNZ">
      <acc value="3.0735779508" flag="0"/>
      <vel value="0.4064410375" flag="0"/>
      <psa03 value="1.1434137406" flag="0"/>
      <psa10 value="0.0504190161" flag="0"/>
      <psa30 value="0.0054378326" flag="0"/>
    </comp>
    <comp name="--.HNE">
      <acc value="2.8508782547" flag="0"/>
      <vel value="0.3838555936" flag="0"/>
      <psa03 value="1.7680101086" flag="0"/>
      <psa10 value="0.1176139698" flag="0"/>
      <psa30 value="0.0105713806" flag="0"/>
    </comp>
  </station>
  <station code="KRI1" name="KRI1" netid="HI" insttype="CMG-5TD,ACCELEROMETER,GURALP" lat="37.6621" lon="20.8172">
    <comp name="--.HNZ">
      <acc value="0.0218364745" flag="0"/>
      <vel value="0.0075565645" flag="0"/>
      <psa03 value="0.0383841338" flag="0"/>
      <psa10 value="0.0069213606" flag="0"/>
      <psa30 value="0.0004396785" flag="0"/>
    </comp>
    <comp name="--.HNN">
      <acc value="0.0332579770" flag="0"/>
      <vel value="0.0162877074" flag="0"/>
      <psa03 value="0.0863708166" flag="0"/>
      <psa10 value="0.0138574167" flag="0"/>
      <psa30 value="0.0007820065" flag="0"/>
    </comp>
    <comp name="--.HNE">
      <acc value="0.0419302129" flag="0"/>
      <vel value="0.0198695744" flag="0"/>
      <psa03 value="0.1302338426" flag="0"/>
      <psa10 value="0.0112473968" flag="0"/>
      <psa30 value="0.0006682135" flag="0"/>
    </comp>
  </station>
  <station code="VAS2" name="VAS2" netid="HI" insttype="CMG-5TD,ACCELEROMETER,GURALP" lat="38.6306" lon="20.6081">
    <comp name="--.HNZ">
      <acc value="0.0414708300" flag="0"/>
      <vel value="0.0211525312" flag="0"/>
      <psa03 value="0.0754773208" flag="0"/>
      <psa10 value="0.0329318507" flag="0"/>
      <psa30 value="0.0012020831" flag="0"/>
    </comp>
    <comp name="--.HNN">
      <acc value="0.1063449838" flag="0"/>
      <vel value="0.0412027172" flag="0"/>
      <psa03 value="0.2111967745" flag="0"/>
      <psa10 value="0.0731763879" flag="0"/>
      <psa30 value="0.0031574942" flag="0"/>
    </comp>
    <comp name="--.HNE">
      <acc value="0.0793981731" flag="0"/>
      <vel value="0.0370167063" flag="0"/>
      <psa03 value="0.1813334231" flag="0"/>
      <psa10 value="0.0450179342" flag="0"/>
      <psa30 value="0.0032692933" flag="0"/>
    </comp>
  </station>
  <station code="LXRA" name="LXRA" netid="HL" insttype="CMG-5" lat="38.2001" lon="20.4372">
    <comp name="00.HNZ">
      <acc value="2.6285607246" flag="0"/>
      <vel value="0.2710894721" flag="0"/>
      <psa03 value="1.2487135157" flag="0"/>
      <psa10 value="0.0684497716" flag="0"/>
      <psa30 value="0.0060755295" flag="0"/>
    </comp>
    <comp name="00.HNE">
      <acc value="2.9410554589" flag="0"/>
      <vel value="0.8230624182" flag="0"/>
      <psa03 value="3.7418422696" flag="0"/>
      <psa10 value="0.2089592911" flag="0"/>
      <psa30 value="0.0228897284" flag="0"/>
    </comp>
    <comp name="00.HNN">
      <acc value="4.1486617775" flag="0"/>
      <vel value="0.8988146724" flag="0"/>
      <psa03 value="4.0440880107" flag="0"/>
      <psa10 value="0.2136356863" flag="0"/>
      <psa30 value="0.0289372353" flag="0"/>
    </comp>
  </station>
  <station code="ORTH" name="ORTH" netid="HL" insttype="30" lat="37.8511" lon="20.6963">
    <comp name="--.HHZ">
      <acc value="0.0445643556" flag="0"/>
      <vel value="0.0133104201" flag="0"/>
      <psa03 value="0.0786189541" flag="0"/>
      <psa10 value="0.0081271021" flag="0"/>
      <psa30 value="0.0007656968" flag="0"/>
    </comp>
    <comp name="--.HHN">
      <acc value="0.1498131589" flag="0"/>
      <vel value="0.0406463282" flag="0"/>
      <psa03 value="0.2595972041" flag="0"/>
      <psa10 value="0.0341061651" flag="0"/>
      <psa30 value="0.0022181690" flag="0"/>
    </comp>
    <comp name="--.HHE">
      <acc value="0.1099943161" flag="0"/>
      <vel value="0.0358539674" flag="0"/>
      <psa03 value="0.3479342143" flag="0"/>
      <psa10 value="0.0176359526" flag="0"/>
      <psa30 value="0.0015595641" flag="0"/>
    </comp>
  </station>
  <station code="VLS" name="VLS" netid="HL" insttype="120P," lat="38.1768" lon="20.5886">
    <comp name="--.HHN">
      <acc value="2.6453026637" flag="0"/>
      <vel value="0.5717827434" flag="0"/>
      <psa03 value="1.3544270630" flag="0"/>
      <psa10 value="0.2369600667" flag="0"/>
      <psa30 value="0.0728222037" flag="0"/>
    </comp>
    <comp name="--.HHZ">
      <acc value="3.1545544476" flag="0"/>
      <vel value="0.7483165662" flag="0"/>
      <psa03 value="1.0211972342" flag="0"/>
      <psa10 value="0.3688109607" flag="0"/>
      <psa30 value="0.0526951024" flag="0"/>
    </comp>
    <comp name="--.HHE">
      <acc value="3.4728430253" flag="0"/>
      <vel value="0.7809621497" flag="0"/>
      <psa03 value="1.5978002742" flag="0"/>
      <psa10 value="0.2302249717" flag="0"/>
      <psa30 value="0.0699479102" flag="0"/>
    </comp>
  </station>
  <station code="AMPL" name="AMPL" netid="HP" insttype="Compact," lat="38.9224" lon="21.2135">
    <comp name="--.HHN">
      <acc value="0.0075565421" flag="0"/>
      <vel value="0.0041222128" flag="0"/>
      <psa03 value="0.0272348098" flag="0"/>
      <psa10 value="0.0037440346" flag="0"/>
      <psa30 value="0.0004618801" flag="0"/>
    </comp>
    <comp name="--.HHE">
      <acc value="0.0110916865" flag="0"/>
      <vel value="0.0062452872" flag="0"/>
      <psa03 value="0.0237585160" flag="0"/>
      <psa10 value="0.0045786160" flag="0"/>
      <psa30 value="0.0008490236" flag="0"/>
    </comp>
    <comp name="--.HHZ">
      <acc value="0.0056361511" flag="0"/>
      <vel value="0.0035094341" flag="0"/>
      <psa03 value="0.0119369714" flag="0"/>
      <psa10 value="0.0035226345" flag="0"/>
      <psa30 value="0.0003367980" flag="0"/>
    </comp>
  </station>
  <station code="AXS" name="AXS" netid="HP" insttype="Compact," lat="38.1962" lon="21.3763">
    <comp name="--.HHN">
      <acc value="0.0082716248" flag="0"/>
      <vel value="0.0068735435" flag="0"/>
      <psa03 value="0.0123492244" flag="0"/>
      <psa10 value="0.0095390728" flag="0"/>
      <psa30 value="0.0010048348" flag="0"/>
    </comp>
    <comp name="--.HHE">
      <acc value="0.0042417219" flag="0"/>
      <vel value="0.0021216675" flag="0"/>
      <psa03 value="0.0098396538" flag="0"/>
      <psa10 value="0.0027380462" flag="0"/>
      <psa30 value="0.0006339953" flag="0"/>
    </comp>
    <comp name="--.HHZ">
      <acc value="0.0041386008" flag="0"/>
      <vel value="0.0022760841" flag="0"/>
      <psa03 value="0.0055606560" flag="0"/>
      <psa10 value="0.0024813722" flag="0"/>
      <psa30 value="0.0003356806" flag="0"/>
    </comp>
  </station>
  <station code="DRO" name="DRO" netid="HP" insttype="120P," lat="37.952" lon="21.71">
    <comp name="--.HHN">
      <acc value="0.0102393942" flag="0"/>
      <vel value="0.0055855259" flag="0"/>
      <psa03 value="0.0210789099" flag="0"/>
      <psa10 value="0.0061840562" flag="0"/>
      <psa30 value="0.0005699123" flag="0"/>
    </comp>
    <comp name="--.HHZ">
      <acc value="0.0053316764" flag="0"/>
      <vel value="0.0027042824" flag="0"/>
      <psa03 value="0.0125934026" flag="0"/>
      <psa10 value="0.0037616730" flag="0"/>
      <psa30 value="0.0003400007" flag="0"/>
    </comp>
    <comp name="--.HHE">
      <acc value="0.0088616472" flag="0"/>
      <vel value="0.0051516335" flag="0"/>
      <psa03 value="0.0201016881" flag="0"/>
      <psa10 value="0.0059307761" flag="0"/>
      <psa30 value="0.0005576205" flag="0"/>
    </comp>
  </station>
  <station code="FSK" name="FSK" netid="HP" insttype="40," lat="38.4593" lon="20.5623">
    <comp name="--.HHZ">
      <acc value="0.1455451259" flag="0"/>
      <vel value="0.0307524684" flag="0"/>
      <psa03 value="0.0833087372" flag="0"/>
      <psa10 value="0.0069139712" flag="0"/>
      <psa30 value="0.0013714559" flag="0"/>
    </comp>
    <comp name="--.HHN">
      <acc value="0.0852853171" flag="0"/>
      <vel value="0.0283757621" flag="0"/>
      <psa03 value="0.0946032194" flag="0"/>
      <psa10 value="0.0165881376" flag="0"/>
      <psa30 value="0.0010639718" flag="0"/>
    </comp>
    <comp name="--.HHE">
      <acc value="0.2081111410" flag="0"/>
      <vel value="0.0525254220" flag="0"/>
      <psa03 value="0.1285426517" flag="0"/>
      <psa10 value="0.0202038636" flag="0"/>
      <psa30 value="0.0021296111" flag="0"/>
    </comp>
  </station>
  <station code="KSTR" name="KSTR" netid="HP" insttype="Compact," lat="39.2492" lon="20.576">
    <comp name="--.HHN">
      <acc value="0.0091141024" flag="0"/>
      <vel value="0.0070961321" flag="0"/>
      <psa03 value="0.0182997017" flag="0"/>
      <psa10 value="0.0079845246" flag="0"/>
      <psa30 value="0.0006249759" flag="0"/>
    </comp>
    <comp name="--.HHE">
      <acc value="0.0125357934" flag="0"/>
      <vel value="0.0101325233" flag="0"/>
      <psa03 value="0.0423286982" flag="0"/>
      <psa10 value="0.0147577513" flag="0"/>
      <psa30 value="0.0014618640" flag="0"/>
    </comp>
    <comp name="--.HHZ">
      <acc value="0.0061538495" flag="0"/>
      <vel value="0.0044342407" flag="0"/>
      <psa03 value="0.0209705180" flag="0"/>
      <psa10 value="0.0056983764" flag="0"/>
      <psa30 value="0.0003847061" flag="0"/>
    </comp>
  </station>
  <station code="LTHK" name="LTHK" netid="HP" insttype="40," lat="37.7095" lon="20.8367">
    <comp name="--.HHZ">
      <acc value="0.0285486019" flag="0"/>
      <vel value="0.0094370250" flag="0"/>
      <psa03 value="0.0531223373" flag="0"/>
      <psa10 value="0.0085135530" flag="0"/>
      <psa30 value="0.0005468795" flag="0"/>
    </comp>
    <comp name="--.HHE">
      <acc value="0.0510940006" flag="0"/>
      <vel value="0.0128612684" flag="0"/>
      <psa03 value="0.0850132977" flag="0"/>
      <psa10 value="0.0133792968" flag="0"/>
      <psa30 value="0.0009271590" flag="0"/>
    </comp>
    <comp name="--.HHN">
      <acc value="0.0495607140" flag="0"/>
      <vel value="0.0169056078" flag="0"/>
      <psa03 value="0.0935938695" flag="0"/>
      <psa10 value="0.0125008690" flag="0"/>
      <psa30 value="0.0009771487" flag="0"/>
    </comp>
  </station>
  <station code="PLEV" name="PLEV" netid="HP" insttype="Compact," lat="38.4124" lon="21.4073">
    <comp name="--.HHE">
      <acc value="0.0075180812" flag="0"/>
      <vel value="0.0056765894" flag="0"/>
      <psa03 value="0.0190285258" flag="0"/>
      <psa10 value="0.0037842527" flag="0"/>
      <psa30 value="0.0004323860" flag="0"/>
    </comp>
    <comp name="--.HHN">
      <acc value="0.0093988526" flag="0"/>
      <vel value="0.0054634673" flag="0"/>
      <psa03 value="0.0218698524" flag="0"/>
      <psa10 value="0.0074678691" flag="0"/>
      <psa30 value="0.0006776481" flag="0"/>
    </comp>
    <comp name="--.HHZ">
      <acc value="0.0057269685" flag="0"/>
      <vel value="0.0029070944" flag="0"/>
      <psa03 value="0.0117044324" flag="0"/>
      <psa10 value="0.0044598315" flag="0"/>
      <psa30 value="0.0003192159" flag="0"/>
    </comp>
  </station>
  <station code="PVO" name="PVO" netid="HP" insttype="120P," lat="38.616" lon="21.525">
    <comp name="--.HHN">
      <acc value="0.0109472049" flag="0"/>
      <vel value="0.0071836117" flag="0"/>
      <psa03 value="0.0281561560" flag="0"/>
      <psa10 value="0.0062700918" flag="0"/>
      <psa30 value="0.0010838378" flag="0"/>
    </comp>
    <comp name="--.HHZ">
      <acc value="0.0073590014" flag="0"/>
      <vel value="0.0033189479" flag="0"/>
      <psa03 value="0.0168821516" flag="0"/>
      <psa10 value="0.0041958565" flag="0"/>
      <psa30 value="0.0004904827" flag="0"/>
    </comp>
    <comp name="--.HHE">
      <acc value="0.0142828112" flag="0"/>
      <vel value="0.0072483011" flag="0"/>
      <psa03 value="0.0438163361" flag="0"/>
      <psa10 value="0.0058523386" flag="0"/>
      <psa30 value="0.0007913313" flag="0"/>
    </comp>
  </station>
  <station code="EVGI" name="EVGI" netid="HT" insttype="30" lat="38.621" lon="20.656">
    <comp name="--.HHE">
      <acc value="0.1824314755" flag="0"/>
      <vel value="0.0273831390" flag="0"/>
      <psa03 value="0.0654406629" flag="0"/>
      <psa10 value="0.0073581628" flag="0"/>
      <psa30 value="0.0012318997" flag="0"/>
    </comp>
    <comp name="--.HHN">
      <acc value="0.1671299352" flag="0"/>
      <vel value="0.0338513705" flag="0"/>
      <psa03 value="0.0797697169" flag="0"/>
      <psa10 value="0.0068577224" flag="0"/>
      <psa30 value="0.0009504254" flag="0"/>
    </comp>
    <comp name="--.HHZ">
      <acc value="0.1290481432" flag="0"/>
      <vel value="0.0236337423" flag="0"/>
      <psa03 value="0.0731645379" flag="0"/>
      <psa10 value="0.0070154417" flag="0"/>
      <psa30 value="0.0007521880" flag="0"/>
    </comp>
  </station>
  <station code="LKD2" name="LKD2" netid="HT" insttype="100" lat="38.7889" lon="20.6578">
    <comp name="--.HHZ">
      <acc value="0.0161275053" flag="0"/>
      <vel value="0.0056422505" flag="0"/>
      <psa03 value="0.0167963374" flag="0"/>
      <psa10 value="0.0039750773" flag="0"/>
      <psa30 value="0.0005430468" flag="0"/>
    </comp>
    <comp name="--.HHE">
      <acc value="0.0296693330" flag="0"/>
      <vel value="0.0103048414" flag="0"/>
      <psa03 value="0.0415970068" flag="0"/>
      <psa10 value="0.0061525577" flag="0"/>
      <psa30 value="0.0005116521" flag="0"/>
    </comp>
    <comp name="--.HHN">
      <acc value="0.0352156191" flag="0"/>
      <vel value="0.0082982570" flag="0"/>
      <psa03 value="0.0464317352" flag="0"/>
      <psa10 value="0.0060968124" flag="0"/>
      <psa30 value="0.0006988617" flag="0"/>
    </comp>
  </station>
  <station code="NYDR" name="NYDR" netid="HT" insttype="1s-100Hz," lat="38.7135" lon="20.6983">
    <comp name="--.HHN">
      <acc value="0.0417754948" flag="0"/>
      <vel value="0.0197951747" flag="0"/>
      <psa03 value="0.0852839698" flag="0"/>
      <psa10 value="0.0102279735" flag="0"/>
      <psa30 value="0.0008104974" flag="0"/>
    </comp>
    <comp name="--.HHZ">
      <acc value="0.0248122474" flag="0"/>
      <vel value="0.0082901542" flag="0"/>
      <psa03 value="0.0609546808" flag="0"/>
      <psa10 value="0.0084701013" flag="0"/>
      <psa30 value="0.0005070060" flag="0"/>
    </comp>
    <comp name="--.HHE">
      <acc value="0.0347420797" flag="0"/>
      <vel value="0.0150360285" flag="0"/>
      <psa03 value="0.0327437697" flag="0"/>
      <psa10 value="0.0082741578" flag="0"/>
      <psa30 value="0.0011753619" flag="0"/>
    </comp>
  </station>
  <station code="RTZL" name="RTZL" netid="HT" insttype="Compact," lat="38.076" lon="20.7715">
    <comp name="--.HHN">
      <acc value="0.5718912862" flag="0"/>
      <vel value="0.1084020886" flag="0"/>
      <psa03 value="0.1828890100" flag="0"/>
      <psa10 value="0.0249954289" flag="0"/>
      <psa30 value="0.0032307894" flag="0"/>
    </comp>
    <comp name="--.HHZ">
      <acc value="0.2447589374" flag="0"/>
      <vel value="0.0420804304" flag="0"/>
      <psa03 value="0.0723537838" flag="0"/>
      <psa10 value="0.0180115493" flag="0"/>
      <psa30 value="0.0011725537" flag="0"/>
    </comp>
    <comp name="--.HHE">
      <acc value="0.5701808807" flag="0"/>
      <vel value="0.1138780795" flag="0"/>
      <psa03 value="0.2309339326" flag="0"/>
      <psa10 value="0.0256474440" flag="0"/>
      <psa30 value="0.0025229537" flag="0"/>
    </comp>
  </station>
  <station code="TSLK" name="TSLK" netid="HT" insttype="1s-100Hz," lat="38.8249" lon="20.6554">
    <comp name="--.HHE">
      <acc value="0.0394503464" flag="0"/>
      <vel value="0.0175664479" flag="0"/>
      <psa03 value="0.1037157221" flag="0"/>
      <psa10 value="0.0148766143" flag="0"/>
      <psa30 value="0.0013528058" flag="0"/>
    </comp>
    <comp name="--.HHN">
      <acc value="0.0228479983" flag="0"/>
      <vel value="0.0108621475" flag="0"/>
      <psa03 value="0.0433630100" flag="0"/>
      <psa10 value="0.0084079565" flag="0"/>
      <psa30 value="0.0012930173" flag="0"/>
    </comp>
    <comp name="--.HHZ">
      <acc value="0.0189212990" flag="0"/>
      <vel value="0.0058890683" flag="0"/>
      <psa03 value="0.0382290243" flag="0"/>
      <psa10 value="0.0040474805" flag="0"/>
      <psa30 value="0.0010594689" flag="0"/>
    </comp>
  </station>
</stationlist>
