<?xml version="1.0" encoding="UTF-8" standalone="yes"?>
<!DOCTYPE earthquake SYSTEM "stationlist.dtd">
<stationlist created="" xmlns="ch.ethz.sed.shakemap.usgs.xml">
  <station code="VLS" name="VLS" netid="HL" insttype="120P," lat="38.1768" lon="20.5886">
    <comp name="--.HHN">
      <acc value="2.6453026637" flag="0"/>
      <vel value="0.5717827434" flag="0"/>
      <psa03 value="1.3544270630" flag="0"/>
      <psa10 value="0.2369600667" flag="0"/>
      <psa30 value="0.0728222037" flag="0"/>
    </comp>
    <comp name="--.HHZ">
      <acc value="3.1545544476" flag="0"/>
      <vel value="0.7483165662" flag="0"/>
      <psa03 value="1.0211972342" flag="0"/>
      <psa10 value="0.3688109607" flag="0"/>
      <psa30 value="0.0526951024" flag="0"/>
    </comp>
  </station>
  <station code="FSK" name="FSK" netid="HP" insttype="40," lat="38.4593" lon="20.5623">
    <comp name="--.HHZ">
      <acc value="0.1455451259" flag="0"/>
      <vel value="0.0307524684" flag="0"/>
      <psa03 value="0.0833087372" flag="0"/>
      <psa10 value="0.0069139712" flag="0"/>
      <psa30 value="0.0013714559" flag="0"/>
    </comp>
    <comp name="--.HHN">
      <acc value="0.0852853171" flag="0"/>
      <vel value="0.0283757621" flag="0"/>
      <psa03 value="0.0946032194" flag="0"/>
      <psa10 value="0.0165881376" flag="0"/>
      <psa30 value="0.0010639718" flag="0"/>
    </comp>
    <comp name="--.HHE">
      <acc value="0.2081111410" flag="0"/>
      <vel value="0.0525254220" flag="0"/>
      <psa03 value="0.1285426517" flag="0"/>
      <psa10 value="0.0202038636" flag="0"/>
      <psa30 value="0.0021296111" flag="0"/>
    </comp>
  </station>
  <station code="LTHK" name="LTHK" netid="HP" insttype="DC" lat="37.7095" lon="20.8367">
    <comp name="--.HNN">
      <acc value="0.0504466495" flag="0"/>
      <vel value="0.0170297473" flag="0"/>
      <psa03 value="0.0923182334" flag="0"/>
      <psa10 value="0.0124163698" flag="0"/>
      <psa30 value="0.0009984308" flag="0"/>
    </comp>
    <comp name="--.HNZ">
      <acc value="0.0272207194" flag="0"/>
      <vel value="0.0097690266" flag="0"/>
      <psa03 value="0.0523039732" flag="0"/>
      <psa10 value="0.0083745872" flag="0"/>
      <psa30 value="0.0005496996" flag="0"/>
    </comp>
  </station>
  <station code="EVGI" name="EVGI" netid="HT" insttype="30" lat="38.621" lon="20.656">
    <comp name="--.HHE">
      <acc value="0.1824314755" flag="0"/>
      <vel value="0.0273831390" flag="0"/>
      <psa03 value="0.0654406629" flag="0"/>
      <psa10 value="0.0073581628" flag="0"/>
      <psa30 value="0.0012318997" flag="0"/>
    </comp>
    <comp name="--.HHN">
      <acc value="0.1671299352" flag="0"/>
      <vel value="0.0338513705" flag="0"/>
      <psa03 value="0.0797697169" flag="0"/>
      <psa10 value="0.0068577224" flag="0"/>
      <psa30 value="0.0009504254" flag="0"/>
    </comp>
    <comp name="--.HHZ">
      <acc value="0.1290481432" flag="0"/>
      <vel value="0.0236337423" flag="0"/>
      <psa03 value="0.0731645379" flag="0"/>
      <psa10 value="0.0070154417" flag="0"/>
      <psa30 value="0.0007521880" flag="0"/>
    </comp>
  </station>
  <station code="LKD2" name="LKD2" netid="HT" insttype="100" lat="38.7889" lon="20.6578">
    <comp name="--.HHZ">
      <acc value="0.0161275053" flag="0"/>
      <vel value="0.0056422505" flag="0"/>
      <psa03 value="0.0167963374" flag="0"/>
      <psa10 value="0.0039750773" flag="0"/>
      <psa30 value="0.0005430468" flag="0"/>
    </comp>
    <comp name="--.HHE">
      <acc value="0.0296693330" flag="0"/>
      <vel value="0.0103048414" flag="0"/>
      <psa03 value="0.0415970068" flag="0"/>
      <psa10 value="0.0061525577" flag="0"/>
      <psa30 value="0.0005116521" flag="0"/>
    </comp>
    <comp name="--.HHN">
      <acc value="0.0352156191" flag="0"/>
      <vel value="0.0082982570" flag="0"/>
      <psa03 value="0.0464317352" flag="0"/>
      <psa10 value="0.0060968124" flag="0"/>
      <psa30 value="0.0006988617" flag="0"/>
    </comp>
  </station>
  <station code="NYDR" name="NYDR" netid="HT" insttype="1s-100Hz," lat="38.7135" lon="20.6983">
    <comp name="--.HHN">
      <acc value="0.0417754948" flag="0"/>
      <vel value="0.0197951747" flag="0"/>
      <psa03 value="0.0852839698" flag="0"/>
      <psa10 value="0.0102279735" flag="0"/>
      <psa30 value="0.0008104974" flag="0"/>
    </comp>
    <comp name="--.HHZ">
      <acc value="0.0248122474" flag="0"/>
      <vel value="0.0082901542" flag="0"/>
      <psa03 value="0.0609546808" flag="0"/>
      <psa10 value="0.0084701013" flag="0"/>
      <psa30 value="0.0005070060" flag="0"/>
    </comp>
    <comp name="--.HHE">
      <acc value="0.0347420797" flag="0"/>
      <vel value="0.0150360285" flag="0"/>
      <psa03 value="0.0327437697" flag="0"/>
      <psa10 value="0.0082741578" flag="0"/>
      <psa30 value="0.0011753619" flag="0"/>
    </comp>
  </station>
  <station code="RTZL" name="RTZL" netid="HT" insttype="Compact," lat="38.076" lon="20.7715">
    <comp name="--.HHN">
      <acc value="0.5718912862" flag="0"/>
      <vel value="0.1084020886" flag="0"/>
      <psa03 value="0.1828890100" flag="0"/>
      <psa10 value="0.0249954289" flag="0"/>
      <psa30 value="0.0032307894" flag="0"/>
    </comp>
    <comp name="--.HHZ">
      <acc value="0.2447589374" flag="0"/>
      <vel value="0.0420804304" flag="0"/>
      <psa03 value="0.0723537838" flag="0"/>
      <psa10 value="0.0180115493" flag="0"/>
      <psa30 value="0.0011725537" flag="0"/>
    </comp>
    <comp name="--.HHE">
      <acc value="0.5701808807" flag="0"/>
      <vel value="0.1138780795" flag="0"/>
      <psa03 value="0.2309339326" flag="0"/>
      <psa10 value="0.0256474440" flag="0"/>
      <psa30 value="0.0025229537" flag="0"/>
    </comp>
  </station>
  <station code="TSLK" name="TSLK" netid="HT" insttype="1s-100Hz," lat="38.8249" lon="20.6554">
    <comp name="--.HHE">
      <acc value="0.0394503464" flag="0"/>
      <vel value="0.0175664479" flag="0"/>
      <psa03 value="0.1037157221" flag="0"/>
      <psa10 value="0.0148766143" flag="0"/>
      <psa30 value="0.0013528058" flag="0"/>
    </comp>
    <comp name="--.HHN">
      <acc value="0.0228479983" flag="0"/>
      <vel value="0.0108621475" flag="0"/>
      <psa03 value="0.0433630100" flag="0"/>
      <psa10 value="0.0084079565" flag="0"/>
      <psa30 value="0.0012930173" flag="0"/>
    </comp>
    <comp name="--.HHZ">
      <acc value="0.0189212990" flag="0"/>
      <vel value="0.0058890683" flag="0"/>
      <psa03 value="0.0382290243" flag="0"/>
      <psa10 value="0.0040474805" flag="0"/>
      <psa30 value="0.0010594689" flag="0"/>
    </comp>
  </station>
</stationlist>
