<?xml version="1.0" encoding="UTF-8" standalone="yes"?>
<!DOCTYPE earthquake SYSTEM "stationlist.dtd">
<stationlist created="" xmlns="ch.ethz.sed.shakemap.usgs.xml">
  <station code="BERNI" name="BERNI" netid="CH" insttype="Trillium 240s_g2" lat="46.4136" lon="10.0231">
    <comp name="--.HHZ">
      <acc value="0.0032765832" flag="0"/>
      <vel value="0.0010353997" flag="0"/>
      <psa03 value="0.0077902410" flag="0"/>
      <psa10 value="0.0008239864" flag="0"/>
      <psa30 value="0.0001436544" flag="0"/>
    </comp>
    <comp name="--.HHN">
      <acc value="0.0033224021" flag="0"/>
      <vel value="0.0012236670" flag="0"/>
      <psa03 value="0.0050085700" flag="0"/>
      <psa10 value="0.0006862196" flag="0"/>
      <psa30 value="0.0001483425" flag="0"/>
    </comp>
    <comp name="--.HHE">
      <acc value="0.0035234782" flag="0"/>
      <vel value="0.0009669435" flag="0"/>
      <psa03 value="0.0041587140" flag="0"/>
      <psa10 value="0.0004799159" flag="0"/>
      <psa30 value="0.0000998628" flag="0"/>
    </comp>
  </station>
  <station code="BNALP" name="BNALP" netid="CH" insttype="STS2_gen3" lat="46.8703" lon="8.4249">
    <comp name="--.HHZ">
      <acc value="0.0223519780" flag="0"/>
      <vel value="0.0069623065" flag="0"/>
      <psa03 value="0.0252914278" flag="0"/>
      <psa10 value="0.0036408842" flag="0"/>
      <psa30 value="0.0004680043" flag="0"/>
    </comp>
    <comp name="--.HHE">
      <acc value="0.0098201592" flag="0"/>
      <vel value="0.0034159836" flag="0"/>
      <psa03 value="0.0176158063" flag="0"/>
      <psa10 value="0.0021752330" flag="0"/>
      <psa30 value="0.0006642182" flag="0"/>
    </comp>
    <comp name="--.HHN">
      <acc value="0.0162928421" flag="0"/>
      <vel value="0.0068589505" flag="0"/>
      <psa03 value="0.0313177037" flag="0"/>
      <psa10 value="0.0043886409" flag="0"/>
      <psa30 value="0.0009910304" flag="0"/>
    </comp>
  </station>
  <station code="BOBI" name="BOBI" netid="CH" insttype="EpiSensor ES-T" lat="47.5463" lon="8.33992">
    <comp name="SF.HGE">
      <acc value="0.0426026367" flag="0"/>
      <vel value="0.0111776324" flag="0"/>
      <psa03 value="0.0429250108" flag="0"/>
      <psa10 value="0.0053134363" flag="0"/>
      <psa30 value="0.0010969739" flag="0"/>
    </comp>
    <comp name="SF.HGZ">
      <acc value="0.0284956654" flag="0"/>
      <vel value="0.0089756569" flag="0"/>
      <psa03 value="0.0603417959" flag="0"/>
      <psa10 value="0.0031147904" flag="0"/>
      <psa30 value="0.0007463891" flag="0"/>
    </comp>
    <comp name="SF.HGN">
      <acc value="0.0451114239" flag="0"/>
      <vel value="0.0110343573" flag="0"/>
      <psa03 value="0.0620502879" flag="0"/>
      <psa10 value="0.0071149853" flag="0"/>
      <psa30 value="0.0005818164" flag="0"/>
    </comp>
  </station>
  <station code="DAGMA" name="DAGMA" netid="CH" insttype="Trillium Compact 120s" lat="47.2309" lon="8.01248">
    <comp name="--.HHE">
      <acc value="0.0152618214" flag="0"/>
      <vel value="0.0045774760" flag="0"/>
      <psa03 value="0.0373798492" flag="0"/>
      <psa10 value="0.0041654868" flag="0"/>
      <psa30 value="0.0004611065" flag="0"/>
    </comp>
    <comp name="--.HHN">
      <acc value="0.0151813595" flag="0"/>
      <vel value="0.0052625728" flag="0"/>
      <psa03 value="0.0349277833" flag="0"/>
      <psa10 value="0.0025836538" flag="0"/>
      <psa30 value="0.0008088868" flag="0"/>
    </comp>
    <comp name="--.HHZ">
      <acc value="0.0115696046" flag="0"/>
      <vel value="0.0035626440" flag="0"/>
      <psa03 value="0.0158826435" flag="0"/>
      <psa10 value="0.0035975036" flag="0"/>
      <psa30 value="0.0003699336" flag="0"/>
    </comp>
  </station>
  <station code="DAVOX" name="DAVOX" netid="CH" insttype="STS2.5" lat="46.7805" lon="9.87952">
    <comp name="--.HHE">
      <acc value="0.0045091305" flag="0"/>
      <vel value="0.0015160701" flag="0"/>
      <psa03 value="0.0094988699" flag="0"/>
      <psa10 value="0.0017266583" flag="0"/>
      <psa30 value="0.0001704466" flag="0"/>
    </comp>
    <comp name="--.HHN">
      <acc value="0.0076371432" flag="0"/>
      <vel value="0.0031789958" flag="0"/>
      <psa03 value="0.0136221312" flag="0"/>
      <psa10 value="0.0018414154" flag="0"/>
      <psa30 value="0.0002549395" flag="0"/>
    </comp>
    <comp name="--.HHZ">
      <acc value="0.0041232569" flag="0"/>
      <vel value="0.0015742280" flag="0"/>
      <psa03 value="0.0094625195" flag="0"/>
      <psa10 value="0.0012279791" flag="0"/>
      <psa30 value="0.0002992007" flag="0"/>
    </comp>
  </station>
  <station code="FIESA" name="FIESA" netid="CH" insttype="STS2_gen2" lat="46.4352" lon="8.11051">
    <comp name="--.HHE">
      <acc value="0.0037397930" flag="0"/>
      <vel value="0.0018936174" flag="0"/>
      <psa03 value="0.0053087841" flag="0"/>
      <psa10 value="0.0049605042" flag="0"/>
      <psa30 value="0.0006400858" flag="0"/>
    </comp>
    <comp name="--.HHZ">
      <acc value="0.0037113462" flag="0"/>
      <vel value="0.0013648284" flag="0"/>
      <psa03 value="0.0040982917" flag="0"/>
      <psa10 value="0.0028489183" flag="0"/>
      <psa30 value="0.0005550154" flag="0"/>
    </comp>
    <comp name="--.HHN">
      <acc value="0.0037186158" flag="0"/>
      <vel value="0.0016322676" flag="0"/>
      <psa03 value="0.0044342444" flag="0"/>
      <psa10 value="0.0033836021" flag="0"/>
      <psa30 value="0.0003469050" flag="0"/>
    </comp>
  </station>
  <station code="FUORN" name="FUORN" netid="CH" insttype="Trillium 240s_g2" lat="46.6203" lon="10.2635">
    <comp name="--.HHN">
      <acc value="0.0012709889" flag="0"/>
      <vel value="0.0007160140" flag="0"/>
      <psa03 value="0.0034084640" flag="0"/>
      <psa10 value="0.0011050418" flag="0"/>
      <psa30 value="0.0001865633" flag="0"/>
    </comp>
    <comp name="--.HHZ">
      <acc value="0.0019782963" flag="0"/>
      <vel value="0.0007145843" flag="0"/>
      <psa03 value="0.0072948110" flag="0"/>
      <psa10 value="0.0006260914" flag="0"/>
      <psa30 value="0.0002612447" flag="0"/>
    </comp>
    <comp name="--.HHE">
      <acc value="0.0015174473" flag="0"/>
      <vel value="0.0007638561" flag="0"/>
      <psa03 value="0.0051644786" flag="0"/>
      <psa10 value="0.0006028986" flag="0"/>
      <psa30 value="0.0002384163" flag="0"/>
    </comp>
  </station>
  <station code="FUSIO" name="FUSIO" netid="CH" insttype="STS2.5" lat="46.4548" lon="8.6629">
    <comp name="--.HHE">
      <acc value="0.0185994426" flag="0"/>
      <vel value="0.0038955633" flag="0"/>
      <psa03 value="0.0200407058" flag="0"/>
      <psa10 value="0.0038698277" flag="0"/>
      <psa30 value="0.0006959723" flag="0"/>
    </comp>
    <comp name="--.HHN">
      <acc value="0.0199002689" flag="0"/>
      <vel value="0.0037928023" flag="0"/>
      <psa03 value="0.0231639137" flag="0"/>
      <psa10 value="0.0042976203" flag="0"/>
      <psa30 value="0.0005113580" flag="0"/>
    </comp>
    <comp name="--.HHZ">
      <acc value="0.0175667228" flag="0"/>
      <vel value="0.0033166223" flag="0"/>
      <psa03 value="0.0159519607" flag="0"/>
      <psa10 value="0.0033545797" flag="0"/>
      <psa30 value="0.0002775947" flag="0"/>
    </comp>
  </station>
  <station code="GRIMS" name="GRIMS" netid="CH" insttype="STS2_gen3" lat="46.5781" lon="8.31886">
    <comp name="--.HHN">
      <acc value="0.0055502565" flag="0"/>
      <vel value="0.0014458251" flag="0"/>
      <psa03 value="0.0042605460" flag="0"/>
      <psa10 value="0.0028203360" flag="0"/>
      <psa30 value="0.0003642683" flag="0"/>
    </comp>
    <comp name="--.HHZ">
      <acc value="0.0051532726" flag="0"/>
      <vel value="0.0015356335" flag="0"/>
      <psa03 value="0.0025169498" flag="0"/>
      <psa10 value="0.0023683698" flag="0"/>
      <psa30 value="0.0006319241" flag="0"/>
    </comp>
    <comp name="--.HHE">
      <acc value="0.0061157962" flag="0"/>
      <vel value="0.0010804037" flag="0"/>
      <psa03 value="0.0050642875" flag="0"/>
      <psa10 value="0.0011170150" flag="0"/>
      <psa30 value="0.0002596531" flag="0"/>
    </comp>
  </station>
  <station code="HAMIK" name="HAMIK" netid="CH" insttype="EpiSensor ES-T" lat="47.2451" lon="8.27061">
    <comp name="SF.HGN">
      <acc value="0.0252595621" flag="0"/>
      <vel value="0.0087831495" flag="0"/>
      <psa03 value="0.0247529603" flag="0"/>
      <psa10 value="0.0077740209" flag="0"/>
      <psa30 value="0.0007266791" flag="0"/>
    </comp>
    <comp name="SF.HGE">
      <acc value="0.0211815135" flag="0"/>
      <vel value="0.0048146767" flag="0"/>
      <psa03 value="0.0259724645" flag="0"/>
      <psa10 value="0.0085796669" flag="0"/>
      <psa30 value="0.0008363757" flag="0"/>
    </comp>
    <comp name="SF.HGZ">
      <acc value="0.0172013248" flag="0"/>
      <vel value="0.0041039647" flag="0"/>
      <psa03 value="0.0164187153" flag="0"/>
      <psa10 value="0.0095769325" flag="0"/>
      <psa30 value="0.0007536573" flag="0"/>
    </comp>
  </station>
  <station code="HASLI" name="HASLI" netid="CH" insttype="STS2_gen3" lat="46.7568" lon="8.15117">
    <comp name="--.HHN">
      <acc value="0.0172433340" flag="0"/>
      <vel value="0.0050912791" flag="0"/>
      <psa03 value="0.0198534684" flag="0"/>
      <psa10 value="0.0040772143" flag="0"/>
      <psa30 value="0.0007537507" flag="0"/>
    </comp>
    <comp name="--.HHE">
      <acc value="0.0096971921" flag="0"/>
      <vel value="0.0046637835" flag="0"/>
      <psa03 value="0.0170726445" flag="0"/>
      <psa10 value="0.0027591235" flag="0"/>
      <psa30 value="0.0001648255" flag="0"/>
    </comp>
    <comp name="--.HHZ">
      <acc value="0.0088254461" flag="0"/>
      <vel value="0.0035298943" flag="0"/>
      <psa03 value="0.0163274788" flag="0"/>
      <psa10 value="0.0036510561" flag="0"/>
      <psa30 value="0.0003107486" flag="0"/>
    </comp>
  </station>
  <station code="LIENZ" name="LIENZ" netid="CH" insttype="STS2.5" lat="47.2944" lon="9.49177">
    <comp name="--.HHN">
      <acc value="0.0049387486" flag="0"/>
      <vel value="0.0039539863" flag="0"/>
      <psa03 value="0.0088320981" flag="0"/>
      <psa10 value="0.0056032481" flag="0"/>
      <psa30 value="0.0006230691" flag="0"/>
    </comp>
    <comp name="--.HHE">
      <acc value="0.0053798216" flag="0"/>
      <vel value="0.0041169874" flag="0"/>
      <psa03 value="0.0079792534" flag="0"/>
      <psa10 value="0.0049497555" flag="0"/>
      <psa30 value="0.0010785709" flag="0"/>
    </comp>
    <comp name="--.HHZ">
      <acc value="0.0044560847" flag="0"/>
      <vel value="0.0034311521" flag="0"/>
      <psa03 value="0.0056185045" flag="0"/>
      <psa10 value="0.0043405101" flag="0"/>
      <psa30 value="0.0007609785" flag="0"/>
    </comp>
  </station>
  <station code="LLS" name="LLS" netid="CH" insttype="STS2_gen3" lat="46.8468" lon="9.00825">
    <comp name="--.HHN">
      <acc value="0.6585266561" flag="0"/>
      <vel value="0.0755888843" flag="0"/>
      <psa03 value="0.2204780771" flag="0"/>
      <psa10 value="0.0292344803" flag="0"/>
      <psa30 value="0.0036799894" flag="0"/>
    </comp>
    <comp name="--.HHZ">
      <acc value="0.6525026099" flag="0"/>
      <vel value="0.0795480000" flag="0"/>
      <psa03 value="0.1973756420" flag="0"/>
      <psa10 value="0.0269467608" flag="0"/>
      <psa30 value="0.0028812597" flag="0"/>
    </comp>
    <comp name="--.HHE">
      <acc value="0.5943296568" flag="0"/>
      <vel value="0.1044845855" flag="0"/>
      <psa03 value="0.2463035836" flag="0"/>
      <psa10 value="0.0367525972" flag="0"/>
      <psa30 value="0.0043773680" flag="0"/>
    </comp>
  </station>
  <station code="MUO" name="MUO" netid="CH" insttype="STS2_gen3" lat="46.9676" lon="8.63706">
    <comp name="--.HHN">
      <acc value="0.0396224074" flag="0"/>
      <vel value="0.0179013575" flag="0"/>
      <psa03 value="0.0879965336" flag="0"/>
      <psa10 value="0.0140609767" flag="0"/>
      <psa30 value="0.0016417291" flag="0"/>
    </comp>
    <comp name="--.HHE">
      <acc value="0.0271849337" flag="0"/>
      <vel value="0.0178558611" flag="0"/>
      <psa03 value="0.0614273531" flag="0"/>
      <psa10 value="0.0147877778" flag="0"/>
      <psa30 value="0.0036827636" flag="0"/>
    </comp>
    <comp name="--.HHZ">
      <acc value="0.0231122579" flag="0"/>
      <vel value="0.0074333345" flag="0"/>
      <psa03 value="0.0544402177" flag="0"/>
      <psa10 value="0.0062387391" flag="0"/>
      <psa30 value="0.0017826894" flag="0"/>
    </comp>
  </station>
  <station code="NALPS" name="NALPS" netid="CH" insttype="Trillium 240s_g2" lat="46.5951" lon="8.74828">
    <comp name="--.HHE">
      <acc value="0.0645823355" flag="0"/>
      <vel value="0.0060611494" flag="0"/>
      <psa03 value="0.0159696780" flag="0"/>
      <psa10 value="0.0067571249" flag="0"/>
      <psa30 value="0.0009418104" flag="0"/>
    </comp>
    <comp name="--.HHZ">
      <acc value="0.0319707116" flag="0"/>
      <vel value="0.0049853032" flag="0"/>
      <psa03 value="0.0164614786" flag="0"/>
      <psa10 value="0.0058523523" flag="0"/>
      <psa30 value="0.0007200197" flag="0"/>
    </comp>
    <comp name="--.HHN">
      <acc value="0.0508471433" flag="0"/>
      <vel value="0.0059775242" flag="0"/>
      <psa03 value="0.0262077942" flag="0"/>
      <psa10 value="0.0029326556" flag="0"/>
      <psa30 value="0.0007953761" flag="0"/>
    </comp>
  </station>
  <station code="PANIX" name="PANIX" netid="CH" insttype="STS2.5" lat="46.8257" lon="9.11171">
    <comp name="--.HHE">
      <acc value="1.2207990701" flag="0"/>
      <vel value="0.1904917847" flag="0"/>
      <psa03 value="0.7062328697" flag="0"/>
      <psa10 value="0.0482184297" flag="0"/>
      <psa30 value="0.0065481123" flag="0"/>
    </comp>
    <comp name="--.HHZ">
      <acc value="0.8089681249" flag="0"/>
      <vel value="0.1008751426" flag="0"/>
      <psa03 value="0.2977766753" flag="0"/>
      <psa10 value="0.0391567101" flag="0"/>
      <psa30 value="0.0017791584" flag="0"/>
    </comp>
    <comp name="--.HHN">
      <acc value="0.5616071390" flag="0"/>
      <vel value="0.0885759732" flag="0"/>
      <psa03 value="0.4413945539" flag="0"/>
      <psa10 value="0.0375355758" flag="0"/>
      <psa30 value="0.0020494949" flag="0"/>
    </comp>
  </station>
  <station code="PLONS" name="PLONS" netid="CH" insttype="Trillium 240s_g2" lat="47.0492" lon="9.38076">
    <comp name="--.HHE">
      <acc value="0.0561524902" flag="0"/>
      <vel value="0.0111275562" flag="0"/>
      <psa03 value="0.0752287131" flag="0"/>
      <psa10 value="0.0097781206" flag="0"/>
      <psa30 value="0.0011708294" flag="0"/>
    </comp>
    <comp name="--.HHZ">
      <acc value="0.0585988205" flag="0"/>
      <vel value="0.0127617916" flag="0"/>
      <psa03 value="0.0701682682" flag="0"/>
      <psa10 value="0.0097780004" flag="0"/>
      <psa30 value="0.0013975663" flag="0"/>
    </comp>
    <comp name="--.HHN">
      <acc value="0.0549122799" flag="0"/>
      <vel value="0.0164869118" flag="0"/>
      <psa03 value="0.0975616771" flag="0"/>
      <psa10 value="0.0088605207" flag="0"/>
      <psa30 value="0.0018258141" flag="0"/>
    </comp>
  </station>
  <station code="ROMAN" name="ROMAN" netid="CH" insttype="Trillium Borehole 120s" lat="47.5643" lon="9.33595">
    <comp name="BT.HH3">
      <acc value="0.0040900088" flag="0"/>
      <vel value="0.0019846854" flag="0"/>
      <psa03 value="0.0042972278" flag="0"/>
      <psa10 value="0.0042285938" flag="0"/>
      <psa30 value="0.0004656652" flag="0"/>
    </comp>
    <comp name="BT.HHZ">
      <acc value="0.0024357585" flag="0"/>
      <vel value="0.0024105269" flag="0"/>
      <psa03 value="0.0057791522" flag="0"/>
      <psa10 value="0.0049074693" flag="0"/>
      <psa30 value="0.0004710156" flag="0"/>
    </comp>
    <comp name="BT.HH2">
      <acc value="0.0035740594" flag="0"/>
      <vel value="0.0028233753" flag="0"/>
      <psa03 value="0.0050907611" flag="0"/>
      <psa10 value="0.0065420124" flag="0"/>
      <psa30 value="0.0009566816" flag="0"/>
    </comp>
  </station>
  <station code="SAARA" name="SAARA" netid="CH" insttype="EpiSensor ES-T" lat="47.3861" lon="8.04375">
    <comp name="--.HGN">
      <acc value="0.0087375165" flag="0"/>
      <vel value="0.0026273188" flag="0"/>
      <psa03 value="0.0061724443" flag="0"/>
      <psa10 value="0.0006704638" flag="0"/>
      <psa30 value="0.0001382282" flag="0"/>
    </comp>
    <comp name="--.HGE">
      <acc value="0.0098487198" flag="0"/>
      <vel value="0.0021935936" flag="0"/>
      <psa03 value="0.0111343046" flag="0"/>
      <psa10 value="0.0010585093" flag="0"/>
      <psa30 value="0.0000962966" flag="0"/>
    </comp>
    <comp name="--.HGZ">
      <acc value="0.0100619470" flag="0"/>
      <vel value="0.0016143610" flag="0"/>
      <psa03 value="0.0049267515" flag="0"/>
      <psa10 value="0.0005344290" flag="0"/>
      <psa30 value="0.0000689805" flag="0"/>
    </comp>
  </station>
  <station code="SALTS" name="SALTS" netid="CH" insttype="EpiSensor ES-T" lat="46.882" lon="8.63821">
    <comp name="--.HGE">
      <acc value="0.1705266542" flag="0"/>
      <vel value="0.0461675113" flag="0"/>
      <psa03 value="0.3084186940" flag="0"/>
      <psa10 value="0.0121074186" flag="0"/>
      <psa30 value="0.0012871769" flag="0"/>
    </comp>
    <comp name="--.HGZ">
      <acc value="0.0969427231" flag="0"/>
      <vel value="0.0205651535" flag="0"/>
      <psa03 value="0.1234978996" flag="0"/>
      <psa10 value="0.0116974263" flag="0"/>
      <psa30 value="0.0010796139" flag="0"/>
    </comp>
    <comp name="--.HGN">
      <acc value="0.2785954434" flag="0"/>
      <vel value="0.0435487370" flag="0"/>
      <psa03 value="0.2937599185" flag="0"/>
      <psa10 value="0.0169864117" flag="0"/>
      <psa30 value="0.0017548933" flag="0"/>
    </comp>
  </station>
  <station code="SBUA2" name="SBUA2" netid="CH" insttype="EpiSensor ES-T" lat="47.1591" lon="9.47102">
    <comp name="--.HGZ">
      <acc value="0.0372519533" flag="0"/>
      <vel value="0.0059311439" flag="0"/>
      <psa03 value="0.0204367705" flag="0"/>
      <psa10 value="0.0069152557" flag="0"/>
      <psa30 value="0.0006877841" flag="0"/>
    </comp>
    <comp name="--.HGE">
      <acc value="0.0882679708" flag="0"/>
      <vel value="0.0151851247" flag="0"/>
      <psa03 value="0.0762088117" flag="0"/>
      <psa10 value="0.0078587602" flag="0"/>
      <psa30 value="0.0014600424" flag="0"/>
    </comp>
    <comp name="--.HGN">
      <acc value="0.0726355533" flag="0"/>
      <vel value="0.0128470765" flag="0"/>
      <psa03 value="0.0835482136" flag="0"/>
      <psa10 value="0.0064976470" flag="0"/>
      <psa30 value="0.0010020994" flag="0"/>
    </comp>
  </station>
  <station code="SCHK" name="SCHK" netid="CH" insttype="EpiSensor ES-T" lat="46.7889" lon="9.53633">
    <comp name="--.HGZ">
      <acc value="0.0493804793" flag="0"/>
      <vel value="0.0102973301" flag="0"/>
      <psa03 value="0.0265983449" flag="0"/>
      <psa10 value="0.0027144946" flag="0"/>
      <psa30 value="0.0006217836" flag="0"/>
    </comp>
    <comp name="--.HGE">
      <acc value="0.1366777540" flag="0"/>
      <vel value="0.0328976730" flag="0"/>
      <psa03 value="0.0667705969" flag="0"/>
      <psa10 value="0.0043412423" flag="0"/>
      <psa30 value="0.0008628765" flag="0"/>
    </comp>
    <comp name="--.HGN">
      <acc value="0.1055340378" flag="0"/>
      <vel value="0.0257174105" flag="0"/>
      <psa03 value="0.0586263571" flag="0"/>
      <psa10 value="0.0057190514" flag="0"/>
      <psa30 value="0.0011709503" flag="0"/>
    </comp>
  </station>
  <station code="SCUG" name="SCUG" netid="CH" insttype="EpiSensor ES-T" lat="46.8561" lon="9.52383">
    <comp name="--.HGN">
      <acc value="0.0860707753" flag="0"/>
      <vel value="0.0169900297" flag="0"/>
      <psa03 value="0.0562790792" flag="0"/>
      <psa10 value="0.0099393696" flag="0"/>
