<stationlist created="1642764504">
	<station code="KRL1" name="KRL1" netid="HI" source="ITSAK Strong Motion Network" insttype="" lat="37.7951" lon="26.7065">
		<comp name=".HNE" depth="0.0">
			<acc value="0.430395324" flag="0"/>
			<vel value="0.094962" flag="0"/>
			<psa03 value="0.285142082778" flag="0"/>
			<psa10 value="0.0301486410856" flag="0"/>
			<psa30 value="0.00248229762318" flag="0"/>
		</comp>
		<comp name=".HNN" depth="0.0">
			<acc value="0.22781751" flag="0"/>
			<vel value="0.067643" flag="0"/>
			<psa03 value="0.235299264605" flag="0"/>
			<psa10 value="0.0262829144338" flag="0"/>
			<psa30 value="0.00247871824665" flag="0"/>
		</comp>
		<comp name=".HNZ" depth="0.0">
			<acc value="0.140040186" flag="0"/>
			<vel value="0.028326" flag="0"/>
			<psa03 value="0.136508472392" flag="0"/>
			<psa10 value="0.030841250444" flag="0"/>
			<psa30 value="0.00155926590065" flag="0"/>
		</comp>
	</station>
	<station code="MYT1" name="MYT1" netid="HI" source="ITSAK Strong Motion Network" insttype="" lat="39.085" lon="26.5694">
		<comp name=".HNE" depth="0.0">
			<acc value="0.009533736" flag="0"/>
			<vel value="0.007044" flag="0"/>
			<psa03 value="0.0254135733592" flag="0"/>
			<psa10 value="0.0160870603896" flag="0"/>
			<psa30 value="0.00102459653156" flag="0"/>
		</comp>
		<comp name=".HNN" depth="0.0">
			<acc value="0.008326566" flag="0"/>
			<vel value="0.008911" flag="0"/>
			<psa03 value="0.0254135733592" flag="0"/>
			<psa10 value="0.0154427726143" flag="0"/>
			<psa30 value="0.000788357680614" flag="0"/>
		</comp>
		<comp name=".HNZ" depth="0.0">
			<acc value="0.006974964" flag="0"/>
			<vel value="0.005911" flag="0"/>
			<psa03 value="0.0226395565488" flag="0"/>
			<psa10 value="0.0111179909226" flag="0"/>
			<psa30 value="0.000579411575707" flag="0"/>
		</comp>
	</station>
	<station code="NAX1" name="NAX1" netid="HI" source="ITSAK Strong Motion Network" insttype="" lat="37.101394" lon="25.374103">
		<comp name=".HNE" depth="0.0">
			<acc value="0.0051969" flag="0"/>
			<vel value="0.001929" flag="0"/>
			<psa03 value="0.0102907075222" flag="0"/>
			<psa10 value="0.00126844155763" flag="0"/>
			<psa30 value="0.000170020385149" flag="0"/>
		</comp>
		<comp name=".HNN" depth="0.0">
			<acc value="0.005621424" flag="0"/>
			<vel value="0.002073" flag="0"/>
			<psa03 value="0.00903792573689" flag="0"/>
			<psa10 value="0.00134092393235" flag="0"/>
			<psa30 value="0.000208498682841" flag="0"/>
		</comp>
		<comp name=".HNZ" depth="0.0">
			<acc value="0.003369672" flag="0"/>
			<vel value="0.001354" flag="0"/>
			<psa03 value="0.00751669071187" flag="0"/>
			<psa10 value="0.00109931601661" flag="0"/>
			<psa30 value="0.000112750360678" flag="0"/>
		</comp>
	</station>
	<station code="RDI1" name="RDI1" netid="HI" source="ITSAK Strong Motion Network" insttype="" lat="36.4514" lon="28.224">
		<comp name=".HNE" depth="0.0">
			<acc value="0.00493017" flag="0"/>
			<vel value="0.005619" flag="0"/>
			<psa03 value="0.0182100780936" flag="0"/>
			<psa10 value="0.00868580457081" flag="0"/>
			<psa30 value="0.000879631782115" flag="0"/>
		</comp>
		<comp name=".HNN" depth="0.0">
			<acc value="0.00411009" flag="0"/>
			<vel value="0.00415" flag="0"/>
			<psa03 value="0.0177626560275" flag="0"/>
			<psa10 value="0.00753816697105" flag="0"/>
			<psa30 value="0.00107202327057" flag="0"/>
		</comp>
		<comp name=".HNZ" depth="0.0">
			<acc value="0.005320728" flag="0"/>
			<vel value="0.003244" flag="0"/>
			<psa03 value="0.0194628598789" flag="0"/>
			<psa10 value="0.00542007090974" flag="0"/>
			<psa30 value="0.000439815891058" flag="0"/>
		</comp>
	</station>
	<station code="ASTA" name="ASTA" netid="HL" source="National Observatory of Athens Seismic Network" insttype="" lat="36.54543" lon="26.3528">
		<comp name="00.HNE" depth="0.0">
			<acc value="0.006131832" flag="0"/>
			<vel value="0.002127" flag="0"/>
			<psa03 value="0.00993276986926" flag="0"/>
			<psa10 value="0.00344291279928" flag="0"/>
			<psa30 value="0.000280981057563" flag="0"/>
		</comp>
		<comp name="00.HNN" depth="0.0">
			<acc value="0.00482001" flag="0"/>
			<vel value="0.00273" flag="0"/>
			<psa03 value="0.0108276140016" flag="0"/>
			<psa10 value="0.00186843454838" flag="0"/>
			<psa30 value="0.000231764630283" flag="0"/>
		</comp>
		<comp name="00.HNZ" depth="0.0">
			<acc value="0.003463512" flag="0"/>
			<vel value="0.001895" flag="0"/>
			<psa03 value="0.0105591607619" flag="0"/>
			<psa10 value="0.00208588167254" flag="0"/>
			<psa30 value="0.000255925421857" flag="0"/>
		</comp>
	</station>
	<station code="KLNA" name="KLNA" netid="HL" source="National Observatory of Athens Seismic Network" insttype="" lat="36.95708" lon="26.97274">
		<comp name="00.HNE" depth="0.0">
			<acc value="0.07996443" flag="0"/>
			<vel value="0.025832" flag="0"/>
			<psa03 value="0.148857321419" flag="0"/>
			<psa10 value="0.0115166439835" flag="0"/>
			<psa30 value="0.000797306121938" flag="0"/>
		</comp>
		<comp name="00.HNN" depth="0.0">
			<acc value="0.06942528" flag="0"/>
			<vel value="0.024821" flag="0"/>
			<psa03 value="0.185501188639" flag="0"/>
			<psa10 value="0.011452215206" flag="0"/>
			<psa30 value="0.00095882548783" flag="0"/>
		</comp>
		<comp name="00.HNZ" depth="0.0">
			<acc value="0.063370866" flag="0"/>
			<vel value="0.020376" flag="0"/>
			<psa03 value="0.0879631782115" flag="0"/>
			<psa10 value="0.011830734274" flag="0"/>
			<psa30 value="0.000751221649121" flag="0"/>
		</comp>
	</station>
	<station code="PRK" name="PRK" netid="HL" source="National Observatory of Athens Seismic Network" insttype="" lat="39.24565" lon="26.26499">
		<comp name=".HNE" depth="0.0">
			<acc value="0.009554544" flag="0"/>
			<vel value="0.008466" flag="0"/>
			<psa03 value="0.0303352160872" flag="0"/>
			<psa10 value="0.0110334281521" flag="0"/>
			<psa30 value="0.000430867449734" flag="0"/>
		</comp>
		<comp name=".HNN" depth="0.0">
			<acc value="0.013424934" flag="0"/>
			<vel value="0.008399" flag="0"/>
			<psa03 value="0.0423708696675" flag="0"/>
			<psa10 value="0.0101596128568" flag="0"/>
			<psa30 value="0.000599545568685" flag="0"/>
		</comp>
		<comp name=".HNZ" depth="0.0">
			<acc value="0.007982112" flag="0"/>
			<vel value="0.005288" flag="0"/>
			<psa03 value="0.0223263611025" flag="0"/>
			<psa10 value="0.00650730653056" flag="0"/>
			<psa30 value="0.000310958335997" flag="0"/>
		</comp>
	</station>
	<station code="RODB" name="RODB" netid="HL" source="National Observatory of Athens Seismic Network" insttype="" lat="36.4471" lon="28.22116">
		<comp name="00.HNE" depth="0.0">
			<acc value="0.006415494" flag="0"/>
			<vel value="0.005" flag="0"/>
			<psa03 value="0.0255030577724" flag="0"/>
			<psa10 value="0.00566973242267" flag="0"/>
			<psa30 value="0.000790594790945" flag="0"/>
		</comp>
		<comp name="00.HNN" depth="0.0">
			<acc value="0.005229846" flag="0"/>
			<vel value="0.004784" flag="0"/>
			<psa03 value="0.0246529558467" flag="0"/>
			<psa10 value="0.00671267325894" flag="0"/>
			<psa30 value="0.000755248447716" flag="0"/>
		</comp>
		<comp name="00.HNZ" depth="0.0">
			<acc value="0.005274726" flag="0"/>
			<vel value="0.002583" flag="0"/>
			<psa03 value="0.0125725600597" flag="0"/>
			<psa10 value="0.00438115687206" flag="0"/>
			<psa30 value="0.000382993288652" flag="0"/>
		</comp>
	</station>
	<station code="THRA" name="THRA" netid="HL" source="National Observatory of Athens Seismic Network" insttype="" lat="36.41502" lon="25.43244">
		<comp name="00.HNE" depth="0.0">
			<acc value="0.008450394" flag="0"/>
			<vel value="0.005778" flag="0"/>
			<psa03 value="0.033288201724" flag="0"/>
			<psa10 value="0.00854486661996" flag="0"/>
			<psa30 value="0.000942718293447" flag="0"/>
		</comp>
		<comp name="00.HNN" depth="0.0">
			<acc value="0.008211" flag="0"/>
			<vel value="0.005348" flag="0"/>
			<psa03 value="0.0242055337805" flag="0"/>
			<psa10 value="0.00778782848398" flag="0"/>
			<psa30 value="0.000737351565069" flag="0"/>
		</comp>
		<comp name="00.HNZ" depth="0.0">
			<acc value="0.021327486" flag="0"/>
			<vel value="0.003848" flag="0"/>
			<psa03 value="0.0194181176723" flag="0"/>
			<psa10 value="0.00281875901695" flag="0"/>
			<psa30 value="0.00024026564954" flag="0"/>
		</comp>
	</station>
	<station code="TNSA" name="TNSA" netid="HL" source="National Observatory of Athens Seismic Network" insttype="" lat="37.53942" lon="25.1631">
		<comp name="00.HNE" depth="0.0">
			<acc value="0.003291438" flag="0"/>
			<vel value="0.001232" flag="0"/>
			<psa03 value="0.00953009000969" flag="0"/>
			<psa10 value="0.00068455576126" flag="0"/>
			<psa30 value="7.3377218854e-05" flag="0"/>
		</comp>
		<comp name="00.HNN" depth="0.0">
			<acc value="0.004136916" flag="0"/>
			<vel value="0.001432" flag="0"/>
			<psa03 value="0.00903792573689" flag="0"/>
			<psa10 value="0.000761064934577" flag="0"/>
			<psa30 value="6.89029981921e-05" flag="0"/>
		</comp>
		<comp name="00.HNZ" depth="0.0">
			<acc value="0.003217794" flag="0"/>
			<vel value="0.000824" flag="0"/>
			<psa03 value="0.00433999404197" flag="0"/>
			<psa10 value="0.000616100185134" flag="0"/>
			<psa30 value="0.000121251379936" flag="0"/>
		</comp>
	</station>
	<station code="AKS" name="AKS" netid="KO" source="Bogazici University Kandilli Observatory And Earthquake Research Institute (KOERI)" insttype="" lat="38.8785" lon="27.8129">
		<comp name=".HNE" depth="0.0">
			<acc value="0.014673414" flag="0"/>
			<vel value="0.007914" flag="0"/>
			<psa03 value="0.0493059116933" flag="0"/>
			<psa10 value="0.00476370273865" flag="0"/>
			<psa30 value="0.000437578780727" flag="0"/>
		</comp>
		<comp name=".HNN" depth="0.0">
			<acc value="0.019357254" flag="0"/>
			<vel value="0.007345" flag="0"/>
			<psa03 value="0.0438921046925" flag="0"/>
			<psa10 value="0.00640260976707" flag="0"/>
			<psa30 value="0.000829520510703" flag="0"/>
		</comp>
		<comp name=".HNZ" depth="0.0">
			<acc value="0.00727974" flag="0"/>
			<vel value="0.003187" flag="0"/>
			<psa03 value="0.0168678118951" flag="0"/>
			<psa10 value="0.00253285631666" flag="0"/>
			<psa30 value="0.000466213792962" flag="0"/>
		</comp>
	</station>
	<station code="CESE" name="CESE" netid="KO" source="Bogazici University Kandilli Observatory And Earthquake Research Institute (KOERI)" insttype="" lat="38.3306" lon="26.2997">
		<comp name=".HNE" depth="0.0">
			<acc value="0.015178212" flag="0"/>
			<vel value="0.008083" flag="0"/>
			<psa03 value="0.030245731674" flag="0"/>
			<psa10 value="0.00963210224078" flag="0"/>
			<psa30 value="0.000633549645715" flag="0"/>
		</comp>
		<comp name=".HNN" depth="0.0">
			<acc value="0.027532554" flag="0"/>
			<vel value="0.013944" flag="0"/>
			<psa03 value="0.0899318353027" flag="0"/>
			<psa10 value="0.0176937530293" flag="0"/>
			<psa30 value="0.000977617214609" flag="0"/>
		</comp>
		<comp name=".HNZ" depth="0.0">
			<acc value="0.015705756" flag="0"/>
			<vel value="0.007465" flag="0"/>
			<psa03 value="0.0254583155658" flag="0"/>
			<psa10 value="0.00831131230141" flag="0"/>
			<psa30 value="0.000360622185343" flag="0"/>
		</comp>
	</station>
	<station code="DATC" name="DATC" netid="KO" source="Bogazici University Kandilli Observatory And Earthquake Research Institute (KOERI)" insttype="" lat="36.7584" lon="27.6602">
		<comp name=".HNE" depth="0.0">
			<acc value="0.119621928" flag="0"/>
			<vel value="0.055315" flag="0"/>
			<psa03 value="0.192346746252" flag="0"/>
			<psa10 value="0.110000057237" flag="0"/>
			<psa30 value="0.00577129723169" flag="0"/>
		</comp>
		<comp name=".HNN" depth="0.0">
			<acc value="0.126325878" flag="0"/>
			<vel value="0.059089" flag="0"/>
			<psa03 value="0.331316040008" flag="0"/>
			<psa10 value="0.040819657364" flag="0"/>
			<psa30 value="0.00583975280782" flag="0"/>
		</comp>
		<comp name=".HNZ" depth="0.0">
			<acc value="0.173945802" flag="0"/>
			<vel value="0.032292" flag="0"/>
			<psa03 value="0.167112141719" flag="0"/>
			<psa10 value="0.0393216882865" flag="0"/>
			<psa30 value="0.00434446826263" flag="0"/>
		</comp>
	</station>
	<station code="EZNE" name="EZNE" netid="KO" source="Bogazici University Kandilli Observatory And Earthquake Research Institute (KOERI)" insttype="" lat="39.756" lon="26.3655">
		<comp name=".HNE" depth="0.0">
			<acc value="0.012097302" flag="0"/>
			<vel value="0.008464" flag="0"/>
			<psa03 value="0.0416549943616" flag="0"/>
			<psa10 value="0.00993008533686" flag="0"/>
			<psa30 value="0.00146888664328" flag="0"/>
		</comp>
		<comp name=".HNN" depth="0.0">
			<acc value="0.018500964" flag="0"/>
			<vel value="0.011351" flag="0"/>
			<psa03 value="0.0438026202793" flag="0"/>
			<psa10 value="0.0147380828601" flag="0"/>
			<psa30 value="0.00244784612409" flag="0"/>
		</comp>
		<comp name=".HNZ" depth="0.0">
			<acc value="0.008217222" flag="0"/>
			<vel value="0.004441" flag="0"/>
			<psa03 value="0.029306145335" flag="0"/>
			<psa10 value="0.00746971139492" flag="0"/>
			<psa30 value="0.00076777626557" flag="0"/>
		</comp>
	</station>
	<station code="FOCM" name="FOCM" netid="KO" source="Bogazici University Kandilli Observatory And Earthquake Research Institute (KOERI)" insttype="" lat="38.7131" lon="26.7309">
		<comp name=".HNE" depth="0.0">
			<acc value="0.02165664" flag="0"/>
			<vel value="0.008482" flag="0"/>
			<psa03 value="0.0608941432075" flag="0"/>
			<psa10 value="0.00612878746257" flag="0"/>
			<psa30 value="0.000481426143213" flag="0"/>
		</comp>
		<comp name=".HNN" depth="0.0">
			<acc value="0.023426952" flag="0"/>
			<vel value="0.008629" flag="0"/>
			<psa03 value="0.044071073519" flag="0"/>
			<psa10 value="0.010127398468" flag="0"/>
			<psa30 value="0.000666658878612" flag="0"/>
		</comp>
		<comp name=".HNZ" depth="0.0">
			<acc value="0.016020324" flag="0"/>
			<vel value="0.006091" flag="0"/>
			<psa03 value="0.0402679859564" flag="0"/>
			<psa10 value="0.00399055740828" flag="0"/>
			<psa30 value="0.000392389152042" flag="0"/>
		</comp>
	</station>
	<station code="GMLD" name="GMLD" netid="KO" source="Bogazici University Kandilli Observatory And Earthquake Research Institute (KOERI)" insttype="" lat="38.0766" lon="26.9157">
		<comp name=".HNE" depth="0.0">
			<acc value="1.263336402" flag="0"/>
			<vel value="0.394387" flag="0"/>
			<psa03 value="1.64825814961" flag="0"/>
			<psa10 value="0.140825200487" flag="0"/>
			<psa30 value="0.011236110348" flag="0"/>
		</comp>
		<comp name=".HNN" depth="0.0">
			<acc value="1.41939222" flag="0"/>
			<vel value="0.447512" flag="0"/>
			<psa03 value="1.82252904439" flag="0"/>
			<psa10 value="0.224220199403" flag="0"/>
			<psa30 value="0.0111891310311" flag="0"/>
		</comp>
		<comp name=".HNZ" depth="0.0">
			<acc value="1.042725804" flag="0"/>
			<vel value="0.271927" flag="0"/>
			<psa03 value="1.35984988575" flag="0"/>
			<psa10 value="0.0854204786094" flag="0"/>
			<psa30 value="0.00853457591244" flag="0"/>
		</comp>
	</station>
	<station code="GOMA" name="GOMA" netid="KO" source="Bogazici University Kandilli Observatory And Earthquake Research Institute (KOERI)" insttype="" lat="38.7077" lon="27.9175">
		<comp name=".HNE" depth="0.0">
			<acc value="0.033426522" flag="0"/>
			<vel value="0.018216" flag="0"/>
			<psa03 value="0.140535270988" flag="0"/>
			<psa10 value="0.00879452813289" flag="0"/>
			<psa30 value="0.000787462836482" flag="0"/>
		</comp>
		<comp name=".HNN" depth="0.0">
			<acc value="0.018616734" flag="0"/>
			<vel value="0.01231" flag="0"/>
			<psa03 value="0.0683660917127" flag="0"/>
			<psa10 value="0.00928982436015" flag="0"/>
			<psa30 value="0.000573595088846" flag="0"/>
		</comp>
		<comp name=".HNZ" depth="0.0">
			<acc value="0.018733422" flag="0"/>
			<vel value="0.009035" flag="0"/>
			<psa03 value="0.0602677523148" flag="0"/>
			<psa10 value="0.00587912594964" flag="0"/>
			<psa30 value="0.000516772486441" flag="0"/>
		</comp>
	</station>
	<station code="GORD" name="GORD" netid="KO" source="Bogazici University Kandilli Observatory And Earthquake Research Institute (KOERI)" insttype="" lat="38.9088" lon="28.1769">
		<comp name=".HNE" depth="0.0">
			<acc value="0.0345423" flag="0"/>
			<vel value="0.02797" flag="0"/>
			<psa03 value="0.152839377808" flag="0"/>
			<psa10 value="0.0379445231668" flag="0"/>
			<psa30 value="0.00289705787853" flag="0"/>
		</comp>
		<comp name=".HNN" depth="0.0">
			<acc value="0.030401814" flag="0"/>
			<vel value="0.017162" flag="0"/>
			<psa03 value="0.0867103964262" flag="0"/>
			<psa10 value="0.0217487392151" flag="0"/>
			<psa30 value="0.00198476428559" flag="0"/>
		</comp>
		<comp name=".HNZ" depth="0.0">
			<acc value="0.023720508" flag="0"/>
			<vel value="0.019598" flag="0"/>
			<psa03 value="0.0654578482825" flag="0"/>
			<psa10 value="0.0253527239582" flag="0"/>
			<psa30 value="0.00192704683905" flag="0"/>
		</comp>
	</station>
	<station code="KUSD" name="KUSD" netid="KO" source="Bogazici University Kandilli Observatory And Earthquake Research Institute (KOERI)" insttype="" lat="37.8606" lon="27.2868">
		<comp name=".HNE" depth="0.0">
			<acc value="1.667839638" flag="0"/>
			<vel value="0.518271" flag="0"/>
			<psa03 value="1.75062831835" flag="0"/>
			<psa10 value="0.116430854594" flag="0"/>
			<psa30 value="0.0101376891756" flag="0"/>
		</comp>
		<comp name=".HNN" depth="0.0">
			<acc value="1.008478488" flag="0"/>
			<vel value="0.260036" flag="0"/>
			<psa03 value="1.25282652752" flag="0"/>
			<psa10 value="0.153578071639" flag="0"/>
			<psa30 value="0.0110437188596" flag="0"/>
		</comp>
		<comp name=".HNZ" depth="0.0">
			<acc value="0.513134052" flag="0"/>
			<vel value="0.14872" flag="0"/>
			<psa03 value="0.49032984233" flag="0"/>
			<psa10 value="0.0518490587175" flag="0"/>
			<psa30 value="0.00544960076611" flag="0"/>
		</comp>
	</station>
	<station code="NAZL" name="NAZL" netid="KO" source="Bogazici University Kandilli Observatory And Earthquake Research Institute (KOERI)" insttype="" lat="37.9641" lon="28.2922">
		<comp name=".HNE" depth="0.0">
			<acc value="0.091636494" flag="0"/>
			<vel value="0.048904" flag="0"/>
			<psa03 value="0.28379981658" flag="0"/>
			<psa10 value="0.036249240958" flag="0"/>
			<psa30 value="0.00188633143103" flag="0"/>
		</comp>
		<comp name=".HNN" depth="0.0">
			<acc value="0.116571618" flag="0"/>
			<vel value="0.047957" flag="0"/>
			<psa03 value="0.263397370362" flag="0"/>
			<psa10 value="0.0287151007855" flag="0"/>
			<psa30 value="0.00238118023622" flag="0"/>
		</comp>
		<comp name=".HNZ" depth="0.0">
			<acc value="0.04039608" flag="0"/>
			<vel value="0.014479" flag="0"/>
			<psa03 value="0.0723481481017" flag="0"/>
			<psa10 value="0.0185273003386" flag="0"/>
			<psa30 value="0.0013601630812" flag="0"/>
		</comp>
	</station>
	<station code="SMAA" name="SMAA" netid="KO" source="Bogazici University Kandilli Observatory And Earthquake Research Institute (KOERI)" insttype="" lat="39.1005" lon="28.9805">
		<comp name=".HNE" depth="0.0">
			<acc value="0.005809308" flag="0"/>
			<vel value="0.00463" flag="0"/>
			<psa03 value="0.0174494605811" flag="0"/>
			<psa10 value="0.00851265223119" flag="0"/>
			<psa30 value="0.000532432258757" flag="0"/>
		</comp>
		<comp name=".HNN" depth="0.0">
			<acc value="0.004374678" flag="0"/>
			<vel value="0.004863" flag="0"/>
			<psa03 value="0.0119909113737" flag="0"/>
			<psa10 value="0.0073005858539" flag="0"/>
			<psa30 value="0.000701110377708" flag="0"/>
		</comp>
		<comp name=".HNZ" depth="0.0">
			<acc value="0.003417102" flag="0"/>
			<vel value="0.00176" flag="0"/>
			<psa03 value="0.00814308160453" flag="0"/>
			<psa10 value="0.00285902700291" flag="0"/>
			<psa30 value="0.000280533635497" flag="0"/>
		</comp>
	</station>
	<station code="SOMA" name="SOMA" netid="KO" source="Bogazici University Kandilli Observatory And Earthquake Research Institute (KOERI)" insttype="" lat="39.1564" lon="27.5341">
		<comp name=".HNE" depth="0.0">
			<acc value="0.096366846" flag="0"/>
			<vel value="0.042757" flag="0"/>
			<psa03 value="0.333463665926" flag="0"/>
