<stationlist created="1778135781">
	<station code="KRL1" name="KRL1" netid="HI" source="ITSAK Strong Motion Network" insttype="" lat="37.7951" lon="26.7065">
		<comp name="--.HNE" depth="0.0">
			<acc value="0.434792894786617" flag="0"/>
			<vel value="0.0962547767866457" flag="0"/>
			<psa03 value="0.285142082778246" flag="0"/>
			<psa10 value="0.0301486410855901" flag="0"/>
			<psa30 value="0.00248229762318172" flag="0"/>
		</comp>
		<comp name="--.HNN" depth="0.0">
			<acc value="0.229379416333647" flag="0"/>
			<vel value="0.0682208519508027" flag="0"/>
			<psa03 value="0.235299264605491" flag="0"/>
			<psa10 value="0.0262829144337714" flag="0"/>
			<psa30 value="0.00247871824665225" flag="0"/>
		</comp>
		<comp name="--.HNZ" depth="0.0">
			<acc value="0.143996075174104" flag="0"/>
			<vel value="0.0288066236621428" flag="0"/>
			<psa03 value="0.136508472392347" flag="0"/>
			<psa10 value="0.0308412504440409" flag="0"/>
			<psa30 value="0.00155926590064677" flag="0"/>
		</comp>
	</station>
	<station code="MYT1" name="MYT1" netid="HI" source="ITSAK Strong Motion Network" insttype="" lat="39.085" lon="26.5694">
		<comp name="--.HNE" depth="0.0">
			<acc value="0.00955485737402439" flag="0"/>
			<vel value="0.00705294531916984" flag="0"/>
			<psa03 value="0.0254189833620625" flag="0"/>
			<psa10 value="0.0160895239770074" flag="0"/>
			<psa30 value="0.0010255441872707" flag="0"/>
		</comp>
		<comp name="--.HNN" depth="0.0">
			<acc value="0.00833708051815293" flag="0"/>
			<vel value="0.00891968060037904" flag="0"/>
			<psa03 value="0.0254258822565912" flag="0"/>
			<psa10 value="0.0154452912997451" flag="0"/>
			<psa30 value="0.000788821161781116" flag="0"/>
		</comp>
		<comp name="--.HNZ" depth="0.0">
			<acc value="0.00698915737083188" flag="0"/>
			<vel value="0.00591383055128741" flag="0"/>
			<psa03 value="0.022650917178768" flag="0"/>
			<psa10 value="0.011119192216903" flag="0"/>
			<psa30 value="0.000579657566134919" flag="0"/>
		</comp>
	</station>
	<station code="NAX1" name="NAX1" netid="HI" source="ITSAK Strong Motion Network" insttype="" lat="37.101394" lon="25.374103">
		<comp name="--.HNE" depth="0.0">
			<acc value="0.00508358410029853" flag="0"/>
			<vel value="0.00192077030049189" flag="0"/>
			<psa03 value="0.0102969047756661" flag="0"/>
			<psa10 value="0.00125572381054044" flag="0"/>
			<psa30 value="0.000120099075766113" flag="0"/>
		</comp>
		<comp name="--.HNN" depth="0.0">
			<acc value="0.00547840851006831" flag="0"/>
			<vel value="0.00212287384035169" flag="0"/>
			<psa03 value="0.00906802714456854" flag="0"/>
			<psa10 value="0.00132936005576617" flag="0"/>
			<psa30 value="0.0001607564826614" flag="0"/>
		</comp>
		<comp name="--.HNZ" depth="0.0">
			<acc value="0.00323740938766387" flag="0"/>
			<vel value="0.00134244126176928" flag="0"/>
			<psa03 value="0.00751604933368005" flag="0"/>
			<psa10 value="0.00109473080179252" flag="0"/>
			<psa30 value="8.06717503575682e-05" flag="0"/>
		</comp>
	</station>
	<station code="ASTA" name="ASTA" netid="HL" source="National Observatory of Athens Seismic Network" insttype="" lat="36.54552" lon="26.35295">
		<comp name="00.HNE" depth="0.0">
			<acc value="0.00612926432026165" flag="0"/>
			<vel value="0.00214834535591389" flag="0"/>
			<psa03 value="0.00993276986925633" flag="0"/>
			<psa10 value="0.00344291279927601" flag="0"/>
			<psa30 value="0.000280981057562747" flag="0"/>
		</comp>
		<comp name="00.HNN" depth="0.0">
			<acc value="0.00482081710086724" flag="0"/>
			<vel value="0.00268534016436766" flag="0"/>
			<psa03 value="0.0108276140016218" flag="0"/>
			<psa10 value="0.00186843454837903" flag="0"/>
			<psa30 value="0.000231764630282648" flag="0"/>
		</comp>
		<comp name="00.HNZ" depth="0.0">
			<acc value="0.00346659499770384" flag="0"/>
			<vel value="0.00184911211110166" flag="0"/>
			<psa03 value="0.0105591607619121" flag="0"/>
			<psa10 value="0.00208588167254383" flag="0"/>
			<psa30 value="0.000255925421856514" flag="0"/>
		</comp>
	</station>
	<station code="KLNA" name="KLNA" netid="HL" source="National Observatory of Athens Seismic Network" insttype="" lat="36.95708" lon="26.97274">
		<comp name="00.HNE" depth="0.0">
			<acc value="0.0799643934527164" flag="0"/>
			<vel value="0.0258318817662653" flag="0"/>
			<psa03 value="0.14885732141899" flag="0"/>
			<psa10 value="0.0115166439835431" flag="0"/>
			<psa30 value="0.000797306121937602" flag="0"/>
		</comp>
		<comp name="00.HNN" depth="0.0">
			<acc value="0.0694252583651459" flag="0"/>
			<vel value="0.0248210897846051" flag="0"/>
			<psa03 value="0.185501188639355" flag="0"/>
			<psa10 value="0.0114522152060128" flag="0"/>
			<psa30 value="0.000958825487829563" flag="0"/>
		</comp>
		<comp name="00.HNZ" depth="0.0">
			<acc value="0.0633708608996204" flag="0"/>
			<vel value="0.0203763551724037" flag="0"/>
			<psa03 value="0.0879631782115223" flag="0"/>
			<psa10 value="0.0118307342740034" flag="0"/>
			<psa30 value="0.000751221649120783" flag="0"/>
		</comp>
	</station>
	<station code="PRK" name="PRK" netid="HL" source="National Observatory of Athens Seismic Network" insttype="" lat="39.24565" lon="26.26499">
		<comp name="--.HNE" depth="0.0">
			<acc value="0.00955569809224153" flag="0"/>
			<vel value="0.00846776994118145" flag="0"/>
			<psa03 value="0.0303352160871883" flag="0"/>
			<psa10 value="0.0110334281520658" flag="0"/>
			<psa30 value="0.000430867449733957" flag="0"/>
		</comp>
		<comp name="--.HNN" depth="0.0">
			<acc value="0.0134320066854251" flag="0"/>
			<vel value="0.00840598178502829" flag="0"/>
			<psa03 value="0.0423708696675034" flag="0"/>
			<psa10 value="0.010159612856811" flag="0"/>
			<psa30 value="0.000599545568684841" flag="0"/>
		</comp>
		<comp name="--.HNZ" depth="0.0">
			<acc value="0.00802869868859221" flag="0"/>
			<vel value="0.00530300297195155" flag="0"/>
			<psa03 value="0.0223263611025176" flag="0"/>
			<psa10 value="0.00650730653056144" flag="0"/>
			<psa30 value="0.000310958335996989" flag="0"/>
		</comp>
	</station>
	<station code="RODB" name="RODB" netid="HL" source="National Observatory of Athens Seismic Network" insttype="" lat="36.4471" lon="28.22116">
		<comp name="00.HNE" depth="0.0">
			<acc value="0.00639868818455252" flag="0"/>
			<vel value="0.00495920468823516" flag="0"/>
			<psa03 value="0.0255030577724149" flag="0"/>
			<psa10 value="0.0056697324226674" flag="0"/>
			<psa30 value="0.000790594790944862" flag="0"/>
		</comp>
		<comp name="00.HNN" depth="0.0">
			<acc value="0.00522387834156443" flag="0"/>
			<vel value="0.00471415666272479" flag="0"/>
			<psa03 value="0.0246529558466677" flag="0"/>
			<psa10 value="0.00671267325893931" flag="0"/>
			<psa30 value="0.000755248447716427" flag="0"/>
		</comp>
		<comp name="00.HNZ" depth="0.0">
			<acc value="0.00527310932786803" flag="0"/>
			<vel value="0.0025848085450018" flag="0"/>
			<psa03 value="0.0125725600597344" flag="0"/>
			<psa10 value="0.00438115687206117" flag="0"/>
			<psa30 value="0.000382993288652406" flag="0"/>
		</comp>
	</station>
	<station code="TNSA" name="TNSA" netid="HL" source="National Observatory of Athens Seismic Network" insttype="" lat="37.53942" lon="25.1631">
		<comp name="00.HNE" depth="0.0">
			<acc value="0.00329130582334274" flag="0"/>
			<vel value="0.0012196928289744" flag="0"/>
			<psa03 value="0.00953009000969188" flag="0"/>
			<psa10 value="0.000684555761259558" flag="0"/>
			<psa30 value="7.33772188539657e-05" flag="0"/>
		</comp>
		<comp name="00.HNN" depth="0.0">
			<acc value="0.00413754805357368" flag="0"/>
			<vel value="0.00142653187648512" flag="0"/>
			<psa03 value="0.0090379257368909" flag="0"/>
			<psa10 value="0.000761064934576803" flag="0"/>
			<psa30 value="6.89029981921385e-05" flag="0"/>
		</comp>
		<comp name="00.HNZ" depth="0.0">
			<acc value="0.00321649963672642" flag="0"/>
			<vel value="0.000819865760853821" flag="0"/>
			<psa03 value="0.00433999404197236" flag="0"/>
			<psa10 value="0.000616100185133602" flag="0"/>
			<psa30 value="0.000121251379935516" flag="0"/>
		</comp>
	</station>
	<station code="AKS" name="AKS" netid="KO" source="Bogazici University Kandilli Observatory And Earthquake Research Institute (KOERI)" insttype="" lat="38.8785" lon="27.8129">
		<comp name="--.HNE" depth="0.0">
			<acc value="0.0144868935759937" flag="0"/>
			<vel value="0.00795377393281942" flag="0"/>
			<psa03 value="0.0493059116933355" flag="0"/>
			<psa10 value="0.00476370273864739" flag="0"/>
			<psa30 value="0.000437578780726698" flag="0"/>
		</comp>
		<comp name="--.HNN" depth="0.0">
			<acc value="0.019385292161225" flag="0"/>
			<vel value="0.00668952191476458" flag="0"/>
			<psa03 value="0.0438921046925246" flag="0"/>
			<psa10 value="0.00640260976707469" flag="0"/>
			<psa30 value="0.000829520510702758" flag="0"/>
		</comp>
		<comp name="--.HNZ" depth="0.0">
			<acc value="0.00736443818484606" flag="0"/>
			<vel value="0.00282021996793802" flag="0"/>
			<psa03 value="0.0168678118950885" flag="0"/>
			<psa10 value="0.00253285631666036" flag="0"/>
			<psa30 value="0.000466213792962392" flag="0"/>
		</comp>
	</station>
	<station code="CESE" name="CESE" netid="KO" source="Bogazici University Kandilli Observatory And Earthquake Research Institute (KOERI)" insttype="" lat="38.3306" lon="26.2997">
		<comp name="--.HNE" depth="0.0">
			<acc value="0.0145328643862961" flag="0"/>
			<vel value="0.00773726853836064" flag="0"/>
			<psa03 value="0.0302457316739517" flag="0"/>
			<psa10 value="0.00963210224078154" flag="0"/>
			<psa30 value="0.000633549645714728" flag="0"/>
		</comp>
		<comp name="--.HNN" depth="0.0">
			<acc value="0.0276755208762674" flag="0"/>
			<vel value="0.013891612345989" flag="0"/>
			<psa03 value="0.0899318353027262" flag="0"/>
			<psa10 value="0.0176937530292617" flag="0"/>
			<psa30 value="0.000977617214609238" flag="0"/>
		</comp>
		<comp name="--.HNZ" depth="0.0">
			<acc value="0.0158525013071695" flag="0"/>
			<vel value="0.00752539579512526" flag="0"/>
			<psa03 value="0.0254583155657966" flag="0"/>
			<psa10 value="0.00831131230141016" flag="0"/>
			<psa30 value="0.00036062218534327" flag="0"/>
		</comp>
	</station>
	<station code="DATC" name="DATC" netid="KO" source="Bogazici University Kandilli Observatory And Earthquake Research Institute (KOERI)" insttype="" lat="36.7584" lon="27.6602">
		<comp name="--.HNE" depth="0.0">
			<acc value="0.126422504671292" flag="0"/>
			<vel value="0.055311670235251" flag="0"/>
			<psa03 value="0.19234674625195" flag="0"/>
			<psa10 value="0.11000005723722" flag="0"/>
			<psa30 value="0.00577129723169087" flag="0"/>
		</comp>
		<comp name="--.HNN" depth="0.0">
			<acc value="0.129950451073107" flag="0"/>
			<vel value="0.0588706283881927" flag="0"/>
			<psa03 value="0.331316040008302" flag="0"/>
			<psa10 value="0.0408196573640479" flag="0"/>
			<psa30 value="0.00583975280781683" flag="0"/>
		</comp>
		<comp name="--.HNZ" depth="0.0">
			<acc value="0.180469444534894" flag="0"/>
			<vel value="0.0329149209446843" flag="0"/>
			<psa03 value="0.167112141719245" flag="0"/>
			<psa10 value="0.0393216882864681" flag="0"/>
			<psa30 value="0.00434446826263419" flag="0"/>
		</comp>
	</station>
	<station code="EZNE" name="EZNE" netid="KO" source="Bogazici University Kandilli Observatory And Earthquake Research Institute (KOERI)" insttype="" lat="39.756" lon="26.3655">
		<comp name="--.HNE" depth="0.0">
			<acc value="0.0121428190111476" flag="0"/>
			<vel value="0.00860857153845988" flag="0"/>
			<psa03 value="0.041654994361611" flag="0"/>
			<psa10 value="0.00993008533685923" flag="0"/>
			<psa30 value="0.00146888664327786" flag="0"/>
		</comp>
		<comp name="--.HNN" depth="0.0">
			<acc value="0.0185564456561689" flag="0"/>
			<vel value="0.0112278186492703" flag="0"/>
			<psa03 value="0.0438026202792881" flag="0"/>
			<psa10 value="0.0147380828600587" flag="0"/>
			<psa30 value="0.00244784612408565" flag="0"/>
		</comp>
		<comp name="--.HNZ" depth="0.0">
			<acc value="0.0123882034676425" flag="0"/>
			<vel value="0.00412636807786247" flag="0"/>
			<psa03 value="0.029306145334968" flag="0"/>
			<psa10 value="0.00746971139492047" flag="0"/>
			<psa30 value="0.000767776265569543" flag="0"/>
		</comp>
	</station>
	<station code="FOCM" name="FOCM" netid="KO" source="Bogazici University Kandilli Observatory And Earthquake Research Institute (KOERI)" insttype="" lat="38.7131" lon="26.7309">
		<comp name="--.HNE" depth="0.0">
			<acc value="0.0218836203579989" flag="0"/>
			<vel value="0.00814864507823759" flag="0"/>
			<psa03 value="0.0608941432074679" flag="0"/>
			<psa10 value="0.00612878746257086" flag="0"/>
			<psa30 value="0.000481426143212604" flag="0"/>
		</comp>
		<comp name="--.HNN" depth="0.0">
			<acc value="0.0232842331026373" flag="0"/>
			<vel value="0.00798618837215942" flag="0"/>
			<psa03 value="0.0440710735189977" flag="0"/>
			<psa10 value="0.0101273984680458" flag="0"/>
			<psa30 value="0.000666658878612249" flag="0"/>
		</comp>
		<comp name="--.HNZ" depth="0.0">
			<acc value="0.0163414418981112" flag="0"/>
			<vel value="0.00612586658967445" flag="0"/>
			<psa03 value="0.0402679859564446" flag="0"/>
			<psa10 value="0.00399055740828366" flag="0"/>
			<psa30 value="0.000392389152042243" flag="0"/>
		</comp>
	</station>
	<station code="GMLD" name="GMLD" netid="KO" source="Bogazici University Kandilli Observatory And Earthquake Research Institute (KOERI)" insttype="" lat="38.0766" lon="26.9157">
		<comp name="--.HNE" depth="0.0">
			<acc value="1.27802381423444" flag="0"/>
			<vel value="0.396325402060384" flag="0"/>
			<psa03 value="1.64825814961051" flag="0"/>
			<psa10 value="0.140825200486878" flag="0"/>
			<psa30 value="0.0112361103480466" flag="0"/>
		</comp>
		<comp name="--.HNN" depth="0.0">
			<acc value="1.44488460393255" flag="0"/>
			<vel value="0.45178943673924" flag="0"/>
			<psa03 value="1.82252904438868" flag="0"/>
			<psa10 value="0.224220199402675" flag="0"/>
			<psa30 value="0.0111891310310974" flag="0"/>
		</comp>
		<comp name="--.HNZ" depth="0.0">
			<acc value="1.06288361132125" flag="0"/>
			<vel value="0.274801396156604" flag="0"/>
			<psa03 value="1.35984988574913" flag="0"/>
			<psa10 value="0.0854204786094059" flag="0"/>
			<psa30 value="0.00853457591243534" flag="0"/>
		</comp>
	</station>
	<station code="GOMA" name="GOMA" netid="KO" source="Bogazici University Kandilli Observatory And Earthquake Research Institute (KOERI)" insttype="" lat="38.7077" lon="27.9175">
		<comp name="--.HNE" depth="0.0">
			<acc value="0.0333324390950165" flag="0"/>
			<vel value="0.0181517366159974" flag="0"/>
			<psa03 value="0.140535270987992" flag="0"/>
			<psa10 value="0.0087945281328875" flag="0"/>
			<psa30 value="0.000787462836481583" flag="0"/>
		</comp>
		<comp name="--.HNN" depth="0.0">
			<acc value="0.0185732953179121" flag="0"/>
			<vel value="0.0123202400200751" flag="0"/>
			<psa03 value="0.0683660917127192" flag="0"/>
			<psa10 value="0.00928982436015176" flag="0"/>
			<psa30 value="0.000573595088846244" flag="0"/>
		</comp>
		<comp name="--.HNZ" depth="0.0">
			<acc value="0.0186442379793589" flag="0"/>
			<vel value="0.00903105771022649" flag="0"/>
			<psa03 value="0.0602677523148121" flag="0"/>
			<psa10 value="0.00587912594964091" flag="0"/>
			<psa30 value="0.000516772486441039" flag="0"/>
		</comp>
	</station>
	<station code="GORD" name="GORD" netid="KO" source="Bogazici University Kandilli Observatory And Earthquake Research Institute (KOERI)" insttype="" lat="38.9088" lon="28.1769">
		<comp name="--.HNE" depth="0.0">
			<acc value="0.034643557845649" flag="0"/>
			<vel value="0.0282116126608327" flag="0"/>
			<psa03 value="0.152839377808016" flag="0"/>
			<psa10 value="0.0379445231667577" flag="0"/>
			<psa30 value="0.0028970578785331" flag="0"/>
		</comp>
		<comp name="--.HNN" depth="0.0">
			<acc value="0.0304763839518633" flag="0"/>
			<vel value="0.0172301585643453" flag="0"/>
			<psa03 value="0.0867103964262107" flag="0"/>
			<psa10 value="0.0217487392150757" flag="0"/>
			<psa30 value="0.00198476428558653" flag="0"/>
		</comp>
		<comp name="--.HNZ" depth="0.0">
			<acc value="0.0237476446367167" flag="0"/>
			<vel value="0.0196695369857819" flag="0"/>
			<psa03 value="0.0654578482825316" flag="0"/>
			<psa10 value="0.0253527239581775" flag="0"/>
			<psa30 value="0.00192704683904896" flag="0"/>
		</comp>
	</station>
	<station code="KUSD" name="KUSD" netid="KO" source="Bogazici University Kandilli Observatory And Earthquake Research Institute (KOERI)" insttype="" lat="37.8606" lon="27.2868">
		<comp name="--.HNE" depth="0.0">
			<acc value="1.67938554448893" flag="0"/>
			<vel value="0.521679152636907" flag="0"/>
			<psa03 value="1.75062831835312" flag="0"/>
			<psa10 value="0.116430854594464" flag="0"/>
			<psa30 value="0.010137689175568" flag="0"/>
		</comp>
		<comp name="--.HNN" depth="0.0">
			<acc value="1.03919869164232" flag="0"/>
			<vel value="0.263749117307131" flag="0"/>
			<psa03 value="1.25282652751823" flag="0"/>
			<psa10 value="0.153578071639284" flag="0"/>
			<psa30 value="0.011043718859588" flag="0"/>
		</comp>
		<comp name="--.HNZ" depth="0.0">
			<acc value="0.529801652632125" flag="0"/>
			<vel value="0.150164515137369" flag="0"/>
			<psa03 value="0.49032984232964" flag="0"/>
			<psa10 value="0.051849058717518" flag="0"/>
			<psa30 value="0.0054496007661055" flag="0"/>
		</comp>
	</station>
	<station code="NAZL" name="NAZL" netid="KO" source="Bogazici University Kandilli Observatory And Earthquake Research Institute (KOERI)" insttype="" lat="37.9641" lon="28.2922">
		<comp name="--.HNE" depth="0.0">
			<acc value="0.0919687120447786" flag="0"/>
			<vel value="0.0490250743978681" flag="0"/>
			<psa03 value="0.283799816579698" flag="0"/>
			<psa10 value="0.0362492409579914" flag="0"/>
			<psa30 value="0.00188633143102634" flag="0"/>
		</comp>
		<comp name="--.HNN" depth="0.0">
			<acc value="0.117035142025732" flag="0"/>
			<vel value="0.0481666600713606" flag="0"/>
			<psa03 value="0.263397370361766" flag="0"/>
			<psa10 value="0.0287151007855406" flag="0"/>
			<psa30 value="0.00238118023622442" flag="0"/>
		</comp>
		<comp name="--.HNZ" depth="0.0">
			<acc value="0.0405548873508126" flag="0"/>
			<vel value="0.0145528618509708" flag="0"/>
			<psa03 value="0.0723481481017454" flag="0"/>
			<psa10 value="0.0185273003385601" flag="0"/>
			<psa30 value="0.00136016308119546" flag="0"/>
		</comp>
	</station>
	<station code="SMAA" name="SMAA" netid="KO" source="Bogazici University Kandilli Observatory And Earthquake Research Institute (KOERI)" insttype="" lat="39.1005" lon="28.9805">
		<comp name="--.HNE" depth="0.0">
			<acc value="0.00581918892440413" flag="0"/>
			<vel value="0.00467398399285272" flag="0"/>
			<psa03 value="0.017449460581126" flag="0"/>
			<psa10 value="0.00851265223119238" flag="0"/>
			<psa30 value="0.000532432258757434" flag="0"/>
		</comp>
		<comp name="--.HNN" depth="0.0">
			<acc value="0.00438599125903913" flag="0"/>
			<vel value="0.00485360229488465" flag="0"/>
			<psa03 value="0.0119909113736968" flag="0"/>
			<psa10 value="0.0073005858539034" flag="0"/>
			<psa30 value="0.000701110377708318" flag="0"/>
		</comp>
		<comp name="--.HNZ" depth="0.0">
			<acc value="0.00355276082008724" flag="0"/>
			<vel value="0.00185035021637526" flag="0"/>
			<psa03 value="0.00814308160452546" flag="0"/>
			<psa10 value="0.00285902700290756" flag="0"/>
			<psa30 value="0.000280533635496564" flag="0"/>
		</comp>
	</station>
	<station code="SOMA" name="SOMA" netid="KO" source="Bogazici University Kandilli Observatory And Earthquake Research Institute (KOERI)" insttype="" lat="39.1564" lon="27.5341">
		<comp name="--.HNE" depth="0.0">
			<acc value="0.0966181974827333" flag="0"/>
			<vel value="0.0430530596480718" flag="0"/>
			<psa03 value="0.333463665925979" flag="0"/>
			<psa10 value="0.0312600374979879" flag="0"/>
			<psa30 value="0.00183443047134914" flag="0"/>
		</comp>
		<comp name="--.HNN" depth="0.0">
			<acc value="0.100433728663268" flag="0"/>
