<stationlist xmlns:esm="https://esm-db.eu/esmws/shakemap/1/" created="1780710974">
	<station code="KOS2" name="KOS2" netid="HI" source="ITSAK Strong Motion Network" insttype="" lat="36.8941" lon="27.2888" esm:processing="manual (Paolucci et al 2011)" esm:quality="good">
		<comp name="--.HNE" depth="0.0">
			<acc value="0.0333350943765353" flag="0"/>
			<vel value="0.0211649160925594" flag="0"/>
			<psa03 value="0.0901805990221018" flag="0"/>
			<psa10 value="0.0219382708027732" flag="0"/>
			<psa30 value="0.00218555936591516" flag="0"/>
		</comp>
		<comp name="--.HNN" depth="0.0">
			<acc value="0.0317918501514675" flag="0"/>
			<vel value="0.0245217158393331" flag="0"/>
			<psa03 value="0.0873033302921693" flag="0"/>
			<psa10 value="0.0235492969003457" flag="0"/>
			<psa30 value="0.00206059254580996" flag="0"/>
		</comp>
		<comp name="--.HNZ" depth="0.0">
			<acc value="0.0118870689433977" flag="0"/>
			<vel value="0.0124986984004758" flag="0"/>
			<psa03 value="0.0401004611462481" flag="0"/>
			<psa10 value="0.0240316444785055" flag="0"/>
			<psa30 value="0.00173624376762856" flag="0"/>
		</comp>
	</station>
	<station code="KRL1" name="KRL1" netid="HI" source="ITSAK Strong Motion Network" insttype="" lat="37.7951" lon="26.7065" esm:processing="manual (Paolucci et al 2011)" esm:quality="best">
		<comp name="--.HNE" depth="0.0">
			<acc value="0.434792894786617" flag="0"/>
			<vel value="0.0962547767866457" flag="0"/>
			<psa03 value="0.285142082778246" flag="0"/>
			<psa10 value="0.0301486410855901" flag="0"/>
			<psa30 value="0.00248229762318172" flag="0"/>
		</comp>
		<comp name="--.HNN" depth="0.0">
			<acc value="0.229379416333647" flag="0"/>
			<vel value="0.0682208519508027" flag="0"/>
			<psa03 value="0.235299264605491" flag="0"/>
			<psa10 value="0.0262829144337714" flag="0"/>
			<psa30 value="0.00247871824665225" flag="0"/>
		</comp>
		<comp name="--.HNZ" depth="0.0">
			<acc value="0.143996075174104" flag="0"/>
			<vel value="0.0288066236621428" flag="0"/>
			<psa03 value="0.136508472392347" flag="0"/>
			<psa10 value="0.0308412504440409" flag="0"/>
			<psa30 value="0.00155926590064677" flag="0"/>
		</comp>
	</station>
	<station code="MYT1" name="MYT1" netid="HI" source="ITSAK Strong Motion Network" insttype="" lat="39.085" lon="26.5694" esm:processing="manual (Paolucci et al 2011)" esm:quality="best">
		<comp name="--.HNE" depth="0.0">
			<acc value="0.00955485737402439" flag="0"/>
			<vel value="0.00705294531916984" flag="0"/>
			<psa03 value="0.0254189833620625" flag="0"/>
			<psa10 value="0.0160895239770074" flag="0"/>
			<psa30 value="0.0010255441872707" flag="0"/>
		</comp>
		<comp name="--.HNN" depth="0.0">
			<acc value="0.00833708051815293" flag="0"/>
			<vel value="0.00891968060037904" flag="0"/>
			<psa03 value="0.0254258822565912" flag="0"/>
			<psa10 value="0.0154452912997451" flag="0"/>
			<psa30 value="0.000788821161781116" flag="0"/>
		</comp>
		<comp name="--.HNZ" depth="0.0">
			<acc value="0.00698915737083188" flag="0"/>
			<vel value="0.00591383055128741" flag="0"/>
			<psa03 value="0.022650917178768" flag="0"/>
			<psa10 value="0.011119192216903" flag="0"/>
			<psa30 value="0.000579657566134919" flag="0"/>
		</comp>
	</station>
	<station code="NAX1" name="NAX1" netid="HI" source="ITSAK Strong Motion Network" insttype="" lat="37.101394" lon="25.374103" esm:processing="manual (Paolucci et al 2011)" esm:quality="bad">
		<comp name="--.HNE" depth="0.0">
			<acc value="0.00508358410029853" flag="0"/>
			<vel value="0.00192077030049189" flag="0"/>
			<psa03 value="0.0102969047756661" flag="0"/>
			<psa10 value="0.00125572381054044" flag="0"/>
			<psa30 value="0.000120099075766113" flag="0"/>
		</comp>
		<comp name="--.HNN" depth="0.0">
			<acc value="0.00547840851006831" flag="0"/>
			<vel value="0.00212287384035169" flag="0"/>
			<psa03 value="0.00906802714456854" flag="0"/>
			<psa10 value="0.00132936005576617" flag="0"/>
			<psa30 value="0.0001607564826614" flag="0"/>
		</comp>
		<comp name="--.HNZ" depth="0.0">
			<acc value="0.00323740938766387" flag="0"/>
			<vel value="0.00134244126176928" flag="0"/>
			<psa03 value="0.00751604933368005" flag="0"/>
			<psa10 value="0.00109473080179252" flag="0"/>
			<psa30 value="8.06717503575682e-05" flag="0"/>
		</comp>
	</station>
	<station code="KLNA" name="KLNA" netid="HL" source="National Observatory of Athens Seismic Network" insttype="" lat="36.95708" lon="26.97274" esm:processing="manual (Paolucci et al 2011)" esm:quality="best">
		<comp name="00.HNE" depth="0.0">
			<acc value="0.0799643934527164" flag="0"/>
			<vel value="0.0258318817662653" flag="0"/>
			<psa03 value="0.14885732141899" flag="0"/>
			<psa10 value="0.0115166439835431" flag="0"/>
			<psa30 value="0.000797306121937602" flag="0"/>
		</comp>
		<comp name="00.HNN" depth="0.0">
			<acc value="0.0694252583651459" flag="0"/>
			<vel value="0.0248210897846051" flag="0"/>
			<psa03 value="0.185501188639355" flag="0"/>
			<psa10 value="0.0114522152060128" flag="0"/>
			<psa30 value="0.000958825487829563" flag="0"/>
		</comp>
		<comp name="00.HNZ" depth="0.0">
			<acc value="0.0633708608996204" flag="0"/>
			<vel value="0.0203763551724037" flag="0"/>
			<psa03 value="0.0879631782115223" flag="0"/>
			<psa10 value="0.0118307342740034" flag="0"/>
			<psa30 value="0.000751221649120783" flag="0"/>
		</comp>
	</station>
	<station code="GMLD" name="GMLD" netid="KO" source="Bogazici University Kandilli Observatory And Earthquake Research Institute (KOERI)" insttype="" lat="38.0766" lon="26.9157" esm:processing="manual (Paolucci et al 2011)" esm:quality="good">
		<comp name="--.HNE" depth="0.0">
			<acc value="1.27802381423444" flag="0"/>
			<vel value="0.396325402060384" flag="0"/>
			<psa03 value="1.64825814961051" flag="0"/>
			<psa10 value="0.140825200486878" flag="0"/>
			<psa30 value="0.0112361103480466" flag="0"/>
		</comp>
		<comp name="--.HNN" depth="0.0">
			<acc value="1.44488460393255" flag="0"/>
			<vel value="0.45178943673924" flag="0"/>
			<psa03 value="1.82252904438868" flag="0"/>
			<psa10 value="0.224220199402675" flag="0"/>
			<psa30 value="0.0111891310310974" flag="0"/>
		</comp>
		<comp name="--.HNZ" depth="0.0">
			<acc value="1.06288361132125" flag="0"/>
			<vel value="0.274801396156604" flag="0"/>
			<psa03 value="1.35984988574913" flag="0"/>
			<psa10 value="0.0854204786094059" flag="0"/>
			<psa30 value="0.00853457591243534" flag="0"/>
		</comp>
	</station>
	<station code="GOMA" name="GOMA" netid="KO" source="Bogazici University Kandilli Observatory And Earthquake Research Institute (KOERI)" insttype="" lat="38.7077" lon="27.9175" esm:processing="automatic (Paolucci et al 2011)" esm:quality="best">
		<comp name="--.HNE" depth="0.0">
			<acc value="0.0333324390950165" flag="0"/>
			<vel value="0.0181517366159974" flag="0"/>
			<psa03 value="0.140535270987992" flag="0"/>
			<psa10 value="0.0087945281328875" flag="0"/>
			<psa30 value="0.000787462836481583" flag="0"/>
		</comp>
		<comp name="--.HNN" depth="0.0">
			<acc value="0.0185732953179121" flag="0"/>
			<vel value="0.0123202400200751" flag="0"/>
			<psa03 value="0.0683660917127192" flag="0"/>
			<psa10 value="0.00928982436015176" flag="0"/>
			<psa30 value="0.000573595088846244" flag="0"/>
		</comp>
		<comp name="--.HNZ" depth="0.0">
			<acc value="0.0186442379793589" flag="0"/>
			<vel value="0.00903105771022649" flag="0"/>
			<psa03 value="0.0602677523148121" flag="0"/>
			<psa10 value="0.00587912594964091" flag="0"/>
			<psa30 value="0.000516772486441039" flag="0"/>
		</comp>
	</station>
	<station code="GORD" name="GORD" netid="KO" source="Bogazici University Kandilli Observatory And Earthquake Research Institute (KOERI)" insttype="" lat="38.9088" lon="28.1769" esm:processing="automatic (Paolucci et al 2011)" esm:quality="best">
		<comp name="--.HNE" depth="0.0">
			<acc value="0.034643557845649" flag="0"/>
			<vel value="0.0282116126608327" flag="0"/>
			<psa03 value="0.152839377808016" flag="0"/>
			<psa10 value="0.0379445231667577" flag="0"/>
			<psa30 value="0.0028970578785331" flag="0"/>
		</comp>
		<comp name="--.HNN" depth="0.0">
			<acc value="0.0304763839518633" flag="0"/>
			<vel value="0.0172301585643453" flag="0"/>
			<psa03 value="0.0867103964262107" flag="0"/>
			<psa10 value="0.0217487392150757" flag="0"/>
			<psa30 value="0.00198476428558653" flag="0"/>
		</comp>
		<comp name="--.HNZ" depth="0.0">
			<acc value="0.0237476446367167" flag="0"/>
			<vel value="0.0196695369857819" flag="0"/>
			<psa03 value="0.0654578482825316" flag="0"/>
			<psa10 value="0.0253527239581775" flag="0"/>
			<psa30 value="0.00192704683904896" flag="0"/>
		</comp>
	</station>
	<station code="KUSD" name="KUSD" netid="KO" source="Bogazici University Kandilli Observatory And Earthquake Research Institute (KOERI)" insttype="" lat="37.8606" lon="27.2868" esm:processing="manual (Paolucci et al 2011)" esm:quality="good">
		<comp name="--.HNE" depth="0.0">
			<acc value="1.67938554448893" flag="0"/>
			<vel value="0.521679152636907" flag="0"/>
			<psa03 value="1.75062831835312" flag="0"/>
			<psa10 value="0.116430854594464" flag="0"/>
			<psa30 value="0.010137689175568" flag="0"/>
		</comp>
		<comp name="--.HNN" depth="0.0">
			<acc value="1.03919869164232" flag="0"/>
			<vel value="0.263749117307131" flag="0"/>
			<psa03 value="1.25282652751823" flag="0"/>
			<psa10 value="0.153578071639284" flag="0"/>
			<psa30 value="0.011043718859588" flag="0"/>
		</comp>
		<comp name="--.HNZ" depth="0.0">
			<acc value="0.529801652632125" flag="0"/>
			<vel value="0.150164515137369" flag="0"/>
			<psa03 value="0.49032984232964" flag="0"/>
			<psa10 value="0.051849058717518" flag="0"/>
			<psa30 value="0.0054496007661055" flag="0"/>
		</comp>
	</station>
	<station code="SOMA" name="SOMA" netid="KO" source="Bogazici University Kandilli Observatory And Earthquake Research Institute (KOERI)" insttype="" lat="39.1564" lon="27.5341" esm:processing="automatic (Paolucci et al 2011)" esm:quality="best">
		<comp name="--.HNE" depth="0.0">
			<acc value="0.0966181974827333" flag="0"/>
			<vel value="0.0430530596480718" flag="0"/>
			<psa03 value="0.333463665925979" flag="0"/>
			<psa10 value="0.0312600374979879" flag="0"/>
			<psa30 value="0.00183443047134914" flag="0"/>
		</comp>
		<comp name="--.HNN" depth="0.0">
			<acc value="0.100433728663268" flag="0"/>
			<vel value="0.0463696424643422" flag="0"/>
			<psa03 value="0.42147158634412" flag="0"/>
			<psa10 value="0.0291580486310615" flag="0"/>
			<psa30 value="0.002713167409332" flag="0"/>
		</comp>
		<comp name="--.HNZ" depth="0.0">
			<acc value="0.0665323920718284" flag="0"/>
			<vel value="0.0287073306184788" flag="0"/>
			<psa03 value="0.194046950103445" flag="0"/>
			<psa10 value="0.0156159249539092" flag="0"/>
			<psa30 value="0.00167067399512627" flag="0"/>
		</comp>
	</station>
	<station code="YKAV" name="YKAV" netid="KO" source="Bogazici University Kandilli Observatory And Earthquake Research Institute (KOERI)" insttype="" lat="37.1246" lon="27.2801" esm:processing="automatic (Paolucci et al 2011)" esm:quality="best">
		<comp name="--.HNE" depth="0.0">
			<acc value="0.0376674696190804" flag="0"/>
			<vel value="0.0235947965093416" flag="0"/>
			<psa03 value="0.0940928605182255" flag="0"/>
			<psa10 value="0.0168481253241764" flag="0"/>
			<psa30 value="0.00106307482925014" flag="0"/>
		</comp>
		<comp name="--.HNN" depth="0.0">
			<acc value="0.0325039718789748" flag="0"/>
			<vel value="0.0327044982830801" flag="0"/>
			<psa03 value="0.0640708398773652" flag="0"/>
			<psa10 value="0.0323029783342598" flag="0"/>
			<psa30 value="0.00177000169381883" flag="0"/>
		</comp>
		<comp name="--.HNZ" depth="0.0">
			<acc value="0.0129391594971021" flag="0"/>
			<vel value="0.0101689207932512" flag="0"/>
			<psa03 value="0.0240265649540119" flag="0"/>
			<psa10 value="0.0148911012066932" flag="0"/>
			<psa30 value="0.00112392423025099" flag="0"/>
		</comp>
	</station>
</stationlist>
