<stationlist created="1631873506">
	<station code="KRL1" name="KRL1" netid="HI" source="ITSAK Strong Motion Network" insttype="" lat="37.7951" lon="26.7065">
		<comp name="--.HNE" depth="0.0">
			<acc value="0.430395324" flag="0"/>
			<vel value="-0.094962" flag="0"/>
			<psa03 value="0.285142082778" flag="0"/>
			<psa10 value="0.0301486410856" flag="0"/>
			<psa30 value="0.00248229762318" flag="0"/>
		</comp>
		<comp name="--.HNN" depth="0.0">
			<acc value="0.22781751" flag="0"/>
			<vel value="0.067643" flag="0"/>
			<psa03 value="0.235299264605" flag="0"/>
			<psa10 value="0.0262829144338" flag="0"/>
			<psa30 value="0.00247871824665" flag="0"/>
		</comp>
		<comp name="--.HNZ" depth="0.0">
			<acc value="0.140040186" flag="0"/>
			<vel value="0.028326" flag="0"/>
			<psa03 value="0.136508472392" flag="0"/>
			<psa10 value="0.030841250444" flag="0"/>
			<psa30 value="0.00155926590065" flag="0"/>
		</comp>
	</station>
	<station code="KLNA" name="KLNA" netid="HL" source="National Observatory of Athens Seismic Network" insttype="" lat="36.95708" lon="26.97274">
		<comp name="--.HNE" depth="0.0">
			<acc value="-0.07996443" flag="0"/>
			<vel value="-0.025832" flag="0"/>
			<psa03 value="0.148857321419" flag="0"/>
			<psa10 value="0.0115166439835" flag="0"/>
			<psa30 value="0.000797306121938" flag="0"/>
		</comp>
		<comp name="--.HNN" depth="0.0">
			<acc value="-0.06942528" flag="0"/>
			<vel value="0.024821" flag="0"/>
			<psa03 value="0.185501188639" flag="0"/>
			<psa10 value="0.011452215206" flag="0"/>
			<psa30 value="0.00095882548783" flag="0"/>
		</comp>
		<comp name="--.HNZ" depth="0.0">
			<acc value="0.063370866" flag="0"/>
			<vel value="0.020376" flag="0"/>
			<psa03 value="0.0879631782115" flag="0"/>
			<psa10 value="0.011830734274" flag="0"/>
			<psa30 value="0.000751221649121" flag="0"/>
		</comp>
	</station>
	<station code="GMLD" name="GMLD" netid="KO" source="Bogazici University Kandilli Observatory And Earthquake Research Institute (KOERI)" insttype="" lat="38.0766" lon="26.9157">
		<comp name="--.HNE" depth="0.0">
			<acc value="-1.263336402" flag="0"/>
			<vel value="0.394387" flag="0"/>
			<psa03 value="1.64825814961" flag="0"/>
			<psa10 value="0.140825200487" flag="0"/>
			<psa30 value="0.011236110348" flag="0"/>
		</comp>
		<comp name="--.HNN" depth="0.0">
			<acc value="-1.41939222" flag="0"/>
			<vel value="-0.447512" flag="0"/>
			<psa03 value="1.82252904439" flag="0"/>
			<psa10 value="0.224220199403" flag="0"/>
			<psa30 value="0.0111891310311" flag="0"/>
		</comp>
		<comp name="--.HNZ" depth="0.0">
			<acc value="-1.042725804" flag="0"/>
			<vel value="0.271927" flag="0"/>
			<psa03 value="1.35984988575" flag="0"/>
			<psa10 value="0.0854204786094" flag="0"/>
			<psa30 value="0.00853457591244" flag="0"/>
		</comp>
	</station>
	<station code="KUSD" name="KUSD" netid="KO" source="Bogazici University Kandilli Observatory And Earthquake Research Institute (KOERI)" insttype="" lat="37.8606" lon="27.2868">
		<comp name="--.HNE" depth="0.0">
			<acc value="-1.667839638" flag="0"/>
			<vel value="0.518271" flag="0"/>
			<psa03 value="1.75062831835" flag="0"/>
			<psa10 value="0.116430854594" flag="0"/>
			<psa30 value="0.0101376891756" flag="0"/>
		</comp>
		<comp name="--.HNN" depth="0.0">
			<acc value="-1.008478488" flag="0"/>
			<vel value="0.260036" flag="0"/>
			<psa03 value="1.25282652752" flag="0"/>
			<psa10 value="0.153578071639" flag="0"/>
			<psa30 value="0.0110437188596" flag="0"/>
		</comp>
		<comp name="--.HNZ" depth="0.0">
			<acc value="0.513134052" flag="0"/>
			<vel value="0.14872" flag="0"/>
			<psa03 value="0.49032984233" flag="0"/>
			<psa10 value="0.0518490587175" flag="0"/>
			<psa30 value="0.00544960076611" flag="0"/>
		</comp>
	</station>
</stationlist>
