<?xml version="1.0" encoding="UTF-8" standalone="yes"?>
<!DOCTYPE earthquake SYSTEM "stationlist.dtd">
<stationlist created="" xmlns="ch.ethz.sed.shakemap.usgs.xml">
  <station code="KRL1" name="KRL1" netid="HI" insttype="CMG-5TD,ACCELEROMETER,GURALP" lat="37.7951" lon="26.7065">
    <comp name="--.HNE">
      <acc value="0.4271544645" flag="0"/>
      <vel value="0.0929289836" flag="0"/>
      <psa03 value="0.2857518341" flag="0"/>
      <psa10 value="0.0301455498" flag="0"/>
      <psa30 value="0.0023692110" flag="0"/>
    </comp>
    <comp name="--.HNZ">
      <acc value="0.1526371629" flag="0"/>
      <vel value="0.0281354492" flag="0"/>
      <psa03 value="0.1367357043" flag="0"/>
      <psa10 value="0.0308055804" flag="0"/>
      <psa30 value="0.0013704396" flag="0"/>
    </comp>
    <comp name="--.HNN">
      <acc value="0.2280482567" flag="0"/>
      <vel value="0.0659305668" flag="0"/>
      <psa03 value="0.2338251853" flag="0"/>
      <psa10 value="0.0262604825" flag="0"/>
      <psa30 value="0.0023334651" flag="0"/>
    </comp>
  </station>
  <station code="EAG2" name="EAG2" netid="HL" insttype="SMART24" lat="38.5438" lon="26.1079">
    <comp name="--.HHZ">
      <acc value="0.0741290273" flag="0"/>
      <vel value="0.0345255411" flag="0"/>
      <psa03 value="0.1439162579" flag="0"/>
      <psa10 value="0.0284834124" flag="0"/>
      <psa30 value="0.0025870262" flag="0"/>
    </comp>
    <comp name="--.HHN">
      <acc value="0.1667644317" flag="0"/>
      <vel value="0.0973454483" flag="0"/>
      <psa03 value="0.5133906478" flag="0"/>
      <psa10 value="0.0561039659" flag="0"/>
      <psa30 value="0.0041268358" flag="0"/>
    </comp>
    <comp name="--.HHE">
      <acc value="0.1846464492" flag="0"/>
      <vel value="0.0894752981" flag="0"/>
      <psa03 value="0.5281173582" flag="0"/>
      <psa10 value="0.0546984776" flag="0"/>
      <psa30 value="0.0035523720" flag="0"/>
    </comp>
  </station>
  <station code="KLNA" name="KLNA" netid="HL" insttype="CMG-5" lat="36.9571" lon="26.9727">
    <comp name="00.HNZ">
      <acc value="0.0640447494" flag="0"/>
      <vel value="0.0204430526" flag="0"/>
      <psa03 value="0.0874896720" flag="0"/>
      <psa10 value="0.0118218877" flag="0"/>
      <psa30 value="0.0007264353" flag="0"/>
    </comp>
    <comp name="00.HNE">
      <acc value="0.0800168626" flag="0"/>
      <vel value="0.0256270447" flag="0"/>
      <psa03 value="0.1485865241" flag="0"/>
      <psa10 value="0.0114987002" flag="0"/>
      <psa30 value="0.0008011456" flag="0"/>
    </comp>
    <comp name="00.HNN">
      <acc value="0.0692444004" flag="0"/>
      <vel value="0.0247275144" flag="0"/>
      <psa03 value="0.1846679547" flag="0"/>
      <psa10 value="0.0114460968" flag="0"/>
      <psa30 value="0.0009511687" flag="0"/>
    </comp>
  </station>
  <station code="GMLD" name="GMLD" netid="KO" insttype="100" lat="38.0764" lon="26.8747">
    <comp name="--.HNE">
      <acc value="0.2057862333" flag="0"/>
      <vel value="0.0622809495" flag="0"/>
      <psa03 value="0.2646230278" flag="0"/>
      <psa10 value="0.0223481576" flag="0"/>
      <psa30 value="0.0017530974" flag="0"/>
    </comp>
    <comp name="--.HNZ">
      <acc value="0.1726048454" flag="0"/>
      <vel value="0.0429280187" flag="0"/>
      <psa03 value="0.2078770392" flag="0"/>
      <psa10 value="0.0135864645" flag="0"/>
      <psa30 value="0.0013727605" flag="0"/>
    </comp>
    <comp name="--.HNN">
      <acc value="0.2356292892" flag="0"/>
      <vel value="0.0706233988" flag="0"/>
      <psa03 value="0.2827063165" flag="0"/>
      <psa10 value="0.0355568626" flag="0"/>
      <psa30 value="0.0017768813" flag="0"/>
    </comp>
  </station>
  <station code="KUSD" name="KUSD" netid="KO" insttype="100" lat="37.86" lon="27.2815">
    <comp name="--.HNZ">
      <acc value="0.0875532554" flag="0"/>
      <vel value="0.0232213220" flag="0"/>
      <psa03 value="0.0776186501" flag="0"/>
      <psa10 value="0.0082928652" flag="0"/>
      <psa30 value="0.0007830441" flag="0"/>
    </comp>
    <comp name="--.HNE">
      <acc value="0.2670951622" flag="0"/>
      <vel value="0.0819608163" flag="0"/>
      <psa03 value="0.2740685730" flag="0"/>
      <psa10 value="0.0185918203" flag="0"/>
      <psa30 value="0.0016034862" flag="0"/>
    </comp>
    <comp name="--.HNN">
      <acc value="0.1728763973" flag="0"/>
      <vel value="0.0403411603" flag="0"/>
      <psa03 value="0.1977541338" flag="0"/>
      <psa10 value="0.0244843518" flag="0"/>
      <psa30 value="0.0016187784" flag="0"/>
    </comp>
  </station>
  <station code="YKAV" name="YKAV" netid="KO" insttype="100" lat="37.1246" lon="27.2801">
    <comp name="--.HNE">
      <acc value="0.0060185560" flag="0"/>
      <vel value="0.0037451089" flag="0"/>
      <psa03 value="0.0150426491" flag="0"/>
      <psa10 value="0.0026717556" flag="0"/>
      <psa30 value="0.0001593361" flag="0"/>
    </comp>
    <comp name="--.HNN">
      <acc value="0.0052081566" flag="0"/>
      <vel value="0.0052008656" flag="0"/>
      <psa03 value="0.0102736942" flag="0"/>
      <psa10 value="0.0051349115" flag="0"/>
      <psa30 value="0.0002762330" flag="0"/>
    </comp>
    <comp name="--.HNZ">
      <acc value="0.0021002085" flag="0"/>
      <vel value="0.0016184906" flag="0"/>
      <psa03 value="0.0038427126" flag="0"/>
      <psa10 value="0.0023684329" flag="0"/>
      <psa30 value="0.0001747411" flag="0"/>
    </comp>
  </station>
  <station code="AYDN" name="AYDN" netid="TU" source="ODC" insttype="T" lat="37.6608" lon="27.8792">
    <comp name="--.HHE">
      <acc value="0.0770601657" flag="0"/>
      <vel value="0.0319635691" flag="0"/>
      <psa03 value="0.1597860562" flag="0"/>
      <psa10 value="0.0303891897" flag="0"/>
      <psa30 value="0.0015351224" flag="0"/>
    </comp>
    <comp name="--.HHN">
      <acc value="0.0482420553" flag="0"/>
      <vel value="0.0282320540" flag="0"/>
      <psa03 value="0.2343646223" flag="0"/>
      <psa10 value="0.0256138864" flag="0"/>
      <psa30 value="0.0014008431" flag="0"/>
    </comp>
    <comp name="--.HHZ">
      <acc value="0.0365193784" flag="0"/>
      <vel value="0.0126097759" flag="0"/>
      <psa03 value="0.0534117823" flag="0"/>
      <psa10 value="0.0137146721" flag="0"/>
      <psa30 value="0.0013463760" flag="0"/>
    </comp>
  </station>
</stationlist>
