<?xml version="1.0" encoding="UTF-8" standalone="yes"?>
<!DOCTYPE earthquake SYSTEM "stationlist.dtd">
<stationlist created="" xmlns="ch.ethz.sed.shakemap.usgs.xml">
  <station code="CSNA" name="CSNA" netid="OE" insttype="STS-2" lat="47.9282" lon="15.8588">
    <comp name="--.HHN">
      <acc value="0.1033454118" flag="0"/>
      <vel value="0.0244268456" flag="0"/>
      <psa03 value="0.1487228483" flag="0"/>
      <psa10 value="0.0132396445" flag="0"/>
      <psa30 value="0.0011190996" flag="0"/>
    </comp>
  </station>
</stationlist>
