<?xml version="1.0" encoding="UTF-8" standalone="yes"?>
<!DOCTYPE earthquake SYSTEM "stationlist.dtd">
<stationlist created="" xmlns="ch.ethz.sed.shakemap.usgs.xml">
  <station code="EGYH" name="EGYH" netid="HU" insttype="" lat="47.4162" lon="17.3317">
    <comp name="--.HHE">
      <acc value="0.0270378902" flag="0"/>
      <vel value="0.0127289689" flag="0"/>
      <psa03 value="0.0884939938" flag="0"/>
      <psa10 value="0.0085021901" flag="0"/>
      <psa30 value="0.0009857887" flag="0"/>
    </comp>
    <comp name="--.HHN">
      <acc value="0.0268965723" flag="0"/>
      <vel value="0.0119235051" flag="0"/>
      <psa03 value="0.0597831571" flag="0"/>
      <psa10 value="0.0106252131" flag="0"/>
      <psa30 value="0.0010240429" flag="0"/>
    </comp>
    <comp name="--.HHZ">
      <acc value="0.0192026111" flag="0"/>
      <vel value="0.0071379830" flag="0"/>
      <psa03 value="0.0441286300" flag="0"/>
      <psa10 value="0.0065046105" flag="0"/>
      <psa30 value="0.0003875102" flag="0"/>
    </comp>
  </station>
  <station code="SOP" name="SOP" netid="HU" insttype="" lat="47.6807" lon="16.5567">
    <comp name="--.HHE">
      <acc value="0.0212065087" flag="0"/>
      <vel value="0.0077101077" flag="0"/>
      <psa03 value="0.0291902395" flag="0"/>
      <psa10 value="0.0050212346" flag="0"/>
      <psa30 value="0.0007501306" flag="0"/>
    </comp>
    <comp name="--.HHN">
      <acc value="0.0229082339" flag="0"/>
      <vel value="0.0084196102" flag="0"/>
      <psa03 value="0.0533205937" flag="0"/>
      <psa10 value="0.0056871752" flag="0"/>
      <psa30 value="0.0008752986" flag="0"/>
    </comp>
    <comp name="--.HHZ">
      <acc value="0.0199211730" flag="0"/>
      <vel value="0.0068326320" flag="0"/>
      <psa03 value="0.0271253441" flag="0"/>
      <psa10 value="0.0033365964" flag="0"/>
      <psa30 value="0.0007260466" flag="0"/>
    </comp>
  </station>
  <station code="CONA" name="CONA" netid="OE" insttype="STS-2" lat="47.9282" lon="15.8618">
    <comp name="--.HHE">
      <acc value="0.0592932268" flag="0"/>
      <vel value="0.0277060191" flag="0"/>
      <psa03 value="0.1455510692" flag="0"/>
      <psa10 value="0.0187844966" flag="0"/>
      <psa30 value="0.0021914237" flag="0"/>
    </comp>
    <comp name="--.HHN">
      <acc value="0.0508807857" flag="0"/>
      <vel value="0.0209727645" flag="0"/>
      <psa03 value="0.1026196561" flag="0"/>
      <psa10 value="0.0123078173" flag="0"/>
      <psa30 value="0.0011079597" flag="0"/>
    </comp>
    <comp name="--.HHZ">
      <acc value="0.0521356513" flag="0"/>
      <vel value="0.0195207966" flag="0"/>
      <psa03 value="0.1308977921" flag="0"/>
      <psa10 value="0.0085510289" flag="0"/>
      <psa30 value="0.0009571281" flag="0"/>
    </comp>
  </station>
  <station code="CSNA" name="CSNA" netid="OE" insttype="STS-2" lat="47.9282" lon="15.8588">
    <comp name="--.HHZ">
      <acc value="0.0694318171" flag="0"/>
      <vel value="0.0169882966" flag="0"/>
      <psa03 value="0.1101870081" flag="0"/>
      <psa10 value="0.0073932502" flag="0"/>
      <psa30 value="0.0008418286" flag="0"/>
    </comp>
    <comp name="--.HHN">
      <acc value="0.1033454116" flag="0"/>
      <vel value="0.0244268453" flag="0"/>
      <psa03 value="0.1487228483" flag="0"/>
      <psa10 value="0.0132396443" flag="0"/>
      <psa30 value="0.0011192940" flag="0"/>
    </comp>
    <comp name="--.HHE">
      <acc value="0.0814336324" flag="0"/>
      <vel value="0.0311992205" flag="0"/>
      <psa03 value="0.1689041410" flag="0"/>
      <psa10 value="0.0185276948" flag="0"/>
      <psa30 value="0.0022807882" flag="0"/>
    </comp>
  </station>
  <station code="RONA" name="RONA" netid="OE" insttype="STS-2.5/Quanterra" lat="47.6997" lon="16.2963">
    <comp name="--.HHE">
      <acc value="0.0994274163" flag="0"/>
      <vel value="0.0220066629" flag="0"/>
      <psa03 value="0.1060633421" flag="0"/>
      <psa10 value="0.0178716811" flag="0"/>
      <psa30 value="0.0016215893" flag="0"/>
    </comp>
    <comp name="--.HHZ">
      <acc value="0.0620988078" flag="0"/>
      <vel value="0.0149404163" flag="0"/>
      <psa03 value="0.0604049843" flag="0"/>
      <psa10 value="0.0105611990" flag="0"/>
      <psa30 value="0.0018486635" flag="0"/>
    </comp>
    <comp name="--.HHN">
      <acc value="0.0879172259" flag="0"/>
      <vel value="0.0279469065" flag="0"/>
      <psa03 value="0.1319860808" flag="0"/>
      <psa10 value="0.0228357787" flag="0"/>
      <psa30 value="0.0016789441" flag="0"/>
    </comp>
  </station>
  <station code="VIE" name="VIE" netid="OE" insttype="STS-2" lat="48.2483" lon="16.3617">
    <comp name="--.HHE">
      <acc value="0.0362230562" flag="0"/>
      <vel value="0.0272993657" flag="0"/>
      <psa03 value="0.0978172963" flag="0"/>
      <psa10 value="0.0492871883" flag="0"/>
      <psa30 value="0.0027346831" flag="0"/>
    </comp>
    <comp name="--.HHZ">
      <acc value="0.0468176908" flag="0"/>
      <vel value="0.0194543688" flag="0"/>
      <psa03 value="0.1192766488" flag="0"/>
      <psa10 value="0.0116425323" flag="0"/>
      <psa30 value="0.0015718446" flag="0"/>
    </comp>
    <comp name="--.HHN">
      <acc value="0.0416586638" flag="0"/>
      <vel value="0.0295280341" flag="0"/>
      <psa03 value="0.1017894668" flag="0"/>
      <psa10 value="0.0678773472" flag="0"/>
      <psa30 value="0.0023951776" flag="0"/>
    </comp>
  </station>
  <station code="ZST" name="ZST" netid="SK" insttype="SKD" lat="48.1961" lon="17.1025">
    <comp name="--.HHE">
      <acc value="78.3135137955" flag="0"/>
      <vel value="1.5563626229" flag="0"/>
      <psa03 value="1.1649565802" flag="0"/>
      <psa10 value="0.1264493170" flag="0"/>
      <psa30 value="0.0122048441" flag="0"/>
    </comp>
    <comp name="--.HHZ">
      <acc value="21.2521686806" flag="0"/>
      <vel value="0.8147266089" flag="0"/>
      <psa03 value="2.6497109992" flag="0"/>
      <psa10 value="0.2339881561" flag="0"/>
      <psa30 value="0.0138796389" flag="0"/>
    </comp>
    <comp name="--.HHN">
      <acc value="49.7812927310" flag="0"/>
      <vel value="1.3601525640" flag="0"/>
      <psa03 value="1.5348184853" flag="0"/>
      <psa10 value="0.2806366867" flag="0"/>
      <psa30 value="0.0119778081" flag="0"/>
    </comp>
  </station>
</stationlist>
