<?xml version="1.0" encoding="UTF-8" standalone="yes"?>
<!DOCTYPE earthquake SYSTEM "stationlist.dtd">
<stationlist created="" xmlns="ch.ethz.sed.shakemap.usgs.xml">
  <station code="EGYH" name="EGYH" netid="HU" insttype="" lat="47.4162" lon="17.3317">
    <comp name="--.HHE">
      <acc value="0.0270378902" flag="0"/>
      <vel value="0.0127289689" flag="0"/>
      <psa03 value="0.0884939938" flag="0"/>
      <psa10 value="0.0085021901" flag="0"/>
      <psa30 value="0.0009857887" flag="0"/>
    </comp>
    <comp name="--.HHZ">
      <acc value="0.0192026111" flag="0"/>
      <vel value="0.0071379830" flag="0"/>
      <psa03 value="0.0441286300" flag="0"/>
      <psa10 value="0.0065046105" flag="0"/>
      <psa30 value="0.0003875102" flag="0"/>
    </comp>
    <comp name="--.HHN">
      <acc value="0.0268965723" flag="0"/>
      <vel value="0.0119235051" flag="0"/>
      <psa03 value="0.0597831571" flag="0"/>
      <psa10 value="0.0106252131" flag="0"/>
      <psa30 value="0.0010240429" flag="0"/>
    </comp>
  </station>
  <station code="SOP" name="SOP" netid="HU" insttype="" lat="47.6807" lon="16.5567">
    <comp name="--.HHE">
      <acc value="0.0212065086" flag="0"/>
      <vel value="0.0077101078" flag="0"/>
      <psa03 value="0.0291902395" flag="0"/>
      <psa10 value="0.0050212347" flag="0"/>
      <psa30 value="0.0007501372" flag="0"/>
    </comp>
    <comp name="--.HHN">
      <acc value="0.0229082339" flag="0"/>
      <vel value="0.0084196102" flag="0"/>
      <psa03 value="0.0533205937" flag="0"/>
      <psa10 value="0.0056871752" flag="0"/>
      <psa30 value="0.0008752955" flag="0"/>
    </comp>
    <comp name="--.HHZ">
      <acc value="0.0199211730" flag="0"/>
      <vel value="0.0068326320" flag="0"/>
      <psa03 value="0.0271253441" flag="0"/>
      <psa10 value="0.0033365966" flag="0"/>
      <psa30 value="0.0007260528" flag="0"/>
    </comp>
  </station>
  <station code="ARSA" name="ARSA" netid="OE" insttype="STS-2" lat="47.2505" lon="15.5232">
    <comp name="--.HHN">
      <acc value="0.0519645364" flag="0"/>
      <vel value="0.0154367934" flag="0"/>
      <psa03 value="0.0506277249" flag="0"/>
      <psa10 value="0.0058886805" flag="0"/>
      <psa30 value="0.0004392702" flag="0"/>
    </comp>
    <comp name="--.HHE">
      <acc value="0.0546660692" flag="0"/>
      <vel value="0.0178476148" flag="0"/>
      <psa03 value="0.1247449903" flag="0"/>
      <psa10 value="0.0094355375" flag="0"/>
      <psa30 value="0.0009053310" flag="0"/>
    </comp>
    <comp name="--.HHZ">
      <acc value="0.0617088167" flag="0"/>
      <vel value="0.0225686149" flag="0"/>
      <psa03 value="0.1631585419" flag="0"/>
      <psa10 value="0.0068988704" flag="0"/>
      <psa30 value="0.0005444937" flag="0"/>
    </comp>
  </station>
  <station code="CONA" name="CONA" netid="OE" insttype="STS-2" lat="47.9282" lon="15.8618">
    <comp name="--.HHN">
      <acc value="0.0508807857" flag="0"/>
      <vel value="0.0209727641" flag="0"/>
      <psa03 value="0.1026196561" flag="0"/>
      <psa10 value="0.0123078172" flag="0"/>
      <psa30 value="0.0011080249" flag="0"/>
    </comp>
    <comp name="--.HHE">
      <acc value="0.0592932268" flag="0"/>
      <vel value="0.0277060195" flag="0"/>
      <psa03 value="0.1455510692" flag="0"/>
      <psa10 value="0.0187844963" flag="0"/>
      <psa30 value="0.0021916669" flag="0"/>
    </comp>
    <comp name="--.HHZ">
      <acc value="0.0521356513" flag="0"/>
      <vel value="0.0195207970" flag="0"/>
      <psa03 value="0.1308977921" flag="0"/>
      <psa10 value="0.0085510288" flag="0"/>
      <psa30 value="0.0009569950" flag="0"/>
    </comp>
  </station>
  <station code="CSNA" name="CSNA" netid="OE" insttype="STS-2" lat="47.9282" lon="15.8588">
    <comp name="--.HHE">
      <acc value="0.0814336323" flag="0"/>
      <vel value="0.0311992205" flag="0"/>
      <psa03 value="0.1689041410" flag="0"/>
      <psa10 value="0.0185276943" flag="0"/>
      <psa30 value="0.0022810465" flag="0"/>
    </comp>
    <comp name="--.HHZ">
      <acc value="0.0694318171" flag="0"/>
      <vel value="0.0169882967" flag="0"/>
      <psa03 value="0.1101870081" flag="0"/>
      <psa10 value="0.0073932501" flag="0"/>
      <psa30 value="0.0008416926" flag="0"/>
    </comp>
    <comp name="--.HHN">
      <acc value="0.1033454116" flag="0"/>
      <vel value="0.0244268456" flag="0"/>
      <psa03 value="0.1487228483" flag="0"/>
      <psa10 value="0.0132396443" flag="0"/>
      <psa30 value="0.0011193520" flag="0"/>
    </comp>
  </station>
  <station code="RONA" name="RONA" netid="OE" insttype="STS-2.5/Quanterra" lat="47.6997" lon="16.2963">
    <comp name="--.HHE">
      <acc value="0.0994274164" flag="0"/>
      <vel value="0.0220066622" flag="0"/>
      <psa03 value="0.1060633421" flag="0"/>
      <psa10 value="0.0178716810" flag="0"/>
      <psa30 value="0.0016215686" flag="0"/>
    </comp>
    <comp name="--.HHN">
      <acc value="0.0879172259" flag="0"/>
      <vel value="0.0279469065" flag="0"/>
      <psa03 value="0.1319860808" flag="0"/>
      <psa10 value="0.0228357786" flag="0"/>
      <psa30 value="0.0016789429" flag="0"/>
    </comp>
    <comp name="--.HHZ">
      <acc value="0.0620988078" flag="0"/>
      <vel value="0.0149404167" flag="0"/>
      <psa03 value="0.0604049843" flag="0"/>
      <psa10 value="0.0105611990" flag="0"/>
      <psa30 value="0.0018486483" flag="0"/>
    </comp>
  </station>
  <station code="VIE" name="VIE" netid="OE" insttype="STS-2" lat="48.2483" lon="16.3617">
    <comp name="--.HHE">
      <acc value="0.0362230562" flag="0"/>
      <vel value="0.0272993658" flag="0"/>
      <psa03 value="0.0978172963" flag="0"/>
      <psa10 value="0.0492871883" flag="0"/>
      <psa30 value="0.0027346806" flag="0"/>
    </comp>
    <comp name="--.HHN">
      <acc value="0.0416586638" flag="0"/>
      <vel value="0.0295280344" flag="0"/>
      <psa03 value="0.1017894668" flag="0"/>
      <psa10 value="0.0678773472" flag="0"/>
      <psa30 value="0.0023951708" flag="0"/>
    </comp>
    <comp name="--.HHZ">
      <acc value="0.0468176908" flag="0"/>
      <vel value="0.0194543688" flag="0"/>
      <psa03 value="0.1192766488" flag="0"/>
      <psa10 value="0.0116425323" flag="0"/>
      <psa30 value="0.0015718416" flag="0"/>
    </comp>
  </station>
  <station code="ZST" name="ZST" netid="SK" insttype="SKD" lat="48.1961" lon="17.1025">
    <comp name="--.HHE">
      <acc value="78.3135176021" flag="0"/>
      <vel value="1.5563627155" flag="0"/>
      <psa03 value="1.1649565805" flag="0"/>
      <psa10 value="0.1264493162" flag="0"/>
      <psa30 value="0.0122052096" flag="0"/>
    </comp>
    <comp name="--.HHN">
      <acc value="49.7812939512" flag="0"/>
      <vel value="1.3601525692" flag="0"/>
      <psa03 value="1.5348184852" flag="0"/>
      <psa10 value="0.2806366869" flag="0"/>
      <psa30 value="0.0119779482" flag="0"/>
    </comp>
    <comp name="--.HHZ">
      <acc value="21.2521712284" flag="0"/>
      <vel value="0.8147266678" flag="0"/>
      <psa03 value="2.6497109991" flag="0"/>
      <psa10 value="0.2339881562" flag="0"/>
      <psa30 value="0.0138795478" flag="0"/>
    </comp>
  </station>
</stationlist>
