<?xml version="1.0" encoding="UTF-8" standalone="yes"?>
<!DOCTYPE earthquake SYSTEM "stationlist.dtd">
<stationlist created="" xmlns="ch.ethz.sed.shakemap.usgs.xml">
  <station code="EGYH" name="EGYH" netid="HU" insttype="" lat="47.4162" lon="17.3317">
    <comp name="--.HHN">
      <acc value="0.0268965724" flag="0"/>
      <vel value="0.0119235045" flag="0"/>
      <psa03 value="0.0597831571" flag="0"/>
      <psa10 value="0.0106252131" flag="0"/>
      <psa30 value="0.0010240269" flag="0"/>
    </comp>
    <comp name="--.HHZ">
      <acc value="0.0192026110" flag="0"/>
      <vel value="0.0071379830" flag="0"/>
      <psa03 value="0.0441286300" flag="0"/>
      <psa10 value="0.0065046105" flag="0"/>
      <psa30 value="0.0003875075" flag="0"/>
    </comp>
    <comp name="--.HHE">
      <acc value="0.0270378902" flag="0"/>
      <vel value="0.0127289693" flag="0"/>
      <psa03 value="0.0884939938" flag="0"/>
      <psa10 value="0.0085021901" flag="0"/>
      <psa30 value="0.0009858066" flag="0"/>
    </comp>
  </station>
  <station code="SOP" name="SOP" netid="HU" insttype="" lat="47.6807" lon="16.5567">
    <comp name="--.HHN">
      <acc value="0.0229082339" flag="0"/>
      <vel value="0.0084196103" flag="0"/>
      <psa03 value="0.0533205937" flag="0"/>
      <psa10 value="0.0056871751" flag="0"/>
      <psa30 value="0.0008753078" flag="0"/>
    </comp>
    <comp name="--.HHE">
      <acc value="0.0212065087" flag="0"/>
      <vel value="0.0077101074" flag="0"/>
      <psa03 value="0.0291902395" flag="0"/>
      <psa10 value="0.0050212344" flag="0"/>
      <psa30 value="0.0007501121" flag="0"/>
    </comp>
    <comp name="--.HHZ">
      <acc value="0.0199211730" flag="0"/>
      <vel value="0.0068326318" flag="0"/>
      <psa03 value="0.0271253441" flag="0"/>
      <psa10 value="0.0033365958" flag="0"/>
      <psa30 value="0.0007260299" flag="0"/>
    </comp>
  </station>
  <station code="CONA" name="CONA" netid="OE" insttype="STS-2" lat="47.9282" lon="15.8618">
    <comp name="--.HHN">
      <acc value="0.0508807857" flag="0"/>
      <vel value="0.0209727646" flag="0"/>
      <psa03 value="0.1026196561" flag="0"/>
      <psa10 value="0.0123078173" flag="0"/>
      <psa30 value="0.0011079528" flag="0"/>
    </comp>
    <comp name="--.HHZ">
      <acc value="0.0521356513" flag="0"/>
      <vel value="0.0195207966" flag="0"/>
      <psa03 value="0.1308977921" flag="0"/>
      <psa10 value="0.0085510289" flag="0"/>
      <psa30 value="0.0009571305" flag="0"/>
    </comp>
    <comp name="--.HHE">
      <acc value="0.0592932268" flag="0"/>
      <vel value="0.0277060193" flag="0"/>
      <psa03 value="0.1455510692" flag="0"/>
      <psa10 value="0.0187844966" flag="0"/>
      <psa30 value="0.0021914201" flag="0"/>
    </comp>
  </station>
  <station code="CSNA" name="CSNA" netid="OE" insttype="STS-2" lat="47.9282" lon="15.8588">
    <comp name="--.HHZ">
      <acc value="0.0694318171" flag="0"/>
      <vel value="0.0169882966" flag="0"/>
      <psa03 value="0.1101870081" flag="0"/>
      <psa10 value="0.0073932502" flag="0"/>
      <psa30 value="0.0008418308" flag="0"/>
    </comp>
    <comp name="--.HHE">
      <acc value="0.0814336324" flag="0"/>
      <vel value="0.0311992206" flag="0"/>
      <psa03 value="0.1689041410" flag="0"/>
      <psa10 value="0.0185276948" flag="0"/>
      <psa30 value="0.0022807828" flag="0"/>
    </comp>
    <comp name="--.HHN">
      <acc value="0.1033454116" flag="0"/>
      <vel value="0.0244268450" flag="0"/>
      <psa03 value="0.1487228483" flag="0"/>
      <psa10 value="0.0132396443" flag="0"/>
      <psa30 value="0.0011192851" flag="0"/>
    </comp>
  </station>
  <station code="RONA" name="RONA" netid="OE" insttype="STS-2.5/Quanterra" lat="47.6997" lon="16.2963">
    <comp name="--.HHE">
      <acc value="0.0994274162" flag="0"/>
      <vel value="0.0220066626" flag="0"/>
      <psa03 value="0.1060633421" flag="0"/>
      <psa10 value="0.0178716812" flag="0"/>
      <psa30 value="0.0016215763" flag="0"/>
    </comp>
    <comp name="--.HHN">
      <acc value="0.0879172260" flag="0"/>
      <vel value="0.0279469065" flag="0"/>
      <psa03 value="0.1319860808" flag="0"/>
      <psa10 value="0.0228357789" flag="0"/>
      <psa30 value="0.0016789523" flag="0"/>
    </comp>
    <comp name="--.HHZ">
      <acc value="0.0620988078" flag="0"/>
      <vel value="0.0149404160" flag="0"/>
      <psa03 value="0.0604049843" flag="0"/>
      <psa10 value="0.0105611990" flag="0"/>
      <psa30 value="0.0018486820" flag="0"/>
    </comp>
  </station>
  <station code="VIE" name="VIE" netid="OE" insttype="STS-2" lat="48.2483" lon="16.3617">
    <comp name="--.HHE">
      <acc value="0.0362230562" flag="0"/>
      <vel value="0.0272993659" flag="0"/>
      <psa03 value="0.0978172963" flag="0"/>
      <psa10 value="0.0492871882" flag="0"/>
      <psa30 value="0.0027347073" flag="0"/>
    </comp>
    <comp name="--.HHN">
      <acc value="0.0416586639" flag="0"/>
      <vel value="0.0295280350" flag="0"/>
      <psa03 value="0.1017894668" flag="0"/>
      <psa10 value="0.0678773472" flag="0"/>
      <psa30 value="0.0023952568" flag="0"/>
    </comp>
    <comp name="--.HHZ">
      <acc value="0.0468176907" flag="0"/>
      <vel value="0.0194543669" flag="0"/>
      <psa03 value="0.1192766488" flag="0"/>
      <psa10 value="0.0116425323" flag="0"/>
      <psa30 value="0.0015718909" flag="0"/>
    </comp>
  </station>
  <station code="ZST" name="ZST" netid="SK" insttype="SKD" lat="48.1961" lon="17.1025">
    <comp name="--.HHN">
      <acc value="49.7812960130" flag="0"/>
      <vel value="1.3601525436" flag="0"/>
      <psa03 value="1.5348184853" flag="0"/>
      <psa10 value="0.2806366859" flag="0"/>
      <psa30 value="0.0119784062" flag="0"/>
    </comp>
    <comp name="--.HHE">
      <acc value="78.3135097610" flag="0"/>
      <vel value="1.5563627146" flag="0"/>
      <psa03 value="1.1649565806" flag="0"/>
      <psa10 value="0.1264493180" flag="0"/>
      <psa30 value="0.0122047595" flag="0"/>
    </comp>
    <comp name="--.HHZ">
      <acc value="21.2521674794" flag="0"/>
      <vel value="0.8147265900" flag="0"/>
      <psa03 value="2.6497109992" flag="0"/>
      <psa10 value="0.2339881558" flag="0"/>
      <psa30 value="0.0138799943" flag="0"/>
    </comp>
  </station>
</stationlist>
