<stationlist created="1779846949">
	<station code="CESS" name="CESS" netid="SL" source="Seismic Network of the Republic of Slovenia (SNRS)" insttype="" lat="45.9733" lon="15.4632">
		<comp name="--.HNE" depth="0.0">
			<acc value="0.00292184022743581" flag="0"/>
			<vel value="0.00157012635205164" flag="0"/>
			<psa03 value="0.00846789038328231" flag="0"/>
			<psa10 value="0.00202261937923069" flag="0"/>
			<psa30 value="0.000102790370555417" flag="0"/>
		</comp>
		<comp name="--.HNN" depth="0.0">
			<acc value="0.00316581625362029" flag="0"/>
			<vel value="0.00157487057727699" flag="0"/>
			<psa03 value="0.011408660715676" flag="0"/>
			<psa10 value="0.000988403054978063" flag="0"/>
			<psa30 value="5.84951119932053e-05" flag="0"/>
		</comp>
		<comp name="--.HNZ" depth="0.0">
			<acc value="0.00144667997788896" flag="0"/>
			<vel value="0.000775987869463951" flag="0"/>
			<psa03 value="0.00562286467470567" flag="0"/>
			<psa10 value="0.000748535934488281" flag="0"/>
			<psa30 value="7.22475725053268e-05" flag="0"/>
		</comp>
	</station>
	<station code="CRNS" name="CRNS" netid="SL" source="Seismic Network of the Republic of Slovenia (SNRS)" insttype="" lat="46.0807" lon="14.2613">
		<comp name="--.HNE" depth="0.0">
			<acc value="0.00213067623827478" flag="0"/>
			<vel value="0.0010499295125521" flag="0"/>
			<psa03 value="0.00630777853643506" flag="0"/>
			<psa10 value="0.000977917711934557" flag="0"/>
			<psa30 value="8.02995512220108e-05" flag="0"/>
		</comp>
		<comp name="--.HNN" depth="0.0">
			<acc value="0.001725440298721" flag="0"/>
			<vel value="0.00111735884759398" flag="0"/>
			<psa03 value="0.00401111044294373" flag="0"/>
			<psa10 value="0.00132082835777223" flag="0"/>
			<psa30 value="5.95722862152376e-05" flag="0"/>
		</comp>
		<comp name="--.HNZ" depth="0.0">
			<acc value="0.000743113091510057" flag="0"/>
			<vel value="0.000411895656994521" flag="0"/>
			<psa03 value="0.00165539042321144" flag="0"/>
			<psa10 value="0.000529198142716711" flag="0"/>
			<psa30 value="3.5575185457466e-05" flag="0"/>
		</comp>
	</station>
	<station code="DOBS" name="DOBS" netid="SL" source="Seismic Network of the Republic of Slovenia (SNRS)" insttype="" lat="46.1495" lon="15.4695">
		<comp name="--.HNE" depth="0.0">
			<acc value="0.00393117570860454" flag="0"/>
			<vel value="0.00125680494841694" flag="0"/>
			<psa03 value="0.00540063510931866" flag="0"/>
			<psa10 value="0.00227135624745248" flag="0"/>
			<psa30 value="8.97641170052247e-05" flag="0"/>
		</comp>
		<comp name="--.HNN" depth="0.0">
			<acc value="0.00610858483685028" flag="0"/>
			<vel value="0.00193583328007576" flag="0"/>
			<psa03 value="0.00712400643566885" flag="0"/>
			<psa10 value="0.00160132068901173" flag="0"/>
			<psa30 value="0.000104135505236786" flag="0"/>
		</comp>
		<comp name="--.HNZ" depth="0.0">
			<acc value="0.00251513913539515" flag="0"/>
			<vel value="0.00124426627746746" flag="0"/>
			<psa03 value="0.00496271905526137" flag="0"/>
			<psa10 value="0.00160787049790617" flag="0"/>
			<psa30 value="6.00989031325352e-05" flag="0"/>
		</comp>
	</station>
	<station code="GOLS" name="GOLS" netid="SL" source="Seismic Network of the Republic of Slovenia (SNRS)" insttype="" lat="46.0108" lon="15.6245">
		<comp name="--.HNE" depth="0.0">
			<acc value="0.00430067680123878" flag="0"/>
			<vel value="0.00226488990187846" flag="0"/>
			<psa03 value="0.0126639925732105" flag="0"/>
			<psa10 value="0.00328548483474759" flag="0"/>
			<psa30 value="0.000140419197916242" flag="0"/>
		</comp>
		<comp name="--.HNN" depth="0.0">
			<acc value="0.00347970460876146" flag="0"/>
			<vel value="0.00237641025723729" flag="0"/>
			<psa03 value="0.0115005235719995" flag="0"/>
			<psa10 value="0.00314773867848796" flag="0"/>
			<psa30 value="0.000121492866014647" flag="0"/>
		</comp>
		<comp name="--.HNZ" depth="0.0">
			<acc value="0.00341432386690826" flag="0"/>
			<vel value="0.00130021975511319" flag="0"/>
			<psa03 value="0.0109998758232261" flag="0"/>
			<psa10 value="0.000968243653110096" flag="0"/>
			<psa30 value="8.11832360637124e-05" flag="0"/>
		</comp>
	</station>
	<station code="GORS" name="GORS" netid="SL" source="Seismic Network of the Republic of Slovenia (SNRS)" insttype="" lat="46.3174" lon="13.9999">
		<comp name="--.HNE" depth="0.0">
			<acc value="0.00169562150280062" flag="0"/>
			<vel value="0.00114913380537349" flag="0"/>
			<psa03 value="0.00512871996087955" flag="0"/>
			<psa10 value="0.00152032645635301" flag="0"/>
			<psa30 value="7.33526261783991e-05" flag="0"/>
		</comp>
		<comp name="--.HNN" depth="0.0">
			<acc value="0.0021561205533861" flag="0"/>
			<vel value="0.00149707175393048" flag="0"/>
			<psa03 value="0.00638729356958127" flag="0"/>
			<psa10 value="0.00145773035654316" flag="0"/>
			<psa30 value="7.85907856808268e-05" flag="0"/>
		</comp>
		<comp name="--.HNZ" depth="0.0">
			<acc value="0.00164218086774727" flag="0"/>
			<vel value="0.000982351478701967" flag="0"/>
			<psa03 value="0.00444864528685484" flag="0"/>
			<psa10 value="0.00102407694163331" flag="0"/>
			<psa30 value="5.89326865533996e-05" flag="0"/>
		</comp>
	</station>
	<station code="GROS" name="GROS" netid="SL" source="Seismic Network of the Republic of Slovenia (SNRS)" insttype="" lat="46.461" lon="15.5018">
		<comp name="--.HNE" depth="0.0">
			<acc value="0.00774389150594396" flag="0"/>
			<vel value="0.00235068165312082" flag="0"/>
			<psa03 value="0.0126044026881445" flag="0"/>
			<psa10 value="0.00166625038091038" flag="0"/>
			<psa30 value="0.000253916247788527" flag="0"/>
		</comp>
		<comp name="--.HNN" depth="0.0">
			<acc value="0.00719696987153118" flag="0"/>
			<vel value="0.00161931507928388" flag="0"/>
			<psa03 value="0.00653986878107936" flag="0"/>
			<psa10 value="0.000886623714938189" flag="0"/>
			<psa30 value="0.000105877222179601" flag="0"/>
		</comp>
		<comp name="--.HNZ" depth="0.0">
			<acc value="0.00361273158725105" flag="0"/>
			<vel value="0.00181641459718606" flag="0"/>
			<psa03 value="0.0076945722276445" flag="0"/>
			<psa10 value="0.00136216019736494" flag="0"/>
			<psa30 value="0.000106104541925792" flag="0"/>
		</comp>
	</station>
	<station code="KOGS" name="KOGS" netid="SL" source="Seismic Network of the Republic of Slovenia (SNRS)" insttype="" lat="46.4481" lon="16.2504">
		<comp name="--.HNE" depth="0.0">
			<acc value="0.0189256090780244" flag="0"/>
			<vel value="0.0100337033979212" flag="0"/>
			<psa03 value="0.059052417141258" flag="0"/>
			<psa10 value="0.00679975076263394" flag="0"/>
			<psa30 value="0.00067625849672245" flag="0"/>
		</comp>
		<comp name="--.HNN" depth="0.0">
			<acc value="0.0144764269008439" flag="0"/>
			<vel value="0.00787464998162858" flag="0"/>
			<psa03 value="0.0462729768160174" flag="0"/>
			<psa10 value="0.00783768452064796" flag="0"/>
			<psa30 value="0.000311141158449584" flag="0"/>
		</comp>
		<comp name="--.HNZ" depth="0.0">
			<acc value="0.0106425014824849" flag="0"/>
			<vel value="0.00484312813494032" flag="0"/>
			<psa03 value="0.0301381553590486" flag="0"/>
			<psa10 value="0.00159420904602438" flag="0"/>
			<psa30 value="0.000260461368870619" flag="0"/>
		</comp>
	</station>
	<station code="MOZS" name="MOZS" netid="SL" source="Seismic Network of the Republic of Slovenia (SNRS)" insttype="" lat="46.2941" lon="14.4433">
		<comp name="--.HNE" depth="0.0">
			<acc value="0.00237162359622053" flag="0"/>
			<vel value="0.00135648980846471" flag="0"/>
			<psa03 value="0.00810841344468001" flag="0"/>
			<psa10 value="0.00134621062515956" flag="0"/>
			<psa30 value="0.000114835016110403" flag="0"/>
		</comp>
		<comp name="--.HNN" depth="0.0">
			<acc value="0.00219342997530204" flag="0"/>
			<vel value="0.00150141479932504" flag="0"/>
			<psa03 value="0.00612465507729896" flag="0"/>
			<psa10 value="0.00203186092893969" flag="0"/>
			<psa30 value="0.000135740554645565" flag="0"/>
		</comp>
		<comp name="--.HNZ" depth="0.0">
			<acc value="0.00133215016967264" flag="0"/>
			<vel value="0.000830143929201167" flag="0"/>
			<psa03 value="0.00329289619810826" flag="0"/>
			<psa10 value="0.00128739934638847" flag="0"/>
			<psa30 value="8.82579495205915e-05" flag="0"/>
		</comp>
	</station>
	<station code="PDKS" name="PDKS" netid="SL" source="Seismic Network of the Republic of Slovenia (SNRS)" insttype="" lat="46.0612" lon="14.9977">
		<comp name="--.HNE" depth="0.0">
			<acc value="0.0024492631097918" flag="0"/>
			<vel value="0.00147363677695812" flag="0"/>
			<psa03 value="0.0107324505554895" flag="0"/>
			<psa10 value="0.00133936079639037" flag="0"/>
			<psa30 value="6.64414912665675e-05" flag="0"/>
		</comp>
		<comp name="--.HNN" depth="0.0">
			<acc value="0.00197500272933515" flag="0"/>
			<vel value="0.0011261968165492" flag="0"/>
			<psa03 value="0.00653047558070092" flag="0"/>
			<psa10 value="0.00111725913012175" flag="0"/>
			<psa30 value="7.54610666334913e-05" flag="0"/>
		</comp>
		<comp name="--.HNZ" depth="0.0">
			<acc value="0.00226391494835074" flag="0"/>
			<vel value="0.00107068307136627" flag="0"/>
			<psa03 value="0.00641713018151563" flag="0"/>
			<psa10 value="0.000836398512767203" flag="0"/>
			<psa30 value="7.04758014885534e-05" flag="0"/>
		</comp>
	</station>
	<station code="PERS" name="PERS" netid="SL" source="Seismic Network of the Republic of Slovenia (SNRS)" insttype="" lat="46.6365" lon="15.1139">
		<comp name="--.HNE" depth="0.0">
			<acc value="0.0137892139661148" flag="0"/>
			<vel value="0.00609940848939583" flag="0"/>
			<psa03 value="0.0340493285175799" flag="0"/>
			<psa10 value="0.00242953422597076" flag="0"/>
			<psa30 value="0.000275682403231015" flag="0"/>
		</comp>
		<comp name="--.HNN" depth="0.0">
			<acc value="0.0115406001993158" flag="0"/>
			<vel value="0.00580185676923567" flag="0"/>
			<psa03 value="0.0324612910262035" flag="0"/>
			<psa10 value="0.00225118741136721" flag="0"/>
			<psa30 value="0.000206769478713227" flag="0"/>
		</comp>
		<comp name="--.HNZ" depth="0.0">
			<acc value="0.0077734223040178" flag="0"/>
			<vel value="0.00390294620448189" flag="0"/>
			<psa03 value="0.0189120327772757" flag="0"/>
			<psa10 value="0.00166941512181033" flag="0"/>
			<psa30 value="0.00020888674136727" flag="0"/>
		</comp>
	</station>
	<station code="ZAVS" name="ZAVS" netid="SL" source="Seismic Network of the Republic of Slovenia (SNRS)" insttype="" lat="46.4342" lon="15.0246">
		<comp name="--.HNE" depth="0.0">
			<acc value="0.00888252217018968" flag="0"/>
			<vel value="0.00386374170229014" flag="0"/>
			<psa03 value="0.0235410829187097" flag="0"/>
			<psa10 value="0.00313825148750931" flag="0"/>
			<psa30 value="0.000233115130233308" flag="0"/>
		</comp>
		<comp name="--.HNN" depth="0.0">
			<acc value="0.00986829149772194" flag="0"/>
			<vel value="0.00318718573170271" flag="0"/>
			<psa03 value="0.0212316083127681" flag="0"/>
			<psa10 value="0.00257759919079619" flag="0"/>
			<psa30 value="0.000169445769221447" flag="0"/>
		</comp>
		<comp name="--.HNZ" depth="0.0">
			<acc value="0.00566803936602518" flag="0"/>
			<vel value="0.00187884992928078" flag="0"/>
			<psa03 value="0.0100335605074748" flag="0"/>
			<psa10 value="0.00225925372697157" flag="0"/>
			<psa30 value="0.000115046553561221" flag="0"/>
		</comp>
	</station>
</stationlist>
