<?xml version="1.0" encoding="UTF-8" standalone="yes"?>
<!DOCTYPE earthquake SYSTEM "stationlist.dtd">
<stationlist created="" xmlns="ch.ethz.sed.shakemap.usgs.xml">
  <station code="CUKT" name="CUKT" netid="KO" insttype="CMG-3ESP" lat="37.2473" lon="43.6077">
    <comp name="--.HHN">
      <acc value="0.0167330154" flag="0"/>
      <vel value="0.0116874105" flag="0"/>
      <psa03 value="0.0695435136" flag="0"/>
      <psa10 value="0.0196985920" flag="0"/>
      <psa30 value="0.0006737313" flag="0"/>
    </comp>
    <comp name="--.HHZ">
      <acc value="0.0156530097" flag="0"/>
      <vel value="0.0077682288" flag="0"/>
      <psa03 value="0.0621199270" flag="0"/>
      <psa10 value="0.0077278111" flag="0"/>
      <psa30 value="0.0005398371" flag="0"/>
    </comp>
    <comp name="--.HHE">
      <acc value="0.0307663708" flag="0"/>
      <vel value="0.0194811155" flag="0"/>
      <psa03 value="0.0757214012" flag="0"/>
      <psa10 value="0.0207149757" flag="0"/>
      <psa30 value="0.0008960733" flag="0"/>
    </comp>
  </station>
</stationlist>
