<?xml version="1.0" encoding="UTF-8" standalone="yes"?>
<!DOCTYPE earthquake SYSTEM "stationlist.dtd">
<stationlist created="" xmlns="ch.ethz.sed.shakemap.usgs.xml">
  <station code="DARE" name="DARE" netid="KO" insttype="CMG-3ESP" lat="38.5712" lon="37.4832">
    <comp name="--.HHE">
      <acc value="0.0373816177" flag="0"/>
      <vel value="0.0230960475" flag="0"/>
      <psa03 value="0.0742172488" flag="0"/>
      <psa10 value="0.0368290137" flag="0"/>
      <psa30 value="0.0020990890" flag="0"/>
    </comp>
    <comp name="--.HHN">
      <acc value="0.0406466265" flag="0"/>
      <vel value="0.0234987046" flag="0"/>
      <psa03 value="0.1012425509" flag="0"/>
      <psa10 value="0.0249053409" flag="0"/>
      <psa30 value="0.0017424854" flag="0"/>
    </comp>
    <comp name="--.HHZ">
      <acc value="0.0187917385" flag="0"/>
      <vel value="0.0170751030" flag="0"/>
      <psa03 value="0.0548918788" flag="0"/>
      <psa10 value="0.0271304743" flag="0"/>
      <psa30 value="0.0026569261" flag="0"/>
    </comp>
  </station>
  <station code="KHMN" name="KHMN" netid="KO" insttype="CMG-5T" lat="37.3916" lon="37.1574">
    <comp name="--.HNN">
      <acc value="0.2384539979" flag="0"/>
      <vel value="0.0908058221" flag="0"/>
      <psa03 value="0.4203472096" flag="0"/>
      <psa10 value="0.0912889316" flag="0"/>
      <psa30 value="0.0089905394" flag="0"/>
    </comp>
    <comp name="--.HNE">
      <acc value="0.3147983169" flag="0"/>
      <vel value="0.0873953785" flag="0"/>
      <psa03 value="0.4401789808" flag="0"/>
      <psa10 value="0.0860249864" flag="0"/>
      <psa30 value="0.0076514235" flag="0"/>
    </comp>
    <comp name="--.HNZ">
      <acc value="0.1390155669" flag="0"/>
      <vel value="0.0632912787" flag="0"/>
      <psa03 value="0.2006049824" flag="0"/>
      <psa10 value="0.0674499107" flag="0"/>
      <psa30 value="0.0071360134" flag="0"/>
    </comp>
  </station>
  <station code="SARI" name="SARI" netid="KO" insttype="CMG-3T" lat="38.4072" lon="36.4181">
    <comp name="--.HHN">
      <acc value="0.1173284963" flag="0"/>
      <vel value="0.0453033161" flag="0"/>
      <psa03 value="0.2417821273" flag="0"/>
      <psa10 value="0.0501172729" flag="0"/>
      <psa30 value="0.0027032335" flag="0"/>
    </comp>
  </station>
  <station code="ANDN" name="ANDN" netid="TU" insttype="T" lat="37.58" lon="36.3452">
    <comp name="--.HHE">
      <acc value="0.6353901450" flag="0"/>
      <vel value="0.1660165142" flag="0"/>
      <psa03 value="1.1282267344" flag="0"/>
      <psa10 value="0.0895940853" flag="0"/>
      <psa30 value="0.0103062210" flag="0"/>
    </comp>
    <comp name="--.HHN">
      <acc value="0.8922912233" flag="0"/>
      <vel value="0.2919835215" flag="0"/>
      <psa03 value="1.6375901551" flag="0"/>
      <psa10 value="0.0933610325" flag="0"/>
      <psa30 value="0.0092130422" flag="0"/>
    </comp>
    <comp name="--.HHZ">
      <acc value="0.2155067208" flag="0"/>
      <vel value="0.1088443180" flag="0"/>
      <psa03 value="0.4062126203" flag="0"/>
      <psa10 value="0.1325269275" flag="0"/>
      <psa30 value="0.0072250877" flag="0"/>
    </comp>
  </station>
</stationlist>
