<?xml version="1.0" encoding="UTF-8" standalone="yes"?>
<!DOCTYPE earthquake SYSTEM "stationlist.dtd">
<stationlist created="" xmlns="ch.ethz.sed.shakemap.usgs.xml">
  <station code="ZKR" name="ZKR" netid="GE" insttype="STS-2/N" lat="35.1147" lon="26.2169">
    <comp name="--.HHE">
      <acc value="0.0006548467" flag="0"/>
      <vel value="0.0007248358" flag="0"/>
      <psa03 value="0.0015754933" flag="0"/>
      <psa10 value="0.0009381785" flag="0"/>
      <psa30 value="0.0001939794" flag="0"/>
    </comp>
    <comp name="--.HHZ">
      <acc value="0.0007500678" flag="0"/>
      <vel value="0.0004120836" flag="0"/>
      <psa03 value="0.0031998286" flag="0"/>
      <psa10 value="0.0006522273" flag="0"/>
      <psa30 value="0.0000809891" flag="0"/>
    </comp>
    <comp name="--.HHN">
      <acc value="0.0004103388" flag="0"/>
      <vel value="0.0002880982" flag="0"/>
      <psa03 value="0.0012623068" flag="0"/>
      <psa10 value="0.0003404477" flag="0"/>
      <psa30 value="0.0000614616" flag="0"/>
    </comp>
  </station>
  <station code="ZKR" name="ZKR" netid="HL" insttype="120" lat="35.1147" lon="26.2169">
    <comp name="--.HHN">
      <acc value="0.0004010956" flag="0"/>
      <vel value="0.0002849934" flag="0"/>
      <psa03 value="0.0012263730" flag="0"/>
      <psa10 value="0.0003381167" flag="0"/>
      <psa30 value="0.0000614038" flag="0"/>
    </comp>
    <comp name="--.HHE">
      <acc value="0.0006533653" flag="0"/>
      <vel value="0.0007178444" flag="0"/>
      <psa03 value="0.0015291810" flag="0"/>
      <psa10 value="0.0009313817" flag="0"/>
      <psa30 value="0.0001939468" flag="0"/>
    </comp>
    <comp name="--.HHZ">
      <acc value="0.0007398149" flag="0"/>
      <vel value="0.0004075279" flag="0"/>
      <psa03 value="0.0031113854" flag="0"/>
      <psa10 value="0.0006475384" flag="0"/>
      <psa30 value="0.0000808603" flag="0"/>
    </comp>
  </station>
</stationlist>
