<stationlist created="1778136409">
	<station code="MALA" name="MALA" netid="CL" source="Corinth Riff Laboratory (CRLNET)" insttype="" lat="38.39341" lon="21.87263">
		<comp name="01.HNE" depth="0.0">
			<acc value="0.0163618906859551" flag="0"/>
			<vel value="0.0276019795194072" flag="0"/>
			<psa03 value="0.0210288371105877" flag="0"/>
			<psa10 value="0.0443712937254063" flag="0"/>
			<psa30 value="0.00525989381004403" flag="0"/>
		</comp>
		<comp name="01.HNN" depth="0.0">
			<acc value="0.0126025757479136" flag="0"/>
			<vel value="0.0179220650961385" flag="0"/>
			<psa03 value="0.0191496644326203" flag="0"/>
			<psa10 value="0.0360237402366353" flag="0"/>
			<psa30 value="0.00396505435051124" flag="0"/>
		</comp>
		<comp name="01.HNZ" depth="0.0">
			<acc value="0.00609527803495399" flag="0"/>
			<vel value="0.00835129437932623" flag="0"/>
			<psa03 value="0.00881421470379954" flag="0"/>
			<psa10 value="0.0140333931058209" flag="0"/>
			<psa30 value="0.00272480038305275" flag="0"/>
		</comp>
	</station>
	<station code="ROD3" name="ROD3" netid="CL" source="Corinth Riff Laboratory (CRLNET)" insttype="" lat="38.30811" lon="21.89204">
		<comp name="00.HNE" depth="0.0">
			<acc value="0.00513958353360391" flag="0"/>
			<vel value="0.00589575111675836" flag="0"/>
			<psa03 value="0.0280981057562747" flag="0"/>
			<psa10 value="0.00626569861482278" flag="0"/>
			<psa30 value="0.00132392189383466" flag="0"/>
		</comp>
		<comp name="00.HNN" depth="0.0">
			<acc value="0.00515947660232861" flag="0"/>
			<vel value="0.00383319479134202" flag="0"/>
			<psa03 value="0.0232659474415013" flag="0"/>
			<psa10 value="0.00640260976707469" flag="0"/>
			<psa30 value="0.00102414910949224" flag="0"/>
		</comp>
		<comp name="00.HNZ" depth="0.0">
			<acc value="0.00269376989833829" flag="0"/>
			<vel value="0.00285710886431261" flag="0"/>
			<psa03 value="0.0058612290669936" flag="0"/>
			<psa10 value="0.00405901298440961" flag="0"/>
			<psa30 value="0.00104204599213955" flag="0"/>
		</comp>
	</station>
	<station code="E02" name="E02" netid="EG" source="EUROSEISTEST Strong Motion Network" insttype="" lat="40.674206" lon="23.315498">
		<comp name="--.EN1" depth="0.0">
			<acc value="0.0113270362200216" flag="0"/>
			<vel value="0.0145001618972001" flag="0"/>
			<psa03 value="0.0212670169084326" flag="0"/>
			<psa10 value="0.0466191732916299" flag="0"/>
			<psa30 value="0.00142204139076251" flag="0"/>
		</comp>
		<comp name="--.EN2" depth="0.0">
			<acc value="0.00993724299282612" flag="0"/>
			<vel value="0.00974319973100666" flag="0"/>
			<psa03 value="0.0203473140555102" flag="0"/>
			<psa10 value="0.0257574244279488" flag="0"/>
			<psa30 value="0.00161275725391914" flag="0"/>
		</comp>
		<comp name="--.EN3" depth="0.0">
			<acc value="0.0040673960266102" flag="0"/>
			<vel value="0.00392493030446031" flag="0"/>
			<psa03 value="0.00858201578203557" flag="0"/>
			<psa10 value="0.00823601153286197" flag="0"/>
			<psa30 value="0.00093932451730411" flag="0"/>
		</comp>
	</station>
	<station code="MMAA" name="MMAA" netid="EG" source="EUROSEISTEST Strong Motion Network" insttype="" lat="40.630855" lon="22.943725">
		<comp name="--.EN1" depth="0.0">
			<acc value="0.0175455458844898" flag="0"/>
			<vel value="0.00917164037438496" flag="0"/>
			<psa03 value="0.0179911345326806" flag="0"/>
			<psa10 value="0.0239936150842281" flag="0"/>
			<psa30 value="0.00132169193060594" flag="0"/>
		</comp>
		<comp name="--.EN2" depth="0.0">
			<acc value="0.0190305348023825" flag="0"/>
			<vel value="0.0107502120943748" flag="0"/>
			<psa03 value="0.0279275688143857" flag="0"/>
			<psa10 value="0.0227437435363726" flag="0"/>
			<psa30 value="0.00177045374220681" flag="0"/>
		</comp>
		<comp name="--.EN3" depth="0.0">
			<acc value="0.0494057826469914" flag="0"/>
			<vel value="0.00794079878775568" flag="0"/>
			<psa03 value="0.0109952453081038" flag="0"/>
			<psa10 value="0.00864914077564304" flag="0"/>
			<psa30 value="0.00126675641639697" flag="0"/>
		</comp>
	</station>
	<station code="PRR" name="PRR" netid="EG" source="EUROSEISTEST Strong Motion Network" insttype="" lat="40.682635" lon="23.300668">
		<comp name="--.EN1" depth="0.0">
			<acc value="0.000363127116927688" flag="0"/>
			<vel value="1.68765453600032e-05" flag="0"/>
			<psa03 value="0.00202765580662134" flag="0"/>
			<psa10 value="0.00217089388919244" flag="0"/>
			<psa30 value="0.00142596456732036" flag="0"/>
		</comp>
		<comp name="--.EN2" depth="0.0">
			<acc value="0.00224729660378666" flag="0"/>
			<vel value="0.000111586886901211" flag="0"/>
			<psa03 value="0.00442482827940799" flag="0"/>
			<psa10 value="0.00355825446689527" flag="0"/>
			<psa30 value="0.000748697618374398" flag="0"/>
		</comp>
		<comp name="--.EN3" depth="0.0">
			<acc value="0.00102929484210891" flag="0"/>
			<vel value="4.38127011998948e-05" flag="0"/>
			<psa03 value="0.0026540213562533" flag="0"/>
			<psa10 value="0.00168286339550198" flag="0"/>
			<psa30 value="0.000794792859459157" flag="0"/>
		</comp>
	</station>
	<station code="SHTA" name="SHTA" netid="EG" source="EUROSEISTEST Strong Motion Network" insttype="" lat="40.613764" lon="22.952972">
		<comp name="--.EN1" depth="0.0">
			<acc value="0.0575051450904624" flag="0"/>
			<vel value="0.0109384345431519" flag="0"/>
			<psa03 value="0.0175424654876425" flag="0"/>
			<psa10 value="0.0227958213613035" flag="0"/>
			<psa30 value="0.00479666942247195" flag="0"/>
		</comp>
		<comp name="--.EN2" depth="0.0">
			<acc value="0.0282058518528658" flag="0"/>
			<vel value="0.00699039107964794" flag="0"/>
			<psa03 value="0.0161461373106806" flag="0"/>
			<psa10 value="0.0175457379440438" flag="0"/>
			<psa30 value="0.00210088021466987" flag="0"/>
		</comp>
		<comp name="--.EN3" depth="0.0">
			<acc value="0.240265819183098" flag="0"/>
			<vel value="0.035406212958978" flag="0"/>
			<psa03 value="0.0126846879545746" flag="0"/>
			<psa10 value="0.0108063568056219" flag="0"/>
			<psa30 value="0.00130356541731236" flag="0"/>
		</comp>
	</station>
	<station code="STC" name="STC" netid="EG" source="EUROSEISTEST Strong Motion Network" insttype="" lat="40.64865" lon="23.304856">
		<comp name="--.EN1" depth="0.0">
			<acc value="0.00762432347667241" flag="0"/>
			<vel value="0.00611899965071198" flag="0"/>
			<psa03 value="0.0190032015771884" flag="0"/>
			<psa10 value="0.0153617723295125" flag="0"/>
			<psa30 value="0.00100933384258084" flag="0"/>
		</comp>
		<comp name="--.EN2" depth="0.0">
			<acc value="0.00471060200077061" flag="0"/>
			<vel value="0.00491465516491487" flag="0"/>
			<psa03 value="0.012370435366055" flag="0"/>
			<psa10 value="0.00536366297259988" flag="0"/>
			<psa30 value="0.000878591639886078" flag="0"/>
		</comp>
		<comp name="--.EN3" depth="0.0">
			<acc value="0.00303702548760912" flag="0"/>
			<vel value="0.0035356725271219" flag="0"/>
			<psa03 value="0.00722343619947779" flag="0"/>
			<psa10 value="0.00822701937464858" flag="0"/>
			<psa30 value="0.000964056676525283" flag="0"/>
		</comp>
	</station>
	<station code="STE" name="STE" netid="EG" source="EUROSEISTEST Strong Motion Network" insttype="" lat="40.645348" lon="23.305398">
		<comp name="--.EN1" depth="0.0">
			<acc value="0.00356665659412859" flag="0"/>
			<vel value="0.00194994464076287" flag="0"/>
			<psa03 value="0.00922993044798869" flag="0"/>
			<psa10 value="0.00333048687840913" flag="0"/>
			<psa30 value="0.000461532032564015" flag="0"/>
		</comp>
		<comp name="--.EN2" depth="0.0">
			<acc value="0.00200039626799486" flag="0"/>
			<vel value="0.00260230336505282" flag="0"/>
			<psa03 value="0.00432084450297004" flag="0"/>
			<psa10 value="0.0068667780153385" flag="0"/>
			<psa30 value="0.000764704355827627" flag="0"/>
		</comp>
		<comp name="--.EN3" depth="0.0">
			<acc value="0.00242110624415827" flag="0"/>
			<vel value="0.00172903219907868" flag="0"/>
			<psa03 value="0.00424943677777021" flag="0"/>
			<psa10 value="0.00283495670822012" flag="0"/>
			<psa30 value="0.000667784810385043" flag="0"/>
		</comp>
	</station>
	<station code="TST" name="TST" netid="EG" source="EUROSEISTEST Strong Motion Network" insttype="" lat="40.6638" lon="23.2906">
		<comp name="00.EN1" depth="0.0">
			<acc value="0.00470033908381002" flag="0"/>
			<vel value="0.00587711738371162" flag="0"/>
			<psa03 value="0.00806461301709628" flag="0"/>
			<psa10 value="0.00796230996394098" flag="0"/>
			<psa30 value="0.00106434071568325" flag="0"/>
		</comp>
		<comp name="00.EN2" depth="0.0">
			<acc value="0.00340418158961075" flag="0"/>
			<vel value="0.00305656793582271" flag="0"/>
			<psa03 value="0.0051964256178915" flag="0"/>
			<psa10 value="0.00480980050068704" flag="0"/>
			<psa30 value="0.000748359523062356" flag="0"/>
		</comp>
		<comp name="00.EN3" depth="0.0">
			<acc value="0.0058304616210648" flag="0"/>
			<vel value="0.00980530565847452" flag="0"/>
			<psa03 value="0.0119811478588973" flag="0"/>
			<psa10 value="0.0179128197613784" flag="0"/>
			<psa30 value="0.00143095739807133" flag="0"/>
		</comp>
	</station>
	<station code="W02" name="W02" netid="EG" source="EUROSEISTEST Strong Motion Network" insttype="" lat="40.661088" lon="23.260065">
		<comp name="--.EN1" depth="0.0">
			<acc value="0.00844106367866415" flag="0"/>
			<vel value="0.00983432403511139" flag="0"/>
			<psa03 value="0.012130743706409" flag="0"/>
			<psa10 value="0.0307756749874097" flag="0"/>
			<psa30 value="0.00233139506848333" flag="0"/>
		</comp>
		<comp name="--.EN2" depth="0.0">
			<acc value="0.00748704854027584" flag="0"/>
			<vel value="0.0102425301798655" flag="0"/>
			<psa03 value="0.0115037607655913" flag="0"/>
			<psa10 value="0.0237853712891117" flag="0"/>
			<psa30 value="0.00211035542569203" flag="0"/>
		</comp>
		<comp name="--.EN3" depth="0.0">
			<acc value="0.00574487355923007" flag="0"/>
			<vel value="0.00558343810081473" flag="0"/>
			<psa03 value="0.00562878173332179" flag="0"/>
			<psa10 value="0.0143623573732047" flag="0"/>
			<psa30 value="0.00119965905485595" flag="0"/>
		</comp>
	</station>
	<station code="AIGS" name="AIGS" netid="HA" source="Hellenic Seismological Network, University of Athens, Seismological Laboratory (HA)" insttype="" lat="38.25001" lon="22.0878">
		<comp name="--.HNE" depth="0.0">
			<acc value="0.00462898812683842" flag="0"/>
			<vel value="0.00654572330632791" flag="0"/>
			<psa03 value="0.00908266794350917" flag="0"/>
			<psa10 value="0.00597174231734073" flag="0"/>
			<psa30 value="0.00231898856902502" flag="0"/>
		</comp>
		<comp name="--.HNN" depth="0.0">
			<acc value="0.00535633813772942" flag="0"/>
			<vel value="0.00422302402195976" flag="0"/>
			<psa03 value="0.00944060559645534" flag="0"/>
			<psa10 value="0.00659992289826127" flag="0"/>
			<psa30 value="0.00183666758168006" flag="0"/>
		</comp>
		<comp name="--.HNZ" depth="0.0">
			<acc value="0.00430412555164194" flag="0"/>
			<vel value="0.00395195306419523" flag="0"/>
			<psa03 value="0.00501112714124644" flag="0"/>
			<psa10 value="0.00697038836906056" flag="0"/>
			<psa30 value="0.00224695361636961" flag="0"/>
		</comp>
	</station>
	<station code="KIAS" name="KIAS" netid="HA" source="Hellenic Seismological Network, University of Athens, Seismological Laboratory (HA)" insttype="" lat="37.9875" lon="22.7543">
		<comp name="--.HNE" depth="0.0">
			<acc value="0.00387249648976548" flag="0"/>
			<vel value="0.0046950946089565" flag="0"/>
			<psa03 value="0.00465318948830026" flag="0"/>
			<psa10 value="0.0127568979510016" flag="0"/>
			<psa30 value="0.00206172088096996" flag="0"/>
		</comp>
		<comp name="--.HNN" depth="0.0">
			<acc value="0.00393131443001492" flag="0"/>
			<vel value="0.00432088725084818" flag="0"/>
			<psa03 value="0.00483215831477335" flag="0"/>
			<psa10 value="0.00803346319831069" flag="0"/>
			<psa30 value="0.00166798946272917" flag="0"/>
		</comp>
		<comp name="--.HNZ" depth="0.0">
			<acc value="0.00346796105043132" flag="0"/>
			<vel value="0.00213198114172625" flag="0"/>
			<psa03 value="0.00389257197578964" flag="0"/>
			<psa10 value="0.00371673510377983" flag="0"/>
			<psa30 value="0.00112929329504518" flag="0"/>
		</comp>
	</station>
	<station code="LTRS" name="LTRS" netid="HA" source="Hellenic Seismological Network, University of Athens, Seismological Laboratory (HA)" insttype="" lat="37.97528" lon="22.9765">
		<comp name="--.HNE" depth="0.0">
			<acc value="0.00280252895712719" flag="0"/>
			<vel value="0.00360424038877327" flag="0"/>
			<psa03 value="0.00630865113317632" flag="0"/>
			<psa10 value="0.00605630508784926" flag="0"/>
			<psa30 value="0.00118611589745038" flag="0"/>
		</comp>
		<comp name="--.HNN" depth="0.0">
			<acc value="0.00352021681877157" flag="0"/>
			<vel value="0.0034821492084889" flag="0"/>
			<psa03 value="0.00599545568684842" flag="0"/>
			<psa10 value="0.00615697505274038" flag="0"/>
			<psa30 value="0.000962404864359025" flag="0"/>
		</comp>
		<comp name="--.HNZ" depth="0.0">
			<acc value="0.00668835334932307" flag="0"/>
			<vel value="0.00317874109103003" flag="0"/>
			<psa03 value="0.00393731418240792" flag="0"/>
			<psa10 value="0.00579456317913237" flag="0"/>
			<psa30 value="0.000620574405795429" flag="0"/>
		</comp>
	</station>
	<station code="XLKS" name="XLKS" netid="HA" source="Hellenic Seismological Network, University of Athens, Seismological Laboratory (HA)" insttype="" lat="38.0772" lon="22.6361">
		<comp name="--.HNE" depth="0.0">
			<acc value="0.0073849174633163" flag="0"/>
			<vel value="0.00730974842935181" flag="0"/>
			<psa03 value="0.0105591607619121" flag="0"/>
			<psa10 value="0.0124025396745849" flag="0"/>
			<psa30 value="0.00310824109377134" flag="0"/>
		</comp>
		<comp name="--.HNN" depth="0.0">
			<acc value="0.0148814032720622" flag="0"/>
			<vel value="0.00738537878267261" flag="0"/>
			<psa03 value="0.0127962710928257" flag="0"/>
			<psa10 value="0.01112201772117" flag="0"/>
			<psa30 value="0.00215075787214032" flag="0"/>
		</comp>
		<comp name="--.HNZ" depth="0.0">
			<acc value="0.0152563887795221" flag="0"/>
			<vel value="0.00417659351906341" flag="0"/>
			<psa03 value="0.0131094665391536" flag="0"/>
			<psa10 value="0.00544423170131131" flag="0"/>
			<psa30 value="0.00117448292372963" flag="0"/>
		</comp>
	</station>
	<station code="ART2" name="ART2" netid="HI" source="ITSAK Strong Motion Network" insttype="" lat="39.1474" lon="20.9937">
		<comp name="--.HNE" depth="0.0">
			<acc value="0.00756732269948381" flag="0"/>
			<vel value="0.00454320755038772" flag="0"/>
			<psa03 value="0.0194806342464272" flag="0"/>
			<psa10 value="0.00509290019213927" flag="0"/>
			<psa30 value="0.000989448150250016" flag="0"/>
		</comp>
		<comp name="--.HNN" depth="0.0">
			<acc value="0.0063519827315969" flag="0"/>
			<vel value="0.00308397020491922" flag="0"/>
			<psa03 value="0.0134972131345587" flag="0"/>
			<psa10 value="0.0040060102222679" flag="0"/>
			<psa30 value="0.000734823938897175" flag="0"/>
		</comp>
		<comp name="--.HNZ" depth="0.0">
			<acc value="0.00490371695636398" flag="0"/>
			<vel value="0.00258953622900359" flag="0"/>
			<psa03 value="0.0157055599475343" flag="0"/>
			<psa10 value="0.00306445972416818" flag="0"/>
			<psa30 value="0.000431262423185563" flag="0"/>
		</comp>
	</station>
	<station code="LMS2" name="LMS2" netid="HI" source="ITSAK Strong Motion Network" insttype="" lat="40.834985" lon="21.141815">
		<comp name="--.HNE" depth="0.0">
			<acc value="0.0103806924231585" flag="0"/>
			<vel value="0.00542185504061326" flag="0"/>
			<psa03 value="0.0186486702787214" flag="0"/>
			<psa10 value="0.00675929917664786" flag="0"/>
			<psa30 value="0.000816090520324141" flag="0"/>
		</comp>
		<comp name="--.HNN" depth="0.0">
			<acc value="0.0109130373526809" flag="0"/>
			<vel value="0.0078255947770948" flag="0"/>
			<psa03 value="0.0234239735983136" flag="0"/>
			<psa10 value="0.0130879910776767" flag="0"/>
			<psa30 value="0.000669390906360535" flag="0"/>
		</comp>
		<comp name="--.HNZ" depth="0.0">
			<acc value="0.00420074572494244" flag="0"/>
			<vel value="0.003826129198557" flag="0"/>
			<psa03 value="0.00906118359225691" flag="0"/>
			<psa10 value="0.00702762851463715" flag="0"/>
			<psa30 value="0.00151427979277042" flag="0"/>
		</comp>
	</station>
	<station code="MSL1" name="MSL1" netid="HI" source="ITSAK Strong Motion Network" insttype="" lat="38.3727" lon="21.4243">
		<comp name="--.HNE" depth="0.0">
			<acc value="0.0176293615477589" flag="0"/>
			<vel value="0.0255186298745538" flag="0"/>
			<psa03 value="0.0314659646740467" flag="0"/>
			<psa10 value="0.0477831641501449" flag="0"/>
			<psa30 value="0.00301589103798054" flag="0"/>
		</comp>
		<comp name="--.HNN" depth="0.0">
			<acc value="0.0196671875580184" flag="0"/>
			<vel value="0.021912066115445" flag="0"/>
			<psa03 value="0.0291073318637248" flag="0"/>
			<psa10 value="0.04118096428694" flag="0"/>
			<psa30 value="0.00414225065377634" flag="0"/>
		</comp>
		<comp name="--.HNZ" depth="0.0">
			<acc value="0.00651484244986753" flag="0"/>
			<vel value="0.00805556608273851" flag="0"/>
			<psa03 value="0.0128530675984888" flag="0"/>
			<psa10 value="0.014942431737777" flag="0"/>
			<psa30 value="0.00239530680232231" flag="0"/>
		</comp>
	</station>
	<station code="DLFA" name="DLFA" netid="HL" source="National Observatory of Athens Seismic Network" insttype="" lat="38.47836" lon="22.49583">
		<comp name="00.HNE" depth="0.0">
			<acc value="0.00434059146367896" flag="0"/>
			<vel value="0.00675857351328333" flag="0"/>
			<psa03 value="0.00957483221631016" flag="0"/>
			<psa10 value="0.00960391465061203" flag="0"/>
			<psa30 value="0.0020916981594042" flag="0"/>
		</comp>
		<comp name="00.HNN" depth="0.0">
			<acc value="0.00371431928457228" flag="0"/>
			<vel value="0.00462258752057283" flag="0"/>
			<psa03 value="0.00706926864568694" flag="0"/>
			<psa10 value="0.0107716862433489" flag="0"/>
			<psa30 value="0.000838468952026413" flag="0"/>
		</comp>
		<comp name="00.HNZ" depth="0.0">
			<acc value="0.00235344150432138" flag="0"/>
			<vel value="0.00274472022555756" flag="0"/>
			<psa03 value="0.00733772188539657" flag="0"/>
			<psa10 value="0.00683750401540429" flag="0"/>
			<psa30 value="0.000836231841695499" flag="0"/>
		</comp>
	</station>
	<station code="JAN" name="JAN" netid="HL" source="National Observatory of Athens Seismic Network" insttype="" lat="39.65616" lon="20.84874">
		<comp name="00.HNE" depth="0.0">
			<acc value="0.0163791706936395" flag="0"/>
			<vel value="0.0078333192580011" flag="0"/>
			<psa03 value="0.0451001442712179" flag="0"/>
			<psa10 value="0.00653549412073095" flag="0"/>
			<psa30 value="0.00221697633793537" flag="0"/>
		</comp>
		<comp name="00.HNN" depth="0.0">
			<acc value="0.0150733987853398" flag="0"/>
			<vel value="0.00831134625017831" flag="0"/>
			<psa03 value="0.0330644906909028" flag="0"/>
			<psa10 value="0.00569792001283691" flag="0"/>
			<psa30 value="0.00122862099373774" flag="0"/>
		</comp>
		<comp name="00.HNZ" depth="0.0">
			<acc value="0.00841878054428674" flag="0"/>
			<vel value="0.00415869343455918" flag="0"/>
			<psa03 value="0.0182995625068731" flag="0"/>
			<psa10 value="0.00416370974789637" flag="0"/>
			<psa30 value="0.00157224114056607" flag="0"/>
		</comp>
	</station>
	<station code="PATC" name="PATC" netid="HL" source="National Observatory of Athens Seismic Network" insttype="" lat="38.26933" lon="21.76001">
		<comp name="00.HNE" depth="0.0">
			<acc value="0.00568867327549411" flag="0"/>
			<vel value="0.00784041037007372" flag="0"/>
			<psa03 value="0.0117672003406055" flag="0"/>
			<psa10 value="0.0117622786978775" flag="0"/>
			<psa30 value="0.00290869085225385" flag="0"/>
		</comp>
		<comp name="00.HNN" depth="0.0">
			<acc value="0.00600903184573377" flag="0"/>
			<vel value="0.00800899760619604" flag="0"/>
			<psa03 value="0.0106039029685304" flag="0"/>
			<psa10 value="0.0138119191830605" flag="0"/>
			<psa30 value="0.00384201328231099" flag="0"/>
		</comp>
		<comp name="00.HNZ" depth="0.0">
			<acc value="0.00664456180541926" flag="0"/>
