<?xml version="1.0" encoding="UTF-8" standalone="yes"?>
<!DOCTYPE earthquake SYSTEM "stationlist.dtd">
<stationlist created="" xmlns="ch.ethz.sed.shakemap.usgs.xml">
  <station code="KBN" name="KBN" netid="AC" insttype="" lat="40.6236" lon="20.7874">
    <comp name="--.HHN">
      <acc value="0.0061702058" flag="0"/>
      <vel value="0.0082073762" flag="0"/>
      <psa03 value="0.0139406945" flag="0"/>
      <psa10 value="0.0215843997" flag="0"/>
      <psa30 value="0.0012981935" flag="0"/>
    </comp>
    <comp name="--.HHE">
      <acc value="0.0038907423" flag="0"/>
      <vel value="0.0039360253" flag="0"/>
      <psa03 value="0.0139612404" flag="0"/>
      <psa10 value="0.0053727347" flag="0"/>
      <psa30 value="0.0006751301" flag="0"/>
    </comp>
  </station>
  <station code="LMS2" name="LMS2" netid="HI" insttype="CMG-5TD,ACCELEROMETER,GURALP" lat="40.835" lon="21.1418">
    <comp name="--.HNE">
      <acc value="0.0105504684" flag="0"/>
      <vel value="0.0052010184" flag="0"/>
      <psa03 value="0.0186768261" flag="0"/>
      <psa10 value="0.0068147557" flag="0"/>
      <psa30 value="0.0006460180" flag="0"/>
    </comp>
    <comp name="--.HNZ">
      <acc value="0.0042346827" flag="0"/>
      <vel value="0.0038964469" flag="0"/>
      <psa03 value="0.0088712333" flag="0"/>
      <psa10 value="0.0069211915" flag="0"/>
      <psa30 value="0.0011995620" flag="0"/>
    </comp>
    <comp name="--.HNN">
      <acc value="0.0110160561" flag="0"/>
      <vel value="0.0074898481" flag="0"/>
      <psa03 value="0.0232093336" flag="0"/>
      <psa10 value="0.0130443896" flag="0"/>
      <psa30 value="0.0005635474" flag="0"/>
    </comp>
  </station>
  <station code="DLFA" name="DLFA" netid="HL" insttype="CMG-5" lat="38.4784" lon="22.4958">
    <comp name="00.HNZ">
      <acc value="0.0131828608" flag="0"/>
      <vel value="0.0024692350" flag="0"/>
      <psa03 value="0.0073749803" flag="0"/>
      <psa10 value="0.0067910827" flag="0"/>
      <psa30 value="0.0006786069" flag="0"/>
    </comp>
    <comp name="00.HNN">
      <acc value="0.0008269706" flag="0"/>
      <vel value="0.0001174876" flag="0"/>
      <psa03 value="0.0001972038" flag="0"/>
      <psa10 value="0.0001172374" flag="0"/>
      <psa30 value="0.0000501836" flag="0"/>
    </comp>
    <comp name="00.HNE">
      <acc value="0.0047896207" flag="0"/>
      <vel value="0.0067422936" flag="0"/>
      <psa03 value="0.0095240385" flag="0"/>
      <psa10 value="0.0095767095" flag="0"/>
      <psa30 value="0.0018965936" flag="0"/>
    </comp>
  </station>
  <station code="EVR" name="EVR" netid="HL" insttype="DR24" lat="38.9166" lon="21.8105">
    <comp name="--.HHE">
      <acc value="0.0122487138" flag="0"/>
      <vel value="0.0081761357" flag="0"/>
      <psa03 value="0.0201314630" flag="0"/>
      <psa10 value="0.0154924807" flag="0"/>
      <psa30 value="0.0014810000" flag="0"/>
    </comp>
    <comp name="--.HHN">
      <acc value="0.0168541727" flag="0"/>
      <vel value="0.0149515107" flag="0"/>
      <psa03 value="0.0298166507" flag="0"/>
      <psa10 value="0.0171890699" flag="0"/>
      <psa30 value="0.0024306655" flag="0"/>
    </comp>
    <comp name="--.HHZ">
      <acc value="0.0096815492" flag="0"/>
      <vel value="0.0097422013" flag="0"/>
      <psa03 value="0.0194463577" flag="0"/>
      <psa10 value="0.0162807459" flag="0"/>
      <psa30 value="0.0015090119" flag="0"/>
    </comp>
  </station>
  <station code="KZN" name="KZN" netid="HL" insttype="120" lat="40.3033" lon="21.7821">
    <comp name="--.HHN">
      <acc value="0.0468665716" flag="0"/>
      <vel value="0.0186038281" flag="0"/>
      <psa03 value="0.0756927410" flag="0"/>
      <psa10 value="0.0134792033" flag="0"/>
      <psa30 value="0.0021000162" flag="0"/>
    </comp>
    <comp name="--.HHE">
      <acc value="0.0481782937" flag="0"/>
      <vel value="0.0279788458" flag="0"/>
      <psa03 value="0.1788239272" flag="0"/>
      <psa10 value="0.0139507200" flag="0"/>
      <psa30 value="0.0012482942" flag="0"/>
    </comp>
    <comp name="--.HHZ">
      <acc value="0.0215975706" flag="0"/>
      <vel value="0.0117370757" flag="0"/>
      <psa03 value="0.0353403401" flag="0"/>
      <psa10 value="0.0081882032" flag="0"/>
      <psa30 value="0.0017546821" flag="0"/>
    </comp>
  </station>
  <station code="NEO" name="NEO" netid="HL" insttype="120" lat="39.3057" lon="23.2219">
    <comp name="--.HHE">
      <acc value="0.0091948908" flag="0"/>
      <vel value="0.0062874834" flag="0"/>
      <psa03 value="0.0213741223" flag="0"/>
      <psa10 value="0.0064762966" flag="0"/>
      <psa30 value="0.0006844087" flag="0"/>
    </comp>
    <comp name="--.HHN">
      <acc value="0.0082603150" flag="0"/>
      <vel value="0.0069023808" flag="0"/>
      <psa03 value="0.0211348844" flag="0"/>
      <psa10 value="0.0117055727" flag="0"/>
      <psa30 value="0.0009807791" flag="0"/>
    </comp>
    <comp name="--.HHZ">
      <acc value="0.0065720498" flag="0"/>
      <vel value="0.0046521343" flag="0"/>
      <psa03 value="0.0092069204" flag="0"/>
      <psa10 value="0.0047284144" flag="0"/>
      <psa30 value="0.0010935518" flag="0"/>
    </comp>
  </station>
  <station code="PLG" name="PLG" netid="HL" insttype="CMG3ESPC-120s" lat="40.3733" lon="23.4444">
    <comp name="--.HHZ">
      <acc value="0.0024378849" flag="0"/>
      <vel value="0.0021261460" flag="0"/>
      <psa03 value="0.0068359231" flag="0"/>
      <psa10 value="0.0035567657" flag="0"/>
      <psa30 value="0.0010118915" flag="0"/>
    </comp>
  </station>
  <station code="TETR" name="TETR" netid="HL" insttype="60" lat="39.3445" lon="21.2747">
    <comp name="--.HHN">
      <acc value="0.0921285430" flag="0"/>
      <vel value="0.0431663678" flag="0"/>
      <psa03 value="0.2160260515" flag="0"/>
      <psa10 value="0.0279555397" flag="0"/>
      <psa30 value="0.0019401393" flag="0"/>
    </comp>
    <comp name="--.HHZ">
      <acc value="0.0424117966" flag="0"/>
      <vel value="0.0198449731" flag="0"/>
      <psa03 value="0.1315009119" flag="0"/>
      <psa10 value="0.0162496507" flag="0"/>
      <psa30 value="0.0011503174" flag="0"/>
    </comp>
    <comp name="--.HHE">
      <acc value="0.1110460704" flag="0"/>
      <vel value="0.0554518064" flag="0"/>
      <psa03 value="0.4291026862" flag="0"/>
      <psa10 value="0.0397127834" flag="0"/>
      <psa30 value="0.0028841398" flag="0"/>
    </comp>
  </station>
  <station code="THL" name="THL" netid="HL" insttype="120" lat="39.5647" lon="22.0144">
    <comp name="--.HHE">
      <acc value="0.1549176352" flag="0"/>
      <vel value="0.0277631665" flag="0"/>
      <psa03 value="0.0969096225" flag="0"/>
      <psa10 value="0.0274466142" flag="0"/>
      <psa30 value="0.0024715738" flag="0"/>
    </comp>
    <comp name="--.HHN">
      <acc value="0.1530705068" flag="0"/>
      <vel value="0.0384463482" flag="0"/>
      <psa03 value="0.0830661175" flag="0"/>
      <psa10 value="0.0265996282" flag="0"/>
      <psa30 value="0.0054294679" flag="0"/>
    </comp>
    <comp name="--.HHZ">
      <acc value="0.1007604836" flag="0"/>
      <vel value="0.0337097947" flag="0"/>
      <psa03 value="0.0600880126" flag="0"/>
      <psa10 value="0.0186350603" flag="0"/>
      <psa30 value="0.0061615091" flag="0"/>
    </comp>
  </station>
  <station code="AMPL" name="AMPL" netid="HP" insttype="Compact," lat="38.9224" lon="21.2135">
    <comp name="--.HHE">
      <acc value="0.0106041989" flag="0"/>
      <vel value="0.0093335353" flag="0"/>
      <psa03 value="0.0275939730" flag="0"/>
      <psa10 value="0.0101909616" flag="0"/>
      <psa30 value="0.0010089108" flag="0"/>
    </comp>
    <comp name="--.HHZ">
      <acc value="0.0066466617" flag="0"/>
      <vel value="0.0061616759" flag="0"/>
      <psa03 value="0.0182800996" flag="0"/>
      <psa10 value="0.0047524174" flag="0"/>
      <psa30 value="0.0005376280" flag="0"/>
    </comp>
    <comp name="--.HHN">
      <acc value="0.0071233828" flag="0"/>
      <vel value="0.0059502877" flag="0"/>
      <psa03 value="0.0231112532" flag="0"/>
      <psa10 value="0.0071414128" flag="0"/>
      <psa30 value="0.0011853111" flag="0"/>
    </comp>
  </station>
  <station code="ANX" name="ANX" netid="HP" insttype="120" lat="38.5933" lon="21.9209">
    <comp name="--.HHE">
      <acc value="0.0093764828" flag="0"/>
      <vel value="0.0097970317" flag="0"/>
      <psa03 value="0.0239088041" flag="0"/>
      <psa10 value="0.0171167748" flag="0"/>
      <psa30 value="0.0008945283" flag="0"/>
    </comp>
    <comp name="--.HHN">
      <acc value="0.0135221793" flag="0"/>
      <vel value="0.0092494687" flag="0"/>
      <psa03 value="0.0275789431" flag="0"/>
      <psa10 value="0.0104980811" flag="0"/>
      <psa30 value="0.0012636936" flag="0"/>
    </comp>
    <comp name="--.HHZ">
      <acc value="0.0055665980" flag="0"/>
      <vel value="0.0048953760" flag="0"/>
      <psa03 value="0.0208018328" flag="0"/>
      <psa10 value="0.0058632180" flag="0"/>
      <psa30 value="0.0013701226" flag="0"/>
    </comp>
  </station>
  <station code="EFP" name="EFP" netid="HP" insttype="40," lat="38.4269" lon="21.9058">
    <comp name="--.HHE">
      <acc value="0.0070390429" flag="0"/>
      <vel value="0.0079721144" flag="0"/>
      <psa03 value="0.0176480921" flag="0"/>
      <psa10 value="0.0080978339" flag="0"/>
      <psa30 value="0.0014055132" flag="0"/>
    </comp>
    <comp name="--.HHZ">
      <acc value="0.0062195141" flag="0"/>
      <vel value="0.0040220055" flag="0"/>
      <psa03 value="0.0091795136" flag="0"/>
      <psa10 value="0.0071621913" flag="0"/>
      <psa30 value="0.0016966744" flag="0"/>
    </comp>
    <comp name="--.HHN">
      <acc value="0.0063496684" flag="0"/>
      <vel value="0.0067308783" flag="0"/>
      <psa03 value="0.0136625210" flag="0"/>
      <psa10 value="0.0095652800" flag="0"/>
      <psa30 value="0.0015815876" flag="0"/>
    </comp>
  </station>
  <station code="PRMD" name="PRMD" netid="HP" insttype="120P," lat="39.5299" lon="21.0965">
    <comp name="--.HHN">
      <acc value="0.0600251052" flag="0"/>
      <vel value="0.0343522843" flag="0"/>
      <psa03 value="0.1868936148" flag="0"/>
      <psa10 value="0.0267360574" flag="0"/>
      <psa30 value="0.0014208034" flag="0"/>
    </comp>
    <comp name="--.HHE">
      <acc value="0.0408298457" flag="0"/>
      <vel value="0.0202370873" flag="0"/>
      <psa03 value="0.1383813586" flag="0"/>
      <psa10 value="0.0134521251" flag="0"/>
      <psa30 value="0.0018382231" flag="0"/>
    </comp>
    <comp name="--.HHZ">
      <acc value="0.0265783503" flag="0"/>
      <vel value="0.0142697330" flag="0"/>
      <psa03 value="0.0786330670" flag="0"/>
      <psa10 value="0.0111799190" flag="0"/>
      <psa30 value="0.0020707237" flag="0"/>
    </comp>
  </station>
  <station code="AGG" name="AGG" netid="HT" insttype="120P," lat="39.0211" lon="22.336">
    <comp name="--.HHE">
      <acc value="0.0191092227" flag="0"/>
      <vel value="0.0113871961" flag="0"/>
      <psa03 value="0.0349282995" flag="0"/>
      <psa10 value="0.0151509528" flag="0"/>
      <psa30 value="0.0010785983" flag="0"/>
    </comp>
    <comp name="--.HHN">
      <acc value="0.0183778592" flag="0"/>
      <vel value="0.0117953716" flag="0"/>
      <psa03 value="0.0573039423" flag="0"/>
      <psa10 value="0.0145272635" flag="0"/>
      <psa30 value="0.0016590673" flag="0"/>
    </comp>
    <comp name="--.HHZ">
      <acc value="0.0103804731" flag="0"/>
      <vel value="0.0047970096" flag="0"/>
      <psa03 value="0.0142666113" flag="0"/>
      <psa10 value="0.0064018711" flag="0"/>
      <psa30 value="0.0018125220" flag="0"/>
    </comp>
  </station>
  <station code="GRG" name="GRG" netid="HT" insttype="100" lat="40.957" lon="22.401">
    <comp name="--.HHN">
      <acc value="0.0452965364" flag="0"/>
      <vel value="0.0103572624" flag="0"/>
      <psa03 value="0.0165761072" flag="0"/>
      <psa10 value="0.0156271239" flag="0"/>
      <psa30 value="0.0024958918" flag="0"/>
    </comp>
    <comp name="--.HHZ">
      <acc value="0.0062960184" flag="0"/>
      <vel value="0.0052247119" flag="0"/>
      <psa03 value="0.0106156820" flag="0"/>
      <psa10 value="0.0071367611" flag="0"/>
      <psa30 value="0.0013272415" flag="0"/>
    </comp>
    <comp name="--.HHE">
      <acc value="0.0856211932" flag="0"/>
      <vel value="0.0093629442" flag="0"/>
      <psa03 value="0.0152902056" flag="0"/>
      <psa10 value="0.0139816570" flag="0"/>
      <psa30 value="0.0015876829" flag="0"/>
    </comp>
  </station>
  <station code="KPRO" name="KPRO" netid="HT" insttype="100" lat="39.9549" lon="21.3632">
    <comp name="--.HHE">
      <acc value="0.0411674584" flag="0"/>
      <vel value="0.0289014932" flag="0"/>
      <psa03 value="0.1058826131" flag="0"/>
      <psa10 value="0.0253859988" flag="0"/>
      <psa30 value="0.0019501118" flag="0"/>
    </comp>
    <comp name="--.HHN">
      <acc value="0.0503584010" flag="0"/>
      <vel value="0.0193196885" flag="0"/>
      <psa03 value="0.1504379008" flag="0"/>
      <psa10 value="0.0259065477" flag="0"/>
      <psa30 value="0.0022528783" flag="0"/>
    </comp>
    <comp name="--.HHZ">
      <acc value="0.0282753551" flag="0"/>
      <vel value="0.0159084621" flag="0"/>
      <psa03 value="0.0448643141" flag="0"/>
      <psa10 value="0.0210263809" flag="0"/>
      <psa30 value="0.0024169332" flag="0"/>
    </comp>
  </station>
  <station code="LIT" name="LIT" netid="HT" insttype="100" lat="40.1033" lon="22.4892">
    <comp name="--.HHE">
      <acc value="0.0500163652" flag="0"/>
      <vel value="0.0148384416" flag="0"/>
      <psa03 value="0.0760918255" flag="0"/>
      <psa10 value="0.0111487011" flag="0"/>
      <psa30 value="0.0025713089" flag="0"/>
    </comp>
    <comp name="--.HHZ">
      <acc value="0.0232822216" flag="0"/>
      <vel value="0.0112179105" flag="0"/>
      <psa03 value="0.0401924803" flag="0"/>
      <psa10 value="0.0099602046" flag="0"/>
      <psa30 value="0.0030544313" flag="0"/>
    </comp>
    <comp name="--.HHN">
      <acc value="0.0445811527" flag="0"/>
      <vel value="0.0170651835" flag="0"/>
      <psa03 value="0.0639263226" flag="0"/>
      <psa10 value="0.0148285511" flag="0"/>
      <psa30 value="0.0025525318" flag="0"/>
    </comp>
  </station>
  <station code="TYRN" name="TYRN" netid="HT" insttype="120P," lat="39.711" lon="22.2325">
    <comp name="--.HHN">
      <acc value="0.1301348430" flag="0"/>
      <vel value="0.0442620684" flag="0"/>
      <psa03 value="0.0908915192" flag="0"/>
      <psa10 value="0.0363171894" flag="0"/>
      <psa30 value="0.0023928528" flag="0"/>
    </comp>
    <comp name="--.HHE">
      <acc value="0.1099998687" flag="0"/>
      <vel value="0.0435235911" flag="0"/>
      <psa03 value="0.1278319307" flag="0"/>
      <psa10 value="0.0443516671" flag="0"/>
      <psa30 value="0.0048264536" flag="0"/>
    </comp>
    <comp name="--.HHZ">
      <acc value="0.1263203327" flag="0"/>
      <vel value="0.0343813856" flag="0"/>
      <psa03 value="0.1554536573" flag="0"/>
      <psa10 value="0.0275938708" flag="0"/>
      <psa30 value="0.0040101851" flag="0"/>
    </comp>
  </station>
  <station code="THL" name="THL" netid="MN" insttype="" lat="39.5647" lon="22.0144">
    <comp name="--.HHE">
      <acc value="0.1549176352" flag="0"/>
      <vel value="0.0277631665" flag="0"/>
      <psa03 value="0.0969096225" flag="0"/>
      <psa10 value="0.0274466142" flag="0"/>
      <psa30 value="0.0024715738" flag="0"/>
    </comp>
    <comp name="--.HHN">
      <acc value="0.1530705068" flag="0"/>
      <vel value="0.0384463482" flag="0"/>
      <psa03 value="0.0830661175" flag="0"/>
      <psa10 value="0.0265996282" flag="0"/>
      <psa30 value="0.0054294679" flag="0"/>
    </comp>
    <comp name="--.HHZ">
      <acc value="0.1007604836" flag="0"/>
      <vel value="0.0337097947" flag="0"/>
      <psa03 value="0.0600880126" flag="0"/>
      <psa10 value="0.0186350603" flag="0"/>
      <psa30 value="0.0061615091" flag="0"/>
    </comp>
  </station>
</stationlist>
