<?xml version="1.0" encoding="UTF-8" standalone="yes"?>
<!DOCTYPE earthquake SYSTEM "stationlist.dtd">
<stationlist created="" xmlns="ch.ethz.sed.shakemap.usgs.xml">
  <station code="CMRD" name="CMRD" netid="KO" insttype="CMG-5T" lat="37.6623" lon="34.9902">
    <comp name="--.HNN">
      <acc value="0.0305384361" flag="0"/>
      <vel value="0.0419817132" flag="0"/>
      <psa03 value="0.1027501609" flag="0"/>
      <psa10 value="0.0471276292" flag="0"/>
      <psa30 value="0.0073586289" flag="0"/>
    </comp>
    <comp name="--.HNE">
      <acc value="0.0347444317" flag="0"/>
      <vel value="0.0422991654" flag="0"/>
      <psa03 value="0.0547544514" flag="0"/>
      <psa10 value="0.0486303031" flag="0"/>
      <psa30 value="0.0039620021" flag="0"/>
    </comp>
    <comp name="--.HNZ">
      <acc value="0.0183720740" flag="0"/>
      <vel value="0.0275157478" flag="0"/>
      <psa03 value="0.0406605037" flag="0"/>
      <psa10 value="0.0331608433" flag="0"/>
      <psa30 value="0.0055652446" flag="0"/>
    </comp>
  </station>
</stationlist>
