<?xml version="1.0" encoding="UTF-8" standalone="yes"?>
<!DOCTYPE earthquake SYSTEM "stationlist.dtd">
<stationlist created="" xmlns="ch.ethz.sed.shakemap.usgs.xml">
  <station code="KARP" name="KARP" netid="GE" insttype="STS-2/N" lat="35.5471" lon="27.1611">
    <comp name="--.HHE">
      <acc value="0.0357900445" flag="0"/>
      <vel value="0.0535914972" flag="0"/>
      <psa03 value="0.0606361414" flag="0"/>
      <psa10 value="0.1155875931" flag="0"/>
      <psa30 value="0.0109000661" flag="0"/>
    </comp>
    <comp name="--.HHZ">
      <acc value="0.0177103201" flag="0"/>
      <vel value="0.0325001326" flag="0"/>
      <psa03 value="0.0514468353" flag="0"/>
      <psa10 value="0.0509641791" flag="0"/>
      <psa30 value="0.0106177011" flag="0"/>
    </comp>
    <comp name="--.HHN">
      <acc value="0.0395312299" flag="0"/>
      <vel value="0.0433841121" flag="0"/>
      <psa03 value="0.0449067619" flag="0"/>
      <psa10 value="0.0669798439" flag="0"/>
      <psa30 value="0.0140083691" flag="0"/>
    </comp>
  </station>
  <station code="ZKR" name="ZKR" netid="GE" insttype="STS-2/N" lat="35.1147" lon="26.2169">
    <comp name="--.HHE">
      <acc value="0.1102647525" flag="0"/>
      <vel value="0.1104280998" flag="0"/>
      <psa03 value="0.3178491841" flag="0"/>
      <psa10 value="0.1601768621" flag="0"/>
      <psa30 value="0.0293558336" flag="0"/>
    </comp>
    <comp name="--.HHZ">
      <acc value="0.1140905205" flag="0"/>
      <vel value="0.0730098897" flag="0"/>
      <psa03 value="0.2566540914" flag="0"/>
      <psa10 value="0.0874872676" flag="0"/>
      <psa30 value="0.0258088386" flag="0"/>
    </comp>
    <comp name="--.HHN">
      <acc value="0.0898717385" flag="0"/>
      <vel value="0.0682943258" flag="0"/>
      <psa03 value="0.3444226905" flag="0"/>
      <psa10 value="0.0631559868" flag="0"/>
      <psa30 value="0.0124462876" flag="0"/>
    </comp>
  </station>
  <station code="IMOD" name="IMOD" netid="HC" insttype="120" lat="34.9731" lon="24.7995">
    <comp name="--.HHZ">
      <acc value="0.0234431930" flag="0"/>
      <vel value="0.0197682983" flag="0"/>
      <psa03 value="0.0733523943" flag="0"/>
      <psa10 value="0.0207177625" flag="0"/>
      <psa30 value="0.0048336313" flag="0"/>
    </comp>
    <comp name="--.HHE">
      <acc value="0.0448189446" flag="0"/>
      <vel value="0.0319651207" flag="0"/>
      <psa03 value="0.1056604955" flag="0"/>
      <psa10 value="0.0351486594" flag="0"/>
      <psa30 value="0.0051748869" flag="0"/>
    </comp>
    <comp name="--.HHN">
      <acc value="0.0403880883" flag="0"/>
      <vel value="0.0311514934" flag="0"/>
      <psa03 value="0.1365659543" flag="0"/>
      <psa10 value="0.0325022590" flag="0"/>
      <psa30 value="0.0043612929" flag="0"/>
    </comp>
  </station>
  <station code="KNSS" name="KNSS" netid="HC" insttype="60" lat="35.3042" lon="25.1802">
    <comp name="--.HHN">
      <acc value="0.0260978806" flag="0"/>
      <vel value="0.0290470921" flag="0"/>
      <psa03 value="0.1035142626" flag="0"/>
      <psa10 value="0.0382735464" flag="0"/>
      <psa30 value="0.0087744139" flag="0"/>
    </comp>
    <comp name="--.HHE">
      <acc value="0.0298242279" flag="0"/>
      <vel value="0.0280903185" flag="0"/>
      <psa03 value="0.1008400947" flag="0"/>
      <psa10 value="0.0325348767" flag="0"/>
      <psa30 value="0.0115359745" flag="0"/>
    </comp>
    <comp name="--.HHZ">
      <acc value="0.0198887332" flag="0"/>
      <vel value="0.0159467985" flag="0"/>
      <psa03 value="0.0527433776" flag="0"/>
      <psa10 value="0.0152117355" flag="0"/>
      <psa30 value="0.0089849163" flag="0"/>
    </comp>
  </station>
  <station code="PFKS" name="PFKS" netid="HC" insttype="120" lat="35.0429" lon="25.4733">
    <comp name="--.HHN">
      <acc value="0.0827918219" flag="0"/>
      <vel value="0.0493766586" flag="0"/>
      <psa03 value="0.2667075218" flag="0"/>
      <psa10 value="0.0398237327" flag="0"/>
      <psa30 value="0.0098203274" flag="0"/>
    </comp>
    <comp name="--.HHE">
      <acc value="0.1559489439" flag="0"/>
      <vel value="0.0701983563" flag="0"/>
      <psa03 value="0.6201529343" flag="0"/>
      <psa10 value="0.0568883874" flag="0"/>
      <psa30 value="0.0105397594" flag="0"/>
    </comp>
    <comp name="--.HHZ">
      <acc value="0.0603454157" flag="0"/>
      <vel value="0.0379702589" flag="0"/>
      <psa03 value="0.2374308459" flag="0"/>
      <psa10 value="0.0373611553" flag="0"/>
      <psa30 value="0.0080223163" flag="0"/>
    </comp>
  </station>
  <station code="STIA" name="STIA" netid="HC" insttype="120" lat="35.2021" lon="26.0909">
    <comp name="--.HHE">
      <acc value="0.1600410686" flag="0"/>
      <vel value="0.0814952149" flag="0"/>
      <psa03 value="0.5300880592" flag="0"/>
      <psa10 value="0.1249604739" flag="0"/>
      <psa30 value="0.0254180360" flag="0"/>
    </comp>
    <comp name="--.HHZ">
      <acc value="0.1100212985" flag="0"/>
      <vel value="0.0727347475" flag="0"/>
      <psa03 value="0.3028216836" flag="0"/>
      <psa10 value="0.1101547413" flag="0"/>
      <psa30 value="0.0339374115" flag="0"/>
    </comp>
    <comp name="--.HHN">
      <acc value="0.1608395992" flag="0"/>
      <vel value="0.0809450055" flag="0"/>
      <psa03 value="0.3375988479" flag="0"/>
      <psa10 value="0.1640827547" flag="0"/>
      <psa30 value="0.0257574951" flag="0"/>
    </comp>
  </station>
  <station code="TEFL" name="TEFL" netid="HC" insttype="GEOtiny," lat="35.0933" lon="25.1634">
    <comp name="--.HHE">
      <acc value="0.0740966568" flag="0"/>
      <vel value="0.0660097415" flag="0"/>
      <psa03 value="0.1900643740" flag="0"/>
      <psa10 value="0.0648667314" flag="0"/>
      <psa30 value="0.0132123625" flag="0"/>
    </comp>
    <comp name="--.HHN">
      <acc value="0.0714322671" flag="0"/>
      <vel value="0.0482471900" flag="0"/>
      <psa03 value="0.1954529415" flag="0"/>
      <psa10 value="0.0866876247" flag="0"/>
      <psa30 value="0.0249960321" flag="0"/>
    </comp>
    <comp name="--.HHZ">
      <acc value="0.0349215896" flag="0"/>
      <vel value="0.0318968430" flag="0"/>
      <psa03 value="0.1084063553" flag="0"/>
      <psa10 value="0.0621903090" flag="0"/>
      <psa30 value="0.0065613278" flag="0"/>
    </comp>
  </station>
  <station code="SIT2" name="SIT2" netid="HI" insttype="CMG-5TD,ACCELEROMETER,GURALP" lat="35.2059" lon="26.107">
    <comp name="--.HNZ">
      <acc value="0.2482978856" flag="0"/>
      <vel value="0.1179423756" flag="0"/>
      <psa03 value="0.4713485732" flag="0"/>
      <psa10 value="0.1048750046" flag="0"/>
      <psa30 value="0.0380541123" flag="0"/>
    </comp>
    <comp name="--.HNN">
      <acc value="0.3487786569" flag="0"/>
      <vel value="0.2521897059" flag="0"/>
      <psa03 value="1.0021498640" flag="0"/>
      <psa10 value="0.2056726998" flag="0"/>
      <psa30 value="0.0294498632" flag="0"/>
    </comp>
    <comp name="--.HNE">
      <acc value="0.3875615824" flag="0"/>
      <vel value="0.2720181307" flag="0"/>
      <psa03 value="1.1407238200" flag="0"/>
      <psa10 value="0.3002374767" flag="0"/>
      <psa30 value="0.0291718874" flag="0"/>
    </comp>
  </station>
  <station code="IACM" name="IACM" netid="HL" insttype="120" lat="35.3058" lon="25.0709">
    <comp name="--.HHE">
      <acc value="0.0896176738" flag="0"/>
      <vel value="0.1051317691" flag="0"/>
      <psa03 value="0.2664452430" flag="0"/>
      <psa10 value="0.2017606134" flag="0"/>
      <psa30 value="0.0246833887" flag="0"/>
    </comp>
    <comp name="--.HHZ">
      <acc value="0.0680064340" flag="0"/>
      <vel value="0.0641081638" flag="0"/>
      <psa03 value="0.1128434309" flag="0"/>
      <psa10 value="0.0899277327" flag="0"/>
      <psa30 value="0.0063288571" flag="0"/>
    </comp>
    <comp name="--.HHN">
      <acc value="0.0874257997" flag="0"/>
      <vel value="0.1197289393" flag="0"/>
      <psa03 value="0.2059749992" flag="0"/>
      <psa10 value="0.2090630719" flag="0"/>
      <psa30 value="0.0227303762" flag="0"/>
    </comp>
  </station>
  <station code="IDI" name="IDI" netid="HL" insttype="120" lat="35.288" lon="24.89">
    <comp name="--.HHZ">
      <acc value="0.0082770868" flag="0"/>
      <vel value="0.0103966486" flag="0"/>
      <psa03 value="0.0256994773" flag="0"/>
      <psa10 value="0.0116971928" flag="0"/>
      <psa30 value="0.0043539697" flag="0"/>
    </comp>
    <comp name="--.HHE">
      <acc value="0.0089743538" flag="0"/>
      <vel value="0.0105533359" flag="0"/>
      <psa03 value="0.0402051770" flag="0"/>
      <psa10 value="0.0115655631" flag="0"/>
      <psa30 value="0.0054070460" flag="0"/>
    </comp>
    <comp name="--.HHN">
      <acc value="0.0118061095" flag="0"/>
      <vel value="0.0128204025" flag="0"/>
      <psa03 value="0.0284535038" flag="0"/>
      <psa10 value="0.0156558263" flag="0"/>
      <psa30 value="0.0049139269" flag="0"/>
    </comp>
  </station>
  <station code="KARP" name="KARP" netid="HL" insttype="120" lat="35.5471" lon="27.1611">
    <comp name="--.HHN">
      <acc value="0.0348049124" flag="0"/>
      <vel value="0.0431044398" flag="0"/>
      <psa03 value="0.0441005329" flag="0"/>
      <psa10 value="0.0666307491" flag="0"/>
      <psa30 value="0.0139765317" flag="0"/>
    </comp>
    <comp name="--.HHE">
      <acc value="0.0351465551" flag="0"/>
      <vel value="0.0532468953" flag="0"/>
      <psa03 value="0.0593986824" flag="0"/>
      <psa10 value="0.1149612658" flag="0"/>
      <psa30 value="0.0108842345" flag="0"/>
    </comp>
    <comp name="--.HHZ">
      <acc value="0.0172171460" flag="0"/>
      <vel value="0.0322526371" flag="0"/>
      <psa03 value="0.0502730015" flag="0"/>
      <psa10 value="0.0507060870" flag="0"/>
      <psa30 value="0.0105996786" flag="0"/>
    </comp>
  </station>
  <station code="KSTE" name="KSTE" netid="HL" insttype="60" lat="35.1801" lon="25.3372">
    <comp name="--.HHE">
      <acc value="0.0179404206" flag="0"/>
      <vel value="0.0196158534" flag="0"/>
      <psa03 value="0.0481666128" flag="0"/>
      <psa10 value="0.0287057179" flag="0"/>
      <psa30 value="0.0101189524" flag="0"/>
    </comp>
    <comp name="--.HHN">
      <acc value="0.0253867950" flag="0"/>
      <vel value="0.0239475663" flag="0"/>
      <psa03 value="0.0928343628" flag="0"/>
      <psa10 value="0.0240736731" flag="0"/>
      <psa30 value="0.0135402678" flag="0"/>
    </comp>
    <comp name="--.HHZ">
      <acc value="0.0173991370" flag="0"/>
      <vel value="0.0179064459" flag="0"/>
      <psa03 value="0.0390330271" flag="0"/>
      <psa10 value="0.0276954819" flag="0"/>
      <psa30 value="0.0115578433" flag="0"/>
    </comp>
  </station>
  <station code="NPS" name="NPS" netid="HL" insttype="CMG3ESPC-120s" lat="35.2613" lon="25.6104">
    <comp name="--.HHN">
      <acc value="0.0293125827" flag="0"/>
      <vel value="0.0414473000" flag="0"/>
      <psa03 value="0.0925139076" flag="0"/>
      <psa10 value="0.0348546879" flag="0"/>
      <psa30 value="0.0104308215" flag="0"/>
    </comp>
    <comp name="--.HHE">
      <acc value="0.0202380392" flag="0"/>
      <vel value="0.0206060094" flag="0"/>
      <psa03 value="0.0538086436" flag="0"/>
      <psa10 value="0.0259641748" flag="0"/>
      <psa30 value="0.0054177052" flag="0"/>
    </comp>
    <comp name="--.HHZ">
      <acc value="0.0196204208" flag="0"/>
      <vel value="0.0337233397" flag="0"/>
      <psa03 value="0.0462613888" flag="0"/>
      <psa10 value="0.0234334405" flag="0"/>
      <psa30 value="0.0133413536" flag="0"/>
    </comp>
  </station>
  <station code="SIVA" name="SIVA" netid="HL" insttype="60" lat="35.0178" lon="24.812">
    <comp name="--.HHZ">
      <acc value="0.0288256970" flag="0"/>
      <vel value="0.0207915558" flag="0"/>
      <psa03 value="0.0609701425" flag="0"/>
      <psa10 value="0.0308191505" flag="0"/>
      <psa30 value="0.0047826011" flag="0"/>
    </comp>
    <comp name="--.HHN">
      <acc value="0.0422647226" flag="0"/>
      <vel value="0.0304209457" flag="0"/>
      <psa03 value="0.0931694918" flag="0"/>
      <psa10 value="0.0408400831" flag="0"/>
      <psa30 value="0.0084570564" flag="0"/>
    </comp>
    <comp name="--.HHE">
      <acc value="0.0428846557" flag="0"/>
      <vel value="0.0320881689" flag="0"/>
      <psa03 value="0.1639449661" flag="0"/>
      <psa10 value="0.0496315396" flag="0"/>
      <psa30 value="0.0104550216" flag="0"/>
    </comp>
  </station>
  <station code="ZKR" name="ZKR" netid="HL" insttype="120" lat="35.1147" lon="26.2169">
    <comp name="--.HHE">
      <acc value="0.1077921895" flag="0"/>
      <vel value="0.1091142165" flag="0"/>
      <psa03 value="0.3094574198" flag="0"/>
      <psa10 value="0.1592085761" flag="0"/>
      <psa30 value="0.0293506261" flag="0"/>
    </comp>
    <comp name="--.HHN">
      <acc value="0.0876496797" flag="0"/>
      <vel value="0.0678224205" flag="0"/>
      <psa03 value="0.3348179653" flag="0"/>
      <psa10 value="0.0630030669" flag="0"/>
      <psa30 value="0.0124241437" flag="0"/>
    </comp>
    <comp name="--.HHZ">
      <acc value="0.1117872553" flag="0"/>
      <vel value="0.0717851285" flag="0"/>
      <psa03 value="0.2501277971" flag="0"/>
      <psa10 value="0.0868506459" flag="0"/>
      <psa30 value="0.0258118240" flag="0"/>
    </comp>
  </station>
  <station code="IDI" name="IDI" netid="MN" insttype="" lat="35.288" lon="24.89">
    <comp name="--.HHN">
      <acc value="0.0117828653" flag="0"/>
      <vel value="0.0127552133" flag="0"/>
      <psa03 value="0.0285504809" flag="0"/>
      <psa10 value="0.0155278142" flag="0"/>
      <psa30 value="0.0048556208" flag="0"/>
    </comp>
    <comp name="--.HHE">
      <acc value="0.0091278728" flag="0"/>
      <vel value="0.0105168281" flag="0"/>
      <psa03 value="0.0409071182" flag="0"/>
      <psa10 value="0.0114870046" flag="0"/>
      <psa30 value="0.0053416876" flag="0"/>
    </comp>
    <comp name="--.HHZ">
      <acc value="0.0084515204" flag="0"/>
      <vel value="0.0102964312" flag="0"/>
      <psa03 value="0.0260752812" flag="0"/>
      <psa10 value="0.0115850458" flag="0"/>
      <psa30 value="0.0043013297" flag="0"/>
    </comp>
  </station>
</stationlist>
