<?xml version="1.0" encoding="UTF-8" standalone="yes"?>
<!DOCTYPE earthquake SYSTEM "stationlist.dtd">
<stationlist created="" xmlns="ch.ethz.sed.shakemap.usgs.xml">
  <station code="KARP" name="KARP" netid="GE" insttype="STS-2/N" lat="35.5471" lon="27.1611">
    <comp name="--.HHE">
      <acc value="0.0357900445" flag="0"/>
      <vel value="0.0535914972" flag="0"/>
      <psa03 value="0.0606361414" flag="0"/>
      <psa10 value="0.1155875931" flag="0"/>
      <psa30 value="0.0109000661" flag="0"/>
    </comp>
    <comp name="--.HHZ">
      <acc value="0.0177103201" flag="0"/>
      <vel value="0.0325001326" flag="0"/>
      <psa03 value="0.0514468353" flag="0"/>
      <psa10 value="0.0509641791" flag="0"/>
      <psa30 value="0.0106177011" flag="0"/>
    </comp>
    <comp name="--.HHN">
      <acc value="0.0395312299" flag="0"/>
      <vel value="0.0433841121" flag="0"/>
      <psa03 value="0.0449067619" flag="0"/>
      <psa10 value="0.0669798439" flag="0"/>
      <psa30 value="0.0140083691" flag="0"/>
    </comp>
  </station>
  <station code="ZKR" name="ZKR" netid="GE" insttype="STS-2/N" lat="35.1147" lon="26.2169">
    <comp name="--.HHE">
      <acc value="0.1102647525" flag="0"/>
      <vel value="0.1104280998" flag="0"/>
      <psa03 value="0.3178491841" flag="0"/>
      <psa10 value="0.1601768621" flag="0"/>
      <psa30 value="0.0293558336" flag="0"/>
    </comp>
    <comp name="--.HHZ">
      <acc value="0.1140905205" flag="0"/>
      <vel value="0.0730098897" flag="0"/>
      <psa03 value="0.2566540914" flag="0"/>
      <psa10 value="0.0874872676" flag="0"/>
      <psa30 value="0.0258088386" flag="0"/>
    </comp>
    <comp name="--.HHN">
      <acc value="0.0898717385" flag="0"/>
      <vel value="0.0682943258" flag="0"/>
      <psa03 value="0.3444226905" flag="0"/>
      <psa10 value="0.0631559868" flag="0"/>
      <psa30 value="0.0124462876" flag="0"/>
    </comp>
  </station>
  <station code="IDI" name="IDI" netid="MN" insttype="" lat="35.288" lon="24.89">
    <comp name="--.HHN">
      <acc value="0.0117828653" flag="0"/>
      <vel value="0.0127552133" flag="0"/>
      <psa03 value="0.0285504809" flag="0"/>
      <psa10 value="0.0155278142" flag="0"/>
      <psa30 value="0.0048556208" flag="0"/>
    </comp>
    <comp name="--.HHE">
      <acc value="0.0091278728" flag="0"/>
      <vel value="0.0105168281" flag="0"/>
      <psa03 value="0.0409071182" flag="0"/>
      <psa10 value="0.0114870046" flag="0"/>
      <psa30 value="0.0053416876" flag="0"/>
    </comp>
    <comp name="--.HHZ">
      <acc value="0.0084515204" flag="0"/>
      <vel value="0.0102964312" flag="0"/>
      <psa03 value="0.0260752812" flag="0"/>
      <psa10 value="0.0115850458" flag="0"/>
      <psa30 value="0.0043013297" flag="0"/>
    </comp>
  </station>
</stationlist>
