<?xml version="1.0" encoding="UTF-8" standalone="yes"?>
<!DOCTYPE earthquake SYSTEM "stationlist.dtd">
<stationlist created="" xmlns="ch.ethz.sed.shakemap.usgs.xml">
  <station code="APE" name="APE" netid="GE" insttype="STS-2/N" lat="37.0727" lon="25.523">
    <comp name="--.HHZ">
      <acc value="0.0818280912" flag="0"/>
      <vel value="0.0159656109" flag="0"/>
      <psa03 value="0.0388341889" flag="0"/>
      <psa10 value="0.0054855342" flag="0"/>
      <psa30 value="0.0017370772" flag="0"/>
    </comp>
    <comp name="--.HHN">
      <acc value="0.1273248254" flag="0"/>
      <vel value="0.0297018008" flag="0"/>
      <psa03 value="0.0612832775" flag="0"/>
      <psa10 value="0.0116031626" flag="0"/>
      <psa30 value="0.0022599021" flag="0"/>
    </comp>
    <comp name="--.HHE">
      <acc value="0.1109890487" flag="0"/>
      <vel value="0.0271303852" flag="0"/>
      <psa03 value="0.0919704769" flag="0"/>
      <psa10 value="0.0083161943" flag="0"/>
      <psa30 value="0.0014143277" flag="0"/>
    </comp>
  </station>
  <station code="THERA" name="THERA" netid="GE" insttype="STS-2/N" lat="36.367" lon="25.4753">
    <comp name="--.HHE">
      <acc value="0.1116408571" flag="0"/>
      <vel value="0.0298652754" flag="0"/>
      <psa03 value="0.1417013342" flag="0"/>
      <psa10 value="0.0104417993" flag="0"/>
      <psa30 value="0.0018145145" flag="0"/>
    </comp>
    <comp name="--.HHN">
      <acc value="0.0872123486" flag="0"/>
      <vel value="0.0177748147" flag="0"/>
      <psa03 value="0.0770608112" flag="0"/>
      <psa10 value="0.0067369263" flag="0"/>
      <psa30 value="0.0008795792" flag="0"/>
    </comp>
    <comp name="--.HHZ">
      <acc value="0.0893393158" flag="0"/>
      <vel value="0.0294650194" flag="0"/>
      <psa03 value="0.1167628986" flag="0"/>
      <psa10 value="0.0089070620" flag="0"/>
      <psa30 value="0.0012603087" flag="0"/>
    </comp>
  </station>
  <station code="SNT1" name="SNT1" netid="HA" insttype="30" lat="36.4159" lon="25.4282">
    <comp name="--.HHN">
      <acc value="0.0414310972" flag="0"/>
      <vel value="0.0194007679" flag="0"/>
      <psa03 value="0.0553298762" flag="0"/>
      <psa10 value="0.0182932030" flag="0"/>
      <psa30 value="0.0023208265" flag="0"/>
    </comp>
    <comp name="--.HHZ">
      <acc value="0.0403833293" flag="0"/>
      <vel value="0.0113410702" flag="0"/>
      <psa03 value="0.0467456246" flag="0"/>
      <psa10 value="0.0081301990" flag="0"/>
      <psa30 value="0.0010191975" flag="0"/>
    </comp>
    <comp name="--.HHE">
      <acc value="0.0486238423" flag="0"/>
      <vel value="0.0176635800" flag="0"/>
      <psa03 value="0.1031115624" flag="0"/>
      <psa10 value="0.0233616167" flag="0"/>
      <psa30 value="0.0025868993" flag="0"/>
    </comp>
  </station>
  <station code="NAX1" name="NAX1" netid="HI" insttype="CMG-5TD,ACCELEROMETER,GURALP" lat="37.1014" lon="25.3741">
    <comp name="--.HNN">
      <acc value="0.0541597331" flag="0"/>
      <vel value="0.0142238087" flag="0"/>
      <psa03 value="0.0339092064" flag="0"/>
      <psa10 value="0.0107813113" flag="0"/>
      <psa30 value="0.0011695953" flag="0"/>
    </comp>
    <comp name="--.HNE">
      <acc value="0.0491533682" flag="0"/>
      <vel value="0.0096627893" flag="0"/>
      <psa03 value="0.0335402018" flag="0"/>
      <psa10 value="0.0056685280" flag="0"/>
      <psa30 value="0.0016050908" flag="0"/>
    </comp>
    <comp name="--.HNZ">
      <acc value="0.0345019401" flag="0"/>
      <vel value="0.0131849899" flag="0"/>
      <psa03 value="0.0342826808" flag="0"/>
      <psa10 value="0.0083437671" flag="0"/>
      <psa30 value="0.0020616689" flag="0"/>
    </comp>
  </station>
  <station code="SFR2" name="SFR2" netid="HI" insttype="unknown" lat="36.3998" lon="25.4382">
    <comp name="--.HNN">
      <acc value="0.1503228943" flag="0"/>
      <vel value="0.0692987605" flag="0"/>
      <psa03 value="0.2855957627" flag="0"/>
      <psa10 value="0.0343966103" flag="0"/>
      <psa30 value="0.0031051870" flag="0"/>
    </comp>
    <comp name="--.HNE">
      <acc value="0.1429043057" flag="0"/>
      <vel value="0.0429254454" flag="0"/>
      <psa03 value="0.2887760702" flag="0"/>
      <psa10 value="0.0324775410" flag="0"/>
      <psa30 value="0.0031944228" flag="0"/>
    </comp>
    <comp name="--.HNZ">
      <acc value="0.1600074691" flag="0"/>
      <vel value="0.0497495785" flag="0"/>
      <psa03 value="0.1862148439" flag="0"/>
      <psa10 value="0.0170137526" flag="0"/>
      <psa30 value="0.0017909134" flag="0"/>
    </comp>
  </station>
  <station code="AMGA" name="AMGA" netid="HL" insttype="SMART24" lat="36.8316" lon="25.8938">
    <comp name="--.HHE">
      <acc value="1.1251911417" flag="0"/>
      <vel value="0.1839350552" flag="0"/>
      <psa03 value="0.7206778177" flag="0"/>
      <psa10 value="0.1322901988" flag="0"/>
      <psa30 value="0.0140879230" flag="0"/>
    </comp>
    <comp name="--.HHN">
      <acc value="0.8218158559" flag="0"/>
      <vel value="0.1595205176" flag="0"/>
      <psa03 value="0.5748065399" flag="0"/>
      <psa10 value="0.0586850097" flag="0"/>
      <psa30 value="0.0103790848" flag="0"/>
    </comp>
  </station>
  <station code="APE" name="APE" netid="HL" insttype="120" lat="37.0727" lon="25.523">
    <comp name="--.HHZ">
      <acc value="0.0722453533" flag="0"/>
      <vel value="0.0149913760" flag="0"/>
      <psa03 value="0.0377900274" flag="0"/>
      <psa10 value="0.0054386913" flag="0"/>
      <psa30 value="0.0017347668" flag="0"/>
    </comp>
    <comp name="--.HHN">
      <acc value="0.1144826075" flag="0"/>
      <vel value="0.0280875467" flag="0"/>
      <psa03 value="0.0588938183" flag="0"/>
      <psa10 value="0.0114471786" flag="0"/>
      <psa30 value="0.0022549091" flag="0"/>
    </comp>
    <comp name="--.HHE">
      <acc value="0.1043051134" flag="0"/>
      <vel value="0.0261277131" flag="0"/>
      <psa03 value="0.0886635653" flag="0"/>
      <psa10 value="0.0081971581" flag="0"/>
      <psa30 value="0.0014099924" flag="0"/>
    </comp>
  </station>
  <station code="NISR2" name="NISR2" netid="HL" insttype="120" lat="36.5744" lon="27.1767">
    <comp name="--.HHN">
      <acc value="0.0374579208" flag="0"/>
      <vel value="0.0296841428" flag="0"/>
      <psa03 value="0.1225911931" flag="0"/>
      <psa10 value="0.0396011671" flag="0"/>
      <psa30 value="0.0023216774" flag="0"/>
    </comp>
    <comp name="--.HHZ">
      <acc value="0.0103608292" flag="0"/>
      <vel value="0.0071809131" flag="0"/>
      <psa03 value="0.0344238726" flag="0"/>
      <psa10 value="0.0072216991" flag="0"/>
      <psa30 value="0.0008756602" flag="0"/>
    </comp>
    <comp name="--.HHE">
      <acc value="0.0344168969" flag="0"/>
      <vel value="0.0207503170" flag="0"/>
      <psa03 value="0.1029025179" flag="0"/>
      <psa10 value="0.0389928120" flag="0"/>
      <psa30 value="0.0018485538" flag="0"/>
    </comp>
  </station>
  <station code="SANT" name="SANT" netid="HL" insttype="30" lat="36.3705" lon="25.4593">
    <comp name="--.HHE">
      <acc value="0.3369704435" flag="0"/>
      <vel value="0.0628324485" flag="0"/>
      <psa03 value="0.3234277417" flag="0"/>
      <psa10 value="0.0157823289" flag="0"/>
      <psa30 value="0.0019902817" flag="0"/>
    </comp>
    <comp name="--.HHN">
      <acc value="0.1952528425" flag="0"/>
      <vel value="0.0392324325" flag="0"/>
      <psa03 value="0.2019118711" flag="0"/>
      <psa10 value="0.0100709411" flag="0"/>
      <psa30 value="0.0016740865" flag="0"/>
    </comp>
    <comp name="--.HHZ">
      <acc value="0.2599064467" flag="0"/>
      <vel value="0.0420798862" flag="0"/>
      <psa03 value="0.1492359014" flag="0"/>
      <psa10 value="0.0151904480" flag="0"/>
      <psa30 value="0.0011370682" flag="0"/>
    </comp>
  </station>
  <station code="SAP3" name="SAP3" netid="HL" insttype="65535" lat="36.4356" lon="25.3454">
    <comp name="--.HHE">
      <acc value="0.0955090317" flag="0"/>
      <vel value="0.0295730190" flag="0"/>
      <psa03 value="0.1893240366" flag="0"/>
      <psa10 value="0.0188364998" flag="0"/>
      <psa30 value="0.0039238202" flag="0"/>
    </comp>
    <comp name="--.HHZ">
      <acc value="0.0856082241" flag="0"/>
      <vel value="0.0237355864" flag="0"/>
      <psa03 value="0.1017253130" flag="0"/>
      <psa10 value="0.0146111566" flag="0"/>
      <psa30 value="0.0012654678" flag="0"/>
    </comp>
    <comp name="--.HHN">
      <acc value="0.1035050461" flag="0"/>
      <vel value="0.0410915860" flag="0"/>
      <psa03 value="0.2013241064" flag="0"/>
      <psa10 value="0.0181129000" flag="0"/>
      <psa30 value="0.0016499207" flag="0"/>
    </comp>
  </station>
  <station code="THERA" name="THERA" netid="HL" insttype="120" lat="36.367" lon="25.4753">
    <comp name="--.HHE">
      <acc value="0.1101603554" flag="0"/>
      <vel value="0.0288451819" flag="0"/>
      <psa03 value="0.1374678770" flag="0"/>
      <psa10 value="0.0103582924" flag="0"/>
      <psa30 value="0.0018157053" flag="0"/>
    </comp>
    <comp name="--.HHN">
      <acc value="0.1680174733" flag="0"/>
      <vel value="0.0349337049" flag="0"/>
      <psa03 value="0.1500260084" flag="0"/>
      <psa10 value="0.0133252481" flag="0"/>
      <psa30 value="0.0017592684" flag="0"/>
    </comp>
    <comp name="--.HHZ">
      <acc value="0.0878723038" flag="0"/>
      <vel value="0.0287712714" flag="0"/>
      <psa03 value="0.1135187984" flag="0"/>
      <psa10 value="0.0088303394" flag="0"/>
      <psa30 value="0.0012595657" flag="0"/>
    </comp>
  </station>
  <station code="THRA" name="THRA" netid="HL" insttype="CMG-5" lat="36.415" lon="25.4324">
    <comp name="00.HNZ">
      <acc value="0.1301110468" flag="0"/>
      <vel value="0.0490586011" flag="0"/>
      <psa03 value="0.2863475847" flag="0"/>
      <psa10 value="0.0281598251" flag="0"/>
      <psa30 value="0.0021070493" flag="0"/>
    </comp>
    <comp name="00.HNN">
      <acc value="0.1456998049" flag="0"/>
      <vel value="0.0771485192" flag="0"/>
      <psa03 value="0.2787765968" flag="0"/>
      <psa10 value="0.0614757283" flag="0"/>
      <psa30 value="0.0040882363" flag="0"/>
    </comp>
    <comp name="00.HNE">
      <acc value="0.2080514531" flag="0"/>
      <vel value="0.0863635676" flag="0"/>
      <psa03 value="0.3675898094" flag="0"/>
      <psa10 value="0.0694001055" flag="0"/>
      <psa30 value="0.0055350238" flag="0"/>
    </comp>
  </station>
  <station code="TNSA" name="TNSA" netid="HL" insttype="CMG-5" lat="37.5394" lon="25.1631">
    <comp name="00.HNE">
      <acc value="0.0259270449" flag="0"/>
      <vel value="0.0076282923" flag="0"/>
      <psa03 value="0.0387146523" flag="0"/>
      <psa10 value="0.0057062928" flag="0"/>
      <psa30 value="0.0005258945" flag="0"/>
    </comp>
    <comp name="00.HNN">
      <acc value="0.0348925508" flag="0"/>
      <vel value="0.0102409278" flag="0"/>
      <psa03 value="0.0440155494" flag="0"/>
      <psa10 value="0.0088658027" flag="0"/>
      <psa30 value="0.0007146417" flag="0"/>
    </comp>
    <comp name="00.HNZ">
      <acc value="0.0203680192" flag="0"/>
      <vel value="0.0132289413" flag="0"/>
      <psa03 value="0.0240215037" flag="0"/>
      <psa10 value="0.0103218567" flag="0"/>
      <psa30 value="0.0011217217" flag="0"/>
    </comp>
  </station>
  <station code="AKRO" name="AKRO" netid="HT" insttype="Compact," lat="36.3584" lon="25.3967">
    <comp name="--.HHE">
      <acc value="0.4636350579" flag="0"/>
      <vel value="0.0950798075" flag="0"/>
      <psa03 value="0.5115942459" flag="0"/>
      <psa10 value="0.0193467753" flag="0"/>
      <psa30 value="0.0025857704" flag="0"/>
    </comp>
    <comp name="--.HHZ">
      <acc value="0.1913424519" flag="0"/>
      <vel value="0.0416516168" flag="0"/>
      <psa03 value="0.3194833869" flag="0"/>
      <psa10 value="0.0205730154" flag="0"/>
      <psa30 value="0.0018376182" flag="0"/>
    </comp>
    <comp name="--.HHN">
      <acc value="0.2831488784" flag="0"/>
      <vel value="0.0626151470" flag="0"/>
      <psa03 value="0.2385989791" flag="0"/>
      <psa10 value="0.0249635534" flag="0"/>
      <psa30 value="0.0022051447" flag="0"/>
    </comp>
  </station>
  <station code="CMBO" name="CMBO" netid="HT" insttype="120P," lat="36.4709" lon="25.4056">
    <comp name="--.HHE">
      <acc value="0.1059208265" flag="0"/>
      <vel value="0.0336718885" flag="0"/>
      <psa03 value="0.1431667517" flag="0"/>
      <psa10 value="0.0288426998" flag="0"/>
      <psa30 value="0.0021802853" flag="0"/>
    </comp>
    <comp name="--.HHN">
      <acc value="0.1472320904" flag="0"/>
      <vel value="0.0560767032" flag="0"/>
      <psa03 value="0.1995350459" flag="0"/>
      <psa10 value="0.0233837143" flag="0"/>
      <psa30 value="0.0020965384" flag="0"/>
    </comp>
    <comp name="--.HHZ">
      <acc value="0.0943435663" flag="0"/>
      <vel value="0.0213193487" flag="0"/>
      <psa03 value="0.1870921911" flag="0"/>
      <psa10 value="0.0086527800" flag="0"/>
      <psa30 value="0.0015138732" flag="0"/>
    </comp>
  </station>
</stationlist>
