<?xml version="1.0" encoding="UTF-8" standalone="yes"?>
<!DOCTYPE earthquake SYSTEM "stationlist.dtd">
<stationlist created="" xmlns="ch.ethz.sed.shakemap.usgs.xml">
  <station code="KRL1" name="KRL1" netid="HI" insttype="CMG-5TD,ACCELEROMETER,GURALP" lat="37.7951" lon="26.7065">
    <comp name="--.HNN">
      <acc value="0.7560268682" flag="0"/>
      <vel value="0.2036326758" flag="0"/>
      <psa03 value="0.4984482651" flag="0"/>
      <psa10 value="0.0693045743" flag="0"/>
      <psa30 value="0.0054501703" flag="0"/>
    </comp>
    <comp name="--.HNE">
      <acc value="0.6429039942" flag="0"/>
      <vel value="0.1985421014" flag="0"/>
      <psa03 value="0.7492270850" flag="0"/>
      <psa10 value="0.0591254841" flag="0"/>
      <psa30 value="0.0053019603" flag="0"/>
    </comp>
    <comp name="--.HNZ">
      <acc value="0.2369446860" flag="0"/>
      <vel value="0.0546347419" flag="0"/>
      <psa03 value="0.2006448965" flag="0"/>
      <psa10 value="0.0294087211" flag="0"/>
      <psa30 value="0.0031271449" flag="0"/>
    </comp>
  </station>
  <station code="CHOS" name="CHOS" netid="HT" insttype="100" lat="38.3869" lon="26.0506">
    <comp name="--.HHE">
      <acc value="0.0363774166" flag="0"/>
      <vel value="0.0195251419" flag="0"/>
      <psa03 value="0.1480619443" flag="0"/>
      <psa10 value="0.0145109087" flag="0"/>
      <psa30 value="0.0005361079" flag="0"/>
    </comp>
    <comp name="--.HHN">
      <acc value="0.0182377042" flag="0"/>
      <vel value="0.0104637056" flag="0"/>
      <psa03 value="0.0597779481" flag="0"/>
      <psa10 value="0.0156968258" flag="0"/>
      <psa30 value="0.0008948891" flag="0"/>
    </comp>
    <comp name="--.HHZ">
      <acc value="0.0126906997" flag="0"/>
      <vel value="0.0091469064" flag="0"/>
      <psa03 value="0.0279426348" flag="0"/>
      <psa10 value="0.0089435571" flag="0"/>
      <psa30 value="0.0004791953" flag="0"/>
    </comp>
  </station>
  <station code="GMLD" name="GMLD" netid="KO" insttype="100" lat="38.0764" lon="26.8747">
    <comp name="--.HNZ">
      <acc value="0.1032401163" flag="0"/>
      <vel value="0.0182533840" flag="0"/>
      <psa03 value="0.0772155030" flag="0"/>
      <psa10 value="0.0073530689" flag="0"/>
      <psa30 value="0.0012307805" flag="0"/>
    </comp>
    <comp name="--.HNE">
      <acc value="0.1103112929" flag="0"/>
      <vel value="0.0345431572" flag="0"/>
      <psa03 value="0.1189901427" flag="0"/>
      <psa10 value="0.0236230772" flag="0"/>
      <psa30 value="0.0014123191" flag="0"/>
    </comp>
    <comp name="--.HNN">
      <acc value="0.1223124136" flag="0"/>
      <vel value="0.0443380462" flag="0"/>
      <psa03 value="0.1332554924" flag="0"/>
      <psa10 value="0.0259409257" flag="0"/>
      <psa30 value="0.0017696894" flag="0"/>
    </comp>
  </station>
  <station code="AYDN" name="AYDN" netid="TU" source="ODC" insttype="T" lat="37.6608" lon="27.8792">
    <comp name="--.HHN">
      <acc value="0.0286319578" flag="0"/>
      <vel value="0.0103196761" flag="0"/>
      <psa03 value="0.0441862026" flag="0"/>
      <psa10 value="0.0105620641" flag="0"/>
      <psa30 value="0.0005652170" flag="0"/>
    </comp>
    <comp name="--.HHZ">
      <acc value="0.0151843995" flag="0"/>
      <vel value="0.0044211379" flag="0"/>
      <psa03 value="0.0231100794" flag="0"/>
      <psa10 value="0.0070663765" flag="0"/>
      <psa30 value="0.0007126980" flag="0"/>
    </comp>
    <comp name="--.HHE">
      <acc value="0.0320006523" flag="0"/>
      <vel value="0.0109198956" flag="0"/>
      <psa03 value="0.0778425200" flag="0"/>
      <psa10 value="0.0085996170" flag="0"/>
      <psa30 value="0.0008973709" flag="0"/>
    </comp>
  </station>
</stationlist>
