<?xml version="1.0" encoding="UTF-8" standalone="yes"?>
<!DOCTYPE earthquake SYSTEM "stationlist.dtd">
<stationlist created="" xmlns="ch.ethz.sed.shakemap.usgs.xml">
  <station code="THERA" name="THERA" netid="GE" insttype="STS-2/N" lat="36.367" lon="25.4753">
    <comp name="--.HHE">
      <acc value="0.1100708210" flag="0"/>
      <vel value="0.0189250966" flag="0"/>
      <psa03 value="0.0776712996" flag="0"/>
      <psa10 value="0.0060859932" flag="0"/>
      <psa30 value="0.0004322796" flag="0"/>
    </comp>
    <comp name="--.HHZ">
      <acc value="0.1025000249" flag="0"/>
      <vel value="0.0148434696" flag="0"/>
      <psa03 value="0.0590370857" flag="0"/>
      <psa10 value="0.0035220856" flag="0"/>
      <psa30 value="0.0002998660" flag="0"/>
    </comp>
    <comp name="--.HHN">
      <acc value="0.0713060056" flag="0"/>
      <vel value="0.0144598679" flag="0"/>
      <psa03 value="0.0662365120" flag="0"/>
      <psa10 value="0.0038216571" flag="0"/>
      <psa30 value="0.0003216068" flag="0"/>
    </comp>
  </station>
</stationlist>
