<?xml version="1.0" encoding="UTF-8" standalone="yes"?>
<!DOCTYPE earthquake SYSTEM "stationlist.dtd">
<stationlist created="" xmlns="ch.ethz.sed.shakemap.usgs.xml">
  <station code="KARP" name="KARP" netid="GE" insttype="STS-2/N" lat="35.5471" lon="27.1611">
    <comp name="--.HHN">
      <acc value="0.0453971137" flag="0"/>
      <vel value="0.0398820257" flag="0"/>
      <psa03 value="0.1187216965" flag="0"/>
      <psa10 value="0.0687165719" flag="0"/>
      <psa30 value="0.0023056895" flag="0"/>
    </comp>
    <comp name="--.HHE">
      <acc value="0.0595496318" flag="0"/>
      <vel value="0.0271019166" flag="0"/>
      <psa03 value="0.1124811566" flag="0"/>
      <psa10 value="0.0355297293" flag="0"/>
      <psa30 value="0.0037875648" flag="0"/>
    </comp>
    <comp name="--.HHZ">
      <acc value="0.0467440702" flag="0"/>
      <vel value="0.0195248970" flag="0"/>
      <psa03 value="0.0858400449" flag="0"/>
      <psa10 value="0.0242663895" flag="0"/>
      <psa30 value="0.0019595014" flag="0"/>
    </comp>
  </station>
  <station code="ARG" name="ARG" netid="HL" insttype="LE3D20_DR24" lat="36.2136" lon="28.1212">
    <comp name="--.HHE">
      <acc value="0.0592360055" flag="0"/>
      <vel value="0.0318630059" flag="0"/>
      <psa03 value="0.1300092472" flag="0"/>
      <psa10 value="0.0137213243" flag="0"/>
      <psa30 value="0.0022755054" flag="0"/>
    </comp>
    <comp name="--.HHZ">
      <acc value="0.0213355932" flag="0"/>
      <vel value="0.0082213491" flag="0"/>
      <psa03 value="0.0283378670" flag="0"/>
      <psa10 value="0.0092443991" flag="0"/>
      <psa30 value="0.0023129955" flag="0"/>
    </comp>
    <comp name="--.HHN">
      <acc value="0.0292456461" flag="0"/>
      <vel value="0.0136794969" flag="0"/>
      <psa03 value="0.0659873939" flag="0"/>
      <psa10 value="0.0133347913" flag="0"/>
      <psa30 value="0.0018857169" flag="0"/>
    </comp>
  </station>
  <station code="KARP" name="KARP" netid="HL" insttype="120" lat="35.5471" lon="27.1611">
    <comp name="--.HHN">
      <acc value="0.0440523487" flag="0"/>
      <vel value="0.0393120553" flag="0"/>
      <psa03 value="0.1162405109" flag="0"/>
      <psa10 value="0.0682572315" flag="0"/>
      <psa30 value="0.0022921578" flag="0"/>
    </comp>
    <comp name="--.HHE">
      <acc value="0.0553136074" flag="0"/>
      <vel value="0.0267998135" flag="0"/>
      <psa03 value="0.1096124993" flag="0"/>
      <psa10 value="0.0353291721" flag="0"/>
      <psa30 value="0.0037679552" flag="0"/>
    </comp>
    <comp name="--.HHZ">
      <acc value="0.0442361896" flag="0"/>
      <vel value="0.0193016279" flag="0"/>
      <psa03 value="0.0836704592" flag="0"/>
      <psa10 value="0.0241161945" flag="0"/>
      <psa30 value="0.0019471990" flag="0"/>
    </comp>
  </station>
  <station code="NISR" name="NISR" netid="HL" insttype="65535" lat="36.6106" lon="27.131">
    <comp name="--.HHN">
      <acc value="2.2831891261" flag="0"/>
      <vel value="0.7289422673" flag="0"/>
      <psa03 value="1.3315253701" flag="0"/>
      <psa10 value="0.2104603779" flag="0"/>
      <psa30 value="0.1235547511" flag="0"/>
    </comp>
    <comp name="--.HHZ">
      <acc value="0.9381754877" flag="0"/>
      <vel value="0.1963458344" flag="0"/>
      <psa03 value="1.1600895743" flag="0"/>
      <psa10 value="0.0946501853" flag="0"/>
      <psa30 value="0.0111184524" flag="0"/>
    </comp>
    <comp name="--.HHE">
      <acc value="2.4269818829" flag="0"/>
      <vel value="0.9843079577" flag="0"/>
      <psa03 value="4.2422688615" flag="0"/>
      <psa10 value="0.2250970735" flag="0"/>
      <psa30 value="0.0466259653" flag="0"/>
    </comp>
  </station>
  <station code="DATC" name="DATC" netid="KO" insttype="CMG-5T" lat="36.7584" lon="27.6602">
    <comp name="--.HNE">
      <acc value="0.0953566726" flag="0"/>
      <vel value="0.0435083269" flag="0"/>
      <psa03 value="0.1807822015" flag="0"/>
      <psa10 value="0.0486398377" flag="0"/>
      <psa30 value="0.0029958209" flag="0"/>
    </comp>
    <comp name="--.HNN">
      <acc value="0.0983434044" flag="0"/>
      <vel value="0.0401732949" flag="0"/>
      <psa03 value="0.1892164835" flag="0"/>
      <psa10 value="0.0263819264" flag="0"/>
      <psa30 value="0.0023242997" flag="0"/>
    </comp>
    <comp name="--.HNZ">
      <acc value="0.1347498742" flag="0"/>
      <vel value="0.0337360424" flag="0"/>
      <psa03 value="0.1443040915" flag="0"/>
      <psa10 value="0.0253108514" flag="0"/>
      <psa30 value="0.0018543793" flag="0"/>
    </comp>
  </station>
</stationlist>
