<stationlist created="1778070015">
	<station code="KSS1" name="KSS1" netid="HI" source="ITSAK Strong Motion Network" insttype="" lat="35.4189" lon="26.9207">
		<comp name="--.HNE" depth="0.0">
			<acc value="0.0177947561552689" flag="0"/>
			<vel value="0.00958728005112213" flag="0"/>
			<psa03 value="0.0521933794302114" flag="0"/>
			<psa10 value="0.0122097419605006" flag="0"/>
			<psa30 value="0.00138095262716861" flag="0"/>
		</comp>
		<comp name="--.HNN" depth="0.0">
			<acc value="0.0177713925627685" flag="0"/>
			<vel value="0.00767095825100966" flag="0"/>
			<psa03 value="0.0467742235625807" flag="0"/>
			<psa10 value="0.0110220589073133" flag="0"/>
			<psa30 value="0.00101162680697961" flag="0"/>
		</comp>
		<comp name="--.HNZ" depth="0.0">
			<acc value="0.00852746317325499" flag="0"/>
			<vel value="0.00446999084057049" flag="0"/>
			<psa03 value="0.0167097540746193" flag="0"/>
			<psa10 value="0.012926216610917" flag="0"/>
			<psa30 value="0.000711066479662946" flag="0"/>
		</comp>
	</station>
	<station code="NAX1" name="NAX1" netid="HI" source="ITSAK Strong Motion Network" insttype="" lat="37.101394" lon="25.374103">
		<comp name="--.HNE" depth="0.0">
			<acc value="0.00480871353931701" flag="0"/>
			<vel value="0.00421765386806398" flag="0"/>
			<psa03 value="0.0100167755413961" flag="0"/>
			<psa10 value="0.00871250684832635" flag="0"/>
			<psa30 value="0.000686863886778754" flag="0"/>
		</comp>
		<comp name="--.HNN" depth="0.0">
			<acc value="0.00678016668935413" flag="0"/>
			<vel value="0.00822479935826178" flag="0"/>
			<psa03 value="0.0165609499462254" flag="0"/>
			<psa10 value="0.00748074618771431" flag="0"/>
			<psa30 value="0.00149324944127932" flag="0"/>
		</comp>
		<comp name="--.HNZ" depth="0.0">
			<acc value="0.00438562333832172" flag="0"/>
			<vel value="0.00496683191847965" flag="0"/>
			<psa03 value="0.0159575558076905" flag="0"/>
			<psa10 value="0.00657884472240715" flag="0"/>
			<psa30 value="0.000827638889516482" flag="0"/>
		</comp>
	</station>
	<station code="RDI1" name="RDI1" netid="HI" source="ITSAK Strong Motion Network" insttype="" lat="36.4514" lon="28.224">
		<comp name="--.HNE" depth="0.0">
			<acc value="0.0145230188438436" flag="0"/>
			<vel value="0.0164402816305246" flag="0"/>
			<psa03 value="0.0360784316856821" flag="0"/>
			<psa10 value="0.0290479842863874" flag="0"/>
			<psa30 value="0.00848202022555222" flag="0"/>
		</comp>
		<comp name="--.HNN" depth="0.0">
			<acc value="0.0114431776417444" flag="0"/>
			<vel value="0.01359225293755" flag="0"/>
			<psa03 value="0.0324377139435153" flag="0"/>
			<psa10 value="0.0155166800914033" flag="0"/>
			<psa30 value="0.0069958826095758" flag="0"/>
		</comp>
		<comp name="--.HNZ" depth="0.0">
			<acc value="0.010529736651537" flag="0"/>
			<vel value="0.00716495346182351" flag="0"/>
			<psa03 value="0.0307029323560998" flag="0"/>
			<psa10 value="0.01228277898634" flag="0"/>
			<psa30 value="0.00223117197085951" flag="0"/>
		</comp>
	</station>
	<station code="SIT2" name="SIT2" netid="HI" source="ITSAK Strong Motion Network" insttype="" lat="35.2059" lon="26.107">
		<comp name="--.HNE" depth="0.0">
			<acc value="0.0451603436369607" flag="0"/>
			<vel value="0.0373092109951768" flag="0"/>
			<psa03 value="0.110500601372752" flag="0"/>
			<psa10 value="0.0234274794555319" flag="0"/>
			<psa30 value="0.001686133781421" flag="0"/>
		</comp>
		<comp name="--.HNN" depth="0.0">
			<acc value="0.0349975234089414" flag="0"/>
			<vel value="0.0300681132453905" flag="0"/>
			<psa03 value="0.116034249199507" flag="0"/>
			<psa10 value="0.0266095821292057" flag="0"/>
			<psa30 value="0.00141433525527048" flag="0"/>
		</comp>
		<comp name="--.HNZ" depth="0.0">
			<acc value="0.0179081093518559" flag="0"/>
			<vel value="0.00936124767627429" flag="0"/>
			<psa03 value="0.0568352963092612" flag="0"/>
			<psa10 value="0.00425643071764938" flag="0"/>
			<psa30 value="0.000495845347319127" flag="0"/>
		</comp>
	</station>
	<station code="KARP" name="KARP" netid="HL" source="National Observatory of Athens Seismic Network" insttype="" lat="35.5471" lon="27.16106">
		<comp name="--.HNE" depth="0.0">
			<acc value="0.0494565601473849" flag="0"/>
			<vel value="0.0214642315192643" flag="0"/>
			<psa03 value="0.0833456201964528" flag="0"/>
			<psa10 value="0.027796147608348" flag="0"/>
			<psa30 value="0.00300124131750655" flag="0"/>
		</comp>
		<comp name="--.HNN" depth="0.0">
			<acc value="0.037775975428379" flag="0"/>
			<vel value="0.0335310125960612" flag="0"/>
			<psa03 value="0.112656952553599" flag="0"/>
			<psa10 value="0.0606539717779456" flag="0"/>
			<psa30 value="0.00215394289648027" flag="0"/>
		</comp>
		<comp name="--.HNZ" depth="0.0">
			<acc value="0.0362371619482696" flag="0"/>
			<vel value="0.0156003643781096" flag="0"/>
			<psa03 value="0.0703808550943822" flag="0"/>
			<psa10 value="0.0193888706675211" flag="0"/>
			<psa30 value="0.0015698514949567" flag="0"/>
		</comp>
	</station>
	<station code="KLNA" name="KLNA" netid="HL" source="National Observatory of Athens Seismic Network" insttype="" lat="36.95708" lon="26.97274">
		<comp name="00.HNE" depth="0.0">
			<acc value="0.0956005096998418" flag="0"/>
			<vel value="0.0200385795737554" flag="0"/>
			<psa03 value="0.0899156752221606" flag="0"/>
			<psa10 value="0.00913322471881783" flag="0"/>
			<psa30 value="0.0019455309652118" flag="0"/>
		</comp>
		<comp name="00.HNN" depth="0.0">
			<acc value="0.0628057799009569" flag="0"/>
			<vel value="0.0176017981214542" flag="0"/>
			<psa03 value="0.086146982856453" flag="0"/>
			<psa10 value="0.00547835119514947" flag="0"/>
			<psa30 value="0.000935557288579916" flag="0"/>
		</comp>
		<comp name="00.HNZ" depth="0.0">
			<acc value="0.0959405187160001" flag="0"/>
			<vel value="0.0188733977121142" flag="0"/>
			<psa03 value="0.0386129876084381" flag="0"/>
			<psa10 value="0.00290162253075235" flag="0"/>
			<psa30 value="0.00135860614682462" flag="0"/>
		</comp>
	</station>
	<station code="NISR" name="NISR" netid="HL" source="National Observatory of Athens Seismic Network" insttype="" lat="36.6106" lon="27.131">
		<comp name="--.HNE" depth="0.0">
			<acc value="2.24622793195775" flag="0"/>
			<vel value="0.899883641706868" flag="0"/>
			<psa03 value="3.91349691663299" flag="0"/>
			<psa10 value="0.232440473040504" flag="0"/>
			<psa30 value="0.0587783404433054" flag="0"/>
		</comp>
		<comp name="--.HNN" depth="0.0">
			<acc value="2.28743968790973" flag="0"/>
			<vel value="0.527629873037126" flag="0"/>
			<psa03 value="1.49150947184763" flag="0"/>
			<psa10 value="0.149983955700893" flag="0"/>
			<psa30 value="0.0249654255035774" flag="0"/>
		</comp>
		<comp name="--.HNZ" depth="0.0">
			<acc value="0.83214531342971" flag="0"/>
			<vel value="0.184885755348302" flag="0"/>
			<psa03 value="0.961470692712938" flag="0"/>
			<psa10 value="0.091425566495183" flag="0"/>
			<psa30 value="0.010971050944931" flag="0"/>
		</comp>
	</station>
	<station code="RODB" name="RODB" netid="HL" source="National Observatory of Athens Seismic Network" insttype="" lat="36.4471" lon="28.22116">
		<comp name="00.HNE" depth="0.0">
			<acc value="0.0141885054070339" flag="0"/>
			<vel value="0.0123598659021191" flag="0"/>
			<psa03 value="0.0471752084593957" flag="0"/>
			<psa10 value="0.0129902361643958" flag="0"/>
			<psa30 value="0.00478402150127918" flag="0"/>
		</comp>
		<comp name="00.HNN" depth="0.0">
			<acc value="0.0131327999975302" flag="0"/>
			<vel value="0.0150677608800628" flag="0"/>
			<psa03 value="0.0430746347331699" flag="0"/>
			<psa10 value="0.0169174419475052" flag="0"/>
			<psa30 value="0.00623306916025774" flag="0"/>
		</comp>
		<comp name="00.HNZ" depth="0.0">
			<acc value="0.0118485477547609" flag="0"/>
			<vel value="0.00845637976549437" flag="0"/>
			<psa03 value="0.0252657206049947" flag="0"/>
			<psa10 value="0.010607613327306" flag="0"/>
			<psa30 value="0.00181884611463047" flag="0"/>
		</comp>
	</station>
	<station code="SMG" name="SMG" netid="HL" source="National Observatory of Athens Seismic Network" insttype="" lat="37.70425" lon="26.83772">
		<comp name="00.HNE" depth="0.0">
			<acc value="0.0081182036776561" flag="0"/>
			<vel value="0.00595240633490405" flag="0"/>
			<psa03 value="0.02604529308117" flag="0"/>
			<psa10 value="0.00474662709698782" flag="0"/>
			<psa30 value="0.00239726443200319" flag="0"/>
		</comp>
		<comp name="00.HNN" depth="0.0">
			<acc value="0.00679182167179272" flag="0"/>
			<vel value="0.00326984898070433" flag="0"/>
			<psa03 value="0.0161853026656256" flag="0"/>
			<psa10 value="0.00281284196197343" flag="0"/>
			<psa30 value="0.00112175983191627" flag="0"/>
		</comp>
		<comp name="00.HNZ" depth="0.0">
			<acc value="0.00397693604032546" flag="0"/>
			<vel value="0.00183914941078743" flag="0"/>
			<psa03 value="0.00675602763179293" flag="0"/>
			<psa10 value="0.00275413041637398" flag="0"/>
			<psa30 value="0.00062343390360268" flag="0"/>
		</comp>
	</station>
	<station code="THRA" name="THRA" netid="HL" source="National Observatory of Athens Seismic Network" insttype="" lat="36.41502" lon="25.43244">
		<comp name="00.HNE" depth="0.0">
			<acc value="0.0573884902052957" flag="0"/>
			<vel value="0.0637267133226641" flag="0"/>
			<psa03 value="0.140558821748661" flag="0"/>
			<psa10 value="0.0840280064431466" flag="0"/>
			<psa30 value="0.00871124624397023" flag="0"/>
		</comp>
		<comp name="00.HNN" depth="0.0">
			<acc value="0.0475869423961354" flag="0"/>
			<vel value="0.0531458138711445" flag="0"/>
			<psa03 value="0.145330950379032" flag="0"/>
			<psa10 value="0.119315976598027" flag="0"/>
			<psa30 value="0.00533667227833611" flag="0"/>
		</comp>
		<comp name="00.HNZ" depth="0.0">
			<acc value="0.0370332784749985" flag="0"/>
			<vel value="0.0247095965354751" flag="0"/>
			<psa03 value="0.0999631949875727" flag="0"/>
			<psa10 value="0.0309030690516477" flag="0"/>
			<psa30 value="0.00278385795859236" flag="0"/>
		</comp>
	</station>
	<station code="DATC" name="DATC" netid="KO" source="Bogazici University Kandilli Observatory And Earthquake Research Institute (KOERI)" insttype="" lat="36.7584" lon="27.6602">
		<comp name="--.HNE" depth="0.0">
			<acc value="0.095486524909086" flag="0"/>
			<vel value="0.0436814038867945" flag="0"/>
			<psa03 value="0.187570863149109" flag="0"/>
			<psa10 value="0.0485760791766688" flag="0"/>
			<psa30 value="0.00306326813481521" flag="0"/>
		</comp>
		<comp name="--.HNN" depth="0.0">
			<acc value="0.100252144459278" flag="0"/>
			<vel value="0.0404137144429799" flag="0"/>
			<psa03 value="0.189181032315048" flag="0"/>
			<psa10 value="0.0263637439686441" flag="0"/>
			<psa30 value="0.00245004355336335" flag="0"/>
		</comp>
		<comp name="--.HNZ" depth="0.0">
			<acc value="0.136309861784892" flag="0"/>
			<vel value="0.0346389953433277" flag="0"/>
			<psa03 value="0.144051886480619" flag="0"/>
			<psa10 value="0.0251914238081855" flag="0"/>
			<psa30 value="0.00209328658662861" flag="0"/>
		</comp>
	</station>
</stationlist>
