<?xml version="1.0" encoding="UTF-8" standalone="yes"?>
<!DOCTYPE earthquake SYSTEM "stationlist.dtd">
<stationlist created="" xmlns="ch.ethz.sed.shakemap.usgs.xml">
  <station code="KOPR" name="KOPR" netid="KO" insttype="120s," lat="39.9917" lon="41.8535">
    <comp name="--.HHE">
      <acc value="0.0085901036" flag="0"/>
      <vel value="0.0127050909" flag="0"/>
      <psa03 value="0.0248574111" flag="0"/>
      <psa10 value="0.0194296058" flag="0"/>
      <psa30 value="0.0047189444" flag="0"/>
    </comp>
    <comp name="--.HHZ">
      <acc value="0.0075184175" flag="0"/>
      <vel value="0.0083244958" flag="0"/>
      <psa03 value="0.0182221492" flag="0"/>
      <psa10 value="0.0095117057" flag="0"/>
      <psa30 value="0.0046469591" flag="0"/>
    </comp>
    <comp name="--.HHN">
      <acc value="0.0074398945" flag="0"/>
      <vel value="0.0091380306" flag="0"/>
      <psa03 value="0.0196310429" flag="0"/>
      <psa10 value="0.0100567499" flag="0"/>
      <psa30 value="0.0041573548" flag="0"/>
    </comp>
  </station>
</stationlist>
