<?xml version="1.0" encoding="UTF-8" standalone="yes"?>
<!DOCTYPE earthquake SYSTEM "stationlist.dtd">
<stationlist created="" xmlns="ch.ethz.sed.shakemap.usgs.xml">
  <station code="MYT1" name="MYT1" netid="HI" insttype="CMG-5TD,ACCELEROMETER,GURALP" lat="39.085" lon="26.5694">
    <comp name="--.HNZ">
      <acc value="0.0376090352" flag="0"/>
      <vel value="0.0143636918" flag="0"/>
      <psa03 value="0.0541012759" flag="0"/>
      <psa10 value="0.0105890511" flag="0"/>
      <psa30 value="0.0008169611" flag="0"/>
    </comp>
    <comp name="--.HNE">
      <acc value="0.0590491806" flag="0"/>
      <vel value="0.0240918581" flag="0"/>
      <psa03 value="0.1299590865" flag="0"/>
      <psa10 value="0.0163358721" flag="0"/>
      <psa30 value="0.0013074601" flag="0"/>
    </comp>
    <comp name="--.HNN">
      <acc value="0.0347387283" flag="0"/>
      <vel value="0.0160181541" flag="0"/>
      <psa03 value="0.0710946867" flag="0"/>
      <psa10 value="0.0196368190" flag="0"/>
      <psa30 value="0.0016437094" flag="0"/>
    </comp>
  </station>
  <station code="PRK" name="PRK" netid="HL" insttype="120" lat="39.2456" lon="26.265">
    <comp name="--.HHN">
      <acc value="0.0279717904" flag="0"/>
      <vel value="0.0133510103" flag="0"/>
      <psa03 value="0.0883304467" flag="0"/>
      <psa10 value="0.0133248508" flag="0"/>
      <psa30 value="0.0007849600" flag="0"/>
    </comp>
    <comp name="--.HHZ">
      <acc value="0.0348314555" flag="0"/>
      <vel value="0.0091347610" flag="0"/>
      <psa03 value="0.0438814055" flag="0"/>
      <psa10 value="0.0051281598" flag="0"/>
      <psa30 value="0.0004602047" flag="0"/>
    </comp>
    <comp name="--.HHE">
      <acc value="0.0304329871" flag="0"/>
      <vel value="0.0115724267" flag="0"/>
      <psa03 value="0.0685407592" flag="0"/>
      <psa10 value="0.0115559607" flag="0"/>
      <psa30 value="0.0005949626" flag="0"/>
    </comp>
  </station>
  <station code="CHOS" name="CHOS" netid="HT" insttype="100" lat="38.3869" lon="26.0506">
    <comp name="--.HHN">
      <acc value="0.1122321946" flag="0"/>
      <vel value="0.0381375082" flag="0"/>
      <psa03 value="0.3013674381" flag="0"/>
      <psa10 value="0.0183674179" flag="0"/>
      <psa30 value="0.0019616534" flag="0"/>
    </comp>
    <comp name="--.HHZ">
      <acc value="0.0455084530" flag="0"/>
      <vel value="0.0157084162" flag="0"/>
      <psa03 value="0.1785267873" flag="0"/>
      <psa10 value="0.0065471280" flag="0"/>
      <psa30 value="0.0008482735" flag="0"/>
    </comp>
    <comp name="--.HHE">
      <acc value="0.1351923366" flag="0"/>
      <vel value="0.0460836187" flag="0"/>
      <psa03 value="0.3978611006" flag="0"/>
      <psa10 value="0.0157621917" flag="0"/>
      <psa30 value="0.0014567187" flag="0"/>
    </comp>
  </station>
  <station code="LES3" name="LES3" netid="HT" insttype="" lat="39.3032" lon="26.1807">
    <comp name="--.HHE">
      <acc value="0.0645415380" flag="0"/>
      <vel value="0.0271263657" flag="0"/>
      <psa03 value="0.1446180253" flag="0"/>
      <psa10 value="0.0062320963" flag="0"/>
      <psa30 value="0.0005234287" flag="0"/>
    </comp>
    <comp name="--.HHZ">
      <acc value="0.0296392653" flag="0"/>
      <vel value="0.0107492044" flag="0"/>
      <psa03 value="0.0598469887" flag="0"/>
      <psa10 value="0.0028722697" flag="0"/>
      <psa30 value="0.0003177006" flag="0"/>
    </comp>
    <comp name="--.HHN">
      <acc value="0.0527566713" flag="0"/>
      <vel value="0.0196067059" flag="0"/>
      <psa03 value="0.1052718708" flag="0"/>
      <psa10 value="0.0081468327" flag="0"/>
      <psa30 value="0.0007245643" flag="0"/>
    </comp>
  </station>
  <station code="BALB" name="BALB" netid="KO" insttype="CMG-5T" lat="39.6507" lon="27.8642">
    <comp name="--.HNE">
      <acc value="0.0236241361" flag="0"/>
      <vel value="0.0126214680" flag="0"/>
      <psa03 value="0.0647924440" flag="0"/>
      <psa10 value="0.0081118976" flag="0"/>
      <psa30 value="0.0012952759" flag="0"/>
    </comp>
    <comp name="--.HNN">
      <acc value="0.0231400396" flag="0"/>
      <vel value="0.0132968401" flag="0"/>
      <psa03 value="0.0665667057" flag="0"/>
      <psa10 value="0.0146497677" flag="0"/>
      <psa30 value="0.0012830780" flag="0"/>
    </comp>
    <comp name="--.HNZ">
      <acc value="0.0148108561" flag="0"/>
      <vel value="0.0057321320" flag="0"/>
      <psa03 value="0.0351559523" flag="0"/>
      <psa10 value="0.0097355088" flag="0"/>
      <psa30 value="0.0012041770" flag="0"/>
    </comp>
  </station>
  <station code="BLCB" name="BLCB" netid="KO" insttype="CMG-3T" lat="38.3853" lon="27.042">
    <comp name="--.HHE">
      <acc value="0.2484313033" flag="0"/>
      <vel value="0.0858219643" flag="0"/>
      <psa03 value="0.8348128971" flag="0"/>
      <psa10 value="0.0155899946" flag="0"/>
      <psa30 value="0.0018529909" flag="0"/>
    </comp>
    <comp name="--.HHN">
      <acc value="0.0001207101" flag="0"/>
      <vel value="0.0000326160" flag="0"/>
      <psa03 value="0.0002814593" flag="0"/>
      <psa10 value="0.0000063734" flag="0"/>
      <psa30 value="0.0000013276" flag="0"/>
    </comp>
    <comp name="--.HHZ">
      <acc value="0.0876258741" flag="0"/>
      <vel value="0.0341973302" flag="0"/>
      <psa03 value="0.2973790665" flag="0"/>
      <psa10 value="0.0064688785" flag="0"/>
      <psa30 value="0.0007926876" flag="0"/>
    </comp>
  </station>
  <station code="BMYO" name="BMYO" netid="KO" insttype="CMG-5T" lat="39.8098" lon="26.6009">
    <comp name="--.HNE">
      <acc value="0.0592453857" flag="0"/>
      <vel value="0.0281540040" flag="0"/>
      <psa03 value="0.2066272378" flag="0"/>
      <psa10 value="0.0252228351" flag="0"/>
      <psa30 value="0.0043356335" flag="0"/>
    </comp>
    <comp name="--.HNN">
      <acc value="0.0613268828" flag="0"/>
      <vel value="0.0327483279" flag="0"/>
      <psa03 value="0.1947868982" flag="0"/>
      <psa10 value="0.0491012942" flag="0"/>
      <psa30 value="0.0027563481" flag="0"/>
    </comp>
    <comp name="--.HNZ">
      <acc value="0.0251314412" flag="0"/>
      <vel value="0.0227197419" flag="0"/>
      <psa03 value="0.0853789552" flag="0"/>
      <psa10 value="0.0543364303" flag="0"/>
      <psa30 value="0.0032441334" flag="0"/>
    </comp>
  </station>
  <station code="CANM" name="CANM" netid="KO" insttype="CMG-5T" lat="40.0113" lon="27.0529">
    <comp name="--.HNE">
      <acc value="0.0477191610" flag="0"/>
      <vel value="0.0224935997" flag="0"/>
      <psa03 value="0.1329864277" flag="0"/>
      <psa10 value="0.0237499702" flag="0"/>
      <psa30 value="0.0016656107" flag="0"/>
    </comp>
    <comp name="--.HNN">
      <acc value="0.0701811426" flag="0"/>
      <vel value="0.0292952287" flag="0"/>
      <psa03 value="0.1757673244" flag="0"/>
      <psa10 value="0.0473260189" flag="0"/>
      <psa30 value="0.0019959845" flag="0"/>
    </comp>
    <comp name="--.HNZ">
      <acc value="0.0441231874" flag="0"/>
      <vel value="0.0216181234" flag="0"/>
      <psa03 value="0.1466924145" flag="0"/>
      <psa10 value="0.0124905832" flag="0"/>
      <psa30 value="0.0018995032" flag="0"/>
    </comp>
  </station>
  <station code="DKL" name="DKL" netid="KO" insttype="CMG-3ESPC" lat="39.0713" lon="26.9053">
    <comp name="--.HHZ">
      <acc value="0.1789744078" flag="0"/>
      <vel value="0.0571021740" flag="0"/>
      <psa03 value="0.2533164661" flag="0"/>
      <psa10 value="0.0423982281" flag="0"/>
      <psa30 value="0.0018338017" flag="0"/>
    </comp>
    <comp name="--.HHN">
      <acc value="0.2098687598" flag="0"/>
      <vel value="0.0570855126" flag="0"/>
      <psa03 value="0.1935038770" flag="0"/>
      <psa10 value="0.0627420957" flag="0"/>
      <psa30 value="0.0040476655" flag="0"/>
    </comp>
    <comp name="--.HHE">
      <acc value="0.2038655092" flag="0"/>
      <vel value="0.0713740470" flag="0"/>
      <psa03 value="0.3192632855" flag="0"/>
      <psa10 value="0.0579904761" flag="0"/>
      <psa30 value="0.0053030703" flag="0"/>
    </comp>
  </station>
  <station code="EZN" name="EZN" netid="KO" insttype="CMG-3ESP" lat="39.8255" lon="26.3246">
    <comp name="--.HHZ">
      <acc value="0.0139424441" flag="0"/>
      <vel value="0.0060913261" flag="0"/>
      <psa03 value="0.0335951387" flag="0"/>
      <psa10 value="0.0067730198" flag="0"/>
      <psa30 value="0.0006060127" flag="0"/>
    </comp>
    <comp name="--.HHE">
      <acc value="0.0361212122" flag="0"/>
      <vel value="0.0097178847" flag="0"/>
      <psa03 value="0.0470527693" flag="0"/>
      <psa10 value="0.0146057253" flag="0"/>
      <psa30 value="0.0009899626" flag="0"/>
    </comp>
    <comp name="--.HHN">
      <acc value="0.0251501396" flag="0"/>
      <vel value="0.0106589437" flag="0"/>
      <psa03 value="0.0522168825" flag="0"/>
      <psa10 value="0.0062454382" flag="0"/>
      <psa30 value="0.0012299390" flag="0"/>
    </comp>
  </station>
  <station code="EZNE" name="EZNE" netid="KO" insttype="CMG-5T" lat="39.756" lon="26.3655">
    <comp name="--.HNZ">
      <acc value="0.0251122239" flag="0"/>
      <vel value="0.0107508420" flag="0"/>
      <psa03 value="0.0533598953" flag="0"/>
      <psa10 value="0.0086880512" flag="0"/>
      <psa30 value="0.0009217055" flag="0"/>
    </comp>
    <comp name="--.HNN">
      <acc value="0.0443064114" flag="0"/>
      <vel value="0.0155031733" flag="0"/>
      <psa03 value="0.0938660855" flag="0"/>
      <psa10 value="0.0177111892" flag="0"/>
      <psa30 value="0.0014027489" flag="0"/>
    </comp>
    <comp name="--.HNE">
      <acc value="0.0373255122" flag="0"/>
      <vel value="0.0129037142" flag="0"/>
      <psa03 value="0.0540535493" flag="0"/>
      <psa10 value="0.0150223398" flag="0"/>
      <psa30 value="0.0010528302" flag="0"/>
    </comp>
  </station>
  <station code="FOCM" name="FOCM" netid="KO" insttype="CMG-5T" lat="38.7131" lon="26.7309">
    <comp name="--.HNE">
      <acc value="0.6064681096" flag="0"/>
      <vel value="0.1050404651" flag="0"/>
      <psa03 value="0.7668811769" flag="0"/>
      <psa10 value="0.0479997815" flag="0"/>
      <psa30 value="0.0035173997" flag="0"/>
    </comp>
    <comp name="--.HNN">
      <acc value="0.7122464624" flag="0"/>
      <vel value="0.1856748005" flag="0"/>
      <psa03 value="0.6422763613" flag="0"/>
      <psa10 value="0.0545025872" flag="0"/>
      <psa30 value="0.0050442490" flag="0"/>
    </comp>
    <comp name="--.HNZ">
      <acc value="0.4335055338" flag="0"/>
      <vel value="0.1087711333" flag="0"/>
      <psa03 value="0.2705626573" flag="0"/>
      <psa10 value="0.0379647026" flag="0"/>
      <psa30 value="0.0041959117" flag="0"/>
    </comp>
  </station>
  <station code="GORD" name="GORD" netid="KO" insttype="CMG-5T" lat="38.9088" lon="28.1769">
    <comp name="--.HNN">
      <acc value="0.0090039574" flag="0"/>
      <vel value="0.0076182041" flag="0"/>
      <psa03 value="0.0217203176" flag="0"/>
      <psa10 value="0.0084792502" flag="0"/>
      <psa30 value="0.0015445441" flag="0"/>
    </comp>
    <comp name="--.HNZ">
      <acc value="0.0061663576" flag="0"/>
      <vel value="0.0059290051" flag="0"/>
      <psa03 value="0.0115710771" flag="0"/>
      <psa10 value="0.0080640298" flag="0"/>
      <psa30 value="0.0011834150" flag="0"/>
    </comp>
    <comp name="--.HNE">
      <acc value="0.0125323205" flag="0"/>
      <vel value="0.0106794552" flag="0"/>
      <psa03 value="0.0296383102" flag="0"/>
      <psa10 value="0.0223086252" flag="0"/>
      <psa30 value="0.0010917387" flag="0"/>
    </comp>
  </station>
  <station code="KRBN" name="KRBN" netid="KO" insttype="CMG-5T" lat="38.5936" lon="26.5537">
    <comp name="--.HNE">
      <acc value="0.2162690111" flag="0"/>
      <vel value="0.0722330947" flag="0"/>
      <psa03 value="0.7343605431" flag="0"/>
      <psa10 value="0.0458928245" flag="0"/>
      <psa30 value="0.0030803012" flag="0"/>
    </comp>
    <comp name="--.HNN">
      <acc value="0.2740934854" flag="0"/>
      <vel value="0.1006195364" flag="0"/>
      <psa03 value="0.5438611691" flag="0"/>
      <psa10 value="0.0265542554" flag="0"/>
      <psa30 value="0.0032262419" flag="0"/>
    </comp>
    <comp name="--.HNZ">
      <acc value="0.1781137015" flag="0"/>
      <vel value="0.0297430431" flag="0"/>
      <psa03 value="0.1600531594" flag="0"/>
      <psa10 value="0.0218434822" flag="0"/>
      <psa30 value="0.0023328680" flag="0"/>
    </comp>
  </station>
  <station code="SOMA" name="SOMA" netid="KO" insttype="CMG-5T" lat="39.1564" lon="27.5341">
    <comp name="--.HNZ">
      <acc value="0.0376630710" flag="0"/>
      <vel value="0.0119975943" flag="0"/>
      <psa03 value="0.0389821685" flag="0"/>
      <psa10 value="0.0082960224" flag="0"/>
      <psa30 value="0.0006514337" flag="0"/>
    </comp>
    <comp name="--.HNE">
      <acc value="0.0616144907" flag="0"/>
      <vel value="0.0224213274" flag="0"/>
      <psa03 value="0.1073116045" flag="0"/>
      <psa10 value="0.0131599632" flag="0"/>
      <psa30 value="0.0009837911" flag="0"/>
    </comp>
    <comp name="--.HNN">
      <acc value="0.0507782816" flag="0"/>
      <vel value="0.0131253181" flag="0"/>
      <psa03 value="0.0676481711" flag="0"/>
      <psa10 value="0.0192348932" flag="0"/>
      <psa30 value="0.0011942520" flag="0"/>
    </comp>
  </station>
  <station code="YAYO" name="YAYO" netid="KO" insttype="CMG-6T" lat="39.6113" lon="27.0726">
    <comp name="--.HHE">
      <acc value="0.0562875908" flag="0"/>
      <vel value="0.0320063406" flag="0"/>
      <psa03 value="0.1611793982" flag="0"/>
      <psa10 value="0.0332206537" flag="0"/>
      <psa30 value="0.0026570417" flag="0"/>
    </comp>
    <comp name="--.HHN">
      <acc value="0.0520588505" flag="0"/>
      <vel value="0.0327057063" flag="0"/>
      <psa03 value="0.1534480755" flag="0"/>
      <psa10 value="0.0347173488" flag="0"/>
      <psa30 value="0.0023010059" flag="0"/>
    </comp>
    <comp name="--.HHZ">
      <acc value="0.0478789913" flag="0"/>
      <vel value="0.0154023233" flag="0"/>
      <psa03 value="0.0636471252" flag="0"/>
      <psa10 value="0.0154901615" flag="0"/>
      <psa30 value="0.0008735390" flag="0"/>
    </comp>
  </station>
  <station code="YENI" name="YENI" netid="KO" insttype="CMG-5T" lat="39.9364" lon="27.2422">
    <comp name="--.HNE">
      <acc value="0.0674710304" flag="0"/>
      <vel value="0.0361033199" flag="0"/>
      <psa03 value="0.1700386659" flag="0"/>
      <psa10 value="0.0525586789" flag="0"/>
      <psa30 value="0.0026102965" flag="0"/>
    </comp>
    <comp name="--.HNN">
      <acc value="0.0766751088" flag="0"/>
      <vel value="0.0286821797" flag="0"/>
      <psa03 value="0.1128775449" flag="0"/>
      <psa10 value="0.0225136652" flag="0"/>
      <psa30 value="0.0019721762" flag="0"/>
    </comp>
    <comp name="--.HNZ">
      <acc value="0.0282829019" flag="0"/>
      <vel value="0.0106556514" flag="0"/>
      <psa03 value="0.0525428019" flag="0"/>
      <psa10 value="0.0110520007" flag="0"/>
      <psa30 value="0.0011956236" flag="0"/>
    </comp>
  </station>
</stationlist>
