<?xml version="1.0" encoding="UTF-8" standalone="yes"?>
<!DOCTYPE earthquake SYSTEM "stationlist.dtd">
<stationlist created="" xmlns="ch.ethz.sed.shakemap.usgs.xml">
  <station code="MYT1" name="MYT1" netid="HI" insttype="CMG-5TD,ACCELEROMETER,GURALP" lat="39.085" lon="26.5694">
    <comp name="--.HNN">
      <acc value="0.0347387284" flag="0"/>
      <vel value="0.0160181545" flag="0"/>
      <psa03 value="0.0710946867" flag="0"/>
      <psa10 value="0.0196368190" flag="0"/>
      <psa30 value="0.0016438150" flag="0"/>
    </comp>
    <comp name="--.HNZ">
      <acc value="0.0376090355" flag="0"/>
      <vel value="0.0143636900" flag="0"/>
      <psa03 value="0.0541012759" flag="0"/>
      <psa10 value="0.0105890524" flag="0"/>
      <psa30 value="0.0008169387" flag="0"/>
    </comp>
    <comp name="--.HNE">
      <acc value="0.0590491800" flag="0"/>
      <vel value="0.0240918575" flag="0"/>
      <psa03 value="0.1299590865" flag="0"/>
      <psa10 value="0.0163358726" flag="0"/>
      <psa30 value="0.0013069870" flag="0"/>
    </comp>
  </station>
  <station code="PRK" name="PRK" netid="HL" insttype="120" lat="39.2456" lon="26.265">
    <comp name="--.HHZ">
      <acc value="0.0348314555" flag="0"/>
      <vel value="0.0091347613" flag="0"/>
      <psa03 value="0.0438814055" flag="0"/>
      <psa10 value="0.0051281596" flag="0"/>
      <psa30 value="0.0004601967" flag="0"/>
    </comp>
    <comp name="--.HHN">
      <acc value="0.0279717904" flag="0"/>
      <vel value="0.0133510095" flag="0"/>
      <psa03 value="0.0883304467" flag="0"/>
      <psa10 value="0.0133248508" flag="0"/>
      <psa30 value="0.0007849577" flag="0"/>
    </comp>
    <comp name="--.HHE">
      <acc value="0.0304329871" flag="0"/>
      <vel value="0.0115724281" flag="0"/>
      <psa03 value="0.0685407592" flag="0"/>
      <psa10 value="0.0115559607" flag="0"/>
      <psa30 value="0.0005949751" flag="0"/>
    </comp>
  </station>
  <station code="CHOS" name="CHOS" netid="HT" insttype="100" lat="38.3869" lon="26.0506">
    <comp name="--.HHN">
      <acc value="0.1122321947" flag="0"/>
      <vel value="0.0381375080" flag="0"/>
      <psa03 value="0.3013674381" flag="0"/>
      <psa10 value="0.0183674177" flag="0"/>
      <psa30 value="0.0019612533" flag="0"/>
    </comp>
    <comp name="--.HHZ">
      <acc value="0.0455084530" flag="0"/>
      <vel value="0.0157084140" flag="0"/>
      <psa03 value="0.1785267873" flag="0"/>
      <psa10 value="0.0065471277" flag="0"/>
      <psa30 value="0.0008480999" flag="0"/>
    </comp>
    <comp name="--.HHE">
      <acc value="0.1351923370" flag="0"/>
      <vel value="0.0460836196" flag="0"/>
      <psa03 value="0.3978611006" flag="0"/>
      <psa10 value="0.0157621924" flag="0"/>
      <psa30 value="0.0014562712" flag="0"/>
    </comp>
  </station>
  <station code="LES3" name="LES3" netid="HT" insttype="" lat="39.3032" lon="26.1807">
    <comp name="--.HHZ">
      <acc value="0.0296392655" flag="0"/>
      <vel value="0.0107486348" flag="0"/>
      <psa03 value="0.0598469887" flag="0"/>
      <psa10 value="0.0028722696" flag="0"/>
      <psa30 value="0.0003176984" flag="0"/>
    </comp>
    <comp name="--.HHN">
      <acc value="0.0527566718" flag="0"/>
      <vel value="0.0196073134" flag="0"/>
      <psa03 value="0.1052718710" flag="0"/>
      <psa10 value="0.0081468327" flag="0"/>
      <psa30 value="0.0007244996" flag="0"/>
    </comp>
    <comp name="--.HHE">
      <acc value="0.0645415386" flag="0"/>
      <vel value="0.0271275304" flag="0"/>
      <psa03 value="0.1446180253" flag="0"/>
      <psa10 value="0.0062320965" flag="0"/>
      <psa30 value="0.0005234390" flag="0"/>
    </comp>
  </station>
  <station code="BALB" name="BALB" netid="KO" insttype="CMG-5T" lat="39.6507" lon="27.8642">
    <comp name="--.HNN">
      <acc value="0.0231400402" flag="0"/>
      <vel value="0.0132968399" flag="0"/>
      <psa03 value="0.0665667057" flag="0"/>
      <psa10 value="0.0146497677" flag="0"/>
      <psa30 value="0.0012831300" flag="0"/>
    </comp>
    <comp name="--.HNZ">
      <acc value="0.0148108558" flag="0"/>
      <vel value="0.0057321324" flag="0"/>
      <psa03 value="0.0351559523" flag="0"/>
      <psa10 value="0.0097355088" flag="0"/>
      <psa30 value="0.0012041755" flag="0"/>
    </comp>
    <comp name="--.HNE">
      <acc value="0.0236241380" flag="0"/>
      <vel value="0.0126214697" flag="0"/>
      <psa03 value="0.0647924440" flag="0"/>
      <psa10 value="0.0081118977" flag="0"/>
      <psa30 value="0.0012952953" flag="0"/>
    </comp>
  </station>
  <station code="BLCB" name="BLCB" netid="KO" insttype="CMG-3T" lat="38.3853" lon="27.042">
    <comp name="--.HHE">
      <acc value="0.2484313033" flag="0"/>
      <vel value="0.0858219642" flag="0"/>
      <psa03 value="0.8348128971" flag="0"/>
      <psa10 value="0.0155899954" flag="0"/>
      <psa30 value="0.0018530706" flag="0"/>
    </comp>
    <comp name="--.HHN">
      <acc value="0.0001207103" flag="0"/>
      <vel value="0.0000326160" flag="0"/>
      <psa03 value="0.0002814593" flag="0"/>
      <psa10 value="0.0000063735" flag="0"/>
      <psa30 value="0.0000013298" flag="0"/>
    </comp>
    <comp name="--.HHZ">
      <acc value="0.0876258742" flag="0"/>
      <vel value="0.0341973303" flag="0"/>
      <psa03 value="0.2973790665" flag="0"/>
      <psa10 value="0.0064688823" flag="0"/>
      <psa30 value="0.0007926955" flag="0"/>
    </comp>
  </station>
  <station code="BMYO" name="BMYO" netid="KO" insttype="CMG-5T" lat="39.8098" lon="26.6009">
    <comp name="--.HNE">
      <acc value="0.0592453898" flag="0"/>
      <vel value="0.0281540154" flag="0"/>
      <psa03 value="0.2066272378" flag="0"/>
      <psa10 value="0.0252228351" flag="0"/>
      <psa30 value="0.0043350122" flag="0"/>
    </comp>
    <comp name="--.HNN">
      <acc value="0.0613268848" flag="0"/>
      <vel value="0.0327483330" flag="0"/>
      <psa03 value="0.1947868982" flag="0"/>
      <psa10 value="0.0491012942" flag="0"/>
      <psa30 value="0.0027572995" flag="0"/>
    </comp>
    <comp name="--.HNZ">
      <acc value="0.0251314317" flag="0"/>
      <vel value="0.0227197537" flag="0"/>
      <psa03 value="0.0853789552" flag="0"/>
      <psa10 value="0.0543364303" flag="0"/>
      <psa30 value="0.0032445453" flag="0"/>
    </comp>
  </station>
  <station code="DKL" name="DKL" netid="KO" insttype="CMG-3ESPC" lat="39.0713" lon="26.9053">
    <comp name="--.HHE">
      <acc value="0.2038655093" flag="0"/>
      <vel value="0.0713740455" flag="0"/>
      <psa03 value="0.3192632855" flag="0"/>
      <psa10 value="0.0579904927" flag="0"/>
      <psa30 value="0.0053028836" flag="0"/>
    </comp>
    <comp name="--.HHZ">
      <acc value="0.1789744076" flag="0"/>
      <vel value="0.0571021735" flag="0"/>
      <psa03 value="0.2533164661" flag="0"/>
      <psa10 value="0.0423982317" flag="0"/>
      <psa30 value="0.0018335578" flag="0"/>
    </comp>
    <comp name="--.HHN">
      <acc value="0.2098687596" flag="0"/>
      <vel value="0.0570855111" flag="0"/>
      <psa03 value="0.1935038770" flag="0"/>
      <psa10 value="0.0627420973" flag="0"/>
      <psa30 value="0.0040475998" flag="0"/>
    </comp>
  </station>
  <station code="EZN" name="EZN" netid="KO" insttype="CMG-3ESP" lat="39.8255" lon="26.3246">
    <comp name="--.HHZ">
      <acc value="0.0139424439" flag="0"/>
      <vel value="0.0060913270" flag="0"/>
      <psa03 value="0.0335951387" flag="0"/>
      <psa10 value="0.0067730198" flag="0"/>
      <psa30 value="0.0006061238" flag="0"/>
    </comp>
    <comp name="--.HHN">
      <acc value="0.0251501395" flag="0"/>
      <vel value="0.0106589477" flag="0"/>
      <psa03 value="0.0522168825" flag="0"/>
      <psa10 value="0.0062454382" flag="0"/>
      <psa30 value="0.0012299162" flag="0"/>
    </comp>
    <comp name="--.HHE">
      <acc value="0.0361212121" flag="0"/>
      <vel value="0.0097178835" flag="0"/>
      <psa03 value="0.0470527693" flag="0"/>
      <psa10 value="0.0146057253" flag="0"/>
      <psa30 value="0.0009900198" flag="0"/>
    </comp>
  </station>
  <station code="EZNE" name="EZNE" netid="KO" insttype="CMG-5T" lat="39.756" lon="26.3655">
    <comp name="--.HNN">
      <acc value="0.0443064115" flag="0"/>
      <vel value="0.0155031757" flag="0"/>
      <psa03 value="0.0938660855" flag="0"/>
      <psa10 value="0.0177111891" flag="0"/>
      <psa30 value="0.0014026375" flag="0"/>
    </comp>
    <comp name="--.HNE">
      <acc value="0.0373255097" flag="0"/>
      <vel value="0.0129037206" flag="0"/>
      <psa03 value="0.0540535493" flag="0"/>
      <psa10 value="0.0150223401" flag="0"/>
      <psa30 value="0.0010533496" flag="0"/>
    </comp>
    <comp name="--.HNZ">
      <acc value="0.0251122322" flag="0"/>
      <vel value="0.0107508491" flag="0"/>
      <psa03 value="0.0533598953" flag="0"/>
      <psa10 value="0.0086880513" flag="0"/>
      <psa30 value="0.0009211160" flag="0"/>
    </comp>
  </station>
  <station code="FOCM" name="FOCM" netid="KO" insttype="CMG-5T" lat="38.7131" lon="26.7309">
    <comp name="--.HNN">
      <acc value="0.7122465153" flag="0"/>
      <vel value="0.1856748162" flag="0"/>
      <psa03 value="0.6422763613" flag="0"/>
      <psa10 value="0.0545024110" flag="0"/>
      <psa30 value="0.0050534004" flag="0"/>
    </comp>
    <comp name="--.HNE">
      <acc value="0.6064681009" flag="0"/>
      <vel value="0.1050404456" flag="0"/>
      <psa03 value="0.7668811769" flag="0"/>
      <psa10 value="0.0479996515" flag="0"/>
      <psa30 value="0.0035102841" flag="0"/>
    </comp>
    <comp name="--.HNZ">
      <acc value="0.4335055293" flag="0"/>
      <vel value="0.1087711231" flag="0"/>
      <psa03 value="0.2705626572" flag="0"/>
      <psa10 value="0.0379647445" flag="0"/>
      <psa30 value="0.0041858113" flag="0"/>
    </comp>
  </station>
  <station code="GMLD" name="GMLD" netid="KO" insttype="CMG-5T" lat="38.0766" lon="26.9157">
    <comp name="--.HNN">
      <acc value="0.2252598344" flag="0"/>
      <vel value="0.1080705177" flag="0"/>
      <psa03 value="0.3019944621" flag="0"/>
      <psa10 value="0.0424382913" flag="0"/>
      <psa30 value="0.0034456539" flag="0"/>
    </comp>
    <comp name="--.HNE">
      <acc value="0.2989500186" flag="0"/>
      <vel value="0.1326646438" flag="0"/>
      <psa03 value="0.4684490134" flag="0"/>
      <psa10 value="0.0657514317" flag="0"/>
      <psa30 value="0.0052362271" flag="0"/>
    </comp>
    <comp name="--.HNZ">
      <acc value="0.1259135295" flag="0"/>
      <vel value="0.0523797740" flag="0"/>
      <psa03 value="0.2810922539" flag="0"/>
      <psa10 value="0.0216472210" flag="0"/>
      <psa30 value="0.0016190514" flag="0"/>
    </comp>
  </station>
  <station code="GORD" name="GORD" netid="KO" insttype="CMG-5T" lat="38.9088" lon="28.1769">
    <comp name="--.HNN">
      <acc value="0.0090039582" flag="0"/>
      <vel value="0.0076182044" flag="0"/>
      <psa03 value="0.0217203176" flag="0"/>
      <psa10 value="0.0084792502" flag="0"/>
      <psa30 value="0.0015445475" flag="0"/>
    </comp>
    <comp name="--.HNE">
      <acc value="0.0125323212" flag="0"/>
      <vel value="0.0106794561" flag="0"/>
      <psa03 value="0.0296383102" flag="0"/>
      <psa10 value="0.0223086252" flag="0"/>
      <psa30 value="0.0010917775" flag="0"/>
    </comp>
    <comp name="--.HNZ">
      <acc value="0.0061663570" flag="0"/>
      <vel value="0.0059290096" flag="0"/>
      <psa03 value="0.0115710771" flag="0"/>
      <psa10 value="0.0080640300" flag="0"/>
      <psa30 value="0.0011836147" flag="0"/>
    </comp>
  </station>
  <station code="KRBN" name="KRBN" netid="KO" insttype="CMG-5T" lat="38.5936" lon="26.5537">
    <comp name="--.HNN">
      <acc value="0.2740934803" flag="0"/>
      <vel value="0.1006195354" flag="0"/>
      <psa03 value="0.5438611691" flag="0"/>
      <psa10 value="0.0265543157" flag="0"/>
      <psa30 value="0.0032272226" flag="0"/>
    </comp>
    <comp name="--.HNZ">
      <acc value="0.1781137349" flag="0"/>
      <vel value="0.0297430425" flag="0"/>
      <psa03 value="0.1600531594" flag="0"/>
      <psa10 value="0.0218434618" flag="0"/>
      <psa30 value="0.0023292127" flag="0"/>
    </comp>
    <comp name="--.HNE">
      <acc value="0.2162690754" flag="0"/>
      <vel value="0.0722330852" flag="0"/>
      <psa03 value="0.7343605431" flag="0"/>
      <psa10 value="0.0458928705" flag="0"/>
      <psa30 value="0.0030875955" flag="0"/>
    </comp>
  </station>
  <station code="SOMA" name="SOMA" netid="KO" insttype="CMG-5T" lat="39.1564" lon="27.5341">
    <comp name="--.HNZ">
      <acc value="0.0376630709" flag="0"/>
      <vel value="0.0119975949" flag="0"/>
      <psa03 value="0.0389821685" flag="0"/>
      <psa10 value="0.0082960224" flag="0"/>
      <psa30 value="0.0006515085" flag="0"/>
    </comp>
    <comp name="--.HNE">
      <acc value="0.0616144904" flag="0"/>
      <vel value="0.0224213275" flag="0"/>
      <psa03 value="0.1073116045" flag="0"/>
      <psa10 value="0.0131599631" flag="0"/>
      <psa30 value="0.0009837524" flag="0"/>
    </comp>
    <comp name="--.HNN">
      <acc value="0.0507782816" flag="0"/>
      <vel value="0.0131253179" flag="0"/>
      <psa03 value="0.0676481711" flag="0"/>
      <psa10 value="0.0192348932" flag="0"/>
      <psa30 value="0.0011943668" flag="0"/>
    </comp>
  </station>
  <station code="YAYO" name="YAYO" netid="KO" insttype="CMG-6T" lat="39.6113" lon="27.0726">
    <comp name="--.HHZ">
      <acc value="0.0478789911" flag="0"/>
      <vel value="0.0154023231" flag="0"/>
      <psa03 value="0.0636471252" flag="0"/>
      <psa10 value="0.0154901615" flag="0"/>
      <psa30 value="0.0008734307" flag="0"/>
    </comp>
    <comp name="--.HHN">
      <acc value="0.0520588497" flag="0"/>
      <vel value="0.0327057069" flag="0"/>
      <psa03 value="0.1534480755" flag="0"/>
      <psa10 value="0.0347173491" flag="0"/>
      <psa30 value="0.0023010813" flag="0"/>
    </comp>
    <comp name="--.HHE">
      <acc value="0.0562875895" flag="0"/>
      <vel value="0.0320063379" flag="0"/>
      <psa03 value="0.1611793982" flag="0"/>
      <psa10 value="0.0332206536" flag="0"/>
      <psa30 value="0.0026569834" flag="0"/>
    </comp>
  </station>
  <station code="YENI" name="YENI" netid="KO" insttype="CMG-5T" lat="39.9364" lon="27.2422">
    <comp name="--.HNN">
      <acc value="0.0766751072" flag="0"/>
      <vel value="0.0286821710" flag="0"/>
      <psa03 value="0.1128775449" flag="0"/>
      <psa10 value="0.0225136650" flag="0"/>
      <psa30 value="0.0019722532" flag="0"/>
    </comp>
    <comp name="--.HNE">
      <acc value="0.0674710254" flag="0"/>
      <vel value="0.0361033166" flag="0"/>
      <psa03 value="0.1700386659" flag="0"/>
      <psa10 value="0.0525586790" flag="0"/>
      <psa30 value="0.0026086328" flag="0"/>
    </comp>
    <comp name="--.HNZ">
      <acc value="0.0282829049" flag="0"/>
      <vel value="0.0106556464" flag="0"/>
      <psa03 value="0.0525428020" flag="0"/>
      <psa10 value="0.0110520007" flag="0"/>
      <psa30 value="0.0011947921" flag="0"/>
    </comp>
  </station>
</stationlist>
