<?xml version="1.0" encoding="UTF-8" standalone="yes"?>
<!DOCTYPE earthquake SYSTEM "stationlist.dtd">
<stationlist created="" xmlns="ch.ethz.sed.shakemap.usgs.xml">
  <station code="KOPR" name="KOPR" netid="KO" insttype="120s," lat="39.9917" lon="41.8535">
    <comp name="--.HHZ">
      <acc value="0.0034274755" flag="0"/>
      <vel value="0.0022376361" flag="0"/>
      <psa03 value="0.0100634787" flag="0"/>
      <psa10 value="0.0035418722" flag="0"/>
      <psa30 value="0.0007428749" flag="0"/>
    </comp>
    <comp name="--.HHN">
      <acc value="0.0044586383" flag="0"/>
      <vel value="0.0040486820" flag="0"/>
      <psa03 value="0.0081171362" flag="0"/>
      <psa10 value="0.0051859539" flag="0"/>
      <psa30 value="0.0005820617" flag="0"/>
    </comp>
    <comp name="--.HHE">
      <acc value="0.0035777358" flag="0"/>
      <vel value="0.0033614829" flag="0"/>
      <psa03 value="0.0099356319" flag="0"/>
      <psa10 value="0.0047100703" flag="0"/>
      <psa30 value="0.0010551381" flag="0"/>
    </comp>
  </station>
</stationlist>
