<?xml version="1.0" encoding="UTF-8" standalone="yes"?>
<!DOCTYPE earthquake SYSTEM "stationlist.dtd">
<stationlist created="" xmlns="ch.ethz.sed.shakemap.usgs.xml">
  <station code="APE" name="APE" netid="GE" insttype="STS-2/N" lat="37.0727" lon="25.523">
    <comp name="--.HHE">
      <acc value="0.0192263258" flag="0"/>
      <vel value="0.0044109966" flag="0"/>
      <psa03 value="0.0164067619" flag="0"/>
      <psa10 value="0.0055016377" flag="0"/>
      <psa30 value="0.0003193973" flag="0"/>
    </comp>
    <comp name="--.HHN">
      <acc value="0.0235584177" flag="0"/>
      <vel value="0.0050269909" flag="0"/>
      <psa03 value="0.0156296308" flag="0"/>
      <psa10 value="0.0027843307" flag="0"/>
      <psa30 value="0.0002801369" flag="0"/>
    </comp>
    <comp name="--.HHZ">
      <acc value="0.0108269242" flag="0"/>
      <vel value="0.0029747604" flag="0"/>
      <psa03 value="0.0100711160" flag="0"/>
      <psa10 value="0.0038990303" flag="0"/>
      <psa30 value="0.0002170699" flag="0"/>
    </comp>
  </station>
  <station code="THERA" name="THERA" netid="GE" insttype="STS-2/N" lat="36.367" lon="25.4753">
    <comp name="--.HHN">
      <acc value="0.1078743880" flag="0"/>
      <vel value="0.0298980591" flag="0"/>
      <psa03 value="0.1753516799" flag="0"/>
      <psa10 value="0.0124274840" flag="0"/>
      <psa30 value="0.0035810462" flag="0"/>
    </comp>
    <comp name="--.HHE">
      <acc value="0.1541585161" flag="0"/>
      <vel value="0.0450124770" flag="0"/>
      <psa03 value="0.1991164835" flag="0"/>
      <psa10 value="0.0399515443" flag="0"/>
      <psa30 value="0.0036441258" flag="0"/>
    </comp>
    <comp name="--.HHZ">
      <acc value="0.1544575554" flag="0"/>
      <vel value="0.0340805477" flag="0"/>
      <psa03 value="0.2320962207" flag="0"/>
      <psa10 value="0.0207399239" flag="0"/>
      <psa30 value="0.0023059428" flag="0"/>
    </comp>
  </station>
</stationlist>
