<?xml version="1.0" encoding="UTF-8" standalone="yes"?>
<!DOCTYPE earthquake SYSTEM "stationlist.dtd">
<stationlist created="" xmlns="ch.ethz.sed.shakemap.usgs.xml">
  <station code="AGRB" name="AGRB" netid="KO" insttype="120s," lat="39.5755" lon="42.992">
    <comp name="--.HHE">
      <acc value="0.0098779991" flag="0"/>
      <vel value="0.0044462380" flag="0"/>
      <psa03 value="0.0207169230" flag="0"/>
      <psa10 value="0.0045773678" flag="0"/>
      <psa30 value="0.0003902144" flag="0"/>
    </comp>
    <comp name="--.HHN">
      <acc value="0.0053647272" flag="0"/>
      <vel value="0.0038710593" flag="0"/>
      <psa03 value="0.0175669180" flag="0"/>
      <psa10 value="0.0053748095" flag="0"/>
      <psa30 value="0.0004297360" flag="0"/>
    </comp>
    <comp name="--.HHZ">
      <acc value="0.0041132559" flag="0"/>
      <vel value="0.0024306796" flag="0"/>
      <psa03 value="0.0095111880" flag="0"/>
      <psa10 value="0.0034199909" flag="0"/>
      <psa30 value="0.0002659053" flag="0"/>
    </comp>
  </station>
  <station code="AKDM" name="AKDM" netid="KO" insttype="30s," lat="38.3285" lon="42.98">
    <comp name="--.HHN">
      <acc value="0.0319238366" flag="0"/>
      <vel value="0.0066868376" flag="0"/>
      <psa03 value="0.0238775037" flag="0"/>
      <psa10 value="0.0039655456" flag="0"/>
      <psa30 value="0.0003863086" flag="0"/>
    </comp>
    <comp name="--.HHE">
      <acc value="0.0310689815" flag="0"/>
      <vel value="0.0088988925" flag="0"/>
      <psa03 value="0.0213958169" flag="0"/>
      <psa10 value="0.0040287568" flag="0"/>
      <psa30 value="0.0003902732" flag="0"/>
    </comp>
    <comp name="--.HHZ">
      <acc value="0.0168136880" flag="0"/>
      <vel value="0.0046030896" flag="0"/>
      <psa03 value="0.0115344008" flag="0"/>
      <psa10 value="0.0036564561" flag="0"/>
      <psa30 value="0.0002902506" flag="0"/>
    </comp>
  </station>
  <station code="GURO" name="GURO" netid="KO" insttype="120s," lat="38.5509" lon="42.0322">
    <comp name="--.HHE">
      <acc value="0.1451104378" flag="0"/>
      <vel value="0.0411746410" flag="0"/>
      <psa03 value="0.1301996916" flag="0"/>
      <psa10 value="0.0120036107" flag="0"/>
      <psa30 value="0.0009540206" flag="0"/>
    </comp>
    <comp name="--.HHZ">
      <acc value="0.1789010069" flag="0"/>
      <vel value="0.0297078166" flag="0"/>
      <psa03 value="0.1407553623" flag="0"/>
      <psa10 value="0.0069770071" flag="0"/>
      <psa30 value="0.0010717610" flag="0"/>
    </comp>
    <comp name="--.HHN">
      <acc value="0.2856899839" flag="0"/>
      <vel value="0.0599233570" flag="0"/>
      <psa03 value="0.1576825201" flag="0"/>
      <psa10 value="0.0150585980" flag="0"/>
      <psa30 value="0.0009954455" flag="0"/>
    </comp>
  </station>
  <station code="KARO" name="KARO" netid="KO" insttype="120s," lat="39.3089" lon="41.0493">
    <comp name="--.HHE">
      <acc value="0.0165543312" flag="0"/>
      <vel value="0.0080267556" flag="0"/>
      <psa03 value="0.0457296141" flag="0"/>
      <psa10 value="0.0093866875" flag="0"/>
      <psa30 value="0.0008667229" flag="0"/>
    </comp>
    <comp name="--.HHZ">
      <acc value="0.0088055446" flag="0"/>
      <vel value="0.0039317236" flag="0"/>
      <psa03 value="0.0317286223" flag="0"/>
      <psa10 value="0.0029816303" flag="0"/>
      <psa30 value="0.0003023521" flag="0"/>
    </comp>
    <comp name="--.HHN">
      <acc value="0.0140526741" flag="0"/>
      <vel value="0.0102754732" flag="0"/>
      <psa03 value="0.0382513476" flag="0"/>
      <psa10 value="0.0072879171" flag="0"/>
      <psa30 value="0.0005381584" flag="0"/>
    </comp>
  </station>
  <station code="VANB" name="VANB" netid="KO" insttype="360s," lat="38.509" lon="43.4058">
    <comp name="--.HHZ">
      <acc value="0.0032327893" flag="0"/>
      <vel value="0.0015494535" flag="0"/>
      <psa03 value="0.0063147009" flag="0"/>
      <psa10 value="0.0034263179" flag="0"/>
      <psa30 value="0.0002206832" flag="0"/>
    </comp>
    <comp name="--.HHE">
      <acc value="0.0030149058" flag="0"/>
      <vel value="0.0026071898" flag="0"/>
      <psa03 value="0.0093615852" flag="0"/>
      <psa10 value="0.0042586050" flag="0"/>
      <psa30 value="0.0003059248" flag="0"/>
    </comp>
    <comp name="--.HHN">
      <acc value="0.0034969907" flag="0"/>
      <vel value="0.0031947640" flag="0"/>
      <psa03 value="0.0084994484" flag="0"/>
      <psa10 value="0.0038166714" flag="0"/>
      <psa30 value="0.0003414781" flag="0"/>
    </comp>
  </station>
</stationlist>
