<?xml version="1.0" encoding="UTF-8" standalone="yes"?>
<!DOCTYPE earthquake SYSTEM "stationlist.dtd">
<stationlist created="" xmlns="ch.ethz.sed.shakemap.usgs.xml">
  <station code="RDI1" name="RDI1" netid="HI" insttype="CMG-5TD,ACCELEROMETER,GURALP" lat="36.4514" lon="28.224">
    <comp name="--.HNE">
      <acc value="0.1023524651" flag="0"/>
      <vel value="0.0509121467" flag="0"/>
      <psa03 value="0.3259599581" flag="0"/>
      <psa10 value="0.0608439989" flag="0"/>
      <psa30 value="0.0045346533" flag="0"/>
    </comp>
    <comp name="--.HNN">
      <acc value="0.1116558278" flag="0"/>
      <vel value="0.0684487884" flag="0"/>
      <psa03 value="0.5561085842" flag="0"/>
      <psa10 value="0.0802786717" flag="0"/>
      <psa30 value="0.0068911951" flag="0"/>
    </comp>
    <comp name="--.HNZ">
      <acc value="0.0732501132" flag="0"/>
      <vel value="0.0298189880" flag="0"/>
      <psa03 value="0.1709505511" flag="0"/>
      <psa10 value="0.0377084486" flag="0"/>
      <psa30 value="0.0023579247" flag="0"/>
    </comp>
  </station>
  <station code="ARG" name="ARG" netid="HL" insttype="LE3D20_DR24" lat="36.2136" lon="28.1212">
    <comp name="--.HHZ">
      <acc value="0.0661679193" flag="0"/>
      <vel value="0.0283243754" flag="0"/>
      <psa03 value="0.0916573979" flag="0"/>
      <psa10 value="0.0158242334" flag="0"/>
      <psa30 value="0.0012273202" flag="0"/>
    </comp>
    <comp name="--.HHN">
      <acc value="0.0687114481" flag="0"/>
      <vel value="0.0216770183" flag="0"/>
      <psa03 value="0.1208704963" flag="0"/>
      <psa10 value="0.0152851697" flag="0"/>
      <psa30 value="0.0013639180" flag="0"/>
    </comp>
    <comp name="--.HHE">
      <acc value="0.0758301238" flag="0"/>
      <vel value="0.0208560967" flag="0"/>
      <psa03 value="0.1922095861" flag="0"/>
      <psa10 value="0.0268085998" flag="0"/>
      <psa30 value="0.0022158660" flag="0"/>
    </comp>
  </station>
  <station code="RODB" name="RODB" netid="HL" insttype="CMG-5" lat="36.4471" lon="28.2212">
    <comp name="00.HNZ">
      <acc value="0.1113880064" flag="0"/>
      <vel value="0.0358333177" flag="0"/>
      <psa03 value="0.1507524763" flag="0"/>
      <psa10 value="0.0385323615" flag="0"/>
      <psa30 value="0.0024540183" flag="0"/>
    </comp>
    <comp name="00.HNN">
      <acc value="0.1430021844" flag="0"/>
      <vel value="0.0575903936" flag="0"/>
      <psa03 value="0.3976883114" flag="0"/>
      <psa10 value="0.0843528179" flag="0"/>
      <psa30 value="0.0062487137" flag="0"/>
    </comp>
    <comp name="00.HNE">
      <acc value="0.0812514004" flag="0"/>
      <vel value="0.0588922681" flag="0"/>
      <psa03 value="0.3024132778" flag="0"/>
      <psa10 value="0.0657274572" flag="0"/>
      <psa30 value="0.0055390330" flag="0"/>
    </comp>
  </station>
  <station code="FETI" name="FETI" netid="KO" insttype="CMG-5T" lat="36.6903" lon="29.096">
    <comp name="--.HNN">
      <acc value="0.0028847332" flag="0"/>
      <vel value="0.0106808870" flag="0"/>
      <psa03 value="0.0022862436" flag="0"/>
      <psa10 value="0.0024337458" flag="0"/>
      <psa30 value="0.0033237602" flag="0"/>
    </comp>
    <comp name="--.HNZ">
      <acc value="0.1384634723" flag="0"/>
      <vel value="0.0645046194" flag="0"/>
      <psa03 value="0.2741053626" flag="0"/>
      <psa10 value="0.0663729950" flag="0"/>
      <psa30 value="0.0034778200" flag="0"/>
    </comp>
    <comp name="--.HNE">
      <acc value="0.2399352215" flag="0"/>
      <vel value="0.0944066122" flag="0"/>
      <psa03 value="0.2971552714" flag="0"/>
      <psa10 value="0.1080562330" flag="0"/>
      <psa30 value="0.0081595477" flag="0"/>
    </comp>
  </station>
  <station code="FETY" name="FETY" netid="KO" insttype="120s," lat="36.6353" lon="29.0835">
    <comp name="--.HHE">
      <acc value="1.0057425966" flag="0"/>
      <vel value="0.2469546361" flag="0"/>
      <psa03 value="0.4853424820" flag="0"/>
      <psa10 value="0.0612920631" flag="0"/>
      <psa30 value="0.0045287573" flag="0"/>
    </comp>
    <comp name="--.HHN">
      <acc value="0.7021491946" flag="0"/>
      <vel value="0.1647511969" flag="0"/>
      <psa03 value="0.9605933494" flag="0"/>
      <psa10 value="0.1080418866" flag="0"/>
      <psa30 value="0.0103588971" flag="0"/>
    </comp>
    <comp name="--.HHZ">
      <acc value="0.3352290413" flag="0"/>
      <vel value="0.1162885487" flag="0"/>
      <psa03 value="0.4776493450" flag="0"/>
      <psa10 value="0.0682838954" flag="0"/>
      <psa30 value="0.0041703519" flag="0"/>
    </comp>
  </station>
</stationlist>
