<stationlist created="1775820707">
	<station code="KSS1" name="KSS1" netid="HI" source="ITSAK Strong Motion Network" insttype="" lat="35.4189" lon="26.9207">
		<comp name="--.HNE" depth="0.0">
			<acc value="0.00678740036664251" flag="0"/>
			<vel value="0.00252837312672091" flag="0"/>
			<psa03 value="0.0213737700740258" flag="0"/>
			<psa10 value="0.00198633572561834" flag="0"/>
			<psa30 value="0.000188003613171034" flag="0"/>
		</comp>
		<comp name="--.HNN" depth="0.0">
			<acc value="0.00773008559869318" flag="0"/>
			<vel value="0.00282684134345628" flag="0"/>
			<psa03 value="0.0221935405256554" flag="0"/>
			<psa10 value="0.00173494004844928" flag="0"/>
			<psa30 value="0.000158312154069824" flag="0"/>
		</comp>
		<comp name="--.HNZ" depth="0.0">
			<acc value="0.00915245967796951" flag="0"/>
			<vel value="0.00170478874903017" flag="0"/>
			<psa03 value="0.00607976017616843" flag="0"/>
			<psa10 value="0.0019759744923612" flag="0"/>
			<psa30 value="0.000172347589056936" flag="0"/>
		</comp>
	</station>
	<station code="RDI1" name="RDI1" netid="HI" source="ITSAK Strong Motion Network" insttype="" lat="36.4514" lon="28.224">
		<comp name="--.HNE" depth="0.0">
			<acc value="0.101838986270501" flag="0"/>
			<vel value="0.0511829220075666" flag="0"/>
			<psa03 value="0.319639882907018" flag="0"/>
			<psa10 value="0.0608959040547272" flag="0"/>
			<psa30 value="0.00461213178109971" flag="0"/>
		</comp>
		<comp name="--.HNN" depth="0.0">
			<acc value="0.111122199760874" flag="0"/>
			<vel value="0.0691138499775435" flag="0"/>
			<psa03 value="0.557130323817618" flag="0"/>
			<psa10 value="0.0801374387119966" flag="0"/>
			<psa30 value="0.00718562934602266" flag="0"/>
		</comp>
		<comp name="--.HNZ" depth="0.0">
			<acc value="0.0699936521309767" flag="0"/>
			<vel value="0.0298631024782911" flag="0"/>
			<psa03 value="0.173212151538137" flag="0"/>
			<psa10 value="0.0376519467566723" flag="0"/>
			<psa30 value="0.00243064831018889" flag="0"/>
		</comp>
	</station>
	<station code="KLNA" name="KLNA" netid="HL" source="National Observatory of Athens Seismic Network" insttype="" lat="36.95708" lon="26.97274">
		<comp name="00.HNE" depth="0.0">
			<acc value="0.019535596957756" flag="0"/>
			<vel value="0.00769669165265447" flag="0"/>
			<psa03 value="0.0802584469366519" flag="0"/>
			<psa10 value="0.00336456632350844" flag="0"/>
			<psa30 value="0.000507421166244485" flag="0"/>
		</comp>
		<comp name="00.HNN" depth="0.0">
			<acc value="0.0175200671670003" flag="0"/>
			<vel value="0.00688346680386454" flag="0"/>
			<psa03 value="0.0504044536308462" flag="0"/>
			<psa10 value="0.00451703173119781" flag="0"/>
			<psa30 value="0.000330629116097974" flag="0"/>
		</comp>
		<comp name="00.HNZ" depth="0.0">
			<acc value="0.0188310008777054" flag="0"/>
			<vel value="0.00448251547890851" flag="0"/>
			<psa03 value="0.0238341205601759" flag="0"/>
			<psa10 value="0.00185782643125839" flag="0"/>
			<psa30 value="0.000225894287304675" flag="0"/>
		</comp>
	</station>
	<station code="RODB" name="RODB" netid="HL" source="National Observatory of Athens Seismic Network" insttype="" lat="36.4471" lon="28.22116">
		<comp name="00.HNE" depth="0.0">
			<acc value="0.0813346516584472" flag="0"/>
			<vel value="0.0591640615202044" flag="0"/>
			<psa03 value="0.303309655276272" flag="0"/>
			<psa10 value="0.0657807076491178" flag="0"/>
			<psa30 value="0.00564277963977282" flag="0"/>
		</comp>
		<comp name="00.HNN" depth="0.0">
			<acc value="0.14309611061024" flag="0"/>
			<vel value="0.0575592282152347" flag="0"/>
			<psa03 value="0.39804732701514" flag="0"/>
			<psa10 value="0.084362776119811" flag="0"/>
			<psa30 value="0.00635951628674373" flag="0"/>
		</comp>
		<comp name="00.HNZ" depth="0.0">
			<acc value="0.110450998812002" flag="0"/>
			<vel value="0.035953355710332" flag="0"/>
			<psa03 value="0.151996027324203" flag="0"/>
			<psa10 value="0.0385181453881147" flag="0"/>
			<psa30 value="0.00248879528714036" flag="0"/>
		</comp>
	</station>
	<station code="BASM" name="BASM" netid="KO" source="Bogazici University Kandilli Observatory And Earthquake Research Institute (KOERI)" insttype="" lat="37.9194" lon="30.035">
		<comp name="--.HNE" depth="0.0">
			<acc value="0.00918514357551576" flag="0"/>
			<vel value="0.00653075674594279" flag="0"/>
			<psa03 value="0.0217611967808189" flag="0"/>
			<psa10 value="0.00861980726993419" flag="0"/>
			<psa30 value="0.000688364767455429" flag="0"/>
		</comp>
		<comp name="--.HNN" depth="0.0">
			<acc value="0.00750782992123014" flag="0"/>
			<vel value="0.00475900759217419" flag="0"/>
			<psa03 value="0.0173484877938217" flag="0"/>
			<psa10 value="0.00811981758558044" flag="0"/>
			<psa30 value="0.0007865728878446" flag="0"/>
		</comp>
		<comp name="--.HNZ" depth="0.0">
			<acc value="0.00571072899774343" flag="0"/>
			<vel value="0.00507904610848053" flag="0"/>
			<psa03 value="0.0141045046667133" flag="0"/>
			<psa10 value="0.00614350463329938" flag="0"/>
			<psa30 value="0.000477109731177021" flag="0"/>
		</comp>
	</station>
	<station code="CAME" name="CAME" netid="KO" source="Bogazici University Kandilli Observatory And Earthquake Research Institute (KOERI)" insttype="" lat="36.9435" lon="29.3023">
		<comp name="--.HNE" depth="0.0">
			<acc value="0.159640836721309" flag="0"/>
			<vel value="0.0629949112636734" flag="0"/>
			<psa03 value="0.351879226938583" flag="0"/>
			<psa10 value="0.0257621534912398" flag="0"/>
			<psa30 value="0.00321908179003814" flag="0"/>
		</comp>
		<comp name="--.HNN" depth="0.0">
			<acc value="0.281926989464238" flag="0"/>
			<vel value="0.116460742420827" flag="0"/>
			<psa03 value="0.577055560433683" flag="0"/>
			<psa10 value="0.0290352146904908" flag="0"/>
			<psa30 value="0.00279972546807029" flag="0"/>
		</comp>
		<comp name="--.HNZ" depth="0.0">
			<acc value="0.0852861999607447" flag="0"/>
			<vel value="0.0277986106119584" flag="0"/>
			<psa03 value="0.110195685340216" flag="0"/>
			<psa10 value="0.0141564527955262" flag="0"/>
			<psa30 value="0.00169902473955085" flag="0"/>
		</comp>
	</station>
	<station code="DATC" name="DATC" netid="KO" source="Bogazici University Kandilli Observatory And Earthquake Research Institute (KOERI)" insttype="" lat="36.7584" lon="27.6602">
		<comp name="--.HNE" depth="0.0">
			<acc value="0.322188099261561" flag="0"/>
			<vel value="0.116333392020859" flag="0"/>
			<psa03 value="0.864712116266837" flag="0"/>
			<psa10 value="0.0481535949393359" flag="0"/>
			<psa30 value="0.00430409137492982" flag="0"/>
		</comp>
		<comp name="--.HNN" depth="0.0">
			<acc value="0.221606492697382" flag="0"/>
			<vel value="0.103514039926844" flag="0"/>
			<psa03 value="0.556577578865509" flag="0"/>
			<psa10 value="0.0925229341903936" flag="0"/>
			<psa30 value="0.00426900571734504" flag="0"/>
		</comp>
		<comp name="--.HNZ" depth="0.0">
			<acc value="0.188310661063146" flag="0"/>
			<vel value="0.0767692188591381" flag="0"/>
			<psa03 value="0.327045331814636" flag="0"/>
			<psa10 value="0.046696199644006" flag="0"/>
			<psa30 value="0.00255752233996959" flag="0"/>
		</comp>
	</station>
	<station code="DEMR" name="DEMR" netid="KO" source="Bogazici University Kandilli Observatory And Earthquake Research Institute (KOERI)" insttype="" lat="36.2365" lon="29.9056">
		<comp name="--.HNE" depth="0.0">
			<acc value="0.0491600749519278" flag="0"/>
			<vel value="0.0259659842431584" flag="0"/>
			<psa03 value="0.12000614773494" flag="0"/>
			<psa10 value="0.0112885703123656" flag="0"/>
			<psa30 value="0.000849757229747131" flag="0"/>
		</comp>
		<comp name="--.HNN" depth="0.0">
			<acc value="0.0501262052677718" flag="0"/>
			<vel value="0.0179452654782242" flag="0"/>
			<psa03 value="0.085296561937117" flag="0"/>
			<psa10 value="0.0130730041473613" flag="0"/>
			<psa30 value="0.00117164199053325" flag="0"/>
		</comp>
		<comp name="--.HNZ" depth="0.0">
			<acc value="0.0313481357999861" flag="0"/>
			<vel value="0.0145701536932075" flag="0"/>
			<psa03 value="0.0916780419702732" flag="0"/>
			<psa10 value="0.0113216615670078" flag="0"/>
			<psa30 value="0.000947352653298434" flag="0"/>
		</comp>
	</station>
	<station code="DIDI" name="DIDI" netid="KO" source="Bogazici University Kandilli Observatory And Earthquake Research Institute (KOERI)" insttype="" lat="37.3767" lon="27.2398">
		<comp name="--.HNE" depth="0.0">
			<acc value="0.0363621101444988" flag="0"/>
			<vel value="0.0165101567501367" flag="0"/>
			<psa03 value="0.105284099554674" flag="0"/>
			<psa10 value="0.023379526903912" flag="0"/>
			<psa30 value="0.00336451663271444" flag="0"/>
		</comp>
		<comp name="--.HNN" depth="0.0">
			<acc value="0.0331981032430408" flag="0"/>
			<vel value="0.0183624896840669" flag="0"/>
			<psa03 value="0.094835105277138" flag="0"/>
			<psa10 value="0.0133899601441559" flag="0"/>
			<psa30 value="0.00294578389372574" flag="0"/>
		</comp>
		<comp name="--.HNZ" depth="0.0">
			<acc value="0.0334965631146142" flag="0"/>
			<vel value="0.0106901095439383" flag="0"/>
			<psa03 value="0.0463063071487928" flag="0"/>
			<psa10 value="0.0130597132669236" flag="0"/>
			<psa30 value="0.000940451779481943" flag="0"/>
		</comp>
	</station>
	<station code="FETI" name="FETI" netid="KO" source="Bogazici University Kandilli Observatory And Earthquake Research Institute (KOERI)" insttype="" lat="36.6903" lon="29.096">
		<comp name="--.HNE" depth="0.0">
			<acc value="0.243587496803741" flag="0"/>
			<vel value="0.0958248456824208" flag="0"/>
			<psa03 value="0.301323773721411" flag="0"/>
			<psa10 value="0.108440083623185" flag="0"/>
			<psa30 value="0.00784832074606216" flag="0"/>
		</comp>
		<comp name="--.HNN" depth="0.0">
			<acc value="0.00140103264642803" flag="0"/>
			<vel value="0.00108452822688654" flag="0"/>
			<psa03 value="0.0018138574638441" flag="0"/>
			<psa10 value="0.00106105064095889" flag="0"/>
			<psa30 value="0.000424106272042552" flag="0"/>
		</comp>
		<comp name="--.HNZ" depth="0.0">
			<acc value="0.124209065078799" flag="0"/>
			<vel value="0.0645255670478512" flag="0"/>
			<psa03 value="0.278554161179604" flag="0"/>
			<psa10 value="0.0665306898316892" flag="0"/>
			<psa30 value="0.00344062959149257" flag="0"/>
		</comp>
	</station>
	<station code="KEMT" name="KEMT" netid="KO" source="Bogazici University Kandilli Observatory And Earthquake Research Institute (KOERI)" insttype="" lat="36.6037" lon="30.5558">
		<comp name="--.HNE" depth="0.0">
			<acc value="0.0224744896650305" flag="0"/>
			<vel value="0.0119401133193113" flag="0"/>
			<psa03 value="0.0843626459028088" flag="0"/>
			<psa10 value="0.00704890226766957" flag="0"/>
			<psa30 value="0.000822642464776186" flag="0"/>
		</comp>
		<comp name="--.HNN" depth="0.0">
			<acc value="0.0265160460098832" flag="0"/>
			<vel value="0.0154639764762186" flag="0"/>
			<psa03 value="0.0740382588380401" flag="0"/>
			<psa10 value="0.00618384511814042" flag="0"/>
			<psa30 value="0.00120554715325111" flag="0"/>
		</comp>
		<comp name="--.HNZ" depth="0.0">
			<acc value="0.0148416806924445" flag="0"/>
			<vel value="0.00500803182634178" flag="0"/>
			<psa03 value="0.0267953896463873" flag="0"/>
			<psa10 value="0.00315182832440847" flag="0"/>
			<psa30 value="0.000586439004957414" flag="0"/>
		</comp>
	</station>
	<station code="NAZL" name="NAZL" netid="KO" source="Bogazici University Kandilli Observatory And Earthquake Research Institute (KOERI)" insttype="" lat="37.9641" lon="28.2922">
		<comp name="--.HNE" depth="0.0">
			<acc value="0.0316016465039581" flag="0"/>
			<vel value="0.0143919261560007" flag="0"/>
			<psa03 value="0.0878100669858833" flag="0"/>
			<psa10 value="0.0096424025118475" flag="0"/>
			<psa30 value="0.000628709461417653" flag="0"/>
		</comp>
		<comp name="--.HNN" depth="0.0">
			<acc value="0.0341307056915381" flag="0"/>
			<vel value="0.015187168945027" flag="0"/>
			<psa03 value="0.14144450542115" flag="0"/>
			<psa10 value="0.00994867967618644" flag="0"/>
			<psa30 value="0.00054059216574482" flag="0"/>
		</comp>
		<comp name="--.HNZ" depth="0.0">
			<acc value="0.0105928965685992" flag="0"/>
			<vel value="0.00463427302545303" flag="0"/>
			<psa03 value="0.0246460884115479" flag="0"/>
			<psa10 value="0.00397455313838997" flag="0"/>
			<psa30 value="0.000285501074503442" flag="0"/>
		</comp>
	</station>
	<station code="YKAV" name="YKAV" netid="KO" source="Bogazici University Kandilli Observatory And Earthquake Research Institute (KOERI)" insttype="" lat="37.1246" lon="27.2801">
		<comp name="--.HNE" depth="0.0">
			<acc value="0.0162503734627405" flag="0"/>
			<vel value="0.00735697599627208" flag="0"/>
			<psa03 value="0.0369486612091354" flag="0"/>
			<psa10 value="0.00721828505097007" flag="0"/>
			<psa30 value="0.000843349565685634" flag="0"/>
		</comp>
		<comp name="--.HNN" depth="0.0">
			<acc value="0.0145060082151344" flag="0"/>
			<vel value="0.00453146481408205" flag="0"/>
			<psa03 value="0.0265679006180129" flag="0"/>
			<psa10 value="0.00607419441680853" flag="0"/>
			<psa30 value="0.00051834345229449" flag="0"/>
		</comp>
		<comp name="--.HNZ" depth="0.0">
			<acc value="0.0222051543615777" flag="0"/>
			<vel value="0.00654737790893625" flag="0"/>
			<psa03 value="0.0211202181212204" flag="0"/>
			<psa10 value="0.00446321707248984" flag="0"/>
			<psa30 value="0.000452432054737713" flag="0"/>
		</comp>
	</station>
</stationlist>
