<stationlist xmlns:esm="https://esm-db.eu/esmws/shakemap/1/" created="1784080428">
	<station code="KOS2" name="KOS2" netid="HI" source="ITSAK Strong Motion Network" insttype="" lat="36.8941" lon="27.2888" esm:processing="manual (Paolucci et al 2011)" esm:quality="good">
		<comp name="--.HNE" depth="0.0">
			<acc value="0.0420261199419867" flag="0"/>
			<vel value="0.0289280180553368" flag="0"/>
			<psa03 value="0.16551923567037" flag="0"/>
			<psa10 value="0.026774263038525" flag="0"/>
			<psa30 value="0.00266139005402965" flag="0"/>
		</comp>
		<comp name="--.HNN" depth="0.0">
			<acc value="0.0548259036707278" flag="0"/>
			<vel value="0.0345632471723311" flag="0"/>
			<psa03 value="0.186916090606999" flag="0"/>
			<psa10 value="0.023073330369899" flag="0"/>
			<psa30 value="0.0026022475944653" flag="0"/>
		</comp>
		<comp name="--.HNZ" depth="0.0">
			<acc value="0.0183001456865526" flag="0"/>
			<vel value="0.0125897621335343" flag="0"/>
			<psa03 value="0.0594542770957378" flag="0"/>
			<psa10 value="0.0146682679507636" flag="0"/>
			<psa30 value="0.00181189815436039" flag="0"/>
		</comp>
	</station>
	<station code="KSS1" name="KSS1" netid="HI" source="ITSAK Strong Motion Network" insttype="" lat="35.4189" lon="26.9207" esm:processing="manual (Paolucci et al 2011)" esm:quality="good">
		<comp name="--.HNE" depth="0.0">
			<acc value="0.00678740036664251" flag="0"/>
			<vel value="0.00252837312672091" flag="0"/>
			<psa03 value="0.0213737700740258" flag="0"/>
			<psa10 value="0.00198633572561834" flag="0"/>
			<psa30 value="0.000188003613171034" flag="0"/>
		</comp>
		<comp name="--.HNN" depth="0.0">
			<acc value="0.00773008559869318" flag="0"/>
			<vel value="0.00282684134345628" flag="0"/>
			<psa03 value="0.0221935405256554" flag="0"/>
			<psa10 value="0.00173494004844928" flag="0"/>
			<psa30 value="0.000158312154069824" flag="0"/>
		</comp>
		<comp name="--.HNZ" depth="0.0">
			<acc value="0.00915245967796951" flag="0"/>
			<vel value="0.00170478874903017" flag="0"/>
			<psa03 value="0.00607976017616843" flag="0"/>
			<psa10 value="0.0019759744923612" flag="0"/>
			<psa30 value="0.000172347589056936" flag="0"/>
		</comp>
	</station>
	<station code="RDI1" name="RDI1" netid="HI" source="ITSAK Strong Motion Network" insttype="" lat="36.4514" lon="28.224" esm:processing="manual (Paolucci et al 2011)" esm:quality="best">
		<comp name="--.HNE" depth="0.0">
			<acc value="0.101838986270501" flag="0"/>
			<vel value="0.0511829220075666" flag="0"/>
			<psa03 value="0.319639882907018" flag="0"/>
			<psa10 value="0.0608959040547272" flag="0"/>
			<psa30 value="0.00461213178109971" flag="0"/>
		</comp>
		<comp name="--.HNN" depth="0.0">
			<acc value="0.111122199760874" flag="0"/>
			<vel value="0.0691138499775435" flag="0"/>
			<psa03 value="0.557130323817618" flag="0"/>
			<psa10 value="0.0801374387119966" flag="0"/>
			<psa30 value="0.00718562934602266" flag="0"/>
		</comp>
		<comp name="--.HNZ" depth="0.0">
			<acc value="0.0699936521309767" flag="0"/>
			<vel value="0.0298631024782911" flag="0"/>
			<psa03 value="0.173212151538137" flag="0"/>
			<psa10 value="0.0376519467566723" flag="0"/>
			<psa30 value="0.00243064831018889" flag="0"/>
		</comp>
	</station>
	<station code="RKL1" name="RKL1" netid="HI" source="ITSAK Strong Motion Network" insttype="" lat="36.336699" lon="28.171224" esm:processing="automatic (Paolucci et al 2011)" esm:quality="best">
		<comp name="--.HNE" depth="0.0">
			<acc value="0.217403543541727" flag="0"/>
			<vel value="0.111261120671056" flag="0"/>
			<psa03 value="0.659856628929925" flag="0"/>
			<psa10 value="0.112324245930034" flag="0"/>
			<psa30 value="0.00594479339672033" flag="0"/>
		</comp>
		<comp name="--.HNN" depth="0.0">
			<acc value="0.199968417293581" flag="0"/>
			<vel value="0.097101533584041" flag="0"/>
			<psa03 value="0.703909463880707" flag="0"/>
			<psa10 value="0.0603369520269534" flag="0"/>
			<psa30 value="0.0042694119942581" flag="0"/>
		</comp>
		<comp name="--.HNZ" depth="0.0">
			<acc value="0.149537741934737" flag="0"/>
			<vel value="0.0511238499091846" flag="0"/>
			<psa03 value="0.415223006486371" flag="0"/>
			<psa10 value="0.0468184052395743" flag="0"/>
			<psa30 value="0.00192806334973447" flag="0"/>
		</comp>
	</station>
	<station code="RKT1" name="RKT1" netid="HI" source="ITSAK Strong Motion Network" insttype="" lat="35.954336" lon="27.767327" esm:processing="automatic (Paolucci et al 2011)" esm:quality="best">
		<comp name="--.HNE" depth="0.0">
			<acc value="0.0506600415323514" flag="0"/>
			<vel value="0.0239470398868808" flag="0"/>
			<psa03 value="0.124146015730932" flag="0"/>
			<psa10 value="0.0170443072267046" flag="0"/>
			<psa30 value="0.00144826416956019" flag="0"/>
		</comp>
		<comp name="--.HNN" depth="0.0">
			<acc value="0.0423248460065537" flag="0"/>
			<vel value="0.0232571377859519" flag="0"/>
			<psa03 value="0.0981696803428642" flag="0"/>
			<psa10 value="0.0118421294829601" flag="0"/>
			<psa30 value="0.00106433081919331" flag="0"/>
		</comp>
		<comp name="--.HNZ" depth="0.0">
			<acc value="0.0441257076518282" flag="0"/>
			<vel value="0.0102701559111576" flag="0"/>
			<psa03 value="0.0360826611325488" flag="0"/>
			<psa10 value="0.00982870454093905" flag="0"/>
			<psa30 value="0.000645555212781292" flag="0"/>
		</comp>
	</station>
	<station code="RSO1" name="RSO1" netid="HI" source="ITSAK Strong Motion Network" insttype="" lat="36.3632" lon="28.0016" esm:processing="automatic (Paolucci et al 2011)" esm:quality="best">
		<comp name="--.HNE" depth="0.0">
			<acc value="0.0809034320067523" flag="0"/>
			<vel value="0.0455343814223167" flag="0"/>
			<psa03 value="0.215341015285424" flag="0"/>
			<psa10 value="0.0362429821696974" flag="0"/>
			<psa30 value="0.00275982865843742" flag="0"/>
		</comp>
		<comp name="--.HNN" depth="0.0">
			<acc value="0.0996654446760162" flag="0"/>
			<vel value="0.0311563021753552" flag="0"/>
			<psa03 value="0.158388190356949" flag="0"/>
			<psa10 value="0.0253573460497284" flag="0"/>
			<psa30 value="0.00317206409201174" flag="0"/>
		</comp>
		<comp name="--.HNZ" depth="0.0">
			<acc value="0.202269853905549" flag="0"/>
			<vel value="0.0507915148804618" flag="0"/>
			<psa03 value="0.116796049665085" flag="0"/>
			<psa10 value="0.017607277645732" flag="0"/>
			<psa30 value="0.00153581924048727" flag="0"/>
		</comp>
	</station>
	<station code="KLNA" name="KLNA" netid="HL" source="National Observatory of Athens Seismic Network" insttype="" lat="36.95708" lon="26.97274" esm:processing="manual (Paolucci et al 2011)" esm:quality="best">
		<comp name="00.HNE" depth="0.0">
			<acc value="0.019535596957756" flag="0"/>
			<vel value="0.00769669165265447" flag="0"/>
			<psa03 value="0.0802584469366519" flag="0"/>
			<psa10 value="0.00336456632350844" flag="0"/>
			<psa30 value="0.000507421166244485" flag="0"/>
		</comp>
		<comp name="00.HNN" depth="0.0">
			<acc value="0.0175200671670003" flag="0"/>
			<vel value="0.00688346680386454" flag="0"/>
			<psa03 value="0.0504044536308462" flag="0"/>
			<psa10 value="0.00451703173119781" flag="0"/>
			<psa30 value="0.000330629116097974" flag="0"/>
		</comp>
		<comp name="00.HNZ" depth="0.0">
			<acc value="0.0188310008777054" flag="0"/>
			<vel value="0.00448251547890851" flag="0"/>
			<psa03 value="0.0238341205601759" flag="0"/>
			<psa10 value="0.00185782643125839" flag="0"/>
			<psa30 value="0.000225894287304675" flag="0"/>
		</comp>
	</station>
	<station code="RODB" name="RODB" netid="HL" source="National Observatory of Athens Seismic Network" insttype="" lat="36.4471" lon="28.22116" esm:processing="manual (Paolucci et al 2011)" esm:quality="best">
		<comp name="00.HNE" depth="0.0">
			<acc value="0.0813346516584472" flag="0"/>
			<vel value="0.0591640615202044" flag="0"/>
			<psa03 value="0.303309655276272" flag="0"/>
			<psa10 value="0.0657807076491178" flag="0"/>
			<psa30 value="0.00564277963977282" flag="0"/>
		</comp>
		<comp name="00.HNN" depth="0.0">
			<acc value="0.14309611061024" flag="0"/>
			<vel value="0.0575592282152347" flag="0"/>
			<psa03 value="0.39804732701514" flag="0"/>
			<psa10 value="0.084362776119811" flag="0"/>
			<psa30 value="0.00635951628674373" flag="0"/>
		</comp>
		<comp name="00.HNZ" depth="0.0">
			<acc value="0.110450998812002" flag="0"/>
			<vel value="0.035953355710332" flag="0"/>
			<psa03 value="0.151996027324203" flag="0"/>
			<psa10 value="0.0385181453881147" flag="0"/>
			<psa30 value="0.00248879528714036" flag="0"/>
		</comp>
	</station>
	<station code="BASM" name="BASM" netid="KO" source="Bogazici University Kandilli Observatory And Earthquake Research Institute (KOERI)" insttype="" lat="37.9194" lon="30.035" esm:processing="automatic (Paolucci et al 2011)" esm:quality="best">
		<comp name="--.HNE" depth="0.0">
			<acc value="0.00918514357551576" flag="0"/>
			<vel value="0.00653075674594279" flag="0"/>
			<psa03 value="0.0217611967808189" flag="0"/>
			<psa10 value="0.00861980726993419" flag="0"/>
			<psa30 value="0.000688364767455429" flag="0"/>
		</comp>
		<comp name="--.HNN" depth="0.0">
			<acc value="0.00750782992123014" flag="0"/>
			<vel value="0.00475900759217419" flag="0"/>
			<psa03 value="0.0173484877938217" flag="0"/>
			<psa10 value="0.00811981758558044" flag="0"/>
			<psa30 value="0.0007865728878446" flag="0"/>
		</comp>
		<comp name="--.HNZ" depth="0.0">
			<acc value="0.00571072899774343" flag="0"/>
			<vel value="0.00507904610848053" flag="0"/>
			<psa03 value="0.0141045046667133" flag="0"/>
			<psa10 value="0.00614350463329938" flag="0"/>
			<psa30 value="0.000477109731177021" flag="0"/>
		</comp>
	</station>
	<station code="CAME" name="CAME" netid="KO" source="Bogazici University Kandilli Observatory And Earthquake Research Institute (KOERI)" insttype="" lat="36.9435" lon="29.3023" esm:processing="automatic (Paolucci et al 2011)" esm:quality="good">
		<comp name="--.HNE" depth="0.0">
			<acc value="0.159640836721309" flag="0"/>
			<vel value="0.0629949112636734" flag="0"/>
			<psa03 value="0.351879226938583" flag="0"/>
			<psa10 value="0.0257621534912398" flag="0"/>
			<psa30 value="0.00321908179003814" flag="0"/>
		</comp>
		<comp name="--.HNN" depth="0.0">
			<acc value="0.281926989464238" flag="0"/>
			<vel value="0.116460742420827" flag="0"/>
			<psa03 value="0.577055560433683" flag="0"/>
			<psa10 value="0.0290352146904908" flag="0"/>
			<psa30 value="0.00279972546807029" flag="0"/>
		</comp>
		<comp name="--.HNZ" depth="0.0">
			<acc value="0.0852861999607447" flag="0"/>
			<vel value="0.0277986106119584" flag="0"/>
			<psa03 value="0.110195685340216" flag="0"/>
			<psa10 value="0.0141564527955262" flag="0"/>
			<psa30 value="0.00169902473955085" flag="0"/>
		</comp>
	</station>
	<station code="DATC" name="DATC" netid="KO" source="Bogazici University Kandilli Observatory And Earthquake Research Institute (KOERI)" insttype="" lat="36.7584" lon="27.6602" esm:processing="automatic (Paolucci et al 2011)" esm:quality="good">
		<comp name="--.HNE" depth="0.0">
			<acc value="0.322188099261561" flag="0"/>
			<vel value="0.116333392020859" flag="0"/>
			<psa03 value="0.864712116266837" flag="0"/>
			<psa10 value="0.0481535949393359" flag="0"/>
			<psa30 value="0.00430409137492982" flag="0"/>
		</comp>
		<comp name="--.HNN" depth="0.0">
			<acc value="0.221606492697382" flag="0"/>
			<vel value="0.103514039926844" flag="0"/>
			<psa03 value="0.556577578865509" flag="0"/>
			<psa10 value="0.0925229341903936" flag="0"/>
			<psa30 value="0.00426900571734504" flag="0"/>
		</comp>
		<comp name="--.HNZ" depth="0.0">
			<acc value="0.188310661063146" flag="0"/>
			<vel value="0.0767692188591381" flag="0"/>
			<psa03 value="0.327045331814636" flag="0"/>
			<psa10 value="0.046696199644006" flag="0"/>
			<psa30 value="0.00255752233996959" flag="0"/>
		</comp>
	</station>
	<station code="NAZL" name="NAZL" netid="KO" source="Bogazici University Kandilli Observatory And Earthquake Research Institute (KOERI)" insttype="" lat="37.9641" lon="28.2922" esm:processing="automatic (Paolucci et al 2011)" esm:quality="good">
		<comp name="--.HNE" depth="0.0">
			<acc value="0.0316016465039581" flag="0"/>
			<vel value="0.0143919261560007" flag="0"/>
			<psa03 value="0.0878100669858833" flag="0"/>
			<psa10 value="0.0096424025118475" flag="0"/>
			<psa30 value="0.000628709461417653" flag="0"/>
		</comp>
		<comp name="--.HNN" depth="0.0">
			<acc value="0.0341307056915381" flag="0"/>
			<vel value="0.015187168945027" flag="0"/>
			<psa03 value="0.14144450542115" flag="0"/>
			<psa10 value="0.00994867967618644" flag="0"/>
			<psa30 value="0.00054059216574482" flag="0"/>
		</comp>
		<comp name="--.HNZ" depth="0.0">
			<acc value="0.0105928965685992" flag="0"/>
			<vel value="0.00463427302545303" flag="0"/>
			<psa03 value="0.0246460884115479" flag="0"/>
			<psa10 value="0.00397455313838997" flag="0"/>
			<psa30 value="0.000285501074503442" flag="0"/>
		</comp>
	</station>
	<station code="YKAV" name="YKAV" netid="KO" source="Bogazici University Kandilli Observatory And Earthquake Research Institute (KOERI)" insttype="" lat="37.1246" lon="27.2801" esm:processing="automatic (Paolucci et al 2011)" esm:quality="best">
		<comp name="--.HNE" depth="0.0">
			<acc value="0.0162503734627405" flag="0"/>
			<vel value="0.00735697599627208" flag="0"/>
			<psa03 value="0.0369486612091354" flag="0"/>
			<psa10 value="0.00721828505097007" flag="0"/>
			<psa30 value="0.000843349565685634" flag="0"/>
		</comp>
		<comp name="--.HNN" depth="0.0">
			<acc value="0.0145060082151344" flag="0"/>
			<vel value="0.00453146481408205" flag="0"/>
			<psa03 value="0.0265679006180129" flag="0"/>
			<psa10 value="0.00607419441680853" flag="0"/>
			<psa30 value="0.00051834345229449" flag="0"/>
		</comp>
		<comp name="--.HNZ" depth="0.0">
			<acc value="0.0222051543615777" flag="0"/>
			<vel value="0.00654737790893625" flag="0"/>
			<psa03 value="0.0211202181212204" flag="0"/>
			<psa10 value="0.00446321707248984" flag="0"/>
			<psa30 value="0.000452432054737713" flag="0"/>
		</comp>
	</station>
	<station code="NISR" name="NISR" netid="HL" source="National Observatory of Athens Seismic Network" insttype="" lat="36.6106" lon="27.131" esm:processing="discarded" esm:quality="bad">
		<comp name="--.HNE" depth="0.0">
			<acc value="0" flag="1"/>
			<vel value="0" flag="1"/>
			<psa03 value="0" flag="1"/>
			<psa10 value="0" flag="1"/>
			<psa30 value="0" flag="1"/>
		</comp>
		<comp name="--.HNN" depth="0.0">
			<acc value="0" flag="1"/>
			<vel value="0" flag="1"/>
			<psa03 value="0" flag="1"/>
			<psa10 value="0" flag="1"/>
			<psa30 value="0" flag="1"/>
		</comp>
		<comp name="--.HNZ" depth="0.0">
			<acc value="0" flag="1"/>
			<vel value="0" flag="1"/>
			<psa03 value="0" flag="1"/>
			<psa10 value="0" flag="1"/>
			<psa30 value="0" flag="1"/>
		</comp>
	</station>
	<station code="DEMR" name="DEMR" netid="KO" source="Bogazici University Kandilli Observatory And Earthquake Research Institute (KOERI)" insttype="" lat="36.2365" lon="29.9056" esm:processing="automatic (Paolucci et al 2011)" esm:quality="bad">
		<comp name="--.HNE" depth="0.0">
			<acc value="0" flag="1"/>
			<vel value="0" flag="1"/>
			<psa03 value="0" flag="1"/>
			<psa10 value="0" flag="1"/>
			<psa30 value="0" flag="1"/>
		</comp>
		<comp name="--.HNN" depth="0.0">
			<acc value="0" flag="1"/>
			<vel value="0" flag="1"/>
			<psa03 value="0" flag="1"/>
			<psa10 value="0" flag="1"/>
			<psa30 value="0" flag="1"/>
		</comp>
		<comp name="--.HNZ" depth="0.0">
			<acc value="0" flag="1"/>
			<vel value="0" flag="1"/>
			<psa03 value="0" flag="1"/>
			<psa10 value="0" flag="1"/>
			<psa30 value="0" flag="1"/>
		</comp>
	</station>
	<station code="DIDI" name="DIDI" netid="KO" source="Bogazici University Kandilli Observatory And Earthquake Research Institute (KOERI)" insttype="" lat="37.3767" lon="27.2398" esm:processing="automatic (Paolucci et al 2011)" esm:quality="bad">
		<comp name="--.HNE" depth="0.0">
			<acc value="0" flag="1"/>
			<vel value="0" flag="1"/>
			<psa03 value="0" flag="1"/>
			<psa10 value="0" flag="1"/>
			<psa30 value="0" flag="1"/>
		</comp>
		<comp name="--.HNN" depth="0.0">
			<acc value="0" flag="1"/>
			<vel value="0" flag="1"/>
			<psa03 value="0" flag="1"/>
			<psa10 value="0" flag="1"/>
			<psa30 value="0" flag="1"/>
		</comp>
		<comp name="--.HNZ" depth="0.0">
			<acc value="0" flag="1"/>
			<vel value="0" flag="1"/>
			<psa03 value="0" flag="1"/>
			<psa10 value="0" flag="1"/>
			<psa30 value="0" flag="1"/>
		</comp>
	</station>
	<station code="FETI" name="FETI" netid="KO" source="Bogazici University Kandilli Observatory And Earthquake Research Institute (KOERI)" insttype="" lat="36.6903" lon="29.096" esm:processing="automatic (Paolucci et al 2011)" esm:quality="bad">
		<comp name="--.HNE" depth="0.0">
			<acc value="0" flag="1"/>
			<vel value="0" flag="1"/>
			<psa03 value="0" flag="1"/>
			<psa10 value="0" flag="1"/>
			<psa30 value="0" flag="1"/>
		</comp>
		<comp name="--.HNN" depth="0.0">
			<acc value="0" flag="1"/>
			<vel value="0" flag="1"/>
			<psa03 value="0" flag="1"/>
			<psa10 value="0" flag="1"/>
			<psa30 value="0" flag="1"/>
		</comp>
		<comp name="--.HNZ" depth="0.0">
			<acc value="0" flag="1"/>
			<vel value="0" flag="1"/>
			<psa03 value="0" flag="1"/>
			<psa10 value="0" flag="1"/>
			<psa30 value="0" flag="1"/>
		</comp>
	</station>
	<station code="KEMT" name="KEMT" netid="KO" source="Bogazici University Kandilli Observatory And Earthquake Research Institute (KOERI)" insttype="" lat="36.6037" lon="30.5558" esm:processing="automatic (Paolucci et al 2011)" esm:quality="bad">
		<comp name="--.HNE" depth="0.0">
			<acc value="0" flag="1"/>
			<vel value="0" flag="1"/>
			<psa03 value="0" flag="1"/>
			<psa10 value="0" flag="1"/>
			<psa30 value="0" flag="1"/>
		</comp>
		<comp name="--.HNN" depth="0.0">
			<acc value="0" flag="1"/>
			<vel value="0" flag="1"/>
			<psa03 value="0" flag="1"/>
			<psa10 value="0" flag="1"/>
			<psa30 value="0" flag="1"/>
		</comp>
		<comp name="--.HNZ" depth="0.0">
			<acc value="0" flag="1"/>
			<vel value="0" flag="1"/>
			<psa03 value="0" flag="1"/>
			<psa10 value="0" flag="1"/>
			<psa30 value="0" flag="1"/>
		</comp>
	</station>
</stationlist>
