<?xml version="1.0" encoding="UTF-8" standalone="yes"?>
<!DOCTYPE earthquake SYSTEM "stationlist.dtd">
<stationlist created="" xmlns="ch.ethz.sed.shakemap.usgs.xml">
  <station code="DKL" name="DKL" netid="KO" insttype="CMG-3ESPC" commtype="DIG" lat="39.0713" lon="26.9053">
    <comp name="--.HHN">
      <acc value="0.0095471911" flag="0"/>
      <vel value="0.0056364223" flag="0"/>
      <psa03 value="0.0147257584" flag="0"/>
      <psa10 value="0.0074191620" flag="0"/>
      <psa30 value="0.0006072734" flag="0"/>
    </comp>
    <comp name="--.HHE">
      <acc value="0.0093607690" flag="0"/>
      <vel value="0.0045994637" flag="0"/>
      <psa03 value="0.0202188560" flag="0"/>
      <psa10 value="0.0045346976" flag="0"/>
      <psa30 value="0.0003617285" flag="0"/>
    </comp>
    <comp name="--.HHZ">
      <acc value="0.0105453637" flag="0"/>
      <vel value="0.0028688366" flag="0"/>
      <psa03 value="0.0165558533" flag="0"/>
      <psa10 value="0.0029257869" flag="0"/>
      <psa30 value="0.0004088991" flag="0"/>
    </comp>
  </station>
  <station code="GEDZ" name="GEDZ" netid="KO" insttype="CMG-6T" commtype="DIG" lat="39.0445" lon="29.4105">
    <comp name="--.HHE">
      <acc value="0.0346076501" flag="0"/>
      <vel value="0.0187562326" flag="0"/>
      <psa03 value="0.0759305742" flag="0"/>
      <psa10 value="0.0355494488" flag="0"/>
      <psa30 value="0.0012020496" flag="0"/>
    </comp>
    <comp name="--.HHZ">
      <acc value="0.0163923101" flag="0"/>
      <vel value="0.0054960657" flag="0"/>
      <psa03 value="0.0224649061" flag="0"/>
      <psa10 value="0.0118232178" flag="0"/>
      <psa30 value="0.0005102110" flag="0"/>
    </comp>
    <comp name="--.HHN">
      <acc value="0.0369323233" flag="0"/>
      <vel value="0.0307199435" flag="0"/>
      <psa03 value="0.0912522830" flag="0"/>
      <psa10 value="0.0424382440" flag="0"/>
      <psa30 value="0.0021503397" flag="0"/>
    </comp>
  </station>
  <station code="GOMA" name="GOMA" netid="KO" insttype="CMG-5T" commtype="DIG" lat="38.7077" lon="27.9175">
    <comp name="--.HNE">
      <acc value="0.0540289501" flag="0"/>
      <vel value="0.0202352395" flag="0"/>
      <psa03 value="0.1259407774" flag="0"/>
      <psa10 value="0.0097809139" flag="0"/>
      <psa30 value="0.0008936384" flag="0"/>
    </comp>
    <comp name="--.HNZ">
      <acc value="0.0549616716" flag="0"/>
      <vel value="0.0191809487" flag="0"/>
      <psa03 value="0.0566357792" flag="0"/>
      <psa10 value="0.0062888425" flag="0"/>
      <psa30 value="0.0006006396" flag="0"/>
    </comp>
    <comp name="--.HNN">
      <acc value="0.0446988852" flag="0"/>
      <vel value="0.0287390246" flag="0"/>
      <psa03 value="0.1048114154" flag="0"/>
      <psa10 value="0.0180113661" flag="0"/>
      <psa30 value="0.0013881893" flag="0"/>
    </comp>
  </station>
  <station code="GONE" name="GONE" netid="KO" insttype="CMG-5T" commtype="DIG" lat="40.0466" lon="27.686">
    <comp name="--.HNZ">
      <acc value="0.0192582776" flag="0"/>
      <vel value="0.0064178991" flag="0"/>
      <psa03 value="0.0295226564" flag="0"/>
      <psa10 value="0.0044824657" flag="0"/>
      <psa30 value="0.0005187942" flag="0"/>
    </comp>
    <comp name="--.HNE">
      <acc value="0.0259278551" flag="0"/>
      <vel value="0.0125109712" flag="0"/>
      <psa03 value="0.0712292519" flag="0"/>
      <psa10 value="0.0118472911" flag="0"/>
      <psa30 value="0.0007274904" flag="0"/>
    </comp>
    <comp name="--.HNN">
      <acc value="0.0578710082" flag="0"/>
      <vel value="0.0321927179" flag="0"/>
      <psa03 value="0.1311150318" flag="0"/>
      <psa10 value="0.0133307889" flag="0"/>
      <psa30 value="0.0012457284" flag="0"/>
    </comp>
  </station>
  <station code="KCTX" name="KCTX" netid="KO" insttype="CMG-3ESP" commtype="DIG" lat="40.2626" lon="28.3353">
    <comp name="--.HHZ">
      <acc value="0.0183109820" flag="0"/>
      <vel value="0.0062574322" flag="0"/>
      <psa03 value="0.0606232058" flag="0"/>
      <psa10 value="0.0071305243" flag="0"/>
      <psa30 value="0.0004474905" flag="0"/>
    </comp>
    <comp name="--.HHE">
      <acc value="0.0217121764" flag="0"/>
      <vel value="0.0128089123" flag="0"/>
      <psa03 value="0.0623545268" flag="0"/>
      <psa10 value="0.0132783338" flag="0"/>
      <psa30 value="0.0007397872" flag="0"/>
    </comp>
    <comp name="--.HHN">
      <acc value="0.0300580974" flag="0"/>
      <vel value="0.0124454414" flag="0"/>
      <psa03 value="0.1103371850" flag="0"/>
      <psa10 value="0.0080787196" flag="0"/>
      <psa30 value="0.0004794681" flag="0"/>
    </comp>
  </station>
  <station code="ORLT" name="ORLT" netid="KO" insttype="CMG-5T" commtype="DIG" lat="40.0452" lon="28.8914">
    <comp name="--.HNN">
      <acc value="0.0386294541" flag="0"/>
      <vel value="0.0199760888" flag="0"/>
      <psa03 value="0.1164970841" flag="0"/>
      <psa10 value="0.0256387216" flag="0"/>
      <psa30 value="0.0011120002" flag="0"/>
    </comp>
    <comp name="--.HNE">
      <acc value="0.0389308132" flag="0"/>
      <vel value="0.0180657689" flag="0"/>
      <psa03 value="0.1058570705" flag="0"/>
      <psa10 value="0.0197206097" flag="0"/>
      <psa30 value="0.0009343383" flag="0"/>
    </comp>
    <comp name="--.HNZ">
      <acc value="0.0184362131" flag="0"/>
      <vel value="0.0096637282" flag="0"/>
      <psa03 value="0.0363857371" flag="0"/>
      <psa10 value="0.0127968156" flag="0"/>
      <psa30 value="0.0007749889" flag="0"/>
    </comp>
  </station>
  <station code="SMAA" name="SMAA" netid="KO" insttype="CMG-5T" commtype="DIG" lat="39.1005" lon="28.9805">
    <comp name="--.HNN">
      <acc value="0.0579030307" flag="0"/>
      <vel value="0.0370040830" flag="0"/>
      <psa03 value="0.0786914293" flag="0"/>
      <psa10 value="0.0425068403" flag="0"/>
      <psa30 value="0.0029059454" flag="0"/>
    </comp>
    <comp name="--.HNE">
      <acc value="0.0598394488" flag="0"/>
      <vel value="0.0448358882" flag="0"/>
      <psa03 value="0.0935830120" flag="0"/>
      <psa10 value="0.0712214613" flag="0"/>
      <psa30 value="0.0031282345" flag="0"/>
    </comp>
    <comp name="--.HNZ">
      <acc value="0.0227997286" flag="0"/>
      <vel value="0.0188451618" flag="0"/>
      <psa03 value="0.0278548972" flag="0"/>
      <psa10 value="0.0369864055" flag="0"/>
      <psa30 value="0.0013785388" flag="0"/>
    </comp>
  </station>
  <station code="TVSB" name="TVSB" netid="KO" insttype="CMG-3T" commtype="DIG" lat="39.4497" lon="29.4615">
    <comp name="--.HHE">
      <acc value="0.0195914044" flag="0"/>
      <vel value="0.0147041130" flag="0"/>
      <psa03 value="0.0331756836" flag="0"/>
      <psa10 value="0.0135225662" flag="0"/>
      <psa30 value="0.0007662920" flag="0"/>
    </comp>
    <comp name="--.HHN">
      <acc value="0.0159514390" flag="0"/>
      <vel value="0.0070609819" flag="0"/>
      <psa03 value="0.0229013376" flag="0"/>
      <psa10 value="0.0065104461" flag="0"/>
      <psa30 value="0.0004819931" flag="0"/>
    </comp>
    <comp name="--.HHZ">
      <acc value="0.0094269576" flag="0"/>
      <vel value="0.0034420790" flag="0"/>
      <psa03 value="0.0094081126" flag="0"/>
      <psa10 value="0.0041492927" flag="0"/>
      <psa30 value="0.0002985454" flag="0"/>
    </comp>
  </station>
  <station code="YAYO" name="YAYO" netid="KO" insttype="CMG-6T" commtype="DIG" lat="39.6113" lon="27.0726">
    <comp name="--.HHZ">
      <acc value="0.0186207267" flag="0"/>
      <vel value="0.0109198078" flag="0"/>
      <psa03 value="0.0357196363" flag="0"/>
      <psa10 value="0.0039325398" flag="0"/>
      <psa30 value="0.0003726148" flag="0"/>
    </comp>
    <comp name="--.HHN">
      <acc value="0.0155632045" flag="0"/>
      <vel value="0.0073926601" flag="0"/>
      <psa03 value="0.0407395742" flag="0"/>
      <psa10 value="0.0076737712" flag="0"/>
      <psa30 value="0.0004917322" flag="0"/>
    </comp>
    <comp name="--.HHE">
      <acc value="0.0220789282" flag="0"/>
      <vel value="0.0127483422" flag="0"/>
      <psa03 value="0.0408322782" flag="0"/>
      <psa10 value="0.0088605067" flag="0"/>
      <psa30 value="0.0007126195" flag="0"/>
    </comp>
  </station>
</stationlist>
