<?xml version="1.0" encoding="UTF-8" standalone="yes"?>
<!DOCTYPE earthquake SYSTEM "stationlist.dtd">
<stationlist created="" xmlns="ch.ethz.sed.shakemap.usgs.xml">
  <station code="AKS" name="AKS" netid="KO" insttype="CMG-5T" commtype="DIG" lat="38.8785" lon="27.8129">
    <comp name="--.HNN">
      <acc value="0.1653199974" flag="0"/>
      <vel value="0.0380043713" flag="0"/>
      <psa03 value="0.1491543356" flag="0"/>
      <psa10 value="0.0151298559" flag="0"/>
      <psa30 value="0.0021450944" flag="0"/>
    </comp>
    <comp name="--.HNZ">
      <acc value="0.0999247764" flag="0"/>
      <vel value="0.0153761273" flag="0"/>
      <psa03 value="0.0591118086" flag="0"/>
      <psa10 value="0.0047980184" flag="0"/>
      <psa30 value="0.0011147950" flag="0"/>
    </comp>
    <comp name="--.HNE">
      <acc value="0.1109473772" flag="0"/>
      <vel value="0.0246705011" flag="0"/>
      <psa03 value="0.1149622586" flag="0"/>
      <psa10 value="0.0148123960" flag="0"/>
      <psa30 value="0.0013511808" flag="0"/>
    </comp>
  </station>
  <station code="BALB" name="BALB" netid="KO" insttype="CMG-5T" commtype="DIG" lat="39.6507" lon="27.8642">
    <comp name="--.HNE">
      <acc value="0.0679307556" flag="0"/>
      <vel value="0.0162540022" flag="0"/>
      <psa03 value="0.1072397020" flag="0"/>
      <psa10 value="0.0175151486" flag="0"/>
      <psa30 value="0.0016761617" flag="0"/>
    </comp>
    <comp name="--.HNN">
      <acc value="0.0522786247" flag="0"/>
      <vel value="0.0187923437" flag="0"/>
      <psa03 value="0.1003514740" flag="0"/>
      <psa10 value="0.0190954215" flag="0"/>
      <psa30 value="0.0012923995" flag="0"/>
    </comp>
    <comp name="--.HNZ">
      <acc value="0.0642858357" flag="0"/>
      <vel value="0.0140127728" flag="0"/>
      <psa03 value="0.0552851093" flag="0"/>
      <psa10 value="0.0125401706" flag="0"/>
      <psa30 value="0.0012060352" flag="0"/>
    </comp>
  </station>
  <station code="DKL" name="DKL" netid="KO" insttype="CMG-3ESPC" commtype="DIG" lat="39.0713" lon="26.9053">
    <comp name="--.HHZ">
      <acc value="0.0084826778" flag="0"/>
      <vel value="0.0038055331" flag="0"/>
      <psa03 value="0.0180412509" flag="0"/>
      <psa10 value="0.0030791726" flag="0"/>
      <psa30 value="0.0007099834" flag="0"/>
    </comp>
  </station>
  <station code="DST" name="DST" netid="KO" insttype="CMG-5T" commtype="DIG" lat="39.6041" lon="28.6267">
    <comp name="--.HNE">
      <acc value="0.0590522764" flag="0"/>
      <vel value="0.0156042449" flag="0"/>
      <psa03 value="0.0892125572" flag="0"/>
      <psa10 value="0.0070921189" flag="0"/>
      <psa30 value="0.0012192542" flag="0"/>
    </comp>
    <comp name="--.HNN">
      <acc value="0.0596259390" flag="0"/>
      <vel value="0.0140599799" flag="0"/>
      <psa03 value="0.0725245990" flag="0"/>
      <psa10 value="0.0074922369" flag="0"/>
      <psa30 value="0.0014439272" flag="0"/>
    </comp>
    <comp name="--.HNZ">
      <acc value="0.0517026162" flag="0"/>
      <vel value="0.0132191599" flag="0"/>
      <psa03 value="0.0921272496" flag="0"/>
      <psa10 value="0.0083015838" flag="0"/>
      <psa30 value="0.0010100812" flag="0"/>
    </comp>
  </station>
  <station code="GEDZ" name="GEDZ" netid="KO" insttype="CMG-6T" commtype="DIG" lat="39.0445" lon="29.4105">
    <comp name="--.HHE">
      <acc value="0.0494817621" flag="0"/>
      <vel value="0.0220428512" flag="0"/>
      <psa03 value="0.1606661675" flag="0"/>
      <psa10 value="0.0220880463" flag="0"/>
      <psa30 value="0.0013855859" flag="0"/>
    </comp>
    <comp name="--.HHZ">
      <acc value="0.0227715220" flag="0"/>
      <vel value="0.0089889318" flag="0"/>
      <psa03 value="0.0411159704" flag="0"/>
      <psa10 value="0.0091887381" flag="0"/>
      <psa30 value="0.0006150672" flag="0"/>
    </comp>
    <comp name="--.HHN">
      <acc value="0.0521014318" flag="0"/>
      <vel value="0.0212319732" flag="0"/>
      <psa03 value="0.1436872260" flag="0"/>
      <psa10 value="0.0310234104" flag="0"/>
      <psa30 value="0.0019614459" flag="0"/>
    </comp>
  </station>
  <station code="GOMA" name="GOMA" netid="KO" insttype="CMG-5T" commtype="DIG" lat="38.7077" lon="27.9175">
    <comp name="--.HNN">
      <acc value="0.0857145556" flag="0"/>
      <vel value="0.0289619019" flag="0"/>
      <psa03 value="0.1771498626" flag="0"/>
      <psa10 value="0.0113110269" flag="0"/>
      <psa30 value="0.0014930804" flag="0"/>
    </comp>
    <comp name="--.HNE">
      <acc value="0.0997213198" flag="0"/>
      <vel value="0.0299738439" flag="0"/>
      <psa03 value="0.1110596254" flag="0"/>
      <psa10 value="0.0085280361" flag="0"/>
      <psa30 value="0.0010076846" flag="0"/>
    </comp>
    <comp name="--.HNZ">
      <acc value="0.0975734814" flag="0"/>
      <vel value="0.0248436404" flag="0"/>
      <psa03 value="0.0674204023" flag="0"/>
      <psa10 value="0.0051039441" flag="0"/>
      <psa30 value="0.0010154394" flag="0"/>
    </comp>
  </station>
  <station code="GONE" name="GONE" netid="KO" insttype="CMG-5T" commtype="DIG" lat="40.0466" lon="27.686">
    <comp name="--.HNZ">
      <acc value="0.0203326730" flag="0"/>
      <vel value="0.0058966463" flag="0"/>
      <psa03 value="0.0315216963" flag="0"/>
      <psa10 value="0.0049827078" flag="0"/>
      <psa30 value="0.0005449486" flag="0"/>
    </comp>
    <comp name="--.HNN">
      <acc value="0.0877294510" flag="0"/>
      <vel value="0.0295887568" flag="0"/>
      <psa03 value="0.1181937491" flag="0"/>
      <psa10 value="0.0197823824" flag="0"/>
      <psa30 value="0.0013829112" flag="0"/>
    </comp>
    <comp name="--.HNE">
      <acc value="0.0307554142" flag="0"/>
      <vel value="0.0121593117" flag="0"/>
      <psa03 value="0.0564147422" flag="0"/>
      <psa10 value="0.0132198549" flag="0"/>
      <psa30 value="0.0009376665" flag="0"/>
    </comp>
  </station>
  <station code="GORD" name="GORD" netid="KO" insttype="CMG-5T" commtype="DIG" lat="38.9088" lon="28.1769">
    <comp name="--.HNZ">
      <acc value="0.1040361981" flag="0"/>
      <vel value="0.0312421628" flag="0"/>
      <psa03 value="0.1107969442" flag="0"/>
      <psa10 value="0.0186197334" flag="0"/>
      <psa30 value="0.0024053996" flag="0"/>
    </comp>
    <comp name="--.HNE">
      <acc value="0.0694044172" flag="0"/>
      <vel value="0.0371217538" flag="0"/>
      <psa03 value="0.1108849698" flag="0"/>
      <psa10 value="0.0441000027" flag="0"/>
      <psa30 value="0.0030819720" flag="0"/>
    </comp>
    <comp name="--.HNN">
      <acc value="0.0883943174" flag="0"/>
      <vel value="0.0358177712" flag="0"/>
      <psa03 value="0.1293614151" flag="0"/>
      <psa10 value="0.0557187459" flag="0"/>
      <psa30 value="0.0038162713" flag="0"/>
    </comp>
  </station>
  <station code="KCTX" name="KCTX" netid="KO" insttype="CMG-3ESP" commtype="DIG" lat="40.2626" lon="28.3353">
    <comp name="--.HHE">
      <acc value="0.0186811739" flag="0"/>
      <vel value="0.0089243756" flag="0"/>
      <psa03 value="0.0245069255" flag="0"/>
      <psa10 value="0.0146182789" flag="0"/>
      <psa30 value="0.0011720734" flag="0"/>
    </comp>
    <comp name="--.HHN">
      <acc value="0.0374760741" flag="0"/>
      <vel value="0.0085329447" flag="0"/>
      <psa03 value="0.0404675229" flag="0"/>
      <psa10 value="0.0079183276" flag="0"/>
      <psa30 value="0.0004968257" flag="0"/>
    </comp>
    <comp name="--.HHZ">
      <acc value="0.0246558394" flag="0"/>
      <vel value="0.0058256267" flag="0"/>
      <psa03 value="0.0256897485" flag="0"/>
      <psa10 value="0.0048126954" flag="0"/>
      <psa30 value="0.0004875850" flag="0"/>
    </comp>
  </station>
  <station code="KULA" name="KULA" netid="KO" insttype="CMG-3T" commtype="DIG" lat="38.5145" lon="28.6607">
    <comp name="--.HHZ">
      <acc value="0.0343943858" flag="0"/>
      <vel value="0.0069190322" flag="0"/>
      <psa03 value="0.0252789205" flag="0"/>
      <psa10 value="0.0053611902" flag="0"/>
      <psa30 value="0.0003734281" flag="0"/>
    </comp>
  </station>
  <station code="ORLT" name="ORLT" netid="KO" insttype="CMG-5T" commtype="DIG" lat="40.0452" lon="28.8914">
    <comp name="--.HNE">
      <acc value="0.0499475760" flag="0"/>
      <vel value="0.0201064617" flag="0"/>
      <psa03 value="0.1298078779" flag="0"/>
      <psa10 value="0.0188042546" flag="0"/>
      <psa30 value="0.0013092111" flag="0"/>
    </comp>
    <comp name="--.HNN">
      <acc value="0.0622710134" flag="0"/>
      <vel value="0.0263822622" flag="0"/>
      <psa03 value="0.2099311957" flag="0"/>
      <psa10 value="0.0260755637" flag="0"/>
      <psa30 value="0.0018689126" flag="0"/>
    </comp>
    <comp name="--.HNZ">
      <acc value="0.0205334709" flag="0"/>
      <vel value="0.0124906378" flag="0"/>
      <psa03 value="0.0460591634" flag="0"/>
      <psa10 value="0.0188432347" flag="0"/>
      <psa30 value="0.0007607799" flag="0"/>
    </comp>
  </station>
  <station code="SIMA" name="SIMA" netid="KO" insttype="CMG-6T" commtype="DIG" lat="39.0833" lon="28.9825">
    <comp name="--.HHN">
      <acc value="0.0466254095" flag="0"/>
      <vel value="0.0129646984" flag="0"/>
      <psa03 value="0.1102367397" flag="0"/>
      <psa10 value="0.0046408571" flag="0"/>
      <psa30 value="0.0008138241" flag="0"/>
    </comp>
    <comp name="--.HHE">
      <acc value="0.0888265627" flag="0"/>
      <vel value="0.0170105709" flag="0"/>
      <psa03 value="0.0848483182" flag="0"/>
      <psa10 value="0.0056937277" flag="0"/>
      <psa30 value="0.0005437273" flag="0"/>
    </comp>
    <comp name="--.HHZ">
      <acc value="0.0439205739" flag="0"/>
      <vel value="0.0070404714" flag="0"/>
      <psa03 value="0.0351605237" flag="0"/>
      <psa10 value="0.0032392826" flag="0"/>
      <psa30 value="0.0003501453" flag="0"/>
    </comp>
  </station>
  <station code="SMAA" name="SMAA" netid="KO" insttype="CMG-5T" commtype="DIG" lat="39.1005" lon="28.9805">
    <comp name="--.HNE">
      <acc value="0.0591404721" flag="0"/>
      <vel value="0.0274293101" flag="0"/>
      <psa03 value="0.1677391544" flag="0"/>
      <psa10 value="0.0386741048" flag="0"/>
      <psa30 value="0.0034075949" flag="0"/>
    </comp>
    <comp name="--.HNZ">
      <acc value="0.0371374324" flag="0"/>
      <vel value="0.0122983612" flag="0"/>
      <psa03 value="0.0297055984" flag="0"/>
      <psa10 value="0.0193397559" flag="0"/>
      <psa30 value="0.0012267533" flag="0"/>
    </comp>
    <comp name="--.HNN">
      <acc value="0.0700931065" flag="0"/>
      <vel value="0.0262873693" flag="0"/>
      <psa03 value="0.1653528074" flag="0"/>
      <psa10 value="0.0246108886" flag="0"/>
      <psa30 value="0.0024443344" flag="0"/>
    </comp>
  </station>
  <station code="SOMA" name="SOMA" netid="KO" insttype="CMG-5T" commtype="DIG" lat="39.1564" lon="27.5341">
    <comp name="--.HNN">
      <acc value="0.0726065926" flag="0"/>
      <vel value="0.0283044134" flag="0"/>
      <psa03 value="0.1041254917" flag="0"/>
      <psa10 value="0.0180272810" flag="0"/>
      <psa30 value="0.0015709344" flag="0"/>
    </comp>
    <comp name="--.HNE">
      <acc value="0.0788235202" flag="0"/>
      <vel value="0.0220740350" flag="0"/>
      <psa03 value="0.1171557712" flag="0"/>
      <psa10 value="0.0145007774" flag="0"/>
      <psa30 value="0.0009763555" flag="0"/>
    </comp>
    <comp name="--.HNZ">
      <acc value="0.0645094131" flag="0"/>
      <vel value="0.0175788888" flag="0"/>
      <psa03 value="0.0504306748" flag="0"/>
      <psa10 value="0.0115983192" flag="0"/>
      <psa30 value="0.0007351633" flag="0"/>
    </comp>
  </station>
  <station code="SUSR" name="SUSR" netid="KO" insttype="CMG-5T" commtype="DIG" lat="39.9627" lon="28.0835">
    <comp name="--.HNE">
      <acc value="0.0496430037" flag="0"/>
      <vel value="0.0107229545" flag="0"/>
      <psa03 value="0.0577680755" flag="0"/>
      <psa10 value="0.0045136135" flag="0"/>
      <psa30 value="0.0004002028" flag="0"/>
    </comp>
    <comp name="--.HNN">
      <acc value="0.0523623530" flag="0"/>
      <vel value="0.0119442279" flag="0"/>
      <psa03 value="0.0588404747" flag="0"/>
      <psa10 value="0.0028409444" flag="0"/>
      <psa30 value="0.0005119629" flag="0"/>
    </comp>
    <comp name="--.HNZ">
      <acc value="0.0352872717" flag="0"/>
      <vel value="0.0069156892" flag="0"/>
      <psa03 value="0.0280331860" flag="0"/>
      <psa10 value="0.0025226212" flag="0"/>
      <psa30 value="0.0003187756" flag="0"/>
    </comp>
  </station>
  <station code="TVSB" name="TVSB" netid="KO" insttype="CMG-3T" commtype="DIG" lat="39.4497" lon="29.4615">
    <comp name="--.HHZ">
      <acc value="0.0175814895" flag="0"/>
      <vel value="0.0057842039" flag="0"/>
      <psa03 value="0.0412301356" flag="0"/>
      <psa10 value="0.0045450411" flag="0"/>
      <psa30 value="0.0005006406" flag="0"/>
    </comp>
    <comp name="--.HHN">
      <acc value="0.0367448800" flag="0"/>
      <vel value="0.0151864546" flag="0"/>
      <psa03 value="0.1271118467" flag="0"/>
      <psa10 value="0.0086585154" flag="0"/>
      <psa30 value="0.0007005233" flag="0"/>
    </comp>
    <comp name="--.HHE">
      <acc value="0.0422559449" flag="0"/>
      <vel value="0.0192677816" flag="0"/>
      <psa03 value="0.1562025042" flag="0"/>
      <psa10 value="0.0083865122" flag="0"/>
      <psa30 value="0.0006008673" flag="0"/>
    </comp>
  </station>
  <station code="YAYO" name="YAYO" netid="KO" insttype="CMG-6T" commtype="DIG" lat="39.6113" lon="27.0726">
    <comp name="--.HHE">
      <acc value="0.0157587272" flag="0"/>
      <vel value="0.0140243057" flag="0"/>
      <psa03 value="0.0383681137" flag="0"/>
      <psa10 value="0.0077139234" flag="0"/>
      <psa30 value="0.0007340260" flag="0"/>
    </comp>
    <comp name="--.HHZ">
      <acc value="0.0236200801" flag="0"/>
      <vel value="0.0131835946" flag="0"/>
      <psa03 value="0.0543901125" flag="0"/>
      <psa10 value="0.0041196881" flag="0"/>
      <psa30 value="0.0003378113" flag="0"/>
    </comp>
    <comp name="--.HHN">
      <acc value="0.0143596052" flag="0"/>
      <vel value="0.0080640170" flag="0"/>
      <psa03 value="0.0454644792" flag="0"/>
      <psa10 value="0.0058037021" flag="0"/>
      <psa30 value="0.0004210229" flag="0"/>
    </comp>
  </station>
  <station code="YENI" name="YENI" netid="KO" insttype="CMG-5T" commtype="DIG" lat="39.9364" lon="27.2422">
    <comp name="--.HNE">
      <acc value="0.0462922361" flag="0"/>
      <vel value="0.0114372633" flag="0"/>
      <psa03 value="0.0607979874" flag="0"/>
      <psa10 value="0.0092808718" flag="0"/>
      <psa30 value="0.0005356619" flag="0"/>
    </comp>
    <comp name="--.HNN">
      <acc value="0.0633131085" flag="0"/>
      <vel value="0.0185673235" flag="0"/>
      <psa03 value="0.0943746128" flag="0"/>
      <psa10 value="0.0133896936" flag="0"/>
      <psa30 value="0.0007049936" flag="0"/>
    </comp>
    <comp name="--.HNZ">
      <acc value="0.0197853338" flag="0"/>
      <vel value="0.0055070970" flag="0"/>
      <psa03 value="0.0200266312" flag="0"/>
      <psa10 value="0.0041882688" flag="0"/>
      <psa30 value="0.0003325109" flag="0"/>
    </comp>
  </station>
</stationlist>
