<?xml version="1.0" encoding="UTF-8" standalone="yes"?>
<!DOCTYPE earthquake SYSTEM "stationlist.dtd">
<stationlist created="" xmlns="ch.ethz.sed.shakemap.usgs.xml">
  <station code="KTRS" name="KTRS" netid="HC" insttype="60" lat="36.9261" lon="22.136">
    <comp name="--.HHE">
      <acc value="0.0458427207" flag="0"/>
      <vel value="0.0150651997" flag="0"/>
      <psa03 value="0.0608969784" flag="0"/>
      <psa10 value="0.0144379972" flag="0"/>
      <psa30 value="0.0011519713" flag="0"/>
    </comp>
    <comp name="--.HHN">
      <acc value="0.0349580631" flag="0"/>
      <vel value="0.0152537573" flag="0"/>
      <psa03 value="0.0624483348" flag="0"/>
      <psa10 value="0.0125172869" flag="0"/>
      <psa30 value="0.0009675482" flag="0"/>
    </comp>
    <comp name="--.HHZ">
      <acc value="0.0355338921" flag="0"/>
      <vel value="0.0096063245" flag="0"/>
      <psa03 value="0.0376712410" flag="0"/>
      <psa10 value="0.0083392816" flag="0"/>
      <psa30 value="0.0009120546" flag="0"/>
    </comp>
  </station>
  <station code="ITM" name="ITM" netid="HL" insttype="DR24" lat="37.1787" lon="21.9252">
    <comp name="--.HHE">
      <acc value="0.0374415987" flag="0"/>
      <vel value="0.0159127991" flag="0"/>
      <psa03 value="0.0933233166" flag="0"/>
      <psa10 value="0.0090899495" flag="0"/>
      <psa30 value="0.0008595941" flag="0"/>
    </comp>
    <comp name="--.HHZ">
      <acc value="0.0233518128" flag="0"/>
      <vel value="0.0150910097" flag="0"/>
      <psa03 value="0.0738228471" flag="0"/>
      <psa10 value="0.0148960676" flag="0"/>
      <psa30 value="0.0012215216" flag="0"/>
    </comp>
    <comp name="--.HHN">
      <acc value="0.0333085497" flag="0"/>
      <vel value="0.0178783838" flag="0"/>
      <psa03 value="0.0767775031" flag="0"/>
      <psa10 value="0.0115362060" flag="0"/>
      <psa30 value="0.0012983131" flag="0"/>
    </comp>
  </station>
  <station code="AMT" name="AMT" netid="HP" insttype="CMG-3T," lat="37.5324" lon="21.7089">
    <comp name="00.HHZ">
      <acc value="0.0203792984" flag="0"/>
      <vel value="0.0103319596" flag="0"/>
      <psa03 value="0.0580953077" flag="0"/>
      <psa10 value="0.0112855209" flag="0"/>
      <psa30 value="0.0004998658" flag="0"/>
    </comp>
    <comp name="00.HHN">
      <acc value="0.0274243876" flag="0"/>
      <vel value="0.0159769473" flag="0"/>
      <psa03 value="0.0823686618" flag="0"/>
      <psa10 value="0.0217826062" flag="0"/>
      <psa30 value="0.0007418984" flag="0"/>
    </comp>
    <comp name="00.HHE">
      <acc value="0.0291686937" flag="0"/>
      <vel value="0.0155138123" flag="0"/>
      <psa03 value="0.0982607409" flag="0"/>
      <psa10 value="0.0197415947" flag="0"/>
      <psa30 value="0.0007712570" flag="0"/>
    </comp>
  </station>
  <station code="PYL" name="PYL" netid="HP" insttype="" lat="0" lon="0">
    <comp name="--.HHE">
      <acc value="0.1362819265" flag="0"/>
      <vel value="0.0879946192" flag="0"/>
      <psa03 value="0.4218168849" flag="0"/>
      <psa10 value="0.0479063867" flag="0"/>
      <psa30 value="0.0033839796" flag="0"/>
    </comp>
  </station>
  <station code="VALY" name="VALY" netid="HP" insttype="DC_100" lat="37.1641" lon="21.9836">
    <comp name="--.HNE">
      <acc value="0.0293771414" flag="0"/>
      <vel value="0.0238023313" flag="0"/>
      <psa03 value="0.1105876478" flag="0"/>
      <psa10 value="0.0202782435" flag="0"/>
      <psa30 value="0.0012810039" flag="0"/>
    </comp>
    <comp name="--.HNN">
      <acc value="0.0325098926" flag="0"/>
      <vel value="0.0208481728" flag="0"/>
      <psa03 value="0.1256300863" flag="0"/>
      <psa10 value="0.0190469414" flag="0"/>
      <psa30 value="0.0014032441" flag="0"/>
    </comp>
    <comp name="--.HNZ">
      <acc value="0.0157517933" flag="0"/>
      <vel value="0.0087034820" flag="0"/>
      <psa03 value="0.0311852693" flag="0"/>
      <psa10 value="0.0125638250" flag="0"/>
      <psa30 value="0.0006736861" flag="0"/>
    </comp>
  </station>
  <station code="VLX" name="VLX" netid="HP" insttype="40," lat="37.3703" lon="22.3793">
    <comp name="--.HHE">
      <acc value="0.0139764008" flag="0"/>
      <vel value="0.0110002375" flag="0"/>
      <psa03 value="0.0457268021" flag="0"/>
      <psa10 value="0.0170111375" flag="0"/>
      <psa30 value="0.0007440828" flag="0"/>
    </comp>
    <comp name="--.HHN">
      <acc value="0.0127485214" flag="0"/>
      <vel value="0.0096370251" flag="0"/>
      <psa03 value="0.0395980306" flag="0"/>
      <psa10 value="0.0157841808" flag="0"/>
      <psa30 value="0.0006526010" flag="0"/>
    </comp>
    <comp name="--.HHZ">
      <acc value="0.0068662539" flag="0"/>
      <vel value="0.0050229720" flag="0"/>
      <psa03 value="0.0253097178" flag="0"/>
      <psa10 value="0.0065879488" flag="0"/>
      <psa30 value="0.0006789175" flag="0"/>
    </comp>
  </station>
</stationlist>
