<stationlist created="1778138725">
	<station code="MALA" name="MALA" netid="CL" source="Corinth Riff Laboratory (CRLNET)" insttype="" lat="38.39341" lon="21.87263">
		<comp name="01.HNE" depth="0.0">
			<acc value="0.00882171947914045" flag="0"/>
			<vel value="0.012446871374042" flag="0"/>
			<psa03 value="0.0147980467042013" flag="0"/>
			<psa10 value="0.0197092918938743" flag="0"/>
			<psa30 value="0.00160427658794962" flag="0"/>
		</comp>
		<comp name="01.HNN" depth="0.0">
			<acc value="0.00701723048987142" flag="0"/>
			<vel value="0.00596140523545534" flag="0"/>
			<psa03 value="0.00981112519932918" flag="0"/>
			<psa10 value="0.0108440927429166" flag="0"/>
			<psa30 value="0.00121509768175582" flag="0"/>
		</comp>
		<comp name="01.HNZ" depth="0.0">
			<acc value="0.00469723818456697" flag="0"/>
			<vel value="0.00639806561228183" flag="0"/>
			<psa03 value="0.0049654858401204" flag="0"/>
			<psa10 value="0.00333196330433973" flag="0"/>
			<psa30 value="0.000901084900783802" flag="0"/>
		</comp>
	</station>
	<station code="ROD3" name="ROD3" netid="CL" source="Corinth Riff Laboratory (CRLNET)" insttype="" lat="38.30811" lon="21.89204">
		<comp name="00.HNE" depth="0.0">
			<acc value="0.0080488579696505" flag="0"/>
			<vel value="0.004679503903596" flag="0"/>
			<psa03 value="0.0292346319633782" flag="0"/>
			<psa10 value="0.00778552043999986" flag="0"/>
			<psa30 value="0.000497857824386112" flag="0"/>
		</comp>
		<comp name="00.HNN" depth="0.0">
			<acc value="0.00970785475811843" flag="0"/>
			<vel value="0.00426808721075138" flag="0"/>
			<psa03 value="0.0240501322657181" flag="0"/>
			<psa10 value="0.00682792591031794" flag="0"/>
			<psa30 value="0.000667013613461448" flag="0"/>
		</comp>
		<comp name="00.HNZ" depth="0.0">
			<acc value="0.00392583571851753" flag="0"/>
			<vel value="0.00224978322270673" flag="0"/>
			<psa03 value="0.00968630247731173" flag="0"/>
			<psa10 value="0.00371423620616847" flag="0"/>
			<psa30 value="0.000386985010857821" flag="0"/>
		</comp>
	</station>
	<station code="AIGS" name="AIGS" netid="HA" source="Hellenic Seismological Network, University of Athens, Seismological Laboratory (HA)" insttype="" lat="38.25001" lon="22.0878">
		<comp name="--.HNE" depth="0.0">
			<acc value="0.0180116262510086" flag="0"/>
			<vel value="0.00823278366899414" flag="0"/>
			<psa03 value="0.0175885023915296" flag="0"/>
			<psa10 value="0.00882397923283332" flag="0"/>
			<psa30 value="0.00323453448036655" flag="0"/>
		</comp>
		<comp name="--.HNN" depth="0.0">
			<acc value="0.0185512422310794" flag="0"/>
			<vel value="0.0080412663506526" flag="0"/>
			<psa03 value="0.018449297696247" flag="0"/>
			<psa10 value="0.00842709137846447" flag="0"/>
			<psa30 value="0.00308118682183867" flag="0"/>
		</comp>
		<comp name="--.HNZ" depth="0.0">
			<acc value="0.0190083072895021" flag="0"/>
			<vel value="0.00833448540761257" flag="0"/>
			<psa03 value="0.0173671231429204" flag="0"/>
			<psa10 value="0.00848994179196377" flag="0"/>
			<psa30 value="0.00340418405215216" flag="0"/>
		</comp>
	</station>
	<station code="CORS" name="CORS" netid="HA" source="Hellenic Seismological Network, University of Athens, Seismological Laboratory (HA)" insttype="" lat="38.2562" lon="22.0748">
		<comp name="00.HNE" depth="0.0">
			<acc value="0.00916671898676612" flag="0"/>
			<vel value="0.00540030930627643" flag="0"/>
			<psa03 value="0.0122636079767652" flag="0"/>
			<psa10 value="0.0131613384365618" flag="0"/>
			<psa30 value="0.00076229648798371" flag="0"/>
		</comp>
		<comp name="00.HNN" depth="0.0">
			<acc value="0.00624679012900847" flag="0"/>
			<vel value="0.00520338599284749" flag="0"/>
			<psa03 value="0.0170845888014006" flag="0"/>
			<psa10 value="0.0114453541360445" flag="0"/>
			<psa30 value="0.000848001488437055" flag="0"/>
		</comp>
		<comp name="00.HNZ" depth="0.0">
			<acc value="0.0109190035234161" flag="0"/>
			<vel value="0.00263557687849658" flag="0"/>
			<psa03 value="0.00958436147939438" flag="0"/>
			<psa10 value="0.00443320711571699" flag="0"/>
			<psa30 value="0.000277473355206262" flag="0"/>
		</comp>
	</station>
	<station code="DRES" name="DRES" netid="HA" source="Hellenic Seismological Network, University of Athens, Seismological Laboratory (HA)" insttype="" lat="38.319719" lon="21.853176">
		<comp name="--.HNE" depth="0.0">
			<acc value="0.00454135027669418" flag="0"/>
			<vel value="0.00459105887664334" flag="0"/>
			<psa03 value="0.0123836185310174" flag="0"/>
			<psa10 value="0.00641615097602427" flag="0"/>
			<psa30 value="0.000770473227570875" flag="0"/>
		</comp>
		<comp name="--.HNN" depth="0.0">
			<acc value="0.0056407400851252" flag="0"/>
			<vel value="0.003426231058744" flag="0"/>
			<psa03 value="0.0112223254552145" flag="0"/>
			<psa10 value="0.00664797117670919" flag="0"/>
			<psa30 value="0.000592827396904007" flag="0"/>
		</comp>
		<comp name="--.HNZ" depth="0.0">
			<acc value="0.00722409257284012" flag="0"/>
			<vel value="0.00249752972377887" flag="0"/>
			<psa03 value="0.00581657086615011" flag="0"/>
			<psa10 value="0.00394122139907526" flag="0"/>
			<psa30 value="0.000579708038229857" flag="0"/>
		</comp>
	</station>
	<station code="KIAS" name="KIAS" netid="HA" source="Hellenic Seismological Network, University of Athens, Seismological Laboratory (HA)" insttype="" lat="37.9875" lon="22.7543">
		<comp name="--.HNE" depth="0.0">
			<acc value="0.0109558696333464" flag="0"/>
			<vel value="0.00989811942607556" flag="0"/>
			<psa03 value="0.0185335298387164" flag="0"/>
			<psa10 value="0.0160300225353242" flag="0"/>
			<psa30 value="0.00210502590597054" flag="0"/>
		</comp>
		<comp name="--.HNN" depth="0.0">
			<acc value="0.00893881186379814" flag="0"/>
			<vel value="0.00603004984585294" flag="0"/>
			<psa03 value="0.0184836684627291" flag="0"/>
			<psa10 value="0.0162718535554364" flag="0"/>
			<psa30 value="0.00192487293005131" flag="0"/>
		</comp>
		<comp name="--.HNZ" depth="0.0">
			<acc value="0.00706030222189968" flag="0"/>
			<vel value="0.00436227964314989" flag="0"/>
			<psa03 value="0.0165805202530818" flag="0"/>
			<psa10 value="0.00746644977189594" flag="0"/>
			<psa30 value="0.00124598201936093" flag="0"/>
		</comp>
	</station>
	<station code="LTRS" name="LTRS" netid="HA" source="Hellenic Seismological Network, University of Athens, Seismological Laboratory (HA)" insttype="" lat="37.97528" lon="22.9765">
		<comp name="--.HNE" depth="0.0">
			<acc value="0.00985386052769481" flag="0"/>
			<vel value="0.00979445916004391" flag="0"/>
			<psa03 value="0.0212553598861785" flag="0"/>
			<psa10 value="0.0210385543259729" flag="0"/>
			<psa30 value="0.00134876372397598" flag="0"/>
		</comp>
		<comp name="--.HNN" depth="0.0">
			<acc value="0.00959233027630705" flag="0"/>
			<vel value="0.00839621090016551" flag="0"/>
			<psa03 value="0.0216900866013869" flag="0"/>
			<psa10 value="0.0151573987907937" flag="0"/>
			<psa30 value="0.00117728455182367" flag="0"/>
		</comp>
		<comp name="--.HNZ" depth="0.0">
			<acc value="0.0096026497451247" flag="0"/>
			<vel value="0.00552573654023374" flag="0"/>
			<psa03 value="0.013395712921067" flag="0"/>
			<psa10 value="0.00782400548948294" flag="0"/>
			<psa30 value="0.00101739541828743" flag="0"/>
		</comp>
	</station>
	<station code="KLV1" name="KLV1" netid="HI" source="ITSAK Strong Motion Network" insttype="" lat="38.03256" lon="22.10797">
		<comp name="--.HNE" depth="0.0">
			<acc value="0.0079358459252139" flag="0"/>
			<vel value="0.00509320961682856" flag="0"/>
			<psa03 value="0.027376318755104" flag="0"/>
			<psa10 value="0.00839080584968879" flag="0"/>
			<psa30 value="0.000637631823314429" flag="0"/>
		</comp>
		<comp name="--.HNN" depth="0.0">
			<acc value="0.00681304182612212" flag="0"/>
			<vel value="0.00629300394889192" flag="0"/>
			<psa03 value="0.0253575990873102" flag="0"/>
			<psa10 value="0.00857029180229072" flag="0"/>
			<psa30 value="0.000670805687586667" flag="0"/>
		</comp>
		<comp name="--.HNZ" depth="0.0">
			<acc value="0.00363916084080143" flag="0"/>
			<vel value="0.00329293029266298" flag="0"/>
			<psa03 value="0.00780541160147485" flag="0"/>
			<psa10 value="0.00504688229991824" flag="0"/>
			<psa30 value="0.00035394300427875" flag="0"/>
		</comp>
	</station>
	<station code="NPS1" name="NPS1" netid="HI" source="ITSAK Strong Motion Network" insttype="" lat="36.51263" lon="23.06248">
		<comp name="--.HNE" depth="0.0">
			<acc value="0.0151446466659174" flag="0"/>
			<vel value="0.0110401735484897" flag="0"/>
			<psa03 value="0.041033489100605" flag="0"/>
			<psa10 value="0.00918037752995498" flag="0"/>
			<psa30 value="0.000742438557910215" flag="0"/>
		</comp>
		<comp name="--.HNN" depth="0.0">
			<acc value="0.0137355899041976" flag="0"/>
			<vel value="0.00935191617452077" flag="0"/>
			<psa03 value="0.0340229179138548" flag="0"/>
			<psa10 value="0.0103696750651003" flag="0"/>
			<psa30 value="0.00084831958242571" flag="0"/>
		</comp>
		<comp name="--.HNZ" depth="0.0">
			<acc value="0.0088796631647791" flag="0"/>
			<vel value="0.00453478163641507" flag="0"/>
			<psa03 value="0.0229030719036008" flag="0"/>
			<psa10 value="0.00675404929761567" flag="0"/>
			<psa30 value="0.000789788517531709" flag="0"/>
		</comp>
	</station>
	<station code="ITM" name="ITM" netid="HL" source="National Observatory of Athens Seismic Network" insttype="" lat="37.17872" lon="21.92522">
		<comp name="--.HNE" depth="0.0">
			<acc value="0.0364322193211298" flag="0"/>
			<vel value="0.015762543119779" flag="0"/>
			<psa03 value="0.0894232155156745" flag="0"/>
			<psa10 value="0.00880008733758124" flag="0"/>
			<psa30 value="0.00086810995594166" flag="0"/>
		</comp>
		<comp name="--.HNN" depth="0.0">
			<acc value="0.0322565893370093" flag="0"/>
			<vel value="0.0174469312017722" flag="0"/>
			<psa03 value="0.0751205544928602" flag="0"/>
			<psa10 value="0.011179060245364" flag="0"/>
			<psa30 value="0.00139050357237091" flag="0"/>
		</comp>
		<comp name="--.HNZ" depth="0.0">
			<acc value="0.0215508861395117" flag="0"/>
			<vel value="0.014224216159799" flag="0"/>
			<psa03 value="0.0689061376100493" flag="0"/>
			<psa10 value="0.01394708111317" flag="0"/>
			<psa30 value="0.00125144602715784" flag="0"/>
		</comp>
	</station>
	<station code="LTHK" name="LTHK" netid="HP" source="University of Patras, Seismological Laboratory (PSLNET)" insttype="" lat="37.7095" lon="20.8367">
		<comp name="--.HNE" depth="0.0">
			<acc value="0.00904716968164087" flag="0"/>
			<vel value="0.00466872544813832" flag="0"/>
			<psa03 value="0.0223413992788741" flag="0"/>
			<psa10 value="0.00497748629655037" flag="0"/>
			<psa30 value="0.000339858451454257" flag="0"/>
		</comp>
		<comp name="--.HNN" depth="0.0">
			<acc value="0.0103821382402866" flag="0"/>
			<vel value="0.00595263448527047" flag="0"/>
			<psa03 value="0.0245779458766418" flag="0"/>
			<psa10 value="0.00703973478538355" flag="0"/>
			<psa30 value="0.000425044198758865" flag="0"/>
		</comp>
		<comp name="--.HNZ" depth="0.0">
			<acc value="0.00516879123164917" flag="0"/>
			<vel value="0.00276240434673508" flag="0"/>
			<psa03 value="0.0127967461591327" flag="0"/>
			<psa10 value="0.0029486290822062" flag="0"/>
			<psa30 value="0.00020405751520482" flag="0"/>
		</comp>
	</station>
	<station code="LTK" name="LTK" netid="HP" source="University of Patras, Seismological Laboratory (PSLNET)" insttype="" lat="38.0228" lon="22.9673">
		<comp name="--.HNE" depth="0.0">
			<acc value="0.00265825405375242" flag="0"/>
			<vel value="0.00221285999838462" flag="0"/>
			<psa03 value="0.00600622405474127" flag="0"/>
			<psa10 value="0.00360588918496107" flag="0"/>
			<psa30 value="0.000181342182300494" flag="0"/>
		</comp>
		<comp name="--.HNN" depth="0.0">
			<acc value="0.00221339262816007" flag="0"/>
			<vel value="0.00174153422139702" flag="0"/>
			<psa03 value="0.00648246849423711" flag="0"/>
			<psa10 value="0.00328200390102469" flag="0"/>
			<psa30 value="0.00017029635942298" flag="0"/>
		</comp>
		<comp name="--.HNZ" depth="0.0">
			<acc value="0.00189324177726049" flag="0"/>
			<vel value="0.00140876200885069" flag="0"/>
			<psa03 value="0.00550965665436292" flag="0"/>
			<psa10 value="0.00214014911812466" flag="0"/>
			<psa30 value="0.0001827580182803" flag="0"/>
		</comp>
	</station>
	<station code="PYL" name="PYL" netid="HP" source="University of Patras, Seismological Laboratory (PSLNET)" insttype="" lat="36.8955" lon="21.742">
		<comp name="--.HNE" depth="0.0">
			<acc value="0.146739229387153" flag="0"/>
			<vel value="0.085539124615372" flag="0"/>
			<psa03 value="0.418023025307025" flag="0"/>
			<psa10 value="0.0459744755833976" flag="0"/>
			<psa30 value="0.00312243747115659" flag="0"/>
		</comp>
		<comp name="--.HNN" depth="0.0">
			<acc value="0.102193078008384" flag="0"/>
			<vel value="0.0323989126126846" flag="0"/>
			<psa03 value="0.203094579019151" flag="0"/>
			<psa10 value="0.0329483401658344" flag="0"/>
			<psa30 value="0.00218394384222639" flag="0"/>
		</comp>
		<comp name="--.HNZ" depth="0.0">
			<acc value="0.0848717333105852" flag="0"/>
			<vel value="0.0292579345469003" flag="0"/>
			<psa03 value="0.147183864791942" flag="0"/>
			<psa10 value="0.015401995619132" flag="0"/>
			<psa30 value="0.00144276120084787" flag="0"/>
		</comp>
	</station>
	<station code="VALY" name="VALY" netid="HP" source="University of Patras, Seismological Laboratory (PSLNET)" insttype="" lat="37.1641" lon="21.9836">
		<comp name="--.HNE" depth="0.0">
			<acc value="0.0277862141065577" flag="0"/>
			<vel value="0.023644176657402" flag="0"/>
			<psa03 value="0.112088852419799" flag="0"/>
			<psa10 value="0.0202976214928259" flag="0"/>
			<psa30 value="0.00124547750677154" flag="0"/>
		</comp>
		<comp name="--.HNN" depth="0.0">
			<acc value="0.0324828837120711" flag="0"/>
			<vel value="0.0208725967222669" flag="0"/>
			<psa03 value="0.127300099673501" flag="0"/>
			<psa10 value="0.0189140667140965" flag="0"/>
			<psa30 value="0.00131885413844668" flag="0"/>
		</comp>
		<comp name="--.HNZ" depth="0.0">
			<acc value="0.015675348939271" flag="0"/>
			<vel value="0.00875559231144921" flag="0"/>
			<psa03 value="0.0311816489645676" flag="0"/>
			<psa10 value="0.0124594316261889" flag="0"/>
			<psa30 value="0.000577692331782253" flag="0"/>
		</comp>
	</station>
</stationlist>
