<?xml version="1.0" encoding="UTF-8" standalone="yes"?>
<!DOCTYPE earthquake SYSTEM "stationlist.dtd">
<stationlist created="" xmlns="ch.ethz.sed.shakemap.usgs.xml">
  <station code="KTHR" name="KTHR" netid="HC" insttype="120s" lat="36.2447" lon="22.9939">
    <comp name="--.HHE">
      <acc value="0.0207620931" flag="0"/>
      <vel value="0.0136174655" flag="0"/>
      <psa03 value="0.0853660528" flag="0"/>
      <psa10 value="0.0091258004" flag="0"/>
      <psa30 value="0.0007838413" flag="0"/>
    </comp>
    <comp name="--.HHN">
      <acc value="0.0254069504" flag="0"/>
      <vel value="0.0187622409" flag="0"/>
      <psa03 value="0.1026303517" flag="0"/>
      <psa10 value="0.0094317635" flag="0"/>
      <psa30 value="0.0008724906" flag="0"/>
    </comp>
    <comp name="--.HHZ">
      <acc value="0.0197258761" flag="0"/>
      <vel value="0.0086475015" flag="0"/>
      <psa03 value="0.0540355942" flag="0"/>
      <psa10 value="0.0051025300" flag="0"/>
      <psa30 value="0.0004482983" flag="0"/>
    </comp>
  </station>
  <station code="KTRS" name="KTRS" netid="HC" insttype="60" lat="36.9261" lon="22.136">
    <comp name="--.HHZ">
      <acc value="0.0355338923" flag="0"/>
      <vel value="0.0096063250" flag="0"/>
      <psa03 value="0.0376712410" flag="0"/>
      <psa10 value="0.0083392816" flag="0"/>
      <psa30 value="0.0009121191" flag="0"/>
    </comp>
    <comp name="--.HHE">
      <acc value="0.0458427209" flag="0"/>
      <vel value="0.0150652035" flag="0"/>
      <psa03 value="0.0608969784" flag="0"/>
      <psa10 value="0.0144379972" flag="0"/>
      <psa30 value="0.0011515107" flag="0"/>
    </comp>
    <comp name="--.HHN">
      <acc value="0.0349580635" flag="0"/>
      <vel value="0.0152537588" flag="0"/>
      <psa03 value="0.0624483348" flag="0"/>
      <psa10 value="0.0125172859" flag="0"/>
      <psa30 value="0.0009661878" flag="0"/>
    </comp>
  </station>
  <station code="ITM" name="ITM" netid="HL" insttype="DR24" lat="37.1787" lon="21.9252">
    <comp name="--.HHN">
      <acc value="0.0333085492" flag="0"/>
      <vel value="0.0178783817" flag="0"/>
      <psa03 value="0.0767775031" flag="0"/>
      <psa10 value="0.0115362058" flag="0"/>
      <psa30 value="0.0012984259" flag="0"/>
    </comp>
    <comp name="--.HHE">
      <acc value="0.0374415988" flag="0"/>
      <vel value="0.0159127893" flag="0"/>
      <psa03 value="0.0933233166" flag="0"/>
      <psa10 value="0.0090899495" flag="0"/>
      <psa30 value="0.0008593962" flag="0"/>
    </comp>
    <comp name="--.HHZ">
      <acc value="0.0233518127" flag="0"/>
      <vel value="0.0150910125" flag="0"/>
      <psa03 value="0.0738228471" flag="0"/>
      <psa10 value="0.0148960674" flag="0"/>
      <psa30 value="0.0012215889" flag="0"/>
    </comp>
  </station>
  <station code="AMT" name="AMT" netid="HP" insttype="CMG-3T," lat="37.5324" lon="21.7089">
    <comp name="00.HHE">
      <acc value="0.0291686941" flag="0"/>
      <vel value="0.0155138157" flag="0"/>
      <psa03 value="0.0982607409" flag="0"/>
      <psa10 value="0.0197415947" flag="0"/>
      <psa30 value="0.0007713054" flag="0"/>
    </comp>
    <comp name="00.HHN">
      <acc value="0.0274243875" flag="0"/>
      <vel value="0.0159769477" flag="0"/>
      <psa03 value="0.0823686618" flag="0"/>
      <psa10 value="0.0217826062" flag="0"/>
      <psa30 value="0.0007419069" flag="0"/>
    </comp>
    <comp name="00.HHZ">
      <acc value="0.0203792984" flag="0"/>
      <vel value="0.0103319589" flag="0"/>
      <psa03 value="0.0580953077" flag="0"/>
      <psa10 value="0.0112855209" flag="0"/>
      <psa30 value="0.0004998936" flag="0"/>
    </comp>
  </station>
  <station code="PYL" name="PYL" netid="HP" insttype="" lat="0" lon="0">
    <comp name="--.HHE">
      <acc value="0.1362819264" flag="0"/>
      <vel value="0.0879946221" flag="0"/>
      <psa03 value="0.4218168849" flag="0"/>
      <psa10 value="0.0479063859" flag="0"/>
      <psa30 value="0.0033785231" flag="0"/>
    </comp>
  </station>
  <station code="VALY" name="VALY" netid="HP" insttype="DC_100" lat="37.1641" lon="21.9836">
    <comp name="--.HNN">
      <acc value="0.0325098908" flag="0"/>
      <vel value="0.0208481743" flag="0"/>
      <psa03 value="0.1256300863" flag="0"/>
      <psa10 value="0.0190469394" flag="0"/>
      <psa30 value="0.0014047925" flag="0"/>
    </comp>
    <comp name="--.HNE">
      <acc value="0.0293771407" flag="0"/>
      <vel value="0.0238023426" flag="0"/>
      <psa03 value="0.1105876478" flag="0"/>
      <psa10 value="0.0202782415" flag="0"/>
      <psa30 value="0.0012788547" flag="0"/>
    </comp>
    <comp name="--.HNZ">
      <acc value="0.0157517956" flag="0"/>
      <vel value="0.0087034871" flag="0"/>
      <psa03 value="0.0311852693" flag="0"/>
      <psa10 value="0.0125638269" flag="0"/>
      <psa30 value="0.0006730864" flag="0"/>
    </comp>
  </station>
  <station code="VLX" name="VLX" netid="HP" insttype="40," lat="37.3703" lon="22.3793">
    <comp name="--.HHN">
      <acc value="0.0127485217" flag="0"/>
      <vel value="0.0096370273" flag="0"/>
      <psa03 value="0.0395980306" flag="0"/>
      <psa10 value="0.0157841808" flag="0"/>
      <psa30 value="0.0006526744" flag="0"/>
    </comp>
    <comp name="--.HHE">
      <acc value="0.0139764010" flag="0"/>
      <vel value="0.0110002499" flag="0"/>
      <psa03 value="0.0457268021" flag="0"/>
      <psa10 value="0.0170111376" flag="0"/>
      <psa30 value="0.0007440881" flag="0"/>
    </comp>
    <comp name="--.HHZ">
      <acc value="0.0068662543" flag="0"/>
      <vel value="0.0050229897" flag="0"/>
      <psa03 value="0.0253097178" flag="0"/>
      <psa10 value="0.0065879488" flag="0"/>
      <psa30 value="0.0006786544" flag="0"/>
    </comp>
  </station>
</stationlist>
