<stationlist xmlns:esm="https://esm-db.eu/esmws/shakemap/1/" created="1784080446">
	<station code="AOL1" name="AOL1" netid="HI" source="ITSAK Strong Motion Network" insttype="" lat="37.642378" lon="21.624555" esm:processing="automatic (Paolucci et al 2011)" esm:quality="best">
		<comp name="--.HNE" depth="0.0">
			<acc value="0.0203599659793409" flag="0"/>
			<vel value="0.0158598285238688" flag="0"/>
			<psa03 value="0.0563099385904101" flag="0"/>
			<psa10 value="0.0174832925573284" flag="0"/>
			<psa30 value="0.00136088629787168" flag="0"/>
		</comp>
		<comp name="--.HNN" depth="0.0">
			<acc value="0.0152082175648208" flag="0"/>
			<vel value="0.0144457439302279" flag="0"/>
			<psa03 value="0.0439639019760756" flag="0"/>
			<psa10 value="0.0195666343184955" flag="0"/>
			<psa30 value="0.00145336971611092" flag="0"/>
		</comp>
		<comp name="--.HNZ" depth="0.0">
			<acc value="0.0116558981725911" flag="0"/>
			<vel value="0.00822058225784662" flag="0"/>
			<psa03 value="0.0382094166029945" flag="0"/>
			<psa10 value="0.00978911785601546" flag="0"/>
			<psa30 value="0.000861768077489128" flag="0"/>
		</comp>
	</station>
	<station code="GTH2" name="GTH2" netid="HI" source="ITSAK Strong Motion Network" insttype="" lat="36.7603" lon="22.5659" esm:processing="manual (Paolucci et al 2011)" esm:quality="good">
		<comp name="--.HNE" depth="0.0">
			<acc value="0.043053319920151" flag="0"/>
			<vel value="0.0309418332782137" flag="0"/>
			<psa03 value="0.123706142841512" flag="0"/>
			<psa10 value="0.0269843707071269" flag="0"/>
			<psa30 value="0.00204362663023465" flag="0"/>
		</comp>
		<comp name="--.HNN" depth="0.0">
			<acc value="0.0466805304013619" flag="0"/>
			<vel value="0.0271440924790981" flag="0"/>
			<psa03 value="0.146922357885152" flag="0"/>
			<psa10 value="0.0202261661342415" flag="0"/>
			<psa30 value="0.00134481710836674" flag="0"/>
		</comp>
		<comp name="--.HNZ" depth="0.0">
			<acc value="0.0264368409451747" flag="0"/>
			<vel value="0.0129497593034246" flag="0"/>
			<psa03 value="0.0786069521164615" flag="0"/>
			<psa10 value="0.0170333677520181" flag="0"/>
			<psa30 value="0.00158885962915271" flag="0"/>
		</comp>
	</station>
	<station code="KLV1" name="KLV1" netid="HI" source="ITSAK Strong Motion Network" insttype="" lat="38.03256" lon="22.10797" esm:processing="manual (Paolucci et al 2011)" esm:quality="good">
		<comp name="--.HNE" depth="0.0">
			<acc value="0.0079358459252139" flag="0"/>
			<vel value="0.00509320961682856" flag="0"/>
			<psa03 value="0.027376318755104" flag="0"/>
			<psa10 value="0.00839080584968879" flag="0"/>
			<psa30 value="0.000637631823314429" flag="0"/>
		</comp>
		<comp name="--.HNN" depth="0.0">
			<acc value="0.00681304182612212" flag="0"/>
			<vel value="0.00629300394889192" flag="0"/>
			<psa03 value="0.0253575990873102" flag="0"/>
			<psa10 value="0.00857029180229072" flag="0"/>
			<psa30 value="0.000670805687586667" flag="0"/>
		</comp>
		<comp name="--.HNZ" depth="0.0">
			<acc value="0.00363916084080143" flag="0"/>
			<vel value="0.00329293029266298" flag="0"/>
			<psa03 value="0.00780541160147485" flag="0"/>
			<psa10 value="0.00504688229991824" flag="0"/>
			<psa30 value="0.00035394300427875" flag="0"/>
		</comp>
	</station>
	<station code="KYP2" name="KYP2" netid="HI" source="ITSAK Strong Motion Network" insttype="" lat="37.2497" lon="21.667" esm:processing="automatic (Paolucci et al 2011)" esm:quality="best">
		<comp name="--.HNE" depth="0.0">
			<acc value="0.0625719843811212" flag="0"/>
			<vel value="0.0232347063836619" flag="0"/>
			<psa03 value="0.175706056330578" flag="0"/>
			<psa10 value="0.017501250621962" flag="0"/>
			<psa30 value="0.00111577339367807" flag="0"/>
		</comp>
		<comp name="--.HNN" depth="0.0">
			<acc value="0.0492265791611063" flag="0"/>
			<vel value="0.0208899550982903" flag="0"/>
			<psa03 value="0.086419146719347" flag="0"/>
			<psa10 value="0.0164266150576299" flag="0"/>
			<psa30 value="0.00116959497992735" flag="0"/>
		</comp>
		<comp name="--.HNZ" depth="0.0">
			<acc value="0.0425363462245782" flag="0"/>
			<vel value="0.0143368876195917" flag="0"/>
			<psa03 value="0.0917309725600732" flag="0"/>
			<psa10 value="0.00881183686594611" flag="0"/>
			<psa30 value="0.00103992003543202" flag="0"/>
		</comp>
	</station>
	<station code="NPS1" name="NPS1" netid="HI" source="ITSAK Strong Motion Network" insttype="" lat="36.51263" lon="23.06248" esm:processing="manual (Paolucci et al 2011)" esm:quality="good">
		<comp name="--.HNE" depth="0.0">
			<acc value="0.0151446466659174" flag="0"/>
			<vel value="0.0110401735484897" flag="0"/>
			<psa03 value="0.041033489100605" flag="0"/>
			<psa10 value="0.00918037752995498" flag="0"/>
			<psa30 value="0.000742438557910215" flag="0"/>
		</comp>
		<comp name="--.HNN" depth="0.0">
			<acc value="0.0137355899041976" flag="0"/>
			<vel value="0.00935191617452077" flag="0"/>
			<psa03 value="0.0340229179138548" flag="0"/>
			<psa10 value="0.0103696750651003" flag="0"/>
			<psa30 value="0.00084831958242571" flag="0"/>
		</comp>
		<comp name="--.HNZ" depth="0.0">
			<acc value="0.0088796631647791" flag="0"/>
			<vel value="0.00453478163641507" flag="0"/>
			<psa03 value="0.0229030719036008" flag="0"/>
			<psa10 value="0.00675404929761567" flag="0"/>
			<psa30 value="0.000789788517531709" flag="0"/>
		</comp>
	</station>
	<station code="PET1" name="PET1" netid="HI" source="ITSAK Strong Motion Network" insttype="" lat="36.963862" lon="21.92538" esm:processing="automatic (Paolucci et al 2011)" esm:quality="best">
		<comp name="--.HNE" depth="0.0">
			<acc value="0.154903014828066" flag="0"/>
			<vel value="0.0782127442761468" flag="0"/>
			<psa03 value="0.442326968657512" flag="0"/>
			<psa10 value="0.0464566787769714" flag="0"/>
			<psa30 value="0.00416931994698452" flag="0"/>
		</comp>
		<comp name="--.HNN" depth="0.0">
			<acc value="0.14780885842483" flag="0"/>
			<vel value="0.0756263587964306" flag="0"/>
			<psa03 value="0.449249385566992" flag="0"/>
			<psa10 value="0.0543179270460882" flag="0"/>
			<psa30 value="0.00394338247973616" flag="0"/>
		</comp>
		<comp name="--.HNZ" depth="0.0">
			<acc value="0.0777731879542538" flag="0"/>
			<vel value="0.0317369719603387" flag="0"/>
			<psa03 value="0.207659589762015" flag="0"/>
			<psa10 value="0.0152281069123473" flag="0"/>
			<psa30 value="0.00188062833239738" flag="0"/>
		</comp>
	</station>
	<station code="PYR2" name="PYR2" netid="HI" source="ITSAK Strong Motion Network" insttype="" lat="37.6671" lon="21.4506" esm:processing="manual (Paolucci et al 2011)" esm:quality="good">
		<comp name="--.HNE" depth="0.0">
			<acc value="0.0293401438839928" flag="0"/>
			<vel value="0.0174931896029164" flag="0"/>
			<psa03 value="0.110526561425592" flag="0"/>
			<psa10 value="0.0205099361826145" flag="0"/>
			<psa30 value="0.00148217329087306" flag="0"/>
		</comp>
		<comp name="--.HNN" depth="0.0">
			<acc value="0.0253805279444186" flag="0"/>
			<vel value="0.0132226370159289" flag="0"/>
			<psa03 value="0.0753471788808161" flag="0"/>
			<psa10 value="0.0148127097068211" flag="0"/>
			<psa30 value="0.00175944384618657" flag="0"/>
		</comp>
		<comp name="--.HNZ" depth="0.0">
			<acc value="0.0118648750945546" flag="0"/>
			<vel value="0.00885893586753216" flag="0"/>
			<psa03 value="0.0290396008143683" flag="0"/>
			<psa10 value="0.0115166407334278" flag="0"/>
			<psa30 value="0.00112183296176138" flag="0"/>
		</comp>
	</station>
	<station code="TRP1" name="TRP1" netid="HI" source="ITSAK Strong Motion Network" insttype="" lat="37.511219" lon="22.363399" esm:processing="manual (Paolucci et al 2011)" esm:quality="good">
		<comp name="--.HNE" depth="0.0">
			<acc value="0.00618123723720426" flag="0"/>
			<vel value="0.00491974441354164" flag="0"/>
			<psa03 value="0.0139378777430803" flag="0"/>
			<psa10 value="0.00748099276655597" flag="0"/>
			<psa30 value="0.000337102070941122" flag="0"/>
		</comp>
		<comp name="--.HNN" depth="0.0">
			<acc value="0.00780517403488277" flag="0"/>
			<vel value="0.0064811062860434" flag="0"/>
			<psa03 value="0.0205253779347215" flag="0"/>
			<psa10 value="0.00989130837563586" flag="0"/>
			<psa30 value="0.000438754117390317" flag="0"/>
		</comp>
		<comp name="--.HNZ" depth="0.0">
			<acc value="0.00445936821456476" flag="0"/>
			<vel value="0.00337587467146981" flag="0"/>
			<psa03 value="0.0124254351032614" flag="0"/>
			<psa10 value="0.00395943541816455" flag="0"/>
			<psa30 value="0.000505899294595442" flag="0"/>
		</comp>
	</station>
	<station code="ITM" name="ITM" netid="HL" source="National Observatory of Athens Seismic Network" insttype="" lat="37.17872" lon="21.92522" esm:processing="manual (Paolucci et al 2011)" esm:quality="best">
		<comp name="--.HNE" depth="0.0">
			<acc value="0.0364322193211298" flag="0"/>
			<vel value="0.015762543119779" flag="0"/>
			<psa03 value="0.0894232155156745" flag="0"/>
			<psa10 value="0.00880008733758124" flag="0"/>
			<psa30 value="0.00086810995594166" flag="0"/>
		</comp>
		<comp name="--.HNN" depth="0.0">
			<acc value="0.0322565893370093" flag="0"/>
			<vel value="0.0174469312017722" flag="0"/>
			<psa03 value="0.0751205544928602" flag="0"/>
			<psa10 value="0.011179060245364" flag="0"/>
			<psa30 value="0.00139050357237091" flag="0"/>
		</comp>
		<comp name="--.HNZ" depth="0.0">
			<acc value="0.0215508861395117" flag="0"/>
			<vel value="0.014224216159799" flag="0"/>
			<psa03 value="0.0689061376100493" flag="0"/>
			<psa10 value="0.01394708111317" flag="0"/>
			<psa30 value="0.00125144602715784" flag="0"/>
		</comp>
	</station>
	<station code="LTHK" name="LTHK" netid="HP" source="University of Patras, Seismological Laboratory (PSLNET)" insttype="" lat="37.7095" lon="20.8367" esm:processing="manual (Paolucci et al 2011)" esm:quality="best">
		<comp name="--.HNE" depth="0.0">
			<acc value="0.00904716968164087" flag="0"/>
			<vel value="0.00466872544813832" flag="0"/>
			<psa03 value="0.0223413992788741" flag="0"/>
			<psa10 value="0.00497748629655037" flag="0"/>
			<psa30 value="0.000339858451454257" flag="0"/>
		</comp>
		<comp name="--.HNN" depth="0.0">
			<acc value="0.0103821382402866" flag="0"/>
			<vel value="0.00595263448527047" flag="0"/>
			<psa03 value="0.0245779458766418" flag="0"/>
			<psa10 value="0.00703973478538355" flag="0"/>
			<psa30 value="0.000425044198758865" flag="0"/>
		</comp>
		<comp name="--.HNZ" depth="0.0">
			<acc value="0.00516879123164917" flag="0"/>
			<vel value="0.00276240434673508" flag="0"/>
			<psa03 value="0.0127967461591327" flag="0"/>
			<psa10 value="0.0029486290822062" flag="0"/>
			<psa30 value="0.00020405751520482" flag="0"/>
		</comp>
	</station>
	<station code="LTK" name="LTK" netid="HP" source="University of Patras, Seismological Laboratory (PSLNET)" insttype="" lat="38.0228" lon="22.9673" esm:processing="manual (Paolucci et al 2011)" esm:quality="best">
		<comp name="--.HNE" depth="0.0">
			<acc value="0.00265825405375242" flag="0"/>
			<vel value="0.00221285999838462" flag="0"/>
			<psa03 value="0.00600622405474127" flag="0"/>
			<psa10 value="0.00360588918496107" flag="0"/>
			<psa30 value="0.000181342182300494" flag="0"/>
		</comp>
		<comp name="--.HNN" depth="0.0">
			<acc value="0.00221339262816007" flag="0"/>
			<vel value="0.00174153422139702" flag="0"/>
			<psa03 value="0.00648246849423711" flag="0"/>
			<psa10 value="0.00328200390102469" flag="0"/>
			<psa30 value="0.00017029635942298" flag="0"/>
		</comp>
		<comp name="--.HNZ" depth="0.0">
			<acc value="0.00189324177726049" flag="0"/>
			<vel value="0.00140876200885069" flag="0"/>
			<psa03 value="0.00550965665436292" flag="0"/>
			<psa10 value="0.00214014911812466" flag="0"/>
			<psa30 value="0.0001827580182803" flag="0"/>
		</comp>
	</station>
	<station code="PYL" name="PYL" netid="HP" source="University of Patras, Seismological Laboratory (PSLNET)" insttype="" lat="36.8955" lon="21.742" esm:processing="manual (Paolucci et al 2011)" esm:quality="best">
		<comp name="--.HNE" depth="0.0">
			<acc value="0.146739229387153" flag="0"/>
			<vel value="0.085539124615372" flag="0"/>
			<psa03 value="0.418023025307025" flag="0"/>
			<psa10 value="0.0459744755833976" flag="0"/>
			<psa30 value="0.00312243747115659" flag="0"/>
		</comp>
		<comp name="--.HNN" depth="0.0">
			<acc value="0.102193078008384" flag="0"/>
			<vel value="0.0323989126126846" flag="0"/>
			<psa03 value="0.203094579019151" flag="0"/>
			<psa10 value="0.0329483401658344" flag="0"/>
			<psa30 value="0.00218394384222639" flag="0"/>
		</comp>
		<comp name="--.HNZ" depth="0.0">
			<acc value="0.0848717333105852" flag="0"/>
			<vel value="0.0292579345469003" flag="0"/>
			<psa03 value="0.147183864791942" flag="0"/>
			<psa10 value="0.015401995619132" flag="0"/>
			<psa30 value="0.00144276120084787" flag="0"/>
		</comp>
	</station>
	<station code="VALY" name="VALY" netid="HP" source="University of Patras, Seismological Laboratory (PSLNET)" insttype="" lat="37.1641" lon="21.9836" esm:processing="manual (Paolucci et al 2011)" esm:quality="best">
		<comp name="--.HNE" depth="0.0">
			<acc value="0.0277862141065577" flag="0"/>
			<vel value="0.023644176657402" flag="0"/>
			<psa03 value="0.112088852419799" flag="0"/>
			<psa10 value="0.0202976214928259" flag="0"/>
			<psa30 value="0.00124547750677154" flag="0"/>
		</comp>
		<comp name="--.HNN" depth="0.0">
			<acc value="0.0324828837120711" flag="0"/>
			<vel value="0.0208725967222669" flag="0"/>
			<psa03 value="0.127300099673501" flag="0"/>
			<psa10 value="0.0189140667140965" flag="0"/>
			<psa30 value="0.00131885413844668" flag="0"/>
		</comp>
		<comp name="--.HNZ" depth="0.0">
			<acc value="0.015675348939271" flag="0"/>
			<vel value="0.00875559231144921" flag="0"/>
			<psa03 value="0.0311816489645676" flag="0"/>
			<psa10 value="0.0124594316261889" flag="0"/>
			<psa30 value="0.000577692331782253" flag="0"/>
		</comp>
	</station>
	<station code="MALA" name="MALA" netid="CL" source="Corinth Riff Laboratory (CRLNET)" insttype="" lat="38.39341" lon="21.87263" esm:processing="automatic (Paolucci et al 2011)" esm:quality="bad">
		<comp name="01.HNE" depth="0.0">
			<acc value="0" flag="1"/>
			<vel value="0" flag="1"/>
			<psa03 value="0" flag="1"/>
			<psa10 value="0" flag="1"/>
			<psa30 value="0" flag="1"/>
		</comp>
		<comp name="01.HNN" depth="0.0">
			<acc value="0" flag="1"/>
			<vel value="0" flag="1"/>
			<psa03 value="0" flag="1"/>
			<psa10 value="0" flag="1"/>
			<psa30 value="0" flag="1"/>
		</comp>
		<comp name="01.HNZ" depth="0.0">
			<acc value="0" flag="1"/>
			<vel value="0" flag="1"/>
			<psa03 value="0" flag="1"/>
			<psa10 value="0" flag="1"/>
			<psa30 value="0" flag="1"/>
		</comp>
	</station>
	<station code="ROD3" name="ROD3" netid="CL" source="Corinth Riff Laboratory (CRLNET)" insttype="" lat="38.30811" lon="21.89204" esm:processing="automatic (Paolucci et al 2011)" esm:quality="bad">
		<comp name="00.HNE" depth="0.0">
			<acc value="0" flag="1"/>
			<vel value="0" flag="1"/>
			<psa03 value="0" flag="1"/>
			<psa10 value="0" flag="1"/>
			<psa30 value="0" flag="1"/>
		</comp>
		<comp name="00.HNN" depth="0.0">
			<acc value="0" flag="1"/>
			<vel value="0" flag="1"/>
			<psa03 value="0" flag="1"/>
			<psa10 value="0" flag="1"/>
			<psa30 value="0" flag="1"/>
		</comp>
		<comp name="00.HNZ" depth="0.0">
			<acc value="0" flag="1"/>
			<vel value="0" flag="1"/>
			<psa03 value="0" flag="1"/>
			<psa10 value="0" flag="1"/>
			<psa30 value="0" flag="1"/>
		</comp>
	</station>
	<station code="AIGS" name="AIGS" netid="HA" source="Hellenic Seismological Network, University of Athens, Seismological Laboratory (HA)" insttype="" lat="38.25001" lon="22.0878" esm:processing="automatic (Paolucci et al 2011)" esm:quality="bad">
		<comp name="--.HNE" depth="0.0">
			<acc value="0" flag="1"/>
			<vel value="0" flag="1"/>
			<psa03 value="0" flag="1"/>
			<psa10 value="0" flag="1"/>
			<psa30 value="0" flag="1"/>
		</comp>
		<comp name="--.HNN" depth="0.0">
			<acc value="0" flag="1"/>
			<vel value="0" flag="1"/>
			<psa03 value="0" flag="1"/>
			<psa10 value="0" flag="1"/>
			<psa30 value="0" flag="1"/>
		</comp>
		<comp name="--.HNZ" depth="0.0">
			<acc value="0" flag="1"/>
			<vel value="0" flag="1"/>
			<psa03 value="0" flag="1"/>
			<psa10 value="0" flag="1"/>
			<psa30 value="0" flag="1"/>
		</comp>
	</station>
	<station code="CORS" name="CORS" netid="HA" source="Hellenic Seismological Network, University of Athens, Seismological Laboratory (HA)" insttype="" lat="38.2562" lon="22.0748" esm:processing="automatic (Paolucci et al 2011)" esm:quality="bad">
		<comp name="00.HNE" depth="0.0">
			<acc value="0" flag="1"/>
			<vel value="0" flag="1"/>
			<psa03 value="0" flag="1"/>
			<psa10 value="0" flag="1"/>
			<psa30 value="0" flag="1"/>
		</comp>
		<comp name="00.HNN" depth="0.0">
			<acc value="0" flag="1"/>
			<vel value="0" flag="1"/>
			<psa03 value="0" flag="1"/>
			<psa10 value="0" flag="1"/>
			<psa30 value="0" flag="1"/>
		</comp>
		<comp name="00.HNZ" depth="0.0">
			<acc value="0" flag="1"/>
			<vel value="0" flag="1"/>
			<psa03 value="0" flag="1"/>
			<psa10 value="0" flag="1"/>
			<psa30 value="0" flag="1"/>
		</comp>
	</station>
	<station code="DRES" name="DRES" netid="HA" source="Hellenic Seismological Network, University of Athens, Seismological Laboratory (HA)" insttype="" lat="38.319719" lon="21.853176" esm:processing="automatic (Paolucci et al 2011)" esm:quality="bad">
		<comp name="--.HNE" depth="0.0">
			<acc value="0" flag="1"/>
			<vel value="0" flag="1"/>
			<psa03 value="0" flag="1"/>
			<psa10 value="0" flag="1"/>
			<psa30 value="0" flag="1"/>
		</comp>
		<comp name="--.HNN" depth="0.0">
			<acc value="0" flag="1"/>
			<vel value="0" flag="1"/>
			<psa03 value="0" flag="1"/>
			<psa10 value="0" flag="1"/>
			<psa30 value="0" flag="1"/>
		</comp>
		<comp name="--.HNZ" depth="0.0">
			<acc value="0" flag="1"/>
			<vel value="0" flag="1"/>
			<psa03 value="0" flag="1"/>
			<psa10 value="0" flag="1"/>
			<psa30 value="0" flag="1"/>
		</comp>
	</station>
	<station code="KIAS" name="KIAS" netid="HA" source="Hellenic Seismological Network, University of Athens, Seismological Laboratory (HA)" insttype="" lat="37.9875" lon="22.7543" esm:processing="automatic (Paolucci et al 2011)" esm:quality="bad">
		<comp name="--.HNE" depth="0.0">
			<acc value="0" flag="1"/>
			<vel value="0" flag="1"/>
			<psa03 value="0" flag="1"/>
			<psa10 value="0" flag="1"/>
			<psa30 value="0" flag="1"/>
		</comp>
		<comp name="--.HNN" depth="0.0">
			<acc value="0" flag="1"/>
			<vel value="0" flag="1"/>
			<psa03 value="0" flag="1"/>
			<psa10 value="0" flag="1"/>
			<psa30 value="0" flag="1"/>
		</comp>
		<comp name="--.HNZ" depth="0.0">
			<acc value="0" flag="1"/>
			<vel value="0" flag="1"/>
			<psa03 value="0" flag="1"/>
			<psa10 value="0" flag="1"/>
			<psa30 value="0" flag="1"/>
		</comp>
	</station>
	<station code="LTRS" name="LTRS" netid="HA" source="Hellenic Seismological Network, University of Athens, Seismological Laboratory (HA)" insttype="" lat="37.97528" lon="22.9765" esm:processing="automatic (Paolucci et al 2011)" esm:quality="bad">
		<comp name="--.HNE" depth="0.0">
			<acc value="0" flag="1"/>
			<vel value="0" flag="1"/>
			<psa03 value="0" flag="1"/>
			<psa10 value="0" flag="1"/>
			<psa30 value="0" flag="1"/>
		</comp>
		<comp name="--.HNN" depth="0.0">
			<acc value="0" flag="1"/>
			<vel value="0" flag="1"/>
			<psa03 value="0" flag="1"/>
			<psa10 value="0" flag="1"/>
			<psa30 value="0" flag="1"/>
		</comp>
		<comp name="--.HNZ" depth="0.0">
			<acc value="0" flag="1"/>
			<vel value="0" flag="1"/>
			<psa03 value="0" flag="1"/>
			<psa10 value="0" flag="1"/>
			<psa30 value="0" flag="1"/>
		</comp>
	</station>
	<station code="ARG2" name="ARG2" netid="HI" source="ITSAK Strong Motion Network" insttype="" lat="38.1783" lon="20.4878" esm:processing="discarded" esm:quality="bad">
		<comp name="--.HNE" depth="0.0">
			<acc value="0" flag="1"/>
			<vel value="0" flag="1"/>
			<psa03 value="0" flag="1"/>
