<?xml version="1.0" encoding="UTF-8" standalone="yes"?>
<!DOCTYPE earthquake SYSTEM "stationlist.dtd">
<stationlist created="" xmlns="ch.ethz.sed.shakemap.usgs.xml">
  <station code="SPA0" name="SPA0" netid="NO" insttype="CMG-3T" lat="78.1777" lon="16.37">
    <comp name="00.HHN">
      <acc value="0.0162029503" flag="0"/>
      <vel value="0.0049132624" flag="0"/>
      <psa03 value="0.0213329527" flag="0"/>
      <psa10 value="0.0039049593" flag="0"/>
      <psa30 value="0.0007259578" flag="0"/>
    </comp>
    <comp name="00.HHE">
      <acc value="0.0099811070" flag="0"/>
      <vel value="0.0057444581" flag="0"/>
      <psa03 value="0.0365887451" flag="0"/>
      <psa10 value="0.0074093392" flag="0"/>
      <psa30 value="0.0003097470" flag="0"/>
    </comp>
  </station>
  <station code="SPA1" name="SPA1" netid="NO" insttype="CMG-3T" lat="78.1797" lon="16.3755">
    <comp name="00.HHZ">
      <acc value="0.0057505329" flag="0"/>
      <vel value="0.0030890475" flag="0"/>
      <psa03 value="0.0085080894" flag="0"/>
      <psa10 value="0.0052436865" flag="0"/>
      <psa30 value="0.0002181672" flag="0"/>
    </comp>
  </station>
  <station code="SPA2" name="SPA2" netid="NO" insttype="CMG-3T" lat="78.1759" lon="16.3766">
    <comp name="00.HHZ">
      <acc value="0.0080713449" flag="0"/>
      <vel value="0.0033361355" flag="0"/>
      <psa03 value="0.0112255905" flag="0"/>
      <psa10 value="0.0061015812" flag="0"/>
      <psa30 value="0.0002598809" flag="0"/>
    </comp>
  </station>
  <station code="SPA3" name="SPA3" netid="NO" insttype="CMG-3T" lat="78.1773" lon="16.3588">
    <comp name="00.HHZ">
      <acc value="0.0067233699" flag="0"/>
      <vel value="0.0035970605" flag="0"/>
      <psa03 value="0.0100253173" flag="0"/>
      <psa10 value="0.0071182865" flag="0"/>
      <psa30 value="0.0003120652" flag="0"/>
    </comp>
  </station>
  <station code="SPB1" name="SPB1" netid="NO" insttype="CMG-3T" lat="78.1796" lon="16.3906">
    <comp name="00.HHN">
      <acc value="0.0171860124" flag="0"/>
      <vel value="0.0069982972" flag="0"/>
      <psa03 value="0.0295891600" flag="0"/>
      <psa10 value="0.0068045738" flag="0"/>
      <psa30 value="0.0005592973" flag="0"/>
    </comp>
  </station>
  <station code="SPB3" name="SPB3" netid="NO" insttype="CMG-3T" lat="78.1737" lon="16.3584">
    <comp name="00.HHN">
      <acc value="0.0172697543" flag="0"/>
      <vel value="0.0063755143" flag="0"/>
      <psa03 value="0.0324754789" flag="0"/>
      <psa10 value="0.0067530870" flag="0"/>
      <psa30 value="0.0005847853" flag="0"/>
    </comp>
    <comp name="00.HHZ">
      <acc value="0.0087591175" flag="0"/>
      <vel value="0.0037676986" flag="0"/>
      <psa03 value="0.0119743731" flag="0"/>
      <psa10 value="0.0065528611" flag="0"/>
      <psa30 value="0.0002858720" flag="0"/>
    </comp>
  </station>
  <station code="SPB4" name="SPB4" netid="NO" insttype="CMG-3T" lat="78.1789" lon="16.3482">
    <comp name="00.HHN">
      <acc value="0.0113719685" flag="0"/>
      <vel value="0.0047667984" flag="0"/>
      <psa03 value="0.0387466260" flag="0"/>
      <psa10 value="0.0072409585" flag="0"/>
      <psa30 value="0.0006001397" flag="0"/>
    </comp>
  </station>
  <station code="SPB5" name="SPB5" netid="NO" insttype="CMG-3T" lat="78.1823" lon="16.3683">
    <comp name="00.HHN">
      <acc value="0.0113531960" flag="0"/>
      <vel value="0.0045520245" flag="0"/>
      <psa03 value="0.0262035111" flag="0"/>
      <psa10 value="0.0060162129" flag="0"/>
      <psa30 value="0.0005866612" flag="0"/>
    </comp>
  </station>
</stationlist>
