<?xml version="1.0" encoding="UTF-8" standalone="yes"?>
<!DOCTYPE earthquake SYSTEM "stationlist.dtd">
<stationlist created="" xmlns="ch.ethz.sed.shakemap.usgs.xml">
  <station code="SPA0" name="SPA0" netid="NO" insttype="CMG-3T" lat="78.1777" lon="16.37">
    <comp name="00.HHN">
      <acc value="0.0162029503" flag="0"/>
      <vel value="0.0049132624" flag="0"/>
      <psa03 value="0.0213329527" flag="0"/>
      <psa10 value="0.0039049593" flag="0"/>
      <psa30 value="0.0007259578" flag="0"/>
    </comp>
    <comp name="00.HHE">
      <acc value="0.0099811070" flag="0"/>
      <vel value="0.0057444581" flag="0"/>
      <psa03 value="0.0365887451" flag="0"/>
      <psa10 value="0.0074093392" flag="0"/>
      <psa30 value="0.0003097470" flag="0"/>
    </comp>
    <comp name="00.HHZ">
      <acc value="0.0058063210" flag="0"/>
      <vel value="0.0029770151" flag="0"/>
      <psa03 value="0.0083123577" flag="0"/>
      <psa10 value="0.0063055401" flag="0"/>
      <psa30 value="0.0002771831" flag="0"/>
    </comp>
  </station>
  <station code="SPA1" name="SPA1" netid="NO" insttype="CMG-3T" lat="78.1797" lon="16.3755">
    <comp name="00.HHZ">
      <acc value="0.0057505329" flag="0"/>
      <vel value="0.0030890475" flag="0"/>
      <psa03 value="0.0085080894" flag="0"/>
      <psa10 value="0.0052436865" flag="0"/>
      <psa30 value="0.0002181672" flag="0"/>
    </comp>
  </station>
  <station code="SPA2" name="SPA2" netid="NO" insttype="CMG-3T" lat="78.1759" lon="16.3766">
    <comp name="00.HHZ">
      <acc value="0.0080713449" flag="0"/>
      <vel value="0.0033361355" flag="0"/>
      <psa03 value="0.0112255905" flag="0"/>
      <psa10 value="0.0061015812" flag="0"/>
      <psa30 value="0.0002598809" flag="0"/>
    </comp>
  </station>
  <station code="SPA3" name="SPA3" netid="NO" insttype="CMG-3T" lat="78.1773" lon="16.3588">
    <comp name="00.HHZ">
      <acc value="0.0067233699" flag="0"/>
      <vel value="0.0035970605" flag="0"/>
      <psa03 value="0.0100253173" flag="0"/>
      <psa10 value="0.0071182865" flag="0"/>
      <psa30 value="0.0003120652" flag="0"/>
    </comp>
  </station>
  <station code="SPB1" name="SPB1" netid="NO" insttype="CMG-3T" lat="78.1796" lon="16.3906">
    <comp name="00.HHN">
      <acc value="0.0171860124" flag="0"/>
      <vel value="0.0069982972" flag="0"/>
      <psa03 value="0.0295891600" flag="0"/>
      <psa10 value="0.0068045738" flag="0"/>
      <psa30 value="0.0005592973" flag="0"/>
    </comp>
    <comp name="00.HHE">
      <acc value="0.0124896817" flag="0"/>
      <vel value="0.0059601865" flag="0"/>
      <psa03 value="0.0253589762" flag="0"/>
      <psa10 value="0.0048215327" flag="0"/>
      <psa30 value="0.0005373260" flag="0"/>
    </comp>
    <comp name="00.HHZ">
      <acc value="0.0060460725" flag="0"/>
      <vel value="0.0029794316" flag="0"/>
      <psa03 value="0.0098124827" flag="0"/>
      <psa10 value="0.0044953640" flag="0"/>
      <psa30 value="0.0002685985" flag="0"/>
    </comp>
  </station>
  <station code="SPB2" name="SPB2" netid="NO" insttype="CMG-3T" lat="78.1742" lon="16.3846">
    <comp name="00.HHE">
      <acc value="0.0191282125" flag="0"/>
      <vel value="0.0071592584" flag="0"/>
      <psa03 value="0.0435347662" flag="0"/>
      <psa10 value="0.0055420931" flag="0"/>
      <psa30 value="0.0005514829" flag="0"/>
    </comp>
    <comp name="00.HHN">
      <acc value="0.0149516824" flag="0"/>
      <vel value="0.0064534370" flag="0"/>
      <psa03 value="0.0424796830" flag="0"/>
      <psa10 value="0.0059348011" flag="0"/>
      <psa30 value="0.0004577473" flag="0"/>
    </comp>
    <comp name="00.HHZ">
      <acc value="0.0072612284" flag="0"/>
      <vel value="0.0030784424" flag="0"/>
      <psa03 value="0.0092681804" flag="0"/>
      <psa10 value="0.0050131843" flag="0"/>
      <psa30 value="0.0002340044" flag="0"/>
    </comp>
  </station>
  <station code="SPB3" name="SPB3" netid="NO" insttype="CMG-3T" lat="78.1737" lon="16.3584">
    <comp name="00.HHN">
      <acc value="0.0172697543" flag="0"/>
      <vel value="0.0063755143" flag="0"/>
      <psa03 value="0.0324754789" flag="0"/>
      <psa10 value="0.0067530870" flag="0"/>
      <psa30 value="0.0005847853" flag="0"/>
    </comp>
    <comp name="00.HHZ">
      <acc value="0.0087591175" flag="0"/>
      <vel value="0.0037676986" flag="0"/>
      <psa03 value="0.0119743731" flag="0"/>
      <psa10 value="0.0065528611" flag="0"/>
      <psa30 value="0.0002858720" flag="0"/>
    </comp>
    <comp name="00.HHE">
      <acc value="0.0123047561" flag="0"/>
      <vel value="0.0054751619" flag="0"/>
      <psa03 value="0.0276168743" flag="0"/>
      <psa10 value="0.0071776343" flag="0"/>
      <psa30 value="0.0005212231" flag="0"/>
    </comp>
  </station>
  <station code="SPB4" name="SPB4" netid="NO" insttype="CMG-3T" lat="78.1789" lon="16.3482">
    <comp name="00.HHN">
      <acc value="0.0113719685" flag="0"/>
      <vel value="0.0047667984" flag="0"/>
      <psa03 value="0.0387466260" flag="0"/>
      <psa10 value="0.0072409585" flag="0"/>
      <psa30 value="0.0006001397" flag="0"/>
    </comp>
    <comp name="00.HHE">
      <acc value="0.0129106154" flag="0"/>
      <vel value="0.0055135432" flag="0"/>
      <psa03 value="0.0297602526" flag="0"/>
      <psa10 value="0.0059066284" flag="0"/>
      <psa30 value="0.0006716173" flag="0"/>
    </comp>
    <comp name="00.HHZ">
      <acc value="0.0089055584" flag="0"/>
      <vel value="0.0044041110" flag="0"/>
      <psa03 value="0.0158766920" flag="0"/>
      <psa10 value="0.0071719076" flag="0"/>
      <psa30 value="0.0002928833" flag="0"/>
    </comp>
  </station>
  <station code="SPB5" name="SPB5" netid="NO" insttype="CMG-3T" lat="78.1823" lon="16.3683">
    <comp name="00.HHN">
      <acc value="0.0113531960" flag="0"/>
      <vel value="0.0045520245" flag="0"/>
      <psa03 value="0.0262035111" flag="0"/>
      <psa10 value="0.0060162129" flag="0"/>
      <psa30 value="0.0005866612" flag="0"/>
    </comp>
    <comp name="00.HHE">
      <acc value="0.0091250108" flag="0"/>
      <vel value="0.0050573148" flag="0"/>
      <psa03 value="0.0269770043" flag="0"/>
      <psa10 value="0.0043906803" flag="0"/>
      <psa30 value="0.0005673079" flag="0"/>
    </comp>
    <comp name="00.HHZ">
      <acc value="0.0085959180" flag="0"/>
      <vel value="0.0046802256" flag="0"/>
      <psa03 value="0.0156096930" flag="0"/>
      <psa10 value="0.0054766207" flag="0"/>
      <psa30 value="0.0002304152" flag="0"/>
    </comp>
  </station>
</stationlist>
