<?xml version="1.0" encoding="UTF-8" standalone="yes"?>
<!DOCTYPE earthquake SYSTEM "stationlist.dtd">
<stationlist created="" xmlns="ch.ethz.sed.shakemap.usgs.xml">
  <station code="GAZ" name="GAZ" netid="KO" insttype="CMG-3T" lat="37.1721" lon="37.2096">
    <comp name="--.HHE">
      <acc value="0.0132747225" flag="0"/>
      <vel value="0.0082971059" flag="0"/>
      <psa03 value="0.0288307601" flag="0"/>
      <psa10 value="0.0108440938" flag="0"/>
      <psa30 value="0.0006048521" flag="0"/>
    </comp>
    <comp name="--.HHN">
      <acc value="0.0164789080" flag="0"/>
      <vel value="0.0103442716" flag="0"/>
      <psa03 value="0.0417491603" flag="0"/>
      <psa10 value="0.0131295003" flag="0"/>
      <psa30 value="0.0005716435" flag="0"/>
    </comp>
    <comp name="--.HHZ">
      <acc value="0.0086108036" flag="0"/>
      <vel value="0.0034833596" flag="0"/>
      <psa03 value="0.0170508435" flag="0"/>
      <psa10 value="0.0037465163" flag="0"/>
      <psa30 value="0.0003413318" flag="0"/>
    </comp>
  </station>
  <station code="KARA" name="KARA" netid="KO" insttype="CMG-3ESP" lat="37.2607" lon="35.0547">
    <comp name="--.HHE">
      <acc value="0.0032309278" flag="0"/>
      <vel value="0.0017176751" flag="0"/>
      <psa03 value="0.0079925092" flag="0"/>
      <psa10 value="0.0019143524" flag="0"/>
      <psa30 value="0.0001243599" flag="0"/>
    </comp>
    <comp name="--.HHN">
      <acc value="0.0026643632" flag="0"/>
      <vel value="0.0012676664" flag="0"/>
      <psa03 value="0.0067206226" flag="0"/>
      <psa10 value="0.0029094623" flag="0"/>
      <psa30 value="0.0002511803" flag="0"/>
    </comp>
    <comp name="--.HHZ">
      <acc value="0.0023512610" flag="0"/>
      <vel value="0.0012413539" flag="0"/>
      <psa03 value="0.0075580965" flag="0"/>
      <psa10 value="0.0019958031" flag="0"/>
      <psa30 value="0.0002009020" flag="0"/>
    </comp>
  </station>
  <station code="KMRS" name="KMRS" netid="KO" insttype="CMG-3T" lat="37.5087" lon="36.9">
    <comp name="--.HHZ">
      <acc value="0.0140327976" flag="0"/>
      <vel value="0.0052348685" flag="0"/>
      <psa03 value="0.0215909317" flag="0"/>
      <psa10 value="0.0039669640" flag="0"/>
      <psa30 value="0.0008530686" flag="0"/>
    </comp>
    <comp name="--.HHE">
      <acc value="0.0142051728" flag="0"/>
      <vel value="0.0073166388" flag="0"/>
      <psa03 value="0.0440300225" flag="0"/>
      <psa10 value="0.0071751740" flag="0"/>
      <psa30 value="0.0006876028" flag="0"/>
    </comp>
    <comp name="--.HHN">
      <acc value="0.0164862376" flag="0"/>
      <vel value="0.0065330917" flag="0"/>
      <psa03 value="0.0353525421" flag="0"/>
      <psa10 value="0.0089402468" flag="0"/>
      <psa30 value="0.0006530014" flag="0"/>
    </comp>
  </station>
  <station code="SARI" name="SARI" netid="KO" insttype="CMG-3T" lat="38.4072" lon="36.4181">
    <comp name="--.HHZ">
      <acc value="0.0192737629" flag="0"/>
      <vel value="0.0086691741" flag="0"/>
      <psa03 value="0.0393866947" flag="0"/>
      <psa10 value="0.0083345862" flag="0"/>
      <psa30 value="0.0008823828" flag="0"/>
    </comp>
    <comp name="--.HHE">
      <acc value="0.0334699382" flag="0"/>
      <vel value="0.0093507539" flag="0"/>
      <psa03 value="0.0378379961" flag="0"/>
      <psa10 value="0.0073768376" flag="0"/>
      <psa30 value="0.0006183771" flag="0"/>
    </comp>
    <comp name="--.HHN">
      <acc value="0.0245939667" flag="0"/>
      <vel value="0.0098638043" flag="0"/>
      <psa03 value="0.0538708201" flag="0"/>
      <psa10 value="0.0069641165" flag="0"/>
      <psa30 value="0.0008694126" flag="0"/>
    </comp>
  </station>
</stationlist>
