<?xml version="1.0" encoding="UTF-8" standalone="yes"?>
<!DOCTYPE earthquake SYSTEM "stationlist.dtd">
<stationlist created="" xmlns="ch.ethz.sed.shakemap.usgs.xml">
  <station code="KTHA" name="KTHA" netid="GE" insttype="STS-2/N" lat="36.2566" lon="23.0621">
    <comp name="--.HHE">
      <acc value="0.0157152122" flag="0"/>
      <vel value="0.0063186152" flag="0"/>
      <psa03 value="0.0455123202" flag="0"/>
      <psa10 value="0.0064336524" flag="0"/>
      <psa30 value="0.0006273304" flag="0"/>
    </comp>
    <comp name="--.HHN">
      <acc value="0.0083692008" flag="0"/>
      <vel value="0.0054684063" flag="0"/>
      <psa03 value="0.0214777572" flag="0"/>
      <psa10 value="0.0079389805" flag="0"/>
      <psa30 value="0.0006478698" flag="0"/>
    </comp>
    <comp name="--.HHZ">
      <acc value="0.0052414046" flag="0"/>
      <vel value="0.0029033969" flag="0"/>
      <psa03 value="0.0169344746" flag="0"/>
      <psa10 value="0.0035852432" flag="0"/>
      <psa30 value="0.0003684643" flag="0"/>
    </comp>
  </station>
  <station code="KTHR" name="KTHR" netid="HC" insttype="60" lat="36.2447" lon="22.9939">
    <comp name="--.HHZ">
      <acc value="0.0183583687" flag="0"/>
      <vel value="0.0073181566" flag="0"/>
      <psa03 value="0.0404366827" flag="0"/>
      <psa10 value="0.0044423859" flag="0"/>
      <psa30 value="0.0003702387" flag="0"/>
    </comp>
    <comp name="--.HHE">
      <acc value="0.0290926312" flag="0"/>
      <vel value="0.0188292605" flag="0"/>
      <psa03 value="0.0636436306" flag="0"/>
      <psa10 value="0.0104092122" flag="0"/>
      <psa30 value="0.0007828900" flag="0"/>
    </comp>
    <comp name="--.HHN">
      <acc value="0.0493623024" flag="0"/>
      <vel value="0.0211119294" flag="0"/>
      <psa03 value="0.1028066312" flag="0"/>
      <psa10 value="0.0102957594" flag="0"/>
      <psa30 value="0.0009126153" flag="0"/>
    </comp>
  </station>
  <station code="PYL1" name="PYL1" netid="HI" insttype="CMG-5TD,ACCELEROMETER,GURALP" lat="36.9142" lon="21.6952">
    <comp name="--.HNZ">
      <acc value="0.0095277514" flag="0"/>
      <vel value="0.0036525977" flag="0"/>
      <psa03 value="0.0138845337" flag="0"/>
      <psa10 value="0.0049386555" flag="0"/>
      <psa30 value="0.0004836975" flag="0"/>
    </comp>
    <comp name="--.HNN">
      <acc value="0.0128457198" flag="0"/>
      <vel value="0.0049379251" flag="0"/>
      <psa03 value="0.0297610875" flag="0"/>
      <psa10 value="0.0041898968" flag="0"/>
      <psa30 value="0.0003928405" flag="0"/>
    </comp>
    <comp name="--.HNE">
      <acc value="0.0089832950" flag="0"/>
      <vel value="0.0060573711" flag="0"/>
      <psa03 value="0.0281730366" flag="0"/>
      <psa10 value="0.0070962999" flag="0"/>
      <psa30 value="0.0006883881" flag="0"/>
    </comp>
  </station>
  <station code="KTHA" name="KTHA" netid="HL" insttype="120" lat="36.2566" lon="23.0621">
    <comp name="--.HHE">
      <acc value="0.0149315556" flag="0"/>
      <vel value="0.0062379958" flag="0"/>
      <psa03 value="0.0445880025" flag="0"/>
      <psa10 value="0.0063817554" flag="0"/>
      <psa30 value="0.0006260674" flag="0"/>
    </comp>
    <comp name="--.HHN">
      <acc value="0.0081716523" flag="0"/>
      <vel value="0.0053869236" flag="0"/>
      <psa03 value="0.0210367083" flag="0"/>
      <psa10 value="0.0078791288" flag="0"/>
      <psa30 value="0.0006455804" flag="0"/>
    </comp>
    <comp name="--.HHZ">
      <acc value="0.0049924102" flag="0"/>
      <vel value="0.0028433159" flag="0"/>
      <psa03 value="0.0165859823" flag="0"/>
      <psa10 value="0.0035586663" flag="0"/>
      <psa30 value="0.0003672768" flag="0"/>
    </comp>
  </station>
  <station code="VLI" name="VLI" netid="HL" insttype="60" lat="36.718" lon="22.9469">
    <comp name="--.HHE">
      <acc value="0.0086808449" flag="0"/>
      <vel value="0.0077356216" flag="0"/>
      <psa03 value="0.0281568493" flag="0"/>
      <psa10 value="0.0083479713" flag="0"/>
      <psa30 value="0.0008463686" flag="0"/>
    </comp>
    <comp name="--.HHN">
      <acc value="0.0118662820" flag="0"/>
      <vel value="0.0057195559" flag="0"/>
      <psa03 value="0.0253436575" flag="0"/>
      <psa10 value="0.0091003456" flag="0"/>
      <psa30 value="0.0007167222" flag="0"/>
    </comp>
    <comp name="--.HHZ">
      <acc value="0.0058008735" flag="0"/>
      <vel value="0.0036613464" flag="0"/>
      <psa03 value="0.0127836178" flag="0"/>
      <psa10 value="0.0037176637" flag="0"/>
      <psa30 value="0.0003474336" flag="0"/>
    </comp>
  </station>
</stationlist>
