<stationlist created="1631873531">
	<station code="NPS1" name="NPS1" netid="HI" source="ITSAK Strong Motion Network" insttype="" lat="36.51263" lon="23.06248">
		<comp name="--.HNE" depth="0.0">
			<acc value="0.01752258" flag="0"/>
			<vel value="-0.015261" flag="0"/>
			<psa03 value="0.073019281201" flag="0"/>
			<psa10 value="0.0180722720973" flag="0"/>
			<psa30 value="0.00152212986915" flag="0"/>
		</comp>
		<comp name="--.HNN" depth="0.0">
			<acc value="-0.017359176" flag="0"/>
			<vel value="-0.012589" flag="0"/>
			<psa03 value="0.0374044847329" flag="0"/>
			<psa10 value="0.0139729911269" flag="0"/>
			<psa30 value="0.00125054467498" flag="0"/>
		</comp>
		<comp name="--.HNZ" depth="0.0">
			<acc value="0.013380972" flag="0"/>
			<vel value="-0.005094" flag="0"/>
			<psa03 value="0.0301115050541" flag="0"/>
			<psa10 value="0.00562946443671" flag="0"/>
			<psa30 value="0.000607599165876" flag="0"/>
		</comp>
	</station>
	<station code="PYL1" name="PYL1" netid="HI" source="ITSAK Strong Motion Network" insttype="" lat="36.914188" lon="21.695161">
		<comp name="--.HNE" depth="0.0">
			<acc value="-0.008939178" flag="0"/>
			<vel value="0.00609" flag="0"/>
			<psa03 value="0.0276506836901" flag="0"/>
			<psa10 value="0.00709924592412" flag="0"/>
			<psa30 value="0.000747642272591" flag="0"/>
		</comp>
		<comp name="--.HNN" depth="0.0">
			<acc value="-0.012892188" flag="0"/>
			<vel value="-0.004952" flag="0"/>
			<psa03 value="0.0306484115335" flag="0"/>
			<psa10 value="0.00419592413666" flag="0"/>
			<psa30 value="0.000418339631881" flag="0"/>
		</comp>
		<comp name="--.HNZ" depth="0.0">
			<acc value="-0.009483858" flag="0"/>
			<vel value="-0.003778" flag="0"/>
			<psa03 value="0.0141385372914" flag="0"/>
			<psa10 value="0.00494490867545" flag="0"/>
			<psa30 value="0.000530642570493" flag="0"/>
		</comp>
	</station>
</stationlist>
