<?xml version="1.0" encoding="UTF-8" standalone="yes"?>
<!DOCTYPE earthquake SYSTEM "stationlist.dtd">
<stationlist created="" xmlns="ch.ethz.sed.shakemap.usgs.xml">
  <station code="THERA" name="THERA" netid="GE" insttype="STS-2/N" lat="36.367" lon="25.4753">
    <comp name="--.HHN">
      <acc value="0.0120591288" flag="0"/>
      <vel value="0.0021311804" flag="0"/>
      <psa03 value="0.0099241776" flag="0"/>
      <psa10 value="0.0007477123" flag="0"/>
      <psa30 value="0.0001436461" flag="0"/>
    </comp>
    <comp name="--.HHE">
      <acc value="0.0210970486" flag="0"/>
      <vel value="0.0026934847" flag="0"/>
      <psa03 value="0.0145188151" flag="0"/>
      <psa10 value="0.0016741811" flag="0"/>
      <psa30 value="0.0003326495" flag="0"/>
    </comp>
    <comp name="--.HHZ">
      <acc value="0.0190069902" flag="0"/>
      <vel value="0.0035704712" flag="0"/>
      <psa03 value="0.0127676519" flag="0"/>
      <psa10 value="0.0008286498" flag="0"/>
      <psa30 value="0.0001643549" flag="0"/>
    </comp>
  </station>
  <station code="NAX1" name="NAX1" netid="HI" insttype="CMG-5TD,ACCELEROMETER,GURALP" lat="37.1014" lon="25.3741">
    <comp name="--.HNZ">
      <acc value="0.0189610584" flag="0"/>
      <vel value="0.0064206180" flag="0"/>
      <psa03 value="0.0282071444" flag="0"/>
      <psa10 value="0.0013234896" flag="0"/>
      <psa30 value="0.0001855963" flag="0"/>
    </comp>
    <comp name="--.HNN">
      <acc value="0.0462367452" flag="0"/>
      <vel value="0.0106137042" flag="0"/>
      <psa03 value="0.0425998870" flag="0"/>
      <psa10 value="0.0014855608" flag="0"/>
      <psa30 value="0.0001962762" flag="0"/>
    </comp>
    <comp name="--.HNE">
      <acc value="0.0378230132" flag="0"/>
      <vel value="0.0070258402" flag="0"/>
      <psa03 value="0.0369022346" flag="0"/>
      <psa10 value="0.0013337052" flag="0"/>
      <psa30 value="0.0002295371" flag="0"/>
    </comp>
  </station>
  <station code="AMGA" name="AMGA" netid="HL" insttype="SMART24" lat="36.8316" lon="25.8938">
    <comp name="--.HHN">
      <acc value="0.2305874304" flag="0"/>
      <vel value="0.0429650878" flag="0"/>
      <psa03 value="0.1068309695" flag="0"/>
      <psa10 value="0.0143507625" flag="0"/>
      <psa30 value="0.0014491782" flag="0"/>
    </comp>
    <comp name="--.HHE">
      <acc value="0.2477734225" flag="0"/>
      <vel value="0.0541277839" flag="0"/>
      <psa03 value="0.2589951149" flag="0"/>
      <psa10 value="0.0169903573" flag="0"/>
      <psa30 value="0.0013049782" flag="0"/>
    </comp>
    <comp name="--.HHZ">
      <acc value="0.1582351090" flag="0"/>
      <vel value="0.0354099975" flag="0"/>
      <psa03 value="0.0838594233" flag="0"/>
      <psa10 value="0.0070380603" flag="0"/>
      <psa30 value="0.0008266286" flag="0"/>
    </comp>
  </station>
  <station code="MILA" name="MILA" netid="HL" insttype="CMG-5" lat="36.7429" lon="24.4282">
    <comp name="00.HNZ">
      <acc value="0.0094638744" flag="0"/>
      <vel value="0.0034904078" flag="0"/>
      <psa03 value="0.0192610344" flag="0"/>
      <psa10 value="0.0025734238" flag="0"/>
      <psa30 value="0.0003428891" flag="0"/>
    </comp>
    <comp name="00.HNE">
      <acc value="0.0117831530" flag="0"/>
      <vel value="0.0044342965" flag="0"/>
      <psa03 value="0.0231206490" flag="0"/>
      <psa10 value="0.0021984327" flag="0"/>
      <psa30 value="0.0006432843" flag="0"/>
    </comp>
    <comp name="00.HNN">
      <acc value="0.0176631945" flag="0"/>
      <vel value="0.0072287205" flag="0"/>
      <psa03 value="0.0465753967" flag="0"/>
      <psa10 value="0.0036545669" flag="0"/>
      <psa30 value="0.0006990706" flag="0"/>
    </comp>
  </station>
  <station code="THERA" name="THERA" netid="HL" insttype="120" lat="36.367" lon="25.4753">
    <comp name="--.HHN">
      <acc value="0.0254734259" flag="0"/>
      <vel value="0.0041211649" flag="0"/>
      <psa03 value="0.0192232353" flag="0"/>
      <psa10 value="0.0014687699" flag="0"/>
      <psa30 value="0.0002874013" flag="0"/>
    </comp>
    <comp name="--.HHZ">
      <acc value="0.0192153232" flag="0"/>
      <vel value="0.0035388106" flag="0"/>
      <psa03 value="0.0123936737" flag="0"/>
      <psa10 value="0.0008207137" flag="0"/>
      <psa30 value="0.0001644431" flag="0"/>
    </comp>
    <comp name="--.HHE">
      <acc value="0.0207308470" flag="0"/>
      <vel value="0.0026888157" flag="0"/>
      <psa03 value="0.0140910261" flag="0"/>
      <psa10 value="0.0016552708" flag="0"/>
      <psa30 value="0.0003321656" flag="0"/>
    </comp>
  </station>
</stationlist>
