<?xml version="1.0" encoding="UTF-8" standalone="yes"?>
<!DOCTYPE earthquake SYSTEM "stationlist.dtd">
<stationlist created="" xmlns="ch.ethz.sed.shakemap.usgs.xml">
  <station code="KARO" name="KARO" netid="KO" insttype="120s," lat="39.3089" lon="41.0493">
    <comp name="--.HHE">
      <acc value="0.0553437774" flag="0"/>
      <vel value="0.0404608631" flag="0"/>
      <psa03 value="0.1022288882" flag="0"/>
      <psa10 value="0.0344843020" flag="0"/>
      <psa30 value="0.0023811951" flag="0"/>
    </comp>
    <comp name="--.HHZ">
      <acc value="0.0276412714" flag="0"/>
      <vel value="0.0123160919" flag="0"/>
      <psa03 value="0.0438452330" flag="0"/>
      <psa10 value="0.0103243212" flag="0"/>
      <psa30 value="0.0011695484" flag="0"/>
    </comp>
    <comp name="--.HHN">
      <acc value="0.0421044791" flag="0"/>
      <vel value="0.0326092859" flag="0"/>
      <psa03 value="0.1130283425" flag="0"/>
      <psa10 value="0.0315583174" flag="0"/>
      <psa30 value="0.0021729678" flag="0"/>
    </comp>
  </station>
</stationlist>
