<stationlist xmlns:esm="https://esm-db.eu/esmws/shakemap/1/" created="1783734845">
	<station code="BLY" name="BLY" netid="MN" source="Mediterranean Very Broadband Seismographic Network (MedNet)" insttype="" lat="44.7488" lon="17.1839" esm:processing="automatic (Paolucci et al 2011)" esm:quality="best">
		<comp name="--.HNE" depth="1.0">
			<acc value="0.0300378064066745" flag="0"/>
			<vel value="0.0135234411876696" flag="0"/>
			<psa03 value="0.0698639562693724" flag="0"/>
			<psa10 value="0.0071786299239883" flag="0"/>
			<psa30 value="0.00044549258461417" flag="0"/>
		</comp>
		<comp name="--.HNN" depth="1.0">
			<acc value="0.0176664852117149" flag="0"/>
			<vel value="0.0088971152201519" flag="0"/>
			<psa03 value="0.0508869595529435" flag="0"/>
			<psa10 value="0.0058556388448546" flag="0"/>
			<psa30 value="0.00038524333298032" flag="0"/>
		</comp>
		<comp name="--.HNZ" depth="1.0">
			<acc value="0.0177817278219295" flag="0"/>
			<vel value="0.00718048708090326" flag="0"/>
			<psa03 value="0.0381613717535747" flag="0"/>
			<psa10 value="0.00549484900679427" flag="0"/>
			<psa30 value="0.000291926265765551" flag="0"/>
		</comp>
	</station>
	<station code="BOJS" name="BOJS" netid="SL" source="Seismic Network of the Republic of Slovenia (SNRS)" insttype="" lat="45.5043" lon="15.2518" esm:processing="manual (Paolucci et al 2011)" esm:quality="best">
		<comp name="--.HNE" depth="0.0">
			<acc value="0.0180566912321811" flag="0"/>
			<vel value="0.00547136380531923" flag="0"/>
			<psa03 value="0.0260172573697631" flag="0"/>
			<psa10 value="0.00271043556867907" flag="0"/>
			<psa30 value="0.000207895308502425" flag="0"/>
		</comp>
		<comp name="--.HNN" depth="0.0">
			<acc value="0.0161531504957099" flag="0"/>
			<vel value="0.00707453017319439" flag="0"/>
			<psa03 value="0.0413810485830686" flag="0"/>
			<psa10 value="0.00487717605773874" flag="0"/>
			<psa30 value="0.000263025653325274" flag="0"/>
		</comp>
		<comp name="--.HNZ" depth="0.0">
			<acc value="0.0131250766242555" flag="0"/>
			<vel value="0.00470396161434365" flag="0"/>
			<psa03 value="0.020836668087405" flag="0"/>
			<psa10 value="0.00385261873270798" flag="0"/>
			<psa30 value="0.000257248603957649" flag="0"/>
		</comp>
	</station>
	<station code="CEY" name="CEY" netid="SL" source="Seismic Network of the Republic of Slovenia (SNRS)" insttype="" lat="45.7381" lon="14.4221" esm:processing="manual (Paolucci et al 2011)" esm:quality="best">
		<comp name="--.HNE" depth="0.0">
			<acc value="0.00460025259832343" flag="0"/>
			<vel value="0.00204070809674046" flag="0"/>
			<psa03 value="0.0112518951223926" flag="0"/>
			<psa10 value="0.00169862639284782" flag="0"/>
			<psa30 value="0.000182420574051032" flag="0"/>
		</comp>
		<comp name="--.HNN" depth="0.0">
			<acc value="0.00574244319655784" flag="0"/>
			<vel value="0.00359967721848763" flag="0"/>
			<psa03 value="0.0172056463000216" flag="0"/>
			<psa10 value="0.00239480669106539" flag="0"/>
			<psa30 value="0.000156430219505105" flag="0"/>
		</comp>
		<comp name="--.HNZ" depth="0.0">
			<acc value="0.0039789749512023" flag="0"/>
			<vel value="0.00252490801724441" flag="0"/>
			<psa03 value="0.00982698692713864" flag="0"/>
			<psa10 value="0.00254828607706962" flag="0"/>
			<psa30 value="0.000185197346540135" flag="0"/>
		</comp>
	</station>
	<station code="CRES" name="CRES" netid="SL" source="Seismic Network of the Republic of Slovenia (SNRS)" insttype="" lat="45.826" lon="15.4569" esm:processing="manual (Paolucci et al 2011)" esm:quality="best">
		<comp name="--.HNE" depth="0.0">
			<acc value="0.0181245839244804" flag="0"/>
			<vel value="0.00603654908633347" flag="0"/>
			<psa03 value="0.049907337366231" flag="0"/>
			<psa10 value="0.00284343859822679" flag="0"/>
			<psa30 value="0.000169085250547257" flag="0"/>
		</comp>
		<comp name="--.HNN" depth="0.0">
			<acc value="0.0201375879900615" flag="0"/>
			<vel value="0.00582129899626245" flag="0"/>
			<psa03 value="0.0253086088628014" flag="0"/>
			<psa10 value="0.00386272518345967" flag="0"/>
			<psa30 value="0.000174833508945184" flag="0"/>
		</comp>
		<comp name="--.HNZ" depth="0.0">
			<acc value="0.0147214390576466" flag="0"/>
			<vel value="0.00464327150725558" flag="0"/>
			<psa03 value="0.0258465116837356" flag="0"/>
			<psa10 value="0.00211523996801811" flag="0"/>
			<psa30 value="0.000125942106067185" flag="0"/>
		</comp>
	</station>
	<station code="CRNS" name="CRNS" netid="SL" source="Seismic Network of the Republic of Slovenia (SNRS)" insttype="" lat="46.0807" lon="14.2613" esm:processing="manual (Paolucci et al 2011)" esm:quality="best">
		<comp name="--.HNE" depth="0.0">
			<acc value="0.00752518787610064" flag="0"/>
			<vel value="0.00445452014489056" flag="0"/>
			<psa03 value="0.0232360028127975" flag="0"/>
			<psa10 value="0.00316072414808954" flag="0"/>
			<psa30 value="0.000167788224521322" flag="0"/>
		</comp>
		<comp name="--.HNN" depth="0.0">
			<acc value="0.00563281193329062" flag="0"/>
			<vel value="0.00343316296469077" flag="0"/>
			<psa03 value="0.0134633554228883" flag="0"/>
			<psa10 value="0.0026172697875305" flag="0"/>
			<psa30 value="0.000167077083661687" flag="0"/>
		</comp>
		<comp name="--.HNZ" depth="0.0">
			<acc value="0.00256724872011939" flag="0"/>
			<vel value="0.00116051995691685" flag="0"/>
			<psa03 value="0.00854094339974919" flag="0"/>
			<psa10 value="0.00130909277565778" flag="0"/>
			<psa30 value="6.66124010261145e-05" flag="0"/>
		</comp>
	</station>
	<station code="DOBS" name="DOBS" netid="SL" source="Seismic Network of the Republic of Slovenia (SNRS)" insttype="" lat="46.1495" lon="15.4695" esm:processing="manual (Paolucci et al 2011)" esm:quality="best">
		<comp name="--.HNE" depth="0.0">
			<acc value="0.0170916251186617" flag="0"/>
			<vel value="0.00523025838085223" flag="0"/>
			<psa03 value="0.0201147517744116" flag="0"/>
			<psa10 value="0.0035281516914846" flag="0"/>
			<psa30 value="0.000215774945072716" flag="0"/>
		</comp>
		<comp name="--.HNN" depth="0.0">
			<acc value="0.0225533262758558" flag="0"/>
			<vel value="0.00575929433834198" flag="0"/>
			<psa03 value="0.0233540835517418" flag="0"/>
			<psa10 value="0.00273488109432392" flag="0"/>
			<psa30 value="0.000289052898335988" flag="0"/>
		</comp>
		<comp name="--.HNZ" depth="0.0">
			<acc value="0.0118934210484987" flag="0"/>
			<vel value="0.00403417717850189" flag="0"/>
			<psa03 value="0.00896324351046352" flag="0"/>
			<psa10 value="0.00357647317379727" flag="0"/>
			<psa30 value="0.000277081089637564" flag="0"/>
		</comp>
	</station>
	<station code="GBAS" name="GBAS" netid="SL" source="Seismic Network of the Republic of Slovenia (SNRS)" insttype="" lat="45.9348" lon="14.4434" esm:processing="manual (Paolucci et al 2011)" esm:quality="best">
		<comp name="--.HNE" depth="0.0">
			<acc value="0.00244717309759345" flag="0"/>
			<vel value="0.00105267403729506" flag="0"/>
			<psa03 value="0.00448910044075003" flag="0"/>
			<psa10 value="0.00105096891840691" flag="0"/>
			<psa30 value="6.06522535912169e-05" flag="0"/>
		</comp>
		<comp name="--.HNN" depth="0.0">
			<acc value="0.00262942784470346" flag="0"/>
			<vel value="0.0012244182380558" flag="0"/>
			<psa03 value="0.00754926312244785" flag="0"/>
			<psa10 value="0.00180198546644498" flag="0"/>
			<psa30 value="0.000100885797772389" flag="0"/>
		</comp>
		<comp name="--.HNZ" depth="0.0">
			<acc value="0.00238502765420021" flag="0"/>
			<vel value="0.000947840763580531" flag="0"/>
			<psa03 value="0.00464099396652045" flag="0"/>
			<psa10 value="0.0015661427727101" flag="0"/>
			<psa30 value="6.98340727791042e-05" flag="0"/>
		</comp>
	</station>
	<station code="GBRS" name="GBRS" netid="SL" source="Seismic Network of the Republic of Slovenia (SNRS)" insttype="" lat="45.5311" lon="14.8101" esm:processing="manual (Paolucci et al 2011)" esm:quality="best">
		<comp name="--.HNE" depth="0.0">
			<acc value="0.00974949949105523" flag="0"/>
			<vel value="0.0026571653295709" flag="0"/>
			<psa03 value="0.0105412217417258" flag="0"/>
			<psa10 value="0.00225883932451817" flag="0"/>
			<psa30 value="0.000147994621625649" flag="0"/>
		</comp>
		<comp name="--.HNN" depth="0.0">
			<acc value="0.0106535774044855" flag="0"/>
			<vel value="0.00270498957271264" flag="0"/>
			<psa03 value="0.00800536169612877" flag="0"/>
			<psa10 value="0.00243442079967937" flag="0"/>
			<psa30 value="0.000198714583136659" flag="0"/>
		</comp>
		<comp name="--.HNZ" depth="0.0">
			<acc value="0.00621834278609445" flag="0"/>
			<vel value="0.00377872180743186" flag="0"/>
			<psa03 value="0.00956968863241652" flag="0"/>
			<psa10 value="0.002697761135311" flag="0"/>
			<psa30 value="0.000273804570500705" flag="0"/>
		</comp>
	</station>
	<station code="GCIS" name="GCIS" netid="SL" source="Seismic Network of the Republic of Slovenia (SNRS)" insttype="" lat="45.8672" lon="15.6275" esm:processing="manual (Paolucci et al 2011)" esm:quality="best">
		<comp name="--.HNE" depth="0.0">
			<acc value="0.0276091939359359" flag="0"/>
			<vel value="0.00552309549996105" flag="0"/>
			<psa03 value="0.0229004649600959" flag="0"/>
			<psa10 value="0.00200121577384677" flag="0"/>
			<psa30 value="0.00013018282970286" flag="0"/>
		</comp>
		<comp name="--.HNN" depth="0.0">
			<acc value="0.0303123093796321" flag="0"/>
			<vel value="0.00661911753214594" flag="0"/>
			<psa03 value="0.0289569885708957" flag="0"/>
			<psa10 value="0.0050349766675125" flag="0"/>
			<psa30 value="0.000164794093883302" flag="0"/>
		</comp>
		<comp name="--.HNZ" depth="0.0">
			<acc value="0.0122209999824189" flag="0"/>
			<vel value="0.00324744664596422" flag="0"/>
			<psa03 value="0.0110695119466792" flag="0"/>
			<psa10 value="0.00236431084273797" flag="0"/>
			<psa30 value="0.000107395154766692" flag="0"/>
		</comp>
	</station>
	<station code="GOLS" name="GOLS" netid="SL" source="Seismic Network of the Republic of Slovenia (SNRS)" insttype="" lat="46.0108" lon="15.6245" esm:processing="manual (Paolucci et al 2011)" esm:quality="best">
		<comp name="--.HNE" depth="0.0">
			<acc value="0.0267401220575156" flag="0"/>
			<vel value="0.00849624248403354" flag="0"/>
			<psa03 value="0.0408069324256698" flag="0"/>
			<psa10 value="0.00623765415147471" flag="0"/>
			<psa30 value="0.000253051503003495" flag="0"/>
		</comp>
		<comp name="--.HNN" depth="0.0">
			<acc value="0.0234692127291826" flag="0"/>
			<vel value="0.00878749313979801" flag="0"/>
			<psa03 value="0.0614648217427868" flag="0"/>
			<psa10 value="0.00762643583894572" flag="0"/>
			<psa30 value="0.000389290423996718" flag="0"/>
		</comp>
		<comp name="--.HNZ" depth="0.0">
			<acc value="0.00999138300197476" flag="0"/>
			<vel value="0.00393855379532198" flag="0"/>
			<psa03 value="0.025273351318823" flag="0"/>
			<psa10 value="0.00447944533501947" flag="0"/>
			<psa30 value="0.000185388309711513" flag="0"/>
		</comp>
	</station>
	<station code="GORS" name="GORS" netid="SL" source="Seismic Network of the Republic of Slovenia (SNRS)" insttype="" lat="46.3174" lon="13.9999" esm:processing="manual (Paolucci et al 2011)" esm:quality="best">
		<comp name="--.HNE" depth="0.0">
			<acc value="0.00170125193318999" flag="0"/>
			<vel value="0.000922865129071626" flag="0"/>
			<psa03 value="0.0050480798532257" flag="0"/>
			<psa10 value="0.000806254660414932" flag="0"/>
			<psa30 value="5.69232760962272e-05" flag="0"/>
		</comp>
		<comp name="--.HNN" depth="0.0">
			<acc value="0.00135582844827798" flag="0"/>
			<vel value="0.000701952851439443" flag="0"/>
			<psa03 value="0.00286984733986221" flag="0"/>
			<psa10 value="0.000917084580476976" flag="0"/>
			<psa30 value="5.60840082591264e-05" flag="0"/>
		</comp>
		<comp name="--.HNZ" depth="0.0">
			<acc value="0.00145890443694927" flag="0"/>
			<vel value="0.000713136014470834" flag="0"/>
			<psa03 value="0.00295108319009114" flag="0"/>
			<psa10 value="0.000907725542520023" flag="0"/>
			<psa30 value="5.55915342288702e-05" flag="0"/>
		</comp>
	</station>
	<station code="GROS" name="GROS" netid="SL" source="Seismic Network of the Republic of Slovenia (SNRS)" insttype="" lat="46.461" lon="15.5018" esm:processing="manual (Paolucci et al 2011)" esm:quality="best">
		<comp name="--.HNE" depth="0.0">
			<acc value="0.00877393509279112" flag="0"/>
			<vel value="0.00311066949271526" flag="0"/>
			<psa03 value="0.00847339009657261" flag="0"/>
			<psa10 value="0.00235051813216541" flag="0"/>
			<psa30 value="0.000300575015786238" flag="0"/>
		</comp>
		<comp name="--.HNN" depth="0.0">
			<acc value="0.00910689804375872" flag="0"/>
			<vel value="0.00292325464902735" flag="0"/>
			<psa03 value="0.00570291034192135" flag="0"/>
			<psa10 value="0.00193205838001222" flag="0"/>
			<psa30 value="0.000154939795251242" flag="0"/>
		</comp>
		<comp name="--.HNZ" depth="0.0">
			<acc value="0.00711914923173662" flag="0"/>
			<vel value="0.0033089757714804" flag="0"/>
			<psa03 value="0.00732477494393863" flag="0"/>
			<psa10 value="0.00175847660763369" flag="0"/>
			<psa30 value="0.000278122408619405" flag="0"/>
		</comp>
	</station>
	<station code="JAVS" name="JAVS" netid="SL" source="Seismic Network of the Republic of Slovenia (SNRS)" insttype="" lat="45.8934" lon="14.0643" esm:processing="manual (Paolucci et al 2011)" esm:quality="best">
		<comp name="--.HNE" depth="0.0">
			<acc value="0.00344531562630215" flag="0"/>
			<vel value="0.001770780621059" flag="0"/>
			<psa03 value="0.00742131389122789" flag="0"/>
			<psa10 value="0.00277929505215763" flag="0"/>
			<psa30 value="0.000110018238689249" flag="0"/>
		</comp>
		<comp name="--.HNN" depth="0.0">
			<acc value="0.00224065048024088" flag="0"/>
			<vel value="0.00165334152738609" flag="0"/>
			<psa03 value="0.0077519308450854" flag="0"/>
			<psa10 value="0.00243213385130741" flag="0"/>
			<psa30 value="0.000129876403153295" flag="0"/>
		</comp>
		<comp name="--.HNZ" depth="0.0">
			<acc value="0.00183805518571469" flag="0"/>
			<vel value="0.0012043519382025" flag="0"/>
			<psa03 value="0.00469945063847144" flag="0"/>
			<psa10 value="0.00177229346043025" flag="0"/>
			<psa30 value="8.37276038347078e-05" flag="0"/>
		</comp>
	</station>
	<station code="KNDS" name="KNDS" netid="SL" source="Seismic Network of the Republic of Slovenia (SNRS)" insttype="" lat="45.5278" lon="14.3807" esm:processing="manual (Paolucci et al 2011)" esm:quality="best">
		<comp name="--.HNE" depth="0.0">
			<acc value="0.0065330895201707" flag="0"/>
			<vel value="0.00306492389464211" flag="0"/>
			<psa03 value="0.0149928851321278" flag="0"/>
			<psa10 value="0.00309777341541185" flag="0"/>
			<psa30 value="0.000196391460491097" flag="0"/>
		</comp>
		<comp name="--.HNN" depth="0.0">
			<acc value="0.00593789916130873" flag="0"/>
			<vel value="0.00282989637506815" flag="0"/>
			<psa03 value="0.0175833679368358" flag="0"/>
			<psa10 value="0.00284742394036311" flag="0"/>
			<psa30 value="0.000235372311010313" flag="0"/>
		</comp>
		<comp name="--.HNZ" depth="0.0">
			<acc value="0.0037272494429443" flag="0"/>
			<vel value="0.00165512778198646" flag="0"/>
			<psa03 value="0.00909985477382506" flag="0"/>
			<psa10 value="0.00145114363114307" flag="0"/>
			<psa30 value="0.000176535926409745" flag="0"/>
		</comp>
	</station>
	<station code="KOGS" name="KOGS" netid="SL" source="Seismic Network of the Republic of Slovenia (SNRS)" insttype="" lat="46.4481" lon="16.2504" esm:processing="manual (Paolucci et al 2011)" esm:quality="best">
		<comp name="--.HNE" depth="0.0">
			<acc value="0.0383184670307473" flag="0"/>
			<vel value="0.0193503481999471" flag="0"/>
			<psa03 value="0.0569804465500497" flag="0"/>
			<psa10 value="0.0125725963102952" flag="0"/>
			<psa30 value="0.00103988524146245" flag="0"/>
		</comp>
		<comp name="--.HNN" depth="0.0">
			<acc value="0.0479273857718408" flag="0"/>
			<vel value="0.0163559947969405" flag="0"/>
			<psa03 value="0.0601239725014143" flag="0"/>
			<psa10 value="0.00646395914307588" flag="0"/>
			<psa30 value="0.000791186214286285" flag="0"/>
		</comp>
		<comp name="--.HNZ" depth="0.0">
			<acc value="0.0186888501908688" flag="0"/>
			<vel value="0.00691737244968181" flag="0"/>
			<psa03 value="0.024064581139563" flag="0"/>
			<psa10 value="0.00395866942992007" flag="0"/>
			<psa30 value="0.000412394741002836" flag="0"/>
		</comp>
	</station>
	<station code="LJU" name="LJU" netid="SL" source="Seismic Network of the Republic of Slovenia (SNRS)" insttype="" lat="46.0438" lon="14.5278" esm:processing="manual (Paolucci et al 2011)" esm:quality="best">
		<comp name="--.HNE" depth="0.0">
			<acc value="0.00724102947981708" flag="0"/>
			<vel value="0.00284430004392277" flag="0"/>
			<psa03 value="0.0167957050809492" flag="0"/>
			<psa10 value="0.00284528981461126" flag="0"/>
			<psa30 value="0.000193160634485718" flag="0"/>
		</comp>
		<comp name="--.HNN" depth="0.0">
			<acc value="0.00521226238425954" flag="0"/>
			<vel value="0.00309008308433547" flag="0"/>
			<psa03 value="0.0172393724925712" flag="0"/>
			<psa10 value="0.00340870299734453" flag="0"/>
			<psa30 value="0.000138420002979201" flag="0"/>
		</comp>
		<comp name="--.HNZ" depth="0.0">
			<acc value="0.00323719758330799" flag="0"/>
			<vel value="0.00162993742877844" flag="0"/>
			<psa03 value="0.00675332042120933" flag="0"/>
			<psa10 value="0.00206095324678796" flag="0"/>
			<psa30 value="0.000159162561967768" flag="0"/>
		</comp>
	</station>
	<station code="MOZS" name="MOZS" netid="SL" source="Seismic Network of the Republic of Slovenia (SNRS)" insttype="" lat="46.2941" lon="14.4433" esm:processing="manual (Paolucci et al 2011)" esm:quality="best">
		<comp name="--.HNE" depth="0.0">
			<acc value="0.00357839932733368" flag="0"/>
			<vel value="0.00160968800890343" flag="0"/>
			<psa03 value="0.0100182176942129" flag="0"/>
			<psa10 value="0.00193005305185635" flag="0"/>
			<psa30 value="0.000154746878825292" flag="0"/>
		</comp>
		<comp name="--.HNN" depth="0.0">
			<acc value="0.00274291748904455" flag="0"/>
			<vel value="0.00130007764849682" flag="0"/>
			<psa03 value="0.00580613007031416" flag="0"/>
			<psa10 value="0.00193739193645881" flag="0"/>
			<psa30 value="0.000144552870189092" flag="0"/>
		</comp>
		<comp name="--.HNZ" depth="0.0">
			<acc value="0.00122312897766558" flag="0"/>
			<vel value="0.000782482487181344" flag="0"/>
			<psa03 value="0.00345281011193085" flag="0"/>
			<psa10 value="0.0014261990880661" flag="0"/>
			<psa30 value="0.000117918579756368" flag="0"/>
		</comp>
	</station>
	<station code="PDKS" name="PDKS" netid="SL" source="Seismic Network of the Republic of Slovenia (SNRS)" insttype="" lat="46.0612" lon="14.9977" esm:processing="manual (Paolucci et al 2011)" esm:quality="best">
		<comp name="--.HNE" depth="0.0">
			<acc value="0.00658859475864465" flag="0"/>
			<vel value="0.00331808501094733" flag="0"/>
			<psa03 value="0.0128852559287217" flag="0"/>
			<psa10 value="0.00484744361934803" flag="0"/>
			<psa30 value="0.000215011834624675" flag="0"/>
		</comp>
		<comp name="--.HNN" depth="0.0">
			<acc value="0.00459616813975984" flag="0"/>
			<vel value="0.0024148678739612" flag="0"/>
			<psa03 value="0.009699164657478" flag="0"/>
			<psa10 value="0.00239514069756748" flag="0"/>
			<psa30 value="0.000183415223275171" flag="0"/>
		</comp>
		<comp name="--.HNZ" depth="0.0">
			<acc value="0.00503008638841729" flag="0"/>
			<vel value="0.00219237592773514" flag="0"/>
			<psa03 value="0.0109851626089346" flag="0"/>
			<psa10 value="0.00341900516418633" flag="0"/>
			<psa30 value="0.000505801319355809" flag="0"/>
		</comp>
	</station>
	<station code="SKDS" name="SKDS" netid="SL" source="Seismic Network of the Republic of Slovenia (SNRS)" insttype="" lat="45.5464" lon="14.0143" esm:processing="manual (Paolucci et al 2011)" esm:quality="best">
		<comp name="--.HNE" depth="0.0">
			<acc value="0.00221979464016124" flag="0"/>
			<vel value="0.00115451414665915" flag="0"/>
			<psa03 value="0.00564034890584256" flag="0"/>
			<psa10 value="0.00109805363910193" flag="0"/>
