<?xml version="1.0" encoding="UTF-8" standalone="yes"?>
<!DOCTYPE earthquake SYSTEM "stationlist.dtd">
<stationlist created="" xmlns="ch.ethz.sed.shakemap.usgs.xml">
  <station code="BEHE" name="BEHE" netid="HU" insttype="" lat="46.4706" lon="16.7757">
    <comp name="--.HHZ">
      <acc value="0.0513843872" flag="0"/>
      <vel value="0.0174159247" flag="0"/>
      <psa03 value="0.0960763873" flag="0"/>
      <psa10 value="0.0136460965" flag="0"/>
      <psa30 value="0.0008484307" flag="0"/>
    </comp>
    <comp name="--.HHN">
      <acc value="0.0557654837" flag="0"/>
      <vel value="0.0352923889" flag="0"/>
      <psa03 value="0.1596504737" flag="0"/>
      <psa10 value="0.0368979822" flag="0"/>
      <psa30 value="0.0024489871" flag="0"/>
    </comp>
    <comp name="--.HHE">
      <acc value="0.0503375724" flag="0"/>
      <vel value="0.0273891868" flag="0"/>
      <psa03 value="0.1134438524" flag="0"/>
      <psa10 value="0.0186261664" flag="0"/>
      <psa30 value="0.0012909719" flag="0"/>
    </comp>
  </station>
  <station code="BLY" name="BLY" netid="MN" insttype="" lat="44.7488" lon="17.1839">
    <comp name="--.HHE">
      <acc value="0.0309653361" flag="0"/>
      <vel value="0.0131777677" flag="0"/>
      <psa03 value="0.0698455648" flag="0"/>
      <psa10 value="0.0069368366" flag="0"/>
      <psa30 value="0.0004228059" flag="0"/>
    </comp>
    <comp name="--.HHN">
      <acc value="0.0175025572" flag="0"/>
      <vel value="0.0090486659" flag="0"/>
      <psa03 value="0.0507413296" flag="0"/>
      <psa10 value="0.0059637526" flag="0"/>
      <psa30 value="0.0003839777" flag="0"/>
    </comp>
    <comp name="--.HHZ">
      <acc value="0.0179561959" flag="0"/>
      <vel value="0.0072180388" flag="0"/>
      <psa03 value="0.0376362410" flag="0"/>
      <psa10 value="0.0054162261" flag="0"/>
      <psa30 value="0.0002926284" flag="0"/>
    </comp>
  </station>
  <station code="BOJS" name="BOJS" netid="SL" insttype="Trillium" lat="45.5043" lon="15.2518">
    <comp name="--.HHE">
      <acc value="0.0182618310" flag="0"/>
      <vel value="0.0053763403" flag="0"/>
      <psa03 value="0.0254723604" flag="0"/>
      <psa10 value="0.0026080137" flag="0"/>
      <psa30 value="0.0002375948" flag="0"/>
    </comp>
    <comp name="--.HHZ">
      <acc value="0.0126219139" flag="0"/>
      <vel value="0.0046130818" flag="0"/>
      <psa03 value="0.0205268809" flag="0"/>
      <psa10 value="0.0038119343" flag="0"/>
      <psa30 value="0.0002627235" flag="0"/>
    </comp>
    <comp name="--.HHN">
      <acc value="0.0163092201" flag="0"/>
      <vel value="0.0072235099" flag="0"/>
      <psa03 value="0.0414192667" flag="0"/>
      <psa10 value="0.0049525307" flag="0"/>
      <psa30 value="0.0002858303" flag="0"/>
    </comp>
  </station>
  <station code="CRES" name="CRES" netid="SL" insttype="STS-2" lat="45.826" lon="15.4569">
    <comp name="--.HHZ">
      <acc value="0.0147630227" flag="0"/>
      <vel value="0.0045909714" flag="0"/>
      <psa03 value="0.0256109740" flag="0"/>
      <psa10 value="0.0020932170" flag="0"/>
      <psa30 value="0.0001416732" flag="0"/>
    </comp>
    <comp name="--.HHN">
      <acc value="0.0199860165" flag="0"/>
      <vel value="0.0057411653" flag="0"/>
      <psa03 value="0.0247963663" flag="0"/>
      <psa10 value="0.0038383546" flag="0"/>
      <psa30 value="0.0001875255" flag="0"/>
    </comp>
    <comp name="--.HHE">
      <acc value="0.0178758981" flag="0"/>
      <vel value="0.0059696813" flag="0"/>
      <psa03 value="0.0492414335" flag="0"/>
      <psa10 value="0.0028314679" flag="0"/>
      <psa30 value="0.0001659134" flag="0"/>
    </comp>
  </station>
  <station code="DOBS" name="DOBS" netid="SL" insttype="CMG3ESP_120sec/Quanterra" lat="46.1495" lon="15.4695">
    <comp name="--.HHN">
      <acc value="0.0230036340" flag="0"/>
      <vel value="0.0058315965" flag="0"/>
      <psa03 value="0.0232535549" flag="0"/>
      <psa10 value="0.0027806746" flag="0"/>
      <psa30 value="0.0003406676" flag="0"/>
    </comp>
    <comp name="--.HHE">
      <acc value="0.0175402779" flag="0"/>
      <vel value="0.0052929622" flag="0"/>
      <psa03 value="0.0201660526" flag="0"/>
      <psa10 value="0.0035515050" flag="0"/>
      <psa30 value="0.0002352153" flag="0"/>
    </comp>
    <comp name="--.HHZ">
      <acc value="0.0126892146" flag="0"/>
      <vel value="0.0042848903" flag="0"/>
      <psa03 value="0.0092148351" flag="0"/>
      <psa10 value="0.0036694847" flag="0"/>
      <psa30 value="0.0003219454" flag="0"/>
    </comp>
  </station>
  <station code="GBRS" name="GBRS" netid="SL" insttype="STS-2.5/Quanterra" lat="45.5311" lon="14.8101">
    <comp name="--.HHN">
      <acc value="0.0109790563" flag="0"/>
      <vel value="0.0028141826" flag="0"/>
      <psa03 value="0.0080773205" flag="0"/>
      <psa10 value="0.0025009185" flag="0"/>
      <psa30 value="0.0002110787" flag="0"/>
    </comp>
    <comp name="--.HHZ">
      <acc value="0.0073979251" flag="0"/>
      <vel value="0.0037705066" flag="0"/>
      <psa03 value="0.0095327504" flag="0"/>
      <psa10 value="0.0026817175" flag="0"/>
      <psa30 value="0.0003508572" flag="0"/>
    </comp>
    <comp name="--.HHE">
      <acc value="0.0102156350" flag="0"/>
      <vel value="0.0026735121" flag="0"/>
      <psa03 value="0.0106143210" flag="0"/>
      <psa10 value="0.0022540577" flag="0"/>
      <psa30 value="0.0001853545" flag="0"/>
    </comp>
  </station>
  <station code="GCIS" name="GCIS" netid="SL" insttype="STS-2" lat="45.8672" lon="15.6275">
    <comp name="--.HHE">
      <acc value="0.0269511036" flag="0"/>
      <vel value="0.0053819737" flag="0"/>
      <psa03 value="0.0222978050" flag="0"/>
      <psa10 value="0.0019331440" flag="0"/>
      <psa30 value="0.0001706235" flag="0"/>
    </comp>
    <comp name="--.HHZ">
      <acc value="0.0120615659" flag="0"/>
      <vel value="0.0031254709" flag="0"/>
      <psa03 value="0.0108340779" flag="0"/>
      <psa10 value="0.0023343997" flag="0"/>
      <psa30 value="0.0001672050" flag="0"/>
    </comp>
    <comp name="--.HHN">
      <acc value="0.0297229839" flag="0"/>
      <vel value="0.0064177157" flag="0"/>
      <psa03 value="0.0282339785" flag="0"/>
      <psa10 value="0.0049997186" flag="0"/>
      <psa30 value="0.0002073797" flag="0"/>
    </comp>
  </station>
  <station code="GOLS" name="GOLS" netid="SL" insttype="CMG40TB_30sec/Quanterra" lat="46.0108" lon="15.6245">
    <comp name="--.HH1">
      <acc value="0.0127152648" flag="0"/>
      <vel value="0.0054547349" flag="0"/>
      <psa03 value="0.0290888791" flag="0"/>
      <psa10 value="0.0061117097" flag="0"/>
      <psa30 value="0.0002586239" flag="0"/>
    </comp>
    <comp name="--.HHZ">
      <acc value="0.0102464054" flag="0"/>
      <vel value="0.0042553813" flag="0"/>
      <psa03 value="0.0252890625" flag="0"/>
      <psa10 value="0.0046058189" flag="0"/>
      <psa30 value="0.0002297890" flag="0"/>
    </comp>
    <comp name="--.HH2">
      <acc value="0.0148139592" flag="0"/>
      <vel value="0.0079330507" flag="0"/>
      <psa03 value="0.0526026239" flag="0"/>
      <psa10 value="0.0071858339" flag="0"/>
      <psa30 value="0.0003992599" flag="0"/>
    </comp>
  </station>
  <station code="KOGS" name="KOGS" netid="SL" insttype="CMG3T_120sec/Quanterra" lat="46.4481" lon="16.2504">
    <comp name="--.HHN">
      <acc value="0.0491494853" flag="0"/>
      <vel value="0.0163492514" flag="0"/>
      <psa03 value="0.0605720799" flag="0"/>
      <psa10 value="0.0064041319" flag="0"/>
      <psa30 value="0.0007669104" flag="0"/>
    </comp>
    <comp name="--.HHE">
      <acc value="0.0400843953" flag="0"/>
      <vel value="0.0194048476" flag="0"/>
      <psa03 value="0.0573882888" flag="0"/>
      <psa10 value="0.0126396244" flag="0"/>
      <psa30 value="0.0010124943" flag="0"/>
    </comp>
    <comp name="--.HHZ">
      <acc value="0.0192643245" flag="0"/>
      <vel value="0.0069055074" flag="0"/>
      <psa03 value="0.0239566086" flag="0"/>
      <psa10 value="0.0039940278" flag="0"/>
      <psa30 value="0.0003547072" flag="0"/>
    </comp>
  </station>
  <station code="VISS" name="VISS" netid="SL" insttype="STS-2.5/Quanterra" lat="45.8033" lon="14.8393">
    <comp name="--.HHZ">
      <acc value="0.0047586859" flag="0"/>
      <vel value="0.0021792826" flag="0"/>
      <psa03 value="0.0101507317" flag="0"/>
      <psa10 value="0.0017133106" flag="0"/>
      <psa30 value="0.0002527967" flag="0"/>
    </comp>
    <comp name="--.HHN">
      <acc value="0.0057538569" flag="0"/>
      <vel value="0.0022984367" flag="0"/>
      <psa03 value="0.0145962566" flag="0"/>
      <psa10 value="0.0025342723" flag="0"/>
      <psa30 value="0.0002605541" flag="0"/>
    </comp>
    <comp name="--.HHE">
      <acc value="0.0073889313" flag="0"/>
      <vel value="0.0024022209" flag="0"/>
      <psa03 value="0.0144771310" flag="0"/>
      <psa10 value="0.0024999159" flag="0"/>
      <psa30 value="0.0002314900" flag="0"/>
    </comp>
  </station>
</stationlist>
