<stationlist created="1778118945">
	<station code="KTHA" name="KTHA" netid="GE" source="GEOFON" insttype="" lat="36.2566" lon="23.0621">
		<comp name="--.HNE" depth="0.0">
			<acc value="0.0033047971046391" flag="0"/>
			<vel value="0.00196189391421712" flag="0"/>
			<psa03 value="0.0140812544285737" flag="0"/>
			<psa10 value="0.0161009153566288" flag="0"/>
			<psa30 value="0.012062344071106" flag="0"/>
		</comp>
		<comp name="--.HNN" depth="0.0">
			<acc value="0.0024233690356225" flag="0"/>
			<vel value="0.00145070410830935" flag="0"/>
			<psa03 value="0.0104615843046404" flag="0"/>
			<psa10 value="0.00780938280202649" flag="0"/>
			<psa30 value="0.00846896019373757" flag="0"/>
		</comp>
		<comp name="--.HNZ" depth="0.0">
			<acc value="0.00202604428255373" flag="0"/>
			<vel value="0.0011779471798462" flag="0"/>
			<psa03 value="0.00776059352831557" flag="0"/>
			<psa10 value="0.00823963896066007" flag="0"/>
			<psa30 value="0.00739237970888537" flag="0"/>
		</comp>
	</station>
	<station code="AIGS" name="AIGS" netid="HA" source="Hellenic Seismological Network, University of Athens, Seismological Laboratory (HA)" insttype="" lat="38.25001" lon="22.0878">
		<comp name="--.HNE" depth="0.0">
			<acc value="0.0484086280228837" flag="0"/>
			<vel value="0.082697196919268" flag="0"/>
			<psa03 value="0.135322079006863" flag="0"/>
			<psa10 value="0.0698542950040718" flag="0"/>
			<psa30 value="0.0482722211311027" flag="0"/>
		</comp>
		<comp name="--.HNN" depth="0.0">
			<acc value="0.0472466704341751" flag="0"/>
			<vel value="0.0723741062643106" flag="0"/>
			<psa03 value="0.146031403030643" flag="0"/>
			<psa10 value="0.0631725223695138" flag="0"/>
			<psa30 value="0.0381165817031306" flag="0"/>
		</comp>
		<comp name="--.HNZ" depth="0.0">
			<acc value="0.0324792214113342" flag="0"/>
			<vel value="0.0507895848791632" flag="0"/>
			<psa03 value="0.0596120792161389" flag="0"/>
			<psa10 value="0.0639754655604973" flag="0"/>
			<psa30 value="0.0272492967988679" flag="0"/>
		</comp>
	</station>
	<station code="CORS" name="CORS" netid="HA" source="Hellenic Seismological Network, University of Athens, Seismological Laboratory (HA)" insttype="" lat="38.2562" lon="22.0748">
		<comp name="00.HNE" depth="0.0">
			<acc value="0.0577732755741017" flag="0"/>
			<vel value="0.101667028846003" flag="0"/>
			<psa03 value="0.127380532085102" flag="0"/>
			<psa10 value="0.173466211285055" flag="0"/>
			<psa30 value="0.0333304146430684" flag="0"/>
		</comp>
		<comp name="00.HNN" depth="0.0">
			<acc value="0.0492755791381976" flag="0"/>
			<vel value="0.0663843411224985" flag="0"/>
			<psa03 value="0.107391957940056" flag="0"/>
			<psa10 value="0.161644423149762" flag="0"/>
			<psa30 value="0.0388490202235815" flag="0"/>
		</comp>
		<comp name="00.HNZ" depth="0.0">
			<acc value="0.0330656100964224" flag="0"/>
			<vel value="0.041943066590463" flag="0"/>
			<psa03 value="0.0914330778261812" flag="0"/>
			<psa10 value="0.0674953362348285" flag="0"/>
			<psa30 value="0.0142114714402361" flag="0"/>
		</comp>
	</station>
	<station code="DRES" name="DRES" netid="HA" source="Hellenic Seismological Network, University of Athens, Seismological Laboratory (HA)" insttype="" lat="38.319719" lon="21.853176">
		<comp name="--.HNE" depth="0.0">
			<acc value="0.0669284214455588" flag="0"/>
			<vel value="0.106237048931771" flag="0"/>
			<psa03 value="0.17499478004552" flag="0"/>
			<psa10 value="0.137463226264073" flag="0"/>
			<psa30 value="0.0315167578305134" flag="0"/>
		</comp>
		<comp name="--.HNN" depth="0.0">
			<acc value="0.0765453627367406" flag="0"/>
			<vel value="0.0882796068645685" flag="0"/>
			<psa03 value="0.164545410742387" flag="0"/>
			<psa10 value="0.112585113211052" flag="0"/>
			<psa30 value="0.0188352460759255" flag="0"/>
		</comp>
		<comp name="--.HNZ" depth="0.0">
			<acc value="0.0323099269760022" flag="0"/>
			<vel value="0.035422515427035" flag="0"/>
			<psa03 value="0.0699004274352546" flag="0"/>
			<psa10 value="0.0460560209855315" flag="0"/>
			<psa30 value="0.0179399434332118" flag="0"/>
		</comp>
	</station>
	<station code="KIAS" name="KIAS" netid="HA" source="Hellenic Seismological Network, University of Athens, Seismological Laboratory (HA)" insttype="" lat="37.9875" lon="22.7543">
		<comp name="--.HNE" depth="0.0">
			<acc value="0.0381061383045728" flag="0"/>
			<vel value="0.107396429494999" flag="0"/>
			<psa03 value="0.0664733774931708" flag="0"/>
			<psa10 value="0.0913602071651679" flag="0"/>
			<psa30 value="0.0548983534131132" flag="0"/>
		</comp>
		<comp name="--.HNN" depth="0.0">
			<acc value="0.0511133276125228" flag="0"/>
			<vel value="0.132788601102165" flag="0"/>
			<psa03 value="0.0698025094905627" flag="0"/>
			<psa10 value="0.116763565013037" flag="0"/>
			<psa30 value="0.100006504940229" flag="0"/>
		</comp>
		<comp name="--.HNZ" depth="0.0">
			<acc value="0.0259921443569935" flag="0"/>
			<vel value="0.0823237151001233" flag="0"/>
			<psa03 value="0.0533196259134228" flag="0"/>
			<psa10 value="0.0635924526879573" flag="0"/>
			<psa30 value="0.0481015698262545" flag="0"/>
		</comp>
	</station>
	<station code="LTRS" name="LTRS" netid="HA" source="Hellenic Seismological Network, University of Athens, Seismological Laboratory (HA)" insttype="" lat="37.97528" lon="22.9765">
		<comp name="--.HNE" depth="0.0">
			<acc value="0.045966347499144" flag="0"/>
			<vel value="0.0777941380129496" flag="0"/>
			<psa03 value="0.0787323875093774" flag="0"/>
			<psa10 value="0.085833196027951" flag="0"/>
			<psa30 value="0.0306439633455256" flag="0"/>
		</comp>
		<comp name="--.HNN" depth="0.0">
			<acc value="0.0380570357367768" flag="0"/>
			<vel value="0.0677056813099968" flag="0"/>
			<psa03 value="0.092200816184811" flag="0"/>
			<psa10 value="0.147026719798437" flag="0"/>
			<psa30 value="0.0297907601583347" flag="0"/>
		</comp>
		<comp name="--.HNZ" depth="0.0">
			<acc value="0.0225367601659995" flag="0"/>
			<vel value="0.0353229647624732" flag="0"/>
			<psa03 value="0.0412745675708509" flag="0"/>
			<psa10 value="0.046965144960249" flag="0"/>
			<psa30 value="0.0158918144213781" flag="0"/>
		</comp>
	</station>
	<station code="ARG2" name="ARG2" netid="HI" source="ITSAK Strong Motion Network" insttype="" lat="38.1783" lon="20.4878">
		<comp name="--.HNE" depth="0.0">
			<acc value="2.28507395949023" flag="0"/>
			<vel value="0.768801489247223" flag="0"/>
			<psa03 value="3.00397099833371" flag="0"/>
			<psa10 value="0.566451444626923" flag="0"/>
			<psa30 value="0.111884251782695" flag="0"/>
		</comp>
		<comp name="--.HNN" depth="0.0">
			<acc value="2.35637042137168" flag="0"/>
			<vel value="1.02396094276804" flag="0"/>
			<psa03 value="4.55732156686321" flag="0"/>
			<psa10 value="0.608711524150222" flag="0"/>
			<psa30 value="0.0899343843780928" flag="0"/>
		</comp>
		<comp name="--.HNZ" depth="0.0">
			<acc value="1.07309303344135" flag="0"/>
			<vel value="0.364435244121912" flag="0"/>
			<psa03 value="1.58836138781182" flag="0"/>
			<psa10 value="0.310716633452199" flag="0"/>
			<psa30 value="0.0348664630654166" flag="0"/>
		</comp>
	</station>
	<station code="ART2" name="ART2" netid="HI" source="ITSAK Strong Motion Network" insttype="" lat="39.1474" lon="20.9937">
		<comp name="--.HNE" depth="0.0">
			<acc value="0.0394161259356518" flag="0"/>
			<vel value="0.130729945391099" flag="0"/>
			<psa03 value="0.125228212421364" flag="0"/>
			<psa10 value="0.0951286143039615" flag="0"/>
			<psa30 value="0.0437848138623848" flag="0"/>
		</comp>
		<comp name="--.HNN" depth="0.0">
			<acc value="0.0449665772714153" flag="0"/>
			<vel value="0.0675026675702683" flag="0"/>
			<psa03 value="0.0775236251431547" flag="0"/>
			<psa10 value="0.101417420906281" flag="0"/>
			<psa30 value="0.0192622060266097" flag="0"/>
		</comp>
		<comp name="--.HNZ" depth="0.0">
			<acc value="0.0348936988737885" flag="0"/>
			<vel value="0.0612098015743813" flag="0"/>
			<psa03 value="0.0521950253725044" flag="0"/>
			<psa10 value="0.0581125371702235" flag="0"/>
			<psa30 value="0.0206798516053649" flag="0"/>
		</comp>
	</station>
	<station code="ATH5" name="ATH5" netid="HI" source="ITSAK Strong Motion Network" insttype="" lat="37.975421" lon="23.737098">
		<comp name="--.HNE" depth="0.0">
			<acc value="0.0073369955849783" flag="0"/>
			<vel value="0.0166579121495383" flag="0"/>
			<psa03 value="0.0203809517005344" flag="0"/>
			<psa10 value="0.0138751926009202" flag="0"/>
			<psa30 value="0.011626651875275" flag="0"/>
		</comp>
		<comp name="--.HNN" depth="0.0">
			<acc value="0.00828229629781008" flag="0"/>
			<vel value="0.0192053153158472" flag="0"/>
			<psa03 value="0.0170973279265838" flag="0"/>
			<psa10 value="0.0194535980804083" flag="0"/>
			<psa30 value="0.0145598228501373" flag="0"/>
		</comp>
		<comp name="--.HNZ" depth="0.0">
			<acc value="0.00619002039204751" flag="0"/>
			<vel value="0.0207778302643205" flag="0"/>
			<psa03 value="0.0100326053660883" flag="0"/>
			<psa10 value="0.0133481345608923" flag="0"/>
			<psa30 value="0.0101796260169279" flag="0"/>
		</comp>
	</station>
	<station code="KLV1" name="KLV1" netid="HI" source="ITSAK Strong Motion Network" insttype="" lat="38.03256" lon="22.10797">
		<comp name="--.HNE" depth="0.0">
			<acc value="0.058097217363379" flag="0"/>
			<vel value="0.0726311697188887" flag="0"/>
			<psa03 value="0.146339392182982" flag="0"/>
			<psa10 value="0.118612865020252" flag="0"/>
			<psa30 value="0.0158935045333564" flag="0"/>
		</comp>
		<comp name="--.HNN" depth="0.0">
			<acc value="0.0584787979429314" flag="0"/>
			<vel value="0.0706948125247497" flag="0"/>
			<psa03 value="0.16776899928954" flag="0"/>
			<psa10 value="0.0925790304066089" flag="0"/>
			<psa30 value="0.0198891158896681" flag="0"/>
		</comp>
		<comp name="--.HNZ" depth="0.0">
			<acc value="0.0289018686261433" flag="0"/>
			<vel value="0.0513238686461125" flag="0"/>
			<psa03 value="0.0595433819569303" flag="0"/>
			<psa10 value="0.07010004128368" flag="0"/>
			<psa30 value="0.0136503142663111" flag="0"/>
		</comp>
	</station>
	<station code="KRI1" name="KRI1" netid="HI" source="ITSAK Strong Motion Network" insttype="" lat="37.6621" lon="20.8172">
		<comp name="--.HNE" depth="0.0">
			<acc value="0.371853386821105" flag="0"/>
			<vel value="0.333091547756753" flag="0"/>
			<psa03 value="1.21556810875683" flag="0"/>
			<psa10 value="0.150775243119988" flag="0"/>
			<psa30 value="0.0662559424641667" flag="0"/>
		</comp>
		<comp name="--.HNN" depth="0.0">
			<acc value="0.37397676610074" flag="0"/>
			<vel value="0.273986996162733" flag="0"/>
			<psa03 value="0.770537127634224" flag="0"/>
			<psa10 value="0.196252930793681" flag="0"/>
			<psa30 value="0.0725671205490307" flag="0"/>
		</comp>
		<comp name="--.HNZ" depth="0.0">
			<acc value="0.220924886478081" flag="0"/>
			<vel value="0.147912366517781" flag="0"/>
			<psa03 value="0.669629401328299" flag="0"/>
			<psa10 value="0.0857116729776769" flag="0"/>
			<psa30 value="0.0543064108665701" flag="0"/>
		</comp>
	</station>
	<station code="KRK1" name="KRK1" netid="HI" source="ITSAK Strong Motion Network" insttype="" lat="39.618861" lon="19.9202">
		<comp name="--.HNE" depth="0.0">
			<acc value="0.107813477005278" flag="0"/>
			<vel value="0.104816779168055" flag="0"/>
			<psa03 value="0.245287269911354" flag="0"/>
			<psa10 value="0.0822193291268719" flag="0"/>
			<psa30 value="0.0461921700047629" flag="0"/>
		</comp>
		<comp name="--.HNN" depth="0.0">
			<acc value="0.128513206395607" flag="0"/>
			<vel value="0.104723405734228" flag="0"/>
			<psa03 value="0.25607673466021" flag="0"/>
			<psa10 value="0.0758398340168808" flag="0"/>
			<psa30 value="0.0309007336886077" flag="0"/>
		</comp>
		<comp name="--.HNZ" depth="0.0">
			<acc value="0.0571785603369677" flag="0"/>
			<vel value="0.0494154442250592" flag="0"/>
			<psa03 value="0.131989441569438" flag="0"/>
			<psa10 value="0.0335039769740258" flag="0"/>
			<psa30 value="0.0164264331705656" flag="0"/>
		</comp>
	</station>
	<station code="MSL1" name="MSL1" netid="HI" source="ITSAK Strong Motion Network" insttype="" lat="38.3727" lon="21.4243">
		<comp name="--.HNE" depth="0.0">
			<acc value="0.444454827697722" flag="0"/>
			<vel value="0.483146288721523" flag="0"/>
			<psa03 value="0.942152662989927" flag="0"/>
			<psa10 value="0.844750540576858" flag="0"/>
			<psa30 value="0.112101359498297" flag="0"/>
		</comp>
		<comp name="--.HNN" depth="0.0">
			<acc value="0.53041806014601" flag="0"/>
			<vel value="0.518645249210382" flag="0"/>
			<psa03 value="0.915074869220186" flag="0"/>
			<psa10 value="1.02824131593988" flag="0"/>
			<psa30 value="0.152085834940375" flag="0"/>
		</comp>
		<comp name="--.HNZ" depth="0.0">
			<acc value="0.16685505474655" flag="0"/>
			<vel value="0.219932987285758" flag="0"/>
			<psa03 value="0.330906837620461" flag="0"/>
			<psa10 value="0.362230285978609" flag="0"/>
			<psa30 value="0.0450399103395371" flag="0"/>
		</comp>
	</station>
	<station code="NPS1" name="NPS1" netid="HI" source="ITSAK Strong Motion Network" insttype="" lat="36.51263" lon="23.06248">
		<comp name="--.HNE" depth="0.0">
			<acc value="0.0117358324113971" flag="0"/>
			<vel value="0.019274899681174" flag="0"/>
			<psa03 value="0.0294186493619743" flag="0"/>
			<psa10 value="0.0136924701839505" flag="0"/>
			<psa30 value="0.00592952571864492" flag="0"/>
		</comp>
		<comp name="--.HNN" depth="0.0">
			<acc value="0.0124059758877409" flag="0"/>
			<vel value="0.0256139608932823" flag="0"/>
			<psa03 value="0.0263066385190289" flag="0"/>
			<psa10 value="0.0178102560920579" flag="0"/>
			<psa30 value="0.0124444777189079" flag="0"/>
		</comp>
		<comp name="--.HNZ" depth="0.0">
			<acc value="0.00577100744938043" flag="0"/>
			<vel value="0.0113595092947982" flag="0"/>
			<psa03 value="0.0180268048644346" flag="0"/>
			<psa10 value="0.00729692072893686" flag="0"/>
			<psa30 value="0.00541467619572411" flag="0"/>
		</comp>
	</station>
	<station code="VAS2" name="VAS2" netid="HI" source="ITSAK Strong Motion Network" insttype="" lat="38.630558" lon="20.608081">
		<comp name="--.HNE" depth="0.0">
			<acc value="0.565220863347366" flag="0"/>
			<vel value="0.472381373367223" flag="0"/>
			<psa03 value="1.45173183677578" flag="0"/>
			<psa10 value="0.814669407851614" flag="0"/>
			<psa30 value="0.0627116543391122" flag="0"/>
		</comp>
		<comp name="--.HNN" depth="0.0">
			<acc value="0.823068113743095" flag="0"/>
			<vel value="0.621331483595025" flag="0"/>
			<psa03 value="2.94270060613912" flag="0"/>
			<psa10 value="0.983282737655129" flag="0"/>
			<psa30 value="0.105292481776662" flag="0"/>
		</comp>
		<comp name="--.HNZ" depth="0.0">
			<acc value="0.310334828683856" flag="0"/>
			<vel value="0.277604378913263" flag="0"/>
			<psa03 value="0.839127338066547" flag="0"/>
			<psa10 value="0.339650790198009" flag="0"/>
			<psa30 value="0.0275748316972853" flag="0"/>
		</comp>
	</station>
	<station code="DLFA" name="DLFA" netid="HL" source="National Observatory of Athens Seismic Network" insttype="" lat="38.47836" lon="22.49583">
		<comp name="00.HNE" depth="0.0">
			<acc value="0.0155234948090297" flag="0"/>
			<vel value="0.0185081887399421" flag="0"/>
			<psa03 value="0.0288659408727451" flag="0"/>
			<psa10 value="0.0291748851929503" flag="0"/>
			<psa30 value="0.00747627526656204" flag="0"/>
		</comp>
		<comp name="00.HNN" depth="0.0">
			<acc value="0.0163655075200001" flag="0"/>
			<vel value="0.0207256609837147" flag="0"/>
			<psa03 value="0.0285041643026773" flag="0"/>
			<psa10 value="0.0368684861062506" flag="0"/>
			<psa30 value="0.00692611132090082" flag="0"/>
		</comp>
		<comp name="00.HNZ" depth="0.0">
			<acc value="0.0102075913770469" flag="0"/>
			<vel value="0.0145402082276379" flag="0"/>
			<psa03 value="0.021020681579509" flag="0"/>
			<psa10 value="0.0205661299051662" flag="0"/>
			<psa30 value="0.00747472099693412" flag="0"/>
		</comp>
	</station>
	<station code="ITM" name="ITM" netid="HL" source="National Observatory of Athens Seismic Network" insttype="" lat="37.17872" lon="21.92522">
		<comp name="--.HNE" depth="0.0">
			<acc value="0.0211151654567979" flag="0"/>
			<vel value="0.0400489950846605" flag="0"/>
			<psa03 value="0.0713994017350956" flag="0"/>
			<psa10 value="0.0324138060055602" flag="0"/>
			<psa30 value="0.0271727417274292" flag="0"/>
		</comp>
		<comp name="--.HNN" depth="0.0">
			<acc value="0.0242864390070388" flag="0"/>
			<vel value="0.0365879752285038" flag="0"/>
			<psa03 value="0.0621895572531294" flag="0"/>
			<psa10 value="0.0367612890049801" flag="0"/>
			<psa30 value="0.0165352303778727" flag="0"/>
		</comp>
		<comp name="--.HNZ" depth="0.0">
			<acc value="0.0189633963151498" flag="0"/>
			<vel value="0.0335289071933146" flag="0"/>
			<psa03 value="0.038847802642951" flag="0"/>
			<psa10 value="0.025236353659587" flag="0"/>
			<psa30 value="0.0163193277420183" flag="0"/>
		</comp>
	</station>
	<station code="JAN" name="JAN" netid="HL" source="National Observatory of Athens Seismic Network" insttype="" lat="39.65616" lon="20.84874">
		<comp name="00.HNE" depth="0.0">
			<acc value="0.0324719181413016" flag="0"/>
			<vel value="0.0455860920249039" flag="0"/>
			<psa03 value="0.115199527236817" flag="0"/>
			<psa10 value="0.0583236161532119" flag="0"/>
			<psa30 value="0.0196502734008625" flag="0"/>
		</comp>
		<comp name="00.HNN" depth="0.0">
			<acc value="0.0260418548722077" flag="0"/>
			<vel value="0.0400400787871484" flag="0"/>
			<psa03 value="0.0662915894092526" flag="0"/>
			<psa10 value="0.0497759111597014" flag="0"/>
			<psa30 value="0.0187105494820542" flag="0"/>
		</comp>
		<comp name="00.HNZ" depth="0.0">
			<acc value="0.023691294083759" flag="0"/>
			<vel value="0.0286519515718248" flag="0"/>
			<psa03 value="0.0379109254752712" flag="0"/>
			<psa10 value="0.0403388797526773" flag="0"/>
			<psa30 value="0.0112223167567478" flag="0"/>
		</comp>
	</station>
	<station code="LKR" name="LKR" netid="HL" source="National Observatory of Athens Seismic Network" insttype="" lat="38.64957" lon="22.998812">
		<comp name="--.HNE" depth="0.0">
			<acc value="0.00734444682185946" flag="0"/>
			<vel value="0.00548483748738419" flag="0"/>
			<psa03 value="0.0177072615608481" flag="0"/>
			<psa10 value="0.00547284583044421" flag="0"/>
			<psa30 value="0.00207322254915083" flag="0"/>
		</comp>
		<comp name="--.HNN" depth="0.0">
			<acc value="0.00650366702598993" flag="0"/>
			<vel value="0.00962230362732525" flag="0"/>
			<psa03 value="0.0205004596173475" flag="0"/>
			<psa10 value="0.00873537023788897" flag="0"/>
			<psa30 value="0.00428555431360909" flag="0"/>
		</comp>
		<comp name="--.HNZ" depth="0.0">
			<acc value="0.00434579035488152" flag="0"/>
			<vel value="0.00479581102980028" flag="0"/>
			<psa03 value="0.00962593910351891" flag="0"/>
			<psa10 value="0.0058105111678312" flag="0"/>
			<psa30 value="0.00233566347624302" flag="0"/>
		</comp>
	</station>
	<station code="PATC" name="PATC" netid="HL" source="National Observatory of Athens Seismic Network" insttype="" lat="38.26933" lon="21.76001">
		<comp name="00.HNE" depth="0.0">
			<acc value="0.138445910737748" flag="0"/>
			<vel value="0.300645798404481" flag="0"/>
			<psa03 value="0.373617708673041" flag="0"/>
			<psa10 value="0.309317130742032" flag="0"/>
			<psa30 value="0.141437649550012" flag="0"/>
		</comp>
		<comp name="00.HNN" depth="0.0">
			<acc value="0.138857917159669" flag="0"/>
			<vel value="0.282576440620326" flag="0"/>
			<psa03 value="0.318319212085718" flag="0"/>
			<psa10 value="0.36450377658631" flag="0"/>
			<psa30 value="0.186221562931168" flag="0"/>
		</comp>
		<comp name="00.HNZ" depth="0.0">
			<acc value="0.0824066693706643" flag="0"/>
			<vel value="0.123642780748299" flag="0"/>
			<psa03 value="0.187356328104124" flag="0"/>
			<psa10 value="0.114663838416461" flag="0"/>
			<psa30 value="0.0537203553765328" flag="0"/>
		</comp>
	</station>
