<?xml version="1.0" encoding="UTF-8" standalone="yes"?>
<!DOCTYPE earthquake SYSTEM "stationlist.dtd">
<stationlist created="" xmlns="ch.ethz.sed.shakemap.usgs.xml">
  <station code="CORS" name="CORS" netid="HA" insttype="DC" lat="38.2562" lon="22.0748">
    <comp name="00.HNE">
      <acc value="0.0577473699" flag="0"/>
      <vel value="0.1020413146" flag="0"/>
      <psa03 value="0.1276809948" flag="0"/>
      <psa10 value="0.1735491428" flag="0"/>
      <psa30 value="0.0330187021" flag="0"/>
    </comp>
    <comp name="00.HNN">
      <acc value="0.0489543806" flag="0"/>
      <vel value="0.0628591890" flag="0"/>
      <psa03 value="0.1085472337" flag="0"/>
      <psa10 value="0.1616183559" flag="0"/>
      <psa30 value="0.0384548122" flag="0"/>
    </comp>
    <comp name="00.HNZ">
      <acc value="0.0332527714" flag="0"/>
      <vel value="0.0400483538" flag="0"/>
      <psa03 value="0.0920333096" flag="0"/>
      <psa10 value="0.0672443535" flag="0"/>
      <psa30 value="0.0140315946" flag="0"/>
    </comp>
  </station>
  <station code="DRES" name="DRES" netid="HA" insttype="DC" lat="38.3197" lon="21.8532">
    <comp name="--.HNE">
      <acc value="0.0670768718" flag="0"/>
      <vel value="0.0890318997" flag="0"/>
      <psa03 value="0.1746686149" flag="0"/>
      <psa10 value="0.1372524853" flag="0"/>
      <psa30 value="0.0297290789" flag="0"/>
    </comp>
    <comp name="--.HNZ">
      <acc value="0.0317037978" flag="0"/>
      <vel value="0.0357801895" flag="0"/>
      <psa03 value="0.0707778334" flag="0"/>
      <psa10 value="0.0458155100" flag="0"/>
      <psa30 value="0.0171390612" flag="0"/>
    </comp>
    <comp name="--.HNN">
      <acc value="0.0766297219" flag="0"/>
      <vel value="0.0764649751" flag="0"/>
      <psa03 value="0.1626583862" flag="0"/>
      <psa10 value="0.1121237630" flag="0"/>
      <psa30 value="0.0194543723" flag="0"/>
    </comp>
  </station>
  <station code="KALE" name="KALE" netid="HA" insttype="40," lat="38.3911" lon="22.1398">
    <comp name="--.HHN">
      <acc value="0.0388659181" flag="0"/>
      <vel value="0.0497888971" flag="0"/>
      <psa03 value="0.0900163374" flag="0"/>
      <psa10 value="0.0617656211" flag="0"/>
      <psa30 value="0.0160581545" flag="0"/>
    </comp>
    <comp name="--.HHZ">
      <acc value="0.0155257319" flag="0"/>
      <vel value="0.0098694353" flag="0"/>
      <psa03 value="0.0302899047" flag="0"/>
      <psa10 value="0.0204762551" flag="0"/>
      <psa30 value="0.0044611568" flag="0"/>
    </comp>
    <comp name="--.HHE">
      <acc value="0.0379073881" flag="0"/>
      <vel value="0.0376504294" flag="0"/>
      <psa03 value="0.0853154732" flag="0"/>
      <psa10 value="0.0526409245" flag="0"/>
      <psa30 value="0.0117280044" flag="0"/>
    </comp>
  </station>
  <station code="ARG2" name="ARG2" netid="HI" insttype="CMG-5TD,ACCELEROMETER,GURALP" lat="38.1783" lon="20.4878">
    <comp name="--.HNE">
      <acc value="2.3030250686" flag="0"/>
      <vel value="0.6832279927" flag="0"/>
      <psa03 value="2.9579940505" flag="0"/>
      <psa10 value="0.5663168210" flag="0"/>
      <psa30 value="0.1142974707" flag="0"/>
    </comp>
    <comp name="--.HNN">
      <acc value="2.3587310532" flag="0"/>
      <vel value="0.9764898225" flag="0"/>
      <psa03 value="4.5277309262" flag="0"/>
      <psa10 value="0.6047501401" flag="0"/>
      <psa30 value="0.0875817499" flag="0"/>
    </comp>
    <comp name="--.HNZ">
      <acc value="1.0814744135" flag="0"/>
      <vel value="0.3227601370" flag="0"/>
      <psa03 value="1.5665585508" flag="0"/>
      <psa10 value="0.3136939490" flag="0"/>
      <psa30 value="0.0334854007" flag="0"/>
    </comp>
  </station>
  <station code="ART2" name="ART2" netid="HI" insttype="CMG-5TD,ACCELEROMETER,GURALP" lat="39.1474" lon="20.9937">
    <comp name="--.HNE">
      <acc value="0.0386316300" flag="0"/>
      <vel value="0.0965748752" flag="0"/>
      <psa03 value="0.1253321640" flag="0"/>
      <psa10 value="0.0947451938" flag="0"/>
      <psa30 value="0.0409390175" flag="0"/>
    </comp>
    <comp name="--.HNN">
      <acc value="0.0448517362" flag="0"/>
      <vel value="0.0720581680" flag="0"/>
      <psa03 value="0.0758496621" flag="0"/>
      <psa10 value="0.1019929174" flag="0"/>
      <psa30 value="0.0177443015" flag="0"/>
    </comp>
    <comp name="--.HNZ">
      <acc value="0.0354727776" flag="0"/>
      <vel value="0.0535517094" flag="0"/>
      <psa03 value="0.0516536366" flag="0"/>
      <psa10 value="0.0578997303" flag="0"/>
      <psa30 value="0.0186828983" flag="0"/>
    </comp>
  </station>
  <station code="KLV1" name="KLV1" netid="HI" insttype="CMG-5TD,ACCELEROMETER,GURALP" lat="38.0326" lon="22.108">
    <comp name="--.HNN">
      <acc value="0.0583851798" flag="0"/>
      <vel value="0.0683331375" flag="0"/>
      <psa03 value="0.1683395676" flag="0"/>
      <psa10 value="0.0919951713" flag="0"/>
      <psa30 value="0.0195489999" flag="0"/>
    </comp>
    <comp name="--.HNE">
      <acc value="0.0578175025" flag="0"/>
      <vel value="0.0788809531" flag="0"/>
      <psa03 value="0.1469096817" flag="0"/>
      <psa10 value="0.1182945054" flag="0"/>
      <psa30 value="0.0159393591" flag="0"/>
    </comp>
    <comp name="--.HNZ">
      <acc value="0.0294926999" flag="0"/>
      <vel value="0.0435022285" flag="0"/>
      <psa03 value="0.0604314247" flag="0"/>
      <psa10 value="0.0692207107" flag="0"/>
      <psa30 value="0.0127553324" flag="0"/>
    </comp>
  </station>
  <station code="KRI1" name="KRI1" netid="HI" insttype="CMG-5TD,ACCELEROMETER,GURALP" lat="37.6621" lon="20.8172">
    <comp name="--.HNE">
      <acc value="0.3750573656" flag="0"/>
      <vel value="0.3044791029" flag="0"/>
      <psa03 value="1.1900811509" flag="0"/>
      <psa10 value="0.1516122387" flag="0"/>
      <psa30 value="0.0639653793" flag="0"/>
    </comp>
    <comp name="--.HNN">
      <acc value="0.3739207156" flag="0"/>
      <vel value="0.2720163701" flag="0"/>
      <psa03 value="0.7583304491" flag="0"/>
      <psa10 value="0.1945646233" flag="0"/>
      <psa30 value="0.0703721697" flag="0"/>
    </comp>
    <comp name="--.HNZ">
      <acc value="0.2184007439" flag="0"/>
      <vel value="0.1306420589" flag="0"/>
      <psa03 value="0.6535030084" flag="0"/>
      <psa10 value="0.0859737227" flag="0"/>
      <psa30 value="0.0536284319" flag="0"/>
    </comp>
  </station>
  <station code="MSL1" name="MSL1" netid="HI" insttype="CMG-5TD,ACCELEROMETER,GURALP" lat="38.3727" lon="21.4243">
    <comp name="--.HNN">
      <acc value="0.5284506002" flag="0"/>
      <vel value="0.5285554218" flag="0"/>
      <psa03 value="0.9197980251" flag="0"/>
      <psa10 value="1.0288400542" flag="0"/>
      <psa30 value="0.1478863009" flag="0"/>
    </comp>
    <comp name="--.HNE">
      <acc value="0.4429216812" flag="0"/>
      <vel value="0.4746427905" flag="0"/>
      <psa03 value="0.9365554564" flag="0"/>
      <psa10 value="0.8426969219" flag="0"/>
      <psa30 value="0.1093912897" flag="0"/>
    </comp>
    <comp name="--.HNZ">
      <acc value="0.1657406441" flag="0"/>
      <vel value="0.2148213415" flag="0"/>
      <psa03 value="0.3325359243" flag="0"/>
      <psa10 value="0.3618402521" flag="0"/>
      <psa30 value="0.0444726142" flag="0"/>
    </comp>
  </station>
  <station code="EVR" name="EVR" netid="HL" insttype="DR24" lat="38.9166" lon="21.8105">
    <comp name="--.HHE">
      <acc value="0.0334028272" flag="0"/>
      <vel value="0.0757984624" flag="0"/>
      <psa03 value="0.0727172801" flag="0"/>
      <psa10 value="0.0851586900" flag="0"/>
      <psa30 value="0.0301462592" flag="0"/>
    </comp>
    <comp name="--.HHZ">
      <acc value="0.0265469084" flag="0"/>
      <vel value="0.0471598413" flag="0"/>
      <psa03 value="0.0485432882" flag="0"/>
      <psa10 value="0.0730247357" flag="0"/>
      <psa30 value="0.0171211263" flag="0"/>
    </comp>
    <comp name="--.HHN">
      <acc value="0.0292174320" flag="0"/>
      <vel value="0.0522258730" flag="0"/>
      <psa03 value="0.0565776937" flag="0"/>
      <psa10 value="0.0439276827" flag="0"/>
      <psa30 value="0.0217748411" flag="0"/>
    </comp>
  </station>
  <station code="ITM" name="ITM" netid="HL" insttype="DR24" lat="37.1787" lon="21.9252">
    <comp name="--.HHN">
      <acc value="0.0247092160" flag="0"/>
      <vel value="0.0383982670" flag="0"/>
      <psa03 value="0.0630926484" flag="0"/>
      <psa10 value="0.0376324326" flag="0"/>
      <psa30 value="0.0172838993" flag="0"/>
    </comp>
    <comp name="--.HHZ">
      <acc value="0.0205839947" flag="0"/>
      <vel value="0.0354259264" flag="0"/>
      <psa03 value="0.0413628451" flag="0"/>
      <psa10 value="0.0272136753" flag="0"/>
      <psa30 value="0.0177541256" flag="0"/>
    </comp>
    <comp name="--.HHE">
      <acc value="0.0215249678" flag="0"/>
      <vel value="0.0390204220" flag="0"/>
      <psa03 value="0.0727339105" flag="0"/>
      <psa10 value="0.0329621041" flag="0"/>
      <psa30 value="0.0282017118" flag="0"/>
    </comp>
  </station>
  <station code="JAN" name="JAN" netid="HL" insttype="CMG3EPSC60_DR24" lat="39.6562" lon="20.8487">
    <comp name="--.HHN">
      <acc value="0.0259243445" flag="0"/>
      <vel value="0.0353864175" flag="0"/>
      <psa03 value="0.0658514070" flag="0"/>
      <psa10 value="0.0505707927" flag="0"/>
      <psa30 value="0.0188365254" flag="0"/>
    </comp>
    <comp name="--.HHE">
      <acc value="0.0319933974" flag="0"/>
      <vel value="0.0346722722" flag="0"/>
      <psa03 value="0.1105884202" flag="0"/>
      <psa10 value="0.0566718127" flag="0"/>
      <psa30 value="0.0192356471" flag="0"/>
    </comp>
    <comp name="--.HHZ">
      <acc value="0.0241174715" flag="0"/>
      <vel value="0.0287260958" flag="0"/>
      <psa03 value="0.0389494607" flag="0"/>
      <psa10 value="0.0408490277" flag="0"/>
      <psa30 value="0.0115699508" flag="0"/>
    </comp>
  </station>
  <station code="KEK" name="KEK" netid="HL" insttype="120" lat="39.7127" lon="19.7962">
    <comp name="--.HHN">
      <acc value="0.0273247151" flag="0"/>
      <vel value="0.0291126623" flag="0"/>
      <psa03 value="0.0770548936" flag="0"/>
      <psa10 value="0.0523177497" flag="0"/>
      <psa30 value="0.0159077284" flag="0"/>
    </comp>
    <comp name="--.HHZ">
      <acc value="0.0296804924" flag="0"/>
      <vel value="0.0490257016" flag="0"/>
      <psa03 value="0.0679172091" flag="0"/>
      <psa10 value="0.0539107902" flag="0"/>
      <psa30 value="0.0205315481" flag="0"/>
    </comp>
    <comp name="--.HHE">
      <acc value="0.0391587343" flag="0"/>
      <vel value="0.0520504633" flag="0"/>
      <psa03 value="0.1020906933" flag="0"/>
      <psa10 value="0.0707597589" flag="0"/>
      <psa30 value="0.0189141175" flag="0"/>
    </comp>
  </station>
  <station code="KLV" name="KLV" netid="HL" insttype="120" lat="38.0435" lon="22.1504">
    <comp name="--.HHE">
      <acc value="0.0237194079" flag="0"/>
      <vel value="0.0470246966" flag="0"/>
      <psa03 value="0.0440192590" flag="0"/>
      <psa10 value="0.0534188848" flag="0"/>
      <psa30 value="0.0158099367" flag="0"/>
    </comp>
    <comp name="--.HHZ">
      <acc value="0.0223559524" flag="0"/>
      <vel value="0.0499947852" flag="0"/>
      <psa03 value="0.0501631256" flag="0"/>
      <psa10 value="0.0489807119" flag="0"/>
      <psa30 value="0.0158724532" flag="0"/>
    </comp>
    <comp name="--.HHN">
      <acc value="0.0275925108" flag="0"/>
      <vel value="0.0407304784" flag="0"/>
      <psa03 value="0.0349279024" flag="0"/>
      <psa10 value="0.0432359703" flag="0"/>
      <psa30 value="0.0178256098" flag="0"/>
    </comp>
  </station>
  <station code="ORTH" name="ORTH" netid="HL" insttype="30" lat="37.8511" lon="20.6963">
    <comp name="--.HHN">
      <acc value="0.5072257967" flag="0"/>
      <vel value="0.2987023646" flag="0"/>
      <psa03 value="1.4994597556" flag="0"/>
      <psa10 value="0.2621336421" flag="0"/>
      <psa30 value="0.0669904965" flag="0"/>
    </comp>
    <comp name="--.HHZ">
      <acc value="0.2556244609" flag="0"/>
      <vel value="0.1823616738" flag="0"/>
      <psa03 value="0.3898439090" flag="0"/>
      <psa10 value="0.1254793758" flag="0"/>
      <psa30 value="0.0361752880" flag="0"/>
    </comp>
    <comp name="--.HHE">
      <acc value="0.5761908490" flag="0"/>
      <vel value="0.3644808939" flag="0"/>
      <psa03 value="1.5235601612" flag="0"/>
      <psa10 value="0.2516212939" flag="0"/>
      <psa30 value="0.0735395410" flag="0"/>
    </comp>
  </station>
  <station code="PATC" name="PATC" netid="HL" insttype="CMG-5" lat="38.2693" lon="21.76">
    <comp name="00.HNN">
      <acc value="0.1397001205" flag="0"/>
      <vel value="0.2921926255" flag="0"/>
      <psa03 value="0.3197163071" flag="0"/>
      <psa10 value="0.3644117327" flag="0"/>
      <psa30 value="0.1857715765" flag="0"/>
    </comp>
    <comp name="00.HNE">
      <acc value="0.1396851436" flag="0"/>
      <vel value="0.2827001590" flag="0"/>
      <psa03 value="0.3737697502" flag="0"/>
      <psa10 value="0.3081414766" flag="0"/>
      <psa30 value="0.1385551949" flag="0"/>
    </comp>
    <comp name="00.HNZ">
      <acc value="0.0755945810" flag="0"/>
      <vel value="0.0986705593" flag="0"/>
      <psa03 value="0.1236310954" flag="0"/>
      <psa10 value="0.0547820626" flag="0"/>
      <psa30 value="0.0319952736" flag="0"/>
    </comp>
  </station>
  <station code="PATG" name="PATG" netid="HL" insttype="CMG-5" lat="38.2386" lon="21.7266">
    <comp name="00.HNE">
      <acc value="0.1322082604" flag="0"/>
      <vel value="0.2886818406" flag="0"/>
      <psa03 value="0.3319741253" flag="0"/>
      <psa10 value="0.2901258664" flag="0"/>
      <psa30 value="0.1403027775" flag="0"/>
    </comp>
    <comp name="00.HNZ">
      <acc value="0.0813520551" flag="0"/>
      <vel value="0.1835188661" flag="0"/>
      <psa03 value="0.1657454244" flag="0"/>
      <psa10 value="0.2011072656" flag="0"/>
      <psa30 value="0.1044910537" flag="0"/>
    </comp>
    <comp name="00.HNN">
      <acc value="0.1845668549" flag="0"/>
      <vel value="0.3442009136" flag="0"/>
      <psa03 value="0.3923681753" flag="0"/>
      <psa10 value="0.3346238123" flag="0"/>
      <psa30 value="0.2326365104" flag="0"/>
    </comp>
  </station>
  <station code="RIOA" name="RIOA" netid="HL" insttype="CMG-5" lat="38.2959" lon="21.7912">
    <comp name="00.HNE">
      <acc value="0.0778778391" flag="0"/>
      <vel value="0.1500060952" flag="0"/>
      <psa03 value="0.1629216936" flag="0"/>
      <psa10 value="0.1124465700" flag="0"/>
      <psa30 value="0.1125005396" flag="0"/>
    </comp>
    <comp name="00.HNZ">
      <acc value="0.0546416906" flag="0"/>
      <vel value="0.0392482724" flag="0"/>
      <psa03 value="0.0909232513" flag="0"/>
      <psa10 value="0.0367875097" flag="0"/>
      <psa30 value="0.0123507549" flag="0"/>
    </comp>
    <comp name="00.HNN">
      <acc value="0.1155746794" flag="0"/>
      <vel value="0.2360053973" flag="0"/>
      <psa03 value="0.2129628406" flag="0"/>
      <psa10 value="0.1885015066" flag="0"/>
      <psa30 value="0.0833208230" flag="0"/>
    </comp>
  </station>
  <station code="RLS" name="RLS" netid="HL" insttype="CMG3ESPC-120s" lat="38.0559" lon="21.4647">
    <comp name="--.HHE">
      <acc value="0.0513022751" flag="0"/>
      <vel value="0.0447202754" flag="0"/>
      <psa03 value="0.1482441430" flag="0"/>
      <psa10 value="0.0710863089" flag="0"/>
      <psa30 value="0.0198643904" flag="0"/>
    </comp>
    <comp name="--.HHN">
      <acc value="0.0806120289" flag="0"/>
      <vel value="0.0864622905" flag="0"/>
      <psa03 value="0.1549842363" flag="0"/>
      <psa10 value="0.0754242181" flag="0"/>
      <psa30 value="0.0256222115" flag="0"/>
    </comp>
    <comp name="--.HHZ">
      <acc value="0.0275202304" flag="0"/>
      <vel value="0.0450939836" flag="0"/>
      <psa03 value="0.0840136135" flag="0"/>
      <psa10 value="0.0565621269" flag="0"/>
      <psa30 value="0.0202627366" flag="0"/>
    </comp>
  </station>
  <station code="TETR" name="TETR" netid="HL" insttype="60" lat="39.3445" lon="21.2747">
    <comp name="--.HHE">
      <acc value="0.0835332603" flag="0"/>
      <vel value="0.1199224299" flag="0"/>
      <psa03 value="0.1706844031" flag="0"/>
      <psa10 value="0.2556728648" flag="0"/>
      <psa30 value="0.0541448149" flag="0"/>
    </comp>
    <comp name="--.HHN">
      <acc value="0.0540976248" flag="0"/>
      <vel value="0.0927050910" flag="0"/>
      <psa03 value="0.1338680029" flag="0"/>
      <psa10 value="0.0870319972" flag="0"/>
      <psa30 value="0.0302502147" flag="0"/>
    </comp>
    <comp name="--.HHZ">
      <acc value="0.0439171044" flag="0"/>
      <vel value="0.0800447256" flag="0"/>
      <psa03 value="0.0729079069" flag="0"/>
      <psa10 value="0.1004766349" flag="0"/>
      <psa30 value="0.0220418980" flag="0"/>
    </comp>
  </station>
  <station code="VLS" name="VLS" netid="HL" insttype="120P," lat="38.1768" lon="20.5886">
    <comp name="--.HHE">
      <acc value="1.5845884563" flag="0"/>
      <vel value="0.3525547535" flag="0"/>
      <psa03 value="2.4740714905" flag="0"/>
      <psa10 value="0.1719727340" flag="0"/>
      <psa30 value="0.0420908397" flag="0"/>
    </comp>
    <comp name="--.HHN">
      <acc value="1.5302653834" flag="0"/>
      <vel value="0.4250373070" flag="0"/>
      <psa03 value="2.9371010133" flag="0"/>
      <psa10 value="0.2598003403" flag="0"/>
      <psa30 value="0.1012515565" flag="0"/>
    </comp>
    <comp name="--.HHZ">
      <acc value="0.8236476432" flag="0"/>
      <vel value="0.2044016979" flag="0"/>
      <psa03 value="0.8098624054" flag="0"/>
      <psa10 value="0.1528880728" flag="0"/>
      <psa30 value="0.0283048177" flag="0"/>
    </comp>
  </station>
  <station code="AMPL" name="AMPL" netid="HP" insttype="Compact," lat="38.9224" lon="21.2135">
    <comp name="--.HHN">
      <acc value="0.0729238893" flag="0"/>
      <vel value="0.0800578241" flag="0"/>
      <psa03 value="0.1707171890" flag="0"/>
      <psa10 value="0.1374018319" flag="0"/>
      <psa30 value="0.0267946586" flag="0"/>
    </comp>
    <comp name="--.HHE">
      <acc value="0.0845271590" flag="0"/>
      <vel value="0.0887132023" flag="0"/>
      <psa03 value="0.1797281269" flag="0"/>
      <psa10 value="0.1537202640" flag="0"/>
      <psa30 value="0.0359971715" flag="0"/>
    </comp>
    <comp name="--.HHZ">
      <acc value="0.0561188217" flag="0"/>
      <vel value="0.0643744002" flag="0"/>
      <psa03 value="0.1115390174" flag="0"/>
      <psa10 value="0.0833628408" flag="0"/>
      <psa30 value="0.0210924469" flag="0"/>
    </comp>
  </station>
  <station code="AMT" name="AMT" netid="HP" insttype="CMG-3T," lat="37.5324" lon="21.7089">
    <comp name="00.HHE">
      <acc value="0.0749205295" flag="0"/>
      <vel value="0.0894229814" flag="0"/>
      <psa03 value="0.1963260011" flag="0"/>
      <psa10 value="0.1757800341" flag="0"/>
      <psa30 value="0.0231445699" flag="0"/>
    </comp>
    <comp name="00.HHN">
      <acc value="0.0771837657" flag="0"/>
      <vel value="0.0997225471" flag="0"/>
      <psa03 value="0.1767304785" flag="0"/>
      <psa10 value="0.1040257232" flag="0"/>
      <psa30 value="0.0409260040" flag="0"/>
    </comp>
    <comp name="00.HHZ">
      <acc value="0.0561641085" flag="0"/>
      <vel value="0.0519916469" flag="0"/>
      <psa03 value="0.1308009465" flag="0"/>
      <psa10 value="0.0501242053" flag="0"/>
      <psa30 value="0.0250820729" flag="0"/>
    </comp>
  </station>
  <station code="ANX" name="ANX" netid="HP" insttype="120" lat="38.5933" lon="21.9209">
    <comp name="--.HHZ">
      <acc value="0.0410264804" flag="0"/>
      <vel value="0.0382773805" flag="0"/>
      <psa03 value="0.1228411953" flag="0"/>
      <psa10 value="0.0759049397" flag="0"/>
      <psa30 value="0.0093772426" flag="0"/>
    </comp>
    <comp name="--.HHE">
