<?xml version="1.0" encoding="UTF-8" standalone="yes"?>
<!DOCTYPE earthquake SYSTEM "stationlist.dtd">
<stationlist created="" xmlns="ch.ethz.sed.shakemap.usgs.xml">
  <station code="KRL1" name="KRL1" netid="HI" insttype="CMG-5TD,ACCELEROMETER,GURALP" lat="37.7951" lon="26.7065">
    <comp name="--.HNE">
      <acc value="0.2553185146" flag="0"/>
      <vel value="0.0819788078" flag="0"/>
      <psa03 value="0.3114203960" flag="0"/>
      <psa10 value="0.0380744112" flag="0"/>
      <psa30 value="0.0049846217" flag="0"/>
    </comp>
    <comp name="--.HNN">
      <acc value="0.0973081936" flag="0"/>
      <vel value="0.0439014781" flag="0"/>
      <psa03 value="0.2721095711" flag="0"/>
      <psa10 value="0.0251720902" flag="0"/>
      <psa30 value="0.0023398028" flag="0"/>
    </comp>
    <comp name="--.HNZ">
      <acc value="0.0965270845" flag="0"/>
      <vel value="0.0261967709" flag="0"/>
      <psa03 value="0.1531645314" flag="0"/>
      <psa10 value="0.0143218267" flag="0"/>
      <psa30 value="0.0016797278" flag="0"/>
    </comp>
  </station>
  <station code="EAG2" name="EAG2" netid="HL" insttype="SMART24" lat="38.5438" lon="26.1079">
    <comp name="--.HHZ">
      <acc value="0.2040255138" flag="0"/>
      <vel value="0.0773904927" flag="0"/>
      <psa03 value="0.7182959381" flag="0"/>
      <psa10 value="0.0237754025" flag="0"/>
      <psa30 value="0.0018347854" flag="0"/>
    </comp>
    <comp name="--.HHE">
      <acc value="0.3955109006" flag="0"/>
      <vel value="0.2122346301" flag="0"/>
      <psa03 value="1.1598791081" flag="0"/>
      <psa10 value="0.0866707170" flag="0"/>
      <psa30 value="0.0066861265" flag="0"/>
    </comp>
    <comp name="--.HHN">
      <acc value="0.6410068843" flag="0"/>
      <vel value="0.3408170686" flag="0"/>
      <psa03 value="2.2837579675" flag="0"/>
      <psa10 value="0.0997540193" flag="0"/>
      <psa30 value="0.0094470116" flag="0"/>
    </comp>
  </station>
  <station code="CHOS" name="CHOS" netid="HT" insttype="100" lat="38.3869" lon="26.0506">
    <comp name="--.HHZ">
      <acc value="0.0178235911" flag="0"/>
      <vel value="0.0053074086" flag="0"/>
      <psa03 value="0.0257360475" flag="0"/>
      <psa10 value="0.0053187950" flag="0"/>
      <psa30 value="0.0006459280" flag="0"/>
    </comp>
    <comp name="--.HHE">
      <acc value="0.0695558264" flag="0"/>
      <vel value="0.0212375613" flag="0"/>
      <psa03 value="0.0787025742" flag="0"/>
      <psa10 value="0.0142469324" flag="0"/>
      <psa30 value="0.0013945997" flag="0"/>
    </comp>
    <comp name="--.HHN">
      <acc value="0.0376807356" flag="0"/>
      <vel value="0.0118014626" flag="0"/>
      <psa03 value="0.0717580768" flag="0"/>
      <psa10 value="0.0086426639" flag="0"/>
      <psa30 value="0.0010729884" flag="0"/>
    </comp>
  </station>
  <station code="GMLD" name="GMLD" netid="KO" insttype="100" lat="38.0764" lon="26.8747">
    <comp name="--.HNE">
      <acc value="0.1594336995" flag="0"/>
      <vel value="0.0583282024" flag="0"/>
      <psa03 value="0.4098836047" flag="0"/>
      <psa10 value="0.0208023470" flag="0"/>
      <psa30 value="0.0019124691" flag="0"/>
    </comp>
    <comp name="--.HNN">
      <acc value="0.2451125110" flag="0"/>
      <vel value="0.0722728894" flag="0"/>
      <psa03 value="0.4587174144" flag="0"/>
      <psa10 value="0.0340853578" flag="0"/>
      <psa30 value="0.0016092235" flag="0"/>
    </comp>
    <comp name="--.HNZ">
      <acc value="0.0933664839" flag="0"/>
      <vel value="0.0242738425" flag="0"/>
      <psa03 value="0.2202321884" flag="0"/>
      <psa10 value="0.0093337910" flag="0"/>
      <psa30 value="0.0008343277" flag="0"/>
    </comp>
  </station>
  <station code="KRBN" name="KRBN" netid="KO" insttype="100" lat="38.5936" lon="26.5537">
    <comp name="--.HNE">
      <acc value="0.0668975967" flag="0"/>
      <vel value="0.0185426134" flag="0"/>
      <psa03 value="0.0623056282" flag="0"/>
      <psa10 value="0.0115333738" flag="0"/>
      <psa30 value="0.0010602950" flag="0"/>
    </comp>
    <comp name="--.HNZ">
      <acc value="0.0258782556" flag="0"/>
      <vel value="0.0080367423" flag="0"/>
      <psa03 value="0.0423437623" flag="0"/>
      <psa10 value="0.0141111005" flag="0"/>
      <psa30 value="0.0005400134" flag="0"/>
    </comp>
  </station>
</stationlist>
