<?xml version="1.0" encoding="UTF-8" standalone="yes"?>
<!DOCTYPE earthquake SYSTEM "stationlist.dtd">
<stationlist created="" xmlns="ch.ethz.sed.shakemap.usgs.xml">
  <station code="A060B" name="A060B" netid="8D" insttype="STS2.5" commtype="DIG" lat="46.993" lon="7.97764">
    <comp name="--.HHE">
      <acc value="0.0078270905" flag="0"/>
      <vel value="0.0029048187" flag="0"/>
      <psa03 value="0.0182668996" flag="0"/>
      <psa10 value="0.0019549182" flag="0"/>
      <psa30 value="0.0002427994" flag="0"/>
    </comp>
    <comp name="--.HHN">
      <acc value="0.0105456331" flag="0"/>
      <vel value="0.0026087928" flag="0"/>
      <psa03 value="0.0176258381" flag="0"/>
      <psa10 value="0.0029231621" flag="0"/>
      <psa30 value="0.0002521473" flag="0"/>
    </comp>
    <comp name="--.HHZ">
      <acc value="0.0063564220" flag="0"/>
      <vel value="0.0017735203" flag="0"/>
      <psa03 value="0.0061773115" flag="0"/>
      <psa10 value="0.0016536753" flag="0"/>
      <psa30 value="0.0003186638" flag="0"/>
    </comp>
  </station>
  <station code="OBER" name="OBER" netid="BW" insttype="Trillium Compact 120s 754 V/m/s" commtype="DIG" lat="47.4069" lon="10.2934">
    <comp name="--.HHE">
      <acc value="0.0042506760" flag="0"/>
      <vel value="0.0022992351" flag="0"/>
      <psa03 value="0.0098630572" flag="0"/>
      <psa10 value="0.0055309626" flag="0"/>
      <psa30 value="0.0003860376" flag="0"/>
    </comp>
    <comp name="--.HHN">
      <acc value="0.0068422206" flag="0"/>
      <vel value="0.0031201694" flag="0"/>
      <psa03 value="0.0095157169" flag="0"/>
      <psa10 value="0.0027542612" flag="0"/>
      <psa30 value="0.0004335925" flag="0"/>
    </comp>
    <comp name="--.HHZ">
      <acc value="0.0044771626" flag="0"/>
      <vel value="0.0028845477" flag="0"/>
      <psa03 value="0.0108691190" flag="0"/>
      <psa10 value="0.0058146682" flag="0"/>
      <psa30 value="0.0005259293" flag="0"/>
    </comp>
  </station>
  <station code="ZUGS" name="ZUGS" netid="BW" insttype="" commtype="DIG" lat="47.4167" lon="10.9793">
    <comp name="--.HHE">
      <acc value="0.0067193210" flag="0"/>
      <vel value="0.0032948566" flag="0"/>
      <psa03 value="0.0163240373" flag="0"/>
      <psa10 value="0.0025856886" flag="0"/>
      <psa30 value="0.0002609324" flag="0"/>
    </comp>
    <comp name="--.HHZ">
      <acc value="0.0056637903" flag="0"/>
      <vel value="0.0024456202" flag="0"/>
      <psa03 value="0.0124519802" flag="0"/>
      <psa10 value="0.0014695687" flag="0"/>
      <psa30 value="0.0001968621" flag="0"/>
    </comp>
    <comp name="--.HHN">
      <acc value="0.0067058301" flag="0"/>
      <vel value="0.0025970235" flag="0"/>
      <psa03 value="0.0095304537" flag="0"/>
      <psa10 value="0.0034439176" flag="0"/>
      <psa30 value="0.0004100529" flag="0"/>
    </comp>
  </station>
  <station code="ACB" name="ACB" netid="CH" insttype="Trillium 240s_g2" commtype="DIG" lat="47.5877" lon="8.25474">
    <comp name="--.HHN">
      <acc value="0.0160964196" flag="0"/>
      <vel value="0.0099649137" flag="0"/>
      <psa03 value="0.0387400449" flag="0"/>
      <psa10 value="0.0145936893" flag="0"/>
      <psa30 value="0.0009935009" flag="0"/>
    </comp>
    <comp name="--.HHZ">
      <acc value="0.0070982250" flag="0"/>
      <vel value="0.0031039278" flag="0"/>
      <psa03 value="0.0194008454" flag="0"/>
      <psa10 value="0.0030247527" flag="0"/>
      <psa30 value="0.0003755903" flag="0"/>
    </comp>
    <comp name="--.HHE">
      <acc value="0.0100026474" flag="0"/>
      <vel value="0.0077321307" flag="0"/>
      <psa03 value="0.0387066609" flag="0"/>
      <psa10 value="0.0111046690" flag="0"/>
      <psa30 value="0.0006765865" flag="0"/>
    </comp>
  </station>
  <station code="BERNI" name="BERNI" netid="CH" insttype="Trillium 240s_g2" commtype="DIG" lat="46.4136" lon="10.0231">
    <comp name="--.HHZ">
      <acc value="0.0016571156" flag="0"/>
      <vel value="0.0007661431" flag="0"/>
      <psa03 value="0.0035474355" flag="0"/>
      <psa10 value="0.0011245733" flag="0"/>
      <psa30 value="0.0001866071" flag="0"/>
    </comp>
    <comp name="--.HHN">
      <acc value="0.0022607054" flag="0"/>
      <vel value="0.0009599584" flag="0"/>
      <psa03 value="0.0052187599" flag="0"/>
      <psa10 value="0.0007013354" flag="0"/>
      <psa30 value="0.0001495255" flag="0"/>
    </comp>
    <comp name="--.HHE">
      <acc value="0.0029945589" flag="0"/>
      <vel value="0.0010399233" flag="0"/>
      <psa03 value="0.0034325365" flag="0"/>
      <psa10 value="0.0009188891" flag="0"/>
      <psa30 value="0.0003106775" flag="0"/>
    </comp>
  </station>
  <station code="BNALP" name="BNALP" netid="CH" insttype="STS2_gen3" commtype="DIG" lat="46.8703" lon="8.4249">
    <comp name="--.HHN">
      <acc value="0.0022531556" flag="0"/>
      <vel value="0.0009305178" flag="0"/>
      <psa03 value="0.0032314400" flag="0"/>
      <psa10 value="0.0011261475" flag="0"/>
      <psa30 value="0.0002606167" flag="0"/>
    </comp>
    <comp name="--.HHZ">
      <acc value="0.0022060020" flag="0"/>
      <vel value="0.0011542364" flag="0"/>
      <psa03 value="0.0037680406" flag="0"/>
      <psa10 value="0.0013632463" flag="0"/>
      <psa30 value="0.0003167010" flag="0"/>
    </comp>
    <comp name="--.HHE">
      <acc value="0.0020641096" flag="0"/>
      <vel value="0.0009585934" flag="0"/>
      <psa03 value="0.0036876369" flag="0"/>
      <psa10 value="0.0008699475" flag="0"/>
      <psa30 value="0.0002504622" flag="0"/>
    </comp>
  </station>
  <station code="BOBI" name="BOBI" netid="CH" insttype="EpiSensor ES-T" commtype="DIG" lat="47.5463" lon="8.33992">
    <comp name="SF.HGE">
      <acc value="0.0659839868" flag="0"/>
      <vel value="0.0238217697" flag="0"/>
      <psa03 value="0.1102664860" flag="0"/>
      <psa10 value="0.0150331607" flag="0"/>
      <psa30 value="0.0040009591" flag="0"/>
    </comp>
    <comp name="SF.HGZ">
      <acc value="0.0535146625" flag="0"/>
      <vel value="0.0162380682" flag="0"/>
      <psa03 value="0.0953928511" flag="0"/>
      <psa10 value="0.0119887641" flag="0"/>
      <psa30 value="0.0038541697" flag="0"/>
    </comp>
    <comp name="SF.HGN">
      <acc value="0.0741330093" flag="0"/>
      <vel value="0.0243109485" flag="0"/>
      <psa03 value="0.1318483639" flag="0"/>
      <psa10 value="0.0229467453" flag="0"/>
      <psa30 value="0.0067758151" flag="0"/>
    </comp>
  </station>
  <station code="DAGMA" name="DAGMA" netid="CH" insttype="Trillium Compact 120s" commtype="DIG" lat="47.2309" lon="8.01248">
    <comp name="--.HHE">
      <acc value="0.0060936570" flag="0"/>
      <vel value="0.0022651922" flag="0"/>
      <psa03 value="0.0113303789" flag="0"/>
      <psa10 value="0.0026311615" flag="0"/>
      <psa30 value="0.0007415147" flag="0"/>
    </comp>
    <comp name="--.HHN">
      <acc value="0.0059799478" flag="0"/>
      <vel value="0.0023713875" flag="0"/>
      <psa03 value="0.0115710524" flag="0"/>
      <psa10 value="0.0032036004" flag="0"/>
      <psa30 value="0.0007609156" flag="0"/>
    </comp>
    <comp name="--.HHZ">
      <acc value="0.0050182509" flag="0"/>
      <vel value="0.0016327160" flag="0"/>
      <psa03 value="0.0066859794" flag="0"/>
      <psa10 value="0.0029441855" flag="0"/>
      <psa30 value="0.0006250239" flag="0"/>
    </comp>
  </station>
  <station code="DAVOX" name="DAVOX" netid="CH" insttype="STS2.5" commtype="DIG" lat="46.7805" lon="9.87952">
    <comp name="--.HHE">
      <acc value="0.0130750804" flag="0"/>
      <vel value="0.0055198430" flag="0"/>
      <psa03 value="0.0244341170" flag="0"/>
      <psa10 value="0.0029030915" flag="0"/>
      <psa30 value="0.0006198082" flag="0"/>
    </comp>
    <comp name="--.HHZ">
      <acc value="0.0082316364" flag="0"/>
      <vel value="0.0040056953" flag="0"/>
      <psa03 value="0.0173953459" flag="0"/>
      <psa10 value="0.0027299855" flag="0"/>
      <psa30 value="0.0004343816" flag="0"/>
    </comp>
    <comp name="--.HHN">
      <acc value="0.0201151827" flag="0"/>
      <vel value="0.0071431443" flag="0"/>
      <psa03 value="0.0209100385" flag="0"/>
      <psa10 value="0.0030955639" flag="0"/>
      <psa30 value="0.0006153049" flag="0"/>
    </comp>
  </station>
  <station code="EMING" name="EMING" netid="CH" insttype="Trillium Compact 120s" commtype="DIG" lat="47.8952" lon="8.84676">
    <comp name="--.HHN">
      <acc value="0.0094280185" flag="0"/>
      <vel value="0.0066082875" flag="0"/>
      <psa03 value="0.0139360788" flag="0"/>
      <psa10 value="0.0088103629" flag="0"/>
      <psa30 value="0.0005754159" flag="0"/>
    </comp>
    <comp name="--.HHE">
      <acc value="0.0092030408" flag="0"/>
      <vel value="0.0060543208" flag="0"/>
      <psa03 value="0.0266886901" flag="0"/>
      <psa10 value="0.0036399380" flag="0"/>
      <psa30 value="0.0012442495" flag="0"/>
    </comp>
    <comp name="--.HHZ">
      <acc value="0.0041401467" flag="0"/>
      <vel value="0.0022991609" flag="0"/>
      <psa03 value="0.0136604595" flag="0"/>
      <psa10 value="0.0028396464" flag="0"/>
      <psa30 value="0.0003151806" flag="0"/>
    </comp>
  </station>
  <station code="EMMET" name="EMMET" netid="CH" insttype="Trillium Compact 120s" commtype="DIG" lat="47.4376" lon="8.01358">
    <comp name="--.HHE">
      <acc value="0.0104006060" flag="0"/>
      <vel value="0.0038654523" flag="0"/>
      <psa03 value="0.0268817620" flag="0"/>
      <psa10 value="0.0043600638" flag="0"/>
      <psa30 value="0.0002774187" flag="0"/>
    </comp>
    <comp name="--.HHN">
      <acc value="0.0081262099" flag="0"/>
      <vel value="0.0043230471" flag="0"/>
      <psa03 value="0.0169899426" flag="0"/>
      <psa10 value="0.0035274592" flag="0"/>
      <psa30 value="0.0005989779" flag="0"/>
    </comp>
    <comp name="--.HHZ">
      <acc value="0.0056302396" flag="0"/>
      <vel value="0.0019418139" flag="0"/>
      <psa03 value="0.0176129916" flag="0"/>
      <psa10 value="0.0016862425" flag="0"/>
      <psa30 value="0.0002002356" flag="0"/>
    </comp>
  </station>
  <station code="FIESA" name="FIESA" netid="CH" insttype="STS2_gen2" commtype="DIG" lat="46.4352" lon="8.11051">
    <comp name="--.HHE">
      <acc value="0.0035220111" flag="0"/>
      <vel value="0.0027455629" flag="0"/>
      <psa03 value="0.0059999203" flag="0"/>
      <psa10 value="0.0031967673" flag="0"/>
      <psa30 value="0.0003901632" flag="0"/>
    </comp>
    <comp name="--.HHN">
      <acc value="0.0024301032" flag="0"/>
      <vel value="0.0028356392" flag="0"/>
      <psa03 value="0.0043520831" flag="0"/>
      <psa10 value="0.0034996570" flag="0"/>
      <psa30 value="0.0002216094" flag="0"/>
    </comp>
    <comp name="--.HHZ">
      <acc value="0.0021088990" flag="0"/>
      <vel value="0.0020113995" flag="0"/>
      <psa03 value="0.0028000403" flag="0"/>
      <psa10 value="0.0021791791" flag="0"/>
      <psa30 value="0.0002752424" flag="0"/>
    </comp>
  </station>
  <station code="FLACH" name="FLACH" netid="CH" insttype="Trillium Compact 120s (Cascadia)" commtype="DIG" lat="47.5724" lon="8.5679">
    <comp name="01.HHE">
      <acc value="0.0145323046" flag="0"/>
      <vel value="0.0068674939" flag="0"/>
      <psa03 value="0.0274135509" flag="0"/>
      <psa10 value="0.0124093063" flag="0"/>
      <psa30 value="0.0024108681" flag="0"/>
    </comp>
    <comp name="01.HHN">
      <acc value="0.0124687659" flag="0"/>
      <vel value="0.0052384571" flag="0"/>
      <psa03 value="0.0196003652" flag="0"/>
      <psa10 value="0.0101423674" flag="0"/>
      <psa30 value="0.0015578717" flag="0"/>
    </comp>
    <comp name="01.HHZ">
      <acc value="0.0174476319" flag="0"/>
      <vel value="0.0038863395" flag="0"/>
      <psa03 value="0.0122526377" flag="0"/>
      <psa10 value="0.0047965636" flag="0"/>
      <psa30 value="0.0015917113" flag="0"/>
    </comp>
  </station>
  <station code="FUSIO" name="FUSIO" netid="CH" insttype="STS2.5" commtype="DIG" lat="46.4548" lon="8.6629">
    <comp name="--.HHZ">
      <acc value="0.0050382161" flag="0"/>
      <vel value="0.0015456331" flag="0"/>
      <psa03 value="0.0062119909" flag="0"/>
      <psa10 value="0.0015114747" flag="0"/>
      <psa30 value="0.0002370026" flag="0"/>
    </comp>
    <comp name="--.HHE">
      <acc value="0.0098075617" flag="0"/>
      <vel value="0.0035809148" flag="0"/>
      <psa03 value="0.0123185887" flag="0"/>
      <psa10 value="0.0016987973" flag="0"/>
      <psa30 value="0.0005446118" flag="0"/>
    </comp>
    <comp name="--.HHN">
      <acc value="0.0077902853" flag="0"/>
      <vel value="0.0024951942" flag="0"/>
      <psa03 value="0.0094067242" flag="0"/>
      <psa10 value="0.0013192718" flag="0"/>
      <psa30 value="0.0003457810" flag="0"/>
    </comp>
  </station>
  <station code="GRIMS" name="GRIMS" netid="CH" insttype="STS2_gen3" commtype="DIG" lat="46.5781" lon="8.31886">
    <comp name="--.HHE">
      <acc value="0.0024645775" flag="0"/>
      <vel value="0.0008517413" flag="0"/>
      <psa03 value="0.0023910172" flag="0"/>
      <psa10 value="0.0006958713" flag="0"/>
      <psa30 value="0.0001518598" flag="0"/>
    </comp>
    <comp name="--.HHN">
      <acc value="0.0023514633" flag="0"/>
      <vel value="0.0008461614" flag="0"/>
      <psa03 value="0.0018578676" flag="0"/>
      <psa10 value="0.0010723729" flag="0"/>
      <psa30 value="0.0002553908" flag="0"/>
    </comp>
    <comp name="--.HHZ">
      <acc value="0.0034098448" flag="0"/>
      <vel value="0.0008762614" flag="0"/>
      <psa03 value="0.0020420431" flag="0"/>
      <psa10 value="0.0010127377" flag="0"/>
      <psa30 value="0.0002474099" flag="0"/>
    </comp>
  </station>
  <station code="HAMIK" name="HAMIK" netid="CH" insttype="EpiSensor ES-T" commtype="DIG" lat="47.2451" lon="8.27061">
    <comp name="SF.HGZ">
      <acc value="0.0097712188" flag="0"/>
      <vel value="0.0029042258" flag="0"/>
      <psa03 value="0.0096367793" flag="0"/>
      <psa10 value="0.0031188233" flag="0"/>
      <psa30 value="0.0008999424" flag="0"/>
    </comp>
    <comp name="SF.HGN">
      <acc value="0.0309701394" flag="0"/>
      <vel value="0.0087230519" flag="0"/>
      <psa03 value="0.0185577837" flag="0"/>
      <psa10 value="0.0089448527" flag="0"/>
      <psa30 value="0.0011800956" flag="0"/>
    </comp>
    <comp name="SF.HGE">
      <acc value="0.0395626310" flag="0"/>
      <vel value="0.0090146353" flag="0"/>
      <psa03 value="0.0312676354" flag="0"/>
      <psa10 value="0.0034776740" flag="0"/>
      <psa30 value="0.0010533451" flag="0"/>
    </comp>
  </station>
  <station code="HASLI" name="HASLI" netid="CH" insttype="STS2_gen3" commtype="DIG" lat="46.7567" lon="8.15108">
    <comp name="--.HHE">
      <acc value="0.0062901220" flag="0"/>
      <vel value="0.0017426786" flag="0"/>
      <psa03 value="0.0076670844" flag="0"/>
      <psa10 value="0.0015420505" flag="0"/>
      <psa30 value="0.0001644619" flag="0"/>
    </comp>
    <comp name="--.HHZ">
      <acc value="0.0069358211" flag="0"/>
      <vel value="0.0013766086" flag="0"/>
      <psa03 value="0.0050655042" flag="0"/>
      <psa10 value="0.0010733346" flag="0"/>
      <psa30 value="0.0001569823" flag="0"/>
    </comp>
    <comp name="--.HHN">
      <acc value="0.0088328448" flag="0"/>
      <vel value="0.0025523460" flag="0"/>
      <psa03 value="0.0056441272" flag="0"/>
      <psa10 value="0.0023821184" flag="0"/>
      <psa30 value="0.0002548109" flag="0"/>
    </comp>
  </station>
  <station code="LIENZ" name="LIENZ" netid="CH" insttype="STS2.5" commtype="DIG" lat="47.2944" lon="9.49177">
    <comp name="--.HHN">
      <acc value="0.0242965457" flag="0"/>
      <vel value="0.0207228561" flag="0"/>
      <psa03 value="0.0284225253" flag="0"/>
      <psa10 value="0.0226290212" flag="0"/>
      <psa30 value="0.0042879931" flag="0"/>
    </comp>
    <comp name="--.HHE">
      <acc value="0.0374502652" flag="0"/>
      <vel value="0.0171128819" flag="0"/>
      <psa03 value="0.0509213349" flag="0"/>
      <psa10 value="0.0302152537" flag="0"/>
      <psa30 value="0.0036265888" flag="0"/>
    </comp>
    <comp name="--.HHZ">
      <acc value="0.0251372649" flag="0"/>
      <vel value="0.0163694570" flag="0"/>
      <psa03 value="0.0335271580" flag="0"/>
      <psa10 value="0.0364012034" flag="0"/>
      <psa30 value="0.0023954028" flag="0"/>
    </comp>
  </station>
  <station code="LLS" name="LLS" netid="CH" insttype="STS2_gen3" commtype="DIG" lat="46.8468" lon="9.00825">
    <comp name="--.HHE">
      <acc value="0.0177739679" flag="0"/>
      <vel value="0.0061264421" flag="0"/>
      <psa03 value="0.0182385604" flag="0"/>
      <psa10 value="0.0020249071" flag="0"/>
      <psa30 value="0.0005218653" flag="0"/>
    </comp>
    <comp name="--.HHN">
      <acc value="0.0145763843" flag="0"/>
      <vel value="0.0032941097" flag="0"/>
      <psa03 value="0.0187515949" flag="0"/>
      <psa10 value="0.0024605864" flag="0"/>
      <psa30 value="0.0008512746" flag="0"/>
    </comp>
    <comp name="--.HHZ">
      <acc value="0.0218683439" flag="0"/>
      <vel value="0.0057102971" flag="0"/>
      <psa03 value="0.0107479931" flag="0"/>
      <psa10 value="0.0031136657" flag="0"/>
      <psa30 value="0.0003164602" flag="0"/>
    </comp>
  </station>
  <station code="METMA" name="METMA" netid="CH" insttype="Trillium Compact 120s" commtype="DIG" lat="47.7122" lon="8.25262">
    <comp name="--.HHE">
      <acc value="0.0037678048" flag="0"/>
      <vel value="0.0018200792" flag="0"/>
      <psa03 value="0.0074807077" flag="0"/>
      <psa10 value="0.0023632275" flag="0"/>
      <psa30 value="0.0005418030" flag="0"/>
    </comp>
    <comp name="--.HHN">
      <acc value="0.0031773234" flag="0"/>
      <vel value="0.0022709029" flag="0"/>
      <psa03 value="0.0086953388" flag="0"/>
      <psa10 value="0.0043818903" flag="0"/>
      <psa30 value="0.0005478460" flag="0"/>
    </comp>
    <comp name="--.HHZ">
      <acc value="0.0040151324" flag="0"/>
      <vel value="0.0016388268" flag="0"/>
      <psa03 value="0.0120976783" flag="0"/>
      <psa10 value="0.0015092440" flag="0"/>
      <psa30 value="0.0004431125" flag="0"/>
    </comp>
  </station>
  <station code="MUO" name="MUO" netid="CH" insttype="STS2_gen2" commtype="DIG" lat="46.9676" lon="8.63706">
    <comp name="--.HHE">
      <acc value="0.0061377305" flag="0"/>
      <vel value="0.0053152007" flag="0"/>
      <psa03 value="0.0135655905" flag="0"/>
      <psa10 value="0.0125623633" flag="0"/>
      <psa30 value="0.0009177224" flag="0"/>
    </comp>
    <comp name="--.HHZ">
      <acc value="0.0037708807" flag="0"/>
      <vel value="0.0022329959" flag="0"/>
      <psa03 value="0.0073182825" flag="0"/>
      <psa10 value="0.0035796160" flag="0"/>
      <psa30 value="0.0003530269" flag="0"/>
    </comp>
    <comp name="--.HHN">
      <acc value="0.0072255169" flag="0"/>
      <vel value="0.0063126741" flag="0"/>
      <psa03 value="0.0174607092" flag="0"/>
      <psa10 value="0.0084275598" flag="0"/>
      <psa30 value="0.0012547396" flag="0"/>
    </comp>
  </station>
  <station code="PANIX" name="PANIX" netid="CH" insttype="STS2.5" commtype="DIG" lat="46.8257" lon="9.11171">
    <comp name="--.HHE">
      <acc value="0.0187038421" flag="0"/>
      <vel value="0.0074614127" flag="0"/>
      <psa03 value="0.0327870255" flag="0"/>
      <psa10 value="0.0033649666" flag="0"/>
      <psa30 value="0.0008733887" flag="0"/>
    </comp>
    <comp name="--.HHN">
      <acc value="0.0179771479" flag="0"/>
      <vel value="0.0054599888" flag="0"/>
      <psa03 value="0.0191644423" flag="0"/>
      <psa10 value="0.0027307387" flag="0"/>
      <psa30 value="0.0014821670" flag="0"/>
    </comp>
    <comp name="--.HHZ">
      <acc value="0.0154538016" flag="0"/>
      <vel value="0.0051031265" flag="0"/>
      <psa03 value="0.0260906769" flag="0"/>
      <psa10 value="0.0050228379" flag="0"/>
