<?xml version="1.0" encoding="UTF-8" standalone="yes"?>
<!DOCTYPE earthquake SYSTEM "stationlist.dtd">
<stationlist created="" xmlns="ch.ethz.sed.shakemap.usgs.xml">
  <station code="OBER" name="OBER" netid="BW" insttype="Trillium Compact 120s 754 V/m/s" commtype="DIG" lat="47.4069" lon="10.2934">
    <comp name="--.HHE">
      <acc value="0.0042506760" flag="0"/>
      <vel value="0.0022992350" flag="0"/>
      <psa03 value="0.0098630572" flag="0"/>
      <psa10 value="0.0055309626" flag="0"/>
      <psa30 value="0.0003860372" flag="0"/>
    </comp>
    <comp name="--.HHZ">
      <acc value="0.0044771625" flag="0"/>
      <vel value="0.0028845476" flag="0"/>
      <psa03 value="0.0108691190" flag="0"/>
      <psa10 value="0.0058146682" flag="0"/>
      <psa30 value="0.0005259231" flag="0"/>
    </comp>
  </station>
  <station code="SWIM" name="SWIM" netid="CH" insttype="EpiSensor ES-T" commtype="DIG" lat="47.2047" lon="9.35224">
    <comp name="--.HGE">
      <acc value="0.3053483837" flag="0"/>
      <vel value="0.0779421120" flag="0"/>
      <psa03 value="0.3223161334" flag="0"/>
      <psa10 value="0.0325097995" flag="0"/>
      <psa30 value="0.0038258775" flag="0"/>
    </comp>
  </station>
  <station code="UBR" name="UBR" netid="GR" insttype="STS-2" commtype="DIG" lat="47.6799" lon="10.1071">
    <comp name="--.HHN">
      <acc value="0.0161650958" flag="0"/>
      <vel value="0.0070847418" flag="0"/>
      <psa03 value="0.0647263496" flag="0"/>
      <psa10 value="0.0048766386" flag="0"/>
      <psa30 value="0.0011819194" flag="0"/>
    </comp>
    <comp name="--.HHE">
      <acc value="0.0315157561" flag="0"/>
      <vel value="0.0168866220" flag="0"/>
      <psa03 value="0.1395855761" flag="0"/>
      <psa10 value="0.0075229893" flag="0"/>
      <psa30 value="0.0014107013" flag="0"/>
    </comp>
    <comp name="--.HHZ">
      <acc value="0.0097114279" flag="0"/>
      <vel value="0.0027618477" flag="0"/>
      <psa03 value="0.0144836055" flag="0"/>
      <psa10 value="0.0032580319" flag="0"/>
      <psa30 value="0.0007076367" flag="0"/>
    </comp>
  </station>
  <station code="TUE" name="TUE" netid="MN" insttype="" commtype="DIG" lat="46.4722" lon="9.34732">
    <comp name="--.HHN">
      <acc value="0.0031251460" flag="0"/>
      <vel value="0.0011885085" flag="0"/>
      <psa03 value="0.0063833538" flag="0"/>
      <psa10 value="0.0010362835" flag="0"/>
      <psa30 value="0.0002626624" flag="0"/>
    </comp>
    <comp name="--.HHE">
      <acc value="0.0057302393" flag="0"/>
      <vel value="0.0017281905" flag="0"/>
      <psa03 value="0.0082158510" flag="0"/>
      <psa10 value="0.0014231665" flag="0"/>
      <psa30 value="0.0006185266" flag="0"/>
    </comp>
    <comp name="--.HHZ">
      <acc value="0.0034944215" flag="0"/>
      <vel value="0.0009177707" flag="0"/>
      <psa03 value="0.0048907988" flag="0"/>
      <psa10 value="0.0014617583" flag="0"/>
      <psa30 value="0.0002482446" flag="0"/>
    </comp>
  </station>
  <station code="DAVA" name="DAVA" netid="OE" insttype="STS-2" commtype="DIG" lat="47.2867" lon="9.8803">
    <comp name="--.HHZ">
      <acc value="0.0137245435" flag="0"/>
      <vel value="0.0097902791" flag="0"/>
      <psa03 value="0.0387499144" flag="0"/>
      <psa10 value="0.0091953636" flag="0"/>
      <psa30 value="0.0009642683" flag="0"/>
    </comp>
    <comp name="--.HHE">
      <acc value="0.0229555984" flag="0"/>
      <vel value="0.0092536210" flag="0"/>
      <psa03 value="0.0540693063" flag="0"/>
      <psa10 value="0.0093976448" flag="0"/>
      <psa30 value="0.0012163235" flag="0"/>
    </comp>
    <comp name="--.HHN">
      <acc value="0.0257278059" flag="0"/>
      <vel value="0.0114724904" flag="0"/>
      <psa03 value="0.0655022521" flag="0"/>
      <psa10 value="0.0127615485" flag="0"/>
      <psa30 value="0.0015609027" flag="0"/>
    </comp>
  </station>
  <station code="RETA" name="RETA" netid="OE" insttype="STS-2" commtype="DIG" lat="47.4871" lon="10.7623">
    <comp name="--.HHE">
      <acc value="0.0039595831" flag="0"/>
      <vel value="0.0020057966" flag="0"/>
      <psa03 value="0.0099692199" flag="0"/>
      <psa10 value="0.0023778638" flag="0"/>
      <psa30 value="0.0002200654" flag="0"/>
    </comp>
    <comp name="--.HHZ">
      <acc value="0.0033174843" flag="0"/>
      <vel value="0.0016785557" flag="0"/>
      <psa03 value="0.0113937989" flag="0"/>
      <psa10 value="0.0013155593" flag="0"/>
      <psa30 value="0.0002408915" flag="0"/>
    </comp>
    <comp name="--.HHN">
      <acc value="0.0034491321" flag="0"/>
      <vel value="0.0020974525" flag="0"/>
      <psa03 value="0.0085591235" flag="0"/>
      <psa10 value="0.0020457405" flag="0"/>
      <psa30 value="0.0002330595" flag="0"/>
    </comp>
  </station>
</stationlist>
