<?xml version="1.0" encoding="UTF-8" standalone="yes"?>
<!DOCTYPE earthquake SYSTEM "stationlist.dtd">
<stationlist created="" xmlns="ch.ethz.sed.shakemap.usgs.xml">
  <station code="TASB" name="TASB" netid="KO" insttype="CMG-3T" lat="39.9838" lon="44.2384">
    <comp name="--.HHE">
      <acc value="0.0023403146" flag="0"/>
      <vel value="0.0050392058" flag="0"/>
      <psa03 value="0.0036973393" flag="0"/>
      <psa10 value="0.0061020741" flag="0"/>
      <psa30 value="0.0032926744" flag="0"/>
    </comp>
    <comp name="--.HHN">
      <acc value="0.0021943315" flag="0"/>
      <vel value="0.0047426721" flag="0"/>
      <psa03 value="0.0041033941" flag="0"/>
      <psa10 value="0.0046559811" flag="0"/>
      <psa30 value="0.0018088118" flag="0"/>
    </comp>
    <comp name="--.HHZ">
      <acc value="0.0019679157" flag="0"/>
      <vel value="0.0048692948" flag="0"/>
      <psa03 value="0.0050060065" flag="0"/>
      <psa10 value="0.0057554367" flag="0"/>
      <psa30 value="0.0022997059" flag="0"/>
    </comp>
  </station>
</stationlist>
