<?xml version="1.0" encoding="UTF-8" standalone="yes"?>
<!DOCTYPE earthquake SYSTEM "stationlist.dtd">
<stationlist created="" xmlns="ch.ethz.sed.shakemap.usgs.xml">
  <station code="CARD" name="CARD" netid="GU" insttype="" lat="44.0261" lon="10.4821">
    <comp name="--.HHE">
      <acc value="0.0662071130" flag="0"/>
      <vel value="0.0302043922" flag="0"/>
      <psa03 value="0.1414579447" flag="0"/>
      <psa10 value="0.0075652834" flag="0"/>
      <psa30 value="0.0007701210" flag="0"/>
    </comp>
    <comp name="--.HHZ">
      <acc value="0.0357410953" flag="0"/>
      <vel value="0.0135614875" flag="0"/>
      <psa03 value="0.0475126189" flag="0"/>
      <psa10 value="0.0057016076" flag="0"/>
      <psa30 value="0.0005103423" flag="0"/>
    </comp>
    <comp name="--.HHN">
      <acc value="0.0561863627" flag="0"/>
      <vel value="0.0199452631" flag="0"/>
      <psa03 value="0.0995546001" flag="0"/>
      <psa10 value="0.0088734522" flag="0"/>
      <psa30 value="0.0006520723" flag="0"/>
    </comp>
  </station>
  <station code="EQUI" name="EQUI" netid="GU" insttype="" lat="44.166" lon="10.153">
    <comp name="--.HHN">
      <acc value="0.0251194362" flag="0"/>
      <vel value="0.0096763824" flag="0"/>
      <psa03 value="0.0601031767" flag="0"/>
      <psa10 value="0.0072008649" flag="0"/>
      <psa30 value="0.0003802545" flag="0"/>
    </comp>
    <comp name="--.HHE">
      <acc value="0.0155675653" flag="0"/>
      <vel value="0.0086608293" flag="0"/>
      <psa03 value="0.0268709523" flag="0"/>
      <psa10 value="0.0043338954" flag="0"/>
      <psa30 value="0.0004005814" flag="0"/>
    </comp>
    <comp name="--.HHZ">
      <acc value="0.0096251312" flag="0"/>
      <vel value="0.0068171577" flag="0"/>
      <psa03 value="0.0221131778" flag="0"/>
      <psa10 value="0.0083224129" flag="0"/>
      <psa30 value="0.0002656608" flag="0"/>
    </comp>
  </station>
  <station code="FIVI" name="FIVI" netid="GU" insttype="" lat="44.2394" lon="10.1271">
    <comp name="--.HNE">
      <acc value="0.0187360296" flag="0"/>
      <vel value="0.0082277581" flag="0"/>
      <psa03 value="0.0356833158" flag="0"/>
      <psa10 value="0.0114304051" flag="0"/>
      <psa30 value="0.0005452307" flag="0"/>
    </comp>
    <comp name="--.HNN">
      <acc value="0.0311666590" flag="0"/>
      <vel value="0.0094078209" flag="0"/>
      <psa03 value="0.0555082890" flag="0"/>
      <psa10 value="0.0055892326" flag="0"/>
      <psa30 value="0.0003780881" flag="0"/>
    </comp>
    <comp name="--.HNZ">
      <acc value="0.0190124282" flag="0"/>
      <vel value="0.0060232588" flag="0"/>
      <psa03 value="0.0318807387" flag="0"/>
      <psa10 value="0.0042578293" flag="0"/>
      <psa30 value="0.0003310899" flag="0"/>
    </comp>
  </station>
  <station code="GSCL" name="GSCL" netid="GU" insttype="" lat="44.3506" lon="10.588">
    <comp name="--.HHE">
      <acc value="0.0160295881" flag="0"/>
      <vel value="0.0093789142" flag="0"/>
      <psa03 value="0.0512467790" flag="0"/>
      <psa10 value="0.0083886227" flag="0"/>
      <psa30 value="0.0004302941" flag="0"/>
    </comp>
    <comp name="--.HHN">
      <acc value="0.0189301484" flag="0"/>
      <vel value="0.0080133673" flag="0"/>
      <psa03 value="0.0716214912" flag="0"/>
      <psa10 value="0.0039636910" flag="0"/>
      <psa30 value="0.0003930828" flag="0"/>
    </comp>
    <comp name="--.HHZ">
      <acc value="0.0058799012" flag="0"/>
      <vel value="0.0035170668" flag="0"/>
      <psa03 value="0.0230808954" flag="0"/>
      <psa10 value="0.0031431347" flag="0"/>
      <psa30 value="0.0003146899" flag="0"/>
    </comp>
  </station>
  <station code="MAIM" name="MAIM" netid="GU" insttype="" lat="43.9142" lon="10.4915">
    <comp name="--.HHE">
      <acc value="0.0194459201" flag="0"/>
      <vel value="0.0071747186" flag="0"/>
      <psa03 value="0.0412767705" flag="0"/>
      <psa10 value="0.0034376318" flag="0"/>
      <psa30 value="0.0002273238" flag="0"/>
    </comp>
    <comp name="--.HHN">
      <acc value="0.0208996147" flag="0"/>
      <vel value="0.0080394222" flag="0"/>
      <psa03 value="0.0498352340" flag="0"/>
      <psa10 value="0.0052986897" flag="0"/>
      <psa30 value="0.0003558612" flag="0"/>
    </comp>
    <comp name="--.HHZ">
      <acc value="0.0220840395" flag="0"/>
      <vel value="0.0067479971" flag="0"/>
      <psa03 value="0.0399535173" flag="0"/>
      <psa10 value="0.0037956169" flag="0"/>
      <psa30 value="0.0003391516" flag="0"/>
    </comp>
  </station>
  <station code="POPM" name="POPM" netid="GU" insttype="" lat="44.045" lon="10.757">
    <comp name="--.HHE">
      <acc value="0.1414117883" flag="0"/>
      <vel value="0.0493060018" flag="0"/>
      <psa03 value="0.1510117725" flag="0"/>
      <psa10 value="0.0069745399" flag="0"/>
      <psa30 value="0.0007373550" flag="0"/>
    </comp>
    <comp name="--.HHN">
      <acc value="0.1300129159" flag="0"/>
      <vel value="0.0403113095" flag="0"/>
      <psa03 value="0.1802049298" flag="0"/>
      <psa10 value="0.0082291293" flag="0"/>
      <psa30 value="0.0007840070" flag="0"/>
    </comp>
    <comp name="--.HHZ">
      <acc value="0.0475905191" flag="0"/>
      <vel value="0.0166600976" flag="0"/>
      <psa03 value="0.0764008936" flag="0"/>
      <psa10 value="0.0094331086" flag="0"/>
      <psa30 value="0.0006200958" flag="0"/>
    </comp>
  </station>
  <station code="APEC" name="APEC" netid="IV" insttype="" lat="43.5585" lon="12.4199">
    <comp name="--.HHE">
      <acc value="0.0069629396" flag="0"/>
      <vel value="0.0037257217" flag="0"/>
      <psa03 value="0.0201649489" flag="0"/>
      <psa10 value="0.0060915936" flag="0"/>
      <psa30 value="0.0003993881" flag="0"/>
    </comp>
    <comp name="--.HHN">
      <acc value="0.0078793915" flag="0"/>
      <vel value="0.0044941620" flag="0"/>
      <psa03 value="0.0166915847" flag="0"/>
      <psa10 value="0.0048403407" flag="0"/>
      <psa30 value="0.0003024777" flag="0"/>
    </comp>
    <comp name="--.HHZ">
      <acc value="0.0028959413" flag="0"/>
      <vel value="0.0023577512" flag="0"/>
      <psa03 value="0.0071293532" flag="0"/>
      <psa10 value="0.0042263059" flag="0"/>
      <psa30 value="0.0005292577" flag="0"/>
    </comp>
  </station>
  <station code="ARCI" name="ARCI" netid="IV" insttype="" lat="42.8519" lon="11.4754">
    <comp name="--.HHE">
      <acc value="0.0023870569" flag="0"/>
      <vel value="0.0011959510" flag="0"/>
      <psa03 value="0.0029791268" flag="0"/>
      <psa10 value="0.0021741095" flag="0"/>
      <psa30 value="0.0004187183" flag="0"/>
    </comp>
    <comp name="--.HHZ">
      <acc value="0.0011365642" flag="0"/>
      <vel value="0.0004698808" flag="0"/>
      <psa03 value="0.0014880211" flag="0"/>
      <psa10 value="0.0006948200" flag="0"/>
      <psa30 value="0.0003169421" flag="0"/>
    </comp>
    <comp name="--.HHN">
      <acc value="0.0023807159" flag="0"/>
      <vel value="0.0009358459" flag="0"/>
      <psa03 value="0.0044378102" flag="0"/>
      <psa10 value="0.0013470379" flag="0"/>
      <psa30 value="0.0005092578" flag="0"/>
    </comp>
  </station>
  <station code="ASQU" name="ASQU" netid="IV" insttype="" lat="43.7967" lon="11.7893">
    <comp name="--.HHE">
      <acc value="0.0228274630" flag="0"/>
      <vel value="0.0086375937" flag="0"/>
      <psa03 value="0.0284286873" flag="0"/>
      <psa10 value="0.0109714909" flag="0"/>
      <psa30 value="0.0006903931" flag="0"/>
    </comp>
    <comp name="--.HHN">
      <acc value="0.0259731496" flag="0"/>
      <vel value="0.0080058372" flag="0"/>
      <psa03 value="0.0404462135" flag="0"/>
      <psa10 value="0.0132515058" flag="0"/>
      <psa30 value="0.0009489553" flag="0"/>
    </comp>
    <comp name="--.HHZ">
      <acc value="0.0178828378" flag="0"/>
      <vel value="0.0059442290" flag="0"/>
      <psa03 value="0.0192418783" flag="0"/>
      <psa10 value="0.0088121692" flag="0"/>
      <psa30 value="0.0008067893" flag="0"/>
    </comp>
  </station>
  <station code="ATFO" name="ATFO" netid="IV" insttype="" lat="43.3666" lon="12.5715">
    <comp name="--.HHE">
      <acc value="0.0034784083" flag="0"/>
      <vel value="0.0021866401" flag="0"/>
      <psa03 value="0.0097394616" flag="0"/>
      <psa10 value="0.0027522476" flag="0"/>
      <psa30 value="0.0005860425" flag="0"/>
    </comp>
    <comp name="--.HHN">
      <acc value="0.0022771997" flag="0"/>
      <vel value="0.0017815257" flag="0"/>
      <psa03 value="0.0070673619" flag="0"/>
      <psa10 value="0.0024756127" flag="0"/>
      <psa30 value="0.0004177381" flag="0"/>
    </comp>
    <comp name="--.HHZ">
      <acc value="0.0015662585" flag="0"/>
      <vel value="0.0009823156" flag="0"/>
      <psa03 value="0.0039198678" flag="0"/>
      <psa10 value="0.0023250785" flag="0"/>
      <psa30 value="0.0003705554" flag="0"/>
    </comp>
  </station>
  <station code="ATMI" name="ATMI" netid="IV" insttype="" lat="43.3342" lon="12.268">
    <comp name="--.HHE">
      <acc value="0.0074168987" flag="0"/>
      <vel value="0.0047107175" flag="0"/>
      <psa03 value="0.0264492606" flag="0"/>
      <psa10 value="0.0066035793" flag="0"/>
      <psa30 value="0.0006708392" flag="0"/>
    </comp>
    <comp name="--.HHN">
      <acc value="0.0089181492" flag="0"/>
      <vel value="0.0080228331" flag="0"/>
      <psa03 value="0.0290509644" flag="0"/>
      <psa10 value="0.0107297994" flag="0"/>
      <psa30 value="0.0011525939" flag="0"/>
    </comp>
    <comp name="--.HHZ">
      <acc value="0.0045532176" flag="0"/>
      <vel value="0.0028604744" flag="0"/>
      <psa03 value="0.0137943088" flag="0"/>
      <psa10 value="0.0041238047" flag="0"/>
      <psa30 value="0.0007248553" flag="0"/>
    </comp>
  </station>
  <station code="ATPC" name="ATPC" netid="IV" insttype="" lat="43.4807" lon="12.457">
    <comp name="--.HHE">
      <acc value="0.0095334263" flag="0"/>
      <vel value="0.0033910589" flag="0"/>
      <psa03 value="0.0182415731" flag="0"/>
      <psa10 value="0.0040264895" flag="0"/>
      <psa30 value="0.0004611721" flag="0"/>
    </comp>
    <comp name="--.HHN">
      <acc value="0.0060914232" flag="0"/>
      <vel value="0.0037446603" flag="0"/>
      <psa03 value="0.0095157436" flag="0"/>
      <psa10 value="0.0042814797" flag="0"/>
      <psa30 value="0.0003721327" flag="0"/>
    </comp>
    <comp name="--.HHZ">
      <acc value="0.0032578369" flag="0"/>
      <vel value="0.0021114255" flag="0"/>
      <psa03 value="0.0144489498" flag="0"/>
      <psa10 value="0.0035805924" flag="0"/>
      <psa30 value="0.0004855595" flag="0"/>
    </comp>
  </station>
  <station code="ATVO" name="ATVO" netid="IV" insttype="" lat="43.3821" lon="12.4066">
    <comp name="--.HHE">
      <acc value="0.0038088816" flag="0"/>
      <vel value="0.0026719310" flag="0"/>
      <psa03 value="0.0102437182" flag="0"/>
      <psa10 value="0.0045975537" flag="0"/>
      <psa30 value="0.0004372627" flag="0"/>
    </comp>
    <comp name="--.HHN">
      <acc value="0.0028956852" flag="0"/>
      <vel value="0.0027229218" flag="0"/>
      <psa03 value="0.0083048961" flag="0"/>
      <psa10 value="0.0033039333" flag="0"/>
      <psa30 value="0.0005457073" flag="0"/>
    </comp>
    <comp name="--.HHZ">
      <acc value="0.0020560682" flag="0"/>
      <vel value="0.0017590620" flag="0"/>
      <psa03 value="0.0063008668" flag="0"/>
      <psa10 value="0.0022133561" flag="0"/>
      <psa30 value="0.0005466908" flag="0"/>
    </comp>
  </station>
  <station code="BDI" name="BDI" netid="IV" insttype="" lat="44.0624" lon="10.597">
    <comp name="--.HHE">
      <acc value="0.0538094528" flag="0"/>
      <vel value="0.0224893038" flag="0"/>
      <psa03 value="0.0962220366" flag="0"/>
      <psa10 value="0.0087348413" flag="0"/>
      <psa30 value="0.0007169975" flag="0"/>
    </comp>
    <comp name="--.HHN">
      <acc value="0.0481535496" flag="0"/>
      <vel value="0.0215393348" flag="0"/>
      <psa03 value="0.1046712004" flag="0"/>
      <psa10 value="0.0123929796" flag="0"/>
      <psa30 value="0.0008927584" flag="0"/>
    </comp>
    <comp name="--.HHZ">
      <acc value="0.0405531408" flag="0"/>
      <vel value="0.0120685884" flag="0"/>
      <psa03 value="0.0810863029" flag="0"/>
      <psa10 value="0.0049517349" flag="0"/>
      <psa30 value="0.0004148331" flag="0"/>
    </comp>
  </station>
  <station code="BOSL" name="BOSL" netid="IV" insttype="" lat="43.931" lon="11.3743">
    <comp name="--.HHN">
      <acc value="0.1078350680" flag="0"/>
      <vel value="0.0260436727" flag="0"/>
      <psa03 value="0.1392289117" flag="0"/>
      <psa10 value="0.0060427377" flag="0"/>
      <psa30 value="0.0004273041" flag="0"/>
    </comp>
    <comp name="--.HHE">
      <acc value="0.1763023227" flag="0"/>
      <vel value="0.0481157270" flag="0"/>
      <psa03 value="0.1664486189" flag="0"/>
      <psa10 value="0.0057185170" flag="0"/>
      <psa30 value="0.0005642173" flag="0"/>
    </comp>
    <comp name="--.HHZ">
      <acc value="0.0609118348" flag="0"/>
      <vel value="0.0139051637" flag="0"/>
      <psa03 value="0.0516614515" flag="0"/>
      <psa10 value="0.0052745535" flag="0"/>
      <psa30 value="0.0005255775" flag="0"/>
    </comp>
  </station>
  <station code="BRIS" name="BRIS" netid="IV" insttype="" lat="44.2245" lon="11.7666">
    <comp name="--.HHE">
      <acc value="0.0058100448" flag="0"/>
      <vel value="0.0037447597" flag="0"/>
      <psa03 value="0.0173413730" flag="0"/>
      <psa10 value="0.0045196569" flag="0"/>
      <psa30 value="0.0003709109" flag="0"/>
    </comp>
    <comp name="--.HHN">
      <acc value="0.0054635736" flag="0"/>
      <vel value="0.0037357102" flag="0"/>
      <psa03 value="0.0134452532" flag="0"/>
      <psa10 value="0.0036033810" flag="0"/>
      <psa30 value="0.0004322754" flag="0"/>
    </comp>
    <comp name="--.HHZ">
      <acc value="0.0053340783" flag="0"/>
      <vel value="0.0043049152" flag="0"/>
      <psa03 value="0.0121038466" flag="0"/>
      <psa10 value="0.0047134234" flag="0"/>
      <psa30 value="0.0005081878" flag="0"/>
    </comp>
  </station>
  <station code="CAFI" name="CAFI" netid="IV" insttype="" lat="43.3292" lon="11.9663">
    <comp name="--.HHE">
      <acc value="0.0063221184" flag="0"/>
      <vel value="0.0038849820" flag="0"/>
      <psa03 value="0.0200438357" flag="0"/>
      <psa10 value="0.0020987343" flag="0"/>
      <psa30 value="0.0004927652" flag="0"/>
    </comp>
    <comp name="--.HHN">
      <acc value="0.0047871345" flag="0"/>
      <vel value="0.0030323905" flag="0"/>
      <psa03 value="0.0148669141" flag="0"/>
      <psa10 value="0.0025783879" flag="0"/>
      <psa30 value="0.0002711779" flag="0"/>
    </comp>
    <comp name="--.HHZ">
      <acc value="0.0053978384" flag="0"/>
      <vel value="0.0022030922" flag="0"/>
      <psa03 value="0.0125026766" flag="0"/>
      <psa10 value="0.0036311752" flag="0"/>
      <psa30 value="0.0004482280" flag="0"/>
    </comp>
  </station>
  <station code="CASP" name="CASP" netid="IV" insttype="" lat="42.7908" lon="10.8652">
    <comp name="--.HHE">
      <acc value="0.0014666129" flag="0"/>
      <vel value="0.0007946577" flag="0"/>
      <psa03 value="0.0032730523" flag="0"/>
      <psa10 value="0.0016882515" flag="0"/>
      <psa30 value="0.0000648686" flag="0"/>
    </comp>
    <comp name="--.HHN">
      <acc value="0.0012538625" flag="0"/>
      <vel value="0.0006025356" flag="0"/>
      <psa03 value="0.0021257580" flag="0"/>
      <psa10 value="0.0012341379" flag="0"/>
      <psa30 value="0.0000514266" flag="0"/>
    </comp>
    <comp name="--.HHZ">
      <acc value="0.0015919371" flag="0"/>
      <vel value="0.0007521607" flag="0"/>
      <psa03 value="0.0032651798" flag="0"/>
      <psa10 value="0.0007241715" flag="0"/>
      <psa30 value="0.0000497380" flag="0"/>
    </comp>
  </station>
  <station code="CRE" name="CRE" netid="IV" insttype="" lat="43.6189" lon="11.9517">
    <comp name="--.HHN">
      <acc value="0.0262884028" flag="0"/>
      <vel value="0.0073769752" flag="0"/>
      <psa03 value="0.0516824256" flag="0"/>
      <psa10 value="0.0065495009" flag="0"/>
      <psa30 value="0.0008190558" flag="0"/>
    </comp>
    <comp name="--.HHE">
      <acc value="0.0121092260" flag="0"/>
      <vel value="0.0066104897" flag="0"/>
      <psa03 value="0.0277056344" flag="0"/>
      <psa10 value="0.0053753276" flag="0"/>
      <psa30 value="0.0009630510" flag="0"/>
    </comp>
    <comp name="--.HHZ">
      <acc value="0.0101721664" flag="0"/>
      <vel value="0.0027893511" flag="0"/>
      <psa03 value="0.0221016402" flag="0"/>
      <psa10 value="0.0030941087" flag="0"/>
      <psa30 value="0.0005722317" flag="0"/>
    </comp>
  </station>
  <station code="CSNT" name="CSNT" netid="IV" insttype="" lat="43.4731" lon="11.2902">
    <comp name="--.HHE">
      <acc value="0.0833364947" flag="0"/>
      <vel value="0.0248930943" flag="0"/>
      <psa03 value="0.0986604184" flag="0"/>
      <psa10 value="0.0157879530" flag="0"/>
      <psa30 value="0.0022976251" flag="0"/>
    </comp>
    <comp name="--.HHN">
      <acc value="0.0736167624" flag="0"/>
      <vel value="0.0155773457" flag="0"/>
      <psa03 value="0.0778318472" flag="0"/>
      <psa10 value="0.0121660513" flag="0"/>
      <psa30 value="0.0007489278" flag="0"/>
    </comp>
    <comp name="--.HHZ">
      <acc value="0.0628729875" flag="0"/>
      <vel value="0.0129066090" flag="0"/>
      <psa03 value="0.0611178212" flag="0"/>
      <psa10 value="0.0169343703" flag="0"/>
      <psa30 value="0.0017817236" flag="0"/>
    </comp>
  </station>
  <station code="FIR" name="FIR" netid="IV" insttype="" lat="43.7744" lon="11.2551">
    <comp name="--.HHE">
      <acc value="1.6975213428" flag="0"/>
      <vel value="0.4508807141" flag="0"/>
      <psa03 value="1.9287397873" flag="0"/>
      <psa10 value="0.1236680307" flag="0"/>
      <psa30 value="0.0087559241" flag="0"/>
    </comp>
    <comp name="--.HHN">
      <acc value="1.2443633689" flag="0"/>
      <vel value="0.2846478124" flag="0"/>
      <psa03 value="0.9206489218" flag="0"/>
      <psa10 value="0.0694794581" flag="0"/>
      <psa30 value="0.0087732077" flag="0"/>
    </comp>
    <comp name="--.HHZ">
      <acc value="0.8385536371" flag="0"/>
      <vel value="0.1776103104" flag="0"/>
      <psa03 value="0.6214632785" flag="0"/>
      <psa10 value="0.0624057485" flag="0"/>
      <psa30 value="0.0044654390" flag="0"/>
    </comp>
  </station>
  <station code="FNVD" name="FNVD" netid="IV" insttype="" lat="44.1678" lon="11.1229">
    <comp name="--.HHN">
      <acc value="0.0930928450" flag="0"/>
      <vel value="0.0230222756" flag="0"/>
      <psa03 value="0.1011861127" flag="0"/>
      <psa10 value="0.0328775258" flag="0"/>
      <psa30 value="0.0012361332" flag="0"/>
    </comp>
    <comp name="--.HHE">
      <acc value="0.0469963280" flag="0"/>
      <vel value="0.0206224110" flag="0"/>
      <psa03 value="0.0950342486" flag="0"/>
      <psa10 value="0.0118231109" flag="0"/>
      <psa30 value="0.0010225552" flag="0"/>
    </comp>
    <comp name="--.HHZ">
      <acc value="0.0310674725" flag="0"/>
      <vel value="0.0120682769" flag="0"/>
      <psa03 value="0.0565254461" flag="0"/>
      <psa10 value="0.0174695592" flag="0"/>
      <psa30 value="0.0006201207" flag="0"/>
    </comp>
  </station>
  <station code="IMOL" name="IMOL" netid="IV" insttype="" lat="44.3595" lon="11.7425">
    <comp name="--.HNE">
      <acc value="0.0840842869" flag="0"/>
      <vel value="0.0049706149" flag="0"/>
      <psa03 value="0.0212100123" flag="0"/>
      <psa10 value="0.0055082743" flag="0"/>
      <psa30 value="0.0005023166" flag="0"/>
    </comp>
    <comp name="--.HNZ">
      <acc value="0.1680885668" flag="0"/>
      <vel value="0.0076610442" flag="0"/>
      <psa03 value="0.0078704427" flag="0"/>
      <psa10 value="0.0018704228" flag="0"/>
      <psa30 value="0.0001609409" flag="0"/>
    </comp>
