<?xml version="1.0" encoding="UTF-8" standalone="yes"?>
<!DOCTYPE earthquake SYSTEM "stationlist.dtd">
<stationlist created="" xmlns="ch.ethz.sed.shakemap.usgs.xml">
  <station code="CARD" name="CARD" netid="GU" insttype="" lat="44.0261" lon="10.4821">
    <comp name="--.HHE">
      <acc value="0.0662071133" flag="0"/>
      <vel value="0.0302043922" flag="0"/>
      <psa03 value="0.1414579447" flag="0"/>
      <psa10 value="0.0075652834" flag="0"/>
      <psa30 value="0.0007701222" flag="0"/>
    </comp>
    <comp name="--.HHN">
      <acc value="0.0561863630" flag="0"/>
      <vel value="0.0199452631" flag="0"/>
      <psa03 value="0.0995546001" flag="0"/>
      <psa10 value="0.0088734522" flag="0"/>
      <psa30 value="0.0006520728" flag="0"/>
    </comp>
    <comp name="--.HHZ">
      <acc value="0.0357410956" flag="0"/>
      <vel value="0.0135614875" flag="0"/>
      <psa03 value="0.0475126189" flag="0"/>
      <psa10 value="0.0057016076" flag="0"/>
      <psa30 value="0.0005103438" flag="0"/>
    </comp>
  </station>
  <station code="GSCL" name="GSCL" netid="GU" insttype="" lat="44.3506" lon="10.588">
    <comp name="--.HHE">
      <acc value="0.0160295882" flag="0"/>
      <vel value="0.0093789142" flag="0"/>
      <psa03 value="0.0512467790" flag="0"/>
      <psa10 value="0.0083886227" flag="0"/>
      <psa30 value="0.0004302944" flag="0"/>
    </comp>
    <comp name="--.HHZ">
      <acc value="0.0058799008" flag="0"/>
      <vel value="0.0035170668" flag="0"/>
      <psa03 value="0.0230808954" flag="0"/>
      <psa10 value="0.0031431347" flag="0"/>
      <psa30 value="0.0003146450" flag="0"/>
    </comp>
    <comp name="--.HHN">
      <acc value="0.0189301494" flag="0"/>
      <vel value="0.0080133673" flag="0"/>
      <psa03 value="0.0716214912" flag="0"/>
      <psa10 value="0.0039636910" flag="0"/>
      <psa30 value="0.0003930846" flag="0"/>
    </comp>
  </station>
  <station code="MAIM" name="MAIM" netid="GU" insttype="" lat="43.9142" lon="10.4915">
    <comp name="--.HHN">
      <acc value="0.0208996143" flag="0"/>
      <vel value="0.0080394229" flag="0"/>
      <psa03 value="0.0498352340" flag="0"/>
      <psa10 value="0.0052986897" flag="0"/>
      <psa30 value="0.0003558619" flag="0"/>
    </comp>
    <comp name="--.HHE">
      <acc value="0.0194459207" flag="0"/>
      <vel value="0.0071747187" flag="0"/>
      <psa03 value="0.0412767705" flag="0"/>
      <psa10 value="0.0034376318" flag="0"/>
      <psa30 value="0.0002273260" flag="0"/>
    </comp>
    <comp name="--.HHZ">
      <acc value="0.0220840405" flag="0"/>
      <vel value="0.0067479974" flag="0"/>
      <psa03 value="0.0399535173" flag="0"/>
      <psa10 value="0.0037956169" flag="0"/>
      <psa30 value="0.0003391485" flag="0"/>
    </comp>
  </station>
  <station code="POPM" name="POPM" netid="GU" insttype="" lat="44.045" lon="10.757">
    <comp name="--.HHN">
      <acc value="0.1300129165" flag="0"/>
      <vel value="0.0403113101" flag="0"/>
      <psa03 value="0.1802049298" flag="0"/>
      <psa10 value="0.0082291293" flag="0"/>
      <psa30 value="0.0007840066" flag="0"/>
    </comp>
    <comp name="--.HHZ">
      <acc value="0.0475905192" flag="0"/>
      <vel value="0.0166600985" flag="0"/>
      <psa03 value="0.0764008936" flag="0"/>
      <psa10 value="0.0094331086" flag="0"/>
      <psa30 value="0.0006201014" flag="0"/>
    </comp>
    <comp name="--.HHE">
      <acc value="0.1414117880" flag="0"/>
      <vel value="0.0493060026" flag="0"/>
      <psa03 value="0.1510117725" flag="0"/>
      <psa10 value="0.0069745399" flag="0"/>
      <psa30 value="0.0007373470" flag="0"/>
    </comp>
  </station>
  <station code="APEC" name="APEC" netid="IV" insttype="" lat="43.5585" lon="12.4199">
    <comp name="--.HHE">
      <acc value="0.0069629409" flag="0"/>
      <vel value="0.0037257201" flag="0"/>
      <psa03 value="0.0201649489" flag="0"/>
      <psa10 value="0.0060915936" flag="0"/>
      <psa30 value="0.0003994085" flag="0"/>
    </comp>
    <comp name="--.HHN">
      <acc value="0.0078793917" flag="0"/>
      <vel value="0.0044941617" flag="0"/>
      <psa03 value="0.0166915847" flag="0"/>
      <psa10 value="0.0048403407" flag="0"/>
      <psa30 value="0.0003024461" flag="0"/>
    </comp>
    <comp name="--.HHZ">
      <acc value="0.0028959414" flag="0"/>
      <vel value="0.0023577517" flag="0"/>
      <psa03 value="0.0071293532" flag="0"/>
      <psa10 value="0.0042263059" flag="0"/>
      <psa30 value="0.0005206742" flag="0"/>
    </comp>
  </station>
  <station code="ARCI" name="ARCI" netid="IV" insttype="" lat="42.8519" lon="11.4754">
    <comp name="--.HHN">
      <acc value="0.0023807156" flag="0"/>
      <vel value="0.0009358465" flag="0"/>
      <psa03 value="0.0044378102" flag="0"/>
      <psa10 value="0.0013470379" flag="0"/>
      <psa30 value="0.0005092572" flag="0"/>
    </comp>
    <comp name="--.HHE">
      <acc value="0.0023870567" flag="0"/>
      <vel value="0.0011959515" flag="0"/>
      <psa03 value="0.0029791268" flag="0"/>
      <psa10 value="0.0021741095" flag="0"/>
      <psa30 value="0.0004185991" flag="0"/>
    </comp>
    <comp name="--.HHZ">
      <acc value="0.0011365640" flag="0"/>
      <vel value="0.0004698808" flag="0"/>
      <psa03 value="0.0014880211" flag="0"/>
      <psa10 value="0.0006948200" flag="0"/>
      <psa30 value="0.0003169443" flag="0"/>
    </comp>
  </station>
  <station code="ASQU" name="ASQU" netid="IV" insttype="" lat="43.7967" lon="11.7893">
    <comp name="--.HHZ">
      <acc value="0.0178828374" flag="0"/>
      <vel value="0.0059442290" flag="0"/>
      <psa03 value="0.0192418783" flag="0"/>
      <psa10 value="0.0088121692" flag="0"/>
      <psa30 value="0.0008067947" flag="0"/>
    </comp>
    <comp name="--.HHN">
      <acc value="0.0259731494" flag="0"/>
      <vel value="0.0080058372" flag="0"/>
      <psa03 value="0.0404462135" flag="0"/>
      <psa10 value="0.0132515058" flag="0"/>
      <psa30 value="0.0009489465" flag="0"/>
    </comp>
    <comp name="--.HHE">
      <acc value="0.0228274624" flag="0"/>
      <vel value="0.0086375935" flag="0"/>
      <psa03 value="0.0284286873" flag="0"/>
      <psa10 value="0.0109714909" flag="0"/>
      <psa30 value="0.0006904002" flag="0"/>
    </comp>
  </station>
  <station code="ATMI" name="ATMI" netid="IV" insttype="" lat="43.3342" lon="12.268">
    <comp name="--.HHE">
      <acc value="0.0074168988" flag="0"/>
      <vel value="0.0047107180" flag="0"/>
      <psa03 value="0.0264492606" flag="0"/>
      <psa10 value="0.0066035793" flag="0"/>
      <psa30 value="0.0006708396" flag="0"/>
    </comp>
    <comp name="--.HHZ">
      <acc value="0.0045532179" flag="0"/>
      <vel value="0.0028604742" flag="0"/>
      <psa03 value="0.0137943088" flag="0"/>
      <psa10 value="0.0041238047" flag="0"/>
      <psa30 value="0.0007248581" flag="0"/>
    </comp>
    <comp name="--.HHN">
      <acc value="0.0089181488" flag="0"/>
      <vel value="0.0080228340" flag="0"/>
      <psa03 value="0.0290509644" flag="0"/>
      <psa10 value="0.0107297994" flag="0"/>
      <psa30 value="0.0011525944" flag="0"/>
    </comp>
  </station>
  <station code="ATPC" name="ATPC" netid="IV" insttype="" lat="43.4807" lon="12.457">
    <comp name="--.HHN">
      <acc value="0.0060914233" flag="0"/>
      <vel value="0.0037446595" flag="0"/>
      <psa03 value="0.0095157436" flag="0"/>
      <psa10 value="0.0042814797" flag="0"/>
      <psa30 value="0.0003721479" flag="0"/>
    </comp>
    <comp name="--.HHE">
      <acc value="0.0095334265" flag="0"/>
      <vel value="0.0033910595" flag="0"/>
      <psa03 value="0.0182415731" flag="0"/>
      <psa10 value="0.0040264895" flag="0"/>
      <psa30 value="0.0004611730" flag="0"/>
    </comp>
    <comp name="--.HHZ">
      <acc value="0.0032578366" flag="0"/>
      <vel value="0.0021114257" flag="0"/>
      <psa03 value="0.0144489498" flag="0"/>
      <psa10 value="0.0035805924" flag="0"/>
      <psa30 value="0.0004855590" flag="0"/>
    </comp>
  </station>
  <station code="ATVO" name="ATVO" netid="IV" insttype="" lat="43.3821" lon="12.4066">
    <comp name="--.HHE">
      <acc value="0.0038088818" flag="0"/>
      <vel value="0.0026719304" flag="0"/>
      <psa03 value="0.0102437182" flag="0"/>
      <psa10 value="0.0045975537" flag="0"/>
      <psa30 value="0.0004372639" flag="0"/>
    </comp>
    <comp name="--.HHN">
      <acc value="0.0028956850" flag="0"/>
      <vel value="0.0027229216" flag="0"/>
      <psa03 value="0.0083048961" flag="0"/>
      <psa10 value="0.0033039333" flag="0"/>
      <psa30 value="0.0005457079" flag="0"/>
    </comp>
    <comp name="--.HHZ">
      <acc value="0.0020560677" flag="0"/>
      <vel value="0.0017590618" flag="0"/>
      <psa03 value="0.0063008668" flag="0"/>
      <psa10 value="0.0022133561" flag="0"/>
      <psa30 value="0.0005465871" flag="0"/>
    </comp>
  </station>
  <station code="BDI" name="BDI" netid="IV" insttype="" lat="44.0624" lon="10.597">
    <comp name="--.HHN">
      <acc value="0.0481535490" flag="0"/>
      <vel value="0.0215393350" flag="0"/>
      <psa03 value="0.1046712004" flag="0"/>
      <psa10 value="0.0123929796" flag="0"/>
      <psa30 value="0.0008927597" flag="0"/>
    </comp>
    <comp name="--.HHE">
      <acc value="0.0538094527" flag="0"/>
      <vel value="0.0224893047" flag="0"/>
      <psa03 value="0.0962220366" flag="0"/>
      <psa10 value="0.0087348413" flag="0"/>
      <psa30 value="0.0007169949" flag="0"/>
    </comp>
    <comp name="--.HHZ">
      <acc value="0.0405531407" flag="0"/>
      <vel value="0.0120685884" flag="0"/>
      <psa03 value="0.0810863029" flag="0"/>
      <psa10 value="0.0049517349" flag="0"/>
      <psa30 value="0.0004148323" flag="0"/>
    </comp>
  </station>
  <station code="BOSL" name="BOSL" netid="IV" insttype="" lat="43.931" lon="11.3743">
    <comp name="--.HHE">
      <acc value="0.1763023324" flag="0"/>
      <vel value="0.0481157270" flag="0"/>
      <psa03 value="0.1664486189" flag="0"/>
      <psa10 value="0.0057185170" flag="0"/>
      <psa30 value="0.0005642182" flag="0"/>
    </comp>
    <comp name="--.HHN">
      <acc value="0.1078350515" flag="0"/>
      <vel value="0.0260436727" flag="0"/>
      <psa03 value="0.1392289117" flag="0"/>
      <psa10 value="0.0060427377" flag="0"/>
      <psa30 value="0.0004273063" flag="0"/>
    </comp>
    <comp name="--.HHZ">
      <acc value="0.0609118311" flag="0"/>
      <vel value="0.0139051636" flag="0"/>
      <psa03 value="0.0516614515" flag="0"/>
      <psa10 value="0.0052745536" flag="0"/>
      <psa30 value="0.0005255789" flag="0"/>
    </comp>
  </station>
  <station code="BRIS" name="BRIS" netid="IV" insttype="" lat="44.2245" lon="11.7666">
    <comp name="--.HHE">
      <acc value="0.0058100453" flag="0"/>
      <vel value="0.0037447594" flag="0"/>
      <psa03 value="0.0173413730" flag="0"/>
      <psa10 value="0.0045196569" flag="0"/>
      <psa30 value="0.0003709140" flag="0"/>
    </comp>
    <comp name="--.HHN">
      <acc value="0.0054635733" flag="0"/>
      <vel value="0.0037357101" flag="0"/>
      <psa03 value="0.0134452532" flag="0"/>
      <psa10 value="0.0036033810" flag="0"/>
      <psa30 value="0.0004322750" flag="0"/>
    </comp>
    <comp name="--.HHZ">
      <acc value="0.0053340788" flag="0"/>
      <vel value="0.0043049154" flag="0"/>
      <psa03 value="0.0121038466" flag="0"/>
      <psa10 value="0.0047134234" flag="0"/>
      <psa30 value="0.0005081882" flag="0"/>
    </comp>
  </station>
  <station code="CAFI" name="CAFI" netid="IV" insttype="" lat="43.3292" lon="11.9663">
    <comp name="--.HHE">
      <acc value="0.0063221188" flag="0"/>
      <vel value="0.0038849818" flag="0"/>
      <psa03 value="0.0200438357" flag="0"/>
      <psa10 value="0.0020987343" flag="0"/>
      <psa30 value="0.0004927659" flag="0"/>
    </comp>
    <comp name="--.HHZ">
      <acc value="0.0053978391" flag="0"/>
      <vel value="0.0022030921" flag="0"/>
      <psa03 value="0.0125026766" flag="0"/>
      <psa10 value="0.0036311752" flag="0"/>
      <psa30 value="0.0004482246" flag="0"/>
    </comp>
    <comp name="--.HHN">
      <acc value="0.0047871346" flag="0"/>
      <vel value="0.0030323906" flag="0"/>
      <psa03 value="0.0148669141" flag="0"/>
      <psa10 value="0.0025783879" flag="0"/>
      <psa30 value="0.0002711782" flag="0"/>
    </comp>
  </station>
  <station code="CRE" name="CRE" netid="IV" insttype="" lat="43.6189" lon="11.9517">
    <comp name="--.HHN">
      <acc value="0.0262884028" flag="0"/>
      <vel value="0.0073769750" flag="0"/>
      <psa03 value="0.0516824256" flag="0"/>
      <psa10 value="0.0065495009" flag="0"/>
      <psa30 value="0.0008190545" flag="0"/>
    </comp>
    <comp name="--.HHE">
      <acc value="0.0121092258" flag="0"/>
      <vel value="0.0066104892" flag="0"/>
      <psa03 value="0.0277056344" flag="0"/>
      <psa10 value="0.0053753276" flag="0"/>
      <psa30 value="0.0009630495" flag="0"/>
    </comp>
    <comp name="--.HHZ">
      <acc value="0.0101721663" flag="0"/>
      <vel value="0.0027893519" flag="0"/>
      <psa03 value="0.0221016402" flag="0"/>
      <psa10 value="0.0030941087" flag="0"/>
      <psa30 value="0.0005722290" flag="0"/>
    </comp>
  </station>
  <station code="CSNT" name="CSNT" netid="IV" insttype="" lat="43.4731" lon="11.2902">
    <comp name="--.HHE">
      <acc value="0.0833364943" flag="0"/>
      <vel value="0.0248930944" flag="0"/>
      <psa03 value="0.0986604184" flag="0"/>
      <psa10 value="0.0157879530" flag="0"/>
      <psa30 value="0.0022975953" flag="0"/>
    </comp>
    <comp name="--.HHN">
      <acc value="0.0736167621" flag="0"/>
      <vel value="0.0155773456" flag="0"/>
      <psa03 value="0.0778318472" flag="0"/>
      <psa10 value="0.0121660512" flag="0"/>
      <psa30 value="0.0007489872" flag="0"/>
    </comp>
    <comp name="--.HHZ">
      <acc value="0.0628729875" flag="0"/>
      <vel value="0.0129066092" flag="0"/>
      <psa03 value="0.0611178212" flag="0"/>
      <psa10 value="0.0169343703" flag="0"/>
      <psa30 value="0.0017817221" flag="0"/>
    </comp>
  </station>
  <station code="FIR" name="FIR" netid="IV" insttype="" lat="43.7744" lon="11.2551">
    <comp name="--.HHE">
      <acc value="1.6975213419" flag="0"/>
      <vel value="0.4508807117" flag="0"/>
      <psa03 value="1.9287397873" flag="0"/>
      <psa10 value="0.1236680288" flag="0"/>
      <psa30 value="0.0087556284" flag="0"/>
    </comp>
    <comp name="--.HHZ">
      <acc value="0.8385536356" flag="0"/>
      <vel value="0.1776103125" flag="0"/>
      <psa03 value="0.6214632785" flag="0"/>
      <psa10 value="0.0624057491" flag="0"/>
      <psa30 value="0.0044653762" flag="0"/>
    </comp>
    <comp name="--.HHN">
      <acc value="1.2443633678" flag="0"/>
      <vel value="0.2846478208" flag="0"/>
      <psa03 value="0.9206489218" flag="0"/>
      <psa10 value="0.0694794575" flag="0"/>
      <psa30 value="0.0087730419" flag="0"/>
    </comp>
  </station>
  <station code="FNVD" name="FNVD" netid="IV" insttype="" lat="44.1678" lon="11.1229">
    <comp name="--.HHE">
      <acc value="0.0469963280" flag="0"/>
      <vel value="0.0206224124" flag="0"/>
      <psa03 value="0.0950342486" flag="0"/>
      <psa10 value="0.0118231109" flag="0"/>
      <psa30 value="0.0010225568" flag="0"/>
    </comp>
    <comp name="--.HHN">
      <acc value="0.0930928448" flag="0"/>
      <vel value="0.0230222756" flag="0"/>
      <psa03 value="0.1011861127" flag="0"/>
      <psa10 value="0.0328775258" flag="0"/>
      <psa30 value="0.0012361341" flag="0"/>
    </comp>
    <comp name="--.HHZ">
      <acc value="0.0310674729" flag="0"/>
      <vel value="0.0120682766" flag="0"/>
      <psa03 value="0.0565254461" flag="0"/>
      <psa10 value="0.0174695592" flag="0"/>
      <psa30 value="0.0006201137" flag="0"/>
    </comp>
  </station>
  <station code="IMOL" name="IMOL" netid="IV" insttype="" lat="44.3595" lon="11.7425">
    <comp name="--.HNE">
      <acc value="0.0840842782" flag="0"/>
      <vel value="0.0049706135" flag="0"/>
      <psa03 value="0.0212100123" flag="0"/>
      <psa10 value="0.0055082743" flag="0"/>
      <psa30 value="0.0005019671" flag="0"/>
    </comp>
    <comp name="--.HNN">
      <acc value="0.0624847641" flag="0"/>
      <vel value="0.0049087901" flag="0"/>
      <psa03 value="0.0159727010" flag="0"/>
      <psa10 value="0.0032446514" flag="0"/>
      <psa30 value="0.0005275492" flag="0"/>
    </comp>
    <comp name="--.HNZ">
      <acc value="0.1680885679" flag="0"/>
      <vel value="0.0076610468" flag="0"/>
      <psa03 value="0.0078704427" flag="0"/>
      <psa10 value="0.0018704225" flag="0"/>
      <psa30 value="0.0001607042" flag="0"/>
    </comp>
  </station>
  <station code="LMD" name="LMD" netid="IV" insttype="" lat="44.0775" lon="11.7073">
    <comp name="--.HHE">
      <acc value="0.0526462531" flag="0"/>
      <vel value="0.0165687108" flag="0"/>
      <psa03 value="0.0708604990" flag="0"/>
      <psa10 value="0.0111096236" flag="0"/>
      <psa30 value="0.0007929635" flag="0"/>
    </comp>
    <comp name="--.HHN">
      <acc value="0.0719859837" flag="0"/>
      <vel value="0.0165119863" flag="0"/>
      <psa03 value="0.0495622402" flag="0"/>
      <psa10 value="0.0138586224" flag="0"/>
      <psa30 value="0.0005929969" flag="0"/>
    </comp>
    <comp name="--.HHZ">
      <acc value="0.0237280338" flag="0"/>
      <vel value="0.0062865578" flag="0"/>
      <psa03 value="0.0359387611" flag="0"/>
      <psa10 value="0.0039585437" flag="0"/>
      <psa30 value="0.0011510954" flag="0"/>
    </comp>
  </station>
  <station code="MTRZ" name="MTRZ" netid="IV" insttype="" lat="44.3128" lon="11.4248">
    <comp name="--.HHE">
      <acc value="0.0137996483" flag="0"/>
      <vel value="0.0075634259" flag="0"/>
      <psa03 value="0.0467370097" flag="0"/>
      <psa10 value="0.0100226227" flag="0"/>
      <psa30 value="0.0008573776" flag="0"/>
    </comp>
    <comp name="--.HHN">
      <acc value="0.0161840089" flag="0"/>
      <vel value="0.0104881176" flag="0"/>
      <psa03 value="0.0440821909" flag="0"/>
      <psa10 value="0.0140664864" flag="0"/>
      <psa30 value="0.0005535755" flag="0"/>
    </comp>
    <comp name="--.HHZ">
      <acc value="0.0052911629" flag="0"/>
      <vel value="0.0045044785" flag="0"/>
      <psa03 value="0.0173997811" flag="0"/>
      <psa10 value="0.0074227830" flag="0"/>
      <psa30 value="0.0005173747" flag="0"/>
    </comp>
  </station>
  <station code="OSSC" name="OSSC" netid="IV" insttype="" lat="43.5236" lon="11.2458">
    <comp name="--.HHE">
      <acc value="0.2408041171" flag="0"/>
      <vel value="0.0610275909" flag="0"/>
      <psa03 value="0.1193325647" flag="0"/>
      <psa10 value="0.0245385720" flag="0"/>
      <psa30 value="0.0028386199" flag="0"/>
    </comp>
    <comp name="--.HHN">
      <acc value="0.1281689131" flag="0"/>
      <vel value="0.0375333456" flag="0"/>
      <psa03 value="0.0921758815" flag="0"/>
      <psa10 value="0.0273544669" flag="0"/>
      <psa30 value="0.0021171687" flag="0"/>
    </comp>
    <comp name="--.HHZ">
      <acc value="0.1644883140" flag="0"/>
      <vel value="0.0280328451" flag="0"/>
      <psa03 value="0.0968389578" flag="0"/>
      <psa10 value="0.0233316070" flag="0"/>
      <psa30 value="0.0018050275" flag="0"/>
    </comp>
  </station>
  <station code="PARC" name="PARC" netid="IV" insttype="" lat="43.6486" lon="12.2386">
    <comp name="--.HHE">
      <acc value="0.0045851591" flag="0"/>
      <vel value="0.0031991864" flag="0"/>
      <psa03 value="0.0102540035" flag="0"/>
      <psa10 value="0.0080769095" flag="0"/>
      <psa30 value="0.0002358100" flag="0"/>
    </comp>
    <comp name="--.HHN">
      <acc value="0.0083313921" flag="0"/>
      <vel value="0.0036561511" flag="0"/>
      <psa03 value="0.0121767933" flag="0"/>
      <psa10 value="0.0030027953" flag="0"/>
      <psa30 value="0.0003647580" flag="0"/>
    </comp>
