<?xml version="1.0" encoding="UTF-8" standalone="yes"?>
<!DOCTYPE earthquake SYSTEM "stationlist.dtd">
<stationlist created="" xmlns="ch.ethz.sed.shakemap.usgs.xml">
  <station code="THERA" name="THERA" netid="GE" insttype="STS-2/N" lat="36.367" lon="25.4753">
    <comp name="--.HHE">
      <acc value="0.1300532509" flag="0"/>
      <vel value="0.0350049857" flag="0"/>
      <psa03 value="0.1581803690" flag="0"/>
      <psa10 value="0.0264069068" flag="0"/>
      <psa30 value="0.0025355812" flag="0"/>
    </comp>
    <comp name="--.HHN">
      <acc value="0.0837763249" flag="0"/>
      <vel value="0.0208850727" flag="0"/>
      <psa03 value="0.1298727351" flag="0"/>
      <psa10 value="0.0148210525" flag="0"/>
      <psa30 value="0.0011378265" flag="0"/>
    </comp>
    <comp name="--.HHZ">
      <acc value="0.1199092814" flag="0"/>
      <vel value="0.0291943675" flag="0"/>
      <psa03 value="0.0806465902" flag="0"/>
      <psa10 value="0.0253770634" flag="0"/>
      <psa30 value="0.0022746033" flag="0"/>
    </comp>
  </station>
</stationlist>
