<?xml version="1.0" encoding="UTF-8" standalone="yes"?>
<!DOCTYPE earthquake SYSTEM "stationlist.dtd">
<stationlist created="" xmlns="ch.ethz.sed.shakemap.usgs.xml">
  <station code="THERA" name="THERA" netid="GE" insttype="STS-2/N" lat="36.367" lon="25.4753">
    <comp name="--.HHE">
      <acc value="0.1300532509" flag="0"/>
      <vel value="0.0350049857" flag="0"/>
      <psa03 value="0.1581803690" flag="0"/>
      <psa10 value="0.0264069068" flag="0"/>
      <psa30 value="0.0025355812" flag="0"/>
    </comp>
    <comp name="--.HHN">
      <acc value="0.0837763249" flag="0"/>
      <vel value="0.0208850727" flag="0"/>
      <psa03 value="0.1298727351" flag="0"/>
      <psa10 value="0.0148210525" flag="0"/>
      <psa30 value="0.0011378265" flag="0"/>
    </comp>
    <comp name="--.HHZ">
      <acc value="0.1199092814" flag="0"/>
      <vel value="0.0291943675" flag="0"/>
      <psa03 value="0.0806465902" flag="0"/>
      <psa10 value="0.0253770634" flag="0"/>
      <psa30 value="0.0022746033" flag="0"/>
    </comp>
  </station>
  <station code="SERI" name="SERI" netid="HA" insttype="30" lat="37.1609" lon="24.4853">
    <comp name="--.HHE">
      <acc value="0.0314288880" flag="0"/>
      <vel value="0.0067231997" flag="0"/>
      <psa03 value="0.0264806762" flag="0"/>
      <psa10 value="0.0047127110" flag="0"/>
      <psa30 value="0.0005769103" flag="0"/>
    </comp>
    <comp name="--.HHZ">
      <acc value="0.0299842741" flag="0"/>
      <vel value="0.0092305659" flag="0"/>
      <psa03 value="0.0301749953" flag="0"/>
      <psa10 value="0.0058694028" flag="0"/>
      <psa30 value="0.0005850342" flag="0"/>
    </comp>
    <comp name="--.HHN">
      <acc value="0.0390751387" flag="0"/>
      <vel value="0.0100014474" flag="0"/>
      <psa03 value="0.0353344923" flag="0"/>
      <psa10 value="0.0099729892" flag="0"/>
      <psa30 value="0.0007109446" flag="0"/>
    </comp>
  </station>
  <station code="SNT1" name="SNT1" netid="HA" insttype="30" lat="36.4159" lon="25.4282">
    <comp name="--.HHN">
      <acc value="0.1076914176" flag="0"/>
      <vel value="0.0713615385" flag="0"/>
      <psa03 value="0.1999714236" flag="0"/>
      <psa10 value="0.0867030568" flag="0"/>
      <psa30 value="0.0048934662" flag="0"/>
    </comp>
    <comp name="--.HHE">
      <acc value="0.1340624347" flag="0"/>
      <vel value="0.0474285372" flag="0"/>
      <psa03 value="0.1239438853" flag="0"/>
      <psa10 value="0.0743392800" flag="0"/>
      <psa30 value="0.0069834970" flag="0"/>
    </comp>
    <comp name="--.HHZ">
      <acc value="0.1045309831" flag="0"/>
      <vel value="0.0233925480" flag="0"/>
      <psa03 value="0.1383127801" flag="0"/>
      <psa10 value="0.0354601440" flag="0"/>
      <psa30 value="0.0021786159" flag="0"/>
    </comp>
  </station>
  <station code="NAX1" name="NAX1" netid="HI" insttype="CMG-5TD,ACCELEROMETER,GURALP" lat="37.1014" lon="25.3741">
    <comp name="--.HNE">
      <acc value="0.1588074808" flag="0"/>
      <vel value="0.0464332237" flag="0"/>
      <psa03 value="0.2258774843" flag="0"/>
      <psa10 value="0.0182544477" flag="0"/>
      <psa30 value="0.0018067721" flag="0"/>
    </comp>
    <comp name="--.HNZ">
      <acc value="0.0757527380" flag="0"/>
      <vel value="0.0229769929" flag="0"/>
      <psa03 value="0.0691099123" flag="0"/>
      <psa10 value="0.0172700680" flag="0"/>
      <psa30 value="0.0012836604" flag="0"/>
    </comp>
    <comp name="--.HNN">
      <acc value="0.1289928423" flag="0"/>
      <vel value="0.0243747518" flag="0"/>
      <psa03 value="0.0809016826" flag="0"/>
      <psa10 value="0.0115052963" flag="0"/>
      <psa30 value="0.0011775001" flag="0"/>
    </comp>
  </station>
  <station code="AMGA" name="AMGA" netid="HL" insttype="SMART24" lat="36.8316" lon="25.8938">
    <comp name="--.HHN">
      <acc value="1.5648540237" flag="0"/>
      <vel value="0.3521995038" flag="0"/>
      <psa03 value="1.1444433284" flag="0"/>
      <psa10 value="0.0508758840" flag="0"/>
      <psa30 value="0.0043834672" flag="0"/>
    </comp>
    <comp name="--.HHE">
      <acc value="1.0296854958" flag="0"/>
      <vel value="0.2441162272" flag="0"/>
      <psa03 value="1.1158161710" flag="0"/>
      <psa10 value="0.0389354602" flag="0"/>
      <psa30 value="0.0038301838" flag="0"/>
    </comp>
    <comp name="--.HHZ">
      <acc value="1.2775946943" flag="0"/>
      <vel value="0.2498070770" flag="0"/>
      <psa03 value="0.7436839639" flag="0"/>
      <psa10 value="0.0531911179" flag="0"/>
      <psa30 value="0.0048540215" flag="0"/>
    </comp>
  </station>
  <station code="THERA" name="THERA" netid="HL" insttype="120" lat="36.367" lon="25.4753">
    <comp name="--.HHN">
      <acc value="0.0846598532" flag="0"/>
      <vel value="0.0203350343" flag="0"/>
      <psa03 value="0.1259174225" flag="0"/>
      <psa10 value="0.0147111913" flag="0"/>
      <psa30 value="0.0011376121" flag="0"/>
    </comp>
    <comp name="--.HHZ">
      <acc value="0.1191120363" flag="0"/>
      <vel value="0.0287463552" flag="0"/>
      <psa03 value="0.0785787928" flag="0"/>
      <psa10 value="0.0250650070" flag="0"/>
      <psa30 value="0.0022742349" flag="0"/>
    </comp>
    <comp name="--.HHE">
      <acc value="0.1288084489" flag="0"/>
      <vel value="0.0348419595" flag="0"/>
      <psa03 value="0.1536554106" flag="0"/>
      <psa10 value="0.0262479560" flag="0"/>
      <psa30 value="0.0025350170" flag="0"/>
    </comp>
  </station>
  <station code="THRA" name="THRA" netid="HL" insttype="CMG-5" lat="36.415" lon="25.4324">
    <comp name="00.HNN">
      <acc value="0.3127606397" flag="0"/>
      <vel value="0.1584153906" flag="0"/>
      <psa03 value="0.4680373551" flag="0"/>
      <psa10 value="0.2699631479" flag="0"/>
      <psa30 value="0.0087207844" flag="0"/>
    </comp>
    <comp name="00.HNE">
      <acc value="0.3524131370" flag="0"/>
      <vel value="0.1426041475" flag="0"/>
      <psa03 value="0.6481261504" flag="0"/>
      <psa10 value="0.1416359862" flag="0"/>
      <psa30 value="0.0122403094" flag="0"/>
    </comp>
    <comp name="00.HNZ">
      <acc value="0.2134975744" flag="0"/>
      <vel value="0.1065005659" flag="0"/>
      <psa03 value="0.4248537630" flag="0"/>
      <psa10 value="0.0590288498" flag="0"/>
      <psa30 value="0.0045692685" flag="0"/>
    </comp>
  </station>
  <station code="TNSA" name="TNSA" netid="HL" insttype="CMG-5" lat="37.5394" lon="25.1631">
    <comp name="00.HNE">
      <acc value="0.0680053991" flag="0"/>
      <vel value="0.0283799170" flag="0"/>
      <psa03 value="0.1644096089" flag="0"/>
      <psa10 value="0.0061010781" flag="0"/>
      <psa30 value="0.0009017871" flag="0"/>
    </comp>
    <comp name="00.HNN">
      <acc value="0.0900926075" flag="0"/>
      <vel value="0.0359289316" flag="0"/>
      <psa03 value="0.1338642065" flag="0"/>
      <psa10 value="0.0149238976" flag="0"/>
      <psa30 value="0.0017554748" flag="0"/>
    </comp>
    <comp name="00.HNZ">
      <acc value="0.0428412233" flag="0"/>
      <vel value="0.0196303214" flag="0"/>
      <psa03 value="0.1132536039" flag="0"/>
      <psa10 value="0.0112443312" flag="0"/>
      <psa30 value="0.0010077006" flag="0"/>
    </comp>
  </station>
  <station code="CMBO" name="CMBO" netid="HT" insttype="120P," lat="36.4709" lon="25.4056">
    <comp name="--.HHE">
      <acc value="0.4427867423" flag="0"/>
      <vel value="0.1929722290" flag="0"/>
      <psa03 value="0.7418330831" flag="0"/>
      <psa10 value="0.1588525248" flag="0"/>
      <psa30 value="0.0102538406" flag="0"/>
    </comp>
    <comp name="--.HHN">
      <acc value="0.6718452492" flag="0"/>
      <vel value="0.2987456746" flag="0"/>
      <psa03 value="0.9029274118" flag="0"/>
      <psa10 value="0.2755908358" flag="0"/>
      <psa30 value="0.0153495555" flag="0"/>
    </comp>
    <comp name="--.HHZ">
      <acc value="0.3859419211" flag="0"/>
      <vel value="0.1187878968" flag="0"/>
      <psa03 value="0.8088006977" flag="0"/>
      <psa10 value="0.0914662367" flag="0"/>
      <psa30 value="0.0091481695" flag="0"/>
    </comp>
  </station>
</stationlist>
