<?xml version="1.0" encoding="UTF-8" standalone="yes"?>
<!DOCTYPE earthquake SYSTEM "stationlist.dtd">
<stationlist created="" xmlns="ch.ethz.sed.shakemap.usgs.xml">
  <station code="THERA" name="THERA" netid="GE" insttype="STS-2/N" lat="36.367" lon="25.4753">
    <comp name="--.HHE">
      <acc value="0.1300532509" flag="0"/>
      <vel value="0.0350049860" flag="0"/>
      <psa03 value="0.1581803690" flag="0"/>
      <psa10 value="0.0264069069" flag="0"/>
      <psa30 value="0.0025355863" flag="0"/>
    </comp>
    <comp name="--.HHN">
      <acc value="0.0837763249" flag="0"/>
      <vel value="0.0208850721" flag="0"/>
      <psa03 value="0.1298727351" flag="0"/>
      <psa10 value="0.0148210531" flag="0"/>
      <psa30 value="0.0011378362" flag="0"/>
    </comp>
    <comp name="--.HHZ">
      <acc value="0.1199092814" flag="0"/>
      <vel value="0.0291943732" flag="0"/>
      <psa03 value="0.0806465902" flag="0"/>
      <psa10 value="0.0253770650" flag="0"/>
      <psa30 value="0.0022743663" flag="0"/>
    </comp>
  </station>
  <station code="SNT1" name="SNT1" netid="HA" insttype="30" lat="36.4159" lon="25.4282">
    <comp name="--.HHE">
      <acc value="0.1340624348" flag="0"/>
      <vel value="0.0474285484" flag="0"/>
      <psa03 value="0.1239438853" flag="0"/>
      <psa10 value="0.0743392494" flag="0"/>
      <psa30 value="0.0069841918" flag="0"/>
    </comp>
    <comp name="--.HHN">
      <acc value="0.1076914176" flag="0"/>
      <vel value="0.0713615090" flag="0"/>
      <psa03 value="0.1999714237" flag="0"/>
      <psa10 value="0.0867029625" flag="0"/>
      <psa30 value="0.0048935257" flag="0"/>
    </comp>
  </station>
  <station code="NAX1" name="NAX1" netid="HI" insttype="CMG-5TD,ACCELEROMETER,GURALP" lat="37.1014" lon="25.3741">
    <comp name="--.HNE">
      <acc value="0.1588074821" flag="0"/>
      <vel value="0.0464332284" flag="0"/>
      <psa03 value="0.2258774843" flag="0"/>
      <psa10 value="0.0182544659" flag="0"/>
      <psa30 value="0.0018072966" flag="0"/>
    </comp>
    <comp name="--.HNZ">
      <acc value="0.0757527377" flag="0"/>
      <vel value="0.0229770004" flag="0"/>
      <psa03 value="0.0691099123" flag="0"/>
      <psa10 value="0.0172700596" flag="0"/>
      <psa30 value="0.0012835193" flag="0"/>
    </comp>
  </station>
  <station code="SFR2" name="SFR2" netid="HI" insttype="unknown" lat="36.3998" lon="25.4382">
    <comp name="--.HNE">
      <acc value="0.2130306718" flag="0"/>
      <vel value="0.0866722005" flag="0"/>
      <psa03 value="0.4245492696" flag="0"/>
      <psa10 value="0.1405764573" flag="0"/>
      <psa30 value="0.0061056837" flag="0"/>
    </comp>
    <comp name="--.HNZ">
      <acc value="0.2852879802" flag="0"/>
      <vel value="0.0861011479" flag="0"/>
      <psa03 value="0.3478284878" flag="0"/>
      <psa10 value="0.0694845085" flag="0"/>
      <psa30 value="0.0040943070" flag="0"/>
    </comp>
    <comp name="--.HNN">
      <acc value="0.2923373452" flag="0"/>
      <vel value="0.0965545072" flag="0"/>
      <psa03 value="0.3740424036" flag="0"/>
      <psa10 value="0.1556790323" flag="0"/>
      <psa30 value="0.0060404771" flag="0"/>
    </comp>
  </station>
  <station code="AMGA" name="AMGA" netid="HL" insttype="SMART24" lat="36.8316" lon="25.8938">
    <comp name="--.HHN">
      <acc value="1.5648540238" flag="0"/>
      <vel value="0.3521996022" flag="0"/>
      <psa03 value="1.1444433286" flag="0"/>
      <psa10 value="0.0508759482" flag="0"/>
      <psa30 value="0.0043847145" flag="0"/>
    </comp>
    <comp name="--.HHE">
      <acc value="1.0296854953" flag="0"/>
      <vel value="0.2441160682" flag="0"/>
      <psa03 value="1.1158161706" flag="0"/>
      <psa10 value="0.0389355313" flag="0"/>
      <psa30 value="0.0038311611" flag="0"/>
    </comp>
    <comp name="--.HHZ">
      <acc value="1.2775946945" flag="0"/>
      <vel value="0.2498071171" flag="0"/>
      <psa03 value="0.7436839638" flag="0"/>
      <psa10 value="0.0531910794" flag="0"/>
      <psa30 value="0.0048565153" flag="0"/>
    </comp>
  </station>
  <station code="MILA" name="MILA" netid="HL" insttype="CMG-5" lat="36.7429" lon="24.4282">
    <comp name="00.HNE">
      <acc value="0.1203667348" flag="0"/>
      <vel value="0.0483182744" flag="0"/>
      <psa03 value="0.2018457066" flag="0"/>
      <psa10 value="0.0271961994" flag="0"/>
      <psa30 value="0.0036561574" flag="0"/>
    </comp>
    <comp name="00.HNN">
      <acc value="0.1129550293" flag="0"/>
      <vel value="0.0485158657" flag="0"/>
      <psa03 value="0.1905340272" flag="0"/>
      <psa10 value="0.0433872515" flag="0"/>
      <psa30 value="0.0025849004" flag="0"/>
    </comp>
    <comp name="00.HNZ">
      <acc value="0.0880114256" flag="0"/>
      <vel value="0.0368032949" flag="0"/>
      <psa03 value="0.1327074668" flag="0"/>
      <psa10 value="0.0319903884" flag="0"/>
      <psa30 value="0.0022481813" flag="0"/>
    </comp>
  </station>
  <station code="SANT" name="SANT" netid="HL" insttype="30" lat="36.3705" lon="25.4593">
    <comp name="--.HHN">
      <acc value="0.2780945913" flag="0"/>
      <vel value="0.0416561321" flag="0"/>
      <psa03 value="0.1021690042" flag="0"/>
      <psa10 value="0.0327605111" flag="0"/>
      <psa30 value="0.0025911752" flag="0"/>
    </comp>
    <comp name="--.HHZ">
      <acc value="0.3604785279" flag="0"/>
      <vel value="0.0464075499" flag="0"/>
      <psa03 value="0.1428247006" flag="0"/>
      <psa10 value="0.0256312037" flag="0"/>
      <psa30 value="0.0024790972" flag="0"/>
    </comp>
  </station>
  <station code="SAP3" name="SAP3" netid="HL" insttype="0" lat="36.4356" lon="25.3454">
    <comp name="--.HNE">
      <acc value="0.8531635954" flag="0"/>
      <vel value="0.2456078914" flag="0"/>
      <psa03 value="1.0341804625" flag="0"/>
      <psa10 value="0.2295555558" flag="0"/>
      <psa30 value="0.0228435180" flag="0"/>
    </comp>
    <comp name="--.HNN">
      <acc value="0.5715219050" flag="0"/>
      <vel value="0.2740374242" flag="0"/>
      <psa03 value="0.7634428762" flag="0"/>
      <psa10 value="0.1879410085" flag="0"/>
      <psa30 value="0.0266003139" flag="0"/>
    </comp>
    <comp name="--.HNZ">
      <acc value="0.7039184535" flag="0"/>
      <vel value="0.2253525789" flag="0"/>
      <psa03 value="0.6970369099" flag="0"/>
      <psa10 value="0.0809665904" flag="0"/>
      <psa30 value="0.0100439442" flag="0"/>
    </comp>
  </station>
  <station code="THERA" name="THERA" netid="HL" insttype="120" lat="36.367" lon="25.4753">
    <comp name="--.HHN">
      <acc value="0.1693197064" flag="0"/>
      <vel value="0.0406700698" flag="0"/>
      <psa03 value="0.2518348451" flag="0"/>
      <psa10 value="0.0294223412" flag="0"/>
      <psa30 value="0.0022753100" flag="0"/>
    </comp>
    <comp name="--.HHZ">
      <acc value="0.1191120363" flag="0"/>
      <vel value="0.0287463622" flag="0"/>
      <psa03 value="0.0785787928" flag="0"/>
      <psa10 value="0.0250649638" flag="0"/>
      <psa30 value="0.0022738123" flag="0"/>
    </comp>
  </station>
  <station code="THRA" name="THRA" netid="HL" insttype="CMG-5" lat="36.415" lon="25.4324">
    <comp name="00.HNN">
      <acc value="0.3127606400" flag="0"/>
      <vel value="0.1584153906" flag="0"/>
      <psa03 value="0.4680373550" flag="0"/>
      <psa10 value="0.2699632321" flag="0"/>
      <psa30 value="0.0087213018" flag="0"/>
    </comp>
    <comp name="00.HNE">
      <acc value="0.3524131369" flag="0"/>
      <vel value="0.1426041887" flag="0"/>
      <psa03 value="0.6481261504" flag="0"/>
      <psa10 value="0.1416359865" flag="0"/>
      <psa30 value="0.0122461794" flag="0"/>
    </comp>
    <comp name="00.HNZ">
      <acc value="0.2134975736" flag="0"/>
      <vel value="0.1065005618" flag="0"/>
      <psa03 value="0.4248537630" flag="0"/>
      <psa10 value="0.0590286983" flag="0"/>
      <psa30 value="0.0045697012" flag="0"/>
    </comp>
  </station>
  <station code="TNSA" name="TNSA" netid="HL" insttype="CMG-5" lat="37.5394" lon="25.1631">
    <comp name="00.HNE">
      <acc value="0.0680054016" flag="0"/>
      <vel value="0.0283799135" flag="0"/>
      <psa03 value="0.1644096089" flag="0"/>
      <psa10 value="0.0061010813" flag="0"/>
      <psa30 value="0.0009021450" flag="0"/>
    </comp>
    <comp name="00.HNN">
      <acc value="0.0900926049" flag="0"/>
      <vel value="0.0359289398" flag="0"/>
      <psa03 value="0.1338642065" flag="0"/>
      <psa10 value="0.0149239021" flag="0"/>
      <psa30 value="0.0017561319" flag="0"/>
    </comp>
    <comp name="00.HNZ">
      <acc value="0.0428412238" flag="0"/>
      <vel value="0.0196303220" flag="0"/>
      <psa03 value="0.1132536039" flag="0"/>
      <psa10 value="0.0112443321" flag="0"/>
      <psa30 value="0.0010081045" flag="0"/>
    </comp>
  </station>
  <station code="CMBO" name="CMBO" netid="HT" insttype="120P," lat="36.4709" lon="25.4056">
    <comp name="--.HHN">
      <acc value="0.2683898534" flag="0"/>
      <vel value="0.1193434179" flag="0"/>
      <psa03 value="0.3607029387" flag="0"/>
      <psa10 value="0.1100934885" flag="0"/>
      <psa30 value="0.0061319824" flag="0"/>
    </comp>
    <comp name="--.HHZ">
      <acc value="0.1541767182" flag="0"/>
      <vel value="0.0474535758" flag="0"/>
      <psa03 value="0.3231010429" flag="0"/>
      <psa10 value="0.0365390813" flag="0"/>
      <psa30 value="0.0036540521" flag="0"/>
    </comp>
  </station>
</stationlist>
