<?xml version="1.0" encoding="UTF-8" standalone="yes"?>
<!DOCTYPE earthquake SYSTEM "stationlist.dtd">
<stationlist created="" xmlns="ch.ethz.sed.shakemap.usgs.xml">
  <station code="KEF3" name="KEF3" netid="HL" source="NOA" insttype="SMART24" lat="38.2031" lon="20.3482">
    <comp name="--.HHE">
      <acc value="0.7155484127" flag="0"/>
      <vel value="0.1528675330" flag="0"/>
      <psa03 value="0.5447722699" flag="0"/>
      <psa10 value="0.0569699093" flag="0"/>
      <psa30 value="0.0059206833" flag="0"/>
    </comp>
    <comp name="--.HHN">
      <acc value="0.5546528050" flag="0"/>
      <vel value="0.1804393663" flag="0"/>
      <psa03 value="0.9804905509" flag="0"/>
      <psa10 value="0.0736354172" flag="0"/>
      <psa30 value="0.0058158881" flag="0"/>
    </comp>
    <comp name="--.HHZ">
      <acc value="0.8440447672" flag="0"/>
      <vel value="0.2059744999" flag="0"/>
      <psa03 value="0.9047918784" flag="0"/>
      <psa10 value="0.0351569740" flag="0"/>
      <psa30 value="0.0027634798" flag="0"/>
    </comp>
  </station>
  <station code="KEF4" name="KEF4" netid="HL" source="NOA" insttype="SMART24" lat="38.258" lon="20.4244">
    <comp name="--.HHE">
      <acc value="2.1438248033" flag="0"/>
      <vel value="0.6890698857" flag="0"/>
      <psa03 value="3.5486225633" flag="0"/>
      <psa10 value="0.1587295013" flag="0"/>
      <psa30 value="0.0160691804" flag="0"/>
    </comp>
    <comp name="--.HHN">
      <acc value="1.5445010388" flag="0"/>
      <vel value="0.6317093525" flag="0"/>
      <psa03 value="2.8661165649" flag="0"/>
      <psa10 value="0.1235846407" flag="0"/>
      <psa30 value="0.0132087172" flag="0"/>
    </comp>
    <comp name="--.HHZ">
      <acc value="1.7938599558" flag="0"/>
      <vel value="0.1816090153" flag="0"/>
      <psa03 value="1.0740366469" flag="0"/>
      <psa10 value="0.0575448179" flag="0"/>
      <psa30 value="0.0049384128" flag="0"/>
    </comp>
  </station>
  <station code="LXRA" name="LXRA" netid="HL" source="NOA" insttype="CMG-5" lat="38.2001" lon="20.4372">
    <comp name="00.HNE">
      <acc value="0.3800260500" flag="0"/>
      <vel value="0.1118200442" flag="0"/>
      <psa03 value="0.5178523893" flag="0"/>
      <psa10 value="0.0658140647" flag="0"/>
      <psa30 value="0.0052983635" flag="0"/>
    </comp>
    <comp name="00.HNN">
      <acc value="0.3166978860" flag="0"/>
      <vel value="0.1204388415" flag="0"/>
      <psa03 value="0.7659775716" flag="0"/>
      <psa10 value="0.0507414596" flag="0"/>
      <psa30 value="0.0041045244" flag="0"/>
    </comp>
    <comp name="00.HNZ">
      <acc value="0.2835500998" flag="0"/>
      <vel value="0.0647208444" flag="0"/>
      <psa03 value="0.2910708650" flag="0"/>
      <psa10 value="0.0181653975" flag="0"/>
      <psa30 value="0.0017661107" flag="0"/>
    </comp>
  </station>
  <station code="RLS" name="RLS" netid="HL" source="NOA" insttype="120" lat="38.0559" lon="21.4647">
    <comp name="--.HHE">
      <acc value="0.0043407731" flag="0"/>
      <vel value="0.0017757437" flag="0"/>
      <psa03 value="0.0105322187" flag="0"/>
      <psa10 value="0.0014121813" flag="0"/>
      <psa30 value="0.0000977339" flag="0"/>
    </comp>
    <comp name="--.HHN">
      <acc value="0.0080682945" flag="0"/>
      <vel value="0.0038573184" flag="0"/>
      <psa03 value="0.0215868587" flag="0"/>
      <psa10 value="0.0038728480" flag="0"/>
      <psa30 value="0.0002638619" flag="0"/>
    </comp>
    <comp name="--.HHZ">
      <acc value="0.0050026271" flag="0"/>
      <vel value="0.0016232676" flag="0"/>
      <psa03 value="0.0089785923" flag="0"/>
      <psa10 value="0.0026064268" flag="0"/>
      <psa30 value="0.0001541046" flag="0"/>
    </comp>
  </station>
  <station code="VLS" name="VLS" netid="HL" source="NOA" insttype="120P," lat="38.1768" lon="20.5886">
    <comp name="--.HHE">
      <acc value="1.6334591855" flag="0"/>
      <vel value="0.1085108614" flag="0"/>
      <psa03 value="0.5619001559" flag="0"/>
      <psa10 value="0.0232853939" flag="0"/>
      <psa30 value="0.0022446400" flag="0"/>
    </comp>
    <comp name="--.HHN">
      <acc value="0.6288717310" flag="0"/>
      <vel value="0.1305423211" flag="0"/>
      <psa03 value="0.4841211007" flag="0"/>
      <psa10 value="0.0261366275" flag="0"/>
      <psa30 value="0.0031796731" flag="0"/>
    </comp>
    <comp name="--.HHZ">
      <acc value="0.3999328592" flag="0"/>
      <vel value="0.0589401236" flag="0"/>
      <psa03 value="0.2807059030" flag="0"/>
      <psa10 value="0.0104313990" flag="0"/>
      <psa30 value="0.0009918997" flag="0"/>
    </comp>
  </station>
  <station code="FSK" name="FSK" netid="HP" source="NOA" insttype="DC_100" lat="38.4593" lon="20.5623">
    <comp name="--.HNE">
      <acc value="0.0488228876" flag="0"/>
      <vel value="0.0163072725" flag="0"/>
      <psa03 value="0.0594167886" flag="0"/>
      <psa10 value="0.0101773373" flag="0"/>
      <psa30 value="0.0012420980" flag="0"/>
    </comp>
    <comp name="--.HNN">
      <acc value="0.0197636933" flag="0"/>
      <vel value="0.0103725116" flag="0"/>
      <psa03 value="0.0385685615" flag="0"/>
      <psa10 value="0.0076762409" flag="0"/>
      <psa30 value="0.0004097632" flag="0"/>
    </comp>
    <comp name="--.HNZ">
      <acc value="0.0362634941" flag="0"/>
      <vel value="0.0081817064" flag="0"/>
      <psa03 value="0.0505402593" flag="0"/>
      <psa10 value="0.0074125594" flag="0"/>
      <psa30 value="0.0004604158" flag="0"/>
    </comp>
  </station>
  <station code="LTHK" name="LTHK" netid="HP" source="NOA" insttype="40," lat="37.7095" lon="20.8367">
    <comp name="--.HHE">
      <acc value="0.0886043984" flag="0"/>
      <vel value="0.0197410861" flag="0"/>
      <psa03 value="0.1352019669" flag="0"/>
      <psa10 value="0.0069837356" flag="0"/>
      <psa30 value="0.0004854231" flag="0"/>
    </comp>
    <comp name="--.HHN">
      <acc value="0.0776506267" flag="0"/>
      <vel value="0.0210708828" flag="0"/>
      <psa03 value="0.1296079379" flag="0"/>
      <psa10 value="0.0092875229" flag="0"/>
      <psa30 value="0.0005535452" flag="0"/>
    </comp>
    <comp name="--.HHZ">
      <acc value="0.0999392996" flag="0"/>
      <vel value="0.0287275565" flag="0"/>
      <psa03 value="0.1856907814" flag="0"/>
      <psa10 value="0.0120367401" flag="0"/>
      <psa30 value="0.0010396104" flag="0"/>
    </comp>
  </station>
  <station code="LKD2" name="LKD2" netid="HT" source="GFZ" insttype="CMG-3ESP/90" lat="38.7889" lon="20.6578">
    <comp name="--.HHE">
      <acc value="0.0258007600" flag="0"/>
      <vel value="0.0090415171" flag="0"/>
      <psa03 value="0.0552313731" flag="0"/>
      <psa10 value="0.0046010313" flag="0"/>
      <psa30 value="0.0003171333" flag="0"/>
    </comp>
    <comp name="--.HHN">
      <acc value="0.0227264070" flag="0"/>
      <vel value="0.0076804487" flag="0"/>
      <psa03 value="0.0490842739" flag="0"/>
      <psa10 value="0.0056015594" flag="0"/>
      <psa30 value="0.0003146282" flag="0"/>
    </comp>
    <comp name="--.HHZ">
      <acc value="0.0165443285" flag="0"/>
      <vel value="0.0055944419" flag="0"/>
      <psa03 value="0.0362886497" flag="0"/>
      <psa10 value="0.0028670221" flag="0"/>
      <psa30 value="0.0002271041" flag="0"/>
    </comp>
  </station>
</stationlist>
