<stationlist xmlns:esm="https://esm-db.eu/esmws/shakemap/1/" created="1783475716">
	<station code="ART2" name="ART2" netid="HI" source="ITSAK Strong Motion Network" insttype="" lat="39.1474" lon="20.9937" esm:processing="manual (Paolucci et al 2011)" esm:quality="bad">
		<comp name="--.HNE" depth="0.0">
			<acc value="0.00402609123131301" flag="0"/>
			<vel value="0.00181734954865305" flag="0"/>
			<psa03 value="0.01298886956343" flag="0"/>
			<psa10 value="0.00176061846826972" flag="0"/>
			<psa30 value="0.000172432086842074" flag="0"/>
		</comp>
		<comp name="--.HNN" depth="0.0">
			<acc value="0.00311942336557652" flag="0"/>
			<vel value="0.00214903686933812" flag="0"/>
			<psa03 value="0.00778305660491267" flag="0"/>
			<psa10 value="0.00213814250082144" flag="0"/>
			<psa30 value="0.000134020401631239" flag="0"/>
		</comp>
		<comp name="--.HNZ" depth="0.0">
			<acc value="0.00222100825645082" flag="0"/>
			<vel value="0.00141122206130375" flag="0"/>
			<psa03 value="0.00472285583475601" flag="0"/>
			<psa10 value="0.00167159143785324" flag="0"/>
			<psa30 value="0.000149201329168449" flag="0"/>
		</comp>
	</station>
	<station code="KLV1" name="KLV1" netid="HI" source="ITSAK Strong Motion Network" insttype="" lat="38.03256" lon="22.10797" esm:processing="manual (Paolucci et al 2011)" esm:quality="bad">
		<comp name="--.HNE" depth="0.0">
			<acc value="0.00717565760588123" flag="0"/>
			<vel value="0.00280454117617433" flag="0"/>
			<psa03 value="0.0262041916282382" flag="0"/>
			<psa10 value="0.00321093903707765" flag="0"/>
			<psa30 value="0.000172606772893076" flag="0"/>
		</comp>
		<comp name="--.HNN" depth="0.0">
			<acc value="0.00439313392030886" flag="0"/>
			<vel value="0.00256167885545265" flag="0"/>
			<psa03 value="0.0162095217179506" flag="0"/>
			<psa10 value="0.00397749755219134" flag="0"/>
			<psa30 value="0.000221701405379901" flag="0"/>
		</comp>
		<comp name="--.HNZ" depth="0.0">
			<acc value="0.00372634290812401" flag="0"/>
			<vel value="0.0016235816816571" flag="0"/>
			<psa03 value="0.00495676000165486" flag="0"/>
			<psa10 value="0.00239835489486685" flag="0"/>
			<psa30 value="0.000134936543050376" flag="0"/>
		</comp>
	</station>
	<station code="MSL1" name="MSL1" netid="HI" source="ITSAK Strong Motion Network" insttype="" lat="38.3727" lon="21.4243" esm:processing="manual (Paolucci et al 2011)" esm:quality="good">
		<comp name="--.HNE" depth="0.0">
			<acc value="0.0217816369911685" flag="0"/>
			<vel value="0.0147820512126689" flag="0"/>
			<psa03 value="0.0824598867974748" flag="0"/>
			<psa10 value="0.0144682873541505" flag="0"/>
			<psa30 value="0.00116732417067071" flag="0"/>
		</comp>
		<comp name="--.HNN" depth="0.0">
			<acc value="0.0369689802105213" flag="0"/>
			<vel value="0.0213440550075498" flag="0"/>
			<psa03 value="0.134674041920998" flag="0"/>
			<psa10 value="0.0110978569295961" flag="0"/>
			<psa30 value="0.00181161194597382" flag="0"/>
		</comp>
		<comp name="--.HNZ" depth="0.0">
			<acc value="0.0151743286943596" flag="0"/>
			<vel value="0.00587478499489676" flag="0"/>
			<psa03 value="0.0412970567086648" flag="0"/>
			<psa10 value="0.00672475365472624" flag="0"/>
			<psa30 value="0.00035391085435053" flag="0"/>
		</comp>
	</station>
	<station code="VAS2" name="VAS2" netid="HI" source="ITSAK Strong Motion Network" insttype="" lat="38.630558" lon="20.608081" esm:processing="manual (Paolucci et al 2011)" esm:quality="best">
		<comp name="--.HNE" depth="0.0">
			<acc value="0.0604975480673365" flag="0"/>
			<vel value="0.0286218071432711" flag="0"/>
			<psa03 value="0.155389683585258" flag="0"/>
			<psa10 value="0.0309942687906754" flag="0"/>
			<psa30 value="0.00175657903183335" flag="0"/>
		</comp>
		<comp name="--.HNN" depth="0.0">
			<acc value="0.0536794126490961" flag="0"/>
			<vel value="0.0341978748603159" flag="0"/>
			<psa03 value="0.200624054476331" flag="0"/>
			<psa10 value="0.0537537344532579" flag="0"/>
			<psa30 value="0.00292121867010696" flag="0"/>
		</comp>
		<comp name="--.HNZ" depth="0.0">
			<acc value="0.0298834096573176" flag="0"/>
			<vel value="0.0162130285889656" flag="0"/>
			<psa03 value="0.111497578892733" flag="0"/>
			<psa10 value="0.0173353679542494" flag="0"/>
			<psa30 value="0.000833994731364585" flag="0"/>
		</comp>
	</station>
	<station code="ARTB" name="ARTB" netid="HL" source="National Observatory of Athens Seismic Network" insttype="" lat="39.15702" lon="20.9785" esm:processing="manual (Paolucci et al 2011)" esm:quality="good">
		<comp name="00.HNE" depth="0.0">
			<acc value="0.0134937427852929" flag="0"/>
			<vel value="0.00589570011861056" flag="0"/>
			<psa03 value="0.0339635051238635" flag="0"/>
			<psa10 value="0.00221043393039964" flag="0"/>
			<psa30 value="0.000229496817621189" flag="0"/>
		</comp>
		<comp name="00.HNN" depth="0.0">
			<acc value="0.0119014071250381" flag="0"/>
			<vel value="0.0040257323928477" flag="0"/>
			<psa03 value="0.0249381494258427" flag="0"/>
			<psa10 value="0.0024892653703641" flag="0"/>
			<psa30 value="0.00012727576212377" flag="0"/>
		</comp>
		<comp name="00.HNZ" depth="0.0">
			<acc value="0.00868268576811385" flag="0"/>
			<vel value="0.00198518721702658" flag="0"/>
			<psa03 value="0.00760583132295599" flag="0"/>
			<psa10 value="0.00159378280685157" flag="0"/>
			<psa30 value="0.0001406077781169" flag="0"/>
		</comp>
	</station>
	<station code="KASA" name="KASA" netid="HL" source="National Observatory of Athens Seismic Network" insttype="" lat="39.74628" lon="19.93542" esm:processing="automatic (Paolucci et al 2011)" esm:quality="best">
		<comp name="00.HNE" depth="0.0">
			<acc value="0.00489713258104826" flag="0"/>
			<vel value="0.00222278601515072" flag="0"/>
			<psa03 value="0.0152256492495262" flag="0"/>
			<psa10 value="0.00160796472289534" flag="0"/>
			<psa30 value="0.0001502605920476" flag="0"/>
		</comp>
		<comp name="00.HNN" depth="0.0">
			<acc value="0.00515075380363742" flag="0"/>
			<vel value="0.00237839616703706" flag="0"/>
			<psa03 value="0.015608591284236" flag="0"/>
			<psa10 value="0.00171384115075402" flag="0"/>
			<psa30 value="0.000172894851873089" flag="0"/>
		</comp>
		<comp name="00.HNZ" depth="0.0">
			<acc value="0.00446794666726784" flag="0"/>
			<vel value="0.00214624104756656" flag="0"/>
			<psa03 value="0.00925796029964299" flag="0"/>
			<psa10 value="0.00193250618311377" flag="0"/>
			<psa30 value="0.000150549699741322" flag="0"/>
		</comp>
	</station>
	<station code="LXRA" name="LXRA" netid="HL" source="National Observatory of Athens Seismic Network" insttype="" lat="38.20006" lon="20.43718" esm:processing="automatic (Paolucci et al 2011)" esm:quality="best">
		<comp name="00.HNE" depth="0.0">
			<acc value="0.384120700982894" flag="0"/>
			<vel value="0.112213098919262" flag="0"/>
			<psa03 value="0.518470971158254" flag="0"/>
			<psa10 value="0.0658084969901143" flag="0"/>
			<psa30 value="0.00523973585676406" flag="0"/>
		</comp>
		<comp name="00.HNN" depth="0.0">
			<acc value="0.317949165165041" flag="0"/>
			<vel value="0.1208924115559" flag="0"/>
			<psa03 value="0.769291045090561" flag="0"/>
			<psa10 value="0.0508115385151023" flag="0"/>
			<psa30 value="0.00406291664828714" flag="0"/>
		</comp>
		<comp name="00.HNZ" depth="0.0">
			<acc value="0.277985127439595" flag="0"/>
			<vel value="0.0649967917833679" flag="0"/>
			<psa03 value="0.289209262860982" flag="0"/>
			<psa10 value="0.0181645720637625" flag="0"/>
			<psa30 value="0.0018992672754685" flag="0"/>
		</comp>
	</station>
	<station code="PATC" name="PATC" netid="HL" source="National Observatory of Athens Seismic Network" insttype="" lat="38.26933" lon="21.76001" esm:processing="automatic (Paolucci et al 2011)" esm:quality="best">
		<comp name="00.HNE" depth="0.0">
			<acc value="0.00915876551222262" flag="0"/>
			<vel value="0.006821141985543" flag="0"/>
			<psa03 value="0.0330451760598963" flag="0"/>
			<psa10 value="0.0116614059484023" flag="0"/>
			<psa30 value="0.000776891517333743" flag="0"/>
		</comp>
		<comp name="00.HNN" depth="0.0">
			<acc value="0.00854555201280699" flag="0"/>
			<vel value="0.0055040429235049" flag="0"/>
			<psa03 value="0.0243811307552526" flag="0"/>
			<psa10 value="0.0105934917668409" flag="0"/>
			<psa30 value="0.000657264738481922" flag="0"/>
		</comp>
		<comp name="00.HNZ" depth="0.0">
			<acc value="0.0120549082487569" flag="0"/>
			<vel value="0.00346958305049037" flag="0"/>
			<psa03 value="0.0171282765913435" flag="0"/>
			<psa10 value="0.0045628278899689" flag="0"/>
			<psa30 value="0.000287895113304886" flag="0"/>
		</comp>
	</station>
	<station code="PRGA" name="PRGA" netid="HL" source="National Observatory of Athens Seismic Network" insttype="" lat="39.28557" lon="20.40157" esm:processing="manual (Paolucci et al 2011)" esm:quality="bad">
		<comp name="00.HNE" depth="0.0">
			<acc value="0.0392811098730954" flag="0"/>
			<vel value="0.0158084733311328" flag="0"/>
			<psa03 value="0.0847903929889955" flag="0"/>
			<psa10 value="0.00631148810509459" flag="0"/>
			<psa30 value="0.000583804559603825" flag="0"/>
		</comp>
		<comp name="00.HNN" depth="0.0">
			<acc value="0.023778440625431" flag="0"/>
			<vel value="0.00948967850507515" flag="0"/>
			<psa03 value="0.0659540045458337" flag="0"/>
			<psa10 value="0.00416670086722192" flag="0"/>
			<psa30 value="0.000375007212178813" flag="0"/>
		</comp>
		<comp name="00.HNZ" depth="0.0">
			<acc value="0.0116212394884837" flag="0"/>
			<vel value="0.00277508070649246" flag="0"/>
			<psa03 value="0.0209820279771985" flag="0"/>
			<psa10 value="0.00264628264698655" flag="0"/>
			<psa30 value="0.000349172662225271" flag="0"/>
		</comp>
	</station>
	<station code="SMHA" name="SMHA" netid="HL" source="National Observatory of Athens Seismic Network" insttype="" lat="38.25123" lon="20.6477" esm:processing="automatic (Paolucci et al 2011)" esm:quality="good">
		<comp name="00.HNE" depth="0.0">
			<acc value="0.38659293842397" flag="0"/>
			<vel value="0.158770593021966" flag="0"/>
			<psa03 value="0.850308412091097" flag="0"/>
			<psa10 value="0.0600701068496555" flag="0"/>
			<psa30 value="0.00471308513543189" flag="0"/>
		</comp>
		<comp name="00.HNN" depth="0.0">
			<acc value="0.293248277382118" flag="0"/>
			<vel value="0.129606212196293" flag="0"/>
			<psa03 value="0.933532591950985" flag="0"/>
			<psa10 value="0.0399851038168938" flag="0"/>
			<psa30 value="0.00372154903436124" flag="0"/>
		</comp>
		<comp name="00.HNZ" depth="0.0">
			<acc value="0.205713131423275" flag="0"/>
			<vel value="0.0560298611830407" flag="0"/>
			<psa03 value="0.263568710133739" flag="0"/>
			<psa10 value="0.026326018344504" flag="0"/>
			<psa30 value="0.00172647499549737" flag="0"/>
		</comp>
	</station>
	<station code="FSK" name="FSK" netid="HP" source="University of Patras, Seismological Laboratory (PSLNET)" insttype="" lat="38.4593" lon="20.5623" esm:processing="manual (Paolucci et al 2011)" esm:quality="good">
		<comp name="--.HNE" depth="0.0">
			<acc value="0.0486956023286953" flag="0"/>
			<vel value="0.0165006904686763" flag="0"/>
			<psa03 value="0.0608674071670031" flag="0"/>
			<psa10 value="0.0102011042105895" flag="0"/>
			<psa30 value="0.00121607691329398" flag="0"/>
		</comp>
		<comp name="--.HNN" depth="0.0">
			<acc value="0.0198400389820125" flag="0"/>
			<vel value="0.0104455053603559" flag="0"/>
			<psa03 value="0.0386144590600695" flag="0"/>
			<psa10 value="0.00768603197439721" flag="0"/>
			<psa30 value="0.000411043271266092" flag="0"/>
		</comp>
		<comp name="--.HNZ" depth="0.0">
			<acc value="0.0327611735872963" flag="0"/>
			<vel value="0.00822396095252673" flag="0"/>
			<psa03 value="0.0509362284418189" flag="0"/>
			<psa10 value="0.007419067726826" flag="0"/>
			<psa30 value="0.000463295170197957" flag="0"/>
		</comp>
	</station>
	<station code="SRN" name="SRN" netid="AC" source="Albanian Seismological Network (AC)" insttype="" lat="39.880001" lon="20.0005" esm:processing="automatic (Paolucci et al 2011)" esm:quality="bad">
		<comp name="--.HNE" depth="0.0">
			<acc value="0" flag="1"/>
			<vel value="0" flag="1"/>
			<psa03 value="0" flag="1"/>
			<psa10 value="0" flag="1"/>
			<psa30 value="0" flag="1"/>
		</comp>
		<comp name="--.HNN" depth="0.0">
			<acc value="0" flag="1"/>
			<vel value="0" flag="1"/>
			<psa03 value="0" flag="1"/>
			<psa10 value="0" flag="1"/>
			<psa30 value="0" flag="1"/>
		</comp>
		<comp name="--.HNZ" depth="0.0">
			<acc value="0" flag="1"/>
			<vel value="0" flag="1"/>
			<psa03 value="0" flag="1"/>
			<psa10 value="0" flag="1"/>
			<psa30 value="0" flag="1"/>
		</comp>
	</station>
	<station code="MALA" name="MALA" netid="CL" source="Corinth Riff Laboratory (CRLNET)" insttype="" lat="38.39341" lon="21.87263" esm:processing="automatic (Paolucci et al 2011)" esm:quality="bad">
		<comp name="01.HNE" depth="0.0">
			<acc value="0" flag="1"/>
			<vel value="0" flag="1"/>
			<psa03 value="0" flag="1"/>
			<psa10 value="0" flag="1"/>
			<psa30 value="0" flag="1"/>
		</comp>
		<comp name="01.HNN" depth="0.0">
			<acc value="0" flag="1"/>
			<vel value="0" flag="1"/>
			<psa03 value="0" flag="1"/>
			<psa10 value="0" flag="1"/>
			<psa30 value="0" flag="1"/>
		</comp>
		<comp name="01.HNZ" depth="0.0">
			<acc value="0" flag="1"/>
			<vel value="0" flag="1"/>
			<psa03 value="0" flag="1"/>
			<psa10 value="0" flag="1"/>
			<psa30 value="0" flag="1"/>
		</comp>
	</station>
	<station code="KRK1" name="KRK1" netid="HI" source="ITSAK Strong Motion Network" insttype="" lat="39.618861" lon="19.9202" esm:processing="discarded" esm:quality="best">
		<comp name="--.HNE" depth="0.0">
			<acc value="0" flag="1"/>
			<vel value="0" flag="1"/>
			<psa03 value="0" flag="1"/>
			<psa10 value="0" flag="1"/>
			<psa30 value="0" flag="1"/>
		</comp>
		<comp name="--.HNN" depth="0.0">
			<acc value="0" flag="1"/>
			<vel value="0" flag="1"/>
			<psa03 value="0" flag="1"/>
			<psa10 value="0" flag="1"/>
			<psa30 value="0" flag="1"/>
		</comp>
		<comp name="--.HNZ" depth="0.0">
			<acc value="0" flag="1"/>
			<vel value="0" flag="1"/>
			<psa03 value="0" flag="1"/>
			<psa10 value="0" flag="1"/>
			<psa30 value="0" flag="1"/>
		</comp>
	</station>
	<station code="LAM2" name="LAM2" netid="HI" source="ITSAK Strong Motion Network" insttype="" lat="38.90203" lon="22.431301" esm:processing="discarded" esm:quality="bad">
		<comp name="--.HNE" depth="0.0">
			<acc value="0" flag="1"/>
			<vel value="0" flag="1"/>
			<psa03 value="0" flag="1"/>
			<psa10 value="0" flag="1"/>
			<psa30 value="0" flag="1"/>
		</comp>
		<comp name="--.HNN" depth="0.0">
			<acc value="0" flag="1"/>
			<vel value="0" flag="1"/>
			<psa03 value="0" flag="1"/>
			<psa10 value="0" flag="1"/>
			<psa30 value="0" flag="1"/>
		</comp>
		<comp name="--.HNZ" depth="0.0">
			<acc value="0" flag="1"/>
			<vel value="0" flag="1"/>
			<psa03 value="0" flag="1"/>
			<psa10 value="0" flag="1"/>
			<psa30 value="0" flag="1"/>
		</comp>
	</station>
	<station code="PYL1" name="PYL1" netid="HI" source="ITSAK Strong Motion Network" insttype="" lat="36.914188" lon="21.695161" esm:processing="discarded" esm:quality="bad">
		<comp name="--.HNE" depth="0.0">
			<acc value="0" flag="1"/>
			<vel value="0" flag="1"/>
			<psa03 value="0" flag="1"/>
			<psa10 value="0" flag="1"/>
			<psa30 value="0" flag="1"/>
		</comp>
		<comp name="--.HNN" depth="0.0">
			<acc value="0" flag="1"/>
			<vel value="0" flag="1"/>
			<psa03 value="0" flag="1"/>
			<psa10 value="0" flag="1"/>
			<psa30 value="0" flag="1"/>
		</comp>
		<comp name="--.HNZ" depth="0.0">
			<acc value="0" flag="1"/>
			<vel value="0" flag="1"/>
			<psa03 value="0" flag="1"/>
			<psa10 value="0" flag="1"/>
			<psa30 value="0" flag="1"/>
		</comp>
	</station>
	<station code="ARIA" name="ARIA" netid="HL" source="National Observatory of Athens Seismic Network" insttype="" lat="38.33358" lon="21.76206" esm:processing="automatic (Paolucci et al 2011)" esm:quality="bad">
		<comp name="00.HNE" depth="0.0">
			<acc value="0" flag="1"/>
			<vel value="0" flag="1"/>
			<psa03 value="0" flag="1"/>
			<psa10 value="0" flag="1"/>
			<psa30 value="0" flag="1"/>
		</comp>
		<comp name="00.HNN" depth="0.0">
			<acc value="0" flag="1"/>
			<vel value="0" flag="1"/>
			<psa03 value="0" flag="1"/>
			<psa10 value="0" flag="1"/>
			<psa30 value="0" flag="1"/>
		</comp>
		<comp name="00.HNZ" depth="0.0">
			<acc value="0" flag="1"/>
			<vel value="0" flag="1"/>
			<psa03 value="0" flag="1"/>
			<psa10 value="0" flag="1"/>
			<psa30 value="0" flag="1"/>
		</comp>
	</station>
	<station code="DLFA" name="DLFA" netid="HL" source="National Observatory of Athens Seismic Network" insttype="" lat="38.47836" lon="22.49583" esm:processing="automatic (Paolucci et al 2011)" esm:quality="bad">
		<comp name="00.HNE" depth="0.0">
			<acc value="0" flag="1"/>
			<vel value="0" flag="1"/>
			<psa03 value="0" flag="1"/>
			<psa10 value="0" flag="1"/>
			<psa30 value="0" flag="1"/>
		</comp>
		<comp name="00.HNN" depth="0.0">
			<acc value="0" flag="1"/>
			<vel value="0" flag="1"/>
			<psa03 value="0" flag="1"/>
			<psa10 value="0" flag="1"/>
			<psa30 value="0" flag="1"/>
		</comp>
		<comp name="00.HNZ" depth="0.0">
			<acc value="0" flag="1"/>
			<vel value="0" flag="1"/>
			<psa03 value="0" flag="1"/>
			<psa10 value="0" flag="1"/>
			<psa30 value="0" flag="1"/>
		</comp>
	</station>
	<station code="ITM" name="ITM" netid="HL" source="National Observatory of Athens Seismic Network" insttype="" lat="37.17872" lon="21.92522" esm:processing="automatic (Paolucci et al 2011)" esm:quality="bad">
		<comp name="00.HNE" depth="0.0">
			<acc value="0" flag="1"/>
			<vel value="0" flag="1"/>
			<psa03 value="0" flag="1"/>
			<psa10 value="0" flag="1"/>
			<psa30 value="0" flag="1"/>
		</comp>
		<comp name="00.HNN" depth="0.0">
			<acc value="0" flag="1"/>
			<vel value="0" flag="1"/>
			<psa03 value="0" flag="1"/>
			<psa10 value="0" flag="1"/>
			<psa30 value="0" flag="1"/>
		</comp>
		<comp name="00.HNZ" depth="0.0">
			<acc value="0" flag="1"/>
			<vel value="0" flag="1"/>
			<psa03 value="0" flag="1"/>
			<psa10 value="0" flag="1"/>
			<psa30 value="0" flag="1"/>
		</comp>
	</station>
	<station code="JAN" name="JAN" netid="HL" source="National Observatory of Athens Seismic Network" insttype="" lat="39.65616" lon="20.84874" esm:processing="automatic (Paolucci et al 2011)" esm:quality="bad">
		<comp name="00.HNE" depth="0.0">
			<acc value="0" flag="1"/>
			<vel value="0" flag="1"/>
			<psa03 value="0" flag="1"/>
			<psa10 value="0" flag="1"/>
			<psa30 value="0" flag="1"/>
		</comp>
		<comp name="00.HNN" depth="0.0">
			<acc value="0" flag="1"/>
			<vel value="0" flag="1"/>
			<psa03 value="0" flag="1"/>
			<psa10 value="0" flag="1"/>
			<psa30 value="0" flag="1"/>
		</comp>
		<comp name="00.HNZ" depth="0.0">
			<acc value="0" flag="1"/>
			<vel value="0" flag="1"/>
			<psa03 value="0" flag="1"/>
			<psa10 value="0" flag="1"/>
			<psa30 value="0" flag="1"/>
		</comp>
	</station>
	<station code="KIAA" name="KIAA" netid="HL" source="National Observatory of Athens Seismic Network" insttype="" lat="38.0139" lon="22.7495" esm:processing="automatic (Paolucci et al 2011)" esm:quality="bad">
		<comp name="00.HNE" depth="0.0">
			<acc value="0" flag="1"/>
			<vel value="0" flag="1"/>
			<psa03 value="0" flag="1"/>
			<psa10 value="0" flag="1"/>
			<psa30 value="0" flag="1"/>
		</comp>
		<comp name="00.HNN" depth="0.0">
			<acc value="0" flag="1"/>
			<vel value="0" flag="1"/>
			<psa03 value="0" flag="1"/>
			<psa10 value="0" flag="1"/>
			<psa30 value="0" flag="1"/>
		</comp>
		<comp name="00.HNZ" depth="0.0">
			<acc value="0" flag="1"/>
			<vel value="0" flag="1"/>
			<psa03 value="0" flag="1"/>
			<psa10 value="0" flag="1"/>
			<psa30 value="0" flag="1"/>
		</comp>
	</station>
	<station code="PATG" name="PATG" netid="HL" source="National Observatory of Athens Seismic Network" insttype="" lat="38.23865" lon="21.72657" esm:processing="automatic (Paolucci et al 2011)" esm:quality="bad">
		<comp name="00.HNE" depth="0.0">
