<stationlist created="1696305663">
	<station code="R334B" name="R334B" netid="AM" source="Raspberry Shake (raspishake)" insttype="" lat="41.83783784" lon="12.63707414">
		<comp name="00.ENE" depth="0.0">
			<acc value="0.1101359671629" flag="0"/>
			<vel value="0.101827702594" flag="0"/>
			<psa03 value="0.127183279434641" flag="0"/>
			<psa10 value="0.076751901936938" flag="0"/>
			<psa30 value="0.030622251907217" flag="0"/>
		</comp>
		<comp name="00.ENN" depth="0.0">
			<acc value="0.11423004490812" flag="0"/>
			<vel value="0.11037154952" flag="0"/>
			<psa03 value="0.1360413141527" flag="0"/>
			<psa10 value="0.0624681207065414" flag="0"/>
			<psa30 value="0.0388166280777878" flag="0"/>
		</comp>
		<comp name="00.ENZ" depth="0.0">
			<acc value="0.070487862093306" flag="0"/>
			<vel value="0.0945998412399" flag="0"/>
			<psa03 value="0.0983211070406008" flag="0"/>
			<psa10 value="0.0533343643897458" flag="0"/>
			<psa30 value="0.0256555928904664" flag="0"/>
		</comp>
	</station>
	<station code="R3BE1" name="R3BE1" netid="AM" source="Raspberry Shake (raspishake)" insttype="" lat="42.3963964" lon="12.85959568">
		<comp name="00.ENE" depth="0.0">
			<acc value="0.13421143674594" flag="0"/>
			<vel value="0.117217781929" flag="0"/>
			<psa03 value="0.164651303174233" flag="0"/>
			<psa10 value="0.106381669763448" flag="0"/>
			<psa30 value="0.0784098742694412" flag="0"/>
		</comp>
		<comp name="00.ENN" depth="0.0">
			<acc value="0.11557230019218" flag="0"/>
			<vel value="0.144527512415" flag="0"/>
			<psa03 value="0.141245815175403" flag="0"/>
			<psa10 value="0.0878440042342979" flag="0"/>
			<psa30 value="0.0362162924849608" flag="0"/>
		</comp>
		<comp name="00.ENZ" depth="0.0">
			<acc value="0.069888975952704" flag="0"/>
			<vel value="0.0952013330106" flag="0"/>
			<psa03 value="0.0909680470198463" flag="0"/>
			<psa10 value="0.0539834911415391" flag="0"/>
			<psa30 value="0.0338054794470833" flag="0"/>
		</comp>
	</station>
	<station code="MARCO" name="MARCO" netid="GE" source="GEOFON" insttype="" lat="40.29724" lon="15.80632">
		<comp name=".HLE" depth="1.0">
			<acc value="0.00024940557607422" flag="0"/>
			<vel value="0.000261826960038" flag="0"/>
			<psa03 value="0.000569138288558089" flag="0"/>
			<psa10 value="0.000235219698361444" flag="0"/>
			<psa30 value="5.088505057256e-05" flag="0"/>
		</comp>
		<comp name=".HLN" depth="1.0">
			<acc value="0.00023438945981916" flag="0"/>
			<vel value="0.000211916687702" flag="0"/>
			<psa03 value="0.000747220886435746" flag="0"/>
			<psa10 value="0.000347536313590893" flag="0"/>
			<psa30 value="6.32645295062547e-05" flag="0"/>
		</comp>
		<comp name=".HLZ" depth="1.0">
			<acc value="0.0001315362772257" flag="0"/>
			<vel value="0.000188895162522" flag="0"/>
			<psa03 value="0.000206133487688874" flag="0"/>
			<psa10 value="9.34437097185252e-05" flag="0"/>
			<psa30 value="7.47293514942989e-05" flag="0"/>
		</comp>
	</station>
	<station code="CNIS" name="CNIS" netid="IV" source="Italian National Seismic Network (INSN)" insttype="" lat="40.79817" lon="14.163176">
		<comp name=".HNE" depth="0.0">
			<acc value="0.21991051879374" flag="0"/>
			<vel value="0.0970683399252" flag="0"/>
			<psa03 value="0.511486425133557" flag="0"/>
			<psa10 value="0.0979258421065389" flag="0"/>
			<psa30 value="0.0107324668065749" flag="0"/>
		</comp>
		<comp name=".HNN" depth="0.0">
			<acc value="0.2657887416132" flag="0"/>
			<vel value="0.126940793862" flag="0"/>
			<psa03 value="0.390507410866317" flag="0"/>
			<psa10 value="0.100505705509891" flag="0"/>
			<psa30 value="0.0172234409684268" flag="0"/>
		</comp>
		<comp name=".HNZ" depth="0.0">
			<acc value="0.26584878798606" flag="0"/>
			<vel value="0.0951771218538" flag="0"/>
			<psa03 value="0.42707937524613" flag="0"/>
			<psa10 value="0.0816042958843076" flag="0"/>
			<psa30 value="0.0109344576874997" flag="0"/>
		</comp>
	</station>
	<station code="PAOL" name="PAOL" netid="IV" source="Italian National Seismic Network (INSN)" insttype="" lat="41.031206" lon="14.567486">
		<comp name=".HNE" depth="0.0">
			<acc value="0.0024332118098574" flag="0"/>
			<vel value="0.00115555272902" flag="0"/>
			<psa03 value="0.00719890853299521" flag="0"/>
			<psa10 value="0.00112641653362887" flag="0"/>
			<psa30 value="0.000173299514096519" flag="0"/>
		</comp>
		<comp name=".HNN" depth="0.0">
			<acc value="0.0025920936215586" flag="0"/>
			<vel value="0.00140031034034" flag="0"/>
			<psa03 value="0.00916551732678554" flag="0"/>
			<psa10 value="0.00201730621476198" flag="0"/>
			<psa30 value="0.000155917945986241" flag="0"/>
		</comp>
		<comp name=".HNZ" depth="0.0">
			<acc value="0.0013001999894502" flag="0"/>
			<vel value="0.000751409421326" flag="0"/>
			<psa03 value="0.00372660526774512" flag="0"/>
			<psa10 value="0.000905543659697845" flag="0"/>
			<psa30 value="0.000177357321968833" flag="0"/>
		</comp>
	</station>
	<station code="PIGN" name="PIGN" netid="IV" source="Italian National Seismic Network (INSN)" insttype="" lat="41.200001" lon="14.17989">
		<comp name=".HNE" depth="2.0">
			<acc value="0.0021393045084648" flag="0"/>
			<vel value="0.00156666619503" flag="0"/>
			<psa03 value="0.00465552748139" flag="0"/>
			<psa10 value="0.00116362696738887" flag="0"/>
			<psa30 value="0.000176104322297028" flag="0"/>
		</comp>
		<comp name=".HNN" depth="2.0">
			<acc value="0.001543644416376" flag="0"/>
			<vel value="0.00100356931137" flag="0"/>
			<psa03 value="0.00509636397627414" flag="0"/>
			<psa10 value="0.000899138528357543" flag="0"/>
			<psa30 value="0.000162619145116136" flag="0"/>
		</comp>
		<comp name=".HNZ" depth="2.0">
			<acc value="0.0012122591763618" flag="0"/>
			<vel value="0.000631197580214" flag="0"/>
			<psa03 value="0.0025368177913122" flag="0"/>
			<psa10 value="0.000452286582859966" flag="0"/>
			<psa30 value="0.000104311441371171" flag="0"/>
		</comp>
	</station>
	<station code="PTMR" name="PTMR" netid="IV" source="Italian National Seismic Network (INSN)" insttype="" lat="40.761401" lon="14.034938">
		<comp name=".HNE" depth="0.0">
			<acc value="0.049056790568688" flag="0"/>
			<vel value="0.0374760803191" flag="0"/>
			<psa03 value="0.127260867908101" flag="0"/>
			<psa10 value="0.0639013156486119" flag="0"/>
			<psa30 value="0.00375392284563088" flag="0"/>
		</comp>
		<comp name=".HNN" depth="0.0">
			<acc value="0.053984768291256" flag="0"/>
			<vel value="0.0451408020029" flag="0"/>
			<psa03 value="0.142900560210753" flag="0"/>
			<psa10 value="0.0419193244494434" flag="0"/>
			<psa30 value="0.00392158353566222" flag="0"/>
		</comp>
		<comp name=".HNZ" depth="0.0">
			<acc value="0.06048618855006" flag="0"/>
			<vel value="0.027390411767" flag="0"/>
			<psa03 value="0.257131658710406" flag="0"/>
			<psa10 value="0.032753451005364" flag="0"/>
			<psa30 value="0.00325035031975459" flag="0"/>
		</comp>
	</station>
	<station code="SORR" name="SORR" netid="IV" source="Italian National Seismic Network (INSN)" insttype="" lat="40.58256" lon="14.335709">
		<comp name=".HNE" depth="0.0">
			<acc value="0.007968171986706" flag="0"/>
			<vel value="0.00417108263235" flag="0"/>
			<psa03 value="0.0240909813259601" flag="0"/>
			<psa10 value="0.00259728143214755" flag="0"/>
			<psa30 value="0.000209117082147072" flag="0"/>
		</comp>
		<comp name=".HNN" depth="0.0">
			<acc value="0.0071622899369472" flag="0"/>
			<vel value="0.00290349107254" flag="0"/>
			<psa03 value="0.0109612860272396" flag="0"/>
			<psa10 value="0.00204047501520504" flag="0"/>
			<psa30 value="0.000155954966667851" flag="0"/>
		</comp>
		<comp name=".HNZ" depth="0.0">
			<acc value="0.00488462868402" flag="0"/>
			<vel value="0.00138827653449" flag="0"/>
			<psa03 value="0.00794581348050885" flag="0"/>
			<psa10 value="0.00204202035195342" flag="0"/>
			<psa30 value="0.000214239179273375" flag="0"/>
		</comp>
	</station>
	<station code="VBKW" name="VBKW" netid="IV" source="Italian National Seismic Network (INSN)" insttype="" lat="40.824231" lon="14.414156">
		<comp name=".HNE" depth="0.0">
			<acc value="0.032785575531996" flag="0"/>
			<vel value="0.00766069001102" flag="0"/>
			<psa03 value="0.0502315828042759" flag="0"/>
			<psa10 value="0.0148851598187864" flag="0"/>
			<psa30 value="0.00061448237310706" flag="0"/>
		</comp>
		<comp name=".HNN" depth="0.0">
			<acc value="0.027263695354554" flag="0"/>
			<vel value="0.00909212160181" flag="0"/>
			<psa03 value="0.0528053366360037" flag="0"/>
			<psa10 value="0.0218085440840061" flag="0"/>
			<psa30 value="0.000934043229945332" flag="0"/>
		</comp>
		<comp name=".HNZ" depth="0.0">
			<acc value="0.021652787408694" flag="0"/>
			<vel value="0.00695305663043" flag="0"/>
			<psa03 value="0.0267165172339665" flag="0"/>
			<psa10 value="0.0117138100449311" flag="0"/>
			<psa30 value="0.00057181756760716" flag="0"/>
		</comp>
	</station>
	<station code="NAPI" name="NAPI" netid="IX" source="Irpinia Seismic Network (ISNet)" insttype="" lat="40.84" lon="14.18">
		<comp name="01.HNE" depth="0.0">
			<acc value="2.0462564007852" flag="0"/>
			<vel value="0.277406412292" flag="0"/>
			<psa03 value="1.71326032841985" flag="0"/>
			<psa10 value="0.217271978202303" flag="0"/>
			<psa30 value="0.0170769962671899" flag="0"/>
		</comp>
		<comp name="01.HNN" depth="0.0">
			<acc value="2.0271386431524" flag="0"/>
			<vel value="0.411545192892" flag="0"/>
			<psa03 value="1.24144723978688" flag="0"/>
			<psa10 value="0.190695842663804" flag="0"/>
			<psa30 value="0.01308779200198" flag="0"/>
		</comp>
		<comp name="01.HNZ" depth="0.0">
			<acc value="1.1916329331096" flag="0"/>
			<vel value="0.257810612942" flag="0"/>
			<psa03 value="1.48985119533184" flag="0"/>
			<psa10 value="0.101773319483093" flag="0"/>
			<psa30 value="0.0102728688604858" flag="0"/>
		</comp>
	</station>
</stationlist>
