<stationlist created="1696334464">
	<station code="R334B" name="R334B" netid="AM" source="Raspberry Shake (raspishake)" insttype="" lat="41.83783784" lon="12.63707414">
		<comp name="00.ENE" depth="0.0">
			<acc value="0.1101359671629" flag="0"/>
			<vel value="0.101827702594" flag="0"/>
			<psa03 value="0.127183279434641" flag="0"/>
			<psa10 value="0.076751901936938" flag="0"/>
			<psa30 value="0.030622251907217" flag="0"/>
		</comp>
		<comp name="00.ENN" depth="0.0">
			<acc value="0.11423004490812" flag="0"/>
			<vel value="0.11037154952" flag="0"/>
			<psa03 value="0.1360413141527" flag="0"/>
			<psa10 value="0.0624681207065414" flag="0"/>
			<psa30 value="0.0388166280777878" flag="0"/>
		</comp>
		<comp name="00.ENZ" depth="0.0">
			<acc value="0.070487862093306" flag="0"/>
			<vel value="0.0945998412399" flag="0"/>
			<psa03 value="0.0983211070406008" flag="0"/>
			<psa10 value="0.0533343643897458" flag="0"/>
			<psa30 value="0.0256555928904664" flag="0"/>
		</comp>
	</station>
	<station code="R3BE1" name="R3BE1" netid="AM" source="Raspberry Shake (raspishake)" insttype="" lat="42.3963964" lon="12.85959568">
		<comp name="00.ENE" depth="0.0">
			<acc value="0.13421143674594" flag="0"/>
			<vel value="0.117217781929" flag="0"/>
			<psa03 value="0.164651303174233" flag="0"/>
			<psa10 value="0.106381669763448" flag="0"/>
			<psa30 value="0.0784098742694412" flag="0"/>
		</comp>
		<comp name="00.ENN" depth="0.0">
			<acc value="0.11557230019218" flag="0"/>
			<vel value="0.144527512415" flag="0"/>
			<psa03 value="0.141245815175403" flag="0"/>
			<psa10 value="0.0878440042342979" flag="0"/>
			<psa30 value="0.0362162924849608" flag="0"/>
		</comp>
		<comp name="00.ENZ" depth="0.0">
			<acc value="0.069888975952704" flag="0"/>
			<vel value="0.0952013330106" flag="0"/>
			<psa03 value="0.0909680470198463" flag="0"/>
			<psa10 value="0.0539834911415391" flag="0"/>
			<psa30 value="0.0338054794470833" flag="0"/>
		</comp>
	</station>
	<station code="MARCO" name="MARCO" netid="GE" source="GEOFON" insttype="" lat="40.29724" lon="15.80632">
		<comp name=".HLE" depth="1.0">
			<acc value="0.00024940557607422" flag="0"/>
			<vel value="0.000261826960038" flag="0"/>
			<psa03 value="0.000569138288558089" flag="0"/>
			<psa10 value="0.000235219698361444" flag="0"/>
			<psa30 value="5.088505057256e-05" flag="0"/>
		</comp>
		<comp name=".HLN" depth="1.0">
			<acc value="0.00023438945981916" flag="0"/>
			<vel value="0.000211916687702" flag="0"/>
			<psa03 value="0.000747220886435746" flag="0"/>
			<psa10 value="0.000347536313590893" flag="0"/>
			<psa30 value="6.32645295062547e-05" flag="0"/>
		</comp>
		<comp name=".HLZ" depth="1.0">
			<acc value="0.0001315362772257" flag="0"/>
			<vel value="0.000188895162522" flag="0"/>
			<psa03 value="0.000206133487688874" flag="0"/>
			<psa10 value="9.34437097185252e-05" flag="0"/>
			<psa30 value="7.47293514942989e-05" flag="0"/>
		</comp>
	</station>
	<station code="ARI" name="ARI" netid="IT" source="Italian Strong Motion Network (RAN)" insttype="" lat="41.15463" lon="15.09039">
		<comp name="00.HGE" depth="0.0">
			<acc value="0.0068339460803112" flag="0"/>
			<vel value="0.00125497108712" flag="0"/>
			<psa03 value="0.00313228790234568" flag="0"/>
			<psa10 value="0.00208480224854181" flag="0"/>
			<psa30 value="0.000241019273635894" flag="0"/>
		</comp>
		<comp name="00.HGN" depth="0.0">
			<acc value="0.0048691120659366" flag="0"/>
			<vel value="0.0012827650254" flag="0"/>
			<psa03 value="0.00281846307653364" flag="0"/>
			<psa10 value="0.00223409612290519" flag="0"/>
			<psa30 value="0.000301459032681331" flag="0"/>
		</comp>
		<comp name="00.HGZ" depth="0.0">
			<acc value="0.0070910659018086" flag="0"/>
			<vel value="0.00107411385773" flag="0"/>
			<psa03 value="0.00167885079895877" flag="0"/>
			<psa10 value="0.000946554032682234" flag="0"/>
			<psa30 value="0.000197125532557565" flag="0"/>
		</comp>
	</station>
	<station code="ARL" name="ARL" netid="IT" source="Italian Strong Motion Network (RAN)" insttype="" lat="41.057068" lon="14.542928">
		<comp name="00.HNE" depth="0.0">
			<acc value="0.001456879125207" flag="0"/>
			<vel value="0.000716385443846" flag="0"/>
			<psa03 value="0.00301102824188498" flag="0"/>
			<psa10 value="0.000965956704734108" flag="0"/>
			<psa30 value="0.000160197604492797" flag="0"/>
		</comp>
		<comp name="00.HNN" depth="0.0">
			<acc value="0.0013131648596106" flag="0"/>
			<vel value="0.000709463242651" flag="0"/>
			<psa03 value="0.0048410589776395" flag="0"/>
			<psa10 value="0.000734097009228699" flag="0"/>
			<psa30 value="0.000171032176396581" flag="0"/>
		</comp>
		<comp name="00.HNZ" depth="0.0">
			<acc value="0.00092429605637784" flag="0"/>
			<vel value="0.000505419846453" flag="0"/>
			<psa03 value="0.00221494051149015" flag="0"/>
			<psa10 value="0.000499484396982794" flag="0"/>
			<psa30 value="0.000139801461681765" flag="0"/>
		</comp>
	</station>
	<station code="ARR" name="ARR" netid="IT" source="Italian Strong Motion Network (RAN)" insttype="" lat="41.141762" lon="15.082042">
		<comp name="00.HNE" depth="0.0">
			<acc value="0.018267589947792" flag="0"/>
			<vel value="0.00222779153949" flag="0"/>
			<psa03 value="0.00400226480487995" flag="0"/>
			<psa10 value="0.00334837579783895" flag="0"/>
			<psa30 value="0.000238091371343196" flag="0"/>
		</comp>
		<comp name="00.HNN" depth="0.0">
			<acc value="0.010333314817836" flag="0"/>
			<vel value="0.00168116951819" flag="0"/>
			<psa03 value="0.00269941922041114" flag="0"/>
			<psa10 value="0.0026370685209716" flag="0"/>
			<psa30 value="0.000295460770742702" flag="0"/>
		</comp>
		<comp name="00.HNZ" depth="0.0">
			<acc value="0.0083824166773506" flag="0"/>
			<vel value="0.00101200989618" flag="0"/>
			<psa03 value="0.00234000673922219" flag="0"/>
			<psa10 value="0.00141843126879669" flag="0"/>
			<psa30 value="0.000231560391822968" flag="0"/>
		</comp>
	</station>
	<station code="AVHO" name="AVHO" netid="IT" source="Italian Strong Motion Network (RAN)" insttype="" lat="40.9221000671" lon="14.798500061">
		<comp name="00.HNE" depth="0.0">
			<acc value="0.0040375674034836" flag="0"/>
			<vel value="0.00129615472052" flag="0"/>
			<psa03 value="0.00388675161884472" flag="0"/>
			<psa10 value="0.00190886625770873" flag="0"/>
			<psa30 value="0.000265265072509305" flag="0"/>
		</comp>
		<comp name="00.HNN" depth="0.0">
			<acc value="0.0041455086939348" flag="0"/>
			<vel value="0.0017901198456" flag="0"/>
			<psa03 value="0.00409299151820323" flag="0"/>
			<psa10 value="0.00267329967111006" flag="0"/>
			<psa30 value="0.000527822465648074" flag="0"/>
		</comp>
		<comp name="00.HNZ" depth="0.0">
			<acc value="0.0018044868183678" flag="0"/>
			<vel value="0.00100340548009" flag="0"/>
			<psa03 value="0.0021787483352928" flag="0"/>
			<psa10 value="0.00146074332957851" flag="0"/>
			<psa30 value="0.000282268256178208" flag="0"/>
		</comp>
	</station>
	<station code="AVL" name="AVL" netid="IT" source="Italian Strong Motion Network (RAN)" insttype="" lat="40.922832" lon="14.787044">
		<comp name="00.HNE" depth="0.0">
			<acc value="0.0053706334695996" flag="0"/>
			<vel value="0.0010549816663" flag="0"/>
			<psa03 value="0.00295493858872043" flag="0"/>
			<psa10 value="0.00154647635271925" flag="0"/>
			<psa30 value="0.000231337147867195" flag="0"/>
		</comp>
		<comp name="00.HNN" depth="0.0">
			<acc value="0.0047787216367602" flag="0"/>
			<vel value="0.00112582204262" flag="0"/>
			<psa03 value="0.00386887152812653" flag="0"/>
			<psa10 value="0.00116115988989437" flag="0"/>
			<psa30 value="0.00021932275822281" flag="0"/>
		</comp>
		<comp name="00.HNZ" depth="0.0">
			<acc value="0.0037986525367332" flag="0"/>
			<vel value="0.000718115911667" flag="0"/>
			<psa03 value="0.00160750525235247" flag="0"/>
			<psa10 value="0.00116143951779145" flag="0"/>
			<psa30 value="0.000236688752384825" flag="0"/>
		</comp>
	</station>
	<station code="BAN" name="BAN" netid="IT" source="Italian Strong Motion Network (RAN)" insttype="" lat="40.8138" lon="14.1652">
		<comp name="00.HNE" depth="0.0">
			<acc value="4.9962469399128" flag="0"/>
			<vel value="1.04557876328" flag="0"/>
			<psa03 value="3.05786256838927" flag="0"/>
			<psa10 value="0.173808158937596" flag="0"/>
			<psa30 value="0.0325193909167296" flag="0"/>
		</comp>
		<comp name="00.HNN" depth="0.0">
			<acc value="3.4270255761648" flag="0"/>
			<vel value="0.9080397553" flag="0"/>
			<psa03 value="3.2300809770108" flag="0"/>
			<psa10 value="0.240462389453036" flag="0"/>
			<psa30 value="0.0194982299953665" flag="0"/>
		</comp>
		<comp name="00.HNZ" depth="0.0">
			<acc value="3.6336115193124" flag="0"/>
			<vel value="1.10797615836" flag="0"/>
			<psa03 value="4.70838457405852" flag="0"/>
			<psa10 value="0.200445198510642" flag="0"/>
			<psa30 value="0.0201724763275776" flag="0"/>
		</comp>
	</station>
	<station code="BCLI" name="BCLI" netid="IT" source="Italian Strong Motion Network (RAN)" insttype="" lat="40.796799" lon="14.0777">
		<comp name="00.HNE" depth="0.0">
			<acc value="0.32177394019908" flag="0"/>
			<vel value="0.194174493068" flag="0"/>
			<psa03 value="0.913361089021701" flag="0"/>
			<psa10 value="0.16993209716732" flag="0"/>
			<psa30 value="0.0132045172344777" flag="0"/>
		</comp>
		<comp name="00.HNN" depth="0.0">
			<acc value="0.36481153204908" flag="0"/>
			<vel value="0.215934981901" flag="0"/>
			<psa03 value="1.11819332482036" flag="0"/>
			<psa10 value="0.179865260190775" flag="0"/>
			<psa30 value="0.0128946908766661" flag="0"/>
		</comp>
		<comp name="00.HNZ" depth="0.0">
			<acc value="0.3758614796646" flag="0"/>
			<vel value="0.170169949752" flag="0"/>
			<psa03 value="1.4383422831194" flag="0"/>
			<psa10 value="0.0863850525857403" flag="0"/>
			<psa30 value="0.00661518322343201" flag="0"/>
		</comp>
	</station>
	<station code="BNE" name="BNE" netid="IT" source="Italian Strong Motion Network (RAN)" insttype="" lat="41.127556" lon="14.784882">
		<comp name="00.HGE" depth="0.0">
			<acc value="0.03284560188348" flag="0"/>
			<vel value="0.00173983515712" flag="0"/>
			<psa03 value="0.00148847132527281" flag="0"/>
			<psa10 value="0.00187011529220998" flag="0"/>
			<psa30 value="0.000241240199729261" flag="0"/>
		</comp>
		<comp name="00.HGN" depth="0.0">
			<acc value="0.023733727265178" flag="0"/>
			<vel value="0.00167788193956" flag="0"/>
			<psa03 value="0.00205773543596728" flag="0"/>
			<psa10 value="0.00163348961692005" flag="0"/>
			<psa30 value="0.000308515255329984" flag="0"/>
		</comp>
		<comp name="00.HGZ" depth="0.0">
			<acc value="0.0089915217059964" flag="0"/>
			<vel value="0.000759171290318" flag="0"/>
			<psa03 value="0.001120663268391" flag="0"/>
			<psa10 value="0.00128761814994515" flag="0"/>
			<psa30 value="0.000155725003517194" flag="0"/>
		</comp>
	</station>
	<station code="BNPI" name="BNPI" netid="IT" source="Italian Strong Motion Network (RAN)" insttype="" lat="41.1172981262" lon="14.7651996613">
		<comp name="00.HNE" depth="0.0">
			<acc value="0.0022724947667874" flag="0"/>
			<vel value="0.00163675408663" flag="0"/>
			<psa03 value="0.00625901163401537" flag="0"/>
			<psa10 value="0.00187959345915377" flag="0"/>
			<psa30 value="0.000333542277830437" flag="0"/>
		</comp>
		<comp name="00.HNN" depth="0.0">
			<acc value="0.001911832290201" flag="0"/>
			<vel value="0.00129910665757" flag="0"/>
			<psa03 value="0.00439961892712167" flag="0"/>
			<psa10 value="0.00178755322131408" flag="0"/>
			<psa30 value="0.000355979779830108" flag="0"/>
		</comp>
		<comp name="00.HNZ" depth="0.0">
			<acc value="0.0017164318697274" flag="0"/>
			<vel value="0.000873774261627" flag="0"/>
			<psa03 value="0.00171791491020061" flag="0"/>
			<psa10 value="0.0014039919919533" flag="0"/>
			<psa30 value="0.000282699664965242" flag="0"/>
		</comp>
	</station>
	<station code="BNV" name="BNV" netid="IT" source="Italian Strong Motion Network (RAN)" insttype="" lat="41.117723" lon="14.797374">
		<comp name="00.HGE" depth="0.0">
			<acc value="0.002101437619149" flag="0"/>
			<vel value="0.00108469553493" flag="0"/>
			<psa03 value="0.00277082678284329" flag="0"/>
			<psa10 value="0.00148291491552091" flag="0"/>
			<psa30 value="0.000315520563147036" flag="0"/>
		</comp>
		<comp name="00.HGN" depth="0.0">
			<acc value="0.003530574607947" flag="0"/>
			<vel value="0.00103012672015" flag="0"/>
			<psa03 value="0.00194150621942439" flag="0"/>
			<psa10 value="0.00173133219226147" flag="0"/>
			<psa30 value="0.000344015107021027" flag="0"/>
		</comp>
		<comp name="00.HGZ" depth="0.0">
			<acc value="0.0012431027037384" flag="0"/>
			<vel value="0.00089723058431" flag="0"/>
			<psa03 value="0.00125198666518651" flag="0"/>
			<psa10 value="0.00121536269931351" flag="0"/>
			<psa30 value="0.000290455699597822" flag="0"/>
		</comp>
	</station>
	<station code="BOI" name="BOI" netid="IT" source="Italian Strong Motion Network (RAN)" insttype="" lat="41.481264" lon="14.47253">
		<comp name="00.HGE" depth="0.0">
			<acc value="0.0020992377200322" flag="0"/>
			<vel value="0.000615684814517" flag="0"/>
			<psa03 value="0.00143201950619151" flag="0"/>
			<psa10 value="0.000997270400205252" flag="0"/>
			<psa30 value="0.000166351176199167" flag="0"/>
		</comp>
		<comp name="00.HGN" depth="0.0">
			<acc value="0.002940759678225" flag="0"/>
			<vel value="0.00063294732527" flag="0"/>
			<psa03 value="0.00158460741387238" flag="0"/>
			<psa10 value="0.000916214640037125" flag="0"/>
			<psa30 value="0.000129029341831401" flag="0"/>
		</comp>
		<comp name="00.HGZ" depth="0.0">
			<acc value="0.0030375740177478" flag="0"/>
			<vel value="0.00051900005073" flag="0"/>
			<psa03 value="0.00131742809345952" flag="0"/>
			<psa10 value="0.000639524650526841" flag="0"/>
			<psa30 value="0.000151462012781469" flag="0"/>
		</comp>
	</station>
	<station code="BOJ" name="BOJ" netid="IT" source="Italian Strong Motion Network (RAN)" insttype="" lat="41.484451" lon="14.472103">
		<comp name="00.HNE" depth="0.0">
			<acc value="0.0021615079979232" flag="0"/>
			<vel value="0.00220273071131" flag="0"/>
			<psa03 value="0.00359046278543514" flag="0"/>
			<psa10 value="0.00390804763897809" flag="0"/>
			<psa30 value="0.000371698711756953" flag="0"/>
		</comp>
		<comp name="00.HNN" depth="0.0">
			<acc value="0.0016944695772618" flag="0"/>
			<vel value="0.00156304980093" flag="0"/>
			<psa03 value="0.00415156375770346" flag="0"/>
			<psa10 value="0.00302883963013418" flag="0"/>
			<psa30 value="0.000310443403893522" flag="0"/>
		</comp>
		<comp name="00.HNZ" depth="0.0">
			<acc value="0.0032940524099094" flag="0"/>
			<vel value="0.00123630476769" flag="0"/>
			<psa03 value="0.00306252123637733" flag="0"/>
			<psa10 value="0.00228153957829798" flag="0"/>
			<psa30 value="0.00015972666183651" flag="0"/>
		</comp>
	</station>
	<station code="CBHG" name="CBHG" netid="IT" source="Italian Strong Motion Network (RAN)" insttype="" lat="41.5479011536" lon="14.6147003174">
		<comp name="00.HNE" depth="0.0">
			<acc value="0.00161810911266" flag="0"/>
			<vel value="0.00062342248163" flag="0"/>
			<psa03 value="0.00138517444330258" flag="0"/>
			<psa10 value="0.00053977677318585" flag="0"/>
			<psa30 value="0.000214353040982591" flag="0"/>
		</comp>
		<comp name="00.HNN" depth="0.0">
			<acc value="0.0018242768356626" flag="0"/>
			<vel value="0.000580765845712" flag="0"/>
			<psa03 value="0.00159381749664955" flag="0"/>
			<psa10 value="0.000750614626879711" flag="0"/>
			<psa30 value="0.000228866567536659" flag="0"/>
		</comp>
		<comp name="00.HNZ" depth="0.0">
			<acc value="0.001515386071482" flag="0"/>
			<vel value="0.000496139268318" flag="0"/>
			<psa03 value="0.000638016915553953" flag="0"/>
			<psa10 value="0.000473598922432218" flag="0"/>
			<psa30 value="0.000121608550761179" flag="0"/>
		</comp>
	</station>
	<station code="CMG" name="CMG" netid="IT" source="Italian Strong Motion Network (RAN)" insttype="" lat="40.670071" lon="15.101825">
		<comp name="00.HNE" depth="0.0">
			<acc value="0.0005828030577309" flag="0"/>
			<vel value="0.000371118483257" flag="0"/>
			<psa03 value="0.00104695729523443" flag="0"/>
			<psa10 value="0.000406912561427167" flag="0"/>
			<psa30 value="7.71491407000666e-05" flag="0"/>
		</comp>
		<comp name="00.HNN" depth="0.0">
			<acc value="0.00059014797758424" flag="0"/>
			<vel value="0.000454481119849" flag="0"/>
			<psa03 value="0.00138529440567296" flag="0"/>
			<psa10 value="0.000803244207080348" flag="0"/>
			<psa30 value="8.8415870138289e-05" flag="0"/>
		</comp>
		<comp name="00.HNZ" depth="0.0">
			<acc value="0.0007534367733813" flag="0"/>
			<vel value="0.000364096422096" flag="0"/>
			<psa03 value="0.00154197796227267" flag="0"/>
			<psa10 value="0.000516097645966283" flag="0"/>
			<psa30 value="8.79499668786116e-05" flag="0"/>
		</comp>
	</station>
	<station code="CML" name="CML" netid="IT" source="Italian Strong Motion Network (RAN)" insttype="" lat="40.746983" lon="13.901292">
		<comp name="00.HGE" depth="0.0">
			<acc value="0.018366936162996" flag="0"/>
			<vel value="0.0123811892033" flag="0"/>
			<psa03 value="0.0341894315486957" flag="0"/>
			<psa10 value="0.0135019941283437" flag="0"/>
			<psa30 value="0.00130651134163121" flag="0"/>
		</comp>
		<comp name="00.HGN" depth="0.0">
			<acc value="0.015019446466014" flag="0"/>
			<vel value="0.0125712510829" flag="0"/>
			<psa03 value="0.0517774768785849" flag="0"/>
			<psa10 value="0.0144962853077569" flag="0"/>
			<psa30 value="0.0013598820646797" flag="0"/>
		</comp>
		<comp name="00.HGZ" depth="0.0">
			<acc value="0.012242608781886" flag="0"/>
			<vel value="0.00622468066837" flag="0"/>
			<psa03 value="0.0534484625734255" flag="0"/>
			<psa10 value="0.00398829264231296" flag="0"/>
			<psa30 value="0.000477151296431938" flag="0"/>
		</comp>
	</station>
	<station code="CNC" name="CNC" netid="IT" source="Italian Strong Motion Network (RAN)" insttype="" lat="41.077715" lon="14.025084">
		<comp name="00.HGE" depth="0.0">
			<acc value="0.016012964759874" flag="0"/>
			<vel value="0.012831844761" flag="0"/>
			<psa03 value="0.0460165379531791" flag="0"/>
			<psa10 value="0.0263281934886237" flag="0"/>
			<psa30 value="0.00345074442821474" flag="0"/>
		</comp>
		<comp name="00.HGN" depth="0.0">
			<acc value="0.021059225754384" flag="0"/>
			<vel value="0.0177298992106" flag="0"/>
			<psa03 value="0.0521223695179303" flag="0"/>
			<psa10 value="0.0256743751763631" flag="0"/>
			<psa30 value="0.00322498238925371" flag="0"/>
		</comp>
		<comp name="00.HGZ" depth="0.0">
			<acc value="0.015387490511322" flag="0"/>
			<vel value="0.0105170978602" flag="0"/>
			<psa03 value="0.0385843476903536" flag="0"/>
			<psa10 value="0.0154702688918978" flag="0"/>
			<psa30 value="0.00332563176511465" flag="0"/>
		</comp>
	</station>
	<station code="ISR" name="ISR" netid="IT" source="Italian Strong Motion Network (RAN)" insttype="" lat="41.6106" lon="14.2359">
		<comp name="00.HNE" depth="0.0">
			<acc value="0.00099070815428196" flag="0"/>
			<vel value="0.000682668675444" flag="0"/>
			<psa03 value="0.00254127381566759" flag="0"/>
			<psa10 value="0.000764507012024763" flag="0"/>
			<psa30 value="7.84766505157447e-05" flag="0"/>
		</comp>
		<comp name="00.HNN" depth="0.0">
			<acc value="0.00090265380018528" flag="0"/>
			<vel value="0.000897747077163" flag="0"/>
			<psa03 value="0.0022004550141357" flag="0"/>
			<psa10 value="0.00118691331468154" flag="0"/>
			<psa30 value="0.000149485944376846" flag="0"/>
		</comp>
		<comp name="00.HNZ" depth="0.0">
			<acc value="0.00093214034108898" flag="0"/>
			<vel value="0.000496194643284" flag="0"/>
			<psa03 value="0.00242830930107523" flag="0"/>
			<psa10 value="0.000537456365564499" flag="0"/>
			<psa30 value="8.48244017523241e-05" flag="0"/>
		</comp>
	</station>
	<station code="MRC" name="MRC" netid="IT" source="Italian Strong Motion Network (RAN)" insttype="" lat="41.34443" lon="14.69416">
		<comp name="00.HGE" depth="0.0">
			<acc value="0.0015080575598046" flag="0"/>
