<?xml version="1.0" encoding="UTF-8" standalone="yes"?>
<!DOCTYPE earthquake SYSTEM "stationlist.dtd">
<stationlist created="" xmlns="ch.ethz.sed.shakemap.usgs.xml">
  <station code="CAAM" name="CAAM" netid="IV" insttype="" lat="40.8201" lon="14.142">
    <comp name="--.HNE">
      <acc value="58.9159973009" flag="0"/>
      <vel value="10.1724511836" flag="0"/>
      <psa03 value="17.4680478791" flag="0"/>
      <psa10 value="1.1942968157" flag="0"/>
      <psa30 value="0.1235854343" flag="0"/>
    </comp>
    <comp name="--.HNZ">
      <acc value="53.4774993539" flag="0"/>
      <vel value="8.0619362971" flag="0"/>
      <psa03 value="25.6058143678" flag="0"/>
      <psa10 value="2.1799952639" flag="0"/>
      <psa30 value="0.1389021970" flag="0"/>
    </comp>
    <comp name="--.HNN">
      <acc value="60.8614101440" flag="0"/>
      <vel value="9.8483921201" flag="0"/>
      <psa03 value="33.0189864742" flag="0"/>
      <psa10 value="3.2625743490" flag="0"/>
      <psa30 value="0.3286864469" flag="0"/>
    </comp>
  </station>
  <station code="CBAC" name="CBAC" netid="IV" insttype="" lat="40.8109" lon="14.0806">
    <comp name="--.HHE">
      <acc value="0.1409472674" flag="0"/>
      <vel value="0.1030599430" flag="0"/>
      <psa03 value="0.2807134462" flag="0"/>
      <psa10 value="0.1867470483" flag="0"/>
      <psa30 value="0.0113782435" flag="0"/>
    </comp>
    <comp name="--.HHN">
      <acc value="0.1972077850" flag="0"/>
      <vel value="0.0880433434" flag="0"/>
      <psa03 value="0.3046556045" flag="0"/>
      <psa10 value="0.2061614132" flag="0"/>
      <psa30 value="0.0098950495" flag="0"/>
    </comp>
    <comp name="--.HHZ">
      <acc value="0.1293246304" flag="0"/>
      <vel value="0.0599223883" flag="0"/>
      <psa03 value="0.2607168514" flag="0"/>
      <psa10 value="0.0743685810" flag="0"/>
      <psa30 value="0.0067079275" flag="0"/>
    </comp>
  </station>
  <station code="CDRU" name="CDRU" netid="IV" insttype="" lat="40.4896" lon="15.3046">
    <comp name="--.HHE">
      <acc value="0.0003988062" flag="0"/>
      <vel value="0.0001472693" flag="0"/>
      <psa03 value="0.0009892190" flag="0"/>
      <psa10 value="0.0002344879" flag="0"/>
      <psa30 value="0.0000321157" flag="0"/>
    </comp>
    <comp name="--.HHZ">
      <acc value="0.0002627035" flag="0"/>
      <vel value="0.0001236662" flag="0"/>
      <psa03 value="0.0009127296" flag="0"/>
      <psa10 value="0.0001492799" flag="0"/>
      <psa30 value="0.0000183536" flag="0"/>
    </comp>
    <comp name="--.HHN">
      <acc value="0.0002552376" flag="0"/>
      <vel value="0.0001405421" flag="0"/>
      <psa03 value="0.0009285775" flag="0"/>
      <psa10 value="0.0001899279" flag="0"/>
      <psa30 value="0.0000305571" flag="0"/>
    </comp>
  </station>
  <station code="CERA" name="CERA" netid="IV" insttype="" lat="41.5978" lon="14.0183">
    <comp name="--.HHN">
      <acc value="0.0011220718" flag="0"/>
      <vel value="0.0009428466" flag="0"/>
      <psa03 value="0.0035356221" flag="0"/>
      <psa10 value="0.0008159369" flag="0"/>
      <psa30 value="0.0000639974" flag="0"/>
    </comp>
    <comp name="--.HHE">
      <acc value="0.0011243633" flag="0"/>
      <vel value="0.0008383435" flag="0"/>
      <psa03 value="0.0038604708" flag="0"/>
      <psa10 value="0.0008998113" flag="0"/>
      <psa30 value="0.0000984767" flag="0"/>
    </comp>
    <comp name="--.HHZ">
      <acc value="0.0005523389" flag="0"/>
      <vel value="0.0004786202" flag="0"/>
      <psa03 value="0.0014694291" flag="0"/>
      <psa10 value="0.0005461271" flag="0"/>
      <psa30 value="0.0000744687" flag="0"/>
    </comp>
  </station>
  <station code="CFMN" name="CFMN" netid="IV" insttype="" lat="40.8329" lon="14.0904">
    <comp name="--.HHE">
      <acc value="0.5443008017" flag="0"/>
      <vel value="0.1592045915" flag="0"/>
      <psa03 value="1.0898946342" flag="0"/>
      <psa10 value="0.0965843714" flag="0"/>
      <psa30 value="0.0127175450" flag="0"/>
    </comp>
    <comp name="--.HHN">
      <acc value="0.7079982957" flag="0"/>
      <vel value="0.1507390875" flag="0"/>
      <psa03 value="0.5048561559" flag="0"/>
      <psa10 value="0.1149440320" flag="0"/>
      <psa30 value="0.0060184414" flag="0"/>
    </comp>
    <comp name="--.HHZ">
      <acc value="0.5684405275" flag="0"/>
      <vel value="0.1277888154" flag="0"/>
      <psa03 value="0.5502173674" flag="0"/>
      <psa10 value="0.1144601045" flag="0"/>
      <psa30 value="0.0047970883" flag="0"/>
    </comp>
  </station>
  <station code="CMIS" name="CMIS" netid="IV" insttype="" lat="40.7782" lon="14.089">
    <comp name="--.HHE">
      <acc value="0.1971502827" flag="0"/>
      <vel value="0.1246704597" flag="0"/>
      <psa03 value="0.8550318739" flag="0"/>
      <psa10 value="0.0662421646" flag="0"/>
      <psa30 value="0.0092739271" flag="0"/>
    </comp>
    <comp name="--.HHN">
      <acc value="0.2714023164" flag="0"/>
      <vel value="0.1424947580" flag="0"/>
      <psa03 value="0.6487034128" flag="0"/>
      <psa10 value="0.1179111249" flag="0"/>
      <psa30 value="0.0071703418" flag="0"/>
    </comp>
    <comp name="--.HHZ">
      <acc value="0.2248987621" flag="0"/>
      <vel value="0.0708923575" flag="0"/>
      <psa03 value="0.5489820497" flag="0"/>
      <psa10 value="0.0423735745" flag="0"/>
      <psa30 value="0.0032305769" flag="0"/>
    </comp>
  </station>
  <station code="CMPR" name="CMPR" netid="IV" insttype="" lat="40.3181" lon="15.303">
    <comp name="--.HHE">
      <acc value="0.0003365234" flag="0"/>
      <vel value="0.0002205607" flag="0"/>
      <psa03 value="0.0012152632" flag="0"/>
      <psa10 value="0.0004549152" flag="0"/>
      <psa30 value="0.0000226604" flag="0"/>
    </comp>
    <comp name="--.HHN">
      <acc value="0.0003719598" flag="0"/>
      <vel value="0.0001273191" flag="0"/>
      <psa03 value="0.0008665490" flag="0"/>
      <psa10 value="0.0002364849" flag="0"/>
      <psa30 value="0.0000246989" flag="0"/>
    </comp>
    <comp name="--.HHZ">
      <acc value="0.0002820982" flag="0"/>
      <vel value="0.0001287449" flag="0"/>
      <psa03 value="0.0005093522" flag="0"/>
      <psa10 value="0.0002665293" flag="0"/>
      <psa30 value="0.0000214350" flag="0"/>
    </comp>
  </station>
  <station code="CMSN" name="CMSN" netid="IV" insttype="" lat="40.8382" lon="14.1818">
    <comp name="--.HHE">
      <acc value="2.6476382262" flag="0"/>
      <vel value="0.4183949960" flag="0"/>
      <psa03 value="1.9669729737" flag="0"/>
      <psa10 value="0.2623477745" flag="0"/>
      <psa30 value="0.0163720336" flag="0"/>
    </comp>
    <comp name="--.HHN">
      <acc value="2.2207201078" flag="0"/>
      <vel value="0.3741664723" flag="0"/>
      <psa03 value="1.8745678628" flag="0"/>
      <psa10 value="0.1529675495" flag="0"/>
      <psa30 value="0.0153635088" flag="0"/>
    </comp>
    <comp name="--.HHZ">
      <acc value="1.5126337153" flag="0"/>
      <vel value="0.2481838561" flag="0"/>
      <psa03 value="0.9285093323" flag="0"/>
      <psa10 value="0.0912862706" flag="0"/>
      <psa30 value="0.0075322605" flag="0"/>
    </comp>
  </station>
  <station code="CNIS" name="CNIS" netid="IV" insttype="" lat="40.7982" lon="14.1632">
    <comp name="--.HHE">
      <acc value="0.2173972481" flag="0"/>
      <vel value="0.0867883922" flag="0"/>
      <psa03 value="0.4637534191" flag="0"/>
      <psa10 value="0.0840160902" flag="0"/>
      <psa30 value="0.0090920659" flag="0"/>
    </comp>
    <comp name="--.HHZ">
      <acc value="0.2583722530" flag="0"/>
      <vel value="0.0855873583" flag="0"/>
      <psa03 value="0.4014807897" flag="0"/>
      <psa10 value="0.0752634516" flag="0"/>
      <psa30 value="0.0113421137" flag="0"/>
    </comp>
    <comp name="--.HHN">
      <acc value="0.2244421323" flag="0"/>
      <vel value="0.1080215942" flag="0"/>
      <psa03 value="0.3707336564" flag="0"/>
      <psa10 value="0.0925548669" flag="0"/>
      <psa30 value="0.0136515784" flag="0"/>
    </comp>
  </station>
  <station code="COLB" name="COLB" netid="IV" insttype="" lat="40.819" lon="14.1446">
    <comp name="--.HNE">
      <acc value="90489369.3152071834" flag="0"/>
      <vel value="19416594.9341020212" flag="0"/>
      <psa03 value="40894489.5820373669" flag="0"/>
      <psa10 value="2667939.5125654684" flag="0"/>
      <psa30 value="327359.5011984719" flag="0"/>
    </comp>
    <comp name="--.HNN">
      <acc value="92114823.1029245406" flag="0"/>
      <vel value="14820614.5596372522" flag="0"/>
      <psa03 value="55830708.9983619973" flag="0"/>
      <psa10 value="3198983.6660513962" flag="0"/>
      <psa30 value="396080.5788615430" flag="0"/>
    </comp>
    <comp name="--.HNZ">
      <acc value="81477670.0140022486" flag="0"/>
      <vel value="9970905.3254000992" flag="0"/>
      <psa03 value="30845530.3160148039" flag="0"/>
      <psa10 value="2248515.5336584938" flag="0"/>
      <psa30 value="214738.4306187335" flag="0"/>
    </comp>
  </station>
  <station code="CRTO" name="CRTO" netid="IV" insttype="" lat="40.8212" lon="14.4223">
    <comp name="--.HHE">
      <acc value="0.0586672496" flag="0"/>
      <vel value="0.0285822023" flag="0"/>
      <psa03 value="0.2251377482" flag="0"/>
      <psa10 value="0.0440960124" flag="0"/>
      <psa30 value="0.0014814480" flag="0"/>
    </comp>
    <comp name="--.HHN">
      <acc value="0.0603109181" flag="0"/>
      <vel value="0.0247327435" flag="0"/>
      <psa03 value="0.1322724091" flag="0"/>
      <psa10 value="0.0303506774" flag="0"/>
      <psa30 value="0.0015381937" flag="0"/>
    </comp>
    <comp name="--.HHZ">
      <acc value="0.0303140469" flag="0"/>
      <vel value="0.0094315471" flag="0"/>
      <psa03 value="0.0494407056" flag="0"/>
      <psa10 value="0.0061924159" flag="0"/>
      <psa30 value="0.0005078686" flag="0"/>
    </comp>
  </station>
  <station code="CSOB" name="CSOB" netid="IV" insttype="" lat="40.8265" lon="14.144">
    <comp name="--.HNE">
      <acc value="27.6705968701" flag="0"/>
      <vel value="3.1791991680" flag="0"/>
      <psa03 value="8.4396004938" flag="0"/>
      <psa10 value="0.3610072143" flag="0"/>
      <psa30 value="0.0326841672" flag="0"/>
    </comp>
    <comp name="--.HNN">
      <acc value="57.9664310643" flag="0"/>
      <vel value="7.8628287815" flag="0"/>
      <psa03 value="9.8976133088" flag="0"/>
      <psa10 value="1.2702497169" flag="0"/>
      <psa30 value="0.1207740561" flag="0"/>
    </comp>
    <comp name="--.HNZ">
      <acc value="17.4370745386" flag="0"/>
      <vel value="1.5992281732" flag="0"/>
      <psa03 value="5.0713874422" flag="0"/>
      <psa10 value="0.2990432064" flag="0"/>
      <psa30 value="0.0280823695" flag="0"/>
    </comp>
  </station>
  <station code="IBCM" name="IBCM" netid="IV" insttype="" lat="40.7109" lon="13.9161">
    <comp name="--.HNE">
      <acc value="0.0125227459" flag="0"/>
      <vel value="0.0109231058" flag="0"/>
      <psa03 value="0.0362544354" flag="0"/>
      <psa10 value="0.0175115768" flag="0"/>
      <psa30 value="0.0010207087" flag="0"/>
    </comp>
    <comp name="--.HNN">
      <acc value="0.0128302169" flag="0"/>
      <vel value="0.0107624042" flag="0"/>
      <psa03 value="0.0302088778" flag="0"/>
      <psa10 value="0.0133850484" flag="0"/>
      <psa30 value="0.0006464445" flag="0"/>
    </comp>
    <comp name="--.HNZ">
      <acc value="0.0086396211" flag="0"/>
      <vel value="0.0056290913" flag="0"/>
      <psa03 value="0.0173191352" flag="0"/>
      <psa10 value="0.0091268471" flag="0"/>
      <psa30 value="0.0003716117" flag="0"/>
    </comp>
  </station>
  <station code="IFOR" name="IFOR" netid="IV" insttype="" lat="40.7115" lon="13.8552">
    <comp name="--.HHE">
      <acc value="0.0202901532" flag="0"/>
      <vel value="0.0137831310" flag="0"/>
      <psa03 value="0.0574650533" flag="0"/>
      <psa10 value="0.0294144422" flag="0"/>
      <psa30 value="0.0007968067" flag="0"/>
    </comp>
    <comp name="--.HHN">
      <acc value="0.0291138125" flag="0"/>
      <vel value="0.0165561969" flag="0"/>
      <psa03 value="0.0956293717" flag="0"/>
      <psa10 value="0.0258636417" flag="0"/>
      <psa30 value="0.0017076674" flag="0"/>
    </comp>
    <comp name="--.HHZ">
      <acc value="0.0147897888" flag="0"/>
      <vel value="0.0056001900" flag="0"/>
      <psa03 value="0.0296727350" flag="0"/>
      <psa10 value="0.0081630937" flag="0"/>
      <psa30 value="0.0004079554" flag="0"/>
    </comp>
  </station>
  <station code="IOCA" name="IOCA" netid="IV" insttype="" lat="40.7468" lon="13.9014">
    <comp name="--.HHE">
      <acc value="0.0137906478" flag="0"/>
      <vel value="0.0118584393" flag="0"/>
      <psa03 value="0.0394815412" flag="0"/>
      <psa10 value="0.0124265125" flag="0"/>
      <psa30 value="0.0013452693" flag="0"/>
    </comp>
    <comp name="--.HHN">
      <acc value="0.0167943678" flag="0"/>
      <vel value="0.0127088488" flag="0"/>
      <psa03 value="0.0495803403" flag="0"/>
      <psa10 value="0.0135655963" flag="0"/>
      <psa30 value="0.0013536046" flag="0"/>
    </comp>
    <comp name="--.HHZ">
      <acc value="0.0122162999" flag="0"/>
      <vel value="0.0051496543" flag="0"/>
      <psa03 value="0.0419604600" flag="0"/>
      <psa10 value="0.0037127550" flag="0"/>
      <psa30 value="0.0004601510" flag="0"/>
    </comp>
  </station>
  <station code="MRB1" name="MRB1" netid="IV" insttype="" lat="41.1227" lon="14.9681">
    <comp name="--.HHN">
      <acc value="0.0018745834" flag="0"/>
      <vel value="0.0017740318" flag="0"/>
      <psa03 value="0.0042671223" flag="0"/>
      <psa10 value="0.0030109079" flag="0"/>
      <psa30 value="0.0002492340" flag="0"/>
    </comp>
    <comp name="--.HHE">
      <acc value="0.0017137555" flag="0"/>
      <vel value="0.0013779176" flag="0"/>
      <psa03 value="0.0039280048" flag="0"/>
      <psa10 value="0.0020883061" flag="0"/>
      <psa30 value="0.0001973800" flag="0"/>
    </comp>
    <comp name="--.HHZ">
      <acc value="0.0019950245" flag="0"/>
      <vel value="0.0007832865" flag="0"/>
      <psa03 value="0.0030342981" flag="0"/>
      <psa10 value="0.0011895808" flag="0"/>
      <psa30 value="0.0001224598" flag="0"/>
    </comp>
  </station>
  <station code="OVO" name="OVO" netid="IV" insttype="" lat="40.8275" lon="14.3967">
    <comp name="--.HHE">
      <acc value="0.0161295922" flag="0"/>
      <vel value="0.0105147502" flag="0"/>
      <psa03 value="0.0669282321" flag="0"/>
      <psa10 value="0.0163404785" flag="0"/>
      <psa30 value="0.0009912805" flag="0"/>
    </comp>
    <comp name="--.HHN">
      <acc value="0.0165781252" flag="0"/>
      <vel value="0.0149759189" flag="0"/>
      <psa03 value="0.0512940599" flag="0"/>
      <psa10 value="0.0292175385" flag="0"/>
      <psa30 value="0.0011935352" flag="0"/>
    </comp>
    <comp name="--.HHZ">
      <acc value="0.0118959852" flag="0"/>
      <vel value="0.0072756513" flag="0"/>
      <psa03 value="0.0438711102" flag="0"/>
      <psa10 value="0.0064793600" flag="0"/>
      <psa30 value="0.0006150914" flag="0"/>
    </comp>
  </station>
  <station code="PAOL" name="PAOL" netid="IV" insttype="" lat="41.0312" lon="14.5675">
    <comp name="--.HHN">
      <acc value="0.0027150673" flag="0"/>
      <vel value="0.0014832831" flag="0"/>
      <psa03 value="0.0099841383" flag="0"/>
      <psa10 value="0.0019269318" flag="0"/>
      <psa30 value="0.0001290189" flag="0"/>
    </comp>
    <comp name="--.HHE">
      <acc value="0.0026412983" flag="0"/>
      <vel value="0.0013070477" flag="0"/>
      <psa03 value="0.0075552296" flag="0"/>
      <psa10 value="0.0012071539" flag="0"/>
      <psa30 value="0.0001398262" flag="0"/>
    </comp>
    <comp name="--.HHZ">
      <acc value="0.0012729816" flag="0"/>
      <vel value="0.0006797322" flag="0"/>
      <psa03 value="0.0041116116" flag="0"/>
      <psa10 value="0.0008871309" flag="0"/>
      <psa30 value="0.0001262973" flag="0"/>
    </comp>
  </station>
  <station code="PIGN" name="PIGN" netid="IV" insttype="" lat="41.2" lon="14.1799">
    <comp name="--.HHE">
      <acc value="0.0026220338" flag="0"/>
      <vel value="0.0015693718" flag="0"/>
      <psa03 value="0.0053269114" flag="0"/>
      <psa10 value="0.0011971736" flag="0"/>
      <psa30 value="0.0001749587" flag="0"/>
    </comp>
    <comp name="--.HHN">
      <acc value="0.0023647869" flag="0"/>
      <vel value="0.0012136241" flag="0"/>
      <psa03 value="0.0056376614" flag="0"/>
      <psa10 value="0.0006797571" flag="0"/>
      <psa30 value="0.0001221102" flag="0"/>
    </comp>
    <comp name="--.HHZ">
      <acc value="0.0017149494" flag="0"/>
      <vel value="0.0006454520" flag="0"/>
      <psa03 value="0.0026814336" flag="0"/>
      <psa10 value="0.0004665017" flag="0"/>
      <psa30 value="0.0000962166" flag="0"/>
    </comp>
  </station>
  <station code="POFI" name="POFI" netid="IV" insttype="" lat="41.7174" lon="13.712">
    <comp name="--.HHE">
      <acc value="0.0002172412" flag="0"/>
      <vel value="0.0002159409" flag="0"/>
      <psa03 value="0.0006819374" flag="0"/>
      <psa10 value="0.0002709411" flag="0"/>
      <psa30 value="0.0000348585" flag="0"/>
    </comp>
    <comp name="--.HHN">
      <acc value="0.0002856480" flag="0"/>
      <vel value="0.0001637933" flag="0"/>
      <psa03 value="0.0006504061" flag="0"/>
      <psa10 value="0.0002314045" flag="0"/>
      <psa30 value="0.0000405736" flag="0"/>
    </comp>
    <comp name="--.HHZ">
      <acc value="0.0001985027" flag="0"/>
      <vel value="0.0001566267" flag="0"/>
      <psa03 value="0.0005830219" flag="0"/>
      <psa10 value="0.0001964094" flag="0"/>
      <psa30 value="0.0000345024" flag="0"/>
    </comp>
  </station>
  <station code="PTMR" name="PTMR" netid="IV" insttype="" lat="40.7614" lon="14.0349">
    <comp name="--.HHE">
      <acc value="0.0568716118" flag="0"/>
      <vel value="0.0383634408" flag="0"/>
      <psa03 value="0.1361088902" flag="0"/>
      <psa10 value="0.0659962545" flag="0"/>
      <psa30 value="0.0037708537" flag="0"/>
    </comp>
    <comp name="--.HHZ">
      <acc value="0.0660001026" flag="0"/>
      <vel value="0.0285390242" flag="0"/>
      <psa03 value="0.2767914558" flag="0"/>
      <psa10 value="0.0352039632" flag="0"/>
      <psa30 value="0.0032718109" flag="0"/>
    </comp>
    <comp name="--.HHN">
      <acc value="0.0632166188" flag="0"/>
      <vel value="0.0486593867" flag="0"/>
      <psa03 value="0.1555230395" flag="0"/>
      <psa10 value="0.0436808225" flag="0"/>
      <psa30 value="0.0036739597" flag="0"/>
    </comp>
  </station>
  <station code="PTRJ" name="PTRJ" netid="IV" insttype="" lat="41.3641" lon="14.529">
    <comp name="--.HHE">
      <acc value="0.0009187733" flag="0"/>
      <vel value="0.0005703465" flag="0"/>
      <psa03 value="0.0027751643" flag="0"/>
      <psa10 value="0.0011104409" flag="0"/>
      <psa30 value="0.0000339410" flag="0"/>
    </comp>
    <comp name="--.HHN">
      <acc value="0.0007154317" flag="0"/>
      <vel value="0.0005848322" flag="0"/>
      <psa03 value="0.0025510597" flag="0"/>
      <psa10 value="0.0007025979" flag="0"/>
      <psa30 value="0.0000295553" flag="0"/>
    </comp>
    <comp name="--.HHZ">
      <acc value="0.0004593001" flag="0"/>
      <vel value="0.0003441726" flag="0"/>
      <psa03 value="0.0012963264" flag="0"/>
      <psa10 value="0.0005501194" flag="0"/>
      <psa30 value="0.0000299864" flag="0"/>
    </comp>
  </station>
  <station code="RNI2" name="RNI2" netid="IV" insttype="" lat="41.7033" lon="14.1524">
    <comp name="--.HHE">
      <acc value="0.0006265611" flag="0"/>
      <vel value="0.0004364961" flag="0"/>
      <psa03 value="0.0014978876" flag="0"/>
      <psa10 value="0.0005862540" flag="0"/>
      <psa30 value="0.0000895556" flag="0"/>
    </comp>
    <comp name="--.HHN">
      <acc value="0.0006297732" flag="0"/>
      <vel value="0.0004362537" flag="0"/>
      <psa03 value="0.0011970333" flag="0"/>
