<?xml version="1.0" encoding="UTF-8" standalone="yes"?>
<!DOCTYPE earthquake SYSTEM "stationlist.dtd">
<stationlist created="" xmlns="ch.ethz.sed.shakemap.usgs.xml">
  <station code="GAZ" name="GAZ" netid="KO" insttype="CMG-3T" lat="37.1721" lon="37.2096">
    <comp name="--.HHE">
      <acc value="0.1412295316" flag="0"/>
      <vel value="0.0729648614" flag="0"/>
      <psa03 value="0.3496302900" flag="0"/>
      <psa10 value="0.0876462111" flag="0"/>
      <psa30 value="0.0100551529" flag="0"/>
    </comp>
    <comp name="--.HHZ">
      <acc value="0.0882134736" flag="0"/>
      <vel value="0.0480663174" flag="0"/>
      <psa03 value="0.2319592245" flag="0"/>
      <psa10 value="0.0479922821" flag="0"/>
      <psa30 value="0.0049162296" flag="0"/>
    </comp>
    <comp name="--.HHN">
      <acc value="0.0760170902" flag="0"/>
      <vel value="0.0539464642" flag="0"/>
      <psa03 value="0.1866262810" flag="0"/>
      <psa10 value="0.0930992174" flag="0"/>
      <psa30 value="0.0058953785" flag="0"/>
    </comp>
  </station>
  <station code="KMRS" name="KMRS" netid="KO" insttype="CMG-3T" lat="37.5053" lon="36.9">
    <comp name="--.HHE">
      <acc value="0.0427762500" flag="0"/>
      <vel value="0.0351985725" flag="0"/>
      <psa03 value="0.0773685954" flag="0"/>
      <psa10 value="0.0399782592" flag="0"/>
      <psa30 value="0.0052696750" flag="0"/>
    </comp>
    <comp name="--.HHN">
      <acc value="0.0303693699" flag="0"/>
      <vel value="0.0314403344" flag="0"/>
      <psa03 value="0.0463564343" flag="0"/>
      <psa10 value="0.0298019508" flag="0"/>
      <psa30 value="0.0040887901" flag="0"/>
    </comp>
    <comp name="--.HHZ">
      <acc value="0.0238803926" flag="0"/>
      <vel value="0.0214172338" flag="0"/>
      <psa03 value="0.0575728794" flag="0"/>
      <psa10 value="0.0283255991" flag="0"/>
      <psa30 value="0.0029493299" flag="0"/>
    </comp>
  </station>
</stationlist>
