<?xml version="1.0" encoding="UTF-8" standalone="yes"?>
<!DOCTYPE earthquake SYSTEM "stationlist.dtd">
<stationlist created="" xmlns="ch.ethz.sed.shakemap.usgs.xml">
  <station code="GAZ" name="GAZ" netid="KO" insttype="CMG-3T" lat="37.1721" lon="37.2096">
    <comp name="--.HHE">
      <acc value="0.1412295316" flag="0"/>
      <vel value="0.0729648609" flag="0"/>
      <psa03 value="0.3496302900" flag="0"/>
      <psa10 value="0.0876462112" flag="0"/>
      <psa30 value="0.0100551433" flag="0"/>
    </comp>
    <comp name="--.HHZ">
      <acc value="0.0882134733" flag="0"/>
      <vel value="0.0480663175" flag="0"/>
      <psa03 value="0.2319592245" flag="0"/>
      <psa10 value="0.0479922821" flag="0"/>
      <psa30 value="0.0049161970" flag="0"/>
    </comp>
    <comp name="--.HHN">
      <acc value="0.0760170903" flag="0"/>
      <vel value="0.0539464640" flag="0"/>
      <psa03 value="0.1866262810" flag="0"/>
      <psa10 value="0.0930992173" flag="0"/>
      <psa30 value="0.0058953790" flag="0"/>
    </comp>
  </station>
  <station code="KHMN" name="KHMN" netid="KO" insttype="CMG-5T" lat="37.3916" lon="37.1574">
    <comp name="--.HNE">
      <acc value="0.4317005458" flag="0"/>
      <vel value="0.0860205358" flag="0"/>
      <psa03 value="0.3896340955" flag="0"/>
      <psa10 value="0.0755395430" flag="0"/>
      <psa30 value="0.0158700158" flag="0"/>
    </comp>
    <comp name="--.HNZ">
      <acc value="0.2416095356" flag="0"/>
      <vel value="0.0359051236" flag="0"/>
      <psa03 value="0.1407286766" flag="0"/>
      <psa10 value="0.0350225618" flag="0"/>
      <psa30 value="0.0045879540" flag="0"/>
    </comp>
    <comp name="--.HNN">
      <acc value="0.3790239307" flag="0"/>
      <vel value="0.0624379377" flag="0"/>
      <psa03 value="0.2786472243" flag="0"/>
      <psa10 value="0.0398484915" flag="0"/>
      <psa30 value="0.0056053560" flag="0"/>
    </comp>
  </station>
  <station code="KMRS" name="KMRS" netid="KO" insttype="CMG-3T" lat="37.5053" lon="36.9">
    <comp name="--.HHN">
      <acc value="0.0303693698" flag="0"/>
      <vel value="0.0314403343" flag="0"/>
      <psa03 value="0.0463564343" flag="0"/>
      <psa10 value="0.0298019508" flag="0"/>
      <psa30 value="0.0040887914" flag="0"/>
    </comp>
    <comp name="--.HHE">
      <acc value="0.0427762499" flag="0"/>
      <vel value="0.0351985725" flag="0"/>
      <psa03 value="0.0773685954" flag="0"/>
      <psa10 value="0.0399782588" flag="0"/>
      <psa30 value="0.0052696776" flag="0"/>
    </comp>
    <comp name="--.HHZ">
      <acc value="0.0238803928" flag="0"/>
      <vel value="0.0214172334" flag="0"/>
      <psa03 value="0.0575728794" flag="0"/>
      <psa10 value="0.0283255991" flag="0"/>
      <psa30 value="0.0029493009" flag="0"/>
    </comp>
  </station>
</stationlist>
