<?xml version="1.0" encoding="UTF-8" standalone="yes"?>
<!DOCTYPE earthquake SYSTEM "stationlist.dtd">
<stationlist created="" xmlns="ch.ethz.sed.shakemap.usgs.xml">
  <station code="GAZ" name="GAZ" netid="KO" insttype="CMG-3T" lat="37.1721" lon="37.2096">
    <comp name="--.HHE">
      <acc value="0.1412295320" flag="0"/>
      <vel value="0.0729648610" flag="0"/>
      <psa03 value="0.3496302900" flag="0"/>
      <psa10 value="0.0876462111" flag="0"/>
      <psa30 value="0.0100551563" flag="0"/>
    </comp>
    <comp name="--.HHN">
      <acc value="0.0760170920" flag="0"/>
      <vel value="0.0539464642" flag="0"/>
      <psa03 value="0.1866262810" flag="0"/>
      <psa10 value="0.0930992174" flag="0"/>
      <psa30 value="0.0058953841" flag="0"/>
    </comp>
    <comp name="--.HHZ">
      <acc value="0.0882134740" flag="0"/>
      <vel value="0.0480663175" flag="0"/>
      <psa03 value="0.2319592245" flag="0"/>
      <psa10 value="0.0479922821" flag="0"/>
      <psa30 value="0.0049162505" flag="0"/>
    </comp>
  </station>
  <station code="KHMN" name="KHMN" netid="KO" insttype="CMG-5T" lat="37.3916" lon="37.1574">
    <comp name="--.HNE">
      <acc value="0.4317005524" flag="0"/>
      <vel value="0.0860205309" flag="0"/>
      <psa03 value="0.3896340955" flag="0"/>
      <psa10 value="0.0755395549" flag="0"/>
      <psa30 value="0.0158673031" flag="0"/>
    </comp>
    <comp name="--.HNN">
      <acc value="0.3790238994" flag="0"/>
      <vel value="0.0624379380" flag="0"/>
      <psa03 value="0.2786472243" flag="0"/>
      <psa10 value="0.0398484985" flag="0"/>
      <psa30 value="0.0055999732" flag="0"/>
    </comp>
    <comp name="--.HNZ">
      <acc value="0.2416094953" flag="0"/>
      <vel value="0.0359051245" flag="0"/>
      <psa03 value="0.1407286767" flag="0"/>
      <psa10 value="0.0350225629" flag="0"/>
      <psa30 value="0.0045887151" flag="0"/>
    </comp>
  </station>
  <station code="KMRS" name="KMRS" netid="KO" insttype="CMG-3T" lat="37.5053" lon="36.9">
    <comp name="--.HHZ">
      <acc value="0.0238803927" flag="0"/>
      <vel value="0.0214172338" flag="0"/>
      <psa03 value="0.0575728794" flag="0"/>
      <psa10 value="0.0283255991" flag="0"/>
      <psa30 value="0.0029493226" flag="0"/>
    </comp>
    <comp name="--.HHN">
      <acc value="0.0303693698" flag="0"/>
      <vel value="0.0314403344" flag="0"/>
      <psa03 value="0.0463564343" flag="0"/>
      <psa10 value="0.0298019507" flag="0"/>
      <psa30 value="0.0040887885" flag="0"/>
    </comp>
    <comp name="--.HHE">
      <acc value="0.0427762500" flag="0"/>
      <vel value="0.0351985725" flag="0"/>
      <psa03 value="0.0773685954" flag="0"/>
      <psa10 value="0.0399782591" flag="0"/>
      <psa30 value="0.0052696753" flag="0"/>
    </comp>
  </station>
</stationlist>
