<?xml version="1.0" encoding="UTF-8" standalone="yes"?>
<!DOCTYPE earthquake SYSTEM "stationlist.dtd">
<stationlist created="" xmlns="ch.ethz.sed.shakemap.usgs.xml">
  <station code="GAZ" name="GAZ" netid="KO" insttype="CMG-3T" lat="37.1721" lon="37.2096">
    <comp name="--.HHN">
      <acc value="0.0760170894" flag="0"/>
      <vel value="0.0539464643" flag="0"/>
      <psa03 value="0.1866262810" flag="0"/>
      <psa10 value="0.0930992169" flag="0"/>
      <psa30 value="0.0058953767" flag="0"/>
    </comp>
    <comp name="--.HHE">
      <acc value="0.1412295317" flag="0"/>
      <vel value="0.0729648612" flag="0"/>
      <psa03 value="0.3496302900" flag="0"/>
      <psa10 value="0.0876462110" flag="0"/>
      <psa30 value="0.0100551515" flag="0"/>
    </comp>
    <comp name="--.HHZ">
      <acc value="0.0882134731" flag="0"/>
      <vel value="0.0480663178" flag="0"/>
      <psa03 value="0.2319592245" flag="0"/>
      <psa10 value="0.0479922823" flag="0"/>
      <psa30 value="0.0049162164" flag="0"/>
    </comp>
  </station>
  <station code="KHMN" name="KHMN" netid="KO" insttype="CMG-5T" lat="37.3916" lon="37.1574">
    <comp name="--.HNN">
      <acc value="0.3790239328" flag="0"/>
      <vel value="0.0624379472" flag="0"/>
      <psa03 value="0.2786472244" flag="0"/>
      <psa10 value="0.0398484851" flag="0"/>
      <psa30 value="0.0056045336" flag="0"/>
    </comp>
    <comp name="--.HNZ">
      <acc value="0.2416095014" flag="0"/>
      <vel value="0.0359051199" flag="0"/>
      <psa03 value="0.1407286766" flag="0"/>
      <psa10 value="0.0350225640" flag="0"/>
      <psa30 value="0.0045892144" flag="0"/>
    </comp>
    <comp name="--.HNE">
      <acc value="0.4317004706" flag="0"/>
      <vel value="0.0860205255" flag="0"/>
      <psa03 value="0.3896340955" flag="0"/>
      <psa10 value="0.0755395870" flag="0"/>
      <psa30 value="0.0158708332" flag="0"/>
    </comp>
  </station>
  <station code="KMRS" name="KMRS" netid="KO" insttype="CMG-3T" lat="37.5053" lon="36.9">
    <comp name="--.HHE">
      <acc value="0.0427762498" flag="0"/>
      <vel value="0.0351985724" flag="0"/>
      <psa03 value="0.0773685954" flag="0"/>
      <psa10 value="0.0399782592" flag="0"/>
      <psa30 value="0.0052697065" flag="0"/>
    </comp>
    <comp name="--.HHN">
      <acc value="0.0303693700" flag="0"/>
      <vel value="0.0314403344" flag="0"/>
      <psa03 value="0.0463564343" flag="0"/>
      <psa10 value="0.0298019510" flag="0"/>
      <psa30 value="0.0040887921" flag="0"/>
    </comp>
    <comp name="--.HHZ">
      <acc value="0.0238803930" flag="0"/>
      <vel value="0.0214172339" flag="0"/>
      <psa03 value="0.0575728794" flag="0"/>
      <psa10 value="0.0283255990" flag="0"/>
      <psa30 value="0.0029492961" flag="0"/>
    </comp>
  </station>
</stationlist>
