<?xml version="1.0" encoding="UTF-8" standalone="yes"?>
<!DOCTYPE earthquake SYSTEM "stationlist.dtd">
<stationlist created="" xmlns="ch.ethz.sed.shakemap.usgs.xml">
  <station code="BCI" name="BCI" netid="AC" insttype="" lat="42.3666" lon="20.0675">
    <comp name="--.HHE">
      <acc value="0.0276893540" flag="0"/>
      <vel value="0.0061626472" flag="0"/>
      <psa03 value="0.0158367607" flag="0"/>
      <psa10 value="0.0029549858" flag="0"/>
      <psa30 value="0.0002318215" flag="0"/>
    </comp>
    <comp name="--.HHN">
      <acc value="0.0290511884" flag="0"/>
      <vel value="0.0053935040" flag="0"/>
      <psa03 value="0.0139202557" flag="0"/>
      <psa10 value="0.0036733077" flag="0"/>
      <psa30 value="0.0001497523" flag="0"/>
    </comp>
    <comp name="--.HHZ">
      <acc value="0.0286609498" flag="0"/>
      <vel value="0.0026230545" flag="0"/>
      <psa03 value="0.0116660116" flag="0"/>
      <psa10 value="0.0015265384" flag="0"/>
      <psa30 value="0.0001155879" flag="0"/>
    </comp>
  </station>
  <station code="PUK" name="PUK" netid="AC" insttype="" lat="42.0426" lon="19.8926">
    <comp name="--.HHN">
      <acc value="0.0011483390" flag="0"/>
      <vel value="0.0003272459" flag="0"/>
      <psa03 value="0.0020907526" flag="0"/>
      <psa10 value="0.0001809633" flag="0"/>
      <psa30 value="0.0000205895" flag="0"/>
    </comp>
    <comp name="--.HHE">
      <acc value="0.0012458399" flag="0"/>
      <vel value="0.0003621865" flag="0"/>
      <psa03 value="0.0017265567" flag="0"/>
      <psa10 value="0.0002074967" flag="0"/>
      <psa30 value="0.0000220769" flag="0"/>
    </comp>
    <comp name="--.HHZ">
      <acc value="0.0005551422" flag="0"/>
      <vel value="0.0001876056" flag="0"/>
      <psa03 value="0.0006129975" flag="0"/>
      <psa10 value="0.0001595220" flag="0"/>
      <psa30 value="0.0000067921" flag="0"/>
    </comp>
  </station>
  <station code="PDG" name="PDG" netid="MN" insttype="" lat="42.4297" lon="19.2608">
    <comp name="--.HHN">
      <acc value="0.0012649786" flag="0"/>
      <vel value="0.0005231281" flag="0"/>
      <psa03 value="0.0026602307" flag="0"/>
      <psa10 value="0.0003323302" flag="0"/>
      <psa30 value="0.0000184564" flag="0"/>
    </comp>
    <comp name="--.HHZ">
      <acc value="0.0016160627" flag="0"/>
      <vel value="0.0003585912" flag="0"/>
      <psa03 value="0.0019746324" flag="0"/>
      <psa10 value="0.0003091488" flag="0"/>
      <psa30 value="0.0000181293" flag="0"/>
    </comp>
    <comp name="--.HHE">
      <acc value="0.0015103366" flag="0"/>
      <vel value="0.0004320258" flag="0"/>
      <psa03 value="0.0023214180" flag="0"/>
      <psa10 value="0.0002800662" flag="0"/>
      <psa30 value="0.0000165114" flag="0"/>
    </comp>
  </station>
</stationlist>
