<?xml version="1.0" encoding="UTF-8" standalone="yes"?>
<!DOCTYPE earthquake SYSTEM "stationlist.dtd">
<stationlist created="" xmlns="ch.ethz.sed.shakemap.usgs.xml">
  <station code="MYT1" name="MYT1" netid="HI" insttype="CMG-5TD,ACCELEROMETER,GURALP" commtype="DIG" lat="39.085" lon="26.5694">
    <comp name="--.HNE">
      <acc value="1.1386757347" flag="0"/>
      <vel value="2.1696090766" flag="0"/>
      <psa03 value="2.8130282009" flag="0"/>
      <psa10 value="3.6423030500" flag="0"/>
      <psa30 value="0.7503600432" flag="0"/>
    </comp>
    <comp name="--.HNN">
      <acc value="1.0931736432" flag="0"/>
      <vel value="2.0484929742" flag="0"/>
      <psa03 value="2.3146257560" flag="0"/>
      <psa10 value="3.6236907334" flag="0"/>
      <psa30 value="0.6231608752" flag="0"/>
    </comp>
    <comp name="--.HNZ">
      <acc value="0.6053964392" flag="0"/>
      <vel value="0.9079763308" flag="0"/>
      <psa03 value="1.1392752325" flag="0"/>
      <psa10 value="1.6516644315" flag="0"/>
      <psa30 value="0.2094780997" flag="0"/>
    </comp>
  </station>
  <station code="PLM1" name="PLM1" netid="HI" insttype="unknown" commtype="DIG" lat="38.9751" lon="26.3688">
    <comp name="--.HNE">
      <acc value="0.4036361173" flag="0"/>
      <vel value="0.3034719517" flag="0"/>
      <psa03 value="1.3620020428" flag="0"/>
      <psa10 value="0.2361192310" flag="0"/>
      <psa30 value="0.0912522468" flag="0"/>
    </comp>
    <comp name="--.HNN">
      <acc value="0.2380859006" flag="0"/>
      <vel value="0.4650564866" flag="0"/>
      <psa03 value="0.4081679156" flag="0"/>
      <psa10 value="0.4427848251" flag="0"/>
      <psa30 value="0.2419099185" flag="0"/>
    </comp>
    <comp name="--.HNZ">
      <acc value="0.1359964661" flag="0"/>
      <vel value="0.3138496462" flag="0"/>
      <psa03 value="0.2607143168" flag="0"/>
      <psa10 value="0.2293268691" flag="0"/>
      <psa30 value="0.1570287214" flag="0"/>
    </comp>
  </station>
  <station code="PRK" name="PRK" netid="HL" insttype="120" commtype="DIG" lat="39.2456" lon="26.265">
    <comp name="--.HHN">
      <acc value="0.4674329689" flag="0"/>
      <vel value="0.8393965744" flag="0"/>
      <psa03 value="1.2324964914" flag="0"/>
      <psa10 value="1.4790394217" flag="0"/>
      <psa30 value="0.3296748377" flag="0"/>
    </comp>
    <comp name="--.HHE">
      <acc value="0.6736498250" flag="0"/>
      <vel value="0.6531563621" flag="0"/>
      <psa03 value="1.2769368658" flag="0"/>
      <psa10 value="1.0726157450" flag="0"/>
      <psa30 value="0.1580992180" flag="0"/>
    </comp>
    <comp name="--.HHZ">
      <acc value="0.3055389636" flag="0"/>
      <vel value="0.3454531535" flag="0"/>
      <psa03 value="0.7519064561" flag="0"/>
      <psa10 value="0.4971905362" flag="0"/>
      <psa30 value="0.2067443251" flag="0"/>
    </comp>
  </station>
  <station code="SMG" name="SMG" netid="HL" insttype="120" commtype="DIG" lat="37.7043" lon="26.8377">
    <comp name="--.HHN">
      <acc value="0.2091508302" flag="0"/>
      <vel value="0.2201208646" flag="0"/>
      <psa03 value="0.6778628179" flag="0"/>
      <psa10 value="0.2367624900" flag="0"/>
      <psa30 value="0.0839848525" flag="0"/>
    </comp>
    <comp name="--.HHE">
      <acc value="0.2191263405" flag="0"/>
      <vel value="0.1717507219" flag="0"/>
      <psa03 value="0.6088107850" flag="0"/>
      <psa10 value="0.2027075889" flag="0"/>
      <psa30 value="0.0587390404" flag="0"/>
    </comp>
    <comp name="--.HHZ">
      <acc value="0.0994925434" flag="0"/>
      <vel value="0.1074422676" flag="0"/>
      <psa03 value="0.3251568405" flag="0"/>
      <psa10 value="0.1542091332" flag="0"/>
      <psa30 value="0.0447871421" flag="0"/>
    </comp>
  </station>
  <station code="AMPK" name="AMPK" netid="HT" insttype="120" commtype="DIG" lat="39.0574" lon="26.313">
    <comp name="--.HHE">
      <acc value="0.3969099822" flag="0"/>
      <vel value="0.4077304307" flag="0"/>
      <psa03 value="1.1004194794" flag="0"/>
      <psa10 value="0.2713170153" flag="0"/>
      <psa30 value="0.1317345145" flag="0"/>
    </comp>
    <comp name="--.HHZ">
      <acc value="0.2567908400" flag="0"/>
      <vel value="0.2493010911" flag="0"/>
      <psa03 value="0.5400770194" flag="0"/>
      <psa10 value="0.2407407563" flag="0"/>
      <psa30 value="0.1512728792" flag="0"/>
    </comp>
    <comp name="--.HHN">
      <acc value="0.5360898842" flag="0"/>
      <vel value="0.6648921377" flag="0"/>
      <psa03 value="2.0558902403" flag="0"/>
      <psa10 value="0.3322695381" flag="0"/>
      <psa30 value="0.2657930132" flag="0"/>
    </comp>
  </station>
  <station code="CHOS" name="CHOS" netid="HT" insttype="100" commtype="DIG" lat="38.3869" lon="26.0506">
    <comp name="--.HHE">
      <acc value="0.3887783957" flag="0"/>
      <vel value="0.4117738364" flag="0"/>
      <psa03 value="1.1572851463" flag="0"/>
      <psa10 value="0.7396871211" flag="0"/>
      <psa30 value="0.1530676196" flag="0"/>
    </comp>
    <comp name="--.HHN">
      <acc value="0.2607579756" flag="0"/>
      <vel value="0.6042075148" flag="0"/>
      <psa03 value="1.1103912379" flag="0"/>
      <psa10 value="0.3912751553" flag="0"/>
      <psa30 value="0.2703179921" flag="0"/>
    </comp>
    <comp name="--.HHZ">
      <acc value="0.1260576895" flag="0"/>
      <vel value="0.1926527450" flag="0"/>
      <psa03 value="0.2815424481" flag="0"/>
      <psa10 value="0.4295898221" flag="0"/>
      <psa30 value="0.1416023469" flag="0"/>
    </comp>
  </station>
  <station code="LES3" name="LES3" netid="HT" insttype="" commtype="DIG" lat="39.3032" lon="26.1807">
    <comp name="--.HHE">
      <acc value="0.2564356259" flag="0"/>
      <vel value="0.2270759383" flag="0"/>
      <psa03 value="0.8713902570" flag="0"/>
      <psa10 value="0.2634343451" flag="0"/>
      <psa30 value="0.1036071774" flag="0"/>
    </comp>
    <comp name="--.HHN">
      <acc value="0.2034259325" flag="0"/>
      <vel value="0.3092250571" flag="0"/>
      <psa03 value="0.8217692661" flag="0"/>
      <psa10 value="0.2595092524" flag="0"/>
      <psa30 value="0.1458484790" flag="0"/>
    </comp>
    <comp name="--.HHZ">
      <acc value="0.2078269713" flag="0"/>
      <vel value="0.2067025310" flag="0"/>
      <psa03 value="0.7916436281" flag="0"/>
      <psa10 value="0.1751371081" flag="0"/>
      <psa30 value="0.0659144240" flag="0"/>
    </comp>
  </station>
  <station code="ADVT" name="ADVT" netid="KO" insttype="CMG-3ESP" commtype="DIG" lat="40.4332" lon="29.7383">
    <comp name="--.HHZ">
      <acc value="0.1055169135" flag="0"/>
      <vel value="0.2480558206" flag="0"/>
      <psa03 value="0.2552162545" flag="0"/>
      <psa10 value="0.1544491194" flag="0"/>
      <psa30 value="0.1407363175" flag="0"/>
    </comp>
    <comp name="--.HHN">
      <acc value="0.2278429629" flag="0"/>
      <vel value="0.2029556900" flag="0"/>
      <psa03 value="0.3869719000" flag="0"/>
      <psa10 value="0.3029074138" flag="0"/>
      <psa30 value="0.0614927296" flag="0"/>
    </comp>
  </station>
  <station code="AKS" name="AKS" netid="KO" insttype="CMG-5T" commtype="DIG" lat="38.8785" lon="27.8129">
    <comp name="--.HNN">
      <acc value="2.1876816226" flag="0"/>
      <vel value="1.4732500642" flag="0"/>
      <psa03 value="4.7615761495" flag="0"/>
      <psa10 value="1.0091829599" flag="0"/>
      <psa30 value="0.3602486055" flag="0"/>
    </comp>
  </station>
  <station code="ALT" name="ALT" netid="KO" insttype="CMG-5T" commtype="DIG" lat="39.0541" lon="30.1104">
    <comp name="--.HNE">
      <acc value="0.1336008655" flag="0"/>
      <vel value="0.1365284544" flag="0"/>
      <psa03 value="0.2973141560" flag="0"/>
      <psa10 value="0.1398312093" flag="0"/>
      <psa30 value="0.0541993214" flag="0"/>
    </comp>
    <comp name="--.HNN">
      <acc value="0.2396466161" flag="0"/>
      <vel value="0.2752278718" flag="0"/>
      <psa03 value="0.4473953958" flag="0"/>
      <psa10 value="0.1255753552" flag="0"/>
      <psa30 value="0.0833379547" flag="0"/>
    </comp>
    <comp name="--.HNZ">
      <acc value="0.1140249571" flag="0"/>
      <vel value="0.1042028271" flag="0"/>
      <psa03 value="0.1637535779" flag="0"/>
      <psa10 value="0.1363843582" flag="0"/>
      <psa30 value="0.0376200210" flag="0"/>
    </comp>
  </station>
  <station code="APMY" name="APMY" netid="KO" insttype="CMG-6T" commtype="DIG" lat="37.4717" lon="29.3018">
    <comp name="--.HHE">
      <acc value="0.0344198423" flag="0"/>
      <vel value="0.1140047587" flag="0"/>
      <psa03 value="0.0640141110" flag="0"/>
      <psa10 value="0.0696258582" flag="0"/>
      <psa30 value="0.0365450749" flag="0"/>
    </comp>
    <comp name="--.HHZ">
      <acc value="0.0372826854" flag="0"/>
      <vel value="0.0942440731" flag="0"/>
      <psa03 value="0.1041787285" flag="0"/>
      <psa10 value="0.0760661442" flag="0"/>
      <psa30 value="0.0268210939" flag="0"/>
    </comp>
    <comp name="--.HHN">
      <acc value="0.0414146842" flag="0"/>
      <vel value="0.1286539514" flag="0"/>
      <psa03 value="0.0832514355" flag="0"/>
      <psa10 value="0.1725810527" flag="0"/>
      <psa30 value="0.0363740905" flag="0"/>
    </comp>
  </station>
  <station code="ARMT" name="ARMT" netid="KO" insttype="CMG-5T" commtype="DIG" lat="40.5683" lon="28.866">
    <comp name="--.HNE">
      <acc value="0.4263000570" flag="0"/>
      <vel value="0.3075545136" flag="0"/>
      <psa03 value="1.5008132910" flag="0"/>
      <psa10 value="0.3497670581" flag="0"/>
      <psa30 value="0.0738276900" flag="0"/>
    </comp>
    <comp name="--.HNN">
      <acc value="0.5458422345" flag="0"/>
      <vel value="0.5903826835" flag="0"/>
      <psa03 value="1.5376718960" flag="0"/>
      <psa10 value="0.7536880778" flag="0"/>
      <psa30 value="0.0644461427" flag="0"/>
    </comp>
    <comp name="--.HNZ">
      <acc value="0.3872293495" flag="0"/>
      <vel value="0.3068309204" flag="0"/>
      <psa03 value="0.8552543779" flag="0"/>
      <psa10 value="0.2493663109" flag="0"/>
      <psa30 value="0.0452340258" flag="0"/>
    </comp>
  </station>
  <station code="AVCI" name="AVCI" netid="KO" insttype="CMG-5T" commtype="DIG" lat="40.9958" lon="28.7225">
    <comp name="--.HNZ">
      <acc value="0.1392123276" flag="0"/>
      <vel value="0.2044996663" flag="0"/>
      <psa03 value="0.4816199415" flag="0"/>
      <psa10 value="0.2531267231" flag="0"/>
      <psa30 value="0.0668043875" flag="0"/>
    </comp>
    <comp name="--.HNE">
      <acc value="0.3947971932" flag="0"/>
      <vel value="0.5851363548" flag="0"/>
      <psa03 value="0.5778308218" flag="0"/>
      <psa10 value="0.8564001410" flag="0"/>
      <psa30 value="0.2999251169" flag="0"/>
    </comp>
    <comp name="--.HNN">
      <acc value="0.4112143892" flag="0"/>
      <vel value="0.6855240240" flag="0"/>
      <psa03 value="0.7826356770" flag="0"/>
      <psa10 value="1.0147932005" flag="0"/>
      <psa30 value="0.4463448366" flag="0"/>
    </comp>
  </station>
  <station code="BALB" name="BALB" netid="KO" insttype="CMG-5T" commtype="DIG" lat="39.6507" lon="27.8642">
    <comp name="--.HNE">
      <acc value="1.8709172103" flag="0"/>
      <vel value="1.3462346209" flag="0"/>
      <psa03 value="3.2559229028" flag="0"/>
      <psa10 value="1.3124840195" flag="0"/>
      <psa30 value="0.4704870031" flag="0"/>
    </comp>
    <comp name="--.HNN">
      <acc value="1.6091065471" flag="0"/>
      <vel value="1.1912538058" flag="0"/>
      <psa03 value="3.6784625966" flag="0"/>
      <psa10 value="1.3855496550" flag="0"/>
      <psa30 value="0.5585641468" flag="0"/>
    </comp>
    <comp name="--.HNZ">
      <acc value="0.8333305998" flag="0"/>
      <vel value="0.6063270652" flag="0"/>
      <psa03 value="1.5559751719" flag="0"/>
      <psa10 value="0.6285301386" flag="0"/>
      <psa30 value="0.3498707536" flag="0"/>
    </comp>
  </station>
  <station code="BASM" name="BASM" netid="KO" insttype="CMG-5T" commtype="DIG" lat="37.9194" lon="30.035">
    <comp name="--.HNE">
      <acc value="0.1421584565" flag="0"/>
      <vel value="0.2933640105" flag="0"/>
      <psa03 value="0.2830687504" flag="0"/>
      <psa10 value="0.3740799361" flag="0"/>
      <psa30 value="0.0597968035" flag="0"/>
    </comp>
    <comp name="--.HNN">
      <acc value="0.1398956590" flag="0"/>
      <vel value="0.3005307268" flag="0"/>
      <psa03 value="0.3080321678" flag="0"/>
      <psa10 value="0.2841830366" flag="0"/>
      <psa30 value="0.0754149305" flag="0"/>
    </comp>
    <comp name="--.HNZ">
      <acc value="0.0694470701" flag="0"/>
      <vel value="0.1281971087" flag="0"/>
      <psa03 value="0.1983296475" flag="0"/>
      <psa10 value="0.1193234802" flag="0"/>
      <psa30 value="0.0322602038" flag="0"/>
    </comp>
  </station>
  <station code="BIGA" name="BIGA" netid="KO" insttype="CMG-5T" commtype="DIG" lat="40.2813" lon="27.1505">
    <comp name="--.HNE">
      <acc value="0.5354175275" flag="0"/>
      <vel value="0.6624064574" flag="0"/>
      <psa03 value="0.9972754563" flag="0"/>
      <psa10 value="0.6943193618" flag="0"/>
      <psa30 value="0.2114908171" flag="0"/>
    </comp>
    <comp name="--.HNZ">
      <acc value="0.1671872375" flag="0"/>
      <vel value="0.2015573666" flag="0"/>
      <psa03 value="0.2731442137" flag="0"/>
      <psa10 value="0.1805801005" flag="0"/>
      <psa30 value="0.0862763693" flag="0"/>
    </comp>
    <comp name="--.HNN">
      <acc value="0.6207521112" flag="0"/>
      <vel value="0.4461831889" flag="0"/>
      <psa03 value="1.9309072793" flag="0"/>
      <psa10 value="0.4848873095" flag="0"/>
      <psa30 value="0.0879464717" flag="0"/>
    </comp>
  </station>
  <station code="BMYO" name="BMYO" netid="KO" insttype="CMG-5T" commtype="DIG" lat="39.8098" lon="26.6009">
    <comp name="--.HNE">
      <acc value="1.6320164855" flag="0"/>
      <vel value="1.5840728236" flag="0"/>
      <psa03 value="3.0151899564" flag="0"/>
      <psa10 value="2.9140223678" flag="0"/>
      <psa30 value="0.3671894402" flag="0"/>
    </comp>
    <comp name="--.HNN">
      <acc value="1.3625184119" flag="0"/>
      <vel value="1.1434885450" flag="0"/>
      <psa03 value="3.7947844806" flag="0"/>
      <psa10 value="1.8103830706" flag="0"/>
      <psa30 value="0.3653060500" flag="0"/>
    </comp>
    <comp name="--.HNZ">
      <acc value="0.4507262231" flag="0"/>
      <vel value="0.5933442360" flag="0"/>
      <psa03 value="0.9632871728" flag="0"/>
      <psa10 value="1.7476077285" flag="0"/>
      <psa30 value="0.2161446170" flag="0"/>
    </comp>
  </station>
  <station code="BOTS" name="BOTS" netid="KO" insttype="CMG-5T" commtype="DIG" lat="40.9902" lon="27.981">
    <comp name="--.HNE">
      <acc value="0.2529043013" flag="0"/>
      <vel value="0.3706765839" flag="0"/>
      <psa03 value="0.8322246557" flag="0"/>
      <psa10 value="0.3760751286" flag="0"/>
      <psa30 value="0.1527084973" flag="0"/>
    </comp>
    <comp name="--.HNZ">
      <acc value="0.1138373153" flag="0"/>
      <vel value="0.1626777971" flag="0"/>
      <psa03 value="0.2368340790" flag="0"/>
      <psa10 value="0.1119512774" flag="0"/>
      <psa30 value="0.0764609580" flag="0"/>
    </comp>
    <comp name="--.HNN">
      <acc value="0.4163140598" flag="0"/>
      <vel value="0.5597743534" flag="0"/>
      <psa03 value="1.0820779860" flag="0"/>
      <psa10 value="0.5180264145" flag="0"/>
      <psa30 value="0.2160119692" flag="0"/>
    </comp>
  </station>
  <station code="BUYK" name="BUYK" netid="KO" insttype="SA10" commtype="DIG" lat="41.0168" lon="28.5828">
    <comp name="--.HNE">
      <acc value="0.5365175521" flag="0"/>
      <vel value="1.1314661288" flag="0"/>
      <psa03 value="1.2915492230" flag="0"/>
      <psa10 value="1.2882082133" flag="0"/>
      <psa30 value="0.3415135620" flag="0"/>
    </comp>
    <comp name="--.HNN">
      <acc value="0.4153072748" flag="0"/>
      <vel value="1.0790816467" flag="0"/>
      <psa03 value="1.2167687238" flag="0"/>
      <psa10 value="0.8444333010" flag="0"/>
      <psa30 value="0.2197276716" flag="0"/>
    </comp>
    <comp name="--.HNZ">
      <acc value="0.2182128983" flag="0"/>
      <vel value="0.3209425838" flag="0"/>
      <psa03 value="0.4624196971" flag="0"/>
      <psa10 value="0.4172385412" flag="0"/>
      <psa30 value="0.0485236848" flag="0"/>
    </comp>
  </station>
  <station code="CANM" name="CANM" netid="KO" insttype="CMG-5T" commtype="DIG" lat="40.0113" lon="27.0529">
    <comp name="--.HNE">
      <acc value="0.5963486583" flag="0"/>
      <vel value="0.6231111113" flag="0"/>
      <psa03 value="1.2525019485" flag="0"/>
      <psa10 value="0.8875163743" flag="0"/>
      <psa30 value="0.1173384497" flag="0"/>
    </comp>
    <comp name="--.HNZ">
      <acc value="0.4459303585" flag="0"/>
      <vel value="0.4802630788" flag="0"/>
      <psa03 value="1.0246300094" flag="0"/>
      <psa10 value="0.3545891161" flag="0"/>
      <psa30 value="0.1684377711" flag="0"/>
    </comp>
    <comp name="--.HNN">
      <acc value="0.5499146009" flag="0"/>
      <vel value="0.6703125422" flag="0"/>
      <psa03 value="1.1988474924" flag="0"/>
      <psa10 value="1.1847718550" flag="0"/>
      <psa30 value="0.2047721464" flag="0"/>
    </comp>
  </station>
  <station code="DST" name="DST" netid="KO" insttype="CMG-5T" commtype="DIG" lat="39.6041" lon="28.6267">
    <comp name="--.HNZ">
      <acc value="1.0945393174" flag="0"/>
      <vel value="0.6498333949" flag="0"/>
      <psa03 value="1.8736926835" flag="0"/>
      <psa10 value="0.4913779852" flag="0"/>
      <psa30 value="0.1827004601" flag="0"/>
    </comp>
    <comp name="--.HNN">
      <acc value="1.4074835056" flag="0"/>
      <vel value="0.8296136871" flag="0"/>
      <psa03 value="1.7883320965" flag="0"/>
      <psa10 value="0.7474988246" flag="0"/>
      <psa30 value="0.1554412747" flag="0"/>
    </comp>
    <comp name="--.HNE">
      <acc value="1.2409678054" flag="0"/>
      <vel value="0.6389862906" flag="0"/>
      <psa03 value="2.6510653263" flag="0"/>
      <psa10 value="0.8265143766" flag="0"/>
      <psa30 value="0.1929481521" flag="0"/>
    </comp>
  </station>
  <station code="ERIK" name="ERIK" netid="KO" insttype="CMG-3ESP" commtype="DIG" lat="40.6708" lon="26.5132">
    <comp name="--.HHZ">
      <acc value="0.0828683141" flag="0"/>
      <vel value="0.1148797629" flag="0"/>
      <psa03 value="0.2199169108" flag="0"/>
      <psa10 value="0.1536688782" flag="0"/>
      <psa30 value="0.0652356694" flag="0"/>
    </comp>
  </station>
  <station code="ESKY" name="ESKY" netid="KO" insttype="CMG-5T" commtype="DIG" lat="40.5918" lon="28.9071">
    <comp name="--.HNZ">
      <acc value="0.3977198856" flag="0"/>
      <vel value="0.4824185387" flag="0"/>
      <psa03 value="1.4879315260" flag="0"/>
      <psa10 value="0.7206733243" flag="0"/>
      <psa30 value="0.0782135597" flag="0"/>
    </comp>
    <comp name="--.HNE">
      <acc value="0.6968372460" flag="0"/>
      <vel value="0.5399832614" flag="0"/>
      <psa03 value="2.5804993003" flag="0"/>
      <psa10 value="0.5367933384" flag="0"/>
      <psa30 value="0.0886204351" flag="0"/>
    </comp>
    <comp name="--.HNN">
      <acc value="0.6966981784" flag="0"/>
      <vel value="0.7085607536" flag="0"/>
      <psa03 value="1.8524544132" flag="0"/>
      <psa10 value="0.7858665833" flag="0"/>
      <psa30 value="0.0640886534" flag="0"/>
    </comp>
  </station>
  <station code="EZNE" name="EZNE" netid="KO" insttype="CMG-5T" commtype="DIG" lat="39.756" lon="26.3655">
    <comp name="--.HNE">
      <acc value="0.3727971653" flag="0"/>
      <vel value="0.3540739852" flag="0"/>
      <psa03 value="0.4927321248" flag="0"/>
      <psa10 value="0.5297919474" flag="0"/>
      <psa30 value="0.1028331608" flag="0"/>
    </comp>
    <comp name="--.HNN">
      <acc value="0.3592992545" flag="0"/>
      <vel value="0.5302610741" flag="0"/>
      <psa03 value="0.8263594363" flag="0"/>
