<?xml version="1.0" encoding="UTF-8" standalone="yes"?>
<!DOCTYPE earthquake SYSTEM "stationlist.dtd">
<stationlist created="" xmlns="ch.ethz.sed.shakemap.usgs.xml">
  <station code="MYT1" name="MYT1" netid="HI" insttype="CMG-5TD,ACCELEROMETER,GURALP" commtype="DIG" lat="39.085" lon="26.5694">
    <comp name="--.HNE">
      <acc value="1.1386757347" flag="0"/>
      <vel value="2.1696090769" flag="0"/>
      <psa03 value="2.8130282009" flag="0"/>
      <psa10 value="3.6423030501" flag="0"/>
      <psa30 value="0.7503600026" flag="0"/>
    </comp>
    <comp name="--.HNN">
      <acc value="1.0931736435" flag="0"/>
      <vel value="2.0484929761" flag="0"/>
      <psa03 value="2.3146257560" flag="0"/>
      <psa10 value="3.6236907340" flag="0"/>
      <psa30 value="0.6231608345" flag="0"/>
    </comp>
    <comp name="--.HNZ">
      <acc value="0.6053964392" flag="0"/>
      <vel value="0.9079763303" flag="0"/>
      <psa03 value="1.1392752325" flag="0"/>
      <psa10 value="1.6516644312" flag="0"/>
      <psa30 value="0.2094781020" flag="0"/>
    </comp>
  </station>
  <station code="PLM1" name="PLM1" netid="HI" insttype="unknown" commtype="DIG" lat="38.9751" lon="26.3688">
    <comp name="--.HNN">
      <acc value="0.2380859008" flag="0"/>
      <vel value="0.4650564853" flag="0"/>
      <psa03 value="0.4081679156" flag="0"/>
      <psa10 value="0.4427848251" flag="0"/>
      <psa30 value="0.2419098900" flag="0"/>
    </comp>
    <comp name="--.HNE">
      <acc value="0.4036361156" flag="0"/>
      <vel value="0.3034719531" flag="0"/>
      <psa03 value="1.3620020428" flag="0"/>
      <psa10 value="0.2361192310" flag="0"/>
      <psa30 value="0.0912522338" flag="0"/>
    </comp>
    <comp name="--.HNZ">
      <acc value="0.1359964659" flag="0"/>
      <vel value="0.3138496476" flag="0"/>
      <psa03 value="0.2607143168" flag="0"/>
      <psa10 value="0.2293268691" flag="0"/>
      <psa30 value="0.1570286817" flag="0"/>
    </comp>
  </station>
  <station code="PRK" name="PRK" netid="HL" insttype="120" commtype="DIG" lat="39.2456" lon="26.265">
    <comp name="--.HHN">
      <acc value="0.4674329689" flag="0"/>
      <vel value="0.8393965741" flag="0"/>
      <psa03 value="1.2324964914" flag="0"/>
      <psa10 value="1.4790394217" flag="0"/>
      <psa30 value="0.3296748100" flag="0"/>
    </comp>
    <comp name="--.HHZ">
      <acc value="0.3055389636" flag="0"/>
      <vel value="0.3454531530" flag="0"/>
      <psa03 value="0.7519064561" flag="0"/>
      <psa10 value="0.4971905362" flag="0"/>
      <psa30 value="0.2067443175" flag="0"/>
    </comp>
    <comp name="--.HHE">
      <acc value="0.6736498249" flag="0"/>
      <vel value="0.6531563619" flag="0"/>
      <psa03 value="1.2769368658" flag="0"/>
      <psa10 value="1.0726157450" flag="0"/>
      <psa30 value="0.1580992012" flag="0"/>
    </comp>
  </station>
  <station code="SMG" name="SMG" netid="HL" insttype="120" commtype="DIG" lat="37.7043" lon="26.8377">
    <comp name="--.HHN">
      <acc value="0.2091508302" flag="0"/>
      <vel value="0.2201208673" flag="0"/>
      <psa03 value="0.6778628179" flag="0"/>
      <psa10 value="0.2367624900" flag="0"/>
      <psa30 value="0.0839848779" flag="0"/>
    </comp>
    <comp name="--.HHZ">
      <acc value="0.0994925434" flag="0"/>
      <vel value="0.1074422680" flag="0"/>
      <psa03 value="0.3251568405" flag="0"/>
      <psa10 value="0.1542091332" flag="0"/>
      <psa30 value="0.0447871453" flag="0"/>
    </comp>
    <comp name="--.HHE">
      <acc value="0.2191263404" flag="0"/>
      <vel value="0.1717507201" flag="0"/>
      <psa03 value="0.6088107850" flag="0"/>
      <psa10 value="0.2027075889" flag="0"/>
      <psa30 value="0.0587390282" flag="0"/>
    </comp>
  </station>
  <station code="AMPK" name="AMPK" netid="HT" insttype="120" commtype="DIG" lat="39.0574" lon="26.313">
    <comp name="--.HHN">
      <acc value="0.5360898842" flag="0"/>
      <vel value="0.6648921365" flag="0"/>
      <psa03 value="2.0558902403" flag="0"/>
      <psa10 value="0.3322695381" flag="0"/>
      <psa30 value="0.2657929940" flag="0"/>
    </comp>
    <comp name="--.HHZ">
      <acc value="0.2567908400" flag="0"/>
      <vel value="0.2493010922" flag="0"/>
      <psa03 value="0.5400770194" flag="0"/>
      <psa10 value="0.2407407562" flag="0"/>
      <psa30 value="0.1512728644" flag="0"/>
    </comp>
    <comp name="--.HHE">
      <acc value="0.3969099822" flag="0"/>
      <vel value="0.4077304299" flag="0"/>
      <psa03 value="1.1004194794" flag="0"/>
      <psa10 value="0.2713170153" flag="0"/>
      <psa30 value="0.1317345051" flag="0"/>
    </comp>
  </station>
  <station code="CHOS" name="CHOS" netid="HT" insttype="100" commtype="DIG" lat="38.3869" lon="26.0506">
    <comp name="--.HHE">
      <acc value="0.3887783956" flag="0"/>
      <vel value="0.4117738362" flag="0"/>
      <psa03 value="1.1572851463" flag="0"/>
      <psa10 value="0.7396871211" flag="0"/>
      <psa30 value="0.1530676177" flag="0"/>
    </comp>
    <comp name="--.HHN">
      <acc value="0.2607579756" flag="0"/>
      <vel value="0.6042075157" flag="0"/>
      <psa03 value="1.1103912379" flag="0"/>
      <psa10 value="0.3912751553" flag="0"/>
      <psa30 value="0.2703179974" flag="0"/>
    </comp>
    <comp name="--.HHZ">
      <acc value="0.1260576896" flag="0"/>
      <vel value="0.1926527445" flag="0"/>
      <psa03 value="0.2815424481" flag="0"/>
      <psa10 value="0.4295898221" flag="0"/>
      <psa30 value="0.1416023481" flag="0"/>
    </comp>
  </station>
  <station code="LES3" name="LES3" netid="HT" insttype="" commtype="DIG" lat="39.3032" lon="26.1807">
    <comp name="--.HHE">
      <acc value="0.2564357160" flag="0"/>
      <vel value="0.2270739923" flag="0"/>
      <psa03 value="0.8713902476" flag="0"/>
      <psa10 value="0.2634343336" flag="0"/>
      <psa30 value="0.1036071557" flag="0"/>
    </comp>
    <comp name="--.HHZ">
      <acc value="0.2078269972" flag="0"/>
      <vel value="0.2066985668" flag="0"/>
      <psa03 value="0.7916436354" flag="0"/>
      <psa10 value="0.1751370996" flag="0"/>
      <psa30 value="0.0659144096" flag="0"/>
    </comp>
    <comp name="--.HHN">
      <acc value="0.2034258533" flag="0"/>
      <vel value="0.3092213167" flag="0"/>
      <psa03 value="0.8217692766" flag="0"/>
      <psa10 value="0.2595092420" flag="0"/>
      <psa30 value="0.1458485130" flag="0"/>
    </comp>
  </station>
  <station code="ADVT" name="ADVT" netid="KO" insttype="CMG-3ESP" commtype="DIG" lat="40.4332" lon="29.7383">
    <comp name="--.HHZ">
      <acc value="0.1055169136" flag="0"/>
      <vel value="0.2480558214" flag="0"/>
      <psa03 value="0.2552162545" flag="0"/>
      <psa10 value="0.1544491194" flag="0"/>
      <psa30 value="0.1407363173" flag="0"/>
    </comp>
    <comp name="--.HHN">
      <acc value="0.2278429628" flag="0"/>
      <vel value="0.2029556899" flag="0"/>
      <psa03 value="0.3869719000" flag="0"/>
      <psa10 value="0.3029074138" flag="0"/>
      <psa30 value="0.0614927280" flag="0"/>
    </comp>
  </station>
  <station code="AKS" name="AKS" netid="KO" insttype="CMG-5T" commtype="DIG" lat="38.8785" lon="27.8129">
    <comp name="--.HNN">
      <acc value="2.1876816364" flag="0"/>
      <vel value="1.4732500650" flag="0"/>
      <psa03 value="4.7615761495" flag="0"/>
      <psa10 value="1.0091829629" flag="0"/>
      <psa30 value="0.3602489486" flag="0"/>
    </comp>
  </station>
  <station code="ALT" name="ALT" netid="KO" insttype="CMG-5T" commtype="DIG" lat="39.0541" lon="30.1104">
    <comp name="--.HNE">
      <acc value="0.1336008666" flag="0"/>
      <vel value="0.1365284604" flag="0"/>
      <psa03 value="0.2973141560" flag="0"/>
      <psa10 value="0.1398312093" flag="0"/>
      <psa30 value="0.0541993300" flag="0"/>
    </comp>
    <comp name="--.HNZ">
      <acc value="0.1140249560" flag="0"/>
      <vel value="0.1042028179" flag="0"/>
      <psa03 value="0.1637535779" flag="0"/>
      <psa10 value="0.1363843582" flag="0"/>
      <psa30 value="0.0376200343" flag="0"/>
    </comp>
    <comp name="--.HNN">
      <acc value="0.2396466158" flag="0"/>
      <vel value="0.2752278725" flag="0"/>
      <psa03 value="0.4473953958" flag="0"/>
      <psa10 value="0.1255753552" flag="0"/>
      <psa30 value="0.0833379797" flag="0"/>
    </comp>
  </station>
  <station code="APMY" name="APMY" netid="KO" insttype="CMG-6T" commtype="DIG" lat="37.4717" lon="29.3018">
    <comp name="--.HHE">
      <acc value="0.0344198442" flag="0"/>
      <vel value="0.1140047794" flag="0"/>
      <psa03 value="0.0640141109" flag="0"/>
      <psa10 value="0.0696258582" flag="0"/>
      <psa30 value="0.0365450753" flag="0"/>
    </comp>
    <comp name="--.HHZ">
      <acc value="0.0372826854" flag="0"/>
      <vel value="0.0942440784" flag="0"/>
      <psa03 value="0.1041787285" flag="0"/>
      <psa10 value="0.0760661442" flag="0"/>
      <psa30 value="0.0268210938" flag="0"/>
    </comp>
    <comp name="--.HHN">
      <acc value="0.0414146835" flag="0"/>
      <vel value="0.1286539745" flag="0"/>
      <psa03 value="0.0832514355" flag="0"/>
      <psa10 value="0.1725810526" flag="0"/>
      <psa30 value="0.0363740900" flag="0"/>
    </comp>
  </station>
  <station code="ARMT" name="ARMT" netid="KO" insttype="CMG-5T" commtype="DIG" lat="40.5683" lon="28.866">
    <comp name="--.HNE">
      <acc value="0.4263000573" flag="0"/>
      <vel value="0.3075545104" flag="0"/>
      <psa03 value="1.5008132910" flag="0"/>
      <psa10 value="0.3497670581" flag="0"/>
      <psa30 value="0.0738276525" flag="0"/>
    </comp>
    <comp name="--.HNN">
      <acc value="0.5458422343" flag="0"/>
      <vel value="0.5903826816" flag="0"/>
      <psa03 value="1.5376718960" flag="0"/>
      <psa10 value="0.7536880778" flag="0"/>
      <psa30 value="0.0644461620" flag="0"/>
    </comp>
    <comp name="--.HNZ">
      <acc value="0.3872293490" flag="0"/>
      <vel value="0.3068309230" flag="0"/>
      <psa03 value="0.8552543779" flag="0"/>
      <psa10 value="0.2493663109" flag="0"/>
      <psa30 value="0.0452337460" flag="0"/>
    </comp>
  </station>
  <station code="AVCI" name="AVCI" netid="KO" insttype="CMG-5T" commtype="DIG" lat="40.9958" lon="28.7225">
    <comp name="--.HNE">
      <acc value="0.3947971901" flag="0"/>
      <vel value="0.5851363497" flag="0"/>
      <psa03 value="0.5778308218" flag="0"/>
      <psa10 value="0.8564001410" flag="0"/>
      <psa30 value="0.2999251141" flag="0"/>
    </comp>
    <comp name="--.HNN">
      <acc value="0.4112143917" flag="0"/>
      <vel value="0.6855240188" flag="0"/>
      <psa03 value="0.7826356770" flag="0"/>
      <psa10 value="1.0147932005" flag="0"/>
      <psa30 value="0.4463448282" flag="0"/>
    </comp>
    <comp name="--.HNZ">
      <acc value="0.1392123247" flag="0"/>
      <vel value="0.2044996677" flag="0"/>
      <psa03 value="0.4816199415" flag="0"/>
      <psa10 value="0.2531267231" flag="0"/>
      <psa30 value="0.0668043850" flag="0"/>
    </comp>
  </station>
  <station code="BALB" name="BALB" netid="KO" insttype="CMG-5T" commtype="DIG" lat="39.6507" lon="27.8642">
    <comp name="--.HNZ">
      <acc value="0.8333306004" flag="0"/>
      <vel value="0.6063270648" flag="0"/>
      <psa03 value="1.5559751719" flag="0"/>
      <psa10 value="0.6285301387" flag="0"/>
      <psa30 value="0.3498706358" flag="0"/>
    </comp>
    <comp name="--.HNE">
      <acc value="1.8709172110" flag="0"/>
      <vel value="1.3462346217" flag="0"/>
      <psa03 value="3.2559229028" flag="0"/>
      <psa10 value="1.3124840195" flag="0"/>
      <psa30 value="0.4704869028" flag="0"/>
    </comp>
    <comp name="--.HNN">
      <acc value="1.6091065469" flag="0"/>
      <vel value="1.1912538047" flag="0"/>
      <psa03 value="3.6784625966" flag="0"/>
      <psa10 value="1.3855496549" flag="0"/>
      <psa30 value="0.5585642048" flag="0"/>
    </comp>
  </station>
  <station code="BASM" name="BASM" netid="KO" insttype="CMG-5T" commtype="DIG" lat="37.9194" lon="30.035">
    <comp name="--.HNN">
      <acc value="0.1398956590" flag="0"/>
      <vel value="0.3005307359" flag="0"/>
      <psa03 value="0.3080321678" flag="0"/>
      <psa10 value="0.2841830366" flag="0"/>
      <psa30 value="0.0754149199" flag="0"/>
    </comp>
    <comp name="--.HNE">
      <acc value="0.1421584563" flag="0"/>
      <vel value="0.2933640213" flag="0"/>
      <psa03 value="0.2830687504" flag="0"/>
      <psa10 value="0.3740799361" flag="0"/>
      <psa30 value="0.0597967879" flag="0"/>
    </comp>
    <comp name="--.HNZ">
      <acc value="0.0694470711" flag="0"/>
      <vel value="0.1281971154" flag="0"/>
      <psa03 value="0.1983296475" flag="0"/>
      <psa10 value="0.1193234802" flag="0"/>
      <psa30 value="0.0322602169" flag="0"/>
    </comp>
  </station>
  <station code="BIGA" name="BIGA" netid="KO" insttype="CMG-5T" commtype="DIG" lat="40.2813" lon="27.1505">
    <comp name="--.HNE">
      <acc value="0.5354175266" flag="0"/>
      <vel value="0.6624064521" flag="0"/>
      <psa03 value="0.9972754563" flag="0"/>
      <psa10 value="0.6943193619" flag="0"/>
      <psa30 value="0.2114907558" flag="0"/>
    </comp>
    <comp name="--.HNN">
      <acc value="0.6207521167" flag="0"/>
      <vel value="0.4461831875" flag="0"/>
      <psa03 value="1.9309072793" flag="0"/>
      <psa10 value="0.4848873095" flag="0"/>
      <psa30 value="0.0879464243" flag="0"/>
    </comp>
    <comp name="--.HNZ">
      <acc value="0.1671872384" flag="0"/>
      <vel value="0.2015573679" flag="0"/>
      <psa03 value="0.2731442137" flag="0"/>
      <psa10 value="0.1805801005" flag="0"/>
      <psa30 value="0.0862769039" flag="0"/>
    </comp>
  </station>
  <station code="BMYO" name="BMYO" netid="KO" insttype="CMG-5T" commtype="DIG" lat="39.8098" lon="26.6009">
    <comp name="--.HNZ">
      <acc value="0.4507262210" flag="0"/>
      <vel value="0.5933442342" flag="0"/>
      <psa03 value="0.9632871728" flag="0"/>
      <psa10 value="1.7476077285" flag="0"/>
      <psa30 value="0.2161445559" flag="0"/>
    </comp>
    <comp name="--.HNN">
      <acc value="1.3625184117" flag="0"/>
      <vel value="1.1434885521" flag="0"/>
      <psa03 value="3.7947844806" flag="0"/>
      <psa10 value="1.8103830705" flag="0"/>
      <psa30 value="0.3653061133" flag="0"/>
    </comp>
    <comp name="--.HNE">
      <acc value="1.6320164860" flag="0"/>
      <vel value="1.5840728242" flag="0"/>
      <psa03 value="3.0151899564" flag="0"/>
      <psa10 value="2.9140223678" flag="0"/>
      <psa30 value="0.3671893834" flag="0"/>
    </comp>
  </station>
  <station code="BOTS" name="BOTS" netid="KO" insttype="CMG-5T" commtype="DIG" lat="40.9902" lon="27.981">
    <comp name="--.HNE">
      <acc value="0.2529043026" flag="0"/>
      <vel value="0.3706765835" flag="0"/>
      <psa03 value="0.8322246557" flag="0"/>
      <psa10 value="0.3760751286" flag="0"/>
      <psa30 value="0.1527085977" flag="0"/>
    </comp>
    <comp name="--.HNN">
      <acc value="0.4163140705" flag="0"/>
      <vel value="0.5597743565" flag="0"/>
      <psa03 value="1.0820779860" flag="0"/>
      <psa10 value="0.5180264145" flag="0"/>
      <psa30 value="0.2160120280" flag="0"/>
    </comp>
    <comp name="--.HNZ">
      <acc value="0.1138373207" flag="0"/>
      <vel value="0.1626777924" flag="0"/>
      <psa03 value="0.2368340790" flag="0"/>
      <psa10 value="0.1119512774" flag="0"/>
      <psa30 value="0.0764609743" flag="0"/>
    </comp>
  </station>
  <station code="BUYK" name="BUYK" netid="KO" insttype="SA10" commtype="DIG" lat="41.0168" lon="28.5828">
    <comp name="--.HNE">
      <acc value="0.5365175517" flag="0"/>
      <vel value="1.1314661133" flag="0"/>
      <psa03 value="1.2915492230" flag="0"/>
      <psa10 value="1.2882082133" flag="0"/>
      <psa30 value="0.3415138742" flag="0"/>
    </comp>
    <comp name="--.HNN">
      <acc value="0.4153072752" flag="0"/>
      <vel value="1.0790816456" flag="0"/>
      <psa03 value="1.2167687238" flag="0"/>
      <psa10 value="0.8444333010" flag="0"/>
      <psa30 value="0.2197276837" flag="0"/>
    </comp>
    <comp name="--.HNZ">
      <acc value="0.2182128984" flag="0"/>
      <vel value="0.3209425732" flag="0"/>
      <psa03 value="0.4624196971" flag="0"/>
      <psa10 value="0.4172385412" flag="0"/>
      <psa30 value="0.0485236845" flag="0"/>
    </comp>
  </station>
  <station code="CANM" name="CANM" netid="KO" insttype="CMG-5T" commtype="DIG" lat="40.0113" lon="27.0529">
    <comp name="--.HNN">
      <acc value="0.5499146000" flag="0"/>
      <vel value="0.6703125434" flag="0"/>
      <psa03 value="1.1988474924" flag="0"/>
      <psa10 value="1.1847718550" flag="0"/>
      <psa30 value="0.2047721384" flag="0"/>
    </comp>
    <comp name="--.HNE">
      <acc value="0.5963486583" flag="0"/>
      <vel value="0.6231111089" flag="0"/>
      <psa03 value="1.2525019485" flag="0"/>
      <psa10 value="0.8875163744" flag="0"/>
      <psa30 value="0.1173384499" flag="0"/>
    </comp>
    <comp name="--.HNZ">
      <acc value="0.4459303587" flag="0"/>
      <vel value="0.4802630803" flag="0"/>
      <psa03 value="1.0246300094" flag="0"/>
      <psa10 value="0.3545891161" flag="0"/>
      <psa30 value="0.1684378304" flag="0"/>
    </comp>
  </station>
  <station code="DST" name="DST" netid="KO" insttype="CMG-5T" commtype="DIG" lat="39.6041" lon="28.6267">
    <comp name="--.HNE">
      <acc value="1.2409678110" flag="0"/>
      <vel value="0.6389862890" flag="0"/>
      <psa03 value="2.6510653263" flag="0"/>
      <psa10 value="0.8265143762" flag="0"/>
      <psa30 value="0.1929482188" flag="0"/>
    </comp>
    <comp name="--.HNN">
      <acc value="1.4074835137" flag="0"/>
      <vel value="0.8296136994" flag="0"/>
      <psa03 value="1.7883320965" flag="0"/>
      <psa10 value="0.7474988289" flag="0"/>
      <psa30 value="0.1554409424" flag="0"/>
    </comp>
    <comp name="--.HNZ">
      <acc value="1.0945393193" flag="0"/>
      <vel value="0.6498333977" flag="0"/>
      <psa03 value="1.8736926835" flag="0"/>
      <psa10 value="0.4913779836" flag="0"/>
      <psa30 value="0.1827010573" flag="0"/>
    </comp>
  </station>
  <station code="ERIK" name="ERIK" netid="KO" insttype="CMG-3ESP" commtype="DIG" lat="40.6708" lon="26.5132">
    <comp name="--.HHZ">
      <acc value="0.0828683140" flag="0"/>
      <vel value="0.1148797669" flag="0"/>
      <psa03 value="0.2199169108" flag="0"/>
      <psa10 value="0.1536688782" flag="0"/>
      <psa30 value="0.0652356740" flag="0"/>
    </comp>
  </station>
  <station code="ESKY" name="ESKY" netid="KO" insttype="CMG-5T" commtype="DIG" lat="40.5918" lon="28.9071">
    <comp name="--.HNE">
      <acc value="0.6968372456" flag="0"/>
      <vel value="0.5399832578" flag="0"/>
      <psa03 value="2.5804993003" flag="0"/>
      <psa10 value="0.5367933384" flag="0"/>
      <psa30 value="0.0886205333" flag="0"/>
    </comp>
    <comp name="--.HNN">
      <acc value="0.6966981510" flag="0"/>
      <vel value="0.7085607477" flag="0"/>
      <psa03 value="1.8524544132" flag="0"/>
      <psa10 value="0.7858665833" flag="0"/>
      <psa30 value="0.0640883139" flag="0"/>
    </comp>
    <comp name="--.HNZ">
      <acc value="0.3977198976" flag="0"/>
      <vel value="0.4824185396" flag="0"/>
      <psa03 value="1.4879315260" flag="0"/>
      <psa10 value="0.7206733243" flag="0"/>
      <psa30 value="0.0782130016" flag="0"/>
    </comp>
  </station>
  <station code="EZNE" name="EZNE" netid="KO" insttype="CMG-5T" commtype="DIG" lat="39.756" lon="26.3655">
    <comp name="--.HNE">
      <acc value="0.3727971658" flag="0"/>
      <vel value="0.3540739912" flag="0"/>
      <psa03 value="0.4927321248" flag="0"/>
      <psa10 value="0.5297919474" flag="0"/>
      <psa30 value="0.1028330869" flag="0"/>
    </comp>
    <comp name="--.HNN">
      <acc value="0.3592992546" flag="0"/>
      <vel value="0.5302610660" flag="0"/>
      <psa03 value="0.8263594363" flag="0"/>
