<stationlist created="1775699729">
	<station code="ALX2" name="ALX2" netid="HI" source="ITSAK Strong Motion Network" insttype="" lat="40.845417" lon="25.873947">
		<comp name="--.HNE" depth="0.0">
			<acc value="0.149981026112972" flag="0"/>
			<vel value="0.275780798923995" flag="0"/>
			<psa03 value="0.270061119390459" flag="0"/>
			<psa10 value="0.28155050133906" flag="0"/>
			<psa30 value="0.149060781211703" flag="0"/>
		</comp>
		<comp name="--.HNN" depth="0.0">
			<acc value="0.115941672960276" flag="0"/>
			<vel value="0.305605334044877" flag="0"/>
			<psa03 value="0.217204388724874" flag="0"/>
			<psa10 value="0.217345588078618" flag="0"/>
			<psa30 value="0.21066578224095" flag="0"/>
		</comp>
		<comp name="--.HNZ" depth="0.0">
			<acc value="0.0657840141877433" flag="0"/>
			<vel value="0.103506576163274" flag="0"/>
			<psa03 value="0.100595934820376" flag="0"/>
			<psa10 value="0.0969452721483482" flag="0"/>
			<psa30 value="0.0548386427907552" flag="0"/>
		</comp>
	</station>
	<station code="KMT1" name="KMT1" netid="HI" source="ITSAK Strong Motion Network" insttype="" lat="41.1159" lon="25.4066">
		<comp name="--.HNE" depth="0.0">
			<acc value="0.104551663679177" flag="0"/>
			<vel value="0.395803242523792" flag="0"/>
			<psa03 value="0.225343990433587" flag="0"/>
			<psa10 value="0.279055296043895" flag="0"/>
			<psa30 value="0.250899100834153" flag="0"/>
		</comp>
		<comp name="--.HNN" depth="0.0">
			<acc value="0.0986876210968179" flag="0"/>
			<vel value="0.344767624935152" flag="0"/>
			<psa03 value="0.198146501233071" flag="0"/>
			<psa10 value="0.271400348940992" flag="0"/>
			<psa30 value="0.144235234876511" flag="0"/>
		</comp>
		<comp name="--.HNZ" depth="0.0">
			<acc value="0.0734339974144049" flag="0"/>
			<vel value="0.255095886749448" flag="0"/>
			<psa03 value="0.118471077293918" flag="0"/>
			<psa10 value="0.130952689972853" flag="0"/>
			<psa30 value="0.185843684565312" flag="0"/>
		</comp>
	</station>
	<station code="KRL1" name="KRL1" netid="HI" source="ITSAK Strong Motion Network" insttype="" lat="37.7951" lon="26.7065">
		<comp name="--.HNE" depth="0.0">
			<acc value="0.282149802457261" flag="0"/>
			<vel value="0.321686686428779" flag="0"/>
			<psa03 value="0.954983096278741" flag="0"/>
			<psa10 value="0.384399924608324" flag="0"/>
			<psa30 value="0.112150776105341" flag="0"/>
		</comp>
		<comp name="--.HNN" depth="0.0">
			<acc value="0.190255112906496" flag="0"/>
			<vel value="0.43250549168431" flag="0"/>
			<psa03 value="0.745597392166861" flag="0"/>
			<psa10 value="0.37904063958203" flag="0"/>
			<psa30 value="0.211026606143847" flag="0"/>
		</comp>
		<comp name="--.HNZ" depth="0.0">
			<acc value="0.122163402498099" flag="0"/>
			<vel value="0.207420372382766" flag="0"/>
			<psa03 value="0.30151972420185" flag="0"/>
			<psa10 value="0.210353114861518" flag="0"/>
			<psa30 value="0.0713551535951887" flag="0"/>
		</comp>
	</station>
	<station code="LMN1" name="LMN1" netid="HI" source="ITSAK Strong Motion Network" insttype="" lat="39.875" lon="25.0588">
		<comp name="--.HNE" depth="0.0">
			<acc value="0.121798309217012" flag="0"/>
			<vel value="0.109869489608263" flag="0"/>
			<psa03 value="0.471515652264289" flag="0"/>
			<psa10 value="0.091919736731306" flag="0"/>
			<psa30 value="0.0693463671897864" flag="0"/>
		</comp>
		<comp name="--.HNN" depth="0.0">
			<acc value="0.0868660916532372" flag="0"/>
			<vel value="0.203433824396245" flag="0"/>
			<psa03 value="0.234903123678933" flag="0"/>
			<psa10 value="0.0982950840667993" flag="0"/>
			<psa30 value="0.103896689312592" flag="0"/>
		</comp>
		<comp name="--.HNZ" depth="0.0">
			<acc value="0.0554936087663797" flag="0"/>
			<vel value="0.0705682309162074" flag="0"/>
			<psa03 value="0.0918049253756893" flag="0"/>
			<psa10 value="0.0703133329131687" flag="0"/>
			<psa30 value="0.0362753363963603" flag="0"/>
		</comp>
	</station>
	<station code="MYT1" name="MYT1" netid="HI" source="ITSAK Strong Motion Network" insttype="" lat="39.085" lon="26.5694">
		<comp name="--.HNE" depth="0.0">
			<acc value="1.13605507282914" flag="0"/>
			<vel value="2.06631223018173" flag="0"/>
			<psa03 value="2.80238031060841" flag="0"/>
			<psa10 value="3.64399723693422" flag="0"/>
			<psa30 value="0.759867617499245" flag="0"/>
		</comp>
		<comp name="--.HNN" depth="0.0">
			<acc value="1.0934663112849" flag="0"/>
			<vel value="2.01153648203947" flag="0"/>
			<psa03 value="2.32007169336502" flag="0"/>
			<psa10 value="3.62187593150376" flag="0"/>
			<psa30 value="0.626877314212695" flag="0"/>
		</comp>
		<comp name="--.HNZ" depth="0.0">
			<acc value="0.603905409959873" flag="0"/>
			<vel value="0.926004004956171" flag="0"/>
			<psa03 value="1.13539171412874" flag="0"/>
			<psa10 value="1.6551168833703" flag="0"/>
			<psa30 value="0.212952293711079" flag="0"/>
		</comp>
	</station>
	<station code="NAX1" name="NAX1" netid="HI" source="ITSAK Strong Motion Network" insttype="" lat="37.101394" lon="25.374103">
		<comp name="--.HNE" depth="0.0">
			<acc value="0.0133573416989996" flag="0"/>
			<vel value="0.0854502169027957" flag="0"/>
			<psa03 value="0.0348058864483432" flag="0"/>
			<psa10 value="0.0362591869931956" flag="0"/>
			<psa30 value="0.0314988699789015" flag="0"/>
		</comp>
		<comp name="--.HNN" depth="0.0">
			<acc value="0.0102881610546784" flag="0"/>
			<vel value="0.0774270724358247" flag="0"/>
			<psa03 value="0.0242106559204681" flag="0"/>
			<psa10 value="0.0237034996155008" flag="0"/>
			<psa30 value="0.0281057585352401" flag="0"/>
		</comp>
		<comp name="--.HNZ" depth="0.0">
			<acc value="0.0100232648203091" flag="0"/>
			<vel value="0.0529964850201292" flag="0"/>
			<psa03 value="0.0203068921069228" flag="0"/>
			<psa10 value="0.0161505161424299" flag="0"/>
			<psa30 value="0.0198878574729598" flag="0"/>
		</comp>
	</station>
	<station code="PLM1" name="PLM1" netid="HI" source="ITSAK Strong Motion Network" insttype="" lat="38.9751" lon="26.3688">
		<comp name="--.HNE" depth="0.0">
			<acc value="0.403511708075124" flag="0"/>
			<vel value="0.34359806127956" flag="0"/>
			<psa03 value="1.35698231008547" flag="0"/>
			<psa10 value="0.238853922900271" flag="0"/>
			<psa30 value="0.0999949441741661" flag="0"/>
		</comp>
		<comp name="--.HNN" depth="0.0">
			<acc value="0.243588665420879" flag="0"/>
			<vel value="0.516978219819764" flag="0"/>
			<psa03 value="0.406802406996341" flag="0"/>
			<psa10 value="0.455033963767147" flag="0"/>
			<psa30 value="0.246731358074758" flag="0"/>
		</comp>
		<comp name="--.HNZ" depth="0.0">
			<acc value="0.134026507850643" flag="0"/>
			<vel value="0.323033318779534" flag="0"/>
			<psa03 value="0.261749006253662" flag="0"/>
			<psa10 value="0.230015337387173" flag="0"/>
			<psa30 value="0.159743902249422" flag="0"/>
		</comp>
	</station>
	<station code="RDI1" name="RDI1" netid="HI" source="ITSAK Strong Motion Network" insttype="" lat="36.4514" lon="28.224">
		<comp name="--.HNE" depth="0.0">
			<acc value="0.147708615698496" flag="0"/>
			<vel value="0.797523415653231" flag="0"/>
			<psa03 value="0.157014307677186" flag="0"/>
			<psa10 value="0.334367560209934" flag="0"/>
			<psa30 value="0.331696106572309" flag="0"/>
		</comp>
		<comp name="--.HNN" depth="0.0">
			<acc value="0.151574594186794" flag="0"/>
			<vel value="0.731856620811245" flag="0"/>
			<psa03 value="0.172097244347961" flag="0"/>
			<psa10 value="0.290054504687398" flag="0"/>
			<psa30 value="0.338028926090706" flag="0"/>
		</comp>
		<comp name="--.HNZ" depth="0.0">
			<acc value="0.0689407417209853" flag="0"/>
			<vel value="0.215805180124821" flag="0"/>
			<psa03 value="0.092926770525978" flag="0"/>
			<psa10 value="0.162142726159753" flag="0"/>
			<psa30 value="0.156506541123567" flag="0"/>
		</comp>
	</station>
	<station code="RKL1" name="RKL1" netid="HI" source="ITSAK Strong Motion Network" insttype="" lat="36.336699" lon="28.171224">
		<comp name="--.HNE" depth="0.0">
			<acc value="0.0761268414938598" flag="0"/>
			<vel value="0.367944586665719" flag="0"/>
			<psa03 value="0.215013660266435" flag="0"/>
			<psa10 value="0.235427365907507" flag="0"/>
			<psa30 value="0.0720536265325672" flag="0"/>
		</comp>
		<comp name="--.HNN" depth="0.0">
			<acc value="0.0680967279975364" flag="0"/>
			<vel value="0.142614271921891" flag="0"/>
			<psa03 value="0.154199850400137" flag="0"/>
			<psa10 value="0.211059526657652" flag="0"/>
			<psa30 value="0.0773459437893368" flag="0"/>
		</comp>
		<comp name="--.HNZ" depth="0.0">
			<acc value="0.0329738850492307" flag="0"/>
			<vel value="0.135524577686896" flag="0"/>
			<psa03 value="0.111991335542905" flag="0"/>
			<psa10 value="0.0657039775660323" flag="0"/>
			<psa30 value="0.0568069165128359" flag="0"/>
		</comp>
	</station>
	<station code="RKT1" name="RKT1" netid="HI" source="ITSAK Strong Motion Network" insttype="" lat="35.954336" lon="27.767327">
		<comp name="--.HNE" depth="0.0">
			<acc value="0.0374830775676904" flag="0"/>
			<vel value="0.162588673009531" flag="0"/>
			<psa03 value="0.0787585298661691" flag="0"/>
			<psa10 value="0.0772913526728092" flag="0"/>
			<psa30 value="0.0950794852159742" flag="0"/>
		</comp>
		<comp name="--.HNN" depth="0.0">
			<acc value="0.0313648038143078" flag="0"/>
			<vel value="0.121218386704996" flag="0"/>
			<psa03 value="0.103471229460982" flag="0"/>
			<psa10 value="0.0528532262667479" flag="0"/>
			<psa30 value="0.0379474471654848" flag="0"/>
		</comp>
		<comp name="--.HNZ" depth="0.0">
			<acc value="0.0236053054281059" flag="0"/>
			<vel value="0.0684103606227282" flag="0"/>
			<psa03 value="0.0456823022698738" flag="0"/>
			<psa10 value="0.0419186156527573" flag="0"/>
			<psa30 value="0.0284897973092628" flag="0"/>
		</comp>
	</station>
	<station code="RPN1" name="RPN1" netid="HI" source="ITSAK Strong Motion Network" insttype="" lat="36.448678" lon="28.218047">
		<comp name="--.HNE" depth="0.0">
			<acc value="0.123366411608128" flag="0"/>
			<vel value="0.631478819903647" flag="0"/>
			<psa03 value="0.15621187952023" flag="0"/>
			<psa10 value="0.277855126538631" flag="0"/>
			<psa30 value="0.270969017034312" flag="0"/>
		</comp>
		<comp name="--.HNN" depth="0.0">
			<acc value="0.141228216780998" flag="0"/>
			<vel value="0.812859349363975" flag="0"/>
			<psa03 value="0.147568140248613" flag="0"/>
			<psa10 value="0.256832523894092" flag="0"/>
			<psa30 value="0.327639171153785" flag="0"/>
		</comp>
		<comp name="--.HNZ" depth="0.0">
			<acc value="0.071849619954113" flag="0"/>
			<vel value="0.209024883120752" flag="0"/>
			<psa03 value="0.0772371113712554" flag="0"/>
			<psa10 value="0.15958036141587" flag="0"/>
			<psa30 value="0.140880545978127" flag="0"/>
		</comp>
	</station>
	<station code="RSO1" name="RSO1" netid="HI" source="ITSAK Strong Motion Network" insttype="" lat="36.3632" lon="28.0016">
		<comp name="--.HNE" depth="0.0">
			<acc value="0.0950436841530911" flag="0"/>
			<vel value="0.402731455202446" flag="0"/>
			<psa03 value="0.130398752860936" flag="0"/>
			<psa10 value="0.251399433978861" flag="0"/>
			<psa30 value="0.183501929435405" flag="0"/>
		</comp>
		<comp name="--.HNN" depth="0.0">
			<acc value="0.0740059331089826" flag="0"/>
			<vel value="0.413219934957634" flag="0"/>
			<psa03 value="0.158270963841397" flag="0"/>
			<psa10 value="0.16642750500524" flag="0"/>
			<psa30 value="0.165422465093315" flag="0"/>
		</comp>
		<comp name="--.HNZ" depth="0.0">
			<acc value="0.0437095685865067" flag="0"/>
			<vel value="0.120187108181823" flag="0"/>
			<psa03 value="0.0770814187654819" flag="0"/>
			<psa10 value="0.1127440937428" flag="0"/>
			<psa30 value="0.0751666194195966" flag="0"/>
		</comp>
	</station>
	<station code="SKY1" name="SKY1" netid="HI" source="ITSAK Strong Motion Network" insttype="" lat="38.904483" lon="24.564572">
		<comp name="--.HNE" depth="0.0">
			<acc value="0.0413111792654421" flag="0"/>
			<vel value="0.100625070045293" flag="0"/>
			<psa03 value="0.0909479623560457" flag="0"/>
			<psa10 value="0.0791832104989618" flag="0"/>
			<psa30 value="0.0470827523345666" flag="0"/>
		</comp>
		<comp name="--.HNN" depth="0.0">
			<acc value="0.0424997771717012" flag="0"/>
			<vel value="0.193025545682957" flag="0"/>
			<psa03 value="0.0829082318466111" flag="0"/>
			<psa10 value="0.135483410110972" flag="0"/>
			<psa30 value="0.0555749415672283" flag="0"/>
		</comp>
		<comp name="--.HNZ" depth="0.0">
			<acc value="0.0237196725786648" flag="0"/>
			<vel value="0.062314715413645" flag="0"/>
			<psa03 value="0.0420259168232238" flag="0"/>
			<psa10 value="0.0604393525604761" flag="0"/>
			<psa30 value="0.0488125235900888" flag="0"/>
		</comp>
	</station>
	<station code="SPP1" name="SPP1" netid="HI" source="ITSAK Strong Motion Network" insttype="" lat="41.0225" lon="25.7013">
		<comp name="--.HNE" depth="0.0">
			<acc value="0.132059257200037" flag="0"/>
			<vel value="0.219259766783257" flag="0"/>
			<psa03 value="0.290915500890753" flag="0"/>
			<psa10 value="0.329285523549999" flag="0"/>
			<psa30 value="0.0889437320857845" flag="0"/>
		</comp>
		<comp name="--.HNN" depth="0.0">
			<acc value="0.134719835633792" flag="0"/>
			<vel value="0.322779551203463" flag="0"/>
			<psa03 value="0.217086026717001" flag="0"/>
			<psa10 value="0.305169655991857" flag="0"/>
			<psa30 value="0.224964742810349" flag="0"/>
		</comp>
		<comp name="--.HNZ" depth="0.0">
			<acc value="0.0753827635269871" flag="0"/>
			<vel value="0.152675495501361" flag="0"/>
			<psa03 value="0.0943303635069748" flag="0"/>
			<psa10 value="0.332197996486929" flag="0"/>
			<psa30 value="0.0502503788410723" flag="0"/>
		</comp>
	</station>
	<station code="XAN2" name="XAN2" netid="HI" source="ITSAK Strong Motion Network" insttype="" lat="41.142046" lon="24.890781">
		<comp name="--.HNE" depth="0.0">
			<acc value="0.0340208166959866" flag="0"/>
			<vel value="0.0866416619743817" flag="0"/>
			<psa03 value="0.042884710693291" flag="0"/>
			<psa10 value="0.122174468459133" flag="0"/>
			<psa30 value="0.041270830656654" flag="0"/>
		</comp>
		<comp name="--.HNN" depth="0.0">
			<acc value="0.0266953219571511" flag="0"/>
			<vel value="0.0829990828159495" flag="0"/>
			<psa03 value="0.0380580185527814" flag="0"/>
			<psa10 value="0.0777689168091028" flag="0"/>
			<psa30 value="0.0273313722359285" flag="0"/>
		</comp>
		<comp name="--.HNZ" depth="0.0">
			<acc value="0.0216518924347459" flag="0"/>
			<vel value="0.0591039471116196" flag="0"/>
			<psa03 value="0.0487019085539062" flag="0"/>
			<psa10 value="0.0405305099475686" flag="0"/>
			<psa30 value="0.0262635398306243" flag="0"/>
		</comp>
	</station>
	<station code="ALNA" name="ALNA" netid="HL" source="National Observatory of Athens Seismic Network" insttype="" lat="39.14804" lon="23.86669">
		<comp name="00.HNE" depth="0.0">
			<acc value="0.0354607525990261" flag="0"/>
			<vel value="0.0639837503836262" flag="0"/>
			<psa03 value="0.0421954020091221" flag="0"/>
			<psa10 value="0.127920914132868" flag="0"/>
			<psa30 value="0.0301116314144552" flag="0"/>
		</comp>
		<comp name="00.HNN" depth="0.0">
			<acc value="0.0444684197392936" flag="0"/>
			<vel value="0.166544981393818" flag="0"/>
			<psa03 value="0.0515061464044788" flag="0"/>
			<psa10 value="0.0998158398094554" flag="0"/>
			<psa30 value="0.0848099049064669" flag="0"/>
		</comp>
		<comp name="00.HNZ" depth="0.0">
			<acc value="0.0217394963293302" flag="0"/>
			<vel value="0.0521489950716467" flag="0"/>
			<psa03 value="0.0265912615405865" flag="0"/>
			<psa10 value="0.0501440580477883" flag="0"/>
			<psa30 value="0.0264276173666311" flag="0"/>
		</comp>
	</station>
	<station code="ALXA" name="ALXA" netid="HL" source="National Observatory of Athens Seismic Network" insttype="" lat="40.8555" lon="25.90192">
		<comp name="00.HNE" depth="0.0">
			<acc value="0.132358890089962" flag="0"/>
			<vel value="0.330039526613799" flag="0"/>
			<psa03 value="0.313409157651862" flag="0"/>
			<psa10 value="0.252091789843898" flag="0"/>
			<psa30 value="0.21500144279037" flag="0"/>
		</comp>
		<comp name="00.HNN" depth="0.0">
			<acc value="0.152960171195069" flag="0"/>
			<vel value="0.488715426538092" flag="0"/>
			<psa03 value="0.316728648385151" flag="0"/>
			<psa10 value="0.30546205536189" flag="0"/>
			<psa30 value="0.260717057892105" flag="0"/>
		</comp>
		<comp name="00.HNZ" depth="0.0">
			<acc value="0.0675600865972264" flag="0"/>
			<vel value="0.0989281681840148" flag="0"/>
			<psa03 value="0.159011273299876" flag="0"/>
			<psa10 value="0.130159662438785" flag="0"/>
			<psa30 value="0.0397422460621006" flag="0"/>
		</comp>
	</station>
	<station code="AMGA" name="AMGA" netid="HL" source="National Observatory of Athens Seismic Network" insttype="" lat="36.831561" lon="25.893836">
		<comp name="00.HNE" depth="0.0">
			<acc value="0.0408733520159354" flag="0"/>
			<vel value="0.223687624248818" flag="0"/>
			<psa03 value="0.0955861446129524" flag="0"/>
			<psa10 value="0.0513804774544053" flag="0"/>
			<psa30 value="0.0999240328101744" flag="0"/>
		</comp>
		<comp name="00.HNN" depth="0.0">
			<acc value="0.0418890942833983" flag="0"/>
			<vel value="0.175025705948165" flag="0"/>
			<psa03 value="0.0832071318559146" flag="0"/>
			<psa10 value="0.0430932459659061" flag="0"/>
			<psa30 value="0.0804856851151156" flag="0"/>
		</comp>
		<comp name="00.HNZ" depth="0.0">
			<acc value="0.0383044355805273" flag="0"/>
			<vel value="0.207977667235821" flag="0"/>
			<psa03 value="0.125118736418854" flag="0"/>
			<psa10 value="0.0585801443970641" flag="0"/>
			<psa30 value="0.0809784844270303" flag="0"/>
		</comp>
	</station>
	<station code="ANAF" name="ANAF" netid="HL" source="National Observatory of Athens Seismic Network" insttype="" lat="36.35675" lon="25.77262">
		<comp name="--.HNE" depth="0.0">
			<acc value="0.0401778387344771" flag="0"/>
			<vel value="0.185586060605637" flag="0"/>
			<psa03 value="0.13573561681833" flag="0"/>
			<psa10 value="0.0597441577573297" flag="0"/>
			<psa30 value="0.052136777138879" flag="0"/>
		</comp>
		<comp name="--.HNN" depth="0.0">
			<acc value="0.0511568085986885" flag="0"/>
			<vel value="0.202129096485372" flag="0"/>
			<psa03 value="0.155212073704878" flag="0"/>
			<psa10 value="0.0666875177206655" flag="0"/>
			<psa30 value="0.0792698045689617" flag="0"/>
		</comp>
		<comp name="--.HNZ" depth="0.0">
			<acc value="0.0340840200867243" flag="0"/>
			<vel value="0.196087225255925" flag="0"/>
			<psa03 value="0.0794005411463665" flag="0"/>
			<psa10 value="0.0407570024512982" flag="0"/>
			<psa30 value="0.0637413025485686" flag="0"/>
		</comp>
	</station>
	<station code="ASTA" name="ASTA" netid="HL" source="National Observatory of Athens Seismic Network" insttype="" lat="36.54552" lon="26.35295">
		<comp name="00.HNE" depth="0.0">
			<acc value="0.0243219147998874" flag="0"/>
			<vel value="0.101284939281028" flag="0"/>
			<psa03 value="0.0405095585594414" flag="0"/>
			<psa10 value="0.0473702167945544" flag="0"/>
			<psa30 value="0.0273684130230309" flag="0"/>
		</comp>
		<comp name="00.HNN" depth="0.0">
			<acc value="0.0205170895754825" flag="0"/>
			<vel value="0.111114187440485" flag="0"/>
			<psa03 value="0.0335641791913299" flag="0"/>
			<psa10 value="0.0424415427938755" flag="0"/>
			<psa30 value="0.0513099356979973" flag="0"/>
		</comp>
		<comp name="00.HNZ" depth="0.0">
			<acc value="0.0333258760964064" flag="0"/>
			<vel value="0.0983873252270314" flag="0"/>
			<psa03 value="0.0679404798901785" flag="0"/>
			<psa10 value="0.0485571666739846" flag="0"/>
			<psa30 value="0.0402201110516133" flag="0"/>
		</comp>
	</station>
	<station code="EFSA" name="EFSA" netid="HL" source="National Observatory of Athens Seismic Network" insttype="" lat="39.54015" lon="24.98864">
		<comp name="00.HNE" depth="0.0">
			<acc value="0.110310494933805" flag="0"/>
			<vel value="0.304322983029909" flag="0"/>
			<psa03 value="0.166589879512149" flag="0"/>
			<psa10 value="0.217739619180964" flag="0"/>
			<psa30 value="0.191684591496559" flag="0"/>
		</comp>
		<comp name="00.HNN" depth="0.0">
