<?xml version="1.0" encoding="UTF-8" standalone="yes"?>
<!DOCTYPE earthquake SYSTEM "stationlist.dtd">
<stationlist created="" xmlns="ch.ethz.sed.shakemap.usgs.xml">
  <station code="STPG" name="STPG" netid="HC" insttype="60" lat="36.9347" lon="22.1902">
    <comp name="--.HHE">
      <acc value="0.0483420603" flag="0"/>
      <vel value="0.0265949515" flag="0"/>
      <psa03 value="0.1253807859" flag="0"/>
      <psa10 value="0.0141151851" flag="0"/>
      <psa30 value="0.0011895772" flag="0"/>
    </comp>
    <comp name="--.HHN">
      <acc value="0.0433252221" flag="0"/>
      <vel value="0.0166713998" flag="0"/>
      <psa03 value="0.1096527686" flag="0"/>
      <psa10 value="0.0091518644" flag="0"/>
      <psa30 value="0.0009235594" flag="0"/>
    </comp>
    <comp name="--.HHZ">
      <acc value="0.0316727392" flag="0"/>
      <vel value="0.0104936495" flag="0"/>
      <psa03 value="0.0576005864" flag="0"/>
      <psa10 value="0.0063432790" flag="0"/>
      <psa30 value="0.0005814454" flag="0"/>
    </comp>
  </station>
  <station code="PYL1" name="PYL1" netid="HI" insttype="CMG-5TD,ACCELEROMETER,GURALP" lat="36.9142" lon="21.6952">
    <comp name="--.HNE">
      <acc value="0.0199027924" flag="0"/>
      <vel value="0.0149916144" flag="0"/>
      <psa03 value="0.0384132110" flag="0"/>
      <psa10 value="0.0124595966" flag="0"/>
      <psa30 value="0.0008001101" flag="0"/>
    </comp>
    <comp name="--.HNN">
      <acc value="0.0165226983" flag="0"/>
      <vel value="0.0119065501" flag="0"/>
      <psa03 value="0.0332631497" flag="0"/>
      <psa10 value="0.0115786134" flag="0"/>
      <psa30 value="0.0010024232" flag="0"/>
    </comp>
    <comp name="--.HNZ">
      <acc value="0.0113001892" flag="0"/>
      <vel value="0.0050530760" flag="0"/>
      <psa03 value="0.0226009781" flag="0"/>
      <psa10 value="0.0062572837" flag="0"/>
      <psa30 value="0.0009133268" flag="0"/>
    </comp>
  </station>
  <station code="ITM" name="ITM" netid="HL" insttype="DR24" lat="37.1787" lon="21.9252">
    <comp name="--.HHE">
      <acc value="0.0128475335" flag="0"/>
      <vel value="0.0069459453" flag="0"/>
      <psa03 value="0.0311452058" flag="0"/>
      <psa10 value="0.0073296161" flag="0"/>
      <psa30 value="0.0006481390" flag="0"/>
    </comp>
    <comp name="--.HHN">
      <acc value="0.0128547905" flag="0"/>
      <vel value="0.0067294273" flag="0"/>
      <psa03 value="0.0242242434" flag="0"/>
      <psa10 value="0.0052435107" flag="0"/>
      <psa30 value="0.0007504294" flag="0"/>
    </comp>
    <comp name="--.HHZ">
      <acc value="0.0108556530" flag="0"/>
      <vel value="0.0065469100" flag="0"/>
      <psa03 value="0.0231404956" flag="0"/>
      <psa10 value="0.0082486402" flag="0"/>
      <psa30 value="0.0007520593" flag="0"/>
    </comp>
  </station>
  <station code="AMT" name="AMT" netid="HP" insttype="CMG-3T," lat="37.5324" lon="21.7089">
    <comp name="00.HHE">
      <acc value="0.0218562772" flag="0"/>
      <vel value="0.0142888915" flag="0"/>
      <psa03 value="0.0474135976" flag="0"/>
      <psa10 value="0.0227024619" flag="0"/>
      <psa30 value="0.0011950391" flag="0"/>
    </comp>
    <comp name="00.HHZ">
      <acc value="0.0177463450" flag="0"/>
      <vel value="0.0140712572" flag="0"/>
      <psa03 value="0.0426195077" flag="0"/>
      <psa10 value="0.0118197383" flag="0"/>
      <psa30 value="0.0007343557" flag="0"/>
    </comp>
    <comp name="00.HHN">
      <acc value="0.0298639367" flag="0"/>
      <vel value="0.0170537927" flag="0"/>
      <psa03 value="0.0401699914" flag="0"/>
      <psa10 value="0.0208702187" flag="0"/>
      <psa30 value="0.0009249297" flag="0"/>
    </comp>
  </station>
  <station code="LTHK" name="LTHK" netid="HP" insttype="40," lat="37.7095" lon="20.8367">
    <comp name="--.HHE">
      <acc value="0.0331082407" flag="0"/>
      <vel value="0.0110006638" flag="0"/>
      <psa03 value="0.0402544582" flag="0"/>
      <psa10 value="0.0105072228" flag="0"/>
      <psa30 value="0.0007787531" flag="0"/>
    </comp>
    <comp name="--.HHZ">
      <acc value="0.0182304851" flag="0"/>
      <vel value="0.0083995910" flag="0"/>
      <psa03 value="0.0582283888" flag="0"/>
      <psa10 value="0.0057870151" flag="0"/>
      <psa30 value="0.0006991655" flag="0"/>
    </comp>
    <comp name="--.HHN">
      <acc value="0.0245255558" flag="0"/>
      <vel value="0.0090468525" flag="0"/>
      <psa03 value="0.0530342256" flag="0"/>
      <psa10 value="0.0124856532" flag="0"/>
      <psa30 value="0.0009322753" flag="0"/>
    </comp>
  </station>
  <station code="VALY" name="VALY" netid="HP" insttype="DC_100" lat="37.1641" lon="21.9836">
    <comp name="--.HNZ">
      <acc value="0.0054841607" flag="0"/>
      <vel value="0.0032201123" flag="0"/>
      <psa03 value="0.0109295471" flag="0"/>
      <psa10 value="0.0073870509" flag="0"/>
      <psa30 value="0.0004888905" flag="0"/>
    </comp>
    <comp name="--.HNE">
      <acc value="0.0120059802" flag="0"/>
      <vel value="0.0062497623" flag="0"/>
      <psa03 value="0.0230973995" flag="0"/>
      <psa10 value="0.0047076775" flag="0"/>
      <psa30 value="0.0005359612" flag="0"/>
    </comp>
    <comp name="--.HNN">
      <acc value="0.0108011006" flag="0"/>
      <vel value="0.0064174574" flag="0"/>
      <psa03 value="0.0247045374" flag="0"/>
      <psa10 value="0.0058661623" flag="0"/>
      <psa30 value="0.0004958409" flag="0"/>
    </comp>
  </station>
</stationlist>
