<stationlist created="1778136592">
	<station code="ROD3" name="ROD3" netid="CL" source="Corinth Riff Laboratory (CRLNET)" insttype="" lat="38.30811" lon="21.89204">
		<comp name="00.HNE" depth="0.0">
			<acc value="0.00424706284016703" flag="0"/>
			<vel value="0.00285535747108958" flag="0"/>
			<psa03 value="0.0134864962787711" flag="0"/>
			<psa10 value="0.00469040290367688" flag="0"/>
			<psa30 value="0.00050486417394133" flag="0"/>
		</comp>
		<comp name="00.HNN" depth="0.0">
			<acc value="0.00448710975910218" flag="0"/>
			<vel value="0.0033940693184204" flag="0"/>
			<psa03 value="0.0129958583076473" flag="0"/>
			<psa10 value="0.00338723094992594" flag="0"/>
			<psa30 value="0.000450244982770786" flag="0"/>
		</comp>
		<comp name="00.HNZ" depth="0.0">
			<acc value="0.00282362851730871" flag="0"/>
			<vel value="0.0016408917720426" flag="0"/>
			<psa03 value="0.00510616801118198" flag="0"/>
			<psa10 value="0.00267868760615764" flag="0"/>
			<psa30 value="0.000298442035945337" flag="0"/>
		</comp>
	</station>
	<station code="KTHA" name="KTHA" netid="GE" source="GEOFON" insttype="" lat="36.2566" lon="23.0621">
		<comp name="--.HNE" depth="0.0">
			<acc value="0.0020349041534528" flag="0"/>
			<vel value="0.00202469038753485" flag="0"/>
			<psa03 value="0.00485997689753109" flag="0"/>
			<psa10 value="0.00336357180449844" flag="0"/>
			<psa30 value="0.00116021258755738" flag="0"/>
		</comp>
		<comp name="--.HNN" depth="0.0">
			<acc value="0.00212662233969142" flag="0"/>
			<vel value="0.00210251541532066" flag="0"/>
			<psa03 value="0.00318119023042715" flag="0"/>
			<psa10 value="0.0038524759888789" flag="0"/>
			<psa30 value="0.00154087842980221" flag="0"/>
		</comp>
		<comp name="--.HNZ" depth="0.0">
			<acc value="0.00168552529068701" flag="0"/>
			<vel value="0.0015080249487939" flag="0"/>
			<psa03 value="0.00483733086611382" flag="0"/>
			<psa10 value="0.00285340253954129" flag="0"/>
			<psa30 value="0.000967719523336897" flag="0"/>
		</comp>
	</station>
	<station code="AIGS" name="AIGS" netid="HA" source="Hellenic Seismological Network, University of Athens, Seismological Laboratory (HA)" insttype="" lat="38.25001" lon="22.0878">
		<comp name="--.HNE" depth="0.0">
			<acc value="0.00337677084560627" flag="0"/>
			<vel value="0.00243168252852715" flag="0"/>
			<psa03 value="0.00705730019378241" flag="0"/>
			<psa10 value="0.00473885845736693" flag="0"/>
			<psa30 value="0.000722071896218312" flag="0"/>
		</comp>
		<comp name="--.HNN" depth="0.0">
			<acc value="0.003652201645541" flag="0"/>
			<vel value="0.0024374951433678" flag="0"/>
			<psa03 value="0.00621340965475659" flag="0"/>
			<psa10 value="0.00335159116708973" flag="0"/>
			<psa30 value="0.000883164442810116" flag="0"/>
		</comp>
		<comp name="--.HNZ" depth="0.0">
			<acc value="0.00332089543358703" flag="0"/>
			<vel value="0.00180377362856958" flag="0"/>
			<psa03 value="0.00477249616746426" flag="0"/>
			<psa10 value="0.00421600210193186" flag="0"/>
			<psa30 value="0.000590250403277465" flag="0"/>
		</comp>
	</station>
	<station code="KIAS" name="KIAS" netid="HA" source="Hellenic Seismological Network, University of Athens, Seismological Laboratory (HA)" insttype="" lat="37.9875" lon="22.7543">
		<comp name="--.HNE" depth="0.0">
			<acc value="0.00396177025804692" flag="0"/>
			<vel value="0.00347560548712334" flag="0"/>
			<psa03 value="0.00773749564401139" flag="0"/>
			<psa10 value="0.00694096964892438" flag="0"/>
			<psa30 value="0.00138699490243826" flag="0"/>
		</comp>
		<comp name="--.HNN" depth="0.0">
			<acc value="0.00376249602692927" flag="0"/>
			<vel value="0.00376311256892145" flag="0"/>
			<psa03 value="0.00603790453882639" flag="0"/>
			<psa10 value="0.00505281566173093" flag="0"/>
			<psa30 value="0.000996534765538694" flag="0"/>
		</comp>
		<comp name="--.HNZ" depth="0.0">
			<acc value="0.00401248616280123" flag="0"/>
			<vel value="0.00246102106775328" flag="0"/>
			<psa03 value="0.00615163603130886" flag="0"/>
			<psa10 value="0.00331898767914529" flag="0"/>
			<psa30 value="0.000627111959757868" flag="0"/>
		</comp>
	</station>
	<station code="LTRS" name="LTRS" netid="HA" source="Hellenic Seismological Network, University of Athens, Seismological Laboratory (HA)" insttype="" lat="37.97528" lon="22.9765">
		<comp name="--.HNE" depth="0.0">
			<acc value="0.00426325757469649" flag="0"/>
			<vel value="0.00404953443659884" flag="0"/>
			<psa03 value="0.00831488871117339" flag="0"/>
			<psa10 value="0.00997592616865207" flag="0"/>
			<psa30 value="0.000746969899757089" flag="0"/>
		</comp>
		<comp name="--.HNN" depth="0.0">
			<acc value="0.00416457075378514" flag="0"/>
			<vel value="0.00431313743980877" flag="0"/>
			<psa03 value="0.00890265616353776" flag="0"/>
			<psa10 value="0.00989489923850151" flag="0"/>
			<psa30 value="0.000631055033465833" flag="0"/>
		</comp>
		<comp name="--.HNZ" depth="0.0">
			<acc value="0.00447206703738691" flag="0"/>
			<vel value="0.00306439707329071" flag="0"/>
			<psa03 value="0.00602367833598196" flag="0"/>
			<psa10 value="0.00557578171191137" flag="0"/>
			<psa30 value="0.000483929870478057" flag="0"/>
		</comp>
	</station>
	<station code="XLKS" name="XLKS" netid="HA" source="Hellenic Seismological Network, University of Athens, Seismological Laboratory (HA)" insttype="" lat="38.0772" lon="22.6361">
		<comp name="--.HNE" depth="0.0">
			<acc value="0.0083324532207473" flag="0"/>
			<vel value="0.00821912576174514" flag="0"/>
			<psa03 value="0.0150845331304692" flag="0"/>
			<psa10 value="0.0191680091615526" flag="0"/>
			<psa30 value="0.00109041546383746" flag="0"/>
		</comp>
		<comp name="--.HNN" depth="0.0">
			<acc value="0.00624844180338148" flag="0"/>
			<vel value="0.00758852330327501" flag="0"/>
			<psa03 value="0.013891911156362" flag="0"/>
			<psa10 value="0.0121065988777762" flag="0"/>
			<psa30 value="0.00157383248784585" flag="0"/>
		</comp>
		<comp name="--.HNZ" depth="0.0">
			<acc value="0.00784713954448667" flag="0"/>
			<vel value="0.0027007919730656" flag="0"/>
			<psa03 value="0.00998318151908365" flag="0"/>
			<psa10 value="0.00458110472568982" flag="0"/>
			<psa30 value="0.000856106296175505" flag="0"/>
		</comp>
	</station>
	<station code="PYL1" name="PYL1" netid="HI" source="ITSAK Strong Motion Network" insttype="" lat="36.914188" lon="21.695161">
		<comp name="--.HNE" depth="0.0">
			<acc value="0.0199621947817047" flag="0"/>
			<vel value="0.0149689988632711" flag="0"/>
			<psa03 value="0.0379578634804882" flag="0"/>
			<psa10 value="0.012416480030885" flag="0"/>
			<psa30 value="0.0013361907035771" flag="0"/>
		</comp>
		<comp name="--.HNN" depth="0.0">
			<acc value="0.0162727571050889" flag="0"/>
			<vel value="0.0118527319938239" flag="0"/>
			<psa03 value="0.0337335966643728" flag="0"/>
			<psa10 value="0.0115407295167076" flag="0"/>
			<psa30 value="0.00088105846996736" flag="0"/>
		</comp>
		<comp name="--.HNZ" depth="0.0">
			<acc value="0.011278176176874" flag="0"/>
			<vel value="0.00513321603462686" flag="0"/>
			<psa03 value="0.0228065108194337" flag="0"/>
			<psa10 value="0.00619110138009602" flag="0"/>
			<psa30 value="0.000757677067385031" flag="0"/>
		</comp>
	</station>
	<station code="ITM" name="ITM" netid="HL" source="National Observatory of Athens Seismic Network" insttype="" lat="37.17872" lon="21.92522">
		<comp name="--.HNE" depth="0.0">
			<acc value="0.0125951884449833" flag="0"/>
			<vel value="0.00667694966230818" flag="0"/>
			<psa03 value="0.0300877145175712" flag="0"/>
			<psa10 value="0.00709444575344614" flag="0"/>
			<psa30 value="0.000626675316245858" flag="0"/>
		</comp>
		<comp name="--.HNN" depth="0.0">
			<acc value="0.0125528409354417" flag="0"/>
			<vel value="0.00666589139092223" flag="0"/>
			<psa03 value="0.0237534615710871" flag="0"/>
			<psa10 value="0.00509485032133059" flag="0"/>
			<psa30 value="0.000761804632485826" flag="0"/>
		</comp>
		<comp name="--.HNZ" depth="0.0">
			<acc value="0.0102409913645974" flag="0"/>
			<vel value="0.00601085783746039" flag="0"/>
			<psa03 value="0.0215523522167388" flag="0"/>
			<psa10 value="0.00762977074736751" flag="0"/>
			<psa30 value="0.000766806838854329" flag="0"/>
		</comp>
	</station>
	<station code="PATG" name="PATG" netid="HL" source="National Observatory of Athens Seismic Network" insttype="" lat="38.23865" lon="21.72657">
		<comp name="00.HNE" depth="0.0">
			<acc value="0.00639355712990515" flag="0"/>
			<vel value="0.00647877016483197" flag="0"/>
			<psa03 value="0.0102312526400784" flag="0"/>
			<psa10 value="0.0109018700078963" flag="0"/>
			<psa30 value="0.0030078661313713" flag="0"/>
		</comp>
		<comp name="00.HNN" depth="0.0">
			<acc value="0.00681442065879369" flag="0"/>
			<vel value="0.00687551842008534" flag="0"/>
			<psa03 value="0.0121727230498227" flag="0"/>
			<psa10 value="0.0124586553247746" flag="0"/>
			<psa30 value="0.00246166411483089" flag="0"/>
		</comp>
		<comp name="00.HNZ" depth="0.0">
			<acc value="0.0245129631656617" flag="0"/>
			<vel value="0.00648835571823504" flag="0"/>
			<psa03 value="0.00935329408897538" flag="0"/>
			<psa10 value="0.00952197922190696" flag="0"/>
			<psa30 value="0.00129064977004812" flag="0"/>
		</comp>
	</station>
	<station code="YDRA" name="YDRA" netid="HL" source="National Observatory of Athens Seismic Network" insttype="" lat="37.34923" lon="23.46525">
		<comp name="00.HNE" depth="0.0">
			<acc value="0.00225893735027102" flag="0"/>
			<vel value="0.00123298617678332" flag="0"/>
			<psa03 value="0.00301655139422584" flag="0"/>
			<psa10 value="0.00257884122619959" flag="0"/>
			<psa30 value="0.000292536071787526" flag="0"/>
		</comp>
		<comp name="00.HNN" depth="0.0">
			<acc value="0.00218927098246774" flag="0"/>
			<vel value="0.00113550710822709" flag="0"/>
			<psa03 value="0.00254731181331383" flag="0"/>
			<psa10 value="0.00232282020356415" flag="0"/>
			<psa30 value="0.0003066287761933" flag="0"/>
		</comp>
		<comp name="00.HNZ" depth="0.0">
			<acc value="0.00503212165985705" flag="0"/>
			<vel value="0.000610031802412815" flag="0"/>
			<psa03 value="0.00222597997978194" flag="0"/>
			<psa10 value="0.000885834346240303" flag="0"/>
			<psa30 value="0.000205568683020379" flag="0"/>
		</comp>
	</station>
	<station code="ANX" name="ANX" netid="HP" source="University of Patras, Seismological Laboratory (PSLNET)" insttype="" lat="38.5933" lon="21.9209">
		<comp name="--.HNE" depth="0.0">
			<acc value="0.00250389554586616" flag="0"/>
			<vel value="0.00210316627953228" flag="0"/>
			<psa03 value="0.005596574521654" flag="0"/>
			<psa10 value="0.00367903473361855" flag="0"/>
			<psa30 value="0.000235619905537546" flag="0"/>
		</comp>
		<comp name="--.HNN" depth="0.0">
			<acc value="0.00214170750808661" flag="0"/>
			<vel value="0.00208144488727345" flag="0"/>
			<psa03 value="0.0056087621779776" flag="0"/>
			<psa10 value="0.00383963279433067" flag="0"/>
			<psa30 value="0.000249730684057007" flag="0"/>
		</comp>
		<comp name="--.HNZ" depth="0.0">
			<acc value="0.00127595855799714" flag="0"/>
			<vel value="0.00112022419708774" flag="0"/>
			<psa03 value="0.00269551206053865" flag="0"/>
			<psa10 value="0.0014502344302867" flag="0"/>
			<psa30 value="0.000311906417477894" flag="0"/>
		</comp>
	</station>
	<station code="FSK" name="FSK" netid="HP" source="University of Patras, Seismological Laboratory (PSLNET)" insttype="" lat="38.4593" lon="20.5623">
		<comp name="--.HNE" depth="0.0">
			<acc value="0.0042899198467464" flag="0"/>
			<vel value="0.00291936343817672" flag="0"/>
			<psa03 value="0.00523651909420875" flag="0"/>
			<psa10 value="0.00388478742622843" flag="0"/>
			<psa30 value="0.000617832022087587" flag="0"/>
		</comp>
		<comp name="--.HNN" depth="0.0">
			<acc value="0.00216197756812161" flag="0"/>
			<vel value="0.00172098622587448" flag="0"/>
			<psa03 value="0.0035292106809061" flag="0"/>
			<psa10 value="0.00402014350227527" flag="0"/>
			<psa30 value="0.000342364268494402" flag="0"/>
		</comp>
		<comp name="--.HNZ" depth="0.0">
			<acc value="0.00195841326720876" flag="0"/>
			<vel value="0.00105566586900313" flag="0"/>
			<psa03 value="0.004662264906843" flag="0"/>
			<psa10 value="0.00228905765445944" flag="0"/>
			<psa30 value="0.000207757057156433" flag="0"/>
		</comp>
	</station>
	<station code="LTK" name="LTK" netid="HP" source="University of Patras, Seismological Laboratory (PSLNET)" insttype="" lat="38.0228" lon="22.9673">
		<comp name="--.HNE" depth="0.0">
			<acc value="0.000957720755824807" flag="0"/>
			<vel value="0.000909666438842555" flag="0"/>
			<psa03 value="0.00267767542972886" flag="0"/>
			<psa10 value="0.00193622689834153" flag="0"/>
			<psa30 value="9.16922655687632e-05" flag="0"/>
		</comp>
		<comp name="--.HNN" depth="0.0">
			<acc value="0.00114047119935068" flag="0"/>
			<vel value="0.000775052260020194" flag="0"/>
			<psa03 value="0.00232060034296551" flag="0"/>
			<psa10 value="0.00155257109240374" flag="0"/>
			<psa30 value="0.000119830294939626" flag="0"/>
		</comp>
		<comp name="--.HNZ" depth="0.0">
			<acc value="0.000901025160824774" flag="0"/>
			<vel value="0.000679565804896951" flag="0"/>
			<psa03 value="0.00214013786738227" flag="0"/>
			<psa10 value="0.000956545397687103" flag="0"/>
			<psa30 value="7.7337675324857e-05" flag="0"/>
		</comp>
	</station>
	<station code="PDO" name="PDO" netid="HP" source="University of Patras, Seismological Laboratory (PSLNET)" insttype="" lat="38.5986" lon="21.1833">
		<comp name="--.HNE" depth="0.0">
			<acc value="0.00361316885673132" flag="0"/>
			<vel value="0.00258615515227293" flag="0"/>
			<psa03 value="0.0100683655475247" flag="0"/>
			<psa10 value="0.0033912966880103" flag="0"/>
			<psa30 value="0.000175358556747927" flag="0"/>
		</comp>
		<comp name="--.HNN" depth="0.0">
			<acc value="0.00416142765146304" flag="0"/>
			<vel value="0.00270464588080763" flag="0"/>
			<psa03 value="0.0154288931822109" flag="0"/>
			<psa10 value="0.00331137983141243" flag="0"/>
			<psa30 value="0.000183698106598207" flag="0"/>
		</comp>
		<comp name="--.HNZ" depth="0.0">
			<acc value="0.00262381344119673" flag="0"/>
			<vel value="0.00118859390862142" flag="0"/>
			<psa03 value="0.00531684049583188" flag="0"/>
			<psa10 value="0.00118943102053089" flag="0"/>
			<psa30 value="0.000160456658112114" flag="0"/>
		</comp>
	</station>
	<station code="PYL" name="PYL" netid="HP" source="University of Patras, Seismological Laboratory (PSLNET)" insttype="" lat="36.8955" lon="21.742">
		<comp name="--.HNE" depth="0.0">
			<acc value="0.0278251358474755" flag="0"/>
			<vel value="0.0135539607551152" flag="0"/>
			<psa03 value="0.0500479195955071" flag="0"/>
			<psa10 value="0.0113364694229723" flag="0"/>
			<psa30 value="0.00160446035012502" flag="0"/>
		</comp>
		<comp name="--.HNN" depth="0.0">
			<acc value="0.0204294552173137" flag="0"/>
			<vel value="0.00812708652107352" flag="0"/>
			<psa03 value="0.0406991544525945" flag="0"/>
			<psa10 value="0.00724102046331633" flag="0"/>
			<psa30 value="0.00162635690483028" flag="0"/>
		</comp>
		<comp name="--.HNZ" depth="0.0">
			<acc value="0.0113173343412605" flag="0"/>
			<vel value="0.00512402859607274" flag="0"/>
			<psa03 value="0.0199771254698431" flag="0"/>
			<psa10 value="0.00700385428348699" flag="0"/>
			<psa30 value="0.000689414316147392" flag="0"/>
		</comp>
	</station>
	<station code="SERG" name="SERG" netid="HP" source="University of Patras, Seismological Laboratory (PSLNET)" insttype="" lat="38.4133" lon="22.0566">
		<comp name="--.HNE" depth="0.0">
			<acc value="0.00240432286198471" flag="0"/>
			<vel value="0.00131592840535894" flag="0"/>
			<psa03 value="0.00460847586184028" flag="0"/>
			<psa10 value="0.00251929314080767" flag="0"/>
			<psa30 value="0.000135260991626987" flag="0"/>
		</comp>
		<comp name="--.HNN" depth="0.0">
			<acc value="0.0020904782036611" flag="0"/>
			<vel value="0.00129163277704877" flag="0"/>
			<psa03 value="0.00449289528849833" flag="0"/>
			<psa10 value="0.00249092813676578" flag="0"/>
			<psa30 value="0.000127911741754115" flag="0"/>
		</comp>
		<comp name="--.HNZ" depth="0.0">
			<acc value="0.00148796073585413" flag="0"/>
			<vel value="0.000866236036847585" flag="0"/>
			<psa03 value="0.00282771141054628" flag="0"/>
			<psa10 value="0.00119213623879909" flag="0"/>
			<psa30 value="0.000105249602478035" flag="0"/>
		</comp>
	</station>
	<station code="VALY" name="VALY" netid="HP" source="University of Patras, Seismological Laboratory (PSLNET)" insttype="" lat="37.1641" lon="21.9836">
		<comp name="--.HNE" depth="0.0">
			<acc value="0.0120834260419206" flag="0"/>
			<vel value="0.00626758883127028" flag="0"/>
			<psa03 value="0.0229230419765253" flag="0"/>
			<psa10 value="0.00470091485005524" flag="0"/>
			<psa30 value="0.000534317791763783" flag="0"/>
		</comp>
		<comp name="--.HNN" depth="0.0">
			<acc value="0.0108551964300261" flag="0"/>
			<vel value="0.00641338450694014" flag="0"/>
			<psa03 value="0.0242237661639557" flag="0"/>
			<psa10 value="0.00586147610651479" flag="0"/>
			<psa30 value="0.000562285686168732" flag="0"/>
		</comp>
		<comp name="--.HNZ" depth="0.0">
			<acc value="0.00540937336715741" flag="0"/>
			<vel value="0.00319947428938572" flag="0"/>
			<psa03 value="0.010825536800161" flag="0"/>
			<psa10 value="0.00738803582736756" flag="0"/>
			<psa30 value="0.000472139766525822" flag="0"/>
		</comp>
	</station>
</stationlist>
