<?xml version="1.0" encoding="UTF-8" standalone="yes"?>
<!DOCTYPE earthquake SYSTEM "stationlist.dtd">
<stationlist created="" xmlns="ch.ethz.sed.shakemap.usgs.xml">
  <station code="ASB" name="ASB" netid="VI" insttype="STS-2.5" lat="64.7482" lon="-21.3254">
    <comp name="--.HHZ">
      <acc value="0.0154550534" flag="0"/>
      <vel value="0.0082115637" flag="0"/>
      <psa03 value="0.0200084064" flag="0"/>
      <psa10 value="0.0158013799" flag="0"/>
      <psa30 value="0.0055964989" flag="0"/>
    </comp>
    <comp name="--.HHE">
      <acc value="0.0277575046" flag="0"/>
      <vel value="0.0151619986" flag="0"/>
      <psa03 value="0.0295667268" flag="0"/>
      <psa10 value="0.0205426633" flag="0"/>
      <psa30 value="0.0067594389" flag="0"/>
    </comp>
    <comp name="--.HHN">
      <acc value="0.0214958325" flag="0"/>
      <vel value="0.0158529107" flag="0"/>
      <psa03 value="0.0554942209" flag="0"/>
      <psa10 value="0.0180134086" flag="0"/>
      <psa30 value="0.0051971307" flag="0"/>
    </comp>
  </station>
</stationlist>
