<?xml version="1.0" encoding="UTF-8" standalone="yes"?>
<!DOCTYPE earthquake SYSTEM "stationlist.dtd">
<stationlist created="" xmlns="ch.ethz.sed.shakemap.usgs.xml">
  <station code="KTHR" name="KTHR" netid="HC" insttype="120s" lat="36.2447" lon="22.9939">
    <comp name="--.HHE">
      <acc value="0.0252771469" flag="0"/>
      <vel value="0.0129779949" flag="0"/>
      <psa03 value="0.1034647726" flag="0"/>
      <psa10 value="0.0099591694" flag="0"/>
      <psa30 value="0.0007370105" flag="0"/>
    </comp>
    <comp name="--.HHN">
      <acc value="0.0277094959" flag="0"/>
      <vel value="0.0139586658" flag="0"/>
      <psa03 value="0.0881894358" flag="0"/>
      <psa10 value="0.0126866312" flag="0"/>
      <psa30 value="0.0009852292" flag="0"/>
    </comp>
    <comp name="--.HHZ">
      <acc value="0.0290482019" flag="0"/>
      <vel value="0.0088934541" flag="0"/>
      <psa03 value="0.0324430884" flag="0"/>
      <psa10 value="0.0049091357" flag="0"/>
      <psa30 value="0.0003170003" flag="0"/>
    </comp>
  </station>
  <station code="ITM" name="ITM" netid="HL" insttype="DR24" lat="37.1787" lon="21.9252">
    <comp name="--.HHE">
      <acc value="0.0682474783" flag="0"/>
      <vel value="0.0221263864" flag="0"/>
      <psa03 value="0.1259846801" flag="0"/>
      <psa10 value="0.0083031667" flag="0"/>
      <psa30 value="0.0005564725" flag="0"/>
    </comp>
    <comp name="--.HHN">
      <acc value="0.0759685544" flag="0"/>
      <vel value="0.0227996687" flag="0"/>
      <psa03 value="0.0961089036" flag="0"/>
      <psa10 value="0.0093621930" flag="0"/>
      <psa30 value="0.0007174591" flag="0"/>
    </comp>
    <comp name="--.HHZ">
      <acc value="0.0443342010" flag="0"/>
      <vel value="0.0126544964" flag="0"/>
      <psa03 value="0.0579782469" flag="0"/>
      <psa10 value="0.0064840426" flag="0"/>
      <psa30 value="0.0003948817" flag="0"/>
    </comp>
  </station>
  <station code="KTHA" name="KTHA" netid="HL" insttype="120" lat="36.2566" lon="23.0621">
    <comp name="--.HHE">
      <acc value="0.0114951101" flag="0"/>
      <vel value="0.0063419792" flag="0"/>
      <psa03 value="0.0216668422" flag="0"/>
      <psa10 value="0.0139683286" flag="0"/>
      <psa30 value="0.0004729568" flag="0"/>
    </comp>
    <comp name="--.HHZ">
      <acc value="0.0065141686" flag="0"/>
      <vel value="0.0024754019" flag="0"/>
      <psa03 value="0.0120947432" flag="0"/>
      <psa10 value="0.0029138064" flag="0"/>
      <psa30 value="0.0002812746" flag="0"/>
    </comp>
    <comp name="--.HHN">
      <acc value="0.0090737397" flag="0"/>
      <vel value="0.0053687616" flag="0"/>
      <psa03 value="0.0196890240" flag="0"/>
      <psa10 value="0.0073317397" flag="0"/>
      <psa30 value="0.0006586848" flag="0"/>
    </comp>
  </station>
  <station code="PYL" name="PYL" netid="HP" insttype="120s" lat="36.8955" lon="21.742">
    <comp name="--.HHE">
      <acc value="0.1390700710" flag="0"/>
      <vel value="0.0346967279" flag="0"/>
      <psa03 value="0.1757460453" flag="0"/>
      <psa10 value="0.0144408895" flag="0"/>
      <psa30 value="0.0014809357" flag="0"/>
    </comp>
    <comp name="--.HHN">
      <acc value="0.0832777115" flag="0"/>
      <vel value="0.0291316904" flag="0"/>
      <psa03 value="0.1122687755" flag="0"/>
      <psa10 value="0.0134484677" flag="0"/>
      <psa30 value="0.0008210828" flag="0"/>
    </comp>
    <comp name="--.HHZ">
      <acc value="0.0668659597" flag="0"/>
      <vel value="0.0204083873" flag="0"/>
      <psa03 value="0.0502114099" flag="0"/>
      <psa10 value="0.0068195875" flag="0"/>
      <psa30 value="0.0006026486" flag="0"/>
    </comp>
  </station>
  <station code="VALY" name="VALY" netid="HP" insttype="DC_100" lat="37.1641" lon="21.9836">
    <comp name="--.HNE">
      <acc value="0.0372362763" flag="0"/>
      <vel value="0.0111093367" flag="0"/>
      <psa03 value="0.0571064384" flag="0"/>
      <psa10 value="0.0089384681" flag="0"/>
      <psa30 value="0.0004270314" flag="0"/>
    </comp>
    <comp name="--.HNN">
      <acc value="0.0495293327" flag="0"/>
      <vel value="0.0144995332" flag="0"/>
      <psa03 value="0.0882623111" flag="0"/>
      <psa10 value="0.0080838199" flag="0"/>
      <psa30 value="0.0005418699" flag="0"/>
    </comp>
    <comp name="--.HNZ">
      <acc value="0.0227624254" flag="0"/>
      <vel value="0.0053605054" flag="0"/>
      <psa03 value="0.0361654111" flag="0"/>
      <psa10 value="0.0048980530" flag="0"/>
      <psa30 value="0.0003072776" flag="0"/>
    </comp>
  </station>
  <station code="VLX" name="VLX" netid="HP" insttype="40," lat="37.3703" lon="22.3793">
    <comp name="--.HHN">
      <acc value="0.0175384552" flag="0"/>
      <vel value="0.0106260896" flag="0"/>
      <psa03 value="0.0382497786" flag="0"/>
      <psa10 value="0.0127990493" flag="0"/>
      <psa30 value="0.0005934668" flag="0"/>
    </comp>
    <comp name="--.HHE">
      <acc value="0.0168107169" flag="0"/>
      <vel value="0.0093889455" flag="0"/>
      <psa03 value="0.0557462803" flag="0"/>
      <psa10 value="0.0091164888" flag="0"/>
      <psa30 value="0.0005278746" flag="0"/>
    </comp>
    <comp name="--.HHZ">
      <acc value="0.0083159524" flag="0"/>
      <vel value="0.0043037330" flag="0"/>
      <psa03 value="0.0336359958" flag="0"/>
      <psa10 value="0.0045892096" flag="0"/>
      <psa30 value="0.0002843571" flag="0"/>
    </comp>
  </station>
</stationlist>
