<?xml version="1.0" encoding="UTF-8" standalone="yes"?>
<!DOCTYPE earthquake SYSTEM "stationlist.dtd">
<stationlist created="" xmlns="ch.ethz.sed.shakemap.usgs.xml">
  <station code="KTHR" name="KTHR" netid="HC" insttype="120s" lat="36.2447" lon="22.9939">
    <comp name="--.HHN">
      <acc value="0.0277094966" flag="0"/>
      <vel value="0.0139586635" flag="0"/>
      <psa03 value="0.0881894358" flag="0"/>
      <psa10 value="0.0126866314" flag="0"/>
      <psa30 value="0.0009853256" flag="0"/>
    </comp>
    <comp name="--.HHE">
      <acc value="0.0252771475" flag="0"/>
      <vel value="0.0129779954" flag="0"/>
      <psa03 value="0.1034647726" flag="0"/>
      <psa10 value="0.0099591694" flag="0"/>
      <psa30 value="0.0007370810" flag="0"/>
    </comp>
    <comp name="--.HHZ">
      <acc value="0.0290482014" flag="0"/>
      <vel value="0.0088934544" flag="0"/>
      <psa03 value="0.0324430884" flag="0"/>
      <psa10 value="0.0049091357" flag="0"/>
      <psa30 value="0.0003171122" flag="0"/>
    </comp>
  </station>
  <station code="ANKY" name="ANKY" netid="HL" insttype="60" lat="35.867" lon="23.3012">
    <comp name="--.HHZ">
      <acc value="0.0035229180" flag="0"/>
      <vel value="0.0016917249" flag="0"/>
      <psa03 value="0.0070265393" flag="0"/>
      <psa10 value="0.0027590175" flag="0"/>
      <psa30 value="0.0002636605" flag="0"/>
    </comp>
    <comp name="--.HHE">
      <acc value="0.0045532304" flag="0"/>
      <vel value="0.0043757254" flag="0"/>
      <psa03 value="0.0088272345" flag="0"/>
      <psa10 value="0.0083219329" flag="0"/>
      <psa30 value="0.0005549975" flag="0"/>
    </comp>
    <comp name="--.HHN">
      <acc value="0.0029517569" flag="0"/>
      <vel value="0.0025144490" flag="0"/>
      <psa03 value="0.0126695642" flag="0"/>
      <psa10 value="0.0036613660" flag="0"/>
      <psa30 value="0.0003872333" flag="0"/>
    </comp>
  </station>
  <station code="ITM" name="ITM" netid="HL" insttype="DR24" lat="37.1787" lon="21.9252">
    <comp name="--.HHN">
      <acc value="0.0759685554" flag="0"/>
      <vel value="0.0227996685" flag="0"/>
      <psa03 value="0.0961089036" flag="0"/>
      <psa10 value="0.0093621930" flag="0"/>
      <psa30 value="0.0007174648" flag="0"/>
    </comp>
    <comp name="--.HHE">
      <acc value="0.0682474774" flag="0"/>
      <vel value="0.0221263867" flag="0"/>
      <psa03 value="0.1259846801" flag="0"/>
      <psa10 value="0.0083031667" flag="0"/>
      <psa30 value="0.0005564620" flag="0"/>
    </comp>
    <comp name="--.HHZ">
      <acc value="0.0443342014" flag="0"/>
      <vel value="0.0126544966" flag="0"/>
      <psa03 value="0.0579782469" flag="0"/>
      <psa10 value="0.0064840427" flag="0"/>
      <psa30 value="0.0003948878" flag="0"/>
    </comp>
  </station>
  <station code="KTHA" name="KTHA" netid="HL" insttype="120" lat="36.2566" lon="23.0621">
    <comp name="--.HHE">
      <acc value="0.0114951100" flag="0"/>
      <vel value="0.0063419800" flag="0"/>
      <psa03 value="0.0216668422" flag="0"/>
      <psa10 value="0.0139683285" flag="0"/>
      <psa30 value="0.0004731491" flag="0"/>
    </comp>
    <comp name="--.HHN">
      <acc value="0.0090737398" flag="0"/>
      <vel value="0.0053687603" flag="0"/>
      <psa03 value="0.0196890240" flag="0"/>
      <psa10 value="0.0073317397" flag="0"/>
      <psa30 value="0.0006586594" flag="0"/>
    </comp>
    <comp name="--.HHZ">
      <acc value="0.0065141683" flag="0"/>
      <vel value="0.0024754016" flag="0"/>
      <psa03 value="0.0120947432" flag="0"/>
      <psa10 value="0.0029138064" flag="0"/>
      <psa30 value="0.0002812824" flag="0"/>
    </comp>
  </station>
  <station code="VLI" name="VLI" netid="HL" insttype="60" lat="36.718" lon="22.9469">
    <comp name="--.HHE">
      <acc value="0.0228968426" flag="0"/>
      <vel value="0.0138030533" flag="0"/>
      <psa03 value="0.0520349421" flag="0"/>
      <psa10 value="0.0208217104" flag="0"/>
      <psa30 value="0.0007697459" flag="0"/>
    </comp>
    <comp name="--.HHN">
      <acc value="0.0212944912" flag="0"/>
      <vel value="0.0128283987" flag="0"/>
      <psa03 value="0.0763655536" flag="0"/>
      <psa10 value="0.0123055742" flag="0"/>
      <psa30 value="0.0008217201" flag="0"/>
    </comp>
    <comp name="--.HHZ">
      <acc value="0.0207769046" flag="0"/>
      <vel value="0.0123635971" flag="0"/>
      <psa03 value="0.0737764895" flag="0"/>
      <psa10 value="0.0060175735" flag="0"/>
      <psa30 value="0.0006272237" flag="0"/>
    </comp>
  </station>
  <station code="AMT" name="AMT" netid="HP" insttype="CMG-3T," lat="37.5324" lon="21.7089">
    <comp name="00.HHN">
      <acc value="0.0473808974" flag="0"/>
      <vel value="0.0188077633" flag="0"/>
      <psa03 value="0.1140388067" flag="0"/>
      <psa10 value="0.0141545058" flag="0"/>
      <psa30 value="0.0006863331" flag="0"/>
    </comp>
    <comp name="00.HHE">
      <acc value="0.0462991928" flag="0"/>
      <vel value="0.0270814282" flag="0"/>
      <psa03 value="0.1434695373" flag="0"/>
      <psa10 value="0.0178595773" flag="0"/>
      <psa30 value="0.0010527416" flag="0"/>
    </comp>
    <comp name="00.HHZ">
      <acc value="0.0266506013" flag="0"/>
      <vel value="0.0128317047" flag="0"/>
      <psa03 value="0.1030032570" flag="0"/>
      <psa10 value="0.0074720569" flag="0"/>
      <psa30 value="0.0003425984" flag="0"/>
    </comp>
  </station>
  <station code="PYL" name="PYL" netid="HP" insttype="120s" lat="36.8955" lon="21.742">
    <comp name="--.HHN">
      <acc value="0.0832777113" flag="0"/>
      <vel value="0.0291316907" flag="0"/>
      <psa03 value="0.1122687755" flag="0"/>
      <psa10 value="0.0134484677" flag="0"/>
      <psa30 value="0.0008210605" flag="0"/>
    </comp>
    <comp name="--.HHE">
      <acc value="0.1390700708" flag="0"/>
      <vel value="0.0346967277" flag="0"/>
      <psa03 value="0.1757460453" flag="0"/>
      <psa10 value="0.0144408894" flag="0"/>
      <psa30 value="0.0014809483" flag="0"/>
    </comp>
    <comp name="--.HHZ">
      <acc value="0.0668659597" flag="0"/>
      <vel value="0.0204083877" flag="0"/>
      <psa03 value="0.0502114099" flag="0"/>
      <psa10 value="0.0068195875" flag="0"/>
      <psa30 value="0.0006027004" flag="0"/>
    </comp>
  </station>
  <station code="VALY" name="VALY" netid="HP" insttype="DC_100" lat="37.1641" lon="21.9836">
    <comp name="--.HNE">
      <acc value="0.0372362748" flag="0"/>
      <vel value="0.0111093358" flag="0"/>
      <psa03 value="0.0571064384" flag="0"/>
      <psa10 value="0.0089384681" flag="0"/>
      <psa30 value="0.0004272668" flag="0"/>
    </comp>
    <comp name="--.HNZ">
      <acc value="0.0227624201" flag="0"/>
      <vel value="0.0053605092" flag="0"/>
      <psa03 value="0.0361654111" flag="0"/>
      <psa10 value="0.0048980531" flag="0"/>
      <psa30 value="0.0003067003" flag="0"/>
    </comp>
    <comp name="--.HNN">
      <acc value="0.0495293325" flag="0"/>
      <vel value="0.0144995268" flag="0"/>
      <psa03 value="0.0882623111" flag="0"/>
      <psa10 value="0.0080838199" flag="0"/>
      <psa30 value="0.0005425364" flag="0"/>
    </comp>
  </station>
  <station code="VLX" name="VLX" netid="HP" insttype="40," lat="37.3703" lon="22.3793">
    <comp name="--.HHZ">
      <acc value="0.0083159524" flag="0"/>
      <vel value="0.0043037329" flag="0"/>
      <psa03 value="0.0336359958" flag="0"/>
      <psa10 value="0.0045892096" flag="0"/>
      <psa30 value="0.0002843652" flag="0"/>
    </comp>
    <comp name="--.HHE">
      <acc value="0.0168107167" flag="0"/>
      <vel value="0.0093889459" flag="0"/>
      <psa03 value="0.0557462803" flag="0"/>
      <psa10 value="0.0091164888" flag="0"/>
      <psa30 value="0.0005278723" flag="0"/>
    </comp>
    <comp name="--.HHN">
      <acc value="0.0175384547" flag="0"/>
      <vel value="0.0106260900" flag="0"/>
      <psa03 value="0.0382497786" flag="0"/>
      <psa10 value="0.0127990493" flag="0"/>
      <psa30 value="0.0005934620" flag="0"/>
    </comp>
  </station>
  <station code="STRF" name="STRF" netid="HT" insttype="30s-100Hz," lat="37.2497" lon="21.013">
    <comp name="--.HHZ">
      <acc value="0.0105796448" flag="0"/>
      <vel value="0.0054088946" flag="0"/>
      <psa03 value="0.0261148820" flag="0"/>
      <psa10 value="0.0039307749" flag="0"/>
      <psa30 value="0.0004231150" flag="0"/>
    </comp>
    <comp name="--.HHE">
      <acc value="0.0155924879" flag="0"/>
      <vel value="0.0058648955" flag="0"/>
      <psa03 value="0.0400341924" flag="0"/>
      <psa10 value="0.0092031521" flag="0"/>
      <psa30 value="0.0005413730" flag="0"/>
    </comp>
    <comp name="--.HHN">
      <acc value="0.0245047731" flag="0"/>
      <vel value="0.0096747346" flag="0"/>
      <psa03 value="0.0590100952" flag="0"/>
      <psa10 value="0.0093443964" flag="0"/>
      <psa30 value="0.0012154589" flag="0"/>
    </comp>
  </station>
</stationlist>
