<?xml version="1.0" encoding="UTF-8" standalone="yes"?>
<!DOCTYPE earthquake SYSTEM "stationlist.dtd">
<stationlist created="" xmlns="ch.ethz.sed.shakemap.usgs.xml">
  <station code="ITM" name="ITM" netid="HL" insttype="DR24" lat="37.1787" lon="21.9252">
    <comp name="--.HHN">
      <acc value="0.0759685540" flag="0"/>
      <vel value="0.0227996685" flag="0"/>
      <psa03 value="0.0961089036" flag="0"/>
      <psa10 value="0.0093621928" flag="0"/>
      <psa30 value="0.0007173676" flag="0"/>
    </comp>
    <comp name="--.HHE">
      <acc value="0.0682474785" flag="0"/>
      <vel value="0.0221263867" flag="0"/>
      <psa03 value="0.1259846801" flag="0"/>
      <psa10 value="0.0083031667" flag="0"/>
      <psa30 value="0.0005564309" flag="0"/>
    </comp>
    <comp name="--.HHZ">
      <acc value="0.0443342012" flag="0"/>
      <vel value="0.0126544930" flag="0"/>
      <psa03 value="0.0579782469" flag="0"/>
      <psa10 value="0.0064840428" flag="0"/>
      <psa30 value="0.0003948578" flag="0"/>
    </comp>
  </station>
  <station code="VLI" name="VLI" netid="HL" insttype="60" lat="36.718" lon="22.9469">
    <comp name="--.HHE">
      <acc value="0.0228968433" flag="0"/>
      <vel value="0.0138030524" flag="0"/>
      <psa03 value="0.0520349421" flag="0"/>
      <psa10 value="0.0208217104" flag="0"/>
      <psa30 value="0.0007697909" flag="0"/>
    </comp>
    <comp name="--.HHN">
      <acc value="0.0212944919" flag="0"/>
      <vel value="0.0128283994" flag="0"/>
      <psa03 value="0.0763655536" flag="0"/>
      <psa10 value="0.0123055742" flag="0"/>
      <psa30 value="0.0008217774" flag="0"/>
    </comp>
    <comp name="--.HHZ">
      <acc value="0.0207769041" flag="0"/>
      <vel value="0.0123635965" flag="0"/>
      <psa03 value="0.0737764895" flag="0"/>
      <psa10 value="0.0060175735" flag="0"/>
      <psa30 value="0.0006272044" flag="0"/>
    </comp>
  </station>
  <station code="AMT" name="AMT" netid="HP" insttype="CMG-3T," lat="37.5324" lon="21.7089">
    <comp name="00.HHE">
      <acc value="0.0462991938" flag="0"/>
      <vel value="0.0270814286" flag="0"/>
      <psa03 value="0.1434695373" flag="0"/>
      <psa10 value="0.0178595773" flag="0"/>
      <psa30 value="0.0010527354" flag="0"/>
    </comp>
    <comp name="00.HHZ">
      <acc value="0.0266506023" flag="0"/>
      <vel value="0.0128317049" flag="0"/>
      <psa03 value="0.1030032570" flag="0"/>
      <psa10 value="0.0074720569" flag="0"/>
      <psa30 value="0.0003425988" flag="0"/>
    </comp>
    <comp name="00.HHN">
      <acc value="0.0473808979" flag="0"/>
      <vel value="0.0188077629" flag="0"/>
      <psa03 value="0.1140388067" flag="0"/>
      <psa10 value="0.0141545058" flag="0"/>
      <psa30 value="0.0006863343" flag="0"/>
    </comp>
  </station>
  <station code="VALY" name="VALY" netid="HP" insttype="DC_100" lat="37.1641" lon="21.9836">
    <comp name="--.HNE">
      <acc value="0.0372362809" flag="0"/>
      <vel value="0.0111093358" flag="0"/>
      <psa03 value="0.0571064384" flag="0"/>
      <psa10 value="0.0089384682" flag="0"/>
      <psa30 value="0.0004267623" flag="0"/>
    </comp>
    <comp name="--.HNN">
      <acc value="0.0495293329" flag="0"/>
      <vel value="0.0144995267" flag="0"/>
      <psa03 value="0.0882623111" flag="0"/>
      <psa10 value="0.0080838197" flag="0"/>
      <psa30 value="0.0005419796" flag="0"/>
    </comp>
    <comp name="--.HNZ">
      <acc value="0.0227624250" flag="0"/>
      <vel value="0.0053605069" flag="0"/>
      <psa03 value="0.0361654111" flag="0"/>
      <psa10 value="0.0048980519" flag="0"/>
      <psa30 value="0.0003083996" flag="0"/>
    </comp>
  </station>
  <station code="VLX" name="VLX" netid="HP" insttype="40," lat="37.3703" lon="22.3793">
    <comp name="--.HHE">
      <acc value="0.0168107167" flag="0"/>
      <vel value="0.0093889457" flag="0"/>
      <psa03 value="0.0557462803" flag="0"/>
      <psa10 value="0.0091164888" flag="0"/>
      <psa30 value="0.0005278586" flag="0"/>
    </comp>
    <comp name="--.HHN">
      <acc value="0.0175384557" flag="0"/>
      <vel value="0.0106260899" flag="0"/>
      <psa03 value="0.0382497786" flag="0"/>
      <psa10 value="0.0127990493" flag="0"/>
      <psa30 value="0.0005934443" flag="0"/>
    </comp>
    <comp name="--.HHZ">
      <acc value="0.0083159522" flag="0"/>
      <vel value="0.0043037331" flag="0"/>
      <psa03 value="0.0336359958" flag="0"/>
      <psa10 value="0.0045892096" flag="0"/>
      <psa30 value="0.0002843814" flag="0"/>
    </comp>
  </station>
  <station code="STRF" name="STRF" netid="HT" insttype="30s-100Hz," lat="37.2497" lon="21.013">
    <comp name="--.HHN">
      <acc value="0.0245047749" flag="0"/>
      <vel value="0.0096747356" flag="0"/>
      <psa03 value="0.0590100952" flag="0"/>
      <psa10 value="0.0093444008" flag="0"/>
      <psa30 value="0.0012154520" flag="0"/>
    </comp>
    <comp name="--.HHE">
      <acc value="0.0155924881" flag="0"/>
      <vel value="0.0058648888" flag="0"/>
      <psa03 value="0.0400341924" flag="0"/>
      <psa10 value="0.0092031521" flag="0"/>
      <psa30 value="0.0004798827" flag="0"/>
    </comp>
    <comp name="--.HHZ">
      <acc value="0.0105796450" flag="0"/>
      <vel value="0.0054088836" flag="0"/>
      <psa03 value="0.0261148820" flag="0"/>
      <psa10 value="0.0039307748" flag="0"/>
      <psa30 value="0.0004230841" flag="0"/>
    </comp>
  </station>
</stationlist>
