<?xml version="1.0" encoding="UTF-8" standalone="yes"?>
<!DOCTYPE earthquake SYSTEM "stationlist.dtd">
<stationlist created="" xmlns="ch.ethz.sed.shakemap.usgs.xml">
  <station code="KLV" name="KLV" netid="MN" insttype="" lat="38.0437" lon="22.1504">
    <comp name="--.HHE">
      <acc value="0.0018427794" flag="0"/>
      <vel value="0.0017915846" flag="0"/>
      <psa03 value="0.0039828610" flag="0"/>
      <psa10 value="0.0022669211" flag="0"/>
      <psa30 value="0.0003891963" flag="0"/>
    </comp>
    <comp name="--.HHN">
      <acc value="0.0023206221" flag="0"/>
      <vel value="0.0022820287" flag="0"/>
      <psa03 value="0.0070652932" flag="0"/>
      <psa10 value="0.0046179099" flag="0"/>
      <psa30 value="0.0003090679" flag="0"/>
    </comp>
    <comp name="--.HHZ">
      <acc value="0.0029123876" flag="0"/>
      <vel value="0.0031644416" flag="0"/>
      <psa03 value="0.0059389926" flag="0"/>
      <psa10 value="0.0060365439" flag="0"/>
      <psa30 value="0.0003203295" flag="0"/>
    </comp>
  </station>
</stationlist>
