<stationlist created="1778118956">
	<station code="ROD3" name="ROD3" netid="CL" source="Corinth Riff Laboratory (CRLNET)" insttype="" lat="38.30811" lon="21.89204">
		<comp name="00.HNE" depth="0.0">
			<acc value="0.00480138578658075" flag="0"/>
			<vel value="0.00366882362336132" flag="0"/>
			<psa03 value="0.020438368264502" flag="0"/>
			<psa10 value="0.00421593881652352" flag="0"/>
			<psa30 value="0.000996408298828186" flag="0"/>
		</comp>
		<comp name="00.HNN" depth="0.0">
			<acc value="0.00498113507328065" flag="0"/>
			<vel value="0.00352584369321817" flag="0"/>
			<psa03 value="0.0293701175011435" flag="0"/>
			<psa10 value="0.00403810250446221" flag="0"/>
			<psa30 value="0.000608795798482937" flag="0"/>
		</comp>
		<comp name="00.HNZ" depth="0.0">
			<acc value="0.00292735281901069" flag="0"/>
			<vel value="0.00222277859916696" flag="0"/>
			<psa03 value="0.0056933439529621" flag="0"/>
			<psa10 value="0.00438069332444288" flag="0"/>
			<psa30 value="0.000448832076672636" flag="0"/>
		</comp>
	</station>
	<station code="KIAS" name="KIAS" netid="HA" source="Hellenic Seismological Network, University of Athens, Seismological Laboratory (HA)" insttype="" lat="37.9875" lon="22.7543">
		<comp name="--.HNE" depth="0.0">
			<acc value="0.0198459173679782" flag="0"/>
			<vel value="0.015387994680248" flag="0"/>
			<psa03 value="0.0367921664671398" flag="0"/>
			<psa10 value="0.0166802837369519" flag="0"/>
			<psa30 value="0.00359039076243313" flag="0"/>
		</comp>
		<comp name="--.HNN" depth="0.0">
			<acc value="0.0260437656762125" flag="0"/>
			<vel value="0.0112100304211524" flag="0"/>
			<psa03 value="0.0445899069874916" flag="0"/>
			<psa10 value="0.0184166356367116" flag="0"/>
			<psa30 value="0.00261835074455353" flag="0"/>
		</comp>
		<comp name="--.HNZ" depth="0.0">
			<acc value="0.00975740609306798" flag="0"/>
			<vel value="0.00608838118210618" flag="0"/>
			<psa03 value="0.0206633545229196" flag="0"/>
			<psa10 value="0.0083129431916866" flag="0"/>
			<psa30 value="0.00287263488129754" flag="0"/>
		</comp>
	</station>
	<station code="ARS1" name="ARS1" netid="HI" source="ITSAK Strong Motion Network" insttype="" lat="37.6349" lon="22.7293">
		<comp name="--.HNE" depth="0.0">
			<acc value="0.00913784307426102" flag="0"/>
			<vel value="0.00723194667897137" flag="0"/>
			<psa03 value="0.0234436363591867" flag="0"/>
			<psa10 value="0.0125945615153895" flag="0"/>
			<psa30 value="0.0017353054763047" flag="0"/>
		</comp>
		<comp name="--.HNN" depth="0.0">
			<acc value="0.00856497714825014" flag="0"/>
			<vel value="0.00653302122566472" flag="0"/>
			<psa03 value="0.0292302775082635" flag="0"/>
			<psa10 value="0.00696924511578564" flag="0"/>
			<psa30 value="0.00111070576630596" flag="0"/>
		</comp>
		<comp name="--.HNZ" depth="0.0">
			<acc value="0.00567075210481616" flag="0"/>
			<vel value="0.00357182086175785" flag="0"/>
			<psa03 value="0.0198776214823689" flag="0"/>
			<psa10 value="0.00317978830161939" flag="0"/>
			<psa30 value="0.000771716434926426" flag="0"/>
		</comp>
	</station>
	<station code="ATH5" name="ATH5" netid="HI" source="ITSAK Strong Motion Network" insttype="" lat="37.975421" lon="23.737098">
		<comp name="--.HNE" depth="0.0">
			<acc value="0.0177516259464269" flag="0"/>
			<vel value="0.0108294512326202" flag="0"/>
			<psa03 value="0.0442571141082708" flag="0"/>
			<psa10 value="0.0191687198335993" flag="0"/>
			<psa30 value="0.00280933047935686" flag="0"/>
		</comp>
		<comp name="--.HNN" depth="0.0">
			<acc value="0.0119463205456554" flag="0"/>
			<vel value="0.0131894484310853" flag="0"/>
			<psa03 value="0.033672980669728" flag="0"/>
			<psa10 value="0.00976934560870949" flag="0"/>
			<psa30 value="0.00484359711452087" flag="0"/>
		</comp>
		<comp name="--.HNZ" depth="0.0">
			<acc value="0.0119140821870459" flag="0"/>
			<vel value="0.00603637884165876" flag="0"/>
			<psa03 value="0.0164949351563955" flag="0"/>
			<psa10 value="0.0105770741167563" flag="0"/>
			<psa30 value="0.00137002929938581" flag="0"/>
		</comp>
	</station>
	<station code="LAM2" name="LAM2" netid="HI" source="ITSAK Strong Motion Network" insttype="" lat="38.90203" lon="22.431301">
		<comp name="--.HNE" depth="0.0">
			<acc value="0.00850475628466982" flag="0"/>
			<vel value="0.00397835849063066" flag="0"/>
			<psa03 value="0.0104197788008961" flag="0"/>
			<psa10 value="0.00816558374236646" flag="0"/>
			<psa30 value="0.000684961677434782" flag="0"/>
		</comp>
		<comp name="--.HNN" depth="0.0">
			<acc value="0.00816136933615113" flag="0"/>
			<vel value="0.00462494532445612" flag="0"/>
			<psa03 value="0.0142367855650926" flag="0"/>
			<psa10 value="0.00672157777154573" flag="0"/>
			<psa30 value="0.000678509062480067" flag="0"/>
		</comp>
		<comp name="--.HNZ" depth="0.0">
			<acc value="0.0233951817898718" flag="0"/>
			<vel value="0.00298459341142392" flag="0"/>
			<psa03 value="0.00584595562524231" flag="0"/>
			<psa10 value="0.00365858837915114" flag="0"/>
			<psa30 value="0.000694317140934164" flag="0"/>
		</comp>
	</station>
	<station code="ACHA" name="ACHA" netid="HL" source="National Observatory of Athens Seismic Network" insttype="" lat="38.07458" lon="23.74127">
		<comp name="00.HNE" depth="0.0">
			<acc value="0.0454666339898797" flag="0"/>
			<vel value="0.0350950809342813" flag="0"/>
			<psa03 value="0.144893150543617" flag="0"/>
			<psa10 value="0.046751737073058" flag="0"/>
			<psa30 value="0.00414262401184422" flag="0"/>
		</comp>
		<comp name="00.HNN" depth="0.0">
			<acc value="0.0364833730047161" flag="0"/>
			<vel value="0.0400721162734406" flag="0"/>
			<psa03 value="0.0865743497090504" flag="0"/>
			<psa10 value="0.0378080733493177" flag="0"/>
			<psa30 value="0.00680070509666194" flag="0"/>
		</comp>
		<comp name="00.HNZ" depth="0.0">
			<acc value="0.0392723295394594" flag="0"/>
			<vel value="0.0211099946423986" flag="0"/>
			<psa03 value="0.0987229878303056" flag="0"/>
			<psa10 value="0.0214885560113578" flag="0"/>
			<psa30 value="0.00252362051080562" flag="0"/>
		</comp>
	</station>
	<station code="ATHP" name="ATHP" netid="HL" source="National Observatory of Athens Seismic Network" insttype="" lat="38.000799" lon="23.773487">
		<comp name="00.HNE" depth="0.0">
			<acc value="0.021642551126843" flag="0"/>
			<vel value="0.0127510041303399" flag="0"/>
			<psa03 value="0.0423957746578554" flag="0"/>
			<psa10 value="0.0287105744346332" flag="0"/>
			<psa30 value="0.00165614814918726" flag="0"/>
		</comp>
		<comp name="00.HNN" depth="0.0">
			<acc value="0.0176439731918042" flag="0"/>
			<vel value="0.0115775988180861" flag="0"/>
			<psa03 value="0.0262807461787882" flag="0"/>
			<psa10 value="0.016317827850999" flag="0"/>
			<psa30 value="0.00505835550790362" flag="0"/>
		</comp>
		<comp name="00.HNZ" depth="0.0">
			<acc value="0.0132459244950912" flag="0"/>
			<vel value="0.00779604945060703" flag="0"/>
			<psa03 value="0.0247436677924096" flag="0"/>
			<psa10 value="0.0106184993609786" flag="0"/>
			<psa30 value="0.00151360245623579" flag="0"/>
		</comp>
	</station>
	<station code="DLFA" name="DLFA" netid="HL" source="National Observatory of Athens Seismic Network" insttype="" lat="38.47836" lon="22.49583">
		<comp name="00.HNE" depth="0.0">
			<acc value="0.0077507586932628" flag="0"/>
			<vel value="0.00463373279915959" flag="0"/>
			<psa03 value="0.0306518404298349" flag="0"/>
			<psa10 value="0.00685565571606357" flag="0"/>
			<psa30 value="0.000899301761829585" flag="0"/>
		</comp>
		<comp name="00.HNN" depth="0.0">
			<acc value="0.00991556321534228" flag="0"/>
			<vel value="0.00608689068506811" flag="0"/>
			<psa03 value="0.0260666278278165" flag="0"/>
			<psa10 value="0.00517159821800666" flag="0"/>
			<psa30 value="0.000670695524036932" flag="0"/>
		</comp>
		<comp name="00.HNZ" depth="0.0">
			<acc value="0.0105229919932689" flag="0"/>
			<vel value="0.00522348551604994" flag="0"/>
			<psa03 value="0.0191973446465269" flag="0"/>
			<psa10 value="0.00264966232399973" flag="0"/>
			<psa30 value="0.000765836253727592" flag="0"/>
		</comp>
	</station>
	<station code="KIAA" name="KIAA" netid="HL" source="National Observatory of Athens Seismic Network" insttype="" lat="38.0139" lon="22.7495">
		<comp name="00.HNE" depth="0.0">
			<acc value="0.0303235265356485" flag="0"/>
			<vel value="0.024609933537052" flag="0"/>
			<psa03 value="0.0589811988815226" flag="0"/>
			<psa10 value="0.0302865600859741" flag="0"/>
			<psa30 value="0.0059647826375714" flag="0"/>
		</comp>
		<comp name="00.HNN" depth="0.0">
			<acc value="0.0337132883960734" flag="0"/>
			<vel value="0.0226291210799907" flag="0"/>
			<psa03 value="0.116101951600986" flag="0"/>
			<psa10 value="0.0348289322458241" flag="0"/>
			<psa30 value="0.00586322841012453" flag="0"/>
		</comp>
		<comp name="00.HNZ" depth="0.0">
			<acc value="0.0302647550336101" flag="0"/>
			<vel value="0.0109241962009672" flag="0"/>
			<psa03 value="0.0326693100147827" flag="0"/>
			<psa10 value="0.0178678692836675" flag="0"/>
			<psa30 value="0.00200910955198072" flag="0"/>
		</comp>
	</station>
	<station code="LKR" name="LKR" netid="HL" source="National Observatory of Athens Seismic Network" insttype="" lat="38.64957" lon="22.998812">
		<comp name="--.HNE" depth="0.0">
			<acc value="0.0342861386817503" flag="0"/>
			<vel value="0.0132754826036919" flag="0"/>
			<psa03 value="0.0582366547673688" flag="0"/>
			<psa10 value="0.00685635185591769" flag="0"/>
			<psa30 value="0.00155723367992229" flag="0"/>
		</comp>
		<comp name="--.HNN" depth="0.0">
			<acc value="0.0377279715023188" flag="0"/>
			<vel value="0.0146644980127933" flag="0"/>
			<psa03 value="0.0612059243839641" flag="0"/>
			<psa10 value="0.0101559240301194" flag="0"/>
			<psa30 value="0.00150776081925312" flag="0"/>
		</comp>
		<comp name="--.HNZ" depth="0.0">
			<acc value="0.02936313985804" flag="0"/>
			<vel value="0.00951718999523822" flag="0"/>
			<psa03 value="0.0397134563424105" flag="0"/>
			<psa10 value="0.00500164399063022" flag="0"/>
			<psa30 value="0.000821104237878079" flag="0"/>
		</comp>
	</station>
	<station code="LVRA" name="LVRA" netid="HL" source="National Observatory of Athens Seismic Network" insttype="" lat="37.71196" lon="24.05518">
		<comp name="00.HNE" depth="0.0">
			<acc value="0.0173737892769611" flag="0"/>
			<vel value="0.00536305565763367" flag="0"/>
			<psa03 value="0.0269589838170342" flag="0"/>
			<psa10 value="0.00376508535592554" flag="0"/>
			<psa30 value="0.000692358469516014" flag="0"/>
		</comp>
		<comp name="00.HNN" depth="0.0">
			<acc value="0.0102065297695862" flag="0"/>
			<vel value="0.00535214296783901" flag="0"/>
			<psa03 value="0.0283123390951648" flag="0"/>
			<psa10 value="0.00387685213492621" flag="0"/>
			<psa30 value="0.0011036011289898" flag="0"/>
		</comp>
		<comp name="00.HNZ" depth="0.0">
			<acc value="0.00839233581703493" flag="0"/>
			<vel value="0.00384565060062408" flag="0"/>
			<psa03 value="0.0141420410074897" flag="0"/>
			<psa10 value="0.00239620248665605" flag="0"/>
			<psa30 value="0.000434918212238911" flag="0"/>
		</comp>
	</station>
	<station code="NOAC" name="NOAC" netid="HL" source="National Observatory of Athens Seismic Network" insttype="" lat="37.97384" lon="23.71767">
		<comp name="00.HNE" depth="0.0">
			<acc value="0.0236935845258469" flag="0"/>
			<vel value="0.0157987735057539" flag="0"/>
			<psa03 value="0.0627213581071825" flag="0"/>
			<psa10 value="0.0176502873699095" flag="0"/>
			<psa30 value="0.00534574246253284" flag="0"/>
		</comp>
		<comp name="00.HNN" depth="0.0">
			<acc value="0.0205550780692897" flag="0"/>
			<vel value="0.0130676224181401" flag="0"/>
			<psa03 value="0.0459478406939705" flag="0"/>
			<psa10 value="0.0133605778852313" flag="0"/>
			<psa30 value="0.00359874214900464" flag="0"/>
		</comp>
		<comp name="00.HNZ" depth="0.0">
			<acc value="0.0177690939724179" flag="0"/>
			<vel value="0.00762111968253499" flag="0"/>
			<psa03 value="0.0313979836081716" flag="0"/>
			<psa10 value="0.0128924090588307" flag="0"/>
			<psa30 value="0.00143549082338827" flag="0"/>
		</comp>
	</station>
	<station code="NPLA" name="NPLA" netid="HL" source="National Observatory of Athens Seismic Network" insttype="" lat="37.56561" lon="22.79975">
		<comp name="00.HNE" depth="0.0">
			<acc value="0.0112633886356663" flag="0"/>
			<vel value="0.00593252748428617" flag="0"/>
			<psa03 value="0.0459620447598029" flag="0"/>
			<psa10 value="0.00650700824485145" flag="0"/>
			<psa30 value="0.000861522644564972" flag="0"/>
		</comp>
		<comp name="00.HNN" depth="0.0">
			<acc value="0.00599782259656572" flag="0"/>
			<vel value="0.00450936220031088" flag="0"/>
			<psa03 value="0.0239467478128514" flag="0"/>
			<psa10 value="0.00635542367186999" flag="0"/>
			<psa30 value="0.00069842230871719" flag="0"/>
		</comp>
		<comp name="00.HNZ" depth="0.0">
			<acc value="0.00338133986829628" flag="0"/>
			<vel value="0.00241240959842281" flag="0"/>
			<psa03 value="0.00580826172196655" flag="0"/>
			<psa10 value="0.00224666929956354" flag="0"/>
			<psa30 value="0.000450033666689091" flag="0"/>
		</comp>
	</station>
	<station code="VELA" name="VELA" netid="HL" source="National Observatory of Athens Seismic Network" insttype="" lat="37.974944" lon="22.766063">
		<comp name="00.HNE" depth="0.0">
			<acc value="0.0321921104955957" flag="0"/>
			<vel value="0.0204444376992359" flag="0"/>
			<psa03 value="0.0682588707733513" flag="0"/>
			<psa10 value="0.0228393823719848" flag="0"/>
			<psa30 value="0.00427937890451667" flag="0"/>
		</comp>
		<comp name="00.HNN" depth="0.0">
			<acc value="0.031897534835266" flag="0"/>
			<vel value="0.0159554189394693" flag="0"/>
			<psa03 value="0.0802129543396948" flag="0"/>
			<psa10 value="0.0224017996342707" flag="0"/>
			<psa30 value="0.00437333346187654" flag="0"/>
		</comp>
		<comp name="00.HNZ" depth="0.0">
			<acc value="0.0138059687921637" flag="0"/>
			<vel value="0.0090744681109014" flag="0"/>
			<psa03 value="0.0240189661386219" flag="0"/>
			<psa10 value="0.0111052150410062" flag="0"/>
			<psa30 value="0.00342972241061286" flag="0"/>
		</comp>
	</station>
	<station code="YDRA" name="YDRA" netid="HL" source="National Observatory of Athens Seismic Network" insttype="" lat="37.34923" lon="23.46525">
		<comp name="00.HNE" depth="0.0">
			<acc value="0.00866918674078835" flag="0"/>
			<vel value="0.00973638421838005" flag="0"/>
			<psa03 value="0.0221234160885781" flag="0"/>
			<psa10 value="0.020117348925655" flag="0"/>
			<psa30 value="0.00096338611126725" flag="0"/>
		</comp>
		<comp name="00.HNN" depth="0.0">
			<acc value="0.00813540122090003" flag="0"/>
			<vel value="0.00917184451945788" flag="0"/>
			<psa03 value="0.0148853623842947" flag="0"/>
			<psa10 value="0.0115851230825352" flag="0"/>
			<psa30 value="0.000697735544471664" flag="0"/>
		</comp>
		<comp name="00.HNZ" depth="0.0">
			<acc value="0.00475276127851537" flag="0"/>
			<vel value="0.00336450321927985" flag="0"/>
			<psa03 value="0.0123161192678806" flag="0"/>
			<psa10 value="0.00610984193454095" flag="0"/>
			<psa30 value="0.000311824849574412" flag="0"/>
		</comp>
	</station>
	<station code="DSF" name="DSF" netid="HP" source="University of Patras, Seismological Laboratory (PSLNET)" insttype="" lat="38.4112" lon="22.5271">
		<comp name="--.HNE" depth="1.0">
			<acc value="0.0315838345185513" flag="0"/>
			<vel value="0.0147757129181863" flag="0"/>
			<psa03 value="0.07801538688643" flag="0"/>
			<psa10 value="0.00459956485483994" flag="0"/>
			<psa30 value="0.000654226464293378" flag="0"/>
		</comp>
		<comp name="--.HNN" depth="1.0">
			<acc value="0.0345263286630242" flag="0"/>
			<vel value="0.0137568200735048" flag="0"/>
			<psa03 value="0.0859670855227062" flag="0"/>
			<psa10 value="0.00666367065423064" flag="0"/>
			<psa30 value="0.000665113904280663" flag="0"/>
		</comp>
		<comp name="--.HNZ" depth="1.0">
			<acc value="0.0138983931158896" flag="0"/>
			<vel value="0.00658265613488414" flag="0"/>
			<psa03 value="0.0375280980314822" flag="0"/>
			<psa10 value="0.00503117907215872" flag="0"/>
			<psa30 value="0.000830597575095648" flag="0"/>
		</comp>
	</station>
	<station code="GUR" name="GUR" netid="HP" source="University of Patras, Seismological Laboratory (PSLNET)" insttype="" lat="37.9363" lon="22.3423">
		<comp name="--.HNE" depth="0.0">
			<acc value="0.0080566852979007" flag="0"/>
			<vel value="0.00613013927664281" flag="0"/>
			<psa03 value="0.0243485660980067" flag="0"/>
			<psa10 value="0.00614943002579578" flag="0"/>
			<psa30 value="0.000315563144092996" flag="0"/>
		</comp>
		<comp name="--.HNN" depth="0.0">
			<acc value="0.006873521960271" flag="0"/>
			<vel value="0.0050644600028636" flag="0"/>
			<psa03 value="0.0270753587138036" flag="0"/>
			<psa10 value="0.00582530167888415" flag="0"/>
			<psa30 value="0.000352660184923091" flag="0"/>
		</comp>
		<comp name="--.HNZ" depth="0.0">
			<acc value="0.00552841767682181" flag="0"/>
			<vel value="0.00314555399641844" flag="0"/>
			<psa03 value="0.0125658493529401" flag="0"/>
			<psa10 value="0.00353503011589579" flag="0"/>
			<psa30 value="0.00029936168020051" flag="0"/>
		</comp>
	</station>
	<station code="LTK" name="LTK" netid="HP" source="University of Patras, Seismological Laboratory (PSLNET)" insttype="" lat="38.0228" lon="22.9673">
		<comp name="--.HNE" depth="0.0">
			<acc value="0.0217231370876162" flag="0"/>
			<vel value="0.0143404265692328" flag="0"/>
			<psa03 value="0.0521028161391983" flag="0"/>
			<psa10 value="0.0185485993786797" flag="0"/>
			<psa30 value="0.00174689384814556" flag="0"/>
		</comp>
		<comp name="--.HNN" depth="0.0">
			<acc value="0.0252779572186109" flag="0"/>
			<vel value="0.0124354849401085" flag="0"/>
			<psa03 value="0.0664189259695538" flag="0"/>
			<psa10 value="0.0158132394244895" flag="0"/>
			<psa30 value="0.00190709112709317" flag="0"/>
		</comp>
		<comp name="--.HNZ" depth="0.0">
			<acc value="0.0123913841585622" flag="0"/>
			<vel value="0.00728807062104015" flag="0"/>
			<psa03 value="0.0270948313579531" flag="0"/>
			<psa10 value="0.0115006412360209" flag="0"/>
			<psa30 value="0.00103091870996981" flag="0"/>
		</comp>
	</station>
</stationlist>
