<?xml version="1.0" encoding="UTF-8" standalone="yes"?>
<!DOCTYPE earthquake SYSTEM "stationlist.dtd">
<stationlist created="" xmlns="ch.ethz.sed.shakemap.usgs.xml">
  <station code="ACOR" name="ACOR" netid="HA" insttype="Horizon,120s,1200" lat="37.8905" lon="22.8694">
    <comp name="--.HHE">
      <acc value="0.0064313247" flag="0"/>
      <vel value="0.0031113225" flag="0"/>
      <psa03 value="0.0185660935" flag="0"/>
      <psa10 value="0.0051649733" flag="0"/>
      <psa30 value="0.0008096700" flag="0"/>
    </comp>
    <comp name="--.HHZ">
      <acc value="0.0044354361" flag="0"/>
      <vel value="0.0021766831" flag="0"/>
      <psa03 value="0.0090520989" flag="0"/>
      <psa10 value="0.0026552036" flag="0"/>
      <psa30 value="0.0005673277" flag="0"/>
    </comp>
    <comp name="--.HHN">
      <acc value="0.0056303010" flag="0"/>
      <vel value="0.0035826499" flag="0"/>
      <psa03 value="0.0148541205" flag="0"/>
      <psa10 value="0.0045858027" flag="0"/>
      <psa30 value="0.0010132824" flag="0"/>
    </comp>
  </station>
  <station code="AMPE" name="AMPE" netid="HA" insttype="1s-100Hz," lat="38.3015" lon="23.2688">
    <comp name="--.HHE">
      <acc value="0.3613436879" flag="0"/>
      <vel value="0.2021551586" flag="0"/>
      <psa03 value="0.8212679427" flag="0"/>
      <psa10 value="0.2645513918" flag="0"/>
      <psa30 value="0.0297188302" flag="0"/>
    </comp>
    <comp name="--.HHZ">
      <acc value="0.1710110689" flag="0"/>
      <vel value="0.0902396181" flag="0"/>
      <psa03 value="0.2663866730" flag="0"/>
      <psa10 value="0.1695147341" flag="0"/>
      <psa30 value="0.0119972827" flag="0"/>
    </comp>
    <comp name="--.HHN">
      <acc value="0.1657163270" flag="0"/>
      <vel value="0.1344818134" flag="0"/>
      <psa03 value="0.3370098400" flag="0"/>
      <psa10 value="0.1845212296" flag="0"/>
      <psa30 value="0.0286823401" flag="0"/>
    </comp>
  </station>
  <station code="ATAL" name="ATAL" netid="HA" insttype="120" lat="38.6926" lon="23.0213">
    <comp name="--.HHN">
      <acc value="0.0313845455" flag="0"/>
      <vel value="0.0122561813" flag="0"/>
      <psa03 value="0.0389054739" flag="0"/>
      <psa10 value="0.0230121008" flag="0"/>
      <psa30 value="0.0027710678" flag="0"/>
    </comp>
    <comp name="--.HHZ">
      <acc value="0.0186880136" flag="0"/>
      <vel value="0.0114911914" flag="0"/>
      <psa03 value="0.0234600074" flag="0"/>
      <psa10 value="0.0091989374" flag="0"/>
      <psa30 value="0.0007459732" flag="0"/>
    </comp>
    <comp name="--.HHE">
      <acc value="0.0245569367" flag="0"/>
      <vel value="0.0143851504" flag="0"/>
      <psa03 value="0.0434374528" flag="0"/>
      <psa10 value="0.0251054236" flag="0"/>
      <psa30 value="0.0028593098" flag="0"/>
    </comp>
  </station>
  <station code="ATHU" name="ATHU" netid="HA" insttype="60" lat="37.9665" lon="23.7845">
    <comp name="--.HHN">
      <acc value="0.0057770922" flag="0"/>
      <vel value="0.0039205594" flag="0"/>
      <psa03 value="0.0081273210" flag="0"/>
      <psa10 value="0.0056943838" flag="0"/>
      <psa30 value="0.0015516573" flag="0"/>
    </comp>
    <comp name="--.HHE">
      <acc value="0.0061119824" flag="0"/>
      <vel value="0.0036331034" flag="0"/>
      <psa03 value="0.0088836770" flag="0"/>
      <psa10 value="0.0048627435" flag="0"/>
      <psa30 value="0.0013555102" flag="0"/>
    </comp>
    <comp name="--.HHZ">
      <acc value="0.0051832755" flag="0"/>
      <vel value="0.0039868185" flag="0"/>
      <psa03 value="0.0072848573" flag="0"/>
      <psa10 value="0.0057019590" flag="0"/>
      <psa30 value="0.0011652828" flag="0"/>
    </comp>
  </station>
  <station code="AXAR" name="AXAR" netid="HA" insttype="Horizon,120s,1200" lat="38.7664" lon="22.659">
    <comp name="--.HHN">
      <acc value="0.0373290421" flag="0"/>
      <vel value="0.0245304396" flag="0"/>
      <psa03 value="0.0919044662" flag="0"/>
      <psa10 value="0.0456532764" flag="0"/>
      <psa30 value="0.0028001444" flag="0"/>
    </comp>
    <comp name="--.HHZ">
      <acc value="0.0342220856" flag="0"/>
      <vel value="0.0166546505" flag="0"/>
      <psa03 value="0.0797008821" flag="0"/>
      <psa10 value="0.0348546861" flag="0"/>
      <psa30 value="0.0014614623" flag="0"/>
    </comp>
    <comp name="--.HHE">
      <acc value="0.0465968920" flag="0"/>
      <vel value="0.0269153267" flag="0"/>
      <psa03 value="0.1597264424" flag="0"/>
      <psa10 value="0.0475297948" flag="0"/>
      <psa30 value="0.0021728807" flag="0"/>
    </comp>
  </station>
  <station code="DOMV" name="DOMV" netid="HA" insttype="60" lat="38.2569" lon="22.9795">
    <comp name="--.HHN">
      <acc value="0.0844858800" flag="0"/>
      <vel value="0.0227377070" flag="0"/>
      <psa03 value="0.1023102217" flag="0"/>
      <psa10 value="0.0107032719" flag="0"/>
      <psa30 value="0.0007342685" flag="0"/>
    </comp>
    <comp name="--.HHE">
      <acc value="0.0930269445" flag="0"/>
      <vel value="0.0200841628" flag="0"/>
      <psa03 value="0.0804197856" flag="0"/>
      <psa10 value="0.0082909641" flag="0"/>
      <psa30 value="0.0005903042" flag="0"/>
    </comp>
    <comp name="--.HHZ">
      <acc value="0.0512276791" flag="0"/>
      <vel value="0.0124161759" flag="0"/>
      <psa03 value="0.0560073261" flag="0"/>
      <psa10 value="0.0044498560" flag="0"/>
      <psa30 value="0.0006202958" flag="0"/>
    </comp>
  </station>
  <station code="EPID" name="EPID" netid="HA" insttype="30" lat="37.6144" lon="23.1189">
    <comp name="--.HHE">
      <acc value="0.0259558281" flag="0"/>
      <vel value="0.0108187776" flag="0"/>
      <psa03 value="0.0939754239" flag="0"/>
      <psa10 value="0.0097512693" flag="0"/>
      <psa30 value="0.0004392141" flag="0"/>
    </comp>
    <comp name="--.HHN">
      <acc value="0.0232740127" flag="0"/>
      <vel value="0.0083242340" flag="0"/>
      <psa03 value="0.0842094061" flag="0"/>
      <psa10 value="0.0064953109" flag="0"/>
      <psa30 value="0.0005289564" flag="0"/>
    </comp>
    <comp name="--.HHZ">
      <acc value="0.0130917828" flag="0"/>
      <vel value="0.0051139057" flag="0"/>
      <psa03 value="0.0418422786" flag="0"/>
      <psa10 value="0.0095984682" flag="0"/>
      <psa30 value="0.0005909122" flag="0"/>
    </comp>
  </station>
  <station code="ERTR" name="ERTR" netid="HA" insttype="Horizon,120s,1200" lat="38.4066" lon="23.7865">
    <comp name="--.HHN">
      <acc value="0.0153135698" flag="0"/>
      <vel value="0.0086280843" flag="0"/>
      <psa03 value="0.0342881886" flag="0"/>
      <psa10 value="0.0129455560" flag="0"/>
      <psa30 value="0.0022210095" flag="0"/>
    </comp>
    <comp name="--.HHZ">
      <acc value="0.0132013934" flag="0"/>
      <vel value="0.0092305893" flag="0"/>
      <psa03 value="0.0181160398" flag="0"/>
      <psa10 value="0.0108221964" flag="0"/>
      <psa30 value="0.0021836420" flag="0"/>
    </comp>
    <comp name="--.HHE">
      <acc value="0.0164447761" flag="0"/>
      <vel value="0.0081177245" flag="0"/>
      <psa03 value="0.0225958999" flag="0"/>
      <psa10 value="0.0071139112" flag="0"/>
      <psa30 value="0.0009326697" flag="0"/>
    </comp>
  </station>
  <station code="KARY" name="KARY" netid="HA" insttype="60" lat="38.0321" lon="24.437">
    <comp name="--.HHE">
      <acc value="0.0061232232" flag="0"/>
      <vel value="0.0024875915" flag="0"/>
      <psa03 value="0.0082712034" flag="0"/>
      <psa10 value="0.0016726038" flag="0"/>
      <psa30 value="0.0003586818" flag="0"/>
    </comp>
    <comp name="--.HHZ">
      <acc value="0.0069151599" flag="0"/>
      <vel value="0.0037534220" flag="0"/>
      <psa03 value="0.0124243983" flag="0"/>
      <psa10 value="0.0039300520" flag="0"/>
      <psa30 value="0.0007323446" flag="0"/>
    </comp>
    <comp name="--.HHN">
      <acc value="0.0140972672" flag="0"/>
      <vel value="0.0042863805" flag="0"/>
      <psa03 value="0.0076863866" flag="0"/>
      <psa10 value="0.0023547300" flag="0"/>
      <psa30 value="0.0001103513" flag="0"/>
    </comp>
  </station>
  <station code="MDRA" name="MDRA" netid="HA" insttype="60" lat="38.0606" lon="23.4662">
    <comp name="--.HHE">
      <acc value="0.0186113624" flag="0"/>
      <vel value="0.0084987422" flag="0"/>
      <psa03 value="0.0448918543" flag="0"/>
      <psa10 value="0.0082003522" flag="0"/>
      <psa30 value="0.0025768634" flag="0"/>
    </comp>
    <comp name="--.HHN">
      <acc value="0.0231063443" flag="0"/>
      <vel value="0.0148704368" flag="0"/>
      <psa03 value="0.0498959222" flag="0"/>
      <psa10 value="0.0164177545" flag="0"/>
      <psa30 value="0.0032182870" flag="0"/>
    </comp>
    <comp name="--.HHZ">
      <acc value="0.0193627500" flag="0"/>
      <vel value="0.0139150170" flag="0"/>
      <psa03 value="0.0390699643" flag="0"/>
      <psa10 value="0.0181276063" flag="0"/>
      <psa30 value="0.0015488360" flag="0"/>
    </comp>
  </station>
  <station code="MRTH" name="MRTH" netid="HA" insttype="S100," lat="38.1225" lon="23.9409">
    <comp name="--.HHN">
      <acc value="0.0182984202" flag="0"/>
      <vel value="0.0076190500" flag="0"/>
      <psa03 value="0.0303187131" flag="0"/>
      <psa10 value="0.0068687357" flag="0"/>
      <psa30 value="0.0025090762" flag="0"/>
    </comp>
    <comp name="--.HHZ">
      <acc value="0.0174193013" flag="0"/>
      <vel value="0.0096647504" flag="0"/>
      <psa03 value="0.0231382120" flag="0"/>
      <psa10 value="0.0084845394" flag="0"/>
      <psa30 value="0.0015392115" flag="0"/>
    </comp>
    <comp name="--.HHE">
      <acc value="0.0266483250" flag="0"/>
      <vel value="0.0117234088" flag="0"/>
      <psa03 value="0.0322526501" flag="0"/>
      <psa10 value="0.0113513239" flag="0"/>
      <psa30 value="0.0011831806" flag="0"/>
    </comp>
  </station>
  <station code="PSAH" name="PSAH" netid="HA" insttype="25" lat="38.5694" lon="23.6473">
    <comp name="--.HHE">
      <acc value="0.0113445934" flag="0"/>
      <vel value="0.0036633938" flag="0"/>
      <psa03 value="0.0098662954" flag="0"/>
      <psa10 value="0.0054595638" flag="0"/>
      <psa30 value="0.0003399385" flag="0"/>
    </comp>
    <comp name="--.HHN">
      <acc value="0.0066290633" flag="0"/>
      <vel value="0.0022665326" flag="0"/>
      <psa03 value="0.0061384864" flag="0"/>
      <psa10 value="0.0026844018" flag="0"/>
      <psa30 value="0.0003290537" flag="0"/>
    </comp>
    <comp name="--.HHZ">
      <acc value="0.0056623353" flag="0"/>
      <vel value="0.0036615931" flag="0"/>
      <psa03 value="0.0078947118" flag="0"/>
      <psa10 value="0.0058011407" flag="0"/>
      <psa30 value="0.0003986236" flag="0"/>
    </comp>
  </station>
  <station code="STFN" name="STFN" netid="HA" insttype="1s-100Hz," lat="38.1766" lon="23.544">
    <comp name="--.HHZ">
      <acc value="0.0795539496" flag="0"/>
      <vel value="0.0396131182" flag="0"/>
      <psa03 value="0.1522138055" flag="0"/>
      <psa10 value="0.0463070510" flag="0"/>
      <psa30 value="0.0060227418" flag="0"/>
    </comp>
    <comp name="--.HHE">
      <acc value="0.1225903444" flag="0"/>
      <vel value="0.0458233111" flag="0"/>
      <psa03 value="0.2369710181" flag="0"/>
      <psa10 value="0.0644015461" flag="0"/>
      <psa30 value="0.0056532702" flag="0"/>
    </comp>
    <comp name="--.HHN">
      <acc value="0.1516527414" flag="0"/>
      <vel value="0.0873468269" flag="0"/>
      <psa03 value="0.2229584251" flag="0"/>
      <psa10 value="0.0857298242" flag="0"/>
      <psa30 value="0.0093602853" flag="0"/>
    </comp>
  </station>
  <station code="THAL" name="THAL" netid="HA" insttype="30" lat="38.0357" lon="22.6634">
    <comp name="--.HHE">
      <acc value="0.0309370612" flag="0"/>
      <vel value="0.0118410953" flag="0"/>
      <psa03 value="0.0978813016" flag="0"/>
      <psa10 value="0.0143173140" flag="0"/>
      <psa30 value="0.0014539741" flag="0"/>
    </comp>
    <comp name="--.HHN">
      <acc value="0.0410975923" flag="0"/>
      <vel value="0.0160448679" flag="0"/>
      <psa03 value="0.1181641878" flag="0"/>
      <psa10 value="0.0108358192" flag="0"/>
      <psa30 value="0.0013276252" flag="0"/>
    </comp>
    <comp name="--.HHZ">
      <acc value="0.0173935647" flag="0"/>
      <vel value="0.0084002070" flag="0"/>
      <psa03 value="0.0432289271" flag="0"/>
      <psa10 value="0.0080037636" flag="0"/>
      <psa30 value="0.0005204833" flag="0"/>
    </comp>
  </station>
  <station code="THIV" name="THIV" netid="HA" insttype="25" lat="38.299" lon="23.332">
    <comp name="--.HHE">
      <acc value="0.2909317912" flag="0"/>
      <vel value="0.0981720233" flag="0"/>
      <psa03 value="0.6204047059" flag="0"/>
      <psa10 value="0.1118048939" flag="0"/>
      <psa30 value="0.0094186759" flag="0"/>
    </comp>
    <comp name="--.HHZ">
      <acc value="0.3104290184" flag="0"/>
      <vel value="0.0873276566" flag="0"/>
      <psa03 value="0.3222419291" flag="0"/>
      <psa10 value="0.0524984361" flag="0"/>
      <psa30 value="0.0055853531" flag="0"/>
    </comp>
    <comp name="--.HHN">
      <acc value="0.1939585936" flag="0"/>
      <vel value="0.0791543612" flag="0"/>
      <psa03 value="0.3130543053" flag="0"/>
      <psa10 value="0.0847829201" flag="0"/>
      <psa30 value="0.0084822280" flag="0"/>
    </comp>
  </station>
  <station code="VILL" name="VILL" netid="HA" insttype="Horizon,120s,1200" lat="38.1642" lon="23.3122">
    <comp name="--.HHE">
      <acc value="0.0930536223" flag="0"/>
      <vel value="0.0661487895" flag="0"/>
      <psa03 value="0.2732513813" flag="0"/>
      <psa10 value="0.1200830846" flag="0"/>
      <psa30 value="0.0124109807" flag="0"/>
    </comp>
    <comp name="--.HHN">
      <acc value="0.1150296248" flag="0"/>
      <vel value="0.0581605365" flag="0"/>
      <psa03 value="0.2925203379" flag="0"/>
      <psa10 value="0.0964718126" flag="0"/>
      <psa30 value="0.0115807353" flag="0"/>
    </comp>
    <comp name="--.HHZ">
      <acc value="0.0527601210" flag="0"/>
      <vel value="0.0363189178" flag="0"/>
      <psa03 value="0.1449185458" flag="0"/>
      <psa10 value="0.0463765192" flag="0"/>
      <psa30 value="0.0056969063" flag="0"/>
    </comp>
  </station>
  <station code="ATH" name="ATH" netid="HL" insttype="DR24" lat="37.9738" lon="23.7177">
    <comp name="--.HHN">
      <acc value="0.0239732691" flag="0"/>
      <vel value="0.0137486797" flag="0"/>
      <psa03 value="0.0450514011" flag="0"/>
      <psa10 value="0.0129717136" flag="0"/>
      <psa30 value="0.0031955714" flag="0"/>
    </comp>
    <comp name="--.HHE">
      <acc value="0.0235322347" flag="0"/>
      <vel value="0.0162828098" flag="0"/>
      <psa03 value="0.0616290998" flag="0"/>
      <psa10 value="0.0172001653" flag="0"/>
      <psa30 value="0.0051432844" flag="0"/>
    </comp>
    <comp name="--.HHZ">
      <acc value="0.0186214492" flag="0"/>
      <vel value="0.0073362778" flag="0"/>
      <psa03 value="0.0296448932" flag="0"/>
      <psa10 value="0.0128733457" flag="0"/>
      <psa30 value="0.0014036241" flag="0"/>
    </comp>
  </station>
  <station code="LKR" name="LKR" netid="HL" insttype="65535" lat="38.6496" lon="22.9988">
    <comp name="--.HHN">
      <acc value="0.0758683786" flag="0"/>
      <vel value="0.0292750306" flag="0"/>
      <psa03 value="0.1241176255" flag="0"/>
      <psa10 value="0.0207706846" flag="0"/>
      <psa30 value="0.0030439840" flag="0"/>
    </comp>
    <comp name="--.HHZ">
      <acc value="0.0605309204" flag="0"/>
      <vel value="0.0189201633" flag="0"/>
      <psa03 value="0.0776269599" flag="0"/>
      <psa10 value="0.0102711212" flag="0"/>
      <psa30 value="0.0015149005" flag="0"/>
    </comp>
    <comp name="--.HHE">
      <acc value="0.0712761176" flag="0"/>
      <vel value="0.0277439772" flag="0"/>
      <psa03 value="0.1224554677" flag="0"/>
      <psa10 value="0.0143229889" flag="0"/>
      <psa30 value="0.0030613453" flag="0"/>
    </comp>
  </station>
  <station code="NOAC" name="NOAC" netid="HL" insttype="CMG-5" lat="37.9738" lon="23.7177">
    <comp name="00.HNE">
      <acc value="0.0240006004" flag="0"/>
      <vel value="0.0165714912" flag="0"/>
      <psa03 value="0.0629072222" flag="0"/>
      <psa10 value="0.0175923631" flag="0"/>
      <psa30 value="0.0050580055" flag="0"/>
    </comp>
    <comp name="00.HNN">
      <acc value="0.0208201192" flag="0"/>
      <vel value="0.0136923519" flag="0"/>
      <psa03 value="0.0458612568" flag="0"/>
      <psa10 value="0.0133800419" flag="0"/>
      <psa30 value="0.0034343773" flag="0"/>
    </comp>
    <comp name="00.HNZ">
      <acc value="0.0176369563" flag="0"/>
      <vel value="0.0073319475" flag="0"/>
      <psa03 value="0.0312049685" flag="0"/>
      <psa10 value="0.0128982796" flag="0"/>
      <psa30 value="0.0013815480" flag="0"/>
    </comp>
  </station>
  <station code="PTL" name="PTL" netid="HL" insttype="120" lat="38.0473" lon="23.8638">
    <comp name="--.HHE">
      <acc value="0.0078365916" flag="0"/>
      <vel value="0.0050848850" flag="0"/>
      <psa03 value="0.0165935599" flag="0"/>
      <psa10 value="0.0110601779" flag="0"/>
      <psa30 value="0.0016225265" flag="0"/>
    </comp>
    <comp name="--.HHN">
      <acc value="0.0002002280" flag="0"/>
      <vel value="0.0000971985" flag="0"/>
      <psa03 value="0.0002097854" flag="0"/>
      <psa10 value="0.0001133059" flag="0"/>
      <psa30 value="0.0000421831" flag="0"/>
    </comp>
    <comp name="--.HHZ">
      <acc value="0.0098466536" flag="0"/>
      <vel value="0.0060671003" flag="0"/>
      <psa03 value="0.0118222632" flag="0"/>
      <psa10 value="0.0138169343" flag="0"/>
      <psa30 value="0.0016235519" flag="0"/>
    </comp>
  </station>
  <station code="THI2" name="THI2" netid="HL" insttype="LE3D20_SMART24" lat="38.3727" lon="23.211">
    <comp name="--.HHE">
      <acc value="0.4454445663" flag="0"/>
      <vel value="0.1409425723" flag="0"/>
      <psa03 value="0.7125898193" flag="0"/>
      <psa10 value="0.0611870166" flag="0"/>
      <psa30 value="0.0099807195" flag="0"/>
    </comp>
    <comp name="--.HHN">
      <acc value="0.4533771414" flag="0"/>
      <vel value="0.1655655667" flag="0"/>
      <psa03 value="0.5297594990" flag="0"/>
      <psa10 value="0.0769470013" flag="0"/>
      <psa30 value="0.0129214097" flag="0"/>
    </comp>
    <comp name="--.HHZ">
      <acc value="0.2980229887" flag="0"/>
      <vel value="0.0907526075" flag="0"/>
      <psa03 value="0.3865754955" flag="0"/>
      <psa10 value="0.0699342510" flag="0"/>
      <psa30 value="0.0135433226" flag="0"/>
    </comp>
  </station>
  <station code="VLY" name="VLY" netid="HL" insttype="120P," lat="37.8524" lon="23.7942">
    <comp name="--.HHN">
      <acc value="0.0163054424" flag="0"/>
      <vel value="0.0089035152" flag="0"/>
      <psa03 value="0.0231940564" flag="0"/>
      <psa10 value="0.0136599762" flag="0"/>
      <psa30 value="0.0006546304" flag="0"/>
    </comp>
    <comp name="--.HHZ">
      <acc value="0.0150625436" flag="0"/>
      <vel value="0.0064852289" flag="0"/>
      <psa03 value="0.0345428298" flag="0"/>
      <psa10 value="0.0044665081" flag="0"/>
      <psa30 value="0.0006125638" flag="0"/>
    </comp>
    <comp name="--.HHE">
      <acc value="0.0189492504" flag="0"/>
      <vel value="0.0077182390" flag="0"/>
      <psa03 value="0.0445961505" flag="0"/>
      <psa10 value="0.0106033023" flag="0"/>
      <psa30 value="0.0016779612" flag="0"/>
    </comp>
  </station>
  <station code="DSF" name="DSF" netid="HP" insttype="120P," lat="38.4112" lon="22.5271">
    <comp name="--.HHZ">
      <acc value="0.0175094752" flag="0"/>
      <vel value="0.0065010455" flag="0"/>
      <psa03 value="0.0388716796" flag="0"/>
      <psa10 value="0.0051106359" flag="0"/>
      <psa30 value="0.0008735170" flag="0"/>
    </comp>
    <comp name="--.HHE">
      <acc value="0.0355310544" flag="0"/>
      <vel value="0.0154068154" flag="0"/>
