<stationlist xmlns:esm="https://esm-db.eu/esmws/shakemap/1/" created="1784339610">
	<station code="BLY" name="BLY" netid="MN" source="Mediterranean Very Broadband Seismographic Network (MedNet)" insttype="" lat="44.7488" lon="17.1839" esm:processing="manual (Paolucci et al 2011)" esm:quality="best">
		<comp name="--.HNE" depth="1.0">
			<acc value="0.0474494297105954" flag="0"/>
			<vel value="0.0185579154814611" flag="0"/>
			<psa03 value="0.143622483244652" flag="0"/>
			<psa10 value="0.0145407697288721" flag="0"/>
			<psa30 value="0.00120222309183296" flag="0"/>
		</comp>
		<comp name="--.HNN" depth="1.0">
			<acc value="0.0293464008511793" flag="0"/>
			<vel value="0.0156380202045179" flag="0"/>
			<psa03 value="0.0776277284827015" flag="0"/>
			<psa10 value="0.0134736681010264" flag="0"/>
			<psa30 value="0.000945402825844082" flag="0"/>
		</comp>
		<comp name="--.HNZ" depth="1.0">
			<acc value="0.0315958176816335" flag="0"/>
			<vel value="0.0126349954858788" flag="0"/>
			<psa03 value="0.0712743351429069" flag="0"/>
			<psa10 value="0.00834755348877096" flag="0"/>
			<psa30 value="0.00121698802001699" flag="0"/>
		</comp>
	</station>
	<station code="BOJS" name="BOJS" netid="SL" source="Seismic Network of the Republic of Slovenia (SNRS)" insttype="" lat="45.5043" lon="15.2518" esm:processing="manual (Paolucci et al 2011)" esm:quality="best">
		<comp name="--.HNE" depth="0.0">
			<acc value="0.0613134470780387" flag="0"/>
			<vel value="0.0163253228161224" flag="0"/>
			<psa03 value="0.077538244069465" flag="0"/>
			<psa10 value="0.0069381739802954" flag="0"/>
			<psa30 value="0.000676502164068269" flag="0"/>
		</comp>
		<comp name="--.HNN" depth="0.0">
			<acc value="0.0599172523482931" flag="0"/>
			<vel value="0.0182658579696637" flag="0"/>
			<psa03 value="0.0766433999370995" flag="0"/>
			<psa10 value="0.00583483116508882" flag="0"/>
			<psa30 value="0.000579858997772802" flag="0"/>
		</comp>
		<comp name="--.HNZ" depth="0.0">
			<acc value="0.0382059734264725" flag="0"/>
			<vel value="0.0104360210661673" flag="0"/>
			<psa03 value="0.0758827824245889" flag="0"/>
			<psa10 value="0.006285832607801" flag="0"/>
			<psa30 value="0.000577621887441888" flag="0"/>
		</comp>
	</station>
	<station code="CADS" name="CADS" netid="SL" source="Seismic Network of the Republic of Slovenia (SNRS)" insttype="" lat="46.2281" lon="13.7368" esm:processing="manual (Paolucci et al 2011)" esm:quality="best">
		<comp name="--.HNE" depth="0.0">
			<acc value="0.0113423806803548" flag="0"/>
			<vel value="0.00702288691379679" flag="0"/>
			<psa03 value="0.0367333516336011" flag="0"/>
			<psa10 value="0.00322143887651557" flag="0"/>
			<psa30 value="0.000321249043519191" flag="0"/>
		</comp>
		<comp name="--.HNN" depth="0.0">
			<acc value="0.00861687623186681" flag="0"/>
			<vel value="0.0052604108350309" flag="0"/>
			<psa03 value="0.0270690350040544" flag="0"/>
			<psa10 value="0.00404290579002704" flag="0"/>
			<psa30 value="0.00035391085435053" flag="0"/>
		</comp>
		<comp name="--.HNZ" depth="0.0">
			<acc value="0.00787800340151645" flag="0"/>
			<vel value="0.00397763792646101" flag="0"/>
			<psa03 value="0.0187917267796741" flag="0"/>
			<psa10 value="0.00429659410155264" flag="0"/>
			<psa30 value="0.000430420027667774" flag="0"/>
		</comp>
	</station>
	<station code="CEY" name="CEY" netid="SL" source="Seismic Network of the Republic of Slovenia (SNRS)" insttype="" lat="45.7381" lon="14.4221" esm:processing="manual (Paolucci et al 2011)" esm:quality="best">
		<comp name="--.HNE" depth="0.0">
			<acc value="0.0222346850868895" flag="0"/>
			<vel value="0.00685923104729626" flag="0"/>
			<psa03 value="0.0331539751041394" flag="0"/>
			<psa10 value="0.00378519067990579" flag="0"/>
			<psa30 value="0.000331092328975211" flag="0"/>
		</comp>
		<comp name="--.HNN" depth="0.0">
			<acc value="0.0201202660252114" flag="0"/>
			<vel value="0.00906044146849935" flag="0"/>
			<psa03 value="0.0483663253543518" flag="0"/>
			<psa10 value="0.00759454215138545" flag="0"/>
			<psa30 value="0.000425050962873582" flag="0"/>
		</comp>
		<comp name="--.HNZ" depth="0.0">
			<acc value="0.0146653944183893" flag="0"/>
			<vel value="0.00539315416773433" flag="0"/>
			<psa03 value="0.0406259236093908" flag="0"/>
			<psa10 value="0.00668851246736544" flag="0"/>
			<psa30 value="0.000907819372284734" flag="0"/>
		</comp>
	</station>
	<station code="CRES" name="CRES" netid="SL" source="Seismic Network of the Republic of Slovenia (SNRS)" insttype="" lat="45.826" lon="15.4569" esm:processing="manual (Paolucci et al 2011)" esm:quality="best">
		<comp name="--.HNE" depth="0.0">
			<acc value="0.0916278637068617" flag="0"/>
			<vel value="0.036149001762758" flag="0"/>
			<psa03 value="0.186127579532011" flag="0"/>
			<psa10 value="0.012696495972067" flag="0"/>
			<psa30 value="0.00123533232473048" flag="0"/>
		</comp>
		<comp name="--.HNN" depth="0.0">
			<acc value="0.104358666776883" flag="0"/>
			<vel value="0.0285196220080745" flag="0"/>
			<psa03 value="0.171094198108271" flag="0"/>
			<psa10 value="0.00891935888935247" flag="0"/>
			<psa30 value="0.000981196591138699" flag="0"/>
		</comp>
		<comp name="--.HNZ" depth="0.0">
			<acc value="0.0582625224565721" flag="0"/>
			<vel value="0.0187285128979734" flag="0"/>
			<psa03 value="0.0955693533366285" flag="0"/>
			<psa10 value="0.00666032487719593" flag="0"/>
			<psa30 value="0.000555250784132752" flag="0"/>
		</comp>
	</station>
	<station code="CRNS" name="CRNS" netid="SL" source="Seismic Network of the Republic of Slovenia (SNRS)" insttype="" lat="46.0807" lon="14.2613" esm:processing="manual (Paolucci et al 2011)" esm:quality="good">
		<comp name="--.HNE" depth="0.0">
			<acc value="0.0318267635658986" flag="0"/>
			<vel value="0.0134311373633753" flag="0"/>
			<psa03 value="0.0958825487829564" flag="0"/>
			<psa10 value="0.00736098783283807" flag="0"/>
			<psa30 value="0.000732429922341108" flag="0"/>
		</comp>
		<comp name="--.HNN" depth="0.0">
			<acc value="0.028394923860987" flag="0"/>
			<vel value="0.00871034695967333" flag="0"/>
			<psa03 value="0.0578069309508071" flag="0"/>
			<psa10 value="0.00555295526339371" flag="0"/>
			<psa30 value="0.000382993288652406" flag="0"/>
		</comp>
		<comp name="--.HNZ" depth="0.0">
			<acc value="0.0120637574033004" flag="0"/>
			<vel value="0.0045857285702474" flag="0"/>
			<psa03 value="0.0326618108313384" flag="0"/>
			<psa10 value="0.00331808204281103" flag="0"/>
			<psa30 value="0.000483663253543518" flag="0"/>
		</comp>
	</station>
	<station code="DOBS" name="DOBS" netid="SL" source="Seismic Network of the Republic of Slovenia (SNRS)" insttype="" lat="46.1495" lon="15.4695" esm:processing="manual (Paolucci et al 2011)" esm:quality="best">
		<comp name="--.HNE" depth="0.0">
			<acc value="0.0975365781714479" flag="0"/>
			<vel value="0.0239670633460278" flag="0"/>
			<psa03 value="0.118309160317906" flag="0"/>
			<psa10 value="0.0223652909657662" flag="0"/>
			<psa30 value="0.00183368501429934" flag="0"/>
		</comp>
		<comp name="--.HNN" depth="0.0">
			<acc value="0.0770004961475867" flag="0"/>
			<vel value="0.0232134852808848" flag="0"/>
			<psa03 value="0.132947088342179" flag="0"/>
			<psa10 value="0.0104464088983031" flag="0"/>
			<psa30 value="0.00123411144132421" flag="0"/>
		</comp>
		<comp name="--.HNZ" depth="0.0">
			<acc value="0.0355326337824298" flag="0"/>
			<vel value="0.010498026987084" flag="0"/>
			<psa03 value="0.030893504876412" flag="0"/>
			<psa10 value="0.00647614416902305" flag="0"/>
			<psa30 value="0.00080308163771509" flag="0"/>
		</comp>
	</station>
	<station code="DOLA" name="DOLA" netid="SL" source="Seismic Network of the Republic of Slovenia (SNRS)" insttype="" lat="46.0938" lon="14.6781" esm:processing="manual (Paolucci et al 2011)" esm:quality="good">
		<comp name="--.HGE" depth="0.0">
			<acc value="0.0147210265522613" flag="0"/>
			<vel value="0.00818148364422912" flag="0"/>
			<psa03 value="0.0206298653252483" flag="0"/>
			<psa10 value="0.00938281687806969" flag="0"/>
			<psa30 value="0.00236071763595758" flag="0"/>
		</comp>
		<comp name="--.HGN" depth="0.0">
			<acc value="0.0352085272557657" flag="0"/>
			<vel value="0.01222653613204" flag="0"/>
			<psa03 value="0.0706322623740704" flag="0"/>
			<psa10 value="0.0108998026834343" flag="0"/>
			<psa30 value="0.00076319331822844" flag="0"/>
		</comp>
		<comp name="--.HGZ" depth="0.0">
			<acc value="0.0130794577227455" flag="0"/>
			<vel value="0.00844689633758911" flag="0"/>
			<psa03 value="0.0370339871740636" flag="0"/>
			<psa10 value="0.0105491160146636" flag="0"/>
			<psa30 value="0.000875097554251546" flag="0"/>
		</comp>
	</station>
	<station code="DTSE" name="DTSE" netid="SL" source="Seismic Network of the Republic of Slovenia (SNRS)" insttype="" lat="46.0251" lon="14.8395" esm:processing="manual (Paolucci et al 2011)" esm:quality="good">
		<comp name="--.HN1" depth="0.0">
			<acc value="0.0421659859549552" flag="0"/>
			<vel value="0.0239556311695822" flag="0"/>
			<psa03 value="0.161767685065315" flag="0"/>
			<psa10 value="0.0188968643245217" flag="0"/>
			<psa30 value="0.00122473873709559" flag="0"/>
		</comp>
		<comp name="--.HN2" depth="0.0">
			<acc value="0.0333617551237102" flag="0"/>
			<vel value="0.0204405272844533" flag="0"/>
			<psa03 value="0.0970878378425515" flag="0"/>
			<psa10 value="0.0220892464291693" flag="0"/>
			<psa30 value="0.00096564542760273" flag="0"/>
		</comp>
		<comp name="--.HNZ" depth="0.0">
			<acc value="0.0221293053239399" flag="0"/>
			<vel value="0.0135641158959783" flag="0"/>
			<psa03 value="0.0620170249903891" flag="0"/>
			<psa10 value="0.00965481770928026" flag="0"/>
			<psa30 value="0.00117594862999396" flag="0"/>
		</comp>
	</station>
	<station code="GBAS" name="GBAS" netid="SL" source="Seismic Network of the Republic of Slovenia (SNRS)" insttype="" lat="45.9348" lon="14.4434" esm:processing="manual (Paolucci et al 2011)" esm:quality="best">
		<comp name="--.HNE" depth="0.0">
			<acc value="0.010374646231183" flag="0"/>
			<vel value="0.00566218580209784" flag="0"/>
			<psa03 value="0.0197046816405365" flag="0"/>
			<psa10 value="0.00578659067698323" flag="0"/>
			<psa30 value="0.000368663172125848" flag="0"/>
		</comp>
		<comp name="--.HNN" depth="0.0">
			<acc value="0.0126400154582384" flag="0"/>
			<vel value="0.00866951055239442" flag="0"/>
			<psa03 value="0.0336947659670466" flag="0"/>
			<psa10 value="0.00771957044615637" flag="0"/>
			<psa30 value="0.00050650558475919" flag="0"/>
		</comp>
		<comp name="--.HNZ" depth="0.0">
			<acc value="0.00833373308609989" flag="0"/>
			<vel value="0.00382498260741836" flag="0"/>
			<psa03 value="0.0157706814489975" flag="0"/>
			<psa10 value="0.00251877326261715" flag="0"/>
			<psa30 value="0.000634935446773914" flag="0"/>
		</comp>
	</station>
	<station code="GBRS" name="GBRS" netid="SL" source="Seismic Network of the Republic of Slovenia (SNRS)" insttype="" lat="45.5311" lon="14.8101" esm:processing="manual (Paolucci et al 2011)" esm:quality="best">
		<comp name="--.HNE" depth="0.0">
			<acc value="0.0520169613921348" flag="0"/>
			<vel value="0.0107292398231519" flag="0"/>
			<psa03 value="0.0349899246816346" flag="0"/>
			<psa10 value="0.00354648243705493" flag="0"/>
			<psa30 value="0.000309140947820507" flag="0"/>
		</comp>
		<comp name="--.HNN" depth="0.0">
			<acc value="0.0356463975880533" flag="0"/>
			<vel value="0.00835099111029363" flag="0"/>
			<psa03 value="0.0542995658297568" flag="0"/>
			<psa10 value="0.00630139524902839" flag="0"/>
			<psa30 value="0.000389541925032582" flag="0"/>
		</comp>
		<comp name="--.HNZ" depth="0.0">
			<acc value="0.0212809318027917" flag="0"/>
			<vel value="0.00742458626216934" flag="0"/>
			<psa03 value="0.0524573604595266" flag="0"/>
			<psa10 value="0.00583208072171674" flag="0"/>
			<psa30 value="0.000360073306214456" flag="0"/>
		</comp>
	</station>
	<station code="GCIS" name="GCIS" netid="SL" source="Seismic Network of the Republic of Slovenia (SNRS)" insttype="" lat="45.8672" lon="15.6275" esm:processing="manual (Paolucci et al 2011)" esm:quality="best">
		<comp name="--.HNE" depth="0.0">
			<acc value="0.0802756068670612" flag="0"/>
			<vel value="0.0206883091556521" flag="0"/>
			<psa03 value="0.118915346307897" flag="0"/>
			<psa10 value="0.0122968021027739" flag="0"/>
			<psa30 value="0.000799513432589797" flag="0"/>
		</comp>
		<comp name="--.HNN" depth="0.0">
			<acc value="0.0784749944398389" flag="0"/>
			<vel value="0.0229589052152556" flag="0"/>
			<psa03 value="0.104470420652642" flag="0"/>
			<psa10 value="0.0125473983910521" flag="0"/>
			<psa30 value="0.000839390188812422" flag="0"/>
		</comp>
		<comp name="--.HNZ" depth="0.0">
			<acc value="0.0529796364785065" flag="0"/>
			<vel value="0.0170497323809161" flag="0"/>
			<psa03 value="0.0551726913782596" flag="0"/>
			<psa10 value="0.00908768638963874" flag="0"/>
			<psa30 value="0.000582346285914864" flag="0"/>
		</comp>
	</station>
	<station code="GOLS" name="GOLS" netid="SL" source="Seismic Network of the Republic of Slovenia (SNRS)" insttype="" lat="46.0108" lon="15.6245" esm:processing="manual (Paolucci et al 2011)" esm:quality="good">
		<comp name="--.HNE" depth="0.0">
			<acc value="0.0789626477780723" flag="0"/>
			<vel value="0.0313930770166759" flag="0"/>
			<psa03 value="0.152400908312416" flag="0"/>
			<psa10 value="0.0228203761129059" flag="0"/>
			<psa30 value="0.00108711618277859" flag="0"/>
		</comp>
		<comp name="--.HNN" depth="0.0">
			<acc value="0.052843451685198" flag="0"/>
			<vel value="0.0198674384891588" flag="0"/>
			<psa03 value="0.111843200729824" flag="0"/>
			<psa10 value="0.0247165673512669" flag="0"/>
			<psa30 value="0.00149827164897568" flag="0"/>
		</comp>
		<comp name="--.HNZ" depth="0.0">
			<acc value="0.0310430266243544" flag="0"/>
			<vel value="0.0128350537644969" flag="0"/>
			<psa03 value="0.056381344362315" flag="0"/>
			<psa10 value="0.013117258954018" flag="0"/>
			<psa30 value="0.00048578082642973" flag="0"/>
		</comp>
	</station>
	<station code="GORS" name="GORS" netid="SL" source="Seismic Network of the Republic of Slovenia (SNRS)" insttype="" lat="46.3174" lon="13.9999" esm:processing="manual (Paolucci et al 2011)" esm:quality="best">
		<comp name="--.HNE" depth="0.0">
			<acc value="0.007108523966134" flag="0"/>
			<vel value="0.00318392045495838" flag="0"/>
			<psa03 value="0.0158387411428682" flag="0"/>
			<psa10 value="0.00306842052988108" flag="0"/>
			<psa30 value="0.000232659474415013" flag="0"/>
		</comp>
		<comp name="--.HNN" depth="0.0">
			<acc value="0.00564996078989212" flag="0"/>
			<vel value="0.00333516134434498" flag="0"/>
			<psa03 value="0.0195076020855665" flag="0"/>
			<psa10 value="0.00365633312484517" flag="0"/>
			<psa30 value="0.00029798309607769" flag="0"/>
		</comp>
		<comp name="--.HNZ" depth="0.0">
			<acc value="0.00622368348828748" flag="0"/>
			<vel value="0.00360729194326014" flag="0"/>
			<psa03 value="0.018925953399529" flag="0"/>
			<psa10 value="0.00395431622092286" flag="0"/>
			<psa30 value="0.000241160493672485" flag="0"/>
		</comp>
	</station>
	<station code="GOTE" name="GOTE" netid="SL" source="Seismic Network of the Republic of Slovenia (SNRS)" insttype="" lat="45.6095" lon="14.7464" esm:processing="manual (Paolucci et al 2011)" esm:quality="good">
		<comp name="--.HGE" depth="0.0">
			<acc value="0.0145986555176863" flag="0"/>
			<vel value="0.00559788113106817" flag="0"/>
			<psa03 value="0.0377686973033441" flag="0"/>
			<psa10 value="0.00407801405467658" flag="0"/>
			<psa30 value="0.000260568433254769" flag="0"/>
		</comp>
		<comp name="--.HGN" depth="0.0">
			<acc value="0.0187744050827862" flag="0"/>
			<vel value="0.00870066809181364" flag="0"/>
			<psa03 value="0.038443718582699" flag="0"/>
			<psa10 value="0.00638271469851335" flag="0"/>
			<psa30 value="0.000400968072583838" flag="0"/>
		</comp>
		<comp name="--.HGZ" depth="0.0">
			<acc value="0.0171661212200082" flag="0"/>
			<vel value="0.00733145495738732" flag="0"/>
			<psa03 value="0.039686308710696" flag="0"/>
			<psa10 value="0.00581708816604426" flag="0"/>
			<psa30 value="0.000306182809149941" flag="0"/>
		</comp>
	</station>
	<station code="GROS" name="GROS" netid="SL" source="Seismic Network of the Republic of Slovenia (SNRS)" insttype="" lat="46.461" lon="15.5018" esm:processing="manual (Paolucci et al 2011)" esm:quality="best">
		<comp name="--.HNE" depth="0.0">
			<acc value="0.0346461955817035" flag="0"/>
			<vel value="0.00919367310775823" flag="0"/>
			<psa03 value="0.0466142390060518" flag="0"/>
			<psa10 value="0.00515109467223154" flag="0"/>
			<psa30 value="0.000903693406919165" flag="0"/>
		</comp>
		<comp name="--.HNN" depth="0.0">
			<acc value="0.027185364900568" flag="0"/>
			<vel value="0.00583492402613945" flag="0"/>
			<psa03 value="0.0253477338504775" flag="0"/>
			<psa10 value="0.00440560856870642" flag="0"/>
			<psa30 value="0.000585587958993478" flag="0"/>
		</comp>
		<comp name="--.HNZ" depth="0.0">
			<acc value="0.0240741816958567" flag="0"/>
			<vel value="0.0090815373251794" flag="0"/>
			<psa03 value="0.0515813440942357" flag="0"/>
			<psa10 value="0.00526609885322426" flag="0"/>
			<psa30 value="0.000782353181225144" flag="0"/>
		</comp>
	</station>
	<station code="JAVS" name="JAVS" netid="SL" source="Seismic Network of the Republic of Slovenia (SNRS)" insttype="" lat="45.8934" lon="14.0643" esm:processing="manual (Paolucci et al 2011)" esm:quality="best">
		<comp name="--.HNE" depth="0.0">
			<acc value="0.0102076509090393" flag="0"/>
			<vel value="0.00457459274011167" flag="0"/>
			<psa03 value="0.0308376131530202" flag="0"/>
			<psa10 value="0.00644635172666218" flag="0"/>
			<psa30 value="0.000343869081722452" flag="0"/>
		</comp>
		<comp name="--.HNN" depth="0.0">
			<acc value="0.0128977190783183" flag="0"/>
			<vel value="0.0044656854214376" flag="0"/>
			<psa03 value="0.023551505484163" flag="0"/>
			<psa10 value="0.00456336183158363" flag="0"/>
			<psa30 value="0.000224817549309314" flag="0"/>
		</comp>
		<comp name="--.HNZ" depth="0.0">
			<acc value="0.00744776666716038" flag="0"/>
			<vel value="0.0036348733881628" flag="0"/>
			<psa03 value="0.0157283557284773" flag="0"/>
			<psa10 value="0.00462318016922914" flag="0"/>
			<psa30 value="0.000294395257449321" flag="0"/>
		</comp>
	</station>
	<station code="KNDS" name="KNDS" netid="SL" source="Seismic Network of the Republic of Slovenia (SNRS)" insttype="" lat="45.5278" lon="14.3807" esm:processing="manual (Paolucci et al 2011)" esm:quality="best">
		<comp name="--.HNE" depth="0.0">
			<acc value="0.0204590031471752" flag="0"/>
			<vel value="0.0104288384731075" flag="0"/>
			<psa03 value="0.0642004821333259" flag="0"/>
			<psa10 value="0.00821478700180486" flag="0"/>
			<psa30 value="0.000543837641159327" flag="0"/>
		</comp>
		<comp name="--.HNN" depth="0.0">
			<acc value="0.0196682203882545" flag="0"/>
			<vel value="0.0102940735443787" flag="0"/>
			<psa03 value="0.0542952686701138" flag="0"/>
			<psa10 value="0.00688710998723879" flag="0"/>
			<psa30 value="0.000460560718219846" flag="0"/>
		</comp>
		<comp name="--.HNZ" depth="0.0">
			<acc value="0.0105778335238257" flag="0"/>
			<vel value="0.00474567430223129" flag="0"/>
			<psa03 value="0.0213918168424836" flag="0"/>
			<psa10 value="0.00312626663107004" flag="0"/>
			<psa30 value="0.000457977942956148" flag="0"/>
		</comp>
	</station>
	<station code="KOGS" name="KOGS" netid="SL" source="Seismic Network of the Republic of Slovenia (SNRS)" insttype="" lat="46.4481" lon="16.2504" esm:processing="manual (Paolucci et al 2011)" esm:quality="best">
		<comp name="--.HNE" depth="0.0">
			<acc value="0.0627372604301933" flag="0"/>
			<vel value="0.0217816337223988" flag="0"/>
			<psa03 value="0.139148262582825" flag="0"/>
			<psa10 value="0.0213661933484895" flag="0"/>
			<psa30 value="0.00109126241941965" flag="0"/>
		</comp>
		<comp name="--.HNN" depth="0.0">
			<acc value="0.0642622675210342" flag="0"/>
