<?xml version="1.0" encoding="UTF-8" standalone="yes"?>
<!DOCTYPE earthquake SYSTEM "stationlist.dtd">
<stationlist created="" xmlns="ch.ethz.sed.shakemap.usgs.xml">
  <station code="BEHE" name="BEHE" netid="HU" insttype="" lat="46.4703" lon="16.7755">
    <comp name="--.HHN">
      <acc value="0.0160815575" flag="0"/>
      <vel value="0.0115376735" flag="0"/>
      <psa03 value="0.0728264456" flag="0"/>
      <psa10 value="0.0153097046" flag="0"/>
      <psa30 value="0.0009896086" flag="0"/>
    </comp>
    <comp name="--.HHE">
      <acc value="0.0195598810" flag="0"/>
      <vel value="0.0112484725" flag="0"/>
      <psa03 value="0.0681034866" flag="0"/>
      <psa10 value="0.0128887796" flag="0"/>
      <psa30 value="0.0006872963" flag="0"/>
    </comp>
    <comp name="--.HHZ">
      <acc value="0.0172734597" flag="0"/>
      <vel value="0.0087409001" flag="0"/>
      <psa03 value="0.0621739491" flag="0"/>
      <psa10 value="0.0096505526" flag="0"/>
      <psa30 value="0.0004826050" flag="0"/>
    </comp>
  </station>
  <station code="BLY" name="BLY" netid="MN" insttype="" lat="44.7488" lon="17.1839">
    <comp name="--.HHE">
      <acc value="0.0484510391" flag="0"/>
      <vel value="0.0188348754" flag="0"/>
      <psa03 value="0.1467673131" flag="0"/>
      <psa10 value="0.0148491916" flag="0"/>
      <psa30 value="0.0011645138" flag="0"/>
    </comp>
    <comp name="--.HHZ">
      <acc value="0.0321636384" flag="0"/>
      <vel value="0.0127116887" flag="0"/>
      <psa03 value="0.0715093720" flag="0"/>
      <psa10 value="0.0083659931" flag="0"/>
      <psa30 value="0.0010902598" flag="0"/>
    </comp>
    <comp name="--.HHN">
      <acc value="0.0290346236" flag="0"/>
      <vel value="0.0162008944" flag="0"/>
      <psa03 value="0.0803807856" flag="0"/>
      <psa10 value="0.0134082584" flag="0"/>
      <psa30 value="0.0008800468" flag="0"/>
    </comp>
  </station>
</stationlist>
