<?xml version="1.0" encoding="UTF-8" standalone="yes"?>
<!DOCTYPE earthquake SYSTEM "stationlist.dtd">
<stationlist created="" xmlns="ch.ethz.sed.shakemap.usgs.xml">
  <station code="RP05B" name="RP05B" netid="5B" insttype="Compact" commtype="DIG" lat="37.6182" lon="21.6541">
    <comp name="--.HHE">
      <acc value="0.6287630966" flag="0"/>
      <vel value="0.2183302079" flag="0"/>
      <psa03 value="1.6491433956" flag="0"/>
      <psa10 value="0.0756799691" flag="0"/>
      <psa30 value="0.0071851896" flag="0"/>
    </comp>
    <comp name="--.HHN">
      <acc value="0.5666679497" flag="0"/>
      <vel value="0.2241386373" flag="0"/>
      <psa03 value="1.6085142077" flag="0"/>
      <psa10 value="0.1103643799" flag="0"/>
      <psa30 value="0.0094114185" flag="0"/>
    </comp>
    <comp name="--.HHZ">
      <acc value="0.3013062263" flag="0"/>
      <vel value="0.0992184806" flag="0"/>
      <psa03 value="0.7492978155" flag="0"/>
      <psa10 value="0.0380454535" flag="0"/>
      <psa30 value="0.0026713824" flag="0"/>
    </comp>
  </station>
  <station code="RP08B" name="RP08B" netid="5B" insttype="Compact" commtype="DIG" lat="37.5664" lon="21.9493">
    <comp name="--.HHE">
      <acc value="0.0936375591" flag="0"/>
      <vel value="0.0457386875" flag="0"/>
      <psa03 value="0.2869996379" flag="0"/>
      <psa10 value="0.0136294175" flag="0"/>
      <psa30 value="0.0009890909" flag="0"/>
    </comp>
    <comp name="--.HHN">
      <acc value="0.0838808769" flag="0"/>
      <vel value="0.0257095598" flag="0"/>
      <psa03 value="0.1083319784" flag="0"/>
      <psa10 value="0.0125093756" flag="0"/>
      <psa30 value="0.0008199553" flag="0"/>
    </comp>
    <comp name="--.HHZ">
      <acc value="0.0505395949" flag="0"/>
      <vel value="0.0191318724" flag="0"/>
      <psa03 value="0.1592531688" flag="0"/>
      <psa10 value="0.0106515193" flag="0"/>
      <psa30 value="0.0005911497" flag="0"/>
    </comp>
  </station>
  <station code="MG06" name="MG06" netid="CL" insttype="TRILLIUM-40" commtype="DIG" lat="38.4129" lon="21.9462">
    <comp name="06.HHE">
      <acc value="0.0094306167" flag="0"/>
      <vel value="0.0035008203" flag="0"/>
      <psa03 value="0.0166786648" flag="0"/>
      <psa10 value="0.0037660590" flag="0"/>
      <psa30 value="0.0002955642" flag="0"/>
    </comp>
    <comp name="06.HHZ">
      <acc value="0.0053719546" flag="0"/>
      <vel value="0.0012636279" flag="0"/>
      <psa03 value="0.0068363806" flag="0"/>
      <psa10 value="0.0014743261" flag="0"/>
      <psa30 value="0.0001018052" flag="0"/>
    </comp>
    <comp name="06.HHN">
      <acc value="0.0089654602" flag="0"/>
      <vel value="0.0027203230" flag="0"/>
      <psa03 value="0.0097027429" flag="0"/>
      <psa10 value="0.0037977929" flag="0"/>
      <psa30 value="0.0005753046" flag="0"/>
    </comp>
  </station>
  <station code="ROD3" name="ROD3" netid="CL" insttype="CMG40-T" commtype="DIG" lat="38.3081" lon="21.892">
    <comp name="00.HHE">
      <acc value="0.0423476028" flag="0"/>
      <vel value="0.0128494613" flag="0"/>
      <psa03 value="0.0669972943" flag="0"/>
      <psa10 value="0.0060235362" flag="0"/>
      <psa30 value="0.0006803599" flag="0"/>
    </comp>
    <comp name="00.HHN">
      <acc value="0.0346401478" flag="0"/>
      <vel value="0.0137166189" flag="0"/>
      <psa03 value="0.0646892631" flag="0"/>
      <psa10 value="0.0082745749" flag="0"/>
      <psa30 value="0.0007577260" flag="0"/>
    </comp>
    <comp name="00.HHZ">
      <acc value="0.0200042757" flag="0"/>
      <vel value="0.0061895221" flag="0"/>
      <psa03 value="0.0216906673" flag="0"/>
      <psa10 value="0.0059066219" flag="0"/>
      <psa30 value="0.0004664767" flag="0"/>
    </comp>
  </station>
  <station code="TRIZ" name="TRIZ" netid="CL" insttype="STS-2" commtype="DIG" lat="38.3654" lon="22.0727">
    <comp name="00.HH2">
      <acc value="0.0056743754" flag="0"/>
      <vel value="0.0034840321" flag="0"/>
      <psa03 value="0.0149428336" flag="0"/>
      <psa10 value="0.0029627936" flag="0"/>
      <psa30 value="0.0002541672" flag="0"/>
    </comp>
    <comp name="00.HH3">
      <acc value="0.0066471225" flag="0"/>
      <vel value="0.0033069643" flag="0"/>
      <psa03 value="0.0168120499" flag="0"/>
      <psa10 value="0.0037439957" flag="0"/>
      <psa30 value="0.0005371054" flag="0"/>
    </comp>
    <comp name="00.HHZ">
      <acc value="0.0059318087" flag="0"/>
      <vel value="0.0023172436" flag="0"/>
      <psa03 value="0.0075677781" flag="0"/>
      <psa10 value="0.0028643618" flag="0"/>
      <psa30 value="0.0002288450" flag="0"/>
    </comp>
  </station>
  <station code="ZIRI" name="ZIRI" netid="CL" insttype="TRILLIUM-40" commtype="DIG" lat="38.3051" lon="21.9476">
    <comp name="01.HHE">
      <acc value="0.0279191992" flag="0"/>
      <vel value="0.0129780976" flag="0"/>
      <psa03 value="0.0381321568" flag="0"/>
      <psa10 value="0.0077944969" flag="0"/>
      <psa30 value="0.0009421533" flag="0"/>
    </comp>
    <comp name="01.HHN">
      <acc value="0.0283511590" flag="0"/>
      <vel value="0.0095676951" flag="0"/>
      <psa03 value="0.0419452210" flag="0"/>
      <psa10 value="0.0075442034" flag="0"/>
      <psa30 value="0.0004497759" flag="0"/>
    </comp>
    <comp name="01.HHZ">
      <acc value="0.0192533366" flag="0"/>
      <vel value="0.0060488844" flag="0"/>
      <psa03 value="0.0385838050" flag="0"/>
      <psa10 value="0.0024281194" flag="0"/>
      <psa30 value="0.0005437706" flag="0"/>
    </comp>
  </station>
  <station code="AKR1" name="AKR1" netid="HI" insttype="unknown" commtype="DIG" lat="38.1536" lon="22.3133">
    <comp name="--.HNE">
      <acc value="0.0177407078" flag="0"/>
      <vel value="0.0064497213" flag="0"/>
      <psa03 value="0.0298989905" flag="0"/>
      <psa10 value="0.0068928757" flag="0"/>
      <psa30 value="0.0004513979" flag="0"/>
    </comp>
    <comp name="--.HNZ">
      <acc value="0.0069483032" flag="0"/>
      <vel value="0.0026383056" flag="0"/>
      <psa03 value="0.0145726287" flag="0"/>
      <psa10 value="0.0029801005" flag="0"/>
      <psa30 value="0.0003321997" flag="0"/>
    </comp>
    <comp name="--.HNN">
      <acc value="0.0142111040" flag="0"/>
      <vel value="0.0043034702" flag="0"/>
      <psa03 value="0.0275116776" flag="0"/>
      <psa10 value="0.0051532394" flag="0"/>
      <psa30 value="0.0003742857" flag="0"/>
    </comp>
  </station>
  <station code="KLV1" name="KLV1" netid="HI" insttype="CMG-5TD,ACCELEROMETER,GURALP" commtype="DIG" lat="38.0326" lon="22.108">
    <comp name="--.HNE">
      <acc value="0.0186684241" flag="0"/>
      <vel value="0.0078754070" flag="0"/>
      <psa03 value="0.0568439418" flag="0"/>
      <psa10 value="0.0051458604" flag="0"/>
      <psa30 value="0.0003356911" flag="0"/>
    </comp>
    <comp name="--.HNN">
      <acc value="0.0193397574" flag="0"/>
      <vel value="0.0070861953" flag="0"/>
      <psa03 value="0.0394208036" flag="0"/>
      <psa10 value="0.0050554880" flag="0"/>
      <psa30 value="0.0004057801" flag="0"/>
    </comp>
    <comp name="--.HNZ">
      <acc value="0.0122969158" flag="0"/>
      <vel value="0.0031045091" flag="0"/>
      <psa03 value="0.0140740352" flag="0"/>
      <psa10 value="0.0037558215" flag="0"/>
      <psa30 value="0.0003617506" flag="0"/>
    </comp>
  </station>
  <station code="KRI1" name="KRI1" netid="HI" insttype="CMG-5TD,ACCELEROMETER,GURALP" commtype="DIG" lat="37.6621" lon="20.8172">
    <comp name="--.HNN">
      <acc value="0.0756141217" flag="0"/>
      <vel value="0.0213014855" flag="0"/>
      <psa03 value="0.1710719586" flag="0"/>
      <psa10 value="0.0145882534" flag="0"/>
      <psa30 value="0.0007268189" flag="0"/>
    </comp>
    <comp name="--.HNZ">
      <acc value="0.0750224321" flag="0"/>
      <vel value="0.0180921790" flag="0"/>
      <psa03 value="0.1037873779" flag="0"/>
      <psa10 value="0.0047455721" flag="0"/>
      <psa30 value="0.0004043017" flag="0"/>
    </comp>
    <comp name="--.HNE">
      <acc value="0.0933055246" flag="0"/>
      <vel value="0.0263342701" flag="0"/>
      <psa03 value="0.1489422911" flag="0"/>
      <psa10 value="0.0109127151" flag="0"/>
      <psa30 value="0.0007827889" flag="0"/>
    </comp>
  </station>
  <station code="PYR2" name="PYR2" netid="HI" insttype="unknown" commtype="DIG" lat="37.6671" lon="21.4506">
    <comp name="--.HNN">
      <acc value="0.4407680062" flag="0"/>
      <vel value="0.1625230248" flag="0"/>
      <psa03 value="0.6142222544" flag="0"/>
      <psa10 value="0.0976983516" flag="0"/>
      <psa30 value="0.0084747545" flag="0"/>
    </comp>
    <comp name="--.HNE">
      <acc value="0.3920198931" flag="0"/>
      <vel value="0.1150265028" flag="0"/>
      <psa03 value="0.4720495553" flag="0"/>
      <psa10 value="0.0513031066" flag="0"/>
      <psa30 value="0.0045159738" flag="0"/>
    </comp>
    <comp name="--.HNZ">
      <acc value="0.5169430988" flag="0"/>
      <vel value="0.0580254046" flag="0"/>
      <psa03 value="0.1961129001" flag="0"/>
      <psa10 value="0.0367828814" flag="0"/>
      <psa30 value="0.0026046697" flag="0"/>
    </comp>
  </station>
  <station code="ZAK2" name="ZAK2" netid="HI" insttype="unknown" commtype="DIG" lat="37.7875" lon="20.9">
    <comp name="--.HNN">
      <acc value="0.0600712799" flag="0"/>
      <vel value="0.0306705820" flag="0"/>
      <psa03 value="0.1591984384" flag="0"/>
      <psa10 value="0.0286581833" flag="0"/>
      <psa30 value="0.0014648963" flag="0"/>
    </comp>
    <comp name="--.HNE">
      <acc value="0.0454747940" flag="0"/>
      <vel value="0.0221046640" flag="0"/>
      <psa03 value="0.0808283279" flag="0"/>
      <psa10 value="0.0385751410" flag="0"/>
      <psa30 value="0.0015472746" flag="0"/>
    </comp>
    <comp name="--.HNZ">
      <acc value="0.0404882984" flag="0"/>
      <vel value="0.0102901467" flag="0"/>
      <psa03 value="0.0514920849" flag="0"/>
      <psa10 value="0.0095296499" flag="0"/>
      <psa30 value="0.0006633210" flag="0"/>
    </comp>
  </station>
  <station code="KLV" name="KLV" netid="HL" insttype="120" commtype="DIG" lat="38.0435" lon="22.1504">
    <comp name="--.HHN">
      <acc value="0.0085148302" flag="0"/>
      <vel value="0.0026503428" flag="0"/>
      <psa03 value="0.0090316064" flag="0"/>
      <psa10 value="0.0037640074" flag="0"/>
      <psa30 value="0.0002555824" flag="0"/>
    </comp>
    <comp name="--.HHE">
      <acc value="0.0097636636" flag="0"/>
      <vel value="0.0027957435" flag="0"/>
      <psa03 value="0.0095241354" flag="0"/>
      <psa10 value="0.0022958121" flag="0"/>
      <psa30 value="0.0002302829" flag="0"/>
    </comp>
    <comp name="--.HHZ">
      <acc value="0.0107330078" flag="0"/>
      <vel value="0.0034211230" flag="0"/>
      <psa03 value="0.0107012204" flag="0"/>
      <psa10 value="0.0028650955" flag="0"/>
      <psa30 value="0.0002344901" flag="0"/>
    </comp>
  </station>
  <station code="KRYO" name="KRYO" netid="HL" insttype="4g" commtype="DIG" lat="37.9712" lon="22.618">
    <comp name="--.HNN">
      <acc value="0.0065045750" flag="0"/>
      <vel value="0.0052457671" flag="0"/>
      <psa03 value="0.0234186762" flag="0"/>
      <psa10 value="0.0074983486" flag="0"/>
      <psa30 value="0.0004589345" flag="0"/>
    </comp>
    <comp name="--.HNE">
      <acc value="0.0069175831" flag="0"/>
      <vel value="0.0045384362" flag="0"/>
      <psa03 value="0.0145659525" flag="0"/>
      <psa10 value="0.0103080878" flag="0"/>
      <psa30 value="0.0005545190" flag="0"/>
    </comp>
    <comp name="--.HNZ">
      <acc value="0.0060689865" flag="0"/>
      <vel value="0.0039411215" flag="0"/>
      <psa03 value="0.0187962404" flag="0"/>
      <psa10 value="0.0081198481" flag="0"/>
      <psa30 value="0.0003785212" flag="0"/>
    </comp>
  </station>
  <station code="PATC" name="PATC" netid="HL" insttype="CMG-5" commtype="DIG" lat="38.2693" lon="21.76">
    <comp name="00.HNN">
      <acc value="0.0230890437" flag="0"/>
      <vel value="0.0111289122" flag="0"/>
      <psa03 value="0.0485001703" flag="0"/>
      <psa10 value="0.0113546419" flag="0"/>
      <psa30 value="0.0013835547" flag="0"/>
    </comp>
    <comp name="00.HNZ">
      <acc value="0.0240104649" flag="0"/>
      <vel value="0.0076324264" flag="0"/>
      <psa03 value="0.0244536303" flag="0"/>
      <psa10 value="0.0072148858" flag="0"/>
      <psa30 value="0.0005965095" flag="0"/>
    </comp>
    <comp name="00.HNE">
      <acc value="0.0248236236" flag="0"/>
      <vel value="0.0141610797" flag="0"/>
      <psa03 value="0.0471988292" flag="0"/>
      <psa10 value="0.0177575021" flag="0"/>
      <psa30 value="0.0021354158" flag="0"/>
    </comp>
  </station>
  <station code="RLS" name="RLS" netid="HL" insttype="CMG3ESPC-120s" commtype="DIG" lat="38.0559" lon="21.4647">
    <comp name="--.HHZ">
      <acc value="0.0340784644" flag="0"/>
      <vel value="0.0106780743" flag="0"/>
      <psa03 value="0.0860376298" flag="0"/>
      <psa10 value="0.0073046526" flag="0"/>
      <psa30 value="0.0007180639" flag="0"/>
    </comp>
    <comp name="--.HHE">
      <acc value="0.0638503541" flag="0"/>
      <vel value="0.0160771764" flag="0"/>
      <psa03 value="0.0542615762" flag="0"/>
      <psa10 value="0.0187963589" flag="0"/>
      <psa30 value="0.0011627173" flag="0"/>
    </comp>
    <comp name="--.HHN">
      <acc value="0.0774707239" flag="0"/>
      <vel value="0.0174821222" flag="0"/>
      <psa03 value="0.1299599576" flag="0"/>
      <psa10 value="0.0082927218" flag="0"/>
      <psa30 value="0.0004274901" flag="0"/>
    </comp>
  </station>
  <station code="ZARA" name="ZARA" netid="HL" insttype="CMG-5" commtype="DIG" lat="37.4865" lon="21.6491">
    <comp name="00.HNN">
      <acc value="0.1462986531" flag="0"/>
      <vel value="0.0486142081" flag="0"/>
      <psa03 value="0.4551015083" flag="0"/>
      <psa10 value="0.0266608048" flag="0"/>
      <psa30 value="0.0019131848" flag="0"/>
    </comp>
    <comp name="00.HNZ">
      <acc value="0.0774602039" flag="0"/>
      <vel value="0.0264975049" flag="0"/>
      <psa03 value="0.1172058597" flag="0"/>
      <psa10 value="0.0223921679" flag="0"/>
      <psa30 value="0.0011076093" flag="0"/>
    </comp>
    <comp name="00.HNE">
      <acc value="0.2092506822" flag="0"/>
      <vel value="0.0891120872" flag="0"/>
      <psa03 value="0.3714023258" flag="0"/>
      <psa10 value="0.0288738345" flag="0"/>
      <psa30 value="0.0036504515" flag="0"/>
    </comp>
  </station>
  <station code="AMT" name="AMT" netid="HP" insttype="CMG-3T," commtype="DIG" lat="37.5324" lon="21.7089">
    <comp name="00.HHN">
      <acc value="0.2000637540" flag="0"/>
      <vel value="0.0546123978" flag="0"/>
      <psa03 value="0.1976152267" flag="0"/>
      <psa10 value="0.0283899002" flag="0"/>
      <psa30 value="0.0022394386" flag="0"/>
    </comp>
    <comp name="00.HHE">
      <acc value="0.1580373110" flag="0"/>
      <vel value="0.0486540546" flag="0"/>
      <psa03 value="0.2084337739" flag="0"/>
      <psa10 value="0.0376034303" flag="0"/>
      <psa30 value="0.0025886670" flag="0"/>
    </comp>
    <comp name="00.HHZ">
      <acc value="0.1252386969" flag="0"/>
      <vel value="0.0316503139" flag="0"/>
      <psa03 value="0.0921312907" flag="0"/>
      <psa10 value="0.0204206258" flag="0"/>
      <psa30 value="0.0009386725" flag="0"/>
    </comp>
  </station>
  <station code="AXS" name="AXS" netid="HP" insttype="Compact," commtype="DIG" lat="38.1962" lon="21.3763">
    <comp name="--.HHE">
      <acc value="0.0121938097" flag="0"/>
      <vel value="0.0047852014" flag="0"/>
      <psa03 value="0.0265554165" flag="0"/>
      <psa10 value="0.0026173188" flag="0"/>
      <psa30 value="0.0002406293" flag="0"/>
    </comp>
    <comp name="--.HHN">
      <acc value="0.0114714660" flag="0"/>
      <vel value="0.0040439879" flag="0"/>
      <psa03 value="0.0183409194" flag="0"/>
      <psa10 value="0.0038822657" flag="0"/>
      <psa30 value="0.0002892966" flag="0"/>
    </comp>
    <comp name="--.HHZ">
      <acc value="0.0065954221" flag="0"/>
      <vel value="0.0035683295" flag="0"/>
      <psa03 value="0.0111683948" flag="0"/>
      <psa10 value="0.0021979532" flag="0"/>
      <psa30 value="0.0001842045" flag="0"/>
    </comp>
  </station>
  <station code="DRO" name="DRO" netid="HP" insttype="120P," commtype="DIG" lat="37.952" lon="21.71">
    <comp name="--.HHN">
      <acc value="0.2907695645" flag="0"/>
      <vel value="0.1209731607" flag="0"/>
      <psa03 value="0.4372219610" flag="0"/>
      <psa10 value="0.0391697638" flag="0"/>
      <psa30 value="0.0040641354" flag="0"/>
    </comp>
    <comp name="--.HHE">
      <acc value="0.2024955894" flag="0"/>
      <vel value="0.0668922969" flag="0"/>
      <psa03 value="0.2067411549" flag="0"/>
      <psa10 value="0.0281333366" flag="0"/>
      <psa30 value="0.0014776162" flag="0"/>
    </comp>
    <comp name="--.HHZ">
      <acc value="0.1122004185" flag="0"/>
      <vel value="0.0392951082" flag="0"/>
      <psa03 value="0.1409425291" flag="0"/>
      <psa10 value="0.0126342703" flag="0"/>
      <psa30 value="0.0006958605" flag="0"/>
    </comp>
  </station>
  <station code="GUR" name="GUR" netid="HP" insttype="40," commtype="DIG" lat="37.9363" lon="22.3423">
    <comp name="--.HHZ">
      <acc value="0.0078481583" flag="0"/>
      <vel value="0.0027262566" flag="0"/>
      <psa03 value="0.0115972152" flag="0"/>
      <psa10 value="0.0048565139" flag="0"/>
      <psa30 value="0.0001807893" flag="0"/>
    </comp>
    <comp name="--.HHN">
      <acc value="0.0137312283" flag="0"/>
      <vel value="0.0063284954" flag="0"/>
      <psa03 value="0.0331353298" flag="0"/>
      <psa10 value="0.0040108451" flag="0"/>
      <psa30 value="0.0002348412" flag="0"/>
    </comp>
    <comp name="--.HHE">
      <acc value="0.0170525686" flag="0"/>
      <vel value="0.0043286301" flag="0"/>
      <psa03 value="0.0253833331" flag="0"/>
      <psa10 value="0.0045089368" flag="0"/>
      <psa30 value="0.0002438884" flag="0"/>
    </comp>
  </station>
  <station code="LTHK" name="LTHK" netid="HP" insttype="40," commtype="DIG" lat="37.7095" lon="20.8367">
    <comp name="--.HHE">
      <acc value="0.1472250285" flag="0"/>
      <vel value="0.0304276977" flag="0"/>
      <psa03 value="0.1326133437" flag="0"/>
      <psa10 value="0.0141589504" flag="0"/>
      <psa30 value="0.0005673538" flag="0"/>
    </comp>
    <comp name="--.HHZ">
      <acc value="0.1973099444" flag="0"/>
      <vel value="0.0203948175" flag="0"/>
      <psa03 value="0.0624143187" flag="0"/>
      <psa10 value="0.0089882609" flag="0"/>
      <psa30 value="0.0003988811" flag="0"/>
    </comp>
    <comp name="--.HHN">
      <acc value="0.1164386739" flag="0"/>
      <vel value="0.0317092215" flag="0"/>
      <psa03 value="0.1355327558" flag="0"/>
      <psa10 value="0.0086763820" flag="0"/>
      <psa30 value="0.0008794940" flag="0"/>
    </comp>
  </station>
  <station code="PDO" name="PDO" netid="HP" insttype="120s" commtype="DIG" lat="38.5986" lon="21.1833">
    <comp name="--.HHN">
      <acc value="0.0209723522" flag="0"/>
      <vel value="0.0086677141" flag="0"/>
      <psa03 value="0.0648136116" flag="0"/>
      <psa10 value="0.0077555752" flag="0"/>
      <psa30 value="0.0003882589" flag="0"/>
    </comp>
    <comp name="--.HHE">
      <acc value="0.0200559399" flag="0"/>
      <vel value="0.0070425180" flag="0"/>
      <psa03 value="0.0442638724" flag="0"/>
      <psa10 value="0.0064516107" flag="0"/>
      <psa30 value="0.0003300573" flag="0"/>
    </comp>
    <comp name="--.HHZ">
      <acc value="0.0113372618" flag="0"/>
      <vel value="0.0036904612" flag="0"/>
      <psa03 value="0.0229635798" flag="0"/>
      <psa10 value="0.0022790027" flag="0"/>
      <psa30 value="0.0001176476" flag="0"/>
    </comp>
  </station>
  <station code="PVO" name="PVO" netid="HP" insttype="DC" commtype="DIG" lat="38.616" lon="21.525">
