<stationlist created="1778136117">
	<station code="KRL1" name="KRL1" netid="HI" source="ITSAK Strong Motion Network" insttype="" lat="37.7951" lon="26.7065">
		<comp name="--.HNE" depth="0.0">
			<acc value="0.0321887317222416" flag="0"/>
			<vel value="0.0178119655847232" flag="0"/>
			<psa03 value="0.0978064636675421" flag="0"/>
			<psa10 value="0.0173071803640799" flag="0"/>
			<psa30 value="0.00300757112888023" flag="0"/>
		</comp>
		<comp name="--.HNN" depth="0.0">
			<acc value="0.017188313619227" flag="0"/>
			<vel value="0.0143278184872016" flag="0"/>
			<psa03 value="0.0508271467183567" flag="0"/>
			<psa10 value="0.017895092959044" flag="0"/>
			<psa30 value="0.00344112311101128" flag="0"/>
		</comp>
		<comp name="--.HNZ" depth="0.0">
			<acc value="0.0141230415261274" flag="0"/>
			<vel value="0.0106582190603777" flag="0"/>
			<psa03 value="0.0369123204600742" flag="0"/>
			<psa10 value="0.012809246332745" flag="0"/>
			<psa30 value="0.00183174593895205" flag="0"/>
		</comp>
	</station>
	<station code="LMN1" name="LMN1" netid="HI" source="ITSAK Strong Motion Network" insttype="" lat="39.875" lon="25.0588">
		<comp name="--.HNE" depth="0.0">
			<acc value="0.0930469757329499" flag="0"/>
			<vel value="0.0449880310761239" flag="0"/>
			<psa03 value="0.279459822537725" flag="0"/>
			<psa10 value="0.0381498898951356" flag="0"/>
			<psa30 value="0.00429390956915554" flag="0"/>
		</comp>
		<comp name="--.HNN" depth="0.0">
			<acc value="0.0788388400003919" flag="0"/>
			<vel value="0.0412360401130744" flag="0"/>
			<psa03 value="0.279459822537725" flag="0"/>
			<psa10 value="0.0208950579127991" flag="0"/>
			<psa30 value="0.00422903336955905" flag="0"/>
		</comp>
		<comp name="--.HNZ" depth="0.0">
			<acc value="0.0509379985710062" flag="0"/>
			<vel value="0.0202193867695839" flag="0"/>
			<psa03 value="0.0533327102889799" flag="0"/>
			<psa10 value="0.0196266163551711" flag="0"/>
			<psa30 value="0.00243934510482818" flag="0"/>
		</comp>
	</station>
	<station code="MYT1" name="MYT1" netid="HI" source="ITSAK Strong Motion Network" insttype="" lat="39.085" lon="26.5694">
		<comp name="--.HNE" depth="0.0">
			<acc value="0.192626508638919" flag="0"/>
			<vel value="0.0926952530479565" flag="0"/>
			<psa03 value="0.278967658264924" flag="0"/>
			<psa10 value="0.114034909430055" flag="0"/>
			<psa30 value="0.00972606087467991" flag="0"/>
		</comp>
		<comp name="--.HNN" depth="0.0">
			<acc value="0.267581476609048" flag="0"/>
			<vel value="0.134813454188133" flag="0"/>
			<psa03 value="0.507734560704148" flag="0"/>
			<psa10 value="0.178121409079737" flag="0"/>
			<psa30 value="0.0142052031792351" flag="0"/>
		</comp>
		<comp name="--.HNZ" depth="0.0">
			<acc value="0.14932974642571" flag="0"/>
			<vel value="0.0809196811767947" flag="0"/>
			<psa03 value="0.246261105226968" flag="0"/>
			<psa10 value="0.0680166550790305" flag="0"/>
			<psa30 value="0.00539233074163411" flag="0"/>
		</comp>
	</station>
	<station code="SKO1" name="SKO1" netid="HI" source="ITSAK Strong Motion Network" insttype="" lat="39.123383" lon="23.728705">
		<comp name="--.HNE" depth="0.0">
			<acc value="0.00333861628544139" flag="0"/>
			<vel value="0.00263159347619253" flag="0"/>
			<psa03 value="0.0174942027877443" flag="0"/>
			<psa10 value="0.00530329375046375" flag="0"/>
			<psa30 value="0.000343620146828327" flag="0"/>
		</comp>
		<comp name="--.HNN" depth="0.0">
			<acc value="0.00364456788249877" flag="0"/>
			<vel value="0.00314392780279773" flag="0"/>
			<psa03 value="0.00671133099274076" flag="0"/>
			<psa10 value="0.00537174932658971" flag="0"/>
			<psa30 value="0.000676502164068269" flag="0"/>
		</comp>
		<comp name="--.HNZ" depth="0.0">
			<acc value="0.00201529268492541" flag="0"/>
			<vel value="0.00213310383847289" flag="0"/>
			<psa03 value="0.00787462836481583" flag="0"/>
			<psa10 value="0.00333418923719361" flag="0"/>
			<psa30 value="0.000422813852542668" flag="0"/>
		</comp>
	</station>
	<station code="SKY1" name="SKY1" netid="HI" source="ITSAK Strong Motion Network" insttype="" lat="38.904483" lon="24.564572">
		<comp name="--.HNE" depth="0.0">
			<acc value="0.0168160721249808" flag="0"/>
			<vel value="0.0105299554787433" flag="0"/>
			<psa03 value="0.0645182619435479" flag="0"/>
			<psa10 value="0.0161071943825778" flag="0"/>
			<psa30 value="0.00131855282904047" flag="0"/>
		</comp>
		<comp name="--.HNN" depth="0.0">
			<acc value="0.0204433539317035" flag="0"/>
			<vel value="0.0127687256759416" flag="0"/>
			<psa03 value="0.0737798987135301" flag="0"/>
			<psa10 value="0.0201742609641787" flag="0"/>
			<psa30 value="0.00100893675924203" flag="0"/>
		</comp>
		<comp name="--.HNZ" depth="0.0">
			<acc value="0.0103273037185314" flag="0"/>
			<vel value="0.00614080099337303" flag="0"/>
			<psa03 value="0.0293956297482045" flag="0"/>
			<psa10 value="0.00821466913511469" flag="0"/>
			<psa30 value="0.000982538857337247" flag="0"/>
		</comp>
	</station>
	<station code="EFSA" name="EFSA" netid="HL" source="National Observatory of Athens Seismic Network" insttype="" lat="39.54015" lon="24.98864">
		<comp name="00.HNE" depth="0.0">
			<acc value="0.0417230599976334" flag="0"/>
			<vel value="0.0389890094851507" flag="0"/>
			<psa03 value="0.10796294456989" flag="0"/>
			<psa10 value="0.0434129156596429" flag="0"/>
			<psa30 value="0.00583393632095645" flag="0"/>
		</comp>
		<comp name="00.HNN" depth="0.0">
			<acc value="0.0407628443597505" flag="0"/>
			<vel value="0.0274455491257472" flag="0"/>
			<psa03 value="0.154315870626419" flag="0"/>
			<psa10 value="0.0393981974597854" flag="0"/>
			<psa30 value="0.00323396669436868" flag="0"/>
		</comp>
		<comp name="00.HNZ" depth="0.0">
			<acc value="0.0206169402765476" flag="0"/>
			<vel value="0.0159237872877321" flag="0"/>
			<psa03 value="0.0589702283228822" flag="0"/>
			<psa10 value="0.0215957208684412" flag="0"/>
			<psa30 value="0.0016232472561109" flag="0"/>
		</comp>
	</station>
	<station code="KYMI" name="KYMI" netid="HL" source="National Observatory of Athens Seismic Network" insttype="" lat="38.633147" lon="24.100138">
		<comp name="--.HNE" depth="1.0">
			<acc value="0.00338869484151049" flag="0"/>
			<vel value="0.00426435532241404" flag="0"/>
			<psa03 value="0.0122593646134065" flag="0"/>
			<psa10 value="0.00548449968726775" flag="0"/>
			<psa30 value="0.00173778730505367" flag="0"/>
		</comp>
		<comp name="--.HNN" depth="1.0">
			<acc value="0.00343877361722386" flag="0"/>
			<vel value="0.00453277312226481" flag="0"/>
			<psa03 value="0.00984328545601979" flag="0"/>
			<psa10 value="0.00386169985322303" flag="0"/>
			<psa30 value="0.00179371506332651" flag="0"/>
		</comp>
		<comp name="--.HNZ" depth="1.0">
			<acc value="0.00280796888249415" flag="0"/>
			<vel value="0.00266014511630748" flag="0"/>
			<psa03 value="0.00715875305892348" flag="0"/>
			<psa10 value="0.00344693959787166" flag="0"/>
			<psa30 value="0.000744062896061859" flag="0"/>
		</comp>
	</station>
	<station code="LIA" name="LIA" netid="HL" source="National Observatory of Athens Seismic Network" insttype="" lat="39.89725" lon="25.18055">
		<comp name="00.HNE" depth="0.0">
			<acc value="0.0538988582168558" flag="0"/>
			<vel value="0.0389946312312482" flag="0"/>
			<psa03 value="0.121698802001699" flag="0"/>
			<psa10 value="0.059584538819751" flag="0"/>
			<psa30 value="0.00288810943720944" flag="0"/>
		</comp>
		<comp name="00.HNN" depth="0.0">
			<acc value="0.0569534685777592" flag="0"/>
			<vel value="0.0463228824858859" flag="0"/>
			<psa03 value="0.178208208960576" flag="0"/>
			<psa10 value="0.0325808274373593" flag="0"/>
			<psa30 value="0.00675562577729285" flag="0"/>
		</comp>
		<comp name="00.HNZ" depth="0.0">
			<acc value="0.0258375751344174" flag="0"/>
			<vel value="0.0256878558077952" flag="0"/>
			<psa03 value="0.0477846766683142" flag="0"/>
			<psa10 value="0.036933796719251" flag="0"/>
			<psa30 value="0.00237178437283459" flag="0"/>
		</comp>
	</station>
	<station code="PRK" name="PRK" netid="HL" source="National Observatory of Athens Seismic Network" insttype="" lat="39.24565" lon="26.26499">
		<comp name="--.HNE" depth="0.0">
			<acc value="0.248153311594217" flag="0"/>
			<vel value="0.153240120717377" flag="0"/>
			<psa03 value="1.06938348038331" flag="0"/>
			<psa10 value="0.227961095298028" flag="0"/>
			<psa30 value="0.0121734595766994" flag="0"/>
		</comp>
		<comp name="--.HNN" depth="0.0">
			<acc value="0.608794889126678" flag="0"/>
			<vel value="0.3470640549711" flag="0"/>
			<psa03 value="1.94091692310063" flag="0"/>
			<psa10 value="0.309950741503945" flag="0"/>
			<psa30 value="0.0178042662796089" flag="0"/>
		</comp>
		<comp name="--.HNZ" depth="0.0">
			<acc value="0.376286685320911" flag="0"/>
			<vel value="0.170907421392238" flag="0"/>
			<psa03 value="0.822674953090163" flag="0"/>
			<psa10 value="0.184781733956933" flag="0"/>
			<psa30 value="0.0101797468497892" flag="0"/>
		</comp>
	</station>
	<station code="SMG" name="SMG" netid="HL" source="National Observatory of Athens Seismic Network" insttype="" lat="37.70425" lon="26.83772">
		<comp name="00.HNE" depth="0.0">
			<acc value="0.0291935500388572" flag="0"/>
			<vel value="0.0197293819984884" flag="0"/>
			<psa03 value="0.136240019152638" flag="0"/>
			<psa10 value="0.0205084852476172" flag="0"/>
			<psa30 value="0.00159416482180902" flag="0"/>
		</comp>
		<comp name="00.HNN" depth="0.0">
			<acc value="0.0305100133439886" flag="0"/>
			<vel value="0.0153449213559317" flag="0"/>
			<psa03 value="0.0868893652526838" flag="0"/>
			<psa10 value="0.0178789857646614" flag="0"/>
			<psa30 value="0.00138835067136497" flag="0"/>
		</comp>
		<comp name="00.HNZ" depth="0.0">
			<acc value="0.0137584745223111" flag="0"/>
			<vel value="0.00817254564479854" flag="0"/>
			<psa03 value="0.0356147964681443" flag="0"/>
			<psa10 value="0.0098817637537115" flag="0"/>
			<psa30 value="0.001268441557628" flag="0"/>
		</comp>
	</station>
	<station code="TNSA" name="TNSA" netid="HL" source="National Observatory of Athens Seismic Network" insttype="" lat="37.53942" lon="25.1631">
		<comp name="00.HNE" depth="0.0">
			<acc value="0.00993322079264638" flag="0"/>
			<vel value="0.00566877875373446" flag="0"/>
			<psa03 value="0.0344514990960693" flag="0"/>
			<psa10 value="0.00818245474634954" flag="0"/>
			<psa30 value="0.00109797375041239" flag="0"/>
		</comp>
		<comp name="00.HNN" depth="0.0">
			<acc value="0.0185847781640833" flag="0"/>
			<vel value="0.00975329799218286" flag="0"/>
			<psa03 value="0.0616547607199785" flag="0"/>
			<psa10 value="0.0104414887585061" flag="0"/>
			<psa30 value="0.00147604539633678" flag="0"/>
		</comp>
		<comp name="00.HNZ" depth="0.0">
			<acc value="0.0116751542921827" flag="0"/>
			<vel value="0.00566041764785741" flag="0"/>
			<psa03 value="0.0284560434092208" flag="0"/>
			<psa10 value="0.0108683294096444" flag="0"/>
			<psa30 value="0.00143264545591706" flag="0"/>
		</comp>
	</station>
	<station code="BIGA" name="BIGA" netid="KO" source="Bogazici University Kandilli Observatory And Earthquake Research Institute (KOERI)" insttype="" lat="40.28134" lon="27.15048">
		<comp name="--.HNE" depth="0.0">
			<acc value="0.18852067316769" flag="0"/>
			<vel value="0.12325461321953" flag="0"/>
			<psa03 value="0.432478169172215" flag="0"/>
			<psa10 value="0.0881224604670833" flag="0"/>
			<psa30 value="0.0138056552741339" flag="0"/>
		</comp>
		<comp name="--.HNN" depth="0.0">
			<acc value="0.192263084577921" flag="0"/>
			<vel value="0.122928299730301" flag="0"/>
			<psa03 value="0.536503799559697" flag="0"/>
			<psa10 value="0.164088015973916" flag="0"/>
			<psa30 value="0.0106974141803626" flag="0"/>
		</comp>
		<comp name="--.HNZ" depth="0.0">
			<acc value="0.109585413267859" flag="0"/>
			<vel value="0.0526451693646403" flag="0"/>
			<psa03 value="0.207872291948491" flag="0"/>
			<psa10 value="0.0584892496017357" flag="0"/>
			<psa30 value="0.0072513694266233" flag="0"/>
		</comp>
	</station>
	<station code="ENZZ" name="ENZZ" netid="KO" source="Bogazici University Kandilli Observatory And Earthquake Research Institute (KOERI)" insttype="" lat="40.607" lon="26.1406">
		<comp name="--.HNE" depth="0.0">
			<acc value="0.382640113463654" flag="0"/>
			<vel value="0.224242660964112" flag="0"/>
			<psa03 value="0.882271572305701" flag="0"/>
			<psa10 value="0.307333322416776" flag="0"/>
			<psa30 value="0.0271907338060561" flag="0"/>
		</comp>
		<comp name="--.HNN" depth="0.0">
			<acc value="0.434485489961681" flag="0"/>
			<vel value="0.289387539701967" flag="0"/>
			<psa03 value="0.672654334299098" flag="0"/>
			<psa10 value="0.318487554526711" flag="0"/>
			<psa30 value="0.0287007832794228" flag="0"/>
		</comp>
		<comp name="--.HNZ" depth="0.0">
			<acc value="0.151649368872644" flag="0"/>
			<vel value="0.0812663467343964" flag="0"/>
			<psa03 value="0.355253120549078" flag="0"/>
			<psa10 value="0.0948351337260226" flag="0"/>
			<psa30 value="0.0248753246135605" flag="0"/>
		</comp>
	</station>
	<station code="EZNE" name="EZNE" netid="KO" source="Bogazici University Kandilli Observatory And Earthquake Research Institute (KOERI)" insttype="" lat="39.756" lon="26.3655">
		<comp name="--.HNE" depth="0.0">
			<acc value="0.800635038496929" flag="0"/>
			<vel value="0.491592806783335" flag="0"/>
			<psa03 value="2.41334988278296" flag="0"/>
			<psa10 value="0.390869259283421" flag="0"/>
			<psa30 value="0.0178311116035798" flag="0"/>
		</comp>
		<comp name="--.HNN" depth="0.0">
			<acc value="1.34427344901603" flag="0"/>
			<vel value="0.568422376692923" flag="0"/>
			<psa03 value="4.04903547233374" flag="0"/>
			<psa10 value="0.460460392613348" flag="0"/>
			<psa30 value="0.038848763162513" flag="0"/>
		</comp>
		<comp name="--.HNZ" depth="0.0">
			<acc value="0.493115534830254" flag="0"/>
			<vel value="0.240455648079326" flag="0"/>
			<psa03 value="1.63121136888895" flag="0"/>
			<psa10 value="0.229128866890765" flag="0"/>
			<psa30 value="0.0214279375936227" flag="0"/>
		</comp>
	</station>
	<station code="FOCM" name="FOCM" netid="KO" source="Bogazici University Kandilli Observatory And Earthquake Research Institute (KOERI)" insttype="" lat="38.7131" lon="26.7309">
		<comp name="--.HNE" depth="0.0">
			<acc value="0.0891683352871575" flag="0"/>
			<vel value="0.0331924982102193" flag="0"/>
			<psa03 value="0.17579212980319" flag="0"/>
			<psa10 value="0.0401431551999796" flag="0"/>
			<psa30 value="0.00245097807854893" flag="0"/>
		</comp>
		<comp name="--.HNN" depth="0.0">
			<acc value="0.0770682517710167" flag="0"/>
			<vel value="0.0354680466174371" flag="0"/>
			<psa03 value="0.180087381638544" flag="0"/>
			<psa10 value="0.040183423185936" flag="0"/>
			<psa30 value="0.00430822707527339" flag="0"/>
		</comp>
		<comp name="--.HNZ" depth="0.0">
			<acc value="0.0673537270869998" flag="0"/>
			<vel value="0.0256313626113922" flag="0"/>
			<psa03 value="0.141430115120357" flag="0"/>
			<psa10 value="0.00996632652422003" flag="0"/>
			<psa30 value="0.00220981758487644" flag="0"/>
		</comp>
	</station>
	<station code="GOMA" name="GOMA" netid="KO" source="Bogazici University Kandilli Observatory And Earthquake Research Institute (KOERI)" insttype="" lat="38.7077" lon="27.9175">
		<comp name="--.HNE" depth="0.0">
			<acc value="0.00960606299840092" flag="0"/>
			<vel value="0.00660672781928633" flag="0"/>
			<psa03 value="0.0291271765084949" flag="0"/>
			<psa10 value="0.0139448035367168" flag="0"/>
			<psa30 value="0.00125994053837053" flag="0"/>
		</comp>
		<comp name="--.HNN" depth="0.0">
			<acc value="0.0111720126919682" flag="0"/>
			<vel value="0.0073928607993137" flag="0"/>
			<psa03 value="0.0451896286844545" flag="0"/>
			<psa10 value="0.0104294083627191" flag="0"/>
			<psa30 value="0.00119327465050931" flag="0"/>
		</comp>
		<comp name="--.HNZ" depth="0.0">
			<acc value="0.00617454367631488" flag="0"/>
			<vel value="0.0042030190365279" flag="0"/>
			<psa03 value="0.0146307015641749" flag="0"/>
			<psa10 value="0.0104978639388451" flag="0"/>
			<psa30 value="0.00137582285351186" flag="0"/>
		</comp>
	</station>
	<station code="GONE" name="GONE" netid="KO" source="Bogazici University Kandilli Observatory And Earthquake Research Institute (KOERI)" insttype="" lat="40.0466" lon="27.686">
		<comp name="--.HNE" depth="0.0">
			<acc value="0.120420667108017" flag="0"/>
			<vel value="0.118126831540975" flag="0"/>
			<psa03 value="0.259504798385976" flag="0"/>
			<psa10 value="0.15152037755691" flag="0"/>
			<psa30 value="0.0140061003597838" flag="0"/>
		</comp>
		<comp name="--.HNN" depth="0.0">
			<acc value="0.155369378432051" flag="0"/>
			<vel value="0.160452088396364" flag="0"/>
			<psa03 value="0.411001909995444" flag="0"/>
			<psa10 value="0.25333798004778" flag="0"/>
			<psa30 value="0.0187371412875998" flag="0"/>
		</comp>
		<comp name="--.HNZ" depth="0.0">
			<acc value="0.0570586203665359" flag="0"/>
			<vel value="0.0564456967261298" flag="0"/>
			<psa03 value="0.125994053837053" flag="0"/>
			<psa10 value="0.0833507041312446" flag="0"/>
			<psa30 value="0.0107484202959074" flag="0"/>
		</comp>
	</station>
	<station code="GORD" name="GORD" netid="KO" source="Bogazici University Kandilli Observatory And Earthquake Research Institute (KOERI)" insttype="" lat="38.9088" lon="28.1769">
		<comp name="--.HNE" depth="0.0">
			<acc value="0.0485476948632918" flag="0"/>
			<vel value="0.0614314868422285" flag="0"/>
			<psa03 value="0.081162362805545" flag="0"/>
			<psa10 value="0.124601228945026" flag="0"/>
			<psa30 value="0.0103739280265125" flag="0"/>
		</comp>
		<comp name="--.HNN" depth="0.0">
			<acc value="0.0340259085050863" flag="0"/>
			<vel value="0.0477891027730221" flag="0"/>
			<psa03 value="0.0582096108103716" flag="0"/>
			<psa10 value="0.0811198577092576" flag="0"/>
			<psa30 value="0.00952337867869914" flag="0"/>
		</comp>
		<comp name="--.HNZ" depth="0.0">
			<acc value="0.0245971887766567" flag="0"/>
			<vel value="0.0312219794155211" flag="0"/>
			<psa03 value="0.0480531299080239" flag="0"/>
			<psa10 value="0.050105454925604" flag="0"/>
			<psa30 value="0.00656233944470192" flag="0"/>
		</comp>
	</station>
	<station code="ODEM" name="ODEM" netid="KO" source="Bogazici University Kandilli Observatory And Earthquake Research Institute (KOERI)" insttype="" lat="38.2762" lon="28.0747">
		<comp name="--.HNE" depth="0.0">
			<acc value="0.0273152934426975" flag="0"/>
			<vel value="0.0276000364035929" flag="0"/>
			<psa03 value="0.0978959480807786" flag="0"/>
			<psa10 value="0.0447135716060361" flag="0"/>
			<psa30 value="0.00723615707637309" flag="0"/>
		</comp>
		<comp name="--.HNN" depth="0.0">
			<acc value="0.0375621740202737" flag="0"/>
			<vel value="0.0354076843358748" flag="0"/>
			<psa03 value="0.143622483244652" flag="0"/>
			<psa10 value="0.0470531415901055" flag="0"/>
			<psa30 value="0.0077511398745494" flag="0"/>
		</comp>
		<comp name="--.HNZ" depth="0.0">
			<acc value="0.0282771020436995" flag="0"/>
			<vel value="0.0309658300322958" flag="0"/>
			<psa03 value="0.0831757621033672" flag="0"/>
			<psa10 value="0.0510356454011979" flag="0"/>
			<psa30 value="0.00593952792857557" flag="0"/>
		</comp>
	</station>
	<station code="SOMA" name="SOMA" netid="KO" source="Bogazici University Kandilli Observatory And Earthquake Research Institute (KOERI)" insttype="" lat="39.1564" lon="27.5341">
		<comp name="--.HNE" depth="0.0">
			<acc value="0.104699463803524" flag="0"/>
			<vel value="0.0761302220719047" flag="0"/>
			<psa03 value="0.311092562616844" flag="0"/>
			<psa10 value="0.118246940761099" flag="0"/>
			<psa30 value="0.00976722370476872" flag="0"/>
		</comp>
		<comp name="--.HNN" depth="0.0">
			<acc value="0.114582627111678" flag="0"/>
			<vel value="0.0717630836425321" flag="0"/>
			<psa03 value="0.285768473670902" flag="0"/>
			<psa10 value="0.0917747667933328" flag="0"/>
			<psa30 value="0.0103475301246077" flag="0"/>
		</comp>
		<comp name="--.HNZ" depth="0.0">
			<acc value="0.0658687476158929" flag="0"/>
