<?xml version="1.0" encoding="UTF-8" standalone="yes"?>
<!DOCTYPE earthquake SYSTEM "stationlist.dtd">
<stationlist created="" xmlns="ch.ethz.sed.shakemap.usgs.xml">
  <station code="KRL1" name="KRL1" netid="HI" insttype="CMG-5TD,ACCELEROMETER,GURALP" lat="37.7951" lon="26.7065">
    <comp name="--.HNN">
      <acc value="0.0171716893" flag="0"/>
      <vel value="0.0141370667" flag="0"/>
      <psa03 value="0.0517441358" flag="0"/>
      <psa10 value="0.0177952505" flag="0"/>
      <psa30 value="0.0032247761" flag="0"/>
    </comp>
    <comp name="--.HNE">
      <acc value="0.0320474957" flag="0"/>
      <vel value="0.0167500306" flag="0"/>
      <psa03 value="0.0981906230" flag="0"/>
      <psa10 value="0.0173079854" flag="0"/>
      <psa30 value="0.0026174091" flag="0"/>
    </comp>
    <comp name="--.HNZ">
      <acc value="0.0141664128" flag="0"/>
      <vel value="0.0110013849" flag="0"/>
      <psa03 value="0.0367546232" flag="0"/>
      <psa10 value="0.0128359486" flag="0"/>
      <psa30 value="0.0016854927" flag="0"/>
    </comp>
  </station>
  <station code="LMN1" name="LMN1" netid="HI" insttype="CMG-5TD,ACCELEROMETER,GURALP" lat="39.875" lon="25.0588">
    <comp name="--.HNE">
      <acc value="0.0929129598" flag="0"/>
      <vel value="0.0450551123" flag="0"/>
      <psa03 value="0.2850952335" flag="0"/>
      <psa10 value="0.0379973461" flag="0"/>
      <psa30 value="0.0036538893" flag="0"/>
    </comp>
    <comp name="--.HNZ">
      <acc value="0.0511087626" flag="0"/>
      <vel value="0.0199845902" flag="0"/>
      <psa03 value="0.0524790387" flag="0"/>
      <psa10 value="0.0196054899" flag="0"/>
      <psa30 value="0.0021517576" flag="0"/>
    </comp>
    <comp name="--.HNN">
      <acc value="0.0789041148" flag="0"/>
      <vel value="0.0412589453" flag="0"/>
      <psa03 value="0.2846708745" flag="0"/>
      <psa10 value="0.0206093058" flag="0"/>
      <psa30 value="0.0036913768" flag="0"/>
    </comp>
  </station>
  <station code="MYT1" name="MYT1" netid="HI" insttype="CMG-5TD,ACCELEROMETER,GURALP" lat="39.085" lon="26.5694">
    <comp name="--.HNE">
      <acc value="0.1916993658" flag="0"/>
      <vel value="0.0915250718" flag="0"/>
      <psa03 value="0.2782025194" flag="0"/>
      <psa10 value="0.1136554114" flag="0"/>
      <psa30 value="0.0088959463" flag="0"/>
    </comp>
    <comp name="--.HNZ">
      <acc value="0.1545795774" flag="0"/>
      <vel value="0.0819022976" flag="0"/>
      <psa03 value="0.2479240605" flag="0"/>
      <psa10 value="0.0678803803" flag="0"/>
      <psa30 value="0.0048970870" flag="0"/>
    </comp>
    <comp name="--.HNN">
      <acc value="0.2686728106" flag="0"/>
      <vel value="0.1309183684" flag="0"/>
      <psa03 value="0.5086019859" flag="0"/>
      <psa10 value="0.1776043095" flag="0"/>
      <psa30 value="0.0123250885" flag="0"/>
    </comp>
  </station>
  <station code="SKY1" name="SKY1" netid="HI" insttype="CMG-5TD,ACCELEROMETER,GURALP" lat="38.9045" lon="24.5646">
    <comp name="--.HNZ">
      <acc value="0.0103705492" flag="0"/>
      <vel value="0.0060980327" flag="0"/>
      <psa03 value="0.0297721299" flag="0"/>
      <psa10 value="0.0081593648" flag="0"/>
      <psa30 value="0.0008101437" flag="0"/>
    </comp>
    <comp name="--.HNE">
      <acc value="0.0168158666" flag="0"/>
      <vel value="0.0104994059" flag="0"/>
      <psa03 value="0.0633707453" flag="0"/>
      <psa10 value="0.0161952918" flag="0"/>
      <psa30 value="0.0012005202" flag="0"/>
    </comp>
    <comp name="--.HNN">
      <acc value="0.0203522767" flag="0"/>
      <vel value="0.0126282113" flag="0"/>
      <psa03 value="0.0726923928" flag="0"/>
      <psa10 value="0.0201525508" flag="0"/>
      <psa30 value="0.0010343784" flag="0"/>
    </comp>
  </station>
  <station code="EFSA" name="EFSA" netid="HL" insttype="CMG-5" lat="39.5401" lon="24.9886">
    <comp name="00.HNE">
      <acc value="0.0417216844" flag="0"/>
      <vel value="0.0376371656" flag="0"/>
      <psa03 value="0.1078577659" flag="0"/>
      <psa10 value="0.0430346823" flag="0"/>
      <psa30 value="0.0058043441" flag="0"/>
    </comp>
    <comp name="00.HNN">
      <acc value="0.0408573315" flag="0"/>
      <vel value="0.0277326345" flag="0"/>
      <psa03 value="0.1543353383" flag="0"/>
      <psa10 value="0.0393465129" flag="0"/>
      <psa30 value="0.0031185415" flag="0"/>
    </comp>
    <comp name="00.HNZ">
      <acc value="0.0206493804" flag="0"/>
      <vel value="0.0162868401" flag="0"/>
      <psa03 value="0.0587967664" flag="0"/>
      <psa10 value="0.0215801434" flag="0"/>
      <psa30 value="0.0015110543" flag="0"/>
    </comp>
  </station>
  <station code="LIA" name="LIA" netid="HL" insttype="P6C" lat="39.8972" lon="25.1806">
    <comp name="--.HHN">
      <acc value="0.0644862456" flag="0"/>
      <vel value="0.0475366428" flag="0"/>
      <psa03 value="0.1820376296" flag="0"/>
      <psa10 value="0.0408147981" flag="0"/>
      <psa30 value="0.0057849283" flag="0"/>
    </comp>
    <comp name="--.HHZ">
      <acc value="0.0258488711" flag="0"/>
      <vel value="0.0259675411" flag="0"/>
      <psa03 value="0.0498495050" flag="0"/>
      <psa10 value="0.0371884384" flag="0"/>
      <psa30 value="0.0022392969" flag="0"/>
    </comp>
    <comp name="--.HHE">
      <acc value="0.0437675782" flag="0"/>
      <vel value="0.0347193645" flag="0"/>
      <psa03 value="0.1111878117" flag="0"/>
      <psa10 value="0.0527705583" flag="0"/>
      <psa30 value="0.0032419976" flag="0"/>
    </comp>
  </station>
  <station code="PRK" name="PRK" netid="HL" insttype="120" lat="39.2456" lon="26.265">
    <comp name="--.HHN">
      <acc value="0.4856091348" flag="0"/>
      <vel value="0.2840383195" flag="0"/>
      <psa03 value="1.4959890979" flag="0"/>
      <psa10 value="0.2524134854" flag="0"/>
      <psa30 value="0.0140458026" flag="0"/>
    </comp>
    <comp name="--.HHE">
      <acc value="0.3241809395" flag="0"/>
      <vel value="0.1965512245" flag="0"/>
      <psa03 value="1.3436197040" flag="0"/>
      <psa10 value="0.2518177646" flag="0"/>
      <psa30 value="0.0116914466" flag="0"/>
    </comp>
    <comp name="--.HHZ">
      <acc value="0.3821850754" flag="0"/>
      <vel value="0.1687146589" flag="0"/>
      <psa03 value="0.8058365777" flag="0"/>
      <psa10 value="0.1841170586" flag="0"/>
      <psa30 value="0.0087575888" flag="0"/>
    </comp>
  </station>
  <station code="SKY" name="SKY" netid="HL" insttype="120" lat="38.8831" lon="24.5482">
    <comp name="--.HHE">
      <acc value="0.0342860347" flag="0"/>
      <vel value="0.0115939006" flag="0"/>
      <psa03 value="0.0537582196" flag="0"/>
      <psa10 value="0.0127531109" flag="0"/>
      <psa30 value="0.0009527246" flag="0"/>
    </comp>
    <comp name="--.HHZ">
      <acc value="0.0139078123" flag="0"/>
      <vel value="0.0065155372" flag="0"/>
      <psa03 value="0.0278658722" flag="0"/>
      <psa10 value="0.0075641843" flag="0"/>
      <psa30 value="0.0008167172" flag="0"/>
    </comp>
    <comp name="--.HHN">
      <acc value="0.0427607593" flag="0"/>
      <vel value="0.0178801520" flag="0"/>
      <psa03 value="0.0509136024" flag="0"/>
      <psa10 value="0.0173648256" flag="0"/>
      <psa30 value="0.0012679831" flag="0"/>
    </comp>
  </station>
  <station code="CHOS" name="CHOS" netid="HT" insttype="100" lat="38.3869" lon="26.0506">
    <comp name="--.HHE">
      <acc value="0.1943496345" flag="0"/>
      <vel value="0.0963253524" flag="0"/>
      <psa03 value="0.7909293646" flag="0"/>
      <psa10 value="0.0820761731" flag="0"/>
      <psa30 value="0.0048166977" flag="0"/>
    </comp>
    <comp name="--.HHN">
      <acc value="0.1234516097" flag="0"/>
      <vel value="0.0560402440" flag="0"/>
      <psa03 value="0.4449733492" flag="0"/>
      <psa10 value="0.0647271232" flag="0"/>
      <psa30 value="0.0050479005" flag="0"/>
    </comp>
    <comp name="--.HHZ">
      <acc value="0.0636693381" flag="0"/>
      <vel value="0.0293289304" flag="0"/>
      <psa03 value="0.2543118965" flag="0"/>
      <psa10 value="0.0160718389" flag="0"/>
      <psa30 value="0.0029094267" flag="0"/>
    </comp>
  </station>
  <station code="EZN" name="EZN" netid="KO" insttype="120s," lat="39.8255" lon="26.3247">
    <comp name="--.HHE">
      <acc value="0.1384396512" flag="0"/>
      <vel value="0.1189141930" flag="0"/>
      <psa03 value="0.2633741175" flag="0"/>
      <psa10 value="0.1392413507" flag="0"/>
      <psa30 value="0.0101184987" flag="0"/>
    </comp>
    <comp name="--.HHN">
      <acc value="0.1223898612" flag="0"/>
      <vel value="0.1160020767" flag="0"/>
      <psa03 value="0.2003566583" flag="0"/>
      <psa10 value="0.1238697747" flag="0"/>
      <psa30 value="0.0100200163" flag="0"/>
    </comp>
    <comp name="--.HHZ">
      <acc value="0.0776990649" flag="0"/>
      <vel value="0.0506310511" flag="0"/>
      <psa03 value="0.2156555457" flag="0"/>
      <psa10 value="0.0741160905" flag="0"/>
      <psa30 value="0.0060064407" flag="0"/>
    </comp>
  </station>
  <station code="FOCM" name="FOCM" netid="KO" insttype="100" lat="38.7131" lon="26.7309">
    <comp name="--.HNE">
      <acc value="0.0143791695" flag="0"/>
      <vel value="0.0052598576" flag="0"/>
      <psa03 value="0.0279265630" flag="0"/>
      <psa10 value="0.0063856952" flag="0"/>
      <psa30 value="0.0003579988" flag="0"/>
    </comp>
    <comp name="--.HNN">
      <acc value="0.0126302379" flag="0"/>
      <vel value="0.0055542363" flag="0"/>
      <psa03 value="0.0284752726" flag="0"/>
      <psa10 value="0.0063670864" flag="0"/>
      <psa30 value="0.0005696034" flag="0"/>
    </comp>
    <comp name="--.HNZ">
      <acc value="0.0105936723" flag="0"/>
      <vel value="0.0040214529" flag="0"/>
      <psa03 value="0.0221369933" flag="0"/>
      <psa10 value="0.0015838635" flag="0"/>
      <psa30 value="0.0003008580" flag="0"/>
    </comp>
  </station>
</stationlist>
