<?xml version="1.0" encoding="UTF-8" standalone="yes"?>
<!DOCTYPE earthquake SYSTEM "stationlist.dtd">
<stationlist created="" xmlns="ch.ethz.sed.shakemap.usgs.xml">
  <station code="PGEL" name="PGEL" netid="IV" insttype="" lat="36.7942" lon="11.9788">
    <comp name="--.HHE">
      <acc value="0.1551123266" flag="0"/>
      <vel value="0.0411286857" flag="0"/>
      <psa03 value="0.1390485247" flag="0"/>
      <psa10 value="0.0269481893" flag="0"/>
      <psa30 value="0.0017446313" flag="0"/>
    </comp>
    <comp name="--.HHN">
      <acc value="0.1557207786" flag="0"/>
      <vel value="0.0436718515" flag="0"/>
      <psa03 value="0.1506430772" flag="0"/>
      <psa10 value="0.0194337446" flag="0"/>
      <psa30 value="0.0024694943" flag="0"/>
    </comp>
    <comp name="--.HHZ">
      <acc value="0.0429258359" flag="0"/>
      <vel value="0.0186529432" flag="0"/>
      <psa03 value="0.1476653692" flag="0"/>
      <psa10 value="0.0114765111" flag="0"/>
      <psa30 value="0.0011357997" flag="0"/>
    </comp>
  </station>
  <station code="PGHD" name="PGHD" netid="IV" insttype="" lat="36.7714" lon="12.0405">
    <comp name="--.HHE">
      <acc value="0.0405809052" flag="0"/>
      <vel value="0.0185072335" flag="0"/>
      <psa03 value="0.1736075450" flag="0"/>
      <psa10 value="0.0317227775" flag="0"/>
      <psa30 value="0.0023682029" flag="0"/>
    </comp>
    <comp name="--.HHN">
      <acc value="0.0305568284" flag="0"/>
      <vel value="0.0213208901" flag="0"/>
      <psa03 value="0.0998644841" flag="0"/>
      <psa10 value="0.0431031424" flag="0"/>
      <psa30 value="0.0019956734" flag="0"/>
    </comp>
    <comp name="--.HHZ">
      <acc value="0.0181240755" flag="0"/>
      <vel value="0.0072888557" flag="0"/>
      <psa03 value="0.0358467966" flag="0"/>
      <psa10 value="0.0109818294" flag="0"/>
      <psa30 value="0.0005464105" flag="0"/>
    </comp>
  </station>
  <station code="PZIN" name="PZIN" netid="IV" insttype="" lat="36.8121" lon="11.9729">
    <comp name="--.HHE">
      <acc value="0.0742383880" flag="0"/>
      <vel value="0.0406747921" flag="0"/>
      <psa03 value="0.2034483812" flag="0"/>
      <psa10 value="0.0500217709" flag="0"/>
      <psa30 value="0.0024038865" flag="0"/>
    </comp>
    <comp name="--.HHZ">
      <acc value="0.0805765636" flag="0"/>
      <vel value="0.0373135461" flag="0"/>
      <psa03 value="0.2405311862" flag="0"/>
      <psa10 value="0.0177677506" flag="0"/>
      <psa30 value="0.0014889119" flag="0"/>
    </comp>
    <comp name="--.HHN">
      <acc value="0.0914342371" flag="0"/>
      <vel value="0.0516550014" flag="0"/>
      <psa03 value="0.2272339336" flag="0"/>
      <psa10 value="0.0544322121" flag="0"/>
      <psa30 value="0.0038800561" flag="0"/>
    </comp>
  </station>
</stationlist>
