<?xml version="1.0" encoding="UTF-8" standalone="yes"?>
<!DOCTYPE earthquake SYSTEM "stationlist.dtd">
<stationlist created="" xmlns="ch.ethz.sed.shakemap.usgs.xml">
  <station code="PZIN" name="PZIN" netid="IV" insttype="" lat="36.8121" lon="11.9729">
    <comp name="--.HHE">
      <acc value="0.0742383871" flag="0"/>
      <vel value="0.0406748338" flag="0"/>
      <psa03 value="0.2034483812" flag="0"/>
      <psa10 value="0.0500217741" flag="0"/>
      <psa30 value="0.0023994690" flag="0"/>
    </comp>
    <comp name="--.HHN">
      <acc value="0.0914342363" flag="0"/>
      <vel value="0.0516549245" flag="0"/>
      <psa03 value="0.2272339335" flag="0"/>
      <psa10 value="0.0544322121" flag="0"/>
      <psa30 value="0.0038801278" flag="0"/>
    </comp>
    <comp name="--.HHZ">
      <acc value="0.0805765631" flag="0"/>
      <vel value="0.0373132662" flag="0"/>
      <psa03 value="0.2405311859" flag="0"/>
      <psa10 value="0.0177677503" flag="0"/>
      <psa30 value="0.0014888229" flag="0"/>
    </comp>
  </station>
</stationlist>
