<?xml version="1.0" encoding="UTF-8" standalone="yes"?>
<!DOCTYPE earthquake SYSTEM "stationlist.dtd">
<stationlist created="" xmlns="ch.ethz.sed.shakemap.usgs.xml">
  <station code="PGEL" name="PGEL" netid="IV" insttype="" lat="36.7942" lon="11.9788">
    <comp name="--.HHE">
      <acc value="0.1551123266" flag="0"/>
      <vel value="0.0411287013" flag="0"/>
      <psa03 value="0.1390485247" flag="0"/>
      <psa10 value="0.0269481891" flag="0"/>
      <psa30 value="0.0017446450" flag="0"/>
    </comp>
    <comp name="--.HHN">
      <acc value="0.1557207788" flag="0"/>
      <vel value="0.0436718442" flag="0"/>
      <psa03 value="0.1506430772" flag="0"/>
      <psa10 value="0.0194337446" flag="0"/>
      <psa30 value="0.0024695120" flag="0"/>
    </comp>
    <comp name="--.HHZ">
      <acc value="0.0429258364" flag="0"/>
      <vel value="0.0186529358" flag="0"/>
      <psa03 value="0.1476653692" flag="0"/>
      <psa10 value="0.0114765111" flag="0"/>
      <psa30 value="0.0011357829" flag="0"/>
    </comp>
  </station>
  <station code="PGHD" name="PGHD" netid="IV" insttype="" lat="36.7714" lon="12.0405">
    <comp name="--.HHN">
      <acc value="0.0305568283" flag="0"/>
      <vel value="0.0213208836" flag="0"/>
      <psa03 value="0.0998644842" flag="0"/>
      <psa10 value="0.0431034451" flag="0"/>
      <psa30 value="0.0019956660" flag="0"/>
    </comp>
    <comp name="--.HHE">
      <acc value="0.0405809058" flag="0"/>
      <vel value="0.0185072494" flag="0"/>
      <psa03 value="0.1736075451" flag="0"/>
      <psa10 value="0.0317227776" flag="0"/>
      <psa30 value="0.0023682231" flag="0"/>
    </comp>
    <comp name="--.HHZ">
      <acc value="0.0181240762" flag="0"/>
      <vel value="0.0072888564" flag="0"/>
      <psa03 value="0.0358467966" flag="0"/>
      <psa10 value="0.0109818311" flag="0"/>
      <psa30 value="0.0005484572" flag="0"/>
    </comp>
  </station>
  <station code="PZIN" name="PZIN" netid="IV" insttype="" lat="36.8121" lon="11.9729">
    <comp name="--.HHE">
      <acc value="0.0742383883" flag="0"/>
      <vel value="0.0406748012" flag="0"/>
      <psa03 value="0.2034483812" flag="0"/>
      <psa10 value="0.0500217709" flag="0"/>
      <psa30 value="0.0024033290" flag="0"/>
    </comp>
    <comp name="--.HHN">
      <acc value="0.0914342368" flag="0"/>
      <vel value="0.0516550015" flag="0"/>
      <psa03 value="0.2272339336" flag="0"/>
      <psa10 value="0.0544322121" flag="0"/>
      <psa30 value="0.0038800965" flag="0"/>
    </comp>
    <comp name="--.HHZ">
      <acc value="0.0805765637" flag="0"/>
      <vel value="0.0373135503" flag="0"/>
      <psa03 value="0.2405311862" flag="0"/>
      <psa10 value="0.0177677506" flag="0"/>
      <psa30 value="0.0014889125" flag="0"/>
    </comp>
  </station>
</stationlist>
