<?xml version="1.0" encoding="UTF-8" standalone="yes"?>
<!DOCTYPE earthquake SYSTEM "stationlist.dtd">
<stationlist created="" xmlns="ch.ethz.sed.shakemap.usgs.xml">
  <station code="EVR" name="EVR" netid="HL" insttype="DR24" lat="38.9166" lon="21.8105">
    <comp name="--.HHE">
      <acc value="0.0044960319" flag="0"/>
      <vel value="0.0027371670" flag="0"/>
      <psa03 value="0.0103982010" flag="0"/>
      <psa10 value="0.0044717037" flag="0"/>
      <psa30 value="0.0009869512" flag="0"/>
    </comp>
    <comp name="--.HHZ">
      <acc value="0.0033254187" flag="0"/>
      <vel value="0.0020928411" flag="0"/>
      <psa03 value="0.0077159897" flag="0"/>
      <psa10 value="0.0039419612" flag="0"/>
      <psa30 value="0.0008615983" flag="0"/>
    </comp>
    <comp name="--.HHN">
      <acc value="0.0066580696" flag="0"/>
      <vel value="0.0040066219" flag="0"/>
      <psa03 value="0.0123339028" flag="0"/>
      <psa10 value="0.0038796433" flag="0"/>
      <psa30 value="0.0007385746" flag="0"/>
    </comp>
  </station>
  <station code="KZN" name="KZN" netid="HL" insttype="120" lat="40.3033" lon="21.7821">
    <comp name="--.HHZ">
      <acc value="0.0028324933" flag="0"/>
      <vel value="0.0025995672" flag="0"/>
      <psa03 value="0.0079382856" flag="0"/>
      <psa10 value="0.0036470793" flag="0"/>
      <psa30 value="0.0004196166" flag="0"/>
    </comp>
    <comp name="--.HHN">
      <acc value="0.0043060019" flag="0"/>
      <vel value="0.0035435571" flag="0"/>
      <psa03 value="0.0140853682" flag="0"/>
      <psa10 value="0.0023081190" flag="0"/>
      <psa30 value="0.0004318438" flag="0"/>
    </comp>
    <comp name="--.HHE">
      <acc value="0.0059327022" flag="0"/>
      <vel value="0.0037827346" flag="0"/>
      <psa03 value="0.0116076860" flag="0"/>
      <psa10 value="0.0041781988" flag="0"/>
      <psa30 value="0.0004077429" flag="0"/>
    </comp>
  </station>
  <station code="NEO" name="NEO" netid="HL" insttype="120" lat="39.3057" lon="23.2219">
    <comp name="--.HHN">
      <acc value="0.0113054788" flag="0"/>
      <vel value="0.0085232253" flag="0"/>
      <psa03 value="0.0218480290" flag="0"/>
      <psa10 value="0.0099958915" flag="0"/>
      <psa30 value="0.0005918591" flag="0"/>
    </comp>
    <comp name="--.HHZ">
      <acc value="0.0049551362" flag="0"/>
      <vel value="0.0050799976" flag="0"/>
      <psa03 value="0.0121744045" flag="0"/>
      <psa10 value="0.0069820806" flag="0"/>
      <psa30 value="0.0004957595" flag="0"/>
    </comp>
    <comp name="--.HHE">
      <acc value="0.0103832995" flag="0"/>
      <vel value="0.0069953716" flag="0"/>
      <psa03 value="0.0274703362" flag="0"/>
      <psa10 value="0.0062749692" flag="0"/>
      <psa30 value="0.0004701848" flag="0"/>
    </comp>
  </station>
  <station code="TETR" name="TETR" netid="HL" insttype="60" lat="39.3445" lon="21.2747">
    <comp name="--.HHN">
      <acc value="0.0150327832" flag="0"/>
      <vel value="0.0073435561" flag="0"/>
      <psa03 value="0.0449061222" flag="0"/>
      <psa10 value="0.0073795404" flag="0"/>
      <psa30 value="0.0008150094" flag="0"/>
    </comp>
    <comp name="--.HHE">
      <acc value="0.0249558330" flag="0"/>
      <vel value="0.0094285595" flag="0"/>
      <psa03 value="0.0528495365" flag="0"/>
      <psa10 value="0.0101080979" flag="0"/>
      <psa30 value="0.0007837232" flag="0"/>
    </comp>
    <comp name="--.HHZ">
      <acc value="0.0067180305" flag="0"/>
      <vel value="0.0043299364" flag="0"/>
      <psa03 value="0.0178254923" flag="0"/>
      <psa10 value="0.0042728680" flag="0"/>
      <psa30 value="0.0007324275" flag="0"/>
    </comp>
  </station>
  <station code="THL" name="THL" netid="HL" insttype="120" lat="39.5647" lon="22.0144">
    <comp name="--.HHE">
      <acc value="0.0260710759" flag="0"/>
      <vel value="0.0150206912" flag="0"/>
      <psa03 value="0.0291539211" flag="0"/>
      <psa10 value="0.0149883016" flag="0"/>
      <psa30 value="0.0035297597" flag="0"/>
    </comp>
    <comp name="--.HHN">
      <acc value="0.0393642883" flag="0"/>
      <vel value="0.0157700184" flag="0"/>
      <psa03 value="0.0277425943" flag="0"/>
      <psa10 value="0.0263820146" flag="0"/>
      <psa30 value="0.0021663147" flag="0"/>
    </comp>
    <comp name="--.HHZ">
      <acc value="0.0327488291" flag="0"/>
      <vel value="0.0125769058" flag="0"/>
      <psa03 value="0.0307479642" flag="0"/>
      <psa10 value="0.0086470259" flag="0"/>
      <psa30 value="0.0040044222" flag="0"/>
    </comp>
  </station>
  <station code="PRMD" name="PRMD" netid="HP" insttype="120P," lat="39.5299" lon="21.0965">
    <comp name="--.HHN">
      <acc value="0.0037388852" flag="0"/>
      <vel value="0.0032209424" flag="0"/>
      <psa03 value="0.0183420059" flag="0"/>
      <psa10 value="0.0042551261" flag="0"/>
      <psa30 value="0.0004420474" flag="0"/>
    </comp>
    <comp name="--.HHE">
      <acc value="0.0036935453" flag="0"/>
      <vel value="0.0026765056" flag="0"/>
      <psa03 value="0.0086667132" flag="0"/>
      <psa10 value="0.0046243809" flag="0"/>
      <psa30 value="0.0005317741" flag="0"/>
    </comp>
    <comp name="--.HHZ">
      <acc value="0.0021986813" flag="0"/>
      <vel value="0.0021300828" flag="0"/>
      <psa03 value="0.0065765108" flag="0"/>
      <psa10 value="0.0028224033" flag="0"/>
      <psa30 value="0.0005860876" flag="0"/>
    </comp>
  </station>
  <station code="KPRO" name="KPRO" netid="HT" insttype="100" lat="39.9549" lon="21.3632">
    <comp name="--.HHZ">
      <acc value="0.0025517758" flag="0"/>
      <vel value="0.0039422745" flag="0"/>
      <psa03 value="0.0076544778" flag="0"/>
      <psa10 value="0.0047114205" flag="0"/>
      <psa30 value="0.0016342711" flag="0"/>
    </comp>
    <comp name="--.HHN">
      <acc value="0.0036118506" flag="0"/>
      <vel value="0.0038167144" flag="0"/>
      <psa03 value="0.0119181716" flag="0"/>
      <psa10 value="0.0055277169" flag="0"/>
      <psa30 value="0.0017459700" flag="0"/>
    </comp>
    <comp name="--.HHE">
      <acc value="0.0037857524" flag="0"/>
      <vel value="0.0058708756" flag="0"/>
      <psa03 value="0.0106508966" flag="0"/>
      <psa10 value="0.0067917352" flag="0"/>
      <psa30 value="0.0032794906" flag="0"/>
    </comp>
  </station>
  <station code="LIT" name="LIT" netid="HT" insttype="100" lat="40.1033" lon="22.4892">
    <comp name="--.HHE">
      <acc value="0.0163792791" flag="0"/>
      <vel value="0.0059023619" flag="0"/>
      <psa03 value="0.0198658599" flag="0"/>
      <psa10 value="0.0043669091" flag="0"/>
      <psa30 value="0.0007616086" flag="0"/>
    </comp>
    <comp name="--.HHN">
      <acc value="0.0201012583" flag="0"/>
      <vel value="0.0084320495" flag="0"/>
      <psa03 value="0.0485931119" flag="0"/>
      <psa10 value="0.0061357812" flag="0"/>
      <psa30 value="0.0005430269" flag="0"/>
    </comp>
    <comp name="--.HHZ">
      <acc value="0.0071645604" flag="0"/>
      <vel value="0.0032226788" flag="0"/>
      <psa03 value="0.0168078619" flag="0"/>
      <psa10 value="0.0030213759" flag="0"/>
      <psa30 value="0.0004216965" flag="0"/>
    </comp>
  </station>
  <station code="THL" name="THL" netid="MN" insttype="" lat="39.5647" lon="22.0144">
    <comp name="--.HHE">
      <acc value="0.0260710759" flag="0"/>
      <vel value="0.0150206912" flag="0"/>
      <psa03 value="0.0291539211" flag="0"/>
      <psa10 value="0.0149883016" flag="0"/>
      <psa30 value="0.0035297597" flag="0"/>
    </comp>
    <comp name="--.HHN">
      <acc value="0.0393642883" flag="0"/>
      <vel value="0.0157700184" flag="0"/>
      <psa03 value="0.0277425943" flag="0"/>
      <psa10 value="0.0263820146" flag="0"/>
      <psa30 value="0.0021663147" flag="0"/>
    </comp>
    <comp name="--.HHZ">
      <acc value="0.0327488291" flag="0"/>
      <vel value="0.0125769058" flag="0"/>
      <psa03 value="0.0307479642" flag="0"/>
      <psa10 value="0.0086470259" flag="0"/>
      <psa30 value="0.0040044222" flag="0"/>
    </comp>
  </station>
</stationlist>
