<stationlist created="1675762241">
	<station code="RFHY" name="RFHY" netid="KO" source="Bogazici University Kandilli Observatory And Earthquake Research Institute (KOERI)" insttype="" lat="39.927" lon="38.833">
		<comp name=".HNE" depth="0.0">
			<acc value="0.00157825824611" flag="0"/>
			<vel value="0.0013349054146" flag="0"/>
			<psa03 value="0.00184047120604" flag="0"/>
			<psa10 value="0.00100810217244" flag="0"/>
			<psa30 value="0.000786738888424" flag="0"/>
		</comp>
		<comp name=".HNN" depth="0.0">
			<acc value="0.00846072979628" flag="0"/>
			<vel value="0.00249772596293" flag="0"/>
			<psa03 value="0.00615683624559" flag="0"/>
			<psa10 value="0.00511739962761" flag="0"/>
			<psa30 value="0.000540319230996" flag="0"/>
		</comp>
		<comp name=".HNZ" depth="0.0">
			<acc value="0.00305455261523" flag="0"/>
			<vel value="0.00134180549012" flag="0"/>
			<psa03 value="0.00489953095008" flag="0"/>
			<psa10 value="0.0018828435182" flag="0"/>
			<psa30 value="0.000297244430568" flag="0"/>
		</comp>
	</station>
	<station code="TUNC" name="TUNC" netid="KO" source="Bogazici University Kandilli Observatory And Earthquake Research Institute (KOERI)" insttype="" lat="39.6942" lon="37.5388">
		<comp name=".HNE" depth="0.0">
			<acc value="0.0265841671204" flag="0"/>
			<vel value="0.00492026300583" flag="0"/>
			<psa03 value="0.026032000534" flag="0"/>
			<psa10 value="0.00565074449035" flag="0"/>
			<psa30 value="0.000602564969054" flag="0"/>
		</comp>
		<comp name=".HNN" depth="0.0">
			<acc value="0.0171647079924" flag="0"/>
			<vel value="0.00626872555481" flag="0"/>
			<psa03 value="0.0180655652446" flag="0"/>
			<psa10 value="0.00524659287351" flag="0"/>
			<psa30 value="0.000704038462007" flag="0"/>
		</comp>
		<comp name=".HNZ" depth="0.0">
			<acc value="0.00684858888994" flag="0"/>
			<vel value="0.00339788438204" flag="0"/>
			<psa03 value="0.0163947136735" flag="0"/>
			<psa10 value="0.00287196697247" flag="0"/>
			<psa30 value="0.000432553732687" flag="0"/>
		</comp>
	</station>
</stationlist>
