<?xml version="1.0" encoding="UTF-8" standalone="yes"?>
<!DOCTYPE earthquake SYSTEM "stationlist.dtd">
<stationlist created="" xmlns="ch.ethz.sed.shakemap.usgs.xml">
  <station code="JAN2" name="JAN2" netid="HI" insttype="unknown" commtype="DIG" lat="39.664" lon="20.8522">
    <comp name="--.HNE">
      <acc value="0.1622022357" flag="0"/>
      <vel value="0.0992250432" flag="0"/>
      <psa03 value="0.5554941099" flag="0"/>
      <psa10 value="0.0909883052" flag="0"/>
      <psa30 value="0.0074500802" flag="0"/>
    </comp>
    <comp name="--.HNN">
      <acc value="0.1632202418" flag="0"/>
      <vel value="0.0904735546" flag="0"/>
      <psa03 value="0.4642402609" flag="0"/>
      <psa10 value="0.1201767907" flag="0"/>
      <psa30 value="0.0077157580" flag="0"/>
    </comp>
    <comp name="--.HNZ">
      <acc value="0.1099252931" flag="0"/>
      <vel value="0.0433674060" flag="0"/>
      <psa03 value="0.1616721376" flag="0"/>
      <psa10 value="0.0649798012" flag="0"/>
      <psa30 value="0.0076842694" flag="0"/>
    </comp>
  </station>
  <station code="JAN3" name="JAN3" netid="HI" insttype="unknown" commtype="DIG" lat="39.684" lon="20.8379">
    <comp name="--.HNN">
      <acc value="0.2807896059" flag="0"/>
      <vel value="0.0919732127" flag="0"/>
      <psa03 value="0.5454113686" flag="0"/>
      <psa10 value="0.0741270437" flag="0"/>
      <psa30 value="0.0077189804" flag="0"/>
    </comp>
  </station>
  <station code="ARTB" name="ARTB" netid="HL" insttype="CMG-5" commtype="DIG" lat="39.157" lon="20.9785">
    <comp name="00.HNE">
      <acc value="0.0622457572" flag="0"/>
      <vel value="0.0267995592" flag="0"/>
      <psa03 value="0.2364325218" flag="0"/>
      <psa10 value="0.0103251119" flag="0"/>
      <psa30 value="0.0018931876" flag="0"/>
    </comp>
    <comp name="00.HNN">
      <acc value="0.0376348145" flag="0"/>
      <vel value="0.0160363036" flag="0"/>
      <psa03 value="0.1689456247" flag="0"/>
      <psa10 value="0.0111227300" flag="0"/>
      <psa30 value="0.0021023926" flag="0"/>
    </comp>
  </station>
  <station code="KEK" name="KEK" netid="HL" insttype="120" commtype="DIG" lat="39.7127" lon="19.7962">
    <comp name="--.HHE">
      <acc value="0.0089848553" flag="0"/>
      <vel value="0.0078437932" flag="0"/>
      <psa03 value="0.0333368607" flag="0"/>
      <psa10 value="0.0123590522" flag="0"/>
      <psa30 value="0.0018434649" flag="0"/>
    </comp>
    <comp name="--.HHN">
      <acc value="0.0072290524" flag="0"/>
      <vel value="0.0089181113" flag="0"/>
      <psa03 value="0.0283278029" flag="0"/>
      <psa10 value="0.0100021344" flag="0"/>
      <psa30 value="0.0017630705" flag="0"/>
    </comp>
  </station>
  <station code="PRGA" name="PRGA" netid="HL" insttype="CMG-5" commtype="DIG" lat="39.2856" lon="20.4016">
    <comp name="00.HNE">
      <acc value="0.0569784636" flag="0"/>
      <vel value="0.0314962080" flag="0"/>
      <psa03 value="0.1459245105" flag="0"/>
      <psa10 value="0.0230191676" flag="0"/>
      <psa30 value="0.0051389221" flag="0"/>
    </comp>
    <comp name="00.HNN">
      <acc value="0.0505706789" flag="0"/>
      <vel value="0.0267225991" flag="0"/>
      <psa03 value="0.1847044462" flag="0"/>
      <psa10 value="0.0233265338" flag="0"/>
      <psa30 value="0.0048062736" flag="0"/>
    </comp>
    <comp name="00.HNZ">
      <acc value="0.0236329901" flag="0"/>
      <vel value="0.0115178286" flag="0"/>
      <psa03 value="0.0461733581" flag="0"/>
      <psa10 value="0.0157605561" flag="0"/>
      <psa30 value="0.0017329556" flag="0"/>
    </comp>
  </station>
  <station code="TETR" name="TETR" netid="HL" insttype="60" commtype="DIG" lat="39.3445" lon="21.2747">
    <comp name="--.HHE">
      <acc value="0.0578288862" flag="0"/>
      <vel value="0.0250834453" flag="0"/>
      <psa03 value="0.2097447173" flag="0"/>
      <psa10 value="0.0252082577" flag="0"/>
      <psa30 value="0.0054378801" flag="0"/>
    </comp>
    <comp name="--.HHZ">
      <acc value="0.0208669615" flag="0"/>
      <vel value="0.0074121887" flag="0"/>
      <psa03 value="0.0447062127" flag="0"/>
      <psa10 value="0.0117149782" flag="0"/>
      <psa30 value="0.0019184683" flag="0"/>
    </comp>
    <comp name="--.HHN">
      <acc value="0.0387069118" flag="0"/>
      <vel value="0.0271255371" flag="0"/>
      <psa03 value="0.1138643827" flag="0"/>
      <psa10 value="0.0307605651" flag="0"/>
      <psa30 value="0.0068922451" flag="0"/>
    </comp>
  </station>
  <station code="AMPL" name="AMPL" netid="HP" insttype="Compact," commtype="DIG" lat="38.9224" lon="21.2135">
    <comp name="--.HHE">
      <acc value="0.0085908221" flag="0"/>
      <vel value="0.0049993391" flag="0"/>
      <psa03 value="0.0267876073" flag="0"/>
      <psa10 value="0.0059367649" flag="0"/>
      <psa30 value="0.0014095843" flag="0"/>
    </comp>
    <comp name="--.HHN">
      <acc value="0.0059262755" flag="0"/>
      <vel value="0.0042279701" flag="0"/>
      <psa03 value="0.0172860840" flag="0"/>
      <psa10 value="0.0061198435" flag="0"/>
      <psa30 value="0.0008985085" flag="0"/>
    </comp>
    <comp name="--.HHZ">
      <acc value="0.0058050974" flag="0"/>
      <vel value="0.0035482233" flag="0"/>
      <psa03 value="0.0207297040" flag="0"/>
      <psa10 value="0.0071781860" flag="0"/>
      <psa30 value="0.0004602165" flag="0"/>
    </comp>
  </station>
  <station code="KSTR" name="KSTR" netid="HP" insttype="Compact," commtype="DIG" lat="39.2492" lon="20.576">
    <comp name="--.HHZ">
      <acc value="0.0249412552" flag="0"/>
      <vel value="0.0105644773" flag="0"/>
      <psa03 value="0.0381448254" flag="0"/>
      <psa10 value="0.0138703668" flag="0"/>
      <psa30 value="0.0014293345" flag="0"/>
    </comp>
    <comp name="--.HHN">
      <acc value="0.0280349369" flag="0"/>
      <vel value="0.0159443475" flag="0"/>
      <psa03 value="0.0820299846" flag="0"/>
      <psa10 value="0.0214649035" flag="0"/>
      <psa30 value="0.0012861184" flag="0"/>
    </comp>
    <comp name="--.HHE">
      <acc value="0.0313449683" flag="0"/>
      <vel value="0.0180471019" flag="0"/>
      <psa03 value="0.0633222179" flag="0"/>
      <psa10 value="0.0369727146" flag="0"/>
      <psa30 value="0.0033191164" flag="0"/>
    </comp>
  </station>
  <station code="PRMD" name="PRMD" netid="HP" insttype="120P," commtype="DIG" lat="39.5299" lon="21.0965">
    <comp name="--.HHE">
      <acc value="0.0458247895" flag="0"/>
      <vel value="0.0280397253" flag="0"/>
      <psa03 value="0.1876471094" flag="0"/>
      <psa10 value="0.0492970900" flag="0"/>
      <psa30 value="0.0023850331" flag="0"/>
    </comp>
    <comp name="--.HHZ">
      <acc value="0.0293807047" flag="0"/>
      <vel value="0.0169236175" flag="0"/>
      <psa03 value="0.0794583699" flag="0"/>
      <psa10 value="0.0252689570" flag="0"/>
      <psa30 value="0.0027955625" flag="0"/>
    </comp>
    <comp name="--.HHN">
      <acc value="0.0416244769" flag="0"/>
      <vel value="0.0406142553" flag="0"/>
      <psa03 value="0.0854961129" flag="0"/>
      <psa10 value="0.0534315627" flag="0"/>
      <psa30 value="0.0097044256" flag="0"/>
    </comp>
  </station>
  <station code="IGT" name="IGT" netid="HT" insttype="Compact," commtype="DIG" lat="39.5315" lon="20.3299">
    <comp name="--.HHE">
      <acc value="0.2841567153" flag="0"/>
      <vel value="0.1696586799" flag="0"/>
      <psa03 value="0.6338472044" flag="0"/>
      <psa10 value="0.1825883895" flag="0"/>
      <psa30 value="0.0114339160" flag="0"/>
    </comp>
    <comp name="--.HHN">
      <acc value="0.3553045373" flag="0"/>
      <vel value="0.1447918300" flag="0"/>
      <psa03 value="0.3414508561" flag="0"/>
      <psa10 value="0.1812735726" flag="0"/>
      <psa30 value="0.0068676301" flag="0"/>
    </comp>
    <comp name="--.HHZ">
      <acc value="0.1998374791" flag="0"/>
      <vel value="0.0696537078" flag="0"/>
      <psa03 value="0.2832301647" flag="0"/>
      <psa10 value="0.1234723365" flag="0"/>
      <psa30 value="0.0067591880" flag="0"/>
    </comp>
  </station>
  <station code="KPRO" name="KPRO" netid="HT" insttype="100" commtype="DIG" lat="39.9549" lon="21.3632">
    <comp name="--.HHE">
      <acc value="0.0117821595" flag="0"/>
      <vel value="0.0068960815" flag="0"/>
      <psa03 value="0.0430564652" flag="0"/>
      <psa10 value="0.0129748642" flag="0"/>
      <psa30 value="0.0015474845" flag="0"/>
    </comp>
    <comp name="--.HHN">
      <acc value="0.0071921001" flag="0"/>
      <vel value="0.0071832642" flag="0"/>
      <psa03 value="0.0223153365" flag="0"/>
      <psa10 value="0.0080127958" flag="0"/>
      <psa30 value="0.0017252802" flag="0"/>
    </comp>
    <comp name="--.HHZ">
      <acc value="0.0046681745" flag="0"/>
      <vel value="0.0052783944" flag="0"/>
      <psa03 value="0.0125757604" flag="0"/>
      <psa10 value="0.0064773725" flag="0"/>
      <psa30 value="0.0011913067" flag="0"/>
    </comp>
  </station>
  <station code="NYDR" name="NYDR" netid="HT" insttype="1s-100Hz," commtype="DIG" lat="38.7135" lon="20.6983">
    <comp name="--.HHZ">
      <acc value="0.0038957231" flag="0"/>
      <vel value="0.0025456827" flag="0"/>
      <psa03 value="0.0091272268" flag="0"/>
      <psa10 value="0.0042916614" flag="0"/>
      <psa30 value="0.0003065137" flag="0"/>
    </comp>
    <comp name="--.HHE">
      <acc value="0.0058206411" flag="0"/>
      <vel value="0.0057042497" flag="0"/>
      <psa03 value="0.0186523453" flag="0"/>
      <psa10 value="0.0115521665" flag="0"/>
      <psa30 value="0.0006161734" flag="0"/>
    </comp>
    <comp name="--.HHN">
      <acc value="0.0050996806" flag="0"/>
      <vel value="0.0051213042" flag="0"/>
      <psa03 value="0.0113044122" flag="0"/>
      <psa10 value="0.0097968967" flag="0"/>
      <psa30 value="0.0005807616" flag="0"/>
    </comp>
  </station>
  <station code="TSLK" name="TSLK" netid="HT" insttype="1s-100Hz," commtype="DIG" lat="38.8249" lon="20.6554">
    <comp name="--.HHE">
      <acc value="0.0079378033" flag="0"/>
      <vel value="0.0052889981" flag="0"/>
      <psa03 value="0.0229389645" flag="0"/>
      <psa10 value="0.0084423453" flag="0"/>
      <psa30 value="0.0018699398" flag="0"/>
    </comp>
    <comp name="--.HHZ">
      <acc value="0.0053240388" flag="0"/>
      <vel value="0.0031227378" flag="0"/>
      <psa03 value="0.0155330879" flag="0"/>
      <psa10 value="0.0031420073" flag="0"/>
      <psa30 value="0.0015238573" flag="0"/>
    </comp>
    <comp name="--.HHN">
      <acc value="0.0076711911" flag="0"/>
      <vel value="0.0074704554" flag="0"/>
      <psa03 value="0.0260813616" flag="0"/>
      <psa10 value="0.0150708755" flag="0"/>
      <psa30 value="0.0007592162" flag="0"/>
    </comp>
  </station>
  <station code="KEK" name="KEK" netid="MN" insttype="" commtype="DIG" lat="39.7127" lon="19.7962">
    <comp name="--.HHN">
      <acc value="0.0072290474" flag="0"/>
      <vel value="0.0089181051" flag="0"/>
      <psa03 value="0.0283277833" flag="0"/>
      <psa10 value="0.0100021275" flag="0"/>
      <psa30 value="0.0017630693" flag="0"/>
    </comp>
    <comp name="--.HHE">
      <acc value="0.0089848491" flag="0"/>
      <vel value="0.0078437878" flag="0"/>
      <psa03 value="0.0333368377" flag="0"/>
      <psa10 value="0.0123590436" flag="0"/>
      <psa30 value="0.0018434636" flag="0"/>
    </comp>
    <comp name="--.HHZ">
      <acc value="0.0077627150" flag="0"/>
      <vel value="0.0075068363" flag="0"/>
      <psa03 value="0.0211975476" flag="0"/>
      <psa10 value="0.0125693807" flag="0"/>
      <psa30 value="0.0014608194" flag="0"/>
    </comp>
  </station>
</stationlist>
