<?xml version="1.0" encoding="UTF-8" standalone="yes"?>
<!DOCTYPE earthquake SYSTEM "stationlist.dtd">
<stationlist created="" xmlns="ch.ethz.sed.shakemap.usgs.xml">
  <station code="JAN2" name="JAN2" netid="HI" insttype="unknown" commtype="DIG" lat="39.664" lon="20.8522">
    <comp name="--.HNE">
      <acc value="0.1622022362" flag="0"/>
      <vel value="0.0992250437" flag="0"/>
      <psa03 value="0.5554941099" flag="0"/>
      <psa10 value="0.0909883067" flag="0"/>
      <psa30 value="0.0074499959" flag="0"/>
    </comp>
    <comp name="--.HNN">
      <acc value="0.1632202358" flag="0"/>
      <vel value="0.0904735540" flag="0"/>
      <psa03 value="0.4642402609" flag="0"/>
      <psa10 value="0.1201767890" flag="0"/>
      <psa30 value="0.0077159735" flag="0"/>
    </comp>
    <comp name="--.HNZ">
      <acc value="0.1099252774" flag="0"/>
      <vel value="0.0433674064" flag="0"/>
      <psa03 value="0.1616721376" flag="0"/>
      <psa10 value="0.0649798016" flag="0"/>
      <psa30 value="0.0076843813" flag="0"/>
    </comp>
  </station>
  <station code="JAN3" name="JAN3" netid="HI" insttype="unknown" commtype="DIG" lat="39.684" lon="20.8379">
    <comp name="--.HNE">
      <acc value="0.3190066372" flag="0"/>
      <vel value="0.0851079884" flag="0"/>
      <psa03 value="0.5255716998" flag="0"/>
      <psa10 value="0.0843242748" flag="0"/>
      <psa30 value="0.0045301079" flag="0"/>
    </comp>
    <comp name="--.HNN">
      <acc value="0.2807896146" flag="0"/>
      <vel value="0.0919732121" flag="0"/>
      <psa03 value="0.5454113686" flag="0"/>
      <psa10 value="0.0741270444" flag="0"/>
      <psa30 value="0.0077189612" flag="0"/>
    </comp>
    <comp name="--.HNZ">
      <acc value="0.1689998570" flag="0"/>
      <vel value="0.0506785732" flag="0"/>
      <psa03 value="0.2159711837" flag="0"/>
      <psa10 value="0.0320775890" flag="0"/>
      <psa30 value="0.0071244785" flag="0"/>
    </comp>
  </station>
  <station code="ARTB" name="ARTB" netid="HL" insttype="CMG-5" commtype="DIG" lat="39.157" lon="20.9785">
    <comp name="00.HNE">
      <acc value="0.0622457582" flag="0"/>
      <vel value="0.0267995594" flag="0"/>
      <psa03 value="0.2364325218" flag="0"/>
      <psa10 value="0.0103251118" flag="0"/>
      <psa30 value="0.0018931585" flag="0"/>
    </comp>
    <comp name="00.HNN">
      <acc value="0.0376348165" flag="0"/>
      <vel value="0.0160363023" flag="0"/>
      <psa03 value="0.1689456247" flag="0"/>
      <psa10 value="0.0111227300" flag="0"/>
      <psa30 value="0.0021023047" flag="0"/>
    </comp>
    <comp name="00.HNZ">
      <acc value="0.0358270676" flag="0"/>
      <vel value="0.0126379200" flag="0"/>
      <psa03 value="0.0857544860" flag="0"/>
      <psa10 value="0.0132434052" flag="0"/>
      <psa30 value="0.0008204865" flag="0"/>
    </comp>
  </station>
  <station code="JAN" name="JAN" netid="HL" insttype="CMG3EPSC60_DR24" commtype="DIG" lat="39.6562" lon="20.8487">
    <comp name="--.HHE">
      <acc value="0.1324246068" flag="0"/>
      <vel value="0.0552069855" flag="0"/>
      <psa03 value="0.2155909625" flag="0"/>
      <psa10 value="0.0916426367" flag="0"/>
      <psa30 value="0.0074247805" flag="0"/>
    </comp>
    <comp name="--.HHN">
      <acc value="0.1464999974" flag="0"/>
      <vel value="0.0481429479" flag="0"/>
      <psa03 value="0.3338509554" flag="0"/>
      <psa10 value="0.0731358591" flag="0"/>
      <psa30 value="0.0078870519" flag="0"/>
    </comp>
    <comp name="--.HHZ">
      <acc value="0.0685691230" flag="0"/>
      <vel value="0.0366800636" flag="0"/>
      <psa03 value="0.0994645325" flag="0"/>
      <psa10 value="0.0645472254" flag="0"/>
      <psa30 value="0.0068924004" flag="0"/>
    </comp>
  </station>
  <station code="KEK" name="KEK" netid="HL" insttype="120" commtype="DIG" lat="39.7127" lon="19.7962">
    <comp name="--.HHE">
      <acc value="0.0089848553" flag="0"/>
      <vel value="0.0078437932" flag="0"/>
      <psa03 value="0.0333368607" flag="0"/>
      <psa10 value="0.0123590522" flag="0"/>
      <psa30 value="0.0018434716" flag="0"/>
    </comp>
    <comp name="--.HHN">
      <acc value="0.0072290530" flag="0"/>
      <vel value="0.0089181111" flag="0"/>
      <psa03 value="0.0283278029" flag="0"/>
      <psa10 value="0.0100021344" flag="0"/>
      <psa30 value="0.0017630571" flag="0"/>
    </comp>
    <comp name="--.HHZ">
      <acc value="0.0077627215" flag="0"/>
      <vel value="0.0075068412" flag="0"/>
      <psa03 value="0.0211975623" flag="0"/>
      <psa10 value="0.0125693894" flag="0"/>
      <psa30 value="0.0014607966" flag="0"/>
    </comp>
  </station>
  <station code="PRGA" name="PRGA" netid="HL" insttype="CMG-5" commtype="DIG" lat="39.2856" lon="20.4016">
    <comp name="00.HNE">
      <acc value="0.0569784644" flag="0"/>
      <vel value="0.0314962102" flag="0"/>
      <psa03 value="0.1459245105" flag="0"/>
      <psa10 value="0.0230191677" flag="0"/>
      <psa30 value="0.0051389711" flag="0"/>
    </comp>
    <comp name="00.HNZ">
      <acc value="0.0236329899" flag="0"/>
      <vel value="0.0115178268" flag="0"/>
      <psa03 value="0.0461733581" flag="0"/>
      <psa10 value="0.0157605558" flag="0"/>
      <psa30 value="0.0017330083" flag="0"/>
    </comp>
    <comp name="00.HNN">
      <acc value="0.0505706800" flag="0"/>
      <vel value="0.0267225991" flag="0"/>
      <psa03 value="0.1847044462" flag="0"/>
      <psa10 value="0.0233265338" flag="0"/>
      <psa30 value="0.0048059857" flag="0"/>
    </comp>
  </station>
  <station code="TETR" name="TETR" netid="HL" insttype="60" commtype="DIG" lat="39.3445" lon="21.2747">
    <comp name="--.HHN">
      <acc value="0.0387069110" flag="0"/>
      <vel value="0.0271255381" flag="0"/>
      <psa03 value="0.1138643827" flag="0"/>
      <psa10 value="0.0307605651" flag="0"/>
      <psa30 value="0.0068922172" flag="0"/>
    </comp>
    <comp name="--.HHE">
      <acc value="0.0578288859" flag="0"/>
      <vel value="0.0250834443" flag="0"/>
      <psa03 value="0.2097447173" flag="0"/>
      <psa10 value="0.0252082577" flag="0"/>
      <psa30 value="0.0054378707" flag="0"/>
    </comp>
    <comp name="--.HHZ">
      <acc value="0.0208669626" flag="0"/>
      <vel value="0.0074121908" flag="0"/>
      <psa03 value="0.0447062127" flag="0"/>
      <psa10 value="0.0117149782" flag="0"/>
      <psa30 value="0.0019184811" flag="0"/>
    </comp>
  </station>
  <station code="AMPL" name="AMPL" netid="HP" insttype="Compact," commtype="DIG" lat="38.9224" lon="21.2135">
    <comp name="--.HHZ">
      <acc value="0.0058050951" flag="0"/>
      <vel value="0.0035482240" flag="0"/>
      <psa03 value="0.0207297040" flag="0"/>
      <psa10 value="0.0071781860" flag="0"/>
      <psa30 value="0.0004620550" flag="0"/>
    </comp>
    <comp name="--.HHE">
      <acc value="0.0085908209" flag="0"/>
      <vel value="0.0049993389" flag="0"/>
      <psa03 value="0.0267876073" flag="0"/>
      <psa10 value="0.0059367649" flag="0"/>
      <psa30 value="0.0014095258" flag="0"/>
    </comp>
    <comp name="--.HHN">
      <acc value="0.0059262739" flag="0"/>
      <vel value="0.0042279707" flag="0"/>
      <psa03 value="0.0172860840" flag="0"/>
      <psa10 value="0.0061198435" flag="0"/>
      <psa30 value="0.0008985008" flag="0"/>
    </comp>
  </station>
  <station code="KSTR" name="KSTR" netid="HP" insttype="Compact," commtype="DIG" lat="39.2492" lon="20.576">
    <comp name="--.HHE">
      <acc value="0.0313449686" flag="0"/>
      <vel value="0.0180471010" flag="0"/>
      <psa03 value="0.0633222179" flag="0"/>
      <psa10 value="0.0369727146" flag="0"/>
      <psa30 value="0.0033190226" flag="0"/>
    </comp>
    <comp name="--.HHZ">
      <acc value="0.0249412559" flag="0"/>
      <vel value="0.0105644768" flag="0"/>
      <psa03 value="0.0381448254" flag="0"/>
      <psa10 value="0.0138703669" flag="0"/>
      <psa30 value="0.0014293328" flag="0"/>
    </comp>
    <comp name="--.HHN">
      <acc value="0.0280349331" flag="0"/>
      <vel value="0.0159443472" flag="0"/>
      <psa03 value="0.0820299846" flag="0"/>
      <psa10 value="0.0214649036" flag="0"/>
      <psa30 value="0.0012861057" flag="0"/>
    </comp>
  </station>
  <station code="PRMD" name="PRMD" netid="HP" insttype="120P," commtype="DIG" lat="39.5299" lon="21.0965">
    <comp name="--.HHE">
      <acc value="0.0458247907" flag="0"/>
      <vel value="0.0280397264" flag="0"/>
      <psa03 value="0.1876471094" flag="0"/>
      <psa10 value="0.0492970899" flag="0"/>
      <psa30 value="0.0023851171" flag="0"/>
    </comp>
    <comp name="--.HHZ">
      <acc value="0.0293807047" flag="0"/>
      <vel value="0.0169236192" flag="0"/>
      <psa03 value="0.0794583699" flag="0"/>
      <psa10 value="0.0252689570" flag="0"/>
      <psa30 value="0.0027955464" flag="0"/>
    </comp>
    <comp name="--.HHN">
      <acc value="0.0416244766" flag="0"/>
      <vel value="0.0406142560" flag="0"/>
      <psa03 value="0.0854961129" flag="0"/>
      <psa10 value="0.0534315629" flag="0"/>
      <psa30 value="0.0097045714" flag="0"/>
    </comp>
  </station>
  <station code="IGT" name="IGT" netid="HT" insttype="Compact," commtype="DIG" lat="39.5315" lon="20.3299">
    <comp name="--.HHE">
      <acc value="0.2841567145" flag="0"/>
      <vel value="0.1696586799" flag="0"/>
      <psa03 value="0.6338472044" flag="0"/>
      <psa10 value="0.1825883896" flag="0"/>
      <psa30 value="0.0114338845" flag="0"/>
    </comp>
    <comp name="--.HHN">
      <acc value="0.3553045360" flag="0"/>
      <vel value="0.1447918309" flag="0"/>
      <psa03 value="0.3414508561" flag="0"/>
      <psa10 value="0.1812735734" flag="0"/>
      <psa30 value="0.0068673091" flag="0"/>
    </comp>
    <comp name="--.HHZ">
      <acc value="0.1998374803" flag="0"/>
      <vel value="0.0696537109" flag="0"/>
      <psa03 value="0.2832301647" flag="0"/>
      <psa10 value="0.1234723358" flag="0"/>
      <psa30 value="0.0067590444" flag="0"/>
    </comp>
  </station>
  <station code="KPRO" name="KPRO" netid="HT" insttype="100" commtype="DIG" lat="39.9549" lon="21.3632">
    <comp name="--.HHE">
      <acc value="0.0117821594" flag="0"/>
      <vel value="0.0068960804" flag="0"/>
      <psa03 value="0.0430564652" flag="0"/>
      <psa10 value="0.0129748642" flag="0"/>
      <psa30 value="0.0015474677" flag="0"/>
    </comp>
    <comp name="--.HHN">
      <acc value="0.0071921007" flag="0"/>
      <vel value="0.0071832628" flag="0"/>
      <psa03 value="0.0223153365" flag="0"/>
      <psa10 value="0.0080127958" flag="0"/>
      <psa30 value="0.0017252901" flag="0"/>
    </comp>
    <comp name="--.HHZ">
      <acc value="0.0046681739" flag="0"/>
      <vel value="0.0052783949" flag="0"/>
      <psa03 value="0.0125757604" flag="0"/>
      <psa10 value="0.0064773725" flag="0"/>
      <psa30 value="0.0011913001" flag="0"/>
    </comp>
  </station>
  <station code="TSLK" name="TSLK" netid="HT" insttype="1s-100Hz," commtype="DIG" lat="38.8249" lon="20.6554">
    <comp name="--.HHN">
      <acc value="0.0076711975" flag="0"/>
      <vel value="0.0074736119" flag="0"/>
      <psa03 value="0.0260813553" flag="0"/>
      <psa10 value="0.0150708694" flag="0"/>
      <psa30 value="0.0007591135" flag="0"/>
    </comp>
    <comp name="--.HHE">
      <acc value="0.0079378026" flag="0"/>
      <vel value="0.0052892818" flag="0"/>
      <psa03 value="0.0229389631" flag="0"/>
      <psa10 value="0.0084423468" flag="0"/>
      <psa30 value="0.0018699280" flag="0"/>
    </comp>
    <comp name="--.HHZ">
      <acc value="0.0053240353" flag="0"/>
      <vel value="0.0031240594" flag="0"/>
      <psa03 value="0.0155330845" flag="0"/>
      <psa10 value="0.0031419962" flag="0"/>
      <psa30 value="0.0015481709" flag="0"/>
    </comp>
  </station>
  <station code="KEK" name="KEK" netid="MN" insttype="" commtype="DIG" lat="39.7127" lon="19.7962">
    <comp name="--.HHE">
      <acc value="0.0089848489" flag="0"/>
      <vel value="0.0078437880" flag="0"/>
      <psa03 value="0.0333368377" flag="0"/>
      <psa10 value="0.0123590436" flag="0"/>
      <psa30 value="0.0018435153" flag="0"/>
    </comp>
    <comp name="--.HHN">
      <acc value="0.0072290480" flag="0"/>
      <vel value="0.0089181044" flag="0"/>
      <psa03 value="0.0283277833" flag="0"/>
      <psa10 value="0.0100021275" flag="0"/>
      <psa30 value="0.0017630378" flag="0"/>
    </comp>
    <comp name="--.HHZ">
      <acc value="0.0077627161" flag="0"/>
      <vel value="0.0075068349" flag="0"/>
      <psa03 value="0.0211975476" flag="0"/>
      <psa10 value="0.0125693807" flag="0"/>
      <psa30 value="0.0014607559" flag="0"/>
    </comp>
  </station>
</stationlist>
