<?xml version="1.0" encoding="UTF-8" standalone="yes"?>
<!DOCTYPE earthquake SYSTEM "stationlist.dtd">
<stationlist created="" xmlns="ch.ethz.sed.shakemap.usgs.xml">
  <station code="MLTY" name="MLTY" netid="KO" insttype="CMG-6T" commtype="DIG" lat="38.3223" lon="38.4407">
    <comp name="--.HHN">
      <acc value="0.7865366080" flag="0"/>
      <vel value="0.1534736459" flag="0"/>
      <psa03 value="0.6234769954" flag="0"/>
      <psa10 value="0.0904991745" flag="0"/>
      <psa30 value="0.0084466879" flag="0"/>
    </comp>
    <comp name="--.HHZ">
      <acc value="0.4871886916" flag="0"/>
      <vel value="0.1237961022" flag="0"/>
      <psa03 value="0.3823727515" flag="0"/>
      <psa10 value="0.1173378696" flag="0"/>
      <psa30 value="0.0076952897" flag="0"/>
    </comp>
    <comp name="--.HHE">
      <acc value="0.6673030840" flag="0"/>
      <vel value="0.1129507437" flag="0"/>
      <psa03 value="0.4006661948" flag="0"/>
      <psa10 value="0.0780499312" flag="0"/>
      <psa30 value="0.0040058596" flag="0"/>
    </comp>
  </station>
  <station code="SVRC" name="SVRC" netid="KO" insttype="CMG-3T" commtype="DIG" lat="38.3775" lon="39.306">
    <comp name="--.HHE">
      <acc value="0.0679041848" flag="0"/>
      <vel value="0.0232373981" flag="0"/>
      <psa03 value="0.1583808036" flag="0"/>
      <psa10 value="0.0224638676" flag="0"/>
      <psa30 value="0.0011683928" flag="0"/>
    </comp>
    <comp name="--.HHZ">
      <acc value="0.0395570518" flag="0"/>
      <vel value="0.0153726206" flag="0"/>
      <psa03 value="0.0715346472" flag="0"/>
      <psa10 value="0.0148547683" flag="0"/>
      <psa30 value="0.0008066810" flag="0"/>
    </comp>
    <comp name="--.HHN">
      <acc value="0.0314793944" flag="0"/>
      <vel value="0.0184790104" flag="0"/>
      <psa03 value="0.1015705616" flag="0"/>
      <psa10 value="0.0155704558" flag="0"/>
      <psa30 value="0.0007251117" flag="0"/>
    </comp>
  </station>
</stationlist>
