<stationlist created="1777299900">
	<station code="ARPRA" name="ARPRA" netid="KO" source="Bogazici University Kandilli Observatory And Earthquake Research Institute (KOERI)" insttype="" lat="39.0929" lon="38.3356">
		<comp name="--.HNE" depth="0.0">
			<acc value="0.0271174191873152" flag="0"/>
			<vel value="0.0111228009751482" flag="0"/>
			<psa03 value="0.0520461665531048" flag="0"/>
			<psa10 value="0.0190729159870791" flag="0"/>
			<psa30 value="0.000879130946443984" flag="0"/>
		</comp>
		<comp name="--.HNN" depth="0.0">
			<acc value="0.0226973482366114" flag="0"/>
			<vel value="0.0109940386361686" flag="0"/>
			<psa03 value="0.0610812650840405" flag="0"/>
			<psa10 value="0.00909532283300015" flag="0"/>
			<psa30 value="0.000706858180052015" flag="0"/>
		</comp>
		<comp name="--.HNZ" depth="0.0">
			<acc value="0.00983386919608031" flag="0"/>
			<vel value="0.00657294933578855" flag="0"/>
			<psa03 value="0.0284343393646011" flag="0"/>
			<psa10 value="0.0113296045932015" flag="0"/>
			<psa30 value="0.000630658965561354" flag="0"/>
		</comp>
	</station>
	<station code="KHMN" name="KHMN" netid="KO" source="Bogazici University Kandilli Observatory And Earthquake Research Institute (KOERI)" insttype="" lat="37.3916" lon="37.1574">
		<comp name="--.HNE" depth="0.0">
			<acc value="0.0155166178632552" flag="0"/>
			<vel value="0.00646706488924707" flag="0"/>
			<psa03 value="0.0292293425504938" flag="0"/>
			<psa10 value="0.00407474055656408" flag="0"/>
			<psa30 value="0.00104319379396912" flag="0"/>
		</comp>
		<comp name="--.HNN" depth="0.0">
			<acc value="0.0114781186976108" flag="0"/>
			<vel value="0.00471238309602496" flag="0"/>
			<psa03 value="0.0150185821469432" flag="0"/>
			<psa10 value="0.00665856656610645" flag="0"/>
			<psa30 value="0.000845471477085998" flag="0"/>
		</comp>
		<comp name="--.HNZ" depth="0.0">
			<acc value="0.00758402713068346" flag="0"/>
			<vel value="0.00298081383957724" flag="0"/>
			<psa03 value="0.0128684566387639" flag="0"/>
			<psa10 value="0.0030471225600401" flag="0"/>
			<psa30 value="0.000463475494643567" flag="0"/>
		</comp>
	</station>
</stationlist>
