<?xml version="1.0" encoding="UTF-8" standalone="yes"?>
<!DOCTYPE earthquake SYSTEM "stationlist.dtd">
<stationlist created="" xmlns="ch.ethz.sed.shakemap.usgs.xml">
  <station code="MLTY" name="MLTY" netid="KO" insttype="CMG-6T" commtype="DIG" lat="38.3223" lon="38.4407">
    <comp name="--.HHE">
      <acc value="0.6673030779" flag="0"/>
      <vel value="0.1129506851" flag="0"/>
      <psa03 value="0.4006661947" flag="0"/>
      <psa10 value="0.0780499676" flag="0"/>
      <psa30 value="0.0040032772" flag="0"/>
    </comp>
    <comp name="--.HHN">
      <acc value="0.7865366033" flag="0"/>
      <vel value="0.1534736318" flag="0"/>
      <psa03 value="0.6234769954" flag="0"/>
      <psa10 value="0.0904991445" flag="0"/>
      <psa30 value="0.0084471294" flag="0"/>
    </comp>
    <comp name="--.HHZ">
      <acc value="0.4871886941" flag="0"/>
      <vel value="0.1237960946" flag="0"/>
      <psa03 value="0.3823727515" flag="0"/>
      <psa10 value="0.1173379875" flag="0"/>
      <psa30 value="0.0076952582" flag="0"/>
    </comp>
  </station>
  <station code="SVRC" name="SVRC" netid="KO" insttype="CMG-3T" commtype="DIG" lat="38.3775" lon="39.306">
    <comp name="--.HHE">
      <acc value="0.0679041849" flag="0"/>
      <vel value="0.0232373902" flag="0"/>
      <psa03 value="0.1583808036" flag="0"/>
      <psa10 value="0.0224638633" flag="0"/>
      <psa30 value="0.0011686368" flag="0"/>
    </comp>
    <comp name="--.HHN">
      <acc value="0.0314793943" flag="0"/>
      <vel value="0.0184790134" flag="0"/>
      <psa03 value="0.1015705616" flag="0"/>
      <psa10 value="0.0155704478" flag="0"/>
      <psa30 value="0.0007243122" flag="0"/>
    </comp>
    <comp name="--.HHZ">
      <acc value="0.0395570518" flag="0"/>
      <vel value="0.0153726177" flag="0"/>
      <psa03 value="0.0715346473" flag="0"/>
      <psa10 value="0.0148547653" flag="0"/>
      <psa30 value="0.0008060643" flag="0"/>
    </comp>
  </station>
</stationlist>
