<stationlist created="1777296301">
	<station code="ARPRA" name="ARPRA" netid="KO" source="Bogazici University Kandilli Observatory And Earthquake Research Institute (KOERI)" insttype="" lat="39.0929" lon="38.3356">
		<comp name="--.HNE" depth="0.0">
			<acc value="0.0152085515416425" flag="0"/>
			<vel value="0.00401609888351616" flag="0"/>
			<psa03 value="0.00842096084211952" flag="0"/>
			<psa10 value="0.000479259336469583" flag="0"/>
			<psa30 value="5.16486591003952e-05" flag="0"/>
		</comp>
		<comp name="--.HNN" depth="0.0">
			<acc value="0.0123415935194915" flag="0"/>
			<vel value="0.00292682944321423" flag="0"/>
			<psa03 value="0.00659192170850338" flag="0"/>
			<psa10 value="0.000346265155164023" flag="0"/>
			<psa30 value="3.7464197313999e-05" flag="0"/>
		</comp>
		<comp name="--.HNZ" depth="0.0">
			<acc value="0.00591013222438835" flag="0"/>
			<vel value="0.00116350894826978" flag="0"/>
			<psa03 value="0.00250230899485688" flag="0"/>
			<psa10 value="0.000114945136523829" flag="0"/>
			<psa30 value="1.24769097046073e-05" flag="0"/>
		</comp>
	</station>
	<station code="KHMN" name="KHMN" netid="KO" source="Bogazici University Kandilli Observatory And Earthquake Research Institute (KOERI)" insttype="" lat="37.3916" lon="37.1574">
		<comp name="--.HNE" depth="0.0">
			<acc value="0.0155166178632552" flag="0"/>
			<vel value="0.00646706488924707" flag="0"/>
			<psa03 value="0.0292293425504938" flag="0"/>
			<psa10 value="0.00407474055656408" flag="0"/>
			<psa30 value="0.00104319379396912" flag="0"/>
		</comp>
		<comp name="--.HNN" depth="0.0">
			<acc value="0.0114781186976108" flag="0"/>
			<vel value="0.00471238309602496" flag="0"/>
			<psa03 value="0.0150185821469432" flag="0"/>
			<psa10 value="0.00665856656610645" flag="0"/>
			<psa30 value="0.000845471477085998" flag="0"/>
		</comp>
		<comp name="--.HNZ" depth="0.0">
			<acc value="0.00758402713068346" flag="0"/>
			<vel value="0.00298081383957724" flag="0"/>
			<psa03 value="0.0128684566387639" flag="0"/>
			<psa10 value="0.0030471225600401" flag="0"/>
			<psa30 value="0.000463475494643567" flag="0"/>
		</comp>
	</station>
</stationlist>
