<?xml version="1.0" encoding="UTF-8" standalone="yes"?>
<!DOCTYPE earthquake SYSTEM "stationlist.dtd">
<stationlist created="" xmlns="ch.ethz.sed.shakemap.usgs.xml">
  <station code="AGRP" name="AGRP" netid="CL" source="RESIF" insttype="30" lat="38.3959" lon="21.7228">
    <comp name="00.HHE">
      <acc value="0.0040607176" flag="0"/>
      <vel value="0.0030203814" flag="0"/>
      <psa03 value="0.0088514065" flag="0"/>
      <psa10 value="0.0055013010" flag="0"/>
      <psa30 value="0.0011801820" flag="0"/>
    </comp>
    <comp name="00.HHN">
      <acc value="0.0036257484" flag="0"/>
      <vel value="0.0035792730" flag="0"/>
      <psa03 value="0.0069983136" flag="0"/>
      <psa10 value="0.0042121076" flag="0"/>
      <psa30 value="0.0012225263" flag="0"/>
    </comp>
    <comp name="00.HHZ">
      <acc value="0.0021655148" flag="0"/>
      <vel value="0.0017241982" flag="0"/>
      <psa03 value="0.0048977802" flag="0"/>
      <psa10 value="0.0028237445" flag="0"/>
      <psa30 value="0.0007314218" flag="0"/>
    </comp>
  </station>
  <station code="MALA" name="MALA" netid="CL" source="RESIF" insttype="30" lat="38.3935" lon="21.8726">
    <comp name="00.HH2">
      <acc value="0.0036121300" flag="0"/>
      <vel value="0.0034145639" flag="0"/>
      <psa03 value="0.0157535703" flag="0"/>
      <psa10 value="0.0039751486" flag="0"/>
      <psa30 value="0.0013369172" flag="0"/>
    </comp>
    <comp name="00.HH3">
      <acc value="0.0031040112" flag="0"/>
      <vel value="0.0036921668" flag="0"/>
      <psa03 value="0.0074380349" flag="0"/>
      <psa10 value="0.0050613230" flag="0"/>
      <psa30 value="0.0028319306" flag="0"/>
    </comp>
    <comp name="00.HHZ">
      <acc value="0.0023650215" flag="0"/>
      <vel value="0.0019468756" flag="0"/>
      <psa03 value="0.0038348574" flag="0"/>
      <psa10 value="0.0036012891" flag="0"/>
      <psa30 value="0.0006506194" flag="0"/>
    </comp>
  </station>
  <station code="ROD3" name="ROD3" netid="CL" source="RESIF" insttype="30" lat="38.3081" lon="21.892">
    <comp name="00.HHE">
      <acc value="0.0112071310" flag="0"/>
      <vel value="0.0069285912" flag="0"/>
      <psa03 value="0.0346131167" flag="0"/>
      <psa10 value="0.0110296920" flag="0"/>
      <psa30 value="0.0013331851" flag="0"/>
    </comp>
    <comp name="00.HHN">
      <acc value="0.0118320095" flag="0"/>
      <vel value="0.0066091607" flag="0"/>
      <psa03 value="0.0338256855" flag="0"/>
      <psa10 value="0.0066921722" flag="0"/>
      <psa30 value="0.0012842567" flag="0"/>
    </comp>
    <comp name="00.HHZ">
      <acc value="0.0066872976" flag="0"/>
      <vel value="0.0037950030" flag="0"/>
      <psa03 value="0.0138820778" flag="0"/>
      <psa10 value="0.0083716901" flag="0"/>
      <psa30 value="0.0005656567" flag="0"/>
    </comp>
  </station>
  <station code="ARG2" name="ARG2" netid="HI" source="NOA" insttype="CMG-5TD,ACCELEROMETER,GURALP" lat="38.1783" lon="20.4878">
    <comp name="--.HNE">
      <acc value="0.0817380173" flag="0"/>
      <vel value="0.0435300936" flag="0"/>
      <psa03 value="0.1163818149" flag="0"/>
      <psa10 value="0.0397140129" flag="0"/>
      <psa30 value="0.0021027741" flag="0"/>
    </comp>
    <comp name="--.HNN">
      <acc value="0.0730574706" flag="0"/>
      <vel value="0.0451694021" flag="0"/>
      <psa03 value="0.1156416532" flag="0"/>
      <psa10 value="0.0273337201" flag="0"/>
      <psa30 value="0.0017670791" flag="0"/>
    </comp>
    <comp name="--.HNZ">
      <acc value="0.0376229235" flag="0"/>
      <vel value="0.0172255484" flag="0"/>
      <psa03 value="0.1137502650" flag="0"/>
      <psa10 value="0.0184664608" flag="0"/>
      <psa30 value="0.0010969582" flag="0"/>
    </comp>
  </station>
  <station code="ITM" name="ITM" netid="HL" source="NOA" insttype="DR24" lat="37.1787" lon="21.9252">
    <comp name="--.HHE">
      <acc value="0.0072115880" flag="0"/>
      <vel value="0.0056234220" flag="0"/>
      <psa03 value="0.0145550213" flag="0"/>
      <psa10 value="0.0067237656" flag="0"/>
      <psa30 value="0.0011988114" flag="0"/>
    </comp>
    <comp name="--.HHN">
      <acc value="0.0098613121" flag="0"/>
      <vel value="0.0057091135" flag="0"/>
      <psa03 value="0.0223480424" flag="0"/>
      <psa10 value="0.0072843473" flag="0"/>
      <psa30 value="0.0008437781" flag="0"/>
    </comp>
    <comp name="--.HHZ">
      <acc value="0.0062485277" flag="0"/>
      <vel value="0.0048595834" flag="0"/>
      <psa03 value="0.0115585360" flag="0"/>
      <psa10 value="0.0048495512" flag="0"/>
      <psa30 value="0.0006613689" flag="0"/>
    </comp>
  </station>
  <station code="VLS" name="VLS" netid="HL" source="NOA" insttype="120P," lat="38.1768" lon="20.5886">
    <comp name="--.HHE">
      <acc value="0.1194031884" flag="0"/>
      <vel value="0.0241962775" flag="0"/>
      <psa03 value="0.0561615608" flag="0"/>
      <psa10 value="0.0105203740" flag="0"/>
      <psa30 value="0.0011187270" flag="0"/>
    </comp>
    <comp name="--.HHN">
      <acc value="0.1141366104" flag="0"/>
      <vel value="0.0264000142" flag="0"/>
      <psa03 value="0.0740363738" flag="0"/>
      <psa10 value="0.0095461952" flag="0"/>
      <psa30 value="0.0007583691" flag="0"/>
    </comp>
    <comp name="--.HHZ">
      <acc value="0.0335774079" flag="0"/>
      <vel value="0.0108859117" flag="0"/>
      <psa03 value="0.0382606136" flag="0"/>
      <psa10 value="0.0099090674" flag="0"/>
      <psa30 value="0.0004758041" flag="0"/>
    </comp>
  </station>
  <station code="AMT" name="AMT" netid="HP" source="NOA" insttype="CMG-3T," lat="37.5324" lon="21.7089">
    <comp name="00.HHE">
      <acc value="0.0203951744" flag="0"/>
      <vel value="0.0126253560" flag="0"/>
      <psa03 value="0.0645009978" flag="0"/>
      <psa10 value="0.0176580471" flag="0"/>
      <psa30 value="0.0016714789" flag="0"/>
    </comp>
    <comp name="00.HHN">
      <acc value="0.0225752764" flag="0"/>
      <vel value="0.0157312162" flag="0"/>
      <psa03 value="0.0541715743" flag="0"/>
      <psa10 value="0.0162877641" flag="0"/>
      <psa30 value="0.0011436838" flag="0"/>
    </comp>
    <comp name="00.HHZ">
      <acc value="0.0165042234" flag="0"/>
      <vel value="0.0068688184" flag="0"/>
      <psa03 value="0.0368679778" flag="0"/>
      <psa10 value="0.0061819920" flag="0"/>
      <psa30 value="0.0008764209" flag="0"/>
    </comp>
  </station>
  <station code="FSK" name="FSK" netid="HP" source="NOA" insttype="40," lat="38.4593" lon="20.5623">
    <comp name="--.HHE">
      <acc value="0.0196569744" flag="0"/>
      <vel value="0.0105251517" flag="0"/>
      <psa03 value="0.0257485173" flag="0"/>
      <psa10 value="0.0119398958" flag="0"/>
      <psa30 value="0.0020552375" flag="0"/>
    </comp>
    <comp name="--.HHN">
      <acc value="0.0099200646" flag="0"/>
      <vel value="0.0080477613" flag="0"/>
      <psa03 value="0.0193615837" flag="0"/>
      <psa10 value="0.0123273707" flag="0"/>
      <psa30 value="0.0008652040" flag="0"/>
    </comp>
    <comp name="--.HHZ">
      <acc value="0.0087860718" flag="0"/>
      <vel value="0.0063498311" flag="0"/>
      <psa03 value="0.0190220209" flag="0"/>
      <psa10 value="0.0079467126" flag="0"/>
      <psa30 value="0.0007368812" flag="0"/>
    </comp>
  </station>
  <station code="LTHK" name="LTHK" netid="HP" source="NOA" insttype="40," lat="37.7095" lon="20.8367">
    <comp name="--.HHE">
      <acc value="0.2616925728" flag="0"/>
      <vel value="0.0561932984" flag="0"/>
      <psa03 value="0.2183330790" flag="0"/>
      <psa10 value="0.0437390905" flag="0"/>
      <psa30 value="0.0048930864" flag="0"/>
    </comp>
    <comp name="--.HHN">
      <acc value="0.2372319515" flag="0"/>
      <vel value="0.0623172589" flag="0"/>
      <psa03 value="0.3096953364" flag="0"/>
      <psa10 value="0.0462919427" flag="0"/>
      <psa30 value="0.0058185253" flag="0"/>
    </comp>
    <comp name="--.HHZ">
      <acc value="0.1284986925" flag="0"/>
      <vel value="0.0313399480" flag="0"/>
      <psa03 value="0.1410181387" flag="0"/>
      <psa10 value="0.0228272153" flag="0"/>
      <psa30 value="0.0029001329" flag="0"/>
    </comp>
  </station>
  <station code="PVO" name="PVO" netid="HP" source="NOA" insttype="120P," lat="38.616" lon="21.525">
    <comp name="--.HHE">
      <acc value="0.0092395701" flag="0"/>
      <vel value="0.0045982001" flag="0"/>
      <psa03 value="0.0169997258" flag="0"/>
      <psa10 value="0.0046880905" flag="0"/>
      <psa30 value="0.0021533771" flag="0"/>
    </comp>
    <comp name="--.HHN">
      <acc value="0.0068731076" flag="0"/>
      <vel value="0.0040135183" flag="0"/>
      <psa03 value="0.0170759027" flag="0"/>
      <psa10 value="0.0042656852" flag="0"/>
      <psa30 value="0.0007899508" flag="0"/>
    </comp>
    <comp name="--.HHZ">
      <acc value="0.0042519970" flag="0"/>
      <vel value="0.0027808837" flag="0"/>
      <psa03 value="0.0090295122" flag="0"/>
      <psa10 value="0.0024431973" flag="0"/>
      <psa30 value="0.0013488362" flag="0"/>
    </comp>
  </station>
  <station code="DMLN" name="DMLN" netid="HT" source="NOA" insttype="1s-100Hz," lat="38.2385" lon="20.3734">
    <comp name="--.HHE">
      <acc value="0.0712536633" flag="0"/>
      <vel value="0.0471822692" flag="0"/>
      <psa03 value="0.1482184058" flag="0"/>
      <psa10 value="0.0493997002" flag="0"/>
      <psa30 value="0.0024924364" flag="0"/>
    </comp>
    <comp name="--.HHN">
      <acc value="0.0685552880" flag="0"/>
      <vel value="0.0462478557" flag="0"/>
      <psa03 value="0.1975723518" flag="0"/>
      <psa10 value="0.0445894738" flag="0"/>
      <psa30 value="0.0023820940" flag="0"/>
    </comp>
    <comp name="--.HHZ">
      <acc value="0.0450184157" flag="0"/>
      <vel value="0.0162491196" flag="0"/>
      <psa03 value="0.0624391444" flag="0"/>
      <psa10 value="0.0188554710" flag="0"/>
      <psa30 value="0.0013256677" flag="0"/>
    </comp>
  </station>
  <station code="DRAG" name="DRAG" netid="HT" source="NOA" insttype="1s-100Hz," lat="38.6839" lon="20.5746">
    <comp name="--.HHE">
      <acc value="0.0002743416" flag="0"/>
      <vel value="0.0001143859" flag="0"/>
      <psa03 value="0.0007748561" flag="0"/>
      <psa10 value="0.0001185347" flag="0"/>
      <psa30 value="0.0000153218" flag="0"/>
    </comp>
    <comp name="--.HHN">
      <acc value="0.0001112751" flag="0"/>
      <vel value="0.0000473859" flag="0"/>
      <psa03 value="0.0001943909" flag="0"/>
      <psa10 value="0.0000347692" flag="0"/>
      <psa30 value="0.0000037217" flag="0"/>
    </comp>
    <comp name="--.HHZ">
      <acc value="0.0002449495" flag="0"/>
      <vel value="0.0000218388" flag="0"/>
      <psa03 value="0.0000767036" flag="0"/>
      <psa10 value="0.0000248036" flag="0"/>
      <psa30 value="0.0000036888" flag="0"/>
    </comp>
  </station>
  <station code="EVGI" name="EVGI" netid="HT" source="NOA" insttype="30" lat="38.621" lon="20.656">
    <comp name="--.HHE">
      <acc value="0.0169586244" flag="0"/>
      <vel value="0.0056045706" flag="0"/>
      <psa03 value="0.0256670298" flag="0"/>
      <psa10 value="0.0065082747" flag="0"/>
      <psa30 value="0.0013721126" flag="0"/>
    </comp>
    <comp name="--.HHN">
      <acc value="nan" flag="0"/>
      <vel value="-100.0000000000" flag="0"/>
      <psa03 value="0.0000000000" flag="0"/>
      <psa10 value="0.0000000000" flag="0"/>
      <psa30 value="0.0000000000" flag="0"/>
    </comp>
    <comp name="--.HHZ">
      <acc value="0.0117407802" flag="0"/>
      <vel value="0.0041085340" flag="0"/>
      <psa03 value="0.0168734281" flag="0"/>
      <psa10 value="0.0038827049" flag="0"/>
      <psa30 value="0.0005193440" flag="0"/>
    </comp>
  </station>
  <station code="NYDR" name="NYDR" netid="HT" source="NOA" insttype="1s-100Hz," lat="38.7135" lon="20.6983">
    <comp name="--.HHE">
      <acc value="0.0052594621" flag="0"/>
      <vel value="0.0038771743" flag="0"/>
      <psa03 value="0.0113467512" flag="0"/>
      <psa10 value="0.0068430661" flag="0"/>
      <psa30 value="0.0008036545" flag="0"/>
    </comp>
    <comp name="--.HHN">
      <acc value="0.0058731366" flag="0"/>
      <vel value="0.0041358461" flag="0"/>
      <psa03 value="0.0121400960" flag="0"/>
      <psa10 value="0.0061490171" flag="0"/>
      <psa30 value="0.0005892056" flag="0"/>
    </comp>
    <comp name="--.HHZ">
      <acc value="0.0047657938" flag="0"/>
      <vel value="0.0029875053" flag="0"/>
      <psa03 value="0.0101297911" flag="0"/>
      <psa10 value="0.0051584052" flag="0"/>
      <psa30 value="0.0005354953" flag="0"/>
    </comp>
  </station>
  <station code="PSDA" name="PSDA" netid="HT" source="NOA" insttype="30" lat="38.114" lon="20.5841">
    <comp name="--.HHE">
      <acc value="0.1177946599" flag="0"/>
      <vel value="0.0342175338" flag="0"/>
      <psa03 value="0.1642111033" flag="0"/>
      <psa10 value="0.0224641869" flag="0"/>
      <psa30 value="0.0009713251" flag="0"/>
    </comp>
    <comp name="--.HHN">
      <acc value="0.1124782197" flag="0"/>
      <vel value="0.0354335756" flag="0"/>
      <psa03 value="0.2323943701" flag="0"/>
      <psa10 value="0.0251080193" flag="0"/>
      <psa30 value="0.0010608866" flag="0"/>
    </comp>
    <comp name="--.HHZ">
      <acc value="0.1123204324" flag="0"/>
      <vel value="0.0245310472" flag="0"/>
      <psa03 value="0.0919131952" flag="0"/>
      <psa10 value="0.0121299934" flag="0"/>
      <psa30 value="0.0007387282" flag="0"/>
    </comp>
  </station>
</stationlist>
