<stationlist xmlns:esm="https://esm-db.eu/esmws/shakemap/1/" created="1783994230">
	<station code="ARG2" name="ARG2" netid="HI" source="ITSAK Strong Motion Network" insttype="" lat="38.1783" lon="20.4878" esm:processing="manual (Paolucci et al 2011)" esm:quality="good">
		<comp name="--.HNE" depth="0.0">
			<acc value="0.0819035384575768" flag="0"/>
			<vel value="0.0434550779153261" flag="0"/>
			<psa03 value="0.11624025279427" flag="0"/>
			<psa10 value="0.0397807433263716" flag="0"/>
			<psa30 value="0.0020916981594042" flag="0"/>
		</comp>
		<comp name="--.HNN" depth="0.0">
			<acc value="0.0724418240865786" flag="0"/>
			<vel value="0.0454011904326341" flag="0"/>
			<psa03 value="0.114629533356012" flag="0"/>
			<psa10 value="0.0274265252349344" flag="0"/>
			<psa30 value="0.00179729443985598" flag="0"/>
		</comp>
		<comp name="--.HNZ" depth="0.0">
			<acc value="0.0376163472009712" flag="0"/>
			<vel value="0.018234131167578" flag="0"/>
			<psa03 value="0.115121697628813" flag="0"/>
			<psa10 value="0.0184467643666473" flag="0"/>
			<psa30 value="0.00135434659433509" flag="0"/>
		</comp>
	</station>
	<station code="MSL1" name="MSL1" netid="HI" source="ITSAK Strong Motion Network" insttype="" lat="38.3727" lon="21.4243" esm:processing="manual (Paolucci et al 2011)" esm:quality="good">
		<comp name="--.HNE" depth="0.0">
			<acc value="0.025235508756823" flag="0"/>
			<vel value="0.0232632624655368" flag="0"/>
			<psa03 value="0.0474714812219863" flag="0"/>
			<psa10 value="0.0415847490972203" flag="0"/>
			<psa30 value="0.00377534739444977" flag="0"/>
		</comp>
		<comp name="--.HNN" depth="0.0">
			<acc value="0.0184721932220605" flag="0"/>
			<vel value="0.0169787997587943" flag="0"/>
			<psa03 value="0.0395968528571705" flag="0"/>
			<psa10 value="0.0302412574532899" flag="0"/>
			<psa30 value="0.00306752568574871" flag="0"/>
		</comp>
		<comp name="--.HNZ" depth="0.0">
			<acc value="0.00754369274554292" flag="0"/>
			<vel value="0.00842852038203539" flag="0"/>
			<psa03 value="0.0162861632090509" flag="0"/>
			<psa10 value="0.0141501702650946" flag="0"/>
			<psa30 value="0.00101520066816859" flag="0"/>
		</comp>
	</station>
	<station code="PYL1" name="PYL1" netid="HI" source="ITSAK Strong Motion Network" insttype="" lat="36.914188" lon="21.695161" esm:processing="manual (Paolucci et al 2011)" esm:quality="best">
		<comp name="--.HNE" depth="0.0">
			<acc value="0.0287820866070198" flag="0"/>
			<vel value="0.011770984351512" flag="0"/>
			<psa03 value="0.0393731418240791" flag="0"/>
			<psa10 value="0.00459055039903468" flag="0"/>
			<psa30 value="0.000887685379306511" flag="0"/>
		</comp>
		<comp name="--.HNN" depth="0.0">
			<acc value="0.0164288485104135" flag="0"/>
			<vel value="0.00497955214122945" flag="0"/>
			<psa03 value="0.0187469845730559" flag="0"/>
			<psa10 value="0.00332210884140668" flag="0"/>
			<psa30 value="0.000836679263761682" flag="0"/>
		</comp>
		<comp name="--.HNZ" depth="0.0">
			<acc value="0.011188495136089" flag="0"/>
			<vel value="0.00372867508563073" flag="0"/>
			<psa03 value="0.0148991548038845" flag="0"/>
			<psa10 value="0.00280265182256854" flag="0"/>
			<psa30 value="0.000639366132575103" flag="0"/>
		</comp>
	</station>
	<station code="ITM" name="ITM" netid="HL" source="National Observatory of Athens Seismic Network" insttype="" lat="37.17872" lon="21.92522" esm:processing="manual (Paolucci et al 2011)" esm:quality="best">
		<comp name="--.HNE" depth="0.0">
			<acc value="0.00723426140073272" flag="0"/>
			<vel value="0.00573571896256332" flag="0"/>
			<psa03 value="0.0145412171509383" flag="0"/>
			<psa10 value="0.00662408368983513" flag="0"/>
			<psa30 value="0.0013230270497023" flag="0"/>
		</comp>
		<comp name="--.HNN" depth="0.0">
			<acc value="0.0096703857191097" flag="0"/>
			<vel value="0.00614911685691744" flag="0"/>
			<psa03 value="0.0216999702098618" flag="0"/>
			<psa10 value="0.007010656355017" flag="0"/>
			<psa30 value="0.000883211158644684" flag="0"/>
		</comp>
		<comp name="--.HNZ" depth="0.0">
			<acc value="0.00612598350696059" flag="0"/>
			<vel value="0.00471725809220633" flag="0"/>
			<psa03 value="0.0110960672413314" flag="0"/>
			<psa10 value="0.00449390723273922" flag="0"/>
			<psa30 value="0.000616100185133602" flag="0"/>
		</comp>
	</station>
	<station code="PATC" name="PATC" netid="HL" source="National Observatory of Athens Seismic Network" insttype="" lat="38.26933" lon="21.76001" esm:processing="manual (Paolucci et al 2011)" esm:quality="bad">
		<comp name="00.HNE" depth="0.0">
			<acc value="0.0129850948183268" flag="0"/>
			<vel value="0.0143212559171743" flag="0"/>
			<psa03 value="0.0310510913930806" flag="0"/>
			<psa10 value="0.0254775547146425" flag="0"/>
			<psa30 value="0.00417623756574948" flag="0"/>
		</comp>
		<comp name="00.HNN" depth="0.0">
			<acc value="0.0138296426015886" flag="0"/>
			<vel value="0.0120650713544959" flag="0"/>
			<psa03 value="0.0330197484842846" flag="0"/>
			<psa10 value="0.0197836615004012" flag="0"/>
			<psa30 value="0.00281562706248784" flag="0"/>
		</comp>
		<comp name="00.HNZ" depth="0.0">
			<acc value="0.00795657094002032" flag="0"/>
			<vel value="0.00804226942882755" flag="0"/>
			<psa03 value="0.0174047183745077" flag="0"/>
			<psa10 value="0.00945089630397754" flag="0"/>
			<psa30 value="0.0015042329865063" flag="0"/>
		</comp>
	</station>
	<station code="SMHA" name="SMHA" netid="HL" source="National Observatory of Athens Seismic Network" insttype="" lat="38.25123" lon="20.6477" esm:processing="automatic (Paolucci et al 2011)" esm:quality="best">
		<comp name="00.HNE" depth="0.0">
			<acc value="0.0673254377414308" flag="0"/>
			<vel value="0.0297588248475145" flag="0"/>
			<psa03 value="0.2217163751218" flag="0"/>
			<psa10 value="0.0228245238876856" flag="0"/>
			<psa30 value="0.00217157656462309" flag="0"/>
		</comp>
		<comp name="00.HNN" depth="0.0">
			<acc value="0.0789402463411937" flag="0"/>
			<vel value="0.0348951488816001" flag="0"/>
			<psa03 value="0.311401420482524" flag="0"/>
			<psa10 value="0.0211362670489548" flag="0"/>
			<psa30 value="0.00117530952515587" flag="0"/>
		</comp>
		<comp name="00.HNZ" depth="0.0">
			<acc value="0.0413144759372846" flag="0"/>
			<vel value="0.0147128633069397" flag="0"/>
			<psa03 value="0.0809652698019882" flag="0"/>
			<psa10 value="0.00875812862054407" flag="0"/>
			<psa30 value="0.000754141260239199" flag="0"/>
		</comp>
	</station>
	<station code="ZARA" name="ZARA" netid="HL" source="National Observatory of Athens Seismic Network" insttype="" lat="37.4865" lon="21.6491" esm:processing="automatic (Paolucci et al 2011)" esm:quality="best">
		<comp name="00.HNE" depth="0.0">
			<acc value="0.0291947093954082" flag="0"/>
			<vel value="0.0229306083387162" flag="0"/>
			<psa03 value="0.0859701325994138" flag="0"/>
			<psa10 value="0.0271865803525061" flag="0"/>
			<psa30 value="0.00285587293756612" flag="0"/>
		</comp>
		<comp name="00.HNN" depth="0.0">
			<acc value="0.0332946069717486" flag="0"/>
			<vel value="0.0165691459812418" flag="0"/>
			<psa03 value="0.0754143239540462" flag="0"/>
			<psa10 value="0.0175054246484691" flag="0"/>
			<psa30 value="0.00275908402577418" flag="0"/>
		</comp>
		<comp name="00.HNZ" depth="0.0">
			<acc value="0.0156492624756944" flag="0"/>
			<vel value="0.00783371849942559" flag="0"/>
			<psa03 value="0.0454102582067886" flag="0"/>
			<psa10 value="0.00981462798345588" flag="0"/>
			<psa30 value="0.00172443517286617" flag="0"/>
		</comp>
	</station>
	<station code="ANX" name="ANX" netid="HP" source="University of Patras, Seismological Laboratory (PSLNET)" insttype="" lat="38.5933" lon="21.9209" esm:processing="automatic (Paolucci et al 2011)" esm:quality="best">
		<comp name="--.HNE" depth="0.0">
			<acc value="0.00744261507638608" flag="0"/>
			<vel value="0.00647669094341347" flag="0"/>
			<psa03 value="0.0159485239593771" flag="0"/>
			<psa10 value="0.00695792358454266" flag="0"/>
			<psa30 value="0.00178664627321215" flag="0"/>
		</comp>
		<comp name="--.HNN" depth="0.0">
			<acc value="0.00688580835820612" flag="0"/>
			<vel value="0.00479138677335044" flag="0"/>
			<psa03 value="0.0158589203673091" flag="0"/>
			<psa10 value="0.00515114201912809" flag="0"/>
			<psa30 value="0.000975244709341022" flag="0"/>
		</comp>
		<comp name="--.HNZ" depth="0.0">
			<acc value="0.00323830313868534" flag="0"/>
			<vel value="0.00271897895072369" flag="0"/>
			<psa03 value="0.0072244238951429" flag="0"/>
			<psa10 value="0.00375247795824817" flag="0"/>
			<psa30 value="0.00074119389212405" flag="0"/>
		</comp>
	</station>
	<station code="FSK" name="FSK" netid="HP" source="University of Patras, Seismological Laboratory (PSLNET)" insttype="" lat="38.4593" lon="20.5623" esm:processing="manual (Paolucci et al 2011)" esm:quality="good">
		<comp name="--.HNE" depth="0.0">
			<acc value="0.0174813618832691" flag="0"/>
			<vel value="0.0093694318327338" flag="0"/>
			<psa03 value="0.0291066052530835" flag="0"/>
			<psa10 value="0.00917636757681668" flag="0"/>
			<psa30 value="0.00199054353040647" flag="0"/>
		</comp>
		<comp name="--.HNN" depth="0.0">
			<acc value="0.0114380675434595" flag="0"/>
			<vel value="0.00772054159742914" flag="0"/>
			<psa03 value="0.020338106414319" flag="0"/>
			<psa10 value="0.0147303279994373" flag="0"/>
			<psa30 value="0.00117623052366622" flag="0"/>
		</comp>
		<comp name="--.HNZ" depth="0.0">
			<acc value="0.00898577145588963" flag="0"/>
			<vel value="0.00641383274632724" flag="0"/>
			<psa03 value="0.0195781237775325" flag="0"/>
			<psa10 value="0.00821197900330666" flag="0"/>
			<psa30 value="0.000838247196429526" flag="0"/>
		</comp>
	</station>
	<station code="ARS1" name="ARS1" netid="HI" source="ITSAK Strong Motion Network" insttype="" lat="37.6349" lon="22.7293" esm:processing="discarded" esm:quality="bad">
		<comp name="--.HNE" depth="0.0">
			<acc value="0" flag="1"/>
			<vel value="0" flag="1"/>
			<psa03 value="0" flag="1"/>
			<psa10 value="0" flag="1"/>
			<psa30 value="0" flag="1"/>
		</comp>
		<comp name="--.HNN" depth="0.0">
			<acc value="0" flag="1"/>
			<vel value="0" flag="1"/>
			<psa03 value="0" flag="1"/>
			<psa10 value="0" flag="1"/>
			<psa30 value="0" flag="1"/>
		</comp>
		<comp name="--.HNZ" depth="0.0">
			<acc value="0" flag="1"/>
			<vel value="0" flag="1"/>
			<psa03 value="0" flag="1"/>
			<psa10 value="0" flag="1"/>
			<psa30 value="0" flag="1"/>
		</comp>
	</station>
	<station code="ART2" name="ART2" netid="HI" source="ITSAK Strong Motion Network" insttype="" lat="39.1474" lon="20.9937" esm:processing="discarded" esm:quality="bad">
		<comp name="--.HNE" depth="0.0">
			<acc value="0" flag="1"/>
			<vel value="0" flag="1"/>
			<psa03 value="0" flag="1"/>
			<psa10 value="0" flag="1"/>
			<psa30 value="0" flag="1"/>
		</comp>
		<comp name="--.HNN" depth="0.0">
			<acc value="0" flag="1"/>
			<vel value="0" flag="1"/>
			<psa03 value="0" flag="1"/>
			<psa10 value="0" flag="1"/>
			<psa30 value="0" flag="1"/>
		</comp>
		<comp name="--.HNZ" depth="0.0">
			<acc value="0" flag="1"/>
			<vel value="0" flag="1"/>
			<psa03 value="0" flag="1"/>
			<psa10 value="0" flag="1"/>
			<psa30 value="0" flag="1"/>
		</comp>
	</station>
	<station code="KLV1" name="KLV1" netid="HI" source="ITSAK Strong Motion Network" insttype="" lat="38.03256" lon="22.10797" esm:processing="discarded" esm:quality="good">
		<comp name="--.HNE" depth="0.0">
			<acc value="0" flag="1"/>
			<vel value="0" flag="1"/>
			<psa03 value="0" flag="1"/>
			<psa10 value="0" flag="1"/>
			<psa30 value="0" flag="1"/>
		</comp>
		<comp name="--.HNN" depth="0.0">
			<acc value="0" flag="1"/>
			<vel value="0" flag="1"/>
			<psa03 value="0" flag="1"/>
			<psa10 value="0" flag="1"/>
			<psa30 value="0" flag="1"/>
		</comp>
		<comp name="--.HNZ" depth="0.0">
			<acc value="0" flag="1"/>
			<vel value="0" flag="1"/>
			<psa03 value="0" flag="1"/>
			<psa10 value="0" flag="1"/>
			<psa30 value="0" flag="1"/>
		</comp>
	</station>
	<station code="LAM2" name="LAM2" netid="HI" source="ITSAK Strong Motion Network" insttype="" lat="38.90203" lon="22.431301" esm:processing="discarded" esm:quality="bad">
		<comp name="--.HNE" depth="0.0">
			<acc value="0" flag="1"/>
			<vel value="0" flag="1"/>
			<psa03 value="0" flag="1"/>
			<psa10 value="0" flag="1"/>
			<psa30 value="0" flag="1"/>
		</comp>
		<comp name="--.HNN" depth="0.0">
			<acc value="0" flag="1"/>
			<vel value="0" flag="1"/>
			<psa03 value="0" flag="1"/>
			<psa10 value="0" flag="1"/>
			<psa30 value="0" flag="1"/>
		</comp>
		<comp name="--.HNZ" depth="0.0">
			<acc value="0" flag="1"/>
			<vel value="0" flag="1"/>
			<psa03 value="0" flag="1"/>
			<psa10 value="0" flag="1"/>
			<psa30 value="0" flag="1"/>
		</comp>
	</station>
	<station code="ARTB" name="ARTB" netid="HL" source="National Observatory of Athens Seismic Network" insttype="" lat="39.15702" lon="20.9785" esm:processing="automatic (Paolucci et al 2011)" esm:quality="bad">
		<comp name="00.HNE" depth="0.0">
			<acc value="0" flag="1"/>
			<vel value="0" flag="1"/>
			<psa03 value="0" flag="1"/>
			<psa10 value="0" flag="1"/>
			<psa30 value="0" flag="1"/>
		</comp>
		<comp name="00.HNN" depth="0.0">
			<acc value="0" flag="1"/>
			<vel value="0" flag="1"/>
			<psa03 value="0" flag="1"/>
			<psa10 value="0" flag="1"/>
			<psa30 value="0" flag="1"/>
		</comp>
		<comp name="00.HNZ" depth="0.0">
			<acc value="0" flag="1"/>
			<vel value="0" flag="1"/>
			<psa03 value="0" flag="1"/>
			<psa10 value="0" flag="1"/>
			<psa30 value="0" flag="1"/>
		</comp>
	</station>
	<station code="DLFA" name="DLFA" netid="HL" source="National Observatory of Athens Seismic Network" insttype="" lat="38.47836" lon="22.49583" esm:processing="discarded" esm:quality="bad">
		<comp name="00.HNE" depth="0.0">
			<acc value="0" flag="1"/>
			<vel value="0" flag="1"/>
			<psa03 value="0" flag="1"/>
			<psa10 value="0" flag="1"/>
			<psa30 value="0" flag="1"/>
		</comp>
		<comp name="00.HNN" depth="0.0">
			<acc value="0" flag="1"/>
			<vel value="0" flag="1"/>
			<psa03 value="0" flag="1"/>
			<psa10 value="0" flag="1"/>
			<psa30 value="0" flag="1"/>
		</comp>
		<comp name="00.HNZ" depth="0.0">
			<acc value="0" flag="1"/>
			<vel value="0" flag="1"/>
			<psa03 value="0" flag="1"/>
			<psa10 value="0" flag="1"/>
			<psa30 value="0" flag="1"/>
		</comp>
	</station>
	<station code="KIAA" name="KIAA" netid="HL" source="National Observatory of Athens Seismic Network" insttype="" lat="38.0139" lon="22.7495" esm:processing="automatic (Paolucci et al 2011)" esm:quality="bad">
		<comp name="00.HNE" depth="0.0">
			<acc value="0" flag="1"/>
			<vel value="0" flag="1"/>
			<psa03 value="0" flag="1"/>
			<psa10 value="0" flag="1"/>
			<psa30 value="0" flag="1"/>
		</comp>
		<comp name="00.HNN" depth="0.0">
			<acc value="0" flag="1"/>
			<vel value="0" flag="1"/>
			<psa03 value="0" flag="1"/>
			<psa10 value="0" flag="1"/>
			<psa30 value="0" flag="1"/>
		</comp>
		<comp name="00.HNZ" depth="0.0">
			<acc value="0" flag="1"/>
			<vel value="0" flag="1"/>
			<psa03 value="0" flag="1"/>
			<psa10 value="0" flag="1"/>
			<psa30 value="0" flag="1"/>
		</comp>
	</station>
	<station code="MNVA" name="MNVA" netid="HL" source="National Observatory of Athens Seismic Network" insttype="" lat="36.68709" lon="23.03734" esm:processing="discarded" esm:quality="bad">
		<comp name="00.HNE" depth="0.0">
			<acc value="0" flag="1"/>
			<vel value="0" flag="1"/>
			<psa03 value="0" flag="1"/>
			<psa10 value="0" flag="1"/>
			<psa30 value="0" flag="1"/>
		</comp>
		<comp name="00.HNN" depth="0.0">
			<acc value="0" flag="1"/>
			<vel value="0" flag="1"/>
			<psa03 value="0" flag="1"/>
			<psa10 value="0" flag="1"/>
			<psa30 value="0" flag="1"/>
		</comp>
		<comp name="00.HNZ" depth="0.0">
			<acc value="0" flag="1"/>
			<vel value="0" flag="1"/>
			<psa03 value="0" flag="1"/>
			<psa10 value="0" flag="1"/>
			<psa30 value="0" flag="1"/>
		</comp>
	</station>
	<station code="NPLA" name="NPLA" netid="HL" source="National Observatory of Athens Seismic Network" insttype="" lat="37.56561" lon="22.79975" esm:processing="automatic (Paolucci et al 2011)" esm:quality="bad">
		<comp name="00.HNE" depth="0.0">
			<acc value="0" flag="1"/>
			<vel value="0" flag="1"/>
			<psa03 value="0" flag="1"/>
			<psa10 value="0" flag="1"/>
			<psa30 value="0" flag="1"/>
		</comp>
		<comp name="00.HNN" depth="0.0">
			<acc value="0" flag="1"/>
			<vel value="0" flag="1"/>
			<psa03 value="0" flag="1"/>
			<psa10 value="0" flag="1"/>
			<psa30 value="0" flag="1"/>
		</comp>
		<comp name="00.HNZ" depth="0.0">
			<acc value="0" flag="1"/>
			<vel value="0" flag="1"/>
			<psa03 value="0" flag="1"/>
			<psa10 value="0" flag="1"/>
			<psa30 value="0" flag="1"/>
		</comp>
	</station>
	<station code="PATG" name="PATG" netid="HL" source="National Observatory of Athens Seismic Network" insttype="" lat="38.23865" lon="21.72657" esm:processing="discarded" esm:quality="bad">
		<comp name="00.HNE" depth="0.0">
			<acc value="0" flag="1"/>
			<vel value="0" flag="1"/>
			<psa03 value="0" flag="1"/>
			<psa10 value="0" flag="1"/>
			<psa30 value="0" flag="1"/>
		</comp>
		<comp name="00.HNN" depth="0.0">
			<acc value="0" flag="1"/>
			<vel value="0" flag="1"/>
			<psa03 value="0" flag="1"/>
			<psa10 value="0" flag="1"/>
			<psa30 value="0" flag="1"/>
		</comp>
		<comp name="00.HNZ" depth="0.0">
			<acc value="0" flag="1"/>
			<vel value="0" flag="1"/>
			<psa03 value="0" flag="1"/>
			<psa10 value="0" flag="1"/>
			<psa30 value="0" flag="1"/>
		</comp>
	</station>
	<station code="PRGA" name="PRGA" netid="HL" source="National Observatory of Athens Seismic Network" insttype="" lat="39.28557" lon="20.40157" esm:processing="discarded" esm:quality="bad">
		<comp name="00.HNE" depth="0.0">
			<acc value="0" flag="1"/>
			<vel value="0" flag="1"/>
			<psa03 value="0" flag="1"/>
			<psa10 value="0" flag="1"/>
			<psa30 value="0" flag="1"/>
		</comp>
		<comp name="00.HNN" depth="0.0">
			<acc value="0" flag="1"/>
			<vel value="0" flag="1"/>
			<psa03 value="0" flag="1"/>
			<psa10 value="0" flag="1"/>
			<psa30 value="0" flag="1"/>
		</comp>
		<comp name="00.HNZ" depth="0.0">
			<acc value="0" flag="1"/>
			<vel value="0" flag="1"/>
			<psa03 value="0" flag="1"/>
			<psa10 value="0" flag="1"/>
			<psa30 value="0" flag="1"/>
		</comp>
	</station>
	<station code="RIOA" name="RIOA" netid="HL" source="National Observatory of Athens Seismic Network" insttype="" lat="38.29585" lon="21.79118" esm:processing="discarded" esm:quality="bad">
		<comp name="00.HNE" depth="0.0">
			<acc value="0" flag="1"/>
			<vel value="0" flag="1"/>
			<psa03 value="0" flag="1"/>
			<psa10 value="0" flag="1"/>
			<psa30 value="0" flag="1"/>
		</comp>
		<comp name="00.HNN" depth="0.0">
			<acc value="0" flag="1"/>
			<vel value="0" flag="1"/>
			<psa03 value="0" flag="1"/>
			<psa10 value="0" flag="1"/>
			<psa30 value="0" flag="1"/>
		</comp>
		<comp name="00.HNZ" depth="0.0">
			<acc value="0" flag="1"/>
			<vel value="0" flag="1"/>
			<psa03 value="0" flag="1"/>
			<psa10 value="0" flag="1"/>
			<psa30 value="0" flag="1"/>
		</comp>
	</station>
</stationlist>
