<stationlist created="1747105318">
	<station code="ERBG" name="ERBG" netid="KO" source="Bogazici University Kandilli Observatory And Earthquake Research Institute (KOERI)" insttype="" lat="40.712" lon="36.6768">
		<comp name=".HNE" depth="0.0">
			<acc value="0.02117906698473" flag="0"/>
			<vel value="0.0155296367961" flag="0"/>
			<psa03 value="0.0654141875357627" flag="0"/>
			<psa10 value="0.0209433261425567" flag="0"/>
			<psa30 value="0.0016776488443336" flag="0"/>
		</comp>
		<comp name=".HNN" depth="0.0">
			<acc value="0.021108360430506" flag="0"/>
			<vel value="0.0134271932036" flag="0"/>
			<psa03 value="0.0447877430097956" flag="0"/>
			<psa10 value="0.0163578486271991" flag="0"/>
			<psa30 value="0.00274976882535701" flag="0"/>
		</comp>
		<comp name=".HNZ" depth="0.0">
			<acc value="0.013803434215656" flag="0"/>
			<vel value="0.00747620564909" flag="0"/>
			<psa03 value="0.0346940509147855" flag="0"/>
			<psa10 value="0.0108876246892126" flag="0"/>
			<psa30 value="0.00130432317584261" flag="0"/>
		</comp>
	</station>
	<station code="KMON" name="KMON" netid="KO" source="Bogazici University Kandilli Observatory And Earthquake Research Institute (KOERI)" insttype="" lat="41.3738" lon="33.7839">
		<comp name=".HNE" depth="0.0">
			<acc value="0.04056137685684" flag="0"/>
			<vel value="0.018061663544" flag="0"/>
			<psa03 value="0.0641038976101932" flag="0"/>
			<psa10 value="0.0385123100015333" flag="0"/>
			<psa30 value="0.00145553496371594" flag="0"/>
		</comp>
		<comp name=".HNN" depth="0.0">
			<acc value="0.02430306524049" flag="0"/>
			<vel value="0.0193160931442" flag="0"/>
			<psa03 value="0.0424686180250041" flag="0"/>
			<psa10 value="0.0327698283403089" flag="0"/>
			<psa30 value="0.00162609094971352" flag="0"/>
		</comp>
		<comp name=".HNZ" depth="0.0">
			<acc value="0.01317986089704" flag="0"/>
			<vel value="0.00857628949726" flag="0"/>
			<psa03 value="0.0257806453412095" flag="0"/>
			<psa10 value="0.0148420957160182" flag="0"/>
			<psa30 value="0.000985885830930684" flag="0"/>
		</comp>
	</station>
	<station code="KOZK" name="KOZK" netid="KO" source="Bogazici University Kandilli Observatory And Earthquake Research Institute (KOERI)" insttype="" lat="39.2101" lon="34.868">
		<comp name=".HNE" depth="0.0">
			<acc value="0.02215993735662" flag="0"/>
			<vel value="0.0194496472142" flag="0"/>
			<psa03 value="0.059083257725938" flag="0"/>
			<psa10 value="0.0296439587667815" flag="0"/>
			<psa30 value="0.002472031676632" flag="0"/>
		</comp>
		<comp name=".HNN" depth="0.0">
			<acc value="0.021804071773896" flag="0"/>
			<vel value="0.0204523141909" flag="0"/>
			<psa03 value="0.0638385727419909" flag="0"/>
			<psa10 value="0.0184271888358295" flag="0"/>
			<psa30 value="0.00235355820334504" flag="0"/>
		</comp>
		<comp name=".HNZ" depth="0.0">
			<acc value="0.0164675016237" flag="0"/>
			<vel value="0.0122522037035" flag="0"/>
			<psa03 value="0.0439212324827619" flag="0"/>
			<psa10 value="0.00653742182210374" flag="0"/>
			<psa30 value="0.000958464431063167" flag="0"/>
		</comp>
	</station>
	<station code="SAFT" name="SAFT" netid="KO" source="Bogazici University Kandilli Observatory And Earthquake Research Institute (KOERI)" insttype="" lat="41.2398" lon="32.6871">
		<comp name=".HNE" depth="0.0">
			<acc value="0.0035071613726214" flag="0"/>
			<vel value="0.00239193221067" flag="0"/>
			<psa03 value="0.00775886294490846" flag="0"/>
			<psa10 value="0.00264307009042238" flag="0"/>
			<psa30 value="0.000549650005365403" flag="0"/>
		</comp>
		<comp name=".HNN" depth="0.0">
			<acc value="0.0049392933701202" flag="0"/>
			<vel value="0.00279076009509" flag="0"/>
			<psa03 value="0.00749346775963057" flag="0"/>
			<psa10 value="0.00237452112849811" flag="0"/>
			<psa30 value="0.000593459470025584" flag="0"/>
		</comp>
		<comp name=".HNZ" depth="0.0">
			<acc value="0.0020166705562158" flag="0"/>
			<vel value="0.00156680742637" flag="0"/>
			<psa03 value="0.00377973248508348" flag="0"/>
			<psa10 value="0.00306279789532968" flag="0"/>
			<psa30 value="0.000431491318557195" flag="0"/>
		</comp>
	</station>
	<station code="SINP" name="SINP" netid="KO" source="Bogazici University Kandilli Observatory And Earthquake Research Institute (KOERI)" insttype="" lat="41.9824" lon="35.0956">
		<comp name=".HNE" depth="0.0">
			<acc value="0.036378727622352" flag="0"/>
			<vel value="0.0423298602246" flag="0"/>
			<psa03 value="0.0744598492663963" flag="0"/>
			<psa10 value="0.0773164943381592" flag="0"/>
			<psa30 value="0.00863194182379984" flag="0"/>
		</comp>
		<comp name=".HNN" depth="0.0">
			<acc value="0.03546931497675" flag="0"/>
			<vel value="0.0331711020903" flag="0"/>
			<psa03 value="0.0904809105827162" flag="0"/>
			<psa10 value="0.0704243852699248" flag="0"/>
			<psa30 value="0.0046513118765884" flag="0"/>
		</comp>
		<comp name=".HNZ" depth="0.0">
			<acc value="0.021856859881938" flag="0"/>
			<vel value="0.0156126108866" flag="0"/>
			<psa03 value="0.0421557379232696" flag="0"/>
			<psa10 value="0.0258172633919842" flag="0"/>
			<psa30 value="0.00267214847505657" flag="0"/>
		</comp>
	</station>
	<station code="TOS" name="TOS" netid="KO" source="Bogazici University Kandilli Observatory And Earthquake Research Institute (KOERI)" insttype="" lat="41.0362" lon="34.0226">
		<comp name=".HNE" depth="0.0">
			<acc value="0.04424519315139" flag="0"/>
			<vel value="0.0191814054592" flag="0"/>
			<psa03 value="0.109062047742007" flag="0"/>
			<psa10 value="0.0163313812488666" flag="0"/>
			<psa30 value="0.00131092871759246" flag="0"/>
		</comp>
		<comp name=".HNN" depth="0.0">
			<acc value="0.038975979033102" flag="0"/>
			<vel value="0.0190865494822" flag="0"/>
			<psa03 value="0.112611491208626" flag="0"/>
			<psa10 value="0.0170587644344243" flag="0"/>
			<psa30 value="0.00146566032197069" flag="0"/>
		</comp>
		<comp name=".HNZ" depth="0.0">
			<acc value="0.030167436664674" flag="0"/>
			<vel value="0.0115556550853" flag="0"/>
			<psa03 value="0.0793915405499475" flag="0"/>
			<psa10 value="0.011765323457422" flag="0"/>
			<psa30 value="0.000841823058315047" flag="0"/>
		</comp>
	</station>
</stationlist>
