<?xml version="1.0" encoding="UTF-8" standalone="yes"?>
<!DOCTYPE earthquake SYSTEM "stationlist.dtd">
<stationlist created="" xmlns="ch.ethz.sed.shakemap.usgs.xml">
  <station code="THERA" name="THERA" netid="GE" insttype="STS-2/N" lat="36.367" lon="25.4753">
    <comp name="--.HHE">
      <acc value="0.2297630513" flag="0"/>
      <vel value="0.0833410523" flag="0"/>
      <psa03 value="0.3774007414" flag="0"/>
      <psa10 value="0.0411939666" flag="0"/>
      <psa30 value="0.0050091729" flag="0"/>
    </comp>
    <comp name="--.HHN">
      <acc value="0.1800723241" flag="0"/>
      <vel value="0.0409424132" flag="0"/>
      <psa03 value="0.3816610958" flag="0"/>
      <psa10 value="0.0356101177" flag="0"/>
      <psa30 value="0.0020616519" flag="0"/>
    </comp>
    <comp name="--.HHZ">
      <acc value="0.1612871364" flag="0"/>
      <vel value="0.0587072262" flag="0"/>
      <psa03 value="0.2416699714" flag="0"/>
      <psa10 value="0.0598388351" flag="0"/>
      <psa30 value="0.0042387246" flag="0"/>
    </comp>
  </station>
</stationlist>
