<?xml version="1.0" encoding="UTF-8" standalone="yes"?>
<!DOCTYPE earthquake SYSTEM "stationlist.dtd">
<stationlist created="" xmlns="ch.ethz.sed.shakemap.usgs.xml">
  <station code="THERA" name="THERA" netid="GE" insttype="STS-2/N" lat="36.367" lon="25.4753">
    <comp name="--.HHE">
      <acc value="0.2297630513" flag="0"/>
      <vel value="0.0833410523" flag="0"/>
      <psa03 value="0.3774007414" flag="0"/>
      <psa10 value="0.0411939666" flag="0"/>
      <psa30 value="0.0050091729" flag="0"/>
    </comp>
    <comp name="--.HHN">
      <acc value="0.1800723241" flag="0"/>
      <vel value="0.0409424132" flag="0"/>
      <psa03 value="0.3816610958" flag="0"/>
      <psa10 value="0.0356101177" flag="0"/>
      <psa30 value="0.0020616519" flag="0"/>
    </comp>
    <comp name="--.HHZ">
      <acc value="0.1612871364" flag="0"/>
      <vel value="0.0587072262" flag="0"/>
      <psa03 value="0.2416699714" flag="0"/>
      <psa10 value="0.0598388351" flag="0"/>
      <psa30 value="0.0042387246" flag="0"/>
    </comp>
  </station>
  <station code="SERI" name="SERI" netid="HA" insttype="30" lat="37.1609" lon="24.4853">
    <comp name="--.HHE">
      <acc value="0.0478444540" flag="0"/>
      <vel value="0.0235425869" flag="0"/>
      <psa03 value="0.0748941745" flag="0"/>
      <psa10 value="0.0077529637" flag="0"/>
      <psa30 value="0.0012554813" flag="0"/>
    </comp>
    <comp name="--.HHZ">
      <acc value="0.0477372195" flag="0"/>
      <vel value="0.0225932918" flag="0"/>
      <psa03 value="0.0552657043" flag="0"/>
      <psa10 value="0.0132402677" flag="0"/>
      <psa30 value="0.0014732257" flag="0"/>
    </comp>
    <comp name="--.HHN">
      <acc value="0.0637995552" flag="0"/>
      <vel value="0.0275168725" flag="0"/>
      <psa03 value="0.0800141054" flag="0"/>
      <psa10 value="0.0149945372" flag="0"/>
      <psa30 value="0.0017829039" flag="0"/>
    </comp>
  </station>
  <station code="SNT1" name="SNT1" netid="HA" insttype="30" lat="36.4159" lon="25.4282">
    <comp name="--.HHN">
      <acc value="0.3170709163" flag="0"/>
      <vel value="0.2177523102" flag="0"/>
      <psa03 value="0.7024675801" flag="0"/>
      <psa10 value="0.1848618733" flag="0"/>
      <psa30 value="0.0099047129" flag="0"/>
    </comp>
    <comp name="--.HHE">
      <acc value="0.2269857577" flag="0"/>
      <vel value="0.1243695959" flag="0"/>
      <psa03 value="0.4251586112" flag="0"/>
      <psa10 value="0.1381739840" flag="0"/>
      <psa30 value="0.0113457647" flag="0"/>
    </comp>
    <comp name="--.HHZ">
      <acc value="0.1873034447" flag="0"/>
      <vel value="0.0657051312" flag="0"/>
      <psa03 value="0.4025425078" flag="0"/>
      <psa10 value="0.0389383518" flag="0"/>
      <psa30 value="0.0046595450" flag="0"/>
    </comp>
  </station>
  <station code="AMGA" name="AMGA" netid="HL" insttype="SMART24" lat="36.8316" lon="25.8938">
    <comp name="--.HHE">
      <acc value="0.7459798500" flag="0"/>
      <vel value="0.1833207574" flag="0"/>
      <psa03 value="0.6950938503" flag="0"/>
      <psa10 value="0.0331998556" flag="0"/>
      <psa30 value="0.0055064313" flag="0"/>
    </comp>
    <comp name="--.HHZ">
      <acc value="1.1021076665" flag="0"/>
      <vel value="0.2676628769" flag="0"/>
      <psa03 value="0.8240948798" flag="0"/>
      <psa10 value="0.0658697947" flag="0"/>
      <psa30 value="0.0067516478" flag="0"/>
    </comp>
    <comp name="--.HHN">
      <acc value="0.9588190177" flag="0"/>
      <vel value="0.2514265909" flag="0"/>
      <psa03 value="0.7564764640" flag="0"/>
      <psa10 value="0.0489751640" flag="0"/>
      <psa30 value="0.0079328979" flag="0"/>
    </comp>
  </station>
  <station code="APE" name="APE" netid="HL" insttype="120" lat="37.0727" lon="25.523">
    <comp name="--.HHN">
      <acc value="0.1634460804" flag="0"/>
      <vel value="0.0325934535" flag="0"/>
      <psa03 value="0.1232184770" flag="0"/>
      <psa10 value="0.0149207681" flag="0"/>
      <psa30 value="0.0028669642" flag="0"/>
    </comp>
    <comp name="--.HHE">
      <acc value="0.1819894523" flag="0"/>
      <vel value="0.0472563087" flag="0"/>
      <psa03 value="0.1135082245" flag="0"/>
      <psa10 value="0.0127843865" flag="0"/>
      <psa30 value="0.0036648765" flag="0"/>
    </comp>
    <comp name="--.HHZ">
      <acc value="0.0678858416" flag="0"/>
      <vel value="0.0167085667" flag="0"/>
      <psa03 value="0.0917220170" flag="0"/>
      <psa10 value="0.0186949480" flag="0"/>
      <psa30 value="0.0031065468" flag="0"/>
    </comp>
  </station>
  <station code="MHLO" name="MHLO" netid="HL" insttype="20" lat="36.6898" lon="24.4017">
    <comp name="--.HHE">
      <acc value="0.1328865510" flag="0"/>
      <vel value="0.0858291194" flag="0"/>
      <psa03 value="0.5076881693" flag="0"/>
      <psa10 value="0.1247786202" flag="0"/>
      <psa30 value="0.0068414977" flag="0"/>
    </comp>
    <comp name="--.HHZ">
      <acc value="0.0569783396" flag="0"/>
      <vel value="0.0318856655" flag="0"/>
      <psa03 value="0.1411009006" flag="0"/>
      <psa10 value="0.0649542917" flag="0"/>
      <psa30 value="0.0040718357" flag="0"/>
    </comp>
    <comp name="--.HHN">
      <acc value="0.1276555681" flag="0"/>
      <vel value="0.0937016834" flag="0"/>
      <psa03 value="0.4515809101" flag="0"/>
      <psa10 value="0.1429679186" flag="0"/>
      <psa30 value="0.0064170689" flag="0"/>
    </comp>
  </station>
  <station code="SAP3" name="SAP3" netid="HL" insttype="LE3D20_SMART24" lat="36.4356" lon="25.3454">
    <comp name="--.HHN">
      <acc value="1.1162584777" flag="0"/>
      <vel value="0.4162176789" flag="0"/>
      <psa03 value="1.9888459420" flag="0"/>
      <psa10 value="0.2065154332" flag="0"/>
      <psa30 value="0.0225569859" flag="0"/>
    </comp>
    <comp name="--.HHE">
      <acc value="1.3494727085" flag="0"/>
      <vel value="0.3686467180" flag="0"/>
      <psa03 value="2.0279029720" flag="0"/>
      <psa10 value="0.2297531631" flag="0"/>
      <psa30 value="0.0252348714" flag="0"/>
    </comp>
    <comp name="--.HHZ">
      <acc value="0.9582743703" flag="0"/>
      <vel value="0.2868067121" flag="0"/>
      <psa03 value="2.1482462191" flag="0"/>
      <psa10 value="0.0861646424" flag="0"/>
      <psa30 value="0.0113694643" flag="0"/>
    </comp>
  </station>
  <station code="THERA" name="THERA" netid="HL" insttype="120" lat="36.367" lon="25.4753">
    <comp name="--.HHE">
      <acc value="0.2292251904" flag="0"/>
      <vel value="0.0814935060" flag="0"/>
      <psa03 value="0.3667553363" flag="0"/>
      <psa10 value="0.0405398528" flag="0"/>
      <psa30 value="0.0050087780" flag="0"/>
    </comp>
    <comp name="--.HHN">
      <acc value="0.1802264436" flag="0"/>
      <vel value="0.0399649434" flag="0"/>
      <psa03 value="0.3702934601" flag="0"/>
      <psa10 value="0.0353844527" flag="0"/>
      <psa30 value="0.0020468357" flag="0"/>
    </comp>
    <comp name="--.HHZ">
      <acc value="0.1556381506" flag="0"/>
      <vel value="0.0578925525" flag="0"/>
      <psa03 value="0.2353690115" flag="0"/>
      <psa10 value="0.0595593934" flag="0"/>
      <psa30 value="0.0042174263" flag="0"/>
    </comp>
  </station>
  <station code="THRA" name="THRA" netid="HL" insttype="CMG-5" lat="36.415" lon="25.4324">
    <comp name="00.HNZ">
      <acc value="0.5080150522" flag="0"/>
      <vel value="0.2538420594" flag="0"/>
      <psa03 value="1.6445019921" flag="0"/>
      <psa10 value="0.1458683957" flag="0"/>
      <psa30 value="0.0109021568" flag="0"/>
    </comp>
    <comp name="00.HNE">
      <acc value="0.9103562491" flag="0"/>
      <vel value="0.4388204125" flag="0"/>
      <psa03 value="2.1948844600" flag="0"/>
      <psa10 value="0.2444561489" flag="0"/>
      <psa30 value="0.0244705456" flag="0"/>
    </comp>
    <comp name="00.HNN">
      <acc value="0.7684639288" flag="0"/>
      <vel value="0.4231693225" flag="0"/>
      <psa03 value="2.3558154643" flag="0"/>
      <psa10 value="0.6736165040" flag="0"/>
      <psa30 value="0.0227285149" flag="0"/>
    </comp>
  </station>
  <station code="TNSA" name="TNSA" netid="HL" insttype="CMG-5" lat="37.5394" lon="25.1631">
    <comp name="00.HNZ">
      <acc value="0.0332730344" flag="0"/>
      <vel value="0.0169999237" flag="0"/>
      <psa03 value="0.0598673102" flag="0"/>
      <psa10 value="0.0212590763" flag="0"/>
      <psa30 value="0.0016668613" flag="0"/>
    </comp>
    <comp name="00.HNE">
      <acc value="0.0610340679" flag="0"/>
      <vel value="0.0183534904" flag="0"/>
      <psa03 value="0.0792830603" flag="0"/>
      <psa10 value="0.0052638080" flag="0"/>
      <psa30 value="0.0011287082" flag="0"/>
    </comp>
    <comp name="00.HNN">
      <acc value="0.0545367617" flag="0"/>
      <vel value="0.0221903738" flag="0"/>
      <psa03 value="0.1034017110" flag="0"/>
      <psa10 value="0.0192380902" flag="0"/>
      <psa30 value="0.0022638043" flag="0"/>
    </comp>
  </station>
  <station code="CMBO" name="CMBO" netid="HT" insttype="120P," lat="36.4709" lon="25.4056">
    <comp name="--.HHE">
      <acc value="1.0113118813" flag="0"/>
      <vel value="0.4234687379" flag="0"/>
      <psa03 value="1.7505254107" flag="0"/>
      <psa10 value="0.3384602683" flag="0"/>
      <psa30 value="0.0241673550" flag="0"/>
    </comp>
    <comp name="--.HHN">
      <acc value="1.5053305039" flag="0"/>
      <vel value="0.9049497219" flag="0"/>
      <psa03 value="2.3697142697" flag="0"/>
      <psa10 value="0.5177228828" flag="0"/>
      <psa30 value="0.0356425961" flag="0"/>
    </comp>
    <comp name="--.HHZ">
      <acc value="1.0670263149" flag="0"/>
      <vel value="0.3409016348" flag="0"/>
      <psa03 value="1.8729084256" flag="0"/>
      <psa10 value="0.1424960254" flag="0"/>
      <psa30 value="0.0161914190" flag="0"/>
    </comp>
  </station>
</stationlist>
