<?xml version="1.0" encoding="UTF-8" standalone="yes"?>
<!DOCTYPE earthquake SYSTEM "stationlist.dtd">
<stationlist created="" xmlns="ch.ethz.sed.shakemap.usgs.xml">
  <station code="KSS1" name="KSS1" netid="HI" insttype="CMG-5TD,ACCELEROMETER,GURALP" lat="35.4189" lon="26.9207">
    <comp name="--.HNN">
      <acc value="0.0259424309" flag="0"/>
      <vel value="0.0123429731" flag="0"/>
      <psa03 value="0.0847074759" flag="0"/>
      <psa10 value="0.0059590590" flag="0"/>
      <psa30 value="0.0006062091" flag="0"/>
    </comp>
    <comp name="--.HNE">
      <acc value="0.0272649486" flag="0"/>
      <vel value="0.0104324455" flag="0"/>
      <psa03 value="0.0944647191" flag="0"/>
      <psa10 value="0.0076290851" flag="0"/>
      <psa30 value="0.0005487749" flag="0"/>
    </comp>
    <comp name="--.HNZ">
      <acc value="0.0191758973" flag="0"/>
      <vel value="0.0071127969" flag="0"/>
      <psa03 value="0.0288263025" flag="0"/>
      <psa10 value="0.0056433568" flag="0"/>
      <psa30 value="0.0003641235" flag="0"/>
    </comp>
  </station>
</stationlist>
