<?xml version="1.0" encoding="UTF-8" standalone="yes"?>
<!DOCTYPE earthquake SYSTEM "stationlist.dtd">
<stationlist created="" xmlns="ch.ethz.sed.shakemap.usgs.xml">
  <station code="KARP" name="KARP" netid="GE" insttype="STS-2/N" lat="35.5471" lon="27.1611">
    <comp name="--.HHE">
      <acc value="0.0225457503" flag="0"/>
      <vel value="0.0063866335" flag="0"/>
      <psa03 value="0.0158151121" flag="0"/>
      <psa10 value="0.0099587539" flag="0"/>
      <psa30 value="0.0004020818" flag="0"/>
    </comp>
    <comp name="--.HHN">
      <acc value="0.0190521687" flag="0"/>
      <vel value="0.0079501874" flag="0"/>
      <psa03 value="0.0140064867" flag="0"/>
      <psa10 value="0.0135686941" flag="0"/>
      <psa30 value="0.0005723260" flag="0"/>
    </comp>
    <comp name="--.HHZ">
      <acc value="0.0133735624" flag="0"/>
      <vel value="0.0041911205" flag="0"/>
      <psa03 value="0.0150934003" flag="0"/>
      <psa10 value="0.0055210218" flag="0"/>
      <psa30 value="0.0003313941" flag="0"/>
    </comp>
  </station>
  <station code="ARG" name="ARG" netid="HL" insttype="LE3D20_DR24" lat="36.2136" lon="28.1212">
    <comp name="--.HHE">
      <acc value="0.0228616546" flag="0"/>
      <vel value="0.0191178223" flag="0"/>
      <psa03 value="0.0442266801" flag="0"/>
      <psa10 value="0.0081382777" flag="0"/>
      <psa30 value="0.0011741755" flag="0"/>
    </comp>
    <comp name="--.HHZ">
      <acc value="0.0092817864" flag="0"/>
      <vel value="0.0045718231" flag="0"/>
      <psa03 value="0.0261099910" flag="0"/>
      <psa10 value="0.0043384823" flag="0"/>
      <psa30 value="0.0004433674" flag="0"/>
    </comp>
    <comp name="--.HHN">
      <acc value="0.0226314794" flag="0"/>
      <vel value="0.0099157558" flag="0"/>
      <psa03 value="0.0658915151" flag="0"/>
      <psa10 value="0.0057229856" flag="0"/>
      <psa30 value="0.0003795716" flag="0"/>
    </comp>
  </station>
  <station code="KARP" name="KARP" netid="HL" insttype="120" lat="35.5471" lon="27.1611">
    <comp name="--.HHN">
      <acc value="0.0156289216" flag="0"/>
      <vel value="0.0078482273" flag="0"/>
      <psa03 value="0.0136601422" flag="0"/>
      <psa10 value="0.0134931476" flag="0"/>
      <psa30 value="0.0005692762" flag="0"/>
    </comp>
    <comp name="--.HHZ">
      <acc value="0.0118522528" flag="0"/>
      <vel value="0.0040734075" flag="0"/>
      <psa03 value="0.0146849181" flag="0"/>
      <psa10 value="0.0054895841" flag="0"/>
      <psa30 value="0.0003300148" flag="0"/>
    </comp>
    <comp name="--.HHE">
      <acc value="0.0170381040" flag="0"/>
      <vel value="0.0061919207" flag="0"/>
      <psa03 value="0.0154240033" flag="0"/>
      <psa10 value="0.0098958190" flag="0"/>
      <psa30 value="0.0003997265" flag="0"/>
    </comp>
  </station>
  <station code="NISR" name="NISR" netid="HL" insttype="65535" lat="36.6106" lon="27.131">
    <comp name="--.HHZ">
      <acc value="0.2523481381" flag="0"/>
      <vel value="0.0470427924" flag="0"/>
      <psa03 value="0.1225528441" flag="0"/>
      <psa10 value="0.0223499690" flag="0"/>
      <psa30 value="0.0010360719" flag="0"/>
    </comp>
    <comp name="--.HHE">
      <acc value="0.6193759484" flag="0"/>
      <vel value="0.1899092582" flag="0"/>
      <psa03 value="0.6049869975" flag="0"/>
      <psa10 value="0.0351567712" flag="0"/>
      <psa30 value="0.0039926544" flag="0"/>
    </comp>
    <comp name="--.HHN">
      <acc value="0.4549481501" flag="0"/>
      <vel value="0.0961493839" flag="0"/>
      <psa03 value="0.2724603759" flag="0"/>
      <psa10 value="0.0290845889" flag="0"/>
      <psa30 value="0.0081272836" flag="0"/>
    </comp>
  </station>
</stationlist>
