<?xml version="1.0" encoding="UTF-8" standalone="yes"?>
<!DOCTYPE earthquake SYSTEM "stationlist.dtd">
<stationlist created="" xmlns="ch.ethz.sed.shakemap.usgs.xml">
  <station code="KAMT" name="KAMT" netid="KO" insttype="120s," lat="39.3692" lon="33.7124">
    <comp name="--.HHE">
      <acc value="0.0059486780" flag="0"/>
      <vel value="0.0043103918" flag="0"/>
      <psa03 value="0.0133408141" flag="0"/>
      <psa10 value="0.0099014832" flag="0"/>
      <psa30 value="0.0006853725" flag="0"/>
    </comp>
    <comp name="--.HHZ">
      <acc value="0.0030500044" flag="0"/>
      <vel value="0.0016083070" flag="0"/>
      <psa03 value="0.0100704227" flag="0"/>
      <psa10 value="0.0020042172" flag="0"/>
      <psa30 value="0.0005867349" flag="0"/>
    </comp>
    <comp name="--.HHN">
      <acc value="0.0053421211" flag="0"/>
      <vel value="0.0030136090" flag="0"/>
      <psa03 value="0.0119241048" flag="0"/>
      <psa10 value="0.0035929135" flag="0"/>
      <psa30 value="0.0007873442" flag="0"/>
    </comp>
  </station>
  <station code="KOZK" name="KOZK" netid="KO" insttype="CMG-5T" lat="39.2101" lon="34.868">
    <comp name="--.HNE">
      <acc value="0.0167362908" flag="0"/>
      <vel value="0.0137786080" flag="0"/>
      <psa03 value="0.0621833652" flag="0"/>
      <psa10 value="0.0231169012" flag="0"/>
      <psa30 value="0.0013471845" flag="0"/>
    </comp>
    <comp name="--.HNN">
      <acc value="0.0134479092" flag="0"/>
      <vel value="0.0098883845" flag="0"/>
      <psa03 value="0.0343753365" flag="0"/>
      <psa10 value="0.0226981306" flag="0"/>
      <psa30 value="0.0011135287" flag="0"/>
    </comp>
    <comp name="--.HNZ">
      <acc value="0.0128210270" flag="0"/>
      <vel value="0.0088704799" flag="0"/>
      <psa03 value="0.0588176645" flag="0"/>
      <psa10 value="0.0087401329" flag="0"/>
      <psa30 value="0.0006605733" flag="0"/>
    </comp>
  </station>
  <station code="TOS" name="TOS" netid="KO" insttype="CMG-5T" lat="41.0362" lon="34.0226">
    <comp name="--.HNE">
      <acc value="0.0033255372" flag="0"/>
      <vel value="0.0029823065" flag="0"/>
      <psa03 value="0.0144849588" flag="0"/>
      <psa10 value="0.0035600452" flag="0"/>
      <psa30 value="0.0002044945" flag="0"/>
    </comp>
    <comp name="--.HNN">
      <acc value="0.0079933540" flag="0"/>
      <vel value="0.0067660459" flag="0"/>
      <psa03 value="0.0196945957" flag="0"/>
      <psa10 value="0.0053008503" flag="0"/>
      <psa30 value="0.0011310139" flag="0"/>
    </comp>
    <comp name="--.HNZ">
      <acc value="0.0073012683" flag="0"/>
      <vel value="0.0034777967" flag="0"/>
      <psa03 value="0.0262635985" flag="0"/>
      <psa10 value="0.0033243547" flag="0"/>
      <psa30 value="0.0005182542" flag="0"/>
    </comp>
  </station>
  <station code="YOZ" name="YOZ" netid="KO" insttype="360s," lat="39.6376" lon="35.3152">
    <comp name="--.HHE">
      <acc value="0.0324425658" flag="0"/>
      <vel value="0.0147959559" flag="0"/>
      <psa03 value="0.0595362628" flag="0"/>
      <psa10 value="0.0165263046" flag="0"/>
      <psa30 value="0.0012730653" flag="0"/>
    </comp>
    <comp name="--.HHN">
      <acc value="0.0241849162" flag="0"/>
      <vel value="0.0149859182" flag="0"/>
      <psa03 value="0.0750693293" flag="0"/>
      <psa10 value="0.0083601716" flag="0"/>
      <psa30 value="0.0008112054" flag="0"/>
    </comp>
    <comp name="--.HHZ">
      <acc value="0.0156015634" flag="0"/>
      <vel value="0.0088936484" flag="0"/>
      <psa03 value="0.0389941352" flag="0"/>
      <psa10 value="0.0060790214" flag="0"/>
      <psa30 value="0.0009609587" flag="0"/>
    </comp>
  </station>
</stationlist>
