<?xml version="1.0" encoding="UTF-8" standalone="yes"?>
<!DOCTYPE earthquake SYSTEM "stationlist.dtd">
<stationlist created="" xmlns="ch.ethz.sed.shakemap.usgs.xml">
  <station code="BODA" name="BODA" netid="KO" insttype="ACEBOX" lat="37.0348" lon="27.4304">
    <comp name="--.HNZ">
      <acc value="0.0934076077" flag="0"/>
      <vel value="0.0211956335" flag="0"/>
      <psa03 value="0.0879507050" flag="0"/>
      <psa10 value="0.0119253162" flag="0"/>
      <psa30 value="0.0008668480" flag="0"/>
    </comp>
    <comp name="--.HNE">
      <acc value="0.2015920784" flag="0"/>
      <vel value="0.0602068053" flag="0"/>
      <psa03 value="0.5681239621" flag="0"/>
      <psa10 value="0.0273410959" flag="0"/>
      <psa30 value="0.0016296474" flag="0"/>
    </comp>
    <comp name="--.HNN">
      <acc value="0.1877103083" flag="0"/>
      <vel value="0.0823710520" flag="0"/>
      <psa03 value="0.7216036995" flag="0"/>
      <psa10 value="0.0253213515" flag="0"/>
      <psa30 value="0.0024369465" flag="0"/>
    </comp>
  </station>
  <station code="DAT" name="DAT" netid="KO" insttype="CMG-3T" lat="36.7308" lon="27.5767">
    <comp name="--.HHZ">
      <acc value="0.0000328156" flag="0"/>
      <vel value="0.0000032934" flag="0"/>
      <psa03 value="0.0000121199" flag="0"/>
      <psa10 value="0.0000041412" flag="0"/>
      <psa30 value="0.0000005951" flag="0"/>
    </comp>
    <comp name="--.HHN">
      <acc value="0.1011370568" flag="0"/>
      <vel value="0.0299573358" flag="0"/>
      <psa03 value="0.2337298091" flag="0"/>
      <psa10 value="0.0192519726" flag="0"/>
      <psa30 value="0.0011949667" flag="0"/>
    </comp>
    <comp name="--.HHE">
      <acc value="0.0748470265" flag="0"/>
      <vel value="0.0194797875" flag="0"/>
      <psa03 value="0.1238409036" flag="0"/>
      <psa10 value="0.0081641102" flag="0"/>
      <psa30 value="0.0007935092" flag="0"/>
    </comp>
  </station>
  <station code="MLSB" name="MLSB" netid="KO" insttype="CMG-3ESP" lat="37.2953" lon="27.7767">
    <comp name="--.HHE">
      <acc value="0.0183476465" flag="0"/>
      <vel value="0.0090502786" flag="0"/>
      <psa03 value="0.0735107250" flag="0"/>
      <psa10 value="0.0093681948" flag="0"/>
      <psa30 value="0.0005664574" flag="0"/>
    </comp>
    <comp name="--.HHZ">
      <acc value="0.0125810678" flag="0"/>
      <vel value="0.0081133159" flag="0"/>
      <psa03 value="0.0422952231" flag="0"/>
      <psa10 value="0.0072302495" flag="0"/>
      <psa30 value="0.0005231031" flag="0"/>
    </comp>
    <comp name="--.HHN">
      <acc value="0.0166589806" flag="0"/>
      <vel value="0.0106886584" flag="0"/>
      <psa03 value="0.0507204062" flag="0"/>
      <psa10 value="0.0070098226" flag="0"/>
      <psa30 value="0.0007187678" flag="0"/>
    </comp>
  </station>
  <station code="YER" name="YER" netid="KO" insttype="CMG-3T" lat="37.1336" lon="28.284">
    <comp name="--.HHE">
      <acc value="0.0090910469" flag="0"/>
      <vel value="0.0036632636" flag="0"/>
      <psa03 value="0.0183275541" flag="0"/>
      <psa10 value="0.0051333655" flag="0"/>
      <psa30 value="0.0004187478" flag="0"/>
    </comp>
    <comp name="--.HHN">
      <acc value="0.0110261838" flag="0"/>
      <vel value="0.0088453367" flag="0"/>
      <psa03 value="0.0338178329" flag="0"/>
      <psa10 value="0.0103234664" flag="0"/>
      <psa30 value="0.0004125233" flag="0"/>
    </comp>
    <comp name="--.HHZ">
      <acc value="0.0090828407" flag="0"/>
      <vel value="0.0052294674" flag="0"/>
      <psa03 value="0.0166185544" flag="0"/>
      <psa10 value="0.0057618392" flag="0"/>
      <psa30 value="0.0004584113" flag="0"/>
    </comp>
  </station>
  <station code="YKAV" name="YKAV" netid="KO" insttype="CMG-5T" lat="37.1246" lon="27.2801">
    <comp name="--.HNE">
      <acc value="0.2036985922" flag="0"/>
      <vel value="0.0515587493" flag="0"/>
      <psa03 value="0.3632102888" flag="0"/>
      <psa10 value="0.0441903980" flag="0"/>
      <psa30 value="0.0022026146" flag="0"/>
    </comp>
    <comp name="--.HNN">
      <acc value="0.1666449188" flag="0"/>
      <vel value="0.0380037631" flag="0"/>
      <psa03 value="0.2050503021" flag="0"/>
      <psa10 value="0.0279373328" flag="0"/>
      <psa30 value="0.0015861219" flag="0"/>
    </comp>
    <comp name="--.HNZ">
      <acc value="0.1675836660" flag="0"/>
      <vel value="0.0336022487" flag="0"/>
      <psa03 value="0.1557335203" flag="0"/>
      <psa10 value="0.0247803117" flag="0"/>
      <psa30 value="0.0015202730" flag="0"/>
    </comp>
  </station>
  <station code="AYDN" name="AYDN" netid="TU" insttype="T" lat="37.6608" lon="27.8792">
    <comp name="--.HHZ">
      <acc value="0.0217090753" flag="0"/>
      <vel value="0.0064368203" flag="0"/>
      <psa03 value="0.0414747059" flag="0"/>
      <psa10 value="0.0116428110" flag="0"/>
      <psa30 value="0.0010092814" flag="0"/>
    </comp>
    <comp name="--.HHE">
      <acc value="0.0236874172" flag="0"/>
      <vel value="0.0097716551" flag="0"/>
      <psa03 value="0.0652555068" flag="0"/>
      <psa10 value="0.0085370585" flag="0"/>
      <psa30 value="0.0005617380" flag="0"/>
    </comp>
    <comp name="--.HHN">
      <acc value="0.0249979637" flag="0"/>
      <vel value="0.0131392968" flag="0"/>
      <psa03 value="0.0990465203" flag="0"/>
      <psa10 value="0.0085215456" flag="0"/>
      <psa30 value="0.0007809912" flag="0"/>
    </comp>
  </station>
</stationlist>
