<?xml version="1.0" encoding="UTF-8" standalone="yes"?>
<!DOCTYPE earthquake SYSTEM "stationlist.dtd">
<stationlist created="" xmlns="ch.ethz.sed.shakemap.usgs.xml">
  <station code="KOSP" name="KOSP" netid="HC" insttype="60" lat="36.881" lon="27.281">
    <comp name="--.HHN">
      <acc value="0.2864353251" flag="0"/>
      <vel value="0.1194964072" flag="0"/>
      <psa03 value="0.8423901278" flag="0"/>
      <psa10 value="0.0925157883" flag="0"/>
      <psa30 value="0.0076470363" flag="0"/>
    </comp>
    <comp name="--.HHZ">
      <acc value="0.3434017168" flag="0"/>
      <vel value="0.1091491048" flag="0"/>
      <psa03 value="0.5679529950" flag="0"/>
      <psa10 value="0.0687590613" flag="0"/>
      <psa30 value="0.0052365450" flag="0"/>
    </comp>
    <comp name="--.HHE">
      <acc value="0.4883242051" flag="0"/>
      <vel value="0.2261839138" flag="0"/>
      <psa03 value="0.8976056711" flag="0"/>
      <psa10 value="0.1622887358" flag="0"/>
      <psa30 value="0.0104768594" flag="0"/>
    </comp>
  </station>
  <station code="KRL1" name="KRL1" netid="HI" insttype="CMG-5TD,ACCELEROMETER,GURALP" lat="37.7951" lon="26.7065">
    <comp name="--.HNZ">
      <acc value="0.0228728836" flag="0"/>
      <vel value="0.0140462563" flag="0"/>
      <psa03 value="0.0577031350" flag="0"/>
      <psa10 value="0.0120647259" flag="0"/>
      <psa30 value="0.0012929603" flag="0"/>
    </comp>
    <comp name="--.HNN">
      <acc value="0.0549998508" flag="0"/>
      <vel value="0.0190248220" flag="0"/>
      <psa03 value="0.0559470422" flag="0"/>
      <psa10 value="0.0121579023" flag="0"/>
      <psa30 value="0.0017142755" flag="0"/>
    </comp>
    <comp name="--.HNE">
      <acc value="0.0770713004" flag="0"/>
      <vel value="0.0257814172" flag="0"/>
      <psa03 value="0.1465510062" flag="0"/>
      <psa10 value="0.0285683605" flag="0"/>
      <psa30 value="0.0011682812" flag="0"/>
    </comp>
  </station>
  <station code="RDI1" name="RDI1" netid="HI" insttype="CMG-5TD,ACCELEROMETER,GURALP" lat="36.4514" lon="28.224">
    <comp name="--.HNE">
      <acc value="0.0090140340" flag="0"/>
      <vel value="0.0061278936" flag="0"/>
      <psa03 value="0.0244322717" flag="0"/>
      <psa10 value="0.0099432086" flag="0"/>
      <psa30 value="0.0007831854" flag="0"/>
    </comp>
    <comp name="--.HNN">
      <acc value="0.0077769491" flag="0"/>
      <vel value="0.0072451284" flag="0"/>
      <psa03 value="0.0224822955" flag="0"/>
      <psa10 value="0.0100124847" flag="0"/>
      <psa30 value="0.0007247524" flag="0"/>
    </comp>
    <comp name="--.HNZ">
      <acc value="0.0072026688" flag="0"/>
      <vel value="0.0045492392" flag="0"/>
      <psa03 value="0.0289839167" flag="0"/>
      <psa10 value="0.0065783472" flag="0"/>
      <psa30 value="0.0006303805" flag="0"/>
    </comp>
  </station>
  <station code="KLNA" name="KLNA" netid="HL" insttype="CMG-5" lat="36.9571" lon="26.9727">
    <comp name="00.HNZ">
      <acc value="7.2707674696" flag="0"/>
      <vel value="1.4544611901" flag="0"/>
      <psa03 value="2.3718011129" flag="0"/>
      <psa10 value="0.2216448882" flag="0"/>
      <psa30 value="0.0168877063" flag="0"/>
    </comp>
    <comp name="00.HNN">
      <acc value="6.1309132067" flag="0"/>
      <vel value="1.6559012655" flag="0"/>
      <psa03 value="6.1548853947" flag="0"/>
      <psa10 value="0.3841752351" flag="0"/>
      <psa30 value="0.0424375500" flag="0"/>
    </comp>
    <comp name="00.HNE">
      <acc value="4.5237453780" flag="0"/>
      <vel value="1.0169310016" flag="0"/>
      <psa03 value="5.1432761248" flag="0"/>
      <psa10 value="0.1981745519" flag="0"/>
      <psa30 value="0.0210025386" flag="0"/>
    </comp>
  </station>
  <station code="NISR" name="NISR" netid="HL" insttype="65535" lat="36.6106" lon="27.131">
    <comp name="--.HHZ">
      <acc value="0.0458505050" flag="0"/>
      <vel value="0.0111042065" flag="0"/>
      <psa03 value="0.0569366753" flag="0"/>
      <psa10 value="0.0081830089" flag="0"/>
      <psa30 value="0.0004745118" flag="0"/>
    </comp>
    <comp name="--.HHN">
      <acc value="0.0783314388" flag="0"/>
      <vel value="0.0246862641" flag="0"/>
      <psa03 value="0.1249982848" flag="0"/>
      <psa10 value="0.0086881395" flag="0"/>
      <psa30 value="0.0011570598" flag="0"/>
    </comp>
    <comp name="--.HHE">
      <acc value="0.1070001724" flag="0"/>
      <vel value="0.0446617979" flag="0"/>
      <psa03 value="0.3326650042" flag="0"/>
      <psa10 value="0.0110013920" flag="0"/>
      <psa30 value="0.0011776095" flag="0"/>
    </comp>
  </station>
  <station code="NISR2" name="NISR2" netid="HL" insttype="120" lat="36.5744" lon="27.1767">
    <comp name="--.HHE">
      <acc value="0.0648892143" flag="0"/>
      <vel value="0.0304235342" flag="0"/>
      <psa03 value="0.2350797311" flag="0"/>
      <psa10 value="0.0298118983" flag="0"/>
      <psa30 value="0.0019440132" flag="0"/>
    </comp>
    <comp name="--.HHN">
      <acc value="0.0634409678" flag="0"/>
      <vel value="0.0340516459" flag="0"/>
      <psa03 value="0.2224146981" flag="0"/>
      <psa10 value="0.0270532813" flag="0"/>
      <psa30 value="0.0018754535" flag="0"/>
    </comp>
    <comp name="--.HHZ">
      <acc value="0.0344468516" flag="0"/>
      <vel value="0.0141149375" flag="0"/>
      <psa03 value="0.0965887856" flag="0"/>
      <psa10 value="0.0059736170" flag="0"/>
      <psa30 value="0.0009820680" flag="0"/>
    </comp>
  </station>
  <station code="SMG" name="SMG" netid="HL" insttype="120" lat="37.7043" lon="26.8377">
    <comp name="--.HHE">
      <acc value="0.0592782478" flag="0"/>
      <vel value="0.0202314339" flag="0"/>
      <psa03 value="0.1221900333" flag="0"/>
      <psa10 value="0.0126672851" flag="0"/>
      <psa30 value="0.0011932561" flag="0"/>
    </comp>
    <comp name="--.HHN">
      <acc value="0.0681367865" flag="0"/>
      <vel value="0.0232693702" flag="0"/>
      <psa03 value="0.1307973751" flag="0"/>
      <psa10 value="0.0105062392" flag="0"/>
      <psa30 value="0.0009006778" flag="0"/>
    </comp>
    <comp name="--.HHZ">
      <acc value="0.0300997651" flag="0"/>
      <vel value="0.0156725568" flag="0"/>
      <psa03 value="0.0585085006" flag="0"/>
      <psa10 value="0.0122282598" flag="0"/>
      <psa30 value="0.0006901354" flag="0"/>
    </comp>
  </station>
  <station code="BODA" name="BODA" netid="KO" insttype="ACEBOX" lat="37.0348" lon="27.4304">
    <comp name="--.HNE">
      <acc value="0.2015920788" flag="0"/>
      <vel value="0.0602068012" flag="0"/>
      <psa03 value="0.5681239622" flag="0"/>
      <psa10 value="0.0273411095" flag="0"/>
      <psa30 value="0.0016322791" flag="0"/>
    </comp>
    <comp name="--.HNZ">
      <acc value="0.0934076113" flag="0"/>
      <vel value="0.0211956339" flag="0"/>
      <psa03 value="0.0879507050" flag="0"/>
      <psa10 value="0.0119253164" flag="0"/>
      <psa30 value="0.0008674187" flag="0"/>
    </comp>
    <comp name="--.HNN">
      <acc value="0.1877103062" flag="0"/>
      <vel value="0.0823710486" flag="0"/>
      <psa03 value="0.7216036995" flag="0"/>
      <psa10 value="0.0253213421" flag="0"/>
      <psa30 value="0.0024365445" flag="0"/>
    </comp>
  </station>
  <station code="DAT" name="DAT" netid="KO" insttype="CMG-3T" lat="36.7308" lon="27.5767">
    <comp name="--.HHZ">
      <acc value="0.0000328153" flag="0"/>
      <vel value="0.0000032934" flag="0"/>
      <psa03 value="0.0000121199" flag="0"/>
      <psa10 value="0.0000030099" flag="0"/>
      <psa30 value="0.0000005951" flag="0"/>
    </comp>
    <comp name="--.HHN">
      <acc value="0.1011370564" flag="0"/>
      <vel value="0.0299573360" flag="0"/>
      <psa03 value="0.2337298091" flag="0"/>
      <psa10 value="0.0192519718" flag="0"/>
      <psa30 value="0.0011949310" flag="0"/>
    </comp>
    <comp name="--.HHE">
      <acc value="0.0748470269" flag="0"/>
      <vel value="0.0194797865" flag="0"/>
      <psa03 value="0.1238409036" flag="0"/>
      <psa10 value="0.0081641055" flag="0"/>
      <psa30 value="0.0007934669" flag="0"/>
    </comp>
  </station>
  <station code="MLSB" name="MLSB" netid="KO" insttype="CMG-3ESP" lat="37.2953" lon="27.7767">
    <comp name="--.HHN">
      <acc value="0.0166589805" flag="0"/>
      <vel value="0.0106886571" flag="0"/>
      <psa03 value="0.0507204062" flag="0"/>
      <psa10 value="0.0070098228" flag="0"/>
      <psa30 value="0.0007189376" flag="0"/>
    </comp>
    <comp name="--.HHE">
      <acc value="0.0183476464" flag="0"/>
      <vel value="0.0090502796" flag="0"/>
      <psa03 value="0.0735107250" flag="0"/>
      <psa10 value="0.0093681944" flag="0"/>
      <psa30 value="0.0005664427" flag="0"/>
    </comp>
    <comp name="--.HHZ">
      <acc value="0.0125810678" flag="0"/>
      <vel value="0.0081133154" flag="0"/>
      <psa03 value="0.0422952231" flag="0"/>
      <psa10 value="0.0072302498" flag="0"/>
      <psa30 value="0.0005232688" flag="0"/>
    </comp>
  </station>
  <station code="YER" name="YER" netid="KO" insttype="CMG-3T" lat="37.1336" lon="28.284">
    <comp name="--.HHN">
      <acc value="0.0110261843" flag="0"/>
      <vel value="0.0088453381" flag="0"/>
      <psa03 value="0.0338178329" flag="0"/>
      <psa10 value="0.0103234664" flag="0"/>
      <psa30 value="0.0004125017" flag="0"/>
    </comp>
    <comp name="--.HHE">
      <acc value="0.0090910471" flag="0"/>
      <vel value="0.0036632644" flag="0"/>
      <psa03 value="0.0183275541" flag="0"/>
      <psa10 value="0.0051333655" flag="0"/>
      <psa30 value="0.0004188132" flag="0"/>
    </comp>
    <comp name="--.HHZ">
      <acc value="0.0090828406" flag="0"/>
      <vel value="0.0052294678" flag="0"/>
      <psa03 value="0.0166185544" flag="0"/>
      <psa10 value="0.0057618391" flag="0"/>
      <psa30 value="0.0004585067" flag="0"/>
    </comp>
  </station>
  <station code="YKAV" name="YKAV" netid="KO" insttype="CMG-5T" lat="37.1246" lon="27.2801">
    <comp name="--.HNN">
      <acc value="0.1666451838" flag="0"/>
      <vel value="0.0380037479" flag="0"/>
      <psa03 value="0.2050503021" flag="0"/>
      <psa10 value="0.0279373095" flag="0"/>
      <psa30 value="0.0015865444" flag="0"/>
    </comp>
    <comp name="--.HNZ">
      <acc value="0.1675837800" flag="0"/>
      <vel value="0.0336022600" flag="0"/>
      <psa03 value="0.1557335203" flag="0"/>
      <psa10 value="0.0247802789" flag="0"/>
      <psa30 value="0.0015257568" flag="0"/>
    </comp>
    <comp name="--.HNE">
      <acc value="0.2036979579" flag="0"/>
      <vel value="0.0515587371" flag="0"/>
      <psa03 value="0.3632102888" flag="0"/>
      <psa10 value="0.0441903296" flag="0"/>
      <psa30 value="0.0022021630" flag="0"/>
    </comp>
  </station>
  <station code="AYDN" name="AYDN" netid="TU" insttype="T" lat="37.6608" lon="27.8792">
    <comp name="--.HHZ">
      <acc value="0.0217090751" flag="0"/>
      <vel value="0.0064368213" flag="0"/>
      <psa03 value="0.0414747059" flag="0"/>
      <psa10 value="0.0116428110" flag="0"/>
      <psa30 value="0.0010091724" flag="0"/>
    </comp>
    <comp name="--.HHE">
      <acc value="0.0236874173" flag="0"/>
      <vel value="0.0097716538" flag="0"/>
      <psa03 value="0.0652555068" flag="0"/>
      <psa10 value="0.0085370584" flag="0"/>
      <psa30 value="0.0005618012" flag="0"/>
    </comp>
    <comp name="--.HHN">
      <acc value="0.0249979635" flag="0"/>
      <vel value="0.0131392982" flag="0"/>
      <psa03 value="0.0990465203" flag="0"/>
      <psa10 value="0.0085215456" flag="0"/>
      <psa30 value="0.0007810543" flag="0"/>
    </comp>
  </station>
</stationlist>
