<?xml version="1.0" encoding="UTF-8" standalone="yes"?>
<!DOCTYPE earthquake SYSTEM "stationlist.dtd">
<stationlist created="" xmlns="ch.ethz.sed.shakemap.usgs.xml">
  <station code="KOSP" name="KOSP" netid="HC" insttype="60" lat="36.881" lon="27.281">
    <comp name="--.HHE">
      <acc value="0.4883242051" flag="0"/>
      <vel value="0.2261839205" flag="0"/>
      <psa03 value="0.8976056711" flag="0"/>
      <psa10 value="0.1622885880" flag="0"/>
      <psa30 value="0.0104712391" flag="0"/>
    </comp>
    <comp name="--.HHN">
      <acc value="0.2864353248" flag="0"/>
      <vel value="0.1194964042" flag="0"/>
      <psa03 value="0.8423901278" flag="0"/>
      <psa10 value="0.0925158246" flag="0"/>
      <psa30 value="0.0076446362" flag="0"/>
    </comp>
    <comp name="--.HHZ">
      <acc value="0.3434017168" flag="0"/>
      <vel value="0.1091491008" flag="0"/>
      <psa03 value="0.5679529950" flag="0"/>
      <psa10 value="0.0687590523" flag="0"/>
      <psa30 value="0.0052424917" flag="0"/>
    </comp>
  </station>
  <station code="KRL1" name="KRL1" netid="HI" insttype="CMG-5TD,ACCELEROMETER,GURALP" lat="37.7951" lon="26.7065">
    <comp name="--.HNE">
      <acc value="0.0770713001" flag="0"/>
      <vel value="0.0257814182" flag="0"/>
      <psa03 value="0.1465510062" flag="0"/>
      <psa10 value="0.0285683604" flag="0"/>
      <psa30 value="0.0011683832" flag="0"/>
    </comp>
    <comp name="--.HNN">
      <acc value="0.0549998506" flag="0"/>
      <vel value="0.0190248204" flag="0"/>
      <psa03 value="0.0559470422" flag="0"/>
      <psa10 value="0.0121579023" flag="0"/>
      <psa30 value="0.0017142690" flag="0"/>
    </comp>
    <comp name="--.HNZ">
      <acc value="0.0228728832" flag="0"/>
      <vel value="0.0140462585" flag="0"/>
      <psa03 value="0.0577031350" flag="0"/>
      <psa10 value="0.0120647259" flag="0"/>
      <psa30 value="0.0012929120" flag="0"/>
    </comp>
  </station>
  <station code="ARG" name="ARG" netid="HL" insttype="LE3D20_DR24" lat="36.2136" lon="28.1212">
    <comp name="--.HHZ">
      <acc value="0.0111297147" flag="0"/>
      <vel value="0.0040645352" flag="0"/>
      <psa03 value="0.0166715662" flag="0"/>
      <psa10 value="0.0024928923" flag="0"/>
      <psa30 value="0.0003125118" flag="0"/>
    </comp>
    <comp name="--.HHE">
      <acc value="0.0122742609" flag="0"/>
      <vel value="0.0045946596" flag="0"/>
      <psa03 value="0.0286347189" flag="0"/>
      <psa10 value="0.0031067929" flag="0"/>
      <psa30 value="0.0002440635" flag="0"/>
    </comp>
    <comp name="--.HHN">
      <acc value="0.0104375642" flag="0"/>
      <vel value="0.0040798382" flag="0"/>
      <psa03 value="0.0249464893" flag="0"/>
      <psa10 value="0.0028306340" flag="0"/>
      <psa30 value="0.0003257342" flag="0"/>
    </comp>
  </station>
  <station code="KLNA" name="KLNA" netid="HL" insttype="CMG-5" lat="36.9571" lon="26.9727">
    <comp name="00.HNZ">
      <acc value="7.2707674681" flag="0"/>
      <vel value="1.4544611919" flag="0"/>
      <psa03 value="2.3718011129" flag="0"/>
      <psa10 value="0.2216448926" flag="0"/>
      <psa30 value="0.0168868209" flag="0"/>
    </comp>
    <comp name="00.HNE">
      <acc value="4.5237453778" flag="0"/>
      <vel value="1.0169310010" flag="0"/>
      <psa03 value="5.1432761249" flag="0"/>
      <psa10 value="0.1981745570" flag="0"/>
      <psa30 value="0.0210044029" flag="0"/>
    </comp>
    <comp name="00.HNN">
      <acc value="6.1309132044" flag="0"/>
      <vel value="1.6559012645" flag="0"/>
      <psa03 value="6.1548853947" flag="0"/>
      <psa10 value="0.3841752182" flag="0"/>
      <psa30 value="0.0424368968" flag="0"/>
    </comp>
  </station>
  <station code="NISR" name="NISR" netid="HL" insttype="65535" lat="36.6106" lon="27.131">
    <comp name="--.HHE">
      <acc value="0.1070001713" flag="0"/>
      <vel value="0.0446618002" flag="0"/>
      <psa03 value="0.3326650042" flag="0"/>
      <psa10 value="0.0110013543" flag="0"/>
      <psa30 value="0.0011798113" flag="0"/>
    </comp>
    <comp name="--.HHN">
      <acc value="0.0783314387" flag="0"/>
      <vel value="0.0246862586" flag="0"/>
      <psa03 value="0.1249982848" flag="0"/>
      <psa10 value="0.0086881415" flag="0"/>
      <psa30 value="0.0011606353" flag="0"/>
    </comp>
    <comp name="--.HHZ">
      <acc value="0.0458505053" flag="0"/>
      <vel value="0.0111041997" flag="0"/>
      <psa03 value="0.0569366752" flag="0"/>
      <psa10 value="0.0081829953" flag="0"/>
      <psa30 value="0.0004745137" flag="0"/>
    </comp>
  </station>
  <station code="NISR2" name="NISR2" netid="HL" insttype="120" lat="36.5744" lon="27.1767">
    <comp name="--.HHZ">
      <acc value="0.0344468519" flag="0"/>
      <vel value="0.0141149364" flag="0"/>
      <psa03 value="0.0965887856" flag="0"/>
      <psa10 value="0.0059736291" flag="0"/>
      <psa30 value="0.0009822586" flag="0"/>
    </comp>
    <comp name="--.HHN">
      <acc value="0.0634409674" flag="0"/>
      <vel value="0.0340516442" flag="0"/>
      <psa03 value="0.2224146981" flag="0"/>
      <psa10 value="0.0270532856" flag="0"/>
      <psa30 value="0.0018789432" flag="0"/>
    </comp>
    <comp name="--.HHE">
      <acc value="0.0648892141" flag="0"/>
      <vel value="0.0304235232" flag="0"/>
      <psa03 value="0.2350797311" flag="0"/>
      <psa10 value="0.0298118561" flag="0"/>
      <psa30 value="0.0019455456" flag="0"/>
    </comp>
  </station>
  <station code="SMG" name="SMG" netid="HL" insttype="120" lat="37.7043" lon="26.8377">
    <comp name="--.HHE">
      <acc value="0.0592782478" flag="0"/>
      <vel value="0.0202314341" flag="0"/>
      <psa03 value="0.1221900333" flag="0"/>
      <psa10 value="0.0126672851" flag="0"/>
      <psa30 value="0.0011932195" flag="0"/>
    </comp>
    <comp name="--.HHN">
      <acc value="0.0681367864" flag="0"/>
      <vel value="0.0232693706" flag="0"/>
      <psa03 value="0.1307973751" flag="0"/>
      <psa10 value="0.0105062390" flag="0"/>
      <psa30 value="0.0009005915" flag="0"/>
    </comp>
    <comp name="--.HHZ">
      <acc value="0.0300997650" flag="0"/>
      <vel value="0.0156725571" flag="0"/>
      <psa03 value="0.0585085006" flag="0"/>
      <psa10 value="0.0122282600" flag="0"/>
      <psa30 value="0.0006901451" flag="0"/>
    </comp>
  </station>
  <station code="BODA" name="BODA" netid="KO" insttype="ACEBOX" lat="37.0348" lon="27.4304">
    <comp name="--.HNZ">
      <acc value="0.0934076077" flag="0"/>
      <vel value="0.0211956335" flag="0"/>
      <psa03 value="0.0879507050" flag="0"/>
      <psa10 value="0.0119253162" flag="0"/>
      <psa30 value="0.0008668480" flag="0"/>
    </comp>
    <comp name="--.HNE">
      <acc value="0.2015920784" flag="0"/>
      <vel value="0.0602068053" flag="0"/>
      <psa03 value="0.5681239621" flag="0"/>
      <psa10 value="0.0273410959" flag="0"/>
      <psa30 value="0.0016296474" flag="0"/>
    </comp>
    <comp name="--.HNN">
      <acc value="0.1877103083" flag="0"/>
      <vel value="0.0823710520" flag="0"/>
      <psa03 value="0.7216036995" flag="0"/>
      <psa10 value="0.0253213515" flag="0"/>
      <psa30 value="0.0024369465" flag="0"/>
    </comp>
  </station>
  <station code="DAT" name="DAT" netid="KO" insttype="CMG-3T" lat="36.7308" lon="27.5767">
    <comp name="--.HHZ">
      <acc value="0.0000328156" flag="0"/>
      <vel value="0.0000032934" flag="0"/>
      <psa03 value="0.0000121199" flag="0"/>
      <psa10 value="0.0000041412" flag="0"/>
      <psa30 value="0.0000005951" flag="0"/>
    </comp>
    <comp name="--.HHN">
      <acc value="0.1011370568" flag="0"/>
      <vel value="0.0299573358" flag="0"/>
      <psa03 value="0.2337298091" flag="0"/>
      <psa10 value="0.0192519726" flag="0"/>
      <psa30 value="0.0011949667" flag="0"/>
    </comp>
    <comp name="--.HHE">
      <acc value="0.0748470265" flag="0"/>
      <vel value="0.0194797875" flag="0"/>
      <psa03 value="0.1238409036" flag="0"/>
      <psa10 value="0.0081641102" flag="0"/>
      <psa30 value="0.0007935092" flag="0"/>
    </comp>
  </station>
  <station code="MLSB" name="MLSB" netid="KO" insttype="CMG-3ESP" lat="37.2953" lon="27.7767">
    <comp name="--.HHE">
      <acc value="0.0183476465" flag="0"/>
      <vel value="0.0090502786" flag="0"/>
      <psa03 value="0.0735107250" flag="0"/>
      <psa10 value="0.0093681948" flag="0"/>
      <psa30 value="0.0005664574" flag="0"/>
    </comp>
    <comp name="--.HHZ">
      <acc value="0.0125810678" flag="0"/>
      <vel value="0.0081133159" flag="0"/>
      <psa03 value="0.0422952231" flag="0"/>
      <psa10 value="0.0072302495" flag="0"/>
      <psa30 value="0.0005231031" flag="0"/>
    </comp>
    <comp name="--.HHN">
      <acc value="0.0166589806" flag="0"/>
      <vel value="0.0106886584" flag="0"/>
      <psa03 value="0.0507204062" flag="0"/>
      <psa10 value="0.0070098226" flag="0"/>
      <psa30 value="0.0007187678" flag="0"/>
    </comp>
  </station>
  <station code="YER" name="YER" netid="KO" insttype="CMG-3T" lat="37.1336" lon="28.284">
    <comp name="--.HHE">
      <acc value="0.0090910469" flag="0"/>
      <vel value="0.0036632636" flag="0"/>
      <psa03 value="0.0183275541" flag="0"/>
      <psa10 value="0.0051333655" flag="0"/>
      <psa30 value="0.0004187478" flag="0"/>
    </comp>
    <comp name="--.HHN">
      <acc value="0.0110261838" flag="0"/>
      <vel value="0.0088453367" flag="0"/>
      <psa03 value="0.0338178329" flag="0"/>
      <psa10 value="0.0103234664" flag="0"/>
      <psa30 value="0.0004125233" flag="0"/>
    </comp>
    <comp name="--.HHZ">
      <acc value="0.0090828407" flag="0"/>
      <vel value="0.0052294674" flag="0"/>
      <psa03 value="0.0166185544" flag="0"/>
      <psa10 value="0.0057618392" flag="0"/>
      <psa30 value="0.0004584113" flag="0"/>
    </comp>
  </station>
  <station code="YKAV" name="YKAV" netid="KO" insttype="CMG-5T" lat="37.1246" lon="27.2801">
    <comp name="--.HNE">
      <acc value="0.2036985922" flag="0"/>
      <vel value="0.0515587493" flag="0"/>
      <psa03 value="0.3632102888" flag="0"/>
      <psa10 value="0.0441903980" flag="0"/>
      <psa30 value="0.0022026146" flag="0"/>
    </comp>
    <comp name="--.HNN">
      <acc value="0.1666449188" flag="0"/>
      <vel value="0.0380037631" flag="0"/>
      <psa03 value="0.2050503021" flag="0"/>
      <psa10 value="0.0279373328" flag="0"/>
      <psa30 value="0.0015861219" flag="0"/>
    </comp>
    <comp name="--.HNZ">
      <acc value="0.1675836660" flag="0"/>
      <vel value="0.0336022487" flag="0"/>
      <psa03 value="0.1557335203" flag="0"/>
      <psa10 value="0.0247803117" flag="0"/>
      <psa30 value="0.0015202730" flag="0"/>
    </comp>
  </station>
  <station code="AYDN" name="AYDN" netid="TU" insttype="T" lat="37.6608" lon="27.8792">
    <comp name="--.HHZ">
      <acc value="0.0217090753" flag="0"/>
      <vel value="0.0064368203" flag="0"/>
      <psa03 value="0.0414747059" flag="0"/>
      <psa10 value="0.0116428110" flag="0"/>
      <psa30 value="0.0010092814" flag="0"/>
    </comp>
    <comp name="--.HHE">
      <acc value="0.0236874172" flag="0"/>
      <vel value="0.0097716551" flag="0"/>
      <psa03 value="0.0652555068" flag="0"/>
      <psa10 value="0.0085370585" flag="0"/>
      <psa30 value="0.0005617380" flag="0"/>
    </comp>
    <comp name="--.HHN">
      <acc value="0.0249979637" flag="0"/>
      <vel value="0.0131392968" flag="0"/>
      <psa03 value="0.0990465203" flag="0"/>
      <psa10 value="0.0085215456" flag="0"/>
      <psa30 value="0.0007809912" flag="0"/>
    </comp>
  </station>
</stationlist>
