<?xml version="1.0" encoding="UTF-8" standalone="yes"?>
<!DOCTYPE earthquake SYSTEM "stationlist.dtd">
<stationlist created="" xmlns="ch.ethz.sed.shakemap.usgs.xml">
  <station code="KOZAM" name="KOZAM" netid="BS" insttype="200" lat="43.8274" lon="23.2364">
    <comp name="--.HNE">
      <acc value="0.2424002539" flag="0"/>
      <vel value="0.0938327009" flag="0"/>
      <psa03 value="0.5687766536" flag="0"/>
      <psa10 value="0.1905116302" flag="0"/>
      <psa30 value="0.0159014160" flag="0"/>
    </comp>
    <comp name="--.HNN">
      <acc value="0.2180374423" flag="0"/>
      <vel value="0.0950015570" flag="0"/>
      <psa03 value="0.4109646605" flag="0"/>
      <psa10 value="0.1222278273" flag="0"/>
      <psa30 value="0.0328520787" flag="0"/>
    </comp>
    <comp name="--.HNZ">
      <acc value="0.0957481284" flag="0"/>
      <vel value="0.2206656224" flag="0"/>
      <psa03 value="0.1814844313" flag="0"/>
      <psa10 value="0.0903721972" flag="0"/>
      <psa30 value="0.0656001126" flag="0"/>
    </comp>
  </station>
  <station code="PLVAM" name="PLVAM" netid="BS" insttype="200" lat="43.9523" lon="22.8502">
    <comp name="--.HNZ">
      <acc value="0.3693488346" flag="0"/>
      <vel value="0.0948595535" flag="0"/>
      <psa03 value="0.5127879719" flag="0"/>
      <psa10 value="0.0734381267" flag="0"/>
      <psa30 value="0.0096816335" flag="0"/>
    </comp>
    <comp name="--.HNN">
      <acc value="0.3944896250" flag="0"/>
      <vel value="0.2367006148" flag="0"/>
      <psa03 value="0.9484355240" flag="0"/>
      <psa10 value="0.2761859038" flag="0"/>
      <psa30 value="0.0274529161" flag="0"/>
    </comp>
    <comp name="--.HNE">
      <acc value="0.5688073982" flag="0"/>
      <vel value="0.2729798819" flag="0"/>
      <psa03 value="1.2507752497" flag="0"/>
      <psa10 value="0.2040024747" flag="0"/>
      <psa30 value="0.0244426983" flag="0"/>
    </comp>
  </station>
  <station code="BZS" name="BZS" netid="MN" insttype="" lat="45.6188" lon="21.6401">
    <comp name="--.HHE">
      <acc value="0.6518109197" flag="0"/>
      <vel value="0.3427405854" flag="0"/>
      <psa03 value="1.9147435111" flag="0"/>
      <psa10 value="0.1812869209" flag="0"/>
      <psa30 value="0.0100102506" flag="0"/>
    </comp>
    <comp name="--.HHN">
      <acc value="0.3893844265" flag="0"/>
      <vel value="0.1962021772" flag="0"/>
      <psa03 value="1.1515331621" flag="0"/>
      <psa10 value="0.1128889904" flag="0"/>
      <psa30 value="0.0167186033" flag="0"/>
    </comp>
    <comp name="--.HHZ">
      <acc value="0.3225994086" flag="0"/>
      <vel value="0.1717117899" flag="0"/>
      <psa03 value="0.8263712199" flag="0"/>
      <psa10 value="0.0837573839" flag="0"/>
      <psa30 value="0.0116981461" flag="0"/>
    </comp>
  </station>
  <station code="ARR" name="ARR" netid="RO" insttype="w/attenuator" lat="45.3657" lon="24.6332">
    <comp name="--.HHE">
      <acc value="0.0414347137" flag="0"/>
      <vel value="0.0238506601" flag="0"/>
      <psa03 value="0.1097407816" flag="0"/>
      <psa10 value="0.0190801144" flag="0"/>
      <psa30 value="0.0018304959" flag="0"/>
    </comp>
    <comp name="--.HHN">
      <acc value="0.0556078777" flag="0"/>
      <vel value="0.0287910420" flag="0"/>
      <psa03 value="0.2254874185" flag="0"/>
      <psa10 value="0.0256195400" flag="0"/>
      <psa30 value="0.0030698990" flag="0"/>
    </comp>
    <comp name="--.HHZ">
      <acc value="0.0303100169" flag="0"/>
      <vel value="0.0136123965" flag="0"/>
      <psa03 value="0.1118245078" flag="0"/>
      <psa10 value="0.0124735247" flag="0"/>
      <psa30 value="0.0015645749" flag="0"/>
    </comp>
  </station>
  <station code="BAIL" name="BAIL" netid="RO" insttype="Seismometer/Basalt" lat="44.0201" lon="23.345">
    <comp name="--.HHE">
      <acc value="0.1702668642" flag="0"/>
      <vel value="0.0909659239" flag="0"/>
      <psa03 value="0.5645408453" flag="0"/>
      <psa10 value="0.1891967713" flag="0"/>
      <psa30 value="0.0173622369" flag="0"/>
    </comp>
    <comp name="--.HHZ">
      <acc value="0.1198086672" flag="0"/>
      <vel value="0.0265343482" flag="0"/>
      <psa03 value="0.1431766552" flag="0"/>
      <psa10 value="0.0379241726" flag="0"/>
      <psa30 value="0.0096862718" flag="0"/>
    </comp>
    <comp name="--.HHN">
      <acc value="0.1836199416" flag="0"/>
      <vel value="0.0758411646" flag="0"/>
      <psa03 value="0.3608305904" flag="0"/>
      <psa10 value="0.1351313859" flag="0"/>
      <psa30 value="0.0165648172" flag="0"/>
    </comp>
  </station>
  <station code="BANR" name="BANR" netid="RO" insttype="330" lat="45.3828" lon="21.137">
    <comp name="--.HHZ">
      <acc value="0.4761693199" flag="0"/>
      <vel value="0.2880224037" flag="0"/>
      <psa03 value="1.4725089330" flag="0"/>
      <psa10 value="0.5326669791" flag="0"/>
      <psa30 value="0.1485481055" flag="0"/>
    </comp>
    <comp name="--.HHE">
      <acc value="1.9072917838" flag="0"/>
      <vel value="1.3207903675" flag="0"/>
      <psa03 value="4.4629893977" flag="0"/>
      <psa10 value="2.1647868059" flag="0"/>
      <psa30 value="0.2904059836" flag="0"/>
    </comp>
    <comp name="--.HHN">
      <acc value="1.2548227053" flag="0"/>
      <vel value="1.0578412858" flag="0"/>
      <psa03 value="3.7198417786" flag="0"/>
      <psa10 value="1.0363443785" flag="0"/>
      <psa30 value="0.2249514699" flag="0"/>
    </comp>
  </station>
  <station code="BZS" name="BZS" netid="RO" insttype="w/attenuator" lat="45.6188" lon="21.6401">
    <comp name="--.HHE">
      <acc value="0.4847767259" flag="0"/>
      <vel value="0.2574951005" flag="0"/>
      <psa03 value="1.4367704766" flag="0"/>
      <psa10 value="0.1357419237" flag="0"/>
      <psa30 value="0.0075119318" flag="0"/>
    </comp>
    <comp name="--.HHN">
      <acc value="0.2923266426" flag="0"/>
      <vel value="0.1480026881" flag="0"/>
      <psa03 value="0.8589644910" flag="0"/>
      <psa10 value="0.0848602104" flag="0"/>
      <psa30 value="0.0127223043" flag="0"/>
    </comp>
    <comp name="--.HHZ">
      <acc value="0.2404527544" flag="0"/>
      <vel value="0.1275493449" flag="0"/>
      <psa03 value="0.6218284987" flag="0"/>
      <psa10 value="0.0634366706" flag="0"/>
      <psa30 value="0.0089593464" flag="0"/>
    </comp>
  </station>
  <station code="CJR" name="CJR" netid="RO" insttype="w/attenuator" lat="46.7133" lon="23.5981">
    <comp name="--.HHE">
      <acc value="0.1648745476" flag="0"/>
      <vel value="0.1054213044" flag="0"/>
      <psa03 value="0.3934190183" flag="0"/>
      <psa10 value="0.0742197392" flag="0"/>
      <psa30 value="0.0149428493" flag="0"/>
    </comp>
    <comp name="--.HHN">
      <acc value="0.1342052586" flag="0"/>
      <vel value="0.0751975175" flag="0"/>
      <psa03 value="0.3786390125" flag="0"/>
      <psa10 value="0.0800802681" flag="0"/>
      <psa30 value="0.0158841125" flag="0"/>
    </comp>
    <comp name="--.HHZ">
      <acc value="0.0911143850" flag="0"/>
      <vel value="0.0483256785" flag="0"/>
      <psa03 value="0.2608090546" flag="0"/>
      <psa10 value="0.0413250644" flag="0"/>
      <psa30 value="0.0041486833" flag="0"/>
    </comp>
  </station>
  <station code="CRAR" name="CRAR" netid="RO" insttype="MBB2/Quanterra" lat="44.325" lon="23.7999">
    <comp name="--.HHE">
      <acc value="0.2638979972" flag="0"/>
      <vel value="0.1876916567" flag="0"/>
      <psa03 value="0.5369819154" flag="0"/>
      <psa10 value="0.1377685236" flag="0"/>
      <psa30 value="0.0245272690" flag="0"/>
    </comp>
    <comp name="--.HHZ">
      <acc value="0.5528603764" flag="0"/>
      <vel value="0.0932548699" flag="0"/>
      <psa03 value="0.2770476938" flag="0"/>
      <psa10 value="0.0503255705" flag="0"/>
      <psa30 value="0.0078288163" flag="0"/>
    </comp>
    <comp name="--.HHN">
      <acc value="0.2932154430" flag="0"/>
      <vel value="0.1118618150" flag="0"/>
      <psa03 value="0.5307859898" flag="0"/>
      <psa10 value="0.0916907364" flag="0"/>
      <psa30 value="0.0253658163" flag="0"/>
    </comp>
  </station>
  <station code="CRBR" name="CRBR" netid="RO" insttype="200" lat="45.4108" lon="22.2383">
    <comp name="--.HNE">
      <acc value="0.5247182658" flag="0"/>
      <vel value="0.2336224224" flag="0"/>
      <psa03 value="0.8736430404" flag="0"/>
      <psa10 value="0.2836424843" flag="0"/>
      <psa30 value="0.0319680666" flag="0"/>
    </comp>
    <comp name="--.HNN">
      <acc value="0.6310913935" flag="0"/>
      <vel value="0.2022302150" flag="0"/>
      <psa03 value="0.9173711686" flag="0"/>
      <psa10 value="0.2599545102" flag="0"/>
      <psa30 value="0.0287922637" flag="0"/>
    </comp>
    <comp name="--.HNZ">
      <acc value="0.3604271818" flag="0"/>
      <vel value="0.1195366548" flag="0"/>
      <psa03 value="0.4505826739" flag="0"/>
      <psa10 value="0.2598287579" flag="0"/>
      <psa30 value="0.0167310939" flag="0"/>
    </comp>
  </station>
  <station code="DEV" name="DEV" netid="RO" insttype="CMG40T.1to100/Quanterra" lat="45.887" lon="22.898">
    <comp name="--.HHE">
      <acc value="0.6274534798" flag="0"/>
      <vel value="0.1599188265" flag="0"/>
      <psa03 value="0.6944888630" flag="0"/>
      <psa10 value="0.1397415013" flag="0"/>
      <psa30 value="0.0055270819" flag="0"/>
    </comp>
    <comp name="--.HHZ">
      <acc value="0.5972995398" flag="0"/>
      <vel value="0.1611669589" flag="0"/>
      <psa03 value="0.7817369026" flag="0"/>
      <psa10 value="0.0763844501" flag="0"/>
      <psa30 value="0.0063276402" flag="0"/>
    </comp>
    <comp name="--.HHN">
      <acc value="0.6718399262" flag="0"/>
      <vel value="0.1945354363" flag="0"/>
      <psa03 value="0.9423031566" flag="0"/>
      <psa10 value="0.0864239130" flag="0"/>
      <psa30 value="0.0075809184" flag="0"/>
    </comp>
  </station>
  <station code="GZR" name="GZR" netid="RO" insttype="200" lat="45.3933" lon="22.7767">
    <comp name="--.HNE">
      <acc value="5.2346827169" flag="0"/>
      <vel value="1.4133148063" flag="0"/>
      <psa03 value="7.0748338976" flag="0"/>
      <psa10 value="0.3128795219" flag="0"/>
      <psa30 value="0.0350000001" flag="0"/>
    </comp>
    <comp name="--.HNN">
      <acc value="4.5497898797" flag="0"/>
      <vel value="1.6718588077" flag="0"/>
      <psa03 value="9.0465616535" flag="0"/>
      <psa10 value="0.4070811114" flag="0"/>
      <psa30 value="0.0381661481" flag="0"/>
    </comp>
    <comp name="--.HNZ">
      <acc value="3.1790951103" flag="0"/>
      <vel value="1.1956797493" flag="0"/>
      <psa03 value="5.1678736846" flag="0"/>
      <psa10 value="0.3034334564" flag="0"/>
      <psa30 value="0.0306529884" flag="0"/>
    </comp>
  </station>
  <station code="HERR" name="HERR" netid="RO" insttype="CMG40T.1to100/Quanterra" lat="44.881" lon="22.416">
    <comp name="--.HHN">
      <acc value="2.1064257962" flag="0"/>
      <vel value="0.3580856246" flag="0"/>
      <psa03 value="0.7244620038" flag="0"/>
      <psa10 value="0.0780054451" flag="0"/>
      <psa30 value="0.0084437553" flag="0"/>
    </comp>
    <comp name="--.HHZ">
      <acc value="0.5366371132" flag="0"/>
      <vel value="0.1244424080" flag="0"/>
      <psa03 value="0.2958145307" flag="0"/>
      <psa10 value="0.0719770592" flag="0"/>
      <psa30 value="0.0063825356" flag="0"/>
    </comp>
    <comp name="--.HHE">
      <acc value="1.6715744867" flag="0"/>
      <vel value="0.3343567655" flag="0"/>
      <psa03 value="1.0903410115" flag="0"/>
      <psa10 value="0.1461823240" flag="0"/>
      <psa30 value="0.0082950329" flag="0"/>
    </comp>
  </station>
  <station code="HUMR" name="HUMR" netid="RO" insttype="Seismometer/Quanterra" lat="44.5281" lon="24.9804">
    <comp name="--.HHE">
      <acc value="0.0873516989" flag="0"/>
      <vel value="0.0273910678" flag="0"/>
      <psa03 value="0.1873464129" flag="0"/>
      <psa10 value="0.0269889852" flag="0"/>
      <psa30 value="0.0070875889" flag="0"/>
    </comp>
    <comp name="--.HHN">
      <acc value="0.1182913459" flag="0"/>
      <vel value="0.0381151405" flag="0"/>
      <psa03 value="0.2825620536" flag="0"/>
      <psa10 value="0.0328523325" flag="0"/>
      <psa30 value="0.0083804506" flag="0"/>
    </comp>
    <comp name="--.HHZ">
      <acc value="0.0498112815" flag="0"/>
      <vel value="0.0170718992" flag="0"/>
      <psa03 value="0.1518100045" flag="0"/>
      <psa10 value="0.0145701063" flag="0"/>
      <psa30 value="0.0034167580" flag="0"/>
    </comp>
  </station>
  <station code="LOT" name="LOT" netid="RO" insttype="330" lat="45.446" lon="23.7698">
    <comp name="--.HHE">
      <acc value="0.6359907077" flag="0"/>
      <vel value="0.1570969841" flag="0"/>
      <psa03 value="0.8756497150" flag="0"/>
      <psa10 value="0.0741072787" flag="0"/>
      <psa30 value="0.0053348788" flag="0"/>
    </comp>
    <comp name="--.HHN">
      <acc value="0.6444166423" flag="0"/>
      <vel value="0.1778443960" flag="0"/>
      <psa03 value="0.8293021608" flag="0"/>
      <psa10 value="0.0922055587" flag="0"/>
      <psa30 value="0.0078166293" flag="0"/>
    </comp>
    <comp name="--.HHZ">
      <acc value="0.3870199769" flag="0"/>
      <vel value="0.0836661004" flag="0"/>
      <psa03 value="0.3222808184" flag="0"/>
      <psa10 value="0.0345837033" flag="0"/>
      <psa30 value="0.0046571084" flag="0"/>
    </comp>
  </station>
  <station code="MARR" name="MARR" netid="RO" insttype="CMG40T.1to100/obsidian" lat="46.676" lon="23.1189">
    <comp name="--.HHE">
      <acc value="0.1033936285" flag="0"/>
      <vel value="0.0371473906" flag="0"/>
      <psa03 value="0.1045093863" flag="0"/>
      <psa10 value="0.0413800929" flag="0"/>
      <psa30 value="0.0034881855" flag="0"/>
    </comp>
    <comp name="--.HHN">
      <acc value="0.1929811761" flag="0"/>
      <vel value="0.0501966244" flag="0"/>
      <psa03 value="0.1493917296" flag="0"/>
      <psa10 value="0.0151093094" flag="0"/>
      <psa30 value="0.0039982751" flag="0"/>
    </comp>
    <comp name="--.HHZ">
      <acc value="0.1017770832" flag="0"/>
      <vel value="0.0416018478" flag="0"/>
      <psa03 value="0.1742989929" flag="0"/>
      <psa10 value="0.0264679538" flag="0"/>
      <psa30 value="0.0060672087" flag="0"/>
    </comp>
  </station>
  <station code="MDB" name="MDB" netid="RO" insttype="MBB2/Quanterra" lat="46.1497" lon="24.3765">
    <comp name="--.HHE">
      <acc value="0.1265223765" flag="0"/>
      <vel value="0.0617291866" flag="0"/>
      <psa03 value="0.2604301869" flag="0"/>
      <psa10 value="0.0798378646" flag="0"/>
      <psa30 value="0.0105826968" flag="0"/>
    </comp>
    <comp name="--.HHZ">
      <acc value="0.0788162429" flag="0"/>
      <vel value="0.0416148340" flag="0"/>
      <psa03 value="0.2220185888" flag="0"/>
      <psa10 value="0.0352662468" flag="0"/>
      <psa30 value="0.0047669174" flag="0"/>
    </comp>
    <comp name="--.HHN">
      <acc value="0.1397169483" flag="0"/>
      <vel value="0.0837040157" flag="0"/>
      <psa03 value="0.3873626037" flag="0"/>
      <psa10 value="0.0462952120" flag="0"/>
      <psa30 value="0.0105844640" flag="0"/>
    </comp>
  </station>
  <station code="MDVR" name="MDVR" netid="RO" insttype="CMG40T.1to100/Quanterra" lat="44.7815" lon="21.7128">
    <comp name="--.HHZ">
      <acc value="0.2035054474" flag="0"/>
      <vel value="0.0558450456" flag="0"/>
      <psa03 value="0.3590239691" flag="0"/>
      <psa10 value="0.0394895308" flag="0"/>
      <psa30 value="0.0049757036" flag="0"/>
    </comp>
    <comp name="--.HHN">
      <acc value="0.5184169021" flag="0"/>
      <vel value="0.1093270802" flag="0"/>
      <psa03 value="0.5506183062" flag="0"/>
      <psa10 value="0.0832460480" flag="0"/>
      <psa30 value="0.0074258324" flag="0"/>
    </comp>
    <comp name="--.HHE">
      <acc value="0.3358298677" flag="0"/>
      <vel value="0.0733248878" flag="0"/>
      <psa03 value="0.4401350767" flag="0"/>
      <psa10 value="0.0730228967" flag="0"/>
      <psa30 value="0.0038020792" flag="0"/>
    </comp>
  </station>
  <station code="MHISU" name="MHISU" netid="RO" insttype="200" lat="44.6227" lon="22.6535">
    <comp name="--.HNE">
      <acc value="1.2456577632" flag="0"/>
      <vel value="0.4136296825" flag="0"/>
      <psa03 value="1.8507700514" flag="0"/>
      <psa10 value="0.3500907490" flag="0"/>
      <psa30 value="0.0772586198" flag="0"/>
    </comp>
    <comp name="--.HNN">
      <acc value="1.4146000925" flag="0"/>
      <vel value="0.6421995922" flag="0"/>
      <psa03 value="3.1226781364" flag="0"/>
      <psa10 value="0.3727694225" flag="0"/>
      <psa30 value="0.0338324948" flag="0"/>
    </comp>
    <comp name="--.HNZ">
      <acc value="0.6799026556" flag="0"/>
      <vel value="0.2617485146" flag="0"/>
      <psa03 value="2.4424821164" flag="0"/>
      <psa10 value="0.1619190954" flag="0"/>
      <psa30 value="0.0205326718" flag="0"/>
    </comp>
  </station>
  <station code="MTUR" name="MTUR" netid="RO" insttype="200" lat="45.2349" lon="25.0739">
    <comp name="--.HNE">
      <acc value="0.0830820238" flag="0"/>
      <vel value="0.0415149266" flag="0"/>
      <psa03 value="0.3220294303" flag="0"/>
      <psa10 value="0.0573337803" flag="0"/>
      <psa30 value="0.0075814847" flag="0"/>
    </comp>
    <comp name="--.HNN">
      <acc value="0.1405680059" flag="0"/>
      <vel value="0.0838435270" flag="0"/>
      <psa03 value="0.4223189561" flag="0"/>
      <psa10 value="0.0635578416" flag="0"/>
      <psa30 value="0.0221668279" flag="0"/>
    </comp>
    <comp name="--.HNZ">
      <acc value="0.0778733272" flag="0"/>
      <vel value="0.0381536823" flag="0"/>
      <psa03 value="0.2295266827" flag="0"/>
      <psa10 value="0.0216235225" flag="0"/>
      <psa30 value="0.0036737887" flag="0"/>
    </comp>
  </station>
  <station code="OTISU" name="OTISU" netid="RO" insttype="200" lat="44.4278" lon="24.3755">
    <comp name="--.HNE">
      <acc value="0.1763130076" flag="0"/>
      <vel value="0.0695926193" flag="0"/>
      <psa03 value="0.3753130824" flag="0"/>
      <psa10 value="0.0395711529" flag="0"/>
      <psa30 value="0.0198263003" flag="0"/>
    </comp>
    <comp name="--.HNN">
      <acc value="0.2039347959" flag="0"/>
      <vel value="0.0707189563" flag="0"/>
      <psa03 value="0.3756147420" flag="0"/>
      <psa10 value="0.0447404359" flag="0"/>
      <psa30 value="0.0178701017" flag="0"/>
    </comp>
    <comp name="--.HNZ">
      <acc value="0.1724791059" flag="0"/>
      <vel value="0.0367542463" flag="0"/>
      <psa03 value="0.2328198983" flag="0"/>
      <psa10 value="0.0204633762" flag="0"/>
      <psa30 value="0.0076818141" flag="0"/>
    </comp>
  </station>
  <station code="RMGR" name="RMGR" netid="RO" insttype="MBB2/Quanterra" lat="44.6627" lon="22.6922">
    <comp name="--.HHE">
      <acc value="1.9702143856" flag="0"/>
      <vel value="0.6621681245" flag="0"/>
      <psa03 value="3.2461032236" flag="0"/>
      <psa10 value="0.4849958818" flag="0"/>
      <psa30 value="0.0387109930" flag="0"/>
    </comp>
    <comp name="--.HHN">
      <acc value="1.6656381909" flag="0"/>
      <vel value="0.6527184411" flag="0"/>
      <psa03 value="3.8727531143" flag="0"/>
      <psa10 value="0.6851078483" flag="0"/>
      <psa30 value="0.0565390597" flag="0"/>
    </comp>
    <comp name="--.HHZ">
      <acc value="0.5520350982" flag="0"/>
      <vel value="0.1940210124" flag="0"/>
      <psa03 value="1.1143629926" flag="0"/>
      <psa10 value="0.3691784056" flag="0"/>
      <psa30 value="0.0344448713" flag="0"/>
    </comp>
  </station>
  <station code="SRE" name="SRE" netid="RO" insttype="Seismometer/Quanterra" lat="44.6609" lon="23.2038">
    <comp name="--.HHE">
      <acc value="0.9441749560" flag="0"/>
      <vel value="0.6235011749" flag="0"/>
      <psa03 value="2.2839689907" flag="0"/>
      <psa10 value="0.5880278340" flag="0"/>
      <psa30 value="0.0776231964" flag="0"/>
    </comp>
