<?xml version="1.0" encoding="UTF-8" standalone="yes"?>
<!DOCTYPE earthquake SYSTEM "stationlist.dtd">
<stationlist created="" xmlns="ch.ethz.sed.shakemap.usgs.xml">
  <station code="AKDM" name="AKDM" netid="KO" insttype="CMG-3ESP" commtype="DIG" lat="38.3285" lon="42.98">
    <comp name="--.HHZ">
      <acc value="0.0344926294" flag="0"/>
      <vel value="0.0383942301" flag="0"/>
      <psa03 value="0.0858491500" flag="0"/>
      <psa10 value="0.0594244584" flag="0"/>
      <psa30 value="0.0195273456" flag="0"/>
    </comp>
    <comp name="--.HHN">
      <acc value="0.0482072783" flag="0"/>
      <vel value="0.0465931774" flag="0"/>
      <psa03 value="0.0839998676" flag="0"/>
      <psa10 value="0.0641387944" flag="0"/>
      <psa30 value="0.0177751995" flag="0"/>
    </comp>
    <comp name="--.HHE">
      <acc value="0.0408263076" flag="0"/>
      <vel value="0.0634473984" flag="0"/>
      <psa03 value="0.1071737389" flag="0"/>
      <psa10 value="0.1421523686" flag="0"/>
      <psa30 value="0.0198361332" flag="0"/>
    </comp>
  </station>
  <station code="GURO" name="GURO" netid="KO" insttype="CMG-3T" commtype="DIG" lat="38.5509" lon="42.0322">
    <comp name="--.HHE">
      <acc value="0.0573249864" flag="0"/>
      <vel value="0.0331768297" flag="0"/>
      <psa03 value="0.2527422217" flag="0"/>
      <psa10 value="0.0450422322" flag="0"/>
      <psa30 value="0.0050519901" flag="0"/>
    </comp>
    <comp name="--.HHN">
      <acc value="0.0468895438" flag="0"/>
      <vel value="0.0219239255" flag="0"/>
      <psa03 value="0.1758464552" flag="0"/>
      <psa10 value="0.0215189050" flag="0"/>
      <psa30 value="0.0017365977" flag="0"/>
    </comp>
    <comp name="--.HHZ">
      <acc value="0.0677714276" flag="0"/>
      <vel value="0.0392958989" flag="0"/>
      <psa03 value="0.3781863793" flag="0"/>
      <psa10 value="0.0368330171" flag="0"/>
      <psa30 value="0.0051132727" flag="0"/>
    </comp>
  </station>
  <station code="MLAZ" name="MLAZ" netid="KO" insttype="CMG-3T" commtype="DIG" lat="39.141" lon="42.5496">
    <comp name="--.HHE">
      <acc value="0.1636089691" flag="0"/>
      <vel value="0.2382285741" flag="0"/>
      <psa03 value="0.4691661682" flag="0"/>
      <psa10 value="0.3510555828" flag="0"/>
      <psa30 value="0.0811034858" flag="0"/>
    </comp>
    <comp name="--.HHZ">
      <acc value="0.1555708208" flag="0"/>
      <vel value="0.1557302124" flag="0"/>
      <psa03 value="0.3030772201" flag="0"/>
      <psa10 value="0.2584025094" flag="0"/>
      <psa30 value="0.0425701095" flag="0"/>
    </comp>
    <comp name="--.HHN">
      <acc value="0.2341417835" flag="0"/>
      <vel value="0.3121447271" flag="0"/>
      <psa03 value="0.6978450277" flag="0"/>
      <psa10 value="0.3847384946" flag="0"/>
      <psa30 value="0.1163853331" flag="0"/>
    </comp>
  </station>
  <station code="TASB" name="TASB" netid="KO" insttype="CMG-3T" commtype="DIG" lat="39.9838" lon="44.2384">
    <comp name="--.HHE">
      <acc value="0.0731138087" flag="0"/>
      <vel value="0.1567507758" flag="0"/>
      <psa03 value="0.0829057535" flag="0"/>
      <psa10 value="0.1656110940" flag="0"/>
      <psa30 value="0.0506122870" flag="0"/>
    </comp>
    <comp name="--.HHZ">
      <acc value="0.0195172794" flag="0"/>
      <vel value="0.0384496080" flag="0"/>
      <psa03 value="0.0321376617" flag="0"/>
      <psa10 value="0.0471807729" flag="0"/>
      <psa30 value="0.0253014237" flag="0"/>
    </comp>
    <comp name="--.HHN">
      <acc value="0.0562890518" flag="0"/>
      <vel value="0.0905617188" flag="0"/>
      <psa03 value="0.0826905247" flag="0"/>
      <psa10 value="0.1075795153" flag="0"/>
      <psa30 value="0.0305200206" flag="0"/>
    </comp>
  </station>
</stationlist>
