<?xml version="1.0" encoding="UTF-8" standalone="yes"?>
<!DOCTYPE earthquake SYSTEM "stationlist.dtd">
<stationlist created="" xmlns="ch.ethz.sed.shakemap.usgs.xml">
  <station code="JMI" name="JMI" netid="NS" insttype="" commtype="DIG" lat="70.9268" lon="-8.72667">
    <comp name="00.HHE">
      <acc value="0.3274068330" flag="0"/>
      <vel value="0.2254984645" flag="0"/>
      <psa03 value="0.4505793948" flag="0"/>
      <psa10 value="0.2757486537" flag="0"/>
      <psa30 value="0.0741737265" flag="0"/>
    </comp>
    <comp name="00.HHN">
      <acc value="0.3213209681" flag="0"/>
      <vel value="0.2514230116" flag="0"/>
      <psa03 value="0.4449265449" flag="0"/>
      <psa10 value="0.3028222194" flag="0"/>
      <psa30 value="0.0476781937" flag="0"/>
    </comp>
    <comp name="00.HHZ">
      <acc value="0.1875925016" flag="0"/>
      <vel value="0.1562850482" flag="0"/>
      <psa03 value="0.5736127541" flag="0"/>
      <psa10 value="0.2441566573" flag="0"/>
      <psa30 value="0.1059286608" flag="0"/>
    </comp>
  </station>
  <station code="JNE" name="JNE" netid="NS" insttype="" commtype="DIG" lat="70.9883" lon="-8.29267">
    <comp name="00.HHN">
      <acc value="2.1909905602" flag="0"/>
      <vel value="1.4221982906" flag="0"/>
      <psa03 value="3.1068010519" flag="0"/>
      <psa10 value="2.0118792342" flag="0"/>
      <psa30 value="0.1872775620" flag="0"/>
    </comp>
    <comp name="00.HHZ">
      <acc value="1.0470975565" flag="0"/>
      <vel value="0.4733102697" flag="0"/>
      <psa03 value="1.4109597710" flag="0"/>
      <psa10 value="0.8226163054" flag="0"/>
      <psa30 value="0.0539020623" flag="0"/>
    </comp>
    <comp name="00.HHE">
      <acc value="1.1813938900" flag="0"/>
      <vel value="0.6688188031" flag="0"/>
      <psa03 value="2.3108278871" flag="0"/>
      <psa10 value="1.1435855173" flag="0"/>
      <psa30 value="0.1344322969" flag="0"/>
    </comp>
  </station>
  <station code="JNW" name="JNW" netid="NS" insttype="" commtype="DIG" lat="71.0273" lon="-8.42367">
    <comp name="00.HHE">
      <acc value="2.2173541705" flag="0"/>
      <vel value="1.3884679816" flag="0"/>
      <psa03 value="3.2768384086" flag="0"/>
      <psa10 value="1.9071628688" flag="0"/>
      <psa30 value="0.2415018834" flag="0"/>
    </comp>
    <comp name="00.HHN">
      <acc value="1.6164715046" flag="0"/>
      <vel value="1.4772229399" flag="0"/>
      <psa03 value="3.4061464277" flag="0"/>
      <psa10 value="1.8519214546" flag="0"/>
      <psa30 value="0.1709072565" flag="0"/>
    </comp>
    <comp name="00.HHZ">
      <acc value="0.9412407620" flag="0"/>
      <vel value="0.6939700114" flag="0"/>
      <psa03 value="2.4975308557" flag="0"/>
      <psa10 value="0.6490710567" flag="0"/>
      <psa30 value="0.0870818764" flag="0"/>
    </comp>
  </station>
</stationlist>
