<?xml version="1.0" encoding="UTF-8" standalone="yes"?>
<!DOCTYPE earthquake SYSTEM "stationlist.dtd">
<stationlist created="" xmlns="ch.ethz.sed.shakemap.usgs.xml">
  <station code="GAZ" name="GAZ" netid="KO" insttype="CMG-3T" lat="37.1721" lon="37.2096">
    <comp name="--.HHN">
      <acc value="0.0289260039" flag="0"/>
      <vel value="0.0331602461" flag="0"/>
      <psa03 value="0.0696070948" flag="0"/>
      <psa10 value="0.0271297098" flag="0"/>
      <psa30 value="0.0060710684" flag="0"/>
    </comp>
    <comp name="--.HHE">
      <acc value="0.0375341156" flag="0"/>
      <vel value="0.0220995159" flag="0"/>
      <psa03 value="0.1121510109" flag="0"/>
      <psa10 value="0.0284026571" flag="0"/>
      <psa30 value="0.0038975025" flag="0"/>
    </comp>
    <comp name="--.HHZ">
      <acc value="0.0214384607" flag="0"/>
      <vel value="0.0147928001" flag="0"/>
      <psa03 value="0.0424518768" flag="0"/>
      <psa10 value="0.0169768570" flag="0"/>
      <psa30 value="0.0028057436" flag="0"/>
    </comp>
  </station>
</stationlist>
