<?xml version="1.0" encoding="UTF-8" standalone="yes"?>
<!DOCTYPE earthquake SYSTEM "stationlist.dtd">
<stationlist created="" xmlns="ch.ethz.sed.shakemap.usgs.xml">
  <station code="GIL" name="GIL" netid="VI" source="ODC" insttype="CMG-3ESP" lat="66.0773" lon="-16.3513">
    <comp name="--.HHZ">
      <acc value="0.0718972293" flag="0"/>
      <vel value="0.0157902878" flag="0"/>
      <psa03 value="0.0527923566" flag="0"/>
      <psa10 value="0.0099403204" flag="0"/>
      <psa30 value="0.0008640300" flag="0"/>
    </comp>
    <comp name="--.HHE">
      <acc value="0.0598587820" flag="0"/>
      <vel value="0.0274400139" flag="0"/>
      <psa03 value="0.0883131766" flag="0"/>
      <psa10 value="0.0354293136" flag="0"/>
      <psa30 value="0.0016960318" flag="0"/>
    </comp>
    <comp name="--.HHN">
      <acc value="0.1315236665" flag="0"/>
      <vel value="0.0458413589" flag="0"/>
      <psa03 value="0.0970675080" flag="0"/>
      <psa10 value="0.0358698071" flag="0"/>
      <psa30 value="0.0027072986" flag="0"/>
    </comp>
  </station>
</stationlist>
