<stationlist xmlns:esm="https://esm-db.eu/esmws/shakemap/1/" created="1783994288">
	<station code="KARP" name="KARP" netid="GE" source="GEOFON" insttype="" lat="35.5471" lon="27.16106" esm:processing="manual (Paolucci et al 2011)" esm:quality="good">
		<comp name="--.HNE" depth="0.0">
			<acc value="0.0287586566616746" flag="0"/>
			<vel value="0.0201235667857415" flag="0"/>
			<psa03 value="0.0630417691251449" flag="0"/>
			<psa10 value="0.0169608756848545" flag="0"/>
			<psa30 value="0.00189080565168816" flag="0"/>
		</comp>
		<comp name="--.HNN" depth="0.0">
			<acc value="0.0203488062946703" flag="0"/>
			<vel value="0.0176750039521015" flag="0"/>
			<psa03 value="0.0542275544213454" flag="0"/>
			<psa10 value="0.0266292191129968" flag="0"/>
			<psa30 value="0.00177984497927485" flag="0"/>
		</comp>
		<comp name="--.HNZ" depth="0.0">
			<acc value="0.0140673215116141" flag="0"/>
			<vel value="0.01311504373437" flag="0"/>
			<psa03 value="0.0344962413026875" flag="0"/>
			<psa10 value="0.0171863764062105" flag="0"/>
			<psa30 value="0.00212704450263264" flag="0"/>
		</comp>
	</station>
	<station code="KOS2" name="KOS2" netid="HI" source="ITSAK Strong Motion Network" insttype="" lat="36.8941" lon="27.2888" esm:processing="automatic (Paolucci et al 2011)" esm:quality="good">
		<comp name="--.HNE" depth="0.0">
			<acc value="0.00969039170128007" flag="0"/>
			<vel value="0.0144049549258347" flag="0"/>
			<psa03 value="0.0298660279569439" flag="0"/>
			<psa10 value="0.0159789479018779" flag="0"/>
			<psa30 value="0.00424479828038702" flag="0"/>
		</comp>
		<comp name="--.HNN" depth="0.0">
			<acc value="0.0105470986587087" flag="0"/>
			<vel value="0.0115458201744338" flag="0"/>
			<psa03 value="0.0211278332090101" flag="0"/>
			<psa10 value="0.0164114490529565" flag="0"/>
			<psa30 value="0.00282288387720287" flag="0"/>
		</comp>
		<comp name="--.HNZ" depth="0.0">
			<acc value="0.00353322519021324" flag="0"/>
			<vel value="0.00534739075119214" flag="0"/>
			<psa03 value="0.00836684918457111" flag="0"/>
			<psa10 value="0.0102060695395182" flag="0"/>
			<psa30 value="0.00160006235044468" flag="0"/>
		</comp>
	</station>
	<station code="KSS1" name="KSS1" netid="HI" source="ITSAK Strong Motion Network" insttype="" lat="35.4189" lon="26.9207" esm:processing="manual (Paolucci et al 2011)" esm:quality="best">
		<comp name="--.HNE" depth="0.0">
			<acc value="0.0146940387831455" flag="0"/>
			<vel value="0.0115672475297041" flag="0"/>
			<psa03 value="0.0658157859354778" flag="0"/>
			<psa10 value="0.0112549020748263" flag="0"/>
			<psa30 value="0.00139237746996062" flag="0"/>
		</comp>
		<comp name="--.HNN" depth="0.0">
			<acc value="0.0163800586030213" flag="0"/>
			<vel value="0.0117119783112034" flag="0"/>
			<psa03 value="0.0833547309298403" flag="0"/>
			<psa10 value="0.0148870744080976" flag="0"/>
			<psa30 value="0.00172883886373002" flag="0"/>
		</comp>
		<comp name="--.HNZ" depth="0.0">
			<acc value="0.00739067028202968" flag="0"/>
			<vel value="0.00945440607261122" flag="0"/>
			<psa03 value="0.0145412171509383" flag="0"/>
			<psa10 value="0.0117743590936644" flag="0"/>
			<psa30 value="0.000916320391542205" flag="0"/>
		</comp>
	</station>
	<station code="RDI1" name="RDI1" netid="HI" source="ITSAK Strong Motion Network" insttype="" lat="36.4514" lon="28.224" esm:processing="manual (Paolucci et al 2011)" esm:quality="good">
		<comp name="--.HNE" depth="0.0">
			<acc value="0.0100224369135553" flag="0"/>
			<vel value="0.0105158840208836" flag="0"/>
			<psa03 value="0.03391459261665" flag="0"/>
			<psa10 value="0.0159501492373477" flag="0"/>
			<psa30 value="0.00314582454733069" flag="0"/>
		</comp>
		<comp name="--.HNN" depth="0.0">
			<acc value="0.0105132406333058" flag="0"/>
			<vel value="0.0102182056750291" flag="0"/>
			<psa03 value="0.0238923383341571" flag="0"/>
			<psa10 value="0.0139931251198645" flag="0"/>
			<psa30 value="0.00262815721675728" flag="0"/>
		</comp>
		<comp name="--.HNZ" depth="0.0">
			<acc value="0.00586972035134929" flag="0"/>
			<vel value="0.00606040737068666" flag="0"/>
			<psa03 value="0.0161071943825778" flag="0"/>
			<psa10 value="0.0108763830068357" flag="0"/>
			<psa30 value="0.000880526626247588" flag="0"/>
		</comp>
	</station>
	<station code="RKL1" name="RKL1" netid="HI" source="ITSAK Strong Motion Network" insttype="" lat="36.336699" lon="28.171224" esm:processing="automatic (Paolucci et al 2011)" esm:quality="best">
		<comp name="--.HNE" depth="0.0">
			<acc value="0.0171582027537193" flag="0"/>
			<vel value="0.0168746542191961" flag="0"/>
			<psa03 value="0.0488462774928255" flag="0"/>
			<psa10 value="0.0304028046615996" flag="0"/>
			<psa30 value="0.00162609188727375" flag="0"/>
		</comp>
		<comp name="--.HNN" depth="0.0">
			<acc value="0.0158271388084631" flag="0"/>
			<vel value="0.012805937892371" flag="0"/>
			<psa03 value="0.0400219142762368" flag="0"/>
			<psa10 value="0.0227773851399799" flag="0"/>
			<psa30 value="0.00163193571189845" flag="0"/>
		</comp>
		<comp name="--.HNZ" depth="0.0">
			<acc value="0.00878306980797793" flag="0"/>
			<vel value="0.0075751427507721" flag="0"/>
			<psa03 value="0.0283884691384237" flag="0"/>
			<psa10 value="0.008867751194996" flag="0"/>
			<psa30 value="0.000783619723460873" flag="0"/>
		</comp>
	</station>
	<station code="RKT1" name="RKT1" netid="HI" source="ITSAK Strong Motion Network" insttype="" lat="35.954336" lon="27.767327" esm:processing="automatic (Paolucci et al 2011)" esm:quality="best">
		<comp name="--.HNE" depth="0.0">
			<acc value="0.043413379617683" flag="0"/>
			<vel value="0.0301553382582439" flag="0"/>
			<psa03 value="0.0928604223805807" flag="0"/>
			<psa10 value="0.0268425869396482" flag="0"/>
			<psa30 value="0.00210097438757546" flag="0"/>
		</comp>
		<comp name="--.HNN" depth="0.0">
			<acc value="0.0410920914187373" flag="0"/>
			<vel value="0.0262068829808926" flag="0"/>
			<psa03 value="0.119745745067929" flag="0"/>
			<psa10 value="0.0382409982784589" flag="0"/>
			<psa30 value="0.00265519610204407" flag="0"/>
		</comp>
		<comp name="--.HNZ" depth="0.0">
			<acc value="0.0214800482957124" flag="0"/>
			<vel value="0.0131914120489136" flag="0"/>
			<psa03 value="0.0366885007456166" flag="0"/>
			<psa10 value="0.0294230635085565" flag="0"/>
			<psa30 value="0.0024339804059232" flag="0"/>
		</comp>
	</station>
	<station code="RPN1" name="RPN1" netid="HI" source="ITSAK Strong Motion Network" insttype="" lat="36.448678" lon="28.218047" esm:processing="manual (Paolucci et al 2011)" esm:quality="good">
		<comp name="--.HNE" depth="0.0">
			<acc value="0.0154756007005558" flag="0"/>
			<vel value="0.0120667888711106" flag="0"/>
			<psa03 value="0.0285311791130925" flag="0"/>
			<psa10 value="0.0179880609957601" flag="0"/>
			<psa30 value="0.00301548434437192" flag="0"/>
		</comp>
		<comp name="--.HNN" depth="0.0">
			<acc value="0.0149571384412324" flag="0"/>
			<vel value="0.0132796978316484" flag="0"/>
			<psa03 value="0.0400362850198947" flag="0"/>
			<psa10 value="0.0241623331359877" flag="0"/>
			<psa30 value="0.00438089937975023" flag="0"/>
		</comp>
		<comp name="--.HNZ" depth="0.0">
			<acc value="0.00718724300824758" flag="0"/>
			<vel value="0.00608140167206322" flag="0"/>
			<psa03 value="0.0151251972825894" flag="0"/>
			<psa10 value="0.0101731545465615" flag="0"/>
			<psa30 value="0.00116880430254885" flag="0"/>
		</comp>
	</station>
	<station code="RSO1" name="RSO1" netid="HI" source="ITSAK Strong Motion Network" insttype="" lat="36.3632" lon="28.0016" esm:processing="manual (Paolucci et al 2011)" esm:quality="good">
		<comp name="--.HNE" depth="0.0">
			<acc value="0.023294402591172" flag="0"/>
			<vel value="0.0162189082140088" flag="0"/>
			<psa03 value="0.0664832427302147" flag="0"/>
			<psa10 value="0.0225071309869686" flag="0"/>
			<psa30 value="0.00230402492201018" flag="0"/>
		</comp>
		<comp name="--.HNN" depth="0.0">
			<acc value="0.014354886701345" flag="0"/>
			<vel value="0.0109172843786173" flag="0"/>
			<psa03 value="0.0477460171059746" flag="0"/>
			<psa10 value="0.0162005463316863" flag="0"/>
			<psa30 value="0.00174354883488675" flag="0"/>
		</comp>
		<comp name="--.HNZ" depth="0.0">
			<acc value="0.0105890187408145" flag="0"/>
			<vel value="0.00965214484073721" flag="0"/>
			<psa03 value="0.032326394069124" flag="0"/>
			<psa10 value="0.0127339376233726" flag="0"/>
			<psa30 value="0.00255856407564656" flag="0"/>
		</comp>
	</station>
	<station code="SIT2" name="SIT2" netid="HI" source="ITSAK Strong Motion Network" insttype="" lat="35.2059" lon="26.107" esm:processing="manual (Paolucci et al 2011)" esm:quality="bad">
		<comp name="--.HNE" depth="0.0">
			<acc value="0.0171285798460097" flag="0"/>
			<vel value="0.0134843092910714" flag="0"/>
			<psa03 value="0.0508271467183567" flag="0"/>
			<psa10 value="0.0171138940314889" flag="0"/>
			<psa30 value="0.00101027902544058" flag="0"/>
		</comp>
		<comp name="--.HNN" depth="0.0">
			<acc value="0.0160790522270282" flag="0"/>
			<vel value="0.0124630480155775" flag="0"/>
			<psa03 value="0.0522588973301414" flag="0"/>
			<psa10 value="0.0180239505141046" flag="0"/>
			<psa30 value="0.00175120996703916" flag="0"/>
		</comp>
		<comp name="--.HNZ" depth="0.0">
			<acc value="0.00593582770844152" flag="0"/>
			<vel value="0.0037922429876637" flag="0"/>
			<psa03 value="0.0195076020855665" flag="0"/>
			<psa10 value="0.0046106843920129" flag="0"/>
			<psa30 value="0.000728850545811647" flag="0"/>
		</comp>
	</station>
	<station code="KARP" name="KARP" netid="HL" source="National Observatory of Athens Seismic Network" insttype="" lat="35.5471" lon="27.16106" esm:processing="manual (Paolucci et al 2011)" esm:quality="best">
		<comp name="--.HNE" depth="0.0">
			<acc value="0.0281747673612471" flag="0"/>
			<vel value="0.0197150378774241" flag="0"/>
			<psa03 value="0.0617889873398333" flag="0"/>
			<psa10 value="0.0166185978042247" flag="0"/>
			<psa30 value="0.00185232735399645" flag="0"/>
		</comp>
		<comp name="--.HNN" depth="0.0">
			<acc value="0.0199357103631616" flag="0"/>
			<vel value="0.0173161329377154" flag="0"/>
			<psa03 value="0.0531089992558886" flag="0"/>
			<psa10 value="0.0260896281011804" flag="0"/>
			<psa30 value="0.00174360379191405" flag="0"/>
		</comp>
		<comp name="--.HNZ" depth="0.0">
			<acc value="0.013781684955225" flag="0"/>
			<vel value="0.0128488018814749" flag="0"/>
			<psa03 value="0.0338251082034135" flag="0"/>
			<psa10 value="0.0168360449283895" flag="0"/>
			<psa30 value="0.00208364456221292" flag="0"/>
		</comp>
	</station>
	<station code="AGN1" name="AGN1" netid="HI" source="ITSAK Strong Motion Network" insttype="" lat="35.1879" lon="25.7155" esm:processing="automatic (Paolucci et al 2011)" esm:quality="bad">
		<comp name="--.HNE" depth="0.0">
			<acc value="0" flag="1"/>
			<vel value="0" flag="1"/>
			<psa03 value="0" flag="1"/>
			<psa10 value="0" flag="1"/>
			<psa30 value="0" flag="1"/>
		</comp>
		<comp name="--.HNN" depth="0.0">
			<acc value="0" flag="1"/>
			<vel value="0" flag="1"/>
			<psa03 value="0" flag="1"/>
			<psa10 value="0" flag="1"/>
			<psa30 value="0" flag="1"/>
		</comp>
		<comp name="--.HNZ" depth="0.0">
			<acc value="0" flag="1"/>
			<vel value="0" flag="1"/>
			<psa03 value="0" flag="1"/>
			<psa10 value="0" flag="1"/>
			<psa30 value="0" flag="1"/>
		</comp>
	</station>
	<station code="KLNA" name="KLNA" netid="HL" source="National Observatory of Athens Seismic Network" insttype="" lat="36.95708" lon="26.97274" esm:processing="discarded" esm:quality="bad">
		<comp name="00.HNE" depth="0.0">
			<acc value="0" flag="1"/>
			<vel value="0" flag="1"/>
			<psa03 value="0" flag="1"/>
			<psa10 value="0" flag="1"/>
			<psa30 value="0" flag="1"/>
		</comp>
		<comp name="00.HNN" depth="0.0">
			<acc value="0" flag="1"/>
			<vel value="0" flag="1"/>
			<psa03 value="0" flag="1"/>
			<psa10 value="0" flag="1"/>
			<psa30 value="0" flag="1"/>
		</comp>
		<comp name="00.HNZ" depth="0.0">
			<acc value="0" flag="1"/>
			<vel value="0" flag="1"/>
			<psa03 value="0" flag="1"/>
			<psa10 value="0" flag="1"/>
			<psa30 value="0" flag="1"/>
		</comp>
	</station>
	<station code="KSL" name="KSL" netid="HL" source="National Observatory of Athens Seismic Network" insttype="" lat="36.15031" lon="29.58561" esm:processing="discarded" esm:quality="bad">
		<comp name="00.HNE" depth="0.0">
			<acc value="0" flag="1"/>
			<vel value="0" flag="1"/>
			<psa03 value="0" flag="1"/>
			<psa10 value="0" flag="1"/>
			<psa30 value="0" flag="1"/>
		</comp>
		<comp name="00.HNN" depth="0.0">
			<acc value="0" flag="1"/>
			<vel value="0" flag="1"/>
			<psa03 value="0" flag="1"/>
			<psa10 value="0" flag="1"/>
			<psa30 value="0" flag="1"/>
		</comp>
		<comp name="00.HNZ" depth="0.0">
			<acc value="0" flag="1"/>
			<vel value="0" flag="1"/>
			<psa03 value="0" flag="1"/>
			<psa10 value="0" flag="1"/>
			<psa30 value="0" flag="1"/>
		</comp>
	</station>
	<station code="RODB" name="RODB" netid="HL" source="National Observatory of Athens Seismic Network" insttype="" lat="36.4471" lon="28.22116" esm:processing="discarded" esm:quality="good">
		<comp name="00.HNE" depth="0.0">
			<acc value="0" flag="1"/>
			<vel value="0" flag="1"/>
			<psa03 value="0" flag="1"/>
			<psa10 value="0" flag="1"/>
			<psa30 value="0" flag="1"/>
		</comp>
		<comp name="00.HNN" depth="0.0">
			<acc value="0" flag="1"/>
			<vel value="0" flag="1"/>
			<psa03 value="0" flag="1"/>
			<psa10 value="0" flag="1"/>
			<psa30 value="0" flag="1"/>
		</comp>
		<comp name="00.HNZ" depth="0.0">
			<acc value="0" flag="1"/>
			<vel value="0" flag="1"/>
			<psa03 value="0" flag="1"/>
			<psa10 value="0" flag="1"/>
			<psa30 value="0" flag="1"/>
		</comp>
	</station>
	<station code="DATC" name="DATC" netid="KO" source="Bogazici University Kandilli Observatory And Earthquake Research Institute (KOERI)" insttype="" lat="36.7584" lon="27.6602" esm:processing="discarded" esm:quality="bad">
		<comp name="--.HNE" depth="0.0">
			<acc value="0" flag="1"/>
			<vel value="0" flag="1"/>
			<psa03 value="0" flag="1"/>
			<psa10 value="0" flag="1"/>
			<psa30 value="0" flag="1"/>
		</comp>
		<comp name="--.HNN" depth="0.0">
			<acc value="0" flag="1"/>
			<vel value="0" flag="1"/>
			<psa03 value="0" flag="1"/>
			<psa10 value="0" flag="1"/>
			<psa30 value="0" flag="1"/>
		</comp>
		<comp name="--.HNZ" depth="0.0">
			<acc value="0" flag="1"/>
			<vel value="0" flag="1"/>
			<psa03 value="0" flag="1"/>
			<psa10 value="0" flag="1"/>
			<psa30 value="0" flag="1"/>
		</comp>
	</station>
	<station code="DEMR" name="DEMR" netid="KO" source="Bogazici University Kandilli Observatory And Earthquake Research Institute (KOERI)" insttype="" lat="36.2365" lon="29.9056" esm:processing="discarded" esm:quality="bad">
		<comp name="--.HNE" depth="0.0">
			<acc value="0" flag="1"/>
			<vel value="0" flag="1"/>
			<psa03 value="0" flag="1"/>
			<psa10 value="0" flag="1"/>
			<psa30 value="0" flag="1"/>
		</comp>
		<comp name="--.HNN" depth="0.0">
			<acc value="0" flag="1"/>
			<vel value="0" flag="1"/>
			<psa03 value="0" flag="1"/>
			<psa10 value="0" flag="1"/>
			<psa30 value="0" flag="1"/>
		</comp>
		<comp name="--.HNZ" depth="0.0">
			<acc value="0" flag="1"/>
			<vel value="0" flag="1"/>
			<psa03 value="0" flag="1"/>
			<psa10 value="0" flag="1"/>
			<psa30 value="0" flag="1"/>
		</comp>
	</station>
	<station code="FETI" name="FETI" netid="KO" source="Bogazici University Kandilli Observatory And Earthquake Research Institute (KOERI)" insttype="" lat="36.6903" lon="29.096" esm:processing="discarded" esm:quality="bad">
		<comp name="--.HNE" depth="0.0">
			<acc value="0" flag="1"/>
			<vel value="0" flag="1"/>
			<psa03 value="0" flag="1"/>
			<psa10 value="0" flag="1"/>
			<psa30 value="0" flag="1"/>
		</comp>
		<comp name="--.HNN" depth="0.0">
			<acc value="0" flag="1"/>
			<vel value="0" flag="1"/>
			<psa03 value="0" flag="1"/>
			<psa10 value="0" flag="1"/>
			<psa30 value="0" flag="1"/>
		</comp>
		<comp name="--.HNZ" depth="0.0">
			<acc value="0" flag="1"/>
			<vel value="0" flag="1"/>
			<psa03 value="0" flag="1"/>
			<psa10 value="0" flag="1"/>
			<psa30 value="0" flag="1"/>
		</comp>
	</station>
</stationlist>
