<?xml version="1.0" encoding="UTF-8" standalone="yes"?>
<!DOCTYPE earthquake SYSTEM "stationlist.dtd">
<stationlist created="" xmlns="ch.ethz.sed.shakemap.usgs.xml">
  <station code="KARP" name="KARP" netid="GE" insttype="STS-2/N" lat="35.5471" lon="27.1611">
    <comp name="--.HHE">
      <acc value="0.0320955704" flag="0"/>
      <vel value="0.0199775156" flag="0"/>
      <psa03 value="0.0677091337" flag="0"/>
      <psa10 value="0.0160262707" flag="0"/>
      <psa30 value="0.0020115915" flag="0"/>
    </comp>
    <comp name="--.HHN">
      <acc value="0.0266965867" flag="0"/>
      <vel value="0.0211051880" flag="0"/>
      <psa03 value="0.0664531377" flag="0"/>
      <psa10 value="0.0321890805" flag="0"/>
      <psa30 value="0.0022425295" flag="0"/>
    </comp>
    <comp name="--.HHZ">
      <acc value="0.0176468971" flag="0"/>
      <vel value="0.0154383763" flag="0"/>
      <psa03 value="0.0419838589" flag="0"/>
      <psa10 value="0.0206680243" flag="0"/>
      <psa30 value="0.0022649931" flag="0"/>
    </comp>
  </station>
  <station code="ARG" name="ARG" netid="HL" insttype="LE3D20_DR24" lat="36.2136" lon="28.1212">
    <comp name="--.HHE">
      <acc value="0.0094861528" flag="0"/>
      <vel value="0.0088263036" flag="0"/>
      <psa03 value="0.0342448620" flag="0"/>
      <psa10 value="0.0125814672" flag="0"/>
      <psa30 value="0.0014562021" flag="0"/>
    </comp>
    <comp name="--.HHN">
      <acc value="0.0107076241" flag="0"/>
      <vel value="0.0093525055" flag="0"/>
      <psa03 value="0.0199858188" flag="0"/>
      <psa10 value="0.0228044307" flag="0"/>
      <psa30 value="0.0019969809" flag="0"/>
    </comp>
    <comp name="--.HHZ">
      <acc value="0.0051412081" flag="0"/>
      <vel value="0.0065748683" flag="0"/>
      <psa03 value="0.0151100015" flag="0"/>
      <psa10 value="0.0136726743" flag="0"/>
      <psa30 value="0.0009332047" flag="0"/>
    </comp>
  </station>
  <station code="KARP" name="KARP" netid="HL" insttype="120" lat="35.5471" lon="27.1611">
    <comp name="--.HHE">
      <acc value="0.0309527738" flag="0"/>
      <vel value="0.0196967190" flag="0"/>
      <psa03 value="0.0663544556" flag="0"/>
      <psa10 value="0.0159444346" flag="0"/>
      <psa30 value="0.0020072433" flag="0"/>
    </comp>
    <comp name="--.HHN">
      <acc value="0.0250428419" flag="0"/>
      <vel value="0.0208180562" flag="0"/>
      <psa03 value="0.0650707664" flag="0"/>
      <psa10 value="0.0319845384" flag="0"/>
      <psa30 value="0.0022362409" flag="0"/>
    </comp>
    <comp name="--.HHZ">
      <acc value="0.0168772844" flag="0"/>
      <vel value="0.0152572974" flag="0"/>
      <psa03 value="0.0410643365" flag="0"/>
      <psa10 value="0.0205557916" flag="0"/>
      <psa30 value="0.0022617024" flag="0"/>
    </comp>
  </station>
</stationlist>
