<?xml version="1.0" encoding="UTF-8" standalone="yes"?>
<!DOCTYPE earthquake SYSTEM "stationlist.dtd">
<stationlist created="" xmlns="ch.ethz.sed.shakemap.usgs.xml">
  <station code="DARE" name="DARE" netid="KO" insttype="CMG-3ESP" lat="38.5712" lon="37.4832">
    <comp name="--.HHE">
      <acc value="0.1021273290" flag="0"/>
      <vel value="0.0561891309" flag="0"/>
      <psa03 value="0.3046031808" flag="0"/>
      <psa10 value="0.0296171011" flag="0"/>
      <psa30 value="0.0020663432" flag="0"/>
    </comp>
    <comp name="--.HHZ">
      <acc value="0.0522594277" flag="0"/>
      <vel value="0.0338468177" flag="0"/>
      <psa03 value="0.2032615237" flag="0"/>
      <psa10 value="0.0244453137" flag="0"/>
      <psa30 value="0.0033784700" flag="0"/>
    </comp>
    <comp name="--.HHN">
      <acc value="0.0368392179" flag="0"/>
      <vel value="0.0387231481" flag="0"/>
      <psa03 value="0.1241407340" flag="0"/>
      <psa10 value="0.0389667644" flag="0"/>
      <psa30 value="0.0021503775" flag="0"/>
    </comp>
  </station>
  <station code="GAZ" name="GAZ" netid="KO" insttype="CMG-3T" lat="37.1721" lon="37.2096">
    <comp name="--.HHZ">
      <acc value="0.0753566376" flag="0"/>
      <vel value="0.0448752888" flag="0"/>
      <psa03 value="0.1520654913" flag="0"/>
      <psa10 value="0.0773044710" flag="0"/>
      <psa30 value="0.0063582621" flag="0"/>
    </comp>
    <comp name="--.HHN">
      <acc value="0.0998214464" flag="0"/>
      <vel value="0.0838154531" flag="0"/>
      <psa03 value="0.2410419351" flag="0"/>
      <psa10 value="0.0914029395" flag="0"/>
      <psa30 value="0.0045182738" flag="0"/>
    </comp>
  </station>
  <station code="KHMN" name="KHMN" netid="KO" insttype="CMG-5T" lat="37.3916" lon="37.1574">
    <comp name="--.HNE">
      <acc value="0.7620145783" flag="0"/>
      <vel value="0.2546908019" flag="0"/>
      <psa03 value="1.4837575547" flag="0"/>
      <psa10 value="0.1579570227" flag="0"/>
      <psa30 value="0.0164223718" flag="0"/>
    </comp>
    <comp name="--.HNZ">
      <acc value="0.4859884102" flag="0"/>
      <vel value="0.1962220903" flag="0"/>
      <psa03 value="0.8509308518" flag="0"/>
      <psa10 value="0.1322511965" flag="0"/>
      <psa30 value="0.0138753485" flag="0"/>
    </comp>
    <comp name="--.HNN">
      <acc value="0.8310834002" flag="0"/>
      <vel value="0.3563789048" flag="0"/>
      <psa03 value="1.1552516490" flag="0"/>
      <psa10 value="0.2641456518" flag="0"/>
      <psa30 value="0.0194228640" flag="0"/>
    </comp>
  </station>
  <station code="KMRS" name="KMRS" netid="KO" insttype="CMG-3T" lat="37.5053" lon="36.9">
    <comp name="--.HHN">
      <acc value="0.5060783150" flag="0"/>
      <vel value="0.1893887944" flag="0"/>
      <psa03 value="0.7536439442" flag="0"/>
      <psa10 value="0.1058916392" flag="0"/>
      <psa30 value="0.0094581344" flag="0"/>
    </comp>
  </station>
  <station code="SARI" name="SARI" netid="KO" insttype="CMG-3T" lat="38.4072" lon="36.4181">
    <comp name="--.HHN">
      <acc value="0.0960659274" flag="0"/>
      <vel value="0.0408324497" flag="0"/>
      <psa03 value="0.2308670977" flag="0"/>
      <psa10 value="0.0160692549" flag="0"/>
      <psa30 value="0.0013745203" flag="0"/>
    </comp>
    <comp name="--.HHE">
      <acc value="0.1259953881" flag="0"/>
      <vel value="0.0469757388" flag="0"/>
      <psa03 value="0.2730204150" flag="0"/>
      <psa10 value="0.0300451883" flag="0"/>
      <psa30 value="0.0019075567" flag="0"/>
    </comp>
  </station>
  <station code="ANDN" name="ANDN" netid="TU" insttype="T" lat="37.58" lon="36.3452">
    <comp name="--.HHN">
      <acc value="0.7113567721" flag="0"/>
      <vel value="0.2101095730" flag="0"/>
      <psa03 value="0.7025088315" flag="0"/>
      <psa10 value="0.1100977120" flag="0"/>
      <psa30 value="0.0083303394" flag="0"/>
    </comp>
    <comp name="--.HHZ">
      <acc value="0.2825008269" flag="0"/>
      <vel value="0.1261402025" flag="0"/>
      <psa03 value="0.4158787276" flag="0"/>
      <psa10 value="0.1940983940" flag="0"/>
      <psa30 value="0.0105620859" flag="0"/>
    </comp>
    <comp name="--.HHE">
      <acc value="0.4724045675" flag="0"/>
      <vel value="0.1637028216" flag="0"/>
      <psa03 value="1.0049733859" flag="0"/>
      <psa10 value="0.1479158520" flag="0"/>
      <psa30 value="0.0086271107" flag="0"/>
    </comp>
  </station>
</stationlist>
