<?xml version="1.0" encoding="UTF-8" standalone="yes"?>
<!DOCTYPE earthquake SYSTEM "stationlist.dtd">
<stationlist created="" xmlns="ch.ethz.sed.shakemap.usgs.xml">
  <station code="DARE" name="DARE" netid="KO" insttype="CMG-3ESP" lat="38.5712" lon="37.4832">
    <comp name="--.HHE">
      <acc value="0.1021273292" flag="0"/>
      <vel value="0.0561891307" flag="0"/>
      <psa03 value="0.3046031808" flag="0"/>
      <psa10 value="0.0296171011" flag="0"/>
      <psa30 value="0.0020663346" flag="0"/>
    </comp>
    <comp name="--.HHN">
      <acc value="0.0368392178" flag="0"/>
      <vel value="0.0387231506" flag="0"/>
      <psa03 value="0.1241407340" flag="0"/>
      <psa10 value="0.0389667644" flag="0"/>
      <psa30 value="0.0021503861" flag="0"/>
    </comp>
    <comp name="--.HHZ">
      <acc value="0.0522594276" flag="0"/>
      <vel value="0.0338468178" flag="0"/>
      <psa03 value="0.2032615237" flag="0"/>
      <psa10 value="0.0244453137" flag="0"/>
      <psa30 value="0.0033784766" flag="0"/>
    </comp>
  </station>
  <station code="GAZ" name="GAZ" netid="KO" insttype="CMG-3T" lat="37.1721" lon="37.2096">
    <comp name="--.HHN">
      <acc value="0.0998214467" flag="0"/>
      <vel value="0.0838154532" flag="0"/>
      <psa03 value="0.2410419351" flag="0"/>
      <psa10 value="0.0914029407" flag="0"/>
      <psa30 value="0.0045183267" flag="0"/>
    </comp>
    <comp name="--.HHZ">
      <acc value="0.0753566376" flag="0"/>
      <vel value="0.0448752885" flag="0"/>
      <psa03 value="0.1520654913" flag="0"/>
      <psa10 value="0.0773044711" flag="0"/>
      <psa30 value="0.0063582192" flag="0"/>
    </comp>
  </station>
  <station code="KHMN" name="KHMN" netid="KO" insttype="CMG-5T" lat="37.3916" lon="37.1574">
    <comp name="--.HNZ">
      <acc value="0.4859884152" flag="0"/>
      <vel value="0.1962220925" flag="0"/>
      <psa03 value="0.8509308518" flag="0"/>
      <psa10 value="0.1322511146" flag="0"/>
      <psa30 value="0.0138739365" flag="0"/>
    </comp>
    <comp name="--.HNE">
      <acc value="0.7620145656" flag="0"/>
      <vel value="0.2546908018" flag="0"/>
      <psa03 value="1.4837575547" flag="0"/>
      <psa10 value="0.1579570262" flag="0"/>
      <psa30 value="0.0164231705" flag="0"/>
    </comp>
    <comp name="--.HNN">
      <acc value="0.8310833968" flag="0"/>
      <vel value="0.3563789015" flag="0"/>
      <psa03 value="1.1552516490" flag="0"/>
      <psa10 value="0.2641456209" flag="0"/>
      <psa30 value="0.0194249809" flag="0"/>
    </comp>
  </station>
  <station code="KMRS" name="KMRS" netid="KO" insttype="CMG-3T" lat="37.5053" lon="36.9">
    <comp name="--.HHN">
      <acc value="0.5060783151" flag="0"/>
      <vel value="0.1893887944" flag="0"/>
      <psa03 value="0.7536439442" flag="0"/>
      <psa10 value="0.1058916418" flag="0"/>
      <psa30 value="0.0094581056" flag="0"/>
    </comp>
  </station>
  <station code="SARI" name="SARI" netid="KO" insttype="CMG-3T" lat="38.4072" lon="36.4181">
    <comp name="--.HHE">
      <acc value="0.1259953881" flag="0"/>
      <vel value="0.0469757390" flag="0"/>
      <psa03 value="0.2730204150" flag="0"/>
      <psa10 value="0.0300451882" flag="0"/>
      <psa30 value="0.0019075372" flag="0"/>
    </comp>
    <comp name="--.HHN">
      <acc value="0.0960659272" flag="0"/>
      <vel value="0.0408324498" flag="0"/>
      <psa03 value="0.2308670977" flag="0"/>
      <psa10 value="0.0160692549" flag="0"/>
      <psa30 value="0.0013745034" flag="0"/>
    </comp>
  </station>
  <station code="ANDN" name="ANDN" netid="TU" insttype="T" lat="37.58" lon="36.3452">
    <comp name="--.HHE">
      <acc value="0.4724045670" flag="0"/>
      <vel value="0.1637028226" flag="0"/>
      <psa03 value="1.0049733859" flag="0"/>
      <psa10 value="0.1479158513" flag="0"/>
      <psa30 value="0.0086271893" flag="0"/>
    </comp>
    <comp name="--.HHZ">
      <acc value="0.2825008269" flag="0"/>
      <vel value="0.1261401427" flag="0"/>
      <psa03 value="0.4158787276" flag="0"/>
      <psa10 value="0.1940983945" flag="0"/>
      <psa30 value="0.0105619777" flag="0"/>
    </comp>
    <comp name="--.HHN">
      <acc value="0.7113567723" flag="0"/>
      <vel value="0.2101095147" flag="0"/>
      <psa03 value="0.7025088315" flag="0"/>
      <psa10 value="0.1100977112" flag="0"/>
      <psa30 value="0.0083292637" flag="0"/>
    </comp>
  </station>
</stationlist>
