<?xml version="1.0" encoding="UTF-8" standalone="yes"?>
<!DOCTYPE earthquake SYSTEM "stationlist.dtd">
<stationlist created="" xmlns="ch.ethz.sed.shakemap.usgs.xml">
  <station code="ATAL" name="ATAL" netid="HA" insttype="120s," commtype="DIG" lat="38.6926" lon="23.0213">
    <comp name="--.HHZ">
      <acc value="0.2835591957" flag="0"/>
      <vel value="0.0735866984" flag="0"/>
      <psa03 value="0.4236049344" flag="0"/>
      <psa10 value="0.0394012517" flag="0"/>
      <psa30 value="0.0045192347" flag="0"/>
    </comp>
    <comp name="--.HHN">
      <acc value="0.2910781471" flag="0"/>
      <vel value="0.1046371910" flag="0"/>
      <psa03 value="0.2921682502" flag="0"/>
      <psa10 value="0.0765613094" flag="0"/>
      <psa30 value="0.0084368743" flag="0"/>
    </comp>
    <comp name="--.HHE">
      <acc value="0.2637532706" flag="0"/>
      <vel value="0.0686247956" flag="0"/>
      <psa03 value="0.3375206985" flag="0"/>
      <psa10 value="0.0386828028" flag="0"/>
      <psa30 value="0.0031525810" flag="0"/>
    </comp>
  </station>
  <station code="ATHU" name="ATHU" netid="HA" insttype="DC" commtype="DIG" lat="37.9665" lon="23.7845">
    <comp name="--.HNE">
      <acc value="0.0019125534" flag="0"/>
      <vel value="0.0010281953" flag="0"/>
      <psa03 value="0.0034356972" flag="0"/>
      <psa10 value="0.0015575231" flag="0"/>
      <psa30 value="0.0000992465" flag="0"/>
    </comp>
    <comp name="--.HNN">
      <acc value="0.0016193611" flag="0"/>
      <vel value="0.0006315566" flag="0"/>
      <psa03 value="0.0016011086" flag="0"/>
      <psa10 value="0.0011099313" flag="0"/>
      <psa30 value="0.0000815321" flag="0"/>
    </comp>
    <comp name="--.HNZ">
      <acc value="0.0020435244" flag="0"/>
      <vel value="0.0007005708" flag="0"/>
      <psa03 value="0.0022547698" flag="0"/>
      <psa10 value="0.0008401752" flag="0"/>
      <psa30 value="0.0000764681" flag="0"/>
    </comp>
  </station>
  <station code="ATH5" name="ATH5" netid="HI" insttype="CMG-5TD,ACCELEROMETER,GURALP" commtype="DIG" lat="37.9754" lon="23.7371">
    <comp name="--.HNE">
      <acc value="0.0540191444" flag="0"/>
      <vel value="0.0399282868" flag="0"/>
      <psa03 value="0.1282019271" flag="0"/>
      <psa10 value="0.0623752257" flag="0"/>
      <psa30 value="0.0039133464" flag="0"/>
    </comp>
    <comp name="--.HNZ">
      <acc value="0.0290255726" flag="0"/>
      <vel value="0.0144819831" flag="0"/>
      <psa03 value="0.0389875830" flag="0"/>
      <psa10 value="0.0130406877" flag="0"/>
      <psa30 value="0.0015984146" flag="0"/>
    </comp>
    <comp name="--.HNN">
      <acc value="0.0591956221" flag="0"/>
      <vel value="0.0316093396" flag="0"/>
      <psa03 value="0.1706069177" flag="0"/>
      <psa10 value="0.0333129116" flag="0"/>
      <psa30 value="0.0021698048" flag="0"/>
    </comp>
  </station>
  <station code="KIF1" name="KIF1" netid="HI" insttype="unknown" commtype="DIG" lat="38.0773" lon="23.8146">
    <comp name="--.HNE">
      <acc value="0.0347657299" flag="0"/>
      <vel value="0.0262474019" flag="0"/>
      <psa03 value="0.1010185656" flag="0"/>
      <psa10 value="0.0327237394" flag="0"/>
      <psa30 value="0.0020588911" flag="0"/>
    </comp>
    <comp name="--.HNN">
      <acc value="0.0462591305" flag="0"/>
      <vel value="0.0219710176" flag="0"/>
      <psa03 value="0.0837194780" flag="0"/>
      <psa10 value="0.0212147449" flag="0"/>
      <psa30 value="0.0027321765" flag="0"/>
    </comp>
    <comp name="--.HNZ">
      <acc value="0.0464912419" flag="0"/>
      <vel value="0.0155499105" flag="0"/>
      <psa03 value="0.0543206567" flag="0"/>
      <psa10 value="0.0176219874" flag="0"/>
      <psa30 value="0.0016844701" flag="0"/>
    </comp>
  </station>
  <station code="THV2" name="THV2" netid="HI" insttype="unknown" commtype="DIG" lat="38.3161" lon="23.3198">
    <comp name="--.HNN">
      <acc value="0.1360419103" flag="0"/>
      <vel value="0.0623165032" flag="0"/>
      <psa03 value="0.4382907003" flag="0"/>
      <psa10 value="0.0934948404" flag="0"/>
      <psa30 value="0.0107669270" flag="0"/>
    </comp>
    <comp name="--.HNE">
      <acc value="0.1299387509" flag="0"/>
      <vel value="0.0758807021" flag="0"/>
      <psa03 value="0.3308224701" flag="0"/>
      <psa10 value="0.0921682988" flag="0"/>
      <psa30 value="0.0074668483" flag="0"/>
    </comp>
    <comp name="--.HNZ">
      <acc value="0.1067323393" flag="0"/>
      <vel value="0.0555539578" flag="0"/>
      <psa03 value="0.3196342248" flag="0"/>
      <psa10 value="0.0763291762" flag="0"/>
      <psa30 value="0.0035962713" flag="0"/>
    </comp>
  </station>
  <station code="ACHA" name="ACHA" netid="HL" insttype="CMG-5" commtype="DIG" lat="38.0746" lon="23.7413">
    <comp name="00.HNZ">
      <acc value="0.0764753949" flag="0"/>
      <vel value="0.0245464747" flag="0"/>
      <psa03 value="0.1495634735" flag="0"/>
      <psa10 value="0.0192294463" flag="0"/>
      <psa30 value="0.0016768343" flag="0"/>
    </comp>
    <comp name="00.HNN">
      <acc value="0.0819317307" flag="0"/>
      <vel value="0.0402019231" flag="0"/>
      <psa03 value="0.2515588642" flag="0"/>
      <psa10 value="0.0302844745" flag="0"/>
      <psa30 value="0.0028256108" flag="0"/>
    </comp>
    <comp name="00.HNE">
      <acc value="0.0808539941" flag="0"/>
      <vel value="0.0431961662" flag="0"/>
      <psa03 value="0.1513266777" flag="0"/>
      <psa10 value="0.0455095584" flag="0"/>
      <psa30 value="0.0032416958" flag="0"/>
    </comp>
  </station>
  <station code="AGXA" name="AGXA" netid="HL" insttype="CMG-5" commtype="DIG" lat="39.2765" lon="22.82">
    <comp name="00.HNE">
      <acc value="0.1093421420" flag="0"/>
      <vel value="0.0751007000" flag="0"/>
      <psa03 value="0.3113228243" flag="0"/>
      <psa10 value="0.0841023998" flag="0"/>
      <psa30 value="0.0045646606" flag="0"/>
    </comp>
    <comp name="00.HNN">
      <acc value="0.0735594976" flag="0"/>
      <vel value="0.0603482119" flag="0"/>
      <psa03 value="0.1994133388" flag="0"/>
      <psa10 value="0.0818827027" flag="0"/>
      <psa30 value="0.0046551648" flag="0"/>
    </comp>
    <comp name="00.HNZ">
      <acc value="0.0570801671" flag="0"/>
      <vel value="0.0290104733" flag="0"/>
      <psa03 value="0.1093352841" flag="0"/>
      <psa10 value="0.0341782247" flag="0"/>
      <psa30 value="0.0020025096" flag="0"/>
    </comp>
  </station>
  <station code="ATHP" name="ATHP" netid="HL" insttype="CMG-5" commtype="DIG" lat="38.0008" lon="23.7735">
    <comp name="00.HNZ">
      <acc value="0.0359842632" flag="0"/>
      <vel value="0.0134863762" flag="0"/>
      <psa03 value="0.0382417589" flag="0"/>
      <psa10 value="0.0129476535" flag="0"/>
      <psa30 value="0.0019744399" flag="0"/>
    </comp>
    <comp name="00.HNN">
      <acc value="0.0442142742" flag="0"/>
      <vel value="0.0208627650" flag="0"/>
      <psa03 value="0.0848831890" flag="0"/>
      <psa10 value="0.0249997016" flag="0"/>
      <psa30 value="0.0017057712" flag="0"/>
    </comp>
    <comp name="00.HNE">
      <acc value="0.0468594767" flag="0"/>
      <vel value="0.0285398038" flag="0"/>
      <psa03 value="0.0866531993" flag="0"/>
      <psa10 value="0.0425059574" flag="0"/>
      <psa30 value="0.0022555567" flag="0"/>
    </comp>
  </station>
  <station code="DLFA" name="DLFA" netid="HL" insttype="CMG-5" commtype="DIG" lat="38.4784" lon="22.4958">
    <comp name="00.HNZ">
      <acc value="0.0325371248" flag="0"/>
      <vel value="0.0199979011" flag="0"/>
      <psa03 value="0.0692964740" flag="0"/>
      <psa10 value="0.0404106575" flag="0"/>
      <psa30 value="0.0023615764" flag="0"/>
    </comp>
    <comp name="00.HNN">
      <acc value="0.0334585727" flag="0"/>
      <vel value="0.0188825621" flag="0"/>
      <psa03 value="0.1124533051" flag="0"/>
      <psa10 value="0.0307535969" flag="0"/>
      <psa30 value="0.0012951030" flag="0"/>
    </comp>
    <comp name="00.HNE">
      <acc value="0.0403058988" flag="0"/>
      <vel value="0.0299343454" flag="0"/>
      <psa03 value="0.0940341504" flag="0"/>
      <psa10 value="0.0559973722" flag="0"/>
      <psa30 value="0.0024284462" flag="0"/>
    </comp>
  </station>
  <station code="LKR" name="LKR" netid="HL" insttype="65535" commtype="DIG" lat="38.6496" lon="22.9988">
    <comp name="--.HHE">
      <acc value="0.0089482307" flag="0"/>
      <vel value="0.0009451155" flag="0"/>
      <psa03 value="0.0015606722" flag="0"/>
      <psa10 value="0.0001400340" flag="0"/>
      <psa30 value="0.0000247658" flag="0"/>
    </comp>
    <comp name="--.HHZ">
      <acc value="0.2314289648" flag="0"/>
      <vel value="0.0490186868" flag="0"/>
      <psa03 value="0.1537034964" flag="0"/>
      <psa10 value="0.0244171612" flag="0"/>
      <psa30 value="0.0026643835" flag="0"/>
    </comp>
    <comp name="--.HHN">
      <acc value="0.4312742717" flag="0"/>
      <vel value="0.0893441794" flag="0"/>
      <psa03 value="0.2525548281" flag="0"/>
      <psa10 value="0.0460552445" flag="0"/>
      <psa30 value="0.0025476854" flag="0"/>
    </comp>
  </station>
  <station code="NOAC" name="NOAC" netid="HL" insttype="CMG-5" commtype="DIG" lat="37.9738" lon="23.7177">
    <comp name="00.HNN">
      <acc value="0.0782418865" flag="0"/>
      <vel value="0.0440235314" flag="0"/>
      <psa03 value="0.1316286407" flag="0"/>
      <psa10 value="0.0538978875" flag="0"/>
      <psa30 value="0.0036561720" flag="0"/>
    </comp>
    <comp name="00.HNZ">
      <acc value="0.0454124873" flag="0"/>
      <vel value="0.0141196932" flag="0"/>
      <psa03 value="0.0643683879" flag="0"/>
      <psa10 value="0.0164758470" flag="0"/>
      <psa30 value="0.0014862497" flag="0"/>
    </comp>
    <comp name="00.HNE">
      <acc value="0.0934230594" flag="0"/>
      <vel value="0.0465162757" flag="0"/>
      <psa03 value="0.1318981735" flag="0"/>
      <psa10 value="0.0408522725" flag="0"/>
      <psa30 value="0.0028836476" flag="0"/>
    </comp>
  </station>
  <station code="DSF" name="DSF" netid="HP" insttype="Compact," commtype="DIG" lat="38.4112" lon="22.5271">
    <comp name="--.HHN">
      <acc value="0.1423322897" flag="0"/>
      <vel value="0.0490667762" flag="0"/>
      <psa03 value="0.2435919911" flag="0"/>
      <psa10 value="0.0208042946" flag="0"/>
      <psa30 value="0.0014719837" flag="0"/>
    </comp>
    <comp name="--.HHE">
      <acc value="0.0830223324" flag="0"/>
      <vel value="0.0346630008" flag="0"/>
      <psa03 value="0.2214213260" flag="0"/>
      <psa10 value="0.0172959117" flag="0"/>
      <psa30 value="0.0014561804" flag="0"/>
    </comp>
    <comp name="--.HHZ">
      <acc value="0.0549424954" flag="0"/>
      <vel value="0.0345401917" flag="0"/>
      <psa03 value="0.0994798646" flag="0"/>
      <psa10 value="0.0416057527" flag="0"/>
      <psa30 value="0.0024944064" flag="0"/>
    </comp>
  </station>
</stationlist>
