<stationlist xmlns:esm="https://esm-db.eu/esmws/shakemap/1/" created="1782266080">
	<station code="PER1" name="PER1" netid="HI" source="ITSAK Strong Motion Network" insttype="" lat="38.0119" lon="23.7027" esm:processing="manual (Paolucci et al 2011)" esm:quality="good">
		<comp name="--.HNE" depth="0.0">
			<acc value="0.0686473797808703" flag="0"/>
			<vel value="0.0223306414650132" flag="0"/>
			<psa03 value="0.0787669418816649" flag="0"/>
			<psa10 value="0.0271322786303009" flag="0"/>
			<psa30 value="0.00128180157973057" flag="0"/>
		</comp>
		<comp name="--.HNN" depth="0.0">
			<acc value="0.0660753845749642" flag="0"/>
			<vel value="0.0178138070159787" flag="0"/>
			<psa03 value="0.0597647924575232" flag="0"/>
			<psa10 value="0.0197869051603578" flag="0"/>
			<psa30 value="0.000913336545730398" flag="0"/>
		</comp>
		<comp name="--.HNZ" depth="0.0">
			<acc value="0.0371675977993467" flag="0"/>
			<vel value="0.0117815944292134" flag="0"/>
			<psa03 value="0.0371908230845062" flag="0"/>
			<psa10 value="0.0100525840593584" flag="0"/>
			<psa30 value="0.00087088644195269" flag="0"/>
		</comp>
	</station>
	<station code="PIR1" name="PIR1" netid="HI" source="ITSAK Strong Motion Network" insttype="" lat="37.93723" lon="23.642595" esm:processing="manual (Paolucci et al 2011)" esm:quality="good">
		<comp name="--.HNE" depth="0.0">
			<acc value="0.112573255112566" flag="0"/>
			<vel value="0.0278794195476832" flag="0"/>
			<psa03 value="0.119513365090563" flag="0"/>
			<psa10 value="0.0395475773329088" flag="0"/>
			<psa30 value="0.00235147160678686" flag="0"/>
		</comp>
		<comp name="--.HNN" depth="0.0">
			<acc value="0.0812768887355452" flag="0"/>
			<vel value="0.0592370302997171" flag="0"/>
			<psa03 value="0.143243166240096" flag="0"/>
			<psa10 value="0.0804705882815445" flag="0"/>
			<psa30 value="0.00408992385404969" flag="0"/>
		</comp>
		<comp name="--.HNZ" depth="0.0">
			<acc value="0.075150286547513" flag="0"/>
			<vel value="0.0182680099682949" flag="0"/>
			<psa03 value="0.0752262177427343" flag="0"/>
			<psa10 value="0.0232572781805387" flag="0"/>
			<psa30 value="0.00120838150767779" flag="0"/>
		</comp>
	</station>
	<station code="PIR3" name="PIR3" netid="HI" source="ITSAK Strong Motion Network" insttype="" lat="37.9573" lon="23.6519" esm:processing="manual (Paolucci et al 2011)" esm:quality="good">
		<comp name="--.HNE" depth="0.0">
			<acc value="0.0577257787137085" flag="0"/>
			<vel value="0.0238078286528945" flag="0"/>
			<psa03 value="0.0800438858479357" flag="0"/>
			<psa10 value="0.0277133308721603" flag="0"/>
			<psa30 value="0.00261381148551633" flag="0"/>
		</comp>
		<comp name="--.HNN" depth="0.0">
			<acc value="0.0701475596747366" flag="0"/>
			<vel value="0.0341717161949874" flag="0"/>
			<psa03 value="0.127547553566119" flag="0"/>
			<psa10 value="0.0566179919140976" flag="0"/>
			<psa30 value="0.0028114737463377" flag="0"/>
		</comp>
		<comp name="--.HNZ" depth="0.0">
			<acc value="0.0531519119296329" flag="0"/>
			<vel value="0.0213851441944042" flag="0"/>
			<psa03 value="0.08537942159266" flag="0"/>
			<psa10 value="0.0343664516087573" flag="0"/>
			<psa30 value="0.002327478767379" flag="0"/>
		</comp>
	</station>
	<station code="THV2" name="THV2" netid="HI" source="ITSAK Strong Motion Network" insttype="" lat="38.316117" lon="23.319807" esm:processing="manual (Paolucci et al 2011)" esm:quality="good">
		<comp name="--.HNE" depth="0.0">
			<acc value="0.13018396016851" flag="0"/>
			<vel value="0.0728780538008051" flag="0"/>
			<psa03 value="0.334200659986886" flag="0"/>
			<psa10 value="0.0900828050437306" flag="0"/>
			<psa30 value="0.00570207773466557" flag="0"/>
		</comp>
		<comp name="--.HNN" depth="0.0">
			<acc value="0.136022260024337" flag="0"/>
			<vel value="0.0616214140963948" flag="0"/>
			<psa03 value="0.444597577407531" flag="0"/>
			<psa10 value="0.0920931632200935" flag="0"/>
			<psa30 value="0.00523336126783332" flag="0"/>
		</comp>
		<comp name="--.HNZ" depth="0.0">
			<acc value="0.106798185719682" flag="0"/>
			<vel value="0.0554683977080883" flag="0"/>
			<psa03 value="0.315886946793266" flag="0"/>
			<psa10 value="0.07456293442847" flag="0"/>
			<psa30 value="0.00307969755651541" flag="0"/>
		</comp>
	</station>
	<station code="VOL2" name="VOL2" netid="HI" source="ITSAK Strong Motion Network" insttype="" lat="39.366" lon="22.9506" esm:processing="manual (Paolucci et al 2011)" esm:quality="good">
		<comp name="--.HNE" depth="0.0">
			<acc value="0.0750371799613876" flag="0"/>
			<vel value="0.0336745175036455" flag="0"/>
			<psa03 value="0.179422677538493" flag="0"/>
			<psa10 value="0.03163910968574" flag="0"/>
			<psa30 value="0.00176105561962532" flag="0"/>
		</comp>
		<comp name="--.HNN" depth="0.0">
			<acc value="0.0771598555574249" flag="0"/>
			<vel value="0.0397006039553594" flag="0"/>
			<psa03 value="0.162696038230729" flag="0"/>
			<psa10 value="0.0479860825924683" flag="0"/>
			<psa30 value="0.00360198028018262" flag="0"/>
		</comp>
		<comp name="--.HNZ" depth="0.0">
			<acc value="0.047516666315979" flag="0"/>
			<vel value="0.0155993290730471" flag="0"/>
			<psa03 value="0.0385501839688268" flag="0"/>
			<psa10 value="0.0129209803265337" flag="0"/>
			<psa30 value="0.00129889281610776" flag="0"/>
		</comp>
	</station>
	<station code="ANX" name="ANX" netid="HP" source="University of Patras, Seismological Laboratory (PSLNET)" insttype="" lat="38.5933" lon="21.9209" esm:processing="manual (Paolucci et al 2011)" esm:quality="bad">
		<comp name="--.HNE" depth="0.0">
			<acc value="0.0211460051089596" flag="0"/>
			<vel value="0.0138063266530228" flag="0"/>
			<psa03 value="0.0624767637789803" flag="0"/>
			<psa10 value="0.00492648573050171" flag="0"/>
			<psa30 value="0.000422260134119873" flag="0"/>
		</comp>
		<comp name="--.HNN" depth="0.0">
			<acc value="0.0214944662627526" flag="0"/>
			<vel value="0.0113889242932013" flag="0"/>
			<psa03 value="0.0730540269707562" flag="0"/>
			<psa10 value="0.00722572413751209" flag="0"/>
			<psa30 value="0.000396347245643186" flag="0"/>
		</comp>
		<comp name="--.HNZ" depth="0.0">
			<acc value="0.00975541386658499" flag="0"/>
			<vel value="0.00679346337649309" flag="0"/>
			<psa03 value="0.0431606143872152" flag="0"/>
			<psa10 value="0.00519217770629115" flag="0"/>
			<psa30 value="0.000227956689553596" flag="0"/>
		</comp>
	</station>
	<station code="DSF" name="DSF" netid="HP" source="University of Patras, Seismological Laboratory (PSLNET)" insttype="" lat="38.4112" lon="22.5271" esm:processing="manual (Paolucci et al 2011)" esm:quality="good">
		<comp name="--.HNE" depth="1.0">
			<acc value="0.0900941110600943" flag="0"/>
			<vel value="0.033628602537677" flag="0"/>
			<psa03 value="0.210808527530354" flag="0"/>
			<psa10 value="0.0165812115488887" flag="0"/>
			<psa30 value="0.00115513995985321" flag="0"/>
		</comp>
		<comp name="--.HNN" depth="1.0">
			<acc value="0.137102516125368" flag="0"/>
			<vel value="0.0461831933134756" flag="0"/>
			<psa03 value="0.229451470867189" flag="0"/>
			<psa10 value="0.0153190316856673" flag="0"/>
			<psa30 value="0.00093337235217091" flag="0"/>
		</comp>
		<comp name="--.HNZ" depth="1.0">
			<acc value="0.0542215627351822" flag="0"/>
			<vel value="0.0293751558565781" flag="0"/>
			<psa03 value="0.0986971632026816" flag="0"/>
			<psa10 value="0.027518580470902" flag="0"/>
			<psa30 value="0.00103209962153464" flag="0"/>
		</comp>
	</station>
	<station code="EFP" name="EFP" netid="HP" source="University of Patras, Seismological Laboratory (PSLNET)" insttype="" lat="38.4269" lon="21.9058" esm:processing="manual (Paolucci et al 2011)" esm:quality="bad">
		<comp name="--.HNE" depth="0.0">
			<acc value="0.0124924579601625" flag="0"/>
			<vel value="0.00645395421905457" flag="0"/>
			<psa03 value="0.0404632351782473" flag="0"/>
			<psa10 value="0.00335421821612017" flag="0"/>
			<psa30 value="0.000166818251411288" flag="0"/>
		</comp>
		<comp name="--.HNN" depth="0.0">
			<acc value="0.0112853888135409" flag="0"/>
			<vel value="0.0057220445128801" flag="0"/>
			<psa03 value="0.0410766195619524" flag="0"/>
			<psa10 value="0.00237504358498139" flag="0"/>
			<psa30 value="0.000160219142377701" flag="0"/>
		</comp>
		<comp name="--.HNZ" depth="0.0">
			<acc value="0.0114267529385858" flag="0"/>
			<vel value="0.00614750424954074" flag="0"/>
			<psa03 value="0.0276824041359158" flag="0"/>
			<psa10 value="0.00274416975652868" flag="0"/>
			<psa30 value="0.000204584203741117" flag="0"/>
		</comp>
	</station>
	<station code="LTK" name="LTK" netid="HP" source="University of Patras, Seismological Laboratory (PSLNET)" insttype="" lat="38.0228" lon="22.9673" esm:processing="manual (Paolucci et al 2011)" esm:quality="bad">
		<comp name="--.HNE" depth="0.0">
			<acc value="0.0643498062313054" flag="0"/>
			<vel value="0.0591365811335912" flag="0"/>
			<psa03 value="0.155188936755432" flag="0"/>
			<psa10 value="0.0675653608735643" flag="0"/>
			<psa30 value="0.00328129528637563" flag="0"/>
		</comp>
		<comp name="--.HNN" depth="0.0">
			<acc value="0.0539891073781413" flag="0"/>
			<vel value="0.0359728704096248" flag="0"/>
			<psa03 value="0.13715948197587" flag="0"/>
			<psa10 value="0.0397069403899293" flag="0"/>
			<psa30 value="0.00297001508225645" flag="0"/>
		</comp>
		<comp name="--.HNZ" depth="0.0">
			<acc value="0.0372598805586391" flag="0"/>
			<vel value="0.0280489257930757" flag="0"/>
			<psa03 value="0.122556389592668" flag="0"/>
			<psa10 value="0.0322179005277927" flag="0"/>
			<psa30 value="0.00169509583344653" flag="0"/>
		</comp>
	</station>
	<station code="SERG" name="SERG" netid="HP" source="University of Patras, Seismological Laboratory (PSLNET)" insttype="" lat="38.4133" lon="22.0566" esm:processing="manual (Paolucci et al 2011)" esm:quality="bad">
		<comp name="--.HNE" depth="0.0">
			<acc value="0.0298752280588983" flag="0"/>
			<vel value="0.0136566353732262" flag="0"/>
			<psa03 value="0.100616602856139" flag="0"/>
			<psa10 value="0.00504921729836574" flag="0"/>
			<psa30 value="0.000340238867280151" flag="0"/>
		</comp>
		<comp name="--.HNN" depth="0.0">
			<acc value="0.0338955198584483" flag="0"/>
			<vel value="0.0171445818657477" flag="0"/>
			<psa03 value="0.076312539706233" flag="0"/>
			<psa10 value="0.00568642529151803" flag="0"/>
			<psa30 value="0.000494101377624677" flag="0"/>
		</comp>
		<comp name="--.HNZ" depth="0.0">
			<acc value="0.0135795016679265" flag="0"/>
			<vel value="0.00558037189201383" flag="0"/>
			<psa03 value="0.0554715132571799" flag="0"/>
			<psa10 value="0.00296968555521857" flag="0"/>
			<psa30 value="0.000199570616407228" flag="0"/>
		</comp>
	</station>
</stationlist>
