<?xml version="1.0" encoding="UTF-8" standalone="yes"?>
<!DOCTYPE earthquake SYSTEM "stationlist.dtd">
<stationlist created="" xmlns="ch.ethz.sed.shakemap.usgs.xml">
  <station code="APMY" name="APMY" netid="KO" insttype="CMG-6T" lat="37.4717" lon="29.3018">
    <comp name="--.HHN">
      <acc value="0.0370707534" flag="0"/>
      <vel value="0.0094244762" flag="0"/>
      <psa03 value="0.0334094565" flag="0"/>
      <psa10 value="0.0046715382" flag="0"/>
      <psa30 value="0.0003660812" flag="0"/>
    </comp>
  </station>
  <station code="AYDB" name="AYDB" netid="KO" insttype="CMG-3ESPC" lat="37.9467" lon="27.8908">
    <comp name="--.HHE">
      <acc value="0.0196042740" flag="0"/>
      <vel value="0.0079565673" flag="0"/>
      <psa03 value="0.0349131273" flag="0"/>
      <psa10 value="0.0048645390" flag="0"/>
      <psa30 value="0.0004841098" flag="0"/>
    </comp>
    <comp name="--.HHN">
      <acc value="0.0169425146" flag="0"/>
      <vel value="0.0064382875" flag="0"/>
      <psa03 value="0.0278993199" flag="0"/>
      <psa10 value="0.0039754203" flag="0"/>
      <psa30 value="0.0005748861" flag="0"/>
    </comp>
    <comp name="--.HHZ">
      <acc value="0.0142412657" flag="0"/>
      <vel value="0.0049198318" flag="0"/>
      <psa03 value="0.0134638006" flag="0"/>
      <psa10 value="0.0032498702" flag="0"/>
      <psa30 value="0.0004535089" flag="0"/>
    </comp>
  </station>
  <station code="BASM" name="BASM" netid="KO" insttype="CMG-5T" lat="37.9194" lon="30.035">
    <comp name="--.HNE">
      <acc value="0.0968104248" flag="0"/>
      <vel value="0.0297123259" flag="0"/>
      <psa03 value="0.0948086249" flag="0"/>
      <psa10 value="0.0219507020" flag="0"/>
      <psa30 value="0.0010938840" flag="0"/>
    </comp>
    <comp name="--.HNN">
      <acc value="0.0815299866" flag="0"/>
      <vel value="0.0255960821" flag="0"/>
      <psa03 value="0.1144692507" flag="0"/>
      <psa10 value="0.0309088262" flag="0"/>
      <psa30 value="0.0013269128" flag="0"/>
    </comp>
    <comp name="--.HNZ">
      <acc value="0.0324569115" flag="0"/>
      <vel value="0.0141794703" flag="0"/>
      <psa03 value="0.0609515679" flag="0"/>
      <psa10 value="0.0131621121" flag="0"/>
      <psa30 value="0.0005902948" flag="0"/>
    </comp>
  </station>
  <station code="GEDZ" name="GEDZ" netid="KO" insttype="CMG-6T" lat="39.0445" lon="29.4105">
    <comp name="--.HHE">
      <acc value="0.0270204655" flag="0"/>
      <vel value="0.0166122930" flag="0"/>
      <psa03 value="0.1009679763" flag="0"/>
      <psa10 value="0.0127274534" flag="0"/>
      <psa30 value="0.0012858531" flag="0"/>
    </comp>
    <comp name="--.HHZ">
      <acc value="0.0197231159" flag="0"/>
      <vel value="0.0112200662" flag="0"/>
      <psa03 value="0.0309347040" flag="0"/>
      <psa10 value="0.0087510613" flag="0"/>
      <psa30 value="0.0006381405" flag="0"/>
    </comp>
    <comp name="--.HHN">
      <acc value="0.0263148694" flag="0"/>
      <vel value="0.0155779416" flag="0"/>
      <psa03 value="0.0963144245" flag="0"/>
      <psa10 value="0.0305760744" flag="0"/>
      <psa30 value="0.0014624557" flag="0"/>
    </comp>
  </station>
  <station code="KHL" name="KHL" netid="KO" insttype="CMG-5T" lat="38.3231" lon="29.5286">
    <comp name="--.HNZ">
      <acc value="0.0488497726" flag="0"/>
      <vel value="0.0165341744" flag="0"/>
      <psa03 value="0.0637744382" flag="0"/>
      <psa10 value="0.0155608445" flag="0"/>
      <psa30 value="0.0013573854" flag="0"/>
    </comp>
    <comp name="--.HNE">
      <acc value="0.0743477574" flag="0"/>
      <vel value="0.0181734628" flag="0"/>
      <psa03 value="0.1797859372" flag="0"/>
      <psa10 value="0.0090012519" flag="0"/>
      <psa30 value="0.0009749285" flag="0"/>
    </comp>
    <comp name="--.HNN">
      <acc value="0.0585645340" flag="0"/>
      <vel value="0.0201784791" flag="0"/>
      <psa03 value="0.1289235043" flag="0"/>
      <psa10 value="0.0117238870" flag="0"/>
      <psa30 value="0.0016145462" flag="0"/>
    </comp>
  </station>
  <station code="KULA" name="KULA" netid="KO" insttype="CMG-3T" lat="38.5145" lon="28.6607">
    <comp name="--.HHZ">
      <acc value="0.0369113268" flag="0"/>
      <vel value="0.0067817413" flag="0"/>
      <psa03 value="0.0207838346" flag="0"/>
      <psa10 value="0.0027937136" flag="0"/>
      <psa30 value="0.0005383578" flag="0"/>
    </comp>
    <comp name="--.HHE">
      <acc value="0.0359119736" flag="0"/>
      <vel value="0.0082288904" flag="0"/>
      <psa03 value="0.0367056763" flag="0"/>
      <psa10 value="0.0066674595" flag="0"/>
      <psa30 value="0.0003489057" flag="0"/>
    </comp>
  </station>
  <station code="NAZL" name="NAZL" netid="KO" insttype="CMG-5T" lat="37.9641" lon="28.2922">
    <comp name="--.HNN">
      <acc value="0.0482638506" flag="0"/>
      <vel value="0.0141458704" flag="0"/>
      <psa03 value="0.0937254471" flag="0"/>
      <psa10 value="0.0040427897" flag="0"/>
      <psa30 value="0.0005108257" flag="0"/>
    </comp>
    <comp name="--.HNZ">
      <acc value="0.0279775604" flag="0"/>
      <vel value="0.0069821692" flag="0"/>
      <psa03 value="0.0241507004" flag="0"/>
      <psa10 value="0.0027016894" flag="0"/>
      <psa30 value="0.0005258676" flag="0"/>
    </comp>
    <comp name="--.HNE">
      <acc value="0.0497160830" flag="0"/>
      <vel value="0.0195683773" flag="0"/>
      <psa03 value="0.0913789433" flag="0"/>
      <psa10 value="0.0061297579" flag="0"/>
      <psa30 value="0.0006685366" flag="0"/>
    </comp>
  </station>
  <station code="SHAP" name="SHAP" netid="KO" insttype="CMG-5T" lat="39.0231" lon="29.222">
    <comp name="--.HNE">
      <acc value="0.0158358041" flag="0"/>
      <vel value="0.0060359474" flag="0"/>
      <psa03 value="0.0276004189" flag="0"/>
      <psa10 value="0.0052981152" flag="0"/>
      <psa30 value="0.0006891250" flag="0"/>
    </comp>
    <comp name="--.HNN">
      <acc value="0.0206646255" flag="0"/>
      <vel value="0.0072285220" flag="0"/>
      <psa03 value="0.0467191700" flag="0"/>
      <psa10 value="0.0065894470" flag="0"/>
      <psa30 value="0.0007133890" flag="0"/>
    </comp>
    <comp name="--.HNZ">
      <acc value="0.0095904225" flag="0"/>
      <vel value="0.0063530733" flag="0"/>
      <psa03 value="0.0154866830" flag="0"/>
      <psa10 value="0.0049090517" flag="0"/>
      <psa30 value="0.0004182006" flag="0"/>
    </comp>
  </station>
  <station code="SIMA" name="SIMA" netid="KO" insttype="CMG-6T" lat="39.0833" lon="28.9825">
    <comp name="--.HHE">
      <acc value="0.0093923466" flag="0"/>
      <vel value="0.0046541230" flag="0"/>
      <psa03 value="0.0177316442" flag="0"/>
      <psa10 value="0.0038372004" flag="0"/>
      <psa30 value="0.0004123739" flag="0"/>
    </comp>
    <comp name="--.HHZ">
      <acc value="0.0095176473" flag="0"/>
      <vel value="0.0031909318" flag="0"/>
      <psa03 value="0.0118489751" flag="0"/>
      <psa10 value="0.0032130929" flag="0"/>
      <psa30 value="0.0003333187" flag="0"/>
    </comp>
    <comp name="--.HHN">
      <acc value="0.0119863308" flag="0"/>
      <vel value="0.0054539947" flag="0"/>
      <psa03 value="0.0425176537" flag="0"/>
      <psa10 value="0.0055261035" flag="0"/>
      <psa30 value="0.0003816343" flag="0"/>
    </comp>
  </station>
  <station code="SMAA" name="SMAA" netid="KO" insttype="CMG-5T" lat="39.1005" lon="28.9805">
    <comp name="--.HNN">
      <acc value="0.0137924644" flag="0"/>
      <vel value="0.0118730940" flag="0"/>
      <psa03 value="0.0419713674" flag="0"/>
      <psa10 value="0.0193042327" flag="0"/>
      <psa30 value="0.0013808204" flag="0"/>
    </comp>
    <comp name="--.HNE">
      <acc value="0.0144800608" flag="0"/>
      <vel value="0.0182690110" flag="0"/>
      <psa03 value="0.0408059872" flag="0"/>
      <psa10 value="0.0355173473" flag="0"/>
      <psa30 value="0.0021641517" flag="0"/>
    </comp>
    <comp name="--.HNZ">
      <acc value="0.0114834801" flag="0"/>
      <vel value="0.0066676381" flag="0"/>
      <psa03 value="0.0229995764" flag="0"/>
      <psa10 value="0.0107801310" flag="0"/>
      <psa30 value="0.0005878012" flag="0"/>
    </comp>
  </station>
  <station code="YER" name="YER" netid="KO" insttype="CMG-3T" lat="37.1336" lon="28.284">
    <comp name="--.HHE">
      <acc value="0.0057612538" flag="0"/>
      <vel value="0.0030166594" flag="0"/>
      <psa03 value="0.0130045675" flag="0"/>
      <psa10 value="0.0051699790" flag="0"/>
      <psa30 value="0.0005469799" flag="0"/>
    </comp>
    <comp name="--.HHZ">
      <acc value="0.0029146514" flag="0"/>
      <vel value="0.0017026478" flag="0"/>
      <psa03 value="0.0074174412" flag="0"/>
      <psa10 value="0.0016500091" flag="0"/>
      <psa30 value="0.0003946320" flag="0"/>
    </comp>
    <comp name="--.HHN">
      <acc value="0.0064358589" flag="0"/>
      <vel value="0.0038511980" flag="0"/>
      <psa03 value="0.0177824153" flag="0"/>
      <psa10 value="0.0046697957" flag="0"/>
      <psa30 value="0.0003041753" flag="0"/>
    </comp>
  </station>
  <station code="AYDN" name="AYDN" netid="TU" insttype="T" lat="37.6608" lon="27.8792">
    <comp name="--.HHE">
      <acc value="0.0239268921" flag="0"/>
      <vel value="0.0132176629" flag="0"/>
      <psa03 value="0.0497561821" flag="0"/>
      <psa10 value="0.0118655013" flag="0"/>
      <psa30 value="0.0007368805" flag="0"/>
    </comp>
    <comp name="--.HHN">
      <acc value="0.0255612693" flag="0"/>
      <vel value="0.0116284604" flag="0"/>
      <psa03 value="0.0490794492" flag="0"/>
      <psa10 value="0.0088097085" flag="0"/>
      <psa30 value="0.0008836740" flag="0"/>
    </comp>
    <comp name="--.HHZ">
      <acc value="0.0129876477" flag="0"/>
      <vel value="0.0077919586" flag="0"/>
      <psa03 value="0.0190335853" flag="0"/>
      <psa10 value="0.0077891426" flag="0"/>
      <psa30 value="0.0005304844" flag="0"/>
    </comp>
  </station>
</stationlist>
