<?xml version="1.0" encoding="UTF-8" standalone="yes"?>
<!DOCTYPE earthquake SYSTEM "stationlist.dtd">
<stationlist created="" xmlns="ch.ethz.sed.shakemap.usgs.xml">
  <station code="ARPRA" name="ARPRA" netid="KO" insttype="CMG-5T" lat="39.0929" lon="38.3356">
    <comp name="--.HNE">
      <acc value="0.0224183726" flag="0"/>
      <vel value="0.0214966471" flag="0"/>
      <psa03 value="0.0876772419" flag="0"/>
      <psa10 value="0.0273823150" flag="0"/>
      <psa30 value="0.0021990376" flag="0"/>
    </comp>
    <comp name="--.HNN">
      <acc value="0.0240417869" flag="0"/>
      <vel value="0.0199695060" flag="0"/>
      <psa03 value="0.0641880416" flag="0"/>
      <psa10 value="0.0286969410" flag="0"/>
      <psa30 value="0.0018072430" flag="0"/>
    </comp>
    <comp name="--.HNZ">
      <acc value="0.0107000255" flag="0"/>
      <vel value="0.0121838256" flag="0"/>
      <psa03 value="0.0325498166" flag="0"/>
      <psa10 value="0.0209353565" flag="0"/>
      <psa30 value="0.0020050081" flag="0"/>
    </comp>
  </station>
  <station code="BNGB" name="BNGB" netid="KO" insttype="CMG-3ESPC" lat="38.9913" lon="40.6792">
    <comp name="--.HHE">
      <acc value="0.0050941560" flag="0"/>
      <vel value="0.0070455539" flag="0"/>
      <psa03 value="0.0122336397" flag="0"/>
      <psa10 value="0.0101101110" flag="0"/>
      <psa30 value="0.0029111245" flag="0"/>
    </comp>
    <comp name="--.HHZ">
      <acc value="0.0040594914" flag="0"/>
      <vel value="0.0052811530" flag="0"/>
      <psa03 value="0.0065878827" flag="0"/>
      <psa10 value="0.0085350825" flag="0"/>
      <psa30 value="0.0024436814" flag="0"/>
    </comp>
    <comp name="--.HHN">
      <acc value="0.0049486842" flag="0"/>
      <vel value="0.0054058028" flag="0"/>
      <psa03 value="0.0086873614" flag="0"/>
      <psa10 value="0.0061828831" flag="0"/>
      <psa30 value="0.0033380365" flag="0"/>
    </comp>
  </station>
  <station code="DYBB" name="DYBB" netid="KO" insttype="CMG-3T" lat="37.9532" lon="40.1393">
    <comp name="--.HHE">
      <acc value="0.0148108005" flag="0"/>
      <vel value="0.0178682783" flag="0"/>
      <psa03 value="0.0327815819" flag="0"/>
      <psa10 value="0.0327748266" flag="0"/>
      <psa30 value="0.0057512760" flag="0"/>
    </comp>
    <comp name="--.HHN">
      <acc value="0.0153830507" flag="0"/>
      <vel value="0.0199094490" flag="0"/>
      <psa03 value="0.0478407214" flag="0"/>
      <psa10 value="0.0291200006" flag="0"/>
      <psa30 value="0.0046082965" flag="0"/>
    </comp>
    <comp name="--.HHZ">
      <acc value="0.0147455641" flag="0"/>
      <vel value="0.0190628796" flag="0"/>
      <psa03 value="0.0224045017" flag="0"/>
      <psa10 value="0.0648387995" flag="0"/>
      <psa30 value="0.0046015194" flag="0"/>
    </comp>
  </station>
  <station code="KARO" name="KARO" netid="KO" insttype="CMG-3T" lat="39.3089" lon="41.0493">
    <comp name="--.HHN">
      <acc value="0.0102155396" flag="0"/>
      <vel value="0.0101921432" flag="0"/>
      <psa03 value="0.0183698763" flag="0"/>
      <psa10 value="0.0127884040" flag="0"/>
      <psa30 value="0.0019836680" flag="0"/>
    </comp>
    <comp name="--.HHE">
      <acc value="0.0097070559" flag="0"/>
      <vel value="0.0114325236" flag="0"/>
      <psa03 value="0.0281829550" flag="0"/>
      <psa10 value="0.0208504359" flag="0"/>
      <psa30 value="0.0040779347" flag="0"/>
    </comp>
    <comp name="--.HHZ">
      <acc value="0.0048390927" flag="0"/>
      <vel value="0.0036612345" flag="0"/>
      <psa03 value="0.0148050922" flag="0"/>
      <psa10 value="0.0063578695" flag="0"/>
      <psa30 value="0.0007120244" flag="0"/>
    </comp>
  </station>
  <station code="MAZI" name="MAZI" netid="KO" insttype="CMG-3T" lat="37.4593" lon="40.4465">
    <comp name="--.HHE">
      <acc value="0.0422127101" flag="0"/>
      <vel value="0.0184167944" flag="0"/>
      <psa03 value="0.1353653973" flag="0"/>
      <psa10 value="0.0346912603" flag="0"/>
      <psa30 value="0.0018449971" flag="0"/>
    </comp>
    <comp name="--.HHN">
      <acc value="0.0461704057" flag="0"/>
      <vel value="0.0273360269" flag="0"/>
      <psa03 value="0.1108202093" flag="0"/>
      <psa10 value="0.0512161430" flag="0"/>
      <psa30 value="0.0020529012" flag="0"/>
    </comp>
    <comp name="--.HHZ">
      <acc value="0.0477286436" flag="0"/>
      <vel value="0.0284315338" flag="0"/>
      <psa03 value="0.1301349059" flag="0"/>
      <psa10 value="0.0439737392" flag="0"/>
      <psa30 value="0.0015704510" flag="0"/>
    </comp>
  </station>
  <station code="SVAN" name="SVAN" netid="KO" insttype="CMG-3T" lat="38.1511" lon="41.1984">
    <comp name="--.HHZ">
      <acc value="0.0048888163" flag="0"/>
      <vel value="0.0035138972" flag="0"/>
      <psa03 value="0.0140946523" flag="0"/>
      <psa10 value="0.0069407331" flag="0"/>
      <psa30 value="0.0014051901" flag="0"/>
    </comp>
    <comp name="--.HHN">
      <acc value="0.0078421704" flag="0"/>
      <vel value="0.0066097838" flag="0"/>
      <psa03 value="0.0173070779" flag="0"/>
      <psa10 value="0.0129030490" flag="0"/>
      <psa30 value="0.0014613181" flag="0"/>
    </comp>
    <comp name="--.HHE">
      <acc value="0.0058724746" flag="0"/>
      <vel value="0.0057937538" flag="0"/>
      <psa03 value="0.0137499878" flag="0"/>
      <psa10 value="0.0093215987" flag="0"/>
      <psa30 value="0.0013563321" flag="0"/>
    </comp>
  </station>
</stationlist>
