<?xml version="1.0" encoding="UTF-8" standalone="yes"?>
<!DOCTYPE earthquake SYSTEM "stationlist.dtd">
<stationlist created="" xmlns="ch.ethz.sed.shakemap.usgs.xml">
  <station code="ARPRA" name="ARPRA" netid="KO" insttype="CMG-5T" lat="39.0929" lon="38.3356">
    <comp name="--.HNE">
      <acc value="0.0224183725" flag="0"/>
      <vel value="0.0214966480" flag="0"/>
      <psa03 value="0.0876772419" flag="0"/>
      <psa10 value="0.0273823150" flag="0"/>
      <psa30 value="0.0021990584" flag="0"/>
    </comp>
    <comp name="--.HNZ">
      <acc value="0.0107000229" flag="0"/>
      <vel value="0.0121838336" flag="0"/>
      <psa03 value="0.0325498166" flag="0"/>
      <psa10 value="0.0209353566" flag="0"/>
      <psa30 value="0.0020049935" flag="0"/>
    </comp>
    <comp name="--.HNN">
      <acc value="0.0240417838" flag="0"/>
      <vel value="0.0199694998" flag="0"/>
      <psa03 value="0.0641880416" flag="0"/>
      <psa10 value="0.0286969410" flag="0"/>
      <psa30 value="0.0018072301" flag="0"/>
    </comp>
  </station>
  <station code="BNGB" name="BNGB" netid="KO" insttype="CMG-3ESPC" lat="38.9913" lon="40.6792">
    <comp name="--.HHN">
      <acc value="0.0049486842" flag="0"/>
      <vel value="0.0054058043" flag="0"/>
      <psa03 value="0.0086873614" flag="0"/>
      <psa10 value="0.0061828831" flag="0"/>
      <psa30 value="0.0033380367" flag="0"/>
    </comp>
    <comp name="--.HHE">
      <acc value="0.0050941560" flag="0"/>
      <vel value="0.0070455536" flag="0"/>
      <psa03 value="0.0122336397" flag="0"/>
      <psa10 value="0.0101101110" flag="0"/>
      <psa30 value="0.0029111244" flag="0"/>
    </comp>
    <comp name="--.HHZ">
      <acc value="0.0040594914" flag="0"/>
      <vel value="0.0052811531" flag="0"/>
      <psa03 value="0.0065878827" flag="0"/>
      <psa10 value="0.0085350825" flag="0"/>
      <psa30 value="0.0024436814" flag="0"/>
    </comp>
  </station>
  <station code="DYBB" name="DYBB" netid="KO" insttype="CMG-3T" lat="37.9532" lon="40.1393">
    <comp name="--.HHE">
      <acc value="0.0148108007" flag="0"/>
      <vel value="0.0178682783" flag="0"/>
      <psa03 value="0.0327815819" flag="0"/>
      <psa10 value="0.0327748266" flag="0"/>
      <psa30 value="0.0057512710" flag="0"/>
    </comp>
    <comp name="--.HHN">
      <acc value="0.0153830507" flag="0"/>
      <vel value="0.0199094495" flag="0"/>
      <psa03 value="0.0478407214" flag="0"/>
      <psa10 value="0.0291200006" flag="0"/>
      <psa30 value="0.0046082940" flag="0"/>
    </comp>
    <comp name="--.HHZ">
      <acc value="0.0147455642" flag="0"/>
      <vel value="0.0190628800" flag="0"/>
      <psa03 value="0.0224045017" flag="0"/>
      <psa10 value="0.0648387995" flag="0"/>
      <psa30 value="0.0046015173" flag="0"/>
    </comp>
  </station>
  <station code="KARO" name="KARO" netid="KO" insttype="CMG-3T" lat="39.3089" lon="41.0493">
    <comp name="--.HHE">
      <acc value="0.0097070558" flag="0"/>
      <vel value="0.0114325235" flag="0"/>
      <psa03 value="0.0281829550" flag="0"/>
      <psa10 value="0.0208504359" flag="0"/>
      <psa30 value="0.0040779357" flag="0"/>
    </comp>
    <comp name="--.HHN">
      <acc value="0.0102155396" flag="0"/>
      <vel value="0.0101921427" flag="0"/>
      <psa03 value="0.0183698763" flag="0"/>
      <psa10 value="0.0127884040" flag="0"/>
      <psa30 value="0.0019836679" flag="0"/>
    </comp>
    <comp name="--.HHZ">
      <acc value="0.0048390928" flag="0"/>
      <vel value="0.0036612342" flag="0"/>
      <psa03 value="0.0148050922" flag="0"/>
      <psa10 value="0.0063578695" flag="0"/>
      <psa30 value="0.0007120236" flag="0"/>
    </comp>
  </station>
  <station code="MAZI" name="MAZI" netid="KO" insttype="CMG-3T" lat="37.4593" lon="40.4465">
    <comp name="--.HHE">
      <acc value="0.0422127101" flag="0"/>
      <vel value="0.0184167860" flag="0"/>
      <psa03 value="0.1353653973" flag="0"/>
      <psa10 value="0.0346912603" flag="0"/>
      <psa30 value="0.0018450106" flag="0"/>
    </comp>
    <comp name="--.HHN">
      <acc value="0.0461704057" flag="0"/>
      <vel value="0.0273360267" flag="0"/>
      <psa03 value="0.1108202093" flag="0"/>
      <psa10 value="0.0512161430" flag="0"/>
      <psa30 value="0.0020529091" flag="0"/>
    </comp>
    <comp name="--.HHZ">
      <acc value="0.0477286436" flag="0"/>
      <vel value="0.0284315340" flag="0"/>
      <psa03 value="0.1301349059" flag="0"/>
      <psa10 value="0.0439737392" flag="0"/>
      <psa30 value="0.0015704301" flag="0"/>
    </comp>
  </station>
  <station code="SVAN" name="SVAN" netid="KO" insttype="CMG-3T" lat="38.1511" lon="41.1984">
    <comp name="--.HHZ">
      <acc value="0.0048888163" flag="0"/>
      <vel value="0.0035138974" flag="0"/>
      <psa03 value="0.0140946523" flag="0"/>
      <psa10 value="0.0069407331" flag="0"/>
      <psa30 value="0.0014051902" flag="0"/>
    </comp>
    <comp name="--.HHE">
      <acc value="0.0058724746" flag="0"/>
      <vel value="0.0057937535" flag="0"/>
      <psa03 value="0.0137499878" flag="0"/>
      <psa10 value="0.0093215987" flag="0"/>
      <psa30 value="0.0013563319" flag="0"/>
    </comp>
    <comp name="--.HHN">
      <acc value="0.0078421704" flag="0"/>
      <vel value="0.0066097840" flag="0"/>
      <psa03 value="0.0173070779" flag="0"/>
      <psa10 value="0.0129030490" flag="0"/>
      <psa30 value="0.0014613000" flag="0"/>
    </comp>
  </station>
</stationlist>
