<?xml version="1.0" encoding="UTF-8" standalone="yes"?>
<!DOCTYPE earthquake SYSTEM "stationlist.dtd">
<stationlist created="" xmlns="ch.ethz.sed.shakemap.usgs.xml">
  <station code="AOI" name="AOI" netid="IV" insttype="" lat="43.5502" lon="13.602">
    <comp name="--.HHE">
      <acc value="0.0123085852" flag="0"/>
      <vel value="0.0079748845" flag="0"/>
      <psa03 value="0.0421814138" flag="0"/>
      <psa10 value="0.0064266905" flag="0"/>
      <psa30 value="0.0004561494" flag="0"/>
    </comp>
    <comp name="--.HHN">
      <acc value="0.0173386349" flag="0"/>
      <vel value="0.0087087477" flag="0"/>
      <psa03 value="0.0471657226" flag="0"/>
      <psa10 value="0.0097838882" flag="0"/>
      <psa30 value="0.0010131615" flag="0"/>
    </comp>
    <comp name="--.HHZ">
      <acc value="0.0105834358" flag="0"/>
      <vel value="0.0043673282" flag="0"/>
      <psa03 value="0.0282821417" flag="0"/>
      <psa10 value="0.0039907515" flag="0"/>
      <psa30 value="0.0003048602" flag="0"/>
    </comp>
  </station>
  <station code="ARVD" name="ARVD" netid="IV" insttype="" lat="43.4981" lon="12.9415">
    <comp name="--.HHE">
      <acc value="0.0149445326" flag="0"/>
      <vel value="0.0059030045" flag="0"/>
      <psa03 value="0.0423799063" flag="0"/>
      <psa10 value="0.0055370519" flag="0"/>
      <psa30 value="0.0006249638" flag="0"/>
    </comp>
    <comp name="--.HHN">
      <acc value="0.0134542232" flag="0"/>
      <vel value="0.0069961416" flag="0"/>
      <psa03 value="0.0503293217" flag="0"/>
      <psa10 value="0.0066329381" flag="0"/>
      <psa30 value="0.0003584862" flag="0"/>
    </comp>
    <comp name="--.HHZ">
      <acc value="0.0182747569" flag="0"/>
      <vel value="0.0061924235" flag="0"/>
      <psa03 value="0.0372219966" flag="0"/>
      <psa10 value="0.0061196781" flag="0"/>
      <psa30 value="0.0004257301" flag="0"/>
    </comp>
  </station>
  <station code="ATCC" name="ATCC" netid="IV" insttype="" lat="43.1851" lon="12.6399">
    <comp name="--.HNN">
      <acc value="0.0286905902" flag="0"/>
      <vel value="0.0179361337" flag="0"/>
      <psa03 value="0.0850234967" flag="0"/>
      <psa10 value="0.0103217602" flag="0"/>
      <psa30 value="0.0008695888" flag="0"/>
    </comp>
    <comp name="--.HNZ">
      <acc value="0.0121521627" flag="0"/>
      <vel value="0.0055167350" flag="0"/>
      <psa03 value="0.0376853550" flag="0"/>
      <psa10 value="0.0071499824" flag="0"/>
      <psa30 value="0.0007142799" flag="0"/>
    </comp>
    <comp name="--.HNE">
      <acc value="0.0224016266" flag="0"/>
      <vel value="0.0116432656" flag="0"/>
      <psa03 value="0.0687914607" flag="0"/>
      <psa10 value="0.0119390066" flag="0"/>
      <psa30 value="0.0008548240" flag="0"/>
    </comp>
  </station>
  <station code="ATFO" name="ATFO" netid="IV" insttype="" lat="43.3666" lon="12.5715">
    <comp name="--.HHE">
      <acc value="0.0318493934" flag="0"/>
      <vel value="0.0152790766" flag="0"/>
      <psa03 value="0.1131930432" flag="0"/>
      <psa10 value="0.0177121875" flag="0"/>
      <psa30 value="0.0008384098" flag="0"/>
    </comp>
    <comp name="--.HHN">
      <acc value="0.0269371764" flag="0"/>
      <vel value="0.0184752217" flag="0"/>
      <psa03 value="0.0719479906" flag="0"/>
      <psa10 value="0.0115026573" flag="0"/>
      <psa30 value="0.0007192378" flag="0"/>
    </comp>
    <comp name="--.HHZ">
      <acc value="0.0145593204" flag="0"/>
      <vel value="0.0098948750" flag="0"/>
      <psa03 value="0.0468030687" flag="0"/>
      <psa10 value="0.0068667193" flag="0"/>
      <psa30 value="0.0004815388" flag="0"/>
    </comp>
  </station>
  <station code="ATMI" name="ATMI" netid="IV" insttype="" lat="43.3342" lon="12.268">
    <comp name="--.HHE">
      <acc value="0.0351845760" flag="0"/>
      <vel value="0.0229733632" flag="0"/>
      <psa03 value="0.0927365467" flag="0"/>
      <psa10 value="0.0229898943" flag="0"/>
      <psa30 value="0.0012349464" flag="0"/>
    </comp>
    <comp name="--.HHN">
      <acc value="0.0333147631" flag="0"/>
      <vel value="0.0175218505" flag="0"/>
      <psa03 value="0.1410374025" flag="0"/>
      <psa10 value="0.0144138841" flag="0"/>
      <psa30 value="0.0011133013" flag="0"/>
    </comp>
    <comp name="--.HHZ">
      <acc value="0.0132677327" flag="0"/>
      <vel value="0.0080471338" flag="0"/>
      <psa03 value="0.0368642040" flag="0"/>
      <psa10 value="0.0085093441" flag="0"/>
      <psa30 value="0.0006039366" flag="0"/>
    </comp>
  </station>
  <station code="ATPC" name="ATPC" netid="IV" insttype="" lat="43.4807" lon="12.457">
    <comp name="--.HHE">
      <acc value="0.0329968998" flag="0"/>
      <vel value="0.0138317337" flag="0"/>
      <psa03 value="0.0808714480" flag="0"/>
      <psa10 value="0.0107656383" flag="0"/>
      <psa30 value="0.0006362962" flag="0"/>
    </comp>
    <comp name="--.HHN">
      <acc value="0.0231045730" flag="0"/>
      <vel value="0.0123823586" flag="0"/>
      <psa03 value="0.0619675218" flag="0"/>
      <psa10 value="0.0091348201" flag="0"/>
      <psa30 value="0.0005901323" flag="0"/>
    </comp>
    <comp name="--.HHZ">
      <acc value="0.0124267207" flag="0"/>
      <vel value="0.0066643083" flag="0"/>
      <psa03 value="0.0514428250" flag="0"/>
      <psa10 value="0.0074969404" flag="0"/>
      <psa30 value="0.0006000982" flag="0"/>
    </comp>
  </station>
  <station code="ATVO" name="ATVO" netid="IV" insttype="" lat="43.3821" lon="12.4066">
    <comp name="--.HHE">
      <acc value="0.0164829068" flag="0"/>
      <vel value="0.0115212042" flag="0"/>
      <psa03 value="0.0523282142" flag="0"/>
      <psa10 value="0.0139244831" flag="0"/>
      <psa30 value="0.0006017667" flag="0"/>
    </comp>
    <comp name="--.HHZ">
      <acc value="0.0084658384" flag="0"/>
      <vel value="0.0052111080" flag="0"/>
      <psa03 value="0.0253598488" flag="0"/>
      <psa10 value="0.0037320973" flag="0"/>
      <psa30 value="0.0004933392" flag="0"/>
    </comp>
    <comp name="--.HHN">
      <acc value="0.0218647153" flag="0"/>
      <vel value="0.0112581180" flag="0"/>
      <psa03 value="0.0713768921" flag="0"/>
      <psa10 value="0.0102360782" flag="0"/>
      <psa30 value="0.0006661293" flag="0"/>
    </comp>
  </station>
  <station code="BOSL" name="BOSL" netid="IV" insttype="" lat="43.931" lon="11.3743">
    <comp name="--.HHE">
      <acc value="0.0057131680" flag="0"/>
      <vel value="0.0017367113" flag="0"/>
      <psa03 value="0.0051909971" flag="0"/>
      <psa10 value="0.0018818128" flag="0"/>
      <psa30 value="0.0001061922" flag="0"/>
    </comp>
    <comp name="--.HHN">
      <acc value="0.0053466924" flag="0"/>
      <vel value="0.0028642084" flag="0"/>
      <psa03 value="0.0129530372" flag="0"/>
      <psa10 value="0.0035686716" flag="0"/>
      <psa30 value="0.0002055298" flag="0"/>
    </comp>
    <comp name="--.HHZ">
      <acc value="0.0028993176" flag="0"/>
      <vel value="0.0012434360" flag="0"/>
      <psa03 value="0.0046466296" flag="0"/>
      <psa10 value="0.0011917015" flag="0"/>
      <psa30 value="0.0000800764" flag="0"/>
    </comp>
  </station>
  <station code="BRIS" name="BRIS" netid="IV" insttype="" lat="44.2245" lon="11.7666">
    <comp name="--.HHE">
      <acc value="0.0092347355" flag="0"/>
      <vel value="0.0048402872" flag="0"/>
      <psa03 value="0.0171171874" flag="0"/>
      <psa10 value="0.0053376741" flag="0"/>
      <psa30 value="0.0004983597" flag="0"/>
    </comp>
    <comp name="--.HHZ">
      <acc value="0.0087744638" flag="0"/>
      <vel value="0.0036604864" flag="0"/>
      <psa03 value="0.0191095381" flag="0"/>
      <psa10 value="0.0064468157" flag="0"/>
      <psa30 value="0.0004084821" flag="0"/>
    </comp>
    <comp name="--.HHN">
      <acc value="0.0098796836" flag="0"/>
      <vel value="0.0046058552" flag="0"/>
      <psa03 value="0.0269763853" flag="0"/>
      <psa10 value="0.0044604026" flag="0"/>
      <psa30 value="0.0004855079" flag="0"/>
    </comp>
  </station>
  <station code="BRSN" name="BRSN" netid="IV" insttype="" lat="44.2842" lon="12.0802">
    <comp name="--.HNZ">
      <acc value="0.0702092249" flag="0"/>
      <vel value="0.0196500653" flag="0"/>
      <psa03 value="0.0775055916" flag="0"/>
      <psa10 value="0.0227212269" flag="0"/>
      <psa30 value="0.0019540747" flag="0"/>
    </comp>
    <comp name="--.HNE">
      <acc value="0.0811587268" flag="0"/>
      <vel value="0.0474983515" flag="0"/>
      <psa03 value="0.1799471444" flag="0"/>
      <psa10 value="0.0915425449" flag="0"/>
      <psa30 value="0.0053473494" flag="0"/>
    </comp>
    <comp name="--.HNN">
      <acc value="0.0862143798" flag="0"/>
      <vel value="0.0419927623" flag="0"/>
      <psa03 value="0.1570579172" flag="0"/>
      <psa10 value="0.0602337043" flag="0"/>
      <psa30 value="0.0070558401" flag="0"/>
    </comp>
  </station>
  <station code="CAFI" name="CAFI" netid="IV" insttype="" lat="43.3292" lon="11.9663">
    <comp name="--.HHN">
      <acc value="0.0143510689" flag="0"/>
      <vel value="0.0086241605" flag="0"/>
      <psa03 value="0.0511727779" flag="0"/>
      <psa10 value="0.0082907525" flag="0"/>
      <psa30 value="0.0004515809" flag="0"/>
    </comp>
    <comp name="--.HHZ">
      <acc value="0.0147889521" flag="0"/>
      <vel value="0.0080840273" flag="0"/>
      <psa03 value="0.0220878964" flag="0"/>
      <psa10 value="0.0049588984" flag="0"/>
      <psa30 value="0.0002834174" flag="0"/>
    </comp>
    <comp name="--.HHE">
      <acc value="0.0076362128" flag="0"/>
      <vel value="0.0079845347" flag="0"/>
      <psa03 value="0.0206138043" flag="0"/>
      <psa10 value="0.0075344468" flag="0"/>
      <psa30 value="0.0004632623" flag="0"/>
    </comp>
  </station>
  <station code="CING" name="CING" netid="IV" insttype="" lat="43.3756" lon="13.1954">
    <comp name="--.HHN">
      <acc value="0.0156708579" flag="0"/>
      <vel value="0.0095272084" flag="0"/>
      <psa03 value="0.0409460514" flag="0"/>
      <psa10 value="0.0119358467" flag="0"/>
      <psa30 value="0.0008558840" flag="0"/>
    </comp>
    <comp name="--.HHE">
      <acc value="0.0095308203" flag="0"/>
      <vel value="0.0057430465" flag="0"/>
      <psa03 value="0.0333703809" flag="0"/>
      <psa10 value="0.0059237432" flag="0"/>
      <psa30 value="0.0005561439" flag="0"/>
    </comp>
    <comp name="--.HHZ">
      <acc value="0.0083857318" flag="0"/>
      <vel value="0.0088970755" flag="0"/>
      <psa03 value="0.0359306216" flag="0"/>
      <psa10 value="0.0065849492" flag="0"/>
      <psa30 value="0.0006311722" flag="0"/>
    </comp>
  </station>
  <station code="CRE" name="CRE" netid="IV" insttype="" lat="43.6189" lon="11.9517">
    <comp name="--.HHN">
      <acc value="0.0439025135" flag="0"/>
      <vel value="0.0199772633" flag="0"/>
      <psa03 value="0.0871215800" flag="0"/>
      <psa10 value="0.0090681595" flag="0"/>
      <psa30 value="0.0010939607" flag="0"/>
    </comp>
    <comp name="--.HHE">
      <acc value="0.0223847016" flag="0"/>
      <vel value="0.0120055087" flag="0"/>
      <psa03 value="0.0596188021" flag="0"/>
      <psa10 value="0.0094926712" flag="0"/>
      <psa30 value="0.0008660301" flag="0"/>
    </comp>
    <comp name="--.HHZ">
      <acc value="0.0181266961" flag="0"/>
      <vel value="0.0069203355" flag="0"/>
      <psa03 value="0.0400839168" flag="0"/>
      <psa10 value="0.0048237240" flag="0"/>
      <psa30 value="0.0004003973" flag="0"/>
    </comp>
  </station>
  <station code="CRMI" name="CRMI" netid="IV" insttype="" lat="43.7956" lon="10.9795">
    <comp name="--.HHE">
      <acc value="0.0050884749" flag="0"/>
      <vel value="0.0033573163" flag="0"/>
      <psa03 value="0.0164789376" flag="0"/>
      <psa10 value="0.0040774413" flag="0"/>
      <psa30 value="0.0002836768" flag="0"/>
    </comp>
    <comp name="--.HHZ">
      <acc value="0.0044592404" flag="0"/>
      <vel value="0.0019230463" flag="0"/>
      <psa03 value="0.0100507780" flag="0"/>
      <psa10 value="0.0025429045" flag="0"/>
      <psa30 value="0.0002605385" flag="0"/>
    </comp>
    <comp name="--.HHN">
      <acc value="0.0058519821" flag="0"/>
      <vel value="0.0032718791" flag="0"/>
      <psa03 value="0.0152150012" flag="0"/>
      <psa10 value="0.0024884080" flag="0"/>
      <psa30 value="0.0003391176" flag="0"/>
    </comp>
  </station>
  <station code="CRTC" name="CRTC" netid="IV" insttype="" lat="43.7685" lon="12.883">
    <comp name="--.HHN">
      <acc value="0.0434384482" flag="0"/>
      <vel value="0.0299663549" flag="0"/>
      <psa03 value="0.1258360180" flag="0"/>
      <psa10 value="0.0230227384" flag="0"/>
      <psa30 value="0.0018956584" flag="0"/>
    </comp>
    <comp name="--.HHE">
      <acc value="0.0602526953" flag="0"/>
      <vel value="0.0324018418" flag="0"/>
      <psa03 value="0.2958587874" flag="0"/>
      <psa10 value="0.0312606143" flag="0"/>
      <psa30 value="0.0016066613" flag="0"/>
    </comp>
    <comp name="--.HHZ">
      <acc value="0.0465123608" flag="0"/>
      <vel value="0.0200804336" flag="0"/>
      <psa03 value="0.1466105314" flag="0"/>
      <psa10 value="0.0144887283" flag="0"/>
      <psa30 value="0.0008190122" flag="0"/>
    </comp>
  </station>
  <station code="CSNT" name="CSNT" netid="IV" insttype="" lat="43.4731" lon="11.2902">
    <comp name="--.HHE">
      <acc value="0.0074816868" flag="0"/>
      <vel value="0.0046395438" flag="0"/>
      <psa03 value="0.0172285869" flag="0"/>
      <psa10 value="0.0045172019" flag="0"/>
      <psa30 value="0.0003668758" flag="0"/>
    </comp>
    <comp name="--.HHN">
      <acc value="0.0089652947" flag="0"/>
      <vel value="0.0056845030" flag="0"/>
      <psa03 value="0.0275808940" flag="0"/>
      <psa10 value="0.0087904342" flag="0"/>
      <psa30 value="0.0006828885" flag="0"/>
    </comp>
    <comp name="--.HHZ">
      <acc value="0.0042617739" flag="0"/>
      <vel value="0.0031465354" flag="0"/>
      <psa03 value="0.0171533361" flag="0"/>
      <psa10 value="0.0027372893" flag="0"/>
      <psa30 value="0.0003231818" flag="0"/>
    </comp>
  </station>
  <station code="FNVD" name="FNVD" netid="IV" insttype="" lat="44.1678" lon="11.1229">
    <comp name="--.HHE">
      <acc value="0.0058139020" flag="0"/>
      <vel value="0.0040286871" flag="0"/>
      <psa03 value="0.0130722924" flag="0"/>
      <psa10 value="0.0107934565" flag="0"/>
      <psa30 value="0.0005633759" flag="0"/>
    </comp>
    <comp name="--.HHN">
      <acc value="0.0090166769" flag="0"/>
      <vel value="0.0050969416" flag="0"/>
      <psa03 value="0.0284699833" flag="0"/>
      <psa10 value="0.0090141510" flag="0"/>
      <psa30 value="0.0006225694" flag="0"/>
    </comp>
    <comp name="--.HHZ">
      <acc value="0.0049764201" flag="0"/>
      <vel value="0.0025729484" flag="0"/>
      <psa03 value="0.0135899273" flag="0"/>
      <psa10 value="0.0040353448" flag="0"/>
      <psa30 value="0.0002593375" flag="0"/>
    </comp>
  </station>
  <station code="GAG1" name="GAG1" netid="IV" insttype="" lat="43.2381" lon="13.0674">
    <comp name="--.HNE">
      <acc value="0.0412627311" flag="0"/>
      <vel value="0.0241111353" flag="0"/>
      <psa03 value="0.0910357591" flag="0"/>
      <psa10 value="0.0267580356" flag="0"/>
      <psa30 value="0.0014389810" flag="0"/>
    </comp>
    <comp name="--.HNN">
      <acc value="0.0336565478" flag="0"/>
      <vel value="0.0215410930" flag="0"/>
      <psa03 value="0.0771818821" flag="0"/>
      <psa10 value="0.0243250606" flag="0"/>
      <psa30 value="0.0013512815" flag="0"/>
    </comp>
    <comp name="--.HNZ">
      <acc value="0.0283698830" flag="0"/>
      <vel value="0.0156673590" flag="0"/>
      <psa03 value="0.0972017913" flag="0"/>
      <psa10 value="0.0104875796" flag="0"/>
      <psa30 value="0.0012652884" flag="0"/>
    </comp>
  </station>
  <station code="IMOL" name="IMOL" netid="IV" insttype="" lat="44.3595" lon="11.7425">
    <comp name="--.HNE">
      <acc value="0.1587138695" flag="0"/>
      <vel value="0.0156581233" flag="0"/>
      <psa03 value="0.0607911224" flag="0"/>
      <psa10 value="0.0324706329" flag="0"/>
      <psa30 value="0.0038952365" flag="0"/>
    </comp>
    <comp name="--.HNN">
      <acc value="0.1819628656" flag="0"/>
      <vel value="0.0237803867" flag="0"/>
      <psa03 value="0.0837332879" flag="0"/>
      <psa10 value="0.0234317696" flag="0"/>
      <psa30 value="0.0050604635" flag="0"/>
    </comp>
    <comp name="--.HNZ">
      <acc value="0.2605668003" flag="0"/>
      <vel value="0.0134428812" flag="0"/>
      <psa03 value="0.0286477639" flag="0"/>
      <psa10 value="0.0111179219" flag="0"/>
      <psa30 value="0.0015552199" flag="0"/>
    </comp>
  </station>
  <station code="LMD" name="LMD" netid="IV" insttype="" lat="44.0775" lon="11.7073">
    <comp name="--.HHE">
      <acc value="0.0867023919" flag="0"/>
      <vel value="0.0222439175" flag="0"/>
      <psa03 value="0.1101958424" flag="0"/>
      <psa10 value="0.0077718467" flag="0"/>
      <psa30 value="0.0010616422" flag="0"/>
    </comp>
    <comp name="--.HHN">
      <acc value="0.0732648333" flag="0"/>
      <vel value="0.0161075319" flag="0"/>
      <psa03 value="0.1044813126" flag="0"/>
      <psa10 value="0.0164543366" flag="0"/>
      <psa30 value="0.0014661902" flag="0"/>
    </comp>
    <comp name="--.HHZ">
      <acc value="0.0338751020" flag="0"/>
      <vel value="0.0104241893" flag="0"/>
      <psa03 value="0.0462796690" flag="0"/>
      <psa10 value="0.0071688744" flag="0"/>
      <psa30 value="0.0006427130" flag="0"/>
    </comp>
  </station>
  <station code="MTRZ" name="MTRZ" netid="IV" insttype="" lat="44.3128" lon="11.4248">
    <comp name="--.HHE">
      <acc value="0.0093979808" flag="0"/>
      <vel value="0.0071306624" flag="0"/>
      <psa03 value="0.0289533484" flag="0"/>
      <psa10 value="0.0097905310" flag="0"/>
      <psa30 value="0.0007461809" flag="0"/>
    </comp>
    <comp name="--.HHN">
      <acc value="0.0115548684" flag="0"/>
      <vel value="0.0108496106" flag="0"/>
      <psa03 value="0.0285371872" flag="0"/>
      <psa10 value="0.0111749750" flag="0"/>
      <psa30 value="0.0012822579" flag="0"/>
    </comp>
    <comp name="--.HHZ">
      <acc value="0.0058546135" flag="0"/>
      <vel value="0.0038657542" flag="0"/>
      <psa03 value="0.0142129630" flag="0"/>
      <psa10 value="0.0051766820" flag="0"/>
      <psa30 value="0.0009838408" flag="0"/>
    </comp>
  </station>
  <station code="MURB" name="MURB" netid="IV" insttype="" lat="43.263" lon="12.5246">
    <comp name="--.HHE">
      <acc value="0.0816110271" flag="0"/>
      <vel value="0.0448142822" flag="0"/>
      <psa03 value="0.4282905333" flag="0"/>
      <psa10 value="0.0248242987" flag="0"/>
      <psa30 value="0.0022959423" flag="0"/>
    </comp>
    <comp name="--.HHN">
      <acc value="0.0524402838" flag="0"/>
      <vel value="0.0252863954" flag="0"/>
      <psa03 value="0.2389443846" flag="0"/>
      <psa10 value="0.0118034469" flag="0"/>
      <psa30 value="0.0014175182" flag="0"/>
    </comp>
    <comp name="--.HHZ">
      <acc value="0.0145721815" flag="0"/>
      <vel value="0.0077701103" flag="0"/>
      <psa03 value="0.0468506985" flag="0"/>
      <psa10 value="0.0099183047" flag="0"/>
      <psa30 value="0.0007601037" flag="0"/>
    </comp>
  </station>
  <station code="OSSC" name="OSSC" netid="IV" insttype="" lat="43.5236" lon="11.2458">
    <comp name="--.HHE">
      <acc value="0.0082522691" flag="0"/>
      <vel value="0.0074128244" flag="0"/>
      <psa03 value="0.0274217383" flag="0"/>
      <psa10 value="0.0063789307" flag="0"/>
      <psa30 value="0.0006104342" flag="0"/>
    </comp>
    <comp name="--.HHN">
      <acc value="0.0103161462" flag="0"/>
      <vel value="0.0071576058" flag="0"/>
      <psa03 value="0.0413566710" flag="0"/>
      <psa10 value="0.0104046309" flag="0"/>
      <psa30 value="0.0004771185" flag="0"/>
    </comp>
