<stationlist created="1779846924">
	<station code="0REN" name="0REN" netid="IT" source="Italian Strong Motion Network (RAN)" insttype="" lat="43.5462" lon="12.264">
		<comp name="--.HNE" depth="0.0">
			<acc value="0.029990409923502" flag="0"/>
			<vel value="0.00554692553224" flag="0"/>
			<psa03 value="0.0374045273455317" flag="0"/>
			<psa10 value="0.00403232618433171" flag="0"/>
			<psa30 value="0.000326771048019774" flag="0"/>
		</comp>
		<comp name="--.HNN" depth="0.0">
			<acc value="0.028548095899464" flag="0"/>
			<vel value="0.00707914976365" flag="0"/>
			<psa03 value="0.0374768290101497" flag="0"/>
			<psa10 value="0.0056527152458953" flag="0"/>
			<psa30 value="0.000425399847318643" flag="0"/>
		</comp>
		<comp name="--.HNZ" depth="0.0">
			<acc value="0.033982191051498" flag="0"/>
			<vel value="0.00591530771968" flag="0"/>
			<psa03 value="0.025746406093862" flag="0"/>
			<psa10 value="0.00439813057330089" flag="0"/>
			<psa30 value="0.000484041544542584" flag="0"/>
		</comp>
	</station>
	<station code="BBN" name="BBN" netid="IT" source="Italian Strong Motion Network (RAN)" insttype="" lat="43.7476" lon="11.8214">
		<comp name="--.HNE" depth="0.0">
			<acc value="0.013801055793018" flag="0"/>
			<vel value="0.00770439833732" flag="0"/>
			<psa03 value="0.0390319554671633" flag="0"/>
			<psa10 value="0.00952058131680135" flag="0"/>
			<psa30 value="0.00106447947487655" flag="0"/>
		</comp>
		<comp name="--.HNN" depth="0.0">
			<acc value="0.017994520579554" flag="0"/>
			<vel value="0.00888615084032" flag="0"/>
			<psa03 value="0.0391986357797438" flag="0"/>
			<psa10 value="0.0123951954958577" flag="0"/>
			<psa30 value="0.0010757820986176" flag="0"/>
		</comp>
		<comp name="--.HNZ" depth="0.0">
			<acc value="0.01765564592988" flag="0"/>
			<vel value="0.0082653756494" flag="0"/>
			<psa03 value="0.0688868446654113" flag="0"/>
			<psa10 value="0.0108872102867383" flag="0"/>
			<psa30 value="0.000778835135670476" flag="0"/>
		</comp>
	</station>
	<station code="BDT" name="BDT" netid="IT" source="Italian Strong Motion Network (RAN)" insttype="" lat="43.7068" lon="12.188">
		<comp name="--.HNE" depth="0.0">
			<acc value="0.061379713263684" flag="0"/>
			<vel value="0.0225779605737" flag="0"/>
			<psa03 value="0.168392571848229" flag="0"/>
			<psa10 value="0.0262848087395746" flag="0"/>
			<psa30 value="0.00138197394482573" flag="0"/>
		</comp>
		<comp name="--.HNN" depth="0.0">
			<acc value="0.063463150160748" flag="0"/>
			<vel value="0.0280923371029" flag="0"/>
			<psa03 value="0.173194317023441" flag="0"/>
			<psa10 value="0.0225944911491527" flag="0"/>
			<psa30 value="0.00122042855573442" flag="0"/>
		</comp>
		<comp name="--.HNZ" depth="0.0">
			<acc value="0.02619099370671" flag="0"/>
			<vel value="0.0123929605655" flag="0"/>
			<psa03 value="0.094811999579726" flag="0"/>
			<psa10 value="0.01780439070352" flag="0"/>
			<psa30 value="0.0010479896325033" flag="0"/>
		</comp>
	</station>
	<station code="BGR" name="BGR" netid="IT" source="Italian Strong Motion Network (RAN)" insttype="" lat="43.8895" lon="11.9912">
		<comp name="--.HGE" depth="0.0">
			<acc value="0.15165792509172" flag="0"/>
			<vel value="0.0586466251659" flag="0"/>
			<psa03 value="0.342968074118466" flag="0"/>
			<psa10 value="0.0402080298346369" flag="0"/>
			<psa30 value="0.00164122476475144" flag="0"/>
		</comp>
		<comp name="--.HGN" depth="0.0">
			<acc value="0.093086767958484" flag="0"/>
			<vel value="0.045037495823" flag="0"/>
			<psa03 value="0.311704273878305" flag="0"/>
			<psa10 value="0.0286150331054927" flag="0"/>
			<psa30 value="0.00280347029948119" flag="0"/>
		</comp>
		<comp name="--.HGZ" depth="0.0">
			<acc value="0.04225113385194" flag="0"/>
			<vel value="0.0237629982722" flag="0"/>
			<psa03 value="0.0997625671139016" flag="0"/>
			<psa10 value="0.0246544538615613" flag="0"/>
			<psa30 value="0.00185799829159967" flag="0"/>
		</comp>
	</station>
	<station code="BRH" name="BRH" netid="IT" source="Italian Strong Motion Network (RAN)" insttype="" lat="44.2076" lon="11.7639">
		<comp name="--.HGE" depth="0.0">
			<acc value="0.080882218507488" flag="0"/>
			<vel value="0.0228589416945" flag="0"/>
			<psa03 value="0.0941411634734029" flag="0"/>
			<psa10 value="0.0184863115024208" flag="0"/>
			<psa30 value="0.00160328527228207" flag="0"/>
		</comp>
		<comp name="--.HGN" depth="0.0">
			<acc value="0.08038522387428" flag="0"/>
			<vel value="0.0226778891496" flag="0"/>
			<psa03 value="0.0924430613991449" flag="0"/>
			<psa10 value="0.0128405750000587" flag="0"/>
			<psa30 value="0.00140743990265124" flag="0"/>
		</comp>
		<comp name="--.HGZ" depth="0.0">
			<acc value="0.034009194468768" flag="0"/>
			<vel value="0.0101045764521" flag="0"/>
			<psa03 value="0.0502470838312432" flag="0"/>
			<psa10 value="0.0127432626161181" flag="0"/>
			<psa30 value="0.000744622035887808" flag="0"/>
		</comp>
	</station>
	<station code="CES" name="CES" netid="IT" source="Italian Strong Motion Network (RAN)" insttype="" lat="44.2103" lon="12.3867">
		<comp name="--.HNE" depth="0.0">
			<acc value="3.5041905026388" flag="0"/>
			<vel value="0.732463681605" flag="0"/>
			<psa03 value="2.16004925932786" flag="0"/>
			<psa10 value="0.453035741392696" flag="0"/>
			<psa30 value="0.0413809179493822" flag="0"/>
		</comp>
		<comp name="--.HNN" depth="0.0">
			<acc value="3.5980699232112" flag="0"/>
			<vel value="1.55944904137" flag="0"/>
			<psa03 value="3.71364501075593" flag="0"/>
			<psa10 value="0.955850000370618" flag="0"/>
			<psa30 value="0.069018652147084" flag="0"/>
		</comp>
		<comp name="--.HNZ" depth="0.0">
			<acc value="2.1028364743626" flag="0"/>
			<vel value="0.38983685476" flag="0"/>
			<psa03 value="0.844126085875902" flag="0"/>
			<psa10 value="0.0718021590406456" flag="0"/>
			<psa30 value="0.00934295559163115" flag="0"/>
		</comp>
	</station>
	<station code="CSN" name="CSN" netid="IT" source="Italian Strong Motion Network (RAN)" insttype="" lat="44.137" lon="12.2414">
		<comp name="--.HNE" depth="0.0">
			<acc value="2.2590671730762" flag="0"/>
			<vel value="0.571593523687" flag="0"/>
			<psa03 value="1.84904732364334" flag="0"/>
			<psa10 value="0.188533764436438" flag="0"/>
			<psa30 value="0.0128971418723731" flag="0"/>
		</comp>
		<comp name="--.HNN" depth="0.0">
			<acc value="2.0350662530844" flag="0"/>
			<vel value="0.626907125048" flag="0"/>
			<psa03 value="2.31605009361692" flag="0"/>
			<psa10 value="0.19037129616422" flag="0"/>
			<psa30 value="0.0230343675804695" flag="0"/>
		</comp>
		<comp name="--.HNZ" depth="0.0">
			<acc value="1.5984568524444" flag="0"/>
			<vel value="0.182202923094" flag="0"/>
			<psa03 value="0.695259515862495" flag="0"/>
			<psa10 value="0.0541283782394062" flag="0"/>
			<psa30 value="0.00452342840491342" flag="0"/>
		</comp>
	</station>
	<station code="CTL" name="CTL" netid="IT" source="Italian Strong Motion Network (RAN)" insttype="" lat="43.955" lon="12.7358">
		<comp name="--.HNE" depth="0.0">
			<acc value="0.37110605896038" flag="0"/>
			<vel value="0.131343702352" flag="0"/>
			<psa03 value="0.999032681010744" flag="0"/>
			<psa10 value="0.108625008373726" flag="0"/>
			<psa30 value="0.00500203344349889" flag="0"/>
		</comp>
		<comp name="--.HNN" depth="0.0">
			<acc value="0.5659160656542" flag="0"/>
			<vel value="0.143768276813" flag="0"/>
			<psa03 value="1.01895600083488" flag="0"/>
			<psa10 value="0.0963281687684912" flag="0"/>
			<psa30 value="0.0056729453881306" flag="0"/>
		</comp>
		<comp name="--.HNZ" depth="0.0">
			<acc value="0.12689921993472" flag="0"/>
			<vel value="0.043167288202" flag="0"/>
			<psa03 value="0.216678916414786" flag="0"/>
			<psa10 value="0.0259976878442399" flag="0"/>
			<psa30 value="0.00153392640676222" flag="0"/>
		</comp>
	</station>
	<station code="CVT" name="CVT" netid="IT" source="Italian Strong Motion Network (RAN)" insttype="" lat="44.0061" lon="11.9368">
		<comp name="--.HGE" depth="0.0">
			<acc value="0.47289249910218" flag="0"/>
			<vel value="0.122028760658" flag="0"/>
			<psa03 value="0.415962180452957" flag="0"/>
			<psa10 value="0.030400661394615" flag="0"/>
			<psa30 value="0.00257608544468629" flag="0"/>
		</comp>
		<comp name="--.HGN" depth="0.0">
			<acc value="0.5173436592486" flag="0"/>
			<vel value="0.121833430909" flag="0"/>
			<psa03 value="0.420699744293386" flag="0"/>
			<psa10 value="0.0591855019992386" flag="0"/>
			<psa30 value="0.00434453322067175" flag="0"/>
		</comp>
		<comp name="--.HGZ" depth="0.0">
			<acc value="0.24431012506512" flag="0"/>
			<vel value="0.0513902198556" flag="0"/>
			<psa03 value="0.164526763673873" flag="0"/>
			<psa10 value="0.0225750423607738" flag="0"/>
			<psa30 value="0.00104796827692281" flag="0"/>
		</comp>
	</station>
	<station code="DCM" name="DCM" netid="IT" source="Italian Strong Motion Network (RAN)" insttype="" lat="43.8912" lon="11.518">
		<comp name="--.HNE" depth="0.0">
			<acc value="0.03420880160478" flag="0"/>
			<vel value="0.0109387215865" flag="0"/>
			<psa03 value="0.062448225429969" flag="0"/>
			<psa10 value="0.00950526061437174" flag="0"/>
			<psa30 value="0.000530419252255918" flag="0"/>
		</comp>
		<comp name="--.HNN" depth="0.0">
			<acc value="0.038357513193534" flag="0"/>
			<vel value="0.0136572014372" flag="0"/>
			<psa03 value="0.0593337326517368" flag="0"/>
			<psa10 value="0.0150956068848884" flag="0"/>
			<psa30 value="0.000922782692325603" flag="0"/>
		</comp>
		<comp name="--.HNZ" depth="0.0">
			<acc value="0.022160249902776" flag="0"/>
			<vel value="0.00821920918596" flag="0"/>
			<psa03 value="0.0486852095310907" flag="0"/>
			<psa10 value="0.00699453022831868" flag="0"/>
			<psa30 value="0.0005244384914757" flag="0"/>
		</comp>
	</station>
	<station code="FAZ" name="FAZ" netid="IT" source="Italian Strong Motion Network (RAN)" insttype="" lat="44.298" lon="11.8907">
		<comp name="--.HNE" depth="0.0">
			<acc value="0.075776685948846" flag="0"/>
			<vel value="0.029508595959" flag="0"/>
			<psa03 value="0.101441949197902" flag="0"/>
			<psa10 value="0.0391615342594358" flag="0"/>
			<psa30 value="0.00491734741680163" flag="0"/>
		</comp>
		<comp name="--.HNN" depth="0.0">
			<acc value="0.050086041983478" flag="0"/>
			<vel value="0.0242067572616" flag="0"/>
			<psa03 value="0.0881871544661238" flag="0"/>
			<psa10 value="0.0286370414384402" flag="0"/>
			<psa30 value="0.00476548902359618" flag="0"/>
		</comp>
		<comp name="--.HNZ" depth="0.0">
			<acc value="0.046442409679206" flag="0"/>
			<vel value="0.0125094464924" flag="0"/>
			<psa03 value="0.0551601697155919" flag="0"/>
			<psa10 value="0.0136857544265823" flag="0"/>
			<psa30 value="0.00164946197709524" flag="0"/>
		</comp>
	</station>
	<station code="FOR" name="FOR" netid="IT" source="Italian Strong Motion Network (RAN)" insttype="" lat="44.1994" lon="12.0419">
		<comp name="--.HNE" depth="0.0">
			<acc value="0.283741087485" flag="0"/>
			<vel value="0.0823792408987" flag="0"/>
			<psa03 value="0.270320490739397" flag="0"/>
			<psa10 value="0.0456163381085799" flag="0"/>
			<psa30 value="0.00699534507393147" flag="0"/>
		</comp>
		<comp name="--.HNN" depth="0.0">
			<acc value="0.2074036691559" flag="0"/>
			<vel value="0.05772131341" flag="0"/>
			<psa03 value="0.170131968324641" flag="0"/>
			<psa10 value="0.039678806026165" flag="0"/>
			<psa30 value="0.00360219279425944" flag="0"/>
		</comp>
		<comp name="--.HNZ" depth="0.0">
			<acc value="0.34222150242984" flag="0"/>
			<vel value="0.0714260894344" flag="0"/>
			<psa03 value="0.130856710281447" flag="0"/>
			<psa10 value="0.0195095517870536" flag="0"/>
			<psa30 value="0.0020623566210062" flag="0"/>
		</comp>
	</station>
	<station code="FSS" name="FSS" netid="IT" source="Italian Strong Motion Network (RAN)" insttype="" lat="43.6905" lon="12.8101">
		<comp name="--.HGE" depth="0.0">
			<acc value="0.071485044806526" flag="0"/>
			<vel value="0.0183520642621" flag="0"/>
			<psa03 value="0.0604144657033351" flag="0"/>
			<psa10 value="0.0084725003240678" flag="0"/>
			<psa30 value="0.000509120028787264" flag="0"/>
		</comp>
		<comp name="--.HGN" depth="0.0">
			<acc value="0.064288770603888" flag="0"/>
			<vel value="0.0119252489122" flag="0"/>
			<psa03 value="0.0761704573771065" flag="0"/>
			<psa10 value="0.00905943764327091" flag="0"/>
			<psa30 value="0.000604968461606354" flag="0"/>
		</comp>
		<comp name="--.HGZ" depth="0.0">
			<acc value="0.04267003625556" flag="0"/>
			<vel value="0.00874257831498" flag="0"/>
			<psa03 value="0.0427339012237155" flag="0"/>
			<psa10 value="0.00745839798849555" flag="0"/>
			<psa30 value="0.000567945904877037" flag="0"/>
		</comp>
	</station>
	<station code="GBB" name="GBB" netid="IT" source="Italian Strong Motion Network (RAN)" insttype="" lat="43.3569" lon="12.5972">
		<comp name="--.HGE" depth="0.0">
			<acc value="0.061204968391848" flag="0"/>
			<vel value="0.0218584734827" flag="0"/>
			<psa03 value="0.176712414663407" flag="0"/>
			<psa10 value="0.0144974572603746" flag="0"/>
			<psa30 value="0.000729652554652695" flag="0"/>
		</comp>
		<comp name="--.HGN" depth="0.0">
			<acc value="0.046626379973376" flag="0"/>
			<vel value="0.0278150654172" flag="0"/>
			<psa03 value="0.12618598420204" flag="0"/>
			<psa10 value="0.0119565036221747" flag="0"/>
			<psa30 value="0.000882188232308379" flag="0"/>
		</comp>
		<comp name="--.HGZ" depth="0.0">
			<acc value="0.03031932932544" flag="0"/>
			<vel value="0.0122771649307" flag="0"/>
			<psa03 value="0.0754227359694217" flag="0"/>
			<psa10 value="0.00547564257821494" flag="0"/>
			<psa30 value="0.000571073872509934" flag="0"/>
		</comp>
	</station>
	<station code="GBP" name="GBP" netid="IT" source="Italian Strong Motion Network (RAN)" insttype="" lat="43.3138" lon="12.5894">
		<comp name="--.HGE" depth="0.0">
			<acc value="0.031453552973616" flag="0"/>
			<vel value="0.0258635257879" flag="0"/>
			<psa03 value="0.099551563552493" flag="0"/>
			<psa10 value="0.0338699487178721" flag="0"/>
			<psa30 value="0.00490783720347249" flag="0"/>
		</comp>
		<comp name="--.HGN" depth="0.0">
			<acc value="0.058556426579142" flag="0"/>
			<vel value="0.0429357795835" flag="0"/>
			<psa03 value="0.140758262044259" flag="0"/>
			<psa10 value="0.0352882289219919" flag="0"/>
			<psa30 value="0.00337190899742458" flag="0"/>
		</comp>
		<comp name="--.HGZ" depth="0.0">
			<acc value="0.024771998754474" flag="0"/>
			<vel value="0.0164530864646" flag="0"/>
			<psa03 value="0.0708338798969023" flag="0"/>
			<psa10 value="0.0243810269983842" flag="0"/>
			<psa30 value="0.00145609781349855" flag="0"/>
		</comp>
	</station>
	<station code="GBSL" name="GBSL" netid="IT" source="Italian Strong Motion Network (RAN)" insttype="" lat="43.3558" lon="12.5717">
		<comp name="--.HNE" depth="0.0">
			<acc value="0.023511577376916" flag="0"/>
			<vel value="0.013122679153" flag="0"/>
			<psa03 value="0.0780174807751678" flag="0"/>
			<psa10 value="0.0148316390858125" flag="0"/>
			<psa30 value="0.000789657415094596" flag="0"/>
		</comp>
		<comp name="--.HNN" depth="0.0">
			<acc value="0.033447369205536" flag="0"/>
			<vel value="0.0164252004492" flag="0"/>
			<psa03 value="0.0773294768649285" flag="0"/>
			<psa10 value="0.0105605233328578" flag="0"/>
			<psa30 value="0.00076660354413754" flag="0"/>
		</comp>
		<comp name="--.HNZ" depth="0.0">
			<acc value="0.021625321932138" flag="0"/>
			<vel value="0.0127105997967" flag="0"/>
			<psa03 value="0.0807720747117318" flag="0"/>
			<psa10 value="0.00856911984963273" flag="0"/>
			<psa30 value="0.000410373982137298" flag="0"/>
		</comp>
	</station>
	<station code="JESI" name="JESI" netid="IT" source="Italian Strong Motion Network (RAN)" insttype="" lat="43.5292" lon="13.2289">
		<comp name="--.HNE" depth="0.0">
			<acc value="0.027992536823448" flag="0"/>
			<vel value="0.022998099667" flag="0"/>
			<psa03 value="0.0752714446970183" flag="0"/>
			<psa10 value="0.0249527073694062" flag="0"/>
			<psa30 value="0.00158013905145531" flag="0"/>
		</comp>
		<comp name="--.HNN" depth="0.0">
			<acc value="0.024423233338608" flag="0"/>
			<vel value="0.019458884389" flag="0"/>
			<psa03 value="0.0616615743598431" flag="0"/>
			<psa10 value="0.0319729718024614" flag="0"/>
			<psa30 value="0.00222996584929421" flag="0"/>
		</comp>
		<comp name="--.HNZ" depth="0.0">
			<acc value="0.017298246714324" flag="0"/>
			<vel value="0.00833398313862" flag="0"/>
			<psa03 value="0.0327816612075065" flag="0"/>
			<psa10 value="0.0116841662061764" flag="0"/>
			<psa30 value="0.00137448313609338" flag="0"/>
		</comp>
	</station>
	<station code="MBRC" name="MBRC" netid="IT" source="Italian Strong Motion Network (RAN)" insttype="" lat="43.7917" lon="12.8584">
		<comp name="--.HNE" depth="0.0">
			<acc value="0.11419208312646" flag="0"/>
			<vel value="0.0450155261673" flag="0"/>
			<psa03 value="0.268824829158798" flag="0"/>
			<psa10 value="0.0172983340547398" flag="0"/>
			<psa30 value="0.00145135666608925" flag="0"/>
		</comp>
		<comp name="--.HNN" depth="0.0">
			<acc value="0.1232285968164" flag="0"/>
			<vel value="0.0473419856386" flag="0"/>
			<psa03 value="0.396768658976532" flag="0"/>
			<psa10 value="0.021037026099732" flag="0"/>
			<psa30 value="0.00164452102478072" flag="0"/>
		</comp>
		<comp name="--.HNZ" depth="0.0">
			<acc value="0.073916645165436" flag="0"/>
			<vel value="0.0265013905421" flag="0"/>
			<psa03 value="0.147392482778534" flag="0"/>
			<psa10 value="0.0119036466831912" flag="0"/>
			<psa30 value="0.000725742920656989" flag="0"/>
		</comp>
	</station>
	<station code="MCR" name="MCR" netid="IT" source="Italian Strong Motion Network (RAN)" insttype="" lat="43.7998" lon="12.4475">
		<comp name="--.HGE" depth="0.0">
			<acc value="0.14213413905096" flag="0"/>
			<vel value="0.042260061084" flag="0"/>
			<psa03 value="0.229290626878902" flag="0"/>
			<psa10 value="0.0177540979968624" flag="0"/>
			<psa30 value="0.00264954614443079" flag="0"/>
		</comp>
		<comp name="--.HGN" depth="0.0">
			<acc value="0.19052249717472" flag="0"/>
			<vel value="0.0520001869581" flag="0"/>
			<psa03 value="0.254181317431523" flag="0"/>
			<psa10 value="0.0214834406724988" flag="0"/>
			<psa30 value="0.00183860117330618" flag="0"/>
		</comp>
		<comp name="--.HGZ" depth="0.0">
			<acc value="0.13032736666812" flag="0"/>
			<vel value="0.0271091242698" flag="0"/>
			<psa03 value="0.154427865504648" flag="0"/>
			<psa10 value="0.013159423934753" flag="0"/>
			<psa30 value="0.00108139934573395" flag="0"/>
		</comp>
	</station>
	<station code="MCS" name="MCS" netid="IT" source="Italian Strong Motion Network (RAN)" insttype="" lat="43.9937" lon="12.1067">
		<comp name="--.HGE" depth="0.0">
			<acc value="1.6861954476666" flag="0"/>
			<vel value="0.643809314915" flag="0"/>
			<psa03 value="3.35872983270189" flag="0"/>
			<psa10 value="0.170312837389631" flag="0"/>
			<psa30 value="0.0137652218783872" flag="0"/>
		</comp>
		<comp name="--.HGN" depth="0.0">
			<acc value="1.9174558277328" flag="0"/>
			<vel value="0.369762557721" flag="0"/>
			<psa03 value="0.812108381528919" flag="0"/>
			<psa10 value="0.0775095796292061" flag="0"/>
			<psa30 value="0.00765331532791637" flag="0"/>
		</comp>
		<comp name="--.HGZ" depth="0.0">
			<acc value="1.0275053807688" flag="0"/>
			<vel value="0.1738233804" flag="0"/>
			<psa03 value="0.495787926848986" flag="0"/>
			<psa10 value="0.0436131841593915" flag="0"/>
			<psa30 value="0.00285451180573115" flag="0"/>
		</comp>
	</station>
	<station code="MDG" name="MDG" netid="IT" source="Italian Strong Motion Network (RAN)" insttype="" lat="44.1592" lon="11.7885">
		<comp name="--.HGE" depth="0.0">
			<acc value="0.089582750079666" flag="0"/>
			<vel value="0.0184372610027" flag="0"/>
			<psa03 value="0.0866113521604486" flag="0"/>
			<psa10 value="0.0139155265228446" flag="0"/>
			<psa30 value="0.000943735017815475" flag="0"/>
		</comp>
		<comp name="--.HGN" depth="0.0">
			<acc value="0.078515147281698" flag="0"/>
			<vel value="0.020482161498" flag="0"/>
