<?xml version="1.0" encoding="UTF-8" standalone="yes"?>
<!DOCTYPE earthquake SYSTEM "stationlist.dtd">
<stationlist created="" xmlns="ch.ethz.sed.shakemap.usgs.xml">
  <station code="AOI" name="AOI" netid="IV" insttype="" lat="43.5502" lon="13.602">
    <comp name="--.HHE">
      <acc value="0.0123085851" flag="0"/>
      <vel value="0.0079748863" flag="0"/>
      <psa03 value="0.0421814138" flag="0"/>
      <psa10 value="0.0064266906" flag="0"/>
      <psa30 value="0.0004561832" flag="0"/>
    </comp>
    <comp name="--.HHN">
      <acc value="0.0173386350" flag="0"/>
      <vel value="0.0087087375" flag="0"/>
      <psa03 value="0.0471657226" flag="0"/>
      <psa10 value="0.0097838882" flag="0"/>
      <psa30 value="0.0010133143" flag="0"/>
    </comp>
    <comp name="--.HHZ">
      <acc value="0.0105834356" flag="0"/>
      <vel value="0.0043673255" flag="0"/>
      <psa03 value="0.0282821417" flag="0"/>
      <psa10 value="0.0039907515" flag="0"/>
      <psa30 value="0.0003048058" flag="0"/>
    </comp>
  </station>
  <station code="ARVD" name="ARVD" netid="IV" insttype="" lat="43.4981" lon="12.9415">
    <comp name="--.HHN">
      <acc value="0.0134542233" flag="0"/>
      <vel value="0.0069961405" flag="0"/>
      <psa03 value="0.0503293217" flag="0"/>
      <psa10 value="0.0066329380" flag="0"/>
      <psa30 value="0.0003584991" flag="0"/>
    </comp>
    <comp name="--.HHE">
      <acc value="0.0149445326" flag="0"/>
      <vel value="0.0059030053" flag="0"/>
      <psa03 value="0.0423799063" flag="0"/>
      <psa10 value="0.0055370519" flag="0"/>
      <psa30 value="0.0006249835" flag="0"/>
    </comp>
    <comp name="--.HHZ">
      <acc value="0.0182747568" flag="0"/>
      <vel value="0.0061924222" flag="0"/>
      <psa03 value="0.0372219966" flag="0"/>
      <psa10 value="0.0061196781" flag="0"/>
      <psa30 value="0.0004257233" flag="0"/>
    </comp>
  </station>
  <station code="ATCC" name="ATCC" netid="IV" insttype="" lat="43.1851" lon="12.6399">
    <comp name="--.HNN">
      <acc value="0.0286905899" flag="0"/>
      <vel value="0.0179361323" flag="0"/>
      <psa03 value="0.0850234967" flag="0"/>
      <psa10 value="0.0103217602" flag="0"/>
      <psa30 value="0.0008695005" flag="0"/>
    </comp>
    <comp name="--.HNE">
      <acc value="0.0224016305" flag="0"/>
      <vel value="0.0116432642" flag="0"/>
      <psa03 value="0.0687914607" flag="0"/>
      <psa10 value="0.0119390066" flag="0"/>
      <psa30 value="0.0008548696" flag="0"/>
    </comp>
    <comp name="--.HNZ">
      <acc value="0.0121521617" flag="0"/>
      <vel value="0.0055167374" flag="0"/>
      <psa03 value="0.0376853550" flag="0"/>
      <psa10 value="0.0071499824" flag="0"/>
      <psa30 value="0.0007142629" flag="0"/>
    </comp>
  </station>
  <station code="ATFO" name="ATFO" netid="IV" insttype="" lat="43.3666" lon="12.5715">
    <comp name="--.HHE">
      <acc value="0.0318493935" flag="0"/>
      <vel value="0.0152790767" flag="0"/>
      <psa03 value="0.1131930432" flag="0"/>
      <psa10 value="0.0177121875" flag="0"/>
      <psa30 value="0.0008384207" flag="0"/>
    </comp>
    <comp name="--.HHN">
      <acc value="0.0269371764" flag="0"/>
      <vel value="0.0184752211" flag="0"/>
      <psa03 value="0.0719479906" flag="0"/>
      <psa10 value="0.0115026574" flag="0"/>
      <psa30 value="0.0007191728" flag="0"/>
    </comp>
    <comp name="--.HHZ">
      <acc value="0.0145593202" flag="0"/>
      <vel value="0.0098948758" flag="0"/>
      <psa03 value="0.0468030687" flag="0"/>
      <psa10 value="0.0068667193" flag="0"/>
      <psa30 value="0.0004815107" flag="0"/>
    </comp>
  </station>
  <station code="ATMI" name="ATMI" netid="IV" insttype="" lat="43.3342" lon="12.268">
    <comp name="--.HHN">
      <acc value="0.0333147629" flag="0"/>
      <vel value="0.0175218486" flag="0"/>
      <psa03 value="0.1410374025" flag="0"/>
      <psa10 value="0.0144138841" flag="0"/>
      <psa30 value="0.0011134849" flag="0"/>
    </comp>
    <comp name="--.HHZ">
      <acc value="0.0132677326" flag="0"/>
      <vel value="0.0080471352" flag="0"/>
      <psa03 value="0.0368642040" flag="0"/>
      <psa10 value="0.0085093441" flag="0"/>
      <psa30 value="0.0006039747" flag="0"/>
    </comp>
    <comp name="--.HHE">
      <acc value="0.0351845760" flag="0"/>
      <vel value="0.0229733656" flag="0"/>
      <psa03 value="0.0927365467" flag="0"/>
      <psa10 value="0.0229898943" flag="0"/>
      <psa30 value="0.0012348228" flag="0"/>
    </comp>
  </station>
  <station code="ATPC" name="ATPC" netid="IV" insttype="" lat="43.4807" lon="12.457">
    <comp name="--.HHE">
      <acc value="0.0329968999" flag="0"/>
      <vel value="0.0138317336" flag="0"/>
      <psa03 value="0.0808714480" flag="0"/>
      <psa10 value="0.0107656383" flag="0"/>
      <psa30 value="0.0006362839" flag="0"/>
    </comp>
    <comp name="--.HHN">
      <acc value="0.0231045728" flag="0"/>
      <vel value="0.0123823590" flag="0"/>
      <psa03 value="0.0619675218" flag="0"/>
      <psa10 value="0.0091348201" flag="0"/>
      <psa30 value="0.0005901070" flag="0"/>
    </comp>
    <comp name="--.HHZ">
      <acc value="0.0124267207" flag="0"/>
      <vel value="0.0066643070" flag="0"/>
      <psa03 value="0.0514428250" flag="0"/>
      <psa10 value="0.0074969405" flag="0"/>
      <psa30 value="0.0006001498" flag="0"/>
    </comp>
  </station>
  <station code="ATVO" name="ATVO" netid="IV" insttype="" lat="43.3821" lon="12.4066">
    <comp name="--.HHE">
      <acc value="0.0164829070" flag="0"/>
      <vel value="0.0115212044" flag="0"/>
      <psa03 value="0.0523282142" flag="0"/>
      <psa10 value="0.0139244832" flag="0"/>
      <psa30 value="0.0006017742" flag="0"/>
    </comp>
    <comp name="--.HHZ">
      <acc value="0.0084658384" flag="0"/>
      <vel value="0.0052111067" flag="0"/>
      <psa03 value="0.0253598488" flag="0"/>
      <psa10 value="0.0037320973" flag="0"/>
      <psa30 value="0.0004933153" flag="0"/>
    </comp>
    <comp name="--.HHN">
      <acc value="0.0218647153" flag="0"/>
      <vel value="0.0112581131" flag="0"/>
      <psa03 value="0.0713768921" flag="0"/>
      <psa10 value="0.0102360782" flag="0"/>
      <psa30 value="0.0006661146" flag="0"/>
    </comp>
  </station>
  <station code="BOSL" name="BOSL" netid="IV" insttype="" lat="43.931" lon="11.3743">
    <comp name="--.HHE">
      <acc value="0.0057131677" flag="0"/>
      <vel value="0.0017367112" flag="0"/>
      <psa03 value="0.0051909971" flag="0"/>
      <psa10 value="0.0018818128" flag="0"/>
      <psa30 value="0.0001061916" flag="0"/>
    </comp>
    <comp name="--.HHN">
      <acc value="0.0053466923" flag="0"/>
      <vel value="0.0028642084" flag="0"/>
      <psa03 value="0.0129530372" flag="0"/>
      <psa10 value="0.0035686716" flag="0"/>
      <psa30 value="0.0002055334" flag="0"/>
    </comp>
    <comp name="--.HHZ">
      <acc value="0.0028993181" flag="0"/>
      <vel value="0.0012434359" flag="0"/>
      <psa03 value="0.0046466296" flag="0"/>
      <psa10 value="0.0011917015" flag="0"/>
      <psa30 value="0.0000800720" flag="0"/>
    </comp>
  </station>
  <station code="BRIS" name="BRIS" netid="IV" insttype="" lat="44.2245" lon="11.7666">
    <comp name="--.HHE">
      <acc value="0.0092347356" flag="0"/>
      <vel value="0.0048402867" flag="0"/>
      <psa03 value="0.0171171874" flag="0"/>
      <psa10 value="0.0053376741" flag="0"/>
      <psa30 value="0.0004984045" flag="0"/>
    </comp>
    <comp name="--.HHZ">
      <acc value="0.0087744639" flag="0"/>
      <vel value="0.0036604875" flag="0"/>
      <psa03 value="0.0191095381" flag="0"/>
      <psa10 value="0.0064468157" flag="0"/>
      <psa30 value="0.0004084864" flag="0"/>
    </comp>
    <comp name="--.HHN">
      <acc value="0.0098796836" flag="0"/>
      <vel value="0.0046058555" flag="0"/>
      <psa03 value="0.0269763853" flag="0"/>
      <psa10 value="0.0044604026" flag="0"/>
      <psa30 value="0.0004855225" flag="0"/>
    </comp>
  </station>
  <station code="BRSN" name="BRSN" netid="IV" insttype="" lat="44.2842" lon="12.0802">
    <comp name="--.HNN">
      <acc value="0.0862143786" flag="0"/>
      <vel value="0.0419927503" flag="0"/>
      <psa03 value="0.1570579172" flag="0"/>
      <psa10 value="0.0602337110" flag="0"/>
      <psa30 value="0.0070538427" flag="0"/>
    </comp>
    <comp name="--.HNE">
      <acc value="0.0811587271" flag="0"/>
      <vel value="0.0474983335" flag="0"/>
      <psa03 value="0.1799471444" flag="0"/>
      <psa10 value="0.0915425477" flag="0"/>
      <psa30 value="0.0053473863" flag="0"/>
    </comp>
    <comp name="--.HNZ">
      <acc value="0.0702092247" flag="0"/>
      <vel value="0.0196500773" flag="0"/>
      <psa03 value="0.0775055916" flag="0"/>
      <psa10 value="0.0227212426" flag="0"/>
      <psa30 value="0.0019626614" flag="0"/>
    </comp>
  </station>
  <station code="CAFI" name="CAFI" netid="IV" insttype="" lat="43.3292" lon="11.9663">
    <comp name="--.HHE">
      <acc value="0.0076362127" flag="0"/>
      <vel value="0.0079845335" flag="0"/>
      <psa03 value="0.0206138043" flag="0"/>
      <psa10 value="0.0075344468" flag="0"/>
      <psa30 value="0.0004634180" flag="0"/>
    </comp>
    <comp name="--.HHN">
      <acc value="0.0143510688" flag="0"/>
      <vel value="0.0086241585" flag="0"/>
      <psa03 value="0.0511727779" flag="0"/>
      <psa10 value="0.0082907525" flag="0"/>
      <psa30 value="0.0004516264" flag="0"/>
    </comp>
    <comp name="--.HHZ">
      <acc value="0.0147889518" flag="0"/>
      <vel value="0.0080840284" flag="0"/>
      <psa03 value="0.0220878964" flag="0"/>
      <psa10 value="0.0049588938" flag="0"/>
      <psa30 value="0.0002835106" flag="0"/>
    </comp>
  </station>
  <station code="CING" name="CING" netid="IV" insttype="" lat="43.3756" lon="13.1954">
    <comp name="--.HHE">
      <acc value="0.0095308202" flag="0"/>
      <vel value="0.0057430430" flag="0"/>
      <psa03 value="0.0333703809" flag="0"/>
      <psa10 value="0.0059237432" flag="0"/>
      <psa30 value="0.0005561854" flag="0"/>
    </comp>
    <comp name="--.HHN">
      <acc value="0.0156708578" flag="0"/>
      <vel value="0.0095272152" flag="0"/>
      <psa03 value="0.0409460514" flag="0"/>
      <psa10 value="0.0119358467" flag="0"/>
      <psa30 value="0.0008557305" flag="0"/>
    </comp>
    <comp name="--.HHZ">
      <acc value="0.0083857320" flag="0"/>
      <vel value="0.0088970795" flag="0"/>
      <psa03 value="0.0359306216" flag="0"/>
      <psa10 value="0.0065849493" flag="0"/>
      <psa30 value="0.0006313668" flag="0"/>
    </comp>
  </station>
  <station code="CRE" name="CRE" netid="IV" insttype="" lat="43.6189" lon="11.9517">
    <comp name="--.HHN">
      <acc value="0.0439025138" flag="0"/>
      <vel value="0.0199772628" flag="0"/>
      <psa03 value="0.0871215800" flag="0"/>
      <psa10 value="0.0090681595" flag="0"/>
      <psa30 value="0.0010939931" flag="0"/>
    </comp>
    <comp name="--.HHE">
      <acc value="0.0223847016" flag="0"/>
      <vel value="0.0120055088" flag="0"/>
      <psa03 value="0.0596188021" flag="0"/>
      <psa10 value="0.0094926712" flag="0"/>
      <psa30 value="0.0008660216" flag="0"/>
    </comp>
    <comp name="--.HHZ">
      <acc value="0.0181266963" flag="0"/>
      <vel value="0.0069203364" flag="0"/>
      <psa03 value="0.0400839168" flag="0"/>
      <psa10 value="0.0048237239" flag="0"/>
      <psa30 value="0.0004004534" flag="0"/>
    </comp>
  </station>
  <station code="CRMI" name="CRMI" netid="IV" insttype="" lat="43.7956" lon="10.9795">
    <comp name="--.HHE">
      <acc value="0.0050884750" flag="0"/>
      <vel value="0.0033573166" flag="0"/>
      <psa03 value="0.0164789376" flag="0"/>
      <psa10 value="0.0040774413" flag="0"/>
      <psa30 value="0.0002836823" flag="0"/>
    </comp>
    <comp name="--.HHZ">
      <acc value="0.0044592402" flag="0"/>
      <vel value="0.0019230468" flag="0"/>
      <psa03 value="0.0100507780" flag="0"/>
      <psa10 value="0.0025429045" flag="0"/>
      <psa30 value="0.0002605142" flag="0"/>
    </comp>
    <comp name="--.HHN">
      <acc value="0.0058519824" flag="0"/>
      <vel value="0.0032718787" flag="0"/>
      <psa03 value="0.0152150012" flag="0"/>
      <psa10 value="0.0024884080" flag="0"/>
      <psa30 value="0.0003391213" flag="0"/>
    </comp>
  </station>
  <station code="CRTC" name="CRTC" netid="IV" insttype="" lat="43.7685" lon="12.883">
    <comp name="--.HHE">
      <acc value="0.0602526953" flag="0"/>
      <vel value="0.0324018417" flag="0"/>
      <psa03 value="0.2958587874" flag="0"/>
      <psa10 value="0.0312606143" flag="0"/>
      <psa30 value="0.0016066399" flag="0"/>
    </comp>
    <comp name="--.HHN">
      <acc value="0.0434384482" flag="0"/>
      <vel value="0.0299663551" flag="0"/>
      <psa03 value="0.1258360180" flag="0"/>
      <psa10 value="0.0230227382" flag="0"/>
      <psa30 value="0.0018956122" flag="0"/>
    </comp>
    <comp name="--.HHZ">
      <acc value="0.0465123608" flag="0"/>
      <vel value="0.0200804334" flag="0"/>
      <psa03 value="0.1466105314" flag="0"/>
      <psa10 value="0.0144887281" flag="0"/>
      <psa30 value="0.0008189692" flag="0"/>
    </comp>
  </station>
  <station code="CSNT" name="CSNT" netid="IV" insttype="" lat="43.4731" lon="11.2902">
    <comp name="--.HHE">
      <acc value="0.0074816870" flag="0"/>
      <vel value="0.0046395436" flag="0"/>
      <psa03 value="0.0172285869" flag="0"/>
      <psa10 value="0.0045172019" flag="0"/>
      <psa30 value="0.0003668785" flag="0"/>
    </comp>
    <comp name="--.HHN">
      <acc value="0.0089652948" flag="0"/>
      <vel value="0.0056845020" flag="0"/>
      <psa03 value="0.0275808940" flag="0"/>
      <psa10 value="0.0087904342" flag="0"/>
      <psa30 value="0.0006829482" flag="0"/>
    </comp>
    <comp name="--.HHZ">
      <acc value="0.0042617739" flag="0"/>
      <vel value="0.0031465343" flag="0"/>
      <psa03 value="0.0171533361" flag="0"/>
      <psa10 value="0.0027372893" flag="0"/>
      <psa30 value="0.0003231637" flag="0"/>
    </comp>
  </station>
  <station code="FNVD" name="FNVD" netid="IV" insttype="" lat="44.1678" lon="11.1229">
    <comp name="--.HHE">
      <acc value="0.0058139020" flag="0"/>
      <vel value="0.0040286914" flag="0"/>
      <psa03 value="0.0130722924" flag="0"/>
      <psa10 value="0.0107934565" flag="0"/>
      <psa30 value="0.0005633756" flag="0"/>
    </comp>
    <comp name="--.HHN">
      <acc value="0.0090166769" flag="0"/>
      <vel value="0.0050969375" flag="0"/>
      <psa03 value="0.0284699833" flag="0"/>
      <psa10 value="0.0090141510" flag="0"/>
      <psa30 value="0.0006225699" flag="0"/>
    </comp>
    <comp name="--.HHZ">
      <acc value="0.0049764200" flag="0"/>
      <vel value="0.0025729465" flag="0"/>
      <psa03 value="0.0135899273" flag="0"/>
      <psa10 value="0.0040353449" flag="0"/>
      <psa30 value="0.0002593355" flag="0"/>
    </comp>
  </station>
  <station code="FOSV" name="FOSV" netid="IV" insttype="" lat="43.2948" lon="12.7612">
    <comp name="--.HNE">
      <acc value="0.0192085648" flag="0"/>
      <vel value="0.0126522269" flag="0"/>
      <psa03 value="0.0706007128" flag="0"/>
      <psa10 value="0.0142205254" flag="0"/>
      <psa30 value="0.0006797107" flag="0"/>
    </comp>
    <comp name="--.HNN">
      <acc value="0.0155554729" flag="0"/>
      <vel value="0.0107846137" flag="0"/>
      <psa03 value="0.0393782205" flag="0"/>
      <psa10 value="0.0074492743" flag="0"/>
      <psa30 value="0.0005004451" flag="0"/>
    </comp>
    <comp name="--.HNZ">
      <acc value="0.0137639005" flag="0"/>
      <vel value="0.0078982609" flag="0"/>
      <psa03 value="0.0380530401" flag="0"/>
      <psa10 value="0.0065809955" flag="0"/>
      <psa30 value="0.0004129500" flag="0"/>
    </comp>
  </station>
  <station code="GAG1" name="GAG1" netid="IV" insttype="" lat="43.2381" lon="13.0674">
    <comp name="--.HNN">
      <acc value="0.0336565453" flag="0"/>
      <vel value="0.0215411322" flag="0"/>
      <psa03 value="0.0771818822" flag="0"/>
      <psa10 value="0.0243250606" flag="0"/>
      <psa30 value="0.0013522630" flag="0"/>
    </comp>
    <comp name="--.HNE">
      <acc value="0.0412627294" flag="0"/>
      <vel value="0.0241111051" flag="0"/>
      <psa03 value="0.0910357591" flag="0"/>
      <psa10 value="0.0267580356" flag="0"/>
      <psa30 value="0.0014397266" flag="0"/>
    </comp>
    <comp name="--.HNZ">
      <acc value="0.0283698784" flag="0"/>
      <vel value="0.0156673625" flag="0"/>
      <psa03 value="0.0972017914" flag="0"/>
      <psa10 value="0.0104875801" flag="0"/>
      <psa30 value="0.0012655783" flag="0"/>
    </comp>
  </station>
  <station code="IMOL" name="IMOL" netid="IV" insttype="" lat="44.3595" lon="11.7425">
    <comp name="--.HNE">
      <acc value="0.1587138670" flag="0"/>
      <vel value="0.0156581170" flag="0"/>
      <psa03 value="0.0607911224" flag="0"/>
      <psa10 value="0.0324706329" flag="0"/>
      <psa30 value="0.0038955254" flag="0"/>
    </comp>
    <comp name="--.HNZ">
      <acc value="0.2605667954" flag="0"/>
      <vel value="0.0134428791" flag="0"/>
      <psa03 value="0.0286477639" flag="0"/>
      <psa10 value="0.0111179383" flag="0"/>
      <psa30 value="0.0015482074" flag="0"/>
    </comp>
    <comp name="--.HNN">
      <acc value="0.1819628677" flag="0"/>
      <vel value="0.0237803937" flag="0"/>
      <psa03 value="0.0837332879" flag="0"/>
      <psa10 value="0.0234317696" flag="0"/>
      <psa30 value="0.0050609025" flag="0"/>
    </comp>
  </station>
  <station code="LMD" name="LMD" netid="IV" insttype="" lat="44.0775" lon="11.7073">
    <comp name="--.HHE">
      <acc value="0.0867023919" flag="0"/>
      <vel value="0.0222439172" flag="0"/>
      <psa03 value="0.1101958424" flag="0"/>
      <psa10 value="0.0077718467" flag="0"/>
      <psa30 value="0.0010616544" flag="0"/>
    </comp>
    <comp name="--.HHN">
      <acc value="0.0732648333" flag="0"/>
      <vel value="0.0161075307" flag="0"/>
      <psa03 value="0.1044813126" flag="0"/>
      <psa10 value="0.0164543366" flag="0"/>
      <psa30 value="0.0014662656" flag="0"/>
    </comp>
    <comp name="--.HHZ">
      <acc value="0.0338751019" flag="0"/>
      <vel value="0.0104241894" flag="0"/>
      <psa03 value="0.0462796690" flag="0"/>
      <psa10 value="0.0071688744" flag="0"/>
      <psa30 value="0.0006427290" flag="0"/>
    </comp>
  </station>
  <station code="MTRZ" name="MTRZ" netid="IV" insttype="" lat="44.3128" lon="11.4248">
    <comp name="--.HHE">
      <acc value="0.0093979807" flag="0"/>
      <vel value="0.0071306592" flag="0"/>
      <psa03 value="0.0289533484" flag="0"/>
      <psa10 value="0.0097905309" flag="0"/>
      <psa30 value="0.0007461837" flag="0"/>
    </comp>
    <comp name="--.HHN">
      <acc value="0.0115548684" flag="0"/>
      <vel value="0.0108496087" flag="0"/>
      <psa03 value="0.0285371872" flag="0"/>
      <psa10 value="0.0111749750" flag="0"/>
      <psa30 value="0.0012822425" flag="0"/>
    </comp>
    <comp name="--.HHZ">
      <acc value="0.0058546136" flag="0"/>
      <vel value="0.0038657562" flag="0"/>
      <psa03 value="0.0142129630" flag="0"/>
      <psa10 value="0.0051766819" flag="0"/>
      <psa30 value="0.0009838359" flag="0"/>
    </comp>
  </station>
  <station code="MURB" name="MURB" netid="IV" insttype="" lat="43.263" lon="12.5246">
    <comp name="--.HHE">
      <acc value="0.0816110274" flag="0"/>
      <vel value="0.0448142815" flag="0"/>
      <psa03 value="0.4282905333" flag="0"/>
      <psa10 value="0.0248242987" flag="0"/>
      <psa30 value="0.0022959200" flag="0"/>
    </comp>
    <comp name="--.HHZ">
      <acc value="0.0145721816" flag="0"/>
      <vel value="0.0077701124" flag="0"/>
      <psa03 value="0.0468506985" flag="0"/>
      <psa10 value="0.0099183047" flag="0"/>
      <psa30 value="0.0007600710" flag="0"/>
    </comp>
