<?xml version="1.0" encoding="UTF-8" standalone="yes"?>
<!DOCTYPE earthquake SYSTEM "stationlist.dtd">
<stationlist created="" xmlns="ch.ethz.sed.shakemap.usgs.xml">
  <station code="AOI" name="AOI" netid="IV" insttype="" lat="43.5502" lon="13.602">
    <comp name="--.HHE">
      <acc value="0.0123085850" flag="0"/>
      <vel value="0.0079748860" flag="0"/>
      <psa03 value="0.0421814138" flag="0"/>
      <psa10 value="0.0064266906" flag="0"/>
      <psa30 value="0.0004561925" flag="0"/>
    </comp>
    <comp name="--.HHZ">
      <acc value="0.0105834356" flag="0"/>
      <vel value="0.0043673244" flag="0"/>
      <psa03 value="0.0282821417" flag="0"/>
      <psa10 value="0.0039907515" flag="0"/>
      <psa30 value="0.0003048014" flag="0"/>
    </comp>
    <comp name="--.HHN">
      <acc value="0.0173386350" flag="0"/>
      <vel value="0.0087087494" flag="0"/>
      <psa03 value="0.0471657226" flag="0"/>
      <psa10 value="0.0097838883" flag="0"/>
      <psa30 value="0.0010133681" flag="0"/>
    </comp>
  </station>
  <station code="ARVD" name="ARVD" netid="IV" insttype="" lat="43.4981" lon="12.9415">
    <comp name="--.HHE">
      <acc value="0.0149445326" flag="0"/>
      <vel value="0.0059030046" flag="0"/>
      <psa03 value="0.0423799063" flag="0"/>
      <psa10 value="0.0055370519" flag="0"/>
      <psa30 value="0.0006249723" flag="0"/>
    </comp>
    <comp name="--.HHN">
      <acc value="0.0134542233" flag="0"/>
      <vel value="0.0069961409" flag="0"/>
      <psa03 value="0.0503293217" flag="0"/>
      <psa10 value="0.0066329381" flag="0"/>
      <psa30 value="0.0003584852" flag="0"/>
    </comp>
    <comp name="--.HHZ">
      <acc value="0.0182747569" flag="0"/>
      <vel value="0.0061924239" flag="0"/>
      <psa03 value="0.0372219966" flag="0"/>
      <psa10 value="0.0061196781" flag="0"/>
      <psa30 value="0.0004257226" flag="0"/>
    </comp>
  </station>
  <station code="ATFO" name="ATFO" netid="IV" insttype="" lat="43.3666" lon="12.5715">
    <comp name="--.HHN">
      <acc value="0.0269371764" flag="0"/>
      <vel value="0.0184752226" flag="0"/>
      <psa03 value="0.0719479906" flag="0"/>
      <psa10 value="0.0115026573" flag="0"/>
      <psa30 value="0.0007192333" flag="0"/>
    </comp>
    <comp name="--.HHZ">
      <acc value="0.0145593205" flag="0"/>
      <vel value="0.0098948678" flag="0"/>
      <psa03 value="0.0468030687" flag="0"/>
      <psa10 value="0.0068667193" flag="0"/>
      <psa30 value="0.0004815542" flag="0"/>
    </comp>
    <comp name="--.HHE">
      <acc value="0.0318493934" flag="0"/>
      <vel value="0.0152790765" flag="0"/>
      <psa03 value="0.1131930432" flag="0"/>
      <psa10 value="0.0177121876" flag="0"/>
      <psa30 value="0.0008384248" flag="0"/>
    </comp>
  </station>
  <station code="ATMI" name="ATMI" netid="IV" insttype="" lat="43.3342" lon="12.268">
    <comp name="--.HHE">
      <acc value="0.0351845761" flag="0"/>
      <vel value="0.0229733662" flag="0"/>
      <psa03 value="0.0927365467" flag="0"/>
      <psa10 value="0.0229898944" flag="0"/>
      <psa30 value="0.0012350657" flag="0"/>
    </comp>
    <comp name="--.HHN">
      <acc value="0.0333147632" flag="0"/>
      <vel value="0.0175218490" flag="0"/>
      <psa03 value="0.1410374025" flag="0"/>
      <psa10 value="0.0144138841" flag="0"/>
      <psa30 value="0.0011130837" flag="0"/>
    </comp>
    <comp name="--.HHZ">
      <acc value="0.0132677327" flag="0"/>
      <vel value="0.0080471340" flag="0"/>
      <psa03 value="0.0368642040" flag="0"/>
      <psa10 value="0.0085093442" flag="0"/>
      <psa30 value="0.0006038978" flag="0"/>
    </comp>
  </station>
  <station code="ATPC" name="ATPC" netid="IV" insttype="" lat="43.4807" lon="12.457">
    <comp name="--.HHE">
      <acc value="0.0329968998" flag="0"/>
      <vel value="0.0138317350" flag="0"/>
      <psa03 value="0.0808714480" flag="0"/>
      <psa10 value="0.0107656383" flag="0"/>
      <psa30 value="0.0006362789" flag="0"/>
    </comp>
    <comp name="--.HHN">
      <acc value="0.0231045730" flag="0"/>
      <vel value="0.0123823576" flag="0"/>
      <psa03 value="0.0619675218" flag="0"/>
      <psa10 value="0.0091348201" flag="0"/>
      <psa30 value="0.0005901472" flag="0"/>
    </comp>
    <comp name="--.HHZ">
      <acc value="0.0124267206" flag="0"/>
      <vel value="0.0066643077" flag="0"/>
      <psa03 value="0.0514428250" flag="0"/>
      <psa10 value="0.0074969404" flag="0"/>
      <psa30 value="0.0006000357" flag="0"/>
    </comp>
  </station>
  <station code="ATVO" name="ATVO" netid="IV" insttype="" lat="43.3821" lon="12.4066">
    <comp name="--.HHN">
      <acc value="0.0218647155" flag="0"/>
      <vel value="0.0112581176" flag="0"/>
      <psa03 value="0.0713768921" flag="0"/>
      <psa10 value="0.0102360781" flag="0"/>
      <psa30 value="0.0006661502" flag="0"/>
    </comp>
    <comp name="--.HHE">
      <acc value="0.0164829067" flag="0"/>
      <vel value="0.0115212040" flag="0"/>
      <psa03 value="0.0523282142" flag="0"/>
      <psa10 value="0.0139244832" flag="0"/>
      <psa30 value="0.0006017626" flag="0"/>
    </comp>
    <comp name="--.HHZ">
      <acc value="0.0084658384" flag="0"/>
      <vel value="0.0052111089" flag="0"/>
      <psa03 value="0.0253598488" flag="0"/>
      <psa10 value="0.0037320973" flag="0"/>
      <psa30 value="0.0004933229" flag="0"/>
    </comp>
  </station>
  <station code="BOSL" name="BOSL" netid="IV" insttype="" lat="43.931" lon="11.3743">
    <comp name="--.HHE">
      <acc value="0.0057131698" flag="0"/>
      <vel value="0.0017367111" flag="0"/>
      <psa03 value="0.0051909971" flag="0"/>
      <psa10 value="0.0018818128" flag="0"/>
      <psa30 value="0.0001062075" flag="0"/>
    </comp>
    <comp name="--.HHN">
      <acc value="0.0053466971" flag="0"/>
      <vel value="0.0028642087" flag="0"/>
      <psa03 value="0.0129530372" flag="0"/>
      <psa10 value="0.0035686716" flag="0"/>
      <psa30 value="0.0002055594" flag="0"/>
    </comp>
    <comp name="--.HHZ">
      <acc value="0.0028993154" flag="0"/>
      <vel value="0.0012434358" flag="0"/>
      <psa03 value="0.0046466296" flag="0"/>
      <psa10 value="0.0011917015" flag="0"/>
      <psa30 value="0.0000800804" flag="0"/>
    </comp>
  </station>
  <station code="BRIS" name="BRIS" netid="IV" insttype="" lat="44.2245" lon="11.7666">
    <comp name="--.HHE">
      <acc value="0.0092347356" flag="0"/>
      <vel value="0.0048402865" flag="0"/>
      <psa03 value="0.0171171874" flag="0"/>
      <psa10 value="0.0053376741" flag="0"/>
      <psa30 value="0.0004984472" flag="0"/>
    </comp>
    <comp name="--.HHN">
      <acc value="0.0098796836" flag="0"/>
      <vel value="0.0046058560" flag="0"/>
      <psa03 value="0.0269763853" flag="0"/>
      <psa10 value="0.0044604026" flag="0"/>
      <psa30 value="0.0004855177" flag="0"/>
    </comp>
    <comp name="--.HHZ">
      <acc value="0.0087744639" flag="0"/>
      <vel value="0.0036604874" flag="0"/>
      <psa03 value="0.0191095381" flag="0"/>
      <psa10 value="0.0064468157" flag="0"/>
      <psa30 value="0.0004084847" flag="0"/>
    </comp>
  </station>
  <station code="BRSN" name="BRSN" netid="IV" insttype="" lat="44.2842" lon="12.0802">
    <comp name="--.HNN">
      <acc value="0.0862143780" flag="0"/>
      <vel value="0.0419927540" flag="0"/>
      <psa03 value="0.1570579172" flag="0"/>
      <psa10 value="0.0602337123" flag="0"/>
      <psa30 value="0.0070528233" flag="0"/>
    </comp>
    <comp name="--.HNE">
      <acc value="0.0811587267" flag="0"/>
      <vel value="0.0474983300" flag="0"/>
      <psa03 value="0.1799471444" flag="0"/>
      <psa10 value="0.0915425385" flag="0"/>
      <psa30 value="0.0053474319" flag="0"/>
    </comp>
    <comp name="--.HNZ">
      <acc value="0.0702092247" flag="0"/>
      <vel value="0.0196500733" flag="0"/>
      <psa03 value="0.0775055916" flag="0"/>
      <psa10 value="0.0227212485" flag="0"/>
      <psa30 value="0.0019638206" flag="0"/>
    </comp>
  </station>
  <station code="CAFI" name="CAFI" netid="IV" insttype="" lat="43.3292" lon="11.9663">
    <comp name="--.HHE">
      <acc value="0.0076362128" flag="0"/>
      <vel value="0.0079845367" flag="0"/>
      <psa03 value="0.0206138043" flag="0"/>
      <psa10 value="0.0075344468" flag="0"/>
      <psa30 value="0.0004631193" flag="0"/>
    </comp>
    <comp name="--.HHN">
      <acc value="0.0143510689" flag="0"/>
      <vel value="0.0086241581" flag="0"/>
      <psa03 value="0.0511727779" flag="0"/>
      <psa10 value="0.0082907525" flag="0"/>
      <psa30 value="0.0004515491" flag="0"/>
    </comp>
    <comp name="--.HHZ">
      <acc value="0.0147889525" flag="0"/>
      <vel value="0.0080840280" flag="0"/>
      <psa03 value="0.0220878964" flag="0"/>
      <psa10 value="0.0049589052" flag="0"/>
      <psa30 value="0.0002833079" flag="0"/>
    </comp>
  </station>
  <station code="CING" name="CING" netid="IV" insttype="" lat="43.3756" lon="13.1954">
    <comp name="--.HHE">
      <acc value="0.0095308203" flag="0"/>
      <vel value="0.0057430427" flag="0"/>
      <psa03 value="0.0333703809" flag="0"/>
      <psa10 value="0.0059237432" flag="0"/>
      <psa30 value="0.0005561528" flag="0"/>
    </comp>
    <comp name="--.HHN">
      <acc value="0.0156708579" flag="0"/>
      <vel value="0.0095272139" flag="0"/>
      <psa03 value="0.0409460514" flag="0"/>
      <psa10 value="0.0119358467" flag="0"/>
      <psa30 value="0.0008558169" flag="0"/>
    </comp>
    <comp name="--.HHZ">
      <acc value="0.0083857318" flag="0"/>
      <vel value="0.0088970733" flag="0"/>
      <psa03 value="0.0359306216" flag="0"/>
      <psa10 value="0.0065849491" flag="0"/>
      <psa30 value="0.0006309456" flag="0"/>
    </comp>
  </station>
  <station code="CPGN" name="CPGN" netid="IV" insttype="" lat="43.8011" lon="12.3205">
    <comp name="--.HNZ">
      <acc value="0.0390692146" flag="0"/>
      <vel value="0.0099850929" flag="0"/>
      <psa03 value="0.0384263941" flag="0"/>
      <psa10 value="0.0130151931" flag="0"/>
      <psa30 value="0.0019097633" flag="0"/>
    </comp>
  </station>
  <station code="CRE" name="CRE" netid="IV" insttype="" lat="43.6189" lon="11.9517">
    <comp name="--.HHE">
      <acc value="0.0223847014" flag="0"/>
      <vel value="0.0120055094" flag="0"/>
      <psa03 value="0.0596188021" flag="0"/>
      <psa10 value="0.0094926712" flag="0"/>
      <psa30 value="0.0008661028" flag="0"/>
    </comp>
    <comp name="--.HHN">
      <acc value="0.0439025135" flag="0"/>
      <vel value="0.0199772610" flag="0"/>
      <psa03 value="0.0871215800" flag="0"/>
      <psa10 value="0.0090681594" flag="0"/>
      <psa30 value="0.0010938470" flag="0"/>
    </comp>
    <comp name="--.HHZ">
      <acc value="0.0181266961" flag="0"/>
      <vel value="0.0069203380" flag="0"/>
      <psa03 value="0.0400839168" flag="0"/>
      <psa10 value="0.0048237238" flag="0"/>
      <psa30 value="0.0004002850" flag="0"/>
    </comp>
  </station>
  <station code="CRTC" name="CRTC" netid="IV" insttype="" lat="43.7685" lon="12.883">
    <comp name="--.HHE">
      <acc value="0.0602526952" flag="0"/>
      <vel value="0.0324018368" flag="0"/>
      <psa03 value="0.2958587874" flag="0"/>
      <psa10 value="0.0312606136" flag="0"/>
      <psa30 value="0.0016064639" flag="0"/>
    </comp>
    <comp name="--.HHN">
      <acc value="0.0434384483" flag="0"/>
      <vel value="0.0299663534" flag="0"/>
      <psa03 value="0.1258360180" flag="0"/>
      <psa10 value="0.0230227359" flag="0"/>
      <psa30 value="0.0018953282" flag="0"/>
    </comp>
    <comp name="--.HHZ">
      <acc value="0.0465123608" flag="0"/>
      <vel value="0.0200804302" flag="0"/>
      <psa03 value="0.1466105314" flag="0"/>
      <psa10 value="0.0144887256" flag="0"/>
      <psa30 value="0.0008186954" flag="0"/>
    </comp>
  </station>
  <station code="FNVD" name="FNVD" netid="IV" insttype="" lat="44.1678" lon="11.1229">
    <comp name="--.HHE">
      <acc value="0.0058139017" flag="0"/>
      <vel value="0.0040286901" flag="0"/>
      <psa03 value="0.0130722924" flag="0"/>
      <psa10 value="0.0107934565" flag="0"/>
      <psa30 value="0.0005633701" flag="0"/>
    </comp>
    <comp name="--.HHN">
      <acc value="0.0090166769" flag="0"/>
      <vel value="0.0050969356" flag="0"/>
      <psa03 value="0.0284699833" flag="0"/>
      <psa10 value="0.0090141510" flag="0"/>
      <psa30 value="0.0006225540" flag="0"/>
    </comp>
    <comp name="--.HHZ">
      <acc value="0.0049764203" flag="0"/>
      <vel value="0.0025729470" flag="0"/>
      <psa03 value="0.0135899273" flag="0"/>
      <psa10 value="0.0040353448" flag="0"/>
      <psa30 value="0.0002594100" flag="0"/>
    </comp>
  </station>
  <station code="GAG1" name="GAG1" netid="IV" insttype="" lat="43.2381" lon="13.0674">
    <comp name="--.HNE">
      <acc value="0.0412627308" flag="0"/>
      <vel value="0.0241111347" flag="0"/>
      <psa03 value="0.0910357591" flag="0"/>
      <psa10 value="0.0267580357" flag="0"/>
      <psa30 value="0.0014391118" flag="0"/>
    </comp>
    <comp name="--.HNN">
      <acc value="0.0336565476" flag="0"/>
      <vel value="0.0215410985" flag="0"/>
      <psa03 value="0.0771818821" flag="0"/>
      <psa10 value="0.0243250606" flag="0"/>
      <psa30 value="0.0013513980" flag="0"/>
    </comp>
    <comp name="--.HNZ">
      <acc value="0.0283698826" flag="0"/>
      <vel value="0.0156673631" flag="0"/>
      <psa03 value="0.0972017913" flag="0"/>
      <psa10 value="0.0104875796" flag="0"/>
      <psa30 value="0.0012653334" flag="0"/>
    </comp>
  </station>
  <station code="LMD" name="LMD" netid="IV" insttype="" lat="44.0775" lon="11.7073">
    <comp name="--.HHN">
      <acc value="0.0732648330" flag="0"/>
      <vel value="0.0161075317" flag="0"/>
      <psa03 value="0.1044813126" flag="0"/>
      <psa10 value="0.0164543366" flag="0"/>
      <psa30 value="0.0014667596" flag="0"/>
    </comp>
    <comp name="--.HHZ">
      <acc value="0.0338751020" flag="0"/>
      <vel value="0.0104241880" flag="0"/>
      <psa03 value="0.0462796690" flag="0"/>
      <psa10 value="0.0071688744" flag="0"/>
      <psa30 value="0.0006429533" flag="0"/>
    </comp>
    <comp name="--.HHE">
      <acc value="0.0867023918" flag="0"/>
      <vel value="0.0222439167" flag="0"/>
      <psa03 value="0.1101958424" flag="0"/>
      <psa10 value="0.0077718466" flag="0"/>
      <psa30 value="0.0010616766" flag="0"/>
    </comp>
  </station>
  <station code="MTRZ" name="MTRZ" netid="IV" insttype="" lat="44.3128" lon="11.4248">
    <comp name="--.HHN">
      <acc value="0.0115548684" flag="0"/>
      <vel value="0.0108496034" flag="0"/>
      <psa03 value="0.0285371872" flag="0"/>
      <psa10 value="0.0111749750" flag="0"/>
      <psa30 value="0.0012822334" flag="0"/>
    </comp>
    <comp name="--.HHE">
      <acc value="0.0093979805" flag="0"/>
      <vel value="0.0071306606" flag="0"/>
      <psa03 value="0.0289533484" flag="0"/>
      <psa10 value="0.0097905310" flag="0"/>
      <psa30 value="0.0007461861" flag="0"/>
    </comp>
    <comp name="--.HHZ">
      <acc value="0.0058546135" flag="0"/>
      <vel value="0.0038657607" flag="0"/>
      <psa03 value="0.0142129631" flag="0"/>
      <psa10 value="0.0051766811" flag="0"/>
      <psa30 value="0.0009838189" flag="0"/>
    </comp>
  </station>
  <station code="MURB" name="MURB" netid="IV" insttype="" lat="43.263" lon="12.5246">
    <comp name="--.HHN">
      <acc value="0.0524402838" flag="0"/>
      <vel value="0.0252863947" flag="0"/>
      <psa03 value="0.2389443846" flag="0"/>
      <psa10 value="0.0118034469" flag="0"/>
      <psa30 value="0.0014174158" flag="0"/>
    </comp>
    <comp name="--.HHE">
      <acc value="0.0816110271" flag="0"/>
      <vel value="0.0448142790" flag="0"/>
      <psa03 value="0.4282905333" flag="0"/>
      <psa10 value="0.0248242987" flag="0"/>
      <psa30 value="0.0022959388" flag="0"/>
    </comp>
    <comp name="--.HHZ">
      <acc value="0.0145721815" flag="0"/>
      <vel value="0.0077701089" flag="0"/>
      <psa03 value="0.0468506985" flag="0"/>
      <psa10 value="0.0099183047" flag="0"/>
      <psa30 value="0.0007600988" flag="0"/>
    </comp>
  </station>
  <station code="PCRO" name="PCRO" netid="IV" insttype="" lat="43.6077" lon="13.5323">
    <comp name="--.HNE">
      <acc value="0.0495376529" flag="0"/>
      <vel value="0.0216624681" flag="0"/>
      <psa03 value="0.1825260355" flag="0"/>
      <psa10 value="0.0171728025" flag="0"/>
      <psa30 value="0.0017463084" flag="0"/>
    </comp>
    <comp name="--.HNZ">
      <acc value="0.0265089186" flag="0"/>
      <vel value="0.0143867419" flag="0"/>
      <psa03 value="0.0982876067" flag="0"/>
      <psa10 value="0.0085823125" flag="0"/>
      <psa30 value="0.0008416489" flag="0"/>
    </comp>
    <comp name="--.HNN">
      <acc value="0.0381783255" flag="0"/>
      <vel value="0.0174941806" flag="0"/>
      <psa03 value="0.0949367704" flag="0"/>
      <psa10 value="0.0115670819" flag="0"/>
      <psa30 value="0.0022047832" flag="0"/>
    </comp>
  </station>
  <station code="PESA" name="PESA" netid="IV" insttype="" lat="43.941" lon="12.8402">
    <comp name="--.HHE">
      <acc value="0.4238785686" flag="0"/>
      <vel value="0.0852271567" flag="0"/>
      <psa03 value="0.2432221420" flag="0"/>
      <psa10 value="0.0298311622" flag="0"/>
      <psa30 value="0.0020924137" flag="0"/>
    </comp>
    <comp name="--.HHN">
      <acc value="0.5281756309" flag="0"/>
      <vel value="0.0814044836" flag="0"/>
      <psa03 value="0.3059985602" flag="0"/>
      <psa10 value="0.0344766147" flag="0"/>
      <psa30 value="0.0020920910" flag="0"/>
    </comp>
    <comp name="--.HHZ">
      <acc value="0.1550399799" flag="0"/>
      <vel value="0.0301967803" flag="0"/>
      <psa03 value="0.1632625734" flag="0"/>
      <psa10 value="0.0114253877" flag="0"/>
      <psa30 value="0.0008332409" flag="0"/>
    </comp>
  </station>
  <station code="RSM2" name="RSM2" netid="IV" insttype="" lat="43.9377" lon="12.4451">
    <comp name="--.HHE">
      <acc value="0.0382820709" flag="0"/>
      <vel value="0.0223869117" flag="0"/>
      <psa03 value="0.0685551695" flag="0"/>
      <psa10 value="0.0578640700" flag="0"/>
      <psa30 value="0.0043533436" flag="0"/>
    </comp>
    <comp name="--.HHN">
      <acc value="0.0400102228" flag="0"/>
      <vel value="0.0141062345" flag="0"/>
      <psa03 value="0.0805474429" flag="0"/>
      <psa10 value="0.0306838409" flag="0"/>
      <psa30 value="0.0018618254" flag="0"/>
    </comp>
    <comp name="--.HHZ">
      <acc value="0.0556885745" flag="0"/>
      <vel value="0.0206881006" flag="0"/>
      <psa03 value="0.0987609991" flag="0"/>
      <psa10 value="0.0475829569" flag="0"/>
      <psa30 value="0.0028651362" flag="0"/>
    </comp>
  </station>
  <station code="SEI" name="SEI" netid="IV" insttype="" lat="44.0543" lon="11.3585">
    <comp name="--.HHE">
      <acc value="0.0227084755" flag="0"/>
      <vel value="0.0111143261" flag="0"/>
      <psa03 value="0.0614696919" flag="0"/>
      <psa10 value="0.0065001537" flag="0"/>
      <psa30 value="0.0005101096" flag="0"/>
    </comp>
    <comp name="--.HHN">
      <acc value="0.0348989971" flag="0"/>
      <vel value="0.0215241637" flag="0"/>
      <psa03 value="0.1152967796" flag="0"/>
      <psa10 value="0.0117401251" flag="0"/>
      <psa30 value="0.0008782089" flag="0"/>
    </comp>
    <comp name="--.HHZ">
      <acc value="0.0200131926" flag="0"/>
      <vel value="0.0097945792" flag="0"/>
      <psa03 value="0.1219979877" flag="0"/>
      <psa10 value="0.0051266327" flag="0"/>
      <psa30 value="0.0003541744" flag="0"/>
    </comp>
  </station>
  <station code="SFI" name="SFI" netid="IV" insttype="" lat="43.9048" lon="11.8469">
    <comp name="--.HNE">
      <acc value="0.1193589085" flag="0"/>
      <vel value="0.0270239415" flag="0"/>
      <psa03 value="0.1297487826" flag="0"/>
