<stationlist created="1674774020">
	<station code="0REN" name="0REN" netid="IT" source="Italian Strong Motion Network (RAN)" insttype="" lat="43.5461997986" lon="12.263999939">
		<comp name="00.HNE" depth="0.0">
			<acc value="0.0299903856233" flag="0"/>
			<vel value="0.00554726763705" flag="0"/>
			<psa03 value="0.0374045273455" flag="0"/>
			<psa10 value="0.00403233837265" flag="0"/>
			<psa30 value="0.000326951841246" flag="0"/>
		</comp>
		<comp name="00.HNN" depth="0.0">
			<acc value="0.0285481315034" flag="0"/>
			<vel value="0.00707968589635" flag="0"/>
			<psa03 value="0.0374768185928" flag="0"/>
			<psa10 value="0.00565269696342" flag="0"/>
			<psa30 value="0.000424985080259" flag="0"/>
		</comp>
		<comp name="00.HNZ" depth="0.0">
			<acc value="0.0339824146072" flag="0"/>
			<vel value="0.00591392066616" flag="0"/>
			<psa03 value="0.0257464060939" flag="0"/>
			<psa10 value="0.00439812963574" flag="0"/>
			<psa30 value="0.000483573128095" flag="0"/>
		</comp>
	</station>
	<station code="ARO" name="ARO" netid="IT" source="Italian Strong Motion Network (RAN)" insttype="" lat="43.466301" lon="11.882868">
		<comp name="00.HNE" depth="0.0">
			<acc value="0.0169048441509" flag="0"/>
			<vel value="0.00827392523444" flag="0"/>
			<psa03 value="0.0385156348051" flag="0"/>
			<psa10 value="0.00917762766028" flag="0"/>
			<psa30 value="0.000746897134518" flag="0"/>
		</comp>
		<comp name="00.HNN" depth="0.0">
			<acc value="0.0133256512033" flag="0"/>
			<vel value="0.00889042029481" flag="0"/>
			<psa03 value="0.0468737770327" flag="0"/>
			<psa10 value="0.0109721562265" flag="0"/>
			<psa30 value="0.000553330353337" flag="0"/>
		</comp>
		<comp name="00.HNZ" depth="0.0">
			<acc value="0.00975593910444" flag="0"/>
			<vel value="0.00545946482217" flag="0"/>
			<psa03 value="0.0210303228432" flag="0"/>
			<psa10 value="0.00536069840119" flag="0"/>
			<psa30 value="0.000362143625654" flag="0"/>
		</comp>
	</station>
	<station code="BBN" name="BBN" netid="IT" source="Italian Strong Motion Network (RAN)" insttype="" lat="43.747646" lon="11.821428">
		<comp name="00.HNE" depth="0.0">
			<acc value="0.013801055793" flag="0"/>
			<vel value="0.00770439833726" flag="0"/>
			<psa03 value="0.0390319554672" flag="0"/>
			<psa10 value="0.0095205813168" flag="0"/>
			<psa30 value="0.00106447947488" flag="0"/>
		</comp>
		<comp name="00.HNN" depth="0.0">
			<acc value="0.0179945205796" flag="0"/>
			<vel value="0.00888615084033" flag="0"/>
			<psa03 value="0.0391986357797" flag="0"/>
			<psa10 value="0.0123951954959" flag="0"/>
			<psa30 value="0.00107578209862" flag="0"/>
		</comp>
		<comp name="00.HNZ" depth="0.0">
			<acc value="0.0176556459299" flag="0"/>
			<vel value="0.00826537564938" flag="0"/>
			<psa03 value="0.0688868446654" flag="0"/>
			<psa10 value="0.0108872102867" flag="0"/>
			<psa30 value="0.00077883513567" flag="0"/>
		</comp>
	</station>
	<station code="BDT" name="BDT" netid="IT" source="Italian Strong Motion Network (RAN)" insttype="" lat="43.706772" lon="12.188036">
		<comp name="00.HNE" depth="0.0">
			<acc value="0.0613797132637" flag="0"/>
			<vel value="0.0225779605737" flag="0"/>
			<psa03 value="0.168392571848" flag="0"/>
			<psa10 value="0.0262848087396" flag="0"/>
			<psa30 value="0.00138197394483" flag="0"/>
		</comp>
		<comp name="00.HNN" depth="0.0">
			<acc value="0.0634631501607" flag="0"/>
			<vel value="0.028092337103" flag="0"/>
			<psa03 value="0.173194317023" flag="0"/>
			<psa10 value="0.0225944911492" flag="0"/>
			<psa30 value="0.00122042855573" flag="0"/>
		</comp>
		<comp name="00.HNZ" depth="0.0">
			<acc value="0.0261909937067" flag="0"/>
			<vel value="0.0123929605655" flag="0"/>
			<psa03 value="0.0948119995797" flag="0"/>
			<psa10 value="0.0178043907035" flag="0"/>
			<psa30 value="0.0010479896325" flag="0"/>
		</comp>
	</station>
	<station code="BGR" name="BGR" netid="IT" source="Italian Strong Motion Network (RAN)" insttype="" lat="43.889511" lon="11.991291">
		<comp name="00.HGE" depth="0.0">
			<acc value="0.151657920935" flag="0"/>
			<vel value="0.0586464668984" flag="0"/>
			<psa03 value="0.342968074118" flag="0"/>
			<psa10 value="0.0402081573431" flag="0"/>
			<psa30 value="0.00164317999844" flag="0"/>
		</comp>
		<comp name="00.HGN" depth="0.0">
			<acc value="0.0930867715219" flag="0"/>
			<vel value="0.0450374873" flag="0"/>
			<psa03 value="0.311704273878" flag="0"/>
			<psa10 value="0.0286148830956" flag="0"/>
			<psa30 value="0.00280141912194" flag="0"/>
		</comp>
		<comp name="00.HGZ" depth="0.0">
			<acc value="0.0422511435159" flag="0"/>
			<vel value="0.0237623906968" flag="0"/>
			<psa03 value="0.0997625046095" flag="0"/>
			<psa10 value="0.0246544426108" flag="0"/>
			<psa30 value="0.00185786099084" flag="0"/>
		</comp>
	</station>
	<station code="BRH" name="BRH" netid="IT" source="Italian Strong Motion Network (RAN)" insttype="" lat="44.20761" lon="11.763964">
		<comp name="00.HGE" depth="0.0">
			<acc value="0.0808822185075" flag="0"/>
			<vel value="0.0228589416945" flag="0"/>
			<psa03 value="0.0941411634734" flag="0"/>
			<psa10 value="0.0184863115024" flag="0"/>
			<psa30 value="0.00160328527228" flag="0"/>
		</comp>
		<comp name="00.HGN" depth="0.0">
			<acc value="0.0803852238743" flag="0"/>
			<vel value="0.0226778891496" flag="0"/>
			<psa03 value="0.0924430613991" flag="0"/>
			<psa10 value="0.0128405750001" flag="0"/>
			<psa30 value="0.00140743990265" flag="0"/>
		</comp>
		<comp name="00.HGZ" depth="0.0">
			<acc value="0.0340091944688" flag="0"/>
			<vel value="0.0101045764521" flag="0"/>
			<psa03 value="0.0502470838312" flag="0"/>
			<psa10 value="0.0127432626161" flag="0"/>
			<psa30 value="0.000744622035888" flag="0"/>
		</comp>
	</station>
	<station code="BSZ" name="BSZ" netid="IT" source="Italian Strong Motion Network (RAN)" insttype="" lat="44.031513" lon="11.467336">
		<comp name="00.HNE" depth="0.0">
			<acc value="0.0138652111392" flag="0"/>
			<vel value="0.00548650618262" flag="0"/>
			<psa03 value="0.0329161050096" flag="0"/>
			<psa10 value="0.00362776274335" flag="0"/>
			<psa30 value="0.000338449634169" flag="0"/>
		</comp>
		<comp name="00.HNN" depth="0.0">
			<acc value="0.0201669741429" flag="0"/>
			<vel value="0.00488339878095" flag="0"/>
			<psa03 value="0.0207659811131" flag="0"/>
			<psa10 value="0.00698515179454" flag="0"/>
			<psa30 value="0.000651388047094" flag="0"/>
		</comp>
		<comp name="00.HNZ" depth="0.0">
			<acc value="0.0133349148019" flag="0"/>
			<vel value="0.0050490235569" flag="0"/>
			<psa03 value="0.0344088913994" flag="0"/>
			<psa10 value="0.00555344992004" flag="0"/>
			<psa30 value="0.000275563202626" flag="0"/>
		</comp>
	</station>
	<station code="CDCT" name="CDCT" netid="IT" source="Italian Strong Motion Network (RAN)" insttype="" lat="43.366001" lon="12.2363">
		<comp name="00.HNE" depth="0.0">
			<acc value="0.0295542892555" flag="0"/>
			<vel value="0.0171222565196" flag="0"/>
			<psa03 value="0.0641885803032" flag="0"/>
			<psa10 value="0.0238299898699" flag="0"/>
			<psa30 value="0.00203508731455" flag="0"/>
		</comp>
		<comp name="00.HNN" depth="0.0">
			<acc value="0.0281664610531" flag="0"/>
			<vel value="0.0213462868199" flag="0"/>
			<psa03 value="0.0941224955702" flag="0"/>
			<psa10 value="0.0521361637651" flag="0"/>
			<psa30 value="0.00172270745425" flag="0"/>
		</comp>
		<comp name="00.HNZ" depth="0.0">
			<acc value="0.0176503776343" flag="0"/>
			<vel value="0.0104139515172" flag="0"/>
			<psa03 value="0.0291595957426" flag="0"/>
			<psa10 value="0.019809226639" flag="0"/>
			<psa30 value="0.000964884022999" flag="0"/>
		</comp>
	</station>
	<station code="CES" name="CES" netid="IT" source="Italian Strong Motion Network (RAN)" insttype="" lat="44.210281" lon="12.38678">
		<comp name="00.HNE" depth="0.0">
			<acc value="3.50419050264" flag="0"/>
			<vel value="0.732463681605" flag="0"/>
			<psa03 value="2.16004925933" flag="0"/>
			<psa10 value="0.453035741393" flag="0"/>
			<psa30 value="0.0413809179494" flag="0"/>
		</comp>
		<comp name="00.HNN" depth="0.0">
			<acc value="3.59806992321" flag="0"/>
			<vel value="1.55944904137" flag="0"/>
			<psa03 value="3.71364501076" flag="0"/>
			<psa10 value="0.955850000371" flag="0"/>
			<psa30 value="0.0690186521471" flag="0"/>
		</comp>
		<comp name="00.HNZ" depth="0.0">
			<acc value="2.10283647436" flag="0"/>
			<vel value="0.38983685476" flag="0"/>
			<psa03 value="0.844126085876" flag="0"/>
			<psa10 value="0.0718021590406" flag="0"/>
			<psa30 value="0.00934295559163" flag="0"/>
		</comp>
	</station>
	<station code="CNTN" name="CNTN" netid="IT" source="Italian Strong Motion Network (RAN)" insttype="" lat="43.4729" lon="12.6303">
		<comp name="00.HNE" depth="0.0">
			<acc value="0.0778629931861" flag="0"/>
			<vel value="0.0309194552539" flag="0"/>
			<psa03 value="0.183874597456" flag="0"/>
			<psa10 value="0.0111316383539" flag="0"/>
			<psa30 value="0.00115097937174" flag="0"/>
		</comp>
		<comp name="00.HNN" depth="0.0">
			<acc value="0.0641323403797" flag="0"/>
			<vel value="0.0215357804572" flag="0"/>
			<psa03 value="0.105069272824" flag="0"/>
			<psa10 value="0.0075054481366" flag="0"/>
			<psa30 value="0.000541946995081" flag="0"/>
		</comp>
		<comp name="00.HNZ" depth="0.0">
			<acc value="0.0476577174425" flag="0"/>
			<vel value="0.0117862785804" flag="0"/>
			<psa03 value="0.0690183742121" flag="0"/>
			<psa10 value="0.0072850094711" flag="0"/>
			<psa30 value="0.000417405541694" flag="0"/>
		</comp>
	</station>
	<station code="CPC" name="CPC" netid="IT" source="Italian Strong Motion Network (RAN)" insttype="" lat="44.921448" lon="11.875613">
		<comp name="00.HGE" depth="0.0">
			<acc value="0.0489098802807" flag="0"/>
			<vel value="0.0326481295887" flag="0"/>
			<psa03 value="0.0820443829544" flag="0"/>
			<psa10 value="0.0511996367245" flag="0"/>
			<psa30 value="0.00309467146513" flag="0"/>
		</comp>
		<comp name="00.HGN" depth="0.0">
			<acc value="0.0596441894684" flag="0"/>
			<vel value="0.0508267439886" flag="0"/>
			<psa03 value="0.0862405359291" flag="0"/>
			<psa10 value="0.0510981700031" flag="0"/>
			<psa30 value="0.00346113469985" flag="0"/>
		</comp>
		<comp name="00.HGZ" depth="0.0">
			<acc value="0.0268363531087" flag="0"/>
			<vel value="0.00781812286527" flag="0"/>
			<psa03 value="0.0345063067068" flag="0"/>
			<psa10 value="0.00737282950752" flag="0"/>
			<psa30 value="0.000901762028976" flag="0"/>
		</comp>
	</station>
	<station code="CSN" name="CSN" netid="IT" source="Italian Strong Motion Network (RAN)" insttype="" lat="44.137005" lon="12.241408">
		<comp name="00.HNE" depth="0.0">
			<acc value="2.25906717308" flag="0"/>
			<vel value="0.571593523687" flag="0"/>
			<psa03 value="1.84904732364" flag="0"/>
			<psa10 value="0.188533764436" flag="0"/>
			<psa30 value="0.0128971418724" flag="0"/>
		</comp>
		<comp name="00.HNN" depth="0.0">
			<acc value="2.03506625308" flag="0"/>
			<vel value="0.626907125048" flag="0"/>
			<psa03 value="2.31605009362" flag="0"/>
			<psa10 value="0.190371296164" flag="0"/>
			<psa30 value="0.0230343675805" flag="0"/>
		</comp>
		<comp name="00.HNZ" depth="0.0">
			<acc value="1.59845685244" flag="0"/>
			<vel value="0.182202923094" flag="0"/>
			<psa03 value="0.695259515862" flag="0"/>
			<psa10 value="0.0541283782394" flag="0"/>
			<psa30 value="0.00452342840491" flag="0"/>
		</comp>
	</station>
	<station code="CSP" name="CSP" netid="IT" source="Italian Strong Motion Network (RAN)" insttype="" lat="44.378487" lon="11.580113">
		<comp name="00.HGE" depth="0.0">
			<acc value="0.0558894528407" flag="0"/>
			<vel value="0.0143390304688" flag="0"/>
			<psa03 value="0.0326287838926" flag="0"/>
			<psa10 value="0.0309699791091" flag="0"/>
			<psa30 value="0.001904850562" flag="0"/>
		</comp>
		<comp name="00.HGN" depth="0.0">
			<acc value="0.0573886649036" flag="0"/>
			<vel value="0.0142924255359" flag="0"/>
			<psa03 value="0.0334649200117" flag="0"/>
			<psa10 value="0.0254019290031" flag="0"/>
			<psa30 value="0.00235422345575" flag="0"/>
		</comp>
		<comp name="00.HGZ" depth="0.0">
			<acc value="0.041384359843" flag="0"/>
			<vel value="0.00846620000117" flag="0"/>
			<psa03 value="0.0173005887874" flag="0"/>
			<psa10 value="0.011599379652" flag="0"/>
			<psa30 value="0.000904040304898" flag="0"/>
		</comp>
	</station>
	<station code="CTL" name="CTL" netid="IT" source="Italian Strong Motion Network (RAN)" insttype="" lat="43.955116" lon="12.735809">
		<comp name="00.HNE" depth="0.0">
			<acc value="0.37110605896" flag="0"/>
			<vel value="0.131343702352" flag="0"/>
			<psa03 value="0.999032681011" flag="0"/>
			<psa10 value="0.108625008374" flag="0"/>
			<psa30 value="0.0050020334435" flag="0"/>
		</comp>
		<comp name="00.HNN" depth="0.0">
			<acc value="0.565916065654" flag="0"/>
			<vel value="0.143768276813" flag="0"/>
			<psa03 value="1.01895600083" flag="0"/>
			<psa10 value="0.0963281687685" flag="0"/>
			<psa30 value="0.00567294538813" flag="0"/>
		</comp>
		<comp name="00.HNZ" depth="0.0">
			<acc value="0.126899219935" flag="0"/>
			<vel value="0.043167288202" flag="0"/>
			<psa03 value="0.216678916415" flag="0"/>
			<psa10 value="0.0259976878442" flag="0"/>
			<psa30 value="0.00153392640676" flag="0"/>
		</comp>
	</station>
	<station code="CTS" name="CTS" netid="IT" source="Italian Strong Motion Network (RAN)" insttype="" lat="43.491987" lon="12.223396">
		<comp name="00.HGE" depth="0.0">
			<acc value="0.03619732968" flag="0"/>
			<vel value="0.0222192564384" flag="0"/>
			<psa03 value="0.0834207918431" flag="0"/>
			<psa10 value="0.0218641527678" flag="0"/>
			<psa30 value="0.00156792751333" flag="0"/>
		</comp>
		<comp name="00.HGN" depth="0.0">
			<acc value="0.0421482572901" flag="0"/>
			<vel value="0.0280258468858" flag="0"/>
			<psa03 value="0.148636742288" flag="0"/>
			<psa10 value="0.0177103213469" flag="0"/>
			<psa30 value="0.00272476258548" flag="0"/>
		</comp>
		<comp name="00.HGZ" depth="0.0">
			<acc value="0.0351684563488" flag="0"/>
			<vel value="0.0109399153661" flag="0"/>
			<psa03 value="0.0583804924213" flag="0"/>
			<psa10 value="0.0131887555653" flag="0"/>
			<psa30 value="0.000976074243462" flag="0"/>
		</comp>
	</station>
	<station code="CVT" name="CVT" netid="IT" source="Italian Strong Motion Network (RAN)" insttype="" lat="44.006148" lon="11.936826">
		<comp name="00.HGE" depth="0.0">
			<acc value="0.472892499102" flag="0"/>
			<vel value="0.122028760658" flag="0"/>
			<psa03 value="0.415962180453" flag="0"/>
			<psa10 value="0.0304006613946" flag="0"/>
			<psa30 value="0.00257608544469" flag="0"/>
		</comp>
		<comp name="00.HGN" depth="0.0">
			<acc value="0.517343659249" flag="0"/>
			<vel value="0.121833430909" flag="0"/>
			<psa03 value="0.420699744293" flag="0"/>
			<psa10 value="0.0591855019992" flag="0"/>
			<psa30 value="0.00434453322067" flag="0"/>
		</comp>
		<comp name="00.HGZ" depth="0.0">
			<acc value="0.244310125065" flag="0"/>
			<vel value="0.0513902198556" flag="0"/>
			<psa03 value="0.164526763674" flag="0"/>
			<psa10 value="0.0225750423608" flag="0"/>
			<psa30 value="0.00104796827692" flag="0"/>
		</comp>
	</station>
	<station code="DCM" name="DCM" netid="IT" source="Italian Strong Motion Network (RAN)" insttype="" lat="43.891235" lon="11.518011">
		<comp name="00.HNE" depth="0.0">
			<acc value="0.0342088040396" flag="0"/>
			<vel value="0.0109382440121" flag="0"/>
			<psa03 value="0.06244822543" flag="0"/>
			<psa10 value="0.00950531218027" flag="0"/>
			<psa30 value="0.000529547840364" flag="0"/>
		</comp>
		<comp name="00.HNN" depth="0.0">
			<acc value="0.0442944680791" flag="0"/>
			<vel value="0.0136579239808" flag="0"/>
			<psa03 value="0.0593337222344" flag="0"/>
			<psa10 value="0.0150956012595" flag="0"/>
			<psa30 value="0.000921729497555" flag="0"/>
		</comp>
		<comp name="00.HNZ" depth="0.0">
			<acc value="0.0221602545014" flag="0"/>
			<vel value="0.00821922983542" flag="0"/>
			<psa03 value="0.0486852095311" flag="0"/>
			<psa10 value="0.006994522259" flag="0"/>
			<psa30 value="0.000524232227814" flag="0"/>
		</comp>
	</station>
	<station code="FAZ" name="FAZ" netid="IT" source="Italian Strong Motion Network (RAN)" insttype="" lat="44.298016" lon="11.890746">
		<comp name="00.HNE" depth="0.0">
			<acc value="0.0757766859488" flag="0"/>
			<vel value="0.029508595959" flag="0"/>
			<psa03 value="0.101441949198" flag="0"/>
			<psa10 value="0.0391615342594" flag="0"/>
			<psa30 value="0.0049173474168" flag="0"/>
		</comp>
		<comp name="00.HNN" depth="0.0">
			<acc value="0.0500860419835" flag="0"/>
			<vel value="0.0242067572616" flag="0"/>
			<psa03 value="0.0881871544661" flag="0"/>
			<psa10 value="0.0286370414384" flag="0"/>
			<psa30 value="0.0047654890236" flag="0"/>
		</comp>
		<comp name="00.HNZ" depth="0.0">
			<acc value="0.0464424096792" flag="0"/>
			<vel value="0.0125094464924" flag="0"/>
			<psa03 value="0.0551601697156" flag="0"/>
			<psa10 value="0.0136857544266" flag="0"/>
			<psa30 value="0.0016494619771" flag="0"/>
		</comp>
	</station>
	<station code="FOR" name="FOR" netid="IT" source="Italian Strong Motion Network (RAN)" insttype="" lat="44.199409" lon="12.041916">
		<comp name="00.HNE" depth="0.0">
			<acc value="0.283741087485" flag="0"/>
			<vel value="0.0823792408987" flag="0"/>
			<psa03 value="0.270320490739" flag="0"/>
			<psa10 value="0.0456163381086" flag="0"/>
			<psa30 value="0.00699534507393" flag="0"/>
		</comp>
		<comp name="00.HNN" depth="0.0">
			<acc value="0.207403669156" flag="0"/>
			<vel value="0.05772131341" flag="0"/>
			<psa03 value="0.170131968325" flag="0"/>
			<psa10 value="0.0396788060262" flag="0"/>
			<psa30 value="0.00360219279426" flag="0"/>
		</comp>
		<comp name="00.HNZ" depth="0.0">
			<acc value="0.34222150243" flag="0"/>
			<vel value="0.0714260894344" flag="0"/>
			<psa03 value="0.130856710281" flag="0"/>
			<psa10 value="0.0195095517871" flag="0"/>
			<psa30 value="0.00206235662101" flag="0"/>
		</comp>
	</station>
	<station code="FRE" name="FRE" netid="IT" source="Italian Strong Motion Network (RAN)" insttype="" lat="44.1214" lon="11.39785">
		<comp name="00.HNE" depth="0.0">
			<acc value="0.00698197734983" flag="0"/>
			<vel value="0.00280318948472" flag="0"/>
			<psa03 value="0.00920613785623" flag="0"/>
			<psa10 value="0.00181318511461" flag="0"/>
			<psa30 value="0.000292893022517" flag="0"/>
		</comp>
		<comp name="00.HNN" depth="0.0">
			<acc value="0.00879157377723" flag="0"/>
			<vel value="0.00220697499197" flag="0"/>
			<psa03 value="0.00985572190362" flag="0"/>
			<psa10 value="0.00339351331923" flag="0"/>
			<psa30 value="0.00048713362438" flag="0"/>
		</comp>
		<comp name="00.HNZ" depth="0.0">
			<acc value="0.00442359321948" flag="0"/>
			<vel value="0.0023371901024" flag="0"/>
			<psa03 value="0.0111141177662" flag="0"/>
			<psa10 value="0.00315242203561" flag="0"/>
			<psa30 value="0.000232395629445" flag="0"/>
		</comp>
	</station>
	<station code="FSS" name="FSS" netid="IT" source="Italian Strong Motion Network (RAN)" insttype="" lat="43.690477" lon="12.810074">
		<comp name="00.HGE" depth="0.0">
			<acc value="0.0714850383962" flag="0"/>
			<vel value="0.0183530713524" flag="0"/>
			<psa03 value="0.0604144657033" flag="0"/>
			<psa10 value="0.00847250219919" flag="0"/>
			<psa30 value="0.000508734847019" flag="0"/>
		</comp>
		<comp name="00.HGN" depth="0.0">
			<acc value="0.0642887673489" flag="0"/>
			<vel value="0.0119260237265" flag="0"/>
			<psa03 value="0.0761704730033" flag="0"/>
			<psa10 value="0.00905920044007" flag="0"/>
			<psa30 value="0.000603795988104" flag="0"/>
		</comp>
		<comp name="00.HGZ" depth="0.0">
			<acc value="0.0426700377746" flag="0"/>
			<vel value="0.00874295370035" flag="0"/>
			<psa03 value="0.0427339012237" flag="0"/>
			<psa10 value="0.00745838533142" flag="0"/>
			<psa30 value="0.000568393694961" flag="0"/>
		</comp>
	</station>
