<?xml version="1.0" encoding="UTF-8" standalone="yes"?>
<!DOCTYPE earthquake SYSTEM "stationlist.dtd">
<stationlist created="" xmlns="ch.ethz.sed.shakemap.usgs.xml">
  <station code="OEM4" name="OEM4" netid="3D" insttype="" lat="38.4095" lon="14.9422">
    <comp name="--.HHE">
      <acc value="0.0329703724" flag="0"/>
      <vel value="0.0134043713" flag="0"/>
      <psa03 value="0.1148772378" flag="0"/>
      <psa10 value="0.0072715004" flag="0"/>
      <psa30 value="0.0012206038" flag="0"/>
    </comp>
    <comp name="--.HHN">
      <acc value="0.0281214359" flag="0"/>
      <vel value="0.0099840666" flag="0"/>
      <psa03 value="0.0364812888" flag="0"/>
      <psa10 value="0.0081863654" flag="0"/>
      <psa30 value="0.0016981664" flag="0"/>
    </comp>
    <comp name="--.HHZ">
      <acc value="0.0197874033" flag="0"/>
      <vel value="0.0055569412" flag="0"/>
      <psa03 value="0.0227619722" flag="0"/>
      <psa10 value="0.0072929803" flag="0"/>
      <psa30 value="0.0007608284" flag="0"/>
    </comp>
  </station>
  <station code="OEM5" name="OEM5" netid="3D" insttype="" lat="38.4223" lon="14.9661">
    <comp name="--.HHE">
      <acc value="0.0051598596" flag="0"/>
      <vel value="0.0049721609" flag="0"/>
      <psa03 value="0.0171512879" flag="0"/>
      <psa10 value="0.0116119059" flag="0"/>
      <psa30 value="0.0015241447" flag="0"/>
    </comp>
    <comp name="--.HHN">
      <acc value="0.0060570907" flag="0"/>
      <vel value="0.0059673489" flag="0"/>
      <psa03 value="0.0171775734" flag="0"/>
      <psa10 value="0.0076556334" flag="0"/>
      <psa30 value="0.0012429893" flag="0"/>
    </comp>
    <comp name="--.HHZ">
      <acc value="0.0041574532" flag="0"/>
      <vel value="0.0028468509" flag="0"/>
      <psa03 value="0.0129334455" flag="0"/>
      <psa10 value="0.0050193929" flag="0"/>
      <psa30 value="0.0004651755" flag="0"/>
    </comp>
  </station>
  <station code="OEM7" name="OEM7" netid="3D" insttype="" lat="38.4825" lon="14.9707">
    <comp name="--.HHZ">
      <acc value="0.0091252494" flag="0"/>
      <vel value="0.0038060489" flag="0"/>
      <psa03 value="0.0374661413" flag="0"/>
      <psa10 value="0.0023462942" flag="0"/>
      <psa30 value="0.0003702926" flag="0"/>
    </comp>
    <comp name="--.HHE">
      <acc value="0.0113722606" flag="0"/>
      <vel value="0.0057654073" flag="0"/>
      <psa03 value="0.0376494754" flag="0"/>
      <psa10 value="0.0088121013" flag="0"/>
      <psa30 value="0.0008972814" flag="0"/>
    </comp>
    <comp name="--.HHN">
      <acc value="0.0147380425" flag="0"/>
      <vel value="0.0065141907" flag="0"/>
      <psa03 value="0.0323006244" flag="0"/>
      <psa10 value="0.0079636999" flag="0"/>
      <psa30 value="0.0015473353" flag="0"/>
    </comp>
  </station>
  <station code="OEM8" name="OEM8" netid="3D" insttype="" lat="38.4689" lon="14.9168">
    <comp name="--.HHZ">
      <acc value="0.0134864869" flag="0"/>
      <vel value="0.0038839460" flag="0"/>
      <psa03 value="0.0282142002" flag="0"/>
      <psa10 value="0.0017343434" flag="0"/>
      <psa30 value="0.0001515504" flag="0"/>
    </comp>
    <comp name="--.HHE">
      <acc value="0.0232182698" flag="0"/>
      <vel value="0.0086084878" flag="0"/>
      <psa03 value="0.0712033061" flag="0"/>
      <psa10 value="0.0038015535" flag="0"/>
      <psa30 value="0.0006643563" flag="0"/>
    </comp>
    <comp name="--.HHN">
      <acc value="0.0218273184" flag="0"/>
      <vel value="0.0088497015" flag="0"/>
      <psa03 value="0.0775919153" flag="0"/>
      <psa10 value="0.0052701010" flag="0"/>
      <psa30 value="0.0006290347" flag="0"/>
    </comp>
  </station>
  <station code="SPAOL" name="SPAOL" netid="7C" insttype="" lat="37.5495" lon="15.0715">
    <comp name="--.HH1">
      <acc value="0.0501941137" flag="0"/>
      <vel value="0.0429349758" flag="0"/>
      <psa03 value="0.0877961408" flag="0"/>
      <psa10 value="0.0995193750" flag="0"/>
      <psa30 value="0.0038868878" flag="0"/>
    </comp>
    <comp name="--.HHZ">
      <acc value="0.0316582068" flag="0"/>
      <vel value="0.0250666539" flag="0"/>
      <psa03 value="0.0524561671" flag="0"/>
      <psa10 value="0.0339686638" flag="0"/>
      <psa30 value="0.0027744148" flag="0"/>
    </comp>
    <comp name="--.HH2">
      <acc value="0.0480806494" flag="0"/>
      <vel value="0.0275843014" flag="0"/>
      <psa03 value="0.0620241876" flag="0"/>
      <psa10 value="0.0480263973" flag="0"/>
      <psa30 value="0.0052839937" flag="0"/>
    </comp>
  </station>
  <station code="ACATE" name="ACATE" netid="IV" insttype="" lat="37.024" lon="14.5006">
    <comp name="--.HNE">
      <acc value="0.0779864795" flag="0"/>
      <vel value="0.0230732004" flag="0"/>
      <psa03 value="0.1032229148" flag="0"/>
      <psa10 value="0.0230226217" flag="0"/>
      <psa30 value="0.0012558664" flag="0"/>
    </comp>
    <comp name="--.HNN">
      <acc value="0.0827638046" flag="0"/>
      <vel value="0.0175272344" flag="0"/>
      <psa03 value="0.1065536890" flag="0"/>
      <psa10 value="0.0173569466" flag="0"/>
      <psa30 value="0.0010268751" flag="0"/>
    </comp>
    <comp name="--.HNZ">
      <acc value="0.0922212583" flag="0"/>
      <vel value="0.0173082472" flag="0"/>
      <psa03 value="0.0556271619" flag="0"/>
      <psa10 value="0.0116358036" flag="0"/>
      <psa30 value="0.0008970127" flag="0"/>
    </comp>
  </station>
  <station code="AIO" name="AIO" netid="IV" insttype="" lat="37.9712" lon="15.233">
    <comp name="--.HHE">
      <acc value="0.0217550843" flag="0"/>
      <vel value="0.0127338022" flag="0"/>
      <psa03 value="0.1019861154" flag="0"/>
      <psa10 value="0.0130833835" flag="0"/>
      <psa30 value="0.0012086817" flag="0"/>
    </comp>
    <comp name="--.HHN">
      <acc value="0.0408809471" flag="0"/>
      <vel value="0.0190191904" flag="0"/>
      <psa03 value="0.1599705964" flag="0"/>
      <psa10 value="0.0083734981" flag="0"/>
      <psa30 value="0.0011665482" flag="0"/>
    </comp>
    <comp name="--.HHZ">
      <acc value="0.0108433563" flag="0"/>
      <vel value="0.0073176469" flag="0"/>
      <psa03 value="0.0408363774" flag="0"/>
      <psa10 value="0.0067442676" flag="0"/>
      <psa30 value="0.0013155949" flag="0"/>
    </comp>
  </station>
  <station code="ALJA" name="ALJA" netid="IV" insttype="" lat="37.749" lon="13.7537">
    <comp name="--.HHE">
      <acc value="0.0094440365" flag="0"/>
      <vel value="0.0077472935" flag="0"/>
      <psa03 value="0.0337381112" flag="0"/>
      <psa10 value="0.0088967208" flag="0"/>
      <psa30 value="0.0007174329" flag="0"/>
    </comp>
    <comp name="--.HHZ">
      <acc value="0.0057201937" flag="0"/>
      <vel value="0.0032528759" flag="0"/>
      <psa03 value="0.0200388632" flag="0"/>
      <psa10 value="0.0062590814" flag="0"/>
      <psa30 value="0.0004104125" flag="0"/>
    </comp>
    <comp name="--.HHN">
      <acc value="0.0109049640" flag="0"/>
      <vel value="0.0070236566" flag="0"/>
      <psa03 value="0.0271328414" flag="0"/>
      <psa10 value="0.0093032271" flag="0"/>
      <psa30 value="0.0005748601" flag="0"/>
    </comp>
  </station>
  <station code="CIMI" name="CIMI" netid="IV" insttype="" lat="37.8815" lon="13.5726">
    <comp name="--.HHZ">
      <acc value="0.0102399141" flag="0"/>
      <vel value="0.0041586581" flag="0"/>
      <psa03 value="0.0185969105" flag="0"/>
      <psa10 value="0.0036517309" flag="0"/>
      <psa30 value="0.0003289833" flag="0"/>
    </comp>
    <comp name="--.HHE">
      <acc value="0.0153771311" flag="0"/>
      <vel value="0.0127561849" flag="0"/>
      <psa03 value="0.0269729856" flag="0"/>
      <psa10 value="0.0233708281" flag="0"/>
      <psa30 value="0.0018420256" flag="0"/>
    </comp>
    <comp name="--.HHN">
      <acc value="0.0149902224" flag="0"/>
      <vel value="0.0124909425" flag="0"/>
      <psa03 value="0.0270357174" flag="0"/>
      <psa10 value="0.0124324025" flag="0"/>
      <psa30 value="0.0012972337" flag="0"/>
    </comp>
  </station>
  <station code="CLTA" name="CLTA" netid="IV" insttype="" lat="37.158" lon="13.962">
    <comp name="--.HHE">
      <acc value="0.0113482740" flag="0"/>
      <vel value="0.0045127064" flag="0"/>
      <psa03 value="0.0295914189" flag="0"/>
      <psa10 value="0.0042623057" flag="0"/>
      <psa30 value="0.0002953140" flag="0"/>
    </comp>
    <comp name="--.HHN">
      <acc value="0.0143051616" flag="0"/>
      <vel value="0.0058329110" flag="0"/>
      <psa03 value="0.0197522391" flag="0"/>
      <psa10 value="0.0024597284" flag="0"/>
      <psa30 value="0.0002884946" flag="0"/>
    </comp>
    <comp name="--.HHZ">
      <acc value="0.0105962745" flag="0"/>
      <vel value="0.0050311236" flag="0"/>
      <psa03 value="0.0182226477" flag="0"/>
      <psa10 value="0.0026495021" flag="0"/>
      <psa30 value="0.0001958240" flag="0"/>
    </comp>
  </station>
  <station code="CPTP" name="CPTP" netid="IV" insttype="" lat="37.4075" lon="14.1625">
    <comp name="--.HHZ">
      <acc value="0.0112561236" flag="0"/>
      <vel value="0.0044535850" flag="0"/>
      <psa03 value="0.0171924710" flag="0"/>
      <psa10 value="0.0061156119" flag="0"/>
      <psa30 value="0.0009630868" flag="0"/>
    </comp>
    <comp name="--.HHN">
      <acc value="0.0082235207" flag="0"/>
      <vel value="0.0063468923" flag="0"/>
      <psa03 value="0.0289944700" flag="0"/>
      <psa10 value="0.0088796464" flag="0"/>
      <psa30 value="0.0015188161" flag="0"/>
    </comp>
    <comp name="--.HHE">
      <acc value="0.0072505646" flag="0"/>
      <vel value="0.0066809256" flag="0"/>
      <psa03 value="0.0282503368" flag="0"/>
      <psa10 value="0.0084408997" flag="0"/>
      <psa30 value="0.0015070394" flag="0"/>
    </comp>
  </station>
  <station code="CROCE" name="CROCE" netid="IV" insttype="" lat="36.8326" lon="14.5345">
    <comp name="--.HHE">
      <acc value="0.0509513964" flag="0"/>
      <vel value="0.0168432342" flag="0"/>
      <psa03 value="0.1258981598" flag="0"/>
      <psa10 value="0.0063258792" flag="0"/>
      <psa30 value="0.0005753555" flag="0"/>
    </comp>
    <comp name="--.HHN">
      <acc value="0.0641100226" flag="0"/>
      <vel value="0.0167723551" flag="0"/>
      <psa03 value="0.0786724364" flag="0"/>
      <psa10 value="0.0073412584" flag="0"/>
      <psa30 value="0.0005334175" flag="0"/>
    </comp>
    <comp name="--.HHZ">
      <acc value="0.0380161036" flag="0"/>
      <vel value="0.0102404776" flag="0"/>
      <psa03 value="0.0559023080" flag="0"/>
      <psa10 value="0.0039030218" flag="0"/>
      <psa30 value="0.0003441711" flag="0"/>
    </comp>
  </station>
  <station code="CSLB" name="CSLB" netid="IV" insttype="" lat="37.9374" lon="14.0579">
    <comp name="--.HHE">
      <acc value="0.0062253028" flag="0"/>
      <vel value="0.0035644742" flag="0"/>
      <psa03 value="0.0152116122" flag="0"/>
      <psa10 value="0.0052088642" flag="0"/>
      <psa30 value="0.0004404894" flag="0"/>
    </comp>
    <comp name="--.HHN">
      <acc value="0.0051264274" flag="0"/>
      <vel value="0.0041427110" flag="0"/>
      <psa03 value="0.0179776567" flag="0"/>
      <psa10 value="0.0054941699" flag="0"/>
      <psa30 value="0.0005536341" flag="0"/>
    </comp>
    <comp name="--.HHZ">
      <acc value="0.0052758332" flag="0"/>
      <vel value="0.0026717796" flag="0"/>
      <psa03 value="0.0126685143" flag="0"/>
      <psa10 value="0.0059272407" flag="0"/>
      <psa30 value="0.0003989698" flag="0"/>
    </comp>
  </station>
  <station code="ECBD" name="ECBD" netid="IV" insttype="" lat="37.7802" lon="15.0865">
    <comp name="--.HHE">
      <acc value="0.1076989721" flag="0"/>
      <vel value="0.0388079333" flag="0"/>
      <psa03 value="0.1597115027" flag="0"/>
      <psa10 value="0.0564239158" flag="0"/>
      <psa30 value="0.0039125287" flag="0"/>
    </comp>
    <comp name="--.HHN">
      <acc value="0.0800858224" flag="0"/>
      <vel value="0.0505046220" flag="0"/>
      <psa03 value="0.1733221035" flag="0"/>
      <psa10 value="0.0625781556" flag="0"/>
      <psa30 value="0.0048423656" flag="0"/>
    </comp>
    <comp name="--.HHZ">
      <acc value="0.0354700387" flag="0"/>
      <vel value="0.0227514798" flag="0"/>
      <psa03 value="0.1083708306" flag="0"/>
      <psa10 value="0.0312547008" flag="0"/>
      <psa30 value="0.0024452970" flag="0"/>
    </comp>
  </station>
  <station code="ECHR" name="ECHR" netid="IV" insttype="" lat="37.6863" lon="14.9129">
    <comp name="--.HHE">
      <acc value="0.0871617588" flag="0"/>
      <vel value="0.0571137777" flag="0"/>
      <psa03 value="0.3287653043" flag="0"/>
      <psa10 value="0.0974997402" flag="0"/>
      <psa30 value="0.0049430676" flag="0"/>
    </comp>
    <comp name="--.HHN">
      <acc value="0.1109300501" flag="0"/>
      <vel value="0.0759266742" flag="0"/>
      <psa03 value="0.2817358370" flag="0"/>
      <psa10 value="0.0801798404" flag="0"/>
      <psa30 value="0.0037163714" flag="0"/>
    </comp>
    <comp name="--.HHZ">
      <acc value="0.0704140419" flag="0"/>
      <vel value="0.0328176254" flag="0"/>
      <psa03 value="0.1680300355" flag="0"/>
      <psa10 value="0.0350676520" flag="0"/>
      <psa30 value="0.0028256389" flag="0"/>
    </comp>
  </station>
  <station code="ECNE" name="ECNE" netid="IV" insttype="" lat="37.7653" lon="15.0018">
    <comp name="--.HHE">
      <acc value="0.1165930375" flag="0"/>
      <vel value="0.0602833652" flag="0"/>
      <psa03 value="0.2694770872" flag="0"/>
      <psa10 value="0.0837628445" flag="0"/>
      <psa30 value="0.0065766929" flag="0"/>
    </comp>
    <comp name="--.HHN">
      <acc value="0.1051560283" flag="0"/>
      <vel value="0.0547764301" flag="0"/>
      <psa03 value="0.2501115164" flag="0"/>
      <psa10 value="0.0898931643" flag="0"/>
      <psa30 value="0.0050437071" flag="0"/>
    </comp>
    <comp name="--.HHZ">
      <acc value="0.0909619288" flag="0"/>
      <vel value="0.0327993426" flag="0"/>
      <psa03 value="0.1587400682" flag="0"/>
      <psa10 value="0.0252812237" flag="0"/>
      <psa30 value="0.0019537166" flag="0"/>
    </comp>
  </station>
  <station code="ECTS" name="ECTS" netid="IV" insttype="" lat="37.882" lon="15.121">
    <comp name="--.HHE">
      <acc value="0.0406325209" flag="0"/>
      <vel value="0.0151188181" flag="0"/>
      <psa03 value="0.1204864298" flag="0"/>
      <psa10 value="0.0177606144" flag="0"/>
      <psa30 value="0.0012601309" flag="0"/>
    </comp>
    <comp name="--.HHZ">
      <acc value="0.0225232937" flag="0"/>
      <vel value="0.0154158625" flag="0"/>
      <psa03 value="0.0584308174" flag="0"/>
      <psa10 value="0.0171639355" flag="0"/>
      <psa30 value="0.0015491229" flag="0"/>
    </comp>
    <comp name="--.HHN">
      <acc value="0.0330944329" flag="0"/>
      <vel value="0.0181076688" flag="0"/>
      <psa03 value="0.0990727390" flag="0"/>
      <psa10 value="0.0266713157" flag="0"/>
      <psa30 value="0.0012887837" flag="0"/>
    </comp>
  </station>
  <station code="ECZM" name="ECZM" netid="IV" insttype="" lat="37.7313" lon="14.9041">
    <comp name="--.HHE">
      <acc value="0.1575916817" flag="0"/>
      <vel value="0.0694658856" flag="0"/>
      <psa03 value="0.4670843532" flag="0"/>
      <psa10 value="0.0577725640" flag="0"/>
      <psa30 value="0.0040500314" flag="0"/>
    </comp>
    <comp name="--.HHN">
      <acc value="0.1305618655" flag="0"/>
      <vel value="0.0827389190" flag="0"/>
      <psa03 value="0.5268068925" flag="0"/>
      <psa10 value="0.0911050220" flag="0"/>
      <psa30 value="0.0053496128" flag="0"/>
    </comp>
    <comp name="--.HHZ">
      <acc value="0.1119193176" flag="0"/>
      <vel value="0.0436878985" flag="0"/>
      <psa03 value="0.2384346205" flag="0"/>
      <psa10 value="0.0414654054" flag="0"/>
      <psa30 value="0.0026197776" flag="0"/>
    </comp>
  </station>
  <station code="EFIU" name="EFIU" netid="IV" insttype="" lat="37.7896" lon="15.2103">
    <comp name="--.HHE">
      <acc value="0.0278770678" flag="0"/>
      <vel value="0.0209313592" flag="0"/>
      <psa03 value="0.0792984816" flag="0"/>
      <psa10 value="0.0309337487" flag="0"/>
      <psa30 value="0.0047204951" flag="0"/>
    </comp>
    <comp name="--.HHN">
      <acc value="0.0179894114" flag="0"/>
      <vel value="0.0160990093" flag="0"/>
      <psa03 value="0.0499092028" flag="0"/>
      <psa10 value="0.0388319709" flag="0"/>
      <psa30 value="0.0040833947" flag="0"/>
    </comp>
    <comp name="--.HHZ">
      <acc value="0.0149561335" flag="0"/>
      <vel value="0.0143788875" flag="0"/>
      <psa03 value="0.0335676987" flag="0"/>
      <psa10 value="0.0400607323" flag="0"/>
      <psa30 value="0.0025463783" flag="0"/>
    </comp>
  </station>
  <station code="EMAS" name="EMAS" netid="IV" insttype="" lat="37.5792" lon="15.0526">
    <comp name="--.HHE">
      <acc value="0.1293860185" flag="0"/>
      <vel value="0.0982513671" flag="0"/>
      <psa03 value="0.2093009814" flag="0"/>
      <psa10 value="0.0964422340" flag="0"/>
      <psa30 value="0.0065354225" flag="0"/>
    </comp>
    <comp name="--.HHN">
      <acc value="0.1341063123" flag="0"/>
      <vel value="0.0431119790" flag="0"/>
      <psa03 value="0.2108919356" flag="0"/>
      <psa10 value="0.0471374198" flag="0"/>
      <psa30 value="0.0028078124" flag="0"/>
    </comp>
    <comp name="--.HHZ">
      <acc value="0.1359657193" flag="0"/>
      <vel value="0.0392548580" flag="0"/>
      <psa03 value="0.1764684178" flag="0"/>
      <psa10 value="0.0363797993" flag="0"/>
      <psa30 value="0.0022550898" flag="0"/>
    </comp>
  </station>
  <station code="EMCN" name="EMCN" netid="IV" insttype="" lat="37.7912" lon="15.0336">
    <comp name="--.HHE">
      <acc value="0.1093007513" flag="0"/>
      <vel value="0.0436929612" flag="0"/>
      <psa03 value="0.4211961226" flag="0"/>
      <psa10 value="0.0627041042" flag="0"/>
      <psa30 value="0.0064843166" flag="0"/>
    </comp>
    <comp name="--.HHN">
      <acc value="0.0993094865" flag="0"/>
      <vel value="0.0384455781" flag="0"/>
      <psa03 value="0.1996083567" flag="0"/>
      <psa10 value="0.0441394098" flag="0"/>
      <psa30 value="0.0040694766" flag="0"/>
    </comp>
    <comp name="--.HHZ">
      <acc value="0.0728775588" flag="0"/>
      <vel value="0.0356995190" flag="0"/>
      <psa03 value="0.1776068462" flag="0"/>
      <psa10 value="0.0316251867" flag="0"/>
      <psa30 value="0.0017074070" flag="0"/>
    </comp>
  </station>
  <station code="EMFO" name="EMFO" netid="IV" insttype="" lat="37.7357" lon="15.0902">
    <comp name="--.HHN">
      <acc value="0.0687346133" flag="0"/>
      <vel value="0.0281737009" flag="0"/>
      <psa03 value="0.1577763135" flag="0"/>
      <psa10 value="0.0259088874" flag="0"/>
      <psa30 value="0.0018426009" flag="0"/>
    </comp>
    <comp name="--.HHZ">
      <acc value="0.0414392800" flag="0"/>
      <vel value="0.0152568960" flag="0"/>
      <psa03 value="0.1109334687" flag="0"/>
      <psa10 value="0.0167230619" flag="0"/>
      <psa30 value="0.0015824439" flag="0"/>
    </comp>
    <comp name="--.HHE">
      <acc value="0.0778657412" flag="0"/>
      <vel value="0.0300108020" flag="0"/>
      <psa03 value="0.2399321913" flag="0"/>
      <psa10 value="0.0228010757" flag="0"/>
      <psa30 value="0.0017062155" flag="0"/>
    </comp>
  </station>
  <station code="EMFS" name="EMFS" netid="IV" insttype="" lat="37.7196" lon="14.9979">
    <comp name="--.HHZ">
      <acc value="0.1551592583" flag="0"/>
      <vel value="0.0398811156" flag="0"/>
      <psa03 value="0.2406102425" flag="0"/>
      <psa10 value="0.0363875363" flag="0"/>
      <psa30 value="0.0019154175" flag="0"/>
    </comp>
    <comp name="--.HHN">
      <acc value="0.1541968711" flag="0"/>
      <vel value="0.0692401389" flag="0"/>
      <psa03 value="0.3986824501" flag="0"/>
      <psa10 value="0.0675921777" flag="0"/>
      <psa30 value="0.0032645182" flag="0"/>
    </comp>
