<?xml version="1.0" encoding="UTF-8" standalone="yes"?>
<!DOCTYPE earthquake SYSTEM "stationlist.dtd">
<stationlist created="" xmlns="ch.ethz.sed.shakemap.usgs.xml">
  <station code="OEM4" name="OEM4" netid="3D" insttype="" lat="38.4095" lon="14.9422">
    <comp name="--.HHZ">
      <acc value="0.0197874034" flag="0"/>
      <vel value="0.0055569412" flag="0"/>
      <psa03 value="0.0227619722" flag="0"/>
      <psa10 value="0.0072929803" flag="0"/>
      <psa30 value="0.0007609205" flag="0"/>
    </comp>
    <comp name="--.HHN">
      <acc value="0.0281214365" flag="0"/>
      <vel value="0.0099840667" flag="0"/>
      <psa03 value="0.0364812888" flag="0"/>
      <psa10 value="0.0081863654" flag="0"/>
      <psa30 value="0.0016981864" flag="0"/>
    </comp>
    <comp name="--.HHE">
      <acc value="0.0329703724" flag="0"/>
      <vel value="0.0134043714" flag="0"/>
      <psa03 value="0.1148772378" flag="0"/>
      <psa10 value="0.0072715004" flag="0"/>
      <psa30 value="0.0012206038" flag="0"/>
    </comp>
  </station>
  <station code="OEM5" name="OEM5" netid="3D" insttype="" lat="38.4223" lon="14.9661">
    <comp name="--.HHE">
      <acc value="0.0051598596" flag="0"/>
      <vel value="0.0049721600" flag="0"/>
      <psa03 value="0.0171512879" flag="0"/>
      <psa10 value="0.0116119059" flag="0"/>
      <psa30 value="0.0015241459" flag="0"/>
    </comp>
    <comp name="--.HHN">
      <acc value="0.0060570908" flag="0"/>
      <vel value="0.0059673504" flag="0"/>
      <psa03 value="0.0171775734" flag="0"/>
      <psa10 value="0.0076556334" flag="0"/>
      <psa30 value="0.0012430164" flag="0"/>
    </comp>
    <comp name="--.HHZ">
      <acc value="0.0041574532" flag="0"/>
      <vel value="0.0028468478" flag="0"/>
      <psa03 value="0.0129334455" flag="0"/>
      <psa10 value="0.0050193931" flag="0"/>
      <psa30 value="0.0004651696" flag="0"/>
    </comp>
  </station>
  <station code="OEM7" name="OEM7" netid="3D" insttype="" lat="38.4825" lon="14.9707">
    <comp name="--.HHN">
      <acc value="0.0147380425" flag="0"/>
      <vel value="0.0065141913" flag="0"/>
      <psa03 value="0.0323006244" flag="0"/>
      <psa10 value="0.0079636999" flag="0"/>
      <psa30 value="0.0015473363" flag="0"/>
    </comp>
    <comp name="--.HHZ">
      <acc value="0.0091252494" flag="0"/>
      <vel value="0.0038060473" flag="0"/>
      <psa03 value="0.0374661413" flag="0"/>
      <psa10 value="0.0023462942" flag="0"/>
      <psa30 value="0.0003702887" flag="0"/>
    </comp>
    <comp name="--.HHE">
      <acc value="0.0113722607" flag="0"/>
      <vel value="0.0057653994" flag="0"/>
      <psa03 value="0.0376494754" flag="0"/>
      <psa10 value="0.0088121012" flag="0"/>
      <psa30 value="0.0008972768" flag="0"/>
    </comp>
  </station>
  <station code="OEM8" name="OEM8" netid="3D" insttype="" lat="38.4689" lon="14.9168">
    <comp name="--.HHE">
      <acc value="0.0232182697" flag="0"/>
      <vel value="0.0086084884" flag="0"/>
      <psa03 value="0.0712033061" flag="0"/>
      <psa10 value="0.0038015535" flag="0"/>
      <psa30 value="0.0006643573" flag="0"/>
    </comp>
    <comp name="--.HHN">
      <acc value="0.0218273184" flag="0"/>
      <vel value="0.0088497015" flag="0"/>
      <psa03 value="0.0775919153" flag="0"/>
      <psa10 value="0.0052701009" flag="0"/>
      <psa30 value="0.0006290348" flag="0"/>
    </comp>
    <comp name="--.HHZ">
      <acc value="0.0134864870" flag="0"/>
      <vel value="0.0038839459" flag="0"/>
      <psa03 value="0.0282142002" flag="0"/>
      <psa10 value="0.0017343434" flag="0"/>
      <psa30 value="0.0001515544" flag="0"/>
    </comp>
  </station>
  <station code="SPAOL" name="SPAOL" netid="7C" insttype="" lat="37.5495" lon="15.0715">
    <comp name="--.HH1">
      <acc value="0.0501941135" flag="0"/>
      <vel value="0.0429349750" flag="0"/>
      <psa03 value="0.0877961408" flag="0"/>
      <psa10 value="0.0995193751" flag="0"/>
      <psa30 value="0.0038867950" flag="0"/>
    </comp>
    <comp name="--.HHZ">
      <acc value="0.0316582068" flag="0"/>
      <vel value="0.0250666539" flag="0"/>
      <psa03 value="0.0524561671" flag="0"/>
      <psa10 value="0.0339686638" flag="0"/>
      <psa30 value="0.0027744036" flag="0"/>
    </comp>
    <comp name="--.HH2">
      <acc value="0.0480806494" flag="0"/>
      <vel value="0.0275843018" flag="0"/>
      <psa03 value="0.0620241876" flag="0"/>
      <psa10 value="0.0480263973" flag="0"/>
      <psa30 value="0.0052840207" flag="0"/>
    </comp>
  </station>
  <station code="ACATE" name="ACATE" netid="IV" insttype="" lat="37.024" lon="14.5006">
    <comp name="--.HNE">
      <acc value="0.0779864798" flag="0"/>
      <vel value="0.0230732016" flag="0"/>
      <psa03 value="0.1032229148" flag="0"/>
      <psa10 value="0.0230226217" flag="0"/>
      <psa30 value="0.0012558208" flag="0"/>
    </comp>
    <comp name="--.HNN">
      <acc value="0.0827638044" flag="0"/>
      <vel value="0.0175272354" flag="0"/>
      <psa03 value="0.1065536890" flag="0"/>
      <psa10 value="0.0173569466" flag="0"/>
      <psa30 value="0.0010266999" flag="0"/>
    </comp>
    <comp name="--.HNZ">
      <acc value="0.0922212588" flag="0"/>
      <vel value="0.0173082465" flag="0"/>
      <psa03 value="0.0556271619" flag="0"/>
      <psa10 value="0.0116358036" flag="0"/>
      <psa30 value="0.0008970297" flag="0"/>
    </comp>
  </station>
  <station code="AIO" name="AIO" netid="IV" insttype="" lat="37.9712" lon="15.233">
    <comp name="--.HHN">
      <acc value="0.0408809471" flag="0"/>
      <vel value="0.0190191905" flag="0"/>
      <psa03 value="0.1599705964" flag="0"/>
      <psa10 value="0.0083734981" flag="0"/>
      <psa30 value="0.0011665574" flag="0"/>
    </comp>
    <comp name="--.HHE">
      <acc value="0.0217550843" flag="0"/>
      <vel value="0.0127338023" flag="0"/>
      <psa03 value="0.1019861154" flag="0"/>
      <psa10 value="0.0130833834" flag="0"/>
      <psa30 value="0.0012086869" flag="0"/>
    </comp>
    <comp name="--.HHZ">
      <acc value="0.0108433563" flag="0"/>
      <vel value="0.0073176470" flag="0"/>
      <psa03 value="0.0408363774" flag="0"/>
      <psa10 value="0.0067442676" flag="0"/>
      <psa30 value="0.0013156059" flag="0"/>
    </comp>
  </station>
  <station code="ALJA" name="ALJA" netid="IV" insttype="" lat="37.749" lon="13.7537">
    <comp name="--.HHE">
      <acc value="0.0094440364" flag="0"/>
      <vel value="0.0077472932" flag="0"/>
      <psa03 value="0.0337381112" flag="0"/>
      <psa10 value="0.0088967208" flag="0"/>
      <psa30 value="0.0007174315" flag="0"/>
    </comp>
    <comp name="--.HHZ">
      <acc value="0.0057201938" flag="0"/>
      <vel value="0.0032528756" flag="0"/>
      <psa03 value="0.0200388632" flag="0"/>
      <psa10 value="0.0062590814" flag="0"/>
      <psa30 value="0.0004104125" flag="0"/>
    </comp>
    <comp name="--.HHN">
      <acc value="0.0109049640" flag="0"/>
      <vel value="0.0070236567" flag="0"/>
      <psa03 value="0.0271328414" flag="0"/>
      <psa10 value="0.0093032271" flag="0"/>
      <psa30 value="0.0005748627" flag="0"/>
    </comp>
  </station>
  <station code="CIMI" name="CIMI" netid="IV" insttype="" lat="37.8815" lon="13.5726">
    <comp name="--.HHE">
      <acc value="0.0153771314" flag="0"/>
      <vel value="0.0127561856" flag="0"/>
      <psa03 value="0.0269729856" flag="0"/>
      <psa10 value="0.0233708281" flag="0"/>
      <psa30 value="0.0018420306" flag="0"/>
    </comp>
    <comp name="--.HHN">
      <acc value="0.0149902225" flag="0"/>
      <vel value="0.0124909425" flag="0"/>
      <psa03 value="0.0270357173" flag="0"/>
      <psa10 value="0.0124324025" flag="0"/>
      <psa30 value="0.0012972420" flag="0"/>
    </comp>
    <comp name="--.HHZ">
      <acc value="0.0102399140" flag="0"/>
      <vel value="0.0041586578" flag="0"/>
      <psa03 value="0.0185969105" flag="0"/>
      <psa10 value="0.0036517309" flag="0"/>
      <psa30 value="0.0003289834" flag="0"/>
    </comp>
  </station>
  <station code="CLTA" name="CLTA" netid="IV" insttype="" lat="37.158" lon="13.962">
    <comp name="--.HHE">
      <acc value="0.0113482740" flag="0"/>
      <vel value="0.0045127066" flag="0"/>
      <psa03 value="0.0295914190" flag="0"/>
      <psa10 value="0.0042623057" flag="0"/>
      <psa30 value="0.0002952993" flag="0"/>
    </comp>
    <comp name="--.HHN">
      <acc value="0.0143051616" flag="0"/>
      <vel value="0.0058329112" flag="0"/>
      <psa03 value="0.0197522391" flag="0"/>
      <psa10 value="0.0024597285" flag="0"/>
      <psa30 value="0.0002884949" flag="0"/>
    </comp>
    <comp name="--.HHZ">
      <acc value="0.0105962744" flag="0"/>
      <vel value="0.0050311217" flag="0"/>
      <psa03 value="0.0182226477" flag="0"/>
      <psa10 value="0.0026495021" flag="0"/>
      <psa30 value="0.0001958257" flag="0"/>
    </comp>
  </station>
  <station code="CPTP" name="CPTP" netid="IV" insttype="" lat="37.4075" lon="14.1625">
    <comp name="--.HHE">
      <acc value="0.0072505644" flag="0"/>
      <vel value="0.0066809254" flag="0"/>
      <psa03 value="0.0282503368" flag="0"/>
      <psa10 value="0.0084408997" flag="0"/>
      <psa30 value="0.0015070390" flag="0"/>
    </comp>
    <comp name="--.HHN">
      <acc value="0.0082235207" flag="0"/>
      <vel value="0.0063468921" flag="0"/>
      <psa03 value="0.0289944700" flag="0"/>
      <psa10 value="0.0088796466" flag="0"/>
      <psa30 value="0.0015188166" flag="0"/>
    </comp>
    <comp name="--.HHZ">
      <acc value="0.0112561236" flag="0"/>
      <vel value="0.0044535850" flag="0"/>
      <psa03 value="0.0171924710" flag="0"/>
      <psa10 value="0.0061156119" flag="0"/>
      <psa30 value="0.0009630869" flag="0"/>
    </comp>
  </station>
  <station code="CROCE" name="CROCE" netid="IV" insttype="" lat="36.8326" lon="14.5345">
    <comp name="--.HHE">
      <acc value="0.0509513965" flag="0"/>
      <vel value="0.0168432347" flag="0"/>
      <psa03 value="0.1258981598" flag="0"/>
      <psa10 value="0.0063258793" flag="0"/>
      <psa30 value="0.0005753539" flag="0"/>
    </comp>
    <comp name="--.HHN">
      <acc value="0.0641100226" flag="0"/>
      <vel value="0.0167723558" flag="0"/>
      <psa03 value="0.0786724364" flag="0"/>
      <psa10 value="0.0073412583" flag="0"/>
      <psa30 value="0.0005334098" flag="0"/>
    </comp>
    <comp name="--.HHZ">
      <acc value="0.0380161036" flag="0"/>
      <vel value="0.0102404763" flag="0"/>
      <psa03 value="0.0559023080" flag="0"/>
      <psa10 value="0.0039030218" flag="0"/>
      <psa30 value="0.0003441689" flag="0"/>
    </comp>
  </station>
  <station code="CSLB" name="CSLB" netid="IV" insttype="" lat="37.9374" lon="14.0579">
    <comp name="--.HHE">
      <acc value="0.0062253029" flag="0"/>
      <vel value="0.0035644742" flag="0"/>
      <psa03 value="0.0152116122" flag="0"/>
      <psa10 value="0.0052088642" flag="0"/>
      <psa30 value="0.0004404890" flag="0"/>
    </comp>
    <comp name="--.HHZ">
      <acc value="0.0052758332" flag="0"/>
      <vel value="0.0026717796" flag="0"/>
      <psa03 value="0.0126685143" flag="0"/>
      <psa10 value="0.0059272407" flag="0"/>
      <psa30 value="0.0003989693" flag="0"/>
    </comp>
    <comp name="--.HHN">
      <acc value="0.0051264274" flag="0"/>
      <vel value="0.0041427110" flag="0"/>
      <psa03 value="0.0179776567" flag="0"/>
      <psa10 value="0.0054941699" flag="0"/>
      <psa30 value="0.0005536345" flag="0"/>
    </comp>
  </station>
  <station code="ECBD" name="ECBD" netid="IV" insttype="" lat="37.7802" lon="15.0865">
    <comp name="--.HHN">
      <acc value="0.0800858224" flag="0"/>
      <vel value="0.0505046172" flag="0"/>
      <psa03 value="0.1733221035" flag="0"/>
      <psa10 value="0.0625781527" flag="0"/>
      <psa30 value="0.0048423023" flag="0"/>
    </comp>
    <comp name="--.HHE">
      <acc value="0.1076989721" flag="0"/>
      <vel value="0.0388079334" flag="0"/>
      <psa03 value="0.1597115027" flag="0"/>
      <psa10 value="0.0564239134" flag="0"/>
      <psa30 value="0.0039125449" flag="0"/>
    </comp>
    <comp name="--.HHZ">
      <acc value="0.0354700386" flag="0"/>
      <vel value="0.0227514798" flag="0"/>
      <psa03 value="0.1083708306" flag="0"/>
      <psa10 value="0.0312547012" flag="0"/>
      <psa30 value="0.0024453267" flag="0"/>
    </comp>
  </station>
  <station code="ECHR" name="ECHR" netid="IV" insttype="" lat="37.6863" lon="14.9129">
    <comp name="--.HHN">
      <acc value="0.1109300501" flag="0"/>
      <vel value="0.0759266759" flag="0"/>
      <psa03 value="0.2817358370" flag="0"/>
      <psa10 value="0.0801798405" flag="0"/>
      <psa30 value="0.0037163993" flag="0"/>
    </comp>
    <comp name="--.HHE">
      <acc value="0.0871617588" flag="0"/>
      <vel value="0.0571137747" flag="0"/>
      <psa03 value="0.3287653043" flag="0"/>
      <psa10 value="0.0974997402" flag="0"/>
      <psa30 value="0.0049430794" flag="0"/>
    </comp>
    <comp name="--.HHZ">
      <acc value="0.0704140420" flag="0"/>
      <vel value="0.0328176233" flag="0"/>
      <psa03 value="0.1680300355" flag="0"/>
      <psa10 value="0.0350676521" flag="0"/>
      <psa30 value="0.0028256266" flag="0"/>
    </comp>
  </station>
  <station code="ECNE" name="ECNE" netid="IV" insttype="" lat="37.7653" lon="15.0018">
    <comp name="--.HHE">
      <acc value="0.1165930375" flag="0"/>
      <vel value="0.0602833799" flag="0"/>
      <psa03 value="0.2694770872" flag="0"/>
      <psa10 value="0.0837628430" flag="0"/>
      <psa30 value="0.0065767801" flag="0"/>
    </comp>
    <comp name="--.HHN">
      <acc value="0.1051560283" flag="0"/>
      <vel value="0.0547764575" flag="0"/>
      <psa03 value="0.2501115164" flag="0"/>
      <psa10 value="0.0898931641" flag="0"/>
      <psa30 value="0.0050438986" flag="0"/>
    </comp>
    <comp name="--.HHZ">
      <acc value="0.0909619289" flag="0"/>
      <vel value="0.0327993703" flag="0"/>
      <psa03 value="0.1587400681" flag="0"/>
      <psa10 value="0.0252812269" flag="0"/>
      <psa30 value="0.0019536010" flag="0"/>
    </comp>
  </station>
  <station code="ECTS" name="ECTS" netid="IV" insttype="" lat="37.882" lon="15.121">
    <comp name="--.HHE">
      <acc value="0.0406325208" flag="0"/>
      <vel value="0.0151188176" flag="0"/>
      <psa03 value="0.1204864298" flag="0"/>
      <psa10 value="0.0177606144" flag="0"/>
      <psa30 value="0.0012601297" flag="0"/>
    </comp>
    <comp name="--.HHN">
      <acc value="0.0330944329" flag="0"/>
      <vel value="0.0181076679" flag="0"/>
      <psa03 value="0.0990727390" flag="0"/>
      <psa10 value="0.0266713159" flag="0"/>
      <psa30 value="0.0012887438" flag="0"/>
    </comp>
    <comp name="--.HHZ">
      <acc value="0.0225232937" flag="0"/>
      <vel value="0.0154158625" flag="0"/>
      <psa03 value="0.0584308174" flag="0"/>
      <psa10 value="0.0171639356" flag="0"/>
      <psa30 value="0.0015491289" flag="0"/>
    </comp>
  </station>
  <station code="ECZM" name="ECZM" netid="IV" insttype="" lat="37.7313" lon="14.9041">
    <comp name="--.HHE">
      <acc value="0.1575916817" flag="0"/>
      <vel value="0.0694658889" flag="0"/>
      <psa03 value="0.4670843532" flag="0"/>
      <psa10 value="0.0577725639" flag="0"/>
      <psa30 value="0.0040500369" flag="0"/>
    </comp>
    <comp name="--.HHN">
      <acc value="0.1305618654" flag="0"/>
      <vel value="0.0827389147" flag="0"/>
      <psa03 value="0.5268068925" flag="0"/>
      <psa10 value="0.0911050227" flag="0"/>
      <psa30 value="0.0053496881" flag="0"/>
    </comp>
    <comp name="--.HHZ">
      <acc value="0.1119193176" flag="0"/>
      <vel value="0.0436878980" flag="0"/>
      <psa03 value="0.2384346205" flag="0"/>
      <psa10 value="0.0414654054" flag="0"/>
      <psa30 value="0.0026197707" flag="0"/>
    </comp>
  </station>
  <station code="EFIU" name="EFIU" netid="IV" insttype="" lat="37.7896" lon="15.2103">
    <comp name="--.HHN">
      <acc value="0.0179894115" flag="0"/>
      <vel value="0.0160990097" flag="0"/>
      <psa03 value="0.0499092028" flag="0"/>
      <psa10 value="0.0388319706" flag="0"/>
      <psa30 value="0.0040834954" flag="0"/>
    </comp>
    <comp name="--.HHE">
      <acc value="0.0278770678" flag="0"/>
      <vel value="0.0209313588" flag="0"/>
      <psa03 value="0.0792984816" flag="0"/>
      <psa10 value="0.0309337487" flag="0"/>
      <psa30 value="0.0047204436" flag="0"/>
    </comp>
    <comp name="--.HHZ">
      <acc value="0.0149561335" flag="0"/>
      <vel value="0.0143788868" flag="0"/>
      <psa03 value="0.0335676987" flag="0"/>
      <psa10 value="0.0400607322" flag="0"/>
      <psa30 value="0.0025463866" flag="0"/>
    </comp>
  </station>
  <station code="EMAS" name="EMAS" netid="IV" insttype="" lat="37.5792" lon="15.0526">
    <comp name="--.HHZ">
      <acc value="0.1359657193" flag="0"/>
      <vel value="0.0392548587" flag="0"/>
      <psa03 value="0.1764684178" flag="0"/>
      <psa10 value="0.0363797991" flag="0"/>
      <psa30 value="0.0022551406" flag="0"/>
    </comp>
    <comp name="--.HHE">
      <acc value="0.1293860197" flag="0"/>
      <vel value="0.0982513670" flag="0"/>
      <psa03 value="0.2093009814" flag="0"/>
      <psa10 value="0.0964422340" flag="0"/>
      <psa30 value="0.0065354038" flag="0"/>
    </comp>
    <comp name="--.HHN">
      <acc value="0.1341063123" flag="0"/>
      <vel value="0.0431119787" flag="0"/>
      <psa03 value="0.2108919356" flag="0"/>
      <psa10 value="0.0471374193" flag="0"/>
      <psa30 value="0.0028078798" flag="0"/>
    </comp>
  </station>
  <station code="EMCN" name="EMCN" netid="IV" insttype="" lat="37.7912" lon="15.0336">
    <comp name="--.HHE">
      <acc value="0.1093007513" flag="0"/>
      <vel value="0.0436929731" flag="0"/>
      <psa03 value="0.4211961226" flag="0"/>
      <psa10 value="0.0627041034" flag="0"/>
      <psa30 value="0.0064843681" flag="0"/>
    </comp>
    <comp name="--.HHZ">
      <acc value="0.0728775587" flag="0"/>
      <vel value="0.0356995254" flag="0"/>
      <psa03 value="0.1776068462" flag="0"/>
      <psa10 value="0.0316251870" flag="0"/>
      <psa30 value="0.0017074276" flag="0"/>
    </comp>
    <comp name="--.HHN">
      <acc value="0.0993094866" flag="0"/>
      <vel value="0.0384455742" flag="0"/>
      <psa03 value="0.1996083567" flag="0"/>
      <psa10 value="0.0441394088" flag="0"/>
      <psa30 value="0.0040694631" flag="0"/>
    </comp>
  </station>
  <station code="EMFO" name="EMFO" netid="IV" insttype="" lat="37.7357" lon="15.0902">
    <comp name="--.HHE">
      <acc value="0.0778657412" flag="0"/>
      <vel value="0.0300108021" flag="0"/>
      <psa03 value="0.2399321913" flag="0"/>
      <psa10 value="0.0228010757" flag="0"/>
      <psa30 value="0.0017061976" flag="0"/>
    </comp>
    <comp name="--.HHZ">
      <acc value="0.0414392801" flag="0"/>
      <vel value="0.0152568958" flag="0"/>
      <psa03 value="0.1109334687" flag="0"/>
      <psa10 value="0.0167230619" flag="0"/>
      <psa30 value="0.0015824490" flag="0"/>
    </comp>
    <comp name="--.HHN">
      <acc value="0.0687346133" flag="0"/>
      <vel value="0.0281737000" flag="0"/>
      <psa03 value="0.1577763135" flag="0"/>
      <psa10 value="0.0259088873" flag="0"/>
      <psa30 value="0.0018425403" flag="0"/>
    </comp>
  </station>
  <station code="EMFS" name="EMFS" netid="IV" insttype="" lat="37.7196" lon="14.9979">
    <comp name="--.HHE">
      <acc value="0.1558192585" flag="0"/>
      <vel value="0.0659910888" flag="0"/>
      <psa03 value="0.4618281734" flag="0"/>
      <psa10 value="0.0544309642" flag="0"/>
      <psa30 value="0.0064925033" flag="0"/>
    </comp>
    <comp name="--.HHN">
      <acc value="0.1541968711" flag="0"/>
      <vel value="0.0692401042" flag="0"/>
      <psa03 value="0.3986824501" flag="0"/>
      <psa10 value="0.0675921771" flag="0"/>
      <psa30 value="0.0032643831" flag="0"/>
    </comp>
