<stationlist created="1778069283">
	<station code="ACR" name="ACR" netid="IT" source="Italian Strong Motion Network (RAN)" insttype="" lat="39.4889" lon="16.3798">
		<comp name="--.HNE" depth="0.0">
			<acc value="0.008461818" flag="0"/>
			<vel value="0.006829" flag="0"/>
			<psa03 value="0.0261294486650707" flag="0"/>
			<psa10 value="0.0146656004853371" flag="0"/>
			<psa30 value="0.000601782679015755" flag="0"/>
		</comp>
		<comp name="--.HNN" depth="0.0">
			<acc value="0.007368174" flag="0"/>
			<vel value="0.007461" flag="0"/>
			<psa03 value="0.0212972903502974" flag="0"/>
			<psa10 value="0.0100388088989416" flag="0"/>
			<psa30 value="0.000949877046505909" flag="0"/>
		</comp>
		<comp name="--.HNZ" depth="0.0">
			<acc value="0.007075026" flag="0"/>
			<vel value="0.004976" flag="0"/>
			<psa03 value="0.0120803957869334" flag="0"/>
			<psa10 value="0.00665629807860029" flag="0"/>
			<psa30 value="0.000929295631461504" flag="0"/>
		</comp>
	</station>
	<station code="BRO" name="BRO" netid="IT" source="Italian Strong Motion Network (RAN)" insttype="" lat="38.6021" lon="16.3493">
		<comp name="--.HGE" depth="0.0">
			<acc value="0.009395526" flag="0"/>
			<vel value="0.004582" flag="0"/>
			<psa03 value="0.034406756889451" flag="0"/>
			<psa10 value="0.00789655204605878" flag="0"/>
			<psa30 value="0.000487690052139162" flag="0"/>
		</comp>
		<comp name="--.HGN" depth="0.0">
			<acc value="0.007663566" flag="0"/>
			<vel value="0.005618" flag="0"/>
			<psa03 value="0.0213420325569156" flag="0"/>
			<psa10 value="0.00515027540382926" flag="0"/>
			<psa30 value="0.00049887560379373" flag="0"/>
		</comp>
		<comp name="--.HGZ" depth="0.0">
			<acc value="0.00516936" flag="0"/>
			<vel value="0.002379" flag="0"/>
			<psa03 value="0.00800885498467064" flag="0"/>
			<psa10 value="0.00294761657201174" flag="0"/>
			<psa30 value="0.000292614031283497" flag="0"/>
		</comp>
	</station>
	<station code="CIR" name="CIR" netid="IT" source="Italian Strong Motion Network (RAN)" insttype="" lat="39.38764833" lon="17.05777">
		<comp name="--.HGE" depth="0.0">
			<acc value="0.055296138" flag="0"/>
			<vel value="0.039997" flag="0"/>
			<psa03 value="0.180087381638544" flag="0"/>
			<psa10 value="0.0414558915421597" flag="0"/>
			<psa30 value="0.00367020320889683" flag="0"/>
		</comp>
		<comp name="--.HGN" depth="0.0">
			<acc value="0.044037174" flag="0"/>
			<vel value="0.037457" flag="0"/>
			<psa03 value="0.114987471008958" flag="0"/>
			<psa10 value="0.0533148134063326" flag="0"/>
			<psa30 value="0.00283083941273805" flag="0"/>
		</comp>
		<comp name="--.HGZ" depth="0.0">
			<acc value="0.033120216" flag="0"/>
			<vel value="0.020238" flag="0"/>
			<psa03 value="0.0629970269185266" flag="0"/>
			<psa10 value="0.0165380618323118" flag="0"/>
			<psa30 value="0.00161787819131671" flag="0"/>
		</comp>
	</station>
	<station code="COR" name="COR" netid="IT" source="Italian Strong Motion Network (RAN)" insttype="" lat="39.1179" lon="16.38">
		<comp name="--.HGE" depth="0.0">
			<acc value="0.009405318" flag="0"/>
			<vel value="0.006694" flag="0"/>
			<psa03 value="0.0222368766892811" flag="0"/>
			<psa10 value="0.00697844196625185" flag="0"/>
			<psa30 value="0.000713190773495252" flag="0"/>
		</comp>
		<comp name="--.HGN" depth="0.0">
			<acc value="0.011783244" flag="0"/>
			<vel value="0.006687" flag="0"/>
			<psa03 value="0.0263979019047803" flag="0"/>
			<psa10 value="0.00790863244184572" flag="0"/>
			<psa30 value="0.00071945468242181" flag="0"/>
		</comp>
		<comp name="--.HGZ" depth="0.0">
			<acc value="0.008428872" flag="0"/>
			<vel value="0.006419" flag="0"/>
			<psa03 value="0.0157492567296317" flag="0"/>
			<psa10 value="0.00721602308339487" flag="0"/>
			<psa30 value="0.000741825785730946" flag="0"/>
		</comp>
	</station>
	<station code="COS" name="COS" netid="IT" source="Italian Strong Motion Network (RAN)" insttype="" lat="39.289" lon="16.2576">
		<comp name="--.HNE" depth="0.0">
			<acc value="0.014603034" flag="0"/>
			<vel value="0.011362" flag="0"/>
			<psa03 value="0.0363754139806549" flag="0"/>
			<psa10 value="0.0194051424324106" flag="0"/>
			<psa30 value="0.000991487298660902" flag="0"/>
		</comp>
		<comp name="--.HNN" depth="0.0">
			<acc value="0.011668902" flag="0"/>
			<vel value="0.007269" flag="0"/>
			<psa03 value="0.0357937652946174" flag="0"/>
			<psa10 value="0.0152414326845143" flag="0"/>
			<psa30 value="0.000988355344197623" flag="0"/>
		</comp>
		<comp name="--.HNZ" depth="0.0">
			<acc value="0.006087564" flag="0"/>
			<vel value="0.004081" flag="0"/>
			<psa03 value="0.0130199821259171" flag="0"/>
			<psa10 value="0.00505765903612944" flag="0"/>
			<psa30 value="0.000603572367280486" flag="0"/>
		</comp>
	</station>
	<station code="CTN" name="CTN" netid="IT" source="Italian Strong Motion Network (RAN)" insttype="" lat="38.9171" lon="16.5849">
		<comp name="--.HGE" depth="0.0">
			<acc value="0.019506378" flag="0"/>
			<vel value="0.009477" flag="0"/>
			<psa03 value="0.0576727043309523" flag="0"/>
			<psa10 value="0.0179393877435961" flag="0"/>
			<psa30 value="0.00101430582403622" flag="0"/>
		</comp>
		<comp name="--.HGN" depth="0.0">
			<acc value="0.01543617" flag="0"/>
			<vel value="0.009031" flag="0"/>
			<psa03 value="0.0208498682841146" flag="0"/>
			<psa10 value="0.0103247115992324" flag="0"/>
			<psa30 value="0.000825493712107114" flag="0"/>
		</comp>
		<comp name="--.HGZ" depth="0.0">
			<acc value="0.00857463" flag="0"/>
			<vel value="0.005694" flag="0"/>
			<psa03 value="0.0164203898289057" flag="0"/>
			<psa10 value="0.00652744052353967" flag="0"/>
			<psa30 value="0.000639366132575103" flag="0"/>
		</comp>
	</station>
	<station code="CTZ" name="CTZ" netid="IT" source="Italian Strong Motion Network (RAN)" insttype="" lat="38.9407" lon="16.5851">
		<comp name="--.HGE" depth="0.0">
			<acc value="0.035000994" flag="0"/>
			<vel value="0.024693" flag="0"/>
			<psa03 value="0.0822809179710018" flag="0"/>
			<psa10 value="0.0339902069458349" flag="0"/>
			<psa30 value="0.00158879575701483" flag="0"/>
		</comp>
		<comp name="--.HGN" depth="0.0">
			<acc value="0.034289952" flag="0"/>
			<vel value="0.020868" flag="0"/>
			<psa03 value="0.0723034058951272" flag="0"/>
			<psa10 value="0.0386975345041432" flag="0"/>
			<psa30 value="0.00151139173956522" flag="0"/>
		</comp>
		<comp name="--.HGZ" depth="0.0">
			<acc value="0.018342456" flag="0"/>
			<vel value="0.013617" flag="0"/>
			<psa03 value="0.036554382807128" flag="0"/>
			<psa10 value="0.0242453543443753" flag="0"/>
			<psa30 value="0.000993276986925633" flag="0"/>
		</comp>
	</station>
	<station code="FDF" name="FDF" netid="IT" source="Italian Strong Motion Network (RAN)" insttype="" lat="38.7891" lon="16.3">
		<comp name="--.HGE" depth="0.0">
			<acc value="0.016937304" flag="0"/>
			<vel value="0.00786" flag="0"/>
			<psa03 value="0.0496638493462817" flag="0"/>
			<psa10 value="0.00753414017245078" flag="0"/>
			<psa30 value="0.000475609656352229" flag="0"/>
		</comp>
		<comp name="--.HGN" depth="0.0">
			<acc value="0.013877406" flag="0"/>
			<vel value="0.008064" flag="0"/>
			<psa03 value="0.0306036693268979" flag="0"/>
			<psa10 value="0.00597174231734073" flag="0"/>
			<psa30 value="0.0007145330396938" flag="0"/>
		</comp>
		<comp name="--.HGZ" depth="0.0">
			<acc value="0.007292082" flag="0"/>
			<vel value="0.002821" flag="0"/>
			<psa03 value="0.0113197782744228" flag="0"/>
			<psa10 value="0.00356774355574099" flag="0"/>
			<psa30 value="0.000251451201194687" flag="0"/>
		</comp>
	</station>
	<station code="LMZ" name="LMZ" netid="IT" source="Italian Strong Motion Network (RAN)" insttype="" lat="38.9187" lon="16.2527">
		<comp name="--.HNE" depth="0.0">
			<acc value="0.014770518" flag="0"/>
			<vel value="0.016558" flag="0"/>
			<psa03 value="0.0387020087248051" flag="0"/>
			<psa10 value="0.0296332108653476" flag="0"/>
			<psa30 value="0.00403172023837247" flag="0"/>
		</comp>
		<comp name="--.HNN" depth="0.0">
			<acc value="0.01021785" flag="0"/>
			<vel value="0.012946" flag="0"/>
			<psa03 value="0.0204919306311685" flag="0"/>
			<psa10 value="0.0240399876159974" flag="0"/>
			<psa30 value="0.00451359380365125" flag="0"/>
		</comp>
		<comp name="--.HNZ" depth="0.0">
			<acc value="0.008263122" flag="0"/>
			<vel value="0.009045" flag="0"/>
			<psa03 value="0.0147201859774114" flag="0"/>
			<psa10 value="0.0201903681585613" flag="0"/>
			<psa30 value="0.00211362184064716" flag="0"/>
		</comp>
	</station>
	<station code="MCA" name="MCA" netid="IT" source="Italian Strong Motion Network (RAN)" insttype="" lat="39.0774" lon="16.7897">
		<comp name="--.HGE" depth="0.0">
			<acc value="0.060626148" flag="0"/>
			<vel value="0.017779" flag="0"/>
			<psa03 value="0.120446020216388" flag="0"/>
			<psa10 value="0.0148387528249498" flag="0"/>
			<psa30 value="0.00139774653475481" flag="0"/>
		</comp>
		<comp name="--.HGN" depth="0.0">
			<acc value="0.093522678" flag="0"/>
			<vel value="0.041787" flag="0"/>
			<psa03 value="0.233196380894432" flag="0"/>
			<psa10 value="0.0267902910568226" flag="0"/>
			<psa30 value="0.00236462561977566" flag="0"/>
		</comp>
		<comp name="--.HGZ" depth="0.0">
			<acc value="0.046088496" flag="0"/>
			<vel value="0.017962" flag="0"/>
			<psa03 value="0.0880079204181406" flag="0"/>
			<psa10 value="0.0111622857071264" flag="0"/>
			<psa30 value="0.00145143718269674" flag="0"/>
		</comp>
	</station>
	<station code="MSR" name="MSR" netid="IT" source="Italian Strong Motion Network (RAN)" insttype="" lat="39.0768" lon="16.7897">
		<comp name="--.HGE" depth="0.0">
			<acc value="0.058806876" flag="0"/>
			<vel value="0.020851" flag="0"/>
			<psa03 value="0.213375583362538" flag="0"/>
			<psa10 value="0.0138199727802518" flag="0"/>
			<psa30 value="0.00148230930526334" flag="0"/>
		</comp>
		<comp name="--.HGN" depth="0.0">
			<acc value="0.153921468" flag="0"/>
			<vel value="0.05431" flag="0"/>
			<psa03 value="0.28192064390173" flag="0"/>
			<psa10 value="0.0268547198343529" flag="0"/>
			<psa30 value="0.00192749426111515" flag="0"/>
		</comp>
		<comp name="--.HGZ" depth="0.0">
			<acc value="0.041086722" flag="0"/>
			<vel value="0.016039" flag="0"/>
			<psa03 value="0.0789252524746314" flag="0"/>
			<psa10 value="0.00983344217056377" flag="0"/>
			<psa30 value="0.00139774653475481" flag="0"/>
		</comp>
	</station>
	<station code="PLT" name="PLT" netid="IT" source="Italian Strong Motion Network (RAN)" insttype="" lat="39.0022" lon="16.3192">
		<comp name="--.HGE" depth="0.0">
			<acc value="0.0184875" flag="0"/>
			<vel value="0.010282" flag="0"/>
			<psa03 value="0.0330644906909028" flag="0"/>
			<psa10 value="0.012390459278798" flag="0"/>
			<psa30 value="0.000663974346215153" flag="0"/>
		</comp>
		<comp name="--.HGN" depth="0.0">
			<acc value="0.010626564" flag="0"/>
			<vel value="0.00788" flag="0"/>
			<psa03 value="0.0219236812429532" flag="0"/>
			<psa10 value="0.0159219616471782" flag="0"/>
			<psa30 value="0.000908266794350916" flag="0"/>
		</comp>
		<comp name="--.HGZ" depth="0.0">
			<acc value="0.0066606" flag="0"/>
			<vel value="0.004355" flag="0"/>
			<psa03 value="0.0153913190766855" flag="0"/>
			<psa10 value="0.00746971139492047" flag="0"/>
			<psa30 value="0.000631312535383814" flag="0"/>
		</comp>
	</station>
	<station code="PNI" name="PNI" netid="IT" source="Italian Strong Motion Network (RAN)" insttype="" lat="39.158" lon="16.4126">
		<comp name="--.HGE" depth="0.0">
			<acc value="0.012857814" flag="0"/>
			<vel value="0.00973" flag="0"/>
			<psa03 value="0.0445632377917987" flag="0"/>
			<psa10 value="0.0142468134313901" flag="0"/>
			<psa30 value="0.00078209377168739" flag="0"/>
		</comp>
		<comp name="--.HGN" depth="0.0">
			<acc value="0.016519104" flag="0"/>
			<vel value="0.009784" flag="0"/>
			<psa03 value="0.0424603540807399" flag="0"/>
			<psa10 value="0.0110294013534702" flag="0"/>
			<psa30 value="0.000842495750622057" flag="0"/>
		</comp>
		<comp name="--.HGZ" depth="0.0">
			<acc value="0.019065636" flag="0"/>
			<vel value="0.006421" flag="0"/>
			<psa03 value="0.028813981062167" flag="0"/>
			<psa10 value="0.00744152380475096" flag="0"/>
			<psa30 value="0.000608046587942313" flag="0"/>
		</comp>
	</station>
	<station code="PTC" name="PTC" netid="IT" source="Italian Strong Motion Network (RAN)" insttype="" lat="40.3887" lon="16.5611">
		<comp name="--.HGE" depth="0.0">
			<acc value="0.014075592" flag="0"/>
			<vel value="0.004767" flag="0"/>
			<psa03 value="0.0182995625068731" flag="0"/>
			<psa10 value="0.00626167181622713" flag="0"/>
			<psa30 value="0.00138119191830605" flag="0"/>
		</comp>
		<comp name="--.HGN" depth="0.0">
			<acc value="0.015217584" flag="0"/>
			<vel value="0.00619" flag="0"/>
			<psa03 value="0.030782638153371" flag="0"/>
			<psa10 value="0.00711535311850376" flag="0"/>
			<psa30 value="0.00180892741357673" flag="0"/>
		</comp>
		<comp name="--.HGZ" depth="0.0">
			<acc value="0.006998934" flag="0"/>
			<vel value="0.004241" flag="0"/>
			<psa03 value="0.0170020385149433" flag="0"/>
			<psa10 value="0.00531134734765504" flag="0"/>
			<psa30 value="0.000853681302276625" flag="0"/>
		</comp>
	</station>
	<station code="RSN" name="RSN" netid="IT" source="Italian Strong Motion Network (RAN)" insttype="" lat="39.5706" lon="16.6301">
		<comp name="--.HNE" depth="0.0">
			<acc value="0.011764986" flag="0"/>
			<vel value="0.007576" flag="0"/>
			<psa03 value="0.0255030577724149" flag="0"/>
			<psa10 value="0.0105743731121623" flag="0"/>
			<psa30 value="0.000777619551025563" flag="0"/>
		</comp>
		<comp name="--.HNN" depth="0.0">
			<acc value="0.013254492" flag="0"/>
			<vel value="0.009634" flag="0"/>
			<psa03 value="0.0212972903502974" flag="0"/>
			<psa10 value="0.0103931671753583" flag="0"/>
			<psa30 value="0.00104428310247046" flag="0"/>
		</comp>
		<comp name="--.HNZ" depth="0.0">
			<acc value="0.008896338" flag="0"/>
			<vel value="0.004046" flag="0"/>
			<psa03 value="0.0126173022663526" flag="0"/>
			<psa10 value="0.00840795546770563" flag="0"/>
			<psa30 value="0.00060267752314812" flag="0"/>
		</comp>
	</station>
	<station code="SGV" name="SGV" netid="IT" source="Italian Strong Motion Network (RAN)" insttype="" lat="39.2633" lon="16.6897">
		<comp name="--.HGE" depth="0.0">
			<acc value="0.028593864" flag="0"/>
			<vel value="0.019982" flag="0"/>
			<psa03 value="0.0825941134173297" flag="0"/>
			<psa10 value="0.0290694590619573" flag="0"/>
			<psa30 value="0.00210556824345587" flag="0"/>
		</comp>
		<comp name="--.HGN" depth="0.0">
			<acc value="0.027011742" flag="0"/>
			<vel value="0.01616" flag="0"/>
			<psa03 value="0.0725271169282185" flag="0"/>
			<psa10 value="0.0244950158573052" flag="0"/>
			<psa30 value="0.00130110336845934" flag="0"/>
		</comp>
		<comp name="--.HGZ" depth="0.0">
			<acc value="0.020636742" flag="0"/>
			<vel value="0.010604" flag="0"/>
			<psa03 value="0.03391459261665" flag="0"/>
			<psa10 value="0.0203917080883435" flag="0"/>
			<psa30 value="0.00158029473775736" flag="0"/>
		</comp>
	</station>
	<station code="SLL" name="SLL" netid="IT" source="Italian Strong Motion Network (RAN)" insttype="" lat="38.8843" lon="16.7447">
		<comp name="--.HGE" depth="0.0">
			<acc value="0.13172484" flag="0"/>
			<vel value="0.055048" flag="0"/>
			<psa03 value="0.318653995535331" flag="0"/>
			<psa10 value="0.044782027182162" flag="0"/>
			<psa30 value="0.00704779238651016" flag="0"/>
		</comp>
		<comp name="--.HGN" depth="0.0">
			<acc value="0.098481306" flag="0"/>
			<vel value="0.055958" flag="0"/>
			<psa03 value="0.26975076370156" flag="0"/>
			<psa10 value="0.0364827952765388" flag="0"/>
			<psa30 value="0.00677486492613871" flag="0"/>
		</comp>
		<comp name="--.HGZ" depth="0.0">
			<acc value="0.034869516" flag="0"/>
			<vel value="0.015036" flag="0"/>
			<psa03 value="0.0529747726360338" flag="0"/>
			<psa10 value="0.0289365747083011" flag="0"/>
			<psa30 value="0.00296372376639432" flag="0"/>
		</comp>
	</station>
	<station code="SMA" name="SMA" netid="IT" source="Italian Strong Motion Network (RAN)" insttype="" lat="39.5564" lon="16.125">
		<comp name="--.HNE" depth="0.0">
			<acc value="0.007477518" flag="0"/>
			<vel value="0.007136" flag="0"/>
			<psa03 value="0.0201339929782223" flag="0"/>
			<psa10 value="0.0143394297990899" flag="0"/>
			<psa30 value="0.00142682896905669" flag="0"/>
		</comp>
		<comp name="--.HNN" depth="0.0">
			<acc value="0.008304126" flag="0"/>
			<vel value="0.008689" flag="0"/>
			<psa03 value="0.0171810073414164" flag="0"/>
			<psa10 value="0.0168521521227721" flag="0"/>
			<psa30 value="0.00162727405470654" flag="0"/>
		</comp>
		<comp name="--.HNZ" depth="0.0">
			<acc value="0.004736778" flag="0"/>
			<vel value="0.005353" flag="0"/>
			<psa03 value="0.0134674041920998" flag="0"/>
			<psa10 value="0.0139045355507603" flag="0"/>
			<psa30 value="0.000676949586134452" flag="0"/>
		</comp>
	</station>
	<station code="SPS" name="SPS" netid="IT" source="Italian Strong Motion Network (RAN)" insttype="" lat="39.3402" lon="16.4491">
		<comp name="--.HNE" depth="0.0">
			<acc value="0.01634703" flag="0"/>
			<vel value="0.011239" flag="0"/>
			<psa03 value="0.0754801025650245" flag="0"/>
			<psa10 value="0.00921331518683452" flag="0"/>
			<psa30 value="0.00092034719013785" flag="0"/>
		</comp>
		<comp name="--.HNN" depth="0.0">
			<acc value="0.011260494" flag="0"/>
			<vel value="0.007373" flag="0"/>
			<psa03 value="0.0344514990960693" flag="0"/>
			<psa10 value="0.00535161533361148" flag="0"/>
			<psa30 value="0.000963747130557573" flag="0"/>
		</comp>
		<comp name="--.HNZ" depth="0.0">
			<acc value="0.008930406" flag="0"/>
			<vel value="0.004411" flag="0"/>
			<psa03 value="0.0109618406214766" flag="0"/>
			<psa10 value="0.00480799752319948" flag="0"/>
			<psa30 value="0.000768223687635726" flag="0"/>
		</comp>
	</station>
	<station code="TART" name="TART" netid="IT" source="Italian Strong Motion Network (RAN)" insttype="" lat="40.4618" lon="17.254999">
		<comp name="--.HNE" depth="0.0">
			<acc value="0.011706846" flag="0"/>
			<vel value="0.007008" flag="0"/>
			<psa03 value="0.031274802426172" flag="0"/>
			<psa10 value="0.0101314252666415" flag="0"/>
			<psa30 value="0.000414312833285196" flag="0"/>
		</comp>
		<comp name="--.HNN" depth="0.0">
			<acc value="0.012228984" flag="0"/>
			<vel value="0.00728" flag="0"/>
			<psa03 value="0.0303352160871883" flag="0"/>
			<psa10 value="0.00957975385903817" flag="0"/>
			<psa30 value="0.000398205638902619" flag="0"/>
		</comp>
		<comp name="--.HNZ" depth="0.0">
			<acc value="0.022323618" flag="0"/>
			<vel value="0.003802" flag="0"/>
			<psa03 value="0.0250108934996139" flag="0"/>
			<psa10 value="0.00238386476862152" flag="0"/>
			<psa30 value="0.000248766668797591" flag="0"/>
		</comp>
	</station>
	<station code="TPA" name="TPA" netid="IT" source="Italian Strong Motion Network (RAN)" insttype="" lat="38.6736" lon="15.8891">
		<comp name="--.HGE" depth="0.0">
			<acc value="0.004327452" flag="0"/>
			<vel value="0.003752" flag="0"/>
			<psa03 value="0.0120356535803151" flag="0"/>
			<psa10 value="0.00729655905530776" flag="0"/>
			<psa30 value="0.000693504202583212" flag="0"/>
		</comp>
		<comp name="--.HGN" depth="0.0">
			<acc value="0.006713334" flag="0"/>
			<vel value="0.00333" flag="0"/>
			<psa03 value="0.0126620444729709" flag="0"/>
			<psa10 value="0.00399055740828366" flag="0"/>
			<psa30 value="0.000490374584536258" flag="0"/>
		</comp>
		<comp name="--.HGZ" depth="0.0">
			<acc value="0.005071848" flag="0"/>
			<vel value="0.001815" flag="0"/>
			<psa03 value="0.00492164272800989" flag="0"/>
			<psa10 value="0.00175971098629663" flag="0"/>
			<psa30 value="0.00041654994361611" flag="0"/>
		</comp>
	</station>
	<station code="UGN" name="UGN" netid="IT" source="Italian Strong Motion Network (RAN)" insttype="" lat="39.894912" lon="18.123012">
		<comp name="--.HGE" depth="0.0">
			<acc value="0.006641526" flag="0"/>
			<vel value="0.007028" flag="0"/>
