<?xml version="1.0" encoding="UTF-8" standalone="yes"?>
<!DOCTYPE earthquake SYSTEM "stationlist.dtd">
<stationlist created="" xmlns="ch.ethz.sed.shakemap.usgs.xml">
  <station code="CAR1" name="CAR1" netid="IV" insttype="" lat="39.2534" lon="16.2114">
    <comp name="--.HHE">
      <acc value="0.0088573250" flag="0"/>
      <vel value="0.0081125987" flag="0"/>
      <psa03 value="0.0284225636" flag="0"/>
      <psa10 value="0.0145173007" flag="0"/>
      <psa30 value="0.0007428597" flag="0"/>
    </comp>
    <comp name="--.HHN">
      <acc value="0.0073653442" flag="0"/>
      <vel value="0.0080558999" flag="0"/>
      <psa03 value="0.0208863551" flag="0"/>
      <psa10 value="0.0109175334" flag="0"/>
      <psa30 value="0.0010741651" flag="0"/>
    </comp>
    <comp name="--.HHZ">
      <acc value="0.0064363588" flag="0"/>
      <vel value="0.0037734506" flag="0"/>
      <psa03 value="0.0167618038" flag="0"/>
      <psa10 value="0.0045150907" flag="0"/>
      <psa30 value="0.0005684853" flag="0"/>
    </comp>
  </station>
  <station code="CELI" name="CELI" netid="IV" insttype="" lat="39.4027" lon="16.5088">
    <comp name="--.HHE">
      <acc value="0.0058913631" flag="0"/>
      <vel value="0.0066985928" flag="0"/>
      <psa03 value="0.0128887548" flag="0"/>
      <psa10 value="0.0069992056" flag="0"/>
      <psa30 value="0.0011651156" flag="0"/>
    </comp>
    <comp name="--.HHN">
      <acc value="0.0074187207" flag="0"/>
      <vel value="0.0089897803" flag="0"/>
      <psa03 value="0.0158173012" flag="0"/>
      <psa10 value="0.0151153668" flag="0"/>
      <psa30 value="0.0007948912" flag="0"/>
    </comp>
    <comp name="--.HHZ">
      <acc value="0.0055678428" flag="0"/>
      <vel value="0.0059320727" flag="0"/>
      <psa03 value="0.0115747578" flag="0"/>
      <psa10 value="0.0084511507" flag="0"/>
      <psa30 value="0.0008841960" flag="0"/>
    </comp>
  </station>
  <station code="CET2" name="CET2" netid="IV" insttype="" lat="39.5288" lon="15.9546">
    <comp name="--.HHE">
      <acc value="0.0045718546" flag="0"/>
      <vel value="0.0037192218" flag="0"/>
      <psa03 value="0.0060537047" flag="0"/>
      <psa10 value="0.0091158249" flag="0"/>
      <psa30 value="0.0005362246" flag="0"/>
    </comp>
    <comp name="--.HHN">
      <acc value="0.0083673394" flag="0"/>
      <vel value="0.0072658844" flag="0"/>
      <psa03 value="0.0131365355" flag="0"/>
      <psa10 value="0.0135713560" flag="0"/>
      <psa30 value="0.0006275142" flag="0"/>
    </comp>
    <comp name="--.HHZ">
      <acc value="0.0042844671" flag="0"/>
      <vel value="0.0025238214" flag="0"/>
      <psa03 value="0.0053976848" flag="0"/>
      <psa10 value="0.0045237448" flag="0"/>
      <psa30 value="0.0003031972" flag="0"/>
    </comp>
  </station>
  <station code="JOPP" name="JOPP" netid="IV" insttype="" lat="38.6068" lon="15.8856">
    <comp name="--.HHZ">
      <acc value="0.0018119905" flag="0"/>
      <vel value="0.0012483531" flag="0"/>
      <psa03 value="0.0024357318" flag="0"/>
      <psa10 value="0.0015150664" flag="0"/>
      <psa30 value="0.0004778271" flag="0"/>
    </comp>
    <comp name="--.HHE">
      <acc value="0.0024359334" flag="0"/>
      <vel value="0.0019306616" flag="0"/>
      <psa03 value="0.0051462462" flag="0"/>
      <psa10 value="0.0028599648" flag="0"/>
      <psa30 value="0.0003491231" flag="0"/>
    </comp>
    <comp name="--.HHN">
      <acc value="0.0023684159" flag="0"/>
      <vel value="0.0017887742" flag="0"/>
      <psa03 value="0.0047894740" flag="0"/>
      <psa10 value="0.0025848147" flag="0"/>
      <psa30 value="0.0002803287" flag="0"/>
    </comp>
  </station>
  <station code="ORI" name="ORI" netid="IV" insttype="" lat="40.051" lon="16.4504">
    <comp name="--.HHE">
      <acc value="0.0067249920" flag="0"/>
      <vel value="0.0044499471" flag="0"/>
      <psa03 value="0.0191918320" flag="0"/>
      <psa10 value="0.0052009860" flag="0"/>
      <psa30 value="0.0003523286" flag="0"/>
    </comp>
    <comp name="--.HHN">
      <acc value="0.0072234395" flag="0"/>
      <vel value="0.0045580490" flag="0"/>
      <psa03 value="0.0195273211" flag="0"/>
      <psa10 value="0.0044469956" flag="0"/>
      <psa30 value="0.0004243980" flag="0"/>
    </comp>
    <comp name="--.HHZ">
      <acc value="0.0027701203" flag="0"/>
      <vel value="0.0014233632" flag="0"/>
      <psa03 value="0.0077854360" flag="0"/>
      <psa10 value="0.0023336354" flag="0"/>
      <psa30 value="0.0002665223" flag="0"/>
    </comp>
  </station>
  <station code="PIPA" name="PIPA" netid="IV" insttype="" lat="39.4851" lon="16.8158">
    <comp name="--.HHE">
      <acc value="0.0186479867" flag="0"/>
      <vel value="0.0123738957" flag="0"/>
      <psa03 value="0.0461966586" flag="0"/>
      <psa10 value="0.0155440170" flag="0"/>
      <psa30 value="0.0008230377" flag="0"/>
    </comp>
    <comp name="--.HHN">
      <acc value="0.0181012339" flag="0"/>
      <vel value="0.0159904665" flag="0"/>
      <psa03 value="0.0396162250" flag="0"/>
      <psa10 value="0.0148386982" flag="0"/>
      <psa30 value="0.0009153265" flag="0"/>
    </comp>
    <comp name="--.HHZ">
      <acc value="0.0135047029" flag="0"/>
      <vel value="0.0066344994" flag="0"/>
      <psa03 value="0.0218157901" flag="0"/>
      <psa10 value="0.0077157497" flag="0"/>
      <psa30 value="0.0006308322" flag="0"/>
    </comp>
  </station>
  <station code="PLAC" name="PLAC" netid="IV" insttype="" lat="38.4494" lon="16.4383">
    <comp name="--.HHE">
      <acc value="0.0032153234" flag="0"/>
      <vel value="0.0027230386" flag="0"/>
      <psa03 value="0.0095011443" flag="0"/>
      <psa10 value="0.0044186472" flag="0"/>
      <psa30 value="0.0005129490" flag="0"/>
    </comp>
    <comp name="--.HHN">
      <acc value="0.0028833068" flag="0"/>
      <vel value="0.0033631419" flag="0"/>
      <psa03 value="0.0066081785" flag="0"/>
      <psa10 value="0.0098130254" flag="0"/>
      <psa30 value="0.0003149445" flag="0"/>
    </comp>
    <comp name="--.HHZ">
      <acc value="0.0018157519" flag="0"/>
      <vel value="0.0014162221" flag="0"/>
      <psa03 value="0.0036498270" flag="0"/>
      <psa10 value="0.0028241191" flag="0"/>
      <psa30 value="0.0004386772" flag="0"/>
    </comp>
  </station>
  <station code="SALB" name="SALB" netid="IV" insttype="" lat="39.8772" lon="16.3459">
    <comp name="--.HHE">
      <acc value="0.0025040529" flag="0"/>
      <vel value="0.0018753649" flag="0"/>
      <psa03 value="0.0068745958" flag="0"/>
      <psa10 value="0.0027533815" flag="0"/>
      <psa30 value="0.0002881075" flag="0"/>
    </comp>
    <comp name="--.HHN">
      <acc value="0.0016906439" flag="0"/>
      <vel value="0.0011571065" flag="0"/>
      <psa03 value="0.0043033849" flag="0"/>
      <psa10 value="0.0018656213" flag="0"/>
      <psa30 value="0.0001782686" flag="0"/>
    </comp>
    <comp name="--.HHZ">
      <acc value="0.0013717484" flag="0"/>
      <vel value="0.0007931441" flag="0"/>
      <psa03 value="0.0025210154" flag="0"/>
      <psa10 value="0.0009078817" flag="0"/>
      <psa30 value="0.0001899024" flag="0"/>
    </comp>
  </station>
  <station code="SERS" name="SERS" netid="IV" insttype="" lat="39.0359" lon="16.6886">
    <comp name="--.HHE">
      <acc value="0.0203759065" flag="0"/>
      <vel value="0.0164431584" flag="0"/>
      <psa03 value="0.0469013616" flag="0"/>
      <psa10 value="0.0122120575" flag="0"/>
      <psa30 value="0.0010169933" flag="0"/>
    </comp>
    <comp name="--.HHN">
      <acc value="0.0144446982" flag="0"/>
      <vel value="0.0102771713" flag="0"/>
      <psa03 value="0.0532339835" flag="0"/>
      <psa10 value="0.0116007926" flag="0"/>
      <psa30 value="0.0011113840" flag="0"/>
    </comp>
    <comp name="--.HHZ">
      <acc value="0.0155141965" flag="0"/>
      <vel value="0.0089249666" flag="0"/>
      <psa03 value="0.0291540196" flag="0"/>
      <psa10 value="0.0077194734" flag="0"/>
      <psa30 value="0.0010077571" flag="0"/>
    </comp>
  </station>
  <station code="SPS2" name="SPS2" netid="IV" insttype="" lat="39.291" lon="16.3388">
    <comp name="--.HHE">
      <acc value="0.0036448260" flag="0"/>
      <vel value="0.0029721889" flag="0"/>
      <psa03 value="0.0110441946" flag="0"/>
      <psa10 value="0.0024009411" flag="0"/>
      <psa30 value="0.0003330431" flag="0"/>
    </comp>
    <comp name="--.HHN">
      <acc value="0.0044210730" flag="0"/>
      <vel value="0.0029159481" flag="0"/>
      <psa03 value="0.0097816305" flag="0"/>
      <psa10 value="0.0041546786" flag="0"/>
      <psa30 value="0.0001807089" flag="0"/>
    </comp>
    <comp name="--.HHZ">
      <acc value="926338198376546197539602620344340215663987296930891838505368033921995184437438799538683308090508317154148182650095030690860384741769885101860266006232734875041807982552179064262556559183085613134029849230322121986317054115840.0000000000" flag="0"/>
      <vel value="0.0000000000" flag="0"/>
    </comp>
  </station>
  <station code="TDS" name="TDS" netid="IV" insttype="" lat="39.6601" lon="16.3376">
    <comp name="--.HHE">
      <acc value="0.0022584695" flag="0"/>
      <vel value="0.0023960297" flag="0"/>
      <psa03 value="0.0044676535" flag="0"/>
      <psa10 value="0.0049125706" flag="0"/>
      <psa30 value="0.0006391606" flag="0"/>
    </comp>
    <comp name="--.HHN">
      <acc value="0.0018526804" flag="0"/>
      <vel value="0.0026161110" flag="0"/>
      <psa03 value="0.0030628700" flag="0"/>
      <psa10 value="0.0038555465" flag="0"/>
      <psa30 value="0.0007638235" flag="0"/>
    </comp>
    <comp name="--.HHZ">
      <acc value="0.0016731765" flag="0"/>
      <vel value="0.0020631044" flag="0"/>
      <psa03 value="0.0051440706" flag="0"/>
      <psa10 value="0.0023487107" flag="0"/>
      <psa30 value="0.0007331349" flag="0"/>
    </comp>
  </station>
  <station code="TIP" name="TIP" netid="MN" insttype="" lat="39.1794" lon="16.7583">
    <comp name="--.HHE">
      <acc value="0.0125256992" flag="0"/>
      <vel value="0.0086591541" flag="0"/>
      <psa03 value="0.0219493452" flag="0"/>
      <psa10 value="0.0111058259" flag="0"/>
      <psa30 value="0.0008931049" flag="0"/>
    </comp>
    <comp name="--.HHN">
      <acc value="0.0095566180" flag="0"/>
      <vel value="0.0079528047" flag="0"/>
      <psa03 value="0.0266369088" flag="0"/>
      <psa10 value="0.0078088317" flag="0"/>
      <psa30 value="0.0009293953" flag="0"/>
    </comp>
    <comp name="--.HHZ">
      <acc value="0.0140445736" flag="0"/>
      <vel value="0.0077618778" flag="0"/>
      <psa03 value="0.0265018396" flag="0"/>
      <psa10 value="0.0144387927" flag="0"/>
      <psa30 value="0.0013291134" flag="0"/>
    </comp>
  </station>
</stationlist>
