<?xml version="1.0" encoding="UTF-8" standalone="yes"?>
<!DOCTYPE earthquake SYSTEM "stationlist.dtd">
<stationlist created="" xmlns="ch.ethz.sed.shakemap.usgs.xml">
  <station code="THERA" name="THERA" netid="GE" source="GFZ" insttype="STS-2/N" lat="36.367" lon="25.4753">
    <comp name="--.HHE">
      <acc value="0.0729555390" flag="0"/>
      <vel value="0.0202715680" flag="0"/>
      <psa03 value="0.0876405255" flag="0"/>
      <psa10 value="0.0155241934" flag="0"/>
      <psa30 value="0.0007687549" flag="0"/>
    </comp>
    <comp name="--.HHZ">
      <acc value="0.0623477802" flag="0"/>
      <vel value="0.0139134955" flag="0"/>
      <psa03 value="0.0558041499" flag="0"/>
      <psa10 value="0.0035781149" flag="0"/>
      <psa30 value="0.0003170538" flag="0"/>
    </comp>
    <comp name="--.HHN">
      <acc value="0.0617191920" flag="0"/>
      <vel value="0.0163061207" flag="0"/>
      <psa03 value="0.0590946501" flag="0"/>
      <psa10 value="0.0041489787" flag="0"/>
      <psa30 value="0.0003416841" flag="0"/>
    </comp>
  </station>
  <station code="ZKR" name="ZKR" netid="GE" source="GFZ" insttype="STS-2/N" lat="35.1147" lon="26.2169">
    <comp name="--.HHE">
      <acc value="0.0163799347" flag="0"/>
      <vel value="0.0055123637" flag="0"/>
      <psa03 value="0.0381330017" flag="0"/>
      <psa10 value="0.0064883154" flag="0"/>
      <psa30 value="0.0004411762" flag="0"/>
    </comp>
    <comp name="--.HHN">
      <acc value="0.0073846647" flag="0"/>
      <vel value="0.0025706734" flag="0"/>
      <psa03 value="0.0173082466" flag="0"/>
      <psa10 value="0.0017368913" flag="0"/>
      <psa30 value="0.0001814613" flag="0"/>
    </comp>
    <comp name="--.HHZ">
      <acc value="0.0172264753" flag="0"/>
      <vel value="0.0063339483" flag="0"/>
      <psa03 value="0.0195836996" flag="0"/>
      <psa10 value="0.0035013204" flag="0"/>
      <psa30 value="0.0002790212" flag="0"/>
    </comp>
  </station>
  <station code="IDI" name="IDI" netid="MN" source="INGV" insttype="" lat="35.288" lon="24.89">
    <comp name="--.HHE">
      <acc value="0.1713650460" flag="0"/>
      <vel value="0.0273327853" flag="0"/>
      <psa03 value="0.0611198639" flag="0"/>
      <psa10 value="0.0094158463" flag="0"/>
      <psa30 value="0.0006472056" flag="0"/>
    </comp>
    <comp name="--.HHN">
      <acc value="0.1052978068" flag="0"/>
      <vel value="0.0147174929" flag="0"/>
      <psa03 value="0.0590988234" flag="0"/>
      <psa10 value="0.0102864711" flag="0"/>
      <psa30 value="0.0006573471" flag="0"/>
    </comp>
    <comp name="--.HHZ">
      <acc value="0.1338510631" flag="0"/>
      <vel value="0.0243536422" flag="0"/>
      <psa03 value="0.0448191458" flag="0"/>
      <psa10 value="0.0049609689" flag="0"/>
      <psa30 value="0.0005264447" flag="0"/>
    </comp>
  </station>
</stationlist>
