<stationlist xmlns:esm="https://esm-db.eu/esmws/shakemap/1/" created="1781229297">
	<station code="AGN1" name="AGN1" netid="HI" source="ITSAK Strong Motion Network" insttype="" lat="35.1879" lon="25.7155" esm:processing="automatic (Paolucci et al 2011)" esm:quality="best">
		<comp name="--.HNE" depth="0.0">
			<acc value="0.170906531793828" flag="0"/>
			<vel value="0.0414889318914168" flag="0"/>
			<psa03 value="0.169042969100416" flag="0"/>
			<psa10 value="0.00561179159740208" flag="0"/>
			<psa30 value="0.000911104314522702" flag="0"/>
		</comp>
		<comp name="--.HNN" depth="0.0">
			<acc value="0.167379482437767" flag="0"/>
			<vel value="0.0395635933372731" flag="0"/>
			<psa03 value="0.132426699702272" flag="0"/>
			<psa10 value="0.00751565771918896" flag="0"/>
			<psa30 value="0.00105810894869159" flag="0"/>
		</comp>
		<comp name="--.HNZ" depth="0.0">
			<acc value="0.0914706769349498" flag="0"/>
			<vel value="0.0192805336484898" flag="0"/>
			<psa03 value="0.0446371184483629" flag="0"/>
			<psa10 value="0.00387477121582666" flag="0"/>
			<psa30 value="0.000418866966630847" flag="0"/>
		</comp>
	</station>
	<station code="ARK1" name="ARK1" netid="HI" source="ITSAK Strong Motion Network" insttype="" lat="35.148777" lon="25.264194" esm:processing="automatic (Paolucci et al 2011)" esm:quality="best">
		<comp name="--.HNE" depth="0.0">
			<acc value="0.189399295187273" flag="0"/>
			<vel value="0.0450860209979501" flag="0"/>
			<psa03 value="0.157443471523963" flag="0"/>
			<psa10 value="0.020292418023104" flag="0"/>
			<psa30 value="0.0011704975397175" flag="0"/>
		</comp>
		<comp name="--.HNN" depth="0.0">
			<acc value="0.183189677801875" flag="0"/>
			<vel value="0.0584221900524807" flag="0"/>
			<psa03 value="0.278404359589152" flag="0"/>
			<psa10 value="0.0195412676380774" flag="0"/>
			<psa30 value="0.00202747639369408" flag="0"/>
		</comp>
		<comp name="--.HNZ" depth="0.0">
			<acc value="0.102658708825048" flag="0"/>
			<vel value="0.0273697039152115" flag="0"/>
			<psa03 value="0.0888046120363836" flag="0"/>
			<psa10 value="0.0116659493743925" flag="0"/>
			<psa30 value="0.00085690733882238" flag="0"/>
		</comp>
	</station>
	<station code="CH01" name="CH01" netid="HI" source="ITSAK Strong Motion Network" insttype="" lat="35.517" lon="24.0208" esm:processing="manual (Paolucci et al 2011)" esm:quality="good">
		<comp name="--.HNE" depth="0.0">
			<acc value="0.0506176287449533" flag="0"/>
			<vel value="0.0125966371719496" flag="0"/>
			<psa03 value="0.049351946407576" flag="0"/>
			<psa10 value="0.00676110726517452" flag="0"/>
			<psa30 value="0.000601729549129494" flag="0"/>
		</comp>
		<comp name="--.HNN" depth="0.0">
			<acc value="0.108619156006341" flag="0"/>
			<vel value="0.0164892725695471" flag="0"/>
			<psa03 value="0.0700336341762236" flag="0"/>
			<psa10 value="0.00710367417730122" flag="0"/>
			<psa30 value="0.000461608652224419" flag="0"/>
		</comp>
		<comp name="--.HNZ" depth="0.0">
			<acc value="0.0362611255580612" flag="0"/>
			<vel value="0.00916732860349576" flag="0"/>
			<psa03 value="0.0308928537916161" flag="0"/>
			<psa10 value="0.00649803296279309" flag="0"/>
			<psa30 value="0.000257769940576827" flag="0"/>
		</comp>
	</station>
	<station code="CH02" name="CH02" netid="HI" source="ITSAK Strong Motion Network" insttype="" lat="35.5145" lon="24.0315" esm:processing="automatic (Paolucci et al 2011)" esm:quality="best">
		<comp name="--.HNE" depth="0.0">
			<acc value="0.0505627108325893" flag="0"/>
			<vel value="0.0157703825009164" flag="0"/>
			<psa03 value="0.0898569004953297" flag="0"/>
			<psa10 value="0.00953148047630347" flag="0"/>
			<psa30 value="0.0007180798609333" flag="0"/>
		</comp>
		<comp name="--.HNN" depth="0.0">
			<acc value="0.0822645251378285" flag="0"/>
			<vel value="0.0166347502338887" flag="0"/>
			<psa03 value="0.0735695507050069" flag="0"/>
			<psa10 value="0.00828856095148489" flag="0"/>
			<psa30 value="0.000487133103510715" flag="0"/>
		</comp>
		<comp name="--.HNZ" depth="0.0">
			<acc value="0.0432135234219222" flag="0"/>
			<vel value="0.00674441651058911" flag="0"/>
			<psa03 value="0.028622140868029" flag="0"/>
			<psa10 value="0.00507012680851817" flag="0"/>
			<psa30 value="0.000314993965762655" flag="0"/>
		</comp>
	</station>
	<station code="CH03" name="CH03" netid="HI" source="ITSAK Strong Motion Network" insttype="" lat="35.53303" lon="24.0705" esm:processing="automatic (Paolucci et al 2011)" esm:quality="best">
		<comp name="--.HNE" depth="0.0">
			<acc value="0.0263977626375634" flag="0"/>
			<vel value="0.0108572316209111" flag="0"/>
			<psa03 value="0.0323342617778211" flag="0"/>
			<psa10 value="0.00892890837135879" flag="0"/>
			<psa30 value="0.000524092478971286" flag="0"/>
		</comp>
		<comp name="--.HNN" depth="0.0">
			<acc value="0.028855226055193" flag="0"/>
			<vel value="0.00981495477155716" flag="0"/>
			<psa03 value="0.0506378180485949" flag="0"/>
			<psa10 value="0.00747350352043017" flag="0"/>
			<psa30 value="0.000473113424775804" flag="0"/>
		</comp>
		<comp name="--.HNZ" depth="0.0">
			<acc value="0.0339627880789196" flag="0"/>
			<vel value="0.00921970658661867" flag="0"/>
			<psa03 value="0.0305199124194138" flag="0"/>
			<psa10 value="0.00421774690503283" flag="0"/>
			<psa30 value="0.000310863874456042" flag="0"/>
		</comp>
	</station>
	<station code="GOR1" name="GOR1" netid="HI" source="ITSAK Strong Motion Network" insttype="" lat="35.0582" lon="24.9628" esm:processing="manual (Paolucci et al 2011)" esm:quality="good">
		<comp name="--.HNE" depth="0.0">
			<acc value="0.047183922237076" flag="0"/>
			<vel value="0.018137167858697" flag="0"/>
			<psa03 value="0.115111500571975" flag="0"/>
			<psa10 value="0.0146267423873988" flag="0"/>
			<psa30 value="0.00106645856431264" flag="0"/>
		</comp>
		<comp name="--.HNN" depth="0.0">
			<acc value="0.0330558637730099" flag="0"/>
			<vel value="0.0189537860136673" flag="0"/>
			<psa03 value="0.0634392077445029" flag="0"/>
			<psa10 value="0.017251680964197" flag="0"/>
			<psa30 value="0.000927401539967238" flag="0"/>
		</comp>
		<comp name="--.HNZ" depth="0.0">
			<acc value="0.0267931868363152" flag="0"/>
			<vel value="0.0146083280533535" flag="0"/>
			<psa03 value="0.0682618293028463" flag="0"/>
			<psa10 value="0.00789326226488692" flag="0"/>
			<psa30 value="0.000869707405513979" flag="0"/>
		</comp>
	</station>
	<station code="HER1" name="HER1" netid="HI" source="ITSAK Strong Motion Network" insttype="" lat="35.317672" lon="25.10217" esm:processing="automatic (Paolucci et al 2011)" esm:quality="best">
		<comp name="--.HNE" depth="0.0">
			<acc value="0.250861670509947" flag="0"/>
			<vel value="0.0673302151751068" flag="0"/>
			<psa03 value="0.316578971803193" flag="0"/>
			<psa10 value="0.0903218008760316" flag="0"/>
			<psa30 value="0.00303622384326193" flag="0"/>
		</comp>
		<comp name="--.HNN" depth="0.0">
			<acc value="0.200769395968654" flag="0"/>
			<vel value="0.0740385468151338" flag="0"/>
			<psa03 value="0.258276588723114" flag="0"/>
			<psa10 value="0.0879068658984412" flag="0"/>
			<psa30 value="0.00505920139726329" flag="0"/>
		</comp>
		<comp name="--.HNZ" depth="0.0">
			<acc value="0.253828859007947" flag="0"/>
			<vel value="0.0831988292341367" flag="0"/>
			<psa03 value="0.185019006601161" flag="0"/>
			<psa10 value="0.0766194731640682" flag="0"/>
			<psa30 value="0.0042632345016962" flag="0"/>
		</comp>
	</station>
	<station code="HER2" name="HER2" netid="HI" source="ITSAK Strong Motion Network" insttype="" lat="35.337866" lon="25.135624" esm:processing="manual (Paolucci et al 2011)" esm:quality="good">
		<comp name="--.HNE" depth="0.0">
			<acc value="0.261896753191698" flag="0"/>
			<vel value="0.0771677218745023" flag="0"/>
			<psa03 value="0.235797953790536" flag="0"/>
			<psa10 value="0.0591290307580975" flag="0"/>
			<psa30 value="0.00353425079343653" flag="0"/>
		</comp>
		<comp name="--.HNN" depth="0.0">
			<acc value="0.319214569161798" flag="0"/>
			<vel value="0.0821640066417485" flag="0"/>
			<psa03 value="0.321465212159303" flag="0"/>
			<psa10 value="0.0852207354554822" flag="0"/>
			<psa30 value="0.00273844682532924" flag="0"/>
		</comp>
		<comp name="--.HNZ" depth="0.0">
			<acc value="0.250852422178839" flag="0"/>
			<vel value="0.0557825974910793" flag="0"/>
			<psa03 value="0.166026758874625" flag="0"/>
			<psa10 value="0.0204579877412853" flag="0"/>
			<psa30 value="0.00144064085205282" flag="0"/>
		</comp>
	</station>
	<station code="HER3" name="HER3" netid="HI" source="ITSAK Strong Motion Network" insttype="" lat="35.3296" lon="25.1065" esm:processing="automatic (Paolucci et al 2011)" esm:quality="best">
		<comp name="--.HNE" depth="0.0">
			<acc value="0.381251116338761" flag="0"/>
			<vel value="0.118097375826911" flag="0"/>
			<psa03 value="0.438047560167702" flag="0"/>
			<psa10 value="0.0840090676884392" flag="0"/>
			<psa30 value="0.00323594915741713" flag="0"/>
		</comp>
		<comp name="--.HNN" depth="0.0">
			<acc value="0.45471943259888" flag="0"/>
			<vel value="0.120996257623189" flag="0"/>
			<psa03 value="0.507640503691999" flag="0"/>
			<psa10 value="0.14130363067205" flag="0"/>
			<psa30 value="0.00870315154107674" flag="0"/>
		</comp>
		<comp name="--.HNZ" depth="0.0">
			<acc value="0.249856435633204" flag="0"/>
			<vel value="0.0721796247229516" flag="0"/>
			<psa03 value="0.191061844409509" flag="0"/>
			<psa10 value="0.0425111136526457" flag="0"/>
			<psa30 value="0.00283134735453337" flag="0"/>
		</comp>
	</station>
	<station code="KIS1" name="KIS1" netid="HI" source="ITSAK Strong Motion Network" insttype="" lat="35.493933" lon="23.658993" esm:processing="automatic (Paolucci et al 2011)" esm:quality="best">
		<comp name="--.HNE" depth="0.0">
			<acc value="0.0169527057903308" flag="0"/>
			<vel value="0.00588750206121445" flag="0"/>
			<psa03 value="0.0225850586492938" flag="0"/>
			<psa10 value="0.00605256063993797" flag="0"/>
			<psa30 value="0.000382470388869528" flag="0"/>
		</comp>
		<comp name="--.HNN" depth="0.0">
			<acc value="0.0230885406648734" flag="0"/>
			<vel value="0.00781304521457588" flag="0"/>
			<psa03 value="0.0378982892214991" flag="0"/>
			<psa10 value="0.00881317664219972" flag="0"/>
			<psa30 value="0.000500614204900854" flag="0"/>
		</comp>
		<comp name="--.HNZ" depth="0.0">
			<acc value="0.0145049618348675" flag="0"/>
			<vel value="0.00446138911367465" flag="0"/>
			<psa03 value="0.0155593015607006" flag="0"/>
			<psa10 value="0.0038489139560351" flag="0"/>
			<psa30 value="0.000363399906793684" flag="0"/>
		</comp>
	</station>
	<station code="KSS1" name="KSS1" netid="HI" source="ITSAK Strong Motion Network" insttype="" lat="35.4189" lon="26.9207" esm:processing="automatic (Paolucci et al 2011)" esm:quality="best">
		<comp name="--.HNE" depth="0.0">
			<acc value="0.0120894456243252" flag="0"/>
			<vel value="0.00265397365784942" flag="0"/>
			<psa03 value="0.0117400173018626" flag="0"/>
			<psa10 value="0.000828400170414463" flag="0"/>
			<psa30 value="0.00010066049638887" flag="0"/>
		</comp>
		<comp name="--.HNN" depth="0.0">
			<acc value="0.014794638925805" flag="0"/>
			<vel value="0.00342058207235409" flag="0"/>
			<psa03 value="0.0211719194628414" flag="0"/>
			<psa10 value="0.00127187320067001" flag="0"/>
			<psa30 value="0.000105322445845141" flag="0"/>
		</comp>
		<comp name="--.HNZ" depth="0.0">
			<acc value="0.0109093146185764" flag="0"/>
			<vel value="0.00214744742624113" flag="0"/>
			<psa03 value="0.00494115773109557" flag="0"/>
			<psa10 value="0.000813371870175827" flag="0"/>
			<psa30 value="8.1908544528672e-05" flag="0"/>
		</comp>
	</station>
	<station code="NAX1" name="NAX1" netid="HI" source="ITSAK Strong Motion Network" insttype="" lat="37.101394" lon="25.374103" esm:processing="manual (Paolucci et al 2011)" esm:quality="good">
		<comp name="--.HNE" depth="0.0">
			<acc value="0.0118606959731397" flag="0"/>
			<vel value="0.00266908439049981" flag="0"/>
			<psa03 value="0.0100155013684371" flag="0"/>
			<psa10 value="0.00195947480558927" flag="0"/>
			<psa30 value="0.000143626715085824" flag="0"/>
		</comp>
		<comp name="--.HNN" depth="0.0">
			<acc value="0.0236024438176079" flag="0"/>
			<vel value="0.00762709472861704" flag="0"/>
			<psa03 value="0.0330332794384772" flag="0"/>
			<psa10 value="0.00279267500101308" flag="0"/>
			<psa30 value="0.00018601350737779" flag="0"/>
		</comp>
		<comp name="--.HNZ" depth="0.0">
			<acc value="0.0107550118114518" flag="0"/>
			<vel value="0.00313167065003754" flag="0"/>
			<psa03 value="0.0143519780918627" flag="0"/>
			<psa10 value="0.00133685879470919" flag="0"/>
			<psa30 value="0.0001566300764947" flag="0"/>
		</comp>
	</station>
	<station code="RTH1" name="RTH1" netid="HI" source="ITSAK Strong Motion Network" insttype="" lat="35.365393" lon="24.471773" esm:processing="automatic (Paolucci et al 2011)" esm:quality="best">
		<comp name="--.HNE" depth="0.0">
			<acc value="0.0453900074722049" flag="0"/>
			<vel value="0.0132923565188868" flag="0"/>
			<psa03 value="0.0732417112789205" flag="0"/>
			<psa10 value="0.00780592647931975" flag="0"/>
			<psa30 value="0.000615551193912295" flag="0"/>
		</comp>
		<comp name="--.HNN" depth="0.0">
			<acc value="0.0483200350308269" flag="0"/>
			<vel value="0.0192222202697082" flag="0"/>
			<psa03 value="0.0848123996552395" flag="0"/>
			<psa10 value="0.00505916998893265" flag="0"/>
			<psa30 value="0.000417294102019619" flag="0"/>
		</comp>
		<comp name="--.HNZ" depth="0.0">
			<acc value="0.047677079159124" flag="0"/>
			<vel value="0.0107482279924273" flag="0"/>
			<psa03 value="0.0388500007052141" flag="0"/>
			<psa10 value="0.00348427050332093" flag="0"/>
			<psa30 value="0.000247760214981632" flag="0"/>
		</comp>
	</station>
	<station code="SFIR" name="SFIR" netid="HI" source="ITSAK Strong Motion Network" insttype="" lat="36.421468" lon="25.428495" esm:processing="automatic (Paolucci et al 2011)" esm:quality="best">
		<comp name="--.HNE" depth="0.0">
			<acc value="0.0827881630834791" flag="0"/>
			<vel value="0.0282036779431723" flag="0"/>
			<psa03 value="0.142623187669558" flag="0"/>
			<psa10 value="0.0414714697813416" flag="0"/>
			<psa30 value="0.00178634875350464" flag="0"/>
		</comp>
		<comp name="--.HNN" depth="0.0">
			<acc value="0.0823538535407267" flag="0"/>
			<vel value="0.0266964014202813" flag="0"/>
			<psa03 value="0.12279992655913" flag="0"/>
			<psa10 value="0.0204031628594059" flag="0"/>
			<psa30 value="0.00166553522936826" flag="0"/>
		</comp>
		<comp name="--.HNZ" depth="0.0">
			<acc value="0.0891607238436296" flag="0"/>
			<vel value="0.026230021219881" flag="0"/>
			<psa03 value="0.154210694868375" flag="0"/>
			<psa10 value="0.00808115627444292" flag="0"/>
			<psa30 value="0.00069279490467904" flag="0"/>
		</comp>
	</station>
	<station code="SFK2" name="SFK2" netid="HI" source="ITSAK Strong Motion Network" insttype="" lat="35.211556" lon="24.188889" esm:processing="automatic (Paolucci et al 2011)" esm:quality="best">
		<comp name="--.HNE" depth="0.0">
			<acc value="0.04292272106622" flag="0"/>
			<vel value="0.0105181372416316" flag="0"/>
			<psa03 value="0.0687490022006598" flag="0"/>
			<psa10 value="0.00450629711381803" flag="0"/>
			<psa30 value="0.000379659030755851" flag="0"/>
		</comp>
		<comp name="--.HNN" depth="0.0">
			<acc value="0.0381486109933336" flag="0"/>
			<vel value="0.0124257891913664" flag="0"/>
			<psa03 value="0.0449750158324063" flag="0"/>
			<psa10 value="0.00680638401453696" flag="0"/>
			<psa30 value="0.000425145168989274" flag="0"/>
		</comp>
		<comp name="--.HNZ" depth="0.0">
			<acc value="0.026161674292766" flag="0"/>
			<vel value="0.00615063887104426" flag="0"/>
			<psa03 value="0.0274607722663922" flag="0"/>
			<psa10 value="0.00261630339538479" flag="0"/>
			<psa30 value="0.000265532017276314" flag="0"/>
		</comp>
	</station>
	<station code="SIT2" name="SIT2" netid="HI" source="ITSAK Strong Motion Network" insttype="" lat="35.2059" lon="26.107" esm:processing="automatic (Paolucci et al 2011)" esm:quality="best">
		<comp name="--.HNE" depth="0.0">
			<acc value="0.0580783833092357" flag="0"/>
			<vel value="0.0240130812462633" flag="0"/>
			<psa03 value="0.150074129174532" flag="0"/>
			<psa10 value="0.0126482978876604" flag="0"/>
			<psa30 value="0.000699643691710902" flag="0"/>
		</comp>
		<comp name="--.HNN" depth="0.0">
			<acc value="0.0628212466840985" flag="0"/>
			<vel value="0.0259804574427725" flag="0"/>
			<psa03 value="0.187181441518528" flag="0"/>
			<psa10 value="0.0131259042142356" flag="0"/>
			<psa30 value="0.00102073470199783" flag="0"/>
		</comp>
		<comp name="--.HNZ" depth="0.0">
			<acc value="0.0632444623530718" flag="0"/>
			<vel value="0.0191850206263766" flag="0"/>
			<psa03 value="0.11585567486987" flag="0"/>
			<psa10 value="0.00458946262312487" flag="0"/>
			<psa30 value="0.00035645705103023" flag="0"/>
		</comp>
	</station>
</stationlist>
