<?xml version="1.0" encoding="UTF-8" standalone="yes"?>
<!DOCTYPE earthquake SYSTEM "stationlist.dtd">
<stationlist created="" xmlns="ch.ethz.sed.shakemap.usgs.xml">
  <station code="ARGN" name="ARGN" netid="KO" insttype="CMG-6T" commtype="DIG" lat="38.7763" lon="38.2639">
    <comp name="--.HHE">
      <acc value="0.0748188170" flag="0"/>
      <vel value="0.0191512276" flag="0"/>
      <psa03 value="0.0641214155" flag="0"/>
      <psa10 value="0.0069260124" flag="0"/>
      <psa30 value="0.0004437980" flag="0"/>
    </comp>
    <comp name="--.HHN">
      <acc value="0.0680617674" flag="0"/>
      <vel value="0.0187204287" flag="0"/>
      <psa03 value="0.0924627298" flag="0"/>
      <psa10 value="0.0069059773" flag="0"/>
      <psa30 value="0.0003377038" flag="0"/>
    </comp>
    <comp name="--.HHZ">
      <acc value="0.0410730113" flag="0"/>
      <vel value="0.0079976603" flag="0"/>
      <psa03 value="0.0425209657" flag="0"/>
      <psa10 value="0.0055767037" flag="0"/>
      <psa30 value="0.0002952121" flag="0"/>
    </comp>
  </station>
  <station code="ARPRA" name="ARPRA" netid="KO" insttype="CMG-5T" commtype="DIG" lat="39.0929" lon="38.3356">
    <comp name="--.HNZ">
      <acc value="0.0679119295" flag="0"/>
      <vel value="0.0139711089" flag="0"/>
      <psa03 value="0.0692743999" flag="0"/>
      <psa10 value="0.0091632677" flag="0"/>
      <psa30 value="0.0005682541" flag="0"/>
    </comp>
    <comp name="--.HNE">
      <acc value="0.1290980455" flag="0"/>
      <vel value="0.0284319397" flag="0"/>
      <psa03 value="0.1228086423" flag="0"/>
      <psa10 value="0.0127912765" flag="0"/>
      <psa30 value="0.0011072343" flag="0"/>
    </comp>
    <comp name="--.HNN">
      <acc value="0.0841531159" flag="0"/>
      <vel value="0.0236413056" flag="0"/>
      <psa03 value="0.1535013461" flag="0"/>
      <psa10 value="0.0137751348" flag="0"/>
      <psa30 value="0.0009623687" flag="0"/>
    </comp>
  </station>
  <station code="DIVR" name="DIVR" netid="KO" insttype="CMG-6T" commtype="DIG" lat="39.3562" lon="38.1237">
    <comp name="--.HHZ">
      <acc value="0.0968103060" flag="0"/>
      <vel value="0.0214459381" flag="0"/>
      <psa03 value="0.0621416547" flag="0"/>
      <psa10 value="0.0030539884" flag="0"/>
      <psa30 value="0.0002548915" flag="0"/>
    </comp>
    <comp name="--.HHN">
      <acc value="0.0838591970" flag="0"/>
      <vel value="0.0150927568" flag="0"/>
      <psa03 value="0.0869860163" flag="0"/>
      <psa10 value="0.0031591230" flag="0"/>
      <psa30 value="0.0002154949" flag="0"/>
    </comp>
    <comp name="--.HHE">
      <acc value="0.1099868212" flag="0"/>
      <vel value="0.0178170648" flag="0"/>
      <psa03 value="0.0829622366" flag="0"/>
      <psa10 value="0.0028776313" flag="0"/>
      <psa30 value="0.0002588519" flag="0"/>
    </comp>
  </station>
  <station code="ERZN" name="ERZN" netid="KO" insttype="CMG-3ESP" commtype="DIG" lat="39.5867" lon="39.722">
    <comp name="--.HHE">
      <acc value="0.6123403950" flag="0"/>
      <vel value="0.1541326840" flag="0"/>
      <psa03 value="0.5097917104" flag="0"/>
      <psa10 value="0.0209256784" flag="0"/>
      <psa30 value="0.0023695502" flag="0"/>
    </comp>
    <comp name="--.HHZ">
      <acc value="0.3433132695" flag="0"/>
      <vel value="0.0564396783" flag="0"/>
      <psa03 value="0.2603559809" flag="0"/>
      <psa10 value="0.0188522871" flag="0"/>
      <psa30 value="0.0013567201" flag="0"/>
    </comp>
    <comp name="--.HHN">
      <acc value="0.8049959446" flag="0"/>
      <vel value="0.1845455998" flag="0"/>
      <psa03 value="0.5228800847" flag="0"/>
      <psa10 value="0.0288899203" flag="0"/>
      <psa30 value="0.0027233237" flag="0"/>
    </comp>
  </station>
  <station code="GUMT" name="GUMT" netid="KO" insttype="CMG-5T" commtype="DIG" lat="40.4665" lon="39.478">
    <comp name="--.HNE">
      <acc value="0.0157699164" flag="0"/>
      <vel value="0.0047069000" flag="0"/>
      <psa03 value="0.0207321992" flag="0"/>
      <psa10 value="0.0019716125" flag="0"/>
      <psa30 value="0.0002154583" flag="0"/>
    </comp>
    <comp name="--.HNN">
      <acc value="0.0128095299" flag="0"/>
      <vel value="0.0024441622" flag="0"/>
      <psa03 value="0.0135325240" flag="0"/>
      <psa10 value="0.0010270258" flag="0"/>
      <psa30 value="0.0006016373" flag="0"/>
    </comp>
    <comp name="--.HNZ">
      <acc value="0.0120818760" flag="0"/>
      <vel value="0.0039020426" flag="0"/>
      <psa03 value="0.0131377591" flag="0"/>
      <psa10 value="0.0016978045" flag="0"/>
      <psa30 value="0.0002356510" flag="0"/>
    </comp>
  </station>
  <station code="KBAN" name="KBAN" netid="KO" insttype="CMG-6T" commtype="DIG" lat="38.797" lon="38.7278">
    <comp name="--.HHE">
      <acc value="0.0335531171" flag="0"/>
      <vel value="0.0064372669" flag="0"/>
      <psa03 value="0.0181823021" flag="0"/>
      <psa10 value="0.0038866900" flag="0"/>
      <psa30 value="0.0002128956" flag="0"/>
    </comp>
    <comp name="--.HHN">
      <acc value="0.0312990714" flag="0"/>
      <vel value="0.0065526238" flag="0"/>
      <psa03 value="0.0268848886" flag="0"/>
      <psa10 value="0.0026763050" flag="0"/>
      <psa30 value="0.0002138495" flag="0"/>
    </comp>
    <comp name="--.HHZ">
      <acc value="0.0180288569" flag="0"/>
      <vel value="0.0047308596" flag="0"/>
      <psa03 value="0.0196178449" flag="0"/>
      <psa10 value="0.0013840406" flag="0"/>
      <psa30 value="0.0002587861" flag="0"/>
    </comp>
  </station>
  <station code="KMAH" name="KMAH" netid="KO" insttype="CMG-3ESP" commtype="DIG" lat="39.6082" lon="39.0275">
    <comp name="--.HHE">
      <acc value="1.1602743543" flag="0"/>
      <vel value="0.1907379800" flag="0"/>
      <psa03 value="0.9159524622" flag="0"/>
      <psa10 value="0.0716182120" flag="0"/>
      <psa30 value="0.0041430779" flag="0"/>
    </comp>
    <comp name="--.HHN">
      <acc value="1.2773966085" flag="0"/>
      <vel value="0.2596187466" flag="0"/>
      <psa03 value="1.1854286449" flag="0"/>
      <psa10 value="0.0382843323" flag="0"/>
      <psa30 value="0.0049522922" flag="0"/>
    </comp>
    <comp name="--.HHZ">
      <acc value="0.5633809659" flag="0"/>
      <vel value="0.1543689193" flag="0"/>
      <psa03 value="0.4790624446" flag="0"/>
      <psa10 value="0.0639162532" flag="0"/>
      <psa30 value="0.0042057059" flag="0"/>
    </comp>
  </station>
  <station code="RFHY" name="RFHY" netid="KO" insttype="CMG-5T" commtype="DIG" lat="39.927" lon="38.833">
    <comp name="--.HNE">
      <acc value="0.0028427969" flag="0"/>
      <vel value="0.0130929316" flag="0"/>
      <psa03 value="0.0027647642" flag="0"/>
      <psa10 value="0.0031961139" flag="0"/>
      <psa30 value="0.0040725675" flag="0"/>
    </comp>
    <comp name="--.HNN">
      <acc value="0.1156711343" flag="0"/>
      <vel value="0.0386162257" flag="0"/>
      <psa03 value="0.1870355235" flag="0"/>
      <psa10 value="0.0265626555" flag="0"/>
      <psa30 value="0.0012899446" flag="0"/>
    </comp>
    <comp name="--.HNZ">
      <acc value="0.0701102762" flag="0"/>
      <vel value="0.0218954167" flag="0"/>
      <psa03 value="0.1611420974" flag="0"/>
      <psa10 value="0.0219059085" flag="0"/>
      <psa30 value="0.0009322177" flag="0"/>
    </comp>
  </station>
  <station code="SINE" name="SINE" netid="KO" insttype="CMG-6T" commtype="DIG" lat="39.1636" lon="39.3871">
    <comp name="--.HHN">
      <acc value="0.2276329079" flag="0"/>
      <vel value="0.0255205032" flag="0"/>
      <psa03 value="0.0877260949" flag="0"/>
      <psa10 value="0.0081599277" flag="0"/>
      <psa30 value="0.0005967364" flag="0"/>
    </comp>
    <comp name="--.HHE">
      <acc value="0.2333341788" flag="0"/>
      <vel value="0.0282413797" flag="0"/>
      <psa03 value="0.1012522376" flag="0"/>
      <psa10 value="0.0118133025" flag="0"/>
      <psa30 value="0.0005777337" flag="0"/>
    </comp>
    <comp name="--.HHZ">
      <acc value="0.1796784793" flag="0"/>
      <vel value="0.0221770861" flag="0"/>
      <psa03 value="0.0581010424" flag="0"/>
      <psa10 value="0.0079868652" flag="0"/>
      <psa30 value="0.0005283561" flag="0"/>
    </comp>
  </station>
</stationlist>
