<stationlist created="1776101119">
	<station code="ARPRA" name="ARPRA" netid="KO" source="Bogazici University Kandilli Observatory And Earthquake Research Institute (KOERI)" insttype="" lat="39.0929" lon="38.3356">
		<comp name="--.HNE" depth="0.0">
			<acc value="0.130472613690223" flag="0"/>
			<vel value="0.0289568855353347" flag="0"/>
			<psa03 value="0.123523484907987" flag="0"/>
			<psa10 value="0.0128277341494321" flag="0"/>
			<psa30 value="0.00113519478441655" flag="0"/>
		</comp>
		<comp name="--.HNN" depth="0.0">
			<acc value="0.0849460812694853" flag="0"/>
			<vel value="0.0237468839753976" flag="0"/>
			<psa03 value="0.155732993629863" flag="0"/>
			<psa10 value="0.0138031972065724" flag="0"/>
			<psa30 value="0.000950672977419093" flag="0"/>
		</comp>
		<comp name="--.HNZ" depth="0.0">
			<acc value="0.0674777457427533" flag="0"/>
			<vel value="0.0141432899637128" flag="0"/>
			<psa03 value="0.0700580212084114" flag="0"/>
			<psa10 value="0.00915885204149843" flag="0"/>
			<psa30 value="0.00059049713837074" flag="0"/>
		</comp>
	</station>
	<station code="GUMT" name="GUMT" netid="KO" source="Bogazici University Kandilli Observatory And Earthquake Research Institute (KOERI)" insttype="" lat="40.4665" lon="39.478">
		<comp name="--.HNE" depth="0.0">
			<acc value="0.015840820351175" flag="0"/>
			<vel value="0.0047531915031504" flag="0"/>
			<psa03 value="0.0211995866602407" flag="0"/>
			<psa10 value="0.00180633270755185" flag="0"/>
			<psa30 value="0.000131595657670649" flag="0"/>
		</comp>
		<comp name="--.HNN" depth="0.0">
			<acc value="0.0126492105365041" flag="0"/>
			<vel value="0.00258982343160753" flag="0"/>
			<psa03 value="0.0138774740020455" flag="0"/>
			<psa10 value="0.000861414017576063" flag="0"/>
			<psa30 value="7.44638716681316e-05" flag="0"/>
		</comp>
		<comp name="--.HNZ" depth="0.0">
			<acc value="0.0120888866311955" flag="0"/>
			<vel value="0.0039114297403649" flag="0"/>
			<psa03 value="0.0132333610202216" flag="0"/>
			<psa10 value="0.00159883087563636" flag="0"/>
			<psa30 value="9.54277669337241e-05" flag="0"/>
		</comp>
	</station>
	<station code="KYHL" name="KYHL" netid="KO" source="Bogazici University Kandilli Observatory And Earthquake Research Institute (KOERI)" insttype="" lat="40.3244" lon="37.8955">
		<comp name="--.HNE" depth="0.0">
			<acc value="0.0104392650072218" flag="0"/>
			<vel value="0.00402689163366645" flag="0"/>
			<psa03 value="0.0231765926271834" flag="0"/>
			<psa10 value="0.0043295066523176" flag="0"/>
			<psa30 value="0.000227249194768872" flag="0"/>
		</comp>
		<comp name="--.HNN" depth="0.0">
			<acc value="0.0129838000038271" flag="0"/>
			<vel value="0.00510314430324079" flag="0"/>
			<psa03 value="0.0269864648041839" flag="0"/>
			<psa10 value="0.00571378007238802" flag="0"/>
			<psa30 value="0.000206845330092141" flag="0"/>
		</comp>
		<comp name="--.HNZ" depth="0.0">
			<acc value="0.00681664590631922" flag="0"/>
			<vel value="0.00299694665216627" flag="0"/>
			<psa03 value="0.0197485322016709" flag="0"/>
			<psa10 value="0.00195196739419761" flag="0"/>
			<psa30 value="0.000124437383990982" flag="0"/>
		</comp>
	</station>
	<station code="RFHY" name="RFHY" netid="KO" source="Bogazici University Kandilli Observatory And Earthquake Research Institute (KOERI)" insttype="" lat="39.927" lon="38.833">
		<comp name="--.HNE" depth="0.0">
			<acc value="0.00136875912890601" flag="0"/>
			<vel value="0.00119279325519586" flag="0"/>
			<psa03 value="0.00241697342642969" flag="0"/>
			<psa10 value="0.000877974997472204" flag="0"/>
			<psa30 value="0.000468887988611396" flag="0"/>
		</comp>
		<comp name="--.HNN" depth="0.0">
			<acc value="0.115472184283074" flag="0"/>
			<vel value="0.0391541124445755" flag="0"/>
			<psa03 value="0.18870089634162" flag="0"/>
			<psa10 value="0.0266357119851977" flag="0"/>
			<psa30 value="0.00132449305366453" flag="0"/>
		</comp>
		<comp name="--.HNZ" depth="0.0">
			<acc value="0.068522435123826" flag="0"/>
			<vel value="0.0219652115087084" flag="0"/>
			<psa03 value="0.160792755897615" flag="0"/>
			<psa10 value="0.0219588202890758" flag="0"/>
			<psa30 value="0.000929014146794526" flag="0"/>
		</comp>
	</station>
	<station code="TUNC" name="TUNC" netid="KO" source="Bogazici University Kandilli Observatory And Earthquake Research Institute (KOERI)" insttype="" lat="39.6942" lon="37.5388">
		<comp name="--.HNE" depth="0.0">
			<acc value="0.00897263800894089" flag="0"/>
			<vel value="0.00381874226084231" flag="0"/>
			<psa03 value="0.0252020653464772" flag="0"/>
			<psa10 value="0.00414888859350763" flag="0"/>
			<psa30 value="0.000230910166456946" flag="0"/>
		</comp>
		<comp name="--.HNN" depth="0.0">
			<acc value="0.00800860511126336" flag="0"/>
			<vel value="0.00432120758808596" flag="0"/>
			<psa03 value="0.0224107632489122" flag="0"/>
			<psa10 value="0.00405870824450209" flag="0"/>
			<psa30 value="0.000323483772962383" flag="0"/>
		</comp>
		<comp name="--.HNZ" depth="0.0">
			<acc value="0.00785352895820901" flag="0"/>
			<vel value="0.00246296546080285" flag="0"/>
			<psa03 value="0.0127445408778695" flag="0"/>
			<psa10 value="0.00286864847138263" flag="0"/>
			<psa30 value="0.000207599729025701" flag="0"/>
		</comp>
	</station>
</stationlist>
