<stationlist created="1778069625">
	<station code="AMYA" name="AMYA" netid="HL" source="National Observatory of Athens Seismic Network" insttype="" lat="40.6901" lon="21.67899">
		<comp name="00.HNE" depth="0.0">
			<acc value="0.00332840708787676" flag="0"/>
			<vel value="0.00362194799973497" flag="0"/>
			<psa03 value="0.00126335802395008" flag="0"/>
			<psa10 value="0.003274427930404" flag="0"/>
			<psa30 value="0.00204095812012462" flag="0"/>
		</comp>
		<comp name="00.HNN" depth="0.0">
			<acc value="0.00238535256098615" flag="0"/>
			<vel value="0.00297078469087501" flag="0"/>
			<psa03 value="0.00150193478226717" flag="0"/>
			<psa10 value="0.00222424586099824" flag="0"/>
			<psa30 value="0.00205131568126403" flag="0"/>
		</comp>
		<comp name="00.HNZ" depth="0.0">
			<acc value="0.00682767476744268" flag="0"/>
			<vel value="0.00156659716383028" flag="0"/>
			<psa03 value="0.000867442717727534" flag="0"/>
			<psa10 value="0.00128507372357708" flag="0"/>
			<psa30 value="0.000406849113215362" flag="0"/>
		</comp>
	</station>
</stationlist>
