<?xml version="1.0" encoding="UTF-8" standalone="yes"?>
<!DOCTYPE earthquake SYSTEM "stationlist.dtd">
<stationlist created="" xmlns="ch.ethz.sed.shakemap.usgs.xml">
  <station code="KBN" name="KBN" netid="AC" insttype="" lat="40.6236" lon="20.7874">
    <comp name="--.HHN">
      <acc value="0.0028471165" flag="0"/>
      <vel value="0.0026824085" flag="0"/>
      <psa03 value="0.0057938885" flag="0"/>
      <psa10 value="0.0036695093" flag="0"/>
      <psa30 value="0.0010811472" flag="0"/>
    </comp>
    <comp name="--.HHZ">
      <acc value="0.0013965187" flag="0"/>
      <vel value="0.0013034494" flag="0"/>
      <psa03 value="0.0033822051" flag="0"/>
      <psa10 value="0.0011840890" flag="0"/>
      <psa30 value="0.0002356634" flag="0"/>
    </comp>
    <comp name="--.HHE">
      <acc value="0.0021316122" flag="0"/>
      <vel value="0.0022827401" flag="0"/>
      <psa03 value="0.0055218992" flag="0"/>
      <psa10 value="0.0026803515" flag="0"/>
      <psa30 value="0.0007294906" flag="0"/>
    </comp>
  </station>
  <station code="LMS2" name="LMS2" netid="HI" insttype="CMG-5TD,ACCELEROMETER,GURALP" lat="40.835" lon="21.1418">
    <comp name="--.HNE">
      <acc value="0.0042224855" flag="0"/>
      <vel value="0.0020165108" flag="0"/>
      <psa03 value="0.0081388262" flag="0"/>
      <psa10 value="0.0022978986" flag="0"/>
      <psa30 value="0.0005648141" flag="0"/>
    </comp>
    <comp name="--.HNN">
      <acc value="0.0049473457" flag="0"/>
      <vel value="0.0025025944" flag="0"/>
      <psa03 value="0.0098037894" flag="0"/>
      <psa10 value="0.0027246522" flag="0"/>
      <psa30 value="0.0004156217" flag="0"/>
    </comp>
    <comp name="--.HNZ">
      <acc value="0.0022406464" flag="0"/>
      <vel value="0.0015356675" flag="0"/>
      <psa03 value="0.0083077613" flag="0"/>
      <psa10 value="0.0016388957" flag="0"/>
      <psa30 value="0.0003585596" flag="0"/>
    </comp>
  </station>
  <station code="PDG" name="PDG" netid="MN" insttype="" lat="42.4297" lon="19.2608">
    <comp name="--.HHE">
      <acc value="0.0075371519" flag="0"/>
      <vel value="0.0048338978" flag="0"/>
      <psa03 value="0.0220895682" flag="0"/>
      <psa10 value="0.0085625694" flag="0"/>
      <psa30 value="0.0011718306" flag="0"/>
    </comp>
    <comp name="--.HHN">
      <acc value="0.0082039747" flag="0"/>
      <vel value="0.0042250899" flag="0"/>
      <psa03 value="0.0222185311" flag="0"/>
      <psa10 value="0.0075987497" flag="0"/>
      <psa30 value="0.0010206187" flag="0"/>
    </comp>
    <comp name="--.HHZ">
      <acc value="0.0067004656" flag="0"/>
      <vel value="0.0040121401" flag="0"/>
      <psa03 value="0.0164115804" flag="0"/>
      <psa10 value="0.0036491374" flag="0"/>
      <psa30 value="0.0010976799" flag="0"/>
    </comp>
  </station>
  <station code="TIR" name="TIR" netid="MN" insttype="" lat="41.3472" lon="19.8631">
    <comp name="--.HHE">
      <acc value="0.5451642632" flag="0"/>
      <vel value="0.2124186443" flag="0"/>
      <psa03 value="0.7646499324" flag="0"/>
      <psa10 value="0.0612770156" flag="0"/>
      <psa30 value="0.0171192492" flag="0"/>
    </comp>
    <comp name="--.HHN">
      <acc value="0.3414602317" flag="0"/>
      <vel value="0.0994107928" flag="0"/>
      <psa03 value="0.2918248024" flag="0"/>
      <psa10 value="0.0774688333" flag="0"/>
      <psa30 value="0.0091258770" flag="0"/>
    </comp>
    <comp name="--.HHZ">
      <acc value="0.2253108185" flag="0"/>
      <vel value="0.0647817933" flag="0"/>
      <psa03 value="0.2574023306" flag="0"/>
      <psa10 value="0.0558299949" flag="0"/>
      <psa30 value="0.0168007045" flag="0"/>
    </comp>
  </station>
</stationlist>
