<?xml version="1.0" encoding="UTF-8" standalone="yes"?>
<!DOCTYPE earthquake SYSTEM "stationlist.dtd">
<stationlist created="" xmlns="ch.ethz.sed.shakemap.usgs.xml">
  <station code="LMS2" name="LMS2" netid="HI" insttype="CMG-5TD,ACCELEROMETER,GURALP" commtype="DIG" lat="40.835" lon="21.1418">
    <comp name="--.HNE">
      <acc value="0.0926908979" flag="0"/>
      <vel value="0.0250245043" flag="0"/>
      <psa03 value="0.0832168483" flag="0"/>
      <psa10 value="0.0048727811" flag="0"/>
      <psa30 value="0.0004511010" flag="0"/>
    </comp>
    <comp name="--.HNN">
      <acc value="0.0998872630" flag="0"/>
      <vel value="0.0243564712" flag="0"/>
      <psa03 value="0.0545608443" flag="0"/>
      <psa10 value="0.0059333552" flag="0"/>
      <psa30 value="0.0006201433" flag="0"/>
    </comp>
  </station>
  <station code="KZN" name="KZN" netid="HL" insttype="120" commtype="DIG" lat="40.3033" lon="21.7821">
    <comp name="--.HHN">
      <acc value="0.0072964796" flag="0"/>
      <vel value="0.0034513600" flag="0"/>
      <psa03 value="0.0134006063" flag="0"/>
      <psa10 value="0.0033599927" flag="0"/>
      <psa30 value="0.0001960971" flag="0"/>
    </comp>
    <comp name="--.HHE">
      <acc value="0.0078831653" flag="0"/>
      <vel value="0.0036901510" flag="0"/>
      <psa03 value="0.0153881561" flag="0"/>
      <psa10 value="0.0044065559" flag="0"/>
      <psa30 value="0.0002399974" flag="0"/>
    </comp>
    <comp name="--.HHZ">
      <acc value="0.0034736445" flag="0"/>
      <vel value="0.0017579894" flag="0"/>
      <psa03 value="0.0080098548" flag="0"/>
      <psa10 value="0.0015656376" flag="0"/>
      <psa30 value="0.0001210720" flag="0"/>
    </comp>
  </station>
  <station code="PENT" name="PENT" netid="HL" insttype="Horizon,120s,1200" commtype="DIG" lat="40.1961" lon="21.1381">
    <comp name="--.HHE">
      <acc value="0.0069482590" flag="0"/>
      <vel value="0.0027043482" flag="0"/>
      <psa03 value="0.0142426086" flag="0"/>
      <psa10 value="0.0024688157" flag="0"/>
      <psa30 value="0.0003561045" flag="0"/>
    </comp>
    <comp name="--.HHN">
      <acc value="0.0078610820" flag="0"/>
      <vel value="0.0031494891" flag="0"/>
      <psa03 value="0.0197440799" flag="0"/>
      <psa10 value="0.0030074222" flag="0"/>
      <psa30 value="0.0003683147" flag="0"/>
    </comp>
    <comp name="--.HHZ">
      <acc value="0.0050037084" flag="0"/>
      <vel value="0.0022853768" flag="0"/>
      <psa03 value="0.0132046061" flag="0"/>
      <psa10 value="0.0019968193" flag="0"/>
      <psa30 value="0.0002865866" flag="0"/>
    </comp>
  </station>
  <station code="FLNA" name="FLNA" netid="HT" insttype="120" commtype="DIG" lat="40.7809" lon="21.3863">
    <comp name="--.HHE">
      <acc value="0.0202294364" flag="0"/>
      <vel value="0.0078603414" flag="0"/>
      <psa03 value="0.0426923217" flag="0"/>
      <psa10 value="0.0100004166" flag="0"/>
      <psa30 value="0.0003916654" flag="0"/>
    </comp>
    <comp name="--.HHN">
      <acc value="0.0177662466" flag="0"/>
      <vel value="0.0078758175" flag="0"/>
      <psa03 value="0.0461032161" flag="0"/>
      <psa10 value="0.0076917965" flag="0"/>
      <psa30 value="0.0003871671" flag="0"/>
    </comp>
    <comp name="--.HHZ">
      <acc value="0.0124432977" flag="0"/>
      <vel value="0.0040723509" flag="0"/>
      <psa03 value="0.0183621615" flag="0"/>
      <psa10 value="0.0036911182" flag="0"/>
      <psa30 value="0.0003178941" flag="0"/>
    </comp>
  </station>
  <station code="KPRO" name="KPRO" netid="HT" insttype="100" commtype="DIG" lat="39.9549" lon="21.3632">
    <comp name="--.HHE">
      <acc value="0.0095870081" flag="0"/>
      <vel value="0.0029093957" flag="0"/>
      <psa03 value="0.0184197850" flag="0"/>
      <psa10 value="0.0023294262" flag="0"/>
      <psa30 value="0.0005998590" flag="0"/>
    </comp>
    <comp name="--.HHN">
      <acc value="0.0052823462" flag="0"/>
      <vel value="0.0026260710" flag="0"/>
      <psa03 value="0.0167022288" flag="0"/>
      <psa10 value="0.0029675541" flag="0"/>
      <psa30 value="0.0004330761" flag="0"/>
    </comp>
    <comp name="--.HHZ">
      <acc value="0.0028285197" flag="0"/>
      <vel value="0.0017351719" flag="0"/>
      <psa03 value="0.0066505367" flag="0"/>
      <psa10 value="0.0021102608" flag="0"/>
      <psa30 value="0.0006223406" flag="0"/>
    </comp>
  </station>
  <station code="NEST" name="NEST" netid="HT" insttype="120P," commtype="DIG" lat="40.4147" lon="21.0489">
    <comp name="--.HHN">
      <acc value="0.0242021419" flag="0"/>
      <vel value="0.0083128520" flag="0"/>
      <psa03 value="0.0551096708" flag="0"/>
      <psa10 value="0.0043110492" flag="0"/>
      <psa30 value="0.0003931496" flag="0"/>
    </comp>
    <comp name="--.HHE">
      <acc value="0.0275804997" flag="0"/>
      <vel value="0.0078247965" flag="0"/>
      <psa03 value="0.0523087522" flag="0"/>
      <psa10 value="0.0060993184" flag="0"/>
      <psa30 value="0.0007198649" flag="0"/>
    </comp>
    <comp name="--.HHZ">
      <acc value="0.0280682040" flag="0"/>
      <vel value="0.0103008013" flag="0"/>
      <psa03 value="0.0426666883" flag="0"/>
      <psa10 value="0.0070508951" flag="0"/>
      <psa30 value="0.0011884993" flag="0"/>
    </comp>
  </station>
  <station code="DBR" name="DBR" netid="MA" insttype="CMG-5T;" commtype="DIG" lat="41.4947" lon="20.4986">
    <comp name="--.HNE">
      <acc value="0.0275041228" flag="0"/>
      <vel value="0.0110405461" flag="0"/>
      <psa03 value="0.0567536872" flag="0"/>
      <psa10 value="0.0095260354" flag="0"/>
      <psa30 value="0.0004148516" flag="0"/>
    </comp>
    <comp name="--.HNN">
      <acc value="0.0253488488" flag="0"/>
      <vel value="0.0094281265" flag="0"/>
      <psa03 value="0.0533595658" flag="0"/>
      <psa10 value="0.0061809576" flag="0"/>
      <psa30 value="0.0006827813" flag="0"/>
    </comp>
  </station>
  <station code="BIA" name="BIA" netid="MK" insttype="120" commtype="DIG" lat="41.032" lon="21.3304">
    <comp name="00.HHE">
      <acc value="0.0341570566" flag="0"/>
      <vel value="0.0132388036" flag="0"/>
      <psa03 value="0.0553872164" flag="0"/>
      <psa10 value="0.0068593402" flag="0"/>
      <psa30 value="0.0007941481" flag="0"/>
    </comp>
    <comp name="00.HHN">
      <acc value="0.0252469593" flag="0"/>
      <vel value="0.0072545407" flag="0"/>
      <psa03 value="0.0428045455" flag="0"/>
      <psa10 value="0.0064938710" flag="0"/>
      <psa30 value="0.0005623156" flag="0"/>
    </comp>
    <comp name="00.HHZ">
      <acc value="0.0160278365" flag="0"/>
      <vel value="0.0051064295" flag="0"/>
      <psa03 value="0.0180298518" flag="0"/>
      <psa10 value="0.0044464206" flag="0"/>
      <psa30 value="0.0003066983" flag="0"/>
    </comp>
  </station>
  <station code="OHR" name="OHR" netid="MK" insttype="120" commtype="DIG" lat="41.1117" lon="20.7924">
    <comp name="00.HHE">
      <acc value="0.0218280414" flag="0"/>
      <vel value="0.0161432690" flag="0"/>
      <psa03 value="0.0574035930" flag="0"/>
      <psa10 value="0.0136911825" flag="0"/>
      <psa30 value="0.0010154409" flag="0"/>
    </comp>
    <comp name="00.HHZ">
      <acc value="0.0172221299" flag="0"/>
      <vel value="0.0080958732" flag="0"/>
      <psa03 value="0.0287625766" flag="0"/>
      <psa10 value="0.0059317384" flag="0"/>
      <psa30 value="0.0003971078" flag="0"/>
    </comp>
    <comp name="00.HHN">
      <acc value="0.0242925623" flag="0"/>
      <vel value="0.0106055929" flag="0"/>
      <psa03 value="0.0408124579" flag="0"/>
      <psa10 value="0.0049217968" flag="0"/>
      <psa30 value="0.0007610196" flag="0"/>
    </comp>
  </station>
  <station code="ZUPA" name="ZUPA" netid="MK" insttype="120" commtype="DIG" lat="41.4796" lon="20.558">
    <comp name="00.HHE">
      <acc value="0.0000451509" flag="0"/>
      <vel value="0.0000178520" flag="0"/>
      <psa03 value="0.0002067516" flag="0"/>
      <psa10 value="0.0000040378" flag="0"/>
      <psa30 value="0.0000005202" flag="0"/>
    </comp>
    <comp name="00.HHZ">
      <acc value="0.0296512730" flag="0"/>
      <vel value="0.0083144866" flag="0"/>
      <psa03 value="0.0498198597" flag="0"/>
      <psa10 value="0.0080850399" flag="0"/>
      <psa30 value="0.0004226095" flag="0"/>
    </comp>
    <comp name="00.HHN">
      <acc value="0.0000450310" flag="0"/>
      <vel value="0.0000184312" flag="0"/>
      <psa03 value="0.0002176782" flag="0"/>
      <psa10 value="0.0000042545" flag="0"/>
      <psa30 value="0.0000006680" flag="0"/>
    </comp>
  </station>
  <station code="TIR" name="TIR" netid="MN" insttype="" commtype="DIG" lat="41.3472" lon="19.8631">
    <comp name="--.HHE">
      <acc value="0.0112799873" flag="0"/>
      <vel value="0.0053411720" flag="0"/>
      <psa03 value="0.0244752288" flag="0"/>
      <psa10 value="0.0063932945" flag="0"/>
      <psa30 value="0.0005775979" flag="0"/>
    </comp>
    <comp name="--.HHZ">
      <acc value="0.0090223972" flag="0"/>
      <vel value="0.0028658847" flag="0"/>
      <psa03 value="0.0179418078" flag="0"/>
      <psa10 value="0.0051053726" flag="0"/>
      <psa30 value="0.0007159726" flag="0"/>
    </comp>
    <comp name="--.HHN">
      <acc value="0.0100558479" flag="0"/>
      <vel value="0.0057384301" flag="0"/>
      <psa03 value="0.0176812487" flag="0"/>
      <psa10 value="0.0072644938" flag="0"/>
      <psa30 value="0.0007722573" flag="0"/>
    </comp>
  </station>
</stationlist>
