<?xml version="1.0" encoding="UTF-8" standalone="yes"?>
<!DOCTYPE earthquake SYSTEM "stationlist.dtd">
<stationlist created="" xmlns="ch.ethz.sed.shakemap.usgs.xml">
  <station code="AMRR" name="AMRR" netid="RO" insttype="330" lat="44.6102" lon="27.3351">
    <comp name="--.HHE">
      <acc value="0.0164338258" flag="0"/>
      <vel value="0.0038464632" flag="0"/>
      <psa03 value="0.0162873719" flag="0"/>
      <psa10 value="0.0006640624" flag="0"/>
      <psa30 value="0.0001149833" flag="0"/>
    </comp>
    <comp name="--.HHN">
      <acc value="0.0208344525" flag="0"/>
      <vel value="0.0043077848" flag="0"/>
      <psa03 value="0.0161191166" flag="0"/>
      <psa10 value="0.0012777594" flag="0"/>
      <psa30 value="0.0000909111" flag="0"/>
    </comp>
    <comp name="--.HHZ">
      <acc value="0.0149159626" flag="0"/>
      <vel value="0.0022467124" flag="0"/>
      <psa03 value="0.0094397483" flag="0"/>
      <psa10 value="0.0007365846" flag="0"/>
      <psa30 value="0.0000861690" flag="0"/>
    </comp>
  </station>
  <station code="ARR" name="ARR" netid="RO" insttype="w/attenuator" lat="45.3657" lon="24.6332">
    <comp name="--.HHN">
      <acc value="0.0029530880" flag="0"/>
      <vel value="0.0011442049" flag="0"/>
      <psa03 value="0.0071470239" flag="0"/>
      <psa10 value="0.0003689481" flag="0"/>
      <psa30 value="0.0000584883" flag="0"/>
    </comp>
    <comp name="--.HHZ">
      <acc value="0.0022726905" flag="0"/>
      <vel value="0.0004927401" flag="0"/>
      <psa03 value="0.0025244593" flag="0"/>
      <psa10 value="0.0001792528" flag="0"/>
      <psa30 value="0.0000282071" flag="0"/>
    </comp>
  </station>
  <station code="DOPR" name="DOPR" netid="RO" insttype="330" lat="45.9675" lon="25.3886">
    <comp name="--.HHN">
      <acc value="0.0031297446" flag="0"/>
      <vel value="0.0007911328" flag="0"/>
      <psa03 value="0.0040738844" flag="0"/>
      <psa10 value="0.0008342922" flag="0"/>
      <psa30 value="0.0000644564" flag="0"/>
    </comp>
    <comp name="--.HHE">
      <acc value="0.0037528552" flag="0"/>
      <vel value="0.0009591383" flag="0"/>
      <psa03 value="0.0049457323" flag="0"/>
      <psa10 value="0.0006798504" flag="0"/>
      <psa30 value="0.0000703824" flag="0"/>
    </comp>
    <comp name="--.HHZ">
      <acc value="0.0032417904" flag="0"/>
      <vel value="0.0004826066" flag="0"/>
      <psa03 value="0.0017583253" flag="0"/>
      <psa10 value="0.0003713288" flag="0"/>
      <psa30 value="0.0000382063" flag="0"/>
    </comp>
  </station>
  <station code="INCR" name="INCR" netid="RO" insttype="200" lat="44.441" lon="26.1611">
    <comp name="--.HNN">
      <acc value="0.0160965461" flag="0"/>
      <vel value="0.0052230285" flag="0"/>
      <psa03 value="0.0251336953" flag="0"/>
      <psa10 value="0.0034032275" flag="0"/>
      <psa30 value="0.0002150382" flag="0"/>
    </comp>
    <comp name="--.HNE">
      <acc value="0.0173262780" flag="0"/>
      <vel value="0.0074872059" flag="0"/>
      <psa03 value="0.0354986094" flag="0"/>
      <psa10 value="0.0034673614" flag="0"/>
      <psa30 value="0.0003251913" flag="0"/>
    </comp>
    <comp name="--.HNZ">
      <acc value="0.0289471773" flag="0"/>
      <vel value="0.0048245925" flag="0"/>
      <psa03 value="0.0115048299" flag="0"/>
      <psa10 value="0.0005910383" flag="0"/>
      <psa30 value="0.0001574572" flag="0"/>
    </comp>
  </station>
  <station code="IZVR" name="IZVR" netid="RO" insttype="CMG40T.1to100/Quanterra" lat="45.5442" lon="27.7655">
    <comp name="--.HHE">
      <acc value="0.0472686665" flag="0"/>
      <vel value="0.0094409372" flag="0"/>
      <psa03 value="0.0147938099" flag="0"/>
      <psa10 value="0.0014886408" flag="0"/>
      <psa30 value="0.0000964564" flag="0"/>
    </comp>
    <comp name="--.HHZ">
      <acc value="0.0235147159" flag="0"/>
      <vel value="0.0027178592" flag="0"/>
      <psa03 value="0.0090314026" flag="0"/>
      <psa10 value="0.0003914785" flag="0"/>
      <psa30 value="0.0000363853" flag="0"/>
    </comp>
    <comp name="--.HHN">
      <acc value="0.0394006570" flag="0"/>
      <vel value="0.0083186800" flag="0"/>
      <psa03 value="0.0313207247" flag="0"/>
      <psa10 value="0.0014863792" flag="0"/>
      <psa30 value="0.0001198969" flag="0"/>
    </comp>
  </station>
  <station code="LEHL" name="LEHL" netid="RO" insttype="Seismometer/Basalt" lat="44.4739" lon="26.8194">
    <comp name="--.HHE">
      <acc value="0.0064978882" flag="0"/>
      <vel value="0.0019267529" flag="0"/>
      <psa03 value="0.0123398194" flag="0"/>
      <psa10 value="0.0010253418" flag="0"/>
      <psa30 value="0.0000801345" flag="0"/>
    </comp>
    <comp name="--.HHZ">
      <acc value="0.0149937669" flag="0"/>
      <vel value="0.0012181427" flag="0"/>
      <psa03 value="0.0030711643" flag="0"/>
      <psa10 value="0.0001791252" flag="0"/>
      <psa30 value="0.0000244414" flag="0"/>
    </comp>
    <comp name="--.HHN">
      <acc value="0.0081154089" flag="0"/>
      <vel value="0.0021610167" flag="0"/>
      <psa03 value="0.0117956472" flag="0"/>
      <psa10 value="0.0005878671" flag="0"/>
      <psa30 value="0.0000482485" flag="0"/>
    </comp>
  </station>
  <station code="MLR" name="MLR" netid="RO" insttype="330HR" lat="45.4909" lon="25.945">
    <comp name="--.HHZ">
      <acc value="0.0037306407" flag="0"/>
      <vel value="0.0020559646" flag="0"/>
      <psa03 value="0.0117817271" flag="0"/>
      <psa10 value="0.0013281310" flag="0"/>
      <psa30 value="0.0000870100" flag="0"/>
    </comp>
    <comp name="--.HHN">
      <acc value="0.0057674409" flag="0"/>
      <vel value="0.0025166175" flag="0"/>
      <psa03 value="0.0128037450" flag="0"/>
      <psa10 value="0.0023625167" flag="0"/>
      <psa30 value="0.0001982754" flag="0"/>
    </comp>
    <comp name="--.HHE">
      <acc value="0.0048607678" flag="0"/>
      <vel value="0.0022143358" flag="0"/>
      <psa03 value="0.0158270147" flag="0"/>
      <psa10 value="0.0010311086" flag="0"/>
      <psa30 value="0.0002183899" flag="0"/>
    </comp>
  </station>
  <station code="NEHR" name="NEHR" netid="RO" insttype="Seismometer/Basalt" lat="45.4272" lon="26.2952">
    <comp name="--.HHZ">
      <acc value="0.0102064531" flag="0"/>
      <vel value="0.0030654886" flag="0"/>
      <psa03 value="0.0197335103" flag="0"/>
      <psa10 value="0.0009496552" flag="0"/>
      <psa30 value="0.0000873901" flag="0"/>
    </comp>
    <comp name="--.HHE">
      <acc value="0.0171036694" flag="0"/>
      <vel value="0.0042109180" flag="0"/>
      <psa03 value="0.0354841660" flag="0"/>
      <psa10 value="0.0031795929" flag="0"/>
      <psa30 value="0.0001870332" flag="0"/>
    </comp>
    <comp name="--.HHN">
      <acc value="0.0135230621" flag="0"/>
      <vel value="0.0057905620" flag="0"/>
      <psa03 value="0.0282711863" flag="0"/>
      <psa10 value="0.0024875485" flag="0"/>
      <psa30 value="0.0001840901" flag="0"/>
    </comp>
  </station>
  <station code="ODBI" name="ODBI" netid="RO" insttype="PBB.1to100/Quanterra" lat="45.7633" lon="27.0558">
    <comp name="--.HHE">
      <acc value="0.1335492827" flag="0"/>
      <vel value="0.0237104216" flag="0"/>
      <psa03 value="0.1100541662" flag="0"/>
      <psa10 value="0.0042127992" flag="0"/>
      <psa30 value="0.0004421275" flag="0"/>
    </comp>
    <comp name="--.HHZ">
      <acc value="0.0389136151" flag="0"/>
      <vel value="0.0053867284" flag="0"/>
      <psa03 value="0.0239769550" flag="0"/>
      <psa10 value="0.0012011543" flag="0"/>
      <psa30 value="0.0001269093" flag="0"/>
    </comp>
    <comp name="--.HHN">
      <acc value="0.1935537428" flag="0"/>
      <vel value="0.0352344288" flag="0"/>
      <psa03 value="0.0926702465" flag="0"/>
      <psa10 value="0.0100920557" flag="0"/>
      <psa30 value="0.0006488377" flag="0"/>
    </comp>
  </station>
  <station code="PANC" name="PANC" netid="RO" insttype="Seismometer/Basalt" lat="45.8723" lon="27.1477">
    <comp name="--.HHE">
      <acc value="0.1063285457" flag="0"/>
      <vel value="0.0257673669" flag="0"/>
      <psa03 value="0.0735528553" flag="0"/>
      <psa10 value="0.0025031621" flag="0"/>
      <psa30 value="0.0003027580" flag="0"/>
    </comp>
    <comp name="--.HHN">
      <acc value="0.0726818674" flag="0"/>
      <vel value="0.0123724571" flag="0"/>
      <psa03 value="0.0222683897" flag="0"/>
      <psa10 value="0.0173524385" flag="0"/>
      <psa30 value="0.0029386147" flag="0"/>
    </comp>
    <comp name="--.HHZ">
      <acc value="0.0757674866" flag="0"/>
      <vel value="0.0093836071" flag="0"/>
      <psa03 value="0.0221955651" flag="0"/>
      <psa10 value="0.0013526320" flag="0"/>
      <psa30 value="0.0001060580" flag="0"/>
    </comp>
  </station>
  <station code="PGOR" name="PGOR" netid="RO" insttype="CMG40T.1to100/Quanterra" lat="44.9199" lon="26.9768">
    <comp name="--.HHZ">
      <acc value="0.0589385816" flag="0"/>
      <vel value="0.0061983275" flag="0"/>
      <psa03 value="0.0201343995" flag="0"/>
      <psa10 value="0.0012013814" flag="0"/>
      <psa30 value="0.0001316720" flag="0"/>
    </comp>
    <comp name="--.HHE">
      <acc value="0.0197608114" flag="0"/>
      <vel value="0.0055750248" flag="0"/>
      <psa03 value="0.0263673313" flag="0"/>
      <psa10 value="0.0030923517" flag="0"/>
      <psa30 value="0.0001775770" flag="0"/>
    </comp>
    <comp name="--.HHN">
      <acc value="0.0234123018" flag="0"/>
      <vel value="0.0062578920" flag="0"/>
      <psa03 value="0.0259451191" flag="0"/>
      <psa10 value="0.0018603706" flag="0"/>
      <psa30 value="0.0001339788" flag="0"/>
    </comp>
  </station>
  <station code="PLAR" name="PLAR" netid="RO" insttype="200" lat="44.9142" lon="26.0274">
    <comp name="--.HNE">
      <acc value="0.0224201897" flag="0"/>
      <vel value="0.0106441813" flag="0"/>
      <psa03 value="0.0185811950" flag="0"/>
      <psa10 value="0.0051946607" flag="0"/>
      <psa30 value="0.0003590872" flag="0"/>
    </comp>
    <comp name="--.HNN">
      <acc value="0.0184940303" flag="0"/>
      <vel value="0.0050306041" flag="0"/>
      <psa03 value="0.0290446238" flag="0"/>
      <psa10 value="0.0023822753" flag="0"/>
      <psa30 value="0.0001612141" flag="0"/>
    </comp>
    <comp name="--.HNZ">
      <acc value="0.0249201857" flag="0"/>
      <vel value="0.0030479719" flag="0"/>
      <psa03 value="0.0109674236" flag="0"/>
      <psa10 value="0.0008670820" flag="0"/>
      <psa30 value="0.0000844329" flag="0"/>
    </comp>
  </station>
  <station code="PLOR" name="PLOR" netid="RO" insttype="330" lat="45.8512" lon="26.6498">
    <comp name="--.HHN">
      <acc value="0.0056072361" flag="0"/>
      <vel value="0.0024740707" flag="0"/>
      <psa03 value="0.0087863040" flag="0"/>
      <psa10 value="0.0007164351" flag="0"/>
      <psa30 value="0.0000620265" flag="0"/>
    </comp>
    <comp name="--.HHZ">
      <acc value="0.0025821487" flag="0"/>
      <vel value="0.0007208858" flag="0"/>
      <psa03 value="0.0050838048" flag="0"/>
      <psa10 value="0.0002828540" flag="0"/>
      <psa30 value="0.0000219954" flag="0"/>
    </comp>
    <comp name="--.HHE">
      <acc value="0.0048960265" flag="0"/>
      <vel value="0.0016251753" flag="0"/>
      <psa03 value="0.0112591608" flag="0"/>
      <psa10 value="0.0006381393" flag="0"/>
      <psa30 value="0.0000453245" flag="0"/>
    </comp>
  </station>
  <station code="PLOR4" name="PLOR4" netid="RO" insttype="330" lat="45.8512" lon="26.6498">
    <comp name="--.HHE">
      <acc value="0.0048960265" flag="0"/>
      <vel value="0.0016251753" flag="0"/>
      <psa03 value="0.0112591608" flag="0"/>
      <psa10 value="0.0006381393" flag="0"/>
      <psa30 value="0.0000453245" flag="0"/>
    </comp>
    <comp name="--.HHN">
      <acc value="0.0056072361" flag="0"/>
      <vel value="0.0024740707" flag="0"/>
      <psa03 value="0.0087863040" flag="0"/>
      <psa10 value="0.0007164351" flag="0"/>
      <psa30 value="0.0000620265" flag="0"/>
    </comp>
    <comp name="--.HHZ">
      <acc value="0.0025821487" flag="0"/>
      <vel value="0.0007208858" flag="0"/>
      <psa03 value="0.0050838048" flag="0"/>
      <psa10 value="0.0002828540" flag="0"/>
      <psa30 value="0.0000219954" flag="0"/>
    </comp>
  </station>
  <station code="SAHR" name="SAHR" netid="RO" insttype="Seismometer/Basalt" lat="45.7266" lon="26.6855">
    <comp name="--.HHE">
      <acc value="0.1197177053" flag="0"/>
      <vel value="0.0075422758" flag="0"/>
      <psa03 value="0.0417107748" flag="0"/>
      <psa10 value="0.0033287181" flag="0"/>
      <psa30 value="0.0002034934" flag="0"/>
    </comp>
    <comp name="--.HHN">
      <acc value="0.1013082000" flag="0"/>
      <vel value="0.0077749986" flag="0"/>
      <psa03 value="0.0426370397" flag="0"/>
      <psa10 value="0.0032417067" flag="0"/>
      <psa30 value="0.0001486547" flag="0"/>
    </comp>
    <comp name="--.HHZ">
      <acc value="0.0324281592" flag="0"/>
      <vel value="0.0036932058" flag="0"/>
      <psa03 value="0.0198908348" flag="0"/>
      <psa10 value="0.0015987062" flag="0"/>
      <psa30 value="0.0001094163" flag="0"/>
    </comp>
  </station>
  <station code="SULR" name="SULR" netid="RO" insttype="330" lat="44.6777" lon="26.2526">
    <comp name="--.HHN">
      <acc value="0.0354572895" flag="0"/>
      <vel value="0.0090261358" flag="0"/>
      <psa03 value="0.0479031308" flag="0"/>
      <psa10 value="0.0029432224" flag="0"/>
      <psa30 value="0.0002841310" flag="0"/>
    </comp>
    <comp name="--.HHE">
      <acc value="0.0580066419" flag="0"/>
      <vel value="0.0194818041" flag="0"/>
      <psa03 value="0.0653563828" flag="0"/>
      <psa10 value="0.0060319248" flag="0"/>
      <psa30 value="0.0004867326" flag="0"/>
    </comp>
    <comp name="--.HHZ">
      <acc value="0.0339541109" flag="0"/>
      <vel value="0.0084962458" flag="0"/>
      <psa03 value="0.0228874962" flag="0"/>
      <psa10 value="0.0011500941" flag="0"/>
      <psa30 value="0.0000979548" flag="0"/>
    </comp>
  </station>
  <station code="TUDR" name="TUDR" netid="RO" insttype="CMG40T.1to100/Quanterra" lat="45.5939" lon="27.6687">
    <comp name="--.HHE">
      <acc value="0.0847317609" flag="0"/>
      <vel value="0.0177301465" flag="0"/>
      <psa03 value="0.0517193780" flag="0"/>
      <psa10 value="0.0028425272" flag="0"/>
      <psa30 value="0.0002834608" flag="0"/>
    </comp>
    <comp name="--.HHN">
      <acc value="0.0721711529" flag="0"/>
      <vel value="0.0177741374" flag="0"/>
      <psa03 value="0.0441117937" flag="0"/>
      <psa10 value="0.0026103706" flag="0"/>
      <psa30 value="0.0002505704" flag="0"/>
    </comp>
    <comp name="--.HHZ">
      <acc value="0.0915621462" flag="0"/>
      <vel value="0.0110833065" flag="0"/>
      <psa03 value="0.0236270174" flag="0"/>
      <psa10 value="0.0009888654" flag="0"/>
      <psa30 value="0.0001201080" flag="0"/>
    </comp>
  </station>
  <station code="VOIR" name="VOIR" netid="RO" insttype="330" lat="45.4371" lon="25.0495">
    <comp name="--.HHE">
      <acc value="0.0045657412" flag="0"/>
      <vel value="0.0016070682" flag="0"/>
      <psa03 value="0.0088162865" flag="0"/>
      <psa10 value="0.0008730594" flag="0"/>
      <psa30 value="0.0000648079" flag="0"/>
    </comp>
    <comp name="--.HHZ">
      <acc value="0.0020612234" flag="0"/>
      <vel value="0.0007027022" flag="0"/>
      <psa03 value="0.0043866722" flag="0"/>
      <psa10 value="0.0005633211" flag="0"/>
      <psa30 value="0.0000305640" flag="0"/>
    </comp>
    <comp name="--.HHN">
      <acc value="0.0032044561" flag="0"/>
      <vel value="0.0010630115" flag="0"/>
      <psa03 value="0.0078533379" flag="0"/>
      <psa10 value="0.0003248910" flag="0"/>
      <psa30 value="0.0000341284" flag="0"/>
    </comp>
  </station>
  <station code="VRI" name="VRI" netid="RO" insttype="Linear" lat="45.8657" lon="26.7277">
    <comp name="--.HHN">
      <acc value="0.0107393145" flag="0"/>
      <vel value="0.0039081278" flag="0"/>
      <psa03 value="0.0238083460" flag="0"/>
      <psa10 value="0.0013085365" flag="0"/>
      <psa30 value="0.0001196875" flag="0"/>
    </comp>
    <comp name="--.HHE">
      <acc value="0.0214682090" flag="0"/>
      <vel value="0.0061130366" flag="0"/>
      <psa03 value="0.0393614117" flag="0"/>
      <psa10 value="0.0020138103" flag="0"/>
      <psa30 value="0.0001432185" flag="0"/>
    </comp>
    <comp name="--.HHZ">
      <acc value="0.0069193758" flag="0"/>
      <vel value="0.0016296938" flag="0"/>
      <psa03 value="0.0084522425" flag="0"/>
      <psa10 value="0.0006527169" flag="0"/>
      <psa30 value="0.0000433220" flag="0"/>
    </comp>
  </station>
</stationlist>
