<?xml version="1.0" encoding="UTF-8" standalone="yes"?>
<!DOCTYPE earthquake SYSTEM "stationlist.dtd">
<stationlist created="" xmlns="ch.ethz.sed.shakemap.usgs.xml">
  <station code="BNN" name="BNN" netid="KO" insttype="CMG-3T" lat="38.8521" lon="35.8472">
    <comp name="--.HHE">
      <acc value="0.1304448305" flag="0"/>
      <vel value="0.1137188957" flag="0"/>
      <psa03 value="0.2242977490" flag="0"/>
      <psa10 value="0.2206098699" flag="0"/>
      <psa30 value="0.0155989038" flag="0"/>
    </comp>
  </station>
  <station code="CEYT" name="CEYT" netid="KO" insttype="CMG-3ESP" lat="37.0105" lon="35.7478">
    <comp name="--.HHN">
      <acc value="0.0337659274" flag="0"/>
      <vel value="0.0393748285" flag="0"/>
      <psa03 value="0.1409863247" flag="0"/>
      <psa10 value="0.0506797333" flag="0"/>
      <psa30 value="0.0101704508" flag="0"/>
    </comp>
    <comp name="--.HHE">
      <acc value="0.0468563279" flag="0"/>
      <vel value="0.0653061365" flag="0"/>
      <psa03 value="0.1694590394" flag="0"/>
      <psa10 value="0.0537947369" flag="0"/>
      <psa30 value="0.0205783893" flag="0"/>
    </comp>
    <comp name="--.HHZ">
      <acc value="0.0222679232" flag="0"/>
      <vel value="0.0247348007" flag="0"/>
      <psa03 value="0.0652356279" flag="0"/>
      <psa10 value="0.0353946074" flag="0"/>
      <psa30 value="0.0105013582" flag="0"/>
    </comp>
  </station>
  <station code="CMRD" name="CMRD" netid="KO" insttype="CMG-5T" lat="37.6623" lon="34.9902">
    <comp name="--.HNE">
      <acc value="0.0459345389" flag="0"/>
      <vel value="0.0430798708" flag="0"/>
      <psa03 value="0.1370815849" flag="0"/>
      <psa10 value="0.0779084203" flag="0"/>
      <psa30 value="0.0061764033" flag="0"/>
    </comp>
    <comp name="--.HNZ">
      <acc value="0.0282856043" flag="0"/>
      <vel value="0.0323348214" flag="0"/>
      <psa03 value="0.0693915081" flag="0"/>
      <psa10 value="0.0513281466" flag="0"/>
      <psa30 value="0.0075284659" flag="0"/>
    </comp>
    <comp name="--.HNN">
      <acc value="0.0676022009" flag="0"/>
      <vel value="0.0674516631" flag="0"/>
      <psa03 value="0.1637801658" flag="0"/>
      <psa10 value="0.0790389985" flag="0"/>
      <psa30 value="0.0124781185" flag="0"/>
    </comp>
  </station>
  <station code="DARE" name="DARE" netid="KO" insttype="CMG-3ESP" lat="38.5712" lon="37.4832">
    <comp name="--.HHE">
      <acc value="0.0756660339" flag="0"/>
      <vel value="0.0574386169" flag="0"/>
      <psa03 value="0.1926790017" flag="0"/>
      <psa10 value="0.0656857851" flag="0"/>
      <psa30 value="0.0060017422" flag="0"/>
    </comp>
  </station>
  <station code="GAZ" name="GAZ" netid="KO" insttype="CMG-3T" lat="37.1721" lon="37.2096">
    <comp name="--.HHZ">
      <acc value="0.1135191212" flag="0"/>
      <vel value="0.0720508594" flag="0"/>
      <psa03 value="0.1564693340" flag="0"/>
      <psa10 value="0.0727191513" flag="0"/>
      <psa30 value="0.0098700722" flag="0"/>
    </comp>
    <comp name="--.HHN">
      <acc value="0.1318256306" flag="0"/>
      <vel value="0.1272290130" flag="0"/>
      <psa03 value="0.2430336954" flag="0"/>
      <psa10 value="0.1707733937" flag="0"/>
      <psa30 value="0.0225924697" flag="0"/>
    </comp>
  </station>
  <station code="KMRS" name="KMRS" netid="KO" insttype="CMG-3T" lat="37.5053" lon="36.9">
    <comp name="--.HHZ">
      <acc value="0.1377930599" flag="0"/>
      <vel value="0.0757319216" flag="0"/>
      <psa03 value="0.4067336449" flag="0"/>
      <psa10 value="0.0560648136" flag="0"/>
      <psa30 value="0.0094931805" flag="0"/>
    </comp>
    <comp name="--.HHE">
      <acc value="0.2445211405" flag="0"/>
      <vel value="0.2086775013" flag="0"/>
      <psa03 value="0.4189952601" flag="0"/>
      <psa10 value="0.1658394658" flag="0"/>
      <psa30 value="0.0240645505" flag="0"/>
    </comp>
    <comp name="--.HHN">
      <acc value="0.2937962457" flag="0"/>
      <vel value="0.1671119251" flag="0"/>
      <psa03 value="0.8674220828" flag="0"/>
      <psa10 value="0.1180886218" flag="0"/>
      <psa30 value="0.0229844121" flag="0"/>
    </comp>
  </station>
  <station code="ANDN" name="ANDN" netid="TU" insttype="T" lat="37.58" lon="36.3452">
    <comp name="--.HHZ">
      <acc value="0.3789995917" flag="0"/>
      <vel value="0.3223382041" flag="0"/>
      <psa03 value="1.1547478498" flag="0"/>
      <psa10 value="0.3207371138" flag="0"/>
      <psa30 value="0.0298112695" flag="0"/>
    </comp>
    <comp name="--.HHN">
      <acc value="1.2053219658" flag="0"/>
      <vel value="0.5649580897" flag="0"/>
      <psa03 value="3.0911657815" flag="0"/>
      <psa10 value="0.5034719508" flag="0"/>
      <psa30 value="0.0450785023" flag="0"/>
    </comp>
    <comp name="--.HHE">
      <acc value="0.8792034928" flag="0"/>
      <vel value="0.4927690002" flag="0"/>
      <psa03 value="1.6225636638" flag="0"/>
      <psa10 value="0.3076302028" flag="0"/>
      <psa30 value="0.0916367303" flag="0"/>
    </comp>
  </station>
</stationlist>
