<?xml version="1.0" encoding="UTF-8" standalone="yes"?>
<!DOCTYPE earthquake SYSTEM "stationlist.dtd">
<stationlist created="" xmlns="ch.ethz.sed.shakemap.usgs.xml">
  <station code="BNN" name="BNN" netid="KO" insttype="CMG-3T" lat="38.8521" lon="35.8472">
    <comp name="--.HHE">
      <acc value="0.1306894600" flag="0"/>
      <vel value="0.1115434586" flag="0"/>
      <psa03 value="0.2249678747" flag="0"/>
      <psa10 value="0.2199995756" flag="0"/>
      <psa30 value="0.0123323201" flag="0"/>
    </comp>
    <comp name="--.HHZ">
      <acc value="0.1357758995" flag="0"/>
      <vel value="0.0389838856" flag="0"/>
      <psa03 value="0.0926292353" flag="0"/>
      <psa10 value="0.0928631757" flag="0"/>
      <psa30 value="0.0044052017" flag="0"/>
    </comp>
    <comp name="--.HHN">
      <acc value="0.4742149191" flag="0"/>
      <vel value="0.1030193381" flag="0"/>
      <psa03 value="0.1791733334" flag="0"/>
      <psa10 value="0.1469865765" flag="0"/>
      <psa30 value="0.0149189891" flag="0"/>
    </comp>
  </station>
  <station code="CEYT" name="CEYT" netid="KO" insttype="CMG-3ESP" lat="37.0105" lon="35.7478">
    <comp name="--.HHE">
      <acc value="0.0468541421" flag="0"/>
      <vel value="0.0630415468" flag="0"/>
      <psa03 value="0.1694388966" flag="0"/>
      <psa10 value="0.0540464620" flag="0"/>
      <psa30 value="0.0187831932" flag="0"/>
    </comp>
    <comp name="--.HHN">
      <acc value="0.0336799471" flag="0"/>
      <vel value="0.0389854012" flag="0"/>
      <psa03 value="0.1409188435" flag="0"/>
      <psa10 value="0.0498052812" flag="0"/>
      <psa30 value="0.0078625534" flag="0"/>
    </comp>
    <comp name="--.HHZ">
      <acc value="0.0224545899" flag="0"/>
      <vel value="0.0253197539" flag="0"/>
      <psa03 value="0.0654318421" flag="0"/>
      <psa10 value="0.0355382192" flag="0"/>
      <psa30 value="0.0092069773" flag="0"/>
    </comp>
  </station>
  <station code="CMRD" name="CMRD" netid="KO" insttype="CMG-5T" lat="37.6623" lon="34.9902">
    <comp name="--.HNE">
      <acc value="0.0457685888" flag="0"/>
      <vel value="0.0419423501" flag="0"/>
      <psa03 value="0.1370206666" flag="0"/>
      <psa10 value="0.0777611499" flag="0"/>
      <psa30 value="0.0056687762" flag="0"/>
    </comp>
    <comp name="--.HNN">
      <acc value="0.0673079828" flag="0"/>
      <vel value="0.0630330825" flag="0"/>
      <psa03 value="0.1643135309" flag="0"/>
      <psa10 value="0.0785477171" flag="0"/>
      <psa30 value="0.0106858082" flag="0"/>
    </comp>
    <comp name="--.HNZ">
      <acc value="0.0284610614" flag="0"/>
      <vel value="0.0311507119" flag="0"/>
      <psa03 value="0.0692899893" flag="0"/>
      <psa10 value="0.0514126660" flag="0"/>
      <psa30 value="0.0069805306" flag="0"/>
    </comp>
  </station>
  <station code="DARE" name="DARE" netid="KO" insttype="CMG-3ESP" lat="38.5712" lon="37.4832">
    <comp name="--.HHE">
      <acc value="0.0755707494" flag="0"/>
      <vel value="0.0560356828" flag="0"/>
      <psa03 value="0.1925236270" flag="0"/>
      <psa10 value="0.0658063397" flag="0"/>
      <psa30 value="0.0052754089" flag="0"/>
    </comp>
    <comp name="--.HHZ">
      <acc value="0.0662970058" flag="0"/>
      <vel value="0.0378076774" flag="0"/>
      <psa03 value="0.1511593526" flag="0"/>
      <psa10 value="0.0457201960" flag="0"/>
      <psa30 value="0.0044009530" flag="0"/>
    </comp>
  </station>
  <station code="GAZ" name="GAZ" netid="KO" insttype="CMG-3T" lat="37.1721" lon="37.2096">
    <comp name="--.HHN">
      <acc value="0.1316422256" flag="0"/>
      <vel value="0.1281483146" flag="0"/>
      <psa03 value="0.2424065001" flag="0"/>
      <psa10 value="0.1713625137" flag="0"/>
      <psa30 value="0.0223470283" flag="0"/>
    </comp>
    <comp name="--.HHZ">
      <acc value="0.1133414939" flag="0"/>
      <vel value="0.0754280339" flag="0"/>
      <psa03 value="0.1566337559" flag="0"/>
      <psa10 value="0.0732508463" flag="0"/>
      <psa30 value="0.0092492431" flag="0"/>
    </comp>
  </station>
  <station code="KMRS" name="KMRS" netid="KO" insttype="CMG-3T" lat="37.5053" lon="36.9">
    <comp name="--.HHZ">
      <acc value="0.1375728795" flag="0"/>
      <vel value="0.0799695160" flag="0"/>
      <psa03 value="0.4071975764" flag="0"/>
      <psa10 value="0.0556093625" flag="0"/>
      <psa30 value="0.0080019232" flag="0"/>
    </comp>
    <comp name="--.HHE">
      <acc value="0.2447484578" flag="0"/>
      <vel value="0.2065996081" flag="0"/>
      <psa03 value="0.4185915428" flag="0"/>
      <psa10 value="0.1656026885" flag="0"/>
      <psa30 value="0.0210171693" flag="0"/>
    </comp>
    <comp name="--.HHN">
      <acc value="0.2934609321" flag="0"/>
      <vel value="0.1627114701" flag="0"/>
      <psa03 value="0.8676254466" flag="0"/>
      <psa10 value="0.1182371199" flag="0"/>
      <psa30 value="0.0195361778" flag="0"/>
    </comp>
  </station>
  <station code="ANDN" name="ANDN" netid="TU" insttype="T" lat="37.58" lon="36.3452">
    <comp name="--.HHZ">
      <acc value="0.3792087173" flag="0"/>
      <vel value="0.3163321305" flag="0"/>
      <psa03 value="1.1532390344" flag="0"/>
      <psa10 value="0.3197030111" flag="0"/>
      <psa30 value="0.0289385194" flag="0"/>
    </comp>
    <comp name="--.HHE">
      <acc value="0.8795831091" flag="0"/>
      <vel value="0.4968066871" flag="0"/>
      <psa03 value="1.6216607355" flag="0"/>
      <psa10 value="0.3072171316" flag="0"/>
      <psa30 value="0.0885893434" flag="0"/>
    </comp>
    <comp name="--.HHN">
      <acc value="1.2064301384" flag="0"/>
      <vel value="0.5681352694" flag="0"/>
      <psa03 value="3.0899773707" flag="0"/>
      <psa10 value="0.5046869775" flag="0"/>
      <psa30 value="0.0422859620" flag="0"/>
    </comp>
  </station>
</stationlist>
