<?xml version="1.0" encoding="UTF-8" standalone="yes"?>
<!DOCTYPE earthquake SYSTEM "stationlist.dtd">
<stationlist created="" xmlns="ch.ethz.sed.shakemap.usgs.xml">
  <station code="PDG" name="PDG" netid="MN" insttype="" lat="42.4297" lon="19.2608">
    <comp name="--.HHZ">
      <acc value="0.0975670010" flag="0"/>
      <vel value="0.0357546182" flag="0"/>
      <psa03 value="0.1529593572" flag="0"/>
      <psa10 value="0.0247190648" flag="0"/>
      <psa30 value="0.0026437972" flag="0"/>
    </comp>
    <comp name="--.HHE">
      <acc value="0.1157156834" flag="0"/>
      <vel value="0.0441919631" flag="0"/>
      <psa03 value="0.2738658286" flag="0"/>
      <psa10 value="0.0410076139" flag="0"/>
      <psa30 value="0.0034278939" flag="0"/>
    </comp>
    <comp name="--.HHN">
      <acc value="0.1341180071" flag="0"/>
      <vel value="0.0486094071" flag="0"/>
      <psa03 value="0.2404974883" flag="0"/>
      <psa10 value="0.0296929371" flag="0"/>
      <psa30 value="0.0041809680" flag="0"/>
    </comp>
  </station>
</stationlist>
