<stationlist created="1778138846">
	<station code="BLY" name="BLY" netid="MN" source="Mediterranean Very Broadband Seismographic Network (MedNet)" insttype="" lat="44.7488" lon="17.1839">
		<comp name="--.HNE" depth="1.0">
			<acc value="0.0371486657550995" flag="0"/>
			<vel value="0.0290548634132723" flag="0"/>
			<psa03 value="0.157476411205861" flag="0"/>
			<psa10 value="0.0547604976140445" flag="0"/>
			<psa30 value="0.00364359262012995" flag="0"/>
		</comp>
		<comp name="--.HNN" depth="1.0">
			<acc value="0.0219065542004723" flag="0"/>
			<vel value="0.017730309433754" flag="0"/>
			<psa03 value="0.0813707133272534" flag="0"/>
			<psa10 value="0.0325418582383912" flag="0"/>
			<psa30 value="0.00269219126112714" flag="0"/>
		</comp>
		<comp name="--.HNZ" depth="1.0">
			<acc value="0.0162080664626885" flag="0"/>
			<vel value="0.0125986986268152" flag="0"/>
			<psa03 value="0.0701052899646009" flag="0"/>
			<psa10 value="0.0150353938335588" flag="0"/>
			<psa30 value="0.00181164522093633" flag="0"/>
		</comp>
	</station>
</stationlist>
