<?xml version="1.0" encoding="UTF-8" standalone="yes"?>
<!DOCTYPE earthquake SYSTEM "stationlist.dtd">
<stationlist created="" xmlns="ch.ethz.sed.shakemap.usgs.xml">
  <station code="DYBB" name="DYBB" netid="KO" insttype="CMG-3T" lat="37.9532" lon="40.1393">
    <comp name="--.HHE">
      <acc value="0.0385709448" flag="0"/>
      <vel value="0.0220965368" flag="0"/>
      <psa03 value="0.0650855825" flag="0"/>
      <psa10 value="0.0344906496" flag="0"/>
      <psa30 value="0.0040830574" flag="0"/>
    </comp>
    <comp name="--.HHZ">
      <acc value="0.0281790512" flag="0"/>
      <vel value="0.0158685311" flag="0"/>
      <psa03 value="0.0348341048" flag="0"/>
      <psa10 value="0.0373360105" flag="0"/>
      <psa30 value="0.0055286908" flag="0"/>
    </comp>
    <comp name="--.HHN">
      <acc value="0.0501969475" flag="0"/>
      <vel value="0.0287140411" flag="0"/>
      <psa03 value="0.1012841331" flag="0"/>
      <psa10 value="0.0313421972" flag="0"/>
      <psa30 value="0.0026434440" flag="0"/>
    </comp>
  </station>
  <station code="ERZN" name="ERZN" netid="KO" insttype="CMG-3ESP" lat="39.5867" lon="39.722">
    <comp name="--.HHE">
      <acc value="0.0077636000" flag="0"/>
      <vel value="0.0090834570" flag="0"/>
      <psa03 value="0.0173079300" flag="0"/>
      <psa10 value="0.0189554019" flag="0"/>
      <psa30 value="0.0013902787" flag="0"/>
    </comp>
    <comp name="--.HHN">
      <acc value="0.0234508459" flag="0"/>
      <vel value="0.0226695911" flag="0"/>
      <psa03 value="0.0338445728" flag="0"/>
      <psa10 value="0.0420034402" flag="0"/>
      <psa30 value="0.0024326201" flag="0"/>
    </comp>
    <comp name="--.HHZ">
      <acc value="0.0086288045" flag="0"/>
      <vel value="0.0106273302" flag="0"/>
      <psa03 value="0.0164160012" flag="0"/>
      <psa10 value="0.0211036844" flag="0"/>
      <psa30 value="0.0006292422" flag="0"/>
    </comp>
  </station>
  <station code="GURO" name="GURO" netid="KO" insttype="CMG-3T" lat="38.5509" lon="42.0322">
    <comp name="--.HHE">
      <acc value="0.0366518112" flag="0"/>
      <vel value="0.0214372461" flag="0"/>
      <psa03 value="0.1207974699" flag="0"/>
      <psa10 value="0.0176590033" flag="0"/>
      <psa30 value="0.0009928786" flag="0"/>
    </comp>
    <comp name="--.HHN">
      <acc value="0.0366759752" flag="0"/>
      <vel value="0.0225358356" flag="0"/>
      <psa03 value="0.0981240441" flag="0"/>
      <psa10 value="0.0288223887" flag="0"/>
      <psa30 value="0.0013218811" flag="0"/>
    </comp>
    <comp name="--.HHZ">
      <acc value="0.0398093436" flag="0"/>
      <vel value="0.0196067574" flag="0"/>
      <psa03 value="0.0904681097" flag="0"/>
      <psa10 value="0.0119446267" flag="0"/>
      <psa30 value="0.0008184951" flag="0"/>
    </comp>
  </station>
  <station code="KARO" name="KARO" netid="KO" insttype="CMG-3T" lat="39.3089" lon="41.0493">
    <comp name="--.HHE">
      <acc value="0.0257843025" flag="0"/>
      <vel value="0.0222083807" flag="0"/>
      <psa03 value="0.0773602264" flag="0"/>
      <psa10 value="0.0307146503" flag="0"/>
      <psa30 value="0.0034144824" flag="0"/>
    </comp>
    <comp name="--.HHN">
      <acc value="0.0259029799" flag="0"/>
      <vel value="0.0182872699" flag="0"/>
      <psa03 value="0.0711078131" flag="0"/>
      <psa10 value="0.0165293601" flag="0"/>
      <psa30 value="0.0021419544" flag="0"/>
    </comp>
    <comp name="--.HHZ">
      <acc value="0.0117382429" flag="0"/>
      <vel value="0.0082799797" flag="0"/>
      <psa03 value="0.0403849302" flag="0"/>
      <psa10 value="0.0116808486" flag="0"/>
      <psa30 value="0.0011517055" flag="0"/>
    </comp>
  </station>
  <station code="MAZI" name="MAZI" netid="KO" insttype="CMG-3T" lat="37.4593" lon="40.4465">
    <comp name="--.HHE">
      <acc value="0.2986653598" flag="0"/>
      <vel value="0.0765216599" flag="0"/>
      <psa03 value="0.2783875910" flag="0"/>
      <psa10 value="0.0460417132" flag="0"/>
      <psa30 value="0.0050195281" flag="0"/>
    </comp>
    <comp name="--.HHN">
      <acc value="0.1987469546" flag="0"/>
      <vel value="0.0764296248" flag="0"/>
      <psa03 value="0.2765288945" flag="0"/>
      <psa10 value="0.0506447262" flag="0"/>
      <psa30 value="0.0033640931" flag="0"/>
    </comp>
    <comp name="--.HHZ">
      <acc value="0.2325943167" flag="0"/>
      <vel value="0.0725697270" flag="0"/>
      <psa03 value="0.3400844590" flag="0"/>
      <psa10 value="0.0335576027" flag="0"/>
      <psa30 value="0.0017608969" flag="0"/>
    </comp>
  </station>
  <station code="SVAN" name="SVAN" netid="KO" insttype="CMG-3T" lat="38.1511" lon="41.1984">
    <comp name="--.HHN">
      <acc value="0.0487106451" flag="0"/>
      <vel value="0.0179206628" flag="0"/>
      <psa03 value="0.0864188518" flag="0"/>
      <psa10 value="0.0189374553" flag="0"/>
      <psa30 value="0.0024625619" flag="0"/>
    </comp>
    <comp name="--.HHE">
      <acc value="0.0488884495" flag="0"/>
      <vel value="0.0182294937" flag="0"/>
      <psa03 value="0.0620083212" flag="0"/>
      <psa10 value="0.0170864112" flag="0"/>
      <psa30 value="0.0014428644" flag="0"/>
    </comp>
    <comp name="--.HHZ">
      <acc value="0.0380243147" flag="0"/>
      <vel value="0.0124804085" flag="0"/>
      <psa03 value="0.0592843951" flag="0"/>
      <psa10 value="0.0108430893" flag="0"/>
      <psa30 value="0.0021234093" flag="0"/>
    </comp>
  </station>
  <station code="SVRC" name="SVRC" netid="KO" insttype="CMG-3T" lat="38.3775" lon="39.306">
    <comp name="--.HHE">
      <acc value="0.0529522547" flag="0"/>
      <vel value="0.0193997059" flag="0"/>
      <psa03 value="0.1816859665" flag="0"/>
      <psa10 value="0.0094047496" flag="0"/>
      <psa30 value="0.0015376355" flag="0"/>
    </comp>
    <comp name="--.HHN">
      <acc value="0.0363323508" flag="0"/>
      <vel value="0.0146685061" flag="0"/>
      <psa03 value="0.1637155493" flag="0"/>
      <psa10 value="0.0121126376" flag="0"/>
      <psa30 value="0.0010154167" flag="0"/>
    </comp>
  </station>
  <station code="VRTB" name="VRTB" netid="KO" insttype="CMG-3ESPC" lat="39.1603" lon="41.4558">
    <comp name="--.HHN">
      <acc value="0.0194233265" flag="0"/>
      <vel value="0.0202837797" flag="0"/>
      <psa03 value="0.0539471171" flag="0"/>
      <psa10 value="0.0312687212" flag="0"/>
      <psa30 value="0.0057305809" flag="0"/>
    </comp>
    <comp name="--.HHE">
      <acc value="0.0083333182" flag="0"/>
      <vel value="0.0092622524" flag="0"/>
      <psa03 value="0.0162539225" flag="0"/>
      <psa10 value="0.0118917768" flag="0"/>
      <psa30 value="0.0019100372" flag="0"/>
    </comp>
    <comp name="--.HHZ">
      <acc value="0.0156792507" flag="0"/>
      <vel value="0.0169169047" flag="0"/>
      <psa03 value="0.0400309800" flag="0"/>
      <psa10 value="0.0267956709" flag="0"/>
      <psa30 value="0.0045306799" flag="0"/>
    </comp>
  </station>
</stationlist>
