<?xml version="1.0" encoding="UTF-8" standalone="yes"?>
<!DOCTYPE earthquake SYSTEM "stationlist.dtd">
<stationlist created="" xmlns="ch.ethz.sed.shakemap.usgs.xml">
  <station code="DYBB" name="DYBB" netid="KO" insttype="CMG-3T" lat="37.9532" lon="40.1393">
    <comp name="--.HHE">
      <acc value="0.0385709451" flag="0"/>
      <vel value="0.0220965372" flag="0"/>
      <psa03 value="0.0650855825" flag="0"/>
      <psa10 value="0.0344906496" flag="0"/>
      <psa30 value="0.0040830483" flag="0"/>
    </comp>
    <comp name="--.HHN">
      <acc value="0.0501969485" flag="0"/>
      <vel value="0.0287140415" flag="0"/>
      <psa03 value="0.1012841331" flag="0"/>
      <psa10 value="0.0313421972" flag="0"/>
      <psa30 value="0.0026434656" flag="0"/>
    </comp>
    <comp name="--.HHZ">
      <acc value="0.0281790511" flag="0"/>
      <vel value="0.0158685311" flag="0"/>
      <psa03 value="0.0348341048" flag="0"/>
      <psa10 value="0.0373360105" flag="0"/>
      <psa30 value="0.0055286921" flag="0"/>
    </comp>
  </station>
  <station code="KARO" name="KARO" netid="KO" insttype="CMG-3T" lat="39.3089" lon="41.0493">
    <comp name="--.HHN">
      <acc value="0.0259029786" flag="0"/>
      <vel value="0.0182872705" flag="0"/>
      <psa03 value="0.0711078131" flag="0"/>
      <psa10 value="0.0165293601" flag="0"/>
      <psa30 value="0.0021419334" flag="0"/>
    </comp>
    <comp name="--.HHE">
      <acc value="0.0257843026" flag="0"/>
      <vel value="0.0222083803" flag="0"/>
      <psa03 value="0.0773602264" flag="0"/>
      <psa10 value="0.0307146503" flag="0"/>
      <psa30 value="0.0034144859" flag="0"/>
    </comp>
    <comp name="--.HHZ">
      <acc value="0.0117382411" flag="0"/>
      <vel value="0.0082799802" flag="0"/>
      <psa03 value="0.0403849302" flag="0"/>
      <psa10 value="0.0116808486" flag="0"/>
      <psa30 value="0.0011516995" flag="0"/>
    </comp>
  </station>
  <station code="MAZI" name="MAZI" netid="KO" insttype="CMG-3T" lat="37.4593" lon="40.4465">
    <comp name="--.HHE">
      <acc value="0.2986653596" flag="0"/>
      <vel value="0.0765216747" flag="0"/>
      <psa03 value="0.2783875910" flag="0"/>
      <psa10 value="0.0460417131" flag="0"/>
      <psa30 value="0.0050196937" flag="0"/>
    </comp>
    <comp name="--.HHN">
      <acc value="0.1987469549" flag="0"/>
      <vel value="0.0764296247" flag="0"/>
      <psa03 value="0.2765288945" flag="0"/>
      <psa10 value="0.0506447262" flag="0"/>
      <psa30 value="0.0033640734" flag="0"/>
    </comp>
    <comp name="--.HHZ">
      <acc value="0.2325943164" flag="0"/>
      <vel value="0.0725697270" flag="0"/>
      <psa03 value="0.3400844590" flag="0"/>
      <psa10 value="0.0335576027" flag="0"/>
      <psa30 value="0.0017608813" flag="0"/>
    </comp>
  </station>
  <station code="SVAN" name="SVAN" netid="KO" insttype="CMG-3T" lat="38.1511" lon="41.1984">
    <comp name="--.HHE">
      <acc value="0.0488884495" flag="0"/>
      <vel value="0.0182294940" flag="0"/>
      <psa03 value="0.0620083212" flag="0"/>
      <psa10 value="0.0170864113" flag="0"/>
      <psa30 value="0.0014428678" flag="0"/>
    </comp>
    <comp name="--.HHZ">
      <acc value="0.0380243150" flag="0"/>
      <vel value="0.0124804075" flag="0"/>
      <psa03 value="0.0592843951" flag="0"/>
      <psa10 value="0.0108430893" flag="0"/>
      <psa30 value="0.0021233677" flag="0"/>
    </comp>
    <comp name="--.HHN">
      <acc value="0.0487106448" flag="0"/>
      <vel value="0.0179206634" flag="0"/>
      <psa03 value="0.0864188518" flag="0"/>
      <psa10 value="0.0189374554" flag="0"/>
      <psa30 value="0.0024625518" flag="0"/>
    </comp>
  </station>
  <station code="SVRC" name="SVRC" netid="KO" insttype="CMG-3T" lat="38.3775" lon="39.306">
    <comp name="--.HHE">
      <acc value="0.0529522550" flag="0"/>
      <vel value="0.0193997060" flag="0"/>
      <psa03 value="0.1816859665" flag="0"/>
      <psa10 value="0.0094047496" flag="0"/>
      <psa30 value="0.0015376226" flag="0"/>
    </comp>
    <comp name="--.HHN">
      <acc value="0.0363323506" flag="0"/>
      <vel value="0.0146685056" flag="0"/>
      <psa03 value="0.1637155493" flag="0"/>
      <psa10 value="0.0121126376" flag="0"/>
      <psa30 value="0.0010154218" flag="0"/>
    </comp>
  </station>
  <station code="VRTB" name="VRTB" netid="KO" insttype="CMG-3ESPC" lat="39.1603" lon="41.4558">
    <comp name="--.HHZ">
      <acc value="0.0156792508" flag="0"/>
      <vel value="0.0169168998" flag="0"/>
      <psa03 value="0.0400309799" flag="0"/>
      <psa10 value="0.0267956710" flag="0"/>
      <psa30 value="0.0045174007" flag="0"/>
    </comp>
    <comp name="--.HHE">
      <acc value="0.0083333185" flag="0"/>
      <vel value="0.0092622495" flag="0"/>
      <psa03 value="0.0162539225" flag="0"/>
      <psa10 value="0.0118917768" flag="0"/>
      <psa30 value="0.0019100396" flag="0"/>
    </comp>
    <comp name="--.HHN">
      <acc value="0.0194233259" flag="0"/>
      <vel value="0.0202837804" flag="0"/>
      <psa03 value="0.0539471171" flag="0"/>
      <psa10 value="0.0312687212" flag="0"/>
      <psa30 value="0.0047500428" flag="0"/>
    </comp>
  </station>
</stationlist>
