<?xml version="1.0" encoding="UTF-8" standalone="yes"?>
<!DOCTYPE earthquake SYSTEM "stationlist.dtd">
<stationlist created="" xmlns="ch.ethz.sed.shakemap.usgs.xml">
  <station code="THERA" name="THERA" netid="GE" insttype="STS-2/N" lat="36.367" lon="25.4753">
    <comp name="--.HHE">
      <acc value="0.4037426043" flag="0"/>
      <vel value="0.1453978577" flag="0"/>
      <psa03 value="0.4144049600" flag="0"/>
      <psa10 value="0.1012655513" flag="0"/>
      <psa30 value="0.0098053157" flag="0"/>
    </comp>
    <comp name="--.HHN">
      <acc value="0.3482770714" flag="0"/>
      <vel value="0.1107864923" flag="0"/>
      <psa03 value="0.2737795681" flag="0"/>
      <psa10 value="0.0536191668" flag="0"/>
      <psa30 value="0.0037291547" flag="0"/>
    </comp>
    <comp name="--.HHZ">
      <acc value="0.3998691894" flag="0"/>
      <vel value="0.1153777153" flag="0"/>
      <psa03 value="0.2551057141" flag="0"/>
      <psa10 value="0.0968315562" flag="0"/>
      <psa30 value="0.0081501312" flag="0"/>
    </comp>
  </station>
</stationlist>
