<stationlist created="1739408560">
	<station code="KTHA" name="KTHA" netid="GE" source="GEOFON" insttype="" lat="36.2566" lon="23.0621">
		<comp name=".HNE" depth="0.0">
			<acc value="0.0073832416171434" flag="0"/>
			<vel value="0.00778610541072" flag="0"/>
			<psa03 value="0.022224539975012" flag="0"/>
			<psa10 value="0.00551618229499697" flag="0"/>
			<psa30 value="0.00174415002054407" flag="0"/>
		</comp>
		<comp name=".HNN" depth="0.0">
			<acc value="0.0066479059448376" flag="0"/>
			<vel value="0.00844634384789" flag="0"/>
			<psa03 value="0.0169545580520812" flag="0"/>
			<psa10 value="0.00975939994984986" flag="0"/>
			<psa30 value="0.00266667936275554" flag="0"/>
		</comp>
		<comp name=".HNZ" depth="0.0">
			<acc value="0.0050512657905456" flag="0"/>
			<vel value="0.0214278770212" flag="0"/>
			<psa03 value="0.0110989982750099" flag="0"/>
			<psa10 value="0.0102175227982407" flag="0"/>
			<psa30 value="0.00847282461637778" flag="0"/>
		</comp>
	</station>
	<station code="ABEA" name="ABEA" netid="HC" source="Seismological Network of Crete (HC)" insttype="" lat="35.5163" lon="24.0113">
		<comp name=".HNE" depth="0.0">
			<acc value="0.0041565150329742" flag="0"/>
			<vel value="0.00489890634216" flag="0"/>
			<psa03 value="0.00998318477448186" flag="0"/>
			<psa10 value="0.00651603978064509" flag="0"/>
			<psa30 value="0.00180053948523971" flag="0"/>
		</comp>
		<comp name=".HNN" depth="0.0">
			<acc value="0.004930298690952" flag="0"/>
			<vel value="0.00352370588349" flag="0"/>
			<psa03 value="0.00974866663466608" flag="0"/>
			<psa10 value="0.0044396364478833" flag="0"/>
			<psa30 value="0.00163105200752469" flag="0"/>
		</comp>
		<comp name=".HNZ" depth="0.0">
			<acc value="0.0046081136899614" flag="0"/>
			<vel value="0.00330917517831" flag="0"/>
			<psa03 value="0.00438837046060925" flag="0"/>
			<psa10 value="0.00466680259028022" flag="0"/>
			<psa30 value="0.000881170977418124" flag="0"/>
		</comp>
	</station>
	<station code="ATEI" name="ATEI" netid="HC" source="Seismological Network of Crete (HC)" insttype="" lat="35.5193" lon="24.0432">
		<comp name=".HNE" depth="0.0">
			<acc value="0.01354351753791" flag="0"/>
			<vel value="0.00964816270209" flag="0"/>
			<psa03 value="0.0350417458228707" flag="0"/>
			<psa10 value="0.0240988320543625" flag="0"/>
			<psa30 value="0.0020823883646778" flag="0"/>
		</comp>
		<comp name=".HNN" depth="0.0">
			<acc value="0.01829790028605" flag="0"/>
			<vel value="0.00921001638002" flag="0"/>
			<psa03 value="0.0502416147188482" flag="0"/>
			<psa10 value="0.0148450312229599" flag="0"/>
			<psa30 value="0.00164090880632173" flag="0"/>
		</comp>
		<comp name=".HNZ" depth="0.0">
			<acc value="0.01187947643805" flag="0"/>
			<vel value="0.0078090296625" flag="0"/>
			<psa03 value="0.031367455544136" flag="0"/>
			<psa10 value="0.0170197487248049" flag="0"/>
			<psa30 value="0.00108801249215558" flag="0"/>
		</comp>
	</station>
	<station code="G0LD" name="G0LD" netid="HC" source="Seismological Network of Crete (HC)" insttype="" lat="35.4955" lon="24.0306">
		<comp name=".HNE" depth="0.0">
			<acc value="0.03072951592545" flag="0"/>
			<vel value="0.0265126700104" flag="0"/>
			<psa03 value="0.0801880568569508" flag="0"/>
			<psa10 value="0.064430108178659" flag="0"/>
			<psa30 value="0.00608141244706758" flag="0"/>
		</comp>
		<comp name=".HNN" depth="0.0">
			<acc value="0.029274379431942" flag="0"/>
			<vel value="0.0258606790376" flag="0"/>
			<psa03 value="0.0578030322921015" flag="0"/>
			<psa10 value="0.054815127483229" flag="0"/>
			<psa30 value="0.00308114723588501" flag="0"/>
		</comp>
		<comp name=".HNZ" depth="0.0">
			<acc value="0.023224526565432" flag="0"/>
			<vel value="0.0154937428926" flag="0"/>
			<psa03 value="0.0452859010103395" flag="0"/>
			<psa10 value="0.0253938003396565" flag="0"/>
			<psa30 value="0.00268021963473173" flag="0"/>
		</comp>
	</station>
	<station code="PASK" name="PASK" netid="HC" source="Seismological Network of Crete (HC)" insttype="" lat="35.4996" lon="24.0121">
		<comp name=".HNE" depth="0.0">
			<acc value="0.026352187289496" flag="0"/>
			<vel value="0.0197010289191" flag="0"/>
			<psa03 value="0.0583702365334594" flag="0"/>
			<psa10 value="0.0448816119365093" flag="0"/>
			<psa30 value="0.00443432250210515" flag="0"/>
		</comp>
		<comp name=".HNN" depth="0.0">
			<acc value="0.025221119475216" flag="0"/>
			<vel value="0.0209461754455" flag="0"/>
			<psa03 value="0.0617919840408431" flag="0"/>
			<psa10 value="0.03010570998053" flag="0"/>
			<psa30 value="0.00245256142849037" flag="0"/>
		</comp>
		<comp name=".HNZ" depth="0.0">
			<acc value="0.024489956723982" flag="0"/>
			<vel value="0.0116119278198" flag="0"/>
			<psa03 value="0.0481360585692108" flag="0"/>
			<psa10 value="0.0234249930408069" flag="0"/>
			<psa30 value="0.00143178776557885" flag="0"/>
		</comp>
	</station>
	<station code="POLY" name="POLY" netid="HC" source="Seismological Network of Crete (HC)" insttype="" lat="35.5226" lon="24.0602">
		<comp name=".HNE" depth="0.0">
			<acc value="0.009372194018364" flag="0"/>
			<vel value="0.00917636885097" flag="0"/>
			<psa03 value="0.0210901861838274" flag="0"/>
			<psa10 value="0.0137917205087842" flag="0"/>
			<psa30 value="0.00184628189044638" flag="0"/>
		</comp>
		<comp name=".HNN" depth="0.0">
			<acc value="0.011790322083756" flag="0"/>
			<vel value="0.00677910973232" flag="0"/>
			<psa03 value="0.0227628725119104" flag="0"/>
			<psa10 value="0.0154294155605513" flag="0"/>
			<psa30 value="0.00173363057368511" flag="0"/>
		</comp>
		<comp name=".HNZ" depth="0.0">
			<acc value="0.0091187638977426" flag="0"/>
			<vel value="0.00698109497737" flag="0"/>
			<psa03 value="0.0247385190138116" flag="0"/>
			<psa10 value="0.00711137109343875" flag="0"/>
			<psa30 value="0.00129684174273228" flag="0"/>
		</comp>
	</station>
	<station code="ARK1" name="ARK1" netid="HI" source="ITSAK Strong Motion Network" insttype="" lat="35.148777" lon="25.264194">
		<comp name=".HNE" depth="0.0">
			<acc value="0.051362739972072" flag="0"/>
			<vel value="0.050323447333" flag="0"/>
			<psa03 value="0.136114371075519" flag="0"/>
			<psa10 value="0.0670109691476729" flag="0"/>
			<psa30 value="0.00688095874641436" flag="0"/>
		</comp>
		<comp name=".HNN" depth="0.0">
			<acc value="0.053671079448126" flag="0"/>
			<vel value="0.0318988510051" flag="0"/>
			<psa03 value="0.0951732422602813" flag="0"/>
			<psa10 value="0.0516882153404181" flag="0"/>
			<psa30 value="0.00346469618578655" flag="0"/>
		</comp>
		<comp name=".HNZ" depth="0.0">
			<acc value="0.026015296936704" flag="0"/>
			<vel value="0.0237966802473" flag="0"/>
			<psa03 value="0.0516062572027479" flag="0"/>
			<psa10 value="0.0418101359664836" flag="0"/>
			<psa30 value="0.00268022067646453" flag="0"/>
		</comp>
	</station>
	<station code="CH01" name="CH01" netid="HI" source="ITSAK Strong Motion Network" insttype="" lat="35.517" lon="24.0208">
		<comp name=".HNE" depth="0.0">
			<acc value="0.018841552293024" flag="0"/>
			<vel value="0.0116966613786" flag="0"/>
			<psa03 value="0.0578709222063793" flag="0"/>
			<psa10 value="0.0208074621422462" flag="0"/>
			<psa30 value="0.00216221469444688" flag="0"/>
		</comp>
		<comp name=".HNN" depth="0.0">
			<acc value="0.016697307963054" flag="0"/>
			<vel value="0.0104344305574" flag="0"/>
			<psa03 value="0.0688934909389985" flag="0"/>
			<psa10 value="0.0195175641928335" flag="0"/>
			<psa30 value="0.00201465971131704" flag="0"/>
		</comp>
		<comp name=".HNZ" depth="0.0">
			<acc value="0.012337336534398" flag="0"/>
			<vel value="0.00785426226041" flag="0"/>
			<psa03 value="0.018767678162405" flag="0"/>
			<psa10 value="0.0139173782080048" flag="0"/>
			<psa30 value="0.00105110306792118" flag="0"/>
		</comp>
	</station>
	<station code="CH02" name="CH02" netid="HI" source="ITSAK Strong Motion Network" insttype="" lat="35.5145" lon="24.0315">
		<comp name=".HNE" depth="0.0">
			<acc value="0.025246994789724" flag="0"/>
			<vel value="0.0110470228576" flag="0"/>
			<psa03 value="0.054269428416728" flag="0"/>
			<psa10 value="0.0275441890423467" flag="0"/>
			<psa30 value="0.00262583478200033" flag="0"/>
		</comp>
		<comp name=".HNN" depth="0.0">
			<acc value="0.019533262862058" flag="0"/>
			<vel value="0.0119488135421" flag="0"/>
			<psa03 value="0.0588950212976639" flag="0"/>
			<psa10 value="0.0172192656918565" flag="0"/>
			<psa30 value="0.00212981400639055" flag="0"/>
		</comp>
		<comp name=".HNZ" depth="0.0">
			<acc value="0.013171406132136" flag="0"/>
			<vel value="0.00688126162706" flag="0"/>
			<psa03 value="0.0207244601333658" flag="0"/>
			<psa10 value="0.0164396209192193" flag="0"/>
			<psa30 value="0.00117406725535961" flag="0"/>
		</comp>
	</station>
	<station code="CH03" name="CH03" netid="HI" source="ITSAK Strong Motion Network" insttype="" lat="35.53303" lon="24.0705">
		<comp name=".HNE" depth="0.0">
			<acc value="0.014798399612892" flag="0"/>
			<vel value="0.0110648950328" flag="0"/>
			<psa03 value="0.0377369816606541" flag="0"/>
			<psa10 value="0.0145675822183408" flag="0"/>
			<psa30 value="0.00166127525966707" flag="0"/>
		</comp>
		<comp name=".HNN" depth="0.0">
			<acc value="0.01295886798672" flag="0"/>
			<vel value="0.0104291572294" flag="0"/>
			<psa03 value="0.0419430727935761" flag="0"/>
			<psa10 value="0.0217736498974597" flag="0"/>
			<psa30 value="0.00160595482412486" flag="0"/>
		</comp>
		<comp name=".HNZ" depth="0.0">
			<acc value="0.0100932268720968" flag="0"/>
			<vel value="0.00595099322873" flag="0"/>
			<psa03 value="0.0319154371577525" flag="0"/>
			<psa10 value="0.0090921998135965" flag="0"/>
			<psa30 value="0.0010292956857894" flag="0"/>
		</comp>
	</station>
	<station code="GOR1" name="GOR1" netid="HI" source="ITSAK Strong Motion Network" insttype="" lat="35.0582" lon="24.9628">
		<comp name=".HNE" depth="0.0">
			<acc value="0.01879996359975" flag="0"/>
			<vel value="0.0201196700074" flag="0"/>
			<psa03 value="0.0482007607721822" flag="0"/>
			<psa10 value="0.0247669706902696" flag="0"/>
			<psa30 value="0.00342455290148741" flag="0"/>
		</comp>
		<comp name=".HNN" depth="0.0">
			<acc value="0.015256595991306" flag="0"/>
			<vel value="0.0175810325116" flag="0"/>
			<psa03 value="0.0447728461896401" flag="0"/>
			<psa10 value="0.0380402737314539" flag="0"/>
			<psa30 value="0.00392817772249773" flag="0"/>
		</comp>
		<comp name=".HNZ" depth="0.0">
			<acc value="0.014450813313558" flag="0"/>
			<vel value="0.0144362165165" flag="0"/>
			<psa03 value="0.0243945483107653" flag="0"/>
			<psa10 value="0.0286461639177889" flag="0"/>
			<psa30 value="0.00161008134748838" flag="0"/>
		</comp>
	</station>
	<station code="HER3" name="HER3" netid="HI" source="ITSAK Strong Motion Network" insttype="" lat="35.3296" lon="25.1065">
		<comp name=".HNE" depth="0.0">
			<acc value="0.095397090884208" flag="0"/>
			<vel value="0.058158838329" flag="0"/>
			<psa03 value="0.332037829209761" flag="0"/>
			<psa10 value="0.205858442111413" flag="0"/>
			<psa30 value="0.00754025867180088" flag="0"/>
		</comp>
		<comp name=".HNN" depth="0.0">
			<acc value="0.10351653598062" flag="0"/>
			<vel value="0.067404555224" flag="0"/>
			<psa03 value="0.268453846249748" flag="0"/>
			<psa10 value="0.119382378496802" flag="0"/>
			<psa30 value="0.00572491966449044" flag="0"/>
		</comp>
		<comp name=".HNZ" depth="0.0">
			<acc value="0.058040188488132" flag="0"/>
			<vel value="0.0326322148184" flag="0"/>
			<psa03 value="0.198453125712314" flag="0"/>
			<psa10 value="0.0930799885925612" flag="0"/>
			<psa30 value="0.0025477496092419" flag="0"/>
		</comp>
	</station>
	<station code="KIS1" name="KIS1" netid="HI" source="ITSAK Strong Motion Network" insttype="" lat="35.493933" lon="23.658993">
		<comp name=".HNE" depth="0.0">
			<acc value="0.08120201860116" flag="0"/>
			<vel value="0.0132695156068" flag="0"/>
			<psa03 value="0.0369605682479319" flag="0"/>
			<psa10 value="0.0172540267445891" flag="0"/>
			<psa30 value="0.0010939189250927" flag="0"/>
		</comp>
		<comp name=".HNN" depth="0.0">
			<acc value="0.07975079613264" flag="0"/>
			<vel value="0.0144076034192" flag="0"/>
			<psa03 value="0.0453703857737056" flag="0"/>
			<psa10 value="0.0169463694888156" flag="0"/>
			<psa30 value="0.00142864651581923" flag="0"/>
		</comp>
		<comp name=".HNZ" depth="0.0">
			<acc value="0.083082569995716" flag="0"/>
			<vel value="0.00725361579522" flag="0"/>
			<psa03 value="0.0279764835130654" flag="0"/>
			<psa10 value="0.00833091250708058" flag="0"/>
			<psa30 value="0.00109759958558436" flag="0"/>
		</comp>
	</station>
	<station code="KRL1" name="KRL1" netid="HI" source="ITSAK Strong Motion Network" insttype="" lat="37.7951" lon="26.7065">
		<comp name=".HNE" depth="0.0">
			<acc value="0.028364084422998" flag="0"/>
			<vel value="0.0161660206255" flag="0"/>
			<psa03 value="0.0918673565949001" flag="0"/>
			<psa10 value="0.0226945534027674" flag="0"/>
			<psa30 value="0.00209583113019129" flag="0"/>
		</comp>
		<comp name=".HNN" depth="0.0">
			<acc value="0.025638960305982" flag="0"/>
			<vel value="0.0143593627859" flag="0"/>
			<psa03 value="0.0626547130673999" flag="0"/>
			<psa10 value="0.0197222283758482" flag="0"/>
			<psa30 value="0.00155987322978001" flag="0"/>
		</comp>
		<comp name=".HNZ" depth="0.0">
			<acc value="0.014215683414174" flag="0"/>
			<vel value="0.00754699778626" flag="0"/>
			<psa03 value="0.0321835903382382" flag="0"/>
			<psa10 value="0.0106100856785979" flag="0"/>
			<psa30 value="0.00123795784196466" flag="0"/>
		</comp>
	</station>
	<station code="KTL1" name="KTL1" netid="HI" source="ITSAK Strong Motion Network" insttype="" lat="35.20778" lon="25.34272">
		<comp name=".HNE" depth="0.0">
			<acc value="0.033082832632086" flag="0"/>
			<vel value="0.0251532188363" flag="0"/>
			<psa03 value="0.0678727045669558" flag="0"/>
			<psa10 value="0.0254258255861481" flag="0"/>
			<psa30 value="0.00440481221385748" flag="0"/>
		</comp>
		<comp name=".HNN" depth="0.0">
			<acc value="0.041208995818044" flag="0"/>
			<vel value="0.0259386253877" flag="0"/>
			<psa03 value="0.10548701924721" flag="0"/>
			<psa10 value="0.056515876399273" flag="0"/>
			<psa30 value="0.00219546335533973" flag="0"/>
		</comp>
		<comp name=".HNZ" depth="0.0">
			<acc value="0.019436872718238" flag="0"/>
			<vel value="0.00798910278629" flag="0"/>
			<psa03 value="0.0401994572875707" flag="0"/>
			<psa10 value="0.0135984477054312" flag="0"/>
			<psa30 value="0.00121737908288923" flag="0"/>
		</comp>
	</station>
	<station code="RTH1" name="RTH1" netid="HI" source="ITSAK Strong Motion Network" insttype="" lat="35.365393" lon="24.471773">
		<comp name=".HNE" depth="0.0">
			<acc value="0.015330667113756" flag="0"/>
			<vel value="0.0101643958736" flag="0"/>
			<psa03 value="0.0701320313197641" flag="0"/>
			<psa10 value="0.00787579642035603" flag="0"/>
			<psa30 value="0.00289975021921929" flag="0"/>
		</comp>
		<comp name=".HNN" depth="0.0">
			<acc value="0.016010800461246" flag="0"/>
			<vel value="0.0101051846239" flag="0"/>
			<psa03 value="0.0583725335603163" flag="0"/>
			<psa10 value="0.0104970578785838" flag="0"/>
			<psa30 value="0.00199768087822228" flag="0"/>
		</comp>
		<comp name=".HNZ" depth="0.0">
			<acc value="0.012659027657886" flag="0"/>
			<vel value="0.00596885360888" flag="0"/>
			<psa03 value="0.0296086228842676" flag="0"/>
			<psa10 value="0.0067571774735817" flag="0"/>
			<psa30 value="0.00154309972278323" flag="0"/>
		</comp>
	</station>
	<station code="AMGA" name="AMGA" netid="HL" source="National Observatory of Athens Seismic Network" insttype="" lat="36.831561" lon="25.893836">
		<comp name="00.HNE" depth="0.0">
			<acc value="0.53349376119012" flag="0"/>
			<vel value="0.148734903924" flag="0"/>
			<psa03 value="0.626878944318932" flag="0"/>
			<psa10 value="0.0526947220166842" flag="0"/>
			<psa30 value="0.0109774121997002" flag="0"/>
		</comp>
		<comp name="00.HNN" depth="0.0">
			<acc value="0.5391293763981" flag="0"/>
			<vel value="0.158817670948" flag="0"/>
			<psa03 value="0.751230765349855" flag="0"/>
			<psa10 value="0.0530467128343151" flag="0"/>
			<psa30 value="0.00835856871413791" flag="0"/>
		</comp>
		<comp name="00.HNZ" depth="0.0">
			<acc value="0.36682732825794" flag="0"/>
			<vel value="0.113553075571" flag="0"/>
			<psa03 value="0.412010502007036" flag="0"/>
			<psa10 value="0.0679971419769197" flag="0"/>
			<psa30 value="0.0102392741350049" flag="0"/>
		</comp>
	</station>
	<station code="ANAF" name="ANAF" netid="HL" source="National Observatory of Athens Seismic Network" insttype="" lat="36.35675" lon="25.77262">
		<comp name=".HNE" depth="0.0">
			<acc value="1.8090164118564" flag="0"/>
			<vel value="0.395270623876" flag="0"/>
			<psa03 value="1.92685314456454" flag="0"/>
			<psa10 value="0.197966104282834" flag="0"/>
			<psa30 value="0.0238616557175646" flag="0"/>
		</comp>
		<comp name=".HNN" depth="0.0">
			<acc value="2.3433647227266" flag="0"/>
			<vel value="0.772319993226" flag="0"/>
			<psa03 value="2.26882179831013" flag="0"/>
			<psa10 value="0.183138597033088" flag="0"/>
			<psa30 value="0.0420536091785523" flag="0"/>
		</comp>
		<comp name=".HNZ" depth="0.0">
			<acc value="0.95520101364306" flag="0"/>
			<vel value="0.228125210814" flag="0"/>
			<psa03 value="0.728423337804621" flag="0"/>
			<psa10 value="0.0719784582194694" flag="0"/>
			<psa30 value="0.0288301131868624" flag="0"/>
		</comp>
	</station>
	<station code="ASTA" name="ASTA" netid="HL" source="National Observatory of Athens Seismic Network" insttype="" lat="36.54552" lon="26.35295">
		<comp name="00.HNE" depth="0.0">
			<acc value="0.081457920129282" flag="0"/>
			<vel value="0.0319359819957" flag="0"/>
			<psa03 value="0.0866475055971567" flag="0"/>
			<psa10 value="0.0336071538090136" flag="0"/>
			<psa30 value="0.00346143326130072" flag="0"/>
		</comp>
		<comp name="00.HNN" depth="0.0">
			<acc value="0.073420195019346" flag="0"/>
			<vel value="0.0223120072085" flag="0"/>
			<psa03 value="0.0656409890182094" flag="0"/>
			<psa10 value="0.020749955832732" flag="0"/>
			<psa30 value="0.00587590925017211" flag="0"/>
		</comp>
		<comp name="00.HNZ" depth="0.0">
			<acc value="0.06010553673855" flag="0"/>
			<vel value="0.0218097933301" flag="0"/>
			<psa03 value="0.0594968476240445" flag="0"/>
			<psa10 value="0.0248862867193601" flag="0"/>
			<psa30 value="0.00455677894756462" flag="0"/>
		</comp>
	</station>
	<station code="CHNB" name="CHNB" netid="HL" source="National Observatory of Athens Seismic Network" insttype="" lat="35.48765" lon="24.06605">
		<comp name="00.HNE" depth="0.0">
			<acc value="0.032409284186724" flag="0"/>
			<vel value="0.0213720708056" flag="0"/>
			<psa03 value="0.0989969122262342" flag="0"/>
			<psa10 value="0.036800756619535" flag="0"/>
			<psa30 value="0.00165631253507447" flag="0"/>
		</comp>
		<comp name="00.HNN" depth="0.0">
			<acc value="0.043516164725472" flag="0"/>
			<vel value="0.032507932932" flag="0"/>
			<psa03 value="0.0929204471904526" flag="0"/>
			<psa10 value="0.0592721852412169" flag="0"/>
			<psa30 value="0.00259398579716331" flag="0"/>
		</comp>
		<comp name="00.HNZ" depth="0.0">
			<acc value="0.032755888979226" flag="0"/>
			<vel value="0.0167609608195" flag="0"/>
			<psa03 value="0.0788793087003946" flag="0"/>
			<psa10 value="0.01347162367895" flag="0"/>
			<psa30 value="0.00112391820406635" flag="0"/>
		</comp>
	</station>
	<station code="HERG" name="HERG" netid="HL" source="National Observatory of Athens Seismic Network" insttype="" lat="35.32622" lon="25.06586">
		<comp name="00.HNE" depth="0.0">
			<acc value="0.052563810554754" flag="0"/>
			<vel value="0.0704864371629" flag="0"/>
			<psa03 value="0.123126146086438" flag="0"/>
			<psa10 value="0.0828024852584758" flag="0"/>
			<psa30 value="0.00903784704635603" flag="0"/>
		</comp>
		<comp name="00.HNN" depth="0.0">
			<acc value="0.047076347253624" flag="0"/>
			<vel value="0.0561191536724" flag="0"/>
			<psa03 value="0.134482367130207" flag="0"/>
