<?xml version="1.0" encoding="UTF-8" standalone="yes"?>
<!DOCTYPE earthquake SYSTEM "stationlist.dtd">
<stationlist created="" xmlns="ch.ethz.sed.shakemap.usgs.xml">
  <station code="KARP" name="KARP" netid="GE" insttype="STS-2/N" lat="35.5471" lon="27.1611">
    <comp name="--.HHN">
      <acc value="0.0333259086" flag="0"/>
      <vel value="0.0135289104" flag="0"/>
      <psa03 value="0.0401729078" flag="0"/>
      <psa10 value="0.0125262419" flag="0"/>
      <psa30 value="0.0008563295" flag="0"/>
    </comp>
    <comp name="--.HHE">
      <acc value="0.0308464267" flag="0"/>
      <vel value="0.0087500672" flag="0"/>
      <psa03 value="0.0399759924" flag="0"/>
      <psa10 value="0.0130101252" flag="0"/>
      <psa30 value="0.0006351208" flag="0"/>
    </comp>
    <comp name="--.HHZ">
      <acc value="0.0222590941" flag="0"/>
      <vel value="0.0106281138" flag="0"/>
      <psa03 value="0.0316654415" flag="0"/>
      <psa10 value="0.0145902770" flag="0"/>
      <psa30 value="0.0007426269" flag="0"/>
    </comp>
  </station>
  <station code="KARP" name="KARP" netid="HL" insttype="120" lat="35.5471" lon="27.1611">
    <comp name="--.HHE">
      <acc value="0.0276909914" flag="0"/>
      <vel value="0.0085279011" flag="0"/>
      <psa03 value="0.0389345520" flag="0"/>
      <psa10 value="0.0129259689" flag="0"/>
      <psa30 value="0.0006319307" flag="0"/>
    </comp>
    <comp name="--.HHN">
      <acc value="0.0305315986" flag="0"/>
      <vel value="0.0131758946" flag="0"/>
      <psa03 value="0.0390413654" flag="0"/>
      <psa10 value="0.0124490986" flag="0"/>
      <psa30 value="0.0008527427" flag="0"/>
    </comp>
    <comp name="--.HHZ">
      <acc value="0.0212334408" flag="0"/>
      <vel value="0.0103539011" flag="0"/>
      <psa03 value="0.0308428226" flag="0"/>
      <psa10 value="0.0144809397" flag="0"/>
      <psa30 value="0.0007376240" flag="0"/>
    </comp>
  </station>
</stationlist>
