<?xml version="1.0" encoding="UTF-8" standalone="yes"?>
<!DOCTYPE earthquake SYSTEM "stationlist.dtd">
<stationlist created="" xmlns="ch.ethz.sed.shakemap.usgs.xml">
  <station code="GIL" name="GIL" netid="VI" insttype="CMG-3ESP" lat="66.0773" lon="-16.3513">
    <comp name="--.HHE">
      <acc value="0.0819804987" flag="0"/>
      <vel value="0.0237454521" flag="0"/>
      <psa03 value="0.1100477815" flag="0"/>
      <psa10 value="0.0083590177" flag="0"/>
      <psa30 value="0.0007268278" flag="0"/>
    </comp>
    <comp name="--.HHZ">
      <acc value="0.0761941667" flag="0"/>
      <vel value="0.0136996690" flag="0"/>
      <psa03 value="0.0400775768" flag="0"/>
      <psa10 value="0.0028705918" flag="0"/>
      <psa30 value="0.0002579055" flag="0"/>
    </comp>
    <comp name="--.HHN">
      <acc value="0.1485831938" flag="0"/>
      <vel value="0.0294816476" flag="0"/>
      <psa03 value="0.0764687135" flag="0"/>
      <psa10 value="0.0078180995" flag="0"/>
      <psa30 value="0.0006433808" flag="0"/>
    </comp>
  </station>
</stationlist>
