<stationlist created="1778138715">
	<station code="ABEA" name="ABEA" netid="HC" source="Seismological Network of Crete (HC)" insttype="" lat="35.5163" lon="24.0113">
		<comp name="--.HNE" depth="0.0">
			<acc value="0.398926840244275" flag="0"/>
			<vel value="0.100098254613168" flag="0"/>
			<psa03 value="0.323567122233968" flag="0"/>
			<psa10 value="0.0442603045277781" flag="0"/>
			<psa30 value="0.00298884445461129" flag="0"/>
		</comp>
		<comp name="--.HNN" depth="0.0">
			<acc value="0.798305085828252" flag="0"/>
			<vel value="0.176513459506311" flag="0"/>
			<psa03 value="0.47685792283011" flag="0"/>
			<psa10 value="0.0315148939570482" flag="0"/>
			<psa30 value="0.00231880194258331" flag="0"/>
		</comp>
		<comp name="--.HNZ" depth="0.0">
			<acc value="0.425216840452745" flag="0"/>
			<vel value="0.089949401827272" flag="0"/>
			<psa03 value="0.264921487248423" flag="0"/>
			<psa10 value="0.0244995160976855" flag="0"/>
			<psa30 value="0.00159644002714904" flag="0"/>
		</comp>
	</station>
	<station code="ATEI" name="ATEI" netid="HC" source="Seismological Network of Crete (HC)" insttype="" lat="35.5193" lon="24.0432">
		<comp name="--.HNE" depth="0.0">
			<acc value="0.334764585150482" flag="0"/>
			<vel value="0.0894586811262997" flag="0"/>
			<psa03 value="0.403281673764794" flag="0"/>
			<psa10 value="0.0335987232505214" flag="0"/>
			<psa30 value="0.00236230315765885" flag="0"/>
		</comp>
		<comp name="--.HNN" depth="0.0">
			<acc value="0.470328743021949" flag="0"/>
			<vel value="0.0942498767297421" flag="0"/>
			<psa03 value="0.54507277506132" flag="0"/>
			<psa10 value="0.0352554742521425" flag="0"/>
			<psa30 value="0.00238742190498574" flag="0"/>
		</comp>
		<comp name="--.HNZ" depth="0.0">
			<acc value="0.28646717233062" flag="0"/>
			<vel value="0.0605466604556159" flag="0"/>
			<psa03 value="0.237204734482737" flag="0"/>
			<psa10 value="0.013046226435983" flag="0"/>
			<psa30 value="0.00116580879161307" flag="0"/>
		</comp>
	</station>
	<station code="G0LD" name="G0LD" netid="HC" source="Seismological Network of Crete (HC)" insttype="" lat="35.4955" lon="24.0306">
		<comp name="--.HNE" depth="0.0">
			<acc value="0.351325919151595" flag="0"/>
			<vel value="0.127843288406161" flag="0"/>
			<psa03 value="0.591267376895839" flag="0"/>
			<psa10 value="0.0782161489359832" flag="0"/>
			<psa30 value="0.00599701102254889" flag="0"/>
		</comp>
		<comp name="--.HNN" depth="0.0">
			<acc value="0.332565230747835" flag="0"/>
			<vel value="0.136278638477218" flag="0"/>
			<psa03 value="0.534566495739801" flag="0"/>
			<psa10 value="0.117750975424068" flag="0"/>
			<psa30 value="0.00642313466783523" flag="0"/>
		</comp>
		<comp name="--.HNZ" depth="0.0">
			<acc value="0.223765716166566" flag="0"/>
			<vel value="0.079457332133344" flag="0"/>
			<psa03 value="0.271985059341866" flag="0"/>
			<psa10 value="0.0780808699744624" flag="0"/>
			<psa30 value="0.00412116342351794" flag="0"/>
		</comp>
	</station>
	<station code="LENT" name="LENT" netid="HC" source="Seismological Network of Crete (HC)" insttype="" lat="35.5074" lon="24.0402">
		<comp name="--.HNE" depth="0.0">
			<acc value="0.255168459982335" flag="0"/>
			<vel value="0.0559043842935059" flag="0"/>
			<psa03 value="0.246095865143468" flag="0"/>
			<psa10 value="0.0572167528291998" flag="0"/>
			<psa30 value="0.0029882385811389" flag="0"/>
		</comp>
		<comp name="--.HNN" depth="0.0">
			<acc value="0.329909821130574" flag="0"/>
			<vel value="0.0669252301636679" flag="0"/>
			<psa03 value="0.266894722132233" flag="0"/>
			<psa10 value="0.0527475442660461" flag="0"/>
			<psa30 value="0.00210466254856436" flag="0"/>
		</comp>
		<comp name="--.HNZ" depth="0.0">
			<acc value="0.266125606397532" flag="0"/>
			<vel value="0.0469501959485159" flag="0"/>
			<psa03 value="0.346902230570425" flag="0"/>
			<psa10 value="0.0196316673766338" flag="0"/>
			<psa30 value="0.00177082189159281" flag="0"/>
		</comp>
	</station>
	<station code="NERO" name="NERO" netid="HC" source="Seismological Network of Crete (HC)" insttype="" lat="35.474" lon="24.0423">
		<comp name="--.HNE" depth="0.0">
			<acc value="0.118486262123743" flag="0"/>
			<vel value="0.0349543926880175" flag="0"/>
			<psa03 value="0.230941861264885" flag="0"/>
			<psa10 value="0.0263440026608905" flag="0"/>
			<psa30 value="0.00205341227848477" flag="0"/>
		</comp>
		<comp name="--.HNN" depth="0.0">
			<acc value="0.144482477035965" flag="0"/>
			<vel value="0.039877174216961" flag="0"/>
			<psa03 value="0.177753254447266" flag="0"/>
			<psa10 value="0.0301724962797944" flag="0"/>
			<psa30 value="0.00136461196134348" flag="0"/>
		</comp>
		<comp name="--.HNZ" depth="0.0">
			<acc value="0.147912642765225" flag="0"/>
			<vel value="0.034135764221047" flag="0"/>
			<psa03 value="0.163953725713194" flag="0"/>
			<psa10 value="0.016898043787461" flag="0"/>
			<psa30 value="0.00153363920023824" flag="0"/>
		</comp>
	</station>
	<station code="PASK" name="PASK" netid="HC" source="Seismological Network of Crete (HC)" insttype="" lat="35.4996" lon="24.0121">
		<comp name="--.HNE" depth="0.0">
			<acc value="0.389773125077831" flag="0"/>
			<vel value="0.107323392818507" flag="0"/>
			<psa03 value="0.688848882855816" flag="0"/>
			<psa10 value="0.0705602567708322" flag="0"/>
			<psa30 value="0.00344297745535737" flag="0"/>
		</comp>
		<comp name="--.HNN" depth="0.0">
			<acc value="0.397461206601085" flag="0"/>
			<vel value="0.113125868906694" flag="0"/>
			<psa03 value="0.47952947480614" flag="0"/>
			<psa10 value="0.0859498512557632" flag="0"/>
			<psa30 value="0.00540760239378662" flag="0"/>
		</comp>
		<comp name="--.HNZ" depth="0.0">
			<acc value="0.393694787879792" flag="0"/>
			<vel value="0.0791327390914028" flag="0"/>
			<psa03 value="0.307369195033946" flag="0"/>
			<psa10 value="0.0269499865543525" flag="0"/>
			<psa30 value="0.00240708362414336" flag="0"/>
		</comp>
	</station>
	<station code="POLY" name="POLY" netid="HC" source="Seismological Network of Crete (HC)" insttype="" lat="35.5226" lon="24.0602">
		<comp name="--.HNE" depth="0.0">
			<acc value="0.386277640014223" flag="0"/>
			<vel value="0.0887948310523066" flag="0"/>
			<psa03 value="0.33015237097435" flag="0"/>
			<psa10 value="0.0280150289831804" flag="0"/>
			<psa30 value="0.00206669649183261" flag="0"/>
		</comp>
		<comp name="--.HNN" depth="0.0">
			<acc value="0.47017060355961" flag="0"/>
			<vel value="0.0967680957387418" flag="0"/>
			<psa03 value="0.337359431740073" flag="0"/>
			<psa10 value="0.0323055475839768" flag="0"/>
			<psa30 value="0.00206174449711913" flag="0"/>
		</comp>
		<comp name="--.HNZ" depth="0.0">
			<acc value="0.354267690490433" flag="0"/>
			<vel value="0.0698815909312088" flag="0"/>
			<psa03 value="0.226678057975341" flag="0"/>
			<psa10 value="0.01999214313137" flag="0"/>
			<psa30 value="0.00130588036233131" flag="0"/>
		</comp>
	</station>
	<station code="SOUD" name="SOUD" netid="HC" source="Seismological Network of Crete (HC)" insttype="" lat="35.4878" lon="24.0678">
		<comp name="--.HNE" depth="0.0">
			<acc value="0.699651220391193" flag="0"/>
			<vel value="0.195066069100538" flag="0"/>
			<psa03 value="0.780583376486519" flag="0"/>
			<psa10 value="0.0525255895624593" flag="0"/>
			<psa30 value="0.00415227048420796" flag="0"/>
		</comp>
		<comp name="--.HNN" depth="0.0">
			<acc value="0.495336626875732" flag="0"/>
			<vel value="0.133351646155307" flag="0"/>
			<psa03 value="0.358562919700284" flag="0"/>
			<psa10 value="0.0703580508755959" flag="0"/>
			<psa30 value="0.00424626879446609" flag="0"/>
		</comp>
		<comp name="--.HNZ" depth="0.0">
			<acc value="0.00591763402712121" flag="0"/>
			<vel value="0.00487169870548215" flag="0"/>
			<psa03 value="0.00767424991785057" flag="0"/>
			<psa10 value="0.00638471029948219" flag="0"/>
			<psa30 value="0.00235117325368976" flag="0"/>
		</comp>
	</station>
	<station code="CH01" name="CH01" netid="HI" source="ITSAK Strong Motion Network" insttype="" lat="35.517" lon="24.0208">
		<comp name="--.HNE" depth="0.0">
			<acc value="0.451015380378501" flag="0"/>
			<vel value="0.0883131841326588" flag="0"/>
			<psa03 value="0.345170970049527" flag="0"/>
			<psa10 value="0.0422431734028136" flag="0"/>
			<psa30 value="0.00305325913843153" flag="0"/>
		</comp>
		<comp name="--.HNN" depth="0.0">
			<acc value="0.694706719389655" flag="0"/>
			<vel value="0.12583329702946" flag="0"/>
			<psa03 value="0.258263608696563" flag="0"/>
			<psa10 value="0.0319423322727615" flag="0"/>
			<psa30 value="0.00165102801833508" flag="0"/>
		</comp>
		<comp name="--.HNZ" depth="0.0">
			<acc value="0.406777365866517" flag="0"/>
			<vel value="0.0679160683563759" flag="0"/>
			<psa03 value="0.161802770722998" flag="0"/>
			<psa10 value="0.0304525142046176" flag="0"/>
			<psa30 value="0.00164053211469995" flag="0"/>
		</comp>
	</station>
	<station code="NPS1" name="NPS1" netid="HI" source="ITSAK Strong Motion Network" insttype="" lat="36.51263" lon="23.06248">
		<comp name="--.HNE" depth="0.0">
			<acc value="0.0130537635571705" flag="0"/>
			<vel value="0.00585461987478399" flag="0"/>
			<psa03 value="0.0378533044706495" flag="0"/>
			<psa10 value="0.00543274536148381" flag="0"/>
			<psa30 value="0.00041542538447605" flag="0"/>
		</comp>
		<comp name="--.HNN" depth="0.0">
			<acc value="0.013074665357533" flag="0"/>
			<vel value="0.00661240043372855" flag="0"/>
			<psa03 value="0.0305226704146214" flag="0"/>
			<psa10 value="0.00327025484145695" flag="0"/>
			<psa30 value="0.000282893141323801" flag="0"/>
		</comp>
		<comp name="--.HNZ" depth="0.0">
			<acc value="0.0142347406796465" flag="0"/>
			<vel value="0.00332027145196184" flag="0"/>
			<psa03 value="0.0199048146900297" flag="0"/>
			<psa10 value="0.00173950023335205" flag="0"/>
			<psa30 value="0.000244102941455215" flag="0"/>
		</comp>
	</station>
	<station code="IMMV" name="IMMV" netid="HL" source="National Observatory of Athens Seismic Network" insttype="" lat="35.4606" lon="23.9811">
		<comp name="--.HNE" depth="0.0">
			<acc value="0.222610950701435" flag="0"/>
			<vel value="0.0466076060727355" flag="0"/>
			<psa03 value="0.206482032588014" flag="0"/>
			<psa10 value="0.0216288096774879" flag="0"/>
			<psa30 value="0.00125548160699318" flag="0"/>
		</comp>
		<comp name="--.HNN" depth="0.0">
			<acc value="0.26432133771194" flag="0"/>
			<vel value="0.0597663368629202" flag="0"/>
			<psa03 value="0.20874411994034" flag="0"/>
			<psa10 value="0.030434719275777" flag="0"/>
			<psa30 value="0.00213933588717176" flag="0"/>
		</comp>
		<comp name="--.HNZ" depth="0.0">
			<acc value="0.140185694594073" flag="0"/>
			<vel value="0.0329952630612366" flag="0"/>
			<psa03 value="0.204006785281574" flag="0"/>
			<psa10 value="0.011770738816172" flag="0"/>
			<psa30 value="0.00101417447574963" flag="0"/>
		</comp>
	</station>
	<station code="SIVA" name="SIVA" netid="HL" source="National Observatory of Athens Seismic Network" insttype="" lat="35.01777" lon="24.81204">
		<comp name="00.HNE" depth="0.0">
			<acc value="0.0139164434316706" flag="0"/>
			<vel value="0.00761044466177533" flag="0"/>
			<psa03 value="0.0346964703458948" flag="0"/>
			<psa10 value="0.00632214209212233" flag="0"/>
			<psa30 value="0.000346260151577372" flag="0"/>
		</comp>
		<comp name="00.HNN" depth="0.0">
			<acc value="0.012393383221969" flag="0"/>
			<vel value="0.00704585185082886" flag="0"/>
			<psa03 value="0.0346108318602572" flag="0"/>
			<psa10 value="0.00577957443095903" flag="0"/>
			<psa30 value="0.000312948153154195" flag="0"/>
		</comp>
		<comp name="00.HNZ" depth="0.0">
			<acc value="0.00958715902648484" flag="0"/>
			<vel value="0.00442027666082813" flag="0"/>
			<psa03 value="0.0259580972007061" flag="0"/>
			<psa10 value="0.0024106032062586" flag="0"/>
			<psa30 value="0.000196936223141826" flag="0"/>
		</comp>
	</station>
</stationlist>
