<?xml version="1.0" encoding="UTF-8" standalone="yes"?>
<!DOCTYPE earthquake SYSTEM "stationlist.dtd">
<stationlist created="" xmlns="ch.ethz.sed.shakemap.usgs.xml">
  <station code="IMMV" name="IMMV" netid="GE" insttype="STS-2/N" lat="35.4606" lon="23.9811">
    <comp name="--.HHN">
      <acc value="0.2803288874" flag="0"/>
      <vel value="0.0637066365" flag="0"/>
      <psa03 value="0.2206663251" flag="0"/>
      <psa10 value="0.0314448784" flag="0"/>
      <psa30 value="0.0021327914" flag="0"/>
    </comp>
    <comp name="--.HHZ">
      <acc value="0.1445161531" flag="0"/>
      <vel value="0.0334093809" flag="0"/>
      <psa03 value="0.2097372464" flag="0"/>
      <psa10 value="0.0117009392" flag="0"/>
      <psa30 value="0.0010163971" flag="0"/>
    </comp>
    <comp name="--.HHE">
      <acc value="0.2324519523" flag="0"/>
      <vel value="0.0474883001" flag="0"/>
      <psa03 value="0.2171834100" flag="0"/>
      <psa10 value="0.0223805889" flag="0"/>
      <psa30 value="0.0012360272" flag="0"/>
    </comp>
  </station>
  <station code="ABEA" name="ABEA" netid="HC" insttype="DC" lat="35.5163" lon="24.0113">
    <comp name="--.HNE">
      <acc value="0.4066355479" flag="0"/>
      <vel value="0.0992437229" flag="0"/>
      <psa03 value="0.3225340516" flag="0"/>
      <psa10 value="0.0442650636" flag="0"/>
      <psa30 value="0.0030018414" flag="0"/>
    </comp>
    <comp name="--.HNZ">
      <acc value="0.4284333055" flag="0"/>
      <vel value="0.0892591440" flag="0"/>
      <psa03 value="0.2641370068" flag="0"/>
      <psa10 value="0.0245522525" flag="0"/>
      <psa30 value="0.0015182348" flag="0"/>
    </comp>
    <comp name="--.HNN">
      <acc value="0.7929021064" flag="0"/>
      <vel value="0.1746000520" flag="0"/>
      <psa03 value="0.4736080760" flag="0"/>
      <psa10 value="0.0315128549" flag="0"/>
      <psa30 value="0.0022810662" flag="0"/>
    </comp>
  </station>
  <station code="ATEI" name="ATEI" netid="HC" insttype="DC" lat="35.5193" lon="24.0432">
    <comp name="--.HNE">
      <acc value="0.3345621407" flag="0"/>
      <vel value="0.0891729182" flag="0"/>
      <psa03 value="0.4025171811" flag="0"/>
      <psa10 value="0.0335626824" flag="0"/>
      <psa30 value="0.0022797534" flag="0"/>
    </comp>
    <comp name="--.HNN">
      <acc value="0.4742102661" flag="0"/>
      <vel value="0.0943497077" flag="0"/>
      <psa03 value="0.5421656347" flag="0"/>
      <psa10 value="0.0352607963" flag="0"/>
      <psa30 value="0.0023571591" flag="0"/>
    </comp>
    <comp name="--.HNZ">
      <acc value="0.2869542803" flag="0"/>
      <vel value="0.0600207940" flag="0"/>
      <psa03 value="0.2361460878" flag="0"/>
      <psa10 value="0.0130427641" flag="0"/>
      <psa30 value="0.0011025501" flag="0"/>
    </comp>
  </station>
  <station code="CHAN" name="CHAN" netid="HC" insttype="120" lat="35.5193" lon="24.0428">
    <comp name="--.HHE">
      <acc value="0.7271797226" flag="0"/>
      <vel value="0.1947098800" flag="0"/>
      <psa03 value="0.9465789244" flag="0"/>
      <psa10 value="0.0643299179" flag="0"/>
      <psa30 value="0.0036650675" flag="0"/>
    </comp>
    <comp name="--.HHN">
      <acc value="0.8551284412" flag="0"/>
      <vel value="0.1532543378" flag="0"/>
      <psa03 value="0.9240360780" flag="0"/>
      <psa10 value="0.0590285928" flag="0"/>
      <psa30 value="0.0036694922" flag="0"/>
    </comp>
    <comp name="--.HHZ">
      <acc value="0.5255277104" flag="0"/>
      <vel value="0.1052186722" flag="0"/>
      <psa03 value="0.4270014588" flag="0"/>
      <psa10 value="0.0243054403" flag="0"/>
      <psa30 value="0.0018575298" flag="0"/>
    </comp>
  </station>
  <station code="G0LD" name="G0LD" netid="HC" insttype="DC" lat="35.4955" lon="24.0306">
    <comp name="--.HNE">
      <acc value="0.3513225761" flag="0"/>
      <vel value="0.1275533099" flag="0"/>
      <psa03 value="0.5912656457" flag="0"/>
      <psa10 value="0.0781292734" flag="0"/>
      <psa30 value="0.0057072846" flag="0"/>
    </comp>
    <comp name="--.HNN">
      <acc value="0.3361473870" flag="0"/>
      <vel value="0.1364824858" flag="0"/>
      <psa03 value="0.5331485242" flag="0"/>
      <psa10 value="0.1175950178" flag="0"/>
      <psa30 value="0.0062738731" flag="0"/>
    </comp>
    <comp name="--.HNZ">
      <acc value="0.2248408424" flag="0"/>
      <vel value="0.0795504793" flag="0"/>
      <psa03 value="0.2712543146" flag="0"/>
      <psa10 value="0.0779994472" flag="0"/>
      <psa30 value="0.0035670917" flag="0"/>
    </comp>
  </station>
  <station code="KNDR" name="KNDR" netid="HC" insttype="120" lat="35.2348" lon="23.6248">
    <comp name="--.HHN">
      <acc value="0.2591291475" flag="0"/>
      <vel value="0.0700347467" flag="0"/>
      <psa03 value="0.3663585522" flag="0"/>
      <psa10 value="0.0139559911" flag="0"/>
      <psa30 value="0.0010064449" flag="0"/>
    </comp>
    <comp name="--.HHZ">
      <acc value="0.2407479353" flag="0"/>
      <vel value="0.0583673677" flag="0"/>
      <psa03 value="0.1831377846" flag="0"/>
      <psa10 value="0.0096050268" flag="0"/>
      <psa30 value="0.0008686280" flag="0"/>
    </comp>
    <comp name="--.HHE">
      <acc value="0.2442996507" flag="0"/>
      <vel value="0.0648433142" flag="0"/>
      <psa03 value="0.3246433053" flag="0"/>
      <psa10 value="0.0270308191" flag="0"/>
      <psa30 value="0.0014289910" flag="0"/>
    </comp>
  </station>
  <station code="MULT" name="MULT" netid="HC" insttype="DC" lat="35.5091" lon="24.0118">
    <comp name="--.HNE">
      <acc value="0.0757464155" flag="0"/>
      <vel value="0.0130784192" flag="0"/>
      <psa03 value="0.0329778634" flag="0"/>
      <psa10 value="0.0054460881" flag="0"/>
      <psa30 value="0.0004132154" flag="0"/>
    </comp>
    <comp name="--.HNN">
      <acc value="0.0535060360" flag="0"/>
      <vel value="0.0098660699" flag="0"/>
      <psa03 value="0.0590360681" flag="0"/>
      <psa10 value="0.0038199034" flag="0"/>
      <psa30 value="0.0003845928" flag="0"/>
    </comp>
    <comp name="--.HNZ">
      <acc value="0.0673971468" flag="0"/>
      <vel value="0.0146444194" flag="0"/>
      <psa03 value="0.0423156855" flag="0"/>
      <psa10 value="0.0039538959" flag="0"/>
      <psa30 value="0.0003486606" flag="0"/>
    </comp>
  </station>
  <station code="PASK" name="PASK" netid="HC" insttype="DC" lat="35.4996" lon="24.0121">
    <comp name="--.HNZ">
      <acc value="0.3994928588" flag="0"/>
      <vel value="0.0789396509" flag="0"/>
      <psa03 value="0.3078888942" flag="0"/>
      <psa10 value="0.0269997364" flag="0"/>
      <psa30 value="0.0022120232" flag="0"/>
    </comp>
    <comp name="--.HNN">
      <acc value="0.4022474382" flag="0"/>
      <vel value="0.1130529122" flag="0"/>
      <psa03 value="0.4776227815" flag="0"/>
      <psa10 value="0.0858799665" flag="0"/>
      <psa30 value="0.0053182374" flag="0"/>
    </comp>
    <comp name="--.HNE">
      <acc value="0.3960873530" flag="0"/>
      <vel value="0.1066237534" flag="0"/>
      <psa03 value="0.6869596624" flag="0"/>
      <psa10 value="0.0704934627" flag="0"/>
      <psa30 value="0.0034042001" flag="0"/>
    </comp>
  </station>
  <station code="POLY" name="POLY" netid="HC" insttype="DC" lat="35.5226" lon="24.0602">
    <comp name="--.HNE">
      <acc value="0.3880375156" flag="0"/>
      <vel value="0.0884074418" flag="0"/>
      <psa03 value="0.3279424526" flag="0"/>
      <psa10 value="0.0279204459" flag="0"/>
      <psa30 value="0.0019633536" flag="0"/>
    </comp>
    <comp name="--.HNN">
      <acc value="0.4681735970" flag="0"/>
      <vel value="0.0964640992" flag="0"/>
      <psa03 value="0.3355435827" flag="0"/>
      <psa10 value="0.0323356332" flag="0"/>
      <psa30 value="0.0020076417" flag="0"/>
    </comp>
    <comp name="--.HNZ">
      <acc value="0.3545405990" flag="0"/>
      <vel value="0.0689155708" flag="0"/>
      <psa03 value="0.2270142122" flag="0"/>
      <psa10 value="0.0199618180" flag="0"/>
      <psa30 value="0.0012647124" flag="0"/>
    </comp>
  </station>
  <station code="RODP" name="RODP" netid="HC" insttype="120" lat="35.5604" lon="23.7577">
    <comp name="--.HHN">
      <acc value="1.4963800960" flag="0"/>
      <vel value="0.3865136106" flag="0"/>
      <psa03 value="1.4388031821" flag="0"/>
      <psa10 value="0.1000459883" flag="0"/>
      <psa30 value="0.0096988523" flag="0"/>
    </comp>
    <comp name="--.HHE">
      <acc value="1.2844411454" flag="0"/>
      <vel value="0.2604967024" flag="0"/>
      <psa03 value="1.3622083023" flag="0"/>
      <psa10 value="0.0508436960" flag="0"/>
      <psa30 value="0.0045884220" flag="0"/>
    </comp>
    <comp name="--.HHZ">
      <acc value="0.6383571330" flag="0"/>
      <vel value="0.2144471262" flag="0"/>
      <psa03 value="0.9112585994" flag="0"/>
      <psa10 value="0.0530985553" flag="0"/>
      <psa30 value="0.0046120790" flag="0"/>
    </comp>
  </station>
  <station code="CH01" name="CH01" netid="HI" insttype="CMG-5TD,ACCELEROMETER,GURALP" lat="35.517" lon="24.0208">
    <comp name="--.HNE">
      <acc value="0.4525490069" flag="0"/>
      <vel value="0.0847278131" flag="0"/>
      <psa03 value="0.3385771990" flag="0"/>
      <psa10 value="0.0422048331" flag="0"/>
      <psa30 value="0.0028213775" flag="0"/>
    </comp>
    <comp name="--.HNZ">
      <acc value="0.3965191727" flag="0"/>
      <vel value="0.0623653773" flag="0"/>
      <psa03 value="0.1563504254" flag="0"/>
      <psa10 value="0.0304299349" flag="0"/>
      <psa30 value="0.0015283952" flag="0"/>
    </comp>
    <comp name="--.HNN">
      <acc value="0.7000797866" flag="0"/>
      <vel value="0.1231223824" flag="0"/>
      <psa03 value="0.2532352601" flag="0"/>
      <psa10 value="0.0319032429" flag="0"/>
      <psa30 value="0.0015940128" flag="0"/>
    </comp>
  </station>
  <station code="IDI" name="IDI" netid="HL" insttype="120" lat="35.288" lon="24.89">
    <comp name="--.HHN">
      <acc value="0.0161845702" flag="0"/>
      <vel value="0.0073712137" flag="0"/>
      <psa03 value="0.0318135648" flag="0"/>
      <psa10 value="0.0038985899" flag="0"/>
      <psa30 value="0.0002534988" flag="0"/>
    </comp>
    <comp name="--.HHE">
      <acc value="0.0191824740" flag="0"/>
      <vel value="0.0055491861" flag="0"/>
      <psa03 value="0.0298471468" flag="0"/>
      <psa10 value="0.0039454218" flag="0"/>
      <psa30 value="0.0002698177" flag="0"/>
    </comp>
    <comp name="--.HHZ">
      <acc value="0.0209738696" flag="0"/>
      <vel value="0.0082640955" flag="0"/>
      <psa03 value="0.0339924720" flag="0"/>
      <psa10 value="0.0036436933" flag="0"/>
      <psa30 value="0.0002625232" flag="0"/>
    </comp>
  </station>
  <station code="IMMV" name="IMMV" netid="HL" insttype="120" lat="35.4606" lon="23.9811">
    <comp name="--.HHN">
      <acc value="0.2739055747" flag="0"/>
      <vel value="0.0611048803" flag="0"/>
      <psa03 value="0.2144776684" flag="0"/>
      <psa10 value="0.0311228028" flag="0"/>
      <psa30 value="0.0021146040" flag="0"/>
    </comp>
    <comp name="--.HHE">
      <acc value="0.2245884195" flag="0"/>
      <vel value="0.0459102178" flag="0"/>
      <psa03 value="0.2111722732" flag="0"/>
      <psa10 value="0.0222210101" flag="0"/>
      <psa30 value="0.0012103268" flag="0"/>
    </comp>
    <comp name="--.HHZ">
      <acc value="0.1422065744" flag="0"/>
      <vel value="0.0321103437" flag="0"/>
      <psa03 value="0.2033001149" flag="0"/>
      <psa10 value="0.0115815507" flag="0"/>
      <psa30 value="0.0010040440" flag="0"/>
    </comp>
  </station>
  <station code="VAM" name="VAM" netid="HL" insttype="CMG3ESPC-120s" lat="35.407" lon="24.1997">
    <comp name="--.HHE">
      <acc value="0.1611416679" flag="0"/>
      <vel value="0.0455107645" flag="0"/>
      <psa03 value="0.2371575801" flag="0"/>
      <psa10 value="0.0218348913" flag="0"/>
      <psa30 value="0.0012037926" flag="0"/>
    </comp>
    <comp name="--.HHN">
      <acc value="0.2382600671" flag="0"/>
      <vel value="0.0615798247" flag="0"/>
      <psa03 value="0.2875157202" flag="0"/>
      <psa10 value="0.0274435902" flag="0"/>
      <psa30 value="0.0012864658" flag="0"/>
    </comp>
    <comp name="--.HHZ">
      <acc value="0.1264515057" flag="0"/>
      <vel value="0.0294304265" flag="0"/>
      <psa03 value="0.0889584735" flag="0"/>
      <psa10 value="0.0116808133" flag="0"/>
      <psa30 value="0.0008202670" flag="0"/>
    </comp>
  </station>
  <station code="IDI" name="IDI" netid="MN" insttype="" lat="35.288" lon="24.89">
    <comp name="--.HHE">
      <acc value="0.0193380305" flag="0"/>
      <vel value="0.0056902180" flag="0"/>
      <psa03 value="0.0304900564" flag="0"/>
      <psa10 value="0.0039322712" flag="0"/>
      <psa30 value="0.0002680360" flag="0"/>
    </comp>
    <comp name="--.HHZ">
      <acc value="0.0213229786" flag="0"/>
      <vel value="0.0083910987" flag="0"/>
      <psa03 value="0.0346762031" flag="0"/>
      <psa10 value="0.0036746660" flag="0"/>
      <psa30 value="0.0002605016" flag="0"/>
    </comp>
    <comp name="--.HHN">
      <acc value="0.0167604697" flag="0"/>
      <vel value="0.0074587562" flag="0"/>
      <psa03 value="0.0321291580" flag="0"/>
      <psa10 value="0.0038795526" flag="0"/>
      <psa30 value="0.0002505560" flag="0"/>
    </comp>
  </station>
</stationlist>
