<?xml version="1.0" encoding="UTF-8" standalone="yes"?>
<!DOCTYPE earthquake SYSTEM "stationlist.dtd">
<stationlist created="" xmlns="ch.ethz.sed.shakemap.usgs.xml">
  <station code="EMUR" name="EMUR" netid="ES" insttype="XXXX" lat="37.8422" lon="-1.2405">
    <comp name="--.HHE">
      <acc value="0.0167303487" flag="0"/>
      <vel value="0.0075824477" flag="0"/>
      <psa03 value="0.0614490423" flag="0"/>
      <psa10 value="0.0059152978" flag="0"/>
      <psa30 value="0.0004076251" flag="0"/>
    </comp>
    <comp name="--.HHZ">
      <acc value="0.0165690878" flag="0"/>
      <vel value="0.0066264227" flag="0"/>
      <psa03 value="0.0590181297" flag="0"/>
      <psa10 value="0.0040015311" flag="0"/>
      <psa30 value="0.0003061737" flag="0"/>
    </comp>
    <comp name="--.HHN">
      <acc value="0.0138211580" flag="0"/>
      <vel value="0.0073858275" flag="0"/>
      <psa03 value="0.0436291439" flag="0"/>
      <psa10 value="0.0045414420" flag="0"/>
      <psa30 value="0.0003245282" flag="0"/>
    </comp>
  </station>
  <station code="CART" name="CART" netid="WM" insttype="FBA-EST/10.0" lat="37.5868" lon="-1.0012">
    <comp name="--.HLZ">
      <acc value="0.0210241309" flag="0"/>
      <vel value="0.0083724422" flag="0"/>
      <psa03 value="0.0551464108" flag="0"/>
      <psa10 value="0.0051641368" flag="0"/>
      <psa30 value="0.0002429641" flag="0"/>
    </comp>
    <comp name="--.HLE">
      <acc value="0.0226024141" flag="0"/>
      <vel value="0.0080679541" flag="0"/>
      <psa03 value="0.0428579585" flag="0"/>
      <psa10 value="0.0043109678" flag="0"/>
      <psa30 value="0.0004176109" flag="0"/>
    </comp>
    <comp name="--.HLN">
      <acc value="0.0290323665" flag="0"/>
      <vel value="0.0088903727" flag="0"/>
      <psa03 value="0.0308727624" flag="0"/>
      <psa10 value="0.0046179878" flag="0"/>
      <psa30 value="0.0003135091" flag="0"/>
    </comp>
  </station>
</stationlist>
