<?xml version="1.0" encoding="UTF-8" standalone="yes"?>
<!DOCTYPE earthquake SYSTEM "stationlist.dtd">
<stationlist created="" xmlns="ch.ethz.sed.shakemap.usgs.xml">
  <station code="EMUR" name="EMUR" netid="ES" insttype="XXXX" lat="37.8422" lon="-1.2405">
    <comp name="--.HHZ">
      <acc value="0.0165690880" flag="0"/>
      <vel value="0.0066264238" flag="0"/>
      <psa03 value="0.0590181297" flag="0"/>
      <psa10 value="0.0040015311" flag="0"/>
      <psa30 value="0.0003061515" flag="0"/>
    </comp>
    <comp name="--.HHE">
      <acc value="0.0167303489" flag="0"/>
      <vel value="0.0075824483" flag="0"/>
      <psa03 value="0.0614490423" flag="0"/>
      <psa10 value="0.0059152978" flag="0"/>
      <psa30 value="0.0004075658" flag="0"/>
    </comp>
    <comp name="--.HHN">
      <acc value="0.0138211580" flag="0"/>
      <vel value="0.0073858271" flag="0"/>
      <psa03 value="0.0436291439" flag="0"/>
      <psa10 value="0.0045414420" flag="0"/>
      <psa30 value="0.0003246188" flag="0"/>
    </comp>
  </station>
  <station code="CART" name="CART" netid="WM" insttype="FBA-EST/10.0" lat="37.5868" lon="-1.0012">
    <comp name="--.HLE">
      <acc value="0.0226024136" flag="0"/>
      <vel value="0.0080679547" flag="0"/>
      <psa03 value="0.0428579585" flag="0"/>
      <psa10 value="0.0043109678" flag="0"/>
      <psa30 value="0.0004174218" flag="0"/>
    </comp>
    <comp name="--.HLZ">
      <acc value="0.0210241311" flag="0"/>
      <vel value="0.0083724431" flag="0"/>
      <psa03 value="0.0551464108" flag="0"/>
      <psa10 value="0.0051641368" flag="0"/>
      <psa30 value="0.0002434008" flag="0"/>
    </comp>
    <comp name="--.HLN">
      <acc value="0.0290323672" flag="0"/>
      <vel value="0.0088903725" flag="0"/>
      <psa03 value="0.0308727624" flag="0"/>
      <psa10 value="0.0046179878" flag="0"/>
      <psa30 value="0.0003135141" flag="0"/>
    </comp>
  </station>
</stationlist>
