<?xml version="1.0" encoding="UTF-8" standalone="yes"?>
<!DOCTYPE earthquake SYSTEM "stationlist.dtd">
<stationlist created="" xmlns="ch.ethz.sed.shakemap.usgs.xml">
  <station code="PDG" name="PDG" netid="MN" insttype="" lat="42.4297" lon="19.2608">
    <comp name="--.HNE">
      <acc value="0.0057672299" flag="0"/>
      <vel value="0.0020188908" flag="0"/>
      <psa03 value="0.0105007635" flag="0"/>
      <psa10 value="0.0008894867" flag="0"/>
      <psa30 value="0.0001077040" flag="0"/>
    </comp>
    <comp name="--.HNN">
      <acc value="0.0051236400" flag="0"/>
      <vel value="0.0019317029" flag="0"/>
      <psa03 value="0.0076039973" flag="0"/>
      <psa10 value="0.0007839275" flag="0"/>
      <psa30 value="0.0001145290" flag="0"/>
    </comp>
    <comp name="--.HNZ">
      <acc value="0.0046930771" flag="0"/>
      <vel value="0.0014951687" flag="0"/>
      <psa03 value="0.0072578572" flag="0"/>
      <psa10 value="0.0009367416" flag="0"/>
      <psa30 value="0.0001210343" flag="0"/>
    </comp>
  </station>
</stationlist>
