<stationlist created="1778118984">
	<station code="3502" name="3502" netid="TK" source="Turkish National Strong Motion Network (TNSMN)" insttype="" lat="38.45514" lon="27.22673">
		<comp name="00.HNE" depth="None">
			<acc value="0.425264964525631" flag="0"/>
			<vel value="0.2268943743593" flag="0"/>
			<psa03 value="1.57702855667422" flag="0"/>
			<psa10 value="0.163580639350865" flag="0"/>
			<psa30 value="0.0106410390000236" flag="0"/>
		</comp>
		<comp name="00.HNN" depth="None">
			<acc value="0.438391680639694" flag="0"/>
			<vel value="0.252924696469387" flag="0"/>
			<psa03 value="1.63147982212866" flag="0"/>
			<psa10 value="0.11300404898957" flag="0"/>
			<psa30 value="0.0129099162976361" flag="0"/>
		</comp>
		<comp name="00.HNZ" depth="None">
			<acc value="0.210901981339648" flag="0"/>
			<vel value="0.0821554958889603" flag="0"/>
			<psa03 value="0.570731587622675" flag="0"/>
			<psa10 value="0.0806769098637367" flag="0"/>
			<psa30 value="0.00569836743490309" flag="0"/>
		</comp>
	</station>
</stationlist>
