<?xml version="1.0" encoding="UTF-8" standalone="yes"?>
<!DOCTYPE earthquake SYSTEM "stationlist.dtd">
<stationlist created="" xmlns="ch.ethz.sed.shakemap.usgs.xml">
  <station code="DARE" name="DARE" netid="KO" insttype="CMG-3ESP" lat="38.5712" lon="37.4832">
    <comp name="--.HHE">
      <acc value="0.0306969906" flag="0"/>
      <vel value="0.0103520683" flag="0"/>
      <psa03 value="0.0447271661" flag="0"/>
      <psa10 value="0.0052609627" flag="0"/>
      <psa30 value="0.0003234615" flag="0"/>
    </comp>
  </station>
</stationlist>
