<stationlist created="1675762349">
	<station code="ARPRA" name="ARPRA" netid="KO" source="Bogazici University Kandilli Observatory And Earthquake Research Institute (KOERI)" insttype="" lat="39.0929" lon="38.3356">
		<comp name=".HNE" depth="0.0">
			<acc value="0.205738318599" flag="0"/>
			<vel value="0.10970508764" flag="0"/>
			<psa03 value="0.307842101362" flag="0"/>
			<psa10 value="0.0853660500818" flag="0"/>
			<psa30 value="0.0141139016434" flag="0"/>
		</comp>
		<comp name=".HNN" depth="0.0">
			<acc value="0.140687882817" flag="0"/>
			<vel value="0.0638415934421" flag="0"/>
			<psa03 value="0.428984001418" flag="0"/>
			<psa10 value="0.0461675346225" flag="0"/>
			<psa30 value="0.00590146219291" flag="0"/>
		</comp>
		<comp name=".HNZ" depth="0.0">
			<acc value="0.0689789292997" flag="0"/>
			<vel value="0.030187846591" flag="0"/>
			<psa03 value="0.223189785228" flag="0"/>
			<psa10 value="0.027606814441" flag="0"/>
			<psa30 value="0.00590161386962" flag="0"/>
		</comp>
	</station>
	<station code="RFHY" name="RFHY" netid="KO" source="Bogazici University Kandilli Observatory And Earthquake Research Institute (KOERI)" insttype="" lat="39.927" lon="38.833">
		<comp name=".HNE" depth="0.0">
			<acc value="0.00251461834058" flag="0"/>
			<vel value="0.00424611603479" flag="0"/>
			<psa03 value="0.00297728837658" flag="0"/>
			<psa10 value="0.00143103749452" flag="0"/>
			<psa30 value="0.000747361748629" flag="0"/>
		</comp>
		<comp name=".HNN" depth="0.0">
			<acc value="0.012683678922" flag="0"/>
			<vel value="0.0151807114774" flag="0"/>
			<psa03 value="0.041271082965" flag="0"/>
			<psa10 value="0.0170616352496" flag="0"/>
			<psa30 value="0.00598310301787" flag="0"/>
		</comp>
		<comp name=".HNZ" depth="0.0">
			<acc value="0.00928103405081" flag="0"/>
			<vel value="0.0111176669758" flag="0"/>
			<psa03 value="0.0252957694706" flag="0"/>
			<psa10 value="0.0193810326483" flag="0"/>
			<psa30 value="0.00238109502753" flag="0"/>
		</comp>
	</station>
	<station code="TUNC" name="TUNC" netid="KO" source="Bogazici University Kandilli Observatory And Earthquake Research Institute (KOERI)" insttype="" lat="39.6942" lon="37.5388">
		<comp name=".HNE" depth="0.0">
			<acc value="0.0373252109043" flag="0"/>
			<vel value="0.0284650873409" flag="0"/>
			<psa03 value="0.102736587045" flag="0"/>
			<psa10 value="0.0279397483712" flag="0"/>
			<psa30 value="0.00944904428615" flag="0"/>
		</comp>
		<comp name=".HNN" depth="0.0">
			<acc value="0.0402837312446" flag="0"/>
			<vel value="0.0253689421992" flag="0"/>
			<psa03 value="0.0988455897018" flag="0"/>
			<psa10 value="0.0323614037842" flag="0"/>
			<psa30 value="0.00520282466162" flag="0"/>
		</comp>
		<comp name=".HNZ" depth="0.0">
			<acc value="0.0172248390676" flag="0"/>
			<vel value="0.0145871883428" flag="0"/>
			<psa03 value="0.0539208688681" flag="0"/>
			<psa10 value="0.0172979027762" flag="0"/>
			<psa30 value="0.0048906856506" flag="0"/>
		</comp>
	</station>
</stationlist>
