<stationlist created="1675764135">
	<station code="ARPRA" name="ARPRA" netid="KO" source="Bogazici University Kandilli Observatory And Earthquake Research Institute (KOERI)" insttype="" lat="39.0929" lon="38.3356">
		<comp name=".HNE" depth="0.0">
			<acc value="0.205738318599" flag="0"/>
			<vel value="0.10970508764" flag="0"/>
			<psa03 value="0.307842101362" flag="0"/>
			<psa10 value="0.0853660500818" flag="0"/>
			<psa30 value="0.0141139016434" flag="0"/>
		</comp>
		<comp name=".HNN" depth="0.0">
			<acc value="0.140687882817" flag="0"/>
			<vel value="0.0638415934421" flag="0"/>
			<psa03 value="0.428984001418" flag="0"/>
			<psa10 value="0.0461675346225" flag="0"/>
			<psa30 value="0.00590146219291" flag="0"/>
		</comp>
		<comp name=".HNZ" depth="0.0">
			<acc value="0.0689789292997" flag="0"/>
			<vel value="0.030187846591" flag="0"/>
			<psa03 value="0.223189785228" flag="0"/>
			<psa10 value="0.027606814441" flag="0"/>
			<psa30 value="0.00590161386962" flag="0"/>
		</comp>
	</station>
</stationlist>
