<?xml version="1.0" encoding="UTF-8" standalone="yes"?>
<!DOCTYPE earthquake SYSTEM "stationlist.dtd">
<stationlist created="" xmlns="ch.ethz.sed.shakemap.usgs.xml">
  <station code="GAZ" name="GAZ" netid="KO" insttype="CMG-3T" lat="37.1721" lon="37.2096">
    <comp name="--.HHE">
      <acc value="0.0156543064" flag="0"/>
      <vel value="0.0095752480" flag="0"/>
      <psa03 value="0.0332760242" flag="0"/>
      <psa10 value="0.0093791040" flag="0"/>
      <psa30 value="0.0016052180" flag="0"/>
    </comp>
    <comp name="--.HHZ">
      <acc value="0.0083695353" flag="0"/>
      <vel value="0.0037513719" flag="0"/>
      <psa03 value="0.0155068234" flag="0"/>
      <psa10 value="0.0050715791" flag="0"/>
      <psa30 value="0.0009539331" flag="0"/>
    </comp>
    <comp name="--.HHN">
      <acc value="0.0099549678" flag="0"/>
      <vel value="0.0064816539" flag="0"/>
      <psa03 value="0.0293930387" flag="0"/>
      <psa10 value="0.0062013733" flag="0"/>
      <psa30 value="0.0007319476" flag="0"/>
    </comp>
  </station>
</stationlist>
