<stationlist created="1778136225">
	<station code="S2114" name="S2114" netid="S2" source="IceSMN Icelandic Strong Motion Network (IceSMN)" insttype="" lat="63.7515" lon="-20.2168">
		<comp name="00.HN1" depth="0.0">
			<acc value="0.821070088861388" flag="0"/>
			<vel value="0.58746143974622" flag="0"/>
			<psa03 value="2.09340501114224" flag="0"/>
			<psa10 value="0.690585567906632" flag="0"/>
			<psa30 value="0.148825085598261" flag="0"/>
		</comp>
		<comp name="00.HN2" depth="0.0">
			<acc value="0.60180975963965" flag="0"/>
			<vel value="0.299431951737963" flag="0"/>
			<psa03 value="1.55303104734946" flag="0"/>
			<psa10 value="0.426361814377826" flag="0"/>
			<psa30 value="0.112572550712307" flag="0"/>
		</comp>
		<comp name="00.HNZ" depth="0.0">
			<acc value="0.283455687136132" flag="0"/>
			<vel value="0.246794670122392" flag="0"/>
			<psa03 value="0.772379082988583" flag="0"/>
			<psa10 value="0.282993836952732" flag="0"/>
			<psa30 value="0.145938894402176" flag="0"/>
		</comp>
	</station>
	<station code="S2119" name="S2119" netid="S2" source="IceSMN Icelandic Strong Motion Network (IceSMN)" insttype="" lat="64.1301" lon="-20.32">
		<comp name="00.HN1" depth="0.0">
			<acc value="0.27801317690021" flag="0"/>
			<vel value="0.293459839859837" flag="0"/>
			<psa03 value="0.758701760268931" flag="0"/>
			<psa10 value="0.242375121162181" flag="0"/>
			<psa30 value="0.0672857706853904" flag="0"/>
		</comp>
		<comp name="00.HN2" depth="0.0">
			<acc value="0.251721826081446" flag="0"/>
			<vel value="0.348552212857281" flag="0"/>
			<psa03 value="0.646413363379807" flag="0"/>
			<psa10 value="0.295072517106017" flag="0"/>
			<psa30 value="0.086708350669349" flag="0"/>
		</comp>
		<comp name="00.HNZ" depth="0.0">
			<acc value="0.128774321395244" flag="0"/>
			<vel value="0.15037762327726" flag="0"/>
			<psa03 value="0.183337020178019" flag="0"/>
			<psa10 value="0.154636633918029" flag="0"/>
			<psa30 value="0.0471161712153009" flag="0"/>
		</comp>
	</station>
</stationlist>
