<?xml version="1.0" encoding="UTF-8" standalone="yes"?>
<!DOCTYPE earthquake SYSTEM "stationlist.dtd">
<stationlist created="" xmlns="ch.ethz.sed.shakemap.usgs.xml">
  <station code="SKR" name="SKR" netid="VI" source="ODC" insttype="LE-3D/5s" lat="64.5601" lon="-18.3865">
    <comp name="--.HHE">
      <acc value="0.1011740853" flag="0"/>
      <vel value="0.2409434199" flag="0"/>
      <psa03 value="0.1501371674" flag="0"/>
      <psa10 value="0.2294992777" flag="0"/>
      <psa30 value="0.1050296826" flag="0"/>
    </comp>
    <comp name="--.HHZ">
      <acc value="0.0889202815" flag="0"/>
      <vel value="0.1690700837" flag="0"/>
      <psa03 value="0.1564574716" flag="0"/>
      <psa10 value="0.2724935341" flag="0"/>
      <psa30 value="0.0762830363" flag="0"/>
    </comp>
    <comp name="--.HHN">
      <acc value="0.1326827047" flag="0"/>
      <vel value="0.4186388299" flag="0"/>
      <psa03 value="0.1656692871" flag="0"/>
      <psa10 value="0.3738651980" flag="0"/>
      <psa30 value="0.2199982312" flag="0"/>
    </comp>
  </station>
</stationlist>
