<stationlist created="1675692194">
	<station code="GUMT" name="GUMT" netid="KO" source="Bogazici University Kandilli Observatory And Earthquake Research Institute (KOERI)" insttype="" lat="40.4665" lon="39.478">
		<comp name=".HNE" depth="0.0">
			<acc value="0.0015985772515" flag="0"/>
			<vel value="0.00845534697935" flag="0"/>
			<psa03 value="0.0029116186617" flag="0"/>
			<psa10 value="0.00541489746039" flag="0"/>
			<psa30 value="0.0014332116099" flag="0"/>
		</comp>
		<comp name=".HNN" depth="0.0">
			<acc value="0.00140023171912" flag="0"/>
			<vel value="0.00310634931042" flag="0"/>
			<psa03 value="0.00214490511027" flag="0"/>
			<psa10 value="0.0032280040738" flag="0"/>
			<psa30 value="0.00144823166741" flag="0"/>
		</comp>
		<comp name=".HNZ" depth="0.0">
			<acc value="0.00194762202708" flag="0"/>
			<vel value="0.00247576044649" flag="0"/>
			<psa03 value="0.00212348197885" flag="0"/>
			<psa10 value="0.0033697058046" flag="0"/>
			<psa30 value="0.000920691095431" flag="0"/>
		</comp>
	</station>
	<station code="TUNC" name="TUNC" netid="KO" source="Bogazici University Kandilli Observatory And Earthquake Research Institute (KOERI)" insttype="" lat="39.6942" lon="37.5388">
		<comp name=".HNE" depth="0.0">
			<acc value="0.0111538425738" flag="0"/>
			<vel value="0.0151345086459" flag="0"/>
			<psa03 value="0.0295973200522" flag="0"/>
			<psa10 value="0.0161261864057" flag="0"/>
			<psa30 value="0.00493311721146" flag="0"/>
		</comp>
		<comp name=".HNN" depth="0.0">
			<acc value="0.0196843929215" flag="0"/>
			<vel value="0.0249764260513" flag="0"/>
			<psa03 value="0.0257108698856" flag="0"/>
			<psa10 value="0.0265226476202" flag="0"/>
			<psa30 value="0.00735397216455" flag="0"/>
		</comp>
		<comp name=".HNZ" depth="0.0">
			<acc value="0.00901549183335" flag="0"/>
			<vel value="0.0139451375964" flag="0"/>
			<psa03 value="0.0198440710827" flag="0"/>
			<psa10 value="0.0168206011573" flag="0"/>
			<psa30 value="0.00552891209662" flag="0"/>
		</comp>
	</station>
</stationlist>
