<stationlist created="1745413352">
	<station code="ARMT" name="ARMT" netid="KO" source="Bogazici University Kandilli Observatory And Earthquake Research Institute (KOERI)" insttype="" lat="40.5683" lon="28.866">
		<comp name=".HNE" depth="0.0">
			<acc value="0.1285091913099" flag="0"/>
			<vel value="0.0388517020135" flag="0"/>
			<psa03 value="0.198827754696443" flag="0"/>
			<psa10 value="0.0102972633931501" flag="0"/>
			<psa30 value="0.0021374199269146" flag="0"/>
		</comp>
		<comp name=".HNN" depth="0.0">
			<acc value="0.1938403311366" flag="0"/>
			<vel value="0.0554839980556" flag="0"/>
			<psa03 value="0.203566610288671" flag="0"/>
			<psa10 value="0.0112723458001053" flag="0"/>
			<psa30 value="0.00153856088044232" flag="0"/>
		</comp>
		<comp name=".HNZ" depth="0.0">
			<acc value="0.1049790854094" flag="0"/>
			<vel value="0.0250145136561" flag="0"/>
			<psa03 value="0.0808903637978618" flag="0"/>
			<psa10 value="0.009146524974891" flag="0"/>
			<psa30 value="0.00128836191015347" flag="0"/>
		</comp>
	</station>
	<station code="ARMU" name="ARMU" netid="KO" source="Bogazici University Kandilli Observatory And Earthquake Research Institute (KOERI)" insttype="" lat="40.5088" lon="28.838">
		<comp name=".HNE" depth="0.0">
			<acc value="0.2166142893774" flag="0"/>
			<vel value="0.0764642250441" flag="0"/>
			<psa03 value="0.53027766995913" flag="0"/>
			<psa10 value="0.0196167995166992" flag="0"/>
			<psa30 value="0.00280043489006902" flag="0"/>
		</comp>
		<comp name=".HNN" depth="0.0">
			<acc value="0.24079316654922" flag="0"/>
			<vel value="0.0952364507507" flag="0"/>
			<psa03 value="0.493816671264648" flag="0"/>
			<psa10 value="0.0183412893954195" flag="0"/>
			<psa30 value="0.00256478615449467" flag="0"/>
		</comp>
		<comp name=".HNZ" depth="0.0">
			<acc value="0.10979038259286" flag="0"/>
			<vel value="0.0194717778346" flag="0"/>
			<psa03 value="0.0694608618580513" flag="0"/>
			<psa10 value="0.00979476760528122" flag="0"/>
			<psa30 value="0.0013365825003647" flag="0"/>
		</comp>
	</station>
	<station code="ATAM" name="ATAM" netid="KO" source="Bogazici University Kandilli Observatory And Earthquake Research Institute (KOERI)" insttype="" lat="40.9688" lon="28.875">
		<comp name=".HNE" depth="0.0">
			<acc value="0.51604501500396" flag="0"/>
			<vel value="0.21934164982" flag="0"/>
			<psa03 value="2.05718694520708" flag="0"/>
			<psa10 value="0.0925761802176236" flag="0"/>
			<psa30 value="0.0124819802032771" flag="0"/>
		</comp>
		<comp name=".HNN" depth="0.0">
			<acc value="0.27365777870718" flag="0"/>
			<vel value="0.158304415986" flag="0"/>
			<psa03 value="1.30676556680448" flag="0"/>
			<psa10 value="0.0534132471156032" flag="0"/>
			<psa30 value="0.00833716062928776" flag="0"/>
		</comp>
		<comp name=".HNZ" depth="0.0">
			<acc value="0.15381146014728" flag="0"/>
			<vel value="0.0431041654345" flag="0"/>
			<psa03 value="0.415204838616274" flag="0"/>
			<psa10 value="0.0264059436391617" flag="0"/>
			<psa30 value="0.00310690644230263" flag="0"/>
		</comp>
	</station>
	<station code="AVCI" name="AVCI" netid="KO" source="Bogazici University Kandilli Observatory And Earthquake Research Institute (KOERI)" insttype="" lat="40.9958" lon="28.7225">
		<comp name=".HNE" depth="0.0">
			<acc value="0.33087197207496" flag="0"/>
			<vel value="0.179015813462" flag="0"/>
			<psa03 value="0.752605356410151" flag="0"/>
			<psa10 value="0.113788890455646" flag="0"/>
			<psa30 value="0.00929483073692345" flag="0"/>
		</comp>
		<comp name=".HNN" depth="0.0">
			<acc value="0.2222964286377" flag="0"/>
			<vel value="0.0894651826618" flag="0"/>
			<psa03 value="0.534070921242857" flag="0"/>
			<psa10 value="0.0986451922598462" flag="0"/>
			<psa30 value="0.00827974682591437" flag="0"/>
		</comp>
		<comp name=".HNZ" depth="0.0">
			<acc value="0.23306245373502" flag="0"/>
			<vel value="0.0425916156627" flag="0"/>
			<psa03 value="0.31232033552295" flag="0"/>
			<psa10 value="0.036112162253509" flag="0"/>
			<psa30 value="0.00580854478756351" flag="0"/>
		</comp>
	</station>
	<station code="BIGA" name="BIGA" netid="KO" source="Bogazici University Kandilli Observatory And Earthquake Research Institute (KOERI)" insttype="" lat="40.28134" lon="27.15048">
		<comp name=".HNE" depth="0.0">
			<acc value="0.13862214360108" flag="0"/>
			<vel value="0.0426745346504" flag="0"/>
			<psa03 value="0.225063784370997" flag="0"/>
			<psa10 value="0.0343142894032692" flag="0"/>
			<psa30 value="0.00564631279053358" flag="0"/>
		</comp>
		<comp name=".HNN" depth="0.0">
			<acc value="0.15501509472834" flag="0"/>
			<vel value="0.0493548935551" flag="0"/>
			<psa03 value="0.304077310296278" flag="0"/>
			<psa10 value="0.0414212277029491" flag="0"/>
			<psa30 value="0.00286224127610493" flag="0"/>
		</comp>
		<comp name=".HNZ" depth="0.0">
			<acc value="0.14841621345342" flag="0"/>
			<vel value="0.046344558549" flag="0"/>
			<psa03 value="0.313532895015731" flag="0"/>
			<psa10 value="0.0512980357432792" flag="0"/>
			<psa30 value="0.00397176310981143" flag="0"/>
		</comp>
	</station>
	<station code="BMYO" name="BMYO" netid="KO" source="Bogazici University Kandilli Observatory And Earthquake Research Institute (KOERI)" insttype="" lat="39.8098" lon="26.6009">
		<comp name=".HNE" depth="0.0">
			<acc value="0.052669533983358" flag="0"/>
			<vel value="0.0531588030341" flag="0"/>
			<psa03 value="0.139091234945231" flag="0"/>
			<psa10 value="0.0681790140251367" flag="0"/>
			<psa30 value="0.0062090104831509" flag="0"/>
		</comp>
		<comp name=".HNN" depth="0.0">
			<acc value="0.04916922094038" flag="0"/>
			<vel value="0.0357656675491" flag="0"/>
			<psa03 value="0.124851197862419" flag="0"/>
			<psa10 value="0.0560727920472931" flag="0"/>
			<psa30 value="0.00734179302441381" flag="0"/>
		</comp>
		<comp name=".HNZ" depth="0.0">
			<acc value="0.046140047974938" flag="0"/>
			<vel value="0.0434120900452" flag="0"/>
			<psa03 value="0.0781103983890128" flag="0"/>
			<psa10 value="0.0739659248795713" flag="0"/>
			<psa30 value="0.00494854740032557" flag="0"/>
		</comp>
	</station>
	<station code="BOTS" name="BOTS" netid="KO" source="Bogazici University Kandilli Observatory And Earthquake Research Institute (KOERI)" insttype="" lat="40.9902" lon="27.981">
		<comp name=".HNE" depth="0.0">
			<acc value="0.20493575838156" flag="0"/>
			<vel value="0.132587925734" flag="0"/>
			<psa03 value="0.342956135827507" flag="0"/>
			<psa10 value="0.0967898018494183" flag="0"/>
			<psa30 value="0.00612801261743933" flag="0"/>
		</comp>
		<comp name=".HNN" depth="0.0">
			<acc value="0.41857842032028" flag="0"/>
			<vel value="0.149476641665" flag="0"/>
			<psa03 value="0.78619783174734" flag="0"/>
			<psa10 value="0.133127099016973" flag="0"/>
			<psa30 value="0.00623354877532591" flag="0"/>
		</comp>
		<comp name=".HNZ" depth="0.0">
			<acc value="0.2800473616074" flag="0"/>
			<vel value="0.0529686963622" flag="0"/>
			<psa03 value="0.146689311197165" flag="0"/>
			<psa10 value="0.0297225658491342" flag="0"/>
			<psa30 value="0.00298400225883883" flag="0"/>
		</comp>
	</station>
	<station code="BRGA" name="BRGA" netid="KO" source="Bogazici University Kandilli Observatory And Earthquake Research Institute (KOERI)" insttype="" lat="40.8846" lon="29.065">
		<comp name=".HNE" depth="0.0">
			<acc value="0.10331470037982" flag="0"/>
			<vel value="0.0349381250424" flag="0"/>
			<psa03 value="0.231174418337364" flag="0"/>
			<psa10 value="0.0183463316044348" flag="0"/>
			<psa30 value="0.0016827593912172" flag="0"/>
		</comp>
		<comp name=".HNN" depth="0.0">
			<acc value="0.13044132580296" flag="0"/>
			<vel value="0.0397002700555" flag="0"/>
			<psa03 value="0.32687509137076" flag="0"/>
			<psa10 value="0.0246461939393844" flag="0"/>
			<psa30 value="0.00316344539606622" flag="0"/>
		</comp>
		<comp name=".HNZ" depth="0.0">
			<acc value="0.087392557221972" flag="0"/>
			<vel value="0.0263652522566" flag="0"/>
			<psa03 value="0.100205721470656" flag="0"/>
			<psa10 value="0.00901772644263079" flag="0"/>
			<psa30 value="0.00102263441117833" flag="0"/>
		</comp>
	</station>
	<station code="BUYK" name="BUYK" netid="KO" source="Bogazici University Kandilli Observatory And Earthquake Research Institute (KOERI)" insttype="" lat="41.0168" lon="28.5828">
		<comp name=".HNE" depth="0.0">
			<acc value="0.49174390441854" flag="0"/>
			<vel value="0.216260891864" flag="0"/>
			<psa03 value="0.76538086939201" flag="0"/>
			<psa10 value="0.218391487364356" flag="0"/>
			<psa30 value="0.0123883681685959" flag="0"/>
		</comp>
		<comp name=".HNN" depth="0.0">
			<acc value="0.51818936658642" flag="0"/>
			<vel value="0.279744197484" flag="0"/>
			<psa03 value="0.863169014043134" flag="0"/>
			<psa10 value="0.218927937901316" flag="0"/>
			<psa30 value="0.014775012105377" flag="0"/>
		</comp>
		<comp name=".HNZ" depth="0.0">
			<acc value="0.32576117228538" flag="0"/>
			<vel value="0.125827573819" flag="0"/>
			<psa03 value="0.487625802818148" flag="0"/>
			<psa10 value="0.175139092105183" flag="0"/>
			<psa30 value="0.005917016556659" flag="0"/>
		</comp>
	</station>
	<station code="BYKA" name="BYKA" netid="KO" source="Bogazici University Kandilli Observatory And Earthquake Research Institute (KOERI)" insttype="" lat="40.8738" lon="29.1251">
		<comp name=".HNE" depth="0.0">
			<acc value="0.140422014483" flag="0"/>
			<vel value="0.0422531588097" flag="0"/>
			<psa03 value="0.21619209249839" flag="0"/>
			<psa10 value="0.0121236175051622" flag="0"/>
			<psa30 value="0.00189547264909569" flag="0"/>
		</comp>
		<comp name=".HNN" depth="0.0">
			<acc value="0.167590318986" flag="0"/>
			<vel value="0.0493282167073" flag="0"/>
			<psa03 value="0.344405586013282" flag="0"/>
			<psa10 value="0.0163213549596469" flag="0"/>
			<psa30 value="0.00297860440125796" flag="0"/>
		</comp>
		<comp name=".HNZ" depth="0.0">
			<acc value="0.08189074602852" flag="0"/>
			<vel value="0.0188850167476" flag="0"/>
			<psa03 value="0.0739412784551024" flag="0"/>
			<psa10 value="0.00751590101657156" flag="0"/>
			<psa30 value="0.00111264808247357" flag="0"/>
		</comp>
	</station>
	<station code="CADB" name="CADB" netid="KO" source="Bogazici University Kandilli Observatory And Earthquake Research Institute (KOERI)" insttype="" lat="40.9534" lon="29.083">
		<comp name=".HNE" depth="0.0">
			<acc value="0.5855215008624" flag="0"/>
			<vel value="0.109604031317" flag="0"/>
			<psa03 value="0.221136940903852" flag="0"/>
			<psa10 value="0.0109561773554795" flag="0"/>
			<psa30 value="0.00132096740344138" flag="0"/>
		</comp>
		<comp name=".HNN" depth="0.0">
			<acc value="0.37096058547204" flag="0"/>
			<vel value="0.0693846900226" flag="0"/>
			<psa03 value="0.180863085458482" flag="0"/>
			<psa10 value="0.0115867019371511" flag="0"/>
			<psa30 value="0.00205874054812243" flag="0"/>
		</comp>
		<comp name=".HNZ" depth="0.0">
			<acc value="0.1141506449859" flag="0"/>
			<vel value="0.0212955249354" flag="0"/>
			<psa03 value="0.140327098065103" flag="0"/>
			<psa10 value="0.00690735101562432" flag="0"/>
			<psa30 value="0.00105941330593089" flag="0"/>
		</comp>
	</station>
	<station code="CANM" name="CANM" netid="KO" source="Bogazici University Kandilli Observatory And Earthquake Research Institute (KOERI)" insttype="" lat="40.0113" lon="27.0529">
		<comp name=".HNE" depth="0.0">
			<acc value="0.095317167087132" flag="0"/>
			<vel value="0.0566797444539" flag="0"/>
			<psa03 value="0.156215035979553" flag="0"/>
			<psa10 value="0.0354370162784028" flag="0"/>
			<psa30 value="0.00411895452718852" flag="0"/>
		</comp>
		<comp name=".HNN" depth="0.0">
			<acc value="0.10397696646534" flag="0"/>
			<vel value="0.0537469940333" flag="0"/>
			<psa03 value="0.239640812527745" flag="0"/>
			<psa10 value="0.076154059832872" flag="0"/>
			<psa30 value="0.00456841221823939" flag="0"/>
		</comp>
		<comp name=".HNZ" depth="0.0">
			<acc value="0.083492415460908" flag="0"/>
			<vel value="0.0415428606011" flag="0"/>
			<psa03 value="0.158361521923523" flag="0"/>
			<psa10 value="0.0435571329462745" flag="0"/>
			<psa30 value="0.00325260880270384" flag="0"/>
		</comp>
	</station>
	<station code="CRLU" name="CRLU" netid="KO" source="Bogazici University Kandilli Observatory And Earthquake Research Institute (KOERI)" insttype="" lat="41.1428" lon="27.8215">
		<comp name=".HNE" depth="0.0">
			<acc value="0.1637772117117" flag="0"/>
			<vel value="0.117733138647" flag="0"/>
			<psa03 value="0.379167993018644" flag="0"/>
			<psa10 value="0.112474563387888" flag="0"/>
			<psa30 value="0.00912986314196322" flag="0"/>
		</comp>
		<comp name=".HNN" depth="0.0">
			<acc value="0.1180775990502" flag="0"/>
			<vel value="0.0943075002191" flag="0"/>
			<psa03 value="0.321592158068794" flag="0"/>
			<psa10 value="0.0661061767096018" flag="0"/>
			<psa30 value="0.00790481782206889" flag="0"/>
		</comp>
		<comp name=".HNZ" depth="0.0">
			<acc value="0.19472264138454" flag="0"/>
			<vel value="0.0534855231552" flag="0"/>
			<psa03 value="0.273152365837128" flag="0"/>
			<psa10 value="0.0473878917154547" flag="0"/>
			<psa30 value="0.00269906838336875" flag="0"/>
		</comp>
	</station>
	<station code="CTYL" name="CTYL" netid="KO" source="Bogazici University Kandilli Observatory And Earthquake Research Institute (KOERI)" insttype="" lat="41.476" lon="28.2897">
		<comp name=".HNE" depth="0.0">
			<acc value="0.25270595760252" flag="0"/>
			<vel value="0.0685893846869" flag="0"/>
			<psa03 value="0.177014226323707" flag="0"/>
			<psa10 value="0.0454141397140614" flag="0"/>
			<psa30 value="0.00591714448178648" flag="0"/>
		</comp>
		<comp name=".HNN" depth="0.0">
			<acc value="0.41066520683148" flag="0"/>
			<vel value="0.106395488699" flag="0"/>
			<psa03 value="0.246920211418868" flag="0"/>
			<psa10 value="0.0371323460857003" flag="0"/>
			<psa30 value="0.00300266870373084" flag="0"/>
		</comp>
		<comp name=".HNZ" depth="0.0">
			<acc value="0.053934512178174" flag="0"/>
			<vel value="0.0126559635564" flag="0"/>
			<psa03 value="0.0474234749058491" flag="0"/>
			<psa10 value="0.00686421472053179" flag="0"/>
			<psa30 value="0.000682476929495707" flag="0"/>
		</comp>
	</station>
	<station code="CYAG" name="CYAG" netid="KO" source="Bogazici University Kandilli Observatory And Earthquake Research Institute (KOERI)" insttype="" lat="40.4924" lon="27.9761">
		<comp name=".HNE" depth="0.0">
			<acc value="0.27870649506558" flag="0"/>
			<vel value="0.0453551516846" flag="0"/>
			<psa03 value="0.0659705264736263" flag="0"/>
			<psa10 value="0.0110888123919141" flag="0"/>
			<psa30 value="0.00150567120166001" flag="0"/>
		</comp>
		<comp name=".HNN" depth="0.0">
			<acc value="0.16863606431028" flag="0"/>
			<vel value="0.0422083843396" flag="0"/>
			<psa03 value="0.074685536092066" flag="0"/>
			<psa10 value="0.0165895089735635" flag="0"/>
			<psa30 value="0.002641160172232" flag="0"/>
		</comp>
		<comp name=".HNZ" depth="0.0">
			<acc value="0.11565339207408" flag="0"/>
			<vel value="0.0251593411006" flag="0"/>
			<psa03 value="0.0374749695119622" flag="0"/>
			<psa10 value="0.0138047263703637" flag="0"/>
			<psa30 value="0.00158091212350242" flag="0"/>
		</comp>
	</station>
	<station code="DGNL" name="DGNL" netid="KO" source="Bogazici University Kandilli Observatory And Earthquake Research Institute (KOERI)" insttype="" lat="40.5209" lon="27.7484">
		<comp name=".HNE" depth="0.0">
			<acc value="0.22455996526176" flag="0"/>
			<vel value="0.0293591089021" flag="0"/>
			<psa03 value="0.0726713870392442" flag="0"/>
			<psa10 value="0.0105220814112736" flag="0"/>
			<psa30 value="0.000940567828837639" flag="0"/>
		</comp>
		<comp name=".HNN" depth="0.0">
			<acc value="0.22405018791348" flag="0"/>
			<vel value="0.0376433846579" flag="0"/>
			<psa03 value="0.0935105696164242" flag="0"/>
			<psa10 value="0.0182803178563466" flag="0"/>
			<psa30 value="0.00177295036592661" flag="0"/>
		</comp>
		<comp name=".HNZ" depth="0.0">
			<acc value="0.077186448369654" flag="0"/>
			<vel value="0.0131803443926" flag="0"/>
			<psa03 value="0.0410162041014136" flag="0"/>
			<psa10 value="0.0057893016378069" flag="0"/>
			<psa30 value="0.00109582717650479" flag="0"/>
		</comp>
	</station>
	<station code="DOGC" name="DOGC" netid="KO" source="Bogazici University Kandilli Observatory And Earthquake Research Institute (KOERI)" insttype="" lat="41.3949" lon="26.9852">
		<comp name=".HNE" depth="0.0">
			<acc value="0.055857906476364" flag="0"/>
			<vel value="0.0399112732417" flag="0"/>
			<psa03 value="0.174664237315046" flag="0"/>
			<psa10 value="0.0354174362313291" flag="0"/>
			<psa30 value="0.00434536452573879" flag="0"/>
		</comp>
		<comp name=".HNN" depth="0.0">
			<acc value="0.080651861141694" flag="0"/>
			<vel value="0.0332474160542" flag="0"/>
			<psa03 value="0.239957104313739" flag="0"/>
			<psa10 value="0.0243082684284865" flag="0"/>
			<psa30 value="0.00322899140483562" flag="0"/>
		</comp>
		<comp name=".HNZ" depth="0.0">
			<acc value="0.092432065774662" flag="0"/>
			<vel value="0.0606521783107" flag="0"/>
			<psa03 value="0.182915742270396" flag="0"/>
			<psa10 value="0.0582631846501926" flag="0"/>
			<psa30 value="0.00620276965305988" flag="0"/>
		</comp>
	</station>
	<station code="DST" name="DST" netid="KO" source="Bogazici University Kandilli Observatory And Earthquake Research Institute (KOERI)" insttype="" lat="39.6041" lon="28.6267">
		<comp name=".HNE" depth="0.0">
			<acc value="0.066549275870466" flag="0"/>
			<vel value="0.04372722338" flag="0"/>
			<psa03 value="0.245773239604173" flag="0"/>
			<psa10 value="0.038395080985686" flag="0"/>
			<psa30 value="0.0030714059655728" flag="0"/>
		</comp>
		<comp name=".HNN" depth="0.0">
			<acc value="0.06763894268973" flag="0"/>
			<vel value="0.0388403698457" flag="0"/>
			<psa03 value="0.272000456195106" flag="0"/>
			<psa10 value="0.0628418779659993" flag="0"/>
			<psa30 value="0.00325404139760554" flag="0"/>
		</comp>
		<comp name=".HNZ" depth="0.0">
			<acc value="0.05465737043988" flag="0"/>
			<vel value="0.0297363059413" flag="0"/>
			<psa03 value="0.134866767594814" flag="0"/>
			<psa10 value="0.029364966534929" flag="0"/>
			<psa30 value="0.00273116717641945" flag="0"/>
		</comp>
	</station>
	<station code="EDC" name="EDC" netid="KO" source="Bogazici University Kandilli Observatory And Earthquake Research Institute (KOERI)" insttype="" lat="40.3465" lon="27.8618">
		<comp name=".HNE" depth="0.0">
			<acc value="0.11487270561852" flag="0"/>
			<vel value="0.0560218510675" flag="0"/>
			<psa03 value="0.22738595903703" flag="0"/>
			<psa10 value="0.0235211381599676" flag="0"/>
			<psa30 value="0.00219534688929092" flag="0"/>
		</comp>
		<comp name=".HNN" depth="0.0">
			<acc value="0.13460322236388" flag="0"/>
			<vel value="0.046508764325" flag="0"/>
			<psa03 value="0.225474269897316" flag="0"/>
			<psa10 value="0.0283252532839987" flag="0"/>
			<psa30 value="0.00211147195798627" flag="0"/>
		</comp>
		<comp name=".HNZ" depth="0.0">
			<acc value="0.070962994881486" flag="0"/>
			<vel value="0.0164814676867" flag="0"/>
			<psa03 value="0.0454577144756603" flag="0"/>
			<psa10 value="0.0119814193352381" flag="0"/>
			<psa30 value="0.00149892940088452" flag="0"/>
		</comp>
	</station>
	<station code="ENZZ" name="ENZZ" netid="KO" source="Bogazici University Kandilli Observatory And Earthquake Research Institute (KOERI)" insttype="" lat="40.607" lon="26.1406">
		<comp name=".HNE" depth="0.0">
			<acc value="0.08301996527028" flag="0"/>
			<vel value="0.0676724789978" flag="0"/>
			<psa03 value="0.255266493485803" flag="0"/>
			<psa10 value="0.0937968260795174" flag="0"/>
			<psa30 value="0.00634063045229387" flag="0"/>
		</comp>
		<comp name=".HNN" depth="0.0">
			<acc value="0.065239065996786" flag="0"/>
			<vel value="0.0498360149115" flag="0"/>
			<psa03 value="0.144534001751799" flag="0"/>
			<psa10 value="0.0440202436251078" flag="0"/>
			<psa30 value="0.00490192181159304" flag="0"/>
		</comp>
		<comp name=".HNZ" depth="0.0">
