<?xml version="1.0" encoding="UTF-8" standalone="yes"?>
<!DOCTYPE earthquake SYSTEM "stationlist.dtd">
<stationlist created="" xmlns="ch.ethz.sed.shakemap.usgs.xml">
  <station code="ARMT" name="ARMT" netid="KO" insttype="CMG-5T" commtype="DIG" lat="40.5683" lon="28.866">
    <comp name="--.HNN">
      <acc value="0.1929995778" flag="0"/>
      <vel value="0.0569693157" flag="0"/>
      <psa03 value="0.2010658177" flag="0"/>
      <psa10 value="0.0110895405" flag="0"/>
      <psa30 value="0.0009627552" flag="0"/>
    </comp>
    <comp name="--.HNE">
      <acc value="0.1287518567" flag="0"/>
      <vel value="0.0367126503" flag="0"/>
      <psa03 value="0.1646908923" flag="0"/>
      <psa10 value="0.0101244608" flag="0"/>
      <psa30 value="0.0008517726" flag="0"/>
    </comp>
    <comp name="--.HNZ">
      <acc value="0.0560455401" flag="0"/>
      <vel value="0.0172116223" flag="0"/>
      <psa03 value="0.0736847855" flag="0"/>
      <psa10 value="0.0044782457" flag="0"/>
      <psa30 value="0.0003381109" flag="0"/>
    </comp>
  </station>
  <station code="BGKT" name="BGKT" netid="KO" insttype="CMG-3ESP" commtype="DIG" lat="41.181" lon="28.773">
    <comp name="--.HHZ">
      <acc value="0.0960949744" flag="0"/>
      <vel value="0.0225275174" flag="0"/>
      <psa03 value="0.0826699394" flag="0"/>
      <psa10 value="0.0239508571" flag="0"/>
      <psa30 value="0.0011149637" flag="0"/>
    </comp>
    <comp name="--.HHE">
      <acc value="0.3067128664" flag="0"/>
      <vel value="0.0448242923" flag="0"/>
      <psa03 value="0.2712844253" flag="0"/>
      <psa10 value="0.0181352145" flag="0"/>
      <psa30 value="0.0012996366" flag="0"/>
    </comp>
    <comp name="--.HHN">
      <acc value="0.1945565305" flag="0"/>
      <vel value="0.0350547795" flag="0"/>
      <psa03 value="0.1617452170" flag="0"/>
      <psa10 value="0.0172415277" flag="0"/>
      <psa30 value="0.0015195169" flag="0"/>
    </comp>
  </station>
  <station code="BIGA" name="BIGA" netid="KO" insttype="CMG-5T" commtype="DIG" lat="40.2813" lon="27.1505">
    <comp name="--.HNE">
      <acc value="0.0555969357" flag="0"/>
      <vel value="0.0158516150" flag="0"/>
      <psa03 value="0.0624719131" flag="0"/>
      <psa10 value="0.0123763705" flag="0"/>
      <psa30 value="0.0010036114" flag="0"/>
    </comp>
    <comp name="--.HNN">
      <acc value="0.0393654597" flag="0"/>
      <vel value="0.0122498653" flag="0"/>
      <psa03 value="0.0624398643" flag="0"/>
      <psa10 value="0.0095430857" flag="0"/>
      <psa30 value="0.0008285780" flag="0"/>
    </comp>
    <comp name="--.HNZ">
      <acc value="0.0278617142" flag="0"/>
      <vel value="0.0064238163" flag="0"/>
      <psa03 value="0.0155857945" flag="0"/>
      <psa10 value="0.0038438814" flag="0"/>
      <psa30 value="0.0006841837" flag="0"/>
    </comp>
  </station>
  <station code="BOTS" name="BOTS" netid="KO" insttype="CMG-5T" commtype="DIG" lat="40.9902" lon="27.981">
    <comp name="--.HNZ">
      <acc value="0.0591939632" flag="0"/>
      <vel value="0.0060688824" flag="0"/>
      <psa03 value="0.0279242283" flag="0"/>
      <psa10 value="0.0068063996" flag="0"/>
      <psa30 value="0.0007594625" flag="0"/>
    </comp>
    <comp name="--.HNE">
      <acc value="0.2070312968" flag="0"/>
      <vel value="0.1324511328" flag="0"/>
      <psa03 value="0.3423001261" flag="0"/>
      <psa10 value="0.0964594540" flag="0"/>
      <psa30 value="0.0064709518" flag="0"/>
    </comp>
    <comp name="--.HNN">
      <acc value="0.0816752432" flag="0"/>
      <vel value="0.0269548621" flag="0"/>
      <psa03 value="0.0795546349" flag="0"/>
      <psa10 value="0.0228538703" flag="0"/>
      <psa30 value="0.0016615706" flag="0"/>
    </comp>
  </station>
  <station code="BUYK" name="BUYK" netid="KO" insttype="ACEBOX" commtype="DIG" lat="41.0168" lon="28.5828">
    <comp name="--.HNE">
      <acc value="0.3151158016" flag="0"/>
      <vel value="0.1722990415" flag="0"/>
      <psa03 value="0.5055835841" flag="0"/>
      <psa10 value="0.2180849581" flag="0"/>
      <psa30 value="0.0124161249" flag="0"/>
    </comp>
  </station>
  <station code="CANM" name="CANM" netid="KO" insttype="CMG-5T" commtype="DIG" lat="40.0113" lon="27.0529">
    <comp name="--.HNE">
      <acc value="0.0254676882" flag="0"/>
      <vel value="0.0119107331" flag="0"/>
      <psa03 value="0.0610022604" flag="0"/>
      <psa10 value="0.0123887685" flag="0"/>
      <psa30 value="0.0008710004" flag="0"/>
    </comp>
    <comp name="--.HNN">
      <acc value="0.0378063487" flag="0"/>
      <vel value="0.0197799428" flag="0"/>
      <psa03 value="0.0816641014" flag="0"/>
      <psa10 value="0.0150032438" flag="0"/>
      <psa30 value="0.0008918858" flag="0"/>
    </comp>
    <comp name="--.HNZ">
      <acc value="0.0241498294" flag="0"/>
      <vel value="0.0088978529" flag="0"/>
      <psa03 value="0.0487088760" flag="0"/>
      <psa10 value="0.0076910076" flag="0"/>
      <psa30 value="0.0008005380" flag="0"/>
    </comp>
  </station>
  <station code="CRLU" name="CRLU" netid="KO" insttype="ACEBOX" commtype="DIG" lat="41.1428" lon="27.8215">
    <comp name="--.HNZ">
      <acc value="2.0153644481" flag="0"/>
      <vel value="0.5263522159" flag="0"/>
      <psa03 value="2.1273466239" flag="0"/>
      <psa10 value="0.2175640128" flag="0"/>
      <psa30 value="0.0176639922" flag="0"/>
    </comp>
    <comp name="--.HNN">
      <acc value="1.1832870364" flag="0"/>
      <vel value="0.8999230397" flag="0"/>
      <psa03 value="3.1784427357" flag="0"/>
      <psa10 value="0.5762726847" flag="0"/>
      <psa30 value="0.0517800273" flag="0"/>
    </comp>
    <comp name="--.HNE">
      <acc value="1.1265769692" flag="0"/>
      <vel value="0.7627734684" flag="0"/>
      <psa03 value="2.2363479875" flag="0"/>
      <psa10 value="0.5612899943" flag="0"/>
      <psa30 value="0.0476101121" flag="0"/>
    </comp>
  </station>
  <station code="EDC" name="EDC" netid="KO" insttype="CMG-5T" commtype="DIG" lat="40.3465" lon="27.8618">
    <comp name="--.HNE">
      <acc value="0.0410067028" flag="0"/>
      <vel value="0.0112996519" flag="0"/>
      <psa03 value="0.0558754590" flag="0"/>
      <psa10 value="0.0163944546" flag="0"/>
      <psa30 value="0.0006504608" flag="0"/>
    </comp>
    <comp name="--.HNN">
      <acc value="0.0537901001" flag="0"/>
      <vel value="0.0179105577" flag="0"/>
      <psa03 value="0.0879818546" flag="0"/>
      <psa10 value="0.0138462414" flag="0"/>
      <psa30 value="0.0011013867" flag="0"/>
    </comp>
    <comp name="--.HNZ">
      <acc value="0.0337575801" flag="0"/>
      <vel value="0.0062812504" flag="0"/>
      <psa03 value="0.0283325307" flag="0"/>
      <psa10 value="0.0067100295" flag="0"/>
      <psa30 value="0.0007674144" flag="0"/>
    </comp>
  </station>
  <station code="GONE" name="GONE" netid="KO" insttype="CMG-5T" commtype="DIG" lat="40.0466" lon="27.686">
    <comp name="--.HNE">
      <acc value="0.0257047798" flag="0"/>
      <vel value="0.0221574583" flag="0"/>
      <psa03 value="0.0409849532" flag="0"/>
      <psa10 value="0.0320193957" flag="0"/>
      <psa30 value="0.0016694119" flag="0"/>
    </comp>
    <comp name="--.HNZ">
      <acc value="0.0145290678" flag="0"/>
      <vel value="0.0070104975" flag="0"/>
      <psa03 value="0.0144251868" flag="0"/>
      <psa10 value="0.0126832481" flag="0"/>
      <psa30 value="0.0009498165" flag="0"/>
    </comp>
    <comp name="--.HNN">
      <acc value="0.0347923896" flag="0"/>
      <vel value="0.0271404982" flag="0"/>
      <psa03 value="0.0477282234" flag="0"/>
      <psa10 value="0.0492995254" flag="0"/>
      <psa30 value="0.0020276598" flag="0"/>
    </comp>
  </station>
  <station code="KCTX" name="KCTX" netid="KO" insttype="CMG-5T" commtype="DIG" lat="40.2626" lon="28.3353">
    <comp name="--.HNN">
      <acc value="0.0550045334" flag="0"/>
      <vel value="0.0128972105" flag="0"/>
      <psa03 value="0.0637401319" flag="0"/>
      <psa10 value="0.0102695239" flag="0"/>
      <psa30 value="0.0006457752" flag="0"/>
    </comp>
    <comp name="--.HNE">
      <acc value="0.0556749078" flag="0"/>
      <vel value="0.0117236187" flag="0"/>
      <psa03 value="0.0501421532" flag="0"/>
      <psa10 value="0.0077832759" flag="0"/>
      <psa30 value="0.0005439659" flag="0"/>
    </comp>
    <comp name="--.HNZ">
      <acc value="0.0291610853" flag="0"/>
      <vel value="0.0140006160" flag="0"/>
      <psa03 value="0.0521134040" flag="0"/>
      <psa10 value="0.0100779108" flag="0"/>
      <psa30 value="0.0010715036" flag="0"/>
    </comp>
  </station>
  <station code="KRBG" name="KRBG" netid="KO" insttype="CMG-5T" commtype="DIG" lat="40.3932" lon="27.2977">
    <comp name="--.HNE">
      <acc value="0.0548324750" flag="0"/>
      <vel value="0.0148469204" flag="0"/>
      <psa03 value="0.0479677175" flag="0"/>
      <psa10 value="0.0095883733" flag="0"/>
      <psa30 value="0.0005744782" flag="0"/>
    </comp>
    <comp name="--.HNN">
      <acc value="0.0277183598" flag="0"/>
      <vel value="0.0121384900" flag="0"/>
      <psa03 value="0.0336538344" flag="0"/>
      <psa10 value="0.0125086074" flag="0"/>
      <psa30 value="0.0006987991" flag="0"/>
    </comp>
    <comp name="--.HNZ">
      <acc value="0.0191247571" flag="0"/>
      <vel value="0.0043646918" flag="0"/>
      <psa03 value="0.0138442032" flag="0"/>
      <psa10 value="0.0035327768" flag="0"/>
      <psa30 value="0.0002896400" flag="0"/>
    </comp>
  </station>
  <station code="KUMB" name="KUMB" netid="KO" insttype="CMG-5T" commtype="DIG" lat="40.8626" lon="27.4592">
    <comp name="--.HNE">
      <acc value="0.0450772770" flag="0"/>
      <vel value="0.0087434608" flag="0"/>
      <psa03 value="0.0254291527" flag="0"/>
      <psa10 value="0.0043732979" flag="0"/>
      <psa30 value="0.0006512514" flag="0"/>
    </comp>
    <comp name="--.HNZ">
      <acc value="0.0006620184" flag="0"/>
      <vel value="0.0005693183" flag="0"/>
      <psa03 value="0.0006957660" flag="0"/>
      <psa10 value="0.0006434424" flag="0"/>
      <psa30 value="0.0003876594" flag="0"/>
    </comp>
    <comp name="--.HNN">
      <acc value="0.0441662689" flag="0"/>
      <vel value="0.0088789560" flag="0"/>
      <psa03 value="0.0256491786" flag="0"/>
      <psa10 value="0.0043164100" flag="0"/>
      <psa30 value="0.0007830590" flag="0"/>
    </comp>
  </station>
  <station code="MAEG" name="MAEG" netid="KO" insttype="CMG-5T" commtype="DIG" lat="40.9653" lon="27.9448">
    <comp name="--.HNN">
      <acc value="0.1102777948" flag="0"/>
      <vel value="0.0211194188" flag="0"/>
      <psa03 value="0.0490575889" flag="0"/>
      <psa10 value="0.0118692597" flag="0"/>
      <psa30 value="0.0011586980" flag="0"/>
    </comp>
    <comp name="--.HNZ">
      <acc value="0.0528487098" flag="0"/>
      <vel value="0.0063078095" flag="0"/>
      <psa03 value="0.0221350089" flag="0"/>
      <psa10 value="0.0044158175" flag="0"/>
      <psa30 value="0.0005136754" flag="0"/>
    </comp>
    <comp name="--.HNE">
      <acc value="0.1266004792" flag="0"/>
      <vel value="0.0295629553" flag="0"/>
      <psa03 value="0.0797030623" flag="0"/>
      <psa10 value="0.0098792502" flag="0"/>
      <psa30 value="0.0012097687" flag="0"/>
    </comp>
  </station>
  <station code="MDNY" name="MDNY" netid="KO" insttype="CMG-5T" commtype="DIG" lat="40.3709" lon="28.8846">
    <comp name="--.HNE">
      <acc value="0.1282941750" flag="0"/>
      <vel value="0.0441186623" flag="0"/>
      <psa03 value="0.3140510179" flag="0"/>
      <psa10 value="0.0090958232" flag="0"/>
      <psa30 value="0.0009868366" flag="0"/>
    </comp>
    <comp name="--.HNN">
      <acc value="0.1307302979" flag="0"/>
      <vel value="0.0408583917" flag="0"/>
      <psa03 value="0.3252680261" flag="0"/>
      <psa10 value="0.0109740895" flag="0"/>
      <psa30 value="0.0009357871" flag="0"/>
    </comp>
    <comp name="--.HNZ">
      <acc value="0.0727684234" flag="0"/>
      <vel value="0.0177092620" flag="0"/>
      <psa03 value="0.0521378656" flag="0"/>
      <psa10 value="0.0039337089" flag="0"/>
      <psa30 value="0.0003521941" flag="0"/>
    </comp>
  </station>
  <station code="ORLT" name="ORLT" netid="KO" insttype="CMG-5T" commtype="DIG" lat="40.0452" lon="28.8914">
    <comp name="--.HNE">
      <acc value="0.1266533724" flag="0"/>
      <vel value="0.0690364276" flag="0"/>
      <psa03 value="0.3911310825" flag="0"/>
      <psa10 value="0.0266144542" flag="0"/>
      <psa30 value="0.0022700611" flag="0"/>
    </comp>
    <comp name="--.HNZ">
      <acc value="0.0373527450" flag="0"/>
      <vel value="0.0248090098" flag="0"/>
      <psa03 value="0.1120569517" flag="0"/>
      <psa10 value="0.0230862423" flag="0"/>
      <psa30 value="0.0009069566" flag="0"/>
    </comp>
    <comp name="--.HNN">
      <acc value="0.1577594167" flag="0"/>
      <vel value="0.0961641519" flag="0"/>
      <psa03 value="0.2617933120" flag="0"/>
      <psa10 value="0.0580411082" flag="0"/>
      <psa30 value="0.0037701495" flag="0"/>
    </comp>
  </station>
  <station code="SILV" name="SILV" netid="KO" insttype="ACEBOX" commtype="DIG" lat="41.0723" lon="28.239">
    <comp name="--.HNZ">
      <acc value="0.1367454648" flag="0"/>
      <vel value="0.0213000386" flag="0"/>
      <psa03 value="0.0604943136" flag="0"/>
      <psa10 value="0.0209538920" flag="0"/>
      <psa30 value="0.0017589243" flag="0"/>
    </comp>
    <comp name="--.HNE">
      <acc value="1.2028296865" flag="0"/>
      <vel value="0.3729115799" flag="0"/>
      <psa03 value="0.9400624189" flag="0"/>
      <psa10 value="0.1774147938" flag="0"/>
      <psa30 value="0.0170163179" flag="0"/>
    </comp>
    <comp name="--.HNN">
      <acc value="0.8838907472" flag="0"/>
      <vel value="0.3677035610" flag="0"/>
      <psa03 value="1.4121319244" flag="0"/>
      <psa10 value="0.2315775856" flag="0"/>
      <psa30 value="0.0188800907" flag="0"/>
    </comp>
  </station>
  <station code="SLVT" name="SLVT" netid="KO" insttype="CMG-5T" commtype="DIG" lat="41.2288" lon="28.2098">
    <comp name="--.HNN">
      <acc value="0.2944749843" flag="0"/>
      <vel value="0.1908039988" flag="0"/>
      <psa03 value="0.3969276448" flag="0"/>
      <psa10 value="0.1504811691" flag="0"/>
      <psa30 value="0.0102716582" flag="0"/>
    </comp>
    <comp name="--.HNE">
      <acc value="0.0882867287" flag="0"/>
      <vel value="0.0358961071" flag="0"/>
      <psa03 value="0.0923223865" flag="0"/>
      <psa10 value="0.0382190807" flag="0"/>
      <psa30 value="0.0049509982" flag="0"/>
    </comp>
    <comp name="--.HNZ">
      <acc value="0.1771538230" flag="0"/>
      <vel value="0.0236741522" flag="0"/>
      <psa03 value="0.0790786869" flag="0"/>
      <psa10 value="0.0214894756" flag="0"/>
      <psa30 value="0.0026561807" flag="0"/>
    </comp>
  </station>
  <station code="SUSR" name="SUSR" netid="KO" insttype="CMG-5T" commtype="DIG" lat="39.9627" lon="28.0835">
    <comp name="--.HNN">
      <acc value="0.0953172393" flag="0"/>
      <vel value="0.0597106431" flag="0"/>
      <psa03 value="0.2318596326" flag="0"/>
      <psa10 value="0.0509272648" flag="0"/>
      <psa30 value="0.0028524269" flag="0"/>
    </comp>
    <comp name="--.HNZ">
      <acc value="0.0521866875" flag="0"/>
      <vel value="0.0270604429" flag="0"/>
      <psa03 value="0.0645961384" flag="0"/>
      <psa10 value="0.0309648609" flag="0"/>
      <psa30 value="0.0014411761" flag="0"/>
    </comp>
    <comp name="--.HNE">
      <acc value="0.0645561967" flag="0"/>
      <vel value="0.0474481688" flag="0"/>
      <psa03 value="0.1036450716" flag="0"/>
      <psa10 value="0.0292314357" flag="0"/>
      <psa30 value="0.0019200208" flag="0"/>
    </comp>
  </station>
  <station code="TEKI" name="TEKI" netid="KO" insttype="ACEBOX" commtype="DIG" lat="40.9862" lon="27.5374">
    <comp name="--.HNE">
      <acc value="0.7792398976" flag="0"/>
      <vel value="0.1511888857" flag="0"/>
      <psa03 value="0.3501799161" flag="0"/>
      <psa10 value="0.0757562825" flag="0"/>
      <psa30 value="0.0057564249" flag="0"/>
    </comp>
    <comp name="--.HNN">
      <acc value="0.6364982263" flag="0"/>
      <vel value="0.1421317907" flag="0"/>
      <psa03 value="0.4240710224" flag="0"/>
      <psa10 value="0.0470844908" flag="0"/>
      <psa30 value="0.0081461504" flag="0"/>
    </comp>
    <comp name="--.HNZ">
      <acc value="0.2347910736" flag="0"/>
      <vel value="0.0357095527" flag="0"/>
      <psa03 value="0.1328586920" flag="0"/>
      <psa10 value="0.0342353975" flag="0"/>
      <psa30 value="0.0031642323" flag="0"/>
    </comp>
  </station>
  <station code="UKOP" name="UKOP" netid="KO" insttype="CMG-5T" commtype="DIG" lat="41.1288" lon="26.6323">
    <comp name="--.HNN">
      <acc value="0.0192843543" flag="0"/>
      <vel value="0.0121919182" flag="0"/>
      <psa03 value="0.0463665960" flag="0"/>
      <psa10 value="0.0182223854" flag="0"/>
      <psa30 value="0.0012307374" flag="0"/>
    </comp>
    <comp name="--.HNE">
      <acc value="0.0214238181" flag="0"/>
      <vel value="0.0137974996" flag="0"/>
      <psa03 value="0.0465819898" flag="0"/>
      <psa10 value="0.0201699897" flag="0"/>
      <psa30 value="0.0011901512" flag="0"/>
    </comp>
    <comp name="--.HNZ">
      <acc value="0.0108322613" flag="0"/>
      <vel value="0.0057359779" flag="0"/>
      <psa03 value="0.0195483680" flag="0"/>
      <psa10 value="0.0093507267" flag="0"/>
      <psa30 value="0.0006764578" flag="0"/>
    </comp>
  </station>
  <station code="YENI" name="YENI" netid="KO" insttype="CMG-5T" commtype="DIG" lat="39.9364" lon="27.2422">
    <comp name="--.HNE">
      <acc value="0.0426288276" flag="0"/>
      <vel value="0.0231587410" flag="0"/>
      <psa03 value="0.0583456640" flag="0"/>
      <psa10 value="0.0287014468" flag="0"/>
      <psa30 value="0.0016731001" flag="0"/>
    </comp>
    <comp name="--.HNN">
      <acc value="0.0375515694" flag="0"/>
      <vel value="0.0199102599" flag="0"/>
      <psa03 value="0.0579559298" flag="0"/>
      <psa10 value="0.0161029935" flag="0"/>
      <psa30 value="0.0009521966" flag="0"/>
    </comp>
    <comp name="--.HNZ">
      <acc value="0.0174349112" flag="0"/>
      <vel value="0.0102819763" flag="0"/>
      <psa03 value="0.0155446635" flag="0"/>
      <psa10 value="0.0103393653" flag="0"/>
      <psa30 value="0.0006597872" flag="0"/>
    </comp>
  </station>
</stationlist>
