<?xml version="1.0" encoding="UTF-8" standalone="yes"?>
<!DOCTYPE earthquake SYSTEM "stationlist.dtd">
<stationlist created="" xmlns="ch.ethz.sed.shakemap.usgs.xml">
  <station code="APE" name="APE" netid="GE" insttype="STS-2/N" lat="37.0727" lon="25.523">
    <comp name="--.HHE">
      <acc value="0.0875672308" flag="0"/>
      <vel value="0.0190485538" flag="0"/>
      <psa03 value="0.0559250616" flag="0"/>
      <psa10 value="0.0074413269" flag="0"/>
      <psa30 value="0.0020717621" flag="0"/>
    </comp>
    <comp name="--.HHN">
      <acc value="0.0916178461" flag="0"/>
      <vel value="0.0167704341" flag="0"/>
      <psa03 value="0.0505923951" flag="0"/>
      <psa10 value="0.0077444933" flag="0"/>
      <psa30 value="0.0027420193" flag="0"/>
    </comp>
    <comp name="--.HHZ">
      <acc value="0.0419639764" flag="0"/>
      <vel value="0.0077197444" flag="0"/>
      <psa03 value="0.0275647803" flag="0"/>
      <psa10 value="0.0080983076" flag="0"/>
      <psa30 value="0.0029556440" flag="0"/>
    </comp>
  </station>
  <station code="THERA" name="THERA" netid="GE" insttype="STS-2/N" lat="36.367" lon="25.4753">
    <comp name="--.HHZ">
      <acc value="0.2066897359" flag="0"/>
      <vel value="0.0684676737" flag="0"/>
      <psa03 value="0.2583191102" flag="0"/>
      <psa10 value="0.0376642335" flag="0"/>
      <psa30 value="0.0033831523" flag="0"/>
    </comp>
    <comp name="--.HHE">
      <acc value="0.2273362982" flag="0"/>
      <vel value="0.0580258652" flag="0"/>
      <psa03 value="0.3019908722" flag="0"/>
      <psa10 value="0.0280664022" flag="0"/>
      <psa30 value="0.0051660411" flag="0"/>
    </comp>
    <comp name="--.HHN">
      <acc value="0.1703750937" flag="0"/>
      <vel value="0.0520800317" flag="0"/>
      <psa03 value="0.3685489322" flag="0"/>
      <psa10 value="0.0266382129" flag="0"/>
      <psa30 value="0.0021019053" flag="0"/>
    </comp>
  </station>
</stationlist>
