<?xml version="1.0" encoding="UTF-8" standalone="yes"?>
<!DOCTYPE earthquake SYSTEM "stationlist.dtd">
<stationlist created="" xmlns="ch.ethz.sed.shakemap.usgs.xml">
  <station code="APE" name="APE" netid="GE" insttype="STS-2/N" lat="37.0727" lon="25.523">
    <comp name="--.HHZ">
      <acc value="0.0419639754" flag="0"/>
      <vel value="0.0077197457" flag="0"/>
      <psa03 value="0.0275647803" flag="0"/>
      <psa10 value="0.0080983076" flag="0"/>
      <psa30 value="0.0029555742" flag="0"/>
    </comp>
    <comp name="--.HHE">
      <acc value="0.0875672309" flag="0"/>
      <vel value="0.0190485541" flag="0"/>
      <psa03 value="0.0559250616" flag="0"/>
      <psa10 value="0.0074413269" flag="0"/>
      <psa30 value="0.0020715625" flag="0"/>
    </comp>
    <comp name="--.HHN">
      <acc value="0.0916178460" flag="0"/>
      <vel value="0.0167704350" flag="0"/>
      <psa03 value="0.0505923951" flag="0"/>
      <psa10 value="0.0077444935" flag="0"/>
      <psa30 value="0.0027419444" flag="0"/>
    </comp>
  </station>
  <station code="THERA" name="THERA" netid="GE" insttype="STS-2/N" lat="36.367" lon="25.4753">
    <comp name="--.HHZ">
      <acc value="0.2066897359" flag="0"/>
      <vel value="0.0684676744" flag="0"/>
      <psa03 value="0.2583191102" flag="0"/>
      <psa10 value="0.0376642310" flag="0"/>
      <psa30 value="0.0033825060" flag="0"/>
    </comp>
    <comp name="--.HHN">
      <acc value="0.1703750935" flag="0"/>
      <vel value="0.0520800327" flag="0"/>
      <psa03 value="0.3685489322" flag="0"/>
      <psa10 value="0.0266382144" flag="0"/>
      <psa30 value="0.0021021184" flag="0"/>
    </comp>
    <comp name="--.HHE">
      <acc value="0.2273362987" flag="0"/>
      <vel value="0.0580258634" flag="0"/>
      <psa03 value="0.3019908722" flag="0"/>
      <psa10 value="0.0280664022" flag="0"/>
      <psa30 value="0.0051662855" flag="0"/>
    </comp>
  </station>
  <station code="SERI" name="SERI" netid="HA" insttype="30" lat="37.1609" lon="24.4853">
    <comp name="--.HHE">
      <acc value="0.0318816537" flag="0"/>
      <vel value="0.0115054412" flag="0"/>
      <psa03 value="0.0569093994" flag="0"/>
      <psa10 value="0.0052341858" flag="0"/>
      <psa30 value="0.0010112330" flag="0"/>
    </comp>
    <comp name="--.HHN">
      <acc value="0.0477756619" flag="0"/>
      <vel value="0.0147225505" flag="0"/>
      <psa03 value="0.0496047309" flag="0"/>
      <psa10 value="0.0101813437" flag="0"/>
      <psa30 value="0.0009270047" flag="0"/>
    </comp>
    <comp name="--.HHZ">
      <acc value="0.0255850148" flag="0"/>
      <vel value="0.0149026226" flag="0"/>
      <psa03 value="0.0314255642" flag="0"/>
      <psa10 value="0.0088883648" flag="0"/>
      <psa30 value="0.0015710363" flag="0"/>
    </comp>
  </station>
  <station code="SNT5" name="SNT5" netid="HA" insttype="1s-100Hz," lat="36.4037" lon="25.3953">
    <comp name="--.HHE">
      <acc value="1.2001251984" flag="0"/>
      <vel value="0.3009521932" flag="0"/>
      <psa03 value="1.8157663504" flag="0"/>
      <psa10 value="0.0985790603" flag="0"/>
      <psa30 value="0.0115974286" flag="0"/>
    </comp>
    <comp name="--.HHZ">
      <acc value="0.3864064281" flag="0"/>
      <vel value="0.0864504094" flag="0"/>
      <psa03 value="0.3719670729" flag="0"/>
      <psa10 value="0.0396909650" flag="0"/>
      <psa30 value="0.0030875104" flag="0"/>
    </comp>
    <comp name="--.HHN">
      <acc value="0.6658648020" flag="0"/>
      <vel value="0.2073770257" flag="0"/>
      <psa03 value="1.0575465102" flag="0"/>
      <psa10 value="0.0615755692" flag="0"/>
      <psa30 value="0.0078610707" flag="0"/>
    </comp>
  </station>
  <station code="NAX1" name="NAX1" netid="HI" insttype="CMG-5TD,ACCELEROMETER,GURALP" lat="37.1014" lon="25.3741">
    <comp name="--.HNE">
      <acc value="0.0876551604" flag="0"/>
      <vel value="0.0233770027" flag="0"/>
      <psa03 value="0.1437838569" flag="0"/>
      <psa10 value="0.0081679910" flag="0"/>
      <psa30 value="0.0009546466" flag="0"/>
    </comp>
  </station>
  <station code="SFR2" name="SFR2" netid="HI" insttype="unknown" lat="36.3998" lon="25.4382">
    <comp name="--.HNN">
      <acc value="0.6120434104" flag="0"/>
      <vel value="0.2327665667" flag="0"/>
      <psa03 value="1.5517225858" flag="0"/>
      <psa10 value="0.1931025098" flag="0"/>
      <psa30 value="0.0097061321" flag="0"/>
    </comp>
  </station>
  <station code="AMGA" name="AMGA" netid="HL" insttype="SMART24" lat="36.8316" lon="25.8938">
    <comp name="--.HHZ">
      <acc value="0.2182222744" flag="0"/>
      <vel value="0.0674219751" flag="0"/>
      <psa03 value="0.1625265329" flag="0"/>
      <psa10 value="0.0423795690" flag="0"/>
      <psa30 value="0.0042821763" flag="0"/>
    </comp>
  </station>
  <station code="APE" name="APE" netid="HL" insttype="120" lat="37.0727" lon="25.523">
    <comp name="--.HHE">
      <acc value="0.0746277498" flag="0"/>
      <vel value="0.0184226061" flag="0"/>
      <psa03 value="0.0545531254" flag="0"/>
      <psa10 value="0.0073739100" flag="0"/>
      <psa30 value="0.0020666899" flag="0"/>
    </comp>
    <comp name="--.HHN">
      <acc value="0.0876501894" flag="0"/>
      <vel value="0.0161084648" flag="0"/>
      <psa03 value="0.0487971374" flag="0"/>
      <psa10 value="0.0076552808" flag="0"/>
      <psa30 value="0.0027383848" flag="0"/>
    </comp>
  </station>
  <station code="MILA" name="MILA" netid="HL" insttype="CMG-5" lat="36.7429" lon="24.4282">
    <comp name="00.HNE">
      <acc value="0.1326727629" flag="0"/>
      <vel value="0.0975748186" flag="0"/>
      <psa03 value="0.4584474068" flag="0"/>
      <psa10 value="0.0657593729" flag="0"/>
      <psa30 value="0.0039060193" flag="0"/>
    </comp>
    <comp name="00.HNN">
      <acc value="0.2345210301" flag="0"/>
      <vel value="0.1453095236" flag="0"/>
      <psa03 value="0.4979182302" flag="0"/>
      <psa10 value="0.0767353923" flag="0"/>
      <psa30 value="0.0067360743" flag="0"/>
    </comp>
    <comp name="00.HNZ">
      <acc value="0.0878299147" flag="0"/>
      <vel value="0.0624607180" flag="0"/>
      <psa03 value="0.2618012801" flag="0"/>
      <psa10 value="0.0527160066" flag="0"/>
      <psa30 value="0.0033951966" flag="0"/>
    </comp>
  </station>
  <station code="SAP3" name="SAP3" netid="HL" insttype="65535" lat="36.4356" lon="25.3454">
    <comp name="--.HHN">
      <acc value="0.8081569589" flag="0"/>
      <vel value="0.2605717479" flag="0"/>
      <psa03 value="1.4666476348" flag="0"/>
      <psa10 value="0.0752326385" flag="0"/>
      <psa30 value="0.0067652710" flag="0"/>
    </comp>
    <comp name="--.HHE">
      <acc value="1.1122644886" flag="0"/>
      <vel value="0.3442612800" flag="0"/>
      <psa03 value="0.9827167003" flag="0"/>
      <psa10 value="0.0723343536" flag="0"/>
      <psa30 value="0.0090817789" flag="0"/>
    </comp>
  </station>
  <station code="THERA" name="THERA" netid="HL" insttype="120" lat="36.367" lon="25.4753">
    <comp name="--.HHE">
      <acc value="0.2217435739" flag="0"/>
      <vel value="0.0567704033" flag="0"/>
      <psa03 value="0.2944880393" flag="0"/>
      <psa10 value="0.0278119804" flag="0"/>
      <psa30 value="0.0051632914" flag="0"/>
    </comp>
    <comp name="--.HHN">
      <acc value="0.3341371186" flag="0"/>
      <vel value="0.1007149835" flag="0"/>
      <psa03 value="0.7150695777" flag="0"/>
      <psa10 value="0.0528106397" flag="0"/>
      <psa30 value="0.0042079906" flag="0"/>
    </comp>
  </station>
  <station code="THRA" name="THRA" netid="HL" insttype="CMG-5" lat="36.415" lon="25.4324">
    <comp name="00.HNZ">
      <acc value="0.5480040422" flag="0"/>
      <vel value="0.1713429270" flag="0"/>
      <psa03 value="1.0562529513" flag="0"/>
      <psa10 value="0.0969907050" flag="0"/>
      <psa30 value="0.0087804116" flag="0"/>
    </comp>
    <comp name="00.HNE">
      <acc value="0.6268275427" flag="0"/>
      <vel value="0.2983353533" flag="0"/>
      <psa03 value="1.7312893612" flag="0"/>
      <psa10 value="0.1974213064" flag="0"/>
      <psa30 value="0.0195737712" flag="0"/>
    </comp>
  </station>
  <station code="AKRO" name="AKRO" netid="HT" insttype="Compact," lat="36.3584" lon="25.3967">
    <comp name="--.HHN">
      <acc value="0.6558026478" flag="0"/>
      <vel value="0.1950042806" flag="0"/>
      <psa03 value="0.7804088133" flag="0"/>
      <psa10 value="0.1136843332" flag="0"/>
      <psa30 value="0.0058497562" flag="0"/>
    </comp>
  </station>
  <station code="CMBO" name="CMBO" netid="HT" insttype="120P," lat="36.4709" lon="25.4056">
    <comp name="--.HHZ">
      <acc value="0.3675162670" flag="0"/>
      <vel value="0.1275979161" flag="0"/>
      <psa03 value="1.1974722112" flag="0"/>
      <psa10 value="0.0448634263" flag="0"/>
      <psa30 value="0.0074554424" flag="0"/>
    </comp>
  </station>
</stationlist>
