<?xml version="1.0" encoding="UTF-8" standalone="yes"?>
<!DOCTYPE earthquake SYSTEM "stationlist.dtd">
<stationlist created="" xmlns="ch.ethz.sed.shakemap.usgs.xml">
  <station code="APE" name="APE" netid="GE" insttype="STS-2/N" lat="37.0727" lon="25.523">
    <comp name="--.HHN">
      <acc value="0.0916178459" flag="0"/>
      <vel value="0.0167704349" flag="0"/>
      <psa03 value="0.0505923951" flag="0"/>
      <psa10 value="0.0077444932" flag="0"/>
      <psa30 value="0.0027419768" flag="0"/>
    </comp>
    <comp name="--.HHE">
      <acc value="0.0875672310" flag="0"/>
      <vel value="0.0190485531" flag="0"/>
      <psa03 value="0.0559250616" flag="0"/>
      <psa10 value="0.0074413268" flag="0"/>
      <psa30 value="0.0020716161" flag="0"/>
    </comp>
    <comp name="--.HHZ">
      <acc value="0.0419639757" flag="0"/>
      <vel value="0.0077197451" flag="0"/>
      <psa03 value="0.0275647803" flag="0"/>
      <psa10 value="0.0080983075" flag="0"/>
      <psa30 value="0.0029555850" flag="0"/>
    </comp>
  </station>
  <station code="THERA" name="THERA" netid="GE" insttype="STS-2/N" lat="36.367" lon="25.4753">
    <comp name="--.HHZ">
      <acc value="0.2066897360" flag="0"/>
      <vel value="0.0684676740" flag="0"/>
      <psa03 value="0.2583191102" flag="0"/>
      <psa10 value="0.0376642306" flag="0"/>
      <psa30 value="0.0033826486" flag="0"/>
    </comp>
    <comp name="--.HHN">
      <acc value="0.1703750934" flag="0"/>
      <vel value="0.0520800328" flag="0"/>
      <psa03 value="0.3685489322" flag="0"/>
      <psa10 value="0.0266382139" flag="0"/>
      <psa30 value="0.0021020201" flag="0"/>
    </comp>
    <comp name="--.HHE">
      <acc value="0.2273362989" flag="0"/>
      <vel value="0.0580258633" flag="0"/>
      <psa03 value="0.3019908722" flag="0"/>
      <psa10 value="0.0280664007" flag="0"/>
      <psa30 value="0.0051660979" flag="0"/>
    </comp>
  </station>
</stationlist>
