<?xml version="1.0" encoding="UTF-8" standalone="yes"?>
<!DOCTYPE earthquake SYSTEM "stationlist.dtd">
<stationlist created="" xmlns="ch.ethz.sed.shakemap.usgs.xml">
  <station code="APE" name="APE" netid="GE" insttype="STS-2/N" lat="37.0727" lon="25.523">
    <comp name="--.HHZ">
      <acc value="0.0419639754" flag="0"/>
      <vel value="0.0077197457" flag="0"/>
      <psa03 value="0.0275647803" flag="0"/>
      <psa10 value="0.0080983076" flag="0"/>
      <psa30 value="0.0029555742" flag="0"/>
    </comp>
    <comp name="--.HHE">
      <acc value="0.0875672309" flag="0"/>
      <vel value="0.0190485541" flag="0"/>
      <psa03 value="0.0559250616" flag="0"/>
      <psa10 value="0.0074413269" flag="0"/>
      <psa30 value="0.0020715625" flag="0"/>
    </comp>
    <comp name="--.HHN">
      <acc value="0.0916178460" flag="0"/>
      <vel value="0.0167704350" flag="0"/>
      <psa03 value="0.0505923951" flag="0"/>
      <psa10 value="0.0077444935" flag="0"/>
      <psa30 value="0.0027419444" flag="0"/>
    </comp>
  </station>
  <station code="THERA" name="THERA" netid="GE" insttype="STS-2/N" lat="36.367" lon="25.4753">
    <comp name="--.HHZ">
      <acc value="0.2066897359" flag="0"/>
      <vel value="0.0684676744" flag="0"/>
      <psa03 value="0.2583191102" flag="0"/>
      <psa10 value="0.0376642310" flag="0"/>
      <psa30 value="0.0033825060" flag="0"/>
    </comp>
    <comp name="--.HHN">
      <acc value="0.1703750935" flag="0"/>
      <vel value="0.0520800327" flag="0"/>
      <psa03 value="0.3685489322" flag="0"/>
      <psa10 value="0.0266382144" flag="0"/>
      <psa30 value="0.0021021184" flag="0"/>
    </comp>
    <comp name="--.HHE">
      <acc value="0.2273362987" flag="0"/>
      <vel value="0.0580258634" flag="0"/>
      <psa03 value="0.3019908722" flag="0"/>
      <psa10 value="0.0280664022" flag="0"/>
      <psa30 value="0.0051662855" flag="0"/>
    </comp>
  </station>
</stationlist>
