<stationlist xmlns:esm="https://esm-db.eu/esmws/shakemap/1/" created="1784080420">
	<station code="CORS" name="CORS" netid="HA" source="Hellenic Seismological Network, University of Athens, Seismological Laboratory (HA)" insttype="" lat="38.2562" lon="22.0748" esm:processing="manual (Paolucci et al 2011)" esm:quality="good">
		<comp name="00.HNE" depth="0.0">
			<acc value="0.00510809217685514" flag="0"/>
			<vel value="0.00512673207681631" flag="0"/>
			<psa03 value="0.0109794656169627" flag="0"/>
			<psa10 value="0.0143369916303332" flag="0"/>
			<psa30 value="0.000663286647818509" flag="0"/>
		</comp>
		<comp name="00.HNN" depth="0.0">
			<acc value="0.004731071664098" flag="0"/>
			<vel value="0.00455646970404584" flag="0"/>
			<psa03 value="0.0119107460597215" flag="0"/>
			<psa10 value="0.00828938225589227" flag="0"/>
			<psa30 value="0.000487450259937439" flag="0"/>
		</comp>
		<comp name="00.HNZ" depth="0.0">
			<acc value="0.00319925544221955" flag="0"/>
			<vel value="0.00260935142958544" flag="0"/>
			<psa03 value="0.00883173935626342" flag="0"/>
			<psa10 value="0.00417498985383803" flag="0"/>
			<psa30 value="0.00039126047637802" flag="0"/>
		</comp>
	</station>
	<station code="ARG2" name="ARG2" netid="HI" source="ITSAK Strong Motion Network" insttype="" lat="38.1783" lon="20.4878" esm:processing="manual (Paolucci et al 2011)" esm:quality="best">
		<comp name="--.HNE" depth="0.0">
			<acc value="0.0631402656396409" flag="0"/>
			<vel value="0.0222531621994219" flag="0"/>
			<psa03 value="0.110004089314501" flag="0"/>
			<psa10 value="0.0114346406138063" flag="0"/>
			<psa30 value="0.0012877857261508" flag="0"/>
		</comp>
		<comp name="--.HNN" depth="0.0">
			<acc value="0.0511827594598962" flag="0"/>
			<vel value="0.0240481154151024" flag="0"/>
			<psa03 value="0.0838206099956168" flag="0"/>
			<psa10 value="0.0174304159295292" flag="0"/>
			<psa30 value="0.00136178291976656" flag="0"/>
		</comp>
		<comp name="--.HNZ" depth="0.0">
			<acc value="0.0324962190472512" flag="0"/>
			<vel value="0.0157291451330362" flag="0"/>
			<psa03 value="0.110826945907975" flag="0"/>
			<psa10 value="0.00731170514584433" flag="0"/>
			<psa30 value="0.00111660636552511" flag="0"/>
		</comp>
	</station>
	<station code="KRI1" name="KRI1" netid="HI" source="ITSAK Strong Motion Network" insttype="" lat="37.6621" lon="20.8172" esm:processing="manual (Paolucci et al 2011)" esm:quality="best">
		<comp name="--.HNE" depth="0.0">
			<acc value="0.105908371687144" flag="0"/>
			<vel value="0.0437338634715801" flag="0"/>
			<psa03 value="0.192519503472242" flag="0"/>
			<psa10 value="0.0282713247115074" flag="0"/>
			<psa30 value="0.00306605623617689" flag="0"/>
		</comp>
		<comp name="--.HNN" depth="0.0">
			<acc value="0.0692565378799099" flag="0"/>
			<vel value="0.0282261736608843" flag="0"/>
			<psa03 value="0.131464646387458" flag="0"/>
			<psa10 value="0.0219483533456768" flag="0"/>
			<psa30 value="0.00322804300867562" flag="0"/>
		</comp>
		<comp name="--.HNZ" depth="0.0">
			<acc value="0.0921832496463303" flag="0"/>
			<vel value="0.029016732721647" flag="0"/>
			<psa03 value="0.132913002750665" flag="0"/>
			<psa10 value="0.00955527392748786" flag="0"/>
			<psa30 value="0.00104144899088566" flag="0"/>
		</comp>
	</station>
	<station code="MSL1" name="MSL1" netid="HI" source="ITSAK Strong Motion Network" insttype="" lat="38.3727" lon="21.4243" esm:processing="manual (Paolucci et al 2011)" esm:quality="bad">
		<comp name="--.HNE" depth="0.0">
			<acc value="0.00967016169876487" flag="0"/>
			<vel value="0.00953454346743022" flag="0"/>
			<psa03 value="0.0333849459638293" flag="0"/>
			<psa10 value="0.026177999788991" flag="0"/>
			<psa30 value="0.00130184884526282" flag="0"/>
		</comp>
		<comp name="--.HNN" depth="0.0">
			<acc value="0.0120703937028757" flag="0"/>
			<vel value="0.0104479861681953" flag="0"/>
			<psa03 value="0.0273885096668705" flag="0"/>
			<psa10 value="0.0232087274642752" flag="0"/>
			<psa30 value="0.00122844356585524" flag="0"/>
		</comp>
		<comp name="--.HNZ" depth="0.0">
			<acc value="0.00493205378065953" flag="0"/>
			<vel value="0.00392545892651706" flag="0"/>
			<psa03 value="0.0115485996734513" flag="0"/>
			<psa10 value="0.0091115445326274" flag="0"/>
			<psa30 value="0.000455167913058698" flag="0"/>
		</comp>
	</station>
	<station code="PYL1" name="PYL1" netid="HI" source="ITSAK Strong Motion Network" insttype="" lat="36.914188" lon="21.695161" esm:processing="manual (Paolucci et al 2011)" esm:quality="best">
		<comp name="--.HNE" depth="0.0">
			<acc value="0.0216394895056554" flag="0"/>
			<vel value="0.00774338624219486" flag="0"/>
			<psa03 value="0.0306545385252503" flag="0"/>
			<psa10 value="0.0118004164071901" flag="0"/>
			<psa30 value="0.000964527749397945" flag="0"/>
		</comp>
		<comp name="--.HNN" depth="0.0">
			<acc value="0.0164005299778651" flag="0"/>
			<vel value="0.00589481910213796" flag="0"/>
			<psa03 value="0.0342346454814363" flag="0"/>
			<psa10 value="0.00739224876271489" flag="0"/>
			<psa30 value="0.000559220795633407" flag="0"/>
		</comp>
		<comp name="--.HNZ" depth="0.0">
			<acc value="0.0170985248674397" flag="0"/>
			<vel value="0.00657835977001401" flag="0"/>
			<psa03 value="0.0175123189593734" flag="0"/>
			<psa10 value="0.00518382168401484" flag="0"/>
			<psa30 value="0.000424891688655958" flag="0"/>
		</comp>
	</station>
	<station code="VAS2" name="VAS2" netid="HI" source="ITSAK Strong Motion Network" insttype="" lat="38.630558" lon="20.608081" esm:processing="manual (Paolucci et al 2011)" esm:quality="good">
		<comp name="--.HNE" depth="0.0">
			<acc value="0.0191560045584569" flag="0"/>
			<vel value="0.0180679378412273" flag="0"/>
			<psa03 value="0.0429619501850117" flag="0"/>
			<psa10 value="0.0295177835332982" flag="0"/>
			<psa30 value="0.00203418537980005" flag="0"/>
		</comp>
		<comp name="--.HNN" depth="0.0">
			<acc value="0.0230080511356694" flag="0"/>
			<vel value="0.0167008050149632" flag="0"/>
			<psa03 value="0.0632573831995829" flag="0"/>
			<psa10 value="0.0328879574157892" flag="0"/>
			<psa30 value="0.00194810280224982" flag="0"/>
		</comp>
		<comp name="--.HNZ" depth="0.0">
			<acc value="0.00966765351417242" flag="0"/>
			<vel value="0.00895156311575083" flag="0"/>
			<psa03 value="0.0364534513205941" flag="0"/>
			<psa10 value="0.0182830686635802" flag="0"/>
			<psa30 value="0.000666148816588802" flag="0"/>
		</comp>
	</station>
	<station code="ITM" name="ITM" netid="HL" source="National Observatory of Athens Seismic Network" insttype="" lat="37.17872" lon="21.92522" esm:processing="manual (Paolucci et al 2011)" esm:quality="best">
		<comp name="--.HNE" depth="0.0">
			<acc value="0.0118552658937859" flag="0"/>
			<vel value="0.00893412240122315" flag="0"/>
			<psa03 value="0.035136226040027" flag="0"/>
			<psa10 value="0.00693329851573486" flag="0"/>
			<psa30 value="0.00100451727350677" flag="0"/>
		</comp>
		<comp name="--.HNN" depth="0.0">
			<acc value="0.0216314919109385" flag="0"/>
			<vel value="0.00923095334706845" flag="0"/>
			<psa03 value="0.0486773131745681" flag="0"/>
			<psa10 value="0.0123933334975026" flag="0"/>
			<psa30 value="0.000723958062836946" flag="0"/>
		</comp>
		<comp name="--.HNZ" depth="0.0">
			<acc value="0.0131899338542202" flag="0"/>
			<vel value="0.00687400096176134" flag="0"/>
			<psa03 value="0.0166046090884493" flag="0"/>
			<psa10 value="0.0115900705977977" flag="0"/>
			<psa30 value="0.000656957686887758" flag="0"/>
		</comp>
	</station>
	<station code="ANX" name="ANX" netid="HP" source="University of Patras, Seismological Laboratory (PSLNET)" insttype="" lat="38.5933" lon="21.9209" esm:processing="manual (Paolucci et al 2011)" esm:quality="best">
		<comp name="--.HNE" depth="0.0">
			<acc value="0.00369796532236652" flag="0"/>
			<vel value="0.00350361308542671" flag="0"/>
			<psa03 value="0.0110587482127814" flag="0"/>
			<psa10 value="0.00363500025405236" flag="0"/>
			<psa30 value="0.000363578225898303" flag="0"/>
		</comp>
		<comp name="--.HNN" depth="0.0">
			<acc value="0.00367499901023543" flag="0"/>
			<vel value="0.00364671492026774" flag="0"/>
			<psa03 value="0.0108075479782746" flag="0"/>
			<psa10 value="0.00841602439532185" flag="0"/>
			<psa30 value="0.000476153574087548" flag="0"/>
		</comp>
		<comp name="--.HNZ" depth="0.0">
			<acc value="0.002026188185304" flag="0"/>
			<vel value="0.00192886459245073" flag="0"/>
			<psa03 value="0.00453237772175258" flag="0"/>
			<psa10 value="0.00319819100508214" flag="0"/>
			<psa30 value="0.000271777639351569" flag="0"/>
		</comp>
	</station>
	<station code="FSK" name="FSK" netid="HP" source="University of Patras, Seismological Laboratory (PSLNET)" insttype="" lat="38.4593" lon="20.5623" esm:processing="manual (Paolucci et al 2011)" esm:quality="good">
		<comp name="--.HNE" depth="0.0">
			<acc value="0.0288740171646581" flag="0"/>
			<vel value="0.00720317923059326" flag="0"/>
			<psa03 value="0.0257950759847081" flag="0"/>
			<psa10 value="0.00745781154342706" flag="0"/>
			<psa30 value="0.000937774935487199" flag="0"/>
		</comp>
		<comp name="--.HNN" depth="0.0">
			<acc value="0.0105385383812413" flag="0"/>
			<vel value="0.00396270956718897" flag="0"/>
			<psa03 value="0.0146672476748639" flag="0"/>
			<psa10 value="0.00540406768044904" flag="0"/>
			<psa30 value="0.000442220128246403" flag="0"/>
		</comp>
		<comp name="--.HNZ" depth="0.0">
			<acc value="0.0124046247668417" flag="0"/>
			<vel value="0.00345245278817236" flag="0"/>
			<psa03 value="0.0177882499988398" flag="0"/>
			<psa10 value="0.00600745265176213" flag="0"/>
			<psa30 value="0.00049150193459226" flag="0"/>
		</comp>
	</station>
	<station code="GUR" name="GUR" netid="HP" source="University of Patras, Seismological Laboratory (PSLNET)" insttype="" lat="37.9363" lon="22.3423" esm:processing="manual (Paolucci et al 2011)" esm:quality="good">
		<comp name="--.HNE" depth="0.0">
			<acc value="0.00673965620213846" flag="0"/>
			<vel value="0.00385452838115476" flag="0"/>
			<psa03 value="0.0248440859029275" flag="0"/>
			<psa10 value="0.00518328961747888" flag="0"/>
			<psa30 value="0.000396417693018428" flag="0"/>
		</comp>
		<comp name="--.HNN" depth="0.0">
			<acc value="0.00745659757512171" flag="0"/>
			<vel value="0.00487037425304086" flag="0"/>
			<psa03 value="0.0256607415648598" flag="0"/>
			<psa10 value="0.00810567633628496" flag="0"/>
			<psa30 value="0.000398567184369793" flag="0"/>
		</comp>
		<comp name="--.HNZ" depth="0.0">
			<acc value="0.00412930643538117" flag="0"/>
			<vel value="0.00280690659241028" flag="0"/>
			<psa03 value="0.0100006286383946" flag="0"/>
			<psa10 value="0.00382806163717053" flag="0"/>
			<psa30 value="0.000302720079761137" flag="0"/>
		</comp>
	</station>
	<station code="LTK" name="LTK" netid="HP" source="University of Patras, Seismological Laboratory (PSLNET)" insttype="" lat="38.0228" lon="22.9673" esm:processing="manual (Paolucci et al 2011)" esm:quality="good">
		<comp name="--.HNE" depth="0.0">
			<acc value="0.00110665456075651" flag="0"/>
			<vel value="0.00109260014069649" flag="0"/>
			<psa03 value="0.00309175722259455" flag="0"/>
			<psa10 value="0.00182736046772412" flag="0"/>
			<psa30 value="0.000206996655220823" flag="0"/>
		</comp>
		<comp name="--.HNN" depth="0.0">
			<acc value="0.000987361230936078" flag="0"/>
			<vel value="0.00125425928212607" flag="0"/>
			<psa03 value="0.0040842425662359" flag="0"/>
			<psa10 value="0.00181333289784423" flag="0"/>
			<psa30 value="0.000280978483237116" flag="0"/>
		</comp>
		<comp name="--.HNZ" depth="0.0">
			<acc value="0.000987295699830027" flag="0"/>
			<vel value="0.000853763921461606" flag="0"/>
			<psa03 value="0.00291892513529875" flag="0"/>
			<psa10 value="0.00161046906848333" flag="0"/>
			<psa30 value="0.000143024917407202" flag="0"/>
		</comp>
	</station>
	<station code="PDO" name="PDO" netid="HP" source="University of Patras, Seismological Laboratory (PSLNET)" insttype="" lat="38.5986" lon="21.1833" esm:processing="manual (Paolucci et al 2011)" esm:quality="best">
		<comp name="--.HNE" depth="0.0">
			<acc value="0.0112341969750063" flag="0"/>
			<vel value="0.00552746174860351" flag="0"/>
			<psa03 value="0.0346873291153245" flag="0"/>
			<psa10 value="0.00712117705552766" flag="0"/>
			<psa30 value="0.00076061991858542" flag="0"/>
		</comp>
		<comp name="--.HNN" depth="0.0">
			<acc value="0.015631491575502" flag="0"/>
			<vel value="0.00691449229898897" flag="0"/>
			<psa03 value="0.0613558666085927" flag="0"/>
			<psa10 value="0.00684223217053137" flag="0"/>
			<psa30 value="0.00043320526022225" flag="0"/>
		</comp>
		<comp name="--.HNZ" depth="0.0">
			<acc value="0.0112241184738048" flag="0"/>
			<vel value="0.00357411655055949" flag="0"/>
			<psa03 value="0.0197341679688415" flag="0"/>
			<psa10 value="0.00349248776642439" flag="0"/>
			<psa30 value="0.000286449757140635" flag="0"/>
		</comp>
	</station>
	<station code="PVO" name="PVO" netid="HP" source="University of Patras, Seismological Laboratory (PSLNET)" insttype="" lat="38.616" lon="21.525" esm:processing="manual (Paolucci et al 2011)" esm:quality="best">
		<comp name="--.HNE" depth="0.0">
			<acc value="0.0104254706292405" flag="0"/>
			<vel value="0.00367364811722504" flag="0"/>
			<psa03 value="0.0389647478899702" flag="0"/>
			<psa10 value="0.00307527684699885" flag="0"/>
			<psa30 value="0.0003495515154473" flag="0"/>
		</comp>
		<comp name="--.HNN" depth="0.0">
			<acc value="0.00683376713579806" flag="0"/>
			<vel value="0.00371678208069839" flag="0"/>
			<psa03 value="0.0298890919848134" flag="0"/>
			<psa10 value="0.00266654078586347" flag="0"/>
			<psa30 value="0.000259600009726493" flag="0"/>
		</comp>
		<comp name="--.HNZ" depth="0.0">
			<acc value="0.00567290328692323" flag="0"/>
			<vel value="0.0026289337458981" flag="0"/>
			<psa03 value="0.0184760299359014" flag="0"/>
			<psa10 value="0.00222031747576163" flag="0"/>
			<psa30 value="0.000435214273518067" flag="0"/>
		</comp>
	</station>
	<station code="PYL" name="PYL" netid="HP" source="University of Patras, Seismological Laboratory (PSLNET)" insttype="" lat="36.8955" lon="21.742" esm:processing="manual (Paolucci et al 2011)" esm:quality="best">
		<comp name="--.HNE" depth="0.0">
			<acc value="0.019395365535956" flag="0"/>
			<vel value="0.00592570376394254" flag="0"/>
			<psa03 value="0.0350993590144293" flag="0"/>
			<psa10 value="0.00821245528484315" flag="0"/>
			<psa30 value="0.000552428783193943" flag="0"/>
		</comp>
		<comp name="--.HNN" depth="0.0">
			<acc value="0.023382610308518" flag="0"/>
			<vel value="0.00746485564359319" flag="0"/>
			<psa03 value="0.0314556671168954" flag="0"/>
			<psa10 value="0.0109996652363573" flag="0"/>
			<psa30 value="0.000597352592509484" flag="0"/>
		</comp>
		<comp name="--.HNZ" depth="0.0">
			<acc value="0.0126892705103261" flag="0"/>
			<vel value="0.00446297144493593" flag="0"/>
			<psa03 value="0.0123223696819313" flag="0"/>
			<psa10 value="0.00452364435675304" flag="0"/>
			<psa30 value="0.000332487989239036" flag="0"/>
		</comp>
	</station>
	<station code="SERG" name="SERG" netid="HP" source="University of Patras, Seismological Laboratory (PSLNET)" insttype="" lat="38.4133" lon="22.0566" esm:processing="manual (Paolucci et al 2011)" esm:quality="good">
		<comp name="--.HNE" depth="0.0">
			<acc value="0.00388258754374858" flag="0"/>
			<vel value="0.0028567936653678" flag="0"/>
			<psa03 value="0.0111458477327155" flag="0"/>
			<psa10 value="0.00486829781334895" flag="0"/>
			<psa30 value="0.000210789367407044" flag="0"/>
		</comp>
		<comp name="--.HNN" depth="0.0">
			<acc value="0.0038149501934514" flag="0"/>
			<vel value="0.00206811236208836" flag="0"/>
			<psa03 value="0.00861972466030417" flag="0"/>
			<psa10 value="0.0023078391330179" flag="0"/>
			<psa30 value="0.000225664740848032" flag="0"/>
		</comp>
		<comp name="--.HNZ" depth="0.0">
			<acc value="0.00352948686287676" flag="0"/>
			<vel value="0.00124720382456748" flag="0"/>
			<psa03 value="0.00602204085775116" flag="0"/>
			<psa10 value="0.00187729877589365" flag="0"/>
			<psa30 value="0.000258696798851601" flag="0"/>
		</comp>
	</station>
	<station code="UPR" name="UPR" netid="HP" source="University of Patras, Seismological Laboratory (PSLNET)" insttype="" lat="38.2836" lon="21.7864" esm:processing="manual (Paolucci et al 2011)" esm:quality="bad">
		<comp name="--.HNE" depth="0.0">
			<acc value="0.00527917581692228" flag="0"/>
			<vel value="0.00744312564630152" flag="0"/>
			<psa03 value="0.0111848125535378" flag="0"/>
			<psa10 value="0.0101928330376652" flag="0"/>
			<psa30 value="0.00102575180518978" flag="0"/>
		</comp>
		<comp name="--.HNN" depth="0.0">
			<acc value="0.00813134816241193" flag="0"/>
			<vel value="0.009726413260285" flag="0"/>
			<psa03 value="0.0138666907356457" flag="0"/>
			<psa10 value="0.0165819822249423" flag="0"/>
			<psa30 value="0.00151724717684753" flag="0"/>
		</comp>
		<comp name="--.HNZ" depth="0.0">
			<acc value="0.00548248098429952" flag="0"/>
			<vel value="0.00506813671278169" flag="0"/>
			<psa03 value="0.0156926307056011" flag="0"/>
			<psa10 value="0.0112346370520767" flag="0"/>
			<psa30 value="0.000595142550273988" flag="0"/>
		</comp>
	</station>
	<station code="VALY" name="VALY" netid="HP" source="University of Patras, Seismological Laboratory (PSLNET)" insttype="" lat="37.1641" lon="21.9836" esm:processing="manual (Paolucci et al 2011)" esm:quality="best">
		<comp name="--.HNE" depth="0.0">
			<acc value="0.0122356235163444" flag="0"/>
			<vel value="0.00794862101732948" flag="0"/>
			<psa03 value="0.02729798283655" flag="0"/>
			<psa10 value="0.00704304062938141" flag="0"/>
			<psa30 value="0.000639922652149783" flag="0"/>
		</comp>
		<comp name="--.HNN" depth="0.0">
			<acc value="0.0173056719823196" flag="0"/>
			<vel value="0.00729172286791073" flag="0"/>
			<psa03 value="0.0207589025191455" flag="0"/>
			<psa10 value="0.00985811398917441" flag="0"/>
			<psa30 value="0.000427831701125304" flag="0"/>
		</comp>
		<comp name="--.HNZ" depth="0.0">
			<acc value="0.00604647076864326" flag="0"/>
			<vel value="0.00345508494045235" flag="0"/>
			<psa03 value="0.0117463784003172" flag="0"/>
			<psa10 value="0.0065550512712265" flag="0"/>
			<psa30 value="0.000600144600384809" flag="0"/>
		</comp>
	</station>
	<station code="KTHA" name="KTHA" netid="GE" source="GEOFON" insttype="" lat="36.2566" lon="23.0621" esm:processing="automatic (Paolucci et al 2011)" esm:quality="bad">
		<comp name="--.HNE" depth="0.0">
			<acc value="0" flag="1"/>
			<vel value="0" flag="1"/>
			<psa03 value="0" flag="1"/>
			<psa10 value="0" flag="1"/>
			<psa30 value="0" flag="1"/>
		</comp>
		<comp name="--.HNN" depth="0.0">
			<acc value="0" flag="1"/>
			<vel value="0" flag="1"/>
			<psa03 value="0" flag="1"/>
			<psa10 value="0" flag="1"/>
			<psa30 value="0" flag="1"/>
		</comp>
		<comp name="--.HNZ" depth="0.0">
			<acc value="0" flag="1"/>
			<vel value="0" flag="1"/>
			<psa03 value="0" flag="1"/>
			<psa10 value="0" flag="1"/>
			<psa30 value="0" flag="1"/>
		</comp>
	</station>
	<station code="AIGS" name="AIGS" netid="HA" source="Hellenic Seismological Network, University of Athens, Seismological Laboratory (HA)" insttype="" lat="38.25001" lon="22.0878" esm:processing="automatic (Paolucci et al 2011)" esm:quality="bad">
		<comp name="--.HNE" depth="0.0">
			<acc value="0" flag="1"/>
			<vel value="0" flag="1"/>
			<psa03 value="0" flag="1"/>
			<psa10 value="0" flag="1"/>
			<psa30 value="0" flag="1"/>
		</comp>
		<comp name="--.HNN" depth="0.0">
			<acc value="0" flag="1"/>
			<vel value="0" flag="1"/>
			<psa03 value="0" flag="1"/>
			<psa10 value="0" flag="1"/>
			<psa30 value="0" flag="1"/>
		</comp>
		<comp name="--.HNZ" depth="0.0">
			<acc value="0" flag="1"/>
			<vel value="0" flag="1"/>
			<psa03 value="0" flag="1"/>
			<psa10 value="0" flag="1"/>
			<psa30 value="0" flag="1"/>
		</comp>
	</station>
