<?xml version="1.0" encoding="UTF-8" standalone="yes"?>
<!DOCTYPE earthquake SYSTEM "stationlist.dtd">
<stationlist created="" xmlns="ch.ethz.sed.shakemap.usgs.xml">
  <station code="KTRS" name="KTRS" netid="HC" insttype="60" lat="36.9261" lon="22.136">
    <comp name="--.HHE">
      <acc value="0.0067723499" flag="0"/>
      <vel value="0.0038088287" flag="0"/>
      <psa03 value="0.0099744571" flag="0"/>
      <psa10 value="0.0046667191" flag="0"/>
      <psa30 value="0.0003168081" flag="0"/>
    </comp>
    <comp name="--.HHZ">
      <acc value="0.0045192236" flag="0"/>
      <vel value="0.0020814237" flag="0"/>
      <psa03 value="0.0090633837" flag="0"/>
      <psa10 value="0.0038807941" flag="0"/>
      <psa30 value="0.0003228228" flag="0"/>
    </comp>
    <comp name="--.HHN">
      <acc value="0.0069671589" flag="0"/>
      <vel value="0.0025169093" flag="0"/>
      <psa03 value="0.0102458506" flag="0"/>
      <psa10 value="0.0047740493" flag="0"/>
      <psa30 value="0.0004168526" flag="0"/>
    </comp>
  </station>
  <station code="KRI1" name="KRI1" netid="HI" insttype="CMG-5TD,ACCELEROMETER,GURALP" lat="37.6621" lon="20.8172">
    <comp name="--.HNE">
      <acc value="0.1060170404" flag="0"/>
      <vel value="0.0436622697" flag="0"/>
      <psa03 value="0.1914709432" flag="0"/>
      <psa10 value="0.0281615059" flag="0"/>
      <psa30 value="0.0029596940" flag="0"/>
    </comp>
    <comp name="--.HNN">
      <acc value="0.0690072312" flag="0"/>
      <vel value="0.0279131672" flag="0"/>
      <psa03 value="0.1312578202" flag="0"/>
      <psa10 value="0.0219414837" flag="0"/>
      <psa30 value="0.0029945533" flag="0"/>
    </comp>
    <comp name="--.HNZ">
      <acc value="0.0915837169" flag="0"/>
      <vel value="0.0285213011" flag="0"/>
      <psa03 value="0.1317975834" flag="0"/>
      <psa10 value="0.0095484563" flag="0"/>
      <psa30 value="0.0009149974" flag="0"/>
    </comp>
  </station>
  <station code="PYL1" name="PYL1" netid="HI" insttype="CMG-5TD,ACCELEROMETER,GURALP" lat="36.9142" lon="21.6952">
    <comp name="--.HNE">
      <acc value="0.0216589739" flag="0"/>
      <vel value="0.0077643775" flag="0"/>
      <psa03 value="0.0304849596" flag="0"/>
      <psa10 value="0.0118198800" flag="0"/>
      <psa30 value="0.0009782923" flag="0"/>
    </comp>
    <comp name="--.HNZ">
      <acc value="0.0173272267" flag="0"/>
      <vel value="0.0065325874" flag="0"/>
      <psa03 value="0.0172353439" flag="0"/>
      <psa10 value="0.0051882875" flag="0"/>
      <psa30 value="0.0004193803" flag="0"/>
    </comp>
    <comp name="--.HNN">
      <acc value="0.0169151381" flag="0"/>
      <vel value="0.0058783628" flag="0"/>
      <psa03 value="0.0335466754" flag="0"/>
      <psa10 value="0.0074080761" flag="0"/>
      <psa30 value="0.0005504871" flag="0"/>
    </comp>
  </station>
  <station code="ITM" name="ITM" netid="HL" insttype="DR24" lat="37.1787" lon="21.9252">
    <comp name="--.HHN">
      <acc value="0.0219853477" flag="0"/>
      <vel value="0.0094146425" flag="0"/>
      <psa03 value="0.0499120456" flag="0"/>
      <psa10 value="0.0126732922" flag="0"/>
      <psa30 value="0.0006632935" flag="0"/>
    </comp>
    <comp name="--.HHZ">
      <acc value="0.0140589213" flag="0"/>
      <vel value="0.0074175130" flag="0"/>
      <psa03 value="0.0182964379" flag="0"/>
      <psa10 value="0.0125130477" flag="0"/>
      <psa30 value="0.0007453061" flag="0"/>
    </comp>
    <comp name="--.HHE">
      <acc value="0.0122477996" flag="0"/>
      <vel value="0.0089935918" flag="0"/>
      <psa03 value="0.0362532737" flag="0"/>
      <psa10 value="0.0071030798" flag="0"/>
      <psa30 value="0.0009504587" flag="0"/>
    </comp>
  </station>
  <station code="RLS" name="RLS" netid="HL" insttype="CMG3ESPC-120s" lat="38.0559" lon="21.4647">
    <comp name="--.HHE">
      <acc value="0.0066615863" flag="0"/>
      <vel value="0.0034732993" flag="0"/>
      <psa03 value="0.0146513727" flag="0"/>
      <psa10 value="0.0057290947" flag="0"/>
      <psa30 value="0.0004805670" flag="0"/>
    </comp>
    <comp name="--.HHN">
      <acc value="0.0069793491" flag="0"/>
      <vel value="0.0048120083" flag="0"/>
      <psa03 value="0.0154577353" flag="0"/>
      <psa10 value="0.0061487011" flag="0"/>
      <psa30 value="0.0004529743" flag="0"/>
    </comp>
    <comp name="--.HHZ">
      <acc value="0.0036594135" flag="0"/>
      <vel value="0.0027122030" flag="0"/>
      <psa03 value="0.0071325759" flag="0"/>
      <psa10 value="0.0055976666" flag="0"/>
      <psa30 value="0.0004689425" flag="0"/>
    </comp>
  </station>
  <station code="VLS" name="VLS" netid="HL" insttype="120P," lat="38.1768" lon="20.5886">
    <comp name="--.HHN">
      <acc value="0.0547975378" flag="0"/>
      <vel value="0.0121129424" flag="0"/>
      <psa03 value="0.0516209498" flag="0"/>
      <psa10 value="0.0062192617" flag="0"/>
      <psa30 value="0.0004991887" flag="0"/>
    </comp>
    <comp name="--.HHZ">
      <acc value="0.0283066333" flag="0"/>
      <vel value="0.0071053695" flag="0"/>
      <psa03 value="0.0319059690" flag="0"/>
      <psa10 value="0.0041857707" flag="0"/>
      <psa30 value="0.0005749414" flag="0"/>
    </comp>
    <comp name="--.HHE">
      <acc value="0.0510307322" flag="0"/>
      <vel value="0.0143828141" flag="0"/>
      <psa03 value="0.0777861594" flag="0"/>
      <psa10 value="0.0073430401" flag="0"/>
      <psa30 value="0.0009369474" flag="0"/>
    </comp>
  </station>
  <station code="AMT" name="AMT" netid="HP" insttype="CMG-3T," lat="37.5324" lon="21.7089">
    <comp name="00.HHN">
      <acc value="0.0389120161" flag="0"/>
      <vel value="0.0280771500" flag="0"/>
      <psa03 value="0.1090854809" flag="0"/>
      <psa10 value="0.0385930420" flag="0"/>
      <psa30 value="0.0029735531" flag="0"/>
    </comp>
    <comp name="00.HHZ">
      <acc value="0.0256301496" flag="0"/>
      <vel value="0.0152035774" flag="0"/>
      <psa03 value="0.1257179086" flag="0"/>
      <psa10 value="0.0171235443" flag="0"/>
      <psa30 value="0.0007422362" flag="0"/>
    </comp>
    <comp name="00.HHE">
      <acc value="0.0282007178" flag="0"/>
      <vel value="0.0235858420" flag="0"/>
      <psa03 value="0.0813329740" flag="0"/>
      <psa10 value="0.0340834365" flag="0"/>
      <psa30 value="0.0018396133" flag="0"/>
    </comp>
  </station>
  <station code="DRO" name="DRO" netid="HP" insttype="120P," lat="37.952" lon="21.71">
    <comp name="--.HHN">
      <acc value="0.0147694980" flag="0"/>
      <vel value="0.0080573233" flag="0"/>
      <psa03 value="0.0458481698" flag="0"/>
      <psa10 value="0.0129811926" flag="0"/>
      <psa30 value="0.0009338035" flag="0"/>
    </comp>
    <comp name="--.HHE">
      <acc value="0.0168508153" flag="0"/>
      <vel value="0.0100316819" flag="0"/>
      <psa03 value="0.0364435308" flag="0"/>
      <psa10 value="0.0110019256" flag="0"/>
      <psa30 value="0.0016705032" flag="0"/>
    </comp>
    <comp name="--.HHZ">
      <acc value="0.0080492081" flag="0"/>
      <vel value="0.0068357471" flag="0"/>
      <psa03 value="0.0167568801" flag="0"/>
      <psa10 value="0.0079705601" flag="0"/>
      <psa30 value="0.0011997159" flag="0"/>
    </comp>
  </station>
  <station code="LTHK" name="LTHK" netid="HP" insttype="40," lat="37.7095" lon="20.8367">
    <comp name="--.HHE">
      <acc value="0.1200536404" flag="0"/>
      <vel value="0.0401099525" flag="0"/>
      <psa03 value="0.1686908628" flag="0"/>
      <psa10 value="0.0192911903" flag="0"/>
      <psa30 value="0.0024424591" flag="0"/>
    </comp>
    <comp name="--.HHN">
      <acc value="0.2072074312" flag="0"/>
      <vel value="0.0443150083" flag="0"/>
      <psa03 value="0.1397928795" flag="0"/>
      <psa10 value="0.0170794067" flag="0"/>
      <psa30 value="0.0009997103" flag="0"/>
    </comp>
    <comp name="--.HHZ">
      <acc value="0.0635475226" flag="0"/>
      <vel value="0.0160899114" flag="0"/>
      <psa03 value="0.1196493190" flag="0"/>
      <psa10 value="0.0094508223" flag="0"/>
      <psa30 value="0.0008470501" flag="0"/>
    </comp>
  </station>
  <station code="PYL" name="PYL" netid="HP" insttype="" lat="0" lon="0">
    <comp name="--.HHE">
      <acc value="0.0168978932" flag="0"/>
      <vel value="0.0063112046" flag="0"/>
      <psa03 value="0.0328772150" flag="0"/>
      <psa10 value="0.0087246059" flag="0"/>
      <psa30 value="0.0006212220" flag="0"/>
    </comp>
  </station>
  <station code="VALY" name="VALY" netid="HP" insttype="DC_100" lat="37.1641" lon="21.9836">
    <comp name="--.HNN">
      <acc value="0.0171149888" flag="0"/>
      <vel value="0.0072246131" flag="0"/>
      <psa03 value="0.0208014994" flag="0"/>
      <psa10 value="0.0098909790" flag="0"/>
      <psa30 value="0.0005222727" flag="0"/>
    </comp>
    <comp name="--.HNE">
      <acc value="0.0127854904" flag="0"/>
      <vel value="0.0080078241" flag="0"/>
      <psa03 value="0.0272110504" flag="0"/>
      <psa10 value="0.0070516550" flag="0"/>
      <psa30 value="0.0007444815" flag="0"/>
    </comp>
    <comp name="--.HNZ">
      <acc value="0.0059980020" flag="0"/>
      <vel value="0.0035143405" flag="0"/>
      <psa03 value="0.0115453073" flag="0"/>
      <psa10 value="0.0065635725" flag="0"/>
      <psa30 value="0.0007127078" flag="0"/>
    </comp>
  </station>
  <station code="PSDA" name="PSDA" netid="HT" insttype="30" lat="38.114" lon="20.5841">
    <comp name="--.HHZ">
      <acc value="0.0369207369" flag="0"/>
      <vel value="0.0101175573" flag="0"/>
      <psa03 value="0.0349502199" flag="0"/>
      <psa10 value="0.0049866814" flag="0"/>
      <psa30 value="0.0006804885" flag="0"/>
    </comp>
    <comp name="--.HHE">
      <acc value="0.0714750185" flag="0"/>
      <vel value="0.0191314608" flag="0"/>
      <psa03 value="0.1242708134" flag="0"/>
      <psa10 value="0.0201237686" flag="0"/>
      <psa30 value="0.0013873244" flag="0"/>
    </comp>
    <comp name="--.HHN">
      <acc value="0.0649831605" flag="0"/>
      <vel value="0.0170284705" flag="0"/>
      <psa03 value="0.0859906066" flag="0"/>
      <psa10 value="0.0079660770" flag="0"/>
      <psa30 value="0.0007003795" flag="0"/>
    </comp>
  </station>
  <station code="RTZL" name="RTZL" netid="HT" insttype="Compact," lat="38.076" lon="20.7715">
    <comp name="--.HHZ">
      <acc value="0.0120486640" flag="0"/>
      <vel value="0.0035514201" flag="0"/>
      <psa03 value="0.0205903974" flag="0"/>
      <psa10 value="0.0029520320" flag="0"/>
      <psa30 value="0.0003499289" flag="0"/>
    </comp>
    <comp name="--.HHN">
      <acc value="0.0201737152" flag="0"/>
      <vel value="0.0069289835" flag="0"/>
      <psa03 value="0.0309459586" flag="0"/>
      <psa10 value="0.0066573282" flag="0"/>
      <psa30 value="0.0004815648" flag="0"/>
    </comp>
    <comp name="--.HHE">
      <acc value="0.0333187906" flag="0"/>
      <vel value="0.0061102858" flag="0"/>
      <psa03 value="0.0313743947" flag="0"/>
      <psa10 value="0.0064755299" flag="0"/>
      <psa30 value="0.0005584166" flag="0"/>
    </comp>
  </station>
</stationlist>
