<?xml version="1.0" encoding="UTF-8" standalone="yes"?>
<!DOCTYPE earthquake SYSTEM "stationlist.dtd">
<stationlist created="" xmlns="ch.ethz.sed.shakemap.usgs.xml">
  <station code="ARR" name="ARR" netid="RO" insttype="w/attenuator" lat="45.3657" lon="24.6332">
    <comp name="--.HHE">
      <acc value="0.0039568971" flag="0"/>
      <vel value="0.0017268637" flag="0"/>
      <psa03 value="0.0090485275" flag="0"/>
      <psa10 value="0.0020083563" flag="0"/>
      <psa30 value="0.0001622103" flag="0"/>
    </comp>
    <comp name="--.HHZ">
      <acc value="0.0034664921" flag="0"/>
      <vel value="0.0013868810" flag="0"/>
      <psa03 value="0.0054222259" flag="0"/>
      <psa10 value="0.0023026454" flag="0"/>
      <psa30 value="0.0001188271" flag="0"/>
    </comp>
    <comp name="--.HHN">
      <acc value="0.0043541946" flag="0"/>
      <vel value="0.0030152104" flag="0"/>
      <psa03 value="0.0111482581" flag="0"/>
      <psa10 value="0.0044340330" flag="0"/>
      <psa30 value="0.0001990577" flag="0"/>
    </comp>
  </station>
  <station code="BAIL" name="BAIL" netid="RO" insttype="Seismometer/Basalt" lat="44.0201" lon="23.345">
    <comp name="--.HHZ">
      <acc value="0.0403421999" flag="0"/>
      <vel value="0.0109841577" flag="0"/>
      <psa03 value="0.0611720128" flag="0"/>
      <psa10 value="0.0056862160" flag="0"/>
      <psa30 value="0.0006873691" flag="0"/>
    </comp>
    <comp name="--.HHN">
      <acc value="0.0751715779" flag="0"/>
      <vel value="0.0365113900" flag="0"/>
      <psa03 value="0.2331306565" flag="0"/>
      <psa10 value="0.0171412891" flag="0"/>
      <psa30 value="0.0015029082" flag="0"/>
    </comp>
    <comp name="--.HHE">
      <acc value="0.0609772696" flag="0"/>
      <vel value="0.0333956964" flag="0"/>
      <psa03 value="0.1306995026" flag="0"/>
      <psa10 value="0.0208993596" flag="0"/>
      <psa30 value="0.0015610539" flag="0"/>
    </comp>
  </station>
  <station code="CRAR" name="CRAR" netid="RO" insttype="200" lat="44.325" lon="23.7999">
    <comp name="--.HNE">
      <acc value="0.0298615589" flag="0"/>
      <vel value="0.0184030253" flag="0"/>
      <psa03 value="0.0588217004" flag="0"/>
      <psa10 value="0.0115342245" flag="0"/>
      <psa30 value="0.0011193277" flag="0"/>
    </comp>
    <comp name="--.HNN">
      <acc value="0.0361057444" flag="0"/>
      <vel value="0.0185461747" flag="0"/>
      <psa03 value="0.0806670416" flag="0"/>
      <psa10 value="0.0169288443" flag="0"/>
      <psa30 value="0.0017435850" flag="0"/>
    </comp>
    <comp name="--.HNZ">
      <acc value="0.0691815474" flag="0"/>
      <vel value="0.0112396048" flag="0"/>
      <psa03 value="0.0429269169" flag="0"/>
      <psa10 value="0.0060348106" flag="0"/>
      <psa30 value="0.0005247801" flag="0"/>
    </comp>
  </station>
  <station code="DEV" name="DEV" netid="RO" insttype="CMG40T.1to100/Quanterra" lat="45.887" lon="22.898">
    <comp name="--.HHE">
      <acc value="0.0682787847" flag="0"/>
      <vel value="0.0118256375" flag="0"/>
      <psa03 value="0.0343698068" flag="0"/>
      <psa10 value="0.0071770852" flag="0"/>
      <psa30 value="0.0003339192" flag="0"/>
    </comp>
    <comp name="--.HHN">
      <acc value="0.0501791564" flag="0"/>
      <vel value="0.0111037575" flag="0"/>
      <psa03 value="0.0558614414" flag="0"/>
      <psa10 value="0.0065438978" flag="0"/>
      <psa30 value="0.0004504624" flag="0"/>
    </comp>
    <comp name="--.HHZ">
      <acc value="0.0396182992" flag="0"/>
      <vel value="0.0087769217" flag="0"/>
      <psa03 value="0.0266782049" flag="0"/>
      <psa10 value="0.0041348328" flag="0"/>
      <psa30 value="0.0002891091" flag="0"/>
    </comp>
  </station>
  <station code="GZR" name="GZR" netid="RO" insttype="330" lat="45.3933" lon="22.7767">
    <comp name="--.HHE">
      <acc value="0.3377041412" flag="0"/>
      <vel value="0.0549164999" flag="0"/>
      <psa03 value="0.1838523566" flag="0"/>
      <psa10 value="0.0095312685" flag="0"/>
      <psa30 value="0.0012703364" flag="0"/>
    </comp>
    <comp name="--.HHN">
      <acc value="0.3119969230" flag="0"/>
      <vel value="0.0625537293" flag="0"/>
      <psa03 value="0.1647650129" flag="0"/>
      <psa10 value="0.0191500973" flag="0"/>
      <psa30 value="0.0012970056" flag="0"/>
    </comp>
    <comp name="--.HHZ">
      <acc value="0.5452896339" flag="0"/>
      <vel value="0.0756991762" flag="0"/>
      <psa03 value="0.1315878793" flag="0"/>
      <psa10 value="0.0167829723" flag="0"/>
      <psa30 value="0.0007785950" flag="0"/>
    </comp>
  </station>
  <station code="HERR" name="HERR" netid="RO" insttype="CMG40T.1to100/Quanterra" lat="44.881" lon="22.416">
    <comp name="--.HHN">
      <acc value="0.3460500077" flag="0"/>
      <vel value="0.0717258344" flag="0"/>
      <psa03 value="0.1258954072" flag="0"/>
      <psa10 value="0.0168670445" flag="0"/>
      <psa30 value="0.0008827310" flag="0"/>
    </comp>
    <comp name="--.HHE">
      <acc value="0.3914371870" flag="0"/>
      <vel value="0.0443528002" flag="0"/>
      <psa03 value="0.1286517907" flag="0"/>
      <psa10 value="0.0086795590" flag="0"/>
      <psa30 value="0.0006036170" flag="0"/>
    </comp>
    <comp name="--.HHZ">
      <acc value="0.1426253787" flag="0"/>
      <vel value="0.0167191063" flag="0"/>
      <psa03 value="0.0365413836" flag="0"/>
      <psa10 value="0.0066768987" flag="0"/>
      <psa30 value="0.0004105965" flag="0"/>
    </comp>
  </station>
  <station code="LOT" name="LOT" netid="RO" insttype="330" lat="45.446" lon="23.7698">
    <comp name="--.HHN">
      <acc value="0.0923317106" flag="0"/>
      <vel value="0.0221050470" flag="0"/>
      <psa03 value="0.0636770538" flag="0"/>
      <psa10 value="0.0131177411" flag="0"/>
      <psa30 value="0.0006572905" flag="0"/>
    </comp>
    <comp name="--.HHE">
      <acc value="0.1259557067" flag="0"/>
      <vel value="0.0199019880" flag="0"/>
      <psa03 value="0.0621307863" flag="0"/>
      <psa10 value="0.0073003422" flag="0"/>
      <psa30 value="0.0007962839" flag="0"/>
    </comp>
    <comp name="--.HHZ">
      <acc value="0.0794594856" flag="0"/>
      <vel value="0.0124841655" flag="0"/>
      <psa03 value="0.0316186047" flag="0"/>
      <psa10 value="0.0059821504" flag="0"/>
      <psa30 value="0.0003319042" flag="0"/>
    </comp>
  </station>
  <station code="MDVR" name="MDVR" netid="RO" insttype="CMG40T.1to100/Quanterra" lat="44.7815" lon="21.7128">
    <comp name="--.HHE">
      <acc value="0.0481507743" flag="0"/>
      <vel value="0.0096221708" flag="0"/>
      <psa03 value="0.0591929890" flag="0"/>
      <psa10 value="0.0034188332" flag="0"/>
      <psa30 value="0.0003800526" flag="0"/>
    </comp>
    <comp name="--.HHN">
      <acc value="0.0536612654" flag="0"/>
      <vel value="0.0097798708" flag="0"/>
      <psa03 value="0.0388505717" flag="0"/>
      <psa10 value="0.0060498241" flag="0"/>
      <psa30 value="0.0003100875" flag="0"/>
    </comp>
    <comp name="--.HHZ">
      <acc value="0.0366308254" flag="0"/>
      <vel value="0.0068700495" flag="0"/>
      <psa03 value="0.0264129929" flag="0"/>
      <psa10 value="0.0043892272" flag="0"/>
      <psa30 value="0.0001845099" flag="0"/>
    </comp>
  </station>
  <station code="MHISU" name="MHISU" netid="RO" insttype="200" lat="44.6227" lon="22.6535">
    <comp name="--.HNE">
      <acc value="0.2589526710" flag="0"/>
      <vel value="0.1075767358" flag="0"/>
      <psa03 value="0.5905262783" flag="0"/>
      <psa10 value="0.0552605269" flag="0"/>
      <psa30 value="0.0056462114" flag="0"/>
    </comp>
    <comp name="--.HNN">
      <acc value="0.2694730329" flag="0"/>
      <vel value="0.0901440761" flag="0"/>
      <psa03 value="0.7725251663" flag="0"/>
      <psa10 value="0.0596354933" flag="0"/>
      <psa30 value="0.0036679866" flag="0"/>
    </comp>
    <comp name="--.HNZ">
      <acc value="0.1280020852" flag="0"/>
      <vel value="0.0442434193" flag="0"/>
      <psa03 value="0.3367664020" flag="0"/>
      <psa10 value="0.0223000459" flag="0"/>
      <psa30 value="0.0015325479" flag="0"/>
    </comp>
  </station>
  <station code="OTISU" name="OTISU" netid="RO" insttype="200" lat="44.4278" lon="24.3755">
    <comp name="--.HNE">
      <acc value="0.0483397437" flag="0"/>
      <vel value="0.0209487187" flag="0"/>
      <psa03 value="0.0755208061" flag="0"/>
      <psa10 value="0.0152418971" flag="0"/>
      <psa30 value="0.0009334030" flag="0"/>
    </comp>
    <comp name="--.HNN">
      <acc value="0.0373135337" flag="0"/>
      <vel value="0.0207387379" flag="0"/>
      <psa03 value="0.1000475673" flag="0"/>
      <psa10 value="0.0130498531" flag="0"/>
      <psa30 value="0.0019721756" flag="0"/>
    </comp>
    <comp name="--.HNZ">
      <acc value="0.0361531365" flag="0"/>
      <vel value="0.0098515252" flag="0"/>
      <psa03 value="0.0319738520" flag="0"/>
      <psa10 value="0.0071883173" flag="0"/>
      <psa30 value="0.0003768179" flag="0"/>
    </comp>
  </station>
  <station code="RMGR" name="RMGR" netid="RO" insttype="MBB2/Quanterra" lat="44.6627" lon="22.6922">
    <comp name="--.HHE">
      <acc value="0.5654637889" flag="0"/>
      <vel value="0.2139216491" flag="0"/>
      <psa03 value="1.8268335430" flag="0"/>
      <psa10 value="0.1122130212" flag="0"/>
      <psa30 value="0.0066290786" flag="0"/>
    </comp>
    <comp name="--.HHN">
      <acc value="0.4660111704" flag="0"/>
      <vel value="0.1850190691" flag="0"/>
      <psa03 value="0.7926361731" flag="0"/>
      <psa10 value="0.0656127953" flag="0"/>
      <psa30 value="0.0047671908" flag="0"/>
    </comp>
    <comp name="--.HHZ">
      <acc value="0.1144388166" flag="0"/>
      <vel value="0.0414615133" flag="0"/>
      <psa03 value="0.2764103445" flag="0"/>
      <psa10 value="0.0367169418" flag="0"/>
      <psa30 value="0.0020845579" flag="0"/>
    </comp>
  </station>
  <station code="SURR" name="SURR" netid="RO" insttype="Linear" lat="45.754" lon="22.1246">
    <comp name="--.HHE">
      <acc value="0.1886041590" flag="0"/>
      <vel value="0.0209750675" flag="0"/>
      <psa03 value="0.0351899698" flag="0"/>
      <psa10 value="0.0035460874" flag="0"/>
      <psa30 value="0.0003865117" flag="0"/>
    </comp>
    <comp name="--.HHN">
      <acc value="0.1167985505" flag="0"/>
      <vel value="0.0158338216" flag="0"/>
      <psa03 value="0.0492967986" flag="0"/>
      <psa10 value="0.0077960789" flag="0"/>
      <psa30 value="0.0004708332" flag="0"/>
    </comp>
    <comp name="--.HHZ">
      <acc value="0.0484249584" flag="0"/>
      <vel value="0.0071519404" flag="0"/>
      <psa03 value="0.0226971523" flag="0"/>
      <psa10 value="0.0037472240" flag="0"/>
      <psa30 value="0.0002708123" flag="0"/>
    </comp>
  </station>
  <station code="TNR" name="TNR" netid="RO" insttype="CMG40T.1to100/Quanterra" lat="45.652" lon="24.273">
    <comp name="--.HHN">
      <acc value="0.0146950575" flag="0"/>
      <vel value="0.0084399314" flag="0"/>
      <psa03 value="0.0258470089" flag="0"/>
      <psa10 value="0.0167107380" flag="0"/>
      <psa30 value="0.0011582941" flag="0"/>
    </comp>
    <comp name="--.HHE">
      <acc value="0.0094290287" flag="0"/>
      <vel value="0.0032653634" flag="0"/>
      <psa03 value="0.0069892681" flag="0"/>
      <psa10 value="0.0050983845" flag="0"/>
      <psa30 value="0.0003674351" flag="0"/>
    </comp>
    <comp name="--.HHZ">
      <acc value="0.0147446964" flag="0"/>
      <vel value="0.0065494872" flag="0"/>
      <psa03 value="0.0113397622" flag="0"/>
      <psa10 value="0.0111385968" flag="0"/>
      <psa30 value="0.0004592611" flag="0"/>
    </comp>
  </station>
  <station code="RO03A" name="RO03A" netid="Y8" insttype="" lat="44.7765" lon="23.8757">
    <comp name="00.HHN">
      <acc value="0.0499900123" flag="0"/>
      <vel value="0.0320045312" flag="0"/>
      <psa03 value="0.0897097761" flag="0"/>
      <psa10 value="0.0470684756" flag="0"/>
      <psa30 value="0.0049390128" flag="0"/>
    </comp>
    <comp name="00.HHE">
      <acc value="0.0636031375" flag="0"/>
      <vel value="0.0387790815" flag="0"/>
      <psa03 value="0.0910294035" flag="0"/>
      <psa10 value="0.0709342114" flag="0"/>
      <psa30 value="0.0050698610" flag="0"/>
    </comp>
    <comp name="00.HHZ">
      <acc value="0.0253083870" flag="0"/>
      <vel value="0.0164504807" flag="0"/>
      <psa03 value="0.0365247591" flag="0"/>
      <psa10 value="0.0359033137" flag="0"/>
      <psa30 value="0.0015200115" flag="0"/>
    </comp>
  </station>
  <station code="RO05A" name="RO05A" netid="Y8" insttype="" lat="44.9801" lon="24.3136">
    <comp name="00.HHE">
      <acc value="0.0143769470" flag="0"/>
      <vel value="0.0143392213" flag="0"/>
      <psa03 value="0.0376690346" flag="0"/>
      <psa10 value="0.0184823928" flag="0"/>
      <psa30 value="0.0028480348" flag="0"/>
    </comp>
    <comp name="00.HHN">
      <acc value="0.0151378158" flag="0"/>
      <vel value="0.0093970684" flag="0"/>
      <psa03 value="0.0350584923" flag="0"/>
      <psa10 value="0.0220661847" flag="0"/>
      <psa30 value="0.0022526381" flag="0"/>
    </comp>
    <comp name="00.HHZ">
      <acc value="0.0100073097" flag="0"/>
      <vel value="0.0055840709" flag="0"/>
      <psa03 value="0.0220508152" flag="0"/>
      <psa10 value="0.0096802039" flag="0"/>
      <psa30 value="0.0010723427" flag="0"/>
    </comp>
  </station>
</stationlist>
