<?xml version="1.0" encoding="UTF-8" standalone="yes"?>
<!DOCTYPE earthquake SYSTEM "stationlist.dtd">
<stationlist created="" xmlns="ch.ethz.sed.shakemap.usgs.xml">
  <station code="ARR" name="ARR" netid="RO" insttype="w/attenuator" lat="45.3657" lon="24.6332">
    <comp name="--.HHZ">
      <acc value="0.0034664923" flag="0"/>
      <vel value="0.0013868820" flag="0"/>
      <psa03 value="0.0054222259" flag="0"/>
      <psa10 value="0.0023026454" flag="0"/>
      <psa30 value="0.0001188254" flag="0"/>
    </comp>
    <comp name="--.HHE">
      <acc value="0.0039568973" flag="0"/>
      <vel value="0.0017268644" flag="0"/>
      <psa03 value="0.0090485275" flag="0"/>
      <psa10 value="0.0020083563" flag="0"/>
      <psa30 value="0.0001622079" flag="0"/>
    </comp>
    <comp name="--.HHN">
      <acc value="0.0043541941" flag="0"/>
      <vel value="0.0030152102" flag="0"/>
      <psa03 value="0.0111482581" flag="0"/>
      <psa10 value="0.0044340330" flag="0"/>
      <psa30 value="0.0001990418" flag="0"/>
    </comp>
  </station>
  <station code="BAIL" name="BAIL" netid="RO" insttype="Seismometer/Basalt" lat="44.0201" lon="23.345">
    <comp name="--.HHN">
      <acc value="0.0751715778" flag="0"/>
      <vel value="0.0365113885" flag="0"/>
      <psa03 value="0.2331306565" flag="0"/>
      <psa10 value="0.0171412891" flag="0"/>
      <psa30 value="0.0015027112" flag="0"/>
    </comp>
    <comp name="--.HHE">
      <acc value="0.0609772695" flag="0"/>
      <vel value="0.0333956978" flag="0"/>
      <psa03 value="0.1306995026" flag="0"/>
      <psa10 value="0.0208993598" flag="0"/>
      <psa30 value="0.0015611421" flag="0"/>
    </comp>
    <comp name="--.HHZ">
      <acc value="0.0403422004" flag="0"/>
      <vel value="0.0109841594" flag="0"/>
      <psa03 value="0.0611720128" flag="0"/>
      <psa10 value="0.0056862160" flag="0"/>
      <psa30 value="0.0006873547" flag="0"/>
    </comp>
  </station>
  <station code="CRAR" name="CRAR" netid="RO" insttype="MBB2/Quanterra" lat="44.325" lon="23.7999">
    <comp name="--.HHE">
      <acc value="0.0327020583" flag="0"/>
      <vel value="0.0175367361" flag="0"/>
      <psa03 value="0.0687550184" flag="0"/>
      <psa10 value="0.0098571705" flag="0"/>
      <psa30 value="0.0013134904" flag="0"/>
    </comp>
    <comp name="--.HHN">
      <acc value="0.0339921400" flag="0"/>
      <vel value="0.0174814037" flag="0"/>
      <psa03 value="0.0776216912" flag="0"/>
      <psa10 value="0.0164743661" flag="0"/>
      <psa30 value="0.0014794091" flag="0"/>
    </comp>
    <comp name="--.HHZ">
      <acc value="0.0709886606" flag="0"/>
      <vel value="0.0113156493" flag="0"/>
      <psa03 value="0.0435017215" flag="0"/>
      <psa10 value="0.0059516407" flag="0"/>
      <psa30 value="0.0005235439" flag="0"/>
    </comp>
  </station>
  <station code="DEV" name="DEV" netid="RO" insttype="CMG40T.1to100/Quanterra" lat="45.887" lon="22.898">
    <comp name="--.HHE">
      <acc value="0.0682787848" flag="0"/>
      <vel value="0.0118256376" flag="0"/>
      <psa03 value="0.0343698068" flag="0"/>
      <psa10 value="0.0071770852" flag="0"/>
      <psa30 value="0.0003339182" flag="0"/>
    </comp>
    <comp name="--.HHN">
      <acc value="0.0501791565" flag="0"/>
      <vel value="0.0111037582" flag="0"/>
      <psa03 value="0.0558614414" flag="0"/>
      <psa10 value="0.0065438978" flag="0"/>
      <psa30 value="0.0004504680" flag="0"/>
    </comp>
    <comp name="--.HHZ">
      <acc value="0.0396182990" flag="0"/>
      <vel value="0.0087769202" flag="0"/>
      <psa03 value="0.0266782049" flag="0"/>
      <psa10 value="0.0041348323" flag="0"/>
      <psa30 value="0.0002891175" flag="0"/>
    </comp>
  </station>
  <station code="GZR" name="GZR" netid="RO" insttype="330" lat="45.3933" lon="22.7767">
    <comp name="--.HHE">
      <acc value="0.3377041412" flag="0"/>
      <vel value="0.0549164999" flag="0"/>
      <psa03 value="0.1838523566" flag="0"/>
      <psa10 value="0.0095312684" flag="0"/>
      <psa30 value="0.0012703338" flag="0"/>
    </comp>
    <comp name="--.HHN">
      <acc value="0.3119969233" flag="0"/>
      <vel value="0.0625537293" flag="0"/>
      <psa03 value="0.1647650129" flag="0"/>
      <psa10 value="0.0191500973" flag="0"/>
      <psa30 value="0.0012970262" flag="0"/>
    </comp>
    <comp name="--.HHZ">
      <acc value="0.5452896341" flag="0"/>
      <vel value="0.0756991763" flag="0"/>
      <psa03 value="0.1315878793" flag="0"/>
      <psa10 value="0.0167829723" flag="0"/>
      <psa30 value="0.0007785772" flag="0"/>
    </comp>
  </station>
  <station code="HERR" name="HERR" netid="RO" insttype="CMG40T.1to100/Quanterra" lat="44.881" lon="22.416">
    <comp name="--.HHE">
      <acc value="0.3914371872" flag="0"/>
      <vel value="0.0443527924" flag="0"/>
      <psa03 value="0.1286517907" flag="0"/>
      <psa10 value="0.0086795590" flag="0"/>
      <psa30 value="0.0006035846" flag="0"/>
    </comp>
    <comp name="--.HHZ">
      <acc value="0.1426253791" flag="0"/>
      <vel value="0.0167191039" flag="0"/>
      <psa03 value="0.0365413836" flag="0"/>
      <psa10 value="0.0066768987" flag="0"/>
      <psa30 value="0.0004105660" flag="0"/>
    </comp>
    <comp name="--.HHN">
      <acc value="0.3460500077" flag="0"/>
      <vel value="0.0717258400" flag="0"/>
      <psa03 value="0.1258954072" flag="0"/>
      <psa10 value="0.0168670445" flag="0"/>
      <psa30 value="0.0008827078" flag="0"/>
    </comp>
  </station>
  <station code="LOT" name="LOT" netid="RO" insttype="330" lat="45.446" lon="23.7698">
    <comp name="--.HHN">
      <acc value="0.0923317107" flag="0"/>
      <vel value="0.0221050469" flag="0"/>
      <psa03 value="0.0636770538" flag="0"/>
      <psa10 value="0.0131177411" flag="0"/>
      <psa30 value="0.0006573600" flag="0"/>
    </comp>
    <comp name="--.HHE">
      <acc value="0.1259557061" flag="0"/>
      <vel value="0.0199019880" flag="0"/>
      <psa03 value="0.0621307863" flag="0"/>
      <psa10 value="0.0073003422" flag="0"/>
      <psa30 value="0.0007962862" flag="0"/>
    </comp>
    <comp name="--.HHZ">
      <acc value="0.0794594853" flag="0"/>
      <vel value="0.0124841655" flag="0"/>
      <psa03 value="0.0316186047" flag="0"/>
      <psa10 value="0.0059821504" flag="0"/>
      <psa30 value="0.0003319160" flag="0"/>
    </comp>
  </station>
  <station code="MDVR" name="MDVR" netid="RO" insttype="CMG40T.1to100/Quanterra" lat="44.7815" lon="21.7128">
    <comp name="--.HHN">
      <acc value="0.0536612657" flag="0"/>
      <vel value="0.0097798721" flag="0"/>
      <psa03 value="0.0388505717" flag="0"/>
      <psa10 value="0.0060498241" flag="0"/>
      <psa30 value="0.0003100898" flag="0"/>
    </comp>
    <comp name="--.HHZ">
      <acc value="0.0366308256" flag="0"/>
      <vel value="0.0068700494" flag="0"/>
      <psa03 value="0.0264129929" flag="0"/>
      <psa10 value="0.0043892272" flag="0"/>
      <psa30 value="0.0001845162" flag="0"/>
    </comp>
    <comp name="--.HHE">
      <acc value="0.0481507744" flag="0"/>
      <vel value="0.0096221678" flag="0"/>
      <psa03 value="0.0591929890" flag="0"/>
      <psa10 value="0.0034188332" flag="0"/>
      <psa30 value="0.0003800514" flag="0"/>
    </comp>
  </station>
  <station code="MHISU" name="MHISU" netid="RO" insttype="200" lat="44.6227" lon="22.6535">
    <comp name="--.HNZ">
      <acc value="0.1280020875" flag="0"/>
      <vel value="0.0442434194" flag="0"/>
      <psa03 value="0.3367664020" flag="0"/>
      <psa10 value="0.0223000451" flag="0"/>
      <psa30 value="0.0015323246" flag="0"/>
    </comp>
    <comp name="--.HNE">
      <acc value="0.2589526739" flag="0"/>
      <vel value="0.1075767346" flag="0"/>
      <psa03 value="0.5905262783" flag="0"/>
      <psa10 value="0.0552605270" flag="0"/>
      <psa30 value="0.0056461924" flag="0"/>
    </comp>
    <comp name="--.HNN">
      <acc value="0.2694730329" flag="0"/>
      <vel value="0.0901440803" flag="0"/>
      <psa03 value="0.7725251663" flag="0"/>
      <psa10 value="0.0596354936" flag="0"/>
      <psa30 value="0.0036677800" flag="0"/>
    </comp>
  </station>
  <station code="OTISU" name="OTISU" netid="RO" insttype="200" lat="44.4278" lon="24.3755">
    <comp name="--.HNN">
      <acc value="0.0373135291" flag="0"/>
      <vel value="0.0207387393" flag="0"/>
      <psa03 value="0.1000475673" flag="0"/>
      <psa10 value="0.0130498528" flag="0"/>
      <psa30 value="0.0019723616" flag="0"/>
    </comp>
    <comp name="--.HNZ">
      <acc value="0.0361531360" flag="0"/>
      <vel value="0.0098515251" flag="0"/>
      <psa03 value="0.0319738520" flag="0"/>
      <psa10 value="0.0071883174" flag="0"/>
      <psa30 value="0.0003767853" flag="0"/>
    </comp>
    <comp name="--.HNE">
      <acc value="0.0483397427" flag="0"/>
      <vel value="0.0209487192" flag="0"/>
      <psa03 value="0.0755208061" flag="0"/>
      <psa10 value="0.0152418961" flag="0"/>
      <psa30 value="0.0009331986" flag="0"/>
    </comp>
  </station>
  <station code="RMGR" name="RMGR" netid="RO" insttype="MBB2/Quanterra" lat="44.6627" lon="22.6922">
    <comp name="--.HHE">
      <acc value="0.5654637895" flag="0"/>
      <vel value="0.2139216496" flag="0"/>
      <psa03 value="1.8268335430" flag="0"/>
      <psa10 value="0.1122130215" flag="0"/>
      <psa30 value="0.0066290655" flag="0"/>
    </comp>
    <comp name="--.HHN">
      <acc value="0.4660111703" flag="0"/>
      <vel value="0.1850190693" flag="0"/>
      <psa03 value="0.7926361731" flag="0"/>
      <psa10 value="0.0656127953" flag="0"/>
      <psa30 value="0.0047673542" flag="0"/>
    </comp>
    <comp name="--.HHZ">
      <acc value="0.1144388160" flag="0"/>
      <vel value="0.0414615136" flag="0"/>
      <psa03 value="0.2764103445" flag="0"/>
      <psa10 value="0.0367169418" flag="0"/>
      <psa30 value="0.0020845611" flag="0"/>
    </comp>
  </station>
  <station code="SURR" name="SURR" netid="RO" insttype="Linear" lat="45.754" lon="22.1246">
    <comp name="--.HHE">
      <acc value="0.1886041589" flag="0"/>
      <vel value="0.0209750794" flag="0"/>
      <psa03 value="0.0351899698" flag="0"/>
      <psa10 value="0.0035460874" flag="0"/>
      <psa30 value="0.0003864905" flag="0"/>
    </comp>
    <comp name="--.HHZ">
      <acc value="0.0484249585" flag="0"/>
      <vel value="0.0071519405" flag="0"/>
      <psa03 value="0.0226971523" flag="0"/>
      <psa10 value="0.0037472240" flag="0"/>
      <psa30 value="0.0002708026" flag="0"/>
    </comp>
    <comp name="--.HHN">
      <acc value="0.1167985504" flag="0"/>
      <vel value="0.0158338262" flag="0"/>
      <psa03 value="0.0492967986" flag="0"/>
      <psa10 value="0.0077960789" flag="0"/>
      <psa30 value="0.0004708462" flag="0"/>
    </comp>
  </station>
  <station code="TNR" name="TNR" netid="RO" insttype="CMG40T.1to100/Quanterra" lat="45.652" lon="24.273">
    <comp name="--.HHE">
      <acc value="0.0094290295" flag="0"/>
      <vel value="0.0032653632" flag="0"/>
      <psa03 value="0.0069892681" flag="0"/>
      <psa10 value="0.0050983845" flag="0"/>
      <psa30 value="0.0003674391" flag="0"/>
    </comp>
    <comp name="--.HHN">
      <acc value="0.0146950570" flag="0"/>
      <vel value="0.0084399334" flag="0"/>
      <psa03 value="0.0258470089" flag="0"/>
      <psa10 value="0.0167107380" flag="0"/>
      <psa30 value="0.0011582945" flag="0"/>
    </comp>
    <comp name="--.HHZ">
      <acc value="0.0147446957" flag="0"/>
      <vel value="0.0065494897" flag="0"/>
      <psa03 value="0.0113397622" flag="0"/>
      <psa10 value="0.0111385968" flag="0"/>
      <psa30 value="0.0004592642" flag="0"/>
    </comp>
  </station>
  <station code="RO03A" name="RO03A" netid="Y8" insttype="" lat="44.7765" lon="23.8757">
    <comp name="00.HHE">
      <acc value="0.0636031107" flag="0"/>
      <vel value="0.0387790818" flag="0"/>
      <psa03 value="0.0910294035" flag="0"/>
      <psa10 value="0.0709342115" flag="0"/>
      <psa30 value="0.0050698519" flag="0"/>
    </comp>
    <comp name="00.HHN">
      <acc value="0.0499900759" flag="0"/>
      <vel value="0.0320045315" flag="0"/>
      <psa03 value="0.0897097761" flag="0"/>
      <psa10 value="0.0470684757" flag="0"/>
      <psa30 value="0.0049390913" flag="0"/>
    </comp>
    <comp name="00.HHZ">
      <acc value="0.0253084137" flag="0"/>
      <vel value="0.0164504810" flag="0"/>
      <psa03 value="0.0365247591" flag="0"/>
      <psa10 value="0.0359033137" flag="0"/>
      <psa30 value="0.0015200163" flag="0"/>
    </comp>
  </station>
  <station code="RO05A" name="RO05A" netid="Y8" insttype="" lat="44.9801" lon="24.3136">
    <comp name="00.HHE">
      <acc value="0.0143769638" flag="0"/>
      <vel value="0.0143392208" flag="0"/>
      <psa03 value="0.0376690346" flag="0"/>
      <psa10 value="0.0184823940" flag="0"/>
      <psa30 value="0.0028480271" flag="0"/>
    </comp>
    <comp name="00.HHZ">
      <acc value="0.0100073188" flag="0"/>
      <vel value="0.0055840713" flag="0"/>
      <psa03 value="0.0220508152" flag="0"/>
      <psa10 value="0.0096802051" flag="0"/>
      <psa30 value="0.0010723404" flag="0"/>
    </comp>
    <comp name="00.HHN">
      <acc value="0.0151378043" flag="0"/>
      <vel value="0.0093970709" flag="0"/>
      <psa03 value="0.0350584923" flag="0"/>
      <psa10 value="0.0220661847" flag="0"/>
      <psa30 value="0.0022525967" flag="0"/>
    </comp>
  </station>
  <station code="RO15A" name="RO15A" netid="Y8" insttype="" lat="44.3138" lon="24.3983">
    <comp name="00.HHN">
      <acc value="0.0053207797" flag="0"/>
      <vel value="0.0016994836" flag="0"/>
      <psa03 value="0.0071934004" flag="0"/>
      <psa10 value="0.0013901951" flag="0"/>
      <psa30 value="0.0001366969" flag="0"/>
    </comp>
    <comp name="00.HHZ">
      <acc value="0.0038183768" flag="0"/>
      <vel value="0.0008321597" flag="0"/>
      <psa03 value="0.0025738966" flag="0"/>
      <psa10 value="0.0004280576" flag="0"/>
      <psa30 value="0.0000261064" flag="0"/>
    </comp>
    <comp name="00.HHE">
      <acc value="0.0059273858" flag="0"/>
      <vel value="0.0027182001" flag="0"/>
      <psa03 value="0.0081555648" flag="0"/>
      <psa10 value="0.0018399230" flag="0"/>
      <psa30 value="0.0001389540" flag="0"/>
    </comp>
  </station>
</stationlist>
