<?xml version="1.0" encoding="UTF-8" standalone="yes"?>
<!DOCTYPE earthquake SYSTEM "stationlist.dtd">
<stationlist created="" xmlns="ch.ethz.sed.shakemap.usgs.xml">
  <station code="KARP" name="KARP" netid="GE" insttype="STS-2/N" lat="35.5471" lon="27.1611">
    <comp name="--.HHE">
      <acc value="0.1480292665" flag="0"/>
      <vel value="0.0170080650" flag="0"/>
      <psa03 value="0.0353370664" flag="0"/>
      <psa10 value="0.0026963400" flag="0"/>
      <psa30 value="0.0002192605" flag="0"/>
    </comp>
    <comp name="--.HHZ">
      <acc value="0.1239287686" flag="0"/>
      <vel value="0.0219889220" flag="0"/>
      <psa03 value="0.0436006283" flag="0"/>
      <psa10 value="0.0035254897" flag="0"/>
      <psa30 value="0.0001806100" flag="0"/>
    </comp>
    <comp name="--.HHN">
      <acc value="0.1014464889" flag="0"/>
      <vel value="0.0095377757" flag="0"/>
      <psa03 value="0.0375757094" flag="0"/>
      <psa10 value="0.0043066436" flag="0"/>
      <psa30 value="0.0002682742" flag="0"/>
    </comp>
  </station>
  <station code="ARG" name="ARG" netid="HL" insttype="LE3D20_DR24" lat="36.2136" lon="28.1212">
    <comp name="--.HHE">
      <acc value="0.0381966312" flag="0"/>
      <vel value="0.0111704525" flag="0"/>
      <psa03 value="0.0855508294" flag="0"/>
      <psa10 value="0.0041920190" flag="0"/>
      <psa30 value="0.0006158838" flag="0"/>
    </comp>
    <comp name="--.HHN">
      <acc value="0.0361774385" flag="0"/>
      <vel value="0.0085790483" flag="0"/>
      <psa03 value="0.0533839040" flag="0"/>
      <psa10 value="0.0058200817" flag="0"/>
      <psa30 value="0.0003175402" flag="0"/>
    </comp>
    <comp name="--.HHZ">
      <acc value="0.0224404970" flag="0"/>
      <vel value="0.0045644858" flag="0"/>
      <psa03 value="0.0307679643" flag="0"/>
      <psa10 value="0.0042193517" flag="0"/>
      <psa30 value="0.0002032068" flag="0"/>
    </comp>
  </station>
  <station code="KARP" name="KARP" netid="HL" insttype="120" lat="35.5471" lon="27.1611">
    <comp name="--.HHE">
      <acc value="0.1378566682" flag="0"/>
      <vel value="0.0145915633" flag="0"/>
      <psa03 value="0.0340500605" flag="0"/>
      <psa10 value="0.0026465381" flag="0"/>
      <psa30 value="0.0002167062" flag="0"/>
    </comp>
    <comp name="--.HHN">
      <acc value="0.0854766800" flag="0"/>
      <vel value="0.0090168373" flag="0"/>
      <psa03 value="0.0365933834" flag="0"/>
      <psa10 value="0.0042228362" flag="0"/>
      <psa30 value="0.0002658871" flag="0"/>
    </comp>
    <comp name="--.HHZ">
      <acc value="0.1088980208" flag="0"/>
      <vel value="0.0199192975" flag="0"/>
      <psa03 value="0.0425455885" flag="0"/>
      <psa10 value="0.0034839582" flag="0"/>
      <psa30 value="0.0001768290" flag="0"/>
    </comp>
  </station>
</stationlist>
