<stationlist created="1778069456">
	<station code="KARP" name="KARP" netid="GE" source="GEOFON" insttype="" lat="35.5471" lon="27.16106">
		<comp name="--.HNE" depth="0.0">
			<acc value="0.115135544358462" flag="0"/>
			<vel value="0.0136143901675187" flag="0"/>
			<psa03 value="0.0324828420048653" flag="0"/>
			<psa10 value="0.00266976746891228" flag="0"/>
			<psa30 value="0.000215210013833887" flag="0"/>
		</comp>
		<comp name="--.HNN" depth="0.0">
			<acc value="0.0678324635077808" flag="0"/>
			<vel value="0.00818893040172656" flag="0"/>
			<psa03 value="0.0318564511122095" flag="0"/>
			<psa10 value="0.00356371675714535" flag="0"/>
			<psa30 value="0.000223263611025176" flag="0"/>
		</comp>
		<comp name="--.HNZ" depth="0.0">
			<acc value="0.0925066576427815" flag="0"/>
			<vel value="0.0177467054652611" flag="0"/>
			<psa03 value="0.0363306717740367" flag="0"/>
			<psa10 value="0.00291137538465094" flag="0"/>
			<psa30 value="0.000164203898289057" flag="0"/>
		</comp>
	</station>
	<station code="RDI1" name="RDI1" netid="HI" source="ITSAK Strong Motion Network" insttype="" lat="36.4514" lon="28.224">
		<comp name="--.HNE" depth="0.0">
			<acc value="0.0157145453851362" flag="0"/>
			<vel value="0.00596488212163977" flag="0"/>
			<psa03 value="0.039686337270407" flag="0"/>
			<psa10 value="0.00279459822537725" flag="0"/>
			<psa30 value="0.000681871228862461" flag="0"/>
		</comp>
		<comp name="--.HNN" depth="0.0">
			<acc value="0.0133894654310197" flag="0"/>
			<vel value="0.00565640041387208" flag="0"/>
			<psa03 value="0.0315879978724999" flag="0"/>
			<psa10 value="0.0026899014618905" flag="0"/>
			<psa30 value="0.000415207677417562" flag="0"/>
		</comp>
		<comp name="--.HNZ" depth="0.0">
			<acc value="0.0127699802560065" flag="0"/>
			<vel value="0.00466138107423039" flag="0"/>
			<psa03 value="0.0316327400791181" flag="0"/>
			<psa10 value="0.00157850504949263" flag="0"/>
			<psa30 value="0.000240265649540119" flag="0"/>
		</comp>
	</station>
	<station code="KARP" name="KARP" netid="HL" source="National Observatory of Athens Seismic Network" insttype="" lat="35.5471" lon="27.16106">
		<comp name="--.HNE" depth="0.0">
			<acc value="0.112797915355878" flag="0"/>
			<vel value="0.0133380088532137" flag="0"/>
			<psa03 value="0.0318117089055912" flag="0"/>
			<psa10 value="0.0026174190871689" flag="0"/>
			<psa30 value="0.00021073579317206" flag="0"/>
		</comp>
		<comp name="--.HNN" depth="0.0">
			<acc value="0.0664552829947348" flag="0"/>
			<vel value="0.0080226797604146" flag="0"/>
			<psa03 value="0.0312300602195537" flag="0"/>
			<psa10 value="0.00349123438242374" flag="0"/>
			<psa30 value="0.000218789390363349" flag="0"/>
		</comp>
		<comp name="--.HNZ" depth="0.0">
			<acc value="0.0906285478222643" flag="0"/>
			<vel value="0.017386328990849" flag="0"/>
			<psa03 value="0.035570054261526" flag="0"/>
			<psa10 value="0.00285097340571628" flag="0"/>
			<psa30 value="0.000161071943825778" flag="0"/>
		</comp>
	</station>
	<station code="CAME" name="CAME" netid="KO" source="Bogazici University Kandilli Observatory And Earthquake Research Institute (KOERI)" insttype="" lat="36.9435" lon="29.3023">
		<comp name="--.HNE" depth="0.0">
			<acc value="0.00919848511406863" flag="0"/>
			<vel value="0.00319897951924876" flag="0"/>
			<psa03 value="0.021742109578878" flag="0"/>
			<psa10 value="0.00166205350132314" flag="0"/>
			<psa30 value="0.000146917623196641" flag="0"/>
		</comp>
		<comp name="--.HNN" depth="0.0">
			<acc value="0.00807966116307532" flag="0"/>
			<vel value="0.00266170256182715" flag="0"/>
			<psa03 value="0.0179321176022635" flag="0"/>
			<psa10 value="0.000851883640143078" flag="0"/>
			<psa30 value="0.000101304614579456" flag="0"/>
		</comp>
		<comp name="--.HNZ" depth="0.0">
			<acc value="0.00441985631440458" flag="0"/>
			<vel value="0.00130292996750669" flag="0"/>
			<psa03 value="0.00630021423325928" flag="0"/>
			<psa10 value="0.000516674949835516" flag="0"/>
			<psa30 value="0.00026875840288335" flag="0"/>
		</comp>
	</station>
	<station code="DIDI" name="DIDI" netid="KO" source="Bogazici University Kandilli Observatory And Earthquake Research Institute (KOERI)" insttype="" lat="37.3767" lon="27.2398">
		<comp name="--.HNE" depth="0.0">
			<acc value="0.028944100332673" flag="0"/>
			<vel value="0.00306399876797746" flag="0"/>
			<psa03 value="0.0109763260860797" flag="0"/>
			<psa10 value="0.00397043255292084" flag="0"/>
			<psa30 value="0.000464098087969347" flag="0"/>
		</comp>
		<comp name="--.HNN" depth="0.0">
			<acc value="0.0195381881591421" flag="0"/>
			<vel value="0.00365748458812375" flag="0"/>
			<psa03 value="0.014823820547043" flag="0"/>
			<psa10 value="0.00389923221124909" flag="0"/>
			<psa30 value="0.000842245117523162" flag="0"/>
		</comp>
		<comp name="--.HNZ" depth="0.0">
			<acc value="0.0506619746512839" flag="0"/>
			<vel value="0.00592532173081708" flag="0"/>
			<psa03 value="0.0133269127904875" flag="0"/>
			<psa10 value="0.00283780314678217" flag="0"/>
			<psa30 value="0.000318989751297076" flag="0"/>
		</comp>
	</station>
	<station code="NAZL" name="NAZL" netid="KO" source="Bogazici University Kandilli Observatory And Earthquake Research Institute (KOERI)" insttype="" lat="37.9641" lon="28.2922">
		<comp name="--.HNE" depth="0.0">
			<acc value="0.00374718431420158" flag="0"/>
			<vel value="0.00340426169459998" flag="0"/>
			<psa03 value="0.00559277582728397" flag="0"/>
			<psa10 value="0.00726837146513825" flag="0"/>
			<psa30 value="0.00047918903288169" flag="0"/>
		</comp>
		<comp name="--.HNN" depth="0.0">
			<acc value="0.00327612244960831" flag="0"/>
			<vel value="0.00307811188716337" flag="0"/>
			<psa03 value="0.00599545568684842" flag="0"/>
			<psa10 value="0.0040670665816009" flag="0"/>
			<psa30 value="0.000696188734980308" flag="0"/>
		</comp>
		<comp name="--.HNZ" depth="0.0">
			<acc value="0.00391475925779866" flag="0"/>
			<vel value="0.00270479527654577" flag="0"/>
			<psa03 value="0.00474267390153681" flag="0"/>
			<psa10 value="0.00273016944784694" flag="0"/>
			<psa30 value="0.000298877940210055" flag="0"/>
		</comp>
	</station>
	<station code="ODEM" name="ODEM" netid="KO" source="Bogazici University Kandilli Observatory And Earthquake Research Institute (KOERI)" insttype="" lat="38.2762" lon="28.0747">
		<comp name="--.HNE" depth="0.0">
			<acc value="0.00043417960558825" flag="0"/>
			<vel value="0.000542009845673331" flag="0"/>
			<psa03 value="0.000443188660831571" flag="0"/>
			<psa10 value="0.00085242133201198" flag="0"/>
			<psa30 value="0.000130263759543102" flag="0"/>
		</comp>
		<comp name="--.HNN" depth="0.0">
			<acc value="0.00052662605488136" flag="0"/>
			<vel value="0.000559126917671376" flag="0"/>
			<psa03 value="0.000588357213080927" flag="0"/>
			<psa10 value="0.000420446182575459" flag="0"/>
			<psa30 value="0.000106410304368574" flag="0"/>
		</comp>
		<comp name="--.HNZ" depth="0.0">
			<acc value="0.000493070630827212" flag="0"/>
			<vel value="0.000398145019629809" flag="0"/>
			<psa03 value="0.000560288459133883" flag="0"/>
			<psa10 value="0.000348577593508045" flag="0"/>
			<psa30 value="0.000178712125259399" flag="0"/>
		</comp>
	</station>
</stationlist>
