<?xml version="1.0" encoding="UTF-8" standalone="yes"?>
<!DOCTYPE earthquake SYSTEM "stationlist.dtd">
<stationlist created="" xmlns="ch.ethz.sed.shakemap.usgs.xml">
  <station code="APE" name="APE" netid="GE" insttype="STS-2/N" commtype="DIG" lat="37.0727" lon="25.523">
    <comp name="--.HHE">
      <acc value="0.0955595719" flag="0"/>
      <vel value="0.0263210069" flag="0"/>
      <psa03 value="0.1353971122" flag="0"/>
      <psa10 value="0.0131112036" flag="0"/>
      <psa30 value="0.0060954479" flag="0"/>
    </comp>
    <comp name="--.HHN">
      <acc value="0.1142604670" flag="0"/>
      <vel value="0.0374582867" flag="0"/>
      <psa03 value="0.0945092059" flag="0"/>
      <psa10 value="0.0200303101" flag="0"/>
      <psa30 value="0.0087776341" flag="0"/>
    </comp>
    <comp name="--.HHZ">
      <acc value="0.0396297515" flag="0"/>
      <vel value="0.0162451372" flag="0"/>
      <psa03 value="0.0655500341" flag="0"/>
      <psa10 value="0.0080738884" flag="0"/>
      <psa30 value="0.0105775447" flag="0"/>
    </comp>
  </station>
  <station code="THERA" name="THERA" netid="GE" insttype="STS-2/N" commtype="DIG" lat="36.367" lon="25.4753">
    <comp name="--.HHE">
      <acc value="0.1904497979" flag="0"/>
      <vel value="0.0816713771" flag="0"/>
      <psa03 value="0.2209043209" flag="0"/>
      <psa10 value="0.0665194121" flag="0"/>
      <psa30 value="0.0163002667" flag="0"/>
    </comp>
    <comp name="--.HHN">
      <acc value="0.1262851317" flag="0"/>
      <vel value="0.0525737540" flag="0"/>
      <psa03 value="0.2277905858" flag="0"/>
      <psa10 value="0.0474019875" flag="0"/>
      <psa30 value="0.0089582903" flag="0"/>
    </comp>
    <comp name="--.HHZ">
      <acc value="0.1322707351" flag="0"/>
      <vel value="0.0466081752" flag="0"/>
      <psa03 value="0.1728326415" flag="0"/>
      <psa10 value="0.0510400386" flag="0"/>
      <psa30 value="0.0126660335" flag="0"/>
    </comp>
  </station>
  <station code="IOSI" name="IOSI" netid="HA" insttype="60s," commtype="DIG" lat="36.7225" lon="25.2887">
    <comp name="--.HHE">
      <acc value="0.1308952792" flag="0"/>
      <vel value="0.0510597812" flag="0"/>
      <psa03 value="0.1152393129" flag="0"/>
      <psa10 value="0.0492213466" flag="0"/>
      <psa30 value="0.0110408642" flag="0"/>
    </comp>
    <comp name="--.HHZ">
      <acc value="0.1629217180" flag="0"/>
      <vel value="0.0541105106" flag="0"/>
      <psa03 value="0.1529384957" flag="0"/>
      <psa10 value="0.0703429061" flag="0"/>
      <psa30 value="0.0087765036" flag="0"/>
    </comp>
    <comp name="--.HHN">
      <acc value="0.1426808192" flag="0"/>
      <vel value="0.0348207886" flag="0"/>
      <psa03 value="0.0993848282" flag="0"/>
      <psa10 value="0.0221061024" flag="0"/>
      <psa30 value="0.0099664773" flag="0"/>
    </comp>
  </station>
  <station code="SERI" name="SERI" netid="HA" insttype="30" commtype="DIG" lat="37.1609" lon="24.4853">
    <comp name="--.HHN">
      <acc value="0.0322563040" flag="0"/>
      <vel value="0.0175479593" flag="0"/>
      <psa03 value="0.0746166524" flag="0"/>
      <psa10 value="0.0211805523" flag="0"/>
      <psa30 value="0.0015767556" flag="0"/>
    </comp>
    <comp name="--.HHZ">
      <acc value="0.0188458789" flag="0"/>
      <vel value="0.0196052769" flag="0"/>
      <psa03 value="0.0441868734" flag="0"/>
      <psa10 value="0.0224501933" flag="0"/>
      <psa30 value="0.0055778905" flag="0"/>
    </comp>
    <comp name="--.HHE">
      <acc value="0.0286526628" flag="0"/>
      <vel value="0.0161136667" flag="0"/>
      <psa03 value="0.0848967533" flag="0"/>
      <psa10 value="0.0119424144" flag="0"/>
      <psa30 value="0.0018444921" flag="0"/>
    </comp>
  </station>
  <station code="SNT1" name="SNT1" netid="HA" insttype="30" commtype="DIG" lat="36.4159" lon="25.4282">
    <comp name="--.HHE">
      <acc value="0.1007159171" flag="0"/>
      <vel value="0.0575266986" flag="0"/>
      <psa03 value="0.1835846078" flag="0"/>
      <psa10 value="0.1152317392" flag="0"/>
      <psa30 value="0.0179406958" flag="0"/>
    </comp>
    <comp name="--.HHZ">
      <acc value="0.0900140291" flag="0"/>
      <vel value="0.0408775218" flag="0"/>
      <psa03 value="0.2284704605" flag="0"/>
      <psa10 value="0.0518278166" flag="0"/>
      <psa30 value="0.0077845719" flag="0"/>
    </comp>
    <comp name="--.HHN">
      <acc value="0.1502039582" flag="0"/>
      <vel value="0.0807088873" flag="0"/>
      <psa03 value="0.2453141955" flag="0"/>
      <psa10 value="0.1244895271" flag="0"/>
      <psa30 value="0.0185870641" flag="0"/>
    </comp>
  </station>
  <station code="SNT5" name="SNT5" netid="HA" insttype="1s-100Hz," commtype="DIG" lat="36.4037" lon="25.3953">
    <comp name="--.HHN">
      <acc value="0.2445360945" flag="0"/>
      <vel value="0.0751621736" flag="0"/>
      <psa03 value="0.3637104687" flag="0"/>
      <psa10 value="0.0578742488" flag="0"/>
      <psa30 value="0.0151291252" flag="0"/>
    </comp>
    <comp name="--.HHE">
      <acc value="0.4036080761" flag="0"/>
      <vel value="0.1156301240" flag="0"/>
      <psa03 value="0.5780485531" flag="0"/>
      <psa10 value="0.1061133187" flag="0"/>
      <psa30 value="0.0218072086" flag="0"/>
    </comp>
    <comp name="--.HHZ">
      <acc value="0.1324695560" flag="0"/>
      <vel value="0.0356514510" flag="0"/>
      <psa03 value="0.1546632568" flag="0"/>
      <psa10 value="0.0423174397" flag="0"/>
      <psa30 value="0.0029645140" flag="0"/>
    </comp>
  </station>
  <station code="KNSS" name="KNSS" netid="HC" insttype="60" commtype="DIG" lat="35.3042" lon="25.1802">
    <comp name="--.HHN">
      <acc value="0.0201644794" flag="0"/>
      <vel value="0.0110148023" flag="0"/>
      <psa03 value="0.0606571180" flag="0"/>
      <psa10 value="0.0077358356" flag="0"/>
      <psa30 value="0.0017421475" flag="0"/>
    </comp>
    <comp name="--.HHE">
      <acc value="0.0000000000" flag="0"/>
      <vel value="-100.0000000000" flag="0"/>
      <psa03 value="0.0000000000" flag="0"/>
      <psa10 value="0.0000000000" flag="0"/>
      <psa30 value="0.0000000000" flag="0"/>
    </comp>
    <comp name="--.HHZ">
      <acc value="0.0196428018" flag="0"/>
      <vel value="0.0095898202" flag="0"/>
      <psa03 value="0.0447259338" flag="0"/>
      <psa10 value="0.0098230219" flag="0"/>
      <psa30 value="0.0010020922" flag="0"/>
    </comp>
  </station>
  <station code="NAX1" name="NAX1" netid="HI" insttype="CMG-5TD,ACCELEROMETER,GURALP" commtype="DIG" lat="37.1014" lon="25.3741">
    <comp name="--.HNE">
      <acc value="0.1382922437" flag="0"/>
      <vel value="0.0387873433" flag="0"/>
      <psa03 value="0.2161003086" flag="0"/>
      <psa10 value="0.0208637518" flag="0"/>
      <psa30 value="0.0031306364" flag="0"/>
    </comp>
    <comp name="--.HNN">
      <acc value="0.1044700558" flag="0"/>
      <vel value="0.0281758561" flag="0"/>
      <psa03 value="0.1261023063" flag="0"/>
      <psa10 value="0.0138730803" flag="0"/>
      <psa30 value="0.0065299314" flag="0"/>
    </comp>
    <comp name="--.HNZ">
      <acc value="0.0617938532" flag="0"/>
      <vel value="0.0194706095" flag="0"/>
      <psa03 value="0.0620896221" flag="0"/>
      <psa10 value="0.0170550426" flag="0"/>
      <psa30 value="0.0075813777" flag="0"/>
    </comp>
  </station>
  <station code="SFR2" name="SFR2" netid="HI" insttype="unknown" commtype="DIG" lat="36.3998" lon="25.4382">
    <comp name="--.HNN">
      <acc value="0.6936853869" flag="0"/>
      <vel value="0.3545883655" flag="0"/>
      <psa03 value="1.8234077451" flag="0"/>
      <psa10 value="0.4861836153" flag="0"/>
      <psa30 value="0.0316800755" flag="0"/>
    </comp>
    <comp name="--.HNZ">
      <acc value="0.5611297336" flag="0"/>
      <vel value="0.2466547002" flag="0"/>
      <psa03 value="0.9253295562" flag="0"/>
      <psa10 value="0.1754337216" flag="0"/>
      <psa30 value="0.0214629155" flag="0"/>
    </comp>
  </station>
  <station code="AMGA" name="AMGA" netid="HL" insttype="LE3D20_SMART24" commtype="DIG" lat="36.8316" lon="25.8938">
    <comp name="--.HHN">
      <acc value="0.6382701223" flag="0"/>
      <vel value="0.1181126476" flag="0"/>
      <psa03 value="0.5311627236" flag="0"/>
      <psa10 value="0.0762410645" flag="0"/>
      <psa30 value="0.0211155685" flag="0"/>
    </comp>
    <comp name="--.HHZ">
      <acc value="0.3885068479" flag="0"/>
      <vel value="0.0992957742" flag="0"/>
      <psa03 value="0.4108053657" flag="0"/>
      <psa10 value="0.0505023014" flag="0"/>
      <psa30 value="0.0260857340" flag="0"/>
    </comp>
    <comp name="--.HHE">
      <acc value="0.3596903466" flag="0"/>
      <vel value="0.0903770693" flag="0"/>
      <psa03 value="0.7724422202" flag="0"/>
      <psa10 value="0.0483727636" flag="0"/>
      <psa30 value="0.0232163558" flag="0"/>
    </comp>
  </station>
  <station code="APE" name="APE" netid="HL" insttype="120" commtype="DIG" lat="37.0727" lon="25.523">
    <comp name="--.HHN">
      <acc value="0.1086104637" flag="0"/>
      <vel value="0.0360516981" flag="0"/>
      <psa03 value="0.0921849471" flag="0"/>
      <psa10 value="0.0198926983" flag="0"/>
      <psa30 value="0.0087673288" flag="0"/>
    </comp>
    <comp name="--.HHE">
      <acc value="0.0887860934" flag="0"/>
      <vel value="0.0252339570" flag="0"/>
      <psa03 value="0.1318602129" flag="0"/>
      <psa10 value="0.0130462969" flag="0"/>
      <psa30 value="0.0060871589" flag="0"/>
    </comp>
    <comp name="--.HHZ">
      <acc value="0.0351458283" flag="0"/>
      <vel value="0.0160855422" flag="0"/>
      <psa03 value="0.0638096324" flag="0"/>
      <psa10 value="0.0080220150" flag="0"/>
      <psa30 value="0.0105632783" flag="0"/>
    </comp>
  </station>
  <station code="ASTA" name="ASTA" netid="HL" insttype="LE3D20_SMART24" commtype="DIG" lat="36.5475" lon="26.3471">
    <comp name="--.HHN">
      <acc value="0.1049137793" flag="0"/>
      <vel value="0.0354836627" flag="0"/>
      <psa03 value="0.1718665266" flag="0"/>
      <psa10 value="0.0208843790" flag="0"/>
      <psa30 value="0.0021429754" flag="0"/>
    </comp>
    <comp name="--.HHZ">
      <acc value="0.0775089870" flag="0"/>
      <vel value="0.0432067369" flag="0"/>
      <psa03 value="0.2165568336" flag="0"/>
      <psa10 value="0.0205312328" flag="0"/>
      <psa30 value="0.0034332110" flag="0"/>
    </comp>
    <comp name="--.HHE">
      <acc value="0.0880446423" flag="0"/>
      <vel value="0.0349475175" flag="0"/>
      <psa03 value="0.2026025064" flag="0"/>
      <psa10 value="0.0145077318" flag="0"/>
      <psa30 value="0.0047092242" flag="0"/>
    </comp>
  </station>
  <station code="MHLO" name="MHLO" netid="HL" insttype="20" commtype="DIG" lat="36.6898" lon="24.4017">
    <comp name="--.HHZ">
      <acc value="0.0496881303" flag="0"/>
      <vel value="0.0501011874" flag="0"/>
      <psa03 value="0.1241532280" flag="0"/>
      <psa10 value="0.0830823123" flag="0"/>
      <psa30 value="0.0054130799" flag="0"/>
    </comp>
    <comp name="--.HHE">
      <acc value="0.1083558982" flag="0"/>
      <vel value="0.1061659149" flag="0"/>
      <psa03 value="0.1945355808" flag="0"/>
      <psa10 value="0.1794235546" flag="0"/>
      <psa30 value="0.0120308856" flag="0"/>
    </comp>
    <comp name="--.HHN">
      <acc value="0.0855819135" flag="0"/>
      <vel value="0.0647283841" flag="0"/>
      <psa03 value="0.2321149769" flag="0"/>
      <psa10 value="0.1359595517" flag="0"/>
      <psa30 value="0.0072904248" flag="0"/>
    </comp>
  </station>
  <station code="MILA" name="MILA" netid="HL" insttype="CMG-5" commtype="DIG" lat="36.7429" lon="24.4282">
    <comp name="00.HNE">
      <acc value="0.0870964705" flag="0"/>
      <vel value="0.0725137636" flag="0"/>
      <psa03 value="0.3438565332" flag="0"/>
      <psa10 value="0.0891984630" flag="0"/>
      <psa30 value="0.0088239719" flag="0"/>
    </comp>
    <comp name="00.HNN">
      <acc value="0.1279368660" flag="0"/>
      <vel value="0.0657188397" flag="0"/>
      <psa03 value="0.4107091658" flag="0"/>
      <psa10 value="0.1122156528" flag="0"/>
      <psa30 value="0.0070371211" flag="0"/>
    </comp>
    <comp name="00.HNZ">
      <acc value="0.0954117248" flag="0"/>
      <vel value="0.0616769821" flag="0"/>
      <psa03 value="0.2655967341" flag="0"/>
      <psa10 value="0.1292641985" flag="0"/>
      <psa30 value="0.0048159668" flag="0"/>
    </comp>
  </station>
  <station code="NISR" name="NISR" netid="HL" insttype="65535" commtype="DIG" lat="36.6106" lon="27.131">
    <comp name="--.HHE">
      <acc value="0.0000000000" flag="0"/>
      <vel value="-100.0000000000" flag="0"/>
      <psa03 value="0.0000000000" flag="0"/>
      <psa10 value="0.0000000000" flag="0"/>
      <psa30 value="0.0000000000" flag="0"/>
    </comp>
    <comp name="--.HHN">
      <acc value="0.0356011823" flag="0"/>
      <vel value="0.0170158876" flag="0"/>
      <psa03 value="0.0761483194" flag="0"/>
      <psa10 value="0.0139794356" flag="0"/>
      <psa30 value="0.0045026010" flag="0"/>
    </comp>
    <comp name="--.HHZ">
      <acc value="0.0279930568" flag="0"/>
      <vel value="0.0150388724" flag="0"/>
      <psa03 value="0.0688186357" flag="0"/>
      <psa10 value="0.0087545428" flag="0"/>
      <psa30 value="0.0017546936" flag="0"/>
    </comp>
  </station>
  <station code="NISR2" name="NISR2" netid="HL" insttype="120" commtype="DIG" lat="36.5744" lon="27.1767">
    <comp name="--.HHN">
      <acc value="0.0760644377" flag="0"/>
      <vel value="0.0496430163" flag="0"/>
      <psa03 value="0.3143697309" flag="0"/>
      <psa10 value="0.0645414072" flag="0"/>
      <psa30 value="0.0047324921" flag="0"/>
    </comp>
    <comp name="--.HHZ">
      <acc value="0.0207788323" flag="0"/>
      <vel value="0.0124609243" flag="0"/>
      <psa03 value="0.0742751140" flag="0"/>
      <psa10 value="0.0116709306" flag="0"/>
      <psa30 value="0.0015656129" flag="0"/>
    </comp>
    <comp name="--.HHE">
      <acc value="0.0494610378" flag="0"/>
      <vel value="0.0380724212" flag="0"/>
      <psa03 value="0.1819244401" flag="0"/>
      <psa10 value="0.0400785605" flag="0"/>
      <psa30 value="0.0039070868" flag="0"/>
    </comp>
  </station>
  <station code="NPS" name="NPS" netid="HL" insttype="CMG3ESPC-120s" commtype="DIG" lat="35.2613" lon="25.6104">
    <comp name="--.HHE">
      <acc value="0.0108219912" flag="0"/>
      <vel value="0.0066067913" flag="0"/>
      <psa03 value="0.0279941243" flag="0"/>
      <psa10 value="0.0059314322" flag="0"/>
      <psa30 value="0.0007590408" flag="0"/>
    </comp>
    <comp name="--.HHN">
      <acc value="0.0214937070" flag="0"/>
      <vel value="0.0119552656" flag="0"/>
      <psa03 value="0.0735707198" flag="0"/>
      <psa10 value="0.0109115829" flag="0"/>
      <psa30 value="0.0012997373" flag="0"/>
    </comp>
    <comp name="--.HHZ">
      <acc value="0.0169277280" flag="0"/>
      <vel value="0.0097773801" flag="0"/>
      <psa03 value="0.0271495756" flag="0"/>
      <psa10 value="0.0060666261" flag="0"/>
      <psa30 value="0.0018512793" flag="0"/>
    </comp>
  </station>
  <station code="SAP3" name="SAP3" netid="HL" insttype="65535" commtype="DIG" lat="36.4356" lon="25.3454">
    <comp name="--.HHE">
      <acc value="0.4950171618" flag="0"/>
      <vel value="0.2016013318" flag="0"/>
      <psa03 value="1.3439097159" flag="0"/>
      <psa10 value="0.1609745048" flag="0"/>
      <psa30 value="0.0289451413" flag="0"/>
    </comp>
    <comp name="--.HHN">
      <acc value="0.4663550200" flag="0"/>
      <vel value="0.2239144768" flag="0"/>
      <psa03 value="1.1184215153" flag="0"/>
      <psa10 value="0.1439401458" flag="0"/>
      <psa30 value="0.0234104807" flag="0"/>
    </comp>
    <comp name="--.HHZ">
      <acc value="0.4008640111" flag="0"/>
      <vel value="0.1396307541" flag="0"/>
      <psa03 value="0.7671607451" flag="0"/>
      <psa10 value="0.0732874624" flag="0"/>
      <psa30 value="0.0103853067" flag="0"/>
    </comp>
  </station>
  <station code="THERA" name="THERA" netid="HL" insttype="120" commtype="DIG" lat="36.367" lon="25.4753">
    <comp name="--.HHE">
      <acc value="0.1856833740" flag="0"/>
      <vel value="0.0803750200" flag="0"/>
      <psa03 value="0.2151902739" flag="0"/>
      <psa10 value="0.0660439948" flag="0"/>
      <psa30 value="0.0163045811" flag="0"/>
    </comp>
    <comp name="--.HHN">
      <acc value="0.2452988191" flag="0"/>
      <vel value="0.1030896819" flag="0"/>
      <psa03 value="0.4409066480" flag="0"/>
      <psa10 value="0.0940916504" flag="0"/>
      <psa30 value="0.0179275630" flag="0"/>
    </comp>
    <comp name="--.HHZ">
      <acc value="0.1293255994" flag="0"/>
      <vel value="0.0457962933" flag="0"/>
      <psa03 value="0.1687081921" flag="0"/>
      <psa10 value="0.0506465546" flag="0"/>
      <psa30 value="0.0126566404" flag="0"/>
    </comp>
  </station>
  <station code="THRA" name="THRA" netid="HL" insttype="CMG-5" commtype="DIG" lat="36.415" lon="25.4324">
    <comp name="00.HNE">
      <acc value="0.8925473396" flag="0"/>
      <vel value="0.4055127152" flag="0"/>
      <psa03 value="2.7366825067" flag="0"/>
      <psa10 value="0.4539581879" flag="0"/>
      <psa30 value="0.0583386386" flag="0"/>
    </comp>
    <comp name="00.HNN">
      <acc value="0.8637016409" flag="0"/>
      <vel value="0.4635458725" flag="0"/>
      <psa03 value="1.5290523939" flag="0"/>
      <psa10 value="0.8492861456" flag="0"/>
      <psa30 value="0.0557406051" flag="0"/>
    </comp>
    <comp name="00.HNZ">
      <acc value="0.7600074182" flag="0"/>
      <vel value="0.3489750863" flag="0"/>
      <psa03 value="1.1835964985" flag="0"/>
      <psa10 value="0.3577416401" flag="0"/>
      <psa30 value="0.0207106651" flag="0"/>
    </comp>
  </station>
  <station code="AKRO" name="AKRO" netid="HT" insttype="Compact," commtype="DIG" lat="36.3584" lon="25.3967">
    <comp name="--.HHE">
      <acc value="0.7789061080" flag="0"/>
      <vel value="0.4083086740" flag="0"/>
      <psa03 value="1.4798173724" flag="0"/>
      <psa10 value="0.1578405715" flag="0"/>
      <psa30 value="0.0212413063" flag="0"/>
    </comp>
    <comp name="--.HHN">
      <acc value="0.4682891216" flag="0"/>
      <vel value="0.2204819256" flag="0"/>
      <psa03 value="0.8845184349" flag="0"/>
      <psa10 value="0.2341026579" flag="0"/>
      <psa30 value="0.0221377085" flag="0"/>
    </comp>
    <comp name="--.HHZ">
      <acc value="0.3423791374" flag="0"/>
      <vel value="0.1560470381" flag="0"/>
      <psa03 value="0.6628245961" flag="0"/>
      <psa10 value="0.1357236145" flag="0"/>
      <psa30 value="0.0100056773" flag="0"/>
    </comp>
  </station>
  <station code="ANYD" name="ANYD" netid="HT" insttype="120" commtype="DIG" lat="36.63" lon="25.6779">
    <comp name="--.HHZ">
      <acc value="0.7238277349" flag="0"/>
      <vel value="0.3145519373" flag="0"/>
      <psa03 value="0.8137717063" flag="0"/>
      <psa10 value="0.1746904513" flag="0"/>
      <psa30 value="0.0393113883" flag="0"/>
    </comp>
    <comp name="--.HHE">
      <acc value="1.2049539874" flag="0"/>
      <vel value="0.5156077345" flag="0"/>
      <psa03 value="2.5331631601" flag="0"/>
      <psa10 value="0.3538717460" flag="0"/>
      <psa30 value="0.1017636318" flag="0"/>
    </comp>
    <comp name="--.HHN">
      <acc value="0.9949512220" flag="0"/>
      <vel value="0.4649608776" flag="0"/>
      <psa03 value="1.7791446283" flag="0"/>
      <psa10 value="0.3340120383" flag="0"/>
      <psa30 value="0.0489127280" flag="0"/>
    </comp>
  </station>
  <station code="CHRI" name="CHRI" netid="HT" insttype="120s," commtype="DIG" lat="36.2491" lon="25.2076">
    <comp name="--.HHE">
      <acc value="0.1390964244" flag="0"/>
      <vel value="0.0634962537" flag="0"/>
      <psa03 value="0.3278448958" flag="0"/>
      <psa10 value="0.0183787720" flag="0"/>
      <psa30 value="0.0062881583" flag="0"/>
    </comp>
