<?xml version="1.0" encoding="UTF-8" standalone="yes"?>
<!DOCTYPE earthquake SYSTEM "stationlist.dtd">
<stationlist created="" xmlns="ch.ethz.sed.shakemap.usgs.xml">
  <station code="APE" name="APE" netid="GE" insttype="STS-2/N" commtype="DIG" lat="37.0727" lon="25.523">
    <comp name="--.HHE">
      <acc value="0.0955595719" flag="0"/>
      <vel value="0.0263210069" flag="0"/>
      <psa03 value="0.1353971122" flag="0"/>
      <psa10 value="0.0131112036" flag="0"/>
      <psa30 value="0.0060954479" flag="0"/>
    </comp>
    <comp name="--.HHN">
      <acc value="0.1142604670" flag="0"/>
      <vel value="0.0374582867" flag="0"/>
      <psa03 value="0.0945092059" flag="0"/>
      <psa10 value="0.0200303101" flag="0"/>
      <psa30 value="0.0087776341" flag="0"/>
    </comp>
    <comp name="--.HHZ">
      <acc value="0.0396297515" flag="0"/>
      <vel value="0.0162451372" flag="0"/>
      <psa03 value="0.0655500341" flag="0"/>
      <psa10 value="0.0080738884" flag="0"/>
      <psa30 value="0.0105775447" flag="0"/>
    </comp>
  </station>
  <station code="THERA" name="THERA" netid="GE" insttype="STS-2/N" commtype="DIG" lat="36.367" lon="25.4753">
    <comp name="--.HHE">
      <acc value="0.1904497979" flag="0"/>
      <vel value="0.0816713771" flag="0"/>
      <psa03 value="0.2209043209" flag="0"/>
      <psa10 value="0.0665194121" flag="0"/>
      <psa30 value="0.0163002667" flag="0"/>
    </comp>
    <comp name="--.HHN">
      <acc value="0.1262851317" flag="0"/>
      <vel value="0.0525737540" flag="0"/>
      <psa03 value="0.2277905858" flag="0"/>
      <psa10 value="0.0474019875" flag="0"/>
      <psa30 value="0.0089582903" flag="0"/>
    </comp>
    <comp name="--.HHZ">
      <acc value="0.1322707351" flag="0"/>
      <vel value="0.0466081752" flag="0"/>
      <psa03 value="0.1728326415" flag="0"/>
      <psa10 value="0.0510400386" flag="0"/>
      <psa30 value="0.0126660335" flag="0"/>
    </comp>
  </station>
</stationlist>
