<?xml version="1.0" encoding="UTF-8" standalone="yes"?>
<!DOCTYPE earthquake SYSTEM "stationlist.dtd">
<stationlist created="" xmlns="ch.ethz.sed.shakemap.usgs.xml">
  <station code="IOSI" name="IOSI" netid="HA" insttype="60s," commtype="DIG" lat="36.7225" lon="25.2887">
    <comp name="--.HHE">
      <acc value="0.1308952791" flag="0"/>
      <vel value="0.0510597819" flag="0"/>
      <psa03 value="0.1152393129" flag="0"/>
      <psa10 value="0.0492213448" flag="0"/>
      <psa30 value="0.0110413046" flag="0"/>
    </comp>
    <comp name="--.HHN">
      <acc value="0.1426808201" flag="0"/>
      <vel value="0.0348207909" flag="0"/>
      <psa03 value="0.0993848282" flag="0"/>
      <psa10 value="0.0221061184" flag="0"/>
      <psa30 value="0.0099661988" flag="0"/>
    </comp>
    <comp name="--.HHZ">
      <acc value="0.1629217180" flag="0"/>
      <vel value="0.0541105073" flag="0"/>
      <psa03 value="0.1529384957" flag="0"/>
      <psa10 value="0.0703429101" flag="0"/>
      <psa30 value="0.0087768302" flag="0"/>
    </comp>
  </station>
  <station code="SERI" name="SERI" netid="HA" insttype="30" commtype="DIG" lat="37.1609" lon="24.4853">
    <comp name="--.HHN">
      <acc value="0.0322563038" flag="0"/>
      <vel value="0.0175479591" flag="0"/>
      <psa03 value="0.0746166524" flag="0"/>
      <psa10 value="0.0211805522" flag="0"/>
      <psa30 value="0.0015769317" flag="0"/>
    </comp>
    <comp name="--.HHE">
      <acc value="0.0286526630" flag="0"/>
      <vel value="0.0161136602" flag="0"/>
      <psa03 value="0.0848967533" flag="0"/>
      <psa10 value="0.0119424142" flag="0"/>
      <psa30 value="0.0018442493" flag="0"/>
    </comp>
    <comp name="--.HHZ">
      <acc value="0.0188458787" flag="0"/>
      <vel value="0.0196052773" flag="0"/>
      <psa03 value="0.0441868734" flag="0"/>
      <psa10 value="0.0224501931" flag="0"/>
      <psa30 value="0.0055777492" flag="0"/>
    </comp>
  </station>
  <station code="SNT1" name="SNT1" netid="HA" insttype="30" commtype="DIG" lat="36.4159" lon="25.4282">
    <comp name="--.HHZ">
      <acc value="0.0900140290" flag="0"/>
      <vel value="0.0408775181" flag="0"/>
      <psa03 value="0.2284704605" flag="0"/>
      <psa10 value="0.0518278104" flag="0"/>
      <psa30 value="0.0077853846" flag="0"/>
    </comp>
    <comp name="--.HHE">
      <acc value="0.1007159171" flag="0"/>
      <vel value="0.0575266671" flag="0"/>
      <psa03 value="0.1835846079" flag="0"/>
      <psa10 value="0.1152317379" flag="0"/>
      <psa30 value="0.0179417100" flag="0"/>
    </comp>
    <comp name="--.HHN">
      <acc value="0.1502039581" flag="0"/>
      <vel value="0.0807088808" flag="0"/>
      <psa03 value="0.2453141955" flag="0"/>
      <psa10 value="0.1244895350" flag="0"/>
      <psa30 value="0.0185869218" flag="0"/>
    </comp>
  </station>
  <station code="SNT5" name="SNT5" netid="HA" insttype="1s-100Hz," commtype="DIG" lat="36.4037" lon="25.3953">
    <comp name="--.HHE">
      <acc value="0.4036080735" flag="0"/>
      <vel value="0.1156295107" flag="0"/>
      <psa03 value="0.5780485559" flag="0"/>
      <psa10 value="0.1061133164" flag="0"/>
      <psa30 value="0.0218058831" flag="0"/>
    </comp>
    <comp name="--.HHZ">
      <acc value="0.1324695496" flag="0"/>
      <vel value="0.0356530057" flag="0"/>
      <psa03 value="0.1546632504" flag="0"/>
      <psa10 value="0.0423174396" flag="0"/>
      <psa30 value="0.0029667208" flag="0"/>
    </comp>
    <comp name="--.HHN">
      <acc value="0.2445361030" flag="0"/>
      <vel value="0.0751600825" flag="0"/>
      <psa03 value="0.3637104605" flag="0"/>
      <psa10 value="0.0578742576" flag="0"/>
      <psa30 value="0.0151293475" flag="0"/>
    </comp>
  </station>
  <station code="KNSS" name="KNSS" netid="HC" insttype="60" commtype="DIG" lat="35.3042" lon="25.1802">
    <comp name="--.HHE">
      <acc value="0.0000000000" flag="0"/>
      <vel value="-100.0000000000" flag="0"/>
      <psa03 value="0.0000000000" flag="0"/>
      <psa10 value="0.0000000000" flag="0"/>
      <psa30 value="0.0000000000" flag="0"/>
    </comp>
    <comp name="--.HHN">
      <acc value="0.0201644794" flag="0"/>
      <vel value="0.0110148202" flag="0"/>
      <psa03 value="0.0606571180" flag="0"/>
      <psa10 value="0.0077358356" flag="0"/>
      <psa30 value="0.0017417356" flag="0"/>
    </comp>
    <comp name="--.HHZ">
      <acc value="0.0196428018" flag="0"/>
      <vel value="0.0095898186" flag="0"/>
      <psa03 value="0.0447259338" flag="0"/>
      <psa10 value="0.0098230218" flag="0"/>
      <psa30 value="0.0010020966" flag="0"/>
    </comp>
  </station>
  <station code="THNO" name="THNO" netid="HC" insttype="60" commtype="DIG" lat="37.6541" lon="25.0221">
    <comp name="--.HHE">
      <acc value="0.0000000000" flag="0"/>
      <vel value="-100.0000000000" flag="0"/>
      <psa03 value="0.0000000000" flag="0"/>
      <psa10 value="0.0000000000" flag="0"/>
      <psa30 value="0.0000000000" flag="0"/>
    </comp>
    <comp name="--.HHZ">
      <acc value="0.0238793937" flag="0"/>
      <vel value="0.0218676398" flag="0"/>
      <psa03 value="0.0557151529" flag="0"/>
      <psa10 value="0.0144154867" flag="0"/>
      <psa30 value="0.0037332752" flag="0"/>
    </comp>
    <comp name="--.HHN">
      <acc value="0.0225454017" flag="0"/>
      <vel value="0.0084356059" flag="0"/>
      <psa03 value="0.0413000960" flag="0"/>
      <psa10 value="0.0093037342" flag="0"/>
      <psa30 value="0.0021391974" flag="0"/>
    </comp>
  </station>
  <station code="NAX1" name="NAX1" netid="HI" insttype="CMG-5TD,ACCELEROMETER,GURALP" commtype="DIG" lat="37.1014" lon="25.3741">
    <comp name="--.HNN">
      <acc value="0.1044700590" flag="0"/>
      <vel value="0.0281758577" flag="0"/>
      <psa03 value="0.1261023063" flag="0"/>
      <psa10 value="0.0138730791" flag="0"/>
      <psa30 value="0.0065297364" flag="0"/>
    </comp>
    <comp name="--.HNE">
      <acc value="0.1382922446" flag="0"/>
      <vel value="0.0387873469" flag="0"/>
      <psa03 value="0.2161003086" flag="0"/>
      <psa10 value="0.0208637559" flag="0"/>
      <psa30 value="0.0031302300" flag="0"/>
    </comp>
    <comp name="--.HNZ">
      <acc value="0.0617938522" flag="0"/>
      <vel value="0.0194706078" flag="0"/>
      <psa03 value="0.0620896221" flag="0"/>
      <psa10 value="0.0170550454" flag="0"/>
      <psa30 value="0.0075811625" flag="0"/>
    </comp>
  </station>
  <station code="SFR2" name="SFR2" netid="HI" insttype="unknown" commtype="DIG" lat="36.3998" lon="25.4382">
    <comp name="--.HNN">
      <acc value="0.6936853889" flag="0"/>
      <vel value="0.3545883578" flag="0"/>
      <psa03 value="1.8234077451" flag="0"/>
      <psa10 value="0.4861836152" flag="0"/>
      <psa30 value="0.0316788340" flag="0"/>
    </comp>
    <comp name="--.HNZ">
      <acc value="0.5611297331" flag="0"/>
      <vel value="0.2466547088" flag="0"/>
      <psa03 value="0.9253295562" flag="0"/>
      <psa10 value="0.1754337235" flag="0"/>
      <psa30 value="0.0214635525" flag="0"/>
    </comp>
  </station>
  <station code="AMGA" name="AMGA" netid="HL" insttype="LE3D20_SMART24" commtype="DIG" lat="36.8316" lon="25.8938">
    <comp name="--.HHE">
      <acc value="0.3596903474" flag="0"/>
      <vel value="0.0903770732" flag="0"/>
      <psa03 value="0.7724422201" flag="0"/>
      <psa10 value="0.0483727621" flag="0"/>
      <psa30 value="0.0232164428" flag="0"/>
    </comp>
    <comp name="--.HHN">
      <acc value="0.6382701224" flag="0"/>
      <vel value="0.1181126381" flag="0"/>
      <psa03 value="0.5311627236" flag="0"/>
      <psa10 value="0.0762410721" flag="0"/>
      <psa30 value="0.0211160721" flag="0"/>
    </comp>
    <comp name="--.HHZ">
      <acc value="0.3885068480" flag="0"/>
      <vel value="0.0992957505" flag="0"/>
      <psa03 value="0.4108053657" flag="0"/>
      <psa10 value="0.0505022993" flag="0"/>
      <psa30 value="0.0260863416" flag="0"/>
    </comp>
  </station>
  <station code="APE" name="APE" netid="HL" insttype="120" commtype="DIG" lat="37.0727" lon="25.523">
    <comp name="--.HHZ">
      <acc value="0.0351458284" flag="0"/>
      <vel value="0.0160855402" flag="0"/>
      <psa03 value="0.0638096324" flag="0"/>
      <psa10 value="0.0080220150" flag="0"/>
      <psa30 value="0.0105632530" flag="0"/>
    </comp>
    <comp name="--.HHE">
      <acc value="0.0887860934" flag="0"/>
      <vel value="0.0252339615" flag="0"/>
      <psa03 value="0.1318602129" flag="0"/>
      <psa10 value="0.0130462975" flag="0"/>
      <psa30 value="0.0060873267" flag="0"/>
    </comp>
    <comp name="--.HHN">
      <acc value="0.1086104636" flag="0"/>
      <vel value="0.0360516921" flag="0"/>
      <psa03 value="0.0921849471" flag="0"/>
      <psa10 value="0.0198926990" flag="0"/>
      <psa30 value="0.0087668829" flag="0"/>
    </comp>
  </station>
  <station code="ASTA" name="ASTA" netid="HL" insttype="LE3D20_SMART24" commtype="DIG" lat="36.5475" lon="26.3471">
    <comp name="--.HHN">
      <acc value="0.1049137795" flag="0"/>
      <vel value="0.0354836653" flag="0"/>
      <psa03 value="0.1718665266" flag="0"/>
      <psa10 value="0.0208843787" flag="0"/>
      <psa30 value="0.0021430079" flag="0"/>
    </comp>
    <comp name="--.HHE">
      <acc value="0.0880446426" flag="0"/>
      <vel value="0.0349475152" flag="0"/>
      <psa03 value="0.2026025064" flag="0"/>
      <psa10 value="0.0145077319" flag="0"/>
      <psa30 value="0.0047094665" flag="0"/>
    </comp>
    <comp name="--.HHZ">
      <acc value="0.0775089871" flag="0"/>
      <vel value="0.0432067358" flag="0"/>
      <psa03 value="0.2165568336" flag="0"/>
      <psa10 value="0.0205312329" flag="0"/>
      <psa30 value="0.0034332432" flag="0"/>
    </comp>
  </station>
  <station code="MHLO" name="MHLO" netid="HL" insttype="20" commtype="DIG" lat="36.6898" lon="24.4017">
    <comp name="--.HHE">
      <acc value="0.1083558983" flag="0"/>
      <vel value="0.1061658826" flag="0"/>
      <psa03 value="0.1945355807" flag="0"/>
      <psa10 value="0.1794235557" flag="0"/>
      <psa30 value="0.0120307764" flag="0"/>
    </comp>
    <comp name="--.HHN">
      <acc value="0.0855819136" flag="0"/>
      <vel value="0.0647283981" flag="0"/>
      <psa03 value="0.2321149769" flag="0"/>
      <psa10 value="0.1359595517" flag="0"/>
      <psa30 value="0.0072903065" flag="0"/>
    </comp>
    <comp name="--.HHZ">
      <acc value="0.0496881302" flag="0"/>
      <vel value="0.0501012074" flag="0"/>
      <psa03 value="0.1241532280" flag="0"/>
      <psa10 value="0.0830823116" flag="0"/>
      <psa30 value="0.0054129900" flag="0"/>
    </comp>
  </station>
  <station code="MILA" name="MILA" netid="HL" insttype="CMG-5" commtype="DIG" lat="36.7429" lon="24.4282">
    <comp name="00.HNN">
      <acc value="0.1279368627" flag="0"/>
      <vel value="0.0657188389" flag="0"/>
      <psa03 value="0.4107091658" flag="0"/>
      <psa10 value="0.1122156525" flag="0"/>
      <psa30 value="0.0070389719" flag="0"/>
    </comp>
    <comp name="00.HNZ">
      <acc value="0.0954117219" flag="0"/>
      <vel value="0.0616769877" flag="0"/>
      <psa03 value="0.2655967340" flag="0"/>
      <psa10 value="0.1292641976" flag="0"/>
      <psa30 value="0.0048162878" flag="0"/>
    </comp>
    <comp name="00.HNE">
      <acc value="0.0870964696" flag="0"/>
      <vel value="0.0725137795" flag="0"/>
      <psa03 value="0.3438565332" flag="0"/>
      <psa10 value="0.0891984622" flag="0"/>
      <psa30 value="0.0088232472" flag="0"/>
    </comp>
  </station>
  <station code="NISR" name="NISR" netid="HL" insttype="65535" commtype="DIG" lat="36.6106" lon="27.131">
    <comp name="--.HHE">
      <acc value="0.0000000000" flag="0"/>
      <vel value="-100.0000000000" flag="0"/>
      <psa03 value="0.0000000000" flag="0"/>
      <psa10 value="0.0000000000" flag="0"/>
      <psa30 value="0.0000000000" flag="0"/>
    </comp>
    <comp name="--.HHN">
      <acc value="0.0356011823" flag="0"/>
      <vel value="0.0170158826" flag="0"/>
      <psa03 value="0.0761483194" flag="0"/>
      <psa10 value="0.0139794356" flag="0"/>
      <psa30 value="0.0045023389" flag="0"/>
    </comp>
    <comp name="--.HHZ">
      <acc value="0.0279930568" flag="0"/>
      <vel value="0.0150388773" flag="0"/>
      <psa03 value="0.0688186357" flag="0"/>
      <psa10 value="0.0087545426" flag="0"/>
      <psa30 value="0.0017546101" flag="0"/>
    </comp>
  </station>
  <station code="NISR2" name="NISR2" netid="HL" insttype="120" commtype="DIG" lat="36.5744" lon="27.1767">
    <comp name="--.HHN">
      <acc value="0.0760644380" flag="0"/>
      <vel value="0.0496430326" flag="0"/>
      <psa03 value="0.3143697309" flag="0"/>
      <psa10 value="0.0645414072" flag="0"/>
      <psa30 value="0.0047325848" flag="0"/>
    </comp>
    <comp name="--.HHE">
      <acc value="0.0494610378" flag="0"/>
      <vel value="0.0380724151" flag="0"/>
      <psa03 value="0.1819244401" flag="0"/>
      <psa10 value="0.0400785604" flag="0"/>
      <psa30 value="0.0039068597" flag="0"/>
    </comp>
    <comp name="--.HHZ">
      <acc value="0.0207788323" flag="0"/>
      <vel value="0.0124609270" flag="0"/>
      <psa03 value="0.0742751140" flag="0"/>
      <psa10 value="0.0116709306" flag="0"/>
      <psa30 value="0.0015657272" flag="0"/>
    </comp>
  </station>
  <station code="NPS" name="NPS" netid="HL" insttype="CMG3ESPC-120s" commtype="DIG" lat="35.2613" lon="25.6104">
    <comp name="--.HHE">
      <acc value="0.0108219911" flag="0"/>
      <vel value="0.0066067914" flag="0"/>
      <psa03 value="0.0279941243" flag="0"/>
      <psa10 value="0.0059314322" flag="0"/>
      <psa30 value="0.0007590327" flag="0"/>
    </comp>
    <comp name="--.HHN">
      <acc value="0.0214937070" flag="0"/>
      <vel value="0.0119552659" flag="0"/>
      <psa03 value="0.0735707198" flag="0"/>
      <psa10 value="0.0109115829" flag="0"/>
      <psa30 value="0.0012997640" flag="0"/>
    </comp>
    <comp name="--.HHZ">
      <acc value="0.0169277280" flag="0"/>
      <vel value="0.0097773829" flag="0"/>
      <psa03 value="0.0271495756" flag="0"/>
      <psa10 value="0.0060666261" flag="0"/>
      <psa30 value="0.0018513190" flag="0"/>
    </comp>
  </station>
  <station code="SAP3" name="SAP3" netid="HL" insttype="65535" commtype="DIG" lat="36.4356" lon="25.3454">
    <comp name="--.HHE">
      <acc value="0.4950171621" flag="0"/>
      <vel value="0.2016013073" flag="0"/>
      <psa03 value="1.3439097159" flag="0"/>
      <psa10 value="0.1609745030" flag="0"/>
      <psa30 value="0.0289447247" flag="0"/>
    </comp>
    <comp name="--.HHN">
      <acc value="0.4663550198" flag="0"/>
      <vel value="0.2239143990" flag="0"/>
      <psa03 value="1.1184215153" flag="0"/>
      <psa10 value="0.1439402954" flag="0"/>
      <psa30 value="0.0234059699" flag="0"/>
    </comp>
    <comp name="--.HHZ">
      <acc value="0.4008640109" flag="0"/>
      <vel value="0.1396307524" flag="0"/>
      <psa03 value="0.7671607451" flag="0"/>
      <psa10 value="0.0732874603" flag="0"/>
      <psa30 value="0.0103867634" flag="0"/>
    </comp>
  </station>
  <station code="THERA" name="THERA" netid="HL" insttype="120" commtype="DIG" lat="36.367" lon="25.4753">
    <comp name="--.HHN">
      <acc value="0.2452988190" flag="0"/>
      <vel value="0.1030896824" flag="0"/>
      <psa03 value="0.4409066480" flag="0"/>
      <psa10 value="0.0940916569" flag="0"/>
      <psa30 value="0.0179277180" flag="0"/>
    </comp>
    <comp name="--.HHE">
      <acc value="0.1856833739" flag="0"/>
      <vel value="0.0803750173" flag="0"/>
      <psa03 value="0.2151902739" flag="0"/>
      <psa10 value="0.0660439912" flag="0"/>
      <psa30 value="0.0163050472" flag="0"/>
    </comp>
    <comp name="--.HHZ">
      <acc value="0.1293255997" flag="0"/>
      <vel value="0.0457962952" flag="0"/>
      <psa03 value="0.1687081921" flag="0"/>
      <psa10 value="0.0506465439" flag="0"/>
      <psa30 value="0.0126571916" flag="0"/>
    </comp>
  </station>
  <station code="THRA" name="THRA" netid="HL" insttype="CMG-5" commtype="DIG" lat="36.415" lon="25.4324">
    <comp name="00.HNE">
      <acc value="0.8925473414" flag="0"/>
      <vel value="0.4055126585" flag="0"/>
      <psa03 value="2.7366825067" flag="0"/>
      <psa10 value="0.4539581500" flag="0"/>
      <psa30 value="0.0583398601" flag="0"/>
    </comp>
    <comp name="00.HNN">
      <acc value="0.8637016407" flag="0"/>
      <vel value="0.4635458844" flag="0"/>
      <psa03 value="1.5290523939" flag="0"/>
      <psa10 value="0.8492861758" flag="0"/>
      <psa30 value="0.0557395870" flag="0"/>
    </comp>
    <comp name="00.HNZ">
      <acc value="0.7600074182" flag="0"/>
      <vel value="0.3489750752" flag="0"/>
      <psa03 value="1.1835964985" flag="0"/>
      <psa10 value="0.3577416669" flag="0"/>
      <psa30 value="0.0207123830" flag="0"/>
    </comp>
  </station>
  <station code="TNSA" name="TNSA" netid="HL" insttype="CMG-5" commtype="DIG" lat="37.5394" lon="25.1631">
    <comp name="00.HNZ">
      <acc value="0.0390391254" flag="0"/>
      <vel value="0.0299598298" flag="0"/>
      <psa03 value="0.0746508186" flag="0"/>
      <psa10 value="0.0185960009" flag="0"/>
      <psa30 value="0.0033510775" flag="0"/>
    </comp>
    <comp name="00.HNN">
      <acc value="0.0597555659" flag="0"/>
      <vel value="0.0252678950" flag="0"/>
      <psa03 value="0.0871279435" flag="0"/>
      <psa10 value="0.0171713536" flag="0"/>
      <psa30 value="0.0025032293" flag="0"/>
    </comp>
    <comp name="00.HNE">
      <acc value="0.0321997666" flag="0"/>
      <vel value="0.0148772590" flag="0"/>
      <psa03 value="0.0684854410" flag="0"/>
      <psa10 value="0.0069198089" flag="0"/>
      <psa30 value="0.0024503463" flag="0"/>
    </comp>
  </station>
  <station code="AKRO" name="AKRO" netid="HT" insttype="Compact," commtype="DIG" lat="36.3584" lon="25.3967">
    <comp name="--.HHE">
      <acc value="0.7789061080" flag="0"/>
      <vel value="0.4083086998" flag="0"/>
      <psa03 value="1.4798173724" flag="0"/>
      <psa10 value="0.1578405014" flag="0"/>
      <psa30 value="0.0212413159" flag="0"/>
    </comp>
    <comp name="--.HHN">
      <acc value="0.4682891216" flag="0"/>
      <vel value="0.2204819538" flag="0"/>
      <psa03 value="0.8845184349" flag="0"/>
      <psa10 value="0.2341026143" flag="0"/>
      <psa30 value="0.0221381043" flag="0"/>
    </comp>
    <comp name="--.HHZ">
      <acc value="0.3423791374" flag="0"/>
      <vel value="0.1560470332" flag="0"/>
      <psa03 value="0.6628245961" flag="0"/>
      <psa10 value="0.1357236152" flag="0"/>
      <psa30 value="0.0100008398" flag="0"/>
    </comp>
  </station>
  <station code="ANYD" name="ANYD" netid="HT" insttype="120" commtype="DIG" lat="36.63" lon="25.6779">
    <comp name="--.HHE">
      <acc value="1.2049539874" flag="0"/>
      <vel value="0.5156077312" flag="0"/>
      <psa03 value="2.5331631601" flag="0"/>
      <psa10 value="0.3538717397" flag="0"/>
      <psa30 value="0.1017632147" flag="0"/>
    </comp>
    <comp name="--.HHN">
      <acc value="0.9949512218" flag="0"/>
      <vel value="0.4649608824" flag="0"/>
      <psa03 value="1.7791446283" flag="0"/>
      <psa10 value="0.3340120396" flag="0"/>
      <psa30 value="0.0489139513" flag="0"/>
    </comp>
    <comp name="--.HHZ">
      <acc value="0.7238277348" flag="0"/>
      <vel value="0.3145519381" flag="0"/>
      <psa03 value="0.8137717063" flag="0"/>
      <psa10 value="0.1746904448" flag="0"/>
      <psa30 value="0.0393116137" flag="0"/>
    </comp>
  </station>
  <station code="CHRI" name="CHRI" netid="HT" insttype="120s," commtype="DIG" lat="36.2491" lon="25.2076">
    <comp name="--.HHZ">
      <acc value="0.0590508839" flag="0"/>
      <vel value="0.0202228595" flag="0"/>
      <psa03 value="0.1632474352" flag="0"/>
      <psa10 value="0.0164566555" flag="0"/>
      <psa30 value="0.0031177668" flag="0"/>
    </comp>
