<?xml version="1.0" encoding="UTF-8" standalone="yes"?>
<!DOCTYPE earthquake SYSTEM "stationlist.dtd">
<stationlist created="" xmlns="ch.ethz.sed.shakemap.usgs.xml">
  <station code="ARPRA" name="ARPRA" netid="KO" insttype="CMG-5T" lat="39.0929" lon="38.3356">
    <comp name="--.HNE">
      <acc value="0.4488685741" flag="0"/>
      <vel value="0.2540328460" flag="0"/>
      <psa03 value="1.4519844373" flag="0"/>
      <psa10 value="0.2047664515" flag="0"/>
      <psa30 value="0.0305676234" flag="0"/>
    </comp>
    <comp name="--.HNZ">
      <acc value="0.2802666482" flag="0"/>
      <vel value="0.1309478498" flag="0"/>
      <psa03 value="0.7465088451" flag="0"/>
      <psa10 value="0.1116649639" flag="0"/>
      <psa30 value="0.0415119173" flag="0"/>
    </comp>
    <comp name="--.HNN">
      <acc value="0.5209125705" flag="0"/>
      <vel value="0.2673099784" flag="0"/>
      <psa03 value="1.5117822500" flag="0"/>
      <psa10 value="0.2065768195" flag="0"/>
      <psa30 value="0.0276965872" flag="0"/>
    </comp>
  </station>
  <station code="DARE" name="DARE" netid="KO" insttype="CMG-3ESP" lat="38.5712" lon="37.4832">
    <comp name="--.HHE">
      <acc value="0.3949655350" flag="0"/>
      <vel value="0.2382012010" flag="0"/>
      <psa03 value="1.0194216539" flag="0"/>
      <psa10 value="0.2268147213" flag="0"/>
      <psa30 value="0.0394658353" flag="0"/>
    </comp>
    <comp name="--.HHZ">
      <acc value="0.3105266813" flag="0"/>
      <vel value="0.1443074611" flag="0"/>
      <psa03 value="0.9109167548" flag="0"/>
      <psa10 value="0.1063053310" flag="0"/>
      <psa30 value="0.0472785170" flag="0"/>
    </comp>
    <comp name="--.HHN">
      <acc value="0.0000046867" flag="0"/>
      <vel value="-100.0000000000" flag="0"/>
      <psa03 value="0.0000000023" flag="0"/>
      <psa10 value="0.0000000023" flag="0"/>
      <psa30 value="0.0000000030" flag="0"/>
    </comp>
  </station>
  <station code="GAZ" name="GAZ" netid="KO" insttype="CMG-3T" lat="37.1721" lon="37.2096">
    <comp name="--.HHN">
      <acc value="0.2044791646" flag="0"/>
      <vel value="0.2088801752" flag="0"/>
      <psa03 value="0.3310937232" flag="0"/>
      <psa10 value="0.1815081919" flag="0"/>
      <psa30 value="0.0261502139" flag="0"/>
    </comp>
    <comp name="--.HHE">
      <acc value="0.1940433414" flag="0"/>
      <vel value="0.1808518137" flag="0"/>
      <psa03 value="0.4097391689" flag="0"/>
      <psa10 value="0.3289836005" flag="0"/>
      <psa30 value="0.0292759510" flag="0"/>
    </comp>
    <comp name="--.HHZ">
      <acc value="0.4479112690" flag="0"/>
      <vel value="0.0911436140" flag="0"/>
      <psa03 value="0.3240913411" flag="0"/>
      <psa10 value="0.0948683000" flag="0"/>
      <psa30 value="0.0142373250" flag="0"/>
    </comp>
  </station>
  <station code="TUNC" name="TUNC" netid="KO" insttype="CMG-5T" lat="39.6942" lon="37.5388">
    <comp name="--.HNE">
      <acc value="0.3280165622" flag="0"/>
      <vel value="0.2333024480" flag="0"/>
      <psa03 value="0.8521259388" flag="0"/>
      <psa10 value="0.3694680102" flag="0"/>
      <psa30 value="0.0431116682" flag="0"/>
    </comp>
    <comp name="--.HNN">
      <acc value="0.2527449616" flag="0"/>
      <vel value="0.2604570640" flag="0"/>
      <psa03 value="0.7508530461" flag="0"/>
      <psa10 value="0.3292416523" flag="0"/>
      <psa30 value="0.0420399689" flag="0"/>
    </comp>
    <comp name="--.HNZ">
      <acc value="0.1193529918" flag="0"/>
      <vel value="0.0725292318" flag="0"/>
      <psa03 value="0.2586895913" flag="0"/>
      <psa10 value="0.0997469420" flag="0"/>
      <psa30 value="0.0076388184" flag="0"/>
    </comp>
  </station>
  <station code="URFA" name="URFA" netid="KO" insttype="CMG-3ESP" lat="37.4409" lon="38.8213">
    <comp name="--.HHN">
      <acc value="0.4603729626" flag="0"/>
      <vel value="0.1945137882" flag="0"/>
      <psa03 value="0.6823745547" flag="0"/>
      <psa10 value="0.2358380462" flag="0"/>
      <psa30 value="0.0594650902" flag="0"/>
    </comp>
    <comp name="--.HHZ">
      <acc value="0.2550646464" flag="0"/>
      <vel value="0.0916401158" flag="0"/>
      <psa03 value="0.3524063952" flag="0"/>
      <psa10 value="0.0899223144" flag="0"/>
      <psa30 value="0.0194712671" flag="0"/>
    </comp>
    <comp name="--.HHE">
      <acc value="0.3803898181" flag="0"/>
      <vel value="0.1909859929" flag="0"/>
      <psa03 value="0.7826202704" flag="0"/>
      <psa10 value="0.2842900694" flag="0"/>
      <psa30 value="0.1358659644" flag="0"/>
    </comp>
  </station>
</stationlist>
