<?xml version="1.0" encoding="UTF-8" standalone="yes"?>
<!DOCTYPE earthquake SYSTEM "stationlist.dtd">
<stationlist created="" xmlns="ch.ethz.sed.shakemap.usgs.xml">
  <station code="BERA" name="BERA" netid="AC" insttype="" lat="40.7081" lon="19.9455">
    <comp name="00.HHE">
      <acc value="0.0605100074" flag="0"/>
      <vel value="0.0267899448" flag="0"/>
      <psa03 value="0.0904103659" flag="0"/>
      <psa10 value="0.0289259518" flag="0"/>
      <psa30 value="0.0023955691" flag="0"/>
    </comp>
    <comp name="00.HHN">
      <acc value="0.0469654491" flag="0"/>
      <vel value="0.0264419382" flag="0"/>
      <psa03 value="0.1049689474" flag="0"/>
      <psa10 value="0.0311217440" flag="0"/>
      <psa30 value="0.0030304542" flag="0"/>
    </comp>
    <comp name="00.HHZ">
      <acc value="0.0372406002" flag="0"/>
      <vel value="0.0162276888" flag="0"/>
      <psa03 value="0.0672491623" flag="0"/>
      <psa10 value="0.0128319214" flag="0"/>
      <psa30 value="0.0035804860" flag="0"/>
    </comp>
  </station>
  <station code="SCTE" name="SCTE" netid="IV" insttype="" lat="40.0724" lon="18.4675">
    <comp name="--.HHE">
      <acc value="0.1524482935" flag="0"/>
      <vel value="0.0412409311" flag="0"/>
      <psa03 value="0.1712202556" flag="0"/>
      <psa10 value="0.0229975227" flag="0"/>
      <psa30 value="0.0020771871" flag="0"/>
    </comp>
    <comp name="--.HHN">
      <acc value="0.1446370404" flag="0"/>
      <vel value="0.0541461946" flag="0"/>
      <psa03 value="0.1367551410" flag="0"/>
      <psa10 value="0.0511812229" flag="0"/>
      <psa30 value="0.0033518114" flag="0"/>
    </comp>
    <comp name="--.HHZ">
      <acc value="0.1006748595" flag="0"/>
      <vel value="0.0270779318" flag="0"/>
      <psa03 value="0.1020688019" flag="0"/>
      <psa10 value="0.0096962795" flag="0"/>
      <psa30 value="0.0017764850" flag="0"/>
    </comp>
  </station>
  <station code="KEK" name="KEK" netid="MN" insttype="" lat="39.7127" lon="19.7962">
    <comp name="--.HHE">
      <acc value="0.2868517713" flag="0"/>
      <vel value="0.0834609305" flag="0"/>
      <psa03 value="0.3560622437" flag="0"/>
      <psa10 value="0.0653022870" flag="0"/>
      <psa30 value="0.0052257462" flag="0"/>
    </comp>
    <comp name="--.HHN">
      <acc value="0.1615506258" flag="0"/>
      <vel value="0.0449537806" flag="0"/>
      <psa03 value="0.1927958720" flag="0"/>
      <psa10 value="0.0508383663" flag="0"/>
      <psa30 value="0.0036459707" flag="0"/>
    </comp>
    <comp name="--.HHZ">
      <acc value="0.1171140773" flag="0"/>
      <vel value="0.0422505850" flag="0"/>
      <psa03 value="0.2662920608" flag="0"/>
      <psa10 value="0.0569293930" flag="0"/>
      <psa30 value="0.0035005999" flag="0"/>
    </comp>
  </station>
</stationlist>
