<?xml version="1.0" encoding="UTF-8" standalone="yes"?>
<!DOCTYPE earthquake SYSTEM "stationlist.dtd">
<stationlist created="" xmlns="ch.ethz.sed.shakemap.usgs.xml">
  <station code="BERA" name="BERA" netid="AC" insttype="" lat="40.7081" lon="19.9455">
    <comp name="00.HHE">
      <acc value="0.0605100074" flag="0"/>
      <vel value="0.0267899448" flag="0"/>
      <psa03 value="0.0904103659" flag="0"/>
      <psa10 value="0.0289259518" flag="0"/>
      <psa30 value="0.0023955691" flag="0"/>
    </comp>
    <comp name="00.HHN">
      <acc value="0.0469654491" flag="0"/>
      <vel value="0.0264419382" flag="0"/>
      <psa03 value="0.1049689474" flag="0"/>
      <psa10 value="0.0311217440" flag="0"/>
      <psa30 value="0.0030304542" flag="0"/>
    </comp>
    <comp name="00.HHZ">
      <acc value="0.0372406002" flag="0"/>
      <vel value="0.0162276888" flag="0"/>
      <psa03 value="0.0672491623" flag="0"/>
      <psa10 value="0.0128319214" flag="0"/>
      <psa30 value="0.0035804860" flag="0"/>
    </comp>
  </station>
  <station code="KRK1" name="KRK1" netid="HI" insttype="CMG-5TD,ACCELEROMETER,GURALP" lat="39.6189" lon="19.9202">
    <comp name="--.HNE">
      <acc value="1.2423516934" flag="0"/>
      <vel value="0.2994880769" flag="0"/>
      <psa03 value="1.0746278022" flag="0"/>
      <psa10 value="0.0643809302" flag="0"/>
      <psa30 value="0.0050258822" flag="0"/>
    </comp>
    <comp name="--.HNN">
      <acc value="1.0030904514" flag="0"/>
      <vel value="0.2363075047" flag="0"/>
      <psa03 value="0.9702950201" flag="0"/>
      <psa10 value="0.1185595703" flag="0"/>
      <psa30 value="0.0092829708" flag="0"/>
    </comp>
    <comp name="--.HNZ">
      <acc value="0.6241043155" flag="0"/>
      <vel value="0.1382308389" flag="0"/>
      <psa03 value="0.6717596218" flag="0"/>
      <psa10 value="0.0584078673" flag="0"/>
      <psa30 value="0.0026580180" flag="0"/>
    </comp>
  </station>
  <station code="JAN" name="JAN" netid="HL" insttype="CMG-5TD" lat="39.6562" lon="20.8487">
    <comp name="00.HNE">
      <acc value="0.0835964409" flag="0"/>
      <vel value="0.0454180288" flag="0"/>
      <psa03 value="0.3313144637" flag="0"/>
      <psa10 value="0.0421422363" flag="0"/>
      <psa30 value="0.0031952924" flag="0"/>
    </comp>
    <comp name="00.HNN">
      <acc value="0.0749722700" flag="0"/>
      <vel value="0.0450427675" flag="0"/>
      <psa03 value="0.1572911505" flag="0"/>
      <psa10 value="0.0411637516" flag="0"/>
      <psa30 value="0.0090180033" flag="0"/>
    </comp>
    <comp name="00.HNZ">
      <acc value="0.0392305465" flag="0"/>
      <vel value="0.0265411298" flag="0"/>
      <psa03 value="0.0935667117" flag="0"/>
      <psa10 value="0.0264541526" flag="0"/>
      <psa30 value="0.0035701418" flag="0"/>
    </comp>
  </station>
  <station code="KEK" name="KEK" netid="HL" insttype="120" lat="39.7127" lon="19.7962">
    <comp name="--.HHE">
      <acc value="0.2868519700" flag="0"/>
      <vel value="0.0834609883" flag="0"/>
      <psa03 value="0.3560624903" flag="0"/>
      <psa10 value="0.0653023322" flag="0"/>
      <psa30 value="0.0052257498" flag="0"/>
    </comp>
    <comp name="--.HHN">
      <acc value="0.1615507377" flag="0"/>
      <vel value="0.0449538117" flag="0"/>
      <psa03 value="0.1927960055" flag="0"/>
      <psa10 value="0.0508384015" flag="0"/>
      <psa30 value="0.0036459732" flag="0"/>
    </comp>
    <comp name="--.HHZ">
      <acc value="0.1171141585" flag="0"/>
      <vel value="0.0422506142" flag="0"/>
      <psa03 value="0.2662922452" flag="0"/>
      <psa10 value="0.0569294324" flag="0"/>
      <psa30 value="0.0035006023" flag="0"/>
    </comp>
  </station>
  <station code="KSTR" name="KSTR" netid="HP" insttype="Compact," lat="39.2492" lon="20.576">
    <comp name="--.HHE">
      <acc value="0.0414124833" flag="0"/>
      <vel value="0.0251161575" flag="0"/>
      <psa03 value="0.1152644117" flag="0"/>
      <psa10 value="0.0246865674" flag="0"/>
      <psa30 value="0.0025548292" flag="0"/>
    </comp>
    <comp name="--.HHN">
      <acc value="0.0432940325" flag="0"/>
      <vel value="0.0238206991" flag="0"/>
      <psa03 value="0.0926273311" flag="0"/>
      <psa10 value="0.0358039301" flag="0"/>
      <psa30 value="0.0035164800" flag="0"/>
    </comp>
    <comp name="--.HHZ">
      <acc value="0.0229887161" flag="0"/>
      <vel value="0.0117907224" flag="0"/>
      <psa03 value="0.0456652026" flag="0"/>
      <psa10 value="0.0166790632" flag="0"/>
      <psa30 value="0.0020207887" flag="0"/>
    </comp>
  </station>
  <station code="TSLK" name="TSLK" netid="HT" insttype="1s-100Hz," lat="38.8249" lon="20.6554">
    <comp name="--.HHZ">
      <acc value="0.0189163836" flag="0"/>
      <vel value="0.0108276725" flag="0"/>
      <psa03 value="0.0598587118" flag="0"/>
      <psa10 value="0.0140046682" flag="0"/>
      <psa30 value="0.0016012204" flag="0"/>
    </comp>
    <comp name="--.HHE">
      <acc value="0.0556532468" flag="0"/>
      <vel value="0.0316852604" flag="0"/>
      <psa03 value="0.2362147083" flag="0"/>
      <psa10 value="0.0236851457" flag="0"/>
      <psa30 value="0.0019704362" flag="0"/>
    </comp>
    <comp name="--.HHN">
      <acc value="0.0530571432" flag="0"/>
      <vel value="0.0353332102" flag="0"/>
      <psa03 value="0.2203261363" flag="0"/>
      <psa10 value="0.0446500141" flag="0"/>
      <psa30 value="0.0028984250" flag="0"/>
    </comp>
  </station>
  <station code="SCTE" name="SCTE" netid="IV" insttype="" lat="40.0724" lon="18.4675">
    <comp name="--.HHE">
      <acc value="0.1524482935" flag="0"/>
      <vel value="0.0412409311" flag="0"/>
      <psa03 value="0.1712202556" flag="0"/>
      <psa10 value="0.0229975227" flag="0"/>
      <psa30 value="0.0020771871" flag="0"/>
    </comp>
    <comp name="--.HHN">
      <acc value="0.1446370404" flag="0"/>
      <vel value="0.0541461946" flag="0"/>
      <psa03 value="0.1367551410" flag="0"/>
      <psa10 value="0.0511812229" flag="0"/>
      <psa30 value="0.0033518114" flag="0"/>
    </comp>
    <comp name="--.HHZ">
      <acc value="0.1006748595" flag="0"/>
      <vel value="0.0270779318" flag="0"/>
      <psa03 value="0.1020688019" flag="0"/>
      <psa10 value="0.0096962795" flag="0"/>
      <psa30 value="0.0017764850" flag="0"/>
    </comp>
  </station>
  <station code="KEK" name="KEK" netid="MN" insttype="" lat="39.7127" lon="19.7962">
    <comp name="--.HHE">
      <acc value="0.2868517713" flag="0"/>
      <vel value="0.0834609305" flag="0"/>
      <psa03 value="0.3560622437" flag="0"/>
      <psa10 value="0.0653022870" flag="0"/>
      <psa30 value="0.0052257462" flag="0"/>
    </comp>
    <comp name="--.HHN">
      <acc value="0.1615506258" flag="0"/>
      <vel value="0.0449537806" flag="0"/>
      <psa03 value="0.1927958720" flag="0"/>
      <psa10 value="0.0508383663" flag="0"/>
      <psa30 value="0.0036459707" flag="0"/>
    </comp>
    <comp name="--.HHZ">
      <acc value="0.1171140773" flag="0"/>
      <vel value="0.0422505850" flag="0"/>
      <psa03 value="0.2662920608" flag="0"/>
      <psa10 value="0.0569293930" flag="0"/>
      <psa30 value="0.0035005999" flag="0"/>
    </comp>
  </station>
</stationlist>
