<stationlist xmlns:esm="https://esm-db.eu/esmws/shakemap/1/" created="1780710877">
	<station code="ROD3" name="ROD3" netid="CL" source="Corinth Riff Laboratory (CRLNET)" insttype="" lat="38.30811" lon="21.89204" esm:processing="manual (Paolucci et al 2011)" esm:quality="good">
		<comp name="00.HNE" depth="0.0">
			<acc value="0.0154540236826635" flag="0"/>
			<vel value="0.00517208405072863" flag="0"/>
			<psa03 value="0.0491269428668624" flag="0"/>
			<psa10 value="0.00256909750402116" flag="0"/>
			<psa30 value="0.000603572367280486" flag="0"/>
		</comp>
		<comp name="00.HNN" depth="0.0">
			<acc value="0.0190503516371057" flag="0"/>
			<vel value="0.00666234737029487" flag="0"/>
			<psa03 value="0.0496638493462817" flag="0"/>
			<psa10 value="0.00426437971278748" flag="0"/>
			<psa30 value="0.000379861334189127" flag="0"/>
		</comp>
		<comp name="00.HNZ" depth="0.0">
			<acc value="0.0121647844397253" flag="0"/>
			<vel value="0.00317356587637208" flag="0"/>
			<psa03 value="0.0129752399192988" flag="0"/>
			<psa10 value="0.00217447124164801" flag="0"/>
			<psa30 value="0.000356595386747626" flag="0"/>
		</comp>
	</station>
	<station code="TRIZ" name="TRIZ" netid="CL" source="Corinth Riff Laboratory (CRLNET)" insttype="" lat="38.36543" lon="22.07272" esm:processing="manual (Paolucci et al 2011)" esm:quality="good">
		<comp name="00.HNE" depth="0.0">
			<acc value="0.0193676377004465" flag="0"/>
			<vel value="0.00815226442434313" flag="0"/>
			<psa03 value="0.0692161936384664" flag="0"/>
			<psa10 value="0.00622140383027069" flag="0"/>
			<psa30 value="0.000614757918935054" flag="0"/>
		</comp>
		<comp name="00.HNN" depth="0.0">
			<acc value="0.0179621515836257" flag="0"/>
			<vel value="0.00610269567298432" flag="0"/>
			<psa03 value="0.0393283996174609" flag="0"/>
			<psa10 value="0.00366438672203646" flag="0"/>
			<psa30 value="0.000821914335577652" flag="0"/>
		</comp>
		<comp name="00.HNZ" depth="0.0">
			<acc value="0.0174065835948561" flag="0"/>
			<vel value="0.00475033323550495" flag="0"/>
			<psa03 value="0.0142727639112287" flag="0"/>
			<psa10 value="0.00336640362595877" flag="0"/>
			<psa30 value="0.000479636454947873" flag="0"/>
		</comp>
	</station>
	<station code="AIG2" name="AIG2" netid="HI" source="ITSAK Strong Motion Network" insttype="" lat="38.2417" lon="22.0726" esm:processing="automatic (Paolucci et al 2011)" esm:quality="best">
		<comp name="--.HNE" depth="0.0">
			<acc value="0.0260969421152747" flag="0"/>
			<vel value="0.00612836609409182" flag="0"/>
			<psa03 value="0.0222057887328565" flag="0"/>
			<psa10 value="0.00516952479939725" flag="0"/>
			<psa30 value="0.000866267698483603" flag="0"/>
		</comp>
		<comp name="--.HNN" depth="0.0">
			<acc value="0.0188281288150324" flag="0"/>
			<vel value="0.00450480058685476" flag="0"/>
			<psa03 value="0.0190830415015948" flag="0"/>
			<psa10 value="0.00315339545947313" flag="0"/>
			<psa30 value="0.000727191922896019" flag="0"/>
		</comp>
		<comp name="--.HNZ" depth="0.0">
			<acc value="0.0139810085941787" flag="0"/>
			<vel value="0.00279363598344395" flag="0"/>
			<psa03 value="0.0114908432432207" flag="0"/>
			<psa10 value="0.00356604443606765" flag="0"/>
			<psa30 value="0.000537709683127565" flag="0"/>
		</comp>
	</station>
	<station code="AKR1" name="AKR1" netid="HI" source="ITSAK Strong Motion Network" insttype="" lat="38.153583" lon="22.31326" esm:processing="automatic (Paolucci et al 2011)" esm:quality="best">
		<comp name="--.HNE" depth="0.0">
			<acc value="0.0558492528466162" flag="0"/>
			<vel value="0.0168580875633303" flag="0"/>
			<psa03 value="0.0825039759001615" flag="0"/>
			<psa10 value="0.0152535270338056" flag="0"/>
			<psa30 value="0.00121400042156992" flag="0"/>
		</comp>
		<comp name="--.HNN" depth="0.0">
			<acc value="0.0637887560030063" flag="0"/>
			<vel value="0.0128762165169042" flag="0"/>
			<psa03 value="0.0769104959845685" flag="0"/>
			<psa10 value="0.0116851647098142" flag="0"/>
			<psa30 value="0.00104624076664944" flag="0"/>
		</comp>
		<comp name="--.HNZ" depth="0.0">
			<acc value="0.0362125238723525" flag="0"/>
			<vel value="0.00772491093569718" flag="0"/>
			<psa03 value="0.0375500604238836" flag="0"/>
			<psa10 value="0.00798062148950682" flag="0"/>
			<psa30 value="0.000700431035535233" flag="0"/>
		</comp>
	</station>
	<station code="AOL1" name="AOL1" netid="HI" source="ITSAK Strong Motion Network" insttype="" lat="37.642378" lon="21.624555" esm:processing="automatic (Paolucci et al 2011)" esm:quality="best">
		<comp name="--.HNE" depth="0.0">
			<acc value="0.00652092291616391" flag="0"/>
			<vel value="0.00512244997558335" flag="0"/>
			<psa03 value="0.0129669097753843" flag="0"/>
			<psa10 value="0.00755334912230944" flag="0"/>
			<psa30 value="0.000769764378528936" flag="0"/>
		</comp>
		<comp name="--.HNN" depth="0.0">
			<acc value="0.00553947347419678" flag="0"/>
			<vel value="0.0043956928123673" flag="0"/>
			<psa03 value="0.0147720527947502" flag="0"/>
			<psa10 value="0.00639491706937122" flag="0"/>
			<psa30 value="0.00115542643716426" flag="0"/>
		</comp>
		<comp name="--.HNZ" depth="0.0">
			<acc value="0.00343840247735126" flag="0"/>
			<vel value="0.00278046031026547" flag="0"/>
			<psa03 value="0.0105022686404216" flag="0"/>
			<psa10 value="0.00529121661088252" flag="0"/>
			<psa30 value="0.000413565078948475" flag="0"/>
		</comp>
	</station>
	<station code="ARG2" name="ARG2" netid="HI" source="ITSAK Strong Motion Network" insttype="" lat="38.1783" lon="20.4878" esm:processing="manual (Paolucci et al 2011)" esm:quality="good">
		<comp name="--.HNE" depth="0.0">
			<acc value="0.00159973825061292" flag="0"/>
			<vel value="0.000698708819714376" flag="0"/>
			<psa03 value="0.0046684176581867" flag="0"/>
			<psa10 value="0.00104711682728842" flag="0"/>
			<psa30 value="0.000134978577085052" flag="0"/>
		</comp>
		<comp name="--.HNN" depth="0.0">
			<acc value="0.0019579460425998" flag="0"/>
			<vel value="0.000936148867862115" flag="0"/>
			<psa03 value="0.00395081836295338" flag="0"/>
			<psa10 value="0.000955586740431313" flag="0"/>
			<psa30 value="8.92753346258016e-05" flag="0"/>
		</comp>
		<comp name="--.HNZ" depth="0.0">
			<acc value="0.00155536192816863" flag="0"/>
			<vel value="0.000557353573655802" flag="0"/>
			<psa03 value="0.00326243031270507" flag="0"/>
			<psa10 value="0.000593499902391276" flag="0"/>
			<psa30 value="8.07399384683624e-05" flag="0"/>
		</comp>
	</station>
	<station code="ARS1" name="ARS1" netid="HI" source="ITSAK Strong Motion Network" insttype="" lat="37.6349" lon="22.7293" esm:processing="manual (Paolucci et al 2011)" esm:quality="best">
		<comp name="--.HNE" depth="0.0">
			<acc value="0.0136827285051124" flag="0"/>
			<vel value="0.00691967072414845" flag="0"/>
			<psa03 value="0.039015204171133" flag="0"/>
			<psa10 value="0.0102522292245108" flag="0"/>
			<psa30 value="0.000691714514318481" flag="0"/>
		</comp>
		<comp name="--.HNN" depth="0.0">
			<acc value="0.017210804979787" flag="0"/>
			<vel value="0.00810852684996251" flag="0"/>
			<psa03 value="0.0537801323551627" flag="0"/>
			<psa10 value="0.012096502981316" flag="0"/>
			<psa30 value="0.0013203425173052" flag="0"/>
		</comp>
		<comp name="--.HNZ" depth="0.0">
			<acc value="0.0110867947801785" flag="0"/>
			<vel value="0.00430148025313074" flag="0"/>
			<psa03 value="0.0429972605601592" flag="0"/>
			<psa10 value="0.0023999719630041" flag="0"/>
			<psa30 value="0.000718112416223262" flag="0"/>
		</comp>
	</station>
	<station code="AST1" name="AST1" netid="HI" source="ITSAK Strong Motion Network" insttype="" lat="38.5416" lon="21.0895" esm:processing="manual (Paolucci et al 2011)" esm:quality="good">
		<comp name="--.HNE" depth="0.0">
			<acc value="0.00182888899532916" flag="0"/>
			<vel value="0.00120571705369047" flag="0"/>
			<psa03 value="0.00592086618666009" flag="0"/>
			<psa10 value="0.00250208067243997" flag="0"/>
			<psa30 value="0.000190090730598818" flag="0"/>
		</comp>
		<comp name="--.HNN" depth="0.0">
			<acc value="0.00181070902893445" flag="0"/>
			<vel value="0.00149596111720676" flag="0"/>
			<psa03 value="0.00716267240856116" flag="0"/>
			<psa10 value="0.00229853781372452" flag="0"/>
			<psa30 value="0.000240546247508358" flag="0"/>
		</comp>
		<comp name="--.HNZ" depth="0.0">
			<acc value="0.00208597222197538" flag="0"/>
			<vel value="0.00114273973567547" flag="0"/>
			<psa03 value="0.00407902314495205" flag="0"/>
			<psa10 value="0.00150283236776885" flag="0"/>
			<psa30 value="0.000131574445327936" flag="0"/>
		</comp>
	</station>
	<station code="FRS1" name="FRS1" netid="HI" source="ITSAK Strong Motion Network" insttype="" lat="39.2934" lon="22.3844" esm:processing="manual (Paolucci et al 2011)" esm:quality="good">
		<comp name="--.HNE" depth="0.0">
			<acc value="0.00185049881960557" flag="0"/>
			<vel value="0.00113612194347887" flag="0"/>
			<psa03 value="0.00590059466147937" flag="0"/>
			<psa10 value="0.00196733274801439" flag="0"/>
			<psa30 value="0.000359252053893786" flag="0"/>
		</comp>
		<comp name="--.HNN" depth="0.0">
			<acc value="0.00239648478808098" flag="0"/>
			<vel value="0.00173544885693974" flag="0"/>
			<psa03 value="0.00525947439092874" flag="0"/>
			<psa10 value="0.00322194507867397" flag="0"/>
			<psa30 value="0.0002720325781149" flag="0"/>
		</comp>
		<comp name="--.HNZ" depth="0.0">
			<acc value="0.00246019619060445" flag="0"/>
			<vel value="0.00134902738965216" flag="0"/>
			<psa03 value="0.00891244392129478" flag="0"/>
			<psa10 value="0.00130121502723452" flag="0"/>
			<psa30 value="0.000399351845724862" flag="0"/>
		</comp>
	</station>
	<station code="GTH2" name="GTH2" netid="HI" source="ITSAK Strong Motion Network" insttype="" lat="36.7603" lon="22.5659" esm:processing="manual (Paolucci et al 2011)" esm:quality="good">
		<comp name="--.HNE" depth="0.0">
			<acc value="0.00483795686026753" flag="0"/>
			<vel value="0.00381348962630761" flag="0"/>
			<psa03 value="0.0151960991149044" flag="0"/>
			<psa10 value="0.00369681770853015" flag="0"/>
			<psa30 value="0.000340095836971762" flag="0"/>
		</comp>
		<comp name="--.HNN" depth="0.0">
			<acc value="0.00380799593081603" flag="0"/>
			<vel value="0.00242361369504082" flag="0"/>
			<psa03 value="0.0132889050643253" flag="0"/>
			<psa10 value="0.00275002694141344" flag="0"/>
			<psa30 value="0.000336238029327605" flag="0"/>
		</comp>
		<comp name="--.HNZ" depth="0.0">
			<acc value="0.00367656691760798" flag="0"/>
			<vel value="0.00170638898992997" flag="0"/>
			<psa03 value="0.00916929166536395" flag="0"/>
			<psa10 value="0.00171635170768972" flag="0"/>
			<psa30 value="0.000273106607597415" flag="0"/>
		</comp>
	</station>
	<station code="ITE1" name="ITE1" netid="HI" source="ITSAK Strong Motion Network" insttype="" lat="38.4338" lon="22.4272" esm:processing="automatic (Paolucci et al 2011)" esm:quality="best">
		<comp name="--.HNE" depth="0.0">
			<acc value="0.287920019637284" flag="0"/>
			<vel value="0.065918660360789" flag="0"/>
			<psa03 value="0.306089026895825" flag="0"/>
			<psa10 value="0.0290777331321139" flag="0"/>
			<psa30 value="0.00170377234572289" flag="0"/>
		</comp>
		<comp name="--.HNN" depth="0.0">
			<acc value="0.186568074528119" flag="0"/>
			<vel value="0.0608127798250522" flag="0"/>
			<psa03 value="0.371002368752811" flag="0"/>
			<psa10 value="0.027766256253207" flag="0"/>
			<psa30 value="0.0020151309925385" flag="0"/>
		</comp>
		<comp name="--.HNZ" depth="0.0">
			<acc value="0.257637627131413" flag="0"/>
			<vel value="0.0456625092251273" flag="0"/>
			<psa03 value="0.215651952550158" flag="0"/>
			<psa10 value="0.0103857411293792" flag="0"/>
			<psa30 value="0.0013010910867324" flag="0"/>
		</comp>
	</station>
	<station code="KAC1" name="KAC1" netid="HI" source="ITSAK Strong Motion Network" insttype="" lat="38.143412" lon="21.549694" esm:processing="automatic (Paolucci et al 2011)" esm:quality="best">
		<comp name="--.HNE" depth="0.0">
			<acc value="0.0056467698368906" flag="0"/>
			<vel value="0.00494226293770562" flag="0"/>
			<psa03 value="0.017307772857093" flag="0"/>
			<psa10 value="0.00653290183518476" flag="0"/>
			<psa30 value="0.00159031305876862" flag="0"/>
		</comp>
		<comp name="--.HNN" depth="0.0">
			<acc value="0.00764806816438352" flag="0"/>
			<vel value="0.00460853610820519" flag="0"/>
			<psa03 value="0.0195882585634956" flag="0"/>
			<psa10 value="0.00682712195082346" flag="0"/>
			<psa30 value="0.00104452659059369" flag="0"/>
		</comp>
		<comp name="--.HNZ" depth="0.0">
			<acc value="0.00499495838699385" flag="0"/>
			<vel value="0.0025042550488894" flag="0"/>
			<psa03 value="0.0103297689319125" flag="0"/>
			<psa10 value="0.00526606603853054" flag="0"/>
			<psa30 value="0.000402430539256532" flag="0"/>
		</comp>
	</station>
	<station code="KAR2" name="KAR2" netid="HI" source="ITSAK Strong Motion Network" insttype="" lat="39.365759" lon="21.91933" esm:processing="manual (Paolucci et al 2011)" esm:quality="good">
		<comp name="--.HNE" depth="0.0">
			<acc value="0.00364330230346692" flag="0"/>
			<vel value="0.00363359466640033" flag="0"/>
			<psa03 value="0.0113704251098604" flag="0"/>
			<psa10 value="0.00769179282477528" flag="0"/>
			<psa30 value="0.00132302233123639" flag="0"/>
		</comp>
		<comp name="--.HNN" depth="0.0">
			<acc value="0.00461420465242729" flag="0"/>
			<vel value="0.00415209899827072" flag="0"/>
			<psa03 value="0.0125022618072368" flag="0"/>
			<psa10 value="0.00671544470900428" flag="0"/>
			<psa30 value="0.000983864134503689" flag="0"/>
		</comp>
		<comp name="--.HNZ" depth="0.0">
			<acc value="0.00302503453021379" flag="0"/>
			<vel value="0.00243605903105186" flag="0"/>
			<psa03 value="0.00631765614392242" flag="0"/>
			<psa10 value="0.00346380539760812" flag="0"/>
			<psa30 value="0.000505473953918709" flag="0"/>
		</comp>
	</station>
	<station code="KIF1" name="KIF1" netid="HI" source="ITSAK Strong Motion Network" insttype="" lat="38.077273" lon="23.814551" esm:processing="manual (Paolucci et al 2011)" esm:quality="good">
		<comp name="--.HNE" depth="0.0">
			<acc value="0.00850616230921054" flag="0"/>
			<vel value="0.00534015115301946" flag="0"/>
			<psa03 value="0.0173846295109691" flag="0"/>
			<psa10 value="0.00776618744055346" flag="0"/>
			<psa30 value="0.000465017836399472" flag="0"/>
		</comp>
		<comp name="--.HNN" depth="0.0">
			<acc value="0.00929362506016289" flag="0"/>
			<vel value="0.00467456059902203" flag="0"/>
			<psa03 value="0.0180755138203306" flag="0"/>
			<psa10 value="0.00940584527858821" flag="0"/>
			<psa30 value="0.000425125323924636" flag="0"/>
		</comp>
		<comp name="--.HNZ" depth="0.0">
			<acc value="0.00482965572091593" flag="0"/>
			<vel value="0.00315564939042126" flag="0"/>
			<psa03 value="0.00984107705326561" flag="0"/>
			<psa10 value="0.00892639382978275" flag="0"/>
			<psa30 value="0.000354768762106041" flag="0"/>
		</comp>
	</station>
	<station code="KLV1" name="KLV1" netid="HI" source="ITSAK Strong Motion Network" insttype="" lat="38.03256" lon="22.10797" esm:processing="manual (Paolucci et al 2011)" esm:quality="best">
		<comp name="--.HNE" depth="0.0">
			<acc value="0.0228312618069416" flag="0"/>
			<vel value="0.00674907203100192" flag="0"/>
			<psa03 value="0.0472030279822767" flag="0"/>
			<psa10 value="0.00368452071501468" flag="0"/>
			<psa30 value="0.000436683936594332" flag="0"/>
		</comp>
		<comp name="--.HNN" depth="0.0">
			<acc value="0.0286298621190372" flag="0"/>
			<vel value="0.00794264171836089" flag="0"/>
			<psa03 value="0.0438921046925246" flag="0"/>
			<psa10 value="0.00364827952765388" flag="0"/>
			<psa30 value="0.000303799582938065" flag="0"/>
		</comp>
		<comp name="--.HNZ" depth="0.0">
			<acc value="0.0158985108470676" flag="0"/>
			<vel value="0.00374117746674833" flag="0"/>
			<psa03 value="0.0129752399192988" flag="0"/>
			<psa10 value="0.0031247957102201" flag="0"/>
			<psa30 value="0.000469793169491853" flag="0"/>
		</comp>
	</station>
	<station code="KMV1" name="KMV1" netid="HI" source="ITSAK Strong Motion Network" insttype="" lat="38.7794" lon="22.7846" esm:processing="automatic (Paolucci et al 2011)" esm:quality="best">
		<comp name="--.HNE" depth="0.0">
			<acc value="0.0888002478986768" flag="0"/>
			<vel value="0.0325605412017419" flag="0"/>
			<psa03 value="0.289962583598101" flag="0"/>
			<psa10 value="0.028693585809239" flag="0"/>
			<psa30 value="0.00124049290573365" flag="0"/>
		</comp>
		<comp name="--.HNN" depth="0.0">
			<acc value="0.0813990754622567" flag="0"/>
			<vel value="0.0386449158658615" flag="0"/>
			<psa03 value="0.195854474397725" flag="0"/>
			<psa10 value="0.0339641549585786" flag="0"/>
			<psa30 value="0.00254169629157198" flag="0"/>
		</comp>
		<comp name="--.HNZ" depth="0.0">
			<acc value="0.0476357775376516" flag="0"/>
			<vel value="0.0194766040851787" flag="0"/>
			<psa03 value="0.12184423824947" flag="0"/>
			<psa10 value="0.0154083297887283" flag="0"/>
			<psa30 value="0.00104760544038571" flag="0"/>
		</comp>
	</station>
	<station code="KOR2" name="KOR2" netid="HI" source="ITSAK Strong Motion Network" insttype="" lat="37.9401" lon="22.9495" esm:processing="automatic (Paolucci et al 2011)" esm:quality="best">
		<comp name="--.HNE" depth="0.0">
			<acc value="0.0626534757462051" flag="0"/>
			<vel value="0.0234617799017232" flag="0"/>
			<psa03 value="0.0960694891321704" flag="0"/>
			<psa10 value="0.0396088788938364" flag="0"/>
			<psa30 value="0.00243332036219854" flag="0"/>
		</comp>
		<comp name="--.HNN" depth="0.0">
			<acc value="0.0663961288181347" flag="0"/>
			<vel value="0.0272328243431842" flag="0"/>
			<psa03 value="0.0937716077421391" flag="0"/>
			<psa10 value="0.0512995245917392" flag="0"/>
			<psa30 value="0.00320327303445102" flag="0"/>
		</comp>
		<comp name="--.HNZ" depth="0.0">
			<acc value="0.0457090441365647" flag="0"/>
			<vel value="0.0154500672142823" flag="0"/>
			<psa03 value="0.0695414557384842" flag="0"/>
			<psa10 value="0.0366075438201176" flag="0"/>
			<psa30 value="0.00114166979668767" flag="0"/>
		</comp>
	</station>
	<station code="KRI1" name="KRI1" netid="HI" source="ITSAK Strong Motion Network" insttype="" lat="37.6621" lon="20.8172" esm:processing="manual (Paolucci et al 2011)" esm:quality="good">
		<comp name="--.HNE" depth="0.0">
			<acc value="0.00120797555668615" flag="0"/>
			<vel value="0.00119925773602903" flag="0"/>
			<psa03 value="0.00359541623857453" flag="0"/>
			<psa10 value="0.00293468284583387" flag="0"/>
			<psa30 value="0.000164671403463802" flag="0"/>
		</comp>
		<comp name="--.HNN" depth="0.0">
			<acc value="0.00165560065967916" flag="0"/>
			<vel value="0.00170394007591989" flag="0"/>
			<psa03 value="0.00499648398734451" flag="0"/>
			<psa10 value="0.00327590740341309" flag="0"/>
			<psa30 value="0.000198876703251237" flag="0"/>
		</comp>
		<comp name="--.HNZ" depth="0.0">
			<acc value="0.00138266542992351" flag="0"/>
			<vel value="0.000632550055660956" flag="0"/>
			<psa03 value="0.00261938966754412" flag="0"/>
			<psa10 value="0.00118128184787493" flag="0"/>
			<psa30 value="8.90022371074615e-05" flag="0"/>
		</comp>
	</station>
	<station code="KYM1" name="KYM1" netid="HI" source="ITSAK Strong Motion Network" insttype="" lat="38.633885" lon="24.10568" esm:processing="automatic (Paolucci et al 2011)" esm:quality="best">
		<comp name="--.HNE" depth="0.0">
			<acc value="0.0117002003679394" flag="0"/>
			<vel value="0.00597823206390004" flag="0"/>
			<psa03 value="0.0360808354907757" flag="0"/>
			<psa10 value="0.00859146945518666" flag="0"/>
			<psa30 value="0.000323419263480613" flag="0"/>
		</comp>
		<comp name="--.HNN" depth="0.0">
			<acc value="0.0172342963645941" flag="0"/>
			<vel value="0.00793983161843925" flag="0"/>
			<psa03 value="0.0353558499640426" flag="0"/>
			<psa10 value="0.010211879611907" flag="0"/>
			<psa30 value="0.000434532665864871" flag="0"/>
		</comp>
		<comp name="--.HNZ" depth="0.0">
			<acc value="0.00717778608294314" flag="0"/>
			<vel value="0.00493208089957622" flag="0"/>
