<?xml version="1.0" encoding="UTF-8" standalone="yes"?>
<!DOCTYPE earthquake SYSTEM "stationlist.dtd">
<stationlist created="" xmlns="ch.ethz.sed.shakemap.usgs.xml">
  <station code="AGRP" name="AGRP" netid="CL" source="RESIF" insttype="60" lat="38.3959" lon="21.7228">
    <comp name="00.HHE">
      <acc value="0.0073378688" flag="0"/>
      <vel value="0.0026632956" flag="0"/>
      <psa03 value="0.0147176650" flag="0"/>
      <psa10 value="0.0041718500" flag="0"/>
      <psa30 value="0.0003089754" flag="0"/>
    </comp>
    <comp name="00.HHN">
      <acc value="0.0056325285" flag="0"/>
      <vel value="0.0028884295" flag="0"/>
      <psa03 value="0.0090683913" flag="0"/>
      <psa10 value="0.0029613956" flag="0"/>
      <psa30 value="0.0003041318" flag="0"/>
    </comp>
    <comp name="00.HHZ">
      <acc value="0.0056808742" flag="0"/>
      <vel value="0.0023514777" flag="0"/>
      <psa03 value="0.0076788904" flag="0"/>
      <psa10 value="0.0016219086" flag="0"/>
      <psa30 value="0.0001383056" flag="0"/>
    </comp>
  </station>
  <station code="MALA" name="MALA" netid="CL" source="RESIF" insttype="30" lat="38.3935" lon="21.8726">
    <comp name="00.HH2">
      <acc value="0.0041945431" flag="0"/>
      <vel value="0.0024383215" flag="0"/>
      <psa03 value="0.0086441420" flag="0"/>
      <psa10 value="0.0027775067" flag="0"/>
      <psa30 value="0.0005585563" flag="0"/>
    </comp>
    <comp name="00.HH3">
      <acc value="0.0048445674" flag="0"/>
      <vel value="0.0026884415" flag="0"/>
      <psa03 value="0.0131835979" flag="0"/>
      <psa10 value="0.0036341952" flag="0"/>
      <psa30 value="0.0007094967" flag="0"/>
    </comp>
    <comp name="00.HHZ">
      <acc value="0.0036483424" flag="0"/>
      <vel value="0.0017246694" flag="0"/>
      <psa03 value="0.0075665997" flag="0"/>
      <psa10 value="0.0036967603" flag="0"/>
      <psa30 value="0.0003458487" flag="0"/>
    </comp>
  </station>
  <station code="MG00" name="MG00" netid="CL" source="RESIF" insttype="40" lat="38.4145" lon="21.9467">
    <comp name="00.HHE">
      <acc value="0.0301498567" flag="0"/>
      <vel value="0.0084625997" flag="0"/>
      <psa03 value="0.0512855311" flag="0"/>
      <psa10 value="0.0045247809" flag="0"/>
      <psa30 value="0.0003163037" flag="0"/>
    </comp>
    <comp name="00.HHN">
      <acc value="0.0245532895" flag="0"/>
      <vel value="0.0107244819" flag="0"/>
      <psa03 value="0.0494659769" flag="0"/>
      <psa10 value="0.0046258761" flag="0"/>
      <psa30 value="0.0007449467" flag="0"/>
    </comp>
    <comp name="00.HHZ">
      <acc value="0.0214739245" flag="0"/>
      <vel value="0.0060008736" flag="0"/>
      <psa03 value="0.0214700798" flag="0"/>
      <psa10 value="0.0027144333" flag="0"/>
      <psa30 value="0.0002408170" flag="0"/>
    </comp>
  </station>
  <station code="MG02" name="MG02" netid="CL" source="RESIF" insttype="40" lat="38.415" lon="21.947">
    <comp name="02.HHE">
      <acc value="0.0308012790" flag="0"/>
      <vel value="0.0080476218" flag="0"/>
      <psa03 value="0.0397571699" flag="0"/>
      <psa10 value="0.0055451373" flag="0"/>
      <psa30 value="0.0003435226" flag="0"/>
    </comp>
    <comp name="02.HHN">
      <acc value="0.0333230078" flag="0"/>
      <vel value="0.0104514545" flag="0"/>
      <psa03 value="0.0515321635" flag="0"/>
      <psa10 value="0.0059088797" flag="0"/>
      <psa30 value="0.0007521123" flag="0"/>
    </comp>
    <comp name="02.HHZ">
      <acc value="0.0127914915" flag="0"/>
      <vel value="0.0035394557" flag="0"/>
      <psa03 value="0.0160260514" flag="0"/>
      <psa10 value="0.0027660681" flag="0"/>
      <psa30 value="0.0002469772" flag="0"/>
    </comp>
  </station>
  <station code="MG03" name="MG03" netid="CL" source="RESIF" insttype="40" lat="38.4141" lon="21.946">
    <comp name="03.HHE">
      <acc value="0.0215537333" flag="0"/>
      <vel value="0.0074461827" flag="0"/>
      <psa03 value="0.0275423445" flag="0"/>
      <psa10 value="0.0038472690" flag="0"/>
      <psa30 value="0.0002528704" flag="0"/>
    </comp>
    <comp name="03.HHN">
      <acc value="0.0091509897" flag="0"/>
      <vel value="0.0030547324" flag="0"/>
      <psa03 value="0.0152483025" flag="0"/>
      <psa10 value="0.0015233708" flag="0"/>
      <psa30 value="0.0003405092" flag="0"/>
    </comp>
    <comp name="03.HHZ">
      <acc value="0.0094604855" flag="0"/>
      <vel value="0.0027063722" flag="0"/>
      <psa03 value="0.0112154111" flag="0"/>
      <psa10 value="0.0023798956" flag="0"/>
      <psa30 value="0.0002314529" flag="0"/>
    </comp>
  </station>
  <station code="MG04" name="MG04" netid="CL" source="RESIF" insttype="40" lat="38.4142" lon="21.9481">
    <comp name="04.HHE">
      <acc value="0.0210146889" flag="0"/>
      <vel value="0.0083755453" flag="0"/>
      <psa03 value="0.0267519869" flag="0"/>
      <psa10 value="0.0045015489" flag="0"/>
      <psa30 value="0.0002602823" flag="0"/>
    </comp>
    <comp name="04.HHN">
      <acc value="0.0268860902" flag="0"/>
      <vel value="0.0062633684" flag="0"/>
      <psa03 value="0.0425826795" flag="0"/>
      <psa10 value="0.0034941068" flag="0"/>
      <psa30 value="0.0006976977" flag="0"/>
    </comp>
    <comp name="04.HHZ">
      <acc value="0.0154678935" flag="0"/>
      <vel value="0.0044662317" flag="0"/>
      <psa03 value="0.0167983624" flag="0"/>
      <psa10 value="0.0027326606" flag="0"/>
      <psa30 value="0.0002482534" flag="0"/>
    </comp>
  </station>
  <station code="MG05" name="MG05" netid="CL" source="RESIF" insttype="60" lat="38.4155" lon="21.9458">
    <comp name="05.HHE">
      <acc value="0.0406826586" flag="0"/>
      <vel value="0.0121950445" flag="0"/>
      <psa03 value="0.0699715006" flag="0"/>
      <psa10 value="0.0103807546" flag="0"/>
      <psa30 value="0.0011670225" flag="0"/>
    </comp>
    <comp name="05.HHN">
      <acc value="0.0385712405" flag="0"/>
      <vel value="0.0173747898" flag="0"/>
      <psa03 value="0.0897341831" flag="0"/>
      <psa10 value="0.0137429378" flag="0"/>
      <psa30 value="0.0010598315" flag="0"/>
    </comp>
    <comp name="05.HHZ">
      <acc value="0.0248016966" flag="0"/>
      <vel value="0.0072232904" flag="0"/>
      <psa03 value="0.0425439941" flag="0"/>
      <psa10 value="0.0074625398" flag="0"/>
      <psa30 value="0.0004671394" flag="0"/>
    </comp>
  </station>
  <station code="MG06" name="MG06" netid="CL" source="RESIF" insttype="40" lat="38.4129" lon="21.9462">
    <comp name="06.HHE">
      <acc value="0.0135771097" flag="0"/>
      <vel value="0.0035249696" flag="0"/>
      <psa03 value="0.0152795127" flag="0"/>
      <psa10 value="0.0020319520" flag="0"/>
      <psa30 value="0.0006588585" flag="0"/>
    </comp>
    <comp name="06.HHN">
      <acc value="0.0140789661" flag="0"/>
      <vel value="0.0032995146" flag="0"/>
      <psa03 value="0.0138980110" flag="0"/>
      <psa10 value="0.0033079323" flag="0"/>
      <psa30 value="0.0002404827" flag="0"/>
    </comp>
    <comp name="06.HHZ">
      <acc value="0.0074437626" flag="0"/>
      <vel value="0.0023214020" flag="0"/>
      <psa03 value="0.0096774785" flag="0"/>
      <psa10 value="0.0024324267" flag="0"/>
      <psa30 value="0.0002274097" flag="0"/>
    </comp>
  </station>
  <station code="MG07" name="MG07" netid="CL" source="RESIF" insttype="40" lat="38.4155" lon="21.9488">
    <comp name="07.HHE">
      <acc value="0.0246378851" flag="0"/>
      <vel value="0.0093716365" flag="0"/>
      <psa03 value="0.0277743855" flag="0"/>
      <psa10 value="0.0070223781" flag="0"/>
      <psa30 value="0.0004528101" flag="0"/>
    </comp>
    <comp name="07.HHN">
      <acc value="0.0276956625" flag="0"/>
      <vel value="0.0103782119" flag="0"/>
      <psa03 value="0.0483660639" flag="0"/>
      <psa10 value="0.0085045991" flag="0"/>
      <psa30 value="0.0007405290" flag="0"/>
    </comp>
    <comp name="07.HHZ">
      <acc value="0.0116808775" flag="0"/>
      <vel value="0.0042876530" flag="0"/>
      <psa03 value="0.0239152929" flag="0"/>
      <psa10 value="0.0030107745" flag="0"/>
      <psa30 value="0.0002624636" flag="0"/>
    </comp>
  </station>
  <station code="PSAM" name="PSAM" netid="CL" source="RESIF" insttype="60" lat="38.3322" lon="22.1843">
    <comp name="00.HHE">
      <acc value="0.0197921420" flag="0"/>
      <vel value="0.0060258206" flag="0"/>
      <psa03 value="0.0226154534" flag="0"/>
      <psa10 value="0.0092767425" flag="0"/>
      <psa30 value="0.0007874795" flag="0"/>
    </comp>
    <comp name="00.HHN">
      <acc value="0.0136051773" flag="0"/>
      <vel value="0.0068431247" flag="0"/>
      <psa03 value="0.0219417059" flag="0"/>
      <psa10 value="0.0098110655" flag="0"/>
      <psa30 value="0.0013913767" flag="0"/>
    </comp>
    <comp name="00.HHZ">
      <acc value="0.0196718725" flag="0"/>
      <vel value="0.0040453008" flag="0"/>
      <psa03 value="0.0113051390" flag="0"/>
      <psa10 value="0.0035436673" flag="0"/>
      <psa30 value="0.0005232134" flag="0"/>
    </comp>
  </station>
  <station code="ROD3" name="ROD3" netid="CL" source="RESIF" insttype="60" lat="38.3081" lon="21.892">
    <comp name="00.HHE">
      <acc value="0.0183539962" flag="0"/>
      <vel value="0.0063329403" flag="0"/>
      <psa03 value="0.0636823566" flag="0"/>
      <psa10 value="0.0034690149" flag="0"/>
      <psa30 value="0.0007483749" flag="0"/>
    </comp>
    <comp name="00.HHN">
      <acc value="0.0217416892" flag="0"/>
      <vel value="0.0077782752" flag="0"/>
      <psa03 value="0.0556795511" flag="0"/>
      <psa10 value="0.0050601713" flag="0"/>
      <psa30 value="0.0003577194" flag="0"/>
    </comp>
    <comp name="00.HHZ">
      <acc value="0.0150383042" flag="0"/>
      <vel value="0.0040780397" flag="0"/>
      <psa03 value="0.0164905469" flag="0"/>
      <psa10 value="0.0028395227" flag="0"/>
      <psa30 value="0.0004370067" flag="0"/>
    </comp>
  </station>
  <station code="TRIZ" name="TRIZ" netid="CL" source="RESIF" insttype="generation" lat="38.3654" lon="22.0727">
    <comp name="00.HH2">
      <acc value="0.0121775142" flag="0"/>
      <vel value="0.0046191435" flag="0"/>
      <psa03 value="0.0423748488" flag="0"/>
      <psa10 value="0.0038949416" flag="0"/>
      <psa30 value="0.0003102409" flag="0"/>
    </comp>
    <comp name="00.HH3">
      <acc value="0.0054918607" flag="0"/>
      <vel value="0.0017493947" flag="0"/>
      <psa03 value="0.0112023742" flag="0"/>
      <psa10 value="0.0010562000" flag="0"/>
      <psa30 value="0.0002193640" flag="0"/>
    </comp>
    <comp name="00.HHZ">
      <acc value="0.0051747836" flag="0"/>
      <vel value="0.0012245105" flag="0"/>
      <psa03 value="0.0041291272" flag="0"/>
      <psa10 value="0.0009551598" flag="0"/>
      <psa30 value="0.0001199550" flag="0"/>
    </comp>
  </station>
  <station code="KALE" name="KALE" netid="HA" source="NOA" insttype="120" lat="38.3911" lon="22.1398">
    <comp name="--.HHE">
      <acc value="0.0324318441" flag="0"/>
      <vel value="0.0107256426" flag="0"/>
      <psa03 value="0.0325795127" flag="0"/>
      <psa10 value="0.0068110734" flag="0"/>
      <psa30 value="0.0006985640" flag="0"/>
    </comp>
    <comp name="--.HHN">
      <acc value="0.0299884907" flag="0"/>
      <vel value="0.0095374140" flag="0"/>
      <psa03 value="0.0389308768" flag="0"/>
      <psa10 value="0.0096963839" flag="0"/>
      <psa30 value="0.0006614319" flag="0"/>
    </comp>
    <comp name="--.HHZ">
      <acc value="0.0218362827" flag="0"/>
      <vel value="0.0045515415" flag="0"/>
      <psa03 value="0.0285191532" flag="0"/>
      <psa10 value="0.0025529237" flag="0"/>
      <psa30 value="0.0004055596" flag="0"/>
    </comp>
  </station>
  <station code="LAKA" name="LAKA" netid="HA" source="NOA" insttype="120" lat="38.2401" lon="21.9785">
    <comp name="--.HHE">
      <acc value="0.0061893004" flag="0"/>
      <vel value="0.0011970277" flag="0"/>
      <psa03 value="0.0049048218" flag="0"/>
      <psa10 value="0.0014792203" flag="0"/>
      <psa30 value="0.0003313005" flag="0"/>
    </comp>
    <comp name="--.HHN">
      <acc value="0.0044946925" flag="0"/>
      <vel value="0.0014084149" flag="0"/>
      <psa03 value="0.0048188455" flag="0"/>
      <psa10 value="0.0015457019" flag="0"/>
      <psa30 value="0.0002266047" flag="0"/>
    </comp>
    <comp name="--.HHZ">
      <acc value="0.0048996667" flag="0"/>
      <vel value="0.0014828907" flag="0"/>
      <psa03 value="0.0040198692" flag="0"/>
      <psa10 value="0.0014627314" flag="0"/>
      <psa30 value="0.0002804845" flag="0"/>
    </comp>
  </station>
  <station code="ATH" name="ATH" netid="HL" source="NOA" insttype="DR24" lat="37.9738" lon="23.7177">
    <comp name="--.HHE">
      <acc value="0.0108513033" flag="0"/>
      <vel value="0.0059299373" flag="0"/>
      <psa03 value="0.0304587200" flag="0"/>
      <psa10 value="0.0080755658" flag="0"/>
      <psa30 value="0.0003876644" flag="0"/>
    </comp>
    <comp name="--.HHN">
      <acc value="0.0077323279" flag="0"/>
      <vel value="0.0047456864" flag="0"/>
      <psa03 value="0.0258660945" flag="0"/>
      <psa10 value="0.0065103889" flag="0"/>
      <psa30 value="0.0004260456" flag="0"/>
    </comp>
    <comp name="--.HHZ">
      <acc value="0.0073694526" flag="0"/>
      <vel value="0.0040572490" flag="0"/>
      <psa03 value="0.0168300777" flag="0"/>
      <psa10 value="0.0046029401" flag="0"/>
      <psa30 value="0.0002592552" flag="0"/>
    </comp>
  </station>
  <station code="DLFA" name="DLFA" netid="HL" source="NOA" insttype="CMG-5" lat="38.4784" lon="22.4958">
    <comp name="00.HNE">
      <acc value="0.1476836255" flag="0"/>
      <vel value="0.0245459574" flag="0"/>
      <psa03 value="0.1072062389" flag="0"/>
      <psa10 value="0.0066984391" flag="0"/>
      <psa30 value="0.0009409897" flag="0"/>
    </comp>
    <comp name="00.HNN">
      <acc value="0.1305686759" flag="0"/>
      <vel value="0.0270338679" flag="0"/>
      <psa03 value="0.1660486211" flag="0"/>
      <psa10 value="0.0072432151" flag="0"/>
      <psa30 value="0.0007624242" flag="0"/>
    </comp>
    <comp name="00.HNZ">
      <acc value="0.1261185364" flag="0"/>
      <vel value="0.0322630652" flag="0"/>
      <psa03 value="0.1134002422" flag="0"/>
      <psa10 value="0.0067467767" flag="0"/>
      <psa30 value="0.0008762509" flag="0"/>
    </comp>
  </station>
  <station code="EVR" name="EVR" netid="HL" source="NOA" insttype="DR24" lat="38.9166" lon="21.8105">
    <comp name="--.HHE">
      <acc value="0.0051675045" flag="0"/>
      <vel value="0.0040350458" flag="0"/>
      <psa03 value="0.0113523582" flag="0"/>
      <psa10 value="0.0063104337" flag="0"/>
      <psa30 value="0.0003257083" flag="0"/>
    </comp>
    <comp name="--.HHN">
      <acc value="0.0044884767" flag="0"/>
      <vel value="0.0031065406" flag="0"/>
      <psa03 value="0.0092056280" flag="0"/>
      <psa10 value="0.0032166571" flag="0"/>
      <psa30 value="0.0005714419" flag="0"/>
    </comp>
    <comp name="--.HHZ">
      <acc value="0.0041610034" flag="0"/>
      <vel value="0.0026676813" flag="0"/>
      <psa03 value="0.0064992095" flag="0"/>
      <psa10 value="0.0054843065" flag="0"/>
      <psa30 value="0.0003925573" flag="0"/>
    </comp>
  </station>
  <station code="KLV" name="KLV" netid="HL" source="NOA" insttype="120" lat="38.0435" lon="22.1504">
    <comp name="--.HHE">
      <acc value="0.0151309981" flag="0"/>
      <vel value="0.0026948261" flag="0"/>
      <psa03 value="0.0121401895" flag="0"/>
      <psa10 value="0.0026993967" flag="0"/>
      <psa30 value="0.0003136884" flag="0"/>
    </comp>
    <comp name="--.HHN">
      <acc value="0.0142191215" flag="0"/>
      <vel value="0.0024241105" flag="0"/>
      <psa03 value="0.0093889745" flag="0"/>
      <psa10 value="0.0015535467" flag="0"/>
      <psa30 value="0.0002011695" flag="0"/>
    </comp>
    <comp name="--.HHZ">
      <acc value="0.0100705447" flag="0"/>
      <vel value="0.0025526884" flag="0"/>
      <psa03 value="0.0071784735" flag="0"/>
      <psa10 value="0.0026060165" flag="0"/>
      <psa30 value="0.0004472475" flag="0"/>
    </comp>
  </station>
  <station code="LKR" name="LKR" netid="HL" source="NOA" insttype="30" lat="38.6496" lon="22.9989">
    <comp name="--.HHE">
      <acc value="0.1022022949" flag="0"/>
      <vel value="0.0300010762" flag="0"/>
      <psa03 value="0.2609641419" flag="0"/>
      <psa10 value="0.0100951692" flag="0"/>
      <psa30 value="0.0008180962" flag="0"/>
    </comp>
    <comp name="--.HHN">
      <acc value="0.0880377884" flag="0"/>
      <vel value="0.0288609409" flag="0"/>
      <psa03 value="0.1618287696" flag="0"/>
      <psa10 value="0.0110545344" flag="0"/>
      <psa30 value="0.0010834248" flag="0"/>
    </comp>
    <comp name="--.HHZ">
      <acc value="0.0580766811" flag="0"/>
      <vel value="0.0141082334" flag="0"/>
      <psa03 value="0.0949035529" flag="0"/>
      <psa10 value="0.0070927220" flag="0"/>
      <psa30 value="0.0008579809" flag="0"/>
    </comp>
  </station>
  <station code="VLY" name="VLY" netid="HL" source="NOA" insttype="120P," lat="37.8524" lon="23.7942">
    <comp name="--.HHE">
      <acc value="0.0126554359" flag="0"/>
      <vel value="0.0048797106" flag="0"/>
      <psa03 value="0.0238307092" flag="0"/>
      <psa10 value="0.0031788331" flag="0"/>
      <psa30 value="0.0001777245" flag="0"/>
    </comp>
    <comp name="--.HHN">
      <acc value="0.0077926001" flag="0"/>
      <vel value="0.0034513540" flag="0"/>
      <psa03 value="0.0103101640" flag="0"/>
      <psa10 value="0.0060709196" flag="0"/>
      <psa30 value="0.0003120295" flag="0"/>
    </comp>
    <comp name="--.HHZ">
      <acc value="0.0068049280" flag="0"/>
      <vel value="0.0023602019" flag="0"/>
      <psa03 value="0.0173598322" flag="0"/>
      <psa10 value="0.0017427995" flag="0"/>
      <psa30 value="0.0001611466" flag="0"/>
    </comp>
  </station>
  <station code="ANX" name="ANX" netid="HP" source="NOA" insttype="120" lat="38.5933" lon="21.9209">
    <comp name="--.HHE">
      <acc value="0.0000304866" flag="0"/>
      <vel value="0.0000025778" flag="0"/>
      <psa03 value="0.0000076887" flag="0"/>
      <psa10 value="0.0000020292" flag="0"/>
      <psa30 value="0.0000004426" flag="0"/>
    </comp>
    <comp name="--.HHN">
      <acc value="0.0171528495" flag="0"/>
      <vel value="0.0084211146" flag="0"/>
      <psa03 value="0.0579387863" flag="0"/>
      <psa10 value="0.0069726759" flag="0"/>
      <psa30 value="0.0005573471" flag="0"/>
    </comp>
    <comp name="--.HHZ">
      <acc value="0.0101660812" flag="0"/>
      <vel value="0.0031287014" flag="0"/>
      <psa03 value="0.0205071061" flag="0"/>
      <psa10 value="0.0060629882" flag="0"/>
      <psa30 value="0.0004446631" flag="0"/>
    </comp>
  </station>
  <station code="DRO" name="DRO" netid="HP" source="NOA" insttype="120P," lat="37.952" lon="21.71">
    <comp name="--.HHE">
      <acc value="0.0094180823" flag="0"/>
      <vel value="0.0042269009" flag="0"/>
      <psa03 value="0.0230404071" flag="0"/>
      <psa10 value="0.0043229601" flag="0"/>
      <psa30 value="0.0002229914" flag="0"/>
    </comp>
    <comp name="--.HHN">
      <acc value="0.0101925782" flag="0"/>
      <vel value="0.0042436925" flag="0"/>
      <psa03 value="0.0219988251" flag="0"/>
      <psa10 value="0.0050509927" flag="0"/>
      <psa30 value="0.0003122978" flag="0"/>
    </comp>
    <comp name="--.HHZ">
      <acc value="0.0071437600" flag="0"/>
      <vel value="0.0031147586" flag="0"/>
      <psa03 value="0.0187163768" flag="0"/>
      <psa10 value="0.0026472012" flag="0"/>
      <psa30 value="0.0002880783" flag="0"/>
    </comp>
  </station>
  <station code="PVO" name="PVO" netid="HP" source="NOA" insttype="120P," lat="38.616" lon="21.525">
    <comp name="--.HHE">
      <acc value="0.0116155725" flag="0"/>
      <vel value="0.0074028531" flag="0"/>
