<?xml version="1.0" encoding="UTF-8" standalone="yes"?>
<!DOCTYPE earthquake SYSTEM "stationlist.dtd">
<stationlist created="" xmlns="ch.ethz.sed.shakemap.usgs.xml">
  <station code="DYBB" name="DYBB" netid="KO" insttype="CMG-3T" lat="37.9532" lon="40.1393">
    <comp name="--.HHE">
      <acc value="0.0040715644" flag="0"/>
      <vel value="0.0042327786" flag="0"/>
      <psa03 value="0.0095529896" flag="0"/>
      <psa10 value="0.0051281956" flag="0"/>
      <psa30 value="0.0007808855" flag="0"/>
    </comp>
    <comp name="--.HHZ">
      <acc value="0.0032822108" flag="0"/>
      <vel value="0.0036072076" flag="0"/>
      <psa03 value="0.0057666327" flag="0"/>
      <psa10 value="0.0051511431" flag="0"/>
      <psa30 value="0.0010031829" flag="0"/>
    </comp>
    <comp name="--.HHN">
      <acc value="0.0031403228" flag="0"/>
      <vel value="0.0056724474" flag="0"/>
      <psa03 value="0.0084382535" flag="0"/>
      <psa10 value="0.0046465562" flag="0"/>
      <psa30 value="0.0018684471" flag="0"/>
    </comp>
  </station>
  <station code="MAZI" name="MAZI" netid="KO" insttype="CMG-3T" lat="37.4593" lon="40.4465">
    <comp name="--.HHN">
      <acc value="0.0102750739" flag="0"/>
      <vel value="0.0075596122" flag="0"/>
      <psa03 value="0.0221099243" flag="0"/>
      <psa10 value="0.0102351341" flag="0"/>
      <psa30 value="0.0006883142" flag="0"/>
    </comp>
    <comp name="--.HHZ">
      <acc value="0.0073508627" flag="0"/>
      <vel value="0.0029633665" flag="0"/>
      <psa03 value="0.0099688707" flag="0"/>
      <psa10 value="0.0027854861" flag="0"/>
      <psa30 value="0.0002351286" flag="0"/>
    </comp>
    <comp name="--.HHE">
      <acc value="0.0088950317" flag="0"/>
      <vel value="0.0038641760" flag="0"/>
      <psa03 value="0.0173480682" flag="0"/>
      <psa10 value="0.0050116779" flag="0"/>
      <psa30 value="0.0002620427" flag="0"/>
    </comp>
  </station>
  <station code="SVRC" name="SVRC" netid="KO" insttype="CMG-3T" lat="38.3775" lon="39.306">
    <comp name="--.HHZ">
      <acc value="0.1197544469" flag="0"/>
      <vel value="0.0427084736" flag="0"/>
      <psa03 value="0.2659232782" flag="0"/>
      <psa10 value="0.0422804718" flag="0"/>
      <psa30 value="0.0051125784" flag="0"/>
    </comp>
  </station>
</stationlist>
