<stationlist created="1778135954">
	<station code="ARPRA" name="ARPRA" netid="KO" source="Bogazici University Kandilli Observatory And Earthquake Research Institute (KOERI)" insttype="" lat="39.0929" lon="38.3356">
		<comp name="--.HNE" depth="0.0">
			<acc value="0.50495247645748" flag="0"/>
			<vel value="0.439308111211199" flag="0"/>
			<psa03 value="1.1033875574132" flag="0"/>
			<psa10 value="0.480521903216849" flag="0"/>
			<psa30 value="0.0455328014092166" flag="0"/>
		</comp>
		<comp name="--.HNN" depth="0.0">
			<acc value="0.341373493664614" flag="0"/>
			<vel value="0.251061981094166" flag="0"/>
			<psa03 value="1.27197619195085" flag="0"/>
			<psa10 value="0.489900317146105" flag="0"/>
			<psa30 value="0.0426464816602719" flag="0"/>
		</comp>
		<comp name="--.HNZ" depth="0.0">
			<acc value="0.20418411565206" flag="0"/>
			<vel value="0.218709563708346" flag="0"/>
			<psa03 value="0.476415016071358" flag="0"/>
			<psa10 value="0.333592076058974" flag="0"/>
			<psa30 value="0.0246408754508808" flag="0"/>
		</comp>
	</station>
	<station code="CHAY" name="CHAY" netid="KO" source="Bogazici University Kandilli Observatory And Earthquake Research Institute (KOERI)" insttype="" lat="41.0862" lon="40.7253">
		<comp name="--.HNE" depth="0.0">
			<acc value="0.0127730616748821" flag="0"/>
			<vel value="0.0211443908809707" flag="0"/>
			<psa03 value="0.0119014269604603" flag="0"/>
			<psa10 value="0.0209876742804989" flag="0"/>
			<psa30 value="0.00552924189388602" flag="0"/>
		</comp>
		<comp name="--.HNN" depth="0.0">
			<acc value="0.0137440369209943" flag="0"/>
			<vel value="0.0212289053499814" flag="0"/>
			<psa03 value="0.0163756476222875" flag="0"/>
			<psa10 value="0.0362895089439478" flag="0"/>
			<psa30 value="0.00378116388131015" flag="0"/>
		</comp>
		<comp name="--.HNZ" depth="0.0">
			<acc value="0.00737345024644381" flag="0"/>
			<vel value="0.0120957343797671" flag="0"/>
			<psa03 value="0.0110960672413314" flag="0"/>
			<psa10 value="0.0162722931249993" flag="0"/>
			<psa30 value="0.00448540621348174" flag="0"/>
		</comp>
	</station>
	<station code="ERBG" name="ERBG" netid="KO" source="Bogazici University Kandilli Observatory And Earthquake Research Institute (KOERI)" insttype="" lat="40.712" lon="36.6768">
		<comp name="--.HNE" depth="0.0">
			<acc value="0.0284143350806916" flag="0"/>
			<vel value="0.0676947155509894" flag="0"/>
			<psa03 value="0.0359279919144722" flag="0"/>
			<psa10 value="0.102405515085834" flag="0"/>
			<psa30 value="0.0187183495608202" flag="0"/>
		</comp>
		<comp name="--.HNN" depth="0.0">
			<acc value="0.0355483164714485" flag="0"/>
			<vel value="0.104892046094467" flag="0"/>
			<psa03 value="0.0370018048733107" flag="0"/>
			<psa10 value="0.0943559446931409" flag="0"/>
			<psa30 value="0.0284206970659924" flag="0"/>
		</comp>
		<comp name="--.HNZ" depth="0.0">
			<acc value="0.0194539118295869" flag="0"/>
			<vel value="0.0518733250971765" flag="0"/>
			<psa03 value="0.0241160493672485" flag="0"/>
			<psa10 value="0.0537174932658971" flag="0"/>
			<psa30 value="0.0188888173680358" flag="0"/>
		</comp>
	</station>
	<station code="GUMT" name="GUMT" netid="KO" source="Bogazici University Kandilli Observatory And Earthquake Research Institute (KOERI)" insttype="" lat="40.4665" lon="39.478">
		<comp name="--.HNE" depth="0.0">
			<acc value="0.021833141580517" flag="0"/>
			<vel value="0.0661577954694847" flag="0"/>
			<psa03 value="0.0404469547829177" flag="0"/>
			<psa10 value="0.0513577892888494" flag="0"/>
			<psa30 value="0.0195402638963978" flag="0"/>
		</comp>
		<comp name="--.HNN" depth="0.0">
			<acc value="0.0202835541142332" flag="0"/>
			<vel value="0.0373746827566572" flag="0"/>
			<psa03 value="0.0646524885634027" flag="0"/>
			<psa10 value="0.0522839529658476" flag="0"/>
			<psa30 value="0.0148423322014793" flag="0"/>
		</comp>
		<comp name="--.HNZ" depth="0.0">
			<acc value="0.0232338211520371" flag="0"/>
			<vel value="0.0532132620193485" flag="0"/>
			<psa03 value="0.0509613733382115" flag="0"/>
			<psa10 value="0.0677428327745267" flag="0"/>
			<psa30 value="0.0205281718185293" flag="0"/>
		</comp>
	</station>
	<station code="KYHL" name="KYHL" netid="KO" source="Bogazici University Kandilli Observatory And Earthquake Research Institute (KOERI)" insttype="" lat="40.3244" lon="37.8955">
		<comp name="--.HNE" depth="0.0">
			<acc value="0.141229797168655" flag="0"/>
			<vel value="0.197060864104371" flag="0"/>
			<psa03 value="0.252480271946908" flag="0"/>
			<psa10 value="0.350871068832884" flag="0"/>
			<psa30 value="0.0810420062697418" flag="0"/>
		</comp>
		<comp name="--.HNN" depth="0.0">
			<acc value="0.126026652976908" flag="0"/>
			<vel value="0.13756491930646" flag="0"/>
			<psa03 value="0.197447357806433" flag="0"/>
			<psa10 value="0.278320238535158" flag="0"/>
			<psa30 value="0.0665638756301352" flag="0"/>
		</comp>
		<comp name="--.HNZ" depth="0.0">
			<acc value="0.0427151794744782" flag="0"/>
			<vel value="0.075107362836882" flag="0"/>
			<psa03 value="0.203174360253572" flag="0"/>
			<psa10 value="0.103440402324915" flag="0"/>
			<psa30 value="0.0419337383088428" flag="0"/>
		</comp>
	</station>
	<station code="TUNC" name="TUNC" netid="KO" source="Bogazici University Kandilli Observatory And Earthquake Research Institute (KOERI)" insttype="" lat="39.6942" lon="37.5388">
		<comp name="--.HNE" depth="0.0">
			<acc value="0.470054290336704" flag="0"/>
			<vel value="0.634782332178134" flag="0"/>
			<psa03 value="0.777753777645418" flag="0"/>
			<psa10 value="0.671609603774561" flag="0"/>
			<psa30 value="0.167559563785428" flag="0"/>
		</comp>
		<comp name="--.HNN" depth="0.0">
			<acc value="0.429087379237518" flag="0"/>
			<vel value="0.867374141488636" flag="0"/>
			<psa03 value="0.659052703487143" flag="0"/>
			<psa10 value="1.29606539599413" flag="0"/>
			<psa30 value="0.208351928403438" flag="0"/>
		</comp>
		<comp name="--.HNZ" depth="0.0">
			<acc value="0.208328007839033" flag="0"/>
			<vel value="0.285595950748505" flag="0"/>
			<psa03 value="0.429883121188355" flag="0"/>
			<psa10 value="0.507151122329846" flag="0"/>
			<psa30 value="0.0949836778519953" flag="0"/>
		</comp>
	</station>
</stationlist>
