<?xml version="1.0" encoding="UTF-8" standalone="yes"?>
<!DOCTYPE earthquake SYSTEM "stationlist.dtd">
<stationlist created="" xmlns="ch.ethz.sed.shakemap.usgs.xml">
  <station code="KARO" name="KARO" netid="KO" insttype="120s," lat="39.3089" lon="41.0493">
    <comp name="--.HHE">
      <acc value="0.0606297900" flag="0"/>
      <vel value="0.0986361665" flag="0"/>
      <psa03 value="0.1009741169" flag="0"/>
      <psa10 value="0.1143439392" flag="0"/>
      <psa30 value="0.0334818711" flag="0"/>
    </comp>
    <comp name="--.HHZ">
      <acc value="0.0358278341" flag="0"/>
      <vel value="0.0781054157" flag="0"/>
      <psa03 value="0.0843964597" flag="0"/>
      <psa10 value="0.0890426253" flag="0"/>
      <psa30 value="0.0139849145" flag="0"/>
    </comp>
    <comp name="--.HHN">
      <acc value="0.0818142992" flag="0"/>
      <vel value="0.1135922685" flag="0"/>
      <psa03 value="0.1377483068" flag="0"/>
      <psa10 value="0.1977869063" flag="0"/>
      <psa30 value="0.0333583773" flag="0"/>
    </comp>
  </station>
</stationlist>
