<?xml version="1.0" encoding="UTF-8" standalone="yes"?>
<!DOCTYPE earthquake SYSTEM "stationlist.dtd">
<stationlist created="" xmlns="ch.ethz.sed.shakemap.usgs.xml">
  <station code="APE" name="APE" netid="GE" insttype="STS-2/N" lat="37.0727" lon="25.523">
    <comp name="--.HHN">
      <acc value="0.1533738919" flag="0"/>
      <vel value="0.0318035210" flag="0"/>
      <psa03 value="0.1127605991" flag="0"/>
      <psa10 value="0.0076040266" flag="0"/>
      <psa30 value="0.0007856420" flag="0"/>
    </comp>
    <comp name="--.HHE">
      <acc value="0.1610762005" flag="0"/>
      <vel value="0.0302723390" flag="0"/>
      <psa03 value="0.1071541396" flag="0"/>
      <psa10 value="0.0068169048" flag="0"/>
      <psa30 value="0.0008020473" flag="0"/>
    </comp>
    <comp name="--.HHZ">
      <acc value="0.0637765245" flag="0"/>
      <vel value="0.0152395505" flag="0"/>
      <psa03 value="0.0731480072" flag="0"/>
      <psa10 value="0.0054195206" flag="0"/>
      <psa30 value="0.0011143427" flag="0"/>
    </comp>
  </station>
  <station code="THERA" name="THERA" netid="GE" insttype="STS-2/N" lat="36.367" lon="25.4753">
    <comp name="--.HHN">
      <acc value="0.1058070198" flag="0"/>
      <vel value="0.0284351199" flag="0"/>
      <psa03 value="0.1221727915" flag="0"/>
      <psa10 value="0.0044291508" flag="0"/>
      <psa30 value="0.0004586772" flag="0"/>
    </comp>
    <comp name="--.HHZ">
      <acc value="0.1053034201" flag="0"/>
      <vel value="0.0289586200" flag="0"/>
      <psa03 value="0.0977125605" flag="0"/>
      <psa10 value="0.0041590311" flag="0"/>
      <psa30 value="0.0004268089" flag="0"/>
    </comp>
    <comp name="--.HHE">
      <acc value="0.0953767820" flag="0"/>
      <vel value="0.0352753404" flag="0"/>
      <psa03 value="0.1797284962" flag="0"/>
      <psa10 value="0.0075499380" flag="0"/>
      <psa30 value="0.0008054919" flag="0"/>
    </comp>
  </station>
  <station code="SNT1" name="SNT1" netid="HA" insttype="30" lat="36.4159" lon="25.4282">
    <comp name="--.HHZ">
      <acc value="0.0769604717" flag="0"/>
      <vel value="0.0180516433" flag="0"/>
      <psa03 value="0.0957899900" flag="0"/>
      <psa10 value="0.0085869199" flag="0"/>
      <psa30 value="0.0004284774" flag="0"/>
    </comp>
    <comp name="--.HHE">
      <acc value="0.0953173631" flag="0"/>
      <vel value="0.0284872178" flag="0"/>
      <psa03 value="0.1188253621" flag="0"/>
      <psa10 value="0.0161189713" flag="0"/>
      <psa30 value="0.0013385314" flag="0"/>
    </comp>
    <comp name="--.HHN">
      <acc value="0.0620178710" flag="0"/>
      <vel value="0.0205718238" flag="0"/>
      <psa03 value="0.1073502446" flag="0"/>
      <psa10 value="0.0102742511" flag="0"/>
      <psa30 value="0.0012647908" flag="0"/>
    </comp>
  </station>
  <station code="NAX1" name="NAX1" netid="HI" insttype="CMG-5TD,ACCELEROMETER,GURALP" lat="37.1014" lon="25.3741">
    <comp name="--.HNZ">
      <acc value="0.0396228773" flag="0"/>
      <vel value="0.0091990495" flag="0"/>
      <psa03 value="0.0444232849" flag="0"/>
      <psa10 value="0.0036221818" flag="0"/>
      <psa30 value="0.0006957898" flag="0"/>
    </comp>
    <comp name="--.HNE">
      <acc value="0.1457127531" flag="0"/>
      <vel value="0.0359274806" flag="0"/>
      <psa03 value="0.1139462696" flag="0"/>
      <psa10 value="0.0077434601" flag="0"/>
      <psa30 value="0.0006929516" flag="0"/>
    </comp>
    <comp name="--.HNN">
      <acc value="0.0902951982" flag="0"/>
      <vel value="0.0219130005" flag="0"/>
      <psa03 value="0.0670238401" flag="0"/>
      <psa10 value="0.0056424704" flag="0"/>
      <psa30 value="0.0006827855" flag="0"/>
    </comp>
  </station>
  <station code="SFR2" name="SFR2" netid="HI" insttype="unknown" lat="36.3998" lon="25.4382">
    <comp name="--.HNZ">
      <acc value="0.1799673221" flag="0"/>
      <vel value="0.0551826298" flag="0"/>
      <psa03 value="0.2447453178" flag="0"/>
      <psa10 value="0.0120561170" flag="0"/>
      <psa30 value="0.0010720182" flag="0"/>
    </comp>
    <comp name="--.HNN">
      <acc value="0.2540305948" flag="0"/>
      <vel value="0.0816905688" flag="0"/>
      <psa03 value="0.4099084568" flag="0"/>
      <psa10 value="0.0312887049" flag="0"/>
      <psa30 value="0.0022679100" flag="0"/>
    </comp>
    <comp name="--.HNE">
      <acc value="0.2491481219" flag="0"/>
      <vel value="0.0580708292" flag="0"/>
      <psa03 value="0.2397206238" flag="0"/>
      <psa10 value="0.0263180584" flag="0"/>
      <psa30 value="0.0017838443" flag="0"/>
    </comp>
  </station>
  <station code="AMGA" name="AMGA" netid="HL" insttype="SMART24" lat="36.8316" lon="25.8938">
    <comp name="--.HHE">
      <acc value="0.4529571034" flag="0"/>
      <vel value="0.0843418827" flag="0"/>
      <psa03 value="0.3469756398" flag="0"/>
      <psa10 value="0.0186234984" flag="0"/>
      <psa30 value="0.0015505000" flag="0"/>
    </comp>
    <comp name="--.HHN">
      <acc value="0.7004664399" flag="0"/>
      <vel value="0.0904845678" flag="0"/>
      <psa03 value="0.3293104893" flag="0"/>
      <psa10 value="0.0348671241" flag="0"/>
      <psa30 value="0.0021754512" flag="0"/>
    </comp>
    <comp name="--.HHZ">
      <acc value="0.2851668299" flag="0"/>
      <vel value="0.0641691582" flag="0"/>
      <psa03 value="0.2285208430" flag="0"/>
      <psa10 value="0.0174690746" flag="0"/>
      <psa30 value="0.0017503878" flag="0"/>
    </comp>
  </station>
  <station code="APE" name="APE" netid="HL" insttype="120" lat="37.0727" lon="25.523">
    <comp name="--.HHN">
      <acc value="0.1456648317" flag="0"/>
      <vel value="0.0305849088" flag="0"/>
      <psa03 value="0.1084062033" flag="0"/>
      <psa10 value="0.0074860658" flag="0"/>
      <psa30 value="0.0007807964" flag="0"/>
    </comp>
    <comp name="--.HHE">
      <acc value="0.1490567199" flag="0"/>
      <vel value="0.0281840858" flag="0"/>
      <psa03 value="0.1042942015" flag="0"/>
      <psa10 value="0.0066406318" flag="0"/>
      <psa30 value="0.0007942291" flag="0"/>
    </comp>
    <comp name="--.HHZ">
      <acc value="0.0595893204" flag="0"/>
      <vel value="0.0148189101" flag="0"/>
      <psa03 value="0.0707462038" flag="0"/>
      <psa10 value="0.0053813330" flag="0"/>
      <psa30 value="0.0011117788" flag="0"/>
    </comp>
  </station>
  <station code="MILA" name="MILA" netid="HL" insttype="CMG-5" lat="36.7429" lon="24.4282">
    <comp name="00.HNE">
      <acc value="0.0666679539" flag="0"/>
      <vel value="0.0210721036" flag="0"/>
      <psa03 value="0.0936691261" flag="0"/>
      <psa10 value="0.0094174499" flag="0"/>
      <psa30 value="0.0007533512" flag="0"/>
    </comp>
    <comp name="00.HNZ">
      <acc value="0.0353903321" flag="0"/>
      <vel value="0.0120054320" flag="0"/>
      <psa03 value="0.0493249813" flag="0"/>
      <psa10 value="0.0078209066" flag="0"/>
      <psa30 value="0.0004753037" flag="0"/>
    </comp>
    <comp name="00.HNN">
      <acc value="0.0581852204" flag="0"/>
      <vel value="0.0220961772" flag="0"/>
      <psa03 value="0.0867904956" flag="0"/>
      <psa10 value="0.0097334853" flag="0"/>
      <psa30 value="0.0007717516" flag="0"/>
    </comp>
  </station>
  <station code="SANT" name="SANT" netid="HL" insttype="30" lat="36.3705" lon="25.4593">
    <comp name="--.HHE">
      <acc value="0.3709385505" flag="0"/>
      <vel value="0.0730133579" flag="0"/>
      <psa03 value="0.2935733586" flag="0"/>
      <psa10 value="0.0118688234" flag="0"/>
      <psa30 value="0.0012039406" flag="0"/>
    </comp>
    <comp name="--.HHN">
      <acc value="0.1984762211" flag="0"/>
      <vel value="0.0384101084" flag="0"/>
      <psa03 value="0.1339717784" flag="0"/>
      <psa10 value="0.0086276849" flag="0"/>
      <psa30 value="0.0006468775" flag="0"/>
    </comp>
    <comp name="--.HHZ">
      <acc value="0.1724652026" flag="0"/>
      <vel value="0.0316795216" flag="0"/>
      <psa03 value="0.0804567213" flag="0"/>
      <psa10 value="0.0055054819" flag="0"/>
      <psa30 value="0.0004454118" flag="0"/>
    </comp>
  </station>
  <station code="SAP3" name="SAP3" netid="HL" insttype="65535" lat="36.4356" lon="25.3454">
    <comp name="--.HHN">
      <acc value="0.2283112164" flag="0"/>
      <vel value="0.0520917457" flag="0"/>
      <psa03 value="0.2268749358" flag="0"/>
      <psa10 value="0.0135460201" flag="0"/>
      <psa30 value="0.0018227988" flag="0"/>
    </comp>
    <comp name="--.HHE">
      <acc value="0.1859832447" flag="0"/>
      <vel value="0.0540239308" flag="0"/>
      <psa03 value="0.2150880610" flag="0"/>
      <psa10 value="0.0141725145" flag="0"/>
      <psa30 value="0.0016488922" flag="0"/>
    </comp>
    <comp name="--.HHZ">
      <acc value="0.1489834554" flag="0"/>
      <vel value="0.0329527964" flag="0"/>
      <psa03 value="0.1403075262" flag="0"/>
      <psa10 value="0.0043823985" flag="0"/>
      <psa30 value="0.0005494718" flag="0"/>
    </comp>
  </station>
  <station code="THERA" name="THERA" netid="HL" insttype="120" lat="36.367" lon="25.4753">
    <comp name="--.HHE">
      <acc value="0.0916198952" flag="0"/>
      <vel value="0.0342050051" flag="0"/>
      <psa03 value="0.1747630946" flag="0"/>
      <psa10 value="0.0074032914" flag="0"/>
      <psa30 value="0.0007932566" flag="0"/>
    </comp>
    <comp name="--.HHN">
      <acc value="0.2070500164" flag="0"/>
      <vel value="0.0550763964" flag="0"/>
      <psa03 value="0.2374642139" flag="0"/>
      <psa10 value="0.0087088248" flag="0"/>
      <psa30 value="0.0008904994" flag="0"/>
    </comp>
    <comp name="--.HHZ">
      <acc value="0.1027237894" flag="0"/>
      <vel value="0.0282127946" flag="0"/>
      <psa03 value="0.0948150826" flag="0"/>
      <psa10 value="0.0041019809" flag="0"/>
      <psa30 value="0.0004172973" flag="0"/>
    </comp>
  </station>
  <station code="THRA" name="THRA" netid="HL" insttype="CMG-5" lat="36.415" lon="25.4324">
    <comp name="00.HNZ">
      <acc value="0.1938176786" flag="0"/>
      <vel value="0.0665165660" flag="0"/>
      <psa03 value="0.3683956295" flag="0"/>
      <psa10 value="0.0182242779" flag="0"/>
      <psa30 value="0.0015930535" flag="0"/>
    </comp>
    <comp name="00.HNN">
      <acc value="0.2352987616" flag="0"/>
      <vel value="0.0722717642" flag="0"/>
      <psa03 value="0.3233504049" flag="0"/>
      <psa10 value="0.0380218927" flag="0"/>
      <psa30 value="0.0027092966" flag="0"/>
    </comp>
    <comp name="00.HNE">
      <acc value="0.3550744271" flag="0"/>
      <vel value="0.1086684935" flag="0"/>
      <psa03 value="0.5718313934" flag="0"/>
      <psa10 value="0.0459942408" flag="0"/>
      <psa30 value="0.0030401887" flag="0"/>
    </comp>
  </station>
  <station code="TNSA" name="TNSA" netid="HL" insttype="CMG-5" lat="37.5394" lon="25.1631">
    <comp name="00.HNE">
      <acc value="0.0468117844" flag="0"/>
      <vel value="0.0151619685" flag="0"/>
      <psa03 value="0.0890694645" flag="0"/>
      <psa10 value="0.0033597855" flag="0"/>
      <psa30 value="0.0004156122" flag="0"/>
    </comp>
    <comp name="00.HNN">
      <acc value="0.0614713757" flag="0"/>
      <vel value="0.0205962663" flag="0"/>
      <psa03 value="0.1098871682" flag="0"/>
      <psa10 value="0.0063343248" flag="0"/>
      <psa30 value="0.0005136525" flag="0"/>
    </comp>
    <comp name="00.HNZ">
      <acc value="0.0382490499" flag="0"/>
      <vel value="0.0119688804" flag="0"/>
      <psa03 value="0.0602222122" flag="0"/>
      <psa10 value="0.0079271891" flag="0"/>
      <psa30 value="0.0005027192" flag="0"/>
    </comp>
  </station>
  <station code="AKRO" name="AKRO" netid="HT" insttype="Compact," lat="36.3584" lon="25.3967">
    <comp name="--.HHE">
      <acc value="0.4022393974" flag="0"/>
      <vel value="0.1067852328" flag="0"/>
      <psa03 value="0.4112703061" flag="0"/>
      <psa10 value="0.0235181703" flag="0"/>
      <psa30 value="0.0015515408" flag="0"/>
    </comp>
    <comp name="--.HHZ">
      <acc value="0.1953990562" flag="0"/>
      <vel value="0.0464989253" flag="0"/>
      <psa03 value="0.1667647773" flag="0"/>
      <psa10 value="0.0087006294" flag="0"/>
      <psa30 value="0.0008117769" flag="0"/>
    </comp>
    <comp name="--.HHN">
      <acc value="0.4085682895" flag="0"/>
      <vel value="0.0696802198" flag="0"/>
      <psa03 value="0.2890396836" flag="0"/>
      <psa10 value="0.0164173259" flag="0"/>
      <psa30 value="0.0014098534" flag="0"/>
    </comp>
  </station>
  <station code="CMBO" name="CMBO" netid="HT" insttype="120P," lat="36.4709" lon="25.4056">
    <comp name="--.HHE">
      <acc value="0.1869785128" flag="0"/>
      <vel value="0.0484812182" flag="0"/>
      <psa03 value="0.2433107799" flag="0"/>
      <psa10 value="0.0136855712" flag="0"/>
      <psa30 value="0.0014340113" flag="0"/>
    </comp>
    <comp name="--.HHN">
      <acc value="0.2803349593" flag="0"/>
      <vel value="0.0681391686" flag="0"/>
      <psa03 value="0.3070380151" flag="0"/>
      <psa10 value="0.0276258151" flag="0"/>
      <psa30 value="0.0016062889" flag="0"/>
    </comp>
    <comp name="--.HHZ">
      <acc value="0.2191742139" flag="0"/>
      <vel value="0.0475532500" flag="0"/>
      <psa03 value="0.2003866810" flag="0"/>
      <psa10 value="0.0108038713" flag="0"/>
      <psa30 value="0.0013146060" flag="0"/>
    </comp>
  </station>
</stationlist>
