<?xml version="1.0" encoding="UTF-8" standalone="yes"?>
<!DOCTYPE earthquake SYSTEM "stationlist.dtd">
<stationlist created="" xmlns="ch.ethz.sed.shakemap.usgs.xml">
  <station code="THERA" name="THERA" netid="GE" insttype="STS-2/N" lat="36.367" lon="25.4753">
    <comp name="--.HHE">
      <acc value="0.2302369509" flag="0"/>
      <vel value="0.0531093518" flag="0"/>
      <psa03 value="0.2266103236" flag="0"/>
      <psa10 value="0.0173415309" flag="0"/>
      <psa30 value="0.0015842933" flag="0"/>
    </comp>
    <comp name="--.HHN">
      <acc value="0.1347739802" flag="0"/>
      <vel value="0.0336707504" flag="0"/>
      <psa03 value="0.1753985291" flag="0"/>
      <psa10 value="0.0121791409" flag="0"/>
      <psa30 value="0.0007417429" flag="0"/>
    </comp>
    <comp name="--.HHZ">
      <acc value="0.1637363954" flag="0"/>
      <vel value="0.0397459893" flag="0"/>
      <psa03 value="0.0966135237" flag="0"/>
      <psa10 value="0.0103142706" flag="0"/>
      <psa30 value="0.0006465792" flag="0"/>
    </comp>
  </station>
  <station code="SNT1" name="SNT1" netid="HA" insttype="30" lat="36.4159" lon="25.4282">
    <comp name="--.HHZ">
      <acc value="0.0938298638" flag="0"/>
      <vel value="0.0286121106" flag="0"/>
      <psa03 value="0.1273789005" flag="0"/>
      <psa10 value="0.0126503971" flag="0"/>
      <psa30 value="0.0012179825" flag="0"/>
    </comp>
    <comp name="--.HHN">
      <acc value="0.1286226047" flag="0"/>
      <vel value="0.0379452688" flag="0"/>
      <psa03 value="0.1908138289" flag="0"/>
      <psa10 value="0.0216470397" flag="0"/>
      <psa30 value="0.0023896219" flag="0"/>
    </comp>
    <comp name="--.HHE">
      <acc value="0.1597871199" flag="0"/>
      <vel value="0.0446405646" flag="0"/>
      <psa03 value="0.2805777788" flag="0"/>
      <psa10 value="0.0366205643" flag="0"/>
      <psa30 value="0.0020362666" flag="0"/>
    </comp>
  </station>
  <station code="SFR2" name="SFR2" netid="HI" insttype="unknown" lat="36.3998" lon="25.4382">
    <comp name="--.HNN">
      <acc value="0.4285463379" flag="0"/>
      <vel value="0.1588828100" flag="0"/>
      <psa03 value="0.9202988372" flag="0"/>
      <psa10 value="0.0554298831" flag="0"/>
      <psa30 value="0.0030957356" flag="0"/>
    </comp>
    <comp name="--.HNE">
      <acc value="0.3840707746" flag="0"/>
      <vel value="0.1455372354" flag="0"/>
      <psa03 value="0.9843847375" flag="0"/>
      <psa10 value="0.0516750866" flag="0"/>
      <psa30 value="0.0052111200" flag="0"/>
    </comp>
    <comp name="--.HNZ">
      <acc value="0.3946183430" flag="0"/>
      <vel value="0.0973718428" flag="0"/>
      <psa03 value="0.5601728822" flag="0"/>
      <psa10 value="0.0344149224" flag="0"/>
      <psa30 value="0.0025772199" flag="0"/>
    </comp>
  </station>
  <station code="MHLO" name="MHLO" netid="HL" insttype="20" lat="36.6898" lon="24.4017">
    <comp name="--.HHZ">
      <acc value="0.0292056924" flag="0"/>
      <vel value="0.0178019647" flag="0"/>
      <psa03 value="0.0801805706" flag="0"/>
      <psa10 value="0.0153369460" flag="0"/>
      <psa30 value="0.0010272291" flag="0"/>
    </comp>
    <comp name="--.HHE">
      <acc value="0.0712326722" flag="0"/>
      <vel value="0.0328659284" flag="0"/>
      <psa03 value="0.2717006070" flag="0"/>
      <psa10 value="0.0370212656" flag="0"/>
      <psa30 value="0.0017039065" flag="0"/>
    </comp>
    <comp name="--.HHN">
      <acc value="0.0673628748" flag="0"/>
      <vel value="0.0298570250" flag="0"/>
      <psa03 value="0.1387284497" flag="0"/>
      <psa10 value="0.0334810239" flag="0"/>
      <psa30 value="0.0013090899" flag="0"/>
    </comp>
  </station>
  <station code="SANT" name="SANT" netid="HL" insttype="30" lat="36.3705" lon="25.4593">
    <comp name="--.HHE">
      <acc value="0.3679101830" flag="0"/>
      <vel value="0.0751285490" flag="0"/>
      <psa03 value="0.5724841635" flag="0"/>
      <psa10 value="0.0292205716" flag="0"/>
      <psa30 value="0.0023062149" flag="0"/>
    </comp>
    <comp name="--.HHN">
      <acc value="0.2743178387" flag="0"/>
      <vel value="0.0453360536" flag="0"/>
      <psa03 value="0.1272376062" flag="0"/>
      <psa10 value="0.0218588914" flag="0"/>
      <psa30 value="0.0012132967" flag="0"/>
    </comp>
    <comp name="--.HHZ">
      <acc value="0.2225395631" flag="0"/>
      <vel value="0.0474488041" flag="0"/>
      <psa03 value="0.1131388287" flag="0"/>
      <psa10 value="0.0107744318" flag="0"/>
      <psa30 value="0.0007907197" flag="0"/>
    </comp>
  </station>
  <station code="SAP3" name="SAP3" netid="HL" insttype="65535" lat="36.4356" lon="25.3454">
    <comp name="--.HHE">
      <acc value="0.3015775888" flag="0"/>
      <vel value="0.0586343581" flag="0"/>
      <psa03 value="0.2807409103" flag="0"/>
      <psa10 value="0.0268104584" flag="0"/>
      <psa30 value="0.0030647447" flag="0"/>
    </comp>
    <comp name="--.HHZ">
      <acc value="0.2979151844" flag="0"/>
      <vel value="0.0617936648" flag="0"/>
      <psa03 value="0.2816076870" flag="0"/>
      <psa10 value="0.0134416615" flag="0"/>
      <psa30 value="0.0014259226" flag="0"/>
    </comp>
    <comp name="--.HHN">
      <acc value="0.2384606896" flag="0"/>
      <vel value="0.0681747471" flag="0"/>
      <psa03 value="0.3985780489" flag="0"/>
      <psa10 value="0.0257991246" flag="0"/>
      <psa30 value="0.0029756303" flag="0"/>
    </comp>
  </station>
  <station code="THERA" name="THERA" netid="HL" insttype="120" lat="36.367" lon="25.4753">
    <comp name="--.HHE">
      <acc value="0.2242284155" flag="0"/>
      <vel value="0.0517719573" flag="0"/>
      <psa03 value="0.2194160285" flag="0"/>
      <psa10 value="0.0171767901" flag="0"/>
      <psa30 value="0.0015738089" flag="0"/>
    </comp>
    <comp name="--.HHN">
      <acc value="0.2654248108" flag="0"/>
      <vel value="0.0653558096" flag="0"/>
      <psa03 value="0.3402324681" flag="0"/>
      <psa10 value="0.0241814379" flag="0"/>
      <psa30 value="0.0014480718" flag="0"/>
    </comp>
    <comp name="--.HHZ">
      <acc value="0.1584473279" flag="0"/>
      <vel value="0.0386544532" flag="0"/>
      <psa03 value="0.0934503912" flag="0"/>
      <psa10 value="0.0101455818" flag="0"/>
      <psa30 value="0.0006428477" flag="0"/>
    </comp>
  </station>
  <station code="THRA" name="THRA" netid="HL" insttype="CMG-5" lat="36.415" lon="25.4324">
    <comp name="00.HNN">
      <acc value="0.4371951434" flag="0"/>
      <vel value="0.1720879162" flag="0"/>
      <psa03 value="1.0856370195" flag="0"/>
      <psa10 value="0.0900592559" flag="0"/>
      <psa30 value="0.0044466097" flag="0"/>
    </comp>
    <comp name="00.HNE">
      <acc value="0.4243432087" flag="0"/>
      <vel value="0.1388518499" flag="0"/>
      <psa03 value="1.0095595102" flag="0"/>
      <psa10 value="0.0853584814" flag="0"/>
      <psa30 value="0.0053215773" flag="0"/>
    </comp>
    <comp name="00.HNZ">
      <acc value="0.2964120697" flag="0"/>
      <vel value="0.0960430669" flag="0"/>
      <psa03 value="0.4248905024" flag="0"/>
      <psa10 value="0.0448769238" flag="0"/>
      <psa30 value="0.0036818957" flag="0"/>
    </comp>
  </station>
  <station code="AKRO" name="AKRO" netid="HT" insttype="Compact," lat="36.3584" lon="25.3967">
    <comp name="--.HHE">
      <acc value="0.9334459590" flag="0"/>
      <vel value="0.2453031914" flag="0"/>
      <psa03 value="1.1483223827" flag="0"/>
      <psa10 value="0.0786639002" flag="0"/>
      <psa30 value="0.0062637753" flag="0"/>
    </comp>
    <comp name="--.HHN">
      <acc value="0.4302895877" flag="0"/>
      <vel value="0.0963953107" flag="0"/>
      <psa03 value="0.4558629336" flag="0"/>
      <psa10 value="0.0333165134" flag="0"/>
      <psa30 value="0.0028166075" flag="0"/>
    </comp>
    <comp name="--.HHZ">
      <acc value="0.3315419251" flag="0"/>
      <vel value="0.0918217731" flag="0"/>
      <psa03 value="0.3591009293" flag="0"/>
      <psa10 value="0.0296609856" flag="0"/>
      <psa30 value="0.0022833676" flag="0"/>
    </comp>
  </station>
  <station code="CMBO" name="CMBO" netid="HT" insttype="120P," lat="36.4709" lon="25.4056">
    <comp name="--.HHE">
      <acc value="0.3727955034" flag="0"/>
      <vel value="0.0956830711" flag="0"/>
      <psa03 value="0.3333375607" flag="0"/>
      <psa10 value="0.0423181450" flag="0"/>
      <psa30 value="0.0022741134" flag="0"/>
    </comp>
    <comp name="--.HHZ">
      <acc value="0.3123960589" flag="0"/>
      <vel value="0.0920098721" flag="0"/>
      <psa03 value="0.4335268265" flag="0"/>
      <psa10 value="0.0174105809" flag="0"/>
      <psa30 value="0.0019884742" flag="0"/>
    </comp>
    <comp name="--.HHN">
      <acc value="0.4739001312" flag="0"/>
      <vel value="0.1404560690" flag="0"/>
      <psa03 value="0.3105632093" flag="0"/>
      <psa10 value="0.0495752414" flag="0"/>
      <psa30 value="0.0031684363" flag="0"/>
    </comp>
  </station>
</stationlist>
