<?xml version="1.0" encoding="UTF-8" standalone="yes"?>
<!DOCTYPE earthquake SYSTEM "stationlist.dtd">
<stationlist created="" xmlns="ch.ethz.sed.shakemap.usgs.xml">
  <station code="AMGA" name="AMGA" netid="HL" insttype="SMART24" lat="36.8316" lon="25.8938">
    <comp name="--.HHE">
      <acc value="0.1370904197" flag="0"/>
      <vel value="0.0216239266" flag="0"/>
      <psa03 value="0.0728629313" flag="0"/>
      <psa10 value="0.0119466708" flag="0"/>
      <psa30 value="0.0024899427" flag="0"/>
    </comp>
    <comp name="--.HHZ">
      <acc value="0.0742052714" flag="0"/>
      <vel value="0.0187730446" flag="0"/>
      <psa03 value="0.0633806799" flag="0"/>
      <psa10 value="0.0157147838" flag="0"/>
      <psa30 value="0.0013212642" flag="0"/>
    </comp>
    <comp name="--.HHN">
      <acc value="0.1415751707" flag="0"/>
      <vel value="0.0290439955" flag="0"/>
      <psa03 value="0.0754669255" flag="0"/>
      <psa10 value="0.0184807630" flag="0"/>
      <psa30 value="0.0009535756" flag="0"/>
    </comp>
  </station>
  <station code="SANT" name="SANT" netid="HL" insttype="30" lat="36.3705" lon="25.4593">
    <comp name="--.HHE">
      <acc value="0.3679101832" flag="0"/>
      <vel value="0.0751285280" flag="0"/>
      <psa03 value="0.5724841635" flag="0"/>
      <psa10 value="0.0292205154" flag="0"/>
      <psa30 value="0.0023096744" flag="0"/>
    </comp>
    <comp name="--.HHN">
      <acc value="0.2743178387" flag="0"/>
      <vel value="0.0453359840" flag="0"/>
      <psa03 value="0.1272376063" flag="0"/>
      <psa10 value="0.0218588707" flag="0"/>
      <psa30 value="0.0012145424" flag="0"/>
    </comp>
    <comp name="--.HHZ">
      <acc value="0.2225395636" flag="0"/>
      <vel value="0.0474486352" flag="0"/>
      <psa03 value="0.1131388291" flag="0"/>
      <psa10 value="0.0107743993" flag="0"/>
      <psa30 value="0.0007891338" flag="0"/>
    </comp>
  </station>
  <station code="AKRO" name="AKRO" netid="HT" insttype="Compact," lat="36.3584" lon="25.3967">
    <comp name="--.HHE">
      <acc value="0.9334459595" flag="0"/>
      <vel value="0.2453032284" flag="0"/>
      <psa03 value="1.1483223827" flag="0"/>
      <psa10 value="0.0786638753" flag="0"/>
      <psa30 value="0.0062693744" flag="0"/>
    </comp>
    <comp name="--.HHN">
      <acc value="0.4302895880" flag="0"/>
      <vel value="0.0963952918" flag="0"/>
      <psa03 value="0.4558629336" flag="0"/>
      <psa10 value="0.0333164492" flag="0"/>
      <psa30 value="0.0028411104" flag="0"/>
    </comp>
    <comp name="--.HHZ">
      <acc value="0.3315419242" flag="0"/>
      <vel value="0.0918217736" flag="0"/>
      <psa03 value="0.3591009293" flag="0"/>
      <psa10 value="0.0296608673" flag="0"/>
      <psa30 value="0.0022789774" flag="0"/>
    </comp>
  </station>
  <station code="CMBO" name="CMBO" netid="HT" insttype="120P," lat="36.4709" lon="25.4056">
    <comp name="--.HHE">
      <acc value="0.3727955033" flag="0"/>
      <vel value="0.0956831048" flag="0"/>
      <psa03 value="0.3333375607" flag="0"/>
      <psa10 value="0.0423181497" flag="0"/>
      <psa30 value="0.0022923386" flag="0"/>
    </comp>
    <comp name="--.HHZ">
      <acc value="0.3123960589" flag="0"/>
      <vel value="0.0920098676" flag="0"/>
      <psa03 value="0.4335268265" flag="0"/>
      <psa10 value="0.0174105748" flag="0"/>
      <psa30 value="0.0019893934" flag="0"/>
    </comp>
    <comp name="--.HHN">
      <acc value="0.4739001310" flag="0"/>
      <vel value="0.1404560518" flag="0"/>
      <psa03 value="0.3105632093" flag="0"/>
      <psa10 value="0.0495754749" flag="0"/>
      <psa30 value="0.0031924694" flag="0"/>
    </comp>
  </station>
</stationlist>
