<?xml version="1.0" encoding="UTF-8" standalone="yes"?>
<!DOCTYPE earthquake SYSTEM "stationlist.dtd">
<stationlist created="" xmlns="ch.ethz.sed.shakemap.usgs.xml">
  <station code="PFKS" name="PFKS" netid="HC" insttype="120" lat="35.0429" lon="25.4733">
    <comp name="--.HHE">
      <acc value="0.0238528110" flag="0"/>
      <vel value="0.0093614283" flag="0"/>
      <psa03 value="0.0426353418" flag="0"/>
      <psa10 value="0.0096949012" flag="0"/>
      <psa30 value="0.0005769970" flag="0"/>
    </comp>
    <comp name="--.HHZ">
      <acc value="0.0127188710" flag="0"/>
      <vel value="0.0041872545" flag="0"/>
      <psa03 value="0.0205802576" flag="0"/>
      <psa10 value="0.0049150085" flag="0"/>
      <psa30 value="0.0003961344" flag="0"/>
    </comp>
    <comp name="--.HHN">
      <acc value="0.0269459124" flag="0"/>
      <vel value="0.0093795539" flag="0"/>
      <psa03 value="0.0300008857" flag="0"/>
      <psa10 value="0.0097469311" flag="0"/>
      <psa30 value="0.0007110211" flag="0"/>
    </comp>
  </station>
  <station code="STIA" name="STIA" netid="HC" insttype="120" lat="35.2021" lon="26.0909">
    <comp name="--.HHZ">
      <acc value="0.0523025224" flag="0"/>
      <vel value="0.0133907273" flag="0"/>
      <psa03 value="0.0739035504" flag="0"/>
      <psa10 value="0.0103508402" flag="0"/>
      <psa30 value="0.0005731698" flag="0"/>
    </comp>
    <comp name="--.HHN">
      <acc value="0.0000000000" flag="0"/>
      <vel value="-100.0000000000" flag="0"/>
      <psa03 value="0.0000000000" flag="0"/>
      <psa10 value="0.0000000000" flag="0"/>
      <psa30 value="0.0000000000" flag="0"/>
    </comp>
    <comp name="--.HHE">
      <acc value="0.0546983453" flag="0"/>
      <vel value="0.0192133380" flag="0"/>
      <psa03 value="0.1052380475" flag="0"/>
      <psa10 value="0.0145240889" flag="0"/>
      <psa30 value="0.0015092418" flag="0"/>
    </comp>
  </station>
  <station code="KSS1" name="KSS1" netid="HI" insttype="CMG-5TD,ACCELEROMETER,GURALP" lat="35.4189" lon="26.9207">
    <comp name="--.HNE">
      <acc value="0.5868866673" flag="0"/>
      <vel value="0.1219658237" flag="0"/>
      <psa03 value="0.5672699035" flag="0"/>
      <psa10 value="0.0410291160" flag="0"/>
      <psa30 value="0.0036672874" flag="0"/>
    </comp>
    <comp name="--.HNN">
      <acc value="1.2438831320" flag="0"/>
      <vel value="0.4208647276" flag="0"/>
      <psa03 value="2.0670878968" flag="0"/>
      <psa10 value="0.0590467067" flag="0"/>
      <psa30 value="0.0067160721" flag="0"/>
    </comp>
    <comp name="--.HNZ">
      <acc value="0.3718823984" flag="0"/>
      <vel value="0.0838798617" flag="0"/>
      <psa03 value="0.3438416955" flag="0"/>
      <psa10 value="0.0282900940" flag="0"/>
      <psa30 value="0.0028831283" flag="0"/>
    </comp>
  </station>
  <station code="ZKR" name="ZKR" netid="HL" insttype="120" lat="35.1147" lon="26.2169">
    <comp name="--.HHZ">
      <acc value="0.0392511167" flag="0"/>
      <vel value="0.0121176619" flag="0"/>
      <psa03 value="0.0596580263" flag="0"/>
      <psa10 value="0.0198652408" flag="0"/>
      <psa30 value="0.0009505059" flag="0"/>
    </comp>
    <comp name="--.HHN">
      <acc value="0.0302190699" flag="0"/>
      <vel value="0.0117937720" flag="0"/>
      <psa03 value="0.0486608518" flag="0"/>
      <psa10 value="0.0104935256" flag="0"/>
      <psa30 value="0.0005581302" flag="0"/>
    </comp>
    <comp name="--.HHE">
      <acc value="0.0453651469" flag="0"/>
      <vel value="0.0201550009" flag="0"/>
      <psa03 value="0.0705205229" flag="0"/>
      <psa10 value="0.0130874047" flag="0"/>
      <psa30 value="0.0010429025" flag="0"/>
    </comp>
  </station>
</stationlist>
