<?xml version="1.0" encoding="UTF-8" standalone="yes"?>
<!DOCTYPE earthquake SYSTEM "stationlist.dtd">
<stationlist created="" xmlns="ch.ethz.sed.shakemap.usgs.xml">
  <station code="AKS" name="AKS" netid="KO" insttype="CMG-5T" commtype="DIG" lat="38.8785" lon="27.8129">
    <comp name="--.HNE">
      <acc value="0.1010657058" flag="0"/>
      <vel value="0.0190964259" flag="0"/>
      <psa03 value="0.0923259835" flag="0"/>
      <psa10 value="0.0094692518" flag="0"/>
      <psa30 value="0.0011737657" flag="0"/>
    </comp>
    <comp name="--.HNN">
      <acc value="0.0929736005" flag="0"/>
      <vel value="0.0256166269" flag="0"/>
      <psa03 value="0.1063909045" flag="0"/>
      <psa10 value="0.0081680687" flag="0"/>
      <psa30 value="0.0013325302" flag="0"/>
    </comp>
    <comp name="--.HNZ">
      <acc value="0.0578361567" flag="0"/>
      <vel value="0.0109212733" flag="0"/>
      <psa03 value="0.0291181365" flag="0"/>
      <psa10 value="0.0064996494" flag="0"/>
      <psa30 value="0.0008431345" flag="0"/>
    </comp>
  </station>
  <station code="BALB" name="BALB" netid="KO" insttype="CMG-5T" commtype="DIG" lat="39.6507" lon="27.8642">
    <comp name="--.HNN">
      <acc value="0.0455399849" flag="0"/>
      <vel value="0.0145152831" flag="0"/>
      <psa03 value="0.0684018632" flag="0"/>
      <psa10 value="0.0146028010" flag="0"/>
      <psa30 value="0.0012935020" flag="0"/>
    </comp>
    <comp name="--.HNE">
      <acc value="0.0346809365" flag="0"/>
      <vel value="0.0161589814" flag="0"/>
      <psa03 value="0.0894304266" flag="0"/>
      <psa10 value="0.0131264797" flag="0"/>
      <psa30 value="0.0010109078" flag="0"/>
    </comp>
    <comp name="--.HNZ">
      <acc value="0.0221075622" flag="0"/>
      <vel value="0.0070220123" flag="0"/>
      <psa03 value="0.0245633390" flag="0"/>
      <psa10 value="0.0078805855" flag="0"/>
      <psa30 value="0.0006487948" flag="0"/>
    </comp>
  </station>
  <station code="GOMA" name="GOMA" netid="KO" insttype="CMG-5T" commtype="DIG" lat="38.7077" lon="27.9175">
    <comp name="--.HNZ">
      <acc value="0.0729825514" flag="0"/>
      <vel value="0.0163285632" flag="0"/>
      <psa03 value="0.0679705115" flag="0"/>
      <psa10 value="0.0047141040" flag="0"/>
      <psa30 value="0.0005355087" flag="0"/>
    </comp>
    <comp name="--.HNE">
      <acc value="0.0617189470" flag="0"/>
      <vel value="0.0323460649" flag="0"/>
      <psa03 value="0.1413062971" flag="0"/>
      <psa10 value="0.0137674341" flag="0"/>
      <psa30 value="0.0008589041" flag="0"/>
    </comp>
    <comp name="--.HNN">
      <acc value="0.0836616917" flag="0"/>
      <vel value="0.0300574836" flag="0"/>
      <psa03 value="0.1516775872" flag="0"/>
      <psa10 value="0.0068437490" flag="0"/>
      <psa30 value="0.0008747999" flag="0"/>
    </comp>
  </station>
  <station code="GONE" name="GONE" netid="KO" insttype="CMG-5T" commtype="DIG" lat="40.0466" lon="27.686">
    <comp name="--.HNZ">
      <acc value="0.0130376110" flag="0"/>
      <vel value="0.0041361057" flag="0"/>
      <psa03 value="0.0139220579" flag="0"/>
      <psa10 value="0.0042732679" flag="0"/>
      <psa30 value="0.0002671479" flag="0"/>
    </comp>
    <comp name="--.HNN">
      <acc value="0.0221482703" flag="0"/>
      <vel value="0.0084321236" flag="0"/>
      <psa03 value="0.0405125468" flag="0"/>
      <psa10 value="0.0105292541" flag="0"/>
      <psa30 value="0.0012211922" flag="0"/>
    </comp>
    <comp name="--.HNE">
      <acc value="0.0167298065" flag="0"/>
      <vel value="0.0081585252" flag="0"/>
      <psa03 value="0.0283180668" flag="0"/>
      <psa10 value="0.0084267701" flag="0"/>
      <psa30 value="0.0005250813" flag="0"/>
    </comp>
  </station>
  <station code="GORD" name="GORD" netid="KO" insttype="CMG-5T" commtype="DIG" lat="38.9088" lon="28.1769">
    <comp name="--.HNZ">
      <acc value="0.0463408690" flag="0"/>
      <vel value="0.0210912092" flag="0"/>
      <psa03 value="0.0772162954" flag="0"/>
      <psa10 value="0.0277220649" flag="0"/>
      <psa30 value="0.0011542405" flag="0"/>
    </comp>
    <comp name="--.HNE">
      <acc value="0.0524654937" flag="0"/>
      <vel value="0.0321267616" flag="0"/>
      <psa03 value="0.1344227296" flag="0"/>
      <psa10 value="0.0483698048" flag="0"/>
      <psa30 value="0.0035480363" flag="0"/>
    </comp>
    <comp name="--.HNN">
      <acc value="0.0567129953" flag="0"/>
      <vel value="0.0421442892" flag="0"/>
      <psa03 value="0.0919056978" flag="0"/>
      <psa10 value="0.0521293308" flag="0"/>
      <psa30 value="0.0018713377" flag="0"/>
    </comp>
  </station>
  <station code="KCTX" name="KCTX" netid="KO" insttype="CMG-3ESP" commtype="DIG" lat="40.2626" lon="28.3353">
    <comp name="--.HHE">
      <acc value="0.0171723952" flag="0"/>
      <vel value="0.0070206721" flag="0"/>
      <psa03 value="0.0159512999" flag="0"/>
      <psa10 value="0.0096441473" flag="0"/>
      <psa30 value="0.0006347824" flag="0"/>
    </comp>
    <comp name="--.HHZ">
      <acc value="0.0136630997" flag="0"/>
      <vel value="0.0032048183" flag="0"/>
      <psa03 value="0.0129380416" flag="0"/>
      <psa10 value="0.0023316055" flag="0"/>
      <psa30 value="0.0001692077" flag="0"/>
    </comp>
    <comp name="--.HHN">
      <acc value="0.0141749387" flag="0"/>
      <vel value="0.0047731828" flag="0"/>
      <psa03 value="0.0278703073" flag="0"/>
      <psa10 value="0.0042699101" flag="0"/>
      <psa30 value="0.0002602369" flag="0"/>
    </comp>
  </station>
  <station code="KULA" name="KULA" netid="KO" insttype="CMG-3T" commtype="DIG" lat="38.5145" lon="28.6607">
    <comp name="--.HHZ">
      <acc value="0.0231648893" flag="0"/>
      <vel value="0.0064690752" flag="0"/>
      <psa03 value="0.0171561170" flag="0"/>
      <psa10 value="0.0041734494" flag="0"/>
      <psa30 value="0.0004394588" flag="0"/>
    </comp>
    <comp name="--.HHE">
      <acc value="0.0500536346" flag="0"/>
      <vel value="0.0138020591" flag="0"/>
      <psa03 value="0.0275473077" flag="0"/>
      <psa10 value="0.0076532163" flag="0"/>
      <psa30 value="0.0004774928" flag="0"/>
    </comp>
  </station>
  <station code="ORLT" name="ORLT" netid="KO" insttype="CMG-5T" commtype="DIG" lat="40.0452" lon="28.8914">
    <comp name="--.HNE">
      <acc value="0.0447789530" flag="0"/>
      <vel value="0.0178178142" flag="0"/>
      <psa03 value="0.0981035007" flag="0"/>
      <psa10 value="0.0137696033" flag="0"/>
      <psa30 value="0.0008048058" flag="0"/>
    </comp>
    <comp name="--.HNN">
      <acc value="0.0508084593" flag="0"/>
      <vel value="0.0191192091" flag="0"/>
      <psa03 value="0.1027088300" flag="0"/>
      <psa10 value="0.0150596470" flag="0"/>
      <psa30 value="0.0009522915" flag="0"/>
    </comp>
    <comp name="--.HNZ">
      <acc value="0.0140361801" flag="0"/>
      <vel value="0.0068959124" flag="0"/>
      <psa03 value="0.0283802516" flag="0"/>
      <psa10 value="0.0088733444" flag="0"/>
      <psa30 value="0.0006089982" flag="0"/>
    </comp>
  </station>
  <station code="SHAP" name="SHAP" netid="KO" insttype="CMG-5T" commtype="DIG" lat="39.0231" lon="29.222">
    <comp name="--.HNN">
      <acc value="0.0563379509" flag="0"/>
      <vel value="0.0186923844" flag="0"/>
      <psa03 value="0.0778147214" flag="0"/>
      <psa10 value="0.0066649643" flag="0"/>
      <psa30 value="0.0005367545" flag="0"/>
    </comp>
    <comp name="--.HNE">
      <acc value="0.0506753853" flag="0"/>
      <vel value="0.0145285764" flag="0"/>
      <psa03 value="0.0762770870" flag="0"/>
      <psa10 value="0.0039029761" flag="0"/>
      <psa30 value="0.0004900868" flag="0"/>
    </comp>
    <comp name="--.HNZ">
      <acc value="0.0335659885" flag="0"/>
      <vel value="0.0072308902" flag="0"/>
      <psa03 value="0.0315557414" flag="0"/>
      <psa10 value="0.0039060694" flag="0"/>
      <psa30 value="0.0002839529" flag="0"/>
    </comp>
  </station>
  <station code="SIMA" name="SIMA" netid="KO" insttype="CMG-6T" commtype="DIG" lat="39.0833" lon="28.9825">
    <comp name="--.HHE">
      <acc value="0.0447008457" flag="0"/>
      <vel value="0.0120868573" flag="0"/>
      <psa03 value="0.0509889166" flag="0"/>
      <psa10 value="0.0030190509" flag="0"/>
      <psa30 value="0.0007583338" flag="0"/>
    </comp>
    <comp name="--.HHN">
      <acc value="0.0455931819" flag="0"/>
      <vel value="0.0128372944" flag="0"/>
      <psa03 value="0.0521132194" flag="0"/>
      <psa10 value="0.0066301031" flag="0"/>
      <psa30 value="0.0006038627" flag="0"/>
    </comp>
    <comp name="--.HHZ">
      <acc value="0.0252048019" flag="0"/>
      <vel value="0.0063176136" flag="0"/>
      <psa03 value="0.0224851234" flag="0"/>
      <psa10 value="0.0023785497" flag="0"/>
      <psa30 value="0.0004179504" flag="0"/>
    </comp>
  </station>
  <station code="SMAA" name="SMAA" netid="KO" insttype="CMG-5T" commtype="DIG" lat="39.1005" lon="28.9805">
    <comp name="--.HNE">
      <acc value="0.0472396309" flag="0"/>
      <vel value="0.0214759272" flag="0"/>
      <psa03 value="0.0832299810" flag="0"/>
      <psa10 value="0.0309485604" flag="0"/>
      <psa30 value="0.0031974764" flag="0"/>
    </comp>
    <comp name="--.HNZ">
      <acc value="0.0343840344" flag="0"/>
      <vel value="0.0064656725" flag="0"/>
      <psa03 value="0.0277101206" flag="0"/>
      <psa10 value="0.0113524578" flag="0"/>
      <psa30 value="0.0005757104" flag="0"/>
    </comp>
    <comp name="--.HNN">
      <acc value="0.0403956871" flag="0"/>
      <vel value="0.0191220939" flag="0"/>
      <psa03 value="0.0835551694" flag="0"/>
      <psa10 value="0.0264142492" flag="0"/>
      <psa30 value="0.0020918528" flag="0"/>
    </comp>
  </station>
  <station code="SOMA" name="SOMA" netid="KO" insttype="CMG-5T" commtype="DIG" lat="39.1564" lon="27.5341">
    <comp name="--.HNZ">
      <acc value="0.0608999701" flag="0"/>
      <vel value="0.0185605503" flag="0"/>
      <psa03 value="0.0893141129" flag="0"/>
      <psa10 value="0.0149314303" flag="0"/>
      <psa30 value="0.0007601795" flag="0"/>
    </comp>
    <comp name="--.HNE">
      <acc value="0.0531941203" flag="0"/>
      <vel value="0.0179686838" flag="0"/>
      <psa03 value="0.0897891377" flag="0"/>
      <psa10 value="0.0249795969" flag="0"/>
      <psa30 value="0.0008842611" flag="0"/>
    </comp>
    <comp name="--.HNN">
      <acc value="0.0507473083" flag="0"/>
      <vel value="0.0186825929" flag="0"/>
      <psa03 value="0.0675496481" flag="0"/>
      <psa10 value="0.0166968862" flag="0"/>
      <psa30 value="0.0014226253" flag="0"/>
    </comp>
  </station>
  <station code="YAYO" name="YAYO" netid="KO" insttype="CMG-6T" commtype="DIG" lat="39.6113" lon="27.0726">
    <comp name="--.HHE">
      <acc value="0.0175056484" flag="0"/>
      <vel value="0.0092039855" flag="0"/>
      <psa03 value="0.0374617342" flag="0"/>
      <psa10 value="0.0109646009" flag="0"/>
      <psa30 value="0.0004957144" flag="0"/>
    </comp>
    <comp name="--.HHN">
      <acc value="0.0188288634" flag="0"/>
      <vel value="0.0088686417" flag="0"/>
      <psa03 value="0.0612717562" flag="0"/>
      <psa10 value="0.0044531142" flag="0"/>
      <psa30 value="0.0004425217" flag="0"/>
    </comp>
    <comp name="--.HHZ">
      <acc value="0.0334770082" flag="0"/>
      <vel value="0.0094501784" flag="0"/>
      <psa03 value="0.0387475885" flag="0"/>
      <psa10 value="0.0045021802" flag="0"/>
      <psa30 value="0.0004249907" flag="0"/>
    </comp>
  </station>
  <station code="YENI" name="YENI" netid="KO" insttype="CMG-5T" commtype="DIG" lat="39.9364" lon="27.2422">
    <comp name="--.HNE">
      <acc value="0.0270791454" flag="0"/>
      <vel value="0.0099121229" flag="0"/>
      <psa03 value="0.0472717328" flag="0"/>
      <psa10 value="0.0068167792" flag="0"/>
      <psa30 value="0.0006035731" flag="0"/>
    </comp>
    <comp name="--.HNN">
      <acc value="0.0348158164" flag="0"/>
      <vel value="0.0098547882" flag="0"/>
      <psa03 value="0.0425466873" flag="0"/>
      <psa10 value="0.0058722484" flag="0"/>
      <psa30 value="0.0004197197" flag="0"/>
    </comp>
    <comp name="--.HNZ">
      <acc value="0.0184684644" flag="0"/>
      <vel value="0.0045086384" flag="0"/>
      <psa03 value="0.0214337880" flag="0"/>
      <psa10 value="0.0042025038" flag="0"/>
      <psa30 value="0.0003833889" flag="0"/>
    </comp>
  </station>
</stationlist>
