<?xml version="1.0" encoding="UTF-8" standalone="yes"?>
<!DOCTYPE earthquake SYSTEM "stationlist.dtd">
<stationlist created="" xmlns="ch.ethz.sed.shakemap.usgs.xml">
  <station code="AKS" name="AKS" netid="KO" insttype="CMG-5T" commtype="DIG" lat="38.8785" lon="27.8129">
    <comp name="--.HNE">
      <acc value="0.1010657004" flag="0"/>
      <vel value="0.0190964194" flag="0"/>
      <psa03 value="0.0923259835" flag="0"/>
      <psa10 value="0.0094691489" flag="0"/>
      <psa30 value="0.0011718544" flag="0"/>
    </comp>
    <comp name="--.HNZ">
      <acc value="0.0578361513" flag="0"/>
      <vel value="0.0109212485" flag="0"/>
      <psa03 value="0.0291181365" flag="0"/>
      <psa10 value="0.0064998358" flag="0"/>
      <psa30 value="0.0008372854" flag="0"/>
    </comp>
    <comp name="--.HNN">
      <acc value="0.0929736093" flag="0"/>
      <vel value="0.0256166173" flag="0"/>
      <psa03 value="0.1063909045" flag="0"/>
      <psa10 value="0.0081680889" flag="0"/>
      <psa30 value="0.0013319687" flag="0"/>
    </comp>
  </station>
  <station code="BALB" name="BALB" netid="KO" insttype="CMG-5T" commtype="DIG" lat="39.6507" lon="27.8642">
    <comp name="--.HNZ">
      <acc value="0.0221075630" flag="0"/>
      <vel value="0.0070220103" flag="0"/>
      <psa03 value="0.0245633390" flag="0"/>
      <psa10 value="0.0078805855" flag="0"/>
      <psa30 value="0.0006488638" flag="0"/>
    </comp>
    <comp name="--.HNE">
      <acc value="0.0346809338" flag="0"/>
      <vel value="0.0161589849" flag="0"/>
      <psa03 value="0.0894304266" flag="0"/>
      <psa10 value="0.0131264868" flag="0"/>
      <psa30 value="0.0010105116" flag="0"/>
    </comp>
    <comp name="--.HNN">
      <acc value="0.0455399855" flag="0"/>
      <vel value="0.0145152792" flag="0"/>
      <psa03 value="0.0684018632" flag="0"/>
      <psa10 value="0.0146028053" flag="0"/>
      <psa30 value="0.0012920628" flag="0"/>
    </comp>
  </station>
  <station code="GOMA" name="GOMA" netid="KO" insttype="CMG-5T" commtype="DIG" lat="38.7077" lon="27.9175">
    <comp name="--.HNN">
      <acc value="0.0836616956" flag="0"/>
      <vel value="0.0300574835" flag="0"/>
      <psa03 value="0.1516775872" flag="0"/>
      <psa10 value="0.0068437463" flag="0"/>
      <psa30 value="0.0008741487" flag="0"/>
    </comp>
    <comp name="--.HNE">
      <acc value="0.0617189524" flag="0"/>
      <vel value="0.0323460623" flag="0"/>
      <psa03 value="0.1413062971" flag="0"/>
      <psa10 value="0.0137673601" flag="0"/>
      <psa30 value="0.0008611276" flag="0"/>
    </comp>
    <comp name="--.HNZ">
      <acc value="0.0729825470" flag="0"/>
      <vel value="0.0163285632" flag="0"/>
      <psa03 value="0.0679705114" flag="0"/>
      <psa10 value="0.0047137097" flag="0"/>
      <psa30 value="0.0005336738" flag="0"/>
    </comp>
  </station>
  <station code="GONE" name="GONE" netid="KO" insttype="CMG-5T" commtype="DIG" lat="40.0466" lon="27.686">
    <comp name="--.HNZ">
      <acc value="0.0130376112" flag="0"/>
      <vel value="0.0041361012" flag="0"/>
      <psa03 value="0.0139220579" flag="0"/>
      <psa10 value="0.0042732677" flag="0"/>
      <psa30 value="0.0002671940" flag="0"/>
    </comp>
    <comp name="--.HNE">
      <acc value="0.0167298049" flag="0"/>
      <vel value="0.0081585282" flag="0"/>
      <psa03 value="0.0283180668" flag="0"/>
      <psa10 value="0.0084267702" flag="0"/>
      <psa30 value="0.0005251912" flag="0"/>
    </comp>
    <comp name="--.HNN">
      <acc value="0.0221482690" flag="0"/>
      <vel value="0.0084321221" flag="0"/>
      <psa03 value="0.0405125468" flag="0"/>
      <psa10 value="0.0105292535" flag="0"/>
      <psa30 value="0.0012211779" flag="0"/>
    </comp>
  </station>
  <station code="GORD" name="GORD" netid="KO" insttype="CMG-5T" commtype="DIG" lat="38.9088" lon="28.1769">
    <comp name="--.HNN">
      <acc value="0.0567129961" flag="0"/>
      <vel value="0.0421442986" flag="0"/>
      <psa03 value="0.0919056978" flag="0"/>
      <psa10 value="0.0521294232" flag="0"/>
      <psa30 value="0.0018754701" flag="0"/>
    </comp>
    <comp name="--.HNZ">
      <acc value="0.0463408723" flag="0"/>
      <vel value="0.0210912293" flag="0"/>
      <psa03 value="0.0772162954" flag="0"/>
      <psa10 value="0.0277220601" flag="0"/>
      <psa30 value="0.0011503943" flag="0"/>
    </comp>
    <comp name="--.HNE">
      <acc value="0.0524654940" flag="0"/>
      <vel value="0.0321267627" flag="0"/>
      <psa03 value="0.1344227296" flag="0"/>
      <psa10 value="0.0483698167" flag="0"/>
      <psa30 value="0.0035525856" flag="0"/>
    </comp>
  </station>
  <station code="ORLT" name="ORLT" netid="KO" insttype="CMG-5T" commtype="DIG" lat="40.0452" lon="28.8914">
    <comp name="--.HNN">
      <acc value="0.0508084592" flag="0"/>
      <vel value="0.0191191985" flag="0"/>
      <psa03 value="0.1027088300" flag="0"/>
      <psa10 value="0.0150596477" flag="0"/>
      <psa30 value="0.0009546207" flag="0"/>
    </comp>
    <comp name="--.HNZ">
      <acc value="0.0140361855" flag="0"/>
      <vel value="0.0068959169" flag="0"/>
      <psa03 value="0.0283802516" flag="0"/>
      <psa10 value="0.0088733443" flag="0"/>
      <psa30 value="0.0006091442" flag="0"/>
    </comp>
    <comp name="--.HNE">
      <acc value="0.0447789584" flag="0"/>
      <vel value="0.0178177893" flag="0"/>
      <psa03 value="0.0981035007" flag="0"/>
      <psa10 value="0.0137696035" flag="0"/>
      <psa30 value="0.0008023454" flag="0"/>
    </comp>
  </station>
  <station code="SHAP" name="SHAP" netid="KO" insttype="CMG-5T" commtype="DIG" lat="39.0231" lon="29.222">
    <comp name="--.HNE">
      <acc value="0.0506753836" flag="0"/>
      <vel value="0.0145285745" flag="0"/>
      <psa03 value="0.0762770870" flag="0"/>
      <psa10 value="0.0039029761" flag="0"/>
      <psa30 value="0.0004900803" flag="0"/>
    </comp>
    <comp name="--.HNN">
      <acc value="0.0563379517" flag="0"/>
      <vel value="0.0186923829" flag="0"/>
      <psa03 value="0.0778147214" flag="0"/>
      <psa10 value="0.0066649642" flag="0"/>
      <psa30 value="0.0005366238" flag="0"/>
    </comp>
    <comp name="--.HNZ">
      <acc value="0.0335659879" flag="0"/>
      <vel value="0.0072308867" flag="0"/>
      <psa03 value="0.0315557414" flag="0"/>
      <psa10 value="0.0039060698" flag="0"/>
      <psa30 value="0.0002840989" flag="0"/>
    </comp>
  </station>
  <station code="SMAA" name="SMAA" netid="KO" insttype="CMG-5T" commtype="DIG" lat="39.1005" lon="28.9805">
    <comp name="--.HNE">
      <acc value="0.0472396369" flag="0"/>
      <vel value="0.0214759243" flag="0"/>
      <psa03 value="0.0832299810" flag="0"/>
      <psa10 value="0.0309485602" flag="0"/>
      <psa30 value="0.0031975133" flag="0"/>
    </comp>
    <comp name="--.HNN">
      <acc value="0.0403956827" flag="0"/>
      <vel value="0.0191220792" flag="0"/>
      <psa03 value="0.0835551694" flag="0"/>
      <psa10 value="0.0264142460" flag="0"/>
      <psa30 value="0.0020922186" flag="0"/>
    </comp>
    <comp name="--.HNZ">
      <acc value="0.0343840207" flag="0"/>
      <vel value="0.0064656644" flag="0"/>
      <psa03 value="0.0277101206" flag="0"/>
      <psa10 value="0.0113524607" flag="0"/>
      <psa30 value="0.0005730073" flag="0"/>
    </comp>
  </station>
  <station code="SOMA" name="SOMA" netid="KO" insttype="CMG-5T" commtype="DIG" lat="39.1564" lon="27.5341">
    <comp name="--.HNN">
      <acc value="0.0507473077" flag="0"/>
      <vel value="0.0186825850" flag="0"/>
      <psa03 value="0.0675496481" flag="0"/>
      <psa10 value="0.0166968888" flag="0"/>
      <psa30 value="0.0014224048" flag="0"/>
    </comp>
    <comp name="--.HNE">
      <acc value="0.0531941196" flag="0"/>
      <vel value="0.0179686831" flag="0"/>
      <psa03 value="0.0897891377" flag="0"/>
      <psa10 value="0.0249795953" flag="0"/>
      <psa30 value="0.0008842088" flag="0"/>
    </comp>
    <comp name="--.HNZ">
      <acc value="0.0608999717" flag="0"/>
      <vel value="0.0185605472" flag="0"/>
      <psa03 value="0.0893141129" flag="0"/>
      <psa10 value="0.0149314328" flag="0"/>
      <psa30 value="0.0007600519" flag="0"/>
    </comp>
  </station>
  <station code="YAYO" name="YAYO" netid="KO" insttype="CMG-6T" commtype="DIG" lat="39.6113" lon="27.0726">
    <comp name="--.HHE">
      <acc value="0.0175056476" flag="0"/>
      <vel value="0.0092039980" flag="0"/>
      <psa03 value="0.0374617342" flag="0"/>
      <psa10 value="0.0109646010" flag="0"/>
      <psa30 value="0.0004956276" flag="0"/>
    </comp>
    <comp name="--.HHN">
      <acc value="0.0188288632" flag="0"/>
      <vel value="0.0088686423" flag="0"/>
      <psa03 value="0.0612717562" flag="0"/>
      <psa10 value="0.0044531141" flag="0"/>
      <psa30 value="0.0004425247" flag="0"/>
    </comp>
    <comp name="--.HHZ">
      <acc value="0.0334770075" flag="0"/>
      <vel value="0.0094501771" flag="0"/>
      <psa03 value="0.0387475885" flag="0"/>
      <psa10 value="0.0045021801" flag="0"/>
      <psa30 value="0.0004249898" flag="0"/>
    </comp>
  </station>
  <station code="YENI" name="YENI" netid="KO" insttype="CMG-5T" commtype="DIG" lat="39.9364" lon="27.2422">
    <comp name="--.HNE">
      <acc value="0.0270791399" flag="0"/>
      <vel value="0.0099121285" flag="0"/>
      <psa03 value="0.0472717328" flag="0"/>
      <psa10 value="0.0068167788" flag="0"/>
      <psa30 value="0.0006035527" flag="0"/>
    </comp>
    <comp name="--.HNN">
      <acc value="0.0348158005" flag="0"/>
      <vel value="0.0098547895" flag="0"/>
      <psa03 value="0.0425466873" flag="0"/>
      <psa10 value="0.0058722504" flag="0"/>
      <psa30 value="0.0004200283" flag="0"/>
    </comp>
    <comp name="--.HNZ">
      <acc value="0.0184684626" flag="0"/>
      <vel value="0.0045086237" flag="0"/>
      <psa03 value="0.0214337880" flag="0"/>
      <psa10 value="0.0042025034" flag="0"/>
      <psa30 value="0.0003832258" flag="0"/>
    </comp>
  </station>
</stationlist>
