<?xml version="1.0" encoding="UTF-8" standalone="yes"?>
<!DOCTYPE earthquake SYSTEM "stationlist.dtd">
<stationlist created="" xmlns="ch.ethz.sed.shakemap.usgs.xml">
  <station code="KARP" name="KARP" netid="GE" insttype="STS-2/N" lat="35.5471" lon="27.1611">
    <comp name="--.HHE">
      <acc value="0.0283227599" flag="0"/>
      <vel value="0.0113353611" flag="0"/>
      <psa03 value="0.0324272062" flag="0"/>
      <psa10 value="0.0122038058" flag="0"/>
      <psa30 value="0.0004297198" flag="0"/>
    </comp>
    <comp name="--.HHN">
      <acc value="0.0232956415" flag="0"/>
      <vel value="0.0058459459" flag="0"/>
      <psa03 value="0.0218919252" flag="0"/>
      <psa10 value="0.0059514469" flag="0"/>
      <psa30 value="0.0003340253" flag="0"/>
    </comp>
    <comp name="--.HHZ">
      <acc value="0.0124237609" flag="0"/>
      <vel value="0.0034238096" flag="0"/>
      <psa03 value="0.0198229269" flag="0"/>
      <psa10 value="0.0045178418" flag="0"/>
      <psa30 value="0.0002744836" flag="0"/>
    </comp>
  </station>
  <station code="THERA" name="THERA" netid="GE" insttype="STS-2/N" lat="36.367" lon="25.4753">
    <comp name="--.HHZ">
      <acc value="0.0224270499" flag="0"/>
      <vel value="0.0064525058" flag="0"/>
      <psa03 value="0.0319373072" flag="0"/>
      <psa10 value="0.0036182883" flag="0"/>
      <psa30 value="0.0003031401" flag="0"/>
    </comp>
    <comp name="--.HHN">
      <acc value="0.0210387309" flag="0"/>
      <vel value="0.0073395796" flag="0"/>
      <psa03 value="0.0228775644" flag="0"/>
      <psa10 value="0.0024846805" flag="0"/>
      <psa30 value="0.0002714841" flag="0"/>
    </comp>
    <comp name="--.HHE">
      <acc value="0.0373953210" flag="0"/>
      <vel value="0.0093646680" flag="0"/>
      <psa03 value="0.0374296262" flag="0"/>
      <psa10 value="0.0048302306" flag="0"/>
      <psa30 value="0.0005684425" flag="0"/>
    </comp>
  </station>
  <station code="ZKR" name="ZKR" netid="GE" insttype="STS-2/N" lat="35.1147" lon="26.2169">
    <comp name="--.HHE">
      <acc value="0.0286816496" flag="0"/>
      <vel value="0.0134882518" flag="0"/>
      <psa03 value="0.0375140056" flag="0"/>
      <psa10 value="0.0138471107" flag="0"/>
      <psa30 value="0.0014228714" flag="0"/>
    </comp>
    <comp name="--.HHZ">
      <acc value="0.0211911693" flag="0"/>
      <vel value="0.0065009984" flag="0"/>
      <psa03 value="0.0211457436" flag="0"/>
      <psa10 value="0.0096325343" flag="0"/>
      <psa30 value="0.0006433845" flag="0"/>
    </comp>
    <comp name="--.HHN">
      <acc value="0.0176157573" flag="0"/>
      <vel value="0.0072795620" flag="0"/>
      <psa03 value="0.0230287716" flag="0"/>
      <psa10 value="0.0069026031" flag="0"/>
      <psa30 value="0.0004057757" flag="0"/>
    </comp>
  </station>
  <station code="SNT1" name="SNT1" netid="HA" insttype="30" lat="36.4159" lon="25.4282">
    <comp name="--.HHZ">
      <acc value="0.0146439713" flag="0"/>
      <vel value="0.0054817055" flag="0"/>
      <psa03 value="0.0245809231" flag="0"/>
      <psa10 value="0.0045403785" flag="0"/>
      <psa30 value="0.0004689482" flag="0"/>
    </comp>
    <comp name="--.HHN">
      <acc value="0.0196891407" flag="0"/>
      <vel value="0.0100194165" flag="0"/>
      <psa03 value="0.0226222483" flag="0"/>
      <psa10 value="0.0117245423" flag="0"/>
      <psa30 value="0.0007291163" flag="0"/>
    </comp>
    <comp name="--.HHE">
      <acc value="0.0182602739" flag="0"/>
      <vel value="0.0093724049" flag="0"/>
      <psa03 value="0.0260591625" flag="0"/>
      <psa10 value="0.0134995435" flag="0"/>
      <psa30 value="0.0017500318" flag="0"/>
    </comp>
  </station>
  <station code="SNT5" name="SNT5" netid="HA" insttype="1s-100Hz," lat="36.4037" lon="25.3953">
    <comp name="--.HHN">
      <acc value="0.0772901285" flag="0"/>
      <vel value="0.0271321305" flag="0"/>
      <psa03 value="0.1080557576" flag="0"/>
      <psa10 value="0.0056341584" flag="0"/>
      <psa30 value="0.0015274751" flag="0"/>
    </comp>
    <comp name="--.HHE">
      <acc value="0.1199904843" flag="0"/>
      <vel value="0.0371403935" flag="0"/>
      <psa03 value="0.1704500625" flag="0"/>
      <psa10 value="0.0084277156" flag="0"/>
      <psa30 value="0.0015793630" flag="0"/>
    </comp>
    <comp name="--.HHZ">
      <acc value="0.0326423781" flag="0"/>
      <vel value="0.0096329746" flag="0"/>
      <psa03 value="0.0426003169" flag="0"/>
      <psa10 value="0.0059386671" flag="0"/>
      <psa30 value="0.0005250591" flag="0"/>
    </comp>
  </station>
  <station code="IMOD" name="IMOD" netid="HC" insttype="120" lat="34.9731" lon="24.7995">
    <comp name="--.HHE">
      <acc value="0.0270998243" flag="0"/>
      <vel value="0.0136466393" flag="0"/>
      <psa03 value="0.0849159030" flag="0"/>
      <psa10 value="0.0098787772" flag="0"/>
      <psa30 value="0.0006258582" flag="0"/>
    </comp>
    <comp name="--.HHN">
      <acc value="0.0283599188" flag="0"/>
      <vel value="0.0226596619" flag="0"/>
      <psa03 value="0.0682621142" flag="0"/>
      <psa10 value="0.0180047650" flag="0"/>
      <psa30 value="0.0010280175" flag="0"/>
    </comp>
    <comp name="--.HHZ">
      <acc value="0.0216535745" flag="0"/>
      <vel value="0.0103952079" flag="0"/>
      <psa03 value="0.0574757742" flag="0"/>
      <psa10 value="0.0069112921" flag="0"/>
      <psa30 value="0.0004047115" flag="0"/>
    </comp>
  </station>
  <station code="KNSS" name="KNSS" netid="HC" insttype="60" lat="35.3042" lon="25.1802">
    <comp name="--.HHN">
      <acc value="0.0811199788" flag="0"/>
      <vel value="0.0273168790" flag="0"/>
      <psa03 value="0.2570957095" flag="0"/>
      <psa10 value="0.0111205158" flag="0"/>
      <psa30 value="0.0013046610" flag="0"/>
    </comp>
    <comp name="--.HHE">
      <acc value="0.0907562096" flag="0"/>
      <vel value="0.0297224052" flag="0"/>
      <psa03 value="0.1905754166" flag="0"/>
      <psa10 value="0.0215751372" flag="0"/>
      <psa30 value="0.0014784156" flag="0"/>
    </comp>
    <comp name="--.HHZ">
      <acc value="0.0781610372" flag="0"/>
      <vel value="0.0242187492" flag="0"/>
      <psa03 value="0.1029390101" flag="0"/>
      <psa10 value="0.0180720299" flag="0"/>
      <psa30 value="0.0008243142" flag="0"/>
    </comp>
  </station>
  <station code="PFKS" name="PFKS" netid="HC" insttype="120" lat="35.0429" lon="25.4733">
    <comp name="--.HHN">
      <acc value="0.0838709514" flag="0"/>
      <vel value="0.0276773336" flag="0"/>
      <psa03 value="0.1201226474" flag="0"/>
      <psa10 value="0.0106476149" flag="0"/>
      <psa30 value="0.0009989490" flag="0"/>
    </comp>
    <comp name="--.HHZ">
      <acc value="0.0456315623" flag="0"/>
      <vel value="0.0182130934" flag="0"/>
      <psa03 value="0.0544044858" flag="0"/>
      <psa10 value="0.0100392150" flag="0"/>
      <psa30 value="0.0007403683" flag="0"/>
    </comp>
    <comp name="--.HHE">
      <acc value="0.0772309380" flag="0"/>
      <vel value="0.0295143997" flag="0"/>
      <psa03 value="0.1230021152" flag="0"/>
      <psa10 value="0.0159006726" flag="0"/>
      <psa30 value="0.0012612848" flag="0"/>
    </comp>
  </station>
  <station code="STIA" name="STIA" netid="HC" insttype="120" lat="35.2021" lon="26.0909">
    <comp name="--.HHN">
      <acc value="0.0425730696" flag="0"/>
      <vel value="0.0179356367" flag="0"/>
      <psa03 value="0.0791005273" flag="0"/>
      <psa10 value="0.0180774367" flag="0"/>
      <psa30 value="0.0013555176" flag="0"/>
    </comp>
    <comp name="--.HHE">
      <acc value="0.0374515872" flag="0"/>
      <vel value="0.0182084196" flag="0"/>
      <psa03 value="0.0582040702" flag="0"/>
      <psa10 value="0.0232030712" flag="0"/>
      <psa30 value="0.0014309008" flag="0"/>
    </comp>
    <comp name="--.HHZ">
      <acc value="0.0515584517" flag="0"/>
      <vel value="0.0144630798" flag="0"/>
      <psa03 value="0.0540708751" flag="0"/>
      <psa10 value="0.0071169516" flag="0"/>
      <psa30 value="0.0006484316" flag="0"/>
    </comp>
  </station>
  <station code="TEFL" name="TEFL" netid="HC" insttype="GEOtiny," lat="35.0933" lon="25.1634">
    <comp name="--.HHN">
      <acc value="0.2133709577" flag="0"/>
      <vel value="0.0583142175" flag="0"/>
      <psa03 value="0.2404533615" flag="0"/>
      <psa10 value="0.0295087459" flag="0"/>
      <psa30 value="0.0015965505" flag="0"/>
    </comp>
    <comp name="--.HHE">
      <acc value="0.1746290564" flag="0"/>
      <vel value="0.0584738406" flag="0"/>
      <psa03 value="0.2634153571" flag="0"/>
      <psa10 value="0.0312162875" flag="0"/>
      <psa30 value="0.0021538847" flag="0"/>
    </comp>
    <comp name="--.HHZ">
      <acc value="0.0886376027" flag="0"/>
      <vel value="0.0347822105" flag="0"/>
      <psa03 value="0.1360701476" flag="0"/>
      <psa10 value="0.0142851561" flag="0"/>
      <psa30 value="0.0008801009" flag="0"/>
    </comp>
  </station>
  <station code="SIT2" name="SIT2" netid="HI" insttype="CMG-5TD,ACCELEROMETER,GURALP" lat="35.2059" lon="26.107">
    <comp name="--.HNZ">
      <acc value="0.0453245795" flag="0"/>
      <vel value="0.0153847135" flag="0"/>
      <psa03 value="0.0818360383" flag="0"/>
      <psa10 value="0.0070747803" flag="0"/>
      <psa30 value="0.0006721548" flag="0"/>
    </comp>
    <comp name="--.HNN">
      <acc value="0.0772386969" flag="0"/>
      <vel value="0.0448255329" flag="0"/>
      <psa03 value="0.2655497941" flag="0"/>
      <psa10 value="0.0324342772" flag="0"/>
      <psa30 value="0.0021533396" flag="0"/>
    </comp>
    <comp name="--.HNE">
      <acc value="0.0860450282" flag="0"/>
      <vel value="0.0479497331" flag="0"/>
      <psa03 value="0.1910037300" flag="0"/>
      <psa10 value="0.0450526644" flag="0"/>
      <psa30 value="0.0024161572" flag="0"/>
    </comp>
  </station>
  <station code="IACM" name="IACM" netid="HL" insttype="120" lat="35.3058" lon="25.0709">
    <comp name="--.HHE">
      <acc value="0.2445831266" flag="0"/>
      <vel value="0.1423951975" flag="0"/>
      <psa03 value="0.7322941648" flag="0"/>
      <psa10 value="0.0873626124" flag="0"/>
      <psa30 value="0.0033879986" flag="0"/>
    </comp>
    <comp name="--.HHN">
      <acc value="0.2319418680" flag="0"/>
      <vel value="0.1001026691" flag="0"/>
      <psa03 value="0.6827232276" flag="0"/>
      <psa10 value="0.0661669043" flag="0"/>
      <psa30 value="0.0030485789" flag="0"/>
    </comp>
    <comp name="--.HHZ">
      <acc value="0.2047634657" flag="0"/>
      <vel value="0.0671141715" flag="0"/>
      <psa03 value="0.2337769283" flag="0"/>
      <psa10 value="0.0348314590" flag="0"/>
      <psa30 value="0.0014334373" flag="0"/>
    </comp>
  </station>
  <station code="IDI" name="IDI" netid="HL" insttype="120" lat="35.288" lon="24.89">
    <comp name="--.HHE">
      <acc value="0.0589454415" flag="0"/>
      <vel value="0.0252041333" flag="0"/>
      <psa03 value="0.1365347686" flag="0"/>
      <psa10 value="0.0119370045" flag="0"/>
      <psa30 value="0.0007311020" flag="0"/>
    </comp>
    <comp name="--.HHZ">
      <acc value="0.0530313135" flag="0"/>
      <vel value="0.0157298690" flag="0"/>
      <psa03 value="0.1009322916" flag="0"/>
      <psa10 value="0.0100641291" flag="0"/>
      <psa30 value="0.0007474801" flag="0"/>
    </comp>
    <comp name="--.HHN">
      <acc value="0.0583418576" flag="0"/>
      <vel value="0.0188436657" flag="0"/>
      <psa03 value="0.1223685828" flag="0"/>
      <psa10 value="0.0126648690" flag="0"/>
      <psa30 value="0.0008088909" flag="0"/>
    </comp>
  </station>
  <station code="KARP" name="KARP" netid="HL" insttype="120" lat="35.5471" lon="27.1611">
    <comp name="--.HHE">
      <acc value="0.0264672912" flag="0"/>
      <vel value="0.0111225168" flag="0"/>
      <psa03 value="0.0317151375" flag="0"/>
      <psa10 value="0.0121236351" flag="0"/>
      <psa30 value="0.0004272840" flag="0"/>
    </comp>
    <comp name="--.HHN">
      <acc value="0.0209717740" flag="0"/>
      <vel value="0.0056731532" flag="0"/>
      <psa03 value="0.0212527358" flag="0"/>
      <psa10 value="0.0059022833" flag="0"/>
      <psa30 value="0.0003325599" flag="0"/>
    </comp>
    <comp name="--.HHZ">
      <acc value="0.0112189080" flag="0"/>
      <vel value="0.0033698541" flag="0"/>
      <psa03 value="0.0192272223" flag="0"/>
      <psa10 value="0.0044885568" flag="0"/>
      <psa30 value="0.0002723426" flag="0"/>
    </comp>
  </station>
  <station code="KSTE" name="KSTE" netid="HL" insttype="60" lat="35.1801" lon="25.3372">
    <comp name="--.HHE">
      <acc value="0.0422490770" flag="0"/>
      <vel value="0.0096739568" flag="0"/>
      <psa03 value="0.0440513920" flag="0"/>
      <psa10 value="0.0086354671" flag="0"/>
      <psa30 value="0.0007659956" flag="0"/>
    </comp>
    <comp name="--.HHN">
      <acc value="0.0506053787" flag="0"/>
      <vel value="0.0167585932" flag="0"/>
      <psa03 value="0.0900892758" flag="0"/>
      <psa10 value="0.0159802556" flag="0"/>
      <psa30 value="0.0014091198" flag="0"/>
    </comp>
    <comp name="--.HHZ">
      <acc value="0.0514809304" flag="0"/>
      <vel value="0.0146452311" flag="0"/>
      <psa03 value="0.0626600633" flag="0"/>
      <psa10 value="0.0110541882" flag="0"/>
      <psa30 value="0.0008790194" flag="0"/>
    </comp>
  </station>
  <station code="NPS" name="NPS" netid="HL" insttype="CMG3ESPC-120s" lat="35.2613" lon="25.6104">
    <comp name="--.HHE">
      <acc value="0.0406650737" flag="0"/>
      <vel value="0.0123034966" flag="0"/>
      <psa03 value="0.0730568159" flag="0"/>
      <psa10 value="0.0127312035" flag="0"/>
      <psa30 value="0.0011284187" flag="0"/>
    </comp>
    <comp name="--.HHN">
      <acc value="0.0746914352" flag="0"/>
      <vel value="0.0212224577" flag="0"/>
      <psa03 value="0.0877684860" flag="0"/>
      <psa10 value="0.0228279411" flag="0"/>
      <psa30 value="0.0012259035" flag="0"/>
    </comp>
    <comp name="--.HHZ">
      <acc value="0.0846581600" flag="0"/>
      <vel value="0.0166498733" flag="0"/>
      <psa03 value="0.0705543366" flag="0"/>
      <psa10 value="0.0147668358" flag="0"/>
      <psa30 value="0.0013393309" flag="0"/>
    </comp>
  </station>
  <station code="SAP3" name="SAP3" netid="HL" insttype="LE3D20_SMART24" lat="36.4356" lon="25.3454">
    <comp name="--.HHE">
      <acc value="0.0000217298" flag="0"/>
      <vel value="0.0000015087" flag="0"/>
      <psa03 value="0.0000045742" flag="0"/>
      <psa10 value="0.0000007979" flag="0"/>
      <psa30 value="0.0000001053" flag="0"/>
    </comp>
    <comp name="--.HHN">
      <acc value="0.0000254651" flag="0"/>
      <vel value="0.0000013867" flag="0"/>
      <psa03 value="0.0000047000" flag="0"/>
      <psa10 value="0.0000008079" flag="0"/>
      <psa30 value="0.0000001095" flag="0"/>
    </comp>
    <comp name="--.HHZ">
      <acc value="0.0704748882" flag="0"/>
      <vel value="0.0300265000" flag="0"/>
      <psa03 value="0.1203442685" flag="0"/>
      <psa10 value="0.0120658184" flag="0"/>
      <psa30 value="0.0012837164" flag="0"/>
    </comp>
  </station>
  <station code="SIVA" name="SIVA" netid="HL" insttype="60" lat="35.0178" lon="24.812">
    <comp name="--.HHE">
      <acc value="0.0381338790" flag="0"/>
      <vel value="0.0188591488" flag="0"/>
      <psa03 value="0.0952153591" flag="0"/>
      <psa10 value="0.0170300691" flag="0"/>
      <psa30 value="0.0007228519" flag="0"/>
    </comp>
    <comp name="--.HHZ">
      <acc value="0.0226976530" flag="0"/>
      <vel value="0.0117381095" flag="0"/>
      <psa03 value="0.0562555215" flag="0"/>
      <psa10 value="0.0057843914" flag="0"/>
      <psa30 value="0.0004308706" flag="0"/>
    </comp>
    <comp name="--.HHN">
      <acc value="0.0336690447" flag="0"/>
      <vel value="0.0162748871" flag="0"/>
      <psa03 value="0.0716233088" flag="0"/>
      <psa10 value="0.0121553111" flag="0"/>
      <psa30 value="0.0006645865" flag="0"/>
    </comp>
  </station>
  <station code="THERA" name="THERA" netid="HL" insttype="120" lat="36.367" lon="25.4753">
    <comp name="--.HHN">
      <acc value="0.0204861031" flag="0"/>
      <vel value="0.0071064400" flag="0"/>
      <psa03 value="0.0222260290" flag="0"/>
      <psa10 value="0.0024630704" flag="0"/>
      <psa30 value="0.0002692133" flag="0"/>
    </comp>
    <comp name="--.HHZ">
      <acc value="0.0217635083" flag="0"/>
      <vel value="0.0062931992" flag="0"/>
      <psa03 value="0.0310050100" flag="0"/>
      <psa10 value="0.0035594934" flag="0"/>
      <psa30 value="0.0003000977" flag="0"/>
    </comp>
    <comp name="--.HHE">
      <acc value="0.0360874727" flag="0"/>
      <vel value="0.0091208036" flag="0"/>
      <psa03 value="0.0362340410" flag="0"/>
      <psa10 value="0.0047736935" flag="0"/>
      <psa30 value="0.0005662985" flag="0"/>
    </comp>
  </station>
  <station code="ZKR" name="ZKR" netid="HL" insttype="120" lat="35.1147" lon="26.2169">
    <comp name="--.HHE">
      <acc value="0.0283256202" flag="0"/>
      <vel value="0.0131633771" flag="0"/>
      <psa03 value="0.0367466811" flag="0"/>
      <psa10 value="0.0136976065" flag="0"/>
      <psa30 value="0.0014230895" flag="0"/>
    </comp>
    <comp name="--.HHZ">
      <acc value="0.0212406318" flag="0"/>
      <vel value="0.0062996533" flag="0"/>
      <psa03 value="0.0205516681" flag="0"/>
      <psa10 value="0.0095729940" flag="0"/>
      <psa30 value="0.0006427001" flag="0"/>
    </comp>
    <comp name="--.HHN">
      <acc value="0.0174813563" flag="0"/>
      <vel value="0.0071495563" flag="0"/>
      <psa03 value="0.0223934734" flag="0"/>
      <psa10 value="0.0068302447" flag="0"/>
      <psa30 value="0.0004046308" flag="0"/>
    </comp>
  </station>
  <station code="CMBO" name="CMBO" netid="HT" insttype="120P," lat="36.4709" lon="25.4056">
    <comp name="--.HHE">
      <acc value="0.0703642291" flag="0"/>
      <vel value="0.0320118806" flag="0"/>
      <psa03 value="0.1113909847" flag="0"/>
      <psa10 value="0.0331270669" flag="0"/>
      <psa30 value="0.0021044166" flag="0"/>
    </comp>
    <comp name="--.HHZ">
      <acc value="0.1314815222" flag="0"/>
      <vel value="0.0374054313" flag="0"/>
      <psa03 value="0.1435521766" flag="0"/>
      <psa10 value="0.0103104778" flag="0"/>
      <psa30 value="0.0014191675" flag="0"/>
    </comp>
    <comp name="--.HHN">
      <acc value="0.0803626436" flag="0"/>
      <vel value="0.0317749591" flag="0"/>
      <psa03 value="0.1502789626" flag="0"/>
      <psa10 value="0.0416541061" flag="0"/>
      <psa30 value="0.0020191918" flag="0"/>
    </comp>
  </station>
  <station code="IDI" name="IDI" netid="MN" insttype="" lat="35.288" lon="24.89">
    <comp name="--.HHE">
      <acc value="0.0626087775" flag="0"/>
      <vel value="0.0259249905" flag="0"/>
      <psa03 value="0.1375749629" flag="0"/>
      <psa10 value="0.0119514036" flag="0"/>
      <psa30 value="0.0007313966" flag="0"/>
    </comp>
    <comp name="--.HHZ">
      <acc value="0.0552423695" flag="0"/>
      <vel value="0.0162290021" flag="0"/>
      <psa03 value="0.1017798201" flag="0"/>
      <psa10 value="0.0100513723" flag="0"/>
      <psa30 value="0.0007464960" flag="0"/>
    </comp>
    <comp name="--.HHN">
      <acc value="0.0585064974" flag="0"/>
      <vel value="0.0189610045" flag="0"/>
      <psa03 value="0.1243068749" flag="0"/>
      <psa10 value="0.0126620047" flag="0"/>
      <psa30 value="0.0008097717" flag="0"/>
    </comp>
  </station>
</stationlist>
