<?xml version="1.0" encoding="UTF-8" standalone="yes"?>
<!DOCTYPE earthquake SYSTEM "stationlist.dtd">
<stationlist created="" xmlns="ch.ethz.sed.shakemap.usgs.xml">
  <station code="KARP" name="KARP" netid="GE" insttype="STS-2/N" lat="35.5471" lon="27.1611">
    <comp name="--.HHN">
      <acc value="0.0232956418" flag="0"/>
      <vel value="0.0058459465" flag="0"/>
      <psa03 value="0.0218919252" flag="0"/>
      <psa10 value="0.0059514469" flag="0"/>
      <psa30 value="0.0003340373" flag="0"/>
    </comp>
    <comp name="--.HHZ">
      <acc value="0.0124237606" flag="0"/>
      <vel value="0.0034238105" flag="0"/>
      <psa03 value="0.0198229269" flag="0"/>
      <psa10 value="0.0045178418" flag="0"/>
      <psa30 value="0.0002745389" flag="0"/>
    </comp>
    <comp name="--.HHE">
      <acc value="0.0283227599" flag="0"/>
      <vel value="0.0113353612" flag="0"/>
      <psa03 value="0.0324272062" flag="0"/>
      <psa10 value="0.0122038058" flag="0"/>
      <psa30 value="0.0004296874" flag="0"/>
    </comp>
  </station>
  <station code="THERA" name="THERA" netid="GE" insttype="STS-2/N" lat="36.367" lon="25.4753">
    <comp name="--.HHN">
      <acc value="0.0210387308" flag="0"/>
      <vel value="0.0073395797" flag="0"/>
      <psa03 value="0.0228775644" flag="0"/>
      <psa10 value="0.0024846805" flag="0"/>
      <psa30 value="0.0002714785" flag="0"/>
    </comp>
    <comp name="--.HHE">
      <acc value="0.0373953210" flag="0"/>
      <vel value="0.0093646676" flag="0"/>
      <psa03 value="0.0374296262" flag="0"/>
      <psa10 value="0.0048302306" flag="0"/>
      <psa30 value="0.0005684482" flag="0"/>
    </comp>
    <comp name="--.HHZ">
      <acc value="0.0224270499" flag="0"/>
      <vel value="0.0064525061" flag="0"/>
      <psa03 value="0.0319373072" flag="0"/>
      <psa10 value="0.0036182883" flag="0"/>
      <psa30 value="0.0003031214" flag="0"/>
    </comp>
  </station>
  <station code="ZKR" name="ZKR" netid="GE" insttype="STS-2/N" lat="35.1147" lon="26.2169">
    <comp name="--.HHE">
      <acc value="0.0286816497" flag="0"/>
      <vel value="0.0134882515" flag="0"/>
      <psa03 value="0.0375140056" flag="0"/>
      <psa10 value="0.0138471107" flag="0"/>
      <psa30 value="0.0014228776" flag="0"/>
    </comp>
    <comp name="--.HHN">
      <acc value="0.0176157572" flag="0"/>
      <vel value="0.0072795619" flag="0"/>
      <psa03 value="0.0230287716" flag="0"/>
      <psa10 value="0.0069026032" flag="0"/>
      <psa30 value="0.0004057766" flag="0"/>
    </comp>
    <comp name="--.HHZ">
      <acc value="0.0211911690" flag="0"/>
      <vel value="0.0065009985" flag="0"/>
      <psa03 value="0.0211457436" flag="0"/>
      <psa10 value="0.0096325343" flag="0"/>
      <psa30 value="0.0006433853" flag="0"/>
    </comp>
  </station>
  <station code="SNT1" name="SNT1" netid="HA" insttype="30" lat="36.4159" lon="25.4282">
    <comp name="--.HHE">
      <acc value="0.0182602736" flag="0"/>
      <vel value="0.0093724179" flag="0"/>
      <psa03 value="0.0260591625" flag="0"/>
      <psa10 value="0.0134995435" flag="0"/>
      <psa30 value="0.0017502482" flag="0"/>
    </comp>
    <comp name="--.HHN">
      <acc value="0.0196891412" flag="0"/>
      <vel value="0.0100194159" flag="0"/>
      <psa03 value="0.0226222483" flag="0"/>
      <psa10 value="0.0117245423" flag="0"/>
      <psa30 value="0.0007292054" flag="0"/>
    </comp>
    <comp name="--.HHZ">
      <acc value="0.0146439710" flag="0"/>
      <vel value="0.0054817057" flag="0"/>
      <psa03 value="0.0245809231" flag="0"/>
      <psa10 value="0.0045403785" flag="0"/>
      <psa30 value="0.0004689677" flag="0"/>
    </comp>
  </station>
  <station code="SNT5" name="SNT5" netid="HA" insttype="1s-100Hz," lat="36.4037" lon="25.3953">
    <comp name="--.HHN">
      <acc value="0.0772901227" flag="0"/>
      <vel value="0.0271343004" flag="0"/>
      <psa03 value="0.1080557632" flag="0"/>
      <psa10 value="0.0056341528" flag="0"/>
      <psa30 value="0.0015274399" flag="0"/>
    </comp>
    <comp name="--.HHZ">
      <acc value="0.0326423796" flag="0"/>
      <vel value="0.0096334990" flag="0"/>
      <psa03 value="0.0426003184" flag="0"/>
      <psa10 value="0.0059386656" flag="0"/>
      <psa30 value="0.0005251187" flag="0"/>
    </comp>
    <comp name="--.HHE">
      <acc value="0.1199904843" flag="0"/>
      <vel value="0.0371400691" flag="0"/>
      <psa03 value="0.1704500624" flag="0"/>
      <psa10 value="0.0084277159" flag="0"/>
      <psa30 value="0.0015792273" flag="0"/>
    </comp>
  </station>
  <station code="IMOD" name="IMOD" netid="HC" insttype="120" lat="34.9731" lon="24.7995">
    <comp name="--.HHZ">
      <acc value="0.0216535745" flag="0"/>
      <vel value="0.0103952079" flag="0"/>
      <psa03 value="0.0574757742" flag="0"/>
      <psa10 value="0.0069112921" flag="0"/>
      <psa30 value="0.0004047104" flag="0"/>
    </comp>
    <comp name="--.HHE">
      <acc value="0.0270998243" flag="0"/>
      <vel value="0.0136466392" flag="0"/>
      <psa03 value="0.0849159030" flag="0"/>
      <psa10 value="0.0098787772" flag="0"/>
      <psa30 value="0.0006258635" flag="0"/>
    </comp>
    <comp name="--.HHN">
      <acc value="0.0283599188" flag="0"/>
      <vel value="0.0226596619" flag="0"/>
      <psa03 value="0.0682621142" flag="0"/>
      <psa10 value="0.0180047650" flag="0"/>
      <psa30 value="0.0010280197" flag="0"/>
    </comp>
  </station>
  <station code="KNSS" name="KNSS" netid="HC" insttype="60" lat="35.3042" lon="25.1802">
    <comp name="--.HHZ">
      <acc value="0.0781610372" flag="0"/>
      <vel value="0.0242187505" flag="0"/>
      <psa03 value="0.1029390101" flag="0"/>
      <psa10 value="0.0180720298" flag="0"/>
      <psa30 value="0.0008243280" flag="0"/>
    </comp>
    <comp name="--.HHE">
      <acc value="0.0907562096" flag="0"/>
      <vel value="0.0297224051" flag="0"/>
      <psa03 value="0.1905754166" flag="0"/>
      <psa10 value="0.0215751372" flag="0"/>
      <psa30 value="0.0014784149" flag="0"/>
    </comp>
    <comp name="--.HHN">
      <acc value="0.0811199788" flag="0"/>
      <vel value="0.0273168791" flag="0"/>
      <psa03 value="0.2570957095" flag="0"/>
      <psa10 value="0.0111205157" flag="0"/>
      <psa30 value="0.0013046638" flag="0"/>
    </comp>
  </station>
  <station code="PFKS" name="PFKS" netid="HC" insttype="120" lat="35.0429" lon="25.4733">
    <comp name="--.HHZ">
      <acc value="0.0456315623" flag="0"/>
      <vel value="0.0182130933" flag="0"/>
      <psa03 value="0.0544044858" flag="0"/>
      <psa10 value="0.0100392150" flag="0"/>
      <psa30 value="0.0007403704" flag="0"/>
    </comp>
    <comp name="--.HHE">
      <acc value="0.0772309381" flag="0"/>
      <vel value="0.0295143997" flag="0"/>
      <psa03 value="0.1230021152" flag="0"/>
      <psa10 value="0.0159006726" flag="0"/>
      <psa30 value="0.0012612829" flag="0"/>
    </comp>
    <comp name="--.HHN">
      <acc value="0.0838709514" flag="0"/>
      <vel value="0.0276773336" flag="0"/>
      <psa03 value="0.1201226474" flag="0"/>
      <psa10 value="0.0106476149" flag="0"/>
      <psa30 value="0.0009989500" flag="0"/>
    </comp>
  </station>
  <station code="STIA" name="STIA" netid="HC" insttype="120" lat="35.2021" lon="26.0909">
    <comp name="--.HHZ">
      <acc value="0.0515584517" flag="0"/>
      <vel value="0.0144630804" flag="0"/>
      <psa03 value="0.0540708751" flag="0"/>
      <psa10 value="0.0071169515" flag="0"/>
      <psa30 value="0.0006484222" flag="0"/>
    </comp>
    <comp name="--.HHE">
      <acc value="0.0374515871" flag="0"/>
      <vel value="0.0182084198" flag="0"/>
      <psa03 value="0.0582040702" flag="0"/>
      <psa10 value="0.0232030713" flag="0"/>
      <psa30 value="0.0014309046" flag="0"/>
    </comp>
    <comp name="--.HHN">
      <acc value="0.0425730697" flag="0"/>
      <vel value="0.0179356367" flag="0"/>
      <psa03 value="0.0791005273" flag="0"/>
      <psa10 value="0.0180774369" flag="0"/>
      <psa30 value="0.0013554788" flag="0"/>
    </comp>
  </station>
  <station code="TEFL" name="TEFL" netid="HC" insttype="GEOtiny," lat="35.0933" lon="25.1634">
    <comp name="--.HHE">
      <acc value="0.1746290563" flag="0"/>
      <vel value="0.0584738278" flag="0"/>
      <psa03 value="0.2634153570" flag="0"/>
      <psa10 value="0.0312162875" flag="0"/>
      <psa30 value="0.0021538852" flag="0"/>
    </comp>
    <comp name="--.HHN">
      <acc value="0.2133709574" flag="0"/>
      <vel value="0.0583146507" flag="0"/>
      <psa03 value="0.2404533614" flag="0"/>
      <psa10 value="0.0295087458" flag="0"/>
      <psa30 value="0.0015965711" flag="0"/>
    </comp>
    <comp name="--.HHZ">
      <acc value="0.0886376035" flag="0"/>
      <vel value="0.0347815735" flag="0"/>
      <psa03 value="0.1360701477" flag="0"/>
      <psa10 value="0.0142851560" flag="0"/>
      <psa30 value="0.0008801062" flag="0"/>
    </comp>
  </station>
  <station code="SIT2" name="SIT2" netid="HI" insttype="CMG-5TD,ACCELEROMETER,GURALP" lat="35.2059" lon="26.107">
    <comp name="--.HNE">
      <acc value="0.0860450288" flag="0"/>
      <vel value="0.0479497328" flag="0"/>
      <psa03 value="0.1910037300" flag="0"/>
      <psa10 value="0.0450526644" flag="0"/>
      <psa30 value="0.0024162035" flag="0"/>
    </comp>
    <comp name="--.HNZ">
      <acc value="0.0453245800" flag="0"/>
      <vel value="0.0153847152" flag="0"/>
      <psa03 value="0.0818360383" flag="0"/>
      <psa10 value="0.0070747818" flag="0"/>
      <psa30 value="0.0006721476" flag="0"/>
    </comp>
    <comp name="--.HNN">
      <acc value="0.0772386961" flag="0"/>
      <vel value="0.0448255325" flag="0"/>
      <psa03 value="0.2655497941" flag="0"/>
      <psa10 value="0.0324342778" flag="0"/>
      <psa30 value="0.0021533684" flag="0"/>
    </comp>
  </station>
  <station code="IACM" name="IACM" netid="HL" insttype="120" lat="35.3058" lon="25.0709">
    <comp name="--.HHE">
      <acc value="0.2445831266" flag="0"/>
      <vel value="0.1423951958" flag="0"/>
      <psa03 value="0.7322941648" flag="0"/>
      <psa10 value="0.0873626124" flag="0"/>
      <psa30 value="0.0033879865" flag="0"/>
    </comp>
    <comp name="--.HHN">
      <acc value="0.2319418680" flag="0"/>
      <vel value="0.1001026694" flag="0"/>
      <psa03 value="0.6827232276" flag="0"/>
      <psa10 value="0.0661669043" flag="0"/>
      <psa30 value="0.0030485640" flag="0"/>
    </comp>
    <comp name="--.HHZ">
      <acc value="0.2047634657" flag="0"/>
      <vel value="0.0671141714" flag="0"/>
      <psa03 value="0.2337769283" flag="0"/>
      <psa10 value="0.0348314590" flag="0"/>
      <psa30 value="0.0014334498" flag="0"/>
    </comp>
  </station>
  <station code="IDI" name="IDI" netid="HL" insttype="120" lat="35.288" lon="24.89">
    <comp name="--.HHE">
      <acc value="0.0589454415" flag="0"/>
      <vel value="0.0252041333" flag="0"/>
      <psa03 value="0.1365347686" flag="0"/>
      <psa10 value="0.0119370045" flag="0"/>
      <psa30 value="0.0007310946" flag="0"/>
    </comp>
    <comp name="--.HHZ">
      <acc value="0.0530313135" flag="0"/>
      <vel value="0.0157298690" flag="0"/>
      <psa03 value="0.1009322916" flag="0"/>
      <psa10 value="0.0100641290" flag="0"/>
      <psa30 value="0.0007474786" flag="0"/>
    </comp>
    <comp name="--.HHN">
      <acc value="0.0583418576" flag="0"/>
      <vel value="0.0188436656" flag="0"/>
      <psa03 value="0.1223685828" flag="0"/>
      <psa10 value="0.0126648690" flag="0"/>
      <psa30 value="0.0008088960" flag="0"/>
    </comp>
  </station>
  <station code="KARP" name="KARP" netid="HL" insttype="120" lat="35.5471" lon="27.1611">
    <comp name="--.HHZ">
      <acc value="0.0112189079" flag="0"/>
      <vel value="0.0033698552" flag="0"/>
      <psa03 value="0.0192272223" flag="0"/>
      <psa10 value="0.0044885568" flag="0"/>
      <psa30 value="0.0002724069" flag="0"/>
    </comp>
    <comp name="--.HHN">
      <acc value="0.0209717742" flag="0"/>
      <vel value="0.0056731525" flag="0"/>
      <psa03 value="0.0212527358" flag="0"/>
      <psa10 value="0.0059022833" flag="0"/>
      <psa30 value="0.0003325724" flag="0"/>
    </comp>
    <comp name="--.HHE">
      <acc value="0.0264672912" flag="0"/>
      <vel value="0.0111225169" flag="0"/>
      <psa03 value="0.0317151375" flag="0"/>
      <psa10 value="0.0121236351" flag="0"/>
      <psa30 value="0.0004272481" flag="0"/>
    </comp>
  </station>
  <station code="KSTE" name="KSTE" netid="HL" insttype="60" lat="35.1801" lon="25.3372">
    <comp name="--.HHZ">
      <acc value="0.0514809304" flag="0"/>
      <vel value="0.0146452311" flag="0"/>
      <psa03 value="0.0626600633" flag="0"/>
      <psa10 value="0.0110541882" flag="0"/>
      <psa30 value="0.0008790186" flag="0"/>
    </comp>
    <comp name="--.HHE">
      <acc value="0.0422490770" flag="0"/>
      <vel value="0.0096739567" flag="0"/>
      <psa03 value="0.0440513920" flag="0"/>
      <psa10 value="0.0086354670" flag="0"/>
      <psa30 value="0.0007659959" flag="0"/>
    </comp>
    <comp name="--.HHN">
      <acc value="0.0506053786" flag="0"/>
      <vel value="0.0167585941" flag="0"/>
      <psa03 value="0.0900892758" flag="0"/>
      <psa10 value="0.0159802553" flag="0"/>
      <psa30 value="0.0014091181" flag="0"/>
    </comp>
  </station>
  <station code="NPS" name="NPS" netid="HL" insttype="CMG3ESPC-120s" lat="35.2613" lon="25.6104">
    <comp name="--.HHZ">
      <acc value="0.0846581600" flag="0"/>
      <vel value="0.0166498734" flag="0"/>
      <psa03 value="0.0705543366" flag="0"/>
      <psa10 value="0.0147668358" flag="0"/>
      <psa30 value="0.0013393421" flag="0"/>
    </comp>
    <comp name="--.HHN">
      <acc value="0.0746914351" flag="0"/>
      <vel value="0.0212224576" flag="0"/>
      <psa03 value="0.0877684860" flag="0"/>
      <psa10 value="0.0228279411" flag="0"/>
      <psa30 value="0.0012259008" flag="0"/>
    </comp>
    <comp name="--.HHE">
      <acc value="0.0406650738" flag="0"/>
      <vel value="0.0123034965" flag="0"/>
      <psa03 value="0.0730568159" flag="0"/>
      <psa10 value="0.0127312035" flag="0"/>
      <psa30 value="0.0011284136" flag="0"/>
    </comp>
  </station>
  <station code="SAP3" name="SAP3" netid="HL" insttype="LE3D20_SMART24" lat="36.4356" lon="25.3454">
    <comp name="--.HHN">
      <acc value="0.0000254649" flag="0"/>
      <vel value="0.0000013866" flag="0"/>
      <psa03 value="0.0000047000" flag="0"/>
      <psa10 value="0.0000008079" flag="0"/>
      <psa30 value="0.0000001103" flag="0"/>
    </comp>
    <comp name="--.HHE">
      <acc value="0.0000217300" flag="0"/>
      <vel value="0.0000015086" flag="0"/>
      <psa03 value="0.0000045742" flag="0"/>
      <psa10 value="0.0000007159" flag="0"/>
      <psa30 value="0.0000001069" flag="0"/>
    </comp>
    <comp name="--.HHZ">
      <acc value="0.0704748884" flag="0"/>
      <vel value="0.0300265253" flag="0"/>
      <psa03 value="0.1203442684" flag="0"/>
      <psa10 value="0.0120658186" flag="0"/>
      <psa30 value="0.0012837032" flag="0"/>
    </comp>
  </station>
  <station code="SIVA" name="SIVA" netid="HL" insttype="60" lat="35.0178" lon="24.812">
    <comp name="--.HHN">
      <acc value="0.0336690447" flag="0"/>
      <vel value="0.0162748871" flag="0"/>
      <psa03 value="0.0716233088" flag="0"/>
      <psa10 value="0.0121553110" flag="0"/>
      <psa30 value="0.0006645855" flag="0"/>
    </comp>
    <comp name="--.HHE">
      <acc value="0.0381338790" flag="0"/>
      <vel value="0.0188591488" flag="0"/>
      <psa03 value="0.0952153591" flag="0"/>
      <psa10 value="0.0170300691" flag="0"/>
      <psa30 value="0.0007228518" flag="0"/>
    </comp>
    <comp name="--.HHZ">
      <acc value="0.0226976530" flag="0"/>
      <vel value="0.0117381096" flag="0"/>
      <psa03 value="0.0562555215" flag="0"/>
      <psa10 value="0.0057843914" flag="0"/>
      <psa30 value="0.0004308720" flag="0"/>
    </comp>
  </station>
  <station code="THERA" name="THERA" netid="HL" insttype="120" lat="36.367" lon="25.4753">
    <comp name="--.HHZ">
      <acc value="0.0217635084" flag="0"/>
      <vel value="0.0062932002" flag="0"/>
      <psa03 value="0.0310050100" flag="0"/>
      <psa10 value="0.0035594935" flag="0"/>
      <psa30 value="0.0003000510" flag="0"/>
    </comp>
    <comp name="--.HHE">
      <acc value="0.0360874727" flag="0"/>
      <vel value="0.0091208025" flag="0"/>
      <psa03 value="0.0362340410" flag="0"/>
      <psa10 value="0.0047736935" flag="0"/>
      <psa30 value="0.0005663149" flag="0"/>
    </comp>
    <comp name="--.HHN">
      <acc value="0.0204861030" flag="0"/>
      <vel value="0.0071064401" flag="0"/>
      <psa03 value="0.0222260290" flag="0"/>
      <psa10 value="0.0024630704" flag="0"/>
      <psa30 value="0.0002691946" flag="0"/>
    </comp>
  </station>
  <station code="ZKR" name="ZKR" netid="HL" insttype="120" lat="35.1147" lon="26.2169">
    <comp name="--.HHE">
      <acc value="0.0283256201" flag="0"/>
      <vel value="0.0131633769" flag="0"/>
      <psa03 value="0.0367466811" flag="0"/>
      <psa10 value="0.0136976064" flag="0"/>
      <psa30 value="0.0014230953" flag="0"/>
    </comp>
    <comp name="--.HHN">
      <acc value="0.0174813563" flag="0"/>
      <vel value="0.0071495563" flag="0"/>
      <psa03 value="0.0223934734" flag="0"/>
      <psa10 value="0.0068302448" flag="0"/>
      <psa30 value="0.0004046317" flag="0"/>
    </comp>
    <comp name="--.HHZ">
      <acc value="0.0212406314" flag="0"/>
      <vel value="0.0062996534" flag="0"/>
      <psa03 value="0.0205516681" flag="0"/>
      <psa10 value="0.0095729940" flag="0"/>
      <psa30 value="0.0006427007" flag="0"/>
    </comp>
  </station>
  <station code="CMBO" name="CMBO" netid="HT" insttype="120P," lat="36.4709" lon="25.4056">
    <comp name="--.HHE">
      <acc value="0.0703642291" flag="0"/>
      <vel value="0.0320118802" flag="0"/>
      <psa03 value="0.1113909847" flag="0"/>
      <psa10 value="0.0331270674" flag="0"/>
      <psa30 value="0.0021048344" flag="0"/>
    </comp>
    <comp name="--.HHZ">
      <acc value="0.1314815223" flag="0"/>
      <vel value="0.0374054299" flag="0"/>
      <psa03 value="0.1435521766" flag="0"/>
      <psa10 value="0.0103104778" flag="0"/>
      <psa30 value="0.0014192497" flag="0"/>
    </comp>
    <comp name="--.HHN">
      <acc value="0.0803626436" flag="0"/>
      <vel value="0.0317749597" flag="0"/>
      <psa03 value="0.1502789626" flag="0"/>
      <psa10 value="0.0416541057" flag="0"/>
      <psa30 value="0.0020191946" flag="0"/>
    </comp>
  </station>
  <station code="IDI" name="IDI" netid="MN" insttype="" lat="35.288" lon="24.89">
    <comp name="--.HHZ">
      <acc value="0.0552423695" flag="0"/>
      <vel value="0.0162290023" flag="0"/>
      <psa03 value="0.1017798201" flag="0"/>
      <psa10 value="0.0100513723" flag="0"/>
      <psa30 value="0.0007464912" flag="0"/>
    </comp>
    <comp name="--.HHN">
      <acc value="0.0585064974" flag="0"/>
      <vel value="0.0189610045" flag="0"/>
      <psa03 value="0.1243068749" flag="0"/>
      <psa10 value="0.0126620047" flag="0"/>
      <psa30 value="0.0008097746" flag="0"/>
    </comp>
    <comp name="--.HHE">
      <acc value="0.0626087775" flag="0"/>
      <vel value="0.0259249904" flag="0"/>
      <psa03 value="0.1375749629" flag="0"/>
      <psa10 value="0.0119514036" flag="0"/>
      <psa30 value="0.0007313905" flag="0"/>
    </comp>
  </station>
</stationlist>
