<?xml version="1.0" encoding="UTF-8" standalone="yes"?>
<!DOCTYPE earthquake SYSTEM "stationlist.dtd">
<stationlist created="" xmlns="ch.ethz.sed.shakemap.usgs.xml">
  <station code="KARP" name="KARP" netid="GE" insttype="STS-2/N" lat="35.5471" lon="27.1611">
    <comp name="--.HHN">
      <acc value="0.0232956418" flag="0"/>
      <vel value="0.0058459465" flag="0"/>
      <psa03 value="0.0218919252" flag="0"/>
      <psa10 value="0.0059514469" flag="0"/>
      <psa30 value="0.0003340373" flag="0"/>
    </comp>
    <comp name="--.HHZ">
      <acc value="0.0124237606" flag="0"/>
      <vel value="0.0034238105" flag="0"/>
      <psa03 value="0.0198229269" flag="0"/>
      <psa10 value="0.0045178418" flag="0"/>
      <psa30 value="0.0002745389" flag="0"/>
    </comp>
    <comp name="--.HHE">
      <acc value="0.0283227599" flag="0"/>
      <vel value="0.0113353612" flag="0"/>
      <psa03 value="0.0324272062" flag="0"/>
      <psa10 value="0.0122038058" flag="0"/>
      <psa30 value="0.0004296874" flag="0"/>
    </comp>
  </station>
  <station code="THERA" name="THERA" netid="GE" insttype="STS-2/N" lat="36.367" lon="25.4753">
    <comp name="--.HHN">
      <acc value="0.0210387308" flag="0"/>
      <vel value="0.0073395797" flag="0"/>
      <psa03 value="0.0228775644" flag="0"/>
      <psa10 value="0.0024846805" flag="0"/>
      <psa30 value="0.0002714785" flag="0"/>
    </comp>
    <comp name="--.HHE">
      <acc value="0.0373953210" flag="0"/>
      <vel value="0.0093646676" flag="0"/>
      <psa03 value="0.0374296262" flag="0"/>
      <psa10 value="0.0048302306" flag="0"/>
      <psa30 value="0.0005684482" flag="0"/>
    </comp>
    <comp name="--.HHZ">
      <acc value="0.0224270499" flag="0"/>
      <vel value="0.0064525061" flag="0"/>
      <psa03 value="0.0319373072" flag="0"/>
      <psa10 value="0.0036182883" flag="0"/>
      <psa30 value="0.0003031214" flag="0"/>
    </comp>
  </station>
  <station code="ZKR" name="ZKR" netid="GE" insttype="STS-2/N" lat="35.1147" lon="26.2169">
    <comp name="--.HHE">
      <acc value="0.0286816497" flag="0"/>
      <vel value="0.0134882515" flag="0"/>
      <psa03 value="0.0375140056" flag="0"/>
      <psa10 value="0.0138471107" flag="0"/>
      <psa30 value="0.0014228776" flag="0"/>
    </comp>
    <comp name="--.HHN">
      <acc value="0.0176157572" flag="0"/>
      <vel value="0.0072795619" flag="0"/>
      <psa03 value="0.0230287716" flag="0"/>
      <psa10 value="0.0069026032" flag="0"/>
      <psa30 value="0.0004057766" flag="0"/>
    </comp>
    <comp name="--.HHZ">
      <acc value="0.0211911690" flag="0"/>
      <vel value="0.0065009985" flag="0"/>
      <psa03 value="0.0211457436" flag="0"/>
      <psa10 value="0.0096325343" flag="0"/>
      <psa30 value="0.0006433853" flag="0"/>
    </comp>
  </station>
  <station code="IDI" name="IDI" netid="MN" insttype="" lat="35.288" lon="24.89">
    <comp name="--.HHZ">
      <acc value="0.0552423695" flag="0"/>
      <vel value="0.0162290023" flag="0"/>
      <psa03 value="0.1017798201" flag="0"/>
      <psa10 value="0.0100513723" flag="0"/>
      <psa30 value="0.0007464912" flag="0"/>
    </comp>
    <comp name="--.HHN">
      <acc value="0.0585064974" flag="0"/>
      <vel value="0.0189610045" flag="0"/>
      <psa03 value="0.1243068749" flag="0"/>
      <psa10 value="0.0126620047" flag="0"/>
      <psa30 value="0.0008097746" flag="0"/>
    </comp>
    <comp name="--.HHE">
      <acc value="0.0626087775" flag="0"/>
      <vel value="0.0259249904" flag="0"/>
      <psa03 value="0.1375749629" flag="0"/>
      <psa10 value="0.0119514036" flag="0"/>
      <psa30 value="0.0007313905" flag="0"/>
    </comp>
  </station>
</stationlist>
