<?xml version="1.0" encoding="UTF-8" standalone="yes"?>
<!DOCTYPE earthquake SYSTEM "stationlist.dtd">
<stationlist created="" xmlns="ch.ethz.sed.shakemap.usgs.xml">
  <station code="BEHE" name="BEHE" netid="HU" insttype="" lat="46.4706" lon="16.7757">
    <comp name="--.HHE">
      <acc value="0.0123710773" flag="0"/>
      <vel value="0.0086350562" flag="0"/>
      <psa03 value="0.0352503975" flag="0"/>
      <psa10 value="0.0128262858" flag="0"/>
      <psa30 value="0.0009557087" flag="0"/>
    </comp>
    <comp name="--.HHZ">
      <acc value="0.0076087840" flag="0"/>
      <vel value="0.0041338896" flag="0"/>
      <psa03 value="0.0164600140" flag="0"/>
      <psa10 value="0.0070274398" flag="0"/>
      <psa30 value="0.0006226283" flag="0"/>
    </comp>
    <comp name="--.HHN">
      <acc value="0.0101195037" flag="0"/>
      <vel value="0.0090885751" flag="0"/>
      <psa03 value="0.0286782900" flag="0"/>
      <psa10 value="0.0144607217" flag="0"/>
      <psa30 value="0.0009439023" flag="0"/>
    </comp>
  </station>
  <station code="EGYH" name="EGYH" netid="HU" insttype="" lat="47.4162" lon="17.3317">
    <comp name="--.HHE">
      <acc value="0.0421779822" flag="0"/>
      <vel value="0.0253732401" flag="0"/>
      <psa03 value="0.1013189073" flag="0"/>
      <psa10 value="0.0432374908" flag="0"/>
      <psa30 value="0.0024885099" flag="0"/>
    </comp>
    <comp name="--.HHN">
      <acc value="0.0552784260" flag="0"/>
      <vel value="0.0316611758" flag="0"/>
      <psa03 value="0.1766507894" flag="0"/>
      <psa10 value="0.0415111392" flag="0"/>
      <psa30 value="0.0029674825" flag="0"/>
    </comp>
    <comp name="--.HHZ">
      <acc value="0.0315168996" flag="0"/>
      <vel value="0.0130415553" flag="0"/>
      <psa03 value="0.1053536175" flag="0"/>
      <psa10 value="0.0097094305" flag="0"/>
      <psa30 value="0.0016866993" flag="0"/>
    </comp>
  </station>
  <station code="MPLH" name="MPLH" netid="HU" insttype="" lat="47.1712" lon="17.5348">
    <comp name="--.HHE">
      <acc value="0.0108585669" flag="0"/>
      <vel value="0.0057781972" flag="0"/>
      <psa03 value="0.0456428235" flag="0"/>
      <psa10 value="0.0036803976" flag="0"/>
      <psa30 value="0.0005025864" flag="0"/>
    </comp>
    <comp name="--.HHN">
      <acc value="0.0180242205" flag="0"/>
      <vel value="0.0080566809" flag="0"/>
      <psa03 value="0.0629460958" flag="0"/>
      <psa10 value="0.0052382812" flag="0"/>
      <psa30 value="0.0006763015" flag="0"/>
    </comp>
    <comp name="--.HHZ">
      <acc value="0.0073032608" flag="0"/>
      <vel value="0.0034438822" flag="0"/>
      <psa03 value="0.0242335831" flag="0"/>
      <psa10 value="0.0050811352" flag="0"/>
      <psa30 value="0.0009714129" flag="0"/>
    </comp>
  </station>
  <station code="SOP" name="SOP" netid="HU" insttype="" lat="47.6807" lon="16.5567">
    <comp name="--.HHE">
      <acc value="0.0370552443" flag="0"/>
      <vel value="0.0106994344" flag="0"/>
      <psa03 value="0.0754703255" flag="0"/>
      <psa10 value="0.0092643190" flag="0"/>
      <psa30 value="0.0016230269" flag="0"/>
    </comp>
    <comp name="--.HHN">
      <acc value="0.0344152338" flag="0"/>
      <vel value="0.0133635205" flag="0"/>
      <psa03 value="0.0706074383" flag="0"/>
      <psa10 value="0.0149540189" flag="0"/>
      <psa30 value="0.0032929756" flag="0"/>
    </comp>
    <comp name="--.HHZ">
      <acc value="0.0287111473" flag="0"/>
      <vel value="0.0068242943" flag="0"/>
      <psa03 value="0.0327359998" flag="0"/>
      <psa10 value="0.0062945564" flag="0"/>
      <psa30 value="0.0008499318" flag="0"/>
    </comp>
  </station>
  <station code="ARSA" name="ARSA" netid="OE" insttype="STS-2" lat="47.2505" lon="15.5232">
    <comp name="--.HHE">
      <acc value="0.0449320947" flag="0"/>
      <vel value="0.0159162870" flag="0"/>
      <psa03 value="0.0772017567" flag="0"/>
      <psa10 value="0.0122490009" flag="0"/>
      <psa30 value="0.0015428567" flag="0"/>
    </comp>
    <comp name="--.HHZ">
      <acc value="0.0601400563" flag="0"/>
      <vel value="0.0192129471" flag="0"/>
      <psa03 value="0.1406570801" flag="0"/>
      <psa10 value="0.0134295529" flag="0"/>
      <psa30 value="0.0023105632" flag="0"/>
    </comp>
    <comp name="--.HHN">
      <acc value="0.0482917093" flag="0"/>
      <vel value="0.0167067443" flag="0"/>
      <psa03 value="0.1015969122" flag="0"/>
      <psa10 value="0.0108367568" flag="0"/>
      <psa30 value="0.0010849763" flag="0"/>
    </comp>
  </station>
  <station code="CONA" name="CONA" netid="OE" insttype="STS-2" lat="47.9282" lon="15.8618">
    <comp name="--.HHE">
      <acc value="0.1145356337" flag="0"/>
      <vel value="0.0441268051" flag="0"/>
      <psa03 value="0.2226539528" flag="0"/>
      <psa10 value="0.0541965983" flag="0"/>
      <psa30 value="0.0056217808" flag="0"/>
    </comp>
    <comp name="--.HHN">
      <acc value="0.0756517535" flag="0"/>
      <vel value="0.0535882119" flag="0"/>
      <psa03 value="0.2003126495" flag="0"/>
      <psa10 value="0.0564481924" flag="0"/>
      <psa30 value="0.0024104210" flag="0"/>
    </comp>
    <comp name="--.HHZ">
      <acc value="0.0787116537" flag="0"/>
      <vel value="0.0322084286" flag="0"/>
      <psa03 value="0.2474191212" flag="0"/>
      <psa10 value="0.0190528245" flag="0"/>
      <psa30 value="0.0016459484" flag="0"/>
    </comp>
  </station>
  <station code="CSNA" name="CSNA" netid="OE" insttype="STS-2" lat="47.9282" lon="15.8588">
    <comp name="--.HHZ">
      <acc value="0.1001899718" flag="0"/>
      <vel value="0.0289210575" flag="0"/>
      <psa03 value="0.1654027130" flag="0"/>
      <psa10 value="0.0155373229" flag="0"/>
      <psa30 value="0.0018291208" flag="0"/>
    </comp>
    <comp name="--.HHN">
      <acc value="0.1521892261" flag="0"/>
      <vel value="0.0491123137" flag="0"/>
      <psa03 value="0.1789183354" flag="0"/>
      <psa10 value="0.0446087523" flag="0"/>
      <psa30 value="0.0019976523" flag="0"/>
    </comp>
    <comp name="--.HHE">
      <acc value="0.1466069573" flag="0"/>
      <vel value="0.0508723906" flag="0"/>
      <psa03 value="0.2962754546" flag="0"/>
      <psa10 value="0.0480796065" flag="0"/>
      <psa30 value="0.0053406140" flag="0"/>
    </comp>
  </station>
  <station code="MOA" name="MOA" netid="OE" insttype="STS-2" lat="47.8495" lon="14.2659">
    <comp name="--.HHE">
      <acc value="0.0070671790" flag="0"/>
      <vel value="0.0039378377" flag="0"/>
      <psa03 value="0.0197312833" flag="0"/>
      <psa10 value="0.0034312101" flag="0"/>
      <psa30 value="0.0007955205" flag="0"/>
    </comp>
    <comp name="--.HHZ">
      <acc value="0.0095951507" flag="0"/>
      <vel value="0.0065007606" flag="0"/>
      <psa03 value="0.0343938978" flag="0"/>
      <psa10 value="0.0041960883" flag="0"/>
      <psa30 value="0.0010609349" flag="0"/>
    </comp>
    <comp name="--.HHN">
      <acc value="0.0142693776" flag="0"/>
      <vel value="0.0101088896" flag="0"/>
      <psa03 value="0.0425325847" flag="0"/>
      <psa10 value="0.0060744000" flag="0"/>
      <psa30 value="0.0007042407" flag="0"/>
    </comp>
  </station>
  <station code="RONA" name="RONA" netid="OE" insttype="STS-2.5/Quanterra" lat="47.6997" lon="16.2963">
    <comp name="--.HHZ">
      <acc value="0.1018560867" flag="0"/>
      <vel value="0.0223931036" flag="0"/>
      <psa03 value="0.0727641551" flag="0"/>
      <psa10 value="0.0238707647" flag="0"/>
      <psa30 value="0.0014735471" flag="0"/>
    </comp>
    <comp name="--.HHE">
      <acc value="0.1235009455" flag="0"/>
      <vel value="0.0308149959" flag="0"/>
      <psa03 value="0.0949701965" flag="0"/>
      <psa10 value="0.0262040391" flag="0"/>
      <psa30 value="0.0023164613" flag="0"/>
    </comp>
    <comp name="--.HHN">
      <acc value="0.1387258305" flag="0"/>
      <vel value="0.0371473745" flag="0"/>
      <psa03 value="0.0963767369" flag="0"/>
      <psa10 value="0.0481297784" flag="0"/>
      <psa30 value="0.0058477184" flag="0"/>
    </comp>
  </station>
  <station code="VIE" name="VIE" netid="OE" insttype="STS-2" lat="48.2483" lon="16.3617">
    <comp name="--.HHZ">
      <acc value="0.0813777139" flag="0"/>
      <vel value="0.0225991763" flag="0"/>
      <psa03 value="0.0936420194" flag="0"/>
      <psa10 value="0.0207180007" flag="0"/>
      <psa30 value="0.0018306824" flag="0"/>
    </comp>
    <comp name="--.HHE">
      <acc value="0.0362219921" flag="0"/>
      <vel value="0.0342922183" flag="0"/>
      <psa03 value="0.0812805213" flag="0"/>
      <psa10 value="0.0447836871" flag="0"/>
      <psa30 value="0.0044078837" flag="0"/>
    </comp>
    <comp name="--.HHN">
      <acc value="0.0476023984" flag="0"/>
      <vel value="0.0362316728" flag="0"/>
      <psa03 value="0.0992533504" flag="0"/>
      <psa10 value="0.0567895937" flag="0"/>
      <psa30 value="0.0041345079" flag="0"/>
    </comp>
  </station>
  <station code="ZST" name="ZST" netid="SK" insttype="SKD" lat="48.1961" lon="17.1025">
    <comp name="--.HHZ">
      <acc value="14.3818706529" flag="0"/>
      <vel value="0.5182960591" flag="0"/>
      <psa03 value="0.7553045268" flag="0"/>
      <psa10 value="0.2332683273" flag="0"/>
      <psa30 value="0.0157764920" flag="0"/>
    </comp>
    <comp name="--.HHN">
      <acc value="21.4776172823" flag="0"/>
      <vel value="0.9820266289" flag="0"/>
      <psa03 value="1.3726933533" flag="0"/>
      <psa10 value="0.3650102243" flag="0"/>
      <psa30 value="0.0143128833" flag="0"/>
    </comp>
    <comp name="--.HHE">
      <acc value="22.7137302772" flag="0"/>
      <vel value="0.9817286611" flag="0"/>
      <psa03 value="0.8460076996" flag="0"/>
      <psa10 value="0.2719167360" flag="0"/>
      <psa30 value="0.0240124517" flag="0"/>
    </comp>
  </station>
</stationlist>
