<?xml version="1.0" encoding="UTF-8" standalone="yes"?>
<!DOCTYPE earthquake SYSTEM "stationlist.dtd">
<stationlist created="" xmlns="ch.ethz.sed.shakemap.usgs.xml">
  <station code="EGYH" name="EGYH" netid="HU" insttype="" lat="47.4162" lon="17.3317">
    <comp name="--.HHN">
      <acc value="0.0552784228" flag="0"/>
      <vel value="0.0316611771" flag="0"/>
      <psa03 value="0.1766507894" flag="0"/>
      <psa10 value="0.0415111392" flag="0"/>
      <psa30 value="0.0029674963" flag="0"/>
    </comp>
    <comp name="--.HHZ">
      <acc value="0.0315168996" flag="0"/>
      <vel value="0.0130415545" flag="0"/>
      <psa03 value="0.1053536175" flag="0"/>
      <psa10 value="0.0097094305" flag="0"/>
      <psa30 value="0.0016866610" flag="0"/>
    </comp>
    <comp name="--.HHE">
      <acc value="0.0421779816" flag="0"/>
      <vel value="0.0253732386" flag="0"/>
      <psa03 value="0.1013189073" flag="0"/>
      <psa10 value="0.0432374908" flag="0"/>
      <psa30 value="0.0024885274" flag="0"/>
    </comp>
  </station>
  <station code="SOP" name="SOP" netid="HU" insttype="" lat="47.6807" lon="16.5567">
    <comp name="--.HHN">
      <acc value="0.0344152339" flag="0"/>
      <vel value="0.0133635205" flag="0"/>
      <psa03 value="0.0706074383" flag="0"/>
      <psa10 value="0.0149540188" flag="0"/>
      <psa30 value="0.0032929621" flag="0"/>
    </comp>
    <comp name="--.HHE">
      <acc value="0.0370552443" flag="0"/>
      <vel value="0.0106994342" flag="0"/>
      <psa03 value="0.0754703255" flag="0"/>
      <psa10 value="0.0092643190" flag="0"/>
      <psa30 value="0.0016230342" flag="0"/>
    </comp>
    <comp name="--.HHZ">
      <acc value="0.0287111475" flag="0"/>
      <vel value="0.0068242932" flag="0"/>
      <psa03 value="0.0327359998" flag="0"/>
      <psa10 value="0.0062945564" flag="0"/>
      <psa30 value="0.0008498946" flag="0"/>
    </comp>
  </station>
  <station code="ARSA" name="ARSA" netid="OE" insttype="STS-2" lat="47.2505" lon="15.5232">
    <comp name="--.HHN">
      <acc value="0.0482917095" flag="0"/>
      <vel value="0.0167067443" flag="0"/>
      <psa03 value="0.1015969122" flag="0"/>
      <psa10 value="0.0108367567" flag="0"/>
      <psa30 value="0.0010851413" flag="0"/>
    </comp>
    <comp name="--.HHE">
      <acc value="0.0449320947" flag="0"/>
      <vel value="0.0159162871" flag="0"/>
      <psa03 value="0.0772017567" flag="0"/>
      <psa10 value="0.0122490009" flag="0"/>
      <psa30 value="0.0015428673" flag="0"/>
    </comp>
    <comp name="--.HHZ">
      <acc value="0.0601400558" flag="0"/>
      <vel value="0.0192129471" flag="0"/>
      <psa03 value="0.1406570801" flag="0"/>
      <psa10 value="0.0134295528" flag="0"/>
      <psa30 value="0.0023105145" flag="0"/>
    </comp>
  </station>
  <station code="CONA" name="CONA" netid="OE" insttype="STS-2" lat="47.9282" lon="15.8618">
    <comp name="--.HHE">
      <acc value="0.1145356344" flag="0"/>
      <vel value="0.0441268052" flag="0"/>
      <psa03 value="0.2226539528" flag="0"/>
      <psa10 value="0.0541965983" flag="0"/>
      <psa30 value="0.0056218369" flag="0"/>
    </comp>
    <comp name="--.HHN">
      <acc value="0.0756517534" flag="0"/>
      <vel value="0.0535882143" flag="0"/>
      <psa03 value="0.2003126495" flag="0"/>
      <psa10 value="0.0564481926" flag="0"/>
      <psa30 value="0.0024102339" flag="0"/>
    </comp>
    <comp name="--.HHZ">
      <acc value="0.0787116540" flag="0"/>
      <vel value="0.0322084280" flag="0"/>
      <psa03 value="0.2474191212" flag="0"/>
      <psa10 value="0.0190528246" flag="0"/>
      <psa30 value="0.0016460218" flag="0"/>
    </comp>
  </station>
  <station code="CSNA" name="CSNA" netid="OE" insttype="STS-2" lat="47.9282" lon="15.8588">
    <comp name="--.HHN">
      <acc value="0.1521892261" flag="0"/>
      <vel value="0.0491123108" flag="0"/>
      <psa03 value="0.1789183354" flag="0"/>
      <psa10 value="0.0446087523" flag="0"/>
      <psa30 value="0.0019974041" flag="0"/>
    </comp>
    <comp name="--.HHZ">
      <acc value="0.1001899726" flag="0"/>
      <vel value="0.0289210583" flag="0"/>
      <psa03 value="0.1654027130" flag="0"/>
      <psa10 value="0.0155373229" flag="0"/>
      <psa30 value="0.0018292059" flag="0"/>
    </comp>
    <comp name="--.HHE">
      <acc value="0.1466069579" flag="0"/>
      <vel value="0.0508723901" flag="0"/>
      <psa03 value="0.2962754546" flag="0"/>
      <psa10 value="0.0480796065" flag="0"/>
      <psa30 value="0.0053406745" flag="0"/>
    </comp>
  </station>
  <station code="MOA" name="MOA" netid="OE" insttype="STS-2" lat="47.8495" lon="14.2659">
    <comp name="--.HHE">
      <acc value="0.0070671790" flag="0"/>
      <vel value="0.0039378385" flag="0"/>
      <psa03 value="0.0197312833" flag="0"/>
      <psa10 value="0.0034312101" flag="0"/>
      <psa30 value="0.0007955244" flag="0"/>
    </comp>
    <comp name="--.HHN">
      <acc value="0.0142693772" flag="0"/>
      <vel value="0.0101088897" flag="0"/>
      <psa03 value="0.0425325847" flag="0"/>
      <psa10 value="0.0060744000" flag="0"/>
      <psa30 value="0.0007042528" flag="0"/>
    </comp>
    <comp name="--.HHZ">
      <acc value="0.0095951516" flag="0"/>
      <vel value="0.0065007606" flag="0"/>
      <psa03 value="0.0343938978" flag="0"/>
      <psa10 value="0.0041960883" flag="0"/>
      <psa30 value="0.0010609365" flag="0"/>
    </comp>
  </station>
  <station code="RONA" name="RONA" netid="OE" insttype="STS-2.5/Quanterra" lat="47.6997" lon="16.2963">
    <comp name="--.HHZ">
      <acc value="0.1018560862" flag="0"/>
      <vel value="0.0223931038" flag="0"/>
      <psa03 value="0.0727641551" flag="0"/>
      <psa10 value="0.0238707648" flag="0"/>
      <psa30 value="0.0014735564" flag="0"/>
    </comp>
    <comp name="--.HHE">
      <acc value="0.1235009457" flag="0"/>
      <vel value="0.0308149947" flag="0"/>
      <psa03 value="0.0949701965" flag="0"/>
      <psa10 value="0.0262040391" flag="0"/>
      <psa30 value="0.0023165651" flag="0"/>
    </comp>
    <comp name="--.HHN">
      <acc value="0.1387258306" flag="0"/>
      <vel value="0.0371473751" flag="0"/>
      <psa03 value="0.0963767369" flag="0"/>
      <psa10 value="0.0481297783" flag="0"/>
      <psa30 value="0.0058477753" flag="0"/>
    </comp>
  </station>
  <station code="VIE" name="VIE" netid="OE" insttype="STS-2" lat="48.2483" lon="16.3617">
    <comp name="--.HHE">
      <acc value="0.0362219922" flag="0"/>
      <vel value="0.0342922188" flag="0"/>
      <psa03 value="0.0812805213" flag="0"/>
      <psa10 value="0.0447836873" flag="0"/>
      <psa30 value="0.0044080726" flag="0"/>
    </comp>
    <comp name="--.HHN">
      <acc value="0.0476023988" flag="0"/>
      <vel value="0.0362316719" flag="0"/>
      <psa03 value="0.0992533504" flag="0"/>
      <psa10 value="0.0567895936" flag="0"/>
      <psa30 value="0.0041345407" flag="0"/>
    </comp>
    <comp name="--.HHZ">
      <acc value="0.0813777141" flag="0"/>
      <vel value="0.0225991757" flag="0"/>
      <psa03 value="0.0936420194" flag="0"/>
      <psa10 value="0.0207180007" flag="0"/>
      <psa30 value="0.0018306883" flag="0"/>
    </comp>
  </station>
  <station code="ZST" name="ZST" netid="SK" insttype="SKD" lat="48.1961" lon="17.1025">
    <comp name="--.HHN">
      <acc value="21.4776245734" flag="0"/>
      <vel value="0.9820266267" flag="0"/>
      <psa03 value="1.3726933534" flag="0"/>
      <psa10 value="0.3650102243" flag="0"/>
      <psa30 value="0.0143135363" flag="0"/>
    </comp>
    <comp name="--.HHE">
      <acc value="22.7137484258" flag="0"/>
      <vel value="0.9817291715" flag="0"/>
      <psa03 value="0.8460076979" flag="0"/>
      <psa10 value="0.2719167343" flag="0"/>
      <psa30 value="0.0240146632" flag="0"/>
    </comp>
    <comp name="--.HHZ">
      <acc value="14.3818677916" flag="0"/>
      <vel value="0.5182961442" flag="0"/>
      <psa03 value="0.7553045265" flag="0"/>
      <psa10 value="0.2332683272" flag="0"/>
      <psa30 value="0.0157759113" flag="0"/>
    </comp>
  </station>
</stationlist>
