<?xml version="1.0" encoding="UTF-8" standalone="yes"?>
<!DOCTYPE earthquake SYSTEM "stationlist.dtd">
<stationlist created="" xmlns="ch.ethz.sed.shakemap.usgs.xml">
  <station code="BEHE" name="BEHE" netid="HU" insttype="" lat="46.4706" lon="16.7757">
    <comp name="--.HHE">
      <acc value="0.0123710773" flag="0"/>
      <vel value="0.0086350551" flag="0"/>
      <psa03 value="0.0352503975" flag="0"/>
      <psa10 value="0.0128262858" flag="0"/>
      <psa30 value="0.0009556523" flag="0"/>
    </comp>
    <comp name="--.HHN">
      <acc value="0.0101195036" flag="0"/>
      <vel value="0.0090885789" flag="0"/>
      <psa03 value="0.0286782900" flag="0"/>
      <psa10 value="0.0144607217" flag="0"/>
      <psa30 value="0.0009439572" flag="0"/>
    </comp>
    <comp name="--.HHZ">
      <acc value="0.0076087840" flag="0"/>
      <vel value="0.0041338906" flag="0"/>
      <psa03 value="0.0164600140" flag="0"/>
      <psa10 value="0.0070274398" flag="0"/>
      <psa30 value="0.0006225264" flag="0"/>
    </comp>
  </station>
  <station code="EGYH" name="EGYH" netid="HU" insttype="" lat="47.4162" lon="17.3317">
    <comp name="--.HHN">
      <acc value="0.0552784259" flag="0"/>
      <vel value="0.0316611842" flag="0"/>
      <psa03 value="0.1766507894" flag="0"/>
      <psa10 value="0.0415111392" flag="0"/>
      <psa30 value="0.0029674355" flag="0"/>
    </comp>
    <comp name="--.HHE">
      <acc value="0.0421779819" flag="0"/>
      <vel value="0.0253732382" flag="0"/>
      <psa03 value="0.1013189073" flag="0"/>
      <psa10 value="0.0432374908" flag="0"/>
      <psa30 value="0.0024883034" flag="0"/>
    </comp>
    <comp name="--.HHZ">
      <acc value="0.0315168999" flag="0"/>
      <vel value="0.0130415579" flag="0"/>
      <psa03 value="0.1053536175" flag="0"/>
      <psa10 value="0.0097094305" flag="0"/>
      <psa30 value="0.0016867039" flag="0"/>
    </comp>
  </station>
  <station code="MPLH" name="MPLH" netid="HU" insttype="" lat="47.1712" lon="17.5348">
    <comp name="--.HHE">
      <acc value="0.0108585670" flag="0"/>
      <vel value="0.0057781965" flag="0"/>
      <psa03 value="0.0456428235" flag="0"/>
      <psa10 value="0.0036803976" flag="0"/>
      <psa30 value="0.0005025848" flag="0"/>
    </comp>
    <comp name="--.HHN">
      <acc value="0.0180242205" flag="0"/>
      <vel value="0.0080566811" flag="0"/>
      <psa03 value="0.0629460958" flag="0"/>
      <psa10 value="0.0052382812" flag="0"/>
      <psa30 value="0.0006762842" flag="0"/>
    </comp>
    <comp name="--.HHZ">
      <acc value="0.0073032606" flag="0"/>
      <vel value="0.0034438817" flag="0"/>
      <psa03 value="0.0242335831" flag="0"/>
      <psa10 value="0.0050811352" flag="0"/>
      <psa30 value="0.0009714172" flag="0"/>
    </comp>
  </station>
  <station code="SOP" name="SOP" netid="HU" insttype="" lat="47.6807" lon="16.5567">
    <comp name="--.HHE">
      <acc value="0.0370552442" flag="0"/>
      <vel value="0.0106994363" flag="0"/>
      <psa03 value="0.0754703255" flag="0"/>
      <psa10 value="0.0092643191" flag="0"/>
      <psa30 value="0.0016228175" flag="0"/>
    </comp>
    <comp name="--.HHN">
      <acc value="0.0344152337" flag="0"/>
      <vel value="0.0133635194" flag="0"/>
      <psa03 value="0.0706074383" flag="0"/>
      <psa10 value="0.0149540189" flag="0"/>
      <psa30 value="0.0032929403" flag="0"/>
    </comp>
    <comp name="--.HHZ">
      <acc value="0.0287111472" flag="0"/>
      <vel value="0.0068242961" flag="0"/>
      <psa03 value="0.0327359998" flag="0"/>
      <psa10 value="0.0062945563" flag="0"/>
      <psa30 value="0.0008500488" flag="0"/>
    </comp>
  </station>
  <station code="ARSA" name="ARSA" netid="OE" insttype="STS-2" lat="47.2505" lon="15.5232">
    <comp name="--.HHE">
      <acc value="0.0449320946" flag="0"/>
      <vel value="0.0159162868" flag="0"/>
      <psa03 value="0.0772017567" flag="0"/>
      <psa10 value="0.0122490010" flag="0"/>
      <psa30 value="0.0015428637" flag="0"/>
    </comp>
    <comp name="--.HHN">
      <acc value="0.0482917094" flag="0"/>
      <vel value="0.0167067244" flag="0"/>
      <psa03 value="0.1015969122" flag="0"/>
      <psa10 value="0.0108367568" flag="0"/>
      <psa30 value="0.0010846640" flag="0"/>
    </comp>
    <comp name="--.HHZ">
      <acc value="0.0601400567" flag="0"/>
      <vel value="0.0192129442" flag="0"/>
      <psa03 value="0.1406570801" flag="0"/>
      <psa10 value="0.0134295528" flag="0"/>
      <psa30 value="0.0023105764" flag="0"/>
    </comp>
  </station>
  <station code="CONA" name="CONA" netid="OE" insttype="STS-2" lat="47.9282" lon="15.8618">
    <comp name="--.HHZ">
      <acc value="0.0787116538" flag="0"/>
      <vel value="0.0322084305" flag="0"/>
      <psa03 value="0.2474191212" flag="0"/>
      <psa10 value="0.0190528245" flag="0"/>
      <psa30 value="0.0016459089" flag="0"/>
    </comp>
    <comp name="--.HHE">
      <acc value="0.1145356336" flag="0"/>
      <vel value="0.0441268057" flag="0"/>
      <psa03 value="0.2226539528" flag="0"/>
      <psa10 value="0.0541965985" flag="0"/>
      <psa30 value="0.0056216191" flag="0"/>
    </comp>
    <comp name="--.HHN">
      <acc value="0.0756517536" flag="0"/>
      <vel value="0.0535882122" flag="0"/>
      <psa03 value="0.2003126495" flag="0"/>
      <psa10 value="0.0564481925" flag="0"/>
      <psa30 value="0.0024116406" flag="0"/>
    </comp>
  </station>
  <station code="CSNA" name="CSNA" netid="OE" insttype="STS-2" lat="47.9282" lon="15.8588">
    <comp name="--.HHE">
      <acc value="0.1466069570" flag="0"/>
      <vel value="0.0508723890" flag="0"/>
      <psa03 value="0.2962754546" flag="0"/>
      <psa10 value="0.0480796067" flag="0"/>
      <psa30 value="0.0053404623" flag="0"/>
    </comp>
    <comp name="--.HHN">
      <acc value="0.1521892260" flag="0"/>
      <vel value="0.0491123140" flag="0"/>
      <psa03 value="0.1789183354" flag="0"/>
      <psa10 value="0.0446087523" flag="0"/>
      <psa30 value="0.0019988259" flag="0"/>
    </comp>
    <comp name="--.HHZ">
      <acc value="0.1001899715" flag="0"/>
      <vel value="0.0289210562" flag="0"/>
      <psa03 value="0.1654027130" flag="0"/>
      <psa10 value="0.0155373229" flag="0"/>
      <psa30 value="0.0018290268" flag="0"/>
    </comp>
  </station>
  <station code="MOA" name="MOA" netid="OE" insttype="STS-2" lat="47.8495" lon="14.2659">
    <comp name="--.HHN">
      <acc value="0.0142693777" flag="0"/>
      <vel value="0.0101088895" flag="0"/>
      <psa03 value="0.0425325847" flag="0"/>
      <psa10 value="0.0060744000" flag="0"/>
      <psa30 value="0.0007041973" flag="0"/>
    </comp>
    <comp name="--.HHE">
      <acc value="0.0070671790" flag="0"/>
      <vel value="0.0039378368" flag="0"/>
      <psa03 value="0.0197312833" flag="0"/>
      <psa10 value="0.0034312101" flag="0"/>
      <psa30 value="0.0007954933" flag="0"/>
    </comp>
    <comp name="--.HHZ">
      <acc value="0.0095951507" flag="0"/>
      <vel value="0.0065007577" flag="0"/>
      <psa03 value="0.0343938978" flag="0"/>
      <psa10 value="0.0041960883" flag="0"/>
      <psa30 value="0.0010609621" flag="0"/>
    </comp>
  </station>
  <station code="RONA" name="RONA" netid="OE" insttype="STS-2.5/Quanterra" lat="47.6997" lon="16.2963">
    <comp name="--.HHE">
      <acc value="0.1235009448" flag="0"/>
      <vel value="0.0308149974" flag="0"/>
      <psa03 value="0.0949701965" flag="0"/>
      <psa10 value="0.0262040391" flag="0"/>
      <psa30 value="0.0023160010" flag="0"/>
    </comp>
    <comp name="--.HHZ">
      <acc value="0.1018560876" flag="0"/>
      <vel value="0.0223931022" flag="0"/>
      <psa03 value="0.0727641551" flag="0"/>
      <psa10 value="0.0238707645" flag="0"/>
      <psa30 value="0.0014734553" flag="0"/>
    </comp>
    <comp name="--.HHN">
      <acc value="0.1387258300" flag="0"/>
      <vel value="0.0371473739" flag="0"/>
      <psa03 value="0.0963767369" flag="0"/>
      <psa10 value="0.0481297782" flag="0"/>
      <psa30 value="0.0058476351" flag="0"/>
    </comp>
  </station>
  <station code="VIE" name="VIE" netid="OE" insttype="STS-2" lat="48.2483" lon="16.3617">
    <comp name="--.HHE">
      <acc value="0.0362219922" flag="0"/>
      <vel value="0.0342922098" flag="0"/>
      <psa03 value="0.0812805213" flag="0"/>
      <psa10 value="0.0447836871" flag="0"/>
      <psa30 value="0.0044077450" flag="0"/>
    </comp>
    <comp name="--.HHN">
      <acc value="0.0476023984" flag="0"/>
      <vel value="0.0362316747" flag="0"/>
      <psa03 value="0.0992533504" flag="0"/>
      <psa10 value="0.0567895937" flag="0"/>
      <psa30 value="0.0041343488" flag="0"/>
    </comp>
    <comp name="--.HHZ">
      <acc value="0.0813777139" flag="0"/>
      <vel value="0.0225991742" flag="0"/>
      <psa03 value="0.0936420194" flag="0"/>
      <psa10 value="0.0207180007" flag="0"/>
      <psa30 value="0.0018307594" flag="0"/>
    </comp>
  </station>
  <station code="ZST" name="ZST" netid="SK" insttype="SKD" lat="48.1961" lon="17.1025">
    <comp name="--.HHN">
      <acc value="21.4776276123" flag="0"/>
      <vel value="0.9820265631" flag="0"/>
      <psa03 value="1.3726933534" flag="0"/>
      <psa10 value="0.3650102230" flag="0"/>
      <psa30 value="0.0143133378" flag="0"/>
    </comp>
    <comp name="--.HHZ">
      <acc value="14.3818633466" flag="0"/>
      <vel value="0.5182960178" flag="0"/>
      <psa03 value="0.7553045267" flag="0"/>
      <psa10 value="0.2332683269" flag="0"/>
      <psa30 value="0.0157788798" flag="0"/>
    </comp>
    <comp name="--.HHE">
      <acc value="22.7137213389" flag="0"/>
      <vel value="0.9817282389" flag="0"/>
      <psa03 value="0.8460076998" flag="0"/>
      <psa10 value="0.2719167360" flag="0"/>
      <psa30 value="0.0239975045" flag="0"/>
    </comp>
  </station>
</stationlist>
