<?xml version="1.0" encoding="UTF-8" standalone="yes"?>
<!DOCTYPE earthquake SYSTEM "stationlist.dtd">
<stationlist created="" xmlns="ch.ethz.sed.shakemap.usgs.xml">
  <station code="KARO" name="KARO" netid="KO" insttype="120s," lat="39.3089" lon="41.0493">
    <comp name="--.HHN">
      <acc value="2.8710422726" flag="0"/>
      <vel value="1.1366420227" flag="0"/>
      <psa03 value="9.1225720291" flag="0"/>
      <psa10 value="0.5466126650" flag="0"/>
      <psa30 value="0.0397969191" flag="0"/>
    </comp>
    <comp name="--.HHZ">
      <acc value="1.3127164907" flag="0"/>
      <vel value="0.4436131584" flag="0"/>
      <psa03 value="4.5019909701" flag="0"/>
      <psa10 value="0.2831306302" flag="0"/>
      <psa30 value="0.0291398681" flag="0"/>
    </comp>
    <comp name="--.HHE">
      <acc value="2.6299400648" flag="0"/>
      <vel value="1.1104034185" flag="0"/>
      <psa03 value="10.7241258847" flag="0"/>
      <psa10 value="0.9295359145" flag="0"/>
      <psa30 value="0.0824065139" flag="0"/>
    </comp>
  </station>
</stationlist>
