<stationlist created="1778069642">
	<station code="ARPRA" name="ARPRA" netid="KO" source="Bogazici University Kandilli Observatory And Earthquake Research Institute (KOERI)" insttype="" lat="39.0929" lon="38.3356">
		<comp name="--.HNE" depth="0.0">
			<acc value="0.0138791267724424" flag="0"/>
			<vel value="0.0100496161921703" flag="0"/>
			<psa03 value="0.0225948143422272" flag="0"/>
			<psa10 value="0.0209876742804989" flag="0"/>
			<psa30 value="0.00254896351104294" flag="0"/>
		</comp>
		<comp name="--.HNN" depth="0.0">
			<acc value="0.0143992762698672" flag="0"/>
			<vel value="0.0109151074055386" flag="0"/>
			<psa03 value="0.0260847064584524" flag="0"/>
			<psa10 value="0.0171340280244672" flag="0"/>
			<psa30 value="0.0030858699904622" flag="0"/>
		</comp>
		<comp name="--.HNZ" depth="0.0">
			<acc value="0.00548846326071493" flag="0"/>
			<vel value="0.00642533970209806" flag="0"/>
			<psa03 value="0.00988802766263806" flag="0"/>
			<psa10 value="0.0182816656242258" flag="0"/>
			<psa30 value="0.00207827549741872" flag="0"/>
		</comp>
	</station>
</stationlist>
