<?xml version="1.0" encoding="UTF-8" standalone="yes"?>
<!DOCTYPE earthquake SYSTEM "stationlist.dtd">
<stationlist created="" xmlns="ch.ethz.sed.shakemap.usgs.xml">
  <station code="CEYT" name="CEYT" netid="KO" insttype="CMG-3ESP" lat="37.0105" lon="35.7478">
    <comp name="--.HHN">
      <acc value="0.1043759979" flag="0"/>
      <vel value="0.0551408596" flag="0"/>
      <psa03 value="0.3904544072" flag="0"/>
      <psa10 value="0.0290956418" flag="0"/>
      <psa30 value="0.0060557112" flag="0"/>
    </comp>
    <comp name="--.HHZ">
      <acc value="0.0889300321" flag="0"/>
      <vel value="0.0413889484" flag="0"/>
      <psa03 value="0.2268342239" flag="0"/>
      <psa10 value="0.0284234141" flag="0"/>
      <psa30 value="0.0063634920" flag="0"/>
    </comp>
    <comp name="--.HHE">
      <acc value="0.1149242349" flag="0"/>
      <vel value="0.0517597222" flag="0"/>
      <psa03 value="0.3683890243" flag="0"/>
      <psa10 value="0.0418773827" flag="0"/>
      <psa30 value="0.0109774082" flag="0"/>
    </comp>
  </station>
  <station code="CMRD" name="CMRD" netid="KO" insttype="CMG-5T" lat="37.6623" lon="34.9902">
    <comp name="--.HNZ">
      <acc value="0.6333682899" flag="0"/>
      <vel value="0.1033505134" flag="0"/>
      <psa03 value="0.4863376978" flag="0"/>
      <psa10 value="0.0543125615" flag="0"/>
      <psa30 value="0.0178975120" flag="0"/>
    </comp>
    <comp name="--.HNN">
      <acc value="0.6250793301" flag="0"/>
      <vel value="0.1033680754" flag="0"/>
      <psa03 value="0.3608763367" flag="0"/>
      <psa10 value="0.0551551334" flag="0"/>
      <psa30 value="0.0039877464" flag="0"/>
    </comp>
    <comp name="--.HNE">
      <acc value="1.4161799472" flag="0"/>
      <vel value="0.2266472364" flag="0"/>
      <psa03 value="0.5965308864" flag="0"/>
      <psa10 value="0.0644362696" flag="0"/>
      <psa30 value="0.0143324011" flag="0"/>
    </comp>
  </station>
  <station code="KMRS" name="KMRS" netid="KO" insttype="CMG-3T" lat="37.5087" lon="36.9">
    <comp name="--.HHE">
      <acc value="0.0069223742" flag="0"/>
      <vel value="0.0045349236" flag="0"/>
      <psa03 value="0.0118108311" flag="0"/>
      <psa10 value="0.0066717742" flag="0"/>
      <psa30 value="0.0011431338" flag="0"/>
    </comp>
    <comp name="--.HHN">
      <acc value="0.0207364128" flag="0"/>
      <vel value="0.0144467088" flag="0"/>
      <psa03 value="0.0364734254" flag="0"/>
      <psa10 value="0.0172725505" flag="0"/>
      <psa30 value="0.0038944500" flag="0"/>
    </comp>
    <comp name="--.HHZ">
      <acc value="0.0115800792" flag="0"/>
      <vel value="0.0077151919" flag="0"/>
      <psa03 value="0.0243460998" flag="0"/>
      <psa10 value="0.0117489558" flag="0"/>
      <psa30 value="0.0028327303" flag="0"/>
    </comp>
  </station>
  <station code="MERS" name="MERS" netid="KO" insttype="CMG-3T" lat="36.8678" lon="34.522">
    <comp name="--.HHN">
      <acc value="0.0438875038" flag="0"/>
      <vel value="0.0288797317" flag="0"/>
      <psa03 value="0.0769416525" flag="0"/>
      <psa10 value="0.0194067379" flag="0"/>
      <psa30 value="0.0035430708" flag="0"/>
    </comp>
    <comp name="--.HHZ">
      <acc value="0.0240188302" flag="0"/>
      <vel value="0.0136699252" flag="0"/>
      <psa03 value="0.0519018656" flag="0"/>
      <psa10 value="0.0160376713" flag="0"/>
      <psa30 value="0.0035029871" flag="0"/>
    </comp>
    <comp name="--.HHE">
      <acc value="0.0478165850" flag="0"/>
      <vel value="0.0218689631" flag="0"/>
      <psa03 value="0.0749450569" flag="0"/>
      <psa10 value="0.0217477658" flag="0"/>
      <psa30 value="0.0057730297" flag="0"/>
    </comp>
  </station>
  <station code="TAHT" name="TAHT" netid="KO" insttype="CMG-3ESPC" lat="36.3755" lon="36.1855">
    <comp name="--.HHZ">
      <acc value="0.0280855522" flag="0"/>
      <vel value="0.0184558264" flag="0"/>
      <psa03 value="0.0820426643" flag="0"/>
      <psa10 value="0.0294666267" flag="0"/>
      <psa30 value="0.0015084826" flag="0"/>
    </comp>
    <comp name="--.HHN">
      <acc value="0.0569323888" flag="0"/>
      <vel value="0.0311845672" flag="0"/>
      <psa03 value="0.1859993455" flag="0"/>
      <psa10 value="0.0163567392" flag="0"/>
      <psa30 value="0.0021349119" flag="0"/>
    </comp>
  </station>
  <station code="ANDN" name="ANDN" netid="TU" insttype="T" lat="37.58" lon="36.3452">
    <comp name="--.HHN">
      <acc value="0.1143742426" flag="0"/>
      <vel value="0.0784416499" flag="0"/>
      <psa03 value="0.2837458658" flag="0"/>
      <psa10 value="0.0692225012" flag="0"/>
      <psa30 value="0.0114751575" flag="0"/>
    </comp>
    <comp name="--.HHE">
      <acc value="0.0721942038" flag="0"/>
      <vel value="0.0586247366" flag="0"/>
      <psa03 value="0.1798306571" flag="0"/>
      <psa10 value="0.1134527260" flag="0"/>
      <psa30 value="0.0220167889" flag="0"/>
    </comp>
    <comp name="--.HHZ">
      <acc value="0.0468355303" flag="0"/>
      <vel value="0.0608077698" flag="0"/>
      <psa03 value="0.0882614498" flag="0"/>
      <psa10 value="0.1178071750" flag="0"/>
      <psa30 value="0.0148569198" flag="0"/>
    </comp>
  </station>
</stationlist>
