<?xml version="1.0" encoding="UTF-8" standalone="yes"?>
<!DOCTYPE earthquake SYSTEM "stationlist.dtd">
<stationlist created="" xmlns="ch.ethz.sed.shakemap.usgs.xml">
  <station code="BNN" name="BNN" netid="KO" insttype="CMG-3T" lat="38.8521" lon="35.8472">
    <comp name="--.HHE">
      <acc value="0.0169540194" flag="0"/>
      <vel value="0.0129314548" flag="0"/>
      <psa03 value="0.0349239223" flag="0"/>
      <psa10 value="0.0250834573" flag="0"/>
      <psa30 value="0.0011413247" flag="0"/>
    </comp>
    <comp name="--.HHN">
      <acc value="0.0198777332" flag="0"/>
      <vel value="0.0156249835" flag="0"/>
      <psa03 value="0.0455580314" flag="0"/>
      <psa10 value="0.0176058240" flag="0"/>
      <psa30 value="0.0009750994" flag="0"/>
    </comp>
    <comp name="--.HHZ">
      <acc value="0.0090371688" flag="0"/>
      <vel value="0.0075731325" flag="0"/>
      <psa03 value="0.0254384629" flag="0"/>
      <psa10 value="0.0091761982" flag="0"/>
      <psa30 value="0.0007739249" flag="0"/>
    </comp>
  </station>
  <station code="CEYT" name="CEYT" netid="KO" insttype="CMG-3ESP" lat="37.0105" lon="35.7478">
    <comp name="--.HHE">
      <acc value="0.0148522716" flag="0"/>
      <vel value="0.0076723155" flag="0"/>
      <psa03 value="0.0400409818" flag="0"/>
      <psa10 value="0.0132193085" flag="0"/>
      <psa30 value="0.0019139374" flag="0"/>
    </comp>
    <comp name="--.HHN">
      <acc value="0.0094334192" flag="0"/>
      <vel value="0.0050735297" flag="0"/>
      <psa03 value="0.0357136133" flag="0"/>
      <psa10 value="0.0081794042" flag="0"/>
      <psa30 value="0.0008653257" flag="0"/>
    </comp>
    <comp name="--.HHZ">
      <acc value="0.0069681549" flag="0"/>
      <vel value="0.0043264909" flag="0"/>
      <psa03 value="0.0189230051" flag="0"/>
      <psa10 value="0.0067348840" flag="0"/>
      <psa30 value="0.0010187155" flag="0"/>
    </comp>
  </station>
  <station code="CMRD" name="CMRD" netid="KO" insttype="CMG-5T" lat="37.6623" lon="34.9902">
    <comp name="--.HNZ">
      <acc value="0.0116910007" flag="0"/>
      <vel value="0.0055548739" flag="0"/>
      <psa03 value="0.0190491400" flag="0"/>
      <psa10 value="0.0075165325" flag="0"/>
      <psa30 value="0.0006715902" flag="0"/>
    </comp>
    <comp name="--.HNN">
      <acc value="0.0198642981" flag="0"/>
      <vel value="0.0064440464" flag="0"/>
      <psa03 value="0.0285420016" flag="0"/>
      <psa10 value="0.0065721105" flag="0"/>
      <psa30 value="0.0004297148" flag="0"/>
    </comp>
  </station>
  <station code="GAZ" name="GAZ" netid="KO" insttype="CMG-3T" lat="37.1721" lon="37.2096">
    <comp name="--.HHN">
      <acc value="0.0133212231" flag="0"/>
      <vel value="0.0103728035" flag="0"/>
      <psa03 value="0.0322533901" flag="0"/>
      <psa10 value="0.0162699794" flag="0"/>
      <psa30 value="0.0013191339" flag="0"/>
    </comp>
    <comp name="--.HHE">
      <acc value="0.0164050848" flag="0"/>
      <vel value="0.0078655098" flag="0"/>
      <psa03 value="0.0271466806" flag="0"/>
      <psa10 value="0.0120468595" flag="0"/>
      <psa30 value="0.0010123254" flag="0"/>
    </comp>
    <comp name="--.HHZ">
      <acc value="0.0135540228" flag="0"/>
      <vel value="0.0052144810" flag="0"/>
      <psa03 value="0.0271458178" flag="0"/>
      <psa10 value="0.0095411765" flag="0"/>
      <psa30 value="0.0006231686" flag="0"/>
    </comp>
  </station>
  <station code="KARA" name="KARA" netid="KO" insttype="CMG-3ESP" lat="37.2607" lon="35.0547">
    <comp name="--.HHE">
      <acc value="0.0067529880" flag="0"/>
      <vel value="0.0052834998" flag="0"/>
      <psa03 value="0.0159828103" flag="0"/>
      <psa10 value="0.0043152826" flag="0"/>
      <psa30 value="0.0004172610" flag="0"/>
    </comp>
    <comp name="--.HHN">
      <acc value="0.0060398579" flag="0"/>
      <vel value="0.0047928629" flag="0"/>
      <psa03 value="0.0111643020" flag="0"/>
      <psa10 value="0.0081074393" flag="0"/>
      <psa30 value="0.0007623139" flag="0"/>
    </comp>
    <comp name="--.HHZ">
      <acc value="0.0060386040" flag="0"/>
      <vel value="0.0053232344" flag="0"/>
      <psa03 value="0.0122050257" flag="0"/>
      <psa10 value="0.0060512460" flag="0"/>
      <psa30 value="0.0007552156" flag="0"/>
    </comp>
  </station>
  <station code="KHMN" name="KHMN" netid="KO" insttype="CMG-5T" lat="37.3916" lon="37.1574">
    <comp name="--.HNE">
      <acc value="0.0432744753" flag="0"/>
      <vel value="0.0124376945" flag="0"/>
      <psa03 value="0.0456071894" flag="0"/>
      <psa10 value="0.0085777538" flag="0"/>
      <psa30 value="0.0010843111" flag="0"/>
    </comp>
    <comp name="--.HNN">
      <acc value="0.0245468991" flag="0"/>
      <vel value="0.0086331692" flag="0"/>
      <psa03 value="0.0309128400" flag="0"/>
      <psa10 value="0.0075832679" flag="0"/>
      <psa30 value="0.0011416772" flag="0"/>
    </comp>
    <comp name="--.HNZ">
      <acc value="0.0192216821" flag="0"/>
      <vel value="0.0055355417" flag="0"/>
      <psa03 value="0.0250135201" flag="0"/>
      <psa10 value="0.0040675020" flag="0"/>
      <psa30 value="0.0009061423" flag="0"/>
    </comp>
  </station>
  <station code="KMRS" name="KMRS" netid="KO" insttype="CMG-3T" lat="37.5087" lon="36.9">
    <comp name="--.HHZ">
      <acc value="0.0185208954" flag="0"/>
      <vel value="0.0047187260" flag="0"/>
      <psa03 value="0.0276378371" flag="0"/>
      <psa10 value="0.0052937175" flag="0"/>
      <psa30 value="0.0014783367" flag="0"/>
    </comp>
    <comp name="--.HHE">
      <acc value="0.0179857822" flag="0"/>
      <vel value="0.0084204129" flag="0"/>
      <psa03 value="0.0453045147" flag="0"/>
      <psa10 value="0.0070671133" flag="0"/>
      <psa30 value="0.0008692670" flag="0"/>
    </comp>
    <comp name="--.HHN">
      <acc value="0.0186027365" flag="0"/>
      <vel value="0.0080934364" flag="0"/>
      <psa03 value="0.0418650482" flag="0"/>
      <psa10 value="0.0081703997" flag="0"/>
      <psa30 value="0.0013586571" flag="0"/>
    </comp>
  </station>
  <station code="SARI" name="SARI" netid="KO" insttype="CMG-3T" lat="38.4072" lon="36.4181">
    <comp name="--.HHE">
      <acc value="0.1757920435" flag="0"/>
      <vel value="0.0422410501" flag="0"/>
      <psa03 value="0.1819765655" flag="0"/>
      <psa10 value="0.0474594014" flag="0"/>
      <psa30 value="0.0015918546" flag="0"/>
    </comp>
    <comp name="--.HHN">
      <acc value="0.1324397956" flag="0"/>
      <vel value="0.0356481979" flag="0"/>
      <psa03 value="0.2697169497" flag="0"/>
      <psa10 value="0.0444577995" flag="0"/>
      <psa30 value="0.0017088630" flag="0"/>
    </comp>
  </station>
  <station code="ANDN" name="ANDN" netid="TU" insttype="T" lat="37.58" lon="36.3452">
    <comp name="--.HHE">
      <acc value="0.4625567146" flag="0"/>
      <vel value="0.1484331481" flag="0"/>
      <psa03 value="0.6166060100" flag="0"/>
      <psa10 value="0.1164205921" flag="0"/>
      <psa30 value="0.0067992252" flag="0"/>
    </comp>
    <comp name="--.HHZ">
      <acc value="0.1914163959" flag="0"/>
      <vel value="0.0998397965" flag="0"/>
      <psa03 value="0.3495287631" flag="0"/>
      <psa10 value="0.1495698795" flag="0"/>
      <psa30 value="0.0157502216" flag="0"/>
    </comp>
    <comp name="--.HHN">
      <acc value="0.4924665399" flag="0"/>
      <vel value="0.1294355371" flag="0"/>
      <psa03 value="0.4875919148" flag="0"/>
      <psa10 value="0.0757461505" flag="0"/>
      <psa30 value="0.0115248646" flag="0"/>
    </comp>
  </station>
</stationlist>
