<stationlist created="1675764063">
	<station code="KOZK" name="KOZK" netid="KO" source="Bogazici University Kandilli Observatory And Earthquake Research Institute (KOERI)" insttype="" lat="39.2101" lon="34.868">
		<comp name=".HNE" depth="0.0">
			<acc value="0.00983391182192" flag="0"/>
			<vel value="0.00685701004554" flag="0"/>
			<psa03 value="0.0216787525172" flag="0"/>
			<psa10 value="0.00759934357548" flag="0"/>
			<psa30 value="0.000450379783366" flag="0"/>
		</comp>
		<comp name=".HNN" depth="0.0">
			<acc value="0.00808189688325" flag="0"/>
			<vel value="0.00494773185101" flag="0"/>
			<psa03 value="0.0244429395373" flag="0"/>
			<psa10 value="0.00691308748937" flag="0"/>
			<psa30 value="0.000439091691836" flag="0"/>
		</comp>
		<comp name=".HNZ" depth="0.0">
			<acc value="0.00671670840041" flag="0"/>
			<vel value="0.0036505349069" flag="0"/>
			<psa03 value="0.0114382564263" flag="0"/>
			<psa10 value="0.00241972967022" flag="0"/>
			<psa30 value="0.000230168554829" flag="0"/>
		</comp>
	</station>
</stationlist>
