<stationlist created="1675762266">
	<station code="ARPRA" name="ARPRA" netid="KO" source="Bogazici University Kandilli Observatory And Earthquake Research Institute (KOERI)" insttype="" lat="39.0929" lon="38.3356">
		<comp name=".HNE" depth="0.0">
			<acc value="0.00527330140784" flag="0"/>
			<vel value="0.00344968438812" flag="0"/>
			<psa03 value="0.0118447950762" flag="0"/>
			<psa10 value="0.0043726152893" flag="0"/>
			<psa30 value="0.000381987622514" flag="0"/>
		</comp>
		<comp name=".HNN" depth="0.0">
			<acc value="0.00450119322471" flag="0"/>
			<vel value="0.00304796012055" flag="0"/>
			<psa03 value="0.0151328761767" flag="0"/>
			<psa10 value="0.00537573549108" flag="0"/>
			<psa30 value="0.000644271481905" flag="0"/>
		</comp>
		<comp name=".HNZ" depth="0.0">
			<acc value="0.00252020242077" flag="0"/>
			<vel value="0.00195914137871" flag="0"/>
			<psa03 value="0.00617812867175" flag="0"/>
			<psa10 value="0.00241212674468" flag="0"/>
			<psa30 value="0.000451717267804" flag="0"/>
		</comp>
	</station>
	<station code="CMRD" name="CMRD" netid="KO" source="Bogazici University Kandilli Observatory And Earthquake Research Institute (KOERI)" insttype="" lat="37.6623" lon="34.9902">
		<comp name=".HNE" depth="0.0">
			<acc value="0.00417261849561" flag="0"/>
			<vel value="0.00369339818392" flag="0"/>
			<psa03 value="0.0122950137031" flag="0"/>
			<psa10 value="0.00390411690983" flag="0"/>
			<psa30 value="0.000245411517725" flag="0"/>
		</comp>
		<comp name=".HNN" depth="0.0">
			<acc value="0.00426719074224" flag="0"/>
			<vel value="0.00233465115022" flag="0"/>
			<psa03 value="0.0116277950239" flag="0"/>
			<psa10 value="0.00265453342794" flag="0"/>
			<psa30 value="0.000268944014138" flag="0"/>
		</comp>
		<comp name=".HNZ" depth="0.0">
			<acc value="0.00264627936171" flag="0"/>
			<vel value="0.00244364082095" flag="0"/>
			<psa03 value="0.00734231581947" flag="0"/>
			<psa10 value="0.0039247416355" flag="0"/>
			<psa30 value="0.000350407040872" flag="0"/>
		</comp>
	</station>
	<station code="KOZK" name="KOZK" netid="KO" source="Bogazici University Kandilli Observatory And Earthquake Research Institute (KOERI)" insttype="" lat="39.2101" lon="34.868">
		<comp name=".HNE" depth="0.0">
			<acc value="0.00983391182192" flag="0"/>
			<vel value="0.00685701004554" flag="0"/>
			<psa03 value="0.0216787525172" flag="0"/>
			<psa10 value="0.00759934357548" flag="0"/>
			<psa30 value="0.000450379783366" flag="0"/>
		</comp>
		<comp name=".HNN" depth="0.0">
			<acc value="0.00808189688325" flag="0"/>
			<vel value="0.00494773185101" flag="0"/>
			<psa03 value="0.0244429395373" flag="0"/>
			<psa10 value="0.00691308748937" flag="0"/>
			<psa30 value="0.000439091691836" flag="0"/>
		</comp>
		<comp name=".HNZ" depth="0.0">
			<acc value="0.00671670840041" flag="0"/>
			<vel value="0.0036505349069" flag="0"/>
			<psa03 value="0.0114382564263" flag="0"/>
			<psa10 value="0.00241972967022" flag="0"/>
			<psa30 value="0.000230168554829" flag="0"/>
		</comp>
	</station>
	<station code="TUNC" name="TUNC" netid="KO" source="Bogazici University Kandilli Observatory And Earthquake Research Institute (KOERI)" insttype="" lat="39.6942" lon="37.5388">
		<comp name=".HNE" depth="0.0">
			<acc value="0.0056888656226" flag="0"/>
			<vel value="0.00615011843601" flag="0"/>
			<psa03 value="0.00895559782171" flag="0"/>
			<psa10 value="0.0114703354784" flag="0"/>
			<psa30 value="0.000643862704828" flag="0"/>
		</comp>
		<comp name=".HNN" depth="0.0">
			<acc value="0.00345530496094" flag="0"/>
			<vel value="0.00256663267136" flag="0"/>
			<psa03 value="0.00844219011305" flag="0"/>
			<psa10 value="0.00540392892128" flag="0"/>
			<psa30 value="0.000583345831298" flag="0"/>
		</comp>
		<comp name=".HNZ" depth="0.0">
			<acc value="0.00268416995799" flag="0"/>
			<vel value="0.00290800116618" flag="0"/>
			<psa03 value="0.00544460091248" flag="0"/>
			<psa10 value="0.00260091190702" flag="0"/>
			<psa30 value="0.000467592642385" flag="0"/>
		</comp>
	</station>
</stationlist>
