<?xml version="1.0" encoding="UTF-8" standalone="yes"?>
<!DOCTYPE earthquake SYSTEM "stationlist.dtd">
<stationlist created="" xmlns="ch.ethz.sed.shakemap.usgs.xml">
  <station code="OEM4" name="OEM4" netid="3D" insttype="" lat="38.4095" lon="14.9422">
    <comp name="--.HHN">
      <acc value="0.0091833307" flag="0"/>
      <vel value="0.0127558281" flag="0"/>
      <psa03 value="0.0158017915" flag="0"/>
      <psa10 value="0.0113818445" flag="0"/>
      <psa30 value="0.0061954907" flag="0"/>
    </comp>
    <comp name="--.HHE">
      <acc value="0.0208405800" flag="0"/>
      <vel value="0.0140258412" flag="0"/>
      <psa03 value="0.0439891983" flag="0"/>
      <psa10 value="0.0173472848" flag="0"/>
      <psa30 value="0.0073537877" flag="0"/>
    </comp>
    <comp name="--.HHZ">
      <acc value="0.0058660302" flag="0"/>
      <vel value="0.0042904065" flag="0"/>
      <psa03 value="0.0074787024" flag="0"/>
      <psa10 value="0.0079516280" flag="0"/>
      <psa30 value="0.0023140630" flag="0"/>
    </comp>
  </station>
  <station code="OEM5" name="OEM5" netid="3D" insttype="" lat="38.4223" lon="14.9661">
    <comp name="--.HHE">
      <acc value="0.0102590168" flag="0"/>
      <vel value="0.0109051412" flag="0"/>
      <psa03 value="0.0131803464" flag="0"/>
      <psa10 value="0.0167628325" flag="0"/>
      <psa30 value="0.0036900088" flag="0"/>
    </comp>
    <comp name="--.HHN">
      <acc value="0.0063935816" flag="0"/>
      <vel value="0.0080825848" flag="0"/>
      <psa03 value="0.0124116627" flag="0"/>
      <psa10 value="0.0195136655" flag="0"/>
      <psa30 value="0.0015993785" flag="0"/>
    </comp>
    <comp name="--.HHZ">
      <acc value="0.0071831898" flag="0"/>
      <vel value="0.0064346897" flag="0"/>
      <psa03 value="0.0111262282" flag="0"/>
      <psa10 value="0.0104859310" flag="0"/>
      <psa30 value="0.0022749705" flag="0"/>
    </comp>
  </station>
  <station code="OEM8" name="OEM8" netid="3D" insttype="" lat="38.4689" lon="14.9168">
    <comp name="--.HHE">
      <acc value="0.0076118473" flag="0"/>
      <vel value="0.0052550023" flag="0"/>
      <psa03 value="0.0217232267" flag="0"/>
      <psa10 value="0.0067310365" flag="0"/>
      <psa30 value="0.0005657541" flag="0"/>
    </comp>
    <comp name="--.HHN">
      <acc value="0.0070537441" flag="0"/>
      <vel value="0.0046581491" flag="0"/>
      <psa03 value="0.0160355931" flag="0"/>
      <psa10 value="0.0075554800" flag="0"/>
      <psa30 value="0.0011319898" flag="0"/>
    </comp>
    <comp name="--.HHZ">
      <acc value="0.0029478794" flag="0"/>
      <vel value="0.0023922503" flag="0"/>
      <psa03 value="0.0052881027" flag="0"/>
      <psa10 value="0.0027804443" flag="0"/>
      <psa30 value="0.0003886750" flag="0"/>
    </comp>
  </station>
  <station code="OEM9" name="OEM9" netid="3D" insttype="" lat="38.3879" lon="14.9908">
    <comp name="--.HHN">
      <acc value="0.0129703118" flag="0"/>
      <vel value="0.0075645725" flag="0"/>
      <psa03 value="0.0276837726" flag="0"/>
      <psa10 value="0.0118108118" flag="0"/>
      <psa30 value="0.0013449409" flag="0"/>
    </comp>
    <comp name="--.HHE">
      <acc value="0.0086784973" flag="0"/>
      <vel value="0.0068561540" flag="0"/>
      <psa03 value="0.0176522655" flag="0"/>
      <psa10 value="0.0095901229" flag="0"/>
      <psa30 value="0.0013750697" flag="0"/>
    </comp>
    <comp name="--.HHZ">
      <acc value="0.0086371709" flag="0"/>
      <vel value="0.0060998245" flag="0"/>
      <psa03 value="0.0231654109" flag="0"/>
      <psa10 value="0.0058917693" flag="0"/>
      <psa30 value="0.0016179327" flag="0"/>
    </comp>
  </station>
  <station code="CS2FF" name="CS2FF" netid="7C" insttype="" lat="39.2933" lon="16.2584">
    <comp name="--.HH1">
      <acc value="0.0121347379" flag="0"/>
      <vel value="0.0098373271" flag="0"/>
      <psa03 value="0.0587643777" flag="0"/>
      <psa10 value="0.0102948578" flag="0"/>
      <psa30 value="0.0009313750" flag="0"/>
    </comp>
    <comp name="--.HH2">
      <acc value="0.0153668958" flag="0"/>
      <vel value="0.0161520428" flag="0"/>
      <psa03 value="0.0457983615" flag="0"/>
      <psa10 value="0.0320901036" flag="0"/>
      <psa30 value="0.0014708705" flag="0"/>
    </comp>
    <comp name="--.HHZ">
      <acc value="0.0212355946" flag="0"/>
      <vel value="0.0113608399" flag="0"/>
      <psa03 value="0.0566760532" flag="0"/>
      <psa10 value="0.0086162562" flag="0"/>
      <psa30 value="0.0008462440" flag="0"/>
    </comp>
  </station>
  <station code="CS2FS" name="CS2FS" netid="7C" insttype="" lat="39.2933" lon="16.2584">
    <comp name="--.HHN">
      <acc value="0.0089340198" flag="0"/>
      <vel value="0.0032371375" flag="0"/>
      <psa03 value="0.0277174489" flag="0"/>
      <psa10 value="0.0038932067" flag="0"/>
      <psa30 value="0.0002053065" flag="0"/>
    </comp>
    <comp name="--.HHZ">
      <acc value="0.0121446667" flag="0"/>
      <vel value="0.0043615319" flag="0"/>
      <psa03 value="0.0211334284" flag="0"/>
      <psa10 value="0.0026791272" flag="0"/>
      <psa30 value="0.0002876433" flag="0"/>
    </comp>
    <comp name="--.HHE">
      <acc value="0.0124448595" flag="0"/>
      <vel value="0.0059393892" flag="0"/>
      <psa03 value="0.0350118698" flag="0"/>
      <psa10 value="0.0110829817" flag="0"/>
      <psa30 value="0.0005972121" flag="0"/>
    </comp>
  </station>
  <station code="CSMBE" name="CSMBE" netid="7C" insttype="" lat="39.2895" lon="16.2642">
    <comp name="--.HNE">
      <acc value="0.0347245055" flag="0"/>
      <vel value="0.0154597778" flag="0"/>
      <psa03 value="0.0596737712" flag="0"/>
      <psa10 value="0.0287374556" flag="0"/>
      <psa30 value="0.0013463847" flag="0"/>
    </comp>
    <comp name="--.HNN">
      <acc value="0.0325619772" flag="0"/>
      <vel value="0.0127660104" flag="0"/>
      <psa03 value="0.0518638528" flag="0"/>
      <psa10 value="0.0079847196" flag="0"/>
      <psa30 value="0.0003528571" flag="0"/>
    </comp>
    <comp name="--.HNZ">
      <acc value="0.0298075449" flag="0"/>
      <vel value="0.0144937472" flag="0"/>
      <psa03 value="0.0568951540" flag="0"/>
      <psa10 value="0.0115156700" flag="0"/>
      <psa30 value="0.0009235583" flag="0"/>
    </comp>
  </station>
  <station code="ACER" name="ACER" netid="IV" insttype="" lat="40.7867" lon="15.9427">
    <comp name="--.HHN">
      <acc value="0.0058911436" flag="0"/>
      <vel value="0.0074568370" flag="0"/>
      <psa03 value="0.0119525528" flag="0"/>
      <psa10 value="0.0120685286" flag="0"/>
      <psa30 value="0.0013257258" flag="0"/>
    </comp>
    <comp name="--.HHE">
      <acc value="0.0041471478" flag="0"/>
      <vel value="0.0022892708" flag="0"/>
      <psa03 value="0.0107828674" flag="0"/>
      <psa10 value="0.0016284036" flag="0"/>
      <psa30 value="0.0001755280" flag="0"/>
    </comp>
    <comp name="--.HHZ">
      <acc value="0.0061829636" flag="0"/>
      <vel value="0.0033891121" flag="0"/>
      <psa03 value="0.0057259743" flag="0"/>
      <psa10 value="0.0053181669" flag="0"/>
      <psa30 value="0.0007591999" flag="0"/>
    </comp>
  </station>
  <station code="CAR1" name="CAR1" netid="IV" insttype="" lat="39.2534" lon="16.2114">
    <comp name="--.HHE">
      <acc value="0.0346076003" flag="0"/>
      <vel value="0.0280139565" flag="0"/>
      <psa03 value="0.1163360247" flag="0"/>
      <psa10 value="0.0225544215" flag="0"/>
      <psa30 value="0.0020622854" flag="0"/>
    </comp>
    <comp name="--.HHZ">
      <acc value="0.0270278775" flag="0"/>
      <vel value="0.0150638068" flag="0"/>
      <psa03 value="0.0761196758" flag="0"/>
      <psa10 value="0.0140495371" flag="0"/>
      <psa30 value="0.0011516313" flag="0"/>
    </comp>
    <comp name="--.HHN">
      <acc value="0.0243190929" flag="0"/>
      <vel value="0.0193045822" flag="0"/>
      <psa03 value="0.1216427628" flag="0"/>
      <psa10 value="0.0164802554" flag="0"/>
      <psa30 value="0.0014646814" flag="0"/>
    </comp>
  </station>
  <station code="CET2" name="CET2" netid="IV" insttype="" lat="39.5288" lon="15.9546">
    <comp name="--.HHE">
      <acc value="0.0775453673" flag="0"/>
      <vel value="0.0742569755" flag="0"/>
      <psa03 value="0.0951257329" flag="0"/>
      <psa10 value="0.0952604863" flag="0"/>
      <psa30 value="0.0047473284" flag="0"/>
    </comp>
    <comp name="--.HHN">
      <acc value="0.1036996732" flag="0"/>
      <vel value="0.1089947577" flag="0"/>
      <psa03 value="0.1599257916" flag="0"/>
      <psa10 value="0.1548259827" flag="0"/>
      <psa30 value="0.0077518882" flag="0"/>
    </comp>
    <comp name="--.HHZ">
      <acc value="0.0737807537" flag="0"/>
      <vel value="0.0282854654" flag="0"/>
      <psa03 value="0.0975658689" flag="0"/>
      <psa10 value="0.0166052736" flag="0"/>
      <psa30 value="0.0012993582" flag="0"/>
    </comp>
  </station>
  <station code="FERC" name="FERC" netid="IV" insttype="" lat="38.4527" lon="16.1281">
    <comp name="00.HHE">
      <acc value="0.8819510488" flag="0"/>
      <vel value="0.7053935265" flag="0"/>
      <psa03 value="2.1259346573" flag="0"/>
      <psa10 value="0.8434390383" flag="0"/>
      <psa30 value="0.0849871053" flag="0"/>
    </comp>
    <comp name="00.HHN">
      <acc value="1.0582946225" flag="0"/>
      <vel value="0.4575369835" flag="0"/>
      <psa03 value="2.5419522129" flag="0"/>
      <psa10 value="0.3947385996" flag="0"/>
      <psa30 value="0.0875674114" flag="0"/>
    </comp>
    <comp name="00.HHZ">
      <acc value="1.5631047759" flag="0"/>
      <vel value="0.7737842607" flag="0"/>
      <psa03 value="2.6263265242" flag="0"/>
      <psa10 value="0.6044738687" flag="0"/>
      <psa30 value="0.1677057879" flag="0"/>
    </comp>
  </station>
  <station code="GIZZ" name="GIZZ" netid="IV" insttype="" lat="38.9798" lon="16.2078">
    <comp name="--.HHE">
      <acc value="0.1048267826" flag="0"/>
      <vel value="0.0320131893" flag="0"/>
      <psa03 value="0.1990791069" flag="0"/>
      <psa10 value="0.0090942837" flag="0"/>
      <psa30 value="0.0008840032" flag="0"/>
    </comp>
    <comp name="--.HHN">
      <acc value="0.0758863882" flag="0"/>
      <vel value="0.0250539776" flag="0"/>
      <psa03 value="0.1002968181" flag="0"/>
      <psa10 value="0.0113379640" flag="0"/>
      <psa30 value="0.0008920909" flag="0"/>
    </comp>
    <comp name="--.HHZ">
      <acc value="0.0542842703" flag="0"/>
      <vel value="0.0134329056" flag="0"/>
      <psa03 value="0.0488176084" flag="0"/>
      <psa10 value="0.0069191183" flag="0"/>
      <psa30 value="0.0006838513" flag="0"/>
    </comp>
  </station>
  <station code="IACL" name="IACL" netid="IV" insttype="" lat="38.533" lon="14.355">
    <comp name="--.HHE">
      <acc value="0.0019251857" flag="0"/>
      <vel value="0.0029902868" flag="0"/>
      <psa03 value="0.0038615971" flag="0"/>
      <psa10 value="0.0041693591" flag="0"/>
      <psa30 value="0.0015581378" flag="0"/>
    </comp>
    <comp name="--.HHN">
      <acc value="0.0018798794" flag="0"/>
      <vel value="0.0026317364" flag="0"/>
      <psa03 value="0.0036037201" flag="0"/>
      <psa10 value="0.0019582571" flag="0"/>
      <psa30 value="0.0010632174" flag="0"/>
    </comp>
    <comp name="--.HHZ">
      <acc value="0.0012496038" flag="0"/>
      <vel value="0.0016376649" flag="0"/>
      <psa03 value="0.0029201560" flag="0"/>
      <psa10 value="0.0023055834" flag="0"/>
      <psa30 value="0.0005383420" flag="0"/>
    </comp>
  </station>
  <station code="ILOS" name="ILOS" netid="IV" insttype="" lat="38.4457" lon="14.9483">
    <comp name="--.HHE">
      <acc value="0.0104326317" flag="0"/>
      <vel value="0.0109221282" flag="0"/>
      <psa03 value="0.0194666020" flag="0"/>
      <psa10 value="0.0295309468" flag="0"/>
      <psa30 value="0.0036011310" flag="0"/>
    </comp>
    <comp name="--.HHN">
      <acc value="0.0150278981" flag="0"/>
      <vel value="0.0153616330" flag="0"/>
      <psa03 value="0.0335072537" flag="0"/>
      <psa10 value="0.0228597464" flag="0"/>
      <psa30 value="0.0025500306" flag="0"/>
    </comp>
    <comp name="--.HHZ">
      <acc value="0.0064310235" flag="0"/>
      <vel value="0.0051125676" flag="0"/>
      <psa03 value="0.0198042559" flag="0"/>
      <psa10 value="0.0045022076" flag="0"/>
      <psa30 value="0.0008898936" flag="0"/>
    </comp>
  </station>
  <station code="IST3" name="IST3" netid="IV" insttype="" lat="38.7992" lon="15.2304">
    <comp name="--.HHE">
      <acc value="0.0630882020" flag="0"/>
      <vel value="0.0184454621" flag="0"/>
      <psa03 value="0.0960118973" flag="0"/>
      <psa10 value="0.0063590685" flag="0"/>
      <psa30 value="0.0006746924" flag="0"/>
    </comp>
    <comp name="--.HHN">
      <acc value="0.0647119229" flag="0"/>
      <vel value="0.0224157619" flag="0"/>
      <psa03 value="0.1070493661" flag="0"/>
      <psa10 value="0.0132526738" flag="0"/>
      <psa30 value="0.0052796130" flag="0"/>
    </comp>
    <comp name="--.HHZ">
      <acc value="0.0732026402" flag="0"/>
      <vel value="0.0211576167" flag="0"/>
      <psa03 value="0.1049587265" flag="0"/>
      <psa10 value="0.0163185725" flag="0"/>
      <psa30 value="0.0017575437" flag="0"/>
    </comp>
  </station>
  <station code="ISTR" name="ISTR" netid="IV" insttype="" lat="38.7866" lon="15.1918">
    <comp name="--.HHE">
      <acc value="0.0138929524" flag="0"/>
      <vel value="0.0087677579" flag="0"/>
      <psa03 value="0.0461069144" flag="0"/>
      <psa10 value="0.0074976564" flag="0"/>
      <psa30 value="0.0033559855" flag="0"/>
    </comp>
    <comp name="--.HHZ">
      <acc value="0.0120963620" flag="0"/>
      <vel value="0.0111456564" flag="0"/>
      <psa03 value="0.0330048639" flag="0"/>
      <psa10 value="0.0103620102" flag="0"/>
      <psa30 value="0.0013376143" flag="0"/>
    </comp>
    <comp name="--.HHN">
      <acc value="0.0173155024" flag="0"/>
      <vel value="0.0098850497" flag="0"/>
      <psa03 value="0.0486341016" flag="0"/>
      <psa10 value="0.0132742349" flag="0"/>
      <psa30 value="0.0023179064" flag="0"/>
    </comp>
  </station>
  <station code="IVCR" name="IVCR" netid="IV" insttype="" lat="38.4096" lon="14.961">
    <comp name="--.HHN">
      <acc value="0.0073983087" flag="0"/>
      <vel value="0.0050134066" flag="0"/>
      <psa03 value="0.0142226505" flag="0"/>
      <psa10 value="0.0067554775" flag="0"/>
      <psa30 value="0.0019724749" flag="0"/>
    </comp>
    <comp name="--.HHZ">
      <acc value="0.0052033761" flag="0"/>
      <vel value="0.0044060799" flag="0"/>
      <psa03 value="0.0068735674" flag="0"/>
      <psa10 value="0.0057251678" flag="0"/>
      <psa30 value="0.0014643585" flag="0"/>
    </comp>
    <comp name="--.HHE">
      <acc value="0.0106285655" flag="0"/>
      <vel value="0.0072438982" flag="0"/>
      <psa03 value="0.0160413983" flag="0"/>
      <psa10 value="0.0071271202" flag="0"/>
      <psa30 value="0.0021178152" flag="0"/>
    </comp>
  </station>
  <station code="IVGP" name="IVGP" netid="IV" insttype="" lat="38.3968" lon="14.9608">
    <comp name="--.HHE">
      <acc value="0.0117922733" flag="0"/>
      <vel value="0.0063761856" flag="0"/>
      <psa03 value="0.0178746117" flag="0"/>
      <psa10 value="0.0071606307" flag="0"/>
      <psa30 value="0.0011356009" flag="0"/>
    </comp>
    <comp name="--.HHZ">
      <acc value="0.0075600236" flag="0"/>
      <vel value="0.0037451613" flag="0"/>
      <psa03 value="0.0088571316" flag="0"/>
      <psa10 value="0.0040358507" flag="0"/>
      <psa30 value="0.0016333675" flag="0"/>
    </comp>
    <comp name="--.HHN">
      <acc value="0.0078053806" flag="0"/>
      <vel value="0.0041269299" flag="0"/>
      <psa03 value="0.0109479012" flag="0"/>
      <psa10 value="0.0040023215" flag="0"/>
      <psa30 value="0.0014067435" flag="0"/>
    </comp>
  </station>
  <station code="IVLT" name="IVLT" netid="IV" insttype="" lat="38.3961" lon="14.9482">
    <comp name="--.HHE">
      <acc value="0.0090561545" flag="0"/>
      <vel value="0.0097947170" flag="0"/>
      <psa03 value="0.0182067046" flag="0"/>
      <psa10 value="0.0172431515" flag="0"/>
      <psa30 value="0.0025036014" flag="0"/>
    </comp>
    <comp name="--.HHN">
      <acc value="0.0088343370" flag="0"/>
      <vel value="0.0081911818" flag="0"/>
      <psa03 value="0.0188712247" flag="0"/>
      <psa10 value="0.0157372085" flag="0"/>
      <psa30 value="0.0029547682" flag="0"/>
    </comp>
    <comp name="--.HHZ">
      <acc value="0.0046277455" flag="0"/>
      <vel value="0.0035896434" flag="0"/>
      <psa03 value="0.0080730832" flag="0"/>
      <psa10 value="0.0035313287" flag="0"/>
      <psa30 value="0.0008676743" flag="0"/>
    </comp>
  </station>
  <station code="IVPL" name="IVPL" netid="IV" insttype="" lat="38.3763" lon="14.9801">
    <comp name="--.HHE">
      <acc value="0.0294256004" flag="0"/>
      <vel value="0.0232107381" flag="0"/>
      <psa03 value="0.0629856674" flag="0"/>
      <psa10 value="0.0389154792" flag="0"/>
      <psa30 value="0.0045845691" flag="0"/>
    </comp>
    <comp name="--.HHN">
      <acc value="0.0231721129" flag="0"/>
      <vel value="0.0160314064" flag="0"/>
      <psa03 value="0.0471841884" flag="0"/>
      <psa10 value="0.0297795830" flag="0"/>
      <psa30 value="0.0021175909" flag="0"/>
    </comp>
    <comp name="--.HHZ">
      <acc value="0.0135039247" flag="0"/>
      <vel value="0.0071368014" flag="0"/>
      <psa03 value="0.0245149788" flag="0"/>
      <psa10 value="0.0152243796" flag="0"/>
      <psa30 value="0.0018456440" flag="0"/>
    </comp>
  </station>
  <station code="IVUG" name="IVUG" netid="IV" insttype="" lat="38.396" lon="14.986">
    <comp name="--.HHE">
      <acc value="0.0166127177" flag="0"/>
      <vel value="0.0106661875" flag="0"/>
      <psa03 value="0.0344948741" flag="0"/>
      <psa10 value="0.0136523368" flag="0"/>
      <psa30 value="0.0036969766" flag="0"/>
    </comp>
    <comp name="--.HHN">
      <acc value="0.0141912295" flag="0"/>
      <vel value="0.0081381334" flag="0"/>
      <psa03 value="0.0256600397" flag="0"/>
      <psa10 value="0.0104013332" flag="0"/>
      <psa30 value="0.0022709286" flag="0"/>
    </comp>
    <comp name="--.HHZ">
      <acc value="0.0091975492" flag="0"/>
      <vel value="0.0049049627" flag="0"/>
      <psa03 value="0.0145236283" flag="0"/>
      <psa10 value="0.0051890597" flag="0"/>
      <psa30 value="0.0013939692" flag="0"/>
    </comp>
  </station>
  <station code="MIGL" name="MIGL" netid="IV" insttype="" lat="40.6044" lon="16.441">
    <comp name="--.HHE">
      <acc value="0.0465611625" flag="0"/>
      <vel value="0.0303495384" flag="0"/>
      <psa03 value="0.1282074976" flag="0"/>
      <psa10 value="0.0309839625" flag="0"/>
      <psa30 value="0.0031424709" flag="0"/>
    </comp>
    <comp name="--.HHZ">
      <acc value="0.0253626898" flag="0"/>
      <vel value="0.0136021282" flag="0"/>
      <psa03 value="0.0252722474" flag="0"/>
      <psa10 value="0.0246888914" flag="0"/>
      <psa30 value="0.0017051785" flag="0"/>
    </comp>
    <comp name="--.HHN">
      <acc value="0.0299456349" flag="0"/>
      <vel value="0.0241817015" flag="0"/>
      <psa03 value="0.0499025082" flag="0"/>
      <psa10 value="0.0695336537" flag="0"/>
      <psa30 value="0.0043842894" flag="0"/>
    </comp>
  </station>
  <station code="MILZ" name="MILZ" netid="IV" insttype="" lat="38.2713" lon="15.2313">
    <comp name="--.HHE">
      <acc value="0.0391146211" flag="0"/>
      <vel value="0.0321308386" flag="0"/>
      <psa03 value="0.0935274099" flag="0"/>
      <psa10 value="0.0446536560" flag="0"/>
      <psa30 value="0.0043202864" flag="0"/>
    </comp>
    <comp name="--.HHN">
      <acc value="0.0766505408" flag="0"/>
      <vel value="0.0499958106" flag="0"/>
      <psa03 value="0.1646566673" flag="0"/>
      <psa10 value="0.0331510188" flag="0"/>
      <psa30 value="0.0049344811" flag="0"/>
    </comp>
