<?xml version="1.0" encoding="UTF-8" standalone="yes"?>
<!DOCTYPE earthquake SYSTEM "stationlist.dtd">
<stationlist created="" xmlns="ch.ethz.sed.shakemap.usgs.xml">
  <station code="FX12" name="FX12" netid="1J" insttype="" lat="38.0895" lon="15.7176">
    <comp name="00.HHE">
      <acc value="0.0070233559" flag="0"/>
      <vel value="0.0048689632" flag="0"/>
      <psa03 value="0.0361398844" flag="0"/>
      <psa10 value="0.0061454009" flag="0"/>
      <psa30 value="0.0007191717" flag="0"/>
    </comp>
    <comp name="00.HHN">
      <acc value="0.0016106252" flag="0"/>
      <vel value="0.0010483484" flag="0"/>
      <psa03 value="0.0067224693" flag="0"/>
      <psa10 value="0.0011902546" flag="0"/>
      <psa30 value="0.0002233745" flag="0"/>
    </comp>
    <comp name="00.HHZ">
      <acc value="0.0023973582" flag="0"/>
      <vel value="0.0018241946" flag="0"/>
      <psa03 value="0.0033265357" flag="0"/>
      <psa10 value="0.0025037195" flag="0"/>
      <psa30 value="0.0004955527" flag="0"/>
    </comp>
  </station>
  <station code="FX14" name="FX14" netid="1J" insttype="" lat="37.9286" lon="15.907">
    <comp name="00.HHN">
      <acc value="0.0010550706" flag="0"/>
      <vel value="0.0011120711" flag="0"/>
      <psa03 value="0.0025659151" flag="0"/>
      <psa10 value="0.0015981398" flag="0"/>
      <psa30 value="0.0003282546" flag="0"/>
    </comp>
    <comp name="00.HHE">
      <acc value="0.0022793443" flag="0"/>
      <vel value="0.0024395429" flag="0"/>
      <psa03 value="0.0051717278" flag="0"/>
      <psa10 value="0.0043693575" flag="0"/>
      <psa30 value="0.0012209564" flag="0"/>
    </comp>
    <comp name="00.HHZ">
      <acc value="0.0028105626" flag="0"/>
      <vel value="0.0029177793" flag="0"/>
      <psa03 value="0.0036594110" flag="0"/>
      <psa10 value="0.0035479917" flag="0"/>
      <psa30 value="0.0004296437" flag="0"/>
    </comp>
  </station>
  <station code="OEM4" name="OEM4" netid="3D" insttype="" lat="38.4095" lon="14.9422">
    <comp name="--.HHE">
      <acc value="0.0209051387" flag="0"/>
      <vel value="0.0148239041" flag="0"/>
      <psa03 value="0.0440591970" flag="0"/>
      <psa10 value="0.0172707889" flag="0"/>
      <psa30 value="0.0084909800" flag="0"/>
    </comp>
    <comp name="--.HHN">
      <acc value="0.0091962633" flag="0"/>
      <vel value="0.0146958812" flag="0"/>
      <psa03 value="0.0157712088" flag="0"/>
      <psa10 value="0.0115683920" flag="0"/>
      <psa30 value="0.0069664056" flag="0"/>
    </comp>
    <comp name="--.HHZ">
      <acc value="0.0060435019" flag="0"/>
      <vel value="0.0045929985" flag="0"/>
      <psa03 value="0.0073946423" flag="0"/>
      <psa10 value="0.0080684261" flag="0"/>
      <psa30 value="0.0027462656" flag="0"/>
    </comp>
  </station>
  <station code="OEM5" name="OEM5" netid="3D" insttype="" lat="38.4223" lon="14.9661">
    <comp name="--.HHN">
      <acc value="0.0100609909" flag="0"/>
      <vel value="0.0133091523" flag="0"/>
      <psa03 value="0.0158302706" flag="0"/>
      <psa10 value="0.0292746378" flag="0"/>
      <psa30 value="0.0066200503" flag="0"/>
    </comp>
    <comp name="--.HHE">
      <acc value="0.0062492625" flag="0"/>
      <vel value="0.0060136579" flag="0"/>
      <psa03 value="0.0093527227" flag="0"/>
      <psa10 value="0.0167600182" flag="0"/>
      <psa30 value="0.0016268186" flag="0"/>
    </comp>
    <comp name="--.HHZ">
      <acc value="0.0070735908" flag="0"/>
      <vel value="0.0070865345" flag="0"/>
      <psa03 value="0.0111611001" flag="0"/>
      <psa10 value="0.0104596652" flag="0"/>
      <psa30 value="0.0029007897" flag="0"/>
    </comp>
  </station>
  <station code="OEM8" name="OEM8" netid="3D" insttype="" lat="38.4689" lon="14.9168">
    <comp name="--.HHE">
      <acc value="0.0076193456" flag="0"/>
      <vel value="0.0052314070" flag="0"/>
      <psa03 value="0.0217271401" flag="0"/>
      <psa10 value="0.0067252448" flag="0"/>
      <psa30 value="0.0005899679" flag="0"/>
    </comp>
    <comp name="--.HHN">
      <acc value="0.0070504443" flag="0"/>
      <vel value="0.0049054964" flag="0"/>
      <psa03 value="0.0160314329" flag="0"/>
      <psa10 value="0.0075546452" flag="0"/>
      <psa30 value="0.0012901942" flag="0"/>
    </comp>
    <comp name="--.HHZ">
      <acc value="0.0029399911" flag="0"/>
      <vel value="0.0025020348" flag="0"/>
      <psa03 value="0.0052862184" flag="0"/>
      <psa10 value="0.0027709350" flag="0"/>
      <psa30 value="0.0004495662" flag="0"/>
    </comp>
  </station>
  <station code="OEM9" name="OEM9" netid="3D" insttype="" lat="38.3879" lon="14.9908">
    <comp name="--.HHE">
      <acc value="0.0086664737" flag="0"/>
      <vel value="0.0071052541" flag="0"/>
      <psa03 value="0.0176637683" flag="0"/>
      <psa10 value="0.0096116690" flag="0"/>
      <psa30 value="0.0014863905" flag="0"/>
    </comp>
    <comp name="--.HHN">
      <acc value="0.0129219691" flag="0"/>
      <vel value="0.0077988484" flag="0"/>
      <psa03 value="0.0276159710" flag="0"/>
      <psa10 value="0.0118554859" flag="0"/>
      <psa30 value="0.0016702858" flag="0"/>
    </comp>
    <comp name="--.HHZ">
      <acc value="0.0086329888" flag="0"/>
      <vel value="0.0061035363" flag="0"/>
      <psa03 value="0.0231049840" flag="0"/>
      <psa10 value="0.0059225740" flag="0"/>
      <psa30 value="0.0018655955" flag="0"/>
    </comp>
  </station>
  <station code="CS2FF" name="CS2FF" netid="7C" insttype="" lat="39.2933" lon="16.2584">
    <comp name="--.HH1">
      <acc value="0.0121505617" flag="0"/>
      <vel value="0.0099467110" flag="0"/>
      <psa03 value="0.0587580419" flag="0"/>
      <psa10 value="0.0102849674" flag="0"/>
      <psa30 value="0.0009347061" flag="0"/>
    </comp>
    <comp name="--.HH2">
      <acc value="0.0154105129" flag="0"/>
      <vel value="0.0160957549" flag="0"/>
      <psa03 value="0.0458369946" flag="0"/>
      <psa10 value="0.0321029038" flag="0"/>
      <psa30 value="0.0014602484" flag="0"/>
    </comp>
    <comp name="--.HHZ">
      <acc value="0.0212616614" flag="0"/>
      <vel value="0.0114683859" flag="0"/>
      <psa03 value="0.0566579623" flag="0"/>
      <psa10 value="0.0086264139" flag="0"/>
      <psa30 value="0.0009218613" flag="0"/>
    </comp>
  </station>
  <station code="CS2FS" name="CS2FS" netid="7C" insttype="" lat="39.2933" lon="16.2584">
    <comp name="--.HHN">
      <acc value="0.0089338727" flag="0"/>
      <vel value="0.0032487514" flag="0"/>
      <psa03 value="0.0277164928" flag="0"/>
      <psa10 value="0.0038989060" flag="0"/>
      <psa30 value="0.0002249732" flag="0"/>
    </comp>
    <comp name="--.HHE">
      <acc value="0.0124423199" flag="0"/>
      <vel value="0.0060234229" flag="0"/>
      <psa03 value="0.0350090585" flag="0"/>
      <psa10 value="0.0110846685" flag="0"/>
      <psa30 value="0.0005953074" flag="0"/>
    </comp>
    <comp name="--.HHZ">
      <acc value="0.0121445220" flag="0"/>
      <vel value="0.0043963544" flag="0"/>
      <psa03 value="0.0211272529" flag="0"/>
      <psa10 value="0.0026828184" flag="0"/>
      <psa30 value="0.0003133151" flag="0"/>
    </comp>
  </station>
  <station code="CSMBE" name="CSMBE" netid="7C" insttype="" lat="39.2895" lon="16.2642">
    <comp name="--.HNE">
      <acc value="0.0347437446" flag="0"/>
      <vel value="0.0157247884" flag="0"/>
      <psa03 value="0.0596497747" flag="0"/>
      <psa10 value="0.0287559575" flag="0"/>
      <psa30 value="0.0013245922" flag="0"/>
    </comp>
    <comp name="--.HNN">
      <acc value="0.0325611183" flag="0"/>
      <vel value="0.0127388975" flag="0"/>
      <psa03 value="0.0518619672" flag="0"/>
      <psa10 value="0.0079861877" flag="0"/>
      <psa30 value="0.0003799448" flag="0"/>
    </comp>
    <comp name="--.HNZ">
      <acc value="0.0298047758" flag="0"/>
      <vel value="0.0145840847" flag="0"/>
      <psa03 value="0.0568693746" flag="0"/>
      <psa10 value="0.0115029109" flag="0"/>
      <psa30 value="0.0010131801" flag="0"/>
    </comp>
  </station>
  <station code="MATE" name="MATE" netid="GE" insttype="STS-2/N" lat="40.6491" lon="16.7044">
    <comp name="--.HHZ">
      <acc value="0.0086541397" flag="0"/>
      <vel value="0.0036907341" flag="0"/>
      <psa03 value="0.0083707527" flag="0"/>
      <psa10 value="0.0053615087" flag="0"/>
      <psa30 value="0.0008838486" flag="0"/>
    </comp>
    <comp name="--.HHE">
      <acc value="0.0137626852" flag="0"/>
      <vel value="0.0070324249" flag="0"/>
      <psa03 value="0.0300908103" flag="0"/>
      <psa10 value="0.0113215796" flag="0"/>
      <psa30 value="0.0006091726" flag="0"/>
    </comp>
    <comp name="--.HHN">
      <acc value="0.0054757013" flag="0"/>
      <vel value="0.0013591169" flag="0"/>
      <psa03 value="0.0045748571" flag="0"/>
      <psa10 value="0.0022216744" flag="0"/>
      <psa30 value="0.0001852441" flag="0"/>
    </comp>
  </station>
  <station code="CAMPI" name="CAMPI" netid="GX" insttype="Trillium Compact" lat="40.7071" lon="15.2738">
    <comp name="--.HHE">
      <acc value="0.0043602785" flag="0"/>
      <vel value="0.0071614154" flag="0"/>
      <psa03 value="0.0071902354" flag="0"/>
      <psa10 value="0.0115129419" flag="0"/>
      <psa30 value="0.0025185326" flag="0"/>
    </comp>
    <comp name="--.HHZ">
      <acc value="0.0021644949" flag="0"/>
      <vel value="0.0030880975" flag="0"/>
      <psa03 value="0.0050394194" flag="0"/>
      <psa10 value="0.0064329164" flag="0"/>
      <psa30 value="0.0006785355" flag="0"/>
    </comp>
    <comp name="--.HHN">
      <acc value="0.0038321046" flag="0"/>
      <vel value="0.0053734159" flag="0"/>
      <psa03 value="0.0108947681" flag="0"/>
      <psa10 value="0.0097425154" flag="0"/>
      <psa30 value="0.0016032518" flag="0"/>
    </comp>
  </station>
  <station code="ACER" name="ACER" netid="IV" insttype="" lat="40.7867" lon="15.9427">
    <comp name="--.HHE">
      <acc value="0.0047064653" flag="0"/>
      <vel value="0.0080943701" flag="0"/>
      <psa03 value="0.0107835191" flag="0"/>
      <psa10 value="0.0099510553" flag="0"/>
      <psa30 value="0.0012396127" flag="0"/>
    </comp>
    <comp name="--.HHN">
      <acc value="0.0059419572" flag="0"/>
      <vel value="0.0074807088" flag="0"/>
      <psa03 value="0.0119520732" flag="0"/>
      <psa10 value="0.0121238311" flag="0"/>
      <psa30 value="0.0014938220" flag="0"/>
    </comp>
    <comp name="--.HHZ">
      <acc value="0.0061856376" flag="0"/>
      <vel value="0.0036060762" flag="0"/>
      <psa03 value="0.0057283134" flag="0"/>
      <psa10 value="0.0053130068" flag="0"/>
      <psa30 value="0.0008770965" flag="0"/>
    </comp>
  </station>
  <station code="AIO" name="AIO" netid="IV" insttype="" lat="37.9712" lon="15.233">
    <comp name="--.HHE">
      <acc value="0.0336953567" flag="0"/>
      <vel value="0.0198913816" flag="0"/>
      <psa03 value="0.0751932090" flag="0"/>
      <psa10 value="0.0239224641" flag="0"/>
      <psa30 value="0.0044893996" flag="0"/>
    </comp>
    <comp name="--.HHZ">
      <acc value="0.0142691190" flag="0"/>
      <vel value="0.0143847961" flag="0"/>
      <psa03 value="0.0354015345" flag="0"/>
      <psa10 value="0.0219937567" flag="0"/>
      <psa30 value="0.0016838430" flag="0"/>
    </comp>
    <comp name="--.HHN">
      <acc value="0.0270582438" flag="0"/>
      <vel value="0.0186324579" flag="0"/>
      <psa03 value="0.0677575290" flag="0"/>
      <psa10 value="0.0316424268" flag="0"/>
      <psa30 value="0.0053268594" flag="0"/>
    </comp>
  </station>
  <station code="BULG" name="BULG" netid="IV" insttype="" lat="40.0783" lon="15.3776">
    <comp name="--.HHE">
      <acc value="0.0077608894" flag="0"/>
      <vel value="0.0085216793" flag="0"/>
      <psa03 value="0.0289921959" flag="0"/>
      <psa10 value="0.0069125460" flag="0"/>
      <psa30 value="0.0029220452" flag="0"/>
    </comp>
    <comp name="--.HHN">
      <acc value="0.0151532766" flag="0"/>
      <vel value="0.0084564012" flag="0"/>
      <psa03 value="0.0272610690" flag="0"/>
      <psa10 value="0.0173803408" flag="0"/>
      <psa30 value="0.0018063723" flag="0"/>
    </comp>
    <comp name="--.HHZ">
      <acc value="0.0049874425" flag="0"/>
      <vel value="0.0036151933" flag="0"/>
      <psa03 value="0.0103014938" flag="0"/>
      <psa10 value="0.0051613071" flag="0"/>
      <psa30 value="0.0009563572" flag="0"/>
    </comp>
  </station>
  <station code="CAR1" name="CAR1" netid="IV" insttype="" lat="39.2534" lon="16.2114">
    <comp name="--.HHE">
      <acc value="0.0346775590" flag="0"/>
      <vel value="0.0279762380" flag="0"/>
      <psa03 value="0.1162645793" flag="0"/>
      <psa10 value="0.0225638942" flag="0"/>
      <psa30 value="0.0019723503" flag="0"/>
    </comp>
    <comp name="--.HHN">
      <acc value="0.0242668634" flag="0"/>
      <vel value="0.0194654886" flag="0"/>
      <psa03 value="0.1216939203" flag="0"/>
      <psa10 value="0.0164764136" flag="0"/>
      <psa30 value="0.0016210947" flag="0"/>
    </comp>
    <comp name="--.HHZ">
      <acc value="0.0270121678" flag="0"/>
      <vel value="0.0152201407" flag="0"/>
      <psa03 value="0.0761251144" flag="0"/>
      <psa10 value="0.0140332804" flag="0"/>
      <psa30 value="0.0012361120" flag="0"/>
    </comp>
  </station>
  <station code="CDRU" name="CDRU" netid="IV" insttype="" lat="40.4896" lon="15.3046">
    <comp name="--.HHE">
      <acc value="0.0034794760" flag="0"/>
      <vel value="0.0040616694" flag="0"/>
      <psa03 value="0.0077507448" flag="0"/>
      <psa10 value="0.0063215101" flag="0"/>
      <psa30 value="0.0012916462" flag="0"/>
    </comp>
    <comp name="--.HHN">
      <acc value="0.0024803921" flag="0"/>
      <vel value="0.0024110237" flag="0"/>
      <psa03 value="0.0080513332" flag="0"/>
      <psa10 value="0.0034003781" flag="0"/>
      <psa30 value="0.0009438661" flag="0"/>
    </comp>
    <comp name="--.HHZ">
      <acc value="0.0017783494" flag="0"/>
      <vel value="0.0021584682" flag="0"/>
      <psa03 value="0.0042399804" flag="0"/>
      <psa10 value="0.0042299657" flag="0"/>
      <psa30 value="0.0009009958" flag="0"/>
    </comp>
  </station>
  <station code="CELI" name="CELI" netid="IV" insttype="" lat="39.4027" lon="16.5088">
    <comp name="--.HHE">
      <acc value="0.0127174328" flag="0"/>
      <vel value="0.0062659652" flag="0"/>
      <psa03 value="0.0186942973" flag="0"/>
      <psa10 value="0.0063001269" flag="0"/>
      <psa30 value="0.0006643401" flag="0"/>
    </comp>
    <comp name="--.HHN">
      <acc value="0.0114737764" flag="0"/>
      <vel value="0.0046888689" flag="0"/>
      <psa03 value="0.0197867767" flag="0"/>
      <psa10 value="0.0060535609" flag="0"/>
      <psa30 value="0.0004137551" flag="0"/>
    </comp>
    <comp name="--.HHZ">
      <acc value="0.0346267837" flag="0"/>
      <vel value="0.0189673409" flag="0"/>
      <psa03 value="0.0646394501" flag="0"/>
      <psa10 value="0.0224079558" flag="0"/>
      <psa30 value="0.0018874138" flag="0"/>
    </comp>
  </station>
  <station code="CET2" name="CET2" netid="IV" insttype="" lat="39.5288" lon="15.9546">
    <comp name="--.HHN">
      <acc value="0.1036963696" flag="0"/>
      <vel value="0.1093552955" flag="0"/>
      <psa03 value="0.1598995932" flag="0"/>
      <psa10 value="0.1547984062" flag="0"/>
      <psa30 value="0.0078439461" flag="0"/>
    </comp>
    <comp name="--.HHE">
      <acc value="0.0774772228" flag="0"/>
      <vel value="0.0744930082" flag="0"/>
      <psa03 value="0.0952310591" flag="0"/>
      <psa10 value="0.0952354539" flag="0"/>
      <psa30 value="0.0049653764" flag="0"/>
    </comp>
    <comp name="--.HHZ">
      <acc value="0.0737384667" flag="0"/>
      <vel value="0.0284032642" flag="0"/>
      <psa03 value="0.0975283949" flag="0"/>
      <psa10 value="0.0166341139" flag="0"/>
      <psa30 value="0.0013935513" flag="0"/>
    </comp>
  </station>
  <station code="CMPR" name="CMPR" netid="IV" insttype="" lat="40.3181" lon="15.303">
    <comp name="--.HHE">
      <acc value="0.0035795533" flag="0"/>
      <vel value="0.0080225808" flag="0"/>
      <psa03 value="0.0099771143" flag="0"/>
      <psa10 value="0.0080128500" flag="0"/>
      <psa30 value="0.0025715732" flag="0"/>
    </comp>
    <comp name="--.HHN">
      <acc value="0.0040715942" flag="0"/>
      <vel value="0.0074421099" flag="0"/>
      <psa03 value="0.0098192927" flag="0"/>
      <psa10 value="0.0108293978" flag="0"/>
      <psa30 value="0.0013889288" flag="0"/>
    </comp>
    <comp name="--.HHZ">
      <acc value="0.0029344302" flag="0"/>
      <vel value="0.0029298520" flag="0"/>
      <psa03 value="0.0092333668" flag="0"/>
      <psa10 value="0.0047205311" flag="0"/>
      <psa30 value="0.0007208781" flag="0"/>
    </comp>
  </station>
  <station code="FERC" name="FERC" netid="IV" insttype="" lat="38.4527" lon="16.1281">
    <comp name="00.HHE">
      <acc value="0.8783069219" flag="0"/>
      <vel value="0.7178567092" flag="0"/>
      <psa03 value="2.1224305805" flag="0"/>
      <psa10 value="0.8400856625" flag="0"/>
      <psa30 value="0.0870566291" flag="0"/>
    </comp>
    <comp name="00.HHZ">
      <acc value="1.5766278300" flag="0"/>
      <vel value="0.8343719888" flag="0"/>
      <psa03 value="2.6139307827" flag="0"/>
      <psa10 value="0.6096169470" flag="0"/>
      <psa30 value="0.1998375367" flag="0"/>
    </comp>
    <comp name="00.HHN">
      <acc value="1.0535546221" flag="0"/>
      <vel value="0.4817438959" flag="0"/>
      <psa03 value="2.5367039508" flag="0"/>
      <psa10 value="0.3945796019" flag="0"/>
      <psa30 value="0.1078550381" flag="0"/>
    </comp>
  </station>
  <station code="GIZZ" name="GIZZ" netid="IV" insttype="" lat="38.9798" lon="16.2078">
    <comp name="--.HHN">
      <acc value="0.0758769273" flag="0"/>
      <vel value="0.0250330240" flag="0"/>
      <psa03 value="0.1002984124" flag="0"/>
      <psa10 value="0.0113405324" flag="0"/>
      <psa30 value="0.0009648166" flag="0"/>
    </comp>
    <comp name="--.HHE">
      <acc value="0.1048610113" flag="0"/>
      <vel value="0.0318909508" flag="0"/>
      <psa03 value="0.1991106775" flag="0"/>
      <psa10 value="0.0091328665" flag="0"/>
      <psa30 value="0.0009097411" flag="0"/>
    </comp>
    <comp name="--.HHZ">
      <acc value="0.0542984285" flag="0"/>
      <vel value="0.0134249831" flag="0"/>
      <psa03 value="0.0487920642" flag="0"/>
      <psa10 value="0.0069608371" flag="0"/>
      <psa30 value="0.0007581712" flag="0"/>
    </comp>
  </station>
  <station code="GRIS" name="GRIS" netid="IV" insttype="" lat="39.7405" lon="15.8531">
    <comp name="--.HNN">
      <acc value="0.0290692139" flag="0"/>
      <vel value="0.0065747935" flag="0"/>
      <psa03 value="0.0344538109" flag="0"/>
      <psa10 value="0.0174799077" flag="0"/>
      <psa30 value="0.0011849233" flag="0"/>
    </comp>
    <comp name="--.HNZ">
      <acc value="0.0216464597" flag="0"/>
      <vel value="0.0123568244" flag="0"/>
      <psa03 value="0.0334329432" flag="0"/>
      <psa10 value="0.0096188305" flag="0"/>
      <psa30 value="0.0007682094" flag="0"/>
    </comp>
    <comp name="--.HNE">
      <acc value="0.0190406706" flag="0"/>
      <vel value="0.0147247467" flag="0"/>
      <psa03 value="0.0188880586" flag="0"/>
      <psa10 value="0.0197872206" flag="0"/>
      <psa30 value="0.0027517114" flag="0"/>
    </comp>
  </station>
  <station code="IACL" name="IACL" netid="IV" insttype="" lat="38.533" lon="14.355">
    <comp name="--.HHE">
      <acc value="0.0018089503" flag="0"/>
      <vel value="0.0037039221" flag="0"/>
      <psa03 value="0.0040183121" flag="0"/>
      <psa10 value="0.0041750294" flag="0"/>
      <psa30 value="0.0020837030" flag="0"/>
    </comp>
    <comp name="--.HHN">
      <acc value="0.0019287382" flag="0"/>
      <vel value="0.0035920469" flag="0"/>
      <psa03 value="0.0036203174" flag="0"/>
      <psa10 value="0.0020923820" flag="0"/>
