<?xml version="1.0" encoding="UTF-8" standalone="yes"?>
<!DOCTYPE earthquake SYSTEM "stationlist.dtd">
<stationlist created="" xmlns="ch.ethz.sed.shakemap.usgs.xml">
  <station code="CEYT" name="CEYT" netid="KO" insttype="CMG-3ESP" lat="37.0105" lon="35.7478">
    <comp name="--.HHZ">
      <acc value="0.0063304786" flag="0"/>
      <vel value="0.0028233332" flag="0"/>
      <psa03 value="0.0125222154" flag="0"/>
      <psa10 value="0.0018521491" flag="0"/>
      <psa30 value="0.0001390279" flag="0"/>
    </comp>
    <comp name="--.HHE">
      <acc value="0.0137158199" flag="0"/>
      <vel value="0.0055873939" flag="0"/>
      <psa03 value="0.0221443445" flag="0"/>
      <psa10 value="0.0027584635" flag="0"/>
      <psa30 value="0.0005098543" flag="0"/>
    </comp>
    <comp name="--.HHN">
      <acc value="0.0130205740" flag="0"/>
      <vel value="0.0050849293" flag="0"/>
      <psa03 value="0.0230101607" flag="0"/>
      <psa10 value="0.0029502648" flag="0"/>
      <psa30 value="0.0002177970" flag="0"/>
    </comp>
  </station>
</stationlist>
