<stationlist xmlns:esm="https://esm-db.eu/esmws/shakemap/1/" created="1781378644">
	<station code="BCL" name="BCL" netid="IT" source="Italian Strong Motion Network (RAN)" insttype="" lat="38.1827" lon="15.2316" esm:processing="automatic (Paolucci et al 2011)" esm:quality="best">
		<comp name="--.HGE" depth="0.0">
			<acc value="0.0314114039009303" flag="0"/>
			<vel value="0.0197216785599312" flag="0"/>
			<psa03 value="0.086230405049471" flag="0"/>
			<psa10 value="0.0287156072680526" flag="0"/>
			<psa30 value="0.00255706585139656" flag="0"/>
		</comp>
		<comp name="--.HGN" depth="0.0">
			<acc value="0.0218335051781054" flag="0"/>
			<vel value="0.014952530861859" flag="0"/>
			<psa03 value="0.0499492672271488" flag="0"/>
			<psa10 value="0.0239831500159854" flag="0"/>
			<psa30 value="0.00270225859470323" flag="0"/>
		</comp>
		<comp name="--.HGZ" depth="0.0">
			<acc value="0.0324924013275631" flag="0"/>
			<vel value="0.00928720095891046" flag="0"/>
			<psa03 value="0.0504538162760471" flag="0"/>
			<psa10 value="0.0135469183543561" flag="0"/>
			<psa30 value="0.00104559489052998" flag="0"/>
		</comp>
	</station>
	<station code="CVL" name="CVL" netid="IT" source="Italian Strong Motion Network (RAN)" insttype="" lat="39.8168" lon="16.1947" esm:processing="automatic (Paolucci et al 2011)" esm:quality="best">
		<comp name="--.HGE" depth="0.0">
			<acc value="0.0108053011816905" flag="0"/>
			<vel value="0.00660752490649172" flag="0"/>
			<psa03 value="0.0365824676797797" flag="0"/>
			<psa10 value="0.0124429145945252" flag="0"/>
			<psa30 value="0.000910991494548932" flag="0"/>
		</comp>
		<comp name="--.HGN" depth="0.0">
			<acc value="0.0144854143698562" flag="0"/>
			<vel value="0.00955984064682445" flag="0"/>
			<psa03 value="0.0377258246715691" flag="0"/>
			<psa10 value="0.0164012765040751" flag="0"/>
			<psa30 value="0.000722685947313917" flag="0"/>
		</comp>
		<comp name="--.HGZ" depth="0.0">
			<acc value="0.00637319347387362" flag="0"/>
			<vel value="0.00324242647023683" flag="0"/>
			<psa03 value="0.0131632131441024" flag="0"/>
			<psa10 value="0.00557794841795754" flag="0"/>
			<psa30 value="0.00041247703812111" flag="0"/>
		</comp>
	</station>
	<station code="DNMI" name="DNMI" netid="IT" source="Italian Strong Motion Network (RAN)" insttype="" lat="38.5315" lon="16.1448" esm:processing="automatic (Paolucci et al 2011)" esm:quality="best">
		<comp name="--.HGE" depth="0.0">
			<acc value="0.0769466770815581" flag="0"/>
			<vel value="0.047578732319201" flag="0"/>
			<psa03 value="0.149046623607331" flag="0"/>
			<psa10 value="0.081512422297935" flag="0"/>
			<psa30 value="0.00257768013365826" flag="0"/>
		</comp>
		<comp name="--.HGN" depth="0.0">
			<acc value="0.0990518244720351" flag="0"/>
			<vel value="0.0503285656048664" flag="0"/>
			<psa03 value="0.186364824921687" flag="0"/>
			<psa10 value="0.0471546825162935" flag="0"/>
			<psa30 value="0.00217816012575181" flag="0"/>
		</comp>
		<comp name="--.HGZ" depth="0.0">
			<acc value="0.0992433337550113" flag="0"/>
			<vel value="0.0278394702224199" flag="0"/>
			<psa03 value="0.0911596117935598" flag="0"/>
			<psa10 value="0.0125560661527606" flag="0"/>
			<psa30 value="0.00108599860874469" flag="0"/>
		</comp>
	</station>
	<station code="FDF" name="FDF" netid="IT" source="Italian Strong Motion Network (RAN)" insttype="" lat="38.7891" lon="16.3" esm:processing="automatic (Paolucci et al 2011)" esm:quality="best">
		<comp name="--.HGE" depth="0.0">
			<acc value="0.101456971942157" flag="0"/>
			<vel value="0.0264195808375045" flag="0"/>
			<psa03 value="0.123815920947106" flag="0"/>
			<psa10 value="0.00854400256073786" flag="0"/>
			<psa30 value="0.00123874508161554" flag="0"/>
		</comp>
		<comp name="--.HGN" depth="0.0">
			<acc value="0.176751849471959" flag="0"/>
			<vel value="0.0540742510523744" flag="0"/>
			<psa03 value="0.238081938426642" flag="0"/>
			<psa10 value="0.0176093834102286" flag="0"/>
			<psa30 value="0.00130367427868953" flag="0"/>
		</comp>
		<comp name="--.HGZ" depth="0.0">
			<acc value="0.0589892246484385" flag="0"/>
			<vel value="0.0125039155344984" flag="0"/>
			<psa03 value="0.0404228028123015" flag="0"/>
			<psa10 value="0.00543323898791799" flag="0"/>
			<psa30 value="0.000550316976632219" flag="0"/>
		</comp>
	</station>
	<station code="GMB" name="GMB" netid="IT" source="Italian Strong Motion Network (RAN)" insttype="" lat="38.1666" lon="15.8363" esm:processing="automatic (Paolucci et al 2011)" esm:quality="best">
		<comp name="--.HGE" depth="0.0">
			<acc value="0.0464012669657301" flag="0"/>
			<vel value="0.0148178709735279" flag="0"/>
			<psa03 value="0.0445044117405281" flag="0"/>
			<psa10 value="0.0212226465211767" flag="0"/>
			<psa30 value="0.000779323136749756" flag="0"/>
		</comp>
		<comp name="--.HGN" depth="0.0">
			<acc value="0.0541129213023099" flag="0"/>
			<vel value="0.0170266113272865" flag="0"/>
			<psa03 value="0.0536237866876962" flag="0"/>
			<psa10 value="0.0160560436340918" flag="0"/>
			<psa30 value="0.00090241915584023" flag="0"/>
		</comp>
		<comp name="--.HGZ" depth="0.0">
			<acc value="0.0526282909597861" flag="0"/>
			<vel value="0.011471855291369" flag="0"/>
			<psa03 value="0.0277077417519085" flag="0"/>
			<psa10 value="0.00585969801998592" flag="0"/>
			<psa30 value="0.000433575519125264" flag="0"/>
		</comp>
	</station>
	<station code="LAZR" name="LAZR" netid="IT" source="Italian Strong Motion Network (RAN)" insttype="" lat="37.9778" lon="15.6659" esm:processing="automatic (Paolucci et al 2011)" esm:quality="best">
		<comp name="--.HNE" depth="0.0">
			<acc value="0.0363070295346181" flag="0"/>
			<vel value="0.0181023582016768" flag="0"/>
			<psa03 value="0.113082730759265" flag="0"/>
			<psa10 value="0.0285068571893844" flag="0"/>
			<psa30 value="0.00170847171953334" flag="0"/>
		</comp>
		<comp name="--.HNN" depth="0.0">
			<acc value="0.035208796305092" flag="0"/>
			<vel value="0.0167823691075389" flag="0"/>
			<psa03 value="0.0699638014251465" flag="0"/>
			<psa10 value="0.0422007543428646" flag="0"/>
			<psa30 value="0.0014420492786875" flag="0"/>
		</comp>
		<comp name="--.HNZ" depth="0.0">
			<acc value="0.0547325539268348" flag="0"/>
			<vel value="0.0112065216636982" flag="0"/>
			<psa03 value="0.0406896798665966" flag="0"/>
			<psa10 value="0.0100562152374061" flag="0"/>
			<psa30 value="0.000600311226005881" flag="0"/>
		</comp>
	</station>
	<station code="NCH" name="NCH" netid="IT" source="Italian Strong Motion Network (RAN)" insttype="" lat="38.9621" lon="16.3151" esm:processing="automatic (Paolucci et al 2011)" esm:quality="best">
		<comp name="--.HGE" depth="0.0">
			<acc value="0.0563161363499091" flag="0"/>
			<vel value="0.0177082677734923" flag="0"/>
			<psa03 value="0.109592072436949" flag="0"/>
			<psa10 value="0.0211857046989623" flag="0"/>
			<psa30 value="0.00171794713890004" flag="0"/>
		</comp>
		<comp name="--.HGN" depth="0.0">
			<acc value="0.0672039089067847" flag="0"/>
			<vel value="0.0292931179962422" flag="0"/>
			<psa03 value="0.0583962642992491" flag="0"/>
			<psa10 value="0.0501392914819898" flag="0"/>
			<psa30 value="0.00334785594569264" flag="0"/>
		</comp>
		<comp name="--.HGZ" depth="0.0">
			<acc value="0.0368480674522143" flag="0"/>
			<vel value="0.0133954511574762" flag="0"/>
			<psa03 value="0.0570810938423276" flag="0"/>
			<psa10 value="0.0217054741311362" flag="0"/>
			<psa30 value="0.00095817524524085" flag="0"/>
		</comp>
	</station>
	<station code="NCO" name="NCO" netid="IT" source="Italian Strong Motion Network (RAN)" insttype="" lat="38.5531" lon="15.938" esm:processing="automatic (Paolucci et al 2011)" esm:quality="best">
		<comp name="--.HNE" depth="0.0">
			<acc value="0.0742778214703805" flag="0"/>
			<vel value="0.0239110482484065" flag="0"/>
			<psa03 value="0.0400670396614054" flag="0"/>
			<psa10 value="0.00940996961430521" flag="0"/>
			<psa30 value="0.00119709086389472" flag="0"/>
		</comp>
		<comp name="--.HNN" depth="0.0">
			<acc value="0.0886218917139755" flag="0"/>
			<vel value="0.0159410909010686" flag="0"/>
			<psa03 value="0.0318824844539573" flag="0"/>
			<psa10 value="0.00670924882980769" flag="0"/>
			<psa30 value="0.000704915551362398" flag="0"/>
		</comp>
		<comp name="--.HNZ" depth="0.0">
			<acc value="0.070346010486075" flag="0"/>
			<vel value="0.0111921943427742" flag="0"/>
			<psa03 value="0.0259183289412585" flag="0"/>
			<psa10 value="0.00473309151283392" flag="0"/>
			<psa30 value="0.000397554070381068" flag="0"/>
		</comp>
	</station>
	<station code="NVR1" name="NVR1" netid="IT" source="Italian Strong Motion Network (RAN)" insttype="" lat="38.0124" lon="15.1288" esm:processing="automatic (Paolucci et al 2011)" esm:quality="best">
		<comp name="--.HNE" depth="0.0">
			<acc value="0.0363774202074247" flag="0"/>
			<vel value="0.0285060947235625" flag="0"/>
			<psa03 value="0.102220011157403" flag="0"/>
			<psa10 value="0.030554736601345" flag="0"/>
			<psa30 value="0.00186709931116612" flag="0"/>
		</comp>
		<comp name="--.HNN" depth="0.0">
			<acc value="0.0391084384386501" flag="0"/>
			<vel value="0.0300153251927708" flag="0"/>
			<psa03 value="0.0849569821497868" flag="0"/>
			<psa10 value="0.0225210800360247" flag="0"/>
			<psa30 value="0.00223094341405228" flag="0"/>
		</comp>
		<comp name="--.HNZ" depth="0.0">
			<acc value="0.0372937871567613" flag="0"/>
			<vel value="0.0123604121269975" flag="0"/>
			<psa03 value="0.0228824194938237" flag="0"/>
			<psa10 value="0.0101600052379843" flag="0"/>
			<psa30 value="0.000802872300932977" flag="0"/>
		</comp>
	</station>
	<station code="SAP" name="SAP" netid="IT" source="Italian Strong Motion Network (RAN)" insttype="" lat="38.6251" lon="16.5251" esm:processing="automatic (Paolucci et al 2011)" esm:quality="best">
		<comp name="--.HGE" depth="0.0">
			<acc value="0.0368865702735902" flag="0"/>
			<vel value="0.0180651919667084" flag="0"/>
			<psa03 value="0.0787704473222164" flag="0"/>
			<psa10 value="0.00930739938203071" flag="0"/>
			<psa30 value="0.00140766637598894" flag="0"/>
		</comp>
		<comp name="--.HGN" depth="0.0">
			<acc value="0.0264747244658624" flag="0"/>
			<vel value="0.0161777447291355" flag="0"/>
			<psa03 value="0.0494120285127206" flag="0"/>
			<psa10 value="0.0119658192392994" flag="0"/>
			<psa30 value="0.000645103412018376" flag="0"/>
		</comp>
		<comp name="--.HGZ" depth="0.0">
			<acc value="0.0157974035538303" flag="0"/>
			<vel value="0.00770020330898758" flag="0"/>
			<psa03 value="0.0332422307804781" flag="0"/>
			<psa10 value="0.00724953352726731" flag="0"/>
			<psa30 value="0.000635360787450646" flag="0"/>
		</comp>
	</station>
	<station code="SCZA" name="SCZA" netid="IT" source="Italian Strong Motion Network (RAN)" insttype="" lat="38.0422" lon="15.4561" esm:processing="automatic (Paolucci et al 2011)" esm:quality="best">
		<comp name="--.HNE" depth="0.0">
			<acc value="0.0398049120224437" flag="0"/>
			<vel value="0.0164157553464221" flag="0"/>
			<psa03 value="0.0834498250163568" flag="0"/>
			<psa10 value="0.0154347465387084" flag="0"/>
			<psa30 value="0.0010299928153024" flag="0"/>
		</comp>
		<comp name="--.HNN" depth="0.0">
			<acc value="0.0306044928360735" flag="0"/>
			<vel value="0.00841561265565533" flag="0"/>
			<psa03 value="0.0428100807494153" flag="0"/>
			<psa10 value="0.0122285963344923" flag="0"/>
			<psa30 value="0.000739564565439532" flag="0"/>
		</comp>
		<comp name="--.HNZ" depth="0.0">
			<acc value="0.0380222194941201" flag="0"/>
			<vel value="0.00894719982393979" flag="0"/>
			<psa03 value="0.0256640985580766" flag="0"/>
			<psa10 value="0.007436503569365" flag="0"/>
			<psa30 value="0.000395987404097116" flag="0"/>
		</comp>
	</station>
	<station code="SPR" name="SPR" netid="IT" source="Italian Strong Motion Network (RAN)" insttype="" lat="38.2672" lon="15.6019" esm:processing="automatic (Paolucci et al 2011)" esm:quality="best">
		<comp name="--.HGE" depth="0.0">
			<acc value="0.0596677448371152" flag="0"/>
			<vel value="0.0278207123005685" flag="0"/>
			<psa03 value="0.239540430877942" flag="0"/>
			<psa10 value="0.020637157735418" flag="0"/>
			<psa30 value="0.00272760256528357" flag="0"/>
		</comp>
		<comp name="--.HGN" depth="0.0">
			<acc value="0.0536711298478747" flag="0"/>
			<vel value="0.0282540457541932" flag="0"/>
			<psa03 value="0.106426966930909" flag="0"/>
			<psa10 value="0.019102586077577" flag="0"/>
			<psa30 value="0.00241333320481413" flag="0"/>
		</comp>
		<comp name="--.HGZ" depth="0.0">
			<acc value="0.0805771493719378" flag="0"/>
			<vel value="0.0204123170247082" flag="0"/>
			<psa03 value="0.0950258054099126" flag="0"/>
			<psa10 value="0.0124879522655499" flag="0"/>
			<psa30 value="0.000791791514801944" flag="0"/>
		</comp>
	</station>
	<station code="SRN" name="SRN" netid="IT" source="Italian Strong Motion Network (RAN)" insttype="" lat="38.572" lon="16.3235" esm:processing="automatic (Paolucci et al 2011)" esm:quality="best">
		<comp name="--.HGE" depth="0.0">
			<acc value="0.0810514644450288" flag="0"/>
			<vel value="0.027463358737671" flag="0"/>
			<psa03 value="0.0801883224994884" flag="0"/>
			<psa10 value="0.00837721401181505" flag="0"/>
			<psa30 value="0.00151771272851972" flag="0"/>
		</comp>
		<comp name="--.HGN" depth="0.0">
			<acc value="0.0584775343788584" flag="0"/>
			<vel value="0.0228106500332376" flag="0"/>
			<psa03 value="0.0871871559295213" flag="0"/>
			<psa10 value="0.013689409043665" flag="0"/>
			<psa30 value="0.00134907843232521" flag="0"/>
		</comp>
		<comp name="--.HGZ" depth="0.0">
			<acc value="0.0361216438610398" flag="0"/>
			<vel value="0.0106753583528256" flag="0"/>
			<psa03 value="0.0259126801295524" flag="0"/>
			<psa10 value="0.00473321245834596" flag="0"/>
			<psa30 value="0.00035074771448137" flag="0"/>
		</comp>
	</station>
	<station code="TRS" name="TRS" netid="IT" source="Italian Strong Motion Network (RAN)" insttype="" lat="39.6311" lon="16.2241" esm:processing="automatic (Paolucci et al 2011)" esm:quality="best">
		<comp name="--.HGE" depth="0.0">
			<acc value="0.0374846745781177" flag="0"/>
			<vel value="0.0183619708286968" flag="0"/>
			<psa03 value="0.109172805079211" flag="0"/>
			<psa10 value="0.0265478605404707" flag="0"/>
			<psa30 value="0.00261060460640966" flag="0"/>
		</comp>
		<comp name="--.HGN" depth="0.0">
			<acc value="0.0358196803282528" flag="0"/>
			<vel value="0.0215734792336404" flag="0"/>
			<psa03 value="0.0522436848460557" flag="0"/>
			<psa10 value="0.0464622591466435" flag="0"/>
			<psa30 value="0.00320909696192429" flag="0"/>
		</comp>
		<comp name="--.HGZ" depth="0.0">
			<acc value="0.0151563978791363" flag="0"/>
			<vel value="0.0120604468420909" flag="0"/>
			<psa03 value="0.0375000466940528" flag="0"/>
			<psa10 value="0.0305231707602629" flag="0"/>
			<psa30 value="0.00213642027735837" flag="0"/>
		</comp>
	</station>
	<station code="VBV" name="VBV" netid="IT" source="Italian Strong Motion Network (RAN)" insttype="" lat="38.6779" lon="16.1065" esm:processing="automatic (Paolucci et al 2011)" esm:quality="best">
		<comp name="--.HNE" depth="0.0">
			<acc value="0.142247196061638" flag="0"/>
			<vel value="0.0277424553687968" flag="0"/>
			<psa03 value="0.0440620647288762" flag="0"/>
			<psa10 value="0.0091648711902375" flag="0"/>
			<psa30 value="0.00104999716132549" flag="0"/>
		</comp>
		<comp name="--.HNN" depth="0.0">
			<acc value="0.118548807624097" flag="0"/>
			<vel value="0.0246807805644148" flag="0"/>
			<psa03 value="0.0704846484287043" flag="0"/>
			<psa10 value="0.00958225508987243" flag="0"/>
			<psa30 value="0.000969526518040297" flag="0"/>
		</comp>
		<comp name="--.HNZ" depth="0.0">
			<acc value="0.0892504349781073" flag="0"/>
			<vel value="0.0146051285169821" flag="0"/>
			<psa03 value="0.0300079644428729" flag="0"/>
			<psa10 value="0.00536262790403023" flag="0"/>
			<psa30 value="0.000446300190197273" flag="0"/>
		</comp>
	</station>
	<station code="BASIC" name="BASIC" netid="IV" source="Italian National Seismic Network (INSN)" insttype="" lat="38.06703" lon="15.068847" esm:processing="automatic (Paolucci et al 2011)" esm:quality="best">
		<comp name="--.HNE" depth="0.0">
			<acc value="0.0335727647219377" flag="0"/>
			<vel value="0.0252893874845434" flag="0"/>
			<psa03 value="0.11183961715909" flag="0"/>
			<psa10 value="0.0326621587077168" flag="0"/>
			<psa30 value="0.00230972238277233" flag="0"/>
		</comp>
		<comp name="--.HNN" depth="0.0">
			<acc value="0.0232006045631155" flag="0"/>
			<vel value="0.0136229958361695" flag="0"/>
			<psa03 value="0.0745876233556569" flag="0"/>
			<psa10 value="0.0220763812019094" flag="0"/>
			<psa30 value="0.00149152203518149" flag="0"/>
		</comp>
		<comp name="--.HNZ" depth="0.0">
			<acc value="0.0217399890423878" flag="0"/>
			<vel value="0.00930913998527864" flag="0"/>
			<psa03 value="0.0350065377613235" flag="0"/>
			<psa10 value="0.0138942176112275" flag="0"/>
			<psa30 value="0.000817094284736273" flag="0"/>
		</comp>
	</station>
	<station code="BRICA" name="BRICA" netid="IV" source="Italian National Seismic Network (INSN)" insttype="" lat="38.72384" lon="16.02905" esm:processing="automatic (Paolucci et al 2011)" esm:quality="best">
		<comp name="--.HNE" depth="0.0">
			<acc value="0.047022728700393" flag="0"/>
			<vel value="0.01245684895683" flag="0"/>
			<psa03 value="0.0375309315525231" flag="0"/>
			<psa10 value="0.0114123866396058" flag="0"/>
			<psa30 value="0.00117951407451868" flag="0"/>
		</comp>
		<comp name="--.HNN" depth="0.0">
			<acc value="0.0610282887808483" flag="0"/>
			<vel value="0.0130755631754038" flag="0"/>
			<psa03 value="0.0366427451103636" flag="0"/>
			<psa10 value="0.00945576202282754" flag="0"/>
			<psa30 value="0.000575916224540092" flag="0"/>
		</comp>
		<comp name="--.HNZ" depth="0.0">
			<acc value="0.0414566993541454" flag="0"/>
			<vel value="0.00927752180199098" flag="0"/>
			<psa03 value="0.022430548413749" flag="0"/>
			<psa10 value="0.00295591581491585" flag="0"/>
			<psa30 value="0.000299051555489549" flag="0"/>
		</comp>
	</station>
	<station code="CORL" name="CORL" netid="IV" source="Italian National Seismic Network (INSN)" insttype="" lat="37.8943" lon="13.3038" esm:processing="automatic (Paolucci et al 2011)" esm:quality="best">
		<comp name="--.HNE" depth="0.0">
			<acc value="0.00533886915290611" flag="0"/>
			<vel value="0.00330047773871654" flag="0"/>
			<psa03 value="0.0172315568706579" flag="0"/>
			<psa10 value="0.00407927648204688" flag="0"/>
			<psa30 value="0.000814248523301877" flag="0"/>
		</comp>
		<comp name="--.HNN" depth="0.0">
			<acc value="0.00429539952393718" flag="0"/>
			<vel value="0.0025359404787996" flag="0"/>
			<psa03 value="0.0144720316177363" flag="0"/>
			<psa10 value="0.00515894534856055" flag="0"/>
			<psa30 value="0.000630422647823131" flag="0"/>
		</comp>
		<comp name="--.HNZ" depth="0.0">
			<acc value="0.0025994152644813" flag="0"/>
			<vel value="0.00157437440224116" flag="0"/>
			<psa03 value="0.00677964833717955" flag="0"/>
			<psa10 value="0.00179472146961433" flag="0"/>
			<psa30 value="0.000516971382233575" flag="0"/>
		</comp>
	</station>
	<station code="CSLB" name="CSLB" netid="IV" source="Italian National Seismic Network (INSN)" insttype="" lat="37.93745" lon="14.05785" esm:processing="automatic (Paolucci et al 2011)" esm:quality="best">
		<comp name="--.HNE" depth="0.0">
			<acc value="0.00114504490910934" flag="0"/>
			<vel value="0.000920950250535184" flag="0"/>
			<psa03 value="0.00337549672207092" flag="0"/>
			<psa10 value="0.00163294020552456" flag="0"/>
			<psa30 value="0.000172704956480775" flag="0"/>
		</comp>
		<comp name="--.HNN" depth="0.0">
			<acc value="0.00118252629781085" flag="0"/>
			<vel value="0.00184545494735468" flag="0"/>
			<psa03 value="0.00429229345795944" flag="0"/>
			<psa10 value="0.00185765345104924" flag="0"/>
			<psa30 value="0.000284172861515761" flag="0"/>
		</comp>
		<comp name="--.HNZ" depth="0.0">
			<acc value="0.00147451740015953" flag="0"/>
