<?xml version="1.0" encoding="UTF-8" standalone="yes"?>
<!DOCTYPE earthquake SYSTEM "stationlist.dtd">
<stationlist created="" xmlns="ch.ethz.sed.shakemap.usgs.xml">
  <station code="AIO" name="AIO" netid="IV" insttype="" commtype="DIG" lat="37.9712" lon="15.233">
    <comp name="--.HHZ">
      <acc value="0.0083744533" flag="0"/>
      <vel value="0.0036683075" flag="0"/>
      <psa03 value="0.0128361849" flag="0"/>
      <psa10 value="0.0027865877" flag="0"/>
      <psa30 value="0.0002919964" flag="0"/>
    </comp>
    <comp name="--.HHE">
      <acc value="0.0046265483" flag="0"/>
      <vel value="0.0017591915" flag="0"/>
      <psa03 value="0.0067263047" flag="0"/>
      <psa10 value="0.0010602051" flag="0"/>
      <psa30 value="0.0000614813" flag="0"/>
    </comp>
    <comp name="--.HHN">
      <acc value="0.0091178311" flag="0"/>
      <vel value="0.0031069109" flag="0"/>
      <psa03 value="0.0128455891" flag="0"/>
      <psa10 value="0.0012421568" flag="0"/>
      <psa30 value="0.0001312652" flag="0"/>
    </comp>
  </station>
  <station code="BASIC" name="BASIC" netid="IV" insttype="" commtype="DIG" lat="38.067" lon="15.0688">
    <comp name="--.HHE">
      <acc value="0.0163700808" flag="0"/>
      <vel value="0.0099129014" flag="0"/>
      <psa03 value="0.0544933271" flag="0"/>
      <psa10 value="0.0061752639" flag="0"/>
      <psa30 value="0.0003460966" flag="0"/>
    </comp>
    <comp name="--.HHN">
      <acc value="0.0229984581" flag="0"/>
      <vel value="0.0139405106" flag="0"/>
      <psa03 value="0.0747760371" flag="0"/>
      <psa10 value="0.0226860517" flag="0"/>
      <psa30 value="0.0013521310" flag="0"/>
    </comp>
    <comp name="--.HHZ">
      <acc value="0.0195803816" flag="0"/>
      <vel value="0.0094040248" flag="0"/>
      <psa03 value="0.0342666418" flag="0"/>
      <psa10 value="0.0139467176" flag="0"/>
      <psa30 value="0.0007788873" flag="0"/>
    </comp>
  </station>
  <station code="CAR1" name="CAR1" netid="IV" insttype="" commtype="DIG" lat="39.2534" lon="16.2114">
    <comp name="--.HHE">
      <acc value="0.0490214936" flag="0"/>
      <vel value="0.0279653999" flag="0"/>
      <psa03 value="0.0897540814" flag="0"/>
      <psa10 value="0.0374675369" flag="0"/>
      <psa30 value="0.0025476026" flag="0"/>
    </comp>
    <comp name="--.HHN">
      <acc value="0.0363207736" flag="0"/>
      <vel value="0.0260635834" flag="0"/>
      <psa03 value="0.0913236255" flag="0"/>
      <psa10 value="0.0456447541" flag="0"/>
      <psa30 value="0.0016770342" flag="0"/>
    </comp>
    <comp name="--.HHZ">
      <acc value="0.0303960719" flag="0"/>
      <vel value="0.0099031965" flag="0"/>
      <psa03 value="0.0545154217" flag="0"/>
      <psa10 value="0.0063295431" flag="0"/>
      <psa30 value="0.0008708468" flag="0"/>
    </comp>
  </station>
  <station code="CELI" name="CELI" netid="IV" insttype="SS08" commtype="DIG" lat="39.4027" lon="16.5088">
    <comp name="--.HHE">
      <acc value="0.0081692188" flag="0"/>
      <vel value="0.0083030490" flag="0"/>
      <psa03 value="0.0173354932" flag="0"/>
      <psa10 value="0.0094242692" flag="0"/>
      <psa30 value="0.0014177041" flag="0"/>
    </comp>
    <comp name="--.HHZ">
      <acc value="0.0034896227" flag="0"/>
      <vel value="0.0028438872" flag="0"/>
      <psa03 value="0.0107240409" flag="0"/>
      <psa10 value="0.0065614029" flag="0"/>
      <psa30 value="0.0005911395" flag="0"/>
    </comp>
    <comp name="--.HHN">
      <acc value="0.0069601143" flag="0"/>
      <vel value="0.0062683599" flag="0"/>
      <psa03 value="0.0266631297" flag="0"/>
      <psa10 value="0.0121156965" flag="0"/>
      <psa30 value="0.0009909662" flag="0"/>
    </comp>
  </station>
  <station code="CET2" name="CET2" netid="IV" insttype="" commtype="DIG" lat="39.5288" lon="15.9546">
    <comp name="--.HHE">
      <acc value="0.0651921418" flag="0"/>
      <vel value="0.0229290620" flag="0"/>
      <psa03 value="0.1073632312" flag="0"/>
      <psa10 value="0.0263861016" flag="0"/>
      <psa30 value="0.0012840723" flag="0"/>
    </comp>
    <comp name="--.HHN">
      <acc value="0.0799543215" flag="0"/>
      <vel value="0.0295204957" flag="0"/>
      <psa03 value="0.1405582363" flag="0"/>
      <psa10 value="0.0293266033" flag="0"/>
      <psa30 value="0.0020482859" flag="0"/>
    </comp>
    <comp name="--.HHZ">
      <acc value="0.0449692946" flag="0"/>
      <vel value="0.0159768961" flag="0"/>
      <psa03 value="0.0640671753" flag="0"/>
      <psa10 value="0.0082090446" flag="0"/>
      <psa30 value="0.0005595608" flag="0"/>
    </comp>
  </station>
  <station code="CSLB" name="CSLB" netid="IV" insttype="" commtype="DIG" lat="37.9374" lon="14.0579">
    <comp name="--.HHE">
      <acc value="0.0010975852" flag="0"/>
      <vel value="0.0008759902" flag="0"/>
      <psa03 value="0.0032679265" flag="0"/>
      <psa10 value="0.0015991170" flag="0"/>
      <psa30 value="0.0001453885" flag="0"/>
    </comp>
    <comp name="--.HHN">
      <acc value="0.0011590566" flag="0"/>
      <vel value="0.0016489188" flag="0"/>
      <psa03 value="0.0041609963" flag="0"/>
      <psa10 value="0.0018746032" flag="0"/>
      <psa30 value="0.0002382521" flag="0"/>
    </comp>
    <comp name="--.HHZ">
      <acc value="0.0014777401" flag="0"/>
      <vel value="0.0011590693" flag="0"/>
      <psa03 value="0.0037026713" flag="0"/>
      <psa10 value="0.0015790808" flag="0"/>
      <psa30 value="0.0002122564" flag="0"/>
    </comp>
  </station>
  <station code="EBDA" name="EBDA" netid="IV" insttype="" commtype="DIG" lat="37.6335" lon="15.1223">
    <comp name="--.HHE">
      <acc value="0.0430387428" flag="0"/>
      <vel value="0.0104021879" flag="0"/>
      <psa03 value="0.0334292290" flag="0"/>
      <psa10 value="0.0049462564" flag="0"/>
      <psa30 value="0.0003063456" flag="0"/>
    </comp>
    <comp name="--.HHN">
      <acc value="0.0385224298" flag="0"/>
      <vel value="0.0131162847" flag="0"/>
      <psa03 value="0.0452524768" flag="0"/>
      <psa10 value="0.0037611938" flag="0"/>
      <psa30 value="0.0004873587" flag="0"/>
    </comp>
    <comp name="--.HHZ">
      <acc value="0.0409786196" flag="0"/>
      <vel value="0.0126650463" flag="0"/>
      <psa03 value="0.0446500755" flag="0"/>
      <psa10 value="0.0066827114" flag="0"/>
      <psa30 value="0.0006817802" flag="0"/>
    </comp>
  </station>
  <station code="ECBD" name="ECBD" netid="IV" insttype="" commtype="DIG" lat="37.7802" lon="15.0865">
    <comp name="--.HHE">
      <acc value="0.0260592253" flag="0"/>
      <vel value="0.0108711927" flag="0"/>
      <psa03 value="0.0516661049" flag="0"/>
      <psa10 value="0.0112280401" flag="0"/>
      <psa30 value="0.0004885018" flag="0"/>
    </comp>
    <comp name="--.HHN">
      <acc value="0.0248828219" flag="0"/>
      <vel value="0.0094535122" flag="0"/>
      <psa03 value="0.0369027561" flag="0"/>
      <psa10 value="0.0084697954" flag="0"/>
      <psa30 value="0.0003997062" flag="0"/>
    </comp>
    <comp name="--.HHZ">
      <acc value="0.0228624832" flag="0"/>
      <vel value="0.0140137892" flag="0"/>
      <psa03 value="0.0630646218" flag="0"/>
      <psa10 value="0.0100066047" flag="0"/>
      <psa30 value="0.0007873785" flag="0"/>
    </comp>
  </station>
  <station code="ECHR" name="ECHR" netid="IV" insttype="" commtype="DIG" lat="37.6863" lon="14.9129">
    <comp name="--.HHE">
      <acc value="0.0125295727" flag="0"/>
      <vel value="0.0104101511" flag="0"/>
      <psa03 value="0.0387408679" flag="0"/>
      <psa10 value="0.0111838672" flag="0"/>
      <psa30 value="0.0016341007" flag="0"/>
    </comp>
    <comp name="--.HHN">
      <acc value="0.0141221045" flag="0"/>
      <vel value="0.0096794083" flag="0"/>
      <psa03 value="0.0428683414" flag="0"/>
      <psa10 value="0.0117089741" flag="0"/>
      <psa30 value="0.0019921525" flag="0"/>
    </comp>
    <comp name="--.HHZ">
      <acc value="0.0258413116" flag="0"/>
      <vel value="0.0163466104" flag="0"/>
      <psa03 value="0.0393982693" flag="0"/>
      <psa10 value="0.0198035220" flag="0"/>
      <psa30 value="0.0013740812" flag="0"/>
    </comp>
  </station>
</stationlist>
