<stationlist xmlns:esm="https://esm-db.eu/esmws/shakemap/1/" created="1781376845">
	<station code="BASIC" name="BASIC" netid="IV" source="Italian National Seismic Network (INSN)" insttype="" lat="38.06703" lon="15.068847" esm:processing="automatic (Paolucci et al 2011)" esm:quality="best">
		<comp name="--.HNE" depth="0.0">
			<acc value="0.0335727647219377" flag="0"/>
			<vel value="0.0252893874845434" flag="0"/>
			<psa03 value="0.11183961715909" flag="0"/>
			<psa10 value="0.0326621587077168" flag="0"/>
			<psa30 value="0.00230972238277233" flag="0"/>
		</comp>
		<comp name="--.HNN" depth="0.0">
			<acc value="0.0232006045631155" flag="0"/>
			<vel value="0.0136229958361695" flag="0"/>
			<psa03 value="0.0745876233556569" flag="0"/>
			<psa10 value="0.0220763812019094" flag="0"/>
			<psa30 value="0.00149152203518149" flag="0"/>
		</comp>
		<comp name="--.HNZ" depth="0.0">
			<acc value="0.0217399890423878" flag="0"/>
			<vel value="0.00930913998527864" flag="0"/>
			<psa03 value="0.0350065377613235" flag="0"/>
			<psa10 value="0.0138942176112275" flag="0"/>
			<psa30 value="0.000817094284736273" flag="0"/>
		</comp>
	</station>
	<station code="BRICA" name="BRICA" netid="IV" source="Italian National Seismic Network (INSN)" insttype="" lat="38.72384" lon="16.02905" esm:processing="automatic (Paolucci et al 2011)" esm:quality="best">
		<comp name="--.HNE" depth="0.0">
			<acc value="0.047022728700393" flag="0"/>
			<vel value="0.01245684895683" flag="0"/>
			<psa03 value="0.0375309315525231" flag="0"/>
			<psa10 value="0.0114123866396058" flag="0"/>
			<psa30 value="0.00117951407451868" flag="0"/>
		</comp>
		<comp name="--.HNN" depth="0.0">
			<acc value="0.0610282887808483" flag="0"/>
			<vel value="0.0130755631754038" flag="0"/>
			<psa03 value="0.0366427451103636" flag="0"/>
			<psa10 value="0.00945576202282754" flag="0"/>
			<psa30 value="0.000575916224540092" flag="0"/>
		</comp>
		<comp name="--.HNZ" depth="0.0">
			<acc value="0.0414566993541454" flag="0"/>
			<vel value="0.00927752180199098" flag="0"/>
			<psa03 value="0.022430548413749" flag="0"/>
			<psa10 value="0.00295591581491585" flag="0"/>
			<psa30 value="0.000299051555489549" flag="0"/>
		</comp>
	</station>
	<station code="CORL" name="CORL" netid="IV" source="Italian National Seismic Network (INSN)" insttype="" lat="37.8943" lon="13.3038" esm:processing="automatic (Paolucci et al 2011)" esm:quality="best">
		<comp name="--.HNE" depth="0.0">
			<acc value="0.00533886915290611" flag="0"/>
			<vel value="0.00330047773871654" flag="0"/>
			<psa03 value="0.0172315568706579" flag="0"/>
			<psa10 value="0.00407927648204688" flag="0"/>
			<psa30 value="0.000814248523301877" flag="0"/>
		</comp>
		<comp name="--.HNN" depth="0.0">
			<acc value="0.00429539952393718" flag="0"/>
			<vel value="0.0025359404787996" flag="0"/>
			<psa03 value="0.0144720316177363" flag="0"/>
			<psa10 value="0.00515894534856055" flag="0"/>
			<psa30 value="0.000630422647823131" flag="0"/>
		</comp>
		<comp name="--.HNZ" depth="0.0">
			<acc value="0.0025994152644813" flag="0"/>
			<vel value="0.00157437440224116" flag="0"/>
			<psa03 value="0.00677964833717955" flag="0"/>
			<psa10 value="0.00179472146961433" flag="0"/>
			<psa30 value="0.000516971382233575" flag="0"/>
		</comp>
	</station>
	<station code="CSLB" name="CSLB" netid="IV" source="Italian National Seismic Network (INSN)" insttype="" lat="37.93745" lon="14.05785" esm:processing="automatic (Paolucci et al 2011)" esm:quality="best">
		<comp name="--.HNE" depth="0.0">
			<acc value="0.00114504490910934" flag="0"/>
			<vel value="0.000920950250535184" flag="0"/>
			<psa03 value="0.00337549672207092" flag="0"/>
			<psa10 value="0.00163294020552456" flag="0"/>
			<psa30 value="0.000172704956480775" flag="0"/>
		</comp>
		<comp name="--.HNN" depth="0.0">
			<acc value="0.00118252629781085" flag="0"/>
			<vel value="0.00184545494735468" flag="0"/>
			<psa03 value="0.00429229345795944" flag="0"/>
			<psa10 value="0.00185765345104924" flag="0"/>
			<psa30 value="0.000284172861515761" flag="0"/>
		</comp>
		<comp name="--.HNZ" depth="0.0">
			<acc value="0.00147451740015953" flag="0"/>
			<vel value="0.001112867714423" flag="0"/>
			<psa03 value="0.00357976839208738" flag="0"/>
			<psa10 value="0.00152552230836605" flag="0"/>
			<psa30 value="0.000225452383030579" flag="0"/>
		</comp>
	</station>
	<station code="ECHR" name="ECHR" netid="IV" source="Italian National Seismic Network (INSN)" insttype="" lat="37.6863" lon="14.9129" esm:processing="automatic (Paolucci et al 2011)" esm:quality="best">
		<comp name="--.HNE" depth="0.0">
			<acc value="0.00293032944334397" flag="0"/>
			<vel value="0.0024535304615353" flag="0"/>
			<psa03 value="0.00910333156666446" flag="0"/>
			<psa10 value="0.00266500576230258" flag="0"/>
			<psa30 value="0.000445663116744283" flag="0"/>
		</comp>
		<comp name="--.HNN" depth="0.0">
			<acc value="0.00356017015284133" flag="0"/>
			<vel value="0.00243388504417264" flag="0"/>
			<psa03 value="0.0107580746488143" flag="0"/>
			<psa10 value="0.00298393860878842" flag="0"/>
			<psa30 value="0.000532483764019405" flag="0"/>
		</comp>
		<comp name="--.HNZ" depth="0.0">
			<acc value="0.0064096187366317" flag="0"/>
			<vel value="0.00401222018520683" flag="0"/>
			<psa03 value="0.00974714570056615" flag="0"/>
			<psa10 value="0.00495910539139415" flag="0"/>
			<psa30 value="0.000348601556683949" flag="0"/>
		</comp>
	</station>
	<station code="EFIU" name="EFIU" netid="IV" source="Italian National Seismic Network (INSN)" insttype="" lat="37.7896" lon="15.2103" esm:processing="automatic (Paolucci et al 2011)" esm:quality="best">
		<comp name="--.HNE" depth="0.0">
			<acc value="0.00839808188019928" flag="0"/>
			<vel value="0.00760026393371011" flag="0"/>
			<psa03 value="0.0164960237701998" flag="0"/>
			<psa10 value="0.00857761228721729" flag="0"/>
			<psa30 value="0.00121893960293312" flag="0"/>
		</comp>
		<comp name="--.HNN" depth="0.0">
			<acc value="0.0108163413838103" flag="0"/>
			<vel value="0.00804759229922563" flag="0"/>
			<psa03 value="0.0188013913332367" flag="0"/>
			<psa10 value="0.0106370743414711" flag="0"/>
			<psa30 value="0.00166864960234685" flag="0"/>
		</comp>
		<comp name="--.HNZ" depth="0.0">
			<acc value="0.0139425830696678" flag="0"/>
			<vel value="0.00635818619845762" flag="0"/>
			<psa03 value="0.0250412734448029" flag="0"/>
			<psa10 value="0.0132197110534783" flag="0"/>
			<psa30 value="0.000912854430459294" flag="0"/>
		</comp>
	</station>
	<station code="EMCN" name="EMCN" netid="IV" source="Italian National Seismic Network (INSN)" insttype="" lat="37.7912" lon="15.0336" esm:processing="automatic (Paolucci et al 2011)" esm:quality="best">
		<comp name="--.HNE" depth="0.0">
			<acc value="0.0067750967455651" flag="0"/>
			<vel value="0.00316035610727644" flag="0"/>
			<psa03 value="0.0143151410161706" flag="0"/>
			<psa10 value="0.00423388609917523" flag="0"/>
			<psa30 value="0.000267894777964281" flag="0"/>
		</comp>
		<comp name="--.HNN" depth="0.0">
			<acc value="0.00723549949202206" flag="0"/>
			<vel value="0.00275977451152295" flag="0"/>
			<psa03 value="0.0113161285442294" flag="0"/>
			<psa10 value="0.00350522220376826" flag="0"/>
			<psa30 value="0.000492042178712855" flag="0"/>
		</comp>
		<comp name="--.HNZ" depth="0.0">
			<acc value="0.00752132902246638" flag="0"/>
			<vel value="0.00274297422719368" flag="0"/>
			<psa03 value="0.0126044521705969" flag="0"/>
			<psa10 value="0.00278335703999389" flag="0"/>
			<psa30 value="0.000473695442498289" flag="0"/>
		</comp>
	</station>
	<station code="EPOZ" name="EPOZ" netid="IV" source="Italian National Seismic Network (INSN)" insttype="" lat="37.6719" lon="15.1885" esm:processing="automatic (Paolucci et al 2011)" esm:quality="best">
		<comp name="--.HNE" depth="0.0">
			<acc value="0.0198591538911413" flag="0"/>
			<vel value="0.00713402790539674" flag="0"/>
			<psa03 value="0.0251197994801006" flag="0"/>
			<psa10 value="0.00904946292000599" flag="0"/>
			<psa30 value="0.000992062385930944" flag="0"/>
		</comp>
		<comp name="--.HNN" depth="0.0">
			<acc value="0.0243211558481599" flag="0"/>
			<vel value="0.0065545742879535" flag="0"/>
			<psa03 value="0.0295662008031998" flag="0"/>
			<psa10 value="0.011169500862115" flag="0"/>
			<psa30 value="0.000849043901241565" flag="0"/>
		</comp>
		<comp name="--.HNZ" depth="0.0">
			<acc value="0.026216866827165" flag="0"/>
			<vel value="0.00615811630545517" flag="0"/>
			<psa03 value="0.0185331053314391" flag="0"/>
			<psa10 value="0.00475862507930738" flag="0"/>
			<psa30 value="0.000645030178000315" flag="0"/>
		</comp>
	</station>
	<station code="EPZF" name="EPZF" netid="IV" source="Italian National Seismic Network (INSN)" insttype="" lat="37.824" lon="14.857" esm:processing="automatic (Paolucci et al 2011)" esm:quality="best">
		<comp name="--.HNE" depth="0.0">
			<acc value="0.00985443667991979" flag="0"/>
			<vel value="0.00877290733615124" flag="0"/>
			<psa03 value="0.0438907304621552" flag="0"/>
			<psa10 value="0.00747761051124816" flag="0"/>
			<psa30 value="0.00156184377698509" flag="0"/>
		</comp>
		<comp name="--.HNN" depth="0.0">
			<acc value="0.0118973765414958" flag="0"/>
			<vel value="0.0106735004328357" flag="0"/>
			<psa03 value="0.0434693978634384" flag="0"/>
			<psa10 value="0.0129510338799342" flag="0"/>
			<psa30 value="0.00128880631459321" flag="0"/>
		</comp>
		<comp name="--.HNZ" depth="0.0">
			<acc value="0.00988014444426106" flag="0"/>
			<vel value="0.00726213207464083" flag="0"/>
			<psa03 value="0.0247107515493494" flag="0"/>
			<psa10 value="0.008082061021878" flag="0"/>
			<psa30 value="0.000610861247809716" flag="0"/>
		</comp>
	</station>
	<station code="GALF" name="GALF" netid="IV" source="Italian National Seismic Network (INSN)" insttype="" lat="37.7107" lon="14.5665" esm:processing="automatic (Paolucci et al 2011)" esm:quality="best">
		<comp name="--.HNE" depth="0.0">
			<acc value="0.013246308864032" flag="0"/>
			<vel value="0.0119588889789904" flag="0"/>
			<psa03 value="0.0255319309484544" flag="0"/>
			<psa10 value="0.0149495206448743" flag="0"/>
			<psa30 value="0.00146213977625103" flag="0"/>
		</comp>
		<comp name="--.HNN" depth="0.0">
			<acc value="0.0139301737813663" flag="0"/>
			<vel value="0.00979104257084291" flag="0"/>
			<psa03 value="0.0525464392770509" flag="0"/>
			<psa10 value="0.0198375335142377" flag="0"/>
			<psa30 value="0.00112807837548939" flag="0"/>
		</comp>
		<comp name="--.HNZ" depth="0.0">
			<acc value="0.0101581499298958" flag="0"/>
			<vel value="0.00631291887601233" flag="0"/>
			<psa03 value="0.0261314342042696" flag="0"/>
			<psa10 value="0.00752500661975774" flag="0"/>
			<psa30 value="0.000436622465762191" flag="0"/>
		</comp>
	</station>
	<station code="GMB1" name="GMB1" netid="IV" source="Italian National Seismic Network (INSN)" insttype="" lat="38.1723" lon="15.8179" esm:processing="automatic (Paolucci et al 2011)" esm:quality="best">
		<comp name="--.HNE" depth="0.0">
			<acc value="0.0688232521496112" flag="0"/>
			<vel value="0.0221519188214574" flag="0"/>
			<psa03 value="0.0595039001746899" flag="0"/>
			<psa10 value="0.0318005503803937" flag="0"/>
			<psa30 value="0.00128222431606811" flag="0"/>
		</comp>
		<comp name="--.HNN" depth="0.0">
			<acc value="0.0605867747529486" flag="0"/>
			<vel value="0.0246300890458814" flag="0"/>
			<psa03 value="0.162057787616425" flag="0"/>
			<psa10 value="0.0198296448666536" flag="0"/>
			<psa30 value="0.00154233373454053" flag="0"/>
		</comp>
		<comp name="--.HNZ" depth="0.0">
			<acc value="0.115875802965429" flag="0"/>
			<vel value="0.0234544989547923" flag="0"/>
			<psa03 value="0.0470177188597901" flag="0"/>
			<psa10 value="0.00881733754283896" flag="0"/>
			<psa30 value="0.000767765756546705" flag="0"/>
		</comp>
	</station>
	<station code="HMDC" name="HMDC" netid="IV" source="Italian National Seismic Network (INSN)" insttype="" lat="36.959" lon="14.7831" esm:processing="automatic (Paolucci et al 2011)" esm:quality="best">
		<comp name="--.HNE" depth="0.0">
			<acc value="0.00492884251599928" flag="0"/>
			<vel value="0.00389403733267986" flag="0"/>
			<psa03 value="0.0126254105902393" flag="0"/>
			<psa10 value="0.00730054018745822" flag="0"/>
			<psa30 value="0.000870580952965544" flag="0"/>
		</comp>
		<comp name="--.HNN" depth="0.0">
			<acc value="0.00543930777433814" flag="0"/>
			<vel value="0.00372638511397403" flag="0"/>
			<psa03 value="0.0131723634898513" flag="0"/>
			<psa10 value="0.00902875217302064" flag="0"/>
			<psa30 value="0.000408581858209557" flag="0"/>
		</comp>
		<comp name="--.HNZ" depth="0.0">
			<acc value="0.00792850468321973" flag="0"/>
			<vel value="0.00573812480743537" flag="0"/>
			<psa03 value="0.0191311358334416" flag="0"/>
			<psa10 value="0.00561551840678491" flag="0"/>
			<psa30 value="0.000428055700339359" flag="0"/>
		</comp>
	</station>
	<station code="ISPIC" name="ISPIC" netid="IV" source="Italian National Seismic Network (INSN)" insttype="" lat="36.7804" lon="14.9033" esm:processing="automatic (Paolucci et al 2011)" esm:quality="best">
		<comp name="--.HNE" depth="0.0">
			<acc value="0.00252391813144192" flag="0"/>
			<vel value="0.0019022036359878" flag="0"/>
			<psa03 value="0.00554180266410374" flag="0"/>
			<psa10 value="0.00323797246853489" flag="0"/>
			<psa30 value="0.00043736636920881" flag="0"/>
		</comp>
		<comp name="--.HNN" depth="0.0">
			<acc value="0.00301902393632012" flag="0"/>
			<vel value="0.00224894651662077" flag="0"/>
			<psa03 value="0.00615184177411753" flag="0"/>
			<psa10 value="0.00347134644404043" flag="0"/>
			<psa30 value="0.000305146672802824" flag="0"/>
		</comp>
		<comp name="--.HNZ" depth="0.0">
			<acc value="0.00393099420634717" flag="0"/>
			<vel value="0.00320204561442441" flag="0"/>
			<psa03 value="0.0105411260322415" flag="0"/>
			<psa10 value="0.00317480211193379" flag="0"/>
			<psa30 value="0.000284331231381987" flag="0"/>
		</comp>
	</station>
	<station code="IST3" name="IST3" netid="IV" source="Italian National Seismic Network (INSN)" insttype="" lat="38.7992" lon="15.2304" esm:processing="automatic (Paolucci et al 2011)" esm:quality="best">
		<comp name="--.HNE" depth="0.0">
			<acc value="0.0256898054726198" flag="0"/>
			<vel value="0.016665493876191" flag="0"/>
			<psa03 value="0.0204710501170202" flag="0"/>
			<psa10 value="0.01741633562176" flag="0"/>
			<psa30 value="0.00210720730047535" flag="0"/>
		</comp>
		<comp name="--.HNN" depth="0.0">
			<acc value="0.0315342794524257" flag="0"/>
			<vel value="0.0087472342606548" flag="0"/>
			<psa03 value="0.0230202020587424" flag="0"/>
			<psa10 value="0.00668023643912919" flag="0"/>
			<psa30 value="0.00165590563312143" flag="0"/>
		</comp>
		<comp name="--.HNZ" depth="0.0">
			<acc value="0.0172858188279841" flag="0"/>
			<vel value="0.0101969407768238" flag="0"/>
			<psa03 value="0.0214227485790393" flag="0"/>
			<psa10 value="0.00642333973348322" flag="0"/>
			<psa30 value="0.000601229255570834" flag="0"/>
		</comp>
	</station>
</stationlist>
