<?xml version="1.0" encoding="UTF-8" standalone="yes"?>
<!DOCTYPE earthquake SYSTEM "stationlist.dtd">
<stationlist created="" xmlns="ch.ethz.sed.shakemap.usgs.xml">
  <station code="AIO" name="AIO" netid="IV" insttype="" commtype="DIG" lat="37.9712" lon="15.233">
    <comp name="--.HHZ">
      <acc value="0.0083744533" flag="0"/>
      <vel value="0.0036683075" flag="0"/>
      <psa03 value="0.0128361849" flag="0"/>
      <psa10 value="0.0027865877" flag="0"/>
      <psa30 value="0.0002919964" flag="0"/>
    </comp>
    <comp name="--.HHE">
      <acc value="0.0046265483" flag="0"/>
      <vel value="0.0017591915" flag="0"/>
      <psa03 value="0.0067263047" flag="0"/>
      <psa10 value="0.0010602051" flag="0"/>
      <psa30 value="0.0000614813" flag="0"/>
    </comp>
    <comp name="--.HHN">
      <acc value="0.0091178311" flag="0"/>
      <vel value="0.0031069109" flag="0"/>
      <psa03 value="0.0128455891" flag="0"/>
      <psa10 value="0.0012421568" flag="0"/>
      <psa30 value="0.0001312652" flag="0"/>
    </comp>
  </station>
  <station code="BASIC" name="BASIC" netid="IV" insttype="" commtype="DIG" lat="38.067" lon="15.0688">
    <comp name="--.HHE">
      <acc value="0.0163700808" flag="0"/>
      <vel value="0.0099129014" flag="0"/>
      <psa03 value="0.0544933271" flag="0"/>
      <psa10 value="0.0061752639" flag="0"/>
      <psa30 value="0.0003460966" flag="0"/>
    </comp>
    <comp name="--.HHN">
      <acc value="0.0229984581" flag="0"/>
      <vel value="0.0139405106" flag="0"/>
      <psa03 value="0.0747760371" flag="0"/>
      <psa10 value="0.0226860517" flag="0"/>
      <psa30 value="0.0013521310" flag="0"/>
    </comp>
    <comp name="--.HHZ">
      <acc value="0.0195803816" flag="0"/>
      <vel value="0.0094040248" flag="0"/>
      <psa03 value="0.0342666418" flag="0"/>
      <psa10 value="0.0139467176" flag="0"/>
      <psa30 value="0.0007788873" flag="0"/>
    </comp>
  </station>
  <station code="CAR1" name="CAR1" netid="IV" insttype="" commtype="DIG" lat="39.2534" lon="16.2114">
    <comp name="--.HHE">
      <acc value="0.0490214936" flag="0"/>
      <vel value="0.0279653999" flag="0"/>
      <psa03 value="0.0897540814" flag="0"/>
      <psa10 value="0.0374675369" flag="0"/>
      <psa30 value="0.0025476026" flag="0"/>
    </comp>
    <comp name="--.HHN">
      <acc value="0.0363207736" flag="0"/>
      <vel value="0.0260635834" flag="0"/>
      <psa03 value="0.0913236255" flag="0"/>
      <psa10 value="0.0456447541" flag="0"/>
      <psa30 value="0.0016770342" flag="0"/>
    </comp>
    <comp name="--.HHZ">
      <acc value="0.0303960719" flag="0"/>
      <vel value="0.0099031965" flag="0"/>
      <psa03 value="0.0545154217" flag="0"/>
      <psa10 value="0.0063295431" flag="0"/>
      <psa30 value="0.0008708468" flag="0"/>
    </comp>
  </station>
  <station code="CELI" name="CELI" netid="IV" insttype="SS08" commtype="DIG" lat="39.4027" lon="16.5088">
    <comp name="--.HHE">
      <acc value="0.0081692188" flag="0"/>
      <vel value="0.0083030490" flag="0"/>
      <psa03 value="0.0173354932" flag="0"/>
      <psa10 value="0.0094242692" flag="0"/>
      <psa30 value="0.0014177041" flag="0"/>
    </comp>
    <comp name="--.HHZ">
      <acc value="0.0034896227" flag="0"/>
      <vel value="0.0028438872" flag="0"/>
      <psa03 value="0.0107240409" flag="0"/>
      <psa10 value="0.0065614029" flag="0"/>
      <psa30 value="0.0005911395" flag="0"/>
    </comp>
    <comp name="--.HHN">
      <acc value="0.0069601143" flag="0"/>
      <vel value="0.0062683599" flag="0"/>
      <psa03 value="0.0266631297" flag="0"/>
      <psa10 value="0.0121156965" flag="0"/>
      <psa30 value="0.0009909662" flag="0"/>
    </comp>
  </station>
  <station code="CET2" name="CET2" netid="IV" insttype="" commtype="DIG" lat="39.5288" lon="15.9546">
    <comp name="--.HHE">
      <acc value="0.0651921418" flag="0"/>
      <vel value="0.0229290620" flag="0"/>
      <psa03 value="0.1073632312" flag="0"/>
      <psa10 value="0.0263861016" flag="0"/>
      <psa30 value="0.0012840723" flag="0"/>
    </comp>
    <comp name="--.HHN">
      <acc value="0.0799543215" flag="0"/>
      <vel value="0.0295204957" flag="0"/>
      <psa03 value="0.1405582363" flag="0"/>
      <psa10 value="0.0293266033" flag="0"/>
      <psa30 value="0.0020482859" flag="0"/>
    </comp>
    <comp name="--.HHZ">
      <acc value="0.0449692946" flag="0"/>
      <vel value="0.0159768961" flag="0"/>
      <psa03 value="0.0640671753" flag="0"/>
      <psa10 value="0.0082090446" flag="0"/>
      <psa30 value="0.0005595608" flag="0"/>
    </comp>
  </station>
  <station code="CSLB" name="CSLB" netid="IV" insttype="" commtype="DIG" lat="37.9374" lon="14.0579">
    <comp name="--.HHE">
      <acc value="0.0010975852" flag="0"/>
      <vel value="0.0008759902" flag="0"/>
      <psa03 value="0.0032679265" flag="0"/>
      <psa10 value="0.0015991170" flag="0"/>
      <psa30 value="0.0001453885" flag="0"/>
    </comp>
    <comp name="--.HHN">
      <acc value="0.0011590566" flag="0"/>
      <vel value="0.0016489188" flag="0"/>
      <psa03 value="0.0041609963" flag="0"/>
      <psa10 value="0.0018746032" flag="0"/>
      <psa30 value="0.0002382521" flag="0"/>
    </comp>
    <comp name="--.HHZ">
      <acc value="0.0014777401" flag="0"/>
      <vel value="0.0011590693" flag="0"/>
      <psa03 value="0.0037026713" flag="0"/>
      <psa10 value="0.0015790808" flag="0"/>
      <psa30 value="0.0002122564" flag="0"/>
    </comp>
  </station>
  <station code="EBDA" name="EBDA" netid="IV" insttype="" commtype="DIG" lat="37.6335" lon="15.1223">
    <comp name="--.HHE">
      <acc value="0.0430387428" flag="0"/>
      <vel value="0.0104021879" flag="0"/>
      <psa03 value="0.0334292290" flag="0"/>
      <psa10 value="0.0049462564" flag="0"/>
      <psa30 value="0.0003063456" flag="0"/>
    </comp>
    <comp name="--.HHN">
      <acc value="0.0385224298" flag="0"/>
      <vel value="0.0131162847" flag="0"/>
      <psa03 value="0.0452524768" flag="0"/>
      <psa10 value="0.0037611938" flag="0"/>
      <psa30 value="0.0004873587" flag="0"/>
    </comp>
    <comp name="--.HHZ">
      <acc value="0.0409786196" flag="0"/>
      <vel value="0.0126650463" flag="0"/>
      <psa03 value="0.0446500755" flag="0"/>
      <psa10 value="0.0066827114" flag="0"/>
      <psa30 value="0.0006817802" flag="0"/>
    </comp>
  </station>
  <station code="ECBD" name="ECBD" netid="IV" insttype="" commtype="DIG" lat="37.7802" lon="15.0865">
    <comp name="--.HHE">
      <acc value="0.0260592253" flag="0"/>
      <vel value="0.0108711927" flag="0"/>
      <psa03 value="0.0516661049" flag="0"/>
      <psa10 value="0.0112280401" flag="0"/>
      <psa30 value="0.0004885018" flag="0"/>
    </comp>
    <comp name="--.HHN">
      <acc value="0.0248828219" flag="0"/>
      <vel value="0.0094535122" flag="0"/>
      <psa03 value="0.0369027561" flag="0"/>
      <psa10 value="0.0084697954" flag="0"/>
      <psa30 value="0.0003997062" flag="0"/>
    </comp>
    <comp name="--.HHZ">
      <acc value="0.0228624832" flag="0"/>
      <vel value="0.0140137892" flag="0"/>
      <psa03 value="0.0630646218" flag="0"/>
      <psa10 value="0.0100066047" flag="0"/>
      <psa30 value="0.0007873785" flag="0"/>
    </comp>
  </station>
  <station code="ECHR" name="ECHR" netid="IV" insttype="" commtype="DIG" lat="37.6863" lon="14.9129">
    <comp name="--.HHE">
      <acc value="0.0125295727" flag="0"/>
      <vel value="0.0104101511" flag="0"/>
      <psa03 value="0.0387408679" flag="0"/>
      <psa10 value="0.0111838672" flag="0"/>
      <psa30 value="0.0016341007" flag="0"/>
    </comp>
    <comp name="--.HHN">
      <acc value="0.0141221045" flag="0"/>
      <vel value="0.0096794083" flag="0"/>
      <psa03 value="0.0428683414" flag="0"/>
      <psa10 value="0.0117089741" flag="0"/>
      <psa30 value="0.0019921525" flag="0"/>
    </comp>
    <comp name="--.HHZ">
      <acc value="0.0258413116" flag="0"/>
      <vel value="0.0163466104" flag="0"/>
      <psa03 value="0.0393982693" flag="0"/>
      <psa10 value="0.0198035220" flag="0"/>
      <psa30 value="0.0013740812" flag="0"/>
    </comp>
  </station>
  <station code="ECTS" name="ECTS" netid="IV" insttype="" commtype="DIG" lat="37.882" lon="15.121">
    <comp name="--.HHN">
      <acc value="0.0102998302" flag="0"/>
      <vel value="0.0046000890" flag="0"/>
      <psa03 value="0.0199929411" flag="0"/>
      <psa10 value="0.0040363127" flag="0"/>
      <psa30 value="0.0002561361" flag="0"/>
    </comp>
    <comp name="--.HHE">
      <acc value="0.0118527700" flag="0"/>
      <vel value="0.0067140801" flag="0"/>
      <psa03 value="0.0254219410" flag="0"/>
      <psa10 value="0.0089781347" flag="0"/>
      <psa30 value="0.0010155649" flag="0"/>
    </comp>
    <comp name="--.HHZ">
      <acc value="0.0112384610" flag="0"/>
      <vel value="0.0067752335" flag="0"/>
      <psa03 value="0.0294657873" flag="0"/>
      <psa10 value="0.0068871098" flag="0"/>
      <psa30 value="0.0005394611" flag="0"/>
    </comp>
  </station>
  <station code="ECZM" name="ECZM" netid="IV" insttype="" commtype="DIG" lat="37.7313" lon="14.9041">
    <comp name="--.HHE">
      <acc value="0.0128702982" flag="0"/>
      <vel value="0.0097062487" flag="0"/>
      <psa03 value="0.0331999103" flag="0"/>
      <psa10 value="0.0097485869" flag="0"/>
      <psa30 value="0.0018429875" flag="0"/>
    </comp>
    <comp name="--.HHN">
      <acc value="0.0168286549" flag="0"/>
      <vel value="0.0166328779" flag="0"/>
      <psa03 value="0.0457269088" flag="0"/>
      <psa10 value="0.0190779883" flag="0"/>
      <psa30 value="0.0020355350" flag="0"/>
    </comp>
    <comp name="--.HHZ">
      <acc value="0.0171818288" flag="0"/>
      <vel value="0.0131375561" flag="0"/>
      <psa03 value="0.0344994352" flag="0"/>
      <psa10 value="0.0127366727" flag="0"/>
      <psa30 value="0.0007344444" flag="0"/>
    </comp>
  </station>
  <station code="EFIU" name="EFIU" netid="IV" insttype="" commtype="DIG" lat="37.7896" lon="15.2103">
    <comp name="--.HHE">
      <acc value="0.0055769793" flag="0"/>
      <vel value="0.0021995119" flag="0"/>
      <psa03 value="0.0085256835" flag="0"/>
      <psa10 value="0.0032832920" flag="0"/>
      <psa30 value="0.0003581650" flag="0"/>
    </comp>
    <comp name="--.HHN">
      <acc value="0.0098047462" flag="0"/>
      <vel value="0.0080361683" flag="0"/>
      <psa03 value="0.0170641662" flag="0"/>
      <psa10 value="0.0096985337" flag="0"/>
      <psa30 value="0.0014054328" flag="0"/>
    </comp>
    <comp name="--.HHZ">
      <acc value="0.0134230128" flag="0"/>
      <vel value="0.0046986952" flag="0"/>
      <psa03 value="0.0239219932" flag="0"/>
      <psa10 value="0.0059739425" flag="0"/>
      <psa30 value="0.0003551590" flag="0"/>
    </comp>
  </station>
  <station code="EMCN" name="EMCN" netid="IV" insttype="" commtype="DIG" lat="37.7912" lon="15.0336">
    <comp name="--.HHE">
      <acc value="0.0311941478" flag="0"/>
      <vel value="0.0108223225" flag="0"/>
      <psa03 value="0.0494346648" flag="0"/>
      <psa10 value="0.0108482980" flag="0"/>
      <psa30 value="0.0017320659" flag="0"/>
    </comp>
    <comp name="--.HHN">
      <acc value="0.0293171838" flag="0"/>
      <vel value="0.0104450826" flag="0"/>
      <psa03 value="0.0450524930" flag="0"/>
      <psa10 value="0.0137340086" flag="0"/>
      <psa30 value="0.0016702095" flag="0"/>
    </comp>
    <comp name="--.HHZ">
      <acc value="0.0277730808" flag="0"/>
      <vel value="0.0123840746" flag="0"/>
      <psa03 value="0.0563854338" flag="0"/>
      <psa10 value="0.0165434354" flag="0"/>
      <psa30 value="0.0009729642" flag="0"/>
    </comp>
  </station>
  <station code="EMCO" name="EMCO" netid="IV" insttype="" commtype="DIG" lat="37.9264" lon="14.9029">
    <comp name="--.HHE">
      <acc value="0.0180102733" flag="0"/>
      <vel value="0.0047652299" flag="0"/>
      <psa03 value="0.0154771573" flag="0"/>
      <psa10 value="0.0028325193" flag="0"/>
      <psa30 value="0.0001867746" flag="0"/>
    </comp>
    <comp name="--.HHN">
      <acc value="0.0106601440" flag="0"/>
      <vel value="0.0042108872" flag="0"/>
      <psa03 value="0.0193924738" flag="0"/>
      <psa10 value="0.0036015482" flag="0"/>
      <psa30 value="0.0003809820" flag="0"/>
    </comp>
    <comp name="--.HHZ">
      <acc value="0.0205889867" flag="0"/>
      <vel value="0.0049233873" flag="0"/>
      <psa03 value="0.0175716627" flag="0"/>
      <psa10 value="0.0035607199" flag="0"/>
      <psa30 value="0.0004762744" flag="0"/>
    </comp>
  </station>
  <station code="EMFO" name="EMFO" netid="IV" insttype="" commtype="DIG" lat="37.7357" lon="15.0902">
    <comp name="--.HHE">
      <acc value="0.0308887131" flag="0"/>
      <vel value="0.0089032874" flag="0"/>
      <psa03 value="0.0669426231" flag="0"/>
      <psa10 value="0.0067889431" flag="0"/>
      <psa30 value="0.0006683884" flag="0"/>
    </comp>
    <comp name="--.HHN">
      <acc value="0.0305741231" flag="0"/>
      <vel value="0.0146713991" flag="0"/>
      <psa03 value="0.0739049698" flag="0"/>
      <psa10 value="0.0062142366" flag="0"/>
      <psa30 value="0.0007663140" flag="0"/>
    </comp>
  </station>
  <station code="EMPL" name="EMPL" netid="IV" insttype="" commtype="DIG" lat="37.679" lon="14.9703">
    <comp name="--.HHE">
      <acc value="0.0305750433" flag="0"/>
      <vel value="0.0104766695" flag="0"/>
      <psa03 value="0.0436458616" flag="0"/>
      <psa10 value="0.0142239712" flag="0"/>
      <psa30 value="0.0008203201" flag="0"/>
    </comp>
    <comp name="--.HHN">
      <acc value="0.0295147135" flag="0"/>
      <vel value="0.0094184451" flag="0"/>
      <psa03 value="0.0607486196" flag="0"/>
      <psa10 value="0.0107617572" flag="0"/>
      <psa30 value="0.0012368883" flag="0"/>
    </comp>
    <comp name="--.HHZ">
      <acc value="0.0293863770" flag="0"/>
      <vel value="0.0071358293" flag="0"/>
      <psa03 value="0.0390077037" flag="0"/>
      <psa10 value="0.0054884751" flag="0"/>
      <psa30 value="0.0003644952" flag="0"/>
    </comp>
  </station>
  <station code="EMSG" name="EMSG" netid="IV" insttype="" commtype="DIG" lat="37.8208" lon="14.9498">
    <comp name="--.HHZ">
      <acc value="0.0216961371" flag="0"/>
      <vel value="0.0107592595" flag="0"/>
      <psa03 value="0.0480338346" flag="0"/>
      <psa10 value="0.0154752957" flag="0"/>
      <psa30 value="0.0008667096" flag="0"/>
    </comp>
    <comp name="--.HHE">
      <acc value="0.0204638840" flag="0"/>
      <vel value="0.0120613767" flag="0"/>
      <psa03 value="0.0433167511" flag="0"/>
      <psa10 value="0.0203319702" flag="0"/>
      <psa30 value="0.0017974923" flag="0"/>
    </comp>
    <comp name="--.HHN">
      <acc value="0.0181428874" flag="0"/>
      <vel value="0.0080795335" flag="0"/>
      <psa03 value="0.0327006496" flag="0"/>
      <psa10 value="0.0077132193" flag="0"/>
      <psa30 value="0.0004504673" flag="0"/>
    </comp>
  </station>
  <station code="ENIC" name="ENIC" netid="IV" insttype="" commtype="DIG" lat="37.6314" lon="15.0216">
    <comp name="--.HHE">
      <acc value="0.0430940992" flag="0"/>
      <vel value="0.0123550523" flag="0"/>
      <psa03 value="0.0770607328" flag="0"/>
      <psa10 value="0.0128571166" flag="0"/>
      <psa30 value="0.0012981195" flag="0"/>
    </comp>
    <comp name="--.HHN">
      <acc value="0.0528707568" flag="0"/>
      <vel value="0.0151231841" flag="0"/>
      <psa03 value="0.0414235977" flag="0"/>
      <psa10 value="0.0105300758" flag="0"/>
      <psa30 value="0.0005399172" flag="0"/>
    </comp>
    <comp name="--.HHZ">
      <acc value="0.0188769528" flag="0"/>
      <vel value="0.0061333354" flag="0"/>
      <psa03 value="0.0301098032" flag="0"/>
      <psa10 value="0.0072589559" flag="0"/>
      <psa30 value="0.0005226368" flag="0"/>
    </comp>
  </station>
  <station code="EPDN" name="EPDN" netid="IV" insttype="" commtype="DIG" lat="37.7659" lon="15.0168">
    <comp name="--.HHE">
      <acc value="0.0277640069" flag="0"/>
      <vel value="0.0183809635" flag="0"/>
      <psa03 value="0.0736132105" flag="0"/>
      <psa10 value="0.0242695583" flag="0"/>
      <psa30 value="0.0023932309" flag="0"/>
    </comp>
    <comp name="--.HHN">
      <acc value="0.0197875491" flag="0"/>
      <vel value="0.0158053039" flag="0"/>
      <psa03 value="0.0602655073" flag="0"/>
      <psa10 value="0.0243713339" flag="0"/>
      <psa30 value="0.0020970789" flag="0"/>
    </comp>
    <comp name="--.HHZ">
      <acc value="0.0157283711" flag="0"/>
      <vel value="0.0072520958" flag="0"/>
      <psa03 value="0.0418630651" flag="0"/>
      <psa10 value="0.0093845352" flag="0"/>
      <psa30 value="0.0007382786" flag="0"/>
    </comp>
  </station>
  <station code="EPMN" name="EPMN" netid="IV" insttype="" commtype="DIG" lat="37.8204" lon="15.1773">
    <comp name="--.HHE">
      <acc value="0.0147274348" flag="0"/>
      <vel value="0.0041193847" flag="0"/>
      <psa03 value="0.0227761745" flag="0"/>
      <psa10 value="0.0031155677" flag="0"/>
      <psa30 value="0.0001634775" flag="0"/>
    </comp>
    <comp name="--.HHN">
      <acc value="0.0166100678" flag="0"/>
      <vel value="0.0041210779" flag="0"/>
      <psa03 value="0.0223686257" flag="0"/>
      <psa10 value="0.0022611575" flag="0"/>
      <psa30 value="0.0001475595" flag="0"/>
    </comp>
    <comp name="--.HHZ">
      <acc value="0.0327626608" flag="0"/>
      <vel value="0.0086243638" flag="0"/>
      <psa03 value="0.0247380323" flag="0"/>
      <psa10 value="0.0031995863" flag="0"/>
      <psa30 value="0.0003480406" flag="0"/>
    </comp>
  </station>
  <station code="EPOZ" name="EPOZ" netid="IV" insttype="" commtype="DIG" lat="37.6719" lon="15.1885">
    <comp name="--.HHE">
      <acc value="0.0191877027" flag="0"/>
      <vel value="0.0068841156" flag="0"/>
      <psa03 value="0.0243831292" flag="0"/>
      <psa10 value="0.0082410703" flag="0"/>
      <psa30 value="0.0008943516" flag="0"/>
    </comp>
    <comp name="--.HHN">
      <acc value="0.0219939739" flag="0"/>
      <vel value="0.0060182169" flag="0"/>
      <psa03 value="0.0279754216" flag="0"/>
      <psa10 value="0.0106625595" flag="0"/>
      <psa30 value="0.0007218533" flag="0"/>
    </comp>
    <comp name="--.HHZ">
      <acc value="0.0254408394" flag="0"/>
      <vel value="0.0060953302" flag="0"/>
      <psa03 value="0.0173457657" flag="0"/>
      <psa10 value="0.0044982224" flag="0"/>
      <psa30 value="0.0005277627" flag="0"/>
    </comp>
  </station>
  <station code="EPZF" name="EPZF" netid="IV" insttype="" commtype="DIG" lat="37.824" lon="14.857">
    <comp name="--.HHN">
      <acc value="0.0118692258" flag="0"/>
      <vel value="0.0109535657" flag="0"/>
      <psa03 value="0.0434771991" flag="0"/>
      <psa10 value="0.0130713218" flag="0"/>
      <psa30 value="0.0013101771" flag="0"/>
    </comp>
    <comp name="--.HHE">
      <acc value="0.0102435295" flag="0"/>
      <vel value="0.0087689145" flag="0"/>
      <psa03 value="0.0451519982" flag="0"/>
      <psa10 value="0.0076680581" flag="0"/>
      <psa30 value="0.0014654426" flag="0"/>
    </comp>
    <comp name="--.HHZ">
      <acc value="0.0102204406" flag="0"/>
      <vel value="0.0074835470" flag="0"/>
      <psa03 value="0.0255754997" flag="0"/>
      <psa10 value="0.0081377760" flag="0"/>
      <psa30 value="0.0006109537" flag="0"/>
    </comp>
  </station>
  <station code="ESAL" name="ESAL" netid="IV" insttype="" commtype="DIG" lat="37.7551" lon="15.1345">
    <comp name="--.HHE">
      <acc value="0.0269438481" flag="0"/>
      <vel value="0.0109380613" flag="0"/>
      <psa03 value="0.0688327100" flag="0"/>
      <psa10 value="0.0153866850" flag="0"/>
      <psa30 value="0.0012258319" flag="0"/>
    </comp>
    <comp name="--.HHN">
      <acc value="0.0205223918" flag="0"/>
      <vel value="0.0067622374" flag="0"/>
      <psa03 value="0.0284398215" flag="0"/>
