<?xml version="1.0" encoding="UTF-8" standalone="yes"?>
<!DOCTYPE earthquake SYSTEM "stationlist.dtd">
<stationlist created="" xmlns="ch.ethz.sed.shakemap.usgs.xml">
  <station code="BALB" name="BALB" netid="KO" insttype="CMG-5T" commtype="DIG" lat="39.6507" lon="27.8642">
    <comp name="--.HNE">
      <acc value="0.0499847784" flag="0"/>
      <vel value="0.0158925831" flag="0"/>
      <psa03 value="0.1016949363" flag="0"/>
      <psa10 value="0.0144439951" flag="0"/>
      <psa30 value="0.0011199590" flag="0"/>
    </comp>
    <comp name="--.HNZ">
      <acc value="0.0425641755" flag="0"/>
      <vel value="0.0109057136" flag="0"/>
      <psa03 value="0.0703895219" flag="0"/>
      <psa10 value="0.0065669706" flag="0"/>
      <psa30 value="0.0007749874" flag="0"/>
    </comp>
    <comp name="--.HNN">
      <acc value="0.0994709462" flag="0"/>
      <vel value="0.0375783518" flag="0"/>
      <psa03 value="0.1452642393" flag="0"/>
      <psa10 value="0.0179089012" flag="0"/>
      <psa30 value="0.0015923551" flag="0"/>
    </comp>
  </station>
  <station code="DKL" name="DKL" netid="KO" insttype="CMG-3ESPC" commtype="DIG" lat="39.0713" lon="26.9053">
    <comp name="--.HHE">
      <acc value="0.0106794852" flag="0"/>
      <vel value="0.0045177924" flag="0"/>
      <psa03 value="0.0253171913" flag="0"/>
      <psa10 value="0.0046815180" flag="0"/>
      <psa30 value="0.0003682187" flag="0"/>
    </comp>
    <comp name="--.HHN">
      <acc value="0.0140663129" flag="0"/>
      <vel value="0.0076475627" flag="0"/>
      <psa03 value="0.0253916689" flag="0"/>
      <psa10 value="0.0076947630" flag="0"/>
      <psa30 value="0.0010825614" flag="0"/>
    </comp>
    <comp name="--.HHZ">
      <acc value="0.0090533772" flag="0"/>
      <vel value="0.0044470926" flag="0"/>
      <psa03 value="0.0235598585" flag="0"/>
      <psa10 value="0.0032917040" flag="0"/>
      <psa30 value="0.0004594071" flag="0"/>
    </comp>
  </station>
  <station code="DST" name="DST" netid="KO" insttype="CMG-5T" commtype="DIG" lat="39.6041" lon="28.6267">
    <comp name="--.HNE">
      <acc value="0.0729609771" flag="0"/>
      <vel value="0.0181838006" flag="0"/>
      <psa03 value="0.1401863600" flag="0"/>
      <psa10 value="0.0138053457" flag="0"/>
      <psa30 value="0.0008781600" flag="0"/>
    </comp>
    <comp name="--.HNN">
      <acc value="0.0833417444" flag="0"/>
      <vel value="0.0346100087" flag="0"/>
      <psa03 value="0.1926500348" flag="0"/>
      <psa10 value="0.0137681593" flag="0"/>
      <psa30 value="0.0014722363" flag="0"/>
    </comp>
    <comp name="--.HNZ">
      <acc value="0.0756528280" flag="0"/>
      <vel value="0.0232781342" flag="0"/>
      <psa03 value="0.0974739427" flag="0"/>
      <psa10 value="0.0061278061" flag="0"/>
      <psa30 value="0.0010929711" flag="0"/>
    </comp>
  </station>
  <station code="GOMA" name="GOMA" netid="KO" insttype="CMG-5T" commtype="DIG" lat="38.7077" lon="27.9175">
    <comp name="--.HNN">
      <acc value="0.1100705143" flag="0"/>
      <vel value="0.0359353892" flag="0"/>
      <psa03 value="0.2557486784" flag="0"/>
      <psa10 value="0.0130898843" flag="0"/>
      <psa30 value="0.0019047538" flag="0"/>
    </comp>
    <comp name="--.HNZ">
      <acc value="0.1043805502" flag="0"/>
      <vel value="0.0256339317" flag="0"/>
      <psa03 value="0.1545881410" flag="0"/>
      <psa10 value="0.0074982545" flag="0"/>
      <psa30 value="0.0013287324" flag="0"/>
    </comp>
  </station>
  <station code="GONE" name="GONE" netid="KO" insttype="CMG-5T" commtype="DIG" lat="40.0466" lon="27.686">
    <comp name="--.HNZ">
      <acc value="0.0252280330" flag="0"/>
      <vel value="0.0093975108" flag="0"/>
      <psa03 value="0.0421085013" flag="0"/>
      <psa10 value="0.0047720670" flag="0"/>
      <psa30 value="0.0003582158" flag="0"/>
    </comp>
    <comp name="--.HNE">
      <acc value="0.0363674563" flag="0"/>
      <vel value="0.0157655647" flag="0"/>
      <psa03 value="0.0710823662" flag="0"/>
      <psa10 value="0.0146249114" flag="0"/>
      <psa30 value="0.0005649648" flag="0"/>
    </comp>
    <comp name="--.HNN">
      <acc value="0.0872267802" flag="0"/>
      <vel value="0.0401474742" flag="0"/>
      <psa03 value="0.2458936409" flag="0"/>
      <psa10 value="0.0141190465" flag="0"/>
      <psa30 value="0.0011567493" flag="0"/>
    </comp>
  </station>
  <station code="GORD" name="GORD" netid="KO" insttype="CMG-5T" commtype="DIG" lat="38.9088" lon="28.1769">
    <comp name="--.HNE">
      <acc value="0.1317829327" flag="0"/>
      <vel value="0.0544585027" flag="0"/>
      <psa03 value="0.2565486839" flag="0"/>
      <psa10 value="0.0589534161" flag="0"/>
      <psa30 value="0.0032681101" flag="0"/>
    </comp>
    <comp name="--.HNZ">
      <acc value="0.1694859886" flag="0"/>
      <vel value="0.0662518223" flag="0"/>
      <psa03 value="0.2139577652" flag="0"/>
      <psa10 value="0.0481233349" flag="0"/>
      <psa30 value="0.0074471165" flag="0"/>
    </comp>
    <comp name="--.HNN">
      <acc value="0.1680501453" flag="0"/>
      <vel value="0.1118328590" flag="0"/>
      <psa03 value="0.3197717699" flag="0"/>
      <psa10 value="0.1049697794" flag="0"/>
      <psa30 value="0.0071085804" flag="0"/>
    </comp>
  </station>
  <station code="KCTX" name="KCTX" netid="KO" insttype="CMG-3ESP" commtype="DIG" lat="40.2626" lon="28.3353">
    <comp name="--.HHE">
      <acc value="0.0288342043" flag="0"/>
      <vel value="0.0081156612" flag="0"/>
      <psa03 value="0.0525791337" flag="0"/>
      <psa10 value="0.0043318016" flag="0"/>
      <psa30 value="0.0004359291" flag="0"/>
    </comp>
    <comp name="--.HHZ">
      <acc value="0.0302738601" flag="0"/>
      <vel value="0.0113017635" flag="0"/>
      <psa03 value="0.0572328159" flag="0"/>
      <psa10 value="0.0031909844" flag="0"/>
      <psa30 value="0.0007484888" flag="0"/>
    </comp>
    <comp name="--.HHN">
      <acc value="0.0341054685" flag="0"/>
      <vel value="0.0150433680" flag="0"/>
      <psa03 value="0.0783611958" flag="0"/>
      <psa10 value="0.0051013436" flag="0"/>
      <psa30 value="0.0007306038" flag="0"/>
    </comp>
  </station>
  <station code="KULA" name="KULA" netid="KO" insttype="CMG-3T" commtype="DIG" lat="38.5145" lon="28.6607">
    <comp name="--.HHE">
      <acc value="0.0953297762" flag="0"/>
      <vel value="0.0255898613" flag="0"/>
      <psa03 value="0.0852319264" flag="0"/>
      <psa10 value="0.0196401608" flag="0"/>
      <psa30 value="0.0012260373" flag="0"/>
    </comp>
    <comp name="--.HHN">
      <acc value="0.0835961763" flag="0"/>
      <vel value="0.0170420872" flag="0"/>
      <psa03 value="0.0899247473" flag="0"/>
      <psa10 value="0.0059546589" flag="0"/>
      <psa30 value="0.0006176654" flag="0"/>
    </comp>
    <comp name="--.HHZ">
      <acc value="0.0634293902" flag="0"/>
      <vel value="0.0151308045" flag="0"/>
      <psa03 value="0.0858142082" flag="0"/>
      <psa10 value="0.0079631907" flag="0"/>
      <psa30 value="0.0008199039" flag="0"/>
    </comp>
  </station>
  <station code="ORLT" name="ORLT" netid="KO" insttype="CMG-5T" commtype="DIG" lat="40.0452" lon="28.8914">
    <comp name="--.HNN">
      <acc value="0.0735872101" flag="0"/>
      <vel value="0.0331121298" flag="0"/>
      <psa03 value="0.2260582838" flag="0"/>
      <psa10 value="0.0355785763" flag="0"/>
      <psa30 value="0.0015917560" flag="0"/>
    </comp>
    <comp name="--.HNZ">
      <acc value="0.0314505096" flag="0"/>
      <vel value="0.0182359699" flag="0"/>
      <psa03 value="0.1380162103" flag="0"/>
      <psa10 value="0.0238305618" flag="0"/>
      <psa30 value="0.0014410982" flag="0"/>
    </comp>
    <comp name="--.HNE">
      <acc value="0.1056196183" flag="0"/>
      <vel value="0.0398611933" flag="0"/>
      <psa03 value="0.3136496456" flag="0"/>
      <psa10 value="0.0244731732" flag="0"/>
      <psa30 value="0.0013917903" flag="0"/>
    </comp>
  </station>
  <station code="SHAP" name="SHAP" netid="KO" insttype="CMG-5T" commtype="DIG" lat="39.0231" lon="29.222">
    <comp name="--.HNN">
      <acc value="0.1681745532" flag="0"/>
      <vel value="0.0580939045" flag="0"/>
      <psa03 value="0.2235445283" flag="0"/>
      <psa10 value="0.0169629085" flag="0"/>
      <psa30 value="0.0011166199" flag="0"/>
    </comp>
    <comp name="--.HNE">
      <acc value="0.1031003651" flag="0"/>
      <vel value="0.0351989535" flag="0"/>
      <psa03 value="0.2470468803" flag="0"/>
      <psa10 value="0.0192403362" flag="0"/>
      <psa30 value="0.0010470866" flag="0"/>
    </comp>
    <comp name="--.HNZ">
      <acc value="0.1060070993" flag="0"/>
      <vel value="0.0244627306" flag="0"/>
      <psa03 value="0.0614497789" flag="0"/>
      <psa10 value="0.0091844579" flag="0"/>
      <psa30 value="0.0006004581" flag="0"/>
    </comp>
  </station>
  <station code="SIMA" name="SIMA" netid="KO" insttype="CMG-6T" commtype="DIG" lat="39.0833" lon="28.9825">
    <comp name="--.HHE">
      <acc value="0.1941347702" flag="0"/>
      <vel value="0.0256862071" flag="0"/>
      <psa03 value="0.1921967354" flag="0"/>
      <psa10 value="0.0063211242" flag="0"/>
      <psa30 value="0.0008561834" flag="0"/>
    </comp>
    <comp name="--.HHN">
      <acc value="0.1227756865" flag="0"/>
      <vel value="0.0348441707" flag="0"/>
      <psa03 value="0.2767054243" flag="0"/>
      <psa10 value="0.0147094360" flag="0"/>
      <psa30 value="0.0013675331" flag="0"/>
    </comp>
    <comp name="--.HHZ">
      <acc value="0.0852660928" flag="0"/>
      <vel value="0.0180732682" flag="0"/>
      <psa03 value="0.0992292735" flag="0"/>
      <psa10 value="0.0043036001" flag="0"/>
      <psa30 value="0.0005245565" flag="0"/>
    </comp>
  </station>
  <station code="SMAA" name="SMAA" netid="KO" insttype="CMG-5T" commtype="DIG" lat="39.1005" lon="28.9805">
    <comp name="--.HNE">
      <acc value="0.0960160248" flag="0"/>
      <vel value="0.0486022367" flag="0"/>
      <psa03 value="0.2907557875" flag="0"/>
      <psa10 value="0.0402542186" flag="0"/>
      <psa30 value="0.0040759147" flag="0"/>
    </comp>
    <comp name="--.HNN">
      <acc value="0.0794355530" flag="0"/>
      <vel value="0.0434555905" flag="0"/>
      <psa03 value="0.2055190504" flag="0"/>
      <psa10 value="0.0496593965" flag="0"/>
      <psa30 value="0.0041135270" flag="0"/>
    </comp>
    <comp name="--.HNZ">
      <acc value="0.0884645864" flag="0"/>
      <vel value="0.0187583977" flag="0"/>
      <psa03 value="0.0862985179" flag="0"/>
      <psa10 value="0.0342232402" flag="0"/>
      <psa30 value="0.0015790993" flag="0"/>
    </comp>
  </station>
  <station code="SOMA" name="SOMA" netid="KO" insttype="CMG-5T" commtype="DIG" lat="39.1564" lon="27.5341">
    <comp name="--.HNE">
      <acc value="0.0589407161" flag="0"/>
      <vel value="0.0217245033" flag="0"/>
      <psa03 value="0.0778618811" flag="0"/>
      <psa10 value="0.0095418828" flag="0"/>
      <psa30 value="0.0005419387" flag="0"/>
    </comp>
    <comp name="--.HNZ">
      <acc value="0.0640477753" flag="0"/>
      <vel value="0.0153746891" flag="0"/>
      <psa03 value="0.0703061000" flag="0"/>
      <psa10 value="0.0078713391" flag="0"/>
      <psa30 value="0.0005540890" flag="0"/>
    </comp>
    <comp name="--.HNN">
      <acc value="0.0704709927" flag="0"/>
      <vel value="0.0257002398" flag="0"/>
      <psa03 value="0.1332440472" flag="0"/>
      <psa10 value="0.0119467971" flag="0"/>
      <psa30 value="0.0008186202" flag="0"/>
    </comp>
  </station>
  <station code="SUSR" name="SUSR" netid="KO" insttype="CMG-5T" commtype="DIG" lat="39.9627" lon="28.0835">
    <comp name="--.HNN">
      <acc value="0.0604988420" flag="0"/>
      <vel value="0.0162066472" flag="0"/>
      <psa03 value="0.1116682345" flag="0"/>
      <psa10 value="0.0040817376" flag="0"/>
      <psa30 value="0.0004773220" flag="0"/>
    </comp>
    <comp name="--.HNE">
      <acc value="0.0516016102" flag="0"/>
      <vel value="0.0123871664" flag="0"/>
      <psa03 value="0.0789432717" flag="0"/>
      <psa10 value="0.0046236862" flag="0"/>
      <psa30 value="0.0004244992" flag="0"/>
    </comp>
    <comp name="--.HNZ">
      <acc value="0.0409486289" flag="0"/>
      <vel value="0.0100595936" flag="0"/>
      <psa03 value="0.0748725386" flag="0"/>
      <psa10 value="0.0023356322" flag="0"/>
      <psa30 value="0.0003574562" flag="0"/>
    </comp>
  </station>
  <station code="TVSB" name="TVSB" netid="KO" insttype="CMG-3T" commtype="DIG" lat="39.4497" lon="29.4615">
    <comp name="--.HHE">
      <acc value="0.0554842445" flag="0"/>
      <vel value="0.0283731741" flag="0"/>
      <psa03 value="0.1283513327" flag="0"/>
      <psa10 value="0.0211652351" flag="0"/>
      <psa30 value="0.0014803162" flag="0"/>
    </comp>
    <comp name="--.HHN">
      <acc value="0.0496001245" flag="0"/>
      <vel value="0.0252220345" flag="0"/>
      <psa03 value="0.1414347108" flag="0"/>
      <psa10 value="0.0213422609" flag="0"/>
      <psa30 value="0.0009718786" flag="0"/>
    </comp>
    <comp name="--.HHZ">
      <acc value="0.0240059625" flag="0"/>
      <vel value="0.0133607696" flag="0"/>
      <psa03 value="0.0449757164" flag="0"/>
      <psa10 value="0.0124684960" flag="0"/>
      <psa30 value="0.0006664294" flag="0"/>
    </comp>
  </station>
  <station code="YAYO" name="YAYO" netid="KO" insttype="CMG-6T" commtype="DIG" lat="39.6113" lon="27.0726">
    <comp name="--.HHN">
      <acc value="0.0247151504" flag="0"/>
      <vel value="0.0133982613" flag="0"/>
      <psa03 value="0.0668720839" flag="0"/>
      <psa10 value="0.0095501669" flag="0"/>
      <psa30 value="0.0006703889" flag="0"/>
    </comp>
    <comp name="--.HHZ">
      <acc value="0.0129596904" flag="0"/>
      <vel value="0.0057969303" flag="0"/>
      <psa03 value="0.0276471704" flag="0"/>
      <psa10 value="0.0034609551" flag="0"/>
      <psa30 value="0.0002823020" flag="0"/>
    </comp>
    <comp name="--.HHE">
      <acc value="0.0248678694" flag="0"/>
      <vel value="0.0166986080" flag="0"/>
      <psa03 value="0.0552928078" flag="0"/>
      <psa10 value="0.0102981503" flag="0"/>
      <psa30 value="0.0007646232" flag="0"/>
    </comp>
  </station>
  <station code="YENI" name="YENI" netid="KO" insttype="CMG-5T" commtype="DIG" lat="39.9364" lon="27.2422">
    <comp name="--.HNE">
      <acc value="0.0422366456" flag="0"/>
      <vel value="0.0229962396" flag="0"/>
      <psa03 value="0.0964104253" flag="0"/>
      <psa10 value="0.0188097179" flag="0"/>
      <psa30 value="0.0010067870" flag="0"/>
    </comp>
    <comp name="--.HNN">
      <acc value="0.0522387984" flag="0"/>
      <vel value="0.0225759167" flag="0"/>
      <psa03 value="0.0772836089" flag="0"/>
      <psa10 value="0.0124471257" flag="0"/>
      <psa30 value="0.0006487742" flag="0"/>
    </comp>
    <comp name="--.HNZ">
      <acc value="0.0164990066" flag="0"/>
      <vel value="0.0046139039" flag="0"/>
      <psa03 value="0.0236762785" flag="0"/>
      <psa10 value="0.0033452234" flag="0"/>
      <psa30 value="0.0004923448" flag="0"/>
    </comp>
  </station>
</stationlist>
