<?xml version="1.0" encoding="UTF-8" standalone="yes"?>
<!DOCTYPE earthquake SYSTEM "stationlist.dtd">
<stationlist created="" xmlns="ch.ethz.sed.shakemap.usgs.xml">
  <station code="BALB" name="BALB" netid="KO" insttype="CMG-5T" commtype="DIG" lat="39.6507" lon="27.8642">
    <comp name="--.HNE">
      <acc value="0.0499847779" flag="0"/>
      <vel value="0.0158925850" flag="0"/>
      <psa03 value="0.1016949363" flag="0"/>
      <psa10 value="0.0144439955" flag="0"/>
      <psa30 value="0.0011199054" flag="0"/>
    </comp>
    <comp name="--.HNN">
      <acc value="0.0994709422" flag="0"/>
      <vel value="0.0375783509" flag="0"/>
      <psa03 value="0.1452642393" flag="0"/>
      <psa10 value="0.0179089042" flag="0"/>
      <psa30 value="0.0015922660" flag="0"/>
    </comp>
    <comp name="--.HNZ">
      <acc value="0.0425641752" flag="0"/>
      <vel value="0.0109057135" flag="0"/>
      <psa03 value="0.0703895219" flag="0"/>
      <psa10 value="0.0065669719" flag="0"/>
      <psa30 value="0.0007749482" flag="0"/>
    </comp>
  </station>
  <station code="DKL" name="DKL" netid="KO" insttype="CMG-3ESPC" commtype="DIG" lat="39.0713" lon="26.9053">
    <comp name="--.HHN">
      <acc value="0.0140663131" flag="0"/>
      <vel value="0.0076475627" flag="0"/>
      <psa03 value="0.0253916689" flag="0"/>
      <psa10 value="0.0076947630" flag="0"/>
      <psa30 value="0.0010825070" flag="0"/>
    </comp>
    <comp name="--.HHE">
      <acc value="0.0106794853" flag="0"/>
      <vel value="0.0045177922" flag="0"/>
      <psa03 value="0.0253171913" flag="0"/>
      <psa10 value="0.0046815181" flag="0"/>
      <psa30 value="0.0003682173" flag="0"/>
    </comp>
    <comp name="--.HHZ">
      <acc value="0.0090533771" flag="0"/>
      <vel value="0.0044470934" flag="0"/>
      <psa03 value="0.0235598585" flag="0"/>
      <psa10 value="0.0032917040" flag="0"/>
      <psa30 value="0.0004594224" flag="0"/>
    </comp>
  </station>
  <station code="DST" name="DST" netid="KO" insttype="CMG-5T" commtype="DIG" lat="39.6041" lon="28.6267">
    <comp name="--.HNE">
      <acc value="0.0729609879" flag="0"/>
      <vel value="0.0181838174" flag="0"/>
      <psa03 value="0.1401863600" flag="0"/>
      <psa10 value="0.0138053505" flag="0"/>
      <psa30 value="0.0008811764" flag="0"/>
    </comp>
    <comp name="--.HNN">
      <acc value="0.0833417393" flag="0"/>
      <vel value="0.0346100181" flag="0"/>
      <psa03 value="0.1926500348" flag="0"/>
      <psa10 value="0.0137681624" flag="0"/>
      <psa30 value="0.0014745362" flag="0"/>
    </comp>
    <comp name="--.HNZ">
      <acc value="0.0756528261" flag="0"/>
      <vel value="0.0232781218" flag="0"/>
      <psa03 value="0.0974739427" flag="0"/>
      <psa10 value="0.0061278036" flag="0"/>
      <psa30 value="0.0010897847" flag="0"/>
    </comp>
  </station>
  <station code="GOMA" name="GOMA" netid="KO" insttype="CMG-5T" commtype="DIG" lat="38.7077" lon="27.9175">
    <comp name="--.HNN">
      <acc value="0.1100705201" flag="0"/>
      <vel value="0.0359353826" flag="0"/>
      <psa03 value="0.2557486784" flag="0"/>
      <psa10 value="0.0130898871" flag="0"/>
      <psa30 value="0.0019016498" flag="0"/>
    </comp>
    <comp name="--.HNZ">
      <acc value="0.1043805474" flag="0"/>
      <vel value="0.0256339177" flag="0"/>
      <psa03 value="0.1545881410" flag="0"/>
      <psa10 value="0.0074982538" flag="0"/>
      <psa30 value="0.0013322820" flag="0"/>
    </comp>
  </station>
  <station code="GONE" name="GONE" netid="KO" insttype="CMG-5T" commtype="DIG" lat="40.0466" lon="27.686">
    <comp name="--.HNZ">
      <acc value="0.0252280322" flag="0"/>
      <vel value="0.0093975122" flag="0"/>
      <psa03 value="0.0421085013" flag="0"/>
      <psa10 value="0.0047720670" flag="0"/>
      <psa30 value="0.0003581820" flag="0"/>
    </comp>
    <comp name="--.HNN">
      <acc value="0.0872267780" flag="0"/>
      <vel value="0.0401474741" flag="0"/>
      <psa03 value="0.2458936409" flag="0"/>
      <psa10 value="0.0141190466" flag="0"/>
      <psa30 value="0.0011567950" flag="0"/>
    </comp>
    <comp name="--.HNE">
      <acc value="0.0363674571" flag="0"/>
      <vel value="0.0157655647" flag="0"/>
      <psa03 value="0.0710823662" flag="0"/>
      <psa10 value="0.0146249113" flag="0"/>
      <psa30 value="0.0005649682" flag="0"/>
    </comp>
  </station>
  <station code="GORD" name="GORD" netid="KO" insttype="CMG-5T" commtype="DIG" lat="38.9088" lon="28.1769">
    <comp name="--.HNE">
      <acc value="0.1317829348" flag="0"/>
      <vel value="0.0544585089" flag="0"/>
      <psa03 value="0.2565486839" flag="0"/>
      <psa10 value="0.0589534190" flag="0"/>
      <psa30 value="0.0032663686" flag="0"/>
    </comp>
    <comp name="--.HNZ">
      <acc value="0.1694859858" flag="0"/>
      <vel value="0.0662518272" flag="0"/>
      <psa03 value="0.2139577652" flag="0"/>
      <psa10 value="0.0481233316" flag="0"/>
      <psa30 value="0.0074498154" flag="0"/>
    </comp>
    <comp name="--.HNN">
      <acc value="0.1680501490" flag="0"/>
      <vel value="0.1118328529" flag="0"/>
      <psa03 value="0.3197717699" flag="0"/>
      <psa10 value="0.1049697297" flag="0"/>
      <psa30 value="0.0071083180" flag="0"/>
    </comp>
  </station>
  <station code="KCTX" name="KCTX" netid="KO" insttype="CMG-3ESP" commtype="DIG" lat="40.2626" lon="28.3353">
    <comp name="--.HHZ">
      <acc value="0.0302738601" flag="0"/>
      <vel value="0.0113017636" flag="0"/>
      <psa03 value="0.0572328159" flag="0"/>
      <psa10 value="0.0031909844" flag="0"/>
      <psa30 value="0.0007484883" flag="0"/>
    </comp>
    <comp name="--.HHE">
      <acc value="0.0288342043" flag="0"/>
      <vel value="0.0081156612" flag="0"/>
      <psa03 value="0.0525791337" flag="0"/>
      <psa10 value="0.0043318016" flag="0"/>
      <psa30 value="0.0004359292" flag="0"/>
    </comp>
    <comp name="--.HHN">
      <acc value="0.0341054685" flag="0"/>
      <vel value="0.0150433684" flag="0"/>
      <psa03 value="0.0783611958" flag="0"/>
      <psa10 value="0.0051013436" flag="0"/>
      <psa30 value="0.0007306042" flag="0"/>
    </comp>
  </station>
  <station code="KULA" name="KULA" netid="KO" insttype="CMG-3T" commtype="DIG" lat="38.5145" lon="28.6607">
    <comp name="--.HHZ">
      <acc value="0.0634293898" flag="0"/>
      <vel value="0.0151308044" flag="0"/>
      <psa03 value="0.0858142082" flag="0"/>
      <psa10 value="0.0079631906" flag="0"/>
      <psa30 value="0.0008198303" flag="0"/>
    </comp>
    <comp name="--.HHN">
      <acc value="0.0835961760" flag="0"/>
      <vel value="0.0170420869" flag="0"/>
      <psa03 value="0.0899247473" flag="0"/>
      <psa10 value="0.0059546593" flag="0"/>
      <psa30 value="0.0006176066" flag="0"/>
    </comp>
    <comp name="--.HHE">
      <acc value="0.0953297763" flag="0"/>
      <vel value="0.0255898607" flag="0"/>
      <psa03 value="0.0852319264" flag="0"/>
      <psa10 value="0.0196401611" flag="0"/>
      <psa30 value="0.0012260601" flag="0"/>
    </comp>
  </station>
  <station code="ORLT" name="ORLT" netid="KO" insttype="CMG-5T" commtype="DIG" lat="40.0452" lon="28.8914">
    <comp name="--.HNE">
      <acc value="0.1056196197" flag="0"/>
      <vel value="0.0398611852" flag="0"/>
      <psa03 value="0.3136496456" flag="0"/>
      <psa10 value="0.0244731733" flag="0"/>
      <psa30 value="0.0013912928" flag="0"/>
    </comp>
    <comp name="--.HNN">
      <acc value="0.0735872095" flag="0"/>
      <vel value="0.0331121363" flag="0"/>
      <psa03 value="0.2260582838" flag="0"/>
      <psa10 value="0.0355785760" flag="0"/>
      <psa30 value="0.0015898438" flag="0"/>
    </comp>
    <comp name="--.HNZ">
      <acc value="0.0314505258" flag="0"/>
      <vel value="0.0182359709" flag="0"/>
      <psa03 value="0.1380162103" flag="0"/>
      <psa10 value="0.0238305618" flag="0"/>
      <psa30 value="0.0014409118" flag="0"/>
    </comp>
  </station>
  <station code="SHAP" name="SHAP" netid="KO" insttype="CMG-5T" commtype="DIG" lat="39.0231" lon="29.222">
    <comp name="--.HNN">
      <acc value="0.1681745480" flag="0"/>
      <vel value="0.0580939026" flag="0"/>
      <psa03 value="0.2235445283" flag="0"/>
      <psa10 value="0.0169629084" flag="0"/>
      <psa30 value="0.0011163998" flag="0"/>
    </comp>
    <comp name="--.HNE">
      <acc value="0.1031003644" flag="0"/>
      <vel value="0.0351989540" flag="0"/>
      <psa03 value="0.2470468803" flag="0"/>
      <psa10 value="0.0192403382" flag="0"/>
      <psa30 value="0.0010470326" flag="0"/>
    </comp>
    <comp name="--.HNZ">
      <acc value="0.1060071008" flag="0"/>
      <vel value="0.0244627314" flag="0"/>
      <psa03 value="0.0614497789" flag="0"/>
      <psa10 value="0.0091844574" flag="0"/>
      <psa30 value="0.0006002266" flag="0"/>
    </comp>
  </station>
  <station code="SIMA" name="SIMA" netid="KO" insttype="CMG-6T" commtype="DIG" lat="39.0833" lon="28.9825">
    <comp name="--.HHE">
      <acc value="0.1941347631" flag="0"/>
      <vel value="0.0256862048" flag="0"/>
      <psa03 value="0.1921967354" flag="0"/>
      <psa10 value="0.0063211237" flag="0"/>
      <psa30 value="0.0008565335" flag="0"/>
    </comp>
    <comp name="--.HHN">
      <acc value="0.1227756636" flag="0"/>
      <vel value="0.0348441736" flag="0"/>
      <psa03 value="0.2767054243" flag="0"/>
      <psa10 value="0.0147094376" flag="0"/>
      <psa30 value="0.0013675707" flag="0"/>
    </comp>
    <comp name="--.HHZ">
      <acc value="0.0852660980" flag="0"/>
      <vel value="0.0180732665" flag="0"/>
      <psa03 value="0.0992292735" flag="0"/>
      <psa10 value="0.0043035990" flag="0"/>
      <psa30 value="0.0005244024" flag="0"/>
    </comp>
  </station>
  <station code="SMAA" name="SMAA" netid="KO" insttype="CMG-5T" commtype="DIG" lat="39.1005" lon="28.9805">
    <comp name="--.HNE">
      <acc value="0.0960160248" flag="0"/>
      <vel value="0.0486022414" flag="0"/>
      <psa03 value="0.2907557875" flag="0"/>
      <psa10 value="0.0402542195" flag="0"/>
      <psa30 value="0.0040754501" flag="0"/>
    </comp>
    <comp name="--.HNN">
      <acc value="0.0794355463" flag="0"/>
      <vel value="0.0434556216" flag="0"/>
      <psa03 value="0.2055190504" flag="0"/>
      <psa10 value="0.0496593988" flag="0"/>
      <psa30 value="0.0041110306" flag="0"/>
    </comp>
    <comp name="--.HNZ">
      <acc value="0.0884645947" flag="0"/>
      <vel value="0.0187583937" flag="0"/>
      <psa03 value="0.0862985179" flag="0"/>
      <psa10 value="0.0342232379" flag="0"/>
      <psa30 value="0.0015794144" flag="0"/>
    </comp>
  </station>
  <station code="SOMA" name="SOMA" netid="KO" insttype="CMG-5T" commtype="DIG" lat="39.1564" lon="27.5341">
    <comp name="--.HNE">
      <acc value="0.0589407165" flag="0"/>
      <vel value="0.0217245034" flag="0"/>
      <psa03 value="0.0778618811" flag="0"/>
      <psa10 value="0.0095418829" flag="0"/>
      <psa30 value="0.0005419822" flag="0"/>
    </comp>
    <comp name="--.HNN">
      <acc value="0.0704709921" flag="0"/>
      <vel value="0.0257002401" flag="0"/>
      <psa03 value="0.1332440472" flag="0"/>
      <psa10 value="0.0119467970" flag="0"/>
      <psa30 value="0.0008188135" flag="0"/>
    </comp>
    <comp name="--.HNZ">
      <acc value="0.0640477755" flag="0"/>
      <vel value="0.0153746891" flag="0"/>
      <psa03 value="0.0703061000" flag="0"/>
      <psa10 value="0.0078713388" flag="0"/>
      <psa30 value="0.0005540452" flag="0"/>
    </comp>
  </station>
  <station code="SUSR" name="SUSR" netid="KO" insttype="CMG-5T" commtype="DIG" lat="39.9627" lon="28.0835">
    <comp name="--.HNN">
      <acc value="0.0604988416" flag="0"/>
      <vel value="0.0162066478" flag="0"/>
      <psa03 value="0.1116682345" flag="0"/>
      <psa10 value="0.0040817376" flag="0"/>
      <psa30 value="0.0004772771" flag="0"/>
    </comp>
    <comp name="--.HNZ">
      <acc value="0.0409486281" flag="0"/>
      <vel value="0.0100595954" flag="0"/>
      <psa03 value="0.0748725386" flag="0"/>
      <psa10 value="0.0023356323" flag="0"/>
      <psa30 value="0.0003575616" flag="0"/>
    </comp>
    <comp name="--.HNE">
      <acc value="0.0516016114" flag="0"/>
      <vel value="0.0123871663" flag="0"/>
      <psa03 value="0.0789432717" flag="0"/>
      <psa10 value="0.0046236863" flag="0"/>
      <psa30 value="0.0004246020" flag="0"/>
    </comp>
  </station>
  <station code="TVSB" name="TVSB" netid="KO" insttype="CMG-3T" commtype="DIG" lat="39.4497" lon="29.4615">
    <comp name="--.HHN">
      <acc value="0.0496001241" flag="0"/>
      <vel value="0.0252220327" flag="0"/>
      <psa03 value="0.1414347108" flag="0"/>
      <psa10 value="0.0213422609" flag="0"/>
      <psa30 value="0.0009718982" flag="0"/>
    </comp>
    <comp name="--.HHZ">
      <acc value="0.0240059622" flag="0"/>
      <vel value="0.0133607701" flag="0"/>
      <psa03 value="0.0449757164" flag="0"/>
      <psa10 value="0.0124684960" flag="0"/>
      <psa30 value="0.0006664116" flag="0"/>
    </comp>
    <comp name="--.HHE">
      <acc value="0.0554842441" flag="0"/>
      <vel value="0.0283731737" flag="0"/>
      <psa03 value="0.1283513327" flag="0"/>
      <psa10 value="0.0211652350" flag="0"/>
      <psa30 value="0.0014803939" flag="0"/>
    </comp>
  </station>
  <station code="YAYO" name="YAYO" netid="KO" insttype="CMG-6T" commtype="DIG" lat="39.6113" lon="27.0726">
    <comp name="--.HHE">
      <acc value="0.0248678693" flag="0"/>
      <vel value="0.0166986069" flag="0"/>
      <psa03 value="0.0552928078" flag="0"/>
      <psa10 value="0.0102981503" flag="0"/>
      <psa30 value="0.0007646065" flag="0"/>
    </comp>
    <comp name="--.HHN">
      <acc value="0.0247151503" flag="0"/>
      <vel value="0.0133982621" flag="0"/>
      <psa03 value="0.0668720839" flag="0"/>
      <psa10 value="0.0095501669" flag="0"/>
      <psa30 value="0.0006703797" flag="0"/>
    </comp>
    <comp name="--.HHZ">
      <acc value="0.0129596901" flag="0"/>
      <vel value="0.0057969287" flag="0"/>
      <psa03 value="0.0276471704" flag="0"/>
      <psa10 value="0.0034609551" flag="0"/>
      <psa30 value="0.0002823029" flag="0"/>
    </comp>
  </station>
  <station code="YENI" name="YENI" netid="KO" insttype="CMG-5T" commtype="DIG" lat="39.9364" lon="27.2422">
    <comp name="--.HNZ">
      <acc value="0.0164990088" flag="0"/>
      <vel value="0.0046139150" flag="0"/>
      <psa03 value="0.0236762785" flag="0"/>
      <psa10 value="0.0033452234" flag="0"/>
      <psa30 value="0.0004921049" flag="0"/>
    </comp>
    <comp name="--.HNN">
      <acc value="0.0522387960" flag="0"/>
      <vel value="0.0225759282" flag="0"/>
      <psa03 value="0.0772836089" flag="0"/>
      <psa10 value="0.0124471256" flag="0"/>
      <psa30 value="0.0006486241" flag="0"/>
    </comp>
    <comp name="--.HNE">
      <acc value="0.0422366450" flag="0"/>
      <vel value="0.0229962334" flag="0"/>
      <psa03 value="0.0964104253" flag="0"/>
      <psa10 value="0.0188097178" flag="0"/>
      <psa30 value="0.0010072805" flag="0"/>
    </comp>
  </station>
</stationlist>
