<?xml version="1.0" encoding="UTF-8" standalone="yes"?>
<!DOCTYPE earthquake SYSTEM "stationlist.dtd">
<stationlist created="" xmlns="ch.ethz.sed.shakemap.usgs.xml">
  <station code="ARPRA" name="ARPRA" netid="KO" insttype="CMG-5T" lat="39.0929" lon="38.3356">
    <comp name="--.HNE">
      <acc value="0.0544290591" flag="0"/>
      <vel value="0.0324862588" flag="0"/>
      <psa03 value="0.2111575210" flag="0"/>
      <psa10 value="0.0270990942" flag="0"/>
      <psa30 value="0.0031151348" flag="0"/>
    </comp>
    <comp name="--.HNZ">
      <acc value="0.0277096941" flag="0"/>
      <vel value="0.0139691717" flag="0"/>
      <psa03 value="0.0651488154" flag="0"/>
      <psa10 value="0.0186852021" flag="0"/>
      <psa30 value="0.0020544184" flag="0"/>
    </comp>
    <comp name="--.HNN">
      <acc value="0.0695901781" flag="0"/>
      <vel value="0.0401330918" flag="0"/>
      <psa03 value="0.2213758880" flag="0"/>
      <psa10 value="0.0337812162" flag="0"/>
      <psa30 value="0.0021486042" flag="0"/>
    </comp>
  </station>
  <station code="SVRC" name="SVRC" netid="KO" insttype="CMG-3T" lat="38.3775" lon="39.306">
    <comp name="--.HHN">
      <acc value="0.0538374278" flag="0"/>
      <vel value="0.0220474354" flag="0"/>
      <psa03 value="0.1217654490" flag="0"/>
      <psa10 value="0.0196407835" flag="0"/>
      <psa30 value="0.0015536066" flag="0"/>
    </comp>
    <comp name="--.HHZ">
      <acc value="0.0581570276" flag="0"/>
      <vel value="0.0197863888" flag="0"/>
      <psa03 value="0.1421864045" flag="0"/>
      <psa10 value="0.0090783508" flag="0"/>
      <psa30 value="0.0023431693" flag="0"/>
    </comp>
    <comp name="--.HHE">
      <acc value="0.0917988570" flag="0"/>
      <vel value="0.0303666886" flag="0"/>
      <psa03 value="0.1233023936" flag="0"/>
      <psa10 value="0.0216655325" flag="0"/>
      <psa30 value="0.0039129649" flag="0"/>
    </comp>
  </station>
  <station code="URFA" name="URFA" netid="KO" insttype="CMG-3ESP" lat="37.4409" lon="38.8213">
    <comp name="--.HHN">
      <acc value="0.0321280752" flag="0"/>
      <vel value="0.0085000525" flag="0"/>
      <psa03 value="0.0352411525" flag="0"/>
      <psa10 value="0.0089036789" flag="0"/>
      <psa30 value="0.0025333817" flag="0"/>
    </comp>
    <comp name="--.HHE">
      <acc value="0.0374353570" flag="0"/>
      <vel value="0.0114570646" flag="0"/>
      <psa03 value="0.0663820835" flag="0"/>
      <psa10 value="0.0085292877" flag="0"/>
      <psa30 value="0.0039283405" flag="0"/>
    </comp>
  </station>
</stationlist>
