<stationlist created="1778136191">
	<station code="AGRP" name="AGRP" netid="CL" source="Corinth Riff Laboratory (CRLNET)" insttype="" lat="38.3959" lon="21.72277">
		<comp name="00.HNE" depth="0.0">
			<acc value="1.42751183085835" flag="0"/>
			<vel value="0.975709905622532" flag="0"/>
			<psa03 value="2.21008603811615" flag="0"/>
			<psa10 value="0.829584939480289" flag="0"/>
			<psa30 value="0.278600772170654" flag="0"/>
		</comp>
		<comp name="00.HNN" depth="0.0">
			<acc value="1.08305527976909" flag="0"/>
			<vel value="0.576064791890191" flag="0"/>
			<psa03 value="2.84681238050078" flag="0"/>
			<psa10 value="0.981874435568966" flag="0"/>
			<psa30 value="0.14539024782814" flag="0"/>
		</comp>
		<comp name="00.HNZ" depth="0.0">
			<acc value="0.932927080801713" flag="0"/>
			<vel value="0.391929397671655" flag="0"/>
			<psa03 value="1.77165715546371" flag="0"/>
			<psa10 value="0.473527354056214" flag="0"/>
			<psa30 value="0.0669392627436625" flag="0"/>
		</comp>
	</station>
	<station code="MALA" name="MALA" netid="CL" source="Corinth Riff Laboratory (CRLNET)" insttype="" lat="38.39341" lon="21.87263">
		<comp name="01.HNE" depth="0.0">
			<acc value="10.5647956848496" flag="0"/>
			<vel value="7.01255321272618" flag="0"/>
			<psa03 value="21.6433713184897" flag="0"/>
			<psa10 value="8.29601046674671" flag="0"/>
			<psa30 value="1.84577709494754" flag="0"/>
		</comp>
		<comp name="01.HNN" depth="0.0">
			<acc value="9.77545208916206" flag="0"/>
			<vel value="8.23974868768675" flag="0"/>
			<psa03 value="23.8838820571063" flag="0"/>
			<psa10 value="9.3315822615886" flag="0"/>
			<psa30 value="1.02971503999555" flag="0"/>
		</comp>
		<comp name="01.HNZ" depth="0.0">
			<acc value="5.15739679162867" flag="0"/>
			<vel value="2.1737626897818" flag="0"/>
			<psa03 value="5.47192712720802" flag="0"/>
			<psa10 value="1.8887094793081" flag="0"/>
			<psa30 value="0.712926794476204" flag="0"/>
		</comp>
	</station>
	<station code="AIGS" name="AIGS" netid="HA" source="Hellenic Seismological Network, University of Athens, Seismological Laboratory (HA)" insttype="" lat="38.25001" lon="22.0878">
		<comp name="--.HNE" depth="0.0">
			<acc value="6.41437251631455" flag="0"/>
			<vel value="2.47462811608882" flag="0"/>
			<psa03 value="15.2684122351051" flag="0"/>
			<psa10 value="1.51128167373694" flag="0"/>
			<psa30 value="0.546181538851229" flag="0"/>
		</comp>
		<comp name="--.HNN" depth="0.0">
			<acc value="5.50056699706483" flag="0"/>
			<vel value="2.52797003259151" flag="0"/>
			<psa03 value="9.39138916917524" flag="0"/>
			<psa10 value="2.04677340458293" flag="0"/>
			<psa30 value="0.704255754833583" flag="0"/>
		</comp>
		<comp name="--.HNZ" depth="0.0">
			<acc value="3.43733133289435" flag="0"/>
			<vel value="0.90066093302936" flag="0"/>
			<psa03 value="2.2890560327974" flag="0"/>
			<psa10 value="1.32220334567845" flag="0"/>
			<psa30 value="0.350901940955451" flag="0"/>
		</comp>
	</station>
	<station code="LTRS" name="LTRS" netid="HA" source="Hellenic Seismological Network, University of Athens, Seismological Laboratory (HA)" insttype="" lat="37.97528" lon="22.9765">
		<comp name="--.HNE" depth="0.0">
			<acc value="0.135808580998505" flag="0"/>
			<vel value="0.168583303208296" flag="0"/>
			<psa03 value="0.389033486545873" flag="0"/>
			<psa10 value="0.217012229916471" flag="0"/>
			<psa30 value="0.124409284878634" flag="0"/>
		</comp>
		<comp name="--.HNN" depth="0.0">
			<acc value="0.100506501834854" flag="0"/>
			<vel value="0.120655183250161" flag="0"/>
			<psa03 value="0.336685104802495" flag="0"/>
			<psa10 value="0.237065686922781" flag="0"/>
			<psa30 value="0.080207564116311" flag="0"/>
		</comp>
		<comp name="--.HNZ" depth="0.0">
			<acc value="0.0759298833898028" flag="0"/>
			<vel value="0.100682497369183" flag="0"/>
			<psa03 value="0.207917034155109" flag="0"/>
			<psa10 value="0.115271136598918" flag="0"/>
			<psa30 value="0.0727481434289128" flag="0"/>
		</comp>
	</station>
	<station code="XLKS" name="XLKS" netid="HA" source="Hellenic Seismological Network, University of Athens, Seismological Laboratory (HA)" insttype="" lat="38.0772" lon="22.6361">
		<comp name="--.HNE" depth="0.0">
			<acc value="0.249777289879414" flag="0"/>
			<vel value="0.311244908403911" flag="0"/>
			<psa03 value="0.659321156726853" flag="0"/>
			<psa10 value="0.420381666190899" flag="0"/>
			<psa30 value="0.247662878560318" flag="0"/>
		</comp>
		<comp name="--.HNN" depth="0.0">
			<acc value="0.266483799567795" flag="0"/>
			<vel value="0.291025269490335" flag="0"/>
			<psa03 value="0.609881018413662" flag="0"/>
			<psa10 value="0.307889020622975" flag="0"/>
			<psa30 value="0.178634154767582" flag="0"/>
		</comp>
		<comp name="--.HNZ" depth="0.0">
			<acc value="0.248000770546697" flag="0"/>
			<vel value="0.182723020700777" flag="0"/>
			<psa03 value="0.926700583477645" flag="0"/>
			<psa10 value="0.126485770687788" flag="0"/>
			<psa30 value="0.105903460799251" flag="0"/>
		</comp>
	</station>
	<station code="ARS1" name="ARS1" netid="HI" source="ITSAK Strong Motion Network" insttype="" lat="37.6349" lon="22.7293">
		<comp name="--.HNE" depth="0.0">
			<acc value="0.164119623961562" flag="0"/>
			<vel value="0.229567535375806" flag="0"/>
			<psa03 value="0.374671238221408" flag="0"/>
			<psa10 value="0.324173394143761" flag="0"/>
			<psa30 value="0.025924529358759" flag="0"/>
		</comp>
		<comp name="--.HNN" depth="0.0">
			<acc value="0.221247110597159" flag="0"/>
			<vel value="0.22977575165639" flag="0"/>
			<psa03 value="0.470106364938181" flag="0"/>
			<psa10 value="0.209111651071817" flag="0"/>
			<psa30 value="0.0856468741748943" flag="0"/>
		</comp>
		<comp name="--.HNZ" depth="0.0">
			<acc value="0.0826062676888124" flag="0"/>
			<vel value="0.11293904107983" flag="0"/>
			<psa03 value="0.322904505164067" flag="0"/>
			<psa10 value="0.0599670846863373" flag="0"/>
			<psa30 value="0.0337656010686111" flag="0"/>
		</comp>
	</station>
	<station code="ART2" name="ART2" netid="HI" source="ITSAK Strong Motion Network" insttype="" lat="39.1474" lon="20.9937">
		<comp name="--.HNE" depth="0.0">
			<acc value="0.0199649221154736" flag="0"/>
			<vel value="0.0337285218629716" flag="0"/>
			<psa03 value="0.0412523145020466" flag="0"/>
			<psa10 value="0.0342076540699997" flag="0"/>
			<psa30 value="0.0143009515013982" flag="0"/>
		</comp>
		<comp name="--.HNN" depth="0.0">
			<acc value="0.0209540667071817" flag="0"/>
			<vel value="0.040033197717127" flag="0"/>
			<psa03 value="0.0601782679015755" flag="0"/>
			<psa10 value="0.0296251572681563" flag="0"/>
			<psa30 value="0.0151671606215279" flag="0"/>
		</comp>
		<comp name="--.HNZ" depth="0.0">
			<acc value="0.0181188888835222" flag="0"/>
			<vel value="0.0248051464113623" flag="0"/>
			<psa03 value="0.038523039898332" flag="0"/>
			<psa10 value="0.0260090921292676" flag="0"/>
			<psa30 value="0.0127600299054649" flag="0"/>
		</comp>
	</station>
	<station code="ATH5" name="ATH5" netid="HI" source="ITSAK Strong Motion Network" insttype="" lat="37.975421" lon="23.737098">
		<comp name="--.HNE" depth="0.0">
			<acc value="0.0234804690951536" flag="0"/>
			<vel value="0.0403418703157066" flag="0"/>
			<psa03 value="0.0685898027458106" flag="0"/>
			<psa10 value="0.072643446665426" flag="0"/>
			<psa30 value="0.0254050723399209" flag="0"/>
		</comp>
		<comp name="--.HNN" depth="0.0">
			<acc value="0.0249277218018242" flag="0"/>
			<vel value="0.0405545224262158" flag="0"/>
			<psa03 value="0.0725271169282185" flag="0"/>
			<psa10 value="0.0424223232051144" flag="0"/>
			<psa30 value="0.0275661209195834" flag="0"/>
		</comp>
		<comp name="--.HNZ" depth="0.0">
			<acc value="0.0157242416497353" flag="0"/>
			<vel value="0.0401377026721856" flag="0"/>
			<psa03 value="0.027829652516565" flag="0"/>
			<psa10 value="0.0214829705077632" flag="0"/>
			<psa30 value="0.0190346769616113" flag="0"/>
		</comp>
	</station>
	<station code="KLV1" name="KLV1" netid="HI" source="ITSAK Strong Motion Network" insttype="" lat="38.03256" lon="22.10797">
		<comp name="--.HNE" depth="0.0">
			<acc value="0.78627194690669" flag="0"/>
			<vel value="0.386816226445074" flag="0"/>
			<psa03 value="1.52199564253375" flag="0"/>
			<psa10 value="0.578683172582874" flag="0"/>
			<psa30 value="0.166144815212158" flag="0"/>
		</comp>
		<comp name="--.HNN" depth="0.0">
			<acc value="0.922910789105796" flag="0"/>
			<vel value="0.448225786795142" flag="0"/>
			<psa03 value="1.92324375148641" flag="0"/>
			<psa10 value="0.333261878574131" flag="0"/>
			<psa30 value="0.164124704583343" flag="0"/>
		</comp>
		<comp name="--.HNZ" depth="0.0">
			<acc value="0.484889063859493" flag="0"/>
			<vel value="0.443227753640407" flag="0"/>
			<psa03 value="1.00262810810885" flag="0"/>
			<psa10 value="0.410576411610505" flag="0"/>
			<psa30 value="0.219092742524221" flag="0"/>
		</comp>
	</station>
	<station code="LAM2" name="LAM2" netid="HI" source="ITSAK Strong Motion Network" insttype="" lat="38.90203" lon="22.431301">
		<comp name="--.HNE" depth="0.0">
			<acc value="0.171779773893618" flag="0"/>
			<vel value="0.148100579572336" flag="0"/>
			<psa03 value="0.274224984363388" flag="0"/>
			<psa10 value="0.0858352388647573" flag="0"/>
			<psa30 value="0.0422854120528624" flag="0"/>
		</comp>
		<comp name="--.HNN" depth="0.0">
			<acc value="0.124300015475527" flag="0"/>
			<vel value="0.0823065124351936" flag="0"/>
			<psa03 value="0.408496346424821" flag="0"/>
			<psa10 value="0.0495336495250225" flag="0"/>
			<psa30 value="0.0419655052755418" flag="0"/>
		</comp>
		<comp name="--.HNZ" depth="0.0">
			<acc value="0.063150166428321" flag="0"/>
			<vel value="0.0862682664498148" flag="0"/>
			<psa03 value="0.168812345570739" flag="0"/>
			<psa10 value="0.0411780424390602" flag="0"/>
			<psa30 value="0.046128767601372" flag="0"/>
		</comp>
	</station>
	<station code="MSL1" name="MSL1" netid="HI" source="ITSAK Strong Motion Network" insttype="" lat="38.3727" lon="21.4243">
		<comp name="--.HNE" depth="0.0">
			<acc value="0.440901080605756" flag="0"/>
			<vel value="0.498682240018258" flag="0"/>
			<psa03 value="1.74266420557507" flag="0"/>
			<psa10 value="1.07089084532428" flag="0"/>
			<psa30 value="0.179165692182207" flag="0"/>
		</comp>
		<comp name="--.HNN" depth="0.0">
			<acc value="0.522157046856848" flag="0"/>
			<vel value="0.469996125131645" flag="0"/>
			<psa03 value="1.79362557891328" flag="0"/>
			<psa10 value="0.622877287170072" flag="0"/>
			<psa30 value="0.177601952060899" flag="0"/>
		</comp>
		<comp name="--.HNZ" depth="0.0">
			<acc value="0.340006082569487" flag="0"/>
			<vel value="0.261602867082266" flag="0"/>
			<psa03 value="0.984328545601979" flag="0"/>
			<psa10 value="0.411651566835542" flag="0"/>
			<psa30 value="0.0503882256714315" flag="0"/>
		</comp>
	</station>
	<station code="NPS1" name="NPS1" netid="HI" source="ITSAK Strong Motion Network" insttype="" lat="36.51263" lon="23.06248">
		<comp name="--.HNE" depth="0.0">
			<acc value="0.030035064241447" flag="0"/>
			<vel value="0.0406154435739004" flag="0"/>
			<psa03 value="0.073600929887057" flag="0"/>
			<psa10 value="0.0386814273097607" flag="0"/>
			<psa30 value="0.0119287197064974" flag="0"/>
		</comp>
		<comp name="--.HNN" depth="0.0">
			<acc value="0.0670509654710157" flag="0"/>
			<vel value="0.0643018047387536" flag="0"/>
			<psa03 value="0.134047651028342" flag="0"/>
			<psa10 value="0.0653146732213531" flag="0"/>
			<psa30 value="0.0249603348061353" flag="0"/>
		</comp>
		<comp name="--.HNZ" depth="0.0">
			<acc value="0.0192484836310218" flag="0"/>
			<vel value="0.0262960033871921" flag="0"/>
			<psa03 value="0.0709163974899607" flag="0"/>
			<psa10 value="0.0430666109804175" flag="0"/>
			<psa30 value="0.0151702925759912" flag="0"/>
		</comp>
	</station>
	<station code="PYL1" name="PYL1" netid="HI" source="ITSAK Strong Motion Network" insttype="" lat="36.914188" lon="21.695161">
		<comp name="--.HNE" depth="0.0">
			<acc value="0.0264385654755686" flag="0"/>
			<vel value="0.0673108672382058" flag="0"/>
			<psa03 value="0.0471135435690402" flag="0"/>
			<psa10 value="0.0432598973130084" flag="0"/>
			<psa30 value="0.0377986635731822" flag="0"/>
		</comp>
		<comp name="--.HNN" depth="0.0">
			<acc value="0.0164509945157922" flag="0"/>
			<vel value="0.0308766483339516" flag="0"/>
			<psa03 value="0.0392836574108426" flag="0"/>
			<psa10 value="0.0287352347785188" flag="0"/>
			<psa30 value="0.0256882905078145" flag="0"/>
		</comp>
		<comp name="--.HNZ" depth="0.0">
			<acc value="0.0175175076675196" flag="0"/>
			<vel value="0.0371331459050704" flag="0"/>
			<psa03 value="0.0392836574108426" flag="0"/>
			<psa10 value="0.0237742189086849" flag="0"/>
			<psa30 value="0.0278032546146602" flag="0"/>
		</comp>
	</station>
	<station code="SKO1" name="SKO1" netid="HI" source="ITSAK Strong Motion Network" insttype="" lat="39.123383" lon="23.728705">
		<comp name="--.HNE" depth="0.0">
			<acc value="0.0104065603399907" flag="0"/>
			<vel value="0.0207663045269391" flag="0"/>
			<psa03 value="0.0193286332590934" flag="0"/>
			<psa10 value="0.0154467994128921" flag="0"/>
			<psa30 value="0.0137685192426408" flag="0"/>
		</comp>
		<comp name="--.HNN" depth="0.0">
			<acc value="0.00777043743481198" flag="0"/>
			<vel value="0.0316338042933569" flag="0"/>
			<psa03 value="0.0198655397385127" flag="0"/>
			<psa10 value="0.0131474974147792" flag="0"/>
			<psa30 value="0.0195196824813534" flag="0"/>
		</comp>
		<comp name="--.HNZ" depth="0.0">
			<acc value="0.00711511217379973" flag="0"/>
			<vel value="0.0166724070622921" flag="0"/>
			<psa03 value="0.0150333814237393" flag="0"/>
			<psa10 value="0.00958378065763381" flag="0"/>
			<psa30 value="0.0127649515481929" flag="0"/>
		</comp>
	</station>
	<station code="VAS2" name="VAS2" netid="HI" source="ITSAK Strong Motion Network" insttype="" lat="38.630558" lon="20.608081">
		<comp name="--.HNE" depth="0.0">
			<acc value="0.208555767231611" flag="0"/>
			<vel value="0.229565174372568" flag="0"/>
			<psa03 value="0.56773385977925" flag="0"/>
			<psa10 value="0.562439067048044" flag="0"/>
			<psa30 value="0.0397167619709075" flag="0"/>
		</comp>
		<comp name="--.HNN" depth="0.0">
			<acc value="0.232874945484781" flag="0"/>
			<vel value="0.373201426842772" flag="0"/>
			<psa03 value="0.573774057672717" flag="0"/>
			<psa10 value="0.669865999982647" flag="0"/>
			<psa30 value="0.0401789489652742" flag="0"/>
		</comp>
		<comp name="--.HNZ" depth="0.0">
			<acc value="0.128524977029273" flag="0"/>
			<vel value="0.129965777535787" flag="0"/>
			<psa03 value="0.256238617302842" flag="0"/>
			<psa10 value="0.159594108741177" flag="0"/>
			<psa30 value="0.0454303417560608" flag="0"/>
		</comp>
	</station>
	<station code="VOL2" name="VOL2" netid="HI" source="ITSAK Strong Motion Network" insttype="" lat="39.366" lon="22.9506">
		<comp name="--.HNE" depth="0.0">
			<acc value="0.0227501980378295" flag="0"/>
			<vel value="0.0389007032694864" flag="0"/>
			<psa03 value="0.0624601204391074" flag="0"/>
			<psa10 value="0.0243782386980315" flag="0"/>
			<psa30 value="0.0272582945380497" flag="0"/>
		</comp>
		<comp name="--.HNN" depth="0.0">
			<acc value="0.0313581206027483" flag="0"/>
			<vel value="0.0465938047181612" flag="0"/>
			<psa03 value="0.0813413316320181" flag="0"/>
			<psa10 value="0.0395632962022068" flag="0"/>
			<psa30 value="0.0361463338827694" flag="0"/>
		</comp>
		<comp name="--.HNZ" depth="0.0">
			<acc value="0.017616681974712" flag="0"/>
			<vel value="0.0411782457696904" flag="0"/>
			<psa03 value="0.0221026500694262" flag="0"/>
			<psa10 value="0.0168038305396243" flag="0"/>
			<psa30 value="0.0267800003493004" flag="0"/>
		</comp>
	</station>
	<station code="ATHP" name="ATHP" netid="HL" source="National Observatory of Athens Seismic Network" insttype="" lat="38.000799" lon="23.773487">
		<comp name="00.HNE" depth="0.0">
			<acc value="0.0245942420625112" flag="0"/>
			<vel value="0.0451308197663597" flag="0"/>
			<psa03 value="0.0612968230670323" flag="0"/>
			<psa10 value="0.0629187280569447" flag="0"/>
			<psa30 value="0.0298166539124825" flag="0"/>
		</comp>
		<comp name="00.HNN" depth="0.0">
			<acc value="0.024463803171766" flag="0"/>
			<vel value="0.0325059847357191" flag="0"/>
			<psa03 value="0.0692161936384664" flag="0"/>
			<psa10 value="0.0437592203388683" flag="0"/>
			<psa30 value="0.0224901175787405" flag="0"/>
		</comp>
		<comp name="00.HNZ" depth="0.0">
			<acc value="0.0220771892378548" flag="0"/>
			<vel value="0.0417086739731001" flag="0"/>
			<psa03 value="0.045771277370492" flag="0"/>
			<psa10 value="0.0343405384236559" flag="0"/>
			<psa30 value="0.0260193828367897" flag="0"/>
		</comp>
	</station>
	<station code="DLFA" name="DLFA" netid="HL" source="National Observatory of Athens Seismic Network" insttype="" lat="38.47836" lon="22.49583">
		<comp name="00.HNE" depth="0.0">
			<acc value="0.251962479994606" flag="0"/>
			<vel value="0.234866912847507" flag="0"/>
			<psa03 value="0.595921449948762" flag="0"/>
			<psa10 value="0.216951827937536" flag="0"/>
			<psa30 value="0.10476074484222" flag="0"/>
		</comp>
		<comp name="00.HNN" depth="0.0">
			<acc value="0.307654046763057" flag="0"/>
			<vel value="0.20598280747508" flag="0"/>
			<psa03 value="0.56697324226674" flag="0"/>
			<psa10 value="0.132252146276751" flag="0"/>
			<psa30 value="0.0658869260440008" flag="0"/>
		</comp>
		<comp name="00.HNZ" depth="0.0">
			<acc value="0.286543073762145" flag="0"/>
			<vel value="0.178798284102507" flag="0"/>
			<psa03 value="0.367378258542629" flag="0"/>
			<psa10 value="0.158816936612217" flag="0"/>
			<psa30 value="0.107884645708308" flag="0"/>
		</comp>
	</station>
	<station code="ITM" name="ITM" netid="HL" source="National Observatory of Athens Seismic Network" insttype="" lat="37.17872" lon="21.92522">
		<comp name="--.HNE" depth="0.0">
			<acc value="0.0346536485206413" flag="0"/>
			<vel value="0.049228851345811" flag="0"/>
			<psa03 value="0.0970458461550314" flag="0"/>
			<psa10 value="0.0317875481140173" flag="0"/>
			<psa30 value="0.0295052481544193" flag="0"/>
		</comp>
		<comp name="--.HNN" depth="0.0">
			<acc value="0.0406126091529333" flag="0"/>
			<vel value="0.0575321754060781" flag="0"/>
			<psa03 value="0.0916767813608388" flag="0"/>
			<psa10 value="0.039764636131989" flag="0"/>
			<psa30 value="0.0270144495119801" flag="0"/>
		</comp>
		<comp name="--.HNZ" depth="0.0">
			<acc value="0.0229959521067138" flag="0"/>
			<vel value="0.0490613321585176" flag="0"/>
			<psa03 value="0.0757038135981158" flag="0"/>
			<psa10 value="0.0340465821261739" flag="0"/>
			<psa30 value="0.0167890656114403" flag="0"/>
		</comp>
	</station>
	<station code="JAN" name="JAN" netid="HL" source="National Observatory of Athens Seismic Network" insttype="" lat="39.65616" lon="20.84874">
		<comp name="00.HNE" depth="0.0">
			<acc value="0.0185040089981194" flag="0"/>
			<vel value="0.0429475407378505" flag="0"/>
			<psa03 value="0.0367333516336011" flag="0"/>
			<psa10 value="0.039889466888454" flag="0"/>
			<psa30 value="0.0154669334058704" flag="0"/>
		</comp>
		<comp name="00.HNN" depth="0.0">
			<acc value="0.0152956177085046" flag="0"/>
			<vel value="0.028329755571165" flag="0"/>
			<psa03 value="0.0412970567086648" flag="0"/>
			<psa10 value="0.0378438532018666" flag="0"/>
			<psa30 value="0.0145756686500344" flag="0"/>
		</comp>
		<comp name="00.HNZ" depth="0.0">
			<acc value="0.010933229857632" flag="0"/>
			<vel value="0.0243241260485599" flag="0"/>
			<psa03 value="0.023713369507684" flag="0"/>
			<psa10 value="0.0233675122505248" flag="0"/>
			<psa30 value="0.0221048871797572" flag="0"/>
		</comp>
	</station>
	<station code="KYMI" name="KYMI" netid="HL" source="National Observatory of Athens Seismic Network" insttype="" lat="38.633147" lon="24.100138">
		<comp name="--.HNE" depth="1.0">
			<acc value="0.0153467238805932" flag="0"/>
			<vel value="0.0365396073158597" flag="0"/>
			<psa03 value="0.0343172724762144" flag="0"/>
