<?xml version="1.0" encoding="UTF-8" standalone="yes"?>
<!DOCTYPE earthquake SYSTEM "stationlist.dtd">
<stationlist created="" xmlns="ch.ethz.sed.shakemap.usgs.xml">
  <station code="ACOR" name="ACOR" netid="HA" insttype="30" lat="37.8902" lon="22.8692">
    <comp name="--.HHE">
      <acc value="0.0401796233" flag="0"/>
      <vel value="0.0649069469" flag="0"/>
      <psa03 value="0.1065237199" flag="0"/>
      <psa10 value="0.0322153954" flag="0"/>
      <psa30 value="0.0620830388" flag="0"/>
    </comp>
    <comp name="--.HHN">
      <acc value="0.1215245592" flag="0"/>
      <vel value="0.2143227709" flag="0"/>
      <psa03 value="0.3602340347" flag="0"/>
      <psa10 value="0.1865644227" flag="0"/>
      <psa30 value="0.1448358278" flag="0"/>
    </comp>
    <comp name="--.HHZ">
      <acc value="0.0244970539" flag="0"/>
      <vel value="0.0458765358" flag="0"/>
      <psa03 value="0.0717844020" flag="0"/>
      <psa10 value="0.0329614805" flag="0"/>
      <psa30 value="0.0428602974" flag="0"/>
    </comp>
  </station>
  <station code="ATHU" name="ATHU" netid="HA" insttype="60" lat="37.9665" lon="23.7845">
    <comp name="--.HHE">
      <acc value="0.0194300884" flag="0"/>
      <vel value="0.0145922624" flag="0"/>
      <psa03 value="0.0461719042" flag="0"/>
      <psa10 value="0.0241448798" flag="0"/>
      <psa30 value="0.0042404054" flag="0"/>
    </comp>
    <comp name="--.HHN">
      <acc value="0.0145480741" flag="0"/>
      <vel value="0.0139807177" flag="0"/>
      <psa03 value="0.0326288345" flag="0"/>
      <psa10 value="0.0164057538" flag="0"/>
      <psa30 value="0.0071802415" flag="0"/>
    </comp>
    <comp name="--.HHZ">
      <acc value="0.0124565126" flag="0"/>
      <vel value="0.0144613069" flag="0"/>
      <psa03 value="0.0315978584" flag="0"/>
      <psa10 value="0.0227849402" flag="0"/>
      <psa30 value="0.0070306106" flag="0"/>
    </comp>
  </station>
  <station code="EPID" name="EPID" netid="HA" insttype="30" lat="37.6144" lon="23.1189">
    <comp name="--.HHZ">
      <acc value="0.0445830563" flag="0"/>
      <vel value="0.0444943836" flag="0"/>
      <psa03 value="0.1189679613" flag="0"/>
      <psa10 value="0.0449203179" flag="0"/>
      <psa30 value="0.0229307116" flag="0"/>
    </comp>
    <comp name="--.HHE">
      <acc value="0.0689747445" flag="0"/>
      <vel value="0.0439252961" flag="0"/>
      <psa03 value="0.1261633701" flag="0"/>
      <psa10 value="0.0469695099" flag="0"/>
      <psa30 value="0.0159281645" flag="0"/>
    </comp>
    <comp name="--.HHN">
      <acc value="0.0728029885" flag="0"/>
      <vel value="0.0606192798" flag="0"/>
      <psa03 value="0.1595678347" flag="0"/>
      <psa10 value="0.0676523976" flag="0"/>
      <psa30 value="0.0212406457" flag="0"/>
    </comp>
  </station>
  <station code="KALE" name="KALE" netid="HA" insttype="40," lat="38.3911" lon="22.1398">
    <comp name="--.HHE">
      <acc value="2.7826673484" flag="0"/>
      <vel value="0.7317153828" flag="0"/>
      <psa03 value="2.5325343582" flag="0"/>
      <psa10 value="0.4206476821" flag="0"/>
      <psa30 value="0.2270014163" flag="0"/>
    </comp>
    <comp name="--.HHZ">
      <acc value="3.2100906251" flag="0"/>
      <vel value="0.6034152268" flag="0"/>
      <psa03 value="2.1511255153" flag="0"/>
      <psa10 value="0.5909472367" flag="0"/>
      <psa30 value="0.2194477379" flag="0"/>
    </comp>
    <comp name="--.HHN">
      <acc value="3.1763402810" flag="0"/>
      <vel value="0.7761098275" flag="0"/>
      <psa03 value="2.2583138464" flag="0"/>
      <psa10 value="0.8510794380" flag="0"/>
      <psa30 value="0.2646983660" flag="0"/>
    </comp>
  </station>
  <station code="LAKA" name="LAKA" netid="HA" insttype="120s" lat="38.2401" lon="21.9785">
    <comp name="--.HHE">
      <acc value="1.4265646795" flag="0"/>
      <vel value="0.9403362488" flag="0"/>
      <psa03 value="1.4469625163" flag="0"/>
      <psa10 value="0.6348641346" flag="0"/>
      <psa30 value="0.4012121548" flag="0"/>
    </comp>
    <comp name="--.HHN">
      <acc value="1.2467791959" flag="0"/>
      <vel value="1.1441345316" flag="0"/>
      <psa03 value="1.1413341618" flag="0"/>
      <psa10 value="0.7288873637" flag="0"/>
      <psa30 value="0.7594861854" flag="0"/>
    </comp>
    <comp name="--.HHZ">
      <acc value="1.2574491747" flag="0"/>
      <vel value="0.7071939745" flag="0"/>
      <psa03 value="1.7202668665" flag="0"/>
      <psa10 value="0.7676444306" flag="0"/>
      <psa30 value="0.3841126584" flag="0"/>
    </comp>
  </station>
  <station code="STFN" name="STFN" netid="HA" insttype="1s-100Hz," lat="38.1766" lon="23.544">
    <comp name="--.HHZ">
      <acc value="0.0380902633" flag="0"/>
      <vel value="0.0643890064" flag="0"/>
      <psa03 value="0.0939848365" flag="0"/>
      <psa10 value="0.1252996483" flag="0"/>
      <psa30 value="0.0226087675" flag="0"/>
    </comp>
    <comp name="--.HHN">
      <acc value="0.0434985819" flag="0"/>
      <vel value="0.0665088880" flag="0"/>
      <psa03 value="0.1327014204" flag="0"/>
      <psa10 value="0.0605349089" flag="0"/>
      <psa30 value="0.0249301488" flag="0"/>
    </comp>
    <comp name="--.HHE">
      <acc value="0.0577386202" flag="0"/>
      <vel value="0.0685854877" flag="0"/>
      <psa03 value="0.0937383084" flag="0"/>
      <psa10 value="0.1087230444" flag="0"/>
      <psa30 value="0.0138623958" flag="0"/>
    </comp>
  </station>
  <station code="THAL" name="THAL" netid="HA" insttype="30" lat="38.0357" lon="22.6634">
    <comp name="--.HHE">
      <acc value="0.3265296376" flag="0"/>
      <vel value="0.2125316914" flag="0"/>
      <psa03 value="1.0284732181" flag="0"/>
      <psa10 value="0.2209402068" flag="0"/>
      <psa30 value="0.1338924618" flag="0"/>
    </comp>
    <comp name="--.HHN">
      <acc value="0.3128748593" flag="0"/>
      <vel value="0.1546262004" flag="0"/>
      <psa03 value="0.8503382124" flag="0"/>
      <psa10 value="0.1695039171" flag="0"/>
      <psa30 value="0.0651895565" flag="0"/>
    </comp>
    <comp name="--.HHZ">
      <acc value="0.1721593148" flag="0"/>
      <vel value="0.0796202794" flag="0"/>
      <psa03 value="0.3620518248" flag="0"/>
      <psa10 value="0.1045931056" flag="0"/>
      <psa30 value="0.0329056970" flag="0"/>
    </comp>
  </station>
  <station code="ATH5" name="ATH5" netid="HI" insttype="CMG-5TD,ACCELEROMETER,GURALP" lat="37.9754" lon="23.7371">
    <comp name="--.HNE">
      <acc value="0.0235074251" flag="0"/>
      <vel value="0.0372698188" flag="0"/>
      <psa03 value="0.0683816534" flag="0"/>
      <psa10 value="0.0724512541" flag="0"/>
      <psa30 value="0.0250265661" flag="0"/>
    </comp>
    <comp name="--.HNZ">
      <acc value="0.0158714352" flag="0"/>
      <vel value="0.0337050805" flag="0"/>
      <psa03 value="0.0277182804" flag="0"/>
      <psa10 value="0.0207097513" flag="0"/>
      <psa30 value="0.0177662797" flag="0"/>
    </comp>
    <comp name="--.HNN">
      <acc value="0.0253237713" flag="0"/>
      <vel value="0.0388688791" flag="0"/>
      <psa03 value="0.0728826968" flag="0"/>
      <psa10 value="0.0427636182" flag="0"/>
      <psa30 value="0.0270840665" flag="0"/>
    </comp>
  </station>
  <station code="KLV1" name="KLV1" netid="HI" insttype="CMG-5TD,ACCELEROMETER,GURALP" lat="38.0326" lon="22.108">
    <comp name="--.HNN">
      <acc value="0.9232834018" flag="0"/>
      <vel value="0.4411314639" flag="0"/>
      <psa03 value="1.9489518457" flag="0"/>
      <psa10 value="0.3320846592" flag="0"/>
      <psa30 value="0.1642284183" flag="0"/>
    </comp>
    <comp name="--.HNZ">
      <acc value="0.4842222075" flag="0"/>
      <vel value="0.4293851390" flag="0"/>
      <psa03 value="0.9956682954" flag="0"/>
      <psa10 value="0.4115644209" flag="0"/>
      <psa30 value="0.2184806115" flag="0"/>
    </comp>
    <comp name="--.HNE">
      <acc value="0.7877534537" flag="0"/>
      <vel value="0.3816728961" flag="0"/>
      <psa03 value="1.5071671418" flag="0"/>
      <psa10 value="0.5774443208" flag="0"/>
      <psa30 value="0.1650499545" flag="0"/>
    </comp>
  </station>
  <station code="LAM2" name="LAM2" netid="HI" insttype="CMG-5TD,ACCELEROMETER,GURALP" lat="38.902" lon="22.4313">
    <comp name="--.HNZ">
      <acc value="0.0637864298" flag="0"/>
      <vel value="0.0775092260" flag="0"/>
      <psa03 value="0.1709478800" flag="0"/>
      <psa10 value="0.0413311572" flag="0"/>
      <psa30 value="0.0441843593" flag="0"/>
    </comp>
    <comp name="--.HNN">
      <acc value="0.1234614125" flag="0"/>
      <vel value="0.0751671037" flag="0"/>
      <psa03 value="0.4094310649" flag="0"/>
      <psa10 value="0.0493780039" flag="0"/>
      <psa30 value="0.0414623858" flag="0"/>
    </comp>
    <comp name="--.HNE">
      <acc value="0.1693686041" flag="0"/>
      <vel value="0.1124450467" flag="0"/>
      <psa03 value="0.2766606650" flag="0"/>
      <psa10 value="0.0855684215" flag="0"/>
      <psa30 value="0.0411528207" flag="0"/>
    </comp>
  </station>
  <station code="MSL1" name="MSL1" netid="HI" insttype="CMG-5TD,ACCELEROMETER,GURALP" lat="38.3727" lon="21.4243">
    <comp name="--.HNE">
      <acc value="0.4414890994" flag="0"/>
      <vel value="0.4913361576" flag="0"/>
      <psa03 value="1.7499271637" flag="0"/>
      <psa10 value="1.0721624746" flag="0"/>
      <psa30 value="0.1246845770" flag="0"/>
    </comp>
    <comp name="--.HNN">
      <acc value="0.5236278196" flag="0"/>
      <vel value="0.4690382764" flag="0"/>
      <psa03 value="1.7531322295" flag="0"/>
      <psa10 value="0.6229905454" flag="0"/>
      <psa30 value="0.1446086007" flag="0"/>
    </comp>
    <comp name="--.HNZ">
      <acc value="0.3399703930" flag="0"/>
      <vel value="0.2619475639" flag="0"/>
      <psa03 value="0.9829289155" flag="0"/>
      <psa10 value="0.4112210604" flag="0"/>
      <psa30 value="0.0502988337" flag="0"/>
    </comp>
  </station>
  <station code="PYL1" name="PYL1" netid="HI" insttype="CMG-5TD,ACCELEROMETER,GURALP" lat="36.9142" lon="21.6952">
    <comp name="--.HNE">
      <acc value="0.0261550428" flag="0"/>
      <vel value="0.0570651997" flag="0"/>
      <psa03 value="0.0472309620" flag="0"/>
      <psa10 value="0.0430932064" flag="0"/>
      <psa30 value="0.0372458472" flag="0"/>
    </comp>
    <comp name="--.HNN">
      <acc value="0.0165792202" flag="0"/>
      <vel value="0.0338715861" flag="0"/>
      <psa03 value="0.0392017061" flag="0"/>
      <psa10 value="0.0286287010" flag="0"/>
      <psa30 value="0.0253800387" flag="0"/>
    </comp>
    <comp name="--.HNZ">
      <acc value="0.0173525703" flag="0"/>
      <vel value="0.0317151497" flag="0"/>
      <psa03 value="0.0401612799" flag="0"/>
      <psa10 value="0.0236440341" flag="0"/>
      <psa30 value="0.0269197325" flag="0"/>
    </comp>
  </station>
  <station code="VOL2" name="VOL2" netid="HI" insttype="CMG-5TD,ACCELEROMETER,GURALP" lat="39.366" lon="22.9506">
    <comp name="--.HNE">
      <acc value="0.0223629418" flag="0"/>
      <vel value="0.0331283982" flag="0"/>
      <psa03 value="0.0629849031" flag="0"/>
      <psa10 value="0.0236993228" flag="0"/>
      <psa30 value="0.0269540610" flag="0"/>
    </comp>
    <comp name="--.HNN">
      <acc value="0.0316122884" flag="0"/>
      <vel value="0.0449686460" flag="0"/>
      <psa03 value="0.0822183138" flag="0"/>
      <psa10 value="0.0400969239" flag="0"/>
      <psa30 value="0.0355795857" flag="0"/>
    </comp>
    <comp name="--.HNZ">
      <acc value="0.0206007115" flag="0"/>
      <vel value="0.0367841631" flag="0"/>
      <psa03 value="0.0217108354" flag="0"/>
      <psa10 value="0.0163239872" flag="0"/>
      <psa30 value="0.0263646402" flag="0"/>
    </comp>
  </station>
  <station code="ATH" name="ATH" netid="HL" insttype="DR24" lat="37.9738" lon="23.7177">
    <comp name="--.HHN">
      <acc value="0.0295946544" flag="0"/>
      <vel value="0.0447450461" flag="0"/>
      <psa03 value="0.0869917234" flag="0"/>
      <psa10 value="0.0408780194" flag="0"/>
      <psa30 value="0.0359139842" flag="0"/>
    </comp>
    <comp name="--.HHE">
      <acc value="0.0421773956" flag="0"/>
      <vel value="0.0377538898" flag="0"/>
      <psa03 value="0.1995036442" flag="0"/>
      <psa10 value="0.0636921652" flag="0"/>
      <psa30 value="0.0201471467" flag="0"/>
    </comp>
    <comp name="--.HHZ">
      <acc value="0.0264093872" flag="0"/>
      <vel value="0.0354230183" flag="0"/>
      <psa03 value="0.0624079445" flag="0"/>
      <psa10 value="0.0370994318" flag="0"/>
      <psa30 value="0.0200462456" flag="0"/>
    </comp>
  </station>
  <station code="DION" name="DION" netid="HL" insttype="30" lat="38.0779" lon="23.9331">
    <comp name="--.HHE">
      <acc value="0.0298682932" flag="0"/>
      <vel value="0.0248232447" flag="0"/>
      <psa03 value="0.0853331109" flag="0"/>
      <psa10 value="0.0386361967" flag="0"/>
      <psa30 value="0.0141932614" flag="0"/>
    </comp>
    <comp name="--.HHN">
      <acc value="0.0231111894" flag="0"/>
      <vel value="0.0336174144" flag="0"/>
      <psa03 value="0.1026126326" flag="0"/>
      <psa10 value="0.0288507474" flag="0"/>
      <psa30 value="0.0165175069" flag="0"/>
    </comp>
    <comp name="--.HHZ">
      <acc value="0.0216470781" flag="0"/>
      <vel value="0.0332133209" flag="0"/>
      <psa03 value="0.0479169216" flag="0"/>
      <psa10 value="0.0301786643" flag="0"/>
      <psa30 value="0.0276769458" flag="0"/>
    </comp>
  </station>
  <station code="DLFA" name="DLFA" netid="HL" insttype="CMG-5" lat="38.4784" lon="22.4958">
    <comp name="00.HNZ">
      <acc value="0.2861552429" flag="0"/>
      <vel value="0.1789864316" flag="0"/>
      <psa03 value="0.3661622353" flag="0"/>
      <psa10 value="0.1587397244" flag="0"/>
      <psa30 value="0.1068188322" flag="0"/>
    </comp>
    <comp name="00.HNE">
      <acc value="0.2492182010" flag="0"/>
      <vel value="0.2233996402" flag="0"/>
      <psa03 value="0.5929434133" flag="0"/>
      <psa10 value="0.2183385789" flag="0"/>
      <psa30 value="0.1033013806" flag="0"/>
    </comp>
    <comp name="00.HNN">
      <acc value="0.3049167329" flag="0"/>
      <vel value="0.1946990460" flag="0"/>
      <psa03 value="0.5696040526" flag="0"/>
      <psa10 value="0.1340154468" flag="0"/>
      <psa30 value="0.0649758503" flag="0"/>
    </comp>
  </station>
  <station code="EVR" name="EVR" netid="HL" insttype="DR24" lat="38.9166" lon="21.8105">
    <comp name="--.HHE">
      <acc value="0.1894145932" flag="0"/>
      <vel value="0.1784291963" flag="0"/>
      <psa03 value="0.5136183798" flag="0"/>
      <psa10 value="0.1169925414" flag="0"/>
      <psa30 value="0.0994501631" flag="0"/>
    </comp>
    <comp name="--.HHZ">
      <acc value="0.1413434649" flag="0"/>
      <vel value="0.1394422951" flag="0"/>
      <psa03 value="0.4111418350" flag="0"/>
      <psa10 value="0.1725996564" flag="0"/>
      <psa30 value="0.0859013901" flag="0"/>
    </comp>
    <comp name="--.HHN">
      <acc value="0.2083303890" flag="0"/>
      <vel value="0.1550291202" flag="0"/>
      <psa03 value="0.5286610091" flag="0"/>
      <psa10 value="0.1156021375" flag="0"/>
      <psa30 value="0.1373679110" flag="0"/>
    </comp>
  </station>
  <station code="ITM" name="ITM" netid="HL" insttype="DR24" lat="37.1787" lon="21.9252">
    <comp name="--.HHN">
      <acc value="0.0415379418" flag="0"/>
      <vel value="0.0596266468" flag="0"/>
      <psa03 value="0.0933030654" flag="0"/>
      <psa10 value="0.0410859740" flag="0"/>
      <psa30 value="0.0272210138" flag="0"/>
    </comp>
    <comp name="--.HHE">
      <acc value="0.0355798522" flag="0"/>
      <vel value="0.0447904861" flag="0"/>
      <psa03 value="0.0990302238" flag="0"/>
      <psa10 value="0.0321989024" flag="0"/>
      <psa30 value="0.0299703836" flag="0"/>
    </comp>
    <comp name="--.HHZ">
      <acc value="0.0166012471" flag="0"/>
      <vel value="0.0116779872" flag="0"/>
      <psa03 value="0.0319404699" flag="0"/>
      <psa10 value="0.0120321663" flag="0"/>
      <psa30 value="0.0020371994" flag="0"/>
    </comp>
  </station>
  <station code="JAN" name="JAN" netid="HL" insttype="CMG3EPSC60_DR24" lat="39.6562" lon="20.8487">
    <comp name="--.HHE">
      <acc value="0.0188711626" flag="0"/>
      <vel value="0.0339811005" flag="0"/>
      <psa03 value="0.0364405354" flag="0"/>
      <psa10 value="0.0380680197" flag="0"/>
      <psa30 value="0.0142455360" flag="0"/>
    </comp>
    <comp name="--.HHZ">
      <acc value="0.0108961648" flag="0"/>
      <vel value="0.0212900142" flag="0"/>
      <psa03 value="0.0237870306" flag="0"/>
      <psa10 value="0.0240335655" flag="0"/>
      <psa30 value="0.0218497972" flag="0"/>
    </comp>
    <comp name="--.HHN">
      <acc value="0.0160280059" flag="0"/>
      <vel value="0.0213125991" flag="0"/>
      <psa03 value="0.0407357331" flag="0"/>
      <psa10 value="0.0382492711" flag="0"/>
      <psa30 value="0.0141963890" flag="0"/>
    </comp>
  </station>
  <station code="KLV" name="KLV" netid="HL" insttype="120" lat="38.0435" lon="22.1504">
    <comp name="--.HHZ">
      <acc value="0.2499451603" flag="0"/>
      <vel value="0.2873632964" flag="0"/>
      <psa03 value="0.3942382949" flag="0"/>
      <psa10 value="0.2630941461" flag="0"/>
      <psa30 value="0.2416117155" flag="0"/>
    </comp>
    <comp name="--.HHE">
      <acc value="0.2712437575" flag="0"/>
      <vel value="0.1718568393" flag="0"/>
      <psa03 value="0.4722239429" flag="0"/>
      <psa10 value="0.1192767867" flag="0"/>
      <psa30 value="0.1061527492" flag="0"/>
    </comp>
    <comp name="--.HHN">
      <acc value="0.2058994973" flag="0"/>
      <vel value="0.2749766101" flag="0"/>
      <psa03 value="0.4458925407" flag="0"/>
      <psa10 value="0.1716727402" flag="0"/>
      <psa30 value="0.1595303910" flag="0"/>
    </comp>
  </station>
  <station code="KYMI" name="KYMI" netid="HL" insttype="60" lat="38.6331" lon="24.1001">
    <comp name="--.HHZ">
      <acc value="0.0110413310" flag="0"/>
      <vel value="0.0221681431" flag="0"/>
      <psa03 value="0.0193280124" flag="0"/>
      <psa10 value="0.0247195943" flag="0"/>
      <psa30 value="0.0235418222" flag="0"/>
    </comp>
    <comp name="--.HHE">
      <acc value="0.0150306317" flag="0"/>
      <vel value="0.0348218128" flag="0"/>
      <psa03 value="0.0346749447" flag="0"/>
      <psa10 value="0.0361489363" flag="0"/>
      <psa30 value="0.0252293407" flag="0"/>
    </comp>
    <comp name="--.HHN">
      <acc value="0.0182216006" flag="0"/>
      <vel value="0.0389799331" flag="0"/>
      <psa03 value="0.0437233853" flag="0"/>
      <psa10 value="0.0409338407" flag="0"/>
      <psa30 value="0.0144599847" flag="0"/>
    </comp>
  </station>
  <station code="LKR" name="LKR" netid="HL" insttype="30" lat="38.6496" lon="22.9989">
    <comp name="--.HHE">
      <acc value="0.1674668219" flag="0"/>
      <vel value="0.0930985986" flag="0"/>
      <psa03 value="0.4087051370" flag="0"/>
      <psa10 value="0.0527463541" flag="0"/>
      <psa30 value="0.0524989895" flag="0"/>
    </comp>
    <comp name="--.HHN">
      <acc value="0.1312699764" flag="0"/>
      <vel value="0.0878317035" flag="0"/>
      <psa03 value="0.3899682311" flag="0"/>
      <psa10 value="0.0748972489" flag="0"/>
      <psa30 value="0.0437419203" flag="0"/>
    </comp>
    <comp name="--.HHZ">
      <acc value="0.1014405597" flag="0"/>
      <vel value="0.0927801312" flag="0"/>
      <psa03 value="0.1724533774" flag="0"/>
      <psa10 value="0.0546105076" flag="0"/>
      <psa30 value="0.0703952757" flag="0"/>
    </comp>
  </station>
  <station code="NEO" name="NEO" netid="HL" insttype="120" lat="39.3057" lon="23.2219">
    <comp name="--.HHZ">
      <acc value="0.0140045135" flag="0"/>
      <vel value="0.0213905331" flag="0"/>
      <psa03 value="0.0328098806" flag="0"/>
      <psa10 value="0.0223323343" flag="0"/>
      <psa30 value="0.0127222144" flag="0"/>
    </comp>
    <comp name="--.HHE">
