<?xml version="1.0" encoding="UTF-8" standalone="yes"?>
<!DOCTYPE earthquake SYSTEM "stationlist.dtd">
<stationlist created="" xmlns="ch.ethz.sed.shakemap.usgs.xml">
  <station code="FX14" name="FX14" netid="1J" insttype="" lat="37.9286" lon="15.907">
    <comp name="00.HHE">
      <acc value="0.0007984967" flag="0"/>
      <vel value="0.0012525536" flag="0"/>
      <psa03 value="0.0013249352" flag="0"/>
      <psa10 value="0.0022928763" flag="0"/>
      <psa30 value="0.0003745233" flag="0"/>
    </comp>
    <comp name="00.HHZ">
      <acc value="0.0002230582" flag="0"/>
      <vel value="0.0003452299" flag="0"/>
      <psa03 value="0.0005442782" flag="0"/>
      <psa10 value="0.0006313859" flag="0"/>
      <psa30 value="0.0000948486" flag="0"/>
    </comp>
    <comp name="00.HHN">
      <acc value="0.0004754052" flag="0"/>
      <vel value="0.0007547973" flag="0"/>
      <psa03 value="0.0008875489" flag="0"/>
      <psa10 value="0.0013198709" flag="0"/>
      <psa30 value="0.0002251448" flag="0"/>
    </comp>
  </station>
  <station code="OEM4" name="OEM4" netid="3D" insttype="" lat="38.4095" lon="14.9422">
    <comp name="--.HHE">
      <acc value="0.0246419601" flag="0"/>
      <vel value="0.0131967774" flag="0"/>
      <psa03 value="0.0693916051" flag="0"/>
      <psa10 value="0.0177088159" flag="0"/>
      <psa30 value="0.0017035877" flag="0"/>
    </comp>
    <comp name="--.HHZ">
      <acc value="0.0087075246" flag="0"/>
      <vel value="0.0045210560" flag="0"/>
      <psa03 value="0.0144149991" flag="0"/>
      <psa10 value="0.0100503976" flag="0"/>
      <psa30 value="0.0006510326" flag="0"/>
    </comp>
    <comp name="--.HHN">
      <acc value="0.0223680220" flag="0"/>
      <vel value="0.0101232160" flag="0"/>
      <psa03 value="0.0279180543" flag="0"/>
      <psa10 value="0.0132296979" flag="0"/>
      <psa30 value="0.0012293202" flag="0"/>
    </comp>
  </station>
  <station code="OEM5" name="OEM5" netid="3D" insttype="" lat="38.4223" lon="14.9661">
    <comp name="--.HHN">
      <acc value="0.0058304822" flag="0"/>
      <vel value="0.0076612140" flag="0"/>
      <psa03 value="0.0152574413" flag="0"/>
      <psa10 value="0.0114734622" flag="0"/>
      <psa30 value="0.0012862340" flag="0"/>
    </comp>
    <comp name="--.HHE">
      <acc value="0.0062210853" flag="0"/>
      <vel value="0.0063325407" flag="0"/>
      <psa03 value="0.0216105285" flag="0"/>
      <psa10 value="0.0176271338" flag="0"/>
      <psa30 value="0.0010299440" flag="0"/>
    </comp>
    <comp name="--.HHZ">
      <acc value="0.0050224369" flag="0"/>
      <vel value="0.0046860070" flag="0"/>
      <psa03 value="0.0140080346" flag="0"/>
      <psa10 value="0.0122106070" flag="0"/>
      <psa30 value="0.0004330195" flag="0"/>
    </comp>
  </station>
  <station code="OEM7" name="OEM7" netid="3D" insttype="" lat="38.4825" lon="14.9707">
    <comp name="--.HHN">
      <acc value="0.0180554091" flag="0"/>
      <vel value="0.0176011446" flag="0"/>
      <psa03 value="0.0342378080" flag="0"/>
      <psa10 value="0.0232031141" flag="0"/>
      <psa30 value="0.0015013086" flag="0"/>
    </comp>
    <comp name="--.HHE">
      <acc value="0.0130568961" flag="0"/>
      <vel value="0.0091798350" flag="0"/>
      <psa03 value="0.0318330587" flag="0"/>
      <psa10 value="0.0131340341" flag="0"/>
      <psa30 value="0.0007266776" flag="0"/>
    </comp>
    <comp name="--.HHZ">
      <acc value="0.0099971089" flag="0"/>
      <vel value="0.0042521360" flag="0"/>
      <psa03 value="0.0281366370" flag="0"/>
      <psa10 value="0.0066259142" flag="0"/>
      <psa30 value="0.0003230036" flag="0"/>
    </comp>
  </station>
  <station code="OEM9" name="OEM9" netid="3D" insttype="" lat="38.3879" lon="14.9908">
    <comp name="--.HHE">
      <acc value="0.0167362115" flag="0"/>
      <vel value="0.0099736300" flag="0"/>
      <psa03 value="0.0548914614" flag="0"/>
      <psa10 value="0.0113890631" flag="0"/>
      <psa30 value="0.0008767937" flag="0"/>
    </comp>
    <comp name="--.HHZ">
      <acc value="0.0086832211" flag="0"/>
      <vel value="0.0047564000" flag="0"/>
      <psa03 value="0.0291601766" flag="0"/>
      <psa10 value="0.0065539820" flag="0"/>
      <psa30 value="0.0003617485" flag="0"/>
    </comp>
    <comp name="--.HHN">
      <acc value="0.0122123441" flag="0"/>
      <vel value="0.0070358218" flag="0"/>
      <psa03 value="0.0305465888" flag="0"/>
      <psa10 value="0.0145071588" flag="0"/>
      <psa30 value="0.0006675650" flag="0"/>
    </comp>
  </station>
  <station code="SPAOL" name="SPAOL" netid="7C" insttype="" lat="37.5495" lon="15.0715">
    <comp name="--.HH1">
      <acc value="0.0702880234" flag="0"/>
      <vel value="0.0679528023" flag="0"/>
      <psa03 value="0.1891922785" flag="0"/>
      <psa10 value="0.1050074842" flag="0"/>
      <psa30 value="0.0065211841" flag="0"/>
    </comp>
    <comp name="--.HH2">
      <acc value="0.0865314561" flag="0"/>
      <vel value="0.0906100128" flag="0"/>
      <psa03 value="0.2414257817" flag="0"/>
      <psa10 value="0.1495851271" flag="0"/>
      <psa30 value="0.0156610091" flag="0"/>
    </comp>
    <comp name="--.HHZ">
      <acc value="0.0540691313" flag="0"/>
      <vel value="0.0490097068" flag="0"/>
      <psa03 value="0.1680135190" flag="0"/>
      <psa10 value="0.0913925699" flag="0"/>
      <psa30 value="0.0059405490" flag="0"/>
    </comp>
  </station>
  <station code="AIO" name="AIO" netid="IV" insttype="" lat="37.9712" lon="15.233">
    <comp name="--.HHE">
      <acc value="0.0769030512" flag="0"/>
      <vel value="0.0250673649" flag="0"/>
      <psa03 value="0.1344587018" flag="0"/>
      <psa10 value="0.0349464068" flag="0"/>
      <psa30 value="0.0029358360" flag="0"/>
    </comp>
    <comp name="--.HHN">
      <acc value="0.0605454727" flag="0"/>
      <vel value="0.0297005108" flag="0"/>
      <psa03 value="0.1613752797" flag="0"/>
      <psa10 value="0.0224990101" flag="0"/>
      <psa30 value="0.0020663648" flag="0"/>
    </comp>
    <comp name="--.HHZ">
      <acc value="0.0430375308" flag="0"/>
      <vel value="0.0141178441" flag="0"/>
      <psa03 value="0.0683448819" flag="0"/>
      <psa10 value="0.0113103919" flag="0"/>
      <psa30 value="0.0009597491" flag="0"/>
    </comp>
  </station>
  <station code="ALJA" name="ALJA" netid="IV" insttype="" lat="37.749" lon="13.7537">
    <comp name="--.HHE">
      <acc value="0.0019035302" flag="0"/>
      <vel value="0.0028643604" flag="0"/>
      <psa03 value="0.0064905921" flag="0"/>
      <psa10 value="0.0069331787" flag="0"/>
      <psa30 value="0.0005417488" flag="0"/>
    </comp>
    <comp name="--.HHN">
      <acc value="0.0023518646" flag="0"/>
      <vel value="0.0030077098" flag="0"/>
      <psa03 value="0.0057994821" flag="0"/>
      <psa10 value="0.0045869051" flag="0"/>
      <psa30 value="0.0006231592" flag="0"/>
    </comp>
    <comp name="--.HHZ">
      <acc value="0.0014386816" flag="0"/>
      <vel value="0.0016886511" flag="0"/>
      <psa03 value="0.0031712181" flag="0"/>
      <psa10 value="0.0036071067" flag="0"/>
      <psa30 value="0.0003702953" flag="0"/>
    </comp>
  </station>
  <station code="CSLB" name="CSLB" netid="IV" insttype="" lat="37.9374" lon="14.0579">
    <comp name="--.HHE">
      <acc value="0.0019193556" flag="0"/>
      <vel value="0.0013788558" flag="0"/>
      <psa03 value="0.0052479586" flag="0"/>
      <psa10 value="0.0027723224" flag="0"/>
      <psa30 value="0.0002161254" flag="0"/>
    </comp>
    <comp name="--.HHN">
      <acc value="0.0022708105" flag="0"/>
      <vel value="0.0030611148" flag="0"/>
      <psa03 value="0.0043360188" flag="0"/>
      <psa10 value="0.0048498629" flag="0"/>
      <psa30 value="0.0003833128" flag="0"/>
    </comp>
    <comp name="--.HHZ">
      <acc value="0.0016451222" flag="0"/>
      <vel value="0.0017365448" flag="0"/>
      <psa03 value="0.0034028347" flag="0"/>
      <psa10 value="0.0033973726" flag="0"/>
      <psa30 value="0.0003031801" flag="0"/>
    </comp>
  </station>
  <station code="ECHR" name="ECHR" netid="IV" insttype="" lat="37.6863" lon="14.9129">
    <comp name="--.HHE">
      <acc value="0.2230068840" flag="0"/>
      <vel value="0.1489984164" flag="0"/>
      <psa03 value="0.7521083130" flag="0"/>
      <psa10 value="0.1687940795" flag="0"/>
      <psa30 value="0.0108373441" flag="0"/>
    </comp>
    <comp name="--.HHN">
      <acc value="0.2723035921" flag="0"/>
      <vel value="0.1091462230" flag="0"/>
      <psa03 value="0.8707201034" flag="0"/>
      <psa10 value="0.0723547860" flag="0"/>
      <psa30 value="0.0074608163" flag="0"/>
    </comp>
    <comp name="--.HHZ">
      <acc value="0.1413060487" flag="0"/>
      <vel value="0.0626858198" flag="0"/>
      <psa03 value="0.3302726373" flag="0"/>
      <psa10 value="0.0391629912" flag="0"/>
      <psa30 value="0.0045528986" flag="0"/>
    </comp>
  </station>
  <station code="ECNE" name="ECNE" netid="IV" insttype="" lat="37.7653" lon="15.0018">
    <comp name="--.HHE">
      <acc value="1.0064892382" flag="0"/>
      <vel value="0.4491315730" flag="0"/>
      <psa03 value="2.1389087449" flag="0"/>
      <psa10 value="0.3607128091" flag="0"/>
      <psa30 value="0.0177023351" flag="0"/>
    </comp>
    <comp name="--.HHN">
      <acc value="1.3900006803" flag="0"/>
      <vel value="0.4137493156" flag="0"/>
      <psa03 value="2.1354785874" flag="0"/>
      <psa10 value="0.3913189753" flag="0"/>
      <psa30 value="0.0166200141" flag="0"/>
    </comp>
    <comp name="--.HHZ">
      <acc value="0.8473869997" flag="0"/>
      <vel value="0.2485604141" flag="0"/>
      <psa03 value="1.1902430169" flag="0"/>
      <psa10 value="0.3024088183" flag="0"/>
      <psa30 value="0.0133654363" flag="0"/>
    </comp>
  </station>
  <station code="ECTS" name="ECTS" netid="IV" insttype="" lat="37.882" lon="15.121">
    <comp name="--.HHN">
      <acc value="0.1799148838" flag="0"/>
      <vel value="0.0802178159" flag="0"/>
      <psa03 value="0.3571832659" flag="0"/>
      <psa10 value="0.0593899301" flag="0"/>
      <psa30 value="0.0040685082" flag="0"/>
    </comp>
    <comp name="--.HHE">
      <acc value="0.2378473111" flag="0"/>
      <vel value="0.0812259413" flag="0"/>
      <psa03 value="0.4327292703" flag="0"/>
      <psa10 value="0.0739828568" flag="0"/>
      <psa30 value="0.0073021441" flag="0"/>
    </comp>
    <comp name="--.HHZ">
      <acc value="0.1522761061" flag="0"/>
      <vel value="0.0554278286" flag="0"/>
      <psa03 value="0.2466349432" flag="0"/>
      <psa10 value="0.0265609445" flag="0"/>
      <psa30 value="0.0019482186" flag="0"/>
    </comp>
  </station>
  <station code="EFIU" name="EFIU" netid="IV" insttype="" lat="37.7896" lon="15.2103">
    <comp name="--.HHE">
      <acc value="0.1733887762" flag="0"/>
      <vel value="0.0680592344" flag="0"/>
      <psa03 value="0.1515666346" flag="0"/>
      <psa10 value="0.1501164277" flag="0"/>
      <psa30 value="0.0074549899" flag="0"/>
    </comp>
    <comp name="--.HHN">
      <acc value="0.1617110088" flag="0"/>
      <vel value="0.0686432836" flag="0"/>
      <psa03 value="0.4265239372" flag="0"/>
      <psa10 value="0.1131230723" flag="0"/>
      <psa30 value="0.0108237381" flag="0"/>
    </comp>
    <comp name="--.HHZ">
      <acc value="0.3000765486" flag="0"/>
      <vel value="0.0991771997" flag="0"/>
      <psa03 value="0.2637307791" flag="0"/>
      <psa10 value="0.2299492172" flag="0"/>
      <psa30 value="0.0084373211" flag="0"/>
    </comp>
  </station>
  <station code="EMAS" name="EMAS" netid="IV" insttype="" lat="37.5792" lon="15.0526">
    <comp name="--.HHE">
      <acc value="0.1515509236" flag="0"/>
      <vel value="0.0816517531" flag="0"/>
      <psa03 value="0.3184035045" flag="0"/>
      <psa10 value="0.0688763159" flag="0"/>
      <psa30 value="0.0086437999" flag="0"/>
    </comp>
    <comp name="--.HHN">
      <acc value="0.1252936667" flag="0"/>
      <vel value="0.0523323479" flag="0"/>
      <psa03 value="0.2086406404" flag="0"/>
      <psa10 value="0.0504952309" flag="0"/>
      <psa30 value="0.0064379862" flag="0"/>
    </comp>
    <comp name="--.HHZ">
      <acc value="0.1020593274" flag="0"/>
      <vel value="0.0238385645" flag="0"/>
      <psa03 value="0.1441575739" flag="0"/>
      <psa10 value="0.0276438104" flag="0"/>
      <psa30 value="0.0027497164" flag="0"/>
    </comp>
  </station>
  <station code="EMCN" name="EMCN" netid="IV" insttype="" lat="37.7912" lon="15.0336">
    <comp name="--.HHE">
      <acc value="3.6057154211" flag="0"/>
      <vel value="0.6027776065" flag="0"/>
      <psa03 value="2.3103192032" flag="0"/>
      <psa10 value="0.5688074547" flag="0"/>
      <psa30 value="0.0706636290" flag="0"/>
    </comp>
    <comp name="--.HHZ">
      <acc value="3.6925411246" flag="0"/>
      <vel value="0.6474010892" flag="0"/>
      <psa03 value="2.3424022158" flag="0"/>
      <psa10 value="0.3004178364" flag="0"/>
      <psa30 value="0.0847503019" flag="0"/>
    </comp>
    <comp name="--.HHN">
      <acc value="4.8804974739" flag="0"/>
      <vel value="0.7323391747" flag="0"/>
      <psa03 value="4.1177178881" flag="0"/>
      <psa10 value="0.5318478588" flag="0"/>
      <psa30 value="0.1117777700" flag="0"/>
    </comp>
  </station>
  <station code="EMFO" name="EMFO" netid="IV" insttype="" lat="37.7357" lon="15.0902">
    <comp name="--.HHE">
      <acc value="5.0122210003" flag="0"/>
      <vel value="0.6409484294" flag="0"/>
      <psa03 value="3.7795100982" flag="0"/>
      <psa10 value="0.4021099343" flag="0"/>
      <psa30 value="0.0881397803" flag="0"/>
    </comp>
    <comp name="--.HHN">
      <acc value="3.3592296459" flag="0"/>
      <vel value="0.5549543900" flag="0"/>
      <psa03 value="2.9106104795" flag="0"/>
      <psa10 value="0.3257724491" flag="0"/>
      <psa30 value="0.0297796519" flag="0"/>
    </comp>
    <comp name="--.HHZ">
      <acc value="2.4946825326" flag="0"/>
      <vel value="0.3180659583" flag="0"/>
      <psa03 value="1.0887326048" flag="0"/>
      <psa10 value="0.2287741421" flag="0"/>
      <psa30 value="0.0471276255" flag="0"/>
    </comp>
  </station>
  <station code="EMFS" name="EMFS" netid="IV" insttype="" lat="37.7196" lon="14.9979">
    <comp name="--.HHE">
      <acc value="2.3995495137" flag="0"/>
      <vel value="0.3767096484" flag="0"/>
      <psa03 value="2.2109420291" flag="0"/>
      <psa10 value="0.3181724003" flag="0"/>
      <psa30 value="0.0755237588" flag="0"/>
    </comp>
    <comp name="--.HHN">
      <acc value="3.2176152390" flag="0"/>
      <vel value="0.6869842918" flag="0"/>
      <psa03 value="3.7180594679" flag="0"/>
      <psa10 value="0.3707362127" flag="0"/>
      <psa30 value="0.0342592451" flag="0"/>
    </comp>
    <comp name="--.HHZ">
      <acc value="2.6931151935" flag="0"/>
      <vel value="0.3847906381" flag="0"/>
      <psa03 value="1.7658068952" flag="0"/>
      <psa10 value="0.2344330673" flag="0"/>
      <psa30 value="0.0572267240" flag="0"/>
    </comp>
  </station>
  <station code="EMPL" name="EMPL" netid="IV" insttype="" lat="37.679" lon="14.9703">
    <comp name="--.HHN">
      <acc value="0.8967080391" flag="0"/>
      <vel value="0.3571548558" flag="0"/>
      <psa03 value="1.7013248456" flag="0"/>
      <psa10 value="0.1884709779" flag="0"/>
      <psa30 value="0.0478087277" flag="0"/>
    </comp>
    <comp name="--.HHE">
      <acc value="0.9229002343" flag="0"/>
      <vel value="0.3257791111" flag="0"/>
      <psa03 value="2.3700419611" flag="0"/>
      <psa10 value="0.1613734619" flag="0"/>
      <psa30 value="0.0284212524" flag="0"/>
    </comp>
    <comp name="--.HHZ">
      <acc value="0.8028318896" flag="0"/>
      <vel value="0.2266503476" flag="0"/>
      <psa03 value="1.1997187826" flag="0"/>
      <psa10 value="0.1299878630" flag="0"/>
      <psa30 value="0.0375570487" flag="0"/>
    </comp>
  </station>
  <station code="EMSA" name="EMSA" netid="IV" insttype="" lat="37.498" lon="14.945">
    <comp name="--.HHE">
      <acc value="0.0648379816" flag="0"/>
      <vel value="0.0964733121" flag="0"/>
      <psa03 value="0.1139017765" flag="0"/>
      <psa10 value="0.1713591835" flag="0"/>
      <psa30 value="0.0140951810" flag="0"/>
    </comp>
    <comp name="--.HHZ">
      <acc value="0.0306691606" flag="0"/>
      <vel value="0.0372668111" flag="0"/>
      <psa03 value="0.0560539678" flag="0"/>
      <psa10 value="0.1122995208" flag="0"/>
      <psa30 value="0.0054441944" flag="0"/>
    </comp>
    <comp name="--.HHN">
      <acc value="0.0500347440" flag="0"/>
      <vel value="0.0687926741" flag="0"/>
      <psa03 value="0.1191396514" flag="0"/>
      <psa10 value="0.1245765748" flag="0"/>
      <psa30 value="0.0085291627" flag="0"/>
    </comp>
  </station>
  <station code="EMSG" name="EMSG" netid="IV" insttype="" lat="37.8208" lon="14.9498">
    <comp name="--.HHE">
      <acc value="0.7802223159" flag="0"/>
      <vel value="0.3234549932" flag="0"/>
      <psa03 value="1.0635624581" flag="0"/>
      <psa10 value="0.2122277542" flag="0"/>
      <psa30 value="0.0097652082" flag="0"/>
    </comp>
    <comp name="--.HHN">
      <acc value="0.8314159444" flag="0"/>
      <vel value="0.3012214113" flag="0"/>
      <psa03 value="1.4236596099" flag="0"/>
      <psa10 value="0.2316652902" flag="0"/>
      <psa30 value="0.0161000360" flag="0"/>
    </comp>
    <comp name="--.HHZ">
      <acc value="0.5656018324" flag="0"/>
      <vel value="0.1850452703" flag="0"/>
      <psa03 value="0.7742520294" flag="0"/>
      <psa10 value="0.1455081078" flag="0"/>
      <psa30 value="0.0058802349" flag="0"/>
    </comp>
  </station>
  <station code="EPDN" name="EPDN" netid="IV" insttype="" lat="37.7659" lon="15.0168">
    <comp name="--.HHE">
      <acc value="2.4118144149" flag="0"/>
      <vel value="0.5295713322" flag="0"/>
      <psa03 value="2.4079281374" flag="0"/>
      <psa10 value="0.4763525178" flag="0"/>
      <psa30 value="0.0306577368" flag="0"/>
    </comp>
    <comp name="--.HHN">
      <acc value="2.1125454167" flag="0"/>
      <vel value="0.5488833557" flag="0"/>
      <psa03 value="3.3902291142" flag="0"/>
      <psa10 value="0.5120854023" flag="0"/>
      <psa30 value="0.0224801979" flag="0"/>
    </comp>
    <comp name="--.HHZ">
      <acc value="1.4812323293" flag="0"/>
      <vel value="0.4259721909" flag="0"/>
      <psa03 value="1.9055663072" flag="0"/>
      <psa10 value="0.2257367417" flag="0"/>
      <psa30 value="0.0149516744" flag="0"/>
    </comp>
  </station>
  <station code="EPIT" name="EPIT" netid="IV" insttype="" lat="37.8113" lon="15.0567">
    <comp name="--.HHN">
      <acc value="1.7405227550" flag="0"/>
      <vel value="0.5857429939" flag="0"/>
      <psa03 value="3.8799768614" flag="0"/>
      <psa10 value="0.7130042177" flag="0"/>
      <psa30 value="0.0352168451" flag="0"/>
    </comp>
    <comp name="--.HHZ">
      <acc value="1.3700697592" flag="0"/>
      <vel value="0.3547941042" flag="0"/>
      <psa03 value="1.9746444075" flag="0"/>
      <psa10 value="0.2261625756" flag="0"/>
      <psa30 value="0.0202810455" flag="0"/>
    </comp>
  </station>
  <station code="EPMN" name="EPMN" netid="IV" insttype="" lat="37.8204" lon="15.1773">
    <comp name="--.HHE">
      <acc value="0.9132542847" flag="0"/>
      <vel value="0.2446511236" flag="0"/>
      <psa03 value="0.6956616300" flag="0"/>
      <psa10 value="0.1199438717" flag="0"/>
      <psa30 value="0.0065129966" flag="0"/>
    </comp>
    <comp name="--.HHN">
      <acc value="0.6346787470" flag="0"/>
      <vel value="0.2113059458" flag="0"/>
      <psa03 value="1.1587724493" flag="0"/>
      <psa10 value="0.1957267647" flag="0"/>
      <psa30 value="0.0138191301" flag="0"/>
    </comp>
    <comp name="--.HHZ">
      <acc value="0.3227324016" flag="0"/>
      <vel value="0.1078205371" flag="0"/>
      <psa03 value="0.4456008686" flag="0"/>
      <psa10 value="0.0739426525" flag="0"/>
      <psa30 value="0.0034132975" flag="0"/>
    </comp>
