<?xml version="1.0" encoding="UTF-8" standalone="yes"?>
<!DOCTYPE earthquake SYSTEM "stationlist.dtd">
<stationlist created="" xmlns="ch.ethz.sed.shakemap.usgs.xml">
  <station code="BNN" name="BNN" netid="KO" insttype="CMG-3T" lat="38.8521" lon="35.8472">
    <comp name="--.HHE">
      <acc value="0.0191523836" flag="0"/>
      <vel value="0.0188426842" flag="0"/>
      <psa03 value="0.0393926142" flag="0"/>
      <psa10 value="0.0361529912" flag="0"/>
      <psa30 value="0.0015306016" flag="0"/>
    </comp>
    <comp name="--.HHZ">
      <acc value="0.0109835092" flag="0"/>
      <vel value="0.0094279683" flag="0"/>
      <psa03 value="0.0277677790" flag="0"/>
      <psa10 value="0.0124309065" flag="0"/>
      <psa30 value="0.0014109777" flag="0"/>
    </comp>
    <comp name="--.HHN">
      <acc value="0.0177211000" flag="0"/>
      <vel value="0.0149755151" flag="0"/>
      <psa03 value="0.0463405545" flag="0"/>
      <psa10 value="0.0405579349" flag="0"/>
      <psa30 value="0.0021572540" flag="0"/>
    </comp>
  </station>
  <station code="CEYT" name="CEYT" netid="KO" insttype="CMG-3ESP" lat="37.0105" lon="35.7478">
    <comp name="--.HHE">
      <acc value="0.0136938287" flag="0"/>
      <vel value="0.0081129787" flag="0"/>
      <psa03 value="0.0558838573" flag="0"/>
      <psa10 value="0.0163885239" flag="0"/>
      <psa30 value="0.0023117093" flag="0"/>
    </comp>
    <comp name="--.HHN">
      <acc value="0.0088906812" flag="0"/>
      <vel value="0.0085591309" flag="0"/>
      <psa03 value="0.0338705886" flag="0"/>
      <psa10 value="0.0116775177" flag="0"/>
      <psa30 value="0.0013208955" flag="0"/>
    </comp>
    <comp name="--.HHZ">
      <acc value="0.0068677653" flag="0"/>
      <vel value="0.0074226546" flag="0"/>
      <psa03 value="0.0199417205" flag="0"/>
      <psa10 value="0.0089476445" flag="0"/>
      <psa30 value="0.0015384270" flag="0"/>
    </comp>
  </station>
  <station code="CMRD" name="CMRD" netid="KO" insttype="CMG-5T" lat="37.6623" lon="34.9902">
    <comp name="--.HNE">
      <acc value="0.0110015045" flag="0"/>
      <vel value="0.0101732315" flag="0"/>
      <psa03 value="0.0372454821" flag="0"/>
      <psa10 value="0.0163683136" flag="0"/>
      <psa30 value="0.0009166822" flag="0"/>
    </comp>
    <comp name="--.HNZ">
      <acc value="0.0080876928" flag="0"/>
      <vel value="0.0071119689" flag="0"/>
      <psa03 value="0.0303685970" flag="0"/>
      <psa10 value="0.0065209962" flag="0"/>
      <psa30 value="0.0009367672" flag="0"/>
    </comp>
    <comp name="--.HNN">
      <acc value="0.0115765860" flag="0"/>
      <vel value="0.0127568367" flag="0"/>
      <psa03 value="0.0273160416" flag="0"/>
      <psa10 value="0.0146741443" flag="0"/>
      <psa30 value="0.0009079922" flag="0"/>
    </comp>
  </station>
  <station code="DARE" name="DARE" netid="KO" insttype="CMG-3ESP" lat="38.5712" lon="37.4832">
    <comp name="--.HHE">
      <acc value="0.0475842250" flag="0"/>
      <vel value="0.0174522825" flag="0"/>
      <psa03 value="0.0545112817" flag="0"/>
      <psa10 value="0.0247370980" flag="0"/>
      <psa30 value="0.0012331395" flag="0"/>
    </comp>
    <comp name="--.HHN">
      <acc value="0.0357086807" flag="0"/>
      <vel value="0.0144485825" flag="0"/>
      <psa03 value="0.0690618583" flag="0"/>
      <psa10 value="0.0160370678" flag="0"/>
      <psa30 value="0.0008974900" flag="0"/>
    </comp>
    <comp name="--.HHZ">
      <acc value="0.0298692452" flag="0"/>
      <vel value="0.0128886063" flag="0"/>
      <psa03 value="0.0723001380" flag="0"/>
      <psa10 value="0.0233942971" flag="0"/>
      <psa30 value="0.0010624096" flag="0"/>
    </comp>
  </station>
  <station code="GAZ" name="GAZ" netid="KO" insttype="CMG-3T" lat="37.1721" lon="37.2096">
    <comp name="--.HHE">
      <acc value="0.0405161520" flag="0"/>
      <vel value="0.0329036052" flag="0"/>
      <psa03 value="0.0658125354" flag="0"/>
      <psa10 value="0.0693191482" flag="0"/>
      <psa30 value="0.0040487109" flag="0"/>
    </comp>
    <comp name="--.HHZ">
      <acc value="0.0373780321" flag="0"/>
      <vel value="0.0258279716" flag="0"/>
      <psa03 value="0.0709729203" flag="0"/>
      <psa10 value="0.0269594502" flag="0"/>
      <psa30 value="0.0026030457" flag="0"/>
    </comp>
    <comp name="--.HHN">
      <acc value="0.0458232121" flag="0"/>
      <vel value="0.0346477471" flag="0"/>
      <psa03 value="0.0738989776" flag="0"/>
      <psa10 value="0.0595285417" flag="0"/>
      <psa30 value="0.0054136616" flag="0"/>
    </comp>
  </station>
  <station code="SARI" name="SARI" netid="KO" insttype="CMG-3T" lat="38.4072" lon="36.4181">
    <comp name="--.HHN">
      <acc value="0.2990860206" flag="0"/>
      <vel value="0.1008067107" flag="0"/>
      <psa03 value="0.4973863372" flag="0"/>
      <psa10 value="0.0894670322" flag="0"/>
      <psa30 value="0.0078942018" flag="0"/>
    </comp>
  </station>
  <station code="ANDN" name="ANDN" netid="TU" insttype="T" lat="37.58" lon="36.3452">
    <comp name="--.HHN">
      <acc value="0.4690595953" flag="0"/>
      <vel value="0.2132145056" flag="0"/>
      <psa03 value="1.5496789228" flag="0"/>
      <psa10 value="0.1579982706" flag="0"/>
      <psa30 value="0.0103655341" flag="0"/>
    </comp>
    <comp name="--.HHZ">
      <acc value="0.1306484606" flag="0"/>
      <vel value="0.0827456067" flag="0"/>
      <psa03 value="0.3188275025" flag="0"/>
      <psa10 value="0.1611633356" flag="0"/>
      <psa30 value="0.0077240534" flag="0"/>
    </comp>
    <comp name="--.HHE">
      <acc value="0.2087940141" flag="0"/>
      <vel value="0.1558746658" flag="0"/>
      <psa03 value="0.3993639041" flag="0"/>
      <psa10 value="0.2118172937" flag="0"/>
      <psa30 value="0.0193386065" flag="0"/>
    </comp>
  </station>
</stationlist>
