<?xml version="1.0" encoding="UTF-8" standalone="yes"?>
<!DOCTYPE earthquake SYSTEM "stationlist.dtd">
<stationlist created="" xmlns="ch.ethz.sed.shakemap.usgs.xml">
  <station code="BNN" name="BNN" netid="KO" insttype="CMG-3T" lat="38.8521" lon="35.8472">
    <comp name="--.HHZ">
      <acc value="0.0109835092" flag="0"/>
      <vel value="0.0094279678" flag="0"/>
      <psa03 value="0.0277677790" flag="0"/>
      <psa10 value="0.0124309066" flag="0"/>
      <psa30 value="0.0014111402" flag="0"/>
    </comp>
    <comp name="--.HHN">
      <acc value="0.0177211001" flag="0"/>
      <vel value="0.0149755234" flag="0"/>
      <psa03 value="0.0463405545" flag="0"/>
      <psa10 value="0.0405579348" flag="0"/>
      <psa30 value="0.0021571565" flag="0"/>
    </comp>
    <comp name="--.HHE">
      <acc value="0.0191523839" flag="0"/>
      <vel value="0.0188426874" flag="0"/>
      <psa03 value="0.0393926142" flag="0"/>
      <psa10 value="0.0361529913" flag="0"/>
      <psa30 value="0.0015305968" flag="0"/>
    </comp>
  </station>
  <station code="CEYT" name="CEYT" netid="KO" insttype="CMG-3ESP" lat="37.0105" lon="35.7478">
    <comp name="--.HHE">
      <acc value="0.0136938287" flag="0"/>
      <vel value="0.0081129759" flag="0"/>
      <psa03 value="0.0558838573" flag="0"/>
      <psa10 value="0.0163885239" flag="0"/>
      <psa30 value="0.0023116922" flag="0"/>
    </comp>
    <comp name="--.HHN">
      <acc value="0.0088906813" flag="0"/>
      <vel value="0.0085591272" flag="0"/>
      <psa03 value="0.0338705886" flag="0"/>
      <psa10 value="0.0116775177" flag="0"/>
      <psa30 value="0.0013208958" flag="0"/>
    </comp>
    <comp name="--.HHZ">
      <acc value="0.0068677653" flag="0"/>
      <vel value="0.0074226537" flag="0"/>
      <psa03 value="0.0199417205" flag="0"/>
      <psa10 value="0.0089476445" flag="0"/>
      <psa30 value="0.0015384912" flag="0"/>
    </comp>
  </station>
  <station code="CMRD" name="CMRD" netid="KO" insttype="CMG-5T" lat="37.6623" lon="34.9902">
    <comp name="--.HNZ">
      <acc value="0.0080876938" flag="0"/>
      <vel value="0.0071119629" flag="0"/>
      <psa03 value="0.0303685970" flag="0"/>
      <psa10 value="0.0065209964" flag="0"/>
      <psa30 value="0.0009368677" flag="0"/>
    </comp>
    <comp name="--.HNE">
      <acc value="0.0110015038" flag="0"/>
      <vel value="0.0101732341" flag="0"/>
      <psa03 value="0.0372454821" flag="0"/>
      <psa10 value="0.0163683136" flag="0"/>
      <psa30 value="0.0009165263" flag="0"/>
    </comp>
    <comp name="--.HNN">
      <acc value="0.0115765878" flag="0"/>
      <vel value="0.0127568387" flag="0"/>
      <psa03 value="0.0273160416" flag="0"/>
      <psa10 value="0.0146741444" flag="0"/>
      <psa30 value="0.0009078810" flag="0"/>
    </comp>
  </station>
  <station code="DARE" name="DARE" netid="KO" insttype="CMG-3ESP" lat="38.5712" lon="37.4832">
    <comp name="--.HHE">
      <acc value="0.0475842250" flag="0"/>
      <vel value="0.0174522830" flag="0"/>
      <psa03 value="0.0545112817" flag="0"/>
      <psa10 value="0.0247370980" flag="0"/>
      <psa30 value="0.0012331378" flag="0"/>
    </comp>
    <comp name="--.HHN">
      <acc value="0.0357086809" flag="0"/>
      <vel value="0.0144485832" flag="0"/>
      <psa03 value="0.0690618583" flag="0"/>
      <psa10 value="0.0160370678" flag="0"/>
      <psa30 value="0.0008975041" flag="0"/>
    </comp>
    <comp name="--.HHZ">
      <acc value="0.0298692452" flag="0"/>
      <vel value="0.0128886052" flag="0"/>
      <psa03 value="0.0723001380" flag="0"/>
      <psa10 value="0.0233942971" flag="0"/>
      <psa30 value="0.0010624045" flag="0"/>
    </comp>
  </station>
  <station code="GAZ" name="GAZ" netid="KO" insttype="CMG-3T" lat="37.1721" lon="37.2096">
    <comp name="--.HHE">
      <acc value="0.0405161525" flag="0"/>
      <vel value="0.0329036051" flag="0"/>
      <psa03 value="0.0658125354" flag="0"/>
      <psa10 value="0.0693191482" flag="0"/>
      <psa30 value="0.0040486625" flag="0"/>
    </comp>
    <comp name="--.HHZ">
      <acc value="0.0373780317" flag="0"/>
      <vel value="0.0258279713" flag="0"/>
      <psa03 value="0.0709729203" flag="0"/>
      <psa10 value="0.0269594502" flag="0"/>
      <psa30 value="0.0026030526" flag="0"/>
    </comp>
    <comp name="--.HHN">
      <acc value="0.0458232118" flag="0"/>
      <vel value="0.0346477476" flag="0"/>
      <psa03 value="0.0738989776" flag="0"/>
      <psa10 value="0.0595285417" flag="0"/>
      <psa30 value="0.0054136914" flag="0"/>
    </comp>
  </station>
  <station code="SARI" name="SARI" netid="KO" insttype="CMG-3T" lat="38.4072" lon="36.4181">
    <comp name="--.HHN">
      <acc value="0.2990860206" flag="0"/>
      <vel value="0.1008067107" flag="0"/>
      <psa03 value="0.4973863372" flag="0"/>
      <psa10 value="0.0894670316" flag="0"/>
      <psa30 value="0.0078941049" flag="0"/>
    </comp>
    <comp name="--.HHZ">
      <acc value="0.1885143310" flag="0"/>
      <vel value="0.0700825933" flag="0"/>
      <psa03 value="0.2927062372" flag="0"/>
      <psa10 value="0.1071115495" flag="0"/>
      <psa30 value="0.0055659423" flag="0"/>
    </comp>
  </station>
  <station code="ANDN" name="ANDN" netid="TU" insttype="T" lat="37.58" lon="36.3452">
    <comp name="--.HHE">
      <acc value="0.2087940141" flag="0"/>
      <vel value="0.1558746655" flag="0"/>
      <psa03 value="0.3993639041" flag="0"/>
      <psa10 value="0.2118172935" flag="0"/>
      <psa30 value="0.0193386230" flag="0"/>
    </comp>
    <comp name="--.HHZ">
      <acc value="0.1306484605" flag="0"/>
      <vel value="0.0827456062" flag="0"/>
      <psa03 value="0.3188275025" flag="0"/>
      <psa10 value="0.1611633358" flag="0"/>
      <psa30 value="0.0077240755" flag="0"/>
    </comp>
    <comp name="--.HHN">
      <acc value="0.4690595953" flag="0"/>
      <vel value="0.2132145050" flag="0"/>
      <psa03 value="1.5496789228" flag="0"/>
      <psa10 value="0.1579982707" flag="0"/>
      <psa30 value="0.0103655015" flag="0"/>
    </comp>
  </station>
</stationlist>
