<stationlist created="1738818152">
	<station code="BODA" name="BODA" netid="KO" source="Bogazici University Kandilli Observatory And Earthquake Research Institute (KOERI)" insttype="" lat="37.0348" lon="27.4304">
		<comp name=".HNE" depth="0.0">
			<acc value="0.0085861340252016" flag="0"/>
			<vel value="0.00366061865648" flag="0"/>
			<psa03 value="0.0202070078859174" flag="0"/>
			<psa10 value="0.00322917508887502" flag="0"/>
			<psa30 value="0.000335534154574321" flag="0"/>
		</comp>
		<comp name=".HNN" depth="0.0">
			<acc value="0.0066533381138658" flag="0"/>
			<vel value="0.00318215464421" flag="0"/>
			<psa03 value="0.020952648426815" flag="0"/>
			<psa10 value="0.00472004627363161" flag="0"/>
			<psa30 value="0.000334260710839783" flag="0"/>
		</comp>
		<comp name=".HNZ" depth="0.0">
			<acc value="0.0049894267345662" flag="0"/>
			<vel value="0.00181796152933" flag="0"/>
			<psa03 value="0.00375822943300719" flag="0"/>
			<psa10 value="0.00215590461497423" flag="0"/>
			<psa30 value="0.000369958622526219" flag="0"/>
		</comp>
	</station>
	<station code="BODM" name="BODM" netid="KO" source="Bogazici University Kandilli Observatory And Earthquake Research Institute (KOERI)" insttype="" lat="37.031" lon="27.4247">
		<comp name=".HNE" depth="0.0">
			<acc value="0.0059576735412498" flag="0"/>
			<vel value="0.00334416445873" flag="0"/>
			<psa03 value="0.0151432609792075" flag="0"/>
			<psa10 value="0.00344810099789319" flag="0"/>
			<psa30 value="0.000337970826408365" flag="0"/>
		</comp>
		<comp name=".HNN" depth="0.0">
			<acc value="0.0072976729214304" flag="0"/>
			<vel value="0.00542882173459" flag="0"/>
			<psa03 value="0.0159221250751571" flag="0"/>
			<psa10 value="0.00662556578619881" flag="0"/>
			<psa30 value="0.000491015235682904" flag="0"/>
		</comp>
		<comp name=".HNZ" depth="0.0">
			<acc value="0.0072095397655956" flag="0"/>
			<vel value="0.00152639700748" flag="0"/>
			<psa03 value="0.00437244753079441" flag="0"/>
			<psa10 value="0.00143769723257448" flag="0"/>
			<psa30 value="0.000377221994314194" flag="0"/>
		</comp>
	</station>
	<station code="CESE" name="CESE" netid="KO" source="Bogazici University Kandilli Observatory And Earthquake Research Institute (KOERI)" insttype="" lat="38.3306" lon="26.2997">
		<comp name=".HNE" depth="0.0">
			<acc value="0.077374312652034" flag="0"/>
			<vel value="0.00580007016913" flag="0"/>
			<psa03 value="0.00437226262271294" flag="0"/>
			<psa10 value="0.00227632485784836" flag="0"/>
			<psa30 value="0.000948803582746571" flag="0"/>
		</comp>
		<comp name=".HNN" depth="0.0">
			<acc value="0.053130599034456" flag="0"/>
			<vel value="0.00426425439729" flag="0"/>
			<psa03 value="0.00631732409069363" flag="0"/>
			<psa10 value="0.00218407319975369" flag="0"/>
			<psa30 value="0.000763932638037634" flag="0"/>
		</comp>
		<comp name=".HNZ" depth="0.0">
			<acc value="0.011248043320836" flag="0"/>
			<vel value="0.00198600447342" flag="0"/>
			<psa03 value="0.00317266557716837" flag="0"/>
			<psa10 value="0.00147896977136465" flag="0"/>
			<psa30 value="0.000549295190194995" flag="0"/>
		</comp>
	</station>
	<station code="DATC" name="DATC" netid="KO" source="Bogazici University Kandilli Observatory And Earthquake Research Institute (KOERI)" insttype="" lat="36.7584" lon="27.6602">
		<comp name=".HNE" depth="0.0">
			<acc value="0.29568684776064" flag="0"/>
			<vel value="0.0247322938983" flag="0"/>
			<psa03 value="0.0267918555580983" flag="0"/>
			<psa10 value="0.0138471332421385" flag="0"/>
			<psa30 value="0.00171904950359482" flag="0"/>
		</comp>
		<comp name=".HNN" depth="0.0">
			<acc value="0.30244406098254" flag="0"/>
			<vel value="0.0283847923331" flag="0"/>
			<psa03 value="0.0356586304384377" flag="0"/>
			<psa10 value="0.00960490284015503" flag="0"/>
			<psa30 value="0.00131391131100866" flag="0"/>
		</comp>
		<comp name=".HNZ" depth="0.0">
			<acc value="0.6831127803879" flag="0"/>
			<vel value="0.0957750559682" flag="0"/>
			<psa03 value="0.101990995986055" flag="0"/>
			<psa10 value="0.013510660014919" flag="0"/>
			<psa30 value="0.00123698402745283" flag="0"/>
		</comp>
	</station>
	<station code="DIDI" name="DIDI" netid="KO" source="Bogazici University Kandilli Observatory And Earthquake Research Institute (KOERI)" insttype="" lat="37.3767" lon="27.2398">
		<comp name=".HNE" depth="0.0">
			<acc value="0.035456714256504" flag="0"/>
			<vel value="0.00862991297289" flag="0"/>
			<psa03 value="0.039526272067393" flag="0"/>
			<psa10 value="0.0123445737049238" flag="0"/>
			<psa30 value="0.0016916461257539" flag="0"/>
		</comp>
		<comp name=".HNN" depth="0.0">
			<acc value="0.038495446636956" flag="0"/>
			<vel value="0.00801664829885" flag="0"/>
			<psa03 value="0.0308782668878036" flag="0"/>
			<psa10 value="0.00965131216458179" flag="0"/>
			<psa30 value="0.00170721757395223" flag="0"/>
		</comp>
		<comp name=".HNZ" depth="0.0">
			<acc value="0.060668421919788" flag="0"/>
			<vel value="0.0080772810586" flag="0"/>
			<psa03 value="0.0221006802074274" flag="0"/>
			<psa10 value="0.0067458493794089" flag="0"/>
			<psa30 value="0.000849331211940967" flag="0"/>
		</comp>
	</station>
	<station code="GMLD" name="GMLD" netid="KO" source="Bogazici University Kandilli Observatory And Earthquake Research Institute (KOERI)" insttype="" lat="38.0766" lon="26.9157">
		<comp name=".HNE" depth="0.0">
			<acc value="0.011022122267154" flag="0"/>
			<vel value="0.00605771707074" flag="0"/>
			<psa03 value="0.0226433698038061" flag="0"/>
			<psa10 value="0.00552350418627983" flag="0"/>
			<psa30 value="0.000551617010668298" flag="0"/>
		</comp>
		<comp name=".HNN" depth="0.0">
			<acc value="0.013454129845152" flag="0"/>
			<vel value="0.00777653687077" flag="0"/>
			<psa03 value="0.0289570432620241" flag="0"/>
			<psa10 value="0.00700984296143199" flag="0"/>
			<psa30 value="0.000523420455288084" flag="0"/>
		</comp>
		<comp name=".HNZ" depth="0.0">
			<acc value="0.0081420599646408" flag="0"/>
			<vel value="0.00288230971534" flag="0"/>
			<psa03 value="0.0175709296128365" flag="0"/>
			<psa10 value="0.00180544413306291" flag="0"/>
			<psa30 value="0.000580499861516517" flag="0"/>
		</comp>
	</station>
	<station code="KUSD" name="KUSD" netid="KO" source="Bogazici University Kandilli Observatory And Earthquake Research Institute (KOERI)" insttype="" lat="37.8606" lon="27.2868">
		<comp name=".HNE" depth="0.0">
			<acc value="0.012702314247342" flag="0"/>
			<vel value="0.00243903288452" flag="0"/>
			<psa03 value="0.00766438793641609" flag="0"/>
			<psa10 value="0.00368989990650936" flag="0"/>
			<psa30 value="0.000394909051411388" flag="0"/>
		</comp>
		<comp name=".HNN" depth="0.0">
			<acc value="0.03146659324542" flag="0"/>
			<vel value="0.00257702599858" flag="0"/>
			<psa03 value="0.00759382206386926" flag="0"/>
			<psa10 value="0.0034806280745276" flag="0"/>
			<psa30 value="0.000649489900517329" flag="0"/>
		</comp>
		<comp name=".HNZ" depth="0.0">
			<acc value="0.0065220431432982" flag="0"/>
			<vel value="0.00154718879896" flag="0"/>
			<psa03 value="0.00404843290235296" flag="0"/>
			<psa10 value="0.00269343967716166" flag="0"/>
			<psa30 value="0.000565495950916278" flag="0"/>
		</comp>
	</station>
	<station code="YKAV" name="YKAV" netid="KO" source="Bogazici University Kandilli Observatory And Earthquake Research Institute (KOERI)" insttype="" lat="37.1246" lon="27.2801">
		<comp name=".HNE" depth="0.0">
			<acc value="0.01094245270773" flag="0"/>
			<vel value="0.00501292234753" flag="0"/>
			<psa03 value="0.0205828036139105" flag="0"/>
			<psa10 value="0.00865712505455687" flag="0"/>
			<psa30 value="0.0010196917162401" flag="0"/>
		</comp>
		<comp name=".HNN" depth="0.0">
			<acc value="0.011287015964622" flag="0"/>
			<vel value="0.00398934188995" flag="0"/>
			<psa03 value="0.0263726168480853" flag="0"/>
			<psa10 value="0.00618040004617174" flag="0"/>
			<psa30 value="0.000679717632124156" flag="0"/>
		</comp>
		<comp name=".HNZ" depth="0.0">
			<acc value="0.010977786296904" flag="0"/>
			<vel value="0.00376045496437" flag="0"/>
			<psa03 value="0.0133372272758527" flag="0"/>
			<psa10 value="0.00413657746546564" flag="0"/>
			<psa30 value="0.000736678176313869" flag="0"/>
		</comp>
	</station>
</stationlist>
