<?xml version="1.0" encoding="UTF-8" standalone="yes"?>
<!DOCTYPE earthquake SYSTEM "stationlist.dtd">
<stationlist created="" xmlns="ch.ethz.sed.shakemap.usgs.xml">
  <station code="APE" name="APE" netid="GE" insttype="STS-2/N" lat="37.0727" lon="25.523">
    <comp name="--.HHZ">
      <acc value="0.1430492133" flag="0"/>
      <vel value="0.0261847875" flag="0"/>
      <psa03 value="0.0944107322" flag="0"/>
      <psa10 value="0.0133413812" flag="0"/>
      <psa30 value="0.0019341551" flag="0"/>
    </comp>
    <comp name="--.HHN">
      <acc value="0.3123070138" flag="0"/>
      <vel value="0.0745432792" flag="0"/>
      <psa03 value="0.2649354729" flag="0"/>
      <psa10 value="0.0136878316" flag="0"/>
      <psa30 value="0.0019342605" flag="0"/>
    </comp>
    <comp name="--.HHE">
      <acc value="0.3102249022" flag="0"/>
      <vel value="0.0651891195" flag="0"/>
      <psa03 value="0.1769632098" flag="0"/>
      <psa10 value="0.0172965627" flag="0"/>
      <psa30 value="0.0032915556" flag="0"/>
    </comp>
  </station>
  <station code="THERA" name="THERA" netid="GE" insttype="STS-2/N" lat="36.367" lon="25.4753">
    <comp name="--.HHE">
      <acc value="0.2882880904" flag="0"/>
      <vel value="0.0775871010" flag="0"/>
      <psa03 value="0.3604930759" flag="0"/>
      <psa10 value="0.0556930259" flag="0"/>
      <psa30 value="0.0036180649" flag="0"/>
    </comp>
    <comp name="--.HHZ">
      <acc value="0.2030647433" flag="0"/>
      <vel value="0.0537483740" flag="0"/>
      <psa03 value="0.2524283071" flag="0"/>
      <psa10 value="0.0348053119" flag="0"/>
      <psa30 value="0.0031595116" flag="0"/>
    </comp>
    <comp name="--.HHN">
      <acc value="0.2028422500" flag="0"/>
      <vel value="0.0401546756" flag="0"/>
      <psa03 value="0.2118950404" flag="0"/>
      <psa10 value="0.0421318683" flag="0"/>
      <psa30 value="0.0018263904" flag="0"/>
    </comp>
  </station>
</stationlist>
