<?xml version="1.0" encoding="UTF-8" standalone="yes"?>
<!DOCTYPE earthquake SYSTEM "stationlist.dtd">
<stationlist created="" xmlns="ch.ethz.sed.shakemap.usgs.xml">
  <station code="APE" name="APE" netid="GE" insttype="STS-2/N" lat="37.0727" lon="25.523">
    <comp name="--.HHZ">
      <acc value="0.1430492133" flag="0"/>
      <vel value="0.0261847875" flag="0"/>
      <psa03 value="0.0944107322" flag="0"/>
      <psa10 value="0.0133413812" flag="0"/>
      <psa30 value="0.0019341551" flag="0"/>
    </comp>
    <comp name="--.HHN">
      <acc value="0.3123070138" flag="0"/>
      <vel value="0.0745432792" flag="0"/>
      <psa03 value="0.2649354729" flag="0"/>
      <psa10 value="0.0136878316" flag="0"/>
      <psa30 value="0.0019342605" flag="0"/>
    </comp>
    <comp name="--.HHE">
      <acc value="0.3102249022" flag="0"/>
      <vel value="0.0651891195" flag="0"/>
      <psa03 value="0.1769632098" flag="0"/>
      <psa10 value="0.0172965627" flag="0"/>
      <psa30 value="0.0032915556" flag="0"/>
    </comp>
  </station>
  <station code="THERA" name="THERA" netid="GE" insttype="STS-2/N" lat="36.367" lon="25.4753">
    <comp name="--.HHE">
      <acc value="0.2882880904" flag="0"/>
      <vel value="0.0775871010" flag="0"/>
      <psa03 value="0.3604930759" flag="0"/>
      <psa10 value="0.0556930259" flag="0"/>
      <psa30 value="0.0036180649" flag="0"/>
    </comp>
    <comp name="--.HHZ">
      <acc value="0.2030647433" flag="0"/>
      <vel value="0.0537483740" flag="0"/>
      <psa03 value="0.2524283071" flag="0"/>
      <psa10 value="0.0348053119" flag="0"/>
      <psa30 value="0.0031595116" flag="0"/>
    </comp>
    <comp name="--.HHN">
      <acc value="0.2028422500" flag="0"/>
      <vel value="0.0401546756" flag="0"/>
      <psa03 value="0.2118950404" flag="0"/>
      <psa10 value="0.0421318683" flag="0"/>
      <psa30 value="0.0018263904" flag="0"/>
    </comp>
  </station>
  <station code="SNT1" name="SNT1" netid="HA" insttype="30" lat="36.4159" lon="25.4282">
    <comp name="--.HHE">
      <acc value="0.2407220614" flag="0"/>
      <vel value="0.0894437532" flag="0"/>
      <psa03 value="0.2403863607" flag="0"/>
      <psa10 value="0.1122664963" flag="0"/>
      <psa30 value="0.0110960898" flag="0"/>
    </comp>
    <comp name="--.HHN">
      <acc value="0.2298812534" flag="0"/>
      <vel value="0.1007482682" flag="0"/>
      <psa03 value="0.3522345856" flag="0"/>
      <psa10 value="0.0743672389" flag="0"/>
      <psa30 value="0.0091079783" flag="0"/>
    </comp>
    <comp name="--.HHZ">
      <acc value="0.1830454468" flag="0"/>
      <vel value="0.0442275438" flag="0"/>
      <psa03 value="0.2257697323" flag="0"/>
      <psa10 value="0.0355648722" flag="0"/>
      <psa30 value="0.0040745985" flag="0"/>
    </comp>
  </station>
  <station code="NAX1" name="NAX1" netid="HI" insttype="CMG-5TD,ACCELEROMETER,GURALP" lat="37.1014" lon="25.3741">
    <comp name="--.HNE">
      <acc value="0.3144286378" flag="0"/>
      <vel value="0.0938577276" flag="0"/>
      <psa03 value="0.5514966737" flag="0"/>
      <psa10 value="0.0317517979" flag="0"/>
      <psa30 value="0.0033032930" flag="0"/>
    </comp>
    <comp name="--.HNN">
      <acc value="0.2553059357" flag="0"/>
      <vel value="0.0660415982" flag="0"/>
      <psa03 value="0.1692117574" flag="0"/>
      <psa10 value="0.0166465063" flag="0"/>
      <psa30 value="0.0017110870" flag="0"/>
    </comp>
    <comp name="--.HNZ">
      <acc value="0.1674469199" flag="0"/>
      <vel value="0.0406202831" flag="0"/>
      <psa03 value="0.1744399095" flag="0"/>
      <psa10 value="0.0221720019" flag="0"/>
      <psa30 value="0.0019706856" flag="0"/>
    </comp>
  </station>
  <station code="AMGA" name="AMGA" netid="HL" insttype="SMART24" lat="36.8316" lon="25.8938">
    <comp name="--.HHZ">
      <acc value="0.2267819548" flag="0"/>
      <vel value="0.0578824892" flag="0"/>
      <psa03 value="0.2170727140" flag="0"/>
      <psa10 value="0.0202767737" flag="0"/>
      <psa30 value="0.0042641945" flag="0"/>
    </comp>
    <comp name="--.HHN">
      <acc value="0.4314903274" flag="0"/>
      <vel value="0.0975768831" flag="0"/>
      <psa03 value="0.2830870017" flag="0"/>
      <psa10 value="0.0352581175" flag="0"/>
      <psa30 value="0.0049901266" flag="0"/>
    </comp>
    <comp name="--.HHE">
      <acc value="0.4379540545" flag="0"/>
      <vel value="0.0919597454" flag="0"/>
      <psa03 value="0.4182240425" flag="0"/>
      <psa10 value="0.0455901821" flag="0"/>
      <psa30 value="0.0056686668" flag="0"/>
    </comp>
  </station>
  <station code="MHLO" name="MHLO" netid="HL" insttype="20" lat="36.6898" lon="24.4017">
    <comp name="--.HHN">
      <acc value="0.2758581293" flag="0"/>
      <vel value="0.0916743558" flag="0"/>
      <psa03 value="0.8017784267" flag="0"/>
      <psa10 value="0.0907508896" flag="0"/>
      <psa30 value="0.0046892569" flag="0"/>
    </comp>
    <comp name="--.HHZ">
      <acc value="0.0967371392" flag="0"/>
      <vel value="0.0591107624" flag="0"/>
      <psa03 value="0.2422109078" flag="0"/>
      <psa10 value="0.0530851234" flag="0"/>
      <psa30 value="0.0039137615" flag="0"/>
    </comp>
    <comp name="--.HHE">
      <acc value="0.2347293092" flag="0"/>
      <vel value="0.1073362195" flag="0"/>
      <psa03 value="0.8900501541" flag="0"/>
      <psa10 value="0.0852081294" flag="0"/>
      <psa30 value="0.0055969552" flag="0"/>
    </comp>
  </station>
  <station code="SAP3" name="SAP3" netid="HL" insttype="LE3D20_SMART24" lat="36.4356" lon="25.3454">
    <comp name="--.HHE">
      <acc value="1.1167014076" flag="0"/>
      <vel value="0.3441303497" flag="0"/>
      <psa03 value="1.7597165942" flag="0"/>
      <psa10 value="0.2796622033" flag="0"/>
      <psa30 value="0.0342218244" flag="0"/>
    </comp>
    <comp name="--.HHN">
      <acc value="1.1432313666" flag="0"/>
      <vel value="0.2512396791" flag="0"/>
      <psa03 value="1.6747929122" flag="0"/>
      <psa10 value="0.2223451887" flag="0"/>
      <psa30 value="0.0262937823" flag="0"/>
    </comp>
    <comp name="--.HHZ">
      <acc value="1.0355607723" flag="0"/>
      <vel value="0.2163805565" flag="0"/>
      <psa03 value="0.7967528151" flag="0"/>
      <psa10 value="0.0991358095" flag="0"/>
      <psa30 value="0.0147053579" flag="0"/>
    </comp>
  </station>
  <station code="THERA" name="THERA" netid="HL" insttype="120" lat="36.367" lon="25.4753">
    <comp name="--.HHN">
      <acc value="0.1978368939" flag="0"/>
      <vel value="0.0397307636" flag="0"/>
      <psa03 value="0.2050931743" flag="0"/>
      <psa10 value="0.0417631490" flag="0"/>
      <psa30 value="0.0018235163" flag="0"/>
    </comp>
    <comp name="--.HHE">
      <acc value="0.2786124660" flag="0"/>
      <vel value="0.0753056758" flag="0"/>
      <psa03 value="0.3497474874" flag="0"/>
      <psa10 value="0.0551050507" flag="0"/>
      <psa30 value="0.0036108407" flag="0"/>
    </comp>
    <comp name="--.HHZ">
      <acc value="0.2119576381" flag="0"/>
      <vel value="0.0525208771" flag="0"/>
      <psa03 value="0.2454871461" flag="0"/>
      <psa10 value="0.0343527593" flag="0"/>
      <psa30 value="0.0031569499" flag="0"/>
    </comp>
  </station>
  <station code="THRA" name="THRA" netid="HL" insttype="CMG-5" lat="36.415" lon="25.4324">
    <comp name="00.HNZ">
      <acc value="0.5498178389" flag="0"/>
      <vel value="0.1973392357" flag="0"/>
      <psa03 value="1.3668117882" flag="0"/>
      <psa10 value="0.0863423032" flag="0"/>
      <psa30 value="0.0069334146" flag="0"/>
    </comp>
    <comp name="00.HNE">
      <acc value="0.7729400238" flag="0"/>
      <vel value="0.2886259501" flag="0"/>
      <psa03 value="1.6754065285" flag="0"/>
      <psa10 value="0.2498357390" flag="0"/>
      <psa30 value="0.0173842889" flag="0"/>
    </comp>
    <comp name="00.HNN">
      <acc value="0.7170199421" flag="0"/>
      <vel value="0.2831020315" flag="0"/>
      <psa03 value="1.0410630394" flag="0"/>
      <psa10 value="0.2239520569" flag="0"/>
      <psa30 value="0.0153254727" flag="0"/>
    </comp>
  </station>
  <station code="CMBO" name="CMBO" netid="HT" insttype="120P," lat="36.4709" lon="25.4056">
    <comp name="--.HHE">
      <acc value="1.0141932268" flag="0"/>
      <vel value="0.4632387619" flag="0"/>
      <psa03 value="1.4003389264" flag="0"/>
      <psa10 value="0.3036690437" flag="0"/>
      <psa30 value="0.0251237440" flag="0"/>
    </comp>
    <comp name="--.HHZ">
      <acc value="1.0862224937" flag="0"/>
      <vel value="0.2352202262" flag="0"/>
      <psa03 value="1.2746543108" flag="0"/>
      <psa10 value="0.1334299433" flag="0"/>
      <psa30 value="0.0180239617" flag="0"/>
    </comp>
    <comp name="--.HHN">
      <acc value="1.0364787913" flag="0"/>
      <vel value="0.4722239755" flag="0"/>
      <psa03 value="1.6416250056" flag="0"/>
      <psa10 value="0.3335298971" flag="0"/>
      <psa30 value="0.0216447728" flag="0"/>
    </comp>
  </station>
</stationlist>
