<?xml version="1.0" encoding="UTF-8" standalone="yes"?>
<!DOCTYPE earthquake SYSTEM "stationlist.dtd">
<stationlist created="" xmlns="ch.ethz.sed.shakemap.usgs.xml">
  <station code="GULT" name="GULT" netid="KO" insttype="CMG-3ESP" lat="40.432" lon="30.5152">
    <comp name="--.HHN">
      <acc value="0.0389526481" flag="0"/>
      <vel value="0.0202101202" flag="0"/>
      <psa03 value="0.0857573208" flag="0"/>
      <psa10 value="0.0168169805" flag="0"/>
      <psa30 value="0.0010831625" flag="0"/>
    </comp>
    <comp name="--.HHZ">
      <acc value="0.0358619160" flag="0"/>
      <vel value="0.0108102272" flag="0"/>
      <psa03 value="0.0538001837" flag="0"/>
      <psa10 value="0.0085301630" flag="0"/>
      <psa30 value="0.0004357399" flag="0"/>
    </comp>
  </station>
  <station code="KDZE" name="KDZE" netid="KO" insttype="CMG-3T" lat="41.3132" lon="31.443">
    <comp name="--.HHZ">
      <acc value="0.0953863630" flag="0"/>
      <vel value="0.0172407303" flag="0"/>
      <psa03 value="0.0900804539" flag="0"/>
      <psa10 value="0.0068266926" flag="0"/>
      <psa30 value="0.0005782662" flag="0"/>
    </comp>
    <comp name="--.HHE">
      <acc value="0.1463562715" flag="0"/>
      <vel value="0.0273069466" flag="0"/>
      <psa03 value="0.1146622237" flag="0"/>
      <psa10 value="0.0060866778" flag="0"/>
      <psa30 value="0.0004182705" flag="0"/>
    </comp>
    <comp name="--.HHN">
      <acc value="0.1707649490" flag="0"/>
      <vel value="0.0292590685" flag="0"/>
      <psa03 value="0.0750766350" flag="0"/>
      <psa10 value="0.0090977933" flag="0"/>
      <psa30 value="0.0004442517" flag="0"/>
    </comp>
  </station>
  <station code="RUZG" name="RUZG" netid="KO" insttype="CMG-6T" lat="40.7242" lon="31.7936">
    <comp name="--.HHN">
      <acc value="0.7546541116" flag="0"/>
      <vel value="0.2799530520" flag="0"/>
      <psa03 value="1.1271270279" flag="0"/>
      <psa10 value="0.0637622994" flag="0"/>
      <psa30 value="0.0075292714" flag="0"/>
    </comp>
    <comp name="--.HHE">
      <acc value="0.8470330189" flag="0"/>
      <vel value="0.2485754949" flag="0"/>
      <psa03 value="1.1081602555" flag="0"/>
      <psa10 value="0.0693939393" flag="0"/>
      <psa30 value="0.0062585215" flag="0"/>
    </comp>
    <comp name="--.HHZ">
      <acc value="0.2861877005" flag="0"/>
      <vel value="0.0702823835" flag="0"/>
      <psa03 value="0.2706135577" flag="0"/>
      <psa10 value="0.0266959591" flag="0"/>
      <psa30 value="0.0015158171" flag="0"/>
    </comp>
  </station>
  <station code="SAFT" name="SAFT" netid="KO" insttype="CMG-5T" lat="41.2398" lon="32.6871">
    <comp name="--.HNN">
      <acc value="0.0636536629" flag="0"/>
      <vel value="0.0139522505" flag="0"/>
      <psa03 value="0.0475234674" flag="0"/>
      <psa10 value="0.0065685933" flag="0"/>
      <psa30 value="0.0004930980" flag="0"/>
    </comp>
    <comp name="--.HNE">
      <acc value="0.0620108556" flag="0"/>
      <vel value="0.0140198734" flag="0"/>
      <psa03 value="0.0373323556" flag="0"/>
      <psa10 value="0.0029442601" flag="0"/>
      <psa30 value="0.0003674496" flag="0"/>
    </comp>
    <comp name="--.HNZ">
      <acc value="0.0373183302" flag="0"/>
      <vel value="0.0097921105" flag="0"/>
      <psa03 value="0.0248277370" flag="0"/>
      <psa10 value="0.0030361754" flag="0"/>
      <psa30 value="0.0002783973" flag="0"/>
    </comp>
  </station>
  <station code="SAUV" name="SAUV" netid="KO" insttype="CMG-6T" lat="40.7401" lon="30.3271">
    <comp name="--.HHN">
      <acc value="0.0234626116" flag="0"/>
      <vel value="0.0095502710" flag="0"/>
      <psa03 value="0.0551022233" flag="0"/>
      <psa10 value="0.0113060153" flag="0"/>
      <psa30 value="0.0005038486" flag="0"/>
    </comp>
    <comp name="--.HHZ">
      <acc value="0.0189216652" flag="0"/>
      <vel value="0.0067719404" flag="0"/>
      <psa03 value="0.0296751660" flag="0"/>
      <psa10 value="0.0046248298" flag="0"/>
      <psa30 value="0.0003619879" flag="0"/>
    </comp>
    <comp name="--.HHE">
      <acc value="0.0262264130" flag="0"/>
      <vel value="0.0107291341" flag="0"/>
      <psa03 value="0.0476766192" flag="0"/>
      <psa10 value="0.0070940831" flag="0"/>
      <psa30 value="0.0005292643" flag="0"/>
    </comp>
  </station>
  <station code="UVEZ" name="UVEZ" netid="KO" insttype="CMG-6T" lat="40.904" lon="30.9032">
    <comp name="--.HHE">
      <acc value="0.0666111094" flag="0"/>
      <vel value="0.0328233158" flag="0"/>
      <psa03 value="0.1723042695" flag="0"/>
      <psa10 value="0.0329437228" flag="0"/>
      <psa30 value="0.0014181870" flag="0"/>
    </comp>
    <comp name="--.HHZ">
      <acc value="0.0490605147" flag="0"/>
      <vel value="0.0240524166" flag="0"/>
      <psa03 value="0.1210943536" flag="0"/>
      <psa10 value="0.0119037606" flag="0"/>
      <psa30 value="0.0007587981" flag="0"/>
    </comp>
    <comp name="--.HHN">
      <acc value="0.0741242405" flag="0"/>
      <vel value="0.0563667131" flag="0"/>
      <psa03 value="0.2398999924" flag="0"/>
      <psa10 value="0.0352029491" flag="0"/>
      <psa30 value="0.0019262740" flag="0"/>
    </comp>
  </station>
  <station code="YUVA" name="YUVA" netid="KO" insttype="CMG-5T" lat="40.391" lon="31.6872">
    <comp name="--.HNZ">
      <acc value="0.0606238689" flag="0"/>
      <vel value="0.0270352613" flag="0"/>
      <psa03 value="0.1356846504" flag="0"/>
      <psa10 value="0.0132191515" flag="0"/>
      <psa30 value="0.0010078435" flag="0"/>
    </comp>
    <comp name="--.HNN">
      <acc value="0.0778703006" flag="0"/>
      <vel value="0.0350000277" flag="0"/>
      <psa03 value="0.2077662085" flag="0"/>
      <psa10 value="0.0192970759" flag="0"/>
      <psa30 value="0.0011906715" flag="0"/>
    </comp>
    <comp name="--.HNE">
      <acc value="0.0605887094" flag="0"/>
      <vel value="0.0389722894" flag="0"/>
      <psa03 value="0.1770860436" flag="0"/>
      <psa10 value="0.0297873768" flag="0"/>
      <psa30 value="0.0025897167" flag="0"/>
    </comp>
  </station>
</stationlist>
