<?xml version="1.0" encoding="UTF-8" standalone="yes"?>
<!DOCTYPE earthquake SYSTEM "stationlist.dtd">
<stationlist created="" xmlns="ch.ethz.sed.shakemap.usgs.xml">
  <station code="APE" name="APE" netid="GE" insttype="STS-2/N" lat="37.0727" lon="25.523">
    <comp name="--.HHE">
      <acc value="0.0932108507" flag="0"/>
      <vel value="0.0114511374" flag="0"/>
      <psa03 value="0.0298829727" flag="0"/>
      <psa10 value="0.0043176724" flag="0"/>
      <psa30 value="0.0010430235" flag="0"/>
    </comp>
    <comp name="--.HHZ">
      <acc value="0.0563195597" flag="0"/>
      <vel value="0.0057227571" flag="0"/>
      <psa03 value="0.0188314325" flag="0"/>
      <psa10 value="0.0042760184" flag="0"/>
      <psa30 value="0.0015048562" flag="0"/>
    </comp>
    <comp name="--.HHN">
      <acc value="0.1124485622" flag="0"/>
      <vel value="0.0160914688" flag="0"/>
      <psa03 value="0.0353438893" flag="0"/>
      <psa10 value="0.0043180375" flag="0"/>
      <psa30 value="0.0014455098" flag="0"/>
    </comp>
  </station>
  <station code="THERA" name="THERA" netid="GE" insttype="STS-2/N" lat="36.367" lon="25.4753">
    <comp name="--.HHE">
      <acc value="0.2592001693" flag="0"/>
      <vel value="0.0622511887" flag="0"/>
      <psa03 value="0.4701421210" flag="0"/>
      <psa10 value="0.0197427723" flag="0"/>
      <psa30 value="0.0017939503" flag="0"/>
    </comp>
    <comp name="--.HHN">
      <acc value="0.1341244132" flag="0"/>
      <vel value="0.0345259538" flag="0"/>
      <psa03 value="0.3041697102" flag="0"/>
      <psa10 value="0.0081943115" flag="0"/>
      <psa30 value="0.0007039312" flag="0"/>
    </comp>
    <comp name="--.HHZ">
      <acc value="0.1474441175" flag="0"/>
      <vel value="0.0399623141" flag="0"/>
      <psa03 value="0.2440225766" flag="0"/>
      <psa10 value="0.0187244834" flag="0"/>
      <psa30 value="0.0011935351" flag="0"/>
    </comp>
  </station>
</stationlist>
