<?xml version="1.0" encoding="UTF-8" standalone="yes"?>
<!DOCTYPE earthquake SYSTEM "stationlist.dtd">
<stationlist created="" xmlns="ch.ethz.sed.shakemap.usgs.xml">
  <station code="APE" name="APE" netid="GE" insttype="STS-2/N" lat="37.0727" lon="25.523">
    <comp name="--.HHE">
      <acc value="0.0932108505" flag="0"/>
      <vel value="0.0114511389" flag="0"/>
      <psa03 value="0.0298829727" flag="0"/>
      <psa10 value="0.0043176725" flag="0"/>
      <psa30 value="0.0010430120" flag="0"/>
    </comp>
    <comp name="--.HHZ">
      <acc value="0.0563195597" flag="0"/>
      <vel value="0.0057227567" flag="0"/>
      <psa03 value="0.0188314325" flag="0"/>
      <psa10 value="0.0042760185" flag="0"/>
      <psa30 value="0.0015048982" flag="0"/>
    </comp>
    <comp name="--.HHN">
      <acc value="0.1124485622" flag="0"/>
      <vel value="0.0160914696" flag="0"/>
      <psa03 value="0.0353438893" flag="0"/>
      <psa10 value="0.0043180377" flag="0"/>
      <psa30 value="0.0014453924" flag="0"/>
    </comp>
  </station>
  <station code="THERA" name="THERA" netid="GE" insttype="STS-2/N" lat="36.367" lon="25.4753">
    <comp name="--.HHE">
      <acc value="0.2592001693" flag="0"/>
      <vel value="0.0622511885" flag="0"/>
      <psa03 value="0.4701421210" flag="0"/>
      <psa10 value="0.0197427654" flag="0"/>
      <psa30 value="0.0017940185" flag="0"/>
    </comp>
    <comp name="--.HHN">
      <acc value="0.1341244131" flag="0"/>
      <vel value="0.0345259534" flag="0"/>
      <psa03 value="0.3041697102" flag="0"/>
      <psa10 value="0.0081943142" flag="0"/>
      <psa30 value="0.0007039222" flag="0"/>
    </comp>
    <comp name="--.HHZ">
      <acc value="0.1474441177" flag="0"/>
      <vel value="0.0399623140" flag="0"/>
      <psa03 value="0.2440225766" flag="0"/>
      <psa10 value="0.0187244807" flag="0"/>
      <psa30 value="0.0011934165" flag="0"/>
    </comp>
  </station>
  <station code="SNT1" name="SNT1" netid="HA" insttype="30" lat="36.4159" lon="25.4282">
    <comp name="--.HHE">
      <acc value="0.1570964491" flag="0"/>
      <vel value="0.0512816084" flag="0"/>
      <psa03 value="0.1440652234" flag="0"/>
      <psa10 value="0.0270886298" flag="0"/>
      <psa30 value="0.0032646185" flag="0"/>
    </comp>
    <comp name="--.HHN">
      <acc value="0.1628759645" flag="0"/>
      <vel value="0.0674970039" flag="0"/>
      <psa03 value="0.2082834710" flag="0"/>
      <psa10 value="0.0406611654" flag="0"/>
      <psa30 value="0.0024381557" flag="0"/>
    </comp>
    <comp name="--.HHZ">
      <acc value="0.1857529235" flag="0"/>
      <vel value="0.0385603637" flag="0"/>
      <psa03 value="0.1597582026" flag="0"/>
      <psa10 value="0.0229846822" flag="0"/>
      <psa30 value="0.0013723056" flag="0"/>
    </comp>
  </station>
  <station code="NAX1" name="NAX1" netid="HI" insttype="CMG-5TD,ACCELEROMETER,GURALP" lat="37.1014" lon="25.3741">
    <comp name="--.HNE">
      <acc value="0.0750362533" flag="0"/>
      <vel value="0.0089640491" flag="0"/>
      <psa03 value="0.0360154750" flag="0"/>
      <psa10 value="0.0036273427" flag="0"/>
      <psa30 value="0.0006075005" flag="0"/>
    </comp>
    <comp name="--.HNN">
      <acc value="0.0613182297" flag="0"/>
      <vel value="0.0095694341" flag="0"/>
      <psa03 value="0.0355083183" flag="0"/>
      <psa10 value="0.0030602672" flag="0"/>
      <psa30 value="0.0009149113" flag="0"/>
    </comp>
    <comp name="--.HNZ">
      <acc value="0.0442676494" flag="0"/>
      <vel value="0.0061182663" flag="0"/>
      <psa03 value="0.0183448634" flag="0"/>
      <psa10 value="0.0036142737" flag="0"/>
      <psa30 value="0.0013359358" flag="0"/>
    </comp>
  </station>
  <station code="APE" name="APE" netid="HL" insttype="120" lat="37.0727" lon="25.523">
    <comp name="--.HHN">
      <acc value="0.0958258113" flag="0"/>
      <vel value="0.0148468132" flag="0"/>
      <psa03 value="0.0334891180" flag="0"/>
      <psa10 value="0.0042857679" flag="0"/>
      <psa30 value="0.0014413175" flag="0"/>
    </comp>
    <comp name="--.HHE">
      <acc value="0.0831015296" flag="0"/>
      <vel value="0.0104138003" flag="0"/>
      <psa03 value="0.0289069672" flag="0"/>
      <psa10 value="0.0042488601" flag="0"/>
      <psa30 value="0.0010406626" flag="0"/>
    </comp>
    <comp name="--.HHZ">
      <acc value="0.0453722959" flag="0"/>
      <vel value="0.0055434894" flag="0"/>
      <psa03 value="0.0183428680" flag="0"/>
      <psa10 value="0.0042490890" flag="0"/>
      <psa30 value="0.0015014776" flag="0"/>
    </comp>
  </station>
  <station code="MHLO" name="MHLO" netid="HL" insttype="20" lat="36.6898" lon="24.4017">
    <comp name="--.HHE">
      <acc value="0.0563590474" flag="0"/>
      <vel value="0.0281738967" flag="0"/>
      <psa03 value="0.1112045994" flag="0"/>
      <psa10 value="0.0410720802" flag="0"/>
      <psa30 value="0.0022398246" flag="0"/>
    </comp>
    <comp name="--.HHN">
      <acc value="0.0594035140" flag="0"/>
      <vel value="0.0272222978" flag="0"/>
      <psa03 value="0.1535279105" flag="0"/>
      <psa10 value="0.0495900461" flag="0"/>
      <psa30 value="0.0021876634" flag="0"/>
    </comp>
    <comp name="--.HHZ">
      <acc value="0.0207257977" flag="0"/>
      <vel value="0.0161602158" flag="0"/>
      <psa03 value="0.0590322107" flag="0"/>
      <psa10 value="0.0246112395" flag="0"/>
      <psa30 value="0.0015156513" flag="0"/>
    </comp>
  </station>
  <station code="NISR" name="NISR" netid="HL" insttype="65535" lat="36.6106" lon="27.131">
    <comp name="--.HHE">
      <acc value="0.0000000000" flag="0"/>
      <vel value="-100.0000000000" flag="0"/>
      <psa03 value="0.0000000000" flag="0"/>
      <psa10 value="0.0000000000" flag="0"/>
      <psa30 value="0.0000000000" flag="0"/>
    </comp>
    <comp name="--.HHN">
      <acc value="0.0089654815" flag="0"/>
      <vel value="0.0038275423" flag="0"/>
      <psa03 value="0.0172148647" flag="0"/>
      <psa10 value="0.0023954413" flag="0"/>
      <psa30 value="0.0009664117" flag="0"/>
    </comp>
    <comp name="--.HHZ">
      <acc value="0.0057096105" flag="0"/>
      <vel value="0.0020480923" flag="0"/>
      <psa03 value="0.0075623945" flag="0"/>
      <psa10 value="0.0017100353" flag="0"/>
      <psa30 value="0.0001924591" flag="0"/>
    </comp>
  </station>
  <station code="SAP3" name="SAP3" netid="HL" insttype="LE3D20_SMART24" lat="36.4356" lon="25.3454">
    <comp name="--.HHN">
      <acc value="0.5708130316" flag="0"/>
      <vel value="0.2308178674" flag="0"/>
      <psa03 value="0.7482692701" flag="0"/>
      <psa10 value="0.0599930551" flag="0"/>
      <psa30 value="0.0084161290" flag="0"/>
    </comp>
    <comp name="--.HHE">
      <acc value="0.6314158890" flag="0"/>
      <vel value="0.1775853046" flag="0"/>
      <psa03 value="1.0069221396" flag="0"/>
      <psa10 value="0.0758195806" flag="0"/>
      <psa30 value="0.0092141740" flag="0"/>
    </comp>
    <comp name="--.HHZ">
      <acc value="0.5421961080" flag="0"/>
      <vel value="0.1281580707" flag="0"/>
      <psa03 value="0.5995623242" flag="0"/>
      <psa10 value="0.0320637597" flag="0"/>
      <psa30 value="0.0043866533" flag="0"/>
    </comp>
  </station>
  <station code="THERA" name="THERA" netid="HL" insttype="120" lat="36.367" lon="25.4753">
    <comp name="--.HHE">
      <acc value="0.2567874629" flag="0"/>
      <vel value="0.0607003596" flag="0"/>
      <psa03 value="0.4579865334" flag="0"/>
      <psa10 value="0.0193551967" flag="0"/>
      <psa30 value="0.0017916542" flag="0"/>
    </comp>
    <comp name="--.HHN">
      <acc value="0.1311150324" flag="0"/>
      <vel value="0.0333065342" flag="0"/>
      <psa03 value="0.2949143572" flag="0"/>
      <psa10 value="0.0080019336" flag="0"/>
      <psa30 value="0.0006913893" flag="0"/>
    </comp>
    <comp name="--.HHZ">
      <acc value="0.1464068683" flag="0"/>
      <vel value="0.0388684386" flag="0"/>
      <psa03 value="0.2373338677" flag="0"/>
      <psa10 value="0.0185348123" flag="0"/>
      <psa30 value="0.0011702403" flag="0"/>
    </comp>
  </station>
  <station code="THRA" name="THRA" netid="HL" insttype="CMG-5" lat="36.415" lon="25.4324">
    <comp name="00.HNZ">
      <acc value="0.3709536560" flag="0"/>
      <vel value="0.1005243721" flag="0"/>
      <psa03 value="0.6879905359" flag="0"/>
      <psa10 value="0.0371095501" flag="0"/>
      <psa30 value="0.0032542310" flag="0"/>
    </comp>
    <comp name="00.HNN">
      <acc value="0.4173778997" flag="0"/>
      <vel value="0.1398493444" flag="0"/>
      <psa03 value="0.9689317338" flag="0"/>
      <psa10 value="0.1141902991" flag="0"/>
      <psa30 value="0.0048475792" flag="0"/>
    </comp>
    <comp name="00.HNE">
      <acc value="0.6038827025" flag="0"/>
      <vel value="0.1813035251" flag="0"/>
      <psa03 value="0.9715719908" flag="0"/>
      <psa10 value="0.0594430769" flag="0"/>
      <psa30 value="0.0073939812" flag="0"/>
    </comp>
  </station>
</stationlist>
