<?xml version="1.0" encoding="UTF-8" standalone="yes"?>
<!DOCTYPE earthquake SYSTEM "stationlist.dtd">
<stationlist created="" xmlns="ch.ethz.sed.shakemap.usgs.xml">
  <station code="BERA" name="BERA" netid="AC" insttype="" commtype="DIG" lat="40.7081" lon="19.9455">
    <comp name="00.HHE">
      <acc value="0.0619011579" flag="0"/>
      <vel value="0.0189329227" flag="0"/>
      <psa03 value="0.1116506459" flag="0"/>
      <psa10 value="0.0136347754" flag="0"/>
      <psa30 value="0.0023250309" flag="0"/>
    </comp>
    <comp name="00.HHN">
      <acc value="0.0552878599" flag="0"/>
      <vel value="0.0194985407" flag="0"/>
      <psa03 value="0.1255741194" flag="0"/>
      <psa10 value="0.0173323288" flag="0"/>
      <psa30 value="0.0015603678" flag="0"/>
    </comp>
    <comp name="00.HHZ">
      <acc value="0.0459614522" flag="0"/>
      <vel value="0.0102768392" flag="0"/>
      <psa03 value="0.0696140648" flag="0"/>
      <psa10 value="0.0066880283" flag="0"/>
      <psa30 value="0.0015703181" flag="0"/>
    </comp>
  </station>
  <station code="PUK" name="PUK" netid="AC" insttype="" commtype="DIG" lat="42.0426" lon="19.8926">
    <comp name="00.HHZ">
      <acc value="0.0001169177" flag="0"/>
      <vel value="0.0000250471" flag="0"/>
      <psa03 value="0.0001404609" flag="0"/>
      <psa10 value="0.0000137786" flag="0"/>
      <psa30 value="0.0000010994" flag="0"/>
    </comp>
    <comp name="00.HHE">
      <acc value="0.0001437477" flag="0"/>
      <vel value="0.0000641731" flag="0"/>
      <psa03 value="0.0004035669" flag="0"/>
      <psa10 value="0.0000397053" flag="0"/>
      <psa30 value="0.0000043234" flag="0"/>
    </comp>
    <comp name="00.HHN">
      <acc value="0.0001218418" flag="0"/>
      <vel value="0.0000335451" flag="0"/>
      <psa03 value="0.0001589240" flag="0"/>
      <psa10 value="0.0000142967" flag="0"/>
      <psa30 value="0.0000035591" flag="0"/>
    </comp>
  </station>
  <station code="VLO" name="VLO" netid="AC" insttype="" commtype="DIG" lat="40.4686" lon="19.4955">
    <comp name="00.HHE">
      <acc value="0.0719870570" flag="0"/>
      <vel value="0.0318682595" flag="0"/>
      <psa03 value="0.1447442005" flag="0"/>
      <psa10 value="0.0276771273" flag="0"/>
      <psa30 value="0.0040608405" flag="0"/>
    </comp>
    <comp name="00.HHN">
      <acc value="0.0578123983" flag="0"/>
      <vel value="0.0274828713" flag="0"/>
      <psa03 value="0.1234418736" flag="0"/>
      <psa10 value="0.0329322076" flag="0"/>
      <psa30 value="0.0024577324" flag="0"/>
    </comp>
    <comp name="00.HHZ">
      <acc value="0.0274859188" flag="0"/>
      <vel value="0.0146661410" flag="0"/>
      <psa03 value="0.0787684093" flag="0"/>
      <psa10 value="0.0259712197" flag="0"/>
      <psa30 value="0.0014863799" flag="0"/>
    </comp>
  </station>
  <station code="LMS2" name="LMS2" netid="HI" insttype="CMG-5TD,ACCELEROMETER,GURALP" commtype="DIG" lat="40.835" lon="21.1418">
    <comp name="--.HNN">
      <acc value="0.0159929280" flag="0"/>
      <vel value="0.0063209911" flag="0"/>
      <psa03 value="0.0293488516" flag="0"/>
      <psa10 value="0.0066962303" flag="0"/>
      <psa30 value="0.0008896534" flag="0"/>
    </comp>
    <comp name="--.HNZ">
      <acc value="0.0054263440" flag="0"/>
      <vel value="0.0037262189" flag="0"/>
      <psa03 value="0.0110241478" flag="0"/>
      <psa10 value="0.0050359759" flag="0"/>
      <psa30 value="0.0007602306" flag="0"/>
    </comp>
    <comp name="--.HNE">
      <acc value="0.0158008478" flag="0"/>
      <vel value="0.0065607836" flag="0"/>
      <psa03 value="0.0474923001" flag="0"/>
      <psa10 value="0.0096794970" flag="0"/>
      <psa30 value="0.0004897747" flag="0"/>
    </comp>
  </station>
  <station code="BARME" name="BARME" netid="ME" insttype="CMG-5" commtype="DIG" lat="42.1055" lon="19.0889">
    <comp name="--.HNN">
      <acc value="0.0372052131" flag="0"/>
      <vel value="0.0133720141" flag="0"/>
      <psa03 value="0.0567927939" flag="0"/>
      <psa10 value="0.0109528973" flag="0"/>
      <psa30 value="0.0006944974" flag="0"/>
    </comp>
    <comp name="--.HNE">
      <acc value="0.0220116338" flag="0"/>
      <vel value="0.0074227756" flag="0"/>
      <psa03 value="0.0371797632" flag="0"/>
      <psa10 value="0.0085064298" flag="0"/>
      <psa30 value="0.0007638139" flag="0"/>
    </comp>
    <comp name="--.HNZ">
      <acc value="0.0148449465" flag="0"/>
      <vel value="0.0040439895" flag="0"/>
      <psa03 value="0.0180234303" flag="0"/>
      <psa10 value="0.0039975855" flag="0"/>
      <psa30 value="0.0002276293" flag="0"/>
    </comp>
  </station>
  <station code="BIA" name="BIA" netid="MK" insttype="120" commtype="DIG" lat="41.032" lon="21.3304">
    <comp name="00.HHZ">
      <acc value="0.0056246354" flag="0"/>
      <vel value="0.0046794374" flag="0"/>
      <psa03 value="0.0121678424" flag="0"/>
      <psa10 value="0.0087132053" flag="0"/>
      <psa30 value="0.0006253923" flag="0"/>
    </comp>
    <comp name="00.HHN">
      <acc value="0.0103164651" flag="0"/>
      <vel value="0.0065248638" flag="0"/>
      <psa03 value="0.0256753557" flag="0"/>
      <psa10 value="0.0205401794" flag="0"/>
      <psa30 value="0.0005736227" flag="0"/>
    </comp>
    <comp name="00.HHE">
      <acc value="0.0094632070" flag="0"/>
      <vel value="0.0071052525" flag="0"/>
      <psa03 value="0.0190284081" flag="0"/>
      <psa10 value="0.0095427339" flag="0"/>
      <psa30 value="0.0009546150" flag="0"/>
    </comp>
  </station>
  <station code="KRUS" name="KRUS" netid="MK" insttype="120" commtype="DIG" lat="41.3696" lon="21.2467">
    <comp name="00.HHN">
      <acc value="0.0118111622" flag="0"/>
      <vel value="0.0073317408" flag="0"/>
      <psa03 value="0.0429921727" flag="0"/>
      <psa10 value="0.0099818650" flag="0"/>
      <psa30 value="0.0006876091" flag="0"/>
    </comp>
    <comp name="00.HHZ">
      <acc value="0.0105563678" flag="0"/>
      <vel value="0.0050549823" flag="0"/>
      <psa03 value="0.0300535463" flag="0"/>
      <psa10 value="0.0047928438" flag="0"/>
      <psa30 value="0.0005781119" flag="0"/>
    </comp>
    <comp name="00.HHE">
      <acc value="0.0198444680" flag="0"/>
      <vel value="0.0093693435" flag="0"/>
      <psa03 value="0.0615330759" flag="0"/>
      <psa10 value="0.0050364213" flag="0"/>
      <psa30 value="0.0005968828" flag="0"/>
    </comp>
  </station>
  <station code="OHR" name="OHR" netid="MK" insttype="120" commtype="DIG" lat="41.1117" lon="20.7924">
    <comp name="00.HHE">
      <acc value="0.0210532835" flag="0"/>
      <vel value="0.0129229096" flag="0"/>
      <psa03 value="0.0484550389" flag="0"/>
      <psa10 value="0.0148809271" flag="0"/>
      <psa30 value="0.0015645860" flag="0"/>
    </comp>
    <comp name="00.HHN">
      <acc value="0.0532424303" flag="0"/>
      <vel value="0.0266530123" flag="0"/>
      <psa03 value="0.1608136359" flag="0"/>
      <psa10 value="0.0171559071" flag="0"/>
      <psa30 value="0.0011337729" flag="0"/>
    </comp>
    <comp name="00.HHZ">
      <acc value="0.0120901229" flag="0"/>
      <vel value="0.0068011194" flag="0"/>
      <psa03 value="0.0330622658" flag="0"/>
      <psa10 value="0.0075989598" flag="0"/>
      <psa30 value="0.0014591969" flag="0"/>
    </comp>
  </station>
  <station code="PDG" name="PDG" netid="MN" insttype="" commtype="DIG" lat="42.4297" lon="19.2608">
    <comp name="--.HHE">
      <acc value="0.0091229296" flag="0"/>
      <vel value="0.0045036638" flag="0"/>
      <psa03 value="0.0149537772" flag="0"/>
      <psa10 value="0.0024474062" flag="0"/>
      <psa30 value="0.0007146348" flag="0"/>
    </comp>
    <comp name="--.HHN">
      <acc value="0.0106060948" flag="0"/>
      <vel value="0.0035507777" flag="0"/>
      <psa03 value="0.0212412381" flag="0"/>
      <psa10 value="0.0024604920" flag="0"/>
      <psa30 value="0.0002758419" flag="0"/>
    </comp>
    <comp name="--.HHZ">
      <acc value="0.0065177230" flag="0"/>
      <vel value="0.0027157766" flag="0"/>
      <psa03 value="0.0142507267" flag="0"/>
      <psa10 value="0.0026213280" flag="0"/>
      <psa30 value="0.0004206841" flag="0"/>
    </comp>
  </station>
  <station code="TIR" name="TIR" netid="MN" insttype="" commtype="DIG" lat="41.3472" lon="19.8631">
    <comp name="--.HHE">
      <acc value="0.8126138794" flag="0"/>
      <vel value="0.2542111631" flag="0"/>
      <psa03 value="1.5003830923" flag="0"/>
      <psa10 value="0.1065761590" flag="0"/>
      <psa30 value="0.0115208737" flag="0"/>
    </comp>
    <comp name="--.HHN">
      <acc value="1.0613961605" flag="0"/>
      <vel value="0.4421762010" flag="0"/>
      <psa03 value="1.5024009733" flag="0"/>
      <psa10 value="0.3230700493" flag="0"/>
      <psa30 value="0.0306034458" flag="0"/>
    </comp>
    <comp name="--.HHZ">
      <acc value="0.4266114607" flag="0"/>
      <vel value="0.1573557944" flag="0"/>
      <psa03 value="0.6488765061" flag="0"/>
      <psa10 value="0.1331223054" flag="0"/>
      <psa30 value="0.0097983502" flag="0"/>
    </comp>
  </station>
</stationlist>
