<?xml version="1.0" encoding="UTF-8" standalone="yes"?>
<!DOCTYPE earthquake SYSTEM "stationlist.dtd">
<stationlist created="" xmlns="ch.ethz.sed.shakemap.usgs.xml">
  <station code="BERA" name="BERA" netid="AC" insttype="" commtype="DIG" lat="40.7081" lon="19.9455">
    <comp name="00.HHE">
      <acc value="0.0619011582" flag="0"/>
      <vel value="0.0189329221" flag="0"/>
      <psa03 value="0.1116506459" flag="0"/>
      <psa10 value="0.0136347754" flag="0"/>
      <psa30 value="0.0023250328" flag="0"/>
    </comp>
    <comp name="00.HHN">
      <acc value="0.0552878595" flag="0"/>
      <vel value="0.0194985413" flag="0"/>
      <psa03 value="0.1255741194" flag="0"/>
      <psa10 value="0.0173323288" flag="0"/>
      <psa30 value="0.0015603633" flag="0"/>
    </comp>
    <comp name="00.HHZ">
      <acc value="0.0459614523" flag="0"/>
      <vel value="0.0102768394" flag="0"/>
      <psa03 value="0.0696140648" flag="0"/>
      <psa10 value="0.0066880283" flag="0"/>
      <psa30 value="0.0015703155" flag="0"/>
    </comp>
  </station>
  <station code="PUK" name="PUK" netid="AC" insttype="" commtype="DIG" lat="42.0426" lon="19.8926">
    <comp name="00.HHE">
      <acc value="0.0001437478" flag="0"/>
      <vel value="0.0000641731" flag="0"/>
      <psa03 value="0.0004035669" flag="0"/>
      <psa10 value="0.0000397053" flag="0"/>
      <psa30 value="0.0000043234" flag="0"/>
    </comp>
    <comp name="00.HHN">
      <acc value="0.0001218418" flag="0"/>
      <vel value="0.0000335451" flag="0"/>
      <psa03 value="0.0001589240" flag="0"/>
      <psa10 value="0.0000142967" flag="0"/>
      <psa30 value="0.0000035591" flag="0"/>
    </comp>
    <comp name="00.HHZ">
      <acc value="0.0001169180" flag="0"/>
      <vel value="0.0000250471" flag="0"/>
      <psa03 value="0.0001404609" flag="0"/>
      <psa10 value="0.0000137786" flag="0"/>
      <psa30 value="0.0000010994" flag="0"/>
    </comp>
  </station>
  <station code="VLO" name="VLO" netid="AC" insttype="" commtype="DIG" lat="40.4686" lon="19.4955">
    <comp name="00.HHE">
      <acc value="0.0719870587" flag="0"/>
      <vel value="0.0318682560" flag="0"/>
      <psa03 value="0.1447442005" flag="0"/>
      <psa10 value="0.0276771273" flag="0"/>
      <psa30 value="0.0040607378" flag="0"/>
    </comp>
    <comp name="00.HHZ">
      <acc value="0.0274859201" flag="0"/>
      <vel value="0.0146661466" flag="0"/>
      <psa03 value="0.0787684093" flag="0"/>
      <psa10 value="0.0259712197" flag="0"/>
      <psa30 value="0.0014862515" flag="0"/>
    </comp>
    <comp name="00.HHN">
      <acc value="0.0578124001" flag="0"/>
      <vel value="0.0274828640" flag="0"/>
      <psa03 value="0.1234418736" flag="0"/>
      <psa10 value="0.0329322076" flag="0"/>
      <psa30 value="0.0024576843" flag="0"/>
    </comp>
  </station>
  <station code="BARME" name="BARME" netid="ME" insttype="CMG-5" commtype="DIG" lat="42.1055" lon="19.0889">
    <comp name="--.HNE">
      <acc value="0.0220115971" flag="0"/>
      <vel value="0.0074227761" flag="0"/>
      <psa03 value="0.0371797632" flag="0"/>
      <psa10 value="0.0085064298" flag="0"/>
      <psa30 value="0.0007638199" flag="0"/>
    </comp>
    <comp name="--.HNZ">
      <acc value="0.0148449780" flag="0"/>
      <vel value="0.0040439877" flag="0"/>
      <psa03 value="0.0180234303" flag="0"/>
      <psa10 value="0.0039975855" flag="0"/>
      <psa30 value="0.0002276403" flag="0"/>
    </comp>
    <comp name="--.HNN">
      <acc value="0.0372052241" flag="0"/>
      <vel value="0.0133720137" flag="0"/>
      <psa03 value="0.0567927939" flag="0"/>
      <psa10 value="0.0109528973" flag="0"/>
      <psa30 value="0.0006945385" flag="0"/>
    </comp>
  </station>
  <station code="OHR" name="OHR" netid="MK" insttype="120" commtype="DIG" lat="41.1117" lon="20.7924">
    <comp name="00.HHN">
      <acc value="0.0532424309" flag="0"/>
      <vel value="0.0266530122" flag="0"/>
      <psa03 value="0.1608136359" flag="0"/>
      <psa10 value="0.0171559071" flag="0"/>
      <psa30 value="0.0011337770" flag="0"/>
    </comp>
    <comp name="00.HHZ">
      <acc value="0.0120901236" flag="0"/>
      <vel value="0.0068011194" flag="0"/>
      <psa03 value="0.0330622658" flag="0"/>
      <psa10 value="0.0075989598" flag="0"/>
      <psa30 value="0.0014592109" flag="0"/>
    </comp>
    <comp name="00.HHE">
      <acc value="0.0210532832" flag="0"/>
      <vel value="0.0129229095" flag="0"/>
      <psa03 value="0.0484550389" flag="0"/>
      <psa10 value="0.0148809271" flag="0"/>
      <psa30 value="0.0015645921" flag="0"/>
    </comp>
  </station>
  <station code="PDG" name="PDG" netid="MN" insttype="" commtype="DIG" lat="42.4297" lon="19.2608">
    <comp name="--.HHE">
      <acc value="0.0091229303" flag="0"/>
      <vel value="0.0045036641" flag="0"/>
      <psa03 value="0.0149537772" flag="0"/>
      <psa10 value="0.0024474062" flag="0"/>
      <psa30 value="0.0007146457" flag="0"/>
    </comp>
    <comp name="--.HHZ">
      <acc value="0.0065177239" flag="0"/>
      <vel value="0.0027157767" flag="0"/>
      <psa03 value="0.0142507267" flag="0"/>
      <psa10 value="0.0026213280" flag="0"/>
      <psa30 value="0.0004206877" flag="0"/>
    </comp>
    <comp name="--.HHN">
      <acc value="0.0106060944" flag="0"/>
      <vel value="0.0035507777" flag="0"/>
      <psa03 value="0.0212412381" flag="0"/>
      <psa10 value="0.0024604920" flag="0"/>
      <psa30 value="0.0002758415" flag="0"/>
    </comp>
  </station>
  <station code="TIR" name="TIR" netid="MN" insttype="" commtype="DIG" lat="41.3472" lon="19.8631">
    <comp name="--.HHE">
      <acc value="0.8126138802" flag="0"/>
      <vel value="0.2542111631" flag="0"/>
      <psa03 value="1.5003830923" flag="0"/>
      <psa10 value="0.1065761583" flag="0"/>
      <psa30 value="0.0115207231" flag="0"/>
    </comp>
    <comp name="--.HHN">
      <acc value="1.0613961615" flag="0"/>
      <vel value="0.4421762018" flag="0"/>
      <psa03 value="1.5024009733" flag="0"/>
      <psa10 value="0.3230700482" flag="0"/>
      <psa30 value="0.0306034825" flag="0"/>
    </comp>
    <comp name="--.HHZ">
      <acc value="0.4266114597" flag="0"/>
      <vel value="0.1573557942" flag="0"/>
      <psa03 value="0.6488765061" flag="0"/>
      <psa10 value="0.1331223037" flag="0"/>
      <psa30 value="0.0097984373" flag="0"/>
    </comp>
  </station>
</stationlist>
