<stationlist created="1750820558">
	<station code="FLO2" name="FLO2" netid="HI" source="ITSAK Strong Motion Network" insttype="" lat="40.7801" lon="21.4052">
		<comp name=".HNE" depth="0.0">
			<acc value="0.02392646913309" flag="0"/>
			<vel value="0.0183982235361" flag="0"/>
			<psa03 value="0.058891312718617" flag="0"/>
			<psa10 value="0.0126180905740562" flag="0"/>
			<psa30 value="0.000710490399833552" flag="0"/>
		</comp>
		<comp name=".HNN" depth="0.0">
			<acc value="0.015465178123128" flag="0"/>
			<vel value="0.0114555294988" flag="0"/>
			<psa03 value="0.0475865273737415" flag="0"/>
			<psa10 value="0.0159983573126537" flag="0"/>
			<psa30 value="0.000981886295148541" flag="0"/>
		</comp>
		<comp name=".HNZ" depth="0.0">
			<acc value="0.0073442707507176" flag="0"/>
			<vel value="0.00658123950206" flag="0"/>
			<psa03 value="0.0269509858913626" flag="0"/>
			<psa10 value="0.00712573970154127" flag="0"/>
			<psa30 value="0.0008426812401643" flag="0"/>
		</comp>
	</station>
	<station code="GRE3" name="GRE3" netid="HI" source="ITSAK Strong Motion Network" insttype="" lat="40.08481" lon="21.43829">
		<comp name=".HNE" depth="0.0">
			<acc value="0.0034804692414402" flag="0"/>
			<vel value="0.00457120621441" flag="0"/>
			<psa03 value="0.00726353455891473" flag="0"/>
			<psa10 value="0.00815698536023745" flag="0"/>
			<psa30 value="0.0010038955656556" flag="0"/>
		</comp>
		<comp name=".HNN" depth="0.0">
			<acc value="0.0024743191350618" flag="0"/>
			<vel value="0.00284106817205" flag="0"/>
			<psa03 value="0.00679184185326916" flag="0"/>
			<psa10 value="0.00475067549017683" flag="0"/>
			<psa30 value="0.00113821310936545" flag="0"/>
		</comp>
		<comp name=".HNZ" depth="0.0">
			<acc value="0.0066666393413988" flag="0"/>
			<vel value="0.002941332408" flag="0"/>
			<psa03 value="0.00413032439497175" flag="0"/>
			<psa10 value="0.00429698871690239" flag="0"/>
			<psa30 value="0.000683885720738124" flag="0"/>
		</comp>
	</station>
	<station code="JAN2" name="JAN2" netid="HI" source="ITSAK Strong Motion Network" insttype="" lat="39.664" lon="20.85222">
		<comp name=".HNE" depth="0.0">
			<acc value="0.0078875446460682" flag="0"/>
			<vel value="0.00549675998095" flag="0"/>
			<psa03 value="0.0400343473915436" flag="0"/>
			<psa10 value="0.00833197945275051" flag="0"/>
			<psa30 value="0.00075375675560355" flag="0"/>
		</comp>
		<comp name=".HNN" depth="0.0">
			<acc value="0.010681301524188" flag="0"/>
			<vel value="0.0065589648009" flag="0"/>
			<psa03 value="0.0476410309844458" flag="0"/>
			<psa10 value="0.00361662544305991" flag="0"/>
			<psa30 value="0.00060035987506008" flag="0"/>
		</comp>
		<comp name=".HNZ" depth="0.0">
			<acc value="0.033963135098664" flag="0"/>
			<vel value="0.00417561953954" flag="0"/>
			<psa03 value="0.00859341237037465" flag="0"/>
			<psa10 value="0.00315002937711007" flag="0"/>
			<psa30 value="0.000377730387367876" flag="0"/>
		</comp>
	</station>
	<station code="KAS2" name="KAS2" netid="HI" source="ITSAK Strong Motion Network" insttype="" lat="40.504878" lon="21.280507">
		<comp name=".HNE" depth="0.0">
			<acc value="0.0065801979610116" flag="0"/>
			<vel value="0.00782009440082" flag="0"/>
			<psa03 value="0.00890490761477497" flag="0"/>
			<psa10 value="0.0159444174894079" flag="0"/>
			<psa30 value="0.00104298471762058" flag="0"/>
		</comp>
		<comp name=".HNN" depth="0.0">
			<acc value="0.0064089972280344" flag="0"/>
			<vel value="0.0067369427943" flag="0"/>
			<psa03 value="0.0156036899178706" flag="0"/>
			<psa10 value="0.0164496697098674" flag="0"/>
			<psa30 value="0.000926311571928202" flag="0"/>
		</comp>
		<comp name=".HNZ" depth="0.0">
			<acc value="0.0041555370955302" flag="0"/>
			<vel value="0.00463651429404" flag="0"/>
			<psa03 value="0.00708883939249345" flag="0"/>
			<psa10 value="0.00976546222643842" flag="0"/>
			<psa30 value="0.00059431187024663" flag="0"/>
		</comp>
	</station>
	<station code="KRK1" name="KRK1" netid="HI" source="ITSAK Strong Motion Network" insttype="" lat="39.618861" lon="19.9202">
		<comp name=".HNE" depth="0.0">
			<acc value="0.021101895577584" flag="0"/>
			<vel value="0.0128113105669" flag="0"/>
			<psa03 value="0.0390551601293699" flag="0"/>
			<psa10 value="0.0246531075223902" flag="0"/>
			<psa30 value="0.00100834367281936" flag="0"/>
		</comp>
		<comp name=".HNN" depth="0.0">
			<acc value="0.022045489897392" flag="0"/>
			<vel value="0.00954635699325" flag="0"/>
			<psa03 value="0.0433939058832853" flag="0"/>
			<psa10 value="0.0102959461184045" flag="0"/>
			<psa30 value="0.000571524579450494" flag="0"/>
		</comp>
		<comp name=".HNZ" depth="0.0">
			<acc value="0.013402285931322" flag="0"/>
			<vel value="0.00558655295597" flag="0"/>
			<psa03 value="0.0333451204089011" flag="0"/>
			<psa10 value="0.00524301560529048" flag="0"/>
			<psa30 value="0.000439638863500182" flag="0"/>
		</comp>
	</station>
	<station code="LMS2" name="LMS2" netid="HI" source="ITSAK Strong Motion Network" insttype="" lat="40.834985" lon="21.141815">
		<comp name=".HNE" depth="0.0">
			<acc value="0.015793013170614" flag="0"/>
			<vel value="0.00671995670154" flag="0"/>
			<psa03 value="0.0476561621951517" flag="0"/>
			<psa10 value="0.00968029689714361" flag="0"/>
			<psa30 value="0.000543632888012148" flag="0"/>
		</comp>
		<comp name=".HNN" depth="0.0">
			<acc value="0.016050503432784" flag="0"/>
			<vel value="0.00652568040061" flag="0"/>
			<psa03 value="0.0298770963985055" flag="0"/>
			<psa10 value="0.00673276007483108" flag="0"/>
			<psa30 value="0.000998541252621964" flag="0"/>
		</comp>
		<comp name=".HNZ" depth="0.0">
			<acc value="0.0053858713238964" flag="0"/>
			<vel value="0.00366307309013" flag="0"/>
			<psa03 value="0.0111378654330805" flag="0"/>
			<psa10 value="0.00499990200021543" flag="0"/>
			<psa30 value="0.000852353703835136" flag="0"/>
		</comp>
	</station>
	<station code="PTO1" name="PTO1" netid="HI" source="ITSAK Strong Motion Network" insttype="" lat="40.510132" lon="21.681568">
		<comp name=".HNE" depth="0.0">
			<acc value="0.0073515857918976" flag="0"/>
			<vel value="0.0114539243916" flag="0"/>
			<psa03 value="0.0145986962586495" flag="0"/>
			<psa10 value="0.018094967452778" flag="0"/>
			<psa30 value="0.00224268127496012" flag="0"/>
		</comp>
		<comp name=".HNN" depth="0.0">
			<acc value="0.0060384221491368" flag="0"/>
			<vel value="0.0100934459406" flag="0"/>
			<psa03 value="0.0153663877394377" flag="0"/>
			<psa10 value="0.0181347763399232" flag="0"/>
			<psa30 value="0.00224111242103278" flag="0"/>
		</comp>
		<comp name=".HNZ" depth="0.0">
			<acc value="0.0053038974208236" flag="0"/>
			<vel value="0.004538238077" flag="0"/>
			<psa03 value="0.0085330548563344" flag="0"/>
			<psa10 value="0.00679432227801041" flag="0"/>
			<psa30 value="0.000760285156827276" flag="0"/>
		</comp>
	</station>
	<station code="SIA1" name="SIA1" netid="HI" source="ITSAK Strong Motion Network" insttype="" lat="40.257308" lon="21.553432">
		<comp name=".HNE" depth="0.0">
			<acc value="0.003242820427617" flag="0"/>
			<vel value="0.00268306743212" flag="0"/>
			<psa03 value="0.0128692704947511" flag="0"/>
			<psa10 value="0.00473742914391683" flag="0"/>
			<psa30 value="0.00070410664360909" flag="0"/>
		</comp>
		<comp name=".HNN" depth="0.0">
			<acc value="0.003036243096156" flag="0"/>
			<vel value="0.00205506583448" flag="0"/>
			<psa03 value="0.0100569246854299" flag="0"/>
			<psa10 value="0.00345431609711389" flag="0"/>
			<psa30 value="0.000686831592972572" flag="0"/>
		</comp>
		<comp name=".HNZ" depth="0.0">
			<acc value="0.0027913992074226" flag="0"/>
			<vel value="0.00204822748374" flag="0"/>
			<psa03 value="0.00676628417063153" flag="0"/>
			<psa10 value="0.00250040267065536" flag="0"/>
			<psa30 value="0.000352640990943293" flag="0"/>
		</comp>
	</station>
	<station code="JAN" name="JAN" netid="HL" source="National Observatory of Athens Seismic Network" insttype="" lat="39.65616" lon="20.84874">
		<comp name="00.HNE" depth="0.0">
			<acc value="0.0025961087254764" flag="0"/>
			<vel value="0.00261611021494" flag="0"/>
			<psa03 value="0.00887514327322675" flag="0"/>
			<psa10 value="0.00426650622884439" flag="0"/>
			<psa30 value="0.000732512796209647" flag="0"/>
		</comp>
		<comp name="00.HNN" depth="0.0">
			<acc value="0.0026858832289584" flag="0"/>
			<vel value="0.00324452784695" flag="0"/>
			<psa03 value="0.00701654814520348" flag="0"/>
			<psa10 value="0.00458506498804262" flag="0"/>
			<psa30 value="0.000677315077130925" flag="0"/>
		</comp>
		<comp name="00.HNZ" depth="0.0">
			<acc value="0.00218662519023" flag="0"/>
			<vel value="0.00167732213509" flag="0"/>
			<psa03 value="0.00475217971742291" flag="0"/>
			<psa10 value="0.00280142034597505" flag="0"/>
			<psa30 value="0.000380649617210658" flag="0"/>
		</comp>
	</station>
	<station code="NASA" name="NASA" netid="HL" source="National Observatory of Athens Seismic Network" insttype="" lat="40.63111" lon="22.06706">
		<comp name="00.HNE" depth="0.0">
			<acc value="0.004790668166481" flag="0"/>
			<vel value="0.00383298989458" flag="0"/>
			<psa03 value="0.0142437105029859" flag="0"/>
			<psa10 value="0.0077473288475315" flag="0"/>
			<psa30 value="0.000748719911518886" flag="0"/>
		</comp>
		<comp name="00.HNN" depth="0.0">
			<acc value="0.0056642264038098" flag="0"/>
			<vel value="0.00452814787708" flag="0"/>
			<psa03 value="0.0147138952962696" flag="0"/>
			<psa10 value="0.00932716225372074" flag="0"/>
			<psa30 value="0.000998687824833612" flag="0"/>
		</comp>
		<comp name="00.HNZ" depth="0.0">
			<acc value="0.0030874201569258" flag="0"/>
			<vel value="0.00325322952572" flag="0"/>
			<psa03 value="0.00976035881543566" flag="0"/>
			<psa10 value="0.00519472693767769" flag="0"/>
			<psa30 value="0.000600083190064186" flag="0"/>
		</comp>
	</station>
	<station code="MESG" name="MESG" netid="IV" source="Italian National Seismic Network (INSN)" insttype="" lat="40.589408" lon="17.850423">
		<comp name=".HNE" depth="0.0">
			<acc value="0.0074709379823664" flag="0"/>
			<vel value="0.00261607729206" flag="0"/>
			<psa03 value="0.0110663359550122" flag="0"/>
			<psa10 value="0.00393834777121071" flag="0"/>
			<psa30 value="0.000654578102172044" flag="0"/>
		</comp>
		<comp name=".HNN" depth="0.0">
			<acc value="0.0051625732763064" flag="0"/>
			<vel value="0.00300837288295" flag="0"/>
			<psa03 value="0.0135468075657451" flag="0"/>
			<psa10 value="0.00468755271485261" flag="0"/>
			<psa30 value="0.000468075122264917" flag="0"/>
		</comp>
		<comp name=".HNZ" depth="0.0">
			<acc value="0.0038291457474252" flag="0"/>
			<vel value="0.00216498464881" flag="0"/>
			<psa03 value="0.00612815335592942" flag="0"/>
			<psa10 value="0.0023602451046536" flag="0"/>
			<psa30 value="0.000739989072726977" flag="0"/>
		</comp>
	</station>
	<station code="BARME" name="BARME" netid="ME" source="Montenegrin Seismic Network (ME)" insttype="" lat="42.10554" lon="19.088928">
		<comp name=".HNE" depth="0.0">
			<acc value="0.022269626548896" flag="0"/>
			<vel value="0.00741185246414" flag="0"/>
			<psa03 value="0.0372334144476419" flag="0"/>
			<psa10 value="0.00851076410886058" flag="0"/>
			<psa30 value="0.000833489068725985" flag="0"/>
		</comp>
		<comp name=".HNN" depth="0.0">
			<acc value="0.037326208896552" flag="0"/>
			<vel value="0.0134096096706" flag="0"/>
			<psa03 value="0.0569475381197281" flag="0"/>
			<psa10 value="0.0109521524013589" flag="0"/>
			<psa30 value="0.000755370247904269" flag="0"/>
		</comp>
		<comp name=".HNZ" depth="0.0">
			<acc value="0.014360046799182" flag="0"/>
			<vel value="0.00397743812419" flag="0"/>
			<psa03 value="0.0180475913977029" flag="0"/>
			<psa10 value="0.00400598912711836" flag="0"/>
			<psa30 value="0.000372655337628869" flag="0"/>
		</comp>
	</station>
	<station code="CEVME" name="CEVME" netid="ME" source="Montenegrin Seismic Network (ME)" insttype="" lat="42.546741" lon="18.917674">
		<comp name=".HNE" depth="0.0">
			<acc value="0.012989941352604" flag="0"/>
			<vel value="0.00555962114702" flag="0"/>
			<psa03 value="0.0299734048618206" flag="0"/>
			<psa10 value="0.00433821801066218" flag="0"/>
			<psa30 value="0.000868788073778128" flag="0"/>
		</comp>
		<comp name=".HNN" depth="0.0">
			<acc value="0.010803816431064" flag="0"/>
			<vel value="0.00350846079934" flag="0"/>
			<psa03 value="0.0135250404988246" flag="0"/>
			<psa10 value="0.00199809955179076" flag="0"/>
			<psa30 value="0.000364563551587961" flag="0"/>
		</comp>
		<comp name=".HNZ" depth="0.0">
			<acc value="0.0060639197185176" flag="0"/>
			<vel value="0.00306350338606" flag="0"/>
			<psa03 value="0.0125819623995139" flag="0"/>
			<psa10 value="0.00197460119826338" flag="0"/>
			<psa30 value="0.000428258370015137" flag="0"/>
		</comp>
	</station>
	<station code="DAGME" name="DAGME" netid="ME" source="Montenegrin Seismic Network (ME)" insttype="" lat="42.5684" lon="19.0677">
		<comp name=".HNE" depth="0.0">
			<acc value="0.035939202148506" flag="0"/>
			<vel value="0.0150690092773" flag="0"/>
			<psa03 value="0.0556142206273775" flag="0"/>
			<psa10 value="0.00696126786860152" flag="0"/>
			<psa30 value="0.000735042286695382" flag="0"/>
		</comp>
		<comp name=".HNN" depth="0.0">
			<acc value="0.022415496802038" flag="0"/>
			<vel value="0.0139170123094" flag="0"/>
			<psa03 value="0.0585822870387895" flag="0"/>
			<psa10 value="0.00674473086780446" flag="0"/>
			<psa30 value="0.000572013361829917" flag="0"/>
		</comp>
		<comp name=".HNZ" depth="0.0">
			<acc value="0.0011526141675246" flag="0"/>
			<vel value="0.000430683432784" flag="0"/>
			<psa03 value="0.0027272965554266" flag="0"/>
			<psa10 value="0.000377831963107153" flag="0"/>
			<psa30 value="4.5578302542092e-05" flag="0"/>
		</comp>
	</station>
	<station code="KOLME" name="KOLME" netid="ME" source="Montenegrin Seismic Network (ME)" insttype="" lat="42.8505" lon="19.5152">
		<comp name=".HNE" depth="0.0">
			<acc value="0.0025231077329154" flag="0"/>
			<vel value="0.00234035592051" flag="0"/>
			<psa03 value="0.00829864349442111" flag="0"/>
			<psa10 value="0.00280696719779968" flag="0"/>
			<psa30 value="0.000421694263300254" flag="0"/>
		</comp>
		<comp name=".HNN" depth="0.0">
			<acc value="0.0021382622261364" flag="0"/>
			<vel value="0.00186707463239" flag="0"/>
			<psa03 value="0.00533410661358841" flag="0"/>
			<psa10 value="0.00236106711223328" flag="0"/>
			<psa30 value="0.000335888110314053" flag="0"/>
		</comp>
		<comp name=".HNZ" depth="0.0">
			<acc value="0.002499888375732" flag="0"/>
			<vel value="0.00370336005725" flag="0"/>
			<psa03 value="0.00734073889207518" flag="0"/>
			<psa10 value="0.00194119609471311" flag="0"/>
			<psa30 value="0.000983650266170082" flag="0"/>
		</comp>
	</station>
</stationlist>
