<?xml version="1.0" encoding="UTF-8" standalone="yes"?>
<!DOCTYPE earthquake SYSTEM "stationlist.dtd">
<stationlist created="" xmlns="ch.ethz.sed.shakemap.usgs.xml">
  <station code="APE" name="APE" netid="GE" insttype="STS-2/N" lat="37.0727" lon="25.523">
    <comp name="--.HHZ">
      <acc value="0.0836466916" flag="0"/>
      <vel value="0.0147308123" flag="0"/>
      <psa03 value="0.1102451146" flag="0"/>
      <psa10 value="0.0088860383" flag="0"/>
      <psa30 value="0.0020232620" flag="0"/>
    </comp>
    <comp name="--.HHE">
      <acc value="0.1655224975" flag="0"/>
      <vel value="0.0245109288" flag="0"/>
      <psa03 value="0.1208724259" flag="0"/>
      <psa10 value="0.0108349614" flag="0"/>
      <psa30 value="0.0023080198" flag="0"/>
    </comp>
    <comp name="--.HHN">
      <acc value="0.1454922419" flag="0"/>
      <vel value="0.0383115883" flag="0"/>
      <psa03 value="0.0976627057" flag="0"/>
      <psa10 value="0.0135988834" flag="0"/>
      <psa30 value="0.0019945128" flag="0"/>
    </comp>
  </station>
  <station code="THERA" name="THERA" netid="GE" insttype="STS-2/N" lat="36.367" lon="25.4753">
    <comp name="--.HHE">
      <acc value="0.0713822071" flag="0"/>
      <vel value="0.0193623294" flag="0"/>
      <psa03 value="0.0782008833" flag="0"/>
      <psa10 value="0.0073976587" flag="0"/>
      <psa30 value="0.0021582000" flag="0"/>
    </comp>
    <comp name="--.HHN">
      <acc value="0.0561414057" flag="0"/>
      <vel value="0.0124565708" flag="0"/>
      <psa03 value="0.0591855014" flag="0"/>
      <psa10 value="0.0047808018" flag="0"/>
      <psa30 value="0.0009651267" flag="0"/>
    </comp>
    <comp name="--.HHZ">
      <acc value="0.0715512680" flag="0"/>
      <vel value="0.0159867195" flag="0"/>
      <psa03 value="0.0647202554" flag="0"/>
      <psa10 value="0.0048028700" flag="0"/>
      <psa30 value="0.0015222309" flag="0"/>
    </comp>
  </station>
</stationlist>
