<stationlist created="1739408555">
	<station code="ABEA" name="ABEA" netid="HC" source="Seismological Network of Crete (HC)" insttype="" lat="35.5163" lon="24.0113">
		<comp name=".HNE" depth="0.0">
			<acc value="0.0019859155872588" flag="0"/>
			<vel value="0.00145204987582" flag="0"/>
			<psa03 value="0.00127311835476893" flag="0"/>
			<psa10 value="0.00121862529825684" flag="0"/>
			<psa30 value="0.000649741010903713" flag="0"/>
		</comp>
		<comp name=".HNN" depth="0.0">
			<acc value="0.0013057911059148" flag="0"/>
			<vel value="0.0014646629009" flag="0"/>
			<psa03 value="0.00130521211493882" flag="0"/>
			<psa10 value="0.00122479293339713" flag="0"/>
			<psa30 value="0.00117983940857235" flag="0"/>
		</comp>
		<comp name=".HNZ" depth="0.0">
			<acc value="0.002190600196479" flag="0"/>
			<vel value="0.00122424289101" flag="0"/>
			<psa03 value="0.00110101507551831" flag="0"/>
			<psa10 value="0.00101149485813136" flag="0"/>
			<psa30 value="0.000663695685331827" flag="0"/>
		</comp>
	</station>
	<station code="ATEI" name="ATEI" netid="HC" source="Seismological Network of Crete (HC)" insttype="" lat="35.5193" lon="24.0432">
		<comp name=".HNE" depth="0.0">
			<acc value="0.0060901086690414" flag="0"/>
			<vel value="0.00296299214413" flag="0"/>
			<psa03 value="0.0134023904467723" flag="0"/>
			<psa10 value="0.00291524929283134" flag="0"/>
			<psa30 value="0.000762018604992864" flag="0"/>
		</comp>
		<comp name=".HNN" depth="0.0">
			<acc value="0.0048083242458048" flag="0"/>
			<vel value="0.00308058174085" flag="0"/>
			<psa03 value="0.0118167437387862" flag="0"/>
			<psa10 value="0.00274556766163145" flag="0"/>
			<psa30 value="0.000883441857018967" flag="0"/>
		</comp>
		<comp name=".HNZ" depth="0.0">
			<acc value="0.0038118697283226" flag="0"/>
			<vel value="0.0022989361642" flag="0"/>
			<psa03 value="0.00796545670888472" flag="0"/>
			<psa10 value="0.0023567719058229" flag="0"/>
			<psa30 value="0.000794321057373536" flag="0"/>
		</comp>
	</station>
	<station code="G0LD" name="G0LD" netid="HC" source="Seismological Network of Crete (HC)" insttype="" lat="35.4955" lon="24.0306">
		<comp name=".HNE" depth="0.0">
			<acc value="0.002059994154393" flag="0"/>
			<vel value="0.00223043003771" flag="0"/>
			<psa03 value="0.00209227548449422" flag="0"/>
			<psa10 value="0.00167147623491048" flag="0"/>
			<psa30 value="0.00138194738056335" flag="0"/>
		</comp>
		<comp name=".HNN" depth="0.0">
			<acc value="0.002671261926534" flag="0"/>
			<vel value="0.00216993990161" flag="0"/>
			<psa03 value="0.00143350463061378" flag="0"/>
			<psa10 value="0.00104882354191262" flag="0"/>
			<psa30 value="0.000774388903630225" flag="0"/>
		</comp>
		<comp name=".HNZ" depth="0.0">
			<acc value="0.0034944811521474" flag="0"/>
			<vel value="0.00442964435709" flag="0"/>
			<psa03 value="0.00221137386896852" flag="0"/>
			<psa10 value="0.00187614147266452" flag="0"/>
			<psa30 value="0.00257832371796112" flag="0"/>
		</comp>
	</station>
	<station code="PASK" name="PASK" netid="HC" source="Seismological Network of Crete (HC)" insttype="" lat="35.4996" lon="24.0121">
		<comp name=".HNE" depth="0.0">
			<acc value="0.007493359489338" flag="0"/>
			<vel value="0.0039014909215" flag="0"/>
			<psa03 value="0.0155362219068073" flag="0"/>
			<psa10 value="0.0057545330845579" flag="0"/>
			<psa30 value="0.000821986275475489" flag="0"/>
		</comp>
		<comp name=".HNN" depth="0.0">
			<acc value="0.0071025921303294" flag="0"/>
			<vel value="0.00435590253854" flag="0"/>
			<psa03 value="0.0199356096988215" flag="0"/>
			<psa10 value="0.00416183116964099" flag="0"/>
			<psa30 value="0.000949157668704021" flag="0"/>
		</comp>
		<comp name=".HNZ" depth="0.0">
			<acc value="0.0041446643136792" flag="0"/>
			<vel value="0.00284870896995" flag="0"/>
			<psa03 value="0.0126677050586995" flag="0"/>
			<psa10 value="0.00325493320147588" flag="0"/>
			<psa30 value="0.000842119067505773" flag="0"/>
		</comp>
	</station>
	<station code="POLY" name="POLY" netid="HC" source="Seismological Network of Crete (HC)" insttype="" lat="35.5226" lon="24.0602">
		<comp name=".HNE" depth="0.0">
			<acc value="0.00090301662277878" flag="0"/>
			<vel value="0.00158022689824" flag="0"/>
			<psa03 value="0.00114833941820417" flag="0"/>
			<psa10 value="0.00123191676469041" flag="0"/>
			<psa30 value="0.00093775576755005" flag="0"/>
		</comp>
		<comp name=".HNN" depth="0.0">
			<acc value="0.0010819416002514" flag="0"/>
			<vel value="0.00240803953644" flag="0"/>
			<psa03 value="0.00133160286059163" flag="0"/>
			<psa10 value="0.00119774661046018" flag="0"/>
			<psa30 value="0.000822528655152715" flag="0"/>
		</comp>
		<comp name=".HNZ" depth="0.0">
			<acc value="0.0015171102008502" flag="0"/>
			<vel value="0.00132325688483" flag="0"/>
			<psa03 value="0.00150954775403771" flag="0"/>
			<psa10 value="0.00111677956710397" flag="0"/>
			<psa30 value="0.000671802628629222" flag="0"/>
		</comp>
	</station>
	<station code="ARK1" name="ARK1" netid="HI" source="ITSAK Strong Motion Network" insttype="" lat="35.148777" lon="25.264194">
		<comp name=".HNE" depth="0.0">
			<acc value="0.0078986270240064" flag="0"/>
			<vel value="0.00489474908893" flag="0"/>
			<psa03 value="0.0192990427897869" flag="0"/>
			<psa10 value="0.00555750065715249" flag="0"/>
			<psa30 value="0.00127555470757314" flag="0"/>
		</comp>
		<comp name=".HNN" depth="0.0">
			<acc value="0.0093299318804838" flag="0"/>
			<vel value="0.00498983692972" flag="0"/>
			<psa03 value="0.0383946658539987" flag="0"/>
			<psa10 value="0.00610466940439039" flag="0"/>
			<psa30 value="0.000585257520437626" flag="0"/>
		</comp>
		<comp name=".HNZ" depth="0.0">
			<acc value="0.0055395033588792" flag="0"/>
			<vel value="0.00293821570585" flag="0"/>
			<psa03 value="0.0129991202425161" flag="0"/>
			<psa10 value="0.0039721206334983" flag="0"/>
			<psa30 value="0.000668653409589108" flag="0"/>
		</comp>
	</station>
	<station code="CH01" name="CH01" netid="HI" source="ITSAK Strong Motion Network" insttype="" lat="35.517" lon="24.0208">
		<comp name=".HNE" depth="0.0">
			<acc value="0.0070105481544894" flag="0"/>
			<vel value="0.00302633633191" flag="0"/>
			<psa03 value="0.0123575933695009" flag="0"/>
			<psa10 value="0.00312698105339917" flag="0"/>
			<psa30 value="0.000535814765931285" flag="0"/>
		</comp>
		<comp name=".HNN" depth="0.0">
			<acc value="0.0061198196960994" flag="0"/>
			<vel value="0.00276883567782" flag="0"/>
			<psa03 value="0.0135070966017825" flag="0"/>
			<psa10 value="0.00262815183653691" flag="0"/>
			<psa30 value="0.000498673920118523" flag="0"/>
		</comp>
		<comp name=".HNZ" depth="0.0">
			<acc value="0.014959427900802" flag="0"/>
			<vel value="0.00131273944852" flag="0"/>
			<psa03 value="0.00736178976579634" flag="0"/>
			<psa10 value="0.00207144526995679" flag="0"/>
			<psa30 value="0.000288082078815569" flag="0"/>
		</comp>
	</station>
	<station code="CH02" name="CH02" netid="HI" source="ITSAK Strong Motion Network" insttype="" lat="35.5145" lon="24.0315">
		<comp name=".HNE" depth="0.0">
			<acc value="0.0053280731056494" flag="0"/>
			<vel value="0.00247049964551" flag="0"/>
			<psa03 value="0.0194816251974905" flag="0"/>
			<psa10 value="0.00262735092410274" flag="0"/>
			<psa30 value="0.000582576144894031" flag="0"/>
		</comp>
		<comp name=".HNN" depth="0.0">
			<acc value="0.0072794872319436" flag="0"/>
			<vel value="0.00310734251903" flag="0"/>
			<psa03 value="0.0174717707003153" flag="0"/>
			<psa10 value="0.00278974816650113" flag="0"/>
			<psa30 value="0.0004477786214715" flag="0"/>
		</comp>
		<comp name=".HNZ" depth="0.0">
			<acc value="0.0034185564613602" flag="0"/>
			<vel value="0.00124971102784" flag="0"/>
			<psa03 value="0.00628156586247826" flag="0"/>
			<psa10 value="0.00268941847327516" flag="0"/>
			<psa30 value="0.000205874354311205" flag="0"/>
		</comp>
	</station>
	<station code="CH03" name="CH03" netid="HI" source="ITSAK Strong Motion Network" insttype="" lat="35.53303" lon="24.0705">
		<comp name=".HNE" depth="0.0">
			<acc value="0.003355503168678" flag="0"/>
			<vel value="0.00174920249414" flag="0"/>
			<psa03 value="0.00918664502846824" flag="0"/>
			<psa10 value="0.00253799773926828" flag="0"/>
			<psa30 value="0.000250776326242482" flag="0"/>
		</comp>
		<comp name=".HNN" depth="0.0">
			<acc value="0.0042175782551868" flag="0"/>
			<vel value="0.00227298563522" flag="0"/>
			<psa03 value="0.0126633870643111" flag="0"/>
			<psa10 value="0.00327493608906758" flag="0"/>
			<psa30 value="0.000428178260541598" flag="0"/>
		</comp>
		<comp name=".HNZ" depth="0.0">
			<acc value="0.0030066781685634" flag="0"/>
			<vel value="0.00149148239752" flag="0"/>
			<psa03 value="0.00639023321743205" flag="0"/>
			<psa10 value="0.00120638577651274" flag="0"/>
			<psa30 value="0.000179402288166787" flag="0"/>
		</comp>
	</station>
	<station code="GOR1" name="GOR1" netid="HI" source="ITSAK Strong Motion Network" insttype="" lat="35.0582" lon="24.9628">
		<comp name=".HNE" depth="0.0">
			<acc value="0.0025330103643492" flag="0"/>
			<vel value="0.00238232917585" flag="0"/>
			<psa03 value="0.00954581400394259" flag="0"/>
			<psa10 value="0.00373071010998519" flag="0"/>
			<psa30 value="0.000763482347790193" flag="0"/>
		</comp>
		<comp name=".HNN" depth="0.0">
			<acc value="0.002911665496524" flag="0"/>
			<vel value="0.00219249146083" flag="0"/>
			<psa03 value="0.0123793200691971" flag="0"/>
			<psa10 value="0.00331649212320093" flag="0"/>
			<psa30 value="0.000746124791687991" flag="0"/>
		</comp>
		<comp name=".HNZ" depth="0.0">
			<acc value="0.0028100131455516" flag="0"/>
			<vel value="0.00159041854992" flag="0"/>
			<psa03 value="0.00889586990666417" flag="0"/>
			<psa10 value="0.00294870174327011" flag="0"/>
			<psa30 value="0.000391050957290091" flag="0"/>
		</comp>
	</station>
	<station code="HER3" name="HER3" netid="HI" source="ITSAK Strong Motion Network" insttype="" lat="35.3296" lon="25.1065">
		<comp name=".HNE" depth="0.0">
			<acc value="0.021515988858888" flag="0"/>
			<vel value="0.012800601041" flag="0"/>
			<psa03 value="0.0556009957930585" flag="0"/>
			<psa10 value="0.0211714125021766" flag="0"/>
			<psa30 value="0.00188401751524816" flag="0"/>
		</comp>
		<comp name=".HNN" depth="0.0">
			<acc value="0.025254413689446" flag="0"/>
			<vel value="0.0105773854682" flag="0"/>
			<psa03 value="0.0793711069045414" flag="0"/>
			<psa10 value="0.0205964262871567" flag="0"/>
			<psa30 value="0.00093685445784221" flag="0"/>
		</comp>
		<comp name=".HNZ" depth="0.0">
			<acc value="0.012105614489388" flag="0"/>
			<vel value="0.00702125976437" flag="0"/>
			<psa03 value="0.0360718140598139" flag="0"/>
			<psa10 value="0.00567160618483139" flag="0"/>
			<psa30 value="0.000509847524896997" flag="0"/>
		</comp>
	</station>
	<station code="KIS1" name="KIS1" netid="HI" source="ITSAK Strong Motion Network" insttype="" lat="35.493933" lon="23.658993">
		<comp name=".HNE" depth="0.0">
			<acc value="0.0033262062605694" flag="0"/>
			<vel value="0.00200056494719" flag="0"/>
			<psa03 value="0.00915801878315474" flag="0"/>
			<psa10 value="0.00273900988346098" flag="0"/>
			<psa30 value="0.00039880345002132" flag="0"/>
		</comp>
		<comp name=".HNN" depth="0.0">
			<acc value="0.0027334368733788" flag="0"/>
			<vel value="0.00221491476681" flag="0"/>
			<psa03 value="0.00801163620032305" flag="0"/>
			<psa10 value="0.00318095673839915" flag="0"/>
			<psa30 value="0.00033577268600072" flag="0"/>
		</comp>
		<comp name=".HNZ" depth="0.0">
			<acc value="0.0034296175506846" flag="0"/>
			<vel value="0.00091262886204" flag="0"/>
			<psa03 value="0.00523964918439851" flag="0"/>
			<psa10 value="0.00147087767280032" flag="0"/>
			<psa30 value="0.000181835418099927" flag="0"/>
		</comp>
	</station>
	<station code="KRL1" name="KRL1" netid="HI" source="ITSAK Strong Motion Network" insttype="" lat="37.7951" lon="26.7065">
		<comp name=".HNE" depth="0.0">
			<acc value="0.02690590932042" flag="0"/>
			<vel value="0.00943729383188" flag="0"/>
			<psa03 value="0.059357281086706" flag="0"/>
			<psa10 value="0.00624642223233583" flag="0"/>
			<psa30 value="0.000605057061229032" flag="0"/>
		</comp>
		<comp name=".HNN" depth="0.0">
			<acc value="0.022889278987206" flag="0"/>
			<vel value="0.00824775498932" flag="0"/>
			<psa03 value="0.03581021339674" flag="0"/>
			<psa10 value="0.00705196575186786" flag="0"/>
			<psa30 value="0.000578053136931902" flag="0"/>
		</comp>
		<comp name=".HNZ" depth="0.0">
			<acc value="0.0080860822884468" flag="0"/>
			<vel value="0.00399168891837" flag="0"/>
			<psa03 value="0.0214071798393408" flag="0"/>
			<psa10 value="0.00657854657767538" flag="0"/>
			<psa30 value="0.000438938400431691" flag="0"/>
		</comp>
	</station>
	<station code="KTL1" name="KTL1" netid="HI" source="ITSAK Strong Motion Network" insttype="" lat="35.20778" lon="25.34272">
		<comp name=".HNE" depth="0.0">
			<acc value="0.0072319520857332" flag="0"/>
			<vel value="0.00375820166104" flag="0"/>
			<psa03 value="0.0219513994850039" flag="0"/>
			<psa10 value="0.00356908870023343" flag="0"/>
			<psa30 value="0.000647890575822913" flag="0"/>
		</comp>
		<comp name=".HNN" depth="0.0">
			<acc value="0.010825750305228" flag="0"/>
			<vel value="0.00490864059055" flag="0"/>
			<psa03 value="0.0248088700283763" flag="0"/>
			<psa10 value="0.00504864351036353" flag="0"/>
			<psa30 value="0.000417289674642867" flag="0"/>
		</comp>
		<comp name=".HNZ" depth="0.0">
			<acc value="0.004351850242155" flag="0"/>
			<vel value="0.00223222449879" flag="0"/>
			<psa03 value="0.013140120468475" flag="0"/>
			<psa10 value="0.00270168905176383" flag="0"/>
			<psa30 value="0.000262776235761172" flag="0"/>
		</comp>
	</station>
	<station code="NAX1" name="NAX1" netid="HI" source="ITSAK Strong Motion Network" insttype="" lat="37.101394" lon="25.374103">
		<comp name=".HNE" depth="0.0">
			<acc value="0.14684227569168" flag="0"/>
			<vel value="0.023321292566" flag="0"/>
			<psa03 value="0.151230705791925" flag="0"/>
			<psa10 value="0.0121413805568584" flag="0"/>
			<psa30 value="0.00112435542052916" flag="0"/>
		</comp>
		<comp name=".HNN" depth="0.0">
			<acc value="0.10480713005274" flag="0"/>
			<vel value="0.0328002543185" flag="0"/>
			<psa03 value="0.170196920543931" flag="0"/>
			<psa10 value="0.00927522037532246" flag="0"/>
			<psa30 value="0.0010456744791378" flag="0"/>
		</comp>
		<comp name=".HNZ" depth="0.0">
			<acc value="0.069569361497196" flag="0"/>
			<vel value="0.0157077862317" flag="0"/>
			<psa03 value="0.0664113056728935" flag="0"/>
			<psa10 value="0.0115029213870884" flag="0"/>
			<psa30 value="0.00153604383869706" flag="0"/>
		</comp>
	</station>
	<station code="RTH1" name="RTH1" netid="HI" source="ITSAK Strong Motion Network" insttype="" lat="35.365393" lon="24.471773">
		<comp name=".HNE" depth="0.0">
			<acc value="0.0038390409027996" flag="0"/>
			<vel value="0.00138863137182" flag="0"/>
			<psa03 value="0.0111245611663115" flag="0"/>
			<psa10 value="0.00105661058120448" flag="0"/>
			<psa30 value="0.000526272362960291" flag="0"/>
		</comp>
		<comp name=".HNN" depth="0.0">
			<acc value="0.003602701132272" flag="0"/>
			<vel value="0.0016496779961" flag="0"/>
			<psa03 value="0.00987270219514107" flag="0"/>
			<psa10 value="0.00182100262467434" flag="0"/>
			<psa30 value="0.000560135856249957" flag="0"/>
		</comp>
		<comp name=".HNZ" depth="0.0">
			<acc value="0.004797757356252" flag="0"/>
			<vel value="0.00121058596214" flag="0"/>
			<psa03 value="0.00587078409290885" flag="0"/>
			<psa10 value="0.0011893194506383" flag="0"/>
			<psa30 value="0.000332891844117536" flag="0"/>
		</comp>
	</station>
	<station code="SFR2" name="SFR2" netid="HI" source="ITSAK Strong Motion Network" insttype="" lat="36.399841" lon="25.438209">
		<comp name=".HNE" depth="0.0">
			<acc value="0.18314960023404" flag="0"/>
			<vel value="0.038344593408" flag="0"/>
			<psa03 value="0.222051022290678" flag="0"/>
			<psa10 value="0.0258661928833188" flag="0"/>
			<psa30 value="0.00362860079366147" flag="0"/>
		</comp>
		<comp name=".HNN" depth="0.0">
			<acc value="0.1802725026183" flag="0"/>
			<vel value="0.0518398336155" flag="0"/>
			<psa03 value="0.264987637464008" flag="0"/>
			<psa10 value="0.0359568907175591" flag="0"/>
			<psa30 value="0.00305101003110877" flag="0"/>
		</comp>
		<comp name=".HNZ" depth="0.0">
			<acc value="0.1879514824962" flag="0"/>
			<vel value="0.0482356333791" flag="0"/>
			<psa03 value="0.147297841092213" flag="0"/>
			<psa10 value="0.0181349919792161" flag="0"/>
			<psa30 value="0.00218637316982409" flag="0"/>
		</comp>
	</station>
	<station code="AMGA" name="AMGA" netid="HL" source="National Observatory of Athens Seismic Network" insttype="" lat="36.831561" lon="25.893836">
		<comp name="00.HNE" depth="0.0">
			<acc value="0.52613236568172" flag="0"/>
			<vel value="0.0836308708747" flag="0"/>
			<psa03 value="0.194970103312704" flag="0"/>
			<psa10 value="0.0205228070352466" flag="0"/>
			<psa30 value="0.00227412731644177" flag="0"/>
		</comp>
		<comp name="00.HNN" depth="0.0">
			<acc value="0.53698059826758" flag="0"/>
			<vel value="0.135547339982" flag="0"/>
			<psa03 value="0.308647363039916" flag="0"/>
			<psa10 value="0.0430636002522337" flag="0"/>
			<psa30 value="0.00342444997800522" flag="0"/>
		</comp>
		<comp name="00.HNZ" depth="0.0">
			<acc value="0.40205716239036" flag="0"/>
			<vel value="0.108298549099" flag="0"/>
			<psa03 value="0.370953407176069" flag="0"/>
			<psa10 value="0.0297626166272791" flag="0"/>
			<psa30 value="0.00352855499945182" flag="0"/>
		</comp>
	</station>
	<station code="ANAF" name="ANAF" netid="HL" source="National Observatory of Athens Seismic Network" insttype="" lat="36.35675" lon="25.77262">
		<comp name=".HNE" depth="0.0">
			<acc value="1.1464171571676" flag="0"/>
			<vel value="0.323522780779" flag="0"/>
			<psa03 value="2.00946128361668" flag="0"/>
			<psa10 value="0.0799612070376191" flag="0"/>
			<psa30 value="0.00756843220481917" flag="0"/>
		</comp>
		<comp name=".HNN" depth="0.0">
			<acc value="0.79532304577602" flag="0"/>
			<vel value="0.193674885478" flag="0"/>
			<psa03 value="1.05790441430977" flag="0"/>
			<psa10 value="0.0380607913406218" flag="0"/>
			<psa30 value="0.00705972017182042" flag="0"/>
		</comp>
		<comp name=".HNZ" depth="0.0">
			<acc value="0.50640637846668" flag="0"/>
			<vel value="0.144869404864" flag="0"/>
			<psa03 value="0.503613861948195" flag="0"/>
			<psa10 value="0.0292180280509595" flag="0"/>
			<psa30 value="0.00437215796734046" flag="0"/>
		</comp>
	</station>
	<station code="CHNB" name="CHNB" netid="HL" source="National Observatory of Athens Seismic Network" insttype="" lat="35.48765" lon="24.06605">
		<comp name="00.HNE" depth="0.0">
			<acc value="0.0081051901067406" flag="0"/>
			<vel value="0.00451061183045" flag="0"/>
			<psa03 value="0.0212405698439254" flag="0"/>
			<psa10 value="0.00674064919119219" flag="0"/>
			<psa30 value="0.000393021035714579" flag="0"/>
		</comp>
		<comp name="00.HNN" depth="0.0">
			<acc value="0.01075844310582" flag="0"/>
			<vel value="0.00531648184798" flag="0"/>
			<psa03 value="0.0271728886122009" flag="0"/>
			<psa10 value="0.00745481743883438" flag="0"/>
			<psa30 value="0.00059189728320604" flag="0"/>
		</comp>
		<comp name="00.HNZ" depth="0.0">
			<acc value="0.0077677773575622" flag="0"/>
			<vel value="0.00376310593567" flag="0"/>
			<psa03 value="0.0164541967806322" flag="0"/>
			<psa10 value="0.00260348832770033" flag="0"/>
			<psa30 value="0.000279701810122407" flag="0"/>
		</comp>
	</station>
	<station code="HERG" name="HERG" netid="HL" source="National Observatory of Athens Seismic Network" insttype="" lat="35.32622" lon="25.06586">
		<comp name="00.HNE" depth="0.0">
			<acc value="0.0098105334103428" flag="0"/>
			<vel value="0.00842467832101" flag="0"/>
			<psa03 value="0.0278686821009261" flag="0"/>
			<psa10 value="0.0134059755800802" flag="0"/>
			<psa30 value="0.00168926669729587" flag="0"/>
		</comp>
