<?xml version="1.0" encoding="UTF-8" standalone="yes"?>
<!DOCTYPE earthquake SYSTEM "stationlist.dtd">
<stationlist created="" xmlns="ch.ethz.sed.shakemap.usgs.xml">
  <station code="APE" name="APE" netid="GE" insttype="STS-2/N" lat="37.0727" lon="25.523">
    <comp name="--.HHN">
      <acc value="0.1454922416" flag="0"/>
      <vel value="0.0383115874" flag="0"/>
      <psa03 value="0.0976627057" flag="0"/>
      <psa10 value="0.0135988835" flag="0"/>
      <psa30 value="0.0019945041" flag="0"/>
    </comp>
    <comp name="--.HHE">
      <acc value="0.1655224972" flag="0"/>
      <vel value="0.0245109279" flag="0"/>
      <psa03 value="0.1208724259" flag="0"/>
      <psa10 value="0.0108349613" flag="0"/>
      <psa30 value="0.0023079074" flag="0"/>
    </comp>
    <comp name="--.HHZ">
      <acc value="0.0836466919" flag="0"/>
      <vel value="0.0147308137" flag="0"/>
      <psa03 value="0.1102451146" flag="0"/>
      <psa10 value="0.0088860380" flag="0"/>
      <psa30 value="0.0020231347" flag="0"/>
    </comp>
  </station>
  <station code="THERA" name="THERA" netid="GE" insttype="STS-2/N" lat="36.367" lon="25.4753">
    <comp name="--.HHE">
      <acc value="0.0713822068" flag="0"/>
      <vel value="0.0193623305" flag="0"/>
      <psa03 value="0.0782008833" flag="0"/>
      <psa10 value="0.0073976507" flag="0"/>
      <psa30 value="0.0021582921" flag="0"/>
    </comp>
    <comp name="--.HHN">
      <acc value="0.0561414058" flag="0"/>
      <vel value="0.0124565707" flag="0"/>
      <psa03 value="0.0591855014" flag="0"/>
      <psa10 value="0.0047808005" flag="0"/>
      <psa30 value="0.0009652806" flag="0"/>
    </comp>
    <comp name="--.HHZ">
      <acc value="0.0715512678" flag="0"/>
      <vel value="0.0159867204" flag="0"/>
      <psa03 value="0.0647202554" flag="0"/>
      <psa10 value="0.0048028706" flag="0"/>
      <psa30 value="0.0015220652" flag="0"/>
    </comp>
  </station>
  <station code="SERI" name="SERI" netid="HA" insttype="30" lat="37.1609" lon="24.4853">
    <comp name="--.HHE">
      <acc value="0.0304859314" flag="0"/>
      <vel value="0.0062140025" flag="0"/>
      <psa03 value="0.0302275245" flag="0"/>
      <psa10 value="0.0023297330" flag="0"/>
      <psa30 value="0.0003852520" flag="0"/>
    </comp>
    <comp name="--.HHZ">
      <acc value="0.0346450479" flag="0"/>
      <vel value="0.0060883731" flag="0"/>
      <psa03 value="0.0198002034" flag="0"/>
      <psa10 value="0.0024993242" flag="0"/>
      <psa30 value="0.0006002911" flag="0"/>
    </comp>
    <comp name="--.HHN">
      <acc value="0.0426134163" flag="0"/>
      <vel value="0.0087183881" flag="0"/>
      <psa03 value="0.0386242371" flag="0"/>
      <psa10 value="0.0032004970" flag="0"/>
      <psa30 value="0.0006797780" flag="0"/>
    </comp>
  </station>
  <station code="SNT1" name="SNT1" netid="HA" insttype="30" lat="36.4159" lon="25.4282">
    <comp name="--.HHN">
      <acc value="0.0576169712" flag="0"/>
      <vel value="0.0164500469" flag="0"/>
      <psa03 value="0.0681625889" flag="0"/>
      <psa10 value="0.0138028694" flag="0"/>
      <psa30 value="0.0033199171" flag="0"/>
    </comp>
    <comp name="--.HHE">
      <acc value="0.0472981937" flag="0"/>
      <vel value="0.0166595897" flag="0"/>
      <psa03 value="0.0660479714" flag="0"/>
      <psa10 value="0.0159184301" flag="0"/>
      <psa30 value="0.0033400229" flag="0"/>
    </comp>
    <comp name="--.HHZ">
      <acc value="0.0505579990" flag="0"/>
      <vel value="0.0122591582" flag="0"/>
      <psa03 value="0.0710860248" flag="0"/>
      <psa10 value="0.0117918519" flag="0"/>
      <psa30 value="0.0020802504" flag="0"/>
    </comp>
  </station>
  <station code="NAX1" name="NAX1" netid="HI" insttype="CMG-5TD,ACCELEROMETER,GURALP" lat="37.1014" lon="25.3741">
    <comp name="--.HNE">
      <acc value="0.1456434934" flag="0"/>
      <vel value="0.0236923390" flag="0"/>
      <psa03 value="0.1454223604" flag="0"/>
      <psa10 value="0.0121722150" flag="0"/>
      <psa30 value="0.0011608565" flag="0"/>
    </comp>
    <comp name="--.HNN">
      <acc value="0.1079302315" flag="0"/>
      <vel value="0.0329174184" flag="0"/>
      <psa03 value="0.1693514667" flag="0"/>
      <psa10 value="0.0092295085" flag="0"/>
      <psa30 value="0.0009639122" flag="0"/>
    </comp>
    <comp name="--.HNZ">
      <acc value="0.0757644003" flag="0"/>
      <vel value="0.0160295639" flag="0"/>
      <psa03 value="0.0667360718" flag="0"/>
      <psa10 value="0.0114215456" flag="0"/>
      <psa30 value="0.0013581390" flag="0"/>
    </comp>
  </station>
  <station code="SFR2" name="SFR2" netid="HI" insttype="unknown" lat="36.3998" lon="25.4382">
    <comp name="--.HNE">
      <acc value="0.1847318544" flag="0"/>
      <vel value="0.0381441694" flag="0"/>
      <psa03 value="0.2207487588" flag="0"/>
      <psa10 value="0.0258449071" flag="0"/>
      <psa30 value="0.0032931818" flag="0"/>
    </comp>
    <comp name="--.HNN">
      <acc value="0.1821886780" flag="0"/>
      <vel value="0.0523027012" flag="0"/>
      <psa03 value="0.2603627238" flag="0"/>
      <psa10 value="0.0359879529" flag="0"/>
      <psa30 value="0.0027831131" flag="0"/>
    </comp>
    <comp name="--.HNZ">
      <acc value="0.1912212580" flag="0"/>
      <vel value="0.0473015387" flag="0"/>
      <psa03 value="0.1477414877" flag="0"/>
      <psa10 value="0.0181018597" flag="0"/>
      <psa30 value="0.0020023392" flag="0"/>
    </comp>
  </station>
  <station code="AMGA" name="AMGA" netid="HL" insttype="SMART24" lat="36.8316" lon="25.8938">
    <comp name="--.HHE">
      <acc value="0.8837063753" flag="0"/>
      <vel value="0.1310137195" flag="0"/>
      <psa03 value="0.3246564276" flag="0"/>
      <psa10 value="0.0320178545" flag="0"/>
      <psa30 value="0.0034674868" flag="0"/>
    </comp>
    <comp name="--.HHN">
      <acc value="0.8500087692" flag="0"/>
      <vel value="0.2121439635" flag="0"/>
      <psa03 value="0.4890018219" flag="0"/>
      <psa10 value="0.0703381932" flag="0"/>
      <psa30 value="0.0051753481" flag="0"/>
    </comp>
    <comp name="--.HHZ">
      <acc value="0.6577234598" flag="0"/>
      <vel value="0.1730421996" flag="0"/>
      <psa03 value="0.6010135797" flag="0"/>
      <psa10 value="0.0484687186" flag="0"/>
      <psa30 value="0.0055656711" flag="0"/>
    </comp>
  </station>
  <station code="APE" name="APE" netid="HL" insttype="120" lat="37.0727" lon="25.523">
    <comp name="--.HHZ">
      <acc value="0.0706584203" flag="0"/>
      <vel value="0.0139265471" flag="0"/>
      <psa03 value="0.1070734957" flag="0"/>
      <psa10 value="0.0088124926" flag="0"/>
      <psa30 value="0.0020200720" flag="0"/>
    </comp>
    <comp name="--.HHN">
      <acc value="0.1365045689" flag="0"/>
      <vel value="0.0368442045" flag="0"/>
      <psa03 value="0.0953137893" flag="0"/>
      <psa10 value="0.0134225745" flag="0"/>
      <psa30 value="0.0019873227" flag="0"/>
    </comp>
    <comp name="--.HHE">
      <acc value="0.1474386163" flag="0"/>
      <vel value="0.0236034996" flag="0"/>
      <psa03 value="0.1171907451" flag="0"/>
      <psa10 value="0.0107543458" flag="0"/>
      <psa30 value="0.0023029947" flag="0"/>
    </comp>
  </station>
  <station code="ASTA" name="ASTA" netid="HL" insttype="CMG-5" lat="36.5455" lon="26.3529">
    <comp name="00.HNN">
      <acc value="0.0347423695" flag="0"/>
      <vel value="0.0134092203" flag="0"/>
      <psa03 value="0.0633016454" flag="0"/>
      <psa10 value="0.0160571040" flag="0"/>
      <psa30 value="0.0008134725" flag="0"/>
    </comp>
    <comp name="00.HNE">
      <acc value="0.0247906820" flag="0"/>
      <vel value="0.0097752332" flag="0"/>
      <psa03 value="0.0519498245" flag="0"/>
      <psa10 value="0.0171203239" flag="0"/>
      <psa30 value="0.0009139806" flag="0"/>
    </comp>
    <comp name="00.HNZ">
      <acc value="0.0255934650" flag="0"/>
      <vel value="0.0106498044" flag="0"/>
      <psa03 value="0.0495538531" flag="0"/>
      <psa10 value="0.0092597354" flag="0"/>
      <psa30 value="0.0009778927" flag="0"/>
    </comp>
  </station>
  <station code="MHLO" name="MHLO" netid="HL" insttype="20" lat="36.6898" lon="24.4017">
    <comp name="--.HHE">
      <acc value="0.0582135153" flag="0"/>
      <vel value="0.0191726159" flag="0"/>
      <psa03 value="0.0876324369" flag="0"/>
      <psa10 value="0.0237479399" flag="0"/>
      <psa30 value="0.0017667075" flag="0"/>
    </comp>
    <comp name="--.HHN">
      <acc value="0.0527620266" flag="0"/>
      <vel value="0.0189837404" flag="0"/>
      <psa03 value="0.0794053398" flag="0"/>
      <psa10 value="0.0173148884" flag="0"/>
      <psa30 value="0.0012981005" flag="0"/>
    </comp>
    <comp name="--.HHZ">
      <acc value="0.0241306143" flag="0"/>
      <vel value="0.0118896133" flag="0"/>
      <psa03 value="0.0402223183" flag="0"/>
      <psa10 value="0.0109657593" flag="0"/>
      <psa30 value="0.0011780507" flag="0"/>
    </comp>
  </station>
  <station code="MILA" name="MILA" netid="HL" insttype="CMG-5" lat="36.7429" lon="24.4282">
    <comp name="00.HNE">
      <acc value="0.0883992312" flag="0"/>
      <vel value="0.0292119385" flag="0"/>
      <psa03 value="0.1857777035" flag="0"/>
      <psa10 value="0.0129330332" flag="0"/>
      <psa30 value="0.0014988269" flag="0"/>
    </comp>
    <comp name="00.HNN">
      <acc value="0.0862624994" flag="0"/>
      <vel value="0.0290550968" flag="0"/>
      <psa03 value="0.2053345254" flag="0"/>
      <psa10 value="0.0148323994" flag="0"/>
      <psa30 value="0.0011482914" flag="0"/>
    </comp>
    <comp name="00.HNZ">
      <acc value="0.0726565951" flag="0"/>
      <vel value="0.0208952116" flag="0"/>
      <psa03 value="0.0871532657" flag="0"/>
      <psa10 value="0.0132834243" flag="0"/>
      <psa30 value="0.0009279836" flag="0"/>
    </comp>
  </station>
  <station code="SANT" name="SANT" netid="HL" insttype="30" lat="36.3705" lon="25.4593">
    <comp name="--.HHE">
      <acc value="0.2507086704" flag="0"/>
      <vel value="0.0429966253" flag="0"/>
      <psa03 value="0.1687616355" flag="0"/>
      <psa10 value="0.0142056315" flag="0"/>
      <psa30 value="0.0020283007" flag="0"/>
    </comp>
    <comp name="--.HHN">
      <acc value="0.1957153699" flag="0"/>
      <vel value="0.0250583234" flag="0"/>
      <psa03 value="0.0840672462" flag="0"/>
      <psa10 value="0.0126045097" flag="0"/>
      <psa30 value="0.0019246645" flag="0"/>
    </comp>
    <comp name="--.HHZ">
      <acc value="0.2088957521" flag="0"/>
      <vel value="0.0271194613" flag="0"/>
      <psa03 value="0.0984818208" flag="0"/>
      <psa10 value="0.0056214905" flag="0"/>
      <psa30 value="0.0011232932" flag="0"/>
    </comp>
  </station>
  <station code="SAP3" name="SAP3" netid="HL" insttype="65535" lat="36.4356" lon="25.3454">
    <comp name="--.HHE">
      <acc value="0.1088139785" flag="0"/>
      <vel value="0.0263178687" flag="0"/>
      <psa03 value="0.1267541649" flag="0"/>
      <psa10 value="0.0206313055" flag="0"/>
      <psa30 value="0.0034254497" flag="0"/>
    </comp>
    <comp name="--.HHN">
      <acc value="0.1146381542" flag="0"/>
      <vel value="0.0308510425" flag="0"/>
      <psa03 value="0.1248087896" flag="0"/>
      <psa10 value="0.0202610164" flag="0"/>
      <psa30 value="0.0034428859" flag="0"/>
    </comp>
    <comp name="--.HHZ">
      <acc value="0.1303697230" flag="0"/>
      <vel value="0.0368107737" flag="0"/>
      <psa03 value="0.1456007391" flag="0"/>
      <psa10 value="0.0092941974" flag="0"/>
      <psa30 value="0.0017679499" flag="0"/>
    </comp>
  </station>
  <station code="THERA" name="THERA" netid="HL" insttype="120" lat="36.367" lon="25.4753">
    <comp name="--.HHE">
      <acc value="0.0705013947" flag="0"/>
      <vel value="0.0189598282" flag="0"/>
      <psa03 value="0.0758521194" flag="0"/>
      <psa10 value="0.0073817854" flag="0"/>
      <psa30 value="0.0021584249" flag="0"/>
    </comp>
    <comp name="--.HHN">
      <acc value="0.1119327901" flag="0"/>
      <vel value="0.0243222069" flag="0"/>
      <psa03 value="0.1150354321" flag="0"/>
      <psa10 value="0.0094188660" flag="0"/>
      <psa30 value="0.0019317321" flag="0"/>
    </comp>
    <comp name="--.HHZ">
      <acc value="0.0697547647" flag="0"/>
      <vel value="0.0155523435" flag="0"/>
      <psa03 value="0.0627165603" flag="0"/>
      <psa10 value="0.0047622839" flag="0"/>
      <psa30 value="0.0015214166" flag="0"/>
    </comp>
  </station>
  <station code="THRA" name="THRA" netid="HL" insttype="CMG-5" lat="36.415" lon="25.4324">
    <comp name="00.HNE">
      <acc value="0.1954261214" flag="0"/>
      <vel value="0.0639014744" flag="0"/>
      <psa03 value="0.4141667866" flag="0"/>
      <psa10 value="0.0426961050" flag="0"/>
      <psa30 value="0.0059154678" flag="0"/>
    </comp>
    <comp name="00.HNN">
      <acc value="0.1840397877" flag="0"/>
      <vel value="0.0612007946" flag="0"/>
      <psa03 value="0.3895133881" flag="0"/>
      <psa10 value="0.0475604930" flag="0"/>
      <psa30 value="0.0046248766" flag="0"/>
    </comp>
    <comp name="00.HNZ">
      <acc value="0.1545286600" flag="0"/>
      <vel value="0.0429052181" flag="0"/>
      <psa03 value="0.3418073520" flag="0"/>
      <psa10 value="0.0232732288" flag="0"/>
      <psa30 value="0.0025766295" flag="0"/>
    </comp>
  </station>
  <station code="TNSA" name="TNSA" netid="HL" insttype="CMG-5" lat="37.5394" lon="25.1631">
    <comp name="00.HNE">
      <acc value="0.0539268568" flag="0"/>
      <vel value="0.0185460414" flag="0"/>
      <psa03 value="0.0731759718" flag="0"/>
      <psa10 value="0.0067179178" flag="0"/>
      <psa30 value="0.0006202052" flag="0"/>
    </comp>
    <comp name="00.HNN">
      <acc value="0.0585093414" flag="0"/>
      <vel value="0.0152614034" flag="0"/>
      <psa03 value="0.1160707971" flag="0"/>
      <psa10 value="0.0069101060" flag="0"/>
      <psa30 value="0.0007734326" flag="0"/>
    </comp>
    <comp name="00.HNZ">
      <acc value="0.0458945810" flag="0"/>
      <vel value="0.0174090972" flag="0"/>
      <psa03 value="0.0597410736" flag="0"/>
      <psa10 value="0.0080347337" flag="0"/>
      <psa30 value="0.0010638358" flag="0"/>
    </comp>
  </station>
  <station code="AKRO" name="AKRO" netid="HT" insttype="Compact," lat="36.3584" lon="25.3967">
    <comp name="--.HHE">
      <acc value="0.2819294206" flag="0"/>
      <vel value="0.0718475132" flag="0"/>
      <psa03 value="0.3171175665" flag="0"/>
      <psa10 value="0.0199885057" flag="0"/>
      <psa30 value="0.0026906767" flag="0"/>
    </comp>
    <comp name="--.HHN">
      <acc value="0.2302494564" flag="0"/>
      <vel value="0.0583892023" flag="0"/>
      <psa03 value="0.2165156742" flag="0"/>
      <psa10 value="0.0187263826" flag="0"/>
      <psa30 value="0.0023368803" flag="0"/>
    </comp>
    <comp name="--.HHZ">
      <acc value="0.1504091388" flag="0"/>
      <vel value="0.0247341161" flag="0"/>
      <psa03 value="0.1909857120" flag="0"/>
      <psa10 value="0.0117759251" flag="0"/>
      <psa30 value="0.0014390402" flag="0"/>
    </comp>
  </station>
  <station code="CMBO" name="CMBO" netid="HT" insttype="120P," lat="36.4709" lon="25.4056">
    <comp name="--.HHE">
      <acc value="0.1569147493" flag="0"/>
      <vel value="0.0402260343" flag="0"/>
      <psa03 value="0.1453741944" flag="0"/>
      <psa10 value="0.0198896506" flag="0"/>
      <psa30 value="0.0027674934" flag="0"/>
    </comp>
    <comp name="--.HHN">
      <acc value="0.1867954109" flag="0"/>
      <vel value="0.0418588981" flag="0"/>
      <psa03 value="0.1543140258" flag="0"/>
      <psa10 value="0.0335024363" flag="0"/>
      <psa30 value="0.0023514042" flag="0"/>
    </comp>
    <comp name="--.HHZ">
      <acc value="0.1328533073" flag="0"/>
      <vel value="0.0295697713" flag="0"/>
      <psa03 value="0.1600182320" flag="0"/>
      <psa10 value="0.0126029793" flag="0"/>
      <psa30 value="0.0017536140" flag="0"/>
    </comp>
  </station>
</stationlist>
