<?xml version="1.0" encoding="UTF-8" standalone="yes"?>
<!DOCTYPE earthquake SYSTEM "stationlist.dtd">
<stationlist created="" xmlns="ch.ethz.sed.shakemap.usgs.xml">
  <station code="APE" name="APE" netid="GE" insttype="STS-2/N" lat="37.0727" lon="25.523">
    <comp name="--.HHZ">
      <acc value="0.0836466916" flag="0"/>
      <vel value="0.0147308123" flag="0"/>
      <psa03 value="0.1102451146" flag="0"/>
      <psa10 value="0.0088860383" flag="0"/>
      <psa30 value="0.0020232620" flag="0"/>
    </comp>
    <comp name="--.HHE">
      <acc value="0.1655224975" flag="0"/>
      <vel value="0.0245109288" flag="0"/>
      <psa03 value="0.1208724259" flag="0"/>
      <psa10 value="0.0108349614" flag="0"/>
      <psa30 value="0.0023080198" flag="0"/>
    </comp>
    <comp name="--.HHN">
      <acc value="0.1454922419" flag="0"/>
      <vel value="0.0383115883" flag="0"/>
      <psa03 value="0.0976627057" flag="0"/>
      <psa10 value="0.0135988834" flag="0"/>
      <psa30 value="0.0019945128" flag="0"/>
    </comp>
  </station>
  <station code="THERA" name="THERA" netid="GE" insttype="STS-2/N" lat="36.367" lon="25.4753">
    <comp name="--.HHE">
      <acc value="0.0713822071" flag="0"/>
      <vel value="0.0193623294" flag="0"/>
      <psa03 value="0.0782008833" flag="0"/>
      <psa10 value="0.0073976587" flag="0"/>
      <psa30 value="0.0021582000" flag="0"/>
    </comp>
    <comp name="--.HHN">
      <acc value="0.0561414057" flag="0"/>
      <vel value="0.0124565708" flag="0"/>
      <psa03 value="0.0591855014" flag="0"/>
      <psa10 value="0.0047808018" flag="0"/>
      <psa30 value="0.0009651267" flag="0"/>
    </comp>
    <comp name="--.HHZ">
      <acc value="0.0715512680" flag="0"/>
      <vel value="0.0159867195" flag="0"/>
      <psa03 value="0.0647202554" flag="0"/>
      <psa10 value="0.0048028700" flag="0"/>
      <psa30 value="0.0015222309" flag="0"/>
    </comp>
  </station>
  <station code="SERI" name="SERI" netid="HA" insttype="30" lat="37.1609" lon="24.4853">
    <comp name="--.HHZ">
      <acc value="0.0346450482" flag="0"/>
      <vel value="0.0060883690" flag="0"/>
      <psa03 value="0.0198002034" flag="0"/>
      <psa10 value="0.0024993243" flag="0"/>
      <psa30 value="0.0006002354" flag="0"/>
    </comp>
    <comp name="--.HHE">
      <acc value="0.0304859311" flag="0"/>
      <vel value="0.0062139990" flag="0"/>
      <psa03 value="0.0302275246" flag="0"/>
      <psa10 value="0.0023297330" flag="0"/>
      <psa30 value="0.0003852564" flag="0"/>
    </comp>
    <comp name="--.HHN">
      <acc value="0.0426134160" flag="0"/>
      <vel value="0.0087183914" flag="0"/>
      <psa03 value="0.0386242371" flag="0"/>
      <psa10 value="0.0032004971" flag="0"/>
      <psa30 value="0.0006797336" flag="0"/>
    </comp>
  </station>
  <station code="SNT1" name="SNT1" netid="HA" insttype="30" lat="36.4159" lon="25.4282">
    <comp name="--.HHN">
      <acc value="0.0576169708" flag="0"/>
      <vel value="0.0164500537" flag="0"/>
      <psa03 value="0.0681625889" flag="0"/>
      <psa10 value="0.0138028674" flag="0"/>
      <psa30 value="0.0033199397" flag="0"/>
    </comp>
    <comp name="--.HHZ">
      <acc value="0.0505579986" flag="0"/>
      <vel value="0.0122591557" flag="0"/>
      <psa03 value="0.0710860248" flag="0"/>
      <psa10 value="0.0117918496" flag="0"/>
      <psa30 value="0.0020802924" flag="0"/>
    </comp>
    <comp name="--.HHE">
      <acc value="0.0472981942" flag="0"/>
      <vel value="0.0166595803" flag="0"/>
      <psa03 value="0.0660479714" flag="0"/>
      <psa10 value="0.0159184278" flag="0"/>
      <psa30 value="0.0033396539" flag="0"/>
    </comp>
  </station>
  <station code="NAX1" name="NAX1" netid="HI" insttype="CMG-5TD,ACCELEROMETER,GURALP" lat="37.1014" lon="25.3741">
    <comp name="--.HNN">
      <acc value="0.1079302317" flag="0"/>
      <vel value="0.0329174210" flag="0"/>
      <psa03 value="0.1693514667" flag="0"/>
      <psa10 value="0.0092295088" flag="0"/>
      <psa30 value="0.0009638625" flag="0"/>
    </comp>
    <comp name="--.HNE">
      <acc value="0.1456434929" flag="0"/>
      <vel value="0.0236923384" flag="0"/>
      <psa03 value="0.1454223604" flag="0"/>
      <psa10 value="0.0121722152" flag="0"/>
      <psa30 value="0.0011608109" flag="0"/>
    </comp>
    <comp name="--.HNZ">
      <acc value="0.0757643999" flag="0"/>
      <vel value="0.0160295641" flag="0"/>
      <psa03 value="0.0667360718" flag="0"/>
      <psa10 value="0.0114215448" flag="0"/>
      <psa30 value="0.0013580894" flag="0"/>
    </comp>
  </station>
  <station code="SFR2" name="SFR2" netid="HI" insttype="unknown" lat="36.3998" lon="25.4382">
    <comp name="--.HNE">
      <acc value="0.1847318549" flag="0"/>
      <vel value="0.0381441658" flag="0"/>
      <psa03 value="0.2207487588" flag="0"/>
      <psa10 value="0.0258448967" flag="0"/>
      <psa30 value="0.0032928215" flag="0"/>
    </comp>
    <comp name="--.HNZ">
      <acc value="0.1912212577" flag="0"/>
      <vel value="0.0473015391" flag="0"/>
      <psa03 value="0.1477414877" flag="0"/>
      <psa10 value="0.0181018605" flag="0"/>
      <psa30 value="0.0020025880" flag="0"/>
    </comp>
    <comp name="--.HNN">
      <acc value="0.1821886774" flag="0"/>
      <vel value="0.0523027042" flag="0"/>
      <psa03 value="0.2603627238" flag="0"/>
      <psa10 value="0.0359879525" flag="0"/>
      <psa30 value="0.0027828843" flag="0"/>
    </comp>
  </station>
  <station code="AMGA" name="AMGA" netid="HL" insttype="SMART24" lat="36.8316" lon="25.8938">
    <comp name="--.HHE">
      <acc value="0.8837063754" flag="0"/>
      <vel value="0.1310137186" flag="0"/>
      <psa03 value="0.3246564276" flag="0"/>
      <psa10 value="0.0320178530" flag="0"/>
      <psa30 value="0.0034679263" flag="0"/>
    </comp>
    <comp name="--.HHN">
      <acc value="0.8500087695" flag="0"/>
      <vel value="0.2121439767" flag="0"/>
      <psa03 value="0.4890018219" flag="0"/>
      <psa10 value="0.0703381889" flag="0"/>
      <psa30 value="0.0051754954" flag="0"/>
    </comp>
    <comp name="--.HHZ">
      <acc value="0.6577234595" flag="0"/>
      <vel value="0.1730422166" flag="0"/>
      <psa03 value="0.6010135798" flag="0"/>
      <psa10 value="0.0484687241" flag="0"/>
      <psa30 value="0.0055661474" flag="0"/>
    </comp>
  </station>
  <station code="APE" name="APE" netid="HL" insttype="120" lat="37.0727" lon="25.523">
    <comp name="--.HHN">
      <acc value="0.1365045690" flag="0"/>
      <vel value="0.0368442047" flag="0"/>
      <psa03 value="0.0953137893" flag="0"/>
      <psa10 value="0.0134225746" flag="0"/>
      <psa30 value="0.0019873318" flag="0"/>
    </comp>
    <comp name="--.HHZ">
      <acc value="0.0706584202" flag="0"/>
      <vel value="0.0139265473" flag="0"/>
      <psa03 value="0.1070734957" flag="0"/>
      <psa10 value="0.0088124927" flag="0"/>
      <psa30 value="0.0020201291" flag="0"/>
    </comp>
    <comp name="--.HHE">
      <acc value="0.1474386164" flag="0"/>
      <vel value="0.0236034993" flag="0"/>
      <psa03 value="0.1171907451" flag="0"/>
      <psa10 value="0.0107543459" flag="0"/>
      <psa30 value="0.0023030426" flag="0"/>
    </comp>
  </station>
  <station code="ASTA" name="ASTA" netid="HL" insttype="CMG-5" lat="36.5455" lon="26.3529">
    <comp name="00.HNE">
      <acc value="0.0247906817" flag="0"/>
      <vel value="0.0097752306" flag="0"/>
      <psa03 value="0.0519498245" flag="0"/>
      <psa10 value="0.0171203241" flag="0"/>
      <psa30 value="0.0009137798" flag="0"/>
    </comp>
    <comp name="00.HNN">
      <acc value="0.0347423697" flag="0"/>
      <vel value="0.0134092209" flag="0"/>
      <psa03 value="0.0633016454" flag="0"/>
      <psa10 value="0.0160571043" flag="0"/>
      <psa30 value="0.0008133876" flag="0"/>
    </comp>
    <comp name="00.HNZ">
      <acc value="0.0255934649" flag="0"/>
      <vel value="0.0106498025" flag="0"/>
      <psa03 value="0.0495538531" flag="0"/>
      <psa10 value="0.0092597353" flag="0"/>
      <psa30 value="0.0009781127" flag="0"/>
    </comp>
  </station>
  <station code="MHLO" name="MHLO" netid="HL" insttype="20" lat="36.6898" lon="24.4017">
    <comp name="--.HHE">
      <acc value="0.0582135154" flag="0"/>
      <vel value="0.0191726162" flag="0"/>
      <psa03 value="0.0876324369" flag="0"/>
      <psa10 value="0.0237479399" flag="0"/>
      <psa30 value="0.0017665642" flag="0"/>
    </comp>
    <comp name="--.HHZ">
      <acc value="0.0241306146" flag="0"/>
      <vel value="0.0118896105" flag="0"/>
      <psa03 value="0.0402223183" flag="0"/>
      <psa10 value="0.0109657593" flag="0"/>
      <psa30 value="0.0011779354" flag="0"/>
    </comp>
    <comp name="--.HHN">
      <acc value="0.0527620265" flag="0"/>
      <vel value="0.0189837409" flag="0"/>
      <psa03 value="0.0794053398" flag="0"/>
      <psa10 value="0.0173148884" flag="0"/>
      <psa30 value="0.0012980021" flag="0"/>
    </comp>
  </station>
  <station code="MILA" name="MILA" netid="HL" insttype="CMG-5" lat="36.7429" lon="24.4282">
    <comp name="00.HNN">
      <acc value="0.0862625004" flag="0"/>
      <vel value="0.0290550914" flag="0"/>
      <psa03 value="0.2053345254" flag="0"/>
      <psa10 value="0.0148323994" flag="0"/>
      <psa30 value="0.0011487134" flag="0"/>
    </comp>
    <comp name="00.HNE">
      <acc value="0.0883992339" flag="0"/>
      <vel value="0.0292119377" flag="0"/>
      <psa03 value="0.1857777035" flag="0"/>
      <psa10 value="0.0129330333" flag="0"/>
      <psa30 value="0.0014988276" flag="0"/>
    </comp>
    <comp name="00.HNZ">
      <acc value="0.0726565956" flag="0"/>
      <vel value="0.0208952146" flag="0"/>
      <psa03 value="0.0871532657" flag="0"/>
      <psa10 value="0.0132834243" flag="0"/>
      <psa30 value="0.0009271291" flag="0"/>
    </comp>
  </station>
  <station code="SANT" name="SANT" netid="HL" insttype="30" lat="36.3705" lon="25.4593">
    <comp name="--.HHE">
      <acc value="0.2507086706" flag="0"/>
      <vel value="0.0429966287" flag="0"/>
      <psa03 value="0.1687616355" flag="0"/>
      <psa10 value="0.0142056329" flag="0"/>
      <psa30 value="0.0020283598" flag="0"/>
    </comp>
    <comp name="--.HHN">
      <acc value="0.1957153698" flag="0"/>
      <vel value="0.0250583249" flag="0"/>
      <psa03 value="0.0840672462" flag="0"/>
      <psa10 value="0.0126045101" flag="0"/>
      <psa30 value="0.0019245292" flag="0"/>
    </comp>
    <comp name="--.HHZ">
      <acc value="0.2088957521" flag="0"/>
      <vel value="0.0271194600" flag="0"/>
      <psa03 value="0.0984818208" flag="0"/>
      <psa10 value="0.0056214905" flag="0"/>
      <psa30 value="0.0011230493" flag="0"/>
    </comp>
  </station>
  <station code="SAP3" name="SAP3" netid="HL" insttype="65535" lat="36.4356" lon="25.3454">
    <comp name="--.HHN">
      <acc value="0.1146381543" flag="0"/>
      <vel value="0.0308510328" flag="0"/>
      <psa03 value="0.1248087896" flag="0"/>
      <psa10 value="0.0202610163" flag="0"/>
      <psa30 value="0.0034432582" flag="0"/>
    </comp>
    <comp name="--.HHE">
      <acc value="0.1088139786" flag="0"/>
      <vel value="0.0263178563" flag="0"/>
      <psa03 value="0.1267541649" flag="0"/>
      <psa10 value="0.0206313063" flag="0"/>
      <psa30 value="0.0034254486" flag="0"/>
    </comp>
    <comp name="--.HHZ">
      <acc value="0.1303697229" flag="0"/>
      <vel value="0.0368107765" flag="0"/>
      <psa03 value="0.1456007391" flag="0"/>
      <psa10 value="0.0092941967" flag="0"/>
      <psa30 value="0.0017680105" flag="0"/>
    </comp>
  </station>
  <station code="THERA" name="THERA" netid="HL" insttype="120" lat="36.367" lon="25.4753">
    <comp name="--.HHZ">
      <acc value="0.0697547648" flag="0"/>
      <vel value="0.0155523424" flag="0"/>
      <psa03 value="0.0627165603" flag="0"/>
      <psa10 value="0.0047622837" flag="0"/>
      <psa30 value="0.0015215357" flag="0"/>
    </comp>
    <comp name="--.HHE">
      <acc value="0.0705013949" flag="0"/>
      <vel value="0.0189598279" flag="0"/>
      <psa03 value="0.0758521194" flag="0"/>
      <psa10 value="0.0073817896" flag="0"/>
      <psa30 value="0.0021583778" flag="0"/>
    </comp>
    <comp name="--.HHN">
      <acc value="0.1119327900" flag="0"/>
      <vel value="0.0243222079" flag="0"/>
      <psa03 value="0.1150354321" flag="0"/>
      <psa10 value="0.0094188687" flag="0"/>
      <psa30 value="0.0019315501" flag="0"/>
    </comp>
  </station>
  <station code="THRA" name="THRA" netid="HL" insttype="CMG-5" lat="36.415" lon="25.4324">
    <comp name="00.HNE">
      <acc value="0.1954261219" flag="0"/>
      <vel value="0.0639014815" flag="0"/>
      <psa03 value="0.4141667866" flag="0"/>
      <psa10 value="0.0426961045" flag="0"/>
      <psa30 value="0.0059147809" flag="0"/>
    </comp>
    <comp name="00.HNN">
      <acc value="0.1840397881" flag="0"/>
      <vel value="0.0612007957" flag="0"/>
      <psa03 value="0.3895133881" flag="0"/>
      <psa10 value="0.0475604930" flag="0"/>
      <psa30 value="0.0046248898" flag="0"/>
    </comp>
    <comp name="00.HNZ">
      <acc value="0.1545286602" flag="0"/>
      <vel value="0.0429052187" flag="0"/>
      <psa03 value="0.3418073520" flag="0"/>
      <psa10 value="0.0232732321" flag="0"/>
      <psa30 value="0.0025764555" flag="0"/>
    </comp>
  </station>
  <station code="TNSA" name="TNSA" netid="HL" insttype="CMG-5" lat="37.5394" lon="25.1631">
    <comp name="00.HNE">
      <acc value="0.0539268573" flag="0"/>
      <vel value="0.0185460424" flag="0"/>
      <psa03 value="0.0731759718" flag="0"/>
      <psa10 value="0.0067179182" flag="0"/>
      <psa30 value="0.0006201886" flag="0"/>
    </comp>
    <comp name="00.HNN">
      <acc value="0.0585093410" flag="0"/>
      <vel value="0.0152614029" flag="0"/>
      <psa03 value="0.1160707971" flag="0"/>
      <psa10 value="0.0069101060" flag="0"/>
      <psa30 value="0.0007734648" flag="0"/>
    </comp>
    <comp name="00.HNZ">
      <acc value="0.0458945803" flag="0"/>
      <vel value="0.0174091009" flag="0"/>
      <psa03 value="0.0597410736" flag="0"/>
      <psa10 value="0.0080347338" flag="0"/>
      <psa30 value="0.0010641041" flag="0"/>
    </comp>
  </station>
  <station code="AKRO" name="AKRO" netid="HT" insttype="Compact," lat="36.3584" lon="25.3967">
    <comp name="--.HHE">
      <acc value="0.2819294207" flag="0"/>
      <vel value="0.0718475194" flag="0"/>
      <psa03 value="0.3171175665" flag="0"/>
      <psa10 value="0.0199885057" flag="0"/>
      <psa30 value="0.0026905806" flag="0"/>
    </comp>
    <comp name="--.HHN">
      <acc value="0.2302494568" flag="0"/>
      <vel value="0.0583892028" flag="0"/>
      <psa03 value="0.2165156742" flag="0"/>
      <psa10 value="0.0187263753" flag="0"/>
      <psa30 value="0.0023366981" flag="0"/>
    </comp>
  </station>
</stationlist>
