<?xml version="1.0" encoding="UTF-8" standalone="yes"?>
<!DOCTYPE earthquake SYSTEM "stationlist.dtd">
<stationlist created="" xmlns="ch.ethz.sed.shakemap.usgs.xml">
  <station code="SVRC" name="SVRC" netid="KO" insttype="CMG-3T" lat="38.3775" lon="39.306">
    <comp name="--.HHN">
      <acc value="0.0059429575" flag="0"/>
      <vel value="0.0026341232" flag="0"/>
      <psa03 value="0.0144742458" flag="0"/>
      <psa10 value="0.0012310664" flag="0"/>
      <psa30 value="0.0000838066" flag="0"/>
    </comp>
  </station>
</stationlist>
