<?xml version="1.0" encoding="UTF-8" standalone="yes"?>
<!DOCTYPE earthquake SYSTEM "stationlist.dtd">
<stationlist created="" xmlns="ch.ethz.sed.shakemap.usgs.xml">
  <station code="ARPRA" name="ARPRA" netid="KO" insttype="CMG-5T" lat="39.0929" lon="38.3356">
    <comp name="--.HNZ">
      <acc value="0.0191063244" flag="0"/>
      <vel value="0.0065765305" flag="0"/>
      <psa03 value="0.0375374281" flag="0"/>
      <psa10 value="0.0049214781" flag="0"/>
      <psa30 value="0.0005136722" flag="0"/>
    </comp>
    <comp name="--.HNE">
      <acc value="0.0449726475" flag="0"/>
      <vel value="0.0160552671" flag="0"/>
      <psa03 value="0.1259968725" flag="0"/>
      <psa10 value="0.0092302191" flag="0"/>
      <psa30 value="0.0005622294" flag="0"/>
    </comp>
    <comp name="--.HNN">
      <acc value="0.0476272312" flag="0"/>
      <vel value="0.0187330892" flag="0"/>
      <psa03 value="0.1066124454" flag="0"/>
      <psa10 value="0.0082970198" flag="0"/>
      <psa30 value="0.0010317745" flag="0"/>
    </comp>
  </station>
  <station code="BAYT" name="BAYT" netid="KO" insttype="CMG-3ESPC" lat="40.3937" lon="40.141">
    <comp name="--.HHN">
      <acc value="0.0571899453" flag="0"/>
      <vel value="0.0180463268" flag="0"/>
      <psa03 value="0.0887375544" flag="0"/>
      <psa10 value="0.0107561524" flag="0"/>
      <psa30 value="0.0007314806" flag="0"/>
    </comp>
    <comp name="--.HHE">
      <acc value="0.0429010843" flag="0"/>
      <vel value="0.0125903833" flag="0"/>
      <psa03 value="0.0701458594" flag="0"/>
      <psa10 value="0.0140707144" flag="0"/>
      <psa30 value="0.0007458316" flag="0"/>
    </comp>
    <comp name="--.HHZ">
      <acc value="0.0017456388" flag="0"/>
      <vel value="0.0007747135" flag="0"/>
      <psa03 value="0.0075764911" flag="0"/>
      <psa10 value="0.0002837276" flag="0"/>
      <psa30 value="0.0000242735" flag="0"/>
    </comp>
  </station>
  <station code="GUMT" name="GUMT" netid="KO" insttype="CMG-5T" lat="40.4665" lon="39.478">
    <comp name="--.HNZ">
      <acc value="0.0506271702" flag="0"/>
      <vel value="0.0127315554" flag="0"/>
      <psa03 value="0.0489968453" flag="0"/>
      <psa10 value="0.0150894188" flag="0"/>
      <psa30 value="0.0012803239" flag="0"/>
    </comp>
    <comp name="--.HNN">
      <acc value="0.0478856036" flag="0"/>
      <vel value="0.0129954449" flag="0"/>
      <psa03 value="0.0501702699" flag="0"/>
      <psa10 value="0.0096601156" flag="0"/>
      <psa30 value="0.0013357689" flag="0"/>
    </comp>
    <comp name="--.HNE">
      <acc value="0.0691128399" flag="0"/>
      <vel value="0.0180617336" flag="0"/>
      <psa03 value="0.0507151681" flag="0"/>
      <psa10 value="0.0072242317" flag="0"/>
      <psa30 value="0.0008117365" flag="0"/>
    </comp>
  </station>
  <station code="KYHL" name="KYHL" netid="KO" insttype="CMG-5T" lat="40.3244" lon="37.8955">
    <comp name="--.HNZ">
      <acc value="0.0372876404" flag="0"/>
      <vel value="0.0160959970" flag="0"/>
      <psa03 value="0.1324024857" flag="0"/>
      <psa10 value="0.0060530218" flag="0"/>
      <psa30 value="0.0006397751" flag="0"/>
    </comp>
    <comp name="--.HNE">
      <acc value="0.0686116338" flag="0"/>
      <vel value="0.0289351847" flag="0"/>
      <psa03 value="0.2111066971" flag="0"/>
      <psa10 value="0.0152176976" flag="0"/>
      <psa30 value="0.0008431590" flag="0"/>
    </comp>
    <comp name="--.HNN">
      <acc value="0.0807742679" flag="0"/>
      <vel value="0.0315188719" flag="0"/>
      <psa03 value="0.2089192618" flag="0"/>
      <psa10 value="0.0093102185" flag="0"/>
      <psa30 value="0.0010577705" flag="0"/>
    </comp>
  </station>
  <station code="RFHY" name="RFHY" netid="KO" insttype="CMG-5T" lat="39.927" lon="38.833">
    <comp name="--.HNE">
      <acc value="0.0108866067" flag="0"/>
      <vel value="0.0173184734" flag="0"/>
      <psa03 value="0.0338471391" flag="0"/>
      <psa10 value="0.0054506587" flag="0"/>
      <psa30 value="0.0043973381" flag="0"/>
    </comp>
    <comp name="--.HNN">
      <acc value="0.4170452824" flag="0"/>
      <vel value="0.1903638703" flag="0"/>
      <psa03 value="0.8211970877" flag="0"/>
      <psa10 value="0.2197204005" flag="0"/>
      <psa30 value="0.0133912948" flag="0"/>
    </comp>
    <comp name="--.HNZ">
      <acc value="0.1601468177" flag="0"/>
      <vel value="0.0769462468" flag="0"/>
      <psa03 value="0.4621435954" flag="0"/>
      <psa10 value="0.0759159779" flag="0"/>
      <psa30 value="0.0055522034" flag="0"/>
    </comp>
  </station>
  <station code="SINE" name="SINE" netid="KO" insttype="CMG-6T" lat="39.1636" lon="39.3871">
    <comp name="--.HHZ">
      <acc value="0.0196438365" flag="0"/>
      <vel value="0.0069385613" flag="0"/>
      <psa03 value="0.0482974464" flag="0"/>
      <psa10 value="0.0028614062" flag="0"/>
      <psa30 value="0.0001471019" flag="0"/>
    </comp>
    <comp name="--.HHE">
      <acc value="0.0428251301" flag="0"/>
      <vel value="0.0103560192" flag="0"/>
      <psa03 value="0.0468832894" flag="0"/>
      <psa10 value="0.0033532823" flag="0"/>
      <psa30 value="0.0001471480" flag="0"/>
    </comp>
    <comp name="--.HHN">
      <acc value="0.0319555280" flag="0"/>
      <vel value="0.0067793844" flag="0"/>
      <psa03 value="0.0367025580" flag="0"/>
      <psa10 value="0.0025027796" flag="0"/>
      <psa30 value="0.0001619654" flag="0"/>
    </comp>
  </station>
</stationlist>
