<stationlist created="1726216278">
	<station code="ARPRA" name="ARPRA" netid="KO" source="Bogazici University Kandilli Observatory And Earthquake Research Institute (KOERI)" insttype="" lat="39.0929" lon="38.3356">
		<comp name=".HNE" depth="0.0">
			<acc value="0.045115732769772" flag="0"/>
			<vel value="0.0162618496977" flag="0"/>
			<psa03 value="0.129015109118028" flag="0"/>
			<psa10 value="0.00922527550421215" flag="0"/>
			<psa30 value="0.000578829230013064" flag="0"/>
		</comp>
		<comp name=".HNN" depth="0.0">
			<acc value="0.047532227835666" flag="0"/>
			<vel value="0.0190013789856" flag="0"/>
			<psa03 value="0.108595558506178" flag="0"/>
			<psa10 value="0.00836006131304109" flag="0"/>
			<psa30 value="0.00118330734663633" flag="0"/>
		</comp>
		<comp name=".HNZ" depth="0.0">
			<acc value="0.018715579469358" flag="0"/>
			<vel value="0.006753377463" flag="0"/>
			<psa03 value="0.0380881116921441" flag="0"/>
			<psa10 value="0.00493411232949613" flag="0"/>
			<psa30 value="0.000602864155540547" flag="0"/>
		</comp>
	</station>
	<station code="CHAY" name="CHAY" netid="KO" source="Bogazici University Kandilli Observatory And Earthquake Research Institute (KOERI)" insttype="" lat="41.0862" lon="40.7253">
		<comp name=".HNE" depth="0.0">
			<acc value="0.027636698362014" flag="0"/>
			<vel value="0.013270224811" flag="0"/>
			<psa03 value="0.0258227887580084" flag="0"/>
			<psa10 value="0.0271493047581825" flag="0"/>
			<psa30 value="0.000724695663781652" flag="0"/>
		</comp>
		<comp name=".HNN" depth="0.0">
			<acc value="0.039994241351208" flag="0"/>
			<vel value="0.0126031378256" flag="0"/>
			<psa03 value="0.0514100514971029" flag="0"/>
			<psa10 value="0.011812942236968" flag="0"/>
			<psa30 value="0.000616715802313192" flag="0"/>
		</comp>
		<comp name=".HNZ" depth="0.0">
			<acc value="0.010028171307603" flag="0"/>
			<vel value="0.00478951508786" flag="0"/>
			<psa03 value="0.0111838424371752" flag="0"/>
			<psa10 value="0.0140192827711844" flag="0"/>
			<psa30 value="0.000680905731662863" flag="0"/>
		</comp>
	</station>
	<station code="GUMT" name="GUMT" netid="KO" source="Bogazici University Kandilli Observatory And Earthquake Research Institute (KOERI)" insttype="" lat="40.4665" lon="39.478">
		<comp name=".HNE" depth="0.0">
			<acc value="0.06696212916225" flag="0"/>
			<vel value="0.0185411762317" flag="0"/>
			<psa03 value="0.0512069234575609" flag="0"/>
			<psa10 value="0.00725508248861116" flag="0"/>
			<psa30 value="0.000868186783947941" flag="0"/>
		</comp>
		<comp name=".HNN" depth="0.0">
			<acc value="0.045958536200844" flag="0"/>
			<vel value="0.0128491758167" flag="0"/>
			<psa03 value="0.0508962257918968" flag="0"/>
			<psa10 value="0.00968835149322255" flag="0"/>
			<psa30 value="0.00152240866460359" flag="0"/>
		</comp>
		<comp name=".HNZ" depth="0.0">
			<acc value="0.044987677292664" flag="0"/>
			<vel value="0.0130303963797" flag="0"/>
			<psa03 value="0.0488141034866209" flag="0"/>
			<psa10 value="0.015145607072131" flag="0"/>
			<psa30 value="0.00153019334696772" flag="0"/>
		</comp>
	</station>
	<station code="KYHL" name="KYHL" netid="KO" source="Bogazici University Kandilli Observatory And Earthquake Research Institute (KOERI)" insttype="" lat="40.3244" lon="37.8955">
		<comp name=".HNE" depth="0.0">
			<acc value="0.068629236191982" flag="0"/>
			<vel value="0.0293160172042" flag="0"/>
			<psa03 value="0.21504878759343" flag="0"/>
			<psa10 value="0.0152497786605047" flag="0"/>
			<psa30 value="0.000882632324225546" flag="0"/>
		</comp>
		<comp name=".HNN" depth="0.0">
			<acc value="0.08046463207023" flag="0"/>
			<vel value="0.0314568817069" flag="0"/>
			<psa03 value="0.212715591363984" flag="0"/>
			<psa10 value="0.00931324789447266" flag="0"/>
			<psa30 value="0.00115403707429168" flag="0"/>
		</comp>
		<comp name=".HNZ" depth="0.0">
			<acc value="0.037212408283788" flag="0"/>
			<vel value="0.0158646191767" flag="0"/>
			<psa03 value="0.132553562272769" flag="0"/>
			<psa10 value="0.00606833840387747" flag="0"/>
			<psa30 value="0.000698031293231427" flag="0"/>
		</comp>
	</station>
	<station code="TUNC" name="TUNC" netid="KO" source="Bogazici University Kandilli Observatory And Earthquake Research Institute (KOERI)" insttype="" lat="39.6942" lon="37.5388">
		<comp name=".HNE" depth="0.0">
			<acc value="0.03292255241901" flag="0"/>
			<vel value="0.012516438583" flag="0"/>
			<psa03 value="0.0731353917358661" flag="0"/>
			<psa10 value="0.00883536686217639" flag="0"/>
			<psa30 value="0.000685671359864475" flag="0"/>
		</comp>
		<comp name=".HNN" depth="0.0">
			<acc value="0.030103016905338" flag="0"/>
			<vel value="0.01303502521" flag="0"/>
			<psa03 value="0.0899477919333196" flag="0"/>
			<psa10 value="0.00981228314062065" flag="0"/>
			<psa30 value="0.0010225729487733" flag="0"/>
		</comp>
		<comp name=".HNZ" depth="0.0">
			<acc value="0.011512713978372" flag="0"/>
			<vel value="0.00537238517512" flag="0"/>
			<psa03 value="0.0470437674602425" flag="0"/>
			<psa10 value="0.00470154676690124" flag="0"/>
			<psa30 value="0.000863434906659513" flag="0"/>
		</comp>
	</station>
</stationlist>
