<?xml version="1.0" encoding="UTF-8" standalone="yes"?>
<!DOCTYPE earthquake SYSTEM "stationlist.dtd">
<stationlist created="" xmlns="ch.ethz.sed.shakemap.usgs.xml">
  <station code="APE" name="APE" netid="GE" insttype="STS-2/N" lat="37.0727" lon="25.523">
    <comp name="--.HHE">
      <acc value="0.3291531173" flag="0"/>
      <vel value="0.0644621773" flag="0"/>
      <psa03 value="0.2455575533" flag="0"/>
      <psa10 value="0.0177633943" flag="0"/>
      <psa30 value="0.0021751942" flag="0"/>
    </comp>
    <comp name="--.HHN">
      <acc value="0.2610363321" flag="0"/>
      <vel value="0.0561956494" flag="0"/>
      <psa03 value="0.1650081313" flag="0"/>
      <psa10 value="0.0127411674" flag="0"/>
      <psa30 value="0.0027700277" flag="0"/>
    </comp>
    <comp name="--.HHZ">
      <acc value="0.1106053376" flag="0"/>
      <vel value="0.0188395570" flag="0"/>
      <psa03 value="0.0989923490" flag="0"/>
      <psa10 value="0.0191420063" flag="0"/>
      <psa30 value="0.0024547885" flag="0"/>
    </comp>
  </station>
  <station code="THERA" name="THERA" netid="GE" insttype="STS-2/N" lat="36.367" lon="25.4753">
    <comp name="--.HHE">
      <acc value="0.1832486071" flag="0"/>
      <vel value="0.0564356290" flag="0"/>
      <psa03 value="0.2938757574" flag="0"/>
      <psa10 value="0.0183353076" flag="0"/>
      <psa30 value="0.0023579427" flag="0"/>
    </comp>
    <comp name="--.HHN">
      <acc value="0.2241899409" flag="0"/>
      <vel value="0.0427870132" flag="0"/>
      <psa03 value="0.1473273100" flag="0"/>
      <psa10 value="0.0094324832" flag="0"/>
      <psa30 value="0.0009182803" flag="0"/>
    </comp>
    <comp name="--.HHZ">
      <acc value="0.1473082208" flag="0"/>
      <vel value="0.0312402060" flag="0"/>
      <psa03 value="0.1709760396" flag="0"/>
      <psa10 value="0.0106058749" flag="0"/>
      <psa30 value="0.0023439205" flag="0"/>
    </comp>
  </station>
  <station code="SNT1" name="SNT1" netid="HA" insttype="30" lat="36.4159" lon="25.4282">
    <comp name="--.HHZ">
      <acc value="0.1229971988" flag="0"/>
      <vel value="0.0228943203" flag="0"/>
      <psa03 value="0.1126710989" flag="0"/>
      <psa10 value="0.0183472767" flag="0"/>
      <psa30 value="0.0020014455" flag="0"/>
    </comp>
    <comp name="--.HHE">
      <acc value="0.1478715694" flag="0"/>
      <vel value="0.0337022361" flag="0"/>
      <psa03 value="0.1130800944" flag="0"/>
      <psa10 value="0.0324947488" flag="0"/>
      <psa30 value="0.0043917721" flag="0"/>
    </comp>
    <comp name="--.HHN">
      <acc value="0.1527948494" flag="0"/>
      <vel value="0.0366204083" flag="0"/>
      <psa03 value="0.1789737065" flag="0"/>
      <psa10 value="0.0205719383" flag="0"/>
      <psa30 value="0.0032202666" flag="0"/>
    </comp>
  </station>
  <station code="MHLO" name="MHLO" netid="HL" insttype="20" lat="36.6898" lon="24.4017">
    <comp name="--.HHN">
      <acc value="0.0993316513" flag="0"/>
      <vel value="0.0655279420" flag="0"/>
      <psa03 value="0.3103484435" flag="0"/>
      <psa10 value="0.0835268549" flag="0"/>
      <psa30 value="0.0030875725" flag="0"/>
    </comp>
    <comp name="--.HHZ">
      <acc value="0.0502203290" flag="0"/>
      <vel value="0.0330403040" flag="0"/>
      <psa03 value="0.1776430496" flag="0"/>
      <psa10 value="0.0505230353" flag="0"/>
      <psa30 value="0.0025696683" flag="0"/>
    </comp>
    <comp name="--.HHE">
      <acc value="0.1278668756" flag="0"/>
      <vel value="0.0789106111" flag="0"/>
      <psa03 value="0.1624064188" flag="0"/>
      <psa10 value="0.0932750537" flag="0"/>
      <psa30 value="0.0040806802" flag="0"/>
    </comp>
  </station>
  <station code="NISR" name="NISR" netid="HL" insttype="65535" lat="36.6106" lon="27.131">
    <comp name="--.HHE">
      <acc value="0.0000000000" flag="0"/>
      <vel value="-100.0000000000" flag="0"/>
      <psa03 value="0.0000000000" flag="0"/>
      <psa10 value="0.0000000000" flag="0"/>
      <psa30 value="0.0000000000" flag="0"/>
    </comp>
    <comp name="--.HHN">
      <acc value="0.0290590706" flag="0"/>
      <vel value="0.0122270954" flag="0"/>
      <psa03 value="0.0989462169" flag="0"/>
      <psa10 value="0.0137991761" flag="0"/>
      <psa30 value="0.0030028359" flag="0"/>
    </comp>
    <comp name="--.HHZ">
      <acc value="0.0125106887" flag="0"/>
      <vel value="0.0070253245" flag="0"/>
      <psa03 value="0.0378684121" flag="0"/>
      <psa10 value="0.0108350689" flag="0"/>
      <psa30 value="0.0006368682" flag="0"/>
    </comp>
  </station>
  <station code="SAP3" name="SAP3" netid="HL" insttype="LE3D20_SMART24" lat="36.4356" lon="25.3454">
    <comp name="--.HHE">
      <acc value="0.6982657943" flag="0"/>
      <vel value="0.1631968855" flag="0"/>
      <psa03 value="0.7696103255" flag="0"/>
      <psa10 value="0.1136975232" flag="0"/>
      <psa30 value="0.0148746782" flag="0"/>
    </comp>
    <comp name="--.HHN">
      <acc value="0.6523233033" flag="0"/>
      <vel value="0.1937936439" flag="0"/>
      <psa03 value="0.8618327018" flag="0"/>
      <psa10 value="0.1147070067" flag="0"/>
      <psa30 value="0.0136829060" flag="0"/>
    </comp>
    <comp name="--.HHZ">
      <acc value="0.6168266173" flag="0"/>
      <vel value="0.1287497963" flag="0"/>
      <psa03 value="0.6437641362" flag="0"/>
      <psa10 value="0.0517599064" flag="0"/>
      <psa30 value="0.0074437659" flag="0"/>
    </comp>
  </station>
  <station code="THERA" name="THERA" netid="HL" insttype="120" lat="36.367" lon="25.4753">
    <comp name="--.HHN">
      <acc value="0.2234924128" flag="0"/>
      <vel value="0.0418228763" flag="0"/>
      <psa03 value="0.1428104019" flag="0"/>
      <psa10 value="0.0093461755" flag="0"/>
      <psa30 value="0.0009174630" flag="0"/>
    </comp>
    <comp name="--.HHE">
      <acc value="0.1782910881" flag="0"/>
      <vel value="0.0547384855" flag="0"/>
      <psa03 value="0.2854021645" flag="0"/>
      <psa10 value="0.0181209215" flag="0"/>
      <psa30 value="0.0023596042" flag="0"/>
    </comp>
    <comp name="--.HHZ">
      <acc value="0.1457187988" flag="0"/>
      <vel value="0.0305863246" flag="0"/>
      <psa03 value="0.1658222199" flag="0"/>
      <psa10 value="0.0103781659" flag="0"/>
      <psa30 value="0.0023393918" flag="0"/>
    </comp>
  </station>
  <station code="THRA" name="THRA" netid="HL" insttype="CMG-5" lat="36.415" lon="25.4324">
    <comp name="00.HNE">
      <acc value="0.6055148865" flag="0"/>
      <vel value="0.1516110045" flag="0"/>
      <psa03 value="0.7097651087" flag="0"/>
      <psa10 value="0.0755665244" flag="0"/>
      <psa30 value="0.0083315720" flag="0"/>
    </comp>
    <comp name="00.HNN">
      <acc value="0.4931370620" flag="0"/>
      <vel value="0.1600392499" flag="0"/>
      <psa03 value="0.7285930115" flag="0"/>
      <psa10 value="0.0858060169" flag="0"/>
      <psa30 value="0.0057089570" flag="0"/>
    </comp>
    <comp name="00.HNZ">
      <acc value="0.4052379760" flag="0"/>
      <vel value="0.0916131253" flag="0"/>
      <psa03 value="0.4909420031" flag="0"/>
      <psa10 value="0.0415120031" flag="0"/>
      <psa30 value="0.0032635315" flag="0"/>
    </comp>
  </station>
  <station code="CMBO" name="CMBO" netid="HT" insttype="120P," lat="36.4709" lon="25.4056">
    <comp name="--.HHE">
      <acc value="0.6117590766" flag="0"/>
      <vel value="0.1722089326" flag="0"/>
      <psa03 value="0.7261348503" flag="0"/>
      <psa10 value="0.1441386632" flag="0"/>
      <psa30 value="0.0139415224" flag="0"/>
    </comp>
    <comp name="--.HHZ">
      <acc value="0.6318507938" flag="0"/>
      <vel value="0.1831984477" flag="0"/>
      <psa03 value="0.7965229473" flag="0"/>
      <psa10 value="0.0499078451" flag="0"/>
      <psa30 value="0.0067365348" flag="0"/>
    </comp>
    <comp name="--.HHN">
      <acc value="1.0478964733" flag="0"/>
      <vel value="0.2792516324" flag="0"/>
      <psa03 value="0.7772830813" flag="0"/>
      <psa10 value="0.1526903340" flag="0"/>
      <psa30 value="0.0068185810" flag="0"/>
    </comp>
  </station>
</stationlist>
