<?xml version="1.0" encoding="UTF-8" standalone="yes"?>
<!DOCTYPE earthquake SYSTEM "stationlist.dtd">
<stationlist created="" xmlns="ch.ethz.sed.shakemap.usgs.xml">
  <station code="APE" name="APE" netid="GE" insttype="STS-2/N" lat="37.0727" lon="25.523">
    <comp name="--.HHE">
      <acc value="0.3291531173" flag="0"/>
      <vel value="0.0644621773" flag="0"/>
      <psa03 value="0.2455575533" flag="0"/>
      <psa10 value="0.0177633943" flag="0"/>
      <psa30 value="0.0021751942" flag="0"/>
    </comp>
    <comp name="--.HHN">
      <acc value="0.2610363321" flag="0"/>
      <vel value="0.0561956494" flag="0"/>
      <psa03 value="0.1650081313" flag="0"/>
      <psa10 value="0.0127411674" flag="0"/>
      <psa30 value="0.0027700277" flag="0"/>
    </comp>
    <comp name="--.HHZ">
      <acc value="0.1106053376" flag="0"/>
      <vel value="0.0188395570" flag="0"/>
      <psa03 value="0.0989923490" flag="0"/>
      <psa10 value="0.0191420063" flag="0"/>
      <psa30 value="0.0024547885" flag="0"/>
    </comp>
  </station>
  <station code="THERA" name="THERA" netid="GE" insttype="STS-2/N" lat="36.367" lon="25.4753">
    <comp name="--.HHE">
      <acc value="0.1832486071" flag="0"/>
      <vel value="0.0564356290" flag="0"/>
      <psa03 value="0.2938757574" flag="0"/>
      <psa10 value="0.0183353076" flag="0"/>
      <psa30 value="0.0023579427" flag="0"/>
    </comp>
    <comp name="--.HHN">
      <acc value="0.2241899409" flag="0"/>
      <vel value="0.0427870132" flag="0"/>
      <psa03 value="0.1473273100" flag="0"/>
      <psa10 value="0.0094324832" flag="0"/>
      <psa30 value="0.0009182803" flag="0"/>
    </comp>
    <comp name="--.HHZ">
      <acc value="0.1473082208" flag="0"/>
      <vel value="0.0312402060" flag="0"/>
      <psa03 value="0.1709760396" flag="0"/>
      <psa10 value="0.0106058749" flag="0"/>
      <psa30 value="0.0023439205" flag="0"/>
    </comp>
  </station>
</stationlist>
