<stationlist created="1738593209">
	<station code="BODA" name="BODA" netid="KO" source="Bogazici University Kandilli Observatory And Earthquake Research Institute (KOERI)" insttype="" lat="37.0348" lon="27.4304">
		<comp name=".HNE" depth="0.0">
			<acc value="0.010206971633496" flag="0"/>
			<vel value="0.00453561196725" flag="0"/>
			<psa03 value="0.04902861248851" flag="0"/>
			<psa10 value="0.0030421954367678" flag="0"/>
			<psa30 value="0.000315155955660151" flag="0"/>
		</comp>
		<comp name=".HNN" depth="0.0">
			<acc value="0.011827589622306" flag="0"/>
			<vel value="0.00509508842281" flag="0"/>
			<psa03 value="0.0443813619224183" flag="0"/>
			<psa10 value="0.00395615113809903" flag="0"/>
			<psa30 value="0.000329065575020873" flag="0"/>
		</comp>
		<comp name=".HNZ" depth="0.0">
			<acc value="0.012811028825742" flag="0"/>
			<vel value="0.00299348561721" flag="0"/>
			<psa03 value="0.00883947424365615" flag="0"/>
			<psa10 value="0.00234600822402966" flag="0"/>
			<psa30 value="0.000373445728530025" flag="0"/>
		</comp>
	</station>
	<station code="BODM" name="BODM" netid="KO" source="Bogazici University Kandilli Observatory And Earthquake Research Institute (KOERI)" insttype="" lat="37.031" lon="27.4247">
		<comp name=".HNE" depth="0.0">
			<acc value="0.011593292097798" flag="0"/>
			<vel value="0.007182890942" flag="0"/>
			<psa03 value="0.0414899828827339" flag="0"/>
			<psa10 value="0.00385442471171887" flag="0"/>
			<psa30 value="0.0003552514503319" flag="0"/>
		</comp>
		<comp name=".HNN" depth="0.0">
			<acc value="0.016710184219062" flag="0"/>
			<vel value="0.0100364829554" flag="0"/>
			<psa03 value="0.0425548086305451" flag="0"/>
			<psa10 value="0.00588441778255882" flag="0"/>
			<psa30 value="0.00047976662593278" flag="0"/>
		</comp>
		<comp name=".HNZ" depth="0.0">
			<acc value="0.002498488342245" flag="0"/>
			<vel value="0.00197711492623" flag="0"/>
			<psa03 value="0.00721830434909362" flag="0"/>
			<psa10 value="0.00225943491085034" flag="0"/>
			<psa30 value="0.000373591727785057" flag="0"/>
		</comp>
	</station>
	<station code="CESE" name="CESE" netid="KO" source="Bogazici University Kandilli Observatory And Earthquake Research Institute (KOERI)" insttype="" lat="38.3306" lon="26.2997">
		<comp name=".HNE" depth="0.0">
			<acc value="0.0035997528597672" flag="0"/>
			<vel value="0.00156452297027" flag="0"/>
			<psa03 value="0.00420947286733532" flag="0"/>
			<psa10 value="0.00230258198788134" flag="0"/>
			<psa30 value="0.000537431695963656" flag="0"/>
		</comp>
		<comp name=".HNN" depth="0.0">
			<acc value="0.0041747967949758" flag="0"/>
			<vel value="0.00242002382503" flag="0"/>
			<psa03 value="0.00779236451317789" flag="0"/>
			<psa10 value="0.00280598158563328" flag="0"/>
			<psa30 value="0.000489657749921662" flag="0"/>
		</comp>
		<comp name=".HNZ" depth="0.0">
			<acc value="0.0027144315900444" flag="0"/>
			<vel value="0.00133263172498" flag="0"/>
			<psa03 value="0.00409409673464755" flag="0"/>
			<psa10 value="0.00174152841458456" flag="0"/>
			<psa30 value="0.000381769561193" flag="0"/>
		</comp>
	</station>
	<station code="DATC" name="DATC" netid="KO" source="Bogazici University Kandilli Observatory And Earthquake Research Institute (KOERI)" insttype="" lat="36.7584" lon="27.6602">
		<comp name=".HNE" depth="0.0">
			<acc value="0.007921294892343" flag="0"/>
			<vel value="0.0050433201342" flag="0"/>
			<psa03 value="0.0142085558304043" flag="0"/>
			<psa10 value="0.00973380169160571" flag="0"/>
			<psa30 value="0.000985148282070381" flag="0"/>
		</comp>
		<comp name=".HNN" depth="0.0">
			<acc value="0.0072480376280232" flag="0"/>
			<vel value="0.00442264419392" flag="0"/>
			<psa03 value="0.0193172953010314" flag="0"/>
			<psa10 value="0.00790403579108842" flag="0"/>
			<psa30 value="0.00110419721014705" flag="0"/>
		</comp>
		<comp name=".HNZ" depth="0.0">
			<acc value="0.017293619532264" flag="0"/>
			<vel value="0.00478284373364" flag="0"/>
			<psa03 value="0.0111612419816908" flag="0"/>
			<psa10 value="0.00809143008004169" flag="0"/>
			<psa30 value="0.00071825575800285" flag="0"/>
		</comp>
	</station>
	<station code="DIDI" name="DIDI" netid="KO" source="Bogazici University Kandilli Observatory And Earthquake Research Institute (KOERI)" insttype="" lat="37.3767" lon="27.2398">
		<comp name=".HNE" depth="0.0">
			<acc value="0.017869165897716" flag="0"/>
			<vel value="0.0102112306243" flag="0"/>
			<psa03 value="0.0619507914357323" flag="0"/>
			<psa10 value="0.0102900413522578" flag="0"/>
			<psa30 value="0.00241029633696969" flag="0"/>
		</comp>
		<comp name=".HNN" depth="0.0">
			<acc value="0.021690688083582" flag="0"/>
			<vel value="0.011408699855" flag="0"/>
			<psa03 value="0.0758801568964242" flag="0"/>
			<psa10 value="0.0133653378880266" flag="0"/>
			<psa30 value="0.00215153961227408" flag="0"/>
		</comp>
		<comp name=".HNZ" depth="0.0">
			<acc value="0.02106545463714" flag="0"/>
			<vel value="0.00665868998578" flag="0"/>
			<psa03 value="0.0508247991851547" flag="0"/>
			<psa10 value="0.00689623902950408" flag="0"/>
			<psa30 value="0.000923398983152805" flag="0"/>
		</comp>
	</station>
	<station code="GMLD" name="GMLD" netid="KO" source="Bogazici University Kandilli Observatory And Earthquake Research Institute (KOERI)" insttype="" lat="38.0766" lon="26.9157">
		<comp name=".HNE" depth="0.0">
			<acc value="0.019004757266034" flag="0"/>
			<vel value="0.00657155713794" flag="0"/>
			<psa03 value="0.0439860284418641" flag="0"/>
			<psa10 value="0.00703628877585535" flag="0"/>
			<psa30 value="0.000491768775184142" flag="0"/>
		</comp>
		<comp name=".HNN" depth="0.0">
			<acc value="0.01608758269545" flag="0"/>
			<vel value="0.00819633756682" flag="0"/>
			<psa03 value="0.045366156326918" flag="0"/>
			<psa10 value="0.00946676337661494" flag="0"/>
			<psa30 value="0.000570243296651381" flag="0"/>
		</comp>
		<comp name=".HNZ" depth="0.0">
			<acc value="0.013690411191324" flag="0"/>
			<vel value="0.00505943252913" flag="0"/>
			<psa03 value="0.0341104653800995" flag="0"/>
			<psa10 value="0.00221582374057386" flag="0"/>
			<psa30 value="0.000323350847489844" flag="0"/>
		</comp>
	</station>
	<station code="KUSD" name="KUSD" netid="KO" source="Bogazici University Kandilli Observatory And Earthquake Research Institute (KOERI)" insttype="" lat="37.8606" lon="27.2868">
		<comp name=".HNE" depth="0.0">
			<acc value="0.0043716139401348" flag="0"/>
			<vel value="0.00261056428397" flag="0"/>
			<psa03 value="0.02239686909932" flag="0"/>
			<psa10 value="0.00436544247037849" flag="0"/>
			<psa30 value="0.00048921725199383" flag="0"/>
		</comp>
		<comp name=".HNN" depth="0.0">
			<acc value="0.0056000716300086" flag="0"/>
			<vel value="0.00239939266841" flag="0"/>
			<psa03 value="0.0118620983058123" flag="0"/>
			<psa10 value="0.00268922299157627" flag="0"/>
			<psa30 value="0.000493319190391764" flag="0"/>
		</comp>
		<comp name=".HNZ" depth="0.0">
			<acc value="0.0027475793390166" flag="0"/>
			<vel value="0.00139023579028" flag="0"/>
			<psa03 value="0.00764561455734154" flag="0"/>
			<psa10 value="0.0014584930633203" flag="0"/>
			<psa30 value="0.000550616163116569" flag="0"/>
		</comp>
	</station>
	<station code="YKAV" name="YKAV" netid="KO" source="Bogazici University Kandilli Observatory And Earthquake Research Institute (KOERI)" insttype="" lat="37.1246" lon="27.2801">
		<comp name=".HNE" depth="0.0">
			<acc value="0.016749074205414" flag="0"/>
			<vel value="0.00831774782798" flag="0"/>
			<psa03 value="0.0534774697034617" flag="0"/>
			<psa10 value="0.00917451589166682" flag="0"/>
			<psa30 value="0.000732328565256728" flag="0"/>
		</comp>
		<comp name=".HNN" depth="0.0">
			<acc value="0.0076086868861542" flag="0"/>
			<vel value="0.00481284247229" flag="0"/>
			<psa03 value="0.035595665329804" flag="0"/>
			<psa10 value="0.00853762057547989" flag="0"/>
			<psa30 value="0.000496628472116801" flag="0"/>
		</comp>
		<comp name=".HNZ" depth="0.0">
			<acc value="0.007211530422147" flag="0"/>
			<vel value="0.00420736719813" flag="0"/>
			<psa03 value="0.0266841062327331" flag="0"/>
			<psa10 value="0.00481913299389101" flag="0"/>
			<psa30 value="0.000586832051828842" flag="0"/>
		</comp>
	</station>
</stationlist>
