<?xml version="1.0" encoding="UTF-8" standalone="yes"?>
<!DOCTYPE earthquake SYSTEM "stationlist.dtd">
<stationlist created="" xmlns="ch.ethz.sed.shakemap.usgs.xml">
  <station code="ADA" name="ADA" netid="VI" source="ODC" insttype="CMG-3ESP" lat="65.0188" lon="-15.5745">
    <comp name="--.HHE">
      <acc value="0.0080403451" flag="0"/>
      <vel value="0.0293433444" flag="0"/>
      <psa03 value="0.0145561922" flag="0"/>
      <psa10 value="0.0224374995" flag="0"/>
      <psa30 value="0.0197997107" flag="0"/>
    </comp>
    <comp name="--.HHN">
      <acc value="0.0073331199" flag="0"/>
      <vel value="0.0233834309" flag="0"/>
      <psa03 value="0.0111109791" flag="0"/>
      <psa10 value="0.0117498379" flag="0"/>
      <psa30 value="0.0233304887" flag="0"/>
    </comp>
    <comp name="--.HHZ">
      <acc value="0.0071648593" flag="0"/>
      <vel value="0.0216617876" flag="0"/>
      <psa03 value="0.0098076693" flag="0"/>
      <psa10 value="0.0145254760" flag="0"/>
      <psa30 value="0.0226013646" flag="0"/>
    </comp>
  </station>
  <station code="SKR" name="SKR" netid="VI" source="ODC" insttype="LE-3D/5s" lat="64.5601" lon="-18.3865">
    <comp name="--.HHN">
      <acc value="0.1372834829" flag="0"/>
      <vel value="0.4841949508" flag="0"/>
      <psa03 value="0.1416687325" flag="0"/>
      <psa10 value="0.1833649859" flag="0"/>
      <psa30 value="0.1845344757" flag="0"/>
    </comp>
    <comp name="--.HHZ">
      <acc value="0.0751833008" flag="0"/>
      <vel value="0.2705014050" flag="0"/>
      <psa03 value="0.0903723384" flag="0"/>
      <psa10 value="0.1206255479" flag="0"/>
      <psa30 value="0.2310410626" flag="0"/>
    </comp>
    <comp name="--.HHE">
      <acc value="0.1321774750" flag="0"/>
      <vel value="0.4587504150" flag="0"/>
      <psa03 value="0.1335295616" flag="0"/>
      <psa10 value="0.2067091859" flag="0"/>
      <psa30 value="0.2695551395" flag="0"/>
    </comp>
  </station>
</stationlist>
