<?xml version="1.0" encoding="UTF-8" standalone="yes"?>
<!DOCTYPE earthquake SYSTEM "stationlist.dtd">
<stationlist created="" xmlns="ch.ethz.sed.shakemap.usgs.xml">
  <station code="AFSR" name="AFSR" netid="KO" insttype="CMG-3ESP" commtype="DIG" lat="39.4468" lon="33.0707">
    <comp name="--.HHN">
      <acc value="0.0293133277" flag="0"/>
      <vel value="0.0283926023" flag="0"/>
      <psa03 value="0.0815712832" flag="0"/>
      <psa10 value="0.0912137504" flag="0"/>
      <psa30 value="0.0042962484" flag="0"/>
    </comp>
    <comp name="--.HHE">
      <acc value="0.0178336860" flag="0"/>
      <vel value="0.0176056604" flag="0"/>
      <psa03 value="0.0537919405" flag="0"/>
      <psa10 value="0.0287469421" flag="0"/>
      <psa30 value="0.0034295100" flag="0"/>
    </comp>
    <comp name="--.HHZ">
      <acc value="0.0134146593" flag="0"/>
      <vel value="0.0133039505" flag="0"/>
      <psa03 value="0.0214271963" flag="0"/>
      <psa10 value="0.0345250940" flag="0"/>
      <psa30 value="0.0015772712" flag="0"/>
    </comp>
  </station>
  <station code="CHBY" name="CHBY" netid="KO" insttype="CMG-6T" commtype="DIG" lat="38.5823" lon="32.8902">
    <comp name="--.HHE">
      <acc value="0.0104174759" flag="0"/>
      <vel value="0.0058358300" flag="0"/>
      <psa03 value="0.0323717407" flag="0"/>
      <psa10 value="0.0091762268" flag="0"/>
      <psa30 value="0.0011892294" flag="0"/>
    </comp>
    <comp name="--.HHZ">
      <acc value="0.0077320784" flag="0"/>
      <vel value="0.0036164445" flag="0"/>
      <psa03 value="0.0211114867" flag="0"/>
      <psa10 value="0.0046098184" flag="0"/>
      <psa30 value="0.0011079896" flag="0"/>
    </comp>
    <comp name="--.HHN">
      <acc value="0.0121476342" flag="0"/>
      <vel value="0.0058709853" flag="0"/>
      <psa03 value="0.0475992582" flag="0"/>
      <psa10 value="0.0065496051" flag="0"/>
      <psa30 value="0.0019097836" flag="0"/>
    </comp>
  </station>
  <station code="KAMT" name="KAMT" netid="KO" insttype="CMG-3T" commtype="DIG" lat="39.3689" lon="33.7087">
    <comp name="--.HHE">
      <acc value="0.0115881469" flag="0"/>
      <vel value="0.0075952338" flag="0"/>
      <psa03 value="0.0323362984" flag="0"/>
      <psa10 value="0.0043447045" flag="0"/>
      <psa30 value="0.0002472971" flag="0"/>
    </comp>
    <comp name="--.HHZ">
      <acc value="0.0038757314" flag="0"/>
      <vel value="0.0015823285" flag="0"/>
      <psa03 value="0.0087655322" flag="0"/>
      <psa10 value="0.0018666789" flag="0"/>
      <psa30 value="0.0003122557" flag="0"/>
    </comp>
    <comp name="--.HHN">
      <acc value="0.0078884722" flag="0"/>
      <vel value="0.0029573939" flag="0"/>
      <psa03 value="0.0106567272" flag="0"/>
      <psa10 value="0.0035850662" flag="0"/>
      <psa30 value="0.0003149132" flag="0"/>
    </comp>
  </station>
  <station code="KIZT" name="KIZT" netid="KO" insttype="CMG-3T" commtype="DIG" lat="38.8808" lon="31.883">
    <comp name="--.HHE">
      <acc value="0.0060006629" flag="0"/>
      <vel value="0.0028461004" flag="0"/>
      <psa03 value="0.0168462213" flag="0"/>
      <psa10 value="0.0024876747" flag="0"/>
      <psa30 value="0.0002978029" flag="0"/>
    </comp>
    <comp name="--.HHN">
      <acc value="0.0118820278" flag="0"/>
      <vel value="0.0045702818" flag="0"/>
      <psa03 value="0.0271958138" flag="0"/>
      <psa10 value="0.0029896452" flag="0"/>
      <psa30 value="0.0004986086" flag="0"/>
    </comp>
    <comp name="--.HHZ">
      <acc value="0.0073459662" flag="0"/>
      <vel value="0.0030285419" flag="0"/>
      <psa03 value="0.0119696066" flag="0"/>
      <psa10 value="0.0039701910" flag="0"/>
      <psa30 value="0.0005140104" flag="0"/>
    </comp>
  </station>
  <station code="KONT" name="KONT" netid="KO" insttype="CMG-3T" commtype="DIG" lat="37.957" lon="32.3563">
    <comp name="--.HHN">
      <acc value="0.0053627202" flag="0"/>
      <vel value="0.0028485109" flag="0"/>
      <psa03 value="0.0108004959" flag="0"/>
      <psa10 value="0.0041603389" flag="0"/>
      <psa30 value="0.0002298203" flag="0"/>
    </comp>
    <comp name="--.HHZ">
      <acc value="0.0039299380" flag="0"/>
      <vel value="0.0027659263" flag="0"/>
      <psa03 value="0.0125874727" flag="0"/>
      <psa10 value="0.0030466303" flag="0"/>
      <psa30 value="0.0002472856" flag="0"/>
    </comp>
    <comp name="--.HHE">
      <acc value="0.0063067934" flag="0"/>
      <vel value="0.0044225176" flag="0"/>
      <psa03 value="0.0125129335" flag="0"/>
      <psa10 value="0.0060422253" flag="0"/>
      <psa30 value="0.0004161619" flag="0"/>
    </comp>
  </station>
  <station code="KULU" name="KULU" netid="KO" insttype="CMG-6T" commtype="DIG" lat="39.0343" lon="33.0023">
    <comp name="--.HHE">
      <acc value="0.0178064993" flag="0"/>
      <vel value="0.0067579835" flag="0"/>
      <psa03 value="0.0457923653" flag="0"/>
      <psa10 value="0.0040499745" flag="0"/>
      <psa30 value="0.0006977822" flag="0"/>
    </comp>
    <comp name="--.HHN">
      <acc value="0.0093612064" flag="0"/>
      <vel value="0.0054966303" flag="0"/>
      <psa03 value="0.0268465451" flag="0"/>
      <psa10 value="0.0057902356" flag="0"/>
      <psa30 value="0.0005301867" flag="0"/>
    </comp>
    <comp name="--.HHZ">
      <acc value="0.0074012846" flag="0"/>
      <vel value="0.0033654133" flag="0"/>
      <psa03 value="0.0172932613" flag="0"/>
      <psa10 value="0.0071090411" flag="0"/>
      <psa30 value="0.0007687538" flag="0"/>
    </comp>
  </station>
  <station code="LOD" name="LOD" netid="KO" insttype="CMG-3T" commtype="DIG" lat="39.8884" lon="32.7634">
    <comp name="--.HHE">
      <acc value="0.0257812440" flag="0"/>
      <vel value="0.0161357275" flag="0"/>
      <psa03 value="0.0656687968" flag="0"/>
      <psa10 value="0.0169695093" flag="0"/>
      <psa30 value="0.0013297403" flag="0"/>
    </comp>
    <comp name="--.HHZ">
      <acc value="0.0043498710" flag="0"/>
      <vel value="0.0023990329" flag="0"/>
      <psa03 value="0.0130719625" flag="0"/>
      <psa10 value="0.0029708059" flag="0"/>
      <psa30 value="0.0005984446" flag="0"/>
    </comp>
    <comp name="--.HHN">
      <acc value="0.0147772880" flag="0"/>
      <vel value="0.0093814013" flag="0"/>
      <psa03 value="0.0498981995" flag="0"/>
      <psa10 value="0.0068946616" flag="0"/>
      <psa30 value="0.0005831262" flag="0"/>
    </comp>
  </station>
  <station code="POLA" name="POLA" netid="KO" insttype="CMG-6T" commtype="DIG" lat="39.7005" lon="32.1677">
    <comp name="--.HHE">
      <acc value="0.0318059700" flag="0"/>
      <vel value="0.0186329163" flag="0"/>
      <psa03 value="0.0952982319" flag="0"/>
      <psa10 value="0.0187611077" flag="0"/>
      <psa30 value="0.0007468417" flag="0"/>
    </comp>
    <comp name="--.HHN">
      <acc value="0.0292641807" flag="0"/>
      <vel value="0.0191363359" flag="0"/>
      <psa03 value="0.1184741564" flag="0"/>
      <psa10 value="0.0127123219" flag="0"/>
      <psa30 value="0.0006209401" flag="0"/>
    </comp>
    <comp name="--.HHZ">
      <acc value="0.0095077319" flag="0"/>
      <vel value="0.0056808472" flag="0"/>
      <psa03 value="0.0398232651" flag="0"/>
      <psa10 value="0.0089110971" flag="0"/>
      <psa30 value="0.0002702788" flag="0"/>
    </comp>
  </station>
  <station code="SERE" name="SERE" netid="KO" insttype="CMG-6T" commtype="DIG" lat="38.9463" lon="33.564">
    <comp name="--.HHE">
      <acc value="0.0276462004" flag="0"/>
      <vel value="0.0137421851" flag="0"/>
      <psa03 value="0.0550918194" flag="0"/>
      <psa10 value="0.0131282195" flag="0"/>
      <psa30 value="0.0009430673" flag="0"/>
    </comp>
    <comp name="--.HHZ">
      <acc value="0.0201880237" flag="0"/>
      <vel value="0.0067116380" flag="0"/>
      <psa03 value="0.0448898318" flag="0"/>
      <psa10 value="0.0066765080" flag="0"/>
      <psa30 value="0.0008635667" flag="0"/>
    </comp>
    <comp name="--.HHN">
      <acc value="0.0258657637" flag="0"/>
      <vel value="0.0133610268" flag="0"/>
      <psa03 value="0.1050260122" flag="0"/>
      <psa10 value="0.0140878201" flag="0"/>
      <psa30 value="0.0010589209" flag="0"/>
    </comp>
  </station>
  <station code="SULT" name="SULT" netid="KO" insttype="CMG-3T" commtype="DIG" lat="38.1988" lon="33.5157">
    <comp name="--.HHE">
      <acc value="0.0020532621" flag="0"/>
      <vel value="0.0021960254" flag="0"/>
      <psa03 value="0.0059312741" flag="0"/>
      <psa10 value="0.0025421520" flag="0"/>
      <psa30 value="0.0005653937" flag="0"/>
    </comp>
    <comp name="--.HHN">
      <acc value="0.0026584270" flag="0"/>
      <vel value="0.0029873193" flag="0"/>
      <psa03 value="0.0093253912" flag="0"/>
      <psa10 value="0.0031320785" flag="0"/>
      <psa30 value="0.0010957226" flag="0"/>
    </comp>
    <comp name="--.HHZ">
      <acc value="0.0015962368" flag="0"/>
      <vel value="0.0015572394" flag="0"/>
      <psa03 value="0.0042546988" flag="0"/>
      <psa10 value="0.0026513324" flag="0"/>
      <psa30 value="0.0002950807" flag="0"/>
    </comp>
  </station>
  <station code="SVRH" name="SVRH" netid="KO" insttype="CMG-3T" commtype="DIG" lat="39.447" lon="31.523">
    <comp name="--.HHZ">
      <acc value="0.0050998560" flag="0"/>
      <vel value="0.0030502169" flag="0"/>
      <psa03 value="0.0117106567" flag="0"/>
      <psa10 value="0.0026708677" flag="0"/>
      <psa30 value="0.0003816248" flag="0"/>
    </comp>
    <comp name="--.HHN">
      <acc value="0.0039951949" flag="0"/>
      <vel value="0.0027945681" flag="0"/>
      <psa03 value="0.0133876834" flag="0"/>
      <psa10 value="0.0023168771" flag="0"/>
      <psa30 value="0.0003648278" flag="0"/>
    </comp>
    <comp name="--.HHE">
      <acc value="0.0056753418" flag="0"/>
      <vel value="0.0024143376" flag="0"/>
      <psa03 value="0.0161545857" flag="0"/>
      <psa10 value="0.0027626901" flag="0"/>
      <psa30 value="0.0004267266" flag="0"/>
    </comp>
  </station>
  <station code="YAYX" name="YAYX" netid="KO" insttype="CMG-6T" commtype="DIG" lat="38.9387" lon="33.8115">
    <comp name="--.HHN">
      <acc value="0.0063554134" flag="0"/>
      <vel value="0.0043025333" flag="0"/>
      <psa03 value="0.0149186824" flag="0"/>
      <psa10 value="0.0026738732" flag="0"/>
      <psa30 value="0.0002385265" flag="0"/>
    </comp>
    <comp name="--.HHZ">
      <acc value="0.0066512025" flag="0"/>
      <vel value="0.0036060476" flag="0"/>
      <psa03 value="0.0221576080" flag="0"/>
      <psa10 value="0.0025608199" flag="0"/>
      <psa30 value="0.0003005635" flag="0"/>
    </comp>
    <comp name="--.HHE">
      <acc value="0.0006326124" flag="0"/>
      <vel value="0.0000840268" flag="0"/>
      <psa03 value="0.0002265624" flag="0"/>
      <psa10 value="0.0000746635" flag="0"/>
      <psa30 value="0.0000244909" flag="0"/>
    </comp>
  </station>
</stationlist>
