<?xml version="1.0" encoding="UTF-8" standalone="yes"?>
<!DOCTYPE earthquake SYSTEM "stationlist.dtd">
<stationlist created="" xmlns="ch.ethz.sed.shakemap.usgs.xml">
  <station code="ARPRA" name="ARPRA" netid="KO" insttype="CMG-5T" lat="39.0929" lon="38.3356">
    <comp name="--.HNE">
      <acc value="0.0279521003" flag="0"/>
      <vel value="0.0121382538" flag="0"/>
      <psa03 value="0.0502999844" flag="0"/>
      <psa10 value="0.0054000029" flag="0"/>
      <psa30 value="0.0005324765" flag="0"/>
    </comp>
    <comp name="--.HNN">
      <acc value="0.0289380679" flag="0"/>
      <vel value="0.0132172353" flag="0"/>
      <psa03 value="0.0798566360" flag="0"/>
      <psa10 value="0.0059741186" flag="0"/>
      <psa30 value="0.0003439758" flag="0"/>
    </comp>
    <comp name="--.HNZ">
      <acc value="0.0228123259" flag="0"/>
      <vel value="0.0049490729" flag="0"/>
      <psa03 value="0.0273340088" flag="0"/>
      <psa10 value="0.0027946149" flag="0"/>
      <psa30 value="0.0002469578" flag="0"/>
    </comp>
  </station>
  <station code="DARE" name="DARE" netid="KO" insttype="CMG-3ESP" lat="38.5712" lon="37.4832">
    <comp name="--.HHN">
      <acc value="0.0086791422" flag="0"/>
      <vel value="0.0030104562" flag="0"/>
      <psa03 value="0.0174915135" flag="0"/>
      <psa10 value="0.0024114940" flag="0"/>
      <psa30 value="0.0002042668" flag="0"/>
    </comp>
    <comp name="--.HHZ">
      <acc value="0.0054141061" flag="0"/>
      <vel value="0.0027824719" flag="0"/>
      <psa03 value="0.0118634370" flag="0"/>
      <psa10 value="0.0030802811" flag="0"/>
      <psa30 value="0.0002066621" flag="0"/>
    </comp>
    <comp name="--.HHE">
      <acc value="0.0074959559" flag="0"/>
      <vel value="0.0032493731" flag="0"/>
      <psa03 value="0.0175119596" flag="0"/>
      <psa10 value="0.0027931327" flag="0"/>
      <psa30 value="0.0001990913" flag="0"/>
    </comp>
  </station>
  <station code="SVRC" name="SVRC" netid="KO" insttype="CMG-3T" lat="38.3775" lon="39.306">
    <comp name="--.HHE">
      <acc value="0.0247219766" flag="0"/>
      <vel value="0.0102612738" flag="0"/>
      <psa03 value="0.0789486514" flag="0"/>
      <psa10 value="0.0102690018" flag="0"/>
      <psa30 value="0.0005125348" flag="0"/>
    </comp>
    <comp name="--.HHZ">
      <acc value="0.0314093921" flag="0"/>
      <vel value="0.0120620988" flag="0"/>
      <psa03 value="0.0629324639" flag="0"/>
      <psa10 value="0.0073208552" flag="0"/>
      <psa30 value="0.0003483874" flag="0"/>
    </comp>
    <comp name="--.HHN">
      <acc value="0.0246748560" flag="0"/>
      <vel value="0.0085707248" flag="0"/>
      <psa03 value="0.0593168789" flag="0"/>
      <psa10 value="0.0053760386" flag="0"/>
      <psa30 value="0.0003855663" flag="0"/>
    </comp>
  </station>
</stationlist>
