<stationlist created="1778069750">
	<station code="KRK1" name="KRK1" netid="HI" source="ITSAK Strong Motion Network" insttype="" lat="39.618861" lon="19.9202">
		<comp name="--.HNE" depth="0.0">
			<acc value="0.0331918834954644" flag="0"/>
			<vel value="0.0133131684268751" flag="0"/>
			<psa03 value="0.0355253120549078" flag="0"/>
			<psa10 value="0.0109810797703224" flag="0"/>
			<psa30 value="0.000888580223438877" flag="0"/>
		</comp>
		<comp name="--.HNN" depth="0.0">
			<acc value="0.0278340315093164" flag="0"/>
			<vel value="0.0107497539219053" flag="0"/>
			<psa03 value="0.0405811814027725" flag="0"/>
			<psa10 value="0.00521470418135957" flag="0"/>
			<psa30 value="0.000356147964681443" flag="0"/>
		</comp>
		<comp name="--.HNZ" depth="0.0">
			<acc value="0.0176472797606677" flag="0"/>
			<vel value="0.00505398701645119" flag="0"/>
			<psa03 value="0.0304694427070431" flag="0"/>
			<psa10 value="0.00237581117143023" flag="0"/>
			<psa30 value="0.000281875901695112" flag="0"/>
		</comp>
	</station>
	<station code="LMS2" name="LMS2" netid="HI" source="ITSAK Strong Motion Network" insttype="" lat="40.834985" lon="21.141815">
		<comp name="--.HNE" depth="0.0">
			<acc value="0.00437436196846285" flag="0"/>
			<vel value="0.00295973091494961" flag="0"/>
			<psa03 value="0.00693504202583212" flag="0"/>
			<psa10 value="0.00341069841051086" flag="0"/>
			<psa30 value="0.000384335554850954" flag="0"/>
		</comp>
		<comp name="--.HNN" depth="0.0">
			<acc value="0.00522145072466181" flag="0"/>
			<vel value="0.00250403776671687" flag="0"/>
			<psa03 value="0.00756143291848793" flag="0"/>
			<psa10 value="0.00338653761893699" flag="0"/>
			<psa30 value="0.000234896584745927" flag="0"/>
		</comp>
		<comp name="--.HNZ" depth="0.0">
			<acc value="0.00256440283503784" flag="0"/>
			<vel value="0.00154915459626419" flag="0"/>
			<psa03 value="0.00384782976917137" flag="0"/>
			<psa10 value="0.00245232034474747" flag="0"/>
			<psa30 value="0.000290376920952584" flag="0"/>
		</comp>
	</station>
	<station code="AMYA" name="AMYA" netid="HL" source="National Observatory of Athens Seismic Network" insttype="" lat="40.6901" lon="21.67899">
		<comp name="00.HNE" depth="0.0">
			<acc value="0.00427805379720472" flag="0"/>
			<vel value="0.00201929502828848" flag="0"/>
			<psa03 value="0.000965416004855604" flag="0"/>
			<psa10 value="0.00125188543126713" flag="0"/>
			<psa30 value="0.000372752609697884" flag="0"/>
		</comp>
		<comp name="00.HNN" depth="0.0">
			<acc value="0.0035261223755148" flag="0"/>
			<vel value="0.00186863726825234" flag="0"/>
			<psa03 value="0.000884673432747762" flag="0"/>
			<psa10 value="0.000764246955733939" flag="0"/>
			<psa30 value="0.0002674878499656" flag="0"/>
		</comp>
		<comp name="00.HNZ" depth="0.0">
			<acc value="0.00867681502957102" flag="0"/>
			<vel value="0.000907071000612355" flag="0"/>
			<psa03 value="0.000946953600170551" flag="0"/>
			<psa10 value="0.000688339759286282" flag="0"/>
			<psa30 value="8.73528635212173e-05" flag="0"/>
		</comp>
	</station>
	<station code="JAN" name="JAN" netid="HL" source="National Observatory of Athens Seismic Network" insttype="" lat="39.65616" lon="20.84874">
		<comp name="00.HNE" depth="0.0">
			<acc value="0.00408734630311349" flag="0"/>
			<vel value="0.00273543229913887" flag="0"/>
			<psa03 value="0.0106039029685304" flag="0"/>
			<psa10 value="0.00288318779448143" flag="0"/>
			<psa30 value="0.000313642868394085" flag="0"/>
		</comp>
		<comp name="00.HNN" depth="0.0">
			<acc value="0.00347792794888281" flag="0"/>
			<vel value="0.00255014468234649" flag="0"/>
			<psa03 value="0.0112302938611862" flag="0"/>
			<psa10 value="0.00242010595598232" flag="0"/>
			<psa30 value="0.000255030577724149" flag="0"/>
		</comp>
		<comp name="00.HNZ" depth="0.0">
			<acc value="0.00259001673519034" flag="0"/>
			<vel value="0.00177266360006733" flag="0"/>
			<psa03 value="0.00581648686037533" flag="0"/>
			<psa10 value="0.00234359678266507" flag="0"/>
			<psa30 value="0.000254135733591784" flag="0"/>
		</comp>
	</station>
	<station code="NASA" name="NASA" netid="HL" source="National Observatory of Athens Seismic Network" insttype="" lat="40.63111" lon="22.06706">
		<comp name="00.HNE" depth="0.0">
			<acc value="0.00283742657981608" flag="0"/>
			<vel value="0.00177555043020655" flag="0"/>
			<psa03 value="0.00483285596026984" flag="0"/>
			<psa10 value="0.00304026851224499" flag="0"/>
			<psa30 value="0.000188961840711039" flag="0"/>
		</comp>
		<comp name="00.HNN" depth="0.0">
			<acc value="0.00222719624676569" flag="0"/>
			<vel value="0.00177298505007014" flag="0"/>
			<psa03 value="0.00522657735486934" flag="0"/>
			<psa10 value="0.00258470473962692" flag="0"/>
			<psa30 value="0.000244980681892982" flag="0"/>
		</comp>
		<comp name="00.HNZ" depth="0.0">
			<acc value="0.00239768598704981" flag="0"/>
			<vel value="0.00096234864888779" flag="0"/>
			<psa03 value="0.00271986035317936" flag="0"/>
			<psa10 value="0.00203237729127153" flag="0"/>
			<psa30 value="0.000171206784317399" flag="0"/>
		</comp>
	</station>
	<station code="PRGA" name="PRGA" netid="HL" source="National Observatory of Athens Seismic Network" insttype="" lat="39.28557" lon="20.40157">
		<comp name="00.HNE" depth="0.0">
			<acc value="0.0153116877181099" flag="0"/>
			<vel value="0.00199490963450398" flag="0"/>
			<psa03 value="0.0129047520119262" flag="0"/>
			<psa10 value="0.00135358361358531" flag="0"/>
			<psa30 value="0.000252612255155386" flag="0"/>
		</comp>
		<comp name="00.HNN" depth="0.0">
			<acc value="0.008499208704507" flag="0"/>
			<vel value="0.00254077891776017" flag="0"/>
			<psa03 value="0.01491588133309" flag="0"/>
			<psa10 value="0.00222989068806622" flag="0"/>
			<psa30 value="0.000200972271760058" flag="0"/>
		</comp>
		<comp name="00.HNZ" depth="0.0">
			<acc value="0.0186880162772249" flag="0"/>
			<vel value="0.00198339550034427" flag="0"/>
			<psa03 value="0.00421804570086793" flag="0"/>
			<psa10 value="0.00121644406001237" flag="0"/>
			<psa30 value="0.000263930635150842" flag="0"/>
		</comp>
	</station>
</stationlist>
