<?xml version="1.0" encoding="UTF-8" standalone="yes"?>
<!DOCTYPE earthquake SYSTEM "stationlist.dtd">
<stationlist created="" xmlns="ch.ethz.sed.shakemap.usgs.xml">
  <station code="KBN" name="KBN" netid="AC" insttype="" lat="40.6236" lon="20.7874">
    <comp name="--.HHE">
      <acc value="0.0046062242" flag="0"/>
      <vel value="0.0037735621" flag="0"/>
      <psa03 value="0.0105293490" flag="0"/>
      <psa10 value="0.0047908307" flag="0"/>
      <psa30 value="0.0003377991" flag="0"/>
    </comp>
    <comp name="--.HHN">
      <acc value="0.0086051425" flag="0"/>
      <vel value="0.0072102660" flag="0"/>
      <psa03 value="0.0148576172" flag="0"/>
      <psa10 value="0.0106929426" flag="0"/>
      <psa30 value="0.0006363441" flag="0"/>
    </comp>
    <comp name="--.HHZ">
      <acc value="0.0027990000" flag="0"/>
      <vel value="0.0022351259" flag="0"/>
      <psa03 value="0.0052251629" flag="0"/>
      <psa10 value="0.0039843690" flag="0"/>
      <psa30 value="0.0002413931" flag="0"/>
    </comp>
  </station>
  <station code="PHP" name="PHP" netid="AC" insttype="" lat="41.6847" lon="20.4408">
    <comp name="--.HHE">
      <acc value="0.0904946731" flag="0"/>
      <vel value="0.0064853457" flag="0"/>
      <psa03 value="0.0321253194" flag="0"/>
      <psa10 value="0.0149760082" flag="0"/>
      <psa30 value="0.0013187609" flag="0"/>
    </comp>
    <comp name="--.HHN">
      <acc value="0.0129153425" flag="0"/>
      <vel value="0.0043831099" flag="0"/>
      <psa03 value="0.0236293053" flag="0"/>
      <psa10 value="0.0032362099" flag="0"/>
      <psa30 value="0.0002781490" flag="0"/>
    </comp>
    <comp name="--.HHZ">
      <acc value="0.0057435437" flag="0"/>
      <vel value="0.0030134982" flag="0"/>
      <psa03 value="0.0080755428" flag="0"/>
      <psa10 value="0.0051165000" flag="0"/>
      <psa30 value="0.0003085612" flag="0"/>
    </comp>
  </station>
  <station code="VLO" name="VLO" netid="AC" insttype="" lat="40.4686" lon="19.4955">
    <comp name="--.HHE">
      <acc value="0.1216846257" flag="0"/>
      <vel value="0.0344926436" flag="0"/>
      <psa03 value="0.2370620368" flag="0"/>
      <psa10 value="0.0243638590" flag="0"/>
      <psa30 value="0.0018729600" flag="0"/>
    </comp>
    <comp name="--.HHN">
      <acc value="0.1674811992" flag="0"/>
      <vel value="0.0396878068" flag="0"/>
      <psa03 value="0.2513839515" flag="0"/>
      <psa10 value="0.0303862638" flag="0"/>
      <psa30 value="0.0016702649" flag="0"/>
    </comp>
    <comp name="--.HHZ">
      <acc value="0.0533040973" flag="0"/>
      <vel value="0.0223638121" flag="0"/>
      <psa03 value="0.1578867306" flag="0"/>
      <psa10 value="0.0188036057" flag="0"/>
      <psa30 value="0.0015255160" flag="0"/>
    </comp>
  </station>
  <station code="KEK" name="KEK" netid="HL" insttype="120" lat="39.7127" lon="19.7962">
    <comp name="--.HHE">
      <acc value="0.0117876538" flag="0"/>
      <vel value="0.0044669090" flag="0"/>
      <psa03 value="0.0174195790" flag="0"/>
      <psa10 value="0.0082070973" flag="0"/>
      <psa30 value="0.0004662610" flag="0"/>
    </comp>
    <comp name="--.HHN">
      <acc value="0.0064651889" flag="0"/>
      <vel value="0.0028533666" flag="0"/>
      <psa03 value="0.0114959211" flag="0"/>
      <psa10 value="0.0036167315" flag="0"/>
      <psa30 value="0.0003135083" flag="0"/>
    </comp>
    <comp name="--.HHZ">
      <acc value="0.0063192199" flag="0"/>
      <vel value="0.0029258017" flag="0"/>
      <psa03 value="0.0109267612" flag="0"/>
      <psa10 value="0.0035814869" flag="0"/>
      <psa30 value="0.0002016997" flag="0"/>
    </comp>
  </station>
  <station code="KEK" name="KEK" netid="MN" insttype="" lat="39.7127" lon="19.7962">
    <comp name="--.HHE">
      <acc value="0.0117876457" flag="0"/>
      <vel value="0.0044669059" flag="0"/>
      <psa03 value="0.0174195670" flag="0"/>
      <psa10 value="0.0082070916" flag="0"/>
      <psa30 value="0.0004662607" flag="0"/>
    </comp>
    <comp name="--.HHN">
      <acc value="0.0064651845" flag="0"/>
      <vel value="0.0028533646" flag="0"/>
      <psa03 value="0.0114959131" flag="0"/>
      <psa10 value="0.0036167290" flag="0"/>
      <psa30 value="0.0003135081" flag="0"/>
    </comp>
    <comp name="--.HHZ">
      <acc value="0.0063192155" flag="0"/>
      <vel value="0.0029257997" flag="0"/>
      <psa03 value="0.0109267537" flag="0"/>
      <psa10 value="0.0035814844" flag="0"/>
      <psa30 value="0.0002016996" flag="0"/>
    </comp>
  </station>
  <station code="TIR" name="TIR" netid="MN" insttype="" lat="41.3472" lon="19.8631">
    <comp name="--.HHE">
      <acc value="0.0539249589" flag="0"/>
      <vel value="0.0210215686" flag="0"/>
      <psa03 value="0.0819358318" flag="0"/>
      <psa10 value="0.0305281685" flag="0"/>
      <psa30 value="0.0014778680" flag="0"/>
    </comp>
    <comp name="--.HHN">
      <acc value="0.1164582015" flag="0"/>
      <vel value="0.0387854763" flag="0"/>
      <psa03 value="0.0983819625" flag="0"/>
      <psa10 value="0.0419036320" flag="0"/>
      <psa30 value="0.0024559577" flag="0"/>
    </comp>
    <comp name="--.HHZ">
      <acc value="0.0577295171" flag="0"/>
      <vel value="0.0213157419" flag="0"/>
      <psa03 value="0.0688684748" flag="0"/>
      <psa10 value="0.0210374345" flag="0"/>
      <psa30 value="0.0013097227" flag="0"/>
    </comp>
  </station>
</stationlist>
