<?xml version="1.0" encoding="UTF-8" standalone="yes"?>
<!DOCTYPE earthquake SYSTEM "stationlist.dtd">
<stationlist created="" xmlns="ch.ethz.sed.shakemap.usgs.xml">
  <station code="IMMV" name="IMMV" netid="GE" insttype="STS-2/N" lat="35.4606" lon="23.9811">
    <comp name="--.HHN">
      <acc value="0.0254248589" flag="0"/>
      <vel value="0.0195654634" flag="0"/>
      <psa03 value="0.0959230175" flag="0"/>
      <psa10 value="0.0174862431" flag="0"/>
      <psa30 value="0.0010724487" flag="0"/>
    </comp>
    <comp name="--.HHZ">
      <acc value="0.0177590089" flag="0"/>
      <vel value="0.0099143403" flag="0"/>
      <psa03 value="0.0510595851" flag="0"/>
      <psa10 value="0.0074126130" flag="0"/>
      <psa30 value="0.0006672857" flag="0"/>
    </comp>
  </station>
  <station code="CHAN" name="CHAN" netid="HC" insttype="120" lat="35.5193" lon="24.0428">
    <comp name="--.HHZ">
      <acc value="0.0254144907" flag="0"/>
      <vel value="0.0153366790" flag="0"/>
      <psa03 value="0.0642522508" flag="0"/>
      <psa10 value="0.0166583210" flag="0"/>
      <psa30 value="0.0007615269" flag="0"/>
    </comp>
    <comp name="--.HHE">
      <acc value="0.0265343261" flag="0"/>
      <vel value="0.0207356869" flag="0"/>
      <psa03 value="0.0749537319" flag="0"/>
      <psa10 value="0.0252713058" flag="0"/>
      <psa30 value="0.0015616354" flag="0"/>
    </comp>
    <comp name="--.HHN">
      <acc value="0.0239303615" flag="0"/>
      <vel value="0.0190666750" flag="0"/>
      <psa03 value="0.0734571865" flag="0"/>
      <psa10 value="0.0223805274" flag="0"/>
      <psa30 value="0.0021410774" flag="0"/>
    </comp>
  </station>
  <station code="DEYA" name="DEYA" netid="HC" insttype="DC" lat="35.4825" lon="24.014">
    <comp name="--.HNE">
      <acc value="0.0043415124" flag="0"/>
      <vel value="0.0035276524" flag="0"/>
      <psa03 value="0.0128488217" flag="0"/>
      <psa10 value="0.0030332224" flag="0"/>
      <psa30 value="0.0002330866" flag="0"/>
    </comp>
    <comp name="--.HNN">
      <acc value="0.0039645719" flag="0"/>
      <vel value="0.0026761646" flag="0"/>
      <psa03 value="0.0075184637" flag="0"/>
      <psa10 value="0.0038211763" flag="0"/>
      <psa30 value="0.0001586489" flag="0"/>
    </comp>
    <comp name="--.HNZ">
      <acc value="0.0023975228" flag="0"/>
      <vel value="0.0016486998" flag="0"/>
      <psa03 value="0.0062529157" flag="0"/>
      <psa10 value="0.0017118642" flag="0"/>
      <psa30 value="0.0001333933" flag="0"/>
    </comp>
  </station>
  <station code="GVDS" name="GVDS" netid="HC" insttype="60" lat="34.8389" lon="24.0585">
    <comp name="--.HHE">
      <acc value="0.0864741576" flag="0"/>
      <vel value="0.0269376151" flag="0"/>
      <psa03 value="0.1427575565" flag="0"/>
      <psa10 value="0.0105544912" flag="0"/>
      <psa30 value="0.0009322232" flag="0"/>
    </comp>
    <comp name="--.HHN">
      <acc value="0.0988643397" flag="0"/>
      <vel value="0.0392474256" flag="0"/>
      <psa03 value="0.2193025819" flag="0"/>
      <psa10 value="0.0157987751" flag="0"/>
      <psa30 value="0.0016192486" flag="0"/>
    </comp>
    <comp name="--.HHZ">
      <acc value="0.0583191588" flag="0"/>
      <vel value="0.0159691104" flag="0"/>
      <psa03 value="0.1076677259" flag="0"/>
      <psa10 value="0.0071079918" flag="0"/>
      <psa30 value="0.0005085521" flag="0"/>
    </comp>
  </station>
  <station code="IMOD" name="IMOD" netid="HC" insttype="120" lat="34.9731" lon="24.7995">
    <comp name="--.HHE">
      <acc value="0.0161511387" flag="0"/>
      <vel value="0.0135628893" flag="0"/>
      <psa03 value="0.0278449716" flag="0"/>
      <psa10 value="0.0135729057" flag="0"/>
      <psa30 value="0.0007550623" flag="0"/>
    </comp>
    <comp name="--.HHN">
      <acc value="0.0213233818" flag="0"/>
      <vel value="0.0169640950" flag="0"/>
      <psa03 value="0.0398480693" flag="0"/>
      <psa10 value="0.0138294771" flag="0"/>
      <psa30 value="0.0008030222" flag="0"/>
    </comp>
    <comp name="--.HHZ">
      <acc value="0.0167899534" flag="0"/>
      <vel value="0.0068702800" flag="0"/>
      <psa03 value="0.0374352535" flag="0"/>
      <psa10 value="0.0026419808" flag="0"/>
      <psa30 value="0.0003265056" flag="0"/>
    </comp>
  </station>
  <station code="IPPL" name="IPPL" netid="HC" insttype="60" lat="35.3486" lon="24.4632">
    <comp name="--.HHE">
      <acc value="0.0000000000" flag="0"/>
      <vel value="-100.0000000000" flag="0"/>
      <psa03 value="0.0000000000" flag="0"/>
      <psa10 value="0.0000000000" flag="0"/>
      <psa30 value="0.0000000000" flag="0"/>
    </comp>
    <comp name="--.HHN">
      <acc value="0.0000000000" flag="0"/>
      <vel value="-100.0000000000" flag="0"/>
      <psa03 value="0.0000000000" flag="0"/>
      <psa10 value="0.0000000000" flag="0"/>
      <psa30 value="0.0000000000" flag="0"/>
    </comp>
    <comp name="--.HHZ">
      <acc value="0.0095172829" flag="0"/>
      <vel value="0.0059175486" flag="0"/>
      <psa03 value="0.0275038487" flag="0"/>
      <psa10 value="0.0042533662" flag="0"/>
      <psa30 value="0.0005787514" flag="0"/>
    </comp>
  </station>
  <station code="KNDR" name="KNDR" netid="HC" insttype="120" lat="35.2348" lon="23.6248">
    <comp name="--.HHE">
      <acc value="0.0396383010" flag="0"/>
      <vel value="0.0237368458" flag="0"/>
      <psa03 value="0.1650537415" flag="0"/>
      <psa10 value="0.0207099925" flag="0"/>
      <psa30 value="0.0012453742" flag="0"/>
    </comp>
    <comp name="--.HHN">
      <acc value="0.0653043021" flag="0"/>
      <vel value="0.0394331753" flag="0"/>
      <psa03 value="0.1859944441" flag="0"/>
      <psa10 value="0.0179922361" flag="0"/>
      <psa30 value="0.0017060059" flag="0"/>
    </comp>
    <comp name="--.HHZ">
      <acc value="0.0296529448" flag="0"/>
      <vel value="0.0144509514" flag="0"/>
      <psa03 value="0.0752604783" flag="0"/>
      <psa10 value="0.0100556068" flag="0"/>
      <psa30 value="0.0004706037" flag="0"/>
    </comp>
  </station>
  <station code="RODP" name="RODP" netid="HC" insttype="120" lat="35.5604" lon="23.7577">
    <comp name="--.HHE">
      <acc value="0.0205112334" flag="0"/>
      <vel value="0.0122775231" flag="0"/>
      <psa03 value="0.0869623252" flag="0"/>
      <psa10 value="0.0096895515" flag="0"/>
      <psa30 value="0.0005202065" flag="0"/>
    </comp>
    <comp name="--.HHZ">
      <acc value="0.0091919204" flag="0"/>
      <vel value="0.0064557095" flag="0"/>
      <psa03 value="0.0403370126" flag="0"/>
      <psa10 value="0.0042810701" flag="0"/>
      <psa30 value="0.0003138858" flag="0"/>
    </comp>
    <comp name="--.HHN">
      <acc value="0.0170905096" flag="0"/>
      <vel value="0.0109140384" flag="0"/>
      <psa03 value="0.0542628150" flag="0"/>
      <psa10 value="0.0068156016" flag="0"/>
      <psa30 value="0.0005071266" flag="0"/>
    </comp>
  </station>
  <station code="ANKY" name="ANKY" netid="HL" insttype="60" lat="35.867" lon="23.3012">
    <comp name="--.HHN">
      <acc value="0.0034914228" flag="0"/>
      <vel value="0.0031899460" flag="0"/>
      <psa03 value="0.0080559946" flag="0"/>
      <psa10 value="0.0053701416" flag="0"/>
      <psa30 value="0.0004121941" flag="0"/>
    </comp>
    <comp name="--.HHZ">
      <acc value="0.0027086512" flag="0"/>
      <vel value="0.0015074265" flag="0"/>
      <psa03 value="0.0070011432" flag="0"/>
      <psa10 value="0.0027458477" flag="0"/>
      <psa30 value="0.0002088975" flag="0"/>
    </comp>
    <comp name="--.HHE">
      <acc value="0.0029505785" flag="0"/>
      <vel value="0.0028271506" flag="0"/>
      <psa03 value="0.0093772702" flag="0"/>
      <psa10 value="0.0041553040" flag="0"/>
      <psa30 value="0.0003392687" flag="0"/>
    </comp>
  </station>
  <station code="GVD" name="GVD" netid="HL" insttype="120" lat="34.8391" lon="24.0874">
    <comp name="--.HHE">
      <acc value="0.2495152274" flag="0"/>
      <vel value="0.0638287618" flag="0"/>
      <psa03 value="0.3230011304" flag="0"/>
      <psa10 value="0.0234526523" flag="0"/>
      <psa30 value="0.0023186373" flag="0"/>
    </comp>
    <comp name="--.HHZ">
      <acc value="0.1085929188" flag="0"/>
      <vel value="0.0271937089" flag="0"/>
      <psa03 value="0.1806999078" flag="0"/>
      <psa10 value="0.0117777724" flag="0"/>
      <psa30 value="0.0008827483" flag="0"/>
    </comp>
    <comp name="--.HHN">
      <acc value="0.1294900734" flag="0"/>
      <vel value="0.0666793009" flag="0"/>
      <psa03 value="0.4055542138" flag="0"/>
      <psa10 value="0.0235695065" flag="0"/>
      <psa30 value="0.0021227961" flag="0"/>
    </comp>
  </station>
  <station code="IDI" name="IDI" netid="HL" insttype="120" lat="35.288" lon="24.89">
    <comp name="--.HHE">
      <acc value="0.0035844224" flag="0"/>
      <vel value="0.0027700081" flag="0"/>
      <psa03 value="0.0124192285" flag="0"/>
      <psa10 value="0.0018606593" flag="0"/>
      <psa30 value="0.0001573847" flag="0"/>
    </comp>
    <comp name="--.HHZ">
      <acc value="0.0025852567" flag="0"/>
      <vel value="0.0020511758" flag="0"/>
      <psa03 value="0.0101389862" flag="0"/>
      <psa10 value="0.0015824726" flag="0"/>
      <psa30 value="0.0002183614" flag="0"/>
    </comp>
    <comp name="--.HHN">
      <acc value="0.0033133345" flag="0"/>
      <vel value="0.0019895767" flag="0"/>
      <psa03 value="0.0085341697" flag="0"/>
      <psa10 value="0.0019330152" flag="0"/>
      <psa30 value="0.0002112774" flag="0"/>
    </comp>
  </station>
  <station code="IMMV" name="IMMV" netid="HL" insttype="120" lat="35.4606" lon="23.9811">
    <comp name="--.HHE">
      <acc value="0.0239465762" flag="0"/>
      <vel value="0.0174210413" flag="0"/>
      <psa03 value="0.0721151150" flag="0"/>
      <psa10 value="0.0113641188" flag="0"/>
      <psa30 value="0.0006850658" flag="0"/>
    </comp>
    <comp name="--.HHN">
      <acc value="0.0249591863" flag="0"/>
      <vel value="0.0191933492" flag="0"/>
      <psa03 value="0.0935768237" flag="0"/>
      <psa10 value="0.0173767760" flag="0"/>
      <psa30 value="0.0010618483" flag="0"/>
    </comp>
    <comp name="--.HHZ">
      <acc value="0.0172482517" flag="0"/>
      <vel value="0.0096885643" flag="0"/>
      <psa03 value="0.0496386987" flag="0"/>
      <psa10 value="0.0073587709" flag="0"/>
      <psa30 value="0.0006617586" flag="0"/>
    </comp>
  </station>
  <station code="SIVA" name="SIVA" netid="HL" insttype="60" lat="35.0178" lon="24.812">
    <comp name="--.HHN">
      <acc value="0.0124981682" flag="0"/>
      <vel value="0.0084340428" flag="0"/>
      <psa03 value="0.0326521488" flag="0"/>
      <psa10 value="0.0088018128" flag="0"/>
      <psa30 value="0.0006065754" flag="0"/>
    </comp>
    <comp name="--.HHE">
      <acc value="0.0202783322" flag="0"/>
      <vel value="0.0168474688" flag="0"/>
      <psa03 value="0.0487490974" flag="0"/>
      <psa10 value="0.0236180610" flag="0"/>
      <psa30 value="0.0008570116" flag="0"/>
    </comp>
    <comp name="--.HHZ">
      <acc value="0.0108821793" flag="0"/>
      <vel value="0.0060371318" flag="0"/>
      <psa03 value="0.0250371729" flag="0"/>
      <psa10 value="0.0049100558" flag="0"/>
      <psa30 value="0.0004147638" flag="0"/>
    </comp>
  </station>
  <station code="VAM" name="VAM" netid="HL" insttype="CMG3ESPC-120s" lat="35.407" lon="24.1997">
    <comp name="--.HHE">
      <acc value="0.0250637865" flag="0"/>
      <vel value="0.0106196586" flag="0"/>
      <psa03 value="0.0623262821" flag="0"/>
      <psa10 value="0.0155852729" flag="0"/>
      <psa30 value="0.0009378310" flag="0"/>
    </comp>
    <comp name="--.HHN">
      <acc value="0.0366486503" flag="0"/>
      <vel value="0.0145537005" flag="0"/>
      <psa03 value="0.1059593472" flag="0"/>
      <psa10 value="0.0188716889" flag="0"/>
      <psa30 value="0.0005971460" flag="0"/>
    </comp>
    <comp name="--.HHZ">
      <acc value="0.0167725372" flag="0"/>
      <vel value="0.0083911650" flag="0"/>
      <psa03 value="0.0470964014" flag="0"/>
      <psa10 value="0.0068959461" flag="0"/>
      <psa30 value="0.0007893572" flag="0"/>
    </comp>
  </station>
  <station code="IDI" name="IDI" netid="MN" insttype="" lat="35.288" lon="24.89">
    <comp name="--.HHZ">
      <acc value="0.0026777509" flag="0"/>
      <vel value="0.0020584943" flag="0"/>
      <psa03 value="0.0101762138" flag="0"/>
      <psa10 value="0.0015723103" flag="0"/>
      <psa30 value="0.0002159148" flag="0"/>
    </comp>
    <comp name="--.HHN">
      <acc value="0.0034088953" flag="0"/>
      <vel value="0.0019942308" flag="0"/>
      <psa03 value="0.0086481115" flag="0"/>
      <psa10 value="0.0019243431" flag="0"/>
      <psa30 value="0.0002094804" flag="0"/>
    </comp>
    <comp name="--.HHE">
      <acc value="0.0036015564" flag="0"/>
      <vel value="0.0027736116" flag="0"/>
      <psa03 value="0.0126391237" flag="0"/>
      <psa10 value="0.0018481931" flag="0"/>
      <psa30 value="0.0001563565" flag="0"/>
    </comp>
  </station>
</stationlist>
