<?xml version="1.0" encoding="UTF-8" standalone="yes"?>
<!DOCTYPE earthquake SYSTEM "stationlist.dtd">
<stationlist created="" xmlns="ch.ethz.sed.shakemap.usgs.xml">
  <station code="GVD" name="GVD" netid="GE" insttype="STS-2/N" lat="34.8391" lon="24.0874">
    <comp name="--.HHE">
      <acc value="0.1010412283" flag="0"/>
      <vel value="0.0405305271" flag="0"/>
      <psa03 value="0.2338963573" flag="0"/>
      <psa10 value="0.0235738166" flag="0"/>
      <psa30 value="0.0022831315" flag="0"/>
    </comp>
    <comp name="--.HHN">
      <acc value="0.1043128521" flag="0"/>
      <vel value="0.0358505539" flag="0"/>
      <psa03 value="0.3042257987" flag="0"/>
      <psa10 value="0.0183872033" flag="0"/>
      <psa30 value="0.0017388956" flag="0"/>
    </comp>
    <comp name="--.HHZ">
      <acc value="0.0502363864" flag="0"/>
      <vel value="0.0154261065" flag="0"/>
      <psa03 value="0.1088047223" flag="0"/>
      <psa10 value="0.0137396357" flag="0"/>
      <psa30 value="0.0007782695" flag="0"/>
    </comp>
  </station>
  <station code="IMMV" name="IMMV" netid="GE" insttype="STS-2/N" lat="35.4606" lon="23.9811">
    <comp name="--.HHE">
      <acc value="0.0121707321" flag="0"/>
      <vel value="0.0084808503" flag="0"/>
      <psa03 value="0.0502277877" flag="0"/>
      <psa10 value="0.0132948601" flag="0"/>
      <psa30 value="0.0006827648" flag="0"/>
    </comp>
    <comp name="--.HHZ">
      <acc value="0.0134026631" flag="0"/>
      <vel value="0.0076539423" flag="0"/>
      <psa03 value="0.0423294160" flag="0"/>
      <psa10 value="0.0080153828" flag="0"/>
      <psa30 value="0.0008504997" flag="0"/>
    </comp>
    <comp name="--.HHN">
      <acc value="0.0198298203" flag="0"/>
      <vel value="0.0125091533" flag="0"/>
      <psa03 value="0.0529025738" flag="0"/>
      <psa10 value="0.0121636303" flag="0"/>
      <psa30 value="0.0008691567" flag="0"/>
    </comp>
  </station>
  <station code="GVDS" name="GVDS" netid="HC" insttype="60" lat="34.8389" lon="24.0585">
    <comp name="--.HHZ">
      <acc value="0.0380177809" flag="0"/>
      <vel value="0.0101125839" flag="0"/>
      <psa03 value="0.0543877193" flag="0"/>
      <psa10 value="0.0075345506" flag="0"/>
      <psa30 value="0.0005576497" flag="0"/>
    </comp>
    <comp name="--.HHE">
      <acc value="0.0772361464" flag="0"/>
      <vel value="0.0292723242" flag="0"/>
      <psa03 value="0.1298312827" flag="0"/>
      <psa10 value="0.0112766381" flag="0"/>
      <psa30 value="0.0009354993" flag="0"/>
    </comp>
    <comp name="--.HHN">
      <acc value="0.0926019026" flag="0"/>
      <vel value="0.0313305755" flag="0"/>
      <psa03 value="0.1734520220" flag="0"/>
      <psa10 value="0.0247111572" flag="0"/>
      <psa30 value="0.0016783180" flag="0"/>
    </comp>
  </station>
  <station code="IMOD" name="IMOD" netid="HC" insttype="120" lat="34.9731" lon="24.7995">
    <comp name="--.HHE">
      <acc value="0.0058067497" flag="0"/>
      <vel value="0.0039826933" flag="0"/>
      <psa03 value="0.0258638210" flag="0"/>
      <psa10 value="0.0060125371" flag="0"/>
      <psa30 value="0.0003804144" flag="0"/>
    </comp>
    <comp name="--.HHN">
      <acc value="0.0083256496" flag="0"/>
      <vel value="0.0054475899" flag="0"/>
      <psa03 value="0.0390910520" flag="0"/>
      <psa10 value="0.0059657373" flag="0"/>
      <psa30 value="0.0004012694" flag="0"/>
    </comp>
    <comp name="--.HHZ">
      <acc value="0.0036955735" flag="0"/>
      <vel value="0.0030635028" flag="0"/>
      <psa03 value="0.0182474946" flag="0"/>
      <psa10 value="0.0051203305" flag="0"/>
      <psa30 value="0.0003015627" flag="0"/>
    </comp>
  </station>
  <station code="KNDR" name="KNDR" netid="HC" insttype="120" lat="35.2348" lon="23.6248">
    <comp name="--.HHE">
      <acc value="0.0416503061" flag="0"/>
      <vel value="0.0296973473" flag="0"/>
      <psa03 value="0.1296700676" flag="0"/>
      <psa10 value="0.0265445302" flag="0"/>
      <psa30 value="0.0012368841" flag="0"/>
    </comp>
    <comp name="--.HHN">
      <acc value="0.0421107207" flag="0"/>
      <vel value="0.0218265428" flag="0"/>
      <psa03 value="0.1583099643" flag="0"/>
      <psa10 value="0.0235654381" flag="0"/>
      <psa30 value="0.0011962731" flag="0"/>
    </comp>
    <comp name="--.HHZ">
      <acc value="0.0285300949" flag="0"/>
      <vel value="0.0126569823" flag="0"/>
      <psa03 value="0.0818673725" flag="0"/>
      <psa10 value="0.0102510808" flag="0"/>
      <psa30 value="0.0007899455" flag="0"/>
    </comp>
  </station>
  <station code="RODP" name="RODP" netid="HC" insttype="120" lat="35.5604" lon="23.7577">
    <comp name="--.HHE">
      <acc value="0.0134984727" flag="0"/>
      <vel value="0.0111245705" flag="0"/>
      <psa03 value="0.0417781959" flag="0"/>
      <psa10 value="0.0177139559" flag="0"/>
      <psa30 value="0.0007853096" flag="0"/>
    </comp>
    <comp name="--.HHZ">
      <acc value="0.0063715367" flag="0"/>
      <vel value="0.0054330442" flag="0"/>
      <psa03 value="0.0205044098" flag="0"/>
      <psa10 value="0.0040778446" flag="0"/>
      <psa30 value="0.0006087493" flag="0"/>
    </comp>
    <comp name="--.HHN">
      <acc value="0.0137250196" flag="0"/>
      <vel value="0.0087470647" flag="0"/>
      <psa03 value="0.0563664797" flag="0"/>
      <psa10 value="0.0059871163" flag="0"/>
      <psa30 value="0.0007463524" flag="0"/>
    </comp>
  </station>
  <station code="GVD" name="GVD" netid="HL" insttype="120" lat="34.8391" lon="24.0874">
    <comp name="--.HHN">
      <acc value="0.1012851644" flag="0"/>
      <vel value="0.0354511107" flag="0"/>
      <psa03 value="0.2953026147" flag="0"/>
      <psa10 value="0.0181746324" flag="0"/>
      <psa30 value="0.0017214367" flag="0"/>
    </comp>
    <comp name="--.HHE">
      <acc value="0.0986060820" flag="0"/>
      <vel value="0.0393962178" flag="0"/>
      <psa03 value="0.2272145648" flag="0"/>
      <psa10 value="0.0233080622" flag="0"/>
      <psa30 value="0.0022574032" flag="0"/>
    </comp>
    <comp name="--.HHZ">
      <acc value="0.0485955389" flag="0"/>
      <vel value="0.0152083007" flag="0"/>
      <psa03 value="0.1056386991" flag="0"/>
      <psa10 value="0.0135978094" flag="0"/>
      <psa30 value="0.0007680772" flag="0"/>
    </comp>
  </station>
  <station code="IMMV" name="IMMV" netid="HL" insttype="120" lat="35.4606" lon="23.9811">
    <comp name="--.HHZ">
      <acc value="0.0131280621" flag="0"/>
      <vel value="0.0075655202" flag="0"/>
      <psa03 value="0.0410507155" flag="0"/>
      <psa10 value="0.0079289575" flag="0"/>
      <psa30 value="0.0008463580" flag="0"/>
    </comp>
    <comp name="--.HHE">
      <acc value="0.0117990369" flag="0"/>
      <vel value="0.0083916010" flag="0"/>
      <psa03 value="0.0488546550" flag="0"/>
      <psa10 value="0.0132164232" flag="0"/>
      <psa30 value="0.0006801737" flag="0"/>
    </comp>
    <comp name="--.HHN">
      <acc value="0.0193894674" flag="0"/>
      <vel value="0.0122731330" flag="0"/>
      <psa03 value="0.0513698200" flag="0"/>
      <psa10 value="0.0120706991" flag="0"/>
      <psa30 value="0.0008629868" flag="0"/>
    </comp>
  </station>
</stationlist>
